201911010000 METAR LRBC 010000Z 00000KT 9999 SCT050 M01/M01 Q1026=
201911010030 METAR LRBC 010030Z 00000KT 9999 SCT050 M01/M01 Q1026=
201911010100 METAR LRBC 010100Z 00000KT 9999 SCT050 M00/M01 Q1026=
201911010130 METAR LRBC 010130Z AUTO 09002KT 040V170 9999 NCD M01/M01
                        Q1026=
201911010200 METAR LRBC 010200Z 21002KT 180V270 9999 SCT050 M01/M01 Q1026=
201911010230 METAR LRBC 010230Z 21002KT 9999 SCT050 M01/M01 Q1026=
201911010300 METAR LRBC 010300Z 00000KT 8000 SCT050 M01/M01 Q1026=
201911010330 METAR LRBC 010330Z 12001KT 9000 BKN055 M02/M02 Q1026=
201911010400 METAR LRBC 010400Z 00000KT 8000 SCT060 M02/M02 Q1026=
201911010430 METAR LRBC 010430Z VRB01KT 9999 SCT060 M02/M02 Q1026=
201911010500 METAR LRBC 010500Z 00000KT 9000 FEW065 M02/M02 Q1026=
201911010530 METAR LRBC 010530Z 33001KT 9999 FEW060 M01/M01 Q1026=
201911010600 METAR LRBC 010600Z 27002KT 9999 SCT055 M01/M01 Q1027=
201911010630 METAR LRBC 010630Z 00000KT 9999 SCT055 02/01 Q1027=
201911010700 METAR LRBC 010700Z VRB02KT CAVOK 02/01 Q1027=
201911010730 METAR LRBC 010730Z VRB01KT CAVOK 03/01 Q1027=
201911010800 METAR LRBC 010800Z 15002KT 070V230 CAVOK 05/02 Q1026=
201911010830 METAR LRBC 010830Z 15002KT 080V240 CAVOK 05/01 Q1026=
201911010900 METAR LRBC 010900Z 15004KT 090V200 CAVOK 06/01 Q1026=
201911010930 METAR LRBC 010930Z 14006KT 110V170 CAVOK 07/M00 Q1026=
201911011000 METAR LRBC 011000Z 16006KT 130V190 CAVOK 08/M04 Q1026=
201911011030 METAR LRBC 011030Z 13007KT 100V170 CAVOK 08/M05 Q1025=
201911011100 METAR LRBC 011100Z 15006KT 110V190 9999 NCD 08/M04 Q1025=
201911011130 METAR LRBC 011130Z 14006KT 100V160 CAVOK 08/M03 Q1025=
201911011200 METAR COR LRBC 011200Z 13006KT 100V190 CAVOK 09/M02 Q1025=
201911011230 METAR LRBC 011230Z 17007KT CAVOK 08/M02 Q1024=
201911011300 METAR LRBC 011300Z 16005KT 140V200 CAVOK 08/M02 Q1024=
201911011330 METAR LRBC 011330Z 17007KT CAVOK 08/M02 Q1024=
201911011400 METAR LRBC 011400Z 18008KT CAVOK 07/M01 Q1024=
201911011430 METAR LRBC 011430Z 17008KT CAVOK 06/M02 Q1024=
201911011500 METAR LRBC 011500Z 17007KT CAVOK 04/M01 Q1024=
201911011530 METAR LRBC 011530Z 18005KT CAVOK 03/M01 Q1024=
201911011600 METAR LRBC 011600Z 16005KT CAVOK 04/M01 Q1024=
201911011630 METAR LRBC 011630Z 16006KT CAVOK 03/M01 Q1024=
201911011700 METAR LRBC 011700Z 17007KT CAVOK 02/M02 Q1024=
201911011730 METAR LRBC 011730Z 16007KT CAVOK 02/M02 Q1024=
201911011800 METAR LRBC 011800Z 16007KT CAVOK 02/M02 Q1024=
201911011830 METAR LRBC 011830Z 17008KT CAVOK 02/M02 Q1024=
201911011900 METAR LRBC 011900Z 16009KT CAVOK 02/M02 Q1024=
201911011930 METAR LRBC 011930Z AUTO 17009KT 9999 NCD 02/M01 Q1024=
201911012000 METAR LRBC 012000Z 17008KT CAVOK 01/M01 Q1024=
201911012030 METAR LRBC 012030Z 17009KT CAVOK 01/M01 Q1024=
201911012100 METAR LRBC 012100Z 17009KT CAVOK 01/M01 Q1023=
201911012130 METAR LRBC 012130Z 17009KT CAVOK 01/M01 Q1023=
201911012200 METAR LRBC 012200Z 18008KT CAVOK 01/M01 Q1023=
201911012230 METAR LRBC 012230Z 17009KT CAVOK 01/M01 Q1022=
201911012300 METAR COR LRBC 012300Z 17009KT CAVOK 01/M01 Q1022=
201911012330 METAR LRBC 012330Z 17009KT CAVOK 01/M01 Q1022=
201911020000 METAR COR LRBC 020000Z 17011KT CAVOK 01/M01 Q1021=
201911020030 METAR LRBC 020030Z AUTO 16009KT 9999 NCD 00/M01 Q1021=
201911020100 METAR LRBC 020100Z AUTO 16010KT 9999 NCD 00/M01 Q1021=
201911020130 METAR LRBC 020130Z 16012KT CAVOK 00/M01 Q1020=
201911020200 METAR LRBC 020200Z AUTO 16010KT 9999 NCD M00/M01 Q1020=
201911020230 METAR LRBC 020230Z AUTO 16011KT 9999 NCD 00/M01 Q1020=
201911020300 METAR LRBC 020300Z 16011KT CAVOK 00/M01 Q1019=
201911020330 METAR LRBC 020330Z AUTO 16012KT 9999 NCD 00/M01 Q1019=
201911020400 METAR LRBC 020400Z 16013KT CAVOK 01/M01 Q1019=
201911020430 METAR LRBC 020430Z 17012KT CAVOK 00/M01 Q1018=
201911020500 METAR LRBC 020500Z 17014KT CAVOK 00/M01 Q1018=
201911020530 METAR LRBC 020530Z 17013KT CAVOK 01/M01 Q1018=
201911020600 METAR LRBC 020600Z 17014KT CAVOK 01/M00 Q1018=
201911020630 METAR LRBC 020630Z 17015KT CAVOK 03/00 Q1017=
201911020700 METAR LRBC 020700Z 16015KT CAVOK 03/01 Q1017=
201911020730 METAR LRBC 020730Z 16015KT CAVOK 05/02 Q1017=
201911020800 METAR LRBC 020800Z 16016KT CAVOK 06/04 Q1017=
201911020830 METAR LRBC 020830Z 16015KT CAVOK 07/05 Q1017=
201911020900 METAR LRBC 020900Z 16018KT CAVOK 08/06 Q1016=
201911020930 METAR LRBC 020930Z 15017KT CAVOK 08/06 Q1016=
201911021000 METAR LRBC 021000Z 15019KT CAVOK 09/06 Q1015=
201911021030 METAR LRBC 021030Z 16020KT CAVOK 09/06 Q1015=
201911021100 METAR LRBC 021100Z 15023KT CAVOK 09/06 Q1015=
201911021130 METAR LRBC 021130Z 15018KT 9999 FEW015 09/06 Q1014=
201911021200 METAR LRBC 021200Z 15017KT 9999 FEW015 08/06 Q1014 WS RWY16=
201911021230 METAR LRBC 021230Z 15016KT 9999 FEW015 08/06 Q1014=
201911021300 METAR LRBC 021300Z 15017KT 9999 FEW015 08/06 Q1014=
201911021330 METAR LRBC 021330Z 15017KT 9999 FEW015 08/07 Q1014=
201911021400 METAR LRBC 021400Z 15016KT 9999 FEW020 08/07 Q1014=
201911021430 METAR LRBC 021430Z 15013KT CAVOK 08/07 Q1014=
201911021500 METAR LRBC 021500Z 16014KT CAVOK 08/07 Q1013=
201911021530 METAR LRBC 021530Z 16012KT 9999 -RA SCT065 08/07 Q1013=
201911021600 METAR LRBC 021600Z 16015KT 9999 -RA BKN065 08/07 Q1013=
201911021630 METAR LRBC 021630Z 17013KT 9999 FEW065 08/07 Q1014=
201911021700 METAR LRBC 021700Z 17012KT CAVOK 08/07 Q1013=
201911021730 METAR LRBC 021730Z 16011KT CAVOK 08/07 Q1013=
201911021800 METAR LRBC 021800Z 17011KT CAVOK 08/07 Q1013=
201911021830 METAR LRBC 021830Z 17012KT CAVOK 08/07 Q1013=
201911021900 METAR LRBC 021900Z 17013KT 9999 -RA NSC 08/08 Q1013=
201911021930 METAR LRBC 021930Z 16013KT 9999 -RA NSC 08/07 Q1013=
201911022000 METAR LRBC 022000Z 17013KT 9999 -RA NSC 08/08 Q1012=
201911022030 METAR LRBC 022030Z 16013KT 9999 -RA NSC 08/08 Q1012=
201911022100 METAR LRBC 022100Z 16012KT CAVOK 08/08 Q1012=
201911022130 METAR LRBC 022130Z 16013KT CAVOK 09/08 Q1012=
201911022200 METAR LRBC 022200Z 16014KT CAVOK 09/08 Q1012=
201911022230 METAR LRBC 022230Z 16013KT CAVOK 09/08 Q1012=
201911022300 METAR LRBC 022300Z AUTO 17011KT 9999 -SHRA BKN095/// BKN110///
                        08/08 Q1012=
201911022330 METAR LRBC 022330Z AUTO 16013KT 9999 -SHRA BKN080/// BKN095///
                        08/08 Q1011=
201911030000 METAR COR LRBC 030000Z 17012KT 9999 -RA NSC 08/08 Q1011=
201911030030 METAR COR LRBC 030030Z 17013KT 9999 -RA FEW005 08/08 Q1011=
201911030100 METAR LRBC 030100Z 17011KT 9999 -RA SCT005 08/08 Q1011=
201911030130 METAR COR LRBC 030130Z 17011KT 9999 -RA BKN005 08/08 Q1010=
201911030200 METAR LRBC 030200Z 17011KT 9999 -RA BKN005 08/08 Q1010=
201911030230 METAR COR LRBC 030230Z 17011KT 9999 SCT003 BKN005 08/08 Q1010=
201911030300 METAR LRBC 030300Z 16013KT 9999 BKN003 OVC006 08/08 Q1010=
201911030330 METAR LRBC 030330Z 17012KT 8000 BKN003 OVC005 07/07 Q1010=
201911030400 METAR LRBC 030400Z 18013KT 6000 OVC003 07/07 Q1010 R16/220195=
201911030430 METAR LRBC 030430Z 16013KT 6000 OVC003 07/07 Q1010 R16/220195=
201911030500 METAR LRBC 030500Z 17013KT 5000 BR OVC005 07/07 Q1010 R16/220195=
201911030530 METAR LRBC 030530Z 17012KT 6000 OVC005 07/07 Q1010 R16/220195=
201911030600 METAR LRBC 030600Z 17014KT 6000 OVC005 07/07 Q1010 R16/220195=
201911030630 METAR LRBC 030630Z 16014KT 8000 OVC004 07/07 Q1010 R16/220195=
201911030700 METAR LRBC 030700Z 16014KT 9999 BKN004 08/08 Q1010 R16/220195=
201911030730 METAR LRBC 030730Z 16014KT 9999 BKN004 08/08 Q1010 R16/220195=
201911030800 METAR LRBC 030800Z 17013KT 9999 SCT005 08/08 Q1009 R16/220195=
201911030830 METAR LRBC 030830Z 17013KT 9999 SCT005 09/08 Q1009 R16/220195=
201911030900 METAR LRBC 030900Z 17013KT CAVOK 10/09 Q1009 R16/220195=
201911030930 METAR COR LRBC 030930Z 15012KT CAVOK 11/09 Q1009 R16/220195=
201911031000 METAR COR LRBC 031000Z 15012KT CAVOK 11/09 Q1009 R16/220195=
201911031030 METAR LRBC 031030Z 15011KT CAVOK 12/09 Q1008 R16/CLRD//=
201911031100 METAR LRBC 031100Z 17012KT CAVOK 13/10 Q1008=
201911031130 METAR LRBC 031130Z 16013KT CAVOK 13/10 Q1008=
201911031200 METAR LRBC 031200Z 16011KT CAVOK 14/10 Q1008=
201911031230 METAR LRBC 031230Z 16012KT CAVOK 14/10 Q1007=
201911031300 METAR LRBC 031300Z 17011KT CAVOK 14/10 Q1007=
201911031330 METAR LRBC 031330Z 17012KT CAVOK 14/11 Q1007=
201911031400 METAR LRBC 031400Z 17011KT CAVOK 14/11 Q1007=
201911031430 METAR LRBC 031430Z 17010KT CAVOK 13/11 Q1007=
201911031500 METAR LRBC 031500Z 17010KT CAVOK 13/11 Q1007=
201911031530 METAR LRBC 031530Z 17010KT CAVOK 13/11 Q1007=
201911031600 METAR LRBC 031600Z 17011KT CAVOK 13/10 Q1007=
201911031630 METAR LRBC 031630Z 17011KT CAVOK 12/10 Q1007=
201911031700 METAR LRBC 031700Z 16015KT CAVOK 12/10 Q1006=
201911031730 METAR LRBC 031730Z 17016KT CAVOK 12/10 Q1006=
201911031800 METAR LRBC 031800Z 17014KT CAVOK 12/10 Q1006=
201911031830 METAR LRBC 031830Z 17012KT CAVOK 11/10 Q1006=
201911031900 METAR LRBC 031900Z 16014KT CAVOK 11/10 Q1006=
201911031930 METAR LRBC 031930Z 17014KT CAVOK 11/10 Q1006=
201911032000 METAR LRBC 032000Z 17014KT CAVOK 11/10 Q1006=
201911032030 METAR LRBC 032030Z 17011KT CAVOK 11/10 Q1006=
201911032100 METAR LRBC 032100Z 17012KT CAVOK 11/10 Q1005=
201911032130 METAR LRBC 032130Z 17012KT CAVOK 11/10 Q1005=
201911032200 METAR LRBC 032200Z 16011KT CAVOK 11/09 Q1005=
201911032230 METAR LRBC 032230Z 16014KT CAVOK 11/09 Q1005=
201911032300 METAR LRBC 032300Z 17013KT CAVOK 11/09 Q1005=
201911032330 METAR LRBC 032330Z 18009KT CAVOK 10/09 Q1004=
201911040000 METAR LRBC 040000Z 18013KT CAVOK 10/09 Q1004=
201911040030 METAR LRBC 040030Z 17010KT CAVOK 10/09 Q1004=
201911040100 METAR LRBC 040100Z 18012KT CAVOK 11/09 Q1004=
201911040130 METAR LRBC 040130Z 17011KT CAVOK 11/09 Q1004=
201911040200 METAR LRBC 040200Z 17011KT CAVOK 10/09 Q1004=
201911040230 METAR LRBC 040230Z AUTO 18014KT 9999 NCD 11/09 Q1004=
201911040300 METAR LRBC 040300Z AUTO 18014KT 9999 NCD 10/09 Q1003=
201911040330 METAR LRBC 040330Z 17014KT CAVOK 10/09 Q1003=
201911040400 METAR LRBC 040400Z 18012KT CAVOK 10/09 Q1003=
201911040430 METAR LRBC 040430Z 18010KT CAVOK 10/08 Q1003=
201911040500 METAR LRBC 040500Z 19006KT CAVOK 09/08 Q1003=
201911040530 METAR LRBC 040530Z 18007KT CAVOK 10/08 Q1003=
201911040600 METAR LRBC 040600Z 17007KT 140V200 CAVOK 11/09 Q1004=
201911040630 METAR LRBC 040630Z 17008KT CAVOK 11/09 Q1003=
201911040700 METAR LRBC 040700Z 17010KT CAVOK 12/09 Q1003=
201911040730 METAR LRBC 040730Z 17012KT CAVOK 12/09 Q1003=
201911040800 METAR LRBC 040800Z 16014KT CAVOK 13/10 Q1003=
201911040830 METAR LRBC 040830Z 16013KT CAVOK 14/10 Q1003=
201911040900 METAR LRBC 040900Z 17013KT CAVOK 15/10 Q1003=
201911040930 METAR LRBC 040930Z 16014KT CAVOK 16/10 Q1002=
201911041000 METAR LRBC 041000Z 16015KT CAVOK 16/11 Q1002=
201911041030 METAR LRBC 041030Z 16015KT CAVOK 18/12 Q1001=
201911041100 METAR LRBC 041100Z 17013KT CAVOK 18/12 Q1001=
201911041130 METAR LRBC 041130Z 17009KT CAVOK 18/12 Q1001=
201911041200 METAR LRBC 041200Z 21007KT CAVOK 19/13 Q1000=
201911041230 METAR LRBC 041230Z 17007KT CAVOK 19/13 Q1000=
201911041300 METAR LRBC 041300Z 15008KT CAVOK 20/13 Q1000=
201911041330 METAR LRBC 041330Z 19010KT CAVOK 18/13 Q1000=
201911041400 METAR LRBC 041400Z 17009KT CAVOK 18/13 Q1000=
201911041430 METAR LRBC 041430Z 16013KT CAVOK 18/12 Q1000=
201911041500 METAR LRBC 041500Z 15013KT CAVOK 17/12 Q1000=
201911041530 METAR LRBC 041530Z 15012KT CAVOK 17/12 Q1000=
201911041600 METAR LRBC 041600Z 17011KT CAVOK 16/12 Q1000=
201911041630 METAR LRBC 041630Z 17012KT CAVOK 15/12 Q1000=
201911041700 METAR LRBC 041700Z 17009KT CAVOK 15/12 Q1000=
201911041730 METAR LRBC 041730Z 18010KT CAVOK 15/12 Q1000=
201911041800 METAR LRBC 041800Z 16009KT CAVOK 15/12 Q1000=
201911041830 METAR LRBC 041830Z 17010KT CAVOK 16/12 Q1000=
201911041900 METAR LRBC 041900Z 17010KT CAVOK 16/12 Q1000=
201911041930 METAR LRBC 041930Z 17009KT CAVOK 16/12 Q1000=
201911042000 METAR LRBC 042000Z 17010KT CAVOK 16/13 Q1000=
201911042030 METAR LRBC 042030Z 19008KT 9999 SCT050 16/13 Q1000=
201911042100 METAR LRBC 042100Z 25012KT 9999 BKN055 18/12 Q1001=
201911042130 METAR LRBC 042130Z 26012KT CAVOK 18/10 Q1001=
201911042200 METAR LRBC 042200Z 21004KT 180V240 CAVOK 17/10 Q1001=
201911042230 METAR LRBC 042230Z AUTO 17005KT 140V200 9999 SCT095/// BKN240///
                        16/10 Q1001=
201911042300 METAR LRBC 042300Z 15008KT CAVOK 15/11 Q1001=
201911042330 METAR COR LRBC 042330Z 16006KT 130V250 CAVOK 17/10 Q1001=
201911050000 METAR LRBC 050000Z 09005KT 070V130 CAVOK 16/09 Q1002=
201911050030 METAR LRBC 050030Z 21004KT 140V310 CAVOK 17/08 Q1002=
201911050100 METAR LRBC 050100Z VRB04KT CAVOK 17/08 Q1002=
201911050130 METAR LRBC 050130Z 09004KT CAVOK 16/08 Q1003=
201911050200 METAR LRBC 050200Z VRB04KT CAVOK 15/08 Q1003=
201911050230 METAR LRBC 050230Z VRB03KT CAVOK 18/07 Q1003=
201911050300 METAR LRBC 050300Z 20006KT 170V230 CAVOK 16/08 Q1003=
201911050330 METAR LRBC 050330Z VRB02KT CAVOK 13/08 Q1004=
201911050400 METAR COR LRBC 050400Z 17006KT 130V270 CAVOK 14/08 Q1004=
201911050430 METAR LRBC 050430Z 25013KT CAVOK 16/08 Q1004=
201911050500 METAR LRBC 050500Z 23007KT CAVOK 14/08 Q1005=
201911050530 METAR LRBC 050530Z 24009KT CAVOK 14/08 Q1005=
201911050600 METAR LRBC 050600Z 25011KT CAVOK 15/08 Q1006=
201911050630 METAR LRBC 050630Z 25012KT CAVOK 16/08 Q1006=
201911050700 METAR LRBC 050700Z 26012KT CAVOK 17/09 Q1007=
201911050730 METAR LRBC 050730Z 25011KT 220V280 CAVOK 17/08 Q1007=
201911050800 METAR LRBC 050800Z 24011KT CAVOK 18/08 Q1007=
201911050830 METAR LRBC 050830Z 24009KT CAVOK 19/08 Q1007=
201911050900 METAR LRBC 050900Z 23010KT 200V260 CAVOK 19/08 Q1007=
201911050930 METAR LRBC 050930Z 18010KT CAVOK 20/09 Q1007=
201911051000 METAR LRBC 051000Z 16011KT CAVOK 19/08 Q1007=
201911051030 METAR LRBC 051030Z 19010KT CAVOK 19/08 Q1007=
201911051100 METAR LRBC 051100Z 17010KT CAVOK 20/09 Q1007=
201911051130 METAR LRBC 051130Z 17011KT CAVOK 20/09 Q1007=
201911051200 METAR LRBC 051200Z 20012KT CAVOK 20/08 Q1006=
201911051230 METAR LRBC 051230Z 18012KT CAVOK 19/08 Q1006=
201911051300 METAR LRBC 051300Z 17012KT CAVOK 21/08 Q1006=
201911051330 METAR LRBC 051330Z 19013KT CAVOK 20/08 Q1006=
201911051400 METAR LRBC 051400Z 16009KT CAVOK 19/09 Q1006=
201911051430 METAR LRBC 051430Z 16009KT CAVOK 18/08 Q1006=
201911051500 METAR LRBC 051500Z 15007KT CAVOK 16/08 Q1006=
201911051530 METAR LRBC 051530Z 18008KT CAVOK 15/09 Q1007=
201911051600 METAR LRBC 051600Z 20006KT CAVOK 15/08 Q1007=
201911051630 METAR LRBC 051630Z 19007KT CAVOK 13/08 Q1007=
201911051700 METAR LRBC 051700Z 18004KT CAVOK 13/08 Q1006=
201911051730 METAR LRBC 051730Z 20002KT 160V220 CAVOK 13/08 Q1006=
201911051800 METAR LRBC 051800Z 20002KT CAVOK 13/08 Q1006=
201911051830 METAR LRBC 051830Z 21005KT CAVOK 12/08 Q1006=
201911051900 METAR LRBC 051900Z 17005KT CAVOK 11/07 Q1006=
201911051930 METAR LRBC 051930Z 17009KT CAVOK 11/09 Q1006=
201911052000 METAR LRBC 052000Z 17012KT CAVOK 11/08 Q1006=
201911052030 METAR LRBC 052030Z 17010KT CAVOK 10/08 Q1006=
201911052100 METAR LRBC 052100Z 17010KT CAVOK 10/08 Q1005=
201911052130 METAR LRBC 052130Z 16011KT CAVOK 11/08 Q1005=
201911052200 METAR LRBC 052200Z 17012KT CAVOK 11/08 Q1005=
201911052230 METAR LRBC 052230Z AUTO 17014KT 9999 NCD 11/07 Q1005=
201911052300 METAR LRBC 052300Z 18011KT CAVOK 11/07 Q1005=
201911052330 METAR LRBC 052330Z 17012KT CAVOK 11/07 Q1004=
201911060000 METAR COR LRBC 060000Z 18013KT CAVOK 11/07 Q1004=
201911060030 METAR LRBC 060030Z AUTO 18011KT 9999 NCD 10/07 Q1004=
201911060100 METAR LRBC 060100Z 18010KT CAVOK 10/07 Q1004=
201911060130 METAR LRBC 060130Z 17011KT CAVOK 10/07 Q1003=
201911060200 METAR LRBC 060200Z 16010KT CAVOK 11/07 Q1003=
201911060230 METAR LRBC 060230Z 16008KT CAVOK 10/07 Q1003=
201911060300 METAR LRBC 060300Z 16009KT CAVOK 10/07 Q1003=
201911060330 METAR LRBC 060330Z 16009KT CAVOK 11/07 Q1002=
201911060400 METAR LRBC 060400Z 16010KT CAVOK 11/07 Q1002=
201911060430 METAR LRBC 060430Z 17011KT CAVOK 10/07 Q1002=
201911060500 METAR LRBC 060500Z 16010KT CAVOK 10/07 Q1002=
201911060530 METAR LRBC 060530Z 16011KT CAVOK 10/07 Q1002=
201911060600 METAR LRBC 060600Z 16012KT CAVOK 11/08 Q1002=
201911060630 METAR LRBC 060630Z 18012KT CAVOK 12/08 Q1002=
201911060700 METAR LRBC 060700Z 17014KT CAVOK 13/08 Q1003=
201911060730 METAR LRBC 060730Z 17014KT CAVOK 14/09 Q1003=
201911060800 METAR LRBC 060800Z 16013KT CAVOK 15/09 Q1002=
201911060830 METAR LRBC 060830Z 19010KT CAVOK 16/09 Q1002=
201911060900 METAR LRBC 060900Z 17012KT CAVOK 17/10 Q1002=
201911060930 METAR LRBC 060930Z 16013KT 9999 FEW040 18/09 Q1002=
201911061000 METAR LRBC 061000Z 17012KT 9999 FEW040 19/10 Q1002=
201911061030 METAR LRBC 061030Z 18008KT 150V220 9999 FEW040 20/11 Q1002=
201911061100 METAR LRBC 061100Z 18012KT 9999 FEW050 21/11 Q1002=
201911061130 METAR LRBC 061130Z 17007KT 9999 SCT055 23/12 Q1002=
201911061200 METAR LRBC 061200Z 14004KT 060V230 9999 SCT055 24/11 Q1002=
201911061230 METAR LRBC 061230Z 27010KT 240V300 9999 SCT055 25/11 Q1003=
201911061300 METAR LRBC 061300Z 29010KT 9999 SCT055 24/11 Q1003=
201911061330 METAR LRBC 061330Z 29009KT 9999 SCT055 22/11 Q1004=
201911061400 METAR LRBC 061400Z 30007KT 250V320 9999 SCT055 22/11 Q1004=
201911061430 METAR LRBC 061430Z 24010KT 210V270 9999 SCT055 22/10 Q1005=
201911061500 METAR LRBC 061500Z 27015KT 9999 FEW055 21/10 Q1005=
201911061530 METAR LRBC 061530Z 27005KT 230V310 9999 FEW055 20/10 Q1006=
201911061600 METAR LRBC 061600Z 29007KT CAVOK 18/11 Q1006=
201911061630 METAR LRBC 061630Z 28005KT 240V340 CAVOK 17/10 Q1007=
201911061700 METAR LRBC 061700Z 29004KT CAVOK 18/10 Q1007=
201911061730 METAR LRBC 061730Z VRB04KT CAVOK 20/09 Q1007=
201911061800 METAR LRBC 061800Z VRB01KT CAVOK 17/09 Q1007=
201911061830 METAR LRBC 061830Z VRB02KT CAVOK 17/10 Q1007=
201911061900 METAR LRBC 061900Z VRB02KT CAVOK 16/10 Q1007=
201911061930 METAR LRBC 061930Z VRB02KT CAVOK 15/10 Q1008=
201911062000 METAR LRBC 062000Z 27007KT CAVOK 15/10 Q1008=
201911062030 METAR LRBC 062030Z 18003KT 140V210 CAVOK 15/10 Q1008=
201911062100 METAR LRBC 062100Z VRB01KT CAVOK 15/10 Q1008=
201911062130 METAR LRBC 062130Z 18005KT 150V240 CAVOK 14/10 Q1008=
201911062200 METAR LRBC 062200Z 17004KT CAVOK 14/10 Q1008=
201911062230 METAR LRBC 062230Z 35005KT CAVOK 14/10 Q1008=
201911062300 METAR LRBC 062300Z 01005KT 350V050 CAVOK 14/10 Q1009=
201911062330 METAR COR LRBC 062330Z 01004KT 350V050 CAVOK 14/10 Q1009=
201911070000 METAR LRBC 070000Z AUTO 36005KT 340V040 9999 BKN180/// 13/10
                        Q1009=
201911070030 METAR LRBC 070030Z AUTO 01005KT 9999 BKN180/// 13/10 Q1009=
201911070100 METAR LRBC 070100Z 02003KT CAVOK 13/10 Q1009=
201911070130 METAR LRBC 070130Z AUTO 34005KT 9999 SCT110/// BKN180///
                        11/10 Q1009=
201911070200 METAR COR LRBC 070200Z 05003KT 010V080 CAVOK 12/10 Q1009=
201911070230 METAR LRBC 070230Z 05003KT CAVOK 11/10 Q1009=
201911070300 METAR LRBC 070300Z 05003KT CAVOK 11/10 Q1009=
201911070330 METAR LRBC 070330Z 30003KT CAVOK 10/09 Q1009=
201911070400 METAR LRBC 070400Z 04003KT CAVOK 11/09 Q1009=
201911070430 METAR LRBC 070430Z 36004KT CAVOK 11/09 Q1009=
201911070500 METAR LRBC 070500Z 04003KT 010V080 CAVOK 10/09 Q1009=
201911070530 METAR LRBC 070530Z VRB02KT CAVOK 10/09 Q1009=
201911070600 METAR LRBC 070600Z 36001KT CAVOK 10/09 Q1009=
201911070630 METAR LRBC 070630Z 36004KT CAVOK 12/10 Q1009=
201911070700 METAR LRBC 070700Z 34008KT CAVOK 13/10 Q1009=
201911070730 METAR LRBC 070730Z 35008KT CAVOK 13/10 Q1009=
201911070800 METAR LRBC 070800Z 35006KT 320V020 CAVOK 14/10 Q1009=
201911070830 METAR LRBC 070830Z 01004KT 340V060 CAVOK 14/10 Q1008=
201911070900 METAR LRBC 070900Z 36004KT CAVOK 15/10 Q1009=
201911070930 METAR LRBC 070930Z 03005KT CAVOK 15/10 Q1008=
201911071000 METAR LRBC 071000Z 02005KT CAVOK 15/11 Q1008=
201911071030 METAR LRBC 071030Z 03004KT 350V080 CAVOK 15/11 Q1008=
201911071100 METAR LRBC 071100Z 05005KT CAVOK 15/11 Q1008=
201911071130 METAR LRBC 071130Z 01003KT 330V090 CAVOK 15/11 Q1008=
201911071200 METAR LRBC 071200Z 03003KT CAVOK 16/11 Q1008=
201911071230 METAR LRBC 071230Z 27002KT CAVOK 16/11 Q1008=
201911071300 METAR LRBC 071300Z VRB01KT CAVOK 17/11 Q1008=
201911071330 METAR LRBC 071330Z 22002KT 170V270 CAVOK 16/11 Q1008=
201911071400 METAR LRBC 071400Z 19001KT CAVOK 16/11 Q1008=
201911071430 METAR LRBC 071430Z VRB02KT CAVOK 16/11 Q1008=
201911071500 METAR LRBC 071500Z 11002KT CAVOK 14/11 Q1008=
201911071530 METAR LRBC 071530Z VRB02KT CAVOK 14/11 Q1008=
201911071600 METAR LRBC 071600Z 30001KT CAVOK 13/11 Q1008=
201911071630 METAR LRBC 071630Z 30003KT 8000 NSC 12/11 Q1009=
201911071700 METAR LRBC 071700Z 29002KT CAVOK 12/11 Q1009=
201911071730 METAR LRBC 071730Z 34005KT CAVOK 13/11 Q1009=
201911071800 METAR LRBC 071800Z 04002KT CAVOK 13/11 Q1009=
201911071830 METAR LRBC 071830Z 09002KT CAVOK 12/11 Q1010=
201911071900 METAR LRBC 071900Z 00000KT CAVOK 12/11 Q1010=
201911071930 METAR LRBC 071930Z VRB01KT CAVOK 11/11 Q1010=
201911072000 METAR LRBC 072000Z 00000KT CAVOK 11/11 Q1011=
201911072030 METAR LRBC 072030Z 00000KT CAVOK 11/10 Q1011=
201911072100 METAR LRBC 072100Z 22001KT CAVOK 11/10 Q1011=
201911072130 METAR LRBC 072130Z VRB01KT CAVOK 11/10 Q1011=
201911072200 METAR LRBC 072200Z 00000KT CAVOK 11/10 Q1011=
201911072230 METAR LRBC 072230Z 34004KT CAVOK 11/10 Q1012=
201911072300 METAR LRBC 072300Z 35005KT CAVOK 11/10 Q1012=
201911072330 METAR LRBC 072330Z 33005KT CAVOK 10/09 Q1012=
201911080000 METAR COR LRBC 080000Z 17002KT CAVOK 10/10 Q1012=
201911080030 METAR LRBC 080030Z AUTO 18001KT 6000 BKN095/// 10/10 Q1012=
201911080100 METAR LRBC 080100Z AUTO VRB03KT 5000 BR OVC090/// 10/10 Q1012=
201911080130 METAR LRBC 080130Z AUTO 32004KT 6000 BKN090/// 10/10 Q1013=
201911080200 METAR LRBC 080200Z AUTO 36005KT 7000 BKN085/// 11/11 Q1013=
201911080230 METAR LRBC 080230Z AUTO 02002KT 340V050 8000 BKN090/// BKN100///
                        11/10 Q1013=
201911080300 METAR LRBC 080300Z 36003KT CAVOK 11/10 Q1014=
201911080330 METAR LRBC 080330Z 03003KT CAVOK 11/10 Q1014=
201911080400 METAR LRBC 080400Z 05003KT CAVOK 10/10 Q1014=
201911080430 METAR LRBC 080430Z 07001KT 5000 BR NSC 10/09 Q1014=
201911080500 METAR LRBC 080500Z 19002KT 5000 BR NSC 09/09 Q1015=
201911080530 METAR LRBC 080530Z VRB01KT 5000 BR NSC 10/10 Q1015=
201911080600 METAR LRBC 080600Z VRB01KT 6000 NSC 10/10 Q1015=
201911080630 METAR LRBC 080630Z 03002KT 320V060 6000 FEW050 10/10 Q1016=
201911080700 METAR LRBC 080700Z 36002KT 6000 NSC 10/10 Q1015=
201911080730 METAR LRBC 080730Z 03002KT 5000 BR NSC 11/10 Q1016=
201911080800 METAR LRBC 080800Z 08002KT 6000 NSC 11/10 Q1016 R16/19//95=
201911080830 METAR LRBC 080830Z 03003KT 350V070 6000 MIFG FEW038 11/10
                        Q1016 R16/19//95=
201911080900 METAR LRBC 080900Z 02002KT 340V060 7000 FEW050 12/11 Q1016
                        R16/19//95=
201911080930 METAR LRBC 080930Z 34003KT 320V020 8000 FEW050 13/11 Q1016
                        R16/19//95=
201911081000 METAR LRBC 081000Z 03004KT 350V070 9999 SCT050 14/11 Q1015
                        R16/19//95=
201911081030 METAR LRBC 081030Z 02004KT 350V070 9999 BKN050 14/11 Q1015
                        R16/19//95=
201911081100 METAR LRBC 081100Z 04004KT 9999 SCT060 15/10 Q1015 R16/19//95=
201911081130 METAR LRBC 081130Z 35004KT 320V020 9999 FEW060 15/10 Q1014
                        R16/19//95=
201911081200 METAR LRBC 081200Z 33003KT 290V010 CAVOK 15/10 Q1014 R16/19//95=
201911081230 METAR LRBC 081230Z 32003KT 270V350 CAVOK 16/10 Q1014 R16/19//95=
201911081300 METAR LRBC 081300Z VRB01KT CAVOK 16/10 Q1014 R16/19//95=
201911081330 METAR LRBC 081330Z 30002KT 260V350 CAVOK 16/10 Q1013 R16/19//95=
201911081400 METAR LRBC 081400Z 30001KT CAVOK 15/10 Q1013 R16/19//95=
201911081430 METAR LRBC 081430Z 00000KT CAVOK 14/10 Q1013 R16/19//95=
201911081500 METAR COR LRBC 081500Z 30002KT 9999 BKN038 13/11 Q1013 R16/19//95=
201911081530 METAR LRBC 081530Z 32002KT 7000 BKN032 OVC039 13/11 Q1014
                        R16/19//95=
201911081600 METAR LRBC 081600Z 34002KT 8000 BKN032 13/11 Q1014 R16/19//95=
201911081630 METAR LRBC 081630Z 08003KT 340V110 9999 SCT026 BKN032 13/11
                        Q1014 R16/19//95=
201911081700 METAR LRBC 081700Z 20002KT 100V250 9999 BKN030 13/11 Q1013
                        R16/19//95=
201911081730 METAR LRBC 081730Z 26002KT 9999 BKN029 OVC033 13/11 Q1013
                        R16/19//95=
201911081800 METAR LRBC 081800Z 16004KT 9999 BKN028 13/11 Q1013 R16/19//95=
201911081830 METAR LRBC 081830Z 14006KT 9999 BKN028 13/11 Q1013 R16/19//95=
201911081900 METAR LRBC 081900Z 15004KT 7000 BKN030 13/10 Q1013 WHT WHT=
201911081930 METAR LRBC 081930Z 02002KT 9999 BKN028 13/11 Q1013 R16/19//95=
201911082000 METAR LRBC 082000Z 08002KT 9999 SCT022 13/11 Q1013 R16/19//95=
201911082030 METAR LRBC 082030Z 00000KT 9000 SCT020 12/11 Q1013 R16/19//95=
201911082100 METAR LRBC 082100Z 12002KT 9000 FEW055 11/10 Q1013 R16/19//95=
201911082130 METAR LRBC 082130Z 15001KT 8000 FEW055 11/10 Q1013 R16/19//95=
201911082200 METAR LRBC 082200Z 15002KT 8000 SCT020 11/10 Q1013 R16/19//95=
201911082230 METAR LRBC 082230Z 00000KT 8000 FEW008 BKN019 11/11 Q1013
                        R16/19//95=
201911082300 METAR LRBC 082300Z 15003KT 9000 SCT008 BKN017 12/11 Q1013
                        R16/19//95=
201911082330 METAR LRBC 082330Z 22002KT 7000 -RA FEW006 BKN015 12/12 Q1013
                        R16/19//95=
201911090000 METAR LRBC 090000Z 15005KT 7000 BKN007 OVC012 13/13 Q1013
                        R16/19//95=
201911090030 METAR LRBC 090030Z 17007KT 6000 BKN005 OVC012 13/13 Q1013
                        R16/19//95=
201911090100 METAR LRBC 090100Z 19005KT 5000 BR BKN002 OVC004 13/13 Q1013
                        R16/19//95=
201911090130 METAR LRBC 090130Z 16006KT 4000 BR BKN002 OVC004 13/13 Q1013
                        R16/19//95=
201911090200 METAR LRBC 090200Z 17007KT 2600 BR BKN001 OVC003 14/13 Q1013
                        R16/19//95=
201911090230 METAR LRBC 090230Z AUTO 16007KT 2300 BR VV002 13/13 Q1013=
201911090300 METAR LRBC 090300Z 17005KT 1800 FG BKN001 13/13 Q1013 R16/19//95=
201911090330 METAR LRBC 090330Z 15009KT 1400 R34/2000U BR VV002 13/13
                        Q1014 R16/19//95=
201911090400 METAR LRBC 090400Z 15007KT 0900 R34/1000U FG VV002 13/13
                        Q1014 R16/19//95=
201911090430 METAR LRBC 090430Z 15006KT 0500 R34/0600N FG VV001 13/12
                        Q1014 R16/19//95=
201911090500 METAR LRBC 090500Z 16005KT 0600 R34/0700N FG VV001 12/12
                        Q1014 R16/19//95=
201911090530 METAR LRBC 090530Z 18005KT 0550 R34/0650D FG VV002 12/12
                        Q1014 R16/19//95=
201911090600 METAR LRBC 090600Z 16005KT 0800 R34/1500U FG SCT001 BKN004
                        12/12 Q1015 R16/19//95=
201911090630 METAR LRBC 090630Z 17005KT 1000 R34/1500 BR OVC001 12/12
                        Q1015 R16/19//95=
201911090700 METAR LRBC 090700Z 16006KT 1000 R34/0800D BR BKN001 OVC003
                        12/12 Q1015 R16/19//95=
201911090730 METAR LRBC 090730Z 15006KT 0600 R34/0800D FG VV002 12/12
                        Q1015 R16/19//95=
201911090800 METAR LRBC 090800Z 16006KT 0800 R34/1500D FG OVC001 12/12
                        Q1015 R16/19//95=
201911090830 METAR LRBC 090830Z 17005KT 1500 BR OVC001 13/12 Q1015 R16/19//95=
201911090900 METAR LRBC 090900Z 15005KT 130V190 1500 BR OVC001 12/12 Q1015
                        R16/19//95=
201911090930 METAR LRBC 090930Z 19007KT 150V220 1500 BR BKN001 13/13 Q1015
                        R16/19//95=
201911091000 METAR LRBC 091000Z 19007KT 2500 BR BKN001 BKN003 13/13 Q1014
                        R16/19//95=
201911091030 METAR LRBC 091030Z 20007KT 3000 BR BKN002 14/13 Q1014 R16/19//95=
201911091100 METAR LRBC 091100Z 19007KT 5000 BR NSC 15/14 Q1014 R16/19//95=
201911091130 METAR LRBC 091130Z 17008KT 6000 NSC 16/13 Q1014 R16/CLRD//=
201911091200 METAR LRBC 091200Z 18010KT CAVOK 17/13 Q1013=
201911091230 METAR LRBC 091230Z 18009KT CAVOK 17/14 Q1013=
201911091300 METAR LRBC 091300Z 17011KT CAVOK 17/14 Q1013=
201911091330 METAR LRBC 091330Z 17010KT CAVOK 17/14 Q1013=
201911091400 METAR LRBC 091400Z 17008KT CAVOK 16/14 Q1013=
201911091430 METAR LRBC 091430Z 16005KT CAVOK 15/14 Q1013=
201911091500 METAR LRBC 091500Z 19005KT CAVOK 15/13 Q1013=
201911091530 METAR LRBC 091530Z 20005KT CAVOK 13/12 Q1013=
201911091600 METAR LRBC 091600Z 16005KT CAVOK 15/13 Q1013=
201911091630 METAR LRBC 091630Z 17003KT CAVOK 14/13 Q1013=
201911091700 METAR LRBC 091700Z 21005KT CAVOK 12/12 Q1013=
201911091730 METAR LRBC 091730Z 19008KT CAVOK 13/12 Q1013=
201911091800 METAR LRBC 091800Z 17009KT CAVOK 13/12 Q1013=
201911091830 METAR LRBC 091830Z 19008KT CAVOK 13/12 Q1013=
201911091900 METAR LRBC 091900Z 17014KT CAVOK 14/12 Q1013=
201911091930 METAR LRBC 091930Z 16010KT CAVOK 13/12 Q1013=
201911092000 METAR LRBC 092000Z 16010KT CAVOK 12/11 Q1013=
201911092030 METAR LRBC 092030Z 17012KT CAVOK 12/11 Q1013=
201911092100 METAR LRBC 092100Z 14007KT CAVOK 12/10 Q1013=
201911092130 METAR LRBC 092130Z 15006KT CAVOK 12/10 Q1013=
201911092200 METAR LRBC 092200Z 18006KT 160V220 CAVOK 11/09 Q1013=
201911092230 METAR LRBC 092230Z 17012KT CAVOK 13/10 Q1013=
201911092300 METAR LRBC 092300Z 17006KT CAVOK 10/09 Q1013=
201911092330 METAR LRBC 092330Z AUTO 18006KT 9999 NCD 11/09 Q1013=
201911100000 METAR LRBC 100000Z 15007KT CAVOK 12/09 Q1013=
201911100030 METAR LRBC 100030Z 17005KT CAVOK 11/09 Q1013=
201911100100 METAR LRBC 100100Z AUTO 16008KT 9999 NCD 11/09 Q1013=
201911100130 METAR LRBC 100130Z 17008KT CAVOK 11/10 Q1013=
201911100200 METAR LRBC 100200Z 17008KT 7000 NSC 11/10 Q1013=
201911100230 METAR LRBC 100230Z 16011KT 6000 NSC 10/10 Q1013=
201911100300 METAR LRBC 100300Z 18009KT 1400 R34/0900D FG VV001 10/10
                        Q1013=
201911100330 METAR LRBC 100330Z 18007KT 2500 BR SCT001 BKN003 OVC005 11/11
                        Q1013=
201911100400 METAR LRBC 100400Z 18007KT 0400 R34/0650N FG VV001 11/11
                        Q1013=
201911100430 METAR COR LRBC 100430Z 18008KT 0300 R34/0600N FG VV001 11/11
                        Q1013 R16/19//95=
201911100500 METAR LRBC 100500Z 19009KT 0400 R34/0650N FG VV001 11/11
                        Q1013 R16/19//95=
201911100530 METAR LRBC 100530Z 19005KT 0400 R34/0500N FG VV001 11/11
                        Q1013 R16/19//95=
201911100600 METAR LRBC 100600Z 18008KT 0400 R34/0550N FG VV001 11/11
                        Q1013 R16/19//95=
201911100630 METAR LRBC 100630Z 17009KT 0350 R34/0400N FG VV001 11/11
                        Q1013 R16/19//95=
201911100700 METAR LRBC 100700Z 17009KT 0200 R34/0325N FG VV001 11/11
                        Q1013 R16/19//95=
201911100730 METAR LRBC 100730Z 17013KT 0300 R34/0375N FG VV001 12/12
                        Q1012 R16/19//95=
201911100800 METAR LRBC 100800Z 17012KT 1200 R34/1400U BR VV001 12/12
                        Q1012 R16/19//95=
201911100830 METAR LRBC 100830Z 18011KT 3500 BR BKN002 12/12 Q1012 R16/19//95=
201911100900 METAR LRBC 100900Z 17012KT 3000 BR SCT001 BKN004 13/13 Q1012
                        R16/19//95=
201911100930 METAR LRBC 100930Z 17012KT 7000 FEW002 SCT004 15/14 Q1012
                        R16/19//95=
201911101000 METAR LRBC 101000Z 15018KT 9999 FEW010 16/14 Q1011 R16/19//95=
201911101030 METAR LRBC 101030Z 15017KT 9999 FEW015 17/14 Q1011 R16/CLRD//=
201911101100 METAR LRBC 101100Z 15017KT 9999 FEW020 17/14 Q1011=
201911101130 METAR LRBC 101130Z 15016KT 9999 FEW025 17/14 Q1010=
201911101200 METAR LRBC 101200Z 15018KT 9999 FEW025 18/13 Q1010=
201911101230 METAR LRBC 101230Z 14015KT CAVOK 18/13 Q1010=
201911101300 METAR LRBC 101300Z 14015KT CAVOK 18/13 Q1010=
201911101330 METAR LRBC 101330Z 15014KT CAVOK 18/13 Q1010=
201911101400 METAR LRBC 101400Z 15014KT CAVOK 17/13 Q1010=
201911101430 METAR LRBC 101430Z 15013KT CAVOK 17/12 Q1010=
201911101500 METAR LRBC 101500Z 15010KT CAVOK 16/12 Q1010=
201911101530 METAR LRBC 101530Z 16010KT CAVOK 16/11 Q1010=
201911101600 METAR LRBC 101600Z 15008KT CAVOK 15/11 Q1010=
201911101630 METAR LRBC 101630Z 17009KT CAVOK 14/11 Q1010=
201911101700 METAR LRBC 101700Z 15009KT CAVOK 14/11 Q1011=
201911101730 METAR LRBC 101730Z 16005KT CAVOK 13/11 Q1011=
201911101800 METAR LRBC 101800Z 19006KT 160V220 CAVOK 12/11 Q1011=
201911101830 METAR LRBC 101830Z 17009KT CAVOK 13/11 Q1011=
201911101900 METAR LRBC 101900Z 17008KT CAVOK 14/11 Q1011=
201911101930 METAR LRBC 101930Z 16007KT CAVOK 13/11 Q1011=
201911102000 METAR LRBC 102000Z 20005KT 170V240 CAVOK 13/11 Q1012=
201911102030 METAR LRBC 102030Z 19007KT 160V220 CAVOK 13/11 Q1012=
201911102100 METAR LRBC 102100Z 17007KT CAVOK 12/11 Q1012=
201911102130 METAR LRBC 102130Z 18008KT CAVOK 13/11 Q1012=
201911102200 METAR LRBC 102200Z 17008KT CAVOK 13/12 Q1012=
201911102230 METAR LRBC 102230Z 18006KT CAVOK 13/12 Q1012=
201911102300 METAR LRBC 102300Z AUTO 20005KT 9999 SCT100/// BKN140///
                        13/12 Q1012=
201911102330 METAR COR LRBC 102330Z 18008KT CAVOK 12/11 Q1012=
201911110000 METAR LRBC 110000Z 20007KT CAVOK 12/11 Q1013=
201911110030 METAR LRBC 110030Z 17008KT CAVOK 12/10 Q1013=
201911110100 METAR LRBC 110100Z AUTO 12004KT 020V140 9999 FEW075/// BKN110///
                        12/11 Q1013=
201911110130 METAR LRBC 110130Z VRB03KT CAVOK 11/10 Q1013=
201911110200 METAR LRBC 110200Z VRB01KT CAVOK 13/09 Q1013=
201911110230 METAR LRBC 110230Z VRB02KT CAVOK 12/09 Q1013=
201911110300 METAR LRBC 110300Z AUTO 07003KT 020V190 9999 BKN100/// 11/09
                        Q1014=
201911110330 METAR LRBC 110330Z 23005KT 170V270 CAVOK 14/09 Q1014=
201911110400 METAR LRBC 110400Z 28004KT 220V340 CAVOK 12/08 Q1014=
201911110430 METAR LRBC 110430Z VRB02KT CAVOK 11/08 Q1014=
201911110500 METAR LRBC 110500Z VRB04KT CAVOK 11/08 Q1015=
201911110530 METAR LRBC 110530Z VRB04KT CAVOK 14/07 Q1015=
201911110600 METAR LRBC 110600Z VRB03KT CAVOK 14/08 Q1016=
201911110630 METAR LRBC 110630Z 16005KT 110V220 CAVOK 15/08 Q1016=
201911110700 METAR LRBC 110700Z 27012KT CAVOK 14/08 Q1016=
201911110730 METAR LRBC 110730Z 26011KT 240V300 CAVOK 15/08 Q1016=
201911110800 METAR LRBC 110800Z 25011KT CAVOK 15/08 Q1017=
201911110830 METAR LRBC 110830Z 23008KT 200V270 CAVOK 17/08 Q1017=
201911110900 METAR LRBC 110900Z 24006KT 210V270 CAVOK 17/08 Q1017=
201911110930 METAR LRBC 110930Z 25007KT 220V280 CAVOK 17/07 Q1017=
201911111000 METAR LRBC 111000Z 25008KT CAVOK 17/06 Q1017=
201911111030 METAR LRBC 111030Z 26010KT CAVOK 18/07 Q1017=
201911111100 METAR LRBC 111100Z 26009KT CAVOK 18/06 Q1017=
201911111130 METAR LRBC 111130Z 20005KT 120V220 CAVOK 18/07 Q1017=
201911111200 METAR LRBC 111200Z 16005KT 130V220 CAVOK 18/07 Q1017=
201911111230 METAR LRBC 111230Z 16006KT 130V190 CAVOK 18/07 Q1017=
201911111300 METAR LRBC 111300Z 14007KT CAVOK 18/07 Q1017=
201911111330 METAR LRBC 111330Z 14006KT CAVOK 17/07 Q1017=
201911111400 METAR LRBC 111400Z 16005KT CAVOK 16/07 Q1017=
201911111430 METAR LRBC 111430Z 17005KT CAVOK 14/07 Q1017=
201911111500 METAR LRBC 111500Z 21003KT CAVOK 12/07 Q1017=
201911111530 METAR LRBC 111530Z 24002KT CAVOK 11/07 Q1018=
201911111600 METAR LRBC 111600Z 15005KT CAVOK 13/07 Q1018=
201911111630 METAR LRBC 111630Z 20002KT CAVOK 11/07 Q1018=
201911111700 METAR LRBC 111700Z 19004KT 160V250 CAVOK 12/07 Q1018=
201911111730 METAR LRBC 111730Z 13004KT CAVOK 10/06 Q1018=
201911111800 METAR LRBC 111800Z 18003KT CAVOK 10/06 Q1019=
201911111830 METAR LRBC 111830Z 29003KT CAVOK 08/06 Q1019=
201911111900 METAR LRBC 111900Z 06002KT CAVOK 08/06 Q1019=
201911111930 METAR LRBC 111930Z VRB02KT CAVOK 08/05 Q1019=
201911112000 METAR LRBC 112000Z 34004KT CAVOK 06/05 Q1019=
201911112030 METAR LRBC 112030Z 35003KT CAVOK 08/06 Q1019=
201911112100 METAR LRBC 112100Z 34003KT CAVOK 06/05 Q1019=
201911112130 METAR LRBC 112130Z 36003KT CAVOK 07/06 Q1019=
201911112200 METAR LRBC 112200Z 30003KT CAVOK 05/05 Q1019=
201911112230 METAR COR LRBC 112230Z 04003KT 010V070 CAVOK 06/05 Q1019=
201911112300 METAR LRBC 112300Z 08003KT CAVOK 06/05 Q1019=
201911112330 METAR LRBC 112330Z 25004KT CAVOK 04/03 Q1019=
201911120000 METAR LRBC 120000Z 30002KT CAVOK 05/04 Q1019=
201911120030 METAR LRBC 120030Z 05002KT CAVOK 04/04 Q1019=
201911120100 METAR LRBC 120100Z VRB01KT CAVOK 04/04 Q1019=
201911120130 METAR LRBC 120130Z 31003KT CAVOK 03/03 Q1020=
201911120200 METAR LRBC 120200Z 00000KT CAVOK 03/03 Q1019=
201911120230 METAR LRBC 120230Z VRB01KT CAVOK 03/03 Q1019=
201911120300 METAR LRBC 120300Z 29002KT CAVOK 03/03 Q1019=
201911120330 METAR COR LRBC 120330Z 29001KT 6000 NSC 04/04 Q1020=
201911120400 METAR COR LRBC 120400Z 00000KT 7000 NSC 03/03 Q1020=
201911120430 METAR LRBC 120430Z 00000KT 5000 BR NSC 04/04 Q1019=
201911120500 METAR LRBC 120500Z 26002KT 5000 BR NSC 02/02 Q1019=
201911120530 METAR LRBC 120530Z 10004KT 3000 BR NSC 03/03 Q1019=
201911120600 METAR LRBC 120600Z 10003KT 080V140 4000 0200S R34/0225N PRFG
                        SCT001 04/04 Q1020=
201911120630 METAR LRBC 120630Z 15003KT 0200 R34/0700N FG FEW001 BKN003
                        05/05 Q1020=
201911120700 METAR LRBC 120700Z 18003KT 140V250 2500 BR FEW005 06/06 Q1020=
201911120730 METAR LRBC 120730Z 17006KT 7000 SCT039 BKN045 08/08 Q1020=
201911120800 METAR LRBC 120800Z 17010KT 8000 BKN040 09/09 Q1020=
201911120830 METAR LRBC 120830Z 17012KT 9999 SCT029 BKN045 10/09 Q1019=
201911120900 METAR LRBC 120900Z 17010KT 9999 FEW020 12/10 Q1019=
201911120930 METAR LRBC 120930Z 16012KT CAVOK 14/10 Q1019=
201911121000 METAR LRBC 121000Z 17015KT CAVOK 14/09 Q1019=
201911121030 METAR COR LRBC 121030Z 16013KT CAVOK 15/10 Q1018=
201911121100 METAR LRBC 121100Z 17016KT CAVOK 15/12 Q1018=
201911121130 METAR LRBC 121130Z 17016KT CAVOK 16/12 Q1018=
201911121200 METAR LRBC 121200Z 16019KT 9999 FEW030 16/13 Q1017=
201911121230 METAR LRBC 121230Z 17013KT 9999 FEW030 16/12 Q1017=
201911121300 METAR LRBC 121300Z 17017KT CAVOK 16/12 Q1017=
201911121330 METAR LRBC 121330Z 16016KT CAVOK 16/12 Q1017=
201911121400 METAR LRBC 121400Z 16014KT CAVOK 16/12 Q1017=
201911121430 METAR LRBC 121430Z 16014KT CAVOK 15/11 Q1017=
201911121500 METAR LRBC 121500Z 16011KT CAVOK 14/12 Q1017=
201911121530 METAR LRBC 121530Z 16010KT CAVOK 14/12 Q1018=
201911121600 METAR LRBC 121600Z 15009KT CAVOK 13/11 Q1018=
201911121630 METAR LRBC 121630Z 15007KT CAVOK 12/11 Q1018=
201911121700 METAR LRBC 121700Z 16009KT CAVOK 12/11 Q1018=
201911121730 METAR LRBC 121730Z 16010KT CAVOK 12/11 Q1018=
201911121800 METAR LRBC 121800Z 16012KT CAVOK 13/11 Q1018=
201911121830 METAR LRBC 121830Z 17013KT CAVOK 13/11 Q1018=
201911121900 METAR LRBC 121900Z 15010KT CAVOK 12/10 Q1018=
201911121930 METAR LRBC 121930Z 16014KT CAVOK 12/10 Q1018=
201911122000 METAR LRBC 122000Z 16011KT CAVOK 12/10 Q1018=
201911122030 METAR LRBC 122030Z 19009KT CAVOK 11/10 Q1018=
201911122100 METAR LRBC 122100Z 16008KT CAVOK 11/10 Q1019=
201911122130 METAR LRBC 122130Z 16007KT 9999 SCT012 12/11 Q1019=
201911122200 METAR LRBC 122200Z 15009KT 9999 BKN009 OVC011 12/12 Q1019=
201911122230 METAR LRBC 122230Z 14010KT 9999 BKN008 OVC010 12/12 Q1018=
201911122300 METAR LRBC 122300Z 16009KT 9999 SCT008 BKN010 12/12 Q1018=
201911122330 METAR LRBC 122330Z 16009KT 9000 FEW006 BKN008 OVC010 12/12
                        Q1018=
201911130000 METAR LRBC 130000Z 16009KT 7000 FEW008 BKN013 12/12 Q1018=
201911130030 METAR LRBC 130030Z AUTO 15011KT 7000 FEW015/// BKN019///
                        OVC022/// 12/12 Q1017=
201911130100 METAR LRBC 130100Z AUTO 16011KT 6000 SCT022/// 12/12 Q1017=
201911130130 METAR LRBC 130130Z 16009KT 6000 FEW023 11/11 Q1017=
201911130200 METAR LRBC 130200Z 18007KT 5000 BR FEW011 BKN022 12/12 Q1017=
201911130230 METAR LRBC 130230Z 17008KT 6000 SCT012 BKN022 12/12 Q1017=
201911130300 METAR LRBC 130300Z 16010KT 5000 BR BKN014 BKN023 12/12 Q1016=
201911130330 METAR LRBC 130330Z 16010KT 5000 BR BKN014 BKN023 12/12 Q1016=
201911130400 METAR LRBC 130400Z 16010KT 5000 BR FEW002 SCT013 BKN023 12/12
                        Q1016=
201911130430 METAR LRBC 130430Z 17009KT 3800 BR FEW002 BKN023 12/12 Q1016=
201911130500 METAR LRBC 130500Z 17010KT 4000 BR FEW011 BKN022 12/12 Q1016=
201911130530 METAR LRBC 130530Z 17009KT 4900 BR FEW017 BKN025 12/12 Q1016=
201911130600 METAR LRBC 130600Z 16007KT 4000 BR BKN025 12/12 Q1016=
201911130630 METAR LRBC 130630Z 16007KT 4000 BR BKN024 12/12 Q1016=
201911130700 METAR LRBC 130700Z 15007KT 5000 BR SCT015 BKN022 13/12 Q1016=
201911130730 METAR LRBC 130730Z 16008KT 6000 BKN015 OVC023 13/12 Q1016=
201911130800 METAR LRBC 130800Z 16010KT 6000 BKN015 BKN019 13/12 Q1016=
201911130830 METAR LRBC 130830Z 16009KT 8000 SCT015 OVC021 14/12 Q1016=
201911130900 METAR LRBC 130900Z 17009KT 8000 SCT014 OVC025 14/12 Q1016=
201911130930 METAR LRBC 130930Z 17011KT 8000 SCT014 OVC025 14/12 Q1016=
201911131000 METAR LRBC 131000Z 16010KT 9999 FEW014 OVC024 15/12 Q1015=
201911131030 METAR LRBC 131030Z 15011KT 9999 OVC024 15/12 Q1015=
201911131100 METAR LRBC 131100Z 17010KT 9999 BKN022 OVC027 15/12 Q1015=
201911131130 METAR LRBC 131130Z 16009KT 9999 SCT024 BKN028 15/13 Q1014=
201911131200 METAR LRBC 131200Z 16010KT 9999 SCT023 BKN027 15/13 Q1014=
201911131230 METAR LRBC 131230Z 16009KT 140V200 9999 SCT021 BKN027 15/13
                        Q1014=
201911131300 METAR LRBC 131300Z 16008KT 9999 FEW018 SCT024 BKN029 15/13
                        Q1014=
201911131330 METAR LRBC 131330Z 16007KT 9000 FEW019 SCT022 BKN026 15/13
                        Q1014=
201911131400 METAR LRBC 131400Z 16006KT 8000 FEW020 BKN029 15/13 Q1014=
201911131430 METAR LRBC 131430Z 16008KT 9999 FEW020 BKN025 15/13 Q1014=
201911131500 METAR LRBC 131500Z 15009KT 9999 SCT019 BKN027 15/13 Q1013=
201911131530 METAR LRBC 131530Z 16007KT 9999 BKN019 OVC026 15/13 Q1013=
201911131600 METAR LRBC 131600Z 15008KT 9999 SCT015 OVC031 15/13 Q1014=
201911131630 METAR LRBC 131630Z 16007KT 9999 BKN015 BKN025 15/13 Q1014=
201911131700 METAR LRBC 131700Z 18006KT 9000 SCT014 BKN018 14/13 Q1014=
201911131730 METAR LRBC 131730Z 16005KT 8000 SCT015 OVC028 14/13 Q1014=
201911131800 METAR LRBC 131800Z 15007KT 8000 SCT015 BKN027 14/13 Q1014=
201911131830 METAR LRBC 131830Z 16011KT 9999 BKN012 BKN026 15/13 Q1014=
201911131900 METAR LRBC 131900Z 15011KT 8000 BKN010 BKN013 14/13 Q1014=
201911131930 METAR LRBC 131930Z 16011KT 9000 BKN011 OVC021 14/13 Q1014=
201911132000 METAR LRBC 132000Z 15012KT 9000 BKN010 14/13 Q1014=
201911132030 METAR LRBC 132030Z 15010KT 9000 BKN009 OVC015 14/13 Q1014=
201911132100 METAR LRBC 132100Z 16011KT 9000 BKN009 BKN015 14/13 Q1014=
201911132130 METAR LRBC 132130Z 16010KT 8000 BKN008 OVC010 14/13 Q1014=
201911132200 METAR LRBC 132200Z 15008KT 8000 BKN007 BKN009 13/13 Q1014=
201911132230 METAR LRBC 132230Z 16008KT 7000 BKN007 OVC009 13/13 Q1014=
201911132300 METAR LRBC 132300Z 16009KT 6000 SCT008 BKN015 13/13 Q1013=
201911132330 METAR LRBC 132330Z 17009KT 6000 BKN009 BKN017 13/13 Q1014=
201911140000 METAR LRBC 140000Z AUTO 18012KT 6000 FEW010/// BKN016///
                        OVC019/// 13/13 Q1014=
201911140030 METAR LRBC 140030Z 16011KT 6000 BKN010 OVC016 13/13 Q1014=
201911140100 METAR LRBC 140100Z 16009KT 6000 BKN008 BKN017 13/13 Q1014=
201911140130 METAR LRBC 140130Z AUTO 16009KT 6000 SCT008/// OVC010///
                        13/13 Q1014=
201911140200 METAR LRBC 140200Z 15006KT 6000 BKN007 OVC009 13/12 Q1014=
201911140230 METAR LRBC 140230Z 17007KT 6000 BKN008 OVC011 13/13 Q1014=
201911140300 METAR LRBC 140300Z 16007KT 7000 BKN008 OVC010 13/12 Q1014=
201911140330 METAR LRBC 140330Z 18008KT 6000 BKN008 OVC010 13/12 Q1014=
201911140400 METAR LRBC 140400Z 18008KT 5000 BR FEW008 OVC010 12/12 Q1014=
201911140430 METAR LRBC 140430Z 17008KT 4800 BR BKN009 OVC011 12/12 Q1014=
201911140500 METAR LRBC 140500Z 16008KT 5000 BR BKN009 OVC011 12/12 Q1014=
201911140530 METAR LRBC 140530Z 16007KT 4000 BR SCT009 OVC011 12/12 Q1014=
201911140600 METAR LRBC 140600Z 15007KT 5000 BR OVC009 12/11 Q1015=
201911140630 METAR LRBC 140630Z 14009KT 5000 BR OVC010 12/11 Q1015=
201911140700 METAR LRBC 140700Z 14009KT 8000 OVC011 12/10 Q1015 R16/19//95=
201911140730 METAR LRBC 140730Z 14010KT 9999 OVC011 12/10 Q1015 R16/19//95=
201911140800 METAR LRBC 140800Z 15009KT 9999 OVC012 12/10 Q1015 R16/19//95=
201911140830 METAR LRBC 140830Z 15010KT 9999 OVC014 12/10 Q1016 R16/19//95=
201911140900 METAR LRBC 140900Z 15009KT 9999 OVC015 12/10 Q1015 R16/CLRD//=
201911140930 METAR LRBC 140930Z 15007KT 9999 SCT014 BKN017 13/10 Q1015=
201911141000 METAR LRBC 141000Z 15007KT 9999 OVC016 13/10 Q1015=
201911141030 METAR LRBC 141030Z 16008KT 9999 SCT016 BKN022 13/10 Q1015=
201911141100 METAR LRBC 141100Z 15006KT 9999 SCT018 OVC021 13/09 Q1015=
201911141130 METAR LRBC 141130Z 15007KT 9999 OVC019 13/09 Q1015=
201911141200 METAR LRBC 141200Z 14006KT 9999 OVC022 13/09 Q1015=
201911141230 METAR LRBC 141230Z 15005KT 9999 BKN022 13/09 Q1015=
201911141300 METAR LRBC 141300Z 14005KT 9999 BKN022 13/09 Q1015=
201911141330 METAR LRBC 141330Z 12006KT 9999 BKN020 12/09 Q1015=
201911141400 METAR LRBC 141400Z 12006KT 9999 SCT019 BKN026 12/09 Q1015=
201911141430 METAR LRBC 141430Z 12006KT 9999 FEW021 BKN026 12/09 Q1015=
201911141500 METAR LRBC 141500Z 13006KT 9999 FEW020 BKN030 11/09 Q1015=
201911141530 METAR LRBC 141530Z 14006KT 9999 SCT020 BKN030 11/08 Q1015=
201911141600 METAR LRBC 141600Z 00000KT 9999 SCT021 11/08 Q1015=
201911141630 METAR LRBC 141630Z VRB01KT 9999 SCT032 10/09 Q1015=
201911141700 METAR LRBC 141700Z 16001KT 9999 OVC030 11/09 Q1016=
201911141730 METAR LRBC 141730Z 16002KT 9999 BKN027 OVC033 11/09 Q1016=
201911141800 METAR LRBC 141800Z VRB02KT 9999 SCT022 OVC026 11/08 Q1016=
201911141830 METAR LRBC 141830Z VRB01KT 9999 SCT021 BKN027 11/08 Q1016=
201911141900 METAR LRBC 141900Z 12003KT 9999 BKN019 OVC028 11/08 Q1016=
201911141930 METAR LRBC 141930Z 07003KT 020V110 9999 SCT019 BKN027 11/08
                        Q1016=
201911142000 METAR LRBC 142000Z 09003KT 9999 BKN020 OVC027 10/08 Q1016=
201911142030 METAR LRBC 142030Z 09003KT 9999 OVC018 10/08 Q1016=
201911142100 METAR LRBC 142100Z 10003KT 9999 OVC018 11/08 Q1016=
201911142130 METAR LRBC 142130Z 09003KT 060V120 9999 BKN017 10/08 Q1016=
201911142200 METAR LRBC 142200Z 15002KT 9999 FEW017 OVC020 10/08 Q1016=
201911142230 METAR LRBC 142230Z 12001KT 9999 OVC021 10/08 Q1016=
201911142300 METAR LRBC 142300Z AUTO 13001KT 9999 OVC021/// 10/08 Q1016=
201911142330 METAR LRBC 142330Z AUTO 03002KT 360V060 9999 SCT021/// OVC025///
                        10/08 Q1016=
201911150000 METAR LRBC 150000Z 34002KT 310V050 9999 BKN022 BKN026 10/09
                        Q1016=
201911150030 METAR LRBC 150030Z 01002KT 9999 FEW021 OVC025 10/08 Q1016=
201911150100 METAR LRBC 150100Z 33003KT 8000 BKN021 09/08 Q1016=
201911150130 METAR LRBC 150130Z 32004KT 8000 BKN020 OVC025 09/09 Q1016=
201911150200 METAR LRBC 150200Z 32003KT 7000 -RA BKN022 09/09 Q1016=
201911150230 METAR LRBC 150230Z AUTO 30003KT 6000 DZ BKN022/// OVC026///
                        09/09 Q1016=
201911150300 METAR LRBC 150300Z AUTO 30003KT 5000 RA SCT021 BKN026 BKN070
                        09/09 Q1016=
201911150330 METAR LRBC 150330Z 32005KT 5000 -RA BR BKN021 BKN065 09/09
                        Q1016=
201911150400 METAR LRBC 150400Z 33004KT 5000 -RA BR FEW023 BKN065 09/09
                        Q1016=
201911150430 METAR LRBC 150430Z 35003KT 5000 -RA BR BKN023 BKN065 09/09
                        Q1016=
201911150500 METAR LRBC 150500Z 35002KT 4000 -RA BR SCT023 OVC028 09/09
                        Q1016=
201911150530 METAR LRBC 150530Z 04002KT 3000 -RA BR BKN027 BKN034 09/09
                        Q1017 R16/220395=
201911150600 METAR LRBC 150600Z 07001KT 3000 -RA BR OVC027 09/09 Q1017
                        R16/220395=
201911150630 METAR LRBC 150630Z 07001KT 4200 -RA BR FEW005 OVC027 09/09
                        Q1017 R16/220395=
201911150700 METAR LRBC 150700Z 32002KT 250V350 3700 RA BR BKN005 OVC020
                        09/09 Q1017 R16/220395=
201911150730 METAR LRBC 150730Z 33003KT 3700 RA BR SCT003 BKN011 OVC032
                        09/09 Q1017 R16/220395=
201911150800 METAR LRBC 150800Z 33002KT 3800 RA FEW008 SCT013 BKN024 09/09
                        Q1017 R16/250395=
201911150830 METAR LRBC 150830Z 30002KT 5000 -RA BR SCT012 BKN022 09/09
                        Q1018 RERA R16/250395=
201911150900 METAR LRBC 150900Z 00000KT 3900 -RA BR BKN021 09/09 Q1018
                        R16/250395=
201911150930 METAR LRBC 150930Z 14002KT 4300 -RA BR BKN005 BKN021 10/09
                        Q1018 R16/250395=
201911151000 METAR LRBC 151000Z 13003KT 4500 BR BKN007 BKN021 10/10 Q1018
                        R16/250395=
201911151030 METAR LRBC 151030Z 17002KT 6000 BKN006 BKN019 10/10 Q1018
                        R16/250395=
201911151100 METAR LRBC 151100Z 15003KT 8000 FEW007 SCT017 OVC020 10/10
                        Q1018 R16/250395=
201911151130 METAR LRBC 151130Z 15004KT 110V180 9000 SCT010 BKN019 11/10
                        Q1018 R16/250395=
201911151200 METAR LRBC 151200Z 14005KT 9999 BKN014 BKN045 11/10 Q1018
                        R16/250395=
201911151230 METAR LRBC 151230Z 15004KT 9999 BKN011 BKN040 11/10 Q1018
                        R16/250395=
201911151300 METAR LRBC 151300Z 16005KT 9999 SCT009 BKN014 BKN040 11/10
                        Q1018 R16/250395=
201911151330 METAR LRBC 151330Z 14005KT 9999 FEW006 BKN012 BKN040 11/10
                        Q1018 R16/250395=
201911151400 METAR LRBC 151400Z 15006KT 9999 FEW005 BKN012 OVC022 11/10
                        Q1018 R16/250395=
201911151430 METAR LRBC 151430Z 15006KT 9999 FEW005 BKN011 OVC022 10/10
                        Q1018 R16/210395=
201911151500 METAR LRBC 151500Z 16006KT 6000 FEW004 OVC013 10/10 Q1018
                        R16/210395=
201911151530 METAR LRBC 151530Z 16007KT 6000 FEW004 BKN018 10/10 Q1019
                        R16/210395=
201911151600 METAR LRBC 151600Z 17006KT 6000 BKN004 OVC015 10/10 Q1019
                        R16/210395=
201911151630 METAR LRBC 151630Z 17007KT 6000 BKN003 BKN013 10/10 Q1019
                        R16/210395=
201911151700 METAR LRBC 151700Z 17008KT 5000 BR SCT002 OVC006 10/10 Q1019
                        R16/210395=
201911151730 METAR LRBC 151730Z 18006KT 4000 BR BKN001 BKN003 10/10 Q1019
                        R16/210395=
201911151800 METAR LRBC 151800Z 17006KT 4000 BR SCT002 OVC010 10/10 Q1020
                        R16/210395=
201911151830 METAR LRBC 151830Z 17004KT 5000 BR OVC010 10/10 Q1020 R16/210395=
201911151900 METAR LRBC 151900Z 13005KT 5000 BR OVC010 10/10 Q1020 R16/210395=
201911151930 METAR LRBC 151930Z 18004KT 2000 BR SCT001 BKN022 09/09 Q1020
                        R16/210395=
201911152000 METAR LRBC 152000Z 17003KT 0450 R34/0500N FG VV001 09/09
                        Q1020 R16/210395=
201911152030 METAR COR LRBC 152030Z 16005KT 3000 BR BKN007 OVC010 10/10
                        Q1020 R16/210395=
201911152100 METAR LRBC 152100Z 17004KT 3000 BR FEW002 BKN009 10/10 Q1020
                        R16/210395=
201911152130 METAR LRBC 152130Z 16006KT 3500 BR SCT001 BKN009 10/10 Q1020
                        R16/210395=
201911152200 METAR LRBC 152200Z 15005KT 4000 BR FEW001 BKN009 10/10 Q1020
                        R16/210395=
201911152230 METAR LRBC 152230Z 17005KT 6000 OVC010 10/10 Q1020 R16/210395=
201911152300 METAR LRBC 152300Z 15006KT 7000 OVC010 10/10 Q1020 R16/210395=
201911152330 METAR LRBC 152330Z 15008KT 4000 BR OVC010 10/10 Q1020 R16/210395=
201911160000 METAR LRBC 160000Z 17009KT 5000 BR BKN009 10/10 Q1020 R16/210395=
201911160030 METAR LRBC 160030Z AUTO 16006KT 6000 FEW003/// BKN008///
                        OVC010/// 10/10 Q1020=
201911160100 METAR LRBC 160100Z AUTO 15006KT 9000 OVC008/// 10/10 Q1021=
201911160130 METAR LRBC 160130Z AUTO 15006KT 9999 SCT006/// OVC008///
                        10/10 Q1021=
201911160200 METAR LRBC 160200Z 15005KT 9999 BKN006 10/10 Q1021 R16/210395=
201911160230 METAR LRBC 160230Z 18006KT 9999 SCT006 10/10 Q1021 R16/210395=
201911160300 METAR LRBC 160300Z AUTO 17005KT 9999 BKN007/// OVC009///
                        10/09 Q1021=
201911160330 METAR LRBC 160330Z 15007KT 9999 OVC009 10/09 Q1021 R16/210395=
201911160400 METAR LRBC 160400Z 16007KT 9999 OVC008 10/09 Q1021 R16/CLRD//=
201911160430 METAR LRBC 160430Z 17009KT 9999 BKN008 10/09 Q1021=
201911160500 METAR LRBC 160500Z 17008KT 8000 SCT004 OVC007 09/09 Q1021=
201911160530 METAR LRBC 160530Z 16007KT 6000 SCT002 BKN004 09/09 Q1022=
201911160600 METAR LRBC 160600Z 16007KT 5000 BR SCT003 BKN005 09/09 Q1022=
201911160630 METAR LRBC 160630Z 16010KT 2000 BR SCT001 BKN003 09/09 Q1022=
201911160700 METAR LRBC 160700Z 16009KT 140V210 4000 BR SCT002 BKN005
                        09/09 Q1022=
201911160730 METAR LRBC 160730Z 15009KT 3000 BR SCT002 OVC006 09/09 Q1022=
201911160800 METAR LRBC 160800Z 15008KT 6000 FEW002 BKN005 09/09 Q1023=
201911160830 METAR LRBC 160830Z 15007KT 8000 SCT004 OVC006 10/09 Q1023=
201911160900 METAR LRBC 160900Z 15008KT 8000 SCT005 BKN007 10/09 Q1022=
201911160930 METAR LRBC 160930Z 16008KT 8000 SCT004 OVC006 10/09 Q1022=
201911161000 METAR LRBC 161000Z 16008KT 8000 BKN004 10/09 Q1022=
201911161030 METAR LRBC 161030Z 17009KT 6000 BKN002 OVC004 10/10 Q1022=
201911161100 METAR LRBC 161100Z 17009KT 4000 BR BKN001 BKN003 10/10 Q1022=
201911161130 METAR LRBC 161130Z 16010KT 4000 BR OVC001 10/10 Q1022=
201911161200 METAR LRBC 161200Z 16009KT 1500 BR BKN001 OVC003 10/10 Q1022=
201911161230 METAR LRBC 161230Z 16009KT 2000 BR BKN001 OVC003 10/10 Q1022=
201911161300 METAR LRBC 161300Z 15009KT 1200 R34/P1500D BR BKN001 OVC003
                        10/10 Q1022=
201911161330 METAR LRBC 161330Z 16010KT 0500 R34/1100D FG VV002 11/10
                        Q1022=
201911161400 METAR LRBC 161400Z 17007KT 0200 R34/0700N FG VV002 11/11
                        Q1022=
201911161430 METAR LRBC 161430Z 15006KT 0200 R34/0650N FG VV001 11/11
                        Q1022=
201911161500 METAR LRBC 161500Z 16007KT 0400 R34/1100U FG VV001 11/11
                        Q1022=
201911161530 METAR LRBC 161530Z 17009KT 2200 -DZ BR BKN001 OVC003 11/11
                        Q1022=
201911161600 METAR LRBC 161600Z 17007KT 0500 R34/1000N -DZ FG VV002 11/11
                        Q1022=
201911161630 METAR LRBC 161630Z 17008KT 1000 R34/1000U -DZ BR VV001 11/11
                        Q1023=
201911161700 METAR LRBC 161700Z 17009KT 2300 -DZ BR OVC001 11/11 Q1023=
201911161730 METAR LRBC 161730Z 17008KT 4100 -DZ BR BKN002 OVC004 11/11
                        Q1023=
201911161800 METAR LRBC 161800Z 17008KT 2400 BR BKN002 OVC004 11/11 Q1023=
201911161830 METAR LRBC 161830Z 17007KT 1700 BR VV002 11/11 Q1023=
201911161900 METAR LRBC 161900Z 18008KT 2700 BR VV002 11/11 Q1023=
201911161930 METAR LRBC 161930Z 18006KT 4000 BR FEW001 OVC003 11/11 Q1023
                        R16/19//95=
201911162000 METAR LRBC 162000Z 17005KT 5000 BR BKN004 OVC006 11/11 Q1023
                        R16/19//95=
201911162030 METAR LRBC 162030Z 21004KT 5000 BR SCT004 OVC006 11/11 Q1023
                        R16/19//95=
201911162100 METAR LRBC 162100Z 18003KT 5000 BR BKN005 OVC007 11/11 Q1023
                        R16/19//95=
201911162130 METAR LRBC 162130Z 18003KT 5000 BR BKN006 11/11 Q1023 R16/19//95=
201911162200 METAR LRBC 162200Z 12002KT 5000 BR OVC007 11/11 Q1023 R16/19//95=
201911162230 METAR LRBC 162230Z 16005KT 7000 BKN005 BKN007 11/11 Q1023
                        R16/19//95=
201911162300 METAR LRBC 162300Z 17008KT 4000 BR BKN002 OVC005 11/11 Q1023
                        R16/19//95=
201911162330 METAR LRBC 162330Z 17009KT 1700 BR BKN002 OVC005 12/11 Q1023
                        R16/19//95=
201911170000 METAR LRBC 170000Z 16013KT 0550 R34/0650D FG VV001 12/12
                        Q1023 R16/19//95=
201911170030 METAR LRBC 170030Z 16012KT 0450 R34/0500N FG VV001 12/12
                        Q1023 R16/19//95=
201911170100 METAR LRBC 170100Z 16012KT 0500 R34/0550N FG VV001 12/12
                        Q1023 R16/19//95=
201911170130 METAR LRBC 170130Z AUTO 15015KT 1700 R34/0800VP2000U FG VV001
                        12/12 Q1023=
201911170200 METAR LRBC 170200Z 16015KT 2700 BR BKN001 OVC008 12/12 Q1023
                        R16/19//95=
201911170230 METAR LRBC 170230Z AUTO 16013KT 1300 R34/1300V2000U FG VV002
                        12/11 Q1023=
201911170300 METAR COR LRBC 170300Z 16014KT 2800 BKN001 11/11 Q1023 R16/19//95=
201911170330 METAR LRBC 170330Z 16013KT 3000 BR BKN002 OVC006 11/11 Q1023
                        R16/19//95=
201911170400 METAR LRBC 170400Z 16014KT 5000 BR SCT004 OVC006 12/11 Q1023
                        R16/19//95=
201911170430 METAR LRBC 170430Z 15013KT 6000 BKN006 OVC010 11/11 Q1024
                        R16/19//95=
201911170500 METAR LRBC 170500Z 16013KT 7000 FEW008 OVC010 11/11 Q1024
                        R16/19//95=
201911170530 METAR LRBC 170530Z 17012KT 8000 BKN007 OVC013 11/11 Q1024
                        R16/19//95=
201911170600 METAR LRBC 170600Z 17012KT 4000 BR BKN003 BKN010 11/11 Q1024
                        R16/19//95=
201911170630 METAR LRBC 170630Z 16011KT 3000 BR BKN002 OVC004 11/11 Q1024
                        R16/19//95=
201911170700 METAR LRBC 170700Z 16011KT 3000 BR BKN002 OVC004 11/11 Q1024
                        R16/19//95=
201911170730 METAR LRBC 170730Z 16011KT 3000 BR BKN003 BKN014 12/12 Q1024
                        R16/19//95=
201911170800 METAR LRBC 170800Z 16014KT 4000 BR BKN004 BKN016 12/12 Q1024
                        R16/19//95=
201911170830 METAR LRBC 170830Z 16013KT 4000 BR BKN003 BKN012 12/12 Q1024
                        R16/19//95=
201911170900 METAR LRBC 170900Z 16013KT 5000 BR SCT004 OVC015 12/11 Q1024
                        R16/19//95=
201911170930 METAR LRBC 170930Z 16013KT 5000 BR BKN012 OVC015 12/11 Q1024
                        R16/19//95=
201911171000 METAR LRBC 171000Z 16012KT 6000 OVC014 12/11 Q1024 R16/19//95=
201911171030 METAR LRBC 171030Z 16011KT 7000 BKN016 OVC019 13/11 Q1024
                        R16/19//95=
201911171100 METAR LRBC 171100Z 15012KT 8000 BKN017 OVC020 13/11 Q1024
                        R16/CLRD//=
201911171130 METAR LRBC 171130Z 15011KT 8000 BKN018 OVC021 13/11 Q1023
                        R16/CLRD//=
201911171200 METAR LRBC 171200Z 16010KT 9999 SCT013 BKN021 13/11 Q1023=
201911171230 METAR LRBC 171230Z 17010KT 9999 SCT015 OVC025 13/12 Q1023=
201911171300 METAR LRBC 171300Z 16010KT 9999 SCT018 BKN021 13/12 Q1023=
201911171330 METAR LRBC 171330Z 15011KT 9999 SCT011 OVC022 13/12 Q1023=
201911171400 METAR LRBC 171400Z 16010KT 9999 SCT011 BKN022 12/11 Q1023=
201911171430 METAR LRBC 171430Z 16010KT 9999 SCT011 OVC022 12/11 Q1023=
201911171500 METAR LRBC 171500Z 15010KT 9999 BKN009 BKN021 12/11 Q1023=
201911171530 METAR LRBC 171530Z 16009KT 9999 BKN012 OVC022 12/11 Q1023=
201911171600 METAR LRBC 171600Z 16009KT 9999 BKN011 BKN020 11/10 Q1023=
201911171630 METAR LRBC 171630Z 16009KT 9999 BKN011 OVC020 11/10 Q1023=
201911171700 METAR LRBC 171700Z 16009KT 9999 FEW011 BKN018 11/10 Q1023=
201911171730 METAR LRBC 171730Z 15010KT 9999 BKN018 11/10 Q1023=
201911171800 METAR LRBC 171800Z 15011KT 9999 SCT019 BKN022 11/10 Q1023=
201911171830 METAR LRBC 171830Z 15009KT 9999 BKN009 OVC019 11/10 Q1023=
201911171900 METAR LRBC 171900Z 15009KT 9999 BKN008 OVC012 11/10 Q1023=
201911171930 METAR LRBC 171930Z 15011KT 9999 SCT008 BKN010 10/10 Q1023=
201911172000 METAR LRBC 172000Z 15011KT 9000 FEW008 OVC020 10/09 Q1022=
201911172030 METAR LRBC 172030Z 14011KT 8000 FEW007 OVC021 10/10 Q1022=
201911172100 METAR LRBC 172100Z 15012KT 8000 FEW016 OVC019 10/10 Q1022=
201911172130 METAR LRBC 172130Z 15012KT 7000 SCT007 BKN019 10/09 Q1022=
201911172200 METAR LRBC 172200Z 15012KT 6000 SCT006 BKN018 10/09 Q1022=
201911172230 METAR LRBC 172230Z 15011KT 5000 BR BKN006 BKN016 10/09 Q1022=
201911172300 METAR LRBC 172300Z 15009KT 5000 BR BKN005 OVC007 09/09 Q1022=
201911172330 METAR LRBC 172330Z 14009KT 5000 BR OVC004 09/09 Q1022=
201911180000 METAR LRBC 180000Z 14008KT 5000 BR BKN004 09/09 Q1021=
201911180030 METAR LRBC 180030Z 15007KT 4900 BR OVC007 09/09 Q1021=
201911180100 METAR COR LRBC 180100Z 14009KT 5000 BR FEW004 BKN008 BKN017
                        09/09 Q1021=
201911180130 METAR LRBC 180130Z 14009KT 5000 BR FEW004 BKN008 09/09 Q1021=
201911180200 METAR LRBC 180200Z AUTO 15010KT 6000 BKN008/// OVC017///
                        09/09 Q1021=
201911180230 METAR LRBC 180230Z 15012KT 6000 BKN008 BKN018 09/09 Q1021=
201911180300 METAR LRBC 180300Z 16010KT 5000 BR FEW007 BKN021 09/09 Q1021=
201911180330 METAR LRBC 180330Z 18009KT 5000 BR BKN008 BKN027 09/09 Q1021=
201911180400 METAR LRBC 180400Z 17009KT 5000 BR SCT003 OVC010 09/09 Q1020=
201911180430 METAR LRBC 180430Z 16009KT 5000 BR FEW003 SCT007 BKN011 09/09
                        Q1021=
201911180500 METAR LRBC 180500Z 16011KT 4000 BR BKN004 BKN009 09/09 Q1021=
201911180530 METAR LRBC 180530Z 16011KT 4600 BR BKN004 09/09 Q1021=
201911180600 METAR LRBC 180600Z 16011KT 4500 BR BKN004 09/09 Q1021=
201911180630 METAR LRBC 180630Z 16011KT 4500 BR BKN004 10/09 Q1021=
201911180700 METAR LRBC 180700Z 16011KT 5000 BR OVC004 10/10 Q1021=
201911180730 METAR LRBC 180730Z 15013KT 5000 BR SCT005 BKN011 10/10 Q1021=
201911180800 METAR LRBC 180800Z 14012KT 6000 SCT011 BKN025 10/10 Q1021=
201911180830 METAR LRBC 180830Z 14015KT 6000 SCT011 BKN023 10/10 Q1021=
201911180900 METAR LRBC 180900Z 15014KT 6000 SCT011 OVC026 10/10 Q1021=
201911180930 METAR LRBC 180930Z 15014KT 6000 BKN008 BKN025 10/10 Q1021=
201911181000 METAR LRBC 181000Z 15013KT 6000 SCT008 BKN027 11/10 Q1020=
201911181030 METAR LRBC 181030Z 15014KT 7000 SCT006 BKN028 11/10 Q1020=
201911181100 METAR LRBC 181100Z 17013KT 8000 SCT006 BKN030 11/10 Q1020=
201911181130 METAR LRBC 181130Z 15013KT 8000 SCT007 BKN030 12/11 Q1020=
201911181200 METAR LRBC 181200Z 15015KT 8000 SCT008 OVC022 12/10 Q1020=
201911181230 METAR LRBC 181230Z 14012KT 8000 SCT008 BKN025 12/11 Q1020=
201911181300 METAR LRBC 181300Z 15012KT 8000 SCT008 OVC023 12/11 Q1020=
201911181330 METAR LRBC 181330Z 15015KT 8000 BKN023 12/11 Q1020=
201911181400 METAR LRBC 181400Z 15015KT 8000 BKN021 12/11 Q1020=
201911181430 METAR LRBC 181430Z 15015KT 7000 BKN020 11/11 Q1020=
201911181500 METAR LRBC 181500Z 15014KT 6000 BKN020 11/11 Q1020=
201911181530 METAR COR LRBC 181530Z 15016KT 6000 BKN022 11/11 Q1020=
201911181600 METAR LRBC 181600Z 16013KT 5000 BR SCT022 11/11 Q1021=
201911181630 METAR LRBC 181630Z 16012KT 4000 BR SCT015 11/11 Q1021=
201911181700 METAR LRBC 181700Z 17008KT 4000 BR SCT004 11/10 Q1021=
201911181730 METAR LRBC 181730Z 17007KT 4000 BR FEW006 SCT011 10/10 Q1021=
201911181800 METAR LRBC 181800Z 18008KT 5000 BR FEW004 SCT008 10/10 Q1021=
201911181830 METAR LRBC 181830Z 18011KT 5000 BR SCT004 11/10 Q1021=
201911181900 METAR LRBC 181900Z 17009KT 5000 BR FEW007 11/11 Q1021=
201911181930 METAR LRBC 181930Z 18009KT 4000 BR FEW010 10/10 Q1022=
201911182000 METAR LRBC 182000Z 19008KT 4000 BR NSC 10/10 Q1022=
201911182030 METAR LRBC 182030Z 18009KT 5000 BR SCT018 11/10 Q1022=
201911182100 METAR LRBC 182100Z 17009KT 5000 BR FEW018 11/11 Q1022=
201911182130 METAR LRBC 182130Z 18009KT 5000 BR FEW016 11/11 Q1022=
201911182200 METAR LRBC 182200Z 17009KT 4000 BR FEW006 11/11 Q1022=
201911182230 METAR LRBC 182230Z 18007KT 3000 BR NSC 11/11 Q1022=
201911182300 METAR LRBC 182300Z AUTO 17007KT 4000 BR FEW005/// SCT015///
                        BKN100/// 12/11 Q1022=
201911182330 METAR LRBC 182330Z AUTO 17006KT 4100 -DZ SCT014/// BKN090///
                        12/12 Q1023=
201911190000 METAR LRBC 190000Z 17007KT 4000 -RA BR FEW007 BKN014 BKN065
                        12/12 Q1023=
201911190030 METAR LRBC 190030Z 18007KT 3000 FEW005 SCT014 BKN065 12/12
                        Q1023=
201911190100 METAR LRBC 190100Z 17009KT 3000 BR BKN005 BKN014 12/12 Q1023=
201911190130 METAR LRBC 190130Z 17008KT 2800 BR FEW002 SCT004 BKN006 12/12
                        Q1023=
201911190200 METAR LRBC 190200Z 16005KT 2700 BR FEW002 BKN004 BKN012 12/12
                        Q1023=
201911190230 METAR LRBC 190230Z 16007KT 2500 BR BKN001 OVC011 12/12 Q1023=
201911190300 METAR LRBC 190300Z 17006KT 1200 R34/1400D BR OVC002 12/12
                        Q1023=
201911190330 METAR LRBC 190330Z 18005KT 0800 R34/0700N FG VV001 12/12
                        Q1024=
201911190400 METAR LRBC 190400Z 18003KT 0700 R34/0900U FG VV001 12/12
                        Q1023=
201911190430 METAR LRBC 190430Z 17005KT 0800 R34/1600U FG VV002 12/12
                        Q1024=
201911190500 METAR LRBC 190500Z 14004KT 0500 R34/0500N FG VV001 12/12
                        Q1024 R16/19//95=
201911190530 METAR LRBC 190530Z 19004KT 150V230 0500 R34/0650N FG VV001
                        12/12 Q1024 R16/19//95=
201911190600 METAR LRBC 190600Z 23001KT 0800 R34/P2000 FG OVC001 11/11
                        Q1024 R16/19//95=
201911190630 METAR LRBC 190630Z 11004KT 080V170 0800 R34/0550N FG VV001
                        11/11 Q1024 R16/19//95=
201911190700 METAR LRBC 190700Z VRB02KT 1500 R34/0375N BR PRFG OVC001
                        11/11 Q1025 R16/19//95=
201911190730 METAR LRBC 190730Z 08002KT 1500 R34/0500N BR PRFG OVC001
                        11/11 Q1025 R16/19//95=
201911190800 METAR LRBC 190800Z 33002KT 1500 R34/1100U BR PRFG OVC001
                        11/11 Q1025 R16/19//95=
201911190830 METAR LRBC 190830Z VRB02KT 0200 R34/1200D FG VV002 11/11
                        Q1025 R16/19//95=
201911190900 METAR LRBC 190900Z VRB01KT 0200 R34/0650N FG VV002 12/12
                        Q1025 R16/19//95=
201911190930 METAR LRBC 190930Z 13004KT 1500 BR OVC001 13/13 Q1025 R16/19//95=
201911191000 METAR LRBC 191000Z 10003KT 070V130 2000 BR BKN002 13/13 Q1024
                        R16/19//95=
201911191030 METAR LRBC 191030Z 15003KT 080V210 4000 BR BKN005 14/14 Q1024
                        R16/19//95=
201911191100 METAR LRBC 191100Z 17008KT 5000 BR FEW006 BKN009 15/14 Q1024
                        R16/19//95=
201911191130 METAR LRBC 191130Z 16009KT 4000 BR FEW005 SCT009 14/14 Q1024
                        R16/19//95=
201911191200 METAR LRBC 191200Z 16009KT 3500 BR BKN004 14/14 Q1024 R16/CLRD//=
201911191230 METAR LRBC 191230Z 16009KT 3500 BR BKN004 14/13 Q1024=
201911191300 METAR LRBC 191300Z 17009KT 3500 BR FEW005 14/13 Q1024=
201911191330 METAR LRBC 191330Z 17007KT 4000 BR FEW005 14/13 Q1024=
201911191400 METAR LRBC 191400Z 18005KT 3000 BR FEW005 13/13 Q1024=
201911191430 METAR LRBC 191430Z 16005KT 2500 BR NSC 13/13 Q1024=
201911191500 METAR LRBC 191500Z 20005KT 1500 BR NSC 12/12 Q1024=
201911191530 METAR LRBC 191530Z 19005KT 1000 R34/0400N BR PRFG NSC 11/11
                        Q1024=
201911191600 METAR LRBC 191600Z 16006KT 2000 BR NSC 12/12 Q1024=
201911191630 METAR LRBC 191630Z 15005KT 3000 BR FEW013 12/12 Q1024=
201911191700 METAR LRBC 191700Z 15005KT 3000 BR BKN013 12/12 Q1025=
201911191730 METAR LRBC 191730Z 16007KT 4000 BR BKN012 12/12 Q1025=
201911191800 METAR LRBC 191800Z 16006KT 4000 BR OVC011 12/12 Q1025=
201911191830 METAR LRBC 191830Z 17007KT 3500 BR FEW003 BKN010 12/12 Q1025=
201911191900 METAR LRBC 191900Z 16008KT 3000 BR BKN003 BKN012 12/12 Q1025=
201911191930 METAR LRBC 191930Z 15008KT 3000 BR SCT003 BKN015 12/12 Q1025=
201911192000 METAR LRBC 192000Z 16007KT 3000 BR FEW004 BKN011 12/12 Q1025=
201911192030 METAR LRBC 192030Z 15009KT 3000 BR SCT004 BKN011 12/12 Q1025=
201911192100 METAR LRBC 192100Z 17008KT 2000 BR BKN001 OVC003 12/12 Q1025=
201911192130 METAR LRBC 192130Z 16009KT 2000 BR OVC001 12/12 Q1025=
201911192200 METAR LRBC 192200Z 16008KT 0800 R34/1400D FG VV002 12/12
                        Q1025=
201911192230 METAR LRBC 192230Z 16010KT 1500 BR OVC001 12/12 Q1024=
201911192300 METAR LRBC 192300Z 15010KT 1500 BR VV002 12/12 Q1024=
201911192330 METAR LRBC 192330Z 15011KT 2000 BR SCT001 BKN004 12/12 Q1024=
201911200000 METAR LRBC 200000Z 16010KT 4000 BR SCT006 BKN012 12/12 Q1024=
201911200030 METAR LRBC 200030Z 16008KT 4500 BR SCT008 BKN026 12/12 Q1024=
201911200100 METAR LRBC 200100Z AUTO 15011KT 3400 BR FEW004/// BKN006///
                        BKN028/// 12/12 Q1024=
201911200130 METAR LRBC 200130Z AUTO 16011KT 2800 BR SCT001/// BKN003///
                        BKN007/// 12/12 Q1024=
201911200200 METAR LRBC 200200Z AUTO 17008KT 1900 R34/2000 FG BKN001///
                        BKN008/// 12/11 Q1024=
201911200230 METAR LRBC 200230Z 17009KT 1800 BR VV002 12/11 Q1024=
201911200300 METAR LRBC 200300Z 15010KT 2000 BR BKN001 11/11 Q1024=
201911200330 METAR LRBC 200330Z 15009KT 2000 BR OVC002 11/11 Q1024 R16/19//95=
201911200400 METAR LRBC 200400Z 16009KT 2500 -RA BR OVC002 11/11 Q1024
                        R16/19//95=
201911200430 METAR LRBC 200430Z 16008KT 2400 -RA BR SCT002 OVC008 11/11
                        Q1024 R16/19//95=
201911200500 METAR LRBC 200500Z 16010KT 3000 -RA BR OVC002 11/11 Q1024
                        R16/210295=
201911200530 METAR LRBC 200530Z 17010KT 3000 -RA BR OVC002 11/11 Q1024
                        R16/210295=
201911200600 METAR LRBC 200600Z 16009KT 2000 -RA BR OVC002 11/11 Q1024
                        R16/210295=
201911200630 METAR LRBC 200630Z 16009KT 1500 DZ BR SCT001 BKN003 11/11
                        Q1024 R16/210295=
201911200700 METAR LRBC 200700Z 16011KT 1500 DZ BR BKN002 BKN007 11/11
                        Q1024 R16/210295=
201911200730 METAR LRBC 200730Z 16009KT 1500 +DZ BR BKN002 OVC007 11/11
                        Q1024 R16/210295=
201911200800 METAR LRBC 200800Z 16010KT 1800 -RADZ BR FEW002 SCT005 BKN008
                        11/10 Q1025 REDZ R16/210295=
201911200830 METAR LRBC 200830Z 16011KT 2000 DZ BR SCT002 OVC007 10/10
                        Q1025 R16/210295=
201911200900 METAR LRBC 200900Z 15011KT 2000 -RA BR SCT002 BKN008 11/10
                        Q1025 REDZ R16/210295=
201911200930 METAR LRBC 200930Z 15010KT 4000 -RA BR FEW004 BKN010 11/10
                        Q1025 R16/210295=
201911201000 METAR LRBC 201000Z 15009KT 4000 -DZ BR BKN009 OVC011 10/10
                        Q1024 R16/210295=
201911201030 METAR LRBC 201030Z 15010KT 6000 SCT011 OVC015 11/10 Q1024
                        R16/210295=
201911201100 METAR LRBC 201100Z 16012KT 6000 SCT012 OVC015 11/10 Q1024
                        R16/210295=
201911201130 METAR LRBC 201130Z 15011KT 7000 FEW011 BKN014 11/09 Q1024
                        R16/210295=
201911201200 METAR LRBC 201200Z 14011KT 7000 BKN011 OVC014 11/09 Q1024
                        R16/210295=
201911201230 METAR LRBC 201230Z 16009KT 6000 BKN010 BKN014 10/09 Q1024
                        R16/19//95=
201911201300 METAR LRBC 201300Z 15010KT 4000 BR SCT007 OVC009 10/09 Q1024
                        R16/19//95=
201911201330 METAR LRBC 201330Z 14008KT 3000 BR SCT006 OVC008 10/09 Q1024
                        R16/19//95=
201911201400 METAR LRBC 201400Z 15008KT 3000 BR BKN006 OVC009 10/10 Q1024
                        R16/19//95=
201911201430 METAR LRBC 201430Z 15008KT 4000 BR BKN008 OVC010 10/10 Q1024
                        R16/19//95=
201911201500 METAR LRBC 201500Z 15007KT 5000 BR SCT007 OVC009 10/10 Q1024
                        R16/19//95=
201911201530 METAR LRBC 201530Z 17006KT 4000 BR SCT008 BKN011 10/10 Q1024
                        R16/19//95=
201911201600 METAR LRBC 201600Z 15005KT 3500 -RA FEW007 BKN010 10/10 Q1024
                        R16/19//95=
201911201630 METAR LRBC 201630Z 15006KT 4000 -RA BR FEW003 BKN015 BKN018
                        10/10 Q1024 R16/19//95=
201911201700 METAR LRBC 201700Z 15006KT 5000 -DZ BR FEW006 SCT009 BKN017
                        10/10 Q1024 R16/19//95=
201911201730 METAR LRBC 201730Z 15005KT 3000 -DZ BR FEW002 BKN008 OVC015
                        09/09 Q1024 R16/19//95=
201911201800 METAR LRBC 201800Z 14005KT 3000 DZ BR BKN002 OVC005 09/09
                        Q1024 R16/19//95=
201911201830 METAR LRBC 201830Z 12009KT 5000 -DZ BR FEW002 OVC010 09/09
                        Q1024 R16/19//95=
201911201900 METAR LRBC 201900Z 12008KT 9999 FEW008 SCT022 OVC028 09/09
                        Q1024 R16/19//95=
201911201930 METAR LRBC 201930Z 12008KT 9999 SCT022 OVC027 09/09 Q1024
                        R16/19//95=
201911202000 METAR LRBC 202000Z 14006KT 8000 BKN010 OVC020 09/09 Q1024=
201911202030 METAR LRBC 202030Z 15005KT 9999 BKN007 OVC010 09/09 Q1024=
201911202100 METAR LRBC 202100Z 16009KT 9999 BKN010 OVC014 09/08 Q1024=
201911202130 METAR LRBC 202130Z 16009KT 5000 BR OVC010 08/08 Q1025=
201911202200 METAR LRBC 202200Z 14005KT 3000 DZ BR BKN003 OVC008 08/08
                        Q1024=
201911202230 METAR LRBC 202230Z 14007KT 110V180 5000 DZ BR FEW005 OVC009
                        08/08 Q1024=
201911202300 METAR LRBC 202300Z 14005KT 110V170 9999 OVC010 08/08 Q1024
                        REDZ=
201911202330 METAR LRBC 202330Z 16005KT 9999 OVC010 08/08 Q1024=
201911210000 METAR LRBC 210000Z AUTO 16004KT 7000 -RA BKN009/// OVC011///
                        08/08 Q1024=
201911210030 METAR LRBC 210030Z AUTO 16006KT 7000 -RA FEW008/// OVC010///
                        08/08 Q1025=
201911210100 METAR LRBC 210100Z 16005KT 6000 -RA FEW008 OVC010 08/08 Q1025=
201911210130 METAR LRBC 210130Z 14008KT 5000 -RA BR FEW007 OVC012 07/07
                        Q1024=
201911210200 METAR LRBC 210200Z AUTO 14008KT 5000 RA FEW008/// BKN012///
                        OVC016/// 07/07 Q1025=
201911210230 METAR LRBC 210230Z AUTO 13007KT 7000 RA SCT010/// BKN013///
                        OVC017/// 07/07 Q1024=
201911210300 METAR LRBC 210300Z 16007KT 9999 -RA SCT011 OVC014 07/07 Q1025=
201911210330 METAR LRBC 210330Z 14005KT 9999 -RA BKN010 OVC015 07/06 Q1025=
201911210400 METAR LRBC 210400Z 14004KT 9999 -RA BKN010 OVC016 07/06 Q1025=
201911210430 METAR LRBC 210430Z 13004KT 7000 -RA FEW006 BKN010 OVC015
                        06/06 Q1025=
201911210500 METAR LRBC 210500Z 13007KT 9999 -RA BKN015 OVC019 06/06 Q1025
                        R16/220395=
201911210530 METAR LRBC 210530Z 12008KT 8000 -RA OVC016 06/05 Q1025 R16/220395=
201911210600 METAR LRBC 210600Z 14006KT 6000 RA BKN016 OVC020 06/06 Q1026
                        R16/220395=
201911210630 METAR LRBC 210630Z 14005KT 9999 -RA BKN016 BKN019 06/06 Q1026
                        RERA R16/220395=
201911210700 METAR LRBC 210700Z 13003KT 9999 -RA FEW005 SCT012 OVC016
                        06/06 Q1026 R16/220395=
201911210730 METAR LRBC 210730Z 14003KT 110V170 9999 -RA BKN005 BKN016
                        06/06 Q1027 R16/220395=
201911210800 METAR LRBC 210800Z 17005KT 8000 -RA BKN005 BKN010 06/05 Q1027
                        R16/220395=
201911210830 METAR LRBC 210830Z 18004KT 9999 -RA BKN005 BKN015 06/06 Q1027
                        R16/220395=
201911210900 METAR LRBC 210900Z 16004KT 130V190 9999 -RA BKN005 BKN019
                        06/05 Q1027 R16/220395=
201911210930 METAR LRBC 210930Z 18005KT 4000 -RA BR BKN004 BKN014 05/05
                        Q1027 R16/220395=
201911211000 METAR LRBC 211000Z 18005KT 4000 -RA BR BKN003 BKN009 05/05
                        Q1027 R16/220395=
201911211030 METAR LRBC 211030Z 11004KT 080V150 3000 -RADZ BR BKN003 BKN012
                        05/05 Q1027 R16/220395=
201911211100 METAR LRBC 211100Z 13004KT 4000 -RA BR BKN005 BKN015 05/05
                        Q1026 R16/220395=
201911211130 METAR LRBC 211130Z 13006KT 090V150 4000 -RA BR SCT017 OVC020
                        05/05 Q1026 R16/220395=
201911211200 METAR LRBC 211200Z 12007KT 4000 -RA BR BKN017 BKN021 05/05
                        Q1026 R16/220395=
201911211230 METAR LRBC 211230Z 11005KT 2500 -RADZ BR BKN009 BKN015 05/05
                        Q1027 R16/220395=
201911211300 METAR LRBC 211300Z 11007KT 3000 -RA BR BKN014 OVC021 04/04
                        Q1027 R16/220395=
201911211330 METAR LRBC 211330Z 11007KT 4000 -DZ BR BKN015 OVC025 04/04
                        Q1027 R16/220395=
201911211400 METAR LRBC 211400Z 11007KT 4000 -DZ BR BKN015 OVC021 04/04
                        Q1027 R16/220395=
201911211430 METAR LRBC 211430Z 11006KT 5000 -DZ BR BKN015 OVC022 04/04
                        Q1027 R16/220395=
201911211500 METAR LRBC 211500Z 10006KT 070V130 6000 BKN015 BKN024 04/03
                        Q1027 R16/220395=
201911211530 METAR LRBC 211530Z 09005KT 5000 BR SCT006 OVC022 04/03 Q1028=
201911211600 METAR LRBC 211600Z 11007KT 070V130 8000 -DZ BKN008 BKN017
                        03/03 Q1028=
201911211630 METAR LRBC 211630Z 11007KT 070V130 8000 -DZ BKN012 OVC025
                        03/03 Q1028=
201911211700 METAR LRBC 211700Z 11007KT 7000 SCT019 OVC028 03/03 Q1028=
201911211730 METAR LRBC 211730Z 12007KT 8000 -RA FEW007 BKN019 OVC024
                        03/02 Q1029=
201911211800 METAR COR LRBC 211800Z 11008KT 080V140 9999 -RA BKN020 OVC024
                        02/02 Q1029=
201911211830 METAR LRBC 211830Z 11009KT 9999 FEW014 OVC020 02/01 Q1029=
201911211900 METAR LRBC 211900Z 12009KT 9999 -RA BKN016 OVC024 02/01 Q1029=
201911211930 METAR LRBC 211930Z 12008KT 9999 -RASN BKN018 OVC021 02/01
                        Q1029=
201911212000 METAR LRBC 212000Z 12007KT 5000 -RASN BR SCT016 OVC019 01/01
                        Q1030=
201911212030 METAR LRBC 212030Z 11006KT 4500 -RASN BR FEW005 BKN016 BKN019
                        01/01 Q1030 R16/220395=
201911212100 METAR LRBC 212100Z 12006KT 4900 -RASN BR SCT020 OVC025 01/00
                        Q1029 R16/220395=
201911212130 METAR LRBC 212130Z 11003KT 6000 FEW011 BKN021 01/01 Q1029
                        R16/220395=
201911212200 METAR LRBC 212200Z 15005KT 9999 BKN018 OVC021 01/M00 Q1029
                        R16/220395=
201911212230 METAR LRBC 212230Z AUTO 16003KT 130V200 9999 -SHRA BKN014///
                        OVC017/// 01/M00 Q1029=
201911212300 METAR LRBC 212300Z 14003KT 9999 BKN011 OVC014 01/M00 Q1029
                        R16/220395=
201911212330 METAR LRBC 212330Z AUTO 15003KT 5000 -SHSN SCT012/// OVC016///
                        01/M00 Q1029=
201911220000 METAR COR LRBC 220000Z 14003KT 4900 -RA BR FEW006 BKN009
                        BKN019 00/00 Q1029 R16/220395=
201911220030 METAR LRBC 220030Z 14003KT 4000 -RASN BR BKN005 BKN013 00/00
                        Q1029 R16/220395=
201911220100 METAR LRBC 220100Z 14005KT 3000 -SN BR FEW005 SCT007 BKN011
                        00/M00 Q1029 R16/220395=
201911220130 METAR LRBC 220130Z 14004KT 5000 -SN BR FEW003 BKN026 M00/M00
                        Q1029 R16/220395=
201911220200 METAR LRBC 220200Z 12004KT 100V160 6000 -SN FEW008 OVC025
                        M00/M00 Q1029 R16/220395=
201911220230 METAR LRBC 220230Z 11005KT 3000 -SN BR SCT010 BKN026 M00/M00
                        Q1029 R16/220395=
201911220300 METAR LRBC 220300Z 15004KT 120V180 3900 -SN BR BKN002 OVC009
                        M00/M00 Q1029 R16/220395=
201911220330 METAR LRBC 220330Z 17005KT 140V200 6000 -SN SCT002 BKN006
                        M00/M00 Q1029 R16/220395=
201911220400 METAR LRBC 220400Z 15004KT 9999 -SN FEW004 OVC011 M00/M01
                        Q1029 R16/220395=
201911220430 METAR LRBC 220430Z 17005KT 7000 -RASN BKN008 OVC011 M00/M01
                        Q1029 R16/220395=
201911220500 METAR LRBC 220500Z 16004KT 6000 -RASN SCT007 OVC009 M00/M01
                        Q1029 R16/220395=
201911220530 METAR COR LRBC 220530Z 12005KT 090V160 9999 -SN FEW007 BKN009
                        M00/M01 Q1029 R16/220395=
201911220600 METAR COR LRBC 220600Z 14005KT 6000 -SN BKN010 OVC013 M01/M01
                        Q1029 R16/220395=
201911220630 METAR LRBC 220630Z 14003KT 4000 -SN BR BKN012 OVC015 M01/M01
                        Q1029 R16/220395=
201911220700 METAR LRBC 220700Z 14003KT 3000 -RASN BR SCT006 OVC008 M01/M01
                        Q1030 R16/220395=
201911220730 METAR LRBC 220730Z 17005KT 3500 -RASN BR SCT003 BKN009 M01/M01
                        Q1030 R16/220395=
201911220800 METAR LRBC 220800Z 17005KT 3000 -RASN BR SCT003 BKN005 M01/M01
                        Q1030 R16/220395=
201911220830 METAR LRBC 220830Z 17005KT 3000 -RASN BR SCT003 OVC007 M01/M01
                        Q1030 R16/220395=
201911220900 METAR LRBC 220900Z 18005KT 4000 BR SCT004 OVC007 M01/M01
                        Q1029 R16/220395=
201911220930 METAR LRBC 220930Z 17005KT 4000 BR FEW003 OVC007 M01/M01
                        Q1029 R16/220395=
201911221000 METAR LRBC 221000Z 19004KT 7000 SCT005 OVC009 M01/M01 Q1029
                        R16/220395=
201911221030 METAR LRBC 221030Z 18005KT 6000 -RASN SCT006 OVC008 M01/M01
                        Q1029 R16/220395=
201911221100 METAR LRBC 221100Z 16006KT 5000 -RASN BR SCT004 OVC008 M01/M01
                        Q1029 R16/220395=
201911221130 METAR LRBC 221130Z 14005KT 4500 -RASN BR FEW004 OVC006 M01/M01
                        Q1028 R16/220395=
201911221200 METAR LRBC 221200Z 13005KT 7000 FEW004 BKN007 M01/M02 Q1028
                        R16/220395=
201911221230 METAR LRBC 221230Z 10005KT 8000 OVC008 M01/M02 Q1028 R16/210295=
201911221300 METAR LRBC 221300Z 11006KT 8000 OVC008 M01/M02 Q1028 R16/210295=
201911221330 METAR LRBC 221330Z 11005KT 8000 OVC007 M01/M02 Q1028 R16/210295=
201911221400 METAR LRBC 221400Z 11005KT 8000 OVC006 M01/M02 Q1028 R16/210295=
201911221430 METAR LRBC 221430Z 13005KT 8000 OVC007 M02/M02 Q1028 R16/210295=
201911221500 METAR LRBC 221500Z 11005KT 8000 OVC006 M02/M02 Q1028 R16/210295=
201911221530 METAR LRBC 221530Z 13006KT 8000 SCT005 OVC007 M02/M02 Q1028
                        R16/210295=
201911221600 METAR LRBC 221600Z 12007KT 8000 OVC006 M02/M02 Q1028 R16/210295=
201911221630 METAR LRBC 221630Z 13007KT 7000 OVC007 M02/M02 Q1029 R16/210295=
201911221700 METAR LRBC 221700Z 12007KT 5000 -SG BR BKN005 BKN007 M02/M02
                        Q1029 R16/19//95=
201911221730 METAR LRBC 221730Z 12008KT 8000 -SG OVC006 M02/M03 Q1029
                        R16/19//95=
201911221800 METAR LRBC 221800Z 12007KT 8000 -SG OVC006 M02/M03 Q1029
                        R16/19//95=
201911221830 METAR LRBC 221830Z 12007KT 8000 -SG BKN006 OVC008 M02/M03
                        Q1029 R16/19//95=
201911221900 METAR LRBC 221900Z 13005KT 9999 BKN007 M02/M03 Q1029 R16/19//95=
201911221930 METAR LRBC 221930Z 17007KT 9999 OVC005 M02/M02 Q1029 R16/19//95=
201911222000 METAR LRBC 222000Z 17006KT 9999 OVC005 M02/M03 Q1029 R16/19//95=
201911222030 METAR LRBC 222030Z 17005KT 9999 OVC005 M02/M03 Q1029 R16/19//95=
201911222100 METAR LRBC 222100Z 18004KT 9999 OVC005 M02/M03 Q1029 R16/19//95=
201911222130 METAR LRBC 222130Z 18004KT 9999 BKN006 OVC008 M02/M03 Q1028
                        R16/19//95=
201911222200 METAR LRBC 222200Z 18003KT 9999 BKN007 M02/M03 Q1028 R16/19//95=
201911222230 METAR LRBC 222230Z 18004KT 9999 SCT006 BKN008 M02/M03 Q1028
                        R16/19//95=
201911222300 METAR LRBC 222300Z AUTO 17005KT 9999 BKN008/// OVC010///
                        M02/M03 Q1028=
201911222330 METAR LRBC 222330Z AUTO 18005KT 9999 FEW006/// BKN008///
                        BKN010/// M02/M03 Q1028=
201911230000 METAR LRBC 230000Z 19004KT 9999 BKN007 OVC009 M02/M03 Q1027
                        R16/19//95=
201911230030 METAR LRBC 230030Z AUTO 17004KT 9999 OVC008/// M02/M03 Q1027=
201911230100 METAR LRBC 230100Z 17004KT 9999 BKN008 BKN014 M02/M03 Q1027
                        R16/19//95=
201911230130 METAR LRBC 230130Z 18005KT 9999 FEW008 SCT010 BKN018 M02/M03
                        Q1027 R16/19//95=
201911230200 METAR LRBC 230200Z 16004KT 9999 BKN010 BKN020 OVC027 M02/M03
                        Q1027 R16/19//95=
201911230230 METAR LRBC 230230Z 17005KT 9999 BKN009 BKN012 M02/M02 Q1027
                        R16/19//95=
201911230300 METAR LRBC 230300Z 17005KT 9999 FEW009 OVC015 M02/M02 Q1026
                        R16/19//95=
201911230330 METAR LRBC 230330Z 17005KT 9999 BKN009 OVC011 M02/M02 Q1026
                        R16/19//95=
201911230400 METAR LRBC 230400Z 17005KT 9999 FEW008 BKN010 M02/M02 Q1026
                        R16/19//95=
201911230430 METAR COR LRBC 230430Z 17005KT 8000 -SG OVC010 M02/M02 Q1026
                        R16/19//95=
201911230500 METAR LRBC 230500Z 16004KT 8000 -SG OVC010 M02/M02 Q1026
                        R16/19//95=
201911230530 METAR LRBC 230530Z 16004KT 5000 -SG BR OVC009 M02/M02 Q1026
                        R16/19//95=
201911230600 METAR LRBC 230600Z 16005KT 3000 -SG BR BKN002 OVC008 M02/M02
                        Q1026 R16/19//95=
201911230630 METAR LRBC 230630Z 16005KT 3000 -SG BR BKN002 BKN009 M01/M02
                        Q1026 R16/19//95=
201911230700 METAR LRBC 230700Z 17005KT 3000 -SG BR FEW003 BKN011 OVC017
                        M01/M01 Q1026 R16/19//95=
201911230730 METAR LRBC 230730Z 16004KT 6000 -SG FEW003 OVC016 M01/M01
                        Q1026 R16/19//95=
201911230800 METAR LRBC 230800Z 17005KT 5000 -SG BR FEW004 BKN010 OVC016
                        M01/M01 Q1026 R16/19//95=
201911230830 METAR LRBC 230830Z 16006KT 4000 -SG BR BKN009 OVC014 M01/M01
                        Q1026 R16/19//95=
201911230900 METAR LRBC 230900Z 16005KT 4000 -SG BR SCT003 OVC009 M01/M01
                        Q1026 R16/19//95=
201911230930 METAR LRBC 230930Z 17006KT 5000 BR SCT003 OVC006 M01/M01
                        Q1026 R16/19//95=
201911231000 METAR LRBC 231000Z 16005KT 3000 -SG BR SCT003 OVC007 M00/M01
                        Q1026 R16/19//95=
201911231030 METAR LRBC 231030Z 17006KT 3000 -FZDZ BR SCT002 OVC005 M00/M01
                        Q1026 R16/19//95=
201911231100 METAR LRBC 231100Z 15007KT 3000 -FZDZ BR FEW002 OVC005 M00/M00
                        Q1025 R16/19//95=
201911231130 METAR LRBC 231130Z 16007KT 4000 BR BKN005 OVC008 M00/M00
                        Q1025 REFZDZ R16/19//95=
201911231200 METAR LRBC 231200Z 15006KT 4000 BR SCT003 OVC007 M00/M00
                        Q1025 R16/210295=
201911231230 METAR LRBC 231230Z 14007KT 4000 BR BKN004 OVC007 M00/M00
                        Q1025 R16/210295=
201911231300 METAR LRBC 231300Z 15007KT 4000 BR FEW003 OVC007 M00/M01
                        Q1025 R16/210295=
201911231330 METAR LRBC 231330Z 16006KT 3000 BR SCT002 OVC006 M00/M00
                        Q1025 R16/210295=
201911231400 METAR LRBC 231400Z 17007KT 4000 BR BKN006 OVC008 M01/M01
                        Q1025 R16/210295=
201911231430 METAR LRBC 231430Z 18006KT 4000 BR FEW003 OVC007 M01/M01
                        Q1025 R16/210295=
201911231500 METAR LRBC 231500Z 17007KT 3000 BR SCT002 OVC008 M01/M01
                        Q1025 R16/210295=
201911231530 METAR LRBC 231530Z 17006KT 3000 BR SCT002 OVC005 M01/M01
                        Q1025 R16/210295=
201911231600 METAR LRBC 231600Z 17007KT 3000 BR SCT003 OVC005 M01/M01
                        Q1025 R16/210295=
201911231630 METAR LRBC 231630Z 17008KT 3000 BR SCT003 OVC005 M01/M01
                        Q1025 R16/210295=
201911231700 METAR LRBC 231700Z 17007KT 3000 -FZDZ BR FEW002 OVC005 M01/M01
                        Q1025 R16/210295=
201911231730 METAR LRBC 231730Z 17008KT 3000 -FZDZ BR BKN002 BKN004 M01/M01
                        Q1025 R16/210295=
201911231800 METAR LRBC 231800Z 17008KT 3000 -FZDZ BR BKN004 OVC007 M01/M01
                        Q1025 R16/210295=
201911231830 METAR LRBC 231830Z 17007KT 3000 -FZDZ BR BKN002 OVC006 M01/M01
                        Q1025 R16/210295=
201911231900 METAR LRBC 231900Z 16007KT 3000 -FZDZ BR SCT002 OVC004 M01/M01
                        Q1025 R16/210295=
201911231930 METAR LRBC 231930Z 16008KT 3500 -FZDZ BR SCT003 OVC007 M01/M01
                        Q1025 R16/210295=
201911232000 METAR LRBC 232000Z 16008KT 3500 -FZDZ BR OVC003 M01/M01 Q1025
                        R16/210295=
201911232030 METAR LRBC 232030Z 16009KT 3500 -FZDZ BR OVC003 M01/M01 Q1025
                        R16/210295=
201911232100 METAR LRBC 232100Z 15007KT 3000 -FZDZ BR OVC003 M01/M01 Q1025
                        R16/210295=
201911232130 METAR LRBC 232130Z 15007KT 3000 -FZDZ BR OVC001 M01/M01 Q1025
                        R16/210295=
201911232200 METAR LRBC 232200Z 16007KT 3500 BR OVC001 M01/M01 Q1025 R16/210295=
201911232230 METAR LRBC 232230Z 15006KT 4000 BR OVC004 M00/M01 Q1024 R16/210295=
201911232300 METAR LRBC 232300Z 15006KT 5000 BR OVC004 M00/M01 Q1024 R16/210295=
201911232330 METAR LRBC 232330Z 16007KT 4400 BR OVC002 M00/M01 Q1024 R16/210295=
201911240000 METAR LRBC 240000Z 16007KT 4500 BR OVC002 M00/M00 Q1024 R16/210295=
201911240030 METAR LRBC 240030Z 16007KT 4000 BR OVC003 M00/M00 Q1024 R16/210295=
201911240100 METAR LRBC 240100Z 16007KT 2000 BR OVC001 M00/M00 Q1024 R16/210295=
201911240130 METAR LRBC 240130Z 15006KT 2000 BR OVC001 M00/M00 Q1023 R16/210295=
201911240200 METAR LRBC 240200Z 15007KT 2000 BR VV002 M00/M00 Q1023 R16/210295=
201911240230 METAR LRBC 240230Z 16007KT 1800 BR VV002 M00/M00 Q1023 R16/210295=
201911240300 METAR LRBC 240300Z 15007KT 1400 R34/1700D BR VV002 M00/M00
                        Q1023 R16/210295=
201911240330 METAR LRBC 240330Z 16007KT 1200 R34/1500D BR VV002 M00/M00
                        Q1023 R16/210295=
201911240400 METAR LRBC 240400Z 16007KT 1300 R34/1600N BR VV002 M00/M00
                        Q1023 R16/210295=
201911240430 METAR LRBC 240430Z 16007KT 1400 R34/1700D BR VV002 M00/M00
                        Q1023 R16/19//95=
201911240500 METAR LRBC 240500Z 16007KT 1300 R34/1600U BR VV002 M00/M00
                        Q1023 R16/19//95=
201911240530 METAR LRBC 240530Z 16006KT 0800 R34/1900D FZFG VV002 M00/M00
                        Q1023 R16/19//95=
201911240600 METAR LRBC 240600Z 17007KT 1500 BR BKN001 M00/M00 Q1023 R16/19//95=
201911240630 METAR LRBC 240630Z 17006KT 1000 R34/P2000 BR OVC001 00/M00
                        Q1023 R16/19//95=
201911240700 METAR LRBC 240700Z 18006KT 0600 R34/1400U FG VV002 00/M00
                        Q1023 R16/19//95=
201911240730 METAR LRBC 240730Z 17006KT 0500 R34/0900U FG VV002 00/00
                        Q1023 R16/19//95=
201911240800 METAR LRBC 240800Z 16007KT 1000 R34/P2000 BR OVC001 00/00
                        Q1023 R16/19//95=
201911240830 METAR LRBC 240830Z 15006KT 1500 BR BKN001 BKN003 01/00 Q1024
                        R16/19//95=
201911240900 METAR LRBC 240900Z 15008KT 2000 BR BKN001 01/01 Q1024 R16/19//95=
201911240930 METAR LRBC 240930Z 15006KT 2000 -DZ BR OVC001 01/01 Q1023
                        R16/19//95=
201911241000 METAR LRBC 241000Z 15007KT 3000 -DZ BR OVC002 01/01 Q1023
                        R16/19//95=
201911241030 METAR LRBC 241030Z 15007KT 6000 BKN002 OVC004 01/01 Q1023
                        R16/19//95=
201911241100 METAR LRBC 241100Z 15007KT 6000 OVC003 02/01 Q1022 R16/19//95=
201911241130 METAR LRBC 241130Z 15008KT 4000 BR BKN003 02/02 Q1022 R16/19//95=
201911241200 METAR LRBC 241200Z 15008KT 5000 BR OVC003 02/02 Q1022 R16/19//95=
201911241230 METAR LRBC 241230Z 16008KT 4000 BR BKN002 BKN004 02/02 Q1022
                        R16/19//95=
201911241300 METAR LRBC 241300Z 16008KT 3000 BR SCT001 OVC003 02/02 Q1022
                        R16/19//95=
201911241330 METAR LRBC 241330Z 16008KT 2500 BR BKN002 02/02 Q1022 R16/19//95=
201911241400 METAR LRBC 241400Z 16007KT 2500 BR OVC002 02/02 Q1022 R16/19//95=
201911241430 METAR LRBC 241430Z 17007KT 2500 BR SCT001 BKN003 02/02 Q1022
                        R16/19//95=
201911241500 METAR LRBC 241500Z 17005KT 2000 BR BKN001 BKN003 02/02 Q1022
                        R16/19//95=
201911241530 METAR LRBC 241530Z 16005KT 2000 BR BKN001 BKN003 02/02 Q1022
                        R16/19//95=
201911241600 METAR LRBC 241600Z 16005KT 2000 BR BKN001 OVC003 03/02 Q1022
                        R16/19//95=
201911241630 METAR LRBC 241630Z 14004KT 0800 R34/1200D FG VV001 03/02
                        Q1022 R16/19//95=
201911241700 METAR LRBC 241700Z 15004KT 0400 R34/0800N FG VV001 03/03
                        Q1022 R16/19//95=
201911241730 METAR LRBC 241730Z 16004KT 0500 R34/0900U FG VV001 03/03
                        Q1022 R16/19//95=
201911241800 METAR LRBC 241800Z 16006KT 1000 R34/1500D BR OVC002 03/03
                        Q1022 R16/19//95=
201911241830 METAR LRBC 241830Z 16006KT 1000 R34/1600N BR OVC002 03/03
                        Q1022 R16/19//95=
201911241900 METAR LRBC 241900Z 16007KT 1000 R34/1500N BR OVC002 03/03
                        Q1021 R16/19//95=
201911241930 METAR LRBC 241930Z 16008KT 1500 BR OVC002 04/04 Q1021 R16/19//95=
201911242000 METAR LRBC 242000Z 16010KT 1500 BR OVC002 04/04 Q1021 R16/19//95=
201911242030 METAR LRBC 242030Z 16012KT 2500 BR BKN001 OVC003 04/04 Q1021
                        R16/19//95=
201911242100 METAR LRBC 242100Z 16012KT 1500 BR OVC002 04/04 Q1021 R16/19//95=
201911242130 METAR LRBC 242130Z AUTO 16012KT 2800 OVC001/// 04/04 Q1020=
201911242200 METAR LRBC 242200Z AUTO 16011KT 3200 BKN001/// 04/04 Q1020=
201911242230 METAR LRBC 242230Z AUTO 16012KT 2600 BR OVC001/// 04/04 Q1020=
201911242300 METAR COR LRBC 242300Z 16011KT 2500 BR OVC002 04/04 Q1020
                        R16/19//95=
201911242330 METAR LRBC 242330Z 16010KT 2500 BR OVC002 04/04 Q1020 R16/19//95=
201911250000 METAR LRBC 250000Z AUTO 16011KT 2000 BR VV002 04/04 Q1019=
201911250030 METAR LRBC 250030Z AUTO 16010KT 0900 R34/1000V1400D FG VV002
                        04/04 Q1019=
201911250100 METAR LRBC 250100Z AUTO 16011KT 0800 R34/1000D FG VV002 04/04
                        Q1019=
201911250130 METAR LRBC 250130Z 16011KT 0800 R34/1000U FG VV001 04/04
                        Q1019 R16/19//95=
201911250200 METAR LRBC 250200Z 16012KT 1500 BR OVC002 04/04 Q1019 R16/19//95=
201911250230 METAR COR LRBC 250230Z 16011KT 2500 BR OVC001 04/04 Q1019
                        R16/19//95=
201911250300 METAR COR LRBC 250300Z 16011KT 4000 BR OVC001 04/04 Q1019
                        R16/19//95=
201911250330 METAR LRBC 250330Z 16013KT 5000 BR OVC002 04/04 Q1019 R16/19//95=
201911250400 METAR LRBC 250400Z 17011KT 3000 BR OVC001 04/04 Q1019 R16/19//95=
201911250430 METAR LRBC 250430Z 17012KT 3500 BR OVC001 04/04 Q1019 R16/19//95=
201911250500 METAR LRBC 250500Z 17010KT 3000 BR OVC001 04/04 Q1019 R16/19//95=
201911250530 METAR LRBC 250530Z 16008KT 3000 BR OVC002 04/04 Q1019 R16/19//95=
201911250600 METAR LRBC 250600Z 15010KT 2000 BR OVC001 04/04 Q1019 R16/19//95=
201911250630 METAR LRBC 250630Z 15009KT 2100 BR BKN001 OVC003 04/04 Q1019
                        R16/19//95=
201911250700 METAR LRBC 250700Z 15009KT 2700 BR BKN001 OVC003 04/04 Q1019
                        R16/19//95=
201911250730 METAR LRBC 250730Z 16011KT 3800 BR BKN001 OVC003 05/05 Q1019
                        R16/19//95=
201911250800 METAR LRBC 250800Z 15013KT 6000 BKN003 OVC010 05/05 Q1019
                        R16/19//95=
201911250830 METAR LRBC 250830Z 16013KT 3100 BR BKN002 OVC008 05/05 Q1019
                        R16/19//95=
201911250900 METAR LRBC 250900Z 15014KT 2400 BR BKN002 OVC008 05/05 Q1018
                        R16/19//95=
201911250930 METAR LRBC 250930Z 15013KT 4000 BR SCT002 BKN009 05/05 Q1018
                        R16/19//95=
201911251000 METAR LRBC 251000Z 15013KT 4200 BR FEW003 SCT008 OVC010 05/05
                        Q1018 R16/19//95=
201911251030 METAR COR LRBC 251030Z 15013KT 1700 BR VV002 05/05 Q1017
                        R16/19//95=
201911251100 METAR LRBC 251100Z 15013KT 1100 R34/1300D BR VV002 05/05
                        Q1017 R16/19//95=
201911251130 METAR LRBC 251130Z 15012KT 1400 R34/1600N BR VV002 05/05
                        Q1017 R16/19//95=
201911251200 METAR LRBC 251200Z 15011KT 3500 BR SCT001 OVC007 05/05 Q1017
                        R16/19//95=
201911251230 METAR LRBC 251230Z 15013KT 3500 BR FEW002 BKN007 OVC009 05/05
                        Q1017 R16/19//95=
201911251300 METAR LRBC 251300Z 16012KT 2700 BR SCT002 OVC004 05/05 Q1017
                        R16/19//95=
201911251330 METAR LRBC 251330Z 16012KT 2800 BR OVC002 05/05 Q1017 R16/19//95=
201911251400 METAR LRBC 251400Z 16012KT 2100 BR BKN001 OVC003 05/05 Q1017
                        R16/19//95=
201911251430 METAR LRBC 251430Z 16010KT 2400 BR OVC001 05/05 Q1017 R16/19//95=
201911251500 METAR LRBC 251500Z 15010KT 2600 BR VV002 05/05 Q1017 R16/19//95=
201911251530 METAR LRBC 251530Z 16009KT 2900 BR OVC001 05/05 Q1017 R16/19//95=
201911251600 METAR LRBC 251600Z 16010KT 2600 BR OVC001 05/05 Q1017 R16/19//95=
201911251630 METAR LRBC 251630Z 15008KT 1400 R34/1700U BR VV002 05/05
                        Q1017 R16/19//95=
201911251700 METAR LRBC 251700Z 16011KT 0800 R34/1300D FG VV002 05/05
                        Q1017 R16/19//95=
201911251730 METAR LRBC 251730Z 16010KT 0600 R34/0800N -DZRA FG VV001
                        05/05 Q1017 R16/19//95=
201911251800 METAR LRBC 251800Z 16009KT 0500 R34/0700U FG VV001 05/05
                        Q1017 R16/19//95=
201911251830 METAR LRBC 251830Z 16009KT 0600 R34/0900N FG VV001 05/05
                        Q1017 R16/19//95=
201911251900 METAR LRBC 251900Z 15007KT 0700 R34/0900U FG VV002 05/05
                        Q1017 R16/19//95=
201911251930 METAR LRBC 251930Z 15007KT 0900 R34/1100U FG VV002 05/05
                        Q1017 R16/19//95=
201911252000 METAR LRBC 252000Z 15008KT 1200 R34/1400N BR VV002 05/05
                        Q1017 R16/19//95=
201911252030 METAR LRBC 252030Z 15009KT 1300 R34/1600D BR VV002 05/05
                        Q1017 R16/19//95=
201911252100 METAR LRBC 252100Z 15012KT 2900 -DZ BR BKN001 OVC006 05/05
                        Q1017 R16/19//95=
201911252130 METAR LRBC 252130Z 15012KT 3200 -DZ BR BKN002 05/05 Q1017
                        R16/19//95=
201911252200 METAR LRBC 252200Z 16011KT 3000 -RA BR BKN001 OVC003 05/05
                        Q1017 R16/19//95=
201911252230 METAR LRBC 252230Z 15011KT 3400 -RA BR BKN001 BKN003 05/05
                        Q1017 R16/19//95=
201911252300 METAR LRBC 252300Z 16010KT 2800 BR OVC001 05/05 Q1016 R16/19//95=
201911252330 METAR LRBC 252330Z AUTO 15009KT 3600 BR BKN001/// BKN004///
                        05/05 Q1016=
201911260000 METAR LRBC 260000Z 15009KT 3700 BR BKN001 OVC003 05/05 Q1016
                        R16/19//95=
201911260030 METAR LRBC 260030Z 15010KT 3300 BR BKN001 04/04 Q1016 R16/19//95=
201911260100 METAR LRBC 260100Z 15009KT 1900 BR OVC001 04/04 Q1016 R16/19//95=
201911260130 METAR LRBC 260130Z AUTO 15011KT 1500 R34/1800D FG VV002 04/04
                        Q1016=
201911260200 METAR LRBC 260200Z 16010KT 0900 R34/1600U FG VV002 04/04
                        Q1016 R16/19//95=
201911260230 METAR LRBC 260230Z 16008KT 0700 R34/1600U FG VV002 04/04
                        Q1016 R16/19//95=
201911260300 METAR LRBC 260300Z 16007KT 1100 R34/1300N BR VV002 04/03
                        Q1016 R16/19//95=
201911260330 METAR LRBC 260330Z 15007KT 0900 R34/1500U FG VV002 03/03
                        Q1015 R16/19//95=
201911260400 METAR LRBC 260400Z 16006KT 0500 R34/0800D FG VV002 03/03
                        Q1015 R16/19//95=
201911260430 METAR LRBC 260430Z 16007KT 0500 R34/1000D FG VV002 03/03
                        Q1015 R16/19//95=
201911260500 METAR LRBC 260500Z 16005KT 0800 R34/1000D FG VV002 03/03
                        Q1015 R16/210295=
201911260530 METAR LRBC 260530Z 16007KT 1000 R34/P2000 BR OVC001 03/03
                        Q1015 R16/210295=
201911260600 METAR LRBC 260600Z 16007KT 0800 R34/P2000 FG VV002 03/03
                        Q1015 R16/210295=
201911260630 METAR LRBC 260630Z 16007KT 2000 BR BKN001 OVC003 03/03 Q1015
                        R16/210295=
201911260700 METAR LRBC 260700Z 17007KT 3500 BR BKN001 OVC006 03/03 Q1015
                        R16/210295=
201911260730 METAR LRBC 260730Z 16005KT 3500 BR BKN001 OVC003 04/03 Q1015
                        R16/19//95=
201911260800 METAR LRBC 260800Z 15005KT 2000 BR VV002 04/04 Q1015 R16/19//95=
201911260830 METAR LRBC 260830Z 17006KT 3000 BR VV001 04/04 Q1016 R16/19//95=
201911260900 METAR LRBC 260900Z 18005KT 5000 BR BKN002 04/04 Q1015 R16/19//95=
201911260930 METAR LRBC 260930Z 20004KT 5000 BR OVC003 04/04 Q1015 R16/19//95=
201911261000 METAR LRBC 261000Z 16004KT 5000 BR SCT001 BKN003 04/04 Q1015
                        R16/19//95=
201911261030 METAR LRBC 261030Z 17003KT 5000 BR BKN001 OVC003 04/04 Q1015
                        R16/19//95=
201911261100 METAR COR LRBC 261100Z 14003KT 5000 BR BKN002 05/04 Q1014
                        R16/19//95=
201911261130 METAR LRBC 261130Z 16004KT 6000 OVC003 05/05 Q1014 R16/19//95=
201911261200 METAR LRBC 261200Z 20003KT 8000 BKN003 05/05 Q1014 R16/19//95=
201911261230 METAR LRBC 261230Z 16002KT 8000 OVC004 06/05 Q1014 R16/19//95=
201911261300 METAR LRBC 261300Z 19002KT 9999 BKN004 06/05 Q1014 R16/19//95=
201911261330 METAR LRBC 261330Z 20003KT 9999 SCT005 06/05 Q1013 R16/15//95=
201911261400 METAR LRBC 261400Z 23002KT 9999 BKN005 06/05 Q1014 R16/15//95=
201911261430 METAR LRBC 261430Z 17002KT 8000 BKN004 05/05 Q1013 R16/15//95=
201911261500 METAR LRBC 261500Z 00000KT 8000 BKN004 05/05 Q1014 R16/15//95=
201911261530 METAR LRBC 261530Z 00000KT 7000 SCT004 05/05 Q1014 R16/15//95=
201911261600 METAR LRBC 261600Z 00000KT 8000 SCT005 05/05 Q1014 R16/15//95=
201911261630 METAR LRBC 261630Z 15002KT 8000 BKN004 05/05 Q1014 R16/15//95=
201911261700 METAR LRBC 261700Z 17002KT 5000 BR OVC005 05/05 Q1014 R16/15//95=
201911261730 METAR LRBC 261730Z 00000KT 4700 BR SCT006 OVC008 05/05 Q1014
                        R16/15//95=
201911261800 METAR LRBC 261800Z 04003KT 010V070 6000 FEW005 BKN007 05/05
                        Q1014 R16/15//95=
201911261830 METAR LRBC 261830Z 03003KT 7000 OVC007 05/04 Q1014 R16/15//95=
201911261900 METAR LRBC 261900Z 06002KT 8000 OVC008 04/04 Q1014 R16/15//95=
201911261930 METAR LRBC 261930Z VRB01KT 8000 OVC008 04/04 Q1014 R16/15//95=
201911262000 METAR LRBC 262000Z 04002KT 7000 BKN006 OVC008 04/04 Q1014
                        R16/15//95=
201911262030 METAR LRBC 262030Z 04002KT 6000 OVC007 04/03 Q1014 R16/15//95=
201911262100 METAR LRBC 262100Z 04002KT 7000 BKN006 OVC008 04/03 Q1014
                        R16/15//95=
201911262130 METAR LRBC 262130Z 05002KT 7000 BKN004 OVC006 04/03 Q1014
                        R16/15//95=
201911262200 METAR LRBC 262200Z 00000KT 7000 SCT004 OVC008 04/03 Q1014
                        R16/15//95=
201911262230 METAR LRBC 262230Z 30003KT 7000 BKN003 OVC005 04/03 Q1013
                        R16/15//95=
201911262300 METAR LRBC 262300Z VRB01KT 6000 OVC004 04/03 Q1013 R16/15//95=
201911262330 METAR LRBC 262330Z 05002KT 6000 OVC005 04/03 Q1013 R16/15//95=
201911270000 METAR LRBC 270000Z 01001KT 6000 BKN003 OVC006 03/03 Q1013
                        R16/15//95=
201911270030 METAR LRBC 270030Z 00000KT 6000 BKN003 OVC007 03/03 Q1013
                        R16/15//95=
201911270100 METAR LRBC 270100Z 04003KT 6000 OVC004 03/03 Q1013 R16/15//95=
201911270130 METAR LRBC 270130Z 05002KT 6000 OVC004 03/03 Q1012 R16/15//95=
201911270200 METAR LRBC 270200Z 04002KT 5000 BR OVC004 03/03 Q1012 R16/15//95=
201911270230 METAR LRBC 270230Z VRB01KT 5000 BR BKN003 OVC005 03/03 Q1012
                        R16/15//95=
201911270300 METAR LRBC 270300Z VRB01KT 5000 BR OVC004 03/03 Q1012 R16/15//95=
201911270330 METAR LRBC 270330Z AUTO VRB01KT 4800 BR BKN003/// BKN005///
                        03/03 Q1013=
201911270400 METAR LRBC 270400Z AUTO 00000KT 4100 BR SCT002/// BKN004///
                        03/03 Q1013=
201911270430 METAR LRBC 270430Z 08001KT 3000 BR BKN001 BKN003 03/03 Q1013
                        R16/15//95=
201911270500 METAR LRBC 270500Z 17003KT 3100 BR BKN001 OVC003 03/03 Q1013
                        R16/CLRD//=
201911270530 METAR LRBC 270530Z 00000KT 3000 BR OVC001 03/03 Q1013=
201911270600 METAR LRBC 270600Z 13001KT 2100 BR OVC001 03/03 Q1013=
201911270630 METAR LRBC 270630Z 00000KT 2000 BR OVC002 03/03 Q1013=
201911270700 METAR LRBC 270700Z VRB02KT 3000 BR SCT001 OVC003 03/03 Q1013=
201911270730 METAR LRBC 270730Z VRB02KT 4000 BR BKN002 OVC004 03/03 Q1013=
201911270800 METAR LRBC 270800Z VRB01KT 3000 BR OVC003 03/03 Q1013=
201911270830 METAR LRBC 270830Z VRB02KT 3500 BR OVC002 03/03 Q1013=
201911270900 METAR LRBC 270900Z 23003KT 170V260 3500 BR BKN002 OVC004
                        03/03 Q1013=
201911270930 METAR LRBC 270930Z 14003KT 100V180 3000 BR BKN002 OVC004
                        03/03 Q1013=
201911271000 METAR LRBC 271000Z VRB02KT 3000 BR OVC003 03/03 Q1013=
201911271030 METAR LRBC 271030Z VRB01KT 4000 BR BKN003 OVC005 04/04 Q1012=
201911271100 METAR LRBC 271100Z 16003KT 120V200 4000 OVC004 04/04 Q1012=
201911271130 METAR LRBC 271130Z 15004KT 4000 BR OVC004 04/04 Q1012=
201911271200 METAR LRBC 271200Z 18005KT 4000 BR BKN003 OVC005 04/04 Q1012=
201911271230 METAR LRBC 271230Z VRB04KT 3000 BR SCT002 OVC004 04/04 Q1012=
201911271300 METAR LRBC 271300Z 16006KT 2000 BR OVC002 04/04 Q1012=
201911271330 METAR LRBC 271330Z 16007KT 1000 R34/1500U BR OVC001 03/03
                        Q1012=
201911271400 METAR LRBC 271400Z 16007KT 1500 BR BKN001 OVC003 03/03 Q1012=
201911271430 METAR LRBC 271430Z 16006KT 2000 BR BKN002 OVC004 03/03 Q1011=
201911271500 METAR LRBC 271500Z 15006KT 2000 BR OVC002 03/03 Q1011=
201911271530 METAR LRBC 271530Z 16008KT 3000 BR OVC002 03/03 Q1012=
201911271600 METAR LRBC 271600Z 17008KT 3000 BR SCT003 OVC005 03/03 Q1012=
201911271630 METAR LRBC 271630Z 15009KT 0300 R34/0450N FG VV001 02/02
                        Q1012=
201911271700 METAR LRBC 271700Z 17010KT 0300 R34/0450N FG VV001 01/01
                        Q1012=
201911271730 METAR LRBC 271730Z 17009KT 0300 R34/0450N FG VV001 02/01
                        Q1012=
201911271800 METAR LRBC 271800Z 16007KT 0500 R34/0550N FG VV001 02/01
                        Q1012=
201911271830 METAR LRBC 271830Z 18008KT 0750 R34/0900U FG VV002 02/02
                        Q1012=
201911271900 METAR LRBC 271900Z 19008KT 0800 R34/1000N FG VV002 02/02
                        Q1012=
201911271930 METAR LRBC 271930Z 18007KT 0900 R34/1100D FG VV002 02/02
                        Q1012=
201911272000 METAR LRBC 272000Z 18007KT 0800 R34/0900D FG VV002 02/02
                        Q1011=
201911272030 METAR LRBC 272030Z 19007KT 0800 R34/1200N FG VV002 02/02
                        Q1011 R16/15//95=
201911272100 METAR LRBC 272100Z 20006KT 1600 BR VV001 02/02 Q1011 R16/15//95=
201911272130 METAR LRBC 272130Z 20006KT 2000 BR VV002 02/02 Q1011 R16/15//95=
201911272200 METAR LRBC 272200Z 20006KT 2000 BR VV002 02/02 Q1011 R16/15//95=
201911272230 METAR LRBC 272230Z 20006KT 2500 BR VV002 03/02 Q1011 R16/15//95=
201911272300 METAR LRBC 272300Z 19006KT 3000 BR VV002 03/03 Q1011 R16/15//95=
201911272330 METAR LRBC 272330Z 18005KT 3000 BR OVC002 03/03 Q1010 R16/15//95=
201911280000 METAR LRBC 280000Z 19006KT 5000 BR OVC003 03/03 Q1010 R16/15//95=
201911280030 METAR LRBC 280030Z AUTO 18006KT 5000 BR OVC003/// 03/03 Q1010=
201911280100 METAR LRBC 280100Z AUTO 20007KT 5000 BR OVC004/// 03/03 Q1010=
201911280130 METAR LRBC 280130Z AUTO 18007KT 5000 BR OVC003/// 03/03 Q1010=
201911280200 METAR COR LRBC 280200Z 18007KT 5000 BR BKN002 03/03 Q1010
                        R16/15//95=
201911280230 METAR LRBC 280230Z 18007KT 5000 BR BKN002 03/03 Q1010 R16/15//95=
201911280300 METAR COR LRBC 280300Z 17008KT 3500 BR BKN001 OVC003 03/03
                        Q1009 R16/15//95=
201911280330 METAR LRBC 280330Z 17010KT 3000 BR OVC001 04/03 Q1009 R16/15//95=
201911280400 METAR LRBC 280400Z 18009KT 5000 BR OVC002 03/03 Q1009 R16/CLRD//=
201911280430 METAR LRBC 280430Z 18007KT 5000 0800S R34/1800D PRFG VV002
                        04/04 Q1009=
201911280500 METAR LRBC 280500Z 16011KT 0800 R34/1400D FG VV002 04/04
                        Q1009=
201911280530 METAR LRBC 280530Z 16011KT 1800 BR VV001 04/03 Q1009=
201911280600 METAR LRBC 280600Z 16012KT 0800 R34/1500N FG OVC001 04/03
                        Q1009=
201911280630 METAR LRBC 280630Z 16011KT 1000 R34/1500U BR OVC002 04/04
                        Q1009=
201911280700 METAR LRBC 280700Z 16012KT 1500 BR BKN001 OVC003 04/04 Q1009=
201911280730 METAR LRBC 280730Z 16009KT 140V210 1200 R34/1700U BR OVC002
                        04/04 Q1009=
201911280800 METAR LRBC 280800Z 16011KT 2000 BR BKN002 OVC004 04/04 Q1009=
201911280830 METAR LRBC 280830Z 16011KT 3000 BR OVC002 04/04 Q1009=
201911280900 METAR LRBC 280900Z 16011KT 2500 BR SCT001 OVC003 04/04 Q1009=
201911280930 METAR LRBC 280930Z 16011KT 1500 BR BKN001 OVC003 04/04 Q1009=
201911281000 METAR LRBC 281000Z 16011KT 2000 BR OVC001 04/04 Q1008=
201911281030 METAR LRBC 281030Z 15011KT 2000 BR OVC001 04/04 Q1008=
201911281100 METAR LRBC 281100Z 15012KT 1500 BR SCT001 OVC003 04/04 Q1008=
201911281130 METAR LRBC 281130Z 15012KT 0800 R34/1200U FG VV002 04/04
                        Q1008=
201911281200 METAR LRBC 281200Z 16010KT 0400 R34/0550N FG VV002 04/04
                        Q1008=
201911281230 METAR LRBC 281230Z 15010KT 1000 R34/1500U BR OVC002 05/05
                        Q1007=
201911281300 METAR LRBC 281300Z 17011KT 2000 BR BKN001 OVC003 05/05 Q1007=
201911281330 METAR LRBC 281330Z 16011KT 2000 BR SCT001 OVC003 05/05 Q1007=
201911281400 METAR LRBC 281400Z 15011KT 2000 BR OVC002 05/05 Q1007=
201911281430 METAR LRBC 281430Z 17012KT 3000 BR BKN003 OVC005 05/05 Q1007=
201911281500 METAR LRBC 281500Z 17010KT 3000 BR BKN003 OVC005 05/05 Q1007=
201911281530 METAR LRBC 281530Z 17011KT 4000 BR SCT002 OVC004 05/05 Q1007=
201911281600 METAR LRBC 281600Z 16010KT 3500 BR BKN002 OVC004 05/05 Q1007=
201911281630 METAR LRBC 281630Z 17008KT 3000 BR BKN001 OVC003 05/05 Q1007=
201911281700 METAR LRBC 281700Z 17009KT 1700 BR OVC001 05/05 Q1006=
201911281730 METAR LRBC 281730Z 18010KT 1700 BR VV002 05/05 Q1006=
201911281800 METAR LRBC 281800Z 17007KT 0900 R34/1100D FG VV001 05/05
                        Q1006=
201911281830 METAR LRBC 281830Z 17011KT 0900 R34/1400D FG VV002 05/05
                        Q1006=
201911281900 METAR LRBC 281900Z 17011KT 0400 R34/0750N FG VV001 05/05
                        Q1005=
201911281930 METAR LRBC 281930Z 17012KT 0400 R34/0700N FG VV001 05/05
                        Q1005=
201911282000 METAR LRBC 282000Z 18008KT 0700 R34/0900U FG VV001 05/05
                        Q1005=
201911282030 METAR LRBC 282030Z 17008KT 0400 R34/0700N FG VV001 05/05
                        Q1005=
201911282100 METAR LRBC 282100Z 17009KT 0400 R34/0700N FG VV001 05/05
                        Q1005=
201911282130 METAR LRBC 282130Z 17010KT 0400 R34/0650N FG VV001 05/05
                        Q1004=
201911282200 METAR LRBC 282200Z 19006KT 0600 R34/1000U FG VV001 05/05
                        Q1004=
201911282230 METAR LRBC 282230Z 19005KT 1000 R34/1400N -DZ BR VV001 05/05
                        Q1004=
201911282300 METAR LRBC 282300Z 18005KT 0600 R34/0700N -DZ FG VV001 05/05
                        Q1004=
201911282330 METAR LRBC 282330Z 17008KT 0400 R34/0500N -DZRA FG VV001
                        06/05 Q1003=
201911290000 METAR LRBC 290000Z 17007KT 0500 R34/0550N -RADZ FG VV001
                        06/05 Q1003=
201911290030 METAR COR LRBC 290030Z 17009KT 2300 BR BKN001 OVC005 05/05
                        Q1003=
201911290100 METAR LRBC 290100Z AUTO 17009KT 1200 R34/1000VP2000D -DZ
                        BKN001/// BKN004/// 05/05 Q1003=
201911290130 METAR LRBC 290130Z 16009KT 3100 -RA BR VV002 05/05 Q1003=
201911290200 METAR LRBC 290200Z 17009KT 3800 BR BKN001 05/05 Q1002=
201911290230 METAR LRBC 290230Z 17008KT 3000 BR BKN001 BKN050 05/05 Q1002=
201911290300 METAR LRBC 290300Z 18008KT 2000 BR BKN001 05/05 Q1002=
201911290330 METAR LRBC 290330Z 16005KT 130V200 1100 R34/1400U -RA BR
                        VV002 05/05 Q1002=
201911290400 METAR LRBC 290400Z 18005KT 150V220 1000 R34/1500D BR VV002
                        06/05 Q1002=
201911290430 METAR COR LRBC 290430Z 23003KT 0800 R34/1500D -RA FG VV002
                        05/05 Q1002=
201911290500 METAR LRBC 290500Z 20003KT 170V230 1500 BR VV002 05/05 Q1003=
201911290530 METAR LRBC 290530Z 19002KT 140V230 2000 BR BKN001 BKN065
                        05/05 Q1003 R16/210295=
201911290600 METAR LRBC 290600Z 21003KT 2400 BR FEW003 BKN065 05/05 Q1003
                        R16/210295=
201911290630 METAR LRBC 290630Z 21002KT 2000 BR FEW003 BKN065 06/05 Q1003
                        R16/210295=
201911290700 METAR COR LRBC 290700Z 23002KT 2000 0450S R34/0750D PRFG
                        FEW003 BKN060 06/06 Q1003 R16/210295=
201911290730 METAR LRBC 290730Z VRB01KT 2500 0500S R34/0650D PRFG SCT003
                        BKN060 06/06 Q1003 R16/210295=
201911290800 METAR LRBC 290800Z 25001KT 1700 BR BKN003 BKN060 06/06 Q1003
                        R16/210295=
201911290830 METAR LRBC 290830Z VRB01KT 3600 BKN003 BKN060 07/07 Q1003
                        R16/210295=
201911290900 METAR LRBC 290900Z 13001KT 6000 BKN065 08/07 Q1003 R16/210295=
201911290930 METAR LRBC 290930Z VRB01KT 6000 SCT065 08/08 Q1003 R16/210295=
201911291000 METAR LRBC 291000Z 23002KT 7000 NSC 08/08 Q1003 R16/210295=
201911291030 METAR LRBC 291030Z 30002KT 7000 NSC 09/09 Q1003 R16/210295=
201911291100 METAR LRBC 291100Z 32002KT 8000 SCT055 10/09 Q1002 R16/19//95=
201911291130 METAR LRBC 291130Z 10002KT 6000 SCT055 10/09 Q1002 R16/19//95=
201911291200 METAR LRBC 291200Z 02003KT 6000 FEW055 10/09 Q1003 R16/19//95=
201911291230 METAR LRBC 291230Z 00000KT 7000 FEW055 10/09 Q1003 R16/19//95=
201911291300 METAR LRBC 291300Z 31002KT 8000 BKN065 11/09 Q1003 R16/19//95=
201911291330 METAR LRBC 291330Z 29002KT 160V310 8000 FEW065 11/09 Q1003
                        R16/19//95=
201911291400 METAR LRBC 291400Z 25001KT 7000 NSC 11/09 Q1003 R16/19//95=
201911291430 METAR LRBC 291430Z 00000KT 4600 BR NSC 09/09 Q1004 R16/19//95=
201911291500 METAR LRBC 291500Z 22002KT 1400 R34/2000D MIFG NSC 08/07
                        Q1004 R16/19//95=
201911291530 METAR LRBC 291530Z 31002KT 4600 MIFG NSC 07/07 Q1004 R16/19//95=
201911291600 METAR LRBC 291600Z VRB01KT 5000 BR NSC 06/06 Q1004 R16/19//95=
201911291630 METAR LRBC 291630Z 33001KT 5000 BR NSC 06/06 Q1004 R16/19//95=
201911291700 METAR LRBC 291700Z 11002KT 2900 BR NSC 06/06 Q1005 R16/19//95=
201911291730 METAR LRBC 291730Z VRB01KT 2900 BR NSC 06/05 Q1005 R16/19//95=
201911291800 METAR COR LRBC 291800Z 12005KT 100V160 2500 BR NSC 05/05
                        Q1005 R16/19//95=
201911291830 METAR LRBC 291830Z 08002KT 050V120 2500 1200S R34/1600N MIFG
                        NSC 05/05 Q1005 R16/19//95=
201911291900 METAR LRBC 291900Z 06003KT 350V100 6000 NSC 05/05 Q1006 R16/19//95=
201911291930 METAR LRBC 291930Z 33005KT 290V010 6000 NSC 05/05 Q1006 R16/19//95=
201911292000 METAR LRBC 292000Z 01005KT 330V070 CAVOK 06/05 Q1006 R16/19//95=
201911292030 METAR LRBC 292030Z 01003KT 340V080 CAVOK 07/05 Q1006 R16/19//95=
201911292100 METAR LRBC 292100Z VRB01KT 4600 MIFG NSC 05/05 Q1006 R16/19//95=
201911292130 METAR LRBC 292130Z VRB01KT 9999 4000S MIFG NSC 05/05 Q1006
                        R16/19//95=
201911292200 METAR LRBC 292200Z 23007KT 190V250 CAVOK 08/05 Q1006 R16/19//95=
201911292230 METAR LRBC 292230Z 26006KT 150V310 CAVOK 10/04 Q1006 R16/19//95=
201911292300 METAR LRBC 292300Z 26008KT CAVOK 10/04 Q1006 R16/19//95=
201911292330 METAR LRBC 292330Z 27009KT CAVOK 10/04 Q1007 R16/19//95=
201911300000 METAR LRBC 300000Z VRB01KT CAVOK 06/04 Q1007 R16/19//95=
201911300030 METAR LRBC 300030Z 25009KT CAVOK 09/04 Q1007 R16/19//95=
201911300100 METAR LRBC 300100Z AUTO VRB01KT 9999 SCT110/// BKN140///
                        07/03 Q1007=
201911300130 METAR LRBC 300130Z 00000KT CAVOK 07/04 Q1007 R16/19//95=
201911300200 METAR LRBC 300200Z AUTO 25006KT 210V270 9999 BKN110/// 09/04
                        Q1007=
201911300230 METAR LRBC 300230Z 25008KT CAVOK 08/04 Q1007 R16/19//95=
201911300300 METAR LRBC 300300Z 25009KT CAVOK 08/04 Q1008 R16/19//95=
201911300330 METAR LRBC 300330Z 25009KT CAVOK 08/04 Q1008 R16/19//95=
201911300400 METAR LRBC 300400Z 24005KT CAVOK 08/04 Q1008 R16/19//95=
201911300430 METAR LRBC 300430Z 09002KT 070V130 CAVOK 05/03 Q1008 R16/19//95=
201911300500 METAR LRBC 300500Z 10003KT CAVOK 05/03 Q1008 R16/19//95=
201911300530 METAR LRBC 300530Z 33004KT CAVOK 02/02 Q1009 R16/19//95=
201911300600 METAR LRBC 300600Z 06003KT CAVOK 05/04 Q1010 R16/19//95=
201911300630 METAR LRBC 300630Z 36011KT 9999 BKN049 06/04 Q1011 R16/19//95=
201911300700 METAR LRBC 300700Z 35010KT 9999 BKN050 06/05 Q1012 R16/19//95=
201911300730 METAR LRBC 300730Z 35009KT 9999 FEW016 BKN060 06/05 Q1012
                        R16/19//95=
201911300800 METAR LRBC 300800Z 35012KT 9999 SCT060 06/05 Q1012 R16/19//95=
201911300830 METAR LRBC 300830Z 35012KT 9999 BKN024 06/03 Q1013 R16/19//95=
201911300900 METAR LRBC 300900Z 34014KT 9999 BKN023 07/04 Q1012 R16/19//95=
201911300930 METAR LRBC 300930Z 34014KT 9999 BKN024 07/03 Q1013 R16/19//95=
201911301000 METAR LRBC 301000Z 35011KT 9999 BKN024 07/02 Q1013 R16/19//95=
201911301030 METAR LRBC 301030Z 34012KT 9999 BKN025 07/03 Q1013 R16/19//95=
201911301100 METAR LRBC 301100Z 35011KT 9999 BKN025 07/02 Q1013 R16/19//95=
201911301130 METAR LRBC 301130Z 35011KT 9999 BKN027 07/02 Q1013 R16/19//95=
201911301200 METAR LRBC 301200Z 34011KT 9999 -RA OVC030 06/03 Q1013 R16/19//95=
201911301230 METAR LRBC 301230Z 34011KT 9999 -RA FEW018 BKN040 06/03 Q1013
                        R16/19//95=
201911301300 METAR LRBC 301300Z 34009KT 9999 FEW019 BKN032 06/03 Q1014
                        R16/19//95=
201911301330 METAR LRBC 301330Z 34009KT 9999 FEW020 OVC035 05/03 Q1014
                        R16/19//95=
201911301400 METAR LRBC 301400Z 32008KT 9999 -RA FEW020 OVC035 05/03 Q1015
                        R16/19//95=
201911301430 METAR LRBC 301430Z 32006KT 9999 OVC040 05/03 Q1015 R16/19//95=
201911301500 METAR LRBC 301500Z 32012KT 9999 -RA FEW015 OVC055 05/03 Q1015
                        R16/19//95=
201911301530 METAR COR LRBC 301530Z 34010KT 8000 RA FEW015 OVC025 04/02
                        Q1016 R16/19//95=
201911301600 METAR LRBC 301600Z 30009KT 9999 -RA OVC014 03/03 Q1016 RERA
                        R16/250395=
201911301630 METAR LRBC 301630Z 32008KT 9999 -RA FEW018 OVC022 03/03 Q1017
                        R16/250395=
201911301700 METAR LRBC 301700Z 31010KT 9999 -RA FEW014 SCT028 OVC033
                        03/03 Q1017 R16/250395=
201911301730 METAR LRBC 301730Z 32009KT 9999 -RA FEW034 OVC050 03/03 Q1017
                        R16/250395=
201911301800 METAR LRBC 301800Z 32009KT 9999 -RA FEW026 BKN032 OVC048
                        04/02 Q1018 R16/250395=
201911301830 METAR LRBC 301830Z 32013KT 9999 -RA BKN032 OVC048 03/02 Q1018
                        R16/250395=
201911301900 METAR LRBC 301900Z 33009KT 9999 -RA FEW024 BKN032 OVC048
                        03/02 Q1018 R16/250395=
201911301930 METAR LRBC 301930Z 34015KT 9999 BKN030 OVC055 03/01 Q1019
                        R16/250395=
201911302000 METAR LRBC 302000Z 34015KT 9999 BKN031 OVC050 03/00 Q1019
                        R16/250395=
201911302030 METAR LRBC 302030Z 34013KT 9999 -SN BKN031 OVC045 02/M00
                        Q1019 R16/250395=
201911302100 METAR LRBC 302100Z 35014KT 9999 -SN BKN031 OVC045 02/M01
                        Q1020 R16/250395=
201911302130 METAR LRBC 302130Z 34013KT 9999 -SN BKN031 OVC045 02/M01
                        Q1020 R16/250395=
201911302200 METAR LRBC 302200Z 33010KT 9999 BKN031 OVC055 02/M01 Q1020
                        R16/250395=
201911302230 METAR LRBC 302230Z 33011KT 9999 BKN031 BKN050 02/M02 Q1021
                        R16/250395=
201911302300 METAR LRBC 302300Z 33009KT 9999 -SN BKN031 OVC055 02/M02
                        Q1021 R16/250395=
201911302330 METAR LRBC 302330Z 33012KT 9999 BKN031 OVC055 02/M02 Q1021
                        R16/250395=
