201912010000 METAR LRBC 010000Z 33014KT 9999 BKN031 OVC055 02/M03 Q1021
                        R16/250395=
201912010030 METAR LRBC 010030Z 34008KT 9999 OVC055 02/M03 Q1021 R16/250395=
201912010100 METAR LRBC 010100Z 34008KT 9999 OVC055 02/M03 Q1022 R16/250395=
201912010130 METAR LRBC 010130Z 35009KT 9999 BKN065 01/M03 Q1022 R16/250395=
201912010200 METAR LRBC 010200Z 34007KT 9999 BKN060 02/M03 Q1022 R16/250395=
201912010230 METAR LRBC 010230Z 34010KT 9999 BKN060 01/M04 Q1022 R16/250395=
201912010300 METAR LRBC 010300Z 34010KT 9999 BKN060 01/M04 Q1022 R16/250395=
201912010330 METAR LRBC 010330Z 33011KT 9999 BKN065 01/M04 Q1023 R16/250395=
201912010400 METAR LRBC 010400Z AUTO 33008KT 9999 BKN075/// 01/M04 Q1023=
201912010430 METAR LRBC 010430Z 34004KT 9999 SCT060 M00/M04 Q1023=
201912010500 METAR LRBC 010500Z 36007KT 9999 SCT060 00/M05 Q1024=
201912010530 METAR LRBC 010530Z 34008KT 9999 SCT060 M01/M05 Q1024=
201912010600 METAR LRBC 010600Z 34005KT CAVOK M01/M05 Q1024=
201912010630 METAR LRBC 010630Z 11002KT CAVOK M00/M03 Q1025=
201912010700 METAR LRBC 010700Z 00000KT CAVOK 02/M03 Q1025=
201912010730 METAR LRBC 010730Z 32007KT 290V350 CAVOK 02/M05 Q1025=
201912010800 METAR LRBC 010800Z 33011KT CAVOK 03/M05 Q1026=
201912010830 METAR LRBC 010830Z 34013KT 300V010 CAVOK 03/M05 Q1026=
201912010900 METAR LRBC 010900Z 34012KT CAVOK 03/M05 Q1026=
201912010930 METAR LRBC 010930Z 35010KT 320V030 CAVOK 04/M05 Q1026=
201912011000 METAR LRBC 011000Z 36011KT CAVOK 04/M04 Q1026=
201912011030 METAR LRBC 011030Z 36009KT 340V040 CAVOK 04/M05 Q1026=
201912011100 METAR LRBC 011100Z 36006KT 320V080 CAVOK 05/M05 Q1026=
201912011130 METAR LRBC 011130Z 34007KT 310V020 CAVOK 05/M04 Q1026=
201912011200 METAR LRBC 011200Z 01006KT 310V050 CAVOK 05/M06 Q1026=
201912011230 METAR LRBC 011230Z 36007KT CAVOK 05/M06 Q1026=
201912011300 METAR LRBC 011300Z 03005KT 360V070 CAVOK 04/M05 Q1026=
201912011330 METAR LRBC 011330Z 03004KT 360V070 CAVOK 04/M05 Q1026=
201912011400 METAR LRBC 011400Z 05004KT 020V080 CAVOK 04/M05 Q1026=
201912011430 METAR LRBC 011430Z 07003KT CAVOK 03/M05 Q1026=
201912011500 METAR LRBC 011500Z VRB02KT CAVOK 01/M02 Q1027=
201912011530 METAR LRBC 011530Z 25004KT CAVOK M00/M03 Q1027=
201912011600 METAR LRBC 011600Z 24003KT CAVOK M01/M04 Q1027=
201912011630 METAR LRBC 011630Z VRB02KT CAVOK M01/M03 Q1027=
201912011700 METAR LRBC 011700Z 16002KT CAVOK M01/M03 Q1027=
201912011730 METAR LRBC 011730Z 15003KT CAVOK M01/M03 Q1027=
201912011800 METAR LRBC 011800Z 18002KT CAVOK M01/M03 Q1027=
201912011830 METAR LRBC 011830Z 14003KT CAVOK M02/M03 Q1027=
201912011900 METAR LRBC 011900Z 19003KT CAVOK M02/M04 Q1027=
201912011930 METAR LRBC 011930Z 15004KT CAVOK M02/M04 Q1027=
201912012000 METAR LRBC 012000Z 15006KT CAVOK M02/M04 Q1027=
201912012030 METAR LRBC 012030Z 16004KT CAVOK M02/M04 Q1027=
201912012100 METAR LRBC 012100Z 17005KT CAVOK M03/M04 Q1027=
201912012130 METAR LRBC 012130Z 16004KT CAVOK M02/M03 Q1027=
201912012200 METAR LRBC 012200Z 16006KT CAVOK M02/M03 Q1027=
201912012230 METAR LRBC 012230Z 15005KT CAVOK M03/M04 Q1027=
201912012300 METAR LRBC 012300Z 18004KT CAVOK M03/M04 Q1026=
201912012330 METAR LRBC 012330Z 17004KT CAVOK M03/M04 Q1026=
201912020000 METAR LRBC 020000Z 17006KT CAVOK M03/M04 Q1026=
201912020030 METAR LRBC 020030Z 17009KT CAVOK M02/M04 Q1025=
201912020100 METAR LRBC 020100Z 16009KT CAVOK M02/M04 Q1025=
201912020130 METAR COR LRBC 020130Z 17009KT CAVOK M03/M04 Q1025=
201912020200 METAR LRBC 020200Z 16010KT CAVOK M02/M03 Q1025=
201912020230 METAR LRBC 020230Z AUTO 16011KT 9999 NCD M03/M03 Q1024=
201912020300 METAR LRBC 020300Z AUTO 16012KT 0350 R34/0400N FZFG VV001
                        M03/M03 Q1024=
201912020330 METAR LRBC 020330Z 17010KT 0450 R34/0500N FZFG VV001 M03/M03
                        Q1023=
201912020400 METAR LRBC 020400Z AUTO 16010KT 0550 R34/0650U FZFG VV001
                        M03/M03 Q1023=
201912020430 METAR LRBC 020430Z 16010KT 0600 R34/0800U FZFG VV001 M03/M03
                        Q1022=
201912020500 METAR LRBC 020500Z 17012KT 1000 R34/1800U BR VV002 M03/M03
                        Q1022=
201912020530 METAR LRBC 020530Z 18010KT 3000 BR BKN001 M03/M03 Q1022=
201912020600 METAR LRBC 020600Z 17012KT 4000 BR BKN002 M03/M03 Q1022=
201912020630 METAR LRBC 020630Z 18012KT 5000 BR BKN002 M03/M03 Q1022=
201912020700 METAR LRBC 020700Z 16011KT 6000 SCT003 M02/M02 Q1021=
201912020730 METAR LRBC 020730Z 17011KT 8000 FEW005 M02/M02 Q1021=
201912020800 METAR LRBC 020800Z 17012KT CAVOK M01/M01 Q1021=
201912020830 METAR LRBC 020830Z 17012KT CAVOK M01/M01 Q1020=
201912020900 METAR LRBC 020900Z 17012KT CAVOK 00/00 Q1020=
201912020930 METAR LRBC 020930Z 16014KT CAVOK 01/00 Q1019=
201912021000 METAR LRBC 021000Z 15014KT CAVOK 03/M00 Q1018=
201912021030 METAR LRBC 021030Z 16013KT CAVOK 02/M00 Q1018=
201912021100 METAR LRBC 021100Z 16012KT CAVOK 02/M01 Q1018=
201912021130 METAR LRBC 021130Z 16013KT CAVOK 02/M00 Q1017=
201912021200 METAR LRBC 021200Z 17011KT CAVOK 03/00 Q1016=
201912021230 METAR LRBC 021230Z 17010KT CAVOK 03/00 Q1016=
201912021300 METAR LRBC 021300Z 17011KT CAVOK 03/00 Q1015=
201912021330 METAR LRBC 021330Z 16013KT CAVOK 03/M00 Q1015=
201912021400 METAR LRBC 021400Z 16011KT CAVOK 03/M00 Q1015=
201912021430 METAR LRBC 021430Z 16010KT CAVOK 02/M00 Q1014=
201912021500 METAR LRBC 021500Z 16009KT CAVOK 02/00 Q1014=
201912021530 METAR LRBC 021530Z 17010KT 9999 SCT055 02/00 Q1014=
201912021600 METAR LRBC 021600Z 16008KT 9999 OVC055 02/00 Q1014=
201912021630 METAR LRBC 021630Z 17005KT 9999 OVC060 02/01 Q1014=
201912021700 METAR LRBC 021700Z 16004KT 9999 BKN065 02/01 Q1014=
201912021730 METAR LRBC 021730Z 19003KT 9999 OVC065 02/01 Q1014=
201912021800 METAR LRBC 021800Z 32006KT CAVOK 01/01 Q1014=
201912021830 METAR LRBC 021830Z 34005KT CAVOK 01/01 Q1014=
201912021900 METAR LRBC 021900Z 34005KT CAVOK 01/00 Q1015=
201912021930 METAR LRBC 021930Z 35007KT CAVOK 01/00 Q1015=
201912022000 METAR LRBC 022000Z 35007KT 9999 BKN009 01/01 Q1015=
201912022030 METAR LRBC 022030Z 35006KT 9999 FEW006 BKN008 01/01 Q1016=
201912022100 METAR LRBC 022100Z 35005KT 5000 -SN OVC008 01/01 Q1016=
201912022130 METAR LRBC 022130Z 34006KT 3000 SN BR BKN006 OVC035 00/00
                        Q1016=
201912022200 METAR LRBC 022200Z 35004KT 5000 -SNRA BR BKN005 OVC014 00/00
                        Q1017 RESN R16/19//95=
201912022230 METAR COR LRBC 022230Z 32002KT 5000 BR BKN015 BKN038 01/00
                        Q1017 R16/19//95=
201912022300 METAR LRBC 022300Z AUTO 35004KT 7000 FEW012/// BKN038///
                        01/01 Q1017 REDZ=
201912022330 METAR COR LRBC 022330Z 33003KT 8000 OVC041 01/01 Q1017 R16/19//95=
201912030000 METAR LRBC 030000Z AUTO 28002KT 240V320 8000 BKN040/// 01/01
                        Q1018=
201912030030 METAR LRBC 030030Z AUTO 35004KT 9999 SCT039/// OVC055///
                        01/00 Q1018=
201912030100 METAR LRBC 030100Z 35004KT 9999 FEW039 BKN060 01/00 Q1018
                        R16/19//95=
201912030130 METAR LRBC 030130Z AUTO 03002KT 360V060 9999 FEW038/// BKN060///
                        01/M00 Q1018=
201912030200 METAR COR LRBC 030200Z 30002KT 9999 BKN035 BKN044 00/M00
                        Q1018 R16/19//95=
201912030230 METAR LRBC 030230Z 30002KT 9999 BKN035 OVC044 00/M00 Q1018
                        R16/19//95=
201912030300 METAR LRBC 030300Z VRB01KT 9999 FEW041 OVC060 01/M00 Q1018
                        R16/19//95=
201912030330 METAR LRBC 030330Z 18001KT 9999 BKN039 OVC060 00/M00 Q1019
                        R16/19//95=
201912030400 METAR LRBC 030400Z VRB01KT 9999 FEW042 OVC049 00/M00 Q1019
                        R16/19//95=
201912030430 METAR LRBC 030430Z VRB02KT 9999 BKN050 OVC065 01/M01 Q1019
                        R16/19//95=
201912030500 METAR LRBC 030500Z 11004KT 080V140 9999 OVC065 00/M00 Q1019
                        R16/19//95=
201912030530 METAR LRBC 030530Z 07003KT 040V110 9999 BKN065 00/M00 Q1020
                        R16/19//95=
201912030600 METAR LRBC 030600Z 01003KT 9999 BKN060 01/M01 Q1020 R16/19//95=
201912030630 METAR LRBC 030630Z 01002KT 9999 BKN060 01/M01 Q1020 R16/19//95=
201912030700 METAR LRBC 030700Z 13002KT 9999 SCT060 01/M00 Q1021 R16/19//95=
201912030730 METAR LRBC 030730Z 14003KT 9999 SCT060 01/M00 Q1021 R16/19//95=
201912030800 METAR LRBC 030800Z 26003KT 180V340 9999 BKN065 02/M01 Q1021
                        R16/19//95=
201912030830 METAR LRBC 030830Z 26003KT 180V340 9999 BKN065 02/M01 Q1021
                        R16/19//95=
201912030900 METAR LRBC 030900Z 28008KT 9999 BKN060 04/M02 Q1021 R16/19//95=
201912030930 METAR LRBC 030930Z 27008KT 9999 SCT055 BKN065 04/M02 Q1021
                        R16/19//95=
201912031000 METAR LRBC 031000Z 25009KT 220V280 9999 BKN060 05/M04 Q1021
                        R16/19//95=
201912031030 METAR LRBC 031030Z 31010KT 270V340 9999 SCT065 06/M04 Q1021
                        R16/19//95=
201912031100 METAR LRBC 031100Z 31008KT 9999 SCT055 BKN065 05/M04 Q1021
                        R16/19//95=
201912031130 METAR LRBC 031130Z 33009KT 9999 BKN055 BKN060 06/M06 Q1021
                        R16/CLRD//=
201912031200 METAR LRBC 031200Z 33006KT 9999 BKN060 05/M02 Q1021=
201912031230 METAR LRBC 031230Z 03005KT 9999 SCT055 BKN065 05/M04 Q1022=
201912031300 METAR LRBC 031300Z 04005KT 9999 BKN065 04/M03 Q1022=
201912031330 METAR LRBC 031330Z 35004KT 9999 BKN065 04/M04 Q1022=
201912031400 METAR LRBC 031400Z 30005KT 9999 BKN065 03/M01 Q1022=
201912031430 METAR LRBC 031430Z 30004KT 9999 BKN065 01/M01 Q1022=
201912031500 METAR LRBC 031500Z 30003KT 9999 SCT065 01/M02 Q1023=
201912031530 METAR LRBC 031530Z 36006KT 9999 SCT065 01/M03 Q1023=
201912031600 METAR LRBC 031600Z 01006KT 9999 FEW065 01/M03 Q1023=
201912031630 METAR LRBC 031630Z 35007KT 9999 FEW060 M01/M03 Q1024=
201912031700 METAR LRBC 031700Z 33005KT CAVOK M01/M03 Q1024=
201912031730 METAR LRBC 031730Z 33004KT CAVOK 00/M03 Q1025=
201912031800 METAR LRBC 031800Z 32006KT CAVOK M02/M03 Q1025=
201912031830 METAR LRBC 031830Z 33005KT CAVOK M01/M03 Q1025=
201912031900 METAR LRBC 031900Z 36006KT 340V050 9999 FEW050 01/M03 Q1026=
201912031930 METAR LRBC 031930Z VRB02KT 9999 BKN050 M01/M03 Q1026=
201912032000 METAR LRBC 032000Z 34006KT 330V040 9999 FEW019 BKN050 M01/M03
                        Q1027=
201912032030 METAR LRBC 032030Z 35005KT 320V020 9999 SCT020 OVC050 M00/M02
                        Q1027=
201912032100 METAR LRBC 032100Z 35010KT 9999 BKN032 OVC050 01/M01 Q1027=
201912032130 METAR LRBC 032130Z 34008KT 9999 FEW037 BKN042 01/M02 Q1028=
201912032200 METAR LRBC 032200Z 33007KT 9999 BKN044 00/M02 Q1028=
201912032230 METAR LRBC 032230Z 34004KT 9999 BKN043 M00/M02 Q1028=
201912032300 METAR LRBC 032300Z 33006KT 9999 BKN043 M01/M03 Q1028=
201912032330 METAR LRBC 032330Z AUTO 32006KT 9999 SCT043/// M01/M03 Q1028=
201912040000 METAR LRBC 040000Z AUTO 34006KT 9999 SCT024/// BKN044///
                        M01/M02 Q1028=
201912040030 METAR LRBC 040030Z AUTO 35007KT 9999 FEW024/// BKN043///
                        00/M02 Q1029=
201912040100 METAR LRBC 040100Z 36006KT 9999 BKN043 01/M03 Q1029=
201912040130 METAR LRBC 040130Z 35005KT 330V030 9999 BKN043 M00/M03 Q1029=
201912040200 METAR LRBC 040200Z 36002KT 320V030 9999 SCT045 M01/M03 Q1029=
201912040230 METAR LRBC 040230Z 31004KT 9999 SCT045 M02/M03 Q1029=
201912040300 METAR LRBC 040300Z 33003KT 260V340 9999 FEW045 M02/M03 Q1029=
201912040330 METAR LRBC 040330Z 31003KT 9999 FEW045 M03/M03 Q1029=
201912040400 METAR LRBC 040400Z 29003KT 9999 FEW045 M03/M04 Q1029=
201912040430 METAR LRBC 040430Z 00000KT 9999 SCT034 M03/M04 Q1029=
201912040500 METAR LRBC 040500Z 12002KT 9999 BKN033 M02/M03 Q1030=
201912040530 METAR LRBC 040530Z 12001KT 9999 OVC034 M02/M03 Q1030=
201912040600 METAR LRBC 040600Z VRB01KT 9999 BKN033 M02/M03 Q1030=
201912040630 METAR LRBC 040630Z 19003KT 9999 SCT032 M02/M03 Q1030=
201912040700 METAR LRBC 040700Z 13002KT 9999 SCT035 M01/M02 Q1030=
201912040730 METAR LRBC 040730Z 15002KT 9999 SCT030 M00/M02 Q1030=
201912040800 METAR LRBC 040800Z 17002KT CAVOK 01/M02 Q1030=
201912040830 METAR LRBC 040830Z 15003KT CAVOK 01/M02 Q1030=
201912040900 METAR LRBC 040900Z 13004KT CAVOK 02/M03 Q1030=
201912040930 METAR LRBC 040930Z 10004KT CAVOK 02/M04 Q1030=
201912041000 METAR LRBC 041000Z 13003KT CAVOK 03/M04 Q1030=
201912041030 METAR LRBC 041030Z 13004KT CAVOK 03/M03 Q1029=
201912041100 METAR LRBC 041100Z 10003KT CAVOK 03/M03 Q1029=
201912041130 METAR LRBC 041130Z 14005KT CAVOK 03/M03 Q1029=
201912041200 METAR LRBC 041200Z 18006KT CAVOK 04/M02 Q1029=
201912041230 METAR LRBC 041230Z 18007KT CAVOK 04/M02 Q1028=
201912041300 METAR LRBC 041300Z 17008KT CAVOK 03/M02 Q1028=
201912041330 METAR LRBC 041330Z 16008KT CAVOK 02/M02 Q1028=
201912041400 METAR LRBC 041400Z 15008KT CAVOK 02/M02 Q1028=
201912041430 METAR LRBC 041430Z 16011KT CAVOK 01/M02 Q1028=
201912041500 METAR LRBC 041500Z 16008KT CAVOK 00/M02 Q1028=
201912041530 METAR LRBC 041530Z 15008KT CAVOK M00/M03 Q1028=
201912041600 METAR LRBC 041600Z 15008KT CAVOK 00/M03 Q1028=
201912041630 METAR LRBC 041630Z 15007KT CAVOK M00/M03 Q1029=
201912041700 METAR LRBC 041700Z 15007KT CAVOK M01/M03 Q1029=
201912041730 METAR LRBC 041730Z 15005KT CAVOK M01/M04 Q1029=
201912041800 METAR LRBC 041800Z 24002KT CAVOK M01/M03 Q1029=
201912041830 METAR LRBC 041830Z 20002KT CAVOK M02/M03 Q1030=
201912041900 METAR LRBC 041900Z 23002KT 160V280 CAVOK M02/M04 Q1030=
201912041930 METAR LRBC 041930Z 24004KT CAVOK M03/M04 Q1030=
201912042000 METAR LRBC 042000Z 23003KT CAVOK M03/M04 Q1030=
201912042030 METAR LRBC 042030Z 28001KT CAVOK M03/M04 Q1030=
201912042100 METAR LRBC 042100Z 28001KT CAVOK M03/M05 Q1030=
201912042130 METAR LRBC 042130Z 23002KT CAVOK M04/M05 Q1030=
201912042200 METAR LRBC 042200Z 17001KT CAVOK M04/M05 Q1030=
201912042230 METAR LRBC 042230Z 13002KT CAVOK M04/M05 Q1030=
201912042300 METAR LRBC 042300Z 33002KT CAVOK M04/M05 Q1030=
201912042330 METAR LRBC 042330Z 01001KT CAVOK M04/M05 Q1030=
201912050000 METAR COR LRBC 050000Z 33001KT CAVOK M05/M06 Q1030=
201912050030 METAR LRBC 050030Z 33001KT CAVOK M05/M06 Q1030=
201912050100 METAR LRBC 050100Z 33001KT CAVOK M05/M06 Q1030=
201912050130 METAR LRBC 050130Z AUTO 35001KT 7000 NCD M05/M05 Q1030=
201912050200 METAR LRBC 050200Z 35004KT CAVOK M05/M06 Q1029=
201912050230 METAR LRBC 050230Z 35002KT 9000 NCD M05/M06 Q1029=
201912050300 METAR LRBC 050300Z 34002KT CAVOK M05/M06 Q1029=
201912050330 METAR LRBC 050330Z 31002KT 280V360 CAVOK M06/M07 Q1030=
201912050400 METAR LRBC 050400Z 33002KT CAVOK M06/M07 Q1030=
201912050430 METAR LRBC 050430Z 00000KT CAVOK M06/M07 Q1030=
201912050500 METAR COR LRBC 050500Z 15002KT 130V240 CAVOK M06/M07 Q1030=
201912050530 METAR LRBC 050530Z 00000KT 8000 NSC M06/M07 Q1030=
201912050600 METAR LRBC 050600Z 32001KT 9000 NSC M06/M06 Q1030=
201912050630 METAR LRBC 050630Z 33002KT CAVOK M05/M06 Q1030=
201912050700 METAR LRBC 050700Z 00000KT CAVOK M03/M05 Q1030=
201912050730 METAR LRBC 050730Z 16002KT CAVOK M02/M04 Q1030=
201912050800 METAR LRBC 050800Z 16003KT CAVOK M02/M03 Q1030=
201912050830 METAR LRBC 050830Z 16003KT 140V200 CAVOK M01/M03 Q1029=
201912050900 METAR LRBC 050900Z 20003KT 120V230 CAVOK M00/M03 Q1029=
201912050930 METAR LRBC 050930Z 19005KT 160V220 CAVOK 01/M03 Q1029=
201912051000 METAR LRBC 051000Z 15005KT CAVOK 02/M04 Q1028=
201912051030 METAR LRBC 051030Z 18006KT 100V240 CAVOK 03/M04 Q1028=
201912051100 METAR LRBC 051100Z 18009KT CAVOK 03/M03 Q1028=
201912051130 METAR LRBC 051130Z 17010KT CAVOK 03/M04 Q1027=
201912051200 METAR LRBC 051200Z 17010KT CAVOK 03/M04 Q1027=
201912051230 METAR LRBC 051230Z 17011KT CAVOK 03/M03 Q1027=
201912051300 METAR LRBC 051300Z 17011KT CAVOK 03/M04 Q1027=
201912051330 METAR LRBC 051330Z 17010KT CAVOK 02/M04 Q1026=
201912051400 METAR LRBC 051400Z 17012KT CAVOK 01/M04 Q1026=
201912051430 METAR LRBC 051430Z 17012KT CAVOK 00/M04 Q1026=
201912051500 METAR LRBC 051500Z 16012KT CAVOK M00/M04 Q1026=
201912051530 METAR LRBC 051530Z 17012KT CAVOK M01/M04 Q1026=
201912051600 METAR LRBC 051600Z 18011KT CAVOK M01/M04 Q1026=
201912051630 METAR LRBC 051630Z 17009KT CAVOK M02/M03 Q1026=
201912051700 METAR LRBC 051700Z 17008KT CAVOK M02/M03 Q1026=
201912051730 METAR LRBC 051730Z 18007KT 6000 NSC M02/M03 Q1026=
201912051800 METAR LRBC 051800Z 20007KT 6000 NSC M02/M03 Q1025=
201912051830 METAR LRBC 051830Z 19005KT 6000 NSC M03/M03 Q1025=
201912051900 METAR LRBC 051900Z 18007KT 6000 NSC M02/M03 Q1025=
201912051930 METAR LRBC 051930Z 18006KT 5000 BR NSC M02/M03 Q1025=
201912052000 METAR LRBC 052000Z 18006KT 5000 BR NSC M03/M03 Q1025=
201912052030 METAR LRBC 052030Z 19005KT 5000 BR NSC M03/M03 Q1025=
201912052100 METAR LRBC 052100Z 18006KT 5000 BR NSC M03/M04 Q1025=
201912052130 METAR LRBC 052130Z 18006KT 4000 BR NSC M03/M04 Q1025=
201912052200 METAR LRBC 052200Z 17005KT 4500 BR NSC M03/M04 Q1025=
201912052230 METAR LRBC 052230Z 16003KT 3500 BR NSC M03/M03 Q1024=
201912052300 METAR LRBC 052300Z 16003KT 3500 BR NSC M03/M03 Q1024=
201912052330 METAR LRBC 052330Z 16004KT 3500 BR NSC M04/M04 Q1024=
201912060000 METAR LRBC 060000Z 17007KT 2000 BR BKN001 M03/M03 Q1024=
201912060030 METAR LRBC 060030Z 17009KT 0500 R34/0550N FZFG VV001 M03/M03
                        Q1024=
201912060100 METAR LRBC 060100Z 16007KT 0450 R34/0500N FZFG VV001 M03/M03
                        Q1024=
201912060130 METAR LRBC 060130Z 17007KT 0350 R34/0400D FZFG VV001 M03/M03
                        Q1023=
201912060200 METAR LRBC 060200Z 17008KT 0350 R34/0400N FZFG VV001 M03/M03
                        Q1023=
201912060230 METAR LRBC 060230Z 17008KT 0450 R34/0500U FZFG VV001 M03/M03
                        Q1023=
201912060300 METAR COR LRBC 060300Z 17007KT 0700 R34/0800D FZFG VV002
                        M03/M03 Q1023=
201912060330 METAR LRBC 060330Z 16006KT 0700 R34/0800U FZFG BKN003 M03/M03
                        Q1023=
201912060400 METAR LRBC 060400Z 17005KT 0450 R34/0600N FZFG OVC003 M04/M04
                        Q1023=
201912060430 METAR LRBC 060430Z 16004KT 0350 R34/0400N FZFG VV001 M04/M04
                        Q1023=
201912060500 METAR LRBC 060500Z 18006KT 0450 R34/0500N FZFG VV001 M04/M04
                        Q1022=
201912060530 METAR LRBC 060530Z 16005KT 0450 R34/0500N FZFG VV001 M04/M04
                        Q1022=
201912060600 METAR LRBC 060600Z 17006KT 0300 R34/0450N FZFG VV001 M04/M04
                        Q1023=
201912060630 METAR LRBC 060630Z 16006KT 0200 R34/0250N FZFG VV001 M04/M04
                        Q1023=
201912060700 METAR LRBC 060700Z 16005KT 130V190 0200 R34/0250N FZFG VV001
                        M04/M04 Q1023=
201912060730 METAR LRBC 060730Z 17005KT 130V200 0200 R34/0200N FZFG VV001
                        M04/M04 Q1023=
201912060800 METAR LRBC 060800Z 18005KT 140V210 0100 R34/0225N FZFG VV001
                        M04/M04 Q1023=
201912060830 METAR LRBC 060830Z 16005KT 0200 R34/0225N FZFG VV001 M04/M04
                        Q1023=
201912060900 METAR LRBC 060900Z 17006KT 0200 R34/0225N FZFG VV001 M03/M04
                        Q1022=
201912060930 METAR LRBC 060930Z 17005KT 0400 R34/0500U FZFG VV001 M03/M03
                        Q1022=
201912061000 METAR LRBC 061000Z 17009KT 0600 R34/0650N FZFG VV002 M03/M03
                        Q1021=
201912061030 METAR LRBC 061030Z 17009KT 0600 R34/0700N FZFG VV002 M02/M02
                        Q1021=
201912061100 METAR LRBC 061100Z 17011KT 1500 BR BKN001 M01/M01 Q1020=
201912061130 METAR LRBC 061130Z 17011KT 2000 BR SCT001 M01/M01 Q1020=
201912061200 METAR LRBC 061200Z 17011KT 4000 BR NSC M01/M01 Q1020=
201912061230 METAR LRBC 061230Z 17012KT 5000 BR NSC M00/M00 Q1019=
201912061300 METAR LRBC 061300Z 18012KT 5000 BR NSC 00/00 Q1019=
201912061330 METAR LRBC 061330Z 17012KT 5000 BR NSC 01/00 Q1019=
201912061400 METAR LRBC 061400Z 17014KT 5000 BR NSC 01/00 Q1019=
201912061430 METAR LRBC 061430Z 17013KT 5000 BR NSC 00/M00 Q1019=
201912061500 METAR LRBC 061500Z 17013KT 6000 NSC 00/M01 Q1019=
201912061530 METAR LRBC 061530Z 17011KT 6000 NSC 00/M01 Q1019=
201912061600 METAR LRBC 061600Z 17013KT 6000 NSC M00/M01 Q1019=
201912061630 METAR LRBC 061630Z 17011KT 6000 NSC M00/M01 Q1018=
201912061700 METAR LRBC 061700Z 17007KT 7000 NSC M00/M01 Q1018=
201912061730 METAR LRBC 061730Z 16006KT 7000 NSC M01/M01 Q1018=
201912061800 METAR LRBC 061800Z 16005KT 130V190 7000 NSC M01/M01 Q1018=
201912061830 METAR LRBC 061830Z 16005KT 130V190 7000 NSC M01/M01 Q1018=
201912061900 METAR LRBC 061900Z 15006KT 5000 BR NSC M01/M02 Q1018=
201912061930 METAR LRBC 061930Z 17007KT 5000 BR NSC M02/M02 Q1018=
201912062000 METAR LRBC 062000Z 15007KT 5000 BR NSC M02/M02 Q1018=
201912062030 METAR LRBC 062030Z 15007KT 5000 BR NSC M02/M02 Q1018=
201912062100 METAR LRBC 062100Z 21005KT 4000 BR NSC M03/M03 Q1017=
201912062130 METAR LRBC 062130Z 18005KT 1500 BR FEW003 M04/M04 Q1017=
201912062200 METAR LRBC 062200Z 19008KT 0800 R34/0900D FZFG VV001 M03/M03
                        Q1017=
201912062230 METAR LRBC 062230Z 16008KT 0200 R34/0350N FZFG VV001 M02/M02
                        Q1017=
201912062300 METAR COR LRBC 062300Z 16008KT 130V190 0200 R34/0325N FZFG
                        VV001 M02/M03 Q1016=
201912062330 METAR LRBC 062330Z 17007KT 0200 R34/0350N FZFG VV001 M02/M02
                        Q1016=
201912070000 METAR LRBC 070000Z AUTO 17009KT 0350 R34/0325V0500N FZFG
                        VV001 M02/M03 Q1016=
201912070030 METAR COR LRBC 070030Z 15004KT 110V190 0300 R34/0600N FZFG
                        VV001 M03/M03 Q1016=
201912070100 METAR LRBC 070100Z 15006KT 110V230 1000 R34/1700U BR OVC001
                        M03/M03 Q1016=
201912070130 METAR LRBC 070130Z AUTO 15009KT 1900 R34/1100VP2000U FZFG
                        BKN001/// M03/M03 Q1015=
201912070200 METAR LRBC 070200Z 11003KT 080V160 1500 BR OVC002 M03/M03
                        Q1015=
201912070230 METAR LRBC 070230Z 15004KT 100V180 1000 R34/1700N BR OVC001
                        M03/M03 Q1015=
201912070300 METAR LRBC 070300Z 19004KT 150V210 0500 R34/0650N FZFG VV001
                        M03/M03 Q1015=
201912070330 METAR LRBC 070330Z VRB02KT 0250 R34/0375N FZFG VV001 M03/M04
                        Q1015=
201912070400 METAR LRBC 070400Z 19005KT 160V220 0300 R34/0600N FZFG VV001
                        M03/M03 Q1015=
201912070430 METAR LRBC 070430Z 16006KT 0200 R34/0400N FZFG VV001 M03/M03
                        Q1015=
201912070500 METAR LRBC 070500Z 15005KT 110V180 0150 R34/0375N FZFG VV001
                        M04/M04 Q1015=
201912070530 METAR LRBC 070530Z 16005KT 130V190 0100 R34/0300N FZFG VV001
                        M04/M04 Q1015=
201912070600 METAR LRBC 070600Z 18003KT 120V260 0100 R34/0225N FZFG VV001
                        M03/M03 Q1015=
201912070630 METAR LRBC 070630Z 14004KT 0250 R34/0275N FZFG VV001 M03/M03
                        Q1015=
201912070700 METAR LRBC 070700Z 23002KT 0150 R34/0200N FZFG VV001 M03/M03
                        Q1015=
201912070730 METAR COR LRBC 070730Z 17003KT 0600 R34/1500D FZFG BKN001
                        M03/M03 Q1015=
201912070800 METAR LRBC 070800Z 21004KT 0350 R34/0400D FZFG VV001 M03/M03
                        Q1015=
201912070830 METAR LRBC 070830Z 18009KT 0200 R34/0225N FZFG VV001 M02/M02
                        Q1015=
201912070900 METAR LRBC 070900Z 15007KT 0200 R34/0200N FZFG VV001 M02/M02
                        Q1015=
201912070930 METAR LRBC 070930Z 18006KT 0150 R34/0175N FZFG VV001 M02/M02
                        Q1014=
201912071000 METAR LRBC 071000Z 14005KT 0800 0300S R34/0225N FZFG SCT001
                        M02/M02 Q1014=
201912071030 METAR LRBC 071030Z 17004KT 0200 R34/0200N FZFG BKN001 M01/M01
                        Q1014=
201912071100 METAR LRBC 071100Z VRB02KT 1200 R34/1400U BR SCT001 M00/M00
                        Q1013=
201912071130 METAR LRBC 071130Z 15003KT 5000 0800S R34/0500N FG SCT001
                        00/M00 Q1013=
201912071200 METAR LRBC 071200Z 20003KT 3000 BR SCT004 01/01 Q1013=
201912071230 METAR LRBC 071230Z 14004KT 4000 BR FEW005 01/01 Q1013=
201912071300 METAR LRBC 071300Z 16004KT 6000 FEW005 01/01 Q1013=
201912071330 METAR LRBC 071330Z 15005KT 3000 BR FEW005 M00/M00 Q1013=
201912071400 METAR LRBC 071400Z 16006KT 0900 R34/1100U FZFG FEW001 M01/M01
                        Q1013=
201912071430 METAR LRBC 071430Z 17007KT 0800 R34/1600U FZFG BKN001 M02/M02
                        Q1013=
201912071500 METAR LRBC 071500Z 16005KT 0550 R34/0650N FZFG BKN001 M02/M02
                        Q1013=
201912071530 METAR LRBC 071530Z 15005KT 0700 R34/0800N FZFG VV001 M02/M02
                        Q1013=
201912071600 METAR LRBC 071600Z 17004KT 0400 R34/0450N FZFG VV001 M02/M02
                        Q1014=
201912071630 METAR LRBC 071630Z 17006KT 0400 R34/0450N FZFG VV001 M03/M03
                        Q1014=
201912071700 METAR LRBC 071700Z 17006KT 0300 R34/0600N FZFG VV001 M03/M03
                        Q1014=
201912071730 METAR LRBC 071730Z 17004KT 0300 R34/0325N FZFG VV001 M03/M03
                        Q1015=
201912071800 METAR LRBC 071800Z 18005KT 0300 R34/0350N FZFG VV001 M03/M03
                        Q1015=
201912071830 METAR LRBC 071830Z 17005KT 0300 R34/0400N FZFG VV001 M03/M03
                        Q1015=
201912071900 METAR LRBC 071900Z VRB02KT 0300 R34/0300N FZFG VV001 M03/M03
                        Q1015=
201912071930 METAR LRBC 071930Z 16003KT 120V190 0300 R34/0350N FZFG VV001
                        M03/M03 Q1015=
201912072000 METAR LRBC 072000Z 18003KT 0300 R34/0350N FZFG VV001 M03/M04
                        Q1015=
201912072030 METAR LRBC 072030Z VRB01KT 0300 R34/0375N FZFG VV001 M04/M04
                        Q1015=
201912072100 METAR LRBC 072100Z 00000KT 0300 R34/0500N FZFG VV001 M04/M04
                        Q1015=
201912072130 METAR LRBC 072130Z 22001KT 0300 R34/0450N FZFG VV001 M04/M04
                        Q1015=
201912072200 METAR LRBC 072200Z 00000KT 0300 R34/0400N FZFG VV001 M04/M04
                        Q1015=
201912072230 METAR LRBC 072230Z VRB02KT 0400 R34/0650U FZFG SCT001 M04/M04
                        Q1015=
201912072300 METAR LRBC 072300Z VRB01KT 3000 BR NSC M04/M05 Q1015=
201912072330 METAR LRBC 072330Z VRB02KT 5000 BR NSC M05/M05 Q1015=
201912080000 METAR LRBC 080000Z VRB01KT 5000 BR NSC M04/M04 Q1015=
201912080030 METAR LRBC 080030Z AUTO 14003KT 080V180 6000 FEW150/// M05/M05
                        Q1015=
201912080100 METAR LRBC 080100Z AUTO 30004KT 260V360 6000 NCD M04/M04
                        Q1015=
201912080130 METAR LRBC 080130Z 01005KT 320V060 6000 NSC M02/M02 Q1015=
201912080200 METAR COR LRBC 080200Z VRB02KT 6000 NSC M03/M04 Q1015=
201912080230 METAR LRBC 080230Z VRB03KT 6000 NSC M03/M04 Q1015=
201912080300 METAR LRBC 080300Z VRB03KT 6000 NSC M03/M03 Q1015=
201912080330 METAR LRBC 080330Z 33003KT 300V010 6000 NSC M03/M03 Q1015=
201912080400 METAR LRBC 080400Z VRB04KT 7000 NSC M02/M02 Q1016=
201912080430 METAR LRBC 080430Z 19001KT 5000 BR NSC M03/M04 Q1016=
201912080500 METAR LRBC 080500Z 11003KT 080V140 5000 BR NSC M03/M03 Q1016=
201912080530 METAR LRBC 080530Z 00000KT 6000 NSC M03/M03 Q1016=
201912080600 METAR LRBC 080600Z 24001KT 8000 FEW050 M03/M03 Q1017=
201912080630 METAR LRBC 080630Z 29002KT 8000 NSC M02/M02 Q1017=
201912080700 METAR LRBC 080700Z 00000KT CAVOK M01/M01 Q1017=
201912080730 METAR LRBC 080730Z VRB01KT CAVOK M00/M00 Q1017=
201912080800 METAR LRBC 080800Z VRB01KT CAVOK 00/00 Q1017=
201912080830 METAR LRBC 080830Z 00000KT CAVOK 01/01 Q1017=
201912080900 METAR LRBC 080900Z VRB01KT CAVOK 02/02 Q1018=
201912080930 METAR LRBC 080930Z VRB02KT CAVOK 02/02 Q1017=
201912081000 METAR LRBC 081000Z VRB01KT CAVOK 03/03 Q1017=
201912081030 METAR LRBC 081030Z VRB02KT CAVOK 03/02 Q1017=
201912081100 METAR LRBC 081100Z VRB01KT CAVOK 04/03 Q1017=
201912081130 METAR LRBC 081130Z 15003KT 130V300 CAVOK 05/03 Q1016=
201912081200 METAR LRBC 081200Z 16003KT CAVOK 05/03 Q1016=
201912081230 METAR LRBC 081230Z 16003KT 120V190 CAVOK 06/03 Q1016=
201912081300 METAR LRBC 081300Z 18004KT 140V200 CAVOK 06/03 Q1016=
201912081330 METAR LRBC 081330Z 19005KT 150V230 CAVOK 05/03 Q1016=
201912081400 METAR LRBC 081400Z 19004KT 130V270 CAVOK 08/02 Q1016=
201912081430 METAR LRBC 081430Z 25012KT CAVOK 08/01 Q1016=
201912081500 METAR LRBC 081500Z 26013KT CAVOK 07/01 Q1016=
201912081530 METAR LRBC 081530Z 26011KT CAVOK 07/01 Q1016=
201912081600 METAR LRBC 081600Z 14003KT 100V250 CAVOK 06/01 Q1016=
201912081630 METAR LRBC 081630Z VRB03KT CAVOK 07/00 Q1016=
201912081700 METAR LRBC 081700Z 24006KT 210V290 CAVOK 08/M00 Q1016=
201912081730 METAR LRBC 081730Z VRB04KT CAVOK 05/00 Q1016=
201912081800 METAR LRBC 081800Z 14006KT CAVOK 04/01 Q1016=
201912081830 METAR LRBC 081830Z 16005KT CAVOK 03/M00 Q1016=
201912081900 METAR LRBC 081900Z 16004KT CAVOK 03/00 Q1016=
201912081930 METAR LRBC 081930Z 14005KT CAVOK 03/00 Q1016=
201912082000 METAR LRBC 082000Z 16005KT CAVOK 01/M00 Q1016=
201912082030 METAR LRBC 082030Z 16007KT CAVOK 01/M00 Q1015=
201912082100 METAR LRBC 082100Z 17009KT CAVOK 01/00 Q1015=
201912082130 METAR LRBC 082130Z 16005KT CAVOK 00/M00 Q1015=
201912082200 METAR LRBC 082200Z 17005KT CAVOK 00/M00 Q1014=
201912082230 METAR LRBC 082230Z 16007KT 8000 NSC M00/M00 Q1014=
201912082300 METAR LRBC 082300Z 17008KT 8000 NSC 00/00 Q1014=
201912082330 METAR LRBC 082330Z 16009KT 8000 NSC 00/00 Q1014=
201912090000 METAR LRBC 090000Z 16010KT 5000 BR NSC M00/M00 Q1013=
201912090030 METAR LRBC 090030Z 16009KT 5000 BR NSC M00/M00 Q1013=
201912090100 METAR LRBC 090100Z 18006KT 6000 NSC M00/M01 Q1013=
201912090130 METAR COR LRBC 090130Z 17008KT 6000 NSC M01/M01 Q1012=
201912090200 METAR LRBC 090200Z 17007KT 8000 NSC M01/M01 Q1012=
201912090230 METAR LRBC 090230Z AUTO 17010KT 6000 BKN230/// M01/M01 Q1012=
201912090300 METAR LRBC 090300Z 17010KT CAVOK M01/M01 Q1012=
201912090330 METAR LRBC 090330Z 17008KT CAVOK M01/M01 Q1011=
201912090400 METAR LRBC 090400Z 17010KT CAVOK M01/M02 Q1011=
201912090430 METAR LRBC 090430Z 17011KT CAVOK M02/M02 Q1012=
201912090500 METAR LRBC 090500Z 16009KT CAVOK M01/M02 Q1011=
201912090530 METAR LRBC 090530Z 16009KT CAVOK M01/M02 Q1011=
201912090600 METAR LRBC 090600Z 17010KT CAVOK M02/M02 Q1011=
201912090630 METAR LRBC 090630Z 17011KT CAVOK M01/M02 Q1011=
201912090700 METAR LRBC 090700Z 16010KT 8000 NSC M01/M02 Q1011=
201912090730 METAR LRBC 090730Z 16010KT 8000 NSC M01/M01 Q1011=
201912090800 METAR LRBC 090800Z 16009KT 8000 NSC M00/M01 Q1011=
201912090830 METAR LRBC 090830Z 16009KT 8000 NSC M00/M01 Q1011=
201912090900 METAR LRBC 090900Z 16010KT 9999 2000S BR NSC M01/M01 Q1011=
201912090930 METAR LRBC 090930Z 17010KT 9999 1500S BR FEW001 M01/M01 Q1011=
201912091000 METAR LRBC 091000Z 17010KT 9999 2000S BR SCT001 00/M00 Q1010=
201912091030 METAR LRBC 091030Z 17009KT 7000 NSC 01/01 Q1010=
201912091100 METAR LRBC 091100Z 17011KT 7000 NSC 01/00 Q1010=
201912091130 METAR LRBC 091130Z 18011KT 7000 NSC 02/01 Q1010=
201912091200 METAR LRBC 091200Z 17011KT 8000 NSC 02/01 Q1009=
201912091230 METAR LRBC 091230Z 16009KT 7000 NSC 01/01 Q1009=
201912091300 METAR LRBC 091300Z 17010KT 8000 FEW004 02/01 Q1009=
201912091330 METAR LRBC 091330Z 17010KT CAVOK 02/01 Q1009=
201912091400 METAR LRBC 091400Z 17012KT CAVOK 02/01 Q1009=
201912091430 METAR LRBC 091430Z 18009KT CAVOK 01/00 Q1009=
201912091500 METAR LRBC 091500Z 18010KT CAVOK 01/01 Q1009=
201912091530 METAR LRBC 091530Z 18007KT 7000 NSC 01/00 Q1009=
201912091600 METAR LRBC 091600Z 18005KT 7000 NSC 00/00 Q1010=
201912091630 METAR LRBC 091630Z 16005KT 7000 NSC 00/00 Q1010=
201912091700 METAR LRBC 091700Z VRB02KT 7000 NSC 01/00 Q1010=
201912091730 METAR LRBC 091730Z 00000KT 5000 BR NSC 00/00 Q1010=
201912091800 METAR LRBC 091800Z 21003KT 5000 BR NSC 00/00 Q1010=
201912091830 METAR LRBC 091830Z 18004KT 5000 BR NSC M00/M00 Q1010=
201912091900 METAR LRBC 091900Z 17003KT 4000 1500S BR NSC M00/M01 Q1010=
201912091930 METAR LRBC 091930Z 22002KT 0800 R34/0900D FZFG NSC M01/M01
                        Q1010=
201912092000 METAR LRBC 092000Z VRB02KT 2000 0800S R34/1500D BR PRFG NSC
                        M01/M01 Q1010=
201912092030 METAR LRBC 092030Z 22002KT 3000 0800S R34/0400N BR PRFG NSC
                        M01/M01 Q1010=
201912092100 METAR LRBC 092100Z 16002KT 2000 BR NSC M01/M01 Q1010=
201912092130 METAR LRBC 092130Z 16002KT 3000 0500S R34/1300D BR PRFG NSC
                        M02/M02 Q1011=
201912092200 METAR LRBC 092200Z 20003KT 1000 0400 R34/0400N BR PRFG NSC
                        M02/M02 Q1011=
201912092230 METAR LRBC 092230Z 17005KT 0100 R34/0250N FZFG BKN002 M02/M02
                        Q1011=
201912092300 METAR LRBC 092300Z 18005KT 0100 R34/0250N FZFG VV001 M01/M01
                        Q1011=
201912092330 METAR LRBC 092330Z AUTO 16004KT 0150 R34/0175N FZFG BKN001///
                        M01/M02 Q1011=
201912100000 METAR LRBC 100000Z 14002KT 0100 R34/0175N FZFG BKN001 M02/M02
                        Q1011=
201912100030 METAR LRBC 100030Z AUTO 23001KT 0200 R34/0250N FZFG VV001
                        M02/M02 Q1011=
201912100100 METAR LRBC 100100Z AUTO VRB01KT 0200 R34/0200N FZFG VV001
                        M03/M03 Q1011=
201912100130 METAR COR LRBC 100130Z VRB02KT 0100 R34/0225N FZFG VV001
                        M03/M03 Q1011=
201912100200 METAR LRBC 100200Z 19002KT 0100 R34/0250N FZFG VV001 M03/M03
                        Q1011=
201912100230 METAR COR LRBC 100230Z 19003KT 160V220 0100 R34/0200N FZFG
                        VV001 M02/M02 Q1011=
201912100300 METAR LRBC 100300Z 17006KT 0100 R34/0225N FZFG VV001 M02/M02
                        Q1011=
201912100330 METAR LRBC 100330Z 17003KT 0100 R34/0250N FZFG VV001 M01/M02
                        Q1011=
201912100400 METAR LRBC 100400Z 18006KT 0150 R34/0325N FZFG VV001 M01/M02
                        Q1011=
201912100430 METAR LRBC 100430Z 17005KT 0100 R34/0325N FZFG VV001 M01/M01
                        Q1012=
201912100500 METAR LRBC 100500Z 20004KT 0100 R34/0300N FZFG VV001 M02/M02
                        Q1012=
201912100530 METAR LRBC 100530Z 16004KT 0100 R34/0275N FZFG VV001 M02/M02
                        Q1012=
201912100600 METAR COR LRBC 100600Z 17004KT 140V200 0100 R34/0225N FZFG
                        VV001 M02/M02 Q1012 R16/19//95=
201912100630 METAR LRBC 100630Z 21003KT 170V230 0100 R34/0200N FZFG VV001
                        M02/M02 Q1012 R16/19//95=
201912100700 METAR LRBC 100700Z 18003KT 0100 R34/0175N FZFG VV001 M02/M02
                        Q1013 R16/19//95=
201912100730 METAR LRBC 100730Z 18003KT 150V230 0100 R34/0175N FZFG VV001
                        M02/M02 Q1013 R16/19//95=
201912100800 METAR LRBC 100800Z 21002KT 190V270 0100 R34/0175N FZFG VV001
                        M02/M02 Q1013 R16/19//95=
201912100830 METAR LRBC 100830Z 16003KT 140V210 0100 R34/0175N FZFG VV001
                        M02/M02 Q1014 R16/19//95=
201912100900 METAR LRBC 100900Z 16004KT 130V200 0100 R34/0175N FZFG VV001
                        M01/M01 Q1014 R16/19//95=
201912100930 METAR LRBC 100930Z 16003KT 110V220 0100 R34/0175N FZFG VV001
                        M01/M01 Q1013 R16/19//95=
201912101000 METAR LRBC 101000Z 15004KT 120V180 0100 R34/0175N FZFG VV001
                        M01/M01 Q1013 R16/19//95=
201912101030 METAR LRBC 101030Z 17002KT 130V230 0100 R34/0200N FZFG VV001
                        M01/M01 Q1013 R16/19//95=
201912101100 METAR LRBC 101100Z VRB01KT 0100 R34/0200N FZFG VV001 M00/M00
                        Q1014 R16/19//95=
201912101130 METAR LRBC 101130Z VRB01KT 0300 R34/0275N FG VV001 00/00
                        Q1014 R16/19//95=
201912101200 METAR LRBC 101200Z VRB01KT 0550 R34/0700N FG VV002 00/00
                        Q1014 R16/19//95=
201912101230 METAR LRBC 101230Z 21002KT 130V260 0150 R34/0250N FG VV001
                        00/00 Q1014 R16/19//95=
201912101300 METAR LRBC 101300Z 34002KT 260V050 0200 R34/0225N FG VV002
                        01/01 Q1014 R16/19//95=
201912101330 METAR LRBC 101330Z VRB01KT 0250 R34/0250N FG VV001 01/01
                        Q1014 R16/19//95=
201912101400 METAR LRBC 101400Z 29003KT 250V320 0100 R34/0175N FG VV001
                        00/00 Q1015 R16/19//95=
201912101430 METAR LRBC 101430Z 02001KT 0100 R34/0175N FG VV001 00/00
                        Q1015 R16/19//95=
201912101500 METAR LRBC 101500Z 01001KT 0100 R34/0225N FG VV001 00/M00
                        Q1015 R16/19//95=
201912101530 METAR LRBC 101530Z VRB01KT 0100 R34/0175N FZFG VV001 M00/M00
                        Q1016 R16/19//95=
201912101600 METAR LRBC 101600Z 35004KT 0150 R34/0175N FZFG BKN001 M01/M01
                        Q1016 R16/19//95=
201912101630 METAR LRBC 101630Z 33004KT 0200 R34/0225N FZFG BKN001 OVC003
                        M01/M01 Q1017 R16/19//95=
201912101700 METAR LRBC 101700Z 35004KT 0200 R34/0225N FZFG VV001 M01/M01
                        Q1017 R16/19//95=
201912101730 METAR LRBC 101730Z 36002KT 0200 R34/0300N FZFG BKN001 M01/M01
                        Q1017 R16/19//95=
201912101800 METAR LRBC 101800Z 00000KT 1500 BR FEW003 M02/M02 Q1018 R16/19//95=
201912101830 METAR LRBC 101830Z VRB01KT 2000 BR FEW003 M02/M02 Q1018 R16/19//95=
201912101900 METAR LRBC 101900Z 02003KT 2000 BR NSC M02/M02 Q1019 R16/19//95=
201912101930 METAR LRBC 101930Z 00000KT 2000 BR FEW060 M02/M02 Q1019 R16/19//95=
201912102000 METAR LRBC 102000Z VRB02KT 2000 BR SCT017 SCT060 M02/M02
                        Q1020 R16/19//95=
201912102030 METAR LRBC 102030Z 32004KT 2000 BR OVC014 M01/M01 Q1020 R16/19//95=
201912102100 METAR LRBC 102100Z VRB02KT 2000 BR BKN014 M00/M00 Q1020 R16/19//95=
201912102130 METAR LRBC 102130Z 01001KT 2500 BR OVC013 M00/M00 Q1021 R16/19//95=
201912102200 METAR LRBC 102200Z 05001KT 2000 BR OVC012 M00/M00 Q1021 R16/19//95=
201912102230 METAR LRBC 102230Z 05002KT 1500 BR BKN012 OVC015 00/M00 Q1021
                        R16/19//95=
201912102300 METAR LRBC 102300Z 34005KT 2000 BR OVC012 00/00 Q1021 R16/19//95=
201912102330 METAR LRBC 102330Z 34004KT 2000 BR BKN011 01/01 Q1021 R16/19//95=
201912110000 METAR LRBC 110000Z 36005KT 3000 BR OVC011 01/01 Q1021 R16/19//95=
201912110030 METAR LRBC 110030Z VRB02KT 3000 BR BKN011 01/01 Q1021 R16/19//95=
201912110100 METAR LRBC 110100Z 04003KT 010V080 2000 BR OVC010 01/01 Q1021
                        R16/19//95=
201912110130 METAR LRBC 110130Z 03004KT 360V060 1500 -DZ BR OVC010 01/01
                        Q1021 R16/19//95=
201912110200 METAR LRBC 110200Z 01003KT 350V050 2500 BR SCT009 OVC011
                        02/02 Q1021 R16/19//95=
201912110230 METAR LRBC 110230Z 35008KT 4000 BR SCT008 BKN010 03/03 Q1021
                        R16/19//95=
201912110300 METAR LRBC 110300Z 35009KT 6000 BKN009 OVC011 03/03 Q1021
                        R16/19//95=
201912110330 METAR LRBC 110330Z AUTO 35008KT 5000 BR BKN008/// BKN010///
                        03/03 Q1021=
201912110400 METAR LRBC 110400Z 35006KT 6000 -RA SCT008 OVC010 03/03 Q1021
                        R16/19//95=
201912110430 METAR LRBC 110430Z 35008KT 6000 SCT008 BKN010 03/03 Q1021
                        R16/19//95=
201912110500 METAR LRBC 110500Z 34008KT 9999 FEW009 OVC011 03/03 Q1021
                        R16/19//95=
201912110530 METAR LRBC 110530Z 35008KT 9999 OVC010 03/03 Q1022 R16/19//95=
201912110600 METAR LRBC 110600Z 35011KT 6000 OVC008 03/03 Q1022 R16/19//95=
201912110630 METAR LRBC 110630Z 34012KT 7000 OVC009 03/03 Q1022 R16/19//95=
201912110700 METAR LRBC 110700Z 34009KT 8000 OVC010 03/02 Q1022 R16/19//95=
201912110730 METAR LRBC 110730Z 34009KT 8000 OVC010 03/02 Q1022 R16/19//95=
201912110800 METAR LRBC 110800Z 34009KT 7000 OVC010 03/02 Q1022 R16/19//95=
201912110830 METAR LRBC 110830Z 34009KT 8000 OVC010 03/02 Q1022 R16/19//95=
201912110900 METAR LRBC 110900Z 34007KT 8000 OVC010 03/02 Q1022 R16/19//95=
201912110930 METAR LRBC 110930Z 35007KT 8000 OVC010 04/02 Q1022 R16/19//95=
201912111000 METAR LRBC 111000Z 34006KT 8000 OVC010 04/03 Q1022 R16/19//95=
201912111030 METAR LRBC 111030Z 34007KT 8000 OVC012 04/02 Q1021 R16/19//95=
201912111100 METAR LRBC 111100Z 34009KT 8000 OVC011 04/02 Q1021 R16/19//95=
201912111130 METAR LRBC 111130Z 36008KT 8000 OVC011 04/02 Q1020 R16/19//95=
201912111200 METAR COR LRBC 111200Z 35006KT 9999 OVC012 04/02 Q1020 R16/19//95=
201912111230 METAR LRBC 111230Z 35005KT 9999 OVC012 04/02 Q1020 R16/19//95=
201912111300 METAR LRBC 111300Z 36005KT 9999 OVC014 04/02 Q1020 R16/19//95=
201912111330 METAR LRBC 111330Z 03003KT 9999 OVC014 04/02 Q1020 R16/19//95=
201912111400 METAR LRBC 111400Z 05003KT 7000 BKN014 OVC024 03/02 Q1020
                        R16/19//95=
201912111430 METAR LRBC 111430Z 05003KT 7000 BKN014 OVC023 03/02 Q1020
                        R16/19//95=
201912111500 METAR LRBC 111500Z 04003KT 7000 BKN013 OVC021 03/02 Q1019
                        R16/19//95=
201912111530 METAR LRBC 111530Z 34003KT 7000 SCT017 OVC020 03/02 Q1020
                        R16/19//95=
201912111600 METAR LRBC 111600Z 35002KT 8000 FEW013 BKN020 03/02 Q1019
                        R16/19//95=
201912111630 METAR LRBC 111630Z VRB02KT 8000 FEW019 OVC032 03/02 Q1019
                        R16/19//95=
201912111700 METAR LRBC 111700Z VRB02KT 8000 BKN020 03/02 Q1019 R16/19//95=
201912111730 METAR LRBC 111730Z 00000KT 6000 OVC018 03/02 Q1019 R16/19//95=
201912111800 METAR LRBC 111800Z 23003KT 6000 OVC019 02/02 Q1019 R16/19//95=
201912111830 METAR LRBC 111830Z 24003KT 6000 OVC020 03/02 Q1019 R16/19//95=
201912111900 METAR LRBC 111900Z 21002KT 6000 BKN017 03/02 Q1019 R16/19//95=
201912111930 METAR LRBC 111930Z 13002KT 6000 BKN014 OVC017 03/02 Q1019
                        R16/19//95=
201912112000 METAR LRBC 112000Z 13002KT 5000 BR BKN014 02/02 Q1019 R16/19//95=
201912112030 METAR LRBC 112030Z 15003KT 5000 BR BKN011 OVC014 03/02 Q1019
                        R16/19//95=
201912112100 METAR LRBC 112100Z 17003KT 3000 BR SCT007 BKN009 BKN011 02/02
                        Q1019 R16/19//95=
201912112130 METAR LRBC 112130Z 18002KT 1500 BR SCT007 OVC012 02/02 Q1018
                        R16/19//95=
201912112200 METAR LRBC 112200Z 16002KT 1000 R34/P2000 BR FEW006 BKN011
                        02/02 Q1018 R16/19//95=
201912112230 METAR LRBC 112230Z 17004KT 1000 R34/P2000 BR FEW007 OVC010
                        03/02 Q1018 R16/19//95=
201912112300 METAR LRBC 112300Z 15004KT 0800 R34/1300D FG FEW001 BKN007
                        02/02 Q1017 R16/19//95=
201912112330 METAR LRBC 112330Z 16003KT 0400 R34/0900N FG VV002 02/02
                        Q1017 R16/19//95=
201912120000 METAR LRBC 120000Z 15005KT 0400 R34/0700N FG VV001 02/02
                        Q1017 R16/19//95=
201912120030 METAR LRBC 120030Z AUTO 16006KT 0600 R34/0700N FG VV001 02/02
                        Q1017=
201912120100 METAR LRBC 120100Z 16006KT 0400 R34/0600N FG VV001 03/02
                        Q1017 R16/19//95=
201912120130 METAR LRBC 120130Z 16005KT 0600 R34/0900N FG VV002 03/02
                        Q1017 R16/19//95=
201912120200 METAR LRBC 120200Z 17005KT 0500 R34/0700N FG VV001 03/02
                        Q1016 R16/19//95=
201912120230 METAR LRBC 120230Z 16005KT 0300 R34/0550N FG VV001 02/02
                        Q1016 R16/19//95=
201912120300 METAR LRBC 120300Z 16004KT 0900 R34/1000N FG FEW001 BKN023
                        03/02 Q1016 R16/19//95=
201912120330 METAR LRBC 120330Z 19003KT 170V240 0500 R34/1000D FG BKN023
                        BKN027 03/02 Q1016 R16/19//95=
201912120400 METAR LRBC 120400Z 15001KT 0400 R34/0600D FG SCT021 BKN027
                        02/02 Q1016 R16/19//95=
201912120430 METAR LRBC 120430Z 32004KT 0300 R34/0325N FG FEW003 SCT022
                        01/01 Q1015 R16/19//95=
201912120500 METAR LRBC 120500Z 35003KT 1500 0500E R34/P2000U MIFG FEW003
                        BKN037 02/02 Q1015 R16/19//95=
201912120530 METAR LRBC 120530Z 34003KT 3000 MIFG FEW012 BKN021 OVC036
                        02/02 Q1015 R16/19//95=
201912120600 METAR LRBC 120600Z 29002KT 3900 BR BKN022 OVC041 01/01 Q1015
                        R16/19//95=
201912120630 METAR LRBC 120630Z 33002KT 3400 BR BKN022 OVC041 02/02 Q1015
                        R16/19//95=
201912120700 METAR LRBC 120700Z 11001KT 2600 BR SCT014 OVC022 02/02 Q1015
                        R16/19//95=
201912120730 METAR LRBC 120730Z 00000KT 2800 BR BKN014 OVC022 03/03 Q1015
                        R16/19//95=
201912120800 METAR LRBC 120800Z 00000KT 2800 -DZ SCT012 OVC023 03/03 Q1015
                        R16/19//95=
201912120830 METAR LRBC 120830Z 04001KT 1800 -RA BKN012 OVC023 03/03 Q1015
                        R16/19//95=
201912120900 METAR LRBC 120900Z 04001KT 1900 -RA BR SCT003 BKN011 OVC023
                        03/03 Q1015 R16/19//95=
201912120930 METAR COR LRBC 120930Z 09002KT 1300 R34/1700D -RA BR SCT001
                        BKN009 BKN014 03/03 Q1014 R16/220295=
201912121000 METAR LRBC 121000Z 07002KT 1400 R34/1700U -RA BR SCT001 BKN010
                        OVC016 03/03 Q1014 R16/220295=
201912121030 METAR LRBC 121030Z 10002KT 1300 R34/P2000U DZ BR BKN009 OVC016
                        03/03 Q1014 R16/220295=
201912121100 METAR LRBC 121100Z 13001KT 1900 DZ BR SCT001 BKN007 OVC013
                        03/03 Q1014 R16/220295=
201912121130 METAR LRBC 121130Z 15002KT 1700 -DZ BR SCT001 BKN006 OVC012
                        03/03 Q1014 REDZ R16/220295=
201912121200 METAR LRBC 121200Z 15003KT 1200 R34/1600U -DZ BR SCT001 BKN005
                        OVC010 03/03 Q1013 R16/220295=
201912121230 METAR LRBC 121230Z 15003KT 1800 BR BKN001 BKN004 03/03 Q1013
                        R16/220295=
201912121300 METAR LRBC 121300Z 16005KT 1800 BR BKN001 BKN003 03/03 Q1013
                        R16/220295=
201912121330 METAR LRBC 121330Z 15004KT 2000 BR SCT001 BKN005 03/03 Q1013
                        R16/220295=
201912121400 METAR COR LRBC 121400Z 14004KT 1200 R34/1500D BR BKN001 OVC004
                        03/03 Q1012 R16/220295=
201912121430 METAR LRBC 121430Z 13004KT 1800 BR BKN001 OVC004 03/03 Q1012
                        R16/220295=
201912121500 METAR LRBC 121500Z 14004KT 2700 BR SCT001 BKN003 OVC005 03/03
                        Q1012 R16/220295=
201912121530 METAR LRBC 121530Z 16005KT 1300 R34/1600D BR VV002 03/03
                        Q1012 R16/220295=
201912121600 METAR LRBC 121600Z 17005KT 1200 R34/1400D BR VV002 03/03
                        Q1012 R16/220295=
201912121630 METAR LRBC 121630Z 17005KT 1300 R34/1400D BR VV002 03/03
                        Q1012 R16/220295=
201912121700 METAR LRBC 121700Z 17005KT 1200 R34/P2000U BR VV002 03/03
                        Q1012 R16/220295=
201912121730 METAR LRBC 121730Z 16005KT 2000 BR VV002 03/03 Q1012 R16/220295=
201912121800 METAR LRBC 121800Z 15005KT 2000 BR SCT001 OVC005 03/02 Q1011
                        R16/220295=
201912121830 METAR LRBC 121830Z 16005KT 1300 R34/1600U BR VV002 02/02
                        Q1011 R16/220295=
201912121900 METAR LRBC 121900Z 17006KT 140V200 1400 R34/1700N -DZ BR
                        VV002 02/02 Q1011 R16/220295=
201912121930 METAR LRBC 121930Z 17005KT 1500 R34/1900U -DZ BR VV002 02/02
                        Q1011 R16/220295=
201912122000 METAR LRBC 122000Z 17005KT 1100 R34/1300D -DZ BR VV002 02/02
                        Q1011 R16/220295=
201912122030 METAR LRBC 122030Z 15005KT 1100 R34/1400U -DZ BR VV002 02/02
                        Q1011 R16/220295=
201912122100 METAR LRBC 122100Z 15005KT 2000 BR SCT002 OVC005 02/02 Q1010
                        R16/220295=
201912122130 METAR LRBC 122130Z 15004KT 4000 BR OVC004 02/02 Q1010 R16/220295=
201912122200 METAR LRBC 122200Z 15004KT 5000 BR OVC006 02/02 Q1010 R16/220295=
201912122230 METAR LRBC 122230Z 15004KT 4000 BR OVC005 02/02 Q1009 R16/220295=
201912122300 METAR LRBC 122300Z 17006KT 6000 OVC007 02/02 Q1009 R16/220295=
201912122330 METAR LRBC 122330Z 17006KT 4000 -DZ BR OVC005 02/02 Q1009
                        R16/220295=
201912130000 METAR LRBC 130000Z 17007KT 3500 -DZ BR OVC002 02/02 Q1009
                        R16/220295=
201912130030 METAR LRBC 130030Z 17005KT 3000 -DZ BR OVC005 02/02 Q1009
                        R16/220295=
201912130100 METAR LRBC 130100Z 17004KT 3500 -DZ BR OVC002 02/02 Q1008
                        R16/220295=
201912130130 METAR LRBC 130130Z AUTO 18006KT 5000 BKN001/// OVC009///
                        02/02 Q1008 RERA=
201912130200 METAR COR LRBC 130200Z 18006KT 5000 BR FEW001 BKN008 02/02
                        Q1007 R16/220295=
201912130230 METAR LRBC 130230Z AUTO 18006KT 5000 BR SCT002/// BKN007///
                        02/02 Q1007=
201912130300 METAR LRBC 130300Z AUTO 18007KT 5000 -SHRA SCT002/// BKN004///
                        02/02 Q1007=
201912130330 METAR LRBC 130330Z AUTO 18007KT 3400 -SHRA BKN002/// OVC004///
                        02/02 Q1007=
201912130400 METAR COR LRBC 130400Z 17008KT 4000 DZ BR BKN002 02/02 Q1007
                        R16/220295=
201912130430 METAR LRBC 130430Z 18007KT 3000 DZ BR OVC002 02/02 Q1007
                        R16/220295=
201912130500 METAR LRBC 130500Z 17008KT 4000 BR OVC002 02/02 Q1006 REDZ
                        R16/220295=
201912130530 METAR LRBC 130530Z 18008KT 4000 BR FEW001 OVC005 02/02 Q1006
                        R16/220295=
201912130600 METAR COR LRBC 130600Z 17009KT 3000 -DZ BR SCT002 BKN004
                        OVC006 02/02 Q1006 R16/220295=
201912130630 METAR LRBC 130630Z 18008KT 1500 -DZ BR OVC002 02/02 Q1006
                        R16/220295=
201912130700 METAR LRBC 130700Z 18008KT 2000 -DZ BR OVC002 02/02 Q1006
                        R16/220295=
201912130730 METAR LRBC 130730Z 17008KT 2000 BR BKN001 BKN003 02/02 Q1006
                        R16/220295=
201912130800 METAR LRBC 130800Z 17006KT 3000 BR BKN001 BKN003 02/02 Q1006
                        R16/220295=
201912130830 METAR LRBC 130830Z 16008KT 6000 FEW002 OVC007 02/02 Q1005
                        R16/220295=
201912130900 METAR LRBC 130900Z 17008KT 8000 FEW003 BKN005 BKN007 03/03
                        Q1005 R16/220295=
201912130930 METAR LRBC 130930Z 17009KT 5000 BR BKN004 OVC006 03/03 Q1005
                        R16/220295=
201912131000 METAR LRBC 131000Z 16010KT 2500 -DZ BR BKN002 OVC004 03/03
                        Q1004 R16/220295=
201912131030 METAR LRBC 131030Z 16011KT 2100 -RA BR SCT001 OVC003 03/02
                        Q1004 R16/220295=
201912131100 METAR LRBC 131100Z 16012KT 0800 R34/P2000D -RADZ FG BKN001
                        OVC003 03/02 Q1003 R16/220295=
201912131130 METAR LRBC 131130Z 17011KT 1500 -RA BR BKN001 OVC003 03/03
                        Q1003 R16/220295=
201912131200 METAR LRBC 131200Z 16011KT 1000 R34/P2000 -DZRA BR SCT001
                        BKN003 03/03 Q1003 R16/220295=
201912131230 METAR LRBC 131230Z 16011KT 1000 R34/P2000 -DZRA BR SCT001
                        OVC003 03/03 Q1003 R16/220295=
201912131300 METAR LRBC 131300Z 17009KT 1500 -DZRA BR SCT001 OVC005 03/03
                        Q1003 R16/220295=
201912131330 METAR LRBC 131330Z 17009KT 1500 -DZRA BR SCT001 BKN007 03/03
                        Q1003 R16/220295=
201912131400 METAR LRBC 131400Z 17009KT 1500 -DZRA BR SCT001 OVC006 03/03
                        Q1003 R16/220295=
201912131430 METAR LRBC 131430Z 16009KT 1000 R34/P2000 -DZRA BR BKN001
                        03/03 Q1002 R16/220295=
201912131500 METAR LRBC 131500Z 17007KT 2000 -DZ BR OVC001 03/03 Q1002
                        R16/220295=
201912131530 METAR LRBC 131530Z 18005KT 3000 -DZRA BR BKN001 03/03 Q1002
                        R16/220295=
201912131600 METAR LRBC 131600Z 16007KT 2500 DZ BR SCT001 BKN003 BKN007
                        03/03 Q1002 R16/220295=
201912131630 METAR LRBC 131630Z 16008KT 3000 -DZRA BR BKN001 BKN005 03/03
                        Q1002 REDZ R16/220295=
201912131700 METAR LRBC 131700Z 16007KT 3000 -DZRA BR SCT001 OVC006 03/03
                        Q1002 R16/220295=
201912131730 METAR LRBC 131730Z 17009KT 4000 -DZ BR FEW001 SCT006 BKN008
                        03/03 Q1002 R16/220295=
201912131800 METAR LRBC 131800Z 18007KT 3100 BR SCT004 BKN011 03/03 Q1002
                        R16/220295=
201912131830 METAR LRBC 131830Z 18006KT 4200 -DZ BR BKN001 BKN011 04/04
                        Q1002 R16/220295=
201912131900 METAR LRBC 131900Z 16006KT 3300 -DZ BR BKN001 OVC006 04/04
                        Q1001 R16/220295=
201912131930 METAR LRBC 131930Z 18006KT 3800 DZ BR BKN001 OVC005 04/04
                        Q1002 R16/220295=
201912132000 METAR LRBC 132000Z 19004KT 4300 DZ BR SCT001 BKN003 OVC007
                        04/04 Q1002 R16/220295=
201912132030 METAR LRBC 132030Z 16004KT 5000 DZ BR FEW004 SCT006 OVC008
                        04/04 Q1002 R16/220295=
201912132100 METAR LRBC 132100Z 18004KT 4400 DZ BR BKN005 OVC007 04/04
                        Q1002 R16/220295=
201912132130 METAR LRBC 132130Z 16002KT 3600 DZ BR FEW001 OVC004 04/04
                        Q1001 R16/220295=
201912132200 METAR LRBC 132200Z 15003KT 5000 DZ BR FEW004 BKN009 BKN012
                        04/04 Q1001 R16/220295=
201912132230 METAR LRBC 132230Z 00000KT 5000 DZ BR FEW005 BKN007 OVC012
                        04/04 Q1001 R16/220295=
201912132300 METAR LRBC 132300Z 14002KT 3600 RA BR BKN009 04/04 Q1001
                        R16/220295=
201912132330 METAR LRBC 132330Z 08002KT 2700 -RA BR BKN007 04/04 Q1001
                        RERA R16/220295=
201912140000 METAR LRBC 140000Z 09002KT 1700 -RA BR BKN006 OVC008 04/04
                        Q1001 R16/220295=
201912140030 METAR LRBC 140030Z AUTO 17003KT 1700 R34/1100VP2000D -SHRA
                        OVC005/// 04/04 Q1001=
201912140100 METAR LRBC 140100Z AUTO 00000KT 1500 R34/1400VP2000U -SHRA
                        SCT004/// BKN007/// OVC009/// 04/04
                        Q1001=
201912140130 METAR LRBC 140130Z 07002KT 1600 -RA BR SCT004 BKN006 OVC010
                        04/04 Q1001 R16/220295=
201912140200 METAR LRBC 140200Z VRB01KT 4000 -DZ BRE SCT006 BKN008 04/04
                        Q1001 R16/220295=
201912140230 METAR LRBC 140230Z 08002KT 3200 -DZ BR BKN006 OVC008 04/04
                        Q1001 R16/220295=
201912140300 METAR COR LRBC 140300Z 00000KT 3300 -DZ BR SCT006 OVC008
                        04/04 Q1001 R16/220295=
201912140330 METAR LRBC 140330Z 09001KT 3200 -RA BR SCT006 OVC008 04/04
                        Q1001 R16/220295=
201912140400 METAR COR LRBC 140400Z 11001KT 3400 BR OVC006 04/04 Q1001
                        R16/220295=
201912140430 METAR LRBC 140430Z 00000KT 3100 DZ BR BKN005 OVC008 04/04
                        Q1001 R16/220295=
201912140500 METAR LRBC 140500Z 31002KT 3400 DZ BR BKN007 BKN009 04/04
                        Q1001 R16/220295=
201912140530 METAR LRBC 140530Z 06002KT 3100 RA BR SCT002 BKN005 BKN011
                        04/04 Q1001 REDZ R16/220295=
201912140600 METAR LRBC 140600Z 06002KT 2000 -RA BR BKN005 OVC016 04/04
                        Q1001 RERA R16/220295=
201912140630 METAR LRBC 140630Z 06002KT 2000 -RA BR FEW001 OVC009 04/04
                        Q1001 R16/220295=
201912140700 METAR LRBC 140700Z 24003KT 1100 R34/1400U BR BKN007 BKN013
                        04/04 Q1001 R16/220295=
201912140730 METAR LRBC 140730Z 32002KT 2000 BR BKN002 OVC009 04/04 Q1001
                        R16/220295=
201912140800 METAR LRBC 140800Z VRB01KT 3000 BR BKN008 04/04 Q1001 R16/220295=
201912140830 METAR LRBC 140830Z 33002KT 3500 -RA BR BKN007 05/05 Q1002
                        R16/220295=
201912140900 METAR LRBC 140900Z 00000KT 3500 BR BKN006 05/05 Q1002 R16/220295=
201912140930 METAR LRBC 140930Z 10002KT 1700 -RA BR VV003 05/05 Q1002
                        R16/220295=
201912141000 METAR LRBC 141000Z 12002KT 1200 R34/1600D -RA BR OVC004 05/05
                        Q1002 R16/220295=
201912141030 METAR LRBC 141030Z 11002KT 0550 R34/0750N -DZ FG VV002 05/05
                        Q1001 R16/220295=
201912141100 METAR LRBC 141100Z 10002KT 0800 R34/1500D FG VV002 05/05
                        Q1001 R16/220295=
201912141130 METAR LRBC 141130Z 14002KT 1700 BR OVC006 06/05 Q1001 R16/220295=
201912141200 METAR LRBC 141200Z 14003KT 1400 R34/1900D -RA BR OVC005 06/06
                        Q1001 R16/220295=
201912141230 METAR LRBC 141230Z 15003KT 1300 R34/1800N -RA BR VV003 06/06
                        Q1001 R16/220295=
201912141300 METAR LRBC 141300Z 16002KT 1500 BKN001 OVC005 06/06 Q1001
                        R16/220295=
201912141330 METAR LRBC 141330Z 17004KT 1500 -DZ BR SCT003 BKN009 06/06
                        Q1002 R16/220295=
201912141400 METAR LRBC 141400Z 17004KT 1700 -DZ BR VV002 06/06 Q1002
                        R16/220295=
201912141430 METAR LRBC 141430Z 15003KT 110V180 1500 BR VV002 06/06 Q1002
                        R16/220295=
201912141500 METAR LRBC 141500Z 15004KT 1500 0600S R34/0700N PRFG VV002
                        06/06 Q1002 R16/220295=
201912141530 METAR LRBC 141530Z 15003KT 0700 R34/0800N FG BKN002 OVC004
                        06/06 Q1002 R16/220295=
201912141600 METAR LRBC 141600Z 15005KT 0550 R34/0650N FG VV001 06/06
                        Q1003 R16/220295=
201912141630 METAR COR LRBC 141630Z 17004KT 0450 R34/0500N FG VV001 06/06
                        Q1002 R16/220295=
201912141700 METAR LRBC 141700Z 19003KT 150V240 0400 R34/0450N FG VV001
                        06/06 Q1003 R16/220295=
201912141730 METAR LRBC 141730Z 15002KT 0350 R34/0400N FG VV001 06/06
                        Q1003 R16/220295=
201912141800 METAR LRBC 141800Z 18006KT 0400 R34/0450N FG VV001 06/06
                        Q1003 R16/220295=
201912141830 METAR LRBC 141830Z 19005KT 0450 R34/0500N FG VV001 06/06
                        Q1003 R16/220295=
201912141900 METAR LRBC 141900Z 18005KT 0200 R34/0400N FG VV001 06/06
                        Q1003 R16/220295=
201912141930 METAR LRBC 141930Z 17006KT 0500 R34/0750N -RA BR VV001 06/06
                        Q1004 R16/220295=
201912142000 METAR LRBC 142000Z 17006KT 0800 R34/1400U FG VV001 06/06
                        Q1004 R16/220295=
201912142030 METAR LRBC 142030Z 17008KT 1500 BR VV001 06/06 Q1004 R16/220295=
201912142100 METAR LRBC 142100Z 17006KT 1300 R34/1400U BR VV001 06/06
                        Q1004 R16/220295=
201912142130 METAR LRBC 142130Z 19004KT 160V220 5000 BR FEW004 06/05 Q1005
                        R16/220295=
201912142200 METAR LRBC 142200Z 20004KT 5000 BR FEW045 05/05 Q1005 R16/220295=
201912142230 METAR LRBC 142230Z 17008KT 3000 BR SCT049 05/05 Q1005 R16/220295=
201912142300 METAR LRBC 142300Z 19010KT 170V230 9999 FEW050 07/06 Q1005
                        R16/220295=
201912142330 METAR LRBC 142330Z AUTO 25011KT 9999 FEW050/// 09/04 Q1005=
201912150000 METAR LRBC 150000Z 26010KT CAVOK 08/03 Q1006 R16/220295=
201912150030 METAR LRBC 150030Z 27007KT 9999 FEW055 07/03 Q1007 R16/220295=
201912150100 METAR LRBC 150100Z AUTO 27010KT 9999 NCD 06/03 Q1007=
201912150130 METAR LRBC 150130Z 36004KT 330V030 CAVOK 06/03 Q1008 R16/220295=
201912150200 METAR LRBC 150200Z 28008KT 9999 SCT060 07/02 Q1008 R16/220295=
201912150230 METAR LRBC 150230Z 04004KT 020V080 CAVOK 05/03 Q1009 R16/220295=
201912150300 METAR LRBC 150300Z 31003KT 260V350 CAVOK 05/01 Q1009 R16/220295=
201912150330 METAR LRBC 150330Z 22002KT 190V250 CAVOK 03/01 Q1010 R16/220295=
201912150400 METAR LRBC 150400Z 13005KT 080V150 CAVOK 04/01 Q1010 R16/220295=
201912150430 METAR LRBC 150430Z 04002KT 290V100 CAVOK 03/01 Q1011 R16/220295=
201912150500 METAR LRBC 150500Z 30005KT CAVOK 02/01 Q1011 R16/220295=
201912150530 METAR LRBC 150530Z 30003KT 260V330 CAVOK 03/01 Q1012 R16/220295=
201912150600 METAR LRBC 150600Z VRB01KT CAVOK 02/00 Q1012 R16/220295=
201912150630 METAR COR LRBC 150630Z 17003KT CAVOK 03/01 Q1013 R16/220295=
201912150700 METAR LRBC 150700Z 08002KT CAVOK 03/01 Q1013 R16/220295=
201912150730 METAR LRBC 150730Z VRB01KT CAVOK 04/02 Q1013 R16/220295=
201912150800 METAR LRBC 150800Z 25002KT 220V310 CAVOK 05/04 Q1014 R16/220295=
201912150830 METAR LRBC 150830Z VRB01KT CAVOK 08/04 Q1014 R16/220295=
201912150900 METAR LRBC 150900Z 11004KT CAVOK 08/04 Q1015 R16/220295=
201912150930 METAR LRBC 150930Z 12003KT CAVOK 09/05 Q1015 R16/220295=
201912151000 METAR LRBC 151000Z 14004KT CAVOK 10/06 Q1015 R16/220295=
201912151030 METAR LRBC 151030Z 14004KT CAVOK 12/03 Q1015 R16/19//95=
201912151100 METAR LRBC 151100Z 14007KT CAVOK 12/03 Q1014 R16/19//95=
201912151130 METAR LRBC 151130Z 15006KT CAVOK 13/03 Q1015 R16/19//95=
201912151200 METAR LRBC 151200Z 24006KT CAVOK 13/02 Q1015 R16/19//95=
201912151230 METAR LRBC 151230Z 23007KT CAVOK 13/02 Q1015 R16/19//95=
201912151300 METAR LRBC 151300Z 19008KT CAVOK 12/04 Q1015 R16/CLRD//=
201912151330 METAR LRBC 151330Z 16006KT CAVOK 11/04 Q1016=
201912151400 METAR LRBC 151400Z 15007KT CAVOK 10/04 Q1016=
201912151430 METAR LRBC 151430Z 16007KT CAVOK 08/03 Q1016=
201912151500 METAR LRBC 151500Z 15007KT CAVOK 07/03 Q1016=
201912151530 METAR LRBC 151530Z 17009KT CAVOK 06/01 Q1017=
201912151600 METAR LRBC 151600Z 16004KT CAVOK 06/01 Q1017=
201912151630 METAR LRBC 151630Z 21010KT CAVOK 11/M01 Q1017=
201912151700 METAR LRBC 151700Z 19005KT CAVOK 08/M00 Q1018=
201912151730 METAR LRBC 151730Z 16006KT CAVOK 09/M00 Q1018=
201912151800 METAR LRBC 151800Z 15008KT CAVOK 07/01 Q1018=
201912151830 METAR LRBC 151830Z 18008KT CAVOK 06/01 Q1018=
201912151900 METAR LRBC 151900Z 18008KT CAVOK 05/01 Q1018=
201912151930 METAR LRBC 151930Z 16011KT CAVOK 06/01 Q1018=
201912152000 METAR LRBC 152000Z 18012KT CAVOK 06/01 Q1018=
201912152030 METAR LRBC 152030Z 18011KT CAVOK 05/01 Q1018=
201912152100 METAR LRBC 152100Z 16011KT CAVOK 06/01 Q1018=
201912152130 METAR LRBC 152130Z 16010KT CAVOK 05/01 Q1018=
201912152200 METAR LRBC 152200Z 18009KT CAVOK 04/01 Q1018=
201912152230 METAR LRBC 152230Z 19009KT CAVOK 04/01 Q1018=
201912152300 METAR LRBC 152300Z 19008KT CAVOK 03/01 Q1018=
201912152330 METAR LRBC 152330Z 13003KT CAVOK 03/01 Q1018=
201912160000 METAR LRBC 160000Z 21007KT CAVOK 03/01 Q1018=
201912160030 METAR LRBC 160030Z 18009KT CAVOK 02/01 Q1018=
201912160100 METAR LRBC 160100Z AUTO 16011KT 9999 NCD 02/01 Q1018=
201912160130 METAR COR LRBC 160130Z 18009KT CAVOK 02/01 Q1018=
201912160200 METAR LRBC 160200Z AUTO 12006KT 030V170 9999 SCT190/// 03/01
                        Q1018=
201912160230 METAR COR LRBC 160230Z 18011KT CAVOK 02/01 Q1019=
201912160300 METAR LRBC 160300Z 14007KT CAVOK 02/01 Q1019=
201912160330 METAR COR LRBC 160330Z 12007KT CAVOK 02/01 Q1019=
201912160400 METAR LRBC 160400Z 19008KT CAVOK 02/01 Q1019=
201912160430 METAR LRBC 160430Z 17006KT CAVOK 01/01 Q1019=
201912160500 METAR LRBC 160500Z 16007KT CAVOK 01/01 Q1019=
201912160530 METAR LRBC 160530Z 17006KT CAVOK 02/00 Q1019=
201912160600 METAR LRBC 160600Z 14003KT 090V170 CAVOK 02/01 Q1020=
201912160630 METAR LRBC 160630Z VRB02KT CAVOK 02/01 Q1020=
201912160700 METAR LRBC 160700Z VRB02KT CAVOK 02/01 Q1020=
201912160730 METAR LRBC 160730Z 15003KT 120V180 CAVOK 04/02 Q1021=
201912160800 METAR LRBC 160800Z VRB01KT CAVOK 06/02 Q1021=
201912160830 METAR LRBC 160830Z VRB02KT CAVOK 06/03 Q1021=
201912160900 METAR LRBC 160900Z VRB02KT CAVOK 07/04 Q1021=
201912160930 METAR LRBC 160930Z VRB02KT CAVOK 09/04 Q1021=
201912161000 METAR LRBC 161000Z 18004KT 140V220 CAVOK 09/05 Q1021=
201912161030 METAR LRBC 161030Z 18005KT 140V210 CAVOK 09/05 Q1020=
201912161100 METAR LRBC 161100Z 17004KT 140V210 CAVOK 10/04 Q1020=
201912161130 METAR LRBC 161130Z VRB02KT CAVOK 11/05 Q1020=
201912161200 METAR LRBC 161200Z VRB04KT CAVOK 11/05 Q1020=
201912161230 METAR LRBC 161230Z VRB03KT CAVOK 11/05 Q1020=
201912161300 METAR LRBC 161300Z 18004KT CAVOK 10/06 Q1020=
201912161330 METAR LRBC 161330Z 18005KT CAVOK 10/06 Q1020=
201912161400 METAR LRBC 161400Z 17006KT CAVOK 08/06 Q1020=
201912161430 METAR LRBC 161430Z 16005KT CAVOK 08/06 Q1020=
201912161500 METAR LRBC 161500Z 14006KT CAVOK 08/05 Q1021=
201912161530 METAR LRBC 161530Z 15005KT CAVOK 07/05 Q1021=
201912161600 METAR LRBC 161600Z 16004KT 140V210 CAVOK 06/05 Q1021=
201912161630 METAR LRBC 161630Z 15006KT 110V170 CAVOK 08/04 Q1021=
201912161700 METAR LRBC 161700Z 15007KT CAVOK 06/04 Q1021=
201912161730 METAR COR LRBC 161730Z 17006KT CAVOK 05/04 Q1021=
201912161800 METAR LRBC 161800Z 17009KT CAVOK 06/04 Q1021=
201912161830 METAR LRBC 161830Z 18007KT CAVOK 05/04 Q1021=
201912161900 METAR LRBC 161900Z 17010KT CAVOK 05/04 Q1021=
201912161930 METAR LRBC 161930Z 17008KT CAVOK 05/04 Q1021=
201912162000 METAR LRBC 162000Z 18005KT 8000 NSC 05/04 Q1021=
201912162030 METAR LRBC 162030Z 18007KT 7000 NSC 05/04 Q1021=
201912162100 METAR LRBC 162100Z 16006KT 130V220 7000 NSC 04/03 Q1021=
201912162130 METAR LRBC 162130Z VRB03KT 7000 NSC 04/04 Q1021=
201912162200 METAR LRBC 162200Z 15004KT 120V190 6000 NSC 03/03 Q1021=
201912162230 METAR LRBC 162230Z 18005KT 6000 NSC 03/03 Q1020=
201912162300 METAR LRBC 162300Z 16005KT 6000 NSC 03/03 Q1020=
201912162330 METAR LRBC 162330Z 18004KT 7000 NSC 03/03 Q1020=
201912170000 METAR LRBC 170000Z 13004KT 100V160 7000 NSC 03/02 Q1020=
201912170030 METAR LRBC 170030Z 19003KT 140V230 6000 NSC 03/02 Q1021=
201912170100 METAR LRBC 170100Z AUTO 16003KT 120V190 5000 BR NCD 03/02
                        Q1021=
201912170130 METAR LRBC 170130Z 19005KT 6000 NSC 02/02 Q1020=
201912170200 METAR LRBC 170200Z VRB01KT 6000 NSC 02/02 Q1020=
201912170230 METAR COR LRBC 170230Z 00000KT 6000 NSC 01/01 Q1021=
201912170300 METAR LRBC 170300Z 25004KT 230V290 6000 NSC M00/M00 Q1020=
201912170330 METAR LRBC 170330Z 22004KT 6000 NSC 02/01 Q1020=
201912170400 METAR LRBC 170400Z 20004KT 6000 NSC 01/01 Q1020=
201912170430 METAR LRBC 170430Z 14004KT 090V170 7000 NSC 01/01 Q1020=
201912170500 METAR LRBC 170500Z 20006KT 6000 NSC 02/01 Q1020=
201912170530 METAR LRBC 170530Z 14002KT 090V180 7000 NSC 01/01 Q1020=
201912170600 METAR LRBC 170600Z VRB02KT 6000 NSC 01/01 Q1020=
201912170630 METAR LRBC 170630Z 20004KT 5000 BR NSC 01/01 Q1020=
201912170700 METAR LRBC 170700Z VRB02KT 5000 BR FEW001 01/01 Q1021=
201912170730 METAR LRBC 170730Z 22003KT 5000 BR FEW002 02/01 Q1021=
201912170800 METAR LRBC 170800Z 23003KT 5000 BR NSC 01/01 Q1021=
201912170830 METAR LRBC 170830Z 16003KT 120V200 5000 BR NSC 03/03 Q1021=
201912170900 METAR LRBC 170900Z VRB02KT 7000 3000S BR NSC 04/03 Q1021=
201912170930 METAR LRBC 170930Z VRB02KT 6000 NSC 06/04 Q1020=
201912171000 METAR LRBC 171000Z 20003KT 160V300 7000 NSC 05/04 Q1020=
201912171030 METAR LRBC 171030Z VRB02KT 8000 NSC 06/04 Q1020=
201912171100 METAR LRBC 171100Z VRB02KT 8000 NSC 06/04 Q1020=
201912171130 METAR LRBC 171130Z VRB02KT 8000 NSC 06/05 Q1019=
201912171200 METAR LRBC 171200Z VRB02KT CAVOK 09/06 Q1019=
201912171230 METAR LRBC 171230Z AUTO 21002KT 170V290 9999 NCD 10/06 Q1019=
201912171300 METAR LRBC 171300Z 16004KT 080V190 CAVOK 10/06 Q1019=
201912171330 METAR LRBC 171330Z 18006KT CAVOK 10/06 Q1019=
201912171400 METAR LRBC 171400Z 17006KT CAVOK 09/07 Q1019=
201912171430 METAR LRBC 171430Z 18009KT CAVOK 08/06 Q1019=
201912171500 METAR LRBC 171500Z 18010KT CAVOK 08/06 Q1019=
201912171530 METAR LRBC 171530Z 17010KT CAVOK 08/05 Q1019=
201912171600 METAR LRBC 171600Z AUTO 17010KT 9999 NCD 06/04 Q1019=
201912171630 METAR LRBC 171630Z 17011KT CAVOK 06/04 Q1019=
201912171700 METAR LRBC 171700Z 17010KT CAVOK 05/04 Q1019=
201912171730 METAR COR LRBC 171730Z 15009KT CAVOK 05/04 Q1019=
201912171800 METAR LRBC 171800Z 16010KT CAVOK 05/04 Q1019=
201912171830 METAR LRBC 171830Z 16009KT CAVOK 05/04 Q1019=
201912171900 METAR LRBC 171900Z 14009KT 8000 NSC 04/03 Q1019=
201912171930 METAR LRBC 171930Z 11006KT 080V140 8000 NSC 03/03 Q1019=
201912172000 METAR LRBC 172000Z 11005KT 060V140 8000 NSC 04/03 Q1019=
201912172030 METAR LRBC 172030Z 10005KT 060V120 8000 NSC 04/03 Q1019=
201912172100 METAR LRBC 172100Z 12009KT CAVOK 05/03 Q1019=
201912172130 METAR LRBC 172130Z 13004KT 080V190 CAVOK 06/03 Q1019=
201912172200 METAR LRBC 172200Z VRB04KT CAVOK 02/01 Q1019=
201912172230 METAR LRBC 172230Z 28003KT 260V340 CAVOK 02/01 Q1019=
201912172300 METAR LRBC 172300Z AUTO 28003KT 260V320 9000 NCD 02/01 Q1019=
201912172330 METAR LRBC 172330Z 30003KT CAVOK 02/02 Q1019=
201912180000 METAR LRBC 180000Z VRB02KT CAVOK 02/01 Q1019=
201912180030 METAR COR LRBC 180030Z 35002KT CAVOK 01/00 Q1019=
201912180100 METAR LRBC 180100Z 22002KT CAVOK 01/00 Q1019=
201912180130 METAR COR LRBC 180130Z VRB01KT CAVOK 00/M01 Q1019=
201912180200 METAR COR LRBC 180200Z 16001KT 5000 BR NSC 00/00 Q1019=
201912180230 METAR LRBC 180230Z 00000KT 6000 NSC 02/02 Q1020=
201912180300 METAR LRBC 180300Z 00000KT 7000 NSC 01/01 Q1020=
201912180330 METAR LRBC 180330Z VRB01KT CAVOK 01/01 Q1020=
201912180400 METAR LRBC 180400Z 00000KT 7000 NSC 01/00 Q1020=
201912180430 METAR LRBC 180430Z 15003KT 5000 BR NSC M00/M00 Q1020=
201912180500 METAR LRBC 180500Z 19001KT 5000 BR NSC M00/M00 Q1020=
201912180530 METAR LRBC 180530Z 19001KT CAVOK M00/M00 Q1020=
201912180600 METAR LRBC 180600Z 18004KT 6000 NSC M00/M01 Q1020=
201912180630 METAR LRBC 180630Z VRB02KT 4000 BR NSC 00/00 Q1020=
201912180700 METAR LRBC 180700Z 34006KT 4000 BR NSC 01/01 Q1020=
201912180730 METAR LRBC 180730Z 34005KT 6000 NSC 03/02 Q1021=
201912180800 METAR LRBC 180800Z 34003KT 8000 NSC 05/03 Q1021=
201912180830 METAR LRBC 180830Z VRB01KT 8000 NSC 07/04 Q1021=
201912180900 METAR LRBC 180900Z 12002KT 8000 NSC 07/04 Q1021=
201912180930 METAR LRBC 180930Z 24002KT 8000 NSC 08/05 Q1021=
201912181000 METAR LRBC 181000Z 19003KT 8000 NSC 10/06 Q1020=
201912181030 METAR LRBC 181030Z 13004KT CAVOK 10/05 Q1020=
201912181100 METAR LRBC 181100Z 23002KT CAVOK 11/05 Q1020=
201912181130 METAR LRBC 181130Z 15003KT CAVOK 12/05 Q1020=
201912181200 METAR LRBC 181200Z 18004KT CAVOK 12/06 Q1020=
201912181230 METAR LRBC 181230Z 16004KT CAVOK 11/06 Q1020=
201912181300 METAR LRBC 181300Z 17004KT CAVOK 11/07 Q1020=
201912181330 METAR LRBC 181330Z 17006KT CAVOK 09/06 Q1020=
201912181400 METAR LRBC 181400Z 14004KT CAVOK 08/05 Q1020=
201912181430 METAR LRBC 181430Z 15005KT CAVOK 07/04 Q1020=
201912181500 METAR LRBC 181500Z 11003KT CAVOK 07/04 Q1021=
201912181530 METAR LRBC 181530Z VRB01KT CAVOK 06/04 Q1021=
201912181600 METAR LRBC 181600Z 36003KT CAVOK 06/04 Q1021=
201912181630 METAR LRBC 181630Z 33005KT CAVOK 05/04 Q1021=
201912181700 METAR LRBC 181700Z 35003KT 330V030 CAVOK 07/05 Q1022=
201912181730 METAR LRBC 181730Z VRB01KT CAVOK 06/04 Q1022=
201912181800 METAR LRBC 181800Z 21003KT 140V230 CAVOK 04/03 Q1022=
201912181830 METAR LRBC 181830Z 12003KT 080V140 CAVOK 05/04 Q1022=
201912181900 METAR LRBC 181900Z 16001KT CAVOK 04/03 Q1023=
201912181930 METAR LRBC 181930Z 27004KT 230V300 CAVOK 03/02 Q1023=
201912182000 METAR LRBC 182000Z 13003KT 070V170 CAVOK 04/03 Q1023=
201912182030 METAR LRBC 182030Z VRB02KT 6000 NSC 03/03 Q1023=
201912182100 METAR LRBC 182100Z 32006KT 6000 NSC 03/02 Q1024=
201912182130 METAR LRBC 182130Z VRB02KT 7000 NSC 03/02 Q1024=
201912182200 METAR LRBC 182200Z 08001KT 6000 NSC 02/02 Q1024=
201912182230 METAR LRBC 182230Z 36001KT 7000 NSC 03/02 Q1024=
201912182300 METAR LRBC 182300Z VRB01KT 7000 NSC 02/01 Q1024=
201912182330 METAR LRBC 182330Z 26001KT 7000 NSC 02/02 Q1025=
201912190000 METAR LRBC 190000Z AUTO 35001KT 8000 NCD 03/02 Q1025=
201912190030 METAR LRBC 190030Z AUTO 36004KT 330V050 9000 NCD 02/02 Q1026=
201912190100 METAR LRBC 190100Z VRB02KT 7000 NSC 02/01 Q1026=
201912190130 METAR LRBC 190130Z 32003KT CAVOK 01/01 Q1026=
201912190200 METAR LRBC 190200Z VRB01KT CAVOK 00/M00 Q1026=
201912190230 METAR LRBC 190230Z 33005KT CAVOK 00/M00 Q1026=
201912190300 METAR LRBC 190300Z 33004KT CAVOK 01/01 Q1026=
201912190330 METAR LRBC 190330Z 04003KT 360V070 CAVOK 02/01 Q1026=
201912190400 METAR LRBC 190400Z 27003KT CAVOK M00/M00 Q1026=
201912190430 METAR LRBC 190430Z VRB02KT CAVOK M00/M00 Q1026=
201912190500 METAR LRBC 190500Z VRB02KT CAVOK M00/M00 Q1027=
201912190530 METAR LRBC 190530Z 33004KT CAVOK M00/M01 Q1027=
201912190600 METAR LRBC 190600Z 36004KT CAVOK 00/M00 Q1027=
201912190630 METAR LRBC 190630Z 00000KT CAVOK M01/M01 Q1027=
201912190700 METAR LRBC 190700Z 01002KT 330V060 8000 NSC 02/01 Q1028=
201912190730 METAR LRBC 190730Z VRB01KT 8000 NSC 03/02 Q1028=
201912190800 METAR LRBC 190800Z 33002KT 290V350 8000 NSC 04/02 Q1028=
201912190830 METAR LRBC 190830Z 29002KT 260V330 8000 NSC 05/03 Q1028=
201912190900 METAR COR LRBC 190900Z 36002KT 330V090 CAVOK 07/03 Q1028=
201912190930 METAR LRBC 190930Z 02002KT 340V080 CAVOK 08/04 Q1028=
201912191000 METAR LRBC 191000Z 29003KT 250V330 CAVOK 09/04 Q1028=
201912191030 METAR LRBC 191030Z 32002KT 280V010 CAVOK 10/05 Q1028=
201912191100 METAR LRBC 191100Z 10002KT 350V140 CAVOK 11/05 Q1027=
201912191130 METAR LRBC 191130Z VRB01KT CAVOK 13/05 Q1027=
201912191200 METAR LRBC 191200Z 13002KT 100V190 CAVOK 13/06 Q1027=
201912191230 METAR LRBC 191230Z VRB01KT CAVOK 12/06 Q1027=
201912191300 METAR LRBC 191300Z VRB02KT CAVOK 12/05 Q1027=
201912191330 METAR LRBC 191330Z VRB02KT CAVOK 12/06 Q1027=
201912191400 METAR LRBC 191400Z 27003KT CAVOK 09/07 Q1027=
201912191430 METAR LRBC 191430Z 30002KT 8000 NSC 08/06 Q1027=
201912191500 METAR LRBC 191500Z 28003KT 9000 NSC 06/05 Q1027=
201912191530 METAR COR LRBC 191530Z 24001KT 7000 NSC 06/05 Q1027=
201912191600 METAR LRBC 191600Z 00000KT 6000 NSC 05/04 Q1027=
201912191630 METAR COR LRBC 191630Z 11002KT 080V140 6000 NSC 06/05 Q1027=
201912191700 METAR LRBC 191700Z 00000KT 6000 NSC 03/03 Q1027=
201912191730 METAR LRBC 191730Z 00000KT 6000 NSC 05/05 Q1027=
201912191800 METAR LRBC 191800Z 20002KT 6000 NSC 03/02 Q1026=
201912191830 METAR LRBC 191830Z 19002KT 6000 NSC 04/04 Q1026=
201912191900 METAR LRBC 191900Z 14003KT 6000 NSC 05/04 Q1026=
201912191930 METAR LRBC 191930Z 18001KT 5000 BR NSC 03/03 Q1026=
201912192000 METAR LRBC 192000Z 17001KT 5000 BR NSC 04/04 Q1026=
201912192030 METAR LRBC 192030Z 14002KT 5000 BR NSC 03/03 Q1026=
201912192100 METAR LRBC 192100Z 16002KT 5000 BR NSC 04/03 Q1026=
201912192130 METAR LRBC 192130Z 17002KT 5000 BR NSC 02/02 Q1026=
201912192200 METAR LRBC 192200Z 14001KT 5000 BR NSC 03/03 Q1025=
201912192230 METAR LRBC 192230Z 16003KT 4000 BR NSC 03/03 Q1025=
201912192300 METAR LRBC 192300Z 16002KT 3000 BR NSC 02/02 Q1025=
201912192330 METAR LRBC 192330Z 16004KT 3000 BR NSC 02/02 Q1024=
201912200000 METAR LRBC 200000Z 16007KT 5000 BR NSC 03/03 Q1024=
201912200030 METAR LRBC 200030Z 16007KT 5000 BR NSC 03/03 Q1024=
201912200100 METAR LRBC 200100Z AUTO 15007KT 5000 BR SCT240/// 04/04 Q1024=
201912200130 METAR LRBC 200130Z 16007KT 5000 BR NSC 03/03 Q1023=
201912200200 METAR LRBC 200200Z 19002KT 2000 BR NSC 02/02 Q1023=
201912200230 METAR COR LRBC 200230Z 15006KT 2000 BR NSC 03/03 Q1023=
201912200300 METAR COR LRBC 200300Z 14007KT 2200 BR NSC 03/03 Q1022=
201912200330 METAR COR LRBC 200330Z 19004KT 0200 R34/0225N FG BKN003 01/01
                        Q1022=
201912200400 METAR LRBC 200400Z VRB01KT 0250 R34/0250N FG BKN003 01/01
                        Q1021=
201912200430 METAR LRBC 200430Z 18007KT 0900 R34/1000U BCFG VV002 04/04
                        Q1021=
201912200500 METAR LRBC 200500Z AUTO 16006KT 0400 R34/0400N FG VV001 04/04
                        Q1021=
201912200530 METAR LRBC 200530Z 16006KT 0300 R34/0350N FG VV001 04/04
                        Q1021=
201912200600 METAR LRBC 200600Z 16012KT 0150 R34/0375N FG VV001 04/04
                        Q1021 R16/19//95=
201912200630 METAR LRBC 200630Z 16011KT 0100 R34/0275N FG VV001 03/03
                        Q1021 R16/19//95=
201912200700 METAR LRBC 200700Z 17013KT 0200 R34/0600N FG VV002 03/03
                        Q1021 R16/19//95=
201912200730 METAR LRBC 200730Z 16011KT 0250 R34/0550N FG VV001 03/03
                        Q1021 R16/19//95=
201912200800 METAR LRBC 200800Z 16012KT 0500 R34/0900U FG VV001 04/04
                        Q1021 R16/19//95=
201912200830 METAR LRBC 200830Z 16012KT 0600 R34/1000U FG VV002 04/04
                        Q1020 R16/19//95=
201912200900 METAR LRBC 200900Z 17010KT 1500 BR OVC001 04/04 Q1019 R16/19//95=
201912200930 METAR COR LRBC 200930Z 16009KT 0800 R34/0900D FG VV002 05/04
                        Q1019 R16/19//95=
201912201000 METAR LRBC 201000Z 16011KT 0300 R34/0700N FG VV002 05/05
                        Q1018 R16/19//95=
201912201030 METAR LRBC 201030Z 16011KT 0500 R34/0700N FG VV002 05/05
                        Q1018 R16/19//95=
201912201100 METAR LRBC 201100Z 16011KT 0500 R34/0750N FG VV001 05/05
                        Q1017 R16/210295=
201912201130 METAR LRBC 201130Z 16010KT 0500 R34/0650D FG VV002 05/05
                        Q1016 R16/210295=
201912201200 METAR LRBC 201200Z 17010KT 0800 R34/1400U FG VV002 05/05
                        Q1016 R16/210295=
201912201230 METAR LRBC 201230Z 17011KT 0800 R34/1400U FG VV002 05/05
                        Q1015 R16/210295=
201912201300 METAR LRBC 201300Z 17008KT 0800 R34/1500D FG VV002 05/05
                        Q1015 R16/210295=
201912201330 METAR LRBC 201330Z 16007KT 0500 R34/0700N FG VV001 05/05
                        Q1015 R16/210295=
201912201400 METAR LRBC 201400Z 15008KT 0250 R34/0550N FG VV001 05/05
                        Q1014 R16/210295=
201912201430 METAR LRBC 201430Z 15008KT 0400 R34/0700N FG VV001 05/05
                        Q1014 R16/210295=
201912201500 METAR LRBC 201500Z 15009KT 0300 R34/0750N FG VV002 05/05
                        Q1014 R16/210295=
201912201530 METAR LRBC 201530Z 15009KT 0300 R34/0600N FG VV001 06/06
                        Q1013 R16/210295=
201912201600 METAR LRBC 201600Z 15010KT 0300 R34/0650N FG VV001 06/06
                        Q1013 R16/210295=
201912201630 METAR LRBC 201630Z 15012KT 0800 R34/1100D FG VV002 05/05
                        Q1013 R16/210295=
201912201700 METAR LRBC 201700Z AUTO 16011KT 0650 R34/0750N FG VV001 05/05
                        Q1013=
201912201730 METAR LRBC 201730Z 16010KT 0600 R34/0800D FG VV001 05/05
                        Q1012 R16/210295=
201912201800 METAR LRBC 201800Z 16011KT 1100 R34/1300D FG VV002 05/05
                        Q1012 R16/210295=
201912201830 METAR LRBC 201830Z 16010KT 2000 BR SCT001 BKN003 OVC005 05/05
                        Q1012 R16/210295=
201912201900 METAR LRBC 201900Z 16009KT 3000 BR BKN001 BKN005 05/05 Q1012
                        R16/210295=
201912201930 METAR LRBC 201930Z 16009KT 3000 BR SCT001 BKN003 05/05 Q1012
                        R16/210295=
201912202000 METAR LRBC 202000Z 15008KT 4100 BR SCT002 BKN004 05/05 Q1011
                        R16/210295=
201912202030 METAR LRBC 202030Z 16008KT 4200 BR FEW001 BKN003 05/05 Q1011
                        R16/210295=
201912202100 METAR LRBC 202100Z 16008KT 4500 BR SCT002 OVC004 05/05 Q1011
                        R16/210295=
201912202130 METAR LRBC 202130Z 16007KT 4000 BR BKN002 BKN004 05/05 Q1011
                        R16/210295=
201912202200 METAR LRBC 202200Z 16008KT 4600 BR SCT002 BKN004 05/05 Q1010
                        R16/210295=
201912202230 METAR LRBC 202230Z 17008KT 5000 BR SCT002 OVC004 05/05 Q1010
                        R16/210295=
201912202300 METAR LRBC 202300Z 17007KT 4500 BR OVC002 05/04 Q1010 R16/210295=
201912202330 METAR LRBC 202330Z 18010KT 3400 BR OVC001 04/04 Q1009 R16/210295=
201912210000 METAR LRBC 210000Z 18007KT 150V210 2000 BR VV002 04/04 Q1009
                        R16/210295=
201912210030 METAR LRBC 210030Z 17008KT 140V200 1200 0600S R34/1000D FG
                        VV002 04/04 Q1009 R16/210295=
201912210100 METAR LRBC 210100Z 16010KT 0500 R34/0550N FG VV001 04/04
                        Q1009 R16/210295=
201912210130 METAR LRBC 210130Z 17009KT 0400 R34/0500D FG VV001 04/04
                        Q1008 R16/210295=
201912210200 METAR LRBC 210200Z 16011KT 0300 R34/0500N FG VV001 04/04
                        Q1008 R16/210295=
201912210230 METAR LRBC 210230Z 16011KT 0300 R34/0550N FG VV001 04/04
                        Q1008 R16/210295=
201912210300 METAR LRBC 210300Z 17010KT 0500 R34/0600D FG VV001 04/03
                        Q1008 R16/210295=
201912210330 METAR COR LRBC 210330Z 16009KT 0450 R34/0500N FG VV001 03/03
                        Q1008 R16/210295=
201912210400 METAR LRBC 210400Z 16009KT 0300 R34/0400N FG VV001 03/03
                        Q1008 R16/210295=
201912210430 METAR LRBC 210430Z 17012KT 0300 R34/0450N FG VV001 03/03
                        Q1008 R16/210295=
201912210500 METAR LRBC 210500Z 15008KT 0300 R34/0400N FG VV001 03/03
                        Q1007 R16/210295=
201912210530 METAR LRBC 210530Z 18012KT 0300 R34/0400N FG VV001 03/03
                        Q1007 R16/210295=
201912210600 METAR LRBC 210600Z 16010KT 0300 R34/0375N FG VV001 03/03
                        Q1008 R16/210295=
201912210630 METAR LRBC 210630Z 16009KT 0200 R34/0275N FG VV001 03/03
                        Q1008=
201912210700 METAR LRBC 210700Z 17009KT 0200 R34/0300N FG VV001 03/03
                        Q1008=
201912210730 METAR LRBC 210730Z 16010KT 0200 R34/0325N FG VV001 03/03
                        Q1007=
201912210800 METAR LRBC 210800Z 17011KT 0200 R34/0225N FG VV001 03/03
                        Q1007=
201912210830 METAR LRBC 210830Z 16011KT 0200 R34/0225N FG VV001 03/03
                        Q1007=
201912210900 METAR LRBC 210900Z 16010KT 0200 R34/0250N FG VV001 03/03
                        Q1007=
201912210930 METAR LRBC 210930Z 17007KT 0300 R34/0325N FG VV002 03/03
                        Q1007=
201912211000 METAR LRBC 211000Z 17010KT 0800 R34/1300D FG VV002 04/04
                        Q1006=
201912211030 METAR LRBC 211030Z 16011KT 2000 BR BKN001 04/04 Q1006=
201912211100 METAR LRBC 211100Z 17008KT 150V240 1500 BR BKN001 04/04 Q1005=
201912211130 METAR COR LRBC 211130Z 17010KT 1500 BR BKN001 BKN003 04/04
                        Q1005 R16/210295=
201912211200 METAR LRBC 211200Z 17009KT 0600 R34/1400 FG BKN001 04/04
                        Q1005 R16/210295=
201912211230 METAR LRBC 211230Z 17009KT 0400 R34/0600U BCFG VV001 04/03
                        Q1005 R16/210295=
201912211300 METAR LRBC 211300Z 17009KT 0800 R34/1400D BCFG BKN001 04/04
                        Q1005 R16/210295=
201912211330 METAR LRBC 211330Z 17010KT 0300 R34/0400N FG VV001 03/03
                        Q1004 R16/210295=
201912211400 METAR LRBC 211400Z 17009KT 0200 R34/0350N FG VV001 03/03
                        Q1004 R16/210295=
201912211430 METAR LRBC 211430Z 17010KT 0200 R34/0400U FG VV001 03/03
                        Q1004 R16/210295=
201912211500 METAR LRBC 211500Z 17011KT 0300 R34/0400N FG VV001 03/03
                        Q1004 R16/210295=
201912211530 METAR LRBC 211530Z 17012KT 0300 R34/0375N FG VV001 03/03
                        Q1004 R16/210295=
201912211600 METAR LRBC 211600Z 17007KT 0300 R34/0450N FG VV001 03/03
                        Q1004 R16/210295=
201912211630 METAR LRBC 211630Z 18006KT 0300 R34/0450N FG VV001 03/03
                        Q1003 R16/210295=
201912211700 METAR LRBC 211700Z 17008KT 0200 R34/0400N FG VV001 03/03
                        Q1003 R16/210295=
201912211730 METAR LRBC 211730Z 16008KT 0150 R34/0325N FG VV001 03/03
                        Q1003 R16/210295=
201912211800 METAR LRBC 211800Z 18004KT 0200 R34/0450N FG VV001 03/03
                        Q1002 R16/210295=
201912211830 METAR LRBC 211830Z 16005KT 0200 R34/0400N FG VV001 04/04
                        Q1002 R16/210295=
201912211900 METAR LRBC 211900Z 17006KT 0150 R34/0350N FG VV001 04/04
                        Q1002 R16/210295=
201912211930 METAR LRBC 211930Z 17007KT 0150 R34/0325N FG VV001 04/04
                        Q1001 R16/210295=
201912212000 METAR LRBC 212000Z 17010KT 0150 R34/0350N FG VV001 04/04
                        Q1001 R16/210295=
201912212030 METAR LRBC 212030Z 17011KT 0150 R34/0375N FG VV001 04/04
                        Q1001 R16/210295=
201912212100 METAR LRBC 212100Z 17010KT 0150 R34/0375N FG VV001 03/03
                        Q1000 R16/210295=
201912212130 METAR LRBC 212130Z 17007KT 0150 R34/0325N FG VV001 03/03
                        Q1000 R16/210295=
201912212200 METAR LRBC 212200Z 18008KT 0150 R34/0350U FG VV001 03/03
                        Q1000 R16/210295=
201912212230 METAR LRBC 212230Z AUTO 18007KT 0350 R34/0375N FG VV001 03/03
                        Q0999=
201912212300 METAR COR LRBC 212300Z 17005KT 0500 R34/1100U FG VV001 03/03
                        Q0999 R16/210295=
201912212330 METAR LRBC 212330Z 17006KT 1500 -DZ BR OVC002 03/03 Q0999
                        R16/210295=
201912220000 METAR LRBC 220000Z 15003KT 110V210 4000 BR FEW002 03/03 Q0998
                        R16/210295=
201912220030 METAR LRBC 220030Z 15006KT 5000 BR NSC 04/04 Q0998 R16/210295=
201912220100 METAR LRBC 220100Z AUTO 20007KT 2500 -RA BKN075/// 03/03
                        Q0998=
201912220130 METAR LRBC 220130Z AUTO 17009KT 5000 -DZ BKN075/// 04/04
                        Q0998=
201912220200 METAR LRBC 220200Z AUTO 18010KT 6000 BKN080/// 04/04 Q0997
                        RERA=
201912220230 METAR LRBC 220230Z AUTO 18009KT 6000 FEW095/// BKN110///
                        BKN120/// 05/05 Q0997 RERA=
201912220300 METAR LRBC 220300Z 17009KT 7000 NSC 05/05 Q0997 R16/210295=
201912220330 METAR LRBC 220330Z 18005KT 7000 NSC 05/04 Q0997 R16/19//95=
201912220400 METAR LRBC 220400Z AUTO 18006KT 7000 BKN080/// 05/05 Q0997=
201912220430 METAR LRBC 220430Z 17009KT 7000 NSC 05/04 Q0997 R16/19//95=
201912220500 METAR LRBC 220500Z 17005KT 130V190 7000 NSC 04/04 Q0997 R16/19//95=
201912220530 METAR LRBC 220530Z 18004KT 150V220 8000 NSC 04/04 Q0997 R16/19//95=
201912220600 METAR LRBC 220600Z 17003KT 8000 NSC 03/03 Q0997 R16/19//95=
201912220630 METAR LRBC 220630Z 20006KT 6000 NSC 03/03 Q0997 R16/19//95=
201912220700 METAR LRBC 220700Z 16006KT 6000 NSC 07/06 Q0997 R16/19//95=
201912220730 METAR LRBC 220730Z 11007KT 6000 NSC 07/06 Q0997 R16/19//95=
201912220800 METAR LRBC 220800Z 15006KT 8000 NSC 07/06 Q0997 R16/19//95=
201912220830 METAR LRBC 220830Z 19009KT CAVOK 09/08 Q0997 R16/19//95=
201912220900 METAR LRBC 220900Z 12005KT CAVOK 10/07 Q0996 R16/19//95=
201912220930 METAR LRBC 220930Z 13009KT CAVOK 11/08 Q0996 R16/19//95=
201912221000 METAR LRBC 221000Z 16009KT CAVOK 12/09 Q0996 R16/19//95=
201912221030 METAR LRBC 221030Z 15011KT CAVOK 12/08 Q0996 R16/19//95=
201912221100 METAR LRBC 221100Z 16009KT CAVOK 14/09 Q0996 R16/15//95=
201912221130 METAR LRBC 221130Z 16011KT CAVOK 13/09 Q0996 R16/15//95=
201912221200 METAR LRBC 221200Z 15010KT CAVOK 14/08 Q0995 R16/15//95=
201912221230 METAR LRBC 221230Z 15009KT CAVOK 13/09 Q0995 R16/CLRD//=
201912221300 METAR LRBC 221300Z 17008KT CAVOK 12/09 Q0995=
201912221330 METAR LRBC 221330Z 17009KT CAVOK 12/09 Q0995=
201912221400 METAR LRBC 221400Z 17007KT CAVOK 11/09 Q0995=
201912221430 METAR LRBC 221430Z 18007KT CAVOK 10/08 Q0994=
201912221500 METAR LRBC 221500Z 18007KT CAVOK 10/09 Q0994=
201912221530 METAR LRBC 221530Z 18012KT CAVOK 11/09 Q0994=
201912221600 METAR LRBC 221600Z 17008KT CAVOK 10/09 Q0994=
201912221630 METAR LRBC 221630Z 17009KT CAVOK 09/08 Q0994=
201912221700 METAR LRBC 221700Z 18008KT CAVOK 09/08 Q0994=
201912221730 METAR LRBC 221730Z 18012KT CAVOK 09/08 Q0994=
201912221800 METAR LRBC 221800Z 16013KT CAVOK 09/08 Q0994=
201912221830 METAR LRBC 221830Z 17014KT CAVOK 10/08 Q0994=
201912221900 METAR LRBC 221900Z 16012KT CAVOK 10/08 Q0994=
201912221930 METAR LRBC 221930Z 15007KT CAVOK 09/08 Q0993=
201912222000 METAR LRBC 222000Z 17009KT CAVOK 09/07 Q0993=
201912222030 METAR LRBC 222030Z 17011KT CAVOK 10/08 Q0993=
201912222100 METAR LRBC 222100Z 18011KT CAVOK 10/08 Q0992=
201912222130 METAR LRBC 222130Z 17011KT CAVOK 10/08 Q0992=
201912222200 METAR LRBC 222200Z 18009KT CAVOK 10/08 Q0992=
201912222230 METAR LRBC 222230Z 18008KT CAVOK 10/08 Q0991=
201912222300 METAR LRBC 222300Z 19008KT CAVOK 10/08 Q0991=
201912222330 METAR LRBC 222330Z 18009KT CAVOK 09/08 Q0991=
201912230000 METAR LRBC 230000Z 18007KT 9999 SCT011 09/08 Q0991=
201912230030 METAR LRBC 230030Z 19007KT 9999 BKN010 09/09 Q0991=
201912230100 METAR LRBC 230100Z 18009KT 9999 BKN010 09/09 Q0990=
201912230130 METAR LRBC 230130Z 18006KT 8000 OVC010 09/09 Q0990=
201912230200 METAR LRBC 230200Z 17007KT 9000 SCT010 OVC015 09/09 Q0990=
201912230230 METAR COR LRBC 230230Z 17005KT 8000 OVC009 09/09 Q0990=
201912230300 METAR COR LRBC 230300Z 18004KT 6000 -RA OVC008 09/09 Q0989=
201912230330 METAR LRBC 230330Z 18005KT 6000 -RA OVC008 09/09 Q0989 R16/19//95=
201912230400 METAR LRBC 230400Z 17006KT 6000 -RA OVC007 09/09 Q0989 R16/210295=
201912230430 METAR LRBC 230430Z 17006KT 6000 -RA SCT002 OVC008 09/09 Q0989
                        R16/210295=
201912230500 METAR LRBC 230500Z 16008KT 6000 -RA FEW001 OVC005 10/10 Q0989
                        R16/210295=
201912230530 METAR LRBC 230530Z 16011KT 1500 BR OVC001 10/10 Q0989 R16/210295=
201912230600 METAR LRBC 230600Z 16010KT 0500 R34/0550N FG VV001 10/10
                        Q0989 R16/210295=
201912230630 METAR LRBC 230630Z 15014KT 1800 BR OVC001 10/10 Q0989 R16/210295=
201912230700 METAR LRBC 230700Z 15010KT 8000 SCT001 BKN004 10/10 Q0989
                        R16/210295=
201912230730 METAR LRBC 230730Z 16011KT 8000 BKN005 OVC007 10/10 Q0989
                        R16/210295=
201912230800 METAR LRBC 230800Z 15009KT 9999 OVC006 11/10 Q0989 R16/210295=
201912230830 METAR LRBC 230830Z 16009KT 9999 OVC005 10/10 Q0989 R16/210295=
201912230900 METAR LRBC 230900Z 15010KT 9999 SCT005 BKN007 10/10 Q0989
                        R16/210295=
201912230930 METAR LRBC 230930Z 15009KT 9000 SCT006 OVC008 10/10 Q0989
                        R16/210295=
201912231000 METAR LRBC 231000Z 15007KT 6000 SCT006 OVC008 11/11 Q0989
                        R16/210295=
201912231030 METAR LRBC 231030Z 15009KT 8000 -DZ SCT006 BKN008 11/11 Q0988
                        R16/210295=
201912231100 METAR LRBC 231100Z 16008KT 3300 -RA BR FEW002 SCT004 BKN006
                        11/11 Q0988 R16/210295=
201912231130 METAR LRBC 231130Z 15009KT 5000 -RA BR SCT001 BKN012 BKN042
                        11/11 Q0988 R16/210295=
201912231200 METAR LRBC 231200Z 15013KT 8000 -RA SCT003 BKN010 BKN042
                        11/11 Q0988 R16/210295=
201912231230 METAR LRBC 231230Z 16014KT 2100 -RA BR BKN002 BKN007 11/11
                        Q0988 R16/210295=
201912231300 METAR LRBC 231300Z 16013KT 7000 FEW001 BKN003 BKN011 11/11
                        Q0988 R16/210295=
201912231330 METAR LRBC 231330Z 16013KT 9000 FEW003 SCT006 BKN050 11/11
                        Q0989 R16/210295=
201912231400 METAR LRBC 231400Z 17014KT 6000 BKN006 BKN021 KN050 11/11
                        Q0989 R16/210295=
201912231430 METAR LRBC 231430Z 17011KT 4800 BR FEW004 BKN021 10/10 Q0989
                        R16/210295=
201912231500 METAR LRBC 231500Z 17012KT 5000 BR BKN021 10/10 Q0989 R16/210295=
201912231530 METAR LRBC 231530Z 18009KT 4000 BR FEW003 BKN021 10/10 Q0990
                        R16/210295=
201912231600 METAR LRBC 231600Z 22003KT 4000 BR BKN021 09/09 Q0990 R16/210295=
201912231630 METAR LRBC 231630Z 17008KT 6000 BKN055 10/10 Q0990 R16/210295=
201912231700 METAR LRBC 231700Z 15008KT 6000 SCT060 10/10 Q0991 R16/210295=
201912231730 METAR LRBC 231730Z 18003KT 150V210 4600 BR SCT060 09/08 Q0991
                        R16/210295=
201912231800 METAR LRBC 231800Z 16006KT 4000 BR SCT002 BKN007 09/09 Q0991
                        R16/210295=
201912231830 METAR LRBC 231830Z 17008KT 2000 BR FEW001 BKN065 09/09 Q0992
                        R16/210295=
201912231900 METAR LRBC 231900Z 17009KT 0450 R34/0500N FG VV001 08/08
                        Q0992 R16/210295=
201912231930 METAR LRBC 231930Z 16007KT 2000 BR BKN002 SCT004 08/08 Q0992
                        R16/210295=
201912232000 METAR LRBC 232000Z 16006KT 2000 BR BKN002 08/08 Q0992 R16/210295=
201912232030 METAR LRBC 232030Z 18007KT 3000 BR BKN050 07/07 Q0993 R16/210295=
201912232100 METAR LRBC 232100Z 17005KT 0300 R34/0400N FG VV001 07/07
                        Q0993 R16/210295=
201912232130 METAR LRBC 232130Z 15003KT 0200 R34/0225N FG VV001 06/06
                        Q0993 R16/210295=
201912232200 METAR LRBC 232200Z 15005KT 0250 R34/0250N FG VV001 06/06
                        Q0994 R16/210295=
201912232230 METAR LRBC 232230Z 07002KT 0250 R34/0250N FG VV001 07/07
                        Q0995 R16/210295=
201912232300 METAR LRBC 232300Z 13001KT 0250 R34/0250N FG VV001 07/07
                        Q0995 R16/210295=
201912232330 METAR LRBC 232330Z 32004KT 0300 R34/0300N FG VV001 07/07
                        Q0995 R16/210295=
201912240000 METAR LRBC 240000Z 33005KT 1800 BR VV002 07/07 Q0996 R16/210295=
201912240030 METAR LRBC 240030Z 33005KT 4000 BR BKN010 07/07 Q0996 R16/210295=
201912240100 METAR LRBC 240100Z 34006KT 9999 OVC012 07/06 Q0996 R16/210295=
201912240130 METAR LRBC 240130Z 33004KT 9999 OVC015 07/06 Q0997 R16/210295=
201912240200 METAR LRBC 240200Z AUTO 36005KT 9999 BKN017/// OVC022///
                        07/07 Q0997=
201912240230 METAR LRBC 240230Z AUTO 36005KT 9999 OVC019/// 07/07 Q0997=
201912240300 METAR LRBC 240300Z 02003KT 9999 BKN021 07/07 Q0997 R16/210295=
201912240330 METAR LRBC 240330Z 34004KT 9999 SCT050 07/06 Q0998 R16/210295=
201912240400 METAR LRBC 240400Z 34003KT 9999 BKN025 06/06 Q0998 R16/210295=
201912240430 METAR LRBC 240430Z 01004KT 340V060 9999 SCT031 BKN050 07/06
                        Q0999 R16/210295=
201912240500 METAR LRBC 240500Z 36004KT 9999 BKN028 07/06 Q0999 R16/210295=
201912240530 METAR LRBC 240530Z 36004KT 9999 BKN030 06/06 Q1000 R16/210295=
201912240600 METAR LRBC 240600Z VRB01KT 9999 BKN025 OVC065 07/06 Q1000
                        R16/210295=
201912240630 METAR LRBC 240630Z 35005KT 9999 BKN023 06/06 Q1000 R16/210295=
201912240700 METAR COR LRBC 240700Z 01004KT 350V050 9999 SCT023 BKN045
                        07/06 Q1001 R16/210295=
201912240730 METAR LRBC 240730Z 33007KT 320V020 9999 BKN047 07/06 Q1001
                        R16/210295=
201912240800 METAR LRBC 240800Z 32007KT 9999 SCT048 07/06 Q1002 R16/210295=
201912240830 METAR LRBC 240830Z 35008KT 9999 SCT050 07/06 Q1002 R16/210295=
201912240900 METAR LRBC 240900Z 34011KT 9999 FEW050 08/06 Q1002 R16/210295=
201912240930 METAR LRBC 240930Z 35011KT 9999 BKN065 08/05 Q1002 R16/210295=
201912241000 METAR LRBC 241000Z 35008KT 9999 BKN065 08/06 Q1003 R16/210295=
201912241030 METAR LRBC 241030Z 33010KT 9999 SCT065 08/06 Q1002 R16/210295=
201912241100 METAR LRBC 241100Z 32008KT 9999 SCT065 08/06 Q1003 R16/15//95=
201912241130 METAR LRBC 241130Z 32007KT 9999 SCT065 09/06 Q1003 R16/15//95=
201912241200 METAR LRBC 241200Z 33006KT 9999 SCT065 09/06 Q1003 R16/15//95=
201912241230 METAR LRBC 241230Z 35005KT 9999 SCT065 09/06 Q1003 R16/15//95=
201912241300 METAR LRBC 241300Z 36005KT 330V060 9999 FEW023 09/06 Q1003
                        R16/15//95=
201912241330 METAR LRBC 241330Z 35007KT 9999 SCT021 BKN037 09/06 Q1003
                        R16/15//95=
201912241400 METAR LRBC 241400Z 36007KT 9999 SCT023 BKN038 09/06 Q1004
                        R16/15//95=
201912241430 METAR LRBC 241430Z 35012KT 9999 FEW030 SCT041 08/05 Q1004
                        R16/15//95=
201912241500 METAR LRBC 241500Z 35013KT 9999 BKN065 08/05 Q1004 R16/15//95=
201912241530 METAR LRBC 241530Z 35012KT 9999 BKN065 07/05 Q1004 R16/15//95=
201912241600 METAR LRBC 241600Z 35009KT CAVOK 07/05 Q1004 R16/15//95=
201912241630 METAR LRBC 241630Z 35011KT CAVOK 07/04 Q1005 R16/15//95=
201912241700 METAR LRBC 241700Z 36009KT CAVOK 07/04 Q1005 R16/15//95=
201912241730 METAR LRBC 241730Z 36009KT CAVOK 07/04 Q1005 R16/15//95=
201912241800 METAR LRBC 241800Z 34007KT 9999 FEW040 07/04 Q1005 R16/15//95=
201912241830 METAR LRBC 241830Z 34006KT 9999 FEW043 OVC065 06/04 Q1005
                        R16/15//95=
201912241900 METAR LRBC 241900Z 35004KT 9999 FEW043 OVC065 06/04 Q1005
                        R16/15//95=
201912241930 METAR LRBC 241930Z 35004KT 9999 FEW040 OVC065 06/04 Q1005
                        R16/CLRD//=
201912242000 METAR LRBC 242000Z 03002KT 9999 FEW041 OVC065 06/04 Q1005=
201912242030 METAR LRBC 242030Z 03003KT 9999 FEW041 OVC065 06/04 Q1005=
201912242100 METAR LRBC 242100Z 03003KT 9999 SCT041 06/04 Q1005=
201912242130 METAR LRBC 242130Z 01003KT 9999 SCT041 06/04 Q1006=
201912242200 METAR LRBC 242200Z 35004KT 9999 FEW050 04/03 Q1005=
201912242230 METAR LRBC 242230Z 35004KT 9999 FEW050 04/03 Q1005=
201912242300 METAR LRBC 242300Z 35004KT 9999 FEW050 04/03 Q1005=
201912242330 METAR LRBC 242330Z 32004KT 9999 FEW050 03/03 Q1005=
201912250000 METAR LRBC 250000Z 33002KT 310V010 9999 SCT050 04/04 Q1006=
201912250030 METAR LRBC 250030Z 33002KT 310V010 9999 SCT050 04/04 Q1006=
201912250100 METAR LRBC 250100Z 33002KT 310V010 9999 SCT050 04/04 Q1006=
201912250130 METAR LRBC 250130Z AUTO 34006KT 9999 BKN065/// 05/04 Q1005=
201912250200 METAR LRBC 250200Z 35006KT 9999 OVC065 05/04 Q1005=
201912250230 METAR LRBC 250230Z 33006KT 9999 BKN065 05/04 Q1005=
201912250300 METAR LRBC 250300Z 33006KT 9999 BKN065 05/04 Q1005=
201912250330 METAR LRBC 250330Z 34007KT 9999 SCT065 05/03 Q1005=
201912250400 METAR LRBC 250400Z 34007KT 9999 SCT065 05/03 Q1005=
201912250430 METAR LRBC 250430Z 34008KT 9999 FEW044 05/03 Q1005=
201912250500 METAR LRBC 250500Z 33008KT 9999 SCT042 05/03 Q1006=
201912250530 METAR LRBC 250530Z 34008KT 9999 SCT042 05/03 Q1006=
201912250600 METAR LRBC 250600Z 35010KT 9999 OVC042 06/03 Q1006=
201912250630 METAR LRBC 250630Z 34008KT 9999 OVC040 06/03 Q1006=
201912250700 METAR LRBC 250700Z 33006KT 9999 OVC039 06/03 Q1006=
201912250730 METAR LRBC 250730Z 34006KT 9999 FEW039 BKN050 06/03 Q1007=
201912250800 METAR LRBC 250800Z 35006KT 9999 SCT037 06/03 Q1007=
201912250830 METAR LRBC 250830Z 35005KT 9999 SCT041 06/03 Q1007=
201912250900 METAR LRBC 250900Z 33007KT 9999 BKN050 07/03 Q1007=
201912250930 METAR LRBC 250930Z 35009KT 330V030 9999 SCT041 BKN050 08/02
                        Q1007=
201912251000 METAR LRBC 251000Z 36010KT 340V040 9999 BKN042 OVC050 07/02
                        Q1007=
201912251030 METAR LRBC 251030Z 01008KT 9999 SCT041 BKN047 07/03 Q1007=
201912251100 METAR LRBC 251100Z 35008KT 9999 OVC043 08/02 Q1007=
201912251130 METAR LRBC 251130Z 01008KT 9999 BKN045 OVC055 07/02 Q1007=
201912251200 METAR LRBC 251200Z 01010KT 9999 BKN055 07/02 Q1006=
201912251230 METAR LRBC 251230Z 36010KT 9999 BKN050 07/02 Q1007=
201912251300 METAR LRBC 251300Z 36009KT 9999 OVC050 07/02 Q1007=
201912251330 METAR LRBC 251330Z 35008KT 9999 OVC055 07/02 Q1007=
201912251400 METAR LRBC 251400Z 35010KT 9999 OVC055 06/02 Q1007=
201912251430 METAR LRBC 251430Z 35009KT 9999 OVC049 06/02 Q1007=
201912251500 METAR LRBC 251500Z 35008KT 9999 OVC047 06/01 Q1008=
201912251530 METAR LRBC 251530Z 35008KT 330V030 9999 OVC045 06/01 Q1008=
201912251600 METAR LRBC 251600Z 35009KT 9999 FEW040 OVC046 06/01 Q1008=
201912251630 METAR LRBC 251630Z 35010KT 9999 BKN040 OVC050 06/02 Q1009=
201912251700 METAR LRBC 251700Z 34013KT 9999 SCT048 05/01 Q1009=
201912251730 METAR LRBC 251730Z 34014KT 9999 OVC049 05/01 Q1009=
201912251800 METAR LRBC 251800Z 34013KT 9999 FEW040 BKN050 05/00 Q1009=
201912251830 METAR LRBC 251830Z 34014KT 9999 OVC055 05/00 Q1009=
201912251900 METAR LRBC 251900Z 34013KT 9999 SCT055 05/00 Q1009=
201912251930 METAR LRBC 251930Z 33015KT 9999 FEW060 05/00 Q1009=
201912252000 METAR LRBC 252000Z 33014KT CAVOK 05/00 Q1010=
201912252030 METAR LRBC 252030Z 34014KT 9999 BKN055 05/00 Q1010=
201912252100 METAR LRBC 252100Z 34014KT 9999 BKN060 05/00 Q1010=
201912252130 METAR LRBC 252130Z 33011KT 9999 BKN050 05/00 Q1010=
201912252200 METAR LRBC 252200Z 32008KT 9999 OVC065 05/00 Q1010=
201912252230 METAR LRBC 252230Z 32009KT 9999 OVC055 05/00 Q1010=
201912252300 METAR LRBC 252300Z AUTO 32007KT 9999 FEW036/// BKN042///
                        05/00 Q1010=
201912252330 METAR LRBC 252330Z 33006KT 9999 SCT040 OVC046 05/M00 Q1010=
201912260000 METAR LRBC 260000Z 34010KT 9999 OVC040 05/M01 Q1010=
201912260030 METAR LRBC 260030Z AUTO 33010KT 9999 OVC039/// 05/M01 Q1011=
201912260100 METAR LRBC 260100Z 33009KT 9999 OVC040 05/M01 Q1011=
201912260130 METAR LRBC 260130Z 33011KT 9999 OVC041 05/M01 Q1011=
201912260200 METAR LRBC 260200Z 34006KT 9999 OVC041 04/M00 Q1011=
201912260230 METAR LRBC 260230Z 34007KT 9999 OVC043 04/M01 Q1011=
201912260300 METAR LRBC 260300Z 34007KT 9999 OVC043 04/M01 Q1011=
201912260330 METAR LRBC 260330Z 34008KT 9999 OVC044 04/M01 Q1011=
201912260400 METAR LRBC 260400Z 30005KT 9999 OVC045 04/00 Q1011=
201912260430 METAR LRBC 260430Z 32005KT 9999 OVC046 04/M00 Q1011=
201912260500 METAR LRBC 260500Z 36004KT 9999 OVC048 04/M01 Q1012=
201912260530 METAR LRBC 260530Z 34007KT 9999 BKN049 04/M01 Q1012=
201912260600 METAR LRBC 260600Z 34010KT 9999 BKN050 04/M01 Q1012=
201912260630 METAR LRBC 260630Z 33010KT 9999 BKN050 04/M01 Q1012=
201912260700 METAR LRBC 260700Z 32010KT 9999 OVC055 04/M01 Q1012=
201912260730 METAR LRBC 260730Z 33007KT 9999 BKN060 05/M00 Q1013=
201912260800 METAR LRBC 260800Z 35008KT 9999 OVC055 06/M01 Q1013=
201912260830 METAR LRBC 260830Z 35006KT 9999 BKN055 06/M01 Q1013=
201912260900 METAR LRBC 260900Z 34010KT 9999 OVC055 06/M01 Q1013=
201912260930 METAR LRBC 260930Z 31007KT 9999 OVC050 06/M00 Q1013=
201912261000 METAR LRBC 261000Z 29008KT 9999 OVC048 06/M00 Q1012=
201912261030 METAR LRBC 261030Z 30006KT 9999 OVC046 06/M00 Q1012=
201912261100 METAR LRBC 261100Z 32008KT 9999 OVC048 06/M01 Q1012=
201912261130 METAR LRBC 261130Z 32008KT 9999 OVC048 07/M01 Q1012=
201912261200 METAR LRBC 261200Z 33008KT 9999 OVC046 07/M00 Q1012=
201912261230 METAR LRBC 261230Z 33007KT 230V360 9999 BKN047 07/M01 Q1012=
201912261300 METAR LRBC 261300Z 35006KT 9999 OVC047 07/M00 Q1013=
201912261330 METAR LRBC 261330Z 01007KT 340V040 9999 OVC047 07/M00 Q1013=
201912261400 METAR LRBC 261400Z 36009KT 9999 OVC047 06/01 Q1013=
201912261430 METAR LRBC 261430Z 35010KT 9999 OVC050 06/01 Q1014=
201912261500 METAR LRBC 261500Z 35008KT 9999 OVC050 05/01 Q1014=
201912261530 METAR LRBC 261530Z 33012KT 9999 OVC050 05/01 Q1014=
201912261600 METAR LRBC 261600Z 33012KT 9999 OVC055 05/01 Q1014=
201912261630 METAR LRBC 261630Z 35009KT 320V020 9999 OVC050 05/00 Q1014=
201912261700 METAR LRBC 261700Z 35007KT 9999 OVC050 05/00 Q1015=
201912261730 METAR LRBC 261730Z 35004KT 320V020 9999 BKN050 05/00 Q1015=
201912261800 METAR LRBC 261800Z 34005KT 300V010 9999 SCT050 05/00 Q1015=
201912261830 METAR LRBC 261830Z 36003KT 9999 FEW055 05/M00 Q1015=
201912261900 METAR LRBC 261900Z 02003KT 350V050 9999 FEW060 05/00 Q1015=
201912261930 METAR LRBC 261930Z 35003KT 9999 FEW065 04/01 Q1015=
201912262000 METAR LRBC 262000Z VRB01KT 9999 FEW060 04/00 Q1015=
201912262030 METAR LRBC 262030Z 02003KT 330V050 CAVOK 04/00 Q1015=
201912262100 METAR LRBC 262100Z 02003KT 330V050 9999 BKN055 04/00 Q1015=
201912262130 METAR LRBC 262130Z 36004KT 9999 BKN050 OVC065 05/M00 Q1015=
201912262200 METAR LRBC 262200Z 35006KT 9999 BKN055 04/M00 Q1015=
201912262230 METAR LRBC 262230Z 35006KT 9999 OVC055 04/M00 Q1015=
201912262300 METAR LRBC 262300Z 36005KT 9999 BKN055 04/M00 Q1015=
201912262330 METAR LRBC 262330Z AUTO 32005KT 9999 SCT060/// BKN075///
                        BKN100/// 04/00 Q1015=
201912270000 METAR LRBC 270000Z 34004KT CAVOK 04/M00 Q1015=
201912270030 METAR LRBC 270030Z AUTO 32003KT 230V350 9999 SCT075/// BKN130///
                        03/01 Q1015=
201912270100 METAR COR LRBC 270100Z 33004KT CAVOK 03/M01 Q1015=
201912270130 METAR LRBC 270130Z AUTO 36005KT 9999 OVC130/// 04/M01 Q1015=
201912270200 METAR LRBC 270200Z 35005KT CAVOK 03/M01 Q1015=
201912270230 METAR LRBC 270230Z AUTO 36004KT 340V040 9999 BKN060/// OVC130///
                        03/M01 Q1015=
201912270300 METAR COR LRBC 270300Z VRB01KT 9999 BKN050 04/M01 Q1015=
201912270330 METAR LRBC 270330Z 02003KT 340V050 9999 BKN050 OVC065 04/M01
                        Q1015=
201912270400 METAR LRBC 270400Z 02003KT 350V050 9999 BKN060 03/M01 Q1015=
201912270430 METAR LRBC 270430Z AUTO 01002KT 9999 SCT065/// BKN140///
                        03/M01 Q1015=
201912270500 METAR LRBC 270500Z 02003KT 350V050 CAVOK 03/M01 Q1015=
201912270530 METAR LRBC 270530Z 01007KT CAVOK 04/00 Q1015=
201912270600 METAR LRBC 270600Z 34002KT CAVOK 03/00 Q1015=
201912270630 METAR LRBC 270630Z 22002KT CAVOK 02/M00 Q1015=
201912270700 METAR LRBC 270700Z 15003KT CAVOK 03/01 Q1015=
201912270730 METAR LRBC 270730Z 10003KT CAVOK 04/01 Q1016=
201912270800 METAR LRBC 270800Z 00000KT CAVOK 04/01 Q1016=
201912270830 METAR LRBC 270830Z 27003KT 9999 SCT040 04/01 Q1016=
201912270900 METAR LRBC 270900Z VRB01KT 9999 -RA SCT040 04/01 Q1016=
201912270930 METAR LRBC 270930Z 25002KT 9999 BKN044 05/01 Q1016=
201912271000 METAR LRBC 271000Z 25002KT 9999 BKN050 05/01 Q1015=
201912271030 METAR LRBC 271030Z 12003KT 9999 BKN060 05/01 Q1015=
201912271100 METAR LRBC 271100Z 13002KT 9999 BKN060 05/01 Q1015=
201912271130 METAR LRBC 271130Z 18004KT 9999 BKN060 05/01 Q1015=
201912271200 METAR LRBC 271200Z 12002KT 9999 BKN045 05/01 Q1015=
201912271230 METAR LRBC 271230Z 11003KT 9999 BKN046 05/01 Q1015=
201912271300 METAR LRBC 271300Z VRB01KT 9999 BKN045 05/01 Q1015=
201912271330 METAR LRBC 271330Z 01005KT 9999 BKN043 06/M00 Q1015=
201912271400 METAR LRBC 271400Z 36011KT 9999 VCSH FEW030CB BKN043 05/M01
                        Q1015=
201912271430 METAR LRBC 271430Z 32012KT 9999 -RA BKN045 04/00 Q1016=
201912271500 METAR LRBC 271500Z 32006KT 9999 BKN050 03/01 Q1015=
201912271530 METAR LRBC 271530Z 31004KT 9999 BKN060 03/01 Q1015=
201912271600 METAR LRBC 271600Z 33005KT 9999 BKN060 03/00 Q1016=
201912271630 METAR LRBC 271630Z 29008KT 9999 BKN060 04/M01 Q1016=
201912271700 METAR LRBC 271700Z 29008KT 9999 BKN060 04/M01 Q1016=
201912271730 METAR LRBC 271730Z 31008KT 9999 FEW039 BKN050 04/M01 Q1016=
201912271800 METAR LRBC 271800Z 31008KT 9999 FEW043 OVC050 04/M01 Q1016=
201912271830 METAR LRBC 271830Z 35005KT 9999 SCT035 BKN050 04/M01 Q1016=
201912271900 METAR LRBC 271900Z 35011KT 8000 -RA BKN029 OVC041 03/01 Q1017=
201912271930 METAR LRBC 271930Z 31006KT 9999 -RA SCT026 BKN031 02/01 Q1017=
201912272000 METAR LRBC 272000Z 30005KT 9999 -RA BKN025 BKN039 02/01 Q1017=
201912272030 METAR LRBC 272030Z 29007KT 9999 BKN034 BKN047 02/01 Q1017=
201912272100 METAR LRBC 272100Z 29007KT 9999 -RA OVC040 03/01 Q1017=
201912272130 METAR LRBC 272130Z 31006KT 9999 -RA SCT037 BKN048 02/01 Q1017=
201912272200 METAR LRBC 272200Z 34003KT 300V030 9999 -RA OVC046 02/01
                        Q1017=
201912272230 METAR LRBC 272230Z 30009KT 9999 -RA FEW039 OVC050 02/01 Q1017=
201912272300 METAR LRBC 272300Z 32011KT 9999 -RA BKN040 OVC065 02/01 Q1017=
201912272330 METAR LRBC 272330Z AUTO 33011KT 9999 FEW055/// BKN120///
                        02/01 Q1017 REDZ=
201912280000 METAR COR LRBC 280000Z 34015KT 320V020 9999 -RA FEW016 BKN019
                        03/01 Q1017=
201912280030 METAR LRBC 280030Z 35014KT 8000 -SN FEW016 SCT019 BKN022
                        02/01 Q1018=
201912280100 METAR LRBC 280100Z 35013KT 9999 -SN FEW013 SCT021 BKN028
                        01/00 Q1018=
201912280130 METAR LRBC 280130Z 35011KT 9999 -SN FEW020 BKN027 OVC033
                        01/M00 Q1018=
201912280200 METAR LRBC 280200Z 35014KT 9999 -SN FEW021 SCT028 BKN032
                        01/M01 Q1018=
201912280230 METAR LRBC 280230Z 35013KT 9999 FEW029 OVC041 02/M02 Q1018=
201912280300 METAR LRBC 280300Z 34012KT 9999 OVC042 02/M02 Q1018=
201912280330 METAR LRBC 280330Z 34011KT 9999 BKN044 BKN055 01/M02 Q1018=
201912280400 METAR LRBC 280400Z 35012KT 9999 BKN049 02/M02 Q1018 R16/19//95=
201912280430 METAR LRBC 280430Z 33009KT 9999 BKN050 01/M02 Q1018 R16/19//95=
201912280500 METAR LRBC 280500Z 34011KT 9999 SCT050 01/M02 Q1018 R16/19//95=
201912280530 METAR LRBC 280530Z 34009KT 9999 FEW050 00/M02 Q1018 R16/19//95=
201912280600 METAR LRBC 280600Z 34008KT 9999 SCT055 01/M02 Q1018 R16/19//95=
201912280630 METAR LRBC 280630Z 34011KT 9999 BKN055 01/M02 Q1018 R16/19//95=
201912280700 METAR LRBC 280700Z 32006KT 9999 SCT060 01/M02 Q1018 R16/19//95=
201912280730 METAR LRBC 280730Z 32004KT 9999 SCT060 01/M02 Q1018 R16/19//95=
201912280800 METAR LRBC 280800Z 35009KT 9999 SCT060 02/M03 Q1019 R16/19//95=
201912280830 METAR LRBC 280830Z 34009KT 9999 FEW060 02/M02 Q1019 R16/19//95=
201912280900 METAR LRBC 280900Z 33009KT 9999 FEW055 03/M03 Q1019 R16/19//95=
201912280930 METAR LRBC 280930Z 34018KT 9999 FEW040 BKN046 03/M03 Q1019
                        R16/19//95=
201912281000 METAR LRBC 281000Z 34016KT 9999 FEW040 OVC047 03/M03 Q1018
                        R16/19//95=
201912281030 METAR LRBC 281030Z 33019KT 9999 FEW039 OVC046 03/M03 Q1018
                        R16/19//95=
201912281100 METAR LRBC 281100Z 33019G29KT 9999 -SN FEW029 SCT037 BKN042
                        03/M03 Q1019 R16/19//95=
201912281130 METAR LRBC 281130Z 33017KT 9999 -SN FEW024 BKN033 OVC039
                        02/M01 Q1019 R16/19//95=
201912281200 METAR LRBC 281200Z 33019KT 6000 -SN FEW019 BKN025 OVC037
                        02/M01 Q1019 R16/CLRD//=
201912281230 METAR LRBC 281230Z 33016KT 6000 -SN SCT014 OVC024 02/M01
                        Q1019=
201912281300 METAR LRBC 281300Z 32016KT 5000 -SN BR SCT016 OVC024 01/M01
                        Q1019=
201912281330 METAR LRBC 281330Z 32016KT 4000 -SN BR SCT016 OVC024 01/M00
                        Q1019 R16/19//95=
201912281400 METAR LRBC 281400Z 32015KT 3000 SN BR SCT011 BKN020 OVC024
                        01/M00 Q1019 R16/19//95=
201912281430 METAR LRBC 281430Z 32015KT 3000 -SN BR BKN014 OVC021 01/00
                        Q1020 RESN R16/19//95=
201912281500 METAR LRBC 281500Z 32015KT 3500 -SN BR BKN012 OVC018 00/00
                        Q1020 R16/19//95=
201912281530 METAR LRBC 281530Z 32017KT 4000 -SN BR FEW012 OVC027 01/M00
                        Q1020 R16/19//95=
201912281600 METAR LRBC 281600Z 33017KT 4000 -SN BR SCT012 OVC027 01/M00
                        Q1020 R16/19//95=
201912281630 METAR LRBC 281630Z 33017KT 6000 -SN FEW015 BKN023 OVC027
                        01/M00 Q1020 R16/19//95=
201912281700 METAR LRBC 281700Z 33019KT 9999 -SN FEW017 BKN032 OVC038
                        01/M01 Q1021 R16/19//95=
201912281730 METAR LRBC 281730Z 33021KT 5000 -SN BR FEW014 SCT023 BKN029
                        00/M01 Q1021 R16/19//95=
201912281800 METAR LRBC 281800Z 33020KT 2500 -SN BR SCT013 BKN026 00/M01
                        Q1021 R16/19//95=
201912281830 METAR LRBC 281830Z 33022KT 3000 SN BR FEW013 BKN024 00/M01
                        Q1022 R16/19//95=
201912281900 METAR LRBC 281900Z 33019KT 8000 -SN BKN020 OVC028 00/M01
                        Q1022 RESN R16/19//95=
201912281930 METAR LRBC 281930Z 33021KT 6000 -SN SCT016 OVC026 00/M01
                        Q1022 R16/19//95=
201912282000 METAR LRBC 282000Z 33020KT 6000 -SN SCT017 OVC026 00/M01
                        Q1022 R16/19//95=
201912282030 METAR LRBC 282030Z 34017KT 8000 -SN SCT017 BKN020 00/M01
                        Q1022 R16/19//95=
201912282100 METAR LRBC 282100Z 34015KT 8000 -SN BKN019 OVC024 01/M01
                        Q1023 R16/19//95=
201912282130 METAR LRBC 282130Z 34016KT 8000 -SN BKN019 00/M01 Q1023 R16/19//95=
201912282200 METAR LRBC 282200Z 34018KT 7000 -SN BKN019 OVC026 00/M01
                        Q1023 R16/19//95=
201912282230 METAR LRBC 282230Z 33016KT 3000 SN BR SCT014 BKN018 00/M01
                        Q1023 R16/19//95=
201912282300 METAR COR LRBC 282300Z 34015KT 4000 SN BR FEW014 SCT019 OVC022
                        00/M01 Q1023 R16/550294=
201912282330 METAR LRBC 282330Z 33017KT 6000 -SN SCT018 BKN022 00/M01
                        Q1023 RESN R16/550294=
201912290000 METAR LRBC 290000Z 33017KT 8000 -SN OVC020 00/M01 Q1023 R16/550294=
201912290030 METAR LRBC 290030Z 33017KT 8000 -SN OVC020 00/M01 Q1024 R16/550294=
201912290100 METAR LRBC 290100Z 33020KT 8000 -SN OVC017 00/M01 Q1024 R16/550294=
201912290130 METAR LRBC 290130Z 33020KT 8000 -SN OVC017 00/M01 Q1024 R16/550294=
201912290200 METAR LRBC 290200Z 33021KT 8000 -SN OVC023 00/M01 Q1024 R16/550294=
201912290230 METAR LRBC 290230Z 33021KT 8000 -SN OVC022 00/M01 Q1024 R16/550294=
201912290300 METAR COR LRBC 290300Z 33020KT 4000 -SN BR OVC020 M00/M01
                        Q1024 R16/550294=
201912290330 METAR LRBC 290330Z AUTO 33019KT 5000 -SN FEW013/// SCT018///
                        BKN023/// 00/M01 Q1024=
201912290400 METAR LRBC 290400Z 33019KT 6000 -SN FEW017 OVC032 M00/M01
                        Q1024 R16/550294=
201912290430 METAR COR LRBC 290430Z 33019KT 6000 -SN FEW017 OVC032 M00/M01
                        Q1024 R16/550294=
201912290500 METAR LRBC 290500Z 33021KT 4000 SN BR FEW014 OVC023 M00/M02
                        Q1024 R16/850294=
201912290530 METAR LRBC 290530Z 33020KT 4000 SN BR FEW014 OVC022 M00/M02
                        Q1025 R16/850294=
201912290600 METAR LRBC 290600Z 33020KT 4200 -SN DRSN BR FEW016 BKN022
                        OVC031 M01/M02 Q1025 R16/850294=
201912290630 METAR LRBC 290630Z 34021KT 4000 -SN DRSN BR BKN019 OVC032
                        M00/M02 Q1025 R16/850294=
201912290700 METAR LRBC 290700Z 34021KT 3000 -SN DRSN BR SCT015 BKN027
                        M01/M02 Q1026 R16/850294=
201912290730 METAR LRBC 290730Z 34020KT 5000 -SN DRSN BR BKN018 BKN030
                        M01/M02 Q1026 R16/850294=
201912290800 METAR LRBC 290800Z 34022KT 3000 -SN DRSN BR BKN017 OVC029
                        M01/M02 Q1026 R16/850294=
201912290830 METAR LRBC 290830Z 34020KT 3900 -SN DRSN BR BKN017 BKN027
                        M01/M02 Q1027 R16/850294=
201912290900 METAR LRBC 290900Z 34022KT 4000 -SN DRSN BR SCT014 BKN025
                        M01/M02 Q1027 R16/850294=
201912290930 METAR LRBC 290930Z 34023KT 4000 DRSN BR BKN018 BKN039 M01/M03
                        Q1027 R16/850294=
201912291000 METAR LRBC 291000Z 34022KT 3100 DRSN BR SCT014 BKN027 M01/M02
                        Q1027 R16/850294=
201912291030 METAR LRBC 291030Z 34021KT 4200 -SN DRSN BR SCT014 BKN029
                        M01/M03 Q1027 R16/850294=
201912291100 METAR LRBC 291100Z 34021KT 3000 -SN DRSN BR SCT016 BKN030
                        M01/M03 Q1027 R16/850294=
201912291130 METAR LRBC 291130Z 34022KT 3000 -SN DRSN BR BKN019 OVC031
                        M01/M03 Q1028 R16/850294=
201912291200 METAR LRBC 291200Z 35022KT 2600 -SN DRSN BR SCT016 BKN029
                        M01/M03 Q1028 R16/19//95=
201912291230 METAR LRBC 291230Z 35021KT 4000 -SN DRSN BR SCT017 BKN029
                        M01/M03 Q1028 R16/19//95=
201912291300 METAR LRBC 291300Z 34020KT 2700 -SN DRSN BR FEW018 BKN024
                        M01/M03 Q1028 R16/19//95=
201912291330 METAR LRBC 291330Z 34018KT 5000 -SN DRSN BR BKN018 BKN032
                        M01/M03 Q1029 R16/19//95=
201912291400 METAR LRBC 291400Z 34019KT 3200 -SN DRSN BR SCT015 BKN024
                        M01/M03 Q1029 R16/19//95=
201912291430 METAR LRBC 291430Z 34018KT 3400 -SN DRSN BR SCT012 OVC022
                        M01/M03 Q1030 R16/19//95=
201912291500 METAR LRBC 291500Z 33016KT 6000 -SN DRSN SCT019 BKN022 M01/M03
                        Q1030 R16/19//95=
201912291530 METAR LRBC 291530Z 34018KT 6000 -SN DRSN SCT019 OVC022 M01/M03
                        Q1030 R16/19//95=
201912291600 METAR LRBC 291600Z 34016KT 9999 -SN DRSN BKN019 OVC022 M01/M03
                        Q1031 R16/850394=
201912291630 METAR LRBC 291630Z 33014KT 9999 -SN DRSN BKN018 OVC021 M01/M03
                        Q1031 R16/850394=
201912291700 METAR LRBC 291700Z 34017KT 9000 -SN DRSN OVC019 M01/M03 Q1031
                        R16/850394=
201912291730 METAR LRBC 291730Z 34017KT 9999 -SN DRSN OVC019 M01/M03 Q1032
                        R16/850394=
201912291800 METAR LRBC 291800Z 35016KT 9999 -SN DRSN OVC018 M01/M03 Q1032
                        R16/850394=
201912291830 METAR LRBC 291830Z 34015KT 9000 -SN DRSN OVC018 M01/M03 Q1032
                        R16/850394=
201912291900 METAR LRBC 291900Z 34017KT 9000 -SN DRSN OVC018 M01/M03 Q1033
                        R16/850394=
201912291930 METAR LRBC 291930Z 34016KT 9999 -SN DRSN OVC017 M01/M03 Q1033
                        R16/850394=
201912292000 METAR LRBC 292000Z 34016KT 9999 -SN DRSN OVC018 M01/M03 Q1033
                        R16/810494=
201912292030 METAR LRBC 292030Z 33014KT 9999 -SN OVC018 M01/M03 Q1034
                        R16/810494=
201912292100 METAR LRBC 292100Z 33014KT 9999 -SN DRSN OVC018 M01/M03 Q1034
                        R16/810494=
201912292130 METAR LRBC 292130Z 33014KT 9999 -SN DRSN OVC017 M01/M03 Q1034
                        R16/810494=
201912292200 METAR LRBC 292200Z 33014KT 9999 -SN OVC017 M01/M03 Q1034
                        R16/810494=
201912292230 METAR LRBC 292230Z 34012KT 9999 -SN OVC016 M01/M03 Q1034
                        R16/810494=
201912292300 METAR LRBC 292300Z 34011KT 9999 -SN OVC016 M01/M03 Q1034
                        R16/810494=
201912292330 METAR LRBC 292330Z AUTO 33013KT 9999 -SN OVC016/// M01/M03
                        Q1034=
201912300000 METAR LRBC 300000Z 33013KT 6000 -SN OVC016 M01/M03 Q1035
                        R16/810494=
201912300030 METAR LRBC 300030Z 33013KT 9999 -SN DRSN OVC016 M01/M03 Q1035
                        R16/810494=
201912300100 METAR LRBC 300100Z 34013KT 9999 -SN DRSN OVC015 M01/M03 Q1035
                        R16/810494=
201912300130 METAR LRBC 300130Z 34012KT 9999 -SN DRS BKN015 M01/M03 Q1035
                        R16/810494=
201912300200 METAR LRBC 300200Z 34013KT CAVOK M01/M03 Q1035 R16/810494=
201912300230 METAR LRBC 300230Z 34012KT 9999 BKN014 M01/M03 Q1035 R16/810494=
201912300300 METAR LRBC 300300Z 34013KT 9999 -SN OVC014 M01/M03 Q1035
                        R16/810494=
201912300330 METAR LRBC 300330Z 34014KT 9999 BKN015 M01/M03 Q1036 R16/810494=
201912300400 METAR LRBC 300400Z 34014KT 9999 OVC015 M01/M03 Q1036 R16/810494=
201912300430 METAR LRBC 300430Z 34017KT 9999 OVC015 M01/M03 Q1036 R16/810494=
201912300500 METAR LRBC 300500Z 34015KT 9999 -SN DRSN OVC015 M01/M03 Q1036
                        R16/810494=
201912300530 METAR LRBC 300530Z 34015KT 9999 -SN DRSN OVC016 M01/M04 Q1036
                        R16/810494=
201912300600 METAR LRBC 300600Z 33013KT 9999 OVC016 M01/M04 Q1036 R16/810494=
201912300630 METAR LRBC 300630Z 34012KT 9999 FEW010 OVC017 M01/M04 Q1036
                        R16/810494=
201912300700 METAR LRBC 300700Z 34010KT 9999 OVC020 M01/M04 Q1036 R16/810494=
201912300730 METAR LRBC 300730Z 35009KT 9999 BKN022 M01/M04 Q1036 R16/810494=
201912300800 METAR LRBC 300800Z 36010KT 9999 FEW016 BKN029 M01/M04 Q1036
                        R16/810494=
201912300830 METAR LRBC 300830Z 36009KT 330V040 9999 FEW033 M01/M04 Q1036
                        R16/810494=
201912300900 METAR LRBC 300900Z 01007KT 330V050 9999 SCT016 M01/M04 Q1036
                        R16/810494=
201912300930 METAR LRBC 300930Z 01006KT 340V040 9999 SCT018 M01/M04 Q1035
                        R16/810494=
201912301000 METAR LRBC 301000Z 01006KT 340V060 9999 FEW018 M01/M04 Q1035
                        R16/19//95=
201912301030 METAR LRBC 301030Z 02006KT 350V050 9999 FEW019 M00/M05 Q1035
                        R16/19//95=
201912301100 METAR LRBC 301100Z 04005KT 010V080 9999 FEW020 M00/M05 Q1034
                        R16/19//95=
201912301130 METAR LRBC 301130Z 04005KT 350V080 CAVOK M00/M05 Q1034 R16/CLRD//=
201912301200 METAR LRBC 301200Z 05004KT 360V100 CAVOK M00/M05 Q1033=
201912301230 METAR LRBC 301230Z 05003KT 010V110 CAVOK M00/M05 Q1033=
201912301300 METAR LRBC 301300Z 01004KT 340V040 CAVOK M00/M05 Q1033=
201912301330 METAR LRBC 301330Z 03004KT 350V060 CAVOK M01/M05 Q1033=
201912301400 METAR LRBC 301400Z 35005KT CAVOK M01/M05 Q1033=
201912301430 METAR LRBC 301430Z 32003KT CAVOK M02/M04 Q1032=
201912301500 METAR LRBC 301500Z VRB01KT CAVOK M02/M04 Q1032=
201912301530 METAR LRBC 301530Z VRB01KT CAVOK M04/M05 Q1032=
201912301600 METAR LRBC 301600Z 31002KT CAVOK M04/M05 Q1032=
201912301630 METAR LRBC 301630Z 32002KT CAVOK M05/M05 Q1032=
201912301700 METAR LRBC 301700Z 31002KT CAVOK M05/M05 Q1031=
201912301730 METAR LRBC 301730Z 34002KT CAVOK M05/M06 Q1031=
201912301800 METAR LRBC 301800Z 29002KT 7000 NSC M06/M06 Q1031=
201912301830 METAR LRBC 301830Z 30001KT 6000 NSC M06/M06 Q1031=
201912301900 METAR LRBC 301900Z 30002KT 6000 NSC M06/M06 Q1031=
201912301930 METAR LRBC 301930Z 00000KT 6000 NSC M07/M07 Q1031=
201912302000 METAR LRBC 302000Z 00000KT 6000 NSC M06/M06 Q1030=
201912302030 METAR LRBC 302030Z 32002KT 7000 NSC M06/M07 Q1030=
201912302100 METAR LRBC 302100Z 35001KT 6000 NSC M07/M07 Q1030=
201912302130 METAR LRBC 302130Z 00000KT 6000 NSC M07/M07 Q1029=
201912302200 METAR LRBC 302200Z 31002KT 7000 NSC M07/M08 Q1029=
201912302230 METAR LRBC 302230Z 00000KT 6000 NSC M07/M07 Q1028=
201912302300 METAR LRBC 302300Z 00000KT 6000 NSC 07/M08 Q1028=
201912302330 METAR LRBC 302330Z AUTO 00000KT 5000 BR NCD M07/M07 Q1028=
201912310000 METAR LRBC 310000Z 00000KT 6000 NSC M08/M08 Q1027=
201912310030 METAR LRBC 310030Z AUTO 34002KT 6000 SCT080/// M07/M07 Q1027=
201912310100 METAR LRBC 310100Z 00000KT 6000 NSC M07/M07 Q1027=
201912310130 METAR LRBC 310130Z VRB01KT 6000 NSC M06/M06 Q1026=
201912310200 METAR LRBC 310200Z VRB01KT 6000 NSC M05/M06 Q1026=
201912310230 METAR LRBC 310230Z 12002KT 100V180 6000 NSC M05/M05 Q1025=
201912310300 METAR COR LRBC 310300Z 18001KT 7000 NSC M05/M05 Q1025=
201912310330 METAR LRBC 310330Z 00000KT 7000 NSC M04/M05 Q1024=
201912310400 METAR COR LRBC 310400Z 00000KT 7000 NSC M04/M05 Q1024=
201912310430 METAR LRBC 310430Z VRB01KT 7000 NSC M04/M05 Q1024=
201912310500 METAR LRBC 310500Z 09003KT 8000 NSC M04/M05 Q1023=
201912310530 METAR LRBC 310530Z 08003KT 8000 NSC M03/M04 Q1023=
201912310600 METAR LRBC 310600Z 11004KT CAVOK M03/M04 Q1022=
201912310630 METAR LRBC 310630Z 10005KT CAVOK M02/M03 Q1022=
201912310700 METAR LRBC 310700Z 12003KT 070V160 CAVOK M00/M02 Q1022=
201912310730 METAR LRBC 310730Z 11003KT CAVOK 01/M02 Q1022=
201912310800 METAR LRBC 310800Z VRB02KT CAVOK 02/M01 Q1022=
201912310830 METAR LRBC 310830Z 13004KT CAVOK 02/M01 Q1021=
201912310900 METAR LRBC 310900Z 13004KT 080V160 CAVOK 03/M01 Q1021=
201912310930 METAR LRBC 310930Z AUTO 12005KT 9999 BKN085/// 03/M01 Q1020=
201912311000 METAR LRBC 311000Z 13005KT CAVOK 04/M01 Q1020=
201912311030 METAR LRBC 311030Z 14006KT 9999 BKN065 05/M01 Q1019=
201912311100 METAR LRBC 311100Z 15007KT 110V170 9999 BKN065 05/M01 Q1018=
201912311130 METAR LRBC 311130Z 14006KT 100V170 9999 FEW047 BKN065 06/M00
                        Q1018=
201912311200 METAR LRBC 311200Z 06004KT 9999 BKN065 07/M00 Q1018=
201912311230 METAR LRBC 311230Z 04003KT 330V120 9999 FEW055 BKN065 06/00
                        Q1017=
201912311300 METAR LRBC 311300Z 20007KT 160V220 9999 BKN065 08/M01 Q1017=
201912311330 METAR LRBC 311330Z VRB03KT 9999 SCT065 06/00 Q1017=
201912311400 METAR LRBC 311400Z 24005KT 190V280 9999 SCT060 08/M02 Q1016=
201912311430 METAR LRBC 311430Z 25005KT 180V300 9999 FEW065 07/M04 Q1016=
201912311500 METAR COR LRBC 311500Z VRB02KT CAVOK 05/M04 Q1017=
201912311530 METAR LRBC 311530Z 01005KT 280V060 CAVOK 05/M04 Q1017=
201912311600 METAR LRBC 311600Z 30008KT 260V340 CAVOK 06/M05 Q1018=
201912311630 METAR LRBC 311630Z 35006KT CAVOK 03/M03 Q1018=
201912311700 METAR LRBC 311700Z 32005KT CAVOK 02/M02 Q1018=
201912311730 METAR LRBC 311730Z 34003KT 310V010 CAVOK 03/M04 Q1018=
201912311800 METAR LRBC 311800Z 01003KT 320V050 CAVOK 02/M02 Q1019=
201912311830 METAR LRBC 311830Z 36005KT 330V040 9999 FEW055 03/M02 Q1019=
201912311900 METAR LRBC 311900Z 34009KT 9999 FEW055 03/M02 Q1020=
201912311930 METAR LRBC 311930Z 34009KT CAVOK 02/M03 Q1020=
201912312000 METAR LRBC 312000Z 32014KT 9999 FEW050 04/M04 Q1020=
201912312030 METAR LRBC 312030Z 31015KT 9999 FEW050 04/M04 Q1020=
201912312100 METAR LRBC 312100Z 30016KT 9999 FEW055 04/M04 Q1020=
201912312130 METAR LRBC 312130Z 30013KT 9999 SCT055 04/M04 Q1020=
201912312200 METAR LRBC 312200Z 30014KT 9999 BKN060 04/M03 Q1020=
201912312230 METAR LRBC 312230Z 30013KT 9999 OVC060 04/M03 Q1020=
201912312300 METAR LRBC 312300Z 31009KT 9999 BKN060 04/M03 Q1020=
201912312330 METAR LRBC 312330Z 31011KT 9999 FEW055 04/M03 Q1020=