201808010200 TAF LRIA 010200Z 0103/0112 VRB04KT 9999 SCT040
                      PROB30 TEMPO 0104/0107 5000 -SHRA SCT035CB=
201808010311 TAF AMD LRIA 010311Z 0103/0112 VRB04KT 3000 BR SCT040
                      TEMPO 0103/0104 1500 BR
                      BECMG 0104/0106 9999 NSW=
201808010500 TAF LRIA 010500Z 0106/0115 VRB04KT 5000 BR NSC
                      BECMG 0106/0108 9999 NSW=
201808010800 TAF LRIA 010800Z 0109/0118 24006KT 9999 BKN035=
201808011100 TAF LRIA 011100Z 0112/0121 30006KT CAVOK=
201808011400 TAF LRIA 011400Z 0115/0124 02006KT CAVOK=
201808011700 TAF LRIA 011700Z 0118/0203 VRB04KT CAVOK=
201808012000 TAF LRIA 012000Z 0121/0206 VRB04KT CAVOK=
201808012300 TAF LRIA 012300Z 0200/0209 VRB04KT CAVOK=
201808020200 TAF LRIA 020200Z 0203/0212 VRB04KT CAVOK=
201808020500 TAF LRIA 020500Z 0206/0215 VRB04KT CAVOK
                      TEMPO 0211/0215 35010KT=
201808020800 TAF LRIA 020800Z 0209/0218 01009KT 9999 FEW035=
201808021100 TAF LRIA 021100Z 0212/0221 36008KT CAVOK=
201808021400 TAF LRIA 021400Z 0215/0224 35007KT CAVOK=
201808021700 TAF LRIA 021700Z 0218/0303 35006KT CAVOK=
201808022000 TAF LRIA 022000Z 0221/0306 35006KT CAVOK=
201808022300 TAF LRIA 022300Z 0300/0309 35006KT CAVOK=
201808030200 TAF LRIA 030200Z 0303/0312 27006KT CAVOK=
201808030500 TAF LRIA 030500Z 0306/0315 28006KT CAVOK
                      BECMG 0311/0313 36010KT=
201808030800 TAF LRIA 030800Z 0309/0318 31008KT CAVOK=
201808031100 TAF LRIA 031100Z 0312/0321 33008KT CAVOK=
201808031400 TAF LRIA 031400Z 0315/0324 35006KT CAVOK=
201808031700 TAF LRIA 031700Z 0318/0403 VRB04KT CAVOK=
201808032000 TAF LRIA 032000Z 0321/0406 30006KT CAVOK=
201808032300 TAF LRIA 032300Z 0400/0409 VRB04KT CAVOK=
201808040200 TAF LRIA 040200Z 0403/0412 VRB04KT CAVOK=
201808040500 TAF LRIA 040500Z 0406/0415 30006KT CAVOK=
201808040800 TAF LRIA 040800Z 0409/0418 30006KT CAVOK=
201808041100 TAF LRIA 041100Z 0412/0421 32006KT CAVOK=
201808041400 TAF LRIA 041400Z 0415/0424 VRB04KT CAVOK=
201808041700 TAF LRIA 041700Z 0418/0503 VRB04KT CAVOK=
201808042000 TAF LRIA 042000Z 0421/0506 VRB04KT CAVOK=
201808042300 TAF LRIA 042300Z 0500/0509 VRB04KT CAVOK=
201808050200 TAF LRIA 050200Z 0503/0512 27005KT CAVOK=
201808050500 TAF LRIA 050500Z 0506/0515 VRB04KT CAVOK=
201808050800 TAF LRIA 050800Z 0509/0518 VRB04KT CAVOK=
201808051100 TAF LRIA 051100Z 0512/0521 VRB04KT CAVOK=
201808051400 TAF LRIA 051400Z 0515/0524 VRB04KT CAVOK=
201808051700 TAF LRIA 051700Z 0518/0603 VRB04KT CAVOK=
201808052000 TAF LRIA 052000Z 0521/0606 VRB04KT CAVOK=
201808052300 TAF LRIA 052300Z 0600/0609 VRB04KT CAVOK=
201808060200 TAF LRIA 060200Z 0603/0612 24005KT CAVOK
                      BECMG 0605/0607 33010KT=
201808060500 TAF LRIA 060500Z 0606/0615 32008KT CAVOK
                      PROB30 TEMPO 0606/0609 5000 -TSRA SCT040CB
                       TEMPO 0611/0615 VRB15G25KT 3000 TSRA SCT015
                       BKN035CB=
201808060800 TAF LRIA 060800Z 0609/0618 31008KT CAVOK
                      PROB40 TEMPO 0612/0616 VRB15G25KT 3000 TSRA
                       SCT010 BKN035CB=
201808061100 TAF LRIA 061100Z 0612/0621 31008KT CAVOK
                      TEMPO 0613/0617 5000 -TSRA SCT040CB
                      PROB40 TEMPO 0613/0616 VRB15G25KT 1500 TSRA
                       SCT015 BKN035CB=
201808061400 TAF LRIA 061400Z 0615/0624 33008KT CAVOK
                      PROB30 TEMPO 0615/0618 5000 -TSRA SCT040CB=
201808061700 TAF LRIA 061700Z 0618/0703 33008KT CAVOK=
201808062000 TAF LRIA 062000Z 0621/0706 33006KT CAVOK=
201808062300 TAF LRIA 062300Z 0700/0709 29006KT CAVOK=
201808070200 TAF LRIA 070200Z 0703/0712 29006KT CAVOK=
201808070500 TAF LRIA 070500Z 0706/0715 VRB04KT CAVOK
                      BECMG 0707/0709 34010KT=
201808070800 TAF LRIA 070800Z 0709/0718 33008KT CAVOK=
201808071100 TAF LRIA 071100Z 0712/0721 33008KT 9999 SCT045=
201808071400 TAF LRIA 071400Z 0715/0724 33008KT CAVOK=
201808071700 TAF LRIA 071700Z 0718/0803 VRB04KT CAVOK=
201808072000 TAF LRIA 072000Z 0721/0806 VRB04KT CAVOK=
201808072300 TAF LRIA 072300Z 0800/0809 VRB04KT CAVOK=
201808080200 TAF LRIA 080200Z 0803/0812 VRB04KT CAVOK=
201808080500 TAF LRIA 080500Z 0806/0815 VRB04KT CAVOK=
201808080800 TAF LRIA 080800Z 0809/0818 VRB04KT CAVOK=
201808081100 TAF LRIA 081100Z 0812/0821 VRB04KT CAVOK=
201808081400 TAF LRIA 081400Z 0815/0824 VRB04KT CAVOK=
201808081700 TAF LRIA 081700Z 0818/0903 VRB04KT CAVOK=
201808082000 TAF LRIA 082000Z 0821/0906 VRB04KT CAVOK=
201808082300 TAF LRIA 082300Z 0900/0909 05005KT CAVOK
                      BECMG 0907/0909 11010KT=
201808090200 TAF LRIA 090200Z 0903/0912 VRB04KT CAVOK=
201808090500 TAF LRIA 090500Z 0906/0915 VRB04KT CAVOK=
201808090800 TAF LRIA 090800Z 0909/0918 VRB04KT CAVOK=
201808091100 TAF LRIA 091100Z 0912/0921 05008KT CAVOK=
201808091400 TAF LRIA 091400Z 0915/0924 03006KT CAVOK=
201808091700 TAF LRIA 091700Z 0918/1003 VRB04KT CAVOK=
201808092000 TAF LRIA 092000Z 0921/1006 VRB04KT CAVOK=
201808092300 TAF LRIA 092300Z 1000/1009 VRB04KT CAVOK=
201808100200 TAF LRIA 100200Z 1003/1012 VRB04KT CAVOK=
201808100500 TAF LRIA 100500Z 1006/1015 11006KT CAVOK=
201808100800 TAF LRIA 100800Z 1009/1018 12010KT CAVOK=
201808101100 TAF LRIA 101100Z 1012/1021 13008KT CAVOK=
201808101400 TAF LRIA 101400Z 1015/1024 11007KT CAVOK=
201808101700 TAF LRIA 101700Z 1018/1103 VRB04KT CAVOK=
201808102000 TAF LRIA 102000Z 1021/1106 08006KT CAVOK=
201808102300 TAF LRIA 102300Z 1100/1109 VRB04KT CAVOK=
201808110200 TAF LRIA 110200Z 1103/1112 09008KT CAVOK=
201808110500 TAF LRIA 110500Z 1106/1115 VRB04KT CAVOK=
201808110800 TAF LRIA 110800Z 1109/1118 VRB04KT CAVOK=
201808111100 TAF LRIA 111100Z 1112/1121 VRB04KT CAVOK=
201808111400 TAF LRIA 111400Z 1115/1124 19006KT CAVOK=
201808111700 TAF LRIA 111700Z 1118/1203 VRB04KT CAVOK=
201808112000 TAF LRIA 112000Z 1121/1206 VRB04KT CAVOK=
201808112300 TAF LRIA 112300Z 1200/1209 VRB04KT CAVOK=
201808120200 TAF LRIA 120200Z 1203/1212 VRB04KT CAVOK=
201808120500 TAF LRIA 120500Z 1206/1215 VRB04KT CAVOK
                      BECMG 1211/1213 30010KT
                      TEMPO 1213/1215 SCT040CB=
201808120800 TAF LRIA 120800Z 1209/1218 VRB04KT CAVOK
                      BECMG 1211/1213 30010KT
                      TEMPO 1213/1215 SCT040CB=
201808121100 TAF LRIA 121100Z 1212/1221 28006KT CAVOK
                      PROB30 TEMPO 1213/1216 SCT040CB=
201808121400 TAF LRIA 121400Z 1215/1224 26006KT CAVOK=
201808121700 TAF LRIA 121700Z 1218/1303 VRB04KT CAVOK
                      TEMPO 1300/1303 3000 BR=
201808122000 TAF LRIA 122000Z 1221/1306 VRB04KT CAVOK
                      TEMPO 1300/1304 3000 BR=
201808122300 TAF LRIA 122300Z 1300/1309 VRB04KT CAVOK
                      TEMPO 1300/1304 3000 BR=
201808130200 TAF LRIA 130200Z 1303/1312 VRB04KT CAVOK=
201808130500 TAF LRIA 130500Z 1306/1315 VRB04KT CAVOK=
201808130800 TAF LRIA 130800Z 1309/1318 VRB04KT CAVOK=
201808131100 TAF LRIA 131100Z 1312/1321 22006KT CAVOK=
201808131400 TAF LRIA 131400Z 1315/1324 18007KT CAVOK=
201808131700 TAF LRIA 131700Z 1318/1403 VRB04KT CAVOK=
201808132000 TAF LRIA 132000Z 1321/1406 VRB04KT CAVOK=
201808132300 TAF LRIA 132300Z 1400/1409 VRB04KT CAVOK=
201808140200 TAF LRIA 140200Z 1403/1412 VRB04KT CAVOK
                      BECMG 1408/1410 20010KT=
201808140500 TAF LRIA 140500Z 1406/1415 10006KT CAVOK
                      BECMG 1407/1409 17010KT=
201808140800 TAF LRIA 140800Z 1409/1418 VRB04KT CAVOK
                      TEMPO 1409/1414 16010KT=
201808141100 TAF LRIA 141100Z 1412/1421 16010KT CAVOK
                      BECMG 1415/1417 VRB04KT=
201808141400 TAF LRIA 141400Z 1415/1424 16010KT CAVOK
                      BECMG 1415/1417 VRB04KT=
201808141700 TAF LRIA 141700Z 1418/1503 16008KT CAVOK=
201808142000 TAF LRIA 142000Z 1421/1506 14008KT CAVOK=
201808142300 TAF LRIA 142300Z 1500/1509 VRB04KT CAVOK=
201808150200 TAF LRIA 150200Z 1503/1512 VRB04KT CAVOK=
201808150500 TAF LRIA 150500Z 1506/1515 VRB04KT CAVOK
                      BECMG 1508/1510 18010KT=
201808150800 TAF LRIA 150800Z 1509/1518 17006KT CAVOK=
201808151100 TAF LRIA 151100Z 1512/1521 21005KT CAVOK=
201808151400 TAF LRIA 151400Z 1515/1524 VRB04KT CAVOK
                      TEMPO 1523/1524 5000 BR=
201808151700 TAF LRIA 151700Z 1518/1603 VRB04KT CAVOK
                      BECMG 1518/1520 32010KT
                      BECMG 1522/1524 VRB04KT
                      PROB40 TEMPO 1600/1603 5000 BR=
201808152000 TAF LRIA 152000Z 1521/1606 VRB04KT CAVOK
                      PROB40 TEMPO 1600/1604 5000 BR=
201808152300 TAF LRIA 152300Z 1600/1609 VRB04KT CAVOK
                      PROB40 TEMPO 1601/1604 5000 BR=
201808160200 TAF LRIA 160200Z 1603/1612 VRB04KT CAVOK
                      PROB40 TEMPO 1603/1605 5000 BR=
201808160500 TAF LRIA 160500Z 1606/1615 29005KT CAVOK=
201808160800 TAF LRIA 160800Z 1609/1618 34008KT CAVOK=
201808161100 TAF LRIA 161100Z 1612/1621 34008KT CAVOK=
201808161400 TAF LRIA 161400Z 1615/1624 34008KT CAVOK=
201808161700 TAF LRIA 161700Z 1618/1703 32007KT CAVOK=
201808162000 TAF LRIA 162000Z 1621/1706 31008KT CAVOK=
201808162300 TAF LRIA 162300Z 1700/1709 31008KT CAVOK=
201808170200 TAF LRIA 170200Z 1703/1712 26005KT CAVOK
                      PROB30 TEMPO 1703/1705 5000 BR
                      BECMG 1706/1708 33010KT=
201808170500 TAF LRIA 170500Z 1706/1715 VRB04KT CAVOK
                      BECMG 1706/1708 33010KT
                      TEMPO 1711/1715 SCT030CB=
201808170800 TAF LRIA 170800Z 1709/1718 34010KT CAVOK
                      TEMPO 1711/1715 SCT030CB=
201808171100 TAF LRIA 171100Z 1712/1721 VRB04KT CAVOK
                      TEMPO 1712/1716 SCT030CB=
201808171400 TAF LRIA 171400Z 1715/1724 03006KT CAVOK
                      TEMPO 1715/1718 SCT030CB=
201808171700 TAF LRIA 171700Z 1718/1803 32008KT CAVOK=
201808172000 TAF LRIA 172000Z 1721/1806 VRB04KT CAVOK=
201808172300 TAF LRIA 172300Z 1800/1809 VRB04KT CAVOK=
201808180200 TAF LRIA 180200Z 1803/1812 VRB04KT CAVOK=
201808180500 TAF LRIA 180500Z 1806/1815 VRB04KT CAVOK
                      TEMPO 1812/1815 SCT040CB=
201808180800 TAF LRIA 180800Z 1809/1818 VRB04KT CAVOK
                      TEMPO 1812/1817 SCT040CB=
201808181100 TAF LRIA 181100Z 1812/1821 VRB04KT CAVOK
                      TEMPO 1812/1817 SCT040CB=
201808181400 TAF LRIA 181400Z 1815/1824 VRB04KT CAVOK
                      TEMPO 1815/1817 SCT040CB=
201808181700 TAF LRIA 181700Z 1818/1903 VRB04KT CAVOK=
201808182000 TAF LRIA 182000Z 1821/1906 VRB04KT CAVOK=
201808182300 TAF LRIA 182300Z 1900/1909 30006KT CAVOK=
201808190200 TAF LRIA 190200Z 1903/1912 VRB04KT CAVOK
                      BECMG 1909/1911 33010KT=
201808190500 TAF LRIA 190500Z 1906/1915 31008KT CAVOK=
201808190800 TAF LRIA 190800Z 1909/1918 31008KT CAVOK=
201808191100 TAF LRIA 191100Z 1912/1921 31008KT CAVOK
                      TEMPO 1912/1916 SCT045CB=
201808191400 TAF LRIA 191400Z 1915/1924 32008KT CAVOK
                      TEMPO 1915/1917 FEW045CB=
201808191700 TAF LRIA 191700Z 1918/2003 VRB04KT CAVOK
                      TEMPO 1918/1920 VRB18KT -TSRA FEW045CB=
201808192000 TAF LRIA 192000Z 1921/2006 VRB04KT CAVOK=
201808192300 TAF LRIA 192300Z 2000/2009 VRB04KT CAVOK=
201808200200 TAF LRIA 200200Z 2003/2012 VRB04KT CAVOK=
201808200500 TAF LRIA 200500Z 2006/2015 VRB04KT CAVOK=
201808200800 TAF LRIA 200800Z 2009/2018 29006KT CAVOK=
201808201100 TAF LRIA 201100Z 2012/2021 29006KT 9999 SCT040
                      PROB40 TEMPO 2013/2016 SCT035CB=
201808201400 TAF LRIA 201400Z 2015/2024 29006KT 9999 SCT040
                      TEMPO 2015/2017 SCT035CB=
201808201700 TAF LRIA 201700Z 2018/2103 VRB04KT CAVOK=
201808202000 TAF LRIA 202000Z 2021/2106 VRB03KT CAVOK=
201808202300 TAF LRIA 202300Z 2100/2109 VRB03KT CAVOK=
201808210200 TAF LRIA 210200Z 2103/2112 VRB03KT CAVOK=
201808210500 TAF LRIA 210500Z 2106/2115 VRB04KT CAVOK
                      TEMPO 2112/2115 SCT030CB=
201808210800 TAF LRIA 210800Z 2109/2118 VRB04KT CAVOK
                      TEMPO 2112/2116 SCT030CB=
201808211100 TAF LRIA 211100Z 2112/2121 VRB04KT CAVOK
                      TEMPO 2112/2116 SCT030CB=
201808211400 TAF LRIA 211400Z 2115/2124 VRB04KT CAVOK=
201808211700 TAF LRIA 211700Z 2118/2203 33006KT 9999 SCT045
                      TEMPO 2118/2120 SCT040CB=
201808212000 TAF LRIA 212000Z 2121/2206 33008KT CAVOK=
201808212300 TAF LRIA 212300Z 2200/2209 33006KT CAVOK=
201808220200 TAF LRIA 220200Z 2203/2212 34008KT CAVOK=
201808220500 TAF LRIA 220500Z 2206/2215 VRB04KT CAVOK
                      BECMG 2208/2210 34010KT=
201808220800 TAF LRIA 220800Z 2209/2218 33008KT CAVOK=
201808221100 TAF LRIA 221100Z 2212/2221 33008KT 9999 FEW045=
201808221400 TAF LRIA 221400Z 2215/2224 33008KT 9999 FEW045=
201808221700 TAF LRIA 221700Z 2218/2303 VRB04KT CAVOK=
201808222000 TAF LRIA 222000Z 2221/2306 VRB04KT CAVOK=
201808222300 TAF LRIA 222300Z 2300/2309 VRB04KT CAVOK=
201808230200 TAF LRIA 230200Z 2303/2312 VRB04KT CAVOK=
201808230500 TAF LRIA 230500Z 2306/2315 11010KT CAVOK=
201808230800 TAF LRIA 230800Z 2309/2318 11012KT CAVOK=
201808231100 TAF LRIA 231100Z 2312/2321 12010KT CAVOK=
201808231400 TAF LRIA 231400Z 2315/2324 11008KT CAVOK=
201808231700 TAF LRIA 231700Z 2318/2403 10008KT CAVOK=
201808232000 TAF LRIA 232000Z 2321/2406 08008KT CAVOK=
201808232300 TAF LRIA 232300Z 2400/2409 VRB04KT CAVOK
                      BECMG 2407/2409 14010KT=
201808240200 TAF LRIA 240200Z 2403/2412 08007KT CAVOK
                      BECMG 2409/2411 14010KT=
201808240500 TAF LRIA 240500Z 2406/2415 12010KT CAVOK=
201808240800 TAF LRIA 240800Z 2409/2418 12010KT CAVOK=
201808241100 TAF LRIA 241100Z 2412/2421 12008KT CAVOK=
201808241400 TAF LRIA 241400Z 2415/2424 15008KT CAVOK=
201808241700 TAF LRIA 241700Z 2418/2503 09006KT CAVOK=
201808242000 TAF LRIA 242000Z 2421/2506 09006KT CAVOK=
201808242300 TAF LRIA 242300Z 2500/2509 21005KT CAVOK=
201808250200 TAF LRIA 250200Z 2503/2512 10008KT CAVOK=
201808250500 TAF LRIA 250500Z 2506/2515 10008KT CAVOK=
201808250800 TAF LRIA 250800Z 2509/2518 11008KT CAVOK=
201808251100 TAF LRIA 251100Z 2512/2521 18008KT CAVOK=
201808251400 TAF LRIA 251400Z 2515/2524 16006KT CAVOK=
201808251700 TAF LRIA 251700Z 2518/2603 VRB04KT CAVOK=
201808252000 TAF LRIA 252000Z 2521/2606 VRB04KT CAVOK=
201808252300 TAF LRIA 252300Z 2600/2609 VRB04KT CAVOK=
201808260200 TAF LRIA 260200Z 2603/2612 VRB04KT CAVOK=
201808260500 TAF LRIA 260500Z 2606/2615 VRB03KT CAVOK=
201808260800 TAF LRIA 260800Z 2609/2618 VRB04KT CAVOK=
201808261100 TAF LRIA 261100Z 2612/2621 VRB04KT CAVOK=
201808261400 TAF LRIA 261400Z 2615/2624 VRB04KT CAVOK=
201808261700 TAF LRIA 261700Z 2618/2703 VRB04KT 9999 SCT045
                      PROB40 TEMPO 2618/2620 SCT040CB=
201808262000 TAF LRIA 262000Z 2621/2706 VRB04KT CAVOK
                      BECMG 2703/2705 31010KT=
201808262300 TAF LRIA 262300Z 2700/2709 VRB04KT 9999 SCT045
                      BECMG 2702/2704 32010KT SCT040CB=
201808270200 TAF LRIA 270200Z 2703/2712 31010KT CAVOK
                      TEMPO 2703/2705 BKN010=
201808270500 TAF LRIA 270500Z 2706/2715 31010KT 9999 BKN010
                      BECMG 2707/2709 SCT025=
201808270800 TAF LRIA 270800Z 2709/2718 33008KT 9999 BKN015
                      BECMG 2709/2711 SCT025=
201808271100 TAF LRIA 271100Z 2712/2721 33008KT CAVOK=
201808271400 TAF LRIA 271400Z 2715/2724 33008KT CAVOK=
201808271700 TAF LRIA 271700Z 2718/2803 31010KT CAVOK=
201808272000 TAF LRIA 272000Z 2721/2806 30008KT CAVOK=
201808272300 TAF LRIA 272300Z 2800/2809 30008KT CAVOK=
201808280200 TAF LRIA 280200Z 2803/2812 30008KT CAVOK=
201808280500 TAF LRIA 280500Z 2806/2815 31008KT 9999 BKN007
                      BECMG 2806/2808 NSC=
201808280800 TAF LRIA 280800Z 2809/2818 31008KT CAVOK
                      TEMPO 2809/2810 BKN010=
201808281100 TAF LRIA 281100Z 2812/2821 33008KT CAVOK=
201808281400 TAF LRIA 281400Z 2815/2824 33008KT CAVOK=
201808281700 TAF LRIA 281700Z 2818/2903 32008KT CAVOK
                      TEMPO 2819/2821 FEW050CB
                      BECMG 2900/2902 BKN010=
201808282000 TAF LRIA 282000Z 2821/2906 32008KT CAVOK
                      TEMPO 2900/2906 BKN010=
201808282300 TAF LRIA 282300Z 2900/2909 32008KT CAVOK
                      PROB30 TEMPO 2901/2905 5000 BR BKN010=
201808290200 TAF LRIA 290200Z 2903/2912 32008KT CAVOK
                      PROB30 TEMPO 2903/2905 5000 BR BKN010=
201808290500 TAF LRIA 290500Z 2906/2915 32008KT CAVOK
                      TEMPO 2906/2907 5000 BR BKN010=
201808290800 TAF LRIA 290800Z 2909/2918 32014KT CAVOK
                      PROB30 TEMPO 2909/2913 32015G25KT=
201808291100 TAF LRIA 291100Z 2912/2921 32010KT CAVOK=
201808291400 TAF LRIA 291400Z 2915/2924 32010KT CAVOK=
201808291700 TAF LRIA 291700Z 2918/3003 33006KT CAVOK=
201808292000 TAF LRIA 292000Z 2921/3006 VRB04KT CAVOK=
201808292300 TAF LRIA 292300Z 3000/3009 VRB04KT CAVOK=
201808300200 TAF LRIA 300200Z 3003/3012 VRB04KT CAVOK=
201808300500 TAF LRIA 300500Z 3006/3015 VRB04KT CAVOK=
201808300800 TAF LRIA 300800Z 3009/3018 VRB04KT CAVOK=
201808301100 TAF LRIA 301100Z 3012/3021 34005KT CAVOK=
201808301400 TAF LRIA 301400Z 3015/3024 34005KT CAVOK=
201808301700 TAF LRIA 301700Z 3018/3103 34005KT CAVOK
                      TEMPO 3100/3103 3000 BR BKN010=
201808302000 TAF LRIA 302000Z 3021/3106 34005KT CAVOK
                      TEMPO 3101/3104 3000 BR BKN010=
201808302300 TAF LRIA 302300Z 3100/3109 VRB04KT CAVOK=
201808310200 TAF LRIA 310200Z 3103/3112 VRB04KT CAVOK=
201808310500 TAF LRIA 310500Z 3106/3115 VRB04KT CAVOK=
201808310800 TAF LRIA 310800Z 3109/3118 VRB04KT CAVOK=
201808311100 TAF LRIA 311100Z 3112/3121 VRB04KT CAVOK=
201808311400 TAF LRIA 311400Z 3115/3124 VRB04KT CAVOK=
201808311700 TAF LRIA 311700Z 3118/0103 VRB04KT CAVOK=
201808312000 TAF LRIA 312000Z 3121/0106 VRB03KT CAVOK=
201808312300 TAF LRIA 312300Z 0100/0109 VRB03KT CAVOK=