201808010000 METAR LRIA 010000Z 28005KT 9999 FEW050CB 21/19 Q1017 R14/29//95=
201808010030 METAR LRIA 010030Z 30006KT 9999 FEW050CB 21/19 Q1017 R14/29//95=
201808010100 METAR LRIA 010100Z 31002KT 260V340 CAVOK 20/19 Q1017 R14/29//95=
201808010130 METAR LRIA 010130Z 29002KT 260V320 CAVOK 20/19 Q1016 R14/29//95=
201808010200 METAR COR LRIA 010200Z 16002KT 110V230 CAVOK 20/19 Q1017
                        R14/29//95=
201808010230 METAR COR LRIA 010230Z 26002KT 3800 BR NSC 20/19 Q1017 R14/29//95=
201808010300 METAR LRIA 010300Z 23001KT 3000 BR NSC 20/19 Q1017 R14/29//95=
201808010330 METAR LRIA 010330Z 25002KT 3100 BR NSC 20/19 Q1017 R14/29//95=
201808010400 METAR LRIA 010400Z 19002KT 2700 BR NSC 20/20 Q1017 R14/29//95=
201808010430 METAR LRIA 010430Z 26003KT 3500 BR FEW002 20/20 Q1017 R14/29//95=
201808010500 METAR LRIA 010500Z 23003KT 6000 FEW002 20/20 Q1017 R14/29//95=
201808010530 METAR LRIA 010530Z 26004KT 230V300 7000 FEW002 20/20 Q1018
                        R14/29//95=
201808010600 METAR LRIA 010600Z 24002KT 9000 FEW002 SCT004 21/20 Q1018
                        R14/29//95=
201808010630 METAR LRIA 010630Z 26003KT 210V290 9000 FEW005 22/21 Q1018
                        R14/29//95=
201808010700 METAR LRIA 010700Z 26003KT 9000 SCT004 SCT008 22/21 Q1018
                        R14/29//95=
201808010730 METAR LRIA 010730Z 24005KT 9999 SCT006 SCT008 23/21 Q1018
                        R14/29//95=
201808010800 METAR LRIA 010800Z 25004KT 210V290 9999 FEW008 24/21 Q1018
                        R14/29//95=
201808010830 METAR LRIA 010830Z 26004KT 220V300 9999 FEW009 24/21 Q1019
                        R14/29//95=
201808010900 METAR LRIA 010900Z 28004KT 240V350 9999 FEW014 25/21 Q1019
                        R14/29//95=
201808010930 METAR LRIA 010930Z 26004KT 200V300 9999 FEW018 26/21 Q1019
                        R14/CLRD//=
201808011000 METAR LRIA 011000Z 33004KT 300V020 9999 FEW022 27/20 Q1019=
201808011030 METAR LRIA 011030Z VRB02KT 9999 FEW022 28/20 Q1019=
201808011100 METAR LRIA 011100Z 30005KT 210V350 9999 FEW030 28/20 Q1018=
201808011130 METAR LRIA 011130Z 32005KT 280V040 9999 FEW033 28/21 Q1018=
201808011200 METAR LRIA 011200Z 04006KT 340V090 9999 FEW045 29/19 Q1018=
201808011230 METAR LRIA 011230Z 04005KT 360V100 9999 FEW045 29/15 Q1018=
201808011300 METAR LRIA 011300Z 06006KT 020V080 9999 FEW048 30/17 Q1018=
201808011330 METAR LRIA 011330Z 02006KT CAVOK 30/17 Q1018=
201808011400 METAR LRIA 011400Z 07006KT 360V100 CAVOK 30/17 Q1018=
201808011430 METAR LRIA 011430Z 36006KT CAVOK 28/19 Q1018=
201808011500 METAR LRIA 011500Z 01005KT CAVOK 28/19 Q1018=
201808011530 METAR LRIA 011530Z 01006KT CAVOK 28/19 Q1018=
201808011600 METAR LRIA 011600Z 02006KT CAVOK 28/19 Q1017=
201808011630 METAR LRIA 011630Z 02007KT CAVOK 27/19 Q1018=
201808011700 METAR LRIA 011700Z 02006KT CAVOK 26/19 Q1018=
201808011730 METAR LRIA 011730Z 02006KT CAVOK 26/19 Q1018=
201808011800 METAR LRIA 011800Z 03007KT CAVOK 25/19 Q1018=
201808011830 METAR LRIA 011830Z 03007KT CAVOK 25/19 Q1019=
201808011900 METAR LRIA 011900Z 04005KT CAVOK 24/19 Q1019=
201808011930 METAR LRIA 011930Z 06006KT CAVOK 24/18 Q1019=
201808012000 METAR LRIA 012000Z 06005KT CAVOK 23/18 Q1019=
201808012030 METAR LRIA 012030Z 08004KT CAVOK 23/18 Q1019=
201808012100 METAR LRIA 012100Z 06007KT CAVOK 22/18 Q1019=
201808012130 METAR LRIA 012130Z 05007KT CAVOK 22/17 Q1019=
201808012200 METAR LRIA 012200Z 05005KT CAVOK 21/17 Q1019=
201808012230 METAR LRIA 012230Z 04005KT CAVOK 21/17 Q1019=
201808012300 METAR LRIA 012300Z 03007KT CAVOK 21/16 Q1019=
201808012330 METAR LRIA 012330Z 03006KT CAVOK 20/17 Q1019=
201808020000 METAR LRIA 020000Z 02006KT CAVOK 20/16 Q1019=
201808020030 METAR LRIA 020030Z AUTO 31002KT 270V030 9999 NCD 20/17 Q1019=
201808020100 METAR LRIA 020100Z 29003KT CAVOK 19/17 Q1019=
201808020130 METAR LRIA 020130Z 30002KT CAVOK 18/17 Q1019=
201808020200 METAR LRIA 020200Z 31004KT CAVOK 18/17 Q1019=
201808020230 METAR LRIA 020230Z 30003KT CAVOK 17/16 Q1019=
201808020300 METAR LRIA 020300Z 29003KT CAVOK 17/16 Q1019=
201808020330 METAR LRIA 020330Z 30003KT CAVOK 18/17 Q1020=
201808020400 METAR LRIA 020400Z 29004KT CAVOK 18/17 Q1020=
201808020430 METAR LRIA 020430Z 28003KT CAVOK 19/18 Q1020=
201808020500 METAR LRIA 020500Z 30004KT CAVOK 20/17 Q1020=
201808020530 METAR LRIA 020530Z 29005KT CAVOK 21/18 Q1020=
201808020600 METAR LRIA 020600Z 31004KT CAVOK 22/18 Q1020=
201808020630 METAR LRIA 020630Z 31004KT CAVOK 23/17 Q1020=
201808020700 METAR LRIA 020700Z 32003KT 250V020 CAVOK 24/17 Q1020=
201808020730 METAR LRIA 020730Z 34005KT 320V030 CAVOK 25/18 Q1020=
201808020800 METAR LRIA 020800Z 02008KT 9999 FEW035 25/16 Q1020=
201808020830 METAR LRIA 020830Z 02006KT 350V060 9999 FEW035 25/16 Q1020=
201808020900 METAR LRIA 020900Z 03008KT 9999 SCT047 26/13 Q1020=
201808020930 METAR LRIA 020930Z VRB06KT CAVOK 27/15 Q1020=
201808021000 METAR LRIA 021000Z 02007KT CAVOK 27/14 Q1020=
201808021030 METAR LRIA 021030Z 01008KT 330V050 CAVOK 27/16 Q1020=
201808021100 METAR LRIA 021100Z 36008KT 330V030 CAVOK 27/14 Q1019=
201808021130 METAR LRIA 021130Z 35007KT 320V050 CAVOK 27/15 Q1019=
201808021200 METAR LRIA 021200Z 02005KT 350V060 CAVOK 28/15 Q1019=
201808021230 METAR LRIA 021230Z 36008KT CAVOK 27/14 Q1019=
201808021300 METAR LRIA 021300Z 35008KT 330V030 CAVOK 27/15 Q1019=
201808021330 METAR LRIA 021330Z 01007KT CAVOK 28/13 Q1019=
201808021400 METAR LRIA 021400Z 36007KT 330V030 CAVOK 28/16 Q1018=
201808021430 METAR LRIA 021430Z 34009KT CAVOK 27/16 Q1018=
201808021500 METAR LRIA 021500Z 01010KT CAVOK 27/15 Q1018=
201808021530 METAR LRIA 021530Z 01007KT CAVOK 27/15 Q1018=
201808021600 METAR LRIA 021600Z 36006KT CAVOK 27/17 Q1018=
201808021630 METAR LRIA 021630Z 36006KT CAVOK 26/18 Q1018=
201808021700 METAR LRIA 021700Z 35005KT CAVOK 25/18 Q1018=
201808021730 METAR LRIA 021730Z 33006KT CAVOK 23/18 Q1018=
201808021800 METAR LRIA 021800Z 34008KT CAVOK 22/18 Q1018=
201808021830 METAR LRIA 021830Z 34007KT CAVOK 22/18 Q1019=
201808021900 METAR LRIA 021900Z 35007KT CAVOK 21/18 Q1019=
201808021930 METAR LRIA 021930Z 34007KT CAVOK 21/18 Q1019=
201808022000 METAR LRIA 022000Z 35007KT CAVOK 20/17 Q1019=
201808022030 METAR LRIA 022030Z 36006KT CAVOK 20/17 Q1019=
201808022100 METAR LRIA 022100Z 30003KT 240V350 CAVOK 19/18 Q1019=
201808022130 METAR LRIA 022130Z 25003KT CAVOK 19/18 Q1019=
201808022200 METAR LRIA 022200Z AUTO 25003KT 9999 NCD 19/17 Q1019=
201808022230 METAR LRIA 022230Z 28003KT CAVOK 19/17 Q1019=
201808022300 METAR LRIA 022300Z AUTO 28004KT 9999 NCD 19/16 Q1019=
201808022330 METAR LRIA 022330Z 28004KT CAVOK 18/16 Q1019=
201808030000 METAR LRIA 030000Z 28003KT CAVOK 19/16 Q1019=
201808030030 METAR LRIA 030030Z 28003KT CAVOK 18/16 Q1019=
201808030100 METAR LRIA 030100Z 27003KT CAVOK 18/16 Q1019=
201808030130 METAR LRIA 030130Z 27003KT CAVOK 17/16 Q1019=
201808030200 METAR LRIA 030200Z 27004KT CAVOK 17/16 Q1019=
201808030230 METAR LRIA 030230Z 27004KT CAVOK 17/16 Q1019=
201808030300 METAR LRIA 030300Z 24003KT 9999 MIFG NSC 17/16 Q1019=
201808030330 METAR LRIA 030330Z 25003KT CAVOK 17/16 Q1019=
201808030400 METAR LRIA 030400Z 24003KT CAVOK 17/17 Q1019=
201808030430 METAR LRIA 030430Z 26003KT CAVOK 18/17 Q1019=
201808030500 METAR LRIA 030500Z 27004KT CAVOK 19/17 Q1019=
201808030530 METAR LRIA 030530Z 29005KT CAVOK 20/17 Q1020=
201808030600 METAR COR LRIA 030600Z 28004KT CAVOK 21/17 Q1020=
201808030630 METAR LRIA 030630Z 29005KT 250V310 CAVOK 22/17 Q1020=
201808030700 METAR LRIA 030700Z 29005KT 250V310 CAVOK 22/17 Q1020=
201808030730 METAR LRIA 030730Z 28004KT 220V310 CAVOK 24/18 Q1020=
201808030800 METAR LRIA 030800Z 31004KT 270V350 CAVOK 25/16 Q1019=
201808030830 METAR LRIA 030830Z 32005KT 260V350 CAVOK 26/17 Q1019=
201808030900 METAR LRIA 030900Z 34006KT CAVOK 26/18 Q1019=
201808030930 METAR LRIA 030930Z 34006KT 290V030 CAVOK 27/17 Q1019=
201808031000 METAR LRIA 031000Z 34006KT 310V040 CAVOK 27/16 Q1019=
201808031030 METAR LRIA 031030Z 36009KT CAVOK 27/14 Q1019=
201808031100 METAR LRIA 031100Z 34008KT CAVOK 28/15 Q1019=
201808031130 METAR LRIA 031130Z 35006KT 310V040 CAVOK 28/16 Q1019=
201808031200 METAR LRIA 031200Z 36009KT CAVOK 29/13 Q1018=
201808031230 METAR LRIA 031230Z 01007KT 340V050 CAVOK 29/13 Q1018=
201808031300 METAR LRIA 031300Z AUTO 01007KT 350V050 9999 NCD 29/14 Q1018=
201808031330 METAR COR LRIA 031330Z 36006KT CAVOK 29/15 Q1018=
201808031400 METAR LRIA 031400Z 02007KT CAVOK 28/12 Q1018=
201808031430 METAR LRIA 031430Z 01008KT CAVOK 28/12 Q1018=
201808031500 METAR COR LRIA 031500Z 36007KT CAVOK 28/14 Q1017=
201808031530 METAR LRIA 031530Z 35007KT CAVOK 27/16 Q1017=
201808031600 METAR LRIA 031600Z 33006KT CAVOK 26/16 Q1017=
201808031630 METAR LRIA 031630Z 33005KT CAVOK 26/17 Q1017=
201808031700 METAR LRIA 031700Z 34007KT CAVOK 25/17 Q1017=
201808031730 METAR LRIA 031730Z 33006KT CAVOK 23/17 Q1017=
201808031800 METAR LRIA 031800Z 33005KT CAVOK 23/17 Q1017=
201808031830 METAR LRIA 031830Z 33007KT CAVOK 22/17 Q1018=
201808031900 METAR LRIA 031900Z 33007KT CAVOK 22/17 Q1018=
201808031930 METAR LRIA 031930Z 33006KT CAVOK 21/16 Q1018=
201808032000 METAR LRIA 032000Z 30006KT CAVOK 21/16 Q1018=
201808032030 METAR LRIA 032030Z 24003KT CAVOK 20/16 Q1018=
201808032100 METAR LRIA 032100Z 24004KT CAVOK 21/17 Q1018=
201808032130 METAR LRIA 032130Z 24004KT CAVOK 20/17 Q1018=
201808032200 METAR LRIA 032200Z 24003KT CAVOK 20/17 Q1018=
201808032230 METAR LRIA 032230Z 25003KT CAVOK 20/17 Q1018=
201808032300 METAR LRIA 032300Z 26002KT CAVOK 20/17 Q1018=
201808032330 METAR LRIA 032330Z 27003KT CAVOK 19/17 Q1018=
201808040000 METAR LRIA 040000Z 27003KT CAVOK 19/17 Q1018=
201808040030 METAR LRIA 040030Z 25003KT CAVOK 18/17 Q1018=
201808040100 METAR LRIA 040100Z 24003KT CAVOK 18/17 Q1018=
201808040130 METAR LRIA 040130Z 25003KT CAVOK 18/17 Q1018=
201808040200 METAR LRIA 040200Z 28004KT CAVOK 18/17 Q1018=
201808040230 METAR LRIA 040230Z AUTO 28004KT 9999 NCD 18/17 Q1018=
201808040300 METAR LRIA 040300Z AUTO 26004KT 9999 NCD 17/17 Q1018=
201808040330 METAR COR LRIA 040330Z 24004KT CAVOK 17/17 Q1018=
201808040400 METAR LRIA 040400Z 25003KT CAVOK 18/17 Q1018=
201808040430 METAR LRIA 040430Z 26003KT CAVOK 19/17 Q1018=
201808040500 METAR LRIA 040500Z 27004KT 230V300 CAVOK 20/18 Q1018=
201808040530 METAR LRIA 040530Z 27003KT 240V300 CAVOK 21/18 Q1018=
201808040600 METAR LRIA 040600Z 29004KT 240V320 CAVOK 22/18 Q1018=
201808040630 METAR LRIA 040630Z 28005KT 240V310 CAVOK 23/18 Q1018=
201808040700 METAR LRIA 040700Z 26005KT 220V310 CAVOK 24/18 Q1018=
201808040730 METAR LRIA 040730Z 30004KT 240V350 CAVOK 25/19 Q1018=
201808040800 METAR LRIA 040800Z 29004KT 240V330 9999 FEW028 25/18 Q1018=
201808040830 METAR LRIA 040830Z 30006KT 270V330 9999 FEW030 26/17 Q1018=
201808040900 METAR COR LRIA 040900Z 29005KT 250V330 9999 FEW030 27/17
                        Q1018=
201808040930 METAR LRIA 040930Z 31006KT 250V360 9999 FEW033 27/18 Q1018=
201808041000 METAR LRIA 041000Z 28006KT 240V310 9999 FEW035 28/17 Q1018=
201808041030 METAR LRIA 041030Z 28005KT 250V350 9999 FEW040 28/18 Q1018=
201808041100 METAR LRIA 041100Z 33005KT 270V010 9999 FEW048 28/16 Q1018=
201808041130 METAR LRIA 041130Z 31005KT 270V340 CAVOK 29/16 Q1017=
201808041200 METAR LRIA 041200Z 33006KT 300V020 CAVOK 29/15 Q1017=
201808041230 METAR LRIA 041230Z 31004KT 270V350 CAVOK 29/16 Q1017=
201808041300 METAR LRIA 041300Z 32005KT 260V020 CAVOK 29/15 Q1017=
201808041330 METAR LRIA 041330Z 31008KT 240V330 CAVOK 29/16 Q1017=
201808041400 METAR LRIA 041400Z 29005KT 260V320 CAVOK 29/15 Q1017=
201808041430 METAR LRIA 041430Z 33007KT CAVOK 28/15 Q1016=
201808041500 METAR LRIA 041500Z 31007KT CAVOK 28/15 Q1016=
201808041530 METAR LRIA 041530Z 30005KT 280V340 CAVOK 28/15 Q1016=
201808041600 METAR LRIA 041600Z 31004KT CAVOK 28/17 Q1016=
201808041630 METAR LRIA 041630Z 29005KT CAVOK 27/17 Q1016=
201808041700 METAR LRIA 041700Z 31005KT CAVOK 26/17 Q1016=
201808041730 METAR LRIA 041730Z 33004KT CAVOK 25/16 Q1016=
201808041800 METAR LRIA 041800Z 33004KT CAVOK 24/16 Q1016=
201808041830 METAR LRIA 041830Z 33004KT CAVOK 24/17 Q1016=
201808041900 METAR LRIA 041900Z 32004KT CAVOK 22/17 Q1016=
201808041930 METAR LRIA 041930Z 25003KT CAVOK 22/18 Q1016=
201808042000 METAR LRIA 042000Z 24003KT CAVOK 22/17 Q1016=
201808042030 METAR LRIA 042030Z 24003KT CAVOK 21/17 Q1016=
201808042100 METAR LRIA 042100Z 22002KT CAVOK 21/18 Q1016=
201808042130 METAR LRIA 042130Z 23003KT CAVOK 20/18 Q1016=
201808042200 METAR LRIA 042200Z 28003KT CAVOK 21/17 Q1016=
201808042230 METAR LRIA 042230Z 26003KT CAVOK 19/17 Q1016=
201808042300 METAR LRIA 042300Z 25002KT CAVOK 19/18 Q1016=
201808042330 METAR LRIA 042330Z 23002KT CAVOK 19/18 Q1016=
201808050000 METAR LRIA 050000Z 25004KT CAVOK 19/18 Q1016=
201808050030 METAR LRIA 050030Z 26003KT CAVOK 19/17 Q1016=
201808050100 METAR LRIA 050100Z 23004KT CAVOK 19/17 Q1016=
201808050130 METAR LRIA 050130Z 26003KT CAVOK 19/16 Q1016=
201808050200 METAR LRIA 050200Z 28002KT CAVOK 19/16 Q1016=
201808050230 METAR COR LRIA 050230Z 29003KT CAVOK 17/16 Q1016=
201808050300 METAR LRIA 050300Z 29003KT CAVOK 17/16 Q1016=
201808050330 METAR LRIA 050330Z 32003KT CAVOK 18/17 Q1016=
201808050400 METAR LRIA 050400Z 00000KT CAVOK 18/17 Q1016=
201808050430 METAR LRIA 050430Z 00000KT CAVOK 19/17 Q1016=
201808050500 METAR LRIA 050500Z 00000KT CAVOK 21/18 Q1016=
201808050530 METAR LRIA 050530Z 28005KT 250V310 CAVOK 22/18 Q1016=
201808050600 METAR LRIA 050600Z 26005KT 230V290 CAVOK 23/17 Q1016=
201808050630 METAR LRIA 050630Z 26005KT CAVOK 23/17 Q1016=
201808050700 METAR LRIA 050700Z 27004KT CAVOK 25/17 Q1016=
201808050730 METAR LRIA 050730Z 27005KT 230V300 CAVOK 25/18 Q1016=
201808050800 METAR LRIA 050800Z 28004KT 230V310 CAVOK 26/17 Q1016=
201808050830 METAR LRIA 050830Z 29004KT 260V320 CAVOK 27/18 Q1016=
201808050900 METAR LRIA 050900Z 31002KT CAVOK 28/17 Q1016=
201808050930 METAR LRIA 050930Z VRB01KT CAVOK 29/15 Q1016=
201808051000 METAR LRIA 051000Z 30004KT 250V350 CAVOK 29/14 Q1016=
201808051030 METAR LRIA 051030Z 25004KT 180V280 CAVOK 29/15 Q1016=
201808051100 METAR LRIA 051100Z 24006KT 200V340 CAVOK 30/15 Q1015=
201808051130 METAR LRIA 051130Z 25003KT 150V300 CAVOK 30/16 Q1015=
201808051200 METAR LRIA 051200Z 24004KT 190V280 CAVOK 30/14 Q1015=
201808051230 METAR LRIA 051230Z 27005KT 240V320 CAVOK 30/12 Q1015=
201808051300 METAR LRIA 051300Z 30005KT 260V340 CAVOK 30/12 Q1014=
201808051330 METAR LRIA 051330Z 25004KT 200V310 CAVOK 31/12 Q1014=
201808051400 METAR LRIA 051400Z 31005KT CAVOK 30/13 Q1014=
201808051430 METAR LRIA 051430Z 33005KT CAVOK 30/14 Q1014=
201808051500 METAR LRIA 051500Z 29003KT 250V320 CAVOK 31/18 Q1014=
201808051530 METAR LRIA 051530Z 29003KT 240V310 CAVOK 30/16 Q1014=
201808051600 METAR LRIA 051600Z 25003KT 190V290 CAVOK 30/15 Q1013=
201808051630 METAR LRIA 051630Z 25003KT 220V280 CAVOK 29/14 Q1013=
201808051700 METAR LRIA 051700Z 26003KT CAVOK 29/14 Q1013=
201808051730 METAR LRIA 051730Z 25003KT CAVOK 28/14 Q1014=
201808051800 METAR LRIA 051800Z 28003KT CAVOK 27/15 Q1014=
201808051830 METAR COR LRIA 051830Z 34008KT CAVOK 24/17 Q1014=
201808051900 METAR LRIA 051900Z 35005KT CAVOK 23/18 Q1014=
201808051930 METAR LRIA 051930Z VRB01KT CAVOK 23/17 Q1014=
201808052000 METAR LRIA 052000Z 00000KT CAVOK 24/18 Q1014=
201808052030 METAR LRIA 052030Z 25001KT CAVOK 24/18 Q1015=
201808052100 METAR LRIA 052100Z 22003KT CAVOK 23/17 Q1015=
201808052130 METAR LRIA 052130Z 25003KT CAVOK 22/17 Q1015=
201808052200 METAR LRIA 052200Z 24003KT CAVOK 22/18 Q1015=
201808052230 METAR LRIA 052230Z 26004KT CAVOK 22/18 Q1015=
201808052300 METAR LRIA 052300Z VRB02KT CAVOK 21/18 Q1014=
201808052330 METAR LRIA 052330Z 30005KT 270V330 CAVOK 20/18 Q1015=
201808060000 METAR LRIA 060000Z 31007KT CAVOK 21/18 Q1015=
201808060030 METAR LRIA 060030Z 29008KT CAVOK 21/18 Q1015=
201808060100 METAR LRIA 060100Z 24005KT CAVOK 20/18 Q1015=
201808060130 METAR LRIA 060130Z 22004KT CAVOK 20/18 Q1015=
201808060200 METAR LRIA 060200Z 24005KT CAVOK 20/18 Q1015=
201808060230 METAR LRIA 060230Z 25004KT CAVOK 20/18 Q1015=
201808060300 METAR LRIA 060300Z 27004KT CAVOK 20/18 Q1015=
201808060330 METAR LRIA 060330Z 28005KT CAVOK 20/18 Q1016=
201808060400 METAR LRIA 060400Z 29005KT CAVOK 21/18 Q1016=
201808060430 METAR LRIA 060430Z 31005KT CAVOK 21/18 Q1016=
201808060500 METAR LRIA 060500Z 31007KT CAVOK 22/18 Q1016=
201808060530 METAR LRIA 060530Z 30006KT CAVOK 22/19 Q1016=
201808060600 METAR LRIA 060600Z 32007KT CAVOK 22/18 Q1016=
201808060630 METAR LRIA 060630Z 29006KT CAVOK 23/19 Q1016=
201808060700 METAR LRIA 060700Z 30005KT 240V330 CAVOK 24/19 Q1016=
201808060730 METAR LRIA 060730Z 29005KT 250V340 CAVOK 24/19 Q1017=
201808060800 METAR LRIA 060800Z 30005KT 260V340 CAVOK 25/19 Q1016=
201808060830 METAR LRIA 060830Z 32005KT 250V360 CAVOK 25/19 Q1017=
201808060900 METAR LRIA 060900Z 32006KT 250V010 CAVOK 26/19 Q1016=
201808060930 METAR LRIA 060930Z 32005KT 290V360 CAVOK 27/18 Q1016=
201808061000 METAR LRIA 061000Z 32007KT CAVOK 27/19 Q1016=
201808061030 METAR LRIA 061030Z 34008KT 290V360 CAVOK 27/19 Q1016=
201808061100 METAR LRIA 061100Z 31007KT CAVOK 28/19 Q1016=
201808061130 METAR LRIA 061130Z 30007KT 260V340 CAVOK 28/19 Q1016=
201808061200 METAR LRIA 061200Z 33006KT 9999 FEW045 28/18 Q1016=
201808061230 METAR LRIA 061230Z 34006KT 290V350 9999 FEW045 28/18 Q1015=
201808061300 METAR LRIA 061300Z 32007KT 290V360 9999 FEW045 28/17 Q1015=
201808061330 METAR LRIA 061330Z 33008KT 300V360 9999 FEW045 28/18 Q1015=
201808061400 METAR LRIA 061400Z 34008KT CAVOK 28/18 Q1015=
201808061430 METAR LRIA 061430Z 30006KT CAVOK 27/18 Q1015=
201808061500 METAR LRIA 061500Z 31005KT 9999 FEW050TCU 27/19 Q1015=
201808061530 METAR LRIA 061530Z 33007KT CAVOK 27/20 Q1015=
201808061600 METAR LRIA 061600Z 33006KT CAVOK 25/20 Q1015=
201808061630 METAR LRIA 061630Z 33005KT CAVOK 25/19 Q1015=
201808061700 METAR LRIA 061700Z 34008KT CAVOK 25/19 Q1015=
201808061730 METAR LRIA 061730Z 34007KT CAVOK 24/19 Q1015=
201808061800 METAR LRIA 061800Z 33007KT CAVOK 24/19 Q1015=
201808061830 METAR LRIA 061830Z 33004KT CAVOK 23/20 Q1016=
201808061900 METAR LRIA 061900Z 31006KT CAVOK 23/19 Q1016=
201808061930 METAR LRIA 061930Z 31007KT CAVOK 23/19 Q1016=
201808062000 METAR COR LRIA 062000Z 31004KT CAVOK 22/19 Q1016=
201808062030 METAR LRIA 062030Z 30005KT CAVOK 22/19 Q1016=
201808062100 METAR LRIA 062100Z 26004KT CAVOK 22/19 Q1016=
201808062130 METAR LRIA 062130Z 27003KT 230V300 CAVOK 22/19 Q1016=
201808062200 METAR LRIA 062200Z 28003KT 250V320 CAVOK 21/18 Q1016=
201808062230 METAR LRIA 062230Z 27006KT CAVOK 21/18 Q1016=
201808062300 METAR LRIA 062300Z 27005KT CAVOK 21/18 Q1016=
201808062330 METAR LRIA 062330Z 27005KT CAVOK 21/18 Q1016=
201808070000 METAR LRIA 070000Z 28006KT CAVOK 20/17 Q1016=
201808070030 METAR LRIA 070030Z 26003KT CAVOK 20/18 Q1016=
201808070100 METAR LRIA 070100Z 28005KT CAVOK 20/18 Q1016=
201808070130 METAR LRIA 070130Z 28005KT CAVOK 20/18 Q1016=
201808070200 METAR LRIA 070200Z 28004KT 250V310 CAVOK 20/18 Q1016=
201808070230 METAR LRIA 070230Z 28004KT CAVOK 20/18 Q1016=
201808070300 METAR LRIA 070300Z 29004KT CAVOK 19/18 Q1017=
201808070330 METAR LRIA 070330Z 27002KT CAVOK 19/18 Q1017=
201808070400 METAR LRIA 070400Z 27004KT CAVOK 19/18 Q1017=
201808070430 METAR COR LRIA 070430Z 30006KT CAVOK 20/18 Q1017=
201808070500 METAR LRIA 070500Z 30007KT CAVOK 20/18 Q1017=
201808070530 METAR LRIA 070530Z 28004KT CAVOK 21/18 Q1017=
201808070600 METAR LRIA 070600Z 31006KT 280V340 CAVOK 22/18 Q1017=
201808070630 METAR LRIA 070630Z 31006KT CAVOK 22/18 Q1017=
201808070700 METAR LRIA 070700Z 31004KT 280V360 CAVOK 24/18 Q1018=
201808070730 METAR LRIA 070730Z 32006KT 290V350 CAVOK 24/17 Q1018=
201808070800 METAR LRIA 070800Z 32006KT CAVOK 25/17 Q1018=
201808070830 METAR LRIA 070830Z 32007KT 290V360 CAVOK 25/17 Q1018=
201808070900 METAR LRIA 070900Z 30008KT 260V340 9999 FEW036 26/18 Q1018=
201808070930 METAR LRIA 070930Z 33008KT 290V350 9999 FEW035 26/17 Q1018=
201808071000 METAR LRIA 071000Z 32009KT 9999 FEW040 27/16 Q1018=
201808071030 METAR LRIA 071030Z 33009KT 290V010 9999 FEW044 27/14 Q1017=
201808071100 METAR LRIA 071100Z 34008KT 310V030 CAVOK 27/17 Q1017=
201808071130 METAR COR LRIA 071130Z 31009KT 280V340 CAVOK 27/14 Q1017=
201808071200 METAR LRIA 071200Z 33007KT 300V360 CAVOK 27/14 Q1017=
201808071230 METAR COR LRIA 071230Z 33008KT CAVOK 27/16 Q1017=
201808071300 METAR LRIA 071300Z 34010KT 290V350 CAVOK 27/16 Q1016=
201808071330 METAR LRIA 071330Z 34008KT CAVOK 27/16 Q1017=
201808071400 METAR LRIA 071400Z 34009KT 300V020 CAVOK 27/17 Q1017=
201808071430 METAR LRIA 071430Z 36009KT CAVOK 27/15 Q1016=
201808071500 METAR LRIA 071500Z 33007KT CAVOK 26/15 Q1017=
201808071530 METAR LRIA 071530Z 33007KT CAVOK 26/14 Q1017=
201808071600 METAR LRIA 071600Z 33006KT CAVOK 26/13 Q1017=
201808071630 METAR LRIA 071630Z 33005KT CAVOK 25/15 Q1017=
201808071700 METAR LRIA 071700Z 33005KT CAVOK 24/16 Q1017=
201808071730 METAR LRIA 071730Z 34006KT CAVOK 22/16 Q1017=
201808071800 METAR LRIA 071800Z 33006KT CAVOK 22/16 Q1018=
201808071830 METAR LRIA 071830Z 33005KT CAVOK 21/16 Q1018=
201808071900 METAR LRIA 071900Z 32006KT CAVOK 21/15 Q1018=
201808071930 METAR LRIA 071930Z 32006KT CAVOK 20/16 Q1018=
201808072000 METAR LRIA 072000Z 31005KT CAVOK 20/15 Q1018=
201808072030 METAR LRIA 072030Z 23003KT CAVOK 18/17 Q1018=
201808072100 METAR LRIA 072100Z 27004KT CAVOK 20/16 Q1018=
201808072130 METAR LRIA 072130Z 27004KT CAVOK 19/16 Q1018=
201808072200 METAR LRIA 072200Z 26004KT CAVOK 18/17 Q1018=
201808072230 METAR LRIA 072230Z 23003KT CAVOK 18/17 Q1018=
201808072300 METAR LRIA 072300Z 23003KT CAVOK 18/16 Q1018=
201808072330 METAR LRIA 072330Z 00000KT CAVOK 18/16 Q1018=
201808080000 METAR LRIA 080000Z 25002KT CAVOK 18/16 Q1018=
201808080030 METAR LRIA 080030Z 26003KT CAVOK 18/16 Q1018=
201808080100 METAR LRIA 080100Z 26001KT CAVOK 17/16 Q1019=
201808080130 METAR LRIA 080130Z 27002KT CAVOK 17/16 Q1018=
201808080200 METAR LRIA 080200Z 25002KT CAVOK 17/16 Q1019=
201808080230 METAR LRIA 080230Z 25003KT CAVOK 16/15 Q1018=
201808080300 METAR LRIA 080300Z 26003KT CAVOK 16/16 Q1019=
201808080330 METAR LRIA 080330Z 26002KT CAVOK 16/16 Q1019=
201808080400 METAR LRIA 080400Z 27004KT CAVOK 17/16 Q1019=
201808080430 METAR LRIA 080430Z 27003KT CAVOK 18/16 Q1019=
201808080500 METAR LRIA 080500Z 29003KT 260V320 CAVOK 19/17 Q1019=
201808080530 METAR LRIA 080530Z 29003KT 240V320 CAVOK 20/16 Q1020=
201808080600 METAR LRIA 080600Z 30002KT 250V020 CAVOK 21/17 Q1020=
201808080630 METAR LRIA 080630Z VRB02KT CAVOK 23/16 Q1020=
201808080700 METAR LRIA 080700Z VRB01KT CAVOK 24/16 Q1020=
201808080730 METAR LRIA 080730Z VRB02KT CAVOK 24/16 Q1020=
201808080800 METAR LRIA 080800Z VRB01KT 9999 FEW030 26/16 Q1020=
201808080830 METAR LRIA 080830Z VRB02KT 9999 FEW030 26/16 Q1020=
201808080900 METAR LRIA 080900Z 07003KT 360V140 9999 FEW030 26/14 Q1020=
201808080930 METAR LRIA 080930Z 35004KT 240V030 9999 FEW030 26/14 Q1020=
201808081000 METAR LRIA 081000Z 03006KT 340V070 9999 FEW033 26/14 Q1020=
201808081030 METAR LRIA 081030Z VRB03KT 9999 FEW040 27/14 Q1020=
201808081100 METAR LRIA 081100Z 02004KT 350V050 9999 FEW047 27/13 Q1020=
201808081130 METAR LRIA 081130Z 03006KT 360V090 CAVOK 27/13 Q1019=
201808081200 METAR LRIA 081200Z 34004KT 290V040 CAVOK 27/13 Q1019=
201808081230 METAR LRIA 081230Z VRB05KT CAVOK 28/12 Q1019=
201808081300 METAR LRIA 081300Z VRB03KT CAVOK 28/14 Q1019=
201808081330 METAR LRIA 081330Z 35004KT 310V030 CAVOK 28/15 Q1019=
201808081400 METAR LRIA 081400Z 04005KT 350V090 CAVOK 28/14 Q1019=
201808081430 METAR LRIA 081430Z 36006KT 320V080 CAVOK 28/14 Q1019=
201808081500 METAR LRIA 081500Z 02005KT CAVOK 28/12 Q1019=
201808081530 METAR LRIA 081530Z 03005KT 010V070 CAVOK 28/14 Q1018=
201808081600 METAR LRIA 081600Z 04004KT 010V070 CAVOK 28/13 Q1019=
201808081630 METAR LRIA 081630Z 04004KT CAVOK 27/15 Q1019=
201808081700 METAR LRIA 081700Z 04005KT CAVOK 25/15 Q1019=
201808081730 METAR LRIA 081730Z 03006KT CAVOK 24/15 Q1019=
201808081800 METAR COR LRIA 081800Z 04007KT CAVOK 23/14 Q1019=
201808081830 METAR LRIA 081830Z 04007KT CAVOK 23/14 Q1019=
201808081900 METAR LRIA 081900Z 04007KT CAVOK 22/14 Q1020=
201808081930 METAR LRIA 081930Z 04006KT CAVOK 22/14 Q1020=
201808082000 METAR COR LRIA 082000Z 06003KT CAVOK 22/13 Q1020=
201808082030 METAR LRIA 082030Z 09003KT CAVOK 22/13 Q1020=
201808082100 METAR LRIA 082100Z 08004KT CAVOK 21/12 Q1020=
201808082130 METAR LRIA 082130Z 06004KT CAVOK 20/14 Q1020=
201808082200 METAR LRIA 082200Z 05005KT CAVOK 20/14 Q1020=
201808082230 METAR LRIA 082230Z 06005KT CAVOK 20/13 Q1020=
201808082300 METAR LRIA 082300Z 06005KT CAVOK 20/13 Q1020=
201808082330 METAR LRIA 082330Z VRB01KT CAVOK 18/14 Q1021=
201808090000 METAR LRIA 090000Z 00000KT CAVOK 18/14 Q1021=
201808090030 METAR LRIA 090030Z 00000KT CAVOK 17/15 Q1021=
201808090100 METAR LRIA 090100Z 00000KT CAVOK 19/13 Q1021=
201808090130 METAR COR LRIA 090130Z 00000KT CAVOK 19/13 Q1021=
201808090200 METAR LRIA 090200Z 00000KT CAVOK 19/13 Q1021=
201808090230 METAR COR LRIA 090230Z 00000KT CAVOK 17/13 Q1021=
201808090300 METAR LRIA 090300Z 00000KT CAVOK 16/13 Q1021=
201808090330 METAR LRIA 090330Z 00000KT CAVOK 17/14 Q1022=
201808090400 METAR LRIA 090400Z 00000KT CAVOK 19/14 Q1022=
201808090430 METAR LRIA 090430Z 00000KT CAVOK 19/16 Q1022=
201808090500 METAR LRIA 090500Z 00000KT CAVOK 22/14 Q1022=
201808090530 METAR LRIA 090530Z VRB01KT CAVOK 22/15 Q1023=
201808090600 METAR LRIA 090600Z 09002KT CAVOK 23/15 Q1023=
201808090630 METAR LRIA 090630Z 09004KT CAVOK 23/13 Q1023=
201808090700 METAR LRIA 090700Z 11005KT 080V140 CAVOK 24/13 Q1023=
201808090730 METAR LRIA 090730Z 12006KT CAVOK 24/13 Q1023=
201808090800 METAR LRIA 090800Z VRB04KT CAVOK 25/13 Q1023=
201808090830 METAR LRIA 090830Z 09007KT 060V130 CAVOK 26/12 Q1023=
201808090900 METAR LRIA 090900Z 10005KT 070V140 CAVOK 26/12 Q1023=
201808090930 METAR LRIA 090930Z 09007KT 040V130 CAVOK 26/11 Q1023=
201808091000 METAR LRIA 091000Z 08005KT 010V130 CAVOK 27/12 Q1023=
201808091030 METAR LRIA 091030Z 06005KT 020V150 CAVOK 27/11 Q1023=
201808091100 METAR LRIA 091100Z 03007KT CAVOK 27/11 Q1023=
201808091130 METAR LRIA 091130Z 08008KT 040V100 CAVOK 27/10 Q1023=
201808091200 METAR LRIA 091200Z 05006KT 010V120 CAVOK 27/10 Q1023=
201808091230 METAR LRIA 091230Z 06008KT 030V120 CAVOK 28/10 Q1022=
201808091300 METAR LRIA 091300Z VRB04KT CAVOK 28/10 Q1022=
201808091330 METAR LRIA 091330Z 01008KT 320V030 CAVOK 28/12 Q1022=
201808091400 METAR LRIA 091400Z 03007KT 360V070 CAVOK 28/09 Q1022=
201808091430 METAR LRIA 091430Z 03007KT 360V060 CAVOK 28/08 Q1022=
201808091500 METAR LRIA 091500Z 04007KT CAVOK 28/09 Q1022=
201808091530 METAR LRIA 091530Z 02005KT CAVOK 27/09 Q1022=
201808091600 METAR LRIA 091600Z 09005KT CAVOK 27/10 Q1022=
201808091630 METAR LRIA 091630Z 09004KT CAVOK 26/10 Q1022=
201808091700 METAR LRIA 091700Z 07003KT CAVOK 26/11 Q1022=
201808091730 METAR LRIA 091730Z 06004KT CAVOK 23/13 Q1022=
201808091800 METAR COR LRIA 091800Z 05004KT CAVOK 22/13 Q1022=
201808091830 METAR LRIA 091830Z 07003KT CAVOK 22/12 Q1023=
201808091900 METAR LRIA 091900Z 09004KT CAVOK 22/12 Q1023=
201808091930 METAR LRIA 091930Z 09003KT CAVOK 21/12 Q1023=
201808092000 METAR LRIA 092000Z 09004KT CAVOK 21/12 Q1023=
201808092030 METAR LRIA 092030Z 08006KT CAVOK 21/11 Q1023=
201808092100 METAR LRIA 092100Z 06006KT 050V110 CAVOK 20/11 Q1023=
201808092130 METAR LRIA 092130Z 07005KT CAVOK 20/11 Q1023=
201808092200 METAR LRIA 092200Z 09007KT CAVOK 20/10 Q1023=
201808092230 METAR LRIA 092230Z 08008KT CAVOK 20/10 Q1023=
201808092300 METAR LRIA 092300Z 08008KT CAVOK 19/10 Q1023=
201808092330 METAR LRIA 092330Z 08007KT CAVOK 19/10 Q1023=
201808100000 METAR LRIA 100000Z 14004KT 090V200 CAVOK 18/10 Q1024=
201808100030 METAR LRIA 100030Z 00000KT CAVOK 19/10 Q1024=
201808100100 METAR LRIA 100100Z 07003KT 050V110 CAVOK 18/11 Q1024=
201808100130 METAR LRIA 100130Z 09006KT CAVOK 19/10 Q1024=
201808100200 METAR LRIA 100200Z 09006KT CAVOK 18/10 Q1024=
201808100230 METAR LRIA 100230Z 00000KT CAVOK 17/09 Q1024=
201808100300 METAR LRIA 100300Z 11003KT CAVOK 18/10 Q1024=
201808100330 METAR LRIA 100330Z 09005KT CAVOK 18/10 Q1024=
201808100400 METAR LRIA 100400Z 10006KT CAVOK 18/10 Q1024=
201808100430 METAR COR LRIA 100430Z 09006KT CAVOK 19/10 Q1025=
201808100500 METAR LRIA 100500Z 09004KT CAVOK 20/11 Q1025=
201808100530 METAR LRIA 100530Z 11005KT CAVOK 21/11 Q1025=
201808100600 METAR LRIA 100600Z 10009KT CAVOK 22/11 Q1025=
201808100630 METAR LRIA 100630Z 10008KT CAVOK 23/10 Q1025=
201808100700 METAR LRIA 100700Z 11009KT CAVOK 23/10 Q1025=
201808100730 METAR LRIA 100730Z 12009KT CAVOK 24/13 Q1025=
201808100800 METAR LRIA 100800Z 12010KT CAVOK 25/13 Q1025=
201808100830 METAR LRIA 100830Z 10008KT CAVOK 26/13 Q1025=
201808100900 METAR LRIA 100900Z 12009KT 090V150 CAVOK 27/13 Q1025=
201808100930 METAR LRIA 100930Z 12009KT CAVOK 27/12 Q1025=
201808101000 METAR LRIA 101000Z 13009KT CAVOK 28/09 Q1025=
201808101030 METAR LRIA 101030Z 11012KT CAVOK 28/09 Q1025=
201808101100 METAR LRIA 101100Z 13008KT CAVOK 28/10 Q1025=
201808101130 METAR LRIA 101130Z 14008KT CAVOK 28/10 Q1024=
201808101200 METAR LRIA 101200Z 11008KT CAVOK 28/10 Q1024=
201808101230 METAR LRIA 101230Z 10009KT CAVOK 28/10 Q1024=
201808101300 METAR LRIA 101300Z 11007KT 060V130 CAVOK 29/08 Q1024=
201808101330 METAR LRIA 101330Z 11007KT CAVOK 28/09 Q1024=
201808101400 METAR LRIA 101400Z 11007KT CAVOK 29/07 Q1024=
201808101430 METAR LRIA 101430Z 11006KT 080V140 CAVOK 28/08 Q1024=
201808101500 METAR LRIA 101500Z 11007KT CAVOK 28/09 Q1024=
201808101530 METAR LRIA 101530Z 12006KT CAVOK 28/10 Q1023=
201808101600 METAR LRIA 101600Z 13005KT CAVOK 27/10 Q1023=
201808101630 METAR LRIA 101630Z 13005KT CAVOK 27/10 Q1023=
201808101700 METAR LRIA 101700Z 14005KT CAVOK 26/10 Q1023=
201808101730 METAR LRIA 101730Z 09006KT CAVOK 24/12 Q1023=
201808101800 METAR LRIA 101800Z 08007KT CAVOK 23/11 Q1024=
201808101830 METAR LRIA 101830Z 09006KT CAVOK 23/11 Q1024=
201808101900 METAR LRIA 101900Z 10006KT CAVOK 22/11 Q1024=
201808101930 METAR LRIA 101930Z 09006KT CAVOK 22/10 Q1024=
201808102000 METAR LRIA 102000Z 08006KT CAVOK 22/10 Q1024=
201808102030 METAR LRIA 102030Z 08006KT CAVOK 21/10 Q1024=
201808102100 METAR LRIA 102100Z 08007KT CAVOK 21/09 Q1024=
201808102130 METAR LRIA 102130Z 08007KT CAVOK 20/09 Q1024=
201808102200 METAR LRIA 102200Z 17002KT CAVOK 20/09 Q1024=
201808102230 METAR LRIA 102230Z 20005KT CAVOK 21/10 Q1024=
201808102300 METAR LRIA 102300Z 22005KT 190V250 CAVOK 20/11 Q1024=
201808102330 METAR LRIA 102330Z 23004KT 200V260 CAVOK 20/11 Q1024=
201808110000 METAR LRIA 110000Z AUTO 18002KT 120V220 9999 NCD 20/11 Q1024=
201808110030 METAR LRIA 110030Z 10003KT 070V130 CAVOK 18/11 Q1024=
201808110100 METAR LRIA 110100Z 13003KT 100V180 CAVOK 18/11 Q1024=
201808110130 METAR LRIA 110130Z 09006KT CAVOK 18/11 Q1024=
201808110200 METAR LRIA 110200Z 09006KT CAVOK 17/10 Q1023=
201808110230 METAR LRIA 110230Z 08005KT CAVOK 17/10 Q1023=
201808110300 METAR LRIA 110300Z 09006KT CAVOK 16/10 Q1023=
201808110330 METAR LRIA 110330Z 08005KT CAVOK 17/10 Q1023=
201808110400 METAR LRIA 110400Z 08006KT CAVOK 17/11 Q1023=
201808110430 METAR LRIA 110430Z 09004KT CAVOK 18/12 Q1023=
201808110500 METAR LRIA 110500Z 09005KT CAVOK 18/12 Q1023=
201808110530 METAR LRIA 110530Z 09006KT CAVOK 20/12 Q1023=
201808110600 METAR LRIA 110600Z 10005KT CAVOK 21/12 Q1023=
201808110630 METAR LRIA 110630Z 10006KT CAVOK 22/12 Q1023=
201808110700 METAR LRIA 110700Z 12006KT CAVOK 24/12 Q1023=
201808110730 METAR LRIA 110730Z 10006KT CAVOK 24/11 Q1023=
201808110800 METAR LRIA 110800Z 12004KT 090V150 CAVOK 26/12 Q1023=
201808110830 METAR LRIA 110830Z 13004KT 100V200 CAVOK 26/12 Q1023=
201808110900 METAR LRIA 110900Z 12005KT 080V150 CAVOK 27/11 Q1023=
201808110930 METAR LRIA 110930Z 17004KT CAVOK 27/10 Q1022=
201808111000 METAR LRIA 111000Z VRB06KT CAVOK 28/13 Q1022=
201808111030 METAR LRIA 111030Z 14006KT 100V180 CAVOK 28/10 Q1022=
201808111100 METAR COR LRIA 111100Z 12006KT 080V150 CAVOK 28/09 Q1022=
201808111130 METAR LRIA 111130Z VRB05KT CAVOK 29/10 Q1021=
201808111200 METAR LRIA 111200Z 16005KT 110V270 CAVOK 29/08 Q1021=
201808111230 METAR LRIA 111230Z 23005KT 190V250 CAVOK 29/08 Q1021=
201808111300 METAR LRIA 111300Z 21004KT 160V280 CAVOK 29/09 Q1020=
201808111330 METAR LRIA 111330Z 18007KT CAVOK 29/09 Q1020=
201808111400 METAR LRIA 111400Z 19006KT 130V220 CAVOK 28/10 Q1020=
201808111430 METAR LRIA 111430Z 19005KT CAVOK 28/08 Q1019=
201808111500 METAR LRIA 111500Z 18005KT 150V210 CAVOK 28/08 Q1019=
201808111530 METAR LRIA 111530Z 18005KT 160V220 CAVOK 28/09 Q1019=
201808111600 METAR LRIA 111600Z 19004KT CAVOK 28/09 Q1019=
201808111630 METAR LRIA 111630Z 20004KT CAVOK 27/09 Q1019=
201808111700 METAR LRIA 111700Z 22002KT CAVOK 27/09 Q1019=
201808111730 METAR LRIA 111730Z 19003KT CAVOK 26/09 Q1019=
201808111800 METAR LRIA 111800Z 17002KT CAVOK 25/10 Q1019=
201808111830 METAR LRIA 111830Z 20003KT CAVOK 24/11 Q1019=
201808111900 METAR LRIA 111900Z 29003KT CAVOK 23/12 Q1019=
201808111930 METAR LRIA 111930Z 30002KT CAVOK 22/12 Q1019=
201808112000 METAR LRIA 112000Z 08004KT 060V140 CAVOK 22/13 Q1019=
201808112030 METAR LRIA 112030Z 00000KT CAVOK 21/13 Q1019=
201808112100 METAR LRIA 112100Z 00000KT CAVOK 20/13 Q1019=
201808112130 METAR LRIA 112130Z 00000KT CAVOK 21/12 Q1019=
201808112200 METAR LRIA 112200Z 12004KT CAVOK 20/12 Q1019=
201808112230 METAR LRIA 112230Z 08006KT CAVOK 19/12 Q1019=
201808112300 METAR LRIA 112300Z 07007KT CAVOK 18/12 Q1019=
201808112330 METAR LRIA 112330Z 10005KT CAVOK 18/12 Q1018=
201808120000 METAR LRIA 120000Z 09006KT CAVOK 18/12 Q1018=
201808120030 METAR LRIA 120030Z 07003KT CAVOK 17/12 Q1018=
201808120100 METAR LRIA 120100Z 10003KT CAVOK 17/12 Q1018=
201808120130 METAR LRIA 120130Z 05002KT CAVOK 16/12 Q1018=
201808120200 METAR LRIA 120200Z 29003KT CAVOK 16/12 Q1018=
201808120230 METAR LRIA 120230Z 02001KT CAVOK 17/12 Q1018=
201808120300 METAR LRIA 120300Z 08003KT CAVOK 17/12 Q1018=
201808120330 METAR LRIA 120330Z 11001KT CAVOK 18/12 Q1018=
201808120400 METAR LRIA 120400Z 00000KT CAVOK 17/14 Q1018=
201808120430 METAR LRIA 120430Z 08004KT CAVOK 19/14 Q1019=
201808120500 METAR LRIA 120500Z VRB02KT CAVOK 19/14 Q1019=
201808120530 METAR LRIA 120530Z VRB01KT CAVOK 20/15 Q1019=
201808120600 METAR LRIA 120600Z 25003KT 200V290 CAVOK 21/15 Q1019=
201808120630 METAR LRIA 120630Z 27003KT 240V320 CAVOK 22/14 Q1019=
201808120700 METAR LRIA 120700Z 26004KT 230V290 CAVOK 22/15 Q1019=
201808120730 METAR LRIA 120730Z 29004KT CAVOK 23/15 Q1019=
201808120800 METAR LRIA 120800Z 27004KT 240V330 CAVOK 23/15 Q1019=
201808120830 METAR LRIA 120830Z 27005KT 220V320 CAVOK 24/16 Q1019=
201808120900 METAR LRIA 120900Z 25004KT 210V320 CAVOK 25/16 Q1019=
201808120930 METAR LRIA 120930Z 28006KT 250V310 CAVOK 25/16 Q1019=
201808121000 METAR LRIA 121000Z 26005KT 200V310 CAVOK 25/16 Q1019=
201808121030 METAR LRIA 121030Z 27006KT 230V310 9999 FEW033 26/16 Q1019=
201808121100 METAR LRIA 121100Z 28006KT 240V330 9999 FEW035 27/17 Q1019=
201808121130 METAR LRIA 121130Z 28005KT 200V340 9999 FEW038 27/16 Q1019=
201808121200 METAR LRIA 121200Z VRB04KT 9999 FEW042 28/16 Q1019=
201808121230 METAR LRIA 121230Z VRB03KT 9999 FEW045 28/16 Q1018=
201808121300 METAR LRIA 121300Z 22004KT 130V300 9999 FEW048 28/15 Q1018=
201808121330 METAR LRIA 121330Z 25005KT 220V310 CAVOK 28/15 Q1018=
201808121400 METAR LRIA 121400Z 26004KT 220V310 CAVOK 28/15 Q1018=
201808121430 METAR LRIA 121430Z 32003KT 270V350 CAVOK 28/16 Q1018=
201808121500 METAR LRIA 121500Z 30005KT 270V330 CAVOK 28/16 Q1018=
201808121530 METAR LRIA 121530Z 28003KT 240V320 CAVOK 28/15 Q1018=
201808121600 METAR LRIA 121600Z 31003KT 280V340 CAVOK 28/17 Q1017=
201808121630 METAR LRIA 121630Z 34001KT CAVOK 27/15 Q1017=
201808121700 METAR LRIA 121700Z 02002KT CAVOK 26/16 Q1017=
201808121730 METAR LRIA 121730Z 33002KT CAVOK 26/15 Q1017=
201808121800 METAR COR LRIA 121800Z 35003KT CAVOK 22/17 Q1018=
201808121830 METAR LRIA 121830Z 31001KT CAVOK 24/16 Q1018=
201808121900 METAR LRIA 121900Z 28003KT CAVOK 21/18 Q1018=
201808121930 METAR LRIA 121930Z 23001KT CAVOK 22/17 Q1018=
201808122000 METAR LRIA 122000Z 25002KT 230V290 CAVOK 22/17 Q1018=
201808122030 METAR LRIA 122030Z 26004KT CAVOK 19/17 Q1018=
201808122100 METAR LRIA 122100Z 29003KT CAVOK 21/17 Q1018=
201808122130 METAR LRIA 122130Z 22003KT CAVOK 20/17 Q1018=
201808122200 METAR LRIA 122200Z 25003KT CAVOK 20/17 Q1018=
201808122230 METAR LRIA 122230Z 25003KT CAVOK 19/17 Q1018=
201808122300 METAR LRIA 122300Z 26004KT CAVOK 19/17 Q1017=
201808122330 METAR LRIA 122330Z 26002KT CAVOK 19/16 Q1017=
201808130000 METAR COR LRIA 130000Z 24003KT CAVOK 18/16 Q1017=
201808130030 METAR LRIA 130030Z 26003KT CAVOK 18/16 Q1017=
201808130100 METAR LRIA 130100Z 25004KT CAVOK 18/16 Q1017=
201808130130 METAR LRIA 130130Z 26003KT CAVOK 18/16 Q1017=
201808130200 METAR LRIA 130200Z 26002KT CAVOK 18/16 Q1017=
201808130230 METAR LRIA 130230Z 26002KT CAVOK 18/16 Q1017=
201808130300 METAR LRIA 130300Z 27001KT CAVOK 18/16 Q1017=
201808130330 METAR LRIA 130330Z 00000KT CAVOK 17/16 Q1017=
201808130400 METAR LRIA 130400Z 18001KT CAVOK 18/17 Q1017=
201808130430 METAR LRIA 130430Z 00000KT CAVOK 20/17 Q1017=
201808130500 METAR LRIA 130500Z 19002KT CAVOK 20/17 Q1017=
201808130530 METAR LRIA 130530Z 15002KT CAVOK 21/17 Q1017=
201808130600 METAR LRIA 130600Z 12002KT CAVOK 22/17 Q1017=
201808130630 METAR LRIA 130630Z 12002KT CAVOK 23/17 Q1017=
201808130700 METAR LRIA 130700Z 13002KT CAVOK 25/18 Q1017=
201808130730 METAR LRIA 130730Z 11002KT CAVOK 26/18 Q1017=
201808130800 METAR LRIA 130800Z 18003KT 110V280 CAVOK 26/17 Q1017=
201808130830 METAR LRIA 130830Z 19003KT 140V220 CAVOK 27/17 Q1017=
201808130900 METAR LRIA 130900Z VRB02KT CAVOK 28/15 Q1016=
201808130930 METAR LRIA 130930Z 22006KT 170V250 CAVOK 28/16 Q1016=
201808131000 METAR LRIA 131000Z 21007KT 170V240 CAVOK 29/15 Q1016=
201808131030 METAR LRIA 131030Z 21005KT 150V270 CAVOK 29/15 Q1016=
201808131100 METAR LRIA 131100Z 21006KT 130V260 CAVOK 29/14 Q1016=
201808131130 METAR LRIA 131130Z 18006KT 150V240 CAVOK 30/14 Q1015=
201808131200 METAR LRIA 131200Z 19006KT 140V230 CAVOK 30/14 Q1015=
201808131230 METAR LRIA 131230Z 22005KT 170V320 CAVOK 30/15 Q1015=
201808131300 METAR LRIA 131300Z 15005KT 120V220 CAVOK 30/15 Q1014=
201808131330 METAR LRIA 131330Z 18007KT CAVOK 30/14 Q1014=
201808131400 METAR LRIA 131400Z 17007KT 140V210 CAVOK 30/14 Q1014=
201808131430 METAR LRIA 131430Z 17006KT CAVOK 30/14 Q1014=
201808131500 METAR LRIA 131500Z 20004KT 160V240 CAVOK 30/14 Q1014=
201808131530 METAR LRIA 131530Z 19003KT 140V240 CAVOK 30/14 Q1013=
201808131600 METAR LRIA 131600Z 19004KT CAVOK 29/14 Q1013=
201808131630 METAR LRIA 131630Z 18003KT 150V210 CAVOK 29/14 Q1013=
201808131700 METAR LRIA 131700Z 17004KT CAVOK 28/14 Q1013=
201808131730 METAR LRIA 131730Z 18004KT CAVOK 27/14 Q1013=
201808131800 METAR LRIA 131800Z 18005KT CAVOK 26/14 Q1014=
201808131830 METAR LRIA 131830Z 21004KT CAVOK 25/14 Q1014=
201808131900 METAR LRIA 131900Z 21004KT CAVOK 25/14 Q1014=
201808131930 METAR LRIA 131930Z 20004KT CAVOK 24/13 Q1014=
201808132000 METAR LRIA 132000Z 20003KT 180V240 CAVOK 24/14 Q1014=
201808132030 METAR LRIA 132030Z 21003KT CAVOK 23/13 Q1014=
201808132100 METAR LRIA 132100Z 22003KT CAVOK 23/13 Q1014=
201808132130 METAR LRIA 132130Z 20002KT 180V240 CAVOK 23/12 Q1014=
201808132200 METAR LRIA 132200Z 21002KT CAVOK 23/12 Q1014=
201808132230 METAR LRIA 132230Z 20002KT CAVOK 23/11 Q1014=
201808132300 METAR LRIA 132300Z 17005KT CAVOK 22/11 Q1014=
201808132330 METAR LRIA 132330Z 18006KT CAVOK 22/11 Q1014=
201808140000 METAR LRIA 140000Z 21004KT CAVOK 22/11 Q1014=
201808140030 METAR LRIA 140030Z 20004KT CAVOK 21/11 Q1014=
201808140100 METAR LRIA 140100Z VRB02KT CAVOK 21/11 Q1014=
201808140130 METAR LRIA 140130Z 20003KT 170V230 CAVOK 21/11 Q1014=
201808140200 METAR LRIA 140200Z 00000KT CAVOK 21/11 Q1014=
201808140230 METAR LRIA 140230Z 08005KT CAVOK 19/12 Q1014=
201808140300 METAR LRIA 140300Z 08005KT CAVOK 18/11 Q1014=
201808140330 METAR LRIA 140330Z 09006KT CAVOK 18/12 Q1014=
201808140400 METAR LRIA 140400Z 09008KT CAVOK 18/12 Q1014=
201808140430 METAR LRIA 140430Z 10006KT CAVOK 19/12 Q1014=
201808140500 METAR LRIA 140500Z 10005KT CAVOK 20/12 Q1014=
201808140530 METAR LRIA 140530Z 10006KT CAVOK 21/12 Q1014=
201808140600 METAR LRIA 140600Z 11007KT CAVOK 22/13 Q1014=
201808140630 METAR LRIA 140630Z 11007KT CAVOK 23/13 Q1014=
201808140700 METAR LRIA 140700Z 11008KT CAVOK 24/14 Q1014=
201808140730 METAR LRIA 140730Z 11006KT CAVOK 26/14 Q1015=
201808140800 METAR LRIA 140800Z 15004KT 120V190 CAVOK 27/16 Q1015=
201808140830 METAR LRIA 140830Z 19009KT CAVOK 28/12 Q1015=
201808140900 METAR LRIA 140900Z 15011KT CAVOK 29/11 Q1014=
201808140930 METAR LRIA 140930Z 19009KT 160V220 CAVOK 29/09 Q1014=
201808141000 METAR LRIA 141000Z 16009KT CAVOK 30/12 Q1014=
201808141030 METAR LRIA 141030Z 17011KT CAVOK 30/10 Q1014=
201808141100 METAR LRIA 141100Z 20009KT 170V240 CAVOK 31/09 Q1014=
201808141130 METAR LRIA 141130Z 18008KT 140V220 CAVOK 31/09 Q1014=
201808141200 METAR LRIA 141200Z 17008KT 130V220 CAVOK 31/09 Q1014=
201808141230 METAR LRIA 141230Z 17009KT CAVOK 31/07 Q1013=
201808141300 METAR LRIA 141300Z 16008KT CAVOK 31/09 Q1013=
201808141330 METAR LRIA 141330Z 17009KT 140V200 CAVOK 31/07 Q1013=
201808141400 METAR LRIA 141400Z 15008KT 120V180 CAVOK 31/09 Q1013=
201808141430 METAR LRIA 141430Z 15010KT CAVOK 30/06 Q1013=
201808141500 METAR LRIA 141500Z 15010KT CAVOK 30/07 Q1012=
201808141530 METAR LRIA 141530Z 14009KT CAVOK 29/09 Q1012=
201808141600 METAR LRIA 141600Z 15006KT CAVOK 28/12 Q1012=
201808141630 METAR LRIA 141630Z 14008KT CAVOK 27/10 Q1012=
201808141700 METAR LRIA 141700Z 14007KT CAVOK 25/11 Q1012=
201808141730 METAR LRIA 141730Z 13008KT CAVOK 26/10 Q1013=
201808141800 METAR LRIA 141800Z 12007KT CAVOK 25/10 Q1013=
201808141830 METAR LRIA 141830Z 12007KT CAVOK 25/11 Q1013=
201808141900 METAR LRIA 141900Z 13006KT CAVOK 24/10 Q1013=
201808141930 METAR LRIA 141930Z 12007KT CAVOK 24/10 Q1013=
201808142000 METAR LRIA 142000Z 14007KT 100V170 CAVOK 24/10 Q1013=
201808142030 METAR LRIA 142030Z 12006KT CAVOK 23/11 Q1013=
201808142100 METAR LRIA 142100Z 13007KT CAVOK 23/11 Q1013=
201808142130 METAR LRIA 142130Z 13005KT CAVOK 23/11 Q1013=
201808142200 METAR LRIA 142200Z 16005KT CAVOK 23/11 Q1013=
201808142230 METAR LRIA 142230Z 18005KT CAVOK 22/12 Q1013=
201808142300 METAR LRIA 142300Z 17005KT CAVOK 22/12 Q1013=
201808142330 METAR LRIA 142330Z 17005KT CAVOK 22/11 Q1013=
201808150000 METAR LRIA 150000Z 17008KT CAVOK 22/11 Q1013=
201808150030 METAR LRIA 150030Z 17006KT CAVOK 22/11 Q1013=
201808150100 METAR LRIA 150100Z 18005KT CAVOK 21/12 Q1013=
201808150130 METAR LRIA 150130Z 17006KT CAVOK 21/12 Q1013=
201808150200 METAR LRIA 150200Z 13004KT 060V170 CAVOK 20/12 Q1013=
201808150230 METAR LRIA 150230Z 11002KT CAVOK 21/12 Q1013=
201808150300 METAR LRIA 150300Z 12003KT CAVOK 20/12 Q1013=
201808150330 METAR LRIA 150330Z 10004KT CAVOK 20/12 Q1013=
201808150400 METAR LRIA 150400Z 09004KT CAVOK 19/12 Q1013=
201808150430 METAR LRIA 150430Z 07003KT CAVOK 20/13 Q1013=
201808150500 METAR LRIA 150500Z 02001KT CAVOK 22/14 Q1014=
201808150530 METAR LRIA 150530Z VRB01KT CAVOK 24/13 Q1014=
201808150600 METAR LRIA 150600Z VRB02KT CAVOK 25/13 Q1014=
201808150630 METAR LRIA 150630Z 17004KT 130V210 CAVOK 25/14 Q1014=
201808150700 METAR LRIA 150700Z 16004KT 140V210 CAVOK 26/15 Q1014=
201808150730 METAR LRIA 150730Z 18004KT 140V230 CAVOK 27/13 Q1014=
201808150800 METAR LRIA 150800Z 15004KT 130V190 CAVOK 28/15 Q1014=
201808150830 METAR LRIA 150830Z 20005KT 160V250 CAVOK 28/14 Q1014=
201808150900 METAR LRIA 150900Z 21007KT CAVOK 29/14 Q1014=
201808150930 METAR LRIA 150930Z 19008KT CAVOK 30/13 Q1014=
201808151000 METAR LRIA 151000Z 20007KT 160V240 CAVOK 30/13 Q1014=
201808151030 METAR LRIA 151030Z 20005KT 160V250 CAVOK 31/12 Q1014=
201808151100 METAR LRIA 151100Z 21004KT 170V250 CAVOK 31/12 Q1014=
201808151130 METAR LRIA 151130Z 20006KT 130V270 CAVOK 32/10 Q1014=
201808151200 METAR LRIA 151200Z 20006KT 140V230 CAVOK 32/09 Q1013=
201808151230 METAR LRIA 151230Z 19005KT 100V260 CAVOK 32/09 Q1013=
201808151300 METAR LRIA 151300Z 15005KT 120V240 CAVOK 32/09 Q1013=
201808151330 METAR LRIA 151330Z 17007KT 140V220 CAVOK 32/08 Q1013=
201808151400 METAR LRIA 151400Z 21005KT 180V250 CAVOK 32/08 Q1013=
201808151430 METAR LRIA 151430Z 18004KT 150V220 CAVOK 32/08 Q1013=
201808151500 METAR LRIA 151500Z 20003KT 150V250 CAVOK 32/09 Q1013=
201808151530 METAR LRIA 151530Z 19005KT CAVOK 31/08 Q1013=
201808151600 METAR LRIA 151600Z 17005KT CAVOK 29/08 Q1013=
201808151630 METAR LRIA 151630Z 15004KT CAVOK 29/08 Q1014=
201808151700 METAR LRIA 151700Z 18003KT CAVOK 28/07 Q1014=
201808151730 METAR LRIA 151730Z 25002KT 200V270 CAVOK 27/09 Q1014=
201808151800 METAR LRIA 151800Z 23003KT 200V260 CAVOK 26/09 Q1014=
201808151830 METAR LRIA 151830Z 31012KT CAVOK 23/17 Q1015=
201808151900 METAR LRIA 151900Z 32009KT CAVOK 23/18 Q1015=
201808151930 METAR LRIA 151930Z 33009KT CAVOK 23/17 Q1015=
201808152000 METAR LRIA 152000Z 24005KT CAVOK 21/17 Q1015=
201808152030 METAR LRIA 152030Z 26005KT 220V290 CAVOK 21/17 Q1016=
201808152100 METAR LRIA 152100Z 29006KT CAVOK 21/17 Q1016=
201808152130 METAR LRIA 152130Z 28006KT CAVOK 20/17 Q1016=
201808152200 METAR LRIA 152200Z 28006KT CAVOK 20/17 Q1016=
201808152230 METAR COR LRIA 152230Z 29007KT CAVOK 19/17 Q1016=
201808152300 METAR COR LRIA 152300Z 29007KT CAVOK 19/16 Q1016=
201808152330 METAR COR LRIA 152330Z 28006KT CAVOK 18/16 Q1016=
201808160000 METAR LRIA 160000Z AUTO 30007KT 9999 NCD 19/16 Q1016=
201808160030 METAR LRIA 160030Z AUTO 29006KT 9999 NCD 18/16 Q1016=
201808160100 METAR LRIA 160100Z 29005KT CAVOK 18/16 Q1016=
201808160130 METAR COR LRIA 160130Z 29005KT CAVOK 17/16 Q1016=
201808160200 METAR LRIA 160200Z 28004KT 250V310 CAVOK 17/16 Q1016=
201808160230 METAR LRIA 160230Z 26003KT CAVOK 17/16 Q1016=
201808160300 METAR LRIA 160300Z 28003KT CAVOK 17/16 Q1016=
201808160330 METAR LRIA 160330Z 28005KT CAVOK 17/16 Q1017=
201808160400 METAR LRIA 160400Z 25002KT 210V280 CAVOK 17/17 Q1017=
201808160430 METAR LRIA 160430Z 24002KT 210V270 CAVOK 18/17 Q1017=
201808160500 METAR LRIA 160500Z 28005KT CAVOK 19/17 Q1017=
201808160530 METAR LRIA 160530Z 30006KT 9999 FEW010 20/17 Q1017=
201808160600 METAR LRIA 160600Z 29006KT 9999 FEW010 21/18 Q1017=
201808160630 METAR LRIA 160630Z 30007KT 9999 FEW015 21/17 Q1017=
201808160700 METAR LRIA 160700Z 32006KT 280V350 CAVOK 23/18 Q1017=
201808160730 METAR LRIA 160730Z 32007KT 290V360 CAVOK 23/18 Q1017=
201808160800 METAR LRIA 160800Z 34007KT CAVOK 24/19 Q1017=
201808160830 METAR LRIA 160830Z 32007KT 290V350 CAVOK 25/19 Q1017=
201808160900 METAR LRIA 160900Z 31005KT 260V350 CAVOK 26/19 Q1017=
201808160930 METAR LRIA 160930Z 31006KT 280V350 CAVOK 27/19 Q1017=
201808161000 METAR LRIA 161000Z 30007KT 280V340 CAVOK 27/19 Q1016=
201808161030 METAR LRIA 161030Z 32006KT 280V340 CAVOK 28/19 Q1016=
201808161100 METAR LRIA 161100Z 33006KT 290V360 CAVOK 28/18 Q1016=
201808161130 METAR LRIA 161130Z 33006KT 300V360 9999 FEW035 28/18 Q1016=
201808161200 METAR LRIA 161200Z 32006KT 260V010 9999 FEW035 29/18 Q1016=
201808161230 METAR LRIA 161230Z 31007KT 9999 FEW040 FEW040TCU 29/18 Q1016=
201808161300 METAR LRIA 161300Z 33007KT 9999 FEW040 FEW040CB 29/18 Q1015=
201808161330 METAR LRIA 161330Z 32008KT 9999 FEW040 FEW040CB 29/17 Q1015=
201808161400 METAR LRIA 161400Z 32007KT 290V360 9999 FEW045 FEW045CB 29/17
                        Q1015=
201808161430 METAR COR LRIA 161430Z 32007KT 9999 FEW048 FEW048CB 30/16
                        Q1015=
201808161500 METAR LRIA 161500Z 33006KT 9999 FEW050CB 29/17 Q1015=
201808161530 METAR LRIA 161530Z 32007KT 9999 FEW050TCU 29/17 Q1015=
201808161600 METAR LRIA 161600Z 32007KT CAVOK 28/17 Q1015=
201808161630 METAR LRIA 161630Z 32007KT CAVOK 27/17 Q1015=
201808161700 METAR LRIA 161700Z 32009KT CAVOK 26/18 Q1015=
201808161730 METAR LRIA 161730Z 32011KT CAVOK 25/18 Q1015=
201808161800 METAR LRIA 161800Z 32013KT CAVOK 25/17 Q1016=
201808161830 METAR LRIA 161830Z 32011KT CAVOK 24/17 Q1016=
201808161900 METAR LRIA 161900Z 30011KT CAVOK 23/17 Q1016=
201808161930 METAR LRIA 161930Z 31010KT CAVOK 23/18 Q1016=
201808162000 METAR LRIA 162000Z 29008KT CAVOK 22/18 Q1016=
201808162030 METAR LRIA 162030Z 29008KT CAVOK 22/18 Q1016=
201808162100 METAR LRIA 162100Z 29007KT CAVOK 21/18 Q1016=
201808162130 METAR LRIA 162130Z 30009KT CAVOK 21/18 Q1016=
201808162200 METAR LRIA 162200Z 29007KT CAVOK 21/18 Q1016=
201808162230 METAR LRIA 162230Z 28005KT CAVOK 20/18 Q1016=
201808162300 METAR LRIA 162300Z 31008KT CAVOK 21/18 Q1016=
201808162330 METAR LRIA 162330Z 33007KT CAVOK 20/18 Q1016=
201808170000 METAR LRIA 170000Z 32006KT CAVOK 20/18 Q1016=
201808170030 METAR LRIA 170030Z 31002KT CAVOK 20/18 Q1016=
201808170100 METAR LRIA 170100Z 27004KT 250V310 CAVOK 20/18 Q1016=
201808170130 METAR LRIA 170130Z 28003KT 240V320 CAVOK 20/18 Q1016=
201808170200 METAR LRIA 170200Z 25004KT CAVOK 19/18 Q1016=
201808170230 METAR LRIA 170230Z 26003KT 230V300 CAVOK 19/17 Q1016=
201808170300 METAR LRIA 170300Z 27004KT CAVOK 19/18 Q1016=
201808170330 METAR LRIA 170330Z 25003KT CAVOK 19/17 Q1017=
201808170400 METAR LRIA 170400Z 25003KT CAVOK 19/18 Q1017=
201808170430 METAR LRIA 170430Z VRB01KT CAVOK 19/18 Q1017=
201808170500 METAR LRIA 170500Z 30004KT 260V320 CAVOK 20/18 Q1017=
201808170530 METAR LRIA 170530Z 30004KT 260V340 CAVOK 21/18 Q1017=
201808170600 METAR LRIA 170600Z 32006KT 290V350 CAVOK 22/18 Q1017=
201808170630 METAR LRIA 170630Z 32007KT CAVOK 23/18 Q1017=
201808170700 METAR LRIA 170700Z 33008KT CAVOK 24/18 Q1017=
201808170730 METAR LRIA 170730Z 33007KT CAVOK 25/17 Q1017=
201808170800 METAR LRIA 170800Z 34008KT 300V360 CAVOK 25/15 Q1017=
201808170830 METAR LRIA 170830Z 33007KT 290V010 CAVOK 26/16 Q1017=
201808170900 METAR LRIA 170900Z 32007KT 290V350 CAVOK 27/17 Q1017=
201808170930 METAR LRIA 170930Z 33007KT 310V010 CAVOK 27/17 Q1016=
201808171000 METAR LRIA 171000Z 36005KT 330V040 CAVOK 28/16 Q1016=
201808171030 METAR LRIA 171030Z 34005KT 290V020 CAVOK 29/16 Q1016=
201808171100 METAR LRIA 171100Z 03007KT 360V060 CAVOK 29/15 Q1016=
201808171130 METAR LRIA 171130Z 35005KT 300V040 CAVOK 30/15 Q1016=
201808171200 METAR LRIA 171200Z 04007KT 360V060 CAVOK 30/14 Q1016=
201808171230 METAR LRIA 171230Z 02007KT 330V040 CAVOK 30/14 Q1015=
201808171300 METAR LRIA 171300Z 02007KT 350V050 CAVOK 31/15 Q1015=
201808171330 METAR LRIA 171330Z 03008KT CAVOK 31/14 Q1015=
201808171400 METAR LRIA 171400Z 04009KT CAVOK 31/13 Q1015=
201808171430 METAR LRIA 171430Z 04008KT 9999 FEW060CB 31/13 Q1015=
201808171500 METAR LRIA 171500Z 36004KT 9999 FEW060TCU 30/15 Q1015=
201808171530 METAR LRIA 171530Z 36004KT 9999 FEW060TCU 29/16 Q1015=
201808171600 METAR LRIA 171600Z 35004KT CAVOK 28/18 Q1015=
201808171630 METAR LRIA 171630Z 31010KT 9999 FEW050CB 26/17 Q1015=
201808171700 METAR LRIA 171700Z 32009KT 9999 FEW050CB 25/17 Q1015=
201808171730 METAR LRIA 171730Z 33008KT 9999 FEW050CB 24/17 Q1015=
201808171800 METAR LRIA 171800Z 34007KT 9999 FEW050CB 23/17 Q1015=
201808171830 METAR LRIA 171830Z 31005KT 9999 FEW050CB 23/17 Q1016=
201808171900 METAR LRIA 171900Z 25004KT 9999 FEW050CB 22/17 Q1016=
201808171930 METAR LRIA 171930Z 28004KT 9999 FEW050CB 23/17 Q1016=
201808172000 METAR LRIA 172000Z 22003KT 180V300 CAVOK 22/17 Q1016=
201808172030 METAR LRIA 172030Z 28005KT CAVOK 21/17 Q1016=
201808172100 METAR LRIA 172100Z 31004KT CAVOK 21/17 Q1016=
201808172130 METAR LRIA 172130Z 29005KT CAVOK 20/17 Q1016=
201808172200 METAR LRIA 172200Z AUTO 29003KT 9999 NCD 20/17 Q1016=
201808172230 METAR LRIA 172230Z 24004KT CAVOK 20/17 Q1016=
201808172300 METAR LRIA 172300Z 27005KT CAVOK 20/17 Q1016=
201808172330 METAR LRIA 172330Z 27006KT CAVOK 20/17 Q1016=
201808180000 METAR LRIA 180000Z 26004KT CAVOK 19/17 Q1016=
201808180030 METAR LRIA 180030Z 26005KT CAVOK 19/17 Q1016=
201808180100 METAR COR LRIA 180100Z VRB02KT CAVOK 19/17 Q1016=
201808180130 METAR LRIA 180130Z 27004KT CAVOK 19/17 Q1016=
201808180200 METAR LRIA 180200Z 22003KT CAVOK 19/17 Q1016=
201808180230 METAR LRIA 180230Z 24004KT 210V270 CAVOK 19/17 Q1016=
201808180300 METAR LRIA 180300Z 26006KT CAVOK 18/17 Q1016=
201808180330 METAR LRIA 180330Z 25004KT 220V280 CAVOK 19/17 Q1016=
201808180400 METAR LRIA 180400Z 28005KT CAVOK 19/17 Q1017=
201808180430 METAR LRIA 180430Z 27004KT 230V290 CAVOK 19/17 Q1017=
201808180500 METAR LRIA 180500Z 24003KT 190V260 CAVOK 20/17 Q1017=
201808180530 METAR LRIA 180530Z 23003KT CAVOK 20/17 Q1017=
201808180600 METAR LRIA 180600Z 25003KT CAVOK 20/17 Q1017=
201808180630 METAR LRIA 180630Z 23004KT 190V270 CAVOK 21/17 Q1017=
201808180700 METAR COR LRIA 180700Z 25005KT CAVOK 22/18 Q1018=
201808180730 METAR LRIA 180730Z 26004KT 230V290 CAVOK 23/18 Q1018=
201808180800 METAR LRIA 180800Z 24004KT 200V290 CAVOK 24/18 Q1018=
201808180830 METAR LRIA 180830Z 25004KT 210V300 CAVOK 25/18 Q1018=
201808180900 METAR LRIA 180900Z 28006KT 250V330 CAVOK 27/18 Q1018=
201808180930 METAR LRIA 180930Z 29006KT CAVOK 27/18 Q1017=
201808181000 METAR LRIA 181000Z 29007KT CAVOK 27/18 Q1018=
201808181030 METAR LRIA 181030Z 32005KT 300V010 CAVOK 28/17 Q1017=
201808181100 METAR LRIA 181100Z 30004KT 250V010 CAVOK 29/18 Q1018=
201808181130 METAR LRIA 181130Z 34003KT 280V050 CAVOK 30/17 Q1017=
201808181200 METAR LRIA 181200Z 33004KT CAVOK 30/16 Q1017=
201808181230 METAR COR LRIA 181230Z VRB05KT CAVOK 30/16 Q1017=
201808181300 METAR LRIA 181300Z 03005KT 350V060 CAVOK 30/13 Q1016=
201808181330 METAR LRIA 181330Z 36004KT 300V050 CAVOK 31/13 Q1016=
201808181400 METAR LRIA 181400Z 30004KT CAVOK 31/14 Q1016=
201808181430 METAR LRIA 181430Z 32005KT CAVOK 30/14 Q1016=
201808181500 METAR COR LRIA 181500Z 31003KT 280V340 CAVOK 30/13 Q1016=
201808181530 METAR LRIA 181530Z 29004KT 260V320 CAVOK 30/14 Q1016=
201808181600 METAR LRIA 181600Z 30003KT CAVOK 29/16 Q1017=
201808181630 METAR LRIA 181630Z 31005KT CAVOK 28/17 Q1017=
201808181700 METAR LRIA 181700Z 32004KT 9999 FEW050CB 27/14 Q1017=
201808181730 METAR LRIA 181730Z 35006KT 9999 FEW050TCU 27/15 Q1017=
201808181800 METAR LRIA 181800Z 34007KT CAVOK 24/16 Q1017=
201808181830 METAR LRIA 181830Z 35006KT CAVOK 24/17 Q1018=
201808181900 METAR LRIA 181900Z 28004KT CAVOK 22/18 Q1017=
201808181930 METAR LRIA 181930Z 20005KT 120V250 CAVOK 23/17 Q1018=
201808182000 METAR LRIA 182000Z 27003KT CAVOK 23/17 Q1018=
201808182030 METAR LRIA 182030Z 23004KT CAVOK 24/16 Q1018=
201808182100 METAR LRIA 182100Z 29003KT 250V310 CAVOK 24/16 Q1018=
201808182130 METAR LRIA 182130Z 28004KT CAVOK 23/17 Q1018=
201808182200 METAR LRIA 182200Z 29007KT CAVOK 23/17 Q1018=
201808182230 METAR LRIA 182230Z 32006KT CAVOK 22/18 Q1018=
201808182300 METAR LRIA 182300Z 30006KT CAVOK 22/18 Q1018=
201808182330 METAR LRIA 182330Z 23004KT CAVOK 21/18 Q1018=
201808190000 METAR LRIA 190000Z 26003KT CAVOK 20/18 Q1018=
201808190030 METAR LRIA 190030Z 30007KT CAVOK 21/17 Q1018=
201808190100 METAR LRIA 190100Z 28006KT CAVOK 21/17 Q1018=
201808190130 METAR LRIA 190130Z AUTO 25004KT 170V300 9999 NCD 20/17 Q1018=
201808190200 METAR LRIA 190200Z 21004KT 170V240 CAVOK 19/17 Q1018=
201808190230 METAR LRIA 190230Z 24004KT 190V270 CAVOK 19/17 Q1018=
201808190300 METAR LRIA 190300Z 28004KT CAVOK 19/17 Q1018=
201808190330 METAR LRIA 190330Z 26004KT CAVOK 19/17 Q1018=
201808190400 METAR LRIA 190400Z 23005KT 190V270 CAVOK 19/17 Q1018=
201808190430 METAR LRIA 190430Z 29004KT 250V330 CAVOK 20/17 Q1019=
201808190500 METAR LRIA 190500Z 22003KT 180V260 CAVOK 21/17 Q1019=
201808190530 METAR LRIA 190530Z 28006KT CAVOK 21/18 Q1019=
201808190600 METAR LRIA 190600Z 29005KT 250V330 CAVOK 22/18 Q1019=
201808190630 METAR LRIA 190630Z 31005KT 280V340 CAVOK 23/18 Q1019=
201808190700 METAR LRIA 190700Z 28005KT 240V320 CAVOK 24/18 Q1019=
201808190730 METAR LRIA 190730Z 28006KT 220V310 CAVOK 25/18 Q1019=
201808190800 METAR LRIA 190800Z 29006KT 250V340 CAVOK 26/19 Q1019=
201808190830 METAR LRIA 190830Z 32006KT 250V350 CAVOK 28/20 Q1019=
201808190900 METAR LRIA 190900Z AUTO 34007KT 9999 NCD 28/18 Q1019=
201808190930 METAR LRIA 190930Z 31006KT 270V330 CAVOK 27/18 Q1019=
201808191000 METAR LRIA 191000Z 33006KT 9999 FEW042 29/16 Q1019=
201808191030 METAR LRIA 191030Z 33008KT 290V360 9999 FEW045TCU 30/16 Q1018=
201808191100 METAR LRIA 191100Z 32009KT 9999 FEW045CB 30/16 Q1018=
201808191130 METAR LRIA 191130Z 33008KT 290V360 9999 FEW045CB 30/15 Q1018=
201808191200 METAR LRIA 191200Z 31008KT 280V340 9999 FEW045CB 31/15 Q1018=
201808191230 METAR LRIA 191230Z 32008KT 290V360 9999 FEW045CB 30/15 Q1018=
201808191300 METAR LRIA 191300Z 31007KT 9999 FEW045CB 30/14 Q1017=
201808191330 METAR LRIA 191330Z 32007KT 280V360 9999 FEW045CB 30/14 Q1017=
201808191400 METAR LRIA 191400Z 32006KT 9999 FEW045CB 29/16 Q1017=
201808191430 METAR LRIA 191430Z 30008KT 9999 FEW045CB 28/16 Q1017=
201808191500 METAR LRIA 191500Z 30006KT 9999 FEW045CB 28/17 Q1017=
201808191530 METAR LRIA 191530Z 30006KT 9999 FEW045CB 29/16 Q1017=
201808191600 METAR LRIA 191600Z 31005KT 9999 FEW045CB 28/17 Q1017=
201808191630 METAR LRIA 191630Z VRB02KT 9999 FEW045CB 28/16 Q1018=
201808191700 METAR LRIA 191700Z 09007KT 070V140 9999 VCTS FEW045CB 26/16
                        Q1018=
201808191730 METAR LRIA 191730Z 09004KT 9999 FEW045CB 25/16 Q1018=
201808191800 METAR LRIA 191800Z VRB01KT 9999 FEW045CB 23/16 Q1018=
201808191830 METAR LRIA 191830Z 25004KT 9999 FEW045CB 23/16 Q1018=
201808191900 METAR LRIA 191900Z 27005KT CAVOK 23/16 Q1018=
201808191930 METAR LRIA 191930Z 26004KT CAVOK 23/16 Q1018=
201808192000 METAR LRIA 192000Z 26004KT CAVOK 22/16 Q1018=
201808192030 METAR COR LRIA 192030Z 29003KT 270V340 CAVOK 22/16 Q1018=
201808192100 METAR LRIA 192100Z VRB01KT CAVOK 21/17 Q1018=
201808192130 METAR LRIA 192130Z 28002KT CAVOK 20/17 Q1017=
201808192200 METAR LRIA 192200Z 28003KT CAVOK 20/17 Q1017=
201808192230 METAR LRIA 192230Z 30003KT CAVOK 19/17 Q1017=
201808192300 METAR LRIA 192300Z 27004KT CAVOK 19/17 Q1017=
201808192330 METAR LRIA 192330Z 25003KT CAVOK 19/17 Q1017=
201808200000 METAR LRIA 200000Z AUTO 28004KT 9999 NCD 19/17 Q1017=
201808200030 METAR LRIA 200030Z 27003KT CAVOK 19/17 Q1017=
201808200100 METAR LRIA 200100Z 28003KT CAVOK 19/17 Q1017=
201808200130 METAR LRIA 200130Z 26003KT CAVOK 18/17 Q1017=
201808200200 METAR LRIA 200200Z 27004KT CAVOK 18/17 Q1017=
201808200230 METAR LRIA 200230Z 27004KT CAVOK 18/17 Q1017=
201808200300 METAR COR LRIA 200300Z 27004KT CAVOK 18/17 Q1017=
201808200330 METAR COR LRIA 200330Z 27004KT CAVOK 18/17 Q1018=
201808200400 METAR LRIA 200400Z 25003KT CAVOK 18/17 Q1018=
201808200430 METAR LRIA 200430Z 26003KT CAVOK 18/17 Q1018=
201808200500 METAR LRIA 200500Z 26003KT 220V280 CAVOK 19/17 Q1018=
201808200530 METAR LRIA 200530Z 26004KT CAVOK 20/17 Q1018=
201808200600 METAR LRIA 200600Z 27005KT 240V300 CAVOK 21/18 Q1018=
201808200630 METAR LRIA 200630Z 28004KT 240V320 CAVOK 22/18 Q1018=
201808200700 METAR LRIA 200700Z 26004KT 230V330 CAVOK 24/19 Q1018=
201808200730 METAR LRIA 200730Z 28004KT 240V320 CAVOK 25/18 Q1018=
201808200800 METAR LRIA 200800Z 29004KT 230V340 CAVOK 26/18 Q1018=
201808200830 METAR LRIA 200830Z 29003KT 240V350 CAVOK 27/18 Q1018=
201808200900 METAR LRIA 200900Z 30005KT 260V340 CAVOK 27/18 Q1017=
201808200930 METAR LRIA 200930Z VRB03KT CAVOK 28/17 Q1017=
201808201000 METAR LRIA 201000Z 34006KT 310V010 9999 FEW048 28/16 Q1017=
201808201030 METAR LRIA 201030Z 32005KT 280V040 9999 FEW048 29/16 Q1017=
201808201100 METAR LRIA 201100Z 30004KT 240V020 9999 FEW048 29/15 Q1017=
201808201130 METAR LRIA 201130Z 28005KT 240V320 9999 FEW048 29/14 Q1017=
201808201200 METAR LRIA 201200Z 30006KT 9999 FEW048 30/15 Q1016=
201808201230 METAR LRIA 201230Z 32005KT 260V020 9999 FEW048 30/13 Q1016=
201808201300 METAR LRIA 201300Z VRB04KT 9999 FEW048 30/14 Q1016=
201808201330 METAR LRIA 201330Z 32004KT 260V010 9999 FEW050TCU 30/15 Q1015=
201808201400 METAR LRIA 201400Z 32004KT 280V360 9999 FEW050TCU 30/14 Q1015=
201808201430 METAR LRIA 201430Z 05003KT 330V080 9999 FEW050TCU 30/14 Q1015=
201808201500 METAR LRIA 201500Z VRB03KT 9999 FEW050TCU 30/13 Q1015=
201808201530 METAR LRIA 201530Z 35002KT CAVOK 30/15 Q1015=
201808201600 METAR LRIA 201600Z 31003KT CAVOK 29/17 Q1015=
201808201630 METAR LRIA 201630Z 29003KT CAVOK 28/16 Q1015=
201808201700 METAR LRIA 201700Z 31004KT CAVOK 27/15 Q1015=
201808201730 METAR LRIA 201730Z 32004KT CAVOK 26/15 Q1015=
201808201800 METAR LRIA 201800Z 33004KT CAVOK 26/16 Q1015=
201808201830 METAR LRIA 201830Z 32004KT CAVOK 24/15 Q1015=
201808201900 METAR LRIA 201900Z 25003KT CAVOK 23/18 Q1015=
201808201930 METAR LRIA 201930Z 27002KT CAVOK 24/16 Q1015=
201808202000 METAR LRIA 202000Z 00000KT CAVOK 23/17 Q1015=
201808202030 METAR LRIA 202030Z 22002KT CAVOK 23/17 Q1015=
201808202100 METAR LRIA 202100Z 25001KT CAVOK 22/17 Q1015=
201808202130 METAR LRIA 202130Z 27002KT CAVOK 22/17 Q1015=
201808202200 METAR LRIA 202200Z 13006KT CAVOK 20/17 Q1015=
201808202230 METAR LRIA 202230Z 00000KT CAVOK 21/17 Q1015=
201808202300 METAR LRIA 202300Z 26001KT CAVOK 21/16 Q1015=
201808202330 METAR LRIA 202330Z 22003KT CAVOK 21/16 Q1015=
201808210000 METAR LRIA 210000Z 26003KT CAVOK 21/16 Q1015=
201808210030 METAR LRIA 210030Z 24003KT CAVOK 21/16 Q1015=
201808210100 METAR LRIA 210100Z 24004KT CAVOK 21/16 Q1015=
201808210130 METAR LRIA 210130Z 25003KT CAVOK 20/16 Q1015=
201808210200 METAR LRIA 210200Z 22003KT CAVOK 20/16 Q1015=
201808210230 METAR LRIA 210230Z 00000KT CAVOK 19/16 Q1015=
201808210300 METAR LRIA 210300Z 00000KT CAVOK 19/16 Q1015=
201808210330 METAR LRIA 210330Z 00000KT CAVOK 19/16 Q1015=
201808210400 METAR LRIA 210400Z 00000KT CAVOK 19/16 Q1016=
201808210430 METAR LRIA 210430Z 20002KT CAVOK 20/17 Q1016=
201808210500 METAR LRIA 210500Z 00000KT CAVOK 21/17 Q1016=
201808210530 METAR LRIA 210530Z VRB02KT CAVOK 22/16 Q1016=
201808210600 METAR LRIA 210600Z VRB01KT CAVOK 23/16 Q1016=
201808210630 METAR LRIA 210630Z VRB01KT CAVOK 24/17 Q1016=
201808210700 METAR LRIA 210700Z VRB02KT CAVOK 25/16 Q1016=
201808210730 METAR LRIA 210730Z VRB02KT CAVOK 27/17 Q1016=
201808210800 METAR COR LRIA 210800Z VRB02KT CAVOK 27/17 Q1016=
201808210830 METAR LRIA 210830Z VRB01KT CAVOK 28/16 Q1016=
201808210900 METAR LRIA 210900Z 33003KT 290V020 9999 FEW042 28/17 Q1016=
201808210930 METAR LRIA 210930Z VRB01KT 9999 FEW045 29/17 Q1016=
201808211000 METAR LRIA 211000Z 31003KT 250V350 9999 FEW048 29/17 Q1016=
201808211030 METAR LRIA 211030Z VRB03KT 9999 FEW049 30/16 Q1016=
201808211100 METAR LRIA 211100Z 29005KT 270V340 CAVOK 30/16 Q1016=
201808211130 METAR LRIA 211130Z VRB02KT CAVOK 31/16 Q1015=
201808211200 METAR LRIA 211200Z 25004KT 200V320 CAVOK 31/15 Q1015=
201808211230 METAR LRIA 211230Z VRB03KT CAVOK 31/15 Q1015=
201808211300 METAR LRIA 211300Z 34004KT 270V030 CAVOK 31/14 Q1015=
201808211330 METAR LRIA 211330Z 34005KT 290V030 CAVOK 31/14 Q1015=
201808211400 METAR LRIA 211400Z 33004KT 300V010 CAVOK 31/14 Q1015=
201808211430 METAR LRIA 211430Z 32005KT 280V360 CAVOK 31/15 Q1015=
201808211500 METAR LRIA 211500Z 31006KT 9999 FEW058TCU 30/15 Q1015=
201808211530 METAR LRIA 211530Z 33005KT 9999 FEW058CB 30/14 Q1015=
201808211600 METAR LRIA 211600Z 32005KT 9999 FEW058CB 29/17 Q1015=
201808211630 METAR LRIA 211630Z 32005KT 9999 FEW058CB 28/17 Q1015=
201808211700 METAR LRIA 211700Z 32005KT 9999 FEW055CB 27/17 Q1015=
201808211730 METAR LRIA 211730Z 33006KT 9999 FEW055CB 26/17 Q1015=
201808211800 METAR LRIA 211800Z 32005KT CAVOK 26/17 Q1016=
201808211830 METAR LRIA 211830Z 33008KT CAVOK 25/17 Q1016=
201808211900 METAR LRIA 211900Z 33007KT CAVOK 25/18 Q1016=
201808211930 METAR LRIA 211930Z 33007KT CAVOK 24/17 Q1016=
201808212000 METAR LRIA 212000Z 33008KT CAVOK 24/17 Q1017=
201808212030 METAR LRIA 212030Z 33008KT CAVOK 24/17 Q1017=
201808212100 METAR LRIA 212100Z 30007KT CAVOK 23/17 Q1017=
201808212130 METAR LRIA 212130Z 29003KT CAVOK 22/18 Q1018=
201808212200 METAR LRIA 212200Z 29003KT 260V340 CAVOK 21/17 Q1018=
201808212230 METAR LRIA 212230Z 28002KT 240V320 CAVOK 21/18 Q1018=
201808212300 METAR LRIA 212300Z 31003KT 260V330 CAVOK 21/17 Q1018=
201808212330 METAR LRIA 212330Z 28004KT CAVOK 21/17 Q1018=
201808220000 METAR LRIA 220000Z 30003KT CAVOK 21/17 Q1018=
201808220030 METAR LRIA 220030Z 28003KT CAVOK 21/18 Q1019=
201808220100 METAR LRIA 220100Z 33005KT CAVOK 21/17 Q1019=
201808220130 METAR LRIA 220130Z 33005KT CAVOK 20/17 Q1019=
201808220200 METAR LRIA 220200Z 34008KT CAVOK 19/16 Q1019=
201808220230 METAR LRIA 220230Z 33006KT CAVOK 19/16 Q1019=
201808220300 METAR LRIA 220300Z 32007KT CAVOK 19/16 Q1019=
201808220330 METAR LRIA 220330Z 33005KT CAVOK 19/16 Q1019=
201808220400 METAR LRIA 220400Z 32004KT CAVOK 19/16 Q1019=
201808220430 METAR LRIA 220430Z 27003KT CAVOK 19/17 Q1020=
201808220500 METAR LRIA 220500Z 25003KT 200V330 CAVOK 21/17 Q1020=
201808220530 METAR LRIA 220530Z 28006KT 250V320 CAVOK 21/17 Q1020=
201808220600 METAR LRIA 220600Z 32005KT CAVOK 22/16 Q1020=
201808220630 METAR LRIA 220630Z 32004KT 280V340 CAVOK 23/16 Q1020=
201808220700 METAR LRIA 220700Z 32004KT CAVOK 24/16 Q1020=
201808220730 METAR LRIA 220730Z 29004KT 250V330 CAVOK 25/16 Q1020=
201808220800 METAR LRIA 220800Z 32005KT 260V360 CAVOK 25/16 Q1020=
201808220830 METAR LRIA 220830Z 36005KT 310V030 9999 FEW033 26/16 Q1020=
201808220900 METAR LRIA 220900Z 34006KT 280V020 9999 FEW035 26/15 Q1020=
201808220930 METAR LRIA 220930Z 33005KT 280V030 9999 FEW040 27/15 Q1020=
201808221000 METAR LRIA 221000Z 35008KT 330V030 9999 FEW043 27/14 Q1020=
201808221030 METAR LRIA 221030Z 33006KT 300V010 9999 FEW043 27/15 Q1020=
201808221100 METAR LRIA 221100Z 34009KT 310V040 9999 FEW043 27/14 Q1020=
201808221130 METAR LRIA 221130Z 31006KT 260V010 9999 FEW047 28/15 Q1020=
201808221200 METAR LRIA 221200Z 35008KT 310V020 9999 FEW047 28/14 Q1019=
201808221230 METAR LRIA 221230Z 36006KT 9999 FEW047 28/14 Q1019=
201808221300 METAR LRIA 221300Z 36008KT CAVOK 28/15 Q1019=
201808221330 METAR LRIA 221330Z 01005KT 310V070 CAVOK 28/14 Q1019=
201808221400 METAR LRIA 221400Z 01006KT 320V040 CAVOK 28/14 Q1019=
201808221430 METAR LRIA 221430Z 35007KT 300V030 CAVOK 28/14 Q1019=
201808221500 METAR LRIA 221500Z 33006KT CAVOK 27/14 Q1019=
201808221530 METAR LRIA 221530Z 35007KT 320V030 CAVOK 28/14 Q1019=
201808221600 METAR LRIA 221600Z 01005KT CAVOK 27/15 Q1019=
201808221630 METAR LRIA 221630Z 36005KT CAVOK 26/15 Q1019=
201808221700 METAR LRIA 221700Z 01006KT 360V060 CAVOK 25/14 Q1019=
201808221730 METAR COR LRIA 221730Z 35005KT CAVOK 25/14 Q1020=
201808221800 METAR LRIA 221800Z 02006KT CAVOK 25/14 Q1020=
201808221830 METAR LRIA 221830Z 03006KT CAVOK 24/14 Q1020=
201808221900 METAR LRIA 221900Z 02007KT CAVOK 24/13 Q1020=
201808221930 METAR LRIA 221930Z 04006KT CAVOK 24/13 Q1020=
201808222000 METAR LRIA 222000Z 05006KT CAVOK 23/13 Q1020=
201808222030 METAR LRIA 222030Z 05004KT CAVOK 23/13 Q1020=
201808222100 METAR LRIA 222100Z 07004KT CAVOK 23/13 Q1020=
201808222130 METAR LRIA 222130Z 07005KT CAVOK 22/13 Q1020=
201808222200 METAR LRIA 222200Z 06004KT CAVOK 22/13 Q1020=
201808222230 METAR LRIA 222230Z 07005KT CAVOK 22/13 Q1020=
201808222300 METAR LRIA 222300Z 08004KT CAVOK 23/13 Q1020=
201808222330 METAR LRIA 222330Z 08004KT CAVOK 23/13 Q1020=
201808230000 METAR LRIA 230000Z 05004KT CAVOK 22/13 Q1020=
201808230030 METAR LRIA 230030Z 07004KT CAVOK 22/12 Q1020=
201808230100 METAR LRIA 230100Z 04004KT CAVOK 22/13 Q1020=
201808230130 METAR LRIA 230130Z 08005KT CAVOK 21/13 Q1020=
201808230200 METAR LRIA 230200Z 08006KT CAVOK 21/13 Q1020=
201808230230 METAR LRIA 230230Z 10006KT CAVOK 21/13 Q1020=
201808230300 METAR LRIA 230300Z 10006KT CAVOK 21/13 Q1020=
201808230330 METAR LRIA 230330Z 10007KT CAVOK 20/13 Q1020=
201808230400 METAR LRIA 230400Z 09008KT CAVOK 20/12 Q1020=
201808230430 METAR LRIA 230430Z 10009KT CAVOK 21/11 Q1020=
201808230500 METAR LRIA 230500Z 11008KT CAVOK 21/11 Q1020=
201808230530 METAR LRIA 230530Z 12008KT CAVOK 21/11 Q1020=
201808230600 METAR LRIA 230600Z 11009KT CAVOK 21/10 Q1020=
201808230630 METAR LRIA 230630Z 11011KT CAVOK 22/10 Q1020=
201808230700 METAR LRIA 230700Z 11010KT CAVOK 22/11 Q1020=
201808230730 METAR LRIA 230730Z 12011KT CAVOK 23/10 Q1020=
201808230800 METAR LRIA 230800Z 11009KT CAVOK 23/11 Q1020=
201808230830 METAR LRIA 230830Z 11011KT CAVOK 24/10 Q1020=
201808230900 METAR LRIA 230900Z 12010KT CAVOK 24/09 Q1020=
201808230930 METAR LRIA 230930Z 12011KT CAVOK 26/10 Q1020=
201808231000 METAR LRIA 231000Z 12009KT CAVOK 27/09 Q1020=
201808231030 METAR LRIA 231030Z 12010KT CAVOK 26/09 Q1019=
201808231100 METAR LRIA 231100Z 11010KT CAVOK 27/09 Q1019=
201808231130 METAR LRIA 231130Z 13008KT 110V170 CAVOK 28/10 Q1019=
201808231200 METAR LRIA 231200Z 13008KT 100V160 CAVOK 28/10 Q1018=
201808231230 METAR LRIA 231230Z 11008KT 080V140 CAVOK 28/09 Q1018=
201808231300 METAR LRIA 231300Z 12009KT CAVOK 28/10 Q1018=
201808231330 METAR LRIA 231330Z 11010KT CAVOK 28/10 Q1018=
201808231400 METAR LRIA 231400Z 11008KT CAVOK 28/11 Q1017=
201808231430 METAR LRIA 231430Z 11006KT CAVOK 27/11 Q1017=
201808231500 METAR LRIA 231500Z 10007KT CAVOK 28/11 Q1017=
201808231530 METAR LRIA 231530Z 12007KT CAVOK 28/11 Q1017=
201808231600 METAR LRIA 231600Z 12007KT CAVOK 27/11 Q1017=
201808231630 METAR LRIA 231630Z 11006KT CAVOK 26/12 Q1017=
201808231700 METAR LRIA 231700Z 10007KT CAVOK 25/12 Q1017=
201808231730 METAR LRIA 231730Z 11006KT CAVOK 24/12 Q1017=
201808231800 METAR LRIA 231800Z 10006KT CAVOK 23/12 Q1017=
201808231830 METAR LRIA 231830Z 10006KT CAVOK 23/12 Q1017=
201808231900 METAR LRIA 231900Z 08007KT CAVOK 22/12 Q1017=
201808231930 METAR LRIA 231930Z 08007KT CAVOK 22/12 Q1017=
201808232000 METAR LRIA 232000Z 09007KT CAVOK 22/11 Q1017=
201808232030 METAR LRIA 232030Z 09007KT CAVOK 22/10 Q1017=
201808232100 METAR LRIA 232100Z 09007KT CAVOK 21/11 Q1017=
201808232130 METAR LRIA 232130Z 09007KT CAVOK 21/10 Q1017=
201808232200 METAR LRIA 232200Z 10007KT CAVOK 21/10 Q1017=
201808232230 METAR LRIA 232230Z 11005KT CAVOK 20/10 Q1017=
201808232300 METAR LRIA 232300Z 13003KT CAVOK 20/10 Q1017=
201808232330 METAR LRIA 232330Z AUTO 11004KT 9999 NCD 20/10 Q1017=
201808240000 METAR LRIA 240000Z 11003KT 070V170 CAVOK 20/10 Q1017=
201808240030 METAR LRIA 240030Z 08004KT CAVOK 19/10 Q1017=
201808240100 METAR LRIA 240100Z 08006KT CAVOK 18/10 Q1017=
201808240130 METAR LRIA 240130Z 09006KT CAVOK 18/10 Q1017=
201808240200 METAR LRIA 240200Z 08007KT CAVOK 18/10 Q1016=
201808240230 METAR LRIA 240230Z 09007KT CAVOK 17/10 Q1016=
201808240300 METAR LRIA 240300Z 10008KT CAVOK 18/09 Q1016=
201808240330 METAR LRIA 240330Z 09006KT CAVOK 17/09 Q1016=
201808240400 METAR LRIA 240400Z 10006KT CAVOK 18/10 Q1016=
201808240430 METAR LRIA 240430Z 10005KT CAVOK 18/10 Q1016=
201808240500 METAR LRIA 240500Z 10005KT CAVOK 19/10 Q1016=
201808240530 METAR LRIA 240530Z 11004KT CAVOK 20/10 Q1016=
201808240600 METAR LRIA 240600Z 12006KT CAVOK 21/10 Q1016=
201808240630 METAR LRIA 240630Z 11007KT CAVOK 22/10 Q1016=
201808240700 METAR LRIA 240700Z 11007KT CAVOK 23/11 Q1016=
201808240730 METAR LRIA 240730Z 12005KT 090V150 CAVOK 24/11 Q1016=
201808240800 METAR LRIA 240800Z 11004KT 060V150 CAVOK 26/12 Q1016=
201808240830 METAR LRIA 240830Z 11004KT 060V140 CAVOK 26/11 Q1016=
201808240900 METAR LRIA 240900Z 14008KT CAVOK 28/10 Q1016=
201808240930 METAR LRIA 240930Z 19006KT CAVOK 28/11 Q1015=
201808241000 METAR LRIA 241000Z 19007KT 170V230 CAVOK 28/10 Q1015=
201808241030 METAR LRIA 241030Z 15007KT 090V190 CAVOK 28/10 Q1015=
201808241100 METAR LRIA 241100Z 10006KT 070V150 CAVOK 28/10 Q1015=
201808241130 METAR LRIA 241130Z 11006KT 090V160 CAVOK 29/11 Q1015=
201808241200 METAR LRIA 241200Z 17006KT 080V210 CAVOK 29/10 Q1014=
201808241230 METAR LRIA 241230Z 14006KT 090V210 CAVOK 29/10 Q1014=
201808241300 METAR LRIA 241300Z 17005KT 110V200 CAVOK 29/10 Q1013=
201808241330 METAR LRIA 241330Z 15005KT 100V200 CAVOK 29/11 Q1013=
201808241400 METAR LRIA 241400Z 15008KT CAVOK 29/09 Q1013=
201808241430 METAR LRIA 241430Z 17007KT 130V200 CAVOK 29/09 Q1013=
201808241500 METAR LRIA 241500Z 16006KT 120V210 CAVOK 29/09 Q1012=
201808241530 METAR LRIA 241530Z 18004KT 150V220 CAVOK 28/10 Q1012=
201808241600 METAR LRIA 241600Z 17004KT CAVOK 27/10 Q1013=
201808241630 METAR COR LRIA 241630Z 11003KT 080V140 CAVOK 27/10 Q1013=
201808241700 METAR LRIA 241700Z 09004KT CAVOK 25/11 Q1013=
201808241730 METAR LRIA 241730Z 09005KT CAVOK 25/12 Q1013=
201808241800 METAR LRIA 241800Z 10005KT CAVOK 24/11 Q1013=
201808241830 METAR LRIA 241830Z 10005KT CAVOK 24/11 Q1013=
201808241900 METAR LRIA 241900Z 09004KT CAVOK 23/11 Q1013=
201808241930 METAR LRIA 241930Z 09007KT CAVOK 22/12 Q1013=
201808242000 METAR LRIA 242000Z 09007KT CAVOK 22/11 Q1012=
201808242030 METAR LRIA 242030Z 09007KT CAVOK 22/10 Q1012=
201808242100 METAR LRIA 242100Z 10007KT CAVOK 22/09 Q1012=
201808242130 METAR LRIA 242130Z 10006KT CAVOK 21/09 Q1012=
201808242200 METAR LRIA 242200Z VRB03KT CAVOK 22/08 Q1012=
201808242230 METAR LRIA 242230Z 18005KT 150V210 CAVOK 22/10 Q1012=
201808242300 METAR LRIA 242300Z 20005KT CAVOK 21/10 Q1012=
201808242330 METAR LRIA 242330Z 19006KT 160V220 CAVOK 21/10 Q1012=
201808250000 METAR LRIA 250000Z 21005KT CAVOK 21/10 Q1012=
201808250030 METAR LRIA 250030Z 16002KT 060V200 CAVOK 20/11 Q1012=
201808250100 METAR LRIA 250100Z VRB01KT CAVOK 20/11 Q1012=
201808250130 METAR LRIA 250130Z 13003KT CAVOK 21/11 Q1012=
201808250200 METAR LRIA 250200Z 09007KT CAVOK 19/11 Q1012=
201808250230 METAR LRIA 250230Z 08007KT CAVOK 18/11 Q1012=
201808250300 METAR LRIA 250300Z 09007KT CAVOK 18/10 Q1012=
201808250330 METAR LRIA 250330Z 09008KT CAVOK 18/10 Q1012=
201808250400 METAR LRIA 250400Z 09008KT CAVOK 18/10 Q1012=
201808250430 METAR LRIA 250430Z 09007KT CAVOK 18/10 Q1012=
201808250500 METAR LRIA 250500Z 09006KT CAVOK 19/11 Q1011=
201808250530 METAR LRIA 250530Z 10006KT CAVOK 20/11 Q1012=
201808250600 METAR LRIA 250600Z 10006KT CAVOK 21/11 Q1012=
201808250630 METAR LRIA 250630Z 11006KT CAVOK 23/12 Q1012=
201808250700 METAR LRIA 250700Z 11007KT CAVOK 24/11 Q1012=
201808250730 METAR LRIA 250730Z 10007KT CAVOK 25/12 Q1012=
201808250800 METAR LRIA 250800Z 11007KT CAVOK 27/10 Q1012=
201808250830 METAR LRIA 250830Z 11007KT 080V150 CAVOK 28/09 Q1012=
201808250900 METAR LRIA 250900Z 18005KT 130V250 CAVOK 29/07 Q1012=
201808250930 METAR LRIA 250930Z 14008KT 090V160 CAVOK 29/08 Q1012=
201808251000 METAR LRIA 251000Z 18007KT 130V210 CAVOK 29/08 Q1011=
201808251030 METAR LRIA 251030Z 19009KT CAVOK 29/07 Q1011=
201808251100 METAR LRIA 251100Z 20005KT 150V230 CAVOK 30/08 Q1011=
201808251130 METAR LRIA 251130Z 19006KT 100V220 CAVOK 30/07 Q1011=
201808251200 METAR LRIA 251200Z 20006KT 170V230 CAVOK 30/07 Q1010=
201808251230 METAR LRIA 251230Z 15003KT 070V210 CAVOK 30/07 Q1010=
201808251300 METAR LRIA 251300Z 17004KT 090V210 CAVOK 31/07 Q1010=
201808251330 METAR LRIA 251330Z 17008KT 120V210 CAVOK 30/07 Q1009=
201808251400 METAR LRIA 251400Z 16006KT 130V200 CAVOK 30/09 Q1009=
201808251430 METAR LRIA 251430Z 17006KT 150V210 CAVOK 30/07 Q1009=
201808251500 METAR LRIA 251500Z 15006KT 110V190 CAVOK 30/05 Q1009=
201808251530 METAR LRIA 251530Z 18005KT CAVOK 29/07 Q1009=
201808251600 METAR LRIA 251600Z 17004KT CAVOK 28/06 Q1009=
201808251630 METAR LRIA 251630Z 17004KT CAVOK 27/06 Q1009=
201808251700 METAR LRIA 251700Z 15001KT CAVOK 26/08 Q1009=
201808251730 METAR LRIA 251730Z 29001KT CAVOK 25/09 Q1009=
201808251800 METAR LRIA 251800Z 00000KT CAVOK 23/09 Q1009=
201808251830 METAR LRIA 251830Z VRB01KT CAVOK 23/09 Q1010=
201808251900 METAR LRIA 251900Z 23002KT CAVOK 24/07 Q1010=
201808251930 METAR COR LRIA 251930Z VRB01KT CAVOK 23/10 Q1010=
201808252000 METAR LRIA 252000Z 27003KT CAVOK 22/08 Q1010=
201808252030 METAR LRIA 252030Z 27003KT CAVOK 19/10 Q1010=
201808252100 METAR LRIA 252100Z VRB01KT CAVOK 20/09 Q1010=
201808252130 METAR LRIA 252130Z 31002KT CAVOK 22/07 Q1010=
201808252200 METAR LRIA 252200Z 06002KT CAVOK 20/09 Q1010=
201808252230 METAR LRIA 252230Z 00000KT CAVOK 20/09 Q1010=
201808252300 METAR COR LRIA 252300Z 00000KT CAVOK 17/11 Q1010=
201808252330 METAR LRIA 252330Z 11002KT CAVOK 19/10 Q1010=
201808260000 METAR LRIA 260000Z 07003KT CAVOK 17/10 Q1009=
201808260030 METAR COR LRIA 260030Z 00000KT CAVOK 17/10 Q1009=
201808260100 METAR LRIA 260100Z 26003KT CAVOK 15/12 Q1010=
201808260130 METAR COR LRIA 260130Z 30003KT CAVOK 16/10 Q1009=
201808260200 METAR COR LRIA 260200Z 29003KT CAVOK 14/12 Q1009=
201808260230 METAR COR LRIA 260230Z 24004KT CAVOK 15/11 Q1010=
201808260300 METAR COR LRIA 260300Z 25004KT CAVOK 14/12 Q1010=
201808260330 METAR LRIA 260330Z 25004KT CAVOK 15/12 Q1010=
201808260400 METAR LRIA 260400Z 17002KT 130V240 CAVOK 15/12 Q1010=
201808260430 METAR LRIA 260430Z 27003KT CAVOK 16/13 Q1010=
201808260500 METAR LRIA 260500Z 00000KT CAVOK 18/13 Q1010=
201808260530 METAR LRIA 260530Z 00000KT CAVOK 19/13 Q1010=
201808260600 METAR LRIA 260600Z 24002KT 210V290 CAVOK 20/13 Q1010=
201808260630 METAR LRIA 260630Z VRB01KT CAVOK 22/12 Q1010=
201808260700 METAR LRIA 260700Z 22002KT 160V310 CAVOK 23/12 Q1010=
201808260730 METAR LRIA 260730Z 17002KT CAVOK 25/13 Q1010=
201808260800 METAR LRIA 260800Z VRB02KT CAVOK 25/14 Q1010=
201808260830 METAR LRIA 260830Z 10004KT 060V160 CAVOK 26/13 Q1010=
201808260900 METAR LRIA 260900Z VRB04KT CAVOK 26/14 Q1010=
201808260930 METAR LRIA 260930Z 14003KT 040V210 CAVOK 27/14 Q1010=
201808261000 METAR LRIA 261000Z VRB03KT CAVOK 29/13 Q1010=
201808261030 METAR LRIA 261030Z 28004KT 230V320 CAVOK 29/13 Q1010=
201808261100 METAR LRIA 261100Z 31003KT 260V350 CAVOK 30/13 Q1009=
201808261130 METAR LRIA 261130Z VRB03KT CAVOK 31/13 Q1009=
201808261200 METAR LRIA 261200Z VRB03KT CAVOK 31/13 Q1009=
201808261230 METAR LRIA 261230Z VRB03KT CAVOK 31/13 Q1008=
201808261300 METAR LRIA 261300Z 21004KT 180V250 CAVOK 31/12 Q1008=
201808261330 METAR LRIA 261330Z 08004KT 010V160 CAVOK 31/12 Q1007=
201808261400 METAR LRIA 261400Z 17002KT 120V220 CAVOK 31/12 Q1007=
201808261430 METAR LRIA 261430Z 14003KT 9999 FEW058CB 32/11 Q1007=
201808261500 METAR LRIA 261500Z 12006KT 090V150 9999 FEW055CB 31/12 Q1007=
201808261530 METAR LRIA 261530Z 12005KT 9999 FEW055CB 31/12 Q1007=
201808261600 METAR LRIA 261600Z 13005KT 9999 FEW055CB 30/13 Q1007=
201808261630 METAR LRIA 261630Z 13009KT 9999 FEW060TCU 29/15 Q1008=
201808261700 METAR LRIA 261700Z 09006KT 050V110 CAVOK 28/16 Q1008=
201808261730 METAR LRIA 261730Z 07006KT 9999 FEW060TCU 27/16 Q1008=
201808261800 METAR LRIA 261800Z 05002KT CAVOK 25/16 Q1008=
201808261830 METAR LRIA 261830Z 10004KT CAVOK 26/16 Q1009=
201808261900 METAR LRIA 261900Z 11005KT CAVOK 26/16 Q1009=
201808261930 METAR LRIA 261930Z 09006KT CAVOK 26/16 Q1009=
201808262000 METAR LRIA 262000Z 09006KT CAVOK 25/17 Q1009=
201808262030 METAR LRIA 262030Z 09005KT CAVOK 24/17 Q1009=
201808262100 METAR LRIA 262100Z 07003KT CAVOK 24/17 Q1009=
201808262130 METAR LRIA 262130Z 27006KT CAVOK 22/17 Q1009=
201808262200 METAR LRIA 262200Z 29008KT CAVOK 22/16 Q1009=
201808262230 METAR LRIA 262230Z 27004KT 220V290 CAVOK 21/16 Q1009=
201808262300 METAR LRIA 262300Z 27005KT CAVOK 20/15 Q1009=
201808262330 METAR LRIA 262330Z 26004KT 220V280 CAVOK 20/16 Q1010=
201808270000 METAR LRIA 270000Z 25004KT CAVOK 19/16 Q1010=
201808270030 METAR LRIA 270030Z 27005KT CAVOK 19/16 Q1010=
201808270100 METAR LRIA 270100Z 28005KT CAVOK 19/16 Q1010=
201808270130 METAR LRIA 270130Z 28006KT CAVOK 19/17 Q1011=
201808270200 METAR LRIA 270200Z 30008KT CAVOK 19/16 Q1011=
201808270230 METAR LRIA 270230Z 30010KT CAVOK 18/16 Q1011=
201808270300 METAR LRIA 270300Z 30009KT 9999 BKN010 18/16 Q1012=
201808270330 METAR LRIA 270330Z 30009KT 260V320 9999 BKN010 17/15 Q1012=
201808270400 METAR LRIA 270400Z 29009KT 260V320 9999 BKN009 17/15 Q1012=
201808270430 METAR LRIA 270430Z 31009KT 9999 BKN009 17/15 Q1013=
201808270500 METAR LRIA 270500Z 31011KT 9999 BKN009 17/14 Q1013=
201808270530 METAR LRIA 270530Z 31009KT 270V330 9999 OVC009 17/14 Q1013=
201808270600 METAR LRIA 270600Z 30011KT 9999 OVC009 17/14 Q1013=
201808270630 METAR LRIA 270630Z 31010KT 9999 OVC009 17/14 Q1013=
201808270700 METAR LRIA 270700Z 32011KT 9999 OVC010 17/14 Q1014=
201808270730 METAR COR LRIA 270730Z 32009KT 290V350 9999 OVC011 18/14
                        Q1014=
201808270800 METAR LRIA 270800Z 33009KT 9999 OVC012 18/14 Q1014=
201808270830 METAR COR LRIA 270830Z 32009KT 9999 OVC013 19/15 Q1014=
201808270900 METAR LRIA 270900Z 32010KT 300V360 9999 OVC015 20/15 Q1014=
201808270930 METAR LRIA 270930Z 31009KT 270V350 9999 SCT015 21/15 Q1014=
201808271000 METAR LRIA 271000Z 31008KT 270V330 9999 FEW018 21/15 Q1014=
201808271030 METAR LRIA 271030Z 32008KT 280V350 9999 FEW030 22/15 Q1014=
201808271100 METAR COR LRIA 271100Z 32009KT CAVOK 23/15 Q1014=
201808271130 METAR COR LRIA 271130Z 32008KT 300V360 CAVOK 24/16 Q1013=
201808271200 METAR LRIA 271200Z 31010KT CAVOK 24/16 Q1013=
201808271230 METAR COR LRIA 271230Z 33010KT CAVOK 24/15 Q1013=
201808271300 METAR LRIA 271300Z 32009KT 290V360 CAVOK 24/16 Q1013=
201808271330 METAR COR LRIA 271330Z 33010KT CAVOK 25/16 Q1013=
201808271400 METAR COR LRIA 271400Z 32008KT 290V350 CAVOK 25/16 Q1013=
201808271430 METAR LRIA 271430Z 32009KT CAVOK 24/16 Q1013=
201808271500 METAR LRIA 271500Z 29009KT CAVOK 24/16 Q1013=
201808271530 METAR LRIA 271530Z 30009KT CAVOK 23/16 Q1013=
201808271600 METAR LRIA 271600Z 30009KT CAVOK 23/16 Q1013=
201808271630 METAR LRIA 271630Z 31010KT CAVOK 22/16 Q1013=
201808271700 METAR LRIA 271700Z 31010KT CAVOK 21/15 Q1013=
201808271730 METAR LRIA 271730Z 30009KT CAVOK 20/15 Q1014=
201808271800 METAR LRIA 271800Z 30008KT CAVOK 20/15 Q1014=
201808271830 METAR LRIA 271830Z 30008KT CAVOK 19/15 Q1014=
201808271900 METAR LRIA 271900Z 29008KT CAVOK 19/15 Q1015=
201808271930 METAR LRIA 271930Z 30007KT CAVOK 18/15 Q1015=
201808272000 METAR LRIA 272000Z 28008KT CAVOK 18/15 Q1015=
201808272030 METAR LRIA 272030Z 28009KT CAVOK 18/15 Q1015=
201808272100 METAR LRIA 272100Z 28008KT CAVOK 17/14 Q1015=
201808272130 METAR LRIA 272130Z 28007KT CAVOK 17/14 Q1015=
201808272200 METAR LRIA 272200Z 29008KT CAVOK 17/14 Q1015=
201808272230 METAR LRIA 272230Z 29008KT CAVOK 17/14 Q1015=
201808272300 METAR LRIA 272300Z 29009KT CAVOK 17/14 Q1015=
201808272330 METAR LRIA 272330Z 29009KT CAVOK 17/14 Q1015=
201808280000 METAR LRIA 280000Z 29008KT CAVOK 16/14 Q1015=
201808280030 METAR LRIA 280030Z 29007KT CAVOK 16/14 Q1016=
201808280100 METAR LRIA 280100Z 29008KT 250V310 CAVOK 16/14 Q1016=
201808280130 METAR LRIA 280130Z 30009KT CAVOK 16/14 Q1016=
201808280200 METAR LRIA 280200Z 29008KT CAVOK 16/14 Q1016=
201808280230 METAR LRIA 280230Z 29006KT CAVOK 16/14 Q1016=
201808280300 METAR LRIA 280300Z 29007KT 9999 FEW008 16/14 Q1016=
201808280330 METAR LRIA 280330Z 30007KT 9999 FEW008 16/14 Q1016=
201808280400 METAR LRIA 280400Z 29007KT 9999 SCT007 16/14 Q1016=
201808280430 METAR LRIA 280430Z 30008KT 9999 BKN007 16/14 Q1016=
201808280500 METAR LRIA 280500Z 30008KT 9999 BKN007 16/14 Q1016=
201808280530 METAR LRIA 280530Z 31009KT 9999 BKN007 17/14 Q1016=
201808280600 METAR LRIA 280600Z 31008KT 9999 BKN007 17/15 Q1016=
201808280630 METAR LRIA 280630Z 31009KT 9999 BKN007 17/15 Q1016=
201808280700 METAR LRIA 280700Z 30007KT 9999 BKN008 18/15 Q1017=
201808280730 METAR LRIA 280730Z 31007KT 280V340 9999 BKN009 18/15 Q1017=
201808280800 METAR LRIA 280800Z 32008KT 9999 OVC010 18/15 Q1017=
201808280830 METAR LRIA 280830Z 31007KT 280V360 9999 BKN010 19/15 Q1017=
201808280900 METAR LRIA 280900Z 30008KT 280V340 9999 SCT015 20/16 Q1017=
201808280930 METAR LRIA 280930Z 32007KT 290V360 CAVOK 21/16 Q1016=
201808281000 METAR LRIA 281000Z 31007KT 280V340 CAVOK 21/16 Q1016=
201808281030 METAR LRIA 281030Z 32008KT CAVOK 22/16 Q1016=
201808281100 METAR LRIA 281100Z 34008KT 300V360 CAVOK 24/16 Q1016=
201808281130 METAR LRIA 281130Z 34009KT 300V360 CAVOK 24/16 Q1016=
201808281200 METAR LRIA 281200Z 33007KT 300V360 CAVOK 25/16 Q1015=
201808281230 METAR LRIA 281230Z 33007KT 290V360 CAVOK 25/16 Q1015=
201808281300 METAR LRIA 281300Z 34008KT CAVOK 26/16 Q1015=
201808281330 METAR LRIA 281330Z 33008KT CAVOK 26/16 Q1015=
201808281400 METAR LRIA 281400Z 33009KT CAVOK 26/17 Q1015=
201808281430 METAR LRIA 281430Z 31008KT 270V340 CAVOK 25/17 Q1015=
201808281500 METAR LRIA 281500Z 30008KT CAVOK 24/17 Q1015=
201808281530 METAR LRIA 281530Z 30009KT CAVOK 24/16 Q1015=
201808281600 METAR LRIA 281600Z 31012KT CAVOK 23/16 Q1016=
201808281630 METAR LRIA 281630Z 31012KT CAVOK 22/16 Q1016=
201808281700 METAR LRIA 281700Z 31011KT CAVOK 21/16 Q1016=
201808281730 METAR LRIA 281730Z 31013KT CAVOK 20/16 Q1016=
201808281800 METAR LRIA 281800Z 31011KT CAVOK 20/16 Q1016=
201808281830 METAR LRIA 281830Z 32011KT CAVOK 20/16 Q1017=
201808281900 METAR LRIA 281900Z 32010KT CAVOK 20/15 Q1017=
201808281930 METAR COR LRIA 281930Z 32011KT CAVOK 20/15 Q1017=
201808282000 METAR LRIA 282000Z 33010KT CAVOK 20/15 Q1017=
201808282030 METAR LRIA 282030Z 32009KT CAVOK 20/15 Q1017=
201808282100 METAR LRIA 282100Z 30007KT CAVOK 19/16 Q1017=
201808282130 METAR LRIA 282130Z 30007KT CAVOK 18/16 Q1017=
201808282200 METAR LRIA 282200Z 31008KT CAVOK 18/16 Q1017=
201808282230 METAR LRIA 282230Z 31007KT CAVOK 18/16 Q1018=
201808282300 METAR LRIA 282300Z 31008KT CAVOK 17/16 Q1018=
201808282330 METAR LRIA 282330Z 31009KT CAVOK 17/16 Q1017=
201808290000 METAR LRIA 290000Z AUTO 31009KT 9999 OVC120/// 17/15 Q1018=
201808290030 METAR COR LRIA 290030Z 31009KT CAVOK 17/15 Q1018=
201808290100 METAR COR LRIA 290100Z 31009KT CAVOK 17/16 Q1017=
201808290130 METAR LRIA 290130Z 31009KT CAVOK 17/15 Q1017=
201808290200 METAR COR LRIA 290200Z 31009KT CAVOK 17/15 Q1017=
201808290230 METAR COR LRIA 290230Z 31011KT CAVOK 17/15 Q1017=
201808290300 METAR COR LRIA 290300Z 31010KT 9999 -RA NSC 17/15 Q1017 R14/19//95=
201808290330 METAR LRIA 290330Z 31010KT 9000 -RA NSC 17/16 Q1018 R14/29//95=
201808290400 METAR LRIA 290400Z 31008KT 9000 NSC 17/15 Q1018 R14/29//95=
201808290430 METAR LRIA 290430Z 30007KT CAVOK 17/15 Q1018 R14/29//95=
201808290500 METAR LRIA 290500Z 30004KT 260V330 9999 FEW009 17/16 Q1018
                        R14/19//95=
201808290530 METAR LRIA 290530Z 32006KT 290V350 9000 FEW010 18/16 Q1018
                        R14/19//95=
201808290600 METAR LRIA 290600Z 33010KT 9999 FEW012 19/16 Q1018 R14/19//95=
201808290630 METAR LRIA 290630Z 33011KT 9999 FEW012 19/15 Q1018 R14/19//95=
201808290700 METAR LRIA 290700Z 33011KT 9999 SCT029 20/15 Q1018 R14/19//95=
201808290730 METAR LRIA 290730Z 33012KT 9999 FEW030 21/15 Q1018 R14/CLRD//=
201808290800 METAR LRIA 290800Z 34014KT 9999 FEW033 21/14 Q1018=
201808290830 METAR LRIA 290830Z 33012KT 9999 FEW035 22/14 Q1018=
201808290900 METAR LRIA 290900Z 33012KT CAVOK 23/14 Q1018=
201808290930 METAR LRIA 290930Z 32010KT CAVOK 23/13 Q1018=
201808291000 METAR LRIA 291000Z 32009KT 290V350 CAVOK 24/14 Q1018=
201808291030 METAR LRIA 291030Z 32010KT CAVOK 24/13 Q1018=
201808291100 METAR LRIA 291100Z 32008KT 290V360 CAVOK 24/13 Q1018=
201808291130 METAR LRIA 291130Z 35010KT CAVOK 24/12 Q1017=
201808291200 METAR LRIA 291200Z 33009KT CAVOK 25/13 Q1017=
201808291230 METAR LRIA 291230Z 33010KT CAVOK 25/12 Q1017=
201808291300 METAR LRIA 291300Z 32009KT 280V340 CAVOK 25/12 Q1017=
201808291330 METAR LRIA 291330Z 32010KT 290V350 CAVOK 25/13 Q1017=
201808291400 METAR LRIA 291400Z 32010KT 290V360 CAVOK 26/12 Q1017=
201808291430 METAR LRIA 291430Z 34009KT 300V360 CAVOK 25/13 Q1016=
201808291500 METAR LRIA 291500Z 33010KT CAVOK 25/13 Q1017=
201808291530 METAR LRIA 291530Z 32009KT CAVOK 25/13 Q1017=
201808291600 METAR LRIA 291600Z 33007KT CAVOK 24/13 Q1017=
201808291630 METAR LRIA 291630Z 33006KT CAVOK 23/13 Q1017=
201808291700 METAR LRIA 291700Z 33006KT CAVOK 21/13 Q1017=
201808291730 METAR LRIA 291730Z 34008KT CAVOK 20/13 Q1017=
201808291800 METAR LRIA 291800Z 33006KT CAVOK 20/13 Q1018=
201808291830 METAR LRIA 291830Z 34007KT CAVOK 19/13 Q1018=
201808291900 METAR LRIA 291900Z 34008KT CAVOK 19/13 Q1018=
201808291930 METAR LRIA 291930Z 32004KT CAVOK 19/13 Q1018=
201808292000 METAR LRIA 292000Z 30004KT CAVOK 18/13 Q1018=
201808292030 METAR LRIA 292030Z 29004KT CAVOK 17/13 Q1018=
201808292100 METAR LRIA 292100Z 29003KT CAVOK 16/14 Q1018=
201808292130 METAR LRIA 292130Z 30004KT CAVOK 16/14 Q1018=
201808292200 METAR LRIA 292200Z 30003KT 260V330 CAVOK 16/13 Q1018=
201808292230 METAR LRIA 292230Z 31005KT 250V330 CAVOK 15/13 Q1018=
201808292300 METAR LRIA 292300Z 27004KT CAVOK 15/13 Q1018=
201808292330 METAR LRIA 292330Z 28004KT CAVOK 15/13 Q1018=
201808300000 METAR LRIA 300000Z 24003KT 220V280 CAVOK 14/13 Q1018=
201808300030 METAR LRIA 300030Z 25004KT CAVOK 14/13 Q1018=
201808300100 METAR LRIA 300100Z 28004KT CAVOK 14/13 Q1018=
201808300130 METAR LRIA 300130Z 26003KT CAVOK 14/12 Q1018=
201808300200 METAR LRIA 300200Z 27004KT CAVOK 13/12 Q1018=
201808300230 METAR LRIA 300230Z 24004KT CAVOK 13/12 Q1018=
201808300300 METAR LRIA 300300Z 24004KT CAVOK 13/12 Q1018=
201808300330 METAR LRIA 300330Z 24003KT CAVOK 13/12 Q1018=
201808300400 METAR LRIA 300400Z 24003KT CAVOK 13/12 Q1018=
201808300430 METAR LRIA 300430Z 25003KT CAVOK 14/13 Q1018=
201808300500 METAR LRIA 300500Z 23003KT 200V260 CAVOK 15/13 Q1018=
201808300530 METAR LRIA 300530Z 26004KT CAVOK 16/13 Q1018=
201808300600 METAR COR LRIA 300600Z 27003KT CAVOK 17/14 Q1018=
201808300630 METAR LRIA 300630Z 26004KT 230V290 CAVOK 18/14 Q1019=
201808300700 METAR LRIA 300700Z 29004KT 260V320 CAVOK 19/14 Q1018=
201808300730 METAR LRIA 300730Z 31003KT 250V350 CAVOK 21/15 Q1018=
201808300800 METAR LRIA 300800Z 27003KT 240V320 CAVOK 22/15 Q1018=
201808300830 METAR LRIA 300830Z VRB03KT CAVOK 23/14 Q1018=
201808300900 METAR LRIA 300900Z 36005KT 300V070 CAVOK 24/13 Q1018=
201808300930 METAR LRIA 300930Z VRB03KT CAVOK 25/13 Q1018=
201808301000 METAR LRIA 301000Z 28005KT 240V320 CAVOK 25/12 Q1018=
201808301030 METAR LRIA 301030Z 26004KT 180V310 CAVOK 25/12 Q1018=
201808301100 METAR LRIA 301100Z 33005KT 260V020 CAVOK 26/11 Q1017=
201808301130 METAR LRIA 301130Z 30005KT 220V360 CAVOK 26/11 Q1017=
201808301200 METAR LRIA 301200Z 36006KT CAVOK 27/10 Q1017=
201808301230 METAR LRIA 301230Z 31004KT 260V350 CAVOK 27/11 Q1017=
201808301300 METAR COR LRIA 301300Z 29005KT 240V360 CAVOK 27/10 Q1017=
201808301330 METAR LRIA 301330Z 33005KT 290V360 CAVOK 27/10 Q1017=
201808301400 METAR LRIA 301400Z 34004KT 300V020 CAVOK 27/09 Q1017=
201808301430 METAR LRIA 301430Z 35005KT 310V030 CAVOK 27/08 Q1017=
201808301500 METAR LRIA 301500Z 01004KT 340V040 CAVOK 27/09 Q1017=
201808301530 METAR LRIA 301530Z 01004KT 330V050 CAVOK 26/10 Q1017=
201808301600 METAR LRIA 301600Z 01003KT CAVOK 25/12 Q1017=
201808301630 METAR LRIA 301630Z 34004KT CAVOK 25/13 Q1017=
201808301700 METAR LRIA 301700Z 35005KT CAVOK 24/11 Q1017=
201808301730 METAR LRIA 301730Z 33004KT CAVOK 23/11 Q1017=
201808301800 METAR LRIA 301800Z 34005KT CAVOK 22/11 Q1017=
201808301830 METAR LRIA 301830Z 25003KT 200V320 CAVOK 19/14 Q1017=
201808301900 METAR LRIA 301900Z 24003KT CAVOK 21/12 Q1018=
201808301930 METAR LRIA 301930Z 25001KT CAVOK 20/12 Q1018=
201808302000 METAR LRIA 302000Z 26003KT CAVOK 19/13 Q1018=
201808302030 METAR LRIA 302030Z 24002KT CAVOK 19/13 Q1018=
201808302100 METAR LRIA 302100Z 26002KT CAVOK 17/13 Q1018=
201808302130 METAR LRIA 302130Z 27002KT CAVOK 18/13 Q1018=
201808302200 METAR LRIA 302200Z 30003KT CAVOK 16/13 Q1018=
201808302230 METAR LRIA 302230Z 23002KT CAVOK 15/14 Q1018=
201808302300 METAR LRIA 302300Z 28004KT CAVOK 16/13 Q1018=
201808302330 METAR LRIA 302330Z 27002KT CAVOK 15/12 Q1018=
201808310000 METAR LRIA 310000Z 27002KT CAVOK 14/12 Q1018=
201808310030 METAR LRIA 310030Z 30002KT CAVOK 15/12 Q1018=
201808310100 METAR LRIA 310100Z 29003KT CAVOK 15/12 Q1018=
201808310130 METAR LRIA 310130Z 30003KT CAVOK 14/12 Q1018=
201808310200 METAR LRIA 310200Z 29004KT CAVOK 14/12 Q1018=
201808310230 METAR LRIA 310230Z 31002KT CAVOK 14/12 Q1018=
201808310300 METAR LRIA 310300Z 28003KT CAVOK 13/12 Q1018=
201808310330 METAR LRIA 310330Z 27003KT CAVOK 13/12 Q1018=
201808310400 METAR LRIA 310400Z 26002KT CAVOK 14/13 Q1018=
201808310430 METAR LRIA 310430Z 27003KT CAVOK 14/13 Q1018=
201808310500 METAR LRIA 310500Z 28003KT CAVOK 16/13 Q1018=
201808310530 METAR LRIA 310530Z 26003KT CAVOK 17/13 Q1018=
201808310600 METAR LRIA 310600Z 27003KT 230V310 CAVOK 18/14 Q1019=
201808310630 METAR LRIA 310630Z 26003KT CAVOK 20/14 Q1019=
201808310700 METAR LRIA 310700Z 25002KT CAVOK 21/13 Q1019=
201808310730 METAR LRIA 310730Z 26002KT CAVOK 23/12 Q1019=
201808310800 METAR LRIA 310800Z 26002KT CAVOK 24/13 Q1019=
201808310830 METAR LRIA 310830Z VRB03KT CAVOK 25/13 Q1019=
201808310900 METAR LRIA 310900Z 11003KT 060V150 CAVOK 27/12 Q1019=
201808310930 METAR LRIA 310930Z VRB04KT CAVOK 27/13 Q1018=
201808311000 METAR LRIA 311000Z 06005KT 330V110 CAVOK 27/10 Q1018=
201808311030 METAR LRIA 311030Z VRB04KT CAVOK 28/10 Q1018=
201808311100 METAR LRIA 311100Z VRB03KT CAVOK 28/09 Q1018=
201808311130 METAR LRIA 311130Z VRB02KT CAVOK 30/10 Q1018=
201808311200 METAR LRIA 311200Z VRB03KT CAVOK 29/10 Q1018=
201808311230 METAR LRIA 311230Z VRB03KT CAVOK 29/10 Q1018=
201808311300 METAR LRIA 311300Z 02003KT 310V090 CAVOK 29/10 Q1018=
201808311330 METAR LRIA 311330Z 07004KT 310V120 CAVOK 29/10 Q1018=
201808311400 METAR LRIA 311400Z VRB02KT CAVOK 30/10 Q1018=
201808311430 METAR LRIA 311430Z 05004KT 020V100 CAVOK 29/09 Q1018=
201808311500 METAR LRIA 311500Z 05005KT 020V080 CAVOK 29/10 Q1018=
201808311530 METAR LRIA 311530Z 36003KT CAVOK 29/10 Q1018=
201808311600 METAR LRIA 311600Z 36003KT CAVOK 28/12 Q1018=
201808311630 METAR LRIA 311630Z 34004KT CAVOK 27/12 Q1018=
201808311700 METAR LRIA 311700Z 02005KT CAVOK 25/12 Q1018=
201808311730 METAR LRIA 311730Z 03007KT CAVOK 24/12 Q1018=
201808311800 METAR LRIA 311800Z 03007KT CAVOK 24/11 Q1019=
201808311830 METAR LRIA 311830Z 00000KT CAVOK 22/14 Q1019=
201808311900 METAR COR LRIA 311900Z 03003KT CAVOK 23/11 Q1019=
201808311930 METAR COR LRIA 311930Z 03005KT CAVOK 22/12 Q1019=
201808312000 METAR LRIA 312000Z 00000KT CAVOK 20/14 Q1019=
201808312030 METAR LRIA 312030Z AUTO 08004KT 9999 NCD 22/11 Q1019=
201808312100 METAR LRIA 312100Z 06005KT CAVOK 22/11 Q1019=
201808312130 METAR LRIA 312130Z 04003KT 020V080 CAVOK 21/11 Q1019=
201808312200 METAR LRIA 312200Z 14003KT 090V190 CAVOK 22/11 Q1019=
201808312230 METAR LRIA 312230Z 09007KT CAVOK 21/11 Q1019=
201808312300 METAR LRIA 312300Z 09006KT CAVOK 21/11 Q1019=
201808312330 METAR LRIA 312330Z 09006KT CAVOK 21/10 Q1019=