201809010000 METAR LRIA 010000Z 08006KT CAVOK 21/10 Q1020=
201809010030 METAR LRIA 010030Z 31003KT CAVOK 19/11 Q1020=
201809010100 METAR LRIA 010100Z 01003KT 290V030 CAVOK 18/11 Q1020=
201809010130 METAR COR LRIA 010130Z 31004KT CAVOK 16/13 Q1020=
201809010200 METAR LRIA 010200Z 34005KT CAVOK 17/11 Q1020=
201809010230 METAR COR LRIA 010230Z 28004KT CAVOK 15/13 Q1020=
201809010300 METAR COR LRIA 010300Z 23004KT CAVOK 15/13 Q1020=
201809010330 METAR COR LRIA 010330Z 25002KT 230V300 CAVOK 16/13 Q1020=
201809010400 METAR LRIA 010400Z 26004KT CAVOK 16/13 Q1020=
201809010430 METAR LRIA 010430Z 27005KT CAVOK 16/13 Q1021=
201809010500 METAR LRIA 010500Z 26003KT CAVOK 17/13 Q1021=
201809010530 METAR LRIA 010530Z 27003KT 240V300 CAVOK 18/13 Q1021=
201809010600 METAR LRIA 010600Z 28005KT CAVOK 19/13 Q1021=
201809010630 METAR LRIA 010630Z 27004KT 240V310 CAVOK 21/13 Q1021=
201809010700 METAR LRIA 010700Z 30004KT 250V340 CAVOK 22/14 Q1021=
201809010730 METAR LRIA 010730Z 30004KT CAVOK 23/13 Q1021=
201809010800 METAR LRIA 010800Z 29005KT 250V340 CAVOK 25/13 Q1021=
201809010830 METAR LRIA 010830Z 03004KT 310V090 CAVOK 26/10 Q1021=
201809010900 METAR LRIA 010900Z 02007KT 350V050 CAVOK 27/10 Q1021=
201809010930 METAR LRIA 010930Z 02005KT 340V040 CAVOK 27/10 Q1021=
201809011000 METAR LRIA 011000Z 04007KT 360V060 CAVOK 28/09 Q1021=
201809011030 METAR LRIA 011030Z 03009KT 360V060 CAVOK 29/09 Q1021=
201809011100 METAR LRIA 011100Z 36007KT 330V040 CAVOK 29/10 Q1020=
201809011130 METAR LRIA 011130Z 35007KT CAVOK 30/09 Q1020=
201809011200 METAR LRIA 011200Z 04007KT 350V060 CAVOK 30/09 Q1020=
201809011230 METAR LRIA 011230Z 03008KT CAVOK 30/07 Q1020=
201809011300 METAR LRIA 011300Z 01008KT CAVOK 30/08 Q1020=
201809011330 METAR LRIA 011330Z 02008KT 350V050 CAVOK 30/08 Q1020=
201809011400 METAR LRIA 011400Z 02009KT CAVOK 30/07 Q1020=
201809011430 METAR LRIA 011430Z 02008KT CAVOK 30/08 Q1020=
201809011500 METAR LRIA 011500Z 02007KT CAVOK 30/09 Q1020=
201809011530 METAR LRIA 011530Z 03007KT CAVOK 29/09 Q1020=
201809011600 METAR LRIA 011600Z 03005KT CAVOK 28/10 Q1020=
201809011630 METAR LRIA 011630Z 02006KT CAVOK 26/11 Q1020=
201809011700 METAR LRIA 011700Z 02007KT CAVOK 25/11 Q1020=
201809011730 METAR LRIA 011730Z 02008KT CAVOK 25/10 Q1020=
201809011800 METAR LRIA 011800Z 02008KT CAVOK 25/10 Q1020=
201809011830 METAR LRIA 011830Z 01008KT CAVOK 24/09 Q1020=
201809011900 METAR LRIA 011900Z 01007KT CAVOK 24/09 Q1020=
201809011930 METAR LRIA 011930Z 36006KT CAVOK 24/09 Q1020=
201809012000 METAR LRIA 012000Z 27004KT CAVOK 19/13 Q1020=
201809012030 METAR LRIA 012030Z 25004KT CAVOK 19/12 Q1020=
201809012100 METAR LRIA 012100Z 27003KT 260V320 CAVOK 19/12 Q1020=
201809012130 METAR LRIA 012130Z 28005KT 260V320 CAVOK 20/11 Q1020=
201809012200 METAR LRIA 012200Z 26004KT CAVOK 19/12 Q1020=
201809012230 METAR LRIA 012230Z 29006KT CAVOK 18/12 Q1021=
201809012300 METAR LRIA 012300Z 31005KT CAVOK 19/11 Q1021=
201809012330 METAR LRIA 012330Z 29004KT CAVOK 17/12 Q1021=
201809020000 METAR LRIA 020000Z 30005KT CAVOK 17/11 Q1021=
201809020030 METAR LRIA 020030Z 31006KT CAVOK 17/11 Q1021=
201809020100 METAR LRIA 020100Z 31007KT CAVOK 17/11 Q1021=
201809020130 METAR LRIA 020130Z 30005KT CAVOK 16/12 Q1021=
201809020200 METAR LRIA 020200Z 30006KT CAVOK 16/12 Q1021=
201809020230 METAR LRIA 020230Z 30007KT CAVOK 16/12 Q1021=
201809020300 METAR LRIA 020300Z 29006KT CAVOK 15/11 Q1021=
201809020330 METAR LRIA 020330Z 29005KT CAVOK 15/12 Q1021=
201809020400 METAR LRIA 020400Z 28005KT CAVOK 14/12 Q1022=
201809020430 METAR LRIA 020430Z 27005KT CAVOK 15/13 Q1022=
201809020500 METAR LRIA 020500Z 28006KT CAVOK 16/13 Q1022=
201809020530 METAR LRIA 020530Z 28005KT CAVOK 18/13 Q1022=
201809020600 METAR LRIA 020600Z 27005KT 230V300 CAVOK 19/13 Q1022=
201809020630 METAR LRIA 020630Z 29007KT 260V330 CAVOK 20/14 Q1022=
201809020700 METAR LRIA 020700Z 30007KT CAVOK 21/13 Q1022=
201809020730 METAR LRIA 020730Z 31008KT 290V350 CAVOK 22/14 Q1022=
201809020800 METAR LRIA 020800Z 31008KT CAVOK 23/14 Q1022=
201809020830 METAR LRIA 020830Z 31008KT CAVOK 24/14 Q1022=
201809020900 METAR LRIA 020900Z 32010KT 290V350 CAVOK 26/12 Q1021=
201809020930 METAR LRIA 020930Z 33009KT CAVOK 27/10 Q1021=
201809021000 METAR LRIA 021000Z 34010KT CAVOK 27/12 Q1021=
201809021030 METAR LRIA 021030Z 32009KT 290V350 CAVOK 27/13 Q1021=
201809021100 METAR LRIA 021100Z 33009KT CAVOK 28/12 Q1021=
201809021130 METAR LRIA 021130Z 32009KT 300V360 CAVOK 29/12 Q1021=
201809021200 METAR LRIA 021200Z 31009KT CAVOK 29/12 Q1020=
201809021230 METAR LRIA 021230Z 31009KT CAVOK 29/12 Q1020=
201809021300 METAR LRIA 021300Z 31007KT 280V340 CAVOK 30/12 Q1020=
201809021330 METAR LRIA 021330Z 32008KT 290V350 CAVOK 30/13 Q1020=
201809021400 METAR COR LRIA 021400Z 32008KT CAVOK 29/13 Q1019=
201809021430 METAR LRIA 021430Z 32008KT CAVOK 29/13 Q1019=
201809021500 METAR LRIA 021500Z 32007KT CAVOK 29/13 Q1019=
201809021530 METAR LRIA 021530Z 31007KT CAVOK 28/14 Q1019=
201809021600 METAR LRIA 021600Z 31006KT CAVOK 27/15 Q1019=
201809021630 METAR LRIA 021630Z 32007KT CAVOK 26/14 Q1019=
201809021700 METAR LRIA 021700Z 32007KT CAVOK 25/14 Q1019=
201809021730 METAR LRIA 021730Z 33007KT CAVOK 24/14 Q1019=
201809021800 METAR LRIA 021800Z 32008KT CAVOK 24/14 Q1019=
201809021830 METAR LRIA 021830Z 31007KT CAVOK 24/14 Q1019=
201809021900 METAR LRIA 021900Z 30006KT CAVOK 23/14 Q1019=
201809021930 METAR LRIA 021930Z 26004KT CAVOK 21/15 Q1019=
201809022000 METAR LRIA 022000Z 23004KT CAVOK 21/15 Q1019=
201809022030 METAR LRIA 022030Z 26004KT CAVOK 21/15 Q1019=
201809022100 METAR LRIA 022100Z 26004KT CAVOK 21/15 Q1019=
201809022130 METAR LRIA 022130Z 27005KT CAVOK 20/15 Q1019=
201809022200 METAR LRIA 022200Z 26005KT CAVOK 20/15 Q1019=
201809022230 METAR LRIA 022230Z 27006KT CAVOK 20/14 Q1019=
201809022300 METAR LRIA 022300Z 26004KT CAVOK 20/15 Q1019=
201809022330 METAR LRIA 022330Z 28005KT CAVOK 19/14 Q1018=
201809030000 METAR LRIA 030000Z 26004KT CAVOK 19/14 Q1018=
201809030030 METAR LRIA 030030Z 25003KT 210V270 CAVOK 18/15 Q1018=
201809030100 METAR LRIA 030100Z 25004KT CAVOK 18/15 Q1018=
201809030130 METAR LRIA 030130Z 26004KT CAVOK 17/14 Q1018=
201809030200 METAR LRIA 030200Z 27003KT CAVOK 18/14 Q1018=
201809030230 METAR LRIA 030230Z 24003KT CAVOK 18/14 Q1018=
201809030300 METAR LRIA 030300Z 26004KT CAVOK 18/14 Q1018=
201809030330 METAR LRIA 030330Z VRB01KT CAVOK 18/15 Q1018=
201809030400 METAR LRIA 030400Z 25004KT CAVOK 18/15 Q1018=
201809030430 METAR LRIA 030430Z 25003KT 200V270 CAVOK 18/15 Q1018=
201809030500 METAR LRIA 030500Z 27004KT CAVOK 19/15 Q1018=
201809030530 METAR LRIA 030530Z 26004KT 230V290 CAVOK 20/15 Q1018=
201809030600 METAR LRIA 030600Z 23002KT CAVOK 21/15 Q1018=
201809030630 METAR LRIA 030630Z 24002KT CAVOK 22/15 Q1018=
201809030700 METAR LRIA 030700Z 27003KT 220V310 CAVOK 22/15 Q1018=
201809030730 METAR LRIA 030730Z 24004KT 210V320 CAVOK 23/15 Q1018=
201809030800 METAR LRIA 030800Z 27003KT 210V350 CAVOK 24/15 Q1018=
201809030830 METAR LRIA 030830Z 26003KT 170V340 CAVOK 25/15 Q1018=
201809030900 METAR LRIA 030900Z VRB02KT CAVOK 27/15 Q1018=
201809030930 METAR LRIA 030930Z VRB02KT CAVOK 28/14 Q1017=
201809031000 METAR LRIA 031000Z VRB02KT CAVOK 29/14 Q1017=
201809031030 METAR LRIA 031030Z VRB04KT CAVOK 29/10 Q1017=
201809031100 METAR LRIA 031100Z 11005KT 040V140 CAVOK 30/07 Q1016=
201809031130 METAR LRIA 031130Z VRB02KT CAVOK 31/08 Q1016=
201809031200 METAR LRIA 031200Z 34003KT 290V050 CAVOK 31/10 Q1015=
201809031230 METAR LRIA 031230Z 02005KT 350V060 CAVOK 31/08 Q1015=
201809031300 METAR LRIA 031300Z 08003KT 010V170 CAVOK 30/07 Q1015=
201809031330 METAR LRIA 031330Z 08008KT CAVOK 31/04 Q1014=
201809031400 METAR LRIA 031400Z 14005KT 090V170 CAVOK 31/04 Q1014=
201809031430 METAR LRIA 031430Z 11004KT 070V140 CAVOK 31/01 Q1014=
201809031500 METAR LRIA 031500Z 06002KT CAVOK 31/01 Q1014=
201809031530 METAR LRIA 031530Z 10004KT CAVOK 30/04 Q1014=
201809031600 METAR LRIA 031600Z 10002KT CAVOK 30/05 Q1014=
201809031630 METAR LRIA 031630Z 07002KT CAVOK 28/07 Q1014=
201809031700 METAR LRIA 031700Z 07003KT CAVOK 24/07 Q1014=
201809031730 METAR LRIA 031730Z 08002KT CAVOK 25/05 Q1014=
201809031800 METAR COR LRIA 031800Z 07003KT CAVOK 23/04 Q1014=
201809031830 METAR LRIA 031830Z 07002KT CAVOK 23/05 Q1014=
201809031900 METAR LRIA 031900Z 00000KT CAVOK 21/07 Q1014=
201809031930 METAR LRIA 031930Z 00000KT CAVOK 20/07 Q1013=
201809032000 METAR LRIA 032000Z 00000KT CAVOK 21/05 Q1013=
201809032030 METAR COR LRIA 032030Z 27003KT CAVOK 17/10 Q1013=
201809032100 METAR LRIA 032100Z 00000KT CAVOK 18/09 Q1013=
201809032130 METAR LRIA 032130Z 31004KT CAVOK 18/10 Q1013=
201809032200 METAR LRIA 032200Z 28003KT CAVOK 17/10 Q1013=
201809032230 METAR LRIA 032230Z VRB01KT CAVOK 17/10 Q1013=
201809032300 METAR LRIA 032300Z VRB01KT CAVOK 17/10 Q1013=
201809032330 METAR LRIA 032330Z 30002KT CAVOK 16/10 Q1012=
201809040000 METAR LRIA 040000Z 31002KT CAVOK 16/10 Q1012=
201809040030 METAR LRIA 040030Z 29002KT 250V310 CAVOK 14/10 Q1012=
201809040100 METAR LRIA 040100Z 29001KT CAVOK 16/10 Q1012=
201809040130 METAR COR LRIA 040130Z 00000KT CAVOK 15/10 Q1012=
201809040200 METAR LRIA 040200Z 22002KT CAVOK 15/11 Q1012=
201809040230 METAR COR LRIA 040230Z 29003KT CAVOK 16/11 Q1012=
201809040300 METAR COR LRIA 040300Z 00000KT CAVOK 14/11 Q1013=
201809040330 METAR LRIA 040330Z 29002KT 250V320 CAVOK 14/12 Q1013=
201809040400 METAR LRIA 040400Z 29003KT CAVOK 14/12 Q1012=
201809040430 METAR LRIA 040430Z 25003KT CAVOK 15/12 Q1013=
201809040500 METAR LRIA 040500Z 26003KT CAVOK 17/12 Q1012=
201809040530 METAR LRIA 040530Z 26003KT 230V290 CAVOK 17/13 Q1013=
201809040600 METAR LRIA 040600Z 26004KT CAVOK 18/12 Q1013=
201809040630 METAR LRIA 040630Z 27003KT 230V300 CAVOK 19/13 Q1013=
201809040700 METAR LRIA 040700Z 29003KT 260V320 CAVOK 20/13 Q1012=
201809040730 METAR LRIA 040730Z 26003KT 230V310 CAVOK 23/14 Q1012=
201809040800 METAR LRIA 040800Z 25004KT 220V300 CAVOK 24/12 Q1012=
201809040830 METAR LRIA 040830Z 24003KT 190V280 CAVOK 24/12 Q1012=
201809040900 METAR LRIA 040900Z 27003KT 240V320 CAVOK 26/11 Q1012=
201809040930 METAR LRIA 040930Z 11003KT 010V160 CAVOK 28/08 Q1012=
201809041000 METAR LRIA 041000Z VRB02KT CAVOK 29/08 Q1011=
201809041030 METAR LRIA 041030Z 12004KT 070V160 CAVOK 29/08 Q1011=
201809041100 METAR LRIA 041100Z VRB02KT CAVOK 30/08 Q1011=
201809041130 METAR LRIA 041130Z 25003KT 150V310 CAVOK 30/07 Q1011=
201809041200 METAR LRIA 041200Z VRB04KT CAVOK 31/07 Q1010=
201809041230 METAR LRIA 041230Z 17005KT 120V220 CAVOK 30/08 Q1010=
201809041300 METAR LRIA 041300Z 27003KT 210V300 CAVOK 29/08 Q1010=
201809041330 METAR LRIA 041330Z 27003KT CAVOK 30/10 Q1010=
201809041400 METAR LRIA 041400Z 26001KT CAVOK 30/08 Q1010=
201809041430 METAR LRIA 041430Z 30003KT 260V320 CAVOK 30/07 Q1009=
201809041500 METAR LRIA 041500Z 30004KT CAVOK 29/11 Q1009=
201809041530 METAR LRIA 041530Z 27003KT CAVOK 28/12 Q1009=
201809041600 METAR LRIA 041600Z 31004KT CAVOK 28/10 Q1009=
201809041630 METAR LRIA 041630Z 31004KT CAVOK 26/10 Q1009=
201809041700 METAR LRIA 041700Z 29004KT CAVOK 24/11 Q1009=
201809041730 METAR LRIA 041730Z 31005KT CAVOK 24/09 Q1009=
201809041800 METAR LRIA 041800Z 32005KT CAVOK 24/08 Q1010=
201809041830 METAR LRIA 041830Z 27004KT CAVOK 23/10 Q1010=
201809041900 METAR LRIA 041900Z 28004KT CAVOK 22/09 Q1010=
201809041930 METAR LRIA 041930Z 31005KT CAVOK 21/10 Q1010=
201809042000 METAR LRIA 042000Z 25003KT CAVOK 22/09 Q1010=
201809042030 METAR LRIA 042030Z 20004KT CAVOK 21/10 Q1009=
201809042100 METAR LRIA 042100Z 24004KT CAVOK 22/10 Q1009=
201809042130 METAR LRIA 042130Z 28003KT 250V320 CAVOK 21/10 Q1009=
201809042200 METAR LRIA 042200Z 28003KT CAVOK 20/10 Q1009=
201809042230 METAR LRIA 042230Z 32007KT CAVOK 20/10 Q1009=
201809042300 METAR LRIA 042300Z 29004KT CAVOK 19/11 Q1009=
201809042330 METAR LRIA 042330Z 32003KT CAVOK 20/11 Q1009=
201809050000 METAR LRIA 050000Z 26003KT CAVOK 19/11 Q1009=
201809050030 METAR LRIA 050030Z 26002KT CAVOK 19/11 Q1009=
201809050100 METAR LRIA 050100Z 29003KT CAVOK 19/11 Q1009=
201809050130 METAR LRIA 050130Z 31003KT CAVOK 19/12 Q1009=
201809050200 METAR LRIA 050200Z AUTO 33004KT 9999 SCT096/// BKN130///
                        18/13 Q1009=
201809050230 METAR LRIA 050230Z 28004KT CAVOK 18/13 Q1009=
201809050300 METAR LRIA 050300Z 27003KT CAVOK 17/13 Q1010=
201809050330 METAR LRIA 050330Z 31005KT 9999 FEW050CB 19/14 Q1010=
201809050400 METAR LRIA 050400Z 30005KT 9999 FEW050CB 18/14 Q1010=
201809050430 METAR LRIA 050430Z 32004KT 9999 VCTS FEW029CB 19/14 Q1010=
201809050500 METAR LRIA 050500Z 28003KT 220V330 9999 VCTS FEW030CB 18/14
                        Q1011=
201809050530 METAR LRIA 050530Z 28003KT 9999 VCTS FEW040 19/15 Q1011=
201809050600 METAR LRIA 050600Z 17002KT 9999 -RA VCTS FEW046CB 18/15 Q1012=
201809050630 METAR LRIA 050630Z 28002KT 9999 -RA VCTS FEW044CB 18/15 Q1012
                        R14/19//95=
201809050700 METAR LRIA 050700Z 07004KT 030V090 9999 -TSRA VCTS FEW045CB
                        18/15 Q1012 R14/19//95=
201809050730 METAR COR LRIA 050730Z VRB01KT 6000 SHRA FEW045CB 17/15 Q1011
                        R14/29//95=
201809050800 METAR LRIA 050800Z 31007KT 7000 SHRA FEW045CB 18/16 Q1011
                        R14/29//95=
201809050830 METAR COR LRIA 050830Z 01004KT 340V050 9999 -RA FEW003 SCT045CB
                        18/15 Q1012 R14/29//95=
201809050900 METAR LRIA 050900Z 24003KT 170V290 9999 -RA FEW050CB 18/15
                        Q1012 R14/29//95=
201809050930 METAR LRIA 050930Z 32006KT 9999 -RA FEW050CB 18/15 Q1012
                        R14/29//95=
201809051000 METAR LRIA 051000Z 31007KT 9999 FEW050CB 18/15 Q1012 R14/29//95=
201809051030 METAR LRIA 051030Z 34003KT 290V020 9999 -RA FEW045CB 18/14
                        Q1012 R14/29//95=
201809051100 METAR LRIA 051100Z 24004KT 9999 -SHRA FEW050CB 18/15 Q1013
                        R14/29//95=
201809051130 METAR LRIA 051130Z 27003KT 9999 -SHRA FEW050CB 18/16 Q1012
                        R14/29//95=
201809051200 METAR LRIA 051200Z 20003KT 150V240 9999 FEW050CB 19/16 Q1012
                        R14/29//95=
201809051230 METAR LRIA 051230Z 22001KT 9999 -SHRA FEW050CB 19/15 Q1012
                        R14/29//95=
201809051300 METAR COR LRIA 051300Z 29004KT 9999 FEW050CB 19/15 Q1011
                        R14/29//95=
201809051330 METAR LRIA 051330Z 27003KT 240V310 CAVOK 20/16 Q1011 R14/29//95=
201809051400 METAR LRIA 051400Z VRB01KT CAVOK 20/15 Q1011 R14/29//95=
201809051430 METAR LRIA 051430Z 28003KT 230V300 CAVOK 20/16 Q1011 R14/29//95=
201809051500 METAR LRIA 051500Z 22003KT CAVOK 19/16 Q1011 R14/29//95=
201809051530 METAR LRIA 051530Z 00000KT CAVOK 19/16 Q1011 R14/29//95=
201809051600 METAR LRIA 051600Z 04001KT CAVOK 20/16 Q1011 R14/19//95=
201809051630 METAR LRIA 051630Z 05007KT 9999 FEW060CB 20/15 Q1011 R14/19//95=
201809051700 METAR LRIA 051700Z 07004KT 9999 -SHRA FEW060CB 19/14 Q1011
                        R14/29//95=
201809051730 METAR LRIA 051730Z 36005KT 9999 -RA SCT047 18/13 Q1011 R14/29//95=
201809051800 METAR LRIA 051800Z 34004KT 9999 FEW055CB 18/12 Q1011 R14/29//95=
201809051830 METAR LRIA 051830Z VRB01KT 9999 FEW047 18/14 Q1011 R14/29//95=
201809051900 METAR LRIA 051900Z 26002KT 9999 -RA FEW048 17/14 Q1011 R14/29//95=
201809051930 METAR LRIA 051930Z 28001KT 9999 -RA FEW048 17/14 Q1011 R14/29//95=
201809052000 METAR LRIA 052000Z 29004KT 9999 SCT047 17/14 Q1011 R14/29//95=
201809052030 METAR LRIA 052030Z 26003KT 9999 FEW047 17/15 Q1010 R14/29//95=
201809052100 METAR LRIA 052100Z 23003KT 9999 FEW047 17/14 Q1010 R14/29//95=
201809052130 METAR LRIA 052130Z 25004KT 9999 FEW048 17/15 Q1010 R14/29//95=
201809052200 METAR LRIA 052200Z 21002KT 9999 FEW048 17/15 Q1010 R14/29//95=
201809052230 METAR LRIA 052230Z 25002KT 9999 FEW048 17/15 Q1010 R14/29//95=
201809052300 METAR LRIA 052300Z 16002KT CAVOK 17/15 Q1010 R14/29//95=
201809052330 METAR LRIA 052330Z 20002KT 9999 FEW048 17/15 Q1010 R14/29//95=
201809060000 METAR LRIA 060000Z 00000KT 9999 FEW048 17/15 Q1010 R14/29//95=
201809060030 METAR LRIA 060030Z 01002KT 9999 FEW048 17/15 Q1009 R14/29//95=
201809060100 METAR LRIA 060100Z 27003KT CAVOK 16/15 Q1009 R14/29//95=
201809060130 METAR LRIA 060130Z 28004KT CAVOK 17/14 Q1009 R14/29//95=
201809060200 METAR LRIA 060200Z 33004KT 300V090 CAVOK 17/15 Q1009 R14/29//95=
201809060230 METAR LRIA 060230Z VRB02KT 9999 FEW045 17/14 Q1009 R14/29//95=
201809060300 METAR LRIA 060300Z 00000KT CAVOK 17/15 Q1009 R14/19//95=
201809060330 METAR LRIA 060330Z 29005KT 9999 SCT047 17/15 Q1009 R14/19//95=
201809060400 METAR LRIA 060400Z 34005KT 9999 BKN048 17/15 Q1009 R14/19//95=
201809060430 METAR LRIA 060430Z 31006KT 9999 -RA BKN040 17/13 Q1009 R14/19//95=
201809060500 METAR LRIA 060500Z 28006KT 9999 -RA BKN045 17/14 Q1009 R14/29//95=
201809060530 METAR LRIA 060530Z 29006KT 9999 BKN044 17/14 Q1010 R14/29//95=
201809060600 METAR LRIA 060600Z 29005KT 9999 OVC042 17/14 Q1010 R14/29//95=
201809060630 METAR LRIA 060630Z 29005KT 9999 BKN047 17/15 Q1010 R14/29//95=
201809060700 METAR LRIA 060700Z 29006KT 9999 BKN044 17/14 Q1010 R14/29//95=
201809060730 METAR LRIA 060730Z 30006KT 9999 -RA SCT046 18/14 Q1010 R14/29//95=
201809060800 METAR LRIA 060800Z 29005KT 260V330 9999 FEW049 18/14 Q1009
                        R14/29//95=
201809060830 METAR LRIA 060830Z 30006KT 250V310 9999 FEW012 19/14 Q1009
                        R14/29//95=
201809060900 METAR LRIA 060900Z 30008KT 270V330 9999 FEW014 19/15 Q1009
                        R14/29//95=
201809060930 METAR LRIA 060930Z 31006KT 280V350 9999 FEW015 SCT019 19/14
                        Q1009 R14/CLRD//=
201809061000 METAR LRIA 061000Z 36006KT 9999 FEW015 BKN038 20/15 Q1009=
201809061030 METAR LRIA 061030Z 31008KT 9999 SCT043 20/14 Q1009=
201809061100 METAR LRIA 061100Z 29009KT 9999 FEW019 21/15 Q1009=
201809061130 METAR LRIA 061130Z 31009KT 9999 FEW019 21/15 Q1009=
201809061200 METAR LRIA 061200Z 30010KT 9999 FEW018 21/15 Q1009=
201809061230 METAR LRIA 061230Z 32009KT 9999 FEW019 21/14 Q1009=
201809061300 METAR LRIA 061300Z 29010KT 9999 FEW019 SCT036 21/15 Q1008=
201809061330 METAR LRIA 061330Z 31010KT 9999 SCT018 BKN040 21/15 Q1009=
201809061400 METAR LRIA 061400Z 30010KT 9999 SCT016 BKN040 20/15 Q1009=
201809061430 METAR LRIA 061430Z 31010KT 9999 FEW018 BKN030 20/15 Q1009=
201809061500 METAR LRIA 061500Z 31012KT 9999 SCT024 BKN036 20/15 Q1009=
201809061530 METAR LRIA 061530Z 31012KT 9999 SCT035 BKN047 19/13 Q1009=
201809061600 METAR LRIA 061600Z 31012KT 9999 SCT045 19/13 Q1009=
201809061630 METAR LRIA 061630Z 31011KT CAVOK 18/13 Q1009=
201809061700 METAR LRIA 061700Z 32010KT CAVOK 18/12 Q1009=
201809061730 METAR LRIA 061730Z 31009KT CAVOK 18/12 Q1009=
201809061800 METAR LRIA 061800Z 32010KT CAVOK 18/13 Q1009=
201809061830 METAR LRIA 061830Z 31009KT CAVOK 18/13 Q1009=
201809061900 METAR LRIA 061900Z 30008KT CAVOK 17/13 Q1009=
201809061930 METAR LRIA 061930Z 31006KT CAVOK 17/13 Q1009=
201809062000 METAR LRIA 062000Z 22003KT 190V260 CAVOK 16/13 Q1009=
201809062030 METAR LRIA 062030Z 27006KT CAVOK 16/13 Q1009=
201809062100 METAR COR LRIA 062100Z 22004KT CAVOK 16/13 Q1009=
201809062130 METAR LRIA 062130Z 29004KT CAVOK 15/13 Q1009=
201809062200 METAR LRIA 062200Z 28005KT CAVOK 15/12 Q1009=
201809062230 METAR LRIA 062230Z 26005KT CAVOK 15/12 Q1009=
201809062300 METAR COR LRIA 062300Z 29006KT CAVOK 15/12 Q1009=
201809062330 METAR LRIA 062330Z AUTO 27006KT 9999 NCD 15/12 Q1009=
201809070000 METAR LRIA 070000Z AUTO 29007KT 9999 NCD 15/12 Q1009=
201809070030 METAR LRIA 070030Z AUTO 31009KT 9999 BKN097/// 15/12 Q1009=
201809070100 METAR LRIA 070100Z AUTO 31007KT 9999 OVC097/// 15/12 Q1009=
201809070130 METAR LRIA 070130Z AUTO 31007KT 9999 OVC097/// 15/12 Q1009=
201809070200 METAR LRIA 070200Z 31007KT CAVOK 14/12 Q1009=
201809070230 METAR LRIA 070230Z 29005KT CAVOK 14/12 Q1009=
201809070300 METAR COR LRIA 070300Z 29006KT CAVOK 14/11 Q1009=
201809070330 METAR COR LRIA 070330Z 29004KT CAVOK 13/11 Q1009=
201809070400 METAR LRIA 070400Z 27005KT 240V300 CAVOK 14/12 Q1009=
201809070430 METAR LRIA 070430Z 27006KT CAVOK 14/12 Q1009=
201809070500 METAR LRIA 070500Z 27006KT 9999 FEW010 SCT045 14/12 Q1009=
201809070530 METAR LRIA 070530Z 28006KT 260V320 9999 SCT045 15/12 Q1010=
201809070600 METAR LRIA 070600Z 29007KT 9999 BKN040 15/12 Q1010=
201809070630 METAR LRIA 070630Z 29008KT 9999 BKN040 16/13 Q1010=
201809070700 METAR LRIA 070700Z 29008KT 9999 SCT048 16/13 Q1010=
201809070730 METAR LRIA 070730Z 30009KT CAVOK 17/13 Q1010=
201809070800 METAR LRIA 070800Z 32009KT CAVOK 18/13 Q1010=
201809070830 METAR LRIA 070830Z 34011KT 9999 SCT018 18/13 Q1010=
201809070900 METAR LRIA 070900Z 34010KT 9999 FEW015 19/13 Q1010=
201809070930 METAR LRIA 070930Z 33010KT 9999 FEW018 19/13 Q1010=
201809071000 METAR LRIA 071000Z 33009KT 9999 FEW018 19/13 Q1010=
201809071030 METAR LRIA 071030Z 30009KT CAVOK 20/13 Q1010=
201809071100 METAR LRIA 071100Z 31007KT 280V340 CAVOK 20/13 Q1010=
201809071130 METAR LRIA 071130Z 33007KT CAVOK 21/13 Q1010=
201809071200 METAR LRIA 071200Z 33007KT CAVOK 22/12 Q1010=
201809071230 METAR LRIA 071230Z 34009KT 310V010 CAVOK 22/11 Q1010=
201809071300 METAR LRIA 071300Z 01010KT 320V030 CAVOK 23/12 Q1010=
201809071330 METAR LRIA 071330Z 36009KT CAVOK 23/11 Q1010=
201809071400 METAR LRIA 071400Z 01011KT 340V040 CAVOK 24/10 Q1010=
201809071430 METAR LRIA 071430Z 02010KT CAVOK 23/10 Q1010=
201809071500 METAR LRIA 071500Z 01009KT CAVOK 22/11 Q1010=
201809071530 METAR LRIA 071530Z 33008KT CAVOK 22/11 Q1011=
201809071600 METAR LRIA 071600Z 02007KT CAVOK 21/12 Q1011=
201809071630 METAR LRIA 071630Z 01006KT 9999 SCT040 19/13 Q1011=
201809071700 METAR LRIA 071700Z 01009KT 9999 FEW037 19/13 Q1011=
201809071730 METAR LRIA 071730Z 01007KT CAVOK 18/13 Q1012=
201809071800 METAR LRIA 071800Z 03007KT 9999 FEW038 18/13 Q1012=
201809071830 METAR LRIA 071830Z 03006KT 9999 FEW045 17/11 Q1013=
201809071900 METAR LRIA 071900Z 36004KT 9999 FEW045 17/11 Q1013=
201809071930 METAR LRIA 071930Z 33004KT 9999 BKN046 16/11 Q1013=
201809072000 METAR LRIA 072000Z 32004KT 9999 SCT046 15/11 Q1013=
201809072030 METAR LRIA 072030Z 31004KT 9999 FEW045 15/11 Q1013=
201809072100 METAR LRIA 072100Z 30004KT 9999 FEW045 14/11 Q1013=
201809072130 METAR LRIA 072130Z 31004KT CAVOK 14/11 Q1013=
201809072200 METAR LRIA 072200Z 27005KT CAVOK 14/11 Q1013=
201809072230 METAR LRIA 072230Z 33004KT CAVOK 13/10 Q1013=
201809072300 METAR LRIA 072300Z 26003KT CAVOK 13/11 Q1013=
201809072330 METAR LRIA 072330Z 28003KT CAVOK 13/10 Q1013=
201809080000 METAR LRIA 080000Z AUTO 29005KT 9999 NCD 13/10 Q1013=
201809080030 METAR LRIA 080030Z 26002KT CAVOK 12/10 Q1013=
201809080100 METAR LRIA 080100Z 28006KT CAVOK 12/10 Q1013=
201809080130 METAR LRIA 080130Z 31006KT CAVOK 13/10 Q1013=
201809080200 METAR LRIA 080200Z 29005KT CAVOK 12/10 Q1013=
201809080230 METAR LRIA 080230Z 26003KT 190V290 CAVOK 11/09 Q1013=
201809080300 METAR LRIA 080300Z 29005KT CAVOK 12/10 Q1013=
201809080330 METAR LRIA 080330Z 28005KT CAVOK 11/10 Q1013=
201809080400 METAR LRIA 080400Z 29005KT CAVOK 12/10 Q1013=
201809080430 METAR LRIA 080430Z 29005KT CAVOK 12/10 Q1014=
201809080500 METAR LRIA 080500Z 30005KT CAVOK 13/10 Q1014=
201809080530 METAR LRIA 080530Z 32007KT CAVOK 14/11 Q1014=
201809080600 METAR LRIA 080600Z 33005KT 9999 SCT009 14/11 Q1014=
201809080630 METAR LRIA 080630Z 33005KT 9999 FEW006 BKN009 14/11 Q1015=
201809080700 METAR COR LRIA 080700Z 34006KT 9999 FEW008 BKN031 15/12 Q1015=
201809080730 METAR LRIA 080730Z 32004KT 290V360 9999 FEW009 BKN031 15/12
                        Q1015=
201809080800 METAR LRIA 080800Z 33004KT 310V020 9999 FEW008 SCT031 16/12
                        Q1015=
201809080830 METAR LRIA 080830Z 33004KT 310V020 9999 FEW008 SCT031 16/12
                        Q1015=
201809080900 METAR LRIA 080900Z 32006KT 9999 FEW014 OVC044 17/12 Q1015=
201809080930 METAR LRIA 080930Z 33007KT 9999 FEW016 BKN046 17/12 Q1015=
201809081000 METAR LRIA 081000Z 31007KT 9999 FEW018 BKN048 17/12 Q1015=
201809081030 METAR LRIA 081030Z 31007KT 280V340 9999 OVC049 17/12 Q1015=
201809081100 METAR LRIA 081100Z 30008KT 9999 OVC040 17/11 Q1015=
201809081130 METAR LRIA 081130Z 31008KT 9999 OVC048 18/11 Q1015=
201809081200 METAR COR LRIA 081200Z 30007KT CAVOK 19/11 Q1015=
201809081230 METAR LRIA 081230Z 29007KT CAVOK 20/11 Q1015=
201809081300 METAR LRIA 081300Z 31006KT 240V350 CAVOK 21/10 Q1015=
201809081330 METAR LRIA 081330Z 33009KT CAVOK 20/09 Q1015=
201809081400 METAR LRIA 081400Z 32007KT CAVOK 21/09 Q1015=
201809081430 METAR LRIA 081430Z 31008KT 270V340 CAVOK 22/10 Q1015=
201809081500 METAR LRIA 081500Z 31008KT 280V340 CAVOK 21/09 Q1015=
201809081530 METAR LRIA 081530Z 32009KT CAVOK 21/09 Q1015=
201809081600 METAR LRIA 081600Z 31008KT CAVOK 20/09 Q1015=
201809081630 METAR LRIA 081630Z 35006KT CAVOK 20/09 Q1015=
201809081700 METAR LRIA 081700Z 03006KT CAVOK 18/10 Q1016=
201809081730 METAR LRIA 081730Z 03006KT CAVOK 17/10 Q1016=
201809081800 METAR LRIA 081800Z 34005KT CAVOK 16/10 Q1016=
201809081830 METAR LRIA 081830Z 32003KT CAVOK 15/10 Q1016=
201809081900 METAR LRIA 081900Z 32004KT CAVOK 15/09 Q1017=
201809081930 METAR LRIA 081930Z 33006KT CAVOK 14/09 Q1017=
201809082000 METAR LRIA 082000Z 33004KT CAVOK 14/10 Q1016=
201809082030 METAR LRIA 082030Z 28003KT CAVOK 13/10 Q1016=
201809082100 METAR LRIA 082100Z 30004KT CAVOK 13/10 Q1017=
201809082130 METAR LRIA 082130Z 25002KT CAVOK 13/10 Q1016=
201809082200 METAR LRIA 082200Z 27004KT CAVOK 13/10 Q1017=
201809082230 METAR LRIA 082230Z 32004KT CAVOK 14/10 Q1017=
201809082300 METAR LRIA 082300Z 31004KT CAVOK 14/10 Q1016=
201809082330 METAR LRIA 082330Z 29004KT CAVOK 13/10 Q1016=
201809090000 METAR LRIA 090000Z 30006KT CAVOK 14/10 Q1016=
201809090030 METAR LRIA 090030Z 31005KT CAVOK 14/10 Q1016=
201809090100 METAR LRIA 090100Z 31006KT CAVOK 13/10 Q1016=
201809090130 METAR LRIA 090130Z 32008KT CAVOK 14/10 Q1016=
201809090200 METAR LRIA 090200Z 32007KT CAVOK 13/10 Q1016=
201809090230 METAR LRIA 090230Z 32006KT CAVOK 13/10 Q1016=
201809090300 METAR LRIA 090300Z 33004KT 9999 SCT047 13/10 Q1016=
201809090330 METAR LRIA 090330Z 29005KT 9999 FEW025 SCT047 13/10 Q1016=
201809090400 METAR LRIA 090400Z 31004KT 280V340 9999 BKN040 14/10 Q1016=
201809090430 METAR LRIA 090430Z 31006KT 9999 FEW048 14/10 Q1016=
201809090500 METAR LRIA 090500Z 30007KT CAVOK 15/11 Q1016=
201809090530 METAR LRIA 090530Z 31010KT 9999 FEW015 SCT040 15/11 Q1016=
201809090600 METAR LRIA 090600Z 31010KT 9999 FEW017 SCT023 15/11 Q1016=
201809090630 METAR LRIA 090630Z 32009KT 270V340 9999 FEW017 BKN024 15/11
                        Q1016=
201809090700 METAR LRIA 090700Z 32010KT 9999 FEW015 SCT019 16/11 Q1016=
201809090730 METAR LRIA 090730Z 31012KT 9999 SCT015 SCT019 15/11 Q1016=
201809090800 METAR LRIA 090800Z 31010KT 9999 FEW013 SCT017 16/11 Q1016=
201809090830 METAR LRIA 090830Z 32010KT 9999 FEW012 BKN016 16/11 Q1016=
201809090900 METAR LRIA 090900Z 31011KT 9999 FEW015 SCT019 16/11 Q1016=
201809090930 METAR LRIA 090930Z 31011KT 9999 SCT017 SCT022 17/11 Q1016=
201809091000 METAR LRIA 091000Z 31013KT 9999 -RA SCT015 BKN020 16/12 Q1016=
201809091030 METAR LRIA 091030Z 31011KT 9999 -RA FEW015 BKN020 16/12 Q1016
                        R14/19//95=
201809091100 METAR LRIA 091100Z 30011KT 270V330 9999 SCT015 BKN023 17/12
                        Q1016 R14/CLRD//=
201809091130 METAR LRIA 091130Z 31010KT 9999 SCT017 BKN023 18/12 Q1016=
201809091200 METAR LRIA 091200Z 31012KT 9999 SCT017 SCT028 18/11 Q1016=
201809091230 METAR LRIA 091230Z 31011KT 9999 FEW020 18/12 Q1016=
201809091300 METAR LRIA 091300Z 30009KT 9999 FEW025 18/12 Q1016=
201809091330 METAR LRIA 091330Z 31014KT 9999 FEW025 18/12 Q1016=
201809091400 METAR LRIA 091400Z 31012KT 9999 FEW025 19/12 Q1016=
201809091430 METAR LRIA 091430Z 32012KT 9999 FEW025 19/12 Q1016=
201809091500 METAR COR LRIA 091500Z 32011KT 9999 -RA FEW030 19/11 Q1016
                        R14/29//95=
201809091530 METAR LRIA 091530Z 33008KT 9999 VCSH FEW030 FEW040CB 17/12
                        Q1017 R14/29//95=
201809091600 METAR LRIA 091600Z 32007KT 9999 FEW030 17/12 Q1017 R14/29//95=
201809091630 METAR LRIA 091630Z 34013KT 9999 -RA FEW030 FEW040CB 17/10
                        Q1017 R14/CLRD//=
201809091700 METAR LRIA 091700Z 33006KT 9999 -RA FEW040CB 15/10 Q1017
                        R14/29//95=
201809091730 METAR LRIA 091730Z 31008KT 9999 -RA FEW045CB 14/10 Q1017
                        R14/29//95=
201809091800 METAR COR LRIA 091800Z 31009KT 9999 FEW045CB 15/10 Q1017
                        R14/29//95=
201809091830 METAR LRIA 091830Z 32006KT 9999 FEW045CB 15/11 Q1018 R14/29//95=
201809091900 METAR LRIA 091900Z 29007KT 250V320 9999 -RA FEW045CB 16/12
                        Q1018 R14/29//95=
201809091930 METAR LRIA 091930Z 27007KT 9999 FEW019 FEW045CB 16/12 Q1017
                        R14/29//95=
201809092000 METAR LRIA 092000Z 30004KT 250V340 9999 FEW019 15/12 Q1017
                        R14/29//95=
201809092030 METAR LRIA 092030Z 32008KT CAVOK 16/12 Q1017 R14/29//95=
201809092100 METAR LRIA 092100Z 31007KT 280V350 9999 FEW045 16/12 Q1017
                        R14/29//95=
201809092130 METAR LRIA 092130Z 28007KT 9999 SCT038 16/11 Q1017 R14/19//95=
201809092200 METAR LRIA 092200Z 31006KT 9999 BKN036 16/11 Q1017 R14/19//95=
201809092230 METAR LRIA 092230Z 30006KT 9999 BKN034 16/11 Q1017 R14/19//95=
201809092300 METAR LRIA 092300Z 30008KT 9999 -RA FEW036 16/11 Q1016 R14/19//95=
201809092330 METAR LRIA 092330Z 31006KT 9999 -RA FEW036 16/12 Q1016 R14/19//95=
201809100000 METAR LRIA 100000Z 32005KT 9999 FEW035 15/11 Q1016 R14/19//95=
201809100030 METAR LRIA 100030Z 32005KT 9999 SCT037 16/11 Q1016 R14/19//95=
201809100100 METAR LRIA 100100Z 31008KT 9999 FEW037 15/12 Q1016 R14/19//95=
201809100130 METAR LRIA 100130Z 31005KT 9999 SCT040 15/12 Q1016 R14/19//95=
201809100200 METAR LRIA 100200Z 30004KT 9999 FEW035 15/12 Q1016 R14/19//95=
201809100230 METAR LRIA 100230Z 28003KT 250V320 9999 SCT035 15/12 Q1015
                        R14/CLRD//=
201809100300 METAR LRIA 100300Z 30007KT 280V340 9999 FEW044 16/12 Q1015=
201809100330 METAR LRIA 100330Z 30008KT CAVOK 16/12 Q1015=
201809100400 METAR LRIA 100400Z 30012KT CAVOK 16/11 Q1015=
201809100430 METAR LRIA 100430Z 31013KT CAVOK 16/11 Q1015=
201809100500 METAR LRIA 100500Z 31015KT CAVOK 16/11 Q1015=
201809100530 METAR LRIA 100530Z 31013KT 9999 FEW020 17/11 Q1015=
201809100600 METAR LRIA 100600Z 32014KT CAVOK 17/11 Q1015=
201809100630 METAR LRIA 100630Z 31013KT CAVOK 18/11 Q1015=
201809100700 METAR LRIA 100700Z 31017KT CAVOK 18/11 Q1015=
201809100730 METAR LRIA 100730Z 32011KT 9999 FEW020 18/12 Q1015=
201809100800 METAR LRIA 100800Z 33015G25KT 9999 FEW027 18/11 Q1015=
201809100830 METAR LRIA 100830Z 32015KT 9999 FEW030 19/11 Q1015=
201809100900 METAR LRIA 100900Z 33014KT 9999 FEW030 19/11 Q1015=
201809100930 METAR LRIA 100930Z 33014KT 9999 FEW030 20/11 Q1015=
201809101000 METAR LRIA 101000Z 34012KT 9999 FEW033 21/12 Q1015=
201809101030 METAR LRIA 101030Z 33012KT 9999 SCT045 22/12 Q1014=
201809101100 METAR LRIA 101100Z 33014KT 9999 FEW040 SCT047 22/11 Q1014=
201809101130 METAR LRIA 101130Z 32016KT 9999 SCT045 23/12 Q1014=
201809101200 METAR LRIA 101200Z 32016KT 9999 FEW047 23/11 Q1014=
201809101230 METAR LRIA 101230Z 32014KT 280V340 9999 FEW045CB SCT047 22/11
                        Q1014=
201809101300 METAR COR LRIA 101300Z 31015KT 9999 -SHRA FEW040CB SCT047
                        22/11 Q1014=
201809101330 METAR LRIA 101330Z 31012KT 290V350 9999 FEW040CB 21/12 Q1014=
201809101400 METAR LRIA 101400Z 31018KT 9999 SCT050CB 22/12 Q1013 R14/29//95=
201809101430 METAR LRIA 101430Z 05018KT 9999 SCT047CB 20/11 Q1015 R14/29//95=
201809101500 METAR LRIA 101500Z 03009KT 9999 FEW047CB 17/13 Q1015 R14/29//95=
201809101530 METAR LRIA 101530Z 36005KT CAVOK 18/13 Q1015 R14/29//95=
201809101600 METAR LRIA 101600Z 01004KT CAVOK 17/12 Q1016 R14/CLRD//=
201809101630 METAR LRIA 101630Z 02004KT CAVOK 17/12 Q1016=
201809101700 METAR LRIA 101700Z 32005KT 9999 -RA SCT048 17/12 Q1016=
201809101730 METAR LRIA 101730Z 32006KT 9999 -RA SCT048 17/13 Q1016=
201809101800 METAR LRIA 101800Z 31006KT 9999 -RA FEW048 17/12 Q1017=
201809101830 METAR LRIA 101830Z 33008KT 9999 -RA FEW048 17/11 Q1017=
201809101900 METAR LRIA 101900Z 31005KT 9999 FEW048 16/11 Q1017=
201809101930 METAR LRIA 101930Z 30008KT CAVOK 17/11 Q1016=
201809102000 METAR LRIA 102000Z 31009KT 9999 SCT035 17/11 Q1016=
201809102030 METAR LRIA 102030Z 32007KT 9999 SCT036 17/11 Q1016=
201809102100 METAR LRIA 102100Z 31008KT 270V330 9999 SCT035 17/12 Q1016=
201809102130 METAR LRIA 102130Z 31009KT 9999 -RA BKN032 17/12 Q1016=
201809102200 METAR COR LRIA 102200Z 30007KT 9999 -RA BKN031 16/12 Q1016
                        R14/29//95=
201809102230 METAR LRIA 102230Z 31011KT 9999 RA FEW017 BKN022 16/12 Q1016
                        R14/29//95=
201809102300 METAR LRIA 102300Z 33011KT 7000 RA FEW012 BKN022 15/13 Q1016
                        R14/29//95=
201809102330 METAR LRIA 102330Z 33011KT 7000 RA FEW010 BKN022 15/13 Q1016
                        R14/29//95=
201809110000 METAR LRIA 110000Z 33011KT 7000 -RA SCT006 BKN020 15/13 Q1016
                        RERA R14/29//95=
201809110030 METAR LRIA 110030Z 32010KT 9999 -RA BKN004 BKN020 15/13 Q1016
                        R14/29//95=
201809110100 METAR LRIA 110100Z 33011KT 9999 BKN004 BKN020 15/13 Q1016
                        R14/29//95=
201809110130 METAR LRIA 110130Z 33011KT 9999 BKN007 BKN020 15/13 Q1016
                        R14/29//95=
201809110200 METAR LRIA 110200Z 33010KT 9999 SCT010 BKN020 15/13 Q1016
                        R14/29//95=
201809110230 METAR LRIA 110230Z 32008KT 9999 SCT010 SCT033 15/13 Q1017
                        R14/29//95=
201809110300 METAR LRIA 110300Z 32009KT 9999 BKN009 BKN036 15/12 Q1017
                        R14/29//95=
201809110330 METAR LRIA 110330Z 30007KT 9999 SCT013 BKN036 15/12 Q1017
                        R14/29//95=
201809110400 METAR LRIA 110400Z 30006KT 9999 SCT009 BKN033 15/13 Q1017
                        R14/29//95=
201809110430 METAR LRIA 110430Z 31008KT 9999 FEW015 BKN037 15/13 Q1017
                        R14/29//95=
201809110500 METAR LRIA 110500Z 31006KT 9999 SCT015 BKN040 15/13 Q1017
                        R14/29//95=
201809110530 METAR LRIA 110530Z 30008KT 9999 SCT015 BKN042 16/13 Q1017
                        R14/29//95=
201809110600 METAR LRIA 110600Z 31010KT 9999 SCT016 BKN042 16/12 Q1017
                        R14/29//95=
201809110630 METAR LRIA 110630Z 31010KT 9999 BKN016 16/13 Q1017 R14/19//95=
201809110700 METAR LRIA 110700Z 32010KT 9999 BKN015 16/12 Q1017 R14/19//95=
201809110730 METAR LRIA 110730Z 32011KT 9999 FEW015 BKN039 17/12 Q1018
                        R14/19//95=
201809110800 METAR LRIA 110800Z 31011KT 9999 FEW015 SCT041 17/13 Q1018
                        R14/19//95=
201809110830 METAR COR LRIA 110830Z 31012KT 9999 -RA FEW016 SCT022 BKN041
                        17/13 Q1018 R14/29//95=
201809110900 METAR LRIA 110900Z 32008KT 8000 -RA SCT016 SCT021 15/13 Q1018
                        R14/29//95=
201809110930 METAR LRIA 110930Z 32008KT 9999 FEW010 SCT013 BKN035 16/13
                        Q1018 R14/29//95=
201809111000 METAR LRIA 111000Z 32012KT 9000 SCT010 BKN024 16/13 Q1018
                        R14/29//95=
201809111030 METAR LRIA 111030Z 32009KT 9999 FEW007 BKN009 16/13 Q1018
                        R14/29//95=
201809111100 METAR LRIA 111100Z 32008KT 9999 -RA BKN009 16/14 Q1018 R14/29//95=
201809111130 METAR LRIA 111130Z 33007KT 9999 FEW010 BKN013 17/14 Q1018
                        R14/29//95=
201809111200 METAR LRIA 111200Z 33008KT 9999 -RA SCT011 BKN014 17/14 Q1018
                        R14/29//95=
201809111230 METAR COR LRIA 111230Z 33009KT 8000 BKN011 OVC015 17/14 Q1018
                        R14/29//95=
201809111300 METAR LRIA 111300Z 33008KT 9999 -RA BKN011 OVC016 17/14 Q1018
                        R14/29//95=
201809111330 METAR LRIA 111330Z 33008KT 9999 -RA SCT011 BKN014 17/14 Q1018
                        R14/29//95=
201809111400 METAR LRIA 111400Z 32011KT 9999 SCT010 BKN015 17/15 Q1018
                        R14/29//95=
201809111430 METAR LRIA 111430Z 32010KT 9999 SCT012 BKN034 18/15 Q1018
                        R14/29//95=
201809111500 METAR LRIA 111500Z 32011KT 9999 FEW012 BKN024 18/14 Q1018
                        R14/29//95=
201809111530 METAR LRIA 111530Z 33008KT 9000 FEW020 SCT028 18/15 Q1019
                        R14/29//95=
201809111600 METAR LRIA 111600Z 32007KT 9999 FEW020 SCT026 18/15 Q1019
                        R14/29//95=
201809111630 METAR LRIA 111630Z 32006KT 9999 SCT022 17/15 Q1019 R14/29//95=
201809111700 METAR LRIA 111700Z 31005KT 9999 SCT030 17/15 Q1019 R14/29//95=
201809111730 METAR LRIA 111730Z 30005KT 9999 FEW020 FEW030CB 17/15 Q1019
                        R14/29//95=
201809111800 METAR LRIA 111800Z 30005KT 9999 SCT035 17/15 Q1019 R14/29//95=
201809111830 METAR LRIA 111830Z 30008KT 9999 BKN035 17/15 Q1019 R14/29//95=
201809111900 METAR LRIA 111900Z 32005KT 9999 SCT045 17/15 Q1019 R14/29//95=
201809111930 METAR LRIA 111930Z 30007KT 9999 SCT048 17/15 Q1020 R14/29//95=
201809112000 METAR LRIA 112000Z 31007KT 9999 FEW048 17/15 Q1020 R14/29//95=
201809112030 METAR LRIA 112030Z 30007KT CAVOK 17/15 Q1020 R14/19//95=
201809112100 METAR LRIA 112100Z 31008KT CAVOK 17/14 Q1020 R14/19//95=
201809112130 METAR LRIA 112130Z 31008KT 9999 SCT040 17/14 Q1020 R14/19//95=
201809112200 METAR LRIA 112200Z 32008KT 9999 SCT040 17/14 Q1020 R14/19//95=
201809112230 METAR LRIA 112230Z 32008KT 9999 SCT047 17/14 Q1020 R14/19//95=
201809112300 METAR LRIA 112300Z 32008KT 9999 FEW047 17/14 Q1020 R14/19//95=
201809112330 METAR LRIA 112330Z 31008KT CAVOK 17/14 Q1021 R14/19//95=
201809120000 METAR LRIA 120000Z 31009KT CAVOK 17/13 Q1021 R14/19//95=
201809120030 METAR LRIA 120030Z 31009KT 9999 SCT035 16/13 Q1021 R14/19//95=
201809120100 METAR LRIA 120100Z 31008KT 9999 FEW045 16/13 Q1021 R14/19//95=
201809120130 METAR LRIA 120130Z 31009KT 9999 FEW045 15/13 Q1021 R14/19//95=
201809120200 METAR LRIA 120200Z 31008KT CAVOK 15/12 Q1021 R14/19//95=
201809120230 METAR LRIA 120230Z 31007KT CAVOK 15/12 Q1021 R14/19//95=
201809120300 METAR LRIA 120300Z 29006KT CAVOK 14/12 Q1021 R14/19//95=
201809120330 METAR LRIA 120330Z 30006KT CAVOK 14/12 Q1022 R14/19//95=
201809120400 METAR LRIA 120400Z 30006KT CAVOK 14/12 Q1022 R14/19//95=
201809120430 METAR LRIA 120430Z 27005KT CAVOK 14/12 Q1022 R14/19//95=
201809120500 METAR LRIA 120500Z 29006KT CAVOK 15/12 Q1023 R14/19//95=
201809120530 METAR LRIA 120530Z 30007KT 9999 FEW048 16/13 Q1023 R14/19//95=
201809120600 METAR LRIA 120600Z 30003KT 230V360 9999 FEW048 16/13 Q1023
                        R14/CLRD//=
201809120630 METAR LRIA 120630Z 30005KT 270V330 9999 FEW010 17/13 Q1023=
201809120700 METAR LRIA 120700Z 32005KT 9999 FEW010 18/14 Q1023=
201809120730 METAR LRIA 120730Z 31006KT 290V360 9999 FEW011 19/14 Q1023=
201809120800 METAR LRIA 120800Z 31007KT 270V340 9999 FEW015 20/15 Q1023=
201809120830 METAR LRIA 120830Z 31007KT 280V340 9999 FEW015 21/15 Q1023=
201809120900 METAR LRIA 120900Z 33006KT 9999 FEW020 21/15 Q1023=
201809120930 METAR LRIA 120930Z 32007KT 290V350 9999 FEW022 22/15 Q1023=
201809121000 METAR LRIA 121000Z 34006KT 300V060 9999 FEW022 23/15 Q1023=
201809121030 METAR LRIA 121030Z 31005KT 260V020 9999 FEW030 24/14 Q1023=
201809121100 METAR LRIA 121100Z 30007KT 9999 FEW030 24/14 Q1023=
201809121130 METAR LRIA 121130Z 35006KT 320V020 9999 FEW035 24/13 Q1023=
201809121200 METAR LRIA 121200Z 34007KT 9999 FEW037 25/14 Q1023=
201809121230 METAR LRIA 121230Z VRB05KT 9999 FEW040 25/14 Q1022=
201809121300 METAR LRIA 121300Z 32006KT 9999 FEW040 24/14 Q1022=
201809121330 METAR LRIA 121330Z 34005KT 300V030 9999 FEW045 25/13 Q1022=
201809121400 METAR LRIA 121400Z 33005KT 270V360 CAVOK 25/13 Q1022=
201809121430 METAR LRIA 121430Z VRB01KT 9999 SCT045 25/13 Q1022=
201809121500 METAR LRIA 121500Z VRB02KT 9999 FEW045 24/13 Q1022=
201809121530 METAR LRIA 121530Z 33002KT CAVOK 24/14 Q1022=
201809121600 METAR LRIA 121600Z 00000KT CAVOK 24/13 Q1022=
201809121630 METAR LRIA 121630Z VRB01KT CAVOK 24/13 Q1021=
201809121700 METAR LRIA 121700Z 34002KT CAVOK 22/14 Q1021=
201809121730 METAR LRIA 121730Z 13002KT CAVOK 21/14 Q1021=
201809121800 METAR LRIA 121800Z 20001KT CAVOK 21/14 Q1022=
201809121830 METAR LRIA 121830Z VRB01KT CAVOK 20/14 Q1022=
201809121900 METAR LRIA 121900Z 25001KT CAVOK 20/14 Q1022=
201809121930 METAR LRIA 121930Z VRB01KT CAVOK 19/14 Q1022=
201809122000 METAR LRIA 122000Z 17002KT CAVOK 19/14 Q1022=
201809122030 METAR LRIA 122030Z 00000KT CAVOK 18/14 Q1022=
201809122100 METAR LRIA 122100Z 28001KT CAVOK 18/13 Q1022=
201809122130 METAR LRIA 122130Z 00000KT CAVOK 18/14 Q1022=
201809122200 METAR LRIA 122200Z 24002KT CAVOK 18/13 Q1022=
201809122230 METAR LRIA 122230Z 00000KT CAVOK 18/13 Q1021=
201809122300 METAR LRIA 122300Z 26001KT CAVOK 18/13 Q1021=
201809122330 METAR LRIA 122330Z 00000KT CAVOK 17/13 Q1021=
201809130000 METAR LRIA 130000Z 00000KT CAVOK 16/13 Q1021=
201809130030 METAR LRIA 130030Z 00000KT CAVOK 16/13 Q1021=
201809130100 METAR LRIA 130100Z 00000KT 6000 NSC 15/13 Q1021=
201809130130 METAR LRIA 130130Z 00000KT 8000 NSC 15/12 Q1020=
201809130200 METAR LRIA 130200Z 00000KT CAVOK 14/12 Q1020=
201809130230 METAR LRIA 130230Z 00000KT CAVOK 15/12 Q1020=
201809130300 METAR LRIA 130300Z 05002KT 020V080 CAVOK 14/12 Q1020=
201809130330 METAR LRIA 130330Z 05002KT CAVOK 14/12 Q1020=
201809130400 METAR LRIA 130400Z 09004KT CAVOK 15/12 Q1020=
201809130430 METAR LRIA 130430Z 07002KT 9999 VCFG NSC 15/12 Q1020=
201809130500 METAR LRIA 130500Z 09004KT 9999 VCFG NSC 16/13 Q1020=
201809130530 METAR LRIA 130530Z 10005KT 9999 VCFG NSC 16/13 Q1020=
201809130600 METAR LRIA 130600Z 10004KT 9999 VCFG NSC 17/13 Q1020=
201809130630 METAR LRIA 130630Z 12004KT CAVOK 18/14 Q1020=
201809130700 METAR LRIA 130700Z 12005KT CAVOK 19/14 Q1020=
201809130730 METAR LRIA 130730Z 12005KT 090V160 9999 FEW025 21/15 Q1020=
201809130800 METAR LRIA 130800Z 13005KT 9999 FEW025 22/15 Q1020=
201809130830 METAR LRIA 130830Z 13005KT 080V190 9999 SCT030 23/15 Q1020=
201809130900 METAR LRIA 130900Z 17005KT 130V240 9999 SCT030 24/14 Q1020=
201809130930 METAR LRIA 130930Z 14004KT 060V200 9999 SCT035 23/13 Q1020=
201809131000 METAR LRIA 131000Z 16005KT 120V210 9999 SCT035 25/14 Q1019=
201809131030 METAR LRIA 131030Z 15004KT 100V250 9999 SCT037 25/13 Q1019=
201809131100 METAR LRIA 131100Z VRB03KT 9999 SCT040 25/13 Q1019=
201809131130 METAR LRIA 131130Z VRB04KT 9999 SCT043 26/13 Q1018=
201809131200 METAR LRIA 131200Z 16005KT 9999 SCT044 26/13 Q1018=
201809131230 METAR LRIA 131230Z 11005KT CAVOK 26/13 Q1018=
201809131300 METAR LRIA 131300Z 11003KT 070V160 CAVOK 26/12 Q1018=
201809131330 METAR LRIA 131330Z 11004KT 070V150 CAVOK 26/12 Q1017=
201809131400 METAR LRIA 131400Z 10005KT 070V130 CAVOK 26/12 Q1017=
201809131430 METAR LRIA 131430Z 10005KT CAVOK 25/13 Q1017=
201809131500 METAR LRIA 131500Z 11006KT CAVOK 25/12 Q1017=
201809131530 METAR LRIA 131530Z 11006KT CAVOK 25/13 Q1017=
201809131600 METAR LRIA 131600Z 11008KT CAVOK 24/12 Q1017=
201809131630 METAR LRIA 131630Z 09006KT CAVOK 22/12 Q1017=
201809131700 METAR LRIA 131700Z 08005KT CAVOK 21/11 Q1017=
201809131730 METAR LRIA 131730Z 10005KT CAVOK 21/11 Q1017=
201809131800 METAR LRIA 131800Z 10004KT CAVOK 20/11 Q1017=
201809131830 METAR LRIA 131830Z 09003KT CAVOK 20/11 Q1017=
201809131900 METAR LRIA 131900Z 06002KT CAVOK 19/11 Q1017=
201809131930 METAR LRIA 131930Z 09004KT CAVOK 19/11 Q1017=
201809132000 METAR LRIA 132000Z 08003KT CAVOK 18/11 Q1017=
201809132030 METAR LRIA 132030Z 07003KT CAVOK 18/11 Q1016=
201809132100 METAR LRIA 132100Z 10005KT CAVOK 18/11 Q1016=
201809132130 METAR LRIA 132130Z 06003KT CAVOK 17/11 Q1016=
201809132200 METAR LRIA 132200Z 10004KT CAVOK 17/11 Q1016=
201809132230 METAR LRIA 132230Z 06004KT CAVOK 16/11 Q1016=
201809132300 METAR LRIA 132300Z 00000KT CAVOK 17/11 Q1016=
201809132330 METAR LRIA 132330Z 08003KT CAVOK 17/11 Q1016=
201809140000 METAR LRIA 140000Z 30003KT CAVOK 14/11 Q1016=
201809140030 METAR LRIA 140030Z 01002KT CAVOK 15/11 Q1016=
201809140100 METAR LRIA 140100Z 30004KT CAVOK 13/11 Q1016=
201809140130 METAR LRIA 140130Z 31002KT CAVOK 13/11 Q1016=
201809140200 METAR LRIA 140200Z 29001KT CAVOK 13/11 Q1016=
201809140230 METAR LRIA 140230Z 28002KT CAVOK 13/11 Q1016=
201809140300 METAR LRIA 140300Z 26002KT CAVOK 14/11 Q1016=
201809140330 METAR LRIA 140330Z 21002KT CAVOK 14/12 Q1016=
201809140400 METAR LRIA 140400Z 26002KT CAVOK 14/12 Q1016=
201809140430 METAR LRIA 140430Z VRB01KT CAVOK 15/12 Q1016=
201809140500 METAR LRIA 140500Z 00000KT CAVOK 16/13 Q1016=
201809140530 METAR LRIA 140530Z 28003KT CAVOK 16/13 Q1016=
201809140600 METAR LRIA 140600Z 28003KT 240V310 CAVOK 17/13 Q1016=
201809140630 METAR LRIA 140630Z 27003KT 250V330 CAVOK 19/13 Q1016=
201809140700 METAR LRIA 140700Z 26003KT 220V290 CAVOK 20/14 Q1016=
201809140730 METAR LRIA 140730Z 25004KT 200V290 CAVOK 21/14 Q1016=
201809140800 METAR LRIA 140800Z 24004KT 220V280 CAVOK 22/14 Q1016=
201809140830 METAR LRIA 140830Z 27005KT 230V310 CAVOK 24/14 Q1016=
201809140900 METAR LRIA 140900Z 32004KT 260V040 CAVOK 25/14 Q1016=
201809140930 METAR LRIA 140930Z VRB04KT CAVOK 26/13 Q1016=
201809141000 METAR LRIA 141000Z VRB02KT CAVOK 26/12 Q1016=
201809141030 METAR LRIA 141030Z 23004KT 150V270 CAVOK 27/12 Q1016=
201809141100 METAR LRIA 141100Z VRB04KT CAVOK 27/11 Q1015=
201809141130 METAR LRIA 141130Z 31003KT 240V040 CAVOK 27/11 Q1015=
201809141200 METAR LRIA 141200Z VRB04KT CAVOK 28/11 Q1015=
201809141230 METAR LRIA 141230Z 02004KT 350V060 CAVOK 27/10 Q1015=
201809141300 METAR LRIA 141300Z 30004KT 200V330 CAVOK 28/11 Q1015=
201809141330 METAR LRIA 141330Z 31004KT 270V350 CAVOK 27/11 Q1015=
201809141400 METAR LRIA 141400Z 31005KT 280V340 CAVOK 27/11 Q1015=
201809141430 METAR LRIA 141430Z 33005KT 290V020 CAVOK 27/11 Q1015=
201809141500 METAR LRIA 141500Z 34009KT CAVOK 26/12 Q1015=
201809141530 METAR LRIA 141530Z 33006KT CAVOK 26/12 Q1015=
201809141600 METAR LRIA 141600Z 33005KT CAVOK 24/13 Q1015=
201809141630 METAR LRIA 141630Z 32006KT CAVOK 23/12 Q1015=
201809141700 METAR LRIA 141700Z 32006KT CAVOK 23/11 Q1015=
201809141730 METAR LRIA 141730Z 33005KT CAVOK 22/12 Q1015=
201809141800 METAR LRIA 141800Z 33006KT CAVOK 23/12 Q1015=
201809141830 METAR LRIA 141830Z 32005KT CAVOK 22/12 Q1015=
201809141900 METAR LRIA 141900Z 16002KT CAVOK 22/12 Q1015=
201809141930 METAR LRIA 141930Z 26003KT 230V350 CAVOK 21/12 Q1015=
201809142000 METAR LRIA 142000Z 22003KT CAVOK 21/12 Q1016=
201809142030 METAR LRIA 142030Z 19002KT CAVOK 20/12 Q1016=
201809142100 METAR LRIA 142100Z 23004KT CAVOK 19/12 Q1016=
201809142130 METAR LRIA 142130Z 00000KT CAVOK 20/12 Q1016=
201809142200 METAR LRIA 142200Z 00000KT CAVOK 19/12 Q1016=
201809142230 METAR LRIA 142230Z 26002KT CAVOK 19/12 Q1016=
201809142300 METAR LRIA 142300Z 27003KT CAVOK 18/12 Q1016=
201809142330 METAR LRIA 142330Z 26004KT CAVOK 18/12 Q1015=
201809150000 METAR LRIA 150000Z 27004KT CAVOK 17/12 Q1015=
201809150030 METAR LRIA 150030Z 26003KT CAVOK 16/13 Q1015=
201809150100 METAR LRIA 150100Z 27004KT CAVOK 16/13 Q1015=
201809150130 METAR LRIA 150130Z 25003KT CAVOK 15/12 Q1015=
201809150200 METAR LRIA 150200Z 25004KT CAVOK 15/13 Q1015=
201809150230 METAR LRIA 150230Z 27004KT CAVOK 15/12 Q1015=
201809150300 METAR LRIA 150300Z 25003KT CAVOK 15/12 Q1015=
201809150330 METAR LRIA 150330Z 24004KT CAVOK 14/12 Q1015=
201809150400 METAR LRIA 150400Z 23002KT CAVOK 14/12 Q1015=
201809150430 METAR LRIA 150430Z 22004KT CAVOK 15/12 Q1016=
201809150500 METAR LRIA 150500Z 25003KT CAVOK 16/12 Q1016=
201809150530 METAR LRIA 150530Z 24003KT 210V270 CAVOK 17/12 Q1016=
201809150600 METAR LRIA 150600Z 24003KT CAVOK 18/12 Q1016=
201809150630 METAR LRIA 150630Z 26004KT 230V300 CAVOK 19/13 Q1016=
201809150700 METAR LRIA 150700Z 27003KT 250V330 CAVOK 20/13 Q1016=
201809150730 METAR LRIA 150730Z 25004KT 210V280 CAVOK 21/13 Q1016=
201809150800 METAR LRIA 150800Z 26004KT CAVOK 23/14 Q1016=
201809150830 METAR LRIA 150830Z 27004KT 230V310 CAVOK 23/14 Q1016=
201809150900 METAR LRIA 150900Z 30004KT 230V010 CAVOK 25/14 Q1016=
201809150930 METAR LRIA 150930Z 30006KT 250V030 CAVOK 25/14 Q1015=
201809151000 METAR LRIA 151000Z 32006KT 260V010 9999 FEW048 26/14 Q1015=
201809151030 METAR LRIA 151030Z 33007KT 9999 FEW048 27/13 Q1015=
201809151100 METAR LRIA 151100Z 33007KT 280V010 9999 FEW048 27/12 Q1015=
201809151130 METAR LRIA 151130Z 32007KT 9999 FEW048 27/13 Q1014=
201809151200 METAR LRIA 151200Z 34006KT 280V030 9999 FEW048 28/13 Q1014=
201809151230 METAR LRIA 151230Z 33008KT 310V010 9999 FEW050TCU 26/12 Q1014=
201809151300 METAR LRIA 151300Z 34008KT CAVOK 28/12 Q1014=
201809151330 METAR LRIA 151330Z 34009KT CAVOK 28/12 Q1014=
201809151400 METAR LRIA 151400Z 31006KT 9999 FEW050TCU 27/12 Q1014=
201809151430 METAR LRIA 151430Z 30004KT 230V330 9999 VCTS FEW050CB 28/13
                        Q1014=
201809151500 METAR LRIA 151500Z 33006KT 9999 TS FEW040CB 28/13 Q1014=
201809151530 METAR COR LRIA 151530Z 30007KT 9999 SCT045CB 27/12 Q1014
                        RETS=
201809151600 METAR LRIA 151600Z 02007KT 9999 FEW045CB 25/13 Q1014=
201809151630 METAR LRIA 151630Z 32004KT 9999 FEW045CB 23/13 Q1015=
201809151700 METAR LRIA 151700Z 32006KT 9999 FEW045CB 22/13 Q1015=
201809151730 METAR LRIA 151730Z 30005KT 9999 FEW045CB 22/13 Q1015=
201809151800 METAR LRIA 151800Z 31011KT 9999 FEW045CB 23/13 Q1016=
201809151830 METAR LRIA 151830Z 33008KT 9999 FEW045CB 21/14 Q1016=
201809151900 METAR LRIA 151900Z 33011KT 9999 FEW045CB 22/15 Q1017=
201809151930 METAR LRIA 151930Z 31011KT 9000 FEW045CB 21/15 Q1017=
201809152000 METAR LRIA 152000Z 31009KT 8000 FEW045CB 20/15 Q1017=
201809152030 METAR LRIA 152030Z 31010KT 9999 FEW050CB 20/15 Q1017=
201809152100 METAR LRIA 152100Z 32013KT 9999 FEW050CB 20/15 Q1017=
201809152130 METAR LRIA 152130Z 32013KT 9999 FEW054CB 19/15 Q1017=
201809152200 METAR LRIA 152200Z 31010KT 9999 FEW051CB 19/15 Q1018=
201809152230 METAR LRIA 152230Z 30008KT 9999 FEW059CB 19/15 Q1018=
201809152300 METAR LRIA 152300Z 31010KT CAVOK 19/14 Q1018=
201809152330 METAR LRIA 152330Z 32008KT CAVOK 19/15 Q1018=
201809160000 METAR LRIA 160000Z 32009KT 9999 SCT018 19/15 Q1018=
201809160030 METAR LRIA 160030Z 32008KT 9999 BKN018 19/15 Q1018=
201809160100 METAR LRIA 160100Z 31009KT 9999 OVC019 19/14 Q1018=
201809160130 METAR LRIA 160130Z 32009KT 9999 OVC019 18/14 Q1018=
201809160200 METAR LRIA 160200Z 32009KT 9999 FEW020 18/13 Q1019=
201809160230 METAR LRIA 160230Z 32010KT 9999 SCT025 18/13 Q1019=
201809160300 METAR LRIA 160300Z 32010KT 9999 FEW026 17/13 Q1019=
201809160330 METAR LRIA 160330Z 32010KT CAVOK 17/12 Q1019=
201809160400 METAR LRIA 160400Z 31010KT CAVOK 17/12 Q1020=
201809160430 METAR LRIA 160430Z 33008KT CAVOK 17/13 Q1020=
201809160500 METAR LRIA 160500Z 32010KT CAVOK 18/13 Q1021=
201809160530 METAR LRIA 160530Z 31012KT 9999 FEW023 17/13 Q1021=
201809160600 METAR LRIA 160600Z 32013KT 9999 SCT017 18/13 Q1021=
201809160630 METAR LRIA 160630Z 32015KT 9999 BKN019 18/12 Q1021=
201809160700 METAR LRIA 160700Z 31013KT 9999 BKN022 18/11 Q1022=
201809160730 METAR LRIA 160730Z 32015KT 9999 SCT025 19/10 Q1021=
201809160800 METAR LRIA 160800Z 33013KT 9999 FEW027 20/10 Q1022=
201809160830 METAR LRIA 160830Z 33015G26KT 9999 FEW030 21/08 Q1022=
201809160900 METAR LRIA 160900Z 33017KT 9999 FEW040 21/09 Q1022=
201809160930 METAR LRIA 160930Z 33015KT 9999 FEW040 21/09 Q1022=
201809161000 METAR LRIA 161000Z 33014G25KT 9999 SCT048 21/08 Q1022=
201809161030 METAR LRIA 161030Z 32013KT CAVOK 21/08 Q1022=
201809161100 METAR LRIA 161100Z 33016KT CAVOK 22/07 Q1022=
201809161130 METAR LRIA 161130Z 31014KT CAVOK 22/07 Q1022=
201809161200 METAR LRIA 161200Z 32013KT CAVOK 22/08 Q1022=
201809161230 METAR LRIA 161230Z 32014G25KT CAVOK 21/07 Q1022=
201809161300 METAR LRIA 161300Z 32014KT CAVOK 22/07 Q1022=
201809161330 METAR LRIA 161330Z 29014KT CAVOK 22/07 Q1022=
201809161400 METAR LRIA 161400Z 33010KT CAVOK 22/06 Q1022=
201809161430 METAR LRIA 161430Z 30010KT CAVOK 22/06 Q1022=
201809161500 METAR LRIA 161500Z 32010KT CAVOK 21/06 Q1022=
201809161530 METAR LRIA 161530Z 30009KT CAVOK 21/07 Q1022=
201809161600 METAR LRIA 161600Z 32009KT CAVOK 20/08 Q1023=
201809161630 METAR LRIA 161630Z 32007KT CAVOK 19/08 Q1023=
201809161700 METAR LRIA 161700Z 33007KT CAVOK 18/07 Q1023=
201809161730 METAR LRIA 161730Z 33007KT CAVOK 17/07 Q1024=
201809161800 METAR LRIA 161800Z 32006KT CAVOK 17/07 Q1024=
201809161830 METAR LRIA 161830Z 34007KT CAVOK 16/07 Q1024=
201809161900 METAR LRIA 161900Z 32007KT CAVOK 16/07 Q1024=
201809161930 METAR LRIA 161930Z 31007KT CAVOK 15/07 Q1025=
201809162000 METAR LRIA 162000Z 31007KT CAVOK 14/07 Q1025=
201809162030 METAR LRIA 162030Z 30007KT CAVOK 15/07 Q1025=
201809162100 METAR LRIA 162100Z 25003KT 200V280 CAVOK 13/08 Q1025=
201809162130 METAR LRIA 162130Z 25004KT CAVOK 13/08 Q1025=
201809162200 METAR LRIA 162200Z 24004KT CAVOK 13/08 Q1025=
201809162230 METAR LRIA 162230Z 24003KT CAVOK 13/07 Q1025=
201809162300 METAR LRIA 162300Z 24002KT CAVOK 12/08 Q1025=
201809162330 METAR LRIA 162330Z 24004KT CAVOK 13/08 Q1025=
201809170000 METAR LRIA 170000Z 26003KT CAVOK 12/08 Q1025=
201809170030 METAR LRIA 170030Z 25002KT CAVOK 12/07 Q1026=
201809170100 METAR LRIA 170100Z AUTO 27003KT 9999 NCD 11/07 Q1026=
201809170130 METAR LRIA 170130Z 28003KT CAVOK 12/07 Q1026=
201809170200 METAR LRIA 170200Z 30004KT CAVOK 11/07 Q1026=
201809170230 METAR LRIA 170230Z 29004KT CAVOK 11/07 Q1026=
201809170300 METAR LRIA 170300Z 28003KT CAVOK 10/08 Q1026=
201809170330 METAR LRIA 170330Z 25002KT CAVOK 09/07 Q1026=
201809170400 METAR LRIA 170400Z 28002KT CAVOK 10/07 Q1026=
201809170430 METAR LRIA 170430Z 26002KT CAVOK 11/08 Q1026=
201809170500 METAR LRIA 170500Z 00000KT CAVOK 12/09 Q1026=
201809170530 METAR LRIA 170530Z 00000KT CAVOK 13/08 Q1026=
201809170600 METAR LRIA 170600Z 26003KT CAVOK 14/08 Q1027=
201809170630 METAR LRIA 170630Z 25002KT 200V280 CAVOK 15/09 Q1027=
201809170700 METAR LRIA 170700Z 00000KT CAVOK 17/09 Q1027=
201809170730 METAR LRIA 170730Z VRB01KT CAVOK 18/09 Q1027=
201809170800 METAR LRIA 170800Z 24003KT 200V330 CAVOK 18/09 Q1027=
201809170830 METAR LRIA 170830Z VRB01KT CAVOK 20/08 Q1027=
201809170900 METAR LRIA 170900Z VRB02KT CAVOK 20/08 Q1026=
201809170930 METAR LRIA 170930Z VRB02KT CAVOK 21/07 Q1026=
201809171000 METAR LRIA 171000Z 24004KT 160V290 9999 FEW048 22/08 Q1026=
201809171030 METAR LRIA 171030Z VRB03KT CAVOK 22/07 Q1026=
201809171100 METAR LRIA 171100Z 19004KT 120V280 CAVOK 23/07 Q1026=
201809171130 METAR LRIA 171130Z 12004KT 060V170 CAVOK 22/06 Q1025=
201809171200 METAR LRIA 171200Z VRB03KT CAVOK 23/06 Q1025=
201809171230 METAR LRIA 171230Z VRB05KT CAVOK 23/07 Q1025=
201809171300 METAR LRIA 171300Z 07005KT 020V130 CAVOK 23/06 Q1024=
201809171330 METAR LRIA 171330Z 11004KT 030V160 CAVOK 23/06 Q1024=
201809171400 METAR LRIA 171400Z 10004KT 050V170 CAVOK 22/06 Q1024=
201809171430 METAR LRIA 171430Z 07006KT 040V100 CAVOK 22/06 Q1024=
201809171500 METAR LRIA 171500Z 07007KT CAVOK 22/07 Q1024=
201809171530 METAR LRIA 171530Z 07005KT CAVOK 22/07 Q1024=
201809171600 METAR LRIA 171600Z 06006KT CAVOK 20/07 Q1024=
201809171630 METAR LRIA 171630Z 05005KT CAVOK 19/07 Q1024=
201809171700 METAR LRIA 171700Z 05005KT CAVOK 17/07 Q1024=
201809171730 METAR LRIA 171730Z 05005KT CAVOK 17/07 Q1024=
201809171800 METAR LRIA 171800Z 11003KT 060V180 CAVOK 18/07 Q1024=
201809171830 METAR LRIA 171830Z 07004KT CAVOK 17/07 Q1024=
201809171900 METAR LRIA 171900Z 08005KT CAVOK 17/07 Q1024=
201809171930 METAR LRIA 171930Z 09005KT CAVOK 16/07 Q1024=
201809172000 METAR LRIA 172000Z 09005KT CAVOK 16/07 Q1024=
201809172030 METAR LRIA 172030Z 09004KT CAVOK 15/07 Q1024=
201809172100 METAR LRIA 172100Z 09004KT CAVOK 15/07 Q1024=
201809172130 METAR LRIA 172130Z 10004KT CAVOK 15/07 Q1024=
201809172200 METAR LRIA 172200Z 09005KT CAVOK 15/07 Q1024=
201809172230 METAR LRIA 172230Z 09005KT CAVOK 14/07 Q1024=
201809172300 METAR LRIA 172300Z 09004KT CAVOK 15/07 Q1024=
201809172330 METAR LRIA 172330Z 09004KT CAVOK 15/07 Q1024=
201809180000 METAR LRIA 180000Z 07004KT CAVOK 13/07 Q1024=
201809180030 METAR LRIA 180030Z 08006KT CAVOK 13/07 Q1024=
201809180100 METAR LRIA 180100Z 08007KT CAVOK 13/07 Q1024=
201809180130 METAR LRIA 180130Z 09007KT CAVOK 13/07 Q1024=
201809180200 METAR LRIA 180200Z 10007KT CAVOK 13/07 Q1024=
201809180230 METAR LRIA 180230Z 09007KT CAVOK 13/07 Q1024=
201809180300 METAR LRIA 180300Z 10007KT CAVOK 12/07 Q1024=
201809180330 METAR LRIA 180330Z 09007KT CAVOK 12/07 Q1024=
201809180400 METAR LRIA 180400Z 10007KT CAVOK 12/07 Q1024=
201809180430 METAR LRIA 180430Z 09006KT CAVOK 12/08 Q1024=
201809180500 METAR LRIA 180500Z 10007KT CAVOK 13/08 Q1024=
201809180530 METAR LRIA 180530Z 10004KT CAVOK 14/08 Q1025=
201809180600 METAR LRIA 180600Z 09003KT CAVOK 15/09 Q1025=
201809180630 METAR LRIA 180630Z 08003KT 040V110 CAVOK 17/09 Q1025=
201809180700 METAR LRIA 180700Z 14003KT 110V190 CAVOK 17/09 Q1025=
201809180730 METAR LRIA 180730Z 17003KT 130V230 CAVOK 19/09 Q1025=
201809180800 METAR LRIA 180800Z 17003KT 130V220 CAVOK 20/09 Q1025=
201809180830 METAR LRIA 180830Z 16003KT 080V250 CAVOK 21/09 Q1025=
201809180900 METAR LRIA 180900Z 21003KT 150V290 CAVOK 22/10 Q1025=
201809180930 METAR LRIA 180930Z 23004KT 130V280 CAVOK 23/09 Q1025=
201809181000 METAR LRIA 181000Z VRB04KT CAVOK 24/10 Q1025=
201809181030 METAR LRIA 181030Z VRB02KT CAVOK 24/10 Q1024=
201809181100 METAR LRIA 181100Z 18006KT 140V210 CAVOK 25/09 Q1024=
201809181130 METAR LRIA 181130Z 18003KT 090V260 CAVOK 25/09 Q1024=
201809181200 METAR LRIA 181200Z VRB03KT CAVOK 25/09 Q1024=
201809181230 METAR LRIA 181230Z 14004KT 070V240 CAVOK 25/08 Q1023=
201809181300 METAR LRIA 181300Z 19007KT 140V220 CAVOK 25/09 Q1023=
201809181330 METAR LRIA 181330Z VRB04KT CAVOK 26/08 Q1023=
201809181400 METAR LRIA 181400Z VRB03KT CAVOK 26/08 Q1023=
201809181430 METAR LRIA 181430Z 19003KT 130V270 CAVOK 26/09 Q1022=
201809181500 METAR LRIA 181500Z 20002KT 150V240 CAVOK 25/08 Q1022=
201809181530 METAR LRIA 181530Z 19003KT CAVOK 24/08 Q1022=
201809181600 METAR LRIA 181600Z 15003KT CAVOK 23/08 Q1022=
201809181630 METAR LRIA 181630Z 10002KT 080V150 CAVOK 22/09 Q1022=
201809181700 METAR LRIA 181700Z 11004KT CAVOK 20/09 Q1023=
201809181730 METAR LRIA 181730Z 09004KT CAVOK 19/09 Q1023=
201809181800 METAR LRIA 181800Z 09004KT CAVOK 19/09 Q1023=
201809181830 METAR LRIA 181830Z 10003KT CAVOK 19/09 Q1023=
201809181900 METAR LRIA 181900Z 07004KT CAVOK 17/09 Q1023=
201809181930 METAR LRIA 181930Z 07003KT CAVOK 18/09 Q1023=
201809182000 METAR LRIA 182000Z 09003KT CAVOK 17/08 Q1023=
201809182030 METAR LRIA 182030Z 08004KT CAVOK 17/09 Q1023=
201809182100 METAR LRIA 182100Z 08005KT CAVOK 16/09 Q1023=
201809182130 METAR LRIA 182130Z 08005KT CAVOK 17/09 Q1023=
201809182200 METAR LRIA 182200Z 08005KT CAVOK 16/09 Q1023=
201809182230 METAR LRIA 182230Z 09006KT CAVOK 16/09 Q1023=
201809182300 METAR LRIA 182300Z 10005KT CAVOK 15/09 Q1023=
201809182330 METAR LRIA 182330Z 14003KT CAVOK 16/09 Q1023=
201809190000 METAR LRIA 190000Z 00000KT CAVOK 15/08 Q1023=
201809190030 METAR LRIA 190030Z 22002KT 190V270 CAVOK 15/08 Q1023=
201809190100 METAR LRIA 190100Z 11002KT 060V140 CAVOK 15/08 Q1023=
201809190130 METAR LRIA 190130Z 08004KT CAVOK 13/08 Q1023=
201809190200 METAR LRIA 190200Z 08006KT CAVOK 13/08 Q1023=
201809190230 METAR LRIA 190230Z 09007KT CAVOK 13/08 Q1023=
201809190300 METAR LRIA 190300Z 09007KT CAVOK 13/08 Q1024=
201809190330 METAR LRIA 190330Z 10007KT CAVOK 13/08 Q1024=
201809190400 METAR LRIA 190400Z 09006KT CAVOK 13/08 Q1024=
201809190430 METAR LRIA 190430Z 08006KT CAVOK 13/09 Q1024=
201809190500 METAR LRIA 190500Z 10006KT CAVOK 14/09 Q1024=
201809190530 METAR LRIA 190530Z 10006KT CAVOK 15/09 Q1024=
201809190600 METAR LRIA 190600Z 11006KT CAVOK 16/09 Q1024=
201809190630 METAR LRIA 190630Z 10006KT CAVOK 17/10 Q1024=
201809190700 METAR LRIA 190700Z 11007KT CAVOK 19/10 Q1024=
201809190730 METAR LRIA 190730Z 12007KT CAVOK 20/10 Q1024=
201809190800 METAR LRIA 190800Z 12006KT CAVOK 21/10 Q1024=
201809190830 METAR LRIA 190830Z 14005KT CAVOK 23/11 Q1024=
201809190900 METAR LRIA 190900Z 16010KT 110V190 CAVOK 25/09 Q1024=
201809190930 METAR LRIA 190930Z 19007KT 140V230 CAVOK 25/10 Q1024=
201809191000 METAR LRIA 191000Z 17010KT 140V210 CAVOK 26/09 Q1023=
201809191030 METAR LRIA 191030Z 17009KT 150V220 CAVOK 26/08 Q1023=
201809191100 METAR LRIA 191100Z 21008KT CAVOK 27/08 Q1023=
201809191130 METAR LRIA 191130Z 18009KT CAVOK 27/08 Q1023=
201809191200 METAR LRIA 191200Z 18006KT 140V210 CAVOK 27/07 Q1023=
201809191230 METAR LRIA 191230Z 15008KT 110V200 CAVOK 28/08 Q1022=
201809191300 METAR LRIA 191300Z 18006KT 140V210 CAVOK 27/07 Q1022=
201809191330 METAR LRIA 191330Z 17006KT CAVOK 27/07 Q1022=
201809191400 METAR LRIA 191400Z 21006KT 160V240 CAVOK 27/08 Q1022=
201809191430 METAR LRIA 191430Z 18006KT 140V210 CAVOK 27/08 Q1022=
201809191500 METAR LRIA 191500Z 18005KT 150V210 CAVOK 26/08 Q1022=
201809191530 METAR LRIA 191530Z 17005KT CAVOK 25/08 Q1021=
201809191600 METAR LRIA 191600Z 15006KT CAVOK 24/08 Q1022=
201809191630 METAR LRIA 191630Z 16005KT CAVOK 22/08 Q1022=
201809191700 METAR LRIA 191700Z 11005KT CAVOK 22/08 Q1022=
201809191730 METAR LRIA 191730Z 10004KT CAVOK 21/08 Q1022=
201809191800 METAR LRIA 191800Z 10004KT CAVOK 20/08 Q1022=
201809191830 METAR LRIA 191830Z 11004KT CAVOK 19/07 Q1022=
201809191900 METAR LRIA 191900Z 11004KT CAVOK 19/07 Q1022=
201809191930 METAR LRIA 191930Z VRB01KT CAVOK 19/07 Q1022=
201809192000 METAR LRIA 192000Z 00000KT CAVOK 18/07 Q1022=
201809192030 METAR LRIA 192030Z VRB01KT CAVOK 19/07 Q1022=
201809192100 METAR LRIA 192100Z 11003KT CAVOK 17/07 Q1022=
201809192130 METAR LRIA 192130Z 08006KT CAVOK 16/07 Q1022=
201809192200 METAR LRIA 192200Z 09006KT CAVOK 16/07 Q1022=
201809192230 METAR LRIA 192230Z 09006KT CAVOK 15/07 Q1022=
201809192300 METAR LRIA 192300Z 08007KT CAVOK 15/07 Q1022=
201809192330 METAR LRIA 192330Z 08007KT CAVOK 15/07 Q1022=
201809200000 METAR LRIA 200000Z 08007KT CAVOK 14/07 Q1022=
201809200030 METAR LRIA 200030Z 08007KT CAVOK 14/07 Q1022=
201809200100 METAR LRIA 200100Z 08006KT CAVOK 13/07 Q1022=
201809200130 METAR LRIA 200130Z 09006KT CAVOK 13/08 Q1022=
201809200200 METAR LRIA 200200Z 08006KT CAVOK 13/08 Q1022=
201809200230 METAR LRIA 200230Z 08006KT CAVOK 12/08 Q1022=
201809200300 METAR LRIA 200300Z 07006KT CAVOK 12/08 Q1022=
201809200330 METAR LRIA 200330Z 08006KT CAVOK 12/08 Q1022=
201809200400 METAR LRIA 200400Z 07005KT CAVOK 12/08 Q1022=
201809200430 METAR LRIA 200430Z 07006KT CAVOK 13/08 Q1022=
201809200500 METAR LRIA 200500Z 08003KT CAVOK 14/09 Q1022=
201809200530 METAR LRIA 200530Z 09003KT CAVOK 15/09 Q1023=
201809200600 METAR LRIA 200600Z 11004KT CAVOK 16/09 Q1023=
201809200630 METAR LRIA 200630Z 12003KT 080V140 CAVOK 17/09 Q1023=
201809200700 METAR LRIA 200700Z 11004KT 080V140 CAVOK 19/10 Q1023=
201809200730 METAR LRIA 200730Z 12004KT CAVOK 20/10 Q1023=
201809200800 METAR LRIA 200800Z 14004KT 090V170 CAVOK 21/10 Q1023=
201809200830 METAR LRIA 200830Z 12003KT 080V200 CAVOK 23/11 Q1023=
201809200900 METAR LRIA 200900Z VRB03KT CAVOK 24/10 Q1023=
201809200930 METAR LRIA 200930Z 16004KT 110V250 CAVOK 25/09 Q1022=
201809201000 METAR LRIA 201000Z 19006KT 160V230 CAVOK 26/08 Q1022=
201809201030 METAR LRIA 201030Z 24005KT 200V280 CAVOK 26/08 Q1022=
201809201100 METAR LRIA 201100Z VRB03KT CAVOK 27/09 Q1021=
201809201130 METAR LRIA 201130Z 11005KT 030V150 CAVOK 27/08 Q1021=
201809201200 METAR LRIA 201200Z 13005KT 090V160 CAVOK 27/08 Q1021=
201809201230 METAR LRIA 201230Z 10005KT 030V190 CAVOK 28/07 Q1021=
201809201300 METAR LRIA 201300Z 09005KT 070V130 CAVOK 28/07 Q1020=
201809201330 METAR LRIA 201330Z 13007KT CAVOK 28/07 Q1020=
201809201400 METAR LRIA 201400Z 13006KT CAVOK 27/06 Q1020=
201809201430 METAR LRIA 201430Z 12008KT CAVOK 27/08 Q1020=
201809201500 METAR LRIA 201500Z 12008KT CAVOK 27/08 Q1020=
201809201530 METAR LRIA 201530Z 12007KT CAVOK 25/08 Q1020=
201809201600 METAR LRIA 201600Z 11006KT CAVOK 24/08 Q1020=
201809201630 METAR LRIA 201630Z 10007KT CAVOK 23/08 Q1020=
201809201700 METAR LRIA 201700Z 10007KT CAVOK 22/07 Q1020=
201809201730 METAR LRIA 201730Z 09004KT CAVOK 20/07 Q1020=
201809201800 METAR LRIA 201800Z 08004KT CAVOK 20/07 Q1020=
201809201830 METAR LRIA 201830Z 08004KT CAVOK 20/07 Q1020=
201809201900 METAR LRIA 201900Z 07002KT CAVOK 18/07 Q1020=
201809201930 METAR LRIA 201930Z 00000KT CAVOK 19/06 Q1020=
201809202000 METAR LRIA 202000Z 00000KT CAVOK 19/06 Q1020=
201809202030 METAR LRIA 202030Z 00000KT CAVOK 19/06 Q1020=
201809202100 METAR LRIA 202100Z VRB01KT CAVOK 18/05 Q1020=
201809202130 METAR LRIA 202130Z 00000KT CAVOK 19/05 Q1020=
201809202200 METAR LRIA 202200Z 00000KT CAVOK 17/05 Q1020=
201809202230 METAR LRIA 202230Z 00000KT CAVOK 17/05 Q1020=
201809202300 METAR LRIA 202300Z 00000KT CAVOK 16/05 Q1020=
201809202330 METAR LRIA 202330Z 00000KT CAVOK 15/05 Q1020=
201809210000 METAR LRIA 210000Z VRB01KT CAVOK 15/05 Q1020=
201809210030 METAR LRIA 210030Z 00000KT CAVOK 14/06 Q1020=
201809210100 METAR LRIA 210100Z 00000KT CAVOK 14/06 Q1020=
201809210130 METAR LRIA 210130Z 00000KT CAVOK 13/05 Q1020=
201809210200 METAR LRIA 210200Z 08004KT CAVOK 13/06 Q1020=
201809210230 METAR LRIA 210230Z 09003KT CAVOK 12/06 Q1020=
201809210300 METAR LRIA 210300Z 07003KT CAVOK 12/05 Q1020=
201809210330 METAR LRIA 210330Z 09004KT CAVOK 12/05 Q1020=
201809210400 METAR LRIA 210400Z 08002KT CAVOK 11/05 Q1021=
201809210430 METAR LRIA 210430Z 00000KT CAVOK 13/06 Q1021=
201809210500 METAR LRIA 210500Z 00000KT CAVOK 13/07 Q1021=
201809210530 METAR LRIA 210530Z 00000KT CAVOK 16/09 Q1021=
201809210600 METAR LRIA 210600Z 26002KT CAVOK 15/08 Q1021=
201809210630 METAR LRIA 210630Z 23002KT CAVOK 18/08 Q1021=
201809210700 METAR LRIA 210700Z VRB01KT CAVOK 20/09 Q1021=
201809210730 METAR LRIA 210730Z VRB01KT CAVOK 21/10 Q1021=
201809210800 METAR LRIA 210800Z 12002KT CAVOK 23/09 Q1021=
201809210830 METAR LRIA 210830Z VRB02KT CAVOK 24/08 Q1021=
201809210900 METAR LRIA 210900Z VRB03KT CAVOK 25/09 Q1021=
201809210930 METAR LRIA 210930Z 15005KT CAVOK 26/09 Q1020=
201809211000 METAR LRIA 211000Z 13005KT 090V170 CAVOK 26/08 Q1020=
201809211030 METAR LRIA 211030Z VRB03KT CAVOK 27/08 Q1020=
201809211100 METAR LRIA 211100Z 15005KT 090V220 CAVOK 28/08 Q1020=
201809211130 METAR LRIA 211130Z 12008KT 100V170 CAVOK 28/07 Q1019=
201809211200 METAR LRIA 211200Z 12008KT 080V140 CAVOK 28/07 Q1019=
201809211230 METAR LRIA 211230Z 15006KT 110V210 CAVOK 28/07 Q1019=
201809211300 METAR LRIA 211300Z 17008KT CAVOK 28/05 Q1018=
201809211330 METAR LRIA 211330Z 19008KT 170V230 CAVOK 28/05 Q1018=
201809211400 METAR LRIA 211400Z 16008KT CAVOK 28/05 Q1018=
201809211430 METAR LRIA 211430Z 18007KT 140V200 CAVOK 28/05 Q1018=
201809211500 METAR LRIA 211500Z 16008KT CAVOK 27/05 Q1018=
201809211530 METAR LRIA 211530Z 14007KT CAVOK 25/06 Q1018=
201809211600 METAR LRIA 211600Z 14007KT CAVOK 24/07 Q1018=
201809211630 METAR LRIA 211630Z 14006KT CAVOK 23/07 Q1017=
201809211700 METAR LRIA 211700Z 14006KT CAVOK 22/07 Q1017=
201809211730 METAR LRIA 211730Z 20004KT CAVOK 22/07 Q1018=
201809211800 METAR LRIA 211800Z 18005KT CAVOK 22/07 Q1018=
201809211830 METAR LRIA 211830Z 16006KT CAVOK 20/07 Q1018=
201809211900 METAR LRIA 211900Z 14006KT CAVOK 21/07 Q1018=
201809211930 METAR LRIA 211930Z 13007KT CAVOK 20/06 Q1017=
201809212000 METAR LRIA 212000Z 13007KT CAVOK 20/07 Q1017=
201809212030 METAR LRIA 212030Z 12006KT CAVOK 19/07 Q1017=
201809212100 METAR LRIA 212100Z 14007KT 110V170 CAVOK 19/07 Q1017=
201809212130 METAR LRIA 212130Z 11005KT CAVOK 18/07 Q1017=
201809212200 METAR LRIA 212200Z 09004KT 040V180 CAVOK 18/07 Q1017=
201809212230 METAR LRIA 212230Z 13005KT CAVOK 18/07 Q1017=
201809212300 METAR LRIA 212300Z 11005KT CAVOK 18/07 Q1017=
201809212330 METAR LRIA 212330Z 09007KT CAVOK 17/08 Q1017=
201809220000 METAR LRIA 220000Z 09006KT CAVOK 16/08 Q1016=
201809220030 METAR LRIA 220030Z 10006KT CAVOK 16/08 Q1016=
201809220100 METAR LRIA 220100Z 09005KT CAVOK 15/08 Q1016=
201809220130 METAR LRIA 220130Z 09006KT CAVOK 15/08 Q1016=
201809220200 METAR LRIA 220200Z 10006KT CAVOK 15/08 Q1016=
201809220230 METAR LRIA 220230Z 07006KT CAVOK 14/08 Q1016=
201809220300 METAR LRIA 220300Z 07007KT CAVOK 14/09 Q1016=
201809220330 METAR LRIA 220330Z 09007KT CAVOK 14/09 Q1016=
201809220400 METAR LRIA 220400Z 10007KT CAVOK 14/09 Q1016=
201809220430 METAR LRIA 220430Z 10004KT CAVOK 14/09 Q1016=
201809220500 METAR LRIA 220500Z 09006KT CAVOK 15/09 Q1016=
201809220530 METAR LRIA 220530Z 10005KT CAVOK 16/09 Q1016=
201809220600 METAR LRIA 220600Z 10005KT CAVOK 18/10 Q1016=
201809220630 METAR LRIA 220630Z 11005KT CAVOK 19/10 Q1016=
201809220700 METAR LRIA 220700Z 12005KT 090V150 CAVOK 20/10 Q1016=
201809220730 METAR LRIA 220730Z 13003KT 090V160 CAVOK 22/10 Q1016=
201809220800 METAR LRIA 220800Z 19004KT 110V250 CAVOK 23/10 Q1016=
201809220830 METAR LRIA 220830Z 18004KT 110V250 CAVOK 24/09 Q1016=
201809220900 METAR LRIA 220900Z VRB05KT CAVOK 25/09 Q1016=
201809220930 METAR LRIA 220930Z 20004KT 090V260 CAVOK 26/10 Q1016=
201809221000 METAR LRIA 221000Z 18005KT 130V240 CAVOK 27/09 Q1016=
201809221030 METAR LRIA 221030Z VRB04KT CAVOK 27/09 Q1016=
201809221100 METAR LRIA 221100Z 22003KT 150V290 CAVOK 27/10 Q1015=
201809221130 METAR LRIA 221130Z VRB02KT CAVOK 28/09 Q1015=
201809221200 METAR LRIA 221200Z VRB02KT CAVOK 27/09 Q1015=
201809221230 METAR LRIA 221230Z 33006KT 280V360 CAVOK 28/07 Q1015=
201809221300 METAR LRIA 221300Z VRB03KT CAVOK 28/07 Q1015=
201809221330 METAR LRIA 221330Z 26006KT 200V330 CAVOK 29/08 Q1015=
201809221400 METAR LRIA 221400Z 23004KT 130V270 CAVOK 28/08 Q1015=
201809221430 METAR LRIA 221430Z 32010KT CAVOK 25/11 Q1015=
201809221500 METAR LRIA 221500Z 32016KT CAVOK 22/10 Q1015=
201809221530 METAR LRIA 221530Z 31016KT CAVOK 21/09 Q1015=
201809221600 METAR LRIA 221600Z 30015KT CAVOK 20/09 Q1016=
201809221630 METAR LRIA 221630Z 30013KT CAVOK 19/09 Q1016=
201809221700 METAR LRIA 221700Z 32010KT 290V350 CAVOK 19/09 Q1017=
201809221730 METAR LRIA 221730Z 32011KT CAVOK 18/08 Q1017=
201809221800 METAR LRIA 221800Z 32011KT CAVOK 18/08 Q1017=
201809221830 METAR LRIA 221830Z 32013KT CAVOK 17/07 Q1018=
201809221900 METAR LRIA 221900Z 31010KT CAVOK 17/06 Q1019=
201809221930 METAR LRIA 221930Z 31011KT 9999 -RA NSC 15/08 Q1019=
201809222000 METAR LRIA 222000Z 32011KT CAVOK 15/08 Q1019=
201809222030 METAR LRIA 222030Z 33009KT CAVOK 15/08 Q1019=
201809222100 METAR LRIA 222100Z 33009KT CAVOK 14/07 Q1019=
201809222130 METAR LRIA 222130Z 33009KT CAVOK 14/07 Q1019=
201809222200 METAR LRIA 222200Z 33008KT 9999 SCT045 13/07 Q1020=
201809222230 METAR LRIA 222230Z 32008KT CAVOK 13/07 Q1019=
201809222300 METAR LRIA 222300Z 31008KT 9999 SCT044 13/07 Q1020=
201809222330 METAR LRIA 222330Z 31007KT 9999 SCT043 12/08 Q1020=
201809230000 METAR LRIA 230000Z 32008KT 9999 BKN043 12/08 Q1020=
201809230030 METAR LRIA 230030Z 31007KT 9999 BKN042 12/08 Q1020=
201809230100 METAR LRIA 230100Z 31009KT 9999 SCT039 12/08 Q1020=
201809230130 METAR LRIA 230130Z 33007KT CAVOK 12/08 Q1020=
201809230200 METAR LRIA 230200Z 32006KT CAVOK 12/08 Q1020=
201809230230 METAR LRIA 230230Z 32006KT CAVOK 12/08 Q1021=
201809230300 METAR LRIA 230300Z 32006KT CAVOK 12/08 Q1020=
201809230330 METAR LRIA 230330Z 32006KT CAVOK 11/08 Q1020=
201809230400 METAR LRIA 230400Z 31006KT CAVOK 11/08 Q1020=
201809230430 METAR LRIA 230430Z 35004KT 320V040 CAVOK 11/08 Q1020=
201809230500 METAR LRIA 230500Z 32005KT 280V340 CAVOK 11/08 Q1021=
201809230530 METAR LRIA 230530Z 31004KT 260V350 CAVOK 12/08 Q1021=
201809230600 METAR LRIA 230600Z 30005KT 270V330 CAVOK 12/08 Q1021=
201809230630 METAR LRIA 230630Z 31003KT 250V350 CAVOK 13/07 Q1021=
201809230700 METAR LRIA 230700Z 30005KT 270V350 CAVOK 13/07 Q1021=
201809230730 METAR LRIA 230730Z 30003KT 230V020 CAVOK 14/07 Q1021=
201809230800 METAR LRIA 230800Z VRB02KT CAVOK 14/06 Q1021=
201809230830 METAR LRIA 230830Z 26003KT 180V320 CAVOK 15/06 Q1021=
201809230900 METAR LRIA 230900Z 27004KT 190V330 CAVOK 15/05 Q1021=
201809230930 METAR LRIA 230930Z 26006KT 150V320 CAVOK 17/06 Q1021=
201809231000 METAR LRIA 231000Z VRB04KT CAVOK 17/06 Q1021=
201809231030 METAR LRIA 231030Z VRB03KT CAVOK 18/05 Q1021=
201809231100 METAR LRIA 231100Z VRB02KT CAVOK 19/05 Q1020=
201809231130 METAR LRIA 231130Z 23004KT 170V280 CAVOK 19/04 Q1020=
201809231200 METAR LRIA 231200Z 16005KT 090V230 CAVOK 19/03 Q1020=
201809231230 METAR LRIA 231230Z 29004KT 250V010 CAVOK 20/03 Q1019=
201809231300 METAR LRIA 231300Z 18003KT 100V250 CAVOK 20/04 Q1019=
201809231330 METAR LRIA 231330Z VRB01KT CAVOK 20/03 Q1019=
201809231400 METAR LRIA 231400Z VRB01KT CAVOK 20/02 Q1019=
201809231430 METAR LRIA 231430Z 20002KT CAVOK 20/03 Q1018=
201809231500 METAR LRIA 231500Z 16004KT 120V210 CAVOK 20/03 Q1018=
201809231530 METAR LRIA 231530Z 16004KT 130V190 CAVOK 19/03 Q1018=
201809231600 METAR LRIA 231600Z 16005KT CAVOK 18/04 Q1018=
201809231630 METAR LRIA 231630Z 16004KT 120V190 CAVOK 17/04 Q1018=
201809231700 METAR LRIA 231700Z 18004KT CAVOK 16/05 Q1018=
201809231730 METAR LRIA 231730Z 17005KT CAVOK 15/06 Q1018=
201809231800 METAR LRIA 231800Z 18006KT CAVOK 15/07 Q1018=
201809231830 METAR LRIA 231830Z 17006KT CAVOK 14/08 Q1018=
201809231900 METAR LRIA 231900Z 16006KT CAVOK 14/07 Q1017=
201809231930 METAR LRIA 231930Z 17008KT CAVOK 14/07 Q1017=
201809232000 METAR LRIA 232000Z 13004KT 090V180 CAVOK 14/07 Q1017=
201809232030 METAR LRIA 232030Z 11004KT CAVOK 13/07 Q1016=
201809232100 METAR LRIA 232100Z 10006KT CAVOK 13/08 Q1016=
201809232130 METAR LRIA 232130Z 12008KT CAVOK 13/08 Q1015=
201809232200 METAR LRIA 232200Z 12007KT CAVOK 13/08 Q1015=
201809232230 METAR LRIA 232230Z 12008KT CAVOK 12/08 Q1014=
201809232300 METAR LRIA 232300Z 11006KT CAVOK 12/08 Q1014=
201809232330 METAR LRIA 232330Z 12008KT CAVOK 12/08 Q1013=
201809240000 METAR LRIA 240000Z 11006KT CAVOK 13/08 Q1013=
201809240030 METAR LRIA 240030Z 15007KT CAVOK 14/08 Q1012=
201809240100 METAR LRIA 240100Z 16009KT CAVOK 15/09 Q1011=
201809240130 METAR LRIA 240130Z 16009KT CAVOK 15/10 Q1010=
201809240200 METAR LRIA 240200Z 18011KT CAVOK 16/10 Q1009=
201809240230 METAR LRIA 240230Z 17011KT 140V200 CAVOK 16/11 Q1009=
201809240300 METAR LRIA 240300Z 18008KT 160V220 CAVOK 16/11 Q1009=
201809240330 METAR LRIA 240330Z 17012KT CAVOK 17/12 Q1009=
201809240400 METAR LRIA 240400Z 16011KT 9999 FEW050CB 17/12 Q1009=
201809240430 METAR LRIA 240430Z 13009KT 9999 FEW050CB 17/12 Q1008=
201809240500 METAR LRIA 240500Z 17009KT CAVOK 18/12 Q1007=
201809240530 METAR LRIA 240530Z 15005KT 110V180 CAVOK 17/12 Q1007=
201809240600 METAR LRIA 240600Z 12005KT CAVOK 18/12 Q1007=
201809240630 METAR LRIA 240630Z 17005KT 140V200 CAVOK 18/12 Q1007=
201809240700 METAR LRIA 240700Z 20006KT CAVOK 18/13 Q1007=
201809240730 METAR LRIA 240730Z 20008KT CAVOK 18/12 Q1006=
201809240800 METAR LRIA 240800Z 17004KT 9999 -RA NSC 19/12 Q1007=
201809240830 METAR LRIA 240830Z 22006KT 9999 -SHRA FEW040CB 18/13 Q1007
                        R14/29//95=
201809240900 METAR LRIA 240900Z 23006KT 9999 -RA FEW040CB 17/14 Q1008
                        R14/29//95=
201809240930 METAR LRIA 240930Z 31005KT 9999 -RA FEW035 17/14 Q1009 R14/29//95=
201809241000 METAR LRIA 241000Z 30005KT 9999 -RA SCT030 FEW040CB BKN045
                        17/14 Q1009 R14/29//95=
201809241030 METAR LRIA 241030Z 33020G31KT 9999 -RA FEW015 BKN024 FEW033CB
                        14/10 Q1010 R14/29//95=
201809241100 METAR LRIA 241100Z 33016G27KT 9999 -RA SCT018 BKN022 OVC033
                        13/09 Q1012 R14/29//95=
201809241130 METAR LRIA 241130Z 32015G25KT 9999 -RA SCT017 BKN024 OVC035
                        12/08 Q1012 R14/29//95=
201809241200 METAR LRIA 241200Z 33013G25KT 9999 -RA SCT010 SCT025 OVC040
                        11/08 Q1013 R14/29//95=
201809241230 METAR COR LRIA 241230Z 31010KT 6000 -RA SCT008 BKN012 BKN025
                        11/08 Q1015 R14/29//95=
201809241300 METAR LRIA 241300Z 31012KT 5000 RA SCT005 BKN007 BKN013 10/08
                        Q1015 R14/29//95=
201809241330 METAR LRIA 241330Z 31012KT 9999 -RA FEW005 SCT008 BKN015
                        10/08 Q1015 RERA R14/29//95=
201809241400 METAR LRIA 241400Z 32009KT 9999 -RA FEW014 SCT033 OVC045
                        10/07 Q1015 R14/29//95=
201809241430 METAR LRIA 241430Z 31008KT 9999 FEW020 SCT033 OVC045 10/07
                        Q1015 R14/29//95=
201809241500 METAR LRIA 241500Z 30009KT 9999 FEW020 OVC049 10/07 Q1015
                        R14/29//95=
201809241530 METAR LRIA 241530Z 30007KT 9999 -RA FEW020 10/07 Q1016 R14/29//95=
201809241600 METAR LRIA 241600Z 29007KT 9999 FEW033 10/07 Q1016 R14/29//95=
201809241630 METAR LRIA 241630Z 29007KT CAVOK 10/07 Q1016 R14/29//95=
201809241700 METAR LRIA 241700Z 31004KT 270V340 CAVOK 10/07 Q1016 R14/29//95=
201809241730 METAR COR LRIA 241730Z 30006KT CAVOK 10/07 Q1016 R14/29//95=
201809241800 METAR LRIA 241800Z 31008KT 280V340 CAVOK 10/06 Q1017 R14/29//95=
201809241830 METAR LRIA 241830Z 31010KT CAVOK 10/06 Q1017 R14/29//95=
201809241900 METAR COR LRIA 241900Z 30010KT CAVOK 10/05 Q1018 R14/29//95=
201809241930 METAR LRIA 241930Z 31010KT CAVOK 10/04 Q1018 R14/19//95=
201809242000 METAR LRIA 242000Z 29009KT CAVOK 10/04 Q1019 R14/19//95=
201809242030 METAR LRIA 242030Z 30007KT CAVOK 09/04 Q1019 R14/19//95=
201809242100 METAR LRIA 242100Z 28003KT 240V320 CAVOK 09/03 Q1019 R14/19//95=
201809242130 METAR LRIA 242130Z 30004KT CAVOK 09/03 Q1019 R14/19//95=
201809242200 METAR LRIA 242200Z 33003KT 300V360 CAVOK 09/03 Q1019 R14/19//95=
201809242230 METAR LRIA 242230Z 32003KT 280V340 CAVOK 08/02 Q1020 R14/19//95=
201809242300 METAR COR LRIA 242300Z 31003KT 250V020 CAVOK 08/03 Q1020
                        R14/19//95=
201809242330 METAR LRIA 242330Z 30004KT 260V330 CAVOK 08/03 Q1020 R14/19//95=
201809250000 METAR LRIA 250000Z 30003KT 270V330 CAVOK 07/02 Q1020 R14/19//95=
201809250030 METAR LRIA 250030Z 32006KT CAVOK 08/02 Q1020 R14/19//95=
201809250100 METAR COR LRIA 250100Z 29006KT CAVOK 07/02 Q1020 R14/19//95=
201809250130 METAR COR LRIA 250130Z 28007KT CAVOK 07/02 Q1020 R14/19//95=
201809250200 METAR COR LRIA 250200Z 30010KT CAVOK 09/02 Q1021 R14/19//95=
201809250230 METAR COR LRIA 250230Z 29007KT CAVOK 09/02 Q1021 R14/19//95=
201809250300 METAR LRIA 250300Z 29007KT CAVOK 09/02 Q1021 R14/CLRD//=
201809250330 METAR LRIA 250330Z 30008KT CAVOK 08/02 Q1021=
201809250400 METAR COR LRIA 250400Z 30009KT CAVOK 09/02 Q1022=
201809250430 METAR LRIA 250430Z 30009KT CAVOK 09/03 Q1022=
201809250500 METAR LRIA 250500Z 29009KT 9999 SCT036 09/03 Q1022=
201809250530 METAR LRIA 250530Z 29009KT 9999 SCT038 09/03 Q1022=
201809250600 METAR LRIA 250600Z 30014KT 9999 FEW015 SCT038 09/03 Q1023=
201809250630 METAR LRIA 250630Z 31011KT 9999 FEW015 BKN025 10/04 Q1023=
201809250700 METAR LRIA 250700Z 31014KT 280V340 9999 FEW015 BKN023 10/04
                        Q1024=
201809250730 METAR LRIA 250730Z 30014KT 270V330 9999 FEW015 BKN023 10/04
                        Q1024=
201809250800 METAR LRIA 250800Z 31014KT 280V340 9999 FEW015 BKN022 10/03
                        Q1025=
201809250830 METAR LRIA 250830Z 31014KT 9999 FEW015 BKN025 10/03 Q1025=
201809250900 METAR LRIA 250900Z 31018KT 9999 FEW015 SCT025 10/03 Q1025=
201809250930 METAR LRIA 250930Z 31019KT 9999 SCT028 12/02 Q1025=
201809251000 METAR LRIA 251000Z 30016KT 9999 BKN035 12/02 Q1025=
201809251030 METAR LRIA 251030Z 32017G27KT 290V350 9999 SCT034 12/02 Q1025=
201809251100 METAR LRIA 251100Z 31015KT 9999 FEW030CB SCT035 12/02 Q1025=
201809251130 METAR LRIA 251130Z 31019G29KT 9999 FEW035CB SCT042 10/01
                        Q1026=
201809251200 METAR LRIA 251200Z 32012KT 9999 FEW035CB SCT040 13/01 Q1026=
201809251230 METAR LRIA 251230Z 32014KT 9999 SCT035CB SCT042 12/00 Q1026=
201809251300 METAR LRIA 251300Z 32013KT 270V350 9999 SCT035CB SCT042 13/01
                        Q1026=
201809251330 METAR LRIA 251330Z 32013KT 9999 SCT035CB SCT040 13/01 Q1026=
201809251400 METAR LRIA 251400Z 32015KT 9999 SCT035CB SCT042 13/01 Q1026=
201809251430 METAR LRIA 251430Z 32015KT 9999 SCT037CB SCT043 12/00 Q1026=
201809251500 METAR LRIA 251500Z 32013KT 9999 SCT040CB SCT045 12/00 Q1027=
201809251530 METAR LRIA 251530Z 34013G25KT 9999 SCT040CB SCT045 10/02
                        Q1027=
201809251600 METAR LRIA 251600Z 33011KT 9999 SCT040CB SCT045 10/02 Q1028=
201809251630 METAR LRIA 251630Z 32007KT 9999 SCT048 09/02 Q1028=
201809251700 METAR LRIA 251700Z 32007KT CAVOK 09/01 Q1029=
201809251730 METAR LRIA 251730Z 31010KT CAVOK 10/01 Q1029=
201809251800 METAR LRIA 251800Z 30010G21KT CAVOK 09/01 Q1030=
201809251830 METAR LRIA 251830Z 31010KT CAVOK 08/01 Q1030=
201809251900 METAR LRIA 251900Z 31012KT CAVOK 08/02 Q1030=
201809251930 METAR LRIA 251930Z 30010KT CAVOK 08/02 Q1031=
201809252000 METAR LRIA 252000Z 30008KT CAVOK 07/02 Q1031=
201809252030 METAR LRIA 252030Z 31005KT CAVOK 07/02 Q1032=
201809252100 METAR LRIA 252100Z 30006KT 9999 FEW045 07/02 Q1032=
201809252130 METAR LRIA 252130Z 31006KT CAVOK 07/02 Q1032=
201809252200 METAR LRIA 252200Z 32006KT CAVOK 06/02 Q1032=
201809252230 METAR LRIA 252230Z 31008KT CAVOK 06/02 Q1032=
201809252300 METAR LRIA 252300Z 34007KT 9999 FEW047 06/02 Q1032=
201809252330 METAR LRIA 252330Z 33007KT CAVOK 06/02 Q1032=
201809260000 METAR LRIA 260000Z 32007KT CAVOK 07/02 Q1032=
201809260030 METAR LRIA 260030Z 32008KT CAVOK 06/02 Q1033=
201809260100 METAR LRIA 260100Z 31009KT CAVOK 06/02 Q1033=
201809260130 METAR LRIA 260130Z 30008KT CAVOK 06/02 Q1033=
201809260200 METAR LRIA 260200Z 31007KT CAVOK 05/02 Q1033=
201809260230 METAR COR LRIA 260230Z 32009KT CAVOK 06/02 Q1033=
201809260300 METAR LRIA 260300Z 32010KT CAVOK 06/02 Q1033=
201809260330 METAR LRIA 260330Z 33010KT CAVOK 05/02 Q1033=
201809260400 METAR LRIA 260400Z 32011KT CAVOK 05/02 Q1034=
201809260430 METAR LRIA 260430Z 32011KT CAVOK 06/02 Q1034=
201809260500 METAR LRIA 260500Z 32010KT CAVOK 06/02 Q1034=
201809260530 METAR LRIA 260530Z 32011KT 9999 FEW043 06/02 Q1035=
201809260600 METAR LRIA 260600Z 32011KT 9999 FEW043 07/02 Q1035=
201809260630 METAR LRIA 260630Z 31012KT 9999 FEW043 07/02 Q1035=
201809260700 METAR LRIA 260700Z 31011KT CAVOK 07/02 Q1036=
201809260730 METAR LRIA 260730Z 33010KT 9999 FEW017 10/02 Q1036=
201809260800 METAR LRIA 260800Z 31011KT 270V340 9999 FEW024 10/02 Q1036=
201809260830 METAR LRIA 260830Z 32010KT 9999 FEW024 10/02 Q1036=
201809260900 METAR LRIA 260900Z 33011KT 9999 FEW028 11/01 Q1036=
201809260930 METAR LRIA 260930Z 34015KT 9999 SCT044 11/M01 Q1036=
201809261000 METAR LRIA 261000Z 35016G27KT 9999 FEW048 12/M02 Q1036=
201809261030 METAR LRIA 261030Z 34015KT 9999 FEW048 12/M02 Q1036=
201809261100 METAR LRIA 261100Z 33012KT CAVOK 13/M01 Q1036=
201809261130 METAR LRIA 261130Z 31009KT CAVOK 13/M01 Q1035=
201809261200 METAR LRIA 261200Z 36011KT 310V030 CAVOK 13/M03 Q1035=
201809261230 METAR LRIA 261230Z 35010KT CAVOK 13/M04 Q1035=
201809261300 METAR LRIA 261300Z 33011KT CAVOK 14/M03 Q1035=
201809261330 METAR LRIA 261330Z 31009KT 280V350 CAVOK 13/M04 Q1035=
201809261400 METAR LRIA 261400Z 34010KT CAVOK 13/M02 Q1034=
201809261430 METAR LRIA 261430Z 32007KT CAVOK 12/M02 Q1034=
201809261500 METAR LRIA 261500Z 32006KT CAVOK 12/M01 Q1034=
201809261530 METAR LRIA 261530Z 32005KT CAVOK 12/M01 Q1034=
201809261600 METAR LRIA 261600Z 32005KT CAVOK 10/M01 Q1034=
201809261630 METAR LRIA 261630Z 34004KT CAVOK 10/M01 Q1034=
201809261700 METAR LRIA 261700Z 32005KT CAVOK 10/M02 Q1034=
201809261730 METAR LRIA 261730Z 32005KT CAVOK 09/M01 Q1034=
201809261800 METAR LRIA 261800Z 33005KT CAVOK 08/M01 Q1035=
201809261830 METAR COR LRIA 261830Z 32005KT CAVOK 08/M01 Q1035=
201809261900 METAR LRIA 261900Z 35005KT CAVOK 07/M01 Q1034=
201809261930 METAR LRIA 261930Z 24003KT CAVOK 05/01 Q1034=
201809262000 METAR LRIA 262000Z 22003KT CAVOK 06/M00 Q1034=
201809262030 METAR COR LRIA 262030Z 25004KT CAVOK 06/M00 Q1034=
201809262100 METAR LRIA 262100Z 24003KT CAVOK 06/M01 Q1034=
201809262130 METAR LRIA 262130Z 21002KT CAVOK 05/M01 Q1033=
201809262200 METAR LRIA 262200Z 23004KT CAVOK 05/M01 Q1033=
201809262230 METAR COR LRIA 262230Z 24004KT CAVOK 05/M01 Q1033=
201809262300 METAR LRIA 262300Z AUTO VRB01KT 9999 NCD 05/M01 Q1033=
201809262330 METAR LRIA 262330Z 23004KT CAVOK 05/M01 Q1033=
201809270000 METAR COR LRIA 270000Z 23003KT CAVOK 04/M01 Q1032=
201809270030 METAR LRIA 270030Z AUTO 21003KT 9999 NCD 04/M01 Q1032=
201809270100 METAR LRIA 270100Z 00000KT CAVOK 05/M02 Q1031=
201809270130 METAR LRIA 270130Z AUTO 00000KT 9999 NCD 04/M01 Q1031=
201809270200 METAR LRIA 270200Z 00000KT CAVOK 04/M01 Q1031=
201809270230 METAR COR LRIA 270230Z 10002KT 060V140 CAVOK 03/M02 Q1030=
201809270300 METAR LRIA 270300Z 05004KT CAVOK 03/M01 Q1030=
201809270330 METAR LRIA 270330Z 07006KT CAVOK 02/M02 Q1030=
201809270400 METAR LRIA 270400Z 06006KT CAVOK 02/M01 Q1030=
201809270430 METAR LRIA 270430Z 08005KT CAVOK 03/M01 Q1030=
201809270500 METAR LRIA 270500Z VRB01KT CAVOK 06/M00 Q1029=
201809270530 METAR LRIA 270530Z VRB01KT CAVOK 06/M00 Q1030=
201809270600 METAR LRIA 270600Z 18003KT 160V240 CAVOK 07/00 Q1030=
201809270630 METAR LRIA 270630Z 17005KT 130V210 CAVOK 09/00 Q1029=
201809270700 METAR LRIA 270700Z 19004KT 160V240 CAVOK 09/01 Q1029=
201809270730 METAR LRIA 270730Z 22004KT 170V260 CAVOK 11/M00 Q1029=
201809270800 METAR LRIA 270800Z 21005KT 160V270 CAVOK 13/00 Q1029=
201809270830 METAR LRIA 270830Z 22006KT 190V260 CAVOK 14/M01 Q1029=
201809270900 METAR LRIA 270900Z 24005KT 180V290 CAVOK 14/M01 Q1029=
201809270930 METAR LRIA 270930Z 25005KT 210V290 CAVOK 15/M02 Q1029=
201809271000 METAR LRIA 271000Z 22005KT 180V270 CAVOK 16/M03 Q1028=
201809271030 METAR LRIA 271030Z 26006KT 210V300 CAVOK 16/M03 Q1028=
201809271100 METAR LRIA 271100Z 25006KT 210V290 CAVOK 16/M02 Q1028=
201809271130 METAR LRIA 271130Z 24005KT 170V270 CAVOK 18/M02 Q1027=
201809271200 METAR LRIA 271200Z 23006KT 170V280 CAVOK 18/M04 Q1027=
201809271230 METAR LRIA 271230Z 23007KT 200V260 CAVOK 18/M04 Q1026=
201809271300 METAR LRIA 271300Z 24006KT 220V290 CAVOK 18/M02 Q1026=
201809271330 METAR LRIA 271330Z 25006KT 210V300 CAVOK 19/M00 Q1026=
201809271400 METAR LRIA 271400Z 25006KT 220V290 9999 SCT046 18/M00 Q1026=
201809271430 METAR LRIA 271430Z 26006KT 9999 SCT047 18/00 Q1026=
201809271500 METAR LRIA 271500Z 26005KT 9999 SCT045 18/00 Q1025=
201809271530 METAR LRIA 271530Z 26004KT CAVOK 17/00 Q1026=
201809271600 METAR LRIA 271600Z 25003KT CAVOK 17/00 Q1026=
201809271630 METAR LRIA 271630Z 26002KT 230V290 CAVOK 17/01 Q1026=
201809271700 METAR LRIA 271700Z 25002KT CAVOK 17/01 Q1026=
201809271730 METAR LRIA 271730Z 24003KT 210V270 CAVOK 15/02 Q1026=
201809271800 METAR LRIA 271800Z 00000KT CAVOK 16/01 Q1026=
201809271830 METAR LRIA 271830Z 33003KT 9999 SCT041 15/03 Q1026=
201809271900 METAR LRIA 271900Z 33006KT 9999 BKN041 15/03 Q1026=
201809271930 METAR LRIA 271930Z 31004KT 9999 OVC043 15/03 Q1026=
201809272000 METAR LRIA 272000Z 32003KT 9999 OVC041 14/02 Q1026=
201809272030 METAR LRIA 272030Z 34005KT 9999 BKN040 15/05 Q1026=
201809272100 METAR LRIA 272100Z 33005KT 9999 BKN037 15/06 Q1026=
201809272130 METAR LRIA 272130Z 33004KT 9999 BKN041 15/07 Q1026=
201809272200 METAR LRIA 272200Z 31004KT 260V340 9999 BKN037 14/06 Q1026=
201809272230 METAR LRIA 272230Z 33006KT 9999 BKN037 15/07 Q1026=
201809272300 METAR LRIA 272300Z 32006KT 9999 BKN037 15/07 Q1026=
201809272330 METAR LRIA 272330Z 32006KT 9999 OVC039 15/07 Q1026=
201809280000 METAR LRIA 280000Z 30005KT 9999 OVC038 14/08 Q1026=
201809280030 METAR LRIA 280030Z 29005KT 9999 OVC037 14/08 Q1025=
201809280100 METAR LRIA 280100Z 30004KT 9999 OVC038 14/08 Q1025=
201809280130 METAR LRIA 280130Z 20003KT CAVOK 13/08 Q1025=
201809280200 METAR LRIA 280200Z 19003KT CAVOK 14/08 Q1024=
201809280230 METAR LRIA 280230Z 21003KT 9999 OVC035 13/08 Q1024=
201809280300 METAR LRIA 280300Z 20003KT 9999 OVC034 13/08 Q1024=
201809280330 METAR LRIA 280330Z 21003KT 9999 OVC033 13/08 Q1024=
201809280400 METAR LRIA 280400Z 23001KT 9999 OVC035 13/08 Q1024=
201809280430 METAR LRIA 280430Z 23002KT 9999 OVC033 13/08 Q1023=
201809280500 METAR LRIA 280500Z VRB01KT 9999 OVC034 13/08 Q1023=
201809280530 METAR LRIA 280530Z 21003KT 160V260 9999 OVC035 14/09 Q1023=
201809280600 METAR LRIA 280600Z 22003KT 160V270 9999 OVC037 15/09 Q1023=
201809280630 METAR LRIA 280630Z 22004KT 170V260 9999 OVC040 16/09 Q1023=
201809280700 METAR LRIA 280700Z 19005KT 160V230 9999 BKN040 16/09 Q1023=
201809280730 METAR LRIA 280730Z 20005KT 150V230 CAVOK 17/08 Q1022=
201809280800 METAR LRIA 280800Z 17006KT 120V200 CAVOK 18/08 Q1022=
201809280830 METAR LRIA 280830Z 13006KT 9999 FEW035 19/08 Q1022=
201809280900 METAR LRIA 280900Z 19006KT 9999 FEW035 19/08 Q1021=
201809280930 METAR LRIA 280930Z 19007KT CAVOK 20/08 Q1021=
201809281000 METAR LRIA 281000Z 18007KT 130V230 CAVOK 21/08 Q1020=
201809281030 METAR LRIA 281030Z VRB06KT CAVOK 22/08 Q1020=
201809281100 METAR COR LRIA 281100Z 20007KT 150V230 CAVOK 22/08 Q1019=
201809281130 METAR LRIA 281130Z 19006KT 130V260 CAVOK 22/09 Q1019=
201809281200 METAR LRIA 281200Z 18006KT 140V240 CAVOK 23/08 Q1018=
201809281230 METAR LRIA 281230Z 17006KT 130V210 CAVOK 23/09 Q1018=
201809281300 METAR LRIA 281300Z 17006KT 130V220 CAVOK 23/08 Q1017=
201809281330 METAR LRIA 281330Z 18005KT 140V230 CAVOK 23/07 Q1017=
201809281400 METAR LRIA 281400Z 17005KT 130V230 CAVOK 23/07 Q1016=
201809281430 METAR LRIA 281430Z 18004KT 150V220 CAVOK 23/08 Q1016=
201809281500 METAR LRIA 281500Z 17004KT CAVOK 22/08 Q1016=
201809281530 METAR LRIA 281530Z 15005KT 100V170 CAVOK 21/08 Q1016=
201809281600 METAR LRIA 281600Z 11007KT CAVOK 19/09 Q1016=
201809281630 METAR LRIA 281630Z 10007KT CAVOK 18/09 Q1016=
201809281700 METAR LRIA 281700Z 11006KT CAVOK 17/09 Q1016=
201809281730 METAR LRIA 281730Z 11006KT CAVOK 16/09 Q1016=
201809281800 METAR LRIA 281800Z 15004KT 120V190 CAVOK 17/08 Q1016=
201809281830 METAR LRIA 281830Z 14003KT CAVOK 17/08 Q1016=
201809281900 METAR LRIA 281900Z 16004KT CAVOK 17/07 Q1016=
201809281930 METAR LRIA 281930Z 13005KT CAVOK 16/07 Q1016=
201809282000 METAR LRIA 282000Z 11005KT CAVOK 15/07 Q1016=
201809282030 METAR LRIA 282030Z 08006KT CAVOK 14/07 Q1016=
201809282100 METAR LRIA 282100Z 09005KT CAVOK 14/07 Q1015=
201809282130 METAR LRIA 282130Z 08006KT CAVOK 13/07 Q1015=
201809282200 METAR LRIA 282200Z 08006KT CAVOK 13/07 Q1015=
201809282230 METAR LRIA 282230Z 10006KT CAVOK 12/07 Q1015=
201809282300 METAR LRIA 282300Z 07006KT CAVOK 12/07 Q1015=
201809282330 METAR LRIA 282330Z 08006KT CAVOK 12/07 Q1015=
201809290000 METAR LRIA 290000Z 09007KT CAVOK 12/07 Q1015=
201809290030 METAR LRIA 290030Z 09006KT CAVOK 11/07 Q1015=
201809290100 METAR LRIA 290100Z 09006KT CAVOK 11/07 Q1015=
201809290130 METAR LRIA 290130Z 06004KT CAVOK 10/06 Q1015=
201809290200 METAR LRIA 290200Z 07003KT 050V120 CAVOK 10/06 Q1015=
201809290230 METAR LRIA 290230Z 34004KT CAVOK 10/06 Q1016=
201809290300 METAR LRIA 290300Z 08003KT CAVOK 11/07 Q1016=
201809290330 METAR LRIA 290330Z VRB01KT CAVOK 10/07 Q1016=
201809290400 METAR LRIA 290400Z VRB01KT CAVOK 10/06 Q1016=
201809290430 METAR LRIA 290430Z 33002KT CAVOK 09/06 Q1016=
201809290500 METAR LRIA 290500Z 27003KT CAVOK 09/06 Q1016=
201809290530 METAR LRIA 290530Z 22003KT CAVOK 11/07 Q1016=
201809290600 METAR LRIA 290600Z 24004KT 210V280 CAVOK 12/08 Q1016=
201809290630 METAR LRIA 290630Z 27003KT 230V290 CAVOK 14/09 Q1017=
201809290700 METAR LRIA 290700Z 29004KT 250V340 CAVOK 15/09 Q1017=
201809290730 METAR LRIA 290730Z 32007KT CAVOK 16/10 Q1017=
201809290800 METAR LRIA 290800Z 32013KT 9999 SCT020 17/10 Q1018=
201809290830 METAR LRIA 290830Z 31017KT 9999 FEW014 BKN018 14/09 Q1018=
201809290900 METAR LRIA 290900Z 32015KT 9999 FEW010 BKN013 14/09 Q1018=
201809290930 METAR LRIA 290930Z 34022G33KT 9999 SCT012 OVC016 13/07 Q1019=
201809291000 METAR LRIA 291000Z 35023G33KT 9999 SCT014 OVC020 13/06 Q1020=
201809291030 METAR COR LRIA 291030Z 35023KT 9999 -DZ FEW013 SCT020 OVC026
                        12/06 Q1019 R14/19//95=
201809291100 METAR LRIA 291100Z 34018KT 7000 -DZ BKN007 OVC016 10/07 Q1020
                        R14/19//95=
201809291130 METAR LRIA 291130Z 33012KT 7000 -DZ BKN009 OVC018 10/08 Q1021
                        R14/19//95=
201809291200 METAR LRIA 291200Z 34012KT 6000 -DZ BKN008 OVC017 10/07 Q1022
                        R14/19//95=
201809291230 METAR LRIA 291230Z 35014KT 7000 -DZ BKN010 OVC018 10/07 Q1022
                        R14/19//95=
201809291300 METAR LRIA 291300Z 35010KT 7000 -DZ BKN012 OVC020 10/07 Q1022
                        R14/19//95=
201809291330 METAR LRIA 291330Z 35011KT 320V020 7000 -DZ BKN013 OVC024
                        10/07 Q1022 R14/19//95=
201809291400 METAR LRIA 291400Z 35010KT 9999 SCT015 BKN042 10/07 Q1022
                        R14/19//95=
201809291430 METAR LRIA 291430Z 33008KT 9999 SCT008 BKN035 10/07 Q1022
                        R14/19//95=
201809291500 METAR LRIA 291500Z 34013KT 9999 FEW010 BKN034 10/06 Q1022
                        R14/19//95=
201809291530 METAR LRIA 291530Z 33013KT 9999 SCT009 BKN033 10/07 Q1023
                        R14/19//95=
201809291600 METAR COR LRIA 291600Z 34013KT 6000 -DZ BKN008 09/06 Q1023
                        R14/29//95=
201809291630 METAR LRIA 291630Z 35013KT 9999 -RA FEW010 BKN024 08/05 Q1024
                        R14/29//95=
201809291700 METAR COR LRIA 291700Z 35010KT 9999 -RA SCT010 OVC027 08/05
                        Q1024 R14/29//95=
201809291730 METAR LRIA 291730Z 35009KT 9999 BKN028 08/05 Q1024 R14/29//95=
201809291800 METAR LRIA 291800Z 34007KT 9999 -RA SCT035 BKN048 08/05 Q1024
                        R14/29//95=
201809291830 METAR LRIA 291830Z 33005KT 9999 -RA BKN046 08/05 Q1025 R14/29//95=
201809291900 METAR LRIA 291900Z 31004KT 9999 -RA SCT042 08/05 Q1025 R14/29//95=
201809291930 METAR LRIA 291930Z 30005KT 9999 BKN048 08/05 Q1026 R14/29//95=
201809292000 METAR LRIA 292000Z 30007KT CAVOK 08/05 Q1026 R14/29//95=
201809292030 METAR LRIA 292030Z 31008KT CAVOK 08/05 Q1026 R14/29//95=
201809292100 METAR LRIA 292100Z 30008KT CAVOK 08/05 Q1026 R14/29//95=
201809292130 METAR LRIA 292130Z 31008KT 9999 FEW041 08/05 Q1026 R14/29//95=
201809292200 METAR LRIA 292200Z 31009KT 9999 SCT042 08/05 Q1026 R14/29//95=
201809292230 METAR COR LRIA 292230Z 31009KT 9999 BKN043 08/05 Q1026 R14/29//95=
201809292300 METAR LRIA 292300Z 32008KT 9999 OVC045 08/05 Q1026 R14/29//95=
201809292330 METAR LRIA 292330Z 33007KT 9999 SCT047 07/05 Q1026 R14/29//95=
201809300000 METAR LRIA 300000Z 33007KT 9999 BKN047 07/05 Q1026 R14/29//95=
201809300030 METAR LRIA 300030Z 33006KT CAVOK 06/04 Q1026 R14/29//95=
201809300100 METAR LRIA 300100Z 33005KT CAVOK 06/04 Q1026 R14/29//95=
201809300130 METAR COR LRIA 300130Z 32005KT CAVOK 06/04 Q1026 R14/29//95=
201809300200 METAR LRIA 300200Z 25003KT CAVOK 05/03 Q1026 R14/29//95=
201809300230 METAR COR LRIA 300230Z 28004KT 230V310 CAVOK 05/03 Q1027
                        R14/19//95=
201809300300 METAR LRIA 300300Z 25003KT CAVOK 05/03 Q1027 R14/19//95=
201809300330 METAR LRIA 300330Z 28004KT CAVOK 04/02 Q1027 R14/19//95=
201809300400 METAR LRIA 300400Z 29004KT CAVOK 04/02 Q1027 R14/19//95=
201809300430 METAR LRIA 300430Z 28003KT CAVOK 04/02 Q1027 R14/19//95=
201809300500 METAR LRIA 300500Z 27005KT CAVOK 04/03 Q1027 R14/19//95=
201809300530 METAR LRIA 300530Z 28004KT 9999 FEW015 05/03 Q1028 R14/19//95=
201809300600 METAR LRIA 300600Z 29004KT CAVOK 06/04 Q1028 R14/19//95=
201809300630 METAR LRIA 300630Z 32005KT 9999 FEW015 07/04 Q1028 R14/19//95=
201809300700 METAR LRIA 300700Z 33005KT 290V350 9999 FEW017 08/04 Q1028
                        R14/19//95=
201809300730 METAR LRIA 300730Z 31004KT CAVOK 09/04 Q1028 R14/CLRD//=
201809300800 METAR LRIA 300800Z 28004KT 240V320 CAVOK 10/04 Q1028=
201809300830 METAR LRIA 300830Z VRB03KT 9999 FEW019 11/04 Q1028=
201809300900 METAR LRIA 300900Z VRB03KT 9999 FEW025 12/05 Q1027=
201809300930 METAR LRIA 300930Z 05005KT 350V090 9999 FEW029 13/02 Q1027=
201809301000 METAR LRIA 301000Z 01006KT 350V050 9999 SCT042 13/02 Q1027=
201809301030 METAR LRIA 301030Z 03007KT 9999 SCT042 13/02 Q1027=
201809301100 METAR LRIA 301100Z 33003KT 290V070 9999 FEW045 14/01 Q1026=
201809301130 METAR LRIA 301130Z 06003KT 340V110 9999 FEW048 15/00 Q1026=
201809301200 METAR LRIA 301200Z 36004KT 280V090 CAVOK 15/00 Q1026=
201809301230 METAR LRIA 301230Z VRB03KT CAVOK 15/M01 Q1025=
201809301300 METAR LRIA 301300Z 02003KT 300V070 CAVOK 15/M01 Q1025=
201809301330 METAR LRIA 301330Z 26003KT 170V320 CAVOK 16/M01 Q1025=
201809301400 METAR LRIA 301400Z 12002KT CAVOK 15/M01 Q1025=
201809301430 METAR LRIA 301430Z VRB02KT CAVOK 15/M01 Q1024=
201809301500 METAR LRIA 301500Z 24003KT 200V280 CAVOK 15/M01 Q1024=
201809301530 METAR LRIA 301530Z 32003KT CAVOK 14/M01 Q1024=
201809301600 METAR LRIA 301600Z 33002KT CAVOK 13/M01 Q1024=
201809301630 METAR LRIA 301630Z 00000KT CAVOK 11/00 Q1024=
201809301700 METAR LRIA 301700Z 32001KT CAVOK 11/M01 Q1024=
201809301730 METAR LRIA 301730Z 00000KT CAVOK 09/M00 Q1024=
201809301800 METAR LRIA 301800Z 00000KT CAVOK 10/M01 Q1024=
201809301830 METAR LRIA 301830Z 00000KT CAVOK 09/M00 Q1024=
201809301900 METAR LRIA 301900Z VRB01KT CAVOK 09/00 Q1024=
201809301930 METAR LRIA 301930Z 07002KT CAVOK 08/M01 Q1023=
201809302000 METAR LRIA 302000Z 08004KT CAVOK 08/M01 Q1023=
201809302030 METAR LRIA 302030Z 09004KT CAVOK 08/M00 Q1023=
201809302100 METAR LRIA 302100Z 10004KT CAVOK 08/00 Q1023=
201809302130 METAR LRIA 302130Z 10003KT CAVOK 07/M00 Q1022=
201809302200 METAR LRIA 302200Z 08005KT CAVOK 08/01 Q1022=
201809302230 METAR LRIA 302230Z 08004KT CAVOK 07/00 Q1022=
201809302300 METAR LRIA 302300Z 08004KT CAVOK 07/M00 Q1022=
201809302330 METAR LRIA 302330Z 08005KT CAVOK 06/M00 Q1021=
