201810010000 METAR LRIA 010000Z 08006KT CAVOK 06/00 Q1021=
201810010030 METAR LRIA 010030Z 08006KT CAVOK 06/M00 Q1021=
201810010100 METAR LRIA 010100Z 07006KT CAVOK 06/M00 Q1020=
201810010130 METAR LRIA 010130Z 09004KT CAVOK 06/M00 Q1020=
201810010200 METAR LRIA 010200Z 09005KT CAVOK 05/M00 Q1020=
201810010230 METAR LRIA 010230Z 08005KT CAVOK 06/M00 Q1019=
201810010300 METAR LRIA 010300Z 08006KT CAVOK 05/M00 Q1019=
201810010330 METAR LRIA 010330Z 09004KT CAVOK 06/M00 Q1019=
201810010400 METAR LRIA 010400Z 09005KT CAVOK 05/M00 Q1019=
201810010430 METAR LRIA 010430Z 08007KT CAVOK 05/00 Q1019=
201810010500 METAR LRIA 010500Z 08006KT CAVOK 07/01 Q1018=
201810010530 METAR LRIA 010530Z 08006KT CAVOK 08/01 Q1018=
201810010600 METAR COR LRIA 010600Z 10005KT CAVOK 09/01 Q1018=
201810010630 METAR LRIA 010630Z 10005KT CAVOK 10/02 Q1018=
201810010700 METAR LRIA 010700Z 11007KT CAVOK 11/02 Q1018=
201810010730 METAR LRIA 010730Z 11008KT CAVOK 12/03 Q1018=
201810010800 METAR LRIA 010800Z 12006KT 080V160 CAVOK 14/04 Q1017=
201810010830 METAR LRIA 010830Z 12005KT 090V160 CAVOK 15/04 Q1017=
201810010900 METAR LRIA 010900Z 13009KT CAVOK 16/04 Q1016=
201810010930 METAR LRIA 010930Z 11010KT CAVOK 16/05 Q1016=
201810011000 METAR COR LRIA 011000Z 11008KT 080V150 CAVOK 18/06 Q1016=
201810011030 METAR LRIA 011030Z 12010KT CAVOK 18/06 Q1015=
201810011100 METAR LRIA 011100Z 12010KT 090V150 CAVOK 18/06 Q1015=
201810011130 METAR LRIA 011130Z 09006KT 060V140 9999 BKN043 18/06 Q1014=
201810011200 METAR LRIA 011200Z 17009KT 9999 SCT043 18/06 Q1014=
201810011230 METAR LRIA 011230Z 19007KT 150V230 9999 FEW045 18/07 Q1014=
201810011300 METAR LRIA 011300Z 17008KT 130V190 9999 SCT042 18/06 Q1014=
201810011330 METAR LRIA 011330Z 16008KT 9999 SCT042 18/07 Q1014=
201810011400 METAR LRIA 011400Z 17007KT 9999 SCT040 17/07 Q1013=
201810011430 METAR LRIA 011430Z 18005KT 9999 SCT040 16/08 Q1013=
201810011500 METAR LRIA 011500Z 17008KT 9999 -RA SCT040 15/08 Q1013=
201810011530 METAR LRIA 011530Z 16007KT 9999 -RA SCT040 14/08 Q1013=
201810011600 METAR LRIA 011600Z 15005KT 9999 -RA SCT045 13/09 Q1013 R14/29//95=
201810011630 METAR LRIA 011630Z 16005KT 9999 -RA SCT040 13/09 Q1013 R14/29//95=
201810011700 METAR LRIA 011700Z 18005KT 9999 -RA SCT040 13/09 Q1013 R14/29//95=
201810011730 METAR LRIA 011730Z 17003KT 140V200 9999 SCT035 13/09 Q1013
                        R14/29//95=
201810011800 METAR LRIA 011800Z 09003KT 9999 BKN032 13/09 Q1013 R14/29//95=
201810011830 METAR LRIA 011830Z 10005KT 9999 OVC026 13/10 Q1013 R14/29//95=
201810011900 METAR LRIA 011900Z 11005KT 9999 SCT023 BKN030 13/10 Q1013
                        R14/29//95=
201810011930 METAR LRIA 011930Z 12005KT 9999 SCT022 SCT030 13/10 Q1013
                        R14/29//95=
201810012000 METAR LRIA 012000Z 11006KT 9999 BKN022 BKN028 13/10 Q1013
                        R14/29//95=
201810012030 METAR LRIA 012030Z 12005KT 9999 SCT018 BKN023 12/10 Q1013
                        R14/19//95=
201810012100 METAR LRIA 012100Z 13005KT 9999 SCT018 BKN020 12/10 Q1013
                        R14/19//95=
201810012130 METAR LRIA 012130Z 08005KT 9999 SCT017 SCT033 12/10 Q1013
                        R14/19//95=
201810012200 METAR LRIA 012200Z 09004KT CAVOK 11/09 Q1012 R14/19//95=
201810012230 METAR LRIA 012230Z 11006KT CAVOK 11/09 Q1012 R14/19//95=
201810012300 METAR LRIA 012300Z 10005KT CAVOK 11/09 Q1012 R14/19//95=
201810012330 METAR LRIA 012330Z 09003KT CAVOK 11/09 Q1012 R14/19//95=
201810020000 METAR LRIA 020000Z 11005KT CAVOK 10/09 Q1012 R14/19//95=
201810020030 METAR LRIA 020030Z 09004KT 9000 NSC 10/08 Q1012 R14/19//95=
201810020100 METAR COR LRIA 020100Z 08005KT 9000 NSC 10/08 Q1012 R14/19//95=
201810020130 METAR LRIA 020130Z 09005KT 9000 NSC 10/08 Q1012 R14/19//95=
201810020200 METAR LRIA 020200Z 05003KT 010V080 6000 NSC 09/07 Q1012 R14/19//95=
201810020230 METAR LRIA 020230Z 07004KT 2500 MIFG BR NSC 09/08 Q1012 R14/19//95=
201810020300 METAR LRIA 020300Z 05004KT 0400 R14/0550D R32/0450N FG NSC
                        08/07 Q1012 R14/19//95=
201810020330 METAR LRIA 020330Z 07003KT 050V110 0400 R14/0600D R32/0500N
                        FG FEW003 08/07 Q1012 R14/19//95=
201810020400 METAR LRIA 020400Z 08005KT 0200 R14/0650D R32/0450N FG NSC
                        08/07 Q1012 14/09//95=
201810020430 METAR LRIA 020430Z 10005KT 0150 R14/0350N R32/0300N FG BKN001
                        09/07 Q1012 14/09//95=
201810020500 METAR LRIA 020500Z 11003KT 080V140 0100 R14/0200N R32/0325N
                        FG BKN001 09/08 Q1013 14/09//95=
201810020530 METAR LRIA 020530Z 09002KT 0150 R14/0200N R32/0250N FG BKN001
                        10/08 Q1013 14/19//95=
201810020600 METAR COR LRIA 020600Z VRB01KT 0300 R14/0300N R32/0400N FG
                        BKN001 10/09 Q1013 R14/CLRD//=
201810020630 METAR LRIA 020630Z 20002KT 160V260 5000 BR FEW001 11/10 Q1014=
201810020700 METAR LRIA 020700Z 21003KT 180V260 9999 FEW003 12/11 Q1014=
201810020730 METAR LRIA 020730Z 27005KT CAVOK 13/11 Q1014=
201810020800 METAR LRIA 020800Z 28004KT CAVOK 15/10 Q1014=
201810020830 METAR LRIA 020830Z 30007KT CAVOK 16/09 Q1014=
201810020900 METAR LRIA 020900Z 28004KT 180V350 CAVOK 17/09 Q1014=
201810020930 METAR LRIA 020930Z 28005KT CAVOK 18/08 Q1015=
201810021000 METAR LRIA 021000Z 31003KT 210V020 CAVOK 18/09 Q1015=
201810021030 METAR LRIA 021030Z 33004KT 240V040 CAVOK 19/09 Q1014=
201810021100 METAR LRIA 021100Z 29006KT 260V350 CAVOK 20/09 Q1014=
201810021130 METAR LRIA 021130Z 36004KT 300V060 CAVOK 21/09 Q1014=
201810021200 METAR LRIA 021200Z 36005KT 330V070 CAVOK 20/09 Q1014=
201810021230 METAR LRIA 021230Z 28003KT 190V320 CAVOK 21/08 Q1014=
201810021300 METAR LRIA 021300Z 05003KT 010V120 CAVOK 21/08 Q1013=
201810021330 METAR LRIA 021330Z 32003KT 250V050 CAVOK 21/08 Q1013=
201810021400 METAR LRIA 021400Z 14003KT 110V180 CAVOK 20/08 Q1013=
201810021430 METAR LRIA 021430Z 10004KT 060V120 CAVOK 20/08 Q1013=
201810021500 METAR LRIA 021500Z 11004KT CAVOK 20/08 Q1013=
201810021530 METAR LRIA 021530Z 11005KT CAVOK 19/08 Q1013=
201810021600 METAR LRIA 021600Z 11004KT CAVOK 17/08 Q1013=
201810021630 METAR LRIA 021630Z 11006KT CAVOK 16/08 Q1012=
201810021700 METAR LRIA 021700Z 11006KT CAVOK 16/08 Q1012=
201810021730 METAR LRIA 021730Z 11007KT CAVOK 16/08 Q1012=
201810021800 METAR LRIA 021800Z 11006KT CAVOK 16/08 Q1012=
201810021830 METAR LRIA 021830Z 10006KT CAVOK 16/08 Q1012=
201810021900 METAR LRIA 021900Z 12005KT CAVOK 16/09 Q1012=
201810021930 METAR LRIA 021930Z 10005KT CAVOK 16/09 Q1011=
201810022000 METAR LRIA 022000Z 16002KT 120V180 CAVOK 16/09 Q1011=
201810022030 METAR LRIA 022030Z 00000KT CAVOK 16/09 Q1011=
201810022100 METAR LRIA 022100Z 26004KT 220V280 CAVOK 17/08 Q1011=
201810022130 METAR LRIA 022130Z 27008KT CAVOK 17/08 Q1012=
201810022200 METAR LRIA 022200Z 30015KT 260V320 CAVOK 16/09 Q1013=
201810022230 METAR LRIA 022230Z 31012KT CAVOK 13/08 Q1013 RERA=
201810022300 METAR LRIA 022300Z 31010KT CAVOK 13/08 Q1013=
201810022330 METAR COR LRIA 022330Z 32008KT CAVOK 12/08 Q1014=
201810030000 METAR LRIA 030000Z 31010KT CAVOK 12/08 Q1014=
201810030030 METAR COR LRIA 030030Z 31013KT CAVOK 12/07 Q1014=
201810030100 METAR LRIA 030100Z 30011KT CAVOK 11/08 Q1015=
201810030130 METAR LRIA 030130Z 31012KT CAVOK 10/07 Q1015=
201810030200 METAR LRIA 030200Z 31009KT CAVOK 10/07 Q1015=
201810030230 METAR COR LRIA 030230Z 31008KT CAVOK 09/06 Q1016=
201810030300 METAR COR LRIA 030300Z 30007KT CAVOK 09/06 Q1016=
201810030330 METAR COR LRIA 030330Z 30006KT CAVOK 09/05 Q1016=
201810030400 METAR LRIA 030400Z 29004KT CAVOK 08/05 Q1016=
201810030430 METAR LRIA 030430Z VRB01KT CAVOK 08/05 Q1017=
201810030500 METAR LRIA 030500Z 28003KT 240V340 CAVOK 08/05 Q1017=
201810030530 METAR LRIA 030530Z 28006KT CAVOK 09/05 Q1016=
201810030600 METAR LRIA 030600Z 26004KT 230V300 CAVOK 11/05 Q1017=
201810030630 METAR LRIA 030630Z 28005KT 240V320 CAVOK 12/04 Q1017=
201810030700 METAR LRIA 030700Z 24005KT 210V280 CAVOK 13/04 Q1017=
201810030730 METAR LRIA 030730Z 26007KT 230V300 CAVOK 13/03 Q1017=
201810030800 METAR LRIA 030800Z 26008KT 230V290 CAVOK 14/02 Q1017=
201810030830 METAR LRIA 030830Z 24008KT 190V280 CAVOK 15/02 Q1016=
201810030900 METAR LRIA 030900Z 26010KT 220V290 CAVOK 16/00 Q1016=
201810030930 METAR LRIA 030930Z 29011KT 260V320 CAVOK 17/00 Q1016=
201810031000 METAR LRIA 031000Z 25009KT 220V280 CAVOK 16/M01 Q1016=
201810031030 METAR LRIA 031030Z 26008KT 220V300 CAVOK 17/M01 Q1016=
201810031100 METAR LRIA 031100Z 28012KT 240V300 CAVOK 17/01 Q1015=
201810031130 METAR LRIA 031130Z 26008KT 220V300 CAVOK 18/01 Q1015=
201810031200 METAR LRIA 031200Z 26010KT 220V280 CAVOK 18/01 Q1015=
201810031230 METAR LRIA 031230Z 25008KT 230V290 CAVOK 18/01 Q1015=
201810031300 METAR LRIA 031300Z 26012KT 230V290 CAVOK 18/01 Q1015=
201810031330 METAR LRIA 031330Z 26012KT 230V290 CAVOK 18/01 Q1015=
201810031400 METAR LRIA 031400Z 27011KT 230V300 CAVOK 17/01 Q1015=
201810031430 METAR LRIA 031430Z 27013KT CAVOK 16/01 Q1015=
201810031500 METAR LRIA 031500Z 27012G23KT CAVOK 15/01 Q1015=
201810031530 METAR LRIA 031530Z 26010KT CAVOK 14/01 Q1016=
201810031600 METAR LRIA 031600Z 26010KT 230V290 CAVOK 14/01 Q1016=
201810031630 METAR LRIA 031630Z 26008KT CAVOK 13/01 Q1016=
201810031700 METAR LRIA 031700Z 27009KT CAVOK 13/01 Q1017=
201810031730 METAR LRIA 031730Z 25008KT CAVOK 13/01 Q1017=
201810031800 METAR LRIA 031800Z 25007KT 220V290 CAVOK 12/01 Q1017=
201810031830 METAR LRIA 031830Z 25005KT 220V280 CAVOK 11/01 Q1017=
201810031900 METAR LRIA 031900Z 26004KT 220V280 CAVOK 10/01 Q1017=
201810031930 METAR LRIA 031930Z 27005KT CAVOK 10/01 Q1017=
201810032000 METAR LRIA 032000Z 28004KT 240V300 CAVOK 09/01 Q1018=
201810032030 METAR LRIA 032030Z 27004KT CAVOK 10/01 Q1018=
201810032100 METAR LRIA 032100Z 26004KT 230V300 CAVOK 10/02 Q1018=
201810032130 METAR LRIA 032130Z 29012KT 9999 -RA FEW050CB 11/02 Q1018=
201810032200 METAR LRIA 032200Z 27008KT 9999 FEW050CB 11/03 Q1018=
201810032230 METAR LRIA 032230Z 26007KT 230V290 9999 FEW055CB 10/03 Q1018=
201810032300 METAR LRIA 032300Z 26005KT 240V300 CAVOK 09/03 Q1019=
201810032330 METAR LRIA 032330Z 27006KT 230V300 CAVOK 09/03 Q1019=
201810040000 METAR LRIA 040000Z 32002KT 250V360 CAVOK 09/03 Q1019=
201810040030 METAR LRIA 040030Z 33002KT 250V060 CAVOK 08/03 Q1019=
201810040100 METAR LRIA 040100Z 28003KT 200V340 CAVOK 08/03 Q1020=
201810040130 METAR LRIA 040130Z 30009KT CAVOK 09/02 Q1020=
201810040200 METAR LRIA 040200Z 29005KT 9999 SCT046 08/02 Q1020=
201810040230 METAR LRIA 040230Z 28006KT CAVOK 08/02 Q1020=
201810040300 METAR LRIA 040300Z 28005KT CAVOK 08/02 Q1021=
201810040330 METAR LRIA 040330Z 30005KT CAVOK 07/02 Q1021=
201810040400 METAR LRIA 040400Z 29003KT CAVOK 08/02 Q1021=
201810040430 METAR LRIA 040430Z 15002KT 080V200 CAVOK 07/02 Q1022=
201810040500 METAR LRIA 040500Z 25002KT 220V300 CAVOK 07/02 Q1022=
201810040530 METAR LRIA 040530Z 28004KT 210V350 CAVOK 09/02 Q1022=
201810040600 METAR LRIA 040600Z 28005KT CAVOK 10/02 Q1022=
201810040630 METAR LRIA 040630Z 30011KT CAVOK 11/02 Q1023=
201810040700 METAR LRIA 040700Z 30011KT CAVOK 12/02 Q1023=
201810040730 METAR LRIA 040730Z 31013KT 280V340 CAVOK 13/01 Q1023=
201810040800 METAR LRIA 040800Z 31015KT CAVOK 13/00 Q1023=
201810040830 METAR LRIA 040830Z 31016KT 9999 SCT046 13/00 Q1023=
201810040900 METAR LRIA 040900Z 31017KT 9999 SCT041 13/M00 Q1023=
201810040930 METAR LRIA 040930Z 30018KT 270V330 9999 SCT046 15/M01 Q1023=
201810041000 METAR LRIA 041000Z 30018KT CAVOK 15/M02 Q1023 WS RWY32=
201810041030 METAR LRIA 041030Z 31017KT CAVOK 15/M02 Q1023 WS RWY32=
201810041100 METAR LRIA 041100Z 30018KT 270V330 CAVOK 15/M02 Q1024 WS
                        RWY32=
201810041130 METAR LRIA 041130Z 30017KT CAVOK 16/M02 Q1024=
201810041200 METAR LRIA 041200Z 31016KT 280V340 CAVOK 15/M02 Q1024=
201810041230 METAR LRIA 041230Z 32013KT 9999 FEW045CB 15/M01 Q1024=
201810041300 METAR LRIA 041300Z 31014KT 9999 FEW045CB 16/M02 Q1024=
201810041330 METAR LRIA 041330Z 32014KT 9999 FEW045CB 16/M01 Q1024=
201810041400 METAR LRIA 041400Z 34014KT 9999 FEW045CB 15/M00 Q1025=
201810041430 METAR LRIA 041430Z 33012KT CAVOK 15/M01 Q1025=
201810041500 METAR LRIA 041500Z 33013KT CAVOK 14/M00 Q1025=
201810041530 METAR LRIA 041530Z 33011KT CAVOK 13/M01 Q1026=
201810041600 METAR LRIA 041600Z 35011KT CAVOK 12/01 Q1026=
201810041630 METAR LRIA 041630Z 35012KT CAVOK 11/01 Q1027=
201810041700 METAR LRIA 041700Z 34010KT CAVOK 11/01 Q1027=
201810041730 METAR LRIA 041730Z 34010KT CAVOK 10/01 Q1027=
201810041800 METAR LRIA 041800Z 33007KT CAVOK 10/01 Q1028=
201810041830 METAR LRIA 041830Z 33008KT CAVOK 11/01 Q1028=
201810041900 METAR LRIA 041900Z 31004KT CAVOK 10/01 Q1029=
201810041930 METAR LRIA 041930Z 31006KT CAVOK 09/01 Q1029=
201810042000 METAR LRIA 042000Z 28006KT 240V330 CAVOK 09/02 Q1029=
201810042030 METAR LRIA 042030Z 28006KT CAVOK 08/02 Q1030=
201810042100 METAR LRIA 042100Z 29004KT CAVOK 08/02 Q1030=
201810042130 METAR LRIA 042130Z 29004KT CAVOK 08/02 Q1030=
201810042200 METAR LRIA 042200Z 28004KT CAVOK 07/02 Q1030=
201810042230 METAR LRIA 042230Z 30005KT CAVOK 07/02 Q1031=
201810042300 METAR LRIA 042300Z 25004KT CAVOK 05/02 Q1031=
201810042330 METAR LRIA 042330Z 25004KT CAVOK 06/02 Q1031=
201810050000 METAR LRIA 050000Z 25004KT CAVOK 06/02 Q1031=
201810050030 METAR LRIA 050030Z 23004KT CAVOK 06/02 Q1031=
201810050100 METAR LRIA 050100Z 26004KT CAVOK 06/02 Q1031=
201810050130 METAR LRIA 050130Z 27004KT CAVOK 06/01 Q1031=
201810050200 METAR LRIA 050200Z 28005KT CAVOK 06/01 Q1031=
201810050230 METAR LRIA 050230Z VRB01KT CAVOK 04/01 Q1031=
201810050300 METAR LRIA 050300Z 21002KT CAVOK 04/01 Q1031=
201810050330 METAR LRIA 050330Z 00000KT CAVOK 04/01 Q1031=
201810050400 METAR LRIA 050400Z 22002KT CAVOK 04/02 Q1031=
201810050430 METAR LRIA 050430Z 23004KT CAVOK 05/01 Q1032=
201810050500 METAR LRIA 050500Z 27003KT 240V310 CAVOK 05/02 Q1032=
201810050530 METAR LRIA 050530Z 27002KT CAVOK 07/02 Q1032=
201810050600 METAR LRIA 050600Z 21002KT CAVOK 08/02 Q1032=
201810050630 METAR LRIA 050630Z 22002KT CAVOK 09/03 Q1033=
201810050700 METAR LRIA 050700Z AUTO 17002KT 110V270 9999 NCD 11/02 Q1033=
201810050730 METAR LRIA 050730Z 22003KT 160V270 CAVOK 11/02 Q1033=
201810050800 METAR LRIA 050800Z 10002KT CAVOK 13/02 Q1033=
201810050830 METAR LRIA 050830Z 14003KT 060V200 CAVOK 13/02 Q1033=
201810050900 METAR LRIA 050900Z VRB03KT CAVOK 14/02 Q1033=
201810050930 METAR LRIA 050930Z VRB02KT CAVOK 15/02 Q1032=
201810051000 METAR LRIA 051000Z VRB03KT CAVOK 15/02 Q1032=
201810051030 METAR LRIA 051030Z VRB04KT CAVOK 15/01 Q1032=
201810051100 METAR LRIA 051100Z VRB04KT CAVOK 16/01 Q1031=
201810051130 METAR LRIA 051130Z 12004KT 080V180 CAVOK 16/01 Q1031=
201810051200 METAR LRIA 051200Z 20003KT 140V240 CAVOK 17/01 Q1031=
201810051230 METAR LRIA 051230Z 19005KT 120V250 CAVOK 17/M00 Q1030=
201810051300 METAR LRIA 051300Z 20006KT 170V230 CAVOK 17/M00 Q1030=
201810051330 METAR LRIA 051330Z 19004KT 130V290 CAVOK 17/M00 Q1030=
201810051400 METAR LRIA 051400Z 15003KT 090V230 CAVOK 17/00 Q1030=
201810051430 METAR LRIA 051430Z 18003KT 130V220 CAVOK 17/00 Q1030=
201810051500 METAR LRIA 051500Z 18002KT 150V210 CAVOK 16/00 Q1030=
201810051530 METAR LRIA 051530Z 15004KT CAVOK 16/00 Q1030=
201810051600 METAR LRIA 051600Z 11006KT CAVOK 14/01 Q1030=
201810051630 METAR LRIA 051630Z 09005KT CAVOK 12/01 Q1030=
201810051700 METAR LRIA 051700Z 11006KT CAVOK 12/01 Q1030=
201810051730 METAR LRIA 051730Z 10006KT CAVOK 11/01 Q1030=
201810051800 METAR LRIA 051800Z 09007KT CAVOK 11/01 Q1030=
201810051830 METAR LRIA 051830Z 10007KT CAVOK 11/00 Q1030=
201810051900 METAR LRIA 051900Z 10007KT CAVOK 10/01 Q1030=
201810051930 METAR LRIA 051930Z 10007KT CAVOK 10/01 Q1030=
201810052000 METAR LRIA 052000Z 10007KT CAVOK 10/01 Q1029=
201810052030 METAR LRIA 052030Z 09007KT CAVOK 09/01 Q1029=
201810052100 METAR LRIA 052100Z 09007KT CAVOK 09/01 Q1029=
201810052130 METAR LRIA 052130Z 10008KT CAVOK 09/01 Q1029=
201810052200 METAR COR LRIA 052200Z 10008KT CAVOK 09/01 Q1029=
201810052230 METAR LRIA 052230Z 10007KT CAVOK 09/01 Q1029=
201810052300 METAR LRIA 052300Z 10006KT CAVOK 08/01 Q1029=
201810052330 METAR COR LRIA 052330Z 10007KT CAVOK 08/01 Q1029=
201810060000 METAR COR LRIA 060000Z 12007KT CAVOK 08/02 Q1028=
201810060030 METAR LRIA 060030Z 12007KT CAVOK 08/03 Q1028=
201810060100 METAR COR LRIA 060100Z 11007KT CAVOK 08/03 Q1028=
201810060130 METAR COR LRIA 060130Z 12009KT CAVOK 09/04 Q1028=
201810060200 METAR LRIA 060200Z 13008KT CAVOK 09/04 Q1028=
201810060230 METAR LRIA 060230Z AUTO 10007KT 9999 NCD 08/03 Q1028=
201810060300 METAR COR LRIA 060300Z 11008KT CAVOK 07/03 Q1027=
201810060330 METAR LRIA 060330Z 11009KT CAVOK 07/03 Q1027=
201810060400 METAR LRIA 060400Z 11008KT CAVOK 07/04 Q1027=
201810060430 METAR LRIA 060430Z 12008KT CAVOK 08/04 Q1027=
201810060500 METAR LRIA 060500Z 11008KT CAVOK 08/04 Q1027=
201810060530 METAR LRIA 060530Z 12008KT CAVOK 09/05 Q1028=
201810060600 METAR LRIA 060600Z 12010KT CAVOK 10/05 Q1028=
201810060630 METAR LRIA 060630Z 12011KT CAVOK 11/05 Q1027=
201810060700 METAR LRIA 060700Z 14012KT 110V170 CAVOK 14/07 Q1027=
201810060730 METAR LRIA 060730Z 16013KT 9999 FEW019 16/07 Q1027=
201810060800 METAR LRIA 060800Z 17011KT 9999 FEW020 16/07 Q1027=
201810060830 METAR LRIA 060830Z 16011KT 9999 FEW020 18/07 Q1027=
201810060900 METAR LRIA 060900Z 16012KT 130V200 9999 FEW020 18/07 Q1027=
201810060930 METAR LRIA 060930Z 17010G21KT 9999 FEW022 18/06 Q1027=
201810061000 METAR LRIA 061000Z 16012KT CAVOK 19/07 Q1026=
201810061030 METAR LRIA 061030Z 16016KT CAVOK 20/06 Q1026=
201810061100 METAR LRIA 061100Z 15016KT CAVOK 20/06 Q1025=
201810061130 METAR LRIA 061130Z 17013KT CAVOK 20/06 Q1025=
201810061200 METAR LRIA 061200Z 19012KT 140V220 CAVOK 20/05 Q1025=
201810061230 METAR LRIA 061230Z 16013KT CAVOK 21/05 Q1024=
201810061300 METAR LRIA 061300Z 16013KT CAVOK 20/05 Q1024=
201810061330 METAR LRIA 061330Z 17010G20KT 150V210 CAVOK 20/05 Q1024=
201810061400 METAR LRIA 061400Z 17010KT 140V210 CAVOK 20/05 Q1023=
201810061430 METAR LRIA 061430Z 15013KT CAVOK 19/04 Q1023=
201810061500 METAR LRIA 061500Z 15010KT CAVOK 19/04 Q1023=
201810061530 METAR LRIA 061530Z 15009KT CAVOK 17/04 Q1023=
201810061600 METAR LRIA 061600Z 16008KT CAVOK 16/04 Q1023=
201810061630 METAR LRIA 061630Z 13008KT CAVOK 15/04 Q1023=
201810061700 METAR LRIA 061700Z 13011KT CAVOK 15/04 Q1023=
201810061730 METAR LRIA 061730Z 12008KT CAVOK 14/04 Q1022=
201810061800 METAR LRIA 061800Z 13009KT CAVOK 14/04 Q1022=
201810061830 METAR LRIA 061830Z 14010KT CAVOK 14/04 Q1022=
201810061900 METAR LRIA 061900Z 14009KT CAVOK 13/04 Q1022=
201810061930 METAR LRIA 061930Z 15011KT CAVOK 14/05 Q1022=
201810062000 METAR LRIA 062000Z 15010KT CAVOK 13/05 Q1022=
201810062030 METAR LRIA 062030Z 16010KT CAVOK 13/05 Q1022=
201810062100 METAR LRIA 062100Z 16011KT CAVOK 14/05 Q1022=
201810062130 METAR LRIA 062130Z 15009KT CAVOK 13/05 Q1022=
201810062200 METAR LRIA 062200Z 14008KT CAVOK 12/05 Q1022=
201810062230 METAR LRIA 062230Z 15007KT CAVOK 12/05 Q1022=
201810062300 METAR LRIA 062300Z 14008KT CAVOK 11/06 Q1021=
201810062330 METAR LRIA 062330Z 13008KT CAVOK 11/06 Q1021=
201810070000 METAR LRIA 070000Z 12009KT CAVOK 11/06 Q1021=
201810070030 METAR LRIA 070030Z 12008KT CAVOK 10/06 Q1020=
201810070100 METAR LRIA 070100Z 12008KT CAVOK 10/06 Q1020=
201810070130 METAR LRIA 070130Z 12008KT CAVOK 10/06 Q1020=
201810070200 METAR LRIA 070200Z 12009KT CAVOK 10/07 Q1020=
201810070230 METAR LRIA 070230Z 11009KT CAVOK 10/07 Q1020=
201810070300 METAR LRIA 070300Z 11008KT CAVOK 10/06 Q1020=
201810070330 METAR LRIA 070330Z 11009KT CAVOK 09/07 Q1020=
201810070400 METAR LRIA 070400Z 12009KT CAVOK 10/07 Q1020=
201810070430 METAR LRIA 070430Z 12011KT 9999 FEW017 09/06 Q1020=
201810070500 METAR LRIA 070500Z 12010KT 9999 FEW017 09/06 Q1020=
201810070530 METAR LRIA 070530Z 11010KT 9999 FEW017 10/07 Q1020=
201810070600 METAR LRIA 070600Z 11012KT CAVOK 11/07 Q1019=
201810070630 METAR LRIA 070630Z 11010KT 9999 FEW021 12/08 Q1020=
201810070700 METAR LRIA 070700Z 16009KT 9999 FEW020 14/08 Q1020=
201810070730 METAR LRIA 070730Z 16012KT CAVOK 16/08 Q1020=
201810070800 METAR LRIA 070800Z 16013KT CAVOK 16/08 Q1019=
201810070830 METAR COR LRIA 070830Z 15015KT CAVOK 17/08 Q1019=
201810070900 METAR LRIA 070900Z 16014KT CAVOK 19/07 Q1019=
201810070930 METAR LRIA 070930Z 16013KT CAVOK 19/07 Q1019=
201810071000 METAR LRIA 071000Z 15015KT 130V190 CAVOK 19/07 Q1018=
201810071030 METAR LRIA 071030Z 17012KT CAVOK 20/07 Q1018=
201810071100 METAR LRIA 071100Z 17012KT CAVOK 21/06 Q1018=
201810071130 METAR COR LRIA 071130Z 15013KT CAVOK 21/07 Q1017=
201810071200 METAR LRIA 071200Z 15013KT CAVOK 21/07 Q1017=
201810071230 METAR LRIA 071230Z 16014KT CAVOK 21/06 Q1017=
201810071300 METAR LRIA 071300Z 15014KT CAVOK 21/07 Q1017=
201810071330 METAR LRIA 071330Z 15014KT CAVOK 21/06 Q1017=
201810071400 METAR COR LRIA 071400Z 15013KT CAVOK 21/06 Q1016=
201810071430 METAR COR LRIA 071430Z 15011KT CAVOK 20/06 Q1016=
201810071500 METAR LRIA 071500Z 14010KT CAVOK 19/06 Q1016=
201810071530 METAR COR LRIA 071530Z 13007KT CAVOK 17/06 Q1017=
201810071600 METAR LRIA 071600Z 13007KT CAVOK 16/06 Q1017=
201810071630 METAR COR LRIA 071630Z 13008KT CAVOK 15/06 Q1017=
201810071700 METAR LRIA 071700Z 13009KT CAVOK 16/06 Q1017=
201810071730 METAR LRIA 071730Z 13009KT CAVOK 15/06 Q1017=
201810071800 METAR LRIA 071800Z 13009KT CAVOK 15/06 Q1017=
201810071830 METAR LRIA 071830Z 12008KT CAVOK 14/06 Q1017=
201810071900 METAR LRIA 071900Z 11008KT CAVOK 14/06 Q1017=
201810071930 METAR LRIA 071930Z 12008KT CAVOK 13/06 Q1017=
201810072000 METAR LRIA 072000Z 10007KT CAVOK 13/06 Q1017=
201810072030 METAR LRIA 072030Z 11007KT CAVOK 12/06 Q1017=
201810072100 METAR LRIA 072100Z 11006KT CAVOK 12/06 Q1017=
201810072130 METAR LRIA 072130Z 10006KT CAVOK 11/06 Q1017=
201810072200 METAR LRIA 072200Z 11007KT CAVOK 10/06 Q1017=
201810072230 METAR LRIA 072230Z 11006KT CAVOK 09/05 Q1017=
201810072300 METAR LRIA 072300Z 10006KT CAVOK 10/06 Q1017=
201810072330 METAR LRIA 072330Z 10005KT CAVOK 10/06 Q1017=
201810080000 METAR LRIA 080000Z 09006KT CAVOK 09/06 Q1017=
201810080030 METAR LRIA 080030Z 09006KT CAVOK 09/06 Q1017=
201810080100 METAR LRIA 080100Z 09006KT CAVOK 09/06 Q1017=
201810080130 METAR LRIA 080130Z 09006KT CAVOK 09/06 Q1017=
201810080200 METAR LRIA 080200Z 09007KT CAVOK 09/06 Q1017=
201810080230 METAR LRIA 080230Z 10006KT CAVOK 09/06 Q1018=
201810080300 METAR LRIA 080300Z 07005KT CAVOK 08/06 Q1018=
201810080330 METAR LRIA 080330Z 09005KT CAVOK 08/06 Q1018=
201810080400 METAR LRIA 080400Z 06002KT CAVOK 08/05 Q1018=
201810080430 METAR LRIA 080430Z 04002KT CAVOK 07/05 Q1019=
201810080500 METAR LRIA 080500Z 31003KT CAVOK 07/05 Q1019=
201810080530 METAR LRIA 080530Z 26001KT CAVOK 07/05 Q1019=
201810080600 METAR LRIA 080600Z 26002KT CAVOK 09/06 Q1019=
201810080630 METAR LRIA 080630Z 26003KT CAVOK 10/06 Q1020=
201810080700 METAR LRIA 080700Z 26004KT 220V290 CAVOK 12/07 Q1020=
201810080730 METAR LRIA 080730Z 27004KT 240V320 CAVOK 13/08 Q1020=
201810080800 METAR LRIA 080800Z 30004KT 250V340 CAVOK 14/08 Q1021=
201810080830 METAR LRIA 080830Z 31002KT CAVOK 16/07 Q1021=
201810080900 METAR LRIA 080900Z 36003KT 310V060 CAVOK 17/08 Q1021=
201810080930 METAR LRIA 080930Z VRB03KT CAVOK 18/08 Q1021=
201810081000 METAR LRIA 081000Z 30004KT 260V330 CAVOK 18/07 Q1021=
201810081030 METAR LRIA 081030Z 33003KT 260V030 CAVOK 19/07 Q1021=
201810081100 METAR LRIA 081100Z 32003KT 220V010 CAVOK 20/07 Q1020=
201810081130 METAR LRIA 081130Z 29004KT 220V010 CAVOK 20/07 Q1020=
201810081200 METAR LRIA 081200Z 35005KT 320V050 CAVOK 20/07 Q1020=
201810081230 METAR LRIA 081230Z 32005KT 270V010 CAVOK 21/07 Q1020=
201810081300 METAR LRIA 081300Z 31005KT CAVOK 21/08 Q1020=
201810081330 METAR LRIA 081330Z 33008KT CAVOK 21/07 Q1020=
201810081400 METAR LRIA 081400Z 35007KT CAVOK 21/07 Q1020=
201810081430 METAR LRIA 081430Z 34006KT CAVOK 21/08 Q1020=
201810081500 METAR LRIA 081500Z 33005KT CAVOK 19/08 Q1020=
201810081530 METAR LRIA 081530Z 31006KT CAVOK 18/09 Q1021=
201810081600 METAR LRIA 081600Z 32006KT CAVOK 17/09 Q1021=
201810081630 METAR LRIA 081630Z 32006KT CAVOK 17/09 Q1021=
201810081700 METAR LRIA 081700Z 32009KT CAVOK 17/10 Q1021=
201810081730 METAR LRIA 081730Z 32010KT CAVOK 16/10 Q1022=
201810081800 METAR LRIA 081800Z 32010KT CAVOK 16/10 Q1022=
201810081830 METAR LRIA 081830Z 32009KT CAVOK 15/10 Q1022=
201810081900 METAR LRIA 081900Z 32009KT CAVOK 15/10 Q1022=
201810082000 METAR LRIA 082000Z 34009KT 9999 OVC043 16/10 Q1023=
201810082030 METAR LRIA 082030Z 34010KT 9999 BKN043 15/10 Q1023=
201810082100 METAR LRIA 082100Z 34010KT 9999 BKN043 15/10 Q1023=
201810082130 METAR COR LRIA 082130Z 24005KT 9999 OVC041 14/10 Q1024=
201810082200 METAR LRIA 082200Z 30006KT 9999 OVC040 14/10 Q1024=
201810082230 METAR LRIA 082230Z 27004KT 9999 OVC048 14/10 Q1024=
201810082300 METAR LRIA 082300Z 29005KT 9999 OVC043 14/10 Q1024=
201810082330 METAR COR LRIA 082330Z 26004KT 9999 BKN034 BKN043 13/09 Q1024=
201810090000 METAR COR LRIA 090000Z 26004KT 9999 BKN034 BKN043 13/09 Q1024=
201810090030 METAR LRIA 090030Z 30006KT 9999 OVC049 13/09 Q1024=
201810090100 METAR LRIA 090100Z 30007KT 9999 FEW033 BKN049 13/09 Q1024=
201810090130 METAR COR LRIA 090130Z 27004KT 9999 OVC047 12/09 Q1024=
201810090200 METAR LRIA 090200Z 28004KT 9999 OVC046 12/09 Q1024=
201810090230 METAR LRIA 090230Z 30004KT 9999 OVC047 12/09 Q1024=
201810090300 METAR COR LRIA 090300Z 32005KT 9999 SCT045 11/08 Q1024=
201810090330 METAR COR LRIA 090330Z 32005KT 9999 XCT045 11/08 Q1024=
201810090400 METAR LRIA 090400Z 32005KT 280V340 9999 FEW033 10/08 Q1024=
201810090430 METAR LRIA 090430Z 31004KT 9999 FEW033 09/07 Q1024=
201810090500 METAR LRIA 090500Z 25002KT 220V310 CAVOK 10/07 Q1025=
201810090530 METAR LRIA 090530Z 29004KT CAVOK 10/07 Q1025=
201810090600 METAR LRIA 090600Z 29004KT 240V320 CAVOK 11/07 Q1025=
201810090630 METAR LRIA 090630Z 30004KT 270V330 CAVOK 12/07 Q1025=
201810090700 METAR LRIA 090700Z 32005KT 290V350 CAVOK 13/07 Q1026=
201810090730 METAR LRIA 090730Z 31006KT 260V340 CAVOK 14/08 Q1026=
201810090800 METAR LRIA 090800Z 32005KT 280V350 CAVOK 14/08 Q1026=
201810090830 METAR LRIA 090830Z 31006KT 250V340 CAVOK 15/08 Q1026=
201810090900 METAR LRIA 090900Z 32005KT 280V360 CAVOK 16/08 Q1026=
201810090930 METAR LRIA 090930Z 33005KT 280V010 CAVOK 17/08 Q1026=
201810091000 METAR LRIA 091000Z 36005KT 290V040 CAVOK 18/08 Q1026=
201810091030 METAR LRIA 091030Z 02005KT 350V050 CAVOK 18/07 Q1026=
201810091100 METAR LRIA 091100Z 33005KT 250V040 CAVOK 19/08 Q1025=
201810091130 METAR LRIA 091130Z 36005KT 250V050 CAVOK 19/07 Q1025=
201810091200 METAR LRIA 091200Z 01005KT 310V050 CAVOK 20/07 Q1025=
201810091230 METAR LRIA 091230Z 02007KT 330V060 CAVOK 20/07 Q1025=
201810091300 METAR LRIA 091300Z 02007KT CAVOK 20/07 Q1025=
201810091330 METAR LRIA 091330Z 01008KT CAVOK 19/07 Q1025=
201810091400 METAR LRIA 091400Z 01008KT CAVOK 19/07 Q1025=
201810091430 METAR LRIA 091430Z 02009KT CAVOK 18/07 Q1025=
201810091500 METAR LRIA 091500Z 03009KT CAVOK 18/07 Q1025=
201810091530 METAR LRIA 091530Z 03008KT CAVOK 16/07 Q1025=
201810091600 METAR LRIA 091600Z 03007KT CAVOK 15/07 Q1025=
201810091630 METAR LRIA 091630Z 03008KT CAVOK 15/07 Q1025=
201810091700 METAR LRIA 091700Z 03008KT CAVOK 14/07 Q1026=
201810091730 METAR LRIA 091730Z 04006KT CAVOK 14/07 Q1026=
201810091800 METAR LRIA 091800Z 01005KT CAVOK 13/07 Q1026=
201810091830 METAR LRIA 091830Z 33004KT 300V010 CAVOK 12/07 Q1026=
201810091900 METAR LRIA 091900Z 01006KT CAVOK 12/07 Q1027=
201810091930 METAR LRIA 091930Z 01006KT CAVOK 11/07 Q1027=
201810092000 METAR LRIA 092000Z 03009KT CAVOK 12/07 Q1027=
201810092030 METAR LRIA 092030Z 03008KT CAVOK 11/06 Q1027=
201810092100 METAR LRIA 092100Z 03007KT CAVOK 11/06 Q1027=
201810092130 METAR LRIA 092130Z 02005KT CAVOK 10/06 Q1027=
201810092200 METAR LRIA 092200Z 35004KT CAVOK 09/05 Q1027=
201810092230 METAR LRIA 092230Z 36005KT CAVOK 08/05 Q1028=
201810092300 METAR LRIA 092300Z 36005KT CAVOK 08/05 Q1027=
201810092330 METAR LRIA 092330Z 34005KT CAVOK 07/04 Q1027=
201810100000 METAR LRIA 100000Z 33004KT CAVOK 06/04 Q1027=
201810100030 METAR LRIA 100030Z 34007KT CAVOK 06/04 Q1027=
201810100100 METAR LRIA 100100Z 30004KT CAVOK 06/04 Q1027=
201810100130 METAR LRIA 100130Z 31005KT CAVOK 07/05 Q1027=
201810100200 METAR LRIA 100200Z 32005KT CAVOK 07/05 Q1027=
201810100230 METAR LRIA 100230Z 34008KT 9999 OVC025 08/05 Q1027=
201810100300 METAR LRIA 100300Z 34005KT 9999 BKN024 07/04 Q1028=
201810100330 METAR LRIA 100330Z 34006KT 280V010 9999 BKN024 07/04 Q1027=
201810100400 METAR LRIA 100400Z 34007KT CAVOK 06/03 Q1027=
201810100430 METAR LRIA 100430Z 32004KT CAVOK 05/03 Q1027=
201810100500 METAR LRIA 100500Z 33005KT CAVOK 06/04 Q1028=
201810100530 METAR LRIA 100530Z 33005KT CAVOK 07/04 Q1028=
201810100600 METAR LRIA 100600Z 34007KT CAVOK 07/04 Q1028=
201810100630 METAR LRIA 100630Z 01008KT 9999 BKN019 08/04 Q1029=
201810100700 METAR LRIA 100700Z 02008KT 9999 BKN019 09/04 Q1029=
201810100730 METAR LRIA 100730Z 01007KT 9999 SCT019 09/04 Q1029=
201810100800 METAR LRIA 100800Z 03005KT 350V080 9999 SCT019 10/04 Q1029=
201810100830 METAR COR LRIA 100830Z VRB02KT 9999 FEW023 11/03 Q1029=
201810100900 METAR COR LRIA 100900Z VRB01KT 9999 BKN022 12/04 Q1029=
201810100930 METAR LRIA 100930Z VRB02KT 9999 BKN022 12/04 Q1029=
201810101000 METAR LRIA 101000Z 32003KT 230V040 9999 OVC024 13/04 Q1029=
201810101030 METAR COR LRIA 101030Z 32004KT 270V010 9999 OVC025 13/04
                        Q1028=
201810101100 METAR LRIA 101100Z 31006KT 260V350 9999 BKN025 14/05 Q1028=
201810101130 METAR LRIA 101130Z 35007KT 290V020 9999 FEW027 14/05 Q1028=
201810101200 METAR LRIA 101200Z 34006KT 300V010 CAVOK 15/05 Q1028=
201810101230 METAR LRIA 101230Z 33006KT 290V020 CAVOK 16/06 Q1028=
201810101300 METAR LRIA 101300Z 33005KT 300V360 CAVOK 16/06 Q1027=
201810101330 METAR LRIA 101330Z 31005KT 280V350 CAVOK 16/06 Q1027=
201810101400 METAR LRIA 101400Z 31006KT 280V340 CAVOK 16/06 Q1027=
201810101430 METAR LRIA 101430Z 31006KT CAVOK 16/06 Q1027=
201810101500 METAR LRIA 101500Z 30006KT CAVOK 15/06 Q1027=
201810101530 METAR LRIA 101530Z 29005KT CAVOK 14/06 Q1027=
201810101600 METAR LRIA 101600Z 29005KT CAVOK 13/06 Q1028=
201810101630 METAR LRIA 101630Z 32005KT CAVOK 13/06 Q1028=
201810101700 METAR LRIA 101700Z 27002KT CAVOK 11/06 Q1028=
201810101730 METAR LRIA 101730Z 28003KT CAVOK 11/06 Q1028=
201810101800 METAR LRIA 101800Z 23003KT CAVOK 11/06 Q1028=
201810101830 METAR LRIA 101830Z 23003KT CAVOK 11/06 Q1028=
201810101900 METAR LRIA 101900Z 24003KT CAVOK 10/06 Q1029=
201810101930 METAR LRIA 101930Z 25003KT CAVOK 09/05 Q1029=
201810102000 METAR LRIA 102000Z 22003KT CAVOK 09/05 Q1029=
201810102030 METAR LRIA 102030Z 26003KT CAVOK 09/05 Q1029=
201810102100 METAR LRIA 102100Z 27003KT CAVOK 09/05 Q1029=
201810102130 METAR LRIA 102130Z 25003KT CAVOK 08/05 Q1029=
201810102200 METAR LRIA 102200Z 28003KT CAVOK 07/05 Q1029=
201810102230 METAR LRIA 102230Z 27004KT 9000 NSC 06/05 Q1029=
201810102300 METAR LRIA 102300Z 24003KT CAVOK 07/05 Q1029=
201810102330 METAR LRIA 102330Z 24003KT CAVOK 07/05 Q1029=
201810110000 METAR LRIA 110000Z 25002KT CAVOK 07/04 Q1029=
201810110030 METAR LRIA 110030Z 27003KT CAVOK 07/04 Q1029=
201810110100 METAR LRIA 110100Z 26003KT 7000 NSC 05/03 Q1029=
201810110130 METAR LRIA 110130Z 28003KT 7000 NSC 05/03 Q1029=
201810110200 METAR LRIA 110200Z 25003KT 8000 NSC 05/04 Q1029=
201810110230 METAR LRIA 110230Z 26003KT 9000 NSC 06/04 Q1029=
201810110300 METAR LRIA 110300Z 26004KT CAVOK 05/04 Q1029=
201810110330 METAR LRIA 110330Z 25003KT CAVOK 05/03 Q1029=
201810110400 METAR LRIA 110400Z 28003KT 250V310 CAVOK 05/04 Q1029=
201810110430 METAR LRIA 110430Z 28002KT 9999 MIFG NSC 05/03 Q1029=
201810110500 METAR LRIA 110500Z 29004KT 6000 MIFG NSC 04/02 Q1029=
201810110530 METAR LRIA 110530Z 26002KT 5000 BR NSC 05/03 Q1029=
201810110600 METAR LRIA 110600Z 27002KT 6000 NSC 06/05 Q1029=
201810110630 METAR LRIA 110630Z 27003KT 9000 NSC 08/06 Q1029=
201810110700 METAR LRIA 110700Z 25003KT 220V290 9000 NSC 09/06 Q1029=
201810110730 METAR LRIA 110730Z 26004KT 210V290 CAVOK 10/06 Q1029=
201810110800 METAR LRIA 110800Z 27004KT 220V330 CAVOK 13/07 Q1029=
201810110830 METAR LRIA 110830Z VRB03KT CAVOK 14/07 Q1029=
201810110900 METAR LRIA 110900Z 30004KT 260V030 CAVOK 16/08 Q1029=
201810110930 METAR LRIA 110930Z 36005KT 310V050 CAVOK 17/06 Q1029=
201810111000 METAR LRIA 111000Z 05004KT 340V100 CAVOK 17/07 Q1029=
201810111030 METAR LRIA 111030Z 03007KT 330V060 CAVOK 17/07 Q1029=
201810111100 METAR LRIA 111100Z 03005KT 350V090 CAVOK 18/06 Q1028=
201810111130 METAR LRIA 111130Z 36005KT 270V050 CAVOK 19/07 Q1028=
201810111200 METAR LRIA 111200Z 30004KT 250V360 CAVOK 20/08 Q1028=
201810111230 METAR LRIA 111230Z 32004KT 270V060 CAVOK 20/07 Q1028=
201810111300 METAR LRIA 111300Z 30005KT 260V360 CAVOK 20/07 Q1027=
201810111330 METAR LRIA 111330Z 35006KT 320V030 CAVOK 20/06 Q1027=
201810111400 METAR LRIA 111400Z 01005KT 330V040 CAVOK 20/05 Q1027=
201810111430 METAR LRIA 111430Z 33003KT CAVOK 20/06 Q1027=
201810111500 METAR LRIA 111500Z 33005KT CAVOK 18/06 Q1027=
201810111530 METAR LRIA 111530Z 34008KT CAVOK 16/06 Q1027=
201810111600 METAR LRIA 111600Z 34006KT CAVOK 15/06 Q1027=
201810111630 METAR LRIA 111630Z 33005KT CAVOK 15/06 Q1027=
201810111700 METAR LRIA 111700Z 32005KT CAVOK 15/06 Q1027=
201810111730 METAR LRIA 111730Z 33006KT CAVOK 13/06 Q1027=
201810111800 METAR LRIA 111800Z 26004KT CAVOK 13/06 Q1028=
201810111830 METAR LRIA 111830Z 27003KT CAVOK 12/06 Q1028=
201810111900 METAR LRIA 111900Z 24002KT 190V280 CAVOK 12/06 Q1028=
201810111930 METAR COR LRIA 111930Z 23004KT CAVOK 11/06 Q1028=
201810112000 METAR LRIA 112000Z 23003KT 210V270 CAVOK 11/05 Q1028=
201810112030 METAR LRIA 112030Z 25002KT 230V290 CAVOK 11/05 Q1028=
201810112100 METAR LRIA 112100Z 28004KT CAVOK 11/05 Q1028=
201810112130 METAR LRIA 112130Z 33003KT CAVOK 10/04 Q1028=
201810112200 METAR LRIA 112200Z 26003KT CAVOK 08/05 Q1028=
201810112230 METAR LRIA 112230Z 25003KT CAVOK 09/05 Q1029=
201810112300 METAR COR LRIA 112300Z 25003KT CAVOK 08/05 Q1029=
201810112330 METAR COR LRIA 112330Z 27003KT CAVOK 09/05 Q1029=
201810120000 METAR LRIA 120000Z 26003KT CAVOK 08/04 Q1029=
201810120030 METAR LRIA 120030Z 26003KT CAVOK 08/05 Q1028=
201810120100 METAR LRIA 120100Z 28003KT CAVOK 08/05 Q1029=
201810120130 METAR LRIA 120130Z 26003KT CAVOK 06/04 Q1029=
201810120200 METAR LRIA 120200Z 26002KT CAVOK 07/05 Q1029=
201810120230 METAR COR LRIA 120230Z 26003KT 6000 NSC 06/04 Q1029=
201810120300 METAR COR LRIA 120300Z 26003KT CAVOK 07/04 Q1029=
201810120330 METAR LRIA 120330Z 25002KT 230V300 CAVOK 06/04 Q1029=
201810120400 METAR LRIA 120400Z 27003KT CAVOK 07/04 Q1029=
201810120430 METAR LRIA 120430Z 25003KT CAVOK 05/03 Q1029=
201810120500 METAR LRIA 120500Z 27003KT CAVOK 06/04 Q1030=
201810120530 METAR LRIA 120530Z 29003KT CAVOK 07/05 Q1030=
201810120600 METAR LRIA 120600Z 29003KT 260V320 CAVOK 08/05 Q1030=
201810120630 METAR LRIA 120630Z 25003KT CAVOK 09/06 Q1030=
201810120700 METAR LRIA 120700Z 25003KT 220V280 CAVOK 11/06 Q1031=
201810120730 METAR LRIA 120730Z 26004KT 230V300 CAVOK 12/06 Q1031=
201810120800 METAR LRIA 120800Z 27004KT 230V320 CAVOK 14/06 Q1031=
201810120830 METAR LRIA 120830Z 26005KT 230V300 CAVOK 15/06 Q1031=
201810120900 METAR LRIA 120900Z 29004KT 240V320 CAVOK 17/07 Q1031=
201810120930 METAR LRIA 120930Z 04005KT 360V090 CAVOK 18/06 Q1031=
201810121000 METAR LRIA 121000Z 04007KT 010V070 CAVOK 19/06 Q1031=
201810121030 METAR LRIA 121030Z 36006KT 330V040 CAVOK 19/06 Q1031=
201810121100 METAR LRIA 121100Z 04005KT 360V100 CAVOK 20/07 Q1030=
201810121130 METAR LRIA 121130Z 04006KT 360V110 CAVOK 20/07 Q1030=
201810121200 METAR LRIA 121200Z 04007KT 350V070 CAVOK 20/06 Q1030=
201810121230 METAR LRIA 121230Z 03007KT 360V070 CAVOK 21/06 Q1030=
201810121300 METAR LRIA 121300Z 06006KT 020V110 CAVOK 21/06 Q1030=
201810121330 METAR LRIA 121330Z 05006KT 020V090 CAVOK 21/06 Q1030=
201810121400 METAR LRIA 121400Z 05007KT CAVOK 20/06 Q1030=
201810121430 METAR LRIA 121430Z 05005KT CAVOK 20/06 Q1030=
201810121500 METAR LRIA 121500Z 03004KT CAVOK 19/07 Q1030=
201810121530 METAR LRIA 121530Z 03006KT CAVOK 17/06 Q1030=
201810121600 METAR LRIA 121600Z 04007KT CAVOK 16/06 Q1030=
201810121630 METAR LRIA 121630Z 05007KT CAVOK 15/06 Q1031=
201810121700 METAR LRIA 121700Z 05007KT CAVOK 15/06 Q1031=
201810121730 METAR LRIA 121730Z 05004KT CAVOK 14/06 Q1031=
201810121800 METAR LRIA 121800Z 07004KT CAVOK 15/06 Q1031=
201810121830 METAR LRIA 121830Z 09002KT CAVOK 15/06 Q1031=
201810121900 METAR LRIA 121900Z 11004KT CAVOK 14/06 Q1031=
201810121930 METAR LRIA 121930Z 08004KT CAVOK 14/06 Q1031=
201810122000 METAR LRIA 122000Z 05004KT CAVOK 12/06 Q1031=
201810122030 METAR LRIA 122030Z 05003KT CAVOK 13/06 Q1031=
201810122100 METAR LRIA 122100Z 05003KT CAVOK 12/06 Q1031=
201810122130 METAR LRIA 122130Z VRB01KT CAVOK 11/06 Q1031=
201810122200 METAR LRIA 122200Z VRB01KT CAVOK 10/06 Q1032=
201810122230 METAR LRIA 122230Z 28002KT CAVOK 09/06 Q1031=
201810122300 METAR LRIA 122300Z 00000KT CAVOK 10/06 Q1032=
201810122330 METAR LRIA 122330Z 29002KT CAVOK 10/06 Q1032=
201810130000 METAR LRIA 130000Z 29003KT CAVOK 09/06 Q1031=
201810130030 METAR LRIA 130030Z 31002KT CAVOK 09/05 Q1031=
201810130100 METAR LRIA 130100Z 29002KT CAVOK 08/05 Q1032=
201810130130 METAR LRIA 130130Z 30002KT CAVOK 08/06 Q1032=
201810130200 METAR LRIA 130200Z 31003KT CAVOK 07/05 Q1031=
201810130230 METAR LRIA 130230Z 33003KT CAVOK 06/04 Q1031=
201810130300 METAR LRIA 130300Z 00000KT CAVOK 07/04 Q1031=
201810130330 METAR LRIA 130330Z 28002KT CAVOK 06/05 Q1031=
201810130400 METAR LRIA 130400Z 28002KT CAVOK 06/04 Q1032=
201810130430 METAR LRIA 130430Z 28003KT 9999 MIFG NSC 05/03 Q1032=
201810130500 METAR LRIA 130500Z 30004KT 8000 MIFG NSC 06/04 Q1032=
201810130530 METAR COR LRIA 130530Z 26002KT 8000 MIFG NSC 07/06 Q1032=
201810130600 METAR COR LRIA 130600Z 28002KT 9999 MIFG NSC 09/06 Q1032=
201810130630 METAR LRIA 130630Z 23002KT 200V280 9999 MIFG NSC 10/06 Q1032=
201810130700 METAR LRIA 130700Z VRB01KT 9999 MIFG NSC 12/06 Q1033=
201810130730 METAR LRIA 130730Z 27002KT 210V310 9999 MIFG NSC 13/06 Q1032=
201810130800 METAR LRIA 130800Z VRB02KT CAVOK 15/06 Q1033=
201810130830 METAR LRIA 130830Z 13003KT 090V170 CAVOK 17/04 Q1032=
201810130900 METAR LRIA 130900Z VRB03KT CAVOK 17/03 Q1032=
201810130930 METAR LRIA 130930Z VRB03KT CAVOK 18/02 Q1032=
201810131000 METAR LRIA 131000Z 10005KT 050V140 CAVOK 19/00 Q1032=
201810131030 METAR LRIA 131030Z 10006KT 070V140 CAVOK 19/M00 Q1032=
201810131100 METAR LRIA 131100Z 11005KT 080V170 CAVOK 19/M00 Q1031=
201810131130 METAR LRIA 131130Z VRB04KT CAVOK 19/00 Q1031=
201810131200 METAR LRIA 131200Z 09005KT 050V140 CAVOK 20/M01 Q1031=
201810131230 METAR LRIA 131230Z 07007KT 030V100 CAVOK 20/M02 Q1031=
201810131300 METAR LRIA 131300Z 07007KT CAVOK 20/M02 Q1030=
201810131330 METAR LRIA 131330Z 09005KT 040V120 CAVOK 20/M02 Q1030=
201810131400 METAR LRIA 131400Z 08005KT 050V130 CAVOK 20/M02 Q1030=
201810131430 METAR LRIA 131430Z 08004KT CAVOK 19/M02 Q1030=
201810131500 METAR LRIA 131500Z 03006KT CAVOK 17/M00 Q1030=
201810131530 METAR LRIA 131530Z 04006KT CAVOK 15/M01 Q1030=
201810131600 METAR LRIA 131600Z 03007KT CAVOK 14/M01 Q1030=
201810131630 METAR LRIA 131630Z 04008KT CAVOK 13/M01 Q1030=
201810131700 METAR LRIA 131700Z 04008KT CAVOK 13/M02 Q1030=
201810131730 METAR LRIA 131730Z 05006KT CAVOK 13/M02 Q1030=
201810131800 METAR LRIA 131800Z 08003KT CAVOK 12/M02 Q1031=
201810131830 METAR LRIA 131830Z 11002KT CAVOK 13/M02 Q1031=
201810131900 METAR LRIA 131900Z 00000KT CAVOK 12/M02 Q1031=
201810131930 METAR LRIA 131930Z 01003KT CAVOK 11/M02 Q1031=
201810132000 METAR LRIA 132000Z 31002KT CAVOK 10/M01 Q1031=
201810132030 METAR LRIA 132030Z 35001KT CAVOK 09/M02 Q1031=
201810132100 METAR LRIA 132100Z 28003KT CAVOK 08/M01 Q1031=
201810132130 METAR LRIA 132130Z 27003KT CAVOK 07/M02 Q1031=
201810132200 METAR LRIA 132200Z 28003KT CAVOK 08/M01 Q1031=
201810132230 METAR LRIA 132230Z AUTO 29004KT 9999 NCD 06/M01 Q1031=
201810132300 METAR LRIA 132300Z 27003KT CAVOK 05/M01 Q1031=
201810132330 METAR LRIA 132330Z 26003KT CAVOK 06/M02 Q1031=
201810140000 METAR LRIA 140000Z 28002KT CAVOK 06/M01 Q1031=
201810140030 METAR LRIA 140030Z 25002KT CAVOK 06/M01 Q1031=
201810140100 METAR LRIA 140100Z 30002KT CAVOK 06/M01 Q1031=
201810140130 METAR LRIA 140130Z 29001KT CAVOK 03/M02 Q1031=
201810140200 METAR LRIA 140200Z 30002KT CAVOK 06/M01 Q1031=
201810140230 METAR LRIA 140230Z 24002KT CAVOK 04/M00 Q1031=
201810140300 METAR LRIA 140300Z 32002KT CAVOK 04/M01 Q1031=
201810140330 METAR LRIA 140330Z 00000KT CAVOK 03/M01 Q1030=
201810140400 METAR LRIA 140400Z VRB01KT CAVOK 02/M02 Q1031=
201810140430 METAR LRIA 140430Z VRB01KT CAVOK 02/M02 Q1031=
201810140500 METAR LRIA 140500Z 29002KT CAVOK 04/M01 Q1031=
201810140530 METAR LRIA 140530Z 27002KT CAVOK 03/M01 Q1031=
201810140600 METAR LRIA 140600Z 26002KT CAVOK 05/00 Q1031=
201810140630 METAR LRIA 140630Z 28003KT 250V310 CAVOK 06/01 Q1031=
201810140700 METAR LRIA 140700Z 26003KT CAVOK 08/01 Q1031=
201810140730 METAR LRIA 140730Z 26002KT CAVOK 11/01 Q1031=
201810140800 METAR LRIA 140800Z VRB01KT CAVOK 13/01 Q1031=
201810140830 METAR LRIA 140830Z 10002KT CAVOK 15/M00 Q1031=
201810140900 METAR LRIA 140900Z 10003KT 070V140 CAVOK 17/M00 Q1031=
201810140930 METAR LRIA 140930Z 12004KT 080V170 CAVOK 17/00 Q1031=
201810141000 METAR LRIA 141000Z 11005KT 070V150 CAVOK 18/01 Q1031=
201810141030 METAR LRIA 141030Z 11004KT 070V160 CAVOK 19/01 Q1030=
201810141100 METAR LRIA 141100Z 10004KT 070V170 CAVOK 19/01 Q1030=
201810141130 METAR LRIA 141130Z 12006KT 080V160 CAVOK 20/01 Q1030=
201810141200 METAR LRIA 141200Z 13006KT 100V170 CAVOK 20/01 Q1029=
201810141230 METAR LRIA 141230Z 13007KT 100V180 CAVOK 20/01 Q1029=
201810141300 METAR LRIA 141300Z 12006KT 080V160 CAVOK 20/01 Q1029=
201810141330 METAR LRIA 141330Z 14006KT CAVOK 20/01 Q1029=
201810141400 METAR LRIA 141400Z 12004KT 080V160 CAVOK 20/02 Q1029=
201810141430 METAR LRIA 141430Z 09002KT 040V120 CAVOK 20/02 Q1028=
201810141500 METAR LRIA 141500Z 05001KT CAVOK 19/02 Q1028=
201810141530 METAR LRIA 141530Z 07002KT CAVOK 18/01 Q1028=
201810141600 METAR LRIA 141600Z 07003KT CAVOK 14/01 Q1029=
201810141630 METAR COR LRIA 141630Z 07004KT CAVOK 14/01 Q1029=
201810141700 METAR LRIA 141700Z 07005KT 050V110 CAVOK 15/02 Q1029=
201810141730 METAR LRIA 141730Z 09003KT CAVOK 15/02 Q1029=
201810141800 METAR LRIA 141800Z 09003KT 050V110 CAVOK 11/01 Q1029=
201810141830 METAR LRIA 141830Z 08002KT CAVOK 12/01 Q1029=
201810141900 METAR LRIA 141900Z 08003KT CAVOK 12/01 Q1029=
201810141930 METAR LRIA 141930Z 28003KT CAVOK 10/02 Q1029=
201810142000 METAR LRIA 142000Z 28002KT CAVOK 10/01 Q1029=
201810142030 METAR LRIA 142030Z 32001KT CAVOK 11/02 Q1029=
201810142100 METAR LRIA 142100Z VRB01KT CAVOK 11/02 Q1029=
201810142130 METAR COR LRIA 142130Z 11002KT 060V120 CAVOK 09/02 Q1029=
201810142200 METAR LRIA 142200Z 12002KT 100V160 CAVOK 09/02 Q1029=
201810142230 METAR COR LRIA 142230Z 00000KT CAVOK 09/02 Q1029=
201810142300 METAR LRIA 142300Z AUTO 30001KT 9999 NCD 09/02 Q1029=
201810142330 METAR COR LRIA 142330Z 33002KT CAVOK 08/01 Q1029=
201810150000 METAR COR LRIA 150000Z 32001KT CAVOK 06/01 Q1029=
201810150030 METAR COR LRIA 150030Z 32001KT CAVOK 07/02 Q1029=
201810150100 METAR LRIA 150100Z 00000KT CAVOK 07/01 Q1029=
201810150130 METAR LRIA 150130Z 00000KT CAVOK 05/00 Q1028=
201810150200 METAR LRIA 150200Z 32001KT CAVOK 04/01 Q1028=
201810150230 METAR LRIA 150230Z 32002KT CAVOK 05/02 Q1028=
201810150300 METAR LRIA 150300Z 35002KT CAVOK 05/01 Q1028=
201810150330 METAR LRIA 150330Z 26001KT CAVOK 03/00 Q1028=
201810150400 METAR LRIA 150400Z 26002KT CAVOK 04/01 Q1028=
201810150430 METAR LRIA 150430Z 25001KT CAVOK 04/01 Q1028=
201810150500 METAR LRIA 150500Z 28002KT CAVOK 05/01 Q1028=
201810150530 METAR LRIA 150530Z 26003KT CAVOK 06/02 Q1028=
201810150600 METAR LRIA 150600Z 29001KT CAVOK 08/03 Q1028=
201810150630 METAR LRIA 150630Z 26002KT CAVOK 09/03 Q1028=
201810150700 METAR LRIA 150700Z 26003KT CAVOK 10/03 Q1028=
201810150730 METAR LRIA 150730Z 26003KT 230V290 CAVOK 12/04 Q1028=
201810150800 METAR LRIA 150800Z 27002KT CAVOK 15/04 Q1028=
201810150830 METAR LRIA 150830Z 25003KT 140V280 CAVOK 16/04 Q1028=
201810150900 METAR LRIA 150900Z 11003KT 360V160 CAVOK 18/04 Q1028=
201810150930 METAR LRIA 150930Z 09004KT 040V130 CAVOK 19/03 Q1028=
201810151000 METAR LRIA 151000Z 12004KT 070V200 CAVOK 20/03 Q1028=
201810151030 METAR LRIA 151030Z 08003KT 020V150 CAVOK 20/01 Q1028=
201810151100 METAR LRIA 151100Z 03004KT 300V100 CAVOK 20/01 Q1027=
201810151130 METAR LRIA 151130Z 34002KT CAVOK 21/01 Q1027=
201810151200 METAR LRIA 151200Z 12005KT 060V190 CAVOK 22/01 Q1027=
201810151230 METAR LRIA 151230Z 17003KT 130V250 CAVOK 22/01 Q1026=
201810151300 METAR LRIA 151300Z VRB03KT CAVOK 22/01 Q1026=
201810151330 METAR LRIA 151330Z 19002KT CAVOK 22/01 Q1026=
201810151400 METAR LRIA 151400Z 25002KT CAVOK 22/02 Q1026=
201810151430 METAR LRIA 151430Z 00000KT CAVOK 21/01 Q1026=
201810151500 METAR LRIA 151500Z VRB01KT CAVOK 19/02 Q1026=
201810151530 METAR LRIA 151530Z 04002KT CAVOK 18/01 Q1026=
201810151600 METAR LRIA 151600Z 04003KT CAVOK 16/01 Q1026=
201810151630 METAR LRIA 151630Z 05003KT CAVOK 17/01 Q1026=
201810151700 METAR LRIA 151700Z VRB01KT CAVOK 15/01 Q1026=
201810151730 METAR LRIA 151730Z 00000KT CAVOK 15/01 Q1026=
201810151800 METAR LRIA 151800Z 00000KT CAVOK 15/01 Q1027=
201810151830 METAR LRIA 151830Z 00000KT CAVOK 15/02 Q1026=
201810151900 METAR LRIA 151900Z 04003KT CAVOK 14/02 Q1026=
201810151930 METAR LRIA 151930Z 13003KT 090V230 CAVOK 12/02 Q1026=
201810152000 METAR LRIA 152000Z 29002KT CAVOK 13/02 Q1026=
201810152030 METAR LRIA 152030Z 00000KT CAVOK 13/02 Q1026=
201810152100 METAR LRIA 152100Z 00000KT CAVOK 13/02 Q1026=
201810152130 METAR LRIA 152130Z 13002KT CAVOK 13/02 Q1026=
201810152200 METAR LRIA 152200Z 00000KT CAVOK 12/02 Q1026=
201810152230 METAR LRIA 152230Z 00000KT CAVOK 13/02 Q1026=
201810152300 METAR LRIA 152300Z VRB01KT CAVOK 11/02 Q1026=
201810152330 METAR LRIA 152330Z 11003KT CAVOK 10/02 Q1026=
201810160000 METAR LRIA 160000Z 09004KT CAVOK 11/02 Q1026=
201810160030 METAR LRIA 160030Z 00000KT CAVOK 08/02 Q1026=
201810160100 METAR LRIA 160100Z 31001KT CAVOK 09/02 Q1026=
201810160130 METAR LRIA 160130Z 00000KT CAVOK 08/02 Q1026=
201810160200 METAR LRIA 160200Z 00000KT CAVOK 09/02 Q1026=
201810160230 METAR LRIA 160230Z 00000KT CAVOK 08/02 Q1026=
201810160300 METAR LRIA 160300Z 00000KT CAVOK 06/01 Q1026=
201810160330 METAR LRIA 160330Z 29001KT CAVOK 07/03 Q1026=
201810160400 METAR LRIA 160400Z 29002KT CAVOK 06/02 Q1026=
201810160430 METAR LRIA 160430Z 00000KT CAVOK 05/01 Q1026=
201810160500 METAR LRIA 160500Z 08001KT CAVOK 06/01 Q1026=
201810160530 METAR LRIA 160530Z 00000KT CAVOK 07/03 Q1026=
201810160600 METAR LRIA 160600Z 00000KT CAVOK 09/04 Q1026=
201810160630 METAR LRIA 160630Z 26002KT CAVOK 10/04 Q1026=
201810160700 METAR LRIA 160700Z 25003KT CAVOK 11/04 Q1026=
201810160730 METAR LRIA 160730Z 26002KT 210V310 CAVOK 13/04 Q1026=
201810160800 METAR LRIA 160800Z VRB02KT CAVOK 16/05 Q1026=
201810160830 METAR LRIA 160830Z VRB02KT CAVOK 18/05 Q1026=
201810160900 METAR LRIA 160900Z VRB02KT CAVOK 18/05 Q1026=
201810160930 METAR LRIA 160930Z 10005KT 070V150 CAVOK 20/05 Q1026=
201810161000 METAR LRIA 161000Z 12005KT CAVOK 21/05 Q1026=
201810161030 METAR LRIA 161030Z 12007KT 100V160 CAVOK 22/05 Q1025=
201810161100 METAR LRIA 161100Z 12008KT CAVOK 23/05 Q1025=
201810161130 METAR LRIA 161130Z 12007KT CAVOK 23/05 Q1025=
201810161200 METAR LRIA 161200Z 14009KT CAVOK 24/05 Q1025=
201810161230 METAR COR LRIA 161230Z 12008KT CAVOK 24/04 Q1025=
201810161300 METAR LRIA 161300Z 15007KT CAVOK 24/04 Q1025=
201810161330 METAR LRIA 161330Z 10005KT CAVOK 24/05 Q1024=
201810161400 METAR LRIA 161400Z 14006KT CAVOK 23/04 Q1024=
201810161430 METAR LRIA 161430Z 13005KT CAVOK 22/04 Q1024=
201810161500 METAR LRIA 161500Z 13003KT CAVOK 21/04 Q1024=
201810161530 METAR LRIA 161530Z 12002KT CAVOK 20/04 Q1024=
201810161600 METAR LRIA 161600Z 07003KT CAVOK 19/03 Q1025=
201810161630 METAR LRIA 161630Z 06005KT CAVOK 18/03 Q1025=
201810161700 METAR LRIA 161700Z 08005KT CAVOK 18/03 Q1025=
201810161730 METAR LRIA 161730Z 10006KT CAVOK 18/02 Q1025=
201810161800 METAR LRIA 161800Z 10005KT CAVOK 18/02 Q1025=
201810161830 METAR LRIA 161830Z 10005KT CAVOK 18/03 Q1025=
201810161900 METAR LRIA 161900Z 11003KT CAVOK 16/03 Q1025=
201810161930 METAR LRIA 161930Z 00000KT CAVOK 15/03 Q1025=
201810162000 METAR LRIA 162000Z 00000KT CAVOK 15/03 Q1025=
201810162030 METAR LRIA 162030Z 00000KT CAVOK 15/03 Q1025=
201810162100 METAR LRIA 162100Z 00000KT CAVOK 14/03 Q1025=
201810162130 METAR LRIA 162130Z 00000KT CAVOK 12/03 Q1025=
201810162200 METAR LRIA 162200Z 36002KT 9999 NCD 14/03 Q1025=
201810162230 METAR LRIA 162230Z AUTO VRB01KT 9999 NCD 11/04 Q1025=
201810162300 METAR LRIA 162300Z 00000KT CAVOK 12/03 Q1025=
201810162330 METAR LRIA 162330Z 28003KT CAVOK 11/03 Q1025=
201810170000 METAR LRIA 170000Z 29002KT CAVOK 11/04 Q1025=
201810170030 METAR LRIA 170030Z 28002KT CAVOK 09/04 Q1024=
201810170100 METAR LRIA 170100Z 00000KT CAVOK 10/03 Q1024=
201810170130 METAR LRIA 170130Z 00000KT CAVOK 10/03 Q1024=
201810170200 METAR LRIA 170200Z 00000KT CAVOK 10/04 Q1024=
201810170230 METAR LRIA 170230Z 26002KT CAVOK 07/03 Q1024=
201810170300 METAR LRIA 170300Z 00000KT CAVOK 08/04 Q1024=
201810170330 METAR LRIA 170330Z 29003KT CAVOK 07/04 Q1024=
201810170400 METAR LRIA 170400Z 27002KT CAVOK 06/03 Q1024=
201810170430 METAR LRIA 170430Z 00000KT CAVOK 08/04 Q1024=
201810170500 METAR LRIA 170500Z 32003KT 8000 MIFG NSC 07/03 Q1024=
201810170530 METAR LRIA 170530Z 27004KT CAVOK 06/03 Q1025=
201810170600 METAR LRIA 170600Z 28001KT CAVOK 10/04 Q1025=
201810170630 METAR LRIA 170630Z VRB01KT CAVOK 12/05 Q1025=
201810170700 METAR LRIA 170700Z 20002KT CAVOK 14/05 Q1025=
201810170730 METAR LRIA 170730Z 26003KT 230V300 CAVOK 15/05 Q1025=
201810170800 METAR LRIA 170800Z 27002KT CAVOK 17/06 Q1025=
201810170830 METAR LRIA 170830Z 26003KT 190V330 CAVOK 18/07 Q1025=
201810170900 METAR LRIA 170900Z VRB01KT CAVOK 21/08 Q1025=
201810170930 METAR LRIA 170930Z 15004KT 100V240 CAVOK 21/08 Q1025=
201810171000 METAR LRIA 171000Z 13005KT 100V160 CAVOK 22/08 Q1025=
201810171030 METAR LRIA 171030Z 15007KT 110V170 CAVOK 22/08 Q1024=
201810171100 METAR LRIA 171100Z 12006KT 090V150 CAVOK 23/08 Q1024=
201810171130 METAR LRIA 171130Z 10005KT 070V130 CAVOK 23/08 Q1024=
201810171200 METAR LRIA 171200Z 12006KT 070V160 CAVOK 23/08 Q1023=
201810171230 METAR LRIA 171230Z 14006KT 090V190 CAVOK 23/08 Q1023=
201810171300 METAR LRIA 171300Z 04003KT 320V080 CAVOK 23/08 Q1023=
201810171330 METAR LRIA 171330Z 07005KT 020V110 CAVOK 23/08 Q1023=
201810171400 METAR LRIA 171400Z 09005KT 050V140 CAVOK 23/07 Q1023=
201810171430 METAR LRIA 171430Z 10004KT CAVOK 23/07 Q1022=
201810171500 METAR COR LRIA 171500Z 09003KT CAVOK 21/07 Q1022=
201810171530 METAR LRIA 171530Z 07003KT 050V110 CAVOK 20/07 Q1022=
201810171600 METAR LRIA 171600Z 07004KT CAVOK 20/07 Q1023=
201810171630 METAR LRIA 171630Z 07004KT 050V120 CAVOK 20/07 Q1023=
201810171700 METAR LRIA 171700Z 08003KT CAVOK 19/07 Q1023=
201810171730 METAR LRIA 171730Z 07003KT 050V110 CAVOK 17/06 Q1023=
201810171800 METAR LRIA 171800Z 02002KT 350V070 CAVOK 15/06 Q1023=
201810171830 METAR LRIA 171830Z 36002KT 350V050 CAVOK 14/06 Q1023=
201810171900 METAR LRIA 171900Z 10002KT CAVOK 14/06 Q1023=
201810171930 METAR LRIA 171930Z VRB01KT CAVOK 15/06 Q1023=
201810172000 METAR LRIA 172000Z 08004KT CAVOK 13/06 Q1023=
201810172030 METAR LRIA 172030Z VRB01KT CAVOK 14/06 Q1023=
201810172100 METAR LRIA 172100Z 08004KT CAVOK 13/06 Q1023=
201810172130 METAR COR LRIA 172130Z 08004KT CAVOK 13/06 Q1023=
201810172200 METAR LRIA 172200Z 09003KT CAVOK 13/06 Q1022=
201810172230 METAR LRIA 172230Z 16001KT CAVOK 13/06 Q1023=
201810172300 METAR LRIA 172300Z 00000KT CAVOK 13/07 Q1022=
201810172330 METAR COR LRIA 172330Z 00000KT CAVOK 12/06 Q1022=
201810180000 METAR COR LRIA 180000Z 11003KT CAVOK 10/05 Q1022=
201810180030 METAR LRIA 180030Z AUTO 00000KT 9999 NCD 10/05 Q1022=
201810180100 METAR LRIA 180100Z AUTO 00000KT 9999 NCD 08/04 Q1022=
201810180130 METAR COR LRIA 180130Z 00000KT CAVOK 11/07 Q1022=
201810180200 METAR LRIA 180200Z 14002KT CAVOK 08/05 Q1022=
201810180230 METAR LRIA 180230Z AUTO 00000KT 9999 NCD 09/06 Q1022=
201810180300 METAR COR LRIA 180300Z 00000KT CAVOK 08/05 Q1022=
201810180330 METAR COR LRIA 180330Z 00000KT CAVOK 08/05 Q1022=
201810180400 METAR LRIA 180400Z 36002KT 300V030 CAVOK 07/04 Q1021=
201810180430 METAR LRIA 180430Z 27002KT CAVOK 07/05 Q1022=
201810180500 METAR LRIA 180500Z 31002KT CAVOK 08/06 Q1022=
201810180530 METAR LRIA 180530Z 00000KT CAVOK 08/06 Q1022=
201810180600 METAR LRIA 180600Z 00000KT CAVOK 10/07 Q1022=
201810180630 METAR LRIA 180630Z 00000KT CAVOK 12/07 Q1022=
201810180700 METAR LRIA 180700Z 22002KT CAVOK 13/07 Q1022=
201810180730 METAR LRIA 180730Z 21002KT CAVOK 15/07 Q1022=
201810180800 METAR LRIA 180800Z VRB01KT CAVOK 17/08 Q1022=
201810180830 METAR LRIA 180830Z 09005KT CAVOK 18/07 Q1021=
201810180900 METAR LRIA 180900Z 11007KT CAVOK 20/07 Q1021=
201810180930 METAR LRIA 180930Z 12008KT CAVOK 20/07 Q1021=
201810181000 METAR LRIA 181000Z 13009KT 090V150 CAVOK 21/07 Q1020=
201810181030 METAR LRIA 181030Z 13008KT 100V160 CAVOK 22/06 Q1020=
201810181100 METAR LRIA 181100Z 12008KT CAVOK 22/05 Q1019=
201810181130 METAR LRIA 181130Z 11005KT 060V160 CAVOK 22/05 Q1019=
201810181200 METAR LRIA 181200Z 12006KT 080V140 CAVOK 23/03 Q1019=
201810181230 METAR LRIA 181230Z 10005KT 060V150 CAVOK 23/04 Q1019=
201810181300 METAR LRIA 181300Z 10006KT 070V130 CAVOK 22/05 Q1018=
201810181330 METAR LRIA 181330Z 12005KT 080V150 CAVOK 22/05 Q1018=
201810181400 METAR LRIA 181400Z 15003KT 110V170 CAVOK 22/05 Q1018=
201810181430 METAR LRIA 181430Z 13004KT CAVOK 21/04 Q1018=
201810181500 METAR LRIA 181500Z 13004KT CAVOK 20/04 Q1018=
201810181530 METAR LRIA 181530Z 09004KT CAVOK 18/03 Q1018=
201810181600 METAR LRIA 181600Z 08005KT CAVOK 17/03 Q1018=
201810181630 METAR LRIA 181630Z 07006KT CAVOK 17/03 Q1018=
201810181700 METAR LRIA 181700Z 08005KT CAVOK 16/03 Q1018=
201810181730 METAR LRIA 181730Z 07005KT CAVOK 16/03 Q1018=
201810181800 METAR LRIA 181800Z 08005KT CAVOK 15/03 Q1018=
201810181830 METAR LRIA 181830Z 09004KT CAVOK 15/03 Q1019=
201810181900 METAR LRIA 181900Z 10003KT CAVOK 16/03 Q1018=
201810181930 METAR LRIA 181930Z 08004KT 050V220 CAVOK 13/03 Q1019=
201810182000 METAR LRIA 182000Z 08002KT CAVOK 14/03 Q1019=
201810182030 METAR LRIA 182030Z 09003KT CAVOK 14/03 Q1019=
201810182100 METAR LRIA 182100Z 09003KT CAVOK 12/03 Q1018=
201810182130 METAR LRIA 182130Z 08003KT CAVOK 12/03 Q1018=
201810182200 METAR LRIA 182200Z 09003KT CAVOK 11/03 Q1018=
201810182230 METAR LRIA 182230Z 09003KT CAVOK 12/03 Q1018=
201810182300 METAR LRIA 182300Z 05004KT CAVOK 11/03 Q1018=
201810182330 METAR LRIA 182330Z 09003KT 060V120 CAVOK 10/03 Q1018=
201810190000 METAR LRIA 190000Z 00000KT CAVOK 10/03 Q1018=
201810190030 METAR LRIA 190030Z 00000KT CAVOK 10/03 Q1018=
201810190100 METAR LRIA 190100Z 19001KT CAVOK 09/03 Q1018=
201810190130 METAR LRIA 190130Z 00000KT CAVOK 09/03 Q1018=
201810190200 METAR LRIA 190200Z 31001KT CAVOK 09/03 Q1018=
201810190230 METAR LRIA 190230Z 26002KT 230V290 CAVOK 07/04 Q1018=
201810190300 METAR LRIA 190300Z 00000KT CAVOK 07/04 Q1018=
201810190330 METAR LRIA 190330Z 35002KT CAVOK 08/04 Q1018=
201810190400 METAR LRIA 190400Z 28003KT CAVOK 08/03 Q1017=
201810190430 METAR LRIA 190430Z 27005KT 200V310 CAVOK 07/03 Q1017=
201810190500 METAR LRIA 190500Z 26004KT 200V300 CAVOK 07/04 Q1018=
201810190530 METAR LRIA 190530Z 27004KT CAVOK 09/04 Q1018=
201810190600 METAR LRIA 190600Z 27004KT CAVOK 09/04 Q1018=
201810190630 METAR LRIA 190630Z 23003KT 190V250 CAVOK 10/05 Q1019=
201810190700 METAR LRIA 190700Z 23003KT 160V320 CAVOK 12/05 Q1019=
201810190730 METAR LRIA 190730Z VRB01KT CAVOK 13/05 Q1019=
201810190800 METAR LRIA 190800Z 25003KT 210V280 CAVOK 13/05 Q1019=
201810190830 METAR LRIA 190830Z 25002KT CAVOK 15/05 Q1019=
201810190900 METAR LRIA 190900Z 25002KT CAVOK 15/05 Q1019=
201810190930 METAR LRIA 190930Z 22003KT 180V250 CAVOK 16/05 Q1019=
201810191000 METAR LRIA 191000Z 23004KT CAVOK 17/06 Q1018=
201810191030 METAR COR LRIA 191030Z 21004KT 160V260 CAVOK 18/06 Q1018=
201810191100 METAR LRIA 191100Z 25005KT 210V280 CAVOK 18/06 Q1017=
201810191130 METAR LRIA 191130Z 32005KT 280V350 CAVOK 19/06 Q1017=
201810191200 METAR LRIA 191200Z 31003KT 270V340 CAVOK 19/06 Q1018=
201810191230 METAR LRIA 191230Z 32002KT 270V070 CAVOK 20/06 Q1017=
201810191300 METAR LRIA 191300Z 33003KT 290V010 CAVOK 19/06 Q1017=
201810191330 METAR LRIA 191330Z 32004KT CAVOK 19/06 Q1018=
201810191400 METAR LRIA 191400Z 34004KT CAVOK 19/07 Q1017=
201810191430 METAR LRIA 191430Z 34004KT CAVOK 18/06 Q1017=
201810191500 METAR LRIA 191500Z 31003KT CAVOK 18/06 Q1017=
201810191530 METAR LRIA 191530Z 32006KT CAVOK 17/06 Q1017=
201810191600 METAR LRIA 191600Z 32006KT CAVOK 16/06 Q1018=
201810191630 METAR LRIA 191630Z 33006KT CAVOK 15/06 Q1018=
201810191700 METAR LRIA 191700Z 34006KT CAVOK 14/06 Q1018=
201810191730 METAR LRIA 191730Z 25002KT CAVOK 13/06 Q1018=
201810191800 METAR LRIA 191800Z 21002KT CAVOK 14/06 Q1018=
201810191830 METAR LRIA 191830Z 21002KT CAVOK 14/07 Q1018=
201810191900 METAR LRIA 191900Z 22003KT CAVOK 13/07 Q1019=
201810191930 METAR LRIA 191930Z 27004KT CAVOK 14/06 Q1019=
201810192000 METAR LRIA 192000Z 25003KT CAVOK 14/06 Q1019=
201810192030 METAR LRIA 192030Z 28005KT CAVOK 14/06 Q1018=
201810192100 METAR LRIA 192100Z 26004KT CAVOK 13/06 Q1018=
201810192130 METAR LRIA 192130Z 27004KT CAVOK 13/07 Q1018=
201810192200 METAR LRIA 192200Z 22004KT CAVOK 12/07 Q1019=
201810192230 METAR LRIA 192230Z 23004KT CAVOK 12/07 Q1019=
201810192300 METAR LRIA 192300Z 23005KT CAVOK 13/07 Q1019=
201810192330 METAR LRIA 192330Z 24004KT CAVOK 12/07 Q1019=
201810200000 METAR LRIA 200000Z 24004KT CAVOK 13/07 Q1019=
201810200030 METAR LRIA 200030Z 26004KT 230V290 CAVOK 13/08 Q1019=
201810200100 METAR LRIA 200100Z 28006KT CAVOK 13/08 Q1019=
201810200130 METAR LRIA 200130Z 28005KT 240V300 CAVOK 12/08 Q1019=
201810200200 METAR LRIA 200200Z 26005KT 8000 NSC 12/08 Q1019=
201810200230 METAR LRIA 200230Z 27004KT 240V320 7000 NSC 12/08 Q1019=
201810200300 METAR LRIA 200300Z 26004KT 200V330 7000 NSC 12/09 Q1019=
201810200330 METAR LRIA 200330Z 23004KT 200V320 7000 NSC 12/08 Q1019=
201810200400 METAR LRIA 200400Z 25004KT 230V290 7000 NSC 12/09 Q1019=
201810200430 METAR LRIA 200430Z 24003KT 210V280 7000 NSC 12/08 Q1019=
201810200500 METAR LRIA 200500Z 23002KT 7000 NSC 12/09 Q1020=
201810200530 METAR LRIA 200530Z 27005KT 6000 NSC 12/09 Q1020=
201810200600 METAR LRIA 200600Z 28005KT 250V320 6000 NSC 12/09 Q1020=
201810200630 METAR LRIA 200630Z 28005KT 250V310 6000 NSC 13/09 Q1020=
201810200700 METAR LRIA 200700Z 30005KT 270V340 7000 NSC 14/09 Q1020=
201810200730 METAR LRIA 200730Z 28006KT 7000 NSC 14/09 Q1020=
201810200800 METAR LRIA 200800Z 29008KT 7000 NSC 15/09 Q1020=
201810200830 METAR LRIA 200830Z 33008KT 290V350 8000 FEW020 16/09 Q1020=
201810200900 METAR LRIA 200900Z 29007KT 8000 NSC 16/09 Q1020=
201810200930 METAR LRIA 200930Z 31006KT 8000 NSC 17/09 Q1020=
201810201000 METAR LRIA 201000Z 31007KT 270V340 8000 NSC 17/09 Q1020=
201810201030 METAR LRIA 201030Z 32008KT 9000 NSC 18/09 Q1020=
201810201100 METAR LRIA 201100Z 32010KT CAVOK 19/09 Q1020=
201810201130 METAR LRIA 201130Z 32009KT CAVOK 19/08 Q1020=
201810201200 METAR LRIA 201200Z 34012KT CAVOK 19/09 Q1020=
201810201230 METAR LRIA 201230Z 31011KT 9999 FEW030 19/09 Q1020=
201810201300 METAR LRIA 201300Z 32010KT CAVOK 18/09 Q1019=
201810201330 METAR LRIA 201330Z 34014KT CAVOK 17/08 Q1019=
201810201400 METAR LRIA 201400Z 33010KT CAVOK 17/09 Q1019=
201810201430 METAR LRIA 201430Z 33007KT 9999 FEW048 17/09 Q1019 R14/19//95=
201810201500 METAR LRIA 201500Z 33008KT CAVOK 16/08 Q1019 R14/CLRD//=
201810201530 METAR LRIA 201530Z 32009KT CAVOK 16/08 Q1019=
201810201600 METAR LRIA 201600Z 31010KT CAVOK 15/08 Q1020=
201810201630 METAR LRIA 201630Z 31008KT CAVOK 15/08 Q1020=
201810201700 METAR LRIA 201700Z 31008KT CAVOK 15/08 Q1020=
201810201730 METAR LRIA 201730Z 32008KT CAVOK 15/08 Q1020=
201810201800 METAR LRIA 201800Z 32009KT CAVOK 14/08 Q1020=
201810201830 METAR LRIA 201830Z 32009KT CAVOK 14/08 Q1020=
201810201900 METAR LRIA 201900Z 31008KT CAVOK 13/08 Q1020=
201810201930 METAR LRIA 201930Z 32007KT 8000 NSC 13/08 Q1020=
201810202000 METAR LRIA 202000Z 32006KT 8000 NSC 13/08 Q1020=
201810202030 METAR LRIA 202030Z 30005KT 260V330 8000 NSC 13/08 Q1021=
201810202100 METAR LRIA 202100Z 27005KT 250V310 8000 BKN019 12/08 Q1020=
201810202130 METAR LRIA 202130Z 31006KT 8000 SCT019 12/08 Q1020=
201810202200 METAR LRIA 202200Z 34009KT 8000 SCT019 12/08 Q1020=
201810202230 METAR LRIA 202230Z 33007KT 8000 FEW016 12/08 Q1020=
201810202300 METAR LRIA 202300Z 34007KT 7000 SCT013 12/08 Q1020=
201810202330 METAR LRIA 202330Z 32005KT 290V350 7000 BKN012 12/08 Q1020=
201810210000 METAR LRIA 210000Z 32005KT 7000 OVC012 12/08 Q1020=
201810210030 METAR LRIA 210030Z 32005KT 7000 OVC012 11/08 Q1020=
201810210100 METAR LRIA 210100Z 31004KT 7000 OVC012 12/08 Q1020=
201810210130 METAR LRIA 210130Z 30003KT 270V330 CAVOK 12/08 Q1020=
201810210200 METAR LRIA 210200Z 30003KT 7000 OVC012 11/08 Q1020=
201810210230 METAR LRIA 210230Z 32006KT 8000 OVC013 11/08 Q1020=
201810210300 METAR LRIA 210300Z 32004KT 8000 OVC013 11/08 Q1020=
201810210330 METAR LRIA 210330Z 32004KT 8000 OVC013 11/08 Q1020=
201810210400 METAR LRIA 210400Z 33005KT 8000 OVC013 11/08 Q1020=
201810210430 METAR LRIA 210430Z 33006KT 8000 OVC013 11/08 Q1020=
201810210500 METAR LRIA 210500Z 32005KT 9000 OVC012 11/07 Q1020=
201810210530 METAR LRIA 210530Z 32005KT 9000 OVC012 11/07 Q1020=
201810210600 METAR LRIA 210600Z 33006KT 9000 OVC013 11/08 Q1020=
201810210630 METAR LRIA 210630Z 33006KT 9000 OVC013 11/08 Q1020=
201810210700 METAR LRIA 210700Z 33006KT 9000 OVC012 12/08 Q1021=
201810210730 METAR LRIA 210730Z 34006KT 9999 OVC013 12/08 Q1021=
201810210800 METAR LRIA 210800Z 34009KT 9999 BKN013 12/08 Q1021=
201810210830 METAR LRIA 210830Z 34009KT 9999 OVC015 12/08 Q1022=
201810210900 METAR LRIA 210900Z 34009KT 9999 OVC015 12/08 Q1022=
201810210930 METAR LRIA 210930Z 34007KT 310V020 9999 BKN015 14/08 Q1022=
201810211000 METAR LRIA 211000Z 33008KT 280V360 9999 SCT017 SCT022 14/08
                        Q1022=
201810211030 METAR COR LRIA 211030Z 35009KT 310V040 9999 SCT018 SCT020
                        15/07 Q1021=
201810211100 METAR LRIA 211100Z 01009KT 9999 SCT027 16/06 Q1021=
201810211130 METAR LRIA 211130Z 02007KT 9999 BKN032 17/06 Q1021=
201810211200 METAR LRIA 211200Z 35011KT 9999 SCT037 17/06 Q1021=
201810211230 METAR LRIA 211230Z 35009KT 9999 SCT038 17/05 Q1021=
201810211300 METAR LRIA 211300Z 02011KT 9999 SCT043 17/04 Q1021=
201810211330 METAR LRIA 211330Z AUTO 02011KT 9999 NCD 17/04 Q1021=
201810211400 METAR LRIA 211400Z 01010KT CAVOK 17/03 Q1021=
201810211430 METAR LRIA 211430Z 01010KT CAVOK 16/03 Q1022=
201810211500 METAR LRIA 211500Z 36009KT CAVOK 15/03 Q1022=
201810211530 METAR LRIA 211530Z 36007KT CAVOK 14/03 Q1022=
201810211600 METAR LRIA 211600Z 36007KT CAVOK 14/03 Q1023=
201810211630 METAR LRIA 211630Z 35007KT CAVOK 13/03 Q1023=
201810211700 METAR LRIA 211700Z 35006KT CAVOK 11/03 Q1023=
201810211730 METAR LRIA 211730Z 34007KT CAVOK 10/03 Q1023=
201810211800 METAR LRIA 211800Z 33005KT CAVOK 10/03 Q1024=
201810211830 METAR LRIA 211830Z 31007KT CAVOK 10/03 Q1024=
201810211900 METAR LRIA 211900Z 34007KT CAVOK 09/03 Q1024=
201810211930 METAR LRIA 211930Z 33005KT CAVOK 09/03 Q1024=
201810212000 METAR LRIA 212000Z 33006KT CAVOK 09/03 Q1025=
201810212030 METAR LRIA 212030Z 33006KT 9999 SCT045 10/04 Q1025=
201810212100 METAR LRIA 212100Z 33008KT 9999 BKN043 10/04 Q1025=
201810212130 METAR LRIA 212130Z 33006KT 9999 BKN043 10/04 Q1025=
201810212200 METAR LRIA 212200Z 34006KT 9999 BKN045 09/04 Q1025=
201810212230 METAR LRIA 212230Z 32005KT 9999 BKN045 09/04 Q1025=
201810212300 METAR LRIA 212300Z 32006KT 9999 SCT045 08/04 Q1025=
201810212330 METAR LRIA 212330Z 32006KT 9999 FEW045 08/03 Q1025=
201810220000 METAR LRIA 220000Z 33006KT CAVOK 08/03 Q1025=
201810220030 METAR LRIA 220030Z 32004KT 9999 SCT045 07/03 Q1025=
201810220100 METAR LRIA 220100Z 32006KT 9999 FEW047 07/03 Q1025=
201810220130 METAR LRIA 220130Z 31005KT 9999 FEW047 06/03 Q1024=
201810220200 METAR LRIA 220200Z 26004KT 9999 FEW045 05/03 Q1025=
201810220230 METAR LRIA 220230Z 28004KT CAVOK 05/03 Q1025=
201810220300 METAR LRIA 220300Z 32006KT CAVOK 05/03 Q1025=
201810220330 METAR LRIA 220330Z 31006KT 9999 FEW045 05/02 Q1025=
201810220400 METAR LRIA 220400Z 28004KT 9999 FEW045 05/03 Q1025=
201810220430 METAR LRIA 220430Z 26003KT 220V310 9999 FEW047 05/02 Q1025=
201810220500 METAR LRIA 220500Z 25003KT 200V280 9999 FEW047 05/03 Q1025=
201810220530 METAR LRIA 220530Z 27003KT 220V320 CAVOK 06/03 Q1025=
201810220600 METAR LRIA 220600Z 23003KT 200V270 CAVOK 06/03 Q1026=
201810220630 METAR LRIA 220630Z 24004KT 200V280 CAVOK 07/03 Q1026=
201810220700 METAR LRIA 220700Z 27004KT 240V310 CAVOK 08/04 Q1026=
201810220730 METAR LRIA 220730Z 30004KT 260V340 CAVOK 10/04 Q1026=
201810220800 METAR LRIA 220800Z 32005KT 290V350 CAVOK 10/03 Q1026=
201810220830 METAR LRIA 220830Z 32006KT 270V350 CAVOK 11/03 Q1025=
201810220900 METAR LRIA 220900Z 33007KT CAVOK 12/03 Q1025=
201810220930 METAR LRIA 220930Z 32008KT CAVOK 13/03 Q1025=
201810221000 METAR LRIA 221000Z 35012KT CAVOK 13/02 Q1024=
201810221030 METAR LRIA 221030Z 34010KT 290V360 CAVOK 14/02 Q1024=
201810221100 METAR LRIA 221100Z 33009KT CAVOK 14/02 Q1024=
201810221130 METAR LRIA 221130Z 35008KT 320V030 CAVOK 15/02 Q1023=
201810221200 METAR LRIA 221200Z 32007KT 290V350 CAVOK 15/02 Q1023=
201810221230 METAR LRIA 221230Z 31008KT 280V340 9999 FEW049 15/02 Q1023=
201810221300 METAR LRIA 221300Z 31007KT 9999 SCT047 15/02 Q1023=
201810221330 METAR LRIA 221330Z 32007KT 9999 SCT047 14/02 Q1023=
201810221400 METAR LRIA 221400Z 33006KT 9999 FEW047 14/02 Q1022=
201810221430 METAR LRIA 221430Z 32006KT CAVOK 13/02 Q1022=
201810221500 METAR LRIA 221500Z 31005KT CAVOK 12/01 Q1022=
201810221530 METAR LRIA 221530Z 32004KT CAVOK 12/01 Q1022=
201810221600 METAR LRIA 221600Z 32004KT CAVOK 12/01 Q1022=
201810221630 METAR LRIA 221630Z 33003KT CAVOK 11/01 Q1022=
201810221700 METAR LRIA 221700Z 33005KT CAVOK 11/01 Q1022=
201810221730 METAR LRIA 221730Z 32004KT CAVOK 09/01 Q1022=
201810221800 METAR LRIA 221800Z 31004KT CAVOK 08/01 Q1022=
201810221830 METAR LRIA 221830Z 26004KT CAVOK 08/01 Q1022=
201810221900 METAR LRIA 221900Z 26002KT CAVOK 07/01 Q1022=
201810221930 METAR LRIA 221930Z 22003KT CAVOK 07/01 Q1022=
201810222000 METAR LRIA 222000Z 23002KT CAVOK 07/01 Q1022=
201810222030 METAR LRIA 222030Z 24002KT CAVOK 07/01 Q1022=
201810222100 METAR LRIA 222100Z 27003KT CAVOK 06/00 Q1022=
201810222130 METAR LRIA 222130Z 28003KT CAVOK 07/01 Q1022=
201810222200 METAR LRIA 222200Z 28002KT CAVOK 07/01 Q1022=
201810222230 METAR LRIA 222230Z 00000KT CAVOK 06/01 Q1022=
201810222300 METAR LRIA 222300Z 27002KT 240V300 CAVOK 06/01 Q1021=
201810222330 METAR LRIA 222330Z 27003KT CAVOK 06/01 Q1021=
201810230000 METAR LRIA 230000Z 32002KT CAVOK 07/02 Q1021=
201810230030 METAR LRIA 230030Z 24003KT CAVOK 05/01 Q1021=
201810230100 METAR LRIA 230100Z 23002KT CAVOK 06/02 Q1021=
201810230130 METAR COR LRIA 230130Z 26003KT 210V290 CAVOK 07/02 Q1021=
201810230200 METAR LRIA 230200Z 26002KT CAVOK 07/01 Q1020=
201810230230 METAR LRIA 230230Z 30002KT CAVOK 06/02 Q1020=
201810230300 METAR LRIA 230300Z 28003KT 9999 SCT046 07/01 Q1020=
201810230330 METAR LRIA 230330Z 13001KT 9999 SCT044 07/02 Q1020=
201810230400 METAR LRIA 230400Z VRB01KT CAVOK 06/02 Q1020=
201810230430 METAR LRIA 230430Z 34002KT 9999 FEW035 06/02 Q1020=
201810230500 METAR LRIA 230500Z VRB02KT CAVOK 06/02 Q1020=
201810230530 METAR LRIA 230530Z 00000KT CAVOK 07/03 Q1020=
201810230600 METAR LRIA 230600Z 29001KT CAVOK 07/03 Q1020=
201810230630 METAR LRIA 230630Z VRB02KT 9999 SCT047 07/03 Q1020=
201810230700 METAR LRIA 230700Z 27004KT 9999 SCT047 09/03 Q1020=
201810230730 METAR LRIA 230730Z 19003KT 160V280 9999 SCT047 09/04 Q1020=
201810230800 METAR LRIA 230800Z 26003KT 200V340 CAVOK 11/03 Q1019=
201810230830 METAR LRIA 230830Z 28002KT 9999 FEW047 12/02 Q1019=
201810230900 METAR LRIA 230900Z 34003KT 300V020 9999 FEW047 12/02 Q1019=
201810230930 METAR LRIA 230930Z VRB01KT 9999 FEW047 12/02 Q1019=
201810231000 METAR LRIA 231000Z 05003KT 300V090 CAVOK 12/02 Q1018=
201810231030 METAR LRIA 231030Z 21003KT 160V240 CAVOK 13/02 Q1017=
201810231100 METAR LRIA 231100Z 16002KT CAVOK 13/02 Q1017=
201810231130 METAR LRIA 231130Z 12004KT 070V180 CAVOK 14/02 Q1016=
201810231200 METAR LRIA 231200Z 13004KT 090V160 CAVOK 14/02 Q1015=
201810231230 METAR LRIA 231230Z 12005KT CAVOK 13/02 Q1014=
201810231300 METAR LRIA 231300Z 11006KT CAVOK 14/02 Q1014=
201810231330 METAR LRIA 231330Z 10006KT CAVOK 14/02 Q1013=
201810231400 METAR LRIA 231400Z 09007KT CAVOK 14/02 Q1012=
201810231430 METAR LRIA 231430Z 09008KT CAVOK 14/03 Q1011=
201810231500 METAR LRIA 231500Z 09007KT CAVOK 13/03 Q1011=
201810231530 METAR LRIA 231530Z 10006KT CAVOK 13/03 Q1010=
201810231600 METAR LRIA 231600Z 09003KT CAVOK 13/03 Q1009=
201810231630 METAR LRIA 231630Z 12005KT CAVOK 12/03 Q1009=
201810231700 METAR LRIA 231700Z 14003KT CAVOK 11/03 Q1008=
201810231730 METAR LRIA 231730Z 19003KT 140V220 CAVOK 12/03 Q1008=
201810231800 METAR LRIA 231800Z VRB02KT CAVOK 12/03 Q1007=
201810231830 METAR LRIA 231830Z 23004KT 200V260 CAVOK 12/03 Q1007=
201810231900 METAR LRIA 231900Z 20006KT 180V240 CAVOK 13/04 Q1006=
201810231930 METAR LRIA 231930Z 21007KT 180V240 CAVOK 13/04 Q1006=
201810232000 METAR LRIA 232000Z 21006KT CAVOK 13/04 Q1005=
201810232030 METAR LRIA 232030Z 21007KT 170V230 9999 -RA NSC 13/04 Q1004=
201810232100 METAR LRIA 232100Z 21007KT CAVOK 14/04 Q1004=
201810232130 METAR LRIA 232130Z 22007KT 190V260 CAVOK 14/03 Q1003=
201810232200 METAR LRIA 232200Z 22008KT CAVOK 14/03 Q1003=
201810232230 METAR LRIA 232230Z 22005KT 200V260 CAVOK 14/03 Q1002=
201810232300 METAR LRIA 232300Z 22006KT 190V260 9999 -RA NSC 13/03 Q1002=
201810232330 METAR LRIA 232330Z 25007KT 210V290 9999 -RA NSC 14/03 Q1001=
201810240000 METAR LRIA 240000Z 24007KT 200V280 CAVOK 13/02 Q1000=
201810240030 METAR LRIA 240030Z 25006KT 220V290 CAVOK 13/02 Q1000=
201810240100 METAR LRIA 240100Z 25006KT CAVOK 13/02 Q1000=
201810240130 METAR LRIA 240130Z 25006KT 200V270 CAVOK 13/01 Q0999=
201810240200 METAR LRIA 240200Z 23007KT 210V270 9999 -RA FEW042 12/01
                        Q0999=
201810240230 METAR LRIA 240230Z 23008KT 210V270 9999 FEW042 12/03 Q0999=
201810240300 METAR LRIA 240300Z 23006KT CAVOK 11/03 Q0998=
201810240330 METAR LRIA 240330Z 25006KT 220V280 CAVOK 12/02 Q0998=
201810240400 METAR LRIA 240400Z 26005KT 9999 -RA NSC 11/02 Q0997=
201810240430 METAR LRIA 240430Z 25003KT 9999 -RA NSC 11/02 Q0997=
201810240500 METAR LRIA 240500Z 23003KT 9999 NSC 11/02 Q0996=
201810240530 METAR LRIA 240530Z 22003KT CAVOK 11/02 Q0996=
201810240600 METAR LRIA 240600Z 24003KT CAVOK 12/02 Q0996=
201810240630 METAR LRIA 240630Z 23006KT 190V270 CAVOK 12/01 Q0996=
201810240700 METAR LRIA 240700Z 24007KT 210V270 CAVOK 13/01 Q0995=
201810240730 METAR LRIA 240730Z 24011KT 210V290 9999 -RA NSC 13/01 Q0995=
201810240800 METAR LRIA 240800Z 24008KT 9999 FEW017 13/01 Q0994=
201810240830 METAR LRIA 240830Z 23008KT 210V270 9999 FEW017 13/02 Q0994=
201810240900 METAR LRIA 240900Z 27012KT 230V290 9999 SCT025 FEW040CB 15/01
                        Q0994=
201810240930 METAR LRIA 240930Z 28013KT 9999 SCT030 FEW040CB 15/01 Q0994=
201810241000 METAR LRIA 241000Z 34021KT 9999 BKN035 FEW040CB 12/02 Q0994=
201810241030 METAR LRIA 241030Z 33017KT 9999 BKN045 11/01 Q0995=
201810241100 METAR LRIA 241100Z 32012KT 9999 -RA VCSH FEW040CB BKN045
                        10/02 Q0995 R14/29//95=
201810241130 METAR LRIA 241130Z 29010KT 9999 -RA VCSH FEW040CB BKN045
                        09/03 Q0995 R14/29//95=
201810241200 METAR LRIA 241200Z 30003KT 240V320 9999 -SHRA FEW040CB BKN045
                        09/03 Q0994 R14/29//95=
201810241230 METAR LRIA 241230Z 30004KT 9999 BKN045 FEW050CB 09/03 Q0995
                        R14/29//95=
201810241300 METAR COR LRIA 241300Z 32022KT 4000 +SHRA BKN025 SCT035CB
                        06/02 Q0995 R14/29//95=
201810241330 METAR LRIA 241330Z 28005KT 240V310 9999 FEW035CB BKN042 06/03
                        Q0996 R14/29//95=
201810241400 METAR LRIA 241400Z 29008KT 9999 SCT038 08/03 Q0996 R14/29//95=
201810241430 METAR LRIA 241430Z 32015KT 9999 SCT037 08/02 Q0996 R14/29//95=
201810241500 METAR LRIA 241500Z 32013KT 9999 SCT036 BKN046 08/01 Q0997
                        R14/29//95=
201810241530 METAR LRIA 241530Z 31011KT 9999 FEW029 SCT041 07/01 Q0997
                        R14/29//95=
201810241600 METAR LRIA 241600Z 31017G31KT 9999 SCT027 SCT035 07/01 Q0997
                        R14/29//95=
201810241630 METAR LRIA 241630Z 31016KT 9999 FEW025 SCT035 06/01 Q0999
                        R14/29//95=
201810241700 METAR LRIA 241700Z 31016KT 9999 BKN045 06/01 Q0999 R14/29//95=
201810241730 METAR LRIA 241730Z 31012KT 9999 SCT047 06/00 Q1000 R14/29//95=
201810241800 METAR LRIA 241800Z 31015KT 9999 FEW047 06/00 Q1000 R14/29//95=
201810241830 METAR LRIA 241830Z 31017G27KT 9999 BKN047 06/M00 Q1000 R14/29//95=
201810241900 METAR LRIA 241900Z 31017KT 9999 BKN040 05/M00 Q1000 R14/29//95=
201810241930 METAR LRIA 241930Z 30017G27KT 9999 BKN047 06/M00 Q1000 R14/29//95=
201810242000 METAR LRIA 242000Z 30014G24KT 9999 BKN040 06/M00 Q1000 R14/29//95=
201810242030 METAR LRIA 242030Z 31020KT 9999 BKN035 06/M01 Q1001 R14/19//95=
201810242100 METAR LRIA 242100Z 30019G30KT 9999 -RA BKN040 05/00 Q1001
                        R14/19//95=
201810242130 METAR LRIA 242130Z 30017G31KT 9999 BKN040 05/M00 Q1001 R14/19//95=
201810242200 METAR LRIA 242200Z 29014KT 9999 SCT040 05/M00 Q1001 R14/19//95=
201810242230 METAR COR LRIA 242230Z 29013KT 260V320 9999 SCT040 06/M01
                        Q1001 R14/19//95=
201810242300 METAR COR LRIA 242300Z 31016KT 9999 BKN045 06/M01 Q1001 R14/19//95=
201810242330 METAR LRIA 242330Z 31017G27KT 9999 -RA SCT045 06/M00 Q1002
                        R14/19//95=
201810250000 METAR LRIA 250000Z 30022G34KT 9999 BKN047 07/M01 Q1002 R14/19//95=
201810250030 METAR LRIA 250030Z 31018KT 9999 BKN047 07/M02 Q1002 R14/19//95=
201810250100 METAR LRIA 250100Z 30021KT 9999 SCT047 07/M02 Q1002 R14/19//95=
201810250130 METAR LRIA 250130Z 30018G28KT 9999 BKN044 07/M02 Q1003 R14/19//95=
201810250200 METAR LRIA 250200Z 30015G25KT 9999 BKN040 07/M02 Q1003 R14/19//95=
201810250230 METAR LRIA 250230Z 30019KT 9999 OVC045 07/M02 Q1003 R14/19//95=
201810250300 METAR LRIA 250300Z 30020KT 9999 FEW040 07/M02 Q1004 R14/CLRD//=
201810250330 METAR LRIA 250330Z 30018KT 9999 SCT045 07/M02 Q1004=
201810250400 METAR LRIA 250400Z 30015G25KT 9999 BKN040 07/M02 Q1005=
201810250430 METAR LRIA 250430Z 30018KT 9999 BKN040 07/M02 Q1005=
201810250500 METAR LRIA 250500Z 30015KT 9999 BKN040 07/M02 Q1005=
201810250530 METAR LRIA 250530Z 30016G28KT 9999 BKN040 07/M02 Q1006=
201810250600 METAR LRIA 250600Z 30017G27KT 9999 BKN040 07/M02 Q1006=
201810250630 METAR LRIA 250630Z 30019KT 9999 SCT045 07/M02 Q1007=
201810250700 METAR COR LRIA 250700Z 31018KT 9999 FEW048 07/M02 Q1007 WS
                        RWY32=
201810250730 METAR LRIA 250730Z 30020KT 9999 FEW037 08/M03 Q1007 WS RWY32=
201810250800 METAR LRIA 250800Z 30022G32KT 9999 FEW040 08/M03 Q1008 WS
                        RWY32=
201810250830 METAR LRIA 250830Z 31022G32KT 270V330 9999 FEW040 08/M02
                        Q1008 WS RWY32=
201810250900 METAR LRIA 250900Z 30021G31KT CAVOK 08/M02 Q1009 WS RWY32=
201810250930 METAR LRIA 250930Z 30017G31KT CAVOK 07/M02 Q1009 WS RWY32=
201810251000 METAR LRIA 251000Z 31016G26KT 9999 FEW040 08/M02 Q1009 WS
                        RWY32=
201810251030 METAR LRIA 251030Z 32016KT 9999 SCT040 09/M03 Q1009 WS RWY32=
201810251100 METAR LRIA 251100Z 32013G23KT 9999 FEW047 09/M03 Q1008 WS
                        RWY32=
201810251130 METAR LRIA 251130Z 33012KT 9999 FEW047 09/M03 Q1008 WS RWY32=
201810251200 METAR LRIA 251200Z 31015KT CAVOK 11/M03 Q1008 WS RWY32=
201810251230 METAR LRIA 251230Z 32013KT CAVOK 10/M04 Q1007 WS RWY32=
201810251300 METAR LRIA 251300Z 33012KT CAVOK 10/M03 Q1007 WS RWY32=
201810251330 METAR LRIA 251330Z 32011KT CAVOK 10/M04 Q1007 WS RWY32=
201810251400 METAR LRIA 251400Z 31007KT CAVOK 09/M03 Q1007=
201810251430 METAR LRIA 251430Z 30006KT CAVOK 09/M04 Q1007=
201810251500 METAR LRIA 251500Z 29004KT CAVOK 09/M03 Q1007=
201810251530 METAR LRIA 251530Z 26002KT CAVOK 08/M04 Q1007=
201810251600 METAR LRIA 251600Z 23004KT CAVOK 08/M03 Q1007=
201810251630 METAR LRIA 251630Z 22004KT 200V260 CAVOK 08/M03 Q1007=
201810251700 METAR LRIA 251700Z 27009KT CAVOK 09/M03 Q1006=
201810251730 METAR LRIA 251730Z 26006KT 9999 -RA SCT046 08/M01 Q1006=
201810251800 METAR LRIA 251800Z 25008KT 200V280 9999 -RA SCT046 08/M01
                        Q1006=
201810251830 METAR LRIA 251830Z 24005KT 9999 BKN048 08/M02 Q1006=
201810251900 METAR LRIA 251900Z 25008KT 220V290 9999 BKN040 09/M02 Q1006
                        REUP=
201810251930 METAR LRIA 251930Z 24005KT 9999 -RA SCT038 08/M01 Q1006=
201810252000 METAR COR LRIA 252000Z 25003KT 220V280 9999 BKN045 08/M01
                        Q1006 R14/19//95=
201810252030 METAR LRIA 252030Z 19004KT 150V240 9999 -RA BKN041 07/01
                        Q1005 R14/19//95=
201810252100 METAR LRIA 252100Z 21003KT 9999 SCT044 07/01 Q1005 R14/19//95=
201810252130 METAR COR LRIA 252130Z 21004KT 9999 BKN042 07/01 Q1005 R14/19//95=
201810252200 METAR LRIA 252200Z 21005KT CAVOK 07/01 Q1005 R14/19//95=
201810252230 METAR LRIA 252230Z 25003KT 200V300 CAVOK 08/M00 Q1005 R14/19//95=
201810252300 METAR LRIA 252300Z 25003KT 210V290 CAVOK 08/00 Q1005 R14/19//95=
201810252330 METAR LRIA 252330Z AUTO 27008KT 240V310 9999 FEW079/// BKN100///
                        09/M00 Q1006=
201810260000 METAR LRIA 260000Z AUTO 27008KT 9999 SCT086/// 09/M00 Q1006=
201810260030 METAR COR LRIA 260030Z 28009KT CAVOK 09/00 Q1006 R14/19//95=
201810260100 METAR COR LRIA 260100Z 28006KT CAVOK 08/00 Q1006 R14/19//95=
201810260130 METAR COR LRIA 260130Z 29013KT CAVOK 10/01 Q1006 R14/19//95=
201810260200 METAR COR LRIA 260200Z 29012KT 260V320 CAVOK 10/01 Q1007
                        R14/19//95=
201810260230 METAR LRIA 260230Z 28007KT CAVOK 09/01 Q1007 R14/CLRD//=
201810260300 METAR LRIA 260300Z 29007KT CAVOK 08/01 Q1008=
201810260330 METAR LRIA 260330Z 29006KT CAVOK 08/01 Q1008=
201810260400 METAR LRIA 260400Z 30007KT CAVOK 07/01 Q1009=
201810260430 METAR LRIA 260430Z 32005KT CAVOK 07/01 Q1009=
201810260500 METAR LRIA 260500Z 30006KT CAVOK 07/01 Q1009=
201810260530 METAR LRIA 260530Z 29007KT CAVOK 08/01 Q1010=
201810260600 METAR LRIA 260600Z 27004KT 230V300 CAVOK 08/01 Q1010=
201810260630 METAR LRIA 260630Z 29008KT 260V320 CAVOK 10/01 Q1011=
201810260700 METAR LRIA 260700Z 30011KT CAVOK 10/02 Q1011=
201810260730 METAR LRIA 260730Z 30012KT CAVOK 11/02 Q1012=
201810260800 METAR LRIA 260800Z 31012KT 9999 FEW035 12/02 Q1012=
201810260830 METAR LRIA 260830Z 31015KT 9999 FEW037 12/02 Q1012=
201810260900 METAR LRIA 260900Z 31011KT 9999 FEW047 12/02 Q1012=
201810260930 METAR LRIA 260930Z 30013KT 270V330 9999 SCT046 13/M01 Q1012=
201810261000 METAR LRIA 261000Z 29016KT 270V360 9999 BKN048 13/M01 Q1012=
201810261030 METAR LRIA 261030Z 31012KT 9999 BKN049 14/M01 Q1012=
201810261100 METAR LRIA 261100Z 32011KT 9999 FEW049 14/M02 Q1012=
201810261130 METAR LRIA 261130Z 32011KT CAVOK 14/M02 Q1012=
201810261200 METAR LRIA 261200Z 32012KT CAVOK 14/M03 Q1012=
201810261230 METAR LRIA 261230Z 33009KT 290V350 CAVOK 14/M02 Q1012=
201810261300 METAR LRIA 261300Z 34009KT CAVOK 13/M02 Q1012=
201810261330 METAR LRIA 261330Z 34006KT CAVOK 13/M01 Q1013=
201810261400 METAR LRIA 261400Z 34005KT CAVOK 13/M00 Q1013=
201810261430 METAR LRIA 261430Z 01006KT CAVOK 13/M00 Q1013=
201810261500 METAR LRIA 261500Z 02004KT CAVOK 12/M01 Q1013=
201810261530 METAR LRIA 261530Z 02004KT 010V080 CAVOK 11/M01 Q1013=
201810261600 METAR LRIA 261600Z 02004KT CAVOK 10/M01 Q1014=
201810261630 METAR LRIA 261630Z 04006KT CAVOK 09/M00 Q1014=
201810261700 METAR LRIA 261700Z 04004KT CAVOK 09/M01 Q1014=
201810261730 METAR LRIA 261730Z 05004KT CAVOK 08/M01 Q1015=
201810261800 METAR LRIA 261800Z 11004KT CAVOK 09/M00 Q1015=
201810261830 METAR LRIA 261830Z 09004KT CAVOK 08/M01 Q1015=
201810261900 METAR LRIA 261900Z 08005KT CAVOK 09/M01 Q1015=
201810261930 METAR LRIA 261930Z 09006KT CAVOK 07/M01 Q1015=
201810262000 METAR LRIA 262000Z 08006KT CAVOK 07/M01 Q1015=
201810262030 METAR LRIA 262030Z 18002KT CAVOK 06/M01 Q1015=
201810262100 METAR LRIA 262100Z VRB01KT CAVOK 07/M01 Q1015=
201810262130 METAR LRIA 262130Z 13003KT CAVOK 07/M01 Q1015=
201810262200 METAR LRIA 262200Z 11004KT CAVOK 06/M01 Q1015=
201810262230 METAR LRIA 262230Z 11004KT CAVOK 07/M01 Q1015=
201810262300 METAR LRIA 262300Z 10004KT CAVOK 06/M01 Q1015=
201810262330 METAR LRIA 262330Z 09006KT CAVOK 05/M01 Q1015=
201810270000 METAR LRIA 270000Z 09006KT CAVOK 05/M01 Q1015=
201810270030 METAR LRIA 270030Z 09006KT CAVOK 05/M01 Q1014=
201810270100 METAR COR LRIA 270100Z 10007KT CAVOK 04/M01 Q1014=
201810270130 METAR LRIA 270130Z 10006KT CAVOK 04/M01 Q1014=
201810270200 METAR LRIA 270200Z 09007KT CAVOK 04/M01 Q1014=
201810270230 METAR LRIA 270230Z 08008KT CAVOK 04/M01 Q1013=
201810270300 METAR LRIA 270300Z 09004KT CAVOK 04/M01 Q1013=
201810270330 METAR LRIA 270330Z 10004KT 060V120 CAVOK 04/M01 Q1014=
201810270400 METAR LRIA 270400Z 10005KT CAVOK 04/M01 Q1013=
201810270430 METAR LRIA 270430Z 10007KT CAVOK 04/M01 Q1013=
201810270500 METAR LRIA 270500Z 09005KT CAVOK 04/M01 Q1013=
201810270530 METAR LRIA 270530Z 08007KT CAVOK 05/M00 Q1013=
201810270600 METAR LRIA 270600Z 09005KT CAVOK 06/00 Q1013=
201810270630 METAR LRIA 270630Z 10008KT CAVOK 07/01 Q1013=
201810270700 METAR LRIA 270700Z 10008KT CAVOK 09/01 Q1013=
201810270730 METAR LRIA 270730Z 11008KT CAVOK 11/02 Q1013=
201810270800 METAR LRIA 270800Z 11006KT CAVOK 13/02 Q1012=
201810270830 METAR LRIA 270830Z 11006KT CAVOK 14/02 Q1012=
201810270900 METAR LRIA 270900Z 13004KT 100V160 CAVOK 16/03 Q1012=
201810270930 METAR LRIA 270930Z 15003KT 100V260 CAVOK 18/03 Q1012=
201810271000 METAR LRIA 271000Z 20008KT 160V240 CAVOK 19/04 Q1012=
201810271030 METAR LRIA 271030Z 18009KT 160V230 CAVOK 20/04 Q1011=
201810271100 METAR LRIA 271100Z 20010KT 170V240 CAVOK 21/04 Q1011=
201810271130 METAR LRIA 271130Z 20010KT 170V240 CAVOK 22/05 Q1011=
201810271200 METAR LRIA 271200Z 20009KT 150V230 CAVOK 22/05 Q1010=
201810271230 METAR LRIA 271230Z 20010KT 160V230 CAVOK 23/05 Q1010=
201810271300 METAR LRIA 271300Z 21010KT 160V240 CAVOK 22/05 Q1011=
201810271330 METAR LRIA 271330Z 20009KT 160V230 CAVOK 21/04 Q1011=
201810271400 METAR LRIA 271400Z 19008KT 160V220 CAVOK 20/04 Q1010=
201810271430 METAR LRIA 271430Z 19007KT 160V220 CAVOK 20/04 Q1010=
201810271500 METAR LRIA 271500Z 19006KT CAVOK 19/04 Q1011=
201810271530 METAR LRIA 271530Z 19007KT CAVOK 19/04 Q1011=
201810271600 METAR LRIA 271600Z 20006KT CAVOK 18/04 Q1011=
201810271630 METAR LRIA 271630Z 20007KT CAVOK 18/04 Q1011=
201810271700 METAR LRIA 271700Z 19007KT CAVOK 18/04 Q1011=
201810271730 METAR LRIA 271730Z 19004KT CAVOK 18/04 Q1011=
201810271800 METAR LRIA 271800Z 19005KT CAVOK 17/04 Q1011=
201810271830 METAR LRIA 271830Z 22006KT 180V250 CAVOK 17/04 Q1012=
201810271900 METAR LRIA 271900Z 24005KT 200V270 CAVOK 17/04 Q1012=
201810271930 METAR LRIA 271930Z 22006KT CAVOK 16/04 Q1012=
201810272000 METAR LRIA 272000Z 20006KT 160V230 CAVOK 17/05 Q1012=
201810272030 METAR LRIA 272030Z 18006KT CAVOK 16/05 Q1012=
201810272100 METAR LRIA 272100Z 17004KT 140V200 CAVOK 15/05 Q1012=
201810272130 METAR LRIA 272130Z 20005KT CAVOK 16/05 Q1013=
201810272200 METAR LRIA 272200Z 18005KT CAVOK 15/05 Q1013=
201810272230 METAR LRIA 272230Z 10006KT CAVOK 12/04 Q1013=
201810272300 METAR LRIA 272300Z 07008KT CAVOK 12/05 Q1013=
201810272330 METAR LRIA 272330Z 09007KT CAVOK 12/05 Q1013=
201810280000 METAR LRIA 280000Z 10008KT CAVOK 11/05 Q1013=
201810280030 METAR LRIA 280030Z 10007KT CAVOK 11/04 Q1013=
201810280100 METAR COR LRIA 280100Z 11006KT CAVOK 10/04 Q1013=
201810280130 METAR LRIA 280130Z 09008KT CAVOK 11/05 Q1013=
201810280200 METAR LRIA 280200Z 09007KT CAVOK 10/05 Q1013=
201810280230 METAR LRIA 280230Z 09008KT CAVOK 10/05 Q1013=
201810280300 METAR LRIA 280300Z 08008KT CAVOK 11/05 Q1013=
201810280330 METAR LRIA 280330Z 09007KT CAVOK 11/05 Q1013=
201810280400 METAR LRIA 280400Z 08007KT CAVOK 10/05 Q1014=
201810280430 METAR LRIA 280430Z 07007KT CAVOK 10/05 Q1013=
201810280500 METAR LRIA 280500Z 08007KT CAVOK 10/05 Q1014=
201810280530 METAR LRIA 280530Z 09008KT CAVOK 11/05 Q1014=
201810280600 METAR LRIA 280600Z 08007KT CAVOK 11/05 Q1015=
201810280630 METAR LRIA 280630Z 09007KT CAVOK 12/06 Q1015=
201810280700 METAR LRIA 280700Z 10008KT CAVOK 14/06 Q1015=
201810280730 METAR LRIA 280730Z 10008KT CAVOK 15/06 Q1015=
201810280800 METAR LRIA 280800Z 11009KT CAVOK 17/07 Q1015=
201810280830 METAR LRIA 280830Z 12006KT CAVOK 19/07 Q1015=
201810280900 METAR LRIA 280900Z 11006KT CAVOK 20/07 Q1015=
201810280930 METAR LRIA 280930Z 10006KT CAVOK 21/07 Q1015=
201810281000 METAR LRIA 281000Z 11007KT CAVOK 21/07 Q1015=
201810281030 METAR LRIA 281030Z 09007KT CAVOK 22/07 Q1015=
201810281100 METAR LRIA 281100Z 17007KT 140V200 CAVOK 24/07 Q1014=
201810281130 METAR LRIA 281130Z 12008KT CAVOK 24/08 Q1014=
201810281200 METAR LRIA 281200Z 12005KT CAVOK 25/07 Q1014=
201810281230 METAR COR LRIA 281230Z 12005KT CAVOK 25/07 Q1014=
201810281300 METAR LRIA 281300Z 12007KT CAVOK 25/07 Q1014=
201810281330 METAR COR LRIA 281330Z 11010KT CAVOK 24/08 Q1014=
201810281400 METAR LRIA 281400Z 10009KT CAVOK 22/08 Q1014=
201810281430 METAR LRIA 281430Z 11010KT CAVOK 21/08 Q1014=
201810281500 METAR LRIA 281500Z 11006KT CAVOK 21/07 Q1014=
201810281530 METAR LRIA 281530Z 09007KT CAVOK 19/07 Q1014=
201810281600 METAR LRIA 281600Z 09008KT CAVOK 19/07 Q1014=
201810281630 METAR LRIA 281630Z 12007KT CAVOK 19/07 Q1014=
201810281700 METAR LRIA 281700Z 12007KT CAVOK 19/07 Q1014=
201810281730 METAR LRIA 281730Z 10008KT CAVOK 17/07 Q1014=
201810281800 METAR LRIA 281800Z 11006KT CAVOK 17/07 Q1014=
201810281830 METAR LRIA 281830Z 09006KT CAVOK 17/07 Q1014=
201810281900 METAR LRIA 281900Z 10005KT CAVOK 17/07 Q1015=
201810281930 METAR LRIA 281930Z 10005KT 080V140 CAVOK 16/07 Q1014=
201810282000 METAR LRIA 282000Z 09004KT CAVOK 15/06 Q1015=
201810282030 METAR LRIA 282030Z 10006KT CAVOK 16/06 Q1015=
201810282100 METAR LRIA 282100Z 10005KT CAVOK 15/06 Q1015=
201810282130 METAR LRIA 282130Z 09006KT CAVOK 15/06 Q1014=
201810282200 METAR LRIA 282200Z 10008KT CAVOK 14/06 Q1014=
201810282230 METAR LRIA 282230Z 08008KT CAVOK 14/06 Q1014=
201810282300 METAR LRIA 282300Z 09009KT CAVOK 14/06 Q1014=
201810282330 METAR LRIA 282330Z 09007KT CAVOK 14/06 Q1014=
201810290000 METAR LRIA 290000Z 09009KT CAVOK 14/06 Q1014=
201810290030 METAR LRIA 290030Z 10009KT CAVOK 13/06 Q1014=
201810290100 METAR LRIA 290100Z 09008KT CAVOK 13/06 Q1014=
201810290130 METAR LRIA 290130Z 10008KT CAVOK 13/06 Q1014=
201810290200 METAR LRIA 290200Z 11012KT CAVOK 14/06 Q1014=
201810290230 METAR LRIA 290230Z 10009KT CAVOK 13/07 Q1014=
201810290300 METAR LRIA 290300Z 10008KT CAVOK 12/07 Q1014=
201810290330 METAR LRIA 290330Z 10009KT CAVOK 12/07 Q1014=
201810290400 METAR LRIA 290400Z 10007KT CAVOK 12/07 Q1014=
201810290430 METAR LRIA 290430Z 11008KT CAVOK 11/07 Q1014=
201810290500 METAR LRIA 290500Z 08006KT CAVOK 12/08 Q1014=
201810290530 METAR LRIA 290530Z 10009KT CAVOK 12/08 Q1014=
201810290600 METAR LRIA 290600Z 10010KT CAVOK 12/09 Q1014=
201810290630 METAR LRIA 290630Z 11010KT CAVOK 13/09 Q1015=
201810290700 METAR LRIA 290700Z 11011KT CAVOK 14/09 Q1015=
201810290730 METAR LRIA 290730Z 11011KT CAVOK 15/09 Q1015=
201810290800 METAR LRIA 290800Z 11010KT CAVOK 16/09 Q1015=
201810290830 METAR LRIA 290830Z 12009KT CAVOK 17/09 Q1015=
201810290900 METAR LRIA 290900Z 12010KT CAVOK 18/10 Q1015=
201810290930 METAR LRIA 290930Z 11010KT CAVOK 19/10 Q1014=
201810291000 METAR LRIA 291000Z 11010KT CAVOK 19/10 Q1014=
201810291030 METAR LRIA 291030Z 11009KT CAVOK 20/10 Q1014=
201810291100 METAR LRIA 291100Z 12010KT CAVOK 21/10 Q1014=
201810291130 METAR LRIA 291130Z 11009KT CAVOK 21/10 Q1014=
201810291200 METAR LRIA 291200Z 12007KT CAVOK 23/09 Q1014=
201810291230 METAR LRIA 291230Z 11008KT CAVOK 23/10 Q1014=
201810291300 METAR LRIA 291300Z 11006KT CAVOK 24/09 Q1014=
201810291330 METAR LRIA 291330Z 11007KT CAVOK 23/09 Q1014=
201810291400 METAR LRIA 291400Z 10006KT CAVOK 22/09 Q1015=
201810291430 METAR LRIA 291430Z 11007KT CAVOK 21/09 Q1015=
201810291500 METAR LRIA 291500Z 12007KT CAVOK 19/09 Q1015=
201810291530 METAR LRIA 291530Z 12009KT CAVOK 19/10 Q1015=
201810291600 METAR LRIA 291600Z 10007KT CAVOK 18/09 Q1015=
201810291630 METAR LRIA 291630Z 08007KT CAVOK 18/09 Q1016=
201810291700 METAR LRIA 291700Z 10007KT CAVOK 18/09 Q1016=
201810291730 METAR LRIA 291730Z 11006KT CAVOK 17/10 Q1016=
201810291800 METAR LRIA 291800Z 09005KT CAVOK 17/09 Q1016=
201810291830 METAR LRIA 291830Z 09006KT CAVOK 16/09 Q1016=
201810291900 METAR LRIA 291900Z 09007KT CAVOK 16/10 Q1016=
201810291930 METAR LRIA 291930Z 09008KT CAVOK 16/10 Q1017=
201810292000 METAR LRIA 292000Z 10009KT CAVOK 16/10 Q1017=
201810292030 METAR LRIA 292030Z 09007KT CAVOK 15/09 Q1017=
201810292100 METAR LRIA 292100Z 10009KT CAVOK 15/09 Q1016=
201810292130 METAR LRIA 292130Z 10009KT CAVOK 15/09 Q1016=
201810292200 METAR COR LRIA 292200Z 09008KT CAVOK 14/09 Q1016=
201810292230 METAR LRIA 292230Z 10009KT CAVOK 15/09 Q1016=
201810292300 METAR LRIA 292300Z 10008KT CAVOK 14/09 Q1016=
201810292330 METAR LRIA 292330Z 09008KT CAVOK 14/09 Q1017=
201810300000 METAR LRIA 300000Z 09009KT CAVOK 14/09 Q1017=
201810300030 METAR LRIA 300030Z 10010KT CAVOK 14/08 Q1017=
201810300100 METAR LRIA 300100Z 10007KT CAVOK 12/08 Q1017=
201810300130 METAR LRIA 300130Z 09009KT CAVOK 13/08 Q1017=
201810300200 METAR COR LRIA 300200Z 09009KT CAVOK 13/08 Q1016=
201810300230 METAR COR LRIA 300230Z 10010KT CAVOK 13/08 Q1016=
201810300300 METAR COR LRIA 300300Z 11010KT CAVOK 12/08 Q1017=
201810300330 METAR LRIA 300330Z 10009KT CAVOK 12/08 Q1016=
201810300400 METAR COR LRIA 300400Z 10008KT CAVOK 12/09 Q1016=
201810300430 METAR LRIA 300430Z 10010KT CAVOK 12/09 Q1016=
201810300500 METAR LRIA 300500Z 11012KT CAVOK 12/09 Q1016=
201810300530 METAR LRIA 300530Z 11014KT CAVOK 13/09 Q1016=
201810300600 METAR LRIA 300600Z 11013KT CAVOK 14/09 Q1017=
201810300630 METAR LRIA 300630Z 12012KT CAVOK 15/09 Q1017=
201810300700 METAR LRIA 300700Z 12013KT CAVOK 15/09 Q1017=
201810300730 METAR LRIA 300730Z 12012KT CAVOK 16/10 Q1017=
201810300800 METAR LRIA 300800Z 11013KT CAVOK 17/10 Q1017=
201810300830 METAR COR LRIA 300830Z 12014KT CAVOK 18/10 Q1017=
201810300900 METAR LRIA 300900Z 11011KT CAVOK 19/10 Q1017=
201810300930 METAR LRIA 300930Z 11012KT CAVOK 20/10 Q1017=
201810301000 METAR LRIA 301000Z 11012KT CAVOK 20/10 Q1017=
201810301030 METAR LRIA 301030Z 10013KT CAVOK 21/10 Q1017=
201810301100 METAR LRIA 301100Z 11016KT CAVOK 21/11 Q1016=
201810301130 METAR LRIA 301130Z 11015KT CAVOK 22/11 Q1016=
201810301200 METAR LRIA 301200Z 12016KT CAVOK 23/11 Q1016=
201810301230 METAR LRIA 301230Z 11017KT CAVOK 23/11 Q1016=
201810301300 METAR LRIA 301300Z 12017KT CAVOK 22/11 Q1016=
201810301330 METAR LRIA 301330Z 13017KT CAVOK 22/11 Q1016=
201810301400 METAR LRIA 301400Z 13013KT CAVOK 22/11 Q1016=
201810301430 METAR LRIA 301430Z 14009KT CAVOK 21/11 Q1016=
201810301500 METAR LRIA 301500Z 15008KT CAVOK 20/11 Q1016=
201810301530 METAR LRIA 301530Z 12009KT CAVOK 19/11 Q1016=
201810301600 METAR LRIA 301600Z 11009KT CAVOK 19/11 Q1017=
201810301630 METAR LRIA 301630Z 13010KT CAVOK 19/11 Q1017=
201810301700 METAR LRIA 301700Z 11008KT CAVOK 17/11 Q1017=
201810301730 METAR LRIA 301730Z 12009KT CAVOK 17/11 Q1017=
201810301800 METAR LRIA 301800Z 11012KT CAVOK 17/11 Q1017=
201810301830 METAR LRIA 301830Z 12011KT CAVOK 16/11 Q1017=
201810301900 METAR LRIA 301900Z 11013KT CAVOK 16/12 Q1018=
201810301930 METAR LRIA 301930Z 11011KT CAVOK 15/11 Q1018=
201810302000 METAR LRIA 302000Z 11012KT CAVOK 15/11 Q1018=
201810302030 METAR LRIA 302030Z 11014KT CAVOK 15/11 Q1018=
201810302100 METAR LRIA 302100Z 11012KT CAVOK 15/11 Q1018=
201810302130 METAR LRIA 302130Z 11011KT CAVOK 14/11 Q1018=
201810302200 METAR LRIA 302200Z 11013KT CAVOK 14/11 Q1018=
201810302230 METAR LRIA 302230Z 11013KT CAVOK 14/11 Q1018=
201810302300 METAR LRIA 302300Z 11013KT CAVOK 14/11 Q1018=
201810302330 METAR LRIA 302330Z 11013KT CAVOK 14/11 Q1018=
201810310000 METAR LRIA 310000Z 11010KT CAVOK 14/11 Q1019=
201810310030 METAR LRIA 310030Z 11010KT CAVOK 13/11 Q1020=
201810310100 METAR LRIA 310100Z 10010KT CAVOK 13/11 Q1020=
201810310130 METAR LRIA 310130Z 11009KT CAVOK 13/11 Q1020=
201810310200 METAR LRIA 310200Z 11007KT 8000 NSC 13/11 Q1020=
201810310230 METAR LRIA 310230Z 10007KT 8000 NSC 13/11 Q1021=
201810310300 METAR LRIA 310300Z 10005KT 7000 NSC 13/11 Q1021=
201810310330 METAR LRIA 310330Z 10006KT 8000 NSC 13/11 Q1022=
201810310400 METAR LRIA 310400Z 09007KT 8000 NSC 13/11 Q1022=
201810310430 METAR LRIA 310430Z 11006KT 6000 NSC 13/11 Q1022=
201810310500 METAR LRIA 310500Z 08004KT 3000 BR NSC 13/12 Q1022=
201810310530 METAR LRIA 310530Z 09005KT 4000 BR NSC 13/11 Q1023=
201810310600 METAR LRIA 310600Z 09005KT 1800 BR FEW003 13/12 Q1024=
201810310630 METAR LRIA 310630Z 10006KT 2000 BR BKN002 14/12 Q1024=
201810310700 METAR LRIA 310700Z 11008KT 2500 BR BKN003 14/12 Q1024=
201810310730 METAR LRIA 310730Z 10006KT 6000 BKN005 15/12 Q1025=
201810310800 METAR LRIA 310800Z 09004KT 060V140 8000 BKN006 15/12 Q1025=
201810310830 METAR LRIA 310830Z 12004KT 080V150 9000 BKN009 16/12 Q1025=
201810310900 METAR LRIA 310900Z 08004KT 030V100 8000 BKN009 16/12 Q1026=
201810310930 METAR LRIA 310930Z 06003KT 030V120 9000 BKN009 16/12 Q1026=
201810311000 METAR LRIA 311000Z 34003KT 8000 OVC010 16/12 Q1026=
201810311030 METAR LRIA 311030Z 01003KT 330V090 9000 OVC010 16/12 Q1026=
201810311100 METAR LRIA 311100Z 03005KT 9999 OVC012 16/12 Q1026=
201810311130 METAR COR LRIA 311130Z 09005KT 9999 OVC015 17/12 Q1026=
201810311200 METAR LRIA 311200Z 10006KT 9999 OVC015 17/12 Q1026=
201810311230 METAR LRIA 311230Z 06004KT 040V100 9999 OVC015 17/12 Q1026=
201810311300 METAR LRIA 311300Z 08004KT 9999 OVC015 17/12 Q1026=
201810311330 METAR LRIA 311330Z 12004KT 9999 OVC015 17/12 Q1026=
201810311400 METAR LRIA 311400Z 11003KT 9999 OVC016 17/12 Q1027=
201810311430 METAR LRIA 311430Z 12008KT 9999 OVC017 16/12 Q1027=
201810311500 METAR LRIA 311500Z 12008KT 9999 OVC015 16/12 Q1027=
201810311530 METAR LRIA 311530Z 11007KT 9999 OVC015 16/12 Q1027=
201810311600 METAR LRIA 311600Z 12006KT 9999 OVC015 16/12 Q1027=
201810311630 METAR LRIA 311630Z 12006KT 9999 OVC013 16/12 Q1027=
201810311700 METAR LRIA 311700Z 10004KT 9999 OVC012 16/12 Q1028=
201810311730 METAR LRIA 311730Z 11004KT 9999 OVC013 16/12 Q1028=
201810311800 METAR LRIA 311800Z 11005KT 9999 OVC011 15/12 Q1028=
201810311830 METAR LRIA 311830Z 10005KT 9999 OVC012 15/12 Q1028=
201810311900 METAR LRIA 311900Z 16004KT 9999 SCT013 OVC017 16/12 Q1028=
201810311930 METAR LRIA 311930Z 10006KT 9999 FEW014 OVC018 16/12 Q1028=
201810312000 METAR LRIA 312000Z 10007KT 9999 FEW014 OVC018 15/12 Q1029=
201810312030 METAR LRIA 312030Z 10007KT 9999 OVC017 15/12 Q1029=
201810312100 METAR LRIA 312100Z 10006KT 9999 OVC017 15/12 Q1030=
201810312130 METAR LRIA 312130Z 11009KT 9999 OVC019 15/11 Q1029=
201810312200 METAR LRIA 312200Z 11013KT 9999 OVC018 15/11 Q1029=
201810312230 METAR COR LRIA 312230Z 11013KT 9999 OVC020 14/11 Q1029=
201810312300 METAR LRIA 312300Z 11013KT 9999 OVC018 14/10 Q1029=
201810312330 METAR LRIA 312330Z 12012KT 9999 OVC017 14/10 Q1029=
