201811010000 METAR LRIA 010000Z 11011KT 9999 OVC015 14/10 Q1029=
201811010030 METAR LRIA 010030Z 11011KT 9999 OVC014 14/10 Q1029=
201811010100 METAR LRIA 010100Z 12011KT 9999 OVC014 14/10 Q1029=
201811010130 METAR LRIA 010130Z 12010KT 9999 OVC013 14/10 Q1029=
201811010200 METAR LRIA 010200Z 12010KT 9999 OVC013 13/10 Q1029=
201811010230 METAR LRIA 010230Z 12008KT 9999 BKN012 13/10 Q1030=
201811010300 METAR LRIA 010300Z 13007KT 9999 OVC013 13/10 Q1030=
201811010330 METAR LRIA 010330Z 12008KT 9999 OVC012 13/10 Q1030=
201811010400 METAR LRIA 010400Z 12010KT 9999 OVC013 13/09 Q1030=
201811010430 METAR LRIA 010430Z 13010KT 9999 OVC013 13/09 Q1030=
201811010500 METAR LRIA 010500Z 13009KT 9999 OVC012 13/09 Q1030=
201811010530 METAR LRIA 010530Z 15011KT 9999 BKN012 13/09 Q1030=
201811010600 METAR LRIA 010600Z 15009KT 9999 OVC013 13/09 Q1031=
201811010630 METAR LRIA 010630Z 14008KT 9999 OVC013 13/09 Q1031=
201811010700 METAR LRIA 010700Z 14009KT 9999 OVC013 14/09 Q1031=
201811010730 METAR LRIA 010730Z 15010KT 9999 OVC013 14/09 Q1031=
201811010800 METAR LRIA 010800Z 14009KT 9999 OVC015 14/09 Q1031=
201811010830 METAR LRIA 010830Z 13010KT 9999 OVC015 14/09 Q1031=
201811010900 METAR LRIA 010900Z 12012KT 9999 OVC016 14/09 Q1031=
201811010930 METAR LRIA 010930Z 12012KT 9999 OVC016 14/09 Q1031=
201811011000 METAR LRIA 011000Z 12011KT 9999 OVC017 14/09 Q1031=
201811011030 METAR LRIA 011030Z 12011KT 9999 OVC016 14/09 Q1030=
201811011100 METAR LRIA 011100Z 13013KT 9999 OVC017 14/09 Q1030=
201811011130 METAR LRIA 011130Z 14012KT 9999 BKN020 15/09 Q1030=
201811011200 METAR LRIA 011200Z 14010KT 9999 BKN022 15/08 Q1030=
201811011230 METAR LRIA 011230Z 12013KT 9999 BKN023 15/08 Q1030=
201811011300 METAR LRIA 011300Z 12013KT 9999 BKN025 15/08 Q1030=
201811011330 METAR LRIA 011330Z 12013KT 9999 SCT027 15/08 Q1030=
201811011400 METAR LRIA 011400Z 13012KT 9999 FEW027 15/08 Q1030=
201811011430 METAR LRIA 011430Z 12010KT 9999 FEW028 14/08 Q1030=
201811011500 METAR LRIA 011500Z 12008KT 9999 FEW040 13/07 Q1030=
201811011530 METAR LRIA 011530Z 13005KT 9999 FEW027 13/07 Q1031=
201811011600 METAR LRIA 011600Z 11007KT 9999 FEW027 12/07 Q1031=
201811011630 METAR LRIA 011630Z 09008KT 9999 SCT027 13/08 Q1031=
201811011700 METAR LRIA 011700Z 11011KT 9999 BKN027 13/08 Q1031=
201811011730 METAR LRIA 011730Z 12013KT 9999 BKN027 13/08 Q1031=
201811011800 METAR LRIA 011800Z 13012KT 9999 BKN023 13/08 Q1031=
201811011830 METAR LRIA 011830Z 13012KT 9999 OVC023 13/08 Q1031=
201811011900 METAR LRIA 011900Z 12014KT 9999 OVC022 13/07 Q1031=
201811011930 METAR LRIA 011930Z 13014KT 9999 SCT020 BKN024 12/07 Q1031=
201811012000 METAR LRIA 012000Z 12014KT 9999 OVC021 12/07 Q1031=
201811012030 METAR LRIA 012030Z 12010KT 9999 SCT018 OVC022 12/07 Q1031=
201811012100 METAR LRIA 012100Z 12012KT 9999 SCT018 OVC022 12/07 Q1031=
201811012130 METAR LRIA 012130Z 13013KT 9999 OVC020 12/07 Q1031=
201811012200 METAR LRIA 012200Z 12014KT 9999 OVC020 12/07 Q1030=
201811012230 METAR LRIA 012230Z 12013KT 9999 OVC020 12/07 Q1030=
201811012300 METAR LRIA 012300Z 12014KT 9999 OVC019 12/07 Q1030=
201811012330 METAR LRIA 012330Z 12015KT 9999 OVC019 12/07 Q1030=
201811020000 METAR LRIA 020000Z 12015KT 9999 OVC020 12/07 Q1030=
201811020030 METAR LRIA 020030Z 12013KT 9999 SCT018 OVC020 12/07 Q1029=
201811020100 METAR LRIA 020100Z 12012KT CAVOK 12/08 Q1029=
201811020130 METAR LRIA 020130Z 12013KT 9999 OVC017 12/08 Q1029=
201811020200 METAR LRIA 020200Z 12012KT 9999 OVC016 12/08 Q1029=
201811020230 METAR LRIA 020230Z 12011KT 9999 SCT015 OVC018 12/08 Q1029=
201811020300 METAR LRIA 020300Z 12013KT 9999 OVC015 12/08 Q1029=
201811020330 METAR LRIA 020330Z 12013KT 9999 OVC015 12/08 Q1029=
201811020400 METAR LRIA 020400Z 12012KT 9999 OVC015 12/08 Q1029=
201811020430 METAR LRIA 020430Z 12011KT 9999 OVC014 12/07 Q1029=
201811020500 METAR LRIA 020500Z 13011KT 9999 OVC014 12/08 Q1030=
201811020530 METAR LRIA 020530Z 13011KT 9999 OVC014 12/08 Q1030=
201811020600 METAR LRIA 020600Z 12012KT 9999 OVC013 12/07 Q1030=
201811020630 METAR LRIA 020630Z 13013KT 9999 OVC014 12/08 Q1030=
201811020700 METAR LRIA 020700Z 13011KT 9999 OVC014 12/08 Q1030=
201811020730 METAR LRIA 020730Z 13010KT 9999 OVC014 13/08 Q1030=
201811020800 METAR LRIA 020800Z 13012KT 9999 OVC015 13/08 Q1029=
201811020830 METAR COR LRIA 020830Z 16009KT 9999 OVC015 14/08 Q1029=
201811020900 METAR LRIA 020900Z 16009KT 130V190 9999 BKN016 15/08 Q1029=
201811020930 METAR LRIA 020930Z 16009KT 140V200 9999 BKN017 15/08 Q1029=
201811021000 METAR LRIA 021000Z 16011KT 9999 BKN019 15/08 Q1029=
201811021030 METAR LRIA 021030Z 14011KT 9999 SCT019 15/08 Q1028=
201811021100 METAR LRIA 021100Z 15011KT 9999 FEW020 16/08 Q1028=
201811021130 METAR LRIA 021130Z 16008KT 9999 FEW021 15/08 Q1028=
201811021200 METAR LRIA 021200Z 16009KT 9999 FEW022 16/08 Q1028=
201811021230 METAR LRIA 021230Z 13010KT 9999 FEW023 16/08 Q1028=
201811021300 METAR LRIA 021300Z 16009KT 9999 FEW024 16/08 Q1028=
201811021330 METAR LRIA 021330Z 16007KT CAVOK 16/08 Q1028=
201811021400 METAR LRIA 021400Z 16006KT 140V200 CAVOK 15/08 Q1028=
201811021430 METAR LRIA 021430Z 14008KT CAVOK 15/08 Q1028=
201811021500 METAR LRIA 021500Z 15005KT CAVOK 14/08 Q1029=
201811021530 METAR LRIA 021530Z 13007KT CAVOK 14/08 Q1029=
201811021600 METAR LRIA 021600Z 13007KT CAVOK 14/08 Q1029=
201811021630 METAR LRIA 021630Z 13007KT CAVOK 14/08 Q1029=
201811021700 METAR LRIA 021700Z 11007KT CAVOK 13/08 Q1029=
201811021730 METAR LRIA 021730Z 12008KT CAVOK 13/08 Q1029=
201811021800 METAR LRIA 021800Z 12009KT CAVOK 13/08 Q1029=
201811021830 METAR LRIA 021830Z 12009KT CAVOK 12/08 Q1029=
201811021900 METAR LRIA 021900Z 12011KT CAVOK 12/08 Q1029=
201811021930 METAR LRIA 021930Z 12010KT CAVOK 12/08 Q1030=
201811022000 METAR LRIA 022000Z 12009KT CAVOK 11/07 Q1030=
201811022030 METAR LRIA 022030Z 12009KT CAVOK 11/07 Q1030=
201811022100 METAR LRIA 022100Z 12009KT CAVOK 11/07 Q1030=
201811022130 METAR LRIA 022130Z 12009KT CAVOK 11/07 Q1030=
201811022200 METAR LRIA 022200Z 11008KT CAVOK 10/07 Q1030=
201811022230 METAR LRIA 022230Z 11008KT CAVOK 10/07 Q1030=
201811022300 METAR LRIA 022300Z 11008KT 9999 SCT015 10/07 Q1030=
201811022330 METAR LRIA 022330Z 11009KT 9999 BKN014 11/08 Q1029=
201811030000 METAR LRIA 030000Z 12010KT 9999 OVC012 11/07 Q1030=
201811030030 METAR LRIA 030030Z 12009KT 9999 OVC012 11/07 Q1029=
201811030100 METAR LRIA 030100Z 12010KT 9999 OVC011 11/07 Q1029=
201811030130 METAR LRIA 030130Z 13010KT 9999 OVC010 11/07 Q1029=
201811030200 METAR LRIA 030200Z 12009KT 9999 OVC009 11/07 Q1029=
201811030230 METAR LRIA 030230Z 13008KT 9999 OVC009 11/07 Q1029=
201811030300 METAR LRIA 030300Z 13008KT 9999 OVC009 11/07 Q1029=
201811030330 METAR LRIA 030330Z 13007KT 9999 OVC009 11/07 Q1029=
201811030400 METAR LRIA 030400Z 13007KT 9999 OVC009 11/08 Q1029=
201811030430 METAR LRIA 030430Z 15005KT 9999 OVC009 11/08 Q1029=
201811030500 METAR LRIA 030500Z 17004KT 140V200 9999 BKN009 11/08 Q1029=
201811030530 METAR LRIA 030530Z 15006KT 9999 OVC009 11/08 Q1029=
201811030600 METAR COR LRIA 030600Z 15009KT 9999 OVC010 12/08 Q1029=
201811030630 METAR LRIA 030630Z 14010KT 9999 OVC010 12/08 Q1029=
201811030700 METAR LRIA 030700Z 15009KT 9999 OVC011 12/08 Q1029=
201811030730 METAR LRIA 030730Z 14007KT 9999 BKN012 13/08 Q1029=
201811030800 METAR LRIA 030800Z 14006KT 9999 BKN012 13/08 Q1030=
201811030830 METAR LRIA 030830Z 14008KT 9999 BKN014 14/08 Q1030=
201811030900 METAR LRIA 030900Z 17008KT 140V200 9999 BKN017 14/07 Q1030=
201811030930 METAR LRIA 030930Z 15008KT 9999 SCT017 15/08 Q1029=
201811031000 METAR LRIA 031000Z 19006KT 140V230 9999 FEW017 14/07 Q1029=
201811031030 METAR LRIA 031030Z 17006KT 110V210 CAVOK 14/07 Q1029=
201811031100 METAR LRIA 031100Z 13005KT 110V180 CAVOK 15/07 Q1029=
201811031130 METAR LRIA 031130Z 18005KT 160V250 CAVOK 16/07 Q1028=
201811031200 METAR LRIA 031200Z 16004KT 080V230 CAVOK 16/07 Q1028=
201811031230 METAR LRIA 031230Z 16005KT 130V190 CAVOK 16/07 Q1028=
201811031300 METAR LRIA 031300Z 13007KT CAVOK 16/07 Q1028=
201811031330 METAR LRIA 031330Z 11008KT CAVOK 15/08 Q1028=
201811031400 METAR LRIA 031400Z 13008KT CAVOK 15/08 Q1028=
201811031430 METAR LRIA 031430Z 11007KT CAVOK 14/08 Q1028=
201811031500 METAR LRIA 031500Z 11008KT CAVOK 14/07 Q1028=
201811031530 METAR LRIA 031530Z 11007KT CAVOK 13/07 Q1028=
201811031600 METAR LRIA 031600Z 11007KT CAVOK 12/07 Q1028=
201811031630 METAR LRIA 031630Z 11007KT CAVOK 12/07 Q1028=
201811031700 METAR LRIA 031700Z 11006KT CAVOK 12/07 Q1028=
201811031730 METAR LRIA 031730Z 12008KT CAVOK 11/07 Q1028=
201811031800 METAR LRIA 031800Z 13007KT CAVOK 11/07 Q1028=
201811031830 METAR LRIA 031830Z 12007KT CAVOK 11/07 Q1027=
201811031900 METAR LRIA 031900Z 11005KT CAVOK 11/07 Q1028=
201811031930 METAR LRIA 031930Z 10007KT CAVOK 11/07 Q1028=
201811032000 METAR LRIA 032000Z 11006KT CAVOK 10/07 Q1028=
201811032030 METAR LRIA 032030Z 10006KT CAVOK 10/07 Q1028=
201811032100 METAR LRIA 032100Z 10006KT CAVOK 10/07 Q1028=
201811032130 METAR LRIA 032130Z 10006KT CAVOK 10/07 Q1028=
201811032200 METAR LRIA 032200Z 11007KT CAVOK 10/07 Q1028=
201811032230 METAR LRIA 032230Z 10008KT CAVOK 10/07 Q1028=
201811032300 METAR LRIA 032300Z 10007KT CAVOK 09/07 Q1027=
201811032330 METAR LRIA 032330Z 11008KT CAVOK 09/07 Q1027=
201811040000 METAR LRIA 040000Z 11007KT CAVOK 09/07 Q1027=
201811040030 METAR LRIA 040030Z 11009KT CAVOK 09/07 Q1027=
201811040100 METAR LRIA 040100Z 09008KT CAVOK 09/07 Q1027=
201811040130 METAR LRIA 040130Z 10007KT CAVOK 09/07 Q1027=
201811040200 METAR LRIA 040200Z 09006KT CAVOK 08/06 Q1027=
201811040230 METAR LRIA 040230Z 08006KT CAVOK 08/07 Q1027=
201811040300 METAR LRIA 040300Z 09007KT CAVOK 08/07 Q1027=
201811040330 METAR LRIA 040330Z 09006KT CAVOK 08/06 Q1027=
201811040400 METAR LRIA 040400Z 09006KT CAVOK 08/06 Q1027=
201811040430 METAR LRIA 040430Z 10006KT 0150 R14/0500 R32/0700 FG BKN001
                        08/06 Q1027=
201811040500 METAR LRIA 040500Z 09005KT 0150 R14/0500N R32/0300N FG VV001
                        08/06 Q1027=
201811040530 METAR LRIA 040530Z 09005KT 0150 R14/0375N R32/0250N FG VV001
                        08/06 Q1027=
201811040600 METAR LRIA 040600Z 09006KT 0150 R14/0400N R32/0325N FG VV001
                        08/06 Q1027=
201811040630 METAR LRIA 040630Z 10008KT 0100 R14/0400N R32/0275N FG VV001
                        08/07 Q1027=
201811040700 METAR LRIA 040700Z 11008KT 0150 R14/0300N R32/0250N FG VV001
                        08/07 Q1027=
201811040730 METAR LRIA 040730Z 09007KT 0150 R14/0450N R32/0325N FG VV001
                        09/08 Q1028=
201811040800 METAR LRIA 040800Z 11009KT 0200 R14/0400D R32/0400N FG VV001
                        09/08 Q1028=
201811040830 METAR LRIA 040830Z 11008KT 0800 R14/1500U R32/1500U FG OVC001
                        10/08 Q1028=
201811040900 METAR LRIA 040900Z 09007KT 2000 BR BKN002 10/09 Q1028=
201811040930 METAR LRIA 040930Z 11007KT 9999 FEW004 12/10 Q1028=
201811041000 METAR LRIA 041000Z 09006KT CAVOK 14/09 Q1027=
201811041030 METAR LRIA 041030Z 12006KT 090V150 CAVOK 15/09 Q1027=
201811041100 METAR LRIA 041100Z 11006KT CAVOK 16/09 Q1027=
201811041130 METAR LRIA 041130Z 11006KT CAVOK 16/09 Q1026=
201811041200 METAR LRIA 041200Z 12008KT CAVOK 17/09 Q1026=
201811041230 METAR LRIA 041230Z 11007KT CAVOK 18/09 Q1026=
201811041300 METAR LRIA 041300Z 12010KT CAVOK 17/09 Q1026=
201811041330 METAR LRIA 041330Z 11010KT CAVOK 16/09 Q1026=
201811041400 METAR LRIA 041400Z 11011KT CAVOK 15/09 Q1026=
201811041430 METAR LRIA 041430Z 11011KT CAVOK 14/08 Q1026=
201811041500 METAR LRIA 041500Z 11011KT CAVOK 13/08 Q1026=
201811041530 METAR LRIA 041530Z 12009KT CAVOK 12/08 Q1026=
201811041600 METAR LRIA 041600Z 12008KT CAVOK 12/08 Q1026=
201811041630 METAR LRIA 041630Z 10007KT CAVOK 11/08 Q1026=
201811041700 METAR LRIA 041700Z 10005KT CAVOK 11/07 Q1026=
201811041730 METAR LRIA 041730Z 09006KT CAVOK 11/07 Q1026=
201811041800 METAR LRIA 041800Z 10007KT CAVOK 11/07 Q1026=
201811041830 METAR LRIA 041830Z 10007KT CAVOK 10/07 Q1026=
201811041900 METAR LRIA 041900Z 11007KT CAVOK 10/07 Q1026=
201811041930 METAR LRIA 041930Z 11006KT CAVOK 09/07 Q1026=
201811042000 METAR LRIA 042000Z 08005KT CAVOK 09/07 Q1027=
201811042030 METAR LRIA 042030Z 09007KT CAVOK 10/07 Q1027=
201811042100 METAR LRIA 042100Z 09006KT CAVOK 09/07 Q1027=
201811042130 METAR LRIA 042130Z 10006KT CAVOK 09/07 Q1026=
201811042200 METAR LRIA 042200Z 13005KT CAVOK 09/06 Q1026=
201811042230 METAR LRIA 042230Z 10004KT CAVOK 09/06 Q1026=
201811042300 METAR LRIA 042300Z 09005KT CAVOK 08/06 Q1026=
201811042330 METAR LRIA 042330Z 10005KT CAVOK 08/06 Q1026=
201811050000 METAR LRIA 050000Z 05005KT CAVOK 07/06 Q1026=
201811050030 METAR LRIA 050030Z 09007KT CAVOK 08/06 Q1026=
201811050100 METAR LRIA 050100Z 07005KT CAVOK 08/06 Q1026=
201811050130 METAR LRIA 050130Z 06007KT CAVOK 08/06 Q1026=
201811050200 METAR LRIA 050200Z 08006KT CAVOK 08/06 Q1026=
201811050230 METAR LRIA 050230Z 09008KT 8000 NSC 08/06 Q1026=
201811050300 METAR LRIA 050300Z 09005KT 9000 NSC 07/06 Q1026=
201811050330 METAR LRIA 050330Z 11009KT 9000 NSC 08/06 Q1026=
201811050400 METAR LRIA 050400Z 07006KT 9000 FEW002 07/06 Q1026=
201811050430 METAR LRIA 050430Z 08007KT 6000 NSC 08/06 Q1026=
201811050500 METAR LRIA 050500Z 11005KT 0300 R14/0550D R32/0250N FG SCT001
                        07/05 Q1026=
201811050530 METAR LRIA 050530Z 12002KT 0500 R14/0700D R32/0350N FG SCT001
                        06/04 Q1026=
201811050600 METAR LRIA 050600Z 08005KT 5000 BR NSC 08/07 Q1026=
201811050630 METAR COR LRIA 050630Z 10005KT 3000 BR NSC 09/07 Q1027=
201811050700 METAR LRIA 050700Z 10006KT 6000 2000S BR NSC 09/07 Q1027=
201811050730 METAR LRIA 050730Z 10010KT 0800 R14/0650VP2000D R32/0350V0500N
                        FG FEW001 08/06 Q1027=
201811050800 METAR LRIA 050800Z 11008KT 0450 R14/0650N R32/0350 FG VV001
                        09/08 Q1027=
201811050830 METAR LRIA 050830Z 10009KT 0800 R14/0800 R32/1000D FG VV001
                        09/08 Q1027=
201811050900 METAR LRIA 050900Z 10009KT 3000 BR FEW001 10/08 Q1027=
201811050930 METAR LRIA 050930Z 09008KT 5000 BR SCT002 10/09 Q1027=
201811051000 METAR LRIA 051000Z 09008KT 9000 FEW003 12/09 Q1027=
201811051030 METAR LRIA 051030Z 10009KT CAVOK 13/08 Q1027=
201811051100 METAR LRIA 051100Z 10009KT CAVOK 14/08 Q1026=
201811051130 METAR LRIA 051130Z 11009KT CAVOK 15/08 Q1026=
201811051200 METAR LRIA 051200Z 11009KT CAVOK 15/08 Q1026=
201811051230 METAR LRIA 051230Z 10009KT CAVOK 15/08 Q1026=
201811051300 METAR LRIA 051300Z 10010KT CAVOK 15/08 Q1026=
201811051330 METAR LRIA 051330Z 10010KT CAVOK 15/08 Q1025=
201811051400 METAR LRIA 051400Z 12012KT CAVOK 15/07 Q1025=
201811051430 METAR LRIA 051430Z 12014KT CAVOK 14/07 Q1026=
201811051500 METAR LRIA 051500Z 11015KT CAVOK 12/07 Q1026=
201811051530 METAR LRIA 051530Z 11013KT CAVOK 11/07 Q1026=
201811051600 METAR LRIA 051600Z 10010KT CAVOK 11/07 Q1026=
201811051630 METAR LRIA 051630Z 09008KT CAVOK 10/07 Q1026=
201811051700 METAR LRIA 051700Z 09008KT CAVOK 10/07 Q1026=
201811051730 METAR LRIA 051730Z 09008KT CAVOK 10/07 Q1026=
201811051800 METAR LRIA 051800Z 09007KT CAVOK 10/07 Q1026=
201811051830 METAR LRIA 051830Z 09005KT CAVOK 10/07 Q1026=
201811051900 METAR LRIA 051900Z 10005KT CAVOK 10/07 Q1026=
201811051930 METAR LRIA 051930Z 09005KT CAVOK 09/07 Q1027=
201811052000 METAR LRIA 052000Z 10005KT CAVOK 09/06 Q1027=
201811052030 METAR LRIA 052030Z 11006KT 8000 NSC 09/06 Q1027=
201811052100 METAR LRIA 052100Z 10007KT 8000 NSC 09/06 Q1027=
201811052130 METAR LRIA 052130Z 11006KT 8000 NSC 08/06 Q1027=
201811052200 METAR LRIA 052200Z 10007KT 8000 NSC 09/07 Q1027=
201811052230 METAR LRIA 052230Z 11007KT 7000 SCT020 09/06 Q1027=
201811052300 METAR LRIA 052300Z 09007KT 7000 FEW020 08/06 Q1027=
201811052330 METAR LRIA 052330Z 10007KT 7000 NSC 08/06 Q1027=
201811060000 METAR LRIA 060000Z 11006KT 7000 NSC 08/06 Q1027=
201811060030 METAR LRIA 060030Z 11007KT 5000 BR FEW013 07/06 Q1027=
201811060100 METAR LRIA 060100Z 11007KT 5000 BR SCT015 08/06 Q1027=
201811060130 METAR LRIA 060130Z 10006KT 5000 BR BKN015 08/06 Q1026=
201811060200 METAR LRIA 060200Z 09007KT 6000 BKN020 08/06 Q1026=
201811060230 METAR LRIA 060230Z 09006KT 6000 BKN018 08/06 Q1026=
201811060300 METAR LRIA 060300Z 11005KT 6000 BKN016 08/06 Q1026=
201811060330 METAR LRIA 060330Z 11006KT 7000 OVC015 09/06 Q1026=
201811060400 METAR LRIA 060400Z 10006KT 8000 SCT013 OVC022 09/06 Q1026=
201811060430 METAR LRIA 060430Z 10007KT 8000 SCT012 OVC022 09/06 Q1026=
201811060500 METAR LRIA 060500Z 11006KT 8000 SCT012 OVC023 09/07 Q1026=
201811060530 METAR LRIA 060530Z 11008KT 8000 SCT012 OVC023 09/07 Q1026=
201811060600 METAR LRIA 060600Z 11007KT 7000 OVC013 09/07 Q1027=
201811060630 METAR LRIA 060630Z 11008KT 7000 FEW007 OVC012 10/07 Q1027=
201811060700 METAR LRIA 060700Z 12008KT 7000 OVC012 10/07 Q1027=
201811060730 METAR LRIA 060730Z 12009KT 8000 OVC012 10/07 Q1027=
201811060800 METAR LRIA 060800Z 12009KT 8000 OVC011 10/07 Q1027=
201811060830 METAR LRIA 060830Z 12010KT 8000 OVC012 10/07 Q1027=
201811060900 METAR LRIA 060900Z 12010KT 8000 OVC011 11/07 Q1027=
201811060930 METAR LRIA 060930Z 11010KT 9999 OVC010 11/07 Q1027=
201811061000 METAR LRIA 061000Z 11009KT 9999 BKN013 11/07 Q1027=
201811061030 METAR LRIA 061030Z 11008KT 9999 BKN014 12/07 Q1026=
201811061100 METAR LRIA 061100Z 11010KT 9999 BKN015 12/07 Q1026=
201811061130 METAR LRIA 061130Z 11010KT 9999 BKN017 12/07 Q1026=
201811061200 METAR LRIA 061200Z 11009KT 9999 BKN018 12/07 Q1026=
201811061230 METAR LRIA 061230Z 11010KT 9999 BKN018 BKN029 12/07 Q1026=
201811061300 METAR LRIA 061300Z 13009KT 9999 FEW020 BKN027 12/07 Q1026=
201811061330 METAR LRIA 061330Z 12011KT 9999 BKN033 12/07 Q1026=
201811061400 METAR LRIA 061400Z 12011KT 9999 BKN033 12/06 Q1026=
201811061430 METAR LRIA 061430Z 12011KT 9999 BKN032 12/06 Q1026=
201811061500 METAR LRIA 061500Z 12010KT 9999 BKN030 12/06 Q1026=
201811061530 METAR LRIA 061530Z 12008KT 9999 BKN030 11/06 Q1026=
201811061600 METAR LRIA 061600Z 12007KT 9999 BKN029 11/06 Q1026=
201811061630 METAR LRIA 061630Z 12007KT 9999 OVC027 11/05 Q1026=
201811061700 METAR LRIA 061700Z 13006KT 9999 OVC025 11/06 Q1026=
201811061730 METAR LRIA 061730Z 13010KT 9999 OVC028 11/04 Q1026=
201811061800 METAR LRIA 061800Z 12011KT 9999 OVC029 10/04 Q1026=
201811061830 METAR LRIA 061830Z 12010KT 9999 OVC028 10/04 Q1026=
201811061900 METAR LRIA 061900Z 12013KT 9999 OVC027 10/03 Q1026=
201811061930 METAR LRIA 061930Z 12014KT 9999 OVC027 09/02 Q1027=
201811062000 METAR LRIA 062000Z 11013KT 9999 OVC027 08/02 Q1027=
201811062030 METAR LRIA 062030Z 11014KT 9999 OVC029 08/02 Q1026=
201811062100 METAR LRIA 062100Z 11013KT 9999 OVC030 08/02 Q1027=
201811062130 METAR LRIA 062130Z 10011KT 9999 OVC030 07/02 Q1026=
201811062200 METAR LRIA 062200Z 10009KT 9999 BKN029 06/02 Q1026=
201811062230 METAR LRIA 062230Z 12004KT CAVOK 05/01 Q1027=
201811062300 METAR LRIA 062300Z 12008KT CAVOK 06/02 Q1026=
201811062330 METAR LRIA 062330Z 11008KT 9999 BKN028 05/01 Q1027=
201811070000 METAR LRIA 070000Z 11006KT 9999 BKN028 05/01 Q1026=
201811070030 METAR LRIA 070030Z 10007KT 9999 BKN030 04/01 Q1026=
201811070100 METAR LRIA 070100Z 10006KT CAVOK 04/01 Q1026=
201811070130 METAR LRIA 070130Z 11005KT CAVOK 04/00 Q1026=
201811070200 METAR LRIA 070200Z 11004KT 9999 OVC027 04/01 Q1026=
201811070230 METAR LRIA 070230Z AUTO 09005KT 9999 SCT026/// 04/00 Q1026=
201811070300 METAR LRIA 070300Z 09006KT 9999 FEW026 03/M00 Q1026=
201811070330 METAR COR LRIA 070330Z 10005KT 9999 BKN027 04/01 Q1026=
201811070400 METAR COR LRIA 070400Z 10006KT 9999 OVC029 05/01 Q1026=
201811070430 METAR COR LRIA 070430Z 10005KT 9999 SCT029 04/00 Q1026=
201811070500 METAR LRIA 070500Z 13006KT 9999 SCT029 05/01 Q1026=
201811070530 METAR LRIA 070530Z 11006KT 9999 SCT028 04/00 Q1026=
201811070600 METAR LRIA 070600Z 10008KT CAVOK 06/01 Q1026=
201811070630 METAR LRIA 070630Z 10008KT CAVOK 06/02 Q1026=
201811070700 METAR LRIA 070700Z 10009KT CAVOK 07/02 Q1026=
201811070730 METAR LRIA 070730Z 11010KT CAVOK 08/02 Q1026=
201811070800 METAR LRIA 070800Z 12011KT 9999 FEW009 09/02 Q1026=
201811070830 METAR LRIA 070830Z 12012KT 9999 FEW010 10/03 Q1026=
201811070900 METAR LRIA 070900Z 11014KT 9999 FEW027 10/03 Q1026=
201811070930 METAR LRIA 070930Z 12013KT 9999 FEW027 11/03 Q1026=
201811071000 METAR LRIA 071000Z 12012KT 9999 FEW027 11/03 Q1026=
201811071030 METAR LRIA 071030Z 12011KT 9999 FEW030 12/03 Q1025=
201811071100 METAR LRIA 071100Z 15008KT 120V190 CAVOK 13/02 Q1025=
201811071130 METAR LRIA 071130Z 14009KT 120V180 CAVOK 13/02 Q1025=
201811071200 METAR LRIA 071200Z 13011KT CAVOK 13/02 Q1024=
201811071230 METAR LRIA 071230Z 13011KT CAVOK 13/02 Q1024=
201811071300 METAR LRIA 071300Z 13008KT CAVOK 13/02 Q1024=
201811071330 METAR LRIA 071330Z 15008KT CAVOK 12/02 Q1024=
201811071400 METAR LRIA 071400Z 15007KT CAVOK 12/02 Q1024=
201811071430 METAR LRIA 071430Z 16008KT CAVOK 11/01 Q1024=
201811071500 METAR LRIA 071500Z 16008KT CAVOK 09/01 Q1024=
201811071530 METAR LRIA 071530Z 15006KT CAVOK 08/01 Q1025=
201811071600 METAR LRIA 071600Z 14007KT CAVOK 08/01 Q1025=
201811071630 METAR LRIA 071630Z 14006KT CAVOK 08/01 Q1025=
201811071700 METAR LRIA 071700Z 14006KT CAVOK 08/01 Q1025=
201811071730 METAR LRIA 071730Z 11006KT CAVOK 06/01 Q1025=
201811071800 METAR LRIA 071800Z 11006KT CAVOK 06/01 Q1025=
201811071830 METAR LRIA 071830Z 12006KT CAVOK 06/01 Q1025=
201811071900 METAR LRIA 071900Z 10006KT CAVOK 05/01 Q1025=
201811071930 METAR LRIA 071930Z 10008KT CAVOK 06/01 Q1025=
201811072000 METAR LRIA 072000Z 10007KT CAVOK 05/01 Q1025=
201811072030 METAR LRIA 072030Z 10006KT CAVOK 05/01 Q1025=
201811072100 METAR LRIA 072100Z 10007KT CAVOK 05/01 Q1025=
201811072130 METAR LRIA 072130Z 09007KT CAVOK 04/01 Q1025=
201811072200 METAR LRIA 072200Z 09006KT CAVOK 04/01 Q1025=
201811072230 METAR LRIA 072230Z 10007KT CAVOK 04/01 Q1025=
201811072300 METAR LRIA 072300Z 10007KT CAVOK 04/01 Q1024=
201811072330 METAR LRIA 072330Z 10006KT CAVOK 04/01 Q1024=
201811080000 METAR LRIA 080000Z 10007KT CAVOK 04/01 Q1024=
201811080030 METAR LRIA 080030Z 09009KT CAVOK 04/01 Q1024=
201811080100 METAR LRIA 080100Z 10007KT CAVOK 04/01 Q1024=
201811080130 METAR LRIA 080130Z 10009KT CAVOK 04/01 Q1024=
201811080200 METAR LRIA 080200Z 09009KT CAVOK 03/01 Q1024=
201811080230 METAR LRIA 080230Z 10008KT CAVOK 03/01 Q1024=
201811080300 METAR LRIA 080300Z 09008KT CAVOK 04/01 Q1024=
201811080330 METAR LRIA 080330Z 10007KT CAVOK 03/01 Q1024=
201811080400 METAR LRIA 080400Z 10007KT CAVOK 03/01 Q1024=
201811080430 METAR LRIA 080430Z 10008KT CAVOK 03/01 Q1024=
201811080500 METAR LRIA 080500Z 09008KT CAVOK 03/01 Q1024=
201811080530 METAR LRIA 080530Z 09006KT CAVOK 03/01 Q1024=
201811080600 METAR LRIA 080600Z 08007KT CAVOK 04/02 Q1025=
201811080630 METAR LRIA 080630Z 10007KT CAVOK 05/02 Q1025=
201811080700 METAR LRIA 080700Z 11007KT CAVOK 06/03 Q1025=
201811080730 METAR LRIA 080730Z 12008KT CAVOK 07/03 Q1025=
201811080800 METAR LRIA 080800Z 11008KT CAVOK 09/03 Q1025=
201811080830 METAR LRIA 080830Z 10010KT CAVOK 09/03 Q1025=
201811080900 METAR LRIA 080900Z 11011KT CAVOK 11/03 Q1024=
201811080930 METAR LRIA 080930Z 12009KT CAVOK 12/03 Q1024=
201811081000 METAR LRIA 081000Z 12010KT CAVOK 12/03 Q1024=
201811081030 METAR LRIA 081030Z 14006KT CAVOK 13/02 Q1024=
201811081100 METAR LRIA 081100Z 15009KT CAVOK 14/02 Q1024=
201811081130 METAR LRIA 081130Z 11010KT CAVOK 13/02 Q1023=
201811081200 METAR LRIA 081200Z 12011KT CAVOK 13/02 Q1023=
201811081230 METAR LRIA 081230Z 11010KT CAVOK 14/02 Q1023=
201811081300 METAR LRIA 081300Z 12009KT CAVOK 13/02 Q1023=
201811081330 METAR LRIA 081330Z 11010KT CAVOK 13/02 Q1023=
201811081400 METAR LRIA 081400Z 12009KT CAVOK 12/02 Q1023=
201811081430 METAR LRIA 081430Z 12007KT CAVOK 11/01 Q1023=
201811081500 METAR LRIA 081500Z 11007KT CAVOK 09/01 Q1023=
201811081530 METAR LRIA 081530Z 11007KT CAVOK 08/01 Q1023=
201811081600 METAR LRIA 081600Z 11007KT CAVOK 08/01 Q1023=
201811081630 METAR LRIA 081630Z 10008KT CAVOK 08/01 Q1023=
201811081700 METAR LRIA 081700Z 09008KT CAVOK 08/00 Q1023=
201811081730 METAR LRIA 081730Z 10007KT CAVOK 07/01 Q1024=
201811081800 METAR LRIA 081800Z 10006KT CAVOK 07/01 Q1024=
201811081830 METAR LRIA 081830Z 10006KT CAVOK 06/01 Q1024=
201811081900 METAR LRIA 081900Z 09007KT CAVOK 06/01 Q1024=
201811081930 METAR LRIA 081930Z 09008KT CAVOK 06/01 Q1024=
201811082000 METAR LRIA 082000Z 09007KT CAVOK 06/01 Q1024=
201811082030 METAR LRIA 082030Z 09007KT CAVOK 05/01 Q1024=
201811082100 METAR LRIA 082100Z 09005KT CAVOK 04/00 Q1024=
201811082130 METAR LRIA 082130Z 09005KT CAVOK 05/00 Q1024=
201811082200 METAR LRIA 082200Z 08006KT CAVOK 04/01 Q1024=
201811082230 METAR LRIA 082230Z 08006KT CAVOK 04/00 Q1024=
201811082300 METAR LRIA 082300Z 08006KT CAVOK 04/01 Q1023=
201811082330 METAR LRIA 082330Z 09007KT CAVOK 04/00 Q1023=
201811090000 METAR LRIA 090000Z 09007KT CAVOK 04/00 Q1023=
201811090030 METAR LRIA 090030Z 08006KT CAVOK 03/00 Q1023=
201811090100 METAR LRIA 090100Z 08006KT CAVOK 03/00 Q1023=
201811090130 METAR LRIA 090130Z 09007KT CAVOK 03/00 Q1023=
201811090200 METAR LRIA 090200Z 09007KT CAVOK 03/00 Q1023=
201811090230 METAR LRIA 090230Z 09006KT CAVOK 03/00 Q1023=
201811090300 METAR LRIA 090300Z 09007KT CAVOK 03/00 Q1023=
201811090330 METAR LRIA 090330Z 08007KT CAVOK 03/00 Q1023=
201811090400 METAR LRIA 090400Z 07007KT CAVOK 03/00 Q1023=
201811090430 METAR LRIA 090430Z 08006KT CAVOK 03/00 Q1023=
201811090500 METAR LRIA 090500Z 08007KT CAVOK 02/M00 Q1023=
201811090530 METAR LRIA 090530Z 07005KT CAVOK 02/M00 Q1024=
201811090600 METAR LRIA 090600Z 08004KT CAVOK 03/01 Q1024=
201811090630 METAR LRIA 090630Z 09004KT CAVOK 03/01 Q1024=
201811090700 METAR LRIA 090700Z 10005KT CAVOK 04/02 Q1024=
201811090730 METAR LRIA 090730Z 10005KT CAVOK 06/02 Q1024=
201811090800 METAR LRIA 090800Z 10006KT CAVOK 07/02 Q1024=
201811090830 METAR LRIA 090830Z 11007KT CAVOK 08/02 Q1024=
201811090900 METAR LRIA 090900Z 11006KT CAVOK 09/03 Q1024=
201811090930 METAR LRIA 090930Z 12004KT 070V190 CAVOK 11/03 Q1024=
201811091000 METAR LRIA 091000Z VRB03KT CAVOK 11/03 Q1024=
201811091030 METAR LRIA 091030Z 13004KT 080V200 CAVOK 12/03 Q1023=
201811091100 METAR LRIA 091100Z 14005KT 090V190 CAVOK 13/03 Q1023=
201811091130 METAR LRIA 091130Z 15006KT 100V190 CAVOK 13/02 Q1023=
201811091200 METAR LRIA 091200Z 17004KT 110V230 CAVOK 14/02 Q1023=
201811091230 METAR LRIA 091230Z 13008KT CAVOK 14/01 Q1022=
201811091300 METAR LRIA 091300Z 13008KT CAVOK 14/02 Q1022=
201811091330 METAR COR LRIA 091330Z 13009KT CAVOK 13/01 Q1022=
201811091400 METAR LRIA 091400Z 14007KT CAVOK 12/01 Q1022=
201811091430 METAR LRIA 091430Z 14007KT CAVOK 11/01 Q1022=
201811091500 METAR LRIA 091500Z 16006KT CAVOK 10/01 Q1022=
201811091530 METAR LRIA 091530Z 14005KT CAVOK 09/00 Q1022=
201811091600 METAR LRIA 091600Z 12007KT CAVOK 09/01 Q1022=
201811091630 METAR LRIA 091630Z 13007KT CAVOK 08/01 Q1022=
201811091700 METAR LRIA 091700Z 12007KT CAVOK 08/01 Q1022=
201811091730 METAR LRIA 091730Z 12007KT CAVOK 08/02 Q1022=
201811091800 METAR LRIA 091800Z 12007KT CAVOK 07/01 Q1022=
201811091830 METAR LRIA 091830Z 13007KT CAVOK 07/01 Q1022=
201811091900 METAR LRIA 091900Z 11005KT CAVOK 07/01 Q1022=
201811091930 METAR LRIA 091930Z 10006KT CAVOK 06/01 Q1022=
201811092000 METAR LRIA 092000Z 09004KT CAVOK 06/02 Q1022=
201811092030 METAR LRIA 092030Z 10005KT CAVOK 06/01 Q1022=
201811092100 METAR LRIA 092100Z 11007KT CAVOK 05/01 Q1022=
201811092130 METAR LRIA 092130Z 10006KT CAVOK 05/01 Q1022=
201811092200 METAR LRIA 092200Z 10006KT CAVOK 04/01 Q1022=
201811092230 METAR LRIA 092230Z 09007KT CAVOK 04/01 Q1022=
201811092300 METAR LRIA 092300Z 11008KT CAVOK 04/01 Q1022=
201811092330 METAR LRIA 092330Z AUTO 10008KT 9999 NCD 04/01 Q1021=
201811100000 METAR LRIA 100000Z 11008KT CAVOK 04/01 Q1021=
201811100030 METAR LRIA 100030Z 10006KT CAVOK 04/01 Q1021=
201811100100 METAR LRIA 100100Z 09006KT CAVOK 04/01 Q1021=
201811100130 METAR LRIA 100130Z 10009KT CAVOK 04/01 Q1021=
201811100200 METAR LRIA 100200Z 10008KT CAVOK 04/01 Q1021=
201811100230 METAR LRIA 100230Z 09007KT CAVOK 04/01 Q1021=
201811100300 METAR LRIA 100300Z 10008KT CAVOK 03/01 Q1021=
201811100330 METAR LRIA 100330Z 10008KT CAVOK 03/01 Q1021=
201811100400 METAR LRIA 100400Z 11008KT CAVOK 03/01 Q1021=
201811100430 METAR LRIA 100430Z 10008KT CAVOK 03/01 Q1021=
201811100500 METAR LRIA 100500Z 10008KT CAVOK 03/01 Q1021=
201811100530 METAR LRIA 100530Z 09008KT CAVOK 03/01 Q1021=
201811100600 METAR LRIA 100600Z 09008KT CAVOK 04/02 Q1021=
201811100630 METAR LRIA 100630Z 10008KT CAVOK 05/03 Q1022=
201811100700 METAR LRIA 100700Z 10008KT CAVOK 05/03 Q1022=
201811100730 METAR LRIA 100730Z 11008KT CAVOK 06/03 Q1021=
201811100800 METAR LRIA 100800Z 11009KT CAVOK 07/04 Q1021=
201811100830 METAR LRIA 100830Z 11009KT CAVOK 09/04 Q1021=
201811100900 METAR LRIA 100900Z 12010KT CAVOK 11/04 Q1021=
201811100930 METAR LRIA 100930Z 12010KT CAVOK 12/04 Q1021=
201811101000 METAR LRIA 101000Z 12010KT CAVOK 13/04 Q1020=
201811101030 METAR LRIA 101030Z 16009KT 140V200 CAVOK 14/04 Q1020=
201811101100 METAR LRIA 101100Z 13012KT CAVOK 14/03 Q1020=
201811101130 METAR LRIA 101130Z 14013KT CAVOK 14/03 Q1020=
201811101200 METAR LRIA 101200Z 14011KT CAVOK 15/02 Q1019=
201811101230 METAR LRIA 101230Z 14010KT CAVOK 14/03 Q1019=
201811101300 METAR LRIA 101300Z 15009KT CAVOK 14/03 Q1019=
201811101330 METAR LRIA 101330Z 15009KT CAVOK 13/03 Q1019=
201811101400 METAR LRIA 101400Z 12009KT CAVOK 12/03 Q1020=
201811101430 METAR LRIA 101430Z 12009KT CAVOK 11/03 Q1020=
201811101500 METAR LRIA 101500Z 12009KT CAVOK 10/03 Q1020=
201811101530 METAR LRIA 101530Z 11008KT CAVOK 09/03 Q1020=
201811101600 METAR LRIA 101600Z 11008KT CAVOK 09/03 Q1020=
201811101630 METAR LRIA 101630Z 13008KT CAVOK 09/03 Q1020=
201811101700 METAR LRIA 101700Z 12008KT CAVOK 08/02 Q1021=
201811101730 METAR LRIA 101730Z 12010KT CAVOK 08/03 Q1021=
201811101800 METAR LRIA 101800Z 12009KT CAVOK 08/03 Q1021=
201811101830 METAR LRIA 101830Z 12008KT CAVOK 08/03 Q1021=
201811101900 METAR LRIA 101900Z 10009KT CAVOK 07/01 Q1021=
201811101930 METAR LRIA 101930Z 09008KT CAVOK 06/01 Q1021=
201811102000 METAR LRIA 102000Z 10008KT CAVOK 06/01 Q1021=
201811102030 METAR LRIA 102030Z 11007KT CAVOK 06/02 Q1021=
201811102100 METAR LRIA 102100Z 11008KT CAVOK 06/02 Q1021=
201811102130 METAR LRIA 102130Z 11008KT CAVOK 06/03 Q1021=
201811102200 METAR LRIA 102200Z 11009KT CAVOK 06/03 Q1021=
201811102230 METAR LRIA 102230Z 10009KT CAVOK 06/03 Q1021=
201811102300 METAR LRIA 102300Z 10009KT CAVOK 06/03 Q1021=
201811102330 METAR LRIA 102330Z 10009KT CAVOK 05/03 Q1021=
201811110000 METAR LRIA 110000Z 10009KT 7000 NSC 06/04 Q1022=
201811110030 METAR LRIA 110030Z AUTO 10009KT 6000 NCD 06/04 Q1022=
201811110100 METAR COR LRIA 110100Z 09009KT 3600 BR NSC 05/04 Q1022=
201811110130 METAR COR LRIA 110130Z 09009KT 3600 BR NSC 05/04 Q1022=
201811110200 METAR COR LRIA 110200Z 10009KT 2500 BR NSC 05/04 Q1022=
201811110230 METAR LRIA 110230Z AUTO 11010KT 0400 R14/0450N R32/0375N
                        FG NCD 05/04 Q1022=
201811110300 METAR LRIA 110300Z 11009KT 0450 R14/0550N R32/0375N FG NSC
                        05/04 Q1022=
201811110330 METAR COR LRIA 110330Z 12009KT 2000 BR FEW009 05/04 Q1022=
201811110400 METAR COR LRIA 110400Z 11008KT 4600 BR BKN010 05/04 Q1022=
201811110430 METAR LRIA 110430Z 11008KT 6000 BKN011 06/04 Q1022=
201811110500 METAR LRIA 110500Z 11007KT 4000 BR BKN011 05/04 Q1022=
201811110530 METAR LRIA 110530Z 11009KT 5000 BR BKN012 06/04 Q1023=
201811110600 METAR LRIA 110600Z 11009KT 6000 BKN012 06/05 Q1023=
201811110630 METAR LRIA 110630Z 12010KT 7000 BKN012 07/05 Q1023=
201811110700 METAR LRIA 110700Z 11009KT 8000 BKN010 07/05 Q1024=
201811110730 METAR LRIA 110730Z 11010KT 9000 BKN012 08/05 Q1024=
201811110800 METAR LRIA 110800Z 11012KT 7000 BKN013 09/06 Q1024=
201811110830 METAR LRIA 110830Z 12014KT 7000 BKN010 09/06 Q1024=
201811110900 METAR LRIA 110900Z 12015KT 7000 OVC009 09/06 Q1024=
201811110930 METAR LRIA 110930Z 12014KT 6000 OVC009 09/06 Q1024=
201811111000 METAR LRIA 111000Z 12014KT 6000 OVC010 09/06 Q1024=
201811111030 METAR LRIA 111030Z 12013KT 6000 FEW008 OVC013 10/06 Q1024=
201811111100 METAR LRIA 111100Z 12014KT 7000 OVC015 10/06 Q1024=
201811111130 METAR LRIA 111130Z 12013KT 8000 OVC014 10/06 Q1024=
201811111200 METAR LRIA 111200Z 11013KT 8000 OVC015 10/06 Q1024=
201811111230 METAR LRIA 111230Z 12015KT 9999 OVC017 11/06 Q1024=
201811111300 METAR LRIA 111300Z 12016KT 9000 BKN020 10/06 Q1024=
201811111330 METAR LRIA 111330Z 12017KT 9999 SCT018 BKN030 10/06 Q1024=
201811111400 METAR LRIA 111400Z 12017KT 9999 BKN030 10/05 Q1024=
201811111430 METAR LRIA 111430Z 12017KT 9999 BKN030 10/05 Q1024=
201811111500 METAR LRIA 111500Z 12018KT 9999 BKN033 09/05 Q1024=
201811111530 METAR LRIA 111530Z 12017KT 9999 BKN033 09/05 Q1025=
201811111600 METAR LRIA 111600Z 12017KT 9999 BKN030 09/05 Q1025=
201811111630 METAR LRIA 111630Z 11017KT 9999 BKN025 09/04 Q1025=
201811111700 METAR LRIA 111700Z 11017KT 9999 SCT017 BKN025 08/04 Q1026=
201811111730 METAR LRIA 111730Z 11018KT 9999 FEW018 BKN025 08/04 Q1026=
201811111800 METAR LRIA 111800Z 11018KT 9999 BKN022 08/04 Q1026=
201811111830 METAR LRIA 111830Z 11016KT 9999 BKN019 08/04 Q1026=
201811111900 METAR LRIA 111900Z 11016KT 9999 FEW015 OVC019 08/04 Q1027=
201811111930 METAR LRIA 111930Z 11016KT 9999 SCT014 OVC018 07/04 Q1027=
201811112000 METAR LRIA 112000Z 12015KT 8000 BKN014 BKN018 07/03 Q1027=
201811112030 METAR LRIA 112030Z 11015KT 8000 OVC015 07/03 Q1027=
201811112100 METAR LRIA 112100Z 11014KT 8000 OVC014 06/03 Q1027=
201811112130 METAR LRIA 112130Z 11016KT 9999 OVC014 06/02 Q1027=
201811112200 METAR LRIA 112200Z 11016KT 9999 OVC013 06/02 Q1028=
201811112230 METAR LRIA 112230Z 12014KT 9999 OVC013 06/02 Q1027=
201811112300 METAR LRIA 112300Z 12014KT 9999 OVC013 06/02 Q1027=
201811112330 METAR LRIA 112330Z 12014KT 9999 OVC013 06/02 Q1028=
201811120000 METAR LRIA 120000Z 12013KT 9999 OVC013 06/01 Q1027=
201811120030 METAR LRIA 120030Z 11013KT 9999 OVC013 05/01 Q1028=
201811120100 METAR LRIA 120100Z 10010KT 9999 OVC013 05/01 Q1028=
201811120130 METAR LRIA 120130Z 10013KT 9999 OVC013 05/01 Q1028=
201811120200 METAR LRIA 120200Z 11012KT 9999 OVC014 05/01 Q1028=
201811120230 METAR LRIA 120230Z 10012KT 9999 OVC014 05/01 Q1028=
201811120300 METAR LRIA 120300Z 11012KT 9999 OVC013 05/01 Q1028=
201811120330 METAR LRIA 120330Z 10012KT 9999 OVC014 05/01 Q1029=
201811120400 METAR LRIA 120400Z 11011KT 9999 OVC014 05/01 Q1029=
201811120430 METAR LRIA 120430Z 11011KT 9999 OVC014 06/01 Q1029=
201811120500 METAR LRIA 120500Z 11012KT 8000 OVC013 06/01 Q1029=
201811120530 METAR LRIA 120530Z 11011KT 7000 OVC013 06/01 Q1030=
201811120600 METAR LRIA 120600Z 11012KT 7000 OVC013 06/01 Q1030=
201811120630 METAR LRIA 120630Z 11013KT 9000 OVC013 06/01 Q1030=
201811120700 METAR LRIA 120700Z 11012KT 9000 OVC013 06/01 Q1030=
201811120730 METAR LRIA 120730Z 10011KT 9000 OVC013 06/01 Q1031=
201811120800 METAR LRIA 120800Z 11011KT 9000 OVC014 06/01 Q1031=
201811120830 METAR LRIA 120830Z 11013KT 9000 OVC015 07/02 Q1031=
201811120900 METAR LRIA 120900Z 11011KT 9000 OVC016 07/02 Q1031=
201811120930 METAR LRIA 120930Z 12012KT 9999 -RA OVC016 07/02 Q1031=
201811121000 METAR LRIA 121000Z 11011KT 9999 OVC016 07/02 Q1031=
201811121030 METAR LRIA 121030Z 11012KT 9999 OVC015 07/02 Q1031=
201811121100 METAR LRIA 121100Z 11013KT 9999 OVC014 07/02 Q1031=
201811121130 METAR LRIA 121130Z 11013KT 9999 OVC014 07/02 Q1031=
201811121200 METAR LRIA 121200Z 11012KT 9999 OVC014 07/03 Q1031=
201811121230 METAR LRIA 121230Z 11013KT 9999 OVC014 07/03 Q1031=
201811121300 METAR LRIA 121300Z 12012KT 9999 OVC013 07/03 Q1031=
201811121330 METAR LRIA 121330Z 12014KT 9999 FEW010 OVC013 07/03 Q1031=
201811121400 METAR LRIA 121400Z 12013KT 9999 FEW009 BKN012 07/03 Q1032=
201811121430 METAR LRIA 121430Z 12014KT 9999 BKN009 BKN012 07/03 Q1031=
201811121500 METAR LRIA 121500Z 12013KT 9999 BKN009 07/03 Q1032=
201811121530 METAR LRIA 121530Z 12012KT 9999 BKN009 SCT012 06/03 Q1032=
201811121600 METAR LRIA 121600Z 11014KT 9999 SCT009 BKN012 06/03 Q1032=
201811121630 METAR LRIA 121630Z 12015KT 9999 FEW008 BKN009 06/03 Q1033=
201811121700 METAR LRIA 121700Z 12014KT 9999 SCT007 BKN009 06/03 Q1033=
201811121730 METAR LRIA 121730Z 12014KT 9999 OVC008 06/03 Q1033=
201811121800 METAR LRIA 121800Z 12014KT 9999 OVC008 06/03 Q1033=
201811121830 METAR LRIA 121830Z 12015KT 9999 OVC008 05/02 Q1034=
201811121900 METAR LRIA 121900Z 12015KT 9999 OVC008 05/02 Q1034=
201811121930 METAR LRIA 121930Z 11016KT 9999 FEW005 OVC008 05/02 Q1034=
201811122000 METAR LRIA 122000Z 12016KT 9000 OVC005 04/02 Q1034=
201811122030 METAR LRIA 122030Z 12015KT 9999 FEW004 OVC005 04/02 Q1034=
201811122100 METAR LRIA 122100Z 12015KT 9999 OVC004 04/02 Q1034=
201811122130 METAR LRIA 122130Z 12016KT 9999 OVC005 04/02 Q1034=
201811122200 METAR LRIA 122200Z 12015KT 9999 OVC005 04/02 Q1034=
201811122230 METAR LRIA 122230Z 12016KT 9999 OVC004 04/01 Q1034=
201811122300 METAR LRIA 122300Z 12015KT 9999 OVC004 03/01 Q1034=
201811122330 METAR LRIA 122330Z 12015KT 9999 OVC004 03/01 Q1034=
201811130000 METAR LRIA 130000Z 12015KT 9999 OVC004 03/01 Q1034=
201811130030 METAR LRIA 130030Z 12015KT 9999 OVC004 03/01 Q1034=
201811130100 METAR LRIA 130100Z 12015KT 9999 OVC004 03/01 Q1034=
201811130130 METAR LRIA 130130Z 11014KT 9999 OVC004 03/01 Q1034=
201811130200 METAR LRIA 130200Z 11014KT 9999 OVC004 03/01 Q1034=
201811130230 METAR LRIA 130230Z 11015KT 9999 OVC004 03/01 Q1034=
201811130300 METAR LRIA 130300Z 11016KT 8000 OVC004 02/01 Q1034=
201811130330 METAR LRIA 130330Z 11016KT 9999 OVC004 02/00 Q1034=
201811130400 METAR LRIA 130400Z 12015KT 9999 OVC005 02/00 Q1034=
201811130430 METAR LRIA 130430Z 12015KT 9999 OVC006 02/M00 Q1034=
201811130500 METAR LRIA 130500Z 12014KT 9999 OVC006 02/M00 Q1034=
201811130530 METAR LRIA 130530Z 12014KT 9000 OVC007 02/M00 Q1034=
201811130600 METAR LRIA 130600Z 11015KT 9000 OVC006 02/M00 Q1034=
201811130630 METAR LRIA 130630Z 12016KT 9000 OVC007 02/M01 Q1034=
201811130700 METAR LRIA 130700Z 11015KT 9000 FEW005 OVC007 02/M01 Q1035=
201811130730 METAR LRIA 130730Z 11014KT 9000 -DZ FEW005 OVC007 02/M01
                        Q1035=
201811130800 METAR LRIA 130800Z 12015KT 6000 DZ FEW006 OVC007 02/M00 Q1035
                        R14/19//95=
201811130830 METAR LRIA 130830Z 12016KT 8000 -DZ OVC007 02/M00 Q1035 R14/19//95=
201811130900 METAR LRIA 130900Z 12016KT 9000 FEW005 OVC007 02/M01 Q1034
                        R14/19//95=
201811130930 METAR LRIA 130930Z 12016KT 9000 FEW005 OVC007 02/M01 Q1034
                        R14/19//95=
201811131000 METAR LRIA 131000Z 12017KT 9000 SCT006 OVC007 02/M01 Q1034
                        R14/19//95=
201811131030 METAR LRIA 131030Z 11016KT 9000 FEW006 OVC007 02/M01 Q1034
                        R14/CLRD//=
201811131100 METAR LRIA 131100Z 12015KT 9999 FEW006 OVC009 02/M01 Q1034=
201811131130 METAR LRIA 131130Z 12014KT 9999 OVC009 02/M02 Q1033=
201811131200 METAR LRIA 131200Z 12014KT 9999 OVC010 03/M02 Q1033=
201811131230 METAR LRIA 131230Z 11014KT 9999 OVC011 03/M02 Q1033=
201811131300 METAR LRIA 131300Z 12014KT 9999 OVC012 03/M02 Q1033=
201811131330 METAR LRIA 131330Z 12013KT 9999 OVC012 03/M02 Q1033=
201811131400 METAR LRIA 131400Z 11013KT 9999 OVC013 03/M02 Q1033=
201811131430 METAR LRIA 131430Z 11012KT 9999 OVC013 03/M03 Q1032=
201811131500 METAR LRIA 131500Z 11014KT 9999 OVC013 03/M03 Q1032=
201811131530 METAR LRIA 131530Z 11012KT 9999 OVC014 03/M03 Q1032=
201811131600 METAR LRIA 131600Z 11013KT 9999 OVC014 03/M03 Q1032=
201811131630 METAR LRIA 131630Z 12013KT 9999 OVC015 03/M03 Q1032=
201811131700 METAR LRIA 131700Z 11013KT 9999 OVC014 03/M03 Q1032=
201811131730 METAR LRIA 131730Z 11014KT 9999 OVC015 03/M03 Q1032=
201811131800 METAR LRIA 131800Z 11010KT 9999 OVC015 03/M03 Q1032=
201811131830 METAR LRIA 131830Z 11012KT 9999 OVC015 03/M03 Q1031=
201811131900 METAR LRIA 131900Z 12011KT 9999 OVC016 03/M03 Q1031=
201811131930 METAR LRIA 131930Z 12011KT 9999 BKN018 03/M03 Q1031=
201811132000 METAR LRIA 132000Z 12012KT 9999 FEW017 OVC023 03/M03 Q1031=
201811132030 METAR COR LRIA 132030Z 12011KT 9999 BKN019 03/M03 Q1031=
201811132100 METAR LRIA 132100Z 11012KT 9999 OVC018 02/M04 Q1030=
201811132130 METAR LRIA 132130Z 12014KT 9999 OVC018 02/M04 Q1030=
201811132200 METAR LRIA 132200Z 12013KT 9999 OVC017 02/M04 Q1029=
201811132230 METAR LRIA 132230Z 12012KT 9999 BKN016 OVC026 01/M04 Q1029=
201811132300 METAR LRIA 132300Z 12012KT 9999 OVC017 01/M03 Q1029=
201811132330 METAR LRIA 132330Z AUTO 12014KT 9999 OVC017/// 01/M04 Q1028=
201811140000 METAR LRIA 140000Z 11012KT 9999 OVC016 01/M04 Q1028=
201811140030 METAR LRIA 140030Z 11011KT 9999 OVC015 01/M04 Q1028=
201811140100 METAR COR LRIA 140100Z 12013KT 9999 BKN015 01/M04 Q1028=
201811140130 METAR LRIA 140130Z 12013KT 9999 BKN013 01/M04 Q1027=
201811140200 METAR COR LRIA 140200Z 12011KT 9999 OVC013 01/M04 Q1027=
201811140230 METAR LRIA 140230Z 11012KT 9999 OVC012 01/M04 Q1027=
201811140300 METAR LRIA 140300Z 12012KT 9999 OVC011 01/M03 Q1027=
201811140330 METAR LRIA 140330Z AUTO 12015KT 9999 OVC012/// 01/M03 Q1026=
201811140400 METAR LRIA 140400Z 12012KT 9999 OVC012 01/M03 Q1026=
201811140430 METAR COR LRIA 140430Z 12010KT 9999 OVC012 01/M03 Q1026=
201811140500 METAR LRIA 140500Z 11009KT 9999 OVC011 01/M03 Q1027=
201811140530 METAR LRIA 140530Z 12011KT 9999 OVC011 01/M03 Q1027=
201811140600 METAR LRIA 140600Z 11010KT 9999 OVC012 01/M03 Q1027=
201811140630 METAR LRIA 140630Z 12008KT 9999 OVC012 01/M03 Q1027=
201811140700 METAR LRIA 140700Z 12008KT 9999 -RA OVC010 01/M02 Q1027=
201811140730 METAR LRIA 140730Z 12007KT 9999 -RA OVC009 02/M02 Q1027=
201811140800 METAR COR LRIA 140800Z 11007KT 9999 -RA OVC010 02/M02 Q1027
                        R14/19//95=
201811140830 METAR LRIA 140830Z 11006KT 9999 -RA OVC010 02/M01 Q1027 R14/19//95=
201811140900 METAR LRIA 140900Z 10006KT 9000 -RA OVC010 02/M01 Q1027 R14/29//95=
201811140930 METAR LRIA 140930Z 10006KT 8000 -RA OVC013 02/M00 Q1026 R14/29//95=
201811141000 METAR LRIA 141000Z 11005KT 8000 -RA OVC013 02/M00 Q1026 R14/29//95=
201811141030 METAR LRIA 141030Z 11006KT 7000 -RA OVC012 02/00 Q1026 R14/29//95=
201811141100 METAR LRIA 141100Z 11007KT 7000 -RA OVC013 02/00 Q1026 R14/29//95=
201811141130 METAR LRIA 141130Z 10006KT 8000 FEW005 OVC012 03/01 Q1026
                        R14/29//95=
201811141200 METAR LRIA 141200Z 10005KT 7000 -RA OVC010 03/01 Q1025 R14/29//95=
201811141230 METAR COR LRIA 141230Z 11006KT 5000 -RA BR OVC009 03/01 Q1025
                        R14/29//95=
201811141300 METAR LRIA 141300Z 10003KT 5000 -RA BR OVC009 03/01 Q1025
                        R14/29//95=
201811141330 METAR LRIA 141330Z 09005KT 6000 -RA OVC009 03/01 Q1025 R14/29//95=
201811141400 METAR LRIA 141400Z 11005KT 6000 OVC008 03/01 Q1025 R14/29//95=
201811141430 METAR LRIA 141430Z 10006KT 6000 OVC009 03/01 Q1025 R14/29//95=
201811141500 METAR LRIA 141500Z 10004KT 6000 OVC008 03/01 Q1025 R14/29//95=
201811141530 METAR LRIA 141530Z 09005KT 6000 OVC008 03/01 Q1025 R14/29//95=
201811141600 METAR LRIA 141600Z 07004KT 6000 OVC007 03/01 Q1025 R14/29//95=
201811141630 METAR LRIA 141630Z 10002KT 5000 BR OVC006 03/01 Q1025 R14/29//95=
201811141700 METAR LRIA 141700Z VRB02KT 6000 OVC006 03/01 Q1025 R14/29//95=
201811141730 METAR LRIA 141730Z 08001KT 5000 BR FEW006 SCT040 03/01 Q1025
                        R14/29//95=
201811141800 METAR LRIA 141800Z 10002KT 080V160 5000 BR FEW025 BKN036
                        03/01 Q1025 R14/29//95=
201811141830 METAR LRIA 141830Z 00000KT 6000 FEW004 SCT044 03/01 Q1025
                        R14/29//95=
201811141900 METAR LRIA 141900Z VRB01KT 7000 FEW011 SCT019 BKN043 03/01
                        Q1025 R14/29//95=
201811141930 METAR LRIA 141930Z 00000KT 4200 BR FEW010 SCT048 02/01 Q1024
                        R14/29//95=
201811142000 METAR LRIA 142000Z 00000KT 4500 BR SCR014 BKN033 02/00 Q1024
                        R14/29//95=
201811142030 METAR LRIA 142030Z 00000KT 5000 BR FEW011 SCT031 03/01 Q1024
                        R14/29//95=
201811142100 METAR LRIA 142100Z 28004KT 4600 BR FEW014 SCT033 03/01 Q1024
                        R14/29//95=
201811142130 METAR LRIA 142130Z 27004KT 2400 BR FEW003 SCT029 BKN037 02/00
                        Q1024 R14/29//95=
201811142200 METAR LRIA 142200Z 26005KT 3400 BR SCT002 SCT029 BKN037 03/02
                        Q1024 R14/29//95=
201811142230 METAR LRIA 142230Z 31008KT 5000 BR SCT002 BKN048 04/03 Q1024
                        R14/29//95=
201811142300 METAR LRIA 142300Z 29007KT 6000 FEW002 SCT024 04/02 Q1024
                        R14/29//95=
201811142330 METAR LRIA 142330Z 31008KT 7000 FEW022 SCT035 05/03 Q1024
                        R14/29//95=
201811150000 METAR LRIA 150000Z 31006KT 8000 -RA SCT013 BKN022 05/03 Q1023
                        R14/29//95=
201811150030 METAR LRIA 150030Z 32007KT 9000 -RA FEW013 BKN031 06/04 Q1023
                        R14/29//95=
201811150100 METAR LRIA 150100Z 32008KT 8000 -RA FEW017 SCT035 BKN044
                        06/04 Q1023 R14/29//95=
201811150130 METAR LRIA 150130Z 33007KT 8000 FEW017 BKN029 06/04 Q1023
                        R14/29//95=
201811150200 METAR LRIA 150200Z 33007KT 8000 -RA FEW005 SCT016 BKN031
                        06/04 Q1023 R14/29//95=
201811150230 METAR LRIA 150230Z 33007KT 5000 -RA BR FEW005 SCT019 BKN024
                        06/04 Q1023 R14/29//95=
201811150300 METAR LRIA 150300Z 33008KT 6000 -RA FEW003 SCT006 BKN031
                        06/05 Q1023 R14/29//95=
201811150330 METAR LRIA 150330Z 34010KT 8000 -RA FEW003 SCT017 BKN031
                        06/05 Q1023 R14/29//95=
201811150400 METAR LRIA 150400Z 34010KT 9000 -RA FEW003 BKN013 06/05 Q1023
                        R14/29//95=
201811150430 METAR LRIA 150430Z 33010KT 9000 -RA FEW003 SCT012 BKN023
                        06/05 Q1024 R14/29//95=
201811150500 METAR LRIA 150500Z 34011KT 9000 -RA FEW004 SCT026 BKN040
                        06/05 Q1024 R14/29//95=
201811150530 METAR LRIA 150530Z 34008KT 9000 -RA SCT010 OVC027 06/05 Q1024
                        R14/29//95=
201811150600 METAR LRIA 150600Z 34008KT 9000 -RA BKN012 OVC030 06/05 Q1025
                        R14/29//95=
201811150630 METAR LRIA 150630Z 33007KT 9000 -RA SCT004 BKN015 OVC030
                        06/05 Q1025 R14/29//95=
201811150700 METAR LRIA 150700Z 33008KT 7000 -RA SCT004 BKN017 06/05 Q1025
                        R14/29//95=
201811150730 METAR LRIA 150730Z 34009KT 8000 -RA SCT005 BKN015 07/05 Q1025
                        R14/29//95=
201811150800 METAR LRIA 150800Z 34010KT 8000 -RA SCT007 BKN015 07/05 Q1025
                        R14/29//95=
201811150830 METAR LRIA 150830Z 35008KT 8000 -RA BKN009 07/05 Q1025 R14/29//95=
201811150900 METAR LRIA 150900Z 36007KT 8000 -RA SCT004 BKN009 07/05 Q1025
                        R14/29//95=
201811150930 METAR LRIA 150930Z 06006KT 6000 -RA FEW002 BKN004 06/04 Q1025
                        R14/29//95=
201811151000 METAR LRIA 151000Z 05009KT 8000 -RA SCT004 BKN009 06/04 Q1025
                        R14/29//95=
201811151030 METAR COR LRIA 151030Z 03009KT 9000 -RA SCT009 BKN020 06/04
                        Q1025 R14/29//95=
201811151100 METAR LRIA 151100Z 03011KT 9999 SCT010 BKN040 06/04 Q1025
                        R14/29//95=
201811151130 METAR LRIA 151130Z 04010KT 9999 FEW012 SCT030 07/03 Q1025
                        R14/29//95=
201811151200 METAR LRIA 151200Z 03012KT 9999 FEW012 07/03 Q1025 R14/29//95=
201811151230 METAR LRIA 151230Z 04011KT 9999 SCT022 07/03 Q1025 R14/29//95=
201811151300 METAR LRIA 151300Z 04012KT 9999 SCT022 07/03 Q1025 R14/29//95=
201811151330 METAR LRIA 151330Z 04012KT 9999 FEW022 06/02 Q1026 R14/29//95=
201811151400 METAR LRIA 151400Z 04010KT 9999 SCT017 06/02 Q1026 R14/29//95=
201811151430 METAR LRIA 151430Z 04009KT 9999 SCT015 05/02 Q1026 R14/29//95=
201811151500 METAR LRIA 151500Z 04011KT 9999 -RA FEW015 BKN040 05/02 Q1027
                        R14/29//95=
201811151530 METAR LRIA 151530Z 03009KT 9999 -RA SCT010 BKN027 04/02 Q1027
                        R14/29//95=
201811151600 METAR LRIA 151600Z 03009KT 9999 -RA SCT010 BKN033 04/02 Q1027
                        R14/29//95=
201811151630 METAR LRIA 151630Z 03007KT 9999 -RA SCT010 OVC040 04/02 Q1027
                        R14/29//95=
201811151700 METAR LRIA 151700Z 02007KT 9999 -RA SCT010 OVC033 04/02 Q1028
                        R14/29//95=
201811151730 METAR LRIA 151730Z 01007KT 9999 -RA SCT008 OVC030 04/02 Q1028
                        R14/29//95=
201811151800 METAR LRIA 151800Z 02006KT 9999 -RA BKN009 OVC030 04/02 Q1028
                        R14/29//95=
201811151830 METAR LRIA 151830Z 03008KT 9999 -RA FEW007 BKN012 OVC030
                        04/02 Q1028 R14/29//95=
201811151900 METAR LRIA 151900Z 04009KT 9999 FEW007 BKN013 04/02 Q1029
                        R14/29//95=
201811151930 METAR LRIA 151930Z 04006KT 9999 FEW007 BKN015 BKN019 04/02
                        Q1029 R14/29//95=
201811152000 METAR LRIA 152000Z 02005KT 350V060 9999 SCT012 BKN028 04/02
                        Q1029 R14/29//95=
201811152030 METAR LRIA 152030Z 36006KT 9999 FEW012 OVC026 04/02 Q1029
                        R14/29//95=
201811152100 METAR LRIA 152100Z 32004KT 9999 FEW007 OVC027 04/02 Q1029
                        R14/29//95=
201811152130 METAR LRIA 152130Z 33004KT 9999 SCT007 OVC027 04/02 Q1029
                        R14/29//95=
201811152200 METAR LRIA 152200Z 01007KT 340V040 9999 BKN008 OVC030 04/02
                        Q1029 R14/29//95=
201811152230 METAR LRIA 152230Z 06011KT 9999 FEW007 OVC009 03/01 Q1030
                        R14/29//95=
201811152300 METAR LRIA 152300Z 05011KT 9999 OVC009 03/00 Q1030 R14/29//95=
201811152330 METAR LRIA 152330Z 04009KT 9999 BKN010 03/M00 Q1030 R14/29//95=
201811160000 METAR LRIA 160000Z 04010KT 9999 SCT012 02/M01 Q1030 R14/29//95=
201811160030 METAR LRIA 160030Z 02008KT 9999 FEW012 02/M01 Q1031 R14/29//95=
201811160100 METAR LRIA 160100Z 01009KT 9999 FEW012 02/M02 Q1031 R14/29//95=
201811160130 METAR LRIA 160130Z 36009KT 9999 FEW012 02/M02 Q1031 R14/29//95=
201811160200 METAR COR LRIA 160200Z 01010KT CAVOK 01/M02 Q1031 R14/29//95=
201811160230 METAR LRIA 160230Z 36010KT CAVOK 01/M02 Q1031 R14/29//95=
201811160300 METAR LRIA 160300Z 36012KT CAVOK 01/M02 Q1031 R14/29//95=
201811160330 METAR COR LRIA 160330Z 36011KT CAVOK 01/M03 Q1031 R14/19//95=
201811160400 METAR LRIA 160400Z 36013KT CAVOK 01/M03 Q1031 R14/19//95=
201811160430 METAR LRIA 160430Z 36011KT CAVOK 01/M03 Q1031 R14/19//95=
201811160500 METAR LRIA 160500Z 35013KT CAVOK 00/M04 Q1031 R14/19//95=
201811160530 METAR LRIA 160530Z 35011KT CAVOK 00/M04 Q1032 R14/19//95=
201811160600 METAR LRIA 160600Z 35012KT CAVOK 00/M04 Q1032 R14/19//95=
201811160630 METAR LRIA 160630Z 35014KT CAVOK 00/M03 Q1032 R14/19//95=
201811160700 METAR LRIA 160700Z 35011KT 9999 BKN088 01/M04 Q1032 R14/19//95=
201811160730 METAR LRIA 160730Z 35014KT CAVOK 01/M04 Q1032 R14/19//95=
201811160800 METAR LRIA 160800Z 35013KT CAVOK 01/M05 Q1033 R14/19//95=
201811160830 METAR LRIA 160830Z 35012KT CAVOK 01/M05 Q1033 R14/19//95=
201811160900 METAR LRIA 160900Z 35013KT CAVOK 01/M06 Q1033 R14/19//95=
201811160930 METAR LRIA 160930Z 35013KT CAVOK 02/M06 Q1033 R14/19//95=
201811161000 METAR LRIA 161000Z 34013KT CAVOK 02/M07 Q1033 R14/19//95=
201811161030 METAR LRIA 161030Z 36014KT CAVOK 02/M07 Q1032 R14/19//95=
201811161100 METAR LRIA 161100Z 33010KT CAVOK 02/M07 Q1032 R14/19//95=
201811161130 METAR LRIA 161130Z 35015KT CAVOK 03/M07 Q1032 R14/19//95=
201811161200 METAR LRIA 161200Z 36014KT CAVOK 03/M07 Q1032 R14/19//95=
201811161230 METAR LRIA 161230Z 35013KT CAVOK 03/M07 Q1032 R14/19//95=
201811161300 METAR LRIA 161300Z 35011KT CAVOK 03/M06 Q1032 R14/CLRD//=
201811161330 METAR LRIA 161330Z 35011KT 9999 FEW032 03/M06 Q1032=
201811161400 METAR LRIA 161400Z 34012KT 9999 SCT038 03/M06 Q1032=
201811161430 METAR LRIA 161430Z 35013KT 9999 BKN037 03/M06 Q1032=
201811161500 METAR LRIA 161500Z 35015KT 9999 BKN035 03/M06 Q1032=
201811161530 METAR LRIA 161530Z 35012KT 9999 OVC034 03/M06 Q1032=
201811161600 METAR LRIA 161600Z 36012KT 9999 OVC036 03/M06 Q1032=
201811161630 METAR LRIA 161630Z 03012KT 9999 -SN BKN036 OVC046 02/M05
                        Q1033=
201811161700 METAR LRIA 161700Z 05015KT 9999 -SN FEW028 OVC039 01/M04
                        Q1033=
201811161730 METAR LRIA 161730Z 04012KT 5000 -SN SCT015 BKN044 01/M04
                        Q1033=
201811161800 METAR LRIA 161800Z 05011KT 7000 -SN SCT025 00/M04 Q1034 R14/19//95=
201811161830 METAR LRIA 161830Z 03010KT 7000 -SN SCT015 SCT045 M00/M03
                        Q1034 R14/29//95=
201811161900 METAR LRIA 161900Z 02011KT 4000 SN SCT010 BKN033 M00/M03
                        Q1034 R14/29//95=
201811161930 METAR LRIA 161930Z 01009KT 4000 SN BKN010 BKN025 M01/M03
                        Q1034 R14/29//95=
201811162000 METAR LRIA 162000Z 01009KT 6000 -SN BKN010 OVC030 M01/M03
                        Q1034 RESN R14/29//95=
201811162030 METAR LRIA 162030Z 36010KT 6000 -SN SCT017 BKN033 M01/M03
                        Q1034 R14/29//95=
201811162100 METAR LRIA 162100Z 36011KT 5000 -SN SCT010 BKN033 M01/M03
                        Q1034 R14/29//95=
201811162130 METAR LRIA 162130Z 36010KT 2000 SN SCT010 BKN025 M01/M03
                        Q1034 R14/29//95=
201811162200 METAR COR LRIA 162200Z 36010KT 1500 SN BKN008 OVC025 M01/M03
                        Q1034 R14/29//95=
201811162230 METAR LRIA 162230Z 36010KT 1500 SN VV006 M01/M03 Q1034 R14/29//95=
201811162300 METAR LRIA 162300Z 01010KT 1800 SN VV006 M01/M03 Q1035 R14/690195=
201811162330 METAR LRIA 162330Z 01010KT 3000 SN BKN008 OVC027 M01/M03
                        Q1035 R14/690195=
201811170000 METAR LRIA 170000Z 01010KT 4000 SN BKN009 OVC030 M01/M03
                        Q1035 R14/690195=
201811170030 METAR LRIA 170030Z 36010KT 3000 SN BKN008 OVC033 M01/M03
                        Q1035 R14/690195=
201811170100 METAR LRIA 170100Z 36010KT 3000 SN BKN008 OVC033 M01/M03
                        Q1035 R14/690195=
201811170130 METAR LRIA 170130Z 36010KT 5000 -SN BKN011 OVC040 M01/M03
                        Q1035 RESN R14/690195=
201811170200 METAR LRIA 170200Z 36009KT 8000 -SN SCT015 OVC040 M01/M03
                        Q1035 R14/690195=
201811170230 METAR LRIA 170230Z 34009KT 9999 OVC035 M01/M03 Q1035 R14/690195=
201811170300 METAR LRIA 170300Z 33006KT 9999 BKN045 M01/M03 Q1035 R14/690195=
201811170330 METAR LRIA 170330Z 33007KT 9999 SCT045 M01/M03 Q1035 R14/29//95=
201811170400 METAR LRIA 170400Z 34008KT 9999 -SN BKN033 M01/M03 Q1035
                        R14/29//95=
201811170430 METAR LRIA 170430Z 34008KT 9999 BKN033 M01/M03 Q1035 R14/29//95=
201811170500 METAR LRIA 170500Z 34007KT 9999 OVC045 M01/M03 Q1035 R14/29//95=
201811170530 METAR LRIA 170530Z 34006KT 9999 OVC045 M01/M03 Q1035 R14/29//95=
201811170600 METAR LRIA 170600Z 34006KT 9999 OVC045 M01/M04 Q1035 R14/29//95=
201811170630 METAR LRIA 170630Z 34006KT 9999 OVC045 M01/M04 Q1035 R14/29//95=
201811170700 METAR LRIA 170700Z 34006KT 9999 OVC039 M00/M04 Q1035 R14/29//95=
201811170730 METAR LRIA 170730Z 35007KT 9999 OVC037 00/M04 Q1035 R14/29//95=
201811170800 METAR LRIA 170800Z 34005KT 9999 OVC034 00/M04 Q1035 R14/29//95=
201811170830 METAR LRIA 170830Z 36006KT 9999 OVC033 00/M05 Q1036 R14/29//95=
201811170900 METAR LRIA 170900Z 36006KT 9999 OVC033 00/M04 Q1035 R14/29//95=
201811170930 METAR LRIA 170930Z 34006KT 9999 OVC033 00/M04 Q1035 R14/29//95=
201811171000 METAR COR LRIA 171000Z 33005KT 9999 OVC034 00/M04 Q1035 R14/29//95=
201811171030 METAR LRIA 171030Z 34007KT 9999 OVC034 00/M04 Q1035 R14/29//95=
201811171100 METAR LRIA 171100Z 31005KT 9999 OVC033 00/M04 Q1035 R14/29//95=
201811171130 METAR LRIA 171130Z 33006KT 9999 OVC034 00/M04 Q1035 R14/29//95=
201811171200 METAR COR LRIA 171200Z 34007KT 9999 BKN032 SCT041 01/M04
                        Q1035 R14/29//95=
201811171230 METAR LRIA 171230Z 33005KT 9999 OVC031 01/M04 Q1035 R14/29//95=
201811171300 METAR LRIA 171300Z 34006KT 9999 FEW021 OVC032 00/M05 Q1035
                        R14/29//95=
201811171330 METAR LRIA 171330Z 34004KT 9999 FEW021 OVC032 00/M04 Q1035
                        R14/29//95=
201811171400 METAR COR LRIA 171400Z 34005KT 9999 OVC030 00/M04 Q1035 R14/29//95=
201811171430 METAR LRIA 171430Z 34005KT 9999 OVC030 00/M04 Q1035 R14/29//95=
201811171500 METAR LRIA 171500Z 34004KT 320V020 9999 BKN022 BKN028 00/M04
                        Q1035 R14/19//95=
201811171530 METAR LRIA 171530Z 01005KT 9999 BKN020 00/M04 Q1035 R14/19//95=
201811171600 METAR LRIA 171600Z 36005KT 9999 FEW012 BKN020 00/M03 Q1035
                        R14/19//95=
201811171630 METAR COR LRIA 171630Z 35005KT 9999 SCT019 OVC026 M00/M03
                        Q1035 R14/19//95=
201811171700 METAR LRIA 171700Z 33003KT 300V030 9999 BKN015 OVC025 M00/M03
                        Q1035 R14/19//95=
201811171730 METAR LRIA 171730Z 31004KT 9999 BKN013 BKN025 M00/M03 Q1035
                        R14/19//95=
201811171800 METAR LRIA 171800Z 32004KT 9999 SCT012 BKN016 M00/M03 Q1034
                        R14/19//95=
201811171830 METAR LRIA 171830Z 33005KT 9999 SCT012 BKN016 M00/M03 Q1034
                        R14/19//95=
201811171900 METAR LRIA 171900Z 33004KT 9000 FEW014 BKN018 M00/M03 Q1034
                        R14/19//95=
201811171930 METAR LRIA 171930Z 33004KT 9000 SCT015 BKN019 M00/M03 Q1034
                        R14/19//95=
201811172000 METAR LRIA 172000Z 30004KT 9000 BKN014 OVC021 M00/M03 Q1034
                        R14/19//95=
201811172030 METAR LRIA 172030Z 31002KT 9000 BKN013 OVC017 M00/M02 Q1034
                        R14/19//95=
201811172100 METAR LRIA 172100Z 31004KT 8000 SCT013 BKN017 M00/M03 Q1034
                        R14/19//95=
201811172130 METAR LRIA 172130Z 31003KT 8000 SCT013 BKN017 OVC020 M00/M03
                        Q1034 R14/19//95=
201811172200 METAR LRIA 172200Z 33004KT 9000 FEW008 SCT010 BKN017 M00/M02
                        Q1034 R14/19//95=
201811172230 METAR LRIA 172230Z 30004KT 8000 FEW004 BKN012 M00/M03 Q1033
                        R14/19//95=
201811172300 METAR LRIA 172300Z 31004KT 8000 FEW005 SCT012 BKN026 M00/M03
                        Q1033 R14/19//95=
201811172330 METAR LRIA 172330Z 33003KT 9000 SCT010 BKN013 M00/M03 Q1033
                        R14/19//95=
201811180000 METAR LRIA 180000Z 30004KT 7000 FEW008 BKN009 OVC023 M00/M03
                        Q1033 R14/19//95=
201811180030 METAR LRIA 180030Z 33003KT 7000 FEW006 SCT008 BKN014 M00/M03
                        Q1033 R14/19//95=
201811180100 METAR LRIA 180100Z 33004KT 7000 BKN006 OVC010 M00/M03 Q1032
                        R14/19//95=
201811180130 METAR LRIA 180130Z 33005KT 6000 SCT005 BKN007 M01/M03 Q1032
                        R14/19//95=
201811180200 METAR LRIA 180200Z 30005KT 6000 FEW004 BKN007 M01/M03 Q1031
                        R14/19//95=
201811180230 METAR LRIA 180230Z 32003KT 6000 SCT005 BKN007 M01/M03 Q1031
                        R14/19//95=
201811180300 METAR LRIA 180300Z 32003KT 8000 SCT005 BKN007 M01/M03 Q1031
                        R14/19//95=
201811180330 METAR LRIA 180330Z 29004KT 7000 FEW005 BKN022 M01/M03 Q1031
                        R14/19//95=
201811180400 METAR LRIA 180400Z 28005KT 7000 BKN007 OVC023 M01/M03 Q1030
                        R14/19//95=
201811180430 METAR LRIA 180430Z 35003KT 300V020 8000 FEW004 SCT011 BKN022
                        M01/M03 Q1030 R14/19//95=
201811180500 METAR LRIA 180500Z 31003KT 8000 FEW005 SCT012 BKN023 M01/M03
                        Q1030 R14/19//95=
201811180530 METAR LRIA 180530Z 30002KT 280V340 8000 FEW007 SCT014 BKN022
                        M01/M03 Q1030 R14/19//95=
201811180600 METAR LRIA 180600Z VRB01KT 8000 FEW006 OVC007 M01/M03 Q1030
                        R14/19//95=
201811180630 METAR LRIA 180630Z 29003KT 7000 -SN BKN007 BKN019 M00/M03
                        Q1029 R14/19//95=
201811180700 METAR LRIA 180700Z 27004KT 7000 FEW008 OVC019 M00/M02 Q1029
                        R14/19//95=
201811180730 METAR LRIA 180730Z 27004KT 7000 -SN FEW007 OVC019 M00/M02
                        Q1029 R14/19//95=
201811180800 METAR LRIA 180800Z 27006KT 8000 SCT007 OVC019 00/M02 Q1029
                        R14/19//95=
201811180830 METAR LRIA 180830Z 29003KT 260V340 8000 BKN006 OVC019 00/M02
                        Q1028 R14/19//95=
201811180900 METAR LRIA 180900Z 31004KT 280V340 7000 BKN007 OVC018 00/M03
                        Q1028 R14/19//95=
201811180930 METAR COR LRIA 180930Z 29004KT 260V340 7000 BKN007 OVC018
                        00/M02 Q1027 R14/19//95=
201811181000 METAR LRIA 181000Z 33003KT 7000 BKN007 OVC018 00/M02 Q1027
                        R14/19//95=
201811181030 METAR LRIA 181030Z 00000KT 8000 BKN006 OVC018 01/M02 Q1027
                        R14/19//95=
201811181100 METAR LRIA 181100Z 01003KT 7000 BKN007 OVC018 01/M02 Q1026
                        R14/19//95=
201811181130 METAR LRIA 181130Z VRB01KT 7000 BKN007 OVC018 01/M02 Q1026
                        R14/19//95=
201811181200 METAR LRIA 181200Z VRB02KT 7000 BKN007 OVC019 01/M02 Q1026
                        R14/19//95=
201811181230 METAR LRIA 181230Z 00000KT 8000 BKN007 OVC018 01/M02 Q1025
                        R14/19//95=
201811181300 METAR LRIA 181300Z 00000KT 8000 BKN011 OVC018 01/M02 Q1025
                        R14/19//95=
201811181330 METAR LRIA 181330Z 00000KT 8000 BKN011 OVC019 01/M02 Q1025
                        R14/19//95=
201811181400 METAR LRIA 181400Z 30001KT 8000 SCT009 OVC017 01/M02 Q1024
                        R14/19//95=
201811181430 METAR LRIA 181430Z 00000KT 8000 FEW009 OVC016 01/M02 Q1024
                        R14/19//95=
201811181500 METAR LRIA 181500Z 00000KT 8000 OVC017 01/M02 Q1024 R14/19//95=
201811181530 METAR LRIA 181530Z VRB01KT 9999 OVC017 01/M03 Q1024 R14/19//95=
201811181600 METAR LRIA 181600Z 04003KT 350V070 9999 OVC017 01/M03 Q1024
                        R14/19//95=
201811181630 METAR LRIA 181630Z VRB01KT 9999 SCT013 OVC017 01/M03 Q1024
                        R14/19//95=
201811181700 METAR LRIA 181700Z VRB01KT 9999 OVC012 01/M03 Q1024 R14/19//95=
201811181730 METAR LRIA 181730Z 00000KT 9999 OVC010 01/M03 Q1024 R14/19//95=
201811181800 METAR LRIA 181800Z 11004KT 9999 BKN010 01/M02 Q1023 R14/19//95=
201811181830 METAR LRIA 181830Z 10004KT 9999 OVC010 01/M02 Q1023 R14/19//95=
201811181900 METAR LRIA 181900Z 06005KT 9999 OVC010 01/M03 Q1023 R14/19//95=
201811181930 METAR LRIA 181930Z 12004KT 070V150 9999 OVC011 01/M03 Q1023
                        R14/19//95=
201811182000 METAR COR LRIA 182000Z 10004KT 9999 OVC011 01/M03 Q1022 R14/19//95=
201811182030 METAR LRIA 182030Z 11003KT 9999 OVC011 01/M03 Q1022 R14/19//95=
201811182100 METAR LRIA 182100Z 15003KT 9999 BKN011 SCT014 01/M03 Q1022
                        R14/19//95=
201811182130 METAR LRIA 182130Z 16003KT 9999 OVC013 01/M03 Q1022 R14/19//95=
201811182200 METAR COR LRIA 182200Z 00000KT 9999 OVC012 01/M02 Q1022 R14/19//95=
201811182230 METAR LRIA 182230Z 00000KT 9999 BKN011 01/M03 Q1022 R14/19//95=
201811182300 METAR LRIA 182300Z 00000KT 9999 OVC011 01/M02 Q1022 R14/19//95=
201811182330 METAR LRIA 182330Z 00000KT 9999 OVC011 01/M02 Q1022 R14/19//95=
201811190000 METAR LRIA 190000Z 03002KT 9999 OVC011 01/M02 Q1022 R14/19//95=
201811190030 METAR LRIA 190030Z 02003KT 9999 OVC011 01/M02 Q1021 R14/19//95=
201811190100 METAR COR LRIA 190100Z 04004KT 9999 OVC013 01/M02 Q1021 R14/19//95=
201811190130 METAR COR LRIA 190130Z 05005KT 9999 OVC012 01/M02 Q1020 R14/19//95=
201811190200 METAR COR LRIA 190200Z 04004KT 9999 BKN016 01/M02 Q1020 R14/19//95=
201811190230 METAR LRIA 190230Z 05003KT 9999 SCT017 01/M02 Q1020 R14/19//95=
201811190300 METAR COR LRIA 190300Z 01002KT 9000 -SN SCT035 01/M02 Q1020
                        R14/19//95=
201811190330 METAR COR LRIA 190330Z 03005KT 3200 -SN BR SCT019 00/M02
                        Q1020 R14/19//95=
201811190400 METAR LRIA 190400Z 03007KT 3300 -SN BR SCT016 M00/M02 Q1019
                        R14/690195=
201811190430 METAR LRIA 190430Z 04006KT 2000 -SN BR SCT003 BKN010 M00/M02
                        Q1019 R14/690195=
201811190500 METAR LRIA 190500Z 04007KT 2000 SN BR FEW002 SCT013 M00/M02
                        Q1019 R14/690195=
201811190530 METAR LRIA 190530Z 04008KT 1500 SN BR VV010 M01/M02 Q1019
                        R14/590294=
201811190600 METAR LRIA 190600Z 02007KT 1500 SN BR VV006 M01/M03 Q1019
                        R14/590294=
201811190630 METAR LRIA 190630Z 03009KT 1500 SN BR VV006 M01/M03 Q1019
                        R14/590294=
201811190700 METAR LRIA 190700Z 36009KT 1500 SN BR VV006 M01/M03 Q1019
                        R14/590294=
201811190730 METAR LRIA 190730Z 36010KT 1500 SN BR BKN005 OVC020 M01/M02
                        Q1018 R14/590294=
201811190800 METAR LRIA 190800Z 36010KT 2000 SN BR BKN006 OVC020 M01/M02
                        Q1018 R14/590294=
201811190830 METAR LRIA 190830Z 36011KT 1800 SN BR BKN005 OVC020 M00/M02
                        Q1018 R14/590294=
201811190900 METAR LRIA 190900Z 36011KT 1500 SN BR BKN004 OVC018 M00/M02
                        Q1017 R14/590294=
201811190930 METAR LRIA 190930Z 01011KT 1500 SN BR BKN005 OVC019 00/M01
                        Q1017 R14/590294=
201811191000 METAR COR LRIA 191000Z 01010KT 1200 R14/1900 R32/1600 +SN
                        BR VV005 00/M01 Q1017 R14/590294=
201811191030 METAR LRIA 191030Z 01010KT 1500 SN BR VV004 00/M01 Q1016
                        RESN R14/590294=
201811191100 METAR LRIA 191100Z 36010KT 1000 R14/1300 R32/1500 +SN BR
                        VV004 00/M01 Q1016 R14/590294=
201811191130 METAR LRIA 191130Z 36012KT 1500 SN BR BKN004 OVC018 00/M01
                        Q1016 RESN R14/590294=
201811191200 METAR LRIA 191200Z 35011KT 1500 SN BR VV004 00/M01 Q1016
                        R14/590294=
201811191230 METAR LRIA 191230Z 34010KT 1000 R14/1600N R32/1500N +SN BR
                        VV004 00/M01 Q1017 R14/590294=
201811191300 METAR LRIA 191300Z 35013KT 0900 R14/1600N R32/1600D +SN BR
                        VV004 00/M01 Q1017 R14/590294=
201811191330 METAR LRIA 191330Z 35013KT 0700 R14/1500N R32/1000D +SN BR
                        VV003 00/M01 Q1017 R14/590294=
201811191400 METAR LRIA 191400Z 34016KT 0600 R14/1500N R32/1100N +SN BR
                        VV003 M00/M01 Q1017 R14/590294=
201811191430 METAR COR LRIA 191430Z 34016KT 0800 R14/1600N R32/1400N +SN
                        BR VV003 00/M01 Q1017 R14/591091=
201811191500 METAR LRIA 191500Z 34017KT 1500 SN DRSN BR VV003 00/M01 Q1017
                        RESN R14/590294=
201811191530 METAR LRIA 191530Z 34017KT 1500 SN DRSN BR VV005 M00/M01
                        Q1017 R14/590294=
201811191600 METAR LRIA 191600Z 34015KT 1500 SN DRSN VV005 M00/M01 Q1017
                        R14/590295=
201811191630 METAR LRIA 191630Z 34013KT 2000 SN BR OVC005 00/M01 Q1017
                        R14/590295=
201811191700 METAR LRIA 191700Z 34012KT 1500 SN BR SCT002 OVC004 00/M01
                        Q1018 R14/590295=
201811191730 METAR LRIA 191730Z 33011KT 1500 SN BR VV003 00/M01 Q1018
                        R14/590295=
201811191800 METAR COR LRIA 191800Z 33011KT 1500 +SN BR VV003 00/M01 Q1018
                        R14/590294=
201811191830 METAR LRIA 191830Z 34013KT 1500 +SN BR VV002 00/M01 Q1018
                        R14/590294=
201811191900 METAR LRIA 191900Z 34015KT 1600 SN BR BKN002 OVC014 00/M01
                        Q1019 R14/590294=
201811191930 METAR LRIA 191930Z 34015KT 2000 SN BR BKN002 OVC014 00/M01
                        Q1019 R14/590294=
201811192000 METAR LRIA 192000Z 34013KT 2500 -SN BR BKN004 OVC016 00/M01
                        Q1019 R14/590294=
201811192030 METAR LRIA 192030Z 34015KT 3000 -SN BR BKN002 OVC009 00/M01
                        Q1019 R14/590294=
201811192100 METAR COR LRIA 192100Z 34013KT 8000 -SN FEW005 BKN009 OVC040
                        00/M01 Q1019 R14/29//95=
201811192130 METAR LRIA 192130Z 33010KT 6000 -SN FEW003 BKN009 OVC040
                        00/M01 Q1020 R14/29//95=
201811192200 METAR LRIA 192200Z 32009KT 3000 -SN BR FEW003 OVC009 00/M01
                        Q1020 R14/29//95=
201811192230 METAR LRIA 192230Z 33009KT 4000 -SN BR FEW003 BKN011 00/M01
                        Q1020 R14/29//95=
201811192300 METAR LRIA 192300Z 32010KT 4000 -SN BR FEW003 BKN006 M00/M01
                        Q1021 R14/29//95=
201811192330 METAR LRIA 192330Z 32010KT 6000 FEW004 BKN009 M00/M01 Q1021
                        R14/29//95=
201811200000 METAR LRIA 200000Z 33010KT 8000 FEW005 OVC007 M00/M01 Q1021
                        R14/29//95=
201811200030 METAR LRIA 200030Z 33011KT 8000 FEW006 OVC009 M00/M02 Q1021
                        R14/29//95=
201811200100 METAR LRIA 200100Z 32011KT 8000 FEW006 OVC009 M00/M02 Q1022
                        R14/29//95=
201811200130 METAR LRIA 200130Z 32011KT 8000 OVC009 M00/M02 Q1022 R14/29//95=
201811200200 METAR LRIA 200200Z 32010KT 7000 OVC009 M00/M02 Q1022 R14/29//95=
201811200230 METAR LRIA 200230Z 33010KT 7000 FEW006 OVC008 M00/M02 Q1022
                        R14/29//95=
201811200300 METAR LRIA 200300Z 32010KT 9999 FEW006 OVC009 M01/M02 Q1023
                        R14/29//95=
201811200330 METAR LRIA 200330Z 31008KT 6000 FEW003 BKN009 M00/M02 Q1023
                        R14/29//95=
201811200400 METAR LRIA 200400Z 31010KT 5000 BR FEW003 BKN009 M01/M02
                        Q1023 R14/29//95=
201811200430 METAR LRIA 200430Z 32011KT 6000 SCT007 BKN017 M01/M02 Q1023
                        R14/29//95=
201811200500 METAR LRIA 200500Z 34013KT 6000 BKN015 OVC039 M01/M02 Q1023
                        R14/29//95=
201811200530 METAR LRIA 200530Z 33010KT 7000 FEW014 OVC036 M01/M02 Q1023
                        R14/29//95=
201811200600 METAR LRIA 200600Z 33010KT 8000 FEW018 OVC037 M01/M02 Q1024
                        R14/29//95=
201811200630 METAR LRIA 200630Z 31008KT 8000 SCT018 OVC036 M01/M02 Q1024
                        R14/29//95=
201811200700 METAR COR LRIA 200700Z 30007KT 270V330 8000 SCT018 OVC039
                        M01/M02 Q1024 R14/29//95=
201811200730 METAR LRIA 200730Z 32008KT 8000 SCT020 BKN040 M01/M02 Q1024
                        R14/29//95=
201811200800 METAR LRIA 200800Z 31008KT 9000 SCT021 BKN043 M00/M02 Q1025
                        R14/29//95=
201811200830 METAR LRIA 200830Z 31007KT 9000 FEW010 BKN024 M00/M02 Q1025
                        R14/29//95=
201811200900 METAR LRIA 200900Z 31008KT 9000 SCT009 BKN019 M00/M02 Q1025
                        R14/29//95=
201811200930 METAR LRIA 200930Z 32009KT 9000 FEW008 BKN019 M00/M02 Q1025
                        R14/29//95=
201811201000 METAR LRIA 201000Z 32009KT 9000 SCT010 OVC024 M00/M02 Q1024
                        R14/29//95=
201811201030 METAR LRIA 201030Z 33009KT 9000 SCT016 OVC023 M01/M02 Q1024
                        R14/29//95=
201811201100 METAR LRIA 201100Z 33008KT 9000 FEW012 OVC018 M01/M02 Q1024
                        R14/19//95=
201811201130 METAR LRIA 201130Z 34008KT 9000 FEW012 OVC024 M01/M03 Q1024
                        R14/19//95=
201811201200 METAR LRIA 201200Z 34009KT 9000 OVC025 M01/M03 Q1024 R14/19//95=
201811201230 METAR LRIA 201230Z 36007KT 320V020 9000 OVC025 M00/M03 Q1024
                        R14/19//95=
201811201300 METAR LRIA 201300Z 36005KT 9000 OVC022 M01/M03 Q1024 R14/19//95=
201811201330 METAR LRIA 201330Z 02006KT 9000 OVC024 M01/M03 Q1024 R14/19//95=
201811201400 METAR LRIA 201400Z 36004KT 9000 OVC021 M01/M03 Q1024 R14/19//95=
201811201430 METAR LRIA 201430Z 33003KT 9000 OVC017 M01/M03 Q1024 R14/19//95=
201811201500 METAR LRIA 201500Z 02004KT 9000 OVC017 M01/M03 Q1024 R14/19//95=
201811201530 METAR LRIA 201530Z 01003KT 9000 OVC016 M01/M03 Q1024 R14/19//95=
201811201600 METAR LRIA 201600Z 36001KT 9000 BKN011 OVC016 M01/M03 Q1025
                        R14/19//95=
201811201630 METAR LRIA 201630Z 07005KT 9000 BKN010 OVC016 M01/M03 Q1025
                        R14/19//95=
201811201700 METAR LRIA 201700Z 05004KT 9000 OVC012 M01/M03 Q1025 R14/19//95=
201811201730 METAR LRIA 201730Z 09004KT 9000 FEW010 BKN013 M01/M03 Q1024
                        R14/19//95=
201811201800 METAR LRIA 201800Z 07004KT 9000 SCT009 OVC017 M01/M03 Q1025
                        R14/19//95=
201811201830 METAR LRIA 201830Z 05006KT 2500 -SN SCT008 OVC010 M01/M03
                        Q1025 R14/29//95=
201811201900 METAR LRIA 201900Z 05004KT 1500 SN OVC009 M01/M02 Q1024 R14/29//95=
201811201930 METAR COR LRIA 201930Z 04004KT 2500 -SN BR OVC007 M01/M02
                        Q1024 RESN R14/29//95=
201811202000 METAR LRIA 202000Z 06005KT 1500 -SN BR OVC006 M01/M02 Q1024
                        R14/29//95=
201811202030 METAR LRIA 202030Z 06003KT 5000 -SN BR OVC005 M01/M02 Q1024
                        R14/29//95=
201811202100 METAR LRIA 202100Z 04004KT 5000 BR OVC008 M01/M02 Q1025 R14/29//95=
201811202130 METAR LRIA 202130Z 04003KT 3000 BR OVC006 M01/M02 Q1025 R14/29//95=
201811202200 METAR LRIA 202200Z 06004KT 3000 BR OVC004 M01/M02 Q1025 R14/29//95=
201811202230 METAR LRIA 202230Z 07004KT 3000 BR OVC003 M01/M02 Q1024 R14/29//95=
201811202300 METAR LRIA 202300Z 06004KT 3000 BR OVC003 M01/M02 Q1024 R14/29//95=
201811202330 METAR LRIA 202330Z 04002KT 3000 BR OVC006 M01/M02 Q1024 R14/29//95=
201811210000 METAR LRIA 210000Z 06003KT 6000 OVC009 M01/M02 Q1024 R14/29//95=
201811210030 METAR LRIA 210030Z 08005KT 9000 OVC009 M01/M02 Q1024 R14/29//95=
201811210100 METAR LRIA 210100Z 07006KT 7000 -SN OVC010 M01/M02 Q1023
                        R14/29//95=
201811210130 METAR LRIA 210130Z 09005KT 8000 -SN BKN010 M01/M02 Q1023
                        R14/29//95=
201811210200 METAR LRIA 210200Z 07005KT 8000 -SN BKN009 M01/M02 Q1023
                        R14/29//95=
201811210230 METAR LRIA 210230Z 07006KT 3000 SN BR OVC010 M01/M03 Q1023
                        R14/29//95=
201811210300 METAR LRIA 210300Z 07005KT 2000 SN BR OVC008 M01/M03 Q1023
                        R14/29//95=
201811210330 METAR LRIA 210330Z 07005KT 2500 -SN BR OVC008 M01/M02 Q1023
                        RESN R14/29//95=
201811210400 METAR LRIA 210400Z 06005KT 2500 -SN BR OVC007 M01/M02 Q1023
                        R14/29//95=
201811210430 METAR LRIA 210430Z 06004KT 050V110 2000 -SN BR OVC007 M01/M02
                        Q1023 R14/29//95=
201811210500 METAR LRIA 210500Z 06005KT 030V090 2000 -SN BR OVC007 M01/M02
                        Q1023 R14/29//95=
201811210530 METAR LRIA 210530Z 05005KT 1800 SN BR OVC006 M01/M02 Q1022
                        R14/29//95=
201811210600 METAR LRIA 210600Z 06004KT 1800 -SN BR OVC005 M01/M02 Q1023
                        RESN R14/29//95=
201811210630 METAR LRIA 210630Z 07004KT 1800 -SN BR OVC005 M01/M02 Q1023
                        R14/29//95=
201811210700 METAR LRIA 210700Z 06005KT 2000 -SN BR OVC005 M00/M02 Q1023
                        R14/29//95=
201811210730 METAR LRIA 210730Z 07005KT 2000 -SN BR OVC005 M00/M02 Q1023
                        R14/29//95=
201811210800 METAR LRIA 210800Z 06004KT 2000 -SN BR OVC005 M00/M02 Q1023
                        R14/29//95=
201811210830 METAR LRIA 210830Z 06004KT 2000 -SN BR SCT003 OVC006 00/M01
                        Q1023 R14/29//95=
201811210900 METAR LRIA 210900Z 06004KT 2000 -SN BR SCT004 OVC007 00/M01
                        Q1023 R14/29//95=
201811210930 METAR LRIA 210930Z 07004KT 1800 SN BR SCT004 OVC009 00/M01
                        Q1023 R14/29//95=
201811211000 METAR LRIA 211000Z 05004KT 2000 -SN BR SCT007 OVC013 00/M01
                        Q1023 R14/29//95=
201811211030 METAR COR LRIA 211030Z 02005KT 2000 -RASN BR SCT005 OVC009
                        00/M01 Q1023 R14/29//95=
201811211100 METAR LRIA 211100Z 04006KT 2000 -RASN BR FEW004 OVC011 00/M01
                        Q1023 R14/29//95=
201811211130 METAR LRIA 211130Z 03006KT 1900 -RASN BR SCT003 OVC010 00/M01
                        Q1023 R14/29//95=
201811211200 METAR LRIA 211200Z 04007KT 1800 -SNRA BR SCT003 OVC010 M00/M01
                        Q1022 R14/29//95=
201811211230 METAR LRIA 211230Z 04006KT 2000 -SNRA BR FEW004 OVC010 M00/M02
                        Q1022 R14/29//95=
201811211300 METAR LRIA 211300Z 04006KT 2400 -SN BR FEW002 OVC010 M00/M02
                        Q1023 R14/29//95=
201811211330 METAR LRIA 211330Z 03007KT 2500 -SN BR FEW004 OVC010 M00/M02
                        Q1023 R14/29//95=
201811211400 METAR LRIA 211400Z 03007KT 3000 -RASN BR FEW005 OVC010 M01/M02
                        Q1023 R14/29//95=
201811211430 METAR LRIA 211430Z 04006KT 3000 -RASN BR SCT010 BKN030 M01/M02
                        Q1023 R14/29//95=
201811211500 METAR LRIA 211500Z 04007KT 2000 -SN BR FEW010 OVC040 M01/M02
                        Q1023 R14/29//95=
201811211530 METAR LRIA 211530Z 03005KT 3000 -RASN BR BKN031 M01/M02 Q1023
                        R14/29//95=
201811211600 METAR LRIA 211600Z 01005KT 5000 -SN BR SCT017 M01/M02 Q1023
                        R14/29//95=
201811211630 METAR LRIA 211630Z 35004KT 5000 -RASN BR FEW004 SCT013 BKN017
                        M01/M02 Q1023 R14/29//95=
201811211700 METAR LRIA 211700Z 36005KT 6000 -RASN FEW004 BKN013 M01/M02
                        Q1024 R14/29//95=
201811211730 METAR LRIA 211730Z 01006KT 7000 -SNRA BKN015 BKN030 M01/M02
                        Q1024 R14/29//95=
201811211800 METAR LRIA 211800Z 03007KT 6000 -SN FEW005 SCT017 BKN022
                        M01/M02 Q1024 R14/29//95=
201811211830 METAR LRIA 211830Z 04008KT 6000 -SN FEW005 SCT017 BKN032
                        M01/M02 Q1024 R14/29//95=
201811211900 METAR LRIA 211900Z 04007KT 6000 -SN FEW006 SCT016 OVC031
                        M01/M03 Q1024 R14/29//95=
201811211930 METAR LRIA 211930Z 05008KT 5000 -SN BKN016 OVC031 M01/M03
                        Q1024 R14/29//95=
201811212000 METAR LRIA 212000Z 04006KT 4000 -SN SCT005 BKN016 OVC033
                        M01/M03 Q1025 R14/29//95=
201811212030 METAR LRIA 212030Z 04006KT 4000 -SN FEW005 SCT016 BKN031
                        M01/M03 Q1025 R14/29//95=
201811212100 METAR LRIA 212100Z 03006KT 3600 -SN FEW005 SCT017 OVC031
                        M02/M03 Q1025 R14/29//95=
201811212130 METAR LRIA 212130Z 04007KT 4900 -SN FEW005 SCT012 BKN031
                        M02/M03 Q1025 R14/29//95=
201811212200 METAR LRIA 212200Z 03008KT 5000 -SN FEW005 SCT017 OVC032
                        M02/M03 Q1026 R14/29//95=
201811212230 METAR LRIA 212230Z 04008KT 6000 -SN FEW005 SCT017 OVC033
                        M02/M04 Q1025 R14/29//95=
201811212300 METAR LRIA 212300Z 04008KT 8000 -SN BKN018 M02/M04 Q1025
                        R14/29//95=
201811212330 METAR LRIA 212330Z 04009KT 5000 -SN BKN018 M02/M04 Q1026
                        R14/29//95=
201811220000 METAR COR LRIA 220000Z 05007KT 5000 -SN BKN016 OVC041 M02/M04
                        Q1026 R14/29//95=
201811220030 METAR LRIA 220030Z 04006KT 7000 -SN SCT015 BKN041 M02/M04
                        Q1026 R14/620293=
201811220100 METAR LRIA 220100Z 03006KT 9000 -SN SCT014 BKN025 M02/M04
                        Q1026 R14/620293=
201811220130 METAR LRIA 220130Z 02006KT 9999 FEW013 SCT012 M03/M05 Q1026
                        R14/620293=
201811220200 METAR LRIA 220200Z 02006KT 9000 -SN FEW012 SCT016 M03/M05
                        Q1026 R14/620293=
201811220230 METAR LRIA 220230Z 35004KT 9000 -SN BKN014 M03/M05 Q1026
                        R14/620293=
201811220300 METAR LRIA 220300Z 36005KT 9999 BKN016 M03/M05 Q1026 R14/620293=
201811220330 METAR LRIA 220330Z 35005KT 8000 BKN014 M03/M05 Q1026 R14/29//95=
201811220400 METAR LRIA 220400Z 34005KT 6000 OVC014 M03/M05 Q1026 R14/29//95=
201811220430 METAR LRIA 220430Z 35005KT 6000 SCT012 BKN016 M03/M05 Q1026
                        R14/29//95=
201811220500 METAR LRIA 220500Z 35005KT 6000 BKN016 M03/M06 Q1026 R14/29//95=
201811220530 METAR LRIA 220530Z 36006KT 6000 BKN016 M04/M06 Q1026 R14/29//95=
201811220600 METAR LRIA 220600Z 36006KT 6000 SCT016 M04/M06 Q1026 R14/29//95=
201811220630 METAR LRIA 220630Z 36005KT 6000 SCT015 M03/M06 Q1026 R14/29//95=
201811220700 METAR LRIA 220700Z 02006KT 6000 BKN012 M03/M06 Q1027 R14/29//95=
201811220730 METAR LRIA 220730Z 02006KT 6000 FEW006 BKN011 M03/M05 Q1027
                        R14/29//95=
201811220800 METAR LRIA 220800Z 02005KT 7000 FEW005 SCT014 M02/M05 Q1027
                        R14/29//95=
201811220830 METAR LRIA 220830Z 01005KT 7000 FEW006 SCT011 M02/M06 Q1027
                        R14/29//95=
201811220900 METAR LRIA 220900Z 36005KT 8000 FEW006 BKN008 M02/M06 Q1027
                        R14/29//95=
201811220930 METAR LRIA 220930Z 33005KT 8000 FEW006 BKN008 M03/M06 Q1027
                        R14/29//95=
201811221000 METAR LRIA 221000Z 33005KT 8000 OVC009 M03/M06 Q1027 R14/29//95=
201811221030 METAR LRIA 221030Z 01004KT 320V040 8000 BKN008 M03/M06 Q1027
                        R14/29//95=
201811221100 METAR LRIA 221100Z 34006KT 8000 BKN008 M03/M06 Q1026 R14/29//95=
201811221130 METAR LRIA 221130Z 33005KT 8000 FEW007 BKN008 M03/M06 Q1026
                        R14/29//95=
201811221200 METAR LRIA 221200Z 34006KT 9999 OVC007 M03/M06 Q1026 R14/29//95=
201811221230 METAR LRIA 221230Z 35006KT 320V020 9999 OVC007 M03/M06 Q1026
                        R14/29//95=
201811221300 METAR LRIA 221300Z 34005KT 310V010 9999 OVC006 M04/M06 Q1026
                        R14/19//95=
201811221330 METAR LRIA 221330Z 34006KT 8000 OVC006 M04/M06 Q1026 R14/19//95=
201811221400 METAR LRIA 221400Z 33005KT 8000 OVC006 M04/M06 Q1026 R14/19//95=
201811221430 METAR LRIA 221430Z 36005KT 320V040 8000 OVC006 M04/M06 Q1026
                        R14/19//95=
201811221500 METAR LRIA 221500Z 33004KT 300V010 7000 OVC006 M04/M06 Q1026
                        R14/19//95=
201811221530 METAR LRIA 221530Z 35005KT 7000 OVC006 M04/M07 Q1026 R14/19//95=
201811221600 METAR LRIA 221600Z 33005KT 300V360 7000 FEW005 OVC006 M05/M07
                        Q1027 R14/19//95=
201811221630 METAR LRIA 221630Z 34007KT 7000 OVC005 M05/M07 Q1027 R14/19//95=
201811221700 METAR LRIA 221700Z 34007KT 8000 FEW004 OVC005 M05/M07 Q1027
                        R14/19//95=
201811221730 METAR LRIA 221730Z 32007KT 7000 OVC004 M05/M07 Q1027 R14/19//95=
201811221800 METAR LRIA 221800Z 32006KT 5000 -SN BR BKN004 M06/M07 Q1027
                        R14/19//95=
201811221830 METAR LRIA 221830Z 31006KT 5000 BR SCT003 BKN004 M06/M08
                        Q1027 R14/19//95=
201811221900 METAR COR LRIA 221900Z 33006KT 5000 BR SCT002 BKN003 M06/M08
                        Q1027 R14/19//95=
201811221930 METAR LRIA 221930Z 31004KT 280V340 4000 BR BKN002 M06/M08
                        Q1027 R14/19//95=
201811222000 METAR COR LRIA 222000Z 32005KT 280V340 2900 BR BKN002 M06/M07
                        Q1027 R14/19//95=
201811222030 METAR LRIA 222030Z 32005KT 1000 R14/1900U R32/1600 BR BKN002
                        M06/M07 Q1027 R14/19//95=
201811222100 METAR LRIA 222100Z 32005KT 0800 R14/1000 R32/1000D FZFG VV004
                        M06/M07 Q1027 R14/19//95=
201811222130 METAR LRIA 222130Z 30007KT 270V330 0800 R14/1000D R32/0750N
                        FZFG VV004 M06/M07 Q1027 R14/19//95=
201811222200 METAR LRIA 222200Z 31006KT 0800 R14/1000D R32/0750N FZFG
                        VV004 M06/M08 Q1027 R14/19//95=
201811222230 METAR COR LRIA 222230Z 32005KT 0700 R14/0800D R32/0650N FZFG
                        VV004 06/M07 Q1027 R14/19//95=
201811222300 METAR LRIA 222300Z 31005KT 0750 R14/0900D R32/0650D FZFG
                        VV004 M05/M07 Q1027 R14/19//95=
201811222330 METAR COR LRIA 222330Z 31006KT 0700 R14/0900N R32/0650N FZFG
                        VV004 M05/M07 Q1027 R14/19//95=
201811230000 METAR COR LRIA 230000Z 31005KT 0800 R14/1000U R32/0800 FZFG
                        VV004 M05/M07 Q1027 R14/19//95=
201811230030 METAR LRIA 230030Z 31005KT 0800 R14/1000U R32/0800 FZFG VV004
                        M05/M07 Q1027 R14/19//95=
201811230100 METAR COR LRIA 230100Z 31007KT 280V340 1400 R14/1700D R32/1300
                        FZFG VV003 M06/M07 Q1027 R14/19//95=
201811230130 METAR LRIA 230130Z AUTO 31007KT 1400 R14/1700N R32/1400VP2000D
                        FZFG FEW002/// M05/M07 Q1027=
201811230200 METAR LRIA 230200Z 32007KT 1400 BR VV003 M05/M07 Q1027 R14/19//95=
201811230230 METAR COR LRIA 230230Z 30007KT 270V330 1400 R14/1700N R32/1500D
                        BR FEW001 M05/M07 Q1027 R14/19//95=
201811230300 METAR LRIA 230300Z 31006KT 1000 R14/1500U R32/1400 BR NSC
                        M05/M07 Q1027 R14/19//95=
201811230330 METAR LRIA 230330Z 31007KT 1300 BR NSC M05/M07 Q1027 R14/19//95=
201811230400 METAR LRIA 230400Z AUTO 31006KT 1100 R14/1300V1700N R32/1300VP2000D=
201811230430 METAR LRIA 230430Z AUTO 30007KT 1200 R14/1200V1700U R32/1000VP2000D=
201811230500 METAR COR LRIA 230500Z 31007KT 1500 BR BKN002 M05/M07 Q1028
                        R14/19//95=
201811230530 METAR LRIA 230530Z 30008KT 270V330 0800 R14/1200 R32/1300
                        FZFG VV002 M05/M07 Q1028 R14/19//95=
201811230600 METAR LRIA 230600Z 32007KT 0800 R14/1500N R32/1800N FZFG
                        VV002 M05/M07 Q1029 R14/19//95=
201811230630 METAR LRIA 230630Z 32006KT 0800 R14/1500N R32/1200N FZFG
                        VV002 M05/M07 Q1029 R14/19//95=
201811230700 METAR LRIA 230700Z 31006KT 0900 R14/1500N R32/1200N FZFG
                        VV002 M05/M07 Q1029 R14/19//95=
201811230730 METAR LRIA 230730Z 33006KT 1200 R14/1700N R32/1800N BR VV002
                        M05/M07 Q1029 R14/19//95=
201811230800 METAR LRIA 230800Z 32005KT 1500 BR VV002 M05/M07 Q1029 R14/19//95=
201811230830 METAR LRIA 230830Z 31006KT 280V340 1800 BR VV003 M05/M07
                        Q1030 R14/19//95=
201811230900 METAR LRIA 230900Z 35007KT 1800 BR VV003 M05/M06 Q1030 R14/19//95=
201811230930 METAR LRIA 230930Z 35006KT 1800 BR VV002 M04/M06 Q1030 R14/19//95=
201811231000 METAR LRIA 231000Z 31004KT 290V350 1800 BR VV002 M04/M06
                        Q1030 R14/19//95=
201811231030 METAR LRIA 231030Z 31005KT 2000 BR VV003 M05/M06 Q1030 R14/19//95=
201811231100 METAR LRIA 231100Z 36004KT 3000 BR VV003 M04/M06 Q1030 R14/19//95=
201811231130 METAR LRIA 231130Z 35004KT 300V030 3000 BR VV003 M05/M06
                        Q1030 R14/19//95=
201811231200 METAR LRIA 231200Z 35006KT 3000 BR VV003 M05/M07 Q1030 R14/19//95=
201811231230 METAR LRIA 231230Z 36003KT 300V030 3000 BR VV003 M05/M06
                        Q1030 R14/19//95=
201811231300 METAR LRIA 231300Z VRB02KT 3000 BR VV003 M05/M06 Q1030 R14/19//95=
201811231330 METAR LRIA 231330Z 32004KT 300V360 3000 BR VV003 M05/M07
                        Q1030 R14/19//95=
201811231400 METAR LRIA 231400Z 34004KT 290V050 2000 BR VV003 M05/M07
                        Q1030 R14/19//95=
201811231430 METAR LRIA 231430Z 35005KT 1500 BR VV002 M06/M07 Q1030 R14/19//95=
201811231500 METAR COR LRIA 231500Z 34004KT 310V030 1800 BR VV002 M06/M07
                        Q1030 R14/19//95=
201811231530 METAR LRIA 231530Z 28002KT 1500 BR VV002 M06/M08 Q1031 R14/19//95=
201811231600 METAR LRIA 231600Z VRB01KT 1000 R14/1800N R32/2000N BR VV002
                        M06/M08 Q1031 R14/19//95=
201811231630 METAR LRIA 231630Z 00000KT 1500 BR VV002 M06/M08 Q1031 R14/19//95=
201811231700 METAR LRIA 231700Z 00000KT 1500 BR VV002 M06/M08 Q1031 R14/19//95=
201811231730 METAR LRIA 231730Z 00000KT 1500 BR VV002 M06/M08 Q1031 R14/19//95=
201811231800 METAR LRIA 231800Z 00000KT 1500 BR FEW001 OVC002 M06/M08
                        Q1031 R14/19//95=
201811231830 METAR LRIA 231830Z 00000KT 1500 -FZDZ BR FEW001 OVC002 M06/M08
                        Q1031 R14/19//95=
201811231900 METAR LRIA 231900Z 10003KT 040V140 1500 BR FEW001 OVC002
                        M06/M08 Q1031 R14/19//95=
201811231930 METAR LRIA 231930Z VRB01KT 1200 R14/P2000 R32/P2000 BR OVC001
                        M06/M08 Q1031 R14/19//95=
201811232000 METAR LRIA 232000Z 00000KT 0800 R14/P2000D R32/P2000 FZFG
                        VV002 M06/M08 Q1031 R14/19//95=
201811232030 METAR LRIA 232030Z 14004KT 100V160 1200 R14/P2000 R32/P2000
                        BR BKN002 BKN003 M06/M08 Q1030 R14/19//95=
201811232100 METAR LRIA 232100Z 14004KT 2000 BR SCT002 OVC003 M06/M08
                        Q1030 R14/19//95=
201811232130 METAR LRIA 232130Z 16005KT 2000 BR FEW001 OVC003 M06/M08
                        Q1030 R14/19//95=
201811232200 METAR LRIA 232200Z 13004KT 2500 BR FEW002 OVC003 M06/M08
                        Q1030 R14/19//95=
201811232230 METAR LRIA 232230Z 19004KT 140V220 5000 BR FEW002 BKN003
                        OVC004 M06/M08 Q1030 R14/19//95=
201811232300 METAR LRIA 232300Z 16004KT 130V210 7000 FEW003 BKN004 OVC005
                        M06/M08 Q1030 R14/19//95=
201811232330 METAR LRIA 232330Z 11005KT 070V140 7000 SCT004 OVC005 M06/M08
                        Q1030 R14/19//95=
201811240000 METAR LRIA 240000Z 11006KT 9999 FEW004 OVC005 M07/M09 Q1029
                        R14/19//95=
201811240030 METAR LRIA 240030Z 14005KT 9999 FEW004 OVC005 M07/M09 Q1029
                        R14/19//95=
201811240100 METAR LRIA 240100Z 15005KT 110V200 9999 BKN005 OVC006 M07/M09
                        Q1029 R14/19//95=
201811240130 METAR COR LRIA 240130Z 16005KT 140V210 9999 OVC006 M07/M09
                        Q1029 R14/19//95=
201811240200 METAR LRIA 240200Z 17004KT 130V220 9999 OVC006 M07/M09 Q1028
                        R14/19//95=
201811240230 METAR LRIA 240230Z 13004KT 9999 OVC006 M07/M09 Q1028 R14/19//95=
201811240300 METAR LRIA 240300Z 15004KT 9999 OVC006 M07/M09 Q1028 R14/19//95=
201811240330 METAR LRIA 240330Z 13006KT 100V160 9999 OVC006 M07/M08 Q1028
                        R14/19//95=
201811240400 METAR LRIA 240400Z 16005KT 130V200 9999 OVC006 M07/M08 Q1027
                        R14/19//95=
201811240430 METAR LRIA 240430Z 15005KT 120V220 9999 OVC007 M07/M09 Q1027
                        R14/19//95=
201811240500 METAR LRIA 240500Z 16006KT 9999 OVC007 M07/M09 Q1027 R14/19//95=
201811240530 METAR LRIA 240530Z 18003KT 150V230 9999 OVC007 M07/M09 Q1027
                        R14/19//95=
201811240600 METAR LRIA 240600Z 14005KT 9999 OVC007 M07/M09 Q1027 R14/19//95=
201811240630 METAR LRIA 240630Z 14005KT 9000 OVC008 M07/M08 Q1027 R14/19//95=
201811240700 METAR LRIA 240700Z 12003KT 9000 SCT006 OVC008 M06/M08 Q1027
                        R14/19//95=
201811240730 METAR LRIA 240730Z 14005KT 9000 SCT005 OVC008 M06/M07 Q1027
                        R14/19//95=
201811240800 METAR LRIA 240800Z 15005KT 9000 BKN005 OVC007 M05/M07 Q1026
                        R14/19//95=
201811240830 METAR LRIA 240830Z 13005KT 9000 SCT005 OVC007 M05/M07 Q1026
                        R14/19//95=
201811240900 METAR LRIA 240900Z 14006KT 9000 SCT005 OVC007 M05/M06 Q1026
                        R14/19//95=
201811240930 METAR LRIA 240930Z 13006KT 9000 SCT005 OVC007 M04/M06 Q1026
                        R14/19//95=
201811241000 METAR LRIA 241000Z 15006KT 9000 SCT005 OVC007 M04/M06 Q1025
                        R14/19//95=
201811241030 METAR LRIA 241030Z 14006KT 9000 BKN005 OVC007 M04/M06 Q1025
                        R14/19//95=
201811241100 METAR LRIA 241100Z 16006KT 9000 SCT005 OVC007 M03/M06 Q1024
                        R14/19//95=
201811241130 METAR LRIA 241130Z 15005KT 9000 BKN005 OVC007 M03/M06 Q1024
                        R14/19//95=
201811241200 METAR LRIA 241200Z 18005KT 160V250 7000 FEW004 SCT005 OVC007
                        M03/M05 Q1024 R14/19//95=
201811241230 METAR LRIA 241230Z 16005KT 6000 SCT005 OVC007 M03/M05 Q1024
                        R14/19//95=
201811241300 METAR LRIA 241300Z 16005KT 6000 FEW004 SCT005 OVC007 M03/M05
                        Q1024 R14/19//95=
201811241330 METAR LRIA 241330Z 14007KT 7000 SCT005 OVC006 M03/M05 Q1023
                        R14/19//95=
201811241400 METAR LRIA 241400Z 16006KT 7000 SCT004 OVC006 M03/M05 Q1023
                        R14/19//95=
201811241430 METAR LRIA 241430Z 16005KT 8000 SCT005 OVC007 M03/M05 Q1022
                        R14/19//95=
201811241500 METAR LRIA 241500Z 15005KT 130V190 9000 SCT005 OVC007 M03/M05
                        Q1022 R14/19//95=
201811241530 METAR LRIA 241530Z 18002KT 130V240 9000 SCT005 OVC007 M03/M05
                        Q1022 R14/19//95=
201811241600 METAR LRIA 241600Z 17003KT 9999 SCT005 OVC006 M03/M05 Q1022
                        R14/19//95=
201811241630 METAR LRIA 241630Z 16005KT 9999 FEW005 OVC006 M03/M05 Q1022
                        R14/19//95=
201811241700 METAR LRIA 241700Z 17005KT 9999 FEW004 OVC006 M03/M05 Q1022
                        R14/19//95=
201811241730 METAR LRIA 241730Z 19003KT 9999 FEW004 OVC005 M03/M05 Q1022
                        R14/19//95=
201811241800 METAR LRIA 241800Z 15004KT 120V180 9999 OVC005 M03/M05 Q1022
                        R14/19//95=
201811241830 METAR LRIA 241830Z 15006KT 9999 OVC005 M03/M05 Q1022 R14/19//95=
201811241900 METAR LRIA 241900Z 16005KT 9999 OVC005 M03/M05 Q1022 R14/19//95=
201811241930 METAR LRIA 241930Z 16004KT 9999 OVC005 M03/M05 Q1022 R14/19//95=
201811242000 METAR LRIA 242000Z 12005KT 9999 OVC005 M03/M05 Q1021 R14/19//95=
201811242030 METAR LRIA 242030Z 12005KT 9999 OVC005 M03/M05 Q1021 R14/19//95=
201811242100 METAR LRIA 242100Z 13005KT 9999 OVC005 M03/M05 Q1021 R14/19//95=
201811242130 METAR LRIA 242130Z 12003KT 9999 OVC005 M03/M05 Q1021 R14/19//95=
201811242200 METAR LRIA 242200Z 13002KT 9999 OVC005 M03/M04 Q1021 R14/19//95=
201811242230 METAR LRIA 242230Z 11003KT 9999 OVC005 M03/M04 Q1020 R14/19//95=
201811242300 METAR LRIA 242300Z 12006KT 9999 OVC005 M02/M04 Q1020 R14/19//95=
201811242330 METAR LRIA 242330Z 17003KT 150V210 9999 OVC004 M03/M04 Q1020
                        R14/19//95=
201811250000 METAR LRIA 250000Z 00000KT 9999 OVC004 M03/M04 Q1020 R14/19//95=
201811250030 METAR LRIA 250030Z 00000KT 9999 OVC004 M02/M04 Q1019 R14/19//95=
201811250100 METAR LRIA 250100Z 10001KT 9999 OVC004 M02/M04 Q1019 R14/19//95=
201811250130 METAR LRIA 250130Z 15004KT 9999 OVC004 M02/M04 Q1018 R14/19//95=
201811250200 METAR LRIA 250200Z 14003KT 9999 OVC004 M02/M04 Q1018 R14/19//95=
201811250230 METAR LRIA 250230Z 29003KT 9999 OVC004 M03/M04 Q1019 R14/19//95=
201811250300 METAR LRIA 250300Z 19003KT 150V220 9999 OVC005 M03/M04 Q1018
                        R14/19//95=
201811250330 METAR LRIA 250330Z 21003KT 9999 OVC005 M02/M04 Q1018 R14/19//95=
201811250400 METAR LRIA 250400Z 18003KT 150V220 9999 OVC004 M02/M04 Q1018
                        R14/19//95=
201811250430 METAR LRIA 250430Z VRB01KT 9999 BKN004 M02/M04 Q1018 R14/19//95=
201811250500 METAR LRIA 250500Z 12003KT 9999 BKN003 M02/M04 Q1018 R14/19//95=
201811250530 METAR LRIA 250530Z 07003KT 360V100 8000 OVC003 M02/M04 Q1018
                        R14/19//95=
201811250600 METAR LRIA 250600Z 13005KT 8000 BKN002 BKN003 M02/M03 Q1018
                        R14/19//95=
201811250630 METAR LRIA 250630Z 13005KT 8000 OVC003 M02/M03 Q1018 R14/09//95=
201811250700 METAR LRIA 250700Z 15003KT 9000 FEW002 BKN003 M02/M03 Q1018
                        R14/09//95=
201811250730 METAR LRIA 250730Z 15003KT 9000 BKN003 M02/M03 Q1018 R14/09//95=
201811250800 METAR LRIA 250800Z 13003KT 5000 BR FEW002 BKN003 M01/M03
                        Q1018 R14/09//95=
201811250830 METAR LRIA 250830Z 11008KT 6000 BKN002 M01/M03 Q1017 R14/09//95=
201811250900 METAR LRIA 250900Z 11008KT 3500 BR BKN002 M01/M03 Q1017 R14/09//95=
201811250930 METAR LRIA 250930Z 11008KT 3500 BR BKN002 M01/M03 Q1017 R14/09//95=
201811251000 METAR LRIA 251000Z 11008KT 7000 SCT002 BKN003 M01/M02 Q1017
                        R14/09//95=
201811251030 METAR LRIA 251030Z 10008KT 9000 FEW002 BKN003 M00/M02 Q1016
                        R14/09//95=
201811251100 METAR LRIA 251100Z 08007KT 9000 SCT003 SCT004 M00/M02 Q1016
                        R14/09//95=
201811251130 METAR LRIA 251130Z 10008KT 9000 SCT003 SCT004 M00/M02 Q1016
                        R14/09//95=
201811251200 METAR LRIA 251200Z 11010KT 6000 SCT002 BKN003 M00/M02 Q1016
                        R14/09//95=
201811251230 METAR COR LRIA 251230Z 11012KT 5000 BR FEW001 0VC002 M00/M02
                        Q1015 R14/09//95=
201811251300 METAR LRIA 251300Z 11010KT 5000 BR OVC002 M00/M02 Q1015 R14/09//95=
201811251330 METAR LRIA 251330Z 11010KT 0600 R14/0800 R32/P2000 FZFG OVC002
                        M00/M02 Q1015 R14/09//95=
201811251400 METAR LRIA 251400Z 12011KT 0800 R14/1500U R32/P2000 FZFG
                        OVC003 M00/M02 Q1015 R14/09//95=
201811251430 METAR LRIA 251430Z 13006KT 5000 BR FEW002 OVC003 M00/M02
                        Q1015 R14/09//95=
201811251500 METAR LRIA 251500Z 12007KT 5000 BR OVC004 M00/M02 Q1015 R14/09//95=
201811251530 METAR LRIA 251530Z 11005KT 5000 BR OVC002 M00/M02 Q1015 R14/09//95=
201811251600 METAR LRIA 251600Z 11002KT 8000 OVC001 M00/M02 Q1015 R14/09//95=
201811251630 METAR LRIA 251630Z 00000KT 8000 FEW002 OVC004 M00/M02 Q1015
                        R14/09//95=
201811251700 METAR LRIA 251700Z 00000KT 6000 BKN004 M00/M02 Q1014 R14/09//95=
201811251730 METAR LRIA 251730Z 11004KT 3000 BR OVC002 M00/M02 Q1015 R14/09//95=
201811251800 METAR LRIA 251800Z 11004KT 1000 R14/1200 R32/P2000 BR OVC002
                        M00/M02 Q1014 R14/09//95=
201811251830 METAR LRIA 251830Z 11004KT 4900 BR OVC002 M00/M02 Q1014 R14/09//95=
201811251900 METAR LRIA 251900Z 11007KT 3200 BR OVC002 M00/M02 Q1013 R14/19//95=
201811251930 METAR LRIA 251930Z 13006KT 7000 BKN002 OVC004 M00/M02 Q1013
                        R14/19//95=
201811252000 METAR LRIA 252000Z 13006KT 8000 SCT002 OVC004 M00/M02 Q1013
                        R14/19//95=
201811252030 METAR LRIA 252030Z 14006KT 5000 BR SCT002 OVC005 M00/M02
                        Q1013 R14/19//95=
201811252100 METAR COR LRIA 252100Z 12006KT 3300 BR OVC002 M00/M02 Q1013
                        R14/19//95=
201811252130 METAR LRIA 252130Z 12007KT 2800 BR OVC002 M00/M02 Q1012 R14/19//95=
201811252200 METAR LRIA 252200Z 11007KT 0600 R14/0700N R32/0650N FZFG
                        VV002 M00/M02 Q1012 R14/19//95=
201811252230 METAR LRIA 252230Z 11009KT 0500 R14/0600N R32/0450N FZFG
                        VV002 M00/M02 Q1012 R14/19//95=
201811252300 METAR LRIA 252300Z 11010KT 0500 R14/0600N R32/0500N FZFG
                        VV002 M00/M02 Q1011 R14/19//95=
201811252330 METAR LRIA 252330Z 11009KT 0500 R14/0600N R32/0500N FZFG
                        VV002 M00/M02 Q1011 R14/19//95=
201811260000 METAR LRIA 260000Z 11010KT 0500 R14/0600N R32/0450N FZFG
                        VV002 M00/M02 Q1010 R14/19//95=
201811260030 METAR LRIA 260030Z 11011KT 0500 R14/0650N R32/0500N FZFG
                        VV002 M01/M02 Q1010 R14/19//95=
201811260100 METAR LRIA 260100Z 10009KT 0550 R14/0650N R32/0450N FZFG
                        VV002 M01/M02 Q1010 R14/19//95=
201811260130 METAR LRIA 260130Z 10009KT 1300 R14/1200U R32/0800 BR VV002
                        M01/M02 Q1009 R14/19//95=
201811260200 METAR LRIA 260200Z 10007KT 1400 R14/1600U R32/P2000 BR VV002
                        M01/M02 Q1009 R14/19//95=
201811260230 METAR LRIA 260230Z 10006KT 3200 BR OVC002 M01/M02 Q1009 R14/19//95=
201811260300 METAR LRIA 260300Z 10006KT 5000 BR OVC002 M01/M02 Q1009 R14/19//95=
201811260330 METAR LRIA 260330Z 10006KT 5000 BR OVC002 M01/M02 Q1009 R14/19//95=
201811260400 METAR LRIA 260400Z 09007KT 5000 -FZDZ BR OVC002 M01/M02 Q1008
                        R14/19//95=
201811260430 METAR LRIA 260430Z 10007KT 6000 OVC002 M01/M02 Q1008 R14/19//95=
201811260500 METAR LRIA 260500Z 10007KT 5000 BR FEW001 OVC004 M00/M02
                        Q1007 R14/19//95=
201811260530 METAR LRIA 260530Z 09006KT 6000 FEW001 SCT003 OVC005 M00/M02
                        Q1007 R14/19//95=
201811260600 METAR LRIA 260600Z 10006KT 2000 BR FEW001 OVC002 M00/M01
                        Q1007 R14/19//95=
201811260630 METAR LRIA 260630Z 11005KT 0300 R14/0900D R32/0700D -FZDZ
                        FZFG VV001 M00/M01 Q1007 R14/19//95=
201811260700 METAR LRIA 260700Z 09005KT 0100 R14/0450N R32/0275N -FZDZ
                        FZFG VV001 M00/M01 Q1007 R14/19//95=
201811260730 METAR LRIA 260730Z 09004KT 0100 R14/0400N R32/0275N -DZ FG
                        VV001 00/M01 Q1007 REFZDZ R14/19//95=
201811260800 METAR LRIA 260800Z 00000KT 0100 R14/0350N R32/0250N -RA FG
                        VV001 00/M01 Q1007 R14/19//95=
201811260830 METAR LRIA 260830Z 31003KT 0100 R14/0375N R32/0375U -RA FG
                        VV001 00/M01 Q1007 R14/19//95=
201811260900 METAR LRIA 260900Z 34005KT 0200 R14/0550N R32/0400N -RA FG
                        VV001 00/M01 Q1006 R14/29//95=
201811260930 METAR LRIA 260930Z 30005KT 0200 R14/0650N R32/0500U -RA FG
                        VV001 00/M01 Q1006 R14/29//95=
201811261000 METAR LRIA 261000Z 27004KT 0200 R14/0450N R32/0450N -RA FG
                        VV001 00/M01 Q1006 R14/29//95=
201811261030 METAR LRIA 261030Z 28003KT 0600 R14/0600N R32/0900U -RA FG
                        OVC001 00/M01 Q1005 R14/29//95=
201811261100 METAR LRIA 261100Z 29004KT 0700 R14/0650N R32/1300U -RA FG
                        BKN001 BKN002 00/M01 Q1005 R14/29//95=
201811261130 METAR LRIA 261130Z 30005KT 1500 -RA BR SCT001 OVC002 00/M01
                        Q1005 R14/29//95=
201811261200 METAR LRIA 261200Z 30006KT 2500 -RA BR SCT001 OVC002 00/M01
                        Q1005 R14/29//95=
201811261230 METAR LRIA 261230Z 29005KT 3000 -RA BR FEW001 OVC002 00/M01
                        Q1005 R14/29//95=
201811261300 METAR LRIA 261300Z 29006KT 5000 -RA BR FEW001 OVC002 00/M01
                        Q1005 R14/29//95=
201811261330 METAR LRIA 261330Z 29008KT 7000 -RA OVC002 00/M01 Q1005 R14/29//95=
201811261400 METAR LRIA 261400Z 30008KT 8000 BKN002 BKN003 00/M01 Q1004
                        R14/29//95=
201811261430 METAR LRIA 261430Z 30008KT 7000 FEW001 OVC003 00/M01 Q1004
                        R14/29//95=
201811261500 METAR LRIA 261500Z 29008KT 7000 FEW001 OVC003 00/M01 Q1004
                        R14/29//95=
201811261530 METAR LRIA 261530Z 30008KT 9999 SCT002 BKN003 BKN004 00/M01
                        Q1005 R14/29//95=
201811261600 METAR LRIA 261600Z 31008KT 9999 SCT003 OVC004 00/M01 Q1005
                        R14/29//95=
201811261630 METAR LRIA 261630Z 31007KT 9999 FEW003 OVC004 00/M01 Q1005
                        R14/29//95=
201811261700 METAR LRIA 261700Z 30007KT 9999 OVC003 00/M01 Q1005 R14/29//95=
201811261730 METAR LRIA 261730Z 29006KT 9999 SCT002 OVC003 00/M01 Q1005
                        R14/29//95=
201811261800 METAR LRIA 261800Z 30006KT 280V340 9999 -RA OVC002 00/M01
                        Q1004 R14/29//95=
201811261830 METAR LRIA 261830Z 30007KT 7000 -RA BKN002 00/M01 Q1004 R14/29//95=
201811261900 METAR LRIA 261900Z 30008KT 6000 -RA BKN002 00/M01 Q1004 R14/29//95=
201811261930 METAR LRIA 261930Z 30009KT 9000 -DZ BKN002 00/M01 Q1004 R14/29//95=
201811262000 METAR LRIA 262000Z 29010KT 9999 -DZ OVC003 00/M01 Q1004 R14/29//95=
201811262030 METAR LRIA 262030Z 30010KT 9999 -RA BKN004 00/M01 Q1004 R14/29//95=
201811262100 METAR LRIA 262100Z 30010KT 9999 -RA BKN003 00/M01 Q1005 R14/29//95=
201811262130 METAR LRIA 262130Z 30009KT 9999 -RA BKN003 01/M01 Q1005 R14/29//95=
201811262200 METAR LRIA 262200Z 30011KT 9000 -RA BKN003 01/M01 Q1005 R14/29//95=
201811262230 METAR LRIA 262230Z 30009KT 7000 -RA BKN002 01/M01 Q1005 R14/29//95=
201811262300 METAR LRIA 262300Z 30009KT 7000 -RA BKN002 01/M01 Q1005 R14/29//95=
201811262330 METAR LRIA 262330Z 31008KT 7000 -RA OVC002 01/M01 Q1005 R14/29//95=
201811270000 METAR LRIA 270000Z 30008KT 9000 DZ OVC002 01/M01 Q1005 R14/29//95=
201811270030 METAR LRIA 270030Z 30007KT 9999 -DZ BKN002 01/M01 Q1006 R14/29//95=
201811270100 METAR LRIA 270100Z 31008KT 6000 -RA BKN002 01/M01 Q1006 R14/29//95=
201811270130 METAR LRIA 270130Z 31009KT 6000 -RA BKN002 01/M01 Q1006 R14/29//95=
201811270200 METAR LRIA 270200Z 32007KT 9999 -DZ BKN001 SCT002 00/M01
                        Q1006 R14/29//95=
201811270230 METAR LRIA 270230Z 31008KT 9999 -RA BKN002 00/M01 Q1006 R14/29//95=
201811270300 METAR LRIA 270300Z 31008KT 9999 -RA BKN003 00/M01 Q1006 R14/29//95=
201811270330 METAR LRIA 270330Z 31007KT 9999 -RA FEW002 BKN003 01/M01
                        Q1006 R14/29//95=
201811270400 METAR COR LRIA 270400Z 32008KT 9999 -RA FEW003 BKN004 01/M01
                        Q1007 R14/29//95=
201811270430 METAR LRIA 270430Z 31008KT 9999 BKN004 01/M01 Q1007 R14/29//95=
201811270500 METAR LRIA 270500Z 32008KT 9999 SCT004 01/M01 Q1007 R14/29//95=
201811270530 METAR LRIA 270530Z 32007KT 9999 -RA OVC005 01/M01 Q1007 R14/29//95=
201811270600 METAR LRIA 270600Z 32008KT 9999 OVC005 01/M01 Q1008 R14/29//95=
201811270630 METAR LRIA 270630Z 32008KT 9999 OVC006 01/M01 Q1009 R14/29//95=
201811270700 METAR LRIA 270700Z 31008KT 9999 -RA OVC006 01/M01 Q1009 R14/29//95=
201811270730 METAR LRIA 270730Z 32010KT 8000 -SN OVC006 01/M01 Q1009 R14/29//95=
201811270800 METAR LRIA 270800Z 31007KT 9000 -SN OVC005 01/M01 Q1010 R14/29//95=
201811270830 METAR LRIA 270830Z 33010KT 9999 -SN SCT005 OVC011 01/M01
                        Q1010 R14/29//95=
201811270900 METAR LRIA 270900Z 33010KT 9999 -SN OVC007 01/M02 Q1010 R14/29//95=
201811270930 METAR LRIA 270930Z 33008KT 9999 -SN BKN006 OVC013 01/M01
                        Q1010 R14/29//95=
201811271000 METAR LRIA 271000Z 33010KT 9000 -SN BKN006 OVC013 00/M02
                        Q1010 R14/29//95=
201811271030 METAR LRIA 271030Z 33010KT 9000 -SN BKN008 OVC017 00/M02
                        Q1011 R14/29//95=
201811271100 METAR LRIA 271100Z 32008KT 9000 -SN BKN006 OVC020 00/M02
                        Q1011 R14/29//95=
201811271130 METAR LRIA 271130Z 33010KT 7000 -SN BKN006 OVC027 00/M02
                        Q1011 R14/29//95=
201811271200 METAR LRIA 271200Z 32009KT 7000 -SN BKN007 OVC030 00/M02
                        Q1012 R14/29//95=
201811271230 METAR LRIA 271230Z 32009KT 7000 -SN BKN007 OVC030 M00/M02
                        Q1012 R14/29//95=
201811271300 METAR LRIA 271300Z 32009KT 8000 -SN BKN007 OVC030 M00/M02
                        Q1012 R14/29//95=
201811271330 METAR LRIA 271330Z 32009KT 7000 -SN OVC006 M00/M02 Q1013
                        R14/29//95=
201811271400 METAR LRIA 271400Z 32008KT 5000 -SN OVC006 M00/M02 Q1013
                        R14/29//95=
201811271430 METAR LRIA 271430Z 33009KT 3000 SN OVC006 M00/M02 Q1014 R14/29//95=
201811271500 METAR LRIA 271500Z 32007KT 3000 -SN BR OVC006 M00/M02 Q1014
                        RESN R14/29//95=
201811271530 METAR LRIA 271530Z 33009KT 5000 -SN BR BKN007 OVC030 M01/M02
                        Q1014 R14/29//95=
201811271600 METAR LRIA 271600Z 32007KT 6000 -SN BKN006 OVC027 M01/M02
                        Q1015 R14/29//95=
201811271630 METAR LRIA 271630Z 33009KT 8000 -SN SCT004 BKN007 M01/M02
                        Q1015 R14/29//95=
201811271700 METAR LRIA 271700Z 33008KT 9000 -SN BKN007 M01/M03 Q1016
                        R14/29//95=
201811271730 METAR LRIA 271730Z 33008KT 9999 -SN BKN005 OVC027 M01/M03
                        Q1016 R14/29//95=
201811271800 METAR LRIA 271800Z 33009KT 9999 -SN BKN006 OVC025 M01/M03
                        Q1016 R14/29//95=
201811271830 METAR LRIA 271830Z 33008KT 9999 -SN BKN004 OVC025 M01/M03
                        Q1017 R14/29//95=
201811271900 METAR LRIA 271900Z 33009KT 8000 -SN SCT004 SCT012 OVC027
                        M01/M03 Q1017 R14/29//95=
201811271930 METAR COR LRIA 271930Z 34013KT 5000 SN BR FEW004 BKN010 OVC027
                        M01/M03 Q1016 R14/620294=
201811272000 METAR LRIA 272000Z 33010KT 5000 SN BR FEW003 OVC010 M01/M03
                        Q1017 R14/620294=
201811272030 METAR LRIA 272030Z 33009KT 7000 -SN FEW004 OVC008 M01/M03
                        Q1017 R14/620294=
201811272100 METAR LRIA 272100Z 33009KT 6000 -SN SCT004 OVC009 M01/M03
                        Q1018 R14/620294=
201811272130 METAR LRIA 272130Z 33009KT 8000 -SN BKN005 OVC012 M01/M03
                        Q1018 R14/620294=
201811272200 METAR LRIA 272200Z 33009KT 8000 -SN SCT005 OVC009 M01/M03
                        Q1018 R14/620294=
201811272230 METAR LRIA 272230Z 33010KT 8000 -SN SCT006 OVC009 M01/M04
                        Q1019 R14/620294=
201811272300 METAR LRIA 272300Z 33011KT 6000 -SN SCT006 OVC009 M02/M04
                        Q1019 R14/620294=
201811272330 METAR LRIA 272330Z 33009KT 8000 -SN FEW005 OVC009 M02/M04
                        Q1019 R14/620294=
201811280000 METAR LRIA 280000Z 34012KT 9999 FEW007 OVC009 M02/M05 Q1019
                        R14/620294=
201811280030 METAR LRIA 280030Z 33012KT 9999 OVC010 M02/M06 Q1019 R14/620294=
201811280100 METAR LRIA 280100Z 33013KT 9999 OVC013 M03/M07 Q1020 R14/620294=
201811280130 METAR LRIA 280130Z 34013KT 9999 OVC015 M03/M07 Q1020 R14/620294=
201811280200 METAR LRIA 280200Z 34014KT 9999 OVC015 M03/M07 Q1020 R14/620294=
201811280230 METAR LRIA 280230Z 35014KT 9999 BKN017 BKN022 M03/M08 Q1020
                        R14/620294=
201811280300 METAR LRIA 280300Z 34012KT 9999 SCT017 BKN022 M03/M07 Q1021
                        R14/620294=
201811280330 METAR LRIA 280330Z 34010KT 9999 OVC017 M03/M07 Q1021 R14/620294=
201811280400 METAR COR LRIA 280400Z 34013KT 9999 OVC018 M03/M07 Q1022
                        R14/29//95=
201811280430 METAR LRIA 280430Z 35014KT 9999 SCT015 OVC018 M03/M07 Q1022
                        R14/29//95=
201811280500 METAR LRIA 280500Z 36015KT 9999 FEW015 OVC019 M04/M08 Q1022
                        R14/29//95=
201811280530 METAR LRIA 280530Z 35015KT 9999 OVC016 M04/M08 Q1023 R14/29//95=
201811280600 METAR LRIA 280600Z 35015KT 9999 OVC015 M04/M08 Q1023 R14/29//95=
201811280630 METAR LRIA 280630Z 35014KT 9999 BKN014 OVC018 M04/M08 Q1024
                        R14/29//95=
201811280700 METAR LRIA 280700Z 35015KT 9999 SCT013 OVC017 M04/M07 Q1024
                        R14/29//95=
201811280730 METAR LRIA 280730Z 35014KT 9999 SCT011 BKN014 OVC017 M04/M07
                        Q1024 R14/29//95=
201811280800 METAR LRIA 280800Z 34014KT 9999 BKN012 OVC017 M04/M07 Q1025
                        R14/29//95=
201811280830 METAR LRIA 280830Z 35014KT 9999 BKN012 OVC016 M03/M07 Q1025
                        R14/29//95=
201811280900 METAR LRIA 280900Z 35012KT 9999 OVC016 M03/M06 Q1025 R14/29//95=
201811280930 METAR LRIA 280930Z 36012KT 9999 OVC015 M03/M07 Q1026 R14/29//95=
201811281000 METAR LRIA 281000Z 36016KT 9999 OVC016 M03/M07 Q1025 R14/29//95=
201811281030 METAR LRIA 281030Z 36015KT 9999 OVC015 M03/M07 Q1025 R14/29//95=
201811281100 METAR LRIA 281100Z 01015KT 9999 OVC017 M03/M07 Q1026 R14/29//95=
201811281130 METAR LRIA 281130Z 36012KT 9999 OVC016 M03/M07 Q1026 R14/19//95=
201811281200 METAR LRIA 281200Z 35016KT 9999 OVC018 M03/M07 Q1026 R14/19//95=
201811281230 METAR LRIA 281230Z 35013KT 9999 OVC017 M03/M07 Q1027 R14/19//95=
201811281300 METAR LRIA 281300Z 36012KT 9999 OVC018 M03/M07 Q1027 R14/19//95=
201811281330 METAR LRIA 281330Z 36015KT 9999 OVC018 M03/M07 Q1027 R14/19//95=
201811281400 METAR LRIA 281400Z 35012KT 9999 OVC020 M03/M08 Q1028 R14/19//95=
201811281430 METAR LRIA 281430Z 35013KT 9999 OVC022 M03/M08 Q1028 R14/19//95=
201811281500 METAR LRIA 281500Z 36012KT 9999 OVC022 M03/M08 Q1028 R14/19//95=
201811281530 METAR COR LRIA 281530Z 01011KT 9999 OVC024 M03/M09 Q1029
                        R14/920295=
201811281600 METAR LRIA 281600Z 36010KT 9999 OVC026 M03/M09 Q1030 R14/920295=
201811281630 METAR COR LRIA 281630Z 36008KT 9999 BKN026 M04/M09 Q1030
                        R14/920295=
201811281700 METAR LRIA 281700Z 34008KT 9999 BKN024 M04/M09 Q1031 R14/920295=
201811281730 METAR LRIA 281730Z 32005KT 9999 SCT026 M04/M09 Q1031 R14/920295=
201811281800 METAR LRIA 281800Z 33006KT 9999 SCT028 M05/M09 Q1032 R14/920295=
201811281830 METAR LRIA 281830Z 32007KT 9999 SCT030 M05/M10 Q1032 R14/19//95=
201811281900 METAR LRIA 281900Z 32007KT 9999 FEW030 M06/M10 Q1032 R14/19//95=
201811281930 METAR LRIA 281930Z 33006KT 9999 FEW030 M06/M10 Q1033 R14/19//95=
201811282000 METAR LRIA 282000Z 32007KT CAVOK M06/M10 Q1033 R14/19//95=
201811282030 METAR LRIA 282030Z 33007KT 9999 FEW030 M07/M11 Q1033 R14/19//95=
201811282100 METAR LRIA 282100Z 33008KT CAVOK M07/M10 Q1034 R14/19//95=
201811282130 METAR LRIA 282130Z 34008KT CAVOK M07/M11 Q1034 R14/19//95=
201811282200 METAR LRIA 282200Z 34012KT CAVOK M07/M10 Q1034 R14/19//95=
201811282230 METAR LRIA 282230Z 34011KT CAVOK M07/M10 Q1034 R14/19//95=
201811282300 METAR LRIA 282300Z 34008KT CAVOK M07/M11 Q1035 R14/19//95=
201811282330 METAR LRIA 282330Z 32005KT CAVOK M08/M11 Q1035 R14/19//95=
201811290000 METAR LRIA 290000Z 32007KT CAVOK M08/M11 Q1035 R14/19//95=
201811290030 METAR LRIA 290030Z 32007KT CAVOK M08/M11 Q1036 R14/19//95=
201811290100 METAR LRIA 290100Z 30007KT CAVOK M08/M11 Q1036 R14/19//95=
201811290130 METAR LRIA 290130Z 21002KT CAVOK M09/M11 Q1036 R14/19//95=
201811290200 METAR LRIA 290200Z 29004KT 240V320 CAVOK M09/M11 Q1036 R14/19//95=
201811290230 METAR LRIA 290230Z 32006KT CAVOK M09/M11 Q1036 R14/19//95=
201811290300 METAR LRIA 290300Z VRB01KT CAVOK M10/M12 Q1037 R14/19//95=
201811290330 METAR LRIA 290330Z 24004KT CAVOK M10/M12 Q1037 R14/19//95=
201811290400 METAR LRIA 290400Z 32006KT 9999 SCT013 SCT040 M09/M11 Q1038
                        R14/19//95=
201811290430 METAR LRIA 290430Z 25003KT 230V290 9999 SCT040 M10/M12 Q1038
                        R14/19//95=
201811290500 METAR LRIA 290500Z 26004KT 230V300 9999 FEW045 M09/M11 Q1038
                        R14/19//95=
201811290530 METAR LRIA 290530Z 26003KT 230V300 9999 FEW045 M09/M12 Q1039
                        R14/19//95=
201811290600 METAR LRIA 290600Z 27003KT 250V330 9999 SCT040 M09/M11 Q1039
                        R14/19//95=
201811290630 METAR LRIA 290630Z 25003KT 9999 BKN029 M09/M12 Q1040 R14/19//95=
201811290700 METAR LRIA 290700Z 27003KT 9999 OVC032 M09/M11 Q1040 R14/19//95=
201811290730 METAR LRIA 290730Z 30005KT 9999 OVC034 M08/M11 Q1040 R14/19//95=
201811290800 METAR LRIA 290800Z 30005KT 9999 OVC034 M08/M11 Q1040 R14/19//95=
201811290830 METAR LRIA 290830Z 28004KT 9999 OVC039 M07/M10 Q1041 R14/19//95=
201811290900 METAR LRIA 290900Z 31005KT 9999 -SN OVC038 M06/M10 Q1041
                        R14/19//95=
201811290930 METAR LRIA 290930Z 27005KT 240V310 9999 -SN SCT033 BKN042
                        M06/M10 Q1040 R14/19//95=
201811291000 METAR LRIA 291000Z 29003KT 240V330 9999 OVC036 M05/M09 Q1040
                        R14/19//95=
201811291030 METAR LRIA 291030Z 32007KT 9999 BKN035 M05/M09 Q1040 R14/19//95=
201811291100 METAR COR LRIA 291100Z 34010KT 7000 SN SCT028 BKN032 M05/M09
                        Q1040 R14/19//95=
201811291130 METAR LRIA 291130Z 33008KT 8000 -SN OVC032 M05/M09 Q1040
                        R14/19//95=
201811291200 METAR LRIA 291200Z 36007KT 9999 -SN OVC031 M04/M09 Q1040
                        R14/19//95=
201811291230 METAR LRIA 291230Z 35009KT 9999 -SN OVC033 M05/M09 Q1040
                        R14/19//95=
201811291300 METAR LRIA 291300Z 36008KT 9999 -SN OVC031 M04/M09 Q1040
                        R14/19//95=
201811291330 METAR LRIA 291330Z 36008KT 9999 -SN OVC034 M05/M09 Q1040
                        R14/19//95=
201811291400 METAR LRIA 291400Z 36009KT 9999 -SN FEW025 OVC035 M05/M09
                        Q1040 R14/19//95=
201811291430 METAR LRIA 291430Z 36010KT 9999 -SN OVC036 M05/M09 Q1040
                        R14/19//95=
201811291500 METAR LRIA 291500Z 36008KT 9999 -SN OVC039 M05/M08 Q1040
                        R14/19//95=
201811291530 METAR LRIA 291530Z 35009KT 9999 -SN OVC039 M05/M08 Q1040
                        R14/19//95=
201811291600 METAR LRIA 291600Z 36007KT 9999 -SN OVC042 M05/M08 Q1040
                        R14/19//95=
201811291630 METAR LRIA 291630Z 01007KT 9999 -SN SCT031 BKN040 M05/M08
                        Q1040 R14/19//95=
201811291700 METAR LRIA 291700Z 35007KT 9999 -SN FEW030 OVC038 M05/M08
                        Q1041 R14/19//95=
201811291730 METAR LRIA 291730Z 36006KT 9999 -SN OVC040 M05/M08 Q1040
                        R14/140195=
201811291800 METAR LRIA 291800Z 01007KT 9999 -SN OVC044 M05/M08 Q1040
                        R14/19//95=
201811291830 METAR LRIA 291830Z 01007KT 9999 OVC042 M05/M08 Q1040 R14/19//95=
201811291900 METAR LRIA 291900Z 01005KT 9999 OVC039 M05/M09 Q1040 R14/19//95=
201811291930 METAR LRIA 291930Z 01006KT 9999 OVC039 M06/M09 Q1040 R14/19//95=
201811292000 METAR LRIA 292000Z 01005KT 9999 OVC037 M06/M10 Q1040 R14/19//95=
201811292030 METAR LRIA 292030Z 01003KT 9999 OVC034 M06/M09 Q1040 R14/19//95=
201811292100 METAR LRIA 292100Z 01003KT 9999 OVC034 M06/M09 Q1040 R14/19//95=
201811292130 METAR LRIA 292130Z 03006KT 9999 OVC031 M06/M10 Q1040 R14/19//95=
201811292200 METAR LRIA 292200Z 03008KT 9999 SCT031 M07/M10 Q1039 R14/19//95=
201811292230 METAR LRIA 292230Z 02006KT 9999 BKN025 M06/M10 Q1039 R14/19//95=
201811292300 METAR LRIA 292300Z 03007KT 9999 OVC027 M06/M10 Q1039 R14/19//95=
201811292330 METAR LRIA 292330Z 04005KT 9999 BKN024 M06/M11 Q1038 R14/19//95=
201811300000 METAR LRIA 300000Z 02006KT 9999 OVC023 M06/M10 Q1038 R14/19//95=
201811300030 METAR LRIA 300030Z 03007KT 9999 OVC024 M07/M11 Q1038 R14/19//95=
201811300100 METAR LRIA 300100Z 02008KT 9999 -SN FEW019 BKN024 M08/M11
                        Q1038 R14/19//95=
201811300130 METAR LRIA 300130Z 03007KT 9999 BKN023 M08/M12 Q1037 R14/19//95=
201811300200 METAR LRIA 300200Z 35008KT 9999 SCT022 M09/M12 Q1037 R14/19//95=
201811300230 METAR LRIA 300230Z 36008KT 9999 SCT023 M10/M13 Q1037 R14/19//95=
201811300300 METAR LRIA 300300Z 33006KT CAVOK M11/M14 Q1037 R14/19//95=
201811300330 METAR LRIA 300330Z 32006KT CAVOK M11/M14 Q1036 R14/19//95=
201811300400 METAR LRIA 300400Z 31005KT CAVOK M12/M14 Q1036 R14/19//95=
201811300430 METAR LRIA 300430Z 30005KT CAVOK M12/M14 Q1036 R14/19//95=
201811300500 METAR LRIA 300500Z 30006KT CAVOK M12/M14 Q1036 R14/19//95=
201811300530 METAR LRIA 300530Z 31005KT CAVOK M12/M15 Q1036 R14/19//95=
201811300600 METAR LRIA 300600Z 31005KT CAVOK M13/M15 Q1035 R14/19//95=
201811300630 METAR LRIA 300630Z 32007KT CAVOK M12/M15 Q1035 R14/19//95=
201811300700 METAR LRIA 300700Z 32007KT CAVOK M12/M15 Q1035 R14/19//95=
201811300730 METAR LRIA 300730Z 31006KT CAVOK M11/M15 Q1035 R14/19//95=
201811300800 METAR LRIA 300800Z 32006KT CAVOK M11/M14 Q1035 R14/19//95=
201811300830 METAR LRIA 300830Z 32006KT CAVOK M11/M14 Q1035 R14/19//95=
201811300900 METAR LRIA 300900Z 31008KT CAVOK M10/M14 Q1034 R14/19//95=
201811300930 METAR LRIA 300930Z 29007KT 260V320 CAVOK M10/M14 Q1033 R14/19//95=
201811301000 METAR LRIA 301000Z 29008KT CAVOK M10/M14 Q1033 R14/19//95=
201811301030 METAR LRIA 301030Z 29007KT 270V330 CAVOK M09/M13 Q1032 R14/19//95=
201811301100 METAR LRIA 301100Z 30007KT 270V330 CAVOK M09/M13 Q1032 R14/19//95=
201811301130 METAR LRIA 301130Z 29007KT CAVOK M09/M13 Q1031 R14/19//95=
201811301200 METAR LRIA 301200Z 30007KT 260V320 CAVOK M09/M13 Q1031 R14/19//95=
201811301230 METAR LRIA 301230Z 30009KT CAVOK M09/M13 Q1030 R14/19//95=
201811301300 METAR LRIA 301300Z 30008KT CAVOK M09/M13 Q1030 R14/19//95=
201811301330 METAR LRIA 301330Z 30008KT CAVOK M09/M13 Q1029 R14/19//95=
201811301400 METAR LRIA 301400Z 29007KT CAVOK M09/M13 Q1029 R14/19//95=
201811301430 METAR LRIA 301430Z 29006KT CAVOK M09/M12 Q1029 R14/19//95=
201811301500 METAR LRIA 301500Z 29006KT CAVOK M09/M12 Q1029 R14/19//95=
201811301530 METAR LRIA 301530Z 30007KT CAVOK M09/M13 Q1028 R14/19//95=
201811301600 METAR LRIA 301600Z 28006KT CAVOK M09/M13 Q1028 R14/19//95=
201811301630 METAR LRIA 301630Z 28005KT CAVOK M09/M12 Q1028 R14/19//95=
201811301700 METAR LRIA 301700Z 27005KT 9999 OVC047 M09/M12 Q1028 R14/19//95=
201811301730 METAR LRIA 301730Z 27004KT 240V300 9999 OVC046 M09/M12 Q1027
                        R14/19//95=
201811301800 METAR LRIA 301800Z 27004KT 9999 OVC043 M09/M12 Q1027 R14/19//95=
201811301830 METAR LRIA 301830Z 26004KT 220V280 9999 OVC042 M09/M12 Q1027
                        R14/19//95=
201811301900 METAR COR LRIA 301900Z 26005KT 220V280 9999 OVC044 M09/M12
                        Q1026 R14/19//95=
201811301930 METAR LRIA 301930Z 25005KT 220V290 9999 OVC043 M09/M12 Q1026
                        R14/19//95=
201811302000 METAR LRIA 302000Z 26003KT 9999 OVC041 M08/M12 Q1025 R14/19//95=
201811302030 METAR LRIA 302030Z 27003KT 9999 OVC041 M08/M12 Q1025 R14/19//95=
201811302100 METAR LRIA 302100Z 27004KT 240V300 9999 OVC042 M08/M12 Q1025
                        R14/19//95=
201811302130 METAR LRIA 302130Z 27004KT 9999 OVC043 M08/M11 Q1024 R14/19//95=
201811302200 METAR LRIA 302200Z 26004KT 9999 OVC042 M08/M11 Q1024 R14/19//95=
201811302230 METAR LRIA 302230Z 28004KT 9999 OVC042 M08/M11 Q1024 R14/19//95=
201811302300 METAR LRIA 302300Z 27004KT 9999 SCT013 OVC041 M08/M11 Q1024
                        R14/19//95=
201811302330 METAR LRIA 302330Z 27004KT 9999 SCT014 BKN040 M08/M11 Q1023
                        R14/19//95=