201812010000 METAR LRIA 010000Z 27003KT 9999 FEW011 BKN041 M08/M11 Q1023
                        R14/19//95=
201812010030 METAR LRIA 010030Z 28004KT 9999 FEW011 SCT047 M08/M11 Q1023
                        R14/19//95=
201812010100 METAR LRIA 010100Z VRB03KT 9999 SCT011 SCT047 M08/M11 Q1023
                        R14/19//95=
201812010130 METAR LRIA 010130Z 26004KT 230V290 9999 BKN009 M08/M11 Q1022
                        R14/19//95=
201812010200 METAR LRIA 010200Z 26004KT 9999 SCT009 M08/M11 Q1022 R14/19//95=
201812010230 METAR LRIA 010230Z 27004KT 250V310 9999 FEW009 M08/M11 Q1022
                        R14/19//95=
201812010300 METAR LRIA 010300Z 27004KT 240V300 9999 FEW008 M08/M11 Q1021
                        R14/19//95=
201812010330 METAR LRIA 010330Z 26003KT 9999 BKN008 M08/M11 Q1021 R14/19//95=
201812010400 METAR LRIA 010400Z 28005KT 9999 BKN010 M08/M11 Q1021 R14/19//95=
201812010430 METAR LRIA 010430Z 28004KT 9999 SCT010 M08/M11 Q1021 R14/19//95=
201812010500 METAR LRIA 010500Z 26003KT 9999 FEW010 M08/M11 Q1021 R14/19//95=
201812010530 METAR LRIA 010530Z 25004KT 9999 FEW010 M08/M11 Q1021 R14/19//95=
201812010600 METAR LRIA 010600Z 26004KT CAVOK M08/M11 Q1021 R14/19//95=
201812010630 METAR LRIA 010630Z 26003KT 230V300 CAVOK M08/M11 Q1021 R14/19//95=
201812010700 METAR LRIA 010700Z 26004KT CAVOK M08/M11 Q1021 R14/19//95=
201812010730 METAR LRIA 010730Z 26006KT CAVOK M08/M11 Q1022 R14/19//95=
201812010800 METAR LRIA 010800Z 28005KT CAVOK M07/M11 Q1022 R14/19//95=
201812010830 METAR LRIA 010830Z 23005KT 200V270 CAVOK M07/M12 Q1022 R14/19//95=
201812010900 METAR LRIA 010900Z 26005KT 200V290 CAVOK M07/M13 Q1022 R14/19//95=
201812010930 METAR LRIA 010930Z 30003KT 230V340 CAVOK M06/M12 Q1021 R14/19//95=
201812011000 METAR LRIA 011000Z 29004KT 230V310 CAVOK M06/M12 Q1021 R14/19//95=
201812011030 METAR LRIA 011030Z 28005KT CAVOK M06/M12 Q1021 R14/19//95=
201812011100 METAR LRIA 011100Z 24006KT CAVOK M05/M13 Q1021 R14/19//95=
201812011130 METAR LRIA 011130Z 27004KT 220V330 CAVOK M05/M12 Q1021 R14/19//95=
201812011200 METAR LRIA 011200Z 30004KT 250V340 CAVOK M05/M12 Q1021 R14/19//95=
201812011230 METAR LRIA 011230Z 27003KT 220V320 CAVOK M04/M12 Q1021 R14/19//95=
201812011300 METAR LRIA 011300Z 27004KT 240V310 CAVOK M05/M12 Q1021 R14/19//95=
201812011330 METAR LRIA 011330Z 28004KT CAVOK M05/M12 Q1021 R14/19//95=
201812011400 METAR LRIA 011400Z 29003KT CAVOK M06/M12 Q1021 R14/19//95=
201812011430 METAR LRIA 011430Z 31004KT CAVOK M06/M13 Q1021 R14/19//95=
201812011500 METAR LRIA 011500Z 29003KT CAVOK M08/M13 Q1021 R14/19//95=
201812011530 METAR LRIA 011530Z 18001KT CAVOK M08/M13 Q1022 R14/19//95=
201812011600 METAR LRIA 011600Z 11003KT CAVOK M08/M13 Q1022 R14/19//95=
201812011630 METAR LRIA 011630Z 00000KT CAVOK M09/M14 Q1022 R14/19//95=
201812011700 METAR LRIA 011700Z 00000KT CAVOK M10/M14 Q1022 R14/19//95=
201812011730 METAR LRIA 011730Z 00000KT CAVOK M09/M13 Q1022 R14/19//95=
201812011800 METAR LRIA 011800Z 00000KT 8000 NSC M10/M13 Q1022 R14/19//95=
201812011830 METAR LRIA 011830Z 00000KT CAVOK M09/M13 Q1022 R14/19//95=
201812011900 METAR LRIA 011900Z 00000KT CAVOK M09/M13 Q1022 R14/19//95=
201812011930 METAR LRIA 011930Z 00000KT 7000 NSC M08/M13 Q1023 R14/19//95=
201812012000 METAR LRIA 012000Z 00000KT 6000 NSC M12/M15 Q1023 R14/19//95=
201812012030 METAR LRIA 012030Z 00000KT 7000 NSC M10/M14 Q1023 R14/19//95=
201812012100 METAR LRIA 012100Z 00000KT 7000 NSC M13/M10 Q1023 R14/19//95=
201812012130 METAR LRIA 012130Z 00000KT 9000 NSC M10/M13 Q1023 R14/19//95=
201812012200 METAR LRIA 012200Z 00000KT 9000 NSC M11/M14 Q1023 R14/19//95=
201812012230 METAR LRIA 012230Z 00000KT 9000 NSC M10/M13 Q1023 R14/19//95=
201812012300 METAR LRIA 012300Z 00000KT 7000 NSC M11/M13 Q1022 R14/19//95=
201812012330 METAR LRIA 012330Z 00000KT 7000 NSC M13/M15 Q1023 R14/19//95=
201812020000 METAR LRIA 020000Z 00000KT 6000 NSC M12/M15 Q1023 R14/19//95=
201812020030 METAR LRIA 020030Z 00000KT 7000 NSC M12/M14 Q1023 R14/19//95=
201812020100 METAR LRIA 020100Z 00000KT 5000 BR NSC M12/M14 Q1023 R14/19//95=
201812020130 METAR LRIA 020130Z 20002KT 6000 NSC M12/M15 Q1023 R14/19//95=
201812020200 METAR LRIA 020200Z 00000KT 6000 NSC M12/M15 Q1023 R14/19//95=
201812020230 METAR LRIA 020230Z 00000KT 6000 NSC M12/M15 Q1023 R14/19//95=
201812020300 METAR LRIA 020300Z AUTO 00000KT 7000 NCD M12/M14 Q1023=
201812020330 METAR LRIA 020330Z 07004KT 7000 NSC M12/M15 Q1023 R14/19//95=
201812020400 METAR LRIA 020400Z 35002KT 310V050 7000 NSC M13/M15 Q1023
                        R14/19//95=
201812020430 METAR LRIA 020430Z 07004KT 9000 NSC M12/M14 Q1023 R14/19//95=
201812020500 METAR LRIA 020500Z 10003KT 7000 NSC M11/M14 Q1024 R14/19//95=
201812020530 METAR LRIA 020530Z 22001KT 7000 NSC M13/M15 Q1024 R14/19//95=
201812020600 METAR LRIA 020600Z 00000KT 6000 NSC M12/M15 Q1024 R14/19//95=
201812020630 METAR COR LRIA 020630Z 00000KT 6000 NSC M12/M15 Q1024 R14/19//95=
201812020700 METAR LRIA 020700Z 08001KT 5000 BR NSC M11/M14 Q1024 R14/19//95=
201812020730 METAR COR LRIA 020730Z 10002KT 060V130 6000 NSC M11/M14 Q1024
                        R14/19//95=
201812020800 METAR LRIA 020800Z 10003KT 6000 NSC M10/M14 Q1024 R14/19//95=
201812020830 METAR COR LRIA 020830Z 10002KT 5000 BR NSC M10/M13 Q1024
                        R14/19//95=
201812020900 METAR LRIA 020900Z 07003KT 6000 NSC M09/M13 Q1024 R14/19//95=
201812020930 METAR LRIA 020930Z 07003KT 7000 NSC M08/M12 Q1024 R14/19//95=
201812021000 METAR LRIA 021000Z 10005KT 6000 NSC M08/M10 Q1023 R14/19//95=
201812021030 METAR LRIA 021030Z 11004KT 7000 NSC M07/M10 Q1023 R14/19//95=
201812021100 METAR LRIA 021100Z 11005KT 8000 NSC M06/M09 Q1023 R14/19//95=
201812021130 METAR LRIA 021130Z 11005KT CAVOK M05/M09 Q1022 R14/19//95=
201812021200 METAR LRIA 021200Z 11006KT CAVOK M04/M08 Q1022 R14/19//95=
201812021230 METAR COR LRIA 021230Z 10005KT CAVOK M04/M08 Q1022 R14/19//95=
201812021300 METAR LRIA 021300Z 08004KT CAVOK M04/M08 Q1022 R14/19//95=
201812021330 METAR COR LRIA 021330Z 08005KT CAVOK M04/M08 Q1022 R14/19//95=
201812021400 METAR LRIA 021400Z 10006KT CAVOK M04/M08 Q1022 R14/19//95=
201812021430 METAR LRIA 021430Z 09007KT CAVOK M05/M08 Q1022 R14/19//95=
201812021500 METAR LRIA 021500Z 10006KT CAVOK M05/M08 Q1022 R14/19//95=
201812021530 METAR LRIA 021530Z 10005KT CAVOK M05/M09 Q1022 R14/19//95=
201812021600 METAR LRIA 021600Z 10005KT CAVOK M05/M09 Q1022 R14/19//95=
201812021630 METAR LRIA 021630Z 11005KT CAVOK M05/M10 Q1022 R14/19//95=
201812021700 METAR LRIA 021700Z 10005KT CAVOK M05/M09 Q1021 R14/19//95=
201812021730 METAR LRIA 021730Z 10006KT CAVOK M06/M10 Q1021 R14/19//95=
201812021800 METAR LRIA 021800Z 09006KT CAVOK M06/M10 Q1021 R14/19//95=
201812021830 METAR LRIA 021830Z 09006KT CAVOK M06/M10 Q1021 R14/19//95=
201812021900 METAR LRIA 021900Z 10006KT CAVOK M06/M10 Q1021 R14/19//95=
201812021930 METAR LRIA 021930Z 09006KT CAVOK M06/M10 Q1021 R14/19//95=
201812022000 METAR LRIA 022000Z 09007KT CAVOK M06/M09 Q1021 R14/19//95=
201812022030 METAR LRIA 022030Z 10009KT CAVOK M06/M09 Q1020 R14/19//95=
201812022100 METAR LRIA 022100Z 10009KT CAVOK M06/M09 Q1020 R14/19//95=
201812022130 METAR LRIA 022130Z 10008KT CAVOK M06/M09 Q1020 R14/19//95=
201812022200 METAR LRIA 022200Z 10009KT CAVOK M06/M09 Q1020 R14/19//95=
201812022230 METAR LRIA 022230Z 10008KT CAVOK M06/M09 Q1020 R14/19//95=
201812022300 METAR LRIA 022300Z 11010KT CAVOK M06/M09 Q1019 R14/19//95=
201812022330 METAR LRIA 022330Z 10010KT CAVOK M06/M09 Q1019 R14/19//95=
201812030000 METAR LRIA 030000Z 11011KT CAVOK M06/M09 Q1019 R14/19//95=
201812030030 METAR LRIA 030030Z 11011KT CAVOK M06/M09 Q1019 R14/19//95=
201812030100 METAR LRIA 030100Z 11011KT CAVOK M06/M09 Q1018 R14/19//95=
201812030130 METAR LRIA 030130Z 11010KT CAVOK M07/M09 Q1018 R14/19//95=
201812030200 METAR LRIA 030200Z 10010KT CAVOK M07/M09 Q1018 R14/19//95=
201812030230 METAR LRIA 030230Z 10010KT CAVOK M07/M09 Q1018 R14/19//95=
201812030300 METAR LRIA 030300Z 10011KT CAVOK M07/M09 Q1017 R14/19//95=
201812030330 METAR LRIA 030330Z 10011KT CAVOK M07/M09 Q1017 R14/19//95=
201812030400 METAR LRIA 030400Z 11012KT CAVOK M07/M10 Q1017 R14/19//95=
201812030430 METAR LRIA 030430Z 11012KT CAVOK M07/M09 Q1017 R14/19//95=
201812030500 METAR LRIA 030500Z 10012KT CAVOK M07/M09 Q1017 R14/19//95=
201812030530 METAR COR LRIA 030530Z 11013KT 8000 NSC M07/M09 Q1017 R14/19//95=
201812030600 METAR LRIA 030600Z 11013KT 8000 NSC M07/M09 Q1016 R14/19//95=
201812030630 METAR LRIA 030630Z 11013KT 8000 NSC M06/M09 Q1016 R14/19//95=
201812030700 METAR LRIA 030700Z 11012KT 8000 NSC M06/M09 Q1016 R14/19//95=
201812030730 METAR LRIA 030730Z 11013KT 8000 NSC M05/M08 Q1016 R14/19//95=
201812030800 METAR LRIA 030800Z 11013KT 8000 NSC M04/M07 Q1016 R14/19//95=
201812030830 METAR LRIA 030830Z 11012KT 8000 NSC M04/M07 Q1016 R14/19//95=
201812030900 METAR LRIA 030900Z 11012KT 8000 NSC M03/M07 Q1016 R14/19//95=
201812030930 METAR LRIA 030930Z 11013KT 8000 NSC M03/M06 Q1016 R14/19//95=
201812031000 METAR LRIA 031000Z 11013KT 7000 NSC M02/M06 Q1015 R14/19//95=
201812031030 METAR LRIA 031030Z 11011KT 7000 NSC M02/M06 Q1015 R14/19//95=
201812031100 METAR LRIA 031100Z 11012KT 7000 NSC M02/M05 Q1015 R14/19//95=
201812031130 METAR LRIA 031130Z 11012KT 7000 NSC M01/M05 Q1015 R14/19//95=
201812031200 METAR LRIA 031200Z 11011KT 7000 NSC M01/M05 Q1015 R14/19//95=
201812031230 METAR LRIA 031230Z 11013KT 7000 NSC M00/M05 Q1014 R14/19//95=
201812031300 METAR LRIA 031300Z 12012KT 8000 NSC 00/M04 Q1014 R14/19//95=
201812031330 METAR LRIA 031330Z 12010KT CAVOK 00/M04 Q1014 R14/19//95=
201812031400 METAR LRIA 031400Z 12011KT CAVOK M00/M04 Q1014 R14/19//95=
201812031430 METAR LRIA 031430Z 11009KT CAVOK M01/M04 Q1014 R14/19//95=
201812031500 METAR LRIA 031500Z 11009KT CAVOK M01/M04 Q1014 R14/19//95=
201812031530 METAR LRIA 031530Z 11009KT CAVOK M01/M05 Q1014 R14/19//95=
201812031600 METAR LRIA 031600Z 11009KT CAVOK M01/M04 Q1014 R14/19//95=
201812031630 METAR LRIA 031630Z 11009KT CAVOK M01/M04 Q1015 R14/19//95=
201812031700 METAR LRIA 031700Z 12010KT CAVOK M01/M04 Q1015 R14/19//95=
201812031730 METAR LRIA 031730Z 11011KT CAVOK M02/M04 Q1015 R14/19//95=
201812031800 METAR LRIA 031800Z 11011KT 9000 NSC M02/M05 Q1015 R14/19//95=
201812031830 METAR LRIA 031830Z 11013KT 5000 BR NSC M03/M05 Q1014 R14/19//95=
201812031900 METAR LRIA 031900Z 11013KT 5000 BR NSC M03/M05 Q1014 R14/19//95=
201812031930 METAR LRIA 031930Z 11013KT 3200 BR NSC M03/M04 Q1014 R14/19//95=
201812032000 METAR LRIA 032000Z 11013KT 4500 BR NSC M03/M04 Q1014 R14/19//95=
201812032030 METAR LRIA 032030Z 11012KT 4700 BR NSC M03/M04 Q1014 R14/19//95=
201812032100 METAR LRIA 032100Z 11012KT 4700 BR NSC M03/M04 Q1014 R14/19//95=
201812032130 METAR LRIA 032130Z 11012KT 4800 BR NSC M03/M04 Q1015 R14/19//95=
201812032200 METAR LRIA 032200Z 11013KT 4000 BR NSC M03/M04 Q1014 R14/19//95=
201812032230 METAR LRIA 032230Z 11013KT 5000 BR NSC M03/M04 Q1014 R14/19//95=
201812032300 METAR LRIA 032300Z 11011KT 6000 NSC M03/M04 Q1014 R14/19//95=
201812032330 METAR LRIA 032330Z 11012KT 5000 BR NSC M03/M05 Q1014 R14/19//95=
201812040000 METAR LRIA 040000Z 11013KT 5000 BR NSC M03/M05 Q1014 R14/19//95=
201812040030 METAR LRIA 040030Z 11012KT 6000 NSC M03/M05 Q1014 R14/19//95=
201812040100 METAR LRIA 040100Z 11012KT 7000 NSC M03/M05 Q1014 R14/19//95=
201812040130 METAR LRIA 040130Z 12012KT 8000 NSC M03/M05 Q1014 R14/19//95=
201812040200 METAR LRIA 040200Z 10008KT 9000 NSC M03/M05 Q1014 R14/19//95=
201812040230 METAR LRIA 040230Z 10010KT CAVOK M03/M05 Q1014 R14/19//95=
201812040300 METAR LRIA 040300Z 10009KT CAVOK M03/M05 Q1014 R14/19//95=
201812040330 METAR LRIA 040330Z 11010KT 8000 NSC M02/M04 Q1013 R14/19//95=
201812040400 METAR LRIA 040400Z 11011KT 6000 NSC M02/M04 Q1013 R14/19//95=
201812040430 METAR LRIA 040430Z 11012KT 5000 BR NSC M02/M04 Q1013 R14/19//95=
201812040500 METAR LRIA 040500Z 11011KT 4500 BR FEW001 M03/M04 Q1014 R14/19//95=
201812040530 METAR LRIA 040530Z 11011KT 5000 BR FEW001 M02/M04 Q1014 R14/19//95=
201812040600 METAR LRIA 040600Z 11010KT 8000 2000NW PRFG FEW001 M03/M04
                        Q1014 R14/19//95=
201812040630 METAR LRIA 040630Z 11010KT 0250 R14/0450N R32/0550N FZFG
                        SCT001 M02/M04 Q1014 R14/19//95=
201812040700 METAR LRIA 040700Z 11010KT 0150 R14/0375N R32/0250N FZFG
                        BKN001 M02/M04 Q1015 R14/19//95=
201812040730 METAR LRIA 040730Z 11010KT 0150 R14/0300N R32/0200N FZFG
                        SCT001 M02/M03 Q1015 R14/19//95=
201812040800 METAR LRIA 040800Z 11010KT 0150 R14/0300N R32/0200N FZFG
                        VV001 M01/M03 Q1015 R14/19//95=
201812040830 METAR LRIA 040830Z 11011KT 0100 R14/0275N R32/0250N FZFG
                        VV001 M01/M02 Q1015 R14/19//95=
201812040900 METAR LRIA 040900Z 11010KT 1200 R14/1500N R32/2000U BR SCT001
                        M00/M02 Q1015 R14/19//95=
201812040930 METAR LRIA 040930Z 12011KT 0150 R14/0300N R32/0500D FZFG
                        BKN001 M00/M02 Q1015 R14/19//95=
201812041000 METAR LRIA 041000Z 11011KT 0150 R14/0300N R32/0700N FG BKN001
                        00/M01 Q1014 R14/19//95=
201812041030 METAR LRIA 041030Z 11009KT 1500 BR SCT001 00/M01 Q1014 R14/19//95=
201812041100 METAR LRIA 041100Z 10007KT 5000 BR NSC 01/M01 Q1014 R14/19//95=
201812041130 METAR LRIA 041130Z 11007KT 8000 NSC 01/M00 Q1014 R14/19//95=
201812041200 METAR LRIA 041200Z 11008KT 8000 NSC 02/00 Q1014 R14/19//95=
201812041230 METAR LRIA 041230Z 11010KT 5000 BR SCT007 02/M00 Q1014 R14/19//95=
201812041300 METAR LRIA 041300Z 11011KT 2500 BR FEW002 SCT006 01/M00 Q1014
                        R14/19//95=
201812041330 METAR LRIA 041330Z 11010KT 1500 BR BKN001 01/M00 Q1014 R14/19//95=
201812041400 METAR LRIA 041400Z 11009KT 1800 BR SCT001 01/M00 Q1014 R14/19//95=
201812041430 METAR LRIA 041430Z 12009KT 4000 BR FEW002 01/M00 Q1014 R14/19//95=
201812041500 METAR LRIA 041500Z 11007KT 5000 BR FEW007 01/M00 Q1014 R14/19//95=
201812041530 METAR LRIA 041530Z 12007KT 4500 BR FEW007 01/M01 Q1014 R14/19//95=
201812041600 METAR LRIA 041600Z 11007KT 5000 BR FEW008 02/00 Q1014 R14/19//95=
201812041630 METAR LRIA 041630Z 13006KT 6000 SCT008 01/M00 Q1014 R14/19//95=
201812041700 METAR LRIA 041700Z 12007KT 7000 BKN010 02/00 Q1015 R14/19//95=
201812041730 METAR LRIA 041730Z 12007KT 8000 BKN009 02/00 Q1015 R14/19//95=
201812041800 METAR LRIA 041800Z 13007KT 8000 BKN009 01/M00 Q1015 R14/19//95=
201812041830 METAR LRIA 041830Z 12007KT 8000 OVC009 02/M00 Q1015 R14/19//95=
201812041900 METAR LRIA 041900Z 12006KT 8000 BKN009 02/00 Q1015 R14/19//95=
201812041930 METAR LRIA 041930Z 11007KT 8000 BKN009 02/00 Q1015 R14/19//95=
201812042000 METAR LRIA 042000Z 11006KT 9999 BKN010 02/00 Q1015 R14/19//95=
201812042030 METAR LRIA 042030Z 14004KT 9999 SCT010 BKN013 02/00 Q1015
                        R14/19//95=
201812042100 METAR LRIA 042100Z 13003KT 9999 BKN011 02/01 Q1015 R14/19//95=
201812042130 METAR LRIA 042130Z 00000KT 9999 SCT009 02/00 Q1015 R14/19//95=
201812042200 METAR LRIA 042200Z 12002KT 9999 SCT007 02/00 Q1015 R14/19//95=
201812042230 METAR LRIA 042230Z VRB01KT 1100 R14/1400D R32/P2000U BR BKN005
                        01/M01 Q1016 R14/19//95=
201812042300 METAR LRIA 042300Z 29004KT 1700 BR BKN003 01/00 Q1016 R14/19//95=
201812042330 METAR LRIA 042330Z 27004KT 240V300 2000 BR FEW002 OVC003
                        01/M00 Q1016 R14/19//95=
201812050000 METAR LRIA 050000Z 27003KT 3000 BR OVC004 01/M00 Q1016 R14/19//95=
201812050030 METAR LRIA 050030Z 27004KT 5000 BR OVC005 01/M01 Q1016 R14/19//95=
201812050100 METAR LRIA 050100Z 28003KT 5000 BR FEW002 OVC004 01/M01 Q1017
                        R14/19//95=
201812050130 METAR LRIA 050130Z 30005KT 2500 BR FEW002 OVC003 01/M01 Q1017
                        R14/19//95=
201812050200 METAR LRIA 050200Z 29005KT 3000 1200N BR OVC003 00/M01 Q1017
                        R14/19//95=
201812050230 METAR LRIA 050230Z 28006KT 1200 R14/1700D R32/P2000 BR OVC001
                        M00/M01 Q1017 R14/19//95=
201812050300 METAR LRIA 050300Z 27006KT 1500 BR OVC002 M00/M02 Q1017 R14/19//95=
201812050330 METAR LRIA 050330Z 27005KT 1500 -FZRA BR OVC003 M00/M01 Q1017
                        R14/19//95=
201812050400 METAR LRIA 050400Z 29005KT 1500 -FZRA BR OVC002 M00/M01 Q1018
                        R14/19//95=
201812050430 METAR LRIA 050430Z 29005KT 250V310 1500 -FZRA BR OVC002 M00/M01
                        Q1018 R14/19//95=
201812050500 METAR LRIA 050500Z 29005KT 1500 -FZRADZ BR OVC003 M00/M01
                        Q1018 R14/19//95=
201812050530 METAR LRIA 050530Z 30007KT 1800 -RASN BR OVC004 01/M01 Q1018
                        R14/19//95=
201812050600 METAR LRIA 050600Z 30006KT 2800 -SG BR OVC003 01/M01 Q1019
                        R14/29//95=
201812050630 METAR LRIA 050630Z 32009KT 6000 -RA FEW004 OVC005 01/M00
                        Q1019 R14/29//95=
201812050700 METAR LRIA 050700Z 32010KT 8000 -RA SCT004 BKN009 01/M01
                        Q1019 R14/29//95=
201812050730 METAR LRIA 050730Z 32009KT 7000 -RASN FEW004 BKN009 01/M01
                        Q1020 R14/29//95=
201812050800 METAR LRIA 050800Z 32010KT 4000 -RASN FEW003 BKN005 01/M01
                        Q1020 R14/29//95=
201812050830 METAR LRIA 050830Z 32012KT 7000 -SG BKN009 01/M00 Q1020 R14/29//95=
201812050900 METAR LRIA 050900Z 32014KT 9999 -RASN FEW004 BKN006 01/M01
                        Q1020 R14/29//95=
201812050930 METAR LRIA 050930Z 32012KT 9999 -RA FEW005 BKN009 01/M01
                        Q1020 R14/29//95=
201812051000 METAR COR LRIA 051000Z 31012KT 9999 -RA FEW006 BKN007 02/M00
                        Q1021 R14/29//95=
201812051030 METAR LRIA 051030Z 32012KT 9999 -RA FEW007 BKN009 02/M00
                        Q1021 R14/29//95=
201812051100 METAR LRIA 051100Z 32013KT 9999 -RA FEW008 BKN009 02/M00
                        Q1021 R14/29//95=
201812051130 METAR LRIA 051130Z 32013KT 9999 -RA FEW007 BKN009 02/M00
                        Q1021 R14/29//95=
201812051200 METAR LRIA 051200Z 32013KT 9999 -RA FEW007 BKN009 02/M00
                        Q1021 R14/29//95=
201812051230 METAR LRIA 051230Z 32013KT 9999 -RA FEW008 BKN009 02/M01
                        Q1021 R14/29//95=
201812051300 METAR LRIA 051300Z 32013KT 9999 -RA FEW008 BKN009 02/M01
                        Q1021 R14/29//95=
201812051330 METAR LRIA 051330Z 32014KT 9999 -RA FEW008 BKN009 02/M01
                        Q1022 R14/29//95=
201812051400 METAR LRIA 051400Z 32014KT 9999 -RA BKN010 02/M01 Q1022 WS
                        RWY32 R14/29//95=
201812051430 METAR COR LRIA 051430Z 32014KT 9999 -RA FEW010 BKN045 02/M01
                        Q1022 WS RWY32 R14/29//95=
201812051500 METAR LRIA 051500Z 32013KT 9999 SCT033 BKN040 02/M02 Q1022
                        WS R32 R14/29//95=
201812051530 METAR LRIA 051530Z 32012KT 9999 OVC032 02/M02 Q1023 WS R32
                        R14/29//95=
201812051600 METAR LRIA 051600Z 31011KT 9999 OVC033 01/M02 Q1023 WS R32
                        R14/29//95=
201812051630 METAR LRIA 051630Z 31012KT 9999 OVC036 01/M02 Q1023 WS R32
                        R14/29//95=
201812051700 METAR LRIA 051700Z 31011KT 9999 BKN035 01/M02 Q1024 WS R32
                        R14/29//95=
201812051730 METAR LRIA 051730Z 32009KT 9999 FEW024 OVC038 01/M02 Q1024
                        WS R32 R14/29//95=
201812051800 METAR LRIA 051800Z 32007KT 9999 BKN042 01/M02 Q1024 R14/29//95=
201812051830 METAR LRIA 051830Z 32009KT 9999 BKN041 01/M03 Q1024 R14/29//95=
201812051900 METAR LRIA 051900Z 31010KT 9999 BKN042 01/M03 Q1025 R14/29//95=
201812051930 METAR LRIA 051930Z 31011KT 9999 FEW029 BKN045 01/M03 Q1025
                        R14/29//95=
201812052000 METAR LRIA 052000Z 32011KT 9999 BKN043 01/M03 Q1025 R14/29//95=
201812052030 METAR LRIA 052030Z 32012KT 9999 BKN043 01/M03 Q1025 R14/29//95=
201812052100 METAR LRIA 052100Z 31011KT 9999 BKN043 01/M03 Q1025 R14/29//95=
201812052130 METAR LRIA 052130Z 31010KT 9999 BKN042 01/M03 Q1025 R14/29//95=
201812052200 METAR LRIA 052200Z 32008KT 9999 BKN045 01/M03 Q1025 R14/29//95=
201812052230 METAR LRIA 052230Z 32008KT 9999 BKN045 01/M03 Q1025 R14/29//95=
201812052300 METAR LRIA 052300Z 32008KT 9999 FEW034 BKN043 01/M03 Q1025
                        R14/29//95=
201812052330 METAR LRIA 052330Z 32009KT 9999 OVC046 01/M03 Q1025 R14/29//95=
201812060000 METAR LRIA 060000Z 33010KT 9999 OVC046 01/M03 Q1025 R14/29//95=
201812060030 METAR LRIA 060030Z 32008KT CAVOK 01/M03 Q1025 R14/29//95=
201812060100 METAR LRIA 060100Z 31010KT CAVOK 01/M03 Q1025 R14/29//95=
201812060130 METAR LRIA 060130Z 33008KT CAVOK 01/M03 Q1025 R14/29//95=
201812060200 METAR LRIA 060200Z 33008KT CAVOK 01/M03 Q1025 R14/29//95=
201812060230 METAR LRIA 060230Z 32008KT CAVOK 01/M03 Q1025 R14/29//95=
201812060300 METAR LRIA 060300Z 31008KT CAVOK 01/M03 Q1025 R14/29//95=
201812060330 METAR LRIA 060330Z 32009KT CAVOK 01/M04 Q1025 R14/29//95=
201812060400 METAR LRIA 060400Z 31008KT CAVOK 01/M04 Q1025 R14/29//95=
201812060430 METAR LRIA 060430Z 30006KT CAVOK 00/M03 Q1025 R14/29//95=
201812060500 METAR LRIA 060500Z 31008KT CAVOK 00/M03 Q1025 R14/29//95=
201812060530 METAR LRIA 060530Z 31009KT CAVOK 00/M03 Q1025 R14/29//95=
201812060600 METAR LRIA 060600Z 31008KT CAVOK 00/M03 Q1026 R14/29//95=
201812060630 METAR LRIA 060630Z 31011KT CAVOK 01/M03 Q1026 R14/29//95=
201812060700 METAR LRIA 060700Z 34007KT CAVOK 00/M03 Q1026 R14/29//95=
201812060730 METAR LRIA 060730Z 33008KT CAVOK 01/M04 Q1026 R14/19//95=
201812060800 METAR LRIA 060800Z 32009KT CAVOK 01/M04 Q1026 R14/19//95=
201812060830 METAR LRIA 060830Z 32008KT CAVOK 01/M04 Q1026 R14/19//95=
201812060900 METAR LRIA 060900Z 33008KT CAVOK 01/M04 Q1026 R14/19//95=
201812060930 METAR LRIA 060930Z 31009KT CAVOK 01/M04 Q1026 R14/19//95=
201812061000 METAR LRIA 061000Z 31008KT CAVOK 01/M04 Q1025 R14/19//95=
201812061030 METAR LRIA 061030Z 31009KT CAVOK 02/M04 Q1025 R14/19//95=
201812061100 METAR LRIA 061100Z 31010KT CAVOK 01/M04 Q1025 R14/19//95=
201812061130 METAR LRIA 061130Z 32010KT CAVOK 01/M04 Q1025 R14/19//95=
201812061200 METAR LRIA 061200Z 31009KT CAVOK 01/M04 Q1025 R14/19//95=
201812061230 METAR LRIA 061230Z 32009KT 9999 SCT046 01/M04 Q1025 R14/19//95=
201812061300 METAR LRIA 061300Z 33009KT 9999 FEW046 01/M04 Q1025 R14/19//95=
201812061330 METAR LRIA 061330Z 33009KT 9999 SCT045 01/M04 Q1025 R14/19//95=
201812061400 METAR LRIA 061400Z 32008KT 9999 FEW042 01/M05 Q1025 R14/19//95=
201812061430 METAR LRIA 061430Z 34009KT 9999 FEW019 SCT042 00/M05 Q1025
                        R14/19//95=
201812061500 METAR LRIA 061500Z 34008KT 9999 FEW019 M01/M05 Q1025 R14/19//95=
201812061530 METAR LRIA 061530Z 34007KT CAVOK M01/M05 Q1025 R14/19//95=
201812061600 METAR LRIA 061600Z 34007KT CAVOK M02/M05 Q1025 R14/19//95=
201812061630 METAR LRIA 061630Z 35007KT CAVOK M02/M06 Q1025 R14/19//95=
201812061700 METAR LRIA 061700Z 33005KT CAVOK M02/M06 Q1025 R14/19//95=
201812061730 METAR LRIA 061730Z 32007KT CAVOK M03/M07 Q1025 R14/19//95=
201812061800 METAR LRIA 061800Z 32006KT CAVOK M03/M07 Q1025 R14/19//95=
201812061830 METAR LRIA 061830Z 31006KT CAVOK M03/M07 Q1026 R14/19//95=
201812061900 METAR LRIA 061900Z 30005KT CAVOK M03/M07 Q1026 R14/19//95=
201812061930 METAR LRIA 061930Z 28005KT CAVOK M04/M07 Q1025 R14/19//95=
201812062000 METAR LRIA 062000Z 28005KT CAVOK M04/M07 Q1025 R14/19//95=
201812062030 METAR LRIA 062030Z 29007KT CAVOK M04/M07 Q1026 R14/19//95=
201812062100 METAR LRIA 062100Z 29006KT CAVOK M04/M07 Q1025 R14/19//95=
201812062130 METAR LRIA 062130Z 29007KT CAVOK M04/M07 Q1025 R14/19//95=
201812062200 METAR LRIA 062200Z 29006KT CAVOK M05/M07 Q1025 R14/19//95=
201812062230 METAR LRIA 062230Z 28006KT CAVOK M04/M07 Q1025 R14/19//95=
201812062300 METAR COR LRIA 062300Z 28005KT CAVOK M05/M08 Q1025 R14/19//95=
201812062330 METAR LRIA 062330Z 29006KT CAVOK M05/M08 Q1024 R14/19//95=
201812070000 METAR LRIA 070000Z 27003KT CAVOK M06/M08 Q1024 R14/19//95=
201812070030 METAR LRIA 070030Z 24002KT 210V280 CAVOK M06/M08 Q1025 R14/19//95=
201812070100 METAR LRIA 070100Z 24003KT CAVOK M06/M08 Q1024 R14/19//95=
201812070130 METAR LRIA 070130Z 25003KT CAVOK M06/M08 Q1024 R14/19//95=
201812070200 METAR LRIA 070200Z 25003KT CAVOK M06/M08 Q1024 R14/19//95=
201812070230 METAR LRIA 070230Z 25003KT CAVOK M06/M08 Q1023 R14/19//95=
201812070300 METAR LRIA 070300Z AUTO 24003KT 8000 BKN160/// M06/M07 Q1023=
201812070330 METAR COR LRIA 070330Z 25003KT CAVOK M06/M07 Q1023 R14/19//95=
201812070400 METAR LRIA 070400Z AUTO 00000KT 7000 NCD M06/M08 Q1023=
201812070430 METAR LRIA 070430Z 00000KT CAVOK M06/M08 Q1023 R14/19//95=
201812070500 METAR LRIA 070500Z 00000KT CAVOK M06/M08 Q1023 R14/19//95=
201812070530 METAR LRIA 070530Z 00000KT CAVOK M06/M08 Q1023 R14/19//95=
201812070600 METAR LRIA 070600Z 00000KT 8000 NSC M07/M08 Q1022 R14/19//95=
201812070630 METAR LRIA 070630Z 00000KT 8000 NSC M06/M08 Q1022 R14/19//95=
201812070700 METAR LRIA 070700Z 00000KT 7000 FEW005 M06/M08 Q1022 R14/19//95=
201812070730 METAR LRIA 070730Z 00000KT 7000 FEW005 M05/M07 Q1022 R14/19//95=
201812070800 METAR LRIA 070800Z 00000KT 7000 FEW006 M04/M07 Q1022 R14/19//95=
201812070830 METAR LRIA 070830Z 09003KT 7000 FEW006 M04/M07 Q1022 R14/19//95=
201812070900 METAR LRIA 070900Z 09005KT 8000 FEW006 M03/M06 Q1021 R14/19//95=
201812070930 METAR LRIA 070930Z 10007KT 8000 NSC M02/M06 Q1021 R14/19//95=
201812071000 METAR LRIA 071000Z 11007KT CAVOK M02/M05 Q1020 R14/19//95=
201812071030 METAR LRIA 071030Z 10008KT CAVOK M01/M05 Q1020 R14/19//95=
201812071100 METAR LRIA 071100Z 10009KT CAVOK M01/M05 Q1019 R14/19//95=
201812071130 METAR LRIA 071130Z 11009KT CAVOK M01/M04 Q1019 R14/19//95=
201812071200 METAR LRIA 071200Z 11009KT CAVOK M01/M04 Q1019 R14/19//95=
201812071230 METAR LRIA 071230Z 10009KT CAVOK M01/M04 Q1018 R14/19//95=
201812071300 METAR LRIA 071300Z 11008KT CAVOK M00/M04 Q1018 R14/19//95=
201812071330 METAR LRIA 071330Z 11010KT CAVOK M00/M04 Q1018 R14/19//95=
201812071400 METAR LRIA 071400Z 11009KT CAVOK M01/M04 Q1018 R14/19//95=
201812071430 METAR LRIA 071430Z 12008KT CAVOK M01/M04 Q1017 R14/19//95=
201812071500 METAR LRIA 071500Z 11007KT CAVOK M00/M04 Q1018 R14/19//95=
201812071530 METAR LRIA 071530Z 11007KT CAVOK M00/M04 Q1017 R14/19//95=
201812071600 METAR LRIA 071600Z 11006KT CAVOK M00/M04 Q1017 R14/19//95=
201812071630 METAR LRIA 071630Z 11006KT CAVOK M01/M04 Q1017 R14/19//95=
201812071700 METAR LRIA 071700Z 11005KT CAVOK M00/M04 Q1017 R14/19//95=
201812071730 METAR LRIA 071730Z 11005KT CAVOK M01/M04 Q1016 R14/19//95=
201812071800 METAR LRIA 071800Z 11006KT CAVOK M01/M04 Q1016 R14/19//95=
201812071830 METAR LRIA 071830Z 11005KT CAVOK M01/M04 Q1016 R14/19//95=
201812071900 METAR LRIA 071900Z 11005KT CAVOK M01/M04 Q1016 R14/19//95=
201812071930 METAR LRIA 071930Z 11006KT CAVOK M01/M04 Q1015 R14/19//95=
201812072000 METAR LRIA 072000Z 11006KT 9999 FEW044 M01/M04 Q1015 R14/19//95=
201812072030 METAR LRIA 072030Z 11007KT 9999 SCT041 M01/M04 Q1015 R14/19//95=
201812072100 METAR LRIA 072100Z 11007KT 9999 FEW044 M01/M04 Q1015 R14/19//95=
201812072130 METAR LRIA 072130Z 11008KT 9000 FEW045 M02/M04 Q1014 R14/19//95=
201812072200 METAR LRIA 072200Z 11009KT 7000 FEW045 M02/M04 Q1014 R14/19//95=
201812072230 METAR LRIA 072230Z 12008KT 6000 NSC M01/M03 Q1013 R14/19//95=
201812072300 METAR LRIA 072300Z 11008KT 6000 NSC M02/M04 Q1013 R14/19//95=
201812072330 METAR LRIA 072330Z 11009KT 5000 BR BKN093 SCT210 M02/M04
                        Q1013 R14/19//95=
201812080000 METAR LRIA 080000Z 12009KT 4900 BR NSC M02/M03 Q1012 R14/19//95=
201812080030 METAR LRIA 080030Z 11012KT 4200 BR NSC M02/M03 Q1012 R14/19//95=
201812080100 METAR LRIA 080100Z 11012KT 3900 BR NSC M01/M03 Q1012 R14/19//95=
201812080130 METAR LRIA 080130Z 12012KT 4100 BR NSC M01/M03 Q1011 R14/19//95=
201812080200 METAR LRIA 080200Z 12011KT 5000 BR NSC M01/M03 Q1011 R14/19//95=
201812080230 METAR LRIA 080230Z 12010KT 5000 BR NSC M01/M03 Q1011 R14/19//95=
201812080300 METAR LRIA 080300Z 12012KT 6000 NSC M01/M03 Q1011 R14/19//95=
201812080330 METAR LRIA 080330Z 12012KT 6000 NSC M01/M03 Q1010 R14/19//95=
201812080400 METAR LRIA 080400Z 12011KT 6000 NSC M01/M03 Q1010 R14/19//95=
201812080430 METAR LRIA 080430Z 12010KT 6000 NSC M01/M03 Q1010 R14/19//95=
201812080500 METAR LRIA 080500Z 12009KT 6000 NSC M01/M03 Q1010 R14/19//95=
201812080530 METAR LRIA 080530Z 12009KT 5000 BR NSC M01/M03 Q1011 R14/19//95=
201812080600 METAR LRIA 080600Z 11010KT 3000 BR NSC M01/M03 Q1011 R14/19//95=
201812080630 METAR LRIA 080630Z 11011KT 2500 BR BKN045 M01/M03 Q1011 R14/19//95=
201812080700 METAR LRIA 080700Z 11009KT 2300 BR OVC040 M01/M03 Q1011 R14/19//95=
201812080730 METAR LRIA 080730Z 11011KT 2500 BR BKN047 M01/M02 Q1011 R14/19//95=
201812080800 METAR LRIA 080800Z 11012KT 2300 BR NSC M01/M02 Q1011 R14/19//95=
201812080830 METAR LRIA 080830Z 11013KT 2300 BR FEW003 M01/M02 Q1011 R14/19//95=
201812080900 METAR LRIA 080900Z 11011KT 2300 BR FEW003 OVC048 M01/M02
                        Q1011 R14/19//95=
201812080930 METAR LRIA 080930Z 11011KT 2500 BR FEW003 OVC048 M00/M02
                        Q1010 R14/19//95=
201812081000 METAR LRIA 081000Z 11010KT 2500 BR FEW002 OVC048 M00/M02
                        Q1010 R14/19//95=
201812081030 METAR LRIA 081030Z 11012KT 2500 BR SCT002 OVC044 M00/M02
                        Q1010 R14/19//95=
201812081100 METAR LRIA 081100Z 11013KT 2300 BR SCT001 BKN040 M00/M02
                        Q1010 R14/19//95=
201812081130 METAR LRIA 081130Z 11012KT 2300 BR BKN001 BKN040 M00/M02
                        Q1009 R14/19//95=
201812081200 METAR LRIA 081200Z 11012KT 2300 BR BKN001 OVC042 M00/M02
                        Q1009 R14/19//95=
201812081230 METAR LRIA 081230Z 11014KT 2500 BR SCT002 BKN042 M00/M02
                        Q1009 R14/19//95=
201812081300 METAR LRIA 081300Z 11012KT 3000 BR FEW002 00/M02 Q1009 R14/19//95=
201812081330 METAR LRIA 081330Z 11012KT 3500 BR NSC 00/M02 Q1009 R14/19//95=
201812081400 METAR LRIA 081400Z 11011KT 4000 BR NSC 00/M02 Q1009 R14/19//95=
201812081430 METAR LRIA 081430Z 11011KT 4000 BR NSC M00/M02 Q1009 R14/19//95=
201812081500 METAR LRIA 081500Z 11012KT 4000 BR NSC M00/M02 Q1009 R14/19//95=
201812081530 METAR LRIA 081530Z 10010KT 4000 BR NSC M00/M02 Q1009 R14/19//95=
201812081600 METAR LRIA 081600Z 11011KT 4000 BR NSC M00/M02 Q1009 R14/19//95=
201812081630 METAR LRIA 081630Z 10010KT 4000 BR NSC M00/M02 Q1009 R14/19//95=
201812081700 METAR LRIA 081700Z 11009KT 4500 BR NSC M00/M02 Q1009 R14/19//95=
201812081730 METAR LRIA 081730Z 10007KT 4000 -FZRA BR NSC M00/M02 Q1009
                        R14/19//95=
201812081800 METAR LRIA 081800Z 10007KT 5000 -FZRA BR NSC M00/M02 Q1009
                        R14/19//95=
201812081830 METAR LRIA 081830Z 09007KT 5000 -FZRA BR SCT048 M00/M02 Q1010
                        R14/19//95=
201812081900 METAR LRIA 081900Z 10008KT 4000 -FZRA BR BKN047 M00/M02 Q1010
                        R14/29//95=
201812081930 METAR LRIA 081930Z 10006KT 3500 -FZRA BR FEW036 BKN049 M00/M02
                        Q1010 R14/29//95=
201812082000 METAR LRIA 082000Z 09006KT 3000 -FZRA BR BKN044 M00/M02 Q1010
                        R14/29//95=
201812082030 METAR LRIA 082030Z 09004KT 2500 -FZRA BR FEW002 BKN042 M00/M02
                        Q1010 R14/29//95=
201812082100 METAR LRIA 082100Z 08003KT 1500 -FZRA BR BKN043 M00/M02 Q1010
                        R14/29//95=
201812082130 METAR LRIA 082130Z 00000KT 1500 -FZRA BR SCT007 OVC043 M00/M02
                        Q1010 R14/29//95=
201812082200 METAR LRIA 082200Z 00000KT 1500 -FZRA BR BKN009 OVC043 M00/M01
                        Q1010 R14/29//95=
201812082230 METAR LRIA 082230Z 00000KT 1300 0600S R14/P2000 R32/1200N
                        -FZRA PRFG BR SCT008 BKN017 OVC043
                        M00/M01 Q1010 R14/29//95=
201812082300 METAR LRIA 082300Z 00000KT 0800 R14/1200D R32/1800D -FZRA
                        FZFG BKN007 OVC017 M00/M01 Q1010
                        R14/29//95=
201812082330 METAR LRIA 082330Z 00000KT 1000 R14/P2000 R32/P2000 -FZRA
                        BR BKN003 OVC017 M00/M01 Q1010 R14/29//95=
201812090000 METAR LRIA 090000Z 00000KT 0800 R14/P2000D R32/1900N -FZRA
                        FZFG FEW002 SCT005 OVC017 M00/M01
                        Q1009 R14/29//95=
201812090030 METAR LRIA 090030Z 00000KT 0800 R14/P2000N R32/P2000 -RA
                        FG FEW002 OVC003 00/M01 Q1009 R14/29//95=
201812090100 METAR LRIA 090100Z 00000KT 0600 R14/1000U R32/P2000 -RA FG
                        OVC002 00/M01 Q1009 R14/29//95=
201812090130 METAR LRIA 090130Z 00000KT 0600 R14/1000D R32/P2000 -RA FG
                        OVC001 00/M01 Q1009 R14/29//95=
201812090200 METAR LRIA 090200Z 24003KT 0600 R14/1200D R32/P2000 FG OVC002
                        00/M01 Q1009 R14/29//95=
201812090230 METAR LRIA 090230Z 24004KT 0800 R14/P2000U R32/P2000 FG BKN002
                        00/M01 Q1009 R14/29//95=
201812090300 METAR LRIA 090300Z 21001KT 1500 BR FEW001 BKN004 00/M01 Q1008
                        R14/29//95=
201812090330 METAR LRIA 090330Z 23004KT 1500 BR BKN004 01/M01 Q1009 R14/29//95=
201812090400 METAR LRIA 090400Z 24001KT 1800 BR SCT003 BKN043 01/M01 Q1008
                        R14/29//95=
201812090430 METAR LRIA 090430Z 23003KT 190V250 1500 BR FEW004 BKN045
                        01/M01 Q1008 R14/29//95=
201812090500 METAR LRIA 090500Z 00000KT 2000 -RA BR FEW004 BKN012 BKN045
                        01/M00 Q1009 R14/29//95=
201812090530 METAR LRIA 090530Z 00000KT 2000 BR FEW008 OVC010 01/M00 Q1008
                        R14/29//95=
201812090600 METAR LRIA 090600Z 00000KT 2000 -DZ BR OVC012 01/M00 Q1009
                        R14/29//95=
201812090630 METAR COR LRIA 090630Z 00000KT 2000 1000N BR FEW013 OVC049
                        01/M00 Q1009 R14/29//95=
201812090700 METAR LRIA 090700Z 00000KT 2300 0750N R14/1700 R32/0750 PRFG
                        OVC047 01/00 Q1009 R14/29//95=
201812090730 METAR LRIA 090730Z 00000KT 1500 R14/1600D R32/0800N PRFG
                        OVC046 01/M00 Q1008 R14/29//95=
201812090800 METAR LRIA 090800Z 00000KT 0300 R14/0300 R32/0900N FG SCT042
                        01/M01 Q1008 R14/29//95=
201812090830 METAR LRIA 090830Z 00000KT 0200 R14/0250N R32/0175N FG NSC
                        00/M01 Q1008 R14/29//95=
201812090900 METAR LRIA 090900Z 00000KT 0150 R14/0225N R32/0150N FG NSC
                        00/M01 Q1008 R14/29//95=
201812090930 METAR LRIA 090930Z 12003KT 0150 R14/0300 R32/0200N FG BKN038
                        01/M01 Q1008 R14/29//95=
201812091000 METAR LRIA 091000Z 09005KT 0150 R14/0175N R32/0250 FG SCT038
                        01/M01 Q1007 R14/29//95=
201812091030 METAR LRIA 091030Z 09005KT 0150 R14/0225N R32/0175N FG NSC
                        01/00 Q1007 R14/29//95=
201812091100 METAR LRIA 091100Z 08004KT 0200 R14/0225N R32/1000 FG NSC
                        02/00 Q1007 R14/29//95=
201812091130 METAR LRIA 091130Z 09006KT 0200 R14/0250N R32/P2000 FG NSC
                        02/01 Q1006 R14/29//95=
201812091200 METAR LRIA 091200Z 10007KT 3800 BR NSC 03/01 Q1006 R14/29//95=
201812091230 METAR LRIA 091230Z 11007KT 4700 BR NSC 03/01 Q1006 R14/29//95=
201812091300 METAR LRIA 091300Z 10008KT 1500 R14/P2000 R32/0300 BR NSC
                        03/01 Q1006 R14/29//95=
201812091330 METAR LRIA 091330Z 09009KT 0100 R14/0225N R32/0150N FG VV002
                        01/M00 Q1006 R14/29//95=
201812091400 METAR LRIA 091400Z 10008KT 0100 R14/0300N R32/0200N FG VV002
                        01/M00 Q1006 R14/29//95=
201812091430 METAR LRIA 091430Z 10008KT 0100 R14/0350U R32/0225N FG VV001
                        01/M01 Q1005 R14/29//95=
201812091500 METAR LRIA 091500Z 10009KT 0150 R14/0400N R32/0250N -SN FG
                        VV002 01/M01 Q1005 R14/29//95=
201812091530 METAR COR LRIA 091530Z 10009KT 0150 R14/0400N R32/0250N -SN
                        FG VV002 01/M00 Q1006 R14/29//95=
201812091600 METAR LRIA 091600Z 10009KT 0200 R14/0400N R32/0250N FG VV002
                        01/M00 Q1006 R14/29//95=
201812091630 METAR LRIA 091630Z 10009KT 0200 R14/0400N R32/0250N FG VV002
                        01/M01 Q1006 R14/29//95=
201812091700 METAR LRIA 091700Z 10009KT 0100 R14/0400N R32/0275N FG VV002
                        01/M01 Q1005 R14/29//95=
201812091730 METAR LRIA 091730Z 10008KT 0100 R14/0500N R32/0250N FG VV002
                        00/M01 Q1005 R14/29//95=
201812091800 METAR LRIA 091800Z 11007KT 0100 R14/0400N R32/0250N FG VV001
                        00/M01 Q1005 R14/29//95=
201812091830 METAR LRIA 091830Z 09008KT 0100 R14/0400N R32/0275N FZFG
                        VV001 M00/M01 Q1005 R14/29//95=
201812091900 METAR LRIA 091900Z 11008KT 0100 R14/0450N R32/0275N FZFG
                        VV001 M00/M01 Q1005 R14/29//95=
201812091930 METAR LRIA 091930Z 10010KT 0100 R14/0450N R32/0300N FZFG
                        VV001 M00/M01 Q1005 R14/29//95=
201812092000 METAR LRIA 092000Z 10009KT 0100 R14/0450N R32/0350N FZFG
                        VV001 M00/M01 Q1005 R14/29//95=
201812092030 METAR LRIA 092030Z 10008KT 0100 R14/0450N R32/0325N FZFG
                        VV001 M01/M02 Q1005 R14/29//95=
201812092100 METAR LRIA 092100Z 10007KT 0100 R14/0450N R32/0325N FZFG
                        VV001 M01/M02 Q1005 R14/29//95=
201812092130 METAR LRIA 092130Z 10010KT 0100 R14/0450N R32/0400N FZFG
                        VV001 M01/M02 Q1005 R14/29//95=
201812092200 METAR LRIA 092200Z 10009KT 0400 R14/0800U R32/0550U FZFG
                        VV001 M01/M02 Q1005 R14/29//95=
201812092230 METAR LRIA 092230Z 09008KT 7000 FEW003 M01/M02 Q1005 R14/29//95=
201812092300 METAR LRIA 092300Z 10006KT 8000 NSC M01/M02 Q1005 R14/29//95=
201812092330 METAR LRIA 092330Z 08006KT 7000 NSC M01/M02 Q1005 R14/29//95=
201812100000 METAR LRIA 100000Z 09008KT 7000 NSC M01/M02 Q1004 R14/29//95=
201812100030 METAR LRIA 100030Z 11008KT 5000 BR SCT001 M01/M02 Q1004 R14/29//95=
201812100100 METAR LRIA 100100Z 11006KT 2000 0600SE R14/2000N R32/0900D
                        PRFG BR BKN001 M01/M03 Q1004 R14/29//95=
201812100130 METAR LRIA 100130Z 10007KT 3000 BR SCT001 M01/M02 Q1004 R14/29//95=
201812100200 METAR LRIA 100200Z 08007KT 3000 BR FEW001 M01/M02 Q1004 R14/29//95=
201812100230 METAR LRIA 100230Z 10007KT 2000 0800SE R14/2000N R32/P2000
                        PRFG BR BKN001 M01/M02 Q1004 R14/29//95=
201812100300 METAR LRIA 100300Z 11008KT 0500 R14/0600N R32/0700N FZFG
                        VV001 M00/M02 Q1004 R14/29//95=
201812100330 METAR LRIA 100330Z 10007KT 1500 BR BKN001 M00/M02 Q1004 R14/29//95=
201812100400 METAR LRIA 100400Z 10007KT 1500 BR BKN001 M00/M02 Q1004 R14/29//95=
201812100430 METAR LRIA 100430Z 11008KT 1000 R14/P2000 R32/2000 BR BKN001
                        M00/M02 Q1004 R14/29//95=
201812100500 METAR LRIA 100500Z 10008KT 1000 R14/1500D R32/P2000 BR BKN001
                        M00/M02 Q1004 R14/29//95=
201812100530 METAR LRIA 100530Z 10008KT 2000 BR BKN001 M01/M02 Q1004 R14/29//95=
201812100600 METAR LRIA 100600Z 10008KT 0650 R14/0800N R32/0900D FZFG
                        VV001 M01/M02 Q1005 R14/29//95=
201812100630 METAR LRIA 100630Z 10008KT 0550 R14/0700N R32/0375N FZFG
                        VV002 M01/M02 Q1005 R14/29//95=
201812100700 METAR LRIA 100700Z 09008KT 0300 R14/0350 R32/0325N FZFG VV001
                        M01/M02 Q1005 R14/29//95=
201812100730 METAR LRIA 100730Z 10009KT 0300 R14/03250N R32/0350N FZFG
                        VV001 M01/M02 Q1005 R14/29//95=
201812100800 METAR LRIA 100800Z 10008KT 0300 R14/0375N R32/0325N FZFG
                        VV001 M01/M02 Q1005 R14/29//95=
201812100830 METAR LRIA 100830Z 11007KT 0300 R14/0375N R32/0300N FZFG
                        VV001 M01/M02 Q1006 R14/29//95=
201812100900 METAR LRIA 100900Z 10008KT 0250 R14/0350N R32/0350N FZFG
                        VV001 M01/M02 Q1005 R14/29//95=
201812100930 METAR LRIA 100930Z 10008KT 0250 R14/0350N R32/0250N FZFG
                        VV001 M00/M02 Q1005 R14/29//95=
201812101000 METAR LRIA 101000Z 10007KT 0350 R14/0375N R32/0325N FZFG
                        VV001 M01/M02 Q1005 R14/29//95=
201812101030 METAR LRIA 101030Z 10007KT 0300 R14/0375N R32/0325N FZFG
                        VV001 M00/M02 Q1005 R14/29//95=
201812101100 METAR LRIA 101100Z 11007KT 0250 R14/0375N R32/0375N FZFG
                        VV001 M00/M01 Q1005 R14/19//95=
201812101130 METAR LRIA 101130Z 10008KT 0300 R14/0400N R32/0300U FZFG
                        VV001 M00/M01 Q1005 R14/19//95=
201812101200 METAR LRIA 101200Z 09008KT 0300 R14/0400N R32/0325N FZFG
                        VV001 M00/M01 Q1005 R14/19//95=
201812101230 METAR LRIA 101230Z 10007KT 0350 R14/0375U R32/0400N FZFG
                        VV001 M00/M01 Q1006 R14/19//95=
201812101300 METAR LRIA 101300Z 09007KT 0300 R14/0400N R32/0300N FZFG
                        VV001 M00/M01 Q1006 R14/19//95=
201812101330 METAR LRIA 101330Z 09007KT 0400 R14/0500N R32/0325N FZFG
                        VV001 M00/M01 Q1006 R14/19//95=
201812101400 METAR LRIA 101400Z 09008KT 0350 R14/0450N R32/0325N FZFG
                        VV001 M00/M02 Q1006 R14/19//95=
201812101430 METAR LRIA 101430Z 10007KT 0350 R14/0400N R32/0300N FZFG
                        VV001 M01/M02 Q1006 R14/19//95=
201812101500 METAR LRIA 101500Z 09006KT 0450 R14/0550N R32/0350N FZFG
                        VV001 M01/M02 Q1006 R14/19//95=
201812101530 METAR LRIA 101530Z 06003KT 030V090 0450 R14/0550N R32/0375N
                        FZFG VV001 M01/M02 Q1007 R14/19//95=
201812101600 METAR LRIA 101600Z 00000KT 0400 R14/0450N R32/0400N FZFG
                        VV001 M01/M02 Q1007 R14/19//95=
201812101630 METAR LRIA 101630Z 00000KT 0400 R14/0500N R32/0400N FZFG
                        VV001 M01/M03 Q1007 R14/19//95=
201812101700 METAR LRIA 101700Z 31002KT 280V360 0600 R14/0750N R32/0450N
                        FZFG VV001 M02/M03 Q1007 R14/19//95=
201812101730 METAR LRIA 101730Z 00000KT 0550 R14/0650N R32/0600N FZFG
                        VV001 M02/M03 Q1008 R14/19//95=
201812101800 METAR LRIA 101800Z 00000KT 0550 R14/0700N R32/0550 FZFG VV002
                        M01/M03 Q1008 R14/19//95=
201812101830 METAR LRIA 101830Z 25003KT 0750 R14/0800 R32/0650D FZFG VV002
                        M01/M03 Q1008 R14/19//95=
201812101900 METAR COR LRIA 101900Z 24003KT 0750 R14/0900N R32/1700 FZFG
                        VV002 M01/M02 Q1009 R14/19//95=
201812101930 METAR COR LRIA 101930Z 25003KT 1200 R14/1500U R32/1000 -FZDZ
                        BR OVC002 M01/M02 Q1009 R14/19//95=
201812102000 METAR LRIA 102000Z 24003KT 200V270 0800 R14/0900 R32/1300
                        FZFG OVC002 M01/M02 Q1009 R14/19//95=
201812102030 METAR LRIA 102030Z 26003KT 0800 R14/0900N R32/1900U -FZDZ
                        OVC002 M01/M02 Q1009 R14/19//95=
201812102100 METAR LRIA 102100Z 26004KT 0900 R14/0900 R32/P2000 FZFG OVC002
                        M01/M02 Q1009 R14/19//95=
201812102130 METAR COR LRIA 102130Z 24003KT 1000 R14/1900 R32/P2000 BR
                        OVC002 M00/M02 Q1009 R14/19//95=
201812102200 METAR COR LRIA 102200Z 24004KT 3000 BR BKN001 BKN023 M00/M02
                        Q1009 R14/19//95=
201812102230 METAR LRIA 102230Z 24003KT 210V270 3000 BR BKN002 BKN028
                        M00/M02 Q1009 R14/19//95=
201812102300 METAR LRIA 102300Z 26004KT 3000 BR SCT001 OVC040 M00/M01
                        Q1009 R14/19//95=
201812102330 METAR COR LRIA 102330Z 25003KT 230V290 4800 BR OVC044 M00/M01
                        Q1009 R14/19//95=
201812110000 METAR LRIA 110000Z 26003KT 4700 BR OVC043 M00/M01 Q1009 R14/19//95=
201812110030 METAR LRIA 110030Z 27004KT 5000 BR OVC047 00/M01 Q1009 R14/19//95=
201812110100 METAR LRIA 110100Z 24003KT 1900 BR OVC049 00/M01 Q1009 R14/19//95=
201812110130 METAR COR LRIA 110130Z 26004KT 4000 BR BKN027 BKN042 00/M01
                        Q1009 R14/19//95=
201812110200 METAR COR LRIA 110200Z 27004KT 3400 BR OVC027 00/M01 Q1009
                        R14/19//95=
201812110230 METAR COR LRIA 110230Z 27002KT 5000 BR FEW027 BKN047 00/M01
                        Q1010 R14/19//95=
201812110300 METAR COR LRIA 110300Z 29004KT 7000 NSC 00/M01 Q1010 R14/19//95=
201812110330 METAR LRIA 110330Z 30005KT 8000 NSC 00/M01 Q1010 R14/19//95=
201812110400 METAR COR LRIA 110400Z 31006KT CAVOK 00/M01 Q1010 R14/19//95=
201812110430 METAR LRIA 110430Z 32006KT 9999 FEW031 01/M01 Q1010 R14/19//95=
201812110500 METAR COR LRIA 110500Z 30007KT 9999 FEW040 01/M01 Q1010 R14/19//95=
201812110530 METAR LRIA 110530Z 32006KT CAVOK 01/M01 Q1010 R14/19//95=
201812110600 METAR LRIA 110600Z 32007KT CAVOK 01/M01 Q1011 R14/19//95=
201812110630 METAR LRIA 110630Z 33006KT CAVOK 01/M01 Q1011 R14/19//95=
201812110700 METAR LRIA 110700Z 32006KT CAVOK 01/M01 Q1011 R14/19//95=
201812110730 METAR LRIA 110730Z 33006KT CAVOK 01/M01 Q1011 R14/19//95=
201812110800 METAR LRIA 110800Z 30007KT CAVOK 01/M01 Q1011 R14/19//95=
201812110830 METAR LRIA 110830Z 29007KT CAVOK 01/M01 Q1011 R14/19//95=
201812110900 METAR LRIA 110900Z 30008KT CAVOK 02/M01 Q1012 R14/19//95=
201812110930 METAR LRIA 110930Z 30009KT 9999 FEW033 02/M01 Q1011 R14/19//95=
201812111000 METAR LRIA 111000Z 31009KT 9999 FEW023 02/M01 Q1011 R14/19//95=
201812111030 METAR LRIA 111030Z 31008KT 9999 FEW010 02/M01 Q1012 R14/19//95=
201812111100 METAR LRIA 111100Z 33008KT 9999 SCT010 02/M01 Q1012 R14/19//95=
201812111130 METAR LRIA 111130Z 33009KT 9999 BKN011 02/M01 Q1012 R14/19//95=
201812111200 METAR LRIA 111200Z 33007KT 300V360 9999 BKN011 02/M01 Q1012
                        R14/19//95=
201812111230 METAR LRIA 111230Z 33007KT 9999 BKN012 02/M01 Q1012 R14/19//95=
201812111300 METAR LRIA 111300Z 33008KT 9999 FEW015 02/M01 Q1013 R14/19//95=
201812111330 METAR LRIA 111330Z 34007KT 9999 FEW015 02/M02 Q1013 R14/19//95=
201812111400 METAR LRIA 111400Z 36005KT 9999 FEW015 01/M02 Q1013 R14/19//95=
201812111430 METAR LRIA 111430Z 33005KT 9999 BKN014 01/M02 Q1013 R14/19//95=
201812111500 METAR LRIA 111500Z VRB01KT 9999 SCT013 BKN016 01/M02 Q1014
                        R14/19//95=
201812111530 METAR LRIA 111530Z 00000KT 9999 SCT015 01/M02 Q1014 R14/19//95=
201812111600 METAR LRIA 111600Z 31002KT 9999 FEW016 01/M02 Q1014 R14/19//95=
201812111630 METAR LRIA 111630Z 35004KT 8000 NSC M00/M02 Q1014 R14/19//95=
201812111700 METAR LRIA 111700Z 30003KT 9000 FEW017 M00/M02 Q1014 R14/19//95=
201812111730 METAR COR LRIA 111730Z 30004KT 9999 FEW017 M00/M02 Q1014
                        R14/19//95=
201812111800 METAR LRIA 111800Z 29005KT CAVOK M00/M02 Q1014 R14/19//95=
201812111830 METAR LRIA 111830Z 29005KT CAVOK M01/M03 Q1014 R14/19//95=
201812111900 METAR LRIA 111900Z 31006KT CAVOK M01/M03 Q1014 R14/19//95=
201812111930 METAR LRIA 111930Z 29005KT CAVOK M01/M03 Q1014 R14/19//95=
201812112000 METAR LRIA 112000Z 31006KT CAVOK M01/M03 Q1014 R14/19//95=
201812112030 METAR LRIA 112030Z 29004KT 6000 NSC M02/M04 Q1014 R14/19//95=
201812112100 METAR LRIA 112100Z 28003KT 5000 BR NSC M03/M04 Q1014 R14/19//95=
201812112130 METAR LRIA 112130Z VRB02KT 7000 NSC M03/M04 Q1015 R14/19//95=
201812112200 METAR LRIA 112200Z 26004KT 3900 BR NSC M03/M04 Q1015 R14/19//95=
201812112230 METAR LRIA 112230Z 29006KT 8000 NSC M03/M04 Q1015 R14/19//95=
201812112300 METAR LRIA 112300Z 27004KT 5000 BR NSC M04/M05 Q1015 R14/19//95=
201812112330 METAR LRIA 112330Z 28003KT 5000 BR NSC M03/M04 Q1014 R14/19//95=
201812120000 METAR LRIA 120000Z 27004KT 5000 BR NSC M03/M05 Q1015 R14/19//95=
201812120030 METAR LRIA 120030Z 24003KT 200V260 5000 BR NSC M03/M05 Q1015
                        R14/19//95=
201812120100 METAR LRIA 120100Z 24003KT 4600 BR NSC M04/M05 Q1015 R14/19//95=
201812120130 METAR LRIA 120130Z 26002KT 3400 BR NSC M04/M05 Q1015 R14/19//95=
201812120200 METAR LRIA 120200Z 27002KT 3800 NSC M04/M05 Q1015 R14/19//95=
201812120230 METAR LRIA 120230Z 26004KT 4900 NSC M04/M05 Q1015 R14/19//95=
201812120300 METAR LRIA 120300Z 25003KT 5000 BR NSC M04/M05 Q1015 R14/19//95=
201812120330 METAR LRIA 120330Z 24003KT 4800 BR NSC M04/M05 Q1015 R14/19//95=
201812120400 METAR LRIA 120400Z 26003KT 5000 BR NSC M04/M05 Q1015 R14/19//95=
201812120430 METAR LRIA 120430Z 26005KT 5000 BR NSC M04/M06 Q1015 R14/19//95=
201812120500 METAR LRIA 120500Z 27004KT 5000 BR NSC M05/M06 Q1015 R14/19//95=
201812120530 METAR LRIA 120530Z 23004KT 5000 BR NSC M06/M07 Q1015 R14/19//95=
201812120600 METAR LRIA 120600Z 25003KT 4200 BR NSC M05/M07 Q1015 R14/19//95=
201812120630 METAR LRIA 120630Z 25004KT 4200 BR NSC M05/M06 Q1015 R14/19//95=
201812120700 METAR LRIA 120700Z 24003KT 4300 BR NSC M04/M05 Q1015 R14/19//95=
201812120730 METAR LRIA 120730Z 23003KT 4500 BR NSC M03/M05 Q1016 R14/19//95=
201812120800 METAR LRIA 120800Z 26003KT 5000 BR NSC M02/M04 Q1016 R14/19//95=
201812120830 METAR LRIA 120830Z 27004KT 6000 NSC M01/M03 Q1016 R14/19//95=
201812120900 METAR LRIA 120900Z 27004KT 8000 NSC M01/M03 Q1016 R14/19//95=
201812120930 METAR LRIA 120930Z 28005KT CAVOK 00/M02 Q1015 R14/19//95=
201812121000 METAR COR LRIA 121000Z 28005KT CAVOK 00/M02 Q1015 R14/19//95=
201812121030 METAR COR LRIA 121030Z 30009KT CAVOK 02/M02 Q1015 R14/19//95=
201812121100 METAR LRIA 121100Z 31006KT CAVOK 02/M02 Q1015 R14/19//95=
201812121130 METAR LRIA 121130Z 32007KT 280V350 9999 FEW016 03/M02 Q1015
                        R14/19//95=
201812121200 METAR LRIA 121200Z 30009KT 9999 FEW016 03/M02 Q1015 R14/19//95=
201812121230 METAR COR LRIA 121230Z 32008KT CAVOK 03/M02 Q1015 R14/19//95=
201812121300 METAR LRIA 121300Z 30008KT CAVOK 03/M02 Q1015 R14/19//95=
201812121330 METAR LRIA 121330Z 31010KT CAVOK 03/M03 Q1015 R14/19//95=
201812121400 METAR LRIA 121400Z 31007KT CAVOK 03/M02 Q1015 R14/19//95=
201812121430 METAR LRIA 121430Z 34005KT CAVOK 02/M02 Q1015 R14/19//95=
201812121500 METAR LRIA 121500Z 31006KT 280V340 CAVOK 01/M03 Q1015 R14/19//95=
201812121530 METAR LRIA 121530Z 32004KT CAVOK 01/M03 Q1015 R14/19//95=
201812121600 METAR LRIA 121600Z 33005KT CAVOK 00/M03 Q1015 R14/19//95=
201812121630 METAR COR LRIA 121630Z 33005KT CAVOK 00/M03 Q1015 R14/19//95=
201812121700 METAR LRIA 121700Z 35004KT 310V020 CAVOK 00/M04 Q1015 R14/19//95=
201812121730 METAR LRIA 121730Z 31005KT CAVOK 01/M03 Q1016 R14/19//95=
201812121800 METAR LRIA 121800Z 31007KT CAVOK 01/M04 Q1016 R14/19//95=
201812121830 METAR LRIA 121830Z 30007KT CAVOK 00/M04 Q1016 R14/19//95=
201812121900 METAR LRIA 121900Z 29006KT CAVOK 00/M04 Q1016 R14/19//95=
201812121930 METAR LRIA 121930Z 29006KT CAVOK 00/M04 Q1016 R14/19//95=
201812122000 METAR LRIA 122000Z 28007KT CAVOK 00/M04 Q1016 R14/19//95=
201812122030 METAR LRIA 122030Z 29009KT CAVOK 00/M04 Q1016 R14/19//95=
201812122100 METAR LRIA 122100Z 29008KT CAVOK 00/M05 Q1016 R14/19//95=
201812122130 METAR LRIA 122130Z 27006KT CAVOK M00/M05 Q1016 R14/19//95=
201812122200 METAR LRIA 122200Z 27007KT 9999 FEW024 M01/M05 Q1016 R14/19//95=
201812122230 METAR LRIA 122230Z 27005KT 9999 FEW024 M01/M05 Q1016 R14/19//95=
201812122300 METAR LRIA 122300Z 27007KT CAVOK M01/M05 Q1016 R14/19//95=
201812122330 METAR LRIA 122330Z 27007KT 9999 -SN FEW032 M01/M05 Q1015
                        R14/19//95=
201812130000 METAR LRIA 130000Z 26007KT 6000 -SN BKN016 OVC032 M01/M04
                        Q1015 R14/19//95=
201812130030 METAR LRIA 130030Z 27007KT 6000 -SN SCT013 OVC016 M01/M03
                        Q1015 R14/19//95=
201812130100 METAR LRIA 130100Z 28007KT 3000 -SN BKN006 OVC010 M00/M02
                        Q1015 R14/19//95=
201812130130 METAR LRIA 130130Z 27008KT 3000 -SN SCT004 BKN007 OVC016
                        M00/M02 Q1015 R14/19//95=
201812130200 METAR LRIA 130200Z 26008KT 220V290 3400 -SN SCT002 BKN010
                        OVC016 M00/M02 Q1015 R14/19//95=
201812130230 METAR COR LRIA 130230Z 26009KT 3500 -SN SCT002 BKN010 BKN016
                        M00/M02 Q1015 R14/19//95=
201812130300 METAR LRIA 130300Z 27009KT 3000 SN SCT002 BKN005 BKN016 M00/M02
                        Q1015 R14/19//95=
201812130330 METAR LRIA 130330Z 26007KT 220V290 3500 -SN SCT003 BKN008
                        OVC015 M00/M02 Q1015 R14/590294=
201812130400 METAR LRIA 130400Z 27009KT 240V300 2500 SN SCT004 BKN008
                        OVC015 M00/M02 Q1015 R14/590294=
201812130430 METAR LRIA 130430Z 27009KT 2100 SN SCT003 BKN007 OVC015 M00/M02
                        Q1014 R14/590294=
201812130500 METAR LRIA 130500Z 28009KT 6000 -SN SCT004 BKN007 OVC015
                        00/M02 Q1014 R14/590294=
201812130530 METAR LRIA 130530Z 27010KT 2000 SN BKN006 OVC012 00/M02 Q1014
                        R14/590294=
201812130600 METAR LRIA 130600Z 27011KT 3000 SN BKN006 OVC013 00/M02 Q1015
                        R14/590294=
201812130630 METAR LRIA 130630Z 27011KT 6000 -SN BKN006 OVC015 00/M02
                        Q1015 R14/590294=
201812130700 METAR LRIA 130700Z 27010KT 6000 -SN BKN007 OVC015 00/M02
                        Q1015 R14/590294=
201812130730 METAR LRIA 130730Z 27009KT 1500 SN OVC005 00/M02 Q1015 R14/590294=
201812130800 METAR LRIA 130800Z 27009KT 240V300 2000 SN OVC004 00/M02
                        Q1015 R14/590294=
201812130830 METAR LRIA 130830Z 27010KT 2500 SN OVC004 00/M01 Q1015 R14/590294=
201812130900 METAR LRIA 130900Z 27010KT 3000 SN BKN005 OVC012 00/M01 Q1015
                        R14/590294=
201812130930 METAR LRIA 130930Z 28010KT 260V320 3000 -SN BR BKN004 OVC015
                        00/M01 Q1015 RESN R14/590294=
201812131000 METAR LRIA 131000Z 27010KT 3000 -SN BR BKN004 OVC012 00/M01
                        Q1014 R14/29//95=
201812131030 METAR LRIA 131030Z 27008KT 6000 -SN BKN005 OVC012 01/M01
                        Q1014 R14/29//95=
201812131100 METAR LRIA 131100Z 28010KT 250V310 3000 SN BKN006 OVC013
                        01/M01 Q1014 R14/29//95=
201812131130 METAR LRIA 131130Z 28010KT 6000 -SN OVC006 01/M01 Q1015 RESN
                        R14/29//95=
201812131200 METAR LRIA 131200Z 28010KT 3000 SN OVC005 01/M01 Q1015 R14/29//95=
201812131230 METAR LRIA 131230Z 28009KT 240V310 2500 -SN BR OVC005 01/M01
                        Q1015 R14/29//95=
201812131300 METAR LRIA 131300Z 28010KT 3000 -SN BR OVC005 01/M01 Q1015
                        R14/29//95=
201812131330 METAR LRIA 131330Z 28008KT 7000 -SN OVC005 01/M01 Q1015 R14/29//95=
201812131400 METAR LRIA 131400Z 28010KT 250V310 8000 -SN OVC006 01/M01
                        Q1015 R14/29//95=
201812131430 METAR LRIA 131430Z 27008KT 7000 -SN SCT005 OVC009 01/M01
                        Q1016 R14/29//95=
201812131500 METAR LRIA 131500Z 28008KT 2500 SN SCT005 OVC009 00/M01 Q1016
                        R14/29//95=
201812131530 METAR LRIA 131530Z 29008KT 2500 SN OVC005 00/M01 Q1016 R14/29//95=
201812131600 METAR LRIA 131600Z 29008KT 5000 -SN OVC004 00/M01 Q1016 RESN
                        R14/29//95=
201812131630 METAR LRIA 131630Z 29009KT 8000 -SN BKN007 00/M01 Q1016 R14/29//95=
201812131700 METAR LRIA 131700Z 29008KT 9000 -SN BKN007 00/M01 Q1016 R14/29//95=
201812131730 METAR LRIA 131730Z 29008KT 9000 -SN BKN007 00/M01 Q1016 R14/29//95=
201812131800 METAR COR LRIA 131800Z 29008KT 9999 -SN FEW006 BKN008 00/M01
                        Q1017 R14/29//95=
201812131830 METAR LRIA 131830Z 29008KT 9999 -SN FEW006 BKN009 00/M01
                        Q1017 R14/29//95=
201812131900 METAR LRIA 131900Z 28007KT 9999 -SN FEW007 BKN009 00/M01
                        Q1017 R14/29//95=
201812131930 METAR LRIA 131930Z 29009KT 9999 -SN FEW005 BKN008 00/M02
                        Q1017 R14/29//95=
201812132000 METAR LRIA 132000Z 28008KT 9999 -SN FEW005 BKN009 00/M02
                        Q1017 R14/29//95=
201812132030 METAR LRIA 132030Z 29007KT 8000 -SN FEW005 BKN008 00/M01
                        Q1017 R14/29//95=
201812132100 METAR LRIA 132100Z 29007KT 7000 -SN FEW006 BKN008 00/M02
                        Q1018 R14/29//95=
201812132130 METAR LRIA 132130Z 29009KT 9999 -SN FEW006 SCT008 00/M02
                        Q1018 R14/29//95=
201812132200 METAR LRIA 132200Z 28008KT 9999 -SN FEW006 SCT009 00/M02
                        Q1018 R14/29//95=
201812132230 METAR COR LRIA 132230Z 28009KT 260V320 9999 -SN FEW007 BKN009
                        00/M02 Q1018 R14/29//95=
201812132300 METAR LRIA 132300Z 29010KT 6000 -SN SCT009 M00/M02 Q1018
                        R14/29//95=
201812132330 METAR COR LRIA 132330Z 29009KT 4300 -SN BR FEW005 BKN010
                        M00/M02 Q1018 R14/29//95=
201812140000 METAR LRIA 140000Z 29009KT 6000 -SN FEW005 BKN008 M00/M02
                        Q1019 R14/29//95=
201812140030 METAR LRIA 140030Z 29009KT 6000 -SN FEW004 BKN007 M00/M02
                        Q1019 R14/29//95=
201812140100 METAR COR LRIA 140100Z 29009KT 6000 -SN FEW004 BKN007 M00/M02
                        Q1019 R14/29//95=
201812140130 METAR LRIA 140130Z AUTO 29009KT 9999 -SN FEW005/// SCT020///
                        M00/M02 Q1019=
201812140200 METAR LRIA 140200Z 29008KT 9999 -SN FEW006 BKN019 M00/M02
                        Q1019 R14/29//95=
201812140230 METAR LRIA 140230Z 29008KT 9999 -SN FEW007 SCT012 M00/M02
                        Q1019 R14/29//95=
201812140300 METAR LRIA 140300Z 29007KT 9999 -SN FEW013 BKN018 M00/M02
                        Q1019 R14/29//95=
201812140330 METAR LRIA 140330Z 30009KT 9999 -SN SCT015 SCT019 M00/M02
                        Q1019 R14/29//95=
201812140400 METAR LRIA 140400Z 30009KT 9999 -SN FEW016 BKN090 M00/M03
                        Q1020 R14/29//95=
201812140430 METAR COR LRIA 140430Z 30007KT 9999 -SN NSC M00/M03 Q1020
                        R14/29//95=
201812140500 METAR LRIA 140500Z 29008KT 9999 -SN BKN021 M00/M03 Q1020
                        R14/29//95=
201812140530 METAR LRIA 140530Z 29008KT 9999 -SN SCT022 M00/M03 Q1020
                        R14/29//95=
201812140600 METAR LRIA 140600Z 30007KT 9999 -SN SCT017 M00/M03 Q1021
                        R14/29//95=
201812140630 METAR LRIA 140630Z 30007KT 9999 -SN SCT017 M00/M03 Q1021
                        R14/29//95=
201812140700 METAR LRIA 140700Z 30007KT 9999 -SN BKN013 M00/M03 Q1021
                        R14/29//95=
201812140730 METAR LRIA 140730Z 29007KT 250V320 9999 -SN FEW009 BKN013
                        M00/M03 Q1022 R14/29//95=
201812140800 METAR LRIA 140800Z 29007KT 9000 -SN FEW008 OVC017 M00/M03
                        Q1022 R14/29//95=
201812140830 METAR LRIA 140830Z 29007KT 9000 -SN FEW009 BKN017 M00/M03
                        Q1022 R14/29//95=
201812140900 METAR LRIA 140900Z 31009KT 9000 -SN SCT018 BKN023 00/M03
                        Q1022 R14/29//95=
201812140930 METAR LRIA 140930Z 30009KT 9999 -SN FEW008 SCT014 BKN030
                        M00/M03 Q1022 R14/29//95=
201812141000 METAR LRIA 141000Z 31012KT 9999 -SN FEW007 SCT010 BKN014
                        00/M03 Q1022 R14/29//95=
201812141030 METAR LRIA 141030Z 32009KT 9999 -SN FEW008 BKN018 M00/M03
                        Q1022 R14/29//95=
201812141100 METAR LRIA 141100Z 30009KT 9999 -SN FEW008 BKN014 M00/M03
                        Q1022 R14/29//95=
201812141130 METAR LRIA 141130Z 30009KT 9999 -SN FEW010 BKN013 00/M03
                        Q1023 R14/29//95=
201812141200 METAR LRIA 141200Z 30009KT 9999 BKN012 00/M03 Q1023 R14/29//95=
201812141230 METAR LRIA 141230Z 31011KT 9999 BKN014 00/M03 Q1023 R14/29//95=
201812141300 METAR LRIA 141300Z 31009KT 9999 -SN FEW015 SCT033 00/M03
                        Q1023 R14/29//95=
201812141330 METAR LRIA 141330Z 30007KT 270V330 9999 -SN SCT014 BKN033
                        00/M03 Q1023 R14/29//95=
201812141400 METAR LRIA 141400Z 32006KT 9999 -SN SCT014 BKN024 M00/M03
                        Q1023 R14/29//95=
201812141430 METAR LRIA 141430Z 31007KT 9999 -SN FEW011 SCT014 BKN024
                        M00/M03 Q1024 R14/29//95=
201812141500 METAR LRIA 141500Z 32006KT 9999 -SN FEW010 SCT016 M01/M03
                        Q1024 R14/29//95=
201812141530 METAR LRIA 141530Z 32005KT 9999 -SN FEW008 SCT017 M00/M03
                        Q1024 R14/29//95=
201812141600 METAR LRIA 141600Z 33005KT 9999 -SN SCT009 BKN016 M01/M03
                        Q1024 R14/29//95=
201812141630 METAR LRIA 141630Z 34010KT 9999 SCT007 BKN016 M01/M03 Q1024
                        R14/29//95=
201812141700 METAR LRIA 141700Z 32005KT 270V340 9999 -SN FEW006 SCT018
                        BKN024 M01/M03 Q1025 R14/29//95=
201812141730 METAR LRIA 141730Z 25002KT 220V290 9999 -SN OVC022 M01/M03
                        Q1025 R14/29//95=
201812141800 METAR LRIA 141800Z VRB01KT 9999 FEW006 OVC033 M01/M03 Q1025
                        R14/29//95=
201812141830 METAR LRIA 141830Z 00000KT 9999 SCT006 BKN025 M01/M03 Q1025
                        R14/29//95=
201812141900 METAR LRIA 141900Z 00000KT 9999 SCT008 BKN027 M01/M03 Q1025
                        R14/29//95=
201812141930 METAR LRIA 141930Z 27002KT 9999 FEW009 BKN033 M01/M03 Q1025
                        R14/29//95=
201812142000 METAR LRIA 142000Z 00000KT 9999 BKN033 M02/M04 Q1026 R14/29//95=
201812142030 METAR LRIA 142030Z 00000KT 8000 SCT012 M02/M03 Q1026 R14/29//95=
201812142100 METAR LRIA 142100Z 00000KT 9000 FEW009 M02/M03 Q1026 R14/29//95=
201812142130 METAR LRIA 142130Z 00000KT 9000 FEW009 BKN047 M02/M03 Q1026
                        R14/29//95=
201812142200 METAR LRIA 142200Z 00000KT 9000 FEW009 BKN045 M02/M03 Q1026
                        R14/29//95=
201812142230 METAR LRIA 142230Z 00000KT 9000 BKN007 BKN045 M01/M03 Q1026
                        R14/29//95=
201812142300 METAR LRIA 142300Z 31003KT 9000 BKN007 BKN045 M01/M03 Q1026
                        R14/29//95=
201812142330 METAR LRIA 142330Z 32001KT 9000 SCT007 BKN040 M02/M03 Q1026
                        R14/29//95=
201812150000 METAR LRIA 150000Z 21003KT 180V270 8000 SCT006 BKN040 M02/M04
                        Q1026 R14/29//95=
201812150030 METAR LRIA 150030Z 00000KT 9000 SCT006 BKN040 M02/M03 Q1026
                        R14/29//95=
201812150100 METAR LRIA 150100Z 00000KT 9000 SCT006 OVC045 M02/M03 Q1026
                        R14/29//95=
201812150130 METAR LRIA 150130Z 07001KT 9000 OVC045 M02/M04 Q1026 R14/29//95=
201812150200 METAR LRIA 150200Z 00000KT 9000 OVC045 M02/M03 Q1026 R14/29//95=
201812150230 METAR LRIA 150230Z 00000KT 8000 SCT005 BKN045 M02/M04 Q1026
                        R14/29//95=
201812150300 METAR LRIA 150300Z 00000KT 7000 FEW005 OVC045 M02/M04 Q1026
                        R14/29//95=
201812150330 METAR LRIA 150330Z 06005KT 0250 R14/0650N R32/1500D FZFG
                        VV001 M03/M04 Q1026 R14/29//95=
201812150400 METAR LRIA 150400Z 30002KT 0150 R14/0600N R32/1300N FZFG
                        VV001 M03/M05 Q1026 R14/29//95=
201812150430 METAR LRIA 150430Z 31001KT 0150 R14/0600N R32/0900N FZFG
                        BKN001 M04/M05 Q1026 R14/29//95=
201812150500 METAR COR LRIA 150500Z 35002KT 1200 R14/1600U R32/0600D BR
                        SCT001 M04/M06 Q1026 R14/29//95=
201812150530 METAR LRIA 150530Z VRB01KT 1000 R14/2000N R32/P2000N BR FEW001
                        M04/M05 Q1027 R14/29//95=
201812150600 METAR LRIA 150600Z 27002KT 1500 BR NSC M03/M05 Q1027 R14/29//95=
201812150630 METAR LRIA 150630Z 29002KT 1500 -SN BR BKN030 M03/M05 Q1027
                        R14/29//95=
201812150700 METAR LRIA 150700Z 00000KT 1500 -SN BR BKN030 M03/M04 Q1027
                        R14/29//95=
201812150730 METAR LRIA 150730Z 26002KT 2000 -SN BR BKN030 M03/M04 Q1027
                        R14/29//95=
201812150800 METAR LRIA 150800Z 26002KT 3000 -SN BR SCT045 M03/M04 Q1027
                        R14/29//95=
201812150830 METAR LRIA 150830Z 34002KT 5000 -SN BR SCT043 M03/M04 Q1028
                        R14/29//95=
201812150900 METAR LRIA 150900Z 33002KT 4000 -SN BR SCT033 M02/M04 Q1028
                        R14/29//95=
201812150930 METAR LRIA 150930Z 34002KT 2000 -SN BR SCT022 BKN033 M02/M03
                        Q1027 R14/29//95=
201812151000 METAR LRIA 151000Z 03003KT 010V070 4500 -SN BR SCT022 BKN033
                        M01/M04 Q1027 R14/29//95=
201812151030 METAR LRIA 151030Z 05004KT 5000 -SN BR FEW007 SCT024 BKN035
                        M01/M04 Q1027 R14/29//95=
201812151100 METAR LRIA 151100Z 05004KT 4500 -SN BR FEW007 SCT024 BKN035
                        M01/M04 Q1027 R14/29//95=
201812151130 METAR LRIA 151130Z 06004KT 5000 -SN BR FEW007 BKN035 M01/M04
                        Q1026 R14/29//95=
201812151200 METAR LRIA 151200Z 05004KT 5000 -SN BR BKN022 M01/M04 Q1026
                        R14/29//95=
201812151230 METAR LRIA 151230Z 04004KT 4500 -SN BR SCT022 BKN035 M01/M03
                        Q1026 R14/29//95=
201812151300 METAR LRIA 151300Z 03004KT 4000 -SN BR SCT015 BKN033 M01/M03
                        Q1026 R14/29//95=
201812151330 METAR LRIA 151330Z 03005KT 3500 -SG BR BKN007 OVC023 M01/M03
                        Q1026 R14/29//95=
201812151400 METAR LRIA 151400Z 02005KT 5000 -SN BR SCT015 BKN030 M01/M03
                        Q1026 R14/29//95=
201812151430 METAR LRIA 151430Z 03005KT 3500 -SN BR SCT007 BKN030 M01/M03
                        Q1026 R14/29//95=
201812151500 METAR LRIA 151500Z 03005KT 5000 -SN BR SCT010 BKN040 01/M03
                        Q1026 R14/29//95=
201812151530 METAR LRIA 151530Z 06006KT 3000 -SN BR SCT013 BKN030 M01/M03
                        Q1026 R14/29//95=
201812151600 METAR LRIA 151600Z 06005KT 3000 -SN BR SCT012 BKN025 M01/M03
                        Q1026 R14/29//95=
201812151630 METAR COR LRIA 151630Z 07006KT 2000 -SN BR SCT008 BKN014
                        BKN022 M01/M03 Q1026 R14/590295=
201812151700 METAR LRIA 151700Z 07005KT 1800 -SN BR BKN007 BKN022 M01/M03
                        Q1026 R14/590295=
201812151730 METAR LRIA 151730Z 07005KT 2500 -SN BR SCT005 BKN011 OVC035
                        M02/M03 Q1026 R14/590295=
201812151800 METAR LRIA 151800Z 08006KT 4000 -SN BR FEW002 SCT016 OVC040
                        M01/M03 Q1026 R14/590295=
201812151830 METAR LRIA 151830Z 10006KT 4100 -SN BR FEW004 SCT009 BKN023
                        M02/M03 Q1026 R14/590295=
201812151900 METAR LRIA 151900Z 09007KT 4900 -SN BR FEW008 SCT014 BKN023
                        M02/M03 Q1026 R14/590295=
201812151930 METAR LRIA 151930Z 08007KT 6000 -SN FEW006 SCT030 BKN042
                        M02/M04 Q1026 R14/590295=
201812152000 METAR LRIA 152000Z 08006KT 7000 FEW005 SCT007 BKN029 M02/M03
                        Q1026 R14/590295=
201812152030 METAR LRIA 152030Z 08004KT 9999 FEW006 SCT009 BKN029 M02/M04
                        Q1026 R14/590295=
201812152100 METAR LRIA 152100Z 06003KT 9999 FEW006 SCT009 BKN029 M02/M04
                        Q1026 R14/590295=
201812152130 METAR LRIA 152130Z 05006KT 9999 FEW011 SCT015 OVC030 M02/M04
                        Q1026 R14/590295=
201812152200 METAR LRIA 152200Z 06006KT 9999 FEW011 OVC030 M02/M04 Q1025
                        R14/590295=
201812152230 METAR LRIA 152230Z 07006KT 9999 FEW018 OVC031 M02/M04 Q1025
                        R14/590295=
201812152300 METAR LRIA 152300Z 07005KT 9999 OVC030 M02/M05 Q1025 R14/590295=
201812152330 METAR LRIA 152330Z 07005KT 9999 OVC031 M02/M05 Q1025 R14/590295=
201812160000 METAR LRIA 160000Z 06006KT 9999 OVC030 M01/M05 Q1025 R14/590295=
201812160030 METAR LRIA 160030Z 07008KT 9999 FEW018 OVC029 M02/M05 Q1025
                        R14/29//95=
201812160100 METAR LRIA 160100Z 08009KT 9999 OVC027 M01/M05 Q1025 R14/29//95=
201812160130 METAR LRIA 160130Z 08007KT 9999 OVC026 M02/M05 Q1025 R14/29//95=
201812160200 METAR LRIA 160200Z 09007KT 9999 OVC025 M01/M05 Q1024 R14/29//95=
201812160230 METAR LRIA 160230Z 09004KT 9999 OVC026 M02/M05 Q1025 R14/29//95=
201812160300 METAR LRIA 160300Z 11008KT 9999 -SN OVC027 M02/M05 Q1024
                        R14/29//95=
201812160330 METAR LRIA 160330Z 11006KT 6000 -SHRA FEW003 BKN025 M02/M04
                        Q1024 R14/29//95=
201812160400 METAR LRIA 160400Z 10006KT 5000 BR FEW003 SCT016 BKN021 M02/M04
                        Q1024 R14/690195=
201812160430 METAR LRIA 160430Z 09007KT 6000 FEW002 SCT009 BKN024 M02/M04
                        Q1024 R14/690195=
201812160500 METAR LRIA 160500Z 09005KT 7000 -SN FEW004 SCT012 BKN030
                        M02/M04 Q1024 R14/690195=
201812160530 METAR LRIA 160530Z 08005KT 7000 -FZRA FEW004 SCT011 BKN026
                        M02/M04 Q1024 R14/690195=
201812160600 METAR LRIA 160600Z 12009KT 6000 -FZRA FEW005 SCT009 BKN026
                        M01/M03 Q1024 R14/690195=
201812160630 METAR LRIA 160630Z 12011KT 9000 -FZRA FEW007 BKN017 BKN022
                        M01/M04 Q1024 R14/690195=
201812160700 METAR LRIA 160700Z 11010KT 9999 FEW009 SCT016 BKN021 M01/M04
                        Q1024 R14/690194=
201812160730 METAR COR LRIA 160730Z 11011KT 9999 FEW010 BKN017 M01/M04
                        Q1024 R14/290194=
201812160800 METAR LRIA 160800Z 11010KT 9000 FEW010 BKN017 M01/M03 Q1024
                        R14/290194=
201812160830 METAR LRIA 160830Z 10008KT 8000 -FZDZ FEW006 BKN012 M01/M03
                        Q1024 R14/290194=
201812160900 METAR LRIA 160900Z 10008KT 7000 -FZRA FEW007 BKN010 M01/M03
                        Q1024 R14/290194=
201812160930 METAR LRIA 160930Z 11008KT 9999 -FZRA FEW006 SCT009 M01/M03
                        Q1024 R14/290194=
201812161000 METAR LRIA 161000Z 12008KT 9000 -FZRA FEW007 SCT009 M00/M03
                        Q1024 R14/290194=
201812161030 METAR LRIA 161030Z 12011KT 8000 -FZRA FEW007 SCT010 BKN013
                        M00/M03 Q1024 R14/290194=
201812161100 METAR LRIA 161100Z 11010KT 9999 -FZRA FEW008 BKN012 M00/M03
                        Q1024 R14/290194=
201812161130 METAR LRIA 161130Z 11008KT 9999 -FZRA SCT010 BKN013 M00/M03
                        Q1023 R14/290194=
201812161200 METAR COR LRIA 161200Z 11007KT 9999 -FZRA SCT009 BKN012 M00/M03
                        Q1023 R14/29//95=
201812161230 METAR LRIA 161230Z 11006KT 8000 -FZDZ FEW006 BKN009 M00/M02
                        Q1023 R14/29//95=
201812161300 METAR LRIA 161300Z 11007KT 9999 -FZDZ FEW005 SCT009 BKN013
                        M00/M02 Q1024 R14/29//95=
201812161330 METAR COR LRIA 161330Z 10009KT 9999 FEW004 BKN011 M00/M02
                        Q1024 R14/29//95=
201812161400 METAR LRIA 161400Z 11011KT 8000 -FZRA FEW006 OVC012 M00/M03
                        Q1024 R14/29//95=
201812161430 METAR LRIA 161430Z 10009KT 9000 -FZRA FEW007 BKN012 M00/M03
                        Q1024 R14/29//95=
201812161500 METAR LRIA 161500Z 10007KT 6000 -FZRA FEW006 BKN009 M00/M02
                        Q1024 R14/29//95=
201812161530 METAR LRIA 161530Z 10008KT 5000 FZRA FEW005 OVC009 M01/M02
                        Q1024 R14/29//95=
201812161600 METAR LRIA 161600Z 11009KT 6000 -FZRA FEW003 BKN009 M01/M02
                        Q1024 R14/29//95=
201812161630 METAR COR LRIA 161630Z 10009KT 7000 -FZRA FEW003 BKN013 M01/M02
                        Q1024 R14/29//95=
201812161700 METAR LRIA 161700Z 10009KT 8000 -FZDZ FEW005 BKN012 M01/M02
                        Q1025 R14/29//95=
201812161730 METAR LRIA 161730Z 11009KT 9999 -SN FEW006 BKN012 M00/M02
                        Q1025 R14/29//95=
201812161800 METAR LRIA 161800Z 12012KT 9999 FEW006 OVC013 M01/M03 Q1025
                        R14/29//95=
201812161830 METAR LRIA 161830Z 12011KT 9999 -FZRA SCT008 OVC013 M01/M03
                        Q1025 R14/29//95=
201812161900 METAR LRIA 161900Z 11010KT 9999 -FZDZ SCT007 OVC012 M01/M03
                        Q1025 R14/29//95=
201812161930 METAR LRIA 161930Z 11011KT 9999 SCT008 OVC012 M01/M03 Q1025
                        REFZDZ R14/29//95=
201812162000 METAR LRIA 162000Z 11008KT 9999 SCT008 OVC011 M01/M03 Q1025
                        R14/29//95=
201812162030 METAR LRIA 162030Z 11009KT 9999 -FZDZ OVC010 M01/M03 Q1025
                        R14/29//95=
201812162100 METAR LRIA 162100Z 11007KT 9999 -FZRA SCT008 OVC010 M01/M03
                        Q1025 R14/29//95=
201812162130 METAR LRIA 162130Z 12008KT 9999 -FZDZ SCT007 OVC010 M01/M03
                        Q1025 R14/29//95=
201812162200 METAR LRIA 162200Z 10007KT 8000 -FZRA SCT007 OVC010 M01/M03
                        Q1025 R14/29//95=
201812162230 METAR LRIA 162230Z 10008KT 6000 -FZRA SCT007 OVC009 M01/M03
                        Q1025 R14/29//95=
201812162300 METAR LRIA 162300Z 10008KT 8000 -FZRA BKN005 OVC009 M01/M03
                        Q1024 R14/29//95=
201812162330 METAR LRIA 162330Z 11009KT 5000 -FZRA BKN005 OVC009 M01/M03
                        Q1024 R14/29//95=
201812170000 METAR LRIA 170000Z 11008KT 7000 -FZDZ BKN005 OVC009 M01/M03
                        Q1024 R14/29//95=
201812170030 METAR LRIA 170030Z 11009KT 9999 -FZDZ SCT005 OVC008 M01/M03
                        Q1024 R14/29//95=
201812170100 METAR LRIA 170100Z 11009KT 9999 SCT006 OVC008 M02/M04 Q1024
                        R14/29//94=
201812170130 METAR LRIA 170130Z 11009KT 9999 SCT006 OVC008 M02/M04 Q1024
                        R14/29//94=
201812170200 METAR LRIA 170200Z 11008KT 9999 OVC008 M02/M04 Q1024 R14/29//94=
201812170230 METAR LRIA 170230Z 10009KT 9999 OVC008 M02/M04 Q1023 R14/29//94=
201812170300 METAR LRIA 170300Z 11009KT 9999 OVC008 M02/M04 Q1023 R14/29//94=
201812170330 METAR LRIA 170330Z 11008KT 9999 OVC008 M02/M04 Q1024 R14/29//94=
201812170400 METAR COR LRIA 170400Z 10009KT 9999 OVC008 M02/M04 Q1023
                        R14/29//95=
201812170430 METAR LRIA 170430Z 11008KT 9999 SCT006 OVC008 M02/M04 Q1024
                        R14/29//95=
201812170500 METAR LRIA 170500Z 11011KT 9999 SCT007 OVC009 M02/M04 Q1023
                        R14/29//95=
201812170530 METAR LRIA 170530Z 11011KT 9999 OVC009 M02/M05 Q1023 R14/29//95=
201812170600 METAR LRIA 170600Z 11010KT 9999 OVC009 M02/M05 Q1024 R14/29//95=
201812170630 METAR LRIA 170630Z 11009KT 9999 OVC009 M02/M04 Q1024 R14/29//95=
201812170700 METAR LRIA 170700Z 10008KT 9999 OVC009 M02/M04 Q1024 R14/29//95=
201812170730 METAR LRIA 170730Z 10008KT 9999 OVC009 M02/M05 Q1024 R14/29//95=
201812170800 METAR LRIA 170800Z 11010KT 9999 OVC010 M02/M05 Q1024 R14/29//95=
201812170830 METAR LRIA 170830Z 12013KT 9999 OVC009 M02/M05 Q1024 R14/29//95=
201812170900 METAR LRIA 170900Z 12012KT 9999 OVC009 M02/M05 Q1024 R14/29//95=
201812170930 METAR LRIA 170930Z 13011KT 9999 FEW006 OVC008 M03/M05 Q1024
                        R14/29//95=
201812171000 METAR LRIA 171000Z 12011KT 9999 OVC009 M02/M05 Q1023 R14/29//95=
201812171030 METAR LRIA 171030Z 12010KT 9999 OVC009 M02/M05 Q1023 R14/29//95=
201812171100 METAR LRIA 171100Z 12010KT 9999 OVC010 M02/M05 Q1023 R14/29//95=
201812171130 METAR LRIA 171130Z 11009KT 9999 OVC009 M02/M05 Q1023 R14/29//95=
201812171200 METAR LRIA 171200Z 10010KT 9999 OVC009 M02/M05 Q1023 R14/29//95=
201812171230 METAR LRIA 171230Z 11009KT 9999 OVC009 M02/M05 Q1023 R14/29//95=
201812171300 METAR LRIA 171300Z 10009KT 9999 OVC009 M03/M05 Q1023 R14/29//95=
201812171330 METAR LRIA 171330Z 10009KT 9999 OVC010 M03/M05 Q1023 R14/29//95=
201812171400 METAR LRIA 171400Z 09009KT 9999 OVC010 M03/M06 Q1023 R14/29//95=
201812171430 METAR LRIA 171430Z 08008KT 9999 OVC011 M03/M05 Q1024 R14/29//95=
201812171500 METAR LRIA 171500Z 09007KT 9999 OVC011 M03/M05 Q1024 R14/29//95=
201812171530 METAR LRIA 171530Z 08006KT 9999 OVC010 M03/M05 Q1024 R14/29//95=
201812171600 METAR LRIA 171600Z 09006KT 9999 OVC011 M03/M05 Q1024 R14/29//95=
201812171630 METAR LRIA 171630Z 09006KT 9999 OVC010 M03/M05 Q1024 R14/29//95=
201812171700 METAR LRIA 171700Z 08005KT 9999 OVC011 M03/M05 Q1024 R14/29//95=
201812171730 METAR LRIA 171730Z 09005KT 9999 OVC011 M03/M05 Q1024 R14/29//95=
201812171800 METAR LRIA 171800Z 08004KT 050V110 9999 OVC011 M03/M05 Q1025
                        R14/29//95=
201812171830 METAR LRIA 171830Z 08004KT 9999 -FZDZ OVC012 M03/M05 Q1025
                        R14/29//95=
201812171900 METAR LRIA 171900Z 07005KT 9999 -FZDZ OVC011 M03/M05 Q1025
                        R14/29//95=
201812171930 METAR LRIA 171930Z 07006KT 9999 -FZDZ BKN011 M03/M05 Q1025
                        R14/29//95=
201812172000 METAR LRIA 172000Z 07005KT 9999 OVC010 M03/M05 Q1025 R14/29//95=
201812172030 METAR LRIA 172030Z 07006KT 9999 OVC010 M03/M05 Q1025 R14/29//95=
201812172100 METAR LRIA 172100Z 07005KT 9999 -SN OVC010 M03/M05 Q1026
                        R14/29//95=
201812172130 METAR LRIA 172130Z 06004KT 9999 -SN OVC011 M03/M05 Q1026
                        R14/29//95=
201812172200 METAR COR LRIA 172200Z 06004KT 9999 -SN OVC011 M03/M05 Q1026
                        R14/29//95=
201812172230 METAR LRIA 172230Z 07004KT 9000 -SN FEW011 BKN014 M03/M05
                        Q1026 R14/29//95=
201812172300 METAR LRIA 172300Z 05004KT 9999 -SN BKN015 BKN020 M03/M05
                        Q1026 R14/29//95=
201812172330 METAR LRIA 172330Z 04005KT 9999 -SN BKN013 M03/M05 Q1026
                        R14/29//95=
201812180000 METAR LRIA 180000Z 04005KT 9999 BKN014 M03/M05 Q1026 RESN
                        R14/29//95=
201812180030 METAR LRIA 180030Z 03005KT 9999 OVC015 M03/M05 Q1026 R14/29//95=
201812180100 METAR LRIA 180100Z 02005KT 9999 SCT013 BKN017 M03/M05 Q1026
                        R14/29//95=
201812180130 METAR COR LRIA 180130Z 03005KT 7000 -SN FEW013 BKN017 M03/M05
                        Q1026 R14/29//95=
201812180200 METAR COR LRIA 180200Z 02005KT 5000 -FZRA BR SCT024 SCT040
                        M03/M05 Q1026 R14/29//95=
201812180230 METAR COR LRIA 180230Z 02005KT 9000 -SNRA SCT019 SCT024 BKN040
                        M03/M05 Q1026 R14/29//95=
201812180300 METAR LRIA 180300Z 36005KT 7000 -SN FEW021 BKN040 M03/M05
                        Q1026 R14/29//95=
201812180330 METAR LRIA 180330Z 36005KT 9000 -SNRA FEW017 OVC041 M03/M05
                        Q1027 R14/29//95=
201812180400 METAR LRIA 180400Z 01005KT 9999 -SN FEW019 OVC040 M03/M05
                        Q1027 R14/29//95=
201812180430 METAR LRIA 180430Z 01006KT 7000 -SN OVC040 M03/M05 Q1027
                        R14/59//95=
201812180500 METAR LRIA 180500Z 35005KT 320V020 5000 -SN BR FEW033 BKN043
                        M03/M05 Q1027 R14/59//95=
201812180530 METAR LRIA 180530Z 35006KT 2800 SN BR FEW020 OVC030 M03/M05
                        Q1028 R14/59//95=
201812180600 METAR COR LRIA 180600Z 34005KT 1600 SN BR SCT004 OVC016 M03/M05
                        Q1028 R14/59//91=
201812180630 METAR LRIA 180630Z 34005KT 1600 SN BR SCT004 OVC016 M03/M05
                        Q1028 R14/59//91=
201812180700 METAR LRIA 180700Z 35006KT 1600 SN BR SCT004 OVC009 M03/M05
                        Q1028 R14/590391=
201812180730 METAR LRIA 180730Z 34005KT 2000 -SN BR SCT006 OVC016 M03/M05
                        Q1029 R14/590391=
201812180800 METAR LRIA 180800Z 33005KT 1600 -SN BR SCT009 OVC016 M03/M05
                        Q1029 R14/590294=
201812180830 METAR LRIA 180830Z 34006KT 2100 -SN BR SCT009 OVC019 M03/M05
                        Q1029 R14/590294=
201812180900 METAR LRIA 180900Z 33005KT 2200 -SN BR FEW005 SCT010 OVC019
                        M03/M05 Q1029 R14/590294=
201812180930 METAR LRIA 180930Z 33005KT 3500 -SN BR FEW005 SCT011 OVC023
                        M03/M05 Q1029 R14/590294=
201812181000 METAR LRIA 181000Z 33006KT 4000 -SN BR FEW004 SCT009 OVC023
                        M03/M05 Q1029 R14/590294=
201812181030 METAR LRIA 181030Z 33005KT 2300 -SN FEW004 SCT009 OVC023
                        M03/M05 Q1029 R14/590294=
201812181100 METAR COR LRIA 181100Z 33007KT 2400 -SN BR FEW004 SCT009
                        OVC023 M03/M05 Q1028 R14/29//95=
201812181130 METAR LRIA 181130Z 33008KT 3200 -SN BR FEW005 SCT014 OVC025
                        M03/M05 Q1028 R14/29//95=
201812181200 METAR LRIA 181200Z 33007KT 4100 -SN BR FEW005 SCT014 OVC024
                        M03/M05 Q1028 R14/29//95=
201812181230 METAR LRIA 181230Z 33006KT 3200 -SN BR FEW004 SCT014 OVC028
                        M03/M05 Q1028 R14/29//95=
201812181300 METAR LRIA 181300Z 33006KT 3500 -SN BR FEW005 SCT024 OVC033
                        M03/M05 Q1028 R14/29//95=
201812181330 METAR LRIA 181330Z 33006KT 3800 -SN BR FEW005 SCT016 OVC033
                        M03/M05 Q1028 R14/29//95=
201812181400 METAR LRIA 181400Z 33006KT 3800 -SN BR FEW005 SCT016 OVC028
                        M03/M05 Q1028 R14/29//95=
201812181430 METAR LRIA 181430Z 34007KT 4700 -SN BR BKN024 M03/M05 Q1029
                        R14/29//95=
201812181500 METAR LRIA 181500Z 34007KT 5000 -SN BR FEW025 SCT042 M03/M05
                        Q1029 R14/29//95=
201812181530 METAR LRIA 181530Z 32005KT 4800 -SN BR FEW025 BKN037 M04/M05
                        Q1029 R14/29//95=
201812181600 METAR LRIA 181600Z 33006KT 3000 -SN BR FEW009 SCT020 OVC037
                        M04/M05 Q1029 R14/590294=
201812181630 METAR LRIA 181630Z 34008KT 4700 -SN BR BKN009 M04/M05 Q1029
                        R14/590294=
201812181700 METAR LRIA 181700Z 33006KT 5000 -SN BR SCT009 M04/M06 Q1029
                        R14/590294=
201812181730 METAR LRIA 181730Z 33006KT 4700 -SN BR FEW002 SCT020 M04/M06
                        Q1029 R14/590294=
201812181800 METAR LRIA 181800Z 33006KT 5000 -SN BR SCT040 M04/M06 Q1029
                        R14/590294=
201812181830 METAR LRIA 181830Z 33006KT 4000 -SN BR FEW003 SCT025 M04/M06
                        Q1030 R14/590294=
201812181900 METAR LRIA 181900Z 33006KT 4000 -SN BR FEW004 SCT025 M04/M06
                        Q1030 R14/590294=
201812181930 METAR LRIA 181930Z 33006KT 5000 -SN BR SCT015 M04/M06 Q1030
                        R14/590294=
201812182000 METAR LRIA 182000Z 33005KT 5000 -SN BR FEW013 SCT047 M04/M06
                        Q1030 R14/590294=
201812182030 METAR LRIA 182030Z 33006KT 6000 -SN SCT047 M04/M06 Q1030
                        R14/590294=
201812182100 METAR LRIA 182100Z 34007KT 7000 -SN FEW048 M04/M06 Q1030
                        R14/590294=
201812182130 METAR LRIA 182130Z 34007KT 8000 -SN FEW048 M04/M06 Q1030
                        R14/590294=
201812182200 METAR LRIA 182200Z 33006KT 7000 SCT010 SCT022 M04/M06 Q1030
                        R14/590294=
201812182230 METAR LRIA 182230Z 33006KT 7000 SCT012 M04/M06 Q1029 R14/590294=
201812182300 METAR LRIA 182300Z 34006KT 7000 FEW009 M05/M07 Q1029 R14/590294=
201812182330 METAR LRIA 182330Z 34006KT 7000 -SN SCT009 M05/M07 Q1029
                        R14/590294=
201812190000 METAR LRIA 190000Z 34006KT 7000 -SN SCT007 M05/M07 Q1029
                        R14/590294=
201812190030 METAR LRIA 190030Z 34006KT 7000 BKN008 M05/M06 Q1029 R14/590294=
201812190100 METAR LRIA 190100Z 33006KT 8000 SCT008 M05/M07 Q1030 R14/590294=
201812190130 METAR LRIA 190130Z 33005KT 8000 FEW008 M05/M07 Q1029 R14/590294=
201812190200 METAR LRIA 190200Z 33005KT 8000 NSC M05/M06 Q1030 R14/590294=
201812190230 METAR LRIA 190230Z 33005KT 8000 NSC M05/M06 Q1030 R14/590294=
201812190300 METAR LRIA 190300Z 33006KT 9000 BKN047 M05/M07 Q1029 R14/590294=
201812190330 METAR LRIA 190330Z 34006KT 9000 SCT047 M05/M07 Q1030 R14/590294=
201812190400 METAR LRIA 190400Z 34006KT 9000 FEW047 M05/M07 Q1030 R14/590294=
201812190430 METAR LRIA 190430Z 33005KT CAVOK M04/M07 Q1030 R14/590294=
201812190500 METAR LRIA 190500Z 33005KT CAVOK M04/M07 Q1030 R14/590294=
201812190530 METAR LRIA 190530Z 33005KT 9999 FEW010 M04/M07 Q1030 R14/590294=
201812190600 METAR COR LRIA 190600Z 34006KT 9999 BKN009 M04/M07 Q1030
                        R14/490294=
201812190630 METAR LRIA 190630Z 35008KT 9999 BKN009 M04/M07 Q1030 R14/490294=
201812190700 METAR LRIA 190700Z 01009KT 9999 BKN009 M04/M07 Q1030 R14/490294=
201812190730 METAR COR LRIA 190730Z 01007KT 9000 BKN007 M04/M07 Q1030
                        R14/19//95=
201812190800 METAR LRIA 190800Z 01008KT 7000 BKN007 OVC010 M04/M07 Q1030
                        R14/19//95=
201812190830 METAR LRIA 190830Z 36008KT 8000 SCT007 OVC010 M04/M07 Q1030
                        R14/19//95=
201812190900 METAR LRIA 190900Z 36006KT 8000 FEW007 BKN009 OVC015 M04/M07
                        Q1030 R14/19//95=
201812190930 METAR LRIA 190930Z 01006KT 9999 FEW008 BKN012 OVC017 M04/M07
                        Q1030 R14/19//95=
201812191000 METAR LRIA 191000Z 03008KT 9999 SCT010 OVC014 M04/M07 Q1030
                        R14/19//95=
201812191030 METAR LRIA 191030Z 04007KT 9999 SCT010 OVC014 M04/M08 Q1030
                        R14/19//95=
201812191100 METAR LRIA 191100Z 03009KT 9999 SCT010 OVC014 M05/M08 Q1030
                        R14/19//95=
201812191130 METAR LRIA 191130Z 03010KT 9999 SCT010 OVC014 M05/M08 Q1030
                        R14/19//95=
201812191200 METAR LRIA 191200Z 02010KT 9999 SCT011 OVC014 M05/M08 Q1030
                        R14/19//95=
201812191230 METAR LRIA 191230Z 02010KT 9999 SCT011 OVC014 M05/M09 Q1030
                        R14/19//95=
201812191300 METAR LRIA 191300Z 01009KT 9999 OVC013 M05/M09 Q1030 R14/19//95=
201812191330 METAR LRIA 191330Z 01008KT 9999 SCT011 OVC013 M05/M09 Q1030
                        R14/19//95=
201812191400 METAR LRIA 191400Z 02011KT 9999 SCT011 OVC014 M06/M10 Q1030
                        R14/19//95=
201812191430 METAR LRIA 191430Z 02008KT 9999 OVC014 M06/M10 Q1030 R14/19//95=
201812191500 METAR LRIA 191500Z 01010KT 9999 OVC013 M06/M10 Q1030 R14/19//95=
201812191530 METAR LRIA 191530Z 01008KT 9999 OVC013 M06/M10 Q1030 R14/19//95=
201812191600 METAR LRIA 191600Z 36007KT 9999 OVC013 M06/M10 Q1030 R14/19//95=
201812191630 METAR LRIA 191630Z 01008KT 9999 OVC012 M07/M10 Q1030 R14/19//95=
201812191700 METAR LRIA 191700Z 01006KT 9999 OVC012 M07/M10 Q1030 R14/19//95=
201812191730 METAR LRIA 191730Z 01005KT 9999 SCT012 OVC015 M07/M10 Q1030
                        R14/19//95=
201812191800 METAR LRIA 191800Z 36005KT 330V040 9999 OVC014 M07/M10 Q1030
                        R14/19//95=
201812191830 METAR LRIA 191830Z 36005KT 9999 OVC013 M07/M10 Q1030 R14/19//95=
201812191900 METAR LRIA 191900Z 32005KT 9999 OVC013 M07/M10 Q1030 R14/19//95=
201812191930 METAR LRIA 191930Z 33005KT 9999 OVC012 M07/M10 Q1030 R14/19//95=
201812192000 METAR LRIA 192000Z 31004KT 9999 OVC012 M07/M10 Q1030 R14/19//95=
201812192030 METAR LRIA 192030Z 31004KT 9999 OVC011 M07/M10 Q1030 R14/19//95=
201812192100 METAR LRIA 192100Z 31005KT 9999 OVC011 M07/M10 Q1030 R14/19//95=
201812192130 METAR LRIA 192130Z 30003KT 9999 OVC011 M07/M10 Q1030 R14/19//95=
201812192200 METAR LRIA 192200Z 29003KT 9999 OVC010 M07/M10 Q1030 R14/19//95=
201812192230 METAR LRIA 192230Z 30004KT 9999 OVC009 M07/M10 Q1030 R14/19//95=
201812192300 METAR LRIA 192300Z 31003KT 9999 OVC009 M07/M10 Q1029 R14/19//95=
201812192330 METAR LRIA 192330Z 30003KT 9999 OVC009 M07/M10 Q1029 R14/19//95=
201812200000 METAR LRIA 200000Z VRB01KT 9999 OVC009 M06/M09 Q1029 R14/19//95=
201812200030 METAR LRIA 200030Z 06002KT 350V100 9999 OVC009 M06/M09 Q1029
                        R14/19//95=
201812200100 METAR LRIA 200100Z 36004KT 9999 OVC009 M06/M09 Q1029 R14/19//95=
201812200130 METAR LRIA 200130Z 35003KT 330V030 9999 BKN008 M06/M09 Q1029
                        R14/19//95=
201812200200 METAR COR LRIA 200200Z 02004KT 350V050 9999 OVC008 M06/M09
                        Q1029 R14/19//95=
201812200230 METAR LRIA 200230Z 08004KT 040V100 9999 BKN007 M06/M09 Q1029
                        R14/19//95=
201812200300 METAR LRIA 200300Z 02003KT 350V050 9999 BKN008 M06/M09 Q1029
                        R14/19//95=
201812200330 METAR LRIA 200330Z 09004KT 040V120 9999 BKN007 M06/M09 Q1029
                        R14/19//95=
201812200400 METAR LRIA 200400Z 11005KT 9999 BKN007 M07/M09 Q1029 R14/19//95=
201812200430 METAR LRIA 200430Z 12005KT 060V140 9999 FEW006 BKN007 M06/M09
                        Q1029 R14/19//95=
201812200500 METAR LRIA 200500Z 11005KT 9999 OVC007 M07/M09 Q1029 R14/19//95=
201812200530 METAR LRIA 200530Z 15007KT 9999 OVC007 M07/M09 Q1029 R14/19//95=
201812200600 METAR LRIA 200600Z 15006KT 9999 OVC007 M07/M09 Q1029 R14/19//95=
201812200630 METAR LRIA 200630Z 17004KT 9999 BKN007 M07/M09 Q1029 R14/19//95=
201812200700 METAR LRIA 200700Z 18005KT 9999 BKN007 M06/M09 Q1029 R14/19//95=
201812200730 METAR LRIA 200730Z 17005KT 9999 BKN007 M06/M09 Q1029 R14/19//95=
201812200800 METAR LRIA 200800Z 17005KT 140V210 9999 BKN007 M06/M09 Q1029
                        R14/19//95=
201812200830 METAR LRIA 200830Z 15004KT 9999 BKN008 M06/M09 Q1029 R14/19//95=
201812200900 METAR LRIA 200900Z 15007KT 9999 BKN007 M06/M08 Q1029 R14/19//95=
201812200930 METAR LRIA 200930Z 18004KT 9000 BKN006 M06/M08 Q1028 R14/19//95=
201812201000 METAR COR LRIA 201000Z 16006KT 9999 BKN007 M05/M08 Q1028=
201812201030 METAR LRIA 201030Z 17005KT 9999 BKN007 M05/M08 Q1028=
201812201100 METAR LRIA 201100Z 16005KT 9999 FEW006 BKN008 M05/M08 Q1028
                        R15/19//95=
201812201130 METAR LRIA 201130Z 16005KT 140V200 9999 FEW007 SCT009 M05/M07
                        Q1027 R15/19//95=
201812201200 METAR LRIA 201200Z 14008KT 9999 FEW007 BKN009 M04/M07 Q1027
                        R15/19//95=
201812201230 METAR LRIA 201230Z 13010KT 9999 FEW007 BKN008 M04/M07 Q1026
                        R15/19//95=
201812201300 METAR LRIA 201300Z 13010KT 9999 BKN005 M04/M06 Q1027 R14/19//95=
201812201330 METAR COR LRIA 201330Z 13010KT 9000 BKN007 M04/M06 Q1027
                        R14/19//95=
201812201400 METAR LRIA 201400Z 13008KT 9999 FEW005 BKN007 M04/M06 Q1026
                        R14/19//95=
201812201430 METAR COR LRIA 201430Z 14008KT 9000 FEW005 SCT006 M04/M06
                        Q1026 R14/19//95=
201812201500 METAR LRIA 201500Z 15007KT 9999 FEW007 BKN009 M04/M06 Q1027
                        R14/19//95=
201812201530 METAR LRIA 201530Z 15006KT 9999 FEW008 BKN009 M04/M06 Q1026
                        R14/19//95=
201812201600 METAR LRIA 201600Z 14007KT 7000 FEW002 BKN007 M04/M06 Q1027
                        R14/19//95=
201812201630 METAR LRIA 201630Z 17006KT 9999 FEW007 SCT009 M04/M06 Q1026
                        R14/19//95=
201812201700 METAR LRIA 201700Z 13009KT 9999 FEW006 BKN008 M04/M06 Q1026
                        R14/19//95=
201812201730 METAR LRIA 201730Z 16005KT 9999 FEW007 BKN008 M04/M06 Q1026
                        R14/19//95=
201812201800 METAR LRIA 201800Z 18006KT 9999 SCT007 BKN009 M04/M06 Q1026
                        R14/19//95=
201812201830 METAR LRIA 201830Z 17005KT 9999 OVC009 M03/M06 Q1026 R14/19//95=
201812201900 METAR LRIA 201900Z 15008KT 9999 OVC009 M03/M06 Q1026 R14/19//95=
201812201930 METAR LRIA 201930Z 18006KT 150V220 9999 SCT007 OVC009 M03/M06
                        Q1026 R14/19//95=
201812202000 METAR LRIA 202000Z 19004KT 160V230 9999 OVC007 M03/M06 Q1026
                        R14/19//95=
201812202030 METAR LRIA 202030Z 16005KT 9999 OVC007 M03/M06 Q1026 R14/19//95=
201812202100 METAR LRIA 202100Z 16007KT 9999 SCT007 OVC009 M04/M06 Q1026
                        R14/19//95=
201812202130 METAR LRIA 202130Z 16007KT 9999 SCT006 OVC009 M04/M06 Q1026
                        R14/19//95=
201812202200 METAR LRIA 202200Z 17006KT 9999 SCT006 OVC008 M04/M06 Q1026
                        R14/19//95=
201812202230 METAR LRIA 202230Z 18005KT 9999 SCT006 OVC008 M04/M07 Q1026
                        R14/19//95=
201812202300 METAR LRIA 202300Z 19004KT 9999 SCT006 OVC008 M04/M07 Q1026
                        R14/19//95=
201812202330 METAR LRIA 202330Z 14004KT 9999 SCT006 OVC008 M04/M07 Q1026
                        R14/19//95=
201812210000 METAR LRIA 210000Z 15004KT 130V190 9999 SCT006 OVC008 M04/M07
                        Q1026 R14/19//95=
201812210030 METAR LRIA 210030Z 13006KT 9999 SCT006 OVC008 M04/M06 Q1025
                        R14/19//95=
201812210100 METAR LRIA 210100Z 11005KT 9999 SCT005 OVC007 M04/M06 Q1025
                        R14/19//95=
201812210130 METAR LRIA 210130Z 12003KT 9000 OVC006 M04/M06 Q1025 R14/19//95=
201812210200 METAR LRIA 210200Z 11006KT 9000 OVC006 M04/M06 Q1025 R14/19//95=
201812210230 METAR LRIA 210230Z 09004KT 9000 OVC006 M04/M06 Q1025 R14/19//95=
201812210300 METAR LRIA 210300Z 08002KT 8000 OVC006 M04/M06 Q1025 R14/19//95=
201812210330 METAR LRIA 210330Z 00000KT 8000 OVC007 M04/M05 Q1025 R14/19//95=
201812210400 METAR LRIA 210400Z 00000KT 7000 OVC007 M04/M05 Q1025 R14/19//95=
201812210430 METAR LRIA 210430Z VRB01KT 7000 OVC007 M03/M05 Q1025 R14/19//95=
201812210500 METAR LRIA 210500Z 12001KT 7000 OVC007 M04/M05 Q1026 R14/19//95=
201812210530 METAR LRIA 210530Z 13002KT 8000 OVC007 M03/M05 Q1026 R14/19//95=
201812210600 METAR LRIA 210600Z 15004KT 8000 OVC007 M03/M05 Q1025 R14/19//95=
201812210630 METAR LRIA 210630Z 15004KT 9000 OVC006 M03/M05 Q1026 R14/19//95=
201812210700 METAR LRIA 210700Z 17004KT 150V210 9000 FEW005 OVC006 M03/M05
                        Q1026 R14/19//95=
201812210730 METAR LRIA 210730Z 15003KT 9000 OVC006 M03/M05 Q1026 R14/19//95=
201812210800 METAR LRIA 210800Z 11005KT 8000 OVC006 M03/M05 Q1026 R14/19//95=
201812210830 METAR LRIA 210830Z 11006KT 7000 OVC006 M03/M05 Q1025 R14/19//95=
201812210900 METAR LRIA 210900Z 11003KT 080V140 8000 OVC006 M03/M05 Q1025
                        R14/19//95=
201812210930 METAR LRIA 210930Z 10003KT 070V140 6000 FEW004 BKN006 M03/M05
                        Q1025 R14/19//95=
201812211000 METAR LRIA 211000Z 09003KT 040V110 7000 BKN006 M03/M05 Q1025
                        R14/19//95=
201812211030 METAR LRIA 211030Z 12006KT 7000 BKN006 M03/M05 Q1024 R14/19//95=
201812211100 METAR LRIA 211100Z 07004KT 7000 FEW003 BKN006 M03/M05 Q1024
                        R14/19//95=
201812211130 METAR LRIA 211130Z 05004KT 7000 BKN006 M03/M05 Q1024 R14/19//95=
201812211200 METAR LRIA 211200Z 08002KT 7000 BKN004 M02/M04 Q1024 R14/19//95=
201812211230 METAR LRIA 211230Z 11004KT 7000 FEW003 BKN004 M02/M04 Q1024
                        R14/19//95=
201812211300 METAR LRIA 211300Z 09004KT 6000 BKN004 M02/M04 Q1024 R14/19//95=
201812211330 METAR LRIA 211330Z 11007KT 5000 BR BKN003 M03/M04 Q1023 R14/19//95=
201812211400 METAR LRIA 211400Z 11007KT 2500 BR SCT002 OVC003 M02/M04
                        Q1023 R14/19//95=
201812211430 METAR LRIA 211430Z 10007KT 1500 BR OVC002 M03/M04 Q1024 R14/19//95=
201812211500 METAR LRIA 211500Z 11007KT 1800 BR OVC002 M03/M04 Q1023 R14/19//95=
201812211530 METAR LRIA 211530Z 11008KT 1800 BR OVC002 M03/M04 Q1023 R14/19//95=
201812211600 METAR LRIA 211600Z 13006KT 2000 BR BKN003 M03/M05 Q1023 R14/19//95=
201812211630 METAR LRIA 211630Z 11006KT 2000 BR BKN002 M04/M06 Q1023 R14/19//95=
201812211700 METAR LRIA 211700Z 12004KT 1500 BR OVC002 M04/M05 Q1023 R14/19//95=
201812211730 METAR LRIA 211730Z 08004KT 0800 R14/2000U R32/2000U FZFG
                        OVC001 M04/M05 Q1023 R14/19//95=
201812211800 METAR LRIA 211800Z 10006KT 3700 BR SCT001 M04/M06 Q1023 R14/19//95=
201812211830 METAR LRIA 211830Z 11007KT 1200 R14/0900U R32/0700N FZFG
                        SCT001 M04/M06 Q1022 R14/19//95=
201812211900 METAR LRIA 211900Z 11007KT 1400 R14/1100U R32/0450U FZFG
                        BKN001 M05/M06 Q1022 R14/19//95=
201812211930 METAR LRIA 211930Z 10009KT 1100 R14/1200D R32/2000 BR BKN001
                        M04/M05 Q1021 R14/19//95=
201812212000 METAR LRIA 212000Z 10008KT 0700 R14/0800U R32/0900U FZFG
                        VV001 M04/M05 Q1021 R14/19//95=
201812212030 METAR LRIA 212030Z 11009KT 0750 R14/0800N R32/1100D FZFG
                        VV001 M04/M05 Q1021 R14/19//95=
201812212100 METAR LRIA 212100Z 11010KT 0600 R14/0750U R32/0750U FZFG
                        VV001 M04/M05 Q1020 R14/19//95=
201812212130 METAR LRIA 212130Z 11014KT 1000 R14/0900U R32/0800U FZFG
                        VV001 M04/M05 Q1020 R14/19//95=
201812212200 METAR LRIA 212200Z 11010KT 1400 R14/1300U R32/1700U BR VV001
                        M04/M05 Q1020 R14/19//95=
201812212230 METAR LRIA 212230Z 11009KT 2000 BR BKN001 M04/M06 Q1020 R14/19//95=
201812212300 METAR COR LRIA 212300Z 11009KT 1200 R14/1200 R32/1700N BR
                        BKN001 M04/M06 Q1019 R14/19//95=
201812212330 METAR LRIA 212330Z 12010KT 3000 BR BKN001 M05/M06 Q1019 R14/19//95=
201812220000 METAR LRIA 220000Z 11009KT 6000 SCT001 BKN002 M05/M07 Q1019
                        R14/19//95=
201812220030 METAR LRIA 220030Z 11011KT 4500 BR FEW001 BKN002 M05/M06
                        Q1018 R14/19//95=
201812220100 METAR LRIA 220100Z 10011KT 6000 FEW001 BKN002 M05/M07 Q1018
                        R14/19//95=
201812220130 METAR LRIA 220130Z 11011KT 7000 FEW001 M05/M06 Q1017 R14/19//95=
201812220200 METAR LRIA 220200Z 11010KT 7000 NSC M05/M06 Q1017 R14/19//95=
201812220230 METAR LRIA 220230Z 12010KT 6000 SCT002 M04/M06 Q1016 R14/19//95=
201812220300 METAR LRIA 220300Z 11011KT 5000 BR SCT001 M04/M06 Q1016 RESG
                        R14/19//95=
201812220330 METAR LRIA 220330Z 10012KT 4700 BR FEW001 BKN002 M04/M06
                        Q1015 R14/19//95=
201812220400 METAR LRIA 220400Z 11012KT 4800 BR BKN002 M04/M06 Q1015 R14/19//95=
201812220430 METAR LRIA 220430Z 11011KT 5000 BR BKN002 M04/M05 Q1015 R14/19//95=
201812220500 METAR LRIA 220500Z 11010KT 5000 BR SCT001 M03/M05 Q1014 R14/19//95=
201812220530 METAR LRIA 220530Z 11013KT 5000 BR FEW002 BKN039 M03/M05
                        Q1014 R14/19//95=
201812220600 METAR LRIA 220600Z 11013KT 4000 BR FEW001 BKN040 M03/M05
                        Q1014 REFZRA R14/19//95=
201812220630 METAR LRIA 220630Z 11015KT 5000 BR BKN040 M03/M05 Q1014 R14/19//95=
201812220700 METAR LRIA 220700Z 11014KT 5000 BR NSC M03/M04 Q1013 R14/19//95=
201812220730 METAR LRIA 220730Z 12013KT 4700 BR NSC M03/M04 Q1013 R14/19//95=
201812220800 METAR LRIA 220800Z 12011KT 6000 NSC M03/M04 Q1013 R14/19//95=
201812220830 METAR LRIA 220830Z 11010KT 5000 BR NSC M03/M04 Q1012 R14/19//95=
201812220900 METAR LRIA 220900Z 10009KT 5000 BR NSC M03/M04 Q1012 R14/19//95=
201812220930 METAR LRIA 220930Z 10008KT 5000 BR NSC M02/M04 Q1012 R14/19//95=
201812221000 METAR LRIA 221000Z 10006KT 080V160 7000 NSC M01/M03 Q1011
                        R14/19//95=
201812221030 METAR LRIA 221030Z 12006KT 6000 NSC M01/M03 Q1011 R14/19//95=
201812221100 METAR LRIA 221100Z 13005KT 110V170 9000 NSC M01/M02 Q1011
                        R14/19//95=
201812221130 METAR LRIA 221130Z 12006KT 9000 NSC 00/M01 Q1011 R14/19//95=
201812221200 METAR COR LRIA 221200Z 13006KT 9999 NSC 00/M01 Q1011 R14/19//95=
201812221230 METAR LRIA 221230Z 13005KT 7000 NSC M00/M02 Q1011 R14/19//95=
201812221300 METAR LRIA 221300Z 12006KT 8000 NSC M00/M02 Q1011 R14/19//95=
201812221330 METAR LRIA 221330Z 11006KT 8000 NSC M00/M02 Q1011 R14/19//95=
201812221400 METAR LRIA 221400Z 09006KT 9000 NSC M00/M02 Q1011 R14/19//95=
201812221430 METAR COR LRIA 221430Z 10005KT 9000 NSC 00/M02 Q1011 R14/19//95=
201812221500 METAR LRIA 221500Z VRB01KT CAVOK 01/M01 Q1010 R14/19//95=
201812221530 METAR COR LRIA 221530Z 18004KT 090V210 CAVOK 02/M00 Q1010
                        R14/19//95=
201812221600 METAR LRIA 221600Z 20003KT 160V260 CAVOK 03/M00 Q1010 R14/19//95=
201812221630 METAR LRIA 221630Z 21004KT CAVOK 04/00 Q1010 R14/19//95=
201812221700 METAR LRIA 221700Z 13002KT 090V180 CAVOK 02/M01 Q1010 R14/19//95=
201812221730 METAR LRIA 221730Z 20006KT CAVOK 05/00 Q1009 R14/19//95=
201812221800 METAR LRIA 221800Z 21007KT CAVOK 05/01 Q1009 R14/19//95=
201812221830 METAR LRIA 221830Z 23003KT 190V260 CAVOK 06/01 Q1009 R14/19//95=
201812221900 METAR LRIA 221900Z 20006KT 9999 -RA NSC 06/01 Q1009 R14/19//95=
201812221930 METAR LRIA 221930Z 18003KT 160V220 CAVOK 06/01 Q1009 R14/19//95=
201812222000 METAR LRIA 222000Z 17004KT 150V210 CAVOK 06/01 Q1009 R14/19//95=
201812222030 METAR LRIA 222030Z 25003KT 200V290 CAVOK 06/01 Q1009 R14/19//95=
201812222100 METAR LRIA 222100Z 21004KT CAVOK 06/01 Q1008 R14/19//95=
201812222130 METAR LRIA 222130Z 24004KT 210V290 CAVOK 06/01 Q1008 R14/19//95=
201812222200 METAR LRIA 222200Z 22006KT CAVOK 06/01 Q1008 R14/19//95=
201812222230 METAR LRIA 222230Z 22008KT CAVOK 07/01 Q1008 R14/19//95=
201812222300 METAR LRIA 222300Z 22006KT CAVOK 06/01 Q1008 R14/19//95=
201812222330 METAR LRIA 222330Z 22005KT CAVOK 07/01 Q1007 R14/19//95=
201812230000 METAR LRIA 230000Z 24006KT CAVOK 07/01 Q1008 R14/19//95=
201812230030 METAR LRIA 230030Z 25005KT 220V290 CAVOK 07/01 Q1008 R14/19//95=
201812230100 METAR LRIA 230100Z 35012KT 9999 -RA SCT045 05/00 Q1009 R14/19//95=
201812230130 METAR LRIA 230130Z 34007KT 9999 -RA BKN040 05/01 Q1009 R14/19//95=
201812230200 METAR LRIA 230200Z 31005KT 270V330 9999 -RA BKN030 04/01
                        Q1010 R14/19//95=
201812230230 METAR LRIA 230230Z 27004KT 9999 -RA BKN030 03/02 Q1010 R14/19//95=
201812230300 METAR LRIA 230300Z 34003KT 9999 -RA BKN030 04/02 Q1010 R14/19//95=
201812230330 METAR LRIA 230330Z 33004KT 280V350 9999 BKN033 04/01 Q1011
                        R14/29//95=
201812230400 METAR LRIA 230400Z 33008KT 9999 SCT045 04/00 Q1011 R14/29//95=
201812230430 METAR LRIA 230430Z 33010KT 9999 FEW045 04/M01 Q1011 R14/29//95=
201812230500 METAR LRIA 230500Z 32005KT CAVOK 04/M00 Q1012 R14/29//95=
201812230530 METAR LRIA 230530Z 24004KT CAVOK 04/M00 Q1012 R14/29//95=
201812230600 METAR LRIA 230600Z 25003KT CAVOK 03/M00 Q1013 R14/29//95=
201812230630 METAR LRIA 230630Z 21002KT 180V250 CAVOK 03/M01 Q1013 R14/29//95=
201812230700 METAR LRIA 230700Z VRB01KT CAVOK 04/M01 Q1013 R14/29//95=
201812230730 METAR LRIA 230730Z 27004KT 240V300 CAVOK 04/M02 Q1014 R14/29//95=
201812230800 METAR LRIA 230800Z 29007KT CAVOK 04/M02 Q1014 R14/29//95=
201812230830 METAR LRIA 230830Z 28004KT 210V340 CAVOK 04/M02 Q1014 R14/29//95=
201812230900 METAR LRIA 230900Z 28006KT 240V310 CAVOK 05/M02 Q1014 R14/29//95=
201812230930 METAR LRIA 230930Z 29006KT 250V310 CAVOK 05/M02 Q1015 R14/29//95=
201812231000 METAR LRIA 231000Z 31010KT CAVOK 05/M02 Q1015 R14/29//95=
201812231030 METAR LRIA 231030Z 31015KT CAVOK 04/M02 Q1015 R14/29//95=
201812231100 METAR LRIA 231100Z 31015KT CAVOK 05/M03 Q1014 R14/29//95=
201812231130 METAR LRIA 231130Z 32015KT CAVOK 04/M03 Q1015 R14/29//95=
201812231200 METAR LRIA 231200Z 31014KT CAVOK 04/M03 Q1015 R14/29//95=
201812231230 METAR LRIA 231230Z 31012KT CAVOK 04/M03 Q1016 R14/29//95=
201812231300 METAR LRIA 231300Z 32009KT CAVOK 04/M03 Q1016 R14/19//95=
201812231330 METAR LRIA 231330Z 28006KT CAVOK 04/M03 Q1016 R14/19//95=
201812231400 METAR LRIA 231400Z 28007KT CAVOK 04/M03 Q1016 R14/19//95=
201812231430 METAR LRIA 231430Z 31007KT CAVOK 03/M03 Q1016 R14/19//95=
201812231500 METAR LRIA 231500Z 30005KT CAVOK 03/M03 Q1017 R14/19//95=
201812231530 METAR LRIA 231530Z 25003KT 200V330 CAVOK 03/M03 Q1017 R14/19//95=
201812231600 METAR LRIA 231600Z VRB01KT 9999 FEW047 03/M03 Q1017 R14/19//95=
201812231630 METAR LRIA 231630Z 24002KT 150V280 9999 SCT046 02/M03 Q1017
                        R14/19//95=
201812231700 METAR LRIA 231700Z 28004KT 240V310 9999 BKN045 02/M03 Q1018
                        R14/19//95=
201812231730 METAR LRIA 231730Z 30004KT CAVOK 02/M03 Q1018 R14/19//95=
201812231800 METAR LRIA 231800Z 29004KT 260V330 CAVOK 02/M03 Q1018 R14/19//95=
201812231830 METAR LRIA 231830Z 29003KT 220V330 CAVOK 02/M04 Q1018 R14/19//95=
201812231900 METAR LRIA 231900Z 31003KT 280V340 CAVOK 02/M04 Q1018 R14/19//95=
201812231930 METAR LRIA 231930Z VRB01KT CAVOK 02/M04 Q1018 R14/19//95=
201812232000 METAR LRIA 232000Z 00000KT CAVOK 01/M04 Q1018 R14/19//95=
201812232030 METAR LRIA 232030Z 00000KT CAVOK 01/M04 Q1018 R14/19//95=
201812232100 METAR LRIA 232100Z 25004KT CAVOK 02/M04 Q1017 R14/19//95=
201812232130 METAR LRIA 232130Z 22004KT CAVOK 01/M03 Q1017 R14/19//95=
201812232200 METAR LRIA 232200Z 22003KT CAVOK 01/M04 Q1017 R14/19//95=
201812232230 METAR LRIA 232230Z AUTO 21002KT 170V230 9999 NCD 00/M04 Q1017=
201812232300 METAR LRIA 232300Z 23002KT CAVOK 00/M04 Q1016 R14/19//95=
201812232330 METAR LRIA 232330Z 00000KT CAVOK M00/M04 Q1016 R14/19//95=
201812240000 METAR LRIA 240000Z 20002KT CAVOK M01/M04 Q1016 R14/19//95=
201812240030 METAR LRIA 240030Z 21005KT CAVOK M00/M04 Q1015 R14/19//95=
201812240100 METAR LRIA 240100Z 21002KT 170V270 CAVOK M01/M04 Q1015 R14/19//95=
201812240130 METAR LRIA 240130Z 11004KT CAVOK M01/M04 Q1014 R14/19//95=
201812240200 METAR LRIA 240200Z 08007KT CAVOK M01/M05 Q1013 R14/19//95=
201812240230 METAR LRIA 240230Z 10006KT CAVOK M01/M05 Q1013 R14/19//95=
201812240300 METAR LRIA 240300Z 10006KT CAVOK M01/M05 Q1012 R14/19//95=
201812240330 METAR COR LRIA 240330Z 11008KT CAVOK M02/M04 Q1012 R14/19//95=
201812240400 METAR LRIA 240400Z 11006KT CAVOK M01/M04 Q1011 R14/19//95=
201812240430 METAR LRIA 240430Z 10007KT 9999 SCT071 M00/M03 Q1011 R14/19//95=
201812240500 METAR LRIA 240500Z 11008KT CAVOK M00/M03 Q1010 R14/19//95=
201812240530 METAR LRIA 240530Z 10008KT CAVOK M00/M03 Q1010 R14/19//95=
201812240600 METAR COR LRIA 240600Z 10008KT CAVOK M00/M03 Q1009 R14/19//95=
201812240630 METAR LRIA 240630Z 11009KT CAVOK 00/M03 Q1009 R14/19//95=
201812240700 METAR LRIA 240700Z 10008KT CAVOK 00/M03 Q1008 R14/19//95=
201812240730 METAR LRIA 240730Z 10006KT CAVOK 01/M02 Q1008 R14/19//95=
201812240800 METAR LRIA 240800Z 15004KT CAVOK 02/M02 Q1007 R14/19//95=
201812240830 METAR LRIA 240830Z 11005KT CAVOK 02/M02 Q1007 R14/19//95=
201812240900 METAR LRIA 240900Z 10006KT CAVOK 02/M01 Q1006 R14/19//95=
201812240930 METAR LRIA 240930Z 10007KT 9999 SCT046 02/M01 Q1005 R14/19//95=
201812241000 METAR LRIA 241000Z 09005KT 9999 FEW046 02/M01 Q1005 R14/19//95=
201812241030 METAR LRIA 241030Z 09006KT 9999 -RA SCT038 02/M01 Q1004 R14/19//95=
201812241100 METAR LRIA 241100Z 08007KT 8000 -RA BKN026 01/M01 Q1004 R14/29//95=
201812241130 METAR LRIA 241130Z 11011KT 2500 -RA FEW009 BKN021 OVC035
                        01/M01 Q1004 R14/29//95=
201812241200 METAR LRIA 241200Z 10011KT 1100 0400SE R14/1500D R32/0650N
                        -RA PRFG BR BKN001 BKN010 OVC024
                        01/M01 Q1003 R14/29//95=
201812241230 METAR LRIA 241230Z 10010KT 0500 R14/0900U R32/1000N -RA FG
                        VV001 01/M01 Q1003 R14/29//95=
201812241300 METAR LRIA 241300Z 08008KT 1200 R14/2000D R32/1400D -RA BR
                        OVC001 01/M01 Q1003 R14/29//95=
201812241330 METAR LRIA 241330Z 10007KT 1500 -RA BR SCT001 BKN002 OVC014
                        01/M00 Q1003 R14/29//95=
201812241400 METAR LRIA 241400Z 06004KT 1800 -RA BR SCT001 BKN002 OVC012
                        01/M01 Q1003 R14/29//95=
201812241430 METAR LRIA 241430Z 34007KT 2000 -RA BR SCT003 BKN005 OVC010
                        01/M00 Q1004 R14/29//95=
201812241500 METAR LRIA 241500Z 31005KT 1500 -RA BR SCT001 BKN010 OVC027
                        01/M01 Q1004 R14/29//95=
201812241530 METAR LRIA 241530Z 30007KT 1800 -SN BR SCT001 BKN003 BKN007
                        01/M01 Q1004 R14/29//95=
201812241600 METAR LRIA 241600Z 31009KT 1800 -SN BR SCT001 BKN003 BKN021
                        01/M01 Q1004 R14/29//95=
201812241630 METAR LRIA 241630Z 32011KT 2000 -SN BR SCT002 BKN003 BKN010
                        01/M01 Q1005 R14/29//95=
201812241700 METAR LRIA 241700Z 32013KT 2500 -SN BR FEW003 BKN004 BKN010
                        01/M01 Q1006 R14/29//95=
201812241730 METAR LRIA 241730Z 33015G25KT 2500 -SN BR SCT003 BKN005 BKN010
                        01/M01 Q1006 R14/29//95=
201812241800 METAR LRIA 241800Z 32021G31KT 6000 -SN SCT005 BKN009 01/M01
                        Q1007 R14/690195=
201812241830 METAR LRIA 241830Z 32022G33KT 9999 -SN SCT009 BKN019 01/M02
                        Q1007 R14/690195=
201812241900 METAR LRIA 241900Z 32022KT 9999 SCT017 BKN024 01/M02 Q1008
                        R14/690195=
201812241930 METAR LRIA 241930Z 31021KT 9999 SCT017 BKN024 01/M02 Q1009
                        R14/690195=
201812242000 METAR LRIA 242000Z 31018KT 9999 SCT020 BKN026 01/M03 Q1010
                        R14/29//95=
201812242030 METAR LRIA 242030Z 31018KT 9999 SCT022 BKN029 01/M03 Q1010
                        R14/29//95=
201812242100 METAR LRIA 242100Z 31017KT 9999 SCT019 BKN032 01/M03 Q1011
                        R14/29//95=
201812242130 METAR LRIA 242130Z 31018KT 9999 SCT019 BKN024 01/M03 Q1011
                        R14/29//95=
201812242200 METAR LRIA 242200Z 31020KT 9999 FEW020 BKN026 01/M03 Q1012
                        R14/29//95=
201812242230 METAR LRIA 242230Z 31022KT 9999 BKN026 01/M04 Q1012 R14/29//95=
201812242300 METAR LRIA 242300Z 31018KT 9999 BKN022 00/M04 Q1012 R14/29//95=
201812242330 METAR LRIA 242330Z 31019KT 9999 BKN021 M00/M05 Q1013 R14/29//95=
201812250000 METAR LRIA 250000Z 32017G27KT 9999 BKN020 M01/M05 Q1013 R14/29//95=
201812250030 METAR LRIA 250030Z 32016KT 9999 SCT020 M01/M05 Q1014 R14/29//95=
201812250100 METAR LRIA 250100Z 32016KT 9999 SCT020 M01/M05 Q1014 R14/29//95=
201812250130 METAR LRIA 250130Z 32017KT 9999 FEW023 SCT037 M01/M05 Q1014
                        R14/29//95=
201812250200 METAR LRIA 250200Z 31013KT 9999 SCT015 BKN019 M01/M04 Q1015
                        R14/29//95=
201812250230 METAR LRIA 250230Z 31019KT 9999 FEW015 BKN032 M01/M05 Q1014
                        R14/29//95=
201812250300 METAR LRIA 250300Z 31016KT 9999 BKN024 M01/M05 Q1014 R14/29//95=
201812250330 METAR LRIA 250330Z 31019KT 9999 BKN029 M01/M06 Q1014 R14/29//95=
201812250400 METAR LRIA 250400Z 30016KT 9999 SCT029 BKN037 M01/M05 Q1015
                        R14/29//95=
201812250430 METAR LRIA 250430Z 30014KT 9999 FEW030 OVC039 M01/M05 Q1015
                        R14/29//95=
201812250500 METAR LRIA 250500Z 30012KT 9999 -SN FEW020 BKN026 M01/M05
                        Q1016 R14/29//95=
201812250530 METAR LRIA 250530Z 31013KT 9999 -SN FEW022 BKN040 M00/M04
                        Q1016 R14/29//95=
201812250600 METAR LRIA 250600Z 30013KT 9999 -SN BKN045 M00/M04 Q1016
                        R14/29//95=
201812250630 METAR LRIA 250630Z 31014KT 8000 -SHGS FEW025CB BKN045 M00/M04
                        Q1016 R14/29//95=
201812250700 METAR LRIA 250700Z 30013KT 9000 -SN BKN027 M00/M04 Q1016
                        R14/29//95=
201812250730 METAR LRIA 250730Z 31014KT 7000 -SN OVC023 M00/M04 Q1016
                        R14/29//95=
201812250800 METAR LRIA 250800Z 30018KT 3000 SN DRSN SCT018 BKN030 M00/M04
                        Q1016 R14/29//95=
201812250830 METAR LRIA 250830Z 30015KT 2500 SN DRSN SCT008 OVC030 M00/M03
                        Q1016 R14/29//95=
201812250900 METAR LRIA 250900Z 31013KT 7000 -SN DRSN SCT008 BKN045 M01/M03
                        Q1017 RESN R14/29//95=
201812250930 METAR LRIA 250930Z 31016KT 4000 SN DRSN SCT010 BKN045 M01/M03
                        Q1017 R14/29//95=
201812251000 METAR LRIA 251000Z 31014KT 4000 SN SCT010 OVC030 M01/M03
                        Q1016 R14/29//95=
201812251030 METAR LRIA 251030Z 30010KT 9000 -SN BKN009 OVC030 M01/M03
                        Q1016 RESN R14/29//95=
201812251100 METAR LRIA 251100Z 31010KT 9999 -SN FEW008 BKN020 M00/M03
                        Q1017 R14/29//95=
201812251130 METAR LRIA 251130Z 31014KT 9999 -SN FEW013 BKN025 M00/M04
                        Q1016 R14/29//95=
201812251200 METAR COR LRIA 251200Z 31019KT 9999 -SN DRSN SCT020 M00/M05
                        Q1016 R14/29//95=
201812251230 METAR LRIA 251230Z 30019KT 9999 DRSN FEW022 M00/M05 Q1017
                        R14/29//95=
201812251300 METAR LRIA 251300Z 31019KT 9999 DRSN BKN033 M00/M05 Q1017
                        R14/29//95=
201812251330 METAR LRIA 251330Z 31017KT 9999 DRSN BKN033 M00/M05 Q1018
                        R14/29//95=
201812251400 METAR LRIA 251400Z 30015KT 9999 FEW020 BKN035 M01/M05 Q1018
                        R14/29//95=
201812251430 METAR LRIA 251430Z 31017KT 9999 SCT035 M00/M05 Q1018 R14/29//95=
201812251500 METAR LRIA 251500Z 30018KT 9999 BKN045 M00/M05 Q1018 R14/29//95=
201812251530 METAR LRIA 251530Z 30015KT 9999 BKN040 M01/M05 Q1019 R14/29//95=
201812251600 METAR LRIA 251600Z 30015KT 9999 OVC040 M00/M05 Q1019 R14/29//95=
201812251630 METAR LRIA 251630Z 30014KT 9999 OVC040 M00/M05 Q1019 R14/29//95=
201812251700 METAR LRIA 251700Z 31015KT 9999 -SN BKN040 M01/M05 Q1019
                        R14/29//95=
201812251730 METAR LRIA 251730Z 30014KT 9999 -SN BKN035 M00/M05 Q1019
                        R14/29//95=
201812251800 METAR LRIA 251800Z 30013KT 9999 -SN BKN035 M00/M05 Q1019
                        R14/29//95=
201812251830 METAR LRIA 251830Z 30012KT 9999 SCT035 M00/M05 Q1019 R14/29//95=
201812251900 METAR LRIA 251900Z 31012KT 9999 SCT035 M00/M05 Q1020 R14/29//95=
201812251930 METAR LRIA 251930Z 31013KT 9999 SCT030 M00/M05 Q1020 R14/29//95=
201812252000 METAR LRIA 252000Z 30011KT 9999 FEW030 M00/M05 Q1020 R14/29//95=
201812252030 METAR LRIA 252030Z 30011KT CAVOK M00/M05 Q1020 R14/29//95=
201812252100 METAR LRIA 252100Z 30010KT 9999 -SN BKN026 M00/M05 Q1020
                        R14/29//95=
201812252130 METAR LRIA 252130Z 30010KT 9999 -SN BKN026 M00/M05 Q1020
                        R14/29//95=
201812252200 METAR LRIA 252200Z 30013KT 9999 -SN SCT025 BKN033 M00/M05
                        Q1020 R14/29//95=
201812252230 METAR LRIA 252230Z 31012KT 9999 -SN SCT027 BKN045 M00/M05
                        Q1020 R14/29//95=
201812252300 METAR LRIA 252300Z 31011KT 9999 SCT034 BKN045 M01/M05 Q1021
                        R14/29//95=
201812252330 METAR LRIA 252330Z 31008KT 9999 SCT028 M01/M05 Q1021 R14/29//95=
201812260000 METAR LRIA 260000Z 31008KT 9999 SCT023 BKN030 M01/M05 Q1021
                        R14/29//95=
201812260030 METAR LRIA 260030Z 31008KT 9999 FEW026 OVC034 M01/M05 Q1021
                        R14/29//95=
201812260100 METAR LRIA 260100Z 31008KT 9999 OVC032 M01/M05 Q1021 R14/29//95=
201812260130 METAR LRIA 260130Z 31006KT 9999 OVC031 M01/M05 Q1021 R14/29//95=
201812260200 METAR LRIA 260200Z 30005KT 9999 OVC033 M01/M05 Q1021 R14/29//95=
201812260230 METAR LRIA 260230Z 29004KT 9999 OVC035 M01/M05 Q1020 R14/29//95=
201812260300 METAR LRIA 260300Z 30003KT 260V350 9999 FEW031 OVC039 M01/M05
                        Q1020 R14/29//95=
201812260330 METAR LRIA 260330Z 31004KT 9999 OVC031 M01/M05 Q1020 R14/29//95=
201812260400 METAR LRIA 260400Z 24003KT 190V280 9999 OVC033 M01/M05 Q1020
                        R14/29//95=
201812260430 METAR LRIA 260430Z VRB01KT 9999 OVC033 M01/M05 Q1020 R14/29//95=
201812260500 METAR LRIA 260500Z 00000KT 9999 OVC026 M01/M05 Q1020 R14/29//95=
201812260530 METAR LRIA 260530Z 00000KT 9999 OVC024 M00/M05 Q1020 R14/29//95=
201812260600 METAR LRIA 260600Z 00000KT 9999 FEW021 SCT027 M00/M05 Q1020
                        R14/29//95=
201812260630 METAR LRIA 260630Z 26003KT 9999 BKN027 00/M05 Q1020 R14/19//95=
201812260700 METAR LRIA 260700Z 24004KT 210V270 9999 OVC024 00/M05 Q1020
                        R14/19//95=
201812260730 METAR LRIA 260730Z 25005KT 210V280 9999 -SN BKN024 01/M06
                        Q1020 R14/19//95=
201812260800 METAR LRIA 260800Z 27006KT 9999 -SN SCT012 BKN024 01/M03
                        Q1020 R14/19//95=
201812260830 METAR LRIA 260830Z 25006KT 220V280 9999 -SN SCT010 BKN030
                        01/M03 Q1020 R14/29//95=
201812260900 METAR LRIA 260900Z 24005KT 190V270 9999 -SN FEW016 BKN022
                        01/M02 Q1020 R14/29//95=
201812260930 METAR LRIA 260930Z 24005KT 210V270 9999 FEW018 BKN032 02/M02
                        Q1019 RESN R14/29//95=
201812261000 METAR LRIA 261000Z 26005KT 230V300 9999 FEW030 BKN038 02/M03
                        Q1019 R14/29//95=
201812261030 METAR LRIA 261030Z 26006KT 230V290 9999 BKN043 03/M03 Q1018
                        R14/29//95=
201812261100 METAR LRIA 261100Z 26006KT 9999 BKN049 04/M04 Q1018 R14/29//95=
201812261130 METAR LRIA 261130Z 27007KT 230V290 9999 BKN037 04/M04 Q1018
                        R14/29//95=
201812261200 METAR LRIA 261200Z 27007KT 9999 FEW038 BKN048 04/M04 Q1018
                        R14/29//95=
201812261230 METAR LRIA 261230Z 27008KT 9999 SCT044 04/M04 Q1018 R14/29//95=
201812261300 METAR LRIA 261300Z 27010KT 9999 SCT043 04/M04 Q1018 R14/29//95=
201812261330 METAR LRIA 261330Z 29012KT 9999 BKN048 04/M03 Q1018 R14/29//95=
201812261400 METAR LRIA 261400Z 27007KT CAVOK 04/M03 Q1017 R14/29//95=
201812261430 METAR LRIA 261430Z 25006KT CAVOK 03/M03 Q1017 R14/29//95=
201812261500 METAR LRIA 261500Z 26006KT CAVOK 03/M03 Q1017 R14/29//95=
201812261530 METAR LRIA 261530Z 26007KT CAVOK 04/M04 Q1016 R14/29//95=
201812261600 METAR LRIA 261600Z 27009KT 9999 OVC040 04/M04 Q1016 R14/29//95=
201812261630 METAR LRIA 261630Z 26009KT 9999 OVC042 04/M04 Q1016 R14/29//95=
201812261700 METAR LRIA 261700Z 27010KT 230V300 9999 OVC042 04/M04 Q1016
                        R14/29//95=
201812261730 METAR LRIA 261730Z 28008KT 250V310 9999 -RA OVC040 03/M04
                        Q1017 R14/29//95=
201812261800 METAR LRIA 261800Z 28009KT 230V300 9999 -RA OVC035 03/M04
                        Q1016 R14/29//95=
201812261830 METAR LRIA 261830Z 27008KT 240V300 9999 OVC035 03/M03 Q1016
                        R14/29//95=
201812261900 METAR LRIA 261900Z 27008KT 9999 OVC035 04/M03 Q1016 R14/29//95=
201812261930 METAR LRIA 261930Z 27010KT 9999 OVC045 04/M03 Q1016 R14/29//95=
201812262000 METAR LRIA 262000Z 28012KT 9999 OVC035 04/M03 Q1016 R14/29//95=
201812262030 METAR LRIA 262030Z 29011KT 9999 OVC027 04/M02 Q1016 R14/29//95=
201812262100 METAR LRIA 262100Z 30015KT 9999 SCT025 OVC033 04/M02 Q1016
                        R14/29//95=
201812262130 METAR LRIA 262130Z 30015KT 9999 FEW018 OVC033 03/M01 Q1016
                        R14/29//95=
201812262200 METAR LRIA 262200Z 29014KT 9999 OVC030 03/M00 Q1017 R14/29//95=
201812262230 METAR LRIA 262230Z 28010KT 9999 OVC035 03/M00 Q1017 R14/29//95=
201812262300 METAR LRIA 262300Z 28011KT 9999 OVC035 03/M01 Q1017 R14/29//95=
201812262330 METAR LRIA 262330Z 28012KT 9999 SCT023 OVC030 03/M01 Q1017
                        R14/29//95=
201812270000 METAR LRIA 270000Z 29010KT 9999 SCT020 BKN030 03/M01 Q1017
                        R14/29//95=
201812270030 METAR LRIA 270030Z 30010KT 9999 SCT018 OVC040 03/M00 Q1017
                        R14/29//95=
201812270100 METAR LRIA 270100Z 29010KT 9999 SCT033 03/M01 Q1017 R14/29//95=
201812270130 METAR LRIA 270130Z 29010KT 9999 SCT033 03/M01 Q1018 R14/29//95=
201812270200 METAR LRIA 270200Z 29010KT 9999 FEW033 03/M01 Q1017 R14/29//95=
201812270230 METAR LRIA 270230Z 29009KT CAVOK 03/M01 Q1017 R14/29//95=
201812270300 METAR LRIA 270300Z 29009KT CAVOK 03/M01 Q1018 R14/29//95=
201812270330 METAR LRIA 270330Z 29010KT 9999 SCT035 03/M01 Q1018 R14/29//95=
201812270400 METAR LRIA 270400Z 30009KT 9999 SCT035 03/M01 Q1018 R14/29//95=
201812270430 METAR LRIA 270430Z 31008KT 9999 SCT045 03/M01 Q1018 R14/29//95=
201812270500 METAR LRIA 270500Z 31009KT 9999 SCT045 03/M01 Q1019 R14/29//95=
201812270530 METAR LRIA 270530Z 30012KT 9999 SCT047 03/M01 Q1019 R14/29//95=
201812270600 METAR LRIA 270600Z 31012KT 9999 SCT045 03/M01 Q1019 R14/29//95=
201812270630 METAR LRIA 270630Z 30010KT 9999 BKN049 03/M02 Q1019 R14/19//95=
201812270700 METAR LRIA 270700Z 31013KT 9999 SCT043 03/M02 Q1019 R14/19//95=
201812270730 METAR LRIA 270730Z 30013KT 9999 BKN045 03/M02 Q1020 R14/19//95=
201812270800 METAR LRIA 270800Z 31013KT 9999 BKN048 03/M02 Q1020 R14/19//95=
201812270830 METAR LRIA 270830Z 31012KT 9999 BKN047 03/M02 Q1020 R14/19//95=
201812270900 METAR LRIA 270900Z 31011KT 9999 BKN045 03/M02 Q1020 R14/19//95=
201812270930 METAR LRIA 270930Z 31010KT 9999 BKN046 04/M02 Q1020 R14/19//95=
201812271000 METAR LRIA 271000Z 31009KT 9999 BKN047 04/M02 Q1020 R14/19//95=
201812271030 METAR LRIA 271030Z 31010KT 9999 BKN046 04/M02 Q1020 R14/19//95=
201812271100 METAR LRIA 271100Z 31013KT 9999 BKN048 04/M02 Q1020 R14/19//95=
201812271130 METAR LRIA 271130Z 30009KT 9999 BKN042 04/M02 Q1020 R14/19//95=
201812271200 METAR LRIA 271200Z 29008KT 9999 FEW026 BKN045 04/M02 Q1020
                        R14/19//95=
201812271230 METAR LRIA 271230Z 30009KT 260V320 9999 FEW027 BKN044 04/M01
                        Q1020 R14/19//95=
201812271300 METAR LRIA 271300Z 30006KT 270V330 9999 BKN048 04/M01 Q1020
                        R14/19//95=
201812271330 METAR LRIA 271330Z 32007KT 9999 BKN043 03/M01 Q1020 R14/19//95=
201812271400 METAR LRIA 271400Z 30006KT 9999 BKN036 03/M01 Q1020 R14/19//95=
201812271430 METAR LRIA 271430Z 32005KT 9999 BKN033 03/M01 Q1020 R14/19//95=
201812271500 METAR LRIA 271500Z 32005KT 9999 SCT029 BKN037 03/M01 Q1020
                        R14/19//95=
201812271530 METAR LRIA 271530Z 32006KT 9999 -RA FEW029 BKN037 03/M01
                        Q1020 R14/19//95=
201812271600 METAR LRIA 271600Z 29006KT 260V320 9999 -RA SCT031 BKN049
                        03/M00 Q1021 R14/19//95=
201812271630 METAR LRIA 271630Z 30004KT 9999 -RA SCT024 BKN031 03/00 Q1021
                        R14/29//95=
201812271700 METAR LRIA 271700Z 30004KT 8000 -RA SCT023 BKN029 02/00 Q1021
                        R14/29//95=
201812271730 METAR LRIA 271730Z 27004KT 240V310 7000 -RA SCT018 BKN023
                        02/01 Q1021 R14/29//95=
201812271800 METAR LRIA 271800Z 00000KT 8000 -RA FEW004 SCT012 BKN016
                        02/01 Q1021 R14/29//95=
201812271830 METAR LRIA 271830Z 00000KT 9999 SCT004 BKN018 02/01 Q1020
                        R14/29//95=
201812271900 METAR COR LRIA 271900Z 16002KT 6000 FEW003 SCT017 02/01 Q1020
                        R14/29//95=
201812271930 METAR LRIA 271930Z 00000KT 7000 FEW003 BKN028 02/01 Q1020
                        R14/29//95=
201812272000 METAR LRIA 272000Z VRB01KT 6000 FEW003 OVC034 02/01 Q1020
                        R14/29//95=
201812272030 METAR COR LRIA 272030Z 00000KT 8000 BKN032 02/01 Q1020 R14/29//95=
201812272100 METAR LRIA 272100Z VRB01KT 9000 SCT027 BKN034 02/01 Q1020
                        R14/29//95=
201812272130 METAR COR LRIA 272130Z 22003KT 180V260 9999 BKN026 02/00
                        Q1019 R14/29//95=
201812272200 METAR LRIA 272200Z AUTO 21002KT 140V250 9999 -DZ OVC029///
                        03/00 Q1019=
201812272230 METAR COR LRIA 272230Z VRB01KT 9999 OVC032 03/M00 Q1019 REDZ
                        R14/29//95=
201812272300 METAR LRIA 272300Z 00000KT 9999 BKN033 03/00 Q1019 R14/29//95=
201812272330 METAR LRIA 272330Z 21004KT 160V240 9999 -DZ SCT035 SCT059
                        03/M00 Q1019 R14/29//95=
201812280000 METAR COR LRIA 280000Z 16002KT 120V240 9999 BKN036 SCT069
                        03/M00 Q1018 REDZ R14/29//95=
201812280030 METAR LRIA 280030Z AUTO 00000KT 9999 BKN035/// 03/M01 Q1018
                        REDZ=
201812280100 METAR COR LRIA 280100Z 16002KT 120V240 9999 BKN036 SCT069
                        03/M00 Q1018 REDZ R14/29//95=
201812280130 METAR LRIA 280130Z AUTO 00000KT 9999 -SHRA BKN025/// BKN032///
                        03/M01 Q1018=
201812280200 METAR COR LRIA 280200Z 00000KT 9999 -RA SCT024 BKN031 02/M00
                        Q1018 R14/29//95=
201812280230 METAR COR LRIA 280230Z 00000KT 9999 -RA OVC026 02/00 Q1018
                        R14/29//95=
201812280300 METAR LRIA 280300Z AUTO 00000KT 9999 -SHRA BKN026/// 02/00
                        Q1017=
201812280330 METAR COR LRIA 280330Z 25002KT 230V290 9999 -RA BKN020 SCT026
                        02/00 Q1017 R14/29//95=
201812280400 METAR LRIA 280400Z 21002KT 190V250 9999 -RA SCT023 SCT039
                        02/00 Q1017 R14/29//95=
201812280430 METAR LRIA 280430Z 21002KT 190V250 9999 -RA SCT023 SCT039
                        02/00 Q1017 R14/29//95=
201812280500 METAR LRIA 280500Z 25002KT 220V300 9999 SCT026 BKN033 03/01
                        Q1017 R14/29//95=
201812280530 METAR LRIA 280530Z 24002KT 9999 -RA SCT025 BKN033 03/01 Q1017
                        R14/29//95=
201812280600 METAR LRIA 280600Z 00000KT 9999 -RA SCT022 BKN030 03/00 Q1018
                        R14/29//95=
201812280630 METAR LRIA 280630Z 15001KT 9999 -RA OVC026 02/00 Q1018 R14/29//95=
201812280700 METAR LRIA 280700Z 00000KT 9999 -RA OVC022 03/01 Q1018 R14/29//95=
201812280730 METAR LRIA 280730Z VRB01KT 9999 -RA SCT019 OVC024 03/01 Q1018
                        R14/29//95=
201812280800 METAR LRIA 280800Z 14002KT 9999 -RA SCT017 OVC024 03/01 Q1018
                        R14/29//95=
201812280830 METAR LRIA 280830Z 14003KT 9999 -RA FEW017 OVC020 04/01 Q1017
                        R14/29//95=
201812280900 METAR LRIA 280900Z 15002KT 9999 -RA SCT019 OVC024 04/02 Q1017
                        R14/29//95=
201812280930 METAR LRIA 280930Z 00000KT 9999 -RA SCT020 OVC024 04/02 Q1017
                        R14/29//95=
201812281000 METAR LRIA 281000Z VRB01KT 9999 OVC027 04/02 Q1017 R14/29//95=
201812281030 METAR LRIA 281030Z 00000KT 9999 OVC027 04/02 Q1017 R14/29//95=
201812281100 METAR LRIA 281100Z 21002KT 9999 OVC027 04/02 Q1016 R14/29//95=
201812281130 METAR LRIA 281130Z VRB01KT 9999 OVC027 05/02 Q1016 R14/29//95=
201812281200 METAR LRIA 281200Z 14003KT 9999 OVC027 05/02 Q1016 R14/29//95=
201812281230 METAR LRIA 281230Z VRB01KT 9999 OVC027 05/01 Q1016 R14/29//95=
201812281300 METAR LRIA 281300Z 29006KT 9999 OVC030 06/01 Q1016 R14/29//95=
201812281330 METAR LRIA 281330Z 30004KT 9999 SCT026 OVC030 05/01 Q1017
                        R14/29//95=
201812281400 METAR LRIA 281400Z 28004KT 9999 -RA OVC030 05/01 Q1017 R14/29//95=
201812281430 METAR LRIA 281430Z VRB01KT 9999 SCT022 OVC034 05/02 Q1017
                        R14/29//95=
201812281500 METAR LRIA 281500Z 31004KT 260V360 9999 SCT032 OVC045 05/01
                        Q1017 R14/29//95=
201812281530 METAR LRIA 281530Z 30003KT 270V350 9999 OVC040 05/01 Q1017
                        R14/29//95=
201812281600 METAR LRIA 281600Z 30003KT 9999 OVC040 05/01 Q1017 R14/29//95=
201812281630 METAR LRIA 281630Z 28002KT 9999 OVC045 05/01 Q1017 R14/29//95=
201812281700 METAR LRIA 281700Z 30002KT 9999 OVC045 05/01 Q1017 R14/29//95=
201812281730 METAR LRIA 281730Z 22003KT 9999 OVC048 05/02 Q1017 R14/29//95=
201812281800 METAR LRIA 281800Z 22002KT 200V260 9999 OVC047 05/02 Q1017
                        R14/29//95=
201812281830 METAR LRIA 281830Z 22002KT 190V260 9999 OVC047 05/02 Q1017
                        R14/29//95=
201812281900 METAR LRIA 281900Z 23003KT CAVOK 05/01 Q1017 R14/29//95=
201812281930 METAR LRIA 281930Z 00000KT CAVOK 04/01 Q1017 R14/29//95=
201812282000 METAR LRIA 282000Z VRB01KT 9999 BKN042 05/01 Q1017 R14/29//95=
201812282030 METAR LRIA 282030Z 00000KT 9999 BKN044 04/01 Q1017 R14/29//95=
201812282100 METAR LRIA 282100Z 00000KT 9999 -RA SCT040 04/01 Q1017 R14/29//95=
201812282130 METAR LRIA 282130Z 27004KT 240V300 9999 BKN033 04/01 Q1017
                        R14/29//95=
201812282200 METAR LRIA 282200Z 26005KT 9999 BKN028 04/01 Q1017 R14/29//95=
201812282230 METAR LRIA 282230Z 26005KT 9999 FEW023 BKN029 04/01 Q1017
                        R14/29//95=
201812282300 METAR LRIA 282300Z 27006KT 240V300 9999 BKN023 04/01 Q1017
                        R14/29//95=
201812282330 METAR LRIA 282330Z 29007KT 9999 OVC023 05/01 Q1017 R14/29//95=
201812290000 METAR LRIA 290000Z 28007KT 9999 OVC022 04/01 Q1017 R14/29//95=
201812290030 METAR LRIA 290030Z 29008KT 9999 SCT021 BKN034 04/01 Q1017
                        R14/29//95=
201812290100 METAR LRIA 290100Z 28007KT 9999 FEW021 OVC034 04/01 Q1017
                        R14/29//95=
201812290130 METAR LRIA 290130Z AUTO 27006KT 9999 SCT028/// SCT036///
                        04/01 Q1017 REDZ=
201812290200 METAR LRIA 290200Z 30009KT 270V330 9999 BKN030 04/01 Q1017
                        R14/29//95=
201812290230 METAR LRIA 290230Z 29010KT 9999 SCT015 BKN031 04/01 Q1017
                        R14/29//95=
201812290300 METAR LRIA 290300Z 30009KT 9999 -RA BKN013 OVC031 04/01 Q1017
                        R14/29//95=
201812290330 METAR LRIA 290330Z 29009KT 9999 -RA FEW013 SCT017 BKN031
                        04/01 Q1017 R14/29//95=
201812290400 METAR LRIA 290400Z 30008KT 9999 -EA FEW011 SCT014 BKN025
                        03/01 Q1017 R14/29//95=
201812290430 METAR LRIA 290430Z 31010KT 9999 -RA FEW009 SCT012 BKN031
                        03/01 Q1017 R14/29//95=
201812290500 METAR LRIA 290500Z 31012KT 9999 -RA FEW015 SCT019 BKN031
                        03/01 Q1017 R14/29//95=
201812290530 METAR LRIA 290530Z 31010KT 9999 SCT012 SCT025 03/01 Q1018
                        R14/29//95=
201812290600 METAR LRIA 290600Z 31010KT 9999 -RA FEW008 BKN013 03/00 Q1018
                        R14/29//95=
201812290630 METAR LRIA 290630Z 32012KT 9999 -RA FEW007 BKN009 02/00 Q1018
                        R14/29//95=
201812290700 METAR LRIA 290700Z 31010KT 9999 -RA BKN008 02/00 Q1018 R14/29//95=
201812290730 METAR LRIA 290730Z 32010KT 9999 -RA OVC008 02/00 Q1019 R14/29//95=
201812290800 METAR LRIA 290800Z 32011KT 9999 -RA OVC008 02/00 Q1019 R14/29//95=
201812290830 METAR LRIA 290830Z 32011KT 9999 -RA OVC007 02/00 Q1019 R14/29//95=
201812290900 METAR LRIA 290900Z 31011KT 9999 -RA SCT009 BKN013 03/00 Q1019
                        R14/29//95=
201812290930 METAR LRIA 290930Z 32012KT 9999 -RA BKN012 03/00 Q1019 R14/29//95=
201812291000 METAR LRIA 291000Z 32011KT 9999 -RA BKN012 03/00 Q1019 R14/29//95=
201812291030 METAR LRIA 291030Z 32012KT 9999 BKN013 03/00 Q1019 R14/29//95=
201812291100 METAR LRIA 291100Z 32010KT 9999 BKN015 BKN040 03/00 Q1019
                        R14/29//95=
201812291130 METAR LRIA 291130Z 33011KT 9999 BKN017 BKN035 03/M00 Q1019
                        R14/29//95=
201812291200 METAR LRIA 291200Z 32009KT 9999 BKN015 03/M00 Q1020 R14/29//95=
201812291230 METAR LRIA 291230Z 32009KT 9999 -RA BKN015 03/M00 Q1020 R14/29//95=
201812291300 METAR LRIA 291300Z 31010KT 9999 BKN018 03/M00 Q1020 R14/29//95=
201812291330 METAR LRIA 291330Z 32010KT 9999 BKN018 03/M01 Q1020 R14/29//95=
201812291400 METAR LRIA 291400Z 32008KT 9999 BKN015 03/M01 Q1021 R14/29//95=
201812291430 METAR LRIA 291430Z 32008KT 9999 SCT015 OVC023 03/M01 Q1021
                        R14/29//95=
201812291500 METAR LRIA 291500Z 32010KT 9999 BKN018 03/M01 Q1021 R14/29//95=
201812291530 METAR LRIA 291530Z 33010KT 9999 BKN020 OVC040 02/M01 Q1021
                        R14/29//95=
201812291600 METAR LRIA 291600Z 33009KT 9999 -SN SCT025 OVC040 02/M01
                        Q1022 R14/29//95=
201812291630 METAR LRIA 291630Z 32008KT 9999 SCT027 OVC040 02/M01 Q1022
                        R14/29//95=
201812291700 METAR LRIA 291700Z 32007KT 9999 BKN017 BKN045 02/M01 Q1022
                        R14/29//95=
201812291730 METAR LRIA 291730Z 30006KT 270V330 9999 BKN013 02/M01 Q1022
                        R14/29//95=
201812291800 METAR LRIA 291800Z 32010KT 9999 BKN017 02/M02 Q1022 R14/29//95=
201812291830 METAR LRIA 291830Z 32008KT 9999 BKN019 01/M02 Q1022 R14/29//95=
201812291900 METAR LRIA 291900Z 30009KT 9999 FEW020 SCT040 01/M02 Q1022
                        R14/29//95=
201812291930 METAR LRIA 291930Z 31009KT 9999 BKN036 01/M02 Q1022 R14/29//95=
201812292000 METAR LRIA 292000Z 32009KT 9999 BKN032 01/M02 Q1022 R14/29//95=
201812292030 METAR LRIA 292030Z 31011KT 9999 BKN028 01/M02 Q1022 R14/29//95=
201812292100 METAR LRIA 292100Z 32008KT 9999 SCT022 BKN028 01/M02 Q1023
                        R14/29//95=
201812292130 METAR LRIA 292130Z 32007KT 9999 SCT021 OVC024 01/M02 Q1023
                        R14/29//95=
201812292200 METAR LRIA 292200Z 30005KT 9999 OVC021 01/M02 Q1023 R14/29//95=
201812292230 METAR LRIA 292230Z 31005KT 9999 SCT018 OVC023 01/M02 Q1023
                        R14/29//95=
201812292300 METAR LRIA 292300Z 28003KT 240V330 9999 OVC016 01/M02 Q1022
                        R14/29//95=
201812292330 METAR LRIA 292330Z 30004KT 250V330 9999 OVC016 01/M02 Q1022
                        R14/29//95=
201812300000 METAR LRIA 300000Z 30002KT 9999 OVC016 01/M02 Q1022 R14/29//95=
201812300030 METAR LRIA 300030Z 31002KT 9999 OVC016 01/M02 Q1022 R14/29//95=
201812300100 METAR LRIA 300100Z 28003KT 240V320 9999 OVC018 01/M02 Q1022
                        R14/29//95=
201812300130 METAR LRIA 300130Z 28004KT 9999 BKN018 01/M02 Q1022 R14/29//95=
201812300200 METAR LRIA 300200Z 29005KT 9999 BKN020 01/M02 Q1022 R14/29//95=
201812300230 METAR LRIA 300230Z 27003KT 250V320 9999 OVC019 01/M02 Q1022
                        R14/29//95=
201812300300 METAR LRIA 300300Z 28003KT 9999 OVC019 01/M02 Q1022 R14/29//95=
201812300330 METAR LRIA 300330Z 29003KT 9999 OVC018 00/M02 Q1021 R14/29//95=
201812300400 METAR LRIA 300400Z 30002KT 9999 FEW014 BKN019 BKN045 00/M02
                        Q1021 R14/29//95=
201812300430 METAR LRIA 300430Z 28002KT 9999 BKN018 BKN045 00/M02 Q1021
                        R14/29//95=
201812300500 METAR LRIA 300500Z 25002KT 9999 OVC017 00/M02 Q1022 R14/29//95=
201812300530 METAR COR LRIA 300530Z 27001KT 9999 -SN OVC017 01/M01 Q1022
                        R14/29//95=
201812300600 METAR LRIA 300600Z 27004KT 9999 OVC016 01/M01 Q1022 R14/29//95=
201812300630 METAR LRIA 300630Z 26003KT 240V300 9999 OVC016 01/M01 Q1022
                        R14/29//95=
201812300700 METAR LRIA 300700Z 24003KT 200V270 9999 OVC016 01/M01 Q1022
                        R14/29//95=
201812300730 METAR LRIA 300730Z 23002KT 9999 FEW003 OVC016 01/M01 Q1022
                        R14/29//95=
201812300800 METAR LRIA 300800Z 00000KT 9999 FEW004 OVC016 01/M01 Q1022
                        R14/29//95=
201812300830 METAR LRIA 300830Z 00000KT 9999 OVC015 02/M01 Q1022 R14/29//95=
201812300900 METAR LRIA 300900Z 00000KT 9999 OVC013 02/M01 Q1022 R14/29//95=
201812300930 METAR LRIA 300930Z 00000KT 9999 OVC013 02/M01 Q1022 R14/29//95=
201812301000 METAR LRIA 301000Z VRB01KT 9999 OVC013 02/M01 Q1022 R14/29//95=
201812301030 METAR COR LRIA 301030Z 00000KT 9999 FEW007 SCT009 02/M01
                        Q1021 R14/29//95=
201812301100 METAR LRIA 301100Z 00000KT 9999 FEW007 SCT009 02/M01 Q1021
                        R14/29//95=
201812301130 METAR LRIA 301130Z 00000KT 9999 SCT009 SCT021 03/M01 Q1021
                        R14/29//95=
201812301200 METAR LRIA 301200Z 00000KT 9999 OVC011 03/M01 Q1021 R14/29//95=
201812301230 METAR LRIA 301230Z 10001KT 9999 OVC011 03/M01 Q1021 R14/29//95=
201812301300 METAR LRIA 301300Z 14002KT 100V160 9999 OVC012 03/M01 Q1021
                        R14/29//95=
201812301330 METAR LRIA 301330Z 14004KT 9999 OVC013 03/M01 Q1021 R14/29//95=
201812301400 METAR LRIA 301400Z 12004KT 9999 OVC014 02/M01 Q1021 R14/29//95=
201812301430 METAR LRIA 301430Z 09004KT 9999 FEW012 OVC045 02/M01 Q1021
                        R14/29//95=
201812301500 METAR LRIA 301500Z 11004KT 9999 OVC045 02/M01 Q1021 R14/29//95=
201812301530 METAR COR LRIA 301530Z 09005KT 9999 SCT015 OVC043 02/M01
                        Q1021 R14/29//95=
201812301600 METAR LRIA 301600Z 09005KT 9999 SCT015 BKN046 02/M01 Q1021
                        R14/29//95=
201812301630 METAR LRIA 301630Z 09005KT 9999 OVC046 01/M01 Q1022 R14/19//95=
201812301700 METAR LRIA 301700Z 09005KT 9999 OVC046 01/M01 Q1022 R14/19//95=
201812301730 METAR LRIA 301730Z 12004KT 9999 FEW025 02/M01 Q1022 R14/19//95=
201812301800 METAR LRIA 301800Z 09004KT 9999 BKN020 01/M02 Q1022 R14/19//95=
201812301830 METAR LRIA 301830Z 11003KT 9999 BKN020 01/M02 Q1022 R14/19//95=
201812301900 METAR LRIA 301900Z 12003KT 9999 SCT020 01/M02 Q1022 R14/19//95=
201812301930 METAR LRIA 301930Z 11004KT 9999 FEW020 01/M02 Q1022 R14/19//95=
201812302000 METAR LRIA 302000Z 12004KT 9999 FEW020 01/M01 Q1022 R14/19//95=
201812302030 METAR LRIA 302030Z 07004KT 9999 FEW020 01/M02 Q1022 R14/19//95=
201812302100 METAR LRIA 302100Z 10004KT CAVOK 01/M02 Q1022 R14/19//95=
201812302130 METAR LRIA 302130Z 11005KT CAVOK 01/M01 Q1022 R14/19//95=
201812302200 METAR LRIA 302200Z 10005KT 9999 FEW045 01/M01 Q1021 R14/19//95=
201812302230 METAR LRIA 302230Z 10006KT 9999 SCT048 01/M01 Q1021 R14/19//95=
201812302300 METAR LRIA 302300Z 11005KT CAVOK 01/M01 Q1021 R14/19//95=
201812302330 METAR LRIA 302330Z 09005KT CAVOK 01/M02 Q1021 R14/19//95=
201812310000 METAR LRIA 310000Z 10005KT CAVOK 00/M02 Q1021 R14/19//95=
201812310030 METAR LRIA 310030Z 10006KT CAVOK 00/M02 Q1022 R14/19//95=
201812310100 METAR LRIA 310100Z 10005KT CAVOK 00/M02 Q1021 R14/19//95=
201812310130 METAR LRIA 310130Z 10007KT CAVOK 00/M02 Q1021 R14/19//95=
201812310200 METAR LRIA 310200Z 11008KT CAVOK M00/M02 Q1021 R14/19//95=
201812310230 METAR LRIA 310230Z 08007KT CAVOK M00/M02 Q1021 R14/19//95=
201812310300 METAR LRIA 310300Z 08006KT 9999 SCT040 M00/M02 Q1021 R14/19//95=
201812310330 METAR COR LRIA 310330Z 12009KT 9999 SCT040 M00/M02 Q1021
                        R14/19//95=
201812310400 METAR LRIA 310400Z 12007KT 9999 FEW047 M00/M02 Q1021 R14/19//95=
201812310430 METAR LRIA 310430Z 10006KT 9999 FEW008 SCT012 M00/M02 Q1021
                        R14/19//95=
201812310500 METAR LRIA 310500Z 12005KT 9999 FEW005 SCT009 M00/M02 Q1022
                        R14/19//95=
201812310530 METAR LRIA 310530Z 09005KT 9000 BKN007 M00/M02 Q1022 R14/19//95=
201812310600 METAR LRIA 310600Z 10004KT 8000 BKN007 M00/M02 Q1022 R14/19//95=
201812310630 METAR LRIA 310630Z 11004KT 7000 BKN007 M00/M02 Q1022 R14/19//95=
201812310700 METAR LRIA 310700Z 10004KT 7000 FEW005 BKN009 00/M01 Q1022
                        R14/19//95=
201812310730 METAR LRIA 310730Z 10004KT 8000 FEW007 BKN008 00/M01 Q1022
                        R14/19//95=
201812310800 METAR LRIA 310800Z 10004KT 7000 SCT007 BKN008 01/M01 Q1022
                        R14/19//95=
201812310830 METAR LRIA 310830Z 11004KT 8000 FEW006 BKN007 01/M01 Q1023
                        R14/19//95=
201812310900 METAR LRIA 310900Z 09004KT 9000 SCT008 BKN009 01/M00 Q1023
                        R14/19//95=
201812310930 METAR LRIA 310930Z 10005KT 9000 FEW006 BKN008 02/M00 Q1023
                        R14/19//95=
201812311000 METAR LRIA 311000Z 12004KT 090V160 9999 FEW006 BKN008 02/00
                        Q1022 R14/19//95=
201812311030 METAR LRIA 311030Z 18004KT 130V210 9999 SCT008 BKN010 02/M01
                        Q1022 R14/19//95=
201812311100 METAR LRIA 311100Z 15006KT 9999 FEW008 BKN010 02/M00 Q1022
                        R14/19//95=
201812311130 METAR LRIA 311130Z 17005KT 9999 SCT008 BKN010 02/M01 Q1022
                        R14/19//95=
201812311200 METAR LRIA 311200Z 18004KT 9999 FEW007 BKN012 02/M01 Q1022
                        R14/19//95=
201812311230 METAR LRIA 311230Z 20003KT 170V250 9999 SCT009 BKN012 03/M01
                        Q1022 R14/19//95=
201812311300 METAR LRIA 311300Z 20004KT 9999 SCT011 BKN014 03/M01 Q1023
                        R14/19//95=
201812311330 METAR LRIA 311330Z 18004KT 160V220 9999 SCT011 BKN014 03/M01
                        Q1023 R14/19//95=
201812311400 METAR LRIA 311400Z 13004KT 9999 BSCT012 BKN016 03/M00 Q1023
                        R14/19//95=
201812311430 METAR LRIA 311430Z 11004KT 9000 BKN016 02/M00 Q1023 R14/19//95=
201812311500 METAR LRIA 311500Z 09004KT 8000 SCT017 02/M00 Q1024 R14/19//95=
201812311530 METAR LRIA 311530Z 08004KT 7000 FEW014 01/M01 Q1024 R14/19//95=
201812311600 METAR LRIA 311600Z 08004KT 8000 FEW013 SCT028 01/M01 Q1024
                        R14/19//95=
201812311630 METAR LRIA 311630Z 11004KT 7000 SCT027 01/M01 Q1024 R14/19//95=
201812311700 METAR LRIA 311700Z 09003KT 7000 BKN033 01/M01 Q1025 R14/19//95=
201812311730 METAR LRIA 311730Z 00000KT 6000 FEW019 BKN039 01/M01 Q1025
                        R14/19//95=
201812311800 METAR LRIA 311800Z 00000KT 6000 OVC016 01/M01 Q1025 R14/19//95=
201812311830 METAR LRIA 311830Z 00000KT 7000 SCT030 BKN038 01/M01 Q1026
                        R14/19//95=
201812311900 METAR LRIA 311900Z 00000KT 6000 FEW028 BKN036 01/M01 Q1026
                        R14/19//95=
201812311930 METAR LRIA 311930Z 00000KT 6000 SCT025 BKN032 01/M01 Q1026
                        R14/19//95=
201812312000 METAR LRIA 312000Z 00000KT 6000 OVC031 01/M01 Q1026 R14/19//95=
201812312030 METAR LRIA 312030Z 00000KT 6000 BKN018 SCT024 02/M01 Q1026
                        R14/19//95=
201812312100 METAR LRIA 312100Z 00000KT 5000 -RA BR OVC018 01/M01 Q1026
                        R14/19//95=
201812312130 METAR LRIA 312130Z 00000KT 5000 -RA BR SCT015 BKN029 01/M01
                        Q1027 R14/19//95=
201812312200 METAR LRIA 312200Z 00000KT 5000 -RA BR BKN012 BKN016 01/M01
                        Q1027 R14/19//95=
201812312230 METAR LRIA 312230Z 00000KT 5000 -RA BR SCT011 BKN014 01/M01
                        Q1027 R14/29//95=
201812312300 METAR LRIA 312300Z 00000KT 3200 -RA BR SCT006 BKN010 01/M01
                        Q1027 R14/29//95=
201812312330 METAR COR LRIA 312330Z 00000KT 1900 BR FEW002 BKN004 01/M00
                        Q1027 R14/29//95=