201901010200 TAF LRCL 010200Z 0103/0112 VRB04KT 5000 BR OVC010
                      TEMPO 0103/0105 1500 BR OVC005
                      BECMG 0106/0108 9999 NSW BKN020=
201901010500 TAF LRCL 010500Z 0106/0115 VRB04KT 9999 OVC015
                      TEMPO 0106/0107 5000 BR BKN010
                      BECMG 0107/0109 BKN020=
201901010800 TAF LRCL 010800Z 0109/0118 VRB04KT 9999 SCT015 BKN045
                      BECMG 0114/0116 3000 BR BKN010
                      BECMG 0116/0118 0600 FZFG VV002=
201901011100 TAF LRCL 011100Z 0112/0121 VRB04KT 9999 SCT015 BKN045
                      BECMG 0114/0116 3000 BR BKN010
                      BECMG 0116/0118 0600 FZFG VV002
                      TEMPO 0118/0121 0350 FZFG VV001=
201901011400 TAF LRCL 011400Z 0115/0124 VRB04KT 9999 BKN045
                      BECMG 0116/0118 5000 BR BKN015
                      BECMG 0118/0120 1500 BR BKN005
                      PROB30 TEMPO 0120/0124 0600 FZFG VV002=
201901011700 TAF LRCL 011700Z 0118/0203 VRB04KT 9999 BKN045
                      TEMPO 0123/0203 5000 -SN BR BKN010 OVC040=
201901012000 TAF LRCL 012000Z 0121/0206 VRB04KT 5000 BR BKN045
                      PROB40 TEMPO 0122/0203 3000 -SN BR BKN010
                       OVC040=
201901012300 TAF LRCL 012300Z 0200/0209 VRB04KT 5000 -SN BR BKN045
                      TEMPO 0201/0204 3000 SN BR BKN010 OVC040=
201901020200 TAF LRCL 020200Z 0203/0212 VRB04KT 5000 -SN BR BKN030
                      TEMPO 0203/0208 3000 SN BKN010 OVC040
                      BECMG 0208/0210 9999 NSW=
201901020500 TAF LRCL 020500Z 0206/0215 VRB04KT 9999 SCT040 BKN055
                      TEMPO 0206/0209 5000 -SN BR
                      BECMG 0207/0209 31010KT=
201901020800 TAF LRCL 020800Z 0209/0218 VRB04KT 8000 -SN SCT030 BKN055
                      BECMG 0209/0211 31010KT
                      TEMPO 0215/0218 5000 -SN BR BKN010 OVC040=
201901021100 TAF LRCL 021100Z 0212/0221 31012KT 9999 SCT035 BKN050
                      TEMPO 0215/0221 5000 -SN BR BKN010 FEW030CB
                       OVC045=
201901021400 TAF LRCL 021400Z 0215/0224 31012KT 9999 SCT045 BKN060
                      TEMPO 0216/0224 5000 -SN BR BKN010 FEW030CB
                       OVC045=
201901021700 TAF LRCL 021700Z 0218/0303 27010KT 9999 SCT015 BKN060
                      TEMPO 0218/0224 5000 -SN BR BKN010 OVC045=
201901022000 TAF LRCL 022000Z 0221/0306 30010KT 9999 BKN015 BKN050
                      TEMPO 0221/0224 5000 -SN BR BKN010 OVC045=
201901022300 TAF LRCL 022300Z 0300/0309 30010KT 9999 SCT015 BKN050=
201901030200 TAF LRCL 030200Z 0303/0312 30012KT 9999 SCT015 BKN050
                      TEMPO 0303/0312 5000 -SN BR BKN015 BKN050=
201901030500 TAF LRCL 030500Z 0306/0315 30012KT 9999 BKN020
                      PROB40 TEMPO 0306/0312 5000 -SN BKN015 OVC020=
201901030800 TAF LRCL 030800Z 0309/0318 29010KT 9999 BKN020
                      TEMPO 0309/0313 3000 -SN BKN015 OVC020=
201901031100 TAF LRCL 031100Z 0312/0321 29015KT 9999 BKN050
                      TEMPO 0312/0316 5000 -SN BKN015 OVC040=
201901031400 TAF LRCL 031400Z 0315/0324 30012KT 9999 BKN050
                      TEMPO 0315/0318 3000 -SN BKN015 OVC040=
201901031700 TAF LRCL 031700Z 0318/0403 27007KT 9999 SCT030=
201901032000 TAF LRCL 032000Z 0321/0406 27008KT 9999 SCT045=
201901032300 TAF LRCL 032300Z 0400/0409 28008KT 9999 SCT045=
201901040200 TAF LRCL 040200Z 0403/0412 26008KT CAVOK
                      TEMPO 0403/0407 BKN015=
201901040500 TAF LRCL 040500Z 0406/0415 31008KT CAVOK
                      TEMPO 0406/0408 5000 BR BKN015=
201901040800 TAF LRCL 040800Z 0409/0418 32006KT 9999 BKN030=
201901041100 TAF LRCL 041100Z 0412/0421 31008KT 9999 BKN030=
201901041400 TAF LRCL 041400Z 0415/0424 30008KT 9999 BKN030
                      TEMPO 0415/0418 5000 -SN BKN015 OVC025=
201901041700 TAF LRCL 041700Z 0418/0503 29005KT 9999 BKN030
                      PROB30 TEMPO 0418/0421 5000 -SN=
201901042000 TAF LRCL 042000Z 0421/0506 VRB03KT 9999 BKN025=
201901042300 TAF LRCL 042300Z 0500/0509 VRB04KT 9999 BKN025=
201901050200 TAF LRCL 050200Z 0503/0512 VRB04KT 9999 OVC030=
201901050500 TAF LRCL 050500Z 0506/0515 VRB04KT 9999 SCT015 BKN030
                      PROB40 TEMPO 0506/0508 BKN010 OVC030
                      BECMG 0513/0515 5000 -SN BR BKN015 BKN030=
201901050800 TAF LRCL 050800Z 0509/0518 VRB04KT 9999 BKN030
                      BECMG 0513/0515 5000 -SN BR BKN015 BKN030
                       TEMPO 0515/0518 3000 SN BKN010 OVC025=
201901051100 TAF LRCL 051100Z 0512/0521 15007KT 9999 BKN040
                      BECMG 0513/0515 5000 -SN BR BKN015 BKN030
                       TEMPO 0515/0521 3000 SN BKN005 OVC020=
201901051400 TAF LRCL 051400Z 0515/0524 13008KT 9999 BKN040
                      BECMG 0515/0517 5000 -SN BR BKN015 BKN030
                       TEMPO 0517/0524 3000 SN BKN005 OVC020=
201901051700 TAF LRCL 051700Z 0518/0603 10008KT 5000 -SN BKN010 OVC030
                      TEMPO 0520/0601 1500 SN BR BKN005 OVC025=
201901052000 TAF LRCL 052000Z 0521/0606 06006KT 3000 SN BKN010 OVC025
                      TEMPO 0521/0601 1500 SN BR BKN005 OVC020
                       BECMG 0604/0606 5000 BR BKN025=
201901052300 TAF LRCL 052300Z 0600/0609 06006KT 3000 SN SCT010 OVC030
                      TEMPO 0600/0604 1500 SN BR BKN005 OVC020
                       BECMG 0604/0606 5000 BR BKN030=
201901060200 TAF LRCL 060200Z 0603/0612 29008KT 9999 BKN015
                      TEMPO 0603/0606 3000 SN BKN010 OVC025=
201901060500 TAF LRCL 060500Z 0606/0615 30010KT 9999 BKN010 BKN025
                      PROB30 TEMPO 0606/0609 5000 -SN
                      BECMG 0609/0611 BKN015 BKN030=
201901060800 TAF LRCL 060800Z 0609/0618 30010KT 9999 BKN015 OVC050
                      PROB30 TEMPO 0609/0611 5000 -SN
                      PROB40 TEMPO 0612/0615 5000 -SN BKN010 OVC050
                       BECMG 0615/0617 SCT015 BKN050=
201901061100 TAF LRCL 061100Z 0612/0621 30010KT 9999 SCT015 OVC050
                      PROB30 TEMPO 0612/0615 5000 -SN BKN010 OVC050=
201901061400 TAF LRCL 061400Z 0615/0624 30010KT 9999 SCT015 OVC050
                      TEMPO 0615/0618 5000 -SN BKN010 OVC050
                      PROB40 TEMPO 0615/0616 3000 SN=
201901061700 TAF LRCL 061700Z 0618/0703 30010KT 9999 SCT015 OVC040
                      TEMPO 0618/0621 5000 -SN BR BKN015 OVC030=
201901062000 TAF LRCL 062000Z 0621/0706 30010KT 9999 OVC050=
201901062300 TAF LRCL 062300Z 0700/0709 30008KT 9999 BKN050=
201901070200 TAF LRCL 070200Z 0703/0712 26008KT 9999 BKN050=
201901070500 TAF LRCL 070500Z 0706/0715 27008KT CAVOK=
201901070800 TAF LRCL 070800Z 0709/0718 26008KT CAVOK=
201901071100 TAF LRCL 071100Z 0712/0721 26010KT CAVOK=
201901071400 TAF LRCL 071400Z 0715/0724 VRB04KT CAVOK=
201901071700 TAF LRCL 071700Z 0718/0803 VRB04KT CAVOK
                      TEMPO 0800/0803 3000 BR=
201901072000 TAF LRCL 072000Z 0721/0806 26006KT CAVOK
                      TEMPO 0800/0806 3000 BR=
201901072300 TAF LRCL 072300Z 0800/0809 26006KT CAVOK
                      TEMPO 0800/0806 3000 BR=
201901080200 TAF LRCL 080200Z 0803/0812 26006KT CAVOK
                      TEMPO 0803/0806 3000 BR=
201901080500 TAF LRCL 080500Z 0806/0815 09006KT CAVOK
                      TEMPO 0806/0807 5000 BR=
201901080800 TAF LRCL 080800Z 0809/0818 09006KT 5000 BR BKN025
                      BECMG 0815/0817 3000 -SN BKN015 OVC035=
201901081100 TAF LRCL 081100Z 0812/0821 09006KT 9999 BKN025
                      PROB30 TEMPO 0812/0815 5000 -SN OVC020
                      BECMG 0816/0818 5000 -SN BKN015 OVC035
                      TEMPO 0818/0821 3000 -SN BR BKN010 OVC030=
201901081400 TAF LRCL 081400Z 0815/0824 09006KT 9999 BKN025
                      BECMG 0816/0818 5000 -SN BR BKN015 OVC035
                       TEMPO 0818/0824 3000 -SN BR BKN010 OVC030=
201901081700 TAF LRCL 081700Z 0818/0903 12006KT 9999 -SN SCT015 BKN040
                      BECMG 0818/0820 5000 -SN BR BKN010 OVC035
                       TEMPO 0822/0903 1500 SN BR BKN005 OVC020=
201901082000 TAF LRCL 082000Z 0821/0906 12008KT 5000 -SN BR SCT015 BKN040
                      TEMPO 0822/0905 1500 SN BR BKN005 OVC020=
201901082300 TAF LRCL 082300Z 0900/0909 12008KT 5000 -SN BR SCT015 BKN040
                      PROB30 TEMPO 0900/0906 1500 SN BR BKN005
                       OVC020=
201901090200 TAF LRCL 090200Z 0903/0912 09008KT 9999 BKN050
                      PROB40 TEMPO 0903/0907 3000 -SN BR BKN010
                       OVC035=
201901090500 TAF LRCL 090500Z 0906/0915 08008KT 9999 SCT015 BKN060
                      TEMPO 0906/0909 5000 -SN BR BKN010 OVC035=
201901090800 TAF LRCL 090800Z 0909/0918 10007KT 9999 BKN035 BKN050=
201901091100 TAF LRCL 091100Z 0912/0921 10007KT 9999 BKN040=
201901091400 TAF LRCL 091400Z 0915/0924 10005KT 9999 SCT015 BKN040
                      BECMG 0915/0917 5000 BR BKN010 BKN040
                      BECMG 0917/0919 1500 BR BKN005
                      TEMPO 0920/0924 0600 FZFG OVC002
                      PROB40 0921/0924 0150 FZFG VV001=
201901091700 TAF LRCL 091700Z 0918/1003 10005KT 7000 SCT015 BKN040
                      BECMG 0918/0920 3000 BR BKN010 BKN040
                      BECMG 0920/0922 1500 BR BKN005
                      TEMPO 0922/1003 0600 FZFG OVC002
                      PROB40 TEMPO 0923/1003 0150=
201901092000 TAF LRCL 092000Z 0921/1006 10005KT 5000 BR SCT015 BKN040
                      BECMG 0921/0923 1500 BR BKN005
                      TEMPO 1000/1006 0600 FZFG OVC002
                      PROB40 TEMPO 1003/1006 0150 FZFG VV001=
201901092300 TAF LRCL 092300Z 1000/1009 27005KT 5000 BR BKN010
                      TEMPO 1000/1006 1500 BR OVC005
                      PROB40 TEMPO 1003/1006 0600 FZFG VV001=
201901100200 TAF LRCL 100200Z 1003/1012 27005KT 5000 BR OVC005
                      TEMPO 1003/1007 1500 BR OVC002
                      PROB40 TEMPO 1004/1006 0600 FZFG VV001=
201901100500 TAF LRCL 100500Z 1006/1015 27005KT 5000 BR SCT010 OVC030
                      TEMPO 1006/1008 3000 -SN BR BKN005 OVC020=
201901100800 TAF LRCL 100800Z 1009/1018 27006KT 3000 BR SCT010 OVC030
                      TEMPO 1009/1013 1500 -SN BR BKN005 OVC025
                       TEMPO 1013/1015 5000 BR=
201901101100 TAF LRCL 101100Z 1012/1021 27006KT 7000 SCT010 OVC035
                      BECMG 1016/1018 3000 BR BKN010 OVC025=
201901101400 TAF LRCL 101400Z 1015/1024 27006KT 5000 BR SCT010 OVC040
                      BECMG 1016/1018 3000 BR BKN005 OVC025
                      TEMPO 1018/1022 1500 BR OVC002
                      BECMG 1022/1024 1500 -SN BR BKN002 OVC015=
201901101700 TAF LRCL 101700Z 1018/1103 27006KT 3000 BR SCT015 BKN050
                      TEMPO 1019/1023 1500 BR BKN010
                      BECMG 1023/1101 1500 -SN BR BKN005 OVC015=
201901102000 TAF LRCL 102000Z 1021/1106 VRB03KT 5000 BR BKN050
                      TEMPO 1021/1022 BKN015
                      BECMG 1022/1024 3000 -SN BKN010 OVC025
                      TEMPO 1100/1106 1500 SN BKN005 OVC020=
201901102300 TAF LRCL 102300Z 1100/1109 VRB04KT 3000 -SN BR SCT015 BKN030
                      TEMPO 1100/1107 1500 SN BR BKN010 OVC025=
201901110200 TAF LRCL 110200Z 1103/1112 VRB04KT 3000 -SN BR BKN015 BKN030
                      TEMPO 1103/1107 1500 SN BR BKN010 OVC020=
201901110500 TAF LRCL 110500Z 1106/1115 VRB04KT 5000 -SN BR BKN015 BKN030
                      TEMPO 1106/1110 1500 SN BR BKN010 OVC025=
201901110800 TAF LRCL 110800Z 1109/1118 25005KT 3000 -SN BR BKN010 OVC020
                      TEMPO 1109/1111 0800 SN BKN005 OVC015
                      BECMG 1112/1114 5000 BKN015 OVC030=
201901111100 TAF LRCL 111100Z 1112/1121 27006KT 5000 -SN BR OVC020
                      TEMPO 1112/1115 3000 -SN BR BKN015 OVC025
                       BECMG 1117/1119 3000 BR=
201901111400 TAF LRCL 111400Z 1115/1124 VRB04KT 5000 BR BKN015 OVC025
                      TEMPO 1115/1117 3000 -SN BR BKN010 OVC020
                       BECMG 1117/1119 3000 BR BKN010 OVC020=
201901111700 TAF LRCL 111700Z 1118/1203 VRB04KT 9999 OVC015
                      PROB40 TEMPO 1200/1203 3000 BR BKN005=
201901112000 TAF LRCL 112000Z 1121/1206 VRB04KT 7000 OVC015
                      TEMPO 1121/1124 5000 -SN BR BKN010 OVC015
                       PROB40
                      TEMPO 1202/1206 3000 BR OVC005=
201901112300 TAF LRCL 112300Z 1200/1209 VRB04KT 5000 BR OVC015
                      PROB40 TEMPO 1201/1207 1500 BR OVC005
                      BECMG 1207/1209 3000 -SN BR BKN010 OVC020=
201901120200 TAF LRCL 120200Z 1203/1212 VRB04KT 5000 BR OVC020
                      PROB40 TEMPO 1203/1207 1500 BR OVC005
                      BECMG 1207/1209 3000 -SN BR BKN010 OVC020=
201901120500 TAF LRCL 120500Z 1206/1215 VRB04KT 5000 BR BKN035
                      BECMG 1207/1209 7000 NSW
                      TEMPO 1211/1215 3000 -SN BR BKN015 BKN030=
201901120800 TAF LRCL 120800Z 1209/1218 VRB04KT 7000 BKN040
                      TEMPO 1210/1215 3000 -SN BR BKN015 BKN030=
201901121100 TAF LRCL 121100Z 1212/1221 VRB04KT 3000 -SN BR BKN040
                      BECMG 1214/1216 5000 BR
                      BECMG 1219/1221 3000 BR=
201901121400 TAF LRCL 121400Z 1215/1224 VRB04KT 3000 -SN BR BKN030
                      BECMG 1215/1217 5000 BR
                      BECMG 1219/1221 3000 BR=
201901121700 TAF LRCL 121700Z 1218/1303 VRB04KT 3000 BR BKN030
                      TEMPO 1300/1303 1500 BR=
201901121946 TAF AMD LRCL 121946Z 1219/1303 VRB04KT 0800 FZFG SCT010
                      TEMPO 1220/1302 0150 FZFG VV001=
201901122009 TAF COR LRCL 122009Z 1221/1306 VRB04KT 0350 FZFG VV005
                      TEMPO 1221/1302 0150 FZFG VV001
                      BECMG 1302/1304 0800
                      TEMPO 1304/1306 1500 -SN BR BKN005 BKN030=
201901122300 TAF LRCL 122300Z 1300/1309 VRB04KT 1500 BR SCT045
                      PROB30 TEMPO 1300/1303 0600 FZFG VV002
                      BECMG 1303/1305 3000
                      TEMPO 1305/1309 1500 -SN BR BKN005 OVC030=
201901130200 TAF LRCL 130200Z 1303/1312 VRB04KT 3000 BR OVC050
                      TEMPO 1305/1312 1500 -SN BR BKN005 OVC030=
201901130500 TAF LRCL 130500Z 1306/1315 05005KT 7000 BKN040
                      BECMG 1307/1309 5000 -SN BR BKN015 OVC035
                       TEMPO 1311/1315 3000 -SN BR BKN010 OVC030=
201901130800 TAF LRCL 130800Z 1309/1318 07006KT 5000 -SN BR BKN015 OVC035
                      TEMPO 1311/1315 3000 -SN BR BKN010 OVC030=
201901131100 TAF LRCL 131100Z 1312/1321 08007KT 9999 BKN040
                      BECMG 1312/1314 5000 -SN BR BKN015 OVC035
                       PROB40
                      TEMPO 1313/1316 3000 -SN BR BKN010 OVC030
                       BECMG 1316/1318 3000 BR BKN010 OVC030
                      PROB30 TEMPO 1318/1321 0800 FZFG OVC002=
201901131400 TAF LRCL 131400Z 1315/1324 VRB04KT 5000 -SN BR SCT010 OVC040
                      BECMG 1316/1318 3000 BR BKN010 OVC030
                      PROB30 TEMPO 1318/1323 0800 FZFG OVC002=
201901131700 TAF LRCL 131700Z 1318/1403 VRB03KT 5000 BR OVC040
                      TEMPO 1321/1403 1500 BR BKN005 OVC030=
201901132000 TAF LRCL 132000Z 1321/1406 VRB04KT 3000 BR OVC040
                      TEMPO 1322/1406 1500 BR BKN005 OVC030=
201901132218 TAF AMD LRCL 132218Z 1322/1406 VRB04KT 0800 FZFG OVC002
                      TEMPO 1322/1403 0350 FZFG VV001=
201901132300 TAF LRCL 132300Z 1400/1409 VRB04KT 0300 FZFG VV001
                      BECMG 1404/1406 0800 FZFG BKN002
                      BECMG 1406/1408 1500 BR BKN005=
201901140200 TAF LRCL 140200Z 1403/1412 VRB04KT 1500 BR BKN002 BKN010
                      TEMPO 1405/1410 3000 -SN BR BKN005 OVC020
                       TEMPO 1410/1412 5000 -SN BR BKN010 OVC030=
201901140500 TAF LRCL 140500Z 1406/1415 VRB04KT 5000 BR OVC050
                      TEMPO 1406/1409 3000 -SN BR BKN015 OVC030
                       BECMG 1410/1412 29010KT
                      TEMPO 1412/1415 3000 -SN BR BKN010 OVC025=
201901140800 TAF LRCL 140800Z 1409/1418 28008KT 5000 BR BKN030
                      TEMPO 1412/1417 3000 -SN BR BKN010 OVC025=
201901141100 TAF LRCL 141100Z 1412/1421 28008KT 5000 BR BKN030
                      TEMPO 1412/1417 3000 -RA BR BKN010 OVC025=
201901141400 TAF LRCL 141400Z 1415/1424 28008KT 5000 BR BKN035
                      TEMPO 1415/1418 3000 -RA BR BKN010 OVC025=
201901141700 TAF LRCL 141700Z 1418/1503 27008KT 9999 BKN045
                      TEMPO 1418/1421 3000 -SN BR BKN010 OVC030=
201901142000 TAF LRCL 142000Z 1421/1506 28010KT 9999 SCT045
                      TEMPO 1421/1423 5000 -SN BR BKN015 BKN040=
201901142300 TAF LRCL 142300Z 1500/1509 27010KT 5000 -SN SCT030 BKN045
                      TEMPO 1500/1503 3000 -SHSN BKN015 SCT030CB
                       BKN040
                      BECMG 1503/1505 9999 NSW=
201901150200 TAF LRCL 150200Z 1503/1512 30014KT 9999 SCT045
                      PROB30 TEMPO 1503/1505 5000 -SN BR BKN015
                       BKN040=
201901150500 TAF LRCL 150500Z 1506/1515 29012KT CAVOK=
201901150800 TAF LRCL 150800Z 1509/1518 29008KT CAVOK=
201901151100 TAF LRCL 151100Z 1512/1521 30008KT CAVOK=
201901151400 TAF LRCL 151400Z 1515/1524 28005KT CAVOK=
201901151700 TAF LRCL 151700Z 1518/1603 VRB04KT CAVOK
                      TEMPO 1521/1524 3000 -SN BR BKN010 OVC035
                       BECMG 1601/1603 5000 -SN BR BKN015 OVC045=
201901152000 TAF LRCL 152000Z 1521/1606 VRB04KT 9999 OVC040
                      TEMPO 1521/1601 5000 -SN BR BKN015 OVC035
                       BECMG 1601/1603 5000 -SN BR BKN010 OVC040
                       BECMG 1603/1605 30015KT=
201901152300 TAF LRCL 152300Z 1600/1609 VRB04KT 9999 -SN OVC040
                      BECMG 1600/1602 29010KT 5000 -SN BR BKN015
                       OVC035
                      TEMPO 1602/1607 3000 -SN BR BKN005 OVC030=
201901160200 TAF LRCL 160200Z 1603/1612 VRB04KT 9999 -SN SCT010 OVC040
                      BECMG 1603/1604 29010KT 5000 -SN BR
                      TEMPO 1604/1607 3000 -SN BR BKN005 OVC030
                       BECMG 1608/1610 9999 NSW=
201901160500 TAF LRCL 160500Z 1606/1615 VRB04KT 5000 -SN BR SCT015 OVC030
                      TEMPO 1606/1608 30012KT 3000 SN BKN005 OVC020
                       BECMG 1608/1610 9999 NSW=
201901160800 TAF LRCL 160800Z 1609/1618 30016KT 9999 BKN040
                      TEMPO 1609/1612 28020G30KT
                      PROB30 TEMPO 1612/1615 5000 -RA -RASN
                      BECMG 1615/1617 VRB04KT=
201901161100 TAF LRCL 161100Z 1612/1621 29010KT 9999 BKN040
                      PROB30 TEMPO 1612/1615 5000 -RA -RASN
                      BECMG 1615/1617 VRB04KT
                      BECMG 1617/1619 3000 BR BKN010
                      BECMG 1619/1621 0600 FZFG BKN002=
201901161400 TAF LRCL 161400Z 1615/1624 29008KT 9999 BKN040
                      BECMG 1617/1619 3000 BR BKN010
                      BECMG 1620/1622 0600 FZFG BKN002=
201901161700 TAF LRCL 161700Z 1618/1703 VRB04KT 9999 SCT040
                      BECMG 1620/1622 5000 BR
                      BECMG 1622/1624 1500 BR BKN005
                      TEMPO 1700/1703 0600 FZFG BKN002=
201901162000 TAF LRCL 162000Z 1621/1706 VRB04KT 9999 BKN040
                      BECMG 1622/1624 3000 BR
                      BECMG 1700/1702 1500 BR BKN005
                      TEMPO 1702/1706 0600 FZFG BKN002=
201901162300 TAF LRCL 162300Z 1700/1709 VRB04KT 9999 BKN040
                      TEMPO 1701/1706 3000 BR=
201901170200 TAF LRCL 170200Z 1703/1712 VRB04KT CAVOK
                      TEMPO 1703/1706 3000 BR=
201901170500 TAF LRCL 170500Z 1706/1715 VRB04KT 5000 BR NSC
                      TEMPO 1706/1708 1500 BR
                      BECMG 1708/1710 CAVOK=
201901170636 TAF AMD LRCL 170636Z 1706/1715 VRB04KT 0300 FZFG BKN001
                      BECMG 1707/1709 0800 BKN002
                      BECMG 1709/1710 3000 BR SCT005
                      BECMG 1710/1711 9999 NSW=
201901170800 TAF LRCL 170800Z 1709/1718 VRB04KT 1500 BR SCT045
                      BECMG 1709/1710 5000 BR
                      BECMG 1710/1711 9999 NSW=
201901171100 TAF LRCL 171100Z 1712/1721 VRB04KT 9999 BKN050=
201901171400 TAF LRCL 171400Z 1715/1724 VRB04KT 9999 BKN050
                      BECMG 1721/1723 5000 BR=
201901171700 TAF LRCL 171700Z 1718/1803 VRB04KT 5000 BR BKN050
                      BECMG 1720/1722 1500 BR
                      BECMG 1800/1802 0600 FZFG BKN002=
201901172000 TAF LRCL 172000Z 1721/1806 VRB04KT 5000 BR BKN050
                      BECMG 1722/1724 1500 BR
                      TEMPO 1802/1806 0350 FZFG VV001=
201901172300 TAF LRCL 172300Z 1800/1809 VRB04KT 3000 BR BKN050
                      TEMPO 1800/1806 0600 FZFG BKN002
                      BECMG 1807/1809 9999 NSW=
201901180200 TAF LRCL 180200Z 1803/1812 VRB04KT 1500 BR SCT040
                      TEMPO 1803/1806 0350 FZFG BKN002
                      BECMG 1807/1809 9999 NSW=
201901180500 TAF LRCL 180500Z 1806/1815 VRB04KT 3000 BR BKN060
                      PROB30 TEMPO 1806/1807 1500 -FZRA BR
                      BECMG 1808/1810 9999 NSW
                      TEMPO 1813/1815 5000 -RA BR=
201901180800 TAF LRCL 180800Z 1809/1818 VRB04KT 3000 BR BKN060
                      BECMG 1809/1811 7000 NSW
                      BECMG 1813/1815 5000 -RA BR BKN015 BKN040
                       PROB40
                      TEMPO 1816/1818 -FZRA=
201901181100 TAF LRCL 181100Z 1812/1821 VRB04KT CAVOK
                      BECMG 1813/1815 5000 -RA BR BKN015 BKN040
                       PROB40
                      TEMPO 1815/1818 -FZRA
                      BECMG 1818/1820 3000 -SNRA BKN010 OVC030=
201901181400 TAF LRCL 181400Z 1815/1824 VRB04KT 9999 BKN020
                      BECMG 1815/1817 5000 -RA BR BKN015 BKN030
                       BECMG 1818/1820 3000 -SNRA BKN010 OVC030
                       BECMG 1821/1823 5000 BR SCT010 BKN030=
201901181700 TAF LRCL 181700Z 1818/1903 VRB04KT 7000 -RA BKN010 BKN030
                      BECMG 1818/1820 5000 -SNRA
                      TEMPO 1820/1822 3000 -SN BKN005 OVC015
                      BECMG 1822/1824 5000 BR SCT010 BKN030
                      BECMG 1900/1902 1500 BR BKN005=
201901182000 TAF LRCL 182000Z 1821/1906 VRB04KT 5000 BR BKN015 BKN030
                      TEMPO 1900/1906 1500 BR OVC005=
201901182300 TAF LRCL 182300Z 1900/1909 27006KT 5000 BR BKN010
                      TEMPO 1900/1906 1500 BR BKN005=
201901190200 TAF LRCL 190200Z 1903/1912 VRB04KT 5000 BR BKN010
                      TEMPO 1903/1907 1500 BR BKN005=
201901190500 TAF LRCL 190500Z 1906/1915 VRB04KT 9999 BKN015
                      BECMG 1909/1911 BKN025=
201901190800 TAF LRCL 190800Z 1909/1918 VRB04KT CAVOK=
201901191100 TAF LRCL 191100Z 1912/1921 VRB04KT 9999 BKN030=
201901191400 TAF LRCL 191400Z 1915/1924 09005KT 9999 BKN050=
201901191700 TAF LRCL 191700Z 1918/2003 09005KT 7000 -SN BKN060
                      BECMG 1919/1921 BKN015 OVC040
                      TEMPO 1922/2003 3000 -SN BR BKN010 OVC030=
201901192000 TAF LRCL 192000Z 1921/2006 11007KT 7000 -SN OVC040
                      TEMPO 1923/2006 3000 -SN BR BKN010 OVC030=
201901192300 TAF LRCL 192300Z 2000/2009 09007KT 3000 -SN BR BKN015 OVC040
                      TEMPO 2000/2005 1500 -SN BR BKN010 OVC030
                       BECMG 2007/2009 3000 SN BKN005 OVC025=
201901200200 TAF LRCL 200200Z 2003/2012 09005KT 3000 -SN BR BKN015 OVC040
                      TEMPO 2003/2006 1500 -SN BR BKN010 OVC030
                       BECMG 2006/2008 1500 SN BKN005 OVC025=
201901200500 TAF LRCL 200500Z 2006/2015 09005KT 3000 -SN BR SCT010 OVC050
                      TEMPO 2006/2009 1500 -SN BR BKN010 OVC030
                       BECMG 2009/2011 1500 SN BKN005 OVC025
                      TEMPO 2012/2015 0600 +SN BKN002 OVC015=
201901200800 TAF LRCL 200800Z 2009/2018 06005KT 1500 -SN BR SCT010 OVC050
                      TEMPO 2012/2016 0600 +SN BKN002 OVC015=
201901201100 TAF LRCL 201100Z 2012/2021 06005KT 1500 -SN BR SCT010 OVC050
                      TEMPO 2012/2016 0600 +SN BKN002 OVC015=
201901201400 TAF LRCL 201400Z 2015/2024 06005KT 1500 -SN BR SCT010 OVC050
                      TEMPO 2015/2018 0600 +SN BKN002 OVC015=
201901201700 TAF LRCL 201700Z 2018/2103 VRB04KT 1500 -SN BR SCT005 OVC015
                      TEMPO 2018/2021 0800 -SN FZFG BKN001 OVC010
                       BECMG 2100/2102 3000 BR=
201901202000 TAF LRCL 202000Z 2021/2106 VRB04KT 1500 -SN BR BKN015 OVC035
                      BECMG 2100/2102 3000 BR BKN020=
201901202300 TAF LRCL 202300Z 2100/2109 VRB04KT 1500 -SN BR BKN015 OVC035
                      BECMG 2101/2103 3000 BR BKN020=
201901210200 TAF LRCL 210200Z 2103/2112 VRB04KT 9999 SCT015 OVC030
                      TEMPO 2103/2106 3000 BR BKN010 OVC025=
201901210500 TAF LRCL 210500Z 2106/2115 VRB04KT 9999 SCT015 BKN040=
201901210800 TAF LRCL 210800Z 2109/2118 30006KT 9999 BKN045
                      TEMPO 2112/2118 BKN015 BKN040
                      PROB40 TEMPO 2115/2118 5000 -SN BKN010 BKN035=
201901211100 TAF LRCL 211100Z 2112/2121 36005KT 9999 BKN055
                      BECMG 2113/2115 BKN015 BKN040
                      PROB30 TEMPO 2115/2121 5000 -SN BKN010 BKN035=
201901211400 TAF LRCL 211400Z 2115/2124 VRB04KT 9999 SCT015 BKN050
                      PROB30 TEMPO 2116/2124 5000 -SN BKN010 BKN045=
201901211700 TAF LRCL 211700Z 2118/2203 VRB04KT 9999 BKN015 BKN050
                      PROB40 TEMPO 2200/2203 3000 -SN BR BKN010
                       BKN045=
201901212000 TAF LRCL 212000Z 2121/2206 VRB04KT 5000 BR SCT015 BKN050
                      BECMG 2202/2204 3000 -SN BR BKN010 BKN045
                       TEMPO 2204/2206 1500 SN BR BKN005 OVC025=
201901212300 TAF LRCL 212300Z 2200/2209 VRB04KT 5000 BR BKN050
                      BECMG 2202/2204 3000 -SN BR BKN010 BKN045
                       TEMPO 2204/2209 1500 SN BR BKN005 OVC035=
201901220200 TAF LRCL 220200Z 2203/2212 VRB04KT 5000 BR BKN005 BKN050
                      BECMG 2203/2205 3000 -SN BR
                      TEMPO 2205/2212 1500 SN BR BKN002 OVC035=
201901220500 TAF LRCL 220500Z 2206/2215 09006KT 3000 -SN BR BKN010 OVC035
                      TEMPO 2206/2209 0800 +SN BKN002 OVC035=
201901220800 TAF LRCL 220800Z 2209/2218 09006KT 3000 -SN BR SCT010 OVC025
                      TEMPO 2209/2212 1500 -SN BR BKN005 OVC025=
201901221100 TAF LRCL 221100Z 2212/2221 10007KT 3000 -SN BR SCT010 OVC025
                      TEMPO 2212/2218 1500 -SN BR BKN005 OVC025
                       BECMG 2218/2220 BKN005 OVC020=
201901221400 TAF LRCL 221400Z 2215/2224 10007KT 3000 -SN BR SCT010 OVC025
                      TEMPO 2215/2220 1500 -SN BR BKN005 OVC020
                       BECMG 2222/2224 0800 FZFG BKN002 OVC015=
201901221700 TAF LRCL 221700Z 2218/2303 10005KT 3000 -SN BR SCT010 OVC025
                      TEMPO 2218/2220 1500 -SN BR BKN005 OVC020
                       BECMG 2222/2224 0800 FZFG BKN002 OVC015=
201901222000 TAF LRCL 222000Z 2221/2306 07005KT 3000 -SN BR BKN005 OVC025
                      TEMPO 2222/2302 0800 FZFG BKN002 OVC020=
201901222300 TAF LRCL 222300Z 2300/2309 07005KT 3000 -SN BR BKN010 OVC025
                      TEMPO 2300/2302 0800 FZFG BKN002 OVC020
                      BECMG 2302/2304 1500 SN BKN005 OVC020=
201901230200 TAF LRCL 230200Z 2303/2312 07006KT 3000 -SN BR OVC025
                      TEMPO 2303/2309 1500 SN BKN005 OVC020
                      BECMG 2309/2310 5000 BR=
201901230500 TAF LRCL 230500Z 2306/2315 07006KT 3000 -SN BR OVC025
                      BECMG 2307/2309 5000 BR=
201901230800 TAF LRCL 230800Z 2309/2318 VRB03KT 3000 BR BKN045
                      TEMPO 2309/2311 1500 -SN BKN005 BKN040=
201901231100 TAF LRCL 231100Z 2312/2321 VRB03KT 5000 BR BKN005
                      BECMG 2315/2317 3000 BR BKN005 BKN040=
201901231328 TAF COR LRCL 231328Z 2313/2321 VRB03KT 5000 BR BKN005
                      BECMG 2315/2317 3000 BR BKN002=
201901231400 TAF LRCL 231400Z 2315/2324 VRB03KT 1500 BR BKN002
                      BECMG 2315/2317 0600 FZFG
                      BECMG 2317/2318 0300 FZFG OVC001=
201901231700 TAF LRCL 231700Z 2318/2403 VRB03KT 0600 FZFG VV001
                      TEMPO 2318/2403 0300 FZFG=
201901232000 TAF LRCL 232000Z 2321/2406 VRB03KT 0600 FZFG VV001
                      TEMPO 2321/2403 0300 FZFG
                      TEMPO 2403/2406 1500 -SN BR BKN002 OVC015=
201901232300 TAF LRCL 232300Z 2400/2409 VRB04KT 0600 FZFG VV001
                      TEMPO 2400/2402 0300 FZFG
                      BECMG 2402/2404 1500 -SN BR BKN002 OVC015=
201901240200 TAF LRCL 240200Z 2403/2412 VRB04KT 0600 FZFG VV001
                      BECMG 2404/2406 1500 -SN BR BKN003 OVC015
                       BECMG 2408/2410 5000 -RASN BKN010 OVC035=
201901240500 TAF LRCL 240500Z 2406/2415 VRB04KT 3000 -SNRA SCT005 OVC030
                      TEMPO 2406/2409 FZRA
                      BECMG 2409/2411 5000 -RASN=
201901240800 TAF LRCL 240800Z 2409/2418 VRB04KT 7000 SCT010 OVC030
                      TEMPO 2409/2411 3000 -RA BR
                      BECMG 2411/2413 3000 -RASN BR BKN005 OVC020
                       TEMPO 2413/2418 FZRA=
201901241100 TAF LRCL 241100Z 2412/2421 VRB04KT 3000 -RA BR BKN010 OVC025
                      BECMG 2415/2417 FZRA=
201901241400 TAF LRCL 241400Z 2415/2424 VRB04KT 9999 BKN010 OVC025
                      TEMPO 2415/2416 5000 -RASN BR BKN005 OVC020
                       BECMG 2416/2418 3000 -FZDZ BR BKN002 OVC010=
201901241700 TAF LRCL 241700Z 2418/2503 VRB04KT 7000 OVC030
                      TEMPO 2418/2421 3000 -RA -RASN BKN010 OVC030
                       PROB40
                      TEMPO 2419/2421 -FZRA
                      BECMG 2421/2423 3000 -SN BKN005 OVC020
                      TEMPO 2500/2503 1500 SN BKN002 OVC020=
201901242000 TAF LRCL 242000Z 2421/2506 VRB04KT 3000 -SN BR BKN015 OVC035
                      TEMPO 2421/2424 1500 SN BKN005 OVC025
                      BECMG 2504/2506 5000=
201901242300 TAF LRCL 242300Z 2500/2509 VRB04KT 3000 -SN BR BKN015 OVC030
                      TEMPO 2500/2503 1500 -SN BR BKN010 OVC030
                       BECMG 2506/2508 5000 BR=
201901250200 TAF LRCL 250200Z 2503/2512 VRB04KT 3000 -SN BR BKN010 OVC025
                      TEMPO 2503/2506 1500 -SN BR BKN002 OVC025
                       BECMG 2506/2508 5000 BR BKN020=
201901250500 TAF LRCL 250500Z 2506/2515 VRB04KT 7000 BKN005 OVC015
                      BECMG 2508/2510 BKN015 BKN030=
201901250800 TAF LRCL 250800Z 2509/2518 VRB04KT 3000 BR BKN005 OVC015
                      TEMPO 2509/2511 1500 BR BKN002 OVC010
                      BECMG 2511/2513 5000 BKN010 OVC025=
201901251100 TAF LRCL 251100Z 2512/2521 VRB04KT 7000 BKN005 OVC015
                      BECMG 2518/2520 3000 -SN BR=
201901251400 TAF LRCL 251400Z 2515/2524 VRB04KT 9999 BKN015
                      BECMG 2517/2519 5000 -SN BR BKN010 OVC040
                       BECMG 2520/2522 1500 SN BR BKN005 OVC020=
201901251700 TAF LRCL 251700Z 2518/2603 26007KT 9999 BKN020
                      BECMG 2522/2524 5000 -RASN BR BKN010 OVC025
                       PROB30
                      TEMPO 2600/2603 1500 -FZRA BKN005 OVC020=
201901252000 TAF LRCL 252000Z 2521/2606 26007KT 9999 BKN020
                      BECMG 2522/2524 5000 -RASN BR BKN010 OVC025
                       PROB30
                      TEMPO 2600/2604 1500 -FZRA BKN005 OVC020=
201901252300 TAF LRCL 252300Z 2600/2609 28007KT 9999 SCT015 OVC030
                      TEMPO 2600/2603 5000 -RASN BR BKN010 OVC020
                       PROB30 2600/2603 3000 -FZRA BKN005 OVC020
                       BECMG 2603/2605 5000 -SN BR BKN005 OVC010=
201901260200 TAF LRCL 260200Z 2603/2612 26007KT 5000 -RASN BR SCT015 OVC030
                       BECMG 2605/2607 1500 SN BKN005 OVC015=
201901260500 TAF LRCL 260500Z 2606/2615 VRB04KT 3000 -SN BR BKN010 OVC035
                      TEMPO 2606/2608 1500 -SN BR
                      BECMG 2608/2610 5000 SCT015 OVC035
                      PROB40 TEMPO 2612/2615 30010KT 1500 SN BR
                       BKN008 BKN025=
201901260800 TAF LRCL 260800Z 2609/2618 VRB04KT 7000 BKN005 OVC025
                      TEMPO 2609/2610 5000 -RA BR
                      BECMG 2610/2612 SCT010 BKN030
                      PROB40 TEMPO 2612/2615 30010KT 4000 -SN BR
                       BKN005 OVC025=
201901261100 TAF LRCL 261100Z 2612/2621 29006KT 5000 -SN BR SCT005 OVC020
                      PROB40 TEMPO 2612/2616 3000 -SN BR BKN005
                       OVC015
                      TEMPO 2616/2620 8000 NSW=
201901261400 TAF LRCL 261400Z 2615/2624 VRB04KT 5000 -SN BR BKN010 OVC030
                      TEMPO 2615/2616 35010KT 1500 -SN BR BKN005
                       OVC025
                      BECMG 2616/2618 8000 NSW
                      PROB40 TEMPO 2621/2624 3000 -SN BR BKN005
                       OVC025=
201901261700 TAF LRCL 261700Z 2618/2703 35007KT 8000 BKN015 OVC035
                      BECMG 2618/2620 SCT010 BKN035
                      PROB40 TEMPO 2700/2703 3000 -SN BR BKN005
                       OVC025=
201901262000 TAF LRCL 262000Z 2621/2706 VRB04KT 9999 SCT015 OVC035
                      PROB40 TEMPO 2700/2704 3000 -SN BR BKN010
                       OVC025=
201901262300 TAF LRCL 262300Z 2700/2709 VRB04KT 9999 SCT015 OVC035
                      PROB40 TEMPO 2700/2705 3000 -SN BR BKN010
                       OVC025=
201901270200 TAF LRCL 270200Z 2703/2712 VRB04KT 9999 OVC030
                      TEMPO 2703/2705 3000 -SN BR BKN010 OVC025=
201901270500 TAF LRCL 270500Z 2706/2715 13008KT 5000 BR BKN010 OVC020
                      TEMPO 2706/2708 3000 -SN BR BKN005 OVC015
                       BECMG 2708/2710 BKN025=
201901270800 TAF LRCL 270800Z 2709/2718 11008KT 7000 OVC035=
201901271100 TAF LRCL 271100Z 2712/2721 11008KT 7000 BKN050=
201901271400 TAF LRCL 271400Z 2715/2724 11006KT 9999 SCT020=
201901271700 TAF LRCL 271700Z 2718/2803 VRB04KT 5000 BR SCT020
                      BECMG 2723/2801 9999 NSW=
201901272000 TAF LRCL 272000Z 2721/2806 07006KT 5000 BR NSC
                      BECMG 2801/2803 9999 NSW=
201901272300 TAF LRCL 272300Z 2800/2809 07006KT CAVOK
                      TEMPO 2800/2802 5000 BR=
201901280200 TAF LRCL 280200Z 2803/2812 08010KT CAVOK
                      TEMPO 2803/2806 3000 BR BKN010=
201901280500 TAF LRCL 280500Z 2806/2815 08010KT CAVOK=
201901280800 TAF LRCL 280800Z 2809/2818 07008KT CAVOK=
201901281100 TAF LRCL 281100Z 2812/2821 09008KT CAVOK
                      BECMG 2815/2817 5000 BR BKN030
                      TEMPO 2818/2821 3000 -FZRA BKN010 OVC025=
201901281400 TAF LRCL 281400Z 2815/2824 08008KT CAVOK
                      BECMG 2816/2818 5000 BR BKN035
                      TEMPO 2819/2824 3000 -FZRA BKN005 OVC025=
201901281700 TAF LRCL 281700Z 2818/2903 VRB04KT CAVOK
                      PROB30 TEMPO 2821/2824 -FZRA=
201901282000 TAF LRCL 282000Z 2821/2906 VRB04KT 7000 BKN060
                      PROB30 TEMPO 2821/2824 5000 -RA=
201901282300 TAF LRCL 282300Z 2900/2909 VRB04KT 7000 BKN045
                      PROB30 TEMPO 2905/2907 5000 -FZDZ BKN010
                       TEMPO 2907/2909 5000 -RA BR BKN010 BKN040=
201901290200 TAF LRCL 290200Z 2903/2912 VRB04KT 5000 BR BKN060
                      PROB30 TEMPO 2905/2907 -FZDZ BKN010
                      TEMPO 2907/2910 3000 -RA BR BKN010 BKN040=
201901290500 TAF LRCL 290500Z 2906/2915 VRB04KT 5000 BR BKN060
                      PROB30 TEMPO 2907/2910 3000 -RA BR BKN010
                       BKN040
                      BECMG 2910/2912 7000 NSW=
201901290800 TAF LRCL 290800Z 2909/2918 VRB04KT 3000 BR SCT050
                      BECMG 2909/2911 7000 NSW=
201901291100 TAF LRCL 291100Z 2912/2921 VRB04KT 7000 SCT060
                      BECMG 2916/2918 3000 BR=
201901291400 TAF LRCL 291400Z 2915/2924 VRB04KT 9999 BKN025
                      BECMG 2916/2918 3000 BR
                      BECMG 2918/2920 0800 FZFG BKN003=
201901291700 TAF LRCL 291700Z 2918/3003 VRB04KT 9999 BKN030
                      BECMG 2919/2921 3000 BR BKN015
                      PROB30 TEMPO 3000/3003 0600 FZFG BKN002=
201901292000 TAF LRCL 292000Z 2921/3006 VRB04KT 3000 BR BKN030
                      PROB30 TEMPO 2923/3004 0600 FZFG BKN002
                      BECMG 3004/3006 5000 -RA BR BKN015 OVC030=
201901292300 TAF LRCL 292300Z 3000/3009 VRB04KT 3000 BR BKN015 BKN030
                      PROB30 TEMPO 3001/3004 0600 FZFG BKN002
                      BECMG 3005/3007 5000 -RA BR BKN015 OVC030
                       TEMPO 3007/3009 3000 RA BR BKN005 OVC020=
201901300200 TAF LRCL 300200Z 3003/3012 VRB04KT 0600 FZFG OVC002
                      TEMPO 3003/3005 0150 FZFG VV001
                      BECMG 3005/3007 1500 -FZRA BR BKN005 OVC030
                       BECMG 3008/3010 RA=
201901300500 TAF LRCL 300500Z 3006/3015 VRB04KT 1500 -FZRA BR OVC002
                      BECMG 3006/3007 BKN005 OVC020
                      BECMG 3007/3009 3000 -RA BR BKN010 OVC030=
201901300631 TAF AMD LRCL 300631Z 3006/3015 VRB04KT 0400 -FZRA FZFG OVC001
                      BECMG 3007/3009 0800 -RA FG BKN002 OVC010
                       BECMG 3009/3011 1500 -DZ BR BKN005 OVC020=
201901300800 TAF LRCL 300800Z 3009/3018 VRB04KT 1500 -RA BR BKN005 OVC020
                      TEMPO 3012/3016 0800 -RA FG BKN002 OVC010
                       BECMG 3016/3018 0800 -FZRA=
201901301100 TAF LRCL 301100Z 3012/3021 VRB04KT 3000 BR BKN005 OVC030
                      TEMPO 3012/3016 1500 -RA FG BKN002 OVC010
                       BECMG 3016/3018 0800 -FZRA=
201901301400 TAF LRCL 301400Z 3015/3024 VRB04KT 1500 BR BKN005 OVC035
                      BECMG 3016/3018 0800 -FZRA FZFG BKN001 OVC005
                       TEMPO 3020/3024 0350=
201901301700 TAF LRCL 301700Z 3018/3103 VRB04KT 0800 FG OVC005
                      BECMG 3018/3020 0350 FZFG OVC002
                      TEMPO 3020/3024 0150 FZFG VV001
                      BECMG 3100/3102 0800 -FZRA FZFG=
201901302000 TAF LRCL 302000Z 3021/3106 VRB04KT 1500 -RA BR BKN005 OVC010
                      BECMG 3022/3024 0800 FG BKN002 OVC005
                      PROB40 TEMPO 3101/3106 0600 -FZRA FZFG=
201901302300 TAF LRCL 302300Z 3100/3109 VRB04KT 1500 BR BKN005
                      TEMPO 3100/3106 0800 FG BKN002 OVC005
                      PROB30 TEMPO 3101/3106 0600 -FZRA FZFG=
201901310200 TAF LRCL 310200Z 3103/3112 27008KT 3000 BR OVC010
                      TEMPO 3103/3108 1500 -RA BR OVC005
                      PROB30 3103/3107 0600 -RA FG OVC002
                      BECMG 3108/3110 5000 BKN015 OVC030=
201901310500 TAF LRCL 310500Z 3106/3115 26008KT 5000 BR BKN010 OVC015
                      TEMPO 3106/3110 1500 -RASN BR BKN005 OVC010
                       BECMG 3111/3113 7000 NSW BKN015 OVC030=
201901310800 TAF LRCL 310800Z 3109/3118 26006KT 7000 BKN015 OVC030
                      TEMPO 3109/3113 3000 -RA BR BKN010 OVC020=
201901311100 TAF LRCL 311100Z 3112/3121 26006KT 9999 SCT015 OVC030
                      BECMG 3118/3120 5000 BR BKN015=
201901311400 TAF LRCL 311400Z 3115/3124 VRB04KT 9999 BKN015 OVC030
                      BECMG 3118/3120 5000 BR BKN010
                      TEMPO 3121/3124 1500 BR BKN005=
201901311700 TAF LRCL 311700Z 3118/0103 VRB04KT 9999 OVC015
                      BECMG 3118/3120 5000 BR BKN010
                      BECMG 3118/3120 1500 BR OVC005
                      TEMPO 3121/0103 0600=
201901312000 TAF LRCL 312000Z 3121/0106 VRB04KT 9999 OVC015
                      BECMG 3121/3123 3000 BR OVC010
                      PROB40 TEMPO 0100/0106 0600 FZFG OVC002=
201901312300 TAF LRCL 312300Z 0100/0109 VRB04KT 5000 BR OVC010
                      PROB30 TEMPO 0100/0106 0800 FZFG OVC002
                      BECMG 0107/0109 9999 NSW BKN020=
