201902010200 TAF LRCL 010200Z 0103/0112 VRB04KT 5000 BR OVC015
                      PROB30 TEMPO 0103/0106 0800 FZFG OVC002
                      BECMG 0107/0109 9999 NSW BKN020=
201902010500 TAF LRCL 010500Z 0106/0115 13006KT 5000 BR BKN010 OVC020
                      BECMG 0106/0108 9999 SCT010 BKN025=
201902010800 TAF LRCL 010800Z 0109/0118 12010KT 9999 BKN020
                      TEMPO 0109/0111 5000 BR BKN010=
201902011100 TAF LRCL 011100Z 0112/0121 10010KT 9999 BKN035=
201902011400 TAF LRCL 011400Z 0115/0124 11008KT 9999 BKN040=
201902011700 TAF LRCL 011700Z 0118/0203 06006KT CAVOK=
201902012000 TAF LRCL 012000Z 0121/0206 07007KT CAVOK
                      PROB30 TEMPO 0200/0206 3000 BR=
201902012300 TAF LRCL 012300Z 0200/0209 08007KT CAVOK
                      PROB30 TEMPO 0201/0206 3000 BR=
201902020200 TAF LRCL 020200Z 0203/0212 08007KT CAVOK
                      TEMPO 0203/0206 5000 -RA BR BKN015=
201902020500 TAF LRCL 020500Z 0206/0215 10012KT CAVOK=
201902020800 TAF LRCL 020800Z 0209/0218 12012KT CAVOK=
201902021100 TAF LRCL 021100Z 0212/0221 07008KT CAVOK=
201902021400 TAF LRCL 021400Z 0215/0224 07008KT CAVOK=
201902021700 TAF LRCL 021700Z 0218/0303 08008KT CAVOK
                      TEMPO 0300/0303 3000 BR=
201902022000 TAF LRCL 022000Z 0221/0306 VRB04KT CAVOK
                      TEMPO 0301/0305 3000 BR BKN010=
201902022300 TAF LRCL 022300Z 0300/0309 08008KT CAVOK
                      PROB40 TEMPO 0302/0306 5000 BR BKN010=
201902030200 TAF LRCL 030200Z 0303/0312 06006KT CAVOK
                      TEMPO 0303/0306 3000 BR=
201902030500 TAF LRCL 030500Z 0306/0315 08008KT CAVOK=
201902030800 TAF LRCL 030800Z 0309/0318 08008KT CAVOK=
201902031100 TAF LRCL 031100Z 0312/0321 08008KT CAVOK=
201902031400 TAF LRCL 031400Z 0315/0324 08008KT CAVOK=
201902031700 TAF LRCL 031700Z 0318/0403 08008KT CAVOK
                      TEMPO 0400/0403 3000 BR=
201902032000 TAF LRCL 032000Z 0321/0406 VRB04KT CAVOK
                      PROB30 TEMPO 0401/0406 3000 BR=
201902032300 TAF LRCL 032300Z 0400/0409 VRB04KT CAVOK
                      PROB30 TEMPO 0401/0406 3000 BR=
201902040200 TAF LRCL 040200Z 0403/0412 VRB04KT CAVOK
                      PROB30 TEMPO 0403/0406 3000 BR=
201902040500 TAF LRCL 040500Z 0406/0415 VRB03KT CAVOK
                      TEMPO 0411/0414 5000 -RA BR BKN015 BKN040=
201902040800 TAF LRCL 040800Z 0409/0418 VRB03KT CAVOK
                      PROB30 TEMPO 0411/0414 5000 -RA BR BKN015
                       BKN040
                      BECMG 0416/0418 3000 BR BKN010=
201902041100 TAF LRCL 041100Z 0412/0421 VRB03KT CAVOK
                      BECMG 0416/0418 3000 BR BKN010=
201902041400 TAF LRCL 041400Z 0415/0424 34010KT CAVOK
                      BECMG 0415/0417 VRB04KT
                      BECMG 0418/0420 3000 BR BKN010=
201902041700 TAF LRCL 041700Z 0418/0503 27006KT 9999 BKN010
                      BECMG 0420/0422 3000 BR
                      TEMPO 0422/0503 1500 BR BKN005=
201902042000 TAF LRCL 042000Z 0421/0506 27005KT 5000 BR BKN010
                      BECMG 0421/0423 3000 BR
                      TEMPO 0423/0506 1500 BR BKN005=
201902042300 TAF LRCL 042300Z 0500/0509 27006KT 5000 BR BKN010
                      TEMPO 0500/0508 1500 BR BKN005=
201902050200 TAF LRCL 050200Z 0503/0512 VRB04KT 7000 OVC010
                      TEMPO 0503/0506 3000 BR OVC005
                      TEMPO 0506/0509 3000 -RA BR=
201902050500 TAF LRCL 050500Z 0506/0515 VRB04KT 5000 -RA BR BKN010 OVC035
                      TEMPO 0506/0509 3000 -RA BR BKN005 OVC010
                       BECMG 0509/0511 9999 NSW BKN015=
201902050800 TAF LRCL 050800Z 0509/0518 VRB04KT 9999 SCT010 OVC035
                      TEMPO 0509/0512 5000 -RA BR BKN005 OVC020=
201902051100 TAF LRCL 051100Z 0512/0521 VRB04KT 9999 BKN045
                      BECMG 0513/0515 3000 BR BKN005 OVC010
                      BECMG 0518/0520 1500 BR OVC002=
201902051400 TAF LRCL 051400Z 0515/0524 VRB04KT 5000 BR BKN045
                      BECMG 0515/0517 3000 BR BKN005 OVC010
                      BECMG 0518/0520 1500 BR OVC002=
201902051700 TAF LRCL 051700Z 0518/0603 27006KT CAVOK
                      BECMG 0518/0520 5000 BR
                      TEMPO 0522/0603 3000 BR BKN010 BKN035=
201902051903 TAF AMD LRCL 051903Z 0519/0603 28008KT 7000 BKN005
                      BECMG 0519/0521 5000 BR
                      TEMPO 0522/0603 3000 BR=
201902052000 TAF LRCL 052000Z 0521/0606 28008KT 5000 BR BKN005
                      TEMPO 0522/0605 3000 BR=
201902052300 TAF LRCL 052300Z 0600/0609 30006KT 5000 BR BKN010
                      TEMPO 0600/0606 3000 BR BKN005
                      BECMG 0607/0609 9999 NSW SCT020=
201902060200 TAF LRCL 060200Z 0603/0612 VRB04KT 7000 BKN015
                      TEMPO 0603/0606 3000 BR BKN010
                      BECMG 0606/0608 SCT020=
201902060500 TAF LRCL 060500Z 0606/0615 31005KT 9999 SCT010 BKN030
                      TEMPO 0606/0609 BKN010 OVC030=
201902060800 TAF LRCL 060800Z 0609/0618 31008KT 9999 SCT030=
201902061100 TAF LRCL 061100Z 0612/0621 31008KT 9999 SCT030
                      BECMG 0617/0619 BKN015=
201902061400 TAF LRCL 061400Z 0615/0624 35010KT 9999 SCT020
                      BECMG 0617/0619 BKN015
                      BECMG 0621/0623 5000 BR BKN010=
201902061700 TAF LRCL 061700Z 0618/0703 VRB04KT 9999 SCT010 BKN025
                      PROB30 TEMPO 0622/0703 3000 -SN BKN005 OVC010=
201902062000 TAF LRCL 062000Z 0621/0706 VRB04KT 9999 BKN025
                      PROB30 TEMPO 0622/0703 3000 -SN BKN005 OVC010=
201902062300 TAF LRCL 062300Z 0700/0709 VRB04KT 9999 BKN025
                      PROB30 TEMPO 0700/0704 3000 -SN BR BKN005
                       OVC010=
201902070200 TAF LRCL 070200Z 0703/0712 VRB04KT 9999 BKN025=
201902070500 TAF LRCL 070500Z 0706/0715 09004KT 9999 SCT015 BKN030
                      TEMPO 0706/0708 5000 BR=
201902070800 TAF LRCL 070800Z 0709/0718 09005KT 9999 SCT025 BKN035=
201902071100 TAF LRCL 071100Z 0712/0721 09005KT 9999 BKN030=
201902071400 TAF LRCL 071400Z 0715/0724 09005KT 9999 SCT030=
201902071700 TAF LRCL 071700Z 0718/0803 VRB04KT 9999 SCT035
                      BECMG 0720/0722 3000 BR
                      BECMG 0722/0724 1500 BR
                      BECMG 0800/0802 0600 FZFG BKN002=
201902072000 TAF LRCL 072000Z 0721/0806 VRB04KT 9999 SCT035
                      BECMG 0722/0724 3000 BR
                      BECMG 0800/0802 1500 BR
                      TEMPO 0803/0806 0600 FZFG BKN002=
201902072300 TAF LRCL 072300Z 0800/0809 09005KT 7000 BKN035
                      BECMG 0800/0802 3000 BR BKN010
                      TEMPO 0802/0806 0800 FZFG BKN002
                      PROB40 0803/0806 0350=
201902080200 TAF LRCL 080200Z 0803/0812 VRB04KT 9999 BKN030
                      TEMPO 0803/0807 5000 BR=
201902080500 TAF LRCL 080500Z 0806/0815 VRB04KT 9999 OVC030=
201902080800 TAF LRCL 080800Z 0809/0818 VRB04KT 9999 OVC030=
201902081100 TAF LRCL 081100Z 0812/0821 VRB04KT 9999 OVC030=
201902081400 TAF LRCL 081400Z 0815/0824 VRB04KT 9999 OVC030=
201902081700 TAF LRCL 081700Z 0818/0903 VRB04KT 9999 OVC035=
201902082000 TAF LRCL 082000Z 0821/0906 VRB04KT 9999 OVC030=
201902082300 TAF LRCL 082300Z 0900/0909 VRB04KT 9999 OVC030=
201902090200 TAF LRCL 090200Z 0903/0912 VRB04KT 9999 OVC030=
201902090500 TAF LRCL 090500Z 0906/0915 VRB04KT 9999 OVC035=
201902090800 TAF LRCL 090800Z 0909/0918 VRB04KT 9999 OVC035=
201902091100 TAF LRCL 091100Z 0912/0921 VRB04KT 9999 OVC035=
201902091400 TAF LRCL 091400Z 0915/0924 VRB04KT 9999 BKN035=
201902091700 TAF LRCL 091700Z 0918/1003 VRB04KT CAVOK
                      TEMPO 1000/1003 3000 BR=
201902092000 TAF LRCL 092000Z 0921/1006 VRB04KT CAVOK
                      TEMPO 1000/1005 3000 BR=
201902092300 TAF LRCL 092300Z 1000/1009 VRB04KT CAVOK
                      TEMPO 1001/1005 3000 BR=
201902100200 TAF LRCL 100200Z 1003/1012 VRB04KT CAVOK
                      PROB30 TEMPO 1003/1006 3000 BR=
201902100500 TAF LRCL 100500Z 1006/1015 VRB04KT 5000 BR NSC
                      TEMPO 1006/1007 3000 BR
                      BECMG 1007/1009 CAVOK=
201902100800 TAF LRCL 100800Z 1009/1018 VRB04KT 5000 BR NSC
                      BECMG 1009/1011 CAVOK=
201902101100 TAF LRCL 101100Z 1012/1021 11008KT CAVOK
                      BECMG 1018/1020 5000 BR=
201902101400 TAF LRCL 101400Z 1015/1024 13008KT CAVOK
                      BECMG 1019/1021 5000 BR=
201902101700 TAF LRCL 101700Z 1018/1103 VRB04KT CAVOK
                      BECMG 1019/1021 5000 BR
                      TEMPO 1021/1103 3000 BR BKN005=
201902102000 TAF LRCL 102000Z 1021/1106 VRB04KT 5000 BR NSC
                      TEMPO 1023/1104 1500 BR BKN005
                      BECMG 1104/1106 9999 NSW=
201902102300 TAF LRCL 102300Z 1100/1109 VRB04KT 5000 BR NSC
                      TEMPO 1100/1104 1500 BR BKN005
                      BECMG 1104/1106 9999 NSW=
201902110200 TAF LRCL 110200Z 1103/1112 VRB04KT 5000 BR NSC
                      TEMPO 1103/1105 1500 BR BKN005
                      BECMG 1105/1107 9999 NSW=
201902110500 TAF LRCL 110500Z 1106/1115 VRB04KT CAVOK
                      BECMG 1113/1115 5000 -RA BR BKN015 OVC040=
201902110800 TAF LRCL 110800Z 1109/1118 VRB04KT CAVOK
                      BECMG 1113/1115 5000 -RA BR BKN015 OVC040
                       TEMPO 1116/1118 3000 RA BR BKN010 OVC035=
201902111100 TAF LRCL 111100Z 1112/1121 VRB04KT CAVOK
                      TEMPO 1114/1116 5000 -RA BR BKN015 OVC040
                       TEMPO 1116/1118 3000 -SN BR BKN010 OVC035
                       TEMPO 1118/1121 1500 SN BR BKN005 OVC020=
201902111400 TAF LRCL 111400Z 1115/1124 VRB04KT 7000 -RA BKN055
                      TEMPO 1115/1118 5000 -RA BR BKN015 OVC040
                       TEMPO 1118/1120 3000 -SN BR BKN010 OVC035
                       TEMPO 1120/1123 1500 SN BR BKN005 OVC020
                       BECMG 1122/1124 31012KT=
201902111700 TAF LRCL 111700Z 1118/1203 VRB04KT 8000 -RA SCT020 BKN055
                      BECMG 1119/1121 5000 -RASN BR BKN015 OVC040
                       BECMG 1121/1123 31012KT 3000 -SN BR BKN010
                       OVC035
                      TEMPO 1123/1203 1500 SN BR BKN005 OVC020=
201902112000 TAF LRCL 112000Z 1121/1206 30011KT 9999 -RA BKN015 BKN040
                      BECMG 1121/1123 5000 -RASN BKN010 OVC035
                       BECMG 1123/1201 3000 -SN
                      TEMPO 1201/1204 1500 SN BKN005 OVC020
                      BECMG 1204/1206 5000 BR BKN015 BKN040=
201902112300 TAF LRCL 112300Z 1200/1209 28014KT 5000 -RA BKN015 OVC035
                      TEMPO 1200/1203 1500 SN BKN005 OVC020
                      BECMG 1205/1207 5000 BR BKN015 BKN040
                      BECMG 1207/1209 9999 NSW BKN020 BKN050=
201902120200 TAF LRCL 120200Z 1203/1212 31014KT 9999 -RA OVC030
                      TEMPO 1203/1207 5000 -SNRA BKN010 OVC020
                       BECMG 1208/1210 NSW=
201902120500 TAF LRCL 120500Z 1206/1215 31014KT 9999 OVC025
                      TEMPO 1206/1208 5000 -SNRA BKN015 OVC020=
201902120800 TAF LRCL 120800Z 1209/1218 30014KT 9999 OVC040=
201902121100 TAF LRCL 121100Z 1212/1221 30016KT 9999 BKN060
                      PROB40 TEMPO 1212/1215 5000 -RA -RASN BKN010
                       OVC040=
201902121328 TAF AMD LRCL 121328Z 1213/1221 30016KT 9999 BKN060
                      TEMPO 1213/1215 3000 SHSN BKN010 SCT020CB
                       OVC050=
201902121400 TAF LRCL 121400Z 1215/1224 30016KT 9999 SCT040 BKN060=
201902121700 TAF LRCL 121700Z 1218/1303 30010KT 9999 SCT045=
201902122000 TAF LRCL 122000Z 1221/1306 30012KT CAVOK=
201902122300 TAF LRCL 122300Z 1300/1309 30012KT CAVOK=
201902130200 TAF LRCL 130200Z 1303/1312 30012KT CAVOK=
201902130500 TAF LRCL 130500Z 1306/1315 30012KT CAVOK
                      TEMPO 1306/1308 BKN010=
201902130800 TAF LRCL 130800Z 1309/1318 28010KT 9999 SCT025
                      BECMG 1313/1315 VRB04KT=
201902131100 TAF LRCL 131100Z 1312/1321 31014KT 9999 SCT030
                      BECMG 1314/1316 VRB04KT=
201902131400 TAF LRCL 131400Z 1315/1324 31008KT CAVOK=
201902131700 TAF LRCL 131700Z 1318/1403 VRB04KT CAVOK=
201902132000 TAF LRCL 132000Z 1321/1406 VRB04KT 9999 BKN050=
201902132300 TAF LRCL 132300Z 1400/1409 VRB04KT 9999 BKN045=
201902140200 TAF LRCL 140200Z 1403/1412 VRB04KT 9999 BKN050
                      PROB40 TEMPO 1408/1412 5000 -SN BKN015 BKN050
                       BECMG 1410/1412 32010KT=
201902140500 TAF LRCL 140500Z 1406/1415 VRB04KT 9999 BKN030
                      BECMG 1409/1411 32010KT=
201902140800 TAF LRCL 140800Z 1409/1418 VRB04KT 9999 BKN025
                      BECMG 1410/1412 32010KT BKN010 BKN020=
201902141100 TAF LRCL 141100Z 1412/1421 30012KT 9999 SCT015 BKN045
                      TEMPO 1413/1418 5000 -SN BKN010 BKN030
                      BECMG 1419/1421 VRB04KT=
201902141400 TAF LRCL 141400Z 1415/1424 30012KT 9999 BKN045
                      TEMPO 1415/1419 5000 -SN BKN010 BKN030
                      BECMG 1419/1421 VRB04KT BKN010 BKN030=
201902141700 TAF LRCL 141700Z 1418/1503 30006KT 9999 SCT045
                      BECMG 1420/1422 5000 BR BKN015
                      PROB30 TEMPO 1423/1503 1500 BR=
201902142000 TAF LRCL 142000Z 1421/1506 30006KT 9999 BKN045
                      TEMPO 1423/1506 3000 BR=
201902142300 TAF LRCL 142300Z 1500/1509 30006KT 9999 BKN045
                      TEMPO 1500/1506 3000 BR=
201902150200 TAF LRCL 150200Z 1503/1512 32008KT 9999 BKN030
                      TEMPO 1503/1506 3000 BR BKN010=
201902150500 TAF LRCL 150500Z 1506/1515 VRB04KT 9999 SCT060
                      PROB40 TEMPO 1506/1507 5000 BR=
201902150800 TAF LRCL 150800Z 1509/1518 26005KT CAVOK=
201902151100 TAF LRCL 151100Z 1512/1521 VRB04KT 9999 SCT035=
201902151400 TAF LRCL 151400Z 1515/1524 VRB03KT 9999 BKN045=
201902151700 TAF LRCL 151700Z 1518/1603 VRB03KT CAVOK=
201902152000 TAF LRCL 152000Z 1521/1606 VRB03KT CAVOK=
201902152300 TAF LRCL 152300Z 1600/1609 VRB03KT CAVOK=
201902160200 TAF LRCL 160200Z 1603/1612 28005KT CAVOK=
201902160500 TAF LRCL 160500Z 1606/1615 VRB04KT CAVOK
                      TEMPO 1606/1608 5000 BR=
201902160800 TAF LRCL 160800Z 1609/1618 VRB04KT CAVOK=
201902161100 TAF LRCL 161100Z 1612/1621 VRB04KT CAVOK=
201902161400 TAF LRCL 161400Z 1615/1624 VRB04KT CAVOK
                      BECMG 1620/1622 5000 BR=
201902161700 TAF LRCL 161700Z 1618/1703 VRB04KT CAVOK
                      BECMG 1619/1621 5000 BR
                      TEMPO 1700/1703 3000 BR=
201902162000 TAF LRCL 162000Z 1621/1706 VRB04KT 7000 NSC
                      BECMG 1621/1623 5000 BR
                      TEMPO 1701/1706 3000 BR=
201902162300 TAF LRCL 162300Z 1700/1709 VRB04KT 1500 BR NSC
                      BECMG 1700/1702 0600=
201902170200 TAF LRCL 170200Z 1703/1712 VRB03KT 0800 FZFG NSC
                      TEMPO 1703/1706 0350 FZFG BKN001
                      BECMG 1707/1709 3000 BR SCT005
                      BECMG 1709/1711 7000 NSW=
201902170500 TAF LRCL 170500Z 1706/1715 VRB04KT 0150 FZFG VV001
                      BECMG 1706/1708 0800 BKN002
                      BECMG 1709/1711 3000 BR SCT010
                      BECMG 1711/1713 5000=
201902170800 TAF LRCL 170800Z 1709/1718 VRB04KT 0150 FZFG VV001
                      BECMG 1709/1711 0800 BKN002
                      BECMG 1711/1713 3000 BR SCT010
                      TEMPO 1713/1716 5000
                      BECMG 1716/1718 0800 FZFG BKN002=
201902171100 TAF LRCL 171100Z 1712/1721 VRB04KT 7000 NSC
                      BECMG 1716/1718 3000 BR
                      BECMG 1718/1720 0800 FZFG BKN002=
201902171400 TAF LRCL 171400Z 1715/1724 VRB04KT CAVOK
                      BECMG 1717/1719 3000 BR
                      BECMG 1720/1722 0800 FZFG BKN002=
201902171700 TAF LRCL 171700Z 1718/1803 VRB04KT CAVOK
                      BECMG 1720/1722 3000 BR BKN005
                      BECMG 1722/1724 0800 FZFG BKN003
                      TEMPO 1800/1803 0350=
201902172000 TAF LRCL 172000Z 1721/1806 VRB04KT 3000 BR NSC
                      BECMG 1721/1723 0800=
201902172300 TAF LRCL 172300Z 1800/1809 VRB04KT 1500 BR NSC
                      BECMG 1800/1802 0800=
201902180200 TAF LRCL 180200Z 1803/1812 VRB04KT 0600 FZFG NSC
                      TEMPO 1803/1806 0150 FZFG VV001
                      BECMG 1807/1809 3000 BR SCT005
                      BECMG 1809/1811 CAVOK=
201902180500 TAF LRCL 180500Z 1806/1815 VRB04KT 0150 FZFG VV001
                      BECMG 1807/1809 0800 BKN002
                      BECMG 1809/1811 3000 BR NSC
                      BECMG 1811/1812 9999 NSW=
201902180800 TAF LRCL 180800Z 1809/1818 VRB04KT 0150 FZFG VV001
                      BECMG 1809/1811 0800 BKN002
                      BECMG 1811/1812 3000 BR NSC
                      BECMG 1812/1813 9999 NSW=
201902181100 TAF LRCL 181100Z 1812/1821 VRB04KT 0800 FG OVC002
                      BECMG 1812/1814 3000 BR NSC
                      BECMG 1814/1815 9999 NSW
                      BECMG 1817/1819 5000 BR
                      BECMG 1819/1821 1500 BR=
201902181400 TAF LRCL 181400Z 1815/1824 VRB04KT CAVOK
                      BECMG 1817/1819 5000 BR
                      BECMG 1819/1821 1500 BR
                      BECMG 1822/1824 0600 FZFG BKN002=
201902181700 TAF LRCL 181700Z 1818/1903 VRB04KT 5000 BR NSC
                      BECMG 1821/1823 1500 BR
                      BECMG 1900/1902 0600 FZFG BKN002=
201902182000 TAF LRCL 182000Z 1821/1906 VRB04KT 0600 FZFG BKN002
                      BECMG 1821/1823 0150 FZFG VV001=
201902182300 TAF LRCL 182300Z 1900/1909 VRB04KT 0350 FZFG VV001
                      TEMPO 1900/1905 0150 FZFG
                      BECMG 1906/1908 0800 FZFG OVC002=
201902190200 TAF LRCL 190200Z 1903/1912 VRB04KT 0150 FZFG VV001
                      BECMG 1906/1908 0800 FZFG OVC002
                      BECMG 1908/1910 1500 BR BKN005
                      BECMG 1910/1912 5000 NSC=
201902190500 TAF LRCL 190500Z 1906/1915 VRB03KT 0200 FZFG VV001
                      BECMG 1906/1908 0800 OVC002
                      BECMG 1908/1910 1500 BR BKN005
                      BECMG 1910/1912 5000 SCT010=
201902190800 TAF LRCL 190800Z 1909/1918 VRB03KT 0400 FZFG VV002
                      BECMG 1909/1911 0800 BKN003
                      PROB40 1911/1915 3000 SCT010=
201902191012 TAF AMD LRCL 191012Z 1910/1918 VRB03KT 0200 FZFG VV001
                      BECMG 1911/1913 0800 FG BKN002
                      PROB30 TEMPO 1913/1915 3000 SCT010
                      BECMG 1916/1918 0200 FZFG OVC001=
201902191100 TAF LRCL 191100Z 1912/1921 VRB03KT 1500 BR BKN002
                      TEMPO 1912/1915 5000 SCT010
                      BECMG 1916/1918 0800 FZFG
                      BECMG 1919/1921 0300 FZFG OVC001=
201902191400 TAF LRCL 191400Z 1915/1924 VRB03KT CAVOK
                      BECMG 1916/1918 3000 BR BKN005
                      BECMG 1919/1921 0800 FZFG OVC002
                      BECMG 1921/1923 0200=
201902191700 TAF LRCL 191700Z 1918/2003 VRB04KT 5000 BR NSC
                      BECMG 1918/1920 1500 BR BKN005
                      BECMG 1920/1922 0800 FZFG OVC002
                      TEMPO 1923/2003 0300=
201902192000 TAF LRCL 192000Z 1921/2006 VRB04KT 3000 BR NSC
                      BECMG 1921/1923 0800=
201902192300 TAF LRCL 192300Z 2000/2009 VRB04KT 1500 BR NSC
                      BECMG 2000/2002 0600=
201902200200 TAF LRCL 200200Z 2003/2012 VRB04KT 0800 FZFG VV002
                      TEMPO 2003/2006 0350 FZFG VV001
                      BECMG 2006/2008 1500 BR BKN005
                      BECMG 2008/2010 5000 NSC=
201902200500 TAF LRCL 200500Z 2006/2015 VRB04KT 0600 FZFG NSC
                      TEMPO 2006/2008 0150 FZFG VV001
                      BECMG 2008/2009 1500 BR
                      BECMG 2009/2011 5000=
201902200800 TAF LRCL 200800Z 2009/2018 26005KT 0800 FZFG NSC
                      BECMG 2009/2010 1500 BR
                      BECMG 2010/2011 5000=
201902201100 TAF LRCL 201100Z 2012/2021 VRB04KT 9999 SCT045
                      BECMG 2018/2020 3000 BR=
201902201400 TAF LRCL 201400Z 2015/2024 31012KT 9999 SCT045
                      BECMG 2018/2020 24005KT 3000 BR=
201902201700 TAF LRCL 201700Z 2018/2103 33010KT 9999 SCT045
                      BECMG 2019/2021 26005KT
                      TEMPO 2100/2103 5000 BR=
201902202000 TAF LRCL 202000Z 2021/2106 26007KT 9999 BKN045
                      PROB30 TEMPO 2101/2106 5000 BR=
201902202300 TAF LRCL 202300Z 2100/2109 28007KT 9999 SCT055=
201902210200 TAF LRCL 210200Z 2103/2112 28007KT 9999 BKN060=
201902210500 TAF LRCL 210500Z 2106/2115 28008KT 9999 BKN060=
201902210800 TAF LRCL 210800Z 2109/2118 28010KT 9999 OVC035=
201902211100 TAF LRCL 211100Z 2112/2121 32010KT 9999 OVC035=
201902211400 TAF LRCL 211400Z 2115/2124 30010KT 9999 BKN035=
201902211700 TAF LRCL 211700Z 2118/2203 32006KT CAVOK
                      BECMG 2123/2201 5000 -RA BKN015 OVC035
                      TEMPO 2201/2203 3000 RASN BKN010 OVC020=
201902212000 TAF LRCL 212000Z 2121/2206 VRB04KT CAVOK
                      PROB30 TEMPO 2200/2202 5000 -FZRA BKN010
                       OVC030
                      BECMG 2202/2204 1500 SN BKN005 OVC020=
201902212300 TAF LRCL 212300Z 2200/2209 VRB04KT CAVOK
                      TEMPO 2200/2202 5000 -RASN BKN010 OVC030
                       BECMG 2202/2204 1500 SN BKN005 OVC020
                      BECMG 2206/2208 3000 -SN=
201902220200 TAF LRCL 220200Z 2203/2212 VRB04KT 9999 -RASN OVC030
                      BECMG 2203/2205 5000 -SN BKN010 OVC020
                      TEMPO 2205/2209 3000 SN BKN005 OVC020
                      BECMG 2209/2211 32012KT 7000 -RA=
201902220500 TAF LRCL 220500Z 2206/2215 VRB04KT 3000 -SN BR BKN005 OVC010
                      TEMPO 2206/2209 1500 SN
                      BECMG 2209/2211 34010KT 5000 -RA BKN015 BKN035
                       BECMG 2213/2215 06010KT 9999 NSW BKN040=
201902220800 TAF LRCL 220800Z 2209/2218 VRB04KT 3000 -RA BR BKN005 OVC010
                      BECMG 2210/2212 5000 BKN015 BKN035
                      BECMG 2213/2215 06010KT 9999 NSW BKN040=
201902221100 TAF LRCL 221100Z 2212/2221 32008KT 9999 BKN010 OVC030
                      BECMG 2213/2215 06010KT BKN030=
201902221400 TAF LRCL 221400Z 2215/2224 35014KT 9999 BKN015 OVC030
                      BECMG 2215/2217 06010KT BKN030
                      BECMG 2219/2221 VRB04KT=
201902221700 TAF LRCL 221700Z 2218/2303 35014KT 9999 BKN035
                      BECMG 2220/2222 VRB04KT=
201902222000 TAF LRCL 222000Z 2221/2306 02012KT CAVOK
                      BECMG 2222/2224 VRB04KT=
201902222300 TAF LRCL 222300Z 2300/2309 VRB04KT CAVOK=
201902230200 TAF LRCL 230200Z 2303/2312 VRB04KT CAVOK=
201902230500 TAF LRCL 230500Z 2306/2315 25008KT CAVOK=
201902230800 TAF LRCL 230800Z 2309/2318 34008KT CAVOK=
201902231100 TAF LRCL 231100Z 2312/2321 VRB04KT CAVOK=
201902231400 TAF LRCL 231400Z 2315/2324 VRB04KT CAVOK=
201902231700 TAF LRCL 231700Z 2318/2403 33006KT CAVOK=
201902232000 TAF LRCL 232000Z 2321/2406 VRB04KT CAVOK=
201902232300 TAF LRCL 232300Z 2400/2409 VRB03KT CAVOK=
201902240200 TAF LRCL 240200Z 2403/2412 VRB03KT CAVOK=
201902240500 TAF LRCL 240500Z 2406/2415 VRB04KT CAVOK=
201902240800 TAF LRCL 240800Z 2409/2418 VRB04KT CAVOK=
201902241100 TAF LRCL 241100Z 2412/2421 VRB04KT CAVOK=
201902241400 TAF LRCL 241400Z 2415/2424 VRB04KT 9999 BKN055=
201902241700 TAF LRCL 241700Z 2418/2503 VRB04KT 9999 BKN055=
201902242000 TAF LRCL 242000Z 2421/2506 VRB04KT 9999 BKN045=
201902242300 TAF LRCL 242300Z 2500/2509 VRB04KT 9999 BKN040=
201902250200 TAF LRCL 250200Z 2503/2512 VRB04KT 9999 BKN040=
201902250500 TAF LRCL 250500Z 2506/2515 VRB04KT 9999 BKN035=
201902250800 TAF LRCL 250800Z 2509/2518 VRB04KT CAVOK=
201902251100 TAF LRCL 251100Z 2512/2521 VRB04KT CAVOK=
201902251400 TAF LRCL 251400Z 2515/2524 VRB04KT CAVOK=
201902251700 TAF LRCL 251700Z 2518/2603 33006KT CAVOK=
201902252000 TAF LRCL 252000Z 2521/2606 27006KT CAVOK=
201902252300 TAF LRCL 252300Z 2600/2609 VRB04KT CAVOK=
201902260200 TAF LRCL 260200Z 2603/2612 VRB04KT CAVOK=
201902260500 TAF LRCL 260500Z 2606/2615 VRB04KT CAVOK
                      BECMG 2610/2612 32010KT=
201902260800 TAF LRCL 260800Z 2609/2618 VRB04KT CAVOK
                      BECMG 2610/2612 32012KT=
201902261100 TAF LRCL 261100Z 2612/2621 VRB04KT 9999 SCT045
                      BECMG 2612/2614 32012KT
                      TEMPO 2614/2618 32015G25KT=
201902261400 TAF LRCL 261400Z 2615/2624 32015KT 9999 SCT045
                      TEMPO 2615/2618 32020G30KT
                      BECMG 2622/2624 32005KT=
201902261700 TAF LRCL 261700Z 2618/2703 30015KT 9999 SCT045
                      BECMG 2700/2702 32005KT=
201902262000 TAF LRCL 262000Z 2621/2706 32014KT CAVOK=
201902262300 TAF LRCL 262300Z 2700/2709 30012KT 9999 BKN030=
201902270200 TAF LRCL 270200Z 2703/2712 30012KT CAVOK=
201902270500 TAF LRCL 270500Z 2706/2715 VRB04KT CAVOK
                      BECMG 2707/2709 32010KT=
201902270800 TAF LRCL 270800Z 2709/2718 32008KT CAVOK=
201902271100 TAF LRCL 271100Z 2712/2721 32010KT CAVOK
                      BECMG 2716/2718 VRB04KT=
201902271400 TAF LRCL 271400Z 2715/2724 32012KT CAVOK
                      BECMG 2717/2719 VRB04KT=
201902271700 TAF LRCL 271700Z 2718/2803 32008KT 9999 SCT045=
201902272000 TAF LRCL 272000Z 2721/2806 VRB04KT CAVOK=
201902272300 TAF LRCL 272300Z 2800/2809 29008KT CAVOK=
201902280200 TAF LRCL 280200Z 2803/2812 VRB04KT CAVOK=
201902280500 TAF LRCL 280500Z 2806/2815 VRB04KT CAVOK=
201902280800 TAF LRCL 280800Z 2809/2818 VRB04KT CAVOK=
201902281100 TAF LRCL 281100Z 2812/2821 12005KT CAVOK=
201902281359 TAF AMD LRCL 281359Z 2813/2821 29016KT CAVOK
                      BECMG 2815/2817 VRB04KT=
201902281400 TAF LRCL 281400Z 2815/2824 29018KT CAVOK
                      TEMPO 2815/2818 29018G28KT
                      BECMG 2820/2822 29008KT=
201902281700 TAF LRCL 281700Z 2818/0103 VRB04KT CAVOK=
201902282000 TAF LRCL 282000Z 2821/0106 VRB04KT CAVOK=
201902282300 TAF LRCL 282300Z 0100/0109 29006KT CAVOK=