201904010000 METAR LRCL 010000Z 28009KT CAVOK 06/M01 Q1016=
201904010030 METAR LRCL 010030Z AUTO 27007KT 9999 NCD 06/M02 Q1016=
201904010100 METAR LRCL 010100Z 27007KT CAVOK 06/M02 Q1016=
201904010130 METAR LRCL 010130Z 28007KT CAVOK 06/M02 Q1016=
201904010200 METAR LRCL 010200Z 28006KT CAVOK 05/M02 Q1016=
201904010230 METAR LRCL 010230Z 25004KT CAVOK 04/M02 Q1016=
201904010300 METAR LRCL 010300Z 26004KT CAVOK 03/M03 Q1016=
201904010330 METAR LRCL 010330Z 26006KT CAVOK 03/M03 Q1017=
201904010400 METAR LRCL 010400Z 25005KT CAVOK 03/M03 Q1017=
201904010430 METAR LRCL 010430Z 25004KT CAVOK 03/M03 Q1017=
201904010500 METAR LRCL 010500Z 24003KT CAVOK 03/M02 Q1017=
201904010530 METAR LRCL 010530Z 24004KT CAVOK 05/M01 Q1018=
201904010600 METAR LRCL 010600Z 26004KT CAVOK 07/M02 Q1018=
201904010630 METAR LRCL 010630Z 27003KT 230V320 CAVOK 09/M01 Q1018=
201904010700 METAR LRCL 010700Z VRB01KT CAVOK 11/M01 Q1018=
201904010730 METAR LRCL 010730Z VRB02KT CAVOK 12/M00 Q1018=
201904010800 METAR LRCL 010800Z 08003KT 350V140 CAVOK 14/M01 Q1018=
201904010830 METAR LRCL 010830Z 04004KT 350V090 CAVOK 14/00 Q1018=
201904010900 METAR LRCL 010900Z 06004KT 330V110 CAVOK 17/01 Q1018=
201904010930 METAR LRCL 010930Z 12008KT CAVOK 17/M00 Q1018=
201904011000 METAR LRCL 011000Z 10008KT 050V150 CAVOK 18/M00 Q1017=
201904011030 METAR LRCL 011030Z 12007KT 070V150 CAVOK 19/M02 Q1017=
201904011100 METAR LRCL 011100Z 16007KT 090V200 CAVOK 20/M01 Q1017=
201904011130 METAR LRCL 011130Z 15008KT 110V200 CAVOK 19/M01 Q1017=
201904011200 METAR LRCL 011200Z 11005G16KT 070V160 CAVOK 20/M00 Q1016=
201904011230 METAR LRCL 011230Z 12005KT 080V170 9999 FEW045 20/M02 Q1016=
201904011300 METAR LRCL 011300Z 14008KT 9999 FEW045 20/M01 Q1016=
201904011330 METAR LRCL 011330Z 08005KT 030V150 9999 FEW045 20/M01 Q1015=
201904011400 METAR LRCL 011400Z 09006KT 060V120 9999 FEW045 20/M01 Q1015=
201904011430 METAR LRCL 011430Z 18003KT 120V240 9999 FEW045 21/M02 Q1015=
201904011500 METAR LRCL 011500Z 01004KT 330V110 9999 FEW045 20/M02 Q1015=
201904011530 METAR LRCL 011530Z 03003KT 330V080 9999 FEW055 20/M02 Q1015=
201904011600 METAR LRCL 011600Z 02005KT 9999 SCT060 19/M01 Q1015=
201904011630 METAR LRCL 011630Z 35004KT CAVOK 17/00 Q1015=
201904011700 METAR LRCL 011700Z 01004KT 340V050 CAVOK 16/00 Q1015=
201904011730 METAR LRCL 011730Z 06005KT CAVOK 16/00 Q1015=
201904011800 METAR LRCL 011800Z 36004KT CAVOK 15/01 Q1016=
201904011830 METAR LRCL 011830Z 02007KT CAVOK 14/01 Q1017=
201904011900 METAR LRCL 011900Z 03007KT CAVOK 13/01 Q1017=
201904011930 METAR LRCL 011930Z 02008KT CAVOK 11/01 Q1018=
201904012000 METAR LRCL 012000Z 03006KT 350V050 CAVOK 11/01 Q1018=
201904012030 METAR LRCL 012030Z 09004KT CAVOK 09/01 Q1019=
201904012100 METAR LRCL 012100Z 08003KT CAVOK 09/00 Q1019=
201904012130 METAR LRCL 012130Z 08005KT CAVOK 08/M00 Q1020=
201904012200 METAR LRCL 012200Z 07004KT CAVOK 08/M01 Q1020=
201904012230 METAR LRCL 012230Z 07003KT CAVOK 07/M01 Q1020=
201904012300 METAR LRCL 012300Z 07002KT CAVOK 08/00 Q1020=
201904012330 METAR LRCL 012330Z VRB02KT CAVOK 07/M00 Q1020=
201904020000 METAR LRCL 020000Z 00000KT CAVOK 07/M00 Q1020=
201904020030 METAR LRCL 020030Z VRB02KT CAVOK 06/00 Q1020=
201904020100 METAR LRCL 020100Z 00000KT CAVOK 04/00 Q1020=
201904020130 METAR LRCL 020130Z 07003KT CAVOK 04/M01 Q1020=
201904020200 METAR LRCL 020200Z 06002KT CAVOK 04/M00 Q1020=
201904020230 METAR LRCL 020230Z 07005KT CAVOK 04/M01 Q1020=
201904020300 METAR LRCL 020300Z 07004KT CAVOK 05/M02 Q1020=
201904020330 METAR LRCL 020330Z 08004KT CAVOK 05/M02 Q1021=
201904020400 METAR LRCL 020400Z 07005KT CAVOK 05/M02 Q1021=
201904020430 METAR LRCL 020430Z 08004KT 060V130 CAVOK 05/M03 Q1021=
201904020500 METAR LRCL 020500Z 07004KT CAVOK 05/M03 Q1021=
201904020530 METAR LRCL 020530Z 07005KT 040V100 CAVOK 06/M03 Q1021=
201904020600 METAR LRCL 020600Z 08005KT 040V110 CAVOK 08/M03 Q1021=
201904020630 METAR LRCL 020630Z 09009KT CAVOK 09/M03 Q1021=
201904020700 METAR LRCL 020700Z 12009KT 090V150 CAVOK 10/M04 Q1021=
201904020730 METAR LRCL 020730Z 13013KT CAVOK 11/M04 Q1021=
201904020800 METAR LRCL 020800Z 13011KT CAVOK 11/M04 Q1021=
201904020830 METAR LRCL 020830Z 12013KT CAVOK 11/M04 Q1021=
201904020900 METAR LRCL 020900Z 11015KT CAVOK 12/M04 Q1021=
201904020930 METAR LRCL 020930Z 11014KT 080V150 CAVOK 13/M03 Q1021=
201904021000 METAR LRCL 021000Z 12013KT CAVOK 13/M03 Q1021=
201904021030 METAR LRCL 021030Z 10013KT 080V150 CAVOK 13/M02 Q1021=
201904021100 METAR LRCL 021100Z 12013G23KT 090V160 CAVOK 14/M03 Q1020=
201904021130 METAR LRCL 021130Z 12013KT 080V160 CAVOK 14/M03 Q1020=
201904021200 METAR LRCL 021200Z 12011KT 090V160 CAVOK 15/M02 Q1020=
201904021230 METAR LRCL 021230Z 12011KT 090V160 CAVOK 15/M02 Q1020=
201904021300 METAR LRCL 021300Z 12012KT 090V150 CAVOK 14/M03 Q1019=
201904021330 METAR LRCL 021330Z 11013KT CAVOK 14/M03 Q1019=
201904021400 METAR LRCL 021400Z 12012KT CAVOK 14/M03 Q1019=
201904021430 METAR LRCL 021430Z 11012KT CAVOK 14/M02 Q1019=
201904021500 METAR LRCL 021500Z 11013KT CAVOK 14/M03 Q1019=
201904021530 METAR LRCL 021530Z 13011KT CAVOK 13/M03 Q1019=
201904021600 METAR LRCL 021600Z 12012KT CAVOK 12/M03 Q1019=
201904021630 METAR LRCL 021630Z 12011KT CAVOK 12/M04 Q1019=
201904021700 METAR LRCL 021700Z 12010KT CAVOK 11/M05 Q1019=
201904021730 METAR LRCL 021730Z 13008KT CAVOK 10/M05 Q1019=
201904021800 METAR LRCL 021800Z 13005KT 090V180 CAVOK 09/M05 Q1020=
201904021830 METAR LRCL 021830Z 13006KT CAVOK 09/M05 Q1020=
201904021900 METAR LRCL 021900Z 14006KT CAVOK 09/M05 Q1020=
201904021930 METAR LRCL 021930Z 13004KT 100V270 CAVOK 09/M05 Q1020=
201904022000 METAR LRCL 022000Z 14007KT 110V170 CAVOK 09/M06 Q1020=
201904022030 METAR LRCL 022030Z 14007KT CAVOK 08/M06 Q1020=
201904022100 METAR LRCL 022100Z 14007KT CAVOK 08/M06 Q1020=
201904022130 METAR LRCL 022130Z 14007KT CAVOK 07/M06 Q1020=
201904022200 METAR LRCL 022200Z 12006KT CAVOK 06/M06 Q1020=
201904022230 METAR LRCL 022230Z 10005KT 080V140 CAVOK 06/M07 Q1020=
201904022300 METAR LRCL 022300Z 10005KT 070V130 CAVOK 06/M07 Q1020=
201904022330 METAR LRCL 022330Z VRB02KT CAVOK 05/M07 Q1020=
201904030000 METAR LRCL 030000Z 07003KT 050V120 CAVOK 04/M07 Q1019=
201904030030 METAR LRCL 030030Z 08005KT CAVOK 04/M06 Q1019=
201904030100 METAR LRCL 030100Z 08005KT CAVOK 04/M07 Q1019=
201904030130 METAR LRCL 030130Z 07005KT CAVOK 03/M07 Q1019=
201904030200 METAR LRCL 030200Z 07006KT CAVOK 03/M07 Q1019=
201904030230 METAR LRCL 030230Z 08005KT CAVOK 03/M07 Q1018=
201904030300 METAR LRCL 030300Z 06005KT CAVOK 04/M07 Q1018=
201904030330 METAR LRCL 030330Z 07005KT CAVOK 03/M06 Q1018=
201904030400 METAR LRCL 030400Z 07005KT CAVOK 02/M06 Q1018=
201904030430 METAR LRCL 030430Z 08005KT CAVOK 01/M06 Q1018=
201904030500 METAR LRCL 030500Z 09003KT CAVOK 03/M06 Q1018=
201904030530 METAR LRCL 030530Z 07004KT CAVOK 05/M07 Q1018=
201904030600 METAR LRCL 030600Z 07005KT CAVOK 06/M08 Q1018=
201904030630 METAR LRCL 030630Z 09006KT CAVOK 08/M07 Q1018=
201904030700 METAR LRCL 030700Z 12011KT CAVOK 09/M08 Q1018=
201904030730 METAR LRCL 030730Z 13012KT CAVOK 09/M09 Q1018=
201904030800 METAR LRCL 030800Z 12011KT CAVOK 10/M08 Q1018=
201904030830 METAR LRCL 030830Z 13013KT CAVOK 11/M07 Q1017=
201904030900 METAR LRCL 030900Z 11011KT CAVOK 12/M06 Q1017=
201904030930 METAR LRCL 030930Z 11011KT CAVOK 13/M05 Q1017=
201904031000 METAR LRCL 031000Z 13011KT CAVOK 14/M05 Q1016=
201904031030 METAR LRCL 031030Z 13009KT CAVOK 14/M04 Q1016=
201904031100 METAR LRCL 031100Z 14010KT CAVOK 15/M05 Q1016=
201904031130 METAR LRCL 031130Z 13011KT CAVOK 15/M04 Q1015=
201904031200 METAR LRCL 031200Z 14012KT CAVOK 16/M04 Q1015=
201904031230 METAR LRCL 031230Z 12012KT CAVOK 16/M03 Q1014=
201904031300 METAR LRCL 031300Z 12013KT CAVOK 16/M04 Q1014=
201904031330 METAR LRCL 031330Z 13012KT CAVOK 17/M04 Q1014=
201904031400 METAR LRCL 031400Z 12012KT CAVOK 16/M04 Q1013=
201904031430 METAR LRCL 031430Z 14010KT CAVOK 16/M04 Q1013=
201904031500 METAR LRCL 031500Z 15010KT CAVOK 16/M04 Q1013=
201904031530 METAR LRCL 031530Z 13010KT CAVOK 16/M04 Q1013=
201904031600 METAR LRCL 031600Z 13008KT CAVOK 16/M04 Q1013=
201904031630 METAR LRCL 031630Z 13007KT CAVOK 14/M04 Q1013=
201904031700 METAR LRCL 031700Z 13007KT CAVOK 13/M03 Q1013=
201904031730 METAR LRCL 031730Z 12007KT 110V170 CAVOK 12/M04 Q1013=
201904031800 METAR LRCL 031800Z 13007KT CAVOK 12/M04 Q1013=
201904031830 METAR LRCL 031830Z 13008KT CAVOK 12/M05 Q1013=
201904031900 METAR LRCL 031900Z 13007KT CAVOK 11/M05 Q1013=
201904031930 METAR LRCL 031930Z 11007KT 090V150 CAVOK 11/M05 Q1013=
201904032000 METAR LRCL 032000Z 11007KT CAVOK 10/M05 Q1013=
201904032030 METAR LRCL 032030Z 11006KT CAVOK 09/M05 Q1013=
201904032100 METAR LRCL 032100Z 08007KT 050V110 CAVOK 09/M05 Q1014=
201904032130 METAR LRCL 032130Z 05005KT 020V120 CAVOK 08/M05 Q1014=
201904032200 METAR LRCL 032200Z 05006KT CAVOK 08/M05 Q1014=
201904032230 METAR LRCL 032230Z 04005KT CAVOK 08/M06 Q1014=
201904032300 METAR LRCL 032300Z 07005KT 040V100 CAVOK 08/M06 Q1014=
201904032330 METAR LRCL 032330Z 07006KT CAVOK 07/M07 Q1014=
201904040000 METAR LRCL 040000Z 09007KT CAVOK 06/M07 Q1014=
201904040030 METAR LRCL 040030Z 10007KT CAVOK 06/M07 Q1014=
201904040100 METAR LRCL 040100Z 10008KT CAVOK 06/M07 Q1014=
201904040130 METAR LRCL 040130Z 09007KT CAVOK 06/M07 Q1014=
201904040200 METAR LRCL 040200Z 10006KT CAVOK 06/M07 Q1014=
201904040230 METAR LRCL 040230Z 08005KT 060V120 CAVOK 06/M07 Q1014=
201904040300 METAR LRCL 040300Z 07005KT CAVOK 05/M07 Q1014=
201904040330 METAR LRCL 040330Z 08007KT 060V120 CAVOK 06/M08 Q1014=
201904040400 METAR LRCL 040400Z 07005KT 040V100 CAVOK 05/M07 Q1014=
201904040430 METAR LRCL 040430Z 08006KT CAVOK 05/M07 Q1014=
201904040500 METAR LRCL 040500Z 08006KT CAVOK 04/M06 Q1014=
201904040530 METAR LRCL 040530Z 09008KT CAVOK 05/M06 Q1014=
201904040600 METAR LRCL 040600Z 09008KT CAVOK 06/M06 Q1014=
201904040630 METAR LRCL 040630Z 11009KT CAVOK 07/M05 Q1014=
201904040700 METAR LRCL 040700Z 13010KT 100V160 CAVOK 08/M06 Q1014=
201904040730 METAR LRCL 040730Z 13011KT CAVOK 09/M05 Q1014=
201904040800 METAR LRCL 040800Z 12011KT 080V140 CAVOK 10/M05 Q1014=
201904040830 METAR LRCL 040830Z 12010KT CAVOK 11/M05 Q1014=
201904040900 METAR LRCL 040900Z 13009KT 100V160 CAVOK 12/M04 Q1013=
201904040930 METAR LRCL 040930Z 12009KT CAVOK 13/M04 Q1013=
201904041000 METAR LRCL 041000Z 14010KT CAVOK 14/M03 Q1013=
201904041030 METAR LRCL 041030Z 13011KT 100V160 CAVOK 14/M04 Q1012=
201904041100 METAR LRCL 041100Z 13009KT CAVOK 15/M02 Q1012=
201904041130 METAR LRCL 041130Z 12011KT 100V160 CAVOK 15/M03 Q1012=
201904041200 METAR LRCL 041200Z 12010KT 070V150 CAVOK 16/M03 Q1011=
201904041230 METAR LRCL 041230Z 13010KT 100V160 CAVOK 17/M03 Q1011=
201904041300 METAR LRCL 041300Z 12011KT 070V140 CAVOK 17/M02 Q1010=
201904041330 METAR LRCL 041330Z 12010KT CAVOK 18/M03 Q1010=
201904041400 METAR LRCL 041400Z 12008KT CAVOK 18/M03 Q1010=
201904041430 METAR LRCL 041430Z 14008KT 110V170 CAVOK 18/M02 Q1009=
201904041500 METAR LRCL 041500Z 15009KT CAVOK 17/M03 Q1009=
201904041530 METAR LRCL 041530Z VRB08KT CAVOK 17/M02 Q1009=
201904041600 METAR LRCL 041600Z 13007KT CAVOK 17/M02 Q1009=
201904041630 METAR LRCL 041630Z 13007KT CAVOK 16/M02 Q1009=
201904041700 METAR LRCL 041700Z 13006KT CAVOK 15/M02 Q1009=
201904041730 METAR LRCL 041730Z 15003KT CAVOK 14/M02 Q1009=
201904041800 METAR LRCL 041800Z 04003KT CAVOK 13/M02 Q1009=
201904041830 METAR LRCL 041830Z 04005KT CAVOK 12/M02 Q1010=
201904041900 METAR LRCL 041900Z 05004KT 010V100 CAVOK 12/M02 Q1010=
201904041930 METAR LRCL 041930Z 09003KT CAVOK 11/M02 Q1010=
201904042000 METAR LRCL 042000Z 08005KT CAVOK 10/M02 Q1010=
201904042030 METAR LRCL 042030Z 10007KT CAVOK 10/M02 Q1010=
201904042100 METAR LRCL 042100Z 10009KT CAVOK 10/M02 Q1010=
201904042130 METAR COR LRCL 042130Z 11009KT 080V140 CAVOK 09/M03 Q1011=
201904042200 METAR LRCL 042200Z 10009KT CAVOK 09/M03 Q1011=
201904042230 METAR LRCL 042230Z 09006KT CAVOK 09/M03 Q1011=
201904042300 METAR COR LRCL 042300Z 09007KT 050V140 CAVOK 09/M03 Q1011=
201904042330 METAR COR LRCL 042330Z 09006KT 060V130 CAVOK 08/M03 Q1011=
201904050000 METAR LRCL 050000Z 08006KT 040V130 CAVOK 07/M03 Q1011=
201904050030 METAR LRCL 050030Z 10007KT 050V140 CAVOK 07/M03 Q1011=
201904050100 METAR LRCL 050100Z 12009KT CAVOK 08/M03 Q1011=
201904050130 METAR COR LRCL 050130Z 10008KT 060V130 CAVOK 07/M03 Q1011=
201904050200 METAR LRCL 050200Z AUTO 09008KT 9999 NCD 06/M03 Q1011=
201904050230 METAR LRCL 050230Z 08008KT CAVOK 05/M03 Q1011=
201904050300 METAR LRCL 050300Z 07007KT CAVOK 05/M03 Q1011=
201904050330 METAR LRCL 050330Z 07007KT CAVOK 05/M03 Q1011=
201904050400 METAR LRCL 050400Z 07007KT CAVOK 05/M03 Q1011=
201904050430 METAR LRCL 050430Z 08006KT CAVOK 05/M03 Q1011=
201904050500 METAR LRCL 050500Z 08005KT CAVOK 06/M03 Q1012=
201904050530 METAR LRCL 050530Z 08006KT 040V100 CAVOK 07/M02 Q1011=
201904050600 METAR LRCL 050600Z 08007KT CAVOK 09/M02 Q1011=
201904050630 METAR LRCL 050630Z 11009KT CAVOK 10/M02 Q1011=
201904050700 METAR LRCL 050700Z 11010KT CAVOK 11/M01 Q1011=
201904050730 METAR LRCL 050730Z 11013KT CAVOK 12/M02 Q1011=
201904050800 METAR LRCL 050800Z 12011KT CAVOK 13/M02 Q1011=
201904050830 METAR LRCL 050830Z 11010KT CAVOK 14/M01 Q1011=
201904050900 METAR LRCL 050900Z 11009KT 080V140 CAVOK 15/M00 Q1011=
201904050930 METAR LRCL 050930Z 12011KT 080V140 CAVOK 16/M00 Q1010=
201904051000 METAR LRCL 051000Z 12010KT 090V160 CAVOK 17/00 Q1010=
201904051030 METAR LRCL 051030Z 15012KT CAVOK 18/M00 Q1010=
201904051100 METAR LRCL 051100Z 13011KT 9999 FEW045 18/M00 Q1010=
201904051130 METAR LRCL 051130Z 14011KT 100V190 9999 FEW045 19/M00 Q1009=
201904051200 METAR LRCL 051200Z 13010KT 100V160 9999 FEW045 19/M01 Q1009=
201904051230 METAR LRCL 051230Z 16011KT 130V200 9999 FEW045 21/M01 Q1008=
201904051300 METAR LRCL 051300Z 14010KT 110V170 9999 SCT045 21/M01 Q1008=
201904051330 METAR LRCL 051330Z 14009KT 100V160 9999 SCT050 20/M02 Q1007=
201904051400 METAR LRCL 051400Z 17010KT 9999 SCT050 20/M02 Q1007=
201904051430 METAR LRCL 051430Z 13011KT 9999 SCT050 20/M02 Q1007=
201904051500 METAR LRCL 051500Z 15010KT 9999 FEW060 19/M02 Q1007=
201904051530 METAR LRCL 051530Z 16011KT 140V210 9999 FEW060 19/M02 Q1007=
201904051600 METAR LRCL 051600Z 16010KT 9999 FEW060 18/M02 Q1007=
201904051630 METAR LRCL 051630Z 17011KT CAVOK 18/M02 Q1007=
201904051700 METAR LRCL 051700Z 17013G23KT CAVOK 17/M02 Q1007=
201904051730 METAR LRCL 051730Z 16011KT CAVOK 16/M01 Q1007=
201904051800 METAR LRCL 051800Z 16010KT 140V210 CAVOK 15/M01 Q1007=
201904051830 METAR LRCL 051830Z 16008KT CAVOK 14/M01 Q1008=
201904051900 METAR LRCL 051900Z 16010KT CAVOK 14/M01 Q1008=
201904051930 METAR LRCL 051930Z 16009KT CAVOK 14/M01 Q1008=
201904052000 METAR LRCL 052000Z 15011KT CAVOK 13/M00 Q1009=
201904052030 METAR LRCL 052030Z 13010KT CAVOK 11/00 Q1009=
201904052100 METAR LRCL 052100Z 15010KT CAVOK 13/00 Q1009=
201904052130 METAR LRCL 052130Z 12009KT CAVOK 12/M00 Q1009=
201904052200 METAR LRCL 052200Z 12008KT CAVOK 11/M00 Q1009=
201904052230 METAR LRCL 052230Z 13010KT CAVOK 11/01 Q1010=
201904052300 METAR LRCL 052300Z 10005KT 050V210 CAVOK 11/01 Q1010=
201904052330 METAR LRCL 052330Z 09005KT 030V120 CAVOK 11/01 Q1010=
201904060000 METAR LRCL 060000Z 07004KT 360V110 CAVOK 11/01 Q1010=
201904060030 METAR LRCL 060030Z 10006KT CAVOK 10/01 Q1010=
201904060100 METAR LRCL 060100Z 06006KT 040V100 CAVOK 10/01 Q1010=
201904060130 METAR LRCL 060130Z 08005KT CAVOK 10/01 Q1010=
201904060200 METAR LRCL 060200Z 08006KT 040V100 CAVOK 10/01 Q1010=
201904060230 METAR LRCL 060230Z 08007KT CAVOK 10/01 Q1010=
201904060300 METAR LRCL 060300Z 10008KT 060V120 CAVOK 10/01 Q1009=
201904060330 METAR LRCL 060330Z 10007KT CAVOK 10/01 Q1009=
201904060400 METAR LRCL 060400Z 10007KT 050V140 CAVOK 10/01 Q1009=
201904060430 METAR LRCL 060430Z 08009KT CAVOK 10/01 Q1009=
201904060500 METAR LRCL 060500Z 08006KT CAVOK 09/01 Q1009=
201904060530 METAR LRCL 060530Z 08007KT 050V110 CAVOK 10/02 Q1009=
201904060600 METAR LRCL 060600Z 09006KT CAVOK 11/02 Q1009=
201904060630 METAR LRCL 060630Z 12011KT CAVOK 11/02 Q1009=
201904060700 METAR LRCL 060700Z 12009KT CAVOK 12/02 Q1009=
201904060730 METAR LRCL 060730Z 11007KT 080V140 CAVOK 13/02 Q1010=
201904060800 METAR LRCL 060800Z 14005KT 080V220 CAVOK 13/02 Q1010=
201904060830 METAR LRCL 060830Z 10006KT 060V130 CAVOK 14/02 Q1009=
201904060900 METAR LRCL 060900Z 13007KT 090V150 CAVOK 15/02 Q1009=
201904060930 METAR COR LRCL 060930Z 13011KT 100V170 CAVOK 17/02 Q1009=
201904061000 METAR COR LRCL 061000Z 14011KT 100V170 CAVOK 16/02 Q1009=
201904061030 METAR LRCL 061030Z 14010KT 110V170 CAVOK 18/02 Q1009=
201904061100 METAR LRCL 061100Z 14013KT 110V170 CAVOK 19/02 Q1008=
201904061130 METAR LRCL 061130Z 16013KT CAVOK 19/01 Q1008=
201904061200 METAR LRCL 061200Z 14009KT 110V180 CAVOK 20/02 Q1008=
201904061230 METAR LRCL 061230Z 18008KT CAVOK 20/02 Q1008=
201904061300 METAR LRCL 061300Z 13008KT 100V170 CAVOK 20/01 Q1007=
201904061330 METAR LRCL 061330Z 13012KT CAVOK 21/01 Q1007=
201904061400 METAR LRCL 061400Z 13011KT 100V160 CAVOK 21/02 Q1007=
201904061430 METAR LRCL 061430Z 13011KT 100V160 CAVOK 21/01 Q1007=
201904061500 METAR LRCL 061500Z 15013KT CAVOK 20/00 Q1006=
201904061530 METAR LRCL 061530Z 17011KT CAVOK 21/01 Q1006=
201904061600 METAR LRCL 061600Z 16009KT 080V190 CAVOK 20/M00 Q1007=
201904061630 METAR LRCL 061630Z 15010KT CAVOK 19/M00 Q1007=
201904061700 METAR LRCL 061700Z 16011KT CAVOK 18/M01 Q1007=
201904061730 METAR LRCL 061730Z 16010KT CAVOK 17/M01 Q1007=
201904061800 METAR LRCL 061800Z 23009KT 190V260 CAVOK 16/00 Q1007=
201904061830 METAR LRCL 061830Z 25010KT CAVOK 13/04 Q1008=
201904061900 METAR LRCL 061900Z 26008KT CAVOK 13/04 Q1008=
201904061930 METAR LRCL 061930Z 27007KT CAVOK 12/04 Q1009=
201904062000 METAR LRCL 062000Z 29004KT 260V320 CAVOK 11/04 Q1009=
201904062030 METAR LRCL 062030Z 26004KT 230V300 CAVOK 09/03 Q1009=
201904062100 METAR LRCL 062100Z VRB02KT CAVOK 09/04 Q1009=
201904062130 METAR LRCL 062130Z 29003KT 250V320 CAVOK 09/04 Q1009=
201904062200 METAR LRCL 062200Z VRB01KT CAVOK 08/04 Q1009=
201904062230 METAR LRCL 062230Z 24003KT CAVOK 07/03 Q1009=
201904062300 METAR LRCL 062300Z VRB02KT CAVOK 06/03 Q1009=
201904062330 METAR LRCL 062330Z 27003KT CAVOK 06/04 Q1009=
201904070000 METAR LRCL 070000Z VRB02KT CAVOK 05/02 Q1009=
201904070030 METAR LRCL 070030Z VRB02KT CAVOK 05/03 Q1009=
201904070100 METAR LRCL 070100Z VRB02KT CAVOK 05/02 Q1009=
201904070130 METAR LRCL 070130Z VRB01KT CAVOK 05/03 Q1009=
201904070200 METAR LRCL 070200Z 08004KT CAVOK 05/03 Q1009=
201904070230 METAR LRCL 070230Z 00000KT CAVOK 05/02 Q1009=
201904070300 METAR LRCL 070300Z VRB01KT CAVOK 04/02 Q1009=
201904070330 METAR LRCL 070330Z VRB02KT CAVOK 04/02 Q1009=
201904070400 METAR LRCL 070400Z 13003KT 090V210 CAVOK 04/02 Q1009=
201904070430 METAR LRCL 070430Z 01001KT CAVOK 04/02 Q1009=
201904070500 METAR LRCL 070500Z VRB01KT CAVOK 04/02 Q1010=
201904070530 METAR LRCL 070530Z VRB01KT CAVOK 06/03 Q1010=
201904070600 METAR LRCL 070600Z 09003KT CAVOK 06/03 Q1010=
201904070630 METAR LRCL 070630Z VRB01KT CAVOK 07/04 Q1010=
201904070700 METAR LRCL 070700Z VRB02KT CAVOK 08/03 Q1010=
201904070730 METAR LRCL 070730Z VRB01KT CAVOK 10/02 Q1010=
201904070800 METAR LRCL 070800Z VRB02KT CAVOK 12/02 Q1010=
201904070830 METAR LRCL 070830Z 11002KT CAVOK 13/02 Q1010=
201904070900 METAR LRCL 070900Z VRB03KT CAVOK 16/02 Q1009=
201904070930 METAR LRCL 070930Z VRB04KT CAVOK 17/02 Q1009=
201904071000 METAR LRCL 071000Z 11007KT CAVOK 18/01 Q1009=
201904071030 METAR LRCL 071030Z 08006KT CAVOK 19/01 Q1009=
201904071100 METAR LRCL 071100Z 07005KT CAVOK 20/02 Q1008=
201904071130 METAR LRCL 071130Z 07006KT CAVOK 20/01 Q1008=
201904071200 METAR LRCL 071200Z 10004KT CAVOK 20/01 Q1008=
201904071230 METAR LRCL 071230Z 15007KT CAVOK 21/02 Q1007=
201904071300 METAR LRCL 071300Z 13005KT CAVOK 21/01 Q1007=
201904071330 METAR LRCL 071330Z 16004KT 9999 FEW040 21/M00 Q1007=
201904071400 METAR LRCL 071400Z 13008KT 9999 FEW040 21/00 Q1006=
201904071430 METAR LRCL 071430Z 15008KT 9999 FEW044 21/01 Q1006=
201904071500 METAR LRCL 071500Z 11010KT 9999 FEW044 21/01 Q1006=
201904071530 METAR LRCL 071530Z 16011KT 9999 FEW050 20/02 Q1006=
201904071600 METAR LRCL 071600Z 19008KT CAVOK 20/02 Q1006=
201904071630 METAR LRCL 071630Z 16011KT CAVOK 18/02 Q1006=
201904071700 METAR LRCL 071700Z 16012KT CAVOK 17/02 Q1007=
201904071730 METAR LRCL 071730Z 16010KT CAVOK 16/02 Q1007=
201904071800 METAR LRCL 071800Z 17008KT CAVOK 16/02 Q1007=
201904071830 METAR LRCL 071830Z 17008KT CAVOK 15/02 Q1007=
201904071900 METAR LRCL 071900Z 19005KT 140V270 CAVOK 15/02 Q1007=
201904071930 METAR LRCL 071930Z VRB01KT CAVOK 13/02 Q1008=
201904072000 METAR LRCL 072000Z 02002KT CAVOK 14/02 Q1008=
201904072030 METAR LRCL 072030Z 07005KT CAVOK 12/02 Q1008=
201904072100 METAR LRCL 072100Z 06005KT CAVOK 12/02 Q1008=
201904072130 METAR LRCL 072130Z 07006KT CAVOK 11/02 Q1008=
201904072200 METAR LRCL 072200Z 06005KT CAVOK 10/02 Q1008=
201904072230 METAR LRCL 072230Z 04006KT CAVOK 10/02 Q1008=
201904072300 METAR LRCL 072300Z 06004KT CAVOK 08/02 Q1008=
201904072330 METAR LRCL 072330Z 09003KT CAVOK 08/02 Q1007=
201904080000 METAR LRCL 080000Z 10004KT CAVOK 07/02 Q1007=
201904080030 METAR LRCL 080030Z VRB02KT CAVOK 06/02 Q1007=
201904080100 METAR LRCL 080100Z 00000KT CAVOK 05/02 Q1007=
201904080130 METAR LRCL 080130Z 22003KT CAVOK 05/02 Q1007=
201904080200 METAR LRCL 080200Z 25003KT 230V300 CAVOK 05/02 Q1007=
201904080230 METAR LRCL 080230Z 00000KT CAVOK 04/02 Q1006=
201904080300 METAR LRCL 080300Z VRB02KT CAVOK 04/01 Q1006=
201904080330 METAR LRCL 080330Z VRB02KT CAVOK 04/02 Q1006=
201904080400 METAR LRCL 080400Z 00000KT CAVOK 04/02 Q1006=
201904080430 METAR LRCL 080430Z 28004KT CAVOK 04/02 Q1006=
201904080500 METAR LRCL 080500Z 24003KT CAVOK 06/02 Q1006=
201904080530 METAR LRCL 080530Z 23003KT 210V280 CAVOK 07/02 Q1006=
201904080600 METAR LRCL 080600Z VRB02KT CAVOK 09/03 Q1006=
201904080630 METAR LRCL 080630Z 00000KT CAVOK 10/03 Q1006=
201904080700 METAR LRCL 080700Z VRB01KT CAVOK 11/03 Q1006=
201904080730 METAR LRCL 080730Z VRB02KT CAVOK 11/03 Q1006=
201904080800 METAR LRCL 080800Z VRB01KT CAVOK 13/04 Q1006=
201904080830 METAR LRCL 080830Z 08003KT 010V110 CAVOK 14/04 Q1006=
201904080900 METAR LRCL 080900Z VRB01KT CAVOK 15/04 Q1006=
201904080930 METAR LRCL 080930Z 10003KT 030V150 9999 FEW050 15/03 Q1005=
201904081000 METAR LRCL 081000Z VRB02KT 9999 FEW050 16/02 Q1005 R07/19//95=
201904081030 METAR LRCL 081030Z VRB02KT 9999 FEW064 17/02 Q1005 R07/19//95=
201904081100 METAR LRCL 081100Z VRB02KT 9999 FEW065 17/02 Q1005 R07/CLRD//=
201904081130 METAR LRCL 081130Z VRB03KT 9999 SCT068 18/02 Q1004=
201904081200 METAR LRCL 081200Z 01004KT 290V080 CAVOK 18/03 Q1004=
201904081230 METAR LRCL 081230Z 06005KT 340V140 CAVOK 18/03 Q1004=
201904081300 METAR LRCL 081300Z 08005KT 010V140 CAVOK 19/03 Q1003=
201904081330 METAR LRCL 081330Z VRB04KT CAVOK 20/03 Q1003=
201904081400 METAR LRCL 081400Z 04004KT 330V090 CAVOK 19/03 Q1003=
201904081430 METAR LRCL 081430Z 07005KT 360V110 CAVOK 20/03 Q1003=
201904081500 METAR LRCL 081500Z VRB02KT CAVOK 19/03 Q1003=
201904081530 METAR LRCL 081530Z VRB02KT CAVOK 20/03 Q1003=
201904081600 METAR LRCL 081600Z 34003KT CAVOK 19/03 Q1003=
201904081630 METAR LRCL 081630Z 00000KT 9999 FEW040 18/03 Q1003=
201904081700 METAR LRCL 081700Z 33004KT 9999 FEW044 16/04 Q1003=
201904081730 METAR LRCL 081730Z 03003KT 9999 SCT050 14/04 Q1003=
201904081800 METAR LRCL 081800Z 08003KT 9999 SCT055 14/03 Q1003=
201904081830 METAR LRCL 081830Z 07005KT 9999 FEW060 14/04 Q1004=
201904081900 METAR LRCL 081900Z 06004KT 9999 FEW060 13/05 Q1004=
201904081930 METAR LRCL 081930Z 08004KT CAVOK 13/04 Q1004=
201904082000 METAR LRCL 082000Z VRB01KT CAVOK 12/05 Q1004=
201904082030 METAR LRCL 082030Z 06004KT CAVOK 12/05 Q1004=
201904082100 METAR LRCL 082100Z 02003KT CAVOK 11/05 Q1004=
201904082130 METAR LRCL 082130Z 09004KT CAVOK 12/06 Q1004=
201904082200 METAR LRCL 082200Z 05004KT CAVOK 11/05 Q1004=
201904082230 METAR LRCL 082230Z 07003KT CAVOK 11/06 Q1004=
201904082300 METAR LRCL 082300Z VRB02KT CAVOK 11/06 Q1004=
201904082330 METAR LRCL 082330Z 07003KT CAVOK 09/05 Q1004=
201904090000 METAR LRCL 090000Z VRB02KT CAVOK 08/06 Q1004=
201904090030 METAR LRCL 090030Z 11002KT CAVOK 08/05 Q1004=
201904090100 METAR LRCL 090100Z VRB01KT CAVOK 08/05 Q1004=
201904090130 METAR LRCL 090130Z VRB02KT CAVOK 07/05 Q1004=
201904090200 METAR LRCL 090200Z 17001KT CAVOK 07/05 Q1004=
201904090230 METAR LRCL 090230Z 29002KT CAVOK 07/05 Q1004=
201904090300 METAR LRCL 090300Z VRB01KT CAVOK 07/05 Q1004=
201904090330 METAR LRCL 090330Z 00000KT CAVOK 07/05 Q1004=
201904090400 METAR LRCL 090400Z 00000KT CAVOK 06/05 Q1004=
201904090430 METAR LRCL 090430Z 30001KT CAVOK 07/05 Q1004=
201904090500 METAR LRCL 090500Z VRB02KT CAVOK 08/06 Q1005=
201904090530 METAR LRCL 090530Z 25003KT 220V300 CAVOK 09/05 Q1005=
201904090600 METAR LRCL 090600Z VRB02KT CAVOK 11/05 Q1005=
201904090630 METAR LRCL 090630Z VRB01KT CAVOK 12/06 Q1005=
201904090700 METAR LRCL 090700Z 06003KT 360V110 CAVOK 14/06 Q1005=
201904090730 METAR LRCL 090730Z 11008KT 070V140 9999 FEW040 16/06 Q1005=
201904090800 METAR LRCL 090800Z 12008KT 9999 FEW040 16/07 Q1004=
201904090830 METAR LRCL 090830Z 15008KT 120V190 9999 FEW040 16/06 Q1004=
201904090900 METAR LRCL 090900Z 12010KT 090V150 9999 FEW040 17/07 Q1004=
201904090930 METAR LRCL 090930Z 11007KT 080V140 9999 FEW043 18/07 Q1004=
201904091000 METAR LRCL 091000Z 10006KT 060V140 9999 SCT043 19/07 Q1004=
201904091030 METAR LRCL 091030Z 07005KT 9999 SCT043 19/07 Q1004=
201904091100 METAR LRCL 091100Z 12008KT 090V150 9999 FEW045TCU SCT047
                        20/07 Q1004=
201904091130 METAR LRCL 091130Z 11006KT 090V150 9999 FEW045TCU SCT049
                        20/06 Q1003=
201904091200 METAR LRCL 091200Z VRB03KT 9999 FEW050TCU SCT053 21/05 Q1003=
201904091230 METAR LRCL 091230Z 11006KT 9999 FEW050TCU SCT055 21/05 Q1003=
201904091300 METAR LRCL 091300Z VRB03KT 9999 SCT055 21/04 Q1003=
201904091330 METAR LRCL 091330Z VRB03KT 9999 SCT055 22/04 Q1003=
201904091400 METAR LRCL 091400Z 04006KT 350V080 9999 SCT055 21/06 Q1002=
201904091430 METAR LRCL 091430Z 09003KT 030V140 9999 SCT055 20/05 Q1003=
201904091500 METAR COR LRCL 091500Z 36005KT 9999 SCT055 20/04 Q1003=
201904091530 METAR LRCL 091530Z 36008KT 9999 SCT055 19/06 Q1003=
201904091600 METAR LRCL 091600Z 34009KT 9999 FEW055 19/06 Q1003=
201904091630 METAR LRCL 091630Z 33007KT 9999 FEW067 18/05 Q1003=
201904091700 METAR LRCL 091700Z 35006KT 9999 FEW067 18/05 Q1003=
201904091730 METAR LRCL 091730Z 35005KT 9999 FEW067 17/05 Q1004=
201904091800 METAR LRCL 091800Z 12008KT 9999 FEW040CB 16/05 Q1004=
201904091830 METAR LRCL 091830Z 12004KT 080V200 9999 -SHRA FEW040CB SCT064
                        16/07 Q1005=
201904091900 METAR LRCL 091900Z 08004KT 060V120 9999 -SHRA FEW040CB 15/09
                        Q1005 R07/29//95=
201904091930 METAR LRCL 091930Z 02003KT 340V050 9999 FEW050CB 14/09 Q1005
                        R07/29//95=
201904092000 METAR LRCL 092000Z 07004KT 9999 FEW057CB 14/09 Q1005 R07/29//95=
201904092030 METAR LRCL 092030Z 08004KT 9999 BKN060 14/08 Q1005 R07/29//95=
201904092100 METAR LRCL 092100Z 06005KT 9999 SCT063 14/07 Q1005 R07/29//95=
201904092130 METAR LRCL 092130Z 07004KT 9999 FEW066 13/08 Q1006 R07/12//95=
201904092200 METAR LRCL 092200Z 10003KT 070V140 CAVOK 13/08 Q1006 R07/12//95=
201904092230 METAR LRCL 092230Z VRB02KT CAVOK 12/08 Q1006 R07/12//95=
201904092300 METAR LRCL 092300Z VRB02KT CAVOK 12/08 Q1005 R07/12//95=
201904092330 METAR LRCL 092330Z 08003KT CAVOK 11/08 Q1006 R07/12//95=
201904100000 METAR LRCL 100000Z VRB01KT CAVOK 12/08 Q1006 R07/12//95=
201904100030 METAR LRCL 100030Z 12003KT CAVOK 11/08 Q1006 R07/12//95=
201904100100 METAR LRCL 100100Z 10004KT CAVOK 11/07 Q1006 R07/12//95=
201904100130 METAR LRCL 100130Z 06003KT 340V080 CAVOK 10/08 Q1006 R07/12//95=
201904100200 METAR LRCL 100200Z 05003KT 020V090 CAVOK 11/07 Q1006 R07/12//95=
201904100230 METAR LRCL 100230Z 07004KT CAVOK 10/07 Q1006 R07/12//95=
201904100300 METAR LRCL 100300Z 10004KT CAVOK 10/07 Q1006 R07/12//95=
201904100330 METAR LRCL 100330Z 08004KT 040V100 CAVOK 11/07 Q1006 R07/CLRD//=
201904100400 METAR LRCL 100400Z VRB02KT CAVOK 10/08 Q1006=
201904100430 METAR LRCL 100430Z VRB02KT CAVOK 10/08 Q1006=
201904100500 METAR LRCL 100500Z VRB01KT CAVOK 11/08 Q1006=
201904100530 METAR LRCL 100530Z 00000KT CAVOK 13/08 Q1007=
201904100600 METAR LRCL 100600Z VRB01KT CAVOK 14/08 Q1007=
201904100630 METAR LRCL 100630Z 00000KT CAVOK 14/07 Q1007=
201904100700 METAR LRCL 100700Z 01003KT 340V040 CAVOK 15/08 Q1007=
201904100730 METAR LRCL 100730Z 01004KT CAVOK 16/08 Q1007=
201904100800 METAR LRCL 100800Z 10006KT 060V180 CAVOK 18/06 Q1007=
201904100830 METAR LRCL 100830Z VRB05KT CAVOK 18/05 Q1007=
201904100900 METAR LRCL 100900Z 13008KT 9999 FEW030 18/03 Q1007=
201904100930 METAR LRCL 100930Z 11007KT 060V160 9999 FEW033 19/04 Q1007=
201904101000 METAR LRCL 101000Z 11007KT 9999 FEW040 19/04 Q1007=
201904101030 METAR LRCL 101030Z 08006KT 050V120 9999 FEW046 20/05 Q1006=
201904101100 METAR LRCL 101100Z 10007KT 070V130 9999 FEW050 20/05 Q1006=
201904101130 METAR LRCL 101130Z 14005G17KT 070V200 9999 SCT050 21/03 Q1006=
201904101200 METAR COR LRCL 101200Z 11007KT 080V170 9999 FEW050 21/03
                        Q1005=
201904101230 METAR COR LRCL 101230Z 07006KT 310V110 9999 FEW054 22/04
                        Q1005=
201904101300 METAR LRCL 101300Z 07007KT 020V100 9999 FEW049 20/03 Q1005=
201904101330 METAR LRCL 101330Z 08006KT 030V120 9999 FEW055TCU 20/03 Q1005=
201904101400 METAR LRCL 101400Z 10007KT 9999 FEW060CB SCT066 21/04 Q1005=
201904101430 METAR LRCL 101430Z 12010KT 9999 FEW060CB SCT067 20/03 Q1005=
201904101500 METAR LRCL 101500Z 12009KT 9999 FEW065CB 20/05 Q1005=
201904101530 METAR LRCL 101530Z 12006KT 9999 FEW065CB 19/05 Q1005=
201904101600 METAR LRCL 101600Z 17006KT 130V230 9999 FEW060CB SCT063 18/05
                        Q1005=
201904101630 METAR LRCL 101630Z 19003KT 130V230 9999 FEW060CB SCT063 18/05
                        Q1005=
201904101700 METAR LRCL 101700Z 01004KT 330V040 9999 FEW060CB SCT065 17/05
                        Q1006=
201904101730 METAR LRCL 101730Z 01007KT 350V070 9999 FEW060CB SCT068 16/06
                        Q1006=
201904101800 METAR LRCL 101800Z 05004KT 360V120 9999 FEW060CB BKN068 16/07
                        Q1006=
201904101830 METAR LRCL 101830Z 09006KT 9999 FEW060CB SCT068 16/05 Q1007=
201904101900 METAR LRCL 101900Z 14003KT 9999 SCT068 15/05 Q1007=
201904101930 METAR LRCL 101930Z 34004KT 320V040 9999 -SHRA FEW060CB BKN067
                        14/06 Q1007=
201904102000 METAR LRCL 102000Z 06004KT 030V090 9999 -SHRA FEW060CB BKN068
                        14/08 Q1007 R07/29//95=
201904102030 METAR LRCL 102030Z 11003KT 010V140 9999 FEW060CB BKN068 14/08
                        Q1007 R07/29//95=
201904102100 METAR LRCL 102100Z 06003KT 9999 FEW060CB SCT068 13/08 Q1008
                        R07/29//95=
201904102130 METAR LRCL 102130Z VRB02KT 9999 FEW060CB SCT068 14/07 Q1008
                        R07/29//95=
201904102200 METAR LRCL 102200Z 10004KT 070V130 9999 FEW060CB 13/07 Q1008
                        R07/29//95=
201904102230 METAR LRCL 102230Z 06004KT 010V080 CAVOK 12/08 Q1008 R07/29//95=
201904102300 METAR LRCL 102300Z 07005KT CAVOK 12/07 Q1007 R07/19//95=
201904102330 METAR LRCL 102330Z 08004KT CAVOK 11/07 Q1007 R07/19//95=
201904110000 METAR LRCL 110000Z 09002KT CAVOK 10/07 Q1007 R07/19//95=
201904110030 METAR LRCL 110030Z VRB02KT CAVOK 10/07 Q1007 R07/19//95=
201904110100 METAR LRCL 110100Z 30002KT 9999 MIFG NSC 08/06 Q1007 R07/19//95=
201904110130 METAR LRCL 110130Z 27004KT CAVOK 08/07 Q1007 R07/19//95=
201904110200 METAR LRCL 110200Z 27003KT 250V330 CAVOK 09/07 Q1007 R07/19//95=
201904110230 METAR LRCL 110230Z VRB01KT CAVOK 08/07 Q1007 R07/19//95=
201904110300 METAR LRCL 110300Z 00000KT CAVOK 08/07 Q1007=
201904110330 METAR LRCL 110330Z 28003KT CAVOK 08/07 Q1007=
201904110400 METAR LRCL 110400Z 26005KT CAVOK 08/06 Q1007=
201904110430 METAR LRCL 110430Z 25003KT CAVOK 08/06 Q1007=
201904110500 METAR LRCL 110500Z 25004KT CAVOK 09/07 Q1007=
201904110530 METAR LRCL 110530Z VRB02KT CAVOK 10/08 Q1007=
201904110600 METAR LRCL 110600Z 26005KT CAVOK 11/08 Q1007=
201904110630 METAR LRCL 110630Z 26005KT CAVOK 13/08 Q1007=
201904110700 METAR LRCL 110700Z 28003KT CAVOK 14/07 Q1007=
201904110730 METAR LRCL 110730Z 29003KT CAVOK 15/07 Q1007=
201904110800 METAR LRCL 110800Z 01005KT CAVOK 15/06 Q1007=
201904110830 METAR LRCL 110830Z 04004KT CAVOK 15/06 Q1008=
201904110900 METAR LRCL 110900Z 05007KT CAVOK 16/06 Q1008=
201904110930 METAR LRCL 110930Z 08003KT 9999 FEW055CB 16/06 Q1008=
201904111000 METAR LRCL 111000Z 06005KT 9999 FEW020 FEW055CB 16/07 Q1008=
201904111030 METAR LRCL 111030Z 11011KT 9999 FEW035 FEW050CB 15/08 Q1008=
201904111100 METAR LRCL 111100Z 09009KT 9999 FEW028 FEW046CB 16/08 Q1008=
201904111130 METAR LRCL 111130Z 10011KT 9999 FEW028 FEW050CB 15/07 Q1008=
201904111200 METAR LRCL 111200Z 09009KT 9999 FEW028 SCT053CB 14/08 Q1008=
201904111230 METAR LRCL 111230Z 08005KT 9999 -SHRA FEW028 SCT053CB 14/08
                        Q1008=
201904111300 METAR LRCL 111300Z 09005KT 9999 FEW030 SCT056CB 13/09 Q1008=
201904111330 METAR LRCL 111330Z VRB02KT 9999 FEW030 FEW056CB 15/09 Q1008
                        R07/29//95=
201904111400 METAR LRCL 111400Z 09004KT 9999 FEW030 FEW060CB 15/07 Q1008
                        R07/29//95=
201904111430 METAR LRCL 111430Z 11003KT 9999 FEW030 15/07 Q1008 R07/15//95=
201904111500 METAR LRCL 111500Z 05004KT 9999 FEW030 15/07 Q1008 R07/15//95=
201904111530 METAR LRCL 111530Z 02003KT 9999 FEW030 FEW065CB 15/07 Q1008
                        R07/CLRD//=
201904111600 METAR LRCL 111600Z VRB02KT 9999 FEW030 FEW065CB 15/08 Q1008=
201904111630 METAR LRCL 111630Z 02002KT 9999 FEW046 SCT065 15/08 Q1008=
201904111700 METAR LRCL 111700Z 04003KT 9999 SCT067 13/07 Q1008=
201904111730 METAR LRCL 111730Z 04002KT 9999 SCT067 14/07 Q1008=
201904111800 METAR LRCL 111800Z 00000KT 9999 SCT067 13/07 Q1009=
201904111830 METAR LRCL 111830Z VRB01KT 9999 SCT058 13/07 Q1009=
201904111900 METAR LRCL 111900Z 10002KT 9999 BKN050 12/08 Q1009=
201904111930 METAR LRCL 111930Z VRB02KT 9999 BKN052 12/08 Q1009=
201904112000 METAR LRCL 112000Z 02003KT 9999 FEW066 12/07 Q1009=
201904112030 METAR LRCL 112030Z 01006KT 9999 SCT057 11/06 Q1009=
201904112100 METAR LRCL 112100Z 02005KT 9999 FEW054 11/05 Q1010=
201904112130 METAR LRCL 112130Z 02005KT 9999 FEW048 11/05 Q1010=
201904112200 METAR LRCL 112200Z 04003KT 9999 SCT047 11/05 Q1010=
201904112230 METAR COR LRCL 112230Z 05008KT 9999 SCT039 11/05 Q1010=
201904112300 METAR LRCL 112300Z 07005KT 9999 BKN047 11/05 Q1010=
201904112330 METAR LRCL 112330Z 07004KT 9999 BKN062 10/06 Q1010=
201904120000 METAR LRCL 120000Z VRB02KT 9999 BKN062 10/06 Q1010=
201904120030 METAR LRCL 120030Z 08004KT 9999 BKN068 09/05 Q1010=
201904120100 METAR LRCL 120100Z AUTO 08004KT 9999 SCT077/// BKN099///
                        09/05 Q1010=
201904120130 METAR LRCL 120130Z 08003KT 9999 FEW067 08/05 Q1010=
201904120200 METAR LRCL 120200Z 07003KT 9999 FEW067 08/05 Q1010=
201904120230 METAR COR LRCL 120230Z 10002KT 9999 FEW046 08/05 Q1010=
201904120300 METAR LRCL 120300Z VRB02KT 9999 FEW046 08/05 Q1011=
201904120330 METAR COR LRCL 120330Z VRB02KT 9999 FEW048 08/05 Q1011=
201904120400 METAR LRCL 120400Z 08001KT 9999 FEW065 08/05 Q1011=
201904120430 METAR LRCL 120430Z 10002KT 9999 FEW048 08/05 Q1011=
201904120500 METAR LRCL 120500Z 07002KT 9999 FEW066 09/05 Q1011=
201904120530 METAR LRCL 120530Z 00000KT 9999 SCT040 10/05 Q1011=
201904120600 METAR LRCL 120600Z 10002KT 9999 SCT041 11/04 Q1011=
201904120630 METAR LRCL 120630Z VRB02KT 9999 FEW041 11/04 Q1012=
201904120700 METAR LRCL 120700Z 09004KT 060V130 9999 FEW042 12/03 Q1011=
201904120730 METAR LRCL 120730Z 09003KT 010V140 9999 FEW030 13/04 Q1012=
201904120800 METAR LRCL 120800Z VRB03KT 9999 FEW031 14/04 Q1011=
201904120830 METAR LRCL 120830Z 09008KT 9999 SCT033 15/04 Q1011=
201904120900 METAR LRCL 120900Z 09005KT 030V160 9999 BKN039 14/05 Q1011=
201904120930 METAR LRCL 120930Z 13006KT 090V160 9999 BKN036 15/05 Q1011=
201904121000 METAR LRCL 121000Z 10005KT 050V140 9999 SCT037 BKN051 15/04
                        Q1011=
201904121030 METAR LRCL 121030Z VRB05KT 9999 FEW039 BKN050 15/05 Q1011=
201904121100 METAR LRCL 121100Z 05006KT 350V090 9999 BKN040 BKN058 16/04
                        Q1011=
201904121130 METAR LRCL 121130Z VRB06KT 9999 SCT042 BKN058 16/05 Q1011=
201904121200 METAR LRCL 121200Z VRB04KT 9999 SCT048 BKN056 16/04 Q1010=
201904121230 METAR LRCL 121230Z 11008KT 080V140 9999 FEW019 BKN045 BKN068
                        16/05 Q1010=
201904121300 METAR LRCL 121300Z 10008KT 9999 BKN045 BKN068 17/04 Q1010=
201904121330 METAR LRCL 121330Z 10008KT 9999 SCT048 BKN058 17/04 Q1010=
201904121400 METAR LRCL 121400Z 07008KT 030V120 9999 SCT050 BKN057 17/05
                        Q1010=
201904121430 METAR LRCL 121430Z 08009KT 9999 FEW046 BKN053 16/05 Q1010=
201904121500 METAR LRCL 121500Z 06007KT 030V090 9999 FEW040CB SCT055 16/04
                        Q1010=
201904121530 METAR LRCL 121530Z 08006KT 9999 FEW030 FEW042CB 15/04 Q1010=
201904121600 METAR LRCL 121600Z 16007KT 9999 FEW043CB SCT045 14/04 Q1010=
201904121630 METAR LRCL 121630Z 17008KT 9999 SCT040CB SCT045 14/05 Q1010=
201904121700 METAR LRCL 121700Z 18011KT 9999 SCT040CB SCT045 12/06 Q1011=
201904121730 METAR LRCL 121730Z 26007KT 9999 -SHRA SCT040CB 11/08 Q1011
                        R07/29//95=
201904121800 METAR LRCL 121800Z 26006KT 9999 SCT046CB SCT055 11/07 Q1012
                        R07/29//95=
201904121830 METAR LRCL 121830Z 26006KT 9999 FEW046CB SCT055 11/08 Q1012
                        R07/29//95=
201904121900 METAR LRCL 121900Z 26007KT 9999 SCT055 11/07 Q1012 R07/29//95=
201904121930 METAR LRCL 121930Z 22003KT 9999 SCT055 11/08 Q1012 R07/29//95=
201904122000 METAR LRCL 122000Z 19004KT 9999 -SHRA FEW036CB SCT050 11/08
                        Q1013 R07/29//95=
201904122030 METAR LRCL 122030Z VRB02KT 9999 -SHRA SCT036CB SCT044 10/08
                        Q1013 R07/29//95=
201904122100 METAR LRCL 122100Z 21004KT 9999 -SHRA SCT030CB SCT044 10/08
                        Q1013 R07/29//95=
201904122130 METAR LRCL 122130Z VRB02KT 9999 -SHRA SCT030CB SCT044 10/09
                        Q1013 R07/29//95=
201904122200 METAR LRCL 122200Z 05002KT 9999 FEW030CB SCT044 10/09 Q1013
                        R07/29//95=
201904122230 METAR LRCL 122230Z 00000KT 9999 FEW022 FEW030CB SCT044 10/08
                        Q1013 R07/29//95=
201904122300 METAR LRCL 122300Z VRB02KT 9999 FEW006 SCT017 BKN040 10/09
                        Q1013 R07/29//95=
201904122330 METAR LRCL 122330Z VRB02KT 9999 SCT015 BKN035 10/09 Q1013
                        R07/29//95=
201904130000 METAR LRCL 130000Z 00000KT 9999 SCT010 OVC044 10/08 Q1013
                        R07/29//95=
201904130030 METAR LRCL 130030Z 03003KT 9999 FEW010 OVC040 10/08 Q1013
                        R07/29//95=
201904130100 METAR LRCL 130100Z 03003KT 9999 FEW010 OVC036 09/06 Q1013
                        R07/29//95=
201904130130 METAR LRCL 130130Z 04003KT 9999 OVC033 09/06 Q1013 R07/29//95=
201904130200 METAR LRCL 130200Z 06002KT 9999 -RA OVC030 09/06 Q1013 R07/29//95=
201904130230 METAR LRCL 130230Z VRB02KT 9999 OVC035 09/06 Q1013 R07/29//95=
201904130300 METAR LRCL 130300Z VRB01KT 9999 OVC038 09/06 Q1013 R07/29//95=
201904130330 METAR LRCL 130330Z 00000KT 9999 BKN042 08/06 Q1013 R07/29//95=
201904130400 METAR LRCL 130400Z 07003KT 9999 SCT040 08/07 Q1013 R07/29//95=
201904130430 METAR LRCL 130430Z 04005KT 010V070 9999 BKN034 09/05 Q1013
                        R07/29//95=
201904130500 METAR LRCL 130500Z 06004KT 9999 BKN037 09/05 Q1013 R07/29//95=
201904130530 METAR LRCL 130530Z 07004KT 040V110 9999 BKN038 10/06 Q1014
                        R07/19//95=
201904130600 METAR LRCL 130600Z 05005KT 030V090 9999 BKN039 10/05 Q1014
                        R07/19//95=
201904130630 METAR LRCL 130630Z 07004KT 020V100 9999 SCT039 11/05 Q1014
                        R07/19//95=
201904130700 METAR LRCL 130700Z 10006KT 050V130 9999 FEW025 SCT038 12/04
                        Q1014 R07/19//95=
201904130730 METAR LRCL 130730Z 11005KT 060V150 9999 SCT032 12/04 Q1014
                        R07/19//95=
201904130800 METAR LRCL 130800Z 09006KT 040V160 9999 SCT036 13/04 Q1014
                        R07/19//95=
201904130830 METAR LRCL 130830Z 11005KT 040V190 9999 BKN036 13/04 Q1014=
201904130900 METAR LRCL 130900Z VRB05KT 9999 BKN034 13/04 Q1014=
201904130930 METAR LRCL 130930Z VRB02KT 9999 BKN035 BKN052 14/04 Q1013=
201904131000 METAR LRCL 131000Z VRB02KT 9999 BKN036 14/04 Q1013=
201904131030 METAR LRCL 131030Z 10003KT 040V150 9999 BKN037 BKN054 14/03
                        Q1013=
201904131100 METAR LRCL 131100Z 16003KT 100V220 9999 SCT037 BKN056 15/04
                        Q1013=
201904131130 METAR LRCL 131130Z VRB04KT 9999 SCT040 BKN061 15/03 Q1013=
201904131200 METAR LRCL 131200Z 12003KT 020V180 9999 SCT043 BKN062 17/04
                        Q1013=
201904131230 METAR LRCL 131230Z VRB03KT 9999 SCT043 BKN060 17/02 Q1013=
201904131300 METAR LRCL 131300Z VRB02KT 9999 FEW043TCU SCT046 BKN061 16/03
                        Q1012=
201904131330 METAR LRCL 131330Z 06004KT 030V110 9999 FEW045TCU SCT049
                        BKN068 15/03 Q1012=
201904131400 METAR LRCL 131400Z 06004KT 010V100 9999 VCSH FEW045CB SCT050
                        BKN068 15/02 Q1012=
201904131430 METAR LRCL 131430Z 04004KT 350V070 9999 FEW045CB SCT050 BKN065
                        16/02 Q1012=
201904131500 METAR LRCL 131500Z 01004KT 340V060 9999 FEW045CB SCT050 BKN068
                        16/02 Q1012=
201904131530 METAR LRCL 131530Z 26006KT 9999 FEW045CB BKN050 15/04 Q1012=
201904131600 METAR COR LRCL 131600Z 25010KT 9999 SCT045CB SCT062 14/05
                        Q1012=
201904131630 METAR LRCL 131630Z 26007KT 9999 -SHRA FEW019 BKN054CB 13/08
                        Q1012=
201904131700 METAR LRCL 131700Z 23006KT 9999 -SHRA FEW015 BKN046CB 12/09
                        Q1013 RERA R07/29//95=
201904131730 METAR LRCL 131730Z 26008KT 9999 -TSRA FEW015 BKN049CB 11/09
                        Q1013 R07/29//95=
201904131800 METAR LRCL 131800Z 27006KT 9999 -TSRA FEW014 BKN047CB 11/08
                        Q1013 R07/29//95=
201904131830 METAR COR LRCL 131830Z 23005KT 190V250 9999 -SHRA SCT028
                        OVC052CB 10/08 Q1014 RETS R07/29//95=
201904131900 METAR LRCL 131900Z 19007KT 9999 FEW013 SCT026 BKN053CB 11/08
                        Q1014 R07/29//95=
201904131930 METAR LRCL 131930Z 23004KT 180V290 9999 FEW017 BKN048CB 10/07
                        Q1014 R07/29//95=
201904132000 METAR LRCL 132000Z VRB02KT 9999 FEW018 BKN049 10/07 Q1014
                        R07/19//95=
201904132030 METAR LRCL 132030Z 26004KT 9999 SCT039 BKN065 10/07 Q1014
                        R07/19//95=
201904132100 METAR LRCL 132100Z VRB02KT 9999 -RA FEW018 OVC030 09/07 Q1015
                        R07/19//95=
201904132130 METAR LRCL 132130Z 06003KT 9999 -RA FEW014 OVC032 09/07 Q1015
                        R07/19//95=
201904132200 METAR LRCL 132200Z 31003KT 9999 RA FEW016 OVC030 09/07 Q1015
                        R07/19//95=
201904132230 METAR LRCL 132230Z 23004KT 9999 -RA FEW018 OVC042 09/07 Q1015
                        RERA R07/29//95=
201904132300 METAR LRCL 132300Z VRB02KT 9999 -RA FEW013 OVC045 08/07 Q1015
                        R07/29//95=
201904132330 METAR COR LRCL 132330Z 27003KT 9999 -RA FEW012 OVC041 08/07
                        Q1015 R07/29//95=
201904140000 METAR LRCL 140000Z 28003KT 9999 FEW040 OVC060 08/06 Q1015
                        R07/29//95=
201904140030 METAR COR LRCL 140030Z VRB02KT 9999 OVC036 08/06 Q1014 R07/29//95=
201904140100 METAR LRCL 140100Z 00000KT 9999 FEW015 OVC035 08/06 Q1014
                        R07/29//95=
201904140130 METAR LRCL 140130Z VRB01KT 9999 BKN014 OVC035 08/07 Q1014
                        R07/29//95=
201904140200 METAR LRCL 140200Z 26003KT 9999 FEW010 OVC034 08/07 Q1014
                        R07/29//95=
201904140230 METAR LRCL 140230Z 00000KT 9999 FEW011 OVC031 08/06 Q1014
                        R07/29//95=
201904140300 METAR LRCL 140300Z 00000KT 9999 BKN010 OVC033 08/07 Q1014
                        R07/19//95=
201904140330 METAR LRCL 140330Z AUTO VRB02KT 9999 BKN010/// OVC030///
                        08/06 Q1014=
201904140400 METAR LRCL 140400Z VRB02KT 9999 -RA SCT011 OVC032 08/05 Q1014
                        R07/19//95=
201904140430 METAR LRCL 140430Z 07003KT 9999 FEW015 BKN026 08/05 Q1015
                        R07/19//95=
201904140500 METAR LRCL 140500Z 06003KT 9999 -RA FEW015 BKN027 08/06 Q1015
                        R07/19//95=
201904140530 METAR LRCL 140530Z 00000KT 9999 FEW020 BKN037 09/05 Q1015
                        R07/19//95=
201904140600 METAR LRCL 140600Z 03003KT 9999 FEW015 BKN038 09/05 Q1015
                        R07/19//95=
201904140630 METAR LRCL 140630Z 01003KT 9999 FEW015 BKN045 10/04 Q1015
                        R07/19//95=
201904140700 METAR LRCL 140700Z 03004KT 9999 FEW018 SCT053 10/04 Q1015
                        R07/19//95=
201904140730 METAR LRCL 140730Z VRB02KT 9999 BKN061 12/04 Q1015 R07/CLRD//=
201904140800 METAR COR LRCL 140800Z VRB03KT 9999 FEW029 SCT064 11/04 Q1015=
201904140830 METAR LRCL 140830Z 34003KT 290V060 9999 BKN030 11/02 Q1014=
201904140900 METAR LRCL 140900Z 33004KT 260V040 9999 BKN034 11/02 Q1014=
201904140930 METAR LRCL 140930Z VRB02KT 9999 BKN036 12/02 Q1014=
201904141000 METAR LRCL 141000Z VRB03KT 9999 SCT037 13/02 Q1014=
201904141030 METAR LRCL 141030Z VRB03KT 9999 SCT048 14/02 Q1014=
201904141100 METAR LRCL 141100Z VRB02KT 9999 BKN046 14/02 Q1014=
201904141130 METAR LRCL 141130Z 01004KT 330V090 9999 BKN047 13/02 Q1014=
201904141200 METAR LRCL 141200Z 07004KT 360V110 9999 BKN059 13/01 Q1014=
201904141230 METAR LRCL 141230Z 07008KT 9999 BKN059 13/02 Q1014=
201904141300 METAR LRCL 141300Z 07007KT 040V100 9999 BKN059 13/00 Q1014=
201904141330 METAR COR LRCL 141330Z 06006KT 020V110 9999 BKN064 13/01
                        Q1014=
201904141400 METAR LRCL 141400Z 07006KT 020V100 9999 BKN066 13/01 Q1014=
201904141430 METAR LRCL 141430Z 05006KT 020V080 9999 BKN066 12/M00 Q1014=
201904141500 METAR LRCL 141500Z 06005KT 030V090 9999 SCT067 12/01 Q1014=
201904141530 METAR LRCL 141530Z 08007KT 060V120 9999 SCT067 12/02 Q1014=
201904141600 METAR LRCL 141600Z 10006KT 080V140 9999 SCT067 12/02 Q1014=
201904141630 METAR LRCL 141630Z 10005KT 9999 SCT068 11/03 Q1015=
201904141700 METAR LRCL 141700Z 09006KT 9999 SCT056 BKN068 11/01 Q1015=
201904141730 METAR LRCL 141730Z 10003KT 050V140 9999 BKN055 11/01 Q1015=
201904141800 METAR LRCL 141800Z 03003KT 360V060 9999 BKN057 10/02 Q1015=
201904141830 METAR LRCL 141830Z 06005KT 9999 BKN058 10/02 Q1016=
201904141900 METAR LRCL 141900Z 10006KT 9999 OVC059 10/01 Q1016=
201904141930 METAR LRCL 141930Z 10006KT 9999 BKN056 10/01 Q1016=
201904142000 METAR LRCL 142000Z 09006KT 9999 BKN056 09/00 Q1016=
201904142030 METAR LRCL 142030Z 07005KT 9999 BKN056 09/01 Q1017=
201904142100 METAR LRCL 142100Z 07003KT 9999 BKN058 09/01 Q1017=
201904142130 METAR LRCL 142130Z 07004KT 9999 SCT059 08/00 Q1017=
201904142200 METAR LRCL 142200Z 08003KT 9999 BKN060 08/01 Q1017=
201904142230 METAR LRCL 142230Z 06004KT 9999 BKN060 07/01 Q1017=
201904142300 METAR LRCL 142300Z 06004KT 9999 SCT060 07/01 Q1017=
201904142330 METAR LRCL 142330Z 05004KT CAVOK 07/01 Q1017=
201904150000 METAR LRCL 150000Z 08005KT CAVOK 07/01 Q1017=
201904150030 METAR LRCL 150030Z 08004KT CAVOK 07/01 Q1017=
201904150100 METAR LRCL 150100Z 09002KT CAVOK 07/02 Q1017=
201904150130 METAR LRCL 150130Z VRB01KT CAVOK 06/01 Q1017=
201904150200 METAR LRCL 150200Z 00000KT CAVOK 06/M00 Q1017=
201904150230 METAR LRCL 150230Z 10002KT CAVOK 05/01 Q1017=
201904150300 METAR LRCL 150300Z 04003KT CAVOK 04/M00 Q1018=
201904150330 METAR LRCL 150330Z 00000KT CAVOK 04/01 Q1018=
201904150400 METAR LRCL 150400Z 08003KT CAVOK 03/M00 Q1018=
201904150430 METAR LRCL 150430Z 07002KT CAVOK 04/00 Q1018=
201904150500 METAR LRCL 150500Z VRB02KT CAVOK 05/01 Q1018=
201904150530 METAR LRCL 150530Z VRB02KT CAVOK 07/01 Q1018=
201904150600 METAR LRCL 150600Z VRB02KT CAVOK 08/M01 Q1019=
201904150630 METAR LRCL 150630Z 07003KT CAVOK 09/M01 Q1018=
201904150700 METAR LRCL 150700Z 08006KT CAVOK 09/M02 Q1019=
201904150730 METAR LRCL 150730Z 11008KT CAVOK 10/M04 Q1019=
201904150800 METAR LRCL 150800Z 11005KT CAVOK 11/M03 Q1019=
201904150830 METAR LRCL 150830Z 11006KT CAVOK 11/M04 Q1019=
201904150900 METAR LRCL 150900Z 21003KT CAVOK 11/M04 Q1018=
201904150930 METAR LRCL 150930Z 04005KT CAVOK 11/M04 Q1018=
201904151000 METAR LRCL 151000Z VRB04KT CAVOK 13/M04 Q1018=
201904151030 METAR LRCL 151030Z VRB05KT CAVOK 13/M05 Q1018=
201904151100 METAR LRCL 151100Z VRB02KT CAVOK 13/M07 Q1018=
201904151130 METAR LRCL 151130Z 11006KT CAVOK 14/M08 Q1018=
201904151200 METAR LRCL 151200Z VRB05KT CAVOK 14/M07 Q1017=
201904151230 METAR LRCL 151230Z 32007KT CAVOK 14/M06 Q1017=
201904151300 METAR LRCL 151300Z 09006KT CAVOK 14/M06 Q1017=
201904151330 METAR LRCL 151330Z 32007KT CAVOK 14/M06 Q1017=
201904151400 METAR LRCL 151400Z 30005KT CAVOK 15/M07 Q1017=
201904151430 METAR LRCL 151430Z 35004KT CAVOK 15/M06 Q1017=
201904151500 METAR LRCL 151500Z 35005KT CAVOK 15/M06 Q1016=
201904151530 METAR LRCL 151530Z VRB03KT CAVOK 15/M06 Q1016=
201904151600 METAR LRCL 151600Z 32004KT CAVOK 14/M07 Q1016=
201904151630 METAR LRCL 151630Z 29006KT CAVOK 14/M04 Q1016=
201904151700 METAR LRCL 151700Z 30006KT CAVOK 11/M03 Q1016=
201904151730 METAR LRCL 151730Z 30007KT CAVOK 10/M03 Q1017=
201904151800 METAR LRCL 151800Z 31009KT CAVOK 11/M05 Q1017=
201904151830 METAR LRCL 151830Z 31009KT CAVOK 10/M05 Q1017=
201904151900 METAR LRCL 151900Z 08005KT 040V130 CAVOK 09/M04 Q1018=
201904151930 METAR LRCL 151930Z 05005KT CAVOK 08/M05 Q1018=
201904152000 METAR LRCL 152000Z 12003KT 070V150 CAVOK 08/M05 Q1019=
201904152030 METAR LRCL 152030Z 35004KT 330V030 CAVOK 06/M03 Q1019=
201904152100 METAR LRCL 152100Z 04003KT 350V120 CAVOK 06/M05 Q1019=
201904152130 METAR LRCL 152130Z 15003KT 040V210 CAVOK 05/M04 Q1019=
201904152200 METAR LRCL 152200Z VRB01KT CAVOK 05/M04 Q1019=
201904152230 METAR LRCL 152230Z 27003KT CAVOK 03/M03 Q1019=
201904152300 METAR LRCL 152300Z 28003KT CAVOK 03/M03 Q1020=
201904152330 METAR LRCL 152330Z 29003KT 270V330 CAVOK 02/M03 Q1020=
201904160000 METAR LRCL 160000Z VRB02KT CAVOK 02/M03 Q1020=
201904160030 METAR LRCL 160030Z 29002KT CAVOK 01/M03 Q1020=
201904160100 METAR LRCL 160100Z 27002KT CAVOK 01/M03 Q1020=
201904160130 METAR LRCL 160130Z VRB01KT CAVOK 01/M03 Q1020=
201904160200 METAR LRCL 160200Z 27003KT CAVOK 00/M03 Q1020=
201904160230 METAR LRCL 160230Z 24004KT CAVOK 00/M04 Q1020=
201904160300 METAR LRCL 160300Z 27003KT CAVOK 00/M03 Q1020=
201904160330 METAR LRCL 160330Z 25003KT CAVOK 00/M04 Q1020=
201904160400 METAR LRCL 160400Z 27004KT CAVOK M00/M04 Q1020=
201904160430 METAR LRCL 160430Z 27003KT CAVOK 01/M03 Q1020=
201904160500 METAR LRCL 160500Z 26004KT 210V300 CAVOK 02/M02 Q1020=
201904160530 METAR LRCL 160530Z 26004KT CAVOK 03/M03 Q1020=
201904160600 METAR LRCL 160600Z 26003KT CAVOK 05/M03 Q1020=
201904160630 METAR LRCL 160630Z VRB01KT CAVOK 07/M04 Q1019=
201904160700 METAR LRCL 160700Z VRB02KT CAVOK 08/M05 Q1019=
201904160730 METAR COR LRCL 160730Z VRB03KT CAVOK 09/M05 Q1019=
201904160800 METAR LRCL 160800Z VRB02KT CAVOK 10/M05 Q1019=
201904160830 METAR LRCL 160830Z VRB02KT CAVOK 10/M06 Q1019=
201904160900 METAR LRCL 160900Z VRB05KT CAVOK 12/M06 Q1018=
201904160930 METAR LRCL 160930Z 30008KT 240V330 CAVOK 12/M06 Q1018=
201904161000 METAR LRCL 161000Z VRB08KT CAVOK 13/M07 Q1018=
201904161030 METAR LRCL 161030Z 30010KT 270V350 CAVOK 13/M05 Q1018=
201904161100 METAR COR LRCL 161100Z 31010KT 270V340 CAVOK 14/M06 Q1018=
201904161130 METAR LRCL 161130Z 31012G22KT 270V350 CAVOK 14/M08 Q1017=
201904161200 METAR LRCL 161200Z 30012KT 280V340 CAVOK 14/M08 Q1017=
201904161230 METAR LRCL 161230Z AUTO 31012KT 280V340 9999 FEW230/// 15/M07
                        Q1016=
201904161300 METAR LRCL 161300Z 31013KT 270V350 CAVOK 14/M08 Q1016=
201904161330 METAR LRCL 161330Z 31012KT CAVOK 15/M08 Q1016=
201904161400 METAR LRCL 161400Z 30016KT CAVOK 15/M09 Q1016=
201904161430 METAR LRCL 161430Z 30012KT CAVOK 15/M09 Q1016=
201904161500 METAR LRCL 161500Z 30013KT CAVOK 13/M09 Q1016=
201904161530 METAR LRCL 161530Z 32013KT CAVOK 14/M10 Q1016=
201904161600 METAR LRCL 161600Z 32012KT 290V350 CAVOK 14/M09 Q1016=
201904161630 METAR LRCL 161630Z 31012KT CAVOK 13/M09 Q1016=
201904161700 METAR LRCL 161700Z 32011KT CAVOK 13/M09 Q1016=
201904161730 METAR LRCL 161730Z 30010KT CAVOK 12/M09 Q1016=
201904161800 METAR LRCL 161800Z 30007KT CAVOK 11/M07 Q1016=
201904161830 METAR LRCL 161830Z 29008KT CAVOK 11/M07 Q1016=
201904161900 METAR LRCL 161900Z 31007KT CAVOK 11/M07 Q1016=
201904161930 METAR LRCL 161930Z 32008KT CAVOK 11/M07 Q1016=
201904162000 METAR LRCL 162000Z 33008KT CAVOK 11/M07 Q1016=
201904162030 METAR LRCL 162030Z 35008KT CAVOK 11/M05 Q1016=
201904162100 METAR LRCL 162100Z 32007KT CAVOK 10/M02 Q1017=
201904162130 METAR LRCL 162130Z 32013KT CAVOK 09/M01 Q1017=
201904162200 METAR LRCL 162200Z 31008KT CAVOK 08/M00 Q1017=
201904162230 METAR LRCL 162230Z 28010KT 9999 FEW046 07/01 Q1017=
201904162300 METAR LRCL 162300Z 29011KT 9999 SCT042 07/01 Q1017=
201904162330 METAR LRCL 162330Z 28011KT 9999 FEW033 SCT042 07/01 Q1017=
201904170000 METAR LRCL 170000Z 28011KT 9999 SCT033 06/01 Q1017=
201904170030 METAR LRCL 170030Z 27006KT 9999 SCT030 06/00 Q1017=
201904170100 METAR LRCL 170100Z 28008KT 9999 SCT030 06/00 Q1017=
201904170130 METAR LRCL 170130Z 28010KT 9999 FEW030 06/00 Q1017=
201904170200 METAR LRCL 170200Z 27010KT CAVOK 05/00 Q1017=
201904170230 METAR LRCL 170230Z 28009KT CAVOK 05/00 Q1017=
201904170300 METAR LRCL 170300Z 27007KT CAVOK 05/00 Q1017=
201904170330 METAR LRCL 170330Z 27007KT 9999 FEW060CB 05/00 Q1017=
201904170400 METAR LRCL 170400Z 27007KT 9999 -RA FEW053CB OVC055 05/01
                        Q1017=
201904170430 METAR LRCL 170430Z 26006KT 9999 -RA FEW052CB SCT055 OVC058
                        05/01 Q1017 R07/19//95=
201904170500 METAR LRCL 170500Z 27004KT 9999 -RA SCT037 OVC047 05/02 Q1017
                        R07/19//95=
201904170530 METAR LRCL 170530Z 26006KT 9999 -RA BKN033 OVC045 06/02 Q1017
                        R07/29//95=
201904170600 METAR LRCL 170600Z 26010KT 9999 -RA BKN034 OVC056 06/02 Q1018
                        R07/29//95=
201904170630 METAR LRCL 170630Z 26008KT 9999 BKN039 OVC059 06/03 Q1018
                        R07/29//95=
201904170700 METAR LRCL 170700Z 26008KT 9999 -RA FEW016 BKN042 OVC062
                        07/03 Q1018 R07/29//95=
201904170730 METAR LRCL 170730Z 26008KT 9999 -RA FEW016 BKN042 OVC065
                        07/03 Q1018 R07/29//95=
201904170800 METAR LRCL 170800Z 28007KT 250V310 9999 FEW020 SCT055 BKN068
                        08/03 Q1018 R07/19//95=
201904170830 METAR LRCL 170830Z 25008KT 220V290 9999 FEW028 SCT055 BKN068
                        09/02 Q1018 R07/19//95=
201904170900 METAR LRCL 170900Z 27008KT 240V300 9999 -RA SCT025 BKN039
                        OVC068 09/03 Q1018 R07/19//95=
201904170930 METAR LRCL 170930Z 27007KT 230V300 9999 -RA SCT025 SCT044
                        OVC068 10/04 Q1018 R07/19//95=
201904171000 METAR LRCL 171000Z 26006KT 9999 -RA SCT028 SCT034 OVC062
                        10/03 Q1019 R07/19//95=
201904171030 METAR LRCL 171030Z 33004KT 230V040 9999 -RA SCT028 SCT034
                        OVC060 11/02 Q1019 R07/19//95=
201904171100 METAR LRCL 171100Z VRB02KT 9999 -RA SCT028 SCT039 OVC060
                        11/01 Q1019 R07/29//95=
201904171130 METAR LRCL 171130Z 36004KT 300V060 9999 -RA SCT028 BKN043
                        OVC065 11/02 Q1019 R07/29//95=
201904171200 METAR LRCL 171200Z 28003KT 230V330 9999 FEW028 BKN045 OVC068
                        11/01 Q1019 R07/29//95=
201904171230 METAR COR LRCL 171230Z VRB03KT 9999 BKN047 OVC064 11/02 Q1019
                        R07/19//95=
201904171300 METAR LRCL 171300Z VRB02KT 9999 FEW039 BKN050 OVC065 11/02
                        Q1019 R07/CLRD//=
201904171330 METAR LRCL 171330Z VRB02KT 9999 FEW039 BKN044 OVC065 11/03
                        Q1019=
201904171400 METAR LRCL 171400Z 03002KT 9999 BKN041 OVC057 12/02 Q1020=
201904171430 METAR LRCL 171430Z 01004KT 300V070 9999 BKN040 BKN060 11/03
                        Q1020=
201904171500 METAR LRCL 171500Z 02008KT 350V060 9999 FEW039CB BKN040 11/02
                        Q1020=
201904171530 METAR LRCL 171530Z 02008KT 350V050 9999 FEW040CB BKN042 BKN065
                        11/02 Q1020=
201904171600 METAR LRCL 171600Z 04007KT 010V070 9999 BKN042 BKN064 11/01
                        Q1020=
201904171630 METAR LRCL 171630Z 04006KT 9999 BKN048 11/02 Q1020=
201904171700 METAR LRCL 171700Z 03006KT 9999 BKN048 10/02 Q1021=
201904171730 METAR LRCL 171730Z 05006KT 9999 BKN052 10/02 Q1021=
201904171800 METAR LRCL 171800Z 05005KT 9999 BKN052 10/02 Q1021=
201904171830 METAR LRCL 171830Z 07004KT 9999 FEW036 OVC052 09/03 Q1022=
201904171900 METAR LRCL 171900Z VRB02KT 9999 FEW036 OVC048 09/03 Q1022
                        R07/19//95=
201904171930 METAR LRCL 171930Z 04003KT 9999 BKN052 09/03 Q1023 R07/19//95=
201904172000 METAR LRCL 172000Z 03004KT 9999 SCT055 09/03 Q1023 R07/19//95=
201904172030 METAR LRCL 172030Z 08004KT 9999 SCT055 09/03 Q1023 R07/19//95=
201904172100 METAR LRCL 172100Z 06005KT 9999 SCT058 08/03 Q1023 R07/19//95=
201904172130 METAR LRCL 172130Z VRB02KT 9999 FEW060 08/04 Q1023 R07/19//95=
201904172200 METAR LRCL 172200Z 04002KT CAVOK 07/03 Q1023 R07/CLRD//=
201904172230 METAR LRCL 172230Z 02003KT CAVOK 06/04 Q1024 R07/CLRD//=
201904172300 METAR LRCL 172300Z 10003KT CAVOK 06/03 Q1024=
201904172330 METAR LRCL 172330Z 00000KT CAVOK 06/03 Q1024=
201904180000 METAR LRCL 180000Z 29003KT CAVOK 05/03 Q1024=
201904180030 METAR LRCL 180030Z 23002KT CAVOK 05/03 Q1024=
201904180100 METAR LRCL 180100Z VRB02KT CAVOK 05/03 Q1024=
201904180130 METAR LRCL 180130Z 26003KT CAVOK 05/03 Q1024=
201904180200 METAR LRCL 180200Z VRB01KT CAVOK 05/03 Q1025=
201904180230 METAR LRCL 180230Z VRB02KT CAVOK 05/03 Q1025=
201904180300 METAR LRCL 180300Z 26003KT 9999 FEW045 OVC065 06/03 Q1025=
201904180330 METAR LRCL 180330Z 30004KT 9999 FEW045 OVC060 05/03 Q1025=
201904180400 METAR LRCL 180400Z 27005KT 9999 OVC050 06/03 Q1025=
201904180430 METAR LRCL 180430Z 27007KT 9999 BKN050 06/03 Q1025=
201904180500 METAR LRCL 180500Z 27007KT 9999 BKN055 06/03 Q1026=
201904180530 METAR LRCL 180530Z 27006KT 9999 BKN055 07/04 Q1026=
201904180600 METAR LRCL 180600Z 27006KT 9999 SCT060 08/04 Q1026=
201904180630 METAR LRCL 180630Z 27006KT 9999 FEW065 09/04 Q1026=
201904180700 METAR LRCL 180700Z 26004KT 220V290 CAVOK 10/03 Q1026=
201904180730 METAR LRCL 180730Z 27003KT 200V340 CAVOK 11/03 Q1027=
201904180800 METAR LRCL 180800Z 25004KT 200V290 CAVOK 11/03 Q1027=
201904180830 METAR LRCL 180830Z VRB02KT CAVOK 12/03 Q1027=
201904180900 METAR LRCL 180900Z 02004KT 340V080 9999 FEW037 13/04 Q1027=
201904180930 METAR LRCL 180930Z 07007KT 030V110 9999 FEW059 14/03 Q1027=
201904181000 METAR LRCL 181000Z 08005KT 010V110 9999 BKN062 14/03 Q1027=
201904181030 METAR LRCL 181030Z 03005KT 350V080 9999 BKN053 14/03 Q1027=
201904181100 METAR LRCL 181100Z 03005KT 360V060 9999 BKN056 14/03 Q1027=
201904181130 METAR LRCL 181130Z 05004KT 360V090 9999 BKN053 14/03 Q1027=
201904181200 METAR LRCL 181200Z 09005KT 060V130 9999 BKN053 14/03 Q1027=
201904181230 METAR LRCL 181230Z 07009KT 040V100 9999 BKN058 14/02 Q1027=
201904181300 METAR LRCL 181300Z 09007KT 060V130 9999 BKN050 14/02 Q1027=
201904181330 METAR LRCL 181330Z 08006KT 9999 BKN052 14/02 Q1027=
201904181400 METAR LRCL 181400Z 07006KT 9999 BKN053 14/01 Q1027=
201904181430 METAR LRCL 181430Z 09007KT 9999 BKN054 14/01 Q1027=
201904181500 METAR LRCL 181500Z 09006KT 9999 FEW057 14/02 Q1027=
201904181530 METAR COR LRCL 181530Z 08007KT 9999 FEW065 14/02 Q1027=
201904181600 METAR LRCL 181600Z 09004KT 9999 SCT057 13/02 Q1027=
201904181630 METAR LRCL 181630Z 15003KT 110V240 9999 SCT068 14/00 Q1027=
201904181700 METAR LRCL 181700Z 22003KT 9999 SCT061 12/01 Q1027=
201904181730 METAR LRCL 181730Z 31003KT 9999 SCT062 10/03 Q1027=
201904181800 METAR LRCL 181800Z VRB01KT 9999 SCT059 10/02 Q1028=
201904181830 METAR LRCL 181830Z VRB02KT 9999 FEW059 08/03 Q1028=
201904181900 METAR LRCL 181900Z 27003KT 9999 FEW060 07/02 Q1028=
201904181930 METAR LRCL 181930Z 28003KT 9999 FEW062 06/02 Q1028=
201904182000 METAR LRCL 182000Z 27003KT 9999 SCT064 05/02 Q1028=
201904182030 METAR LRCL 182030Z 26003KT 9999 SCT060 06/02 Q1028=
201904182100 METAR LRCL 182100Z 26002KT 9999 FEW063 05/01 Q1028=
201904182130 METAR LRCL 182130Z 23003KT CAVOK 04/01 Q1028=
201904182200 METAR LRCL 182200Z 26004KT CAVOK 05/02 Q1028=
201904182230 METAR LRCL 182230Z 25004KT CAVOK 04/01 Q1028=
201904182300 METAR LRCL 182300Z 26004KT CAVOK 03/01 Q1028=
201904182330 METAR LRCL 182330Z 26004KT CAVOK 02/00 Q1028=
201904190000 METAR LRCL 190000Z 27007KT CAVOK 04/02 Q1027=
201904190030 METAR LRCL 190030Z 27008KT CAVOK 04/01 Q1027=
201904190100 METAR LRCL 190100Z 27008KT CAVOK 04/01 Q1027=
201904190130 METAR LRCL 190130Z 27008KT CAVOK 04/01 Q1027=
201904190200 METAR LRCL 190200Z 29004KT CAVOK 03/01 Q1027=
201904190230 METAR LRCL 190230Z 27007KT CAVOK 03/01 Q1027=
201904190300 METAR LRCL 190300Z 27009KT CAVOK 03/01 Q1026=
201904190330 METAR LRCL 190330Z 27009KT CAVOK 04/01 Q1026=
201904190400 METAR LRCL 190400Z 27010KT CAVOK 04/01 Q1026=
201904190430 METAR LRCL 190430Z 27008KT CAVOK 05/01 Q1026=
201904190500 METAR LRCL 190500Z 26008KT CAVOK 06/01 Q1026=
201904190530 METAR LRCL 190530Z 27004KT CAVOK 08/02 Q1026=
201904190600 METAR LRCL 190600Z 23006KT CAVOK 09/01 Q1026=
201904190630 METAR LRCL 190630Z 27007KT CAVOK 13/02 Q1025=
201904190700 METAR LRCL 190700Z 30016KT CAVOK 14/01 Q1026=
201904190730 METAR LRCL 190730Z 31014KT CAVOK 15/01 Q1025=
201904190800 METAR LRCL 190800Z 31015KT CAVOK 15/M00 Q1025=
201904190830 METAR LRCL 190830Z 32013KT CAVOK 17/M01 Q1025=
201904190900 METAR LRCL 190900Z 32012KT 9999 FEW030 17/M01 Q1025=
201904190930 METAR LRCL 190930Z 35013KT 9999 BKN035 16/M03 Q1025=
201904191000 METAR LRCL 191000Z 34014KT 9999 BKN040 17/M02 Q1025=
201904191030 METAR LRCL 191030Z 34012KT 9999 BKN045 17/M02 Q1025=
201904191100 METAR LRCL 191100Z 01011KT 9999 BKN050 16/M03 Q1024=
201904191130 METAR LRCL 191130Z 33010KT 9999 BKN050 18/M04 Q1024=
201904191200 METAR LRCL 191200Z 35008KT 9999 BKN050 17/M04 Q1024=
201904191230 METAR LRCL 191230Z 06008KT 9999 BKN055 18/M06 Q1024=
201904191300 METAR LRCL 191300Z 02006KT 9999 SCT055 18/M06 Q1024=
201904191330 METAR LRCL 191330Z 02009KT 9999 SCT060 18/M06 Q1024=
201904191400 METAR LRCL 191400Z 04007KT CAVOK 17/M08 Q1024=
201904191430 METAR LRCL 191430Z 02007KT CAVOK 18/M08 Q1024=
201904191500 METAR LRCL 191500Z 03008KT CAVOK 18/M07 Q1024=
201904191530 METAR LRCL 191530Z 05011KT CAVOK 17/M07 Q1024=
201904191600 METAR LRCL 191600Z 05010KT CAVOK 16/M07 Q1024=
201904191630 METAR LRCL 191630Z 05009KT CAVOK 15/M07 Q1025=
201904191700 METAR LRCL 191700Z 05009KT CAVOK 15/M07 Q1025=
201904191730 METAR LRCL 191730Z 03007KT CAVOK 13/M07 Q1026=
201904191800 METAR LRCL 191800Z 03007KT CAVOK 12/M06 Q1026=
201904191830 METAR LRCL 191830Z 02007KT CAVOK 11/M06 Q1026=
201904191900 METAR LRCL 191900Z 36005KT CAVOK 09/M05 Q1027=
201904191930 METAR LRCL 191930Z 01006KT CAVOK 08/M05 Q1027=
201904192000 METAR LRCL 192000Z 01003KT 350V050 CAVOK 08/M05 Q1027=
201904192030 METAR LRCL 192030Z 25003KT 170V340 CAVOK 06/M02 Q1027=
201904192100 METAR LRCL 192100Z 23004KT CAVOK 05/M04 Q1028=
201904192130 METAR LRCL 192130Z VRB02KT CAVOK 06/M03 Q1028=
201904192200 METAR LRCL 192200Z VRB02KT CAVOK 06/M03 Q1028=
201904192230 METAR LRCL 192230Z VRB01KT CAVOK 04/M03 Q1028=
201904192300 METAR LRCL 192300Z 00000KT CAVOK 03/M02 Q1028=
201904192330 METAR LRCL 192330Z VRB02KT CAVOK 03/M02 Q1028=
201904200000 METAR LRCL 200000Z 34003KT 270V070 CAVOK 02/M02 Q1028=
201904200030 METAR LRCL 200030Z VRB02KT CAVOK 02/M03 Q1028=
201904200100 METAR LRCL 200100Z VRB01KT CAVOK 02/M03 Q1028=
201904200130 METAR LRCL 200130Z VRB02KT CAVOK 02/M03 Q1028=
201904200200 METAR LRCL 200200Z 22002KT CAVOK 02/M03 Q1028=
201904200230 METAR LRCL 200230Z VRB02KT CAVOK 01/M03 Q1028=
201904200300 METAR LRCL 200300Z 27003KT 230V310 CAVOK 01/M02 Q1028=
201904200330 METAR LRCL 200330Z VRB02KT CAVOK 01/M03 Q1028=
201904200400 METAR LRCL 200400Z 00000KT CAVOK 01/M02 Q1028=
201904200430 METAR LRCL 200430Z VRB01KT CAVOK 02/M01 Q1028=
201904200500 METAR LRCL 200500Z 25003KT 220V280 CAVOK 03/M02 Q1028=
201904200530 METAR LRCL 200530Z 27005KT CAVOK 05/M02 Q1028=
201904200600 METAR LRCL 200600Z 26004KT 220V310 CAVOK 07/M02 Q1028=
201904200630 METAR LRCL 200630Z VRB03KT CAVOK 08/M02 Q1028=
201904200700 METAR LRCL 200700Z VRB02KT CAVOK 10/M01 Q1028=
201904200730 METAR LRCL 200730Z VRB03KT CAVOK 12/M01 Q1028=
201904200800 METAR LRCL 200800Z 09004KT 030V140 9999 FEW030 12/M01 Q1028=
201904200830 METAR LRCL 200830Z VRB03KT 9999 FEW033 13/M01 Q1028=
201904200900 METAR LRCL 200900Z VRB04KT 9999 FEW040 14/M02 Q1028=
201904200930 METAR LRCL 200930Z 08006KT 350V130 9999 FEW050 15/M05 Q1028=
201904201000 METAR LRCL 201000Z 08007KT 050V150 9999 FEW055 15/M05 Q1028=
201904201030 METAR LRCL 201030Z 10007KT 070V140 9999 FEW065 16/M04 Q1027=
201904201100 METAR COR LRCL 201100Z VRB05KT 9999 FEW064 15/M03 Q1027=
201904201130 METAR LRCL 201130Z VRB05KT 9999 FEW067 16/M04 Q1027=
201904201200 METAR LRCL 201200Z 26004KT 9999 SCT067 15/M06 Q1027=
201904201230 METAR LRCL 201230Z VRB04KT 9999 SCT067 16/M05 Q1027=
201904201300 METAR LRCL 201300Z VRB03KT 9999 FEW068 16/M05 Q1026=
201904201330 METAR COR LRCL 201330Z VRB04KT 9999 FEW068 16/M05 Q1026=
201904201400 METAR LRCL 201400Z VRB03KT 9999 FEW068 17/M05 Q1026=
201904201430 METAR LRCL 201430Z VRB02KT 9999 FEW068 17/M05 Q1026=
201904201500 METAR LRCL 201500Z VRB02KT CAVOK 16/M05 Q1025=
201904201530 METAR LRCL 201530Z 27003KT 210V320 CAVOK 16/M05 Q1025=
201904201600 METAR LRCL 201600Z 00000KT CAVOK 18/M03 Q1025=
201904201630 METAR LRCL 201630Z 28003KT CAVOK 16/M04 Q1025=
201904201700 METAR LRCL 201700Z 27004KT CAVOK 14/M01 Q1025=
201904201730 METAR LRCL 201730Z 27003KT CAVOK 12/M02 Q1025=
201904201800 METAR LRCL 201800Z 27003KT CAVOK 10/00 Q1025=
201904201830 METAR LRCL 201830Z 27004KT CAVOK 10/M02 Q1025=
201904201900 METAR LRCL 201900Z 27003KT CAVOK 08/M01 Q1025=
201904201930 METAR LRCL 201930Z 26004KT CAVOK 07/M01 Q1025=
201904202000 METAR LRCL 202000Z 26004KT CAVOK 08/M01 Q1025=
201904202030 METAR LRCL 202030Z 27006KT CAVOK 07/M01 Q1025=
201904202100 METAR LRCL 202100Z 28004KT CAVOK 06/M01 Q1024=
201904202130 METAR LRCL 202130Z 23004KT CAVOK 07/M02 Q1024=
201904202200 METAR LRCL 202200Z VRB01KT CAVOK 06/M01 Q1024=
201904202230 METAR LRCL 202230Z 30004KT CAVOK 06/M01 Q1024=
201904202300 METAR LRCL 202300Z VRB01KT CAVOK 07/M01 Q1024=
201904202330 METAR LRCL 202330Z 05001KT CAVOK 07/M01 Q1024=
201904210000 METAR LRCL 210000Z VRB02KT CAVOK 06/M01 Q1023=
201904210030 METAR LRCL 210030Z 09005KT CAVOK 05/M00 Q1023=
201904210100 METAR LRCL 210100Z 09005KT CAVOK 05/M00 Q1023=
201904210130 METAR LRCL 210130Z 35003KT CAVOK 06/00 Q1023=
201904210200 METAR LRCL 210200Z VRB02KT CAVOK 05/M00 Q1023=
201904210230 METAR LRCL 210230Z 07005KT CAVOK 06/M00 Q1023=
201904210300 METAR LRCL 210300Z 10004KT CAVOK 05/M00 Q1023=
201904210330 METAR LRCL 210330Z VRB01KT CAVOK 05/00 Q1023=
201904210400 METAR LRCL 210400Z 09003KT 040V130 9999 SCT060 05/M00 Q1023=
201904210430 METAR LRCL 210430Z VRB02KT 9999 SCT060 06/00 Q1023=
201904210500 METAR LRCL 210500Z VRB02KT 9999 SCT060 07/M00 Q1023=
201904210530 METAR LRCL 210530Z 08005KT 9999 FEW060 07/00 Q1023=
201904210600 METAR LRCL 210600Z 08005KT 9999 SCT060 07/00 Q1022=
201904210630 METAR LRCL 210630Z 08003KT 030V120 9999 FEW060 08/00 Q1022=
201904210700 METAR LRCL 210700Z 04004KT 350V080 9999 FEW060 09/01 Q1022=
201904210730 METAR LRCL 210730Z 05005KT 020V090 9999 FEW060 11/01 Q1022=
201904210800 METAR LRCL 210800Z 08006KT 9999 FEW060 12/02 Q1022=
201904210830 METAR LRCL 210830Z 09008KT 050V120 9999 FEW065 13/02 Q1021=
201904210900 METAR LRCL 210900Z 12009KT 070V140 9999 FEW060 15/M00 Q1021=
201904210930 METAR LRCL 210930Z 13011KT 9999 FEW060 16/01 Q1020=
201904211000 METAR LRCL 211000Z 13011KT 9999 FEW060 18/M00 Q1020=
201904211030 METAR LRCL 211030Z 14012KT 100V170 9999 FEW055 17/M01 Q1019=
201904211100 METAR LRCL 211100Z 14011KT 100V170 9999 FEW055 19/M00 Q1019=
201904211130 METAR LRCL 211130Z 12009KT 100V160 9999 FEW053TCU FEW055
                        19/M01 Q1019=
201904211200 METAR LRCL 211200Z VRB03KT 9999 -SHRA FEW053CB FEW055 18/M00
                        Q1019=
201904211230 METAR LRCL 211230Z 10005KT 060V150 9999 SCT033 FEW036CB 18/M00
                        Q1019 R07/29//95=
201904211300 METAR LRCL 211300Z 21007KT 9999 FEW036CB SCT040 17/02 Q1019
                        R07/29//95=
201904211330 METAR LRCL 211330Z VRB03KT 9999 FEW033CB SCT036 19/01 Q1018
                        R07/29//95=
201904211400 METAR LRCL 211400Z 32005KT 240V360 9999 VCSH SCT030CB SCT036
                        17/M01 Q1018 R07/29//95=
201904211430 METAR LRCL 211430Z 01006KT 350V060 9999 -SHRA SCT030CB SCT036
                        BKN051 16/M01 Q1018=
201904211500 METAR LRCL 211500Z 05009KT 350V080 9999 -SHRA SCT033CB BKN050
                        15/02 Q1018 R07/19//95=
201904211530 METAR LRCL 211530Z 07007KT 020V100 9999 SCT036CB BKN050 15/03
                        Q1018 R07/19//95=
201904211600 METAR LRCL 211600Z 13004KT 9999 SCT040CB BKN056 14/03 Q1018
                        R07/19//95=
201904211630 METAR LRCL 211630Z 14003KT 9999 FEW049CB SCT062 14/04 Q1018
                        R07/CLRD//=
201904211700 METAR LRCL 211700Z 17004KT 9999 FEW055CB SCT065 13/03 Q1018=
201904211730 METAR LRCL 211730Z 16005KT 130V200 9999 FEW060CB SCT067 12/04
                        Q1018=
201904211800 METAR LRCL 211800Z VRB02KT 9999 FEW060CB 11/04 Q1018=
201904211830 METAR LRCL 211830Z 12003KT 9999 FEW060CB 11/03 Q1018=
201904211900 METAR LRCL 211900Z VRB02KT 9999 FEW067 10/04 Q1019=
201904211930 METAR LRCL 211930Z VRB01KT CAVOK 08/04 Q1019=
201904212000 METAR LRCL 212000Z 32003KT CAVOK 08/03 Q1019=
201904212030 METAR LRCL 212030Z 10004KT CAVOK 07/03 Q1019=
201904212100 METAR COR LRCL 212100Z 00000KT CAVOK 06/03 Q1018=
201904212130 METAR LRCL 212130Z 31003KT CAVOK 05/03 Q1018=
201904212200 METAR LRCL 212200Z 00000KT CAVOK 05/02 Q1018=
201904212230 METAR LRCL 212230Z 08004KT 9999 FEW067 05/02 Q1018=
201904212300 METAR LRCL 212300Z VRB01KT 9999 FEW067 05/03 Q1018=
201904212330 METAR LRCL 212330Z 09003KT 9999 BKN067 05/03 Q1018=
201904220000 METAR COR LRCL 220000Z 13005KT 9999 FEW067 05/03 Q1019=
201904220030 METAR LRCL 220030Z VRB02KT CAVOK 06/03 Q1019=
201904220100 METAR LRCL 220100Z VRB02KT CAVOK 06/03 Q1019=
201904220130 METAR LRCL 220130Z 26003KT 9999 -RA BKN067 07/04 Q1018=
201904220200 METAR COR LRCL 220200Z 36005KT 9999 -SHRA SCT056CB 07/04
                        Q1018=
201904220230 METAR LRCL 220230Z 36005KT 9999 -SHRA SCT056CB 07/04 Q1018=
201904220300 METAR LRCL 220300Z 27005KT 9999 FEW053CB SCT060 08/05 Q1018
                        R07/29//95=
201904220330 METAR LRCL 220330Z VRB02KT 9999 FEW055CB SCT067 07/04 Q1017
                        R07/29//95=
201904220400 METAR LRCL 220400Z 26005KT 9999 FEW060CB BKN067 07/05 Q1017
                        R07/29//95=
201904220430 METAR LRCL 220430Z VRB02KT 9999 FEW060CB BKN068 08/05 Q1018
                        R07/29//95=
201904220500 METAR COR LRCL 220500Z 16003KT 9999 FEW040 BKN061CB 08/05
                        Q1018 R07/15//95=
201904220530 METAR LRCL 220530Z 07004KT 9999 -SHRA SCT046 BKN058CB 08/06
                        Q1019 R07/15//95=
201904220600 METAR LRCL 220600Z VRB02KT 9999 FEW047 SCT065CB 09/05 Q1019
                        R07/29//95=
201904220630 METAR LRCL 220630Z 36003KT 9999 FEW065CB 10/06 Q1019 R07/29//95=
201904220700 METAR LRCL 220700Z 08006KT 9999 FEW065 11/06 Q1019 R07/29//95=
201904220730 METAR LRCL 220730Z 10008KT 070V130 9999 FEW055 12/06 Q1019
                        R07/29//95=
201904220800 METAR LRCL 220800Z 10010KT 9999 FEW028 12/04 Q1019 R07/29//95=
201904220830 METAR LRCL 220830Z 08010KT 9999 SCT026 12/05 Q1019 R07/CLRD//=
201904220900 METAR LRCL 220900Z 10011KT 9999 SCT036 12/04 Q1019=
201904220930 METAR LRCL 220930Z 13011KT 9999 SCT037 13/04 Q1019=
201904221000 METAR LRCL 221000Z 10011KT 9999 -RA BKN038 13/05 Q1019 R07/19//95=
201904221030 METAR LRCL 221030Z 12010KT 080V140 9999 FEW028 SCT037 BKN058
                        14/04 Q1019 R07/19//95=
201904221100 METAR LRCL 221100Z 10013KT 9999 SCT037 14/04 Q1019 R07/CLRD//=
201904221130 METAR LRCL 221130Z 11011KT 080V160 9999 BKN041 15/04 Q1019=
201904221200 METAR LRCL 221200Z 10011KT 070V140 9999 BKN040 14/03 Q1019=
201904221230 METAR LRCL 221230Z 10015KT 9999 BKN038 14/04 Q1019=
201904221300 METAR LRCL 221300Z AUTO 11016KT 9999 OVC037/// 14/04 Q1019=
201904221330 METAR LRCL 221330Z 10016KT 9999 BKN049 13/05 Q1019=
201904221400 METAR LRCL 221400Z 10017KT 9999 FEW029 SCT032 BKN058 13/05
                        Q1019=
201904221430 METAR LRCL 221430Z 11017KT 9999 BKN028 BKN055 12/05 Q1019=
201904221500 METAR LRCL 221500Z 11015KT 9999 SCT039 12/04 Q1019=
201904221530 METAR LRCL 221530Z 10015KT 9999 SCT043 11/04 Q1020=
201904221600 METAR LRCL 221600Z 11015KT 9999 SCT037 SCT055 10/03 Q1020=
201904221630 METAR LRCL 221630Z 11014KT 9999 FEW037 SCT057 10/03 Q1020=
201904221700 METAR LRCL 221700Z 11013KT 9999 SCT030 SCT054 09/03 Q1020=
201904221730 METAR LRCL 221730Z 11010KT 9999 BKN031 09/03 Q1020=
201904221800 METAR LRCL 221800Z 12009KT 090V150 9999 BKN034 08/03 Q1021=
201904221830 METAR LRCL 221830Z 12010KT 9999 SCT033 FEW035CB 08/02 Q1021=
201904221900 METAR LRCL 221900Z 12007KT 090V150 9999 FEW035CB 08/02 Q1021=
201904221930 METAR LRCL 221930Z 12009KT 9999 FEW035CB 08/02 Q1022=
201904222000 METAR LRCL 222000Z 12006KT 090V150 9999 FEW026 08/02 Q1022=
201904222030 METAR LRCL 222030Z 12007KT 090V150 9999 SCT064 08/02 Q1022=
201904222100 METAR LRCL 222100Z 12008KT 9999 SCT068 08/02 Q1022=
201904222130 METAR LRCL 222130Z 11007KT 9999 SCT068 07/02 Q1021=
201904222200 METAR LRCL 222200Z 11007KT CAVOK 07/01 Q1021=
201904222230 METAR LRCL 222230Z 09004KT 060V130 CAVOK 07/01 Q1021=
201904222300 METAR LRCL 222300Z 10007KT CAVOK 06/01 Q1021=
201904222330 METAR LRCL 222330Z 11007KT CAVOK 06/01 Q1021=
201904230000 METAR LRCL 230000Z 11005KT CAVOK 05/00 Q1021=
201904230030 METAR LRCL 230030Z 10004KT CAVOK 05/M00 Q1021=
201904230100 METAR LRCL 230100Z 13005KT CAVOK 05/M00 Q1021=
201904230130 METAR LRCL 230130Z 10004KT 060V120 CAVOK 04/M00 Q1021=
201904230200 METAR LRCL 230200Z 14001KT CAVOK 04/M01 Q1021=
201904230230 METAR LRCL 230230Z VRB01KT CAVOK 03/M00 Q1021=
201904230300 METAR LRCL 230300Z VRB02KT CAVOK 03/M01 Q1021=
201904230330 METAR LRCL 230330Z VRB02KT CAVOK 05/M02 Q1021=
201904230400 METAR LRCL 230400Z 12008KT CAVOK 05/M02 Q1021=
201904230430 METAR LRCL 230430Z 12004KT CAVOK 06/M01 Q1021=
201904230500 METAR LRCL 230500Z 09006KT CAVOK 07/M02 Q1022=
201904230530 METAR LRCL 230530Z VRB04KT CAVOK 08/M02 Q1022=
201904230600 METAR LRCL 230600Z 11009KT CAVOK 08/M03 Q1022=
201904230630 METAR LRCL 230630Z 13012KT CAVOK 11/M04 Q1022=
201904230700 METAR LRCL 230700Z 12014KT CAVOK 11/M04 Q1022=
201904230730 METAR LRCL 230730Z 12014KT CAVOK 11/M04 Q1022=
201904230800 METAR LRCL 230800Z 12013KT CAVOK 12/M03 Q1022=
201904230830 METAR LRCL 230830Z 12015KT CAVOK 12/M04 Q1022=
201904230900 METAR LRCL 230900Z 13014KT CAVOK 13/M03 Q1022=
201904230930 METAR LRCL 230930Z 13013KT CAVOK 13/M04 Q1022=
201904231000 METAR LRCL 231000Z 13011KT CAVOK 13/M03 Q1022=
201904231030 METAR LRCL 231030Z 15010KT CAVOK 13/M03 Q1022=
201904231100 METAR LRCL 231100Z 15010KT CAVOK 13/M03 Q1022=
201904231130 METAR LRCL 231130Z 16010KT CAVOK 14/M02 Q1022=
201904231200 METAR LRCL 231200Z 15009KT CAVOK 14/M02 Q1022=
201904231230 METAR LRCL 231230Z 15010KT CAVOK 14/M01 Q1022=
201904231300 METAR LRCL 231300Z 15010KT CAVOK 14/M02 Q1021=
201904231330 METAR LRCL 231330Z 14011KT CAVOK 15/M01 Q1021=
201904231400 METAR LRCL 231400Z 12013KT CAVOK 15/M03 Q1020=
201904231430 METAR LRCL 231430Z 13017KT CAVOK 15/M04 Q1020=
201904231500 METAR LRCL 231500Z 12014KT CAVOK 14/M04 Q1020=
201904231530 METAR LRCL 231530Z 12015KT CAVOK 14/M04 Q1020=
201904231600 METAR LRCL 231600Z 12016KT 9999 FEW067 14/M04 Q1020=
201904231630 METAR LRCL 231630Z 12015KT 9999 SCT067 14/M04 Q1020=
201904231700 METAR LRCL 231700Z 13013KT 9999 SCT067 14/M02 Q1020=
201904231730 METAR LRCL 231730Z 14010KT 9999 SCT064 13/M00 Q1020=
201904231800 METAR LRCL 231800Z 12007KT 9999 -RA FEW050 OVC067 12/01 Q1020=
201904231830 METAR LRCL 231830Z 15007KT 120V190 9999 FEW048 BKN067 12/00
                        Q1020=
201904231900 METAR LRCL 231900Z 15009KT 9999 SCT067 12/M00 Q1020=
201904231930 METAR LRCL 231930Z 15010KT 120V190 9999 SCT065 12/M00 Q1020=
201904232000 METAR LRCL 232000Z 14009KT 9999 BKN061 11/01 Q1021=
201904232030 METAR LRCL 232030Z 12006KT 080V160 9999 BKN060 11/01 Q1021=
201904232100 METAR LRCL 232100Z 12008KT 9999 BKN061 11/01 Q1021=
201904232130 METAR LRCL 232130Z 13008KT 9999 BKN061 11/01 Q1021=
201904232200 METAR COR LRCL 232200Z 13007KT 090V150 9999 -SHRA SCT062CB
                        10/02 Q1021=
201904232230 METAR LRCL 232230Z 11006KT 080V140 9999 -SHRA FEW055CB OVC067
                        10/02 Q1021 R07/19//95=
201904232300 METAR LRCL 232300Z AUTO 10006KT 9999 -SHRA OVC076/// 10/02
                        Q1021=
201904232330 METAR LRCL 232330Z 10007KT 9999 OVC067 10/01 Q1021 R07/19//95=
201904240000 METAR LRCL 240000Z 11010KT 9999 -SHRA SCT050CB OVC068 10/01
                        Q1021 R07/19//95=
201904240030 METAR COR LRCL 240030Z 11008KT 9999 OVC075 10/02 Q1021 R07/19//95=
201904240100 METAR COR LRCL 240100Z 11007KT 9999 BKN067 10/02 Q1021 R07/19//95=
201904240130 METAR LRCL 240130Z 10004KT 070V130 9999 OVC069 10/02 Q1021
                        R07/19//95=
201904240200 METAR LRCL 240200Z 09004KT 9999 OVC069 09/02 Q1021 R07/19//95=
201904240230 METAR LRCL 240230Z 08004KT 9999 OVC067 09/02 Q1021 R07/19//95=
201904240300 METAR LRCL 240300Z 08003KT 9999 -RA OVC068 09/02 Q1021 R07/19//95=
201904240330 METAR LRCL 240330Z 06003KT 9999 OVC067 09/02 Q1021 R07/19//95=
201904240400 METAR LRCL 240400Z 02003KT 9999 BKN067 08/03 Q1022 R07/CLRD//=
201904240430 METAR LRCL 240430Z VRB02KT 9999 BKN066 09/03 Q1022=
201904240500 METAR LRCL 240500Z 01003KT 9999 BKN066 09/03 Q1022=
201904240530 METAR LRCL 240530Z 05003KT 9999 FEW055CB OVC064 09/03 Q1023=
201904240600 METAR LRCL 240600Z 09005KT 040V110 9999 -SHRA FEW055CB OVC066
                        10/04 Q1023=
201904240630 METAR LRCL 240630Z 12007KT 9999 BKN065 10/03 Q1023 R07/19//95=
201904240700 METAR LRCL 240700Z 10006KT 9999 OVC065 10/03 Q1023 R07/19//95=
201904240730 METAR LRCL 240730Z 11007KT 090V150 9999 BKN065 11/04 Q1023
                        R07/19//95=
201904240800 METAR LRCL 240800Z 11008KT 9999 BKN065 11/02 Q1023 R07/19//95=
201904240830 METAR LRCL 240830Z 11008KT 9999 BKN066 12/02 Q1023 R07/CLRD//=
201904240900 METAR LRCL 240900Z 11008KT CAVOK 14/04 Q1023=
201904240930 METAR LRCL 240930Z 11007KT 080V140 CAVOK 15/04 Q1023=
201904241000 METAR LRCL 241000Z 11009KT 070V150 CAVOK 16/05 Q1023=
201904241030 METAR LRCL 241030Z 11010KT 080V140 CAVOK 18/05 Q1022=
201904241100 METAR LRCL 241100Z 11010KT 080V140 CAVOK 18/04 Q1022=
201904241130 METAR COR LRCL 241130Z 13009KT CAVOK 19/05 Q1022=
201904241200 METAR LRCL 241200Z 12011KT 090V150 CAVOK 20/05 Q1021=
201904241230 METAR LRCL 241230Z 13010KT 100V170 CAVOK 21/05 Q1021=
201904241300 METAR LRCL 241300Z 12012KT 100V160 CAVOK 21/05 Q1021=
201904241330 METAR LRCL 241330Z 14011KT CAVOK 21/04 Q1020=
201904241400 METAR LRCL 241400Z 12011KT CAVOK 21/05 Q1020=
201904241430 METAR LRCL 241430Z 13011KT CAVOK 21/04 Q1020=
201904241500 METAR LRCL 241500Z 15011KT CAVOK 21/04 Q1020=
201904241530 METAR LRCL 241530Z 16012KT CAVOK 21/04 Q1020=
201904241600 METAR LRCL 241600Z 16010KT 120V180 CAVOK 21/05 Q1020=
201904241630 METAR LRCL 241630Z 14009KT CAVOK 20/05 Q1020=
201904241700 METAR LRCL 241700Z 13007KT CAVOK 19/05 Q1020=
201904241730 METAR LRCL 241730Z 13005KT CAVOK 18/06 Q1020=
201904241800 METAR LRCL 241800Z VRB01KT CAVOK 16/06 Q1020=
201904241830 METAR LRCL 241830Z 36004KT CAVOK 14/06 Q1020=
201904241900 METAR LRCL 241900Z 05003KT CAVOK 15/05 Q1021=
201904241930 METAR LRCL 241930Z 06005KT CAVOK 15/05 Q1021=
201904242000 METAR LRCL 242000Z 07006KT CAVOK 13/05 Q1021=
201904242030 METAR LRCL 242030Z 06006KT CAVOK 13/05 Q1021=
201904242100 METAR LRCL 242100Z 04005KT CAVOK 13/05 Q1021=
201904242130 METAR LRCL 242130Z VRB04KT CAVOK 14/04 Q1021=
201904242200 METAR LRCL 242200Z 07006KT CAVOK 13/04 Q1021=
201904242230 METAR LRCL 242230Z 07007KT CAVOK 12/03 Q1021=
201904242300 METAR LRCL 242300Z 09010KT CAVOK 12/03 Q1021=
201904242330 METAR LRCL 242330Z 09008KT CAVOK 11/03 Q1021=
201904250000 METAR LRCL 250000Z 09009KT CAVOK 11/03 Q1021=
201904250030 METAR LRCL 250030Z 07006KT CAVOK 10/03 Q1021=
201904250100 METAR LRCL 250100Z 06006KT CAVOK 09/03 Q1021=
201904250130 METAR LRCL 250130Z 07006KT CAVOK 09/03 Q1022=
201904250200 METAR LRCL 250200Z 07005KT CAVOK 09/03 Q1022=
201904250230 METAR LRCL 250230Z 07007KT CAVOK 09/03 Q1022=
201904250300 METAR LRCL 250300Z 07007KT CAVOK 09/03 Q1022=
201904250330 METAR LRCL 250330Z 08005KT CAVOK 07/03 Q1022=
201904250400 METAR LRCL 250400Z 07005KT CAVOK 08/03 Q1022=
201904250430 METAR LRCL 250430Z VRB01KT CAVOK 09/04 Q1022=
201904250500 METAR LRCL 250500Z 06003KT 020V090 CAVOK 11/04 Q1022=
201904250530 METAR LRCL 250530Z 09004KT CAVOK 12/04 Q1022=
201904250600 METAR LRCL 250600Z 23005KT CAVOK 11/05 Q1022=
201904250630 METAR LRCL 250630Z VRB02KT CAVOK 12/05 Q1022=
201904250700 METAR LRCL 250700Z 08005KT 030V110 9999 FEW033 13/05 Q1023=
201904250730 METAR LRCL 250730Z 08006KT 050V120 9999 SCT037 14/06 Q1023
                        R07/19//95=
201904250800 METAR LRCL 250800Z 10005KT 9999 FEW040 16/06 Q1022 R07/19//95=
201904250830 METAR LRCL 250830Z 07006KT 020V150 9999 FEW042 18/07 Q1022
                        R07/CLRD//=
201904250900 METAR LRCL 250900Z 10005KT 060V200 9999 FEW035 19/07 Q1022=
201904250930 METAR LRCL 250930Z 09007KT 050V150 9999 FEW035 20/06 Q1022=
201904251000 METAR LRCL 251000Z 09008KT 050V120 9999 FEW036 21/07 Q1021=
201904251030 METAR LRCL 251030Z 09006KT 060V120 9999 FEW036 21/07 Q1021=
201904251100 METAR LRCL 251100Z 12006KT 9999 FEW036 22/06 Q1021=
201904251130 METAR LRCL 251130Z 12007KT 080V160 9999 FEW036 23/07 Q1020=
201904251200 METAR LRCL 251200Z 14007KT 100V190 9999 FEW037 23/07 Q1020=
201904251230 METAR LRCL 251230Z 11007KT 060V160 9999 FEW037 24/08 Q1020=
201904251300 METAR LRCL 251300Z 11007KT 9999 FEW040CB 23/07 Q1020=
201904251330 METAR LRCL 251330Z 16004KT 130V210 9999 FEW041CB 24/07 Q1020=
201904251400 METAR LRCL 251400Z 13006KT 100V160 9999 FEW042CB 24/07 Q1019=
201904251430 METAR LRCL 251430Z 19007KT 9999 FEW042CB 24/07 Q1019=
201904251500 METAR LRCL 251500Z 16006KT 120V200 9999 FEW043CB SCT046 24/07
                        Q1019=
201904251530 METAR LRCL 251530Z 15005KT 120V180 9999 FEW045CB SCT048 23/08
                        Q1019=
201904251600 METAR LRCL 251600Z 15005KT 9999 FEW046CB SCT055 23/08 Q1019=
201904251630 METAR LRCL 251630Z 19004KT 9999 FEW060 23/08 Q1018=
201904251700 METAR LRCL 251700Z 16003KT CAVOK 21/08 Q1018=
201904251730 METAR LRCL 251730Z VRB01KT 9999 FEW067 19/09 Q1018=
201904251800 METAR COR LRCL 251800Z VRB02KT CAVOK 17/08 Q1019=
201904251830 METAR LRCL 251830Z VRB02KT CAVOK 15/08 Q1019=
201904251900 METAR LRCL 251900Z 27003KT CAVOK 16/08 Q1019=
201904251930 METAR LRCL 251930Z 28003KT CAVOK 14/08 Q1019=
201904252000 METAR COR LRCL 252000Z 29003KT CAVOK 13/08 Q1019=
201904252030 METAR LRCL 252030Z VRB02KT CAVOK 13/08 Q1019=
201904252100 METAR LRCL 252100Z 24003KT CAVOK 13/08 Q1019=
201904252130 METAR LRCL 252130Z 27005KT CAVOK 11/08 Q1019=
201904252200 METAR LRCL 252200Z 26005KT CAVOK 12/08 Q1019=
201904252230 METAR LRCL 252230Z 27007KT CAVOK 12/09 Q1019=
201904252300 METAR LRCL 252300Z 26004KT CAVOK 12/08 Q1019=
201904252330 METAR LRCL 252330Z VRB02KT CAVOK 12/08 Q1019=
201904260000 METAR LRCL 260000Z 24004KT CAVOK 11/08 Q1019=
201904260030 METAR LRCL 260030Z VRB02KT CAVOK 11/08 Q1019=
201904260100 METAR LRCL 260100Z 10004KT CAVOK 09/07 Q1019=
201904260130 METAR LRCL 260130Z 10004KT CAVOK 08/06 Q1019=
201904260200 METAR COR LRCL 260200Z 10003KT CAVOK 08/07 Q1019=
201904260230 METAR LRCL 260230Z 10003KT 9000 MIFG NSC 08/06 Q1019=
201904260300 METAR LRCL 260300Z 00000KT 9999 MIFG NSC 07/06 Q1019=
201904260330 METAR LRCL 260330Z 07003KT 050V110 CAVOK 07/06 Q1019=
201904260400 METAR LRCL 260400Z VRB02KT CAVOK 07/06 Q1019=
201904260430 METAR LRCL 260430Z 10003KT CAVOK 08/06 Q1019=
201904260500 METAR LRCL 260500Z 08003KT CAVOK 10/07 Q1019=
201904260530 METAR LRCL 260530Z 10003KT CAVOK 12/08 Q1020=
201904260600 METAR LRCL 260600Z VRB02KT CAVOK 14/08 Q1020=
201904260630 METAR LRCL 260630Z 08004KT 050V110 CAVOK 15/09 Q1019=
201904260700 METAR LRCL 260700Z 07003KT 010V120 CAVOK 17/09 Q1019=
201904260730 METAR LRCL 260730Z 06003KT 350V110 CAVOK 19/10 Q1019=
201904260800 METAR LRCL 260800Z 09008KT CAVOK 21/10 Q1019=
201904260830 METAR LRCL 260830Z 11008KT CAVOK 23/10 Q1018=
201904260900 METAR LRCL 260900Z 12010KT 080V160 CAVOK 24/08 Q1018=
201904260930 METAR LRCL 260930Z 13007KT 100V170 CAVOK 25/06 Q1018=
201904261000 METAR LRCL 261000Z 12007KT 090V170 CAVOK 25/06 Q1018=
201904261030 METAR LRCL 261030Z 16006KT 130V190 9999 FEW050CB 25/06 Q1017=
201904261100 METAR LRCL 261100Z 11007KT 9999 FEW050CB 26/07 Q1017=
201904261130 METAR LRCL 261130Z 15005KT 080V220 9999 FEW050CB 27/06 Q1017=
201904261200 METAR LRCL 261200Z VRB06KT 9999 FEW050CB 26/04 Q1017=
201904261230 METAR LRCL 261230Z 16008KT 9999 FEW050CB 27/05 Q1016=
201904261300 METAR LRCL 261300Z 19011KT 160V220 9999 SCT050CB 26/05 Q1016=
201904261330 METAR LRCL 261330Z 19008KT 150V220 9999 SCT050CB 25/05 Q1016=
201904261400 METAR LRCL 261400Z 27008KT 230V300 9999 SCT050CB 24/07 Q1016=
201904261430 METAR LRCL 261430Z 27003KT 210V320 9999 FEW050CB 25/06 Q1015=
201904261500 METAR LRCL 261500Z 24006KT 9999 FEW050CB 24/07 Q1015=
201904261530 METAR LRCL 261530Z 28003KT 210V320 9999 FEW050CB 23/08 Q1015=
201904261600 METAR LRCL 261600Z 22004KT 190V260 9999 FEW050CB 24/07 Q1015=
201904261630 METAR LRCL 261630Z 26003KT 9999 FEW055CB 22/07 Q1015=
201904261700 METAR LRCL 261700Z 02003KT 340V060 CAVOK 22/07 Q1014=
201904261730 METAR LRCL 261730Z 02004KT CAVOK 20/08 Q1014=
201904261800 METAR LRCL 261800Z VRB02KT CAVOK 18/08 Q1015=
201904261830 METAR LRCL 261830Z VRB01KT CAVOK 17/08 Q1015=
201904261900 METAR LRCL 261900Z VRB01KT CAVOK 17/08 Q1015=
201904261930 METAR LRCL 261930Z 00000KT CAVOK 15/08 Q1015=
201904262000 METAR LRCL 262000Z 00000KT CAVOK 14/08 Q1015=
201904262030 METAR LRCL 262030Z VRB02KT CAVOK 14/09 Q1015=
201904262100 METAR LRCL 262100Z 30002KT CAVOK 14/09 Q1015=
201904262130 METAR LRCL 262130Z 26002KT CAVOK 14/08 Q1015=
201904262200 METAR LRCL 262200Z 06003KT CAVOK 13/08 Q1015=
201904262230 METAR LRCL 262230Z VRB01KT CAVOK 13/08 Q1014=
201904262300 METAR LRCL 262300Z VRB02KT CAVOK 12/08 Q1014=
201904262330 METAR LRCL 262330Z 09003KT CAVOK 12/08 Q1014=
201904270000 METAR LRCL 270000Z VRB01KT CAVOK 11/08 Q1014=
201904270030 METAR LRCL 270030Z VRB02KT CAVOK 10/07 Q1013=
201904270100 METAR LRCL 270100Z 00000KT CAVOK 11/08 Q1013=
201904270130 METAR LRCL 270130Z 12001KT CAVOK 11/08 Q1013=
201904270200 METAR LRCL 270200Z 10002KT CAVOK 11/08 Q1013=
201904270230 METAR LRCL 270230Z 28006KT CAVOK 11/08 Q1013=
201904270300 METAR LRCL 270300Z 11004KT CAVOK 11/08 Q1013=
201904270330 METAR COR LRCL 270330Z VRB03KT 9999 FEW065CB 12/08 Q1013=
201904270400 METAR LRCL 270400Z VRB02KT 9999 FEW060CB 12/09 Q1013=
201904270430 METAR LRCL 270430Z VRB02KT CAVOK 13/09 Q1013=
201904270500 METAR LRCL 270500Z VRB03KT CAVOK 13/09 Q1013=
201904270530 METAR LRCL 270530Z 00000KT CAVOK 15/09 Q1013=
201904270600 METAR LRCL 270600Z VRB02KT CAVOK 16/09 Q1013=
201904270630 METAR LRCL 270630Z VRB02KT CAVOK 17/09 Q1013=
201904270700 METAR LRCL 270700Z 12003KT CAVOK 18/09 Q1013=
201904270730 METAR LRCL 270730Z 15003KT CAVOK 20/09 Q1013=
201904270800 METAR LRCL 270800Z VRB03KT CAVOK 21/10 Q1013=
201904270830 METAR LRCL 270830Z 11003KT CAVOK 21/09 Q1013=
201904270900 METAR LRCL 270900Z 08004KT CAVOK 22/09 Q1012=
201904270930 METAR LRCL 270930Z 08005KT CAVOK 23/10 Q1012=
201904271000 METAR LRCL 271000Z 03005KT CAVOK 22/10 Q1012=
201904271030 METAR LRCL 271030Z 03004KT 9999 FEW060CB 23/10 Q1012=
201904271100 METAR LRCL 271100Z 05004KT 9999 FEW060CB 23/10 Q1011=
201904271130 METAR LRCL 271130Z 07004KT 9999 FEW030 FEW060CB 24/10 Q1011=
201904271200 METAR LRCL 271200Z 02004KT 9999 FEW030 24/10 Q1010=
201904271230 METAR LRCL 271230Z 35007KT 9999 FEW030 24/10 Q1010=
201904271300 METAR LRCL 271300Z 04006KT 9999 FEW030 FEW060CB 24/09 Q1009=
201904271330 METAR LRCL 271330Z 04005KT 9999 SCT060CB 23/09 Q1009=
201904271400 METAR LRCL 271400Z 27018G28KT 9999 -TSRA SCT057CB 19/12 Q1009
                        R07/19//95=
201904271430 METAR LRCL 271430Z 29009KT 9999 -TSRA BKN057CB 17/11 Q1009
                        R07/29//95=
201904271500 METAR LRCL 271500Z 14006KT 9999 TS SCT062CB 15/11 Q1009 R07/29//95=
201904271530 METAR LRCL 271530Z 22004KT 9999 FEW065CB 16/13 Q1008 RETS
                        R07/29//95=
201904271600 METAR LRCL 271600Z 26015KT 9999 SCT065CB 16/13 Q1009 R07/29//95=
201904271630 METAR LRCL 271630Z 26018KT 5000 TSRA BKN012 BKN040CB OVC057
                        15/13 Q1010 R07/29//95=
201904271700 METAR LRCL 271700Z 26008KT 230V310 9999 TSRA SCT013 BKN040CB
                        14/12 Q1011 R07/29//95=
201904271730 METAR LRCL 271730Z 29015KT 9999 TSRA FEW015 BKN040CB OVC068
                        14/11 Q1009 R07/29//95=
201904271800 METAR LRCL 271800Z 20008KT 170V230 9999 SHRA FEW015 BKN040CB
                        OVC068 14/12 Q1011 RETSRA R07/29//95=
201904271830 METAR LRCL 271830Z 22004KT 190V250 9999 RA FEW012 BKN040CB
                        OVC064 13/12 Q1012 R07/29//95=
201904271900 METAR LRCL 271900Z 06003KT 9999 RA SCT040CB OVC068 13/12
                        Q1011 R07/29//95=
201904271930 METAR LRCL 271930Z 02007KT 360V070 9999 RA SCT040CB 13/12
                        Q1011 R07/29//95=
201904272000 METAR LRCL 272000Z 11008KT 9999 -RA FEW040CB 13/12 Q1011
                        RERA R07/29//95=
201904272030 METAR LRCL 272030Z 12003KT 070V150 9999 BKN067 13/12 Q1011
                        R07/29//95=
201904272100 METAR LRCL 272100Z VRB02KT 9999 SCT068 13/12 Q1011 R07/29//95=
201904272130 METAR LRCL 272130Z 08003KT 060V120 9999 BKN024 13/12 Q1011
                        R07/29//95=
201904272200 METAR LRCL 272200Z VRB02KT 9999 -RA FEW011 BKN024 OVC051
                        13/12 Q1011 R07/29//95=
201904272230 METAR LRCL 272230Z 04003KT 010V080 9999 -RA OVC021 13/12
                        Q1011 R07/29//95=
201904272300 METAR LRCL 272300Z 05002KT 9999 OVC013 13/12 Q1010 R07/29//95=
201904272330 METAR LRCL 272330Z 02004KT 340V060 9999 SCT011 OVC020 13/12
                        Q1010 R07/29//95=
201904280000 METAR LRCL 280000Z VRB02KT 9999 BKN011 BKN030 13/11 Q1010
                        R07/29//95=
201904280030 METAR COR LRCL 280030Z 01004KT 330V040 9999 BKN011 OVC058
                        13/12 Q1010 R07/29//95=
201904280100 METAR LRCL 280100Z 33008KT 300V360 9999 -RA OVC012 12/09
                        Q1010 R07/29//95=
201904280130 METAR LRCL 280130Z VRB03KT 9999 -RA SCT010 OVC021 12/10 Q1010
                        R07/29//95=
201904280200 METAR LRCL 280200Z VRB02KT 5000 RA BKN008 OVC027 11/10 Q1010
                        R07/29//95=
201904280230 METAR LRCL 280230Z VRB01KT 8000 RA BKN008 OVC028 11/10 Q1010
                        R07/29//95=
201904280300 METAR LRCL 280300Z VRB01KT 9999 RA BKN007 OVC040 11/10 Q1010
                        R07/29//95=
201904280330 METAR LRCL 280330Z 30004KT 250V350 9999 -RA BKN010 OVC047
                        11/09 Q1010 RERA R07/29//95=
201904280400 METAR LRCL 280400Z 28005KT 250V310 9999 -RA SCT011 OVC047
                        11/09 Q1010 R07/29//95=
201904280430 METAR LRCL 280430Z 31003KT 250V340 9999 FEW011 OVC048 11/09
                        Q1010 R07/29//95=
201904280500 METAR LRCL 280500Z VRB02KT 9999 SCT012 OVC054 12/10 Q1010
                        R07/29//95=
201904280530 METAR LRCL 280530Z VRB01KT 9999 BKN013 OVC062 12/09 Q1010
                        R07/29//95=
201904280600 METAR LRCL 280600Z 28001KT 9999 FEW012 BKN065 12/09 Q1010
                        R07/29//95=
201904280630 METAR LRCL 280630Z 09002KT 9999 -RA SCT013 BKN048 12/10 Q1010
                        R07/29//95=
201904280700 METAR COR LRCL 280700Z 06003KT 9999 -RA SCT013 BKN065 12/09
                        Q1010 R07/29//95=
201904280730 METAR LRCL 280730Z 06004KT 9999 FEW011 BKN050 12/09 Q1011
                        R07/29//95=
201904280800 METAR LRCL 280800Z 07004KT 9999 FEW018 SCT048 13/10 Q1011
                        R07/29//95=
201904280830 METAR LRCL 280830Z 05004KT 9999 FEW011 BKN039 14/10 Q1011
                        R07/29//95=
201904280900 METAR LRCL 280900Z 08003KT 9999 FEW020 BKN050 14/10 Q1011
                        R07/29//95=
201904280930 METAR LRCL 280930Z 11007KT 9999 FEW015 SCT048CB BKN060 13/11
                        Q1011 R07/29//95=
201904281000 METAR LRCL 281000Z 07008KT 040V100 9999 FEW017 SCT055CB 14/10
                        Q1010 R07/19//95=
201904281030 METAR LRCL 281030Z 08007KT 9999 FEW015 BKN055CB 14/09 Q1010
                        R07/19//95=
201904281100 METAR LRCL 281100Z 07009KT 040V100 9999 VCTS FEW018 BKN055CB
                        16/10 Q1010 R07/CLRD//=
201904281130 METAR LRCL 281130Z 07006KT 9999 -TSRA FEW017 BKN048CB 14/08
                        Q1010=
201904281200 METAR LRCL 281200Z 29008KT 5000 +TSRA BKN019 BKN046CB 11/09
                        Q1011 R07/29//95=
201904281230 METAR LRCL 281230Z 03003KT 7000 TSRA SCT022 BKN050CB 11/08
                        Q1011 R07/29//95=
201904281300 METAR LRCL 281300Z 36004KT 8000 -SHRA FEW015 BKN046CB 12/09
                        Q1011 R07/29//95=
201904281330 METAR LRCL 281330Z 30007KT 270V330 9999 FEW013 SCT041 BKN057CB
                        13/09 Q1011 R07/29//95=
201904281400 METAR LRCL 281400Z 31007KT 270V340 9999 FEW020 SCT040 BKN053CB
                        14/09 Q1010 R07/29//95=
201904281430 METAR LRCL 281430Z 36007KT 9999 SCT044 SCT056CB 13/07 Q1010
                        R07/CLRD//=
201904281500 METAR LRCL 281500Z 36006KT 9999 SCT054CB 13/08 Q1011 R07/CLRD//=
201904281530 METAR LRCL 281530Z 36004KT 9999 SCT064 13/07 Q1010=
201904281600 METAR LRCL 281600Z 02004KT 9999 FEW051 13/08 Q1010=
201904281630 METAR LRCL 281630Z VRB02KT 9999 FEW020 13/08 Q1010=
201904281700 METAR LRCL 281700Z 19004KT 9999 FEW018 SCT050 13/08 Q1010=
201904281730 METAR LRCL 281730Z 22003KT 9999 FEW018 BKN050 12/08 Q1010=
201904281800 METAR LRCL 281800Z VRB01KT 9999 FEW018 BKN050 12/09 Q1011=
201904281830 METAR LRCL 281830Z 12004KT 9999 BKN050 12/09 Q1011=
201904281900 METAR LRCL 281900Z 00000KT 9999 FEW020 BKN054 11/09 Q1011=
201904281930 METAR LRCL 281930Z 00000KT 9999 SCT020 BKN054 11/09 Q1012=
201904282000 METAR LRCL 282000Z VRB02KT 9999 SCT020 BKN055 11/09 Q1011=
201904282030 METAR LRCL 282030Z 10003KT 9999 -RA SCT016 SCT040 BKN050
                        11/10 Q1011 R07/29//95=
201904282100 METAR LRCL 282100Z VRB01KT 9999 -RA SCT015 SCT040 BKN050
                        11/09 Q1012 R07/29//95=
201904282130 METAR LRCL 282130Z 28003KT 9999 -RA SCT011 SCT035 BKN050
                        11/10 Q1012 R07/29//95=
201904282200 METAR LRCL 282200Z 36004KT 9999 SCT010 SCT035 BKN050 11/09
                        Q1011 R07/29//95=
201904282230 METAR LRCL 282230Z 03004KT 9999 FEW010 BKN040 11/08 Q1011
                        R07/29//95=
201904282300 METAR LRCL 282300Z 04003KT 9999 FEW010 OVC040 11/09 Q1011
                        R07/29//95=
201904282330 METAR LRCL 282330Z VRB02KT 9999 FEW010 SCT040 10/09 Q1011
                        R07/29//95=
201904290000 METAR LRCL 290000Z 00000KT 9999 FEW010 SCT044 10/09 Q1011
                        R07/29//95=
201904290030 METAR COR LRCL 290030Z VRB02KT 9999 FEW008 BKN044 10/09 Q1011
                        R07/29//95=
201904290100 METAR LRCL 290100Z 27005KT 9999 FEW008 BKN044 10/09 Q1011
                        R07/29//95=
201904290130 METAR LRCL 290130Z 26005KT 9999 FEW008 BKN044 10/08 Q1011
                        R07/29//95=
201904290200 METAR LRCL 290200Z 26005KT 9999 FEW015 BKN055 09/08 Q1011
                        R07/29//95=
201904290230 METAR LRCL 290230Z 25005KT 9999 FEW020 SCT044 BKN060 09/08
                        Q1011 R07/29//95=
201904290300 METAR LRCL 290300Z 27004KT 9999 FEW013 SCT044 BKN060 09/07
                        Q1011 R07/19//95=
201904290330 METAR LRCL 290330Z 27004KT 9999 FEW013 SCT044 BKN060 09/07
                        Q1011 R07/19//95=
201904290400 METAR LRCL 290400Z 26003KT 9999 FEW013 SCT044 BKN060 09/08
                        Q1011 R07/CLRD//=
201904290430 METAR LRCL 290430Z 25003KT 210V270 9999 FEW008 SCT044 BKN065
                        09/08 Q1012=
201904290500 METAR LRCL 290500Z VRB02KT 9999 FEW008 SCT044 BKN065 10/07
                        Q1012=
201904290530 METAR LRCL 290530Z VRB01KT 9999 FEW008 SCT013 BKN048 10/08
                        Q1012=
201904290600 METAR LRCL 290600Z VRB02KT 9999 FEW013 SCT048 11/08 Q1012=
201904290630 METAR LRCL 290630Z 07003KT 360V150 9999 FEW009 SCT012 12/09
                        Q1012=
201904290700 METAR LRCL 290700Z 11005KT 060V140 9999 SCT013 13/07 Q1012=
201904290730 METAR LRCL 290730Z VRB04KT 9999 SCT020 14/07 Q1012=
201904290800 METAR LRCL 290800Z 11007KT 9999 SCT023 BKN046 13/07 Q1012=
201904290830 METAR LRCL 290830Z 13006KT 100V180 9999 FEW023 BKN047 13/07
                        Q1012=
201904290900 METAR LRCL 290900Z 11006KT 9999 BKN059 14/06 Q1012=
201904290930 METAR LRCL 290930Z 07004KT 030V100 9999 BKN058 14/07 Q1012=
201904291000 METAR LRCL 291000Z 02006KT 330V040 9999 FEW040 BKN059 14/06
                        Q1012=
201904291030 METAR LRCL 291030Z 02009KT 350V060 9999 BKN055 14/08 Q1011=
201904291100 METAR LRCL 291100Z 04008KT 010V070 9999 BKN047 14/09 Q1011=
201904291130 METAR LRCL 291130Z 05007KT 020V090 9999 BKN062 15/08 Q1011=
201904291200 METAR LRCL 291200Z 05007KT 010V090 9999 SCT023 16/08 Q1011=
201904291230 METAR LRCL 291230Z 03004KT 330V090 9999 SCT035 16/07 Q1011=
201904291300 METAR LRCL 291300Z 01005KT 330V100 9999 SCT032 SCT043 16/07
                        Q1010=
201904291330 METAR LRCL 291330Z 03004KT 340V100 9999 SCT033 16/07 Q1010=
201904291400 METAR LRCL 291400Z 04005KT 360V090 9999 SCT040 16/06 Q1010=
201904291430 METAR LRCL 291430Z 36005KT 330V050 9999 SCT040 16/07 Q1010=
201904291500 METAR LRCL 291500Z 36006KT 320V040 9999 SCT045 16/06 Q1010=
201904291530 METAR LRCL 291530Z 34005KT 290V020 9999 SCT050 17/06 Q1010=
201904291600 METAR LRCL 291600Z 36010KT 9999 FEW052 16/07 Q1010=
201904291630 METAR LRCL 291630Z 35007KT 9999 FEW059 15/07 Q1010=
201904291700 METAR LRCL 291700Z 36008KT 9999 FEW054 14/07 Q1010=
201904291730 METAR LRCL 291730Z 34008KT 9999 FEW064 13/07 Q1010=
201904291800 METAR LRCL 291800Z 34007KT 9999 SCT042 13/07 Q1010=
201904291830 METAR LRCL 291830Z VRB02KT 9999 BKN041 13/08 Q1011=
201904291900 METAR LRCL 291900Z VRB02KT 9999 FEW043 12/07 Q1011=
201904291930 METAR LRCL 291930Z 27003KT 9999 FEW042 BKN055 11/08 Q1011=
201904292000 METAR LRCL 292000Z VRB02KT 9999 BKN046 12/08 Q1011=
201904292030 METAR LRCL 292030Z 32003KT 9999 SCT043 11/08 Q1011=
201904292100 METAR LRCL 292100Z 27005KT 9999 FEW048 11/08 Q1010=
201904292130 METAR LRCL 292130Z 29004KT 9999 FEW060 10/08 Q1010=
201904292200 METAR LRCL 292200Z 00000KT 9999 FEW068 10/08 Q1010=
201904292230 METAR LRCL 292230Z VRB02KT 9999 FEW067 10/08 Q1010=
201904292300 METAR LRCL 292300Z 29003KT 9999 FEW067 09/08 Q1010=
201904292330 METAR LRCL 292330Z 28003KT 9999 BKN067 10/08 Q1010=
201904300000 METAR LRCL 300000Z 27003KT 9999 BKN067 10/08 Q1010=
201904300030 METAR LRCL 300030Z 27003KT 9999 BKN067 10/08 Q1010=
201904300100 METAR COR LRCL 300100Z 00000KT 9999 BKN057 10/08 Q1010=
201904300130 METAR LRCL 300130Z 36002KT 9999 BKN049 10/09 Q1009=
201904300200 METAR LRCL 300200Z 05003KT 9999 -SHRA FEW059CB BKN065 10/08
                        Q1009=
201904300230 METAR COR LRCL 300230Z 10004KT 9999 -SHRA SCT055CB OVC061
                        10/09 Q1009 R07/19//95=
201904300300 METAR LRCL 300300Z 09003KT 9999 -SHRA SCT059CB OVC068 09/08
                        Q1008 R07/19//95=
201904300330 METAR LRCL 300330Z 09003KT 9999 BKN059 09/08 Q1008 R07/19//95=
201904300400 METAR LRCL 300400Z VRB02KT 9999 BKN058 10/09 Q1008 R07/19//95=
201904300430 METAR LRCL 300430Z VRB02KT 9999 SCT058 10/09 Q1008 R07/19//95=
201904300500 METAR LRCL 300500Z 07004KT 9999 FEW010 SCT058 10/08 Q1008
                        R07/CLRD//=
201904300530 METAR LRCL 300530Z 06004KT 9999 FEW067 10/08 Q1008=
201904300600 METAR LRCL 300600Z 10004KT 9999 FEW067 11/09 Q1008=
201904300630 METAR LRCL 300630Z 08003KT 040V120 9999 FEW010 11/08 Q1008=
201904300700 METAR LRCL 300700Z 10003KT 060V130 9999 FEW012 12/08 Q1008=
201904300730 METAR LRCL 300730Z 06004KT 040V100 9999 FEW015 12/08 Q1008=
201904300800 METAR LRCL 300800Z 07004KT 020V100 9999 FEW015 13/09 Q1008=
201904300830 METAR LRCL 300830Z 07005KT 030V110 9999 FEW020 13/08 Q1008=
201904300900 METAR LRCL 300900Z 08004KT 030V130 9999 FEW030 14/08 Q1007=
201904300930 METAR LRCL 300930Z 10005KT 060V140 9999 FEW030 15/09 Q1007=
201904301000 METAR LRCL 301000Z 08005KT 350V140 9999 FEW030 15/09 Q1007=
201904301030 METAR LRCL 301030Z 09005KT 010V140 9999 FEW026 15/08 Q1006=
201904301100 METAR LRCL 301100Z 08004KT 040V120 9999 FEW027 15/08 Q1006=
201904301130 METAR LRCL 301130Z 08004KT 360V100 9999 FEW027 FEW030CB 16/08
                        Q1006=
201904301200 METAR LRCL 301200Z VRB02KT 9999 SCT040 FEW042CB 16/07 Q1006=
201904301230 METAR LRCL 301230Z 05003KT 010V110 9999 SCT042 FEW044CB 16/08
                        Q1005=
201904301300 METAR LRCL 301300Z 01003KT 340V040 9999 FEW042 SCT044CB 16/08
                        Q1005=
201904301330 METAR LRCL 301330Z 35004KT 310V020 9999 TS VCSH FEW042 SCT046CB
                        15/09 Q1005=
201904301400 METAR LRCL 301400Z 19016KT 9999 -TSRA FEW017 SCT028 BKN047CB
                        12/08 Q1006=
201904301430 METAR LRCL 301430Z 13011KT 5000 TSRA FEW016 BKN026CB 10/08
                        Q1006 R07/29//95=
201904301500 METAR LRCL 301500Z 18007KT 5000 SHRA BKN027CB OVC050 10/09
                        Q1006 RETSRA R07/29//95=
201904301530 METAR LRCL 301530Z 25007KT 9999 RA SCT030CB OVC052 10/09
                        Q1005 R07/29//95=
201904301600 METAR COR LRCL 301600Z 28004KT 9999 -RA FEW030CB OVC054 10/09
                        Q1005 RERA R07/29//95=
201904301630 METAR LRCL 301630Z 28004KT 9999 -RA FEW040CB OVC060 10/09
                        Q1005 R07/29//95=
201904301700 METAR LRCL 301700Z VRB01KT 9999 -RA FEW050CB OVC052 10/09
                        Q1005 R07/29//95=
201904301730 METAR LRCL 301730Z 06003KT 040V110 9999 -RA OVC060 10/09
                        Q1005 R07/29//95=
201904301800 METAR LRCL 301800Z VRB01KT 9999 -RA OVC053 10/09 Q1005 R07/29//95=
201904301830 METAR LRCL 301830Z 25002KT 9999 -RA OVC043 10/09 Q1005 R07/29//95=
201904301900 METAR LRCL 301900Z 26006KT 9999 -RA OVC041 10/09 Q1004 R07/29//95=
201904301930 METAR LRCL 301930Z 27006KT 9999 -RA OVC049 10/09 Q1004 R07/29//95=
201904302000 METAR LRCL 302000Z 26007KT 9999 -RA BKN037 OVC050 10/09 Q1004
                        R07/29//95=
201904302030 METAR LRCL 302030Z 26008KT 9999 -RA SCT034 OVC054 09/08 Q1004
                        R07/29//95=
201904302100 METAR LRCL 302100Z 26008KT 9999 -RA OVC048 09/08 Q1004 R07/29//95=
201904302130 METAR LRCL 302130Z 27010KT 9999 -RA FEW015 BKN054 09/07 Q1003
                        R07/29//95=
201904302200 METAR LRCL 302200Z 27009KT 9999 -RA OVC047 08/06 Q1003 R07/29//95=
201904302230 METAR LRCL 302230Z 26009KT 9999 -RA OVC049 08/06 Q1003 R07/29//95=
201904302300 METAR LRCL 302300Z 25009KT 9999 -RA OVC045 08/06 Q1003 R07/29//95=
201904302330 METAR LRCL 302330Z 25005KT 9999 OVC048 08/06 Q1002 R07/29//95=