201904010200 TAF LRCL 010200Z 0103/0112 28006KT CAVOK=
201904010500 TAF LRCL 010500Z 0106/0115 09006KT CAVOK=
201904010800 TAF LRCL 010800Z 0109/0118 09006KT CAVOK=
201904011100 TAF LRCL 011100Z 0112/0121 12006KT CAVOK=
201904011400 TAF LRCL 011400Z 0115/0124 10006KT CAVOK
                      PROB40 TEMPO 0119/0123 5000 -RA BKN015 BKN035=
201904011700 TAF LRCL 011700Z 0118/0203 VRB04KT CAVOK
                      PROB40 TEMPO 0119/0123 5000 -RA BKN015 BKN035=
201904012000 TAF LRCL 012000Z 0121/0206 09008KT CAVOK=
201904012300 TAF LRCL 012300Z 0200/0209 10008KT CAVOK=
201904020200 TAF LRCL 020200Z 0203/0212 10006KT CAVOK
                      BECMG 0206/0208 12016KT=
201904020500 TAF LRCL 020500Z 0206/0215 07006KT CAVOK
                      BECMG 0206/0208 12016KT=
201904020800 TAF LRCL 020800Z 0209/0218 13014KT CAVOK=
201904021100 TAF LRCL 021100Z 0212/0221 11015KT CAVOK=
201904021400 TAF LRCL 021400Z 0215/0224 12012KT CAVOK=
201904021700 TAF LRCL 021700Z 0218/0303 12010KT CAVOK=
201904022000 TAF LRCL 022000Z 0221/0306 13008KT CAVOK=
201904022300 TAF LRCL 022300Z 0300/0309 12006KT CAVOK=
201904030200 TAF LRCL 030200Z 0303/0312 09006KT CAVOK=
201904030500 TAF LRCL 030500Z 0306/0315 10008KT CAVOK=
201904030800 TAF LRCL 030800Z 0309/0318 12012KT CAVOK=
201904031100 TAF LRCL 031100Z 0312/0321 14012KT CAVOK=
201904031400 TAF LRCL 031400Z 0315/0324 14012KT CAVOK=
201904031700 TAF LRCL 031700Z 0318/0403 12008KT CAVOK=
201904032000 TAF LRCL 032000Z 0321/0406 12008KT CAVOK=
201904032300 TAF LRCL 032300Z 0400/0409 07006KT CAVOK
                      BECMG 0402/0404 13016KT=
201904040200 TAF LRCL 040200Z 0403/0412 09006KT CAVOK
                      BECMG 0404/0406 13016KT=
201904040500 TAF LRCL 040500Z 0406/0415 08006KT CAVOK
                      BECMG 0407/0409 14012KT=
201904040800 TAF LRCL 040800Z 0409/0418 14012KT CAVOK=
201904041100 TAF LRCL 041100Z 0412/0421 13010KT CAVOK=
201904041400 TAF LRCL 041400Z 0415/0424 12008KT CAVOK=
201904041700 TAF LRCL 041700Z 0418/0503 12007KT CAVOK=
201904042000 TAF LRCL 042000Z 0421/0506 13007KT CAVOK=
201904042300 TAF LRCL 042300Z 0500/0509 11007KT CAVOK=
201904050200 TAF LRCL 050200Z 0503/0512 10008KT CAVOK=
201904050500 TAF LRCL 050500Z 0506/0515 08006KT CAVOK
                      BECMG 0507/0509 14010KT=
201904050800 TAF LRCL 050800Z 0509/0518 12012KT CAVOK=
201904051100 TAF LRCL 051100Z 0512/0521 14012KT CAVOK=
201904051400 TAF LRCL 051400Z 0515/0524 16010KT CAVOK=
201904051700 TAF LRCL 051700Z 0518/0603 16010KT CAVOK
                      BECMG 0600/0602 VRB04KT=
201904052000 TAF LRCL 052000Z 0521/0606 16010KT CAVOK
                      BECMG 0600/0602 VRB04KT=
201904052300 TAF LRCL 052300Z 0600/0609 12007KT CAVOK=
201904060200 TAF LRCL 060200Z 0603/0612 10008KT CAVOK=
201904060500 TAF LRCL 060500Z 0606/0615 09008KT CAVOK=
201904060800 TAF LRCL 060800Z 0609/0618 14008KT CAVOK=
201904061100 TAF LRCL 061100Z 0612/0621 14012KT CAVOK=
201904061400 TAF LRCL 061400Z 0615/0624 13010KT CAVOK=
201904061700 TAF LRCL 061700Z 0618/0703 16010KT CAVOK
                      BECMG 0620/0622 VRB04KT=
201904062000 TAF LRCL 062000Z 0621/0706 VRB04KT CAVOK=
201904062300 TAF LRCL 062300Z 0700/0709 VRB04KT CAVOK=
201904070200 TAF LRCL 070200Z 0703/0712 VRB04KT CAVOK
                      BECMG 0709/0711 13010KT=
201904070500 TAF LRCL 070500Z 0706/0715 VRB02KT CAVOK
                      BECMG 0707/0709 13010KT=
201904070800 TAF LRCL 070800Z 0709/0718 13010KT CAVOK
                      BECMG 0715/0717 VRB04KT=
201904071100 TAF LRCL 071100Z 0712/0721 10007KT CAVOK=
201904071400 TAF LRCL 071400Z 0715/0724 13008KT 9999 SCT040=
201904071700 TAF LRCL 071700Z 0718/0803 16012KT CAVOK
                      BECMG 0719/0721 VRB04KT=
201904072000 TAF LRCL 072000Z 0721/0806 VRB04KT CAVOK=
201904072300 TAF LRCL 072300Z 0800/0809 07005KT CAVOK=
201904080200 TAF LRCL 080200Z 0803/0812 VRB04KT CAVOK=
201904080500 TAF LRCL 080500Z 0806/0815 VRB04KT CAVOK=
201904080800 TAF LRCL 080800Z 0809/0818 09006KT CAVOK
                      PROB30 TEMPO 0816/0818 5000 -SHRA SCT010
                       FEW030CB BKN050=
201904081100 TAF LRCL 081100Z 0812/0821 09006KT CAVOK
                      PROB30 TEMPO 0816/0818 5000 -SHRA SCT010
                       FEW030CB BKN050
                      TEMPO 0818/0821 5000 -SHRA BKN010 SCT030CB
                       BKN050=
201904081400 TAF LRCL 081400Z 0815/0824 VRB04KT CAVOK
                      PROB30 TEMPO 0817/0823 5000 -SHRA BKN010
                       FEW030CB BKN050=
201904081700 TAF LRCL 081700Z 0818/0903 VRB04KT CAVOK
                      PROB30 TEMPO 0818/0822 5000 -SHRA BKN010
                       SCT030CB BKN050=
201904082000 TAF LRCL 082000Z 0821/0906 VRB03KT CAVOK=
201904082300 TAF LRCL 082300Z 0900/0909 VRB03KT CAVOK=
201904090200 TAF LRCL 090200Z 0903/0912 VRB03KT CAVOK=
201904090500 TAF LRCL 090500Z 0906/0915 VRB04KT CAVOK=
201904090800 TAF LRCL 090800Z 0909/0918 11006KT CAVOK=
201904091100 TAF LRCL 091100Z 0912/0921 11006KT CAVOK
                      TEMPO 0912/0916 SCT040CB=
201904091400 TAF LRCL 091400Z 0915/0924 VRB04KT CAVOK=
201904091700 TAF LRCL 091700Z 0918/1003 VRB04KT CAVOK
                      TEMPO 0918/0921 FEW040CB BKN060=
201904092000 TAF LRCL 092000Z 0921/1006 VRB04KT 9999 FEW050CB
                      BECMG 0921/0923 NSC=
201904092300 TAF LRCL 092300Z 1000/1009 VRB04KT CAVOK=
201904100200 TAF LRCL 100200Z 1003/1012 VRB04KT CAVOK=
201904100500 TAF LRCL 100500Z 1006/1015 VRB04KT CAVOK
                      BECMG 1009/1011 10010KT
                      TEMPO 1012/1015 SCT040CB=
201904100800 TAF LRCL 100800Z 1009/1018 10008KT CAVOK
                      TEMPO 1013/1018 SCT040CB=
201904101100 TAF LRCL 101100Z 1012/1021 10008KT CAVOK
                      TEMPO 1012/1016 SCT040CB
                      PROB30 TEMPO 1013/1016 VRB15G25KT 5000 -TSRA
                       BKN010 BKN035CB
                      BECMG 1018/1020 5000 -RA BR BKN015 BKN035=
201904101400 TAF LRCL 101400Z 1015/1024 10008KT 9999 SCT045
                      TEMPO 1015/1018 5000 -SHRA SCT040CB
                      BECMG 1018/1020 5000 -RA BR BKN015 BKN040
                       TEMPO 1020/1024 3000 SHRA BKN010 SCT030CB
                       OVC035=
201904101700 TAF LRCL 101700Z 1018/1103 VRB04KT 9999 SCT045
                      TEMPO 1018/1022 3000 SHRA BKN010 SCT030CB=
201904102000 TAF LRCL 102000Z 1021/1106 VRB04KT CAVOK=
201904102300 TAF LRCL 102300Z 1100/1109 VRB04KT CAVOK=
201904110200 TAF LRCL 110200Z 1103/1112 VRB04KT CAVOK=
201904110500 TAF LRCL 110500Z 1106/1115 VRB04KT CAVOK
                      TEMPO 1109/1115 5000 -RA BR BKN015 BKN030
                       PROB40
                      TEMPO 1110/1113 3000 SHRA BKN015 SCT030CB
                       BKN040=
201904110800 TAF LRCL 110800Z 1109/1118 05006KT 9999 BKN045
                      TEMPO 1110/1118 5000 -RA BR BKN015 BKN030
                       PROB40
                      TEMPO 1111/1113 3000 SHRA BKN015 SCT030CB
                       BKN040=
201904111100 TAF LRCL 111100Z 1112/1121 07006KT 9999 BKN045
                      TEMPO 1112/1116 5000 -SHRA BR BKN015 SCT035CB
                       BKN040=
201904111400 TAF LRCL 111400Z 1115/1124 VRB04KT 9999 SCT030CB
                      BECMG 1115/1117 SCT030=
201904111700 TAF LRCL 111700Z 1118/1203 VRB04KT 9999 SCT040
                      TEMPO 1118/1121 SCT035CB=
201904112000 TAF LRCL 112000Z 1121/1206 VRB04KT 9999 BKN040=
201904112300 TAF LRCL 112300Z 1200/1209 VRB04KT 9999 BKN040=
201904120200 TAF LRCL 120200Z 1203/1212 VRB04KT 9999 BKN030
                      TEMPO 1203/1206 3000 BR BKN010=
201904120500 TAF LRCL 120500Z 1206/1215 07008KT 9999 BKN040
                      TEMPO 1208/1214 5000 -SHRA SCT030CB BKN040=
201904120800 TAF LRCL 120800Z 1209/1218 07008KT 9999 SCT035
                      TEMPO 1210/1214 SCT030CB BKN035
                      TEMPO 1216/1218 5000 -SHRA SCT015 SCT030CB
                       BKN035
                      PROB30 1216/1218 -TSRA=
201904121100 TAF LRCL 121100Z 1212/1221 06008KT 9999 BKN040
                      TEMPO 1215/1221 5000 -SHRA SCT015 SCT030CB
                       BKN035
                      PROB40 1216/1220 VRB16KT -TSRA=
201904121400 TAF LRCL 121400Z 1215/1224 07012KT 9999 BKN050
                      TEMPO 1216/1222 5000 -SHRA SCT015 SCT035CB
                       BKN040
                      PROB30 1216/1220 VRB20KT -TSRA=
201904121700 TAF LRCL 121700Z 1218/1303 17012KT 9999 BKN045
                      TEMPO 1218/1224 5000 -SHRA SCT015 SCT035CB
                       BKN040
                      PROB30 TEMPO 1218/1221 3000 BKN010 SCT035CB
                       BKN040=
201904122000 TAF LRCL 122000Z 1221/1306 VRB04KT 9999 BKN045
                      TEMPO 1221/1224 5000 -SHRA SCT015 SCT035CB
                       BKN040=
201904122300 TAF LRCL 122300Z 1300/1309 VRB04KT 9999 BKN040
                      TEMPO 1300/1303 5000 -SHRA SCT015 SCT035CB
                       BKN040=
201904130200 TAF LRCL 130200Z 1303/1312 11006KT 9999 BKN040=
201904130500 TAF LRCL 130500Z 1306/1315 09006KT 9999 BKN040=
201904130800 TAF LRCL 130800Z 1309/1318 09006KT 9999 SCT040=
201904131100 TAF LRCL 131100Z 1312/1321 09006KT 9999 BKN040
                      TEMPO 1317/1321 5000 -RA -SHRA SCT035CB BKN040=
201904131400 TAF LRCL 131400Z 1315/1324 09006KT 9999 BKN040
                      TEMPO 1315/1321 5000 -SHRA SCT035CB BKN040=
201904131700 TAF LRCL 131700Z 1318/1403 09006KT 9999 SCT015 BKN050
                      TEMPO 1318/1321 5000 SHRA SCT015 SCT040CB
                       BKN050
                      PROB30 TEMPO 1318/1319 TSRA=
201904132000 TAF LRCL 132000Z 1321/1406 VRB04KT 9999 SCT015 BKN050
                      PROB30 TEMPO 1321/1324 5000 -SHRA SCT015
                       SCT040CB BKN050=
201904132300 TAF LRCL 132300Z 1400/1409 VRB04KT 9999 SCT015 BKN045=
201904140200 TAF LRCL 140200Z 1403/1412 VRB04KT 9999 SCT015 BKN040
                      TEMPO 1403/1406 BKN010 OVC030=
201904140500 TAF LRCL 140500Z 1406/1415 VRB04KT 9999 SCT015 BKN040
                      TEMPO 1406/1409 BKN010 OVC030=
201904140800 TAF LRCL 140800Z 1409/1418 VRB04KT 9999 BKN040=
201904141100 TAF LRCL 141100Z 1412/1421 VRB04KT 9999 BKN040=
201904141400 TAF LRCL 141400Z 1415/1424 VRB04KT 9999 BKN040=
201904141700 TAF LRCL 141700Z 1418/1503 09006KT 9999 SCT060=
201904142000 TAF LRCL 142000Z 1421/1506 VRB04KT 9999 SCT050=
201904142300 TAF LRCL 142300Z 1500/1509 VRB04KT 9999 SCT060=
201904150200 TAF LRCL 150200Z 1503/1512 VRB04KT CAVOK=
201904150500 TAF LRCL 150500Z 1506/1515 07006KT CAVOK=
201904150800 TAF LRCL 150800Z 1509/1518 09006KT CAVOK=
201904151100 TAF LRCL 151100Z 1512/1521 VRB04KT CAVOK=
201904151400 TAF LRCL 151400Z 1515/1524 VRB04KT CAVOK=
201904151700 TAF LRCL 151700Z 1518/1603 VRB04KT CAVOK=
201904152000 TAF LRCL 152000Z 1521/1606 VRB04KT CAVOK=
201904152300 TAF LRCL 152300Z 1600/1609 VRB04KT CAVOK=
201904160200 TAF LRCL 160200Z 1603/1612 VRB04KT CAVOK
                      BECMG 1608/1610 33010KT
                      TEMPO 1610/1612 33015G25KT=
201904160500 TAF LRCL 160500Z 1606/1615 27006KT CAVOK
                      BECMG 1607/1609 33012KT=
201904160800 TAF LRCL 160800Z 1609/1618 VRB04KT CAVOK
                      BECMG 1609/1611 33012KT=
201904161100 TAF LRCL 161100Z 1612/1621 32015KT CAVOK
                      BECMG 1619/1621 30005KT 5000 -RA BR BKN015
                       BKN040=
201904161400 TAF LRCL 161400Z 1615/1624 31016KT CAVOK
                      BECMG 1619/1621 30006KT BKN010 BKN040
                      TEMPO 1621/1624 5000 -RA BR=
201904161700 TAF LRCL 161700Z 1618/1703 32010KT CAVOK
                      PROB40 TEMPO 1622/1703 5000 -RA BR BKN010
                       BKN040=
201904162000 TAF LRCL 162000Z 1621/1706 30008KT 9999 SCT040
                      PROB40 TEMPO 1622/1703 5000 -RA BR BKN010
                       BKN040=
201904162300 TAF LRCL 162300Z 1700/1709 30007KT 9999 SCT040
                      PROB40 TEMPO 1700/1703 5000 -RA BR BKN010
                       BKN040
                      TEMPO 1706/1709 5000 -RA BR BKN015 BKN040=
201904170200 TAF LRCL 170200Z 1703/1712 28010KT 9999 SCT045
                      TEMPO 1706/1710 5000 -RA BR BKN015 BKN040=
201904170500 TAF LRCL 170500Z 1706/1715 29008KT 9999 SCT045
                      PROB40 TEMPO 1706/1710 5000 -SHRA BKN015
                       SCT035CB BKN040=
201904170800 TAF LRCL 170800Z 1709/1718 29008KT 9999 SCT045
                      PROB30 TEMPO 1713/1716 5000 -SHRA SCT040CB=
201904171100 TAF LRCL 171100Z 1712/1721 29008KT 9999 SCT030
                      PROB30 TEMPO 1714/1716 5000 -SHRA SCT035CB=
201904171400 TAF LRCL 171400Z 1715/1724 VRB04KT 9999 BKN040
                      PROB30 TEMPO 1715/1717 SCT035CB=
201904171700 TAF LRCL 171700Z 1718/1803 VRB04KT 9999 BKN040=
201904172000 TAF LRCL 172000Z 1721/1806 VRB04KT 9999 BKN050=
201904172300 TAF LRCL 172300Z 1800/1809 VRB04KT 9999 BKN050=
201904180200 TAF LRCL 180200Z 1803/1812 VRB04KT 9999 BKN050=
201904180500 TAF LRCL 180500Z 1806/1815 VRB04KT 9999 BKN050
                      TEMPO 1812/1815 5000 -RA BKN015 OVC045=
201904180800 TAF LRCL 180800Z 1809/1818 VRB04KT 9999 BKN050
                      TEMPO 1812/1816 5000 -RA BKN015 OVC045=
201904181100 TAF LRCL 181100Z 1812/1821 VRB04KT 9999 BKN050
                      PROB30 TEMPO 1812/1816 5000 -RA BKN015 OVC045=
201904181400 TAF LRCL 181400Z 1815/1824 VRB04KT 9999 BKN050=
201904181700 TAF LRCL 181700Z 1818/1903 VRB04KT 9999 SCT045=
201904182000 TAF LRCL 182000Z 1821/1906 27005KT 9999 SCT045=
201904182300 TAF LRCL 182300Z 1900/1909 27006KT CAVOK
                      BECMG 1907/1909 34012KT=
201904190200 TAF LRCL 190200Z 1903/1912 VRB04KT CAVOK
                      BECMG 1907/1909 34012KT=
201904190500 TAF LRCL 190500Z 1906/1915 28010KT CAVOK
                      BECMG 1907/1909 34012KT=
201904190800 TAF LRCL 190800Z 1909/1918 34015KT CAVOK
                      BECMG 1916/1918 04005KT=
201904191100 TAF LRCL 191100Z 1912/1921 34012KT 9999 SCT040
                      TEMPO 1912/1916 SCT045CB
                      BECMG 1917/1919 VRB04KT=
201904191400 TAF LRCL 191400Z 1915/1924 04008KT 9999 SCT040=
201904191700 TAF LRCL 191700Z 1918/2003 05008KT CAVOK=
201904192000 TAF LRCL 192000Z 1921/2006 VRB04KT CAVOK=
201904192300 TAF LRCL 192300Z 2000/2009 VRB04KT CAVOK=
201904200200 TAF LRCL 200200Z 2003/2012 VRB04KT CAVOK=
201904200500 TAF LRCL 200500Z 2006/2015 VRB04KT CAVOK=
201904200800 TAF LRCL 200800Z 2009/2018 VRB04KT CAVOK=
201904201100 TAF LRCL 201100Z 2012/2021 VRB04KT CAVOK=
201904201400 TAF LRCL 201400Z 2015/2024 VRB04KT CAVOK=
201904201700 TAF LRCL 201700Z 2018/2103 VRB04KT CAVOK=
201904202000 TAF LRCL 202000Z 2021/2106 VRB04KT CAVOK=
201904202300 TAF LRCL 202300Z 2100/2109 VRB04KT CAVOK=
201904210200 TAF LRCL 210200Z 2103/2112 VRB04KT CAVOK
                      PROB40 TEMPO 2109/2112 5000 -SHRA SCT035CB=
201904210500 TAF LRCL 210500Z 2106/2115 VRB04KT CAVOK
                      TEMPO 2112/2115 SCT045CB=
201904210800 TAF LRCL 210800Z 2109/2118 08006KT CAVOK
                      TEMPO 2112/2116 SCT045CB=
201904211100 TAF LRCL 211100Z 2112/2121 14010KT CAVOK
                      TEMPO 2112/2116 SCT045CB
                      BECMG 2116/2118 VRB04KT=
201904211400 TAF LRCL 211400Z 2115/2124 VRB04KT 9999 SCT030CB
                      BECMG 2115/2117 NSC=
201904211700 TAF LRCL 211700Z 2118/2203 VRB04KT 9999 FEW040CB
                      BECMG 2118/2120 NSC=
201904212000 TAF LRCL 212000Z 2121/2206 VRB04KT CAVOK
                      PROB30 TEMPO 2201/2205 5000 -RA BR=
201904212300 TAF LRCL 212300Z 2200/2209 VRB04KT CAVOK
                      PROB30 TEMPO 2201/2205 5000 -SHRA SCT040CB
                       BECMG 2207/2209 13010KT=
201904220200 TAF LRCL 220200Z 2203/2212 VRB04KT 9999 SCT040CB BKN050
                      TEMPO 2203/2205 5000 -SHRA
                      BECMG 2205/2207 11010KT SCT040=
201904220500 TAF LRCL 220500Z 2206/2215 VRB04KT 9999 SCT045CB BKN055
                      TEMPO 2206/2208 5000 -SHRA BKN040CB OVC050
                       BECMG 2208/2210 13010KT SCT045
                      TEMPO 2213/2215 5000 -TSRA BKN040CB OVC045=
201904220800 TAF LRCL 220800Z 2209/2218 10010KT 9999 SCT045
                      TEMPO 2211/2215 5000 -SHRA SCT040CB
                      PROB40 TEMPO 2212/2215 VRB15G25KT 3000 TSRA
                       BKN015 BKN030CB=
201904221100 TAF LRCL 221100Z 2212/2221 11012KT 9999 SCT045
                      TEMPO 2212/2216 5000 -SHRA SCT040CB
                      PROB40 TEMPO 2212/2215 VRB15G25KT -TSRA BKN015
                       BKN030CB=
201904221400 TAF LRCL 221400Z 2215/2224 11016KT 9999 BKN045
                      TEMPO 2215/2217 SCT030CB OVC035=
201904221700 TAF LRCL 221700Z 2218/2303 11014KT 9999 SCT050
                      TEMPO 2218/2220 5000 -RA -SHRA SCT040CB BKN050=
201904222000 TAF LRCL 222000Z 2221/2306 12006KT CAVOK=
201904222300 TAF LRCL 222300Z 2300/2309 10006KT CAVOK=
201904230200 TAF LRCL 230200Z 2303/2312 VRB04KT CAVOK
                      BECMG 2304/2306 14012KT=
201904230500 TAF LRCL 230500Z 2306/2315 07006KT CAVOK
                      BECMG 2306/2308 13010KT
                      PROB30 TEMPO 2308/2313 13015G25KT=
201904230800 TAF LRCL 230800Z 2309/2318 12014KT CAVOK
                      PROB30 TEMPO 2309/2313 12016G26KT=
201904231100 TAF LRCL 231100Z 2312/2321 14010KT CAVOK
                      PROB40 TEMPO 2318/2321 SCT040CB=
201904231400 TAF LRCL 231400Z 2315/2324 13012KT CAVOK
                      PROB40 TEMPO 2316/2320 5000 -SHRA SCT040CB=
201904231700 TAF LRCL 231700Z 2318/2403 12014KT 9999 BKN035
                      TEMPO 2318/2321 5000 -SHRA BKN010 SCT025CB
                       OVC030=
201904232000 TAF LRCL 232000Z 2321/2406 13008KT 9999 BKN035
                      TEMPO 2322/2402 5000 -RA BKN010 OVC030=
201904232300 TAF LRCL 232300Z 2400/2409 12010KT 9999 BKN035
                      TEMPO 2400/2404 5000 -SHRA BKN010 SCT025CB
                       OVC030=
201904240200 TAF LRCL 240200Z 2403/2412 12008KT 9999 BKN035
                      TEMPO 2403/2406 5000 SHRA SCT025CB BKN030=
201904240500 TAF LRCL 240500Z 2406/2415 VRB04KT 9999 BKN060
                      BECMG 2407/2409 13010KT=
201904240800 TAF LRCL 240800Z 2409/2418 13010KT 9999 BKN060
                      BECMG 2414/2416 VRB04KT=
201904241100 TAF LRCL 241100Z 2412/2421 11014KT CAVOK
                      BECMG 2415/2417 VRB04KT=
201904241400 TAF LRCL 241400Z 2415/2424 13012KT CAVOK
                      BECMG 2416/2418 VRB04KT=
201904241700 TAF LRCL 241700Z 2418/2503 13007KT CAVOK=
201904242000 TAF LRCL 242000Z 2421/2506 VRB04KT CAVOK=
201904242300 TAF LRCL 242300Z 2500/2509 10007KT CAVOK
                      PROB40 TEMPO 2506/2509 SCT040CB=
201904250200 TAF LRCL 250200Z 2503/2512 VRB04KT CAVOK
                      PROB40 TEMPO 2506/2509 SCT040CB
                      BECMG 2509/2511 12010KT=
201904250500 TAF LRCL 250500Z 2506/2515 VRB04KT CAVOK
                      TEMPO 2506/2509 SCT040CB
                      BECMG 2509/2511 12010KT
                      PROB40 TEMPO 2512/2515 5000 -SHRA SCT035CB=
201904250800 TAF LRCL 250800Z 2509/2518 11009KT CAVOK
                      PROB40 TEMPO 2513/2516 5000 -SHRA SCT045CB=
201904251100 TAF LRCL 251100Z 2512/2521 11006KT CAVOK
                      PROB40 TEMPO 2513/2516 5000 -SHRA SCT045CB=
201904251400 TAF LRCL 251400Z 2515/2524 VRB04KT CAVOK
                      PROB40 TEMPO 2515/2517 SCT045CB=
201904251700 TAF LRCL 251700Z 2518/2603 VRB04KT CAVOK
                      BECMG 2521/2523 3000 BR
                      PROB40 TEMPO 2600/2603 0800 FG=
201904252000 TAF LRCL 252000Z 2521/2606 VRB04KT CAVOK
                      TEMPO 2523/2604 3000 BR=
201904252300 TAF LRCL 252300Z 2600/2609 VRB04KT CAVOK
                      TEMPO 2601/2604 3000 BR=
201904260200 TAF LRCL 260200Z 2603/2612 VRB04KT CAVOK
                      TEMPO 2610/2612 FEW045CB=
201904260500 TAF LRCL 260500Z 2606/2615 VRB04KT CAVOK
                      BECMG 2608/2610 15010KT
                      TEMPO 2610/2615 SCT045CB=
201904260800 TAF LRCL 260800Z 2609/2618 09008KT CAVOK
                      TEMPO 2610/2615 SCT045CB=
201904261100 TAF LRCL 261100Z 2612/2621 16008KT CAVOK
                      PROB40 TEMPO 2612/2615 3000 TSRA BKN045CB=
201904261400 TAF LRCL 261400Z 2615/2624 VRB04KT CAVOK
                      TEMPO 2615/2617 SCT030CB=
201904261700 TAF LRCL 261700Z 2618/2703 VRB04KT CAVOK
                      TEMPO 2622/2702 SCT045CB=
201904262000 TAF LRCL 262000Z 2621/2706 VRB04KT CAVOK
                      TEMPO 2623/2702 SCT045CB=
201904262300 TAF LRCL 262300Z 2700/2709 VRB04KT CAVOK
                      TEMPO 2700/2702 SCT045CB
                      TEMPO 2707/2709 SCT045CB=
201904270200 TAF LRCL 270200Z 2703/2712 VRB04KT CAVOK
                      TEMPO 2707/2709 SCT045CB
                      BECMG 2709/2711 01010KT 5000 -SHRA SCT045CB=
201904270500 TAF LRCL 270500Z 2706/2715 VRB04KT CAVOK
                      TEMPO 2707/2709 SCT045CB
                      BECMG 2710/2712 SCT030CB
                      TEMPO 2712/2715 VRB15G25KT 3000 TSRA SCT010
                       BKN030CB=
201904270800 TAF LRCL 270800Z 2709/2718 VRB04KT CAVOK
                      BECMG 2711/2713 SCT035CB
                      TEMPO 2713/2718 VRB18G28KT 3000 TSRA SCT010
                       BKN030CB=
201904271100 TAF LRCL 271100Z 2712/2721 VRB04KT 9999 SCT040CB
                      TEMPO 2712/2717 VRB18G28KT 3000 TSRA SCT010
                       BKN030CB
                      TEMPO 2717/2721 5000 SHRA BKN010 SCT030CB=
201904271400 TAF LRCL 271400Z 2715/2724 30008KT 9999 SCT040CB
                      TEMPO 2715/2719 VRB20G30KT 3000 TSRA SCT010
                       BKN030CB
                      PROB30 TEMPO 2715/2717 1000 +TSRAGR
                      TEMPO 2717/2724 5000 SHRA BKN010 SCT030CB=
201904271700 TAF LRCL 271700Z 2718/2803 30008KT 9999 BKN040
                      TEMPO 2718/2723 VRB20G30KT 3000 TSRA SCT010
                       BKN030CB
                      TEMPO 2723/2803 5000 SHRA BKN010 SCT030CB=
201904272000 TAF LRCL 272000Z 2721/2806 30008KT 9999 BKN040
                      TEMPO 2721/2802 5000 -SHRA BKN010 SCT030CB=
201904272300 TAF LRCL 272300Z 2800/2809 VRB04KT 9999 BKN040
                      TEMPO 2800/2802 5000 -SHRA BKN010 SCT030CB=
201904280200 TAF LRCL 280200Z 2803/2812 34008KT 9999 BKN030
                      TEMPO 2803/2807 3000 RA BKN005 OVC025=
201904280500 TAF LRCL 280500Z 2806/2815 34008KT 9999 BKN055
                      TEMPO 2810/2815 3000 TSRA BKN015 SCT035CB
                       BKN050=
201904280800 TAF LRCL 280800Z 2809/2818 34008KT 9999 BKN055
                      TEMPO 2810/2816 3000 TSRA BKN015 SCT035CB
                       BKN050=
201904281100 TAF LRCL 281100Z 2812/2821 34008KT 9999 BKN055
                      TEMPO 2812/2817 3000 TSRA BKN015 SCT040CB
                       BKN050
                      BECMG 2817/2819 3000 BR SCT010 BKN030=
201904281400 TAF LRCL 281400Z 2815/2824 31008KT 9999 SCT040CB BKN055
                      TEMPO 2815/2817 5000 TSRA BKN010 SCT035CB
                       BKN050
                      BECMG 2817/2819 5000 BR BKN010 BKN030
                      TEMPO 2821/2824 1500 BR BKN005 BKN030=
201904281700 TAF LRCL 281700Z 2818/2903 VRB04KT 9999 SCT045
                      PROB30 TEMPO 2822/2903 3000 -RA BR BKN010
                       BKN040=
201904282000 TAF LRCL 282000Z 2821/2906 VRB04KT 9999 SCT020 BKN045
                      PROB30 TEMPO 2823/2905 3000 -RADZ BR BKN010
                       BKN040=
201904282300 TAF LRCL 282300Z 2900/2909 VRB04KT 9999 SCT015 BKN040
                      PROB30 TEMPO 2900/2905 3000 -RADZ BR BKN010
                       BKN040=
201904290200 TAF LRCL 290200Z 2903/2912 VRB04KT 9999 BKN055
                      PROB30 TEMPO 2903/2907 3000 -RA BR BKN010
                       BKN040=
201904290500 TAF LRCL 290500Z 2906/2915 VRB04KT 9999 BKN055
                      PROB30 TEMPO 2906/2908 5000 -RA BR BKN010
                       BKN045=
201904290800 TAF LRCL 290800Z 2909/2918 VRB04KT 9999 BKN045=
201904291100 TAF LRCL 291100Z 2912/2921 06008KT 9999 BKN045=
201904291400 TAF LRCL 291400Z 2915/2924 04006KT 9999 SCT045=
201904291700 TAF LRCL 291700Z 2918/3003 VRB04KT 9999 SCT045=
201904292000 TAF LRCL 292000Z 2921/3006 VRB04KT 9999 BKN050
                      TEMPO 3003/3006 5000 -RA BR BKN010 OVC040=
201904292300 TAF LRCL 292300Z 3000/3009 VRB04KT 9999 BKN060
                      PROB30 TEMPO 3003/3007 5000 -RA BR BKN010
                       OVC040=
201904300200 TAF LRCL 300200Z 3003/3012 VRB04KT 9999 BKN060
                      TEMPO 3003/3007 5000 -RA BR BKN010 FEW030CB
                       OVC050
                      TEMPO 3007/3012 5000 -SHRA SCT035CB BKN060=
201904300500 TAF LRCL 300500Z 3006/3015 VRB04KT 9999 BKN035
                      TEMPO 3009/3013 3000 TSRA BKN010 BKN025CB=
201904300800 TAF LRCL 300800Z 3009/3018 07008KT 9999 BKN035
                      TEMPO 3009/3014 VRB20G30KT 3000 TSRA BKN010
                       BKN030CB=
201904301100 TAF LRCL 301100Z 3012/3021 08008KT 9999 BKN035
                      TEMPO 3012/3016 VRB20G30KT 3000 TSRA BKN010
                       BKN030CB=
201904301400 TAF LRCL 301400Z 3015/3024 22014KT 9999 BKN035
                      TEMPO 3015/3018 3000 SHRA BKN010 BKN025CB=
201904301700 TAF LRCL 301700Z 3018/0103 VRB04KT 9999 BKN035
                      PROB40 TEMPO 3018/3021 5000 -SHRA BKN015
                       SCT035CB=
201904302000 TAF LRCL 302000Z 3021/0106 VRB04KT 9999 BKN035
                      TEMPO 3021/0101 5000 -SHRA BKN015 SCT035CB=
201904302300 TAF LRCL 302300Z 0100/0109 27010KT 9999 BKN035
                      TEMPO 0100/0105 5000 -SHRA BKN015 SCT035CB
                       BECMG 0105/0107 33015G25KT=