201905010000 METAR LRCL 010000Z 27006KT 9999 FEW042 OVC053 08/05 Q1002
                        R07/29//95=
201905010030 METAR LRCL 010030Z 27004KT 9999 BKN041 OVC062 08/05 Q1002
                        R07/29//95=
201905010100 METAR LRCL 010100Z 26004KT 9999 SCT041 07/05 Q1001 R07/29//95=
201905010130 METAR LRCL 010130Z VRB01KT 9999 FEW034 BKN046 07/05 Q1001
                        R07/29//95=
201905010200 METAR LRCL 010200Z VRB02KT 9999 OVC034 08/05 Q1001 R07/29//95=
201905010230 METAR LRCL 010230Z 23004KT 200V260 9999 OVC029 08/05 Q1001
                        R07/29//95=
201905010300 METAR LRCL 010300Z 25003KT 9999 OVC018 08/06 Q1001 R07/29//95=
201905010330 METAR COR LRCL 010330Z 00000KT 6000 OVC018 07/06 Q1001 R07/29//95=
201905010400 METAR LRCL 010400Z 24004KT 200V260 3000 -RA BR FEW004 OVC017
                        07/06 Q1001 R07/29//95=
201905010430 METAR LRCL 010430Z 25005KT 5000 BR FEW003 OVC016 08/07 Q1001
                        R07/29//95=
201905010500 METAR LRCL 010500Z 27004KT 9999 OVC016 08/07 Q1001 R07/29//95=
201905010530 METAR LRCL 010530Z 26004KT 230V300 9999 OVC018 09/07 Q1001
                        R07/29//95=
201905010600 METAR LRCL 010600Z 26007KT 9999 BKN015 OVC031 10/08 Q1001
                        R07/29//95=
201905010630 METAR LRCL 010630Z 28010KT 9999 -RA OVC013 10/09 Q1002 R07/29//95=
201905010700 METAR LRCL 010700Z 30009KT 9999 SCT013 OVC033 11/08 Q1002
                        R07/29//95=
201905010730 METAR LRCL 010730Z 30010KT 9999 -RA SCT017 OVC030 11/08 Q1002
                        R07/29//95=
201905010800 METAR LRCL 010800Z 30010KT 9999 SCT017 OVC030 11/08 Q1003
                        R07/29//95=
201905010830 METAR LRCL 010830Z 30010KT 9999 BKN020 OVC030 11/08 Q1003
                        R07/29//95=
201905010900 METAR LRCL 010900Z 31010KT 9999 -RA FEW015 BKN020 OVC040
                        12/08 Q1003 R07/29//95=
201905010930 METAR LRCL 010930Z 32009KT 9999 -RA FEW015 BKN020 OVC040
                        11/09 Q1003 R07/29//95=
201905011000 METAR LRCL 011000Z 31013KT 9999 -RA FEW015 SCT023 OVC040
                        12/08 Q1003 R07/29//95=
201905011030 METAR LRCL 011030Z 31016KT 9999 -RA FEW015 SCT025 BKN040
                        12/08 Q1004 R07/29//95=
201905011100 METAR LRCL 011100Z 31014KT 9999 SCT025 BKN040 13/08 Q1004
                        R07/19//95=
201905011130 METAR LRCL 011130Z 30014KT 9999 BKN023 BKN040 13/08 Q1004
                        R07/19//95=
201905011200 METAR LRCL 011200Z 29014KT 9999 -SHRA FEW016 SCT023 FEW040CB
                        BKN048 11/09 Q1005 R07/29//95=
201905011230 METAR LRCL 011230Z 29013KT 9999 FEW016 FEW040CB BKN048 13/08
                        Q1005 R07/29//95=
201905011300 METAR LRCL 011300Z 31013KT 9999 SCT023 SCT048 13/08 Q1005
                        R07/29//95=
201905011330 METAR LRCL 011330Z 29014KT 9999 BKN025 14/08 Q1005 R07/15//95=
201905011400 METAR LRCL 011400Z 29014KT 9999 BKN025 13/07 Q1005 R07/15//95=
201905011430 METAR LRCL 011430Z 28010KT 9999 FEW015 BKN027 13/07 Q1006
                        R07/CLRD//=
201905011500 METAR LRCL 011500Z 27009KT 9999 FEW015 BKN027 12/08 Q1006=
201905011530 METAR LRCL 011530Z 26008KT 9999 SCT027 13/08 Q1006=
201905011600 METAR LRCL 011600Z 28010KT 9999 FEW030 14/08 Q1006=
201905011630 METAR LRCL 011630Z 28010KT 9999 FEW030 14/08 Q1006=
201905011700 METAR LRCL 011700Z 27009KT 9999 FEW030 13/07 Q1006=
201905011730 METAR LRCL 011730Z 28008KT 9999 FEW030 12/07 Q1006=
201905011800 METAR LRCL 011800Z 28006KT 9999 FEW020 FEW055CB 11/07 Q1007=
201905011830 METAR LRCL 011830Z 34009KT 9999 FEW020 SCT044CB 10/06 Q1007
                        R07/19//95=
201905011900 METAR LRCL 011900Z 21005KT CAVOK 10/06 Q1007 R07/19//95=
201905011930 METAR LRCL 011930Z 24004KT CAVOK 09/06 Q1007 R07/19//95=
201905012000 METAR LRCL 012000Z 28003KT CAVOK 09/06 Q1007 R07/19//95=
201905012030 METAR LRCL 012030Z 27006KT CAVOK 09/06 Q1008 R07/19//95=
201905012100 METAR LRCL 012100Z 29004KT CAVOK 08/06 Q1008 R07/19//95=
201905012130 METAR LRCL 012130Z 27007KT CAVOK 08/06 Q1008 R07/CLRD//=
201905012200 METAR LRCL 012200Z 26008KT CAVOK 08/06 Q1008=
201905012230 METAR LRCL 012230Z 28003KT CAVOK 07/06 Q1008=
201905012300 METAR LRCL 012300Z 27006KT CAVOK 08/06 Q1007=
201905012330 METAR LRCL 012330Z 28005KT CAVOK 07/05 Q1007=
201905020000 METAR LRCL 020000Z 28006KT CAVOK 08/06 Q1007=
201905020030 METAR LRCL 020030Z 27005KT CAVOK 08/06 Q1007=
201905020100 METAR LRCL 020100Z 27005KT CAVOK 07/06 Q1007=
201905020130 METAR LRCL 020130Z 27004KT CAVOK 07/06 Q1007=
201905020200 METAR LRCL 020200Z 27005KT CAVOK 07/05 Q1007=
201905020230 METAR LRCL 020230Z 27005KT CAVOK 07/05 Q1007=
201905020300 METAR LRCL 020300Z 26006KT CAVOK 07/05 Q1007=
201905020330 METAR LRCL 020330Z 27005KT CAVOK 07/06 Q1007=
201905020400 METAR LRCL 020400Z 28004KT CAVOK 07/06 Q1007=
201905020430 METAR LRCL 020430Z VRB02KT CAVOK 09/06 Q1008=
201905020500 METAR LRCL 020500Z 27003KT CAVOK 10/06 Q1008=
201905020530 METAR LRCL 020530Z VRB01KT CAVOK 11/07 Q1008=
201905020600 METAR LRCL 020600Z VRB02KT CAVOK 12/06 Q1008=
201905020630 METAR LRCL 020630Z 09004KT CAVOK 12/08 Q1008=
201905020700 METAR LRCL 020700Z 08007KT 9999 FEW042 12/08 Q1008=
201905020730 METAR LRCL 020730Z 07008KT 9999 FEW048 12/07 Q1009=
201905020800 METAR LRCL 020800Z 05009KT 9999 FEW053 13/07 Q1009=
201905020830 METAR LRCL 020830Z 07007KT 9999 FEW030 SCT062 14/07 Q1009=
201905020900 METAR LRCL 020900Z 09005KT 050V120 9999 SCT056 14/08 Q1009=
201905020930 METAR LRCL 020930Z 09005KT 050V130 9999 FEW060 15/07 Q1009=
201905021000 METAR LRCL 021000Z 03004KT 320V090 9999 FEW062 16/06 Q1009=
201905021030 METAR LRCL 021030Z 09003KT 9999 FEW046 SCT062CB 15/06 Q1009=
201905021100 METAR LRCL 021100Z 09003KT 050V130 9999 FEW042 SCT059CB 16/05
                        Q1008=
201905021130 METAR LRCL 021130Z 08003KT 020V120 9999 FEW027 SCT058CB 16/05
                        Q1008=
201905021200 METAR LRCL 021200Z AUTO VRB02KT 9999 BKN098/// 17/05 Q1008=
201905021230 METAR LRCL 021230Z VRB02KT 9999 FEW046 SCT062 18/06 Q1008=
201905021300 METAR LRCL 021300Z 35004KT 290V030 9999 SCT050 18/07 Q1008=
201905021330 METAR LRCL 021330Z 31008KT 280V340 9999 FEW051 18/05 Q1008=
201905021400 METAR LRCL 021400Z 31009KT 270V360 9999 FEW055 19/05 Q1008=
201905021430 METAR LRCL 021430Z 31008KT 9999 FEW060TCU 19/05 Q1007=
201905021500 METAR COR LRCL 021500Z 27004KT 220V350 9999 FEW060 19/05
                        Q1007=
201905021530 METAR LRCL 021530Z 30007KT 270V330 9999 FEW060 19/05 Q1007=
201905021600 METAR LRCL 021600Z 30009KT 9999 FEW065CB 18/05 Q1007=
201905021630 METAR LRCL 021630Z 28021G31KT 9999 FEW040 FEW060CB 16/04
                        Q1008=
201905021700 METAR LRCL 021700Z 29011KT 9999 FEW040 FEW060CB 15/05 Q1008=
201905021730 METAR LRCL 021730Z 25010KT 9999 FEW040 FEW060CB 14/05 Q1008=
201905021800 METAR LRCL 021800Z 25010KT 9999 FEW040 SCT055CB 13/07 Q1008=
201905021830 METAR LRCL 021830Z 26006KT 9999 FEW060CB 12/08 Q1008=
201905021900 METAR LRCL 021900Z 27005KT CAVOK 12/07 Q1009=
201905021930 METAR LRCL 021930Z VRB01KT CAVOK 11/07 Q1009=
201905022000 METAR LRCL 022000Z 20004KT CAVOK 11/07 Q1009=
201905022030 METAR LRCL 022030Z 25003KT CAVOK 10/07 Q1009=
201905022100 METAR LRCL 022100Z 00000KT CAVOK 09/07 Q1009=
201905022130 METAR LRCL 022130Z 00000KT CAVOK 09/07 Q1009=
201905022200 METAR LRCL 022200Z 00000KT CAVOK 09/08 Q1009=
201905022230 METAR LRCL 022230Z 12004KT CAVOK 09/07 Q1009=
201905022300 METAR LRCL 022300Z 00000KT CAVOK 09/07 Q1009=
201905022330 METAR COR LRCL 022330Z VRB02KT CAVOK 08/07 Q1009=
201905030000 METAR LRCL 030000Z 06003KT CAVOK 09/07 Q1009=
201905030030 METAR LRCL 030030Z 09004KT CAVOK 09/07 Q1009=
201905030100 METAR LRCL 030100Z VRB01KT CAVOK 09/07 Q1009=
201905030130 METAR LRCL 030130Z 04003KT CAVOK 09/07 Q1009=
201905030200 METAR LRCL 030200Z 11004KT CAVOK 08/07 Q1009=
201905030230 METAR LRCL 030230Z VRB02KT CAVOK 08/07 Q1008=
201905030300 METAR LRCL 030300Z 05004KT CAVOK 08/07 Q1008=
201905030330 METAR LRCL 030330Z 07004KT CAVOK 08/06 Q1009=
201905030400 METAR LRCL 030400Z VRB01KT CAVOK 08/06 Q1009=
201905030430 METAR LRCL 030430Z VRB01KT CAVOK 10/07 Q1009=
201905030500 METAR LRCL 030500Z VRB02KT CAVOK 10/07 Q1009=
201905030530 METAR LRCL 030530Z 06004KT CAVOK 12/08 Q1009=
201905030600 METAR LRCL 030600Z 06003KT CAVOK 12/09 Q1009=
201905030630 METAR LRCL 030630Z 07006KT 040V100 CAVOK 14/09 Q1009=
201905030700 METAR LRCL 030700Z 09005KT 050V130 CAVOK 16/09 Q1009=
201905030730 METAR LRCL 030730Z 11005KT 060V140 CAVOK 17/08 Q1009=
201905030800 METAR LRCL 030800Z 12006KT CAVOK 18/10 Q1009=
201905030830 METAR LRCL 030830Z 09006KT 050V140 CAVOK 19/10 Q1009=
201905030900 METAR LRCL 030900Z 12006KT 080V170 CAVOK 20/09 Q1009=
201905030930 METAR LRCL 030930Z 10004KT 050V150 9999 FEW045 20/08 Q1008=
201905031000 METAR LRCL 031000Z 10004KT 360V140 9999 SCT045 21/07 Q1008=
201905031030 METAR LRCL 031030Z 14005KT 110V180 9999 SCT050 21/06 Q1008=
201905031100 METAR LRCL 031100Z 26009KT 220V300 9999 FEW050 22/02 Q1007=
201905031130 METAR LRCL 031130Z 26009KT 230V300 9999 SCT060 22/02 Q1007=
201905031200 METAR LRCL 031200Z 25010KT 220V280 9999 SCT060 23/03 Q1007=
201905031230 METAR LRCL 031230Z 27013KT 9999 FEW050CB SCT060 21/04 Q1007=
201905031300 METAR LRCL 031300Z 28013KT 9999 FEW060 20/03 Q1007=
201905031330 METAR LRCL 031330Z 29016KT 9999 FEW060 19/03 Q1007=
201905031400 METAR LRCL 031400Z 29013KT 9999 FEW060 19/04 Q1007=
201905031430 METAR LRCL 031430Z 29010KT 9999 FEW060 18/05 Q1007=
201905031500 METAR LRCL 031500Z 28007KT 240V300 9999 FEW050CB 18/05 Q1007=
201905031530 METAR LRCL 031530Z 25020KT 9999 FEW060CB 16/04 Q1008=
201905031600 METAR COR LRCL 031600Z 26008KT 9999 SCT052CB 15/05 Q1008=
201905031630 METAR LRCL 031630Z 27006KT 9999 FEW058CB 16/05 Q1008=
201905031700 METAR LRCL 031700Z 28004KT 9999 FEW067 15/06 Q1008=
201905031730 METAR LRCL 031730Z 29003KT 9999 FEW067 14/07 Q1008=
201905031800 METAR LRCL 031800Z 22006KT 9999 FEW067 15/05 Q1008=
201905031830 METAR LRCL 031830Z VRB01KT 9999 FEW060 13/05 Q1008=
201905031900 METAR LRCL 031900Z 36006KT 9999 FEW055 SCT067 13/06 Q1009=
201905031930 METAR LRCL 031930Z 28011KT 250V320 9999 SCT046CB BKN062 13/08
                        Q1009=
201905032000 METAR LRCL 032000Z 19008KT 9999 FEW035CB SCT060 13/07 Q1009=
201905032030 METAR COR LRCL 032030Z 19008KT 9999 FEW035CB SCT060 13/07
                        Q1009=
201905032100 METAR LRCL 032100Z VRB02KT 9999 FEW042CB BKN067 12/08 Q1009=
201905032130 METAR LRCL 032130Z 28002KT 9999 FEW046 BKN067 12/08 Q1009=
201905032200 METAR LRCL 032200Z 22004KT 9999 FEW050 BKN067 12/08 Q1009=
201905032230 METAR LRCL 032230Z VRB02KT 9999 -RA FEW055 OVC067 12/09 Q1009=
201905032300 METAR LRCL 032300Z VRB01KT 9999 FEW050 BKN067 12/08 Q1009
                        R07/15//95=
201905032330 METAR LRCL 032330Z VRB01KT 9999 FEW067 10/08 Q1009 R07/15//95=
201905040000 METAR LRCL 040000Z VRB02KT 9999 SCT065 10/08 Q1009 R07/15//95=
201905040030 METAR LRCL 040030Z 00000KT 9999 SCT067 10/08 Q1009 R07/15//95=
201905040100 METAR LRCL 040100Z 00000KT 9999 SCT067 10/08 Q1009 R07/15//95=
201905040130 METAR LRCL 040130Z VRB02KT 9999 FEW067 09/07 Q1009 R07/15//95=
201905040200 METAR LRCL 040200Z 35003KT 9999 FEW067 09/07 Q1009 R07/15//95=
201905040230 METAR LRCL 040230Z 00000KT CAVOK 08/07 Q1009 R07/15//95=
201905040300 METAR LRCL 040300Z VRB02KT 9999 FEW063 08/06 Q1009 R07/CLRD//=
201905040330 METAR LRCL 040330Z VRB01KT 9999 BKN064 08/07 Q1009 R07/CLRD//=
201905040400 METAR LRCL 040400Z VRB01KT 9999 BKN064 09/08 Q1009=
201905040430 METAR LRCL 040430Z 07001KT 9999 FEW065 09/08 Q1009=
201905040500 METAR LRCL 040500Z VRB02KT CAVOK 11/08 Q1009=
201905040530 METAR LRCL 040530Z 00000KT CAVOK 13/09 Q1009=
201905040600 METAR LRCL 040600Z 05003KT CAVOK 13/09 Q1009=
201905040630 METAR LRCL 040630Z VRB03KT CAVOK 14/09 Q1009=
201905040700 METAR LRCL 040700Z 07004KT 010V100 CAVOK 15/09 Q1009=
201905040730 METAR LRCL 040730Z 09005KT 040V120 CAVOK 16/09 Q1009=
201905040800 METAR LRCL 040800Z 11006KT CAVOK 16/09 Q1008=
201905040830 METAR LRCL 040830Z 11007KT 090V150 CAVOK 16/08 Q1008=
201905040900 METAR LRCL 040900Z 13008KT 080V160 9999 FEW036CB 17/08 Q1008=
201905040930 METAR LRCL 040930Z 15007KT 9999 FEW040CB 17/07 Q1008=
201905041000 METAR LRCL 041000Z 10006KT 060V130 9999 FEW038 FEW040CB 17/09
                        Q1007=
201905041030 METAR LRCL 041030Z 13010KT 9999 FEW038 FEW040CB 19/09 Q1007=
201905041100 METAR LRCL 041100Z 12009KT 080V140 9999 FEW038 FEW040CB 19/09
                        Q1006=
201905041130 METAR LRCL 041130Z 13012KT 100V160 9999 VCSH FEW040 SCT042CB
                        19/06 Q1006=
201905041200 METAR LRCL 041200Z 16018KT 9999 VCTS FEW031 FEW033CB 18/06
                        Q1006=
201905041230 METAR LRCL 041230Z 17011KT 9999 FEW031 FEW033CB 20/05 Q1005=
201905041300 METAR LRCL 041300Z 14010KT 120V180 9999 FEW032 FEW034TCU
                        20/06 Q1005=
201905041330 METAR LRCL 041330Z 15009KT 120V190 9999 FEW032 FEW034CB 20/06
                        Q1005=
201905041400 METAR LRCL 041400Z 16018KT 9999 FEW035 FEW037CB 20/05 Q1005=
201905041430 METAR LRCL 041430Z 14010KT 100V170 9999 VCTS SCT040CB 19/05
                        Q1004=
201905041500 METAR LRCL 041500Z 10008KT 070V130 9999 FEW040CB 17/08 Q1004=
201905041530 METAR LRCL 041530Z 04006KT 010V080 9999 FEW040CB 17/06 Q1004=
201905041600 METAR LRCL 041600Z 04005KT 010V090 9999 FEW055 17/08 Q1004=
201905041630 METAR LRCL 041630Z 05007KT 9999 FEW060 16/08 Q1004=
201905041700 METAR LRCL 041700Z 03006KT CAVOK 16/09 Q1004=
201905041730 METAR LRCL 041730Z 01006KT 340V040 CAVOK 15/09 Q1004=
201905041800 METAR LRCL 041800Z 01007KT CAVOK 15/09 Q1005=
201905041830 METAR LRCL 041830Z 04004KT 350V090 CAVOK 14/09 Q1005=
201905041900 METAR LRCL 041900Z VRB02KT CAVOK 14/09 Q1005=
201905041930 METAR LRCL 041930Z 00000KT CAVOK 13/09 Q1005=
201905042000 METAR LRCL 042000Z 00000KT CAVOK 13/09 Q1004=
201905042030 METAR LRCL 042030Z VRB01KT CAVOK 12/10 Q1004=
201905042100 METAR LRCL 042100Z VRB02KT CAVOK 12/09 Q1004=
201905042130 METAR COR LRCL 042130Z 22004KT 9999 -RA SCT065 13/10 Q1004
                        R07/19//95=
201905042200 METAR LRCL 042200Z 33003KT 280V010 9999 -RA OVC065 12/10
                        Q1004 R07/19//95=
201905042230 METAR LRCL 042230Z 10005KT 9999 -RA OVC065 12/11 Q1004 R07/19//95=
201905042300 METAR LRCL 042300Z VRB02KT 9999 -RA OVC065 12/11 Q1003 R07/29//95=
201905042330 METAR LRCL 042330Z 16004KT 120V210 9999 -RA OVC065 12/10
                        Q1003 R07/29//95=
201905050000 METAR LRCL 050000Z 36003KT 330V050 9999 -RA OVC065 12/10
                        Q1003 R07/29//95=
201905050030 METAR LRCL 050030Z 04004KT 010V070 9999 OVC067 12/10 Q1003
                        R07/29//95=
201905050100 METAR LRCL 050100Z 03003KT 360V070 9999 -RA OVC058 12/10
                        Q1003 R07/29//95=
201905050130 METAR LRCL 050130Z 05003KT 360V110 9999 -RA OVC053 12/10
                        Q1002 R07/29//95=
201905050200 METAR LRCL 050200Z VRB02KT 9999 -RA OVC056 12/10 Q1002 R07/29//95=
201905050230 METAR LRCL 050230Z 08006KT 9999 -RA OVC056 11/10 Q1003 R07/29//95=
201905050300 METAR LRCL 050300Z VRB02KT 9999 -RA SCT056 11/10 Q1002 R07/29//95=
201905050330 METAR LRCL 050330Z 09002KT 9999 FEW056 11/10 Q1002 R07/29//95=
201905050400 METAR LRCL 050400Z 16003KT 110V220 9999 FEW065 11/10 Q1002
                        R07/29//95=
201905050430 METAR LRCL 050430Z VRB01KT 9999 -RA OVC065 12/11 Q1002 R07/29//95=
201905050500 METAR LRCL 050500Z 00000KT 9999 -RA FEW065 12/11 Q1002 R07/29//95=
201905050530 METAR LRCL 050530Z VRB02KT 9999 FEW066 12/10 Q1002 R07/29//95=
201905050600 METAR LRCL 050600Z VRB01KT 9999 FEW065 13/10 Q1002 R07/29//95=
201905050630 METAR LRCL 050630Z VRB01KT 9999 SCT057 13/11 Q1002 R07/29//95=
201905050700 METAR LRCL 050700Z 00000KT 9999 FEW033 13/11 Q1002 R07/29//95=
201905050730 METAR LRCL 050730Z 09003KT 9999 FEW033 14/11 Q1002 R07/29//95=
201905050800 METAR LRCL 050800Z 09005KT 9999 FEW033 15/11 Q1002 R07/29//95=
201905050830 METAR LRCL 050830Z 06004KT 9999 FEW020 16/12 Q1002 R07/CLRD//=
201905050900 METAR LRCL 050900Z 07005KT 9999 FEW020 17/11 Q1002=
201905050930 METAR LRCL 050930Z 13007KT 9999 FEW023 SCT056 17/10 Q1002=
201905051000 METAR LRCL 051000Z 15007KT 9999 FEW050CB SCT056 17/09 Q1002=
201905051030 METAR LRCL 051030Z 16004KT 9999 -SHRA SCT050CB SCT056 17/11
                        Q1003=
201905051100 METAR LRCL 051100Z 15006KT 9999 -SHRA FEW030 SCT047CB 16/11
                        Q1003 R07/29//95=
201905051130 METAR LRCL 051130Z 19004KT 160V230 9999 -SHRA FEW030 SCT047CB
                        15/12 Q1003 R07/29//95=
201905051200 METAR LRCL 051200Z 16007KT 9999 -SHRA FEW033 SCT047CB 15/11
                        Q1003 R07/29//95=
201905051230 METAR LRCL 051230Z 10004KT 9999 FEW033 FEW050CB 16/11 Q1003
                        R07/29//95=
201905051300 METAR LRCL 051300Z 12006KT 9999 FEW033 16/12 Q1003 R07/29//95=
201905051330 METAR LRCL 051330Z 13007KT 9999 FEW060 16/12 Q1003 R07/29//95=
201905051400 METAR LRCL 051400Z 14007KT 9999 SCT060 16/11 Q1003 R07/29//95=
201905051430 METAR LRCL 051430Z 12004KT 9999 SCT060 16/12 Q1003 R07/19//95=
201905051500 METAR LRCL 051500Z 11003KT 9999 SCT060 16/12 Q1003 R07/19//95=
201905051530 METAR LRCL 051530Z 07004KT 9999 BKN063 16/12 Q1003 R07/19//95=
201905051600 METAR LRCL 051600Z 08003KT 040V120 9999 BKN064 16/12 Q1003
                        R07/19//95=
201905051630 METAR LRCL 051630Z 08003KT 360V170 9999 FEW018 BKN066 15/11
                        Q1003 R07/19//95=
201905051700 METAR LRCL 051700Z 08003KT 050V110 9999 -RA FEW015 OVC059
                        15/12 Q1003 R07/29//95=
201905051730 METAR LRCL 051730Z 06003KT 9999 -RA FEW015 OVC058 14/12 Q1003
                        R07/29//95=
201905051800 METAR LRCL 051800Z 05003KT 9999 -RA OVC056 14/11 Q1003 R07/29//95=
201905051830 METAR LRCL 051830Z 09003KT 070V140 9999 -RA BKN057 14/11
                        Q1003 R07/29//95=
201905051900 METAR LRCL 051900Z 02002KT 9999 -RA SCT057 13/12 Q1003 R07/29//95=
201905051930 METAR LRCL 051930Z 06003KT 9999 -RA SCT057 13/12 Q1003 R07/29//95=
201905052000 METAR LRCL 052000Z VRB02KT 9999 -RA SCT056 13/12 Q1003 R07/29//95=
201905052030 METAR LRCL 052030Z VRB01KT 9999 FEW056 13/12 Q1003 R07/29//95=
201905052100 METAR LRCL 052100Z VRB01KT 9999 BKN058 13/12 Q1003 R07/29//95=
201905052130 METAR LRCL 052130Z VRB02KT 6000 FEW030 OVC058 13/12 Q1003
                        R07/29//95=
201905052200 METAR LRCL 052200Z 00000KT 5000 -RA BR FEW030 OVC054 13/12
                        Q1003 R07/29//95=
201905052230 METAR LRCL 052230Z 30003KT 5000 -RA BR OVC054 13/12 Q1003
                        R07/29//95=
201905052300 METAR LRCL 052300Z 22003KT 4000 -RA BR BKN026 OVC057 13/12
                        Q1003 R07/29//95=
201905052330 METAR LRCL 052330Z 30001KT 3000 RA BR BKN027 OVC060 13/12
                        Q1003 R07/29//95=
201905060000 METAR LRCL 060000Z 29001KT 3500 RA BR BKN026 OVC040 12/12
                        Q1002 R07/29//95=
201905060030 METAR LRCL 060030Z VRB02KT 4000 RA BR BKN022 OV040 12/12
                        Q1002 R07/29//95=
201905060100 METAR LRCL 060100Z 18001KT 4500 -RA BR BKN010 OVC040 12/12
                        Q1002 RERA R07/29//95=
201905060130 METAR LRCL 060130Z 00000KT 4000 -RA BR BKN009 OVC040 13/12
                        Q1002 R07/29//95=
201905060200 METAR LRCL 060200Z VRB01KT 5000 BR OVC008 12/12 Q1002 R07/29//95=
201905060230 METAR LRCL 060230Z 00000KT 5000 BR OVC008 12/12 Q1001 R07/29//95=
201905060300 METAR LRCL 060300Z 00000KT 5000 BR OVC008 13/12 Q1002 R07/29//95=
201905060330 METAR LRCL 060330Z 00000KT 5000 BR OVC006 12/12 Q1002 R07/29//95=
201905060400 METAR LRCL 060400Z 01001KT 5000 BR SCT004 OVC006 13/12 Q1002
                        R07/29//95=
201905060430 METAR LRCL 060430Z 00000KT 5000 -DZ BR SCT004 OVC006 13/12
                        Q1002 R07/29//95=
201905060500 METAR LRCL 060500Z VRB01KT 5000 BR FEW004 BKN006 OVC016 13/12
                        Q1002 R07/29//95=
201905060530 METAR LRCL 060530Z VRB02KT 5000 BR SCT005 BKN015 14/13 Q1002
                        R07/29//95=
201905060600 METAR LRCL 060600Z 14003KT 7000 SCT007 SCT015 BKN050 14/12
                        Q1002 R07/29//95=
201905060630 METAR COR LRCL 060630Z 07003KT 9999 BKN013 BKN055 15/12 Q1002
                        R07/29//95=
201905060700 METAR LRCL 060700Z 08003KT 9999 BKN014 BKN026 15/12 Q1002
                        R07/15//95=
201905060730 METAR LRCL 060730Z 08004KT 9999 SCT014 BKN025 BKN049 16/12
                        Q1002 R07/CLRD//=
201905060800 METAR LRCL 060800Z VRB01KT 9999 SCT013 BKN026 BKN049 16/12
                        Q1002=
201905060830 METAR LRCL 060830Z 36008KT 9999 FEW014 SCT022 BKN067 16/12
                        Q1002=
201905060900 METAR LRCL 060900Z 34011KT 9999 -SHRA FEW019 SCT022CB BKN058
                        14/12 Q1003 R07/19//95=
201905060930 METAR LRCL 060930Z 34010KT 9999 FEW018 BKN038 BKN065 14/11
                        Q1003 R07/19//95=
201905061000 METAR LRCL 061000Z 33009KT 9999 -SHRA FEW012 SCT030CB BKN058
                        13/11 Q1003 R07/29//95=
201905061030 METAR LRCL 061030Z 34011KT 9999 -TSRA FEW015 BKN025CB 13/11
                        Q1003 R07/29//95=
201905061100 METAR LRCL 061100Z 33010KT 9999 -TSRA FEW015 SCT026CB BKN047
                        12/10 Q1003 R07/29//95=
201905061130 METAR COR LRCL 061130Z 35011KT 9999 FEW015 BKN026CB 13/10
                        Q1004 RETS R07/29//95=
201905061200 METAR LRCL 061200Z 34011KT 9999 -SHRA FEW014 BKN022CB 12/09
                        Q1004 R07/29//95=
201905061230 METAR LRCL 061230Z 32006KT 290V350 9999 -SHRA FEW013 BKN026CB
                        12/09 Q1004 R07/29//95=
201905061300 METAR LRCL 061300Z 34007KT 280V020 9999 -SHRA SCT013 SCT026CB
                        OVC065 12/09 Q1004 R07/29//95=
201905061330 METAR LRCL 061330Z 33006KT 290V010 9999 -RA SCT015 BKN026
                        OVC065 11/09 Q1004 R07/29//95=
201905061400 METAR LRCL 061400Z 36005KT 9999 -RA FEW011 OVC025 11/09 Q1005
                        R07/29//95=
201905061430 METAR LRCL 061430Z 35007KT 9999 -RA SCT009 OVC022 10/08 Q1005
                        R07/29//95=
201905061500 METAR LRCL 061500Z 35010KT 320V020 9999 SCT013 OVC022 10/08
                        Q1005 R07/29//95=
201905061530 METAR LRCL 061530Z 34011KT 9999 SCT013 OVC022 10/07 Q1005
                        R07/29//95=
201905061600 METAR LRCL 061600Z 33011KT 310V010 9999 SCT013 OVC022 10/07
                        Q1005 R07/19//95=
201905061630 METAR LRCL 061630Z 34011KT 9999 SCT012 OVC022 09/07 Q1005
                        R07/19//95=
201905061700 METAR LRCL 061700Z 33009KT 9999 BKN010 OVC025 09/07 Q1006
                        R07/15//95=
201905061730 METAR LRCL 061730Z 32009KT 9999 BKN010 OVC025 09/06 Q1006
                        R07/15//95=
201905061800 METAR LRCL 061800Z 31010KT 9999 BKN010 OVC025 08/06 Q1006
                        R07/15//95=
201905061830 METAR LRCL 061830Z 31008KT 9999 BKN010 OVC025 08/06 Q1006
                        R07/15//95=
201905061900 METAR LRCL 061900Z 29008KT 9999 BKN010 OVC025 08/06 Q1006
                        R07/15//95=
201905061930 METAR LRCL 061930Z 30011KT 9999 BKN012 OVC028 08/05 Q1006
                        R07/15//95=
201905062000 METAR LRCL 062000Z 29010KT 9999 BKN012 OVC028 08/05 Q1007
                        R07/15//95=
201905062030 METAR LRCL 062030Z 28010KT 9999 BKN012 OVC044 07/05 Q1006
                        R07/15//95=
201905062100 METAR LRCL 062100Z 29011KT 9999 SCT012 OVC044 07/04 Q1006
                        R07/15//95=
201905062130 METAR LRCL 062130Z 29014KT 9999 SCT012 OVC044 07/04 Q1006
                        R07/15//95=
201905062200 METAR LRCL 062200Z 29012KT 9999 BKN012 OVC044 06/04 Q1007
                        R07/15//95=
201905062230 METAR LRCL 062230Z 29016KT 9999 BKN010 OVC047 06/04 Q1007
                        R07/15//95=
201905062300 METAR COR LRCL 062300Z 29016KT 9999 -SHRA BKN010 FEW040CB
                        OVC048 06/04 Q1007 R07/29//95=
201905062330 METAR LRCL 062330Z 29013KT 9999 -RA BKN010 OVC047 05/04 Q1007
                        R07/29//95=
201905070000 METAR LRCL 070000Z 28012KT 9999 -RA BKN010 OVC047 05/04 Q1007
                        R07/29//95=
201905070030 METAR COR LRCL 070030Z 28014KT 9999 -RA BKN010 OVC042 05/03
                        Q1007 R07/29//95=
201905070100 METAR LRCL 070100Z 28014KT 9999 -RA BKN012 OVC042 05/03 Q1007
                        R07/29//95=
201905070130 METAR LRCL 070130Z 28013KT 9999 -RA BKN012 OVC038 05/03 Q1007
                        R07/29//95=
201905070200 METAR LRCL 070200Z 28011KT 9999 -RA BKN012 OVC038 05/03 Q1007
                        R07/29//95=
201905070230 METAR LRCL 070230Z 28011KT 9999 -RA BKN014 OVC035 05/03 Q1007
                        R07/29//95=
201905070300 METAR LRCL 070300Z 28012KT 9999 -RA BKN014 OVC035 05/03 Q1007
                        R07/29//95=
201905070330 METAR LRCL 070330Z 28012KT 9999 -RA BKN014 OVC035 05/03 Q1007
                        R07/29//95=
201905070400 METAR LRCL 070400Z 28014KT 9999 -RA BKN014 OVC030 05/03 Q1008
                        R07/29//95=
201905070430 METAR LRCL 070430Z 28015KT 9999 -RA BKN014 OVC030 05/02 Q1008
                        R07/29//95=
201905070500 METAR LRCL 070500Z 28013KT 9999 -RA BKN013 OVC030 05/03 Q1008
                        R07/29//95=
201905070530 METAR LRCL 070530Z 28015KT 9999 -RA SCT013 OVC030 04/03 Q1008
                        R07/29//95=
201905070600 METAR LRCL 070600Z 29013KT 9999 -RA SCT013 OVC030 05/03 Q1009
                        R07/29//95=
201905070630 METAR LRCL 070630Z 30012KT 9999 -RA SCT013 OVC030 05/03 Q1009
                        R07/29//95=
201905070700 METAR LRCL 070700Z 30014KT 9999 -RA SCT019 OVC030 05/03 Q1009
                        R07/29//95=
201905070730 METAR LRCL 070730Z 30014KT 9999 -RA BKN015 OVC030 05/03 Q1009
                        R07/29//95=
201905070800 METAR LRCL 070800Z 30015KT 9999 -RA BKN015 OVC030 05/03 Q1010
                        R07/29//95=
201905070830 METAR LRCL 070830Z 31015KT 290V350 9999 BKN015 OVC042 05/02
                        Q1010 R07/29//95=
201905070900 METAR LRCL 070900Z 31016KT 9999 BKN015 OVC049 06/03 Q1010
                        R07/29//95=
201905070930 METAR LRCL 070930Z 30015KT 9999 BKN016 OVC052 06/02 Q1011
                        R07/29//95=
201905071000 METAR LRCL 071000Z 30016KT 9999 -DZ BKN016 OVC050 06/03 Q1011
                        R07/29//95=
201905071030 METAR LRCL 071030Z 30017KT 9999 -DZ BKN018 OVC050 06/03 Q1011
                        R07/29//95=
201905071100 METAR COR LRCL 071100Z 30019KT 9999 -RA FEW016 OVC056 06/03
                        Q1011 R07/29//95=
201905071130 METAR LRCL 071130Z 30020KT 9999 -RA SCT016 OVC042 06/03 Q1012
                        R07/29//95=
201905071200 METAR LRCL 071200Z 30019KT 9999 -DZ SCT016 OVC042 06/03 Q1012
                        R07/29//95=
201905071230 METAR LRCL 071230Z 30016KT 9999 -DZ BKN016 OVC040 06/04 Q1012
                        R07/29//95=
201905071300 METAR LRCL 071300Z 32017KT 9999 -RA BKN017 OVC040 07/03 Q1012
                        R07/29//95=
201905071330 METAR LRCL 071330Z 32018KT 9999 -RA SCT017 OVC044 07/03 Q1013
                        R07/29//95=
201905071400 METAR LRCL 071400Z 32016KT 9999 BKN021 OVC040 07/03 Q1013
                        R07/29//95=
201905071430 METAR LRCL 071430Z 32014KT 9999 -RA BKN024 OVC040 07/03 Q1013
                        R07/CLRD//=
201905071500 METAR LRCL 071500Z 33015KT 9999 BKN025 OVC040 07/02 Q1013=
201905071530 METAR LRCL 071530Z 32014KT 300V360 9999 BKN024 BKN045 07/03
                        Q1013=
201905071600 METAR LRCL 071600Z 33012KT 9999 SCT024 BKN050 07/03 Q1014=
201905071630 METAR LRCL 071630Z 31011KT 9999 SCT026 SCT067 07/03 Q1014=
201905071700 METAR LRCL 071700Z 31012KT 9999 FEW028 SCT067 07/02 Q1014=
201905071730 METAR LRCL 071730Z 31012KT 9999 SCT065 07/02 Q1014=
201905071800 METAR LRCL 071800Z 30012KT 9999 SCT065 07/02 Q1014=
201905071830 METAR COR LRCL 071830Z 29007KT 9999 SCT067 07/02 Q1015=
201905071900 METAR COR LRCL 071900Z 30007KT 260V320 9999 BKN067 07/02
                        Q1015=
201905071930 METAR LRCL 071930Z 31011KT 9999 BKN067 07/01 Q1015=
201905072000 METAR LRCL 072000Z 30010KT 9999 BKN067 07/01 Q1015=
201905072030 METAR LRCL 072030Z 30011KT 9999 -RA BKN055 07/02 Q1015=
201905072100 METAR LRCL 072100Z 31006KT 280V340 9999 -RA BKN049 07/02
                        Q1015=
201905072130 METAR LRCL 072130Z 31012KT 9999 FEW028 OVC053 07/02 Q1015=
201905072200 METAR LRCL 072200Z 30012KT 9999 FEW030 OVC062 07/02 Q1016=
201905072230 METAR LRCL 072230Z 28009KT 9999 FEW030 OVC060 07/02 Q1016=
201905072300 METAR LRCL 072300Z 29009KT 9999 FEW040 OVC057 07/02 Q1016=
201905072330 METAR LRCL 072330Z 30009KT 9999 OVC048 07/02 Q1016=
201905080000 METAR LRCL 080000Z 29009KT 9999 OVC051 07/02 Q1016=
201905080030 METAR LRCL 080030Z 28007KT 9999 OVC053 07/02 Q1016=
201905080100 METAR LRCL 080100Z 25008KT 9999 OVC052 06/03 Q1016=
201905080130 METAR COR LRCL 080130Z 27007KT 9999 OVC046 06/03 Q1016=
201905080200 METAR COR LRCL 080200Z 27004KT 9999 OVC059 06/03 Q1016=
201905080230 METAR LRCL 080230Z 24003KT 9999 BKN061 06/03 Q1016=
201905080300 METAR COR LRCL 080300Z 00000KT 9999 BKN067 06/03 Q1016=
201905080330 METAR LRCL 080330Z 27003KT 9999 SCT067 06/03 Q1016=
201905080400 METAR LRCL 080400Z 28005KT 9999 FEW067 06/03 Q1016=
201905080430 METAR LRCL 080430Z 28005KT 9999 FEW067 07/03 Q1016=
201905080500 METAR LRCL 080500Z 27005KT 9999 FEW067 07/04 Q1016=
201905080530 METAR LRCL 080530Z 26006KT 9999 FEW067 08/04 Q1016=
201905080600 METAR LRCL 080600Z 26007KT 220V280 9999 FEW067 08/04 Q1016=
201905080630 METAR LRCL 080630Z 27006KT 9999 FEW067 09/04 Q1016=
201905080700 METAR LRCL 080700Z 26006KT 220V290 9999 FEW025 10/04 Q1016=
201905080730 METAR LRCL 080730Z 29005KT 230V340 9999 FEW031 11/03 Q1016=
201905080800 METAR LRCL 080800Z 29004KT 240V330 9999 FEW032 11/03 Q1017=
201905080830 METAR LRCL 080830Z VRB05KT 9999 FEW032 11/03 Q1017=
201905080900 METAR LRCL 080900Z 29004KT 190V340 9999 FEW032 12/04 Q1017=
201905080930 METAR LRCL 080930Z 01006KT 330V060 9999 FEW036 13/01 Q1017=
201905081000 METAR LRCL 081000Z 02004KT 320V070 9999 SCT042 13/01 Q1016=
201905081030 METAR LRCL 081030Z 03004KT 350V090 9999 SCT042 13/01 Q1016=
201905081100 METAR LRCL 081100Z 04004KT 330V100 9999 SCT042 12/00 Q1016=
201905081130 METAR LRCL 081130Z 02003KT 340V070 9999 SCT042 12/01 Q1016=
201905081200 METAR LRCL 081200Z VRB02KT 9999 FEW042 13/01 Q1016=
201905081230 METAR LRCL 081230Z 29004KT 250V360 9999 FEW042 13/01 Q1016=
201905081300 METAR LRCL 081300Z 33005KT 300V360 9999 FEW042 13/01 Q1016=
201905081330 METAR LRCL 081330Z 30005KT 270V340 9999 FEW042 13/01 Q1015=
201905081400 METAR LRCL 081400Z 33004KT 300V010 9999 FEW042 13/M01 Q1015=
201905081430 METAR LRCL 081430Z 34004KT 290V010 9999 FEW042 13/00 Q1015=
201905081500 METAR LRCL 081500Z 34006KT 9999 FEW057 13/00 Q1015=
201905081530 METAR LRCL 081530Z 36004KT 330V030 9999 FEW060 13/M00 Q1015=
201905081600 METAR LRCL 081600Z 07003KT 030V110 9999 FEW060 13/00 Q1015=
201905081630 METAR LRCL 081630Z 08005KT 9999 FEW060 12/01 Q1015=
201905081700 METAR LRCL 081700Z 06006KT CAVOK 10/02 Q1015=
201905081730 METAR LRCL 081730Z 05003KT CAVOK 09/04 Q1015=
201905081800 METAR COR LRCL 081800Z VRB01KT CAVOK 10/02 Q1015=
201905081830 METAR LRCL 081830Z VRB01KT CAVOK 08/04 Q1015=
201905081900 METAR LRCL 081900Z VRB02KT CAVOK 07/04 Q1015=
201905081930 METAR LRCL 081930Z 00000KT CAVOK 07/04 Q1015=
201905082000 METAR LRCL 082000Z 04004KT 010V070 CAVOK 06/02 Q1014=
201905082030 METAR LRCL 082030Z VRB02KT CAVOK 06/02 Q1014=
201905082100 METAR LRCL 082100Z 05004KT CAVOK 06/02 Q1014=
201905082130 METAR LRCL 082130Z 10002KT CAVOK 05/03 Q1014=
201905082200 METAR LRCL 082200Z VRB02KT CAVOK 05/03 Q1014=
201905082230 METAR LRCL 082230Z 09002KT CAVOK 04/02 Q1014=
201905082300 METAR LRCL 082300Z 00000KT CAVOK 04/02 Q1014=
201905082330 METAR LRCL 082330Z 00000KT CAVOK 03/02 Q1014=
201905090000 METAR LRCL 090000Z 00000KT CAVOK 03/02 Q1013=
201905090030 METAR LRCL 090030Z VRB02KT CAVOK 03/02 Q1013=
201905090100 METAR LRCL 090100Z VRB01KT CAVOK 02/02 Q1013=
201905090130 METAR LRCL 090130Z 00000KT CAVOK 02/01 Q1013=
201905090200 METAR LRCL 090200Z 00000KT 8000 MIFG NSC 02/01 Q1012=
201905090230 METAR LRCL 090230Z 08001KT 3000 BR NSC 02/01 Q1012=
201905090300 METAR LRCL 090300Z 09002KT 4000 BCFG BR NSC 02/01 Q1012=
201905090330 METAR LRCL 090330Z 08003KT 050V110 3500 BCFG BR FEW001 01/00
                        Q1012=
201905090400 METAR LRCL 090400Z VRB02KT 4500 BR FEW003 02/01 Q1012=
201905090430 METAR LRCL 090430Z 07006KT CAVOK 05/04 Q1012=
201905090500 METAR LRCL 090500Z 07007KT CAVOK 07/04 Q1011=
201905090530 METAR LRCL 090530Z 07008KT CAVOK 08/05 Q1011=
201905090600 METAR LRCL 090600Z 10008KT CAVOK 09/05 Q1011=
201905090630 METAR LRCL 090630Z 10009KT CAVOK 10/05 Q1011=
201905090700 METAR LRCL 090700Z 14008KT 110V170 CAVOK 12/04 Q1011=
201905090730 METAR LRCL 090730Z 13009KT CAVOK 12/03 Q1010=
201905090800 METAR LRCL 090800Z 11010KT CAVOK 12/04 Q1010=
201905090830 METAR LRCL 090830Z 12009KT CAVOK 13/04 Q1010=
201905090900 METAR LRCL 090900Z 12010KT CAVOK 13/03 Q1010=
201905090930 METAR LRCL 090930Z 15009KT CAVOK 14/02 Q1009=
201905091000 METAR LRCL 091000Z 12009KT CAVOK 14/02 Q1009=
201905091030 METAR LRCL 091030Z 11008KT CAVOK 15/03 Q1009=
201905091100 METAR LRCL 091100Z 10006KT CAVOK 16/02 Q1008=
201905091130 METAR LRCL 091130Z 09007KT CAVOK 16/02 Q1008=
201905091200 METAR LRCL 091200Z 04003KT 9999 FEW065 16/02 Q1008=
201905091230 METAR LRCL 091230Z 14004KT 9999 SCT063 16/02 Q1007=
201905091300 METAR LRCL 091300Z VRB02KT 9999 SCT058 16/02 Q1007=
201905091330 METAR LRCL 091330Z VRB01KT 9999 SCT055 16/04 Q1007=
201905091400 METAR LRCL 091400Z 17003KT 9999 SCT055 16/04 Q1006=
201905091430 METAR LRCL 091430Z 20004KT 9999 SCT055 15/04 Q1006=
201905091500 METAR LRCL 091500Z 19003KT 9999 FEW055 15/04 Q1006=
201905091530 METAR LRCL 091530Z 20003KT 9999 FEW040 15/03 Q1006=
201905091600 METAR LRCL 091600Z 23006KT 9999 FEW040 15/05 Q1006=
201905091630 METAR LRCL 091630Z 22007KT 9999 SCT053 14/06 Q1006=
201905091700 METAR LRCL 091700Z 23007KT 9999 -RA BKN053 12/08 Q1006=
201905091730 METAR LRCL 091730Z 26005KT 9999 -RA BKN047 12/08 Q1006=
201905091800 METAR LRCL 091800Z 27002KT 9999 -RA BKN047 11/08 Q1006 R07/29//95=
201905091830 METAR LRCL 091830Z 00000KT 9999 -RA BKN047 11/09 Q1006 R07/29//95=
201905091900 METAR LRCL 091900Z 04003KT 9999 -RA BKN046 11/09 Q1006 R07/29//95=
201905091930 METAR LRCL 091930Z 03002KT 9999 -RA OVC048 11/09 Q1006 R07/29//95=
201905092000 METAR LRCL 092000Z VRB02KT 9999 -RA OVC050 10/09 Q1006 R07/29//95=
201905092030 METAR LRCL 092030Z 05004KT 9999 -RA OVC040 10/09 Q1006 R07/29//95=
201905092100 METAR LRCL 092100Z 08003KT 9999 -RA OVC034 10/09 Q1006 R07/29//95=
201905092130 METAR LRCL 092130Z 13003KT 100V170 9999 -RA OVC034 10/09
                        Q1006 R07/29//95=
201905092200 METAR LRCL 092200Z 22003KT 9999 -RA OVC038 10/08 Q1006 R07/29//95=
201905092230 METAR LRCL 092230Z VRB02KT 9999 -RA FEW010 OVC037 10/08 Q1006
                        R07/29//95=
201905092300 METAR LRCL 092300Z 00000KT 9999 -RA FEW010 OVC035 09/08 Q1006
                        R07/29//95=
201905092330 METAR LRCL 092330Z VRB01KT 9999 -RA OVC040 09/08 Q1006 R07/29//95=
201905100000 METAR LRCL 100000Z 10001KT 9999 -RA OVC041 09/08 Q1006 R07/29//95=
201905100030 METAR LRCL 100030Z 10002KT 9999 -RA OVC049 09/08 Q1005 R07/29//95=
201905100100 METAR LRCL 100100Z 16002KT 9999 -RA FEW008 OVC046 09/08 Q1005
                        R07/29//95=
201905100130 METAR COR LRCL 100130Z 20002KT 9999 -RA SCT006 OVC043 09/08
                        Q1005 R07/29//95=
201905100200 METAR LRCL 100200Z 23003KT 8000 -RA BKN007 OVC042 09/08 Q1006
                        R07/29//95=
201905100230 METAR LRCL 100230Z 26003KT 9999 -RA SCT006 OVC035 09/08 Q1006
                        R07/29//95=
201905100300 METAR LRCL 100300Z 25003KT 9999 -RA SCT006 BKN029 OVC053
                        09/08 Q1006 R07/29//95=
201905100330 METAR LRCL 100330Z 25005KT 9999 -RA FEW006 SCT029 OVC050
                        09/08 Q1006 R07/29//95=
201905100400 METAR LRCL 100400Z 26004KT 9999 -RA FEW010 OVC054 09/08 Q1006
                        R07/29//95=
201905100430 METAR LRCL 100430Z 27004KT 9999 -RA FEW010 BKN021 OVC040
                        09/08 Q1006 R07/29//95=
201905100500 METAR LRCL 100500Z 27005KT 9999 -RA SCT018 SCT036 OVC055
                        09/08 Q1006 R07/29//95=
201905100530 METAR LRCL 100530Z 26005KT 9999 -RA BKN017 SCT040 OVC055
                        09/08 Q1007 R07/29//95=
201905100600 METAR LRCL 100600Z 25004KT 9999 -RA FEW017 BKN022 OVC049
                        10/08 Q1007 R07/29//95=
201905100630 METAR LRCL 100630Z 26005KT 9999 -RA BKN016 OVC036 10/08 Q1007
                        R07/29//95=
201905100700 METAR LRCL 100700Z 26005KT 9999 -RA BKN017 OVC036 10/08 Q1007
                        R07/29//95=
201905100730 METAR LRCL 100730Z 26006KT 9999 -RA BKN019 OVC034 11/09 Q1007
                        R07/29//95=
201905100800 METAR LRCL 100800Z 26005KT 9999 -RA FEW017 BKN029 OVC039
                        11/08 Q1007 R07/29//95=
201905100830 METAR LRCL 100830Z 27005KT 240V310 9999 -RA FEW011 BKN029
                        OVC039 11/09 Q1008 R07/29//95=
201905100900 METAR LRCL 100900Z 28007KT 9999 -RA FEW012 BKN032 OVC042
                        12/08 Q1008 R07/29//95=
201905100930 METAR LRCL 100930Z 29007KT 9999 -RA FEW017 BKN031 OVC054
                        12/08 Q1008 R07/29//95=
201905101000 METAR LRCL 101000Z 29007KT 9999 -RA FEW017 BKN031 OVC054
                        12/08 Q1008 R07/29//95=
201905101030 METAR LRCL 101030Z 30008KT 9999 -RA FEW017 SCT032 OVC056
                        13/09 Q1008 R07/29//95=
201905101100 METAR LRCL 101100Z 32008KT 300V360 9999 BKN019 BKN030 OVC068
                        13/08 Q1008 R07/29//95=
201905101130 METAR LRCL 101130Z 33008KT 9999 -RA BKN021 OVC056 13/08 Q1009
                        R07/29//95=
201905101200 METAR LRCL 101200Z 33008KT 300V360 9999 -RA FEW017 BKN029
                        OVC065 13/09 Q1009 R07/29//95=
201905101230 METAR LRCL 101230Z 32008KT 9999 -RA FEW017 SCT021 BKN046
                        14/09 Q1009 R07/29//95=
201905101300 METAR LRCL 101300Z 31008KT 9999 FEW016 BKN022 14/09 Q1009
                        R07/29//95=
201905101330 METAR LRCL 101330Z 30009KT 9999 SCT022 BKN046 14/08 Q1009
                        R07/15//95=
201905101400 METAR LRCL 101400Z 30010KT 9999 SCT025 BKN046 14/07 Q1009=
201905101430 METAR LRCL 101430Z 31010KT 9999 SCT025 BKN043 14/08 Q1009=
201905101500 METAR LRCL 101500Z 32006KT 280V360 9999 FEW025 BKN046 14/08
                        Q1009=
201905101530 METAR LRCL 101530Z 31008KT 9999 FEW026 BKN051 14/08 Q1009=
201905101600 METAR LRCL 101600Z 31007KT 9999 SCT043 BKN062 14/08 Q1009=
201905101630 METAR LRCL 101630Z 32006KT 9999 FEW030 14/08 Q1009=
201905101700 METAR LRCL 101700Z 30006KT 9999 FEW030 13/08 Q1010=
201905101730 METAR LRCL 101730Z 29006KT 9999 FEW035 13/09 Q1010=
201905101800 METAR LRCL 101800Z 30005KT 9999 FEW040 SCT058 12/09 Q1010=
201905101830 METAR LRCL 101830Z 29003KT 9999 BKN056 12/09 Q1010=
201905101900 METAR LRCL 101900Z 29003KT 9999 BKN058 12/09 Q1011=
201905101930 METAR LRCL 101930Z 28003KT 9999 BKN058 12/09 Q1011=
201905102000 METAR LRCL 102000Z 27004KT 9999 FEW028 BKN055 12/09 Q1011=
201905102030 METAR LRCL 102030Z 27003KT 9999 FEW028 BKN055 11/10 Q1011=
201905102100 METAR LRCL 102100Z 27003KT 9999 FEW028 BKN058 11/10 Q1011=
201905102130 METAR LRCL 102130Z 28004KT 9999 FEW025 BKN058 11/09 Q1011=
201905102200 METAR LRCL 102200Z 27005KT 9999 SCT060 11/09 Q1012=
201905102230 METAR LRCL 102230Z 27005KT 9999 SCT060 11/09 Q1012=
201905102300 METAR LRCL 102300Z 27004KT 9999 FEW055 10/08 Q1012=
201905102330 METAR LRCL 102330Z 00000KT 9999 FEW055 09/08 Q1012=
201905110000 METAR LRCL 110000Z 28003KT 260V340 CAVOK 08/07 Q1012=
201905110030 METAR LRCL 110030Z 28004KT CAVOK 08/07 Q1012=
201905110100 METAR LRCL 110100Z 27006KT CAVOK 08/07 Q1012=
201905110130 METAR LRCL 110130Z 27005KT CAVOK 08/07 Q1012=
201905110200 METAR LRCL 110200Z VRB03KT CAVOK 07/06 Q1012=
201905110230 METAR LRCL 110230Z 29003KT CAVOK 07/06 Q1012=
201905110300 METAR LRCL 110300Z 26003KT CAVOK 07/06 Q1012=
201905110330 METAR LRCL 110330Z 26004KT CAVOK 07/06 Q1012=
201905110400 METAR LRCL 110400Z 25002KT CAVOK 08/07 Q1013=
201905110430 METAR LRCL 110430Z 27007KT CAVOK 10/08 Q1013=
201905110500 METAR LRCL 110500Z 27005KT CAVOK 10/07 Q1013=
201905110530 METAR LRCL 110530Z 27003KT 9999 FEW036 12/08 Q1013=
201905110600 METAR LRCL 110600Z 25004KT 9999 FEW034 SCT064 13/08 Q1013=
201905110630 METAR COR LRCL 110630Z VRB02KT 9999 FEW043 SCT064 14/08 Q1013=
201905110700 METAR LRCL 110700Z 26003KT 190V340 9999 FEW027TCU SCT069
                        15/08 Q1013=
201905110730 METAR LRCL 110730Z VRB02KT 9999 -SHRA FEW027CB SCT052 14/09
                        Q1013=
201905110800 METAR LRCL 110800Z 12003KT 9999 SCT034CB BKN054 14/10 Q1013
                        R07/29//95=
201905110830 METAR LRCL 110830Z 11005KT 060V150 9999 SCT030 SCT050CB 16/08
                        Q1013 R07/29//95=
201905110900 METAR LRCL 110900Z 10005KT 030V180 9999 BKN042 SCT058CB 17/09
                        Q1013 R07/CLRD//=
201905110930 METAR LRCL 110930Z 06004KT 9999 BKN035 SCT058CB 17/08 Q1013=
201905111000 METAR LRCL 111000Z 14004KT 080V230 9999 FEW040CB BKN050 17/09
                        Q1013=
201905111030 METAR COR LRCL 111030Z VRB03KT 9999 SCT035CB BKN055 18/07
                        Q1013=
201905111100 METAR LRCL 111100Z 34002KT 9999 -SHRA BKN056CB BKN068 18/07
                        Q1013=
201905111130 METAR LRCL 111130Z 27005KT 220V360 9999 TSRA BKN038CB 13/09
                        Q1014 R07/29//95=
201905111200 METAR LRCL 111200Z VRB02KT 9999 TS SCT046CB SCT050 16/10
                        Q1014 R07/29//95=
201905111230 METAR LRCL 111230Z 10008KT 9999 SCT046CB BKN055 16/09 Q1014
                        RETS R07/29//95=
201905111300 METAR LRCL 111300Z 12006KT 080V140 9999 SCT046CB BKN059 15/09
                        Q1014 R07/29//95=
201905111330 METAR LRCL 111330Z AUTO 12006KT 090V160 9999 FEW027/// BKN058///
                        BKN083/// 15/09 Q1014=
201905111400 METAR LRCL 111400Z 10007KT 9999 FEW060CB BKN065 16/10 Q1014=
201905111430 METAR LRCL 111430Z 10007KT 9999 FEW065 16/10 Q1014=
201905111500 METAR LRCL 111500Z 12006KT 090V160 9999 FEW067 16/08 Q1014=
201905111530 METAR LRCL 111530Z 13004KT 9999 FEW067 16/08 Q1014=
201905111600 METAR LRCL 111600Z 14005KT 9999 FEW065 17/09 Q1015=
201905111630 METAR LRCL 111630Z 15006KT 130V190 9999 FEW068 15/08 Q1015=
201905111700 METAR LRCL 111700Z 18005KT 9999 FEW065 15/08 Q1015=
201905111730 METAR LRCL 111730Z 21002KT 9999 FEW068 14/09 Q1015=
201905111800 METAR LRCL 111800Z VRB01KT CAVOK 13/08 Q1015=
201905111830 METAR LRCL 111830Z VRB02KT CAVOK 13/08 Q1016=
201905111900 METAR LRCL 111900Z 28003KT CAVOK 10/09 Q1016=
201905111930 METAR LRCL 111930Z 27002KT CAVOK 11/08 Q1016=
201905112000 METAR LRCL 112000Z 00000KT CAVOK 10/08 Q1016=
201905112030 METAR LRCL 112030Z 28002KT CAVOK 10/08 Q1016=
201905112100 METAR COR LRCL 112100Z 25003KT CAVOK 09/08 Q1016=
201905112130 METAR LRCL 112130Z VRB01KT CAVOK 09/07 Q1017=
201905112200 METAR LRCL 112200Z 08003KT CAVOK 08/08 Q1017=
201905112230 METAR LRCL 112230Z VRB01KT CAVOK 08/07 Q1017=
201905112300 METAR LRCL 112300Z 29003KT CAVOK 08/07 Q1017=
201905112330 METAR COR LRCL 112330Z VRB02KT CAVOK 07/06 Q1017=
201905120000 METAR COR LRCL 120000Z 00000KT 7000 NSC 07/06 Q1017=
201905120030 METAR COR LRCL 120030Z 09003KT 5000 BR NSC 07/06 Q1016=
201905120100 METAR LRCL 120100Z 08002KT 4000 MIFG BR NSC 07/06 Q1016=
201905120130 METAR LRCL 120130Z 08002KT 4000 MIFG BR NSC 07/06 Q1016=
201905120200 METAR LRCL 120200Z 10002KT 9999 0600E R25/0350N BCFG FEW002
                        06/05 Q1017=
201905120230 METAR LRCL 120230Z 12001KT 0300 R25/0650N FG VV001 06/06
                        Q1017=
201905120300 METAR LRCL 120300Z 00000KT 0100 R25/0350N FG VV001 06/06
                        Q1017=
201905120330 METAR LRCL 120330Z 00000KT 0200 R25/0225N FG VV001 06/05
                        Q1017=
201905120400 METAR LRCL 120400Z VRB01KT 0100 R25/0175N FG VV001 06/05
                        Q1017=
201905120430 METAR LRCL 120430Z VRB02KT 0200 R25/0225N FG VV001 07/06
                        Q1018=
201905120500 METAR LRCL 120500Z VRB02KT 0200 R25/0225N FG VV001 07/07
                        Q1018=
201905120530 METAR LRCL 120530Z 08004KT 0200 R25/0375N FG VV001 08/07
                        Q1018=
201905120600 METAR LRCL 120600Z 08004KT 0600 R25/0900N FG BKN001 09/08
                        Q1018=
201905120630 METAR COR LRCL 120630Z 06003KT 020V110 9999 FEW001 12/11
                        Q1018=
201905120700 METAR LRCL 120700Z 07004KT 030V130 9999 FEW009 13/11 Q1018=
201905120730 METAR LRCL 120730Z 07005KT 050V110 9999 FEW009 15/11 Q1018=
201905120800 METAR LRCL 120800Z 07006KT 030V110 CAVOK 16/10 Q1017=
201905120830 METAR LRCL 120830Z 10007KT 070V130 CAVOK 17/09 Q1018=
201905120900 METAR LRCL 120900Z 11006KT 070V140 9999 FEW060 18/10 Q1018=
201905120930 METAR LRCL 120930Z 11007KT 9999 FEW060 18/09 Q1017=
201905121000 METAR LRCL 121000Z 11007KT 080V140 9999 FEW060 19/09 Q1017=
201905121030 METAR LRCL 121030Z 10006KT 060V130 9999 FEW060 20/09 Q1017=
201905121100 METAR LRCL 121100Z 13008KT 9999 FEW060 20/08 Q1017=
201905121130 METAR LRCL 121130Z 10008KT 070V130 9999 FEW050 20/09 Q1017=
201905121200 METAR LRCL 121200Z 11009KT 9999 FEW050 20/09 Q1017=
201905121230 METAR LRCL 121230Z 12006KT 060V160 9999 FEW050 21/09 Q1017=
201905121300 METAR LRCL 121300Z 10008KT 080V160 9999 FEW060 21/09 Q1017=
201905121330 METAR LRCL 121330Z 13007KT 100V170 9999 FEW060 21/07 Q1017=
201905121400 METAR LRCL 121400Z 13007KT 100V160 9999 FEW050 21/07 Q1017=
201905121430 METAR LRCL 121430Z 11006KT 070V150 9999 FEW050 22/08 Q1016=
201905121500 METAR LRCL 121500Z 11006KT 070V150 9999 FEW050 22/08 Q1016=
201905121530 METAR LRCL 121530Z 11006KT 080V150 9999 FEW050 22/07 Q1016=
201905121600 METAR LRCL 121600Z 15007KT 120V210 9999 FEW050 22/07 Q1016=
201905121630 METAR LRCL 121630Z 15004KT 130V190 9999 FEW050 20/07 Q1017=
201905121700 METAR LRCL 121700Z 00000KT 9999 FEW050 20/09 Q1017=
201905121730 METAR LRCL 121730Z 00000KT 9999 FEW060 18/11 Q1017=
201905121800 METAR LRCL 121800Z 00000KT 9999 FEW060 17/10 Q1017=
201905121830 METAR LRCL 121830Z 24003KT 9999 FEW060 15/10 Q1018=
201905121900 METAR LRCL 121900Z 00000KT CAVOK 14/10 Q1018=
201905121930 METAR LRCL 121930Z VRB02KT CAVOK 14/10 Q1018=
201905122000 METAR LRCL 122000Z 00000KT CAVOK 13/10 Q1018=
201905122030 METAR LRCL 122030Z 05003KT CAVOK 14/09 Q1018=
201905122100 METAR LRCL 122100Z 07004KT CAVOK 14/09 Q1019=
201905122130 METAR LRCL 122130Z 06005KT 040V120 9999 FEW061 14/09 Q1019=
201905122200 METAR LRCL 122200Z 07005KT 050V110 9999 SCT061 14/09 Q1019=
201905122230 METAR LRCL 122230Z 03003KT CAVOK 13/08 Q1019=
201905122300 METAR LRCL 122300Z 04005KT 020V080 CAVOK 14/08 Q1019=
201905122330 METAR LRCL 122330Z 08003KT CAVOK 13/08 Q1019=
201905130000 METAR LRCL 130000Z VRB02KT CAVOK 13/08 Q1019=
201905130030 METAR LRCL 130030Z 22001KT CAVOK 10/08 Q1019=
201905130100 METAR LRCL 130100Z VRB02KT CAVOK 10/08 Q1019=
201905130130 METAR LRCL 130130Z 16002KT CAVOK 09/07 Q1019=
201905130200 METAR LRCL 130200Z 33001KT CAVOK 09/08 Q1020=
201905130230 METAR LRCL 130230Z 30003KT CAVOK 08/07 Q1020=
201905130300 METAR LRCL 130300Z 26004KT CAVOK 08/07 Q1020=
201905130330 METAR LRCL 130330Z 28001KT CAVOK 09/07 Q1020=
201905130400 METAR LRCL 130400Z 00000KT CAVOK 09/08 Q1020=
201905130430 METAR LRCL 130430Z 00000KT CAVOK 12/09 Q1020=
201905130500 METAR LRCL 130500Z 00000KT CAVOK 13/09 Q1021=
201905130530 METAR LRCL 130530Z VRB02KT CAVOK 14/09 Q1021=
201905130600 METAR LRCL 130600Z VRB02KT CAVOK 15/08 Q1021=
201905130630 METAR LRCL 130630Z 08003KT 030V140 CAVOK 16/09 Q1021=
201905130700 METAR LRCL 130700Z VRB03KT CAVOK 17/09 Q1021=
201905130730 METAR LRCL 130730Z 10010KT CAVOK 19/08 Q1021=
201905130800 METAR LRCL 130800Z 13011KT CAVOK 19/08 Q1021=
201905130830 METAR LRCL 130830Z 13010KT 080V160 9999 FEW045 20/09 Q1021=
201905130900 METAR LRCL 130900Z 11010KT 070V130 9999 FEW045 20/09 Q1021=
201905130930 METAR LRCL 130930Z 11012KT 9999 SCT051 20/08 Q1020=
201905131000 METAR LRCL 131000Z 13010KT 9999 FEW055 21/07 Q1020=
201905131030 METAR LRCL 131030Z 12010KT 9999 FEW055 22/07 Q1020=
201905131100 METAR LRCL 131100Z 08009KT 050V110 9999 SCT060 21/09 Q1020=
201905131130 METAR LRCL 131130Z 07008KT 9999 FEW058 22/06 Q1020=
201905131200 METAR LRCL 131200Z 11009KT 080V140 9999 FEW062 22/07 Q1019=
201905131230 METAR LRCL 131230Z 12006KT 070V150 9999 FEW061 23/08 Q1019=
201905131300 METAR LRCL 131300Z 08008KT 060V120 9999 FEW064 21/08 Q1019=
201905131330 METAR LRCL 131330Z 12007KT 080V150 9999 FEW064 21/06 Q1019=
201905131400 METAR LRCL 131400Z 12010KT 9999 FEW064 22/06 Q1019=
201905131430 METAR LRCL 131430Z 12006KT 9999 FEW064 21/07 Q1018=
201905131500 METAR LRCL 131500Z 12005KT 9999 FEW060 21/09 Q1018=
201905131530 METAR LRCL 131530Z 13004KT 9999 FEW060 22/08 Q1018=
201905131600 METAR LRCL 131600Z 12004KT 080V150 9999 FEW060 22/08 Q1018=
201905131630 METAR LRCL 131630Z 11005KT 9999 FEW060 21/08 Q1018=
201905131700 METAR LRCL 131700Z 09004KT 070V130 CAVOK 20/08 Q1018=
201905131730 METAR LRCL 131730Z 11004KT CAVOK 19/09 Q1018=
201905131800 METAR LRCL 131800Z VRB01KT CAVOK 17/10 Q1018=
201905131830 METAR LRCL 131830Z VRB01KT CAVOK 17/09 Q1018=
201905131900 METAR LRCL 131900Z VRB01KT CAVOK 16/09 Q1018=
201905131930 METAR LRCL 131930Z AUTO 07003KT 9999 FEW080/// BKN230///
                        16/10 Q1019=
201905132000 METAR LRCL 132000Z 07003KT CAVOK 15/10 Q1019=
201905132030 METAR LRCL 132030Z 06004KT CAVOK 15/09 Q1019=
201905132100 METAR LRCL 132100Z 07002KT CAVOK 15/08 Q1019=
201905132130 METAR COR LRCL 132130Z 03005KT CAVOK 15/08 Q1019=
201905132200 METAR LRCL 132200Z 03003KT CAVOK 15/08 Q1019=
201905132230 METAR LRCL 132230Z 00000KT CAVOK 13/09 Q1019=
201905132300 METAR LRCL 132300Z 03002KT CAVOK 13/09 Q1019=
201905132330 METAR LRCL 132330Z 27003KT CAVOK 12/09 Q1018=
201905140000 METAR LRCL 140000Z VRB01KT CAVOK 12/09 Q1018=
201905140030 METAR LRCL 140030Z 00000KT CAVOK 12/09 Q1018=
201905140100 METAR LRCL 140100Z VRB01KT CAVOK 11/10 Q1018=
201905140130 METAR LRCL 140130Z VRB02KT 9999 SCT058 12/09 Q1017=
201905140200 METAR LRCL 140200Z 00000KT 9999 BKN056 12/09 Q1017=
201905140230 METAR LRCL 140230Z 00000KT 9999 BKN054 12/09 Q1017=
201905140300 METAR COR LRCL 140300Z 35004KT 9999 BKN064 12/09 Q1017=
201905140330 METAR COR LRCL 140330Z VRB02KT 9999 SCT053 13/09 Q1017=
201905140400 METAR LRCL 140400Z VRB01KT 9999 BKN052 13/09 Q1017 R07/29//95=
201905140430 METAR LRCL 140430Z VRB02KT 9999 BKN052 13/10 Q1017 R07/29//95=
201905140500 METAR LRCL 140500Z 02004KT 9999 -RA FEW040CB BKN043 13/10
                        Q1017 R07/29//95=
201905140530 METAR LRCL 140530Z 04005KT 350V100 9999 -SHRA SCT040CB OVC044
                        12/11 Q1017 R07/29//95=
201905140600 METAR LRCL 140600Z 06005KT 9999 -RA FEW050CB OVC056 13/11
                        Q1017 R07/29//95=
201905140630 METAR LRCL 140630Z VRB02KT 9999 -RA FEW055CB OVC060 13/11
                        Q1017 R07/29//95=
201905140700 METAR LRCL 140700Z 05004KT 9999 -RA FEW055CB OVC060 13/11
                        Q1017 R07/29//95=
201905140730 METAR LRCL 140730Z 09003KT 9999 -RA FEW050CB OVC060 13/11
                        Q1017 R07/29//95=
201905140800 METAR LRCL 140800Z VRB01KT 9999 -SHRA SCT040CB OVC060 13/11
                        Q1017 R07/29//95=
201905140830 METAR LRCL 140830Z 04003KT 9999 -RA FEW040CB OVC060 13/11
                        Q1017 R07/29//95=
201905140900 METAR LRCL 140900Z 07005KT 9999 -RA FEW020 FEW044CB BKN060
                        13/11 Q1016 R07/29//95=
201905140930 METAR LRCL 140930Z 05005KT 9999 FEW020 FEW044CB BKN065 14/12
                        Q1016 R07/29//95=
201905141000 METAR LRCL 141000Z 06004KT 9999 FEW010 FEW044CB SCT065 14/11
                        Q1016 R07/29//95=
201905141030 METAR LRCL 141030Z 07004KT 030V100 9999 FEW010 FEW040CB SCT058
                        14/12 Q1016 R07/29//95=
201905141100 METAR LRCL 141100Z 05004KT 9999 FEW010 FEW040CB SCT055 14/12
                        Q1016 R07/29//95=
201905141130 METAR LRCL 141130Z 06005KT 9999 -SHRA FEW015 SCT035CB SCT055
                        14/12 Q1015 R07/29//95=
201905141200 METAR LRCL 141200Z 06004KT 9999 FEW015 FEW035CB SCT055 15/12
                        Q1015 R07/29//95=
201905141230 METAR LRCL 141230Z 06004KT 9999 -SHRA FEW010 SCT035CB SCT050
                        15/12 Q1015 R07/29//95=
201905141300 METAR LRCL 141300Z 10006KT 9999 -SHRA FEW010 SCT030CB BKN050
                        14/12 Q1015 R07/29//95=
201905141330 METAR LRCL 141330Z 07005KT 9999 -SHRA FEW010 SCT030CB SCT055
                        14/12 Q1015 R07/29//95=
201905141400 METAR LRCL 141400Z 06005KT 9999 FEW010 FEW035CB SCT055 14/13
                        Q1015 R07/29//95=
201905141430 METAR LRCL 141430Z VRB02KT 9999 FEW010 FEW040CB SCT060 15/12
                        Q1015 R07/29//95=
201905141500 METAR LRCL 141500Z VRB01KT 9999 FEW044 15/12 Q1014 R07/29//95=
201905141530 METAR LRCL 141530Z 05007KT 9999 FEW012 14/12 Q1014 R07/29//95=
201905141600 METAR LRCL 141600Z 05005KT 9999 FEW010 BKN032 14/12 Q1014
                        R07/29//95=
201905141630 METAR LRCL 141630Z 05003KT 020V080 9999 FEW007 BKN033 14/12
                        Q1014 R07/29//95=
201905141700 METAR LRCL 141700Z 08003KT 040V110 9999 FEW008 SCT033 14/12
                        Q1014 R07/19//95=
201905141730 METAR LRCL 141730Z 06004KT 9999 FEW009 BKN065 13/12 Q1014
                        R07/19//95=
201905141800 METAR LRCL 141800Z 05003KT 9999 BKN065 13/11 Q1014 R07/19//95=
201905141830 METAR LRCL 141830Z 08003KT 050V110 9999 BKN060 12/11 Q1014
                        R07/12//95=
201905141900 METAR LRCL 141900Z VRB02KT 9999 BKN059 13/11 Q1014 R07/12//95=
201905141930 METAR LRCL 141930Z 00000KT 9999 BKN058 13/12 Q1014 R07/12//95=
201905142000 METAR LRCL 142000Z 00000KT 9999 BKN063 13/11 Q1014 R07/12//95=
201905142030 METAR LRCL 142030Z 00000KT 9999 SCT057 13/11 Q1014 R07/12//95=
201905142100 METAR LRCL 142100Z 09002KT 9999 SCT057 12/11 Q1014 R07/12//95=
201905142130 METAR LRCL 142130Z 13002KT 8000 BKN058 12/11 Q1014 R07/12//95=
201905142200 METAR LRCL 142200Z 00000KT 7000 BKN057 12/11 Q1013 R07/12//95=
201905142230 METAR LRCL 142230Z 00000KT 8000 SCT058 12/11 Q1013 R07/12//95=
201905142300 METAR LRCL 142300Z 09003KT 8000 FEW058 12/11 Q1013 R07/12//95=
201905142330 METAR LRCL 142330Z 08003KT 050V110 7000 BKN060 12/11 Q1013
                        R07/12//95=
201905150000 METAR LRCL 150000Z 00000KT 9999 BKN042 12/11 Q1012 R07/12//95=
201905150030 METAR LRCL 150030Z 10003KT 9999 FEW040 BKN063 12/11 Q1012
                        R07/12//95=
201905150100 METAR LRCL 150100Z VRB01KT 9999 -RA SCT063 12/11 Q1012 R07/12//95=
201905150130 METAR LRCL 150130Z 09001KT 9999 FEW063 11/10 Q1012 R07/12//95=
201905150200 METAR LRCL 150200Z VRB01KT 5000 MIFG BR FEW063 11/10 Q1012
                        R07/12//95=
201905150230 METAR LRCL 150230Z VRB02KT 9999 FEW063 11/10 Q1012 R07/12//95=
201905150300 METAR LRCL 150300Z 00000KT 9999 -RA FEW063 11/10 Q1011 R07/19//95=
201905150330 METAR LRCL 150330Z 08003KT 060V120 9999 FEW067 11/10 Q1011
                        R07/19//95=
201905150400 METAR LRCL 150400Z 08003KT 050V110 9999 SCT068 11/10 Q1011
                        R07/19//95=
201905150430 METAR LRCL 150430Z VRB02KT 9999 SCT068 12/11 Q1011 R07/19//95=
201905150500 METAR LRCL 150500Z 06004KT 020V090 9999 SCT064 13/10 Q1011
                        R07/19//95=
201905150530 METAR LRCL 150530Z 08004KT 030V110 9999 FEW015 SCT064 14/11
                        Q1011 R07/19//95=
201905150600 METAR LRCL 150600Z 05004KT 360V090 9999 FEW016 14/10 Q1011
                        R07/19//95=
201905150630 METAR LRCL 150630Z 08004KT 030V110 9999 SCT015 15/11 Q1011=
201905150700 METAR LRCL 150700Z VRB04KT 9999 SCT020 16/11 Q1011=
201905150730 METAR LRCL 150730Z 13005KT 080V190 9999 FEW021 16/10 Q1011=
201905150800 METAR LRCL 150800Z 15005KT 080V200 9999 FEW025 17/10 Q1011=
201905150830 METAR LRCL 150830Z 11007KT 080V140 9999 FEW025 SCT068 17/10
                        Q1011=
201905150900 METAR LRCL 150900Z 12007KT 9999 FEW030 SCT068 17/11 Q1011=
201905150930 METAR LRCL 150930Z 13006KT 080V170 9999 FEW030 18/10 Q1011=
201905151000 METAR LRCL 151000Z 14005KT 080V170 9999 FEW030 19/11 Q1011=
201905151030 METAR LRCL 151030Z 07006KT 040V100 9999 SCT033 19/11 Q1011=
201905151100 METAR LRCL 151100Z 14006KT 100V160 9999 SCT033 19/10 Q1011=
201905151130 METAR LRCL 151130Z 16006KT 130V210 9999 SCT033 FEW035CB 19/10
                        Q1010=
201905151200 METAR LRCL 151200Z 15006KT 090V200 9999 SCT033 FEW035CB 19/10
                        Q1010=
201905151230 METAR LRCL 151230Z 18006KT 150V220 9999 VCTS FEW033 SCT036CB
                        20/10 Q1010=
201905151300 METAR LRCL 151300Z 21010KT 9999 FEW033 SCT036CB 20/10 Q1010=
201905151330 METAR LRCL 151330Z 28012KT 9999 FEW033 FEW036CB 19/12 Q1010=
201905151400 METAR LRCL 151400Z 30009KT 270V340 9999 FEW036 19/11 Q1010=
201905151430 METAR LRCL 151430Z 30010KT 9999 FEW030 FEW036CB 18/12 Q1011=
201905151500 METAR LRCL 151500Z 30014KT 9999 FEW026 FEW036CB 16/11 Q1011=
201905151530 METAR LRCL 151530Z 30013KT 9999 SCT017 FEW036CB 14/10 Q1012=
201905151600 METAR LRCL 151600Z 29009KT 260V320 9999 SCT013 FEW036CB 14/10
                        Q1012=
201905151630 METAR LRCL 151630Z 29010KT 9999 SCT015 FEW040CB 13/10 Q1012=
201905151700 METAR LRCL 151700Z 35008KT 9999 BKN015 13/10 Q1012=
201905151730 METAR LRCL 151730Z 34011KT 9999 BKN015 13/09 Q1013=
201905151800 METAR LRCL 151800Z 34010KT 9999 SCT015 12/09 Q1013=
201905151830 METAR LRCL 151830Z 33004KT 9999 SCT013 SCT033 12/09 Q1014=
201905151900 METAR LRCL 151900Z 34005KT 9999 SCT013 SCT036 12/09 Q1014=
201905151930 METAR LRCL 151930Z 01005KT 9999 SCT013 SCT036 12/09 Q1015=
201905152000 METAR LRCL 152000Z 32006KT 9999 SCT013 SCT036 12/09 Q1015=
201905152030 METAR LRCL 152030Z 29005KT 9999 BKN013 12/09 Q1014=
201905152100 METAR LRCL 152100Z 30003KT 9999 BKN013 12/09 Q1014=
201905152130 METAR LRCL 152130Z 31004KT 9999 BKN015 12/09 Q1015=
201905152200 METAR LRCL 152200Z 30005KT 9999 -RA OVC015 12/10 Q1015 R07/19//95=
201905152230 METAR LRCL 152230Z 31001KT 9999 -RA OVC015 11/10 Q1015 R07/19//95=
201905152300 METAR LRCL 152300Z 00000KT 9999 OVC017 11/09 Q1015 R07/19//95=
201905152330 METAR LRCL 152330Z 33003KT 9999 OVC017 11/09 Q1015 R07/19//95=
201905160000 METAR LRCL 160000Z 30003KT 9999 OVC015 11/09 Q1015 R07/19//95=
201905160030 METAR LRCL 160030Z 31003KT 9999 OVC015 11/09 Q1014 R07/19//95=
201905160100 METAR LRCL 160100Z 33005KT 9999 OVC015 11/08 Q1014 R07/19//95=
201905160130 METAR LRCL 160130Z 29004KT 9999 OVC013 11/09 Q1014 R07/19//95=
201905160200 METAR LRCL 160200Z VRB03KT 9999 OVC013 11/09 Q1014 R07/19//95=
201905160230 METAR LRCL 160230Z 13003KT 9999 OVC012 11/09 Q1014 R07/19//95=
201905160300 METAR LRCL 160300Z 25002KT 9999 OVC012 11/09 Q1014 R07/CLRD//=
201905160330 METAR LRCL 160330Z 27004KT 9999 OVC012 11/09 Q1014=
201905160400 METAR LRCL 160400Z 26004KT 9999 OVC011 11/09 Q1014=
201905160430 METAR LRCL 160430Z 27004KT 9999 OVC010 11/09 Q1014=
201905160500 METAR LRCL 160500Z 27006KT 9999 OVC010 11/09 Q1014=
201905160530 METAR LRCL 160530Z 29006KT 9999 OVC010 11/09 Q1014=
201905160600 METAR LRCL 160600Z 30005KT 9999 OVC010 12/09 Q1014=
201905160630 METAR LRCL 160630Z 30005KT 280V340 9999 OVC010 12/09 Q1014=
201905160700 METAR LRCL 160700Z 34005KT 9999 OVC010 12/09 Q1014=
201905160730 METAR LRCL 160730Z VRB02KT 9999 OVC010 12/09 Q1014=
201905160800 METAR LRCL 160800Z 26005KT 230V300 9999 OVC011 12/09 Q1014=
201905160830 METAR LRCL 160830Z 27009KT 9999 OVC012 12/09 Q1013=
201905160900 METAR LRCL 160900Z 28006KT 250V310 9999 OVC013 13/09 Q1013=
201905160930 METAR LRCL 160930Z 31003KT 280V350 9999 OVC015 13/09 Q1013=
201905161000 METAR LRCL 161000Z 33003KT 9999 BKN014 OVC022 13/09 Q1013=
201905161030 METAR COR LRCL 161030Z 28004KT 230V320 9999 OVC014 13/10
                        Q1013=
201905161100 METAR LRCL 161100Z 31004KT 9999 -RA OVC016 13/10 Q1013=
201905161130 METAR LRCL 161130Z 28004KT 250V320 9999 -RA OVC016 13/11
                        Q1013 R07/19//95=
201905161200 METAR LRCL 161200Z 26005KT 220V290 9999 -RA OVC013 13/10
                        Q1013 R07/19//95=
201905161230 METAR LRCL 161230Z 26005KT 9999 OVC013 13/10 Q1012 R07/19//95=
201905161300 METAR LRCL 161300Z 27005KT 220V290 9999 OVC014 13/10 Q1012
                        R07/19//95=
201905161330 METAR LRCL 161330Z 30006KT 9999 OVC015 13/10 Q1012 R07/19//95=
201905161400 METAR LRCL 161400Z 30005KT 9999 OVC018 13/10 Q1012 R07/19//95=
201905161430 METAR LRCL 161430Z 28006KT 9999 OVC018 14/10 Q1012 R07/CLRD//=
201905161500 METAR LRCL 161500Z 28007KT 250V310 9999 BKN019 14/10 Q1012=
201905161530 METAR LRCL 161530Z 27007KT 240V300 9999 BKN020 14/10 Q1012=
201905161600 METAR LRCL 161600Z 27005KT 9999 SCT019 13/10 Q1012=
201905161630 METAR LRCL 161630Z 27006KT 9999 SCT019 13/10 Q1012=
201905161700 METAR LRCL 161700Z 31004KT 280V340 9999 FEW020 14/10 Q1012=
201905161730 METAR LRCL 161730Z 29004KT 9999 FEW020 13/10 Q1012=
201905161800 METAR LRCL 161800Z 29003KT 9999 FEW025 12/10 Q1012=
201905161830 METAR LRCL 161830Z 25003KT 9999 FEW028 12/09 Q1013=
201905161900 METAR LRCL 161900Z 31003KT 280V350 9999 FEW047 11/09 Q1013=
201905161930 METAR LRCL 161930Z VRB02KT 9999 SCT046 10/09 Q1013=
201905162000 METAR LRCL 162000Z 00000KT CAVOK 10/09 Q1012=
201905162030 METAR LRCL 162030Z VRB02KT CAVOK 10/09 Q1012=
201905162100 METAR LRCL 162100Z VRB01KT 9999 SCT044 10/09 Q1013=
201905162130 METAR LRCL 162130Z 28002KT 9999 SCT043 10/09 Q1013=
201905162200 METAR LRCL 162200Z 00000KT 9999 SCT023 FEW043CB 10/09 Q1013=
201905162230 METAR LRCL 162230Z 29002KT 9999 BKN022 FEW043CB 10/09 Q1012=
201905162300 METAR LRCL 162300Z 23003KT 190V270 9999 SCT022 10/09 Q1013=
201905162330 METAR LRCL 162330Z 29003KT 240V320 9999 -RA SCT022 BKN040
                        11/10 Q1012=
201905170000 METAR LRCL 170000Z VRB02KT 9999 SCT027 SCT042 11/09 Q1012=
201905170030 METAR LRCL 170030Z VRB01KT 8000 FEW025 BKN036 10/10 Q1012=
201905170100 METAR LRCL 170100Z 00000KT 8000 BKN035 OVC042 11/10 Q1012=
201905170130 METAR LRCL 170130Z 28002KT 8000 OVC045 11/10 Q1012=
201905170200 METAR LRCL 170200Z 26003KT 8000 SCT034 BKN048 11/10 Q1012=
201905170230 METAR LRCL 170230Z VRB02KT 9999 SCT034 BKN042 11/10 Q1012=
201905170300 METAR LRCL 170300Z 00000KT 9999 SCT023 BKN031 11/10 Q1012
                        R07/19//95=
201905170330 METAR LRCL 170330Z 07002KT 9999 SCT025 BKN041 11/10 Q1012
                        R07/19//95=
201905170400 METAR LRCL 170400Z 08002KT 9999 FEW024 BKN042 11/10 Q1013
                        R07/19//95=
201905170430 METAR LRCL 170430Z 09003KT 050V110 9999 FEW042 12/10 Q1013
                        R07/19//95=
201905170500 METAR LRCL 170500Z VRB01KT 9999 FEW042 12/10 Q1013 R07/19//95=
201905170530 METAR LRCL 170530Z VRB01KT 9999 FEW009 13/10 Q1013 R07/19//95=
201905170600 METAR LRCL 170600Z VRB02KT 9999 FEW011 14/11 Q1013 R07/CLRD//=
201905170630 METAR LRCL 170630Z 09004KT 050V140 9999 FEW020 14/10 Q1014=
201905170700 METAR LRCL 170700Z 10003KT 040V170 9999 FEW021 16/11 Q1014=
201905170730 METAR LRCL 170730Z 06003KT 010V110 9999 FEW021 16/09 Q1014=
201905170800 METAR LRCL 170800Z VRB03KT 9999 FEW025 17/10 Q1013=
201905170830 METAR LRCL 170830Z VRB04KT 9999 FEW023 17/11 Q1013=
201905170900 METAR LRCL 170900Z 05004KT 350V090 9999 FEW023 18/11 Q1013=
201905170930 METAR LRCL 170930Z 09007KT 9999 SCT024 19/11 Q1013=
201905171000 METAR LRCL 171000Z 10007KT 070V130 9999 FEW028 SCT041 18/10
                        Q1013=
201905171030 METAR LRCL 171030Z 11004KT 050V180 9999 SCT034 19/10 Q1012=
201905171100 METAR LRCL 171100Z VRB05KT 9999 FEW035 20/10 Q1012=
201905171130 METAR LRCL 171130Z 09005KT 040V150 9999 FEW037 20/11 Q1012=
201905171200 METAR LRCL 171200Z 10006KT 080V150 9999 SCT045 21/11 Q1012=
201905171230 METAR LRCL 171230Z 11005KT 060V170 9999 FEW045 21/11 Q1012=
201905171300 METAR LRCL 171300Z 13006KT 100V170 9999 FEW042 21/10 Q1012=
201905171330 METAR LRCL 171330Z 11006KT 080V140 9999 FEW045 20/11 Q1011=
201905171400 METAR LRCL 171400Z 10006KT 070V130 9999 FEW045 21/11 Q1011=
201905171430 METAR LRCL 171430Z 12007KT 9999 FEW045 20/11 Q1012=
201905171500 METAR LRCL 171500Z 11006KT 9999 FEW040CB 20/11 Q1012=
201905171530 METAR LRCL 171530Z 11004KT 070V140 9999 FEW040CB 20/10 Q1012=
201905171600 METAR LRCL 171600Z VRB02KT 9999 FEW040CB 20/12 Q1011=
201905171630 METAR LRCL 171630Z 16003KT 090V240 9999 FEW040CB 20/10 Q1011=
201905171700 METAR LRCL 171700Z 23003KT 200V270 9999 FEW040CB 19/12 Q1011=
201905171730 METAR LRCL 171730Z 23008KT 9999 FEW045CB 17/12 Q1012=
201905171800 METAR LRCL 171800Z 26009KT 9999 FEW045CB 16/11 Q1012=
201905171830 METAR LRCL 171830Z 12013KT 090V150 9999 TSRA SCT022 BKN044CB
                        OVC065 15/13 Q1013 R07/29//95=
201905171900 METAR LRCL 171900Z 15009KT 9999 -SHRA VCTS SCT014 SCT040CB
                        OVC065 14/12 Q1013 RESHRA R07/29//95=
201905171930 METAR LRCL 171930Z 28005KT 180V330 9999 -RA FEW040CB OVC065
                        14/12 Q1014 RETS R07/29//95=
201905172000 METAR LRCL 172000Z 29004KT 230V310 9999 FEW065 14/12 Q1013
                        R07/29//95=
201905172030 METAR LRCL 172030Z 27005KT 9999 FEW065 14/13 Q1013 R07/29//95=
201905172100 METAR LRCL 172100Z 30003KT 260V020 CAVOK 14/13 Q1013 R07/29//95=
201905172130 METAR LRCL 172130Z 11002KT CAVOK 14/13 Q1013 R07/29//95=
201905172200 METAR LRCL 172200Z 04004KT 350V070 CAVOK 13/12 Q1013 R07/19//95=
201905172230 METAR LRCL 172230Z 07004KT CAVOK 13/12 Q1013 R07/19//95=
201905172300 METAR LRCL 172300Z AUTO 08004KT 9999 BKN210/// 13/12 Q1013=
201905172330 METAR LRCL 172330Z VRB01KT CAVOK 12/11 Q1013 R07/19//95=
201905180000 METAR LRCL 180000Z VRB01KT CAVOK 12/12 Q1013 R07/19//95=
201905180030 METAR LRCL 180030Z 29002KT 8000 MIFG NSC 11/11 Q1012 R07/19//95=
201905180100 METAR COR LRCL 180100Z 06004KT 020V090 8000 MIFG NSC 11/10
                        Q1012 R07/19//95=
201905180130 METAR LRCL 180130Z VRB02KT 8000 NSC 11/10 Q1012 R07/19//95=
201905180200 METAR LRCL 180200Z VRB02KT 8000 MIFG NSC 10/09 Q1012 R07/19//95=
201905180230 METAR LRCL 180230Z 29003KT 6000 FEW002 10/09 Q1012 R07/19//95=
201905180300 METAR LRCL 180300Z 26003KT 4500 BR SCT003 10/10 Q1012 R07/CLRD//=
201905180330 METAR LRCL 180330Z 26003KT 6000 SCT002 11/10 Q1012=
201905180400 METAR LRCL 180400Z 00000KT 6000 SCT002 12/11 Q1012=
201905180430 METAR LRCL 180430Z VRB02KT 4000 BR BKN002 12/11 Q1012=
201905180500 METAR LRCL 180500Z 26004KT 4000 BR FEW001 BKN002 12/11 Q1012=
201905180530 METAR LRCL 180530Z VRB01KT 5000 BR SCT003 13/12 Q1012=
201905180600 METAR LRCL 180600Z VRB01KT 9999 SCT004 14/12 Q1012=
201905180630 METAR LRCL 180630Z VRB01KT 9999 FEW061 15/12 Q1012=
201905180700 METAR LRCL 180700Z 09003KT 040V150 9999 FEW008 16/12 Q1012=
201905180730 METAR LRCL 180730Z VRB02KT 9999 FEW010 17/13 Q1012=
201905180800 METAR LRCL 180800Z 04004KT 9999 FEW010 17/12 Q1012=
201905180830 METAR LRCL 180830Z 03003KT 9999 FEW012 18/12 Q1012=
201905180900 METAR LRCL 180900Z 09006KT 9999 FEW020 20/14 Q1011=
201905180930 METAR LRCL 180930Z 13007KT 080V200 9999 FEW020 20/12 Q1011=
201905181000 METAR LRCL 181000Z 10006KT 9999 FEW020 21/12 Q1011=
201905181030 METAR LRCL 181030Z VRB07KT 9999 FEW025 21/12 Q1010=
201905181100 METAR LRCL 181100Z 14009KT 9999 FEW030 22/13 Q1011=
201905181130 METAR LRCL 181130Z 11009KT 9999 FEW030 22/12 Q1010=
201905181200 METAR LRCL 181200Z 12008KT 9999 FEW030 22/12 Q1010=
201905181230 METAR LRCL 181230Z 10008KT 9999 FEW030 23/13 Q1009=
201905181300 METAR LRCL 181300Z 11010KT 9999 FEW030 22/11 Q1009=
201905181330 METAR LRCL 181330Z 11009KT 9999 FEW033 23/12 Q1008=
201905181400 METAR LRCL 181400Z 10010KT 9999 FEW033 22/12 Q1008=
201905181430 METAR LRCL 181430Z 10007KT 9999 FEW033 22/12 Q1008=
201905181500 METAR LRCL 181500Z 07005KT 9999 FEW040 22/11 Q1008=
201905181530 METAR LRCL 181530Z 11006KT 9999 FEW040 22/11 Q1008=
201905181600 METAR LRCL 181600Z 12006KT CAVOK 22/11 Q1008=
201905181630 METAR LRCL 181630Z 10005KT 060V130 9999 FEW040TCU 21/12 Q1008=
201905181700 METAR LRCL 181700Z 06003KT 9999 VCTS FEW040CB 20/12 Q1008=
201905181730 METAR LRCL 181730Z 02004KT 9999 FEW040CB SCT048 19/13 Q1008=
201905181800 METAR LRCL 181800Z 28006KT 230V320 9999 FEW040CB BKN048 19/11
                        Q1009=
201905181830 METAR LRCL 181830Z 26007KT 9999 FEW040CB SCT048 17/10 Q1009=
201905181900 METAR LRCL 181900Z 27006KT 9999 FEW050 16/11 Q1009=
201905181930 METAR LRCL 181930Z 29004KT 9999 FEW050 16/11 Q1009=
201905182000 METAR LRCL 182000Z 27004KT CAVOK 15/12 Q1009=
201905182030 METAR LRCL 182030Z 30004KT CAVOK 14/12 Q1009=
201905182100 METAR LRCL 182100Z 00000KT CAVOK 14/12 Q1009=
201905182130 METAR LRCL 182130Z 00000KT CAVOK 14/12 Q1009=
201905182200 METAR LRCL 182200Z 05003KT CAVOK 13/11 Q1009=
201905182230 METAR LRCL 182230Z VRB02KT CAVOK 13/11 Q1009=
201905182300 METAR LRCL 182300Z 27003KT CAVOK 12/11 Q1009=
201905182330 METAR LRCL 182330Z 27002KT CAVOK 12/11 Q1009=
201905190000 METAR LRCL 190000Z 23003KT CAVOK 12/11 Q1009=
201905190030 METAR COR LRCL 190030Z 25003KT CAVOK 11/10 Q1009=
201905190100 METAR LRCL 190100Z 25003KT CAVOK 12/11 Q1009=
201905190130 METAR LRCL 190130Z 23002KT CAVOK 12/10 Q1009=
201905190200 METAR LRCL 190200Z VRB02KT 9999 MIFG NSC 11/10 Q1009=
201905190230 METAR LRCL 190230Z 08005KT CAVOK 10/09 Q1009=
201905190300 METAR LRCL 190300Z 07004KT CAVOK 10/09 Q1009=
201905190330 METAR LRCL 190330Z 00000KT CAVOK 10/10 Q1009=
201905190400 METAR LRCL 190400Z VRB02KT 7000 FEW045 11/10 Q1009=
201905190430 METAR LRCL 190430Z 06003KT 040V100 7000 FEW045 12/11 Q1009=
201905190500 METAR LRCL 190500Z 08004KT 040V110 9999 FEW045 13/11 Q1009=
201905190530 METAR LRCL 190530Z 07005KT 030V100 CAVOK 15/12 Q1009=
201905190600 METAR LRCL 190600Z 06004KT 030V100 CAVOK 16/13 Q1009=
201905190630 METAR LRCL 190630Z 09006KT CAVOK 18/13 Q1009=
201905190700 METAR LRCL 190700Z 11008KT 070V140 9999 FEW026 19/13 Q1009=
201905190730 METAR LRCL 190730Z 09009KT 9999 FEW026 19/14 Q1009=
201905190800 METAR LRCL 190800Z 10008KT 060V120 9999 FEW026 20/14 Q1009=
201905190830 METAR LRCL 190830Z 11008KT 080V140 9999 FEW026 21/15 Q1009=
201905190900 METAR LRCL 190900Z 13009KT 100V170 9999 FEW028 22/15 Q1009=
201905190930 METAR LRCL 190930Z 12009KT 9999 SCT032 22/14 Q1009=
201905191000 METAR LRCL 191000Z 12010KT 090V160 9999 SCT036 23/13 Q1008=
201905191030 METAR LRCL 191030Z 14009KT 100V160 9999 FEW036 FEW040TCU
                        24/14 Q1008=
201905191100 METAR LRCL 191100Z 13010KT 100V160 9999 FEW036 FEW040TCU
                        24/11 Q1008=
201905191130 METAR LRCL 191130Z 10010KT 9999 FEW036 FEW040CB 25/11 Q1008=
201905191200 METAR LRCL 191200Z 13009KT 100V160 9999 FEW036 FEW040CB 25/10
                        Q1008=
201905191230 METAR LRCL 191230Z 11008KT 9999 FEW040 25/11 Q1007=
201905191300 METAR LRCL 191300Z 14008KT 090V170 9999 FEW040 26/09 Q1007=
201905191330 METAR LRCL 191330Z 14010KT 9999 FEW040 26/10 Q1007=
201905191400 METAR LRCL 191400Z 15012KT 9999 FEW040 26/09 Q1007=
201905191430 METAR LRCL 191430Z 15011KT 9999 FEW040 25/09 Q1007=
201905191500 METAR LRCL 191500Z 15010KT 9999 FEW040 26/09 Q1007=
201905191530 METAR LRCL 191530Z 14008KT 100V160 9999 FEW040 25/09 Q1006=
201905191600 METAR LRCL 191600Z 13008KT 9999 FEW040 25/10 Q1006=
201905191630 METAR LRCL 191630Z 12007KT 9999 FEW040 25/12 Q1006=
201905191700 METAR LRCL 191700Z 11006KT 9999 FEW040 24/12 Q1006=
201905191730 METAR LRCL 191730Z 12004KT CAVOK 23/12 Q1006=
201905191800 METAR LRCL 191800Z 11003KT CAVOK 21/12 Q1006=
201905191830 METAR LRCL 191830Z 11004KT CAVOK 20/12 Q1005=
201905191900 METAR LRCL 191900Z VRB02KT CAVOK 20/12 Q1006=
201905191930 METAR LRCL 191930Z 06004KT CAVOK 19/12 Q1005=
201905192000 METAR LRCL 192000Z 07004KT CAVOK 19/12 Q1006=
201905192030 METAR LRCL 192030Z 08004KT CAVOK 18/11 Q1006=
201905192100 METAR LRCL 192100Z 05004KT CAVOK 18/11 Q1006=
201905192130 METAR LRCL 192130Z 04003KT CAVOK 17/11 Q1006=
201905192200 METAR LRCL 192200Z 03006KT 360V060 CAVOK 18/11 Q1006=
201905192230 METAR LRCL 192230Z 08007KT CAVOK 18/11 Q1006=
201905192300 METAR LRCL 192300Z 08006KT CAVOK 17/11 Q1006=
201905192330 METAR LRCL 192330Z 06003KT CAVOK 17/12 Q1006=
201905200000 METAR LRCL 200000Z 07005KT CAVOK 18/12 Q1005=
201905200030 METAR LRCL 200030Z 05003KT CAVOK 18/12 Q1005=
201905200100 METAR LRCL 200100Z 32004KT CAVOK 18/12 Q1006=
201905200130 METAR LRCL 200130Z 31011KT CAVOK 18/11 Q1007=
201905200200 METAR LRCL 200200Z 29009KT CAVOK 17/10 Q1007=
201905200230 METAR LRCL 200230Z 31005KT CAVOK 17/09 Q1007=
201905200300 METAR LRCL 200300Z 26004KT CAVOK 17/09 Q1007=
201905200330 METAR LRCL 200330Z 07003KT CAVOK 16/10 Q1007=
201905200400 METAR LRCL 200400Z 10003KT CAVOK 16/12 Q1007=
201905200430 METAR LRCL 200430Z 09006KT CAVOK 16/12 Q1007=
201905200500 METAR LRCL 200500Z 08005KT CAVOK 17/11 Q1007=
201905200530 METAR LRCL 200530Z 06003KT CAVOK 17/12 Q1007=
201905200600 METAR LRCL 200600Z 08004KT CAVOK 17/11 Q1007=
201905200630 METAR LRCL 200630Z VRB01KT CAVOK 18/11 Q1007=
201905200700 METAR LRCL 200700Z 00000KT CAVOK 18/11 Q1007=
201905200730 METAR LRCL 200730Z VRB02KT 9999 FEW032 19/11 Q1007=
201905200800 METAR LRCL 200800Z VRB02KT 9999 FEW059 20/12 Q1007=
201905200830 METAR LRCL 200830Z 30003KT 250V010 9999 FEW058 20/11 Q1008=
201905200900 METAR LRCL 200900Z 29003KT 230V350 9999 FEW058 21/11 Q1008=
201905200930 METAR LRCL 200930Z 31005KT 280V340 9999 FEW058 21/11 Q1007=
201905201000 METAR LRCL 201000Z 29006KT 260V340 9999 TS VCSH SCT040CB
                        BKN057 21/11 Q1008=
201905201030 METAR LRCL 201030Z 25010KT 9999 -TSRA SCT055CB BKN060 19/12
                        Q1008=
201905201100 METAR LRCL 201100Z 26013KT 9999 -TSRA SCT045CB BKN053 17/14
                        Q1009 R07/29//95=
201905201130 METAR LRCL 201130Z 25009KT 220V280 9999 -TSRA BKN050CB 15/12
                        Q1009 R07/29//95=
201905201200 METAR LRCL 201200Z 24004KT 160V290 9999 -SHRA VCTS BKN050CB
                        OVC065 15/13 Q1009 R07/29//95=
201905201230 METAR LRCL 201230Z 27006KT 9999 -TSRA BKN055CB OVC061 14/13
                        Q1009 R07/29//95=
201905201300 METAR LRCL 201300Z 26008KT 9999 -TSRA BKN055CB OVC066 14/13
                        Q1008 R07/29//95=
201905201330 METAR LRCL 201330Z 26008KT 230V290 9999 SCT050CB 15/12 Q1008
                        RETS R07/29//95=
201905201400 METAR LRCL 201400Z 27005KT 240V300 9999 SCT055CB 15/12 Q1008
                        R07/29//95=
201905201430 METAR LRCL 201430Z 08007KT 9999 -SHRA SCT055CB BKN064 15/13
                        Q1008 R07/29//95=
201905201500 METAR LRCL 201500Z 07010KT 010V110 9999 -SHRA FEW006 SCT055CB
                        BKN065 14/13 Q1008 R07/29//95=
201905201530 METAR LRCL 201530Z 06007KT 9999 FEW008 SCT055CB 14/13 Q1008
                        R07/29//95=
201905201600 METAR LRCL 201600Z 10005KT 9999 -RA FEW008 SCT050CB 14/13
                        Q1008 R07/29//95=
201905201630 METAR LRCL 201630Z 09005KT 070V130 9999 -RA FEW008 SCT050CB
                        14/12 Q1008 R07/29//95=
201905201700 METAR LRCL 201700Z 07005KT 040V100 9999 -RA FEW008 SCT040
                        SCT050CB 14/12 Q1008 R07/29//95=
201905201730 METAR LRCL 201730Z 06005KT 9999 -RA SCT017 SCT040 FEW050CB
                        14/12 Q1008 R07/29//95=
201905201800 METAR LRCL 201800Z 08004KT 9999 -RA FEW014 SCT025 FEW050CB
                        14/12 Q1008 R07/29//95=
201905201830 METAR LRCL 201830Z 10004KT 070V130 9999 -RA SCT015 BKN035
                        FEW050CB 14/12 Q1008 R07/29//95=
201905201900 METAR LRCL 201900Z 11005KT 9999 BKN018 BKN040 13/12 Q1008
                        R07/29//95=
201905201930 METAR LRCL 201930Z 10003KT 040V210 9999 -RA BKN018 OVC032
                        14/12 Q1008 R07/29//95=
201905202000 METAR LRCL 202000Z 15005KT 9999 -RA BKN018 OVC030 14/12 Q1007
                        R07/29//95=
201905202030 METAR LRCL 202030Z 13004KT 110V170 9999 -RA BKN019 OVC030
                        14/12 Q1008 R07/29//95=
201905202100 METAR LRCL 202100Z 06003KT 330V140 9999 -RA BKN021 OVC032
                        14/12 Q1008 R07/29//95=
201905202130 METAR LRCL 202130Z 09003KT 060V120 9999 -RA BKN022 OVC032
                        14/12 Q1008 R07/29//95=
201905202200 METAR LRCL 202200Z 13003KT 080V160 9999 -RA BKN024 OVC039
                        14/12 Q1008 R07/29//95=
201905202230 METAR LRCL 202230Z 25004KT 220V290 9999 -RA BKN023 OVC042
                        13/12 Q1007 R07/29//95=
201905202300 METAR LRCL 202300Z 00000KT 7000 -RA SCT025 BKN041 OVC062
                        13/12 Q1007 R07/29//95=
201905202330 METAR LRCL 202330Z 25004KT 9999 -RA SCT040 OVC068 13/12 Q1007
                        R07/29//95=
201905210000 METAR LRCL 210000Z 20005KT 9999 -RA SCT046 OVC057 13/12 Q1007
                        R07/29//95=
201905210030 METAR LRCL 210030Z 21003KT 9999 -RA SCT046 OVC063 13/12 Q1007
                        R07/29//95=
201905210100 METAR LRCL 210100Z 05002KT 9999 -RA SCT045 OVC050 13/12 Q1007
                        R07/29//95=
201905210130 METAR LRCL 210130Z 33002KT 9999 -RA SCT045 FEW046CB OVC057
                        13/12 Q1007 R07/29//95=
201905210200 METAR LRCL 210200Z 27004KT 9999 -RA SCT045 FEW046CB OVC057
                        12/11 Q1007 R07/29//95=
201905210230 METAR LRCL 210230Z 27003KT 9999 -RA SCT045 FEW046CB OVC060
                        12/11 Q1008 R07/29//95=
201905210300 METAR LRCL 210300Z 27002KT 9999 -RA SCT041 FEW046CB OVC059
                        12/11 Q1008 R07/29//95=
201905210330 METAR LRCL 210330Z 28001KT 8000 -RA SCT030 FEW040CB OVC042
                        12/11 Q1008 R07/29//95=
201905210400 METAR LRCL 210400Z 00000KT 9999 -RA SCT030 FEW040CB OVC065
                        12/11 Q1008 R07/29//95=
201905210430 METAR LRCL 210430Z 00000KT 9999 -RA FEW008 SCT040 OVC068
                        12/11 Q1008 R07/29//95=
201905210500 METAR LRCL 210500Z VRB01KT 9999 -RA FEW008 SCT040 12/11 Q1009
                        R07/29//95=
201905210530 METAR LRCL 210530Z VRB01KT 9999 -RA FEW008 BKN047 13/11 Q1009
                        R07/29//95=
201905210600 METAR LRCL 210600Z 00000KT 9999 -RA FEW008 BKN047 13/11 Q1009
                        R07/29//95=
201905210630 METAR LRCL 210630Z VRB01KT 9999 -RA FEW007 BKN047 13/11 Q1009
                        R07/29//95=
201905210700 METAR LRCL 210700Z VRB01KT 9999 -RA FEW007 BKN044 13/10 Q1010
                        R07/29//95=
201905210730 METAR LRCL 210730Z 00000KT 9999 -RA FEW010 SCT044 OVC066
                        13/11 Q1010 R07/29//95=
201905210800 METAR LRCL 210800Z VRB02KT 9999 -RA FEW012 OVC068 13/11 Q1010
                        R07/29//95=
201905210830 METAR LRCL 210830Z VRB02KT 9999 -RA FEW013 SCT032 OVC068
                        13/10 Q1011 R07/29//95=
201905210900 METAR LRCL 210900Z VRB01KT 9999 -RA FEW013 OVC061 13/10 Q1011
                        R07/29//95=
201905210930 METAR LRCL 210930Z 11003KT 070V160 9999 -RA FEW012 OVC061
                        13/10 Q1011 R07/29//95=
201905211000 METAR LRCL 211000Z 10004KT 9999 -RA FEW012 OVC061 13/11 Q1011
                        R07/29//95=
201905211030 METAR LRCL 211030Z 10005KT 060V130 9999 FEW013 SCT049 14/10
                        Q1011 R07/29//95=
201905211100 METAR LRCL 211100Z 10008KT 9999 FEW014 15/11 Q1011 R07/19//95=
201905211130 METAR LRCL 211130Z 09008KT 060V130 9999 SCT017 17/12 Q1011
                        R07/19//95=
201905211200 METAR LRCL 211200Z 12010KT 090V150 9999 FEW020 SCT032 17/12
                        Q1010 R07/CLRD//=
201905211230 METAR LRCL 211230Z 12010KT 9999 FEW033CB SCT038 17/12 Q1010=
201905211300 METAR LRCL 211300Z 14010KT 9999 -SHRA FEW019 FEW032CB 15/12
                        Q1010=
201905211330 METAR LRCL 211330Z 12010KT 9999 FEW030 FEW032CB 16/12 Q1010=
201905211400 METAR LRCL 211400Z 12011KT 9999 FEW030 FEW032CB 17/11 Q1010=
201905211430 METAR LRCL 211430Z 13008KT 100V160 9999 -SHRA FEW030CB SCT061
                        16/11 Q1010 R07/29//95=
201905211500 METAR LRCL 211500Z 09006KT 050V110 9999 FEW030CB BKN045 17/11
                        Q1010 R07/29//95=
201905211530 METAR LRCL 211530Z 08005KT 360V120 9999 FEW029CB BKN043 17/12
                        Q1010 R07/29//95=
201905211600 METAR LRCL 211600Z 08005KT 360V140 9999 VCTS SCT024CB SCT032
                        17/12 Q1010 R07/29//95=
201905211630 METAR LRCL 211630Z 13006KT 090V160 9999 TS SCT030CB SCT060
                        15/11 Q1010 R07/29//95=
201905211700 METAR LRCL 211700Z 36005KT 310V020 9999 -TSRA SCT029CB SCT065
                        13/12 Q1011 R07/29//95=
201905211730 METAR LRCL 211730Z 16003KT 9999 FEW040CB 13/11 Q1011 RETS
                        R07/29//95=
201905211800 METAR LRCL 211800Z 08002KT 9999 FEW065 13/11 Q1010 R07/29//95=
201905211830 METAR LRCL 211830Z 11003KT 070V150 CAVOK 13/11 Q1011 R07/29//95=
201905211900 METAR LRCL 211900Z 17004KT CAVOK 13/10 Q1011 R07/29//95=
201905211930 METAR LRCL 211930Z 00000KT CAVOK 12/10 Q1011 R07/29//95=
201905212000 METAR LRCL 212000Z 00000KT CAVOK 11/10 Q1011 R07/29//95=
201905212030 METAR LRCL 212030Z VRB02KT CAVOK 11/10 Q1011 R07/29//95=
201905212100 METAR LRCL 212100Z 07003KT 9999 MIFG NSC 11/10 Q1011 R07/29//95=
201905212130 METAR LRCL 212130Z 36004KT 340V040 6000 FEW029 13/12 Q1011
                        R07/19//95=
201905212200 METAR LRCL 212200Z VRB02KT 9999 MIFG NSC 10/09 Q1011 R07/19//95=
201905212230 METAR LRCL 212230Z 26003KT 240V320 CAVOK 09/08 Q1011 R07/19//95=
201905212300 METAR LRCL 212300Z 27004KT 240V300 CAVOK 09/08 Q1011 R07/19//95=
201905212330 METAR LRCL 212330Z VRB01KT CAVOK 09/09 Q1011 R07/CLRD//=
201905220000 METAR LRCL 220000Z VRB01KT CAVOK 10/09 Q1011=
201905220030 METAR LRCL 220030Z 22001KT CAVOK 10/09 Q1011=
201905220100 METAR LRCL 220100Z 00000KT 6000 NSC 09/08 Q1011=
201905220130 METAR LRCL 220130Z VRB01KT 6000 NSC 09/08 Q1011=
201905220200 METAR LRCL 220200Z VRB01KT 3000 BR FEW003 08/07 Q1011=
201905220230 METAR LRCL 220230Z 00000KT 1500 R25/0650N BCFG BR FEW001
                        08/07 Q1011=
201905220300 METAR LRCL 220300Z 25003KT 220V280 5000 BR FEW002 SCT056
                        08/07 Q1011=
201905220330 METAR LRCL 220330Z VRB01KT 5000 BR BKN055 09/08 Q1011=
201905220400 METAR LRCL 220400Z VRB02KT 9999 BKN062 09/09 Q1011=
201905220430 METAR LRCL 220430Z 00000KT 9999 BKN066 10/09 Q1011=
201905220500 METAR LRCL 220500Z VRB01KT 9999 FEW065 10/09 Q1011=
201905220530 METAR LRCL 220530Z 00000KT CAVOK 13/09 Q1011=
201905220600 METAR LRCL 220600Z 00000KT 9999 SCT057 15/10 Q1011=
201905220630 METAR LRCL 220630Z 02002KT 9999 FEW067 16/11 Q1011=
201905220700 METAR LRCL 220700Z VRB02KT 9999 FEW067 16/11 Q1011=
201905220730 METAR LRCL 220730Z 22006KT 9999 FEW050 16/10 Q1011=
201905220800 METAR LRCL 220800Z 18007KT 9999 FEW050 17/09 Q1011=
201905220830 METAR LRCL 220830Z 17008KT 9999 FEW050 18/09 Q1011=
201905220900 METAR LRCL 220900Z 16004KT 9999 SCT050 18/09 Q1011=
201905220930 METAR LRCL 220930Z 15002KT 9999 SCT047 FEW055CB 18/08 Q1011=
201905221000 METAR LRCL 221000Z 24006KT 9999 -SHRA SCT047 FEW055CB 17/10
                        Q1011=
201905221030 METAR LRCL 221030Z 20007KT 9999 FEW047 FEW060CB 18/11 Q1011
                        R07/29//95=
201905221100 METAR LRCL 221100Z 19005KT 9999 FEW050 FEW060CB 19/11 Q1011
                        R07/CLRD//=
201905221130 METAR LRCL 221130Z 29004KT 9999 FEW040 FEW060CB 20/09 Q1011=
201905221200 METAR LRCL 221200Z 24008KT 9999 FEW040 21/08 Q1010=
201905221230 METAR LRCL 221230Z 18005KT 9999 SCT044 21/09 Q1010=
201905221300 METAR LRCL 221300Z 16007KT 9999 SCT044 22/10 Q1010=
201905221330 METAR LRCL 221330Z 19011KT 9999 SCT048 20/09 Q1010=
201905221400 METAR LRCL 221400Z 21009KT 9999 SCT048 20/09 Q1010=
201905221430 METAR LRCL 221430Z 25007KT 9999 SCT052 20/09 Q1010=
201905221500 METAR LRCL 221500Z 28007KT 9999 FEW033 SCT052 20/09 Q1010=
201905221530 METAR LRCL 221530Z 29007KT 9999 FEW033 FEW050CB 18/09 Q1010=
201905221600 METAR LRCL 221600Z 29012KT 9999 FEW040 FEW050CB 17/09 Q1010=
201905221630 METAR LRCL 221630Z 28007KT 9999 FEW040CB SCT061 16/08 Q1010=
201905221700 METAR LRCL 221700Z 25006KT 9999 FEW040CB 17/09 Q1010=
201905221730 METAR LRCL 221730Z 25004KT 9999 FEW040CB 16/09 Q1010=
201905221800 METAR LRCL 221800Z VRB01KT 9999 FEW040CB 16/09 Q1010=
201905221830 METAR LRCL 221830Z VRB02KT 9999 FEW040CB 16/09 Q1010=
201905221900 METAR LRCL 221900Z VRB02KT 9999 FEW040CB 15/10 Q1011=
201905221930 METAR LRCL 221930Z VRB01KT 9999 FEW040CB 15/09 Q1011=
201905222000 METAR LRCL 222000Z 28004KT 240V310 9999 FEW053 14/09 Q1010=
201905222030 METAR LRCL 222030Z 29003KT 260V330 9999 FEW059 14/09 Q1010=
201905222100 METAR LRCL 222100Z 29003KT 240V330 9999 BKN061 14/10 Q1010=
201905222130 METAR LRCL 222130Z 25003KT 210V280 9999 BKN048 14/09 Q1010=
201905222200 METAR LRCL 222200Z 35002KT 9999 BKN046 14/10 Q1011=
201905222230 METAR LRCL 222230Z 07003KT 040V100 9999 BKN046 14/10 Q1010=
201905222300 METAR LRCL 222300Z 08003KT 9999 BKN047 13/11 Q1010=
201905222330 METAR LRCL 222330Z 07004KT 9999 BKN053 13/11 Q1010=
201905230000 METAR LRCL 230000Z 09003KT 9999 OVC050 13/12 Q1010=
201905230030 METAR LRCL 230030Z VRB02KT 9999 BKN056 13/11 Q1010=
201905230100 METAR LRCL 230100Z VRB02KT 9999 BKN055 13/11 Q1010=
201905230130 METAR LRCL 230130Z 12002KT 9999 OVC049 13/11 Q1010=
201905230200 METAR LRCL 230200Z 15002KT 9999 OVC043 13/12 Q1010=
201905230230 METAR COR LRCL 230230Z VRB01KT 9999 OVC039 13/12 Q1010=
201905230300 METAR LRCL 230300Z 00000KT 9999 OVC039 13/12 Q1010=
201905230330 METAR LRCL 230330Z VRB02KT 9999 BKN044 13/12 Q1010=
201905230400 METAR LRCL 230400Z VRB02KT 9999 FEW026 BKN041 13/12 Q1010=
201905230430 METAR LRCL 230430Z 08003KT 030V120 9999 FEW006 BKN038 BKN062
                        14/12 Q1010=
201905230500 METAR LRCL 230500Z 08003KT 040V110 9999 FEW007 BKN036 BKN057
                        14/12 Q1010=
201905230530 METAR LRCL 230530Z 06003KT 020V090 9999 FEW008 SCT036 BKN058
                        14/12 Q1011=
201905230600 METAR LRCL 230600Z 05003KT 360V090 9999 FEW012 BKN055 15/12
                        Q1011=
201905230630 METAR LRCL 230630Z 07003KT 030V110 9999 FEW012 BKN056 16/12
                        Q1011=
201905230700 METAR LRCL 230700Z 08004KT 040V110 9999 FEW011 SCT013 BKN056
                        16/12 Q1011=
201905230730 METAR LRCL 230730Z 07004KT 010V120 9999 FEW014 BKN016 BKN057
                        16/11 Q1011=
201905230800 METAR LRCL 230800Z 04004KT 340V140 9999 BKN017 BKN053 17/11
                        Q1011=
201905230830 METAR LRCL 230830Z 03004KT 340V090 9999 BKN020 BKN048 17/11
                        Q1011=
201905230900 METAR LRCL 230900Z 04005KT 360V070 9999 BKN022 FEW030TCU
                        BKN050 18/11 Q1011=
201905230930 METAR LRCL 230930Z 35006KT 300V020 9999 -SHRA BKN024 FEW030CB
                        BKN045 17/13 Q1011=
201905231000 METAR LRCL 231000Z 01005KT 330V060 9999 SCT026 FEW033CB BKN054
                        18/11 Q1011=
201905231030 METAR LRCL 231030Z 09004KT 020V170 9999 SCT028 FEW033CB SCT054
                        19/12 Q1011=
201905231100 METAR LRCL 231100Z 35009KT 7000 -SHRA VCTS SCT027 SCT030CB
                        BKN053 14/12 Q1011=
201905231130 METAR LRCL 231130Z VRB04KT 4000 -SHRA SCT028CB BKN045 14/13
                        Q1011 RETS R07/29//95=
201905231200 METAR LRCL 231200Z 10006KT 040V180 9999 -TSRA SCT025CB BKN040
                        16/13 Q1011 R07/29//95=
201905231230 METAR LRCL 231230Z 12006KT 090V170 9999 FEW014 SCT028CB BKN036
                        16/13 Q1011 RETS R07/29//95=
201905231300 METAR LRCL 231300Z 08006KT 9999 SCT017 FEW030CB BKN038 16/12
                        Q1011 R07/29//95=
201905231330 METAR LRCL 231330Z 07005KT 020V110 9999 -SHRA FEW015 SCT030CB
                        BKN040 17/11 Q1011 R07/29//95=
201905231400 METAR LRCL 231400Z 02005KT 310V110 9999 FEW019 SCT028CB BKN040
                        16/12 Q1011 R07/29//95=
201905231430 METAR LRCL 231430Z 36010KT 9999 FEW019 SCT029CB BKN048 16/11
                        Q1011 R07/29//95=
201905231500 METAR LRCL 231500Z 36010KT 330V030 9999 FEW019 SCT033CB BKN057
                        16/11 Q1012 R07/29//95=
201905231530 METAR LRCL 231530Z 35008KT 9999 FEW020 SCT037CB BKN058 16/11
                        Q1012=
201905231600 METAR LRCL 231600Z 03004KT 340V080 9999 FEW020 SCT035CB BKN056
                        16/11 Q1012=
201905231630 METAR LRCL 231630Z 09003KT 9999 FEW020 SCT035CB BKN056 15/11
                        Q1012=
201905231700 METAR LRCL 231700Z 36003KT 9999 FEW020 FEW035CB BKN056 16/11
                        Q1012=
201905231730 METAR LRCL 231730Z 01002KT 9999 FEW020 FEW040CB SCT056 15/11
                        Q1012=
201905231800 METAR LRCL 231800Z 35003KT 9999 FEW020 SCT036 BKN052 15/11
                        Q1012=
201905231830 METAR LRCL 231830Z 34003KT 9999 SCT036 BKN052 15/11 Q1012=
201905231900 METAR LRCL 231900Z VRB02KT 9999 SCT040 BKN052 14/12 Q1012=
201905231930 METAR LRCL 231930Z 02003KT 9999 SCT040 BKN052 14/11 Q1013=
201905232000 METAR LRCL 232000Z 00000KT 9999 SCT040 BKN055 14/12 Q1013=
201905232030 METAR LRCL 232030Z 08001KT 9999 -RA SCT040 BKN060 14/11 Q1012=
201905232100 METAR LRCL 232100Z 21002KT 9999 FEW040 BKN065 14/12 Q1012=
201905232130 METAR LRCL 232130Z VRB02KT 9999 FEW040 BKN065 13/12 Q1012=
201905232200 METAR LRCL 232200Z 00000KT 9999 FEW040 BKN065 13/11 Q1012
                        R07/15//95=
201905232230 METAR LRCL 232230Z 00000KT 9999 FEW040 BKN065 13/12 Q1012
                        R07/15//95=
201905232300 METAR LRCL 232300Z 00000KT 9999 FEW040 BKN065 13/12 Q1012
                        R07/15//95=
201905232330 METAR LRCL 232330Z 00000KT 9999 FEW033 BKN065 13/12 Q1012
                        R07/15//95=
201905240000 METAR LRCL 240000Z 00000KT 9999 SCT065 13/12 Q1012 R07/15//95=
201905240030 METAR LRCL 240030Z VRB02KT 9999 FEW030 SCT065 13/12 Q1012
                        R07/15//95=
201905240100 METAR LRCL 240100Z 23001KT 9999 SCT035 13/12 Q1012 R07/15//95=
201905240130 METAR LRCL 240130Z 24002KT 9999 SCT038 13/12 Q1011 R07/15//95=
201905240200 METAR LRCL 240200Z 28003KT 9999 SCT040 12/12 Q1011 R07/15//95=
201905240230 METAR LRCL 240230Z 00000KT 9999 SCT040 12/12 Q1011 R07/15//95=
201905240300 METAR LRCL 240300Z 00000KT 9999 -SHRA FEW022 SCT040 FEW045CB
                        13/12 Q1011 R07/CLRD//=
201905240330 METAR LRCL 240330Z 00000KT 9999 FEW022 FEW045CB 13/12 Q1011
                        R07/19//95=
201905240400 METAR LRCL 240400Z 00000KT 9999 FEW020 13/12 Q1011 R07/19//95=
201905240430 METAR LRCL 240430Z 27001KT 9999 FEW004 SCT040 13/12 Q1011
                        R07/19//95=
201905240500 METAR LRCL 240500Z 27004KT 9999 FEW005 SCT040 13/12 Q1012
                        R07/19//95=
201905240530 METAR LRCL 240530Z 00000KT 9999 FEW006 SCT040 14/12 Q1012
                        R07/19//95=
201905240600 METAR LRCL 240600Z VRB01KT 9999 FEW007 15/12 Q1012 R07/19//95=
201905240630 METAR LRCL 240630Z VRB01KT 9999 SCT013 SCT040CB 15/11 Q1012
                        R07/19//95=
201905240700 METAR LRCL 240700Z 09004KT 9999 SCT012 BKN042 16/12 Q1012
                        R07/19//95=
201905240730 METAR LRCL 240730Z 10003KT 9999 FEW013 FEW030CB BKN048 16/11
                        Q1012 R07/19//95=
201905240800 METAR LRCL 240800Z VRB02KT 9999 FEW016 FEW035CB SCT055 17/12
                        Q1011 R07/19//95=
201905240830 METAR COR LRCL 240830Z 07004KT 020V110 9999 FEW035CB 17/12
                        Q1011 R07/19//95=
201905240900 METAR LRCL 240900Z 07004KT 9999 SCT024 SCT039CB 18/12 Q1011
                        R07/19//95=
201905240930 METAR LRCL 240930Z 09004KT 9999 SCT022 SCT040CB 18/11 Q1011
                        R07/CLRD//=
201905241000 METAR LRCL 241000Z 10004KT 020V160 9999 FEW040CB SCT048 18/11
                        Q1011=
201905241030 METAR LRCL 241030Z VRB03KT 9999 VCTS FEW040CB BKN055 20/10
                        Q1010=
201905241100 METAR LRCL 241100Z VRB02KT 9999 FEW033CB BKN058 20/11 Q1010=
201905241130 METAR LRCL 241130Z VRB02KT 9999 TS SCT032CB SCT050 19/11
                        Q1010=
201905241200 METAR COR LRCL 241200Z 27007KT 9999 -TSRA SCT033CB BKN052
                        18/11 Q1010=
201905241230 METAR LRCL 241230Z 28008KT 9999 SCT034CB BKN057 18/09 Q1010
                        RETS=
201905241300 METAR LRCL 241300Z 29009KT 260V320 9999 SCT044CB BKN054 18/12
                        Q1010=
201905241330 METAR LRCL 241330Z 28009KT 9999 FEW026 SCT046CB BKN052 19/11
                        Q1010=
201905241400 METAR LRCL 241400Z 29007KT 9999 FEW050CB SCT060 18/11 Q1010=
201905241430 METAR LRCL 241430Z 31007KT 9999 FEW055CB SCT065 18/10 Q1010=
201905241500 METAR LRCL 241500Z 35010KT 9999 FEW055CB 18/11 Q1010=
201905241530 METAR LRCL 241530Z 32009KT 9999 FEW060CB 18/10 Q1010=
201905241600 METAR LRCL 241600Z 33008KT 9999 FEW060CB 17/11 Q1010=
201905241630 METAR LRCL 241630Z 31008KT 280V360 9999 FEW060TCU 18/11 Q1010=
201905241700 METAR LRCL 241700Z 31008KT 9999 FEW050 17/11 Q1010=
201905241730 METAR LRCL 241730Z 30006KT 270V340 9999 FEW050 16/11 Q1010=
201905241800 METAR LRCL 241800Z 28005KT 9999 FEW060 15/12 Q1010=
201905241830 METAR LRCL 241830Z 27003KT 240V300 CAVOK 15/12 Q1010=
201905241900 METAR LRCL 241900Z 26006KT 230V290 CAVOK 15/12 Q1010=
201905241930 METAR LRCL 241930Z VRB02KT CAVOK 14/12 Q1011=
201905242000 METAR LRCL 242000Z 30004KT CAVOK 13/11 Q1010=
201905242030 METAR LRCL 242030Z 28005KT CAVOK 13/11 Q1010=
201905242100 METAR LRCL 242100Z 00000KT CAVOK 12/11 Q1010=
201905242130 METAR LRCL 242130Z VRB01KT CAVOK 12/10 Q1011=
201905242200 METAR LRCL 242200Z 26006KT CAVOK 12/10 Q1011=
201905242230 METAR LRCL 242230Z 26006KT CAVOK 12/10 Q1010=
201905242300 METAR LRCL 242300Z 27006KT CAVOK 12/10 Q1010=
201905242330 METAR LRCL 242330Z 28005KT 9999 SCT028 12/10 Q1010=
201905250000 METAR LRCL 250000Z 28006KT 9999 SCT030 12/10 Q1010=
201905250030 METAR LRCL 250030Z 28005KT 9999 SCT018 12/10 Q1011=
201905250100 METAR LRCL 250100Z 27003KT 9999 BKN019 12/10 Q1011=
201905250130 METAR LRCL 250130Z VRB01KT 9999 BKN019 12/10 Q1011=
201905250200 METAR LRCL 250200Z 26003KT 9999 BKN019 12/10 Q1011=
201905250230 METAR LRCL 250230Z 26004KT 9999 SCT017 BKN029 12/10 Q1011=
201905250300 METAR LRCL 250300Z 28004KT 9999 FEW017 BKN029 12/10 Q1011=
201905250330 METAR LRCL 250330Z 29005KT 9999 SCT020 SCT033 12/10 Q1011=
201905250400 METAR LRCL 250400Z 27005KT 9999 SCT022 BKN032 12/10 Q1011=
201905250430 METAR LRCL 250430Z 27005KT 9999 FEW026 13/10 Q1011=
201905250500 METAR LRCL 250500Z 26005KT 9999 FEW033 15/11 Q1011=
201905250530 METAR LRCL 250530Z 25004KT 210V290 9999 FEW025 16/11 Q1011=
201905250600 METAR LRCL 250600Z 28003KT 240V320 9999 BKN023 15/11 Q1012=
201905250630 METAR LRCL 250630Z 33009KT 300V360 9999 BKN021 16/11 Q1012=
201905250700 METAR LRCL 250700Z 31009KT 9999 BKN022 16/11 Q1012=
201905250730 METAR LRCL 250730Z 36005KT 330V060 9999 BKN021 17/12 Q1012=
201905250800 METAR LRCL 250800Z 35007KT 320V030 9999 BKN022 17/12 Q1012=
201905250830 METAR LRCL 250830Z 34007KT 300V360 9999 BKN022 18/13 Q1012=
201905250900 METAR LRCL 250900Z 35009KT 9999 BKN022 18/13 Q1012=
201905250930 METAR LRCL 250930Z 35011KT 9999 BKN024 19/12 Q1012=
201905251000 METAR LRCL 251000Z 01010KT 9999 FEW025 SCT055 19/12 Q1013=
201905251030 METAR LRCL 251030Z 36009KT 330V030 9999 FEW025 SCT029 BKN058
                        20/12 Q1012=
201905251100 METAR LRCL 251100Z 33007KT 290V010 9999 BKN031 20/11 Q1013=
201905251130 METAR LRCL 251130Z 30011KT 270V340 9999 SCT033 BKN048 19/13
                        Q1013=
201905251200 METAR LRCL 251200Z 32009KT 9999 -RA BKN057 18/13 Q1013=
201905251230 METAR LRCL 251230Z 26008KT 230V290 9999 FEW045CB SCT055 20/12
                        Q1013=
201905251300 METAR LRCL 251300Z 31013KT 9999 -RA FEW022 FEW030CB BKN040
                        17/11 Q1013=
201905251330 METAR LRCL 251330Z 27005KT 240V300 9999 -RA FEW030CB SCT040
                        18/14 Q1013 R07/29//95=
201905251400 METAR LRCL 251400Z 25004KT 180V320 9999 FEW050CB SCT060 20/14
                        Q1012 R07/29//95=
201905251430 METAR LRCL 251430Z 32007KT 290V350 9999 SCT062 20/13 Q1012
                        R07/29//95=
201905251500 METAR LRCL 251500Z 31005KT 290V350 9999 SCT060 20/13 Q1012
                        R07/CLRD//=
201905251530 METAR LRCL 251530Z 30006KT 9999 FEW060 20/12 Q1012=
201905251600 METAR COR LRCL 251600Z 30008KT 270V330 9999 FEW067 21/11
                        Q1012=
201905251630 METAR LRCL 251630Z 30009KT 9999 FEW067 20/11 Q1013=
201905251700 METAR LRCL 251700Z 31006KT 9999 FEW067 20/12 Q1013=
201905251730 METAR COR LRCL 251730Z 32006KT 9999 FEW067 19/11 Q1013=
201905251800 METAR LRCL 251800Z 32007KT CAVOK 18/11 Q1013=
201905251830 METAR LRCL 251830Z 31007KT CAVOK 17/11 Q1014=
201905251900 METAR LRCL 251900Z 26007KT CAVOK 16/11 Q1014=
201905251930 METAR LRCL 251930Z 26006KT CAVOK 16/12 Q1014=
201905252000 METAR COR LRCL 252000Z 24003KT 9999 FEW052 15/12 Q1015=
201905252030 METAR LRCL 252030Z 26004KT 9999 FEW057 14/12 Q1015=
201905252100 METAR LRCL 252100Z 27003KT CAVOK 14/12 Q1015=
201905252130 METAR LRCL 252130Z 28003KT CAVOK 13/11 Q1015=
201905252200 METAR LRCL 252200Z 29004KT CAVOK 13/11 Q1015=
201905252230 METAR LRCL 252230Z 28006KT CAVOK 14/12 Q1015=
201905252300 METAR LRCL 252300Z 28006KT CAVOK 13/11 Q1015=
201905252330 METAR LRCL 252330Z 28007KT CAVOK 13/11 Q1015=
201905260000 METAR LRCL 260000Z AUTO 28007KT 9999 NCD 13/11 Q1015=
201905260030 METAR LRCL 260030Z 27006KT CAVOK 12/10 Q1015=
201905260100 METAR LRCL 260100Z 28006KT CAVOK 12/10 Q1015=
201905260130 METAR LRCL 260130Z 28004KT CAVOK 11/10 Q1015=
201905260200 METAR LRCL 260200Z 27003KT CAVOK 11/10 Q1015=
201905260230 METAR LRCL 260230Z 28005KT CAVOK 11/10 Q1016=
201905260300 METAR LRCL 260300Z VRB02KT CAVOK 11/10 Q1016=
201905260330 METAR LRCL 260330Z 27004KT CAVOK 11/10 Q1016=
201905260400 METAR LRCL 260400Z 25003KT CAVOK 12/10 Q1016=
201905260430 METAR LRCL 260430Z 26003KT CAVOK 13/10 Q1016=
201905260500 METAR LRCL 260500Z 27003KT 220V300 CAVOK 15/11 Q1016=
201905260530 METAR LRCL 260530Z 26003KT CAVOK 16/11 Q1017=
201905260600 METAR LRCL 260600Z 27004KT 220V310 CAVOK 17/11 Q1017=
201905260630 METAR LRCL 260630Z 27003KT 230V340 CAVOK 18/11 Q1017=
201905260700 METAR LRCL 260700Z VRB01KT 9999 FEW032 21/12 Q1017=
201905260730 METAR LRCL 260730Z VRB02KT 9999 FEW032 20/12 Q1017=
201905260800 METAR LRCL 260800Z VRB01KT 9999 SCT032 21/12 Q1017=
201905260830 METAR LRCL 260830Z VRB01KT 9999 FEW032 21/12 Q1017=
201905260900 METAR LRCL 260900Z VRB03KT 9999 FEW035 22/13 Q1017=
201905260930 METAR LRCL 260930Z 17004KT 100V220 9999 FEW042 22/10 Q1017=
201905261000 METAR LRCL 261000Z VRB03KT 9999 FEW043 22/10 Q1017=
201905261030 METAR LRCL 261030Z 10005KT 060V130 9999 FEW041 21/11 Q1016=
201905261100 METAR LRCL 261100Z 12006KT 080V170 9999 FEW041 23/12 Q1016=
201905261130 METAR LRCL 261130Z VRB02KT 9999 FEW045 23/11 Q1016=
201905261200 METAR LRCL 261200Z VRB03KT 9999 FEW045 22/11 Q1016=
201905261230 METAR LRCL 261230Z VRB03KT 9999 FEW049 24/11 Q1015=
201905261300 METAR LRCL 261300Z 08005KT 030V160 9999 FEW051 24/12 Q1015=
201905261330 METAR LRCL 261330Z 10005KT 9999 FEW057 24/11 Q1015=
201905261400 METAR LRCL 261400Z 13005KT 9999 FEW057 24/11 Q1015=
201905261430 METAR LRCL 261430Z 13005KT 100V160 9999 FEW050CB 23/11 Q1015=
201905261500 METAR LRCL 261500Z 14004KT 100V210 9999 FEW050CB 23/10 Q1015=
201905261530 METAR LRCL 261530Z 16004KT 140V210 9999 FEW050CB 23/11 Q1015=
201905261600 METAR LRCL 261600Z 17005KT 120V230 9999 FEW050CB 24/11 Q1015=
201905261630 METAR LRCL 261630Z 16004KT 130V190 9999 FEW060 23/10 Q1015=
201905261700 METAR LRCL 261700Z 19005KT CAVOK 22/11 Q1015=
201905261730 METAR LRCL 261730Z 19004KT 160V220 CAVOK 22/11 Q1015=
201905261800 METAR LRCL 261800Z 19003KT 140V230 CAVOK 20/11 Q1015=
201905261830 METAR LRCL 261830Z 25003KT 210V270 CAVOK 20/12 Q1015=
201905261900 METAR LRCL 261900Z 27003KT CAVOK 18/12 Q1016=
201905261930 METAR LRCL 261930Z 34002KT CAVOK 16/13 Q1016=
201905262000 METAR LRCL 262000Z 00000KT CAVOK 16/12 Q1016=
201905262030 METAR LRCL 262030Z 00000KT CAVOK 15/13 Q1016=
201905262100 METAR LRCL 262100Z VRB01KT CAVOK 15/13 Q1016=
201905262130 METAR LRCL 262130Z 29003KT CAVOK 14/13 Q1016=
201905262200 METAR LRCL 262200Z 26003KT CAVOK 14/12 Q1016=
201905262230 METAR LRCL 262230Z 26004KT CAVOK 13/12 Q1016=
201905262300 METAR LRCL 262300Z 26002KT CAVOK 13/12 Q1016=
201905262330 METAR LRCL 262330Z 24003KT CAVOK 13/12 Q1016=
201905270000 METAR LRCL 270000Z VRB02KT CAVOK 12/11 Q1016=
201905270030 METAR LRCL 270030Z 00000KT CAVOK 12/12 Q1016=
201905270100 METAR LRCL 270100Z 00000KT CAVOK 12/11 Q1016=
201905270130 METAR LRCL 270130Z 00000KT CAVOK 12/11 Q1016=
201905270200 METAR LRCL 270200Z 06002KT CAVOK 11/11 Q1016=
201905270230 METAR LRCL 270230Z 08004KT CAVOK 11/11 Q1016=
201905270300 METAR LRCL 270300Z 08003KT CAVOK 11/10 Q1016=
201905270330 METAR LRCL 270330Z 00000KT CAVOK 12/11 Q1016=
201905270400 METAR LRCL 270400Z 00000KT CAVOK 13/11 Q1016=
201905270430 METAR LRCL 270430Z VRB01KT CAVOK 13/12 Q1016=
201905270500 METAR LRCL 270500Z VRB02KT CAVOK 14/12 Q1016=
201905270530 METAR LRCL 270530Z VRB02KT CAVOK 16/13 Q1016=
201905270600 METAR LRCL 270600Z 07004KT 020V110 CAVOK 17/13 Q1015=
201905270630 METAR LRCL 270630Z 08005KT 040V130 CAVOK 19/13 Q1015=
201905270700 METAR LRCL 270700Z 09006KT CAVOK 20/14 Q1015=
201905270730 METAR LRCL 270730Z 07008KT CAVOK 21/14 Q1015=
201905270800 METAR LRCL 270800Z 12011KT CAVOK 21/14 Q1015=
201905270830 METAR COR LRCL 270830Z 11007KT CAVOK 21/13 Q1015=
201905270900 METAR LRCL 270900Z 12006KT CAVOK 21/14 Q1015=
201905270930 METAR LRCL 270930Z 13007KT CAVOK 22/14 Q1015=
201905271000 METAR LRCL 271000Z 12005KT CAVOK 23/14 Q1015=
201905271030 METAR LRCL 271030Z 13006KT CAVOK 22/13 Q1015=
201905271100 METAR LRCL 271100Z 15007KT CAVOK 22/13 Q1015=
201905271130 METAR LRCL 271130Z 15007KT CAVOK 23/13 Q1015=
201905271200 METAR LRCL 271200Z 15008KT CAVOK 23/13 Q1014=
201905271230 METAR LRCL 271230Z 14008KT CAVOK 23/13 Q1014=
201905271300 METAR LRCL 271300Z 16007KT CAVOK 22/14 Q1014=
201905271330 METAR LRCL 271330Z 13004KT CAVOK 22/14 Q1014=
201905271400 METAR LRCL 271400Z VRB02KT CAVOK 22/14 Q1014=
201905271430 METAR LRCL 271430Z VRB03KT CAVOK 22/14 Q1014=
201905271500 METAR LRCL 271500Z VRB02KT CAVOK 22/14 Q1014=
201905271530 METAR LRCL 271530Z 34003KT CAVOK 21/15 Q1014=
201905271600 METAR LRCL 271600Z 00000KT 9999 -RA SCT068 22/15 Q1014=
201905271630 METAR LRCL 271630Z 00000KT 9999 SCT068 21/15 Q1014=
201905271700 METAR LRCL 271700Z 03002KT 9999 -RA SCT068 21/16 Q1014=
201905271730 METAR LRCL 271730Z 02002KT 9999 SCT068 20/16 Q1013=
201905271800 METAR LRCL 271800Z 00000KT CAVOK 20/16 Q1013=
201905271830 METAR LRCL 271830Z 04003KT CAVOK 19/16 Q1013=
201905271900 METAR COR LRCL 271900Z VRB02KT 9999 -RA SCT065 19/16 Q1013
                        R07/19//95=
201905271930 METAR LRCL 271930Z VRB01KT 9999 SCT060 18/16 Q1013 R07/19//95=
201905272000 METAR LRCL 272000Z 00000KT 9999 SCT060 18/17 Q1013 R07/19//95=
201905272030 METAR LRCL 272030Z 00000KT 9999 FEW055CB SCT060 18/17 Q1013
                        R07/19//95=
201905272100 METAR LRCL 272100Z 02003KT 9999 -SHRA SCT055CB SCT060 18/16
                        Q1013 R07/19//95=
201905272130 METAR LRCL 272130Z 00000KT 9999 -SHRA SCT055CB SCT060 18/16
                        Q1013 R07/19//95=
201905272200 METAR LRCL 272200Z 15003KT 110V210 9999 -SHRA SCT055CB SCT065
                        18/16 Q1013 R07/29//95=
201905272230 METAR LRCL 272230Z 36003KT 9999 FEW055CB SCT061 18/15 Q1013
                        R07/29//95=
201905272300 METAR LRCL 272300Z 13003KT 100V180 9999 -RA FEW055CB SCT060
                        17/16 Q1012 R07/29//95=
201905272330 METAR LRCL 272330Z VRB01KT 9999 SCT068 17/16 Q1012 R07/29//95=
201905280000 METAR LRCL 280000Z 08005KT 9999 SCT068 17/16 Q1012 R07/29//95=
201905280030 METAR LRCL 280030Z VRB02KT CAVOK 17/16 Q1012 R07/29//95=
201905280100 METAR LRCL 280100Z 08004KT CAVOK 16/15 Q1012 R07/29//95=
201905280130 METAR LRCL 280130Z 05004KT 360V070 CAVOK 16/15 Q1011 R07/29//95=
201905280200 METAR LRCL 280200Z 09003KT 060V150 CAVOK 15/14 Q1011 R07/29//95=
201905280230 METAR LRCL 280230Z VRB02KT 9999 MIFG NSC 15/14 Q1011 R07/29//95=
201905280300 METAR LRCL 280300Z 04003KT 020V080 9999 MIFG NSC 15/14 Q1011
                        R07/19//95=
201905280330 METAR LRCL 280330Z 15004KT 110V200 CAVOK 15/14 Q1011 R07/19//95=
201905280400 METAR LRCL 280400Z VRB02KT CAVOK 15/14 Q1011 R07/CLRD//=
201905280430 METAR LRCL 280430Z 00000KT 9999 FEW030 17/15 Q1011=
201905280500 METAR LRCL 280500Z 00000KT 9999 FEW042 17/15 Q1011=
201905280530 METAR LRCL 280530Z 07004KT 9999 FEW034CB SCT060 18/15 Q1011=
201905280600 METAR COR LRCL 280600Z 08004KT 9999 FEW030 SCT056CB 19/15
                        Q1010=
201905280630 METAR LRCL 280630Z 07003KT 040V100 9999 FEW040 SCT065CB 19/15
                        Q1011=
201905280700 METAR LRCL 280700Z 12004KT 9999 FEW033 SCT067 20/16 Q1010=
201905280730 METAR COR LRCL 280730Z 11007KT 9999 FEW038 21/15 Q1010=
201905280800 METAR LRCL 280800Z 11007KT 9999 FEW050 21/14 Q1010=
201905280830 METAR LRCL 280830Z 11007KT 9999 FEW060 21/15 Q1010=
201905280900 METAR LRCL 280900Z 13008KT 090V150 CAVOK 22/15 Q1010=
201905280930 METAR COR LRCL 280930Z 13009KT 090V150 CAVOK 23/14 Q1009=
201905281000 METAR LRCL 281000Z 13008KT 090V160 9999 FEW030TCU 24/15 Q1009=
201905281030 METAR LRCL 281030Z 15012KT 9999 FEW030TCU 25/14 Q1009=
201905281100 METAR LRCL 281100Z 15011KT 120V180 9999 FEW033TCU 25/15 Q1009=
201905281130 METAR LRCL 281130Z 17011KT 150V210 9999 FEW040 FEW050CB 26/15
                        Q1008=
201905281200 METAR COR LRCL 281200Z 15012KT 110V180 9999 FEW045 26/14
                        Q1007=
201905281230 METAR LRCL 281230Z 15016KT 9999 FEW050 26/11 Q1007=
201905281300 METAR COR LRCL 281300Z 17018KT 130V200 9999 FEW045 FEW055CB
                        27/11 Q1006=
201905281330 METAR LRCL 281330Z 16015KT 9999 FEW045 SCT055CB 26/10 Q1006=
201905281400 METAR LRCL 281400Z 16013KT 9999 FEW050 FEW060CB 27/11 Q1006=
201905281430 METAR LRCL 281430Z 17014KT 140V200 9999 FEW060TCU 27/11 Q1005=
201905281500 METAR LRCL 281500Z 16012KT 9999 FEW060 FEW065TCU 27/11 Q1005=
201905281530 METAR LRCL 281530Z 17013KT 9999 FEW060 FEW065TCU 26/11 Q1005=
201905281600 METAR LRCL 281600Z 18009KT 9999 -SHRA FEW060 SCT065CB 25/11
                        Q1005=
201905281630 METAR LRCL 281630Z 17009KT 9999 FEW060 FEW065CB 25/11 Q1006=
201905281700 METAR LRCL 281700Z 26009KT 9999 FEW060 FEW065CB 22/14 Q1006=
201905281730 METAR LRCL 281730Z 32005KT 9999 FEW060 SCT065CB 19/14 Q1007=
201905281800 METAR LRCL 281800Z 26004KT 9999 FEW060 SCT065CB 19/14 Q1008=
201905281830 METAR LRCL 281830Z 25009KT 9999 -TSRA BKN055CB 18/15 Q1009=
201905281900 METAR LRCL 281900Z 27003KT 9999 -TSRA BKN055CB 17/14 Q1009
                        R07/29//95=
201905281930 METAR LRCL 281930Z VRB02KT 9999 SCT055CB 17/13 Q1009 RETS
                        R07/29//95=
201905282000 METAR LRCL 282000Z 18004KT 9999 -SHRA SCT060CB 17/12 Q1009
                        R07/29//95=
201905282030 METAR LRCL 282030Z 29006KT 9999 -SHRA SCT060CB 17/13 Q1009
                        R07/29//95=
201905282100 METAR LRCL 282100Z 27004KT 9999 SCT060CB 16/12 Q1008 R07/29//95=
201905282130 METAR LRCL 282130Z 10008KT 9999 -SHRA SCT060CB 17/12 Q1009
                        R07/29//95=
201905282200 METAR LRCL 282200Z 10005KT 9999 -SHRA SCT060CB 16/13 Q1009
                        R07/29//95=
201905282230 METAR LRCL 282230Z 14005KT 9999 SCT060CB 16/13 Q1009 R07/29//95=
201905282300 METAR LRCL 282300Z 12005KT 9999 FEW060CB 15/13 Q1009 R07/29//95=
201905282330 METAR LRCL 282330Z 13007KT 9999 FEW060CB 15/13 Q1009 R07/29//95=
201905290000 METAR LRCL 290000Z VRB02KT CAVOK 15/13 Q1009 R07/29//95=
201905290030 METAR LRCL 290030Z VRB02KT CAVOK 15/13 Q1009 R07/29//95=
201905290100 METAR LRCL 290100Z 10004KT CAVOK 15/13 Q1009 R07/29//95=
201905290130 METAR LRCL 290130Z 11004KT CAVOK 15/13 Q1009 R07/29//95=
201905290200 METAR COR LRCL 290200Z 08004KT CAVOK 14/12 Q1009 R07/29//95=
201905290230 METAR LRCL 290230Z 09004KT CAVOK 14/13 Q1009 R07/CLRD//=
201905290300 METAR LRCL 290300Z VRB01KT 9999 MIFG NSC 13/12 Q1010=
201905290330 METAR LRCL 290330Z VRB01KT 9999 FEW010 13/12 Q1010=
201905290400 METAR LRCL 290400Z VRB01KT 9999 FEW010 14/13 Q1010=
201905290430 METAR LRCL 290430Z VRB02KT 9999 FEW007 15/13 Q1010=
201905290500 METAR LRCL 290500Z 29003KT 9999 FEW007 16/13 Q1011=
201905290530 METAR LRCL 290530Z 28003KT 9999 FEW007 15/13 Q1011=
201905290600 METAR LRCL 290600Z VRB01KT 9999 FEW007 17/13 Q1011=
201905290630 METAR LRCL 290630Z VRB02KT 9999 FEW010 18/14 Q1011=
201905290700 METAR LRCL 290700Z VRB02KT 9999 FEW015 19/13 Q1011=
201905290730 METAR LRCL 290730Z VRB03KT 9999 FEW020 20/14 Q1011=
201905290800 METAR LRCL 290800Z VRB03KT 9999 SCT024 21/13 Q1011=
201905290830 METAR LRCL 290830Z 06003KT 310V120 9999 SCT025 21/13 Q1011=
201905290900 METAR LRCL 290900Z VRB05KT 9999 SCT025 21/14 Q1012=
201905290930 METAR COR LRCL 290930Z VRB05KT 9999 SCT025 21/14 Q1012=
201905291000 METAR COR LRCL 291000Z 08003KT 010V120 9999 SCT029 21/13
                        Q1012=
201905291030 METAR LRCL 291030Z 08003KT 020V120 9999 SCT030 22/13 Q1012=
201905291100 METAR LRCL 291100Z VRB02KT 9999 FEW025CB BKN054 22/13 Q1012=
201905291130 METAR LRCL 291130Z 00000KT 9999 -RA FEW034CB BKN060 22/13
                        Q1011=
201905291200 METAR LRCL 291200Z VRB01KT 9999 SCT040 23/12 Q1011=
201905291230 METAR LRCL 291230Z 00000KT 9999 FEW040 SCT053 23/12 Q1011=
201905291300 METAR LRCL 291300Z VRB02KT 9999 SCT034 FEW040CB 23/14 Q1012=
201905291330 METAR LRCL 291330Z 30003KT 250V320 9999 SCT034 FEW040CB 23/13
                        Q1011=
201905291400 METAR LRCL 291400Z 30003KT 9999 FEW040CB SCT045 23/12 Q1011=
201905291430 METAR LRCL 291430Z 27009KT 9999 FEW040 SCT045 22/14 Q1011=
201905291500 METAR LRCL 291500Z 29006KT 9999 FEW040CB FEW045 21/14 Q1012=
201905291530 METAR LRCL 291530Z 27006KT 9999 FEW040CB FEW045 20/15 Q1012=
201905291600 METAR LRCL 291600Z 26006KT 230V290 9999 FEW040CB FEW055 21/15
                        Q1012=
201905291630 METAR LRCL 291630Z AUTO 27005KT 9999 NCD 21/14 Q1012=
201905291700 METAR LRCL 291700Z 28005KT 9999 FEW065TCU 20/15 Q1012=
201905291730 METAR LRCL 291730Z 30004KT 9999 FEW067 19/15 Q1012=
201905291800 METAR LRCL 291800Z 28005KT 9999 FEW067 17/14 Q1012=
201905291830 METAR LRCL 291830Z 30004KT 9999 FEW067 17/14 Q1013=
201905291900 METAR LRCL 291900Z VRB02KT 9999 FEW067 17/14 Q1013=
201905291930 METAR LRCL 291930Z 25004KT 9999 FEW067 17/14 Q1013=
201905292000 METAR LRCL 292000Z 26004KT 9999 FEW067 16/14 Q1013=
201905292030 METAR LRCL 292030Z 27004KT 9999 SCT076 16/14 Q1013=
201905292100 METAR LRCL 292100Z 27007KT 9999 SCT067 17/14 Q1014=
201905292130 METAR LRCL 292130Z 27006KT 9999 SCT067 17/14 Q1014=
201905292200 METAR COR LRCL 292200Z 25007KT 9999 SCT067 17/14 Q1014=
201905292230 METAR LRCL 292230Z 26006KT 230V290 9999 BKN043 17/14 Q1014=
201905292300 METAR LRCL 292300Z 23006KT 9999 -TSRA FEW033 BKN043CB 16/14
                        Q1015 R07/29//95=
201905292330 METAR LRCL 292330Z 22003KT 190V320 9999 -TSRA SCT033 BKN059CB
                        15/14 Q1015 R07/29//95=
201905300000 METAR LRCL 300000Z 00000KT 9999 -TSRA BKN065CB 15/14 Q1015
                        R07/29//95=
201905300030 METAR LRCL 300030Z 00000KT 9999 -SHRA SCT055CB OVC067 15/14
                        Q1015 RETS R07/29//95=
201905300100 METAR COR LRCL 300100Z VRB02KT 9999 BKN067 15/14 Q1015 R07/29//95=
201905300130 METAR LRCL 300130Z 00000KT 9999 OVC067 15/14 Q1015 R07/29//95=
201905300200 METAR LRCL 300200Z 00000KT 9999 FEW050 BKN067 15/14 Q1015
                        R07/29//95=
201905300230 METAR LRCL 300230Z 10004KT 9999 BKN067 15/14 Q1015 R07/29//95=
201905300300 METAR LRCL 300300Z 09003KT 9999 BKN067 15/14 Q1015 R07/29//95=
201905300330 METAR LRCL 300330Z VRB02KT 9999 BKN067 15/14 Q1016 R07/29//95=
201905300400 METAR LRCL 300400Z VRB02KT 9999 BKN023 BKN065 15/14 Q1016
                        R07/19//95=
201905300430 METAR LRCL 300430Z VRB02KT 9999 SCT024 BKN033 BKN068 15/14
                        Q1016 R07/19//95=
201905300500 METAR LRCL 300500Z 23004KT 9999 FEW007 BKN035 BKN068 16/14
                        Q1016 R07/19//95=
201905300530 METAR LRCL 300530Z 22002KT 9999 SCT033 BKN060 BKN068 16/14
                        Q1017=
201905300600 METAR LRCL 300600Z 26003KT 220V290 9999 SCT014 BKN059 17/14
                        Q1017=
201905300630 METAR LRCL 300630Z VRB02KT 9999 SCT020 SCT059 18/14 Q1017=
201905300700 METAR LRCL 300700Z VRB02KT 9999 FEW017 BKN022 19/14 Q1017=
201905300730 METAR LRCL 300730Z 01003KT 270V070 9999 SCT019 BKN031 19/13
                        Q1017=
201905300800 METAR LRCL 300800Z 02004KT 310V090 9999 SCT020 BKN031 19/13
                        Q1017=
201905300830 METAR LRCL 300830Z 02004KT 350V060 9999 SCT022 FEW026TCU
                        BKN032 20/14 Q1017=
201905300900 METAR LRCL 300900Z 33006KT 9999 FEW026 FEW030TCU BKN032 20/14
                        Q1017=
201905300930 METAR LRCL 300930Z 02005KT 350V050 9999 FEW027 FEW030CB BKN033
                        20/13 Q1018=
201905301000 METAR LRCL 301000Z 04006KT 360V080 9999 VCSH FEW030CB BKN033
                        20/13 Q1018=
201905301030 METAR LRCL 301030Z 04007KT 9999 VCSH SCT028CB BKN033 20/13
                        Q1017=
201905301100 METAR LRCL 301100Z 31010KT 1500 TSRA BKN015CB BKN031 17/14
                        Q1018 R07/29//95=
201905301130 METAR LRCL 301130Z 32009KT 280V360 8000 -TSRA FEW012 SCT016CB
                        BKN036 14/14 Q1019 RESHRA R07/29//95=
201905301200 METAR LRCL 301200Z 28006KT 210V340 9999 -SHRA FEW030CB BKN040
                        16/14 Q1019 RETS R07/29//95=
201905301230 METAR LRCL 301230Z 23004KT 150V310 9999 FEW033CB BKN036 17/13
                        Q1018 R07/29//95=
201905301300 METAR LRCL 301300Z VRB02KT 9999 FEW033CB BKN040 18/14 Q1018
                        R07/29//95=
201905301330 METAR LRCL 301330Z VRB01KT 9999 SCT026 FEW033CB BKN068 19/15
                        Q1018 R07/29//95=
201905301400 METAR LRCL 301400Z 01004KT 280V080 9999 SCT028 FEW033CB BKN044
                        20/14 Q1018 R07/19//95=
201905301430 METAR LRCL 301430Z 35006KT 320V020 9999 -SHRA SCT029CB BKN045
                        19/13 Q1019 R07/19//95=
201905301500 METAR LRCL 301500Z 24011KT 7000 -SHRA BKN025CB BKN042 16/14
                        Q1019 RESHRA R07/29//95=
201905301530 METAR LRCL 301530Z 29003KT 250V330 9999 -RA FEW025 FEW030CB
                        BKN039 16/15 Q1019 R07/29//95=
201905301600 METAR LRCL 301600Z 26007KT 230V300 9999 FEW023 FEW034CB BKN065
                        17/15 Q1019 R07/29//95=
201905301630 METAR LRCL 301630Z 26007KT 9999 FEW028CB SCT065 17/15 Q1019
                        R07/29//95=
201905301700 METAR LRCL 301700Z 27003KT 240V300 9999 FEW045 17/14 Q1019
                        R07/29//95=
201905301730 METAR LRCL 301730Z 27005KT 9999 FEW065 16/14 Q1019 R07/29//95=
201905301800 METAR LRCL 301800Z 26005KT CAVOK 16/13 Q1020 R07/19//95=
201905301830 METAR COR LRCL 301830Z 28004KT 250V330 CAVOK 15/13 Q1020
                        R07/CLRD//=
201905301900 METAR LRCL 301900Z 29005KT CAVOK 14/13 Q1020=
201905301930 METAR LRCL 301930Z 29006KT CAVOK 14/13 Q1020=
201905302000 METAR LRCL 302000Z 25007KT CAVOK 15/13 Q1021=
201905302030 METAR LRCL 302030Z 00000KT CAVOK 15/13 Q1021=
201905302100 METAR LRCL 302100Z AUTO 27005KT 9999 FEW078/// BKN110///
                        14/13 Q1021=
201905302130 METAR LRCL 302130Z 25006KT 9999 FEW015 14/13 Q1021=
201905302200 METAR LRCL 302200Z 24005KT 9999 FEW015 14/12 Q1021=
201905302230 METAR LRCL 302230Z 28005KT 9999 FEW020 13/12 Q1021=
201905302300 METAR LRCL 302300Z 28004KT CAVOK 13/12 Q1021=
201905302330 METAR LRCL 302330Z 27004KT CAVOK 13/12 Q1020=
201905310000 METAR LRCL 310000Z 28003KT 250V320 CAVOK 13/12 Q1020=
201905310030 METAR LRCL 310030Z 17004KT 140V200 CAVOK 12/11 Q1020=
201905310100 METAR LRCL 310100Z 27005KT 9999 FEW013 13/12 Q1020=
201905310130 METAR LRCL 310130Z 26007KT 9999 FEW011 SCT036 13/12 Q1020=
201905310200 METAR LRCL 310200Z 24005KT 9999 FE008 SCT039 13/12 Q1020=
201905310230 METAR LRCL 310230Z 28004KT 9999N FEW010 BKN042 13/12 Q1020=
201905310300 METAR LRCL 310300Z 00000KT 9999 SCT010 BKN042 13/12 Q1020=
201905310330 METAR LRCL 310330Z 28005KT 9999 BKN008 OVC030 14/13 Q1021=
201905310400 METAR LRCL 310400Z 29006KT 9999 BKN008 OVC030 14/13 Q1021=
201905310430 METAR LRCL 310430Z 31004KT 280V350 9999 BKN008 14/12 Q1021=
201905310500 METAR LRCL 310500Z 27005KT 240V300 9999 BKN013 15/12 Q1021=
201905310530 METAR COR LRCL 310530Z 28005KT 240V320 9999 BKN013 15/12
                        Q1021=
201905310600 METAR LRCL 310600Z 27003KT 220V330 9999 SCT013 16/12 Q1021=
201905310630 METAR LRCL 310630Z VRB01KT 9999 SCT013 18/12 Q1021=
201905310700 METAR LRCL 310700Z 04005KT 9999 FEW015 SCT025 17/12 Q1021=
201905310730 METAR LRCL 310730Z 04005KT 9999 FEW016 BKN025 17/12 Q1021=
201905310800 METAR LRCL 310800Z 04005KT 9999 FEW016 BKN025 18/12 Q1021=
201905310830 METAR LRCL 310830Z 08006KT 9999 FEW016 SCT025 18/13 Q1021=
201905310900 METAR LRCL 310900Z 04005KT 9999 SCT025 18/13 Q1020=
201905310930 METAR LRCL 310930Z VRB02KT 9999 SCT025 20/14 Q1020=
201905311000 METAR LRCL 311000Z VRB03KT 9999 SCT025 21/13 Q1020=
201905311030 METAR LRCL 311030Z 01005KT 9999 BKN025 20/13 Q1020=
201905311100 METAR LRCL 311100Z VRB03KT 9999 SCT025 21/12 Q1020=
201905311130 METAR LRCL 311130Z 01005KT 9999 SCT025 21/13 Q1020=
201905311200 METAR LRCL 311200Z VRB05KT 9999 SCT028 22/14 Q1019=
201905311230 METAR LRCL 311230Z 02003KT 9999 FEW028 22/12 Q1019=
201905311300 METAR LRCL 311300Z 36005KT 9999 FEW030 22/13 Q1019=
201905311330 METAR LRCL 311330Z 05004KT 9999 FEW030 22/13 Q1019=
201905311400 METAR LRCL 311400Z VRB02KT 9999 FEW033 22/12 Q1018=
201905311430 METAR LRCL 311430Z 34008KT 9999 SCT033 21/14 Q1018=
201905311500 METAR LRCL 311500Z 34011KT 9999 SCT033 21/13 Q1018=
201905311530 METAR LRCL 311530Z 33011KT 9999 FEW033 FEW044CB 20/13 Q1018=
201905311600 METAR LRCL 311600Z 33010KT 9999 SCT033CB SCT040 19/13 Q1019=
201905311630 METAR LRCL 311630Z 31010KT 9999 TS SCT028CB BKN037 19/13
                        Q1019=
201905311700 METAR COR LRCL 311700Z 32008KT 250V010 9999 -SHRA SCT022
                        SCT028CB BKN041 18/14 Q1019 RETS
                        R07/29//95=
201905311730 METAR LRCL 311730Z 02005KT 340V070 7000 -SHRA SCT022 SCT029CB
                        OVC040 16/13 Q1019 R07/29//95=
201905311800 METAR LRCL 311800Z VRB01KT 9999 -RA SCT022 SCT026CB OVC050
                        16/14 Q1019 R07/29//95=
201905311830 METAR LRCL 311830Z 22002KT 9999 -RA FEW025 FEW030CB OVC065
                        15/14 Q1019 R07/29//95=
201905311900 METAR LRCL 311900Z 27003KT 9999 -RA FEW033CB SCT045 OVC068
                        15/14 Q1019 R07/29//95=
201905311930 METAR LRCL 311930Z 00000KT 9999 -RA FEW012 FEW033CB OVC068
                        15/14 Q1019 R07/29//95=
201905312000 METAR LRCL 312000Z 07002KT 9999 -RA FEW026 SCT054 OVC068
                        15/14 Q1019 R07/29//95=
201905312030 METAR LRCL 312030Z 31001KT 9999 -RA FEW026 FEW038CB OVC066
                        15/15 Q1019 R07/29//95=
201905312100 METAR LRCL 312100Z 00000KT 9999 -RA FEW026 FEW040CB BKN058
                        16/15 Q1019 R07/29//95=
201905312130 METAR LRCL 312130Z 00000KT 9999 SCT037 FEW040CB BKN057 15/15
                        Q1019 R07/29//95=
201905312200 METAR LRCL 312200Z 30003KT 9999 BKN040 OVC064 15/14 Q1019
                        R07/29//95=
201905312230 METAR LRCL 312230Z 29005KT 260V320 9999 OVC045 16/15 Q1019
                        R07/29//95=
201905312300 METAR LRCL 312300Z 25003KT 9999 SCT050 OVC066 16/15 Q1019
                        R07/29//95=
201905312330 METAR LRCL 312330Z 27003KT 9999 BKN055 15/15 Q1018 R07/29//95=
