201906010000 METAR LRCL 010000Z VRB01KT CAVOK 15/15 Q1018 R07/29//95=
201906010030 METAR LRCL 010030Z 28003KT CAVOK 15/15 Q1018 R07/29//95=
201906010100 METAR LRCL 010100Z 29003KT CAVOK 15/14 Q1018 R07/29//95=
201906010130 METAR LRCL 010130Z 00000KT CAVOK 15/14 Q1018 R07/29//95=
201906010200 METAR LRCL 010200Z 28004KT CAVOK 15/14 Q1017=
201906010230 METAR LRCL 010230Z 27003KT 240V300 9999 SCT057 15/14 Q1017=
201906010300 METAR LRCL 010300Z 27003KT 9999 BKN057 15/14 Q1017=
201906010330 METAR LRCL 010330Z 28003KT 260V320 9999 BKN060 15/14 Q1017=
201906010400 METAR LRCL 010400Z 27005KT 230V290 9999 SCT064 15/14 Q1017=
201906010430 METAR COR LRCL 010430Z 27005KT 9999 FEW062 16/14 Q1017=
201906010500 METAR LRCL 010500Z 25004KT 220V280 9999 FEW060 16/14 Q1017=
201906010530 METAR LRCL 010530Z VRB02KT 9999 SCT067 17/13 Q1017=
201906010600 METAR LRCL 010600Z VRB02KT 9999 BKN060 17/13 Q1018=
201906010630 METAR LRCL 010630Z VRB01KT 9999 BKN064 17/13 Q1018=
201906010700 METAR COR LRCL 010700Z 00000KT 9999 SCT045 BKN067 17/13 Q1018=
201906010730 METAR LRCL 010730Z 00000KT 9999 BKN041 17/14 Q1018=
201906010800 METAR COR LRCL 010800Z 15007KT 9999 BKN043 17/12 Q1018=
201906010830 METAR LRCL 010830Z VRB02KT 9999 -RA FEW043 BKN054 16/13 Q1018
                        R07/29//95=
201906010900 METAR LRCL 010900Z VRB01KT 9999 -RA FEW055 BKN065 16/13 Q1018
                        R07/29//95=
201906010930 METAR LRCL 010930Z VRB03KT 9999 FEW030 BKN065 17/13 Q1018
                        R07/29//95=
201906011000 METAR LRCL 011000Z VRB01KT 9999 SCT035 19/13 Q1018 R07/29//95=
201906011030 METAR LRCL 011030Z VRB01KT 9999 FEW030 19/14 Q1018 R07/CLRD//=
201906011100 METAR LRCL 011100Z 00000KT 9999 FEW040 SCT065 19/13 Q1018
                        R07/CLRD//=
201906011130 METAR LRCL 011130Z VRB01KT 9999 FEW028 SCT068 20/13 Q1018=
201906011200 METAR LRCL 011200Z 08003KT 9999 FEW033 20/13 Q1018=
201906011230 METAR LRCL 011230Z 07008KT 9999 SCT027 SCT061 19/14 Q1018=
201906011300 METAR LRCL 011300Z 09010KT 9999 SCT023 BKN061 19/13 Q1018=
201906011330 METAR COR LRCL 011330Z 07007KT 020V100 9999 FEW023 SCT065CB
                        19/13 Q1018=
201906011400 METAR LRCL 011400Z 06005KT 020V100 9999 SCT060CB 18/13 Q1018=
201906011430 METAR LRCL 011430Z 04007KT 9999 -SHRA FEW028 SCT060CB 17/12
                        Q1018=
201906011500 METAR LRCL 011500Z 05003KT 9999 -SHRA FEW028 SCT055CB 17/14
                        Q1018 R07/29//95=
201906011530 METAR LRCL 011530Z 00000KT 9999 FEW028 SCT060 16/13 Q1017
                        R07/29//95=
201906011600 METAR LRCL 011600Z 27003KT 9999 -RA BKN067 17/14 Q1017 R07/29//95=
201906011630 METAR LRCL 011630Z 27005KT 9999 FEW033 BKN067 16/14 Q1017
                        R07/29//95=
201906011700 METAR COR LRCL 011700Z 27003KT 9999 FEW035 16/13 Q1017 R07/29//95=
201906011730 METAR LRCL 011730Z 31003KT 270V350 CAVOK 16/13 Q1017 R07/19//95=
201906011800 METAR LRCL 011800Z 31003KT CAVOK 16/13 Q1017 R07/19//95=
201906011830 METAR LRCL 011830Z 25003KT CAVOK 16/13 Q1017 R07/19//95=
201906011900 METAR LRCL 011900Z 34001KT CAVOK 16/14 Q1017 R07/19//95=
201906011930 METAR LRCL 011930Z 25003KT CAVOK 15/13 Q1017 R07/19//95=
201906012000 METAR LRCL 012000Z 00000KT CAVOK 15/14 Q1018 R07/CLRD//=
201906012030 METAR LRCL 012030Z 28003KT CAVOK 14/13 Q1018=
201906012100 METAR LRCL 012100Z VRB01KT CAVOK 14/13 Q1018=
201906012130 METAR LRCL 012130Z 00000KT CAVOK 14/13 Q1018=
201906012200 METAR LRCL 012200Z 00000KT CAVOK 14/13 Q1018=
201906012230 METAR LRCL 012230Z VRB01KT CAVOK 13/13 Q1018=
201906012300 METAR LRCL 012300Z VRB01KT CAVOK 13/13 Q1018=
201906012330 METAR LRCL 012330Z 24002KT CAVOK 13/13 Q1018=
201906020000 METAR LRCL 020000Z VRB01KT 9999 SCT075 13/12 Q1018=
201906020030 METAR LRCL 020030Z 26002KT CAVOK 13/12 Q1018=
201906020100 METAR LRCL 020100Z VRB02KT CAVOK 13/12 Q1018=
201906020130 METAR LRCL 020130Z 00000KT CAVOK 13/12 Q1018=
201906020200 METAR LRCL 020200Z 00000KT CAVOK 13/12 Q1018=
201906020230 METAR LRCL 020230Z 25002KT CAVOK 13/12 Q1018=
201906020300 METAR LRCL 020300Z 28002KT CAVOK 13/12 Q1018=
201906020330 METAR LRCL 020330Z VRB01KT CAVOK 14/12 Q1018=
201906020400 METAR LRCL 020400Z 29001KT CAVOK 14/12 Q1018=
201906020430 METAR LRCL 020430Z 09004KT 070V130 CAVOK 14/13 Q1018=
201906020500 METAR LRCL 020500Z 08005KT 0650 R25/0375V0600N FG BKN001
                        14/13 Q1018=
201906020530 METAR LRCL 020530Z 07004KT 0800 R25/0750V1100D FG BKN001
                        14/13 Q1018=
201906020600 METAR LRCL 020600Z 09006KT 050V110 1800 BR FEW001 BKN002
                        14/13 Q1019=
201906020630 METAR LRCL 020630Z 08005KT 050V110 6000 FEW001 SCT002 15/14
                        Q1019=
201906020700 METAR LRCL 020700Z 06004KT 7000 FEW002 16/15 Q1019=
201906020730 METAR LRCL 020730Z 08006KT 9999 FEW004 18/15 Q1019=
201906020800 METAR LRCL 020800Z 08006KT 9999 FEW020 18/14 Q1019=
201906020830 METAR LRCL 020830Z 07004KT 9999 FEW020 20/14 Q1019=
201906020900 METAR LRCL 020900Z 09004KT 030V150 9999 FEW020 21/13 Q1019=
201906020930 METAR COR LRCL 020930Z 11004KT 9999 FEW025 22/13 Q1018=
201906021000 METAR LRCL 021000Z VRB03KT 9999 FEW025 22/11 Q1018=
201906021030 METAR LRCL 021030Z VRB02KT 9999 FEW025 23/11 Q1018=
201906021100 METAR LRCL 021100Z VRB03KT 9999 FEW025 23/12 Q1018=
201906021130 METAR LRCL 021130Z VRB03KT 9999 FEW025 23/11 Q1017=
201906021200 METAR LRCL 021200Z 08005KT 9999 FEW025 24/11 Q1017=
201906021230 METAR LRCL 021230Z 06005KT 9999 FEW025 24/11 Q1017=
201906021300 METAR LRCL 021300Z 05005KT 9999 FEW025 24/11 Q1017=
201906021330 METAR LRCL 021330Z VRB03KT 9999 FEW025 25/12 Q1016=
201906021400 METAR LRCL 021400Z 02003KT 9999 FEW025 25/13 Q1016=
201906021430 METAR LRCL 021430Z 05004KT 9999 FEW025 25/13 Q1016=
201906021500 METAR LRCL 021500Z 06005KT 9999 FEW025 25/13 Q1016=
201906021530 METAR LRCL 021530Z 02005KT 9999 FEW025 25/12 Q1015=
201906021600 METAR LRCL 021600Z 02003KT 9999 FEW030 24/12 Q1015=
201906021630 METAR LRCL 021630Z 04003KT 9999 FEW030CB FEW040 23/13 Q1015=
201906021700 METAR LRCL 021700Z 34005KT 9999 FEW030 FEW040CB 22/14 Q1016=
201906021730 METAR LRCL 021730Z 33006KT 310V010 9999 FEW045TCU 22/14 Q1016=
201906021800 METAR LRCL 021800Z VRB03KT 9999 FEW045TCU 20/15 Q1016=
201906021830 METAR LRCL 021830Z 28005KT 240V300 9999 SCT057CB BKN068 20/15
                        Q1016=
201906021900 METAR LRCL 021900Z VRB02KT 9999 -SHRA SCT050CB BKN067 20/15
                        Q1017=
201906021930 METAR LRCL 021930Z 35003KT 310V120 9999 SCT050CB BKN067 20/15
                        Q1017 R07/19//95=
201906022000 METAR LRCL 022000Z VRB02KT 9999 TS SCT050CB SCT067 18/15
                        Q1017 R07/19//95=
201906022030 METAR LRCL 022030Z 00000KT 9999 SCT055CB SCT067 18/15 Q1017
                        RETS R07/19//95=
201906022100 METAR LRCL 022100Z 32004KT 9999 FEW060 17/14 Q1017 R07/19//95=
201906022130 METAR LRCL 022130Z 27003KT 9999 FEW065CB 16/13 Q1017 R07/CLRD//=
201906022200 METAR LRCL 022200Z 30003KT 9999 FEW067 15/13 Q1017=
201906022230 METAR LRCL 022230Z VRB01KT 9999 FEW067 15/13 Q1017=
201906022300 METAR LRCL 022300Z 30002KT 9999 FEW068 15/14 Q1017=
201906022330 METAR LRCL 022330Z 29002KT CAVOK 15/14 Q1017=
201906030000 METAR LRCL 030000Z 30003KT CAVOK 14/13 Q1016=
201906030030 METAR LRCL 030030Z 29004KT 260V320 CAVOK 15/14 Q1016=
201906030100 METAR LRCL 030100Z 26006KT CAVOK 15/13 Q1016=
201906030130 METAR LRCL 030130Z AUTO 25003KT 9999 BKN120/// 14/13 Q1016=
201906030200 METAR LRCL 030200Z 29004KT 250V330 CAVOK 14/13 Q1016=
201906030230 METAR LRCL 030230Z VRB01KT CAVOK 14/13 Q1016=
201906030300 METAR LRCL 030300Z 28002KT CAVOK 13/13 Q1016=
201906030330 METAR LRCL 030330Z 28004KT CAVOK 14/13 Q1015=
201906030400 METAR LRCL 030400Z 28003KT 230V320 CAVOK 15/13 Q1016=
201906030430 METAR LRCL 030430Z 27003KT 240V320 CAVOK 16/13 Q1016=
201906030500 METAR LRCL 030500Z 27004KT CAVOK 17/14 Q1016=
201906030530 METAR LRCL 030530Z 28003KT 220V330 CAVOK 18/13 Q1016=
201906030600 METAR LRCL 030600Z VRB02KT CAVOK 19/13 Q1016=
201906030630 METAR LRCL 030630Z 00000KT CAVOK 20/12 Q1016=
201906030700 METAR LRCL 030700Z VRB02KT CAVOK 20/13 Q1015=
201906030730 METAR LRCL 030730Z 05003KT 330V130 CAVOK 21/14 Q1015=
201906030800 METAR LRCL 030800Z 04004KT 360V080 9999 FEW033 21/13 Q1015=
201906030830 METAR COR LRCL 030830Z 03004KT 330V110 9999 FEW035 22/12
                        Q1016=
201906030900 METAR LRCL 030900Z 06005KT 350V120 9999 SCT035 22/13 Q1016=
201906030930 METAR LRCL 030930Z AUTO 09003KT 040V130 9999 SCT041/// BKN110///
                        BKN150/// 22/14 Q1016=
201906031000 METAR LRCL 031000Z 09005KT 030V170 9999 SCT038 21/13 Q1016=
201906031030 METAR LRCL 031030Z 06007KT 030V090 9999 SCT038 21/13 Q1016=
201906031100 METAR LRCL 031100Z 07008KT 040V100 9999 FEW038CB SCT040 22/13
                        Q1016=
201906031130 METAR LRCL 031130Z 06003KT 020V110 9999 -RA SCT038CB SCT045
                        21/13 Q1016=
201906031200 METAR LRCL 031200Z 29004KT 260V330 9999 -SHRA VCTS FEW040CB
                        SCT044 20/15 Q1016=
201906031230 METAR LRCL 031230Z 13013KT 090V150 8000 SHRA BKN031CB BKN038
                        17/16 Q1016 R07/29//95=
201906031300 METAR LRCL 031300Z VRB01KT 9999 -SHRA SCT034CB BKN042 17/16
                        Q1016 RESHRA R07/29//95=
201906031330 METAR LRCL 031330Z 28003KT 230V300 9999 -SHRA FEW045CB SCT048
                        17/16 Q1016 R07/19//95=
201906031400 METAR LRCL 031400Z 26003KT 230V310 9999 FEW046CB SCT048 18/15
                        Q1015 R07/19//95=
201906031430 METAR LRCL 031430Z VRB01KT 9999 BKN050 19/15 Q1015 R07/19//95=
201906031500 METAR LRCL 031500Z VRB01KT 9999 SCT052 20/16 Q1015 R07/15//95=
201906031530 METAR LRCL 031530Z 00000KT 9999 SCT055 20/16 Q1015 R07/15//95=
201906031600 METAR LRCL 031600Z VRB02KT 9999 SCT053 20/16 Q1015 R07/15//95=
201906031630 METAR LRCL 031630Z 23003KT 180V270 9999 FEW066 19/16 Q1015
                        R07/15//95=
201906031700 METAR COR LRCL 031700Z 26003KT 220V290 9999 FEW065 19/16
                        Q1015 R07/CLRD//=
201906031730 METAR LRCL 031730Z 00000KT CAVOK 19/16 Q1015=
201906031800 METAR LRCL 031800Z 30002KT CAVOK 18/16 Q1015=
201906031830 METAR LRCL 031830Z 33002KT CAVOK 18/16 Q1015=
201906031900 METAR LRCL 031900Z 00000KT 9999 FEW060 18/16 Q1015=
201906031930 METAR LRCL 031930Z VRB01KT 5000 BR NSC 17/16 Q1015=
201906032000 METAR LRCL 032000Z 00000KT 9999 FEW054 16/15 Q1015=
201906032030 METAR LRCL 032030Z 26002KT 9999 SCT052 17/16 Q1015=
201906032100 METAR LRCL 032100Z 27004KT 9999 FEW052 16/15 Q1015=
201906032130 METAR LRCL 032130Z 28003KT 9999 SCT052 17/15 Q1015=
201906032200 METAR LRCL 032200Z 23003KT 9999 BKN051 16/15 Q1015=
201906032230 METAR LRCL 032230Z VRB01KT 9999 -RA OVC055 16/16 Q1015 R07/29//95=
201906032300 METAR LRCL 032300Z VRB02KT 9999 BKN065 16/15 Q1015 R07/29//95=
201906032330 METAR LRCL 032330Z 26003KT 230V290 CAVOK 16/15 Q1015 R07/29//95=
201906040000 METAR LRCL 040000Z 26004KT CAVOK 16/15 Q1014 R07/29//95=
201906040030 METAR LRCL 040030Z 27005KT CAVOK 16/15 Q1014 R07/29//95=
201906040100 METAR LRCL 040100Z 28004KT CAVOK 16/15 Q1014 R07/29//95=
201906040130 METAR LRCL 040130Z 26004KT CAVOK 16/15 Q1014 R07/29//95=
201906040200 METAR LRCL 040200Z VRB02KT CAVOK 15/14 Q1013 R07/29//95=
201906040230 METAR LRCL 040230Z 29004KT CAVOK 15/14 Q1013 R07/29//95=
201906040300 METAR LRCL 040300Z 00000KT CAVOK 15/15 Q1014 R07/15//95=
201906040330 METAR LRCL 040330Z 32002KT CAVOK 15/15 Q1014 R07/15//95=
201906040400 METAR LRCL 040400Z 27003KT 9999 FEW053 16/15 Q1014 R07/15//95=
201906040430 METAR LRCL 040430Z 24004KT 200V270 9999 FEW061 16/15 Q1014
                        R07/15//95=
201906040500 METAR LRCL 040500Z VRB01KT 9999 SCT063 17/15 Q1014 R07/CLRD//=
201906040530 METAR LRCL 040530Z VRB02KT CAVOK 18/15 Q1014=
201906040600 METAR LRCL 040600Z 00000KT CAVOK 19/15 Q1014=
201906040630 METAR LRCL 040630Z VRB01KT 9999 FEW050 20/15 Q1014=
201906040700 METAR LRCL 040700Z VRB02KT 9999 FEW025 21/15 Q1014=
201906040730 METAR LRCL 040730Z VRB02KT 9999 FEW025 22/16 Q1014=
201906040800 METAR LRCL 040800Z 13005KT 9999 SCT030 22/14 Q1014=
201906040830 METAR LRCL 040830Z 10005KT 9999 SCT030 22/13 Q1014=
201906040900 METAR LRCL 040900Z 12007KT 9999 SCT035 23/13 Q1014=
201906040930 METAR LRCL 040930Z 09006KT 060V120 9999 SCT035 23/12 Q1014=
201906041000 METAR LRCL 041000Z 11004KT 9999 SCT040 24/12 Q1014=
201906041030 METAR LRCL 041030Z 13005KT 9999 SCT040 24/12 Q1014=
201906041100 METAR LRCL 041100Z VRB03KT 9999 SCT040 24/13 Q1013=
201906041130 METAR LRCL 041130Z 08003KT 9999 FEW040 24/12 Q1013=
201906041200 METAR LRCL 041200Z 07004KT 9999 FEW044 25/12 Q1012=
201906041230 METAR LRCL 041230Z 07006KT 9999 FEW044 25/13 Q1012=
201906041300 METAR LRCL 041300Z 07006KT 9999 FEW044 FEW050CB 24/13 Q1012=
201906041330 METAR LRCL 041330Z 10010KT 9999 FEW044 24/14 Q1012=
201906041400 METAR LRCL 041400Z 10008KT 9999 FEW044 24/14 Q1011=
201906041430 METAR LRCL 041430Z 09009KT 9999 FEW044 25/13 Q1011=
201906041500 METAR LRCL 041500Z 16009KT 9999 FEW040 24/13 Q1011=
201906041530 METAR LRCL 041530Z 16007KT 9999 FEW040 FEW060CB 24/13 Q1011=
201906041600 METAR LRCL 041600Z 17006KT 9999 FEW040 FEW055CB 24/13 Q1012=
201906041630 METAR LRCL 041630Z 15008KT 120V200 9999 FEW050 FEW052CB 23/12
                        Q1012=
201906041700 METAR LRCL 041700Z 11009KT 080V140 8000 TSRA BKN049 SCT050CB
                        17/14 Q1013=
201906041730 METAR LRCL 041730Z 29006KT 210V310 9999 VCTS FEW049 SCT052CB
                        17/15 Q1012 RETSRA R07/29//95=
201906041800 METAR LRCL 041800Z VRB02KT 9999 FEW050CB 17/15 Q1012 R07/19//95=
201906041830 METAR LRCL 041830Z VRB01KT 9999 FEW050CB 17/16 Q1012 R07/19//95=
201906041900 METAR LRCL 041900Z 00000KT 9999 FEW050CB 17/15 Q1012 R07/19//95=
201906041930 METAR LRCL 041930Z VRB02KT 9999 FEW052 17/15 Q1012 R07/19//95=
201906042000 METAR LRCL 042000Z 05003KT 350V070 9999 FEW061 17/15 Q1012
                        R07/19//95=
201906042030 METAR LRCL 042030Z 07006KT 9999 SHRA SCT062CB 17/15 Q1013
                        R07/19//95=
201906042100 METAR LRCL 042100Z 10006KT 060V130 9999 -SHRA FEW060CB OVC062
                        17/15 Q1013 RESHRA R07/19//95=
201906042130 METAR LRCL 042130Z 12010KT 9999 -RA OVC061 16/14 Q1013 R07/19//95=
201906042200 METAR LRCL 042200Z 15009KT 9999 -RA BKN061 16/13 Q1013 R07/29//95=
201906042230 METAR LRCL 042230Z 11005KT 060V160 5000 -RA BR BKN053 15/14
                        Q1013 R07/29//95=
201906042300 METAR LRCL 042300Z 27004KT 190V350 9999 -RA FEW036 BKN065
                        15/14 Q1013 R07/29//95=
201906042330 METAR LRCL 042330Z VRB02KT 9999 -RA SCT065 15/14 Q1013 R07/29//95=
201906050000 METAR LRCL 050000Z 00000KT 9999 MIFG FEW065 14/14 Q1013 R07/29//95=
201906050030 METAR LRCL 050030Z 11003KT 9999 FEW065 14/13 Q1013 R07/29//95=
201906050100 METAR LRCL 050100Z VRB02KT 9999 MIFG FEW065 14/14 Q1012 R07/29//95=
201906050130 METAR LRCL 050130Z 07005KT 9999 FEW065 14/13 Q1012 R07/29//95=
201906050200 METAR LRCL 050200Z 07004KT CAVOK 13/13 Q1012 R07/29//95=
201906050230 METAR COR LRCL 050230Z VRB01KT CAVOK 13/13 Q1012 R07/29//95=
201906050300 METAR LRCL 050300Z 11003KT CAVOK 13/13 Q1012 R07/19//95=
201906050330 METAR LRCL 050330Z 06003KT CAVOK 13/12 Q1013 R07/CLRD//=
201906050400 METAR LRCL 050400Z 09004KT 060V130 CAVOK 14/13 Q1013=
201906050430 METAR LRCL 050430Z 10003KT 060V140 CAVOK 14/13 Q1013=
201906050500 METAR LRCL 050500Z 12007KT 100V160 9999 FEW009 15/13 Q1013=
201906050530 METAR LRCL 050530Z 11005KT 080V150 9999 BKN009 15/13 Q1013=
201906050600 METAR LRCL 050600Z 20005KT 170V230 9999 BKN010 16/13 Q1013=
201906050630 METAR LRCL 050630Z 14007KT 110V180 9999 BKN014 17/13 Q1013=
201906050700 METAR LRCL 050700Z 13006KT 100V170 9999 SCT016 BKN028 17/13
                        Q1014=
201906050730 METAR LRCL 050730Z 14008KT 110V170 9999 FEW017 SCT028 19/13
                        Q1013=
201906050800 METAR LRCL 050800Z 11009KT 080V140 9999 FEW026 20/13 Q1013=
201906050830 METAR LRCL 050830Z 12006KT 080V170 9999 SCT025 21/14 Q1013=
201906050900 METAR LRCL 050900Z 12008KT 050V150 9999 SCT027 21/11 Q1013=
201906050930 METAR LRCL 050930Z 09007KT 060V130 9999 SCT028 21/12 Q1013=
201906051000 METAR LRCL 051000Z 12007KT 090V160 9999 SCT032 21/12 Q1013=
201906051030 METAR LRCL 051030Z 16008KT 080V210 9999 FEW039TCU SCT044
                        22/12 Q1013=
201906051100 METAR LRCL 051100Z 17012KT 130V200 9999 FEW042TCU SCT050
                        22/12 Q1013=
201906051130 METAR LRCL 051130Z VRB10KT 9999 FEW046TCU SCT055 23/11 Q1013=
201906051200 METAR LRCL 051200Z 17009KT 140V200 9999 FEW046TCU SCT055
                        23/10 Q1013=
201906051230 METAR LRCL 051230Z 17009KT 130V220 9999 FEW047CB SCT055 23/10
                        Q1013=
201906051300 METAR LRCL 051300Z 12011KT 9999 TS SCT043CB BKN061 22/11
                        Q1013=
201906051330 METAR COR LRCL 051330Z 11014KT 9999 TS SCT046CB BKN063 18/10
                        Q1013=
201906051400 METAR LRCL 051400Z 10007KT 070V140 9999 FEW022CB BKN064 19/11
                        Q1013 RETS=
201906051430 METAR LRCL 051430Z 12007KT 060V150 9999 FEW065 20/12 Q1012=
201906051500 METAR LRCL 051500Z 13007KT 110V170 9999 FEW067 21/12 Q1012=
201906051530 METAR LRCL 051530Z 12005KT 090V170 9999 FEW067 21/13 Q1012=
201906051600 METAR LRCL 051600Z 12007KT 090V160 9999 FEW060 21/12 Q1012=
201906051630 METAR LRCL 051630Z 10007KT 9999 FEW050 22/13 Q1012=
201906051700 METAR LRCL 051700Z 11006KT 9999 FEW050CB 20/12 Q1012=
201906051730 METAR LRCL 051730Z 12004KT 9999 FEW050CB 20/13 Q1012=
201906051800 METAR LRCL 051800Z 11005KT 9999 FEW055 19/14 Q1013=
201906051830 METAR COR LRCL 051830Z 11008KT CAVOK 19/14 Q1013=
201906051900 METAR LRCL 051900Z 10005KT CAVOK 18/14 Q1013=
201906051930 METAR LRCL 051930Z VRB02KT 9999 FEW060CB 18/15 Q1014=
201906052000 METAR LRCL 052000Z 10005KT 9999 SCT060CB 18/15 Q1014=
201906052030 METAR LRCL 052030Z 11006KT 9999 SCT060CB 18/14 Q1014=
201906052100 METAR LRCL 052100Z 10006KT 9999 SCT060CB 18/14 Q1014=
201906052130 METAR LRCL 052130Z 07005KT 9999 SCT060CB 17/14 Q1014=
201906052200 METAR LRCL 052200Z 10003KT 9999 FEW055CB 16/14 Q1014 R07/19//95=
201906052230 METAR LRCL 052230Z 04003KT 9999 FEW050CB 16/14 Q1014 R07/19//95=
201906052300 METAR LRCL 052300Z 02003KT 9999 -SHRA SCT060CB 16/14 Q1014
                        R07/19//95=
201906052330 METAR LRCL 052330Z 00000KT 9999 FEW060CB 16/14 Q1014 R07/19//95=
201906060000 METAR LRCL 060000Z 07003KT CAVOK 15/13 Q1013 R07/19//95=
201906060030 METAR LRCL 060030Z 08003KT CAVOK 15/13 Q1014 R07/19//95=
201906060100 METAR LRCL 060100Z 06005KT CAVOK 15/13 Q1014 R07/19//95=
201906060130 METAR LRCL 060130Z VRB01KT CAVOK 15/13 Q1014 R07/19//95=
201906060200 METAR LRCL 060200Z 07003KT CAVOK 14/13 Q1014 R07/19//95=
201906060230 METAR LRCL 060230Z 06004KT CAVOK 14/13 Q1014 R07/19//95=
201906060300 METAR LRCL 060300Z 09005KT CAVOK 14/13 Q1014 R07/CLRD//=
201906060330 METAR LRCL 060330Z 14003KT CAVOK 14/13 Q1014=
201906060400 METAR LRCL 060400Z 07003KT CAVOK 15/13 Q1014=
201906060430 METAR LRCL 060430Z 08005KT CAVOK 15/14 Q1014=
201906060500 METAR LRCL 060500Z 07004KT 9999 FEW015 SCT050 15/14 Q1014=
201906060530 METAR LRCL 060530Z 07005KT 9999 FEW015 SCT050 15/14 Q1014=
201906060600 METAR LRCL 060600Z 08007KT 9999 FEW016 16/14 Q1015=
201906060630 METAR LRCL 060630Z 08007KT 9999 FEW018 17/15 Q1015=
201906060700 METAR LRCL 060700Z 10008KT 060V130 9999 FEW010 SCT017 19/15
                        Q1015=
201906060730 METAR LRCL 060730Z 09009KT 070V130 9999 SCT020 FEW030CB 19/14
                        Q1015=
201906060800 METAR LRCL 060800Z 12008KT 9999 SCT022 FEW030CB 20/14 Q1015=
201906060830 METAR LRCL 060830Z 14009KT 110V180 9999 SCT022 FEW032TCU
                        20/13 Q1015=
201906060900 METAR LRCL 060900Z 10008KT 070V130 9999 SCT025 FEW032TCU
                        20/14 Q1015=
201906060930 METAR LRCL 060930Z 11005KT 060V170 9999 SCT027 FEW032CB 21/14
                        Q1015=
201906061000 METAR LRCL 061000Z 13009KT 100V180 9999 SCT028 FEW032CB 22/14
                        Q1014=
201906061030 METAR LRCL 061030Z 12009KT 080V140 9999 VCSH SCT028 FEW033CB
                        22/13 Q1014 RETS=
201906061100 METAR LRCL 061100Z 29009KT 260V330 9999 TS VCSH SCT030CB
                        SCT033 21/13 Q1015=
201906061130 METAR LRCL 061130Z VRB04KT 7000 -TSRA SCT030CB BKN036 15/13
                        Q1015 RESHRA R07/29//95=
201906061200 METAR COR LRCL 061200Z 35003KT 290V030 9999 FEW036CB SCT039
                        BKN064 18/14 Q1015 RETS R07/29//95=
201906061230 METAR LRCL 061230Z VRB01KT 9999 FEW036CB SCT039 21/12 Q1015
                        R07/15//95=
201906061300 METAR LRCL 061300Z VRB01KT 9999 FEW040CB SCT043 21/12 Q1014
                        R07/CLRD//=
201906061330 METAR LRCL 061330Z VRB02KT 9999 TS FEW040CB SCT043 22/12
                        Q1014=
201906061400 METAR LRCL 061400Z 27004KT 9999 -TSRA SCT040CB SCT043 BKN067
                        20/15 Q1014=
201906061430 METAR LRCL 061430Z 27005KT 9999 FEW043CB SCT049 20/16 Q1014
                        RETS R07/19//95=
201906061500 METAR LRCL 061500Z VRB01KT 9999 FEW045CB SCT050 21/16 Q1014
                        R07/19//95=
201906061530 METAR LRCL 061530Z VRB02KT 9999 FEW045CB SCT050 22/15 Q1014
                        R07/19//95=
201906061600 METAR LRCL 061600Z 02003KT 340V080 9999 FEW046CB 21/15 Q1014
                        R07/CLRD//=
201906061630 METAR LRCL 061630Z 01004KT 9999 FEW046CB 22/15 Q1014=
201906061700 METAR LRCL 061700Z VRB02KT 9999 FEW050CB 21/15 Q1015=
201906061730 METAR LRCL 061730Z VRB03KT 9999 FEW055CB 20/16 Q1015=
201906061800 METAR LRCL 061800Z VRB01KT 9999 FEW055CB SCT065 20/17 Q1015=
201906061830 METAR LRCL 061830Z 00000KT 9999 FEW065 18/16 Q1015=
201906061900 METAR LRCL 061900Z VRB02KT 9999 FEW065 18/15 Q1015=
201906061930 METAR LRCL 061930Z 20004KT 9999 FEW065 17/15 Q1016=
201906062000 METAR LRCL 062000Z 31003KT 9999 FEW067 16/15 Q1016=
201906062030 METAR LRCL 062030Z 24005KT 9999 FEW067 16/14 Q1016=
201906062100 METAR LRCL 062100Z VRB01KT 9999 FEW067 16/15 Q1016=
201906062130 METAR LRCL 062130Z 27003KT 8000 FEW067 16/15 Q1016=
201906062200 METAR LRCL 062200Z 00000KT 9999 FEW067 16/15 Q1016=
201906062230 METAR LRCL 062230Z VRB01KT 9999 FEW067 16/15 Q1016=
201906062300 METAR LRCL 062300Z 00000KT 9999 -RA SCT067 16/15 Q1016=
201906062330 METAR LRCL 062330Z VRB02KT 9999 FEW067 16/15 Q1016=
201906070000 METAR COR LRCL 070000Z 25006KT CAVOK 16/14 Q1016=
201906070030 METAR COR LRCL 070030Z 00000KT CAVOK 17/14 Q1016=
201906070100 METAR COR LRCL 070100Z 10005KT 5000 BR FEW067 16/15 Q1016=
201906070130 METAR COR LRCL 070130Z VRB02KT 5000 BR FEW067 15/15 Q1016=
201906070200 METAR COR LRCL 070200Z VRB01KT 3000 BR NSC 15/14 Q1016=
201906070230 METAR LRCL 070230Z 30003KT 1500 BR NSC 14/14 Q1017=
201906070300 METAR LRCL 070300Z VRB02KT 5000 BR NSC 14/14 Q1017=
201906070330 METAR LRCL 070330Z 28003KT 5000 BR NSC 14/14 Q1017=
201906070400 METAR LRCL 070400Z VRB01KT 6000 FEW002 SCT067 15/14 Q1018=
201906070430 METAR LRCL 070430Z 00000KT 8000 FEW008 16/14 Q1017=
201906070500 METAR LRCL 070500Z 26003KT 9999 FEW055CB SCT065 17/15 Q1018=
201906070530 METAR LRCL 070530Z 00000KT 9999 FEW055CB BKN068 17/15 Q1018=
201906070600 METAR LRCL 070600Z 00000KT 9999 FEW055CB BKN068 18/15 Q1018=
201906070630 METAR LRCL 070630Z 10004KT 070V130 6000 -SHRA FEW017 SCT043CB
                        17/16 Q1019 R07/29//95=
201906070700 METAR LRCL 070700Z 07005KT 7000 FEW020 FEW050CB 17/16 Q1019
                        R07/29//95=
201906070730 METAR LRCL 070730Z 08005KT 040V100 9999 FEW050CB 18/16 Q1019
                        R07/19//95=
201906070800 METAR LRCL 070800Z 06006KT CAVOK 19/16 Q1019 R07/19//95=
201906070830 METAR LRCL 070830Z 07005KT 030V110 CAVOK 20/16 Q1019 R07/CLRD//=
201906070900 METAR LRCL 070900Z 08006KT 040V110 9999 FEW017 22/17 Q1019=
201906070930 METAR LRCL 070930Z 07006KT 030V120 9999 FEW020 22/15 Q1019=
201906071000 METAR LRCL 071000Z 08007KT 050V110 9999 FEW025 22/16 Q1019=
201906071030 METAR LRCL 071030Z 11006KT 070V140 9999 FEW026 FEW030CB 23/15
                        Q1019=
201906071100 METAR LRCL 071100Z 11006KT 040V140 9999 FEW030 FEW033CB 24/15
                        Q1018=
201906071130 METAR LRCL 071130Z 15009KT 120V190 9999 FEW033 FEW035CB 25/16
                        Q1019=
201906071200 METAR LRCL 071200Z 12007KT 090V160 9999 FEW035 FEW038CB 25/16
                        Q1018=
201906071230 METAR LRCL 071230Z 14008KT 9999 FEW035 FEW038CB 24/15 Q1018=
201906071300 METAR LRCL 071300Z 16006KT 140V220 9999 FEW035 24/15 Q1018=
201906071330 METAR LRCL 071330Z 11005KT 070V160 9999 FEW035 FEW038CB 25/15
                        Q1018=
201906071400 METAR LRCL 071400Z 12006KT 9999 FEW035CB 24/15 Q1018=
201906071430 METAR LRCL 071430Z 15007KT 110V170 9999 FEW035CB 25/14 Q1017=
201906071500 METAR LRCL 071500Z 11005KT 050V140 9999 FEW035CB 25/15 Q1018=
201906071530 METAR LRCL 071530Z 11005KT 080V140 9999 FEW035CB 25/15 Q1018=
201906071600 METAR LRCL 071600Z 10005KT 070V150 9999 FEW035CB 25/15 Q1018=
201906071630 METAR LRCL 071630Z 15006KT 9999 FEW035CB SCT068 24/16 Q1018=
201906071700 METAR LRCL 071700Z 12003KT 090V170 9999 FEW040CB BKN057 24/16
                        Q1018=
201906071730 METAR LRCL 071730Z 11003KT 9999 SCT055 23/17 Q1018=
201906071800 METAR LRCL 071800Z 10005KT 9999 SCT055 22/17 Q1018=
201906071830 METAR LRCL 071830Z 07003KT CAVOK 21/17 Q1018=
201906071900 METAR LRCL 071900Z 08004KT CAVOK 20/17 Q1018=
201906071930 METAR LRCL 071930Z 00000KT CAVOK 20/17 Q1019=
201906072000 METAR LRCL 072000Z 00000KT CAVOK 19/17 Q1019=
201906072030 METAR LRCL 072030Z 00000KT CAVOK 18/17 Q1019=
201906072100 METAR LRCL 072100Z VRB02KT 9999 FEW056 18/16 Q1019=
201906072130 METAR LRCL 072130Z VRB01KT 9999 SCT056 18/16 Q1019=
201906072200 METAR LRCL 072200Z 00000KT 9999 SCT055 18/17 Q1019=
201906072230 METAR LRCL 072230Z 28001KT 9999 SCT059 17/16 Q1019=
201906072300 METAR LRCL 072300Z 26002KT 9999 SCT059 17/16 Q1019=
201906072330 METAR LRCL 072330Z 25003KT 9999 SCT064 17/15 Q1019=
201906080000 METAR LRCL 080000Z 23002KT 9999 SCT061 17/16 Q1018=
201906080030 METAR LRCL 080030Z 26004KT CAVOK 16/15 Q1018=
201906080100 METAR LRCL 080100Z 27002KT CAVOK 16/15 Q1018=
201906080130 METAR LRCL 080130Z VRB02KT CAVOK 15/14 Q1018=
201906080200 METAR LRCL 080200Z 00000KT CAVOK 15/14 Q1018=
201906080230 METAR LRCL 080230Z 00000KT CAVOK 14/13 Q1018=
201906080300 METAR LRCL 080300Z 00000KT CAVOK 14/14 Q1018=
201906080330 METAR LRCL 080330Z 00000KT 7000 MIFG NSC 15/14 Q1018=
201906080400 METAR LRCL 080400Z 00000KT 5000 PRFG FEW004 16/14 Q1019=
201906080430 METAR LRCL 080430Z 00000KT 6000 NSC 17/14 Q1019=
201906080500 METAR LRCL 080500Z 00000KT CAVOK 18/14 Q1019=
201906080530 METAR LRCL 080530Z 00000KT CAVOK 19/14 Q1019=
201906080600 METAR LRCL 080600Z VRB01KT CAVOK 20/15 Q1019=
201906080630 METAR LRCL 080630Z 07004KT CAVOK 21/15 Q1019=
201906080700 METAR LRCL 080700Z 06004KT CAVOK 22/17 Q1019=
201906080730 METAR LRCL 080730Z 07005KT CAVOK 23/17 Q1019=
201906080800 METAR LRCL 080800Z 08005KT 9999 FEW025 24/17 Q1019=
201906080830 METAR LRCL 080830Z 09006KT 9999 FEW025 25/16 Q1019=
201906080900 METAR LRCL 080900Z 08006KT 9999 FEW030 25/17 Q1019=
201906080930 METAR LRCL 080930Z 12005KT 9999 FEW030 26/14 Q1019=
201906081000 METAR LRCL 081000Z 11004KT 9999 SCT035 26/15 Q1019=
201906081030 METAR LRCL 081030Z VRB01KT 9999 BKN035 27/13 Q1019=
201906081100 METAR LRCL 081100Z VRB04KT 9999 SCT040 27/15 Q1019=
201906081130 METAR LRCL 081130Z 03003KT 9999 SCT040 27/16 Q1018=
201906081200 METAR LRCL 081200Z VRB03KT 9999 SCT045 27/14 Q1018=
201906081230 METAR LRCL 081230Z VRB02KT 9999 FEW045 27/14 Q1018=
201906081300 METAR LRCL 081300Z VRB02KT 9999 FEW050 28/15 Q1018=
201906081330 METAR LRCL 081330Z VRB02KT 9999 FEW050 28/15 Q1018=
201906081400 METAR LRCL 081400Z VRB02KT 9999 SCT050 28/14 Q1018=
201906081430 METAR LRCL 081430Z 05003KT 9999 SCT050 28/15 Q1018=
201906081500 METAR LRCL 081500Z 03003KT 9999 SCT050 28/14 Q1018=
201906081530 METAR LRCL 081530Z 32003KT 9999 SCT050 26/15 Q1018=
201906081600 METAR LRCL 081600Z 34007KT 310V010 9999 SCT055 27/16 Q1018=
201906081630 METAR LRCL 081630Z 36006KT 9999 SCT057 26/16 Q1018=
201906081700 METAR LRCL 081700Z 36006KT 9999 FEW059 FEW061TCU 26/17 Q1019=
201906081730 METAR LRCL 081730Z 34007KT 9999 FEW060 FEW063CB 25/17 Q1019=
201906081800 METAR LRCL 081800Z 33007KT 9999 FEW067 24/16 Q1019=
201906081830 METAR LRCL 081830Z 32006KT 9999 FEW068 23/16 Q1019=
201906081900 METAR LRCL 081900Z 33007KT CAVOK 23/16 Q1019=
201906081930 METAR LRCL 081930Z VRB01KT CAVOK 21/17 Q1020=
201906082000 METAR LRCL 082000Z 24005KT 210V270 CAVOK 22/16 Q1020=
201906082030 METAR LRCL 082030Z 26005KT CAVOK 21/16 Q1020=
201906082100 METAR LRCL 082100Z 26003KT CAVOK 20/16 Q1021=
201906082130 METAR LRCL 082130Z 00000KT CAVOK 19/17 Q1021=
201906082200 METAR LRCL 082200Z 27005KT CAVOK 19/17 Q1021=
201906082230 METAR LRCL 082230Z 28003KT CAVOK 19/17 Q1021=
201906082300 METAR LRCL 082300Z 29005KT CAVOK 19/17 Q1021=
201906082330 METAR LRCL 082330Z 28005KT CAVOK 19/16 Q1021=
201906090000 METAR LRCL 090000Z 29004KT CAVOK 18/16 Q1021=
201906090030 METAR LRCL 090030Z 31003KT 290V010 CAVOK 18/16 Q1021=
201906090100 METAR LRCL 090100Z 28006KT CAVOK 18/16 Q1021=
201906090130 METAR LRCL 090130Z 28006KT CAVOK 18/16 Q1021=
201906090200 METAR LRCL 090200Z 27006KT 230V300 CAVOK 18/16 Q1021=
201906090230 METAR LRCL 090230Z 28003KT CAVOK 17/15 Q1021=
201906090300 METAR LRCL 090300Z 06004KT 020V090 CAVOK 17/16 Q1022=
201906090330 METAR LRCL 090330Z 00000KT CAVOK 17/16 Q1022=
201906090400 METAR LRCL 090400Z 26003KT CAVOK 18/16 Q1022=
201906090430 METAR LRCL 090430Z 26004KT 230V290 CAVOK 20/16 Q1022=
201906090500 METAR LRCL 090500Z 27004KT 230V300 CAVOK 20/16 Q1023=
201906090530 METAR LRCL 090530Z 27004KT 230V320 CAVOK 22/17 Q1023=
201906090600 METAR LRCL 090600Z 28004KT CAVOK 23/17 Q1023=
201906090630 METAR LRCL 090630Z 26003KT CAVOK 24/16 Q1023=
201906090700 METAR LRCL 090700Z VRB01KT CAVOK 24/17 Q1023=
201906090730 METAR LRCL 090730Z VRB02KT CAVOK 26/17 Q1023=
201906090800 METAR LRCL 090800Z VRB01KT 9999 FEW033 26/16 Q1023=
201906090830 METAR LRCL 090830Z 05005KT 020V100 9999 FEW033 25/16 Q1023=
201906090900 METAR LRCL 090900Z VRB03KT 9999 FEW033 26/17 Q1023=
201906090930 METAR LRCL 090930Z VRB02KT 9999 FEW033 27/16 Q1023=
201906091000 METAR LRCL 091000Z 09004KT 9999 FEW033 26/15 Q1023=
201906091030 METAR LRCL 091030Z 11004KT 9999 FEW040 27/14 Q1022=
201906091100 METAR LRCL 091100Z VRB03KT 9999 FEW040 28/15 Q1022=
201906091130 METAR LRCL 091130Z 33003KT 9999 FEW050 28/13 Q1022=
201906091200 METAR LRCL 091200Z VRB01KT 9999 FEW050 28/13 Q1022=
201906091230 METAR LRCL 091230Z VRB02KT 9999 FEW050CB 29/11 Q1021=
201906091300 METAR LRCL 091300Z 05003KT 350V120 9999 FEW050CB 28/13 Q1021=
201906091330 METAR LRCL 091330Z 05004KT 9999 FEW040 FEW050CB 29/13 Q1021=
201906091400 METAR LRCL 091400Z VRB03KT 9999 FEW040 FEW050CB 28/13 Q1020=
201906091430 METAR LRCL 091430Z 03004KT 9999 FEW040 FEW050CB 28/13 Q1020=
201906091500 METAR LRCL 091500Z 02005KT 9999 FEW040 FEW050CB 28/13 Q1020=
201906091530 METAR LRCL 091530Z 02003KT 9999 FEW050 28/13 Q1020=
201906091600 METAR LRCL 091600Z 01004KT 9999 FEW050 28/13 Q1020=
201906091630 METAR LRCL 091630Z 01004KT 9999 FEW050 28/14 Q1020=
201906091700 METAR LRCL 091700Z 36003KT 9999 FEW050 28/13 Q1020=
201906091730 METAR LRCL 091730Z 02004KT CAVOK 26/17 Q1020=
201906091800 METAR LRCL 091800Z 04003KT CAVOK 24/18 Q1020=
201906091830 METAR LRCL 091830Z 01004KT CAVOK 23/18 Q1020=
201906091900 METAR LRCL 091900Z VRB01KT CAVOK 24/17 Q1021=
201906091930 METAR LRCL 091930Z 00000KT CAVOK 23/17 Q1021=
201906092000 METAR LRCL 092000Z 08002KT CAVOK 22/17 Q1021=
201906092030 METAR LRCL 092030Z VRB01KT CAVOK 21/18 Q1021=
201906092100 METAR LRCL 092100Z 00000KT CAVOK 20/17 Q1021=
201906092130 METAR LRCL 092130Z 00000KT CAVOK 20/18 Q1021=
201906092200 METAR LRCL 092200Z VRB01KT CAVOK 19/17 Q1021=
201906092230 METAR LRCL 092230Z 00000KT CAVOK 19/17 Q1021=
201906092300 METAR LRCL 092300Z VRB01KT CAVOK 19/17 Q1021=
201906092330 METAR LRCL 092330Z 11003KT 080V150 CAVOK 18/17 Q1021=
201906100000 METAR LRCL 100000Z 00000KT CAVOK 18/16 Q1021=
201906100030 METAR LRCL 100030Z 00000KT CAVOK 17/16 Q1021=
201906100100 METAR LRCL 100100Z 00000KT CAVOK 17/16 Q1021=
201906100130 METAR LRCL 100130Z 00000KT CAVOK 16/15 Q1021=
201906100200 METAR LRCL 100200Z 00000KT CAVOK 16/15 Q1021=
201906100230 METAR LRCL 100230Z 08001KT 9999 MIFG NSC 16/15 Q1021=
201906100300 METAR LRCL 100300Z 00000KT 9999 MIFG NSC 16/15 Q1021=
201906100330 METAR LRCL 100330Z 24003KT CAVOK 17/15 Q1021=
201906100400 METAR LRCL 100400Z 00000KT CAVOK 18/16 Q1021=
201906100430 METAR LRCL 100430Z 27003KT CAVOK 19/15 Q1020=
201906100500 METAR LRCL 100500Z VRB01KT CAVOK 20/16 Q1021=
201906100530 METAR LRCL 100530Z 00000KT CAVOK 22/16 Q1021=
201906100600 METAR LRCL 100600Z 00000KT CAVOK 22/16 Q1020=
201906100630 METAR LRCL 100630Z VRB01KT CAVOK 23/16 Q1020=
201906100700 METAR LRCL 100700Z 09003KT 030V140 CAVOK 24/16 Q1020=
201906100730 METAR LRCL 100730Z 06003KT 350V110 CAVOK 25/17 Q1020=
201906100800 METAR LRCL 100800Z 09003KT 030V170 CAVOK 26/15 Q1020=
201906100830 METAR LRCL 100830Z 10005KT 060V140 CAVOK 26/17 Q1020=
201906100900 METAR LRCL 100900Z 10006KT 070V140 9999 FEW030 26/15 Q1020=
201906100930 METAR LRCL 100930Z 15005KT 050V200 9999 SCT030 27/16 Q1019=
201906101000 METAR LRCL 101000Z 11007KT 080V190 9999 SCT033 27/15 Q1019=
201906101030 METAR LRCL 101030Z 09006KT 050V120 9999 SCT033 27/16 Q1019=
201906101100 METAR LRCL 101100Z 11007KT 060V150 9999 BKN034 27/14 Q1018=
201906101130 METAR LRCL 101130Z 11007KT 080V140 9999 BKN035 28/14 Q1018=
201906101200 METAR LRCL 101200Z 15005KT 100V190 9999 SCT036 28/13 Q1018=
201906101230 METAR LRCL 101230Z 12004KT 050V210 9999 FEW038CB SCT040 29/14
                        Q1017=
201906101300 METAR LRCL 101300Z 15004KT 090V220 9999 FEW038CB BKN040 28/14
                        Q1017=
201906101330 METAR LRCL 101330Z 14003KT 080V200 9999 TS FEW040CB BKN042
                        30/15 Q1017=
201906101400 METAR LRCL 101400Z 08018KT 9999 SCT040CB BKN043 26/15 Q1017
                        RETS=
201906101430 METAR LRCL 101430Z 09006KT 9999 FEW042TCU FEW044CB BKN046
                        23/17 Q1017=
201906101500 METAR LRCL 101500Z VRB02KT 9999 FEW043TCU BKN045 23/16 Q1017=
201906101530 METAR LRCL 101530Z VRB02KT 9999 FEW043TCU SCT045 24/15 Q1016=
201906101600 METAR LRCL 101600Z 06003KT 040V100 9999 SCT045 25/16 Q1016=
201906101630 METAR LRCL 101630Z 07002KT 9999 FEW045 24/17 Q1017=
201906101700 METAR LRCL 101700Z 12008KT 9999 FEW045 23/16 Q1017=
201906101730 METAR LRCL 101730Z 12005KT 090V170 9999 FEW045CB 23/13 Q1017=
201906101800 METAR LRCL 101800Z 13004KT 090V170 9999 FEW045CB 23/13 Q1017=
201906101830 METAR LRCL 101830Z 12005KT 080V160 9999 FEW045CB 22/13 Q1018=
201906101900 METAR LRCL 101900Z 09006KT 060V130 9999 FEW045CB 21/14 Q1018=
201906101930 METAR LRCL 101930Z 07004KT 040V100 CAVOK 20/14 Q1018=
201906102000 METAR LRCL 102000Z 08002KT CAVOK 19/15 Q1017=
201906102030 METAR LRCL 102030Z 05005KT CAVOK 19/15 Q1017=
201906102100 METAR LRCL 102100Z 11005KT CAVOK 17/15 Q1018=
201906102130 METAR COR LRCL 102130Z 04003KT CAVOK 18/15 Q1017=
201906102200 METAR COR LRCL 102200Z 09005KT CAVOK 17/15 Q1018=
201906102230 METAR LRCL 102230Z 06004KT 020V080 CAVOK 17/15 Q1018=
201906102300 METAR LRCL 102300Z VRB01KT CAVOK 16/15 Q1018=
201906102330 METAR LRCL 102330Z 07003KT 050V130 CAVOK 16/14 Q1017=
201906110000 METAR LRCL 110000Z VRB01KT CAVOK 16/14 Q1017=
201906110030 METAR LRCL 110030Z VRB02KT CAVOK 15/14 Q1017=
201906110100 METAR LRCL 110100Z 08003KT CAVOK 15/14 Q1017=
201906110130 METAR LRCL 110130Z 12003KT CAVOK 15/14 Q1016=
201906110200 METAR LRCL 110200Z 00000KT CAVOK 15/14 Q1016=
201906110230 METAR LRCL 110230Z 00000KT CAVOK 15/14 Q1016=
201906110300 METAR LRCL 110300Z 00000KT CAVOK 15/14 Q1017=
201906110330 METAR LRCL 110330Z 00000KT CAVOK 16/14 Q1017=
201906110400 METAR LRCL 110400Z 24002KT CAVOK 16/14 Q1017=
201906110430 METAR LRCL 110430Z 26003KT 220V290 CAVOK 17/14 Q1017=
201906110500 METAR LRCL 110500Z 28004KT 240V320 CAVOK 19/14 Q1017=
201906110530 METAR LRCL 110530Z 26003KT 220V300 CAVOK 20/14 Q1016=
201906110600 METAR LRCL 110600Z 27003KT 240V320 CAVOK 21/14 Q1016=
201906110630 METAR LRCL 110630Z 26003KT 230V290 CAVOK 21/14 Q1016=
201906110700 METAR LRCL 110700Z 00000KT CAVOK 22/14 Q1016=
201906110730 METAR LRCL 110730Z VRB01KT CAVOK 24/15 Q1017=
201906110800 METAR LRCL 110800Z VRB01KT 9999 FEW040 25/15 Q1016=
201906110830 METAR LRCL 110830Z 12004KT 070V160 9999 FEW045CB 24/16 Q1017=
201906110900 METAR LRCL 110900Z 15011G21KT 9999 -SHRA FEW028 SCT030CB
                        20/15 Q1018 R07/29//95=
201906110930 METAR LRCL 110930Z 34003KT 240V030 9999 -SHRA FEW030 SCT032CB
                        20/16 Q1018 R07/29//95=
201906111000 METAR LRCL 111000Z 28007KT 9999 SCT035CB BKN065 19/16 Q1017
                        R07/29//95=
201906111030 METAR LRCL 111030Z 26006KT 230V300 9999 FEW038CB SCT065 21/16
                        Q1017 R07/29//95=
201906111100 METAR LRCL 111100Z 27007KT 240V300 9999 FEW033CB SCT065 21/16
                        Q1017 R07/29//95=
201906111130 METAR LRCL 111130Z 26008KT 9999 BKN065 23/16 Q1017 R07/15//95=
201906111200 METAR LRCL 111200Z 26004KT 190V310 9999 SCT046 25/15 Q1016=
201906111230 METAR LRCL 111230Z VRB01KT 9999 SCT046 25/13 Q1016=
201906111300 METAR LRCL 111300Z 00000KT 9999 FEW050 27/13 Q1015=
201906111330 METAR LRCL 111330Z VRB02KT 9999 FEW050 27/14 Q1015=
201906111400 METAR LRCL 111400Z VRB02KT 9999 FEW050 27/13 Q1015=
201906111430 METAR LRCL 111430Z 00000KT 9999 FEW050 28/14 Q1015=
201906111500 METAR LRCL 111500Z VRB02KT CAVOK 27/15 Q1015=
201906111530 METAR LRCL 111530Z VRB01KT CAVOK 28/14 Q1015=
201906111600 METAR LRCL 111600Z VRB01KT CAVOK 28/14 Q1015=
201906111630 METAR LRCL 111630Z 00000KT CAVOK 27/15 Q1015=
201906111700 METAR LRCL 111700Z 34002KT CAVOK 27/16 Q1015=
201906111730 METAR LRCL 111730Z 35002KT CAVOK 26/17 Q1015=
201906111800 METAR COR LRCL 111800Z 00000KT CAVOK 24/18 Q1015=
201906111830 METAR LRCL 111830Z 00000KT 9999 FEW067 23/18 Q1016=
201906111900 METAR LRCL 111900Z VRB02KT CAVOK 22/17 Q1016=
201906111930 METAR LRCL 111930Z 27003KT CAVOK 21/16 Q1016=
201906112000 METAR LRCL 112000Z 28003KT CAVOK 20/17 Q1016=
201906112030 METAR LRCL 112030Z 26003KT CAVOK 20/17 Q1016=
201906112100 METAR LRCL 112100Z 27003KT CAVOK 19/17 Q1016=
201906112130 METAR LRCL 112130Z 00000KT CAVOK 19/16 Q1016=
201906112200 METAR LRCL 112200Z 27004KT CAVOK 18/16 Q1016=
201906112230 METAR LRCL 112230Z 28003KT CAVOK 18/16 Q1016=
201906112300 METAR LRCL 112300Z 00000KT CAVOK 17/16 Q1016=
201906112330 METAR LRCL 112330Z 00000KT CAVOK 17/16 Q1016=
201906120000 METAR LRCL 120000Z VRB01KT CAVOK 16/15 Q1017=
201906120030 METAR LRCL 120030Z 26003KT CAVOK 16/15 Q1017=
201906120100 METAR LRCL 120100Z 26003KT CAVOK 16/15 Q1017=
201906120130 METAR LRCL 120130Z 25003KT CAVOK 16/15 Q1016=
201906120200 METAR LRCL 120200Z 26003KT CAVOK 16/15 Q1016=
201906120230 METAR LRCL 120230Z 26002KT CAVOK 16/15 Q1017=
201906120300 METAR LRCL 120300Z 25001KT CAVOK 16/15 Q1017=
201906120330 METAR LRCL 120330Z 00000KT CAVOK 16/15 Q1016=
201906120400 METAR LRCL 120400Z 00000KT CAVOK 17/15 Q1016=
201906120430 METAR LRCL 120430Z 23001KT CAVOK 18/16 Q1017=
201906120500 METAR LRCL 120500Z 24002KT CAVOK 19/16 Q1017=
201906120530 METAR LRCL 120530Z 28001KT CAVOK 21/16 Q1017=
201906120600 METAR LRCL 120600Z 00000KT CAVOK 22/15 Q1017=
201906120630 METAR LRCL 120630Z VRB01KT CAVOK 24/15 Q1017=
201906120700 METAR LRCL 120700Z VRB02KT CAVOK 25/14 Q1017=
201906120730 METAR LRCL 120730Z VRB02KT CAVOK 25/15 Q1017=
201906120800 METAR LRCL 120800Z VRB02KT CAVOK 26/15 Q1017=
201906120830 METAR LRCL 120830Z 05004KT 360V100 CAVOK 26/15 Q1017=
201906120900 METAR LRCL 120900Z VRB02KT CAVOK 27/16 Q1017=
201906120930 METAR LRCL 120930Z 08003KT 040V130 CAVOK 28/15 Q1016=
201906121000 METAR LRCL 121000Z 11006KT 040V130 9999 FEW050 28/15 Q1016=
201906121030 METAR LRCL 121030Z VRB03KT 9999 FEW050TCU 29/14 Q1016=
201906121100 METAR LRCL 121100Z 12008KT 090V160 9999 FEW050CB 28/13 Q1016=
201906121130 METAR LRCL 121130Z 16005KT 130V210 9999 FEW050CB 29/13 Q1015=
201906121200 METAR LRCL 121200Z 18005KT 120V230 9999 FEW050CB 28/12 Q1015=
201906121230 METAR LRCL 121230Z 20005KT 150V250 9999 FEW050CB 29/14 Q1015=
201906121300 METAR LRCL 121300Z 26005KT 210V300 9999 FEW060 29/12 Q1015=
201906121330 METAR LRCL 121330Z 24003KT 170V320 CAVOK 28/15 Q1015=
201906121400 METAR LRCL 121400Z 28006KT 250V310 CAVOK 28/16 Q1015=
201906121430 METAR LRCL 121430Z 25008KT CAVOK 27/15 Q1015=
201906121500 METAR LRCL 121500Z 26005KT CAVOK 27/15 Q1015=
201906121530 METAR LRCL 121530Z 27005KT 9999 FEW040 27/17 Q1015=
201906121600 METAR LRCL 121600Z 30006KT 9999 FEW050CB 26/17 Q1016=
201906121630 METAR LRCL 121630Z 27006KT 9999 FEW050CB 26/16 Q1016=
201906121700 METAR LRCL 121700Z 27005KT 9999 FEW050CB 26/16 Q1015=
201906121730 METAR LRCL 121730Z 31003KT 9999 FEW046 25/17 Q1016=
201906121800 METAR LRCL 121800Z VRB01KT 9999 FEW046 23/17 Q1016=
201906121830 METAR LRCL 121830Z 25003KT CAVOK 22/17 Q1016=
201906121900 METAR LRCL 121900Z 07004KT CAVOK 22/17 Q1016=
201906121930 METAR LRCL 121930Z 00000KT CAVOK 21/17 Q1016=
201906122000 METAR LRCL 122000Z 25004KT 230V300 CAVOK 20/16 Q1016=
201906122030 METAR LRCL 122030Z 22003KT CAVOK 20/16 Q1016=
201906122100 METAR LRCL 122100Z 00000KT CAVOK 19/16 Q1016=
201906122130 METAR LRCL 122130Z 00000KT CAVOK 18/16 Q1016=
201906122200 METAR LRCL 122200Z 00000KT CAVOK 18/16 Q1016=
201906122230 METAR LRCL 122230Z 09003KT CAVOK 17/16 Q1017=
201906122300 METAR LRCL 122300Z 00000KT CAVOK 17/16 Q1017=
201906122330 METAR LRCL 122330Z 00000KT CAVOK 17/16 Q1017=
201906130000 METAR LRCL 130000Z VRB01KT CAVOK 16/15 Q1017=
201906130030 METAR LRCL 130030Z 00000KT CAVOK 16/15 Q1017=
201906130100 METAR LRCL 130100Z VRB01KT CAVOK 16/15 Q1017=
201906130130 METAR LRCL 130130Z 08003KT CAVOK 15/14 Q1017=
201906130200 METAR LRCL 130200Z 00000KT CAVOK 15/14 Q1017=
201906130230 METAR LRCL 130230Z 00000KT 9999 MIFG NSC 15/14 Q1017=
201906130300 METAR LRCL 130300Z 00000KT CAVOK 15/14 Q1017=
201906130330 METAR LRCL 130330Z VRB01KT CAVOK 16/15 Q1017=
201906130400 METAR COR LRCL 130400Z 00000KT CAVOK 17/15 Q1017=
201906130430 METAR LRCL 130430Z AUTO 00000KT 9999 NCD 19/15 Q1017=
201906130500 METAR LRCL 130500Z 00000KT CAVOK 19/15 Q1017=
201906130530 METAR LRCL 130530Z 00000KT CAVOK 20/15 Q1017=
201906130600 METAR LRCL 130600Z 06003KT 360V110 CAVOK 20/16 Q1017=
201906130630 METAR LRCL 130630Z 08004KT 050V110 CAVOK 22/17 Q1017=
201906130700 METAR COR LRCL 130700Z 06004KT 350V110 CAVOK 23/17 Q1017=
201906130730 METAR LRCL 130730Z 05005KT 360V110 CAVOK 24/17 Q1017=
201906130800 METAR LRCL 130800Z 09007KT 060V120 CAVOK 25/18 Q1017=
201906130830 METAR LRCL 130830Z 10007KT 070V140 CAVOK 26/18 Q1017=
201906130900 METAR LRCL 130900Z 11006KT CAVOK 27/17 Q1017=
201906130930 METAR LRCL 130930Z 13006KT 9999 FEW050 28/17 Q1017=
201906131000 METAR LRCL 131000Z 13007KT 080V170 9999 FEW050 28/16 Q1017=
201906131030 METAR LRCL 131030Z 16007KT 9999 FEW050 29/15 Q1017=
201906131100 METAR LRCL 131100Z 12007KT 9999 FEW050 29/16 Q1017=
201906131130 METAR LRCL 131130Z 13007KT 100V170 9999 FEW050 30/14 Q1017=
201906131200 METAR LRCL 131200Z 10007KT 9999 FEW050 29/15 Q1016=
201906131230 METAR LRCL 131230Z 09005KT 040V130 9999 FEW050TCU 30/14 Q1016=
201906131300 METAR LRCL 131300Z VRB04KT 9999 FEW050 30/15 Q1016=
201906131330 METAR COR LRCL 131330Z 11005KT 080V140 9999 FEW050 30/14
                        Q1016=
201906131400 METAR LRCL 131400Z 07005KT 030V110 9999 FEW050 30/15 Q1016=
201906131430 METAR LRCL 131430Z 12004KT 070V160 9999 FEW050 30/13 Q1016=
201906131500 METAR LRCL 131500Z 12005KT 060V180 9999 FEW050 30/13 Q1016=
201906131530 METAR LRCL 131530Z 11005KT 070V180 9999 FEW050 30/14 Q1016=
201906131600 METAR LRCL 131600Z 12003KT 9999 FEW055TCU 30/15 Q1016=
201906131630 METAR LRCL 131630Z 10005KT 9999 FEW055TCU 29/15 Q1016=
201906131700 METAR LRCL 131700Z 13004KT CAVOK 29/15 Q1016=
201906131730 METAR LRCL 131730Z 12004KT CAVOK 27/16 Q1015=
201906131800 METAR LRCL 131800Z VRB02KT CAVOK 26/17 Q1016=
201906131830 METAR LRCL 131830Z 00000KT CAVOK 24/18 Q1016=
201906131900 METAR LRCL 131900Z 00000KT CAVOK 23/18 Q1016=
201906131930 METAR LRCL 131930Z 00000KT CAVOK 22/17 Q1016=
201906132000 METAR LRCL 132000Z VRB01KT CAVOK 22/17 Q1017=
201906132030 METAR LRCL 132030Z VRB01KT CAVOK 20/17 Q1017=
201906132100 METAR LRCL 132100Z VRB01KT CAVOK 20/17 Q1017=
201906132130 METAR LRCL 132130Z 00000KT CAVOK 19/17 Q1017=
201906132200 METAR LRCL 132200Z 00000KT CAVOK 19/17 Q1018=
201906132230 METAR LRCL 132230Z 00000KT CAVOK 19/16 Q1018=
201906132300 METAR LRCL 132300Z 00000KT CAVOK 19/17 Q1017=
201906132330 METAR LRCL 132330Z 00000KT CAVOK 18/16 Q1018=
201906140000 METAR LRCL 140000Z VRB02KT CAVOK 18/16 Q1018=
201906140030 METAR LRCL 140030Z 27003KT 240V350 CAVOK 17/16 Q1017=
201906140100 METAR COR LRCL 140100Z 08004KT CAVOK 17/16 Q1018=
201906140130 METAR COR LRCL 140130Z 00000KT CAVOK 17/16 Q1017=
201906140200 METAR LRCL 140200Z 00000KT CAVOK 16/15 Q1017=
201906140230 METAR COR LRCL 140230Z 00000KT CAVOK 16/15 Q1018=
201906140300 METAR LRCL 140300Z 00000KT CAVOK 16/16 Q1018=
201906140330 METAR LRCL 140330Z 00000KT CAVOK 17/16 Q1018=
201906140400 METAR LRCL 140400Z 00000KT CAVOK 19/17 Q1018=
201906140430 METAR LRCL 140430Z 00000KT CAVOK 20/16 Q1018=
201906140500 METAR LRCL 140500Z VRB02KT CAVOK 20/17 Q1019=
201906140530 METAR LRCL 140530Z VRB02KT CAVOK 21/17 Q1019=
201906140600 METAR LRCL 140600Z VRB01KT CAVOK 23/17 Q1019=
201906140630 METAR LRCL 140630Z VRB02KT CAVOK 24/17 Q1019=
201906140700 METAR LRCL 140700Z 07004KT CAVOK 25/18 Q1019=
201906140730 METAR LRCL 140730Z 08005KT 040V120 CAVOK 26/18 Q1019=
201906140800 METAR LRCL 140800Z 08004KT CAVOK 27/18 Q1019=
201906140830 METAR LRCL 140830Z 09005KT 040V130 CAVOK 27/18 Q1019=
201906140900 METAR LRCL 140900Z 12006KT 080V150 CAVOK 28/17 Q1019=
201906140930 METAR LRCL 140930Z 13004KT 070V210 CAVOK 29/17 Q1019=
201906141000 METAR LRCL 141000Z VRB02KT 9999 FEW033 FEW038TCU 29/17 Q1019=
201906141030 METAR LRCL 141030Z 03004KT 350V080 9999 FEW033 FEW038TCU
                        29/16 Q1019=
201906141100 METAR LRCL 141100Z VRB03KT 9999 FEW040 30/16 Q1019=
201906141130 METAR LRCL 141130Z VRB02KT 9999 FEW040 FEW046TCU 31/17 Q1019=
201906141200 METAR LRCL 141200Z 04004KT 9999 FEW040 FEW046TCU 30/16 Q1018=
201906141230 METAR LRCL 141230Z VRB02KT 9999 FEW040TCU FEW046CB 32/16
                        Q1018=
201906141300 METAR LRCL 141300Z VRB01KT 9999 FEW042TCU FEW046CB 31/14
                        Q1018=
201906141330 METAR LRCL 141330Z VRB02KT 9999 FEW043TCU 32/14 Q1018=
201906141400 METAR LRCL 141400Z VRB02KT 9999 FEW044TCU 31/14 Q1018=
201906141430 METAR LRCL 141430Z 02004KT 330V070 9999 FEW045TCU 31/14 Q1018=
201906141500 METAR LRCL 141500Z 01003KT 320V100 9999 FEW046TCU 31/15 Q1018=
201906141530 METAR LRCL 141530Z 36006KT 9999 FEW050TCU 31/14 Q1018=
201906141600 METAR LRCL 141600Z 04005KT 010V070 9999 FEW050TCU 30/15 Q1017=
201906141630 METAR LRCL 141630Z 04004KT 340V070 9999 FEW050TCU 30/16 Q1017=
201906141700 METAR LRCL 141700Z 31003KT 280V340 CAVOK 30/17 Q1017=
201906141730 METAR LRCL 141730Z 01005KT CAVOK 28/18 Q1017=
201906141800 METAR LRCL 141800Z 08005KT 040V100 CAVOK 26/18 Q1018=
201906141830 METAR LRCL 141830Z VRB01KT CAVOK 25/18 Q1019=
201906141900 METAR LRCL 141900Z 00000KT CAVOK 24/18 Q1019=
201906141930 METAR LRCL 141930Z 08003KT CAVOK 24/18 Q1019=
201906142000 METAR LRCL 142000Z VRB02KT CAVOK 23/18 Q1019=
201906142030 METAR LRCL 142030Z 00000KT CAVOK 22/18 Q1019=
201906142100 METAR LRCL 142100Z 30003KT CAVOK 21/18 Q1019=
201906142130 METAR LRCL 142130Z 30002KT CAVOK 21/18 Q1019=
201906142200 METAR COR LRCL 142200Z VRB02KT CAVOK 20/18 Q1019=
201906142230 METAR LRCL 142230Z 00000KT CAVOK 20/18 Q1019=
201906142300 METAR LRCL 142300Z VRB01KT CAVOK 19/17 Q1018=
201906142330 METAR LRCL 142330Z 00000KT CAVOK 19/17 Q1018=
201906150000 METAR LRCL 150000Z 00000KT CAVOK 19/17 Q1018=
201906150030 METAR LRCL 150030Z 10005KT CAVOK 18/16 Q1018=
201906150100 METAR LRCL 150100Z 08005KT CAVOK 18/17 Q1018=
201906150130 METAR LRCL 150130Z 03003KT CAVOK 18/17 Q1018=
201906150200 METAR LRCL 150200Z 03003KT CAVOK 18/17 Q1018=
201906150230 METAR COR LRCL 150230Z 08003KT 030V110 CAVOK 17/16 Q1018=
201906150300 METAR LRCL 150300Z 00000KT CAVOK 17/16 Q1018=
201906150330 METAR LRCL 150330Z 00000KT CAVOK 18/16 Q1018=
201906150400 METAR LRCL 150400Z VRB02KT CAVOK 19/17 Q1018=
201906150430 METAR LRCL 150430Z 09005KT 060V120 CAVOK 19/17 Q1018=
201906150500 METAR LRCL 150500Z 08004KT CAVOK 20/17 Q1018=
201906150530 METAR LRCL 150530Z VRB01KT CAVOK 22/17 Q1018=
201906150600 METAR LRCL 150600Z VRB02KT CAVOK 23/17 Q1018=
201906150630 METAR LRCL 150630Z VRB03KT CAVOK 23/17 Q1018=
201906150700 METAR LRCL 150700Z 06003KT 360V110 CAVOK 24/18 Q1018=
201906150730 METAR LRCL 150730Z 10004KT 040V150 CAVOK 25/18 Q1018=
201906150800 METAR LRCL 150800Z 09005KT 040V120 CAVOK 26/19 Q1018=
201906150830 METAR LRCL 150830Z 10006KT 070V130 CAVOK 27/18 Q1018=
201906150900 METAR LRCL 150900Z 10005KT 060V150 CAVOK 28/20 Q1018=
201906150930 METAR LRCL 150930Z 12005KT 050V160 9999 FEW040 28/18 Q1017=
201906151000 METAR LRCL 151000Z VRB03KT 9999 FEW040 29/19 Q1017=
201906151030 METAR LRCL 151030Z 13004KT 070V190 9999 FEW040 30/19 Q1017=
201906151100 METAR LRCL 151100Z VRB02KT 9999 FEW036 FEW040TCU 30/17 Q1016=
201906151130 METAR LRCL 151130Z 05004KT 330V140 9999 FEW036 FEW040TCU
                        30/17 Q1016=
201906151200 METAR LRCL 151200Z 01004KT 310V080 9999 FEW036 FEW040TCU
                        30/15 Q1016=
201906151230 METAR LRCL 151230Z 02004KT 340V100 9999 FEW036 FEW040TCU
                        31/16 Q1015=
201906151300 METAR LRCL 151300Z VRB02KT 9999 FEW036 FEW040TCU 31/16 Q1015=
201906151330 METAR LRCL 151330Z VRB02KT 9999 FEW036 FEW040TCU 31/16 Q1015=
201906151400 METAR LRCL 151400Z 30004KT 240V010 9999 FEW036 FEW040TCU
                        31/16 Q1015=
201906151430 METAR LRCL 151430Z VRB02KT 9999 FEW036 FEW040CB 31/17 Q1014=
201906151500 METAR LRCL 151500Z 03004KT 320V090 9999 FEW036 FEW040CB 31/16
                        Q1014=
201906151530 METAR LRCL 151530Z 04004KT 350V070 9999 FEW036 FEW040CB 30/17
                        Q1014=
201906151600 METAR LRCL 151600Z 05003KT 020V080 9999 FEW036 FEW040CB 30/16
                        Q1014=
201906151630 METAR LRCL 151630Z 07002KT 9999 TS FEW036 FEW040CB 30/15
                        Q1014=
201906151700 METAR LRCL 151700Z 06003KT 9999 FEW036 FEW040CB 29/18 Q1015
                        RETS=
201906151730 METAR LRCL 151730Z 06003KT 030V110 9999 FEW045CB FEW050 28/18
                        Q1015=
201906151800 METAR LRCL 151800Z 05003KT 350V080 9999 SCT045CB FEW050 28/19
                        Q1015=
201906151830 METAR LRCL 151830Z 33005KT 290V350 9999 SCT045CB SCT050 27/19
                        Q1015=
201906151900 METAR LRCL 151900Z 26006KT 230V310 9999 SCT045CB SCT053 26/17
                        Q1014=
201906151930 METAR LRCL 151930Z 08011KT 050V110 9999 FEW050CB SCT053 24/16
                        Q1015=
201906152000 METAR LRCL 152000Z 06008KT 9999 FEW050CB 23/16 Q1015=
201906152030 METAR LRCL 152030Z 06005KT 030V100 CAVOK 23/16 Q1015=
201906152100 METAR LRCL 152100Z 10004KT CAVOK 22/17 Q1015=
201906152130 METAR LRCL 152130Z VRB02KT CAVOK 22/16 Q1015=
201906152200 METAR LRCL 152200Z VRB01KT CAVOK 21/17 Q1015=
201906152230 METAR LRCL 152230Z 00000KT CAVOK 20/17 Q1015=
201906152300 METAR LRCL 152300Z 05003KT CAVOK 20/17 Q1015=
201906152330 METAR LRCL 152330Z 06003KT CAVOK 19/16 Q1015=
201906160000 METAR LRCL 160000Z 08003KT CAVOK 19/17 Q1015=
201906160030 METAR LRCL 160030Z 08003KT CAVOK 19/16 Q1015=
201906160100 METAR LRCL 160100Z 09003KT CAVOK 18/16 Q1015=
201906160130 METAR LRCL 160130Z 09005KT CAVOK 17/16 Q1015=
201906160200 METAR LRCL 160200Z 09003KT CAVOK 17/16 Q1015=
201906160230 METAR LRCL 160230Z 08003KT CAVOK 17/16 Q1015=
201906160300 METAR LRCL 160300Z 00000KT CAVOK 17/16 Q1015=
201906160330 METAR LRCL 160330Z 31003KT CAVOK 17/16 Q1015=
201906160400 METAR LRCL 160400Z 00000KT CAVOK 19/16 Q1015=
201906160430 METAR LRCL 160430Z VRB02KT CAVOK 20/16 Q1015=
201906160500 METAR LRCL 160500Z VRB01KT CAVOK 21/16 Q1015=
201906160530 METAR LRCL 160530Z VRB01KT CAVOK 22/17 Q1015=
201906160600 METAR LRCL 160600Z VRB02KT CAVOK 23/17 Q1016=
201906160630 METAR COR LRCL 160630Z VRB02KT CAVOK 24/17 Q1015=
201906160700 METAR LRCL 160700Z VRB02KT CAVOK 25/17 Q1015=
201906160730 METAR LRCL 160730Z VRB02KT CAVOK 25/17 Q1015=
201906160800 METAR LRCL 160800Z VRB03KT CAVOK 26/17 Q1015=
201906160830 METAR LRCL 160830Z 01003KT 310V100 CAVOK 26/18 Q1015=
201906160900 METAR LRCL 160900Z 01003KT 280V080 CAVOK 27/17 Q1015=
201906160930 METAR LRCL 160930Z VRB01KT 9999 FEW045 28/16 Q1015=
201906161000 METAR LRCL 161000Z VRB02KT 9999 FEW045 29/17 Q1015=
201906161030 METAR LRCL 161030Z VRB04KT 9999 FEW045 29/17 Q1014=
201906161100 METAR LRCL 161100Z 36005KT 320V030 9999 FEW050 30/16 Q1014=
201906161130 METAR LRCL 161130Z VRB03KT 9999 FEW055 30/15 Q1014=
201906161200 METAR LRCL 161200Z VRB04KT 9999 FEW060 30/15 Q1013=
201906161230 METAR LRCL 161230Z VRB03KT 9999 FEW060 31/13 Q1013=
201906161300 METAR LRCL 161300Z VRB02KT 9999 FEW060 32/14 Q1013=
201906161330 METAR LRCL 161330Z VRB02KT 9999 FEW060 31/16 Q1013=
201906161400 METAR LRCL 161400Z VRB03KT 9999 FEW060 31/15 Q1013=
201906161430 METAR LRCL 161430Z VRB03KT 9999 FEW060 31/14 Q1013=
201906161500 METAR LRCL 161500Z VRB01KT 9999 FEW060 31/15 Q1013=
201906161530 METAR LRCL 161530Z 02004KT 9999 FEW060 FEW062TCU 30/16 Q1012=
201906161600 METAR LRCL 161600Z 06003KT 9999 TS FEW060CB SCT067 30/18
                        Q1012=
201906161630 METAR LRCL 161630Z 14004KT 9999 TS FEW050 SCT060CB 29/14
                        Q1013=
201906161700 METAR LRCL 161700Z 35004KT 9999 TS FEW028 SCT055CB 27/14
                        Q1013=
201906161730 METAR LRCL 161730Z 07016KT 9999 TS FEW028 BKN054CB 24/16
                        Q1015=
201906161800 METAR LRCL 161800Z 01008KT 340V080 9999 TS FEW035 BKN053CB
                        21/14 Q1015=
201906161830 METAR LRCL 161830Z 21004KT 9999 VCTS SCT057CB BKN067 22/14
                        Q1014=
201906161900 METAR LRCL 161900Z 30005KT 9999 VCTS FEW060CB BKN067 21/15
                        Q1014=
201906161930 METAR LRCL 161930Z AUTO 27009KT 9999 OVC210/// 22/14 Q1014=
201906162000 METAR COR LRCL 162000Z 25003KT 9999 SCT067 22/15 Q1014=
201906162030 METAR LRCL 162030Z 11002KT 9999 FEW067 21/16 Q1014=
201906162100 METAR LRCL 162100Z VRB01KT 9999 FEW067 21/15 Q1015=
201906162130 METAR LRCL 162130Z 08004KT 9999 FEW067 19/16 Q1015=
201906162200 METAR LRCL 162200Z 35010KT 9999 FEW067 21/15 Q1016=
201906162230 METAR LRCL 162230Z 27007KT CAVOK 21/15 Q1016=
201906162300 METAR LRCL 162300Z 27006KT CAVOK 20/15 Q1017=
201906162330 METAR LRCL 162330Z 29005KT CAVOK 20/16 Q1017=
201906170000 METAR LRCL 170000Z 29005KT CAVOK 20/16 Q1017=
201906170030 METAR COR LRCL 170030Z 27007KT CAVOK 20/16 Q1017=
201906170100 METAR COR LRCL 170100Z 29006KT CAVOK 19/16 Q1017=
201906170130 METAR COR LRCL 170130Z 26008KT CAVOK 20/16 Q1017=
201906170200 METAR LRCL 170200Z 27006KT 240V300 9999 SCT019 19/16 Q1017=
201906170230 METAR LRCL 170230Z 27008KT 9999 SCT020 19/15 Q1017=
201906170300 METAR LRCL 170300Z 29006KT 9999 FEW029 19/15 Q1017=
201906170330 METAR LRCL 170330Z 27006KT CAVOK 19/15 Q1017=
201906170400 METAR LRCL 170400Z 28004KT CAVOK 20/15 Q1017=
201906170430 METAR LRCL 170430Z 29005KT CAVOK 20/15 Q1017=
201906170500 METAR LRCL 170500Z 28004KT CAVOK 21/15 Q1016=
201906170530 METAR LRCL 170530Z 29004KT CAVOK 22/15 Q1017=
201906170600 METAR LRCL 170600Z VRB01KT CAVOK 23/14 Q1017=
201906170630 METAR LRCL 170630Z VRB02KT CAVOK 24/15 Q1017=
201906170700 METAR LRCL 170700Z 04002KT CAVOK 24/16 Q1017=
201906170730 METAR LRCL 170730Z VRB02KT 9999 FEW030 25/15 Q1017=
201906170800 METAR LRCL 170800Z 05003KT 020V110 9999 FEW050 25/16 Q1016=
201906170830 METAR LRCL 170830Z 07004KT 360V120 9999 FEW050 26/16 Q1017=
201906170900 METAR LRCL 170900Z 05005KT 010V090 9999 FEW050 26/17 Q1017=
201906170930 METAR LRCL 170930Z 07005KT 020V120 9999 FEW050 27/18 Q1017=
201906171000 METAR LRCL 171000Z 08003KT 320V130 9999 FEW050 28/17 Q1016=
201906171030 METAR LRCL 171030Z VRB03KT 9999 SCT050 28/17 Q1016=
201906171100 METAR LRCL 171100Z VRB02KT 9999 FEW050CB SCT055 28/16 Q1016=
201906171130 METAR LRCL 171130Z 04005KT 310V120 9999 FEW040CB SCT050 29/17
                        Q1016=
201906171200 METAR COR LRCL 171200Z 02006KT 360V060 9999 FEW040CB SCT050
                        29/17 Q1015=
201906171230 METAR LRCL 171230Z 28013G24KT 250V320 9999 TS SCT045CB 24/14
                        Q1017=
201906171300 METAR LRCL 171300Z 31017KT 9999 TS SCT045CB BKN066 24/13
                        Q1017=
201906171330 METAR LRCL 171330Z 28007KT 250V330 9999 -SHRA SCT036CB 20/19
                        Q1017 RETS R07/29//95=
201906171400 METAR LRCL 171400Z 26010KT 230V300 9999 FEW044CB FEW050 22/18
                        Q1016 R07/29//95=
201906171430 METAR LRCL 171430Z 25007KT 220V280 9999 FEW050 23/19 Q1016
                        R07/19//95=
201906171500 METAR LRCL 171500Z AUTO 27008KT 240V300 9999 NCD 23/18 Q1016=
201906171530 METAR LRCL 171530Z 25006KT 9999 VCTS SCT040CB 24/19 Q1017=
201906171600 METAR LRCL 171600Z 25004KT 9999 VCTS SCT040CB 24/19 Q1017=
201906171630 METAR LRCL 171630Z 28004KT 9999 SCT040CB 23/19 Q1017=
201906171700 METAR LRCL 171700Z 26004KT 9999 TS SCT040CB 23/19 Q1017=
201906171730 METAR LRCL 171730Z 26007KT 9999 -SHRA SCT040CB 22/20 Q1017
                        RETS R07/29//95=
201906171800 METAR LRCL 171800Z 27004KT 230V290 9999 SCT051CB 22/20 Q1017
                        R07/29//95=
201906171830 METAR LRCL 171830Z 25006KT 9999 FEW051CB 21/19 Q1017 R07/29//95=
201906171900 METAR LRCL 171900Z 23004KT 9999 FEW050CB 21/19 Q1018 R07/CLRD//=
201906171930 METAR LRCL 171930Z VRB02KT 9999 FEW050CB 20/19 Q1017=
201906172000 METAR LRCL 172000Z 29004KT CAVOK 20/18 Q1017=
201906172030 METAR LRCL 172030Z 27004KT 240V310 CAVOK 20/18 Q1017=
201906172100 METAR LRCL 172100Z 22005KT CAVOK 19/17 Q1017=
201906172130 METAR LRCL 172130Z 24003KT CAVOK 19/17 Q1017=
201906172200 METAR LRCL 172200Z 24003KT CAVOK 19/17 Q1017=
201906172230 METAR LRCL 172230Z 26005KT CAVOK 18/17 Q1018=
201906172300 METAR LRCL 172300Z 26003KT CAVOK 18/16 Q1017=
201906172330 METAR LRCL 172330Z 24003KT CAVOK 18/16 Q1017=
201906180000 METAR LRCL 180000Z 25003KT 220V300 CAVOK 18/16 Q1018=
201906180030 METAR LRCL 180030Z 27003KT CAVOK 17/16 Q1017=
201906180100 METAR LRCL 180100Z VRB01KT CAVOK 17/16 Q1017=
201906180130 METAR LRCL 180130Z 00000KT 9999 BKN021 17/16 Q1017=
201906180200 METAR LRCL 180200Z 25002KT 9999 SCT022 17/16 Q1017=
201906180230 METAR LRCL 180230Z VRB02KT CAVOK 17/16 Q1017=
201906180300 METAR LRCL 180300Z 00000KT 9999 FEW025 17/16 Q1018=
201906180330 METAR LRCL 180330Z 00000KT CAVOK 17/16 Q1018=
201906180400 METAR LRCL 180400Z 00000KT CAVOK 18/16 Q1018=
201906180430 METAR LRCL 180430Z 00000KT CAVOK 19/16 Q1018=
201906180500 METAR LRCL 180500Z 08003KT 040V130 CAVOK 19/17 Q1018=
201906180530 METAR LRCL 180530Z VRB02KT CAVOK 20/17 Q1018=
201906180600 METAR LRCL 180600Z 06003KT 9999 FEW020 21/17 Q1018=
201906180630 METAR LRCL 180630Z 08005KT 9999 FEW022 22/18 Q1018=
201906180700 METAR LRCL 180700Z 10004KT 9999 FEW024 23/18 Q1018=
201906180730 METAR LRCL 180730Z 10004KT 9999 FEW038 24/17 Q1018=
201906180800 METAR LRCL 180800Z 10005KT 050V150 9999 FEW040 25/18 Q1018=
201906180830 METAR LRCL 180830Z 10008KT 9999 FEW040 26/17 Q1018=
201906180900 METAR LRCL 180900Z 12006KT 080V170 9999 FEW046 27/17 Q1018=
201906180930 METAR LRCL 180930Z 11006KT 070V140 9999 FEW033TCU 27/17 Q1018=
201906181000 METAR COR LRCL 181000Z 14006KT 090V210 9999 FEW035TCU 28/17
                        Q1018=
201906181030 METAR LRCL 181030Z VRB03KT 9999 FEW040CB SCT050 28/16 Q1017=
201906181100 METAR LRCL 181100Z VRB03KT 9999 FEW046CB SCT050 28/15 Q1017=
201906181130 METAR LRCL 181130Z 03003KT 300V110 9999 FEW050CB BKN055 28/16
                        Q1017=
201906181200 METAR LRCL 181200Z 14004KT 9999 FEW046CB BKN055 29/16 Q1017=
201906181230 METAR LRCL 181230Z 05004KT 9999 VCTS SCT046CB BKN055 29/16
                        Q1016=
201906181300 METAR LRCL 181300Z 18004KT 140V210 9999 SCT050CB BKN060 28/16
                        Q1016=
201906181330 METAR LRCL 181330Z 19006KT 9999 SCT055CB BKN065 27/17 Q1016=
201906181400 METAR LRCL 181400Z VRB01KT 9999 FEW055CB BKN065 28/15 Q1016=
201906181430 METAR LRCL 181430Z 05003KT 340V120 9999 FEW055CB SCT065 28/16
                        Q1016=
201906181500 METAR LRCL 181500Z VRB02KT 9999 FEW055CB SCT065 28/16 Q1016=
201906181530 METAR LRCL 181530Z 00000KT 9999 VCTS FEW055CB FEW065 28/16
                        Q1015=
201906181600 METAR LRCL 181600Z VRB02KT 9999 VCTS SCT055CB BKN065 28/16
                        Q1016=
201906181630 METAR LRCL 181630Z 02012KT 9999 VCTS SCT055CB BKN058 26/15
                        Q1016=
201906181700 METAR LRCL 181700Z 11007KT 9999 -SHRA SCT041CB BKN055 21/19
                        Q1016 R07/29//95=
201906181730 METAR LRCL 181730Z 01010KT 340V040 9999 SCT043CB 20/18 Q1016
                        R07/29//95=
201906181800 METAR LRCL 181800Z 12005KT 090V160 9999 FEW050CB SCT055 19/17
                        Q1017 R07/15//95=
201906181830 METAR LRCL 181830Z 21003KT 160V270 9999 FEW065 20/17 Q1017
                        R07/15//95=
201906181900 METAR LRCL 181900Z 32003KT CAVOK 20/18 Q1017 R07/15//95=
201906181930 METAR LRCL 181930Z 00000KT CAVOK 20/18 Q1017 R07/15//95=
201906182000 METAR LRCL 182000Z 04003KT CAVOK 19/17 Q1017 R07/CLRD//=
201906182030 METAR LRCL 182030Z 10003KT 070V140 CAVOK 19/17 Q1017=
201906182100 METAR LRCL 182100Z 07005KT CAVOK 19/17 Q1017=
201906182130 METAR LRCL 182130Z 09004KT CAVOK 18/17 Q1017=
201906182200 METAR LRCL 182200Z 12003KT 090V150 CAVOK 18/17 Q1017=
201906182230 METAR LRCL 182230Z 00000KT CAVOK 18/17 Q1017=
201906182300 METAR LRCL 182300Z 00000KT CAVOK 18/17 Q1017=
201906182330 METAR LRCL 182330Z 00000KT CAVOK 17/17 Q1017=
201906190000 METAR LRCL 190000Z 00000KT CAVOK 17/16 Q1017=
201906190030 METAR LRCL 190030Z VRB01KT CAVOK 17/16 Q1016=
201906190100 METAR COR LRCL 190100Z 00000KT CAVOK 17/16 Q1016=
201906190130 METAR LRCL 190130Z VRB01KT 6000 MIFG BR NSC 17/16 Q1016=
201906190200 METAR LRCL 190200Z 00000KT 0800 R25/0375N FG FEW001 17/16
                        Q1016=
201906190230 METAR LRCL 190230Z VRB01KT 0600 R25/0550V0800U FG SCT003
                        17/16 Q1016=
201906190300 METAR LRCL 190300Z 09003KT 0800 R25/0375N FG FEW001 SCT003
                        17/16 Q1016=
201906190330 METAR LRCL 190330Z 00000KT 0800 R25/0300N FG VV001 17/16
                        Q1016=
201906190400 METAR LRCL 190400Z 00000KT 0800 R25/0325N FG VV001 17/16
                        Q1016=
201906190430 METAR LRCL 190430Z 00000KT 1200 R25/1000VP2000U BR BKN002
                        17/17 Q1017=
201906190500 METAR LRCL 190500Z 00000KT 1800 BR BKN002 18/17 Q1016=
201906190530 METAR LRCL 190530Z 00000KT 3500 BR SCT002 19/18 Q1016=
201906190600 METAR LRCL 190600Z 08003KT 010V110 5000 BR FEW003 20/18 Q1017=
201906190630 METAR LRCL 190630Z 08004KT 030V130 7000 FEW003 21/18 Q1016=
201906190700 METAR LRCL 190700Z 07004KT 030V090 CAVOK 21/19 Q1016=
201906190730 METAR LRCL 190730Z VRB04KT CAVOK 24/19 Q1016=
201906190800 METAR LRCL 190800Z 10006KT 060V140 CAVOK 25/18 Q1016=
201906190830 METAR LRCL 190830Z 14006KT CAVOK 26/15 Q1016=
201906190900 METAR LRCL 190900Z 12006KT 070V170 9999 FEW030 27/16 Q1016=
201906190930 METAR LRCL 190930Z 11007KT 080V140 9999 FEW033 27/15 Q1015=
201906191000 METAR LRCL 191000Z 11007KT 070V150 9999 FEW033 27/15 Q1015=
201906191030 METAR LRCL 191030Z 07005KT 020V120 9999 FEW033 27/15 Q1015=
201906191100 METAR LRCL 191100Z 05004KT 350V100 9999 SCT036 28/17 Q1015=
201906191130 METAR LRCL 191130Z VRB03KT 9999 SCT043 29/17 Q1014=
201906191200 METAR LRCL 191200Z VRB03KT 9999 SCT045 29/17 Q1014=
201906191230 METAR LRCL 191230Z 12007KT 080V170 9999 SCT045 29/16 Q1013=
201906191300 METAR LRCL 191300Z VRB05KT 9999 FEW043CB SCT045 29/16 Q1013=
201906191330 METAR LRCL 191330Z 09006KT 040V120 9999 FEW043CB SCT045 29/15
                        Q1013=
201906191400 METAR LRCL 191400Z 12015KT 9999 -TSRA SCT043CB SCT045 25/16
                        Q1013=
201906191430 METAR LRCL 191430Z 09013G23KT 030V130 9999 -TSRA BKN036CB
                        SCT045 22/16 Q1014 R07/29//95=
201906191500 METAR LRCL 191500Z 16013KT 8000 -TSRA BKN036CB SCT054 19/17
                        Q1014 RESHRA R07/29//95=
201906191530 METAR LRCL 191530Z 27006KT 230V310 9999 -TSRA FEW021 SCT040CB
                        BKN065 19/17 Q1014 R07/29//95=
201906191600 METAR LRCL 191600Z 25005KT 9999 -TSRA FEW020 SCT046CB BKN065
                        20/18 Q1014 R07/29//95=
201906191630 METAR LRCL 191630Z 25005KT 220V290 9999 FEW022 BKN050CB BKN067
                        20/18 Q1014 RETS R07/19//95=
201906191700 METAR LRCL 191700Z 24007KT 9999 SCT050CB BKN067 21/18 Q1014
                        R07/19//95=
201906191730 METAR LRCL 191730Z 27004KT 9999 FEW055CB SCT067 20/18 Q1014
                        R07/19//95=
201906191800 METAR LRCL 191800Z VRB02KT 9999 FEW067 20/18 Q1014 R07/CLRD//=
201906191830 METAR COR LRCL 191830Z 00000KT 9999 FEW067 20/18 Q1014=
201906191900 METAR LRCL 191900Z VRB02KT 9999 FEW056 20/18 Q1015=
201906191930 METAR LRCL 191930Z 05003KT 9999 FEW056 20/17 Q1015=
201906192000 METAR LRCL 192000Z 23003KT 9999 FEW065 19/17 Q1015=
201906192030 METAR LRCL 192030Z 23003KT CAVOK 19/17 Q1015=
201906192100 METAR LRCL 192100Z 25003KT 9999 FEW065 19/17 Q1015=
201906192130 METAR LRCL 192130Z 30003KT 9999 FEW065 18/17 Q1015=
201906192200 METAR LRCL 192200Z 27005KT 9999 FEW0677 19/17 Q1015=
201906192230 METAR LRCL 192230Z 27003KT 9999 FEW065 18/17 Q1014=
201906192300 METAR COR LRCL 192300Z 25004KT 9999 SCT060 18/17 Q1014=
201906192330 METAR LRCL 192330Z 27003KT CAVOK 18/16 Q1014=
201906200000 METAR LRCL 200000Z VRB02KT CAVOK 17/16 Q1014=
201906200030 METAR COR LRCL 200030Z 30001KT CAVOK 17/16 Q1014=
201906200100 METAR COR LRCL 200100Z VRB01KT CAVOK 17/16 Q1014=
201906200130 METAR LRCL 200130Z 27003KT CAVOK 16/15 Q1014=
201906200200 METAR LRCL 200200Z 00000KT CAVOK 16/16 Q1014=
201906200230 METAR LRCL 200230Z 00000KT CAVOK 16/15 Q1014=
201906200300 METAR LRCL 200300Z 00000KT CAVOK 16/16 Q1014=
201906200330 METAR LRCL 200330Z VRB01KT 6000 NSC 17/16 Q1014=
201906200400 METAR LRCL 200400Z VRB01KT 6000 NSC 18/16 Q1014=
201906200430 METAR LRCL 200430Z 00000KT 6000 NSC 19/16 Q1014=
201906200500 METAR LRCL 200500Z 00000KT CAVOK 19/16 Q1014=
201906200530 METAR LRCL 200530Z VRB02KT 9999 FEW008 20/17 Q1014=
201906200600 METAR LRCL 200600Z 07003KT 020V110 9999 FEW008 21/18 Q1014=
201906200630 METAR LRCL 200630Z 08005KT 040V120 9999 FEW010 21/18 Q1014=
201906200700 METAR LRCL 200700Z 07004KT 360V110 9999 FEW008 22/19 Q1014=
201906200730 METAR LRCL 200730Z 05003KT 340V110 9999 FEW008 23/20 Q1014=
201906200800 METAR LRCL 200800Z 08006KT 020V130 CAVOK 24/19 Q1014=
201906200830 METAR LRCL 200830Z 10004KT 040V140 CAVOK 25/18 Q1014=
201906200900 METAR LRCL 200900Z 08006KT 050V120 9999 FEW030 26/19 Q1014=
201906200930 METAR LRCL 200930Z 09006KT 040V160 9999 FEW030 26/18 Q1014=
201906201000 METAR LRCL 201000Z 08004KT 360V150 9999 FEW036 27/17 Q1014=
201906201030 METAR LRCL 201030Z 16004KT 070V240 9999 FEW040 28/15 Q1014=
201906201100 METAR LRCL 201100Z VRB04KT 9999 FEW040 28/15 Q1013=
201906201130 METAR LRCL 201130Z 12007KT 080V150 9999 FEW050 29/12 Q1013=
201906201200 METAR LRCL 201200Z 12006KT 070V160 9999 FEW050 29/15 Q1012=
201906201230 METAR LRCL 201230Z 10006KT 060V130 9999 FEW050 29/15 Q1012=
201906201300 METAR LRCL 201300Z 09005KT 060V140 9999 FEW050 29/14 Q1012=
201906201330 METAR LRCL 201330Z 13007KT 100V170 9999 FEW050 29/13 Q1012=
201906201400 METAR LRCL 201400Z 14006KT 080V160 9999 FEW050 29/13 Q1012=
201906201430 METAR LRCL 201430Z 12006KT 070V160 9999 FEW050 29/13 Q1012=
201906201500 METAR LRCL 201500Z 11006KT 080V140 9999 FEW050 29/12 Q1012=
201906201530 METAR LRCL 201530Z 15005KT 110V180 9999 FEW050 29/12 Q1012=
201906201600 METAR LRCL 201600Z 14004KT 090V190 9999 FEW050 FEW052CB 29/14
                        Q1012=
201906201630 METAR LRCL 201630Z 25009KT 9999 FEW052CB SCT056 25/17 Q1012=
201906201700 METAR LRCL 201700Z 25013KT 9999 VCSH FEW050CB SCT055 24/16
                        Q1013=
201906201730 METAR LRCL 201730Z 27009KT 9999 TS VCSH FEW045CB SCT055 23/15
                        Q1013=
201906201800 METAR LRCL 201800Z VRB01KT 9999 FEW050CB SCT055 SCT066 23/14
                        Q1013 RETS=
201906201830 METAR LRCL 201830Z 27004KT 230V300 9999 FEW050CB SCT066 21/16
                        Q1013=
201906201900 METAR LRCL 201900Z 00000KT 9999 TS SCT045CB SCT060 21/16
                        Q1013=
201906201930 METAR LRCL 201930Z 12013KT 9999 TS SCT044CB BKN060 21/14
                        Q1015=
201906202000 METAR LRCL 202000Z 13014KT 9999 TS BKN043CB 21/15 Q1015=
201906202030 METAR LRCL 202030Z 17012KT 140V200 9999 TS SCT043CB BKN065
                        22/14 Q1015=
201906202100 METAR LRCL 202100Z 25007KT 210V270 9999 -SHRA SCT043CB BKN068
                        20/15 Q1014 RETS=
201906202130 METAR LRCL 202130Z 28007KT 250V320 9999 -RA FEW043CB BKN068
                        20/16 Q1014=
201906202200 METAR LRCL 202200Z VRB02KT 9999 -RA FEW043CB BKN068 20/16
                        Q1014=
201906202230 METAR LRCL 202230Z VRB02KT 9999 SCT068 20/16 Q1014 R07/19//95=
201906202300 METAR LRCL 202300Z 07005KT CAVOK 20/16 Q1015 R07/19//95=
201906202330 METAR LRCL 202330Z 03003KT 360V060 CAVOK 19/16 Q1015=
201906210000 METAR LRCL 210000Z 06003KT CAVOK 19/16 Q1015=
201906210030 METAR LRCL 210030Z 09004KT CAVOK 18/16 Q1015=
201906210100 METAR LRCL 210100Z VRB01KT CAVOK 18/16 Q1015=
201906210130 METAR LRCL 210130Z 00000KT CAVOK 18/16 Q1015=
201906210200 METAR LRCL 210200Z 00000KT CAVOK 18/16 Q1015=
201906210230 METAR LRCL 210230Z 23005KT CAVOK 18/16 Q1015=
201906210300 METAR LRCL 210300Z 00000KT CAVOK 17/16 Q1015=
201906210330 METAR LRCL 210330Z 07004KT CAVOK 18/16 Q1016=
201906210400 METAR LRCL 210400Z 06001KT CAVOK 18/17 Q1016=
201906210430 METAR LRCL 210430Z VRB01KT CAVOK 18/17 Q1016=
201906210500 METAR LRCL 210500Z 00000KT CAVOK 20/16 Q1016=
201906210530 METAR LRCL 210530Z 00000KT CAVOK 21/15 Q1016=
201906210600 METAR LRCL 210600Z 12003KT 070V160 CAVOK 21/15 Q1017=
201906210630 METAR LRCL 210630Z 08005KT 040V120 CAVOK 22/17 Q1017=
201906210700 METAR LRCL 210700Z 10007KT CAVOK 22/15 Q1017=
201906210730 METAR LRCL 210730Z 10008KT CAVOK 23/16 Q1017=
201906210800 METAR LRCL 210800Z 10007KT 070V140 9999 FEW055 23/15 Q1017=
201906210830 METAR LRCL 210830Z 08006KT 040V110 9999 FEW050 24/16 Q1016=
201906210900 METAR LRCL 210900Z 09005KT 030V140 9999 FEW050 25/16 Q1016=
201906210930 METAR LRCL 210930Z 10005KT 060V150 9999 FEW050 25/16 Q1016=
201906211000 METAR LRCL 211000Z 11006KT 060V150 9999 FEW050 26/15 Q1016=
201906211030 METAR LRCL 211030Z 09005KT 050V180 9999 FEW050 26/15 Q1016=
201906211100 METAR LRCL 211100Z 10006KT 040V160 9999 FEW050TCU 27/15 Q1016=
201906211130 METAR LRCL 211130Z 11005KT 040V170 9999 FEW050CB 27/15 Q1016=
201906211200 METAR LRCL 211200Z 12006KT 070V230 9999 FEW043CB 27/15 Q1015=
201906211230 METAR LRCL 211230Z 09006KT 040V140 9999 FEW042CB SCT050 28/15
                        Q1015=
201906211300 METAR LRCL 211300Z 14006KT 090V180 9999 FEW045CB 28/16 Q1015=
201906211330 METAR LRCL 211330Z 25011KT 220V280 9999 SCT054 27/16 Q1015=
201906211400 METAR LRCL 211400Z 26010KT 9999 SCT054 27/15 Q1015=
201906211430 METAR LRCL 211430Z 28009KT 9999 SCT054 26/16 Q1015=
201906211500 METAR LRCL 211500Z 26008KT 9999 FEW055TCU 24/15 Q1015=
201906211530 METAR LRCL 211530Z 26007KT 230V290 9999 FEW045CB 24/14 Q1015=
201906211600 METAR LRCL 211600Z 27008KT 240V300 9999 FEW045CB 24/14 Q1015=
201906211630 METAR LRCL 211630Z 28004KT 240V330 9999 FEW045CB 24/15 Q1015=
201906211700 METAR LRCL 211700Z 27003KT 220V300 9999 FEW043TCU 24/14 Q1015=
201906211730 METAR LRCL 211730Z 26006KT CAVOK 23/14 Q1015=
201906211800 METAR LRCL 211800Z 26007KT CAVOK 23/14 Q1016=
201906211830 METAR LRCL 211830Z 26006KT CAVOK 22/15 Q1016=
201906211900 METAR LRCL 211900Z 27005KT CAVOK 21/15 Q1016=
201906211930 METAR LRCL 211930Z 28006KT CAVOK 21/16 Q1016=
201906212000 METAR LRCL 212000Z 29005KT CAVOK 21/16 Q1016=
201906212030 METAR LRCL 212030Z 27005KT CAVOK 21/16 Q1016=
201906212100 METAR LRCL 212100Z 27006KT CAVOK 20/16 Q1016=
201906212130 METAR LRCL 212130Z 29005KT CAVOK 19/16 Q1016=
201906212200 METAR LRCL 212200Z 27005KT CAVOK 19/16 Q1017=
201906212230 METAR LRCL 212230Z 26006KT CAVOK 19/16 Q1017=
201906212300 METAR LRCL 212300Z 27005KT CAVOK 18/16 Q1017=
201906212330 METAR COR LRCL 212330Z 28005KT CAVOK 18/16 Q1017=
201906220000 METAR LRCL 220000Z 27006KT CAVOK 18/16 Q1017=
201906220030 METAR LRCL 220030Z 26003KT 220V310 CAVOK 18/15 Q1017=
201906220100 METAR LRCL 220100Z 28005KT CAVOK 17/15 Q1017=
201906220130 METAR LRCL 220130Z 28004KT CAVOK 17/15 Q1017=
201906220200 METAR LRCL 220200Z 27007KT CAVOK 17/15 Q1018=
201906220230 METAR LRCL 220230Z 28007KT CAVOK 17/15 Q1018=
201906220300 METAR LRCL 220300Z 27008KT CAVOK 17/14 Q1018=
201906220330 METAR LRCL 220330Z 27007KT CAVOK 17/14 Q1018=
201906220400 METAR LRCL 220400Z 27005KT CAVOK 18/14 Q1018=
201906220430 METAR LRCL 220430Z 28006KT CAVOK 18/15 Q1018=
201906220500 METAR LRCL 220500Z 27006KT 240V300 CAVOK 20/14 Q1018=
201906220530 METAR LRCL 220530Z 28006KT 240V320 CAVOK 21/14 Q1018=
201906220600 METAR LRCL 220600Z VRB02KT CAVOK 22/15 Q1018=
201906220630 METAR LRCL 220630Z VRB01KT CAVOK 23/16 Q1018=
201906220700 METAR LRCL 220700Z VRB02KT 9999 FEW020 23/16 Q1018=
201906220730 METAR LRCL 220730Z VRB02KT 9999 FEW022 24/16 Q1018=
201906220800 METAR LRCL 220800Z VRB04KT 9999 FEW026 24/16 Q1018=
201906220830 METAR LRCL 220830Z VRB03KT 9999 FEW030 25/16 Q1018=
201906220900 METAR LRCL 220900Z VRB03KT 9999 SCT030 25/15 Q1018=
201906220930 METAR LRCL 220930Z VRB04KT 9999 SCT042 27/17 Q1018=
201906221000 METAR LRCL 221000Z VRB02KT 9999 FEW036TCU FEW046 26/15 Q1018=
201906221030 METAR LRCL 221030Z VRB02KT 9999 FEW036TCU SCT046 27/16 Q1018=
201906221100 METAR LRCL 221100Z VRB03KT 9999 FEW042TCU SCT049 27/16 Q1017=
201906221130 METAR LRCL 221130Z VRB03KT 9999 FEW044CB SCT050 28/16 Q1017=
201906221200 METAR LRCL 221200Z 31006KT 9999 -SHRA FEW043CB BKN047 26/16
                        Q1017=
201906221230 METAR COR LRCL 221230Z 33007KT 300V360 9999 -SHRA FEW047CB
                        SCT055 24/18 Q1017=
201906221300 METAR LRCL 221300Z 33005KT 300V020 9999 TS FEW044CB FEW060
                        27/16 Q1017 R07/25//95=
201906221330 METAR LRCL 221330Z 21005KT 150V270 9999 FEW045CB SCT058 26/16
                        Q1017 RETS R07/CLRD//=
201906221400 METAR LRCL 221400Z 26005KT 200V300 9999 FEW050 26/16 Q1017=
201906221430 METAR LRCL 221430Z 32004KT 9999 FEW055TCU 27/16 Q1017=
201906221500 METAR LRCL 221500Z 01005KT 300V080 9999 FEW041 27/16 Q1016=
201906221530 METAR LRCL 221530Z 03004KT 9999 FEW042CB 27/16 Q1016=
201906221600 METAR LRCL 221600Z 03004KT 9999 FEW042CB 27/16 Q1016=
201906221630 METAR LRCL 221630Z 05003KT 350V110 9999 FEW045TCU 26/16 Q1016=
201906221700 METAR LRCL 221700Z VRB02KT 9999 FEW050 25/16 Q1016=
201906221730 METAR LRCL 221730Z 00000KT 9999 FEW050 25/17 Q1016=
201906221800 METAR LRCL 221800Z 00000KT CAVOK 25/18 Q1016=
201906221830 METAR LRCL 221830Z VRB02KT CAVOK 23/17 Q1016=
201906221900 METAR LRCL 221900Z 30005KT CAVOK 22/17 Q1016=
201906221930 METAR LRCL 221930Z 30004KT CAVOK 21/16 Q1016=
201906222000 METAR LRCL 222000Z VRB02KT CAVOK 20/16 Q1016=
201906222030 METAR LRCL 222030Z 28004KT CAVOK 20/16 Q1017=
201906222100 METAR LRCL 222100Z VRB02KT CAVOK 19/16 Q1017=
201906222130 METAR LRCL 222130Z 26003KT 230V290 CAVOK 19/16 Q1017=
201906222200 METAR LRCL 222200Z 09003KT 040V120 CAVOK 19/16 Q1016=
201906222230 METAR LRCL 222230Z VRB01KT CAVOK 18/16 Q1016=
201906222300 METAR LRCL 222300Z VRB02KT CAVOK 18/16 Q1016=
201906222330 METAR LRCL 222330Z VRB02KT CAVOK 18/16 Q1016=
201906230000 METAR LRCL 230000Z VRB01KT CAVOK 18/17 Q1016=
201906230030 METAR LRCL 230030Z 00000KT CAVOK 17/16 Q1017=
201906230100 METAR LRCL 230100Z VRB02KT CAVOK 17/16 Q1017=
201906230130 METAR COR LRCL 230130Z 23003KT CAVOK 17/16 Q1016=
201906230200 METAR LRCL 230200Z 00000KT CAVOK 17/16 Q1016=
201906230230 METAR LRCL 230230Z 07003KT CAVOK 17/16 Q1016=
201906230300 METAR LRCL 230300Z VRB01KT CAVOK 17/16 Q1016=
201906230330 METAR COR LRCL 230330Z 05003KT CAVOK 18/16 Q1016=
201906230400 METAR LRCL 230400Z 04003KT 360V080 CAVOK 18/17 Q1016=
201906230430 METAR LRCL 230430Z 06004KT CAVOK 19/17 Q1016=
201906230500 METAR LRCL 230500Z 06004KT 030V090 CAVOK 20/17 Q1016=
201906230530 METAR LRCL 230530Z 08003KT 020V120 CAVOK 21/17 Q1016=
201906230600 METAR LRCL 230600Z 06004KT 020V100 CAVOK 22/18 Q1016=
201906230630 METAR LRCL 230630Z 04005KT 360V100 CAVOK 24/18 Q1016=
201906230700 METAR LRCL 230700Z 09007KT 040V130 CAVOK 25/18 Q1016=
201906230730 METAR LRCL 230730Z 09007KT 060V120 9999 FEW028 25/18 Q1016=
201906230800 METAR LRCL 230800Z 08010KT 9999 FEW028 25/19 Q1016=
201906230830 METAR LRCL 230830Z 09008KT 9999 FEW028 25/18 Q1015=
201906230900 METAR LRCL 230900Z 10008KT 9999 FEW032 26/18 Q1015=
201906230930 METAR LRCL 230930Z 13008KT 9999 FEW038 FEW040TCU 27/17 Q1015=
201906231000 METAR LRCL 231000Z 12008KT 090V160 9999 FEW038 FEW040CB 27/17
                        Q1015=
201906231030 METAR LRCL 231030Z 11005KT 060V170 9999 FEW038 FEW040CB 27/17
                        Q1015=
201906231100 METAR LRCL 231100Z 09004KT 030V200 9999 TS FEW038 SCT040CB
                        28/16 Q1015=
201906231130 METAR LRCL 231130Z VRB04KT 9999 TS FEW038 SCT040CB 28/16
                        Q1015=
201906231200 METAR LRCL 231200Z 25006KT 210V270 9999 -TSRA FEW038 SCT040CB
                        27/17 Q1015=
201906231230 METAR LRCL 231230Z 26009KT 230V290 9999 FEW032 FEW035CB SCT057
                        24/19 Q1015 RETS R07/19//95=
201906231300 METAR LRCL 231300Z 28009KT 9999 FEW032 FEW037CB SCT060 23/19
                        Q1015 R07/19//95=
201906231330 METAR LRCL 231330Z 27008KT 240V310 9999 FEW037TCU SCT060
                        24/18 Q1014=
201906231400 METAR LRCL 231400Z 25007KT 220V300 9999 FEW040TCU 27/18 Q1014=
201906231430 METAR LRCL 231430Z 25005KT 210V280 9999 FEW040TCU 27/18 Q1014=
201906231500 METAR LRCL 231500Z VRB02KT 9999 FEW040 29/17 Q1014=
201906231530 METAR LRCL 231530Z 03005KT 360V090 9999 FEW040 28/17 Q1014=
201906231600 METAR LRCL 231600Z 01006KT 350V050 9999 FEW050 27/16 Q1014=
201906231630 METAR LRCL 231630Z 01004KT 320V030 9999 FEW058 27/18 Q1014=
201906231700 METAR LRCL 231700Z 01005KT 330V030 9999 FEW060 27/18 Q1014=
201906231730 METAR LRCL 231730Z 35004KT 9999 FEW060 26/16 Q1014=
201906231800 METAR LRCL 231800Z 33007KT 9999 FEW065 26/16 Q1015=
201906231830 METAR LRCL 231830Z 27005KT 230V320 9999 FEW067CB 24/18 Q1015
                        R07/29//95=
201906231900 METAR LRCL 231900Z 27007KT 9999 FEW048 SCT060CB 24/19 Q1015
                        R07/29//95=
201906231930 METAR LRCL 231930Z 26007KT 240V300 9999 FEW030 SCT055CB 23/16
                        Q1015 R07/CLRD//=
201906232000 METAR LRCL 232000Z 26005KT 240V300 9999 FEW029 SCT065CB 23/17
                        Q1015=
201906232030 METAR LRCL 232030Z 26004KT 9999 FEW068CB 21/15 Q1015=
201906232100 METAR LRCL 232100Z 28006KT 9999 FEW067 21/15 Q1015=
201906232130 METAR LRCL 232130Z 27006KT CAVOK 20/15 Q1015=
201906232200 METAR LRCL 232200Z 26005KT CAVOK 19/15 Q1015=
201906232230 METAR LRCL 232230Z 26005KT CAVOK 19/15 Q1015=
201906232300 METAR LRCL 232300Z AUTO 27006KT 9999 NCD 19/15 Q1016=
201906232330 METAR LRCL 232330Z 27004KT CAVOK 18/15 Q1016=
201906240000 METAR COR LRCL 240000Z 26003KT 210V290 CAVOK 18/15 Q1016=
201906240030 METAR LRCL 240030Z 29004KT CAVOK 18/16 Q1016=
201906240100 METAR COR LRCL 240100Z 27006KT CAVOK 18/15 Q1016=
201906240130 METAR LRCL 240130Z 30005KT CAVOK 18/16 Q1016=
201906240200 METAR COR LRCL 240200Z 28006KT CAVOK 18/15 Q1016=
201906240230 METAR LRCL 240230Z 29005KT CAVOK 18/15 Q1016=
201906240300 METAR COR LRCL 240300Z 28003KT CAVOK 18/15 Q1016=
201906240330 METAR LRCL 240330Z 27005KT 9999 FEW210 19/15 Q1016=
201906240400 METAR LRCL 240400Z 28006KT CAVOK 20/16 Q1016=
201906240430 METAR LRCL 240430Z 27005KT 230V290 CAVOK 20/16 Q1016=
201906240500 METAR LRCL 240500Z 27005KT 230V300 CAVOK 21/16 Q1017=
201906240530 METAR LRCL 240530Z 27004KT CAVOK 22/16 Q1017=
201906240600 METAR LRCL 240600Z VRB03KT CAVOK 23/16 Q1017=
201906240630 METAR LRCL 240630Z VRB02KT CAVOK 24/17 Q1017=
201906240700 METAR LRCL 240700Z VRB03KT CAVOK 24/16 Q1017=
201906240730 METAR LRCL 240730Z VRB02KT 9999 FEW042 25/16 Q1018=
201906240800 METAR LRCL 240800Z 08003KT 030V170 9999 FEW040 25/16 Q1018=
201906240830 METAR LRCL 240830Z 09005KT 060V120 9999 FEW040 25/16 Q1018=
201906240900 METAR LRCL 240900Z 07005KT 010V180 9999 FEW032 26/16 Q1018=
201906240930 METAR LRCL 240930Z VRB03KT 9999 FEW037 27/16 Q1018=
201906241000 METAR LRCL 241000Z 13005KT 060V220 9999 FEW042 27/15 Q1018=
201906241030 METAR LRCL 241030Z 09004KT 360V160 9999 FEW045 28/15 Q1018=
201906241100 METAR LRCL 241100Z VRB02KT 9999 FEW046 FEW048CB 29/16 Q1018=
201906241130 METAR LRCL 241130Z 12006KT 080V160 9999 FEW046 FEW049CB 28/15
                        Q1018=
201906241200 METAR LRCL 241200Z 04010KT 350V060 9999 TS FEW048 SCT049CB
                        22/16 Q1019=
201906241230 METAR LRCL 241230Z 07008KT 030V090 9999 SCT049CB 22/16 Q1019
                        RETS=
201906241300 METAR LRCL 241300Z 10003KT 050V190 9999 SCT053CB 23/17 Q1019=
201906241330 METAR LRCL 241330Z 09005KT 040V160 9999 SCT053CB 23/16 Q1019=
201906241400 METAR LRCL 241400Z VRB02KT 9999 FEW053CB 23/16 Q1019=
201906241430 METAR LRCL 241430Z VRB03KT 9999 FEW055 26/17 Q1019=
201906241500 METAR LRCL 241500Z VRB02KT CAVOK 27/17 Q1019=
201906241530 METAR LRCL 241530Z 04004KT 360V080 CAVOK 26/17 Q1019=
201906241600 METAR LRCL 241600Z 02004KT 340V050 9999 FEW045TCU 26/16 Q1019=
201906241630 METAR LRCL 241630Z 04004KT 010V080 9999 FEW045TCU 25/18 Q1019=
201906241700 METAR LRCL 241700Z 04003KT 010V070 9999 FEW045CB 25/18 Q1019=
201906241730 METAR LRCL 241730Z VRB01KT 9999 FEW045CB 24/18 Q1020=
201906241800 METAR LRCL 241800Z VRB02KT 9999 FEW045CB 23/18 Q1020=
201906241830 METAR LRCL 241830Z VRB02KT 9999 FEW045CB 23/18 Q1020=
201906241900 METAR LRCL 241900Z 00000KT 9999 FEW045CB 23/18 Q1021=
201906241930 METAR LRCL 241930Z VRB02KT 9999 FEW045CB 22/18 Q1021=
201906242000 METAR LRCL 242000Z 29003KT 250V010 9999 FEW045CB 22/18 Q1022=
201906242030 METAR LRCL 242030Z 26003KT 220V320 9999 FEW045CB 21/18 Q1022=
201906242100 METAR LRCL 242100Z 22007KT 190V260 9999 FEW045CB 21/18 Q1022=
201906242130 METAR LRCL 242130Z 29004KT 270V330 CAVOK 20/18 Q1022=
201906242200 METAR LRCL 242200Z 24004KT CAVOK 21/17 Q1022=
201906242230 METAR LRCL 242230Z VRB02KT CAVOK 20/17 Q1022=
201906242300 METAR LRCL 242300Z 00000KT 9999 SCT047 20/17 Q1023=
201906242330 METAR LRCL 242330Z 00000KT CAVOK 19/17 Q1023=
201906250000 METAR LRCL 250000Z VRB02KT CAVOK 19/17 Q1023=
201906250030 METAR LRCL 250030Z VRB01KT CAVOK 18/17 Q1023=
201906250100 METAR LRCL 250100Z 00000KT CAVOK 18/16 Q1023=
201906250130 METAR LRCL 250130Z 26003KT CAVOK 18/16 Q1023=
201906250200 METAR LRCL 250200Z 28002KT CAVOK 18/16 Q1023=
201906250230 METAR LRCL 250230Z 25003KT CAVOK 18/16 Q1023=
201906250300 METAR LRCL 250300Z VRB02KT CAVOK 17/16 Q1023=
201906250330 METAR LRCL 250330Z VRB01KT CAVOK 18/16 Q1024=
201906250400 METAR LRCL 250400Z 27003KT CAVOK 18/16 Q1024=
201906250430 METAR LRCL 250430Z 27003KT CAVOK 19/16 Q1024=
201906250500 METAR LRCL 250500Z 28004KT 230V300 CAVOK 20/17 Q1024=
201906250530 METAR LRCL 250530Z VRB02KT CAVOK 20/17 Q1024=
201906250600 METAR LRCL 250600Z VRB02KT CAVOK 22/17 Q1024=
201906250630 METAR LRCL 250630Z VRB02KT CAVOK 22/17 Q1025=
201906250700 METAR LRCL 250700Z VRB01KT CAVOK 23/16 Q1025=
201906250730 METAR LRCL 250730Z VRB02KT CAVOK 24/16 Q1025=
201906250800 METAR LRCL 250800Z VRB02KT CAVOK 25/16 Q1025=
201906250830 METAR LRCL 250830Z VRB03KT CAVOK 26/17 Q1025=
201906250900 METAR LRCL 250900Z 01004KT 340V080 CAVOK 26/17 Q1025=
201906250930 METAR LRCL 250930Z 36004KT 300V070 CAVOK 27/18 Q1025=
201906251000 METAR LRCL 251000Z VRB03KT CAVOK 27/16 Q1025=
201906251030 METAR LRCL 251030Z 08004KT 030V150 9999 FEW050 27/16 Q1025=
201906251100 METAR LRCL 251100Z VRB04KT 9999 FEW050 28/16 Q1025=
201906251130 METAR LRCL 251130Z 03004KT 330V070 9999 FEW042 29/16 Q1025=
201906251200 METAR LRCL 251200Z VRB01KT 9999 FEW050 29/16 Q1025=
201906251230 METAR LRCL 251230Z VRB03KT 9999 FEW050 29/16 Q1024=
201906251300 METAR LRCL 251300Z 11003KT 030V190 9999 FEW050 30/16 Q1024=
201906251330 METAR LRCL 251330Z 35004KT 310V050 9999 FEW050 30/16 Q1024=
201906251400 METAR LRCL 251400Z 36005KT 300V050 9999 FEW050 30/16 Q1024=
201906251430 METAR LRCL 251430Z 01004KT 9999 FEW050 31/16 Q1024=
201906251500 METAR LRCL 251500Z 35004KT 310V090 9999 FEW050 30/17 Q1023=
201906251530 METAR LRCL 251530Z 33004KT 270V010 9999 FEW050 30/16 Q1023=
201906251600 METAR LRCL 251600Z 33005KT 290V360 CAVOK 30/17 Q1024=
201906251630 METAR LRCL 251630Z 31006KT 280V340 CAVOK 29/17 Q1024=
201906251700 METAR LRCL 251700Z 32007KT CAVOK 29/18 Q1024=
201906251730 METAR LRCL 251730Z 31005KT CAVOK 28/18 Q1024=
201906251800 METAR LRCL 251800Z 29004KT 9999 FEW040 26/19 Q1024=
201906251830 METAR LRCL 251830Z VRB02KT 9999 FEW040CB 25/18 Q1025=
201906251900 METAR LRCL 251900Z 28005KT 9999 FEW040CB 25/18 Q1025=
201906251930 METAR LRCL 251930Z 29005KT 9999 FEW040CB 24/18 Q1025=
201906252000 METAR LRCL 252000Z VRB02KT 9999 FEW040CB 23/18 Q1025=
201906252030 METAR LRCL 252030Z 10004KT CAVOK 22/18 Q1026=
201906252100 METAR LRCL 252100Z 32003KT CAVOK 22/18 Q1026=
201906252130 METAR COR LRCL 252130Z VRB02KT CAVOK 21/18 Q1026=
201906252200 METAR LRCL 252200Z VRB02KT CAVOK 21/18 Q1026=
201906252230 METAR LRCL 252230Z 00000KT CAVOK 20/18 Q1026=
201906252300 METAR LRCL 252300Z VRB03KT CAVOK 20/18 Q1026=
201906252330 METAR LRCL 252330Z VRB01KT CAVOK 19/17 Q1026=
201906260000 METAR LRCL 260000Z 00000KT CAVOK 19/18 Q1026=
201906260030 METAR LRCL 260030Z 00000KT CAVOK 19/18 Q1026=
201906260100 METAR LRCL 260100Z 00000KT 9999 MIFG NSC 18/17 Q1026=
201906260130 METAR LRCL 260130Z 24001KT 9999 MIFG NSC 18/17 Q1026=
201906260200 METAR LRCL 260200Z 24003KT 9999 MIFG NSC 18/17 Q1026=
201906260230 METAR LRCL 260230Z 23002KT 9999 MIFG NSC 18/17 Q1026=
201906260300 METAR LRCL 260300Z 00000KT 9999 MIFG NSC 18/17 Q1026=
201906260330 METAR LRCL 260330Z 08001KT CAVOK 18/17 Q1026=
201906260400 METAR LRCL 260400Z 08003KT CAVOK 19/17 Q1026=
201906260430 METAR LRCL 260430Z VRB02KT CAVOK 20/18 Q1026=
201906260500 METAR LRCL 260500Z 07003KT 050V110 CAVOK 21/18 Q1026=
201906260530 METAR LRCL 260530Z 05004KT 020V090 CAVOK 22/18 Q1026=
201906260600 METAR LRCL 260600Z 07006KT CAVOK 24/18 Q1026=
201906260630 METAR LRCL 260630Z 09006KT 060V120 CAVOK 25/18 Q1026=
201906260700 METAR LRCL 260700Z 13008KT CAVOK 26/17 Q1026=
201906260730 METAR LRCL 260730Z 14008KT 110V170 CAVOK 27/17 Q1026=
201906260800 METAR LRCL 260800Z 16006KT 120V200 CAVOK 28/16 Q1026=
201906260830 METAR LRCL 260830Z 14005KT 080V200 CAVOK 28/17 Q1026=
201906260900 METAR LRCL 260900Z 14007KT 100V180 9999 FEW020 29/17 Q1026=
201906260930 METAR LRCL 260930Z 10006KT 050V160 9999 FEW026 29/17 Q1026=
201906261000 METAR LRCL 261000Z 09005KT 010V150 9999 FEW028 29/16 Q1026=
201906261030 METAR LRCL 261030Z VRB03KT 9999 FEW030 30/16 Q1026=
201906261100 METAR LRCL 261100Z VRB04KT 9999 FEW033 30/15 Q1025=
201906261130 METAR COR LRCL 261130Z 07004KT 360V160 9999 FEW040 30/14
                        Q1025=
201906261200 METAR LRCL 261200Z VRB04KT CAVOK 31/14 Q1025=
201906261230 METAR LRCL 261230Z VRB05KT CAVOK 31/14 Q1024=
201906261300 METAR LRCL 261300Z 06005KT 360V100 CAVOK 31/15 Q1024=
201906261330 METAR LRCL 261330Z 05005KT CAVOK 31/15 Q1024=
201906261400 METAR LRCL 261400Z 01005KT 310V080 CAVOK 31/14 Q1024=
201906261430 METAR LRCL 261430Z 36005KT 310V040 CAVOK 31/14 Q1023=
201906261500 METAR COR LRCL 261500Z 36006KT 320V040 CAVOK 31/15 Q1023=
201906261530 METAR LRCL 261530Z 36007KT 320V030 CAVOK 31/15 Q1023=
201906261600 METAR LRCL 261600Z 35007KT 320V020 CAVOK 30/14 Q1022=
201906261630 METAR LRCL 261630Z 33008KT CAVOK 30/14 Q1022=
201906261700 METAR LRCL 261700Z 33006KT CAVOK 29/14 Q1023=
201906261730 METAR LRCL 261730Z 32004KT CAVOK 28/15 Q1022=
201906261800 METAR LRCL 261800Z 31004KT CAVOK 26/16 Q1022=
201906261830 METAR LRCL 261830Z 29003KT CAVOK 24/16 Q1022=
201906261900 METAR LRCL 261900Z VRB02KT CAVOK 22/15 Q1023=
201906261930 METAR LRCL 261930Z 00000KT CAVOK 22/16 Q1023=
201906262000 METAR LRCL 262000Z 26003KT CAVOK 21/16 Q1023=
201906262030 METAR LRCL 262030Z 28004KT 250V310 CAVOK 21/16 Q1023=
201906262100 METAR LRCL 262100Z 28006KT CAVOK 21/16 Q1023=
201906262130 METAR LRCL 262130Z 27007KT 9999 NCD 20/16 Q1022=
201906262200 METAR LRCL 262200Z 27007KT CAVOK 20/16 Q1022=
201906262230 METAR LRCL 262230Z 28007KT CAVOK 20/15 Q1022=
201906262300 METAR LRCL 262300Z 27009KT CAVOK 20/15 Q1022=
201906262330 METAR LRCL 262330Z 28005KT CAVOK 19/15 Q1022=
201906270000 METAR LRCL 270000Z 27007KT CAVOK 19/15 Q1022=
201906270030 METAR LRCL 270030Z 27005KT CAVOK 19/14 Q1022=
201906270100 METAR LRCL 270100Z 27006KT CAVOK 19/14 Q1022=
201906270130 METAR LRCL 270130Z 28004KT CAVOK 18/14 Q1021=
201906270200 METAR LRCL 270200Z 26005KT CAVOK 18/14 Q1021=
201906270230 METAR LRCL 270230Z 27005KT CAVOK 18/14 Q1021=
201906270300 METAR COR LRCL 270300Z 27003KT 210V300 CAVOK 18/14 Q1021=
201906270330 METAR LRCL 270330Z 28004KT CAVOK 19/14 Q1021=
201906270400 METAR LRCL 270400Z 26005KT CAVOK 20/14 Q1020=
201906270430 METAR LRCL 270430Z 25006KT CAVOK 21/14 Q1020=
201906270500 METAR LRCL 270500Z 25006KT CAVOK 23/14 Q1020=
201906270530 METAR LRCL 270530Z 25004KT 210V280 CAVOK 24/15 Q1020=
201906270600 METAR LRCL 270600Z 26003KT 180V310 9999 FEW052 25/15 Q1020=
201906270630 METAR LRCL 270630Z 26003KT 180V350 CAVOK 27/15 Q1020=
201906270700 METAR LRCL 270700Z VRB03KT CAVOK 28/15 Q1019=
201906270730 METAR LRCL 270730Z VRB03KT CAVOK 29/16 Q1019=
201906270800 METAR LRCL 270800Z VRB03KT 9999 FEW040 30/17 Q1018=
201906270830 METAR LRCL 270830Z 29011KT 9999 SCT040 30/17 Q1018=
201906270900 METAR LRCL 270900Z 31011KT 9999 SCT040 30/17 Q1018=
201906270930 METAR COR LRCL 270930Z 32010KT 9999 SCT044 31/17 Q1018=
201906271000 METAR LRCL 271000Z 28009KT 9999 FEW044 31/16 Q1017=
201906271030 METAR LRCL 271030Z 31012KT 9999 FEW044 31/16 Q1017=
201906271100 METAR LRCL 271100Z 31011KT 9999 FEW044 31/16 Q1016=
201906271130 METAR LRCL 271130Z 31012KT 9999 FEW044 32/15 Q1016=
201906271200 METAR LRCL 271200Z 29009KT 9999 FEW050 32/16 Q1015=
201906271230 METAR LRCL 271230Z 29010KT 9999 FEW050 32/15 Q1015=
201906271300 METAR LRCL 271300Z 30010KT 9999 FEW050 32/16 Q1014=
201906271330 METAR LRCL 271330Z 30009KT 9999 FEW050 31/17 Q1014=
201906271400 METAR LRCL 271400Z 31012KT 9999 FEW050 30/17 Q1014=
201906271430 METAR LRCL 271430Z 34033G47KT 9999 SQ FEW044 SCT065CB 24/14
                        Q1016=
201906271500 METAR COR LRCL 271500Z 35017KT 9999 -TSRA SCT065CB 22/16
                        Q1015 RESQ=
201906271530 METAR COR LRCL 271530Z 04006KT 9999 -TSRA SCT060CB 21/16
                        Q1016 R07/29//95=
201906271600 METAR LRCL 271600Z 22009KT 190V260 9999 -TSRA FEW042 BKN060CB
                        20/16 Q1015 R07/29//95=
201906271630 METAR LRCL 271630Z 26005KT 220V290 9999 -TSRA FEW046 BKN060CB
                        20/17 Q1014 R07/29//95=
201906271700 METAR COR LRCL 271700Z VRB04KT 9999 -TSRA FEW048 BKN060CB
                        20/17 Q1015 R07/29//95=
201906271730 METAR LRCL 271730Z 09003KT 9999 FEW046 SCT060CB 20/17 Q1016
                        RETS R07/29//95=
201906271800 METAR LRCL 271800Z 33004KT 9999 FEW056 FEW065CB 20/18 Q1015
                        RETS R07/29//95=
201906271830 METAR LRCL 271830Z VRB01KT 9999 FEW050CB SCT055 20/18 Q1015
                        R07/15//95=
201906271900 METAR LRCL 271900Z VRB02KT 9999 SCT048 20/18 Q1015 R07/15//95=
201906271930 METAR LRCL 271930Z 00000KT 9999 SCT058 20/18 Q1015 R07/CLRD//=
201906272000 METAR LRCL 272000Z 07004KT 9999 SCT037 20/18 Q1015 R07/CLRD//=
201906272030 METAR LRCL 272030Z VRB02KT 9999 SCT036 19/18 Q1015=
201906272100 METAR LRCL 272100Z 00000KT 9999 FEW036 19/18 Q1015=
201906272130 METAR LRCL 272130Z 00000KT 9999 SCT030 19/18 Q1015=
201906272200 METAR LRCL 272200Z 29004KT 9999 MIFG FEW030 18/17 Q1015=
201906272230 METAR LRCL 272230Z VRB01KT 9999 18/17 Q1015=
201906272300 METAR LRCL 272300Z VRB01KT CAVOK 18/16 Q1015=
201906272330 METAR LRCL 272330Z AUTO VRB02KT 9999 NCD 17/16 Q1015=
201906280000 METAR LRCL 280000Z AUTO 00000KT 9999 NCD 17/16 Q1015=
201906280030 METAR COR LRCL 280030Z 26004KT 220V310 CAVOK 17/15 Q1014=
201906280100 METAR LRCL 280100Z 25004KT 9999 FEW018 17/15 Q1014=
201906280130 METAR COR LRCL 280130Z VRB02KT 9999 SCT015 17/16 Q1015=
201906280200 METAR LRCL 280200Z 26004KT 230V310 9999 BKN012 18/16 Q1015=
201906280230 METAR LRCL 280230Z 28003KT 9999 BKN011 18/16 Q1015=
201906280300 METAR LRCL 280300Z 28005KT 9999 BKN011 18/16 Q1015=
201906280330 METAR LRCL 280330Z 26005KT 230V290 9999 BKN018 18/16 Q1015=
201906280400 METAR LRCL 280400Z 29006KT 9999 SCT015 18/15 Q1015=
201906280430 METAR LRCL 280430Z 28005KT 240V350 9999 SCT017 18/15 Q1015=
201906280500 METAR LRCL 280500Z 28007KT 230V310 9999 SCT020 19/14 Q1015=
201906280530 METAR LRCL 280530Z 27008KT 9999 FEW022 20/13 Q1015=
201906280600 METAR LRCL 280600Z 28008KT 250V320 9999 SCT023 19/13 Q1015=
201906280630 METAR LRCL 280630Z 28009KT 9999 SCT026 19/13 Q1016=
201906280700 METAR LRCL 280700Z 32008KT 290V360 9999 SCT026 20/13 Q1015=
201906280730 METAR LRCL 280730Z 31010KT 270V340 9999 SCT026 20/13 Q1016=
201906280800 METAR LRCL 280800Z 31010KT 260V360 9999 BKN029 22/13 Q1015=
201906280830 METAR LRCL 280830Z 31011KT 9999 BKN034 23/12 Q1016=
201906280900 METAR LRCL 280900Z 30010KT 250V340 9999 BKN034 23/12 Q1016=
201906280930 METAR LRCL 280930Z 31012KT 270V340 9999 BKN036 23/12 Q1016=
201906281000 METAR LRCL 281000Z 31012KT 270V340 9999 BKN039 23/11 Q1015=
201906281030 METAR LRCL 281030Z 31011KT 260V330 9999 BKN040 24/10 Q1016=
201906281100 METAR LRCL 281100Z 31014KT 270V340 9999 SCT045 23/09 Q1016=
201906281130 METAR LRCL 281130Z 32015KT 290V350 9999 SCT045 23/10 Q1016=
201906281200 METAR LRCL 281200Z 30013KT 270V330 9999 SCT053 24/10 Q1016=
201906281230 METAR LRCL 281230Z 30014G24KT 9999 SCT051 24/10 Q1016=
201906281300 METAR LRCL 281300Z 31014KT 9999 SCT054 24/10 Q1015=
201906281330 METAR LRCL 281330Z 30014KT 9999 SCT056 24/10 Q1015=
201906281400 METAR LRCL 281400Z 32016KT 280V340 9999 SCT054 24/08 Q1015=
201906281430 METAR LRCL 281430Z 31016KT 9999 FEW054 23/07 Q1016=
201906281500 METAR LRCL 281500Z 31014KT 9999 FEW054 24/06 Q1016=
201906281530 METAR LRCL 281530Z 30014KT 9999 FEW054 23/07 Q1016=
201906281600 METAR LRCL 281600Z 31015KT 9999 FEW059 23/08 Q1016=
201906281630 METAR LRCL 281630Z 31014KT 9999 FEW060 22/07 Q1016=
201906281700 METAR LRCL 281700Z 30013KT 9999 FEW060 22/08 Q1016=
201906281730 METAR LRCL 281730Z 31012KT 9999 FEW060 21/07 Q1017=
201906281800 METAR LRCL 281800Z 31012KT CAVOK 20/06 Q1017=
201906281830 METAR LRCL 281830Z 30009KT CAVOK 18/08 Q1017=
201906281900 METAR LRCL 281900Z 30009KT CAVOK 17/08 Q1018=
201906281930 METAR LRCL 281930Z 30010KT CAVOK 17/08 Q1018=
201906282000 METAR LRCL 282000Z 31012KT CAVOK 18/07 Q1018=
201906282030 METAR LRCL 282030Z 30011KT CAVOK 17/07 Q1018=
201906282100 METAR LRCL 282100Z 30009KT CAVOK 16/07 Q1018=
201906282130 METAR LRCL 282130Z 30009KT CAVOK 15/07 Q1019=
201906282200 METAR LRCL 282200Z 30008KT CAVOK 15/07 Q1019=
201906282230 METAR LRCL 282230Z 28005KT CAVOK 14/07 Q1019=
201906282300 METAR LRCL 282300Z 30008KT CAVOK 15/06 Q1019=
201906282330 METAR LRCL 282330Z VRB01KT CAVOK 13/07 Q1019=
201906290000 METAR LRCL 290000Z 22004KT CAVOK 14/06 Q1020=
201906290030 METAR LRCL 290030Z 27005KT CAVOK 13/07 Q1020=
201906290100 METAR LRCL 290100Z 27002KT CAVOK 13/07 Q1020=
201906290130 METAR LRCL 290130Z VRB02KT CAVOK 12/08 Q1020=
201906290200 METAR LRCL 290200Z AUTO 30004KT 9999 NCD 11/07 Q1020=
201906290230 METAR LRCL 290230Z 29004KT CAVOK 11/07 Q1020=
201906290300 METAR LRCL 290300Z 29007KT CAVOK 12/07 Q1020=
201906290330 METAR LRCL 290330Z 28006KT CAVOK 12/07 Q1020=
201906290400 METAR LRCL 290400Z 27006KT CAVOK 13/07 Q1020=
201906290430 METAR LRCL 290430Z 28005KT CAVOK 14/07 Q1020=
201906290500 METAR LRCL 290500Z 27006KT CAVOK 16/07 Q1020=
201906290530 METAR LRCL 290530Z 27007KT CAVOK 17/07 Q1020=
201906290600 METAR LRCL 290600Z 27007KT CAVOK 18/07 Q1020=
201906290630 METAR LRCL 290630Z 26006KT 220V310 CAVOK 20/08 Q1020=
201906290700 METAR LRCL 290700Z 30009KT 270V340 CAVOK 21/08 Q1020=
201906290730 METAR LRCL 290730Z 31010KT 270V330 CAVOK 21/07 Q1020=
201906290800 METAR LRCL 290800Z 30011KT 270V330 CAVOK 22/08 Q1020=
201906290830 METAR LRCL 290830Z 32012KT 280V360 9999 FEW040 22/08 Q1020=
201906290900 METAR LRCL 290900Z 31014KT 280V340 9999 FEW052 23/07 Q1020=
201906290930 METAR LRCL 290930Z 32013G25KT 9999 FEW053 22/07 Q1020=
201906291000 METAR LRCL 291000Z 31015KT 280V340 9999 FEW056 22/08 Q1020=
201906291030 METAR LRCL 291030Z 31014KT 270V340 9999 FEW058 23/07 Q1020=
201906291100 METAR LRCL 291100Z 30013KT 270V330 9999 FEW055 23/07 Q1020=
201906291130 METAR LRCL 291130Z 31017KT 9999 FEW055 23/06 Q1020=
201906291200 METAR LRCL 291200Z 32017KT 9999 FEW057 24/05 Q1020=
201906291230 METAR LRCL 291230Z 30017KT 9999 FEW058 24/02 Q1020=
201906291300 METAR LRCL 291300Z 31017KT 9999 FEW058 23/03 Q1020=
201906291330 METAR LRCL 291330Z 32014KT 9999 FEW058 23/05 Q1020=
201906291400 METAR LRCL 291400Z 31016KT 280V340 9999 FEW058 23/05 Q1020=
201906291430 METAR LRCL 291430Z 32014KT 270V350 9999 FEW058 23/07 Q1020=
201906291500 METAR LRCL 291500Z 32015KT 9999 FEW060 22/05 Q1020=
201906291530 METAR LRCL 291530Z 31013KT 9999 FEW060 23/06 Q1020=
201906291600 METAR LRCL 291600Z 30013KT CAVOK 22/07 Q1020=
201906291630 METAR LRCL 291630Z 31013KT CAVOK 22/06 Q1020=
201906291700 METAR LRCL 291700Z 31012KT CAVOK 21/07 Q1020=
201906291730 METAR LRCL 291730Z 30010KT CAVOK 20/07 Q1020=
201906291800 METAR LRCL 291800Z 30009KT CAVOK 19/08 Q1020=
201906291830 METAR LRCL 291830Z 29008KT CAVOK 18/08 Q1021=
201906291900 METAR LRCL 291900Z 29008KT CAVOK 18/08 Q1021=
201906291930 METAR LRCL 291930Z 28008KT CAVOK 17/08 Q1021=
201906292000 METAR LRCL 292000Z 29007KT CAVOK 17/08 Q1021=
201906292030 METAR LRCL 292030Z 27006KT CAVOK 16/08 Q1021=
201906292100 METAR LRCL 292100Z 28007KT CAVOK 16/09 Q1021=
201906292130 METAR LRCL 292130Z 27009KT CAVOK 16/09 Q1021=
201906292200 METAR LRCL 292200Z 27007KT CAVOK 16/09 Q1021=
201906292230 METAR LRCL 292230Z 23005KT 200V260 CAVOK 15/08 Q1021=
201906292300 METAR LRCL 292300Z 29003KT 250V350 CAVOK 14/09 Q1021=
201906292330 METAR LRCL 292330Z 29006KT CAVOK 14/09 Q1021=
201906300000 METAR LRCL 300000Z 28008KT CAVOK 14/09 Q1021=
201906300030 METAR LRCL 300030Z 28007KT CAVOK 14/09 Q1021=
201906300100 METAR LRCL 300100Z 28008KT CAVOK 14/08 Q1021=
201906300130 METAR LRCL 300130Z 27007KT CAVOK 13/08 Q1021=
201906300200 METAR LRCL 300200Z 27007KT CAVOK 13/08 Q1021=
201906300230 METAR LRCL 300230Z 28003KT 240V320 CAVOK 13/08 Q1021=
201906300300 METAR LRCL 300300Z 29006KT CAVOK 13/08 Q1021=
201906300330 METAR LRCL 300330Z 28005KT CAVOK 14/08 Q1021=
201906300400 METAR LRCL 300400Z 28004KT CAVOK 15/08 Q1021=
201906300430 METAR LRCL 300430Z 26003KT 230V320 CAVOK 16/08 Q1022=
201906300500 METAR LRCL 300500Z 25003KT 210V300 CAVOK 17/09 Q1022=
201906300530 METAR LRCL 300530Z 29003KT 250V330 CAVOK 18/08 Q1022=
201906300600 METAR LRCL 300600Z VRB02KT CAVOK 19/09 Q1022=
201906300630 METAR LRCL 300630Z VRB02KT CAVOK 20/08 Q1022=
201906300700 METAR LRCL 300700Z 09003KT 020V160 CAVOK 22/09 Q1022=
201906300730 METAR LRCL 300730Z 08004KT 030V180 CAVOK 22/09 Q1022=
201906300800 METAR LRCL 300800Z 08004KT 020V150 CAVOK 23/10 Q1023=
201906300830 METAR COR LRCL 300830Z VRB03KT CAVOK 25/10 Q1022=
201906300900 METAR LRCL 300900Z 21004KT 130V270 CAVOK 24/10 Q1022=
201906300930 METAR LRCL 300930Z 33007KT 290V010 CAVOK 26/11 Q1022=
201906301000 METAR LRCL 301000Z 32008KT 280V340 CAVOK 26/11 Q1022=
201906301030 METAR LRCL 301030Z 32009KT CAVOK 26/11 Q1022=
201906301100 METAR LRCL 301100Z 31009KT 270V340 CAVOK 27/11 Q1022=
201906301130 METAR LRCL 301130Z 30009KT 270V360 CAVOK 28/11 Q1022=
201906301200 METAR LRCL 301200Z 28009KT 250V310 CAVOK 28/11 Q1022=
201906301230 METAR LRCL 301230Z 28009KT 250V310 CAVOK 28/11 Q1022=
201906301300 METAR LRCL 301300Z 29007KT 260V330 CAVOK 28/12 Q1021=
201906301330 METAR LRCL 301330Z 28010KT 250V330 CAVOK 28/11 Q1021=
201906301400 METAR LRCL 301400Z 31007KT 270V360 CAVOK 29/12 Q1021=
201906301430 METAR LRCL 301430Z 33008KT 290V360 CAVOK 28/11 Q1021=
201906301500 METAR LRCL 301500Z 31008KT CAVOK 28/12 Q1021=
201906301530 METAR LRCL 301530Z 32008KT CAVOK 28/11 Q1021=
201906301600 METAR LRCL 301600Z 31007KT 280V340 CAVOK 28/12 Q1021=
201906301630 METAR LRCL 301630Z 31008KT CAVOK 27/12 Q1021=
201906301700 METAR LRCL 301700Z 31005KT CAVOK 26/13 Q1021=
201906301730 METAR LRCL 301730Z 34007KT CAVOK 26/13 Q1021=
201906301800 METAR LRCL 301800Z 34008KT CAVOK 25/12 Q1021=
201906301830 METAR LRCL 301830Z 33007KT CAVOK 24/12 Q1021=
201906301900 METAR LRCL 301900Z VRB01KT CAVOK 22/13 Q1021=
201906301930 METAR LRCL 301930Z VRB02KT CAVOK 21/14 Q1021=
201906302000 METAR LRCL 302000Z 28003KT CAVOK 20/14 Q1021=
201906302030 METAR LRCL 302030Z 27005KT CAVOK 19/14 Q1021=
201906302100 METAR LRCL 302100Z 28005KT CAVOK 19/14 Q1022=
201906302130 METAR LRCL 302130Z 26004KT CAVOK 19/14 Q1021=
201906302200 METAR LRCL 302200Z VRB02KT CAVOK 18/14 Q1021=
201906302230 METAR LRCL 302230Z VRB01KT CAVOK 17/14 Q1021=
201906302300 METAR LRCL 302300Z 00000KT CAVOK 17/14 Q1021=
201906302330 METAR COR LRCL 302330Z 25003KT CAVOK 17/13 Q1021=