201907010200 TAF LRCL 010200Z 0103/0112 VRB04KT CAVOK=
201907010500 TAF LRCL 010500Z 0106/0115 VRB04KT CAVOK=
201907010800 TAF LRCL 010800Z 0109/0118 VRB04KT CAVOK=
201907011100 TAF LRCL 011100Z 0112/0121 14007KT CAVOK=
201907011400 TAF LRCL 011400Z 0115/0124 VRB04KT CAVOK=
201907011700 TAF LRCL 011700Z 0118/0203 VRB04KT CAVOK=
201907012000 TAF LRCL 012000Z 0121/0206 VRB04KT CAVOK=
201907012300 TAF LRCL 012300Z 0200/0209 VRB04KT CAVOK=
201907020200 TAF LRCL 020200Z 0203/0212 VRB04KT CAVOK=
201907020500 TAF LRCL 020500Z 0206/0215 VRB04KT CAVOK=
201907020800 TAF LRCL 020800Z 0209/0218 VRB04KT CAVOK=
201907021100 TAF LRCL 021100Z 0212/0221 VRB04KT CAVOK=
201907021400 TAF LRCL 021400Z 0215/0224 31008KT CAVOK=
201907021700 TAF LRCL 021700Z 0218/0303 27006KT CAVOK
                      TEMPO 0218/0220 33010KT=
201907022000 TAF LRCL 022000Z 0221/0306 27006KT CAVOK=
201907022300 TAF LRCL 022300Z 0300/0309 26006KT CAVOK
                      PROB40 TEMPO 0301/0305 SCT050CB
                      BECMG 0306/0308 32010KT=
201907030200 TAF LRCL 030200Z 0303/0312 26006KT CAVOK
                      PROB40 TEMPO 0304/0309 -TSRA SCT050CB
                      BECMG 0306/0308 32010KT=
201907030500 TAF LRCL 030500Z 0306/0315 29008KT CAVOK
                      TEMPO 0306/0309 VRB20G30KT 3000 TSRA BKN010
                       BKN030CB
                      PROB30 0306/0308 1500 +TSRA=
201907030800 TAF LRCL 030800Z 0309/0318 VRB04KT CAVOK
                      TEMPO 0312/0318 VRB20G30KT 3000 TSRA BKN010
                       BKN030CB=
201907031100 TAF LRCL 031100Z 0312/0321 30010KT CAVOK
                      PROB30 TEMPO 0312/0317 VRB20G30KT 3000 TSRA
                       BKN010 BKN030CB=
201907031400 TAF LRCL 031400Z 0315/0324 30012KT CAVOK
                      TEMPO 0315/0317 SCT030CB=
201907031700 TAF LRCL 031700Z 0318/0403 32010KT CAVOK
                      BECMG 0318/0320 VRB04KT=
201907032000 TAF LRCL 032000Z 0321/0406 VRB04KT CAVOK=
201907032300 TAF LRCL 032300Z 0400/0409 VRB04KT CAVOK=
201907040200 TAF LRCL 040200Z 0403/0412 VRB04KT CAVOK=
201907040500 TAF LRCL 040500Z 0406/0415 VRB04KT CAVOK
                      TEMPO 0410/0415 32012KT SCT040CB=
201907040800 TAF LRCL 040800Z 0409/0418 VRB04KT CAVOK
                      TEMPO 0410/0417 32012KT SCT040CB=
201907041100 TAF LRCL 041100Z 0412/0421 VRB04KT CAVOK
                      TEMPO 0412/0417 32012KT SCT040CB=
201907041400 TAF LRCL 041400Z 0415/0424 35010KT CAVOK
                      BECMG 0419/0421 VRB04KT=
201907041700 TAF LRCL 041700Z 0418/0503 32008KT CAVOK=
201907042000 TAF LRCL 042000Z 0421/0506 VRB04KT CAVOK
                      TEMPO 0500/0505 3000 BR=
201907042300 TAF LRCL 042300Z 0500/0509 29006KT CAVOK
                      TEMPO 0500/0505 3000 BR=
201907050200 TAF LRCL 050200Z 0503/0512 27006KT CAVOK
                      TEMPO 0503/0505 3000 BR=
201907050500 TAF LRCL 050500Z 0506/0515 VRB04KT CAVOK
                      BECMG 0508/0510 30012KT=
201907050800 TAF LRCL 050800Z 0509/0518 VRB04KT CAVOK
                      BECMG 0509/0511 30012KT
                      PROB40 TEMPO 0514/0518 SCT040CB=
201907051100 TAF LRCL 051100Z 0512/0521 31010KT CAVOK
                      PROB40 TEMPO 0515/0519 FEW040CB=
201907051400 TAF LRCL 051400Z 0515/0524 32010KT CAVOK
                      PROB30 TEMPO 0515/0518 FEW040CB
                      BECMG 0518/0520 26007KT=
201907051700 TAF LRCL 051700Z 0518/0603 28007KT CAVOK=
201907052000 TAF LRCL 052000Z 0521/0606 28007KT CAVOK=
201907052300 TAF LRCL 052300Z 0600/0609 28007KT CAVOK=
201907060200 TAF LRCL 060200Z 0603/0612 28006KT CAVOK
                      TEMPO 0609/0612 SCT045CB=
201907060500 TAF LRCL 060500Z 0606/0615 24006KT CAVOK=
201907060800 TAF LRCL 060800Z 0609/0618 30008KT CAVOK=
201907061100 TAF LRCL 061100Z 0612/0621 30008KT CAVOK=
201907061400 TAF LRCL 061400Z 0615/0624 30010KT CAVOK
                      BECMG 0616/0618 VRB04KT=
201907061700 TAF LRCL 061700Z 0618/0703 27005KT CAVOK=
201907062000 TAF LRCL 062000Z 0621/0706 27005KT CAVOK=
201907062300 TAF LRCL 062300Z 0700/0709 27005KT CAVOK=
201907070200 TAF LRCL 070200Z 0703/0712 VRB04KT CAVOK
                      TEMPO 0708/0712 VRB15G25KT 5000 TSRA SCT015
                       BKN030CB=
201907070500 TAF LRCL 070500Z 0706/0715 VRB04KT CAVOK
                      TEMPO 0708/0715 VRB15G25KT 5000 TSRA SCT015
                       BKN030CB=
201907070800 TAF LRCL 070800Z 0709/0718 VRB04KT CAVOK
                      TEMPO 0710/0717 VRB15G25KT 5000 TSRA SCT015
                       BKN030CB=
201907071100 TAF LRCL 071100Z 0712/0721 VRB04KT CAVOK
                      TEMPO 0712/0717 VRB15G25KT 5000 SHRA SCT040CB
                       PROB30 0712/0715 -TSRA=
201907071400 TAF LRCL 071400Z 0715/0724 VRB04KT CAVOK
                      TEMPO 0721/0724 5000 TSRA SCT040CB=
201907071700 TAF LRCL 071700Z 0718/0803 VRB04KT CAVOK
                      PROB40 TEMPO 0723/0803 3000 TSRA BKN045CB=
201907072000 TAF LRCL 072000Z 0721/0806 VRB04KT CAVOK
                      PROB40 TEMPO 0723/0803 3000 TSRA BKN045CB=
201907072300 TAF LRCL 072300Z 0800/0809 VRB04KT 9999 SCT045CB
                      TEMPO 0800/0803 5000 -SHRA
                      BECMG 0803/0805 NSC=
201907080200 TAF LRCL 080200Z 0803/0812 30008KT CAVOK=
201907080500 TAF LRCL 080500Z 0806/0815 30010KT 9999 SCT045=
201907080800 TAF LRCL 080800Z 0809/0818 31012KT 9999 SCT045=
201907081100 TAF LRCL 081100Z 0812/0821 30014KT 9999 SCT045=
201907081400 TAF LRCL 081400Z 0815/0824 30009KT CAVOK=
201907081700 TAF LRCL 081700Z 0818/0903 VRB04KT CAVOK=
201907082000 TAF LRCL 082000Z 0821/0906 VRB04KT CAVOK=
201907082300 TAF LRCL 082300Z 0900/0909 VRB04KT CAVOK=
201907090200 TAF LRCL 090200Z 0903/0912 25006KT CAVOK=
201907090500 TAF LRCL 090500Z 0906/0915 27006KT CAVOK
                      BECMG 0907/0909 33012KT
                      TEMPO 0911/0915 FEW050CB=
201907090800 TAF LRCL 090800Z 0909/0918 31012KT CAVOK
                      TEMPO 0911/0916 FEW050CB=
201907091100 TAF LRCL 091100Z 0912/0921 32008KT CAVOK
                      TEMPO 0912/0916 FEW050CB=
201907091400 TAF LRCL 091400Z 0915/0924 32008KT CAVOK
                      TEMPO 0915/0917 FEW050CB=
201907091700 TAF LRCL 091700Z 0918/1003 28006KT CAVOK
                      PROB30 TEMPO 0918/0921 SCT045CB=
201907092000 TAF LRCL 092000Z 0921/1006 29007KT CAVOK=
201907092300 TAF LRCL 092300Z 1000/1009 VRB03KT CAVOK
                      BECMG 1005/1007 32010KT
                      PROB30 TEMPO 1007/1009 SCT040CB=
201907100200 TAF LRCL 100200Z 1003/1012 VRB04KT CAVOK
                      BECMG 1005/1007 32010KT
                      PROB30 TEMPO 1007/1012 SCT040CB=
201907100500 TAF LRCL 100500Z 1006/1015 30010KT CAVOK
                      TEMPO 1011/1015 30015G25KT=
201907100800 TAF LRCL 100800Z 1009/1018 33010KT CAVOK
                      TEMPO 1011/1015 33015G25KT=
201907101100 TAF LRCL 101100Z 1012/1021 32012KT CAVOK
                      TEMPO 1012/1015 32015G25KT -TSRA SCT040CB=
201907101400 TAF LRCL 101400Z 1015/1024 32015KT CAVOK
                      TEMPO 1015/1017 SCT045CB
                      BECMG 1017/1019 30005KT=
201907101700 TAF LRCL 101700Z 1018/1103 29006KT CAVOK=
201907102000 TAF LRCL 102000Z 1021/1106 29006KT CAVOK=
201907102300 TAF LRCL 102300Z 1100/1109 VRB04KT CAVOK
                      BECMG 1107/1109 33012KT=
201907110200 TAF LRCL 110200Z 1103/1112 27005KT CAVOK
                      BECMG 1106/1108 33012KT
                      TEMPO 1109/1112 5000 -SHRA SCT030CB BKN060
                       PROB30
                      TEMPO 1110/1112 TSRA=
201907110500 TAF LRCL 110500Z 1106/1115 26006KT CAVOK
                      BECMG 1106/1108 33010KT
                      TEMPO 1110/1114 5000 -SHRA SCT030CB BKN050
                       PROB40
                      TEMPO 1111/1114 VRB20KT TSRA=
201907110800 TAF LRCL 110800Z 1109/1118 30008KT 9999 SCT045
                      TEMPO 1110/1115 5000 -SHRA SCT030CB BKN040
                       PROB40
                      TEMPO 1111/1115 VRB20KT 3000 TSRA=
201907111100 TAF LRCL 111100Z 1112/1121 VRB04KT 9999 FEW045CB
                      TEMPO 1113/1117 VRB20KT 5000 -TSRA BKN035CB
                       BECMG 1119/1121 NSC=
201907111400 TAF LRCL 111400Z 1115/1124 33008KT 9999 FEW045CB
                      TEMPO 1115/1119 VRB20KT 5000 -TSRA BKN035CB
                       BECMG 1119/1121 NSC=
201907111700 TAF LRCL 111700Z 1118/1203 30008KT 9999 SCT035CB BKN040
                      TEMPO 1118/1120 5000 -SHRA
                      BECMG 1120/1122 CAVOK
                      TEMPO 1122/1203 3000 BR=
201907112000 TAF LRCL 112000Z 1121/1206 VRB04KT CAVOK
                      TEMPO 1122/1203 3000 BR=
201907112300 TAF LRCL 112300Z 1200/1209 VRB04KT CAVOK
                      TEMPO 1200/1204 3000 BR=
201907120200 TAF LRCL 120200Z 1203/1212 27006KT CAVOK
                      TEMPO 1203/1205 3000 BR=
201907120500 TAF LRCL 120500Z 1206/1215 26005KT CAVOK=
201907120800 TAF LRCL 120800Z 1209/1218 26005KT 9999 BKN025=
201907121100 TAF LRCL 121100Z 1212/1221 30005KT 9999 BKN045=
201907121400 TAF LRCL 121400Z 1215/1224 30006KT 9999 SCT045=
201907121700 TAF LRCL 121700Z 1218/1303 30006KT CAVOK=
201907122000 TAF LRCL 122000Z 1221/1306 VRB04KT CAVOK=
201907122300 TAF LRCL 122300Z 1300/1309 VRB04KT CAVOK=
201907130200 TAF LRCL 130200Z 1303/1312 VRB04KT CAVOK
                      TEMPO 1308/1312 SCT040CB=
201907130500 TAF LRCL 130500Z 1306/1315 VRB04KT CAVOK
                      TEMPO 1311/1315 VRB20KT 5000 -TSRA SCT040CB=
201907130800 TAF LRCL 130800Z 1309/1318 VRB04KT CAVOK
                      TEMPO 1311/1317 VRB20KT 5000 -TSRA SCT040CB=
201907131100 TAF LRCL 131100Z 1312/1321 VRB04KT 9999 SCT040 BKN060
                      TEMPO 1312/1317 5000 -SHRA SCT040CB BKN060
                       PROB30 1313/1316 VRB16KT -TSRA=
201907131400 TAF LRCL 131400Z 1315/1324 VRB04KT 9999 SCT040 BKN060
                      TEMPO 1315/1318 VRB16KT 5000 -TSRA SCT040CB
                       BKN060=
201907131700 TAF LRCL 131700Z 1318/1403 VRB04KT 9999 SCT045
                      TEMPO 1318/1321 5000 -SHRA SCT045CB BKN060=
201907132000 TAF LRCL 132000Z 1321/1406 VRB04KT 9999 BKN045=
201907132300 TAF LRCL 132300Z 1400/1409 VRB04KT 9999 SCT050
                      TEMPO 1406/1409 5000 -RA BKN015 BKN040=
201907140200 TAF LRCL 140200Z 1403/1412 VRB04KT 9999 SCT050
                      TEMPO 1406/1412 5000 -RA BKN015 BKN040
                      PROB40 TEMPO 1409/1412 VRB15G25KT 3000 TSRA
                       SCT015 BKN040CB=
201907140500 TAF LRCL 140500Z 1406/1415 VRB04KT 9999 BKN065
                      TEMPO 1409/1415 SCT040CB
                      PROB30 TEMPO 1410/1415 VRB16KT 5000 TSRA
                       BKN040CB=
201907140800 TAF LRCL 140800Z 1409/1418 VRB04KT 9999 BKN050
                      TEMPO 1409/1416 SCT040CB
                      PROB40 TEMPO 1410/1416 VRB16KT 5000 TSRA
                       BKN040CB=
201907141100 TAF LRCL 141100Z 1412/1421 VRB04KT 9999 BKN035
                      TEMPO 1412/1417 SCT030CB
                      PROB40 TEMPO 1412/1416 VRB16KT 5000 TSRA
                       BKN030CB=
201907141400 TAF LRCL 141400Z 1415/1424 30008KT 9999 SCT040
                      TEMPO 1415/1418 SCT035CB
                      PROB40 TEMPO 1415/1417 VRB16KT 5000 TSRA
                       BKN030CB=
201907141700 TAF LRCL 141700Z 1418/1503 30007KT 9999 SCT035CB BKN060
                      TEMPO 1418/1421 5000 -TSRA
                      TEMPO 1500/1503 5000 SHRA=
201907142000 TAF LRCL 142000Z 1421/1506 VRB04KT 9999 SCT060
                      TEMPO 1421/1424 FEW050CB SCT060
                      TEMPO 1502/1506 5000 -SHRA BKN010 SCT045CB
                       BKN060=
201907142300 TAF LRCL 142300Z 1500/1509 VRB04KT CAVOK
                      PROB40 TEMPO 1502/1509 5000 -SHRA BKN010
                       SCT040CB BKN050=
201907150200 TAF LRCL 150200Z 1503/1512 30008KT CAVOK
                      PROB40 TEMPO 1503/1509 5000 -SHRA BKN010
                       SCT040CB BKN050
                      TEMPO 1509/1512 VRB20KT 5000 -TSRA SCT045CB=
201907150500 TAF LRCL 150500Z 1506/1515 28008KT CAVOK
                      TEMPO 1506/1509 5000 SHRA SCT015 BKN030CB
                       TEMPO 1512/1515 VRB15G25KT 3000 TSRA BKN010
                       BKN030CB=
201907150800 TAF LRCL 150800Z 1509/1518 VRB04KT 9999 SCT035
                      TEMPO 1511/1516 VRB15G25KT 3000 TSRA BKN010
                       BKN030CB=
201907151100 TAF LRCL 151100Z 1512/1521 VRB04KT 9999 BKN035
                      TEMPO 1512/1517 VRB15G25KT 3000 TSRA BKN010
                       BKN030CB=
201907151400 TAF LRCL 151400Z 1515/1524 VRB04KT 9999 BKN035
                      TEMPO 1515/1518 VRB15G25KT 5000 TSRA BKN015
                       BKN030CB=
201907151700 TAF LRCL 151700Z 1518/1603 VRB04KT CAVOK
                      TEMPO 1600/1603 3000 BR=
201907152000 TAF LRCL 152000Z 1521/1606 VRB04KT CAVOK
                      TEMPO 1600/1604 3000 BR=
201907152300 TAF AMD LRCL 160215Z 1602/1609 VRB04KT 0800 FG NSC
                      TEMPO 1602/1604 0300 FG VV001
                      BECMG 1604/1605 5000 BR
                      BECMG 1605/1607 9999 NSW=
201907160215 TAF AMD LRCL 160215Z 1602/1609 VRB04KT 0800 FG NSC
                      TEMPO 1602/1604 0300 FG VV001
                      BECMG 1604/1605 5000 BR
                      BECMG 1605/1607 9999 NSW=
201907160220 TAF LRCL 160220Z 1603/1612 VRB04KT 0800 FG NSC
                      PROB40 TEMPO 1603/1604 0300 FG VV001
                      BECMG 1604/1605 3000 BR
                      BECMG 1605/1607 9999 NSW=
201907160800 TAF LRCL 160800Z 1609/1618 05006KT CAVOK
                      TEMPO 1611/1617 SCT040CB
                      PROB40 TEMPO 1612/1617 VRB15G25KT 5000 -TSRA=
201907161100 TAF LRCL 161100Z 1612/1621 07006KT 9999 SCT045
                      TEMPO 1612/1617 SCT040CB
                      PROB40 TEMPO 1612/1616 5000 -TSRA=
201907161400 TAF LRCL 161400Z 1615/1624 VRB04KT 9999 FEW050
                      TEMPO 1615/1618 SCT040CB=
201907161700 TAF LRCL 161700Z 1618/1703 VRB04KT CAVOK
                      TEMPO 1700/1703 3000 BR=
201907162000 TAF LRCL 162000Z 1621/1706 VRB04KT CAVOK
                      TEMPO 1700/1705 3000 BR=
201907162300 TAF LRCL 162300Z 1700/1709 VRB04KT CAVOK
                      TEMPO 1700/1705 3000 BR=
201907170200 TAF LRCL 170200Z 1703/1712 VRB04KT CAVOK
                      TEMPO 1703/1705 3000 BR
                      BECMG 1710/1712 33010KT=
201907170500 TAF LRCL 170500Z 1706/1715 VRB04KT CAVOK
                      BECMG 1708/1710 32010KT
                      PROB40 TEMPO 1710/1715 FEW040CB=
201907170800 TAF LRCL 170800Z 1709/1718 VRB04KT CAVOK
                      BECMG 1709/1711 32010KT
                      TEMPO 1710/1715 FEW040CB=
201907171100 TAF LRCL 171100Z 1712/1721 31010KT CAVOK
                      TEMPO 1712/1715 FEW040CB
                      BECMG 1717/1719 25006KT=
201907171400 TAF LRCL 171400Z 1715/1724 33010KT CAVOK
                      BECMG 1717/1719 25006KT=
201907171700 TAF LRCL 171700Z 1718/1803 33010KT CAVOK
                      BECMG 1718/1720 VRB04KT=
201907172000 TAF LRCL 172000Z 1721/1806 31006KT CAVOK=
201907172300 TAF LRCL 172300Z 1800/1809 30006KT CAVOK=
201907180200 TAF LRCL 180200Z 1803/1812 28008KT CAVOK=
201907180500 TAF LRCL 180500Z 1806/1815 VRB04KT CAVOK
                      TEMPO 1812/1815 SCT050CB=
201907180800 TAF LRCL 180800Z 1809/1818 VRB04KT CAVOK
                      TEMPO 1812/1816 SCT050CB=
201907181100 TAF LRCL 181100Z 1812/1821 VRB04KT CAVOK
                      TEMPO 1813/1816 SCT050CB=
201907181400 TAF LRCL 181400Z 1815/1824 VRB04KT 9999 FEW050CB
                      BECMG 1815/1817 NSC=
201907181700 TAF LRCL 181700Z 1818/1903 24006KT 9999 SCT040
                      TEMPO 1818/1820 VRB16KT -TSRA SCT040CB
                      PROB40 TEMPO 1820/1824 VRB16KT -TSRA SCT040CB=
201907182000 TAF LRCL 182000Z 1821/1906 24006KT 9999 SCT040
                      PROB40 TEMPO 1821/1824 VRB16KT -TSRA SCT040CB=
201907182300 TAF LRCL 182300Z 1900/1909 24006KT CAVOK=
201907190200 TAF LRCL 190200Z 1903/1912 VRB04KT CAVOK
                      PROB30 TEMPO 1903/1905 3000 BR
                      TEMPO 1910/1912 FEW040CB=
201907190500 TAF LRCL 190500Z 1906/1915 VRB04KT CAVOK
                      PROB40 TEMPO 1910/1915 VRB15G25KT 5000 -TSRA
                       SCT030CB=
201907190800 TAF LRCL 190800Z 1909/1918 VRB04KT CAVOK
                      PROB40 TEMPO 1910/1915 VRB15G25KT 5000 -TSRA
                       SCT030CB=
201907191100 TAF LRCL 191100Z 1912/1921 VRB04KT CAVOK
                      TEMPO 1912/1916 VRB15G25KT 3000 TSRA BKN030CB=
201907191400 TAF LRCL 191400Z 1915/1924 VRB04KT CAVOK
                      TEMPO 1915/1917 SCT030CB=
201907191700 TAF LRCL 191700Z 1918/2003 VRB04KT CAVOK=
201907192000 TAF LRCL 192000Z 1921/2006 VRB04KT CAVOK=
201907192300 TAF LRCL 192300Z 2000/2009 VRB04KT CAVOK=
201907200200 TAF LRCL 200200Z 2003/2012 VRB04KT CAVOK=
201907200500 TAF LRCL 200500Z 2006/2015 VRB04KT CAVOK
                      TEMPO 2012/2015 SCT045CB=
201907200800 TAF LRCL 200800Z 2009/2018 VRB04KT CAVOK
                      TEMPO 2012/2015 SCT045CB=
201907201100 TAF LRCL 201100Z 2012/2021 VRB04KT CAVOK
                      TEMPO 2012/2015 SCT045CB=
201907201400 TAF LRCL 201400Z 2015/2024 VRB04KT CAVOK
                      TEMPO 2015/2017 SCT045CB=
201907201700 TAF LRCL 201700Z 2018/2103 VRB04KT CAVOK=
201907202000 TAF LRCL 202000Z 2021/2106 VRB04KT CAVOK=
201907202300 TAF LRCL 202300Z 2100/2109 VRB04KT CAVOK=
201907210200 TAF LRCL 210200Z 2103/2112 VRB04KT CAVOK
                      TEMPO 2103/2105 3000 BR=
201907210500 TAF LRCL 210500Z 2106/2115 VRB04KT CAVOK
                      TEMPO 2112/2115 FEW040CB
                      PROB40 TEMPO 2113/2115 5000 SHRA=
201907210800 TAF LRCL 210800Z 2109/2118 VRB04KT CAVOK
                      TEMPO 2112/2117 FEW040CB
                      PROB40 TEMPO 2113/2117 5000 SHRA=
201907211100 TAF LRCL 211100Z 2112/2121 VRB04KT CAVOK
                      TEMPO 2112/2117 FEW040CB
                      PROB40 TEMPO 2113/2117 5000 SHRA=
201907211400 TAF LRCL 211400Z 2115/2124 VRB04KT CAVOK
                      TEMPO 2115/2117 FEW040CB=
201907211700 TAF LRCL 211700Z 2118/2203 VRB04KT CAVOK
                      PROB30 TEMPO 2200/2203 VRB20KT 5000 TSRA
                       SCT040CB=
201907212000 TAF LRCL 212000Z 2121/2206 VRB04KT CAVOK
                      PROB30 TEMPO 2200/2203 VRB20KT 5000 TSRA
                       SCT040CB=
201907212300 TAF LRCL 212300Z 2200/2209 VRB04KT CAVOK
                      PROB30 TEMPO 2200/2203 VRB20KT 5000 TSRA
                       SCT045CB
                      TEMPO 2203/2209 5000 -SHRA SCT040CB=
201907220200 TAF LRCL 220200Z 2203/2212 VRB04KT CAVOK
                      PROB40 TEMPO 2203/2206 VRB16KT -TSRA SCT040CB
                       BECMG 2207/2209 32010KT
                      TEMPO 2209/2212 VRB20KT 5000 TSRA SCT040CB=
201907220500 TAF LRCL 220500Z 2206/2215 VRB04KT 9999 SCT040
                      PROB40 TEMPO 2206/2209 VRB18KT 5000 -TSRA
                       SCT040CB
                      TEMPO 2211/2215 VRB20G30KT 3000 TSRA SCT010
                       BKN035CB=
201907220800 TAF LRCL 220800Z 2209/2218 VRB04KT 9999 SCT040
                      TEMPO 2211/2215 VRB20G30KT 3000 TSRA SCT010
                       BKN035CB=
201907221100 TAF LRCL 221100Z 2212/2221 VRB04KT 9999 SCT040
                      TEMPO 2212/2215 VRB20G30KT 3000 TSRA SCT010
                       BKN035CB=
201907221400 TAF LRCL 221400Z 2215/2224 32008KT 9999 SCT050
                      PROB30 TEMPO 2215/2217 SCT045CB=
201907221700 TAF LRCL 221700Z 2218/2303 30008KT 9999 SCT050=
201907222000 TAF LRCL 222000Z 2221/2306 28006KT CAVOK=
201907222300 TAF LRCL 222300Z 2300/2309 30008KT CAVOK
                      PROB40 TEMPO 2308/2309 FEW040CB=
201907230200 TAF LRCL 230200Z 2303/2312 VRB04KT CAVOK
                      BECMG 2306/2308 32010KT
                      TEMPO 2309/2312 FEW040CB=
201907230500 TAF LRCL 230500Z 2306/2315 VRB04KT CAVOK
                      BECMG 2306/2308 32010KT
                      BECMG 2310/2312 SCT040CB
                      TEMPO 2313/2315 VRB15G25KT 5000 -TSRA=
201907230800 TAF LRCL 230800Z 2309/2318 32010KT 9999 SCT045
                      BECMG 2311/2313 SCT040CB
                      TEMPO 2313/2316 VRB15G25KT 5000 -TSRA=
201907231100 TAF LRCL 231100Z 2312/2321 33010KT 9999 SCT045CB
                      TEMPO 2313/2316 VRB15G25KT 5000 -TSRA
                      BECMG 2317/2319 VRB04KT NSC=
201907231400 TAF LRCL 231400Z 2315/2324 33008KT 9999 SCT045
                      TEMPO 2315/2318 VRB18KT 5000 -SHRA SCT040CB=
201907231700 TAF LRCL 231700Z 2318/2403 33008KT 9999 SCT045=
201907232000 TAF LRCL 232000Z 2321/2406 27006KT 9999 SCT045=
201907232300 TAF LRCL 232300Z 2400/2409 27006KT CAVOK=
201907240200 TAF LRCL 240200Z 2403/2412 VRB04KT CAVOK=
201907240500 TAF LRCL 240500Z 2406/2415 30006KT CAVOK
                      TEMPO 2413/2415 SCT040CB=
201907240800 TAF LRCL 240800Z 2409/2418 VRB04KT 9999 SCT035
                      BECMG 2412/2414 33010KT
                      TEMPO 2412/2416 SCT035CB=
201907241100 TAF LRCL 241100Z 2412/2421 VRB04KT 9999 SCT045
                      TEMPO 2412/2416 33010KT SCT045CB=
201907241400 TAF LRCL 241400Z 2415/2424 33006KT 9999 SCT045
                      TEMPO 2415/2417 33010KT SCT045CB=
201907241700 TAF LRCL 241700Z 2418/2503 33008KT 9999 SCT045=
201907242000 TAF LRCL 242000Z 2421/2506 VRB04KT CAVOK=
201907242300 TAF LRCL 242300Z 2500/2509 27006KT CAVOK=
201907250200 TAF LRCL 250200Z 2503/2512 27006KT CAVOK=
201907250500 TAF LRCL 250500Z 2506/2515 28006KT 9999 SCT065=
201907250800 TAF LRCL 250800Z 2509/2518 VRB04KT 9999 SCT035=
201907251100 TAF LRCL 251100Z 2512/2521 VRB04KT 9999 SCT045=
201907251400 TAF LRCL 251400Z 2515/2524 VRB04KT 9999 SCT050=
201907251700 TAF LRCL 251700Z 2518/2603 VRB04KT CAVOK=
201907252000 TAF LRCL 252000Z 2521/2606 VRB04KT CAVOK=
201907252300 TAF LRCL 252300Z 2600/2609 VRB04KT CAVOK=
201907260200 TAF LRCL 260200Z 2603/2612 VRB04KT CAVOK=
201907260500 TAF LRCL 260500Z 2606/2615 VRB04KT CAVOK=
201907260800 TAF LRCL 260800Z 2609/2618 VRB04KT CAVOK=
201907261100 TAF LRCL 261100Z 2612/2621 VRB04KT CAVOK
                      TEMPO 2612/2616 SCT035CB=
201907261400 TAF LRCL 261400Z 2615/2624 VRB04KT CAVOK
                      TEMPO 2615/2617 SCT035CB=
201907261700 TAF LRCL 261700Z 2618/2703 VRB04KT CAVOK=
201907262000 TAF LRCL 262000Z 2621/2706 VRB04KT CAVOK
                      TEMPO 2621/2623 SCT045CB=
201907262300 TAF LRCL 262300Z 2700/2709 VRB04KT CAVOK
                      TEMPO 2700/2703 28010KT FEW050CB=
201907270200 TAF LRCL 270200Z 2703/2712 VRB04KT CAVOK
                      TEMPO 2710/2712 SCT045CB=
201907270500 TAF LRCL 270500Z 2706/2715 VRB04KT CAVOK
                      TEMPO 2710/2715 SCT045CB=
201907270800 TAF LRCL 270800Z 2709/2718 11007KT CAVOK
                      TEMPO 2710/2716 SCT045CB=
201907271100 TAF LRCL 271100Z 2712/2721 11007KT 9999 SCT040
                      TEMPO 2712/2716 SCT040CB
                      PROB30 2712/2715 VRB18KT 5000 -TSRA=
201907271400 TAF LRCL 271400Z 2715/2724 VRB04KT 9999 SCT045CB
                      BECMG 2715/2717 NSC=
201907271700 TAF LRCL 271700Z 2718/2803 VRB04KT CAVOK=
201907272000 TAF LRCL 272000Z 2721/2806 VRB04KT CAVOK=
201907272300 TAF LRCL 272300Z 2800/2809 VRB04KT CAVOK=
201907280200 TAF LRCL 280200Z 2803/2812 VRB04KT CAVOK=
201907280500 TAF LRCL 280500Z 2806/2815 VRB04KT CAVOK
                      BECMG 2806/2808 13010KT
                      TEMPO 2811/2815 SCT045CB
                      PROB30 TEMPO 2812/2815 VRB20KT 5000 -TSRA=
201907280800 TAF LRCL 280800Z 2809/2818 12006KT CAVOK
                      TEMPO 2811/2815 SCT045CB
                      PROB30 TEMPO 2812/2815 VRB20KT 5000 -TSRA=
201907281100 TAF LRCL 281100Z 2812/2821 12010KT CAVOK
                      TEMPO 2812/2815 SCT045CB
                      PROB30 TEMPO 2812/2815 VRB20KT 5000 -TSRA
                       BECMG 2818/2820 VRB04KT=
201907281400 TAF LRCL 281400Z 2815/2824 13010KT CAVOK
                      PROB30 TEMPO 2815/2817 SCT040CB
                      BECMG 2818/2820 VRB04KT=
201907281700 TAF LRCL 281700Z 2818/2903 15006KT CAVOK=
201907282000 TAF LRCL 282000Z 2821/2906 VRB04KT CAVOK=
201907282300 TAF LRCL 282300Z 2900/2909 VRB04KT CAVOK=
201907290200 TAF LRCL 290200Z 2903/2912 VRB04KT CAVOK=
201907290500 TAF LRCL 290500Z 2906/2915 VRB04KT CAVOK
                      TEMPO 2911/2915 FEW045CB=
201907290800 TAF LRCL 290800Z 2909/2918 VRB04KT CAVOK
                      TEMPO 2911/2917 FEW045CB=
201907291100 TAF LRCL 291100Z 2912/2921 VRB04KT 9999 SCT060
                      TEMPO 2912/2917 FEW045CB=
201907291400 TAF LRCL 291400Z 2915/2924 27006KT 9999 SCT045
                      TEMPO 2915/2917 SCT045CB=
201907291700 TAF LRCL 291700Z 2918/3003 27006KT CAVOK=
201907292000 TAF LRCL 292000Z 2921/3006 VRB04KT CAVOK
                      PROB40 TEMPO 3002/3005 5000 BR=
201907292300 TAF LRCL 292300Z 3000/3009 27006KT CAVOK
                      PROB40 TEMPO 3002/3005 5000 BR=
201907300200 TAF LRCL 300200Z 3003/3012 27006KT CAVOK
                      PROB30 TEMPO 3003/3005 3000 BR BKN005
                      TEMPO 3010/3012 FEW045CB=
201907300500 TAF LRCL 300500Z 3006/3015 27006KT 9999 BKN050
                      TEMPO 3010/3015 SCT045CB
                      PROB30 TEMPO 3012/3015 5000 -TSRA=
201907300800 TAF LRCL 300800Z 3009/3018 33008KT 9999 SCT040
                      TEMPO 3010/3015 SCT045CB
                      PROB30 TEMPO 3012/3015 5000 -TSRA=
201907301100 TAF LRCL 301100Z 3012/3021 33008KT 9999 SCT040
                      PROB40 TEMPO 3012/3015 5000 -TSRA SCT045CB=
201907301400 TAF LRCL 301400Z 3015/3024 30008KT 9999 SCT050=
201907301700 TAF LRCL 301700Z 3018/3103 31008KT 9999 SCT050
                      TEMPO 3018/3022 5000 -SHRA SCT045CB BKN060=
201907302000 TAF LRCL 302000Z 3021/3106 31008KT 9999 SCT050
                      PROB30 TEMPO 3022/3101 5000 -SHRA SCT045CB
                       BKN060=
201907302300 TAF LRCL 302300Z 3100/3109 VRB04KT CAVOK
                      TEMPO 3100/3103 -TSRA SCT040CB
                      BECMG 3107/3109 32010KT=
201907310200 TAF LRCL 310200Z 3103/3112 VRB04KT 9999 SCT040CB
                      TEMPO 3103/3104 5000 SHRA
                      BECMG 3105/3106 SCT040
                      BECMG 3107/3109 32010KT
                      BECMG 3110/3112 SCT040CB=
201907310500 TAF LRCL 310500Z 3106/3115 VRB04KT CAVOK
                      BECMG 3107/3109 32010KT
                      BECMG 3110/3112 SCT040CB
                      TEMPO 3112/3115 32015G25KT 3000 TSRA BKN010
                       BKN030CB=
201907310800 TAF LRCL 310800Z 3109/3118 VRB04KT CAVOK
                      BECMG 3109/3110 32010KT
                      TEMPO 3110/3117 32015G25KT 5000 -TSRA BKN010
                       BKN030CB
                      PROB30 3111/3114 1500 +TSRA=
201907311100 TAF LRCL 311100Z 3112/3121 33010KT CAVOK
                      TEMPO 3112/3117 32015G25KT 5000 -TSRA BKN010
                       BKN030CB
                      PROB30 3112/3115 1500 +TSRA=
201907311400 TAF LRCL 311400Z 3115/3124 24008KT CAVOK
                      TEMPO 3115/3118 5000 -TSRA BKN010 BKN030CB=
201907311700 TAF LRCL 311700Z 3118/0103 27005KT CAVOK
                      BECMG 3122/3124 5000 BR
                      TEMPO 0100/0103 1500 BR BKN005=
201907312000 TAF LRCL 312000Z 3121/0106 30005KT CAVOK
                      TEMPO 0100/0105 3000 BR BKN010=
201907312300 TAF LRCL 312300Z 0100/0109 VRB03KT CAVOK
                      PROB30 TEMPO 0101/0105 3000 BR BKN010=
