201908010200 TAF LRCL 010200Z 0103/0112 VRB04KT 9999 BKN045
                      TEMPO 0103/0106 SCT040CB
                      PROB30 TEMPO 0103/0105 -TSRA=
201908010500 TAF LRCL 010500Z 0106/0115 25006KT 9999 SCT045
                      TEMPO 0106/0108 5000 -TSRA SCT010 SCT040CB
                       TEMPO 0110/0115 5000 TSRA SCT010 BKN045CB=
201908010800 TAF LRCL 010800Z 0109/0118 VRB04KT 9999 SCT045
                      TEMPO 0110/0117 5000 TSRA SCT015 BKN045CB=
201908011100 TAF LRCL 011100Z 0112/0121 VRB04KT 9999 SCT045
                      TEMPO 0112/0117 5000 TSRA SCT015 BKN045CB=
201908011400 TAF LRCL 011400Z 0115/0124 VRB04KT 9999 SCT045
                      TEMPO 0115/0118 5000 -TSRA SCT015 BKN045CB=
201908011700 TAF LRCL 011700Z 0118/0203 VRB04KT 9999 SCT045
                      TEMPO 0118/0121 5000 TSRA SCT015 BKN045CB
                       BECMG 0123/0201 3000 BR BKN010=
201908012000 TAF LRCL 012000Z 0121/0206 VRB04KT CAVOK
                      BECMG 0123/0201 3000 BR BKN010
                      TEMPO 0201/0205 1500 BR BKN005=
201908012300 TAF LRCL 012300Z 0200/0209 VRB04KT 3000 BR SCT045
                      TEMPO 0200/0205 0800 FG BKN010
                      PROB30 0200/0204 0350 FG BKN002
                      BECMG 0205/0207 CAVOK=
201908020200 TAF LRCL 020200Z 0203/0212 VRB04KT 0800 FG BKN002
                      TEMPO 0203/0204 0350 FG VV001
                      BECMG 0204/0206 5000 BR SCT010
                      BECMG 0206/0208 CAVOK=
201908020500 TAF LRCL 020500Z 0206/0215 VRB04KT 5000 BR SCT005
                      BECMG 0206/0207 CAVOK
                      PROB30 TEMPO 0212/0215 FEW040CB=
201908020800 TAF LRCL 020800Z 0209/0218 VRB04KT 9999 SCT040
                      PROB30 TEMPO 0212/0215 FEW040CB=
201908021100 TAF LRCL 021100Z 0212/0221 VRB04KT 9999 SCT035=
201908021400 TAF LRCL 021400Z 0215/0224 VRB04KT 9999 SCT040
                      BECMG 0220/0222 FEW040CB
                      PROB40 TEMPO 0222/0224 5000 TSRA SCT035CB=
201908021700 TAF LRCL 021700Z 0218/0303 VRB04KT CAVOK
                      BECMG 0221/0223 FEW040CB
                      TEMPO 0223/0303 5000 -TSRA SCT035CB
                      PROB40 0300/0303 1500 +TSRA BKN010 BKN035CB=
201908022000 TAF LRCL 022000Z 0221/0306 VRB04KT CAVOK
                      BECMG 0221/0223 SCT040CB
                      TEMPO 0223/0306 5000 TSRA BKN015 BKN035CB
                       PROB40 0301/0305 1500 +TSRA BKN010 BKN035CB=
201908022300 TAF LRCL 022300Z 0300/0309 VRB04KT 9999 SCT040CB
                      TEMPO 0300/0306 5000 TSRA BKN015 BKN035CB
                       PROB40 0301/0305 1500 +TSRA BKN010 BKN035CB
                       BECMG 0306/0308 35010KT 5000 RA BKN015 BKN040=
201908030200 TAF LRCL 030200Z 0303/0312 VRB04KT 5000 SHRA SCT015 SCT040CB
                      PROB40 TEMPO 0303/0306 1500 +TSRA BKN010
                       BKN035CB
                      BECMG 0308/0310 35010KT 9999 NSW SCT040
                      TEMPO 0310/0312 VRB20KT 5000 -TSRA SCT040CB=
201908030500 TAF LRCL 030500Z 0306/0315 VRB04KT 9999 BKN040
                      TEMPO 0306/0312 5000 RA SHRA BKN005 SCT035CB
                       OVC040
                      PROB30 TEMPO 0309/0312 VRB16KT 3000 TSRA
                       BECMG 0312/0314 32010KT=
201908030800 TAF LRCL 030800Z 0309/0318 VRB04KT 9999 BKN035
                      TEMPO 0309/0314 5000 RA SHRA SCT030CB OVC035
                       PROB30
                      TEMPO 0309/0313 VRB16KT 3000 TSRA BKN010
                       BKN030CB OVC035
                      BECMG 0313/0315 32012KT=
201908031100 TAF LRCL 031100Z 0312/0321 34008KT 9999 BKN035
                      TEMPO 0312/0316 5000 RA SHRA BKN010 SCT030CB
                       OVC035=
201908031400 TAF LRCL 031400Z 0315/0324 32008KT 9999 BKN035
                      PROB30 TEMPO 0315/0317 5000 -TSRA BKN010
                       SCT030CB BKN035=
201908031700 TAF LRCL 031700Z 0318/0403 29008KT 9999 SCT030CB BKN040
                      TEMPO 0318/0320 5000 -SHRA
                      BECMG 0321/0323 BKN015 OVC035
                      TEMPO 0400/0403 5000 -SHRA BKN010 SCT030CB
                       BKN035=
201908032016 TAF COR LRCL 032016Z 0321/0406 29008KT 9999 BKN040
                      TEMPO 0321/0402 5000 -SHRA BKN015 FEW035CB
                       BKN040=
201908032300 TAF LRCL 032300Z 0400/0409 29008KT 9999 SCT040=
201908040200 TAF LRCL 040200Z 0403/0412 VRB04KT 9999 BKN040
                      TEMPO 0403/0406 BKN015 BKN040
                      BECMG 0406/0408 30010KT
                      TEMPO 0409/0412 FEW040CB=
201908040500 TAF LRCL 040500Z 0406/0415 30008KT 9999 BKN040
                      TEMPO 0410/0414 SCT040CB=
201908040800 TAF LRCL 040800Z 0409/0418 30010KT 9999 BKN040
                      TEMPO 0412/0417 SCT040CB=
201908041100 TAF LRCL 041100Z 0412/0421 30010KT 9999 BKN040
                      TEMPO 0412/0417 SCT040CB
                      BECMG 0418/0420 VRB04KT=
201908041400 TAF LRCL 041400Z 0415/0424 30012KT 9999 BKN040
                      TEMPO 0415/0417 SCT040CB
                      BECMG 0418/0420 VRB04KT=
201908041700 TAF LRCL 041700Z 0418/0503 30006KT CAVOK=
201908042000 TAF LRCL 042000Z 0421/0506 VRB04KT CAVOK=
201908042300 TAF LRCL 042300Z 0500/0509 VRB04KT CAVOK
                      PROB30 TEMPO 0501/0505 3000 BR=
201908050200 TAF LRCL 050200Z 0503/0512 VRB04KT CAVOK
                      PROB30 TEMPO 0503/0505 3000 BR=
201908050500 TAF LRCL 050500Z 0506/0515 VRB04KT CAVOK
                      TEMPO 0512/0515 30010KT 5000 -TSRA SCT040CB=
201908050800 TAF LRCL 050800Z 0509/0518 VRB04KT 9999 FEW040
                      PROB40 TEMPO 0511/0516 30010KT 5000 -TSRA
                       SCT040CB=
201908051100 TAF LRCL 051100Z 0512/0521 VRB04KT 9999 FEW045
                      TEMPO 0512/0516 30010KT 5000 -TSRA SCT040CB=
201908051400 TAF LRCL 051400Z 0515/0524 VRB05KT 9999 FEW045
                      TEMPO 0515/0517 30010KT SCT040CB=
201908051700 TAF LRCL 051700Z 0518/0603 VRB04KT CAVOK
                      TEMPO 0600/0603 3000 BR=
201908052000 TAF LRCL 052000Z 0521/0606 VRB04KT CAVOK
                      TEMPO 0601/0605 3000 BR=
201908052300 TAF LRCL 052300Z 0600/0609 VRB04KT CAVOK
                      TEMPO 0601/0605 3000 BR=
201908060200 TAF LRCL 060200Z 0603/0612 VRB04KT CAVOK
                      TEMPO 0603/0605 3000 BR=
201908060500 TAF LRCL 060500Z 0606/0615 VRB04KT CAVOK
                      TEMPO 0610/0615 SCT045CB=
201908060800 TAF LRCL 060800Z 0609/0618 VRB04KT CAVOK
                      TEMPO 0610/0615 SCT045CB=
201908061100 TAF LRCL 061100Z 0612/0621 VRB04KT CAVOK
                      TEMPO 0612/0615 SCT045CB=
201908061400 TAF LRCL 061400Z 0615/0624 VRB04KT CAVOK=
201908061700 TAF LRCL 061700Z 0618/0703 VRB04KT CAVOK=
201908062000 TAF LRCL 062000Z 0621/0706 VRB04KT CAVOK=
201908062300 TAF LRCL 062300Z 0700/0709 VRB04KT CAVOK=
201908070200 TAF LRCL 070200Z 0703/0712 VRB04KT CAVOK=
201908070500 TAF LRCL 070500Z 0706/0715 VRB04KT CAVOK=
201908070800 TAF LRCL 070800Z 0709/0718 08008KT CAVOK=
201908071100 TAF LRCL 071100Z 0712/0721 13008KT CAVOK=
201908071400 TAF LRCL 071400Z 0715/0724 15007KT CAVOK=
201908071700 TAF LRCL 071700Z 0718/0803 21010KT CAVOK
                      PROB30 TEMPO 0718/0724 FEW050CB
                      BECMG 0722/0724 VRB04KT=
201908072000 TAF LRCL 072000Z 0721/0806 25005KT CAVOK
                      PROB30 TEMPO 0721/0724 FEW050CB=
201908072300 TAF LRCL 072300Z 0800/0809 VRB04KT CAVOK=
201908080200 TAF LRCL 080200Z 0803/0812 VRB04KT CAVOK
                      BECMG 0809/0811 31010KT
                      TEMPO 0810/0812 FEW045CB=
201908080500 TAF LRCL 080500Z 0806/0815 VRB04KT CAVOK
                      TEMPO 0806/0808 SCT030CB
                      BECMG 0808/0810 32010KT
                      PROB30 TEMPO 0812/0815 VRB15G25KT 3000 TSRA
                       BKN010 BKN030CB=
201908080800 TAF LRCL 080800Z 0809/0818 VRB04KT CAVOK
                      TEMPO 0812/0816 SCT035CB
                      PROB30 0813/0816 VRB15G25KT 3000 TSRA BKN010
                       BKN030CB=
201908081016 TAF AMD LRCL 081016Z 0810/0818 VRB04KT CAVOK
                      TEMPO 0810/0814 VRB15G25KT 3000 TSRA BKN010
                       BKN030CB=
201908081100 TAF LRCL 081100Z 0812/0821 VRB04KT CAVOK
                      TEMPO 0812/0816 VRB20G30KT 3000 TSRA BKN010
                       BKN030CB=
201908081400 TAF LRCL 081400Z 0815/0824 VRB04KT CAVOK
                      TEMPO 0815/0817 SCT030CB=
201908081700 TAF LRCL 081700Z 0818/0903 VRB04KT CAVOK
                      BECMG 0821/0823 SCT045CB
                      TEMPO 0823/0903 5000 -TSRA
                      PROB40 TEMPO 0900/0902 VRB20KT 3000 TSRA
                       BKN035CB=
201908082000 TAF LRCL 082000Z 0821/0906 VRB04KT CAVOK
                      BECMG 0822/0824 SCT045CB
                      TEMPO 0900/0903 5000 -TSRA
                      PROB40 TEMPO 0900/0902 VRB20KT 3000 TSRA
                       BKN035CB
                      TEMPO 0903/0906 5000 -SHRA=
201908082300 TAF LRCL 082300Z 0900/0909 VRB04KT CAVOK
                      BECMG 0901/0903 SCT045CB
                      TEMPO 0902/0905 5000 -TSRA
                      PROB40 TEMPO 0902/0905 VRB20KT 3000 TSRA
                       BKN035CB
                      TEMPO 0905/0907 5000 -SHRA
                      BECMG 0907/0909 SCT040=
201908090200 TAF LRCL 090200Z 0903/0912 VRB04KT 9999 SCT040CB
                      PROB30 TEMPO 0903/0906 5000 -SHRA
                      BECMG 0906/0908 CAVOK=
201908090500 TAF LRCL 090500Z 0906/0915 VRB04KT CAVOK=
201908090800 TAF LRCL 090800Z 0909/0918 VRB04KT 9999 SCT040
                      BECMG 0912/0914 28010KT
                      BECMG 0916/0918 VRB04KT=
201908091100 TAF LRCL 091100Z 0912/0921 32010KT 9999 SCT040
                      BECMG 0916/0918 VRB04KT=
201908091400 TAF LRCL 091400Z 0915/0924 30010KT CAVOK
                      BECMG 0916/0918 VRB04KT=
201908091700 TAF LRCL 091700Z 0918/1003 VRB04KT CAVOK=
201908092000 TAF LRCL 092000Z 0921/1006 VRB04KT CAVOK
                      TEMPO 1000/1005 3000 BR=
201908092300 TAF LRCL 092300Z 1000/1009 VRB04KT CAVOK
                      TEMPO 1000/1005 3000 BR=
201908100200 TAF LRCL 100200Z 1003/1012 VRB04KT CAVOK=
201908100500 TAF LRCL 100500Z 1006/1015 VRB03KT CAVOK=
201908100800 TAF LRCL 100800Z 1009/1018 VRB03KT CAVOK=
201908101100 TAF LRCL 101100Z 1012/1021 VRB03KT CAVOK=
201908101400 TAF LRCL 101400Z 1015/1024 VRB03KT CAVOK=
201908101700 TAF LRCL 101700Z 1018/1103 VRB04KT CAVOK=
201908102000 TAF LRCL 102000Z 1021/1106 VRB04KT CAVOK=
201908102300 TAF LRCL 102300Z 1100/1109 VRB04KT CAVOK=
201908110200 TAF LRCL 110200Z 1103/1112 VRB04KT CAVOK=
201908110500 TAF LRCL 110500Z 1106/1115 VRB04KT CAVOK=
201908110800 TAF LRCL 110800Z 1109/1118 VRB04KT CAVOK=
201908111100 TAF LRCL 111100Z 1112/1121 VRB04KT CAVOK=
201908111400 TAF LRCL 111400Z 1115/1124 VRB04KT CAVOK=
201908111700 TAF LRCL 111700Z 1118/1203 VRB04KT CAVOK=
201908112000 TAF LRCL 112000Z 1121/1206 VRB04KT CAVOK=
201908112300 TAF LRCL 112300Z 1200/1209 VRB04KT CAVOK=
201908120200 TAF LRCL 120200Z 1203/1212 VRB04KT CAVOK=
201908120500 TAF LRCL 120500Z 1206/1215 14006KT CAVOK=
201908120800 TAF LRCL 120800Z 1209/1218 12008KT CAVOK=
201908121100 TAF LRCL 121100Z 1212/1221 10008KT CAVOK=
201908121400 TAF LRCL 121400Z 1215/1224 VRB04KT CAVOK=
201908121700 TAF LRCL 121700Z 1218/1303 VRB04KT CAVOK=
201908122000 TAF LRCL 122000Z 1221/1306 VRB04KT CAVOK=
201908122300 TAF LRCL 122300Z 1300/1309 VRB04KT CAVOK
                      BECMG 1305/1307 16010KT=
201908130200 TAF LRCL 130200Z 1303/1312 VRB04KT CAVOK
                      TEMPO 1303/1304 5000 BR
                      BECMG 1306/1308 16010KT=
201908130500 TAF LRCL 130500Z 1306/1315 VRB04KT CAVOK=
201908130800 TAF LRCL 130800Z 1309/1318 VRB04KT CAVOK=
201908131100 TAF LRCL 131100Z 1312/1321 12006KT CAVOK=
201908131400 TAF LRCL 131400Z 1315/1324 VRB04KT CAVOK=
201908131700 TAF LRCL 131700Z 1318/1403 VRB04KT CAVOK=
201908132000 TAF LRCL 132000Z 1321/1406 VRB04KT CAVOK=
201908132300 TAF LRCL 132300Z 1400/1409 VRB04KT CAVOK=
201908140200 TAF LRCL 140200Z 1403/1412 VRB04KT CAVOK
                      BECMG 1408/1410 32012KT=
201908140500 TAF LRCL 140500Z 1406/1415 VRB04KT CAVOK
                      BECMG 1408/1410 32012KT
                      TEMPO 1412/1415 VRB20G30KT 5000 TSRA SCT045CB=
201908140800 TAF LRCL 140800Z 1409/1418 VRB04KT CAVOK
                      BECMG 1409/1411 32012KT FEW045CB
                      TEMPO 1413/1418 VRB20G30KT 5000 TSRA BKN040CB=
201908141100 TAF LRCL 141100Z 1412/1421 34010KT 9999 FEW045CB
                      PROB40 TEMPO 1412/1415 VRB15G25KT 5000 -TSRA
                       BKN040CB
                      TEMPO 1415/1421 VRB15G25KT 5000 TSRA BKN015
                       BKN040CB=
201908141400 TAF LRCL 141400Z 1415/1424 34010KT 9999 FEW050CB BKN060
                      TEMPO 1415/1421 VRB15G25KT 5000 TSRA BKN015
                       BKN040CB
                      PROB40 TEMPO 1421/1424 5000 -SHRA=
201908141700 TAF LRCL 141700Z 1418/1503 32012KT 9999 SCT040
                      TEMPO 1418/1423 5000 -SHRA BKN015 SCT035CB
                       BKN050=
201908142000 TAF LRCL 142000Z 1421/1506 30012KT 9999 SCT015 BKN050
                      TEMPO 1421/1424 5000 -SHRA BKN010 SCT035CB
                       BKN050
                      TEMPO 1500/1503 5000 BR BKN010 BKN040=
201908142300 TAF LRCL 142300Z 1500/1509 30008KT 9999 SCT015 SCT040
                      TEMPO 1500/1504 5000 BR BKN010 BKN030=
201908150200 TAF LRCL 150200Z 1503/1512 30010KT 9999 SCT040
                      TEMPO 1503/1505 5000 BR BKN010 BKN030=
201908150500 TAF LRCL 150500Z 1506/1515 32008KT 9999 BKN015 BKN025
                      BECMG 1506/1508 BKN035
                      TEMPO 1512/1515 SCT040CB=
201908150800 TAF LRCL 150800Z 1509/1518 03006KT 9999 BKN025
                      TEMPO 1512/1516 09010KT SCT040CB=
201908151100 TAF LRCL 151100Z 1512/1521 34006KT 9999 BKN025
                      TEMPO 1515/1518 SCT040CB=
201908151400 TAF LRCL 151400Z 1515/1524 34006KT 9999 BKN030=
201908151700 TAF LRCL 151700Z 1518/1603 30007KT 9999 BKN030=
201908152000 TAF LRCL 152000Z NIL=
201908152300 TAF LRCL 152300Z 1600/1609 VRB04KT 9999 SCT065
                      TEMPO 1601/1605 BKN015 BKN060=
201908160200 TAF LRCL 160200Z 1603/1612 VRB04KT 9999 SCT035
                      PROB30 TEMPO 1603/1605 BKN015=
201908160500 TAF LRCL 160500Z 1606/1615 VRB04KT CAVOK
                      TEMPO 1612/1615 SCT030CB=
201908160800 TAF LRCL 160800Z 1609/1618 34008KT 9999 BKN030
                      TEMPO 1612/1616 SCT030CB=
201908161100 TAF LRCL 161100Z 1612/1621 30008KT 9999 BKN035
                      TEMPO 1612/1616 SCT030CB=
201908161400 TAF LRCL 161400Z 1615/1624 30008KT 9999 BKN035
                      TEMPO 1615/1617 SCT030CB=
201908161700 TAF LRCL 161700Z 1618/1703 VRB04KT CAVOK=
201908162000 TAF LRCL 162000Z 1621/1706 VRB04KT CAVOK=
201908162300 TAF LRCL 162300Z 1700/1709 VRB04KT CAVOK=
201908170200 TAF LRCL 170200Z 1703/1712 VRB04KT CAVOK=
201908170500 TAF LRCL 170500Z 1706/1715 VRB04KT CAVOK
                      BECMG 1709/1711 32010KT
                      PROB40 TEMPO 1711/1715 SCT045CB=
201908170800 TAF LRCL 170800Z 1709/1718 VRB04KT CAVOK
                      BECMG 1709/1711 32010KT
                      PROB40 TEMPO 1711/1716 SCT045CB=
201908171100 TAF LRCL 171100Z 1712/1721 32008KT 9999 FEW045
                      PROB40 TEMPO 1712/1716 SCT045CB=
201908171400 TAF LRCL 171400Z 1715/1724 32008KT 9999 FEW045=
201908171700 TAF LRCL 171700Z 1718/1803 VRB04KT CAVOK=
201908172000 TAF LRCL 172000Z 1721/1806 VRB04KT CAVOK
                      TEMPO 1800/1805 3000 BR=
201908172300 TAF LRCL 172300Z 1800/1809 VRB04KT CAVOK
                      TEMPO 1800/1805 3000 BR=
201908180200 TAF LRCL 180200Z 1803/1812 VRB04KT CAVOK
                      TEMPO 1803/1805 3000 BR=
201908180500 TAF LRCL 180500Z 1806/1815 VRB04KT CAVOK=
201908180800 TAF LRCL 180800Z 1809/1818 VRB04KT CAVOK
                      PROB30 TEMPO 1811/1815 FEW035CB=
201908181100 TAF LRCL 181100Z 1812/1821 VRB04KT CAVOK=
201908181400 TAF LRCL 181400Z 1815/1824 VRB04KT CAVOK=
201908181700 TAF LRCL 181700Z 1818/1903 VRB04KT 9999 SCT050=
201908182000 TAF LRCL 182000Z 1821/1906 VRB04KT CAVOK=
201908182300 TAF LRCL 182300Z 1900/1909 VRB04KT CAVOK=
201908190200 TAF LRCL 190200Z 1903/1912 VRB04KT CAVOK=
201908190500 TAF LRCL 190500Z 1906/1915 VRB04KT CAVOK=
201908190800 TAF LRCL 190800Z 1909/1918 VRB04KT CAVOK=
201908191100 TAF LRCL 191100Z 1912/1921 VRB04KT CAVOK=
201908191400 TAF LRCL 191400Z 1915/1924 VRB04KT CAVOK=
201908191700 TAF LRCL 191700Z 1918/2003 VRB04KT CAVOK=
201908192000 TAF LRCL 192000Z 1921/2006 VRB04KT CAVOK=
201908192300 TAF LRCL 192300Z 2000/2009 VRB04KT CAVOK=
201908200200 TAF LRCL 200200Z 2003/2012 VRB04KT CAVOK=
201908200500 TAF LRCL 200500Z 2006/2015 VRB04KT CAVOK=
201908200800 TAF LRCL 200800Z 2009/2018 10006KT CAVOK=
201908201100 TAF LRCL 201100Z 2012/2021 10006KT CAVOK=
201908201400 TAF LRCL 201400Z 2015/2024 VRB04KT 9999 SCT040=
201908201700 TAF LRCL 201700Z 2018/2103 VRB04KT CAVOK=
201908202000 TAF LRCL 202000Z 2021/2106 VRB04KT CAVOK=
201908202300 TAF LRCL 202300Z 2100/2109 VRB04KT CAVOK=
201908210200 TAF LRCL 210200Z 2103/2112 VRB04KT CAVOK=
201908210500 TAF LRCL 210500Z 2106/2115 VRB04KT CAVOK=
201908210800 TAF LRCL 210800Z 2109/2118 07006KT CAVOK=
201908211100 TAF LRCL 211100Z 2112/2121 06006KT 9999 SCT045
                      PROB30 TEMPO 2112/2118 SCT040CB=
201908211400 TAF LRCL 211400Z 2115/2124 VRB04KT 9999 SCT045
                      PROB30 TEMPO 2115/2118 SCT040CB=
201908211700 TAF LRCL 211700Z 2118/2203 VRB04KT 9999 SCT045=
201908212000 TAF LRCL 212000Z 2121/2206 VRB04KT CAVOK=
201908212300 TAF LRCL 212300Z 2200/2209 VRB04KT CAVOK=
201908220200 TAF LRCL 220200Z 2203/2212 VRB04KT CAVOK=
201908220500 TAF LRCL 220500Z 2206/2215 VRB04KT CAVOK
                      PROB40 TEMPO 2212/2215 07010KT FEW040CB=
201908220800 TAF LRCL 220800Z 2209/2218 VRB04KT CAVOK
                      PROB40 TEMPO 2212/2215 07010KT FEW040CB=
201908221100 TAF LRCL 221100Z 2212/2221 10006KT 9999 SCT035
                      PROB40 TEMPO 2212/2215 SCT035 FEW040CB=
201908221400 TAF LRCL 221400Z 2215/2224 VRB04KT 9999 SCT055=
201908221700 TAF LRCL 221700Z 2218/2303 11006KT 9999 FEW060=
201908222000 TAF LRCL 222000Z 2221/2306 VRB04KT CAVOK=
201908222300 TAF LRCL 222300Z 2300/2309 VRB04KT CAVOK=
201908230200 TAF LRCL 230200Z 2303/2312 VRB04KT CAVOK=
201908230500 TAF LRCL 230500Z 2306/2315 VRB04KT CAVOK=
201908230800 TAF LRCL 230800Z 2309/2318 11006KT CAVOK=
201908231100 TAF LRCL 231100Z 2312/2321 11005KT CAVOK=
201908231400 TAF LRCL 231400Z 2315/2324 11005KT CAVOK=
201908231700 TAF LRCL 231700Z 2318/2403 VRB04KT CAVOK=
201908232000 TAF LRCL 232000Z 2321/2406 VRB04KT CAVOK=
201908232300 TAF LRCL 232300Z 2400/2409 VRB04KT CAVOK
                      BECMG 2407/2409 10009KT=
201908240200 TAF LRCL 240200Z 2403/2412 VRB04KT CAVOK=
201908240500 TAF LRCL 240500Z 2406/2415 08008KT CAVOK=
201908240800 TAF LRCL 240800Z 2409/2418 12010KT CAVOK=
201908241100 TAF LRCL 241100Z 2412/2421 10008KT CAVOK=
201908241400 TAF LRCL 241400Z 2415/2424 13008KT CAVOK=
201908241700 TAF LRCL 241700Z 2418/2503 VRB04KT CAVOK=
201908242000 TAF LRCL 242000Z 2421/2506 VRB04KT CAVOK=
201908242300 TAF LRCL 242300Z 2500/2509 VRB04KT CAVOK=
201908250200 TAF LRCL 250200Z 2503/2512 VRB04KT CAVOK=
201908250500 TAF LRCL 250500Z 2506/2515 14005KT CAVOK
                      TEMPO 2512/2515 SCT045CB=
201908250800 TAF LRCL 250800Z 2509/2518 14006KT CAVOK
                      TEMPO 2512/2518 SCT045CB
                      PROB40 2514/2518 5000 -TSRA=
201908251100 TAF LRCL 251100Z 2512/2521 14006KT 9999 SCT040
                      TEMPO 2512/2518 SCT040CB
                      PROB40 2513/2517 5000 -TSRA=
201908251400 TAF LRCL 251400Z 2515/2524 14006KT 9999 SCT040
                      TEMPO 2515/2519 SCT040CB
                      PROB40 2515/2518 5000 -TSRA=
201908251700 TAF LRCL 251700Z 2518/2603 14006KT 9999 SCT040=
201908252000 TAF LRCL 252000Z 2521/2606 VRB04KT CAVOK
                      BECMG 2603/2605 12010KT=
201908252300 TAF LRCL 252300Z 2600/2609 14006KT 9999 SCT040=
201908260200 TAF LRCL 260200Z 2603/2612 VRB04KT CAVOK
                      BECMG 2607/2609 14010KT=
201908260500 TAF LRCL 260500Z 2606/2615 VRB04KT CAVOK
                      BECMG 2607/2609 14010KT
                      TEMPO 2611/2615 SCT045CB=
201908260800 TAF LRCL 260800Z 2609/2618 12006KT CAVOK
                      TEMPO 2611/2614 SCT045CB
                      TEMPO 2614/2618 5000 -TSRA SCT010 BKN030CB=
201908261100 TAF LRCL 261100Z 2612/2621 13008KT 9999 SCT045CB
                      TEMPO 2614/2618 5000 -TSRA SCT010 BKN030CB
                       BECMG 2618/2620 NSC=
201908261400 TAF LRCL 261400Z 2615/2624 13008KT 9999 SCT045CB
                      TEMPO 2615/2618 5000 -TSRA SCT010 BKN030CB
                       BECMG 2618/2620 NSC=
201908261700 TAF LRCL 261700Z 2618/2703 13005KT 9999 SCT045
                      TEMPO 2618/2621 VRB15KT 5000 -TSRA SCT010
                       SCT040CB=
201908262000 TAF LRCL 262000Z 2621/2706 14005KT CAVOK=
201908262300 TAF LRCL 262300Z 2700/2709 08005KT CAVOK=
201908270200 TAF LRCL 270200Z 2703/2712 08006KT CAVOK=
201908270500 TAF LRCL 270500Z 2706/2715 08006KT CAVOK=
201908270800 TAF LRCL 270800Z 2709/2718 12006KT CAVOK=
201908271100 TAF LRCL 271100Z 2712/2721 12006KT 9999 SCT045
                      PROB30 TEMPO 2713/2716 5000 -TSRA SCT040CB=
201908271400 TAF LRCL 271400Z 2715/2724 VRB04KT CAVOK
                      TEMPO 2715/2717 SCT045CB=
201908271700 TAF LRCL 271700Z 2718/2803 VRB04KT CAVOK
                      TEMPO 2718/2720 FEW050CB=
201908272000 TAF LRCL 272000Z 2721/2806 VRB04KT CAVOK=
201908272300 TAF LRCL 272300Z 2800/2809 VRB04KT CAVOK
                      BECMG 2807/2809 14010KT=
201908280200 TAF LRCL 280200Z 2803/2812 VRB04KT CAVOK
                      BECMG 2807/2809 14010KT=
201908280500 TAF LRCL 280500Z 2806/2815 13010KT CAVOK
                      TEMPO 2812/2815 SCT030CB
                      PROB30 2813/2815 VRB20G30KT 3000 TSRA BKN010
                       BKN030CB=
201908280800 TAF LRCL 280800Z 2809/2818 VRB04KT CAVOK
                      TEMPO 2812/2816 SCT035CB
                      PROB40 2813/2816 VRB20G30KT 3000 TSRA BKN010
                       BKN030CB=
201908281100 TAF LRCL 281100Z 2812/2821 14008KT CAVOK
                      TEMPO 2812/2817 SCT035CB
                      PROB40 2813/2817 VRB20G30KT 3000 TSRA BKN010
                       BKN030CB=
201908281400 TAF LRCL 281400Z 2815/2824 14008KT CAVOK
                      TEMPO 2815/2818 SCT035CB
                      PROB40 2815/2817 VRB20G30KT 3000 TSRA BKN010
                       BKN030CB=
201908281700 TAF LRCL 281700Z 2818/2903 26005KT CAVOK=
201908282000 TAF LRCL 282000Z 2821/2906 25004KT CAVOK=
201908282300 TAF LRCL 282300Z 2900/2909 VRB04KT CAVOK=
201908290200 TAF LRCL 290200Z 2903/2912 VRB04KT CAVOK
                      BECMG 2908/2910 12010KT=
201908290500 TAF LRCL 290500Z 2906/2915 VRB04KT CAVOK
                      TEMPO 2911/2915 SCT045CB
                      PROB30 TEMPO 2912/2915 VRB15G25KT 5000 -TSRA=
201908290800 TAF LRCL 290800Z 2909/2918 VRB04KT CAVOK
                      TEMPO 2911/2916 SCT045CB
                      PROB30 TEMPO 2912/2916 VRB15G25KT 5000 -TSRA=
201908291100 TAF LRCL 291100Z 2912/2921 VRB04KT 9999 SCT045CB
                      PROB30 TEMPO 2912/2916 VRB15G25KT 5000 -TSRA
                       BECMG 2916/2918 NSC=
201908291400 TAF LRCL 291400Z 2915/2924 27008KT 9999 SCT045CB
                      TEMPO 2915/2917 VRB15G25KT 5000 -TSRA
                      BECMG 2917/2919 NSC=
201908291700 TAF LRCL 291700Z 2918/3003 12008KT CAVOK
                      TEMPO 2918/2920 VRB15G25KT 3000 TSRA SCT010
                       BKN030CB=
201908292000 TAF LRCL 292000Z 2921/3006 VRB04KT CAVOK=
201908292300 TAF LRCL 292300Z 3000/3009 VRB04KT CAVOK=
201908300200 TAF LRCL 300200Z 3003/3012 VRB04KT CAVOK=
201908300500 TAF LRCL 300500Z 3006/3015 VRB04KT CAVOK
                      TEMPO 3012/3015 FEW040CB
                      PROB30 TEMPO 3013/3015 VRB20KT TS=
201908300800 TAF LRCL 300800Z 3009/3018 VRB04KT CAVOK
                      TEMPO 3012/3016 FEW040CB
                      PROB30 TEMPO 3013/3016 VRB20KT -TSRA=
201908301100 TAF LRCL 301100Z 3012/3021 VRB04KT CAVOK
                      TEMPO 3013/3016 FEW050CB=
201908301400 TAF LRCL 301400Z 3015/3024 VRB04KT CAVOK=
201908301700 TAF LRCL 301700Z 3018/3103 VRB04KT CAVOK=
201908302000 TAF LRCL 302000Z 3021/3106 VRB04KT CAVOK
                      PROB30 TEMPO 3100/3104 5000 BR=
201908302300 TAF LRCL 302300Z 3100/3109 VRB04KT CAVOK
                      PROB30 TEMPO 3100/3104 5000 BR=
201908310200 TAF LRCL 310200Z 3103/3112 VRB04KT CAVOK
                      BECMG 3110/3112 10010KT=
201908310500 TAF LRCL 310500Z 3106/3115 VRB04KT CAVOK
                      BECMG 3110/3112 10010KT=
201908310800 TAF LRCL 310800Z 3109/3118 VRB04KT CAVOK
                      BECMG 3110/3112 10010KT=
201908311100 TAF LRCL 311100Z 3112/3121 11006KT CAVOK=
201908311400 TAF LRCL 311400Z 3115/3124 16006KT CAVOK
                      TEMPO 3116/3119 10010KT=
201908311700 TAF LRCL 311700Z 3118/0103 VRB04KT CAVOK=
201908312000 TAF LRCL 312000Z 3121/0106 VRB04KT CAVOK=
201908312300 TAF LRCL 312300Z 0100/0109 VRB04KT CAVOK=