201908010000 METAR LRCL 010000Z VRB01KT 9999 -SHRA SCT050CB 21/18 Q1013=
201908010030 METAR LRCL 010030Z 00000KT 9999 SCT049CB 21/19 Q1013=
201908010100 METAR LRCL 010100Z 34003KT 9999 -SHRA SCT045CB 21/19 Q1013=
201908010130 METAR LRCL 010130Z 17003KT 140V210 9999 -SHRA SCT049CB 21/19
                        Q1013=
201908010200 METAR LRCL 010200Z 23004KT 9999 BKN045 FEW049CB 21/19 Q1013=
201908010230 METAR LRCL 010230Z 28003KT 230V310 9999 SCT018 BKN042 FEW045CB
                        21/19 Q1013=
201908010300 METAR LRCL 010300Z 28007KT 9999 TS SCT017 FEW042CB BKN055
                        21/19 Q1014 R07/29//95=
201908010330 METAR LRCL 010330Z 28006KT 250V310 9999 BKN016 FEW045CB BKN055
                        21/18 Q1013 RETS R07/29//95=
201908010400 METAR LRCL 010400Z 27004KT 9999 VCTS SCT013 SCT033CB BKN055
                        21/18 Q1013 R07/CLRD//=
201908010430 METAR LRCL 010430Z 25005KT 9999 FEW013 FEW033CB BKN055 21/18
                        Q1013=
201908010500 METAR COR LRCL 010500Z 26006KT 9999 FEW034CB BKN065 21/18
                        Q1013=
201908010530 METAR LRCL 010530Z 27005KT 9999 FEW040CB SCT066 21/18 Q1013=
201908010600 METAR LRCL 010600Z VRB01KT 9999 FEW040CB 22/17 Q1014=
201908010630 METAR LRCL 010630Z VRB03KT 9999 FEW032 FEW052CB 23/18 Q1014=
201908010700 METAR LRCL 010700Z 15004KT 9999 -SHRA BKN016 SCT052CB 22/18
                        Q1014 R07/19//95=
201908010730 METAR LRCL 010730Z 20005KT 9999 BKN018 SCT050CB 22/18 Q1014
                        R07/19//95=
201908010800 METAR LRCL 010800Z VRB03KT 9999 SCT019 FEW050CB 23/18 Q1014
                        R07/19//95=
201908010830 METAR LRCL 010830Z 30006KT 230V350 9999 FEW020 FEW030TCU
                        25/18 Q1014 R07/CLRD//=
201908010900 METAR LRCL 010900Z VRB04KT 9999 FEW023 SCT040 26/18 Q1014
                        R07/CLRD//=
201908010930 METAR LRCL 010930Z 29006KT 250V320 9999 SCT026 FEW045CB 26/17
                        Q1013=
201908011000 METAR LRCL 011000Z 30005KT 250V040 9999 FEW036CB SCT046 26/17
                        Q1013=
201908011030 METAR LRCL 011030Z VRB02KT 9999 FEW041CB SCT050 27/17 Q1013=
201908011100 METAR LRCL 011100Z 29006KT 250V340 9999 VCTS SCT037 SCT046CB
                        27/17 Q1013=
201908011130 METAR LRCL 011130Z 29007KT 9999 TS SCT039 SCT046CB 26/17
                        Q1013=
201908011200 METAR LRCL 011200Z 07014KT 9999 TS FEW019 BKN033CB 22/17
                        Q1013=
201908011230 METAR LRCL 011230Z 09013KT 9999 TS FEW016 BKN028CB 19/15
                        Q1014=
201908011300 METAR LRCL 011300Z 18006KT 120V250 3000 +TSRA BKN023CB OVC063
                        18/17 Q1015 R07/29//95=
201908011330 METAR LRCL 011330Z 24004KT 170V290 9999 -SHRA FEW017 BKN041CB
                        OVC067 19/17 Q1015 R07/29//95=
201908011400 METAR LRCL 011400Z 19004KT 9999 FEW013 SCT045CB 21/17 Q1014
                        R07/29//95=
201908011430 METAR LRCL 011430Z 21005KT 180V250 9999 FEW028 FEW044CB 22/16
                        Q1014 R07/19//95=
201908011500 METAR LRCL 011500Z 33003KT 9999 FEW044 FEW060CB 23/16 Q1014
                        R07/19//95=
201908011530 METAR LRCL 011530Z 05004KT 9999 FEW030 SCT045CB 22/17 Q1014
                        R07/19//95=
201908011600 METAR LRCL 011600Z 05004KT 9999 -SHRA FEW031 SCT045CB 22/17
                        Q1014 R07/CLRD//=
201908011630 METAR LRCL 011630Z 04008KT 9999 SCT042CB SCT064 21/17 Q1014=
201908011700 METAR LRCL 011700Z 03010KT 350V060 9999 -TSRA BKN045CB 20/18
                        Q1015 R07/29//95=
201908011730 METAR LRCL 011730Z 10004KT 040V130 9999 -TSRA BKN031CB 19/18
                        Q1014 R07/29//95=
201908011800 METAR LRCL 011800Z 18003KT 120V260 9999 FEW053CB SCT060 19/18
                        Q1014 RETS R07/29//95=
201908011830 METAR LRCL 011830Z 27004KT 240V300 9999 FEW055CB 19/18 Q1015
                        R07/29//95=
201908011900 METAR LRCL 011900Z 25005KT 9999 FEW055CB 19/18 Q1015 R07/29//95=
201908011930 METAR LRCL 011930Z 28004KT CAVOK 19/18 Q1014 R07/29//95=
201908012000 METAR LRCL 012000Z 26003KT CAVOK 19/17 Q1014 R07/19//95=
201908012030 METAR LRCL 012030Z 24004KT CAVOK 19/17 Q1014 R07/19//95=
201908012100 METAR LRCL 012100Z 27004KT 230V300 CAVOK 18/17 Q1014 R07/19//95=
201908012130 METAR LRCL 012130Z VRB02KT CAVOK 18/16 Q1014 R07/19//95=
201908012200 METAR LRCL 012200Z 06004KT 020V090 CAVOK 18/17 Q1014 R07/CLRD//=
201908012230 METAR LRCL 012230Z VRB02KT 6000 NSC 17/16 Q1014=
201908012300 METAR LRCL 012300Z VRB02KT 6000 FEW004 17/16 Q1014=
201908012330 METAR LRCL 012330Z VRB02KT 5000 MIFG BR FEW013 16/16 Q1014=
201908020000 METAR LRCL 020000Z 00000KT 5000 MIFG BR FEW004 16/16 Q1014=
201908020030 METAR LRCL 020030Z 09002KT 5000 BR FEW002 17/16 Q1014=
201908020100 METAR LRCL 020100Z 09002KT 1000 R25/1000VP2000D BR BKN002
                        17/16 Q1014=
201908020130 METAR LRCL 020130Z VRB02KT 0800 R25/0800V1300U FG BKN002
                        17/16 Q1014=
201908020200 METAR LRCL 020200Z VRB01KT 0400 R25/0500N FG VV002 17/16
                        Q1014=
201908020230 METAR LRCL 020230Z VRB02KT 0500 R25/0550N FG VV001 17/16
                        Q1014=
201908020300 METAR LRCL 020300Z 21003KT 170V250 0400 R25/0400N FG VV001
                        16/16 Q1014=
201908020330 METAR LRCL 020330Z VRB02KT 0400 R25/0350V0700N FG VV001 17/16
                        Q1014=
201908020400 METAR LRCL 020400Z VRB02KT 0800 R25/0450N FG VV002 17/16
                        Q1014=
201908020430 METAR LRCL 020430Z 26003KT 230V290 2800 BR BKN003 17/16 Q1014=
201908020500 METAR LRCL 020500Z 26003KT 210V320 6000 SCT004 17/17 Q1014=
201908020530 METAR LRCL 020530Z VRB02KT 8000 FEW005 SCT044 18/17 Q1014=
201908020600 METAR LRCL 020600Z VRB01KT 9999 FEW006 BKN041 19/16 Q1014=
201908020630 METAR LRCL 020630Z 06003KT 010V090 7000 FEW006 SCT024 BKN041
                        20/18 Q1014=
201908020700 METAR LRCL 020700Z 07005KT 7000 SCT004 BKN045 19/17 Q1014=
201908020730 METAR LRCL 020730Z 08006KT 8000 SCT003 SCT045 19/17 Q1014=
201908020800 METAR LRCL 020800Z 06004KT 040V100 9999 SCT004 19/17 Q1014=
201908020830 METAR LRCL 020830Z 11003KT 050V170 9999 FEW010 22/17 Q1014=
201908020900 METAR LRCL 020900Z VRB03KT 9999 FEW020 23/18 Q1014=
201908020930 METAR LRCL 020930Z VRB03KT 9999 FEW030 24/17 Q1014=
201908021000 METAR LRCL 021000Z VRB02KT 9999 SCT041 26/16 Q1014=
201908021030 METAR LRCL 021030Z VRB02KT 9999 SCT035 25/15 Q1013=
201908021100 METAR LRCL 021100Z 02003KT 290V070 9999 SCT034 25/16 Q1013=
201908021130 METAR LRCL 021130Z VRB03KT 9999 FEW040 27/14 Q1013=
201908021200 METAR LRCL 021200Z VRB03KT 9999 FEW045 27/13 Q1013=
201908021230 METAR LRCL 021230Z 07004KT 340V110 9999 FEW045 27/14 Q1012=
201908021300 METAR LRCL 021300Z 07006KT 030V110 9999 FEW050 27/15 Q1012=
201908021330 METAR LRCL 021330Z 33005KT 280V040 9999 FEW055 28/12 Q1012=
201908021400 METAR LRCL 021400Z 35005KT 280V060 9999 FEW055 27/12 Q1012=
201908021430 METAR LRCL 021430Z VRB04KT 9999 FEW055 28/13 Q1011=
201908021500 METAR LRCL 021500Z 01005KT 330V050 9999 FEW055 27/12 Q1011=
201908021530 METAR LRCL 021530Z 03006KT 350V070 9999 FEW055 27/12 Q1011=
201908021600 METAR LRCL 021600Z 35004KT 300V040 CAVOK 27/12 Q1011=
201908021630 METAR LRCL 021630Z 20006KT 170V240 9999 FEW050 26/16 Q1011=
201908021700 METAR LRCL 021700Z 17005KT 120V210 9999 FEW055 25/16 Q1011=
201908021730 METAR LRCL 021730Z VRB02KT 9999 FEW030 FEW050TCU 24/16 Q1011=
201908021800 METAR LRCL 021800Z 00000KT 9999 FEW050 FEW064TCU 24/16 Q1011=
201908021830 METAR LRCL 021830Z 00000KT 9999 FEW040 SCT055CB 23/18 Q1011=
201908021900 METAR LRCL 021900Z VRB01KT 9999 SCT053 23/17 Q1011=
201908021930 METAR LRCL 021930Z 27005KT 9999 FEW033 SCT060 OVC140 22/17
                        Q1011=
201908022000 METAR LRCL 022000Z 27006KT 9999 FEW055 22/16 Q1011=
201908022030 METAR LRCL 022030Z 27005KT 9999 SCT050 22/16 Q1011=
201908022100 METAR LRCL 022100Z 28003KT 9999 SCT046 21/16 Q1010=
201908022130 METAR LRCL 022130Z 28003KT 9999 -SHRA SCT048CB BKN067 21/17
                        Q1010 R07/12//95=
201908022200 METAR LRCL 022200Z 20005KT 9999 FEW052CB BKN067 21/17 Q1010
                        R07/12//95=
201908022230 METAR LRCL 022230Z 26005KT 9999 SCT052 BKN067 20/16 Q1010
                        R07/CLRD//=
201908022300 METAR LRCL 022300Z 27005KT 9999 BKN064 20/16 Q1009=
201908022330 METAR LRCL 022330Z 28006KT 250V310 9999 FEW067 20/16 Q1009=
201908030000 METAR LRCL 030000Z 27008KT 9999 BKN067 20/16 Q1010=
201908030030 METAR COR LRCL 030030Z 28008KT 240V300 9999 -SHRA SCT067CB
                        19/16 Q1009=
201908030100 METAR COR LRCL 030100Z 28006KT 9999 FEW053 BKN067CB 19/16
                        Q1009=
201908030130 METAR LRCL 030130Z 27006KT 9999 FEW047CB OVC062 19/16 Q1009=
201908030200 METAR LRCL 030200Z 27005KT 5000 SHRA FEW014 BKN039CB 18/17
                        Q1009=
201908030230 METAR COR LRCL 030230Z 31005KT 270V350 5300 SHRA SCT015 BKN034CB
                        17/17 Q1009=
201908030300 METAR LRCL 030300Z 02003KT 5000 SHRA FEW021 BKN037CB OVC068
                        17/16 Q1009 R07/29//95=
201908030330 METAR LRCL 030330Z VRB01KT 9999 -SHRA FEW008 BKN041CB OVC067
                        17/16 Q1008 RERA R07/29//95=
201908030400 METAR LRCL 030400Z VRB02KT 9999 -SHRA BKN007 BKN040CB OVC067
                        17/17 Q1008 R07/29//95=
201908030430 METAR LRCL 030430Z 05003KT 9999 -RA BKN006 OVC040 17/16 Q1008
                        R07/29//95=
201908030500 METAR LRCL 030500Z 02004KT 9999 -RA BKN005 OVC040 17/16 Q1008
                        R07/29//95=
201908030530 METAR LRCL 030530Z 01007KT 330V030 9999 -RA BKN006 OVC040
                        17/16 Q1007 R07/29//95=
201908030600 METAR LRCL 030600Z 01006KT 350V050 5000 -RA BR BKN010 OVC028
                        17/16 Q1007 RERA R07/29//95=
201908030630 METAR LRCL 030630Z 02004KT 2500 RA BR BKN010 OVC026 17/16
                        Q1007 R07/29//95=
201908030700 METAR COR LRCL 030700Z 06005KT 3000 -RA BR BKN012 OVC030
                        17/16 Q1007 RERA R07/29//95=
201908030730 METAR LRCL 030730Z 04005KT 5000 -RA BR BKN015 OVC030 17/16
                        Q1007 R07/29//95=
201908030800 METAR LRCL 030800Z 02003KT 7000 -RA FEW005 BKN018 OVC033
                        17/16 Q1007 R07/29//95=
201908030830 METAR LRCL 030830Z VRB01KT 7000 -RA SCT008 BKN018 OVC035
                        17/16 Q1007 R07/29//95=
201908030900 METAR LRCL 030900Z VRB01KT 5000 RA BR FEW005 SCT008 OVC035
                        17/16 Q1007 R07/29//95=
201908030930 METAR LRCL 030930Z 36004KT 9999 -RA FEW006 SCT010 OVC035
                        17/17 Q1007 RERA R07/29//95=
201908031000 METAR LRCL 031000Z 35004KT 9999 -RA FEW006 BKN014 OVC035
                        17/16 Q1007 R07/29//95=
201908031030 METAR LRCL 031030Z 35006KT 9999 -RA FEW006 BKN014 OVC035
                        18/16 Q1007 R07/29//95=
201908031100 METAR LRCL 031100Z 34007KT 9999 -RA FEW006 BKN017 OVC030
                        18/16 Q1007 R07/29//95=
201908031130 METAR LRCL 031130Z 34008KT 9999 -RA FEW008 BKN017 OVC030
                        17/16 Q1007 R07/29//95=
201908031200 METAR LRCL 031200Z 33009KT 9999 -RA FEW008 BKN019 OVC030
                        17/16 Q1007 R07/29//95=
201908031230 METAR LRCL 031230Z 34009KT 9999 -RA FEW008 SCT019 OVC030
                        17/15 Q1007 R07/29//95=
201908031300 METAR LRCL 031300Z 32007KT 9999 FEW010 SCT022 OVC030 18/16
                        Q1007 R07/29//95=
201908031330 METAR LRCL 031330Z 32007KT 9999 FEW010 SCT022 OVC035 18/15
                        Q1007 R07/29//95=
201908031400 METAR LRCL 031400Z 30007KT 9999 FEW010 SCT025 OVC065 19/15
                        Q1007 R07/29//95=
201908031430 METAR LRCL 031430Z 30006KT 9999 FEW012 SCT030 19/15 Q1008
                        R07/29//95=
201908031500 METAR LRCL 031500Z 33007KT 9999 FEW015 19/15 Q1008 R07/CLRD//=
201908031530 METAR LRCL 031530Z 34009KT 9999 SCT020 SCT030 19/15 Q1008=
201908031600 METAR LRCL 031600Z 35008KT 310V010 9999 BKN025 FEW030CB 19/15
                        Q1008=
201908031630 METAR LRCL 031630Z 33004KT 300V360 9999 SCT028 SCT030CB 19/15
                        Q1008=
201908031700 METAR LRCL 031700Z 29005KT 9999 -SHRA SCT026 SCT030CB 18/15
                        Q1008 R07/29//95=
201908031730 METAR LRCL 031730Z 29005KT 9999 -RA FEW022 SCT030CB BKN051
                        17/16 Q1009 R07/29//95=
201908031800 METAR LRCL 031800Z 24004KT 160V290 9999 -RA FEW015 SCT030CB
                        BKN054 17/15 Q1008 R07/29//95=
201908031830 METAR LRCL 031830Z 26010KT 9999 -RA SCT030CB SCT046 16/15
                        Q1009 R07/29//95=
201908031900 METAR LRCL 031900Z 26007KT 9999 FEW030CB BKN046 16/14 Q1009
                        R07/29//95=
201908031930 METAR LRCL 031930Z 26005KT 9999 FEW030CB BKN046 16/14 Q1009
                        R07/29//95=
201908032000 METAR LRCL 032000Z 26003KT 210V310 9999 -SHRA FEW030CB BKN050
                        16/14 Q1010 R07/19//95=
201908032030 METAR LRCL 032030Z 20003KT 100V230 9999 -SHRA FEW030CB BKN059
                        16/14 Q1010 R07/19//95=
201908032100 METAR LRCL 032100Z 25005KT 220V280 9999 FEW030CB BKN059 16/14
                        Q1010 R07/19//95=
201908032130 METAR LRCL 032130Z 24003KT 200V280 9999 BKN055 15/14 Q1010
                        R07/19//95=
201908032200 METAR LRCL 032200Z 24005KT 9999 SCT050 14/13 Q1010 R07/19//95=
201908032230 METAR LRCL 032230Z 25005KT 9999 SCT049 15/13 Q1010 R07/19//95=
201908032300 METAR LRCL 032300Z 26004KT 9999 SCT049 14/13 Q1010 R07/19//95=
201908032330 METAR LRCL 032330Z 15003KT 9999 FEW049 14/13 Q1010 R07/19//95=
201908040000 METAR LRCL 040000Z VRB02KT CAVOK 15/13 Q1010 R07/19//95=
201908040030 METAR COR LRCL 040030Z 19003KT 110V260 9999 FEW046 14/13
                        Q1010 R07/19//95=
201908040100 METAR LRCL 040100Z VRB01KT 9999 SCT039 BKN052 15/13 Q1010
                        R07/19//95=
201908040130 METAR LRCL 040130Z 27004KT 9999 BKN039 SCT052 15/13 Q1011
                        R07/19//95=
201908040200 METAR LRCL 040200Z 25004KT 9999 FEW017 BKN040 14/13 Q1011
                        R07/19//95=
201908040230 METAR LRCL 040230Z 27006KT 9999 BKN014 BKN040 15/13 Q1011
                        R07/19//95=
201908040300 METAR LRCL 040300Z VRB02KT 9999 BKN017 BKN039 14/12 Q1011
                        R07/CLRD//=
201908040330 METAR LRCL 040330Z VRB03KT 9999 SCT045 15/12 Q1011=
201908040400 METAR LRCL 040400Z 26004KT 220V280 9999 FEW042 15/12 Q1011=
201908040430 METAR LRCL 040430Z 26007KT 9999 FEW042 15/12 Q1011=
201908040500 METAR LRCL 040500Z 27007KT 9999 FEW042 15/12 Q1012=
201908040530 METAR LRCL 040530Z 28007KT 9999 FEW016 16/12 Q1012=
201908040600 METAR LRCL 040600Z 28006KT 250V320 9999 FEW020 17/12 Q1012=
201908040630 METAR LRCL 040630Z 29009KT 260V320 9999 FEW028 18/11 Q1012=
201908040700 METAR LRCL 040700Z 28008KT 240V310 9999 FEW028 19/11 Q1013=
201908040730 METAR LRCL 040730Z 29009KT 260V330 9999 FEW033 20/10 Q1013=
201908040800 METAR LRCL 040800Z 31009KT 280V350 9999 FEW033 20/10 Q1013=
201908040830 METAR LRCL 040830Z 34009KT 280V010 9999 FEW036 21/11 Q1013=
201908040900 METAR LRCL 040900Z 34010KT 300V360 9999 FEW042 21/09 Q1013=
201908040930 METAR LRCL 040930Z 31009KT 290V350 9999 SCT043 21/10 Q1013=
201908041000 METAR LRCL 041000Z 30010KT 270V330 9999 SCT045 22/10 Q1013=
201908041030 METAR LRCL 041030Z 33011KT 9999 BKN047 22/09 Q1013=
201908041100 METAR LRCL 041100Z 31010KT 280V340 9999 BKN047 23/09 Q1013=
201908041130 METAR LRCL 041130Z 30011KT 280V360 9999 BKN053 22/09 Q1013=
201908041200 METAR LRCL 041200Z 33009KT 290V010 9999 FEW050TCU SCT053
                        22/09 Q1013=
201908041230 METAR LRCL 041230Z 29013KT 260V320 9999 SCT054 23/09 Q1013=
201908041300 METAR LRCL 041300Z 30014KT 9999 SCT054 23/08 Q1013=
201908041330 METAR LRCL 041330Z 31015KT 280V340 9999 FEW050TCU SCT054
                        23/09 Q1013=
201908041400 METAR LRCL 041400Z 31013KT 290V350 9999 FEW050CB SCT054 23/10
                        Q1013=
201908041430 METAR LRCL 041430Z 31012KT 280V350 9999 FEW050CB SCT052 23/10
                        Q1013=
201908041500 METAR LRCL 041500Z 31012KT 9999 SCT052 23/09 Q1013=
201908041530 METAR LRCL 041530Z 30012KT 9999 SCT052 23/10 Q1013=
201908041600 METAR LRCL 041600Z 31009KT 9999 FEW055 23/10 Q1013=
201908041630 METAR LRCL 041630Z 32006KT 290V350 9999 FEW055 23/09 Q1013=
201908041700 METAR LRCL 041700Z 31007KT 9999 FEW060 22/09 Q1013=
201908041730 METAR LRCL 041730Z 30005KT 9999 FEW060 19/10 Q1013=
201908041800 METAR LRCL 041800Z VRB02KT 9999 FEW060TCU SCT067 18/11 Q1014=
201908041830 METAR LRCL 041830Z 30007KT 9999 FEW058CB BKN067 19/10 Q1014=
201908041900 METAR LRCL 041900Z 35009KT 9999 FEW060TCU BKN067 18/10 Q1015=
201908041930 METAR LRCL 041930Z 27006KT 230V320 9999 SCT067 18/10 Q1015=
201908042000 METAR COR LRCL 042000Z 27005KT 240V300 9999 SCT067 18/11
                        Q1015=
201908042030 METAR LRCL 042030Z 28006KT 9999 SCT067 18/11 Q1015=
201908042100 METAR LRCL 042100Z 27007KT 9999 FEW067 17/11 Q1015=
201908042130 METAR LRCL 042130Z 30005KT 9999 SCT067 15/11 Q1016=
201908042200 METAR LRCL 042200Z 29004KT CAVOK 15/11 Q1016=
201908042230 METAR LRCL 042230Z 29005KT CAVOK 15/11 Q1016=
201908042300 METAR LRCL 042300Z 28005KT CAVOK 14/11 Q1016=
201908042330 METAR COR LRCL 042330Z 27005KT CAVOK 14/11 Q1016=
201908050000 METAR LRCL 050000Z 27006KT CAVOK 14/10 Q1016=
201908050030 METAR LRCL 050030Z AUTO 27007KT 9999 NCD 14/10 Q1016=
201908050100 METAR LRCL 050100Z AUTO 27004KT 9999 NCD 13/10 Q1016=
201908050130 METAR COR LRCL 050130Z 27003KT 210V290 CAVOK 13/10 Q1016=
201908050200 METAR COR LRCL 050200Z VRB02KT CAVOK 12/10 Q1016=
201908050230 METAR LRCL 050230Z 28005KT CAVOK 13/10 Q1016=
201908050300 METAR LRCL 050300Z 29005KT CAVOK 12/10 Q1016=
201908050330 METAR LRCL 050330Z 29005KT CAVOK 12/10 Q1016=
201908050400 METAR LRCL 050400Z 26005KT CAVOK 13/10 Q1016=
201908050430 METAR LRCL 050430Z 31003KT CAVOK 14/09 Q1017=
201908050500 METAR LRCL 050500Z 28003KT CAVOK 15/09 Q1017=
201908050530 METAR LRCL 050530Z VRB02KT CAVOK 16/10 Q1017=
201908050600 METAR COR LRCL 050600Z VRB01KT CAVOK 18/09 Q1017=
201908050630 METAR LRCL 050630Z VRB01KT CAVOK 19/09 Q1017=
201908050700 METAR LRCL 050700Z VRB02KT CAVOK 20/10 Q1017=
201908050730 METAR LRCL 050730Z 06003KT 340V140 9999 FEW040 21/10 Q1017=
201908050800 METAR LRCL 050800Z 08004KT 040V170 9999 FEW040 21/11 Q1017=
201908050830 METAR LRCL 050830Z 08004KT 360V170 9999 FEW044 22/11 Q1016=
201908050900 METAR LRCL 050900Z 09004KT 020V130 9999 FEW052 23/12 Q1016=
201908050930 METAR LRCL 050930Z 32006KT 9999 SCT056 24/10 Q1016=
201908051000 METAR LRCL 051000Z 01005KT 320V070 9999 SCT056 24/10 Q1016=
201908051030 METAR LRCL 051030Z 01005KT 310V080 9999 SCT053 23/10 Q1016=
201908051100 METAR LRCL 051100Z 33007KT 270V020 9999 SCT057 24/10 Q1015=
201908051130 METAR LRCL 051130Z 32010KT 270V360 9999 SCT057 24/10 Q1015=
201908051200 METAR LRCL 051200Z 33008KT 9999 SCT059 24/11 Q1015=
201908051230 METAR LRCL 051230Z 33006KT 290V010 9999 SCT063 24/09 Q1015=
201908051300 METAR LRCL 051300Z 30008KT 240V340 9999 SCT062 25/08 Q1015=
201908051330 METAR LRCL 051330Z 32009KT 280V350 9999 SCT063 26/08 Q1015=
201908051400 METAR LRCL 051400Z 05007KT 340V090 9999 SCT064 24/12 Q1015=
201908051430 METAR COR LRCL 051430Z VRB05KT 9999 SCT064 25/12 Q1015=
201908051500 METAR LRCL 051500Z 35007KT 320V020 9999 FEW065 25/11 Q1014=
201908051530 METAR LRCL 051530Z 29010KT 260V320 9999 FEW065 25/10 Q1014=
201908051600 METAR LRCL 051600Z 29009KT 260V320 9999 FEW061 25/10 Q1014=
201908051630 METAR LRCL 051630Z 30009KT 9999 FEW061 24/10 Q1014=
201908051700 METAR LRCL 051700Z 32004KT 290V350 9999 FEW060 23/11 Q1014=
201908051730 METAR LRCL 051730Z 32007KT 9999 FEW060 22/11 Q1014=
201908051800 METAR LRCL 051800Z 32005KT CAVOK 21/11 Q1015=
201908051830 METAR LRCL 051830Z 26005KT 220V320 CAVOK 20/10 Q1015=
201908051900 METAR LRCL 051900Z 26004KT CAVOK 19/12 Q1015=
201908051930 METAR LRCL 051930Z 25005KT CAVOK 17/12 Q1015=
201908052000 METAR LRCL 052000Z 25006KT CAVOK 18/12 Q1015=
201908052030 METAR LRCL 052030Z 25006KT CAVOK 18/12 Q1015=
201908052100 METAR LRCL 052100Z 26005KT CAVOK 17/12 Q1015=
201908052130 METAR LRCL 052130Z 26005KT CAVOK 16/11 Q1016=
201908052200 METAR LRCL 052200Z 25006KT CAVOK 17/11 Q1016=
201908052230 METAR LRCL 052230Z VRB01KT CAVOK 16/12 Q1016=
201908052300 METAR LRCL 052300Z VRB02KT CAVOK 16/11 Q1016=
201908052330 METAR LRCL 052330Z 26003KT 220V320 CAVOK 17/11 Q1016=
201908060000 METAR LRCL 060000Z VRB02KT CAVOK 15/12 Q1016=
201908060030 METAR LRCL 060030Z 10003KT 060V140 CAVOK 14/11 Q1016=
201908060100 METAR LRCL 060100Z 09004KT CAVOK 13/11 Q1016=
201908060130 METAR LRCL 060130Z 09004KT CAVOK 13/12 Q1016=
201908060200 METAR LRCL 060200Z 08005KT CAVOK 13/12 Q1016=
201908060230 METAR LRCL 060230Z 10003KT 060V120 CAVOK 13/12 Q1016=
201908060300 METAR LRCL 060300Z 10003KT CAVOK 12/12 Q1016=
201908060330 METAR LRCL 060330Z VRB01KT CAVOK 13/12 Q1016=
201908060400 METAR LRCL 060400Z VRB01KT CAVOK 13/12 Q1017=
201908060430 METAR LRCL 060430Z 00000KT CAVOK 15/12 Q1017=
201908060500 METAR LRCL 060500Z 00000KT CAVOK 15/12 Q1017=
201908060530 METAR LRCL 060530Z VRB01KT CAVOK 17/13 Q1017=
201908060600 METAR LRCL 060600Z 08004KT CAVOK 18/13 Q1017=
201908060630 METAR LRCL 060630Z 08004KT CAVOK 19/13 Q1017=
201908060700 METAR LRCL 060700Z 07003KT 010V110 CAVOK 21/13 Q1017=
201908060730 METAR LRCL 060730Z 07004KT 040V100 CAVOK 22/13 Q1017=
201908060800 METAR COR LRCL 060800Z 08005KT 040V140 CAVOK 23/13 Q1017=
201908060830 METAR LRCL 060830Z 08005KT 040V130 9999 FEW026 23/13 Q1017=
201908060900 METAR LRCL 060900Z 05005KT 350V120 9999 FEW030 24/14 Q1017=
201908060930 METAR COR LRCL 060930Z 10005KT 050V150 9999 FEW030 25/13
                        Q1017=
201908061000 METAR LRCL 061000Z 10006KT 040V170 9999 FEW030 FEW033TCU
                        26/13 Q1017=
201908061030 METAR LRCL 061030Z 14008KT 100V170 9999 FEW036CB SCT044 25/13
                        Q1017=
201908061100 METAR LRCL 061100Z 13007KT 9999 -SHRA SCT046CB BKN052 24/12
                        Q1016 R07/19//95=
201908061130 METAR LRCL 061130Z 09005KT 9999 FEW030 SCT050CB BKN065 23/14
                        Q1016 R07/19//95=
201908061200 METAR LRCL 061200Z 34003KT 9999 FEW048CB BKN058 24/14 Q1017
                        R07/29//95=
201908061230 METAR LRCL 061230Z VRB03KT 9999 FEW046CB SCT056 26/12 Q1016
                        R07/CLRD//=
201908061300 METAR LRCL 061300Z 15004KT 9999 FEW055 27/11 Q1016 R07/CLRD//=
201908061330 METAR LRCL 061330Z VRB02KT 9999 FEW050 27/11 Q1015=
201908061400 METAR LRCL 061400Z 10004KT 9999 FEW055 27/12 Q1015=
201908061430 METAR LRCL 061430Z VRB03KT 9999 FEW055 28/11 Q1015=
201908061500 METAR LRCL 061500Z 29003KT 9999 FEW060 28/10 Q1015=
201908061530 METAR LRCL 061530Z VRB01KT 9999 FEW060 28/11 Q1015=
201908061600 METAR LRCL 061600Z 01003KT 9999 FEW060 28/11 Q1015=
201908061630 METAR LRCL 061630Z VRB01KT 9999 FEW060 27/11 Q1015=
201908061700 METAR LRCL 061700Z 05003KT 030V130 9999 FEW065 26/13 Q1014=
201908061730 METAR LRCL 061730Z 02005KT 9999 FEW065 24/13 Q1015=
201908061800 METAR LRCL 061800Z 02004KT 360V070 CAVOK 23/13 Q1015=
201908061830 METAR LRCL 061830Z 06003KT 010V150 CAVOK 23/13 Q1015=
201908061900 METAR LRCL 061900Z 25005KT CAVOK 22/14 Q1016=
201908061930 METAR LRCL 061930Z VRB01KT CAVOK 22/14 Q1016=
201908062000 METAR LRCL 062000Z 27003KT 250V330 CAVOK 21/16 Q1015=
201908062030 METAR LRCL 062030Z 30002KT CAVOK 21/15 Q1015=
201908062100 METAR LRCL 062100Z VRB02KT CAVOK 21/15 Q1015=
201908062130 METAR LRCL 062130Z 30002KT CAVOK 20/15 Q1015=
201908062200 METAR LRCL 062200Z 00000KT CAVOK 20/16 Q1015=
201908062230 METAR LRCL 062230Z 00000KT 9999 FEW110 19/16 Q1015=
201908062300 METAR LRCL 062300Z VRB02KT CAVOK 18/16 Q1015=
201908062330 METAR LRCL 062330Z 30003KT CAVOK 17/15 Q1015=
201908070000 METAR LRCL 070000Z VRB01KT CAVOK 17/15 Q1015=
201908070030 METAR LRCL 070030Z 00000KT CAVOK 16/15 Q1015=
201908070100 METAR LRCL 070100Z 28002KT CAVOK 16/15 Q1015=
201908070130 METAR LRCL 070130Z 31002KT CAVOK 16/15 Q1015=
201908070200 METAR LRCL 070200Z 03002KT CAVOK 16/15 Q1015=
201908070230 METAR LRCL 070230Z 08003KT CAVOK 15/15 Q1015=
201908070300 METAR COR LRCL 070300Z 07002KT CAVOK 15/14 Q1015=
201908070330 METAR LRCL 070330Z 00000KT CAVOK 15/15 Q1015=
201908070400 METAR LRCL 070400Z 07002KT CAVOK 16/15 Q1016=
201908070430 METAR LRCL 070430Z VRB01KT CAVOK 16/15 Q1016=
201908070500 METAR LRCL 070500Z VRB01KT CAVOK 17/16 Q1016=
201908070530 METAR LRCL 070530Z VRB02KT CAVOK 18/16 Q1016=
201908070600 METAR LRCL 070600Z 06004KT 020V100 CAVOK 19/15 Q1016=
201908070630 METAR LRCL 070630Z 06004KT 010V100 CAVOK 21/15 Q1015=
201908070700 METAR LRCL 070700Z 05004KT CAVOK 23/15 Q1015=
201908070730 METAR LRCL 070730Z 07006KT 030V100 CAVOK 24/15 Q1015=
201908070800 METAR LRCL 070800Z 08007KT 050V110 CAVOK 24/15 Q1015=
201908070830 METAR LRCL 070830Z 09007KT 060V120 CAVOK 25/15 Q1015=
201908070900 METAR LRCL 070900Z 11008KT 080V150 CAVOK 26/16 Q1015=
201908070930 METAR LRCL 070930Z 10009KT 070V130 CAVOK 26/16 Q1015=
201908071000 METAR LRCL 071000Z 11008KT CAVOK 27/15 Q1015=
201908071030 METAR LRCL 071030Z 12008KT 080V170 CAVOK 27/15 Q1015=
201908071100 METAR LRCL 071100Z 13009KT 100V190 CAVOK 28/15 Q1014=
201908071130 METAR LRCL 071130Z 12008KT 100V160 CAVOK 29/15 Q1014=
201908071200 METAR LRCL 071200Z 14008KT 100V200 CAVOK 30/15 Q1014=
201908071230 METAR LRCL 071230Z 13007KT CAVOK 30/15 Q1013=
201908071300 METAR LRCL 071300Z 12008KT 090V150 CAVOK 30/15 Q1013=
201908071330 METAR LRCL 071330Z 14006KT 110V170 9999 FEW060 30/15 Q1013=
201908071400 METAR LRCL 071400Z 13007KT CAVOK 30/15 Q1013=
201908071430 METAR LRCL 071430Z 14007KT 110V170 CAVOK 30/15 Q1012=
201908071500 METAR LRCL 071500Z 14008KT CAVOK 30/15 Q1012=
201908071530 METAR LRCL 071530Z 16011KT CAVOK 30/15 Q1012=
201908071600 METAR LRCL 071600Z 20012KT 9999 FEW065 30/15 Q1012=
201908071630 METAR LRCL 071630Z 21012KT 9999 FEW065 29/14 Q1012=
201908071700 METAR LRCL 071700Z 21010KT CAVOK 28/14 Q1012=
201908071730 METAR LRCL 071730Z 20008KT CAVOK 28/15 Q1012=
201908071800 METAR LRCL 071800Z 20009KT CAVOK 27/15 Q1012=
201908071830 METAR COR LRCL 071830Z 20008KT CAVOK 27/15 Q1012=
201908071900 METAR LRCL 071900Z 28003KT CAVOK 24/15 Q1012=
201908071930 METAR LRCL 071930Z 23005KT CAVOK 24/15 Q1012=
201908072000 METAR LRCL 072000Z 25004KT CAVOK 23/16 Q1012=
201908072030 METAR LRCL 072030Z 26005KT CAVOK 22/16 Q1012=
201908072100 METAR LRCL 072100Z 26007KT 230V300 CAVOK 23/16 Q1012=
201908072130 METAR LRCL 072130Z 27006KT CAVOK 24/16 Q1012=
201908072200 METAR LRCL 072200Z 27004KT CAVOK 23/16 Q1012=
201908072230 METAR LRCL 072230Z VRB02KT CAVOK 21/16 Q1012=
201908072300 METAR LRCL 072300Z 00000KT CAVOK 20/16 Q1012=
201908072330 METAR LRCL 072330Z VRB01KT CAVOK 21/16 Q1012=
201908080000 METAR LRCL 080000Z 06003KT 010V090 CAVOK 20/16 Q1012=
201908080030 METAR LRCL 080030Z VRB02KT CAVOK 19/17 Q1012=
201908080100 METAR LRCL 080100Z 28003KT CAVOK 19/17 Q1012=
201908080130 METAR LRCL 080130Z AUTO 29003KT 9999 NCD 19/17 Q1012=
201908080200 METAR LRCL 080200Z 25002KT CAVOK 19/16 Q1012=
201908080230 METAR LRCL 080230Z VRB02KT CAVOK 19/16 Q1012=
201908080300 METAR LRCL 080300Z 12003KT CAVOK 18/16 Q1012=
201908080330 METAR LRCL 080330Z 06003KT CAVOK 18/16 Q1012=
201908080400 METAR LRCL 080400Z 05003KT 320V090 9999 FEW050 18/16 Q1012=
201908080430 METAR LRCL 080430Z VRB02KT 9999 FEW045CB FEW050 19/17 Q1012=
201908080500 METAR LRCL 080500Z 00000KT 9999 FEW045CB FEW050 20/17 Q1012=
201908080530 METAR LRCL 080530Z VRB02KT 9999 FEW045CB FEW050 21/17 Q1012=
201908080600 METAR LRCL 080600Z 08003KT 040V120 CAVOK 22/17 Q1012=
201908080630 METAR LRCL 080630Z 09004KT 060V120 CAVOK 24/17 Q1012=
201908080700 METAR LRCL 080700Z 09003KT 040V140 CAVOK 26/17 Q1012=
201908080730 METAR LRCL 080730Z 09004KT 040V130 CAVOK 27/17 Q1012=
201908080800 METAR LRCL 080800Z 06004KT 010V110 CAVOK 28/17 Q1012=
201908080830 METAR LRCL 080830Z 09005KT 050V120 CAVOK 28/18 Q1012=
201908080900 METAR LRCL 080900Z 08005KT 030V150 9999 FEW045 29/18 Q1012=
201908080930 METAR LRCL 080930Z 06005KT 020V080 9999 FEW045TCU 28/17 Q1012=
201908081000 METAR LRCL 081000Z 04006KT 350V060 9999 FEW045CB FEW050TCU
                        28/18 Q1012=
201908081030 METAR LRCL 081030Z 02006KT 350V050 9999 TS SCT045CB SCT054
                        27/17 Q1012=
201908081100 METAR LRCL 081100Z 19012KT 8000 -TSRA SCT031CB BKN047 24/17
                        Q1014 R07/29//95=
201908081130 METAR LRCL 081130Z 14006KT 080V190 9999 TS FEW032CB BKN045
                        24/20 Q1013 R07/29//95=
201908081200 METAR LRCL 081200Z VRB02KT 9999 FEW045CB SCT050 25/19 Q1013
                        RETS R07/29//95=
201908081230 METAR LRCL 081230Z 02003KT 340V070 9999 SCT050 25/18 Q1013
                        R07/CLRD//=
201908081300 METAR LRCL 081300Z 13003KT 060V220 9999 FEW050 27/19 Q1013=
201908081330 METAR LRCL 081330Z 08004KT 360V170 9999 FEW050 28/17 Q1013=
201908081400 METAR LRCL 081400Z VRB03KT 9999 FEW050 28/18 Q1013=
201908081430 METAR LRCL 081430Z 36006KT 310V040 9999 FEW045 29/17 Q1013=
201908081500 METAR LRCL 081500Z 01005KT 330V060 9999 FEW044 29/17 Q1013=
201908081530 METAR LRCL 081530Z 34007KT 300V010 9999 FEW044 28/17 Q1012=
201908081600 METAR LRCL 081600Z 34008KT 9999 FEW044 28/17 Q1013=
201908081630 METAR LRCL 081630Z 35007KT 320V020 CAVOK 27/17 Q1013=
201908081700 METAR LRCL 081700Z 34008KT CAVOK 26/17 Q1013=
201908081730 METAR LRCL 081730Z 34006KT CAVOK 25/16 Q1013=
201908081800 METAR LRCL 081800Z 34006KT CAVOK 24/15 Q1014=
201908081830 METAR LRCL 081830Z 35005KT 320V020 CAVOK 24/15 Q1014=
201908081900 METAR LRCL 081900Z VRB01KT CAVOK 23/15 Q1014=
201908081930 METAR LRCL 081930Z 31002KT CAVOK 22/16 Q1015=
201908082000 METAR LRCL 082000Z VRB02KT CAVOK 21/16 Q1015=
201908082030 METAR LRCL 082030Z 32003KT CAVOK 20/16 Q1014=
201908082100 METAR LRCL 082100Z VRB01KT CAVOK 20/16 Q1015=
201908082130 METAR LRCL 082130Z 27003KT 230V320 CAVOK 20/16 Q1015=
201908082200 METAR LRCL 082200Z VRB02KT CAVOK 20/17 Q1014=
201908082230 METAR LRCL 082230Z 23003KT CAVOK 20/17 Q1014=
201908082300 METAR LRCL 082300Z 32003KT 240V350 CAVOK 19/17 Q1014=
201908082330 METAR LRCL 082330Z 09003KT CAVOK 19/17 Q1014=
201908090000 METAR LRCL 090000Z 14003KT 080V170 CAVOK 19/17 Q1014=
201908090030 METAR LRCL 090030Z 28002KT CAVOK 18/17 Q1015=
201908090100 METAR LRCL 090100Z 23003KT 190V270 CAVOK 19/17 Q1015=
201908090130 METAR LRCL 090130Z 28006KT 9999 FEW040CB 19/16 Q1015=
201908090200 METAR LRCL 090200Z 26007KT 220V290 9999 FEW040CB 19/16 Q1015=
201908090230 METAR LRCL 090230Z VRB02KT 9999 FEW040CB 20/17 Q1015=
201908090300 METAR LRCL 090300Z 36002KT 9999 -SHRA FEW040CB 19/17 Q1015=
201908090330 METAR LRCL 090330Z VRB01KT 9999 FEW040CB 19/17 Q1015=
201908090400 METAR LRCL 090400Z 00000KT 9999 FEW040CB 19/17 Q1016=
201908090430 METAR LRCL 090430Z 31004KT CAVOK 20/17 Q1016=
201908090500 METAR LRCL 090500Z VRB01KT CAVOK 21/17 Q1015=
201908090530 METAR LRCL 090530Z VRB01KT CAVOK 21/17 Q1016=
201908090600 METAR LRCL 090600Z VRB02KT CAVOK 22/16 Q1015=
201908090630 METAR LRCL 090630Z VRB02KT CAVOK 23/16 Q1015=
201908090700 METAR LRCL 090700Z AUTO VRB01KT 9999 NCD 25/16 Q1015=
201908090730 METAR LRCL 090730Z VRB03KT 9999 FEW040 25/16 Q1015=
201908090800 METAR LRCL 090800Z VRB03KT 9999 FEW040 25/16 Q1016=
201908090830 METAR LRCL 090830Z 06005KT 010V100 9999 FEW034 26/15 Q1016=
201908090900 METAR LRCL 090900Z 01006KT 300V090 9999 FEW045 26/15 Q1015=
201908090930 METAR LRCL 090930Z 33006KT 280V020 9999 FEW046 27/13 Q1015=
201908091000 METAR LRCL 091000Z 33007KT 280V360 9999 FEW050 27/12 Q1015=
201908091030 METAR LRCL 091030Z 31009KT 270V360 9999 FEW050 28/12 Q1015=
201908091100 METAR LRCL 091100Z 34007KT 9999 FEW050 28/14 Q1015=
201908091130 METAR LRCL 091130Z 31009KT 9999 FEW050 29/11 Q1015=
201908091200 METAR LRCL 091200Z 31009KT 270V350 9999 FEW050 29/11 Q1015=
201908091230 METAR LRCL 091230Z 34010KT 9999 FEW055 29/09 Q1015=
201908091300 METAR LRCL 091300Z 33009KT 300V360 9999 FEW055 29/10 Q1014=
201908091330 METAR LRCL 091330Z 32011KT 290V350 9999 FEW055 29/10 Q1015=
201908091400 METAR LRCL 091400Z 30008KT 260V330 9999 FEW055 29/11 Q1015=
201908091430 METAR LRCL 091430Z 31007KT 270V020 9999 FEW055 29/11 Q1015=
201908091500 METAR LRCL 091500Z 32008KT 280V350 9999 FEW055 29/10 Q1015=
201908091530 METAR LRCL 091530Z 32007KT 290V350 CAVOK 28/10 Q1015=
201908091600 METAR LRCL 091600Z 31009KT CAVOK 28/09 Q1015=
201908091630 METAR LRCL 091630Z 31006KT 280V340 CAVOK 27/11 Q1015=
201908091700 METAR LRCL 091700Z 31005KT CAVOK 26/12 Q1015=
201908091730 METAR LRCL 091730Z 31005KT 260V360 CAVOK 24/11 Q1015=
201908091800 METAR LRCL 091800Z 29005KT CAVOK 21/12 Q1015=
201908091830 METAR LRCL 091830Z 28004KT CAVOK 20/12 Q1016=
201908091900 METAR LRCL 091900Z 28006KT CAVOK 22/12 Q1016=
201908091930 METAR LRCL 091930Z 28005KT CAVOK 20/12 Q1016=
201908092000 METAR LRCL 092000Z 28004KT 250V310 CAVOK 19/12 Q1017=
201908092030 METAR LRCL 092030Z 27004KT 230V300 CAVOK 20/13 Q1016=
201908092100 METAR LRCL 092100Z 28004KT CAVOK 18/13 Q1017=
201908092130 METAR LRCL 092130Z 29004KT CAVOK 18/13 Q1016=
201908092200 METAR LRCL 092200Z 28006KT CAVOK 18/13 Q1017=
201908092230 METAR LRCL 092230Z 26004KT CAVOK 17/13 Q1017=
201908092300 METAR LRCL 092300Z 27003KT CAVOK 17/13 Q1017=
201908092330 METAR LRCL 092330Z 28004KT CAVOK 16/13 Q1017=
201908100000 METAR LRCL 100000Z 25004KT CAVOK 16/12 Q1017=
201908100030 METAR LRCL 100030Z 26003KT CAVOK 16/12 Q1017=
201908100100 METAR LRCL 100100Z 24003KT CAVOK 16/12 Q1017=
201908100130 METAR LRCL 100130Z 26003KT CAVOK 15/12 Q1017=
201908100200 METAR LRCL 100200Z 27003KT CAVOK 15/12 Q1017=
201908100230 METAR LRCL 100230Z 25002KT CAVOK 15/12 Q1017=
201908100300 METAR LRCL 100300Z 00000KT CAVOK 14/12 Q1017=
201908100330 METAR LRCL 100330Z 09004KT 070V160 CAVOK 14/13 Q1017=
201908100400 METAR LRCL 100400Z 08004KT CAVOK 14/13 Q1018=
201908100430 METAR LRCL 100430Z 09003KT CAVOK 15/13 Q1018=
201908100500 METAR LRCL 100500Z VRB01KT CAVOK 17/13 Q1018=
201908100530 METAR LRCL 100530Z VRB02KT CAVOK 18/12 Q1018=
201908100600 METAR LRCL 100600Z 00000KT CAVOK 21/12 Q1018=
201908100630 METAR LRCL 100630Z VRB02KT CAVOK 21/13 Q1018=
201908100700 METAR LRCL 100700Z VRB03KT CAVOK 22/13 Q1018=
201908100730 METAR LRCL 100730Z VRB02KT CAVOK 24/14 Q1018=
201908100800 METAR LRCL 100800Z VRB03KT CAVOK 25/14 Q1018=
201908100830 METAR LRCL 100830Z VRB02KT 9999 FEW030 26/15 Q1018=
201908100900 METAR LRCL 100900Z VRB03KT 9999 FEW030 27/15 Q1018=
201908100930 METAR LRCL 100930Z VRB02KT 9999 FEW033 28/13 Q1018=
201908101000 METAR LRCL 101000Z VRB03KT 9999 FEW040 28/13 Q1018=
201908101030 METAR LRCL 101030Z 01003KT 9999 FEW046 28/13 Q1018=
201908101100 METAR LRCL 101100Z 11004KT 9999 FEW050 28/13 Q1018=
201908101130 METAR LRCL 101130Z VRB03KT 9999 FEW050 29/13 Q1017=
201908101200 METAR LRCL 101200Z VRB04KT 9999 FEW050 29/14 Q1017=
201908101230 METAR LRCL 101230Z VRB02KT 9999 FEW055 30/13 Q1017=
201908101300 METAR LRCL 101300Z 34003KT 9999 FEW055 30/13 Q1017=
201908101330 METAR LRCL 101330Z 09005KT 040V130 CAVOK 30/14 Q1017=
201908101400 METAR LRCL 101400Z VRB02KT CAVOK 30/13 Q1017=
201908101430 METAR LRCL 101430Z 07005KT 030V130 CAVOK 30/12 Q1017=
201908101500 METAR LRCL 101500Z 14005KT CAVOK 29/13 Q1017=
201908101530 METAR LRCL 101530Z 14005KT 060V180 CAVOK 29/12 Q1017=
201908101600 METAR LRCL 101600Z 11005KT 050V130 CAVOK 29/14 Q1017=
201908101630 METAR LRCL 101630Z 11004KT CAVOK 28/13 Q1017=
201908101700 METAR LRCL 101700Z 13004KT CAVOK 27/15 Q1017=
201908101730 METAR LRCL 101730Z 12004KT CAVOK 26/14 Q1017=
201908101800 METAR LRCL 101800Z 00000KT CAVOK 25/15 Q1017=
201908101830 METAR LRCL 101830Z VRB01KT CAVOK 23/16 Q1018=
201908101900 METAR LRCL 101900Z 32003KT CAVOK 22/16 Q1018=
201908101930 METAR LRCL 101930Z 30002KT CAVOK 21/16 Q1018=
201908102000 METAR LRCL 102000Z 24003KT CAVOK 21/15 Q1018=
201908102030 METAR LRCL 102030Z 24002KT CAVOK 20/15 Q1018=
201908102100 METAR LRCL 102100Z 25002KT CAVOK 20/16 Q1018=
201908102130 METAR LRCL 102130Z VRB01KT CAVOK 20/15 Q1018=
201908102200 METAR LRCL 102200Z 30004KT CAVOK 19/15 Q1018=
201908102230 METAR LRCL 102230Z VRB01KT CAVOK 19/15 Q1018=
201908102300 METAR COR LRCL 102300Z 28004KT CAVOK 18/15 Q1018=
201908102330 METAR LRCL 102330Z VRB02KT CAVOK 19/15 Q1018=
201908110000 METAR LRCL 110000Z AUTO 00000KT 9999 NCD 18/15 Q1018=
201908110030 METAR LRCL 110030Z AUTO 08002KT 9999 NCD 17/15 Q1017=
201908110100 METAR LRCL 110100Z 11003KT CAVOK 16/15 Q1017=
201908110130 METAR COR LRCL 110130Z 11003KT CAVOK 16/15 Q1017=
201908110200 METAR LRCL 110200Z 00000KT CAVOK 16/15 Q1018=
201908110230 METAR LRCL 110230Z 05002KT CAVOK 16/15 Q1018=
201908110300 METAR LRCL 110300Z 09002KT CAVOK 16/15 Q1018=
201908110330 METAR LRCL 110330Z 05002KT CAVOK 16/15 Q1018=
201908110400 METAR LRCL 110400Z VRB02KT CAVOK 16/15 Q1018=
201908110430 METAR LRCL 110430Z 07001KT CAVOK 18/15 Q1018=
201908110500 METAR LRCL 110500Z 00000KT CAVOK 19/16 Q1019=
201908110530 METAR LRCL 110530Z 00000KT CAVOK 20/16 Q1019=
201908110600 METAR LRCL 110600Z VRB02KT CAVOK 21/15 Q1019=
201908110630 METAR LRCL 110630Z 11004KT 060V150 CAVOK 22/15 Q1019=
201908110700 METAR LRCL 110700Z VRB03KT CAVOK 23/15 Q1019=
201908110730 METAR LRCL 110730Z 12003KT 050V190 CAVOK 24/16 Q1019=
201908110800 METAR LRCL 110800Z VRB03KT CAVOK 26/16 Q1019=
201908110830 METAR LRCL 110830Z VRB02KT CAVOK 27/17 Q1019=
201908110900 METAR LRCL 110900Z VRB03KT CAVOK 28/17 Q1019=
201908110930 METAR LRCL 110930Z VRB04KT CAVOK 28/16 Q1018=
201908111000 METAR LRCL 111000Z VRB03KT CAVOK 30/17 Q1018=
201908111030 METAR LRCL 111030Z 01004KT 320V060 CAVOK 30/16 Q1018=
201908111100 METAR LRCL 111100Z 03004KT 320V090 CAVOK 30/16 Q1018=
201908111130 METAR LRCL 111130Z 05004KT 320V100 CAVOK 31/16 Q1018=
201908111200 METAR LRCL 111200Z 09006KT 060V130 CAVOK 31/15 Q1018=
201908111230 METAR LRCL 111230Z 09004KT 030V160 CAVOK 31/15 Q1018=
201908111300 METAR LRCL 111300Z 10004KT 040V170 CAVOK 31/15 Q1017=
201908111330 METAR LRCL 111330Z 07005KT 020V110 CAVOK 31/15 Q1017=
201908111400 METAR LRCL 111400Z VRB02KT CAVOK 32/15 Q1017=
201908111430 METAR LRCL 111430Z VRB02KT CAVOK 33/15 Q1017=
201908111500 METAR LRCL 111500Z 02005KT 360V060 CAVOK 31/15 Q1017=
201908111530 METAR LRCL 111530Z 06003KT 020V110 CAVOK 31/16 Q1017=
201908111600 METAR LRCL 111600Z 06004KT CAVOK 30/15 Q1017=
201908111630 METAR LRCL 111630Z 05004KT CAVOK 30/16 Q1017=
201908111700 METAR LRCL 111700Z 03003KT CAVOK 29/17 Q1017=
201908111730 METAR LRCL 111730Z 04002KT CAVOK 28/18 Q1017=
201908111800 METAR LRCL 111800Z 14003KT CAVOK 26/17 Q1017=
201908111830 METAR LRCL 111830Z VRB02KT CAVOK 25/18 Q1017=
201908111900 METAR LRCL 111900Z VRB02KT CAVOK 24/18 Q1018=
201908111930 METAR LRCL 111930Z 36001KT CAVOK 23/18 Q1018=
201908112000 METAR LRCL 112000Z 25003KT 230V290 CAVOK 23/18 Q1018=
201908112030 METAR LRCL 112030Z 00000KT CAVOK 22/18 Q1018=
201908112100 METAR LRCL 112100Z 07001KT CAVOK 21/18 Q1018=
201908112130 METAR LRCL 112130Z 00000KT CAVOK 21/18 Q1018=
201908112200 METAR LRCL 112200Z 00000KT CAVOK 21/18 Q1018=
201908112230 METAR LRCL 112230Z 00000KT CAVOK 20/18 Q1018=
201908112300 METAR LRCL 112300Z 00000KT CAVOK 20/18 Q1018=
201908112330 METAR LRCL 112330Z 08002KT CAVOK 20/17 Q1018=
201908120000 METAR LRCL 120000Z 09004KT CAVOK 19/17 Q1018=
201908120030 METAR LRCL 120030Z 10003KT CAVOK 19/17 Q1018=
201908120100 METAR LRCL 120100Z 09003KT CAVOK 18/17 Q1018=
201908120130 METAR LRCL 120130Z 09003KT CAVOK 18/17 Q1017=
201908120200 METAR LRCL 120200Z 10003KT CAVOK 18/17 Q1017=
201908120230 METAR LRCL 120230Z 09003KT CAVOK 18/17 Q1017=
201908120300 METAR LRCL 120300Z 07002KT CAVOK 17/17 Q1017=
201908120330 METAR LRCL 120330Z 00000KT CAVOK 17/17 Q1018=
201908120400 METAR LRCL 120400Z VRB01KT CAVOK 18/17 Q1018=
201908120430 METAR LRCL 120430Z VRB01KT CAVOK 19/17 Q1018=
201908120500 METAR LRCL 120500Z VRB01KT CAVOK 21/17 Q1018=
201908120530 METAR LRCL 120530Z 00000KT CAVOK 22/18 Q1018=
201908120600 METAR LRCL 120600Z 00000KT CAVOK 23/18 Q1018=
201908120630 METAR LRCL 120630Z VRB02KT CAVOK 25/19 Q1018=
201908120700 METAR LRCL 120700Z 11006KT 070V140 CAVOK 26/18 Q1018=
201908120730 METAR LRCL 120730Z 11007KT 080V140 CAVOK 27/18 Q1018=
201908120800 METAR LRCL 120800Z 11008KT CAVOK 28/19 Q1017=
201908120830 METAR LRCL 120830Z 11007KT 080V140 CAVOK 29/19 Q1017=
201908120900 METAR LRCL 120900Z 12008KT CAVOK 29/17 Q1017=
201908120930 METAR LRCL 120930Z 12007KT 080V150 CAVOK 30/17 Q1017=
201908121000 METAR LRCL 121000Z 09007KT 070V140 CAVOK 30/19 Q1017=
201908121030 METAR LRCL 121030Z 11005KT 070V170 CAVOK 31/17 Q1017=
201908121100 METAR LRCL 121100Z 09005KT 040V180 CAVOK 32/18 Q1016=
201908121130 METAR LRCL 121130Z 10005KT 080V140 9999 FEW045 32/18 Q1016=
201908121200 METAR LRCL 121200Z VRB04KT 9999 FEW045 32/17 Q1016=
201908121230 METAR LRCL 121230Z 09005KT 030V150 9999 FEW045 33/16 Q1016=
201908121300 METAR LRCL 121300Z VRB04KT 9999 FEW045 33/15 Q1016=
201908121330 METAR LRCL 121330Z 04004KT 330V110 9999 FEW045 33/16 Q1016=
201908121400 METAR LRCL 121400Z VRB02KT 9999 FEW045 33/17 Q1015=
201908121430 METAR LRCL 121430Z 05004KT 010V080 CAVOK 33/18 Q1015=
201908121500 METAR LRCL 121500Z VRB02KT CAVOK 33/18 Q1015=
201908121530 METAR LRCL 121530Z 05003KT 360V130 CAVOK 32/18 Q1015=
201908121600 METAR LRCL 121600Z 02006KT 360V060 CAVOK 32/18 Q1015=
201908121630 METAR LRCL 121630Z 05005KT CAVOK 31/19 Q1015=
201908121700 METAR LRCL 121700Z 04004KT CAVOK 30/19 Q1015=
201908121730 METAR LRCL 121730Z 05004KT CAVOK 29/19 Q1015=
201908121800 METAR LRCL 121800Z 09003KT 060V130 CAVOK 28/19 Q1015=
201908121830 METAR LRCL 121830Z VRB02KT CAVOK 26/20 Q1015=
201908121900 METAR LRCL 121900Z 00000KT CAVOK 25/19 Q1015=
201908121930 METAR LRCL 121930Z 34001KT CAVOK 24/19 Q1015=
201908122000 METAR LRCL 122000Z VRB02KT CAVOK 24/18 Q1015=
201908122030 METAR LRCL 122030Z 29003KT CAVOK 23/19 Q1015=
201908122100 METAR LRCL 122100Z 24003KT CAVOK 23/18 Q1015=
201908122130 METAR LRCL 122130Z VRB02KT CAVOK 23/18 Q1015=
201908122200 METAR LRCL 122200Z 00000KT CAVOK 22/19 Q1015=
201908122230 METAR LRCL 122230Z VRB01KT CAVOK 22/19 Q1015=
201908122300 METAR LRCL 122300Z 01001KT CAVOK 21/19 Q1015=
201908122330 METAR LRCL 122330Z 00000KT CAVOK 20/19 Q1015=
201908130000 METAR LRCL 130000Z 10003KT CAVOK 20/18 Q1015=
201908130030 METAR LRCL 130030Z 33003KT CAVOK 20/18 Q1015=
201908130100 METAR LRCL 130100Z 11002KT CAVOK 19/18 Q1015=
201908130130 METAR LRCL 130130Z VRB02KT 7000 NSC 19/18 Q1014=
201908130200 METAR LRCL 130200Z 00000KT 8000 NSC 19/18 Q1014=
201908130230 METAR LRCL 130230Z 00000KT 8000 NSC 19/18 Q1014=
201908130300 METAR LRCL 130300Z 00000KT 8000 MIFG NSC 18/17 Q1014=
201908130330 METAR LRCL 130330Z VRB01KT 9999 MIFG NSC 18/17 Q1014=
201908130400 METAR LRCL 130400Z 30002KT CAVOK 18/17 Q1014=
201908130430 METAR LRCL 130430Z 00000KT CAVOK 20/18 Q1014=
201908130500 METAR LRCL 130500Z VRB02KT 7000 NSC 21/18 Q1014=
201908130530 METAR LRCL 130530Z 00000KT CAVOK 22/19 Q1014=
201908130600 METAR LRCL 130600Z AUTO VRB01KT 9999 NCD 24/19 Q1015=
201908130630 METAR LRCL 130630Z VRB03KT CAVOK 25/18 Q1015=
201908130700 METAR LRCL 130700Z VRB03KT CAVOK 26/19 Q1015=
201908130730 METAR LRCL 130730Z 11004KT 060V170 CAVOK 27/18 Q1015=
201908130800 METAR LRCL 130800Z 08005KT 010V160 CAVOK 28/18 Q1015=
201908130830 METAR LRCL 130830Z 12006KT 060V170 CAVOK 29/16 Q1014=
201908130900 METAR LRCL 130900Z 10006KT CAVOK 29/16 Q1014=
201908130930 METAR LRCL 130930Z 10006KT 070V140 CAVOK 30/16 Q1014=
201908131000 METAR LRCL 131000Z 14007KT 100V170 CAVOK 31/16 Q1014=
201908131030 METAR LRCL 131030Z 12007KT 070V160 CAVOK 31/15 Q1014=
201908131100 METAR LRCL 131100Z 11007KT 080V140 CAVOK 32/14 Q1014=
201908131130 METAR LRCL 131130Z 12007KT 090V170 CAVOK 32/16 Q1013=
201908131200 METAR LRCL 131200Z 14007KT 100V170 CAVOK 33/14 Q1013=
201908131230 METAR LRCL 131230Z VRB03KT CAVOK 33/15 Q1013=
201908131300 METAR LRCL 131300Z 12006KT 070V170 CAVOK 33/15 Q1013=
201908131330 METAR LRCL 131330Z 06005KT 030V100 9999 FEW040 33/15 Q1013=
201908131400 METAR LRCL 131400Z 06005KT 030V100 9999 FEW042 33/15 Q1012=
201908131430 METAR LRCL 131430Z 08004KT 360V130 9999 FEW043 33/14 Q1012=
201908131500 METAR LRCL 131500Z VRB02KT 9999 FEW045 33/13 Q1012=
201908131530 METAR LRCL 131530Z VRB02KT 9999 FEW046 33/14 Q1012=
201908131600 METAR LRCL 131600Z VRB02KT 9999 FEW046 32/15 Q1012=
201908131630 METAR LRCL 131630Z 36004KT 9999 FEW046 31/16 Q1012=
201908131700 METAR LRCL 131700Z 36004KT 9999 FEW046 30/17 Q1012=
201908131730 METAR LRCL 131730Z 02003KT 350V100 9999 FEW046 28/17 Q1012=
201908131800 METAR LRCL 131800Z VRB02KT 9999 FEW055 28/17 Q1012=
201908131830 METAR LRCL 131830Z 02003KT CAVOK 25/17 Q1012=
201908131900 METAR LRCL 131900Z 26004KT CAVOK 25/17 Q1012=
201908131930 METAR LRCL 131930Z 26004KT CAVOK 24/17 Q1012=
201908132000 METAR LRCL 132000Z 26002KT CAVOK 24/17 Q1012=
201908132030 METAR LRCL 132030Z 27003KT CAVOK 23/17 Q1012=
201908132100 METAR LRCL 132100Z VRB02KT CAVOK 23/17 Q1012=
201908132130 METAR LRCL 132130Z 24004KT CAVOK 22/17 Q1012=
201908132200 METAR LRCL 132200Z VRB02KT CAVOK 21/17 Q1012=
201908132230 METAR LRCL 132230Z VRB01KT CAVOK 21/17 Q1012=
201908132300 METAR LRCL 132300Z 00000KT CAVOK 20/17 Q1011=
201908132330 METAR LRCL 132330Z 08003KT CAVOK 20/17 Q1011=
201908140000 METAR COR LRCL 140000Z VRB02KT CAVOK 19/17 Q1011=
201908140030 METAR LRCL 140030Z 26002KT CAVOK 19/17 Q1011=
201908140100 METAR LRCL 140100Z VRB01KT CAVOK 19/17 Q1011=
201908140130 METAR LRCL 140130Z 08004KT CAVOK 18/17 Q1011=
201908140200 METAR LRCL 140200Z 00000KT CAVOK 18/17 Q1011=
201908140230 METAR LRCL 140230Z 00000KT CAVOK 18/17 Q1010=
201908140300 METAR LRCL 140300Z VRB01KT CAVOK 18/17 Q1010=
201908140330 METAR LRCL 140330Z VRB01KT 9999 MIFG NSC 17/16 Q1010=
201908140400 METAR LRCL 140400Z 09002KT CAVOK 18/17 Q1010=
201908140430 METAR LRCL 140430Z 12003KT CAVOK 19/17 Q1011=
201908140500 METAR LRCL 140500Z 08003KT CAVOK 20/17 Q1010=
201908140530 METAR LRCL 140530Z VRB01KT CAVOK 21/17 Q1010=
201908140600 METAR LRCL 140600Z 07003KT CAVOK 22/17 Q1010=
201908140630 METAR LRCL 140630Z 07003KT CAVOK 23/17 Q1010=
201908140700 METAR LRCL 140700Z VRB01KT CAVOK 26/18 Q1010=
201908140730 METAR LRCL 140730Z VRB02KT CAVOK 27/17 Q1010=
201908140800 METAR LRCL 140800Z VRB02KT CAVOK 27/17 Q1010=
201908140830 METAR LRCL 140830Z VRB01KT CAVOK 29/17 Q1010=
201908140900 METAR LRCL 140900Z 34003KT CAVOK 29/15 Q1010=
201908140930 METAR LRCL 140930Z VRB02KT CAVOK 30/15 Q1009=
201908141000 METAR LRCL 141000Z VRB02KT 9999 FEW030 31/16 Q1009=
201908141030 METAR COR LRCL 141030Z 35007KT 310V020 9999 FEW046 30/15
                        Q1009=
201908141100 METAR COR LRCL 141100Z 34009KT 300V010 9999 SCT046 30/15
                        Q1010=
201908141130 METAR LRCL 141130Z 34005KT 280V030 9999 SCT046 SCT055CB BKN067
                        29/15 Q1010=
201908141200 METAR LRCL 141200Z 31008KT 280V340 9999 SCT048 SCT055CB BKN067
                        27/16 Q1010=
201908141230 METAR LRCL 141230Z 32009KT 9999 FEW055 FEW060CB BKN067 29/16
                        Q1009=
201908141300 METAR LRCL 141300Z 33010KT 290V360 9999 -SHRA FEW055 SCT060CB
                        BKN067 27/17 Q1010 R07/19//95=
201908141330 METAR LRCL 141330Z 35011KT 9999 FEW055CB SCT067 27/17 Q1010
                        R07/19//95=
201908141400 METAR LRCL 141400Z 34010KT 9999 FEW055CB BKN067 27/17 Q1010
                        R07/CLRD//=
201908141430 METAR LRCL 141430Z 36009KT 9999 SCT067 26/17 Q1010=
201908141500 METAR LRCL 141500Z 33011KT 280V360 9999 FEW060CB SCT067 25/16
                        Q1011=
201908141530 METAR LRCL 141530Z 33012KT 270V350 9999 FEW048 24/17 Q1011=
201908141600 METAR LRCL 141600Z 30010KT 260V330 9999 FEW040 23/16 Q1011=
201908141630 METAR LRCL 141630Z 32008KT 290V350 9999 FEW043 22/16 Q1011=
201908141700 METAR LRCL 141700Z 30010KT 280V340 9999 FEW025 SCT038 21/16
                        Q1012=
201908141730 METAR LRCL 141730Z 32009KT 290V350 9999 -RA SCT012 BKN019
                        18/16 Q1013 R07/29//95=
201908141800 METAR LRCL 141800Z 30009KT 9999 BKN011 BKN027 17/14 Q1013
                        R07/CLRD//=
201908141830 METAR LRCL 141830Z 30007KT 270V340 9999 BKN013 17/14 Q1014=
201908141900 METAR LRCL 141900Z 29007KT 250V330 9999 BKN012 BKN055 17/14
                        Q1014=
201908141930 METAR LRCL 141930Z 29010KT 9999 BKN012 SCT058 17/14 Q1014=
201908142000 METAR LRCL 142000Z 30006KT 260V320 9999 BKN011 BKN061 17/14
                        Q1014=
201908142030 METAR LRCL 142030Z 29010KT 9999 SCT010 BKN060 16/14 Q1014=
201908142100 METAR LRCL 142100Z 28008KT 9999 SCT011 BKN061 16/13 Q1014=
201908142130 METAR LRCL 142130Z 28007KT 230V320 9999 SCT011 SCT066 16/13
                        Q1014=
201908142200 METAR LRCL 142200Z 26004KT 180V300 9999 SCT012 SCT066 16/13
                        Q1014=
201908142230 METAR LRCL 142230Z 28007KT 250V310 9999 SCT018 SCT066 16/13
                        Q1014=
201908142300 METAR LRCL 142300Z 28008KT 250V320 9999 BKN015 SCT067 16/13
                        Q1014=
201908142330 METAR LRCL 142330Z 26008KT 230V290 9999 SCT015 BKN060 16/13
                        Q1014=
201908150000 METAR LRCL 150000Z 26009KT 9999 -SHRA SCT015 FEW045CB BKN060
                        16/13 Q1014 R07/29//95=
201908150030 METAR LRCL 150030Z 28007KT 9999 -SHRA FEW023 FEW045CB BKN063
                        15/13 Q1014 R07/29//95=
201908150100 METAR LRCL 150100Z 31004KT 250V020 9999 -SHRA SCT017 FEW045CB
                        BKN068 15/13 Q1014 R07/29//95=
201908150130 METAR LRCL 150130Z 00000KT 9999 -SHRA BKN010 FEW047CB 15/13
                        Q1014 R07/29//95=
201908150200 METAR LRCL 150200Z 29008KT 9999 BKN011 14/13 Q1014 R07/29//95=
201908150230 METAR LRCL 150230Z 30007KT 9999 -RA BKN014 15/13 Q1014 R07/29//95=
201908150300 METAR LRCL 150300Z 29007KT 9999 SCT011 BKN031 15/13 Q1014
                        R07/29//95=
201908150330 METAR LRCL 150330Z 27006KT 9999 BKN012 BKN032 15/13 Q1014
                        R07/29//95=
201908150400 METAR LRCL 150400Z 27006KT 9999 BKN012 BKN033 15/13 Q1014
                        R07/CLRD//=
201908150430 METAR LRCL 150430Z 30006KT 9999 BKN014 BKN023 15/13 Q1014=
201908150500 METAR LRCL 150500Z 30007KT 9999 FEW006 SCT014 OVC022 15/13
                        Q1014=
201908150530 METAR LRCL 150530Z 27005KT 9999 FEW006 OVC022 15/13 Q1014=
201908150600 METAR LRCL 150600Z 26005KT 9999 FEW006 OVC023 15/13 Q1015=
201908150630 METAR LRCL 150630Z 28004KT 240V340 9999 FEW007 OVC022 16/13
                        Q1014=
201908150700 METAR LRCL 150700Z 31005KT 270V350 9999 SCT014 BKN023 17/13
                        Q1014=
201908150730 METAR LRCL 150730Z 36006KT 310V020 9999 FEW012 BKN016 17/13
                        Q1014=
201908150800 METAR LRCL 150800Z 01006KT 330V050 9999 OVC017 17/13 Q1014=
201908150830 METAR LRCL 150830Z 02004KT 350V050 9999 OVC018 17/12 Q1014=
201908150900 METAR LRCL 150900Z 35004KT 330V030 9999 OVC018 18/13 Q1014=
201908150930 METAR LRCL 150930Z VRB02KT 9999 OVC018 18/13 Q1014=
201908151000 METAR LRCL 151000Z 01005KT 330V040 9999 OVC018 18/13 Q1014=
201908151030 METAR LRCL 151030Z VRB02KT 9999 OVC019 18/13 Q1014=
201908151100 METAR LRCL 151100Z 36003KT 310V060 9999 OVC020 19/13 Q1014=
201908151130 METAR LRCL 151130Z 34003KT 280V060 9999 BKN022 OVC051 19/13
                        Q1014=
201908151200 METAR LRCL 151200Z VRB03KT 9999 BKN022 OVC051 20/13 Q1014=
201908151230 METAR LRCL 151230Z VRB03KT 9999 BKN023 OVC051 20/13 Q1014=
201908151300 METAR LRCL 151300Z 29003KT 230V330 9999 SCT025 BKN047 20/13
                        Q1014=
201908151330 METAR LRCL 151330Z 31004KT 270V330 9999 BKN030 BKN050 20/13
                        Q1014=
201908151400 METAR LRCL 151400Z 30008KT 9999 BKN024 OVC042 19/14 Q1014=
201908151430 METAR LRCL 151430Z 29008KT 250V310 9999 BKN024 OVC042 19/13
                        Q1014=
201908151500 METAR LRCL 151500Z 30008KT 9999 BKN026 BKN053 19/13 Q1014=
201908151530 METAR LRCL 151530Z 30006KT 270V330 9999 BKN026 18/13 Q1014=
201908151600 METAR LRCL 151600Z 28007KT 9999 BKN026 18/13 Q1014=
201908151630 METAR LRCL 151630Z 28007KT 9999 BKN027 18/13 Q1014=
201908151700 METAR LRCL 151700Z 29006KT 9999 BKN028 18/13 Q1014=
201908151730 METAR LRCL 151730Z 27004KT 9999 SCT029 BKN060 18/13 Q1015=
201908151800 METAR LRCL 151800Z 27008KT 9999 SCT031 BKN062 17/13 Q1015=
201908151830 METAR LRCL 151830Z 26003KT 9999 FEW032 BKN062 17/13 Q1015=
201908151900 METAR LRCL 151900Z 28005KT 9999 FEW033 SCT061 17/14 Q1015=
201908151930 METAR LRCL 151930Z 27005KT 250V310 9999 SCT062 16/14 Q1015=
201908152000 METAR LRCL 152000Z 28005KT 9999 FEW025 BKN065 17/14 Q1016=
201908152030 METAR LRCL 152030Z 28004KT 9999 SCT017 BKN063 17/13 Q1016=
201908152100 METAR LRCL 152100Z 27004KT 9999 SCT031 BKN064 16/13 Q1016=
201908152130 METAR LRCL 152130Z 30004KT 9999 SCT032 BKN065 16/13 Q1015=
201908152200 METAR LRCL 152200Z 30004KT 9999 FEW030 BKN064 16/13 Q1015=
201908152230 METAR LRCL 152230Z AUTO 30002KT 9999 OVC065/// 16/13 Q1015=
201908152300 METAR LRCL 152300Z 00000KT 9999 BKN065 16/13 Q1015=
201908152330 METAR LRCL 152330Z AUTO 00000KT 9999 OVC028/// 16/13 Q1015=
201908160000 METAR LRCL 160000Z AUTO 00000KT 9999 FEW015/// OVC029///
                        16/14 Q1015=
201908160030 METAR LRCL 160030Z 27003KT 9999 BKN030 BKN066 16/14 Q1015=
201908160100 METAR LRCL 160100Z 29004KT 9999 OVC016 16/13 Q1016=
201908160130 METAR LRCL 160130Z 29003KT 9999 FEW012 SCT020 OVC035 16/13
                        Q1015=
201908160200 METAR LRCL 160200Z 27004KT 9999 SCT021 BKN035 16/13 Q1015=
201908160230 METAR LRCL 160230Z 27005KT 9999 BKN023 OVC035 16/13 Q1015=
201908160300 METAR LRCL 160300Z AUTO 28005KT 9999 OVC025/// 16/13 Q1015=
201908160330 METAR LRCL 160330Z 28005KT 9999 FEW025 BKN035 16/13 Q1015=
201908160400 METAR LRCL 160400Z 29005KT 9999 FEW023 BKN036 16/12 Q1016=
201908160430 METAR LRCL 160430Z 27003KT 9999 SCT026 BKN036 16/12 Q1016=
201908160500 METAR LRCL 160500Z 25003KT 9999 FEW028 SCT040 17/12 Q1016=
201908160530 METAR LRCL 160530Z 26003KT 9999 FEW027 SCT046 17/12 Q1016=
201908160600 METAR LRCL 160600Z 28003KT 9999 SCT028 17/12 Q1016=
201908160630 METAR LRCL 160630Z 30005KT 9999 BKN028 18/11 Q1016=
201908160700 METAR LRCL 160700Z VRB02KT 9999 BKN028 19/11 Q1016=
201908160730 METAR LRCL 160730Z 33006KT 9999 SCT033 19/12 Q1016=
201908160800 METAR LRCL 160800Z 35005KT 9999 SCT033 20/12 Q1016=
201908160830 METAR LRCL 160830Z 27004KT 9999 BKN033 20/10 Q1016=
201908160900 METAR LRCL 160900Z 31005KT 9999 SCT033 21/10 Q1016=
201908160930 METAR LRCL 160930Z 30007KT 9999 SCT036 22/10 Q1016=
201908161000 METAR LRCL 161000Z 30005KT 9999 SCT040 22/10 Q1015=
201908161030 METAR LRCL 161030Z 30006KT 9999 BKN040 23/09 Q1015=
201908161100 METAR LRCL 161100Z 30007KT 9999 SCT044 22/10 Q1015=
201908161130 METAR LRCL 161130Z 31008KT 9999 SCT044 22/09 Q1015=
201908161200 METAR LRCL 161200Z 33010KT 9999 SCT044 23/10 Q1015=
201908161230 METAR LRCL 161230Z 31008KT 9999 SCT044 23/09 Q1015=
201908161300 METAR LRCL 161300Z 35009KT 9999 FEW050 24/09 Q1015=
201908161330 METAR LRCL 161330Z 31007KT 9999 FEW050 24/08 Q1015=
201908161400 METAR LRCL 161400Z 30007KT 9999 FEW050 24/08 Q1015=
201908161430 METAR LRCL 161430Z 32006KT 9999 FEW050 24/08 Q1015=
201908161500 METAR LRCL 161500Z 32007KT 9999 FEW055 23/07 Q1015=
201908161530 METAR LRCL 161530Z 34008KT 9999 FEW055 23/06 Q1015=
201908161600 METAR LRCL 161600Z 34006KT 9999 FEW067 23/06 Q1015=
201908161630 METAR LRCL 161630Z 33006KT CAVOK 22/07 Q1015=
201908161700 METAR LRCL 161700Z 33005KT CAVOK 21/07 Q1015=
201908161730 METAR LRCL 161730Z 31004KT CAVOK 19/08 Q1015=
201908161800 METAR LRCL 161800Z 31006KT CAVOK 18/08 Q1016=
201908161830 METAR LRCL 161830Z 30004KT CAVOK 18/08 Q1016=
201908161900 METAR LRCL 161900Z 24005KT CAVOK 17/08 Q1016=
201908161930 METAR LRCL 161930Z VRB01KT CAVOK 16/08 Q1016=
201908162000 METAR LRCL 162000Z VRB01KT CAVOK 15/09 Q1016=
201908162030 METAR LRCL 162030Z 28004KT CAVOK 15/09 Q1017=
201908162100 METAR LRCL 162100Z 28003KT CAVOK 15/09 Q1017=
201908162130 METAR LRCL 162130Z 27003KT CAVOK 15/09 Q1017=
201908162200 METAR LRCL 162200Z 28005KT 9999 FEW065 14/09 Q1017=
201908162230 METAR LRCL 162230Z 28004KT 240V310 9999 FEW066 14/09 Q1017=
201908162300 METAR LRCL 162300Z 28005KT CAVOK 14/09 Q1017=
201908162330 METAR LRCL 162330Z 28005KT CAVOK 14/09 Q1017=
201908170000 METAR LRCL 170000Z 31003KT 270V350 9999 FEW066 13/09 Q1017=
201908170030 METAR LRCL 170030Z 26005KT 9999 FEW067 13/09 Q1017=
201908170100 METAR LRCL 170100Z 28004KT CAVOK 13/09 Q1017=
201908170130 METAR LRCL 170130Z 00000KT CAVOK 11/09 Q1017=
201908170200 METAR LRCL 170200Z 00000KT CAVOK 12/08 Q1017=
201908170230 METAR LRCL 170230Z 00000KT CAVOK 11/08 Q1017=
201908170300 METAR LRCL 170300Z 00000KT CAVOK 11/08 Q1017=
201908170330 METAR LRCL 170330Z 10001KT CAVOK 10/08 Q1017=
201908170400 METAR LRCL 170400Z 00000KT CAVOK 10/09 Q1017=
201908170430 METAR LRCL 170430Z 00000KT CAVOK 11/09 Q1017=
201908170500 METAR LRCL 170500Z 00000KT CAVOK 12/10 Q1018=
201908170530 METAR LRCL 170530Z VRB01KT CAVOK 13/09 Q1018=
201908170600 METAR LRCL 170600Z VRB01KT CAVOK 15/09 Q1018=
201908170630 METAR LRCL 170630Z 00000KT CAVOK 16/10 Q1018=
201908170700 METAR LRCL 170700Z VRB02KT CAVOK 17/10 Q1018=
201908170730 METAR LRCL 170730Z 09003KT 050V130 CAVOK 18/10 Q1018=
201908170800 METAR LRCL 170800Z 07003KT 340V140 CAVOK 20/10 Q1018=
201908170830 METAR LRCL 170830Z VRB02KT CAVOK 21/10 Q1018=
201908170900 METAR LRCL 170900Z VRB02KT 9999 FEW036 22/10 Q1017=
201908170930 METAR LRCL 170930Z VRB02KT 9999 FEW043 23/09 Q1017=
201908171000 METAR LRCL 171000Z 10003KT 050V200 9999 FEW051 23/10 Q1017=
201908171030 METAR LRCL 171030Z 34003KT 9999 FEW050 24/08 Q1017=
201908171100 METAR LRCL 171100Z 32009KT 9999 SCT050 24/08 Q1017=
201908171130 METAR LRCL 171130Z 35008KT 300V020 9999 SCT050 24/08 Q1017=
201908171200 METAR LRCL 171200Z 34007KT 290V010 9999 SCT055 24/08 Q1016=
201908171230 METAR LRCL 171230Z 33005KT 290V050 9999 SCT055 24/08 Q1016=
201908171300 METAR LRCL 171300Z 34009KT 310V020 9999 SCT055 24/08 Q1016=
201908171330 METAR LRCL 171330Z 35007KT 310V030 9999 SCT055 25/08 Q1016=
201908171400 METAR LRCL 171400Z 33007KT 280V360 9999 SCT055 25/08 Q1016=
201908171430 METAR LRCL 171430Z 33008KT 9999 FEW055 25/07 Q1016=
201908171500 METAR LRCL 171500Z 31006KT 9999 FEW055 24/08 Q1016=
201908171530 METAR LRCL 171530Z 30007KT 9999 FEW055 25/09 Q1016=
201908171600 METAR LRCL 171600Z 31004KT 270V350 9999 FEW055 24/09 Q1016=
201908171630 METAR LRCL 171630Z 32004KT CAVOK 23/10 Q1016=
201908171700 METAR LRCL 171700Z 32004KT CAVOK 22/10 Q1016=
201908171730 METAR LRCL 171730Z 31004KT CAVOK 20/10 Q1016=
201908171800 METAR LRCL 171800Z VRB01KT CAVOK 19/10 Q1016=
201908171830 METAR LRCL 171830Z 33001KT CAVOK 18/11 Q1016=
201908171900 METAR LRCL 171900Z 00000KT CAVOK 17/11 Q1017=
201908171930 METAR LRCL 171930Z 00000KT CAVOK 17/11 Q1017=
201908172000 METAR LRCL 172000Z 00000KT CAVOK 18/11 Q1017=
201908172030 METAR LRCL 172030Z 00000KT CAVOK 17/12 Q1017=
201908172100 METAR LRCL 172100Z 24003KT CAVOK 16/11 Q1017=
201908172130 METAR LRCL 172130Z 26003KT CAVOK 16/12 Q1017=
201908172200 METAR LRCL 172200Z 27002KT CAVOK 15/12 Q1017=
201908172230 METAR LRCL 172230Z 26004KT CAVOK 15/12 Q1017=
201908172300 METAR LRCL 172300Z 25002KT CAVOK 15/11 Q1017=
201908172330 METAR LRCL 172330Z 30003KT CAVOK 14/11 Q1017=
201908180000 METAR COR LRCL 180000Z 23002KT CAVOK 15/11 Q1017=
201908180030 METAR LRCL 180030Z 00000KT CAVOK 14/11 Q1017=
201908180100 METAR LRCL 180100Z 00000KT CAVOK 14/11 Q1017=
201908180130 METAR LRCL 180130Z 00000KT CAVOK 12/11 Q1017=
201908180200 METAR LRCL 180200Z 09005KT CAVOK 11/10 Q1017=
201908180230 METAR LRCL 180230Z 10003KT 9999 FEW055 12/11 Q1017=
201908180300 METAR LRCL 180300Z 00000KT CAVOK 11/10 Q1017=
201908180330 METAR LRCL 180330Z 00000KT 9999 FEW052 11/10 Q1018=
201908180400 METAR LRCL 180400Z 00000KT CAVOK 12/11 Q1018=
201908180430 METAR LRCL 180430Z VRB01KT CAVOK 12/11 Q1018=
201908180500 METAR LRCL 180500Z 09001KT CAVOK 13/11 Q1018=
201908180530 METAR LRCL 180530Z 00000KT CAVOK 15/12 Q1018=
201908180600 METAR LRCL 180600Z 00000KT CAVOK 17/11 Q1018=
201908180630 METAR LRCL 180630Z 00000KT CAVOK 18/12 Q1018=
201908180700 METAR LRCL 180700Z 09003KT CAVOK 19/12 Q1018=
201908180730 METAR LRCL 180730Z 09003KT 9999 FEW028 21/11 Q1018=
201908180800 METAR LRCL 180800Z VRB01KT 9999 FEW030 22/12 Q1018=
201908180830 METAR LRCL 180830Z VRB02KT 9999 FEW026 23/12 Q1018=
201908180900 METAR LRCL 180900Z 10004KT 9999 FEW026 24/13 Q1018=
201908180930 METAR LRCL 180930Z VRB02KT 9999 FEW030 25/12 Q1018=
201908181000 METAR LRCL 181000Z 36006KT 9999 SCT046 25/11 Q1018=
201908181030 METAR LRCL 181030Z VRB02KT 9999 SCT053 26/10 Q1017=
201908181100 METAR LRCL 181100Z VRB02KT 9999 SCT055 26/11 Q1017=
201908181130 METAR LRCL 181130Z VRB02KT 9999 SCT055 25/11 Q1017=
201908181200 METAR LRCL 181200Z VRB03KT 9999 SCT058 27/10 Q1017=
201908181230 METAR LRCL 181230Z VRB01KT 9999 SCT060 27/09 Q1017=
201908181300 METAR LRCL 181300Z 09006KT 060V140 9999 SCT064 27/10 Q1017=
201908181330 METAR LRCL 181330Z VRB02KT 9999 SCT065 26/11 Q1017=
201908181400 METAR LRCL 181400Z VRB01KT 9999 SCT065 27/09 Q1017=
201908181430 METAR LRCL 181430Z 05003KT 9999 FEW067 26/10 Q1017=
201908181500 METAR LRCL 181500Z VRB01KT 9999 SCT067 27/11 Q1017=
201908181530 METAR LRCL 181530Z VRB01KT 9999 SCT065 26/11 Q1017=
201908181600 METAR LRCL 181600Z VRB01KT 9999 SCT065 25/12 Q1017=
201908181630 METAR LRCL 181630Z 00000KT 9999 SCT064 25/12 Q1017=
201908181700 METAR LRCL 181700Z 01001KT 9999 FEW064 24/13 Q1017=
201908181730 METAR LRCL 181730Z 04003KT CAVOK 24/13 Q1017=
201908181800 METAR LRCL 181800Z 00000KT CAVOK 23/12 Q1017=
201908181830 METAR LRCL 181830Z 00000KT CAVOK 23/13 Q1018=
201908181900 METAR LRCL 181900Z 00000KT CAVOK 21/14 Q1018=
201908181930 METAR LRCL 181930Z 00000KT CAVOK 20/14 Q1018=
201908182000 METAR LRCL 182000Z 00000KT CAVOK 19/14 Q1018=
201908182030 METAR LRCL 182030Z 00000KT CAVOK 18/14 Q1018=
201908182100 METAR LRCL 182100Z 26003KT CAVOK 18/13 Q1018=
201908182130 METAR LRCL 182130Z 26002KT CAVOK 18/13 Q1018=
201908182200 METAR LRCL 182200Z 26005KT CAVOK 17/13 Q1018=
201908182230 METAR LRCL 182230Z 25002KT CAVOK 17/12 Q1018=
201908182300 METAR LRCL 182300Z 25002KT CAVOK 17/12 Q1018=
201908182330 METAR LRCL 182330Z 30001KT CAVOK 16/12 Q1018=
201908190000 METAR LRCL 190000Z 28002KT CAVOK 15/12 Q1018=
201908190030 METAR LRCL 190030Z 25002KT CAVOK 16/12 Q1018=
201908190100 METAR LRCL 190100Z 00000KT CAVOK 15/12 Q1018=
201908190130 METAR LRCL 190130Z 00000KT CAVOK 14/12 Q1019=
201908190200 METAR LRCL 190200Z 00000KT CAVOK 13/12 Q1019=
201908190230 METAR LRCL 190230Z 00000KT CAVOK 13/12 Q1019=
201908190300 METAR LRCL 190300Z 00000KT CAVOK 13/12 Q1019=
201908190330 METAR LRCL 190330Z 00000KT CAVOK 13/12 Q1019=
201908190400 METAR LRCL 190400Z 00000KT CAVOK 14/12 Q1019=
201908190430 METAR LRCL 190430Z 00000KT CAVOK 14/12 Q1020=
201908190500 METAR LRCL 190500Z 00000KT CAVOK 15/12 Q1020=
201908190530 METAR LRCL 190530Z 00000KT CAVOK 17/12 Q1020=
201908190600 METAR LRCL 190600Z 00000KT CAVOK 18/12 Q1020=
201908190630 METAR LRCL 190630Z 00000KT CAVOK 20/13 Q1020=
201908190700 METAR LRCL 190700Z VRB02KT CAVOK 21/12 Q1020=
201908190730 METAR LRCL 190730Z VRB02KT CAVOK 22/13 Q1020=
201908190800 METAR LRCL 190800Z VRB02KT CAVOK 24/14 Q1020=
201908190830 METAR LRCL 190830Z VRB01KT CAVOK 25/15 Q1020=
201908190900 METAR LRCL 190900Z VRB02KT CAVOK 26/14 Q1020=
201908190930 METAR LRCL 190930Z VRB02KT CAVOK 27/13 Q1020=
201908191000 METAR LRCL 191000Z VRB02KT CAVOK 28/11 Q1019=
201908191030 METAR LRCL 191030Z 12004KT 040V160 CAVOK 28/10 Q1019=
201908191100 METAR LRCL 191100Z VRB02KT CAVOK 29/11 Q1019=
201908191130 METAR LRCL 191130Z 07003KT CAVOK 29/11 Q1019=
201908191200 METAR LRCL 191200Z VRB03KT CAVOK 29/11 Q1019=
201908191230 METAR LRCL 191230Z VRB03KT CAVOK 30/12 Q1019=
201908191300 METAR LRCL 191300Z VRB01KT CAVOK 30/12 Q1019=
201908191330 METAR LRCL 191330Z 08003KT 360V140 CAVOK 30/12 Q1019=
201908191400 METAR LRCL 191400Z VRB02KT CAVOK 30/12 Q1019=
201908191430 METAR LRCL 191430Z 06003KT 330V100 CAVOK 30/12 Q1019=
201908191500 METAR LRCL 191500Z VRB01KT CAVOK 31/12 Q1019=
201908191530 METAR LRCL 191530Z 00000KT CAVOK 30/13 Q1019=
201908191600 METAR LRCL 191600Z 07002KT CAVOK 29/13 Q1019=
201908191630 METAR LRCL 191630Z 07003KT CAVOK 28/13 Q1019=
201908191700 METAR LRCL 191700Z VRB01KT CAVOK 28/12 Q1019=
201908191730 METAR LRCL 191730Z 00000KT CAVOK 26/15 Q1019=
201908191800 METAR LRCL 191800Z 00000KT CAVOK 23/15 Q1019=
201908191830 METAR LRCL 191830Z 00000KT CAVOK 22/15 Q1019=
201908191900 METAR LRCL 191900Z VRB01KT CAVOK 22/15 Q1019=
201908191930 METAR LRCL 191930Z 00000KT CAVOK 21/15 Q1019=
201908192000 METAR LRCL 192000Z 00000KT CAVOK 20/15 Q1020=
201908192030 METAR LRCL 192030Z 27002KT CAVOK 20/15 Q1020=
201908192100 METAR LRCL 192100Z 25003KT CAVOK 20/14 Q1020=
201908192130 METAR LRCL 192130Z 25003KT CAVOK 19/14 Q1020=
201908192200 METAR LRCL 192200Z 27002KT CAVOK 18/14 Q1020=
201908192230 METAR LRCL 192230Z 00000KT CAVOK 18/14 Q1020=
201908192300 METAR LRCL 192300Z 00000KT CAVOK 18/14 Q1020=
201908192330 METAR LRCL 192330Z AUTO 00000KT 9999 NCD 17/14 Q1020=
201908200000 METAR COR LRCL 200000Z 09002KT CAVOK 16/14 Q1020=
201908200030 METAR COR LRCL 200030Z 00000KT CAVOK 16/15 Q1020=
201908200100 METAR LRCL 200100Z 10001KT CAVOK 16/15 Q1020=
201908200130 METAR LRCL 200130Z VRB01KT CAVOK 16/14 Q1020=
201908200200 METAR LRCL 200200Z 11001KT CAVOK 15/14 Q1020=
201908200230 METAR COR LRCL 200230Z 00000KT CAVOK 15/14 Q1020=
201908200300 METAR LRCL 200300Z 00000KT CAVOK 15/14 Q1020=
201908200330 METAR LRCL 200330Z 00000KT CAVOK 15/14 Q1021=
201908200400 METAR LRCL 200400Z 00000KT CAVOK 15/14 Q1021=
201908200430 METAR LRCL 200430Z 00000KT CAVOK 16/14 Q1021=
201908200500 METAR LRCL 200500Z 00000KT CAVOK 18/14 Q1021=
201908200530 METAR LRCL 200530Z 00000KT CAVOK 19/14 Q1022=
201908200600 METAR LRCL 200600Z 00000KT CAVOK 20/14 Q1022=
201908200630 METAR LRCL 200630Z 00000KT CAVOK 21/14 Q1022=
201908200700 METAR LRCL 200700Z 00000KT CAVOK 23/14 Q1022=
201908200730 METAR LRCL 200730Z VRB02KT CAVOK 24/15 Q1022=
201908200800 METAR LRCL 200800Z 09003KT CAVOK 26/16 Q1022=
201908200830 METAR LRCL 200830Z 08003KT CAVOK 27/16 Q1021=
201908200900 METAR LRCL 200900Z 06004KT CAVOK 28/16 Q1021=
201908200930 METAR LRCL 200930Z 11005KT CAVOK 29/14 Q1021=
201908201000 METAR LRCL 201000Z 10005KT CAVOK 30/14 Q1021=
201908201030 METAR LRCL 201030Z 14004KT CAVOK 30/14 Q1021=
201908201100 METAR LRCL 201100Z 11007KT CAVOK 30/14 Q1021=
201908201130 METAR LRCL 201130Z 18004KT 9999 FEW040 32/13 Q1021=
201908201200 METAR LRCL 201200Z VRB05KT 9999 FEW040 31/13 Q1020=
201908201230 METAR LRCL 201230Z VRB02KT 9999 FEW040 31/13 Q1020=
201908201300 METAR LRCL 201300Z 07004KT 9999 FEW040 31/14 Q1020=
201908201330 METAR LRCL 201330Z VRB02KT 9999 FEW040 32/12 Q1020=
201908201400 METAR LRCL 201400Z VRB02KT 9999 FEW040 32/12 Q1020=
201908201430 METAR LRCL 201430Z 12003KT 9999 FEW040 31/12 Q1020=
201908201500 METAR LRCL 201500Z VRB02KT 9999 FEW040 31/12 Q1020=
201908201530 METAR LRCL 201530Z 09003KT 9999 FEW040 31/13 Q1020=
201908201600 METAR LRCL 201600Z VRB02KT 9999 FEW040 31/13 Q1020=
201908201630 METAR LRCL 201630Z VRB02KT CAVOK 30/14 Q1020=
201908201700 METAR LRCL 201700Z 00000KT CAVOK 29/13 Q1020=
201908201730 METAR LRCL 201730Z VRB01KT CAVOK 27/14 Q1020=
201908201800 METAR LRCL 201800Z 00000KT CAVOK 25/15 Q1020=
201908201830 METAR LRCL 201830Z 00000KT CAVOK 23/16 Q1020=
201908201900 METAR LRCL 201900Z 24002KT CAVOK 23/15 Q1021=
201908201930 METAR LRCL 201930Z 29002KT CAVOK 21/16 Q1021=
201908202000 METAR LRCL 202000Z 26002KT CAVOK 21/16 Q1021=
201908202030 METAR LRCL 202030Z 00000KT CAVOK 21/16 Q1021=
201908202100 METAR LRCL 202100Z 00000KT CAVOK 20/16 Q1021=
201908202130 METAR LRCL 202130Z 00000KT CAVOK 20/16 Q1021=
201908202200 METAR LRCL 202200Z 00000KT CAVOK 19/16 Q1021=
201908202230 METAR LRCL 202230Z 00000KT CAVOK 19/15 Q1021=
201908202300 METAR LRCL 202300Z 00000KT CAVOK 19/15 Q1021=
201908202330 METAR LRCL 202330Z 08004KT CAVOK 18/15 Q1021=
201908210000 METAR COR LRCL 210000Z 00000KT CAVOK 18/15 Q1021=
201908210030 METAR LRCL 210030Z 06001KT CAVOK 17/15 Q1021=
201908210100 METAR LRCL 210100Z 00000KT CAVOK 17/15 Q1021=
201908210130 METAR LRCL 210130Z 00000KT CAVOK 17/16 Q1021=
201908210200 METAR LRCL 210200Z 07001KT CAVOK 16/15 Q1021=
201908210230 METAR LRCL 210230Z 00000KT CAVOK 16/15 Q1021=
201908210300 METAR LRCL 210300Z 00000KT CAVOK 16/15 Q1021=
201908210330 METAR LRCL 210330Z 00000KT CAVOK 16/15 Q1021=
201908210400 METAR LRCL 210400Z 00000KT CAVOK 16/15 Q1021=
201908210430 METAR LRCL 210430Z 00000KT CAVOK 18/15 Q1021=
201908210500 METAR LRCL 210500Z 00000KT CAVOK 19/15 Q1022=
201908210530 METAR LRCL 210530Z 00000KT CAVOK 20/15 Q1022=
201908210600 METAR LRCL 210600Z VRB02KT CAVOK 21/16 Q1022=
201908210630 METAR LRCL 210630Z 00000KT CAVOK 23/16 Q1022=
201908210700 METAR LRCL 210700Z 00000KT CAVOK 24/16 Q1022=
201908210730 METAR LRCL 210730Z VRB01KT CAVOK 25/16 Q1022=
201908210800 METAR LRCL 210800Z 08005KT 040V110 CAVOK 27/15 Q1022=
201908210830 METAR LRCL 210830Z VRB02KT CAVOK 28/15 Q1022=
201908210900 METAR LRCL 210900Z VRB01KT CAVOK 29/15 Q1022=
201908210930 METAR LRCL 210930Z 00000KT CAVOK 29/15 Q1022=
201908211000 METAR LRCL 211000Z VRB02KT 9999 FEW045 30/15 Q1021=
201908211030 METAR LRCL 211030Z VRB01KT 9999 FEW045 31/15 Q1021=
201908211100 METAR LRCL 211100Z 02006KT 350V050 9999 FEW045 31/15 Q1021=
201908211130 METAR LRCL 211130Z VRB03KT 9999 FEW045 31/14 Q1021=
201908211200 METAR LRCL 211200Z VRB03KT 9999 FEW045 31/14 Q1021=
201908211230 METAR LRCL 211230Z 02004KT 320V080 9999 FEW045 31/14 Q1020=
201908211300 METAR LRCL 211300Z VRB04KT 9999 FEW045 31/14 Q1020=
201908211330 METAR LRCL 211330Z VRB02KT 9999 FEW045 33/14 Q1020=
201908211400 METAR LRCL 211400Z 31004KT 240V360 9999 FEW045 33/14 Q1020=
201908211430 METAR LRCL 211430Z 32005KT 300V360 9999 FEW045 31/14 Q1020=
201908211500 METAR LRCL 211500Z 32003KT 290V010 9999 FEW045 32/14 Q1020=
201908211530 METAR LRCL 211530Z 30004KT 270V360 9999 FEW045 32/14 Q1020=
201908211600 METAR LRCL 211600Z 35003KT 320V030 9999 FEW045 32/15 Q1020=
201908211630 METAR LRCL 211630Z 32003KT 9999 FEW045 31/15 Q1020=
201908211700 METAR LRCL 211700Z 35004KT 9999 FEW045 29/14 Q1020=
201908211730 METAR LRCL 211730Z 36004KT 9999 FEW045 27/14 Q1020=
201908211800 METAR LRCL 211800Z VRB01KT 9999 FEW050 25/15 Q1020=
201908211830 METAR LRCL 211830Z VRB01KT CAVOK 25/15 Q1020=
201908211900 METAR LRCL 211900Z 00000KT CAVOK 25/15 Q1021=
201908211930 METAR LRCL 211930Z 29003KT CAVOK 23/16 Q1021=
201908212000 METAR COR LRCL 212000Z 29003KT CAVOK 23/16 Q1021=
201908212030 METAR LRCL 212030Z VRB01KT CAVOK 22/16 Q1021=
201908212100 METAR LRCL 212100Z VRB01KT CAVOK 22/15 Q1021=
201908212130 METAR LRCL 212130Z 28004KT CAVOK 22/16 Q1021=
201908212200 METAR LRCL 212200Z 00000KT CAVOK 22/15 Q1022=
201908212230 METAR LRCL 212230Z 28004KT CAVOK 21/16 Q1022=
201908212300 METAR LRCL 212300Z VRB02KT CAVOK 20/15 Q1022=
201908212330 METAR LRCL 212330Z 27003KT CAVOK 20/15 Q1022=
201908220000 METAR LRCL 220000Z 26003KT CAVOK 20/15 Q1022=
201908220030 METAR LRCL 220030Z VRB01KT CAVOK 19/15 Q1022=
201908220100 METAR LRCL 220100Z 00000KT CAVOK 19/15 Q1022=
201908220130 METAR LRCL 220130Z 00000KT 9999 FEW060 19/16 Q1022=
201908220200 METAR LRCL 220200Z 25001KT 9999 FEW060 18/15 Q1022=
201908220230 METAR LRCL 220230Z 26003KT 9999 FEW060 18/15 Q1022=
201908220300 METAR LRCL 220300Z 00000KT CAVOK 18/15 Q1023=
201908220330 METAR LRCL 220330Z 00000KT CAVOK 18/15 Q1023=
201908220400 METAR LRCL 220400Z 00000KT CAVOK 18/15 Q1023=
201908220430 METAR LRCL 220430Z 00000KT CAVOK 19/16 Q1023=
201908220500 METAR LRCL 220500Z 00000KT CAVOK 20/16 Q1023=
201908220530 METAR LRCL 220530Z 27003KT CAVOK 21/16 Q1023=
201908220600 METAR LRCL 220600Z VRB02KT CAVOK 22/16 Q1023=
201908220630 METAR LRCL 220630Z 00000KT CAVOK 25/16 Q1023=
201908220700 METAR LRCL 220700Z VRB01KT CAVOK 25/15 Q1023=
201908220730 METAR LRCL 220730Z 12003KT 040V170 CAVOK 26/15 Q1023=
201908220800 METAR LRCL 220800Z 11005KT 040V140 CAVOK 27/15 Q1023=
201908220830 METAR LRCL 220830Z 12006KT 060V160 CAVOK 27/14 Q1023=
201908220900 METAR LRCL 220900Z AUTO 10004KT 020V160 9999 NCD 28/13 Q1023=
201908220930 METAR LRCL 220930Z 11007KT 9999 FEW030 29/14 Q1023=
201908221000 METAR LRCL 221000Z 10004KT 9999 FEW030 29/13 Q1023=
201908221030 METAR LRCL 221030Z 13006KT 080V170 9999 FEW033TCU 30/11 Q1023=
201908221100 METAR LRCL 221100Z VRB05KT 9999 FEW033 31/10 Q1022=
201908221130 METAR COR LRCL 221130Z 13005KT 080V210 9999 FEW033TCU 30/12
                        Q1022=
201908221200 METAR LRCL 221200Z VRB02KT 9999 FEW033TCU 31/10 Q1022=
201908221230 METAR COR LRCL 221230Z VRB03KT 9999 FEW040TCU 32/11 Q1022=
201908221300 METAR LRCL 221300Z 05004KT 9999 FEW050 31/11 Q1022=
201908221330 METAR COR LRCL 221330Z VRB02KT 9999 FEW055CB 32/10 Q1022=
201908221400 METAR LRCL 221400Z 22006KT 190V250 9999 FEW060 30/11 Q1022=
201908221430 METAR LRCL 221430Z 20006KT 9999 FEW060TCU 30/10 Q1022=
201908221500 METAR LRCL 221500Z 23005KT 200V260 9999 FEW060TCU 30/11 Q1022=
201908221530 METAR LRCL 221530Z 19003KT 9999 FEW060TCU 31/11 Q1022=
201908221600 METAR LRCL 221600Z 00000KT 9999 FEW060 31/12 Q1022=
201908221630 METAR LRCL 221630Z 00000KT 9999 FEW060 30/11 Q1022=
201908221700 METAR LRCL 221700Z 27004KT 9999 FEW060 27/13 Q1022=
201908221730 METAR LRCL 221730Z 25003KT 9999 FEW060 26/13 Q1022=
201908221800 METAR LRCL 221800Z 00000KT CAVOK 24/13 Q1022=
201908221830 METAR LRCL 221830Z 00000KT CAVOK 23/14 Q1023=
201908221900 METAR LRCL 221900Z 25004KT CAVOK 22/14 Q1023=
201908221930 METAR LRCL 221930Z 25003KT CAVOK 21/14 Q1023=
201908222000 METAR LRCL 222000Z 25003KT CAVOK 21/14 Q1023=
201908222030 METAR LRCL 222030Z 26002KT CAVOK 21/14 Q1023=
201908222100 METAR LRCL 222100Z VRB02KT CAVOK 20/14 Q1024=
201908222130 METAR LRCL 222130Z 25005KT CAVOK 20/14 Q1024=
201908222200 METAR LRCL 222200Z 27005KT CAVOK 21/14 Q1024=
201908222230 METAR LRCL 222230Z 31003KT CAVOK 20/13 Q1024=
201908222300 METAR LRCL 222300Z VRB02KT CAVOK 20/13 Q1024=
201908222330 METAR LRCL 222330Z VRB01KT CAVOK 19/14 Q1024=
201908230000 METAR LRCL 230000Z 00000KT CAVOK 18/14 Q1024=
201908230030 METAR LRCL 230030Z 00000KT CAVOK 16/14 Q1024=
201908230100 METAR LRCL 230100Z 00000KT CAVOK 17/14 Q1024=
201908230130 METAR LRCL 230130Z VRB01KT CAVOK 16/14 Q1024=
201908230200 METAR LRCL 230200Z 00000KT CAVOK 16/14 Q1024=
201908230230 METAR LRCL 230230Z 00000KT CAVOK 16/14 Q1024=
201908230300 METAR LRCL 230300Z 00000KT CAVOK 16/14 Q1024=
201908230330 METAR LRCL 230330Z 00000KT CAVOK 16/14 Q1024=
201908230400 METAR LRCL 230400Z 00000KT CAVOK 16/14 Q1024=
201908230430 METAR LRCL 230430Z 00000KT CAVOK 17/14 Q1025=
201908230500 METAR LRCL 230500Z 00000KT CAVOK 17/14 Q1025=
201908230530 METAR LRCL 230530Z 00000KT CAVOK 20/14 Q1025=
201908230600 METAR LRCL 230600Z VRB02KT CAVOK 20/15 Q1025=
201908230630 METAR LRCL 230630Z 07005KT CAVOK 22/15 Q1025=
201908230700 METAR LRCL 230700Z 09005KT 060V130 CAVOK 24/16 Q1025=
201908230730 METAR LRCL 230730Z 11008KT CAVOK 25/15 Q1025=
201908230800 METAR LRCL 230800Z 12007KT 090V150 CAVOK 26/15 Q1025=
201908230830 METAR LRCL 230830Z 11006KT 070V140 CAVOK 26/14 Q1025=
201908230900 METAR LRCL 230900Z 11007KT CAVOK 27/14 Q1025=
201908230930 METAR LRCL 230930Z 10007KT 070V130 CAVOK 28/13 Q1024=
201908231000 METAR LRCL 231000Z 10005KT 040V150 CAVOK 29/13 Q1024=
201908231030 METAR LRCL 231030Z 10003KT 020V170 CAVOK 29/13 Q1024=
201908231100 METAR LRCL 231100Z 11003KT 020V190 CAVOK 30/13 Q1024=
201908231130 METAR LRCL 231130Z 09006KT 040V130 CAVOK 30/13 Q1024=
201908231200 METAR LRCL 231200Z 10005KT 050V160 CAVOK 31/12 Q1023=
201908231230 METAR LRCL 231230Z 11004KT 050V180 CAVOK 31/13 Q1023=
201908231300 METAR LRCL 231300Z 13006KT CAVOK 31/12 Q1023=
201908231330 METAR LRCL 231330Z 14005KT 110V220 9999 FEW050 31/13 Q1022=
201908231400 METAR LRCL 231400Z 10004KT 050V160 9999 FEW050 31/13 Q1022=
201908231430 METAR LRCL 231430Z 13004KT 090V200 9999 FEW050 31/13 Q1023=
201908231500 METAR LRCL 231500Z VRB01KT 9999 FEW050 31/13 Q1022=
201908231530 METAR LRCL 231530Z VRB01KT 9999 FEW050 31/13 Q1022=
201908231600 METAR LRCL 231600Z 07004KT 9999 FEW055TCU 29/14 Q1022=
201908231630 METAR LRCL 231630Z VRB01KT 9999 FEW060 28/14 Q1022=
201908231700 METAR LRCL 231700Z 08003KT 9999 FEW065 27/13 Q1022=
201908231730 METAR LRCL 231730Z VRB01KT 9999 FEW067 26/15 Q1023=
201908231800 METAR COR LRCL 231800Z VRB01KT CAVOK 25/15 Q1023=
201908231830 METAR LRCL 231830Z 09002KT CAVOK 24/15 Q1023=
201908231900 METAR LRCL 231900Z 00000KT CAVOK 24/15 Q1023=
201908231930 METAR LRCL 231930Z 00000KT CAVOK 22/16 Q1023=
201908232000 METAR LRCL 232000Z 00000KT CAVOK 22/15 Q1023=
201908232030 METAR LRCL 232030Z VRB01KT CAVOK 21/16 Q1023=
201908232100 METAR LRCL 232100Z 00000KT CAVOK 20/15 Q1023=
201908232130 METAR LRCL 232130Z 00000KT CAVOK 20/16 Q1024=
201908232200 METAR LRCL 232200Z 00000KT CAVOK 20/16 Q1024=
201908232230 METAR LRCL 232230Z AUTO 00000KT 9999 NCD 19/15 Q1024=
201908232300 METAR COR LRCL 232300Z 00000KT CAVOK 18/15 Q1024=
201908232330 METAR LRCL 232330Z 00000KT CAVOK 18/16 Q1024=
201908240000 METAR COR LRCL 240000Z 00000KT CAVOK 18/16 Q1024=
201908240030 METAR LRCL 240030Z AUTO 00000KT 9999 NCD 17/15 Q1024=
201908240100 METAR COR LRCL 240100Z 00000KT CAVOK 17/15 Q1024=
201908240130 METAR LRCL 240130Z 00000KT CAVOK 17/15 Q1024=
201908240200 METAR COR LRCL 240200Z VRB01KT CAVOK 16/15 Q1024=
201908240230 METAR LRCL 240230Z 10001KT CAVOK 17/15 Q1024=
201908240300 METAR LRCL 240300Z 04002KT CAVOK 17/15 Q1024=
201908240330 METAR LRCL 240330Z 00000KT CAVOK 17/15 Q1024=
201908240400 METAR LRCL 240400Z 00000KT CAVOK 17/15 Q1024=
201908240430 METAR LRCL 240430Z 07004KT CAVOK 17/15 Q1024=
201908240500 METAR LRCL 240500Z 08004KT CAVOK 18/15 Q1024=
201908240530 METAR LRCL 240530Z 07004KT CAVOK 20/16 Q1024=
201908240600 METAR LRCL 240600Z 07005KT CAVOK 21/15 Q1024=
201908240630 METAR LRCL 240630Z 08005KT CAVOK 23/15 Q1024=
201908240700 METAR LRCL 240700Z 11007KT CAVOK 24/14 Q1024=
201908240730 METAR LRCL 240730Z 13009KT CAVOK 25/13 Q1024=
201908240800 METAR LRCL 240800Z 12009KT CAVOK 25/12 Q1024=
201908240830 METAR LRCL 240830Z 14009KT 9999 FEW025 27/13 Q1024=
201908240900 METAR LRCL 240900Z 14008KT 9999 FEW030 27/13 Q1024=
201908240930 METAR LRCL 240930Z 14008KT 9999 FEW030 28/13 Q1023=
201908241000 METAR LRCL 241000Z 10008KT 9999 FEW030 28/13 Q1023=
201908241030 METAR LRCL 241030Z 10008KT 9999 FEW030 29/13 Q1023=
201908241100 METAR LRCL 241100Z 10007KT 9999 FEW035 30/14 Q1023=
201908241130 METAR LRCL 241130Z 12006KT 9999 FEW035 30/13 Q1022=
201908241200 METAR LRCL 241200Z 10008KT 9999 FEW035 30/13 Q1022=
201908241230 METAR LRCL 241230Z 15007KT 9999 FEW035 31/13 Q1022=
201908241300 METAR LRCL 241300Z VRB02KT 9999 FEW035 31/12 Q1022=
201908241330 METAR LRCL 241330Z 13005KT 9999 FEW035 32/11 Q1022=
201908241400 METAR LRCL 241400Z 13007KT 9999 FEW035 32/11 Q1021=
201908241430 METAR LRCL 241430Z 13005KT 9999 FEW035 31/11 Q1021=
201908241500 METAR LRCL 241500Z 11006KT 9999 FEW035 31/10 Q1021=
201908241530 METAR LRCL 241530Z 14005KT 050V160 9999 FEW035 31/11 Q1021=
201908241600 METAR LRCL 241600Z 12003KT 090V160 CAVOK 30/12 Q1021=
201908241630 METAR LRCL 241630Z 12003KT 100V200 CAVOK 29/12 Q1021=
201908241700 METAR LRCL 241700Z 12003KT 100V200 CAVOK 29/12 Q1021=
201908241730 METAR LRCL 241730Z 00000KT CAVOK 26/14 Q1021=
201908241800 METAR LRCL 241800Z 00000KT CAVOK 24/14 Q1021=
201908241830 METAR LRCL 241830Z 00000KT CAVOK 23/14 Q1021=
201908241900 METAR LRCL 241900Z 00000KT CAVOK 21/15 Q1022=
201908241930 METAR LRCL 241930Z 00000KT CAVOK 20/15 Q1022=
201908242000 METAR LRCL 242000Z 00000KT CAVOK 20/15 Q1022=
201908242030 METAR LRCL 242030Z 00000KT CAVOK 19/15 Q1022=
201908242100 METAR LRCL 242100Z 00000KT CAVOK 19/14 Q1022=
201908242130 METAR LRCL 242130Z 00000KT CAVOK 18/14 Q1022=
201908242200 METAR LRCL 242200Z 00000KT CAVOK 18/14 Q1022=
201908242230 METAR COR LRCL 242230Z 00000KT CAVOK 18/14 Q1022=
201908242300 METAR LRCL 242300Z 07002KT CAVOK 18/14 Q1022=
201908242330 METAR LRCL 242330Z 00000KT CAVOK 17/14 Q1022=
201908250000 METAR LRCL 250000Z 00000KT CAVOK 17/14 Q1022=
201908250030 METAR LRCL 250030Z 00000KT CAVOK 16/14 Q1022=
201908250100 METAR LRCL 250100Z 00000KT CAVOK 16/14 Q1022=
201908250130 METAR COR LRCL 250130Z 00000KT CAVOK 16/14 Q1022=
201908250200 METAR LRCL 250200Z 00000KT CAVOK 16/14 Q1022=
201908250230 METAR LRCL 250230Z 00000KT CAVOK 15/14 Q1022=
201908250300 METAR LRCL 250300Z 00000KT CAVOK 15/14 Q1022=
201908250330 METAR LRCL 250330Z 00000KT CAVOK 15/14 Q1022=
201908250400 METAR LRCL 250400Z 00000KT CAVOK 15/13 Q1023=
201908250430 METAR LRCL 250430Z 00000KT CAVOK 16/14 Q1023=
201908250500 METAR LRCL 250500Z 00000KT CAVOK 18/14 Q1023=
201908250530 METAR LRCL 250530Z 00000KT CAVOK 19/14 Q1023=
201908250600 METAR LRCL 250600Z 00000KT CAVOK 20/15 Q1023=
201908250630 METAR LRCL 250630Z 05004KT 020V080 CAVOK 22/14 Q1023=
201908250700 METAR LRCL 250700Z 08006KT 040V110 CAVOK 24/14 Q1023=
201908250730 METAR LRCL 250730Z 12006KT 090V160 CAVOK 26/13 Q1023=
201908250800 METAR LRCL 250800Z 13006KT 110V170 CAVOK 26/13 Q1023=
201908250830 METAR LRCL 250830Z 11007KT CAVOK 27/13 Q1023=
201908250900 METAR LRCL 250900Z 12007KT 080V150 CAVOK 28/14 Q1023=
201908250930 METAR LRCL 250930Z 13008KT 9999 FEW045 29/13 Q1022=
201908251000 METAR LRCL 251000Z 13007KT 090V160 9999 FEW045 30/13 Q1022=
201908251030 METAR LRCL 251030Z 13007KT 100V190 9999 FEW045 30/13 Q1022=
201908251100 METAR LRCL 251100Z 13006KT 080V220 9999 FEW045 31/13 Q1022=
201908251130 METAR LRCL 251130Z 12009KT 9999 FEW045TCU FEW048 31/12 Q1022=
201908251200 METAR LRCL 251200Z 15007KT 120V180 9999 FEW045CB FEW048 32/12
                        Q1021=
201908251230 METAR LRCL 251230Z 16009KT 130V190 9999 FEW045CB FEW048 32/12
                        Q1021=
201908251300 METAR LRCL 251300Z 16008KT 9999 FEW045CB FEW048 32/10 Q1021=
201908251330 METAR LRCL 251330Z 12006KT 090V180 9999 FEW045CB FEW048 32/12
                        Q1021=
201908251400 METAR LRCL 251400Z 12006KT 080V160 9999 FEW045CB FEW048 32/12
                        Q1020=
201908251430 METAR LRCL 251430Z 14006KT 100V170 9999 FEW045CB FEW048 32/11
                        Q1020=
201908251500 METAR LRCL 251500Z 11006KT 090V150 9999 FEW045CB FEW048 32/12
                        Q1020=
201908251530 METAR LRCL 251530Z 12004KT 090V150 9999 FEW045CB FEW048 31/12
                        Q1020=
201908251600 METAR LRCL 251600Z 10008KT 9999 FEW050 30/13 Q1020=
201908251630 METAR LRCL 251630Z 10006KT 9999 FEW050 29/13 Q1020=
201908251700 METAR LRCL 251700Z 11007KT 9999 FEW050 28/13 Q1021=
201908251730 METAR LRCL 251730Z 12006KT CAVOK 27/14 Q1021=
201908251800 METAR LRCL 251800Z 13004KT CAVOK 25/14 Q1021=
201908251830 METAR LRCL 251830Z 07004KT CAVOK 24/14 Q1022=
201908251900 METAR LRCL 251900Z 06002KT CAVOK 23/14 Q1022=
201908251930 METAR LRCL 251930Z 09004KT CAVOK 22/15 Q1022=
201908252000 METAR LRCL 252000Z 00000KT CAVOK 23/15 Q1022=
201908252030 METAR LRCL 252030Z 03004KT CAVOK 21/15 Q1022=
201908252100 METAR LRCL 252100Z VRB01KT CAVOK 21/15 Q1022=
201908252130 METAR LRCL 252130Z 00000KT CAVOK 20/15 Q1022=
201908252200 METAR LRCL 252200Z 09001KT CAVOK 20/15 Q1022=
201908252230 METAR LRCL 252230Z 09003KT CAVOK 19/15 Q1022=
201908252300 METAR LRCL 252300Z 00000KT CAVOK 19/15 Q1022=
201908252330 METAR LRCL 252330Z VRB01KT CAVOK 19/15 Q1022=
201908260000 METAR LRCL 260000Z 00000KT CAVOK 18/15 Q1022=
201908260030 METAR LRCL 260030Z 00000KT CAVOK 18/15 Q1022=
201908260100 METAR LRCL 260100Z 10002KT CAVOK 18/15 Q1022=
201908260130 METAR LRCL 260130Z VRB01KT CAVOK 17/15 Q1022=
201908260200 METAR LRCL 260200Z 00000KT CAVOK 17/15 Q1022=
201908260230 METAR LRCL 260230Z 00000KT CAVOK 17/15 Q1022=
201908260300 METAR LRCL 260300Z 00000KT CAVOK 17/15 Q1022=
201908260330 METAR LRCL 260330Z 00000KT CAVOK 17/15 Q1023=
201908260400 METAR LRCL 260400Z 07001KT CAVOK 17/15 Q1023=
201908260430 METAR LRCL 260430Z 00000KT CAVOK 17/15 Q1023=
201908260500 METAR LRCL 260500Z VRB01KT CAVOK 18/15 Q1023=
201908260530 METAR LRCL 260530Z 00000KT CAVOK 20/15 Q1023=
201908260600 METAR LRCL 260600Z 07003KT CAVOK 21/15 Q1023=
201908260630 METAR LRCL 260630Z 07003KT CAVOK 23/15 Q1023=
201908260700 METAR LRCL 260700Z 07006KT 040V100 CAVOK 25/15 Q1023=
201908260730 METAR COR LRCL 260730Z 08005KT 030V130 CAVOK 26/14 Q1023=
201908260800 METAR LRCL 260800Z 10005KT 070V150 CAVOK 26/14 Q1023=
201908260830 METAR LRCL 260830Z 15007KT 120V180 CAVOK 27/13 Q1023=
201908260900 METAR LRCL 260900Z 11007KT 9999 FEW028 28/14 Q1023=
201908260930 METAR LRCL 260930Z 13007KT 090V180 9999 FEW030 29/13 Q1023=
201908261000 METAR LRCL 261000Z 13007KT 090V200 9999 FEW030 30/14 Q1023=
201908261030 METAR LRCL 261030Z 14008KT 080V170 9999 FEW033TCU 30/14 Q1022=
201908261100 METAR LRCL 261100Z 13007KT 9999 FEW040TCU 31/13 Q1022=
201908261130 METAR LRCL 261130Z 14007KT 110V170 9999 FEW030 FEW046TCU
                        31/12 Q1022=
201908261200 METAR LRCL 261200Z 12007KT 090V160 9999 FEW033 FEW048TCU
                        31/12 Q1022=
201908261230 METAR COR LRCL 261230Z 12008KT 9999 FEW040 FEW050TCU 32/12
                        Q1021=
201908261300 METAR LRCL 261300Z 15006KT 100V200 9999 FEW040 FEW050CB 32/12
                        Q1021=
201908261330 METAR LRCL 261330Z 13007KT 9999 FEW046 FEW050CB 32/12 Q1021=
201908261400 METAR LRCL 261400Z 17005KT 110V230 9999 FEW046 FEW050CB 33/12
                        Q1021=
201908261430 METAR COR LRCL 261430Z 12011KT 9999 FEW046 FEW052CB 31/14
                        Q1021=
201908261500 METAR LRCL 261500Z 11011KT 9999 VCTS FEW052 SCT055CB 30/14
                        Q1021=
201908261530 METAR LRCL 261530Z 11008KT 9999 TS FEW050 SCT055CB 29/13
                        Q1021=
201908261600 METAR LRCL 261600Z 27007KT 220V320 9999 TS SCT050CB FEW053TCU
                        27/14 Q1022=
201908261630 METAR LRCL 261630Z 18009KT 150V220 9999 TS SCT050CB SCT053TCU
                        24/15 Q1022=
201908261700 METAR LRCL 261700Z VRB02KT 9999 TS SCT050CB SCT068 24/15
                        Q1022=
201908261730 METAR LRCL 261730Z VRB04KT 9999 FEW050CB SCT068 24/15 Q1023
                        RETS=
201908261800 METAR LRCL 261800Z 07004KT 040V100 9999 FEW050CB SCT068 22/15
                        Q1023=
201908261830 METAR LRCL 261830Z 22003KT 160V270 9999 FEW050CB SCT068 23/14
                        Q1023=
201908261900 METAR LRCL 261900Z 13005KT 9999 FEW050CB 22/14 Q1023=
201908261930 METAR LRCL 261930Z 15006KT 9999 FEW050CB 22/14 Q1023=
201908262000 METAR LRCL 262000Z 15005KT 030V180 CAVOK 22/15 Q1022=
201908262030 METAR LRCL 262030Z 08005KT CAVOK 20/15 Q1022=
201908262100 METAR LRCL 262100Z 08006KT CAVOK 20/15 Q1022=
201908262130 METAR LRCL 262130Z 10005KT CAVOK 19/15 Q1022=
201908262200 METAR LRCL 262200Z 07006KT CAVOK 19/15 Q1022=
201908262230 METAR LRCL 262230Z 04005KT CAVOK 19/15 Q1022=
201908262300 METAR LRCL 262300Z VRB01KT CAVOK 19/15 Q1022=
201908262330 METAR LRCL 262330Z 04004KT CAVOK 18/15 Q1022=
201908270000 METAR LRCL 270000Z VRB02KT CAVOK 18/15 Q1022=
201908270030 METAR LRCL 270030Z 08006KT CAVOK 18/15 Q1022=
201908270100 METAR LRCL 270100Z 06004KT CAVOK 18/15 Q1022=
201908270130 METAR LRCL 270130Z 07005KT CAVOK 18/15 Q1022=
201908270200 METAR LRCL 270200Z 08006KT CAVOK 17/15 Q1022=
201908270230 METAR LRCL 270230Z 07003KT CAVOK 17/15 Q1022=
201908270300 METAR LRCL 270300Z 07003KT CAVOK 17/15 Q1022=
201908270330 METAR LRCL 270330Z 05004KT CAVOK 17/14 Q1022=
201908270400 METAR LRCL 270400Z 08004KT 050V110 CAVOK 17/15 Q1022=
201908270430 METAR LRCL 270430Z 06004KT CAVOK 17/15 Q1022=
201908270500 METAR LRCL 270500Z 05005KT 030V090 CAVOK 18/15 Q1023=
201908270530 METAR LRCL 270530Z VRB02KT CAVOK 20/15 Q1023=
201908270600 METAR LRCL 270600Z 00000KT CAVOK 21/15 Q1023=
201908270630 METAR LRCL 270630Z VRB02KT CAVOK 22/15 Q1023=
201908270700 METAR LRCL 270700Z VRB02KT CAVOK 23/15 Q1023=
201908270730 METAR LRCL 270730Z 09005KT 040V110 CAVOK 24/16 Q1023=
201908270800 METAR LRCL 270800Z 09005KT 050V130 CAVOK 25/15 Q1023=
201908270830 METAR LRCL 270830Z 10004KT 060V180 CAVOK 26/14 Q1023=
201908270900 METAR LRCL 270900Z 10004KT 020V160 CAVOK 27/14 Q1023=
201908270930 METAR LRCL 270930Z 10004KT 020V190 CAVOK 28/14 Q1023=
201908271000 METAR LRCL 271000Z 11005KT 060V220 9999 FEW050 29/14 Q1023=
201908271030 METAR LRCL 271030Z VRB04KT 9999 FEW050 30/13 Q1023=
201908271100 METAR LRCL 271100Z 12004KT 040V190 9999 FEW050 29/13 Q1022=
201908271130 METAR LRCL 271130Z 13004KT 100V220 9999 FEW050 30/12 Q1022=
201908271200 METAR LRCL 271200Z VRB03KT 9999 FEW050 31/12 Q1022=
201908271230 METAR LRCL 271230Z 12005KT 080V160 9999 FEW050 31/12 Q1022=
201908271300 METAR LRCL 271300Z VRB02KT 9999 FEW050 FEW052TCU 31/11 Q1021=
201908271330 METAR LRCL 271330Z VRB02KT 9999 FEW050 FEW052CB 32/11 Q1021=
201908271400 METAR LRCL 271400Z 12003KT 050V160 9999 FEW050 FEW052TCU
                        31/11 Q1021=
201908271430 METAR LRCL 271430Z VRB02KT 9999 FEW055 32/11 Q1021=
201908271500 METAR LRCL 271500Z 27012KT 9999 FEW060 30/13 Q1021=
201908271530 METAR LRCL 271530Z 26009KT 9999 FEW060 29/13 Q1021=
201908271600 METAR LRCL 271600Z 25006KT 9999 FEW060 27/12 Q1021=
201908271630 METAR LRCL 271630Z 26005KT 9999 FEW065 26/13 Q1021=
201908271700 METAR LRCL 271700Z 26004KT CAVOK 25/13 Q1021=
201908271730 METAR LRCL 271730Z 00000KT CAVOK 24/13 Q1021=
201908271800 METAR LRCL 271800Z VRB01KT CAVOK 22/13 Q1021=
201908271830 METAR LRCL 271830Z 25004KT CAVOK 22/13 Q1022=
201908271900 METAR LRCL 271900Z 27003KT CAVOK 21/14 Q1022=
201908271930 METAR LRCL 271930Z 26002KT CAVOK 20/14 Q1022=
201908272000 METAR LRCL 272000Z VRB01KT CAVOK 20/14 Q1022=
201908272030 METAR LRCL 272030Z VRB02KT CAVOK 20/14 Q1022=
201908272100 METAR LRCL 272100Z 28001KT CAVOK 19/14 Q1022=
201908272130 METAR LRCL 272130Z 27001KT CAVOK 19/14 Q1023=
201908272200 METAR LRCL 272200Z 28002KT CAVOK 19/15 Q1023=
201908272230 METAR COR LRCL 272230Z 27003KT CAVOK 18/14 Q1023=
201908272300 METAR COR LRCL 272300Z 27002KT CAVOK 18/14 Q1023=
201908272330 METAR LRCL 272330Z 00000KT CAVOK 18/14 Q1023=
201908280000 METAR COR LRCL 280000Z 28001KT CAVOK 17/14 Q1023=
201908280030 METAR COR LRCL 280030Z 00000KT CAVOK 17/14 Q1023=
201908280100 METAR COR LRCL 280100Z 00000KT CAVOK 17/14 Q1023=
201908280130 METAR COR LRCL 280130Z 00000KT CAVOK 17/14 Q1023=
201908280200 METAR COR LRCL 280200Z 00000KT CAVOK 16/14 Q1023=
201908280230 METAR LRCL 280230Z 00000KT CAVOK 16/14 Q1023=
201908280300 METAR COR LRCL 280300Z 00000KT CAVOK 15/13 Q1023=
201908280330 METAR LRCL 280330Z 00000KT CAVOK 15/13 Q1023=
201908280400 METAR LRCL 280400Z 00000KT CAVOK 15/13 Q1023=
201908280430 METAR LRCL 280430Z 00000KT CAVOK 16/14 Q1023=
201908280500 METAR LRCL 280500Z 00000KT CAVOK 17/14 Q1023=
201908280530 METAR LRCL 280530Z VRB01KT CAVOK 18/14 Q1023=
201908280600 METAR LRCL 280600Z 00000KT CAVOK 20/14 Q1023=
201908280630 METAR LRCL 280630Z 00000KT CAVOK 21/14 Q1023=
201908280700 METAR LRCL 280700Z 08003KT 020V130 CAVOK 22/15 Q1023=
201908280730 METAR LRCL 280730Z 06004KT 350V110 CAVOK 24/15 Q1023=
201908280800 METAR LRCL 280800Z VRB04KT CAVOK 25/15 Q1023=
201908280830 METAR LRCL 280830Z 10006KT 060V170 CAVOK 27/15 Q1022=
201908280900 METAR LRCL 280900Z 09006KT 040V130 9999 FEW040 28/14 Q1022=
201908280930 METAR LRCL 280930Z 08007KT 030V110 9999 FEW040 29/15 Q1022=
201908281000 METAR LRCL 281000Z 12008KT 080V150 9999 FEW040 30/13 Q1022=
201908281030 METAR LRCL 281030Z 12007KT 080V150 9999 FEW040 31/11 Q1021=
201908281100 METAR LRCL 281100Z 13007KT 110V170 9999 FEW040 31/11 Q1021=
201908281130 METAR LRCL 281130Z 14008KT 100V160 9999 FEW040 31/11 Q1021=
201908281200 METAR LRCL 281200Z 17008KT 100V190 9999 FEW050 32/09 Q1021=
201908281230 METAR COR LRCL 281230Z 17008KT 100V190 9999 FEW050 32/09
                        Q1021=
201908281300 METAR LRCL 281300Z 14005KT 080V180 9999 FEW050 32/10 Q1020=
201908281330 METAR LRCL 281330Z 16004KT 100V230 9999 FEW050 32/10 Q1020=
201908281400 METAR LRCL 281400Z 16006KT 110V200 9999 FEW050 33/09 Q1020=
201908281430 METAR LRCL 281430Z VRB01KT 9999 FEW050 31/10 Q1020=
201908281500 METAR LRCL 281500Z 19004KT 090V220 CAVOK 32/09 Q1020=
201908281530 METAR LRCL 281530Z 25009KT CAVOK 29/14 Q1020=
201908281600 METAR LRCL 281600Z 25008KT CAVOK 28/14 Q1020=
201908281630 METAR LRCL 281630Z 26005KT CAVOK 27/14 Q1020=
201908281700 METAR COR LRCL 281700Z 27003KT CAVOK 24/15 Q1020=
201908281730 METAR LRCL 281730Z 30001KT CAVOK 24/15 Q1020=
201908281800 METAR LRCL 281800Z 24004KT CAVOK 23/15 Q1020=
201908281830 METAR LRCL 281830Z 00000KT CAVOK 23/15 Q1021=
201908281900 METAR LRCL 281900Z 27003KT CAVOK 22/15 Q1020=
201908281930 METAR LRCL 281930Z 27002KT CAVOK 21/15 Q1020=
201908282000 METAR LRCL 282000Z 25003KT CAVOK 20/15 Q1020=
201908282030 METAR LRCL 282030Z 26004KT CAVOK 20/15 Q1020=
201908282100 METAR LRCL 282100Z VRB01KT CAVOK 19/15 Q1020=
201908282130 METAR LRCL 282130Z 25002KT CAVOK 20/15 Q1020=
201908282200 METAR LRCL 282200Z 26005KT CAVOK 19/14 Q1021=
201908282230 METAR LRCL 282230Z 27003KT CAVOK 18/14 Q1021=
201908282300 METAR LRCL 282300Z AUTO 26001KT 9999 NCD 18/14 Q1021=
201908282330 METAR LRCL 282330Z 00000KT CAVOK 17/15 Q1021=
201908290000 METAR LRCL 290000Z 00000KT CAVOK 17/14 Q1021=
201908290030 METAR LRCL 290030Z 00000KT CAVOK 16/14 Q1020=
201908290100 METAR LRCL 290100Z 00000KT CAVOK 16/15 Q1020=
201908290130 METAR LRCL 290130Z 00000KT CAVOK 16/14 Q1020=
201908290200 METAR LRCL 290200Z 00000KT CAVOK 15/14 Q1020=
201908290230 METAR LRCL 290230Z 00000KT CAVOK 15/14 Q1020=
201908290300 METAR LRCL 290300Z AUTO 08003KT 9999 NCD 15/14 Q1021=
201908290330 METAR LRCL 290330Z 11001KT CAVOK 14/13 Q1021=
201908290400 METAR LRCL 290400Z 07002KT CAVOK 15/13 Q1021=
201908290430 METAR LRCL 290430Z 00000KT CAVOK 15/14 Q1021=
201908290500 METAR LRCL 290500Z 00000KT CAVOK 17/14 Q1021=
201908290530 METAR LRCL 290530Z 00000KT CAVOK 18/14 Q1021=
201908290600 METAR LRCL 290600Z 00000KT CAVOK 20/14 Q1021=
201908290630 METAR LRCL 290630Z 00000KT CAVOK 21/14 Q1021=
201908290700 METAR LRCL 290700Z VRB01KT CAVOK 22/14 Q1021=
201908290730 METAR LRCL 290730Z VRB01KT CAVOK 23/14 Q1021=
201908290800 METAR LRCL 290800Z 00000KT CAVOK 24/14 Q1021=
201908290830 METAR LRCL 290830Z 00000KT 9999 FEW045 26/14 Q1021=
201908290900 METAR LRCL 290900Z 00000KT 9999 FEW045 28/13 Q1020=
201908290930 METAR LRCL 290930Z VRB02KT 9999 FEW045 28/13 Q1020=
201908291000 METAR LRCL 291000Z VRB03KT 9999 FEW045TCU FEW048 29/13 Q1020=
201908291030 METAR LRCL 291030Z 11005KT 060V160 9999 FEW045TCU FEW048
                        30/12 Q1020=
201908291100 METAR LRCL 291100Z VRB04KT 9999 FEW045TCU FEW048 30/11 Q1020=
201908291130 METAR LRCL 291130Z VRB03KT 9999 FEW045TCU FEW048 31/09 Q1019=
201908291200 METAR LRCL 291200Z VRB02KT 9999 FEW045TCU SCT048 32/09 Q1019=
201908291230 METAR COR LRCL 291230Z VRB03KT 9999 FEW045CB SCT048 32/09
                        Q1019=
201908291300 METAR LRCL 291300Z 18005KT 140V210 9999 FEW045CB SCT048 33/09
                        Q1019=
201908291330 METAR LRCL 291330Z 16004KT 110V210 9999 FEW045CB SCT048 31/08
                        Q1019=
201908291400 METAR LRCL 291400Z 27009KT 9999 FEW045CB SCT048 31/13 Q1019=
201908291430 METAR LRCL 291430Z 25009KT 9999 FEW045CB SCT048 30/13 Q1019=
201908291500 METAR LRCL 291500Z 26007KT 220V290 9999 FEW042CB SCT048 30/12
                        Q1019=
201908291530 METAR LRCL 291530Z 27007KT 9999 SCT045CB SCT055 30/13 Q1019=
201908291600 METAR LRCL 291600Z 02010KT 350V050 9999 TS SCT045CB BKN058
                        26/12 Q1020=
201908291630 METAR COR LRCL 291630Z 11008KT 080V140 9999 -TSRA SCT050CB
                        BKN060 24/13 Q1019=
201908291700 METAR LRCL 291700Z 10004KT 330V120 9999 FEW055CB SCT067 22/17
                        Q1019 RETS R07/19//95=
201908291730 METAR LRCL 291730Z 32004KT 9999 FEW055CB 22/16 Q1020 R07/19//95=
201908291800 METAR LRCL 291800Z VRB01KT 9999 FEW067 21/15 Q1019 R07/CLRD//=
201908291830 METAR COR LRCL 291830Z VRB01KT 9999 FEW067 21/16 Q1020 R07/CLRD//=
201908291900 METAR LRCL 291900Z 00000KT 9999 FEW067 21/16 Q1020=
201908291930 METAR LRCL 291930Z 00000KT CAVOK 20/14 Q1020=
201908292000 METAR LRCL 292000Z 10003KT CAVOK 19/15 Q1020=
201908292030 METAR LRCL 292030Z 00000KT CAVOK 19/15 Q1020=
201908292100 METAR LRCL 292100Z 28002KT CAVOK 19/15 Q1020=
201908292130 METAR LRCL 292130Z 00000KT CAVOK 18/15 Q1020=
201908292200 METAR LRCL 292200Z 26002KT CAVOK 19/14 Q1020=
201908292230 METAR COR LRCL 292230Z VRB02KT CAVOK 18/14 Q1020=
201908292300 METAR COR LRCL 292300Z 00000KT 9999 NCD 17/14 Q1020=
201908292330 METAR LRCL 292330Z AUTO 00000KT 9999 NCD 17/14 Q1020=
201908300000 METAR LRCL 300000Z AUTO 27002KT 9999 NCD 17/14 Q1020=
201908300030 METAR COR LRCL 300030Z 00000KT CAVOK 16/14 Q1020=
201908300100 METAR LRCL 300100Z AUTO 00000KT 9999 NCD 16/14 Q1020=
201908300130 METAR LRCL 300130Z 08003KT CAVOK 15/14 Q1020=
201908300200 METAR LRCL 300200Z 00000KT CAVOK 15/14 Q1020=
201908300230 METAR LRCL 300230Z VRB01KT CAVOK 15/13 Q1020=
201908300300 METAR LRCL 300300Z 09004KT CAVOK 14/13 Q1020=
201908300330 METAR LRCL 300330Z 00000KT CAVOK 14/13 Q1020=
201908300400 METAR LRCL 300400Z 00000KT CAVOK 14/13 Q1020=
201908300430 METAR LRCL 300430Z 08003KT CAVOK 14/13 Q1021=
201908300500 METAR LRCL 300500Z VRB01KT CAVOK 16/14 Q1021=
201908300530 METAR LRCL 300530Z 09001KT CAVOK 16/14 Q1021=
201908300600 METAR LRCL 300600Z VRB02KT CAVOK 18/14 Q1021=
201908300630 METAR LRCL 300630Z 00000KT CAVOK 20/14 Q1021=
201908300700 METAR LRCL 300700Z 00000KT CAVOK 22/14 Q1021=
201908300730 METAR LRCL 300730Z VRB02KT CAVOK 23/13 Q1021=
201908300800 METAR LRCL 300800Z VRB02KT CAVOK 24/12 Q1021=
201908300830 METAR LRCL 300830Z VRB03KT CAVOK 25/13 Q1021=
201908300900 METAR LRCL 300900Z 08003KT 350V160 CAVOK 27/13 Q1021=
201908300930 METAR LRCL 300930Z 09004KT 020V170 CAVOK 28/12 Q1021=
201908301000 METAR LRCL 301000Z 12004KT 080V170 CAVOK 29/11 Q1021=
201908301030 METAR LRCL 301030Z VRB03KT CAVOK 29/12 Q1021=
201908301100 METAR LRCL 301100Z VRB04KT CAVOK 30/13 Q1021=
201908301130 METAR LRCL 301130Z 04004KT 340V080 CAVOK 30/11 Q1020=
201908301200 METAR LRCL 301200Z 16004KT 110V260 CAVOK 31/11 Q1020=
201908301230 METAR LRCL 301230Z 20002KT CAVOK 31/11 Q1020=
201908301300 METAR LRCL 301300Z 18005KT CAVOK 31/11 Q1019=
201908301330 METAR LRCL 301330Z VRB02KT CAVOK 31/11 Q1019=
201908301400 METAR LRCL 301400Z 03005KT 350V100 CAVOK 31/10 Q1019=
201908301430 METAR LRCL 301430Z 03003KT 320V110 CAVOK 31/10 Q1019=
201908301500 METAR LRCL 301500Z 12003KT 070V170 CAVOK 31/09 Q1019=
201908301530 METAR LRCL 301530Z 08003KT 340V140 CAVOK 30/10 Q1019=
201908301600 METAR LRCL 301600Z 00000KT CAVOK 30/09 Q1019=
201908301630 METAR LRCL 301630Z 00000KT CAVOK 29/11 Q1019=
201908301700 METAR LRCL 301700Z VRB01KT CAVOK 27/12 Q1019=
201908301730 METAR LRCL 301730Z VRB01KT CAVOK 25/13 Q1019=
201908301800 METAR LRCL 301800Z 32001KT CAVOK 23/13 Q1020=
201908301830 METAR LRCL 301830Z 28001KT CAVOK 22/13 Q1020=
201908301900 METAR LRCL 301900Z 24004KT CAVOK 22/12 Q1020=
201908301930 METAR LRCL 301930Z 26004KT CAVOK 20/13 Q1020=
201908302000 METAR LRCL 302000Z 27004KT CAVOK 21/13 Q1020=
201908302030 METAR LRCL 302030Z VRB03KT CAVOK 21/12 Q1020=
201908302100 METAR LRCL 302100Z 00000KT CAVOK 20/13 Q1021=
201908302130 METAR LRCL 302130Z 29003KT CAVOK 19/13 Q1021=
201908302200 METAR LRCL 302200Z VRB01KT CAVOK 18/13 Q1021=
201908302230 METAR LRCL 302230Z 00000KT CAVOK 17/13 Q1021=
201908302300 METAR LRCL 302300Z 00000KT CAVOK 18/13 Q1021=
201908302330 METAR COR LRCL 302330Z 00000KT CAVOK 17/13 Q1021=
201908310000 METAR LRCL 310000Z 23002KT CAVOK 17/13 Q1021=
201908310030 METAR LRCL 310030Z 27003KT CAVOK 16/13 Q1021=
201908310100 METAR LRCL 310100Z 24002KT CAVOK 16/12 Q1021=
201908310130 METAR LRCL 310130Z 23001KT CAVOK 17/12 Q1021=
201908310200 METAR LRCL 310200Z 25001KT CAVOK 16/13 Q1021=
201908310230 METAR LRCL 310230Z 00000KT CAVOK 15/13 Q1021=
201908310300 METAR LRCL 310300Z 09004KT CAVOK 14/12 Q1021=
201908310330 METAR COR LRCL 310330Z 08003KT CAVOK 13/12 Q1021=
201908310400 METAR LRCL 310400Z 00000KT CAVOK 14/12 Q1021=
201908310430 METAR LRCL 310430Z 00000KT CAVOK 14/12 Q1021=
201908310500 METAR LRCL 310500Z 00000KT CAVOK 16/13 Q1021=
201908310530 METAR LRCL 310530Z 00000KT CAVOK 17/13 Q1021=
201908310600 METAR LRCL 310600Z 00000KT CAVOK 19/13 Q1021=
201908310630 METAR LRCL 310630Z 00000KT CAVOK 21/12 Q1021=
201908310700 METAR LRCL 310700Z 00000KT CAVOK 22/13 Q1021=
201908310730 METAR LRCL 310730Z 07003KT CAVOK 24/12 Q1021=
201908310800 METAR LRCL 310800Z 07004KT CAVOK 26/12 Q1021=
201908310830 METAR LRCL 310830Z 09003KT CAVOK 28/12 Q1021=
201908310900 METAR LRCL 310900Z 06004KT 350V100 CAVOK 28/11 Q1020=
201908310930 METAR LRCL 310930Z 13007KT 090V150 CAVOK 29/09 Q1020=
201908311000 METAR LRCL 311000Z 12007KT 070V160 CAVOK 30/08 Q1020=
201908311030 METAR LRCL 311030Z 13006KT 100V190 CAVOK 29/08 Q1020=
201908311100 METAR LRCL 311100Z 10006KT 050V140 CAVOK 30/07 Q1019=
201908311130 METAR LRCL 311130Z 12007KT CAVOK 31/07 Q1019=
201908311200 METAR LRCL 311200Z 09005KT CAVOK 31/07 Q1019=
201908311230 METAR LRCL 311230Z VRB06KT 9999 FEW030 31/07 Q1019=
201908311300 METAR LRCL 311300Z 12007KT 080V190 CAVOK 31/07 Q1018=
201908311330 METAR LRCL 311330Z 10007KT 060V140 CAVOK 31/07 Q1018=
201908311400 METAR LRCL 311400Z 15007KT CAVOK 31/07 Q1018=
201908311430 METAR LRCL 311430Z 14006KT 080V170 CAVOK 31/07 Q1017=
201908311500 METAR LRCL 311500Z 12006KT 060V180 9999 FEW050 30/08 Q1017=
201908311530 METAR LRCL 311530Z 17007KT 130V220 9999 FEW055 31/08 Q1017=
201908311600 METAR LRCL 311600Z 13004KT CAVOK 30/08 Q1017=
201908311630 METAR LRCL 311630Z 19003KT 160V220 CAVOK 29/08 Q1017=
201908311700 METAR LRCL 311700Z 17003KT CAVOK 27/10 Q1017=
201908311730 METAR COR LRCL 311730Z 00000KT CAVOK 24/11 Q1017=
201908311800 METAR LRCL 311800Z 00000KT CAVOK 23/12 Q1017=
201908311830 METAR LRCL 311830Z AUTO 00000KT 9999 NCD 22/12 Q1017=
201908311900 METAR LRCL 311900Z 00000KT CAVOK 21/12 Q1017=
201908311930 METAR LRCL 311930Z 00000KT CAVOK 20/12 Q1017=
201908312000 METAR LRCL 312000Z VRB01KT CAVOK 19/12 Q1018=
201908312030 METAR LRCL 312030Z 29001KT CAVOK 18/12 Q1018=
201908312100 METAR LRCL 312100Z 00000KT CAVOK 18/12 Q1018=
201908312130 METAR LRCL 312130Z 24002KT CAVOK 19/11 Q1018=
201908312200 METAR LRCL 312200Z 00000KT CAVOK 18/12 Q1018=
201908312230 METAR LRCL 312230Z 00000KT CAVOK 17/11 Q1018=
201908312300 METAR LRCL 312300Z 00000KT CAVOK 17/12 Q1018=
201908312330 METAR LRCL 312330Z AUTO 00000KT 9999 NCD 17/12 Q1018=
