201910010200 TAF LRCL 010200Z 0103/0112 26008KT CAVOK=
201910010500 TAF LRCL 010500Z 0106/0115 26006KT CAVOK=
201910010800 TAF LRCL 010800Z 0109/0118 VRB04KT CAVOK=
201910011100 TAF LRCL 011100Z 0112/0121 VRB04KT CAVOK=
201910011400 TAF LRCL 011400Z 0115/0124 31008KT CAVOK=
201910011700 TAF LRCL 011700Z 0118/0203 VRB03KT CAVOK=
201910012000 TAF LRCL 012000Z 0121/0206 VRB03KT CAVOK=
201910012300 TAF LRCL 012300Z 0200/0209 VRB03KT CAVOK
                      BECMG 0207/0209 15010KT=
201910020200 TAF LRCL 020200Z 0203/0212 VRB03KT CAVOK
                      BECMG 0207/0209 15010KT=
201910020500 TAF LRCL 020500Z 0206/0215 VRB04KT CAVOK
                      BECMG 0209/0211 12010KT=
201910020800 TAF LRCL 020800Z 0209/0218 09010KT CAVOK
                      BECMG 0214/0216 VRB04KT=
201910021100 TAF LRCL 021100Z 0212/0221 12010KT CAVOK
                      BECMG 0214/0216 VRB04KT=
201910021400 TAF LRCL 021400Z 0215/0224 15010KT CAVOK
                      BECMG 0215/0217 VRB04KT=
201910021700 TAF LRCL 021700Z 0218/0303 VRB04KT CAVOK
                      TEMPO 0300/0303 FEW030CB=
201910022000 TAF LRCL 022000Z 0221/0306 VRB04KT CAVOK
                      TEMPO 0301/0306 FEW040CB
                      PROB30 TEMPO 0302/0306 VRB15KT -TSRA=
201910022300 TAF LRCL 022300Z 0300/0309 VRB04KT CAVOK
                      TEMPO 0300/0306 FEW040CB
                      PROB30 TEMPO 0302/0306 VRB15KT -TSRA
                      BECMG 0307/0309 32012KT SCT015 SCT030CB BKN040=
201910030200 TAF LRCL 030200Z 0303/0312 VRB04KT CAVOK
                      TEMPO 0303/0307 FEW040CB
                      PROB30 TEMPO 0304/0307 VRB15KT 5000 -SHRA
                       BECMG 0307/0309 32012KT SCT015 SCT030CB
                       BKN040
                      TEMPO 0310/0312 5000 SHRA=
201910030500 TAF LRCL 030500Z 0306/0315 VRB04KT CAVOK
                      BECMG 0307/0309 32012KT SCT015 SCT030CB BKN040
                       TEMPO 0310/0315 3000 SHRA BKN010 SCT025CB
                       OVC035=
201910030800 TAF LRCL 030800Z 0309/0318 32012KT CAVOK
                      BECMG 0310/0312 5000 RA BKN015 OVC040
                      TEMPO 0312/0316 32015G25KT 3000 SHRA BKN010
                       BKN030CB OVC035
                      PROB30 TEMPO 0312/0315 TSRA=
201910031100 TAF LRCL 031100Z 0312/0321 30014KT 9999 BKN015 BKN040
                      TEMPO 0312/0316 32015G25KT 3000 SHRA BKN010
                       BKN030CB OVC035
                      PROB30 TEMPO 0312/0315 TSRA=
201910031400 TAF LRCL 031400Z 0315/0324 30014KT 9999 BKN015 BKN040
                      PROB40 TEMPO 0315/0318 5000 SHRA BKN010 SCT030CB
                       OVC035=
201910031700 TAF LRCL 031700Z 0318/0403 31010KT 9999 BKN015 BKN040
                      PROB40 TEMPO 0400/0403 5000 -RA BR BKN010
                       BKN030=
201910032000 TAF LRCL 032000Z 0321/0406 31008KT 9999 BKN020
                      PROB40 TEMPO 0402/0406 5000 -RA BR BKN010
                       BKN030=
201910032300 TAF LRCL 032300Z 0400/0409 31006KT 9999 BKN030
                      PROB40 TEMPO 0402/0406 5000 -RA BR BKN010
                       BKN030=
201910040200 TAF LRCL 040200Z 0403/0412 29006KT 9999 SCT050
                      PROB40 TEMPO 0403/0408 5000 -RA BR BKN010
                       BKN030=
201910040500 TAF LRCL 040500Z 0406/0415 29006KT 9999 SCT015 SCT050
                      TEMPO 0406/0410 5000 -RA BR BKN015 BKN050=
201910040800 TAF LRCL 040800Z 0409/0418 VRB04KT 9999 SCT050
                      TEMPO 0409/0416 5000 -SHRA BR SCT050CB=
201910041100 TAF LRCL 041100Z 0412/0421 VRB04KT 9999 SCT030=
201910041400 TAF LRCL 041400Z 0415/0424 VRB04KT 9999 SCT030=
201910041700 TAF LRCL 041700Z 0418/0503 VRB04KT 9999 SCT030
                      BECMG 0419/0421 5000 BR BKN010
                      TEMPO 0500/0503 1500 BR BKN005=
201910042000 TAF LRCL 042000Z 0421/0506 VRB04KT 9999 BKN045
                      BECMG 0422/0424 5000 BR BKN015
                      TEMPO 0500/0504 1500 BR BKN005
                      BECMG 0504/0506 CAVOK=
201910042300 TAF LRCL 042300Z 0500/0509 VRB04KT 5000 BR BKN010
                      TEMPO 0500/0504 1500 BR BKN005
                      BECMG 0504/0506 9999 BKN020=
201910050200 TAF LRCL 050200Z 0503/0512 VRB04KT 9999 BKN045
                      TEMPO 0503/0506 3000 BR BKN010=
201910050500 TAF LRCL 050500Z 0506/0515 VRB04KT 9999 BKN060
                      PROB30 TEMPO 0506/0508 5000 BR BKN005 BKN060=
201910050800 TAF LRCL 050800Z 0509/0518 VRB04KT 9999 SCT050
                      PROB30 TEMPO 0510/0514 FEW030CB SCT050=
201910051100 TAF LRCL 051100Z 0512/0521 VRB04KT 9999 SCT050
                      PROB30 TEMPO 0512/0514 FEW030CB SCT050
                      BECMG 0517/0519 5000 -RA BKN015 BKN040=
201910051400 TAF LRCL 051400Z 0515/0524 VRB04KT 9999 SCT050
                      BECMG 0517/0519 5000 -RA BR BKN015 BKN040
                       TEMPO 0520/0524 3000 RA BR BKN010 OVC030=
201910051700 TAF LRCL 051700Z 0518/0603 VRB04KT 9999 SCT050
                      BECMG 0519/0521 5000 -RA BR BKN015 BKN040
                       TEMPO 0522/0603 3000 SHRA BKN010 OVC030=
201910052000 TAF LRCL 052000Z 0521/0606 VRB04KT 9999 SCT025 BKN055
                      TEMPO 0521/0606 5000 -RA BR BKN015 BKN040
                       PROB40
                      TEMPO 0523/0606 3000 SHRA BKN010 SCT025CB
                       OVC030=
201910052300 TAF LRCL 052300Z 0600/0609 VRB04KT 9999 SCT020 BKN050
                      TEMPO 0600/0609 5000 -RA BR BKN015 BKN040
                       PROB40
                      TEMPO 0600/0606 3000 SHRA BKN010 SCT025CB
                       OVC030=
201910060200 TAF LRCL 060200Z 0603/0612 VRB04KT 9999 SCT020 BKN050
                      TEMPO 0603/0612 5000 -RA BR BKN015 BKN040
                       PROB30
                      TEMPO 0603/0606 3000 SHRA BKN010 SCT025CB
                       OVC030=
201910060500 TAF LRCL 060500Z 0606/0615 VRB04KT 9999 BKN045
                      TEMPO 0606/0609 5000 -RA BKN015 BKN040
                      PROB30 TEMPO 0612/0615 5000 -SHRA BKN010
                       SCT035CB OVC045=
201910060800 TAF LRCL 060800Z 0609/0618 VRB04KT 9999 SCT010 OVC045
                      PROB30 TEMPO 0610/0614 30010KT 5000 -SHRA
                       BKN005 SCT035CB OVC040=
201910061100 TAF LRCL 061100Z 0612/0621 29010KT 9999 SCT015 BKN030
                      TEMPO 0613/0618 5000 -RA BKN010 BKN025
                      BECMG 0619/0621 VRB04KT=
201910061400 TAF LRCL 061400Z 0615/0624 29014KT 9999 BKN015 BKN035
                      PROB30 TEMPO 0615/0618 5000 -RA BKN010 BKN025
                       BECMG 0620/0622 VRB04KT=
201910061700 TAF LRCL 061700Z 0618/0703 31010KT 9999 SCT015 BKN025
                      TEMPO 0618/0621 BKN010 BKN025
                      BECMG 0620/0622 25005KT=
201910062000 TAF LRCL 062000Z 0621/0706 25006KT 9999 SCT030 BKN060=
201910062300 TAF LRCL 062300Z 0700/0709 25006KT 9999 SCT030 BKN060=
201910070200 TAF LRCL 070200Z 0703/0712 25006KT 9999 SCT030 BKN060=
201910070500 TAF LRCL 070500Z 0706/0715 32008KT 9999 BKN030=
201910070800 TAF LRCL 070800Z 0709/0718 32008KT 9999 BKN025=
201910071100 TAF LRCL 071100Z 0712/0721 32008KT 9999 BKN025=
201910071400 TAF LRCL 071400Z 0715/0724 32008KT 9999 BKN025=
201910071700 TAF LRCL 071700Z 0718/0803 32004KT CAVOK=
201910072000 TAF LRCL 072000Z 0721/0806 VRB04KT CAVOK=
201910072300 TAF LRCL 072300Z 0800/0809 VRB04KT CAVOK=
201910080200 TAF LRCL 080200Z 0803/0812 VRB04KT CAVOK=
201910080500 TAF LRCL 080500Z 0806/0815 VRB04KT CAVOK=
201910080800 TAF LRCL 080800Z 0809/0818 VRB04KT CAVOK=
201910081100 TAF LRCL 081100Z 0812/0821 VRB04KT CAVOK=
201910081400 TAF LRCL 081400Z 0815/0824 VRB04KT CAVOK=
201910081700 TAF LRCL 081700Z 0818/0903 VRB04KT CAVOK
                      TEMPO 0900/0903 3000 BR BKN010=
201910082000 TAF LRCL 082000Z 0821/0906 VRB04KT CAVOK
                      TEMPO 0900/0904 3000 BR BKN010=
201910082300 TAF LRCL 082300Z 0900/0909 VRB04KT CAVOK
                      TEMPO 0900/0903 3000 BR BKN010=
201910090200 TAF LRCL 090200Z 0903/0912 VRB04KT CAVOK
                      TEMPO 0903/0905 3000 BR=
201910090500 TAF LRCL 090500Z 0906/0915 VRB04KT CAVOK=
201910090800 TAF LRCL 090800Z 0909/0918 08008KT CAVOK=
201910091100 TAF LRCL 091100Z 0912/0921 VRB03KT CAVOK=
201910091400 TAF LRCL 091400Z 0915/0924 12006KT CAVOK=
201910091700 TAF LRCL 091700Z 0918/1003 VRB04KT CAVOK
                      TEMPO 0923/1003 3000 BR BKN010=
201910092000 TAF LRCL 092000Z 0921/1006 VRB04KT CAVOK
                      BECMG 0923/1001 3000 BR BKN010
                      TEMPO 1001/1005 1500 BR BKN005=
201910092300 TAF LRCL 092300Z 1000/1009 VRB04KT 5000 BR NSC
                      TEMPO 1000/1004 1500 BR BKN005
                      BECMG 1005/1007 -RA BKN010 BKN020=
201910100200 TAF LRCL 100200Z 1003/1012 VRB04KT 5000 BR NSC
                      TEMPO 1003/1005 1500 BR BKN005
                      BECMG 1005/1007 9999 BKN020
                      TEMPO 1008/1012 5000 -RA BR BKN010 BKN020=
201910100500 TAF LRCL 100500Z 1006/1015 VRB04KT CAVOK
                      BECMG 1013/1015 33010KT=
201910100800 TAF LRCL 100800Z 1009/1018 VRB04KT CAVOK
                      BECMG 1013/1015 33010KT
                      BECMG 1015/1017 5000 -RA BKN015 OVC035=
201910101100 TAF LRCL 101100Z 1012/1021 31010KT CAVOK
                      BECMG 1016/1018 VRB04KT 5000 -RA BKN015 OVC035=
201910101400 TAF LRCL 101400Z 1015/1024 31010KT CAVOK
                      BECMG 1016/1018 VRB04KT 5000 -RA BKN015 OVC035=
201910101700 TAF LRCL 101700Z 1018/1103 VRB04KT 7000 -RA SCT040 BKN060
                      TEMPO 1018/1020 5000 RA BR BKN015 OVC035
                       BECMG 1021/1023 3000 BR BKN010 OVC020
                      TEMPO 1100/1103 1500 BR OVC005=
201910102000 TAF LRCL 102000Z 1021/1106 VRB04KT 9999 SCT060
                      TEMPO 1023/1103 3000 BR=
201910102300 TAF LRCL 102300Z 1100/1109 VRB04KT CAVOK
                      TEMPO 1102/1106 3000 BR=
201910110200 TAF LRCL 110200Z 1103/1112 26007KT 9999 SCT050
                      PROB30 TEMPO 1103/1106 5000 BR
                      BECMG 1107/1109 32010KT=
201910110500 TAF LRCL 110500Z 1106/1115 VRB04KT CAVOK
                      BECMG 1107/1109 32010KT=
201910110800 TAF LRCL 110800Z 1109/1118 28008KT CAVOK=
201910111100 TAF LRCL 111100Z 1112/1121 30010KT CAVOK
                      BECMG 1114/1116 VRB04KT=
201910111400 TAF LRCL 111400Z 1115/1124 VRB04KT CAVOK=
201910111700 TAF LRCL 111700Z 1118/1203 VRB04KT CAVOK=
201910112000 TAF LRCL 112000Z 1121/1206 VRB04KT CAVOK
                      TEMPO 1202/1206 3000 BR=
201910112300 TAF LRCL 112300Z 1200/1209 VRB04KT CAVOK
                      TEMPO 1202/1206 3000 BR=
201910120200 TAF LRCL 120200Z 1203/1212 VRB04KT CAVOK
                      TEMPO 1203/1205 3000 BR=
201910120500 TAF LRCL 120500Z 1206/1215 VRB04KT CAVOK=
201910120800 TAF LRCL 120800Z 1209/1218 VRB04KT CAVOK=
201910121100 TAF LRCL 121100Z 1212/1221 08007KT CAVOK=
201910121400 TAF LRCL 121400Z 1215/1224 10006KT CAVOK=
201910121700 TAF LRCL 121700Z 1218/1303 VRB04KT CAVOK=
201910122000 TAF LRCL 122000Z 1221/1306 VRB04KT CAVOK
                      PROB40 TEMPO 1300/1305 3000 BR=
201910122300 TAF LRCL 122300Z 1300/1309 VRB04KT CAVOK
                      PROB40 TEMPO 1301/1305 3000 BR=
201910130200 TAF LRCL 130200Z 1303/1312 VRB04KT CAVOK
                      PROB40 TEMPO 1303/1305 3000 BR=
201910130500 TAF LRCL 130500Z 1306/1315 VRB04KT CAVOK=
201910130800 TAF LRCL 130800Z 1309/1318 VRB04KT CAVOK=
201910131100 TAF LRCL 131100Z 1312/1321 09006KT CAVOK=
201910131400 TAF LRCL 131400Z 1315/1324 11005KT CAVOK=
201910131700 TAF LRCL 131700Z 1318/1403 VRB03KT CAVOK=
201910132000 TAF LRCL 132000Z 1321/1406 VRB03KT CAVOK
                      TEMPO 1402/1405 3000 BR=
201910132300 TAF LRCL 132300Z 1400/1409 VRB03KT CAVOK
                      TEMPO 1401/1405 3000 BR=
201910140200 TAF LRCL 140200Z 1403/1412 VRB03KT CAVOK
                      TEMPO 1403/1405 3000 BR=
201910140500 TAF LRCL 140500Z 1406/1415 VRB03KT 3000 BR NSC
                      BECMG 1406/1408 9999 NSW=
201910140800 TAF LRCL 140800Z 1409/1418 VRB03KT CAVOK=
201910141100 TAF LRCL 141100Z 1412/1421 08006KT CAVOK=
201910141400 TAF LRCL 141400Z 1415/1424 10005KT CAVOK=
201910141700 TAF LRCL 141700Z 1418/1503 VRB04KT CAVOK
                      TEMPO 1500/1503 3000 BR=
201910142000 TAF LRCL 142000Z 1421/1506 VRB04KT CAVOK
                      BECMG 1501/1503 3000 BR
                      PROB30 TEMPO 1503/1506 1500 BR BKN002=
201910142300 TAF LRCL 142300Z 1500/1509 VRB04KT 7000 NSC
                      BECMG 1501/1503 3000 BR
                      PROB30 TEMPO 1503/1505 1500 BR BKN002
                      BECMG 1506/1508 9999 NSW=
201910150200 TAF LRCL 150200Z 1503/1512 VRB04KT 1500 BR NSC
                      TEMPO 1503/1505 0600 FG BKN002
                      BECMG 1506/1508 9999 NSW
                      BECMG 1508/1510 14010KT=
201910150500 TAF LRCL 150500Z 1506/1515 VRB04KT CAVOK
                      TEMPO 1506/1507 3000 BR
                      BECMG 1508/1510 14010KT=
201910150800 TAF LRCL 150800Z 1509/1518 12006KT CAVOK=
201910151100 TAF LRCL 151100Z 1512/1521 10008KT CAVOK=
201910151400 TAF LRCL 151400Z 1515/1524 12008KT CAVOK=
201910151700 TAF LRCL 151700Z 1518/1603 VRB04KT CAVOK
                      BECMG 1600/1602 3000 BR=
201910152000 TAF LRCL 152000Z 1521/1606 VRB04KT CAVOK
                      BECMG 1600/1602 3000 BR
                      TEMPO 1603/1606 1500 BR=
201910152300 TAF LRCL 152300Z 1600/1609 VRB04KT CAVOK
                      BECMG 1601/1603 3000 BR
                      TEMPO 1603/1606 1500 BR
                      BECMG 1606/1607 CAVOK=
201910160200 TAF LRCL 160200Z 1603/1612 VRB04KT CAVOK
                      TEMPO 1603/1606 3000 BR=
201910160500 TAF LRCL 160500Z 1606/1615 VRB04KT 5000 BR BKN010
                      TEMPO 1606/1608 1500 BR BKN005
                      BECMG 1608/1610 CAVOK=
201910160800 TAF LRCL 160800Z 1609/1618 VRB04KT CAVOK=
201910161100 TAF LRCL 161100Z 1612/1621 VRB04KT CAVOK=
201910161400 TAF LRCL 161400Z 1615/1624 VRB04KT CAVOK
                      BECMG 1621/1623 3000 BR=
201910161700 TAF LRCL 161700Z 1618/1703 VRB04KT CAVOK
                      BECMG 1621/1623 3000 BR=
201910162000 TAF LRCL 162000Z 1621/1706 VRB04KT CAVOK
                      TEMPO 1700/1704 3000 BR=
201910162300 TAF LRCL 162300Z 1700/1709 VRB04KT CAVOK
                      TEMPO 1700/1704 3000 BR=
201910170200 TAF LRCL 170200Z 1703/1712 VRB04KT 5000 BR NSC
                      TEMPO 1703/1705 1500 BR BKN005
                      BECMG 1705/1707 CAVOK=
201910170500 TAF LRCL 170500Z 1706/1715 VRB04KT CAVOK
                      TEMPO 1706/1707 5000 BR=
201910170800 TAF LRCL 170800Z 1709/1718 VRB04KT CAVOK=
201910171100 TAF LRCL 171100Z 1712/1721 VRB04KT CAVOK=
201910171400 TAF LRCL 171400Z 1715/1724 VRB04KT CAVOK=
201910171700 TAF LRCL 171700Z 1718/1803 VRB04KT CAVOK
                      TEMPO 1800/1803 3000 BR=
201910172000 TAF LRCL 172000Z 1721/1806 VRB04KT CAVOK
                      TEMPO 1800/1803 3000 BR=
201910172300 TAF LRCL 172300Z 1800/1809 VRB04KT CAVOK
                      TEMPO 1800/1805 3000 BR=
201910180200 TAF LRCL 180200Z 1803/1812 VRB04KT 5000 BR NSC
                      TEMPO 1803/1805 1500 BR=
201910180320 TAF AMD LRCL 180320Z 1803/1812 VRB04KT 0800 FG NSC
                      TEMPO 1803/1805 0350 FG BKN002
                      BECMG 1805/1807 3000 BR
                      BECMG 1807/1809 9999 NSW=
201910180500 TAF LRCL 180500Z 1806/1815 VRB04KT 0200 FG BKN001
                      BECMG 1806/1807 0800 BKN002
                      BECMG 1807/1808 3000 BR SCT005
                      BECMG 1808/1809 CAVOK=
201910180800 TAF LRCL 180800Z 1809/1818 VRB04KT CAVOK=
201910181100 TAF LRCL 181100Z 1812/1821 VRB04KT CAVOK
                      TEMPO 1812/1815 12010KT=
201910181400 TAF LRCL 181400Z 1815/1824 VRB04KT CAVOK
                      BECMG 1821/1823 5000 BR=
201910181700 TAF LRCL 181700Z 1818/1903 VRB04KT CAVOK
                      BECMG 1823/1901 5000 BR
                      PROB30 TEMPO 1901/1903 1500 BR=
201910182000 TAF LRCL 182000Z 1821/1906 VRB04KT CAVOK
                      BECMG 1900/1902 5000 BR
                      BECMG 1902/1904 3000 BR
                      TEMPO 1904/1906 1500 BR
                      PROB30 TEMPO 1904/1906 0600 FG=
201910182300 TAF LRCL 182300Z 1900/1909 VRB04KT 5000 BR NSC
                      BECMG 1901/1903 3000 BR
                      TEMPO 1903/1907 1500 BR
                      PROB30 TEMPO 1904/1907 0600 FG
                      BECMG 1907/1909 9999 NSW=
201910190200 TAF LRCL 190200Z 1903/1912 VRB04KT 5000 BR NSC
                      TEMPO 1903/1907 1500 BR
                      PROB30 TEMPO 1904/1907 0600 FG
                      BECMG 1907/1909 9999 NSW=
201910190500 TAF LRCL 190500Z 1906/1915 VRB04KT 5000 BR SCT015
                      TEMPO 1906/1908 1500 BR BKN005
                      BECMG 1908/1910 CAVOK=
201910190800 TAF LRCL 190800Z 1909/1918 VRB04KT CAVOK=
201910191100 TAF LRCL 191100Z 1912/1921 08007KT CAVOK=
201910191400 TAF LRCL 191400Z 1915/1924 08007KT CAVOK
                      BECMG 1922/1924 5000 BR=
201910191700 TAF LRCL 191700Z 1918/2003 VRB04KT CAVOK
                      BECMG 1922/1924 5000 BR
                      BECMG 2001/2003 3000 BR=
201910192000 TAF LRCL 192000Z 1921/2006 VRB04KT 5000 BR NSC
                      BECMG 1921/1923 3000 BR
                      BECMG 2000/2002 1500 BR
                      TEMPO 2002/2006 0600 FG BKN001=
201910192300 TAF LRCL 192300Z 2000/2009 VRB04KT 5000 BR NSC
                      BECMG 2000/2002 3000 BR
                      PROB30 TEMPO 2002/2006 1500 BR BKN005
                      BECMG 2007/2009 9999 NSW=
201910200200 TAF LRCL 200200Z 2003/2012 VRB04KT 3000 BR NSC
                      PROB30 TEMPO 2003/2006 0800 FG VV002
                      BECMG 2007/2009 CAVOK=
201910200456 TAF AMD LRCL 200456Z 2004/2012 VRB04KT 0800 FG NSC
                      TEMPO 2005/2007 0350 FG VV001
                      BECMG 2007/2009 3000 BR
                      BECMG 2009/2010 9999 NSW=
201910200500 TAF LRCL 200500Z 2006/2015 VRB04KT 0600 FG NSC
                      TEMPO 2006/2007 0350 FG VV001
                      BECMG 2007/2009 3000 BR
                      BECMG 2009/2010 9999 NSW=
201910200800 TAF LRCL 200800Z 2009/2018 10005KT CAVOK=
201910201100 TAF LRCL 201100Z 2012/2021 11008KT CAVOK=
201910201400 TAF LRCL 201400Z 2015/2024 13008KT CAVOK=
201910201700 TAF LRCL 201700Z 2018/2103 13008KT CAVOK
                      TEMPO 2100/2103 3000 BR BKN010=
201910202000 TAF LRCL 202000Z 2021/2106 13008KT CAVOK
                      TEMPO 2100/2103 3000 BR BKN010=
201910202300 TAF LRCL 202300Z 2100/2109 VRB04KT 5000 BR NSC
                      TEMPO 2100/2105 1500 BR BKN005
                      BECMG 2105/2107 CAVOK=
201910210200 TAF LRCL 210200Z 2103/2112 VRB04KT 3000 BR NSC
                      TEMPO 2103/2106 1500 BR BKN005
                      BECMG 2106/2108 CAVOK=
201910210500 TAF LRCL 210500Z 2106/2115 VRB04KT 5000 BR NSC
                      TEMPO 2106/2107 1500 BR
                      BECMG 2107/2109 9999 NSW=
201910210800 TAF LRCL 210800Z 2109/2118 VRB04KT CAVOK=
201910211100 TAF LRCL 211100Z 2112/2121 VRB04KT CAVOK=
201910211400 TAF LRCL 211400Z 2115/2124 VRB04KT CAVOK
                      BECMG 2122/2124 5000 BR=
201910211700 TAF LRCL 211700Z 2118/2203 VRB04KT CAVOK
                      TEMPO 2200/2203 3000 BR=
201910212000 TAF LRCL 212000Z 2121/2206 VRB04KT CAVOK
                      TEMPO 2200/2206 3000 BR=
201910212300 TAF LRCL 212300Z 2200/2209 VRB04KT CAVOK
                      TEMPO 2200/2206 3000 BR=
201910220200 TAF LRCL 220200Z 2203/2212 VRB04KT 5000 BR NSC
                      TEMPO 2203/2206 3000 BR
                      BECMG 2206/2208 CAVOK=
201910220500 TAF LRCL 220500Z 2206/2215 VRB04KT 5000 BR NSC
                      BECMG 2206/2208 CAVOK=
201910220800 TAF LRCL 220800Z 2209/2218 VRB04KT CAVOK=
201910221100 TAF LRCL 221100Z 2212/2221 VRB04KT CAVOK=
201910221400 TAF LRCL 221400Z 2215/2224 VRB04KT CAVOK=
201910221700 TAF LRCL 221700Z 2218/2303 VRB04KT CAVOK
                      TEMPO 2300/2303 5000 BR=
201910222000 TAF LRCL 222000Z 2221/2306 VRB04KT 5000 BR NSC
                      TEMPO 2300/2303 3000 BR=
201910222300 TAF LRCL 222300Z 2300/2309 VRB04KT 5000 BR NSC
                      TEMPO 2300/2305 3000 BR
                      BECMG 2306/2308 9999 NSW=
201910230200 TAF LRCL 230200Z 2303/2312 VRB04KT 5000 BR NSC
                      TEMPO 2303/2305 3000 BR
                      BECMG 2306/2308 9999 NSW=
201910230500 TAF LRCL 230500Z 2306/2315 VRB04KT 5000 BR NSC
                      TEMPO 2306/2308 1500 BR BKN005
                      BECMG 2308/2310 CAVOK=
201910230800 TAF LRCL 230800Z 2309/2318 VRB04KT CAVOK=
201910231100 TAF LRCL 231100Z 2312/2321 VRB04KT CAVOK
                      BECMG 2319/2321 5000 BR=
201910231400 TAF LRCL 231400Z 2315/2324 VRB04KT CAVOK
                      BECMG 2321/2323 5000 BR=
201910231700 TAF LRCL 231700Z 2318/2403 VRB04KT CAVOK
                      TEMPO 2400/2403 3000 BR=
201910232000 TAF LRCL 232000Z 2321/2406 VRB04KT CAVOK
                      TEMPO 2400/2405 3000 BR=
201910232300 TAF LRCL 232300Z 2400/2409 VRB04KT CAVOK
                      TEMPO 2400/2405 3000 BR=
201910240200 TAF LRCL 240200Z 2403/2412 VRB04KT 3000 BR NSC
                      TEMPO 2403/2406 0600 FG
                      BECMG 2406/2408 9999 NSW=
201910240500 TAF LRCL 240500Z 2406/2415 VRB04KT 3000 BR NSC
                      BECMG 2406/2408 9999 NSW=
201910240800 TAF LRCL 240800Z 2409/2418 VRB04KT CAVOK=
201910241100 TAF LRCL 241100Z 2412/2421 07008KT CAVOK=
201910241400 TAF LRCL 241400Z 2415/2424 VRB04KT CAVOK
                      TEMPO 2421/2424 5000 BR=
201910241700 TAF LRCL 241700Z 2418/2503 VRB04KT CAVOK
                      BECMG 2422/2424 5000 BR=
201910242000 TAF LRCL 242000Z 2421/2506 VRB04KT CAVOK
                      BECMG 2422/2424 5000 BR
                      PROB30 TEMPO 2501/2506 1500 BR=
201910242300 TAF LRCL 242300Z 2500/2509 VRB04KT 5000 BR NSC
                      PROB30 TEMPO 2501/2505 1500 BR BKN010
                      BECMG 2505/2507 CAVOK=
201910250200 TAF LRCL 250200Z 2503/2512 VRB04KT 5000 BR NSC
                      PROB30 TEMPO 2503/2506 1500 BR BKN010
                      BECMG 2506/2508 CAVOK=
201910250500 TAF LRCL 250500Z 2506/2515 VRB04KT CAVOK
                      TEMPO 2506/2507 5000 MIFG BR=
201910250800 TAF LRCL 250800Z 2509/2518 VRB04KT CAVOK=
201910251100 TAF LRCL 251100Z 2512/2521 VRB04KT CAVOK=
201910251400 TAF LRCL 251400Z 2515/2524 VRB04KT CAVOK=
201910251700 TAF LRCL 251700Z 2518/2603 VRB04KT CAVOK
                      BECMG 2600/2602 3000 BR=
201910252000 TAF LRCL 252000Z 2521/2606 VRB04KT CAVOK
                      BECMG 2600/2602 5000 BR
                      TEMPO 2603/2606 3000 BR=
201910252300 TAF LRCL 252300Z 2600/2609 VRB04KT CAVOK
                      TEMPO 2602/2606 3000 BR=
201910260200 TAF LRCL 260200Z 2603/2612 VRB04KT CAVOK
                      TEMPO 2603/2606 3000 BR=
201910260500 TAF LRCL 260500Z 2606/2615 VRB04KT 5000 BR NSC
                      BECMG 2606/2608 9999 NSW=
201910260800 TAF LRCL 260800Z 2609/2618 VRB04KT CAVOK=
201910261100 TAF LRCL 261100Z 2612/2621 VRB04KT CAVOK=
201910261400 TAF LRCL 261400Z 2615/2624 VRB04KT CAVOK=
201910261700 TAF LRCL 261700Z 2618/2703 VRB04KT CAVOK
                      PROB30 TEMPO 2702/2703 5000 BR=
201910262000 TAF LRCL 262000Z 2621/2706 25004KT 7000 NSC
                      BECMG 2701/2703 3000 BR
                      PROB30 TEMPO 2703/2706 1500 BR=
201910262300 TAF LRCL 262300Z 2700/2709 25004KT 8000 NSC
                      BECMG 2701/2703 5000 BR
                      PROB30 TEMPO 2703/2706 1500 BR
                      BECMG 2706/2708 9999 NSW=
201910270200 TAF LRCL 270200Z 2703/2712 25004KT 3000 BR NSC
                      TEMPO 2703/2706 1500 BR
                      BECMG 2706/2708 9999 NSW=
201910270419 TAF AMD LRCL 270419Z 2704/2712 25004KT 0800 FG NSC
                      TEMPO 2704/2706 0300 FG BKN001
                      BECMG 2706/2707 3000 BR
                      BECMG 2707/2709 9999 NSW=
201910270500 TAF LRCL 270500Z 2706/2715 25004KT 0600 FG NSC
                      BECMG 2706/2708 5000 BR
                      BECMG 2708/2709 CAVOK=
201910270800 TAF LRCL 270800Z 2709/2718 VRB04KT CAVOK=
201910271100 TAF LRCL 271100Z 2712/2721 VRB04KT CAVOK
                      BECMG 2719/2721 5000 BR=
201910271400 TAF LRCL 271400Z 2715/2724 VRB04KT CAVOK
                      BECMG 2719/2721 5000 BR=
201910271700 TAF LRCL 271700Z 2718/2803 VRB04KT CAVOK
                      TEMPO 2800/2803 3000 BR BKN005=
201910272000 TAF LRCL 272000Z 2721/2806 24005KT CAVOK
                      TEMPO 2800/2806 3000 BR=
201910272300 TAF LRCL 272300Z 2800/2809 VRB04KT CAVOK
                      TEMPO 2800/2806 3000 BR=
201910280200 TAF LRCL 280200Z 2803/2812 VRB04KT CAVOK
                      TEMPO 2803/2806 3000 BR=
201910280500 TAF LRCL 280500Z 2806/2815 VRB04KT 5000 BR NSC
                      TEMPO 2806/2807 1500 BR
                      BECMG 2807/2809 CAVOK=
201910280800 TAF LRCL 280800Z 2809/2818 VRB04KT CAVOK=
201910281100 TAF LRCL 281100Z 2812/2821 VRB04KT CAVOK=
201910281400 TAF LRCL 281400Z 2815/2824 VRB04KT CAVOK
                      BECMG 2819/2821 BKN015 BKN040
                      TEMPO 2821/2824 5000 -RA BR BKN010 BKN030=
201910281700 TAF LRCL 281700Z 2818/2903 VRB04KT CAVOK
                      BECMG 2819/2821 BKN015 BKN040
                      TEMPO 2822/2903 5000 -RA BR BKN010 BKN030=
201910282000 TAF LRCL 282000Z 2821/2906 VRB04KT 7000 BKN040
                      TEMPO 2823/2906 5000 -RA BR BKN010 BKN030=
201910282300 TAF LRCL 282300Z 2900/2909 VRB04KT 5000 BR BKN040
                      TEMPO 2900/2906 3000 -RA BR BKN010 BKN030=
201910290200 TAF LRCL 290200Z 2903/2912 28006KT 9999 BKN030
                      TEMPO 2903/2907 3000 RA BR BKN005 OVC025=
201910290500 TAF LRCL 290500Z 2906/2915 VRB04KT 3000 -RA SCT010 OVC050
                      BECMG 2907/2909 9999 NSW
                      BECMG 2913/2915 31012KT 5000 RA BKN010 OVC035=
201910290800 TAF LRCL 290800Z 2909/2918 VRB04KT 7000 -RA BKN010 OVC030
                      BECMG 2909/2911 9999 NSW BKN035
                      BECMG 2913/2915 31012KT 5000 RA BKN010 OVC035=
201910291100 TAF LRCL 291100Z 2912/2921 VRB04KT 7000 BKN015 BKN030
                      BECMG 2912/2914 31010KT 5000 -RA BR BKN010
                       OVC030
                      PROB40 TEMPO 2914/2917 3000 RA=
201910291400 TAF LRCL 291400Z 2915/2924 29008KT 9999 SCT015 BKN035
                      TEMPO 2915/2919 5000 -RA BR BKN010 OVC030=
201910291700 TAF LRCL 291700Z 2918/3003 29007KT 9999 BKN040
                      TEMPO 2918/2922 5000 -RA BR BKN010 OVC035=
201910292000 TAF LRCL 292000Z 2921/3006 29005KT 9999 BKN045=
201910292300 TAF LRCL 292300Z 3000/3009 29005KT 9999 BKN045=
201910300200 TAF LRCL 300200Z 3003/3012 29005KT 9999 SCT030=
201910300500 TAF LRCL 300500Z 3006/3015 VRB04KT 9999 SCT030=
201910300800 TAF LRCL 300800Z 3009/3018 VRB04KT CAVOK
                      BECMG 3015/3017 3000 -RA BR BKN010 OVC030=
201910301100 TAF LRCL 301100Z 3012/3021 VRB04KT 9999 SCT015 OVC025
                      BECMG 3014/3016 3000 -RA BR BKN010 OVC025
                       BECMG 3016/3018 1500 -RA BR BKN005 OVC020=
201910301400 TAF LRCL 301400Z 3015/3024 VRB04KT 9999 BKN015 OVC030
                      BECMG 3015/3017 3000 -RA BR BKN010 OVC025
                       BECMG 3017/3019 1500 -RA BR BKN005 OVC020=
201910301700 TAF LRCL 301700Z 3018/3103 VRB04KT 9999 -RA SCT015 OVC040
                      TEMPO 3018/3103 5000 -RA BR BKN010 OVC035
                       PROB40
                      TEMPO 3020/3024 1500 -RA BR BKN005 OVC020=
201910302000 TAF LRCL 302000Z 3021/3106 06008KT 9999 -RA BKN010 OVC030
                      TEMPO 3021/3024 5000 -RA BR BKN005 OVC020
                       BECMG 3100/3102 5000 BR
                      TEMPO 3102/3106 1500 BR OVC005=
201910302300 TAF LRCL 302300Z 3100/3109 06006KT 5000 -RA BR SCT010 OVC030
                      TEMPO 3102/3107 1500 -RADZ BR OVC005=
201910310200 TAF LRCL 310200Z 3103/3112 VRB04KT 9999 SCT015 OVC030
                      TEMPO 3103/3107 5000 -DZ BR BKN010 OVC025=
201910310500 TAF LRCL 310500Z 3106/3115 VRB04KT 9999 SCT015 OVC030
                      TEMPO 3106/3107 5000 BR BKN010 OVC025=
201910310800 TAF LRCL 310800Z 3109/3118 09006KT 9999 BKN010 OVC030=
201910311100 TAF LRCL 311100Z 3112/3121 13008KT 9999 BKN015 OVC030=
201910311400 TAF LRCL 311400Z 3115/3124 13008KT 9999 BKN015 OVC030=
201910311700 TAF LRCL 311700Z 3118/0103 VRB04KT 9999 OVC025
                      BECMG 3120/3123 OVC015
                      TEMPO 0100/0103 3000 BR OVC010=
201910312000 TAF LRCL 312000Z 3121/0106 VRB04KT 9999 OVC025
                      TEMPO 0100/0106 5000 BR OVC015=
201910312300 TAF LRCL 312300Z 0100/0109 VRB04KT 9999 BKN015
                      TEMPO 0100/0106 3000 BR BKN010
                      BECMG 0106/0107 SCT035=
