201910010000 METAR LRCL 010000Z 28003KT CAVOK 11/07 Q1013 R07/19//95=
201910010030 METAR LRCL 010030Z 28005KT CAVOK 12/07 Q1013 R07/19//95=
201910010100 METAR LRCL 010100Z 27006KT CAVOK 11/06 Q1013 R07/19//95=
201910010130 METAR LRCL 010130Z 29007KT CAVOK 11/06 Q1014 R07/19//95=
201910010200 METAR LRCL 010200Z 26003KT 210V280 CAVOK 10/06 Q1014 R07/19//95=
201910010230 METAR LRCL 010230Z 29003KT CAVOK 10/06 Q1014 R07/19//95=
201910010300 METAR LRCL 010300Z 28004KT 9999 FEW061 09/06 Q1014=
201910010330 METAR LRCL 010330Z 28005KT 9999 FEW063 09/06 Q1015=
201910010400 METAR LRCL 010400Z 27004KT CAVOK 09/06 Q1015=
201910010430 METAR LRCL 010430Z 27004KT CAVOK 09/06 Q1015=
201910010500 METAR LRCL 010500Z 27006KT CAVOK 09/06 Q1015=
201910010530 METAR LRCL 010530Z 26005KT CAVOK 10/06 Q1015=
201910010600 METAR LRCL 010600Z 24003KT 210V280 CAVOK 12/07 Q1015=
201910010630 METAR LRCL 010630Z 26004KT CAVOK 13/06 Q1016=
201910010700 METAR LRCL 010700Z 22004KT CAVOK 15/05 Q1016=
201910010730 METAR LRCL 010730Z 17003KT CAVOK 16/04 Q1016=
201910010800 METAR COR LRCL 010800Z VRB02KT CAVOK 18/05 Q1016=
201910010830 METAR LRCL 010830Z 10004KT 030V180 CAVOK 18/05 Q1016=
201910010900 METAR LRCL 010900Z 08005KT 010V180 CAVOK 19/04 Q1016=
201910010930 METAR LRCL 010930Z 14005KT 040V180 CAVOK 20/04 Q1016=
201910011000 METAR LRCL 011000Z 18008KT CAVOK 20/04 Q1016=
201910011030 METAR LRCL 011030Z VRB04KT 9999 FEW046 20/04 Q1015=
201910011100 METAR LRCL 011100Z 15006KT 100V190 CAVOK 21/04 Q1015=
201910011130 METAR COR LRCL 011130Z VRB02KT CAVOK 21/04 Q1015=
201910011200 METAR LRCL 011200Z VRB03KT CAVOK 22/04 Q1014=
201910011230 METAR LRCL 011230Z VRB02KT CAVOK 23/04 Q1014=
201910011300 METAR LRCL 011300Z 23004KT 180V280 CAVOK 22/03 Q1014=
201910011330 METAR LRCL 011330Z 30009KT 260V320 CAVOK 23/03 Q1014=
201910011400 METAR LRCL 011400Z 31008KT 260V340 CAVOK 22/03 Q1013=
201910011430 METAR LRCL 011430Z 31007KT 280V340 CAVOK 22/04 Q1013=
201910011500 METAR LRCL 011500Z 28005KT 250V310 CAVOK 22/04 Q1013=
201910011530 METAR LRCL 011530Z 34005KT CAVOK 21/05 Q1013=
201910011600 METAR LRCL 011600Z 35004KT CAVOK 18/06 Q1013=
201910011630 METAR LRCL 011630Z VRB02KT CAVOK 17/05 Q1013=
201910011700 METAR LRCL 011700Z 13002KT CAVOK 15/07 Q1013=
201910011730 METAR LRCL 011730Z 23004KT CAVOK 15/06 Q1013=
201910011800 METAR LRCL 011800Z 32001KT CAVOK 13/07 Q1013=
201910011830 METAR LRCL 011830Z 26002KT CAVOK 13/07 Q1013=
201910011900 METAR LRCL 011900Z 26002KT CAVOK 12/08 Q1013=
201910011930 METAR LRCL 011930Z 26003KT CAVOK 12/07 Q1013=
201910012000 METAR LRCL 012000Z 21001KT CAVOK 11/07 Q1013=
201910012030 METAR LRCL 012030Z VRB01KT CAVOK 10/08 Q1013=
201910012100 METAR LRCL 012100Z 00000KT CAVOK 10/08 Q1013=
201910012130 METAR LRCL 012130Z 00000KT CAVOK 09/07 Q1013=
201910012200 METAR LRCL 012200Z VRB01KT CAVOK 09/07 Q1013=
201910012230 METAR LRCL 012230Z VRB01KT CAVOK 09/07 Q1013=
201910012300 METAR LRCL 012300Z 08003KT CAVOK 08/06 Q1013=
201910012330 METAR COR LRCL 012330Z 10003KT CAVOK 07/06 Q1012=
201910020000 METAR COR LRCL 020000Z 00000KT CAVOK 07/06 Q1012=
201910020030 METAR COR LRCL 020030Z 08001KT CAVOK 07/06 Q1012=
201910020100 METAR COR LRCL 020100Z 00000KT 9999 NCD 07/06 Q1012=
201910020130 METAR COR LRCL 020130Z 00000KT CAVOK 07/06 Q1011=
201910020200 METAR LRCL 020200Z 08002KT 9999 MIFG NSC 07/06 Q1011=
201910020230 METAR LRCL 020230Z 08001KT 9999 MIFG NSC 07/06 Q1011=
201910020300 METAR LRCL 020300Z 00000KT CAVOK 07/06 Q1011=
201910020330 METAR LRCL 020330Z 00000KT 9999 MIFG NSC 07/06 Q1011=
201910020400 METAR LRCL 020400Z 08001KT 9999 MIFG NSC 06/05 Q1011=
201910020430 METAR LRCL 020430Z 11001KT 9999 MIFG NSC 06/05 Q1011=
201910020500 METAR LRCL 020500Z 08002KT CAVOK 06/05 Q1010=
201910020530 METAR LRCL 020530Z 00000KT CAVOK 08/06 Q1010=
201910020600 METAR LRCL 020600Z 00000KT CAVOK 09/06 Q1010=
201910020630 METAR LRCL 020630Z VRB01KT CAVOK 11/07 Q1010=
201910020700 METAR LRCL 020700Z VRB01KT CAVOK 12/08 Q1010=
201910020730 METAR LRCL 020730Z 06005KT CAVOK 15/07 Q1010=
201910020800 METAR LRCL 020800Z 08008KT CAVOK 17/08 Q1009=
201910020830 METAR LRCL 020830Z 08010KT CAVOK 19/08 Q1009=
201910020900 METAR LRCL 020900Z 09010KT CAVOK 20/07 Q1009=
201910020930 METAR LRCL 020930Z 08010KT CAVOK 21/07 Q1008=
201910021000 METAR LRCL 021000Z 11010KT CAVOK 22/07 Q1008=
201910021030 METAR LRCL 021030Z 09010KT CAVOK 24/07 Q1008=
201910021100 METAR LRCL 021100Z 12010KT CAVOK 24/07 Q1007=
201910021130 METAR LRCL 021130Z 09007KT CAVOK 25/07 Q1007=
201910021200 METAR LRCL 021200Z 16008KT CAVOK 26/06 Q1006=
201910021230 METAR LRCL 021230Z 17011KT CAVOK 26/07 Q1006=
201910021300 METAR LRCL 021300Z 17010KT CAVOK 27/07 Q1006=
201910021330 METAR LRCL 021330Z 16012KT CAVOK 27/07 Q1006=
201910021400 METAR LRCL 021400Z 15011KT CAVOK 26/07 Q1005=
201910021430 METAR LRCL 021430Z 16012KT CAVOK 26/07 Q1005=
201910021500 METAR LRCL 021500Z 17008KT CAVOK 24/08 Q1005=
201910021530 METAR LRCL 021530Z 17007KT CAVOK 23/09 Q1005=
201910021600 METAR LRCL 021600Z 17006KT 150V210 CAVOK 22/09 Q1005=
201910021630 METAR LRCL 021630Z 26004KT 180V300 CAVOK 19/10 Q1005=
201910021700 METAR LRCL 021700Z 29005KT 270V330 CAVOK 19/09 Q1005=
201910021730 METAR LRCL 021730Z 26003KT CAVOK 18/10 Q1005=
201910021800 METAR LRCL 021800Z 25002KT CAVOK 19/09 Q1005=
201910021830 METAR LRCL 021830Z 25004KT CAVOK 17/10 Q1005=
201910021900 METAR LRCL 021900Z 28001KT CAVOK 16/10 Q1005=
201910021930 METAR LRCL 021930Z 26003KT CAVOK 16/10 Q1005=
201910022000 METAR LRCL 022000Z 27004KT CAVOK 14/10 Q1006=
201910022030 METAR LRCL 022030Z 26003KT CAVOK 15/10 Q1006=
201910022100 METAR LRCL 022100Z VRB02KT CAVOK 14/10 Q1006=
201910022130 METAR LRCL 022130Z VRB01KT CAVOK 13/10 Q1005=
201910022200 METAR LRCL 022200Z VRB01KT CAVOK 13/10 Q1005=
201910022230 METAR LRCL 022230Z 00000KT CAVOK 12/10 Q1005=
201910022300 METAR LRCL 022300Z 00000KT CAVOK 12/10 Q1005=
201910022330 METAR LRCL 022330Z VRB01KT CAVOK 11/10 Q1005=
201910030000 METAR LRCL 030000Z 29004KT CAVOK 12/10 Q1005=
201910030030 METAR LRCL 030030Z 10003KT 070V140 CAVOK 12/10 Q1004=
201910030100 METAR LRCL 030100Z 04003KT 010V070 CAVOK 12/10 Q1004=
201910030130 METAR LRCL 030130Z 20002KT CAVOK 12/10 Q1004=
201910030200 METAR LRCL 030200Z 06002KT CAVOK 12/10 Q1005=
201910030230 METAR LRCL 030230Z 11003KT 080V140 9999 FEW067 12/10 Q1004=
201910030300 METAR LRCL 030300Z 07003KT 010V120 CAVOK 12/10 Q1004=
201910030330 METAR LRCL 030330Z 05005KT 9999 FEW050CB 13/10 Q1004=
201910030400 METAR LRCL 030400Z 11003KT 040V180 9999 FEW050CB 13/10 Q1004=
201910030430 METAR LRCL 030430Z 13004KT 090V190 CAVOK 13/10 Q1004=
201910030500 METAR LRCL 030500Z VRB01KT CAVOK 13/11 Q1004=
201910030530 METAR LRCL 030530Z 25001KT CAVOK 14/11 Q1004=
201910030600 METAR LRCL 030600Z 00000KT CAVOK 14/10 Q1005=
201910030630 METAR LRCL 030630Z VRB02KT CAVOK 15/10 Q1005=
201910030700 METAR LRCL 030700Z VRB01KT CAVOK 17/10 Q1005=
201910030730 METAR LRCL 030730Z VRB01KT CAVOK 18/10 Q1005=
201910030800 METAR LRCL 030800Z 27003KT 220V320 CAVOK 19/11 Q1005=
201910030830 METAR LRCL 030830Z VRB02KT CAVOK 20/10 Q1005=
201910030900 METAR LRCL 030900Z 35004KT 310V040 9999 FEW060 21/10 Q1005=
201910030930 METAR LRCL 030930Z VRB04KT 9999 SCT058 21/10 Q1005=
201910031000 METAR LRCL 031000Z 30004KT 240V040 9999 FEW040CB BKN042 21/10
                        Q1005 RETS=
201910031030 METAR LRCL 031030Z 32009KT 9999 FEW040CB BKN045 20/12 Q1006=
201910031100 METAR LRCL 031100Z 29013KT 260V330 9999 -SHRA FEW029 FEW040CB
                        BKN065 17/13 Q1006=
201910031130 METAR LRCL 031130Z 28012KT 9999 -RA BKN030 16/12 Q1007 R07/19//95=
201910031200 METAR LRCL 031200Z 28011KT 250V320 9999 SCT030 BKN065 14/10
                        Q1007 R07/19//95=
201910031230 METAR LRCL 031230Z 27013KT 9999 BKN030 13/09 Q1008 R07/19//95=
201910031300 METAR LRCL 031300Z 28011KT 9999 BKN015 12/09 Q1009 R07/CLRD//=
201910031330 METAR LRCL 031330Z 27011KT 240V300 9999 BKN011 BKN054 12/08
                        Q1009=
201910031400 METAR LRCL 031400Z 29012KT 260V320 9999 BKN015 BKN050 12/08
                        Q1009=
201910031430 METAR LRCL 031430Z 28016KT 9999 BKN014 BKN039 12/08 Q1010=
201910031500 METAR LRCL 031500Z 27009KT 230V300 9999 BKN012 11/07 Q1011=
201910031530 METAR LRCL 031530Z 26009KT 230V300 9999 BKN012 11/07 Q1011=
201910031600 METAR LRCL 031600Z 28009KT 240V330 9999 BKN011 11/07 Q1011=
201910031630 METAR LRCL 031630Z 31005KT 260V010 9999 BKN013 11/07 Q1011=
201910031700 METAR LRCL 031700Z 30007KT 270V340 9999 BKN014 11/07 Q1011=
201910031730 METAR LRCL 031730Z 29011KT 9999 BKN013 11/07 Q1011=
201910031800 METAR LRCL 031800Z 30010KT 9999 SCT013 BKN066 10/06 Q1011=
201910031830 METAR LRCL 031830Z 32010KT 9999 SCT020 BKN065 10/06 Q1011=
201910031900 METAR LRCL 031900Z 32008KT 9999 BKN021 10/05 Q1012=
201910031930 METAR LRCL 031930Z 34010KT 9999 BKN020 10/05 Q1012=
201910032000 METAR LRCL 032000Z 33010KT 9999 SCT019 10/05 Q1012=
201910032030 METAR LRCL 032030Z 31007KT 280V350 9999 SCT018 10/05 Q1012=
201910032100 METAR LRCL 032100Z 30006KT 270V330 9999 FEW019 09/04 Q1013=
201910032130 METAR LRCL 032130Z 29005KT 9999 FEW040 08/04 Q1013=
201910032200 METAR LRCL 032200Z 30005KT 270V340 CAVOK 08/04 Q1013=
201910032230 METAR LRCL 032230Z 28006KT CAVOK 08/04 Q1013=
201910032300 METAR LRCL 032300Z 30004KT 270V330 CAVOK 08/04 Q1013=
201910032330 METAR LRCL 032330Z 32003KT CAVOK 08/04 Q1013=
201910040000 METAR LRCL 040000Z 30004KT 250V330 CAVOK 08/04 Q1012=
201910040030 METAR LRCL 040030Z 28004KT 250V320 9999 FEW057 08/04 Q1012=
201910040100 METAR LRCL 040100Z 30006KT 9999 FEW025 09/03 Q1012=
201910040130 METAR LRCL 040130Z 27010KT 9999 FEW025 09/03 Q1012=
201910040200 METAR LRCL 040200Z 28007KT 260V320 9999 FEW025 09/03 Q1012=
201910040230 METAR LRCL 040230Z 29010KT 9999 FEW028 09/03 Q1012=
201910040300 METAR LRCL 040300Z 26007KT 230V290 9999 SCT030 08/03 Q1012=
201910040330 METAR LRCL 040330Z 28008KT 9999 SCT030 08/03 Q1012=
201910040400 METAR LRCL 040400Z 28007KT 260V320 9999 FEW031 08/03 Q1013=
201910040430 METAR LRCL 040430Z 28003KT CAVOK 08/03 Q1012=
201910040500 METAR COR LRCL 040500Z 29004KT 260V320 9999 FEW060CB 08/03
                        Q1012=
201910040530 METAR LRCL 040530Z 28003KT 240V320 9999 FEW060CB 09/03 Q1013=
201910040600 METAR COR LRCL 040600Z 28006KT 9999 -SHRA FEW064CB SCT065
                        09/03 Q1013=
201910040630 METAR LRCL 040630Z 27005KT 9999 FEW036CB 09/03 Q1013=
201910040700 METAR LRCL 040700Z 28003KT 250V310 9999 FEW040CB 09/03 Q1013=
201910040730 METAR LRCL 040730Z 31003KT 270V350 9999 -RA FEW050 09/03
                        Q1013=
201910040800 METAR LRCL 040800Z VRB02KT 9999 FEW050 10/03 Q1013=
201910040830 METAR LRCL 040830Z 00000KT 9999 FEW050 10/03 Q1013=
201910040900 METAR LRCL 040900Z 30003KT 230V360 9999 FEW050 10/03 Q1014=
201910040930 METAR LRCL 040930Z VRB01KT 9999 SCT027 10/02 Q1014=
201910041000 METAR LRCL 041000Z VRB02KT 9999 SCT026 11/02 Q1013=
201910041030 METAR LRCL 041030Z VRB02KT 9999 FEW027 12/03 Q1013=
201910041100 METAR LRCL 041100Z VRB01KT 9999 FEW027 12/03 Q1012=
201910041130 METAR LRCL 041130Z VRB01KT 9999 FEW030 12/03 Q1012=
201910041200 METAR LRCL 041200Z VRB02KT 9999 FEW030 12/03 Q1012=
201910041230 METAR LRCL 041230Z VRB02KT 9999 FEW030 12/02 Q1012=
201910041300 METAR LRCL 041300Z VRB01KT 9999 FEW040 13/02 Q1011=
201910041330 METAR LRCL 041330Z 13003KT 100V180 9999 SCT055 12/04 Q1011=
201910041400 METAR LRCL 041400Z VRB02KT 9999 SCT050 13/03 Q1011=
201910041430 METAR LRCL 041430Z 06003KT 360V090 9999 FEW038 SCT050 12/03
                        Q1011=
201910041500 METAR LRCL 041500Z 10005KT 050V130 9999 FEW037 SCT052 12/05
                        Q1011=
201910041530 METAR LRCL 041530Z 15006KT 9999 FEW038 12/05 Q1011=
201910041600 METAR LRCL 041600Z 15006KT 9999 FEW036 11/05 Q1011=
201910041630 METAR LRCL 041630Z 16006KT 9999 FEW036 10/05 Q1011=
201910041700 METAR LRCL 041700Z VRB02KT 9999 FEW040 10/06 Q1011=
201910041730 METAR LRCL 041730Z VRB01KT 9999 FEW050 09/05 Q1011=
201910041800 METAR LRCL 041800Z 00000KT 9999 FEW055 08/05 Q1011=
201910041830 METAR LRCL 041830Z 07003KT 9999 SCT055 08/05 Q1011=
201910041900 METAR LRCL 041900Z VRB01KT 9999 SCT058 08/05 Q1012=
201910041930 METAR LRCL 041930Z VRB01KT 9999 BKN055 08/06 Q1012=
201910042000 METAR LRCL 042000Z 27003KT 9999 BKN055 09/05 Q1012=
201910042030 METAR LRCL 042030Z VRB01KT 9999 BKN055 09/05 Q1012=
201910042100 METAR LRCL 042100Z 09004KT 9999 BKN055 08/06 Q1011=
201910042130 METAR LRCL 042130Z 07002KT 9999 BKN058 08/06 Q1011=
201910042200 METAR LRCL 042200Z 12002KT 9999 SCT058 08/05 Q1011=
201910042230 METAR LRCL 042230Z 09003KT 9999 SCT058 07/05 Q1011=
201910042300 METAR LRCL 042300Z 11003KT 9999 MIFG FEW060 06/05 Q1011=
201910042330 METAR LRCL 042330Z 07004KT 9999 FEW060 05/04 Q1011=
201910050000 METAR LRCL 050000Z 00000KT 9999 FEW060 05/04 Q1011=
201910050030 METAR LRCL 050030Z VRB01KT 9999 MIFG FEW060 05/04 Q1011=
201910050100 METAR LRCL 050100Z 11001KT 9999 SCT060 05/04 Q1011=
201910050130 METAR LRCL 050130Z 10002KT 9999 SCT060 04/03 Q1011=
201910050200 METAR LRCL 050200Z 09002KT 9999 BKN060 04/03 Q1011=
201910050230 METAR LRCL 050230Z 10002KT 9999 BKN060 04/04 Q1011=
201910050300 METAR LRCL 050300Z 08003KT 7000 BKN060 04/04 Q1011=
201910050330 METAR LRCL 050330Z 08003KT 7000 BKN060 05/04 Q1011=
201910050400 METAR LRCL 050400Z 10003KT 7000 BKN055 05/04 Q1011=
201910050430 METAR LRCL 050430Z 08003KT 7000 BKN055 05/04 Q1010=
201910050500 METAR LRCL 050500Z 06002KT 6000 SCT060 05/04 Q1010=
201910050530 METAR LRCL 050530Z 10003KT 6000 SCT060 05/04 Q1010=
201910050600 METAR LRCL 050600Z 07003KT 7000 SCT060 06/05 Q1010=
201910050630 METAR LRCL 050630Z VRB01KT 9999 FEW065 08/05 Q1010=
201910050700 METAR LRCL 050700Z VRB02KT CAVOK 09/04 Q1010=
201910050730 METAR LRCL 050730Z 08005KT 9999 FEW055 09/05 Q1010=
201910050800 METAR LRCL 050800Z 08007KT 9999 FEW030 09/05 Q1010=
201910050830 METAR LRCL 050830Z 09006KT 9999 FEW033 10/05 Q1010=
201910050900 METAR LRCL 050900Z 08007KT 050V110 9999 FEW036 11/04 Q1010=
201910050930 METAR COR LRCL 050930Z 09003KT 040V140 9999 FEW040 13/04
                        Q1010=
201910051000 METAR LRCL 051000Z 09003KT 040V150 9999 FEW046 13/01 Q1010=
201910051030 METAR LRCL 051030Z 36005KT 300V050 9999 FEW046 14/01 Q1009=
201910051100 METAR LRCL 051100Z 02004KT 300V100 9999 SCT048 13/00 Q1009=
201910051130 METAR LRCL 051130Z 02004KT 9999 SCT048 14/01 Q1009=
201910051200 METAR LRCL 051200Z 02005KT 330V070 9999 FEW055 14/01 Q1009=
201910051230 METAR LRCL 051230Z VRB02KT 9999 FEW056 14/01 Q1009=
201910051300 METAR LRCL 051300Z 04003KT 9999 FEW064 14/01 Q1009=
201910051330 METAR COR LRCL 051330Z VRB04KT 9999 FEW067 15/02 Q1009=
201910051400 METAR LRCL 051400Z VRB02KT 9999 FEW065 15/02 Q1009=
201910051430 METAR LRCL 051430Z VRB02KT 9999 FEW065 14/02 Q1009=
201910051500 METAR LRCL 051500Z VRB02KT 9999 FEW065 13/03 Q1009=
201910051530 METAR LRCL 051530Z 13004KT 9999 FEW067 13/04 Q1009=
201910051600 METAR LRCL 051600Z 14003KT 9999 SCT067 12/04 Q1009=
201910051630 METAR LRCL 051630Z 00000KT 9999 FEW067 11/05 Q1009=
201910051700 METAR LRCL 051700Z VRB01KT 9999 FEW059 11/04 Q1009=
201910051730 METAR LRCL 051730Z 30002KT 9999 BKN062 11/05 Q1009=
201910051800 METAR LRCL 051800Z VRB01KT 9999 BKN062 10/04 Q1009=
201910051830 METAR LRCL 051830Z VRB01KT 9999 BKN058 10/04 Q1009=
201910051900 METAR LRCL 051900Z VRB01KT 9999 BKN061 10/04 Q1010=
201910051930 METAR LRCL 051930Z 00000KT 9999 BKN058 10/05 Q1010=
201910052000 METAR LRCL 052000Z 11001KT 9999 OVC056 10/05 Q1010=
201910052030 METAR LRCL 052030Z 08001KT 9999 FEW044 OVC056 10/05 Q1010=
201910052100 METAR LRCL 052100Z 00000KT 9999 -RA SCT041 OVC060 10/06 Q1010=
201910052130 METAR LRCL 052130Z 25001KT 9999 OVC050 10/06 Q1009 R07/19//95=
201910052200 METAR LRCL 052200Z VRB02KT 9999 -RA OVC050 10/06 Q1009 R07/19//95=
201910052230 METAR LRCL 052230Z 29004KT 260V330 9999 -RA OVC048 10/07
                        Q1009 R07/19//95=
201910052300 METAR LRCL 052300Z 31003KT 9999 -RA OVC047 09/07 Q1009 R07/29//95=
201910052330 METAR LRCL 052330Z 00000KT 9999 BKN047 09/07 Q1009 R07/29//95=
201910060000 METAR LRCL 060000Z 11002KT 9999 BKN044 09/07 Q1009 R07/29//95=
201910060030 METAR LRCL 060030Z 00000KT 9999 BKN048 09/07 Q1009 R07/29//95=
201910060100 METAR LRCL 060100Z 05002KT 9999 OVC049 09/07 Q1009 R07/29//95=
201910060130 METAR LRCL 060130Z 02003KT 350V050 9999 BKN055 09/07 Q1008
                        R07/29//95=
201910060200 METAR LRCL 060200Z 07001KT 9999 BKN048 08/07 Q1009 R07/29//95=
201910060230 METAR LRCL 060230Z VRB02KT 9999 -RA OVC043 08/07 Q1008 R07/19//95=
201910060300 METAR LRCL 060300Z 04003KT 360V080 9999 OVC042 08/06 Q1008
                        R07/19//95=
201910060330 METAR LRCL 060330Z 05002KT 9999 -RA OVC042 08/06 Q1009 R07/19//95=
201910060400 METAR LRCL 060400Z VRB02KT 9000 -RA OVC042 08/06 Q1009 R07/29//95=
201910060430 METAR LRCL 060430Z VRB02KT 9999 -RA OVC045 08/07 Q1009 R07/29//95=
201910060500 METAR LRCL 060500Z 11002KT 9999 -RA BKN046 08/07 Q1009 R07/29//95=
201910060530 METAR LRCL 060530Z 06001KT 9999 -RA BKN046 08/07 Q1009 R07/29//95=
201910060600 METAR LRCL 060600Z VRB02KT 9999 -RA BKN053 08/07 Q1009 R07/29//95=
201910060630 METAR LRCL 060630Z 08004KT 9999 BKN049 09/07 Q1009 R07/29//95=
201910060700 METAR LRCL 060700Z VRB02KT 9999 FEW007 BKN050 09/07 Q1010
                        R07/29//95=
201910060730 METAR LRCL 060730Z VRB01KT 9999 BKN006 OVC047 09/08 Q1010
                        R07/29//95=
201910060800 METAR LRCL 060800Z VRB01KT 9999 BKN006 OVC057 09/07 Q1010
                        R07/19//95=
201910060830 METAR LRCL 060830Z 00000KT 9999 SCT006 OVC044 10/07 Q1010
                        R07/19//95=
201910060900 METAR LRCL 060900Z VRB01KT 9999 FEW006 OVC041 10/08 Q1010
                        R07/19//95=
201910060930 METAR LRCL 060930Z VRB01KT 9999 -RA FEW010 SCT027 OVC045
                        11/07 Q1010 R07/19//95=
201910061000 METAR COR LRCL 061000Z VRB04KT 9999 -RA BKN020 OVC040 10/08
                        Q1010 R07/29//95=
201910061030 METAR LRCL 061030Z 31007KT 280V340 9999 BKN013 OVC040 10/06
                        Q1011 R07/29//95=
201910061100 METAR LRCL 061100Z 29009KT 9999 SCT015 BKN027 OVC040 10/06
                        Q1011 R07/29//95=
201910061130 METAR LRCL 061130Z 29009KT 250V320 9999 BKN015 OVC039 09/06
                        Q1011 R07/29//95=
201910061200 METAR COR LRCL 061200Z 28014KT 9999 BKN017 10/06 Q1011 R07/CLRD//=
201910061230 METAR LRCL 061230Z 28015KT 9999 BKN017 BKN061 10/05 Q1012
                        R07/CLRD//=
201910061300 METAR LRCL 061300Z 29018G28KT 9999 SCT016 BKN036 09/05 Q1012=
201910061330 METAR LRCL 061330Z 30017KT 9999 BKN014 BKN037 09/05 Q1013=
201910061400 METAR LRCL 061400Z 29016KT 9999 SCT014 BKN066 09/04 Q1013=
201910061430 METAR LRCL 061430Z 29012KT 9999 BKN020 09/04 Q1013=
201910061500 METAR LRCL 061500Z 29011KT 260V320 9999 BKN026 09/04 Q1013=
201910061530 METAR LRCL 061530Z 29012KT 9999 BKN027 09/03 Q1013=
201910061600 METAR COR LRCL 061600Z 30014KT 9999 BKN027 08/03 Q1014=
201910061630 METAR LRCL 061630Z 30012KT 9999 FEW019 BKN026 08/02 Q1014=
201910061700 METAR LRCL 061700Z 31010KT 9999 -RA BKN027 OVC058 08/03 Q1015=
201910061730 METAR LRCL 061730Z 30010KT 9999 SCT026 OVC062 08/02 Q1015=
201910061800 METAR LRCL 061800Z 31009KT 280V340 9999 SCT026 OVC062 08/02
                        Q1015=
201910061830 METAR LRCL 061830Z 34005KT 310V010 9999 SCT026 OVC064 08/02
                        Q1015=
201910061900 METAR LRCL 061900Z 33004KT 9999 FEW026 OVC066 07/02 Q1015=
201910061930 METAR LRCL 061930Z 22004KT 9999 FEW030 BKN067 07/02 Q1015=
201910062000 METAR LRCL 062000Z 25005KT 9999 FEW030 SCT047 BKN068 07/03
                        Q1015=
201910062030 METAR LRCL 062030Z 29006KT 9999 SCT051 BKN068 08/03 Q1015=
201910062100 METAR LRCL 062100Z 27005KT 240V300 9999 SCT044 BKN067 07/03
                        Q1015=
201910062130 METAR LRCL 062130Z 29004KT 260V330 9999 SCT050 BKN067 07/03
                        Q1015=
201910062200 METAR LRCL 062200Z 30005KT 9999 FEW050 BKN067 06/03 Q1014=
201910062230 METAR LRCL 062230Z 26005KT 9999 BKN067 05/03 Q1015=
201910062300 METAR COR LRCL 062300Z 27008KT 9999 SCT067 06/02 Q1015=
201910062330 METAR LRCL 062330Z 25005KT CAVOK 04/02 Q1015=
201910070000 METAR LRCL 070000Z 25005KT CAVOK 04/02 Q1015=
201910070030 METAR LRCL 070030Z AUTO 23003KT 9999 NCD 04/02 Q1014=
201910070100 METAR LRCL 070100Z VRB01KT CAVOK 04/02 Q1015=
201910070130 METAR LRCL 070130Z AUTO VRB01KT 9999 NCD 03/02 Q1015=
201910070200 METAR COR LRCL 070200Z 22003KT CAVOK 02/01 Q1015=
201910070230 METAR LRCL 070230Z VRB01KT CAVOK 02/01 Q1015=
201910070300 METAR LRCL 070300Z 26005KT CAVOK 02/01 Q1015=
201910070330 METAR COR LRCL 070330Z 26005KT CAVOK 02/01 Q1015=
201910070400 METAR LRCL 070400Z 26003KT CAVOK 02/00 Q1015=
201910070430 METAR COR LRCL 070430Z 27005KT CAVOK 01/00 Q1015=
201910070500 METAR LRCL 070500Z 28005KT CAVOK 02/00 Q1015=
201910070530 METAR LRCL 070530Z VRB01KT CAVOK 02/01 Q1016=
201910070600 METAR LRCL 070600Z 09001KT 9999 3000E VCFG NSC 03/01 Q1016=
201910070630 METAR LRCL 070630Z VRB02KT 9999 3000E VCFG NSC 04/02 Q1016=
201910070700 METAR LRCL 070700Z VRB02KT CAVOK 06/01 Q1016=
201910070730 METAR LRCL 070730Z VRB02KT 9999 FEW015 08/02 Q1016=
201910070800 METAR LRCL 070800Z VRB02KT 9999 FEW018 08/02 Q1016=
201910070830 METAR LRCL 070830Z VRB02KT 9999 FEW022 09/02 Q1016=
201910070900 METAR LRCL 070900Z VRB03KT 9999 SCT028 10/02 Q1016=
201910070930 METAR LRCL 070930Z VRB02KT 9999 SCT030 11/00 Q1016=
201910071000 METAR LRCL 071000Z VRB03KT 9999 BKN033 11/00 Q1016=
201910071030 METAR LRCL 071030Z 32005KT 9999 SCT038 11/M01 Q1016=
201910071100 METAR LRCL 071100Z 32003KT 9999 SCT044 12/M03 Q1016=
201910071130 METAR LRCL 071130Z 36006KT 9999 SCT048 11/M02 Q1015=
201910071200 METAR LRCL 071200Z 36007KT 9999 FEW050 12/M03 Q1016=
201910071230 METAR LRCL 071230Z 34010KT 9999 FEW050 12/M03 Q1016=
201910071300 METAR LRCL 071300Z 29009KT 9999 FEW050 12/M03 Q1016=
201910071330 METAR LRCL 071330Z 34006KT 9999 FEW055 12/M02 Q1016=
201910071400 METAR LRCL 071400Z 33007KT 9999 FEW055 11/M01 Q1016=
201910071430 METAR LRCL 071430Z 34009KT 9999 FEW055 11/M02 Q1016=
201910071500 METAR LRCL 071500Z 33007KT CAVOK 11/M02 Q1017=
201910071530 METAR LRCL 071530Z 33007KT CAVOK 09/M02 Q1017=
201910071600 METAR LRCL 071600Z 33007KT CAVOK 09/M02 Q1017=
201910071630 METAR LRCL 071630Z 34006KT CAVOK 08/M02 Q1017=
201910071700 METAR LRCL 071700Z 32006KT CAVOK 08/M03 Q1018=
201910071730 METAR LRCL 071730Z 29005KT CAVOK 06/M02 Q1018=
201910071800 METAR LRCL 071800Z 28006KT CAVOK 06/M02 Q1018=
201910071830 METAR LRCL 071830Z 28006KT CAVOK 06/M02 Q1018=
201910071900 METAR LRCL 071900Z 27004KT 240V300 CAVOK 05/M02 Q1019=
201910071930 METAR LRCL 071930Z VRB02KT CAVOK 04/M02 Q1019=
201910072000 METAR LRCL 072000Z 29004KT CAVOK 05/M01 Q1019=
201910072030 METAR LRCL 072030Z 27005KT CAVOK 05/M01 Q1019=
201910072100 METAR LRCL 072100Z 27005KT 9999 SCT066 04/M01 Q1019=
201910072130 METAR LRCL 072130Z 27006KT CAVOK 04/M01 Q1019=
201910072200 METAR LRCL 072200Z 28003KT 230V320 9999 BKN056 03/M01 Q1019=
201910072230 METAR LRCL 072230Z 26006KT 9999 BKN055 03/M01 Q1019=
201910072300 METAR LRCL 072300Z 30003KT 250V330 9999 FEW054 03/M01 Q1020=
201910072330 METAR LRCL 072330Z 26004KT 9999 FEW049 03/M01 Q1020=
201910080000 METAR LRCL 080000Z 27005KT CAVOK 02/M01 Q1020=
201910080030 METAR LRCL 080030Z 27004KT CAVOK 02/M02 Q1020=
201910080100 METAR LRCL 080100Z 28005KT CAVOK 01/M02 Q1020=
201910080130 METAR LRCL 080130Z 28004KT CAVOK 01/M02 Q1021=
201910080200 METAR LRCL 080200Z 27005KT 9999 FEW049 01/M03 Q1021=
201910080230 METAR LRCL 080230Z 30005KT 260V320 CAVOK 00/M03 Q1021=
201910080300 METAR LRCL 080300Z VRB02KT CAVOK M00/M03 Q1021=
201910080330 METAR LRCL 080330Z VRB02KT CAVOK M01/M03 Q1022=
201910080400 METAR LRCL 080400Z 09003KT CAVOK M02/M03 Q1022=
201910080430 METAR LRCL 080430Z 00000KT CAVOK M02/M03 Q1022=
201910080500 METAR LRCL 080500Z 00000KT CAVOK M01/M03 Q1022=
201910080530 METAR LRCL 080530Z 00000KT CAVOK 01/M02 Q1022=
201910080600 METAR LRCL 080600Z 26004KT CAVOK 01/M02 Q1023=
201910080630 METAR LRCL 080630Z 24003KT 200V280 CAVOK 02/M02 Q1023=
201910080700 METAR LRCL 080700Z VRB02KT CAVOK 04/M02 Q1023=
201910080730 METAR LRCL 080730Z VRB02KT CAVOK 06/M03 Q1023=
201910080800 METAR LRCL 080800Z VRB01KT CAVOK 08/M04 Q1023=
201910080830 METAR LRCL 080830Z VRB01KT CAVOK 08/M04 Q1023=
201910080900 METAR LRCL 080900Z 09003KT 020V150 CAVOK 10/M05 Q1023=
201910080930 METAR LRCL 080930Z VRB02KT CAVOK 10/M05 Q1023=
201910081000 METAR LRCL 081000Z 10003KT 030V150 CAVOK 11/M06 Q1023=
201910081030 METAR LRCL 081030Z VRB02KT CAVOK 12/M05 Q1022=
201910081100 METAR LRCL 081100Z 36004KT 320V070 CAVOK 12/M05 Q1022=
201910081130 METAR LRCL 081130Z 03005KT 350V120 CAVOK 12/M06 Q1022=
201910081200 METAR LRCL 081200Z 02004KT 300V090 CAVOK 12/M05 Q1021=
201910081230 METAR COR LRCL 081230Z 02004KT 300V090 CAVOK 12/M05 Q1021=
201910081300 METAR LRCL 081300Z 06005KT 360V110 CAVOK 13/M06 Q1021=
201910081330 METAR LRCL 081330Z 03003KT 300V110 CAVOK 13/M05 Q1021=
201910081400 METAR LRCL 081400Z 12003KT 070V150 CAVOK 13/M06 Q1021=
201910081430 METAR LRCL 081430Z VRB01KT CAVOK 13/M05 Q1021=
201910081500 METAR LRCL 081500Z 10002KT CAVOK 12/M04 Q1021=
201910081530 METAR LRCL 081530Z 09004KT CAVOK 11/M03 Q1021=
201910081600 METAR LRCL 081600Z 12004KT CAVOK 10/M04 Q1021=
201910081630 METAR LRCL 081630Z 11003KT CAVOK 08/M02 Q1021=
201910081700 METAR LRCL 081700Z 33001KT CAVOK 07/M01 Q1021=
201910081730 METAR LRCL 081730Z 33001KT CAVOK 07/M00 Q1021=
201910081800 METAR LRCL 081800Z 08003KT CAVOK 06/M01 Q1020=
201910081830 METAR LRCL 081830Z 06004KT CAVOK 05/M01 Q1021=
201910081900 METAR LRCL 081900Z 05005KT CAVOK 06/M01 Q1021=
201910081930 METAR LRCL 081930Z 04006KT CAVOK 05/M01 Q1021=
201910082000 METAR LRCL 082000Z 11004KT CAVOK 04/M01 Q1021=
201910082030 METAR LRCL 082030Z 10004KT CAVOK 03/M01 Q1021=
201910082100 METAR LRCL 082100Z VRB01KT CAVOK 03/M01 Q1021=
201910082130 METAR LRCL 082130Z VRB01KT CAVOK 03/M01 Q1021=
201910082200 METAR LRCL 082200Z VRB02KT CAVOK 02/M01 Q1021=
201910082230 METAR LRCL 082230Z 00000KT CAVOK 03/M01 Q1021=
201910082300 METAR LRCL 082300Z VRB01KT CAVOK 02/M01 Q1021=
201910082330 METAR LRCL 082330Z 10003KT CAVOK 02/M01 Q1021=
201910090000 METAR LRCL 090000Z 10002KT CAVOK 02/M01 Q1021=
201910090030 METAR LRCL 090030Z 00000KT CAVOK 01/M01 Q1021=
201910090100 METAR LRCL 090100Z 00000KT CAVOK 01/M01 Q1021=
201910090130 METAR LRCL 090130Z 00000KT CAVOK 01/M01 Q1021=
201910090200 METAR LRCL 090200Z 00000KT CAVOK 01/M01 Q1020=
201910090230 METAR LRCL 090230Z 00000KT CAVOK 01/M01 Q1020=
201910090300 METAR LRCL 090300Z 10002KT CAVOK 00/M01 Q1020=
201910090330 METAR LRCL 090330Z 05002KT CAVOK 01/M01 Q1020=
201910090400 METAR LRCL 090400Z 09004KT CAVOK 01/M01 Q1020=
201910090430 METAR LRCL 090430Z 11002KT CAVOK 00/M01 Q1020=
201910090500 METAR LRCL 090500Z VRB01KT CAVOK 02/M00 Q1020=
201910090530 METAR LRCL 090530Z 10001KT CAVOK 02/M00 Q1020=
201910090600 METAR LRCL 090600Z VRB02KT CAVOK 04/01 Q1020=
201910090630 METAR LRCL 090630Z 06006KT CAVOK 06/01 Q1020=
201910090700 METAR LRCL 090700Z 06006KT CAVOK 07/02 Q1020=
201910090730 METAR COR LRCL 090730Z 09007KT 060V120 CAVOK 09/02 Q1020=
201910090800 METAR LRCL 090800Z 08008KT CAVOK 10/03 Q1020=
201910090830 METAR LRCL 090830Z 07008KT 040V100 CAVOK 11/02 Q1020=
201910090900 METAR LRCL 090900Z 08007KT 030V120 CAVOK 12/02 Q1020=
201910090930 METAR LRCL 090930Z 06006KT 010V120 CAVOK 13/01 Q1020=
201910091000 METAR LRCL 091000Z 07005KT 020V110 CAVOK 14/01 Q1019=
201910091030 METAR LRCL 091030Z VRB04KT CAVOK 14/02 Q1019=
201910091100 METAR LRCL 091100Z VRB03KT CAVOK 16/01 Q1018=
201910091130 METAR LRCL 091130Z VRB03KT CAVOK 16/01 Q1018=
201910091200 METAR LRCL 091200Z 10004KT 360V130 CAVOK 16/02 Q1018=
201910091230 METAR LRCL 091230Z 10006KT 050V150 CAVOK 17/02 Q1017=
201910091300 METAR LRCL 091300Z 11005KT 050V170 CAVOK 18/02 Q1017=
201910091330 METAR LRCL 091330Z 10006KT 060V130 CAVOK 18/02 Q1017=
201910091400 METAR LRCL 091400Z 11006KT CAVOK 18/02 Q1016=
201910091430 METAR LRCL 091430Z 11005KT 080V140 CAVOK 18/02 Q1016=
201910091500 METAR LRCL 091500Z 12005KT CAVOK 17/03 Q1016=
201910091530 METAR LRCL 091530Z 13003KT CAVOK 16/02 Q1016=
201910091600 METAR LRCL 091600Z VRB01KT CAVOK 14/03 Q1016=
201910091630 METAR LRCL 091630Z 00000KT CAVOK 12/03 Q1016=
201910091700 METAR LRCL 091700Z 00000KT CAVOK 12/03 Q1016=
201910091730 METAR LRCL 091730Z 04004KT CAVOK 11/03 Q1016=
201910091800 METAR LRCL 091800Z 10003KT CAVOK 09/04 Q1016=
201910091830 METAR LRCL 091830Z 25003KT 210V280 CAVOK 09/04 Q1016=
201910091900 METAR LRCL 091900Z 01001KT CAVOK 09/04 Q1015=
201910091930 METAR LRCL 091930Z 12003KT 100V160 CAVOK 07/04 Q1015=
201910092000 METAR LRCL 092000Z 00000KT CAVOK 07/04 Q1015=
201910092030 METAR LRCL 092030Z 24003KT CAVOK 06/03 Q1015=
201910092100 METAR LRCL 092100Z 00000KT 8000 NSC 05/03 Q1015=
201910092130 METAR LRCL 092130Z 07001KT 7000 NSC 05/03 Q1015=
201910092200 METAR LRCL 092200Z VRB02KT 7000 NSC 05/03 Q1014=
201910092230 METAR LRCL 092230Z 00000KT 7000 NSC 05/03 Q1015=
201910092300 METAR LRCL 092300Z VRB01KT 6000 NSC 04/03 Q1015=
201910092330 METAR LRCL 092330Z 09003KT 6000 NSC 04/02 Q1015=
201910100000 METAR LRCL 100000Z 00000KT 5000 BR NSC 04/02 Q1014=
201910100030 METAR LRCL 100030Z VRB02KT 5000 BR NSC 04/02 Q1014=
201910100100 METAR LRCL 100100Z VRB01KT 5000 BR NSC 03/02 Q1014=
201910100130 METAR LRCL 100130Z VRB01KT 6000 NSC 03/02 Q1014=
201910100200 METAR LRCL 100200Z 00000KT 6000 NSC 03/02 Q1015=
201910100230 METAR LRCL 100230Z 08001KT 5000 BR NSC 03/02 Q1015=
201910100300 METAR LRCL 100300Z 10004KT 6000 NSC 03/02 Q1015=
201910100330 METAR LRCL 100330Z VRB01KT 6000 NSC 04/02 Q1015=
201910100400 METAR LRCL 100400Z 34003KT 6000 NSC 04/03 Q1015=
201910100430 METAR LRCL 100430Z 20004KT 160V290 6000 SCT057 05/03 Q1014=
201910100500 METAR LRCL 100500Z VRB02KT 8000 NSC 06/04 Q1015=
201910100530 METAR COR LRCL 100530Z 10001KT 8000 NSC 07/05 Q1015=
201910100600 METAR LRCL 100600Z 04002KT CAVOK 07/04 Q1016=
201910100630 METAR LRCL 100630Z VRB01KT CAVOK 09/05 Q1016=
201910100700 METAR LRCL 100700Z VRB02KT CAVOK 10/05 Q1016=
201910100730 METAR LRCL 100730Z 00000KT CAVOK 11/04 Q1016=
201910100800 METAR LRCL 100800Z VRB01KT CAVOK 14/06 Q1016=
201910100830 METAR LRCL 100830Z 09003KT 050V130 CAVOK 16/06 Q1016=
201910100900 METAR LRCL 100900Z 16003KT 110V210 CAVOK 16/06 Q1016=
201910100930 METAR LRCL 100930Z 33007KT CAVOK 18/02 Q1016=
201910101000 METAR LRCL 101000Z 31009KT 280V340 CAVOK 20/02 Q1016=
201910101030 METAR LRCL 101030Z 31006KT 270V350 CAVOK 19/01 Q1016=
201910101100 METAR LRCL 101100Z 31010KT 280V340 CAVOK 19/03 Q1016=
201910101130 METAR LRCL 101130Z 32005KT 270V010 CAVOK 18/03 Q1016=
201910101200 METAR LRCL 101200Z 35005KT 320V020 CAVOK 18/03 Q1016=
201910101230 METAR LRCL 101230Z 35007KT CAVOK 18/04 Q1016=
201910101300 METAR LRCL 101300Z 33005KT 280V010 CAVOK 18/03 Q1016=
201910101330 METAR LRCL 101330Z 35004KT 290V010 CAVOK 17/04 Q1016=
201910101400 METAR LRCL 101400Z 33005KT CAVOK 17/04 Q1017=
201910101430 METAR LRCL 101430Z 35007KT 9999 FEW050CB 16/04 Q1017=
201910101500 METAR LRCL 101500Z VRB02KT 9999 FEW050CB 16/04 Q1017=
201910101530 METAR LRCL 101530Z VRB01KT 9999 FEW050CB 16/04 Q1017=
201910101600 METAR COR LRCL 101600Z 33003KT 270V030 9999 -RA SCT046 BKN068
                        15/04 Q1017=
201910101630 METAR LRCL 101630Z 34013KT 9999 -RA SCT046 OVC067 14/05 Q1018=
201910101700 METAR LRCL 101700Z 34004KT 9999 FEW050 BKN067 14/05 Q1018=
201910101730 METAR LRCL 101730Z VRB02KT 9999 FEW050 SCT067 14/05 Q1019=
201910101800 METAR LRCL 101800Z 26006KT 230V300 9999 FEW050 BKN067 13/05
                        Q1018=
201910101830 METAR LRCL 101830Z 29003KT 9999 FEW055 BKN067 13/05 Q1018=
201910101900 METAR LRCL 101900Z 24008KT 9999 FEW056 BKN067 13/05 Q1018=
201910101930 METAR LRCL 101930Z 29004KT 9999 FEW054 SCT067 12/05 Q1019=
201910102000 METAR COR LRCL 102000Z 36003KT 9999 SCT067 13/04 Q1019=
201910102030 METAR LRCL 102030Z VRB02KT 9999 SCT067 12/05 Q1019=
201910102100 METAR LRCL 102100Z VRB01KT 9999 FEW067 11/05 Q1019=
201910102130 METAR LRCL 102130Z VRB02KT 9999 FEW067 11/05 Q1020=
201910102200 METAR LRCL 102200Z VRB01KT CAVOK 10/05 Q1020=
201910102230 METAR LRCL 102230Z VRB02KT CAVOK 08/05 Q1021=
201910102300 METAR LRCL 102300Z VRB02KT CAVOK 08/04 Q1021=
201910102330 METAR LRCL 102330Z 22003KT CAVOK 08/04 Q1021=
201910110000 METAR COR LRCL 110000Z 23003KT 9999 SCT064 09/05 Q1022=
201910110030 METAR LRCL 110030Z 26003KT 220V280 9999 BKN055 09/05 Q1021=
201910110100 METAR COR LRCL 110100Z VRB02KT 9999 SCT050 08/05 Q1022=
201910110130 METAR LRCL 110130Z 26004KT 230V300 9999 BKN050 08/04 Q1022=
201910110200 METAR LRCL 110200Z 27004KT 9999 SCT052 07/04 Q1022=
201910110230 METAR LRCL 110230Z 26008KT 9999 FEW052 08/04 Q1022=
201910110300 METAR LRCL 110300Z 26005KT 9999 SCT066 08/04 Q1022=
201910110330 METAR LRCL 110330Z AUTO 27004KT 240V310 9999 BKN063/// 08/04
                        Q1023=
201910110400 METAR LRCL 110400Z VRB02KT 9999 BKN063 07/04 Q1023=
201910110430 METAR LRCL 110430Z 21004KT 9999 FEW053 07/04 Q1023=
201910110500 METAR LRCL 110500Z VRB01KT 9999 FEW058 07/04 Q1024=
201910110530 METAR LRCL 110530Z VRB02KT CAVOK 08/04 Q1024=
201910110600 METAR LRCL 110600Z 14001KT CAVOK 09/04 Q1024=
201910110630 METAR LRCL 110630Z VRB02KT CAVOK 10/05 Q1024=
201910110700 METAR LRCL 110700Z 25006KT CAVOK 12/05 Q1025=
201910110730 METAR LRCL 110730Z 25009KT CAVOK 13/04 Q1025=
201910110800 METAR COR LRCL 110800Z 26008KT 9999 SCT033 14/02 Q1025=
201910110830 METAR LRCL 110830Z 29007KT 9999 BKN033 15/02 Q1025=
201910110900 METAR LRCL 110900Z 30007KT 9999 SCT040 15/02 Q1026=
201910110930 METAR LRCL 110930Z 31008KT 9999 SCT044 15/02 Q1026=
201910111000 METAR LRCL 111000Z 30012KT 9999 SCT048 16/01 Q1026=
201910111030 METAR LRCL 111030Z 31010KT 270V340 9999 FEW050 16/01 Q1025=
201910111100 METAR LRCL 111100Z 29010KT 9999 FEW050 17/00 Q1025=
201910111130 METAR LRCL 111130Z 29010KT 9999 FEW050 17/00 Q1025=
201910111200 METAR LRCL 111200Z 32012KT 9999 FEW050 17/00 Q1025=
201910111230 METAR LRCL 111230Z 31010KT 9999 FEW050 17/00 Q1025=
201910111300 METAR LRCL 111300Z 31009KT 9999 FEW050 16/01 Q1025=
201910111330 METAR LRCL 111330Z 32009KT 9999 FEW055 17/01 Q1025=
201910111400 METAR LRCL 111400Z 33007KT 9999 FEW055 16/01 Q1025=
201910111430 METAR LRCL 111430Z 35006KT 9999 FEW055 16/01 Q1025=
201910111500 METAR LRCL 111500Z 35007KT CAVOK 15/01 Q1025=
201910111530 METAR LRCL 111530Z 36004KT CAVOK 14/02 Q1025=
201910111600 METAR LRCL 111600Z 04003KT CAVOK 12/02 Q1025=
201910111630 METAR LRCL 111630Z VRB02KT CAVOK 10/02 Q1025=
201910111700 METAR LRCL 111700Z 28003KT 220V010 CAVOK 10/02 Q1025=
201910111730 METAR COR LRCL 111730Z VRB02KT CAVOK 09/03 Q1025=
201910111800 METAR LRCL 111800Z 27003KT 200V300 CAVOK 09/03 Q1025=
201910111830 METAR LRCL 111830Z 27002KT CAVOK 08/03 Q1026=
201910111900 METAR COR LRCL 111900Z VRB02KT CAVOK 07/03 Q1026=
201910111930 METAR LRCL 111930Z 26003KT CAVOK 07/03 Q1026=
201910112000 METAR LRCL 112000Z 26003KT CAVOK 07/03 Q1026=
201910112030 METAR LRCL 112030Z 25004KT CAVOK 07/03 Q1026=
201910112100 METAR LRCL 112100Z 25005KT CAVOK 07/03 Q1026=
201910112130 METAR LRCL 112130Z 26002KT CAVOK 07/03 Q1026=
201910112200 METAR LRCL 112200Z 26002KT CAVOK 06/03 Q1026=
201910112230 METAR LRCL 112230Z VRB01KT CAVOK 05/03 Q1026=
201910112300 METAR LRCL 112300Z 08001KT CAVOK 04/02 Q1026=
201910112330 METAR LRCL 112330Z 00000KT CAVOK 04/02 Q1026=
201910120000 METAR LRCL 120000Z 11002KT CAVOK 04/02 Q1026=
201910120030 METAR LRCL 120030Z 12003KT CAVOK 03/02 Q1026=
201910120100 METAR LRCL 120100Z 09003KT CAVOK 03/02 Q1026=
201910120130 METAR LRCL 120130Z VRB01KT CAVOK 03/02 Q1026=
201910120200 METAR LRCL 120200Z VRB02KT CAVOK 03/02 Q1026=
201910120230 METAR LRCL 120230Z 04002KT CAVOK 02/01 Q1026=
201910120300 METAR LRCL 120300Z 06002KT CAVOK 02/01 Q1026=
201910120330 METAR LRCL 120330Z 07002KT CAVOK 02/01 Q1026=
201910120400 METAR LRCL 120400Z VRB01KT CAVOK 02/01 Q1026=
201910120430 METAR COR LRCL 120430Z 36002KT 9000 MIFG NSC 01/00 Q1025=
201910120500 METAR LRCL 120500Z 00000KT 9999 MIFG NSC 01/01 Q1026=
201910120530 METAR LRCL 120530Z 09003KT CAVOK 02/01 Q1026=
201910120600 METAR LRCL 120600Z 08002KT CAVOK 03/01 Q1026=
201910120630 METAR LRCL 120630Z 11003KT 080V170 CAVOK 04/02 Q1026=
201910120700 METAR LRCL 120700Z VRB02KT CAVOK 06/03 Q1026=
201910120730 METAR LRCL 120730Z 11003KT 070V160 CAVOK 08/04 Q1026=
201910120800 METAR LRCL 120800Z 10003KT 360V160 CAVOK 10/04 Q1026=
201910120830 METAR LRCL 120830Z 08005KT 030V130 CAVOK 13/05 Q1026=
201910120900 METAR LRCL 120900Z 06007KT 010V090 CAVOK 14/05 Q1025=
201910120930 METAR LRCL 120930Z 09008KT CAVOK 15/05 Q1025=
201910121000 METAR LRCL 121000Z 08007KT 050V110 CAVOK 16/04 Q1025=
201910121030 METAR LRCL 121030Z 08006KT 040V100 CAVOK 17/03 Q1025=
201910121100 METAR LRCL 121100Z 09004KT 050V150 CAVOK 18/03 Q1025=
201910121130 METAR LRCL 121130Z 10007KT CAVOK 18/03 Q1024=
201910121200 METAR LRCL 121200Z 09006KT 070V130 CAVOK 19/02 Q1024=
201910121230 METAR LRCL 121230Z 09007KT CAVOK 19/02 Q1024=
201910121300 METAR LRCL 121300Z 08007KT CAVOK 20/02 Q1024=
201910121330 METAR LRCL 121330Z 10006KT 070V130 CAVOK 20/01 Q1023=
201910121400 METAR LRCL 121400Z 10007KT CAVOK 20/02 Q1023=
201910121430 METAR LRCL 121430Z 10006KT CAVOK 19/02 Q1023=
201910121500 METAR LRCL 121500Z 12005KT 090V170 CAVOK 19/03 Q1023=
201910121530 METAR LRCL 121530Z 16003KT 120V220 CAVOK 17/03 Q1023=
201910121600 METAR LRCL 121600Z 04001KT CAVOK 14/04 Q1023=
201910121630 METAR LRCL 121630Z VRB01KT CAVOK 13/04 Q1023=
201910121700 METAR LRCL 121700Z VRB01KT CAVOK 12/04 Q1023=
201910121730 METAR LRCL 121730Z VRB01KT CAVOK 10/04 Q1024=
201910121800 METAR LRCL 121800Z VRB01KT CAVOK 10/04 Q1024=
201910121830 METAR LRCL 121830Z 27002KT CAVOK 09/04 Q1024=
201910121900 METAR LRCL 121900Z 25002KT CAVOK 08/04 Q1024=
201910121930 METAR LRCL 121930Z 26001KT CAVOK 07/04 Q1024=
201910122000 METAR LRCL 122000Z VRB02KT CAVOK 07/03 Q1024=
201910122030 METAR LRCL 122030Z 00000KT CAVOK 07/04 Q1025=
201910122100 METAR LRCL 122100Z VRB02KT CAVOK 06/03 Q1025=
201910122130 METAR LRCL 122130Z 00000KT CAVOK 05/03 Q1024=
201910122200 METAR LRCL 122200Z VRB01KT CAVOK 05/04 Q1024=
201910122230 METAR COR LRCL 122230Z 00000KT CAVOK 05/04 Q1024=
201910122300 METAR LRCL 122300Z 00000KT CAVOK 04/03 Q1025=
201910122330 METAR LRCL 122330Z VRB01KT CAVOK 04/02 Q1025=
201910130000 METAR LRCL 130000Z 10002KT CAVOK 04/02 Q1025=
201910130030 METAR LRCL 130030Z 10002KT CAVOK 03/02 Q1025=
201910130100 METAR LRCL 130100Z VRB01KT 9999 MIFG NSC 03/02 Q1025=
201910130130 METAR COR LRCL 130130Z 36001KT CAVOK 03/02 Q1025=
201910130200 METAR LRCL 130200Z 00000KT CAVOK 02/01 Q1024=
201910130230 METAR LRCL 130230Z 28001KT 8000 NSC 03/02 Q1024=
201910130300 METAR LRCL 130300Z 00000KT CAVOK 02/01 Q1024=
201910130330 METAR LRCL 130330Z 00000KT 7000 MIFG NSC 02/01 Q1024=
201910130400 METAR LRCL 130400Z 09003KT 7000 MIFG NSC 01/00 Q1025=
201910130430 METAR LRCL 130430Z 10004KT 9999 MIFG NSC 01/M00 Q1025=
201910130500 METAR LRCL 130500Z 11001KT 9999 MIFG NSC 01/01 Q1025=
201910130530 METAR LRCL 130530Z 11001KT 9999 MIFG NSC 02/01 Q1025=
201910130600 METAR LRCL 130600Z VRB01KT CAVOK 04/02 Q1025=
201910130630 METAR LRCL 130630Z VRB01KT CAVOK 05/03 Q1025=
201910130700 METAR COR LRCL 130700Z VRB01KT CAVOK 08/03 Q1026=
201910130730 METAR LRCL 130730Z 09003KT 050V140 CAVOK 09/04 Q1026=
201910130800 METAR LRCL 130800Z 07003KT CAVOK 10/04 Q1025=
201910130830 METAR LRCL 130830Z 07003KT CAVOK 12/05 Q1025=
201910130900 METAR LRCL 130900Z 05003KT CAVOK 15/05 Q1025=
201910130930 METAR LRCL 130930Z 08004KT 020V110 CAVOK 17/05 Q1025=
201910131000 METAR LRCL 131000Z 07005KT 040V110 CAVOK 18/06 Q1025=
201910131030 METAR LRCL 131030Z 08006KT 040V110 CAVOK 20/06 Q1024=
201910131100 METAR LRCL 131100Z 09006KT 050V120 CAVOK 21/06 Q1024=
201910131130 METAR LRCL 131130Z 09007KT 060V120 CAVOK 21/06 Q1024=
201910131200 METAR LRCL 131200Z 10006KT 070V140 CAVOK 22/06 Q1023=
201910131230 METAR LRCL 131230Z 09006KT 060V120 CAVOK 22/06 Q1023=
201910131300 METAR LRCL 131300Z 10006KT CAVOK 22/05 Q1023=
201910131330 METAR LRCL 131330Z 10006KT 070V150 CAVOK 22/06 Q1023=
201910131400 METAR LRCL 131400Z 11005KT CAVOK 22/06 Q1023=
201910131430 METAR LRCL 131430Z 12005KT CAVOK 21/06 Q1023=
201910131500 METAR LRCL 131500Z 10004KT CAVOK 20/06 Q1023=
201910131530 METAR LRCL 131530Z 10003KT CAVOK 18/07 Q1023=
201910131600 METAR LRCL 131600Z 11001KT CAVOK 17/06 Q1023=
201910131630 METAR LRCL 131630Z 00000KT CAVOK 15/07 Q1023=
201910131700 METAR LRCL 131700Z 28001KT CAVOK 14/07 Q1023=
201910131730 METAR LRCL 131730Z 30001KT CAVOK 13/06 Q1024=
201910131800 METAR LRCL 131800Z 00000KT CAVOK 12/07 Q1024=
201910131830 METAR LRCL 131830Z 27003KT CAVOK 11/06 Q1023=
201910131900 METAR LRCL 131900Z 27003KT CAVOK 10/06 Q1024=
201910131930 METAR LRCL 131930Z 00000KT CAVOK 09/06 Q1024=
201910132000 METAR LRCL 132000Z 00000KT CAVOK 09/06 Q1024=
201910132030 METAR LRCL 132030Z 00000KT CAVOK 08/06 Q1024=
201910132100 METAR LRCL 132100Z 00000KT CAVOK 08/06 Q1024=
201910132130 METAR LRCL 132130Z 00000KT CAVOK 08/06 Q1024=
201910132200 METAR LRCL 132200Z 00000KT CAVOK 07/05 Q1024=
201910132230 METAR LRCL 132230Z 27002KT CAVOK 07/06 Q1024=
201910132300 METAR LRCL 132300Z 00000KT CAVOK 06/05 Q1024=
201910132330 METAR LRCL 132330Z 00000KT CAVOK 06/05 Q1024=
201910140000 METAR LRCL 140000Z 00000KT 9999 MIFG NSC 05/04 Q1024=
201910140030 METAR LRCL 140030Z 00000KT 9999 MIFG NSC 05/04 Q1024=
201910140100 METAR LRCL 140100Z 00000KT 9999 MIFG NSC 05/04 Q1024=
201910140130 METAR LRCL 140130Z 09001KT 9999 MIFG NSC 04/04 Q1024=
201910140200 METAR LRCL 140200Z 00000KT 9999 3000E VCFG NSC 05/04 Q1024=
201910140230 METAR LRCL 140230Z 13001KT 9999 3000E MIFG VCFG NSC 04/03
                        Q1023=
201910140300 METAR LRCL 140300Z 00000KT 9999 3000E VCFG NSC 04/03 Q1024=
201910140330 METAR LRCL 140330Z 00000KT 9999 3000E MIFG VCFG NSC 04/03
                        Q1024=
201910140400 METAR LRCL 140400Z VRB02KT 9999 2500E MIFG VCFG NSC 03/02
                        Q1023=
201910140430 METAR LRCL 140430Z 11003KT 9999 3500E MIFG VCFG NSC 03/02
                        Q1024=
201910140500 METAR LRCL 140500Z VRB01KT 9999 3500E VCFG NSC 03/02 Q1024=
201910140530 METAR LRCL 140530Z 09003KT 9999 2500E VCFG NSC 03/02 Q1024=
201910140600 METAR LRCL 140600Z 08002KT 9999 1200E R25/0225N PRFG NSC
                        04/03 Q1024=
201910140630 METAR LRCL 140630Z VRB02KT 9999 1500E R25/1200D PRFG NSC
                        05/04 Q1024=
201910140700 METAR COR LRCL 140700Z VRB02KT 9999 2000E VCFG FEW001 06/06
                        Q1024=
201910140730 METAR LRCL 140730Z 11003KT 060V140 8000 NSC 09/06 Q1024=
201910140800 METAR LRCL 140800Z VRB02KT CAVOK 11/07 Q1024=
201910140830 METAR LRCL 140830Z VRB02KT CAVOK 14/07 Q1024=
201910140900 METAR COR LRCL 140900Z 07003KT 360V110 CAVOK 16/07 Q1024=
201910140930 METAR LRCL 140930Z 07006KT 040V110 CAVOK 17/07 Q1023=
201910141000 METAR LRCL 141000Z 06006KT 020V110 CAVOK 19/07 Q1023=
201910141030 METAR LRCL 141030Z 08007KT 040V120 CAVOK 20/07 Q1023=
201910141100 METAR LRCL 141100Z 08007KT 040V120 CAVOK 20/07 Q1023=
201910141130 METAR LRCL 141130Z 09007KT CAVOK 22/07 Q1022=
201910141200 METAR LRCL 141200Z 13006KT 080V160 CAVOK 22/05 Q1022=
201910141230 METAR LRCL 141230Z 08006KT 050V110 CAVOK 22/05 Q1022=
201910141300 METAR LRCL 141300Z 10006KT CAVOK 23/06 Q1021=
201910141330 METAR LRCL 141330Z 09006KT CAVOK 23/06 Q1021=
201910141400 METAR LRCL 141400Z 10005KT CAVOK 23/06 Q1021=
201910141430 METAR LRCL 141430Z 10004KT CAVOK 22/06 Q1021=
201910141500 METAR LRCL 141500Z 10004KT 070V130 CAVOK 22/06 Q1021=
201910141530 METAR LRCL 141530Z 14003KT CAVOK 20/06 Q1021=
201910141600 METAR LRCL 141600Z VRB02KT CAVOK 17/06 Q1021=
201910141630 METAR LRCL 141630Z VRB02KT CAVOK 15/07 Q1021=
201910141700 METAR LRCL 141700Z 22003KT CAVOK 14/06 Q1021=
201910141730 METAR LRCL 141730Z 26001KT CAVOK 12/07 Q1021=
201910141800 METAR LRCL 141800Z 24003KT CAVOK 12/07 Q1021=
201910141830 METAR LRCL 141830Z 27004KT CAVOK 11/07 Q1021=
201910141900 METAR LRCL 141900Z 25003KT CAVOK 10/06 Q1021=
201910141930 METAR LRCL 141930Z 00000KT CAVOK 10/06 Q1021=
201910142000 METAR LRCL 142000Z 28001KT CAVOK 09/06 Q1021=
201910142030 METAR LRCL 142030Z VRB02KT CAVOK 09/07 Q1021=
201910142100 METAR LRCL 142100Z 00000KT CAVOK 08/06 Q1021=
201910142130 METAR LRCL 142130Z VRB01KT CAVOK 08/06 Q1021=
201910142200 METAR COR LRCL 142200Z VRB02KT CAVOK 07/05 Q1021=
201910142230 METAR LRCL 142230Z 00000KT 9999 MIFG NSC 07/05 Q1021=
201910142300 METAR COR LRCL 142300Z 00000KT 7000 NSC 06/05 Q1021=
201910142330 METAR COR LRCL 142330Z 29002KT 8000 NSC 06/05 Q1021=
201910150000 METAR COR LRCL 150000Z 00000KT 8000 MIFG NSC 06/05 Q1021=
201910150030 METAR LRCL 150030Z AUTO VRB01KT 3000 BR NCD 05/04 Q1021=
201910150100 METAR LRCL 150100Z 00000KT 5000 BR NSC 05/04 Q1020=
201910150130 METAR COR LRCL 150130Z 03001KT 9999 1200E R25/1100DD PRFG
                        NSC 05/04 Q1020=
201910150200 METAR LRCL 150200Z 00000KT 9999 1400E R25/1500D PRFG NSC
                        04/04 Q1020=
201910150230 METAR LRCL 150230Z 00000KT 7000 2000E PRFG BR NSC 05/04 Q1020=
201910150300 METAR LRCL 150300Z 29001KT 7000 1400E R25/1300U PRFG BR FEW005
                        04/04 Q1020=
201910150330 METAR COR LRCL 150330Z 27002KT 5000 2000E BCFG BR FEW004
                        04/04 Q1020=
201910150400 METAR LRCL 150400Z 00000KT 5000 1500E PRFG BR FEW006 04/03
                        Q1020=
201910150430 METAR LRCL 150430Z 00000KT 7000 1500E PRFG FEW004 04/04 Q1020=
201910150500 METAR LRCL 150500Z 10003KT 8000 MIFG NSC 03/03 Q1020=
201910150530 METAR LRCL 150530Z 09003KT 8000 NSC 04/03 Q1020=
201910150600 METAR LRCL 150600Z 10002KT 7000 NSC 05/04 Q1020=
201910150630 METAR LRCL 150630Z 00000KT 7000 NSC 07/05 Q1020=
201910150700 METAR LRCL 150700Z VRB01KT CAVOK 09/05 Q1020=
201910150730 METAR LRCL 150730Z VRB02KT CAVOK 11/06 Q1020=
201910150800 METAR LRCL 150800Z VRB03KT CAVOK 12/07 Q1020=
201910150830 METAR LRCL 150830Z 10003KT CAVOK 14/07 Q1020=
201910150900 METAR LRCL 150900Z 09004KT CAVOK 17/08 Q1020=
201910150930 METAR LRCL 150930Z 07005KT CAVOK 19/08 Q1019=
201910151000 METAR LRCL 151000Z 07007KT CAVOK 20/08 Q1019=
201910151030 METAR LRCL 151030Z 07008KT CAVOK 22/08 Q1018=
201910151100 METAR LRCL 151100Z 11008KT CAVOK 23/07 Q1018=
201910151130 METAR LRCL 151130Z 12007KT CAVOK 24/06 Q1018=
201910151200 METAR LRCL 151200Z 12007KT CAVOK 24/06 Q1017=
201910151230 METAR LRCL 151230Z 14008KT CAVOK 24/05 Q1017=
201910151300 METAR LRCL 151300Z 11008KT CAVOK 24/05 Q1017=
201910151330 METAR LRCL 151330Z 10008KT CAVOK 24/05 Q1016=
201910151400 METAR LRCL 151400Z 13006KT CAVOK 24/05 Q1016=
201910151430 METAR LRCL 151430Z 13005KT CAVOK 23/05 Q1016=
201910151500 METAR LRCL 151500Z 15003KT CAVOK 22/06 Q1016=
201910151530 METAR LRCL 151530Z 15003KT CAVOK 20/06 Q1016=
201910151600 METAR LRCL 151600Z VRB01KT CAVOK 18/07 Q1016=
201910151630 METAR LRCL 151630Z 28001KT CAVOK 15/07 Q1017=
201910151700 METAR LRCL 151700Z 00000KT CAVOK 15/07 Q1017=
201910151730 METAR LRCL 151730Z 00000KT CAVOK 12/07 Q1017=
201910151800 METAR LRCL 151800Z 28002KT CAVOK 11/08 Q1017=
201910151830 METAR LRCL 151830Z 26002KT CAVOK 10/07 Q1017=
201910151900 METAR LRCL 151900Z VRB02KT CAVOK 10/07 Q1017=
201910151930 METAR LRCL 151930Z 29002KT CAVOK 09/07 Q1017=
201910152000 METAR LRCL 152000Z 25002KT CAVOK 09/06 Q1017=
201910152030 METAR LRCL 152030Z 27002KT CAVOK 08/06 Q1017=
201910152100 METAR LRCL 152100Z 26002KT CAVOK 08/06 Q1017=
201910152130 METAR LRCL 152130Z 00000KT CAVOK 07/06 Q1017=
201910152200 METAR LRCL 152200Z 09003KT 060V130 CAVOK 07/05 Q1017=
201910152230 METAR LRCL 152230Z VRB01KT CAVOK 07/05 Q1017=
201910152300 METAR LRCL 152300Z 12002KT CAVOK 06/05 Q1017=
201910152330 METAR LRCL 152330Z 30001KT CAVOK 06/05 Q1018=
201910160000 METAR LRCL 160000Z 00000KT CAVOK 06/05 Q1018=
201910160030 METAR LRCL 160030Z 10001KT 8000 NSC 05/04 Q1018=
201910160100 METAR LRCL 160100Z 00000KT 8000 NSC 05/04 Q1018=
201910160130 METAR LRCL 160130Z 00000KT 9999 MIFG NSC 04/04 Q1018=
201910160200 METAR LRCL 160200Z 00000KT 8000 MIFG NSC 05/04 Q1018=
201910160230 METAR LRCL 160230Z 25001KT 9999 MIFG NSC 04/04 Q1018=
201910160300 METAR COR LRCL 160300Z 30001KT 9999 MIFG NSC 05/04 Q1018=
201910160330 METAR LRCL 160330Z 00000KT 9999 MIFG NSC 04/04 Q1018=
201910160400 METAR LRCL 160400Z VRB01KT 7000 NSC 04/03 Q1018=
201910160430 METAR LRCL 160430Z 00000KT 7000 MIFG NSC 04/03 Q1018=
201910160500 METAR COR LRCL 160500Z 00000KT 8000 MIFG NSC 03/03 Q1018=
201910160530 METAR LRCL 160530Z 00000KT 8000 NSC 05/04 Q1018=
201910160600 METAR LRCL 160600Z 00000KT 8000 NSC 05/05 Q1018=
201910160630 METAR LRCL 160630Z VRB02KT 8000 NSC 06/04 Q1018=
201910160700 METAR LRCL 160700Z VRB01KT 8000 NSC 09/05 Q1018=
201910160730 METAR LRCL 160730Z 09003KT 060V140 CAVOK 10/05 Q1018=
201910160800 METAR LRCL 160800Z 06003KT 360V090 CAVOK 12/06 Q1018=
201910160830 METAR LRCL 160830Z 09003KT 030V140 CAVOK 15/07 Q1018=
201910160900 METAR LRCL 160900Z 08004KT 050V130 CAVOK 17/08 Q1018=
201910160930 METAR LRCL 160930Z 07005KT 040V110 CAVOK 18/08 Q1018=
201910161000 METAR LRCL 161000Z 08006KT CAVOK 20/08 Q1017=
201910161030 METAR LRCL 161030Z 07005KT 040V100 CAVOK 21/08 Q1017=
201910161100 METAR LRCL 161100Z AUTO 08005KT 050V110 9999 NCD 22/07 Q1017=
201910161130 METAR LRCL 161130Z 08006KT 040V110 CAVOK 23/07 Q1017=
201910161200 METAR LRCL 161200Z 07005KT 040V100 CAVOK 23/07 Q1017=
201910161230 METAR LRCL 161230Z NIL=
201910161300 METAR LRCL 161300Z NIL=
201910161330 METAR COR LRCL 161330Z 08005KT 040V120 CAVOK 24/06 Q1016=
201910161400 METAR COR LRCL 161400Z 07004KT CAVOK 24/07 Q1016=
201910161430 METAR COR LRCL 161430Z 08003KT CAVOK 23/07 Q1016=
201910161500 METAR LRCL 161500Z 10003KT 070V130 CAVOK 23/06 Q1016=
201910161530 METAR LRCL 161530Z VRB02KT CAVOK 21/07 Q1016=
201910161600 METAR LRCL 161600Z VRB02KT CAVOK 18/07 Q1016=
201910161630 METAR LRCL 161630Z 21003KT CAVOK 16/07 Q1017=
201910161700 METAR LRCL 161700Z 30002KT CAVOK 14/07 Q1017=
201910161730 METAR LRCL 161730Z 25004KT CAVOK 13/07 Q1017=
201910161800 METAR LRCL 161800Z 26003KT CAVOK 12/07 Q1017=
201910161830 METAR LRCL 161830Z 26004KT CAVOK 12/07 Q1017=
201910161900 METAR LRCL 161900Z 25004KT CAVOK 12/07 Q1018=
201910161930 METAR LRCL 161930Z 24005KT CAVOK 10/06 Q1018=
201910162000 METAR LRCL 162000Z 31003KT CAVOK 11/07 Q1018=
201910162030 METAR LRCL 162030Z 23003KT CAVOK 12/06 Q1018=
201910162100 METAR LRCL 162100Z 23005KT CAVOK 11/06 Q1018=
201910162130 METAR LRCL 162130Z 25004KT CAVOK 10/06 Q1018=
201910162200 METAR LRCL 162200Z 23004KT CAVOK 10/06 Q1018=
201910162230 METAR LRCL 162230Z 24002KT CAVOK 09/06 Q1019=
201910162300 METAR LRCL 162300Z VRB01KT CAVOK 09/06 Q1019=
201910162330 METAR LRCL 162330Z 09002KT CAVOK 08/05 Q1019=
201910170000 METAR LRCL 170000Z VRB02KT CAVOK 07/06 Q1019=
201910170030 METAR LRCL 170030Z 16002KT CAVOK 07/05 Q1019=
201910170100 METAR LRCL 170100Z 00000KT CAVOK 06/05 Q1019=
201910170130 METAR LRCL 170130Z 10003KT CAVOK 06/05 Q1019=
201910170200 METAR LRCL 170200Z 09003KT CAVOK 06/04 Q1019=
201910170230 METAR LRCL 170230Z 10003KT 9999 MIFG NSC 06/04 Q1019=
201910170300 METAR LRCL 170300Z 10003KT 9999 MIFG NSC 06/05 Q1019=
201910170330 METAR LRCL 170330Z 09004KT CAVOK 06/05 Q1019=
201910170400 METAR LRCL 170400Z VRB01KT CAVOK 05/04 Q1019=
201910170430 METAR LRCL 170430Z 09002KT CAVOK 05/04 Q1020=
201910170500 METAR LRCL 170500Z 00000KT CAVOK 05/04 Q1020=
201910170530 METAR LRCL 170530Z 08003KT CAVOK 05/04 Q1020=
201910170600 METAR LRCL 170600Z 09003KT CAVOK 07/05 Q1020=
201910170630 METAR LRCL 170630Z VRB02KT CAVOK 08/05 Q1021=
201910170700 METAR LRCL 170700Z AUTO 10003KT 8000 NCD 09/06 Q1021=
201910170730 METAR LRCL 170730Z 10003KT CAVOK 11/07 Q1021=
201910170800 METAR LRCL 170800Z 08004KT CAVOK 13/07 Q1021=
201910170830 METAR LRCL 170830Z 09004KT CAVOK 15/07 Q1021=
201910170900 METAR LRCL 170900Z 08004KT 050V120 CAVOK 16/07 Q1021=
201910170930 METAR LRCL 170930Z 09004KT 050V140 CAVOK 18/08 Q1021=
201910171000 METAR LRCL 171000Z 10004KT 050V130 CAVOK 19/08 Q1020=
201910171030 METAR COR LRCL 171030Z VRB03KT CAVOK 21/08 Q1020=
201910171100 METAR LRCL 171100Z 10003KT 050V150 CAVOK 21/08 Q1020=
201910171130 METAR LRCL 171130Z 09005KT 060V130 CAVOK 22/08 Q1019=
201910171200 METAR LRCL 171200Z 08003KT 360V120 CAVOK 23/07 Q1019=
201910171230 METAR LRCL 171230Z 09004KT 030V160 CAVOK 23/07 Q1019=
201910171300 METAR LRCL 171300Z 06004KT 360V120 CAVOK 23/07 Q1019=
201910171330 METAR LRCL 171330Z 09005KT 050V120 CAVOK 23/07 Q1019=
201910171400 METAR LRCL 171400Z 07005KT CAVOK 23/08 Q1018=
201910171430 METAR LRCL 171430Z 09004KT CAVOK 23/09 Q1018=
201910171500 METAR LRCL 171500Z 08002KT CAVOK 22/09 Q1018=
201910171530 METAR LRCL 171530Z 00000KT CAVOK 19/09 Q1018=
201910171600 METAR LRCL 171600Z VRB01KT CAVOK 17/09 Q1019=
201910171630 METAR LRCL 171630Z 28003KT 240V300 CAVOK 15/09 Q1019=
201910171700 METAR LRCL 171700Z 28003KT CAVOK 14/09 Q1019=
201910171730 METAR LRCL 171730Z 25005KT CAVOK 13/08 Q1019=
201910171800 METAR LRCL 171800Z AUTO 25004KT 9999 NCD 13/08 Q1019=
201910171830 METAR LRCL 171830Z 26004KT CAVOK 12/08 Q1019=
201910171900 METAR LRCL 171900Z 24003KT CAVOK 12/08 Q1019=
201910171930 METAR LRCL 171930Z 25005KT CAVOK 12/08 Q1019=
201910172000 METAR LRCL 172000Z 25004KT CAVOK 11/08 Q1019=
201910172030 METAR LRCL 172030Z 25004KT CAVOK 11/07 Q1020=
201910172100 METAR LRCL 172100Z 25004KT CAVOK 11/08 Q1020=
201910172130 METAR LRCL 172130Z 25004KT CAVOK 10/07 Q1020=
201910172200 METAR LRCL 172200Z 27002KT CAVOK 10/08 Q1020=
201910172230 METAR LRCL 172230Z 00000KT CAVOK 08/07 Q1020=
201910172300 METAR LRCL 172300Z 00000KT 6000 NSC 08/07 Q1019=
201910172330 METAR LRCL 172330Z 00000KT 5000 MIFG BR NSC 08/07 Q1020=
201910180000 METAR LRCL 180000Z 09003KT 5000 MIFG BR NSC 06/05 Q1020=
201910180030 METAR LRCL 180030Z 10003KT 6000 NSC 07/05 Q1019=
201910180100 METAR LRCL 180100Z 12002KT 5000 MIFG BR NSC 07/06 Q1019=
201910180130 METAR LRCL 180130Z 00000KT 5000 MIFG BR NSC 06/05 Q1019=
201910180200 METAR LRCL 180200Z 00000KT 5000 MIFG BR NSC 06/05 Q1019=
201910180230 METAR LRCL 180230Z 00000KT 5000 MIFG BR NSC 06/05 Q1019=
201910180300 METAR LRCL 180300Z 08001KT 1500 MIFG BR NSC 05/05 Q1019=
201910180330 METAR LRCL 180330Z 06001KT 0800 R25/P2000 FG NSC 05/05 Q1019=
201910180400 METAR LRCL 180400Z 09002KT 1500 MIFG BR NSC 05/05 Q1019=
201910180430 METAR LRCL 180430Z 00000KT 1500 R25/0250N BCFG BR NSC 05/04
                        Q1019=
201910180500 METAR LRCL 180500Z 07001KT 0600 R25/0225N FG NSC 05/04 Q1020=
201910180530 METAR LRCL 180530Z 08002KT 0200 R25/0200N FG NSC 05/05 Q1020=
201910180600 METAR LRCL 180600Z 09002KT 0600 R25/0225N FG NSC 06/05 Q1020=
201910180630 METAR LRCL 180630Z VRB01KT 0800 R25/0225N FG NSC 06/05 Q1020=
201910180700 METAR LRCL 180700Z VRB02KT 1500 R25/0750N BR NSC 07/06 Q1020=
201910180730 METAR LRCL 180730Z 09003KT 2500 BR NSC 09/08 Q1020=
201910180800 METAR LRCL 180800Z 07004KT 4000 BR NSC 11/08 Q1020=
201910180830 METAR LRCL 180830Z 07005KT 7000 NSC 14/08 Q1020=
201910180900 METAR LRCL 180900Z 06004KT CAVOK 16/09 Q1019=
201910180930 METAR LRCL 180930Z 06007KT CAVOK 19/08 Q1019=
201910181000 METAR LRCL 181000Z 09009KT CAVOK 21/08 Q1019=
201910181030 METAR LRCL 181030Z 11009KT CAVOK 22/08 Q1018=
201910181100 METAR LRCL 181100Z 11009KT CAVOK 22/08 Q1018=
201910181130 METAR LRCL 181130Z 12009KT CAVOK 23/07 Q1017=
201910181200 METAR LRCL 181200Z 12009KT CAVOK 23/07 Q1017=
201910181230 METAR LRCL 181230Z 13008KT CAVOK 23/07 Q1017=
201910181300 METAR LRCL 181300Z 12007KT CAVOK 22/06 Q1017=
201910181330 METAR LRCL 181330Z 13005KT CAVOK 22/07 Q1017=
201910181400 METAR LRCL 181400Z 12005KT CAVOK 22/06 Q1016=
201910181430 METAR LRCL 181430Z 13006KT CAVOK 22/07 Q1016=
201910181500 METAR LRCL 181500Z 12003KT CAVOK 21/07 Q1016=
201910181530 METAR LRCL 181530Z 11004KT CAVOK 20/07 Q1017=
201910181600 METAR LRCL 181600Z 10003KT CAVOK 18/07 Q1017=
201910181630 METAR LRCL 181630Z 11003KT CAVOK 18/07 Q1017=
201910181700 METAR LRCL 181700Z VRB01KT CAVOK 17/08 Q1017=
201910181730 METAR LRCL 181730Z VRB01KT CAVOK 16/08 Q1017=
201910181800 METAR LRCL 181800Z 00000KT CAVOK 14/08 Q1017=
201910181830 METAR LRCL 181830Z 28002KT CAVOK 13/08 Q1017=
201910181900 METAR LRCL 181900Z 26003KT CAVOK 13/08 Q1017=
201910181930 METAR LRCL 181930Z 28001KT CAVOK 11/08 Q1017=
201910182000 METAR LRCL 182000Z 25003KT CAVOK 11/08 Q1017=
201910182030 METAR LRCL 182030Z 00000KT CAVOK 10/08 Q1017=
201910182100 METAR LRCL 182100Z 26002KT CAVOK 10/08 Q1017=
201910182130 METAR LRCL 182130Z 00000KT CAVOK 09/07 Q1017=
201910182200 METAR LRCL 182200Z 00000KT CAVOK 10/08 Q1017=
201910182230 METAR LRCL 182230Z 00000KT CAVOK 09/07 Q1018=
201910182300 METAR LRCL 182300Z VRB01KT 6000 NSC 09/08 Q1018=
201910182330 METAR LRCL 182330Z 08003KT 7000 NSC 08/06 Q1018=
201910190000 METAR LRCL 190000Z 17003KT 8000 NSC 08/06 Q1018=
201910190030 METAR LRCL 190030Z 00000KT 7000 NSC 08/06 Q1018=
201910190100 METAR LRCL 190100Z VRB03KT 6000 NSC 07/06 Q1018=
201910190130 METAR LRCL 190130Z 00000KT 6000 NSC 07/05 Q1018=
201910190200 METAR LRCL 190200Z VRB01KT 8000 NSC 07/05 Q1019=
201910190230 METAR LRCL 190230Z 00000KT 6000 NSC 07/06 Q1019=
201910190300 METAR LRCL 190300Z VRB01KT 5000 BR NSC 06/05 Q1019=
201910190330 METAR LRCL 190330Z 34002KT 5000 BR NSC 06/05 Q1019=
201910190400 METAR LRCL 190400Z 00000KT 5000 MIFG BR NSC 06/05 Q1019=
201910190430 METAR LRCL 190430Z 00000KT 5000 BR NSC 06/05 Q1019=
201910190500 METAR LRCL 190500Z 01001KT 5000 BR NSC 06/05 Q1019=
201910190530 METAR LRCL 190530Z 00000KT 8000 NSC 06/05 Q1020=
201910190600 METAR LRCL 190600Z 00000KT 7000 NSC 07/06 Q1020=
201910190630 METAR LRCL 190630Z 00000KT 7000 NSC 09/06 Q1020=
201910190700 METAR LRCL 190700Z 00000KT 8000 NSC 10/06 Q1020=
201910190730 METAR LRCL 190730Z 00000KT CAVOK 13/07 Q1020=
201910190800 METAR LRCL 190800Z VRB02KT CAVOK 14/08 Q1020=
201910190830 METAR LRCL 190830Z 10003KT 060V130 CAVOK 14/08 Q1020=
201910190900 METAR LRCL 190900Z 06004KT 030V090 CAVOK 17/08 Q1020=
201910190930 METAR LRCL 190930Z 06005KT 010V090 CAVOK 18/08 Q1019=
201910191000 METAR LRCL 191000Z 06006KT 020V080 CAVOK 20/08 Q1019=
201910191030 METAR LRCL 191030Z 08008KT 050V110 CAVOK 21/08 Q1019=
201910191100 METAR LRCL 191100Z 08007KT CAVOK 21/08 Q1018=
201910191130 METAR LRCL 191130Z 10008KT 060V140 CAVOK 23/08 Q1018=
201910191200 METAR LRCL 191200Z 11008KT CAVOK 23/08 Q1018=
201910191230 METAR LRCL 191230Z 11008KT CAVOK 23/08 Q1017=
201910191300 METAR LRCL 191300Z 11007KT CAVOK 23/08 Q1017=
201910191330 METAR LRCL 191330Z 11007KT CAVOK 23/08 Q1017=
201910191400 METAR LRCL 191400Z 14008KT CAVOK 23/07 Q1017=
201910191430 METAR LRCL 191430Z 14008KT CAVOK 22/08 Q1017=
201910191500 METAR LRCL 191500Z 13006KT CAVOK 21/08 Q1017=
201910191530 METAR LRCL 191530Z 07005KT 040V120 CAVOK 20/08 Q1017=
201910191600 METAR LRCL 191600Z 06004KT CAVOK 20/08 Q1018=
201910191630 METAR LRCL 191630Z 06003KT CAVOK 18/08 Q1018=
201910191700 METAR LRCL 191700Z 11003KT CAVOK 16/08 Q1018=
201910191730 METAR LRCL 191730Z 08003KT CAVOK 15/08 Q1018=
201910191800 METAR LRCL 191800Z 00000KT CAVOK 14/08 Q1018=
201910191830 METAR LRCL 191830Z 27003KT CAVOK 13/09 Q1018=
201910191900 METAR LRCL 191900Z VRB02KT CAVOK 12/08 Q1019=
201910191930 METAR LRCL 191930Z 27002KT 7000 NSC 11/09 Q1019=
201910192000 METAR LRCL 192000Z 28004KT 7000 NSC 11/08 Q1019=
201910192030 METAR LRCL 192030Z 24003KT 7000 NSC 10/07 Q1019=
201910192100 METAR LRCL 192100Z 00000KT 7000 NSC 10/08 Q1019=
201910192130 METAR LRCL 192130Z 10001KT 5000 BR NSC 09/08 Q1019=
201910192200 METAR LRCL 192200Z 00000KT 5000 BR NSC 09/08 Q1019=
201910192230 METAR LRCL 192230Z 27003KT 5000 BR NSC 09/07 Q1019=
201910192300 METAR LRCL 192300Z 00000KT 5000 BR NSC 08/07 Q1020=
201910192330 METAR LRCL 192330Z 08001KT 5000 BR NSC 08/07 Q1020=
201910200000 METAR LRCL 200000Z 11002KT 3500 BR NSC 07/06 Q1020=
201910200030 METAR LRCL 200030Z 00000KT 5000 BR NSC 08/07 Q1020=
201910200100 METAR LRCL 200100Z 00000KT 3000 BR NSC 08/07 Q1020=
201910200130 METAR LRCL 200130Z 00000KT 3000 BR NSC 06/05 Q1020=
201910200200 METAR LRCL 200200Z 00000KT 2000 BR NSC 07/06 Q1020=
201910200230 METAR LRCL 200230Z 00000KT 1500 MIFG BR NSC 06/05 Q1021=
201910200300 METAR LRCL 200300Z 00000KT 1500 MIFG BR NSC 06/05 Q1021=
201910200330 METAR LRCL 200330Z 00000KT 0800 R25/1900D FG NSC 06/05 Q1021=
201910200400 METAR LRCL 200400Z 00000KT 1500 MIFG BR NSC 06/05 Q1021=
201910200430 METAR LRCL 200430Z 00000KT 0800 R25/1400N FG NSC 06/05 Q1021=
201910200500 METAR LRCL 200500Z 00000KT 0600 R25/0200V0325N FG NSC 06/05
                        Q1021=
201910200530 METAR LRCL 200530Z 28001KT 1500 R25/1200N MIFG BR NSC 06/05
                        Q1021=
201910200600 METAR LRCL 200600Z 00000KT 1500 R25/1100N BR NSC 06/06 Q1022=
201910200630 METAR LRCL 200630Z VRB01KT 2000 BR NSC 07/07 Q1022=
201910200700 METAR LRCL 200700Z 07003KT 040V100 5000 BR NSC 09/07 Q1022=
201910200730 METAR LRCL 200730Z 09004KT 6000 NSC 11/07 Q1022=
201910200800 METAR LRCL 200800Z 07003KT 040V110 8000 NSC 13/08 Q1022=
201910200830 METAR LRCL 200830Z 08003KT 040V120 8000 NSC 15/08 Q1022=
201910200900 METAR LRCL 200900Z 08004KT 030V110 CAVOK 16/09 Q1022=
201910200930 METAR LRCL 200930Z 07004KT 030V090 CAVOK 19/09 Q1022=
201910201000 METAR LRCL 201000Z 08006KT 040V120 CAVOK 21/09 Q1021=
201910201030 METAR LRCL 201030Z 09008KT CAVOK 21/09 Q1021=
201910201100 METAR LRCL 201100Z 11007KT 070V130 CAVOK 23/10 Q1021=
201910201130 METAR LRCL 201130Z 11008KT 080V150 CAVOK 23/09 Q1021=
201910201200 METAR LRCL 201200Z 10007KT 070V140 CAVOK 23/09 Q1020=
201910201230 METAR LRCL 201230Z 13007KT 090V150 CAVOK 24/09 Q1020=
201910201300 METAR LRCL 201300Z 13007KT CAVOK 24/09 Q1020=
201910201330 METAR LRCL 201330Z 13008KT CAVOK 24/09 Q1020=
201910201400 METAR LRCL 201400Z 14006KT CAVOK 23/08 Q1020=
201910201430 METAR LRCL 201430Z 13005KT CAVOK 23/08 Q1020=
201910201500 METAR LRCL 201500Z 09003KT CAVOK 22/09 Q1020=
201910201530 METAR LRCL 201530Z 08005KT CAVOK 21/09 Q1020=
201910201600 METAR LRCL 201600Z 09002KT CAVOK 18/09 Q1020=
201910201630 METAR LRCL 201630Z 07002KT CAVOK 18/09 Q1020=
201910201700 METAR LRCL 201700Z 07004KT CAVOK 16/08 Q1021=
201910201730 METAR LRCL 201730Z 08003KT CAVOK 15/08 Q1021=
201910201800 METAR LRCL 201800Z 27003KT CAVOK 13/09 Q1021=
201910201830 METAR LRCL 201830Z AUTO 25003KT 9999 NCD 13/09 Q1021=
201910201900 METAR LRCL 201900Z 28003KT CAVOK 12/08 Q1021=
201910201930 METAR LRCL 201930Z 25004KT CAVOK 12/08 Q1021=
201910202000 METAR LRCL 202000Z 25003KT CAVOK 11/08 Q1022=
201910202030 METAR LRCL 202030Z 26003KT CAVOK 10/08 Q1022=
201910202100 METAR LRCL 202100Z 25004KT CAVOK 10/07 Q1022=
201910202130 METAR LRCL 202130Z VRB01KT CAVOK 09/07 Q1022=
201910202200 METAR LRCL 202200Z 00000KT CAVOK 09/07 Q1022=
201910202230 METAR LRCL 202230Z 00000KT CAVOK 09/07 Q1022=
201910202300 METAR LRCL 202300Z 00000KT 7000 NSC 08/07 Q1022=
201910202330 METAR LRCL 202330Z 11003KT 7000 NSC 07/06 Q1022=
201910210000 METAR LRCL 210000Z 00000KT 7000 NSC 07/06 Q1022=
201910210030 METAR LRCL 210030Z 08002KT 7000 NSC 07/06 Q1022=
201910210100 METAR LRCL 210100Z VRB02KT 7000 MIFG NSC 06/05 Q1022=
201910210130 METAR LRCL 210130Z 00000KT 6000 MIFG BR NSC 07/06 Q1023=
201910210200 METAR LRCL 210200Z 00000KT 5000 MIFG BR NSC 06/05 Q1023=
201910210230 METAR LRCL 210230Z 26001KT 5000 MIFG BR NSC 06/05 Q1023=
201910210300 METAR COR LRCL 210300Z 01001KT 4000 MIFG BR NSC 06/05 Q1023=
201910210330 METAR LRCL 210330Z 00000KT 4000 MIFG BR NSC 06/05 Q1023=
201910210400 METAR LRCL 210400Z 00000KT 4000 MIFG BR NSC 06/05 Q1023=
201910210430 METAR LRCL 210430Z 00000KT 9999 3500E MIFG VCFG NSC 05/05
                        Q1023=
201910210500 METAR LRCL 210500Z 00000KT 9999 2000E MIFG VCFG NSC 05/05
                        Q1024=
201910210530 METAR LRCL 210530Z 00000KT 9999 2500E VCFG NSC 06/05 Q1024=
201910210600 METAR LRCL 210600Z 00000KT 9999 3000E VCFG NSC 07/06 Q1024=
201910210630 METAR LRCL 210630Z 09002KT 4000 BR NSC 08/06 Q1024=
201910210700 METAR LRCL 210700Z 00000KT 6000 NSC 11/06 Q1024=
201910210730 METAR LRCL 210730Z VRB01KT 8000 NSC 12/07 Q1024=
201910210800 METAR LRCL 210800Z VRB01KT CAVOK 14/07 Q1024=
201910210830 METAR LRCL 210830Z VRB02KT CAVOK 15/08 Q1024=
201910210900 METAR LRCL 210900Z 06003KT 350V100 CAVOK 17/08 Q1024=
201910210930 METAR LRCL 210930Z 08005KT 060V120 CAVOK 19/08 Q1024=
201910211000 METAR LRCL 211000Z 07006KT 030V100 CAVOK 21/09 Q1023=
201910211030 METAR LRCL 211030Z 05007KT CAVOK 21/08 Q1023=
201910211100 METAR LRCL 211100Z 09007KT CAVOK 22/09 Q1023=
201910211130 METAR LRCL 211130Z 07007KT 040V100 CAVOK 22/08 Q1023=
201910211200 METAR LRCL 211200Z 06006KT 030V090 CAVOK 23/08 Q1023=
201910211230 METAR LRCL 211230Z 12004KT 060V160 CAVOK 24/08 Q1023=
201910211300 METAR LRCL 211300Z 08004KT 020V160 CAVOK 24/08 Q1023=
201910211330 METAR LRCL 211330Z 10004KT 070V130 CAVOK 24/08 Q1023=
201910211400 METAR LRCL 211400Z VRB02KT CAVOK 24/08 Q1023=
201910211430 METAR LRCL 211430Z 06003KT CAVOK 23/08 Q1023=
201910211500 METAR LRCL 211500Z 08003KT CAVOK 22/08 Q1023=
201910211530 METAR LRCL 211530Z 09003KT 070V150 CAVOK 19/08 Q1023=
201910211600 METAR LRCL 211600Z 26003KT CAVOK 18/09 Q1023=
201910211630 METAR LRCL 211630Z 25004KT CAVOK 16/09 Q1023=
201910211700 METAR COR LRCL 211700Z VRB02KT CAVOK 15/09 Q1023=
201910211730 METAR LRCL 211730Z 25004KT CAVOK 14/08 Q1023=
201910211800 METAR LRCL 211800Z 26004KT CAVOK 13/08 Q1023=
201910211830 METAR LRCL 211830Z 23003KT 190V260 CAVOK 12/08 Q1024=
201910211900 METAR LRCL 211900Z 26003KT CAVOK 12/08 Q1024=
201910211930 METAR LRCL 211930Z 25004KT CAVOK 11/07 Q1024=
201910212000 METAR LRCL 212000Z 25004KT CAVOK 11/08 Q1024=
201910212030 METAR LRCL 212030Z VRB02KT CAVOK 11/08 Q1024=
201910212100 METAR LRCL 212100Z 00000KT CAVOK 10/07 Q1024=
201910212130 METAR LRCL 212130Z 00000KT CAVOK 10/07 Q1024=
201910212200 METAR LRCL 212200Z VRB02KT CAVOK 09/06 Q1024=
201910212230 METAR LRCL 212230Z 12002KT 8000 NSC 09/07 Q1024=
201910212300 METAR LRCL 212300Z 00000KT 8000 NSC 09/07 Q1024=
201910212330 METAR LRCL 212330Z 09003KT 040V110 8000 NSC 07/06 Q1024=
201910220000 METAR LRCL 220000Z 14001KT 7000 NSC 08/06 Q1024=
201910220030 METAR LRCL 220030Z 27003KT 6000 NSC 07/06 Q1024=
201910220100 METAR LRCL 220100Z 32001KT 5000 BR NSC 07/06 Q1024=
201910220130 METAR LRCL 220130Z 10001KT 5000 BR NSC 06/05 Q1024=
201910220200 METAR LRCL 220200Z 09002KT 5000 BR NSC 06/05 Q1024=
201910220230 METAR LRCL 220230Z 13002KT 5000 MIFG BR NSC 06/05 Q1025=
201910220300 METAR LRCL 220300Z 00000KT 5000 MIFG BR NSC 06/05 Q1025=
201910220330 METAR LRCL 220330Z 05001KT 3000 MIFG BR NSC 06/05 Q1025=
201910220400 METAR LRCL 220400Z VRB01KT 4000 MIFG BR NSC 06/05 Q1025=
201910220430 METAR LRCL 220430Z 33001KT 4000 BR NSC 06/05 Q1024=
201910220500 METAR LRCL 220500Z VRB01KT 4000 MIFG BR NSC 05/05 Q1025=
201910220530 METAR LRCL 220530Z 07002KT 4000 MIFG BR NSC 05/04 Q1025=
201910220600 METAR LRCL 220600Z 00000KT 4000 BR NSC 06/05 Q1025=
201910220630 METAR LRCL 220630Z 09002KT 4500 BR NSC 08/06 Q1026=
201910220700 METAR LRCL 220700Z 10003KT 6000 NSC 09/07 Q1026=
201910220730 METAR LRCL 220730Z 08003KT 050V110 CAVOK 11/07 Q1026=
201910220800 METAR LRCL 220800Z 08004KT 050V120 CAVOK 13/07 Q1026=
201910220830 METAR LRCL 220830Z VRB02KT CAVOK 14/07 Q1026=
201910220900 METAR LRCL 220900Z VRB02KT CAVOK 16/08 Q1026=
201910220930 METAR COR LRCL 220930Z VRB02KT CAVOK 16/08 Q1026=
201910221000 METAR COR LRCL 221000Z 08004KT 030V140 CAVOK 20/08 Q1025=
201910221030 METAR LRCL 221030Z 08005KT 040V120 CAVOK 21/08 Q1025=
201910221100 METAR LRCL 221100Z 07005KT 040V110 CAVOK 22/08 Q1024=
201910221130 METAR LRCL 221130Z 07005KT 040V100 CAVOK 23/08 Q1024=
201910221200 METAR LRCL 221200Z 10004KT 030V130 CAVOK 24/08 Q1024=
201910221230 METAR LRCL 221230Z 12003KT 090V160 CAVOK 24/08 Q1024=
201910221300 METAR LRCL 221300Z 13005KT 110V180 CAVOK 24/07 Q1024=
201910221330 METAR COR LRCL 221330Z 11003KT 070V160 CAVOK 24/07 Q1024=
201910221400 METAR LRCL 221400Z VRB02KT CAVOK 24/07 Q1024=
201910221430 METAR LRCL 221430Z VRB02KT CAVOK 24/07 Q1023=
201910221500 METAR LRCL 221500Z VRB01KT CAVOK 23/07 Q1023=
201910221530 METAR LRCL 221530Z 00000KT CAVOK 20/08 Q1024=
201910221600 METAR LRCL 221600Z 22005KT CAVOK 17/07 Q1024=
201910221630 METAR LRCL 221630Z AUTO 25004KT 9999 NCD 17/08 Q1024=
201910221700 METAR LRCL 221700Z VRB02KT CAVOK 15/08 Q1024=
201910221730 METAR LRCL 221730Z 26004KT 9000 NSC 14/08 Q1024=
201910221800 METAR LRCL 221800Z 25005KT 9000 NSC 13/08 Q1024=
201910221830 METAR LRCL 221830Z 26005KT 9000 NSC 12/08 Q1024=
201910221900 METAR LRCL 221900Z 25004KT 8000 NSC 12/08 Q1024=
201910221930 METAR LRCL 221930Z 26004KT 8000 NSC 12/08 Q1024=
201910222000 METAR LRCL 222000Z 25005KT 8000 NSC 11/07 Q1024=
201910222030 METAR LRCL 222030Z 26003KT 8000 NSC 11/08 Q1024=
201910222100 METAR LRCL 222100Z 24002KT 7000 NSC 10/07 Q1024=
201910222130 METAR LRCL 222130Z 00000KT 6000 NSC 09/06 Q1024=
201910222200 METAR LRCL 222200Z VRB01KT 7000 NSC 09/07 Q1024=
201910222230 METAR LRCL 222230Z 00000KT 6000 NSC 09/07 Q1024=
201910222300 METAR LRCL 222300Z 08002KT 5000 BR NSC 08/06 Q1024=
201910222330 METAR LRCL 222330Z 08004KT 5000 BR NSC 07/05 Q1024=
201910230000 METAR LRCL 230000Z 11003KT 5000 BR NSC 07/06 Q1024=
201910230030 METAR LRCL 230030Z 08001KT 5000 BR NSC 07/06 Q1024=
201910230100 METAR LRCL 230100Z 25002KT 5000 BR NSC 07/06 Q1024=
201910230130 METAR LRCL 230130Z VRB01KT 4500 BR NSC 07/06 Q1024=
201910230200 METAR LRCL 230200Z VRB01KT 4500 BR NSC 06/05 Q1024=
201910230230 METAR LRCL 230230Z 10003KT 4000 BR NSC 05/04 Q1024=
201910230300 METAR LRCL 230300Z 00000KT 4000 MIFG BR NSC 06/05 Q1024=
201910230330 METAR LRCL 230330Z 00000KT 3500 BR MIFG NSC 06/05 Q1024=
201910230400 METAR LRCL 230400Z 00000KT 3000 BR MIFG NSC 05/05 Q1024=
201910230430 METAR LRCL 230430Z 00000KT 8000 3700E BR MIFG NSC 06/05 Q1024=
201910230500 METAR LRCL 230500Z 07001KT 7000 2000E BR MIFG NSC 05/04 Q1024=
201910230530 METAR LRCL 230530Z 10003KT 3000 BR NSC 05/04 Q1025=
201910230600 METAR LRCL 230600Z 12002KT 3000 BR NSC 06/05 Q1025=
201910230630 METAR LRCL 230630Z 00000KT 3500 BR NSC 09/06 Q1025=
201910230700 METAR LRCL 230700Z VRB01KT 4000 BR NSC 10/06 Q1025=
201910230730 METAR LRCL 230730Z VRB01KT 5000 BR NSC 12/07 Q1025=
201910230800 METAR LRCL 230800Z VRB01KT 7000 NSC 14/07 Q1024=
201910230830 METAR LRCL 230830Z 08003KT CAVOK 15/07 Q1024=
201910230900 METAR LRCL 230900Z 07003KT CAVOK 16/08 Q1024=
201910230930 METAR LRCL 230930Z 08003KT CAVOK 18/08 Q1024=
201910231000 METAR LRCL 231000Z 07003KT CAVOK 19/08 Q1023=
201910231030 METAR LRCL 231030Z 08003KT CAVOK 21/08 Q1023=
201910231100 METAR LRCL 231100Z 07003KT CAVOK 22/08 Q1023=
201910231130 METAR LRCL 231130Z 07004KT CAVOK 23/08 Q1022=
201910231200 METAR LRCL 231200Z 07005KT CAVOK 24/07 Q1022=
201910231230 METAR LRCL 231230Z 07004KT CAVOK 25/07 Q1022=
201910231300 METAR LRCL 231300Z 08004KT CAVOK 25/08 Q1021=
201910231330 METAR LRCL 231330Z 08003KT CAVOK 25/07 Q1021=
201910231400 METAR LRCL 231400Z 11004KT CAVOK 24/08 Q1021=
201910231430 METAR LRCL 231430Z 10004KT CAVOK 23/07 Q1021=
201910231500 METAR LRCL 231500Z 10003KT CAVOK 22/07 Q1021=
201910231530 METAR LRCL 231530Z VRB02KT CAVOK 21/07 Q1021=
201910231600 METAR LRCL 231600Z 27003KT CAVOK 18/08 Q1021=
201910231630 METAR LRCL 231630Z 28003KT 230V300 CAVOK 16/08 Q1022=
201910231700 METAR COR LRCL 231700Z 28003KT 230V300 CAVOK 16/08 Q1022=
201910231730 METAR LRCL 231730Z 26003KT CAVOK 14/08 Q1022=
201910231800 METAR LRCL 231800Z 27003KT CAVOK 12/08 Q1022=
201910231830 METAR LRCL 231830Z 26003KT CAVOK 12/08 Q1022=
201910231900 METAR LRCL 231900Z 24003KT CAVOK 11/08 Q1022=
201910231930 METAR COR LRCL 231930Z 24004KT CAVOK 12/07 Q1022=
201910232000 METAR LRCL 232000Z VRB02KT CAVOK 11/08 Q1022=
201910232030 METAR LRCL 232030Z 00000KT CAVOK 09/07 Q1021=
201910232100 METAR LRCL 232100Z 00000KT CAVOK 09/07 Q1021=
201910232130 METAR LRCL 232130Z 00000KT CAVOK 08/06 Q1021=
201910232200 METAR LRCL 232200Z 10003KT CAVOK 08/05 Q1021=
201910232230 METAR LRCL 232230Z 11003KT 8000 NSC 07/06 Q1021=
201910232300 METAR LRCL 232300Z VRB02KT 8000 NSC 08/06 Q1021=
201910232330 METAR LRCL 232330Z VRB01KT 6000 NSC 07/06 Q1021=
201910240000 METAR LRCL 240000Z 00000KT 5000 BR NSC 07/06 Q1021=
201910240030 METAR LRCL 240030Z 00000KT 5000 BR NSC 07/06 Q1021=
201910240100 METAR LRCL 240100Z 00000KT 4000 MIFG BR NSC 06/05 Q1021=
201910240130 METAR LRCL 240130Z 00000KT 4000 MIFG BR NSC 06/05 Q1021=
201910240200 METAR LRCL 240200Z 00000KT 4000 MIFG BR NSC 05/05 Q1021=
201910240230 METAR LRCL 240230Z 13002KT 4000 MIFG BR NSC 04/04 Q1021=
201910240300 METAR LRCL 240300Z 36001KT 3000 MIFG BR NSC 04/04 Q1021=
201910240330 METAR LRCL 240330Z VRB01KT 4000 MIFG BR NSC 04/04 Q1021=
201910240400 METAR LRCL 240400Z 00000KT 4000 MIFG BR NSC 04/04 Q1021=
201910240430 METAR LRCL 240430Z 00000KT 5000 MIFG BR NSC 04/03 Q1021=
201910240500 METAR LRCL 240500Z 33002KT 3000 MIFG BR NSC 04/03 Q1021=
201910240530 METAR LRCL 240530Z 00000KT 4500 BR NSC 04/04 Q1021=
201910240600 METAR LRCL 240600Z 00000KT 5000 BR NSC 05/04 Q1021=
201910240630 METAR LRCL 240630Z 08003KT 5000 BR NSC 06/05 Q1021=
201910240700 METAR LRCL 240700Z 09003KT 5000 BR NSC 07/05 Q1021=
201910240730 METAR LRCL 240730Z VRB02KT 6000 NSC 10/06 Q1021=
201910240800 METAR LRCL 240800Z VRB01KT CAVOK 12/07 Q1021=
201910240830 METAR LRCL 240830Z 09002KT CAVOK 14/07 Q1021=
201910240900 METAR LRCL 240900Z VRB02KT CAVOK 15/08 Q1021=
201910240930 METAR LRCL 240930Z 08004KT 050V120 CAVOK 17/08 Q1020=
201910241000 METAR LRCL 241000Z 06006KT CAVOK 20/09 Q1020=
201910241030 METAR LRCL 241030Z 08008KT 050V110 CAVOK 21/08 Q1020=
201910241100 METAR LRCL 241100Z 07009KT CAVOK 22/08 Q1019=
201910241130 METAR LRCL 241130Z 10009KT CAVOK 23/08 Q1019=
201910241200 METAR LRCL 241200Z 09008KT CAVOK 23/07 Q1018=
201910241230 METAR LRCL 241230Z 11007KT CAVOK 24/07 Q1018=
201910241300 METAR LRCL 241300Z 11006KT 070V140 CAVOK 24/07 Q1018=
201910241330 METAR LRCL 241330Z 11006KT 070V130 CAVOK 24/06 Q1018=
201910241400 METAR LRCL 241400Z 11005KT CAVOK 24/07 Q1018=
201910241430 METAR LRCL 241430Z 14004KT CAVOK 23/07 Q1018=
201910241500 METAR LRCL 241500Z 13004KT CAVOK 22/07 Q1018=
201910241530 METAR LRCL 241530Z 06001KT CAVOK 18/07 Q1018=
201910241600 METAR LRCL 241600Z 00000KT CAVOK 17/07 Q1018=
201910241630 METAR LRCL 241630Z 26003KT CAVOK 16/07 Q1018=
201910241700 METAR LRCL 241700Z 00000KT CAVOK 13/06 Q1018=
201910241730 METAR LRCL 241730Z VRB02KT CAVOK 12/06 Q1018=
201910241800 METAR LRCL 241800Z 29003KT CAVOK 11/06 Q1018=
201910241830 METAR LRCL 241830Z 26001KT CAVOK 10/06 Q1018=
201910241900 METAR LRCL 241900Z 27004KT CAVOK 10/06 Q1018=
201910241930 METAR LRCL 241930Z 00000KT CAVOK 09/05 Q1018=
201910242000 METAR LRCL 242000Z 00000KT CAVOK 08/06 Q1018=
201910242030 METAR LRCL 242030Z 10002KT CAVOK 08/05 Q1018=
201910242100 METAR LRCL 242100Z 11001KT CAVOK 07/05 Q1018=
201910242130 METAR LRCL 242130Z 00000KT CAVOK 07/05 Q1018=
201910242200 METAR LRCL 242200Z 27003KT CAVOK 06/05 Q1018=
201910242230 METAR LRCL 242230Z 00000KT CAVOK 06/05 Q1019=
201910242300 METAR LRCL 242300Z 00000KT CAVOK 06/05 Q1019=
201910242330 METAR LRCL 242330Z 00000KT CAVOK 06/05 Q1019=
201910250000 METAR LRCL 250000Z 11002KT CAVOK 05/04 Q1019=
201910250030 METAR LRCL 250030Z 00000KT CAVOK 05/04 Q1019=
201910250100 METAR LRCL 250100Z VRB01KT CAVOK 05/04 Q1019=
201910250130 METAR LRCL 250130Z 25003KT CAVOK 05/04 Q1019=
201910250200 METAR LRCL 250200Z 28001KT CAVOK 04/03 Q1019=
201910250230 METAR LRCL 250230Z 00000KT CAVOK 04/04 Q1019=
201910250300 METAR LRCL 250300Z 08003KT 9999 MIFG NSC 03/03 Q1019=
201910250330 METAR LRCL 250330Z VRB02KT 9999 MIFG NSC 03/02 Q1019=
201910250400 METAR LRCL 250400Z VRB01KT 9999 MIFG NSC 03/02 Q1019=
201910250430 METAR LRCL 250430Z 00000KT 9999 MIFG NSC 03/02 Q1019=
201910250500 METAR LRCL 250500Z 00000KT 9999 MIFG NSC 03/02 Q1020=
201910250530 METAR LRCL 250530Z 00000KT 9999 MIFG NSC 04/03 Q1020=
201910250600 METAR LRCL 250600Z 00000KT 9999 3000E BCFG NSC 04/03 Q1020=
201910250630 METAR LRCL 250630Z 00000KT 5000 BR NSC 07/04 Q1020=
201910250700 METAR LRCL 250700Z VRB01KT 6000 NSC 08/04 Q1020=
201910250730 METAR LRCL 250730Z VRB02KT 6000 NSC 09/04 Q1021=
201910250800 METAR LRCL 250800Z VRB01KT 7000 NSC 13/05 Q1021=
201910250830 METAR LRCL 250830Z 08003KT 7000 NSC 13/05 Q1021=
201910250900 METAR LRCL 250900Z 09004KT 040V120 CAVOK 15/05 Q1021=
201910250930 METAR LRCL 250930Z 11004KT CAVOK 17/05 Q1021=
201910251000 METAR LRCL 251000Z 11003KT 360V160 CAVOK 18/05 Q1021=
201910251030 METAR LRCL 251030Z VRB02KT CAVOK 20/05 Q1021=
201910251100 METAR LRCL 251100Z 12003KT 060V150 CAVOK 21/06 Q1020=
201910251130 METAR LRCL 251130Z 14004KT 080V200 CAVOK 22/06 Q1020=
201910251200 METAR LRCL 251200Z VRB02KT CAVOK 23/06 Q1020=
201910251230 METAR LRCL 251230Z VRB02KT CAVOK 24/06 Q1020=
201910251300 METAR LRCL 251300Z VRB02KT CAVOK 25/06 Q1020=
201910251330 METAR LRCL 251330Z 33005KT CAVOK 24/05 Q1020=
201910251400 METAR LRCL 251400Z 31005KT CAVOK 24/05 Q1020=
201910251430 METAR LRCL 251430Z 31005KT CAVOK 23/06 Q1020=
201910251500 METAR LRCL 251500Z VRB02KT CAVOK 20/06 Q1020=
201910251530 METAR LRCL 251530Z 26006KT CAVOK 20/06 Q1020=
201910251600 METAR LRCL 251600Z VRB02KT CAVOK 16/06 Q1021=
201910251630 METAR LRCL 251630Z 26004KT 240V300 CAVOK 17/06 Q1021=
201910251700 METAR LRCL 251700Z 28005KT CAVOK 15/06 Q1021=
201910251730 METAR LRCL 251730Z 28003KT CAVOK 14/06 Q1021=
201910251800 METAR LRCL 251800Z 26002KT CAVOK 12/05 Q1022=
201910251830 METAR LRCL 251830Z 25007KT CAVOK 13/05 Q1022=
201910251900 METAR LRCL 251900Z 28005KT CAVOK 12/05 Q1022=
201910251930 METAR LRCL 251930Z 26008KT CAVOK 12/05 Q1022=
201910252000 METAR LRCL 252000Z 22002KT CAVOK 11/05 Q1023=
201910252030 METAR LRCL 252030Z 26006KT CAVOK 10/05 Q1023=
201910252100 METAR LRCL 252100Z 27003KT 230V310 CAVOK 10/05 Q1023=
201910252130 METAR LRCL 252130Z 26005KT CAVOK 09/04 Q1023=
201910252200 METAR LRCL 252200Z 24005KT CAVOK 08/04 Q1023=
201910252230 METAR LRCL 252230Z 26005KT CAVOK 08/04 Q1023=
201910252300 METAR LRCL 252300Z 25004KT CAVOK 08/05 Q1023=
201910252330 METAR LRCL 252330Z 27002KT CAVOK 09/05 Q1023=
201910260000 METAR LRCL 260000Z 24003KT CAVOK 07/04 Q1023=
201910260030 METAR LRCL 260030Z 27004KT 7000 NSC 07/05 Q1024=
201910260100 METAR LRCL 260100Z 24004KT CAVOK 07/04 Q1024=
201910260130 METAR LRCL 260130Z 25004KT CAVOK 07/04 Q1024=
201910260200 METAR LRCL 260200Z 29001KT CAVOK 07/05 Q1024=
201910260230 METAR LRCL 260230Z VRB01KT 6000 NSC 05/03 Q1023=
201910260300 METAR LRCL 260300Z 11004KT 5000 BR NSC 04/03 Q1024=
201910260330 METAR LRCL 260330Z 08003KT 5000 BR NSC 04/03 Q1024=
201910260400 METAR LRCL 260400Z VRB02KT 5000 BR NSC 04/03 Q1024=
201910260430 METAR LRCL 260430Z VRB01KT 5000 BR NSC 04/02 Q1024=
201910260500 METAR LRCL 260500Z VRB02KT 5000 MIFG BR NSC 03/02 Q1024=
201910260530 METAR LRCL 260530Z 11001KT 5000 MIFG BR NSC 04/02 Q1024=
201910260600 METAR LRCL 260600Z VRB02KT 5000 MIFG BR NSC 05/03 Q1025=
201910260630 METAR LRCL 260630Z VRB02KT 5000 BR NSC 06/04 Q1025=
201910260700 METAR LRCL 260700Z 10002KT 5000 BR NSC 07/04 Q1025=
201910260730 METAR LRCL 260730Z 08003KT 6000 NSC 09/05 Q1025=
201910260800 METAR LRCL 260800Z 10004KT CAVOK 11/05 Q1025=
201910260830 METAR LRCL 260830Z 10003KT CAVOK 13/05 Q1025=
201910260900 METAR COR LRCL 260900Z 13003KT CAVOK 15/05 Q1025=
201910260930 METAR LRCL 260930Z 08002KT CAVOK 16/05 Q1025=
201910261000 METAR LRCL 261000Z VRB02KT CAVOK 17/05 Q1025=
201910261030 METAR LRCL 261030Z VRB02KT CAVOK 19/05 Q1024=
201910261100 METAR LRCL 261100Z 08004KT CAVOK 19/06 Q1024=
201910261130 METAR LRCL 261130Z 10003KT CAVOK 20/06 Q1024=
201910261200 METAR LRCL 261200Z 10003KT CAVOK 21/06 Q1023=
201910261230 METAR LRCL 261230Z 09003KT CAVOK 22/05 Q1023=
201910261300 METAR LRCL 261300Z VRB02KT CAVOK 22/04 Q1023=
201910261330 METAR LRCL 261330Z VRB02KT CAVOK 22/04 Q1023=
201910261400 METAR LRCL 261400Z 09002KT CAVOK 22/04 Q1023=
201910261430 METAR LRCL 261430Z 08004KT CAVOK 21/05 Q1023=
201910261500 METAR LRCL 261500Z 08004KT CAVOK 19/05 Q1022=
201910261530 METAR LRCL 261530Z VRB02KT CAVOK 17/05 Q1023=
201910261600 METAR LRCL 261600Z VRB02KT CAVOK 16/06 Q1023=
201910261630 METAR LRCL 261630Z VRB01KT CAVOK 14/05 Q1023=
201910261700 METAR LRCL 261700Z VRB01KT CAVOK 12/05 Q1023=
201910261730 METAR LRCL 261730Z 25002KT CAVOK 11/06 Q1023=
201910261800 METAR LRCL 261800Z 28001KT 7000 NSC 10/06 Q1023=
201910261830 METAR LRCL 261830Z 28002KT 7000 NSC 09/06 Q1023=
201910261900 METAR LRCL 261900Z 23002KT 6000 NSC 08/04 Q1024=
201910261930 METAR LRCL 261930Z 26003KT 6000 NSC 09/06 Q1024=
201910262000 METAR LRCL 262000Z 24004KT 6000 NSC 08/05 Q1024=
201910262030 METAR LRCL 262030Z 24003KT 7000 NSC 08/04 Q1024=
201910262100 METAR LRCL 262100Z 26003KT 7000 NSC 08/04 Q1024=
201910262130 METAR LRCL 262130Z 24003KT 7000 NSC 08/04 Q1024=
201910262200 METAR LRCL 262200Z 25004KT 6000 NSC 07/04 Q1024=
201910262230 METAR LRCL 262230Z 24004KT 8000 NSC 08/04 Q1023=
201910262300 METAR LRCL 262300Z 26004KT 8000 NSC 06/03 Q1023=
201910262330 METAR LRCL 262330Z 10004KT 5000 BR NSC 05/03 Q1023=
201910270000 METAR LRCL 270000Z 08003KT 5000 BR NSC 04/03 Q1024=
201910270030 METAR COR LRCL 270030Z 08002KT 5000 BR NSC 04/03 Q1023=
201910270100 METAR LRCL 270100Z 14001KT 5000 BR NSC 03/02 Q1023=
201910270130 METAR LRCL 270130Z 00000KT 3000 BR NSC 03/03 Q1023=
201910270200 METAR LRCL 270200Z 00000KT 3000 MIFG BR NSC 03/02 Q1023=
201910270230 METAR LRCL 270230Z 08002KT 1500 MIFG BR NSC 03/02 Q1023=
201910270300 METAR LRCL 270300Z 12002KT 1500 MIFG BR NSC 02/01 Q1022=
201910270330 METAR LRCL 270330Z 00000KT 0800 R25/0225V0450U FG NSC 02/02
                        Q1022=
201910270400 METAR LRCL 270400Z 00000KT 0800 R25/0150N FG NSC 01/00 Q1022=
201910270430 METAR LRCL 270430Z 07001KT 0800 R25/0225N FG NSC 01/00 Q1022=
201910270500 METAR LRCL 270500Z 10003KT 0600 R25/1500N FG NSC 01/M00 Q1022=
201910270530 METAR LRCL 270530Z 10003KT 0800 R25/0300N FG NSC 01/M00 Q1023=
201910270600 METAR LRCL 270600Z 08001KT 0300 R25/0125N FG NSC 01/00 Q1023=
201910270630 METAR LRCL 270630Z VRB02KT 0300 R25/0175V0500U FG NSC 02/01
                        Q1023=
201910270700 METAR LRCL 270700Z VRB01KT 0800 R25/0650V1600U FG NSC 03/02
                        Q1022=
201910270730 METAR LRCL 270730Z 09003KT 9999 3500E BR NSC 05/04 Q1023=
201910270800 METAR LRCL 270800Z VRB02KT 8000 NSC 08/04 Q1022=
201910270830 METAR LRCL 270830Z 08003KT 020V140 CAVOK 10/03 Q1022=
201910270900 METAR LRCL 270900Z 08004KT 050V110 CAVOK 12/04 Q1022=
201910270930 METAR LRCL 270930Z 08004KT 050V110 CAVOK 14/02 Q1022=
201910271000 METAR LRCL 271000Z VRB02KT CAVOK 15/02 Q1021=
201910271030 METAR LRCL 271030Z 09003KT 030V130 CAVOK 17/M00 Q1021=
201910271100 METAR LRCL 271100Z VRB02KT CAVOK 18/02 Q1020=
201910271130 METAR LRCL 271130Z 07004KT 360V110 CAVOK 19/02 Q1020=
201910271200 METAR LRCL 271200Z 08004KT 050V110 CAVOK 20/03 Q1020=
201910271230 METAR LRCL 271230Z 08003KT 030V130 CAVOK 20/03 Q1019=
201910271300 METAR LRCL 271300Z VRB03KT CAVOK 21/04 Q1019=
201910271330 METAR LRCL 271330Z 10003KT 040V160 CAVOK 21/02 Q1019=
201910271400 METAR LRCL 271400Z VRB02KT CAVOK 21/03 Q1019=
201910271430 METAR LRCL 271430Z 07002KT CAVOK 20/02 Q1018=
201910271500 METAR COR LRCL 271500Z 06001KT CAVOK 18/03 Q1018=
201910271530 METAR LRCL 271530Z 16002KT CAVOK 16/03 Q1018=
201910271600 METAR LRCL 271600Z VRB01KT CAVOK 13/03 Q1018=
201910271630 METAR LRCL 271630Z 24003KT CAVOK 11/03 Q1018=
201910271700 METAR COR LRCL 271700Z 28003KT CAVOK 10/05 Q1019=
201910271730 METAR LRCL 271730Z 28003KT CAVOK 10/05 Q1019=
201910271800 METAR LRCL 271800Z 27003KT CAVOK 09/05 Q1019=
201910271830 METAR LRCL 271830Z 26003KT 8000 NSC 08/05 Q1019=
201910271900 METAR LRCL 271900Z 25003KT 8000 NSC 08/04 Q1019=
201910271930 METAR LRCL 271930Z 25004KT 8000 NSC 08/04 Q1018=
201910272000 METAR LRCL 272000Z 23005KT 8000 NSC 07/02 Q1018=
201910272030 METAR LRCL 272030Z 26004KT 8000 NSC 07/03 Q1018=
201910272100 METAR LRCL 272100Z 24003KT 8000 NSC 07/03 Q1018=
201910272130 METAR LRCL 272130Z 23004KT CAVOK 07/02 Q1018=
201910272200 METAR LRCL 272200Z 28003KT CAVOK 05/02 Q1018=
201910272230 METAR LRCL 272230Z 00000KT CAVOK 05/03 Q1018=
201910272300 METAR LRCL 272300Z VRB02KT CAVOK 04/01 Q1018=
201910272330 METAR LRCL 272330Z 12003KT CAVOK 03/02 Q1018=
201910280000 METAR LRCL 280000Z VRB02KT 8000 NSC 03/02 Q1018=
201910280030 METAR LRCL 280030Z 00000KT 7000 NSC 03/01 Q1018=
201910280100 METAR LRCL 280100Z 00000KT 7000 NSC 02/01 Q1018=
201910280130 METAR LRCL 280130Z 00000KT 6000 NSC 03/02 Q1017=
201910280200 METAR LRCL 280200Z 00000KT 6000 NSC 02/01 Q1017=
201910280230 METAR LRCL 280230Z 28001KT 6000 NSC 02/01 Q1017=
201910280300 METAR LRCL 280300Z VRB01KT 6000 NSC 02/01 Q1017=
201910280330 METAR LRCL 280330Z 10004KT 6000 NSC 01/M00 Q1017=
201910280400 METAR LRCL 280400Z 07001KT 6000 NSC 01/M00 Q1017=
201910280430 METAR LRCL 280430Z VRB01KT 6000 NSC 01/00 Q1017=
201910280500 METAR LRCL 280500Z 36001KT 5000 BR NSC 01/M00 Q1017=
201910280530 METAR LRCL 280530Z 00000KT 4000 BR NSC 01/00 Q1017=
201910280600 METAR LRCL 280600Z VRB01KT 5000 BR NSC 02/01 Q1017=
201910280630 METAR LRCL 280630Z VRB02KT 5000 BR NSC 03/01 Q1017=
201910280700 METAR LRCL 280700Z VRB02KT 5000 BR NSC 05/02 Q1017=
201910280730 METAR LRCL 280730Z VRB01KT 6000 NSC 07/02 Q1017=
201910280800 METAR LRCL 280800Z 08003KT 040V140 CAVOK 09/02 Q1017=
201910280830 METAR LRCL 280830Z 09003KT 050V120 CAVOK 10/03 Q1017=
201910280900 METAR LRCL 280900Z 09005KT 060V120 CAVOK 12/03 Q1017=
201910280930 METAR LRCL 280930Z 07003KT 360V100 CAVOK 13/02 Q1017=
201910281000 METAR LRCL 281000Z VRB02KT CAVOK 15/01 Q1016=
201910281030 METAR LRCL 281030Z 11003KT 060V150 CAVOK 16/02 Q1016=
201910281100 METAR LRCL 281100Z 11003KT 070V160 CAVOK 17/02 Q1016=
201910281130 METAR LRCL 281130Z VRB04KT CAVOK 18/02 Q1015=
201910281200 METAR LRCL 281200Z 04003KT 350V090 CAVOK 19/02 Q1015=
201910281230 METAR LRCL 281230Z 08004KT 050V120 CAVOK 19/02 Q1015=
201910281300 METAR LRCL 281300Z 08004KT CAVOK 19/03 Q1015=
201910281330 METAR LRCL 281330Z 07003KT 040V100 CAVOK 19/03 Q1015=
201910281400 METAR LRCL 281400Z VRB02KT CAVOK 18/03 Q1015=
201910281430 METAR LRCL 281430Z 34006KT CAVOK 18/06 Q1015=
201910281500 METAR LRCL 281500Z 33006KT CAVOK 17/06 Q1015=
201910281530 METAR LRCL 281530Z 35003KT CAVOK 15/06 Q1015=
201910281600 METAR LRCL 281600Z VRB01KT CAVOK 14/06 Q1016=
201910281630 METAR LRCL 281630Z VRB02KT CAVOK 14/06 Q1016=
201910281700 METAR LRCL 281700Z VRB01KT CAVOK 13/06 Q1016=
201910281730 METAR LRCL 281730Z VRB02KT 7000 NSC 13/06 Q1016=
201910281800 METAR LRCL 281800Z VRB02KT 7000 NSC 13/07 Q1016=
201910281830 METAR LRCL 281830Z 29003KT 7000 NSC 12/07 Q1016=
201910281900 METAR LRCL 281900Z VRB03KT 7000 NSC 13/07 Q1016=
201910281930 METAR LRCL 281930Z 29003KT 7000 NSC 13/07 Q1016=
201910282000 METAR LRCL 282000Z VRB01KT 7000 NSC 13/08 Q1016=
201910282030 METAR LRCL 282030Z VRB02KT 6000 NSC 12/08 Q1016=
201910282100 METAR LRCL 282100Z 23003KT 6000 NSC 13/08 Q1017=
201910282130 METAR LRCL 282130Z 35001KT 6000 NSC 12/08 Q1016=
201910282200 METAR LRCL 282200Z 29003KT 6000 -RA FEW060 12/09 Q1017=
201910282230 METAR LRCL 282230Z VRB02KT 5000 -RA BR SCT060 12/09 Q1017
                        R07/29//95=
201910282300 METAR LRCL 282300Z 26003KT 5000 BR FEW060 11/09 Q1016 R07/29//95=
201910282330 METAR LRCL 282330Z VRB02KT 5000 BR SCT060 11/09 Q1017 R07/29//95=
201910290000 METAR LRCL 290000Z 13002KT 5000 BR SCT060 11/09 Q1016 R07/29//95=
201910290030 METAR LRCL 290030Z VRB02KT 5000 BR SCT060 11/09 Q1016 R07/29//95=
201910290100 METAR LRCL 290100Z 25002KT 5000 BR BKN057 11/09 Q1016 R07/29//95=
201910290130 METAR COR LRCL 290130Z 25002KT 4000 BR BKN057 11/09 Q1016
                        R07/29//95=
201910290200 METAR LRCL 290200Z 28005KT 4000 -RA BR FEW025 OVC057 11/09
                        Q1016 R07/29//95=
201910290230 METAR LRCL 290230Z VRB02KT 3000 -RA BR FEW025 OVC057 11/09
                        Q1016 R07/29//95=
201910290300 METAR LRCL 290300Z 32003KT 3000 -RA BR OVC057 11/09 Q1016
                        R07/29//95=
201910290330 METAR LRCL 290330Z VRB01KT 3000 -RA BR FEW046 OVC057 10/09
                        Q1016 R07/29//95=
201910290400 METAR LRCL 290400Z 12003KT 3000 -RA BR FEW006 OVC062 10/10
                        Q1016 R07/29//95=
201910290430 METAR LRCL 290430Z 00000KT 3000 -RA BR SCT006 OVC065 10/09
                        Q1016 R07/29//95=
201910290500 METAR LRCL 290500Z 09003KT 2000 -RA BR SCT006 BKN065 10/09
                        Q1016 R07/29//95=
201910290530 METAR LRCL 290530Z VRB02KT 2000 -RA BR SCT006 SCT065 10/09
                        Q1017 R07/29//95=
201910290600 METAR LRCL 290600Z VRB02KT 2500 -RA BR SCT006 SCT023 10/09
                        Q1017 R07/29//95=
201910290630 METAR LRCL 290630Z VRB02KT 3000 -RA BR BKN006 10/09 Q1017
                        R07/29//95=
201910290700 METAR LRCL 290700Z 02003KT 4000 -RA BR BKN006 10/09 Q1017
                        R07/29//95=
201910290730 METAR LRCL 290730Z 36003KT 320V040 6000 BKN007 BKN026 11/09
                        Q1017 R07/29//95=
201910290800 METAR LRCL 290800Z 01003KT 350V050 7000 BKN006 BKN027 11/09
                        Q1017 R07/29//95=
201910290830 METAR LRCL 290830Z VRB01KT 7000 BKN007 BKN027 11/09 Q1017
                        R07/29//95=
201910290900 METAR LRCL 290900Z 34004KT 8000 BKN008 BKN028 11/09 Q1017
                        R07/29//95=
201910290930 METAR LRCL 290930Z 36004KT 9000 BKN009 BKN030 11/09 Q1017
                        R07/29//95=
201910291000 METAR LRCL 291000Z VRB02KT 9000 BKN009 BKN030 12/10 Q1017
                        R07/29//95=
201910291030 METAR LRCL 291030Z VRB01KT 8000 BKN011 BKN030 12/09 Q1017
                        R07/19//95=
201910291100 METAR LRCL 291100Z VRB02KT 8000 BKN012 BKN032 12/09 Q1017
                        R07/19//95=
201910291130 METAR LRCL 291130Z 00000KT 8000 BKN014 BKN032 12/09 Q1016
                        R07/19//95=
201910291200 METAR LRCL 291200Z 00000KT 9000 BKN013 BKN033 12/09 Q1016
                        R07/19//95=
201910291230 METAR LRCL 291230Z 00000KT 9000 BKN014 BKN033 12/09 Q1016
                        R07/19//95=
201910291300 METAR LRCL 291300Z 35004KT 320V030 9999 -RA BKN018 BKN033
                        12/08 Q1017 R07/19//95=
201910291330 METAR LRCL 291330Z 30007KT 9999 -RA BKN027 BKN041 11/05 Q1017
                        R07/29//95=
201910291400 METAR LRCL 291400Z 26007KT 230V290 9999 -RA FEW018 BKN028
                        BKN035 10/05 Q1018 R07/29//95=
201910291430 METAR LRCL 291430Z 30006KT 9999 -RA BKN032 09/05 Q1018 R07/29//95=
201910291500 METAR LRCL 291500Z 27004KT 240V320 9999 -RA BKN034 09/06
                        Q1018 R07/29//95=
201910291530 METAR LRCL 291530Z 27006KT 9999 -RA BKN036 08/05 Q1018 R07/29//95=
201910291600 METAR LRCL 291600Z 28005KT 9999 -RA BKN039 08/06 Q1018 R07/29//95=
201910291630 METAR LRCL 291630Z 29004KT 9999 -RA BKN042 08/06 Q1019 R07/29//95=
201910291700 METAR LRCL 291700Z 27005KT 9999 -RA BKN044 08/06 Q1019 R07/29//95=
201910291730 METAR LRCL 291730Z 26004KT 9999 BKN044 08/06 Q1019 R07/29//95=
201910291800 METAR LRCL 291800Z 28007KT 9999 -RA BKN045 08/06 Q1019 R07/29//95=
201910291830 METAR LRCL 291830Z 27006KT 9999 -RA BKN046 08/05 Q1019 R07/29//95=
201910291900 METAR LRCL 291900Z 27006KT 9999 -RA BKN050 08/06 Q1019 R07/29//95=
201910291930 METAR LRCL 291930Z VRB02KT 9999 SCT050 08/06 Q1020 R07/29//95=
201910292000 METAR LRCL 292000Z 02001KT 9999 SCT050 08/05 Q1020 R07/29//95=
201910292030 METAR LRCL 292030Z 30003KT 220V350 9999 FEW050 08/04 Q1020
                        R07/29//95=
201910292100 METAR LRCL 292100Z 26005KT CAVOK 07/05 Q1020 R07/29//95=
201910292130 METAR LRCL 292130Z 29003KT 250V020 CAVOK 07/03 Q1020 R07/29//95=
201910292200 METAR LRCL 292200Z 25005KT CAVOK 07/04 Q1020 R07/29//95=
201910292230 METAR LRCL 292230Z 28006KT 240V300 CAVOK 08/02 Q1020 R07/19//95=
201910292300 METAR LRCL 292300Z 25006KT CAVOK 07/02 Q1020 R07/19//95=
201910292330 METAR LRCL 292330Z 28005KT 250V310 CAVOK 07/03 Q1021 R07/CLRD//=
201910300000 METAR LRCL 300000Z 27005KT CAVOK 07/03 Q1021=
201910300030 METAR LRCL 300030Z 26007KT CAVOK 07/03 Q1021=
201910300100 METAR LRCL 300100Z 28006KT CAVOK 07/03 Q1021=
201910300130 METAR COR LRCL 300130Z VRB02KT 9999 FEW031 07/04 Q1021=
201910300200 METAR LRCL 300200Z 28004KT 9999 FEW032 07/03 Q1021=
201910300230 METAR LRCL 300230Z 21003KT CAVOK 06/03 Q1021=
201910300300 METAR LRCL 300300Z AUTO VRB02KT 9999 OVC110/// 06/03 Q1021=
201910300330 METAR LRCL 300330Z VRB01KT CAVOK 06/03 Q1022=
201910300400 METAR LRCL 300400Z 13002KT CAVOK 06/03 Q1022=
201910300430 METAR LRCL 300430Z VRB01KT 9999 SCT027 06/03 Q1022=
201910300500 METAR LRCL 300500Z 14001KT 9999 BKN027 05/03 Q1022=
201910300530 METAR LRCL 300530Z 30003KT 9999 SCT027 05/03 Q1022=
201910300600 METAR LRCL 300600Z 25005KT 9999 SCT030 06/03 Q1023=
201910300630 METAR LRCL 300630Z 26005KT 9999 FEW030 07/03 Q1023=
201910300700 METAR LRCL 300700Z 26005KT 220V280 9999 FEW030 08/03 Q1023=
201910300730 METAR LRCL 300730Z VRB02KT CAVOK 08/02 Q1023=
201910300800 METAR LRCL 300800Z VRB02KT CAVOK 08/02 Q1023=
201910300830 METAR LRCL 300830Z VRB02KT CAVOK 08/02 Q1023=
201910300900 METAR LRCL 300900Z 10003KT 040V140 9999 FEW031 09/03 Q1023=
201910300930 METAR LRCL 300930Z 08004KT 050V110 9999 SCT021 08/03 Q1023=
201910301000 METAR LRCL 301000Z 07004KT 020V110 9999 BKN019 09/04 Q1023=
201910301030 METAR LRCL 301030Z 10003KT 030V140 9999 BKN019 09/04 Q1023=
201910301100 METAR LRCL 301100Z VRB02KT 9999 BKN019 09/04 Q1023=
201910301130 METAR LRCL 301130Z VRB02KT 9999 SCT018 BKN049 09/04 Q1023=
201910301200 METAR LRCL 301200Z VRB02KT 9999 SCT024 BKN049 09/04 Q1022=
201910301230 METAR LRCL 301230Z 05003KT 340V120 9999 SCT030 BKN046 10/05
                        Q1022=
201910301300 METAR LRCL 301300Z 06003KT 020V090 9999 BKN029 10/04 Q1022=
201910301330 METAR COR LRCL 301330Z 05003KT 360V090 9999 BKN032 10/04
                        Q1022=
201910301400 METAR COR LRCL 301400Z 01003KT 350V060 9999 BKN034 10/04
                        Q1023=
201910301430 METAR COR LRCL 301430Z 35003KT 9999 BKN036 10/04 Q1023=
201910301500 METAR LRCL 301500Z 06003KT 9999 OVC043 09/05 Q1022=
201910301530 METAR LRCL 301530Z 11003KT 080V140 9999 -RA BKN017 OVC055
                        09/06 Q1023=
201910301600 METAR COR LRCL 301600Z 11004KT 070V140 9999 -RA OVC039 09/06
                        Q1023 R07/29//95=
201910301630 METAR LRCL 301630Z 10004KT 060V140 9999 -RA OVC044 08/06
                        Q1023 R07/29//95=
201910301700 METAR LRCL 301700Z 07003KT 050V140 8000 -RA OVC037 08/06
                        Q1023 R07/29//95=
201910301730 METAR LRCL 301730Z 08004KT 6000 -RA OVC033 08/07 Q1023 R07/29//95=
201910301800 METAR LRCL 301800Z VRB01KT 7000 -RA FEW016 OVC042 08/07 Q1023
                        R07/29//95=
201910301830 METAR LRCL 301830Z 05009KT 020V080 6000 -RA BKN007 OVC035
                        07/05 Q1023 R07/29//95=
201910301900 METAR LRCL 301900Z 03009KT 5000 RA BR BKN009 OVC028 06/05
                        Q1024 R07/29//95=
201910301930 METAR LRCL 301930Z 02010KT 7000 -RA BKN012 OVC026 06/05 Q1024
                        RERA R07/29//95=
201910302000 METAR LRCL 302000Z 03010KT 9999 -RA BKN010 OVC030 05/04 Q1025
                        R07/29//95=
201910302030 METAR LRCL 302030Z 03010KT 9999 -RA BKN022 OVC030 05/03 Q1025
                        R07/29//95=
201910302100 METAR LRCL 302100Z 02006KT 9999 -RA BKN022 OVC030 05/03 Q1025
                        R07/29//95=
201910302130 METAR LRCL 302130Z 02006KT 9999 -RA OVC027 05/03 Q1025 R07/29//95=
201910302200 METAR LRCL 302200Z 02005KT 330V060 9999 -RA OVC024 05/03
                        Q1025 R07/29//95=
201910302230 METAR LRCL 302230Z 03004KT 350V050 6000 -RA OVC019 04/03
                        Q1025 R07/29//95=
201910302300 METAR LRCL 302300Z 03004KT 6000 -RA OVC019 04/03 Q1025 R07/29//95=
201910302330 METAR LRCL 302330Z 02004KT 350V050 8000 -RA OVC010 04/03
                        Q1025 R07/29//95=
201910310000 METAR LRCL 310000Z 04004KT 360V060 9999 -RA OVC012 04/03
                        Q1025 R07/29//95=
201910310030 METAR LRCL 310030Z 04004KT 360V060 9000 -RA OVC011 05/03
                        Q1025 R07/29//95=
201910310100 METAR LRCL 310100Z 05004KT 010V080 7000 -RA OVC011 05/03
                        Q1025 R07/29//95=
201910310130 METAR LRCL 310130Z 04004KT 6000 -DZ FEW007 OVC016 04/03 Q1025
                        R07/29//95=
201910310200 METAR LRCL 310200Z 03003KT 7000 -DZ OVC016 04/03 Q1025 R07/29//95=
201910310230 METAR LRCL 310230Z 04002KT 9999 OVC027 04/03 Q1024 R07/29//95=
201910310300 METAR LRCL 310300Z 08002KT 9999 BKN029 04/03 Q1024 R07/29//95=
201910310330 METAR LRCL 310330Z 04002KT 9999 BKN021 05/03 Q1025 R07/29//95=
201910310400 METAR LRCL 310400Z 06004KT 9999 SCT008 BKN021 05/03 Q1025
                        R07/29//95=
201910310430 METAR LRCL 310430Z 04005KT 9999 SCT021 OVC032 05/03 Q1024
                        R07/29//95=
201910310500 METAR LRCL 310500Z 05004KT 9999 FEW022 OVC031 05/03 Q1025
                        R07/29//95=
201910310530 METAR LRCL 310530Z 05004KT 9999 FEW023 BKN026 05/03 Q1025
                        R07/19//95=
201910310600 METAR LRCL 310600Z 05002KT 9999 SCT022 BKN030 05/03 Q1025
                        R07/19//95=
201910310630 METAR LRCL 310630Z VRB01KT 9999 FEW022 BKN027 05/04 Q1025
                        R07/19//95=
201910310700 METAR LRCL 310700Z 05003KT 9999 FEW023 BKN032 05/03 Q1025
                        R07/19//95=
201910310730 METAR LRCL 310730Z 07003KT 9999 FEW010 BKN033 05/03 Q1025
                        R07/19//95=
201910310800 METAR LRCL 310800Z 09005KT 9999 FEW008 BKN033 06/03 Q1025
                        R07/19//95=
201910310830 METAR LRCL 310830Z 09005KT 9999 FEW011 BKN033 06/02 Q1025
                        R07/19//95=
201910310900 METAR LRCL 310900Z 10006KT 9999 FEW015 BKN033 07/02 Q1025
                        R07/CLRD//=
201910310930 METAR LRCL 310930Z 13008KT 9999 FEW015 BKN033 07/02 Q1025=
201910311000 METAR LRCL 311000Z 14008KT 9999 FEW018 BKN033 07/02 Q1025=
201910311030 METAR LRCL 311030Z 14010KT 9999 FEW018 BKN030 07/01 Q1025=
201910311100 METAR LRCL 311100Z 14009KT 9999 FEW018 BKN030 06/01 Q1025=
201910311130 METAR LRCL 311130Z 12007KT 9999 SCT018 BKN030 07/02 Q1025=
201910311200 METAR LRCL 311200Z 13007KT 9999 SCT018 OVC030 06/02 Q1025=
201910311230 METAR LRCL 311230Z 11006KT 9999 BKN016 OVC030 06/02 Q1025=
201910311300 METAR LRCL 311300Z 14005KT 9999 BKN016 OVC030 07/02 Q1024=
201910311330 METAR LRCL 311330Z 13006KT 9999 BKN016 OVC030 06/02 Q1024=
201910311400 METAR LRCL 311400Z 14007KT 9999 BKN016 OVC030 06/02 Q1024=
201910311430 METAR LRCL 311430Z 13006KT 9999 BKN018 OVC030 06/03 Q1024=
201910311500 METAR LRCL 311500Z 13006KT 9999 BKN018 OVC030 06/03 Q1024=
201910311530 METAR LRCL 311530Z 13004KT 9999 BKN018 OVC030 06/03 Q1024=
201910311600 METAR LRCL 311600Z 12003KT 9999 BKN018 OVC030 06/03 Q1025=
201910311630 METAR LRCL 311630Z 12004KT 9999 SCT018 BKN026 06/03 Q1025=
201910311700 METAR LRCL 311700Z 11004KT 9999 BKN024 06/03 Q1025=
201910311730 METAR LRCL 311730Z 12004KT 100V160 9999 BKN022 06/03 Q1025=
201910311800 METAR LRCL 311800Z 11003KT 070V160 9999 BKN024 06/03 Q1025=
201910311830 METAR LRCL 311830Z 09003KT 050V140 9999 OVC023 06/03 Q1025=
201910311900 METAR LRCL 311900Z 09004KT 9999 OVC024 06/03 Q1025=
201910311930 METAR LRCL 311930Z 10005KT 070V140 9999 OVC025 06/03 Q1025=
201910312000 METAR LRCL 312000Z 09005KT 9999 OVC026 06/03 Q1025=
201910312030 METAR LRCL 312030Z 10004KT 070V130 9999 OVC026 06/03 Q1025=
201910312100 METAR LRCL 312100Z 10004KT 9999 OVC028 06/03 Q1025=
201910312130 METAR LRCL 312130Z 10004KT 9999 BKN030 BKN041 06/03 Q1025=
201910312200 METAR LRCL 312200Z 08004KT 9999 BKN029 06/03 Q1025=
201910312230 METAR LRCL 312230Z 09005KT 9999 SCT015 BKN030 06/03 Q1024=
201910312300 METAR LRCL 312300Z 09005KT 9999 BKN015 06/04 Q1025=
201910312330 METAR LRCL 312330Z 09004KT 9999 BKN019 OVC067 06/03 Q1024=
