201911010200 TAF LRCL 010200Z 0103/0112 VRB04KT 9999 BKN015 OVC050
                      BECMG 0105/0107 SCT035=
201911010500 TAF LRCL 010500Z 0106/0115 VRB04KT 9999 BKN020
                      TEMPO 0106/0108 OVC015=
201911010800 TAF LRCL 010800Z 0109/0118 VRB04KT 9999 BKN030=
201911011100 TAF LRCL 011100Z 0112/0121 14006KT 9999 SCT030=
201911011400 TAF LRCL 011400Z 0115/0124 13007KT 9999 SCT050=
201911011700 TAF LRCL 011700Z 0118/0203 VRB04KT 9999 SCT030
                      BECMG 0201/0203 14010KT=
201911012000 TAF LRCL 012000Z 0121/0206 VRB04KT 9999 SCT030
                      BECMG 0201/0203 14010KT=
201911012300 TAF LRCL 012300Z 0200/0209 05006KT 9999 SCT030
                      BECMG 0201/0203 14010KT=
201911020200 TAF LRCL 020200Z 0203/0212 07006KT CAVOK
                      BECMG 0206/0208 14010KT=
201911020500 TAF LRCL 020500Z 0206/0215 07006KT CAVOK
                      BECMG 0207/0209 14010KT
                      TEMPO 0211/0215 5000 -RA BKN015 OVC030=
201911020800 TAF LRCL 020800Z 0209/0218 08010KT CAVOK
                      BECMG 0209/0211 15008KT
                      TEMPO 0211/0216 5000 -RA BKN015 OVC030=
201911021100 TAF LRCL 021100Z 0212/0221 12012KT CAVOK
                      TEMPO 0212/0216 5000 -RA BKN015 OVC030
                      BECMG 0218/0220 5000 BR OVC010=
201911021400 TAF LRCL 021400Z 0215/0224 10008KT 9999 SCT045
                      TEMPO 0215/0217 5000 -RA BR BKN015 OVC030
                       BECMG 0218/0220 5000 BR OVC010
                      PROB30 TEMPO 0220/0224 3000 BR BKN005 OVC010=
201911021700 TAF LRCL 021700Z 0218/0303 08008KT 9999 BKN060
                      TEMPO 0218/0223 5000 -RA BR BKN015 OVC050=
201911022000 TAF LRCL 022000Z 0221/0306 09008KT 9999 SCT060
                      TEMPO 0221/0224 5000 -RA BR BKN015 OVC050=
201911022300 TAF LRCL 022300Z 0300/0309 09007KT 9999 SCT060=
201911030200 TAF LRCL 030200Z 0303/0312 07007KT 9999 SCT060=
201911030500 TAF LRCL 030500Z 0306/0315 VRB04KT 9999 BKN060=
201911030800 TAF LRCL 030800Z 0309/0318 08008KT CAVOK=
201911031100 TAF LRCL 031100Z 0312/0321 08008KT CAVOK=
201911031400 TAF LRCL 031400Z 0315/0324 VRB03KT CAVOK=
201911031700 TAF LRCL 031700Z 0318/0403 16008KT 9999 SCT060=
201911032000 TAF LRCL 032000Z 0321/0406 16008KT CAVOK=
201911032300 TAF LRCL 032300Z 0400/0409 VRB04KT 9999 SCT060
                      BECMG 0407/0409 16012KT=
201911040200 TAF LRCL 040200Z 0403/0412 09007KT CAVOK
                      BECMG 0407/0409 16012KT
                      TEMPO 0409/0412 FEW040CB BKN060=
201911040500 TAF LRCL 040500Z 0406/0415 15012KT CAVOK
                      TEMPO 0406/0409 5000 -RA BR BKN015 BKN060
                       TEMPO 0412/0415 5000 -SHRA BKN015 SCT030CB
                       OVC045=
201911040800 TAF LRCL 040800Z 0409/0418 15012KT 9999 SCT050
                      TEMPO 0409/0410 5000 -SHRA SCT035CB BKN045
                       TEMPO 0412/0416 5000 -SHRA BKN015 SCT030CB
                       OVC045=
201911041100 TAF LRCL 041100Z 0412/0421 16016KT 9999 SCT050
                      TEMPO 0412/0416 5000 -SHRA BKN015 SCT030CB
                       OVC045
                      BECMG 0417/0419 22006KT=
201911041400 TAF LRCL 041400Z 0415/0424 18008KT 9999 SCT050
                      TEMPO 0415/0418 5000 -SHRA BKN015 SCT030CB
                       OVC045=
201911041700 TAF LRCL 041700Z 0418/0503 19010KT 9999 SCT050=
201911042000 TAF LRCL 042000Z 0421/0506 19008KT 9999 SCT050
                      TEMPO 0500/0506 3000 BR BKN010=
201911042300 TAF LRCL 042300Z 0500/0509 VRB03KT 9999 BKN050=
201911050200 TAF LRCL 050200Z 0503/0512 VRB03KT CAVOK
                      BECMG 0510/0512 15010KT=
201911050500 TAF LRCL 050500Z 0506/0515 VRB03KT CAVOK
                      BECMG 0509/0511 16010KT=
201911050800 TAF LRCL 050800Z 0509/0518 VRB03KT 9999 SCT060
                      BECMG 0509/0511 16010KT=
201911051100 TAF LRCL 051100Z 0512/0521 17010KT CAVOK=
201911051400 TAF LRCL 051400Z 0515/0524 16008KT CAVOK=
201911051700 TAF LRCL 051700Z 0518/0603 15010KT CAVOK
                      BECMG 0601/0603 5000 -RA BR BKN015 BKN035=
201911052000 TAF LRCL 052000Z 0521/0606 VRB04KT CAVOK
                      BECMG 0521/0523 16012KT
                      TEMPO 0601/0604 5000 -RA BR BKN015 BKN035
                       BECMG 0604/0606 VRB04KT=
201911052300 TAF LRCL 052300Z 0600/0609 16010KT CAVOK
                      TEMPO 0601/0604 5000 -RA BR BKN015 OVC035
                       BECMG 0604/0606 VRB04KT
                      TEMPO 0607/0609 5000 -RA BR BKN015 BKN035=
201911060200 TAF LRCL 060200Z 0603/0612 15014KT CAVOK
                      TEMPO 0603/0605 5000 -RA BR BKN015 OVC035
                       BECMG 0605/0607 VRB04KT
                      TEMPO 0607/0609 5000 -RA BR BKN015 BKN035=
201911060500 TAF LRCL 060500Z 0606/0615 VRB04KT 9999 BKN065
                      PROB40 TEMPO 0607/0610 5000 -RA BR
                      PROB30 TEMPO 0613/0615 5000 -RA BR=
201911060800 TAF LRCL 060800Z 0609/0618 20005KT 9999 SCT020 BKN065
                      PROB40 TEMPO 0609/0612 27010KT 5000 -SHRA
                       SCT040CB BKN065=
201911061100 TAF LRCL 061100Z 0612/0621 21007KT 9999 SCT020 BKN065
                      PROB30 TEMPO 0612/0615 5000 -SHRA SCT040CB
                       SCT065
                      BECMG 0619/0621 5000 -RA BR=
201911061400 TAF LRCL 061400Z 0615/0624 VRB04KT 9999 SCT035
                      TEMPO 0619/0621 5000 -RA BR
                      BECMG 0621/0623 5000 -RA BR BKN015 BKN065=
201911061700 TAF LRCL 061700Z 0618/0703 VRB04KT 9999 SCT045
                      BECMG 0623/0701 5000 -RA BR
                      TEMPO 0701/0703 3000 -RA BR BKN015 BKN065=
201911062000 TAF LRCL 062000Z 0621/0706 VRB04KT 9999 SCT045
                      BECMG 0623/0701 5000 -RA BR
                      TEMPO 0702/0705 3000 -RA BR BKN015 BKN065=
201911062300 TAF LRCL 062300Z 0700/0709 VRB04KT 9999 SCT045
                      BECMG 0700/0702 5000 -RA BR
                      TEMPO 0702/0705 3000 RA BR BKN010 BKN045
                       BECMG 0706/0708 9999 NSW=
201911070200 TAF LRCL 070200Z 0703/0712 VRB04KT 1500 BR NSC
                      TEMPO 0703/0705 0600 FG BKN002
                      BECMG 0705/0707 5000 -RA BR BKN015 BKN045
                       BECMG 0710/0712 9999 NSW BKN030=
201911070500 TAF LRCL 070500Z 0706/0715 VRB04KT 5000 -RA BR NSC
                      BECMG 0706/0708 9999 NSW=
201911070800 TAF LRCL 070800Z 0709/0718 VRB04KT 9999 BKN045=
201911071100 TAF LRCL 071100Z 0712/0721 08006KT 9999 BKN060=
201911071400 TAF LRCL 071400Z 0715/0724 07006KT 9999 BKN060=
201911071700 TAF LRCL 071700Z 0718/0803 VRB04KT 9999 SCT020 BKN045
                      BECMG 0721/0723 5000 BR
                      TEMPO 0800/0803 3000 BR BKN010 BKN020=
201911072000 TAF LRCL 072000Z 0721/0806 VRB04KT 5000 BR BKN040
                      BECMG 0721/0723 3000 BR
                      PROB40 TEMPO 0800/0806 1500 BR BKN010 BKN020=
201911072300 TAF AMD LRCL 080041Z 0800/0809 VRB04KT 0350 FG VV001
                      TEMPO 0800/0803 0150 FG
                      BECMG 0804/0806 1500 BR BKN005 BKN040
                      BECMG 0806/0808 5000 -RA BR BKN015 BKN040=
201911080041 TAF AMD LRCL 080041Z 0800/0809 VRB04KT 0350 FG VV001
                      TEMPO 0800/0803 0150 FG
                      BECMG 0804/0806 1500 BR BKN005 BKN040
                      BECMG 0806/0808 5000 -RA BR BKN015 BKN040=
201911080200 TAF LRCL 080200Z 0803/0812 VRB04KT 0350 FG VV001
                      TEMPO 0803/0804 0150 FG
                      BECMG 0804/0806 0800 BKN002
                      BECMG 0806/0808 3000 BR BKN007
                      BECMG 0808/0810 5000 -RA BR BKN015 BKN040=
201911080500 TAF LRCL 080500Z 0806/0815 11005KT 3000 BR BKN005
                      TEMPO 0806/0807 1500 BR OVC002
                      TEMPO 0808/0811 5000 -RA BR BKN015 OVC030
                       BECMG 0811/0813 9999 NSW SCT030=
201911080800 TAF LRCL 080800Z 0809/0818 09006KT 5000 BR BKN003
                      TEMPO 0809/0811 3000 -RA BR BKN010 OVC030
                       BECMG 0811/0813 9999 NSW SCT030=
201911080948 TAF AMD LRCL 080948Z 0809/0818 07006KT 9999 SCT040
                      TEMPO 0809/0811 FEW050CB=
201911081100 TAF LRCL 081100Z 0812/0821 08006KT 9999 SCT040=
201911081400 TAF LRCL 081400Z 0815/0824 13006KT CAVOK
                      PROB40 TEMPO 0815/0817 5000 -SHRA SCT040CB=
201911081700 TAF LRCL 081700Z 0818/0903 VRB04KT CAVOK
                      BECMG 0821/0823 3000 BR
                      TEMPO 0823/0903 1500 BR=
201911082000 TAF LRCL 082000Z 0821/0906 VRB04KT CAVOK
                      BECMG 0821/0823 3000 BR
                      TEMPO 0823/0906 1500 BR
                      PROB30 TEMPO 0902/0906 0600 FG OVC002=
201911082300 TAF LRCL 082300Z 0900/0909 VRB04KT 5000 BR NSC
                      TEMPO 0901/0906 1500 BR
                      PROB30 TEMPO 0903/0906 0600 FG OVC002
                      BECMG 0906/0908 9999 NSW=
201911090200 TAF LRCL 090200Z 0903/0912 VRB04KT 0800 FG BKN002
                      TEMPO 0903/0906 0350 FG VV001
                      BECMG 0906/0908 3000 BR BKN010
                      BECMG 0908/0910 15010KT CAVOK=
201911090500 TAF LRCL 090500Z 0906/0915 VRB04KT 0350 FG VV001
                      BECMG 0908/0909 3000 BR BKN005
                      BECMG 0909/0910 15010KT 9999 NSW BKN020=
201911090800 TAF LRCL 090800Z 0909/0918 VRB04KT 0800 FG BKN002
                      BECMG 0909/0911 15010KT 3000 BR BKN005
                      BECMG 0911/0912 7000 NSW SCT010=
201911091100 TAF LRCL 091100Z 0912/0921 09012KT CAVOK
                      BECMG 0916/0918 VRB04KT
                      BECMG 0918/0920 3000 BR=
201911091400 TAF LRCL 091400Z 0915/0924 VRB04KT CAVOK
                      BECMG 0918/0920 5000 BR
                      BECMG 0921/0923 1500 BR=
201911091700 TAF LRCL 091700Z 0918/1003 VRB04KT CAVOK
                      BECMG 0920/0922 5000 BR
                      BECMG 1000/1002 1500 BR=
201911092000 TAF LRCL 092000Z 0921/1006 VRB04KT CAVOK
                      BECMG 0922/0924 5000 BR SCT010
                      TEMPO 1000/1005 1500 BR BKN010=
201911092300 TAF LRCL 092300Z 1000/1009 VRB04KT CAVOK
                      BECMG 1000/1002 5000 BR SCT010
                      TEMPO 1000/1005 1500 BR BKN010
                      BECMG 1006/1008 CAVOK=
201911100200 TAF LRCL 100200Z 1003/1012 VRB04KT 9999 BKN015
                      TEMPO 1003/1005 3000 BR BKN010
                      BECMG 1006/1008 15010KT 5000 -RA BKN020 OVC035
                       TEMPO 1009/1012 3000 RA BKN005 OVC030=
201911100500 TAF LRCL 100500Z 1006/1015 06007KT CAVOK
                      BECMG 1006/1008 15010KT
                      TEMPO 1012/1015 5000 -RA SCT015 FEW030CB
                       BKN040=
201911100800 TAF LRCL 100800Z 1009/1018 14010KT 9999 SCT040
                      PROB30 TEMPO 1012/1015 5000 -RA SCT015 FEW030CB
                       BKN040
                      BECMG 1015/1017 VRB04KT=
201911101100 TAF LRCL 101100Z 1012/1021 14010KT 9999 SCT040
                      PROB30 TEMPO 1012/1016 5000 -RA SCT015 FEW030CB
                       BKN040
                      BECMG 1015/1017 VRB04KT=
201911101400 TAF LRCL 101400Z 1015/1024 VRB04KT 9999 SCT040
                      PROB30 TEMPO 1015/1018 5000 -RA SCT015 FEW040CB
                       BKN060=
201911101700 TAF LRCL 101700Z 1018/1103 VRB04KT 9999 SCT040
                      TEMPO 1018/1022 5000 -SHRA SCT035CB BKN040
                       BECMG 1100/1102 3000 BR=
201911102000 TAF LRCL 102000Z 1021/1106 VRB04KT CAVOK
                      BECMG 1100/1102 3000 BR BKN010
                      TEMPO 1102/1106 1500 BR BKN005
                      PROB40 1103/1106 0600 FG BKN002=
201911102300 TAF LRCL 102300Z 1100/1109 VRB04KT 5000 BR SCT060
                      TEMPO 1102/1107 1500 BR BKN005
                      PROB40 1103/1106 0600 FG BKN002
                      BECMG 1107/1109 9999 NSW=
201911110200 TAF LRCL 110200Z 1103/1112 VRB04KT 9999 SCT060
                      TEMPO 1103/1107 3000 BR BKN010 SCT040=
201911110500 TAF LRCL 110500Z 1106/1115 04005KT 9999 SCT055=
201911110800 TAF LRCL 110800Z 1109/1118 09005KT 9999 SCT020=
201911111100 TAF LRCL 111100Z 1112/1121 09006KT 9999 BKN040=
201911111400 TAF LRCL 111400Z 1115/1124 09005KT CAVOK=
201911111700 TAF LRCL 111700Z 1118/1203 09004KT CAVOK
                      TEMPO 1200/1203 3000 BR=
201911112000 TAF LRCL 112000Z 1121/1206 09004KT CAVOK
                      TEMPO 1200/1206 3000 BR=
201911112300 TAF LRCL 112300Z 1200/1209 09004KT 5000 BR NSC
                      TEMPO 1201/1206 3000 BR
                      BECMG 1206/1207 9999 NSW=
201911120200 TAF LRCL 120200Z 1203/1212 09004KT 5000 BR NSC
                      TEMPO 1203/1206 1500 BR BKN005
                      BECMG 1206/1207 9999 NSW
                      BECMG 1209/1211 14010KT=
201911120500 TAF LRCL 120500Z 1206/1215 09004KT 5000 BR NSC
                      BECMG 1206/1207 CAVOK
                      BECMG 1209/1211 14010KT=
201911120800 TAF LRCL 120800Z 1209/1218 07006KT CAVOK
                      BECMG 1210/1212 14010KT=
201911121100 TAF LRCL 121100Z 1212/1221 11010KT CAVOK=
201911121400 TAF LRCL 121400Z 1215/1224 11008KT CAVOK=
201911121700 TAF LRCL 121700Z 1218/1303 12008KT CAVOK=
201911122000 TAF LRCL 122000Z 1221/1306 10008KT CAVOK=
201911122300 TAF LRCL 122300Z 1300/1309 13010KT CAVOK=
201911130200 TAF LRCL 130200Z 1303/1312 10008KT CAVOK=
201911130500 TAF LRCL 130500Z 1306/1315 VRB04KT CAVOK
                      BECMG 1306/1308 15012KT
                      TEMPO 1309/1313 15015G25KT=
201911130800 TAF LRCL 130800Z 1309/1318 10010KT CAVOK
                      TEMPO 1309/1313 12015G25KT=
201911131100 TAF LRCL 131100Z 1312/1321 12014KT CAVOK
                      PROB40 TEMPO 1312/1315 12018G28KT=
201911131400 TAF LRCL 131400Z 1315/1324 12010KT CAVOK=
201911131700 TAF LRCL 131700Z 1318/1403 08006KT CAVOK
                      TEMPO 1400/1403 3000 BR BKN010=
201911132000 TAF LRCL 132000Z 1321/1406 08006KT CAVOK
                      TEMPO 1400/1403 3000 BR BKN010=
201911132300 TAF LRCL 132300Z 1400/1409 14008KT CAVOK
                      TEMPO 1400/1405 3000 BR BKN010=
201911140200 TAF LRCL 140200Z 1403/1412 06008KT 9999 BKN035
                      TEMPO 1403/1406 3000 BR BKN010=
201911140500 TAF LRCL 140500Z 1406/1415 12006KT 9999 BKN035
                      PROB40 TEMPO 1413/1415 5000 -RA BR BKN005
                       OVC030=
201911140800 TAF LRCL 140800Z 1409/1418 VRB04KT 9999 BKN045
                      BECMG 1413/1415 5000 -RA BKN010 OVC030
                      TEMPO 1415/1418 3000 -RA BR BKN005 OVC025=
201911141100 TAF LRCL 141100Z 1412/1421 VRB04KT 9999 BKN045
                      BECMG 1413/1415 5000 -RA BKN010 OVC030
                      TEMPO 1415/1419 3000 -RA BR BKN005 OVC025=
201911141400 TAF LRCL 141400Z 1415/1424 12006KT 7000 -RA BKN045
                      TEMPO 1416/1419 5000 -RA BR BKN010 OVC025=
201911141700 TAF LRCL 141700Z 1418/1503 VRB04KT 5000 -RA BKN045
                      TEMPO 1418/1420 3000 -RA BR BKN015 BKN040
                       TEMPO 1500/1503 3000 -RA BR BKN015 BKN040=
201911142000 TAF LRCL 142000Z 1421/1506 VRB04KT 3000 -RA BR BKN045
                      PROB40 TEMPO 1501/1504 1500 RA BR BKN010
                       BKN040=
201911142300 TAF LRCL 142300Z 1500/1509 VRB04KT 5000 -RA BR SCT010 BKN045
                      PROB40 TEMPO 1501/1504 1500 RA BR BKN010
                       BKN040
                      BECMG 1507/1509 9999 NSW=
201911150200 TAF LRCL 150200Z 1503/1512 VRB04KT 5000 -RA BR BKN010 OVC030
                      PROB40 TEMPO 1503/1505 1500 RA BR BKN005
                       OVC025
                      BECMG 1507/1509 9999 NSW BKN030=
201911150500 TAF LRCL 150500Z 1506/1515 VRB04KT 3000 -RA BR BKN005 OVC035
                      BECMG 1507/1509 9999 NSW SCT015 BKN045=
201911150800 TAF LRCL 150800Z 1509/1518 14006KT 9999 BKN040
                      TEMPO 1509/1512 BKN010 BKN040
                      BECMG 1516/1518 5000 BR BKN010=
201911151100 TAF LRCL 151100Z 1512/1521 14006KT CAVOK
                      BECMG 1518/1520 3000 BR BKN010=
201911151400 TAF LRCL 151400Z 1515/1524 14006KT CAVOK
                      BECMG 1520/1522 3000 BR BKN010=
201911151700 TAF LRCL 151700Z 1518/1603 VRB04KT CAVOK
                      BECMG 1520/1522 5000 BR
                      TEMPO 1523/1603 3000 BR BKN010=
201911152000 TAF LRCL 152000Z 1521/1606 VRB04KT 5000 BR NSC
                      TEMPO 1523/1605 3000 BR BKN010=
201911152300 TAF LRCL 152300Z 1600/1609 VRB04KT CAVOK
                      TEMPO 1600/1605 3000 BR=
201911160200 TAF LRCL 160200Z 1603/1612 VRB04KT 5000 BR NSC
                      PROB30 TEMPO 1603/1605 3000 BR BKN010
                      BECMG 1605/1607 9999 NSW
                      BECMG 1608/1610 14010KT=
201911160500 TAF LRCL 160500Z 1606/1615 08007KT CAVOK
                      TEMPO 1606/1607 3000 BR=
201911160800 TAF LRCL 160800Z 1609/1618 09010KT CAVOK=
201911161100 TAF LRCL 161100Z 1612/1621 VRB04KT CAVOK=
201911161400 TAF LRCL 161400Z 1615/1624 VRB04KT CAVOK=
201911161700 TAF LRCL 161700Z 1618/1703 VRB04KT CAVOK
                      TEMPO 1700/1703 3000 BR BKN010=
201911162000 TAF LRCL 162000Z 1621/1706 VRB04KT 5000 BR NSC
                      TEMPO 1700/1706 1500 BR=
201911162300 TAF AMD LRCL 170107Z 1701/1709 VRB04KT 0600 FG BKN002
                      TEMPO 1701/1705 0150 FG VV001
                      BECMG 1705/1707 3000 BR BKN005
                      BECMG 1707/1709 CAVOK=
201911170107 TAF AMD LRCL 170107Z 1701/1709 VRB04KT 0600 FG BKN002
                      TEMPO 1701/1705 0150 FG VV001
                      BECMG 1705/1707 3000 BR BKN005
                      BECMG 1707/1709 CAVOK=
201911170200 TAF LRCL 170200Z 1703/1712 VRB04KT 0600 FG VV002
                      TEMPO 1703/1705 0150 FG VV001
                      BECMG 1705/1707 3000 BR BKN005
                      BECMG 1707/1709 CAVOK=
201911170500 TAF LRCL 170500Z 1706/1715 VRB02KT 3000 BR NSC
                      PROB40 TEMPO 1706/1707 0800 FG BKN002
                      BECMG 1707/1710 13010KT CAVOK=
201911170800 TAF LRCL 170800Z 1709/1718 06008KT CAVOK=
201911171100 TAF LRCL 171100Z 1712/1721 12008KT CAVOK
                      BECMG 1719/1721 5000 BR=
201911171400 TAF LRCL 171400Z 1715/1724 VRB04KT CAVOK
                      TEMPO 1720/1724 3000 BR=
201911171700 TAF LRCL 171700Z 1718/1803 VRB04KT CAVOK
                      TEMPO 1721/1803 3000 BR=
201911172000 TAF LRCL 172000Z 1721/1806 VRB04KT CAVOK
                      BECMG 1721/1723 5000 BR
                      TEMPO 1723/1805 1500 BR BKN010=
201911172300 TAF LRCL 172300Z 1800/1809 VRB04KT CAVOK
                      BECMG 1800/1802 3000 BR BKN005
                      TEMPO 1802/1805 0600 FG BKN002
                      BECMG 1805/1807 CAVOK=
201911180200 TAF LRCL 180200Z 1803/1812 VRB04KT CAVOK
                      TEMPO 1803/1806 3000 BR BKN010
                      BECMG 1805/1807 14010KT=
201911180500 TAF LRCL 180500Z 1806/1815 09008KT CAVOK
                      PROB40 TEMPO 1813/1815 5000 -RA=
201911180800 TAF LRCL 180800Z 1809/1818 10008KT CAVOK
                      PROB40 TEMPO 1814/1818 5000 -RA=
201911181100 TAF LRCL 181100Z 1812/1821 12008KT CAVOK
                      PROB40 TEMPO 1814/1818 5000 -RA=
201911181400 TAF LRCL 181400Z 1815/1824 VRB04KT 9999 SCT065
                      PROB40 TEMPO 1815/1819 5000 -RA
                      BECMG 1822/1824 5000 BR BKN010=
201911181700 TAF LRCL 181700Z 1818/1903 VRB04KT 9999 SCT050
                      PROB40 TEMPO 1818/1821 5000 -RA
                      BECMG 1823/1901 3000 BR BKN010
                      BECMG 1901/1903 0800 FG BKN002=
201911182000 TAF LRCL 182000Z 1821/1906 VRB02KT 9999 FEW065
                      BECMG 1823/1901 3000 BR BKN010
                      BECMG 1901/1903 0800 FG BKN002=
201911182300 TAF LRCL 182300Z 1900/1909 VRB02KT 3000 BR NSC
                      BECMG 1900/1902 1500 BR
                      TEMPO 1901/1906 0600 FG BKN002
                      BECMG 1906/1908 5000
                      BECMG 1908/1909 CAVOK=
201911190200 TAF LRCL 190200Z 1903/1912 25005KT 3000 BR NSC
                      TEMPO 1903/1906 1500 BR
                      PROB40 TEMPO 1903/1906 0600 FG BKN002
                      BECMG 1906/1908 5000
                      BECMG 1908/1909 CAVOK=
201911190500 TAF LRCL 190500Z 1906/1915 VRB03KT CAVOK
                      PROB30 TEMPO 1906/1908 3000 BR=
201911190800 TAF LRCL 190800Z 1909/1918 VRB04KT CAVOK=
201911191100 TAF LRCL 191100Z 1912/1921 08006KT CAVOK=
201911191400 TAF LRCL 191400Z 1915/1924 10006KT CAVOK=
201911191700 TAF LRCL 191700Z 1918/2003 10006KT 3000 BR NSC
                      BECMG 1920/1922 0800 FG
                      TEMPO 2000/2003 0350 FG OVC001=
201911192000 TAF LRCL 192000Z 1921/2006 VRB04KT 0600 FG OVC001
                      TEMPO 1922/2004 0350 FG
                      BECMG 2004/2006 3000 BR BKN005=
201911192300 TAF LRCL 192300Z 2000/2009 VRB04KT 0350 FG OVC001
                      TEMPO 2000/2005 0600
                      BECMG 2005/2007 3000 BR BKN005
                      BECMG 2007/2009 13010KT CAVOK=
201911200200 TAF LRCL 200200Z 2003/2012 VRB04KT 0350 FG VV001
                      BECMG 2006/2008 1500 BR BKN005
                      BECMG 2008/2010 13010KT CAVOK=
201911200500 TAF LRCL 200500Z 2006/2015 VRB04KT 0350 FG VV001
                      BECMG 2006/2008 1500 BR BKN005
                      BECMG 2008/2009 5000 SCT010
                      BECMG 2009/2010 13010KT CAVOK=
201911200800 TAF LRCL 200800Z 2009/2018 14005KT 1500 BR BKN001
                      BECMG 2009/2011 5000 SCT005
                      BECMG 2011/2013 CAVOK
                      PROB30 TEMPO 2017/2018 5000 -RA BR=
201911201100 TAF LRCL 201100Z 2012/2021 09005KT CAVOK
                      TEMPO 2017/2021 5000 -RA BR BKN015 BKN030=
201911201400 TAF LRCL 201400Z 2015/2024 VRB04KT 9999 BKN065
                      TEMPO 2017/2022 15010KT 5000 -RA BR BKN015
                       BKN030=
201911201700 TAF LRCL 201700Z 2018/2103 12007KT 9999 SCT045 BKN065
                      TEMPO 2018/2022 5000 -RA BR BKN015 BKN030=
201911202000 TAF LRCL 202000Z 2021/2106 12006KT 9999 SCT045 OVC065
                      TEMPO 2021/2023 5000 -RA BR BKN015 OVC030=
201911202300 TAF LRCL 202300Z 2100/2109 12006KT 9999 SCT045
                      PROB30 TEMPO 2102/2106 3000 BR BKN010=
201911210200 TAF LRCL 210200Z 2103/2112 VRB04KT CAVOK
                      PROB30 TEMPO 2103/2106 3000 BR BKN010=
201911210500 TAF LRCL 210500Z 2106/2115 VRB04KT CAVOK
                      BECMG 2107/2109 14010KT=
201911210800 TAF LRCL 210800Z 2109/2118 13010KT CAVOK=
201911211100 TAF LRCL 211100Z 2112/2121 12012KT CAVOK=
201911211400 TAF LRCL 211400Z 2115/2124 13008KT 9999 SCT045=
201911211700 TAF LRCL 211700Z 2118/2203 11010KT 9999 SCT045
                      TEMPO 2123/2203 5000 -RA BR BKN015 OVC030=
201911212000 TAF LRCL 212000Z 2121/2206 11008KT 9999 SCT045
                      PROB30 TEMPO 2123/2203 5000 -RA BR BKN015
                       OVC030=
201911212300 TAF LRCL 212300Z 2200/2209 11008KT 9999 SCT045
                      TEMPO 2200/2204 5000 -RA BR BKN015 OVC030=
201911220200 TAF LRCL 220200Z 2203/2212 11008KT 9999 SCT045
                      PROB40 TEMPO 2203/2207 5000 -RA BR BKN015
                       OVC030=
201911220500 TAF LRCL 220500Z 2206/2215 11008KT 9999 SCT040
                      PROB40 TEMPO 2206/2209 5000 -RA BR BKN015
                       BKN040
                      BECMG 2213/2215 5000 -RA BKN015 BKN040=
201911220800 TAF LRCL 220800Z 2209/2218 13010KT 9999 SCT040
                      BECMG 2214/2216 5000 -RA BKN015 BKN040
                      PROB30 TEMPO 2216/2218 3000 -RA BR=
201911221100 TAF LRCL 221100Z 2212/2221 13008KT 9999 SCT040
                      BECMG 2213/2215 5000 -RA BKN015 BKN040
                      PROB40 TEMPO 2215/2221 3000 -RA BR BKN010
                       FEW030CB OVC040=
201911221400 TAF LRCL 221400Z 2215/2224 13008KT 9999 -RA SCT040
                      BECMG 2215/2217 5000 -RA BKN015 BKN040
                      PROB40 TEMPO 2217/2221 3000 -RA BR BKN010
                       FEW030CB OVC040=
201911221700 TAF LRCL 221700Z 2218/2303 11006KT 9999 -RA BKN040
                      TEMPO 2218/2224 5000 -RA BR BKN015 OVC040=
201911222000 TAF LRCL 222000Z 2221/2306 11006KT 9999 -RA BKN045
                      TEMPO 2221/2301 5000 -RA BR BKN015 OVC040=
201911222300 TAF LRCL 222300Z 2300/2309 10006KT 9999 SCT045
                      TEMPO 2300/2303 5000 -RA BR BKN015 BKN040=
201911230200 TAF LRCL 230200Z 2303/2312 10006KT 9999 SCT020 BKN045
                      TEMPO 2303/2305 5000 BR BKN015 BKN040=
201911230500 TAF LRCL 230500Z 2306/2315 10006KT 9999 BKN045
                      PROB40 TEMPO 2306/2309 5000 -RA BR BKN015
                       BKN040=
201911230800 TAF LRCL 230800Z 2309/2318 10008KT 9999 SCT060=
201911231100 TAF LRCL 231100Z 2312/2321 13008KT CAVOK=
201911231400 TAF LRCL 231400Z 2315/2324 13006KT CAVOK=
201911231700 TAF LRCL 231700Z 2318/2403 09005KT CAVOK=
201911232000 TAF LRCL 232000Z 2321/2406 09005KT CAVOK=
201911232300 TAF LRCL 232300Z 2400/2409 VRB04KT CAVOK
                      TEMPO 2402/2405 3000 BR=
201911240200 TAF LRCL 240200Z 2403/2412 VRB04KT CAVOK
                      TEMPO 2403/2406 3000 BR=
201911240500 TAF LRCL 240500Z 2406/2415 VRB04KT 1500 BR BKN005
                      TEMPO 2406/2408 0600 FZFG OVC002
                      BECMG 2408/2410 9999 NSW BKN030=
201911240727 TAF AMD LRCL 240727Z 2407/2415 VRB04KT 9999 BKN035
                      TEMPO 2407/2408 5000 BR=
201911240800 TAF LRCL 240800Z 2409/2418 VRB04KT 9999 BKN035=
201911241100 TAF LRCL 241100Z 2412/2421 10008KT 9999 BKN035=
201911241400 TAF LRCL 241400Z 2415/2424 10008KT 9999 BKN035=
201911241700 TAF LRCL 241700Z 2418/2503 10008KT CAVOK
                      TEMPO 2501/2503 3000 BR=
201911242000 TAF LRCL 242000Z 2421/2506 08006KT CAVOK
                      TEMPO 2501/2506 3000 BR=
201911242300 TAF LRCL 242300Z 2500/2509 08006KT CAVOK
                      TEMPO 2501/2506 3000 BR=
201911250200 TAF LRCL 250200Z 2503/2512 08006KT 1500 BR NSC
                      TEMPO 2503/2506 0350 FG VV001
                      BECMG 2507/2509 CAVOK=
201911250246 TAF COR LRCL 250246Z 2503/2512 08006KT 1500 BR NSC
                      TEMPO 2503/2506 0350 FZFG VV001
                      BECMG 2507/2509 CAVOK=
201911250500 TAF LRCL 250500Z 2506/2515 VRB04KT 0300 FZFG VV001
                      BECMG 2506/2508 1500 BR BKN002
                      BECMG 2508/2510 CAVOK=
201911250800 TAF LRCL 250800Z 2509/2518 VRB04KT 1500 BR NSC
                      BECMG 2509/2511 9999 NSW=
201911251100 TAF LRCL 251100Z 2512/2521 08006KT CAVOK
                      BECMG 2518/2520 3000 BR=
201911251400 TAF LRCL 251400Z 2515/2524 VRB04KT CAVOK
                      BECMG 2518/2520 3000 BR
                      BECMG 2521/2523 0800 FG BKN003=
201911251700 TAF LRCL 251700Z 2518/2603 VRB04KT CAVOK
                      BECMG 2518/2520 3000 BR
                      BECMG 2521/2523 0800 FG BKN002=
201911252000 TAF LRCL 252000Z 2521/2606 VRB04KT CAVOK
                      BECMG 2521/2523 3000 BR
                      PROB40 TEMPO 2601/2605 0800 FG BKN002=
201911252300 TAF LRCL 252300Z 2600/2609 VRB04KT 3000 BR NSC
                      BECMG 2600/2601 0800 FG
                      PROB40 TEMPO 2601/2606 0300 FZFG VV001
                      BECMG 2606/2607 3000 BR BKN002
                      BECMG 2607/2609 CAVOK=
201911260200 TAF LRCL 260200Z 2603/2612 VRB04KT 3000 BR NSC
                      TEMPO 2603/2606 0600 FG BKN002
                      BECMG 2606/2608 CAVOK=
201911260500 TAF LRCL 260500Z 2606/2615 VRB04KT CAVOK
                      TEMPO 2606/2607 3000 BR=
201911260800 TAF LRCL 260800Z 2609/2618 VRB04KT CAVOK=
201911261100 TAF LRCL 261100Z 2612/2621 VRB04KT CAVOK
                      BECMG 2618/2620 5000 BR=
201911261400 TAF LRCL 261400Z 2615/2624 VRB04KT CAVOK
                      BECMG 2618/2620 5000 BR
                      BECMG 2622/2624 1500 BR OVC002=
201911261700 TAF LRCL 261700Z 2618/2703 VRB04KT CAVOK
                      BECMG 2618/2620 5000 BR
                      BECMG 2622/2624 1500 BR OVC002
                      TEMPO 2701/2703 0600 FG VV001=
201911262000 TAF LRCL 262000Z 2621/2706 VRB04KT CAVOK
                      BECMG 2621/2623 3000 BR
                      BECMG 2700/2702 0800 BR OVC003
                      TEMPO 2702/2706 0350 FG VV001=
201911262300 TAF LRCL 262300Z 2700/2709 VRB04KT 5000 BR NSC
                      BECMG 2700/2702 1500 BR OVC003
                      TEMPO 2702/2706 0600 FG VV001
                      BECMG 2707/2709 5000 BKN010=
201911270200 TAF LRCL 270200Z 2703/2712 VRB04KT 5000 BR NSC
                      TEMPO 2703/2706 1500 BR
                      BECMG 2708/2710 9999 NSW=
201911270432 TAF AMD LRCL 270432Z 2704/2712 VRB04KT 0800 FG VV001
                      TEMPO 2704/2706 0350 FG
                      BECMG 2706/2708 3000 BR BKN007
                      BECMG 2708/2710 9999 NSW SCT015=
201911270500 TAF LRCL 270500Z 2706/2715 VRB04KT 0600 FG VV002
                      TEMPO 2706/2707 0200 FG VV001
                      BECMG 2707/2709 3000 BR BKN005
                      BECMG 2709/2711 9999 NSW SCT020=
201911270714 TAF AMD LRCL 270714Z 2707/2715 VRB04KT 0200 FG OVC001
                      BECMG 2708/2710 0800 BKN003
                      BECMG 2710/2711 3000 BR BKN010
                      BECMG 2711/2713 9999 NSW SCT025=
201911270800 TAF LRCL 270800Z 2709/2718 VRB04KT 0200 FG OVC001
                      BECMG 2709/2711 0800 BKN003
                      BECMG 2711/2712 3000 BR BKN010
                      BECMG 2712/2713 9999 NSW SCT025=
201911271058 TAF AMD LRCL 271058Z 2710/2718 VRB04KT CAVOK=
201911271100 TAF LRCL 271100Z 2712/2721 08010KT CAVOK
                      BECMG 2717/2719 VRB04KT 3000 BR=
201911271400 TAF LRCL 271400Z 2715/2724 11006KT CAVOK
                      BECMG 2718/2720 3000 BR=
201911271700 TAF LRCL 271700Z 2718/2803 VRB04KT CAVOK
                      BECMG 2721/2723 5000 BR
                      TEMPO 2800/2803 3000 -RA BR BKN005 OVC020
                       PROB30 2801/2803 0800 -RADZ FG BKN002 OVC015=
201911272000 TAF LRCL 272000Z 2721/2806 VRB04KT 5000 BR NSC
                      BECMG 2722/2724 3000 BR
                      TEMPO 2801/2806 1500 -RA BR BKN010 BKN025
                       PROB30 2802/2805 0800 -RADZ FG BKN005 OVC020=
201911272300 TAF LRCL 272300Z 2800/2809 VRB04KT 5000 BR SCT010 BKN030
                      TEMPO 2800/2806 3000 -RA BR BKN010 BKN025
                       PROB30 2801/2805 1500 -RA BR BKN005 OVC020
                       BECMG 2806/2808 9999 NSW=
201911280200 TAF LRCL 280200Z 2803/2812 VRB04KT 5000 BR SCT010 BKN040
                      TEMPO 2803/2808 3000 -RA BR BKN010 BKN025
                       BECMG 2808/2810 9999 NSW=
201911280500 TAF LRCL 280500Z 2806/2815 VRB04KT 5000 BR BKN060
                      TEMPO 2806/2808 3000 -RA BR SCT010 BKN050
                       BECMG 2808/2810 9999 NSW=
201911280800 TAF LRCL 280800Z 2809/2818 VRB04KT 9999 BKN050
                      TEMPO 2814/2818 5000 -RA BR BKN015 OVC040=
201911281100 TAF LRCL 281100Z 2812/2821 VRB04KT CAVOK
                      PROB30 TEMPO 2813/2818 5000 -RA BR BKN015
                       OVC040=
201911281400 TAF LRCL 281400Z 2815/2824 VRB04KT 9999 BKN050
                      TEMPO 2815/2819 5000 -RA BR BKN015 OVC040
                       TEMPO 2821/2824 5000 -RA BR BKN010 OVC030=
201911281700 TAF LRCL 281700Z 2818/2903 VRB04KT 9999 BKN050
                      TEMPO 2819/2823 5000 -RA BR BKN015 BKN040
                       PROB30
                      TEMPO 2900/2903 5000 -RADZ BR BKN010 OVC020=
201911282000 TAF LRCL 282000Z 2821/2906 VRB04KT 9999 BKN060
                      TEMPO 2823/2906 5000 -RA BR BKN015 OVC020=
201911282300 TAF LRCL 282300Z 2900/2909 VRB04KT 9999 BKN050
                      TEMPO 2900/2906 5000 -RA BR BKN015 OVC030=
201911290200 TAF LRCL 290200Z 2903/2912 VRB04KT 1500 BR BKN005 BKN045
                      TEMPO 2903/2907 0600 -DZ FG OVC002
                      PROB30 TEMPO 2903/2906 0300 -DZ FG OVC001
                       BECMG 2907/2909 5000 BKN010 BKN045
                      BECMG 2909/2911 9999 NSW BKN045=
201911290500 TAF LRCL 290500Z 2906/2915 VRB04KT 3000 BR BKN040
                      TEMPO 2906/2908 1500 -RA BR BKN005 BKN040
                       BECMG 2908/2910 9999 NSW
                      PROB30 TEMPO 2912/2915 5000 -SHRA SCT010
                       SCT030CB BKN045=
201911290800 TAF LRCL 290800Z 2909/2918 VRB04KT 9999 SCT040
                      PROB40 TEMPO 2912/2916 5000 -SHRA SCT010
                       SCT030CB BKN045=
201911291100 TAF LRCL 291100Z 2912/2921 28008KT 9999 SCT035
                      TEMPO 2912/2916 5000 -SHRA SCT010 SCT030CB
                       BKN045
                      BECMG 2916/2918 5000 BR=
201911291400 TAF LRCL 291400Z 2915/2924 28008KT 9999 SCT045
                      TEMPO 2915/2916 5000 -SHRA SCT010 SCT030CB
                       BKN045
                      TEMPO 2921/2924 5000 BR=
201911291700 TAF LRCL 291700Z 2918/3003 28005KT 9999 BKN045
                      PROB40 TEMPO 2918/2924 5000 -RA BR SCT010
                       BKN035
                      TEMPO 3000/3003 3000 BR BKN010 BKN040=
201911292000 TAF LRCL 292000Z 2921/3006 VRB04KT 9999 BKN045
                      TEMPO 2921/2924 5000 -RA BR SCT010 BKN035
                       PROB30
                      TEMPO 3000/3006 3000 BR BKN010 BKN040=
201911292300 TAF LRCL 292300Z 3000/3009 28005KT 9999 BKN045
                      TEMPO 3000/3006 3000 BR BKN010=
201911300200 TAF LRCL 300200Z 3003/3012 VRB04KT 9999 BKN045
                      TEMPO 3003/3006 3000 BR BKN010
                      BECMG 3007/3009 31012KT=
201911300500 TAF LRCL 300500Z 3006/3015 VRB04KT 9999 BKN030 OVC060
                      TEMPO 3006/3008 5000 -RA
                      BECMG 3007/3009 31012KT=
201911300800 TAF LRCL 300800Z 3009/3018 31014KT 9999 OVC030
                      TEMPO 3009/3011 BKN010 OVC025=
201911301100 TAF LRCL 301100Z 3012/3021 30018KT 9999 SCT035 BKN050=
201911301400 TAF LRCL 301400Z 3015/3024 28015KT 9999 BKN060=
201911301700 TAF LRCL 301700Z 3018/0103 29010KT CAVOK
                      BECMG 0101/0103 VRB04KT=
201911302000 TAF LRCL 302000Z 3021/0106 29006KT CAVOK=
201911302300 TAF LRCL 302300Z 0100/0109 29008KT 9999 SCT045=
