201912010000 METAR LRCL 010000Z 30007KT CAVOK M02/M07 Q1022=
201912010030 METAR LRCL 010030Z 28008KT CAVOK M01/M07 Q1023=
201912010100 METAR LRCL 010100Z 28009KT CAVOK M02/M07 Q1023=
201912010130 METAR LRCL 010130Z 25005KT CAVOK M02/M07 Q1023=
201912010200 METAR LRCL 010200Z 23005KT CAVOK M02/M08 Q1023=
201912010230 METAR LRCL 010230Z 24006KT 9999 SCT045 M02/M07 Q1023=
201912010300 METAR LRCL 010300Z 26006KT 9999 BKN042 M02/M07 Q1024=
201912010330 METAR LRCL 010330Z 27007KT 9999 BKN042 M01/M07 Q1024=
201912010400 METAR LRCL 010400Z 28005KT 9999 BKN041 M02/M08 Q1024=
201912010430 METAR LRCL 010430Z 29006KT 9999 FEW040 M03/M08 Q1024=
201912010500 METAR LRCL 010500Z 28007KT CAVOK M02/M08 Q1025=
201912010530 METAR LRCL 010530Z 27006KT CAVOK M03/M08 Q1025=
201912010600 METAR LRCL 010600Z 25006KT CAVOK M04/M08 Q1025=
201912010630 METAR LRCL 010630Z 29005KT CAVOK M03/M08 Q1026=
201912010700 METAR LRCL 010700Z 26005KT CAVOK M02/M08 Q1026=
201912010730 METAR LRCL 010730Z 30004KT CAVOK M01/M07 Q1026=
201912010800 METAR COR LRCL 010800Z 26003KT 210V300 CAVOK M00/M08 Q1026=
201912010830 METAR LRCL 010830Z 25003KT CAVOK 01/M08 Q1027=
201912010900 METAR COR LRCL 010900Z 26004KT 230V290 CAVOK 02/M08 Q1026=
201912010930 METAR LRCL 010930Z VRB03KT CAVOK 02/M08 Q1026=
201912011000 METAR LRCL 011000Z VRB04KT CAVOK 03/M08 Q1026=
201912011030 METAR LRCL 011030Z 06003KT 350V100 CAVOK 03/M07 Q1026=
201912011100 METAR LRCL 011100Z 07004KT 020V120 CAVOK 03/M08 Q1026=
201912011130 METAR LRCL 011130Z 09004KT 010V140 CAVOK 03/M08 Q1026=
201912011200 METAR LRCL 011200Z 08003KT CAVOK 03/M09 Q1026=
201912011230 METAR LRCL 011230Z 08003KT 010V140 CAVOK 04/M08 Q1026=
201912011300 METAR LRCL 011300Z 08004KT 040V120 CAVOK 03/M08 Q1025=
201912011330 METAR LRCL 011330Z 09006KT CAVOK 03/M07 Q1025=
201912011400 METAR LRCL 011400Z 11004KT CAVOK 02/M07 Q1025=
201912011430 METAR LRCL 011430Z 11004KT CAVOK 01/M07 Q1026=
201912011500 METAR LRCL 011500Z 09003KT CAVOK 01/M07 Q1026=
201912011530 METAR COR LRCL 011530Z VRB01KT CAVOK M01/M06 Q1026=
201912011600 METAR LRCL 011600Z 09004KT CAVOK M01/M07 Q1026=
201912011630 METAR LRCL 011630Z 08004KT CAVOK M01/M07 Q1026=
201912011700 METAR LRCL 011700Z 08005KT CAVOK M01/M07 Q1026=
201912011730 METAR LRCL 011730Z 09005KT CAVOK M01/M07 Q1026=
201912011800 METAR LRCL 011800Z 07004KT CAVOK M02/M06 Q1026=
201912011830 METAR LRCL 011830Z 07003KT CAVOK M02/M06 Q1026=
201912011900 METAR LRCL 011900Z 08004KT CAVOK M02/M07 Q1026=
201912011930 METAR LRCL 011930Z 08005KT CAVOK M02/M06 Q1025=
201912012000 METAR LRCL 012000Z 08005KT CAVOK M02/M07 Q1025=
201912012030 METAR LRCL 012030Z 08006KT 060V120 CAVOK M02/M07 Q1025=
201912012100 METAR LRCL 012100Z 07006KT CAVOK M02/M07 Q1025=
201912012130 METAR LRCL 012130Z 07007KT CAVOK M02/M06 Q1025=
201912012200 METAR LRCL 012200Z 07005KT CAVOK M02/M06 Q1025=
201912012230 METAR LRCL 012230Z 07006KT CAVOK M02/M07 Q1024=
201912012300 METAR LRCL 012300Z 07007KT CAVOK M02/M06 Q1024=
201912012330 METAR LRCL 012330Z 08007KT CAVOK M02/M06 Q1024=
201912020000 METAR LRCL 020000Z 08008KT CAVOK M02/M06 Q1024=
201912020030 METAR LRCL 020030Z 08008KT CAVOK M02/M06 Q1024=
201912020100 METAR LRCL 020100Z 07008KT CAVOK M02/M06 Q1023=
201912020130 METAR LRCL 020130Z 08008KT CAVOK M02/M06 Q1022=
201912020200 METAR LRCL 020200Z 06008KT CAVOK M02/M06 Q1022=
201912020230 METAR LRCL 020230Z 07006KT CAVOK M02/M06 Q1022=
201912020300 METAR LRCL 020300Z 08008KT CAVOK M02/M05 Q1021=
201912020330 METAR LRCL 020330Z 08006KT 9999 FEW067 M02/M06 Q1022=
201912020400 METAR LRCL 020400Z 07008KT 9999 SCT067 M02/M05 Q1022=
201912020430 METAR LRCL 020430Z 07006KT 9999 SCT067 M02/M06 Q1022=
201912020500 METAR LRCL 020500Z 09005KT 050V130 9999 BKN067 M02/M06 Q1021=
201912020530 METAR LRCL 020530Z 08005KT 9999 BKN067 M02/M05 Q1021=
201912020600 METAR LRCL 020600Z 08007KT 9999 SCT067 M02/M05 Q1020=
201912020630 METAR LRCL 020630Z 08007KT 9999 SCT056 M02/M06 Q1020=
201912020700 METAR LRCL 020700Z 08007KT 9999 SCT053 M02/M06 Q1020=
201912020730 METAR LRCL 020730Z 09009KT 9999 FEW055 M01/M06 Q1019=
201912020800 METAR LRCL 020800Z 11011KT 9999 FEW055 M00/M06 Q1019=
201912020830 METAR LRCL 020830Z 10008KT CAVOK M01/M06 Q1019=
201912020900 METAR LRCL 020900Z 10010KT 9999 FEW055 M00/M05 Q1018=
201912020930 METAR LRCL 020930Z 10010KT 9999 FEW052 M00/M06 Q1018=
201912021000 METAR LRCL 021000Z 11010KT 9999 FEW052 SCT060 00/M05 Q1017=
201912021030 METAR LRCL 021030Z 10009KT 9999 FEW052 BKN060 01/M05 Q1017=
201912021100 METAR LRCL 021100Z 11009KT 9999 FEW052 BKN060 01/M05 Q1016=
201912021130 METAR LRCL 021130Z 10008KT 9999 FEW052 BKN058 01/M05 Q1016=
201912021200 METAR LRCL 021200Z 11008KT 9999 -SN FEW044 BKN055 01/M05
                        Q1016=
201912021230 METAR LRCL 021230Z 11007KT 2000 SHSN BR SCT030 FEW040CB BKN044
                        01/M04 Q1016=
201912021300 METAR LRCL 021300Z 08005KT 3000 -SHSN BR SCT025 SCT040CB
                        BKN044 M00/M02 Q1015 RESN R07/29//95=
201912021330 METAR LRCL 021330Z 06004KT 2500 -SHSN BR SCT025 SCT036CB
                        BKN044 M00/M01 Q1015 R07/29//95=
201912021400 METAR LRCL 021400Z 04004KT 3000 -SHSN BR SCT006 SCT030 FEW040CB
                        M00/M01 Q1015 R07/29//95=
201912021430 METAR LRCL 021430Z 36005KT 3000 -SN BR BKN006 FEW040CB M00/M01
                        Q1015 R07/29//95=
201912021500 METAR LRCL 021500Z 36003KT 2000 -SN BR SCT008 SCT025 M00/M01
                        Q1016 R07/29//95=
201912021530 METAR LRCL 021530Z VRB01KT 2000 -SHSN BR FEW008 SCT020 FEW040CB
                        M00/M01 Q1016 R07/29//95=
201912021600 METAR LRCL 021600Z 06002KT 2000 -SHSN BR FEW003 SCT020 FEW040CB
                        M00/M01 Q1016 R07/590294=
201912021630 METAR LRCL 021630Z VRB01KT 2500 -SN BR FEW008 SCT020 M01/M01
                        Q1016 R07/590294=
201912021700 METAR LRCL 021700Z 00000KT 2500 -SN BR FEW008 SCT023 M00/M01
                        Q1016 R07/590294=
201912021730 METAR LRCL 021730Z VRB01KT 3000 -SN BR FEW009 BKN020 M00/M01
                        Q1016 R07/690294=
201912021800 METAR COR LRCL 021800Z 32001KT 3000 -SN BR SCT010 BKN020
                        M00/M01 Q1017 R07/690294=
201912021830 METAR LRCL 021830Z 24002KT 3000 -SN BR FEW004 SCT010 OVC018
                        M00/M01 Q1017 R07/690294=
201912021900 METAR LRCL 021900Z 26004KT 3500 -SN BR FEW004 BKN016 M00/M01
                        Q1017 R07/690294=
201912021930 METAR LRCL 021930Z 28005KT 5000 BR FEW005 BKN016 00/M01 Q1018
                        R07/690294=
201912022000 METAR LRCL 022000Z 31003KT 6000 BKN016 00/M02 Q1018 R07/690294=
201912022030 METAR LRCL 022030Z 31011KT 8000 BKN014 01/M02 Q1019 R07/690294=
201912022100 METAR COR LRCL 022100Z 31010KT 9999 BKN011 01/M02 Q1019 R07/690294=
201912022130 METAR LRCL 022130Z 30007KT 9999 BKN009 00/M01 Q1020 R07/29//95=
201912022200 METAR LRCL 022200Z 29010KT 9999 BKN010 00/M02 Q1020 R07/29//95=
201912022230 METAR LRCL 022230Z 28005KT 9999 BKN013 OVC052 00/M02 Q1020
                        R07/29//95=
201912022300 METAR LRCL 022300Z 28006KT 260V320 9999 SCT015 OVC054 00/M03
                        Q1020 R07/29//95=
201912022330 METAR COR LRCL 022330Z 30003KT 240V360 9999 BKN017 OVC055
                        M01/M03 Q1020 R07/29//95=
201912030000 METAR LRCL 030000Z AUTO 27006KT 9999 FEW019/// M01/M04 Q1020=
201912030030 METAR LRCL 030030Z 29005KT 9999 FEW020 M02/M04 Q1021 R07/29//95=
201912030100 METAR COR LRCL 030100Z 31003KT 240V040 CAVOK M02/M05 Q1021
                        R07/29//95=
201912030130 METAR LRCL 030130Z 34003KT CAVOK M03/M05 Q1021 R07/29//95=
201912030200 METAR LRCL 030200Z 11005KT 060V140 CAVOK M03/M06 Q1021 R07/29//95=
201912030230 METAR LRCL 030230Z AUTO 10006KT 9999 FEW014/// M03/M05 Q1021=
201912030300 METAR COR LRCL 030300Z 11006KT CAVOK M03/M05 Q1021 R07/29//95=
201912030330 METAR LRCL 030330Z VRB02KT 9999 BKN055 M04/M05 Q1021 R07/29//95=
201912030400 METAR COR LRCL 030400Z VRB02KT 9999 BKN055 M04/M05 Q1021
                        R07/19//95=
201912030430 METAR LRCL 030430Z VRB02KT 9999 BKN047 M03/M05 Q1022 R07/19//95=
201912030500 METAR LRCL 030500Z VRB01KT 9999 BKN044 M03/M04 Q1022 R07/19//95=
201912030530 METAR LRCL 030530Z 16002KT 9999 SCT042 BKN058 M03/M04 Q1022
                        R07/19//95=
201912030600 METAR LRCL 030600Z VRB01KT 9999 OVC057 M03/M04 Q1023 R07/19//95=
201912030630 METAR LRCL 030630Z VRB02KT 9999 BKN057 M03/M04 Q1023 R07/19//95=
201912030700 METAR LRCL 030700Z 07003KT 9999 BKN059 M02/M04 Q1023 R07/19//95=
201912030730 METAR LRCL 030730Z 12004KT 080V160 9999 SCT060 M02/M04 Q1024
                        R07/19//95=
201912030800 METAR LRCL 030800Z 04003KT 9999 FEW051 M02/M04 Q1024 R07/19//95=
201912030830 METAR LRCL 030830Z VRB02KT 9999 SCT056 M01/M04 Q1024 R07/19//95=
201912030900 METAR LRCL 030900Z VRB01KT 9999 SCT056 M00/M04 Q1024 R07/19//95=
201912030930 METAR LRCL 030930Z VRB01KT 9999 FEW054 00/M04 Q1024 R07/19//95=
201912031000 METAR LRCL 031000Z 03004KT 340V050 9999 FEW062 00/M04 Q1024
                        R07/19//95=
201912031030 METAR LRCL 031030Z 06004KT 9999 SCT058 00/M04 Q1024 R07/19//95=
201912031100 METAR LRCL 031100Z 06005KT 9999 BKN057 01/M03 Q1024 R07/19//95=
201912031130 METAR LRCL 031130Z 05005KT 360V100 9999 BKN059 01/M03 Q1024
                        R07/19//95=
201912031200 METAR LRCL 031200Z 07004KT 030V090 9999 BKN063 01/M04 Q1024
                        R07/19//95=
201912031230 METAR LRCL 031230Z 06004KT 9999 BKN065 00/M03 Q1024 R07/15//95=
201912031300 METAR LRCL 031300Z 07003KT 9999 BKN066 00/M03 Q1024 R07/15//95=
201912031330 METAR LRCL 031330Z 05003KT 9999 BKN062 00/M03 Q1024 R07/15//95=
201912031400 METAR LRCL 031400Z 12002KT 9999 BKN063 00/M03 Q1024 R07/15//95=
201912031430 METAR LRCL 031430Z VRB01KT 9999 BKN068 00/M03 Q1025 R07/15//95=
201912031500 METAR LRCL 031500Z VRB01KT 9999 SCT064 M00/M03 Q1025 R07/15//95=
201912031530 METAR LRCL 031530Z 32002KT 9999 SCT066 M00/M04 Q1025 R07/15//95=
201912031600 METAR LRCL 031600Z 00000KT 9999 FEW019 SCT066 M01/M04 Q1025
                        R07/15//95=
201912031630 METAR LRCL 031630Z 00000KT 9999 SCT068 M01/M04 Q1026 R07/15//95=
201912031700 METAR LRCL 031700Z 00000KT 9999 FEW018 SCT068 M01/M04 Q1026
                        R07/15//95=
201912031730 METAR LRCL 031730Z 36006KT 9999 SCT016 M01/M04 Q1026 R07/15//95=
201912031800 METAR LRCL 031800Z 35006KT 9999 BKN016 M01/M04 Q1027 R07/15//95=
201912031830 METAR LRCL 031830Z 01005KT 9999 BKN016 M01/M04 Q1027 R07/15//95=
201912031900 METAR LRCL 031900Z 33005KT 9999 BKN016 M01/M04 Q1027 R07/15//95=
201912031930 METAR LRCL 031930Z 35005KT 9999 OVC016 M01/M04 Q1027 R07/15//95=
201912032000 METAR LRCL 032000Z 01004KT 9999 OVC016 M01/M04 Q1027 R07/15//95=
201912032030 METAR LRCL 032030Z 32005KT 9999 OVC016 M01/M04 Q1028 R07/15//95=
201912032100 METAR LRCL 032100Z 36004KT 9999 OVC016 M01/M04 Q1028 R07/15//95=
201912032130 METAR LRCL 032130Z 01007KT 9999 OVC016 M01/M04 Q1028 R07/15//95=
201912032200 METAR LRCL 032200Z VRB02KT 9999 OVC018 M01/M04 Q1028 R07/15//95=
201912032230 METAR LRCL 032230Z 08003KT 9999 OVC018 M01/M04 Q1028 R07/15//95=
201912032300 METAR LRCL 032300Z 08005KT 9999 OVC018 M02/M04 Q1028 R07/15//95=
201912032330 METAR LRCL 032330Z 08005KT 9999 OVC018 M02/M04 Q1028 R07/15//95=
201912040000 METAR LRCL 040000Z 08006KT 9999 OVC018 M02/M04 Q1028 R07/15//95=
201912040030 METAR LRCL 040030Z 08005KT 9999 OVC018 M02/M04 Q1029 R07/15//95=
201912040100 METAR LRCL 040100Z 08006KT 9999 FEW012 OVC018 M02/M04 Q1029
                        R07/15//95=
201912040130 METAR LRCL 040130Z 07004KT 9999 FEW012 OVC018 M02/M04 Q1029
                        R07/15//95=
201912040200 METAR LRCL 040200Z 06003KT 9999 OVC020 M02/M04 Q1028 R07/15//95=
201912040230 METAR LRCL 040230Z 05003KT 9999 OVC020 M02/M04 Q1028 R07/15//95=
201912040300 METAR LRCL 040300Z VRB01KT 9999 OVC020 M02/M04 Q1029 R07/15//95=
201912040330 METAR LRCL 040330Z 03003KT 9999 FEW015 OVC020 M02/M04 Q1029
                        R07/15//95=
201912040400 METAR LRCL 040400Z 04003KT 9999 SCT013 OVC020 M02/M04 Q1029
                        R07/15//95=
201912040430 METAR LRCL 040430Z 07004KT 9999 FEW013 OVC020 M02/M04 Q1029
                        R07/15//95=
201912040500 METAR LRCL 040500Z 03004KT 9999 OVC018 M02/M04 Q1029 R07/15//95=
201912040530 METAR LRCL 040530Z 06004KT 9999 FEW013 OVC018 M02/M04 Q1030
                        R07/15//95=
201912040600 METAR LRCL 040600Z 08006KT 9999 OVC018 M02/M04 Q1030 R07/15//95=
201912040630 METAR LRCL 040630Z 08005KT 9999 OVC020 M02/M04 Q1030 R07/15//95=
201912040700 METAR LRCL 040700Z 09004KT 9999 OVC020 M01/M04 Q1030 R07/15//95=
201912040730 METAR COR LRCL 040730Z 12004KT 080V190 9999 OVC020 M01/M04
                        Q1031 R07/15//95=
201912040800 METAR LRCL 040800Z 14006KT 120V180 9999 OVC019 M01/M04 Q1031
                        R07/15//95=
201912040830 METAR LRCL 040830Z 13007KT 9999 OVC019 M00/M04 Q1031 R07/15//95=
201912040900 METAR LRCL 040900Z 12006KT 9999 OVC019 M00/M04 Q1031 R07/15//95=
201912040930 METAR LRCL 040930Z 12006KT 9999 OVC019 00/M05 Q1031 R07/15//95=
201912041000 METAR LRCL 041000Z 12006KT 9999 BKN019 M00/M05 Q1030 R07/15//95=
201912041030 METAR LRCL 041030Z 12006KT 090V160 9999 BKN019 00/M05 Q1031
                        R07/15//95=
201912041100 METAR LRCL 041100Z 10006KT 9999 BKN020 00/M04 Q1031 R07/15//95=
201912041130 METAR LRCL 041130Z 11006KT 9999 BKN020 00/M05 Q1030 R07/15//95=
201912041200 METAR LRCL 041200Z 09005KT 9999 BKN020 00/M05 Q1030 R07/15//95=
201912041230 METAR LRCL 041230Z 12006KT 090V150 9999 BKN021 00/M05 Q1030
                        R07/15//95=
201912041300 METAR LRCL 041300Z 11006KT 9999 BKN021 M00/M06 Q1030 R07/15//95=
201912041330 METAR LRCL 041330Z 12006KT 090V170 9999 BKN020 M00/M05 Q1031
                        R07/15//95=
201912041400 METAR LRCL 041400Z 13005KT 9999 BKN020 M01/M06 Q1031 R07/15//95=
201912041430 METAR LRCL 041430Z 15004KT 9999 BKN020 M01/M06 Q1031 R07/15//95=
201912041500 METAR LRCL 041500Z 16005KT 9999 BKN020 M01/M06 Q1031 R07/15//95=
201912041530 METAR LRCL 041530Z 13003KT 9999 BKN021 M01/M06 Q1031 R07/15//95=
201912041600 METAR LRCL 041600Z 11004KT 9999 BKN021 M01/M05 Q1031 R07/15//95=
201912041630 METAR LRCL 041630Z 11005KT 9999 BKN021 M02/M05 Q1031 R07/15//95=
201912041700 METAR LRCL 041700Z 10004KT 9999 SCT023 M03/M05 Q1031 R07/15//95=
201912041730 METAR LRCL 041730Z 10003KT 060V150 9999 FEW025 M03/M06 Q1031
                        R07/15//95=
201912041800 METAR LRCL 041800Z 09004KT 060V140 CAVOK M03/M06 Q1032 R07/15//95=
201912041830 METAR LRCL 041830Z 07003KT 030V100 CAVOK M04/M07 Q1032=
201912041900 METAR LRCL 041900Z 07002KT CAVOK M04/M06 Q1032=
201912041930 METAR LRCL 041930Z 06004KT 8000 NSC M04/M06 Q1032=
201912042000 METAR LRCL 042000Z 06003KT 9000 NSC M04/M07 Q1032=
201912042030 METAR LRCL 042030Z 06004KT 8000 NSC M05/M07 Q1032=
201912042100 METAR LRCL 042100Z 05004KT 7000 NSC M05/M07 Q1032=
201912042130 METAR LRCL 042130Z VRB01KT 7000 NSC M05/M07 Q1032=
201912042200 METAR LRCL 042200Z VRB01KT 8000 NSC M05/M07 Q1032=
201912042230 METAR LRCL 042230Z 07004KT 7000 NSC M05/M07 Q1032=
201912042300 METAR LRCL 042300Z 07006KT 8000 NSC M04/M07 Q1031=
201912042330 METAR LRCL 042330Z 07005KT 8000 NSC M05/M07 Q1031=
201912050000 METAR LRCL 050000Z 08005KT 8000 NSC M05/M07 Q1031=
201912050030 METAR LRCL 050030Z 08005KT 8000 NSC M05/M07 Q1032=
201912050100 METAR LRCL 050100Z 13002KT 8000 NSC M05/M07 Q1031=
201912050130 METAR LRCL 050130Z VRB01KT 7000 SCT017 M05/M07 Q1031=
201912050200 METAR LRCL 050200Z 00000KT 5000 BR SCT015 M06/M08 Q1031=
201912050230 METAR LRCL 050230Z 27002KT 6000 SCT015 M06/M07 Q1031=
201912050300 METAR LRCL 050300Z 27004KT 6000 BKN015 M06/M07 Q1031=
201912050330 METAR LRCL 050330Z VRB02KT 6000 BKN015 M06/M08 Q1031=
201912050400 METAR LRCL 050400Z 25003KT 6000 BKN014 M05/M07 Q1031=
201912050430 METAR LRCL 050430Z 27003KT 6000 BKN014 M05/M07 Q1031=
201912050500 METAR LRCL 050500Z VRB02KT 5000 BR BKN013 M05/M07 Q1031=
201912050530 METAR LRCL 050530Z VRB02KT 8000 BKN012 M04/M06 Q1031=
201912050600 METAR LRCL 050600Z 11005KT 080V140 9999 BKN012 M03/M06 Q1031=
201912050630 METAR LRCL 050630Z 12006KT 9999 BKN014 M03/M06 Q1031=
201912050700 METAR LRCL 050700Z 10006KT 9999 SCT013 M03/M06 Q1031=
201912050730 METAR LRCL 050730Z 13006KT 9999 BKN012 M03/M06 Q1031=
201912050800 METAR LRCL 050800Z 13006KT 9999 BKN011 M03/M06 Q1031=
201912050830 METAR LRCL 050830Z 12006KT 9999 BKN011 M03/M06 Q1032=
201912050900 METAR LRCL 050900Z 11004KT 9999 BKN011 M03/M06 Q1031=
201912050930 METAR LRCL 050930Z 13005KT 9999 BKN011 M02/M06 Q1031 R07/15//95=
201912051000 METAR LRCL 051000Z 12005KT 9999 OVC011 M02/M06 Q1031 R07/15//95=
201912051030 METAR LRCL 051030Z 09006KT 9999 OVC011 M02/M06 Q1031 R07/15//95=
201912051100 METAR LRCL 051100Z 09007KT 9999 OVC011 M03/M06 Q1031 R07/15//95=
201912051130 METAR LRCL 051130Z 09006KT 9999 OVC011 M03/M06 Q1030 R07/15//95=
201912051200 METAR COR LRCL 051200Z 09007KT 9999 OVC011 M03/M06 Q1030
                        R07/15//95=
201912051230 METAR LRCL 051230Z 09007KT 9999 BKN011 M03/M06 Q1030 R07/15//95=
201912051300 METAR LRCL 051300Z 10007KT 9999 FEW012 M02/M06 Q1029 R07/15//95=
201912051330 METAR LRCL 051330Z 09008KT 9999 FEW012 M03/M06 Q1029 R07/15//95=
201912051400 METAR LRCL 051400Z 08006KT 9999 FEW012 M03/M06 Q1029 R07/15//95=
201912051430 METAR LRCL 051430Z 07006KT 9999 FEW012 M04/M06 Q1029 R07/15//95=
201912051500 METAR LRCL 051500Z 07005KT CAVOK M04/M06 Q1029 R07/15//95=
201912051530 METAR LRCL 051530Z 06005KT CAVOK M04/M06 Q1029 R07/15//95=
201912051600 METAR LRCL 051600Z 08005KT 8000 NSC M04/M07 Q1029 R07/15//95=
201912051630 METAR LRCL 051630Z 07004KT 7000 NSC M05/M07 Q1029 R07/15//95=
201912051700 METAR LRCL 051700Z 07005KT 6000 NSC M05/M07 Q1029 R07/15//95=
201912051730 METAR LRCL 051730Z 05003KT 5000 BR NSC M06/M07 Q1029 R07/15//95=
201912051800 METAR LRCL 051800Z 08003KT 5000 BR FEW007 M06/M07 Q1029 R07/15//95=
201912051830 METAR LRCL 051830Z 07003KT 5000 BR FEW007 M06/M08 Q1029 R07/15//95=
201912051900 METAR LRCL 051900Z 03005KT 5000 BR FEW007 M06/M07 Q1029 R07/15//95=
201912051930 METAR LRCL 051930Z 04004KT 7000 NSC M06/M08 Q1029 R07/15//95=
201912052000 METAR LRCL 052000Z VRB01KT 6000 NSC M06/M08 Q1029 R07/15//95=
201912052030 METAR LRCL 052030Z 00000KT 5000 BR FEW007 M07/M09 Q1029 R07/15//95=
201912052100 METAR COR LRCL 052100Z 14003KT 5000 BR SCT006 M07/M09 Q1029
                        R07/15//95=
201912052130 METAR LRCL 052130Z 11002KT 5000 BR SCT006 M07/M08 Q1029 R07/15//95=
201912052200 METAR LRCL 052200Z VRB01KT 5000 BR SCT005 M06/M08 Q1029 R07/15//95=
201912052230 METAR LRCL 052230Z VRB02KT 4000 BR SCT003 M06/M07 Q1028 R07/15//95=
201912052300 METAR LRCL 052300Z VRB02KT 2500 BR BKN002 M06/M07 Q1028 R07/15//95=
201912052330 METAR LRCL 052330Z AUTO VRB02KT 1400 R25/1300VP2000D FZFG
                        VV002 M06/M07 Q1028=
201912060000 METAR COR LRCL 060000Z VRB01KT 1500E FZFG BKN002 M06/M07
                        Q1028 R07/15//95=
201912060030 METAR LRCL 060030Z AUTO VRB02KT 0900 R25/0800V1400U FZFG
                        VV002 M06/M07 Q1027=
201912060100 METAR COR LRCL 060100Z 10003KT 0600 R25/0700N FZFG VV002
                        M06/M07 Q1027 R07/15//95=
201912060130 METAR LRCL 060130Z 09004KT 0600 R25/0700D FZFG VV002 M06/M08
                        Q1027 R07/15//95=
201912060200 METAR COR LRCL 060200Z 09004KT 0600 R25/0700D FZFG VV002
                        M06/M08 Q1027 R07/15//95=
201912060230 METAR COR LRCL 060230Z 05003KT 020V080 0450 R25/0500N FZFG
                        VV001 M07/M08 Q1027 R07/15//95=
201912060300 METAR COR LRCL 060300Z 06003KT 0500 R25/0650N FZFG VV002
                        M07/M08 Q1027 R07/15//95=
201912060330 METAR LRCL 060330Z AUTO VRB02KT 0500 R25/0600D FZFG VV002
                        M07/M08 Q1027=
201912060400 METAR LRCL 060400Z 00000KT 0800 R25/0800U FZFG OVC002 M07/M08
                        Q1027 R07/15//95=
201912060430 METAR COR LRCL 060430Z 30001KT 1400 R25/1300U BR OVC002 M06/M08
                        Q1027 R07/15//95=
201912060500 METAR LRCL 060500Z VRB02KT 1500 BR OVC002 M06/M08 Q1027 R07/15//95=
201912060530 METAR LRCL 060530Z VRB02KT 1500 BR OVC002 M06/M08 Q1027 R07/15//95=
201912060600 METAR COR LRCL 060600Z 08003KT 1000 R25/1300D BR OVC002 M07/M08
                        Q1026 R07/15//95=
201912060630 METAR LRCL 060630Z VRB02KT 1200 R25/1500N BR OVC002 M07/M08
                        Q1026 R07/15//95=
201912060700 METAR LRCL 060700Z 05003KT 0800 R25/0600D FZFG OVC002 M07/M08
                        Q1027 R07/15//95=
201912060730 METAR LRCL 060730Z VRB02KT 0800 R25/0325N FZFG OVC002 M07/M08
                        Q1027 R07/15//95=
201912060800 METAR LRCL 060800Z 04003KT 0800 R25/0375N FZFG VV002 M07/M08
                        Q1027 R07/15//95=
201912060830 METAR LRCL 060830Z 06003KT 0600 R25/0800U FZFG VV002 M06/M08
                        Q1027 R07/15//95=
201912060900 METAR LRCL 060900Z 11003KT 0600 R25/0450N FZFG VV002 M06/M08
                        Q1026 R07/15//95=
201912060930 METAR LRCL 060930Z 06004KT 0600 R25/0500N FZFG VV002 M06/M08
                        Q1026 R07/15//95=
201912061000 METAR LRCL 061000Z 08003KT 0600 R25/0400U FZFG VV002 M06/M08
                        Q1025 R07/15//95=
201912061030 METAR LRCL 061030Z 06003KT 320V100 0600 R25/0700N -FZDZ FZFG
                        VV002 M06/M07 Q1025 R07/15//95=
201912061100 METAR LRCL 061100Z 06003KT 350V110 1000 R25/1100D BR OVC001
                        M06/M07 Q1024 R07/15//95=
201912061130 METAR LRCL 061130Z 05003KT 360V090 1600 BR OVC002 M05/M06
                        Q1024 R07/15//95=
201912061200 METAR LRCL 061200Z VRB02KT 2000 -FZDZ BR OVC002 M05/M06 Q1024
                        R07/15//95=
201912061230 METAR LRCL 061230Z 04003KT 350V080 2000 -FZDZ BR OVC003 M05/M06
                        Q1024 R07/19//95=
201912061300 METAR LRCL 061300Z VRB02KT 1300 R25/1400D BR OVC002 M05/M06
                        Q1023 R07/19//95=
201912061330 METAR LRCL 061330Z 05003KT 340V100 1200 R25/1600 BR OVC002
                        M05/M06 Q1023 R07/19//95=
201912061400 METAR LRCL 061400Z VRB02KT 1000 R25/1400N BR OVC001 M05/M06
                        Q1023 R07/19//95=
201912061430 METAR LRCL 061430Z VRB01KT 0700 R25/0650N FZFG VV002 M05/M06
                        Q1023 R07/19//95=
201912061500 METAR LRCL 061500Z VRB02KT 1000 R25/1000U FZFG VV002 M05/M06
                        Q1023 R07/19//95=
201912061530 METAR LRCL 061530Z 30004KT 250V350 1000 R25/1000D BR VV002
                        M05/M06 Q1023 R07/19//95=
201912061600 METAR LRCL 061600Z 00000KT 1200 R25/0650U BR OVC002 M05/M07
                        Q1023 R07/19//95=
201912061630 METAR LRCL 061630Z 36003KT 320V030 1500 BR OVC002 M05/M07
                        Q1023 R07/19//95=
201912061700 METAR LRCL 061700Z 02003KT 360V060 1500 R25/0650N BR OVC002
                        M05/M07 Q1023 R07/19//95=
201912061730 METAR COR LRCL 061730Z VRB02KT 1200 R25/0550N BR OVC002 M06/M07
                        Q1023 R07/19//95=
201912061800 METAR LRCL 061800Z VRB02KT 1400 R25/1000 BR OVC002 M05/M07
                        Q1023 R07/19//95=
201912061830 METAR LRCL 061830Z VRB02KT 1000 R25/0650N BR OVC002 M05/M07
                        Q1023 R07/19//95=
201912061900 METAR LRCL 061900Z 14003KT 0800 R25/0650N FZFG VV002 M06/M07
                        Q1023 R07/19//95=
201912061930 METAR LRCL 061930Z 14003KT 0800 R25/0600D FZFG VV002 M06/M07
                        Q1023 R07/19//95=
201912062000 METAR LRCL 062000Z VRB01KT 0800 R25/0500D FZFG VV002 M06/M07
                        Q1023 R07/19//95=
201912062030 METAR LRCL 062030Z VRB02KT 0800 R25/1000N FZFG VV002 M06/M07
                        Q1023 R07/19//95=
201912062100 METAR LRCL 062100Z 00000KT 0800 R25/1000D FZFG VV002 M06/M07
                        Q1023 R07/19//95=
201912062130 METAR LRCL 062130Z 15003KT 0800 R25/0800N FZFG VV002 M06/M08
                        Q1022 R07/19//95=
201912062200 METAR LRCL 062200Z VRB02KT 0600 R25/0900 FZFG VV002 M07/M08
                        Q1022 R07/19//95=
201912062230 METAR LRCL 062230Z 11003KT 0600 R25/0900N FZFG VV002 M07/M08
                        Q1022 R07/19//95=
201912062300 METAR LRCL 062300Z VRB02KT 0600 R25/0800N FZFG VV002 M07/M08
                        Q1021 R07/19//95=
201912062330 METAR LRCL 062330Z VRB02KT 0600 R25/0650N FZFG VV002 M07/M08
                        Q1021 R07/19//95=
201912070000 METAR LRCL 070000Z 02003KT 0600 R25/0900U FZFG VV002 M07/M08
                        Q1021 R07/19//95=
201912070030 METAR LRCL 070030Z VRB02KT 0800 R25/1200U FZFG VV002 M06/M08
                        Q1021 R07/19//95=
201912070100 METAR LRCL 070100Z 02003KT 0800 R25/1200D FZFG VV002 M07/M08
                        Q1021 R07/19//95=
201912070130 METAR LRCL 070130Z VRB02KT 0800 R25/0750U FZFG VV002 M07/M08
                        Q1021 R07/19//95=
201912070200 METAR LRCL 070200Z VRB01KT 0800 R25/1200U FZFG VV002 M07/M08
                        Q1021 R07/19//95=
201912070230 METAR LRCL 070230Z VRB01KT 0600 R25/0550N FZFG VV002 M07/M08
                        Q1020 R07/19//95=
201912070300 METAR LRCL 070300Z VRB02KT 0600 R25/0600N FZFG VV002 M07/M08
                        Q1020 R07/19//95=
201912070330 METAR LRCL 070330Z 05003KT 0600 R25/1200N FZFG VV002 M07/M09
                        Q1020 R07/19//95=
201912070400 METAR LRCL 070400Z 07003KT 0600 R25/0500N FZFG VV002 M07/M09
                        Q1020 R07/19//95=
201912070430 METAR LRCL 070430Z VRB01KT 0600 R25/0800N FZFG VV002 M07/M09
                        Q1020 R07/19//95=
201912070500 METAR LRCL 070500Z 00000KT 0800 R25/1300D FZFG VV002 M07/M08
                        Q1019 R07/19//95=
201912070530 METAR LRCL 070530Z 09004KT 1200 R25/1400 BR VV002 M06/M08
                        Q1020 R07/19//95=
201912070600 METAR LRCL 070600Z 10004KT 1500 BR OVC002 M06/M08 Q1019 R07/19//95=
201912070630 METAR LRCL 070630Z 07003KT 2000 BR OVC002 M06/M07 Q1019 R07/19//95=
201912070700 METAR LRCL 070700Z 07003KT 2500 BR OVC003 M06/M07 Q1019 R07/19//95=
201912070730 METAR LRCL 070730Z 07003KT 2500 BR SCT003 OVC005 M05/M06
                        Q1019 R07/19//95=
201912070800 METAR COR LRCL 070800Z VRB02KT 2500 -FZDZ BR SCT003 OVC005
                        M05/M06 Q1019 R07/19//95=
201912070830 METAR LRCL 070830Z VRB02KT 3000 BR BKN005 OVC047 M04/M06
                        Q1019 R07/19//95=
201912070900 METAR LRCL 070900Z VRB01KT 3500 BR BKN007 OVC046 M04/M05
                        Q1019 R07/19//95=
201912070930 METAR LRCL 070930Z VRB02KT 4000 BR SCT007 BKN048 M04/M05
                        Q1018 R07/19//95=
201912071000 METAR LRCL 071000Z 08004KT 040V100 4000 BR FEW007 SCT049
                        M03/M04 Q1018 R07/19//95=
201912071030 METAR LRCL 071030Z 08003KT 040V110 4000 BR SCT007 BKN048
                        M02/M03 Q1018 R07/19//95=
201912071100 METAR LRCL 071100Z 02004KT 350V100 5000 BR SCT008 BKN048
                        M02/M03 Q1018 R07/19//95=
201912071130 METAR LRCL 071130Z 08004KT 5000 BR BKN008 BKN048 M02/M03
                        Q1017 R07/19//95=
201912071200 METAR LRCL 071200Z 03003KT 340V060 4500 BR BKN007 M02/M03
                        Q1017 R07/19//95=
201912071230 METAR LRCL 071230Z 03003KT 5000 BR BKN007 M02/M03 Q1017 R07/19//95=
201912071300 METAR LRCL 071300Z 03004KT 010V080 5000 BR BKN009 M02/M02
                        Q1016 R07/19//95=
201912071330 METAR LRCL 071330Z 01004KT 5000 BR BKN008 M02/M03 Q1017 R07/19//95=
201912071400 METAR LRCL 071400Z 01005KT 4000 BR BKN008 M02/M03 Q1017 R07/19//95=
201912071430 METAR LRCL 071430Z VRB02KT 3500 BR BKN007 M02/M03 Q1017 R07/19//95=
201912071500 METAR LRCL 071500Z 00000KT 3500 BR BKN007 M02/M03 Q1017 R07/19//95=
201912071530 METAR LRCL 071530Z VRB02KT 4000 BR BKN007 M02/M03 Q1017 R07/19//95=
201912071600 METAR LRCL 071600Z VRB01KT 4000 BR BKN006 M02/M03 Q1018 R07/19//95=
201912071630 METAR LRCL 071630Z 00000KT 4000 BR BKN006 M02/M03 Q1018 R07/19//95=
201912071700 METAR LRCL 071700Z 19004KT 3000 BR BKN005 BKN032 M02/M03
                        Q1017 R07/19//95=
201912071730 METAR LRCL 071730Z VRB01KT 3000 BR BKN005 BKN041 M02/M03
                        Q1017 R07/19//95=
201912071800 METAR LRCL 071800Z VRB02KT 3500 BR FEW004 BKN043 M02/M02
                        Q1018 R07/19//95=
201912071830 METAR LRCL 071830Z 00000KT 3500 BR BKN047 M02/M02 Q1017 R07/19//95=
201912071900 METAR COR LRCL 071900Z 05002KT 3500 BR BKN042 M02/M02 Q1018
                        R07/19//95=
201912071930 METAR LRCL 071930Z 00000KT 4000 BR BKN044 M01/M02 Q1018 R07/19//95=
201912072000 METAR LRCL 072000Z 08003KT 040V110 4000 BR BKN035 M01/M02
                        Q1018 R07/19//95=
201912072030 METAR LRCL 072030Z 09004KT 4000 BR FEW034 SCT057 M02/M03
                        Q1018 R07/19//95=
201912072100 METAR LRCL 072100Z VRB01KT 4000 BR BKN046 M02/M03 Q1018 R07/19//95=
201912072130 METAR LRCL 072130Z VRB01KT 4000 BR FEW040 OVC054 M01/M02
                        Q1019 R07/19//95=
201912072200 METAR LRCL 072200Z VRB02KT 3500 OVC046 M01/M02 Q1018 R07/19//95=
201912072230 METAR LRCL 072230Z VRB02KT 3500 BR OVC040 M01/M02 Q1018 R07/19//95=
201912072300 METAR LRCL 072300Z 08002KT 3500 BR OVC037 M01/M02 Q1018 R07/19//95=
201912072330 METAR LRCL 072330Z 00000KT 3500 BR BKN036 M01/M02 Q1018 R07/19//95=
201912080000 METAR LRCL 080000Z 09002KT 4000 BR FEW036 SCT053 M01/M02
                        Q1018 R07/19//95=
201912080030 METAR LRCL 080030Z VRB02KT 4000 BR BKN034 M01/M02 Q1018 R07/19//95=
201912080100 METAR LRCL 080100Z 16003KT 130V220 4500 BR OVC031 M01/M02
                        Q1018 R07/19//95=
201912080130 METAR LRCL 080130Z VRB01KT 4000 BR OVC031 M01/M02 Q1018 R07/19//95=
201912080200 METAR LRCL 080200Z VRB02KT 4000 BR OVC030 M01/M02 Q1018 R07/19//95=
201912080230 METAR LRCL 080230Z 14002KT 4000 -SN OVC028 M01/M02 Q1018
                        R07/19//95=
201912080300 METAR LRCL 080300Z 10003KT 3500 -SN BR OVC025 M00/M02 Q1018
                        R07/29//95=
201912080330 METAR LRCL 080330Z VRB02KT 3500 -FZRA BR OVC028 M00/M02 Q1018
                        R07/29//95=
201912080400 METAR LRCL 080400Z VRB01KT 3500 BR OVC029 M00/M02 Q1018 R07/29//95=
201912080430 METAR LRCL 080430Z VRB02KT 4000 BR BKN029 M00/M01 Q1018 R07/29//95=
201912080500 METAR LRCL 080500Z 06002KT 4000 BR FEW029 BKN065 M00/M01
                        Q1019 R07/29//95=
201912080530 METAR LRCL 080530Z VRB01KT 4000 BR BKN028 M00/M01 Q1019 R07/29//95=
201912080600 METAR LRCL 080600Z 00000KT 3500 BR SCT033 M00/M01 Q1019 R07/29//95=
201912080630 METAR LRCL 080630Z 00000KT 3500 BR BKN031 00/M01 Q1019 R07/29//95=
201912080700 METAR LRCL 080700Z 00000KT 3000 BR SCT031 BKN063 00/M01 Q1019
                        R07/29//95=
201912080730 METAR LRCL 080730Z VRB02KT 2500 BR SCT035 BKN061 00/M01 Q1020
                        R07/29//95=
201912080800 METAR LRCL 080800Z 13001KT 2500 BR SCT033 OVC064 01/M01 Q1020
                        R07/29//95=
201912080830 METAR LRCL 080830Z 11003KT 2500 BR BKN032 BKN065 01/M01 Q1020
                        R07/29//95=
201912080900 METAR LRCL 080900Z 11003KT 2600 BR SCT033 BKN064 01/M01 Q1020
                        R07/29//95=
201912080930 METAR LRCL 080930Z 10003KT 3500 BR FEW033 BKN062 01/M01 Q1020
                        R07/29//95=
201912081000 METAR LRCL 081000Z VRB02KT 3600 BR FEW035 BKN061 01/M01 Q1020
                        R07/29//95=
201912081030 METAR LRCL 081030Z 08002KT 3600 BR FEW035 OVC060 02/M00 Q1019
                        R07/29//95=
201912081100 METAR LRCL 081100Z 08003KT 040V110 3600 BR FEW035 BKN060
                        02/M00 Q1019 R07/19//95=
201912081130 METAR LRCL 081130Z 07003KT 3500 BR OVC056 02/M00 Q1019 R07/19//95=
201912081200 METAR LRCL 081200Z VRB02KT 3800 BR OVC056 03/00 Q1019 R07/19//95=
201912081230 METAR LRCL 081230Z 03003KT 360V070 4300 BR BKN055 03/00 Q1018
                        R07/19//95=
201912081300 METAR LRCL 081300Z 05003KT 020V090 4500 BR SCT053 03/00 Q1019
                        R07/19//95=
201912081330 METAR LRCL 081330Z 05004KT 4000 BR FEW055 02/M00 Q1018 R07/19//95=
201912081400 METAR LRCL 081400Z 03004KT 350V050 3500 BR SCT059 02/00 Q1018
                        R07/19//95=
201912081430 METAR LRCL 081430Z 03004KT 350V070 3500 BR SCT057 02/00 Q1018
                        R07/19//95=
201912081500 METAR LRCL 081500Z 03004KT 360V060 4000 BR SCT056 02/00 Q1018
                        R07/19//95=
201912081530 METAR LRCL 081530Z 07003KT 4000 BR BKN055 02/00 Q1018 R07/19//95=
201912081600 METAR LRCL 081600Z VRB02KT 3500 BR BKN053 01/M01 Q1018 R07/19//95=
201912081630 METAR LRCL 081630Z VRB01KT 2800 BR SCT052 00/M01 Q1018 R07/19//95=
201912081700 METAR LRCL 081700Z VRB01KT 2800 BR FEW055 00/M01 Q1018 R07/19//95=
201912081730 METAR LRCL 081730Z VRB02KT 2700 BR FEW006 00/M01 Q1018 R07/19//95=
201912081800 METAR LRCL 081800Z VRB01KT 2500 BR SCT005 M00/M01 Q1018 R07/19//95=
201912081830 METAR LRCL 081830Z VRB01KT 0800 R25/1500U BCFG BKN005 M01/M01
                        Q1018 R07/19//95=
201912081900 METAR LRCL 081900Z 00000KT 0350 R25/0400N BCFG BKN004 M01/M02
                        Q1017 R07/19//95=
201912081930 METAR LRCL 081930Z 00000KT 0450 R25/0550U BCFG BKN003 M01/M01
                        Q1017 R07/19//95=
201912082000 METAR LRCL 082000Z 14002KT 1300 R25/1500U BCFG BKN002 M01/M01
                        Q1017 R07/19//95=
201912082030 METAR LRCL 082030Z VRB02KT 0800 R25/0900D FZFG VV002 M00/M01
                        Q1017 R07/19//95=
201912082100 METAR LRCL 082100Z VRB02KT 0900 R25/1000U FZFG VV002 M00/M01
                        Q1017 R07/19//95=
201912082130 METAR LRCL 082130Z VRB02KT 1000 R25/1300N FZFG OVC001 M00/M01
                        Q1017 R07/19//95=
201912082200 METAR LRCL 082200Z 09003KT 0400 R25/0450N FZFG VV002 M00/M01
                        Q1016 R07/19//95=
201912082230 METAR LRCL 082230Z 10004KT 070V170 0300 R25/0325N FG VV001
                        00/M01 Q1016 R07/19//95=
201912082300 METAR LRCL 082300Z 11003KT 0300 R25/0350N FZFG VV001 M00/M01
                        Q1015 R07/19//95=
201912082330 METAR LRCL 082330Z VRB02KT 0250 R25/0300N FZFG VV001 M00/M01
                        Q1015 R07/19//95=
201912090000 METAR LRCL 090000Z 08002KT 0250 R25/0300N FZFG VV001 M00/M01
                        Q1015 R07/19//95=
201912090030 METAR LRCL 090030Z 16003KT 0250 R25/0300N FZFG VV001 M00/M01
                        Q1015 R07/19//95=
201912090100 METAR LRCL 090100Z VRB02KT 0300 R25/0325N FZFG VV001 M00/M01
                        Q1015 R07/19//95=
201912090130 METAR LRCL 090130Z 20002KT 0350 R25/0400N FZFG VV001 M00/M01
                        Q1015 R07/19//95=
201912090200 METAR LRCL 090200Z 20002KT 0400 R25/0450N FZFG VV002 M01/M01
                        Q1015 R07/19//95=
201912090230 METAR LRCL 090230Z 20002KT 0350 R25/0400N FZFG VV002 M00/M01
                        Q1015 R07/19//95=
201912090300 METAR LRCL 090300Z 19004KT 0300 R25/0325N FZFG VV001 M00/M01
                        Q1014 R07/19//95=
201912090330 METAR LRCL 090330Z 17004KT 0800 R25/1100U FZFG VV002 M00/M01
                        Q1014 R07/19//95=
201912090400 METAR LRCL 090400Z 17003KT 120V240 0500 R25/0600D FZFG VV002
                        M00/M01 Q1014 R07/19//95=
201912090430 METAR LRCL 090430Z 26002KT 0500 R25/0600U FZFG VV002 M00/M01
                        Q1014 R07/19//95=
201912090500 METAR LRCL 090500Z VRB02KT 0500 R25/0550N FZFG VV002 M01/M01
                        Q1014 R07/19//95=
201912090530 METAR LRCL 090530Z 09002KT 0750 R25/0800N FZFG VV002 M01/M02
                        Q1014 R07/19//95=
201912090600 METAR LRCL 090600Z VRB02KT 0800 R25/1100D FZFG VV002 M01/M02
                        Q1014 R07/19//95=
201912090630 METAR LRCL 090630Z 00000KT 0400 R25/0450N FZFG VV002 M01/M01
                        Q1014 R07/19//95=
201912090700 METAR LRCL 090700Z VRB01KT 0350 R25/0400N FZFG VV002 M01/M01
                        Q1014 R07/19//95=
201912090730 METAR LRCL 090730Z 00000KT 0400 R25/0500U FZFG VV002 M01/M01
                        Q1014 R07/19//95=
201912090800 METAR LRCL 090800Z 07003KT 0400 R25/0350N FZFG VV002 M00/M01
                        Q1014 R07/19//95=
201912090830 METAR LRCL 090830Z VRB02KT 0600 R25/1100U FZFG VV002 M00/M01
                        Q1014 R07/19//95=
201912090900 METAR LRCL 090900Z VRB02KT 1500 BR OVC003 M00/M01 Q1014 R07/19//95=
201912090930 METAR LRCL 090930Z 05003KT 2000 BR OVC003 00/M00 Q1013 R07/19//95=
201912091000 METAR LRCL 091000Z 06005KT 5000 BR BKN004 02/01 Q1013 R07/19//95=
201912091030 METAR LRCL 091030Z 06007KT 6000 SCT004 01/01 Q1012 R07/19//95=
201912091100 METAR LRCL 091100Z 07006KT 6000 BKN006 02/01 Q1012 R07/15//95=
201912091130 METAR LRCL 091130Z 05007KT 6000 BKN006 02/00 Q1012 R07/15//95=
201912091200 METAR LRCL 091200Z 09007KT 7000 SCT006 02/00 Q1011 R07/15//95=
201912091230 METAR LRCL 091230Z 08007KT 7000 FEW004 02/M00 Q1011 R07/15//95=
201912091300 METAR LRCL 091300Z 08008KT 7000 FEW004 01/M00 Q1011 R07/15//95=
201912091330 METAR LRCL 091330Z 09006KT 6000 SCT004 SCT006 01/M00 Q1011
                        R07/15//95=
201912091400 METAR LRCL 091400Z 08005KT 6000 SCT004 01/M00 Q1010 R07/15//95=
201912091430 METAR LRCL 091430Z 07004KT 6000 SCT004 01/M00 Q1010 R07/15//95=
201912091500 METAR LRCL 091500Z 05003KT 6000 FEW005 SCT060 02/M00 Q1010
                        R07/15//95=
201912091530 METAR LRCL 091530Z VRB02KT 6000 FEW005 BKN060 01/M00 Q1010
                        R07/15//95=
201912091600 METAR LRCL 091600Z 06002KT 6000 BKN060 02/M00 Q1011 R07/15//95=
201912091630 METAR LRCL 091630Z VRB01KT 6000 BKN056 01/M00 Q1010 R07/15//95=
201912091700 METAR COR LRCL 091700Z 30004KT 5000 BR FEW006 BKN066 01/M00
                        Q1011 R07/15//95=
201912091730 METAR LRCL 091730Z 08002KT 5000 BR SCT064 00/M01 Q1011 R07/15//95=
201912091800 METAR LRCL 091800Z 11004KT 5000 BR NSC M00/M02 Q1010 R07/15//95=
201912091830 METAR LRCL 091830Z VRB02KT 3000 MIFG BR NSC M00/M01 Q1010
                        R07/15//95=
201912091900 METAR LRCL 091900Z VRB02KT 3000 MIFG BR NSC M01/M02 Q1011
                        R07/15//95=
201912091930 METAR LRCL 091930Z 29002KT 3000 MIFG BR NSC M01/M02 Q1011
                        R07/15//95=
201912092000 METAR LRCL 092000Z 23001KT 3000 MIFG BR NSC M02/M03 Q1010
                        R07/15//95=
201912092030 METAR LRCL 092030Z 00000KT 2500 MIFG BR NSC M01/M02 Q1010
                        R07/15//95=
201912092100 METAR COR LRCL 092100Z 00000KT 0800 R25/0900U FZFG FEW005
                        M02/M02 Q1010 R07/15//95=
201912092130 METAR LRCL 092130Z 27002KT 0800 R25/0400N FZFG FEW001 M02/M03
                        Q1011 R07/15//95=
201912092200 METAR LRCL 092200Z 28003KT 0400 R25/0275N FZFG BKN001 M01/M02
                        Q1011 R07/15//95=
201912092230 METAR LRCL 092230Z VRB02KT 0100 R25/0200N FZFG VV001 M01/M02
                        Q1011 R07/15//95=
201912092300 METAR LRCL 092300Z 26003KT 0100 R25/0350N FZFG VV001 M01/M02
                        Q1010 R07/15//95=
201912092330 METAR LRCL 092330Z 29005KT 0100 R25/0325N FZFG VV001 M01/M02
                        Q1011 R07/15//95=
201912100000 METAR LRCL 100000Z VRB02KT 0100 R25/0350N FZFG VV001 M01/M01
                        Q1011 R07/15//95=
201912100030 METAR LRCL 100030Z 31003KT 0200 R25/0400N FZFG VV001 M01/M01
                        Q1011 R07/15//95=
201912100100 METAR LRCL 100100Z 00000KT 0200 R25/0900N FZFG VV001 M00/M01
                        Q1011 R07/15//95=
201912100130 METAR LRCL 100130Z AUTO 26002KT 0800 R25/0800V1200U FZFG
                        VV002 M00/M01 Q1011=
201912100200 METAR COR LRCL 100200Z 25003KT 0800 R25/1200N FZFG OVC001
                        M00/M01 Q1011 R07/15//95=
201912100230 METAR LRCL 100230Z VRB02KT 1500 BR BKN002 M00/M01 Q1011 R07/15//95=
201912100300 METAR LRCL 100300Z 10004KT 1500 BR BKN002 M00/M01 Q1011 R07/15//95=
201912100330 METAR LRCL 100330Z 17001KT 1500 BR BKN002 M00/M01 Q1011 R07/15//95=
201912100400 METAR LRCL 100400Z 26002KT 1500 BR BKN002 M01/M01 Q1011 R07/15//95=
201912100430 METAR LRCL 100430Z 28003KT 1500 BR BKN002 M01/M01 Q1011 R07/15//95=
201912100500 METAR LRCL 100500Z 35001KT 2000 BR BKN004 M01/M02 Q1011 R07/15//95=
201912100530 METAR LRCL 100530Z 08003KT 2000 BR FEW004 M01/M02 Q1011 R07/15//95=
201912100600 METAR LRCL 100600Z 08003KT 050V110 1500 BR FEW004 M01/M02
                        Q1011 R07/15//95=
201912100630 METAR LRCL 100630Z VRB02KT 0600 R25/0275N FZFG FEW005 M02/M03
                        Q1012 R07/15//95=
201912100700 METAR LRCL 100700Z 13002KT 0800 R25/0750N FZFG FEW003 M01/M02
                        Q1012 R07/15//95=
201912100730 METAR LRCL 100730Z VRB01KT 0800 R25/0900U FZFG FEW005 M01/M01
                        Q1012 R07/15//95=
201912100800 METAR LRCL 100800Z VRB01KT 2000 BR FEW009 01/01 Q1013 R07/15//95=
201912100830 METAR LRCL 100830Z VRB01KT 3000 BR FEW005 01/00 Q1013 R07/15//95=
201912100900 METAR LRCL 100900Z VRB01KT 8000 FEW006 02/01 Q1013 R07/15//95=
201912100930 METAR COR LRCL 100930Z VRB02KT CAVOK 03/01 Q1013 R07/15//95=
201912101000 METAR LRCL 101000Z VRB02KT CAVOK 04/00 Q1013 R07/15//95=
201912101030 METAR LRCL 101030Z VRB01KT CAVOK 05/01 Q1013 R07/15//95=
201912101100 METAR LRCL 101100Z VRB02KT CAVOK 07/01 Q1013 R07/15//95=
201912101130 METAR LRCL 101130Z VRB01KT CAVOK 08/01 Q1013 R07/15//95=
201912101200 METAR LRCL 101200Z VRB02KT CAVOK 08/01 Q1013 R07/15//95=
201912101230 METAR COR LRCL 101230Z VRB01KT CAVOK 08/01 Q1013 R07/15//95=
201912101300 METAR LRCL 101300Z VRB02KT CAVOK 08/01 Q1013 R07/15//95=
201912101330 METAR COR LRCL 101330Z VRB02KT CAVOK 08/01 Q1013 R07/15//95=
201912101400 METAR LRCL 101400Z 26002KT CAVOK 07/01 Q1014 R07/15//95=
201912101430 METAR LRCL 101430Z VRB01KT CAVOK 06/02 Q1014 R07/12//95=
201912101500 METAR LRCL 101500Z VRB01KT CAVOK 05/01 Q1015 R07/12//95=
201912101530 METAR LRCL 101530Z 00000KT CAVOK 04/01 Q1015 R07/12//95=
201912101600 METAR LRCL 101600Z 27008KT CAVOK 06/02 Q1015 R07/12//95=
201912101630 METAR LRCL 101630Z 26008KT CAVOK 05/02 Q1015 R07/12//95=
201912101700 METAR LRCL 101700Z 26004KT 240V320 CAVOK 05/02 Q1016 R07/12//95=
201912101730 METAR LRCL 101730Z 24006KT CAVOK 05/02 Q1016 R07/12//95=
201912101800 METAR LRCL 101800Z 27005KT CAVOK 06/02 Q1017 R07/12//95=
201912101830 METAR LRCL 101830Z 27006KT CAVOK 06/03 Q1017 R07/12//95=
201912101900 METAR LRCL 101900Z 27006KT 9999 FEW012 06/03 Q1017 R07/12//95=
201912101930 METAR LRCL 101930Z 28006KT 9999 SCT009 06/03 Q1018 R07/12//95=
201912102000 METAR LRCL 102000Z 27006KT 9999 BKN009 06/03 Q1018 R07/12//95=
201912102030 METAR LRCL 102030Z 27009KT 9999 BKN008 06/04 Q1018 R07/12//95=
201912102100 METAR LRCL 102100Z 27007KT 9999 BKN008 05/03 Q1018 R07/12//95=
201912102130 METAR LRCL 102130Z 31002KT 9999 BKN008 05/03 Q1018 R07/12//95=
201912102200 METAR LRCL 102200Z 29006KT 9999 BKN009 05/03 Q1018 R07/12//95=
201912102230 METAR LRCL 102230Z 27006KT 9999 SCT010 BKN060 05/03 Q1018
                        R07/12//95=
201912102300 METAR LRCL 102300Z 28005KT 9999 SCT010 BKN060 05/03 Q1018
                        R07/12//95=
201912102330 METAR LRCL 102330Z 29004KT 9999 BKN010 BKN060 05/03 Q1018
                        R07/12//95=
201912110000 METAR LRCL 110000Z 28004KT 9999 BKN010 BKN060 05/03 Q1019
                        R07/12//95=
201912110030 METAR LRCL 110030Z 28004KT 9999 OVC010 05/03 Q1019 R07/12//95=
201912110100 METAR LRCL 110100Z 29005KT 9999 OVC010 05/03 Q1019 R07/12//95=
201912110130 METAR LRCL 110130Z 27004KT 9999 OVC010 05/03 Q1018 R07/12//95=
201912110200 METAR LRCL 110200Z 27003KT 9999 OVC010 04/03 Q1018 R07/12//95=
201912110230 METAR LRCL 110230Z 19002KT 9999 OVC012 04/03 Q1018 R07/12//95=
201912110300 METAR LRCL 110300Z 14002KT 9999 OVC012 04/03 Q1018 R07/12//95=
201912110330 METAR LRCL 110330Z 07003KT 9999 OVC012 04/03 Q1018 R07/12//95=
201912110400 METAR LRCL 110400Z 03003KT 9999 OVC012 04/03 Q1019 R07/12//95=
201912110430 METAR LRCL 110430Z 08004KT 9999 OVC012 04/03 Q1019 R07/12//95=
201912110500 METAR LRCL 110500Z 08005KT 9999 OVC012 04/03 Q1018 R07/12//95=
201912110530 METAR LRCL 110530Z 11005KT 9999 BKN012 04/02 Q1018 R07/12//95=
201912110600 METAR LRCL 110600Z 08007KT 9999 FEW012 04/02 Q1018 R07/12//95=
201912110630 METAR LRCL 110630Z 09007KT 9999 FEW012 03/02 Q1019 R07/12//95=
201912110700 METAR LRCL 110700Z 09007KT 9999 FEW015 04/02 Q1019 R07/12//95=
201912110730 METAR LRCL 110730Z 10007KT 9999 FEW015 04/02 Q1018 R07/12//95=
201912110800 METAR LRCL 110800Z 10007KT 9999 FEW015 05/02 Q1018 R07/12//95=
201912110830 METAR LRCL 110830Z 11009KT 9999 FEW010 05/02 Q1018 R07/12//95=
201912110900 METAR LRCL 110900Z 10008KT 9999 FEW010 05/02 Q1018 R07/12//95=
201912110930 METAR LRCL 110930Z 08009KT 9999 FEW010 05/02 Q1018 R07/12//95=
201912111000 METAR LRCL 111000Z 15008KT 9999 FEW015 07/00 Q1017 R07/12//95=
201912111030 METAR LRCL 111030Z 15008KT 9999 FEW022 08/01 Q1017 R07/CLRD//=
201912111100 METAR LRCL 111100Z 14008KT 100V160 9999 FEW025 07/01 Q1017=
201912111130 METAR LRCL 111130Z 10006KT 9999 FEW025 07/01 Q1017=
201912111200 METAR LRCL 111200Z 09010KT CAVOK 06/01 Q1017=
201912111230 METAR LRCL 111230Z 09009KT CAVOK 06/02 Q1016=
201912111300 METAR LRCL 111300Z 10007KT 050V130 CAVOK 05/01 Q1016=
201912111330 METAR LRCL 111330Z 11007KT CAVOK 04/01 Q1016=
201912111400 METAR LRCL 111400Z 10008KT 080V140 CAVOK 03/01 Q1016=
201912111430 METAR LRCL 111430Z 10006KT 8000 NSC 02/01 Q1016=
201912111500 METAR LRCL 111500Z 08005KT 6000 FEW043 02/01 Q1016=
201912111530 METAR LRCL 111530Z 08004KT 6000 FEW044 03/01 Q1016=
201912111600 METAR LRCL 111600Z VRB02KT 7000 FEW045 SCT061 03/01 Q1016=
201912111630 METAR LRCL 111630Z 13004KT 090V180 8000 BKN064 03/01 Q1016=
201912111700 METAR LRCL 111700Z VRB02KT 6000 FEW064 02/01 Q1016=
201912111730 METAR LRCL 111730Z 33003KT 6000 SCT061 02/01 Q1016=
201912111800 METAR LRCL 111800Z 07003KT 010V100 6000 SCT060 02/01 Q1016=
201912111830 METAR COR LRCL 111830Z 05004KT 010V070 6000 FEW060 02/01
                        Q1016=
201912111900 METAR LRCL 111900Z 03003KT 350V060 5000 BR BKN065 02/01 Q1016=
201912111930 METAR LRCL 111930Z 09003KT 5000 BR BKN065 02/00 Q1015=
201912112000 METAR LRCL 112000Z 08004KT 5000 BR NSC 01/00 Q1015=
201912112030 METAR LRCL 112030Z 07005KT 4000 BR NSC 01/00 Q1015=
201912112100 METAR LRCL 112100Z 04003KT 5000 BR NSC 01/00 Q1015=
201912112130 METAR LRCL 112130Z 04002KT 5000 BR FEW049 01/00 Q1015=
201912112200 METAR LRCL 112200Z 07001KT 4000 BR FEW005 BKN049 01/00 Q1015=
201912112230 METAR LRCL 112230Z VRB01KT 4000 BR FEW005 BKN065 01/00 Q1014=
201912112300 METAR LRCL 112300Z 09003KT 4000 BR FEW006 BKN065 01/00 Q1014=
201912112330 METAR LRCL 112330Z VRB02KT 3500 BR SCT006 BKN064 01/00 Q1014=
201912120000 METAR LRCL 120000Z VRB02KT 3500 BR BKN003 01/M00 Q1014=
201912120030 METAR LRCL 120030Z 00000KT 1500 R25/1000N BR OVC003 01/00
                        Q1013=
201912120100 METAR LRCL 120100Z VRB02KT 1500 R25/1100D BR OVC002 01/00
                        Q1013=
201912120130 METAR LRCL 120130Z VRB02KT 0500 R25/0400N FG VV001 01/00
                        Q1013=
201912120200 METAR LRCL 120200Z VRB02KT 0300 R25/0350N FG VV001 00/M00
                        Q1012=
201912120230 METAR LRCL 120230Z 02003KT 350V090 0300 R25/0275N FG VV001
                        00/M00 Q1012=
201912120300 METAR LRCL 120300Z VRB02KT 0300 R25/0325N FZFG VV001 M00/M01
                        Q1012=
201912120330 METAR LRCL 120330Z 00000KT 0300 R25/0300N FZFG VV001 M00/M01
                        Q1012 R07/15//95=
201912120400 METAR LRCL 120400Z VRB02KT 0300 R25/0275N FZFG VV001 M00/M01
                        Q1012 R07/15//95=
201912120430 METAR LRCL 120430Z VRB02KT 0300 R25/0325N FZFG VV001 M00/M01
                        Q1012 R07/19//95=
201912120500 METAR LRCL 120500Z VRB01KT 0300 R25/0350N FZFG VV001 M00/M01
                        Q1011 R07/19//95=
201912120530 METAR LRCL 120530Z 04003KT 350V110 0300 R25/0350N FZFG VV001
                        M01/M01 Q1011 R07/19//95=
201912120600 METAR LRCL 120600Z 09003KT 060V120 0300 R25/0325N FZFG VV001
                        M01/M02 Q1011 R07/19//95=
201912120630 METAR LRCL 120630Z 06004KT 010V080 0400 R25/0325N -FZDZ FZFG
                        VV001 M02/M03 Q1011 R07/19//95=
201912120700 METAR LRCL 120700Z 07006KT 0800 R25/0900D FZFG VV001 M02/M03
                        Q1011 R07/19//95=
201912120730 METAR LRCL 120730Z 08007KT 0300 R25/0375N FZFG VV001 M02/M03
                        Q1011 R07/19//95=
201912120800 METAR LRCL 120800Z 07007KT 0650 R25/0800D FZFG BKN002 M01/M01
                        Q1011 R07/19//95=
201912120830 METAR LRCL 120830Z 07007KT 1500 BR SCT001 BKN002 00/M01 Q1011
                        R07/19//95=
201912120900 METAR LRCL 120900Z 08008KT 2500 BR SCT003 01/00 Q1011 R07/15//95=
201912120930 METAR LRCL 120930Z 08006KT 5000 BR FEW001 SCT003 01/01 Q1010
                        R07/15//95=
201912121000 METAR LRCL 121000Z 07006KT CAVOK 03/02 Q1010 R07/15//95=
201912121030 METAR LRCL 121030Z 06005KT CAVOK 04/01 Q1009 R07/15//95=
201912121100 METAR LRCL 121100Z 07005KT 020V110 CAVOK 05/01 Q1009 R07/15//95=
201912121130 METAR LRCL 121130Z 06005KT 010V100 CAVOK 05/01 Q1009 R07/CLRD//=
201912121200 METAR LRCL 121200Z 08006KT CAVOK 06/01 Q1008 R07/CLRD//=
201912121230 METAR LRCL 121230Z 10005KT 070V130 CAVOK 06/01 Q1008 R07/CLRD//=
201912121300 METAR LRCL 121300Z 11004KT 070V150 CAVOK 07/01 Q1008=
201912121330 METAR LRCL 121330Z 12004KT 090V170 CAVOK 07/01 Q1008=
201912121400 METAR LRCL 121400Z 08003KT 030V120 CAVOK 06/01 Q1008=
201912121430 METAR LRCL 121430Z 09004KT CAVOK 05/02 Q1007=
201912121500 METAR LRCL 121500Z 05005KT 020V080 CAVOK 06/01 Q1007=
201912121530 METAR LRCL 121530Z 08003KT 050V120 CAVOK 06/01 Q1007=
201912121600 METAR LRCL 121600Z 06004KT CAVOK 04/01 Q1007=
201912121630 METAR LRCL 121630Z 08006KT CAVOK 03/01 Q1007=
201912121700 METAR LRCL 121700Z 08005KT CAVOK 03/01 Q1007=
201912121730 METAR LRCL 121730Z 06003KT 020V100 CAVOK 04/01 Q1007=
201912121800 METAR LRCL 121800Z 08006KT CAVOK 03/00 Q1006=
201912121830 METAR LRCL 121830Z 08007KT CAVOK 03/00 Q1006=
201912121900 METAR LRCL 121900Z 08005KT 8000 NSC 01/M00 Q1006=
201912121930 METAR LRCL 121930Z 09006KT 8000 NSC 02/00 Q1006=
201912122000 METAR LRCL 122000Z 07005KT 8000 NSC 01/00 Q1006=
201912122030 METAR LRCL 122030Z 06005KT 8000 NSC 02/00 Q1005=
201912122100 METAR LRCL 122100Z 06006KT CAVOK 03/00 Q1005=
201912122130 METAR LRCL 122130Z 08005KT CAVOK 03/00 Q1005=
201912122200 METAR LRCL 122200Z 06005KT CAVOK 03/01 Q1005=
201912122230 METAR LRCL 122230Z 07004KT CAVOK 02/00 Q1004=
201912122300 METAR LRCL 122300Z 09003KT 040V150 CAVOK 04/00 Q1004=
201912122330 METAR LRCL 122330Z 09005KT CAVOK 02/M00 Q1004=
201912130000 METAR LRCL 130000Z 05004KT 030V090 CAVOK 03/M00 Q1004=
201912130030 METAR LRCL 130030Z 07007KT CAVOK 03/00 Q1003=
201912130100 METAR COR LRCL 130100Z 07006KT CAVOK 03/00 Q1003=
201912130130 METAR LRCL 130130Z 07005KT 030V100 CAVOK 03/00 Q1003=
201912130200 METAR LRCL 130200Z 05007KT CAVOK 04/00 Q1002=
201912130230 METAR COR LRCL 130230Z 04007KT 010V070 CAVOK 03/00 Q1002=
201912130300 METAR LRCL 130300Z 03010KT CAVOK 03/M00 Q1002=
201912130330 METAR LRCL 130330Z 05008KT 9999 OVC064 03/00 Q1001=
201912130400 METAR LRCL 130400Z 06007KT CAVOK 03/M00 Q1001=
201912130430 METAR LRCL 130430Z 03005KT 350V060 CAVOK 03/M00 Q1001=
201912130500 METAR LRCL 130500Z 03006KT 360V060 CAVOK 03/M00 Q1001=
201912130530 METAR LRCL 130530Z 03005KT 360V070 CAVOK 03/M00 Q1001=
201912130600 METAR LRCL 130600Z 07006KT CAVOK 03/M00 Q1001=
201912130630 METAR LRCL 130630Z 07005KT 050V110 9999 FEW066 03/M00 Q1001=
201912130700 METAR LRCL 130700Z 07005KT 9999 SCT061 03/00 Q1001=
201912130730 METAR LRCL 130730Z 06009KT 9999 SCT060 03/00 Q1000=
201912130800 METAR LRCL 130800Z 09009KT 9999 SCT060 03/00 Q1000=
201912130830 METAR LRCL 130830Z 08008KT 9999 FEW060 04/01 Q1000=
201912130900 METAR LRCL 130900Z 15006KT CAVOK 05/01 Q1000=
201912130930 METAR LRCL 130930Z 07006KT 9999 FEW060 05/01 Q0999=
201912131000 METAR LRCL 131000Z 11006KT 9999 FEW060 07/02 Q0999=
201912131030 METAR LRCL 131030Z 09011KT 9999 FEW060 07/02 Q0998=
201912131100 METAR LRCL 131100Z 12009KT CAVOK 08/02 Q0998=
201912131130 METAR LRCL 131130Z 15011KT CAVOK 08/02 Q0998=
201912131200 METAR LRCL 131200Z 13012KT CAVOK 09/02 Q0997=
201912131230 METAR LRCL 131230Z 12010KT CAVOK 09/02 Q0997=
201912131300 METAR LRCL 131300Z 13011KT CAVOK 08/02 Q0997=
201912131330 METAR LRCL 131330Z 11007KT CAVOK 09/02 Q0996=
201912131400 METAR LRCL 131400Z 12006KT CAVOK 08/02 Q0996=
201912131430 METAR LRCL 131430Z 09004KT CAVOK 07/02 Q0997=
201912131500 METAR LRCL 131500Z 08005KT 9999 FEW060 06/02 Q0997=
201912131530 METAR LRCL 131530Z 07003KT 9999 SCT060 06/02 Q0996=
201912131600 METAR LRCL 131600Z 04004KT 9999 BKN060 07/02 Q0997=
201912131630 METAR LRCL 131630Z 05004KT 9999 BKN060 06/02 Q0996=
201912131700 METAR LRCL 131700Z 05007KT 9999 SCT060 07/02 Q0996=
201912131730 METAR LRCL 131730Z 07005KT 9999 FEW060 06/01 Q0996=
201912131800 METAR LRCL 131800Z 05006KT CAVOK 05/01 Q0996=
201912131830 METAR LRCL 131830Z 04006KT CAVOK 05/01 Q0997=
201912131900 METAR LRCL 131900Z 05006KT CAVOK 05/01 Q0997=
201912131930 METAR LRCL 131930Z 05005KT CAVOK 05/01 Q0997=
201912132000 METAR LRCL 132000Z 08006KT CAVOK 04/01 Q0997=
201912132030 METAR LRCL 132030Z 07004KT CAVOK 05/01 Q0996=
201912132100 METAR LRCL 132100Z 08005KT CAVOK 04/00 Q0996=
201912132130 METAR LRCL 132130Z 08004KT CAVOK 02/00 Q0996=
201912132200 METAR LRCL 132200Z VRB02KT CAVOK 03/00 Q0996=
201912132230 METAR LRCL 132230Z 04005KT CAVOK 04/01 Q0996=
201912132300 METAR LRCL 132300Z 03005KT CAVOK 04/01 Q0996=
201912132330 METAR LRCL 132330Z 05004KT CAVOK 04/00 Q0996=
201912140000 METAR LRCL 140000Z 08004KT CAVOK 01/M00 Q0996=
201912140030 METAR LRCL 140030Z 08004KT CAVOK 01/M01 Q0996=
201912140100 METAR LRCL 140100Z 03004KT CAVOK 00/M01 Q0997=
201912140130 METAR LRCL 140130Z VRB01KT CAVOK 00/M01 Q0997=
201912140200 METAR LRCL 140200Z 13003KT CAVOK M01/M02 Q0996=
201912140230 METAR LRCL 140230Z VRB01KT 9999 MIFG NSC M01/M01 Q0996=
201912140300 METAR LRCL 140300Z 13001KT 9999 MIFG NSC M02/M03 Q0996=
201912140330 METAR LRCL 140330Z 00000KT 9999 MIFG NSC M01/M02 Q0996=
201912140400 METAR LRCL 140400Z 25001KT 9999 MIFG NSC M02/M02 Q0996=
201912140430 METAR LRCL 140430Z VRB01KT 9999 MIFG NSC M02/M03 Q0996=
201912140500 METAR LRCL 140500Z VRB01KT 9999 MIFG NSC M02/M03 Q0996=
201912140530 METAR LRCL 140530Z VRB01KT CAVOK M02/M02 Q0997=
201912140600 METAR LRCL 140600Z 26002KT CAVOK M02/M03 Q0997=
201912140630 METAR LRCL 140630Z 00000KT CAVOK M02/M03 Q0997=
201912140700 METAR LRCL 140700Z VRB01KT 9999 3000E BCFG NSC M01/M02 Q0997=
201912140730 METAR LRCL 140730Z 10003KT CAVOK M01/M01 Q0998=
201912140800 METAR LRCL 140800Z VRB01KT CAVOK 01/M00 Q0998=
201912140830 METAR COR LRCL 140830Z 08003KT 050V110 CAVOK 03/01 Q0998=
201912140900 METAR LRCL 140900Z 08004KT 050V120 CAVOK 05/02 Q0998=
201912140930 METAR LRCL 140930Z 09003KT 040V130 CAVOK 06/02 Q0998=
201912141000 METAR LRCL 141000Z 08005KT 040V120 CAVOK 07/03 Q0998=
201912141030 METAR LRCL 141030Z 09008KT CAVOK 09/03 Q0998=
201912141100 METAR LRCL 141100Z 12008KT CAVOK 09/03 Q0998=
201912141130 METAR LRCL 141130Z 11007KT CAVOK 10/02 Q0998=
201912141200 METAR LRCL 141200Z 11006KT CAVOK 09/02 Q0999=
201912141230 METAR LRCL 141230Z 11004KT CAVOK 08/02 Q0999=
201912141300 METAR LRCL 141300Z 05004KT CAVOK 08/02 Q0999=
201912141330 METAR LRCL 141330Z 05003KT 010V080 9999 -RA BKN064 07/03
                        Q1000=
201912141400 METAR LRCL 141400Z 36004KT 330V030 9999 BKN064 07/02 Q1000=
201912141430 METAR LRCL 141430Z 36004KT 9999 -RA OVC062 07/03 Q1001=
201912141500 METAR LRCL 141500Z 06004KT 010V090 9999 -RA OVC054 06/04
                        Q1001 R07/29//95=
201912141530 METAR LRCL 141530Z 13003KT 090V160 9999 -RA OVC058 06/04
                        Q1001 R07/29//95=
201912141600 METAR LRCL 141600Z 00000KT 9999 -RA OVC051 06/04 Q1002 R07/29//95=
201912141630 METAR LRCL 141630Z 00000KT 9999 -RA OVC046 05/04 Q1002 R07/29//95=
201912141700 METAR LRCL 141700Z 09003KT 020V140 8000 -RA OVC041 06/04
                        Q1003 R07/29//95=
201912141730 METAR LRCL 141730Z VRB02KT 8000 OVC035 05/04 Q1003 R07/29//95=
201912141800 METAR LRCL 141800Z 26003KT 200V280 8000 OVC040 05/04 Q1004
                        R07/29//95=
201912141830 METAR LRCL 141830Z VRB02KT 6000 SCT054 05/04 Q1004 R07/29//95=
201912141900 METAR COR LRCL 141900Z 20001KT 3000 BR FEW006 SCT061 04/03
                        Q1005 R07/29//95=
201912141930 METAR LRCL 141930Z 34002KT 9999 3000E BCFG FEW005 BKN059
                        03/03 Q1006 R07/29//95=
201912142000 METAR LRCL 142000Z 21003KT 4000 BR BKN043 03/02 Q1006 R07/29//95=
201912142030 METAR LRCL 142030Z 26003KT 230V310 5000 BR BKN047 03/02 Q1007
                        R07/29//95=
201912142100 METAR LRCL 142100Z VRB01KT 5000 BR BKN050 04/03 Q1007 R07/29//95=
201912142130 METAR LRCL 142130Z VRB01KT 8000 OVC055 04/03 Q1008 R07/29//95=
201912142200 METAR COR LRCL 142200Z VRB02KT 8000 BR BKN061 03/02 Q1008
                        R07/29//95=
201912142230 METAR LRCL 142230Z VRB02KT 9999 FEW061 03/02 Q1009 R07/29//95=
201912142300 METAR COR LRCL 142300Z 00000KT CAVOK 03/02 Q1009 R07/29//95=
201912142330 METAR LRCL 142330Z VRB02KT CAVOK 03/01 Q1010 R07/29//95=
201912150000 METAR LRCL 150000Z VRB03KT CAVOK 01/M00 Q1010 R07/29//95=
201912150030 METAR LRCL 150030Z 26005KT 240V320 9999 NCD 02/M01 Q1011
                        R07/29//95=
201912150100 METAR LRCL 150100Z 28004KT 250V320 CAVOK 01/M00 Q1011 R07/29//95=
201912150130 METAR LRCL 150130Z VRB02KT CAVOK M01/M02 Q1011 R07/29//95=
201912150200 METAR LRCL 150200Z 13004KT CAVOK M01/M02 Q1012 R07/29//95=
201912150230 METAR LRCL 150230Z 08003KT 010V150 CAVOK 00/M01 Q1012 R07/29//95=
201912150300 METAR LRCL 150300Z 10002KT CAVOK M01/M02 Q1012 R07/19//95=
201912150330 METAR LRCL 150330Z VRB02KT CAVOK M00/M01 Q1012 R07/19//95=
201912150400 METAR LRCL 150400Z 07006KT CAVOK 01/M01 Q1012 R07/19//95=
201912150430 METAR LRCL 150430Z VRB02KT CAVOK 01/M01 Q1013 R07/19//95=
201912150500 METAR LRCL 150500Z 09003KT 060V140 CAVOK 00/M01 Q1014 R07/19//95=
201912150530 METAR LRCL 150530Z 00000KT CAVOK M01/M02 Q1014 R07/19//95=
201912150600 METAR LRCL 150600Z VRB01KT CAVOK M02/M03 Q1015 R07/19//95=
201912150630 METAR LRCL 150630Z VRB02KT CAVOK M01/M02 Q1015 R07/19//95=
201912150700 METAR LRCL 150700Z 25001KT CAVOK M02/M03 Q1015 R07/19//95=
201912150730 METAR LRCL 150730Z 00000KT CAVOK 00/M01 Q1015 R07/19//95=
201912150800 METAR LRCL 150800Z VRB02KT CAVOK 02/M00 Q1016 R07/19//95=
201912150830 METAR LRCL 150830Z 14004KT CAVOK 02/M00 Q1016 R07/19//95=
201912150900 METAR LRCL 150900Z 06006KT CAVOK 04/02 Q1016 R07/19//95=
201912150930 METAR LRCL 150930Z 07006KT CAVOK 05/02 Q1016 R07/19//95=
201912151000 METAR LRCL 151000Z 09007KT 050V120 CAVOK 06/02 Q1016 R07/19//95=
201912151030 METAR LRCL 151030Z 10007KT CAVOK 07/02 Q1016 R07/19//95=
201912151100 METAR LRCL 151100Z 10009KT CAVOK 07/02 Q1016 R07/CLRD//=
201912151130 METAR LRCL 151130Z 10008KT CAVOK 08/02 Q1016=
201912151200 METAR LRCL 151200Z 10009KT CAVOK 09/01 Q1016=
201912151230 METAR LRCL 151230Z 09008KT CAVOK 09/01 Q1016=
201912151300 METAR LRCL 151300Z 09007KT 070V130 CAVOK 09/02 Q1016=
201912151330 METAR LRCL 151330Z 11006KT 080V160 CAVOK 09/01 Q1016=
201912151400 METAR LRCL 151400Z 08005KT CAVOK 07/02 Q1017=
201912151430 METAR LRCL 151430Z 06006KT CAVOK 06/02 Q1017=
201912151500 METAR LRCL 151500Z VRB02KT CAVOK 05/01 Q1018=
201912151530 METAR LRCL 151530Z 06002KT CAVOK 05/01 Q1018=
201912151600 METAR LRCL 151600Z 07004KT CAVOK 03/01 Q1018=
201912151630 METAR LRCL 151630Z 08003KT CAVOK 03/01 Q1018=
201912151700 METAR LRCL 151700Z 06003KT CAVOK 03/00 Q1018=
201912151730 METAR LRCL 151730Z 05005KT CAVOK 03/00 Q1018=
201912151800 METAR LRCL 151800Z 07003KT CAVOK 02/M00 Q1018=
201912151830 METAR LRCL 151830Z 03008KT CAVOK 04/00 Q1018=
201912151900 METAR LRCL 151900Z 02006KT CAVOK 03/00 Q1018=
201912151930 METAR LRCL 151930Z 05004KT 020V090 CAVOK 03/M00 Q1018=
201912152000 METAR LRCL 152000Z 04005KT CAVOK 03/M00 Q1019=
201912152030 METAR LRCL 152030Z VRB02KT CAVOK 00/M01 Q1019=
201912152100 METAR LRCL 152100Z 26003KT 8000 NSC M01/M02 Q1019=
201912152130 METAR LRCL 152130Z 26003KT 240V320 8000 NSC M00/M02 Q1020=
201912152200 METAR LRCL 152200Z VRB01KT 5000 BR BKN064 00/M01 Q1020=
201912152230 METAR LRCL 152230Z 27004KT 5000 BR BKN061 01/M01 Q1020=
201912152300 METAR LRCL 152300Z 20003KT 140V260 5000 BR OVC063 01/M01
                        Q1020=
201912152330 METAR LRCL 152330Z VRB02KT 5000 BR OVC063 01/M01 Q1020=
201912160000 METAR LRCL 160000Z 00000KT 5000 BR OVC056 01/M00 Q1020=
201912160030 METAR LRCL 160030Z VRB01KT 5000 BR OVC050 01/00 Q1020=
201912160100 METAR LRCL 160100Z VRB01KT 5000 BR OVC055 01/00 Q1020 R07/19//95=
201912160130 METAR LRCL 160130Z VRB01KT 5000 BR OVC064 01/00 Q1020 R07/19//95=
201912160200 METAR LRCL 160200Z 08001KT 5000 BR OVC062 02/00 Q1021 R07/19//95=
201912160230 METAR LRCL 160230Z VRB01KT 5000 BR BKN065 01/00 Q1020 R07/19//95=
201912160300 METAR LRCL 160300Z 00000KT 4000 BR BKN063 01/00 Q1021 R07/19//95=
201912160330 METAR LRCL 160330Z 11002KT 5000 BR BKN061 01/00 Q1021 R07/19//95=
201912160400 METAR LRCL 160400Z 00000KT 5000 BR BKN067 01/M00 Q1021 R07/19//95=
201912160430 METAR LRCL 160430Z 00000KT 5000 BR BKN067 01/M00 Q1021 R07/19//95=
201912160500 METAR LRCL 160500Z 15003KT 110V200 5000 BR NSC 01/00 Q1021
                        R07/19//95=
201912160530 METAR LRCL 160530Z VRB01KT 5000 BR NSC 01/00 Q1022 R07/19//95=
201912160600 METAR LRCL 160600Z VRB01KT 5000 BR NSC 01/00 Q1022 R07/19//95=
201912160630 METAR LRCL 160630Z VRB01KT CAVOK 01/00 Q1022 R07/19//95=
201912160700 METAR LRCL 160700Z VRB02KT CAVOK 02/01 Q1023 R07/19//95=
201912160730 METAR LRCL 160730Z VRB02KT 9999 BKN068 03/01 Q1023 R07/19//95=
201912160800 METAR LRCL 160800Z 15002KT 9999 BKN067 03/01 Q1023 R07/19//95=
201912160830 METAR LRCL 160830Z VRB01KT 9999 BKN057 04/01 Q1023 R07/19//95=
201912160900 METAR LRCL 160900Z VRB01KT 9999 BKN056 05/01 Q1023 R07/19//95=
201912160930 METAR LRCL 160930Z VRB02KT 9999 BKN058 05/01 Q1023 R07/15//95=
201912161000 METAR LRCL 161000Z VRB02KT 9999 SCT054 BKN061 06/01 Q1023
                        R07/15//95=
201912161030 METAR LRCL 161030Z VRB01KT 9999 FEW055 BKN067 06/01 Q1023
                        R07/15//95=
201912161100 METAR COR LRCL 161100Z VRB01KT 9999 BKN064 06/01 Q1023 R07/15//95=
201912161130 METAR LRCL 161130Z VRB01KT 9999 BKN065 07/01 Q1022 R07/15//95=
201912161200 METAR LRCL 161200Z VRB01KT 9999 BKN062 07/01 Q1022 R07/15//95=
201912161230 METAR LRCL 161230Z VRB01KT 9999 BKN061 07/01 Q1022 R07/15//95=
201912161300 METAR LRCL 161300Z VRB01KT 9999 BKN060 07/01 Q1022 R07/15//95=
201912161330 METAR LRCL 161330Z VRB01KT 9999 SCT059 08/01 Q1022 R07/15//95=
201912161400 METAR LRCL 161400Z 08002KT 9999 FEW061 07/01 Q1022 R07/15//95=
201912161430 METAR LRCL 161430Z 08002KT CAVOK 06/02 Q1022 R07/15//95=
201912161500 METAR LRCL 161500Z 06003KT CAVOK 05/01 Q1022 R07/15//95=
201912161530 METAR LRCL 161530Z 12002KT CAVOK 04/01 Q1022 R07/15//95=
201912161600 METAR LRCL 161600Z VRB01KT CAVOK 03/01 Q1022 R07/15//95=
201912161630 METAR LRCL 161630Z VRB02KT 8000 MIFG NSC 02/01 Q1022 R07/CLRD//=
201912161700 METAR LRCL 161700Z 26003KT CAVOK 02/M00 Q1022=
201912161730 METAR LRCL 161730Z 30001KT 7000 NSC 01/00 Q1022=
201912161800 METAR LRCL 161800Z VRB01KT 7000 NSC 01/00 Q1022=
201912161830 METAR LRCL 161830Z 27002KT 7000 NSC 01/00 Q1022=
201912161900 METAR LRCL 161900Z 24001KT 5000 BR NSC 00/M01 Q1022=
201912161930 METAR LRCL 161930Z 28002KT 5000 BR NSC 00/M01 Q1022=
201912162000 METAR LRCL 162000Z VRB02KT 5000 BR NSC M01/M02 Q1022=
201912162030 METAR LRCL 162030Z VRB02KT 5000 BR NSC M01/M02 Q1022=
201912162100 METAR LRCL 162100Z 33002KT 5000 MIFG BR NSC M00/M01 Q1022=
201912162130 METAR LRCL 162130Z VRB02KT 5000 MIFG BR NSC M01/M02 Q1022=
201912162200 METAR LRCL 162200Z 00000KT 5000 MIFG BR NSC M01/M02 Q1022=
201912162230 METAR LRCL 162230Z 10002KT 3500 MIFG BR NSC M02/M03 Q1022=
201912162300 METAR LRCL 162300Z VRB01KT 4000 MIFG BR NSC M01/M02 Q1022=
201912162330 METAR LRCL 162330Z 30004KT 3500 MIFG BR NSC M01/M02 Q1021=
201912170000 METAR LRCL 170000Z VRB01KT 3000 MIFG BR NSC M02/M03 Q1021=
201912170030 METAR LRCL 170030Z 00000KT 3000 BR NSC M02/M02 Q1021=
201912170100 METAR LRCL 170100Z 30002KT 3000 MIFG BR NSC M01/M02 Q1022=
201912170130 METAR LRCL 170130Z 09002KT 3000 MIFG BR NSC M02/M02 Q1022=
201912170200 METAR LRCL 170200Z 09003KT 3000 MIFG BR NSC M02/M03 Q1022=
201912170230 METAR LRCL 170230Z 12002KT 3000 BR NSC M02/M03 Q1022=
201912170300 METAR LRCL 170300Z VRB01KT 3000 BR NSC M02/M02 Q1021=
201912170330 METAR LRCL 170330Z 00000KT 3000 BR NSC M01/M02 Q1021=
201912170400 METAR LRCL 170400Z 00000KT 3000 BR NSC M02/M02 Q1022=
201912170430 METAR LRCL 170430Z 00000KT 3000 BR NSC M01/M02 Q1022=
201912170500 METAR LRCL 170500Z 00000KT 3000 BR NSC M02/M03 Q1022=
201912170530 METAR LRCL 170530Z 00000KT 3000 BR NSC M01/M02 Q1022=
201912170600 METAR LRCL 170600Z 00000KT 2500 MIFG BR NSC M02/M02 Q1022=
201912170630 METAR LRCL 170630Z 00000KT 2500 MIFG BR NSC M01/M02 Q1023=
201912170700 METAR LRCL 170700Z 09001KT 2500 MIFG BR NSC M01/M02 Q1023=
201912170730 METAR LRCL 170730Z 14002KT 2500 BR NSC M01/M02 Q1023=
201912170800 METAR LRCL 170800Z 00000KT 3000 BR NSC 00/M01 Q1023=
201912170830 METAR LRCL 170830Z VRB01KT 3500 BR NSC 01/M01 Q1023=
201912170900 METAR LRCL 170900Z 10003KT 3500 BR NSC 01/M00 Q1023=
201912170930 METAR LRCL 170930Z VRB02KT 4000 BR NSC 02/00 Q1023=
201912171000 METAR LRCL 171000Z 10003KT 4000 BR NSC 02/00 Q1023=
201912171030 METAR LRCL 171030Z 10002KT 5000 BR NSC 03/01 Q1023=
201912171100 METAR LRCL 171100Z VRB01KT 6000 NSC 04/01 Q1023=
201912171130 METAR LRCL 171130Z VRB01KT 7000 NSC 04/01 Q1022=
201912171200 METAR LRCL 171200Z VRB02KT CAVOK 05/02 Q1022=
201912171230 METAR LRCL 171230Z VRB02KT CAVOK 06/02 Q1022=
201912171300 METAR LRCL 171300Z 13002KT CAVOK 05/02 Q1022=
201912171330 METAR LRCL 171330Z VRB02KT CAVOK 06/02 Q1022=
201912171400 METAR LRCL 171400Z 13002KT CAVOK 06/02 Q1022=
201912171430 METAR LRCL 171430Z 26001KT CAVOK 05/02 Q1022=
201912171500 METAR LRCL 171500Z 31002KT CAVOK 04/01 Q1023=
201912171530 METAR LRCL 171530Z 29002KT 7000 NSC 03/01 Q1023=
201912171600 METAR LRCL 171600Z 27001KT 6000 NSC 02/01 Q1023=
201912171630 METAR LRCL 171630Z 27003KT 4000 MIFG BR NSC 01/00 Q1023 R07/15//95=
201912171700 METAR LRCL 171700Z 24003KT 4000 MIFG BR NSC 00/M01 Q1023
                        R07/15//95=
201912171730 METAR LRCL 171730Z 00000KT 3000 MIFG BR NSC 01/M00 Q1023
                        R07/15//95=
201912171800 METAR LRCL 171800Z VRB01KT 3000 MIFG BR NSC 01/00 Q1023 R07/15//95=
201912171830 METAR COR LRCL 171830Z VRB01KT 1400 R25/0250V0450N BCFG NSC
                        M01/M02 Q1023 R07/15//95=
201912171900 METAR LRCL 171900Z VRB02KT 1200 R25/0900D BCFG FEW009 M00/M01
                        Q1023 R07/15//95=
201912171930 METAR COR LRCL 171930Z VRB01KT 0800 R25/0450N FZFG FEW005
                        M01/M02 Q1023 R07/15//95=
201912172000 METAR LRCL 172000Z VRB01KT 0800 R25/0275N FZFG FEW006 M01/M02
                        Q1023 R07/15//95=
201912172030 METAR LRCL 172030Z 28002KT 0800 R25/0450N FZFG FEW006 M01/M02
                        Q1024 R07/15//95=
201912172100 METAR LRCL 172100Z VRB02KT 1200 R25/1500D BR FEW008 M02/M02
                        Q1024 R07/15//95=
201912172130 METAR LRCL 172130Z 26001KT 0800 R25/0225D FZFG FEW007 M02/M02
                        Q1024 R07/15//95=
201912172200 METAR LRCL 172200Z VRB01KT 0800 R25/0325N FZFG FEW007 M02/M02
                        Q1024 R07/15//95=
201912172230 METAR LRCL 172230Z 00000KT 0800 R25/0325N FZFG FEW001 M02/M03
                        Q1024 R07/15//95=
201912172300 METAR LRCL 172300Z 00000KT 0400 R25/0225N FZFG SCT002 M02/M03
                        Q1024 R07/15//95=
201912172330 METAR LRCL 172330Z VRB01KT 0100 R25/0200N FZFG VV001 M03/M04
                        Q1024 R07/15//95=
201912180000 METAR LRCL 180000Z 00000KT 0100 R25/0200N FZFG VV001 M02/M03
                        Q1024 R07/15//95=
201912180030 METAR LRCL 180030Z 00000KT 0100 R25/0150N FZFG VV001 M03/M04
                        Q1024 R07/15//95=
201912180100 METAR LRCL 180100Z 00000KT 0100 R25/0250N FZFG VV001 M03/M04
                        Q1024 R07/15//95=
201912180130 METAR LRCL 180130Z 00000KT 0150 R25/0175N FZFG VV001 M03/M04
                        Q1024 R07/15//95=
201912180200 METAR LRCL 180200Z 00000KT 0150 R25/0200N FZFG VV001 M03/M04
                        Q1024 R07/15//95=
201912180230 METAR LRCL 180230Z AUTO VRB01KT 0200 R25/0175V0275N FZFG
                        VV001 M03/M04 Q1024=
201912180300 METAR LRCL 180300Z 00000KT 0150 R25/0225N FZFG VV001 M03/M05
                        Q1024 R07/15//95=
201912180330 METAR LRCL 180330Z 10002KT 0200 R25/0250N FZFG VV001 M04/M05
                        Q1024 R07/15//95=
201912180400 METAR COR LRCL 180400Z 09003KT 050V120 0250 R25/0275N FZFG
                        VV001 M03/M04 Q1024 R07/15//95=
201912180430 METAR LRCL 180430Z VRB02KT 0200 R25/0325N FZFG VV001 M03/M04
                        Q1024 R07/15//95=
201912180500 METAR LRCL 180500Z AUTO VRB02KT 0250 R25/0300N FZFG VV001
                        M04/M05 Q1024=
201912180530 METAR LRCL 180530Z VRB01KT 0300 R25/0350N FZFG VV001 M03/M04
                        Q1024 R07/15//95=
201912180600 METAR LRCL 180600Z VRB01KT 0200 R25/0375N FZFG VV001 M03/M04
                        Q1024 R07/15//95=
201912180630 METAR LRCL 180630Z VRB01KT 0200 R25/0200N FZFG VV001 M03/M04
                        Q1025 R07/15//95=
201912180700 METAR LRCL 180700Z 13001KT 0200 R25/0150N FZFG VV001 M02/M03
                        Q1025 R07/15//95=
201912180730 METAR LRCL 180730Z VRB02KT 0200 R25/0150N FZFG VV001 M02/M03
                        Q1025 R07/15//95=
201912180800 METAR LRCL 180800Z VRB01KT 0200 R25/0125N FZFG VV001 M02/M02
                        Q1025 R07/15//95=
201912180830 METAR COR LRCL 180830Z VRB01KT 0200 R25/0150N FZFG VV001
                        M01/M02 Q1026 R07/15//95=
201912180900 METAR LRCL 180900Z VRB01KT 0250 R25/0200N FZFG VV001 M01/M02
                        Q1026 R07/19//95=
201912180930 METAR LRCL 180930Z 08003KT 040V100 0250 R25/0200N FZFG VV001
                        M01/M02 Q1025 R07/19//95=
201912181000 METAR LRCL 181000Z 09005KT 0300 R25/0200N FZFG VV002 M01/M01
                        Q1025 R07/19//95=
201912181030 METAR LRCL 181030Z 09004KT 0800 R25/0350N FZFG SCT002 BKN003
                        M01/M01 Q1025 R07/19//95=
201912181100 METAR COR LRCL 181100Z 09004KT 060V120 0800 R25/1000 FG BKN003
                        00/M00 Q1025 R07/19//95=
201912181130 METAR LRCL 181130Z 11004KT 080V140 1800 BR FEW003 01/01 Q1025
                        R07/19//95=
201912181200 METAR LRCL 181200Z 10003KT 050V140 2500 BR FEW003 02/02 Q1025
                        R07/19//95=
201912181230 METAR LRCL 181230Z VRB02KT 5000 BR NSC 03/03 Q1025 R07/19//95=
201912181300 METAR LRCL 181300Z 10003KT 040V140 5000 BR NSC 03/03 Q1025
                        R07/CLRD//=
201912181330 METAR LRCL 181330Z 09002KT 5000 BR NSC 03/01 Q1025=
201912181400 METAR LRCL 181400Z 07004KT 4000 BR NSC 03/01 Q1025=
201912181430 METAR LRCL 181430Z 09003KT 3000 BR NSC 02/01 Q1025=
201912181500 METAR LRCL 181500Z 09003KT 040V110 2500 BR NSC 01/01 Q1025=
201912181530 METAR COR LRCL 181530Z VRB01KT 1300 R25/1400D BR SCT004 01/00
                        Q1025=
201912181600 METAR LRCL 181600Z VRB01KT 0800 R25/0500D FG FEW004 00/M00
                        Q1025=
201912181630 METAR LRCL 181630Z 00000KT 0800 R25/0200N FZFG FEW003 M00/M01
                        Q1026=
201912181700 METAR LRCL 181700Z VRB01KT 0500 R25/0250N FZFG BKN004 M01/M01
                        Q1025=
201912181730 METAR LRCL 181730Z VRB01KT 0600 R25/0200N FZFG SCT003 M02/M02
                        Q1026=
201912181800 METAR LRCL 181800Z VRB01KT 0600 R25/0175N FZFG SCT003 M01/M02
                        Q1027=
201912181830 METAR LRCL 181830Z VRB02KT 0800 R25/0225N FZFG SCT003 M02/M03
                        Q1027=
201912181900 METAR LRCL 181900Z 27004KT 1000 R25/0550U BR SCT005 M01/M02
                        Q1027 R07/15//95=
201912181930 METAR LRCL 181930Z VRB02KT 1200 R25/1100D BR NSC M01/M02
                        Q1027 R07/15//95=
201912182000 METAR COR LRCL 182000Z 30002KT 1200 R25/0225N MIFG BR NSC
                        M01/M02 Q1027 R07/15//95=
201912182030 METAR LRCL 182030Z 00000KT 1500 BCFG BR NSC M02/M02 Q1027
                        R07/15//95=
201912182100 METAR LRCL 182100Z 00000KT 1500 BCFG BR NSC M02/M03 Q1027
                        R07/15//95=
201912182130 METAR LRCL 182130Z VRB01KT 1300 R25/0550 BCFG BR NSC M02/M02
                        Q1028 R07/15//95=
201912182200 METAR LRCL 182200Z VRB01KT 0600 R25/0175N FZFG BCFG NSC M02/M03
                        Q1028 R07/15//95=
201912182230 METAR LRCL 182230Z VRB02KT 0400 R25/1300N FZFG BCFG NSC M03/M03
                        Q1028 R07/15//95=
201912182300 METAR LRCL 182300Z 13001KT 0400 R25/0400U FZFG NSC M03/M04
                        Q1028 R07/15//95=
201912182330 METAR LRCL 182330Z VRB02KT 0400 R25/0250N FZFG NSC M03/M04
                        Q1028 R07/15//95=
201912190000 METAR LRCL 190000Z 09002KT 0350 R25/0200N FZFG NSC M03/M04
                        Q1028 R07/15//95=
201912190030 METAR LRCL 190030Z VRB02KT 0350 R25/0400U FZFG NSC M03/M04
                        Q1028 R07/15//95=
201912190100 METAR LRCL 190100Z 22003KT 0500 R25/0250N FZFG NSC M04/M05
                        Q1028 R07/15//95=
201912190130 METAR LRCL 190130Z 08003KT 0500 R25/0225N FZFG NSC M03/M04
                        Q1028 R07/15//95=
201912190200 METAR LRCL 190200Z VRB02KT 0400 R25/0300N FZFG NSC M04/M05
                        Q1028 R07/15//95=
201912190230 METAR LRCL 190230Z 10003KT 0400 R25/0300N FZFG NSC M03/M04
                        Q1028 R07/15//95=
201912190300 METAR LRCL 190300Z 09003KT 0400 R25/0250N FZFG NSC M03/M04
                        Q1028 R07/15//95=
201912190330 METAR LRCL 190330Z 12002KT 0400 R25/0325N FZFG NSC M03/M04
                        Q1028 R07/15//95=
201912190400 METAR LRCL 190400Z VRB01KT 0350 R25/0325N FZFG NSC M04/M05
                        Q1028 R07/15//95=
201912190430 METAR LRCL 190430Z VRB01KT 0350 R25/0275N FZFG NSC M03/M04
                        Q1028 R07/15//95=
201912190500 METAR LRCL 190500Z 00000KT 0350 R25/0225N FZFG NSC M04/M05
                        Q1028 R07/15//95=
201912190530 METAR LRCL 190530Z VRB01KT 0350 R25/0250N FZFG NSC M04/M05
                        Q1029 R07/15//95=
201912190600 METAR LRCL 190600Z 09004KT 0300 R25/0300N FZFG NSC M04/M05
                        Q1029 R07/15//95=
201912190630 METAR LRCL 190630Z 08004KT 0300 R25/0350N FZFG NSC M03/M04
                        Q1029 R07/15//95=
201912190700 METAR LRCL 190700Z VRB02KT 0300 R25/0325N FZFG NSC M03/M04
                        Q1029 R07/15//95=
201912190730 METAR LRCL 190730Z VRB01KT 0400 R25/0325N FZFG NSC M03/M04
                        Q1029 R07/15//95=
201912190800 METAR LRCL 190800Z VRB01KT 0500 R25/0400N FZFG NSC M03/M04
                        Q1029 R07/15//95=
201912190830 METAR LRCL 190830Z 09004KT 050V110 0300 R25/0400U FZFG NSC
                        M03/M04 Q1029 R07/15//95=
201912190900 METAR LRCL 190900Z 08004KT 0200 R25/0225N FZFG VV001 M02/M03
                        Q1029 R07/15//95=
201912190930 METAR LRCL 190930Z 08005KT 0200 R25/0225N FZFG VV001 M02/M03
                        Q1029 R07/15//95=
201912191000 METAR LRCL 191000Z 10004KT 0200 R25/0250N FZFG VV001 M01/M02
                        Q1029 R07/15//95=
201912191030 METAR LRCL 191030Z 09004KT 0200 R25/0250N FZFG VV001 M00/M01
                        Q1028 R07/15//95=
201912191100 METAR LRCL 191100Z 10005KT 0200 R25/0225N FZFG VV001 M00/M01
                        Q1028 R07/15//95=
201912191130 METAR LRCL 191130Z 10005KT 0200 R25/0225N FZFG VV001 M00/M01
                        Q1028 R07/15//95=
201912191200 METAR LRCL 191200Z 14003KT 0200 R25/0200N FZFG VV001 M00/M01
                        Q1027 R07/15//95=
201912191230 METAR LRCL 191230Z VRB02KT 0200 R25/0175N FZFG VV001 M00/M01
                        Q1027 R07/15//95=
201912191300 METAR LRCL 191300Z VRB01KT 0200 R25/0150N FZFG VV001 M00/M01
                        Q1027 R07/15//95=
201912191330 METAR LRCL 191330Z 00000KT 0200 R25/0200N FG VV001 00/M01
                        Q1027 R07/15//95=
201912191400 METAR LRCL 191400Z 00000KT 0150 R25/0225N FZFG VV001 M00/M01
                        Q1027 R07/15//95=
201912191430 METAR LRCL 191430Z 00000KT 0150 R25/0200N FZFG VV001 M00/M01
                        Q1026 R07/15//95=
201912191500 METAR LRCL 191500Z 00000KT 0200 R25/0250N FZFG VV001 M00/M01
                        Q1026 R07/15//95=
201912191530 METAR LRCL 191530Z 00000KT 0200 R25/0225N FZFG VV001 M01/M01
                        Q1026 R07/15//95=
201912191600 METAR LRCL 191600Z 00000KT 0250 R25/0350N FZFG VV001 M01/M02
                        Q1026 R07/15//95=
201912191630 METAR LRCL 191630Z 00000KT 0200 R25/0225N FZFG VV001 M01/M02
                        Q1026 R07/15//95=
201912191700 METAR LRCL 191700Z 00000KT 0200 R25/0250N FZFG VV001 M01/M02
                        Q1025 R07/15//95=
201912191730 METAR LRCL 191730Z 08002KT 0200 R25/0250N FZFG VV001 M02/M02
                        Q1025 R07/15//95=
201912191800 METAR LRCL 191800Z 00000KT 0200 R25/0225N FZFG VV001 M02/M02
                        Q1025 R07/15//95=
201912191830 METAR LRCL 191830Z 11001KT 0200 R25/0225N FZFG VV001 M02/M03
                        Q1025 R07/15//95=
201912191900 METAR LRCL 191900Z 10002KT 0200 R25/0200N FZFG VV001 M02/M03
                        Q1025 R07/15//95=
201912191930 METAR LRCL 191930Z 09002KT 0200 R25/0200N FZFG VV001 M02/M03
                        Q1025 R07/15//95=
201912192000 METAR LRCL 192000Z VRB01KT 0200 R25/0225N FZFG VV001 M02/M03
                        Q1024 R07/15//95=
201912192030 METAR LRCL 192030Z 00000KT 0200 R25/0250N FZFG VV001 M02/M03
                        Q1024 R07/15//95=
201912192100 METAR LRCL 192100Z 00000KT 0200 R25/0250N FZFG VV001 M03/M03
                        Q1024 R07/15//95=
201912192130 METAR LRCL 192130Z 00000KT 0200 R25/0250N FZFG VV001 M03/M04
                        Q1024 R07/15//95=
201912192200 METAR COR LRCL 192200Z 24002KT 0200 R25/0175N FZFG VV001
                        M02/M03 Q1024 R07/19//95=
201912192230 METAR LRCL 192230Z 27001KT 0200 R25/0225N FZFG VV001 M02/M03
                        Q1024 R07/19//95=
201912192300 METAR LRCL 192300Z 00000KT 0200 R25/0250N FZFG VV001 M02/M03
                        Q1023 R07/19//95=
201912192330 METAR LRCL 192330Z VRB01KT 0200 R25/0250N FZFG VV001 M02/M03
                        Q1023 R07/19//95=
201912200000 METAR LRCL 200000Z AUTO 00000KT 0200 R25/0225N FZFG VV001
                        M03/M03 Q1023=
201912200030 METAR LRCL 200030Z 00000KT 0200 R25/0225N FZFG VV001 M02/M03
                        Q1022 R07/19//95=
201912200100 METAR LRCL 200100Z VRB01KT 0200 R25/0225N FZFG VV001 M02/M03
                        Q1022 R07/19//95=
201912200130 METAR LRCL 200130Z 24002KT 0200 R25/0200N FZFG VV001 M02/M03
                        Q1022 R07/19//95=
201912200200 METAR LRCL 200200Z 23002KT 0200 R25/0250N FZFG VV001 M02/M03
                        Q1022 R07/19//95=
201912200230 METAR LRCL 200230Z VRB02KT 0600 R25/0300N FZFG VV001 M02/M03
                        Q1021 R07/19//95=
201912200300 METAR LRCL 200300Z 00000KT 0600 R25/0225N FZFG VV001 M02/M03
                        Q1021 R07/19//95=
201912200330 METAR LRCL 200330Z 13001KT 0600 R25/0250N FZFG VV001 M02/M03
                        Q1021 R07/19//95=
201912200400 METAR LRCL 200400Z 00000KT 0300 R25/0225N FZFG VV001 M02/M03
                        Q1020 R07/19//95=
201912200430 METAR LRCL 200430Z 00000KT 0600 R25/0250N FZFG VV001 M02/M03
                        Q1020 R07/19//95=
201912200500 METAR LRCL 200500Z 00000KT 0300 R25/0200N FZFG VV001 M03/M04
                        Q1020 R07/19//95=
201912200530 METAR LRCL 200530Z 09002KT 0200 R25/0225N FZFG VV001 M03/M04
                        Q1019 R07/19//95=
201912200600 METAR LRCL 200600Z 00000KT 0300 R25/0225N FZFG VV001 M03/M04
                        Q1019 R07/19//95=
201912200630 METAR COR LRCL 200630Z VRB01KT 0300 R25/0250N FZFG VV001
                        M03/M04 Q1019 R07/19//95=
201912200700 METAR LRCL 200700Z VRB01KT 0200 R25/0225N FZFG VV001 M03/M04
                        Q1019 R07/19//95=
201912200730 METAR LRCL 200730Z 09004KT 0250 R25/0300N FZFG VV001 M03/M04
                        Q1018 R07/19//95=
201912200800 METAR LRCL 200800Z VRB02KT 0200 R25/0250N FZFG VV001 M02/M03
                        Q1018 R07/19//95=
201912200830 METAR LRCL 200830Z 05003KT 010V090 0250 R25/0325N FZFG VV002
                        M02/M03 Q1018 R07/19//95=
201912200900 METAR LRCL 200900Z 10003KT 070V130 0650 R25/0800U FZFG BKN001
                        OVC002 M01/M02 Q1017 R07/19//95=
201912200930 METAR LRCL 200930Z 11003KT 060V180 0200 R25/0225N FZFG VV001
                        M01/M02 Q1017 R07/19//95=
201912201000 METAR LRCL 201000Z 10004KT 0150 R25/0200N FZFG VV001 M01/M01
                        Q1016 R07/19//95=
201912201030 METAR LRCL 201030Z VRB02KT 0200 R25/0275N FZFG VV001 M01/M01
                        Q1016 R07/19//95=
201912201100 METAR LRCL 201100Z 10004KT 0800 R25/1000N FZFG SCT001 BKN002
                        OVC003 M00/M01 Q1015 R07/19//95=
201912201130 METAR LRCL 201130Z VRB02KT 1000 R25/1200U BR BKN001 OVC002
                        00/M00 Q1015 R07/19//95=
201912201200 METAR LRCL 201200Z VRB01KT 1500 BR SCT001 OVC002 01/00 Q1015
                        R07/15//95=
201912201230 METAR LRCL 201230Z 11004KT 1500 BR SCT001 BKN002 OVC003 01/01
                        Q1014 R07/15//95=
201912201300 METAR LRCL 201300Z VRB02KT 1500 BR SCT001 OVC002 02/01 Q1014
                        R07/15//95=
201912201330 METAR LRCL 201330Z 13004KT 1400 R25/1500U BR SCT001 OVC002
                        02/01 Q1014 R07/15//95=
201912201400 METAR LRCL 201400Z VRB02KT 0800 R25/1000U FG OVC001 02/01
                        Q1013 R07/15//95=
201912201430 METAR LRCL 201430Z VRB02KT 0350 R25/0375N FG VV002 01/01
                        Q1013 R07/15//95=
201912201500 METAR LRCL 201500Z VRB01KT 0250 R25/0300N FG VV001 01/01
                        Q1012 R07/15//95=
201912201530 METAR LRCL 201530Z VRB01KT 0250 R25/0275N FG VV001 01/01
                        Q1012 R07/15//95=
201912201600 METAR LRCL 201600Z 25004KT 0200 R25/0250N FG VV001 01/00
                        Q1013 R07/15//95=
201912201630 METAR LRCL 201630Z VRB01KT 0200 R25/0225N FG VV001 01/00
                        Q1012 R07/15//95=
201912201700 METAR LRCL 201700Z VRB02KT 0250 R25/0300N FG VV001 01/00
                        Q1012 R07/15//95=
201912201730 METAR LRCL 201730Z VRB01KT 0200 R25/0325N FG VV001 01/M00
                        Q1012 R07/15//95=
201912201800 METAR LRCL 201800Z 24003KT 210V280 0200 R25/0250N FG VV001
                        00/M00 Q1012 R07/15//95=
201912201830 METAR LRCL 201830Z VRB02KT 0200 R25/0300N FG VV001 00/M00
                        Q1012 R07/15//95=
201912201900 METAR LRCL 201900Z VRB02KT 0250 R25/0325N FZFG VV001 M00/M01
                        Q1011 R07/15//95=
201912201930 METAR LRCL 201930Z VRB01KT 0250 R25/0325N FG VV001 00/M01
                        Q1011 R07/15//95=
201912202000 METAR LRCL 202000Z 09003KT 070V130 0200 R25/0300N FZFG VV001
                        M00/M01 Q1011 R07/15//95=
201912202030 METAR LRCL 202030Z 36003KT 0250 R25/0350N FZFG VV001 M00/M01
                        Q1010 R07/15//95=
201912202100 METAR LRCL 202100Z 01003KT 330V050 0250 R25/0350N FZFG VV001
                        M00/M01 Q1010 R07/15//95=
201912202130 METAR LRCL 202130Z VRB01KT 0300 R25/0400N FZFG VV002 M00/M01
                        Q1010 R07/15//95=
201912202200 METAR LRCL 202200Z 28003KT 230V360 0300 R25/0400N FZFG VV001
                        M00/M01 Q1010 R07/19//95=
201912202230 METAR LRCL 202230Z VRB02KT 0300 R25/0550N FZFG VV001 M01/M01
                        Q1010 R07/19//95=
201912202300 METAR LRCL 202300Z 09003KT 040V130 0300 R25/0375N FZFG VV001
                        M01/M01 Q1009 R07/19//95=
201912202330 METAR COR LRCL 202330Z VRB02KT 0300 R25/0375N FZFG VV001
                        M01/M01 Q1009 R07/19//95=
201912210000 METAR LRCL 210000Z VRB02KT 0300 R25/0375N FZFG VV001 M01/M01
                        Q1009 R07/19//95=
201912210030 METAR LRCL 210030Z VRB02KT 0300 R25/0375N FZFG VV001 M01/M01
                        Q1009 R07/19//95=
201912210100 METAR LRCL 210100Z VRB01KT 0300 R25/0350N FZFG VV001 M01/M01
                        Q1009 R07/19//95=
201912210130 METAR LRCL 210130Z 10003KT 080V160 0300 R25/0375N FZFG VV001
                        M01/M01 Q1008 R07/19//95=
201912210200 METAR LRCL 210200Z VRB02KT 0300 R25/0400N FZFG VV001 M01/M02
                        Q1008 R07/19//95=
201912210230 METAR LRCL 210230Z VRB02KT 0300 R25/0400N FZFG VV001 M01/M02
                        Q1008 R07/19//95=
201912210300 METAR COR LRCL 210300Z 22003KT 0350 R25/0450N FZFG VV001
                        M01/M02 Q1008 R07/19//95=
201912210330 METAR LRCL 210330Z 23001KT 0500 R25/0550N FZFG VV002 M01/M02
                        Q1008 R07/19//95=
201912210400 METAR LRCL 210400Z 00000KT 0500 R25/0600N FZFG VV002 M01/M02
                        Q1008 R07/19//95=
201912210430 METAR LRCL 210430Z 09001KT 0800 R25/1100U FZFG VV002 M01/M01
                        Q1008 R07/19//95=
201912210500 METAR LRCL 210500Z 00000KT 1500 BR BKN005 M01/M01 Q1008 R07/19//95=
201912210530 METAR LRCL 210530Z VRB02KT 1500 BR BKN002 M01/M01 Q1008 R07/19//95=
201912210600 METAR LRCL 210600Z 26001KT 1500 BR OVC002 M00/M01 Q1008 R07/19//95=
201912210630 METAR LRCL 210630Z 00000KT 1800 BR BKN002 M00/M01 Q1008 R07/19//95=
201912210700 METAR LRCL 210700Z VRB01KT 1800 BR FEW003 M00/M01 Q1007 R07/19//95=
201912210730 METAR LRCL 210730Z 00000KT 1800 FEW003 SCT058 M00/M01 Q1008
                        R07/29//95=
201912210800 METAR LRCL 210800Z 00000KT 2500 BR FEW005 SCT065 00/M00 Q1007
                        R07/29//95=
201912210830 METAR LRCL 210830Z 09003KT 2500 BR SCT065 01/00 Q1007 R07/29//95=
201912210900 METAR LRCL 210900Z VRB01KT 2500 BR SCT067 02/01 Q1007 R07/29//95=
201912210930 METAR LRCL 210930Z VRB02KT 2500 BR SCT067 02/02 Q1006 R07/29//95=
201912211000 METAR LRCL 211000Z 11003KT 3500 BR SCT067 03/02 Q1006 R07/29//95=
201912211030 METAR LRCL 211030Z 08003KT 4000 BR SCT067 04/03 Q1005 R07/29//95=
201912211100 METAR COR LRCL 211100Z 05005KT 360V080 5000 BR SCT067 04/03
                        Q1005 R07/29//95=
201912211130 METAR LRCL 211130Z 06005KT 8000 FEW067 06/03 Q1004 R07/29//95=
201912211200 METAR LRCL 211200Z 05007KT 9999 FEW067 06/03 Q1004 R07/29//95=
201912211230 METAR LRCL 211230Z 07007KT 9999 FEW067 07/03 Q1003 R07/29//95=
201912211300 METAR LRCL 211300Z 06007KT 9999 SCT075 07/04 Q1003 R07/15//95=
201912211330 METAR COR LRCL 211330Z 05007KT CAVOK 07/03 Q1002 R07/15//95=
201912211400 METAR LRCL 211400Z 05008KT CAVOK 08/03 Q1002 R07/15//95=
201912211430 METAR LRCL 211430Z 06007KT CAVOK 07/03 Q1002 R07/15//95=
201912211500 METAR LRCL 211500Z 09009KT CAVOK 07/03 Q1002 R07/15//95=
201912211530 METAR LRCL 211530Z 08009KT CAVOK 07/03 Q1001 R07/15//95=
201912211600 METAR LRCL 211600Z 06006KT 9999 FEW064 07/03 Q1001 R07/15//95=
201912211630 METAR LRCL 211630Z 07007KT 9999 FEW067 08/02 Q1001 R07/15//95=
201912211700 METAR LRCL 211700Z 06007KT 9999 FEW068 07/02 Q1000 R07/15//95=
201912211730 METAR LRCL 211730Z 07007KT CAVOK 07/02 Q1000 R07/15//95=
201912211800 METAR LRCL 211800Z 05005KT 9999 FEW066 08/02 Q1000 R07/15//95=
201912211830 METAR LRCL 211830Z 08007KT 9999 SCT065 07/03 Q0999 R07/15//95=
201912211900 METAR LRCL 211900Z 02006KT 360V060 9999 SCT066 08/03 Q0999
                        R07/15//95=
201912211930 METAR LRCL 211930Z 06006KT 9999 FEW067 08/03 Q0998 R07/15//95=
201912212000 METAR LRCL 212000Z 06008KT 9999 -RA OVC082 08/03 Q0998 R07/15//95=
201912212030 METAR LRCL 212030Z 07007KT 9999 -RA FEW069 08/04 Q0998 R07/15//95=
201912212100 METAR LRCL 212100Z 08007KT 9999 FEW066 08/04 Q0998 R07/29//95=
201912212130 METAR LRCL 212130Z 07007KT 9999 -RA NSC 08/04 Q0997 R07/29//95=
201912212200 METAR LRCL 212200Z 08011KT 9999 -RA NSC 08/04 Q0997 R07/29//95=
201912212230 METAR LRCL 212230Z 08012KT 9999 -RA NSC 08/03 Q0996 R07/29//95=
201912212300 METAR LRCL 212300Z 08011KT CAVOK 08/03 Q0996 R07/29//95=
201912212330 METAR LRCL 212330Z 11005KT 050V180 CAVOK 10/03 Q0996 R07/29//95=
201912220000 METAR LRCL 220000Z 07007KT CAVOK 09/04 Q0996 R07/29//95=
201912220030 METAR LRCL 220030Z 06007KT CAVOK 09/04 Q0996 R07/29//95=
201912220100 METAR LRCL 220100Z 08007KT CAVOK 08/04 Q0996 R07/29//95=
201912220130 METAR LRCL 220130Z VRB03KT 9999 FEW055 08/04 Q0997 R07/29//95=
201912220200 METAR LRCL 220200Z VRB02KT 9999 SCT052 08/04 Q0997 R07/29//95=
201912220230 METAR LRCL 220230Z 11006KT 070V130 9999 FEW047 07/04 Q0997
                        R07/29//95=
201912220300 METAR LRCL 220300Z 18002KT 9999 FEW050 07/04 Q0996 R07/29//95=
201912220330 METAR LRCL 220330Z 02003KT 270V060 9999 FEW053 06/04 Q0996
                        R07/29//95=
201912220400 METAR LRCL 220400Z VRB02KT 9999 SCT053 09/04 Q0996 R07/29//95=
201912220430 METAR LRCL 220430Z 10004KT 040V200 CAVOK 10/04 Q0996 R07/29//95=
201912220500 METAR LRCL 220500Z VRB02KT 9999 FEW060 08/03 Q0996 R07/29//95=
201912220530 METAR LRCL 220530Z 18005KT 100V250 9999 FEW062 09/04 Q0996
                        R07/19//95=
201912220600 METAR LRCL 220600Z 35003KT 310V040 9999 BKN057 08/03 Q0996
                        R07/19//95=
201912220630 METAR LRCL 220630Z VRB02KT 9999 SCT057 08/04 Q0996 R07/19//95=
201912220700 METAR LRCL 220700Z 17006KT 110V210 9999 FEW060 10/04 Q0996
                        R07/19//95=
201912220730 METAR LRCL 220730Z 05003KT 360V100 CAVOK 10/04 Q0995 R07/19//95=
201912220800 METAR LRCL 220800Z 06004KT 010V110 CAVOK 12/04 Q0995 R07/19//95=
201912220830 METAR LRCL 220830Z 18009KT CAVOK 12/05 Q0996 R07/19//95=
201912220900 METAR COR LRCL 220900Z 19011KT CAVOK 13/04 Q0996 R07/19//95=
201912220930 METAR LRCL 220930Z 17011KT CAVOK 14/04 Q0995 R07/19//95=
201912221000 METAR LRCL 221000Z 16011KT 130V190 CAVOK 14/05 Q0995 R07/19//95=
201912221030 METAR LRCL 221030Z 16011KT CAVOK 13/05 Q0995 R07/19//95=
201912221100 METAR COR LRCL 221100Z 17009KT CAVOK 15/04 Q0994 R07/CLRD//=
201912221130 METAR LRCL 221130Z 16010KT CAVOK 14/05 Q0994=
201912221200 METAR LRCL 221200Z 12006KT 100V170 CAVOK 13/05 Q0994=
201912221230 METAR LRCL 221230Z 12008KT CAVOK 13/05 Q0993=
201912221300 METAR LRCL 221300Z 12008KT 080V150 CAVOK 13/05 Q0992=
201912221330 METAR LRCL 221330Z 06006KT CAVOK 12/06 Q0992=
201912221400 METAR LRCL 221400Z 06004KT 030V100 CAVOK 12/06 Q0992=
201912221430 METAR LRCL 221430Z 06004KT CAVOK 11/06 Q0992=
201912221500 METAR LRCL 221500Z 08004KT 030V130 CAVOK 10/06 Q0991=
201912221530 METAR LRCL 221530Z 05005KT CAVOK 11/06 Q0991=
201912221600 METAR LRCL 221600Z 05004KT 9999 BKN065 11/06 Q0991=
201912221630 METAR LRCL 221630Z 08006KT 9999 SCT067 10/06 Q0991=
201912221700 METAR LRCL 221700Z 07005KT 9999 SCT067 10/06 Q0991=
201912221730 METAR LRCL 221730Z 07003KT 9999 BKN067 10/05 Q0991=
201912221800 METAR LRCL 221800Z 06004KT 9999 BKN067 11/05 Q0991=
201912221830 METAR LRCL 221830Z 05006KT 9999 BKN067 10/05 Q0991=
201912221900 METAR LRCL 221900Z 08006KT 9999 BKN058 10/05 Q0990=
201912221930 METAR LRCL 221930Z 08008KT 9999 BKN058 11/05 Q0990=
201912222000 METAR COR LRCL 222000Z VRB02KT 9999 -RA BKN060 10/06 Q0990=
201912222030 METAR LRCL 222030Z 05005KT 9999 -RA BKN065 10/06 Q0990 R07/29//95=
201912222100 METAR LRCL 222100Z 06004KT 9999 BKN060 10/06 Q0990 R07/29//95=
201912222130 METAR LRCL 222130Z 08005KT 9999 -RA FEW046 OVC067 10/06 Q0990
                        R07/29//95=
201912222200 METAR LRCL 222200Z 08006KT 9999 -RA FEW046 OVC067 09/06 Q0990
                        R07/29//95=
201912222230 METAR LRCL 222230Z 02003KT 9999 -RA FEW042 OVC067 09/06 Q0989
                        R07/29//95=
201912222300 METAR LRCL 222300Z 03004KT 9999 -RA BKN065 09/06 Q0989 R07/29//95=
201912222330 METAR LRCL 222330Z 03005KT 9999 -RA BKN064 09/06 Q0989 R07/29//95=
201912230000 METAR LRCL 230000Z 06003KT 9999 -RA FEW048 BKN064 09/07 Q0989
                        R07/29//95=
201912230030 METAR LRCL 230030Z 08003KT 9999 -RA BKN064 08/07 Q0989 R07/29//95=
201912230100 METAR LRCL 230100Z 10004KT 9999 -RA FEW042 OVC058 08/07 Q0988
                        R07/29//95=
201912230130 METAR LRCL 230130Z 08006KT 9999 -RA FEW030 OVC055 08/07 Q0988
                        R07/29//95=
201912230200 METAR COR LRCL 230200Z 09003KT 9000 -RA FEW029 OVC055 08/07
                        Q0988 R07/29//95=
201912230230 METAR COR LRCL 230230Z 09004KT 9999 -RA OVC071 08/07 Q0988
                        R07/29//95=
201912230300 METAR LRCL 230300Z 10004KT 9999 -RA OVC067 07/07 Q0988 R07/29//95=
201912230330 METAR COR LRCL 230330Z 10005KT 3000 -RA BR FEW009 BKN067
                        07/06 Q0988 R07/29//95=
201912230400 METAR COR LRCL 230400Z 12003KT 080V150 0800 R25/1000D FG
                        BKN006 07/07 Q0988 R07/29//95=
201912230430 METAR LRCL 230430Z VRB01KT 0600 R25/0750N FG BKN002 07/06
                        Q0988 R07/29//95=
201912230500 METAR LRCL 230500Z 00000KT 0800 R25/0800N FG BKN002 07/06
                        Q0988 R07/29//95=
201912230530 METAR LRCL 230530Z 21002KT 0800 R25/0900N -RA FG BKN002 07/06
                        Q0988 R07/29//95=
201912230600 METAR LRCL 230600Z 26003KT 1200 R25/1900U BR BKN002 07/06
                        Q0989 R07/29//95=
201912230630 METAR LRCL 230630Z 25003KT 2000 BR BKN003 07/07 Q0989 R07/29//95=
201912230700 METAR LRCL 230700Z 26002KT 2500 BKN005 07/07 Q0989 R07/29//95=
201912230730 METAR LRCL 230730Z 24005KT 3500 BR BKN009 08/08 Q0989 R07/29//95=
201912230800 METAR LRCL 230800Z 28004KT 4000 BR SCT012 09/08 Q0989 R07/29//95=
201912230830 METAR LRCL 230830Z 25003KT 5000 BR FEW008 SCT016 09/08 Q0989
                        R07/29//95=
201912230900 METAR LRCL 230900Z 26003KT 5000 -RA BR FEW008 SCT016 09/08
                        Q0989 R07/29//95=
201912230930 METAR LRCL 230930Z 27004KT 5000 -RA BR SCT018 SCT033 09/08
                        Q0989 R07/29//95=
201912231000 METAR LRCL 231000Z 27005KT 7000 -RA FEW014 SCT033 09/08 Q0989
                        R07/29//95=
201912231030 METAR LRCL 231030Z 26005KT 7000 FEW014 SCT033 09/08 Q0989
                        R07/29//95=
201912231100 METAR LRCL 231100Z 27004KT 9999 FEW016 BKN036 09/08 Q0989
                        R07/29//95=
201912231130 METAR LRCL 231130Z VRB02KT 9999 -RA FEW016 BKN036 09/08 Q0989
                        R07/29//95=
201912231200 METAR LRCL 231200Z 26006KT 9999 -RA FEW016 BKN033 09/08 Q0989
                        R07/29//95=
201912231230 METAR LRCL 231230Z 27004KT 9999 -RA FEW016 BKN035 09/08 Q0990
                        R07/29//95=
201912231300 METAR LRCL 231300Z 27005KT 9999 -RA FEW016 SCT035 BKN045
                        09/08 Q0990 R07/29//95=
201912231330 METAR LRCL 231330Z 27004KT 9999 -RA FEW013 SCT035 BKN045
                        09/08 Q0990 R07/29//95=
201912231400 METAR LRCL 231400Z 30002KT 9999 -RA FEW012 BKN045 09/08 Q0990
                        R07/29//95=
201912231430 METAR LRCL 231430Z 33004KT 9999 SCT018 BKN045 09/08 Q0991
                        R07/29//95=
201912231500 METAR LRCL 231500Z 33006KT 9999 -RA SCT020 BKN042 09/07 Q0991
                        R07/29//95=
201912231530 METAR LRCL 231530Z 31004KT 9999 -RA SCT020 BKN042 09/07 Q0991
                        R07/29//95=
201912231600 METAR LRCL 231600Z 26003KT 9999 -RA FEW016 BKN042 08/07 Q0992
                        R07/29//95=
201912231630 METAR LRCL 231630Z 30009KT 9999 -RA SCT013 BKN042 08/06 Q0992
                        R07/29//95=
201912231700 METAR LRCL 231700Z 29008KT 260V340 9999 -RA BKN015 OVC043
                        08/06 Q0993 R07/29//95=
201912231730 METAR LRCL 231730Z 28008KT 9999 -RA SCT017 OVC041 07/05 Q0993
                        R07/29//95=
201912231800 METAR LRCL 231800Z 28007KT 250V320 9999 -RA SCT015 OVC041
                        07/05 Q0993 R07/29//95=
201912231830 METAR LRCL 231830Z 28011KT 9999 -RA SCT015 OVC042 06/04 Q0994
                        R07/29//95=
201912231900 METAR LRCL 231900Z 28010KT 9999 -RA FEW014 OVC039 06/04 Q0994
                        R07/29//95=
201912231930 METAR LRCL 231930Z 30007KT 270V330 9999 -RA FEW012 OVC039
                        05/03 Q0995 R07/29//95=
201912232000 METAR LRCL 232000Z 28007KT 260V320 9999 -RA SCT012 OVC037
                        05/03 Q0995 R07/29//95=
201912232030 METAR LRCL 232030Z 29008KT 250V310 9999 -RA FEW013 OVC034
                        05/02 Q0995 R07/29//95=
201912232100 METAR LRCL 232100Z 28007KT 250V310 9999 -RA FEW014 OVC035
                        05/02 Q0996 R07/29//95=
201912232130 METAR LRCL 232130Z 28009KT 9999 -RA FEW013 OVC041 04/02 Q0997
                        R07/29//95=
201912232200 METAR LRCL 232200Z 28009KT 9999 -RA SCT016 OVC041 04/02 Q0997
                        R07/29//95=
201912232230 METAR LRCL 232230Z 27010KT 9999 -RA FEW016 OVC046 04/01 Q0997
                        R07/29//95=
201912232300 METAR LRCL 232300Z 27010KT 9999 -RA FEW018 OVC047 04/01 Q0998
                        R07/29//95=
201912232330 METAR LRCL 232330Z 27011KT 9999 -RA FEW017 OVC049 03/01 Q0998
                        R07/29//95=
201912240000 METAR LRCL 240000Z 27012KT 9999 -RA SCT017 OVC045 03/01 Q0998
                        R07/29//95=
201912240030 METAR LRCL 240030Z 27012KT 9999 -RA SCT016 OVC033 03/01 Q0999
                        R07/29//95=
201912240100 METAR LRCL 240100Z 27012KT 9999 -RA FEW017 OVC030 03/01 Q0999
                        R07/29//95=
201912240130 METAR LRCL 240130Z 27010KT 9999 -RA FEW016 OVC034 03/01 Q0999
                        R07/29//95=
201912240200 METAR LRCL 240200Z 27009KT 9999 -RA FEW017 OVC040 03/01 Q0999
                        R07/29//95=
201912240230 METAR LRCL 240230Z 27008KT 9999 -RA FEW017 OVC040 03/01 Q1000
                        R07/29//95=
201912240300 METAR LRCL 240300Z 27009KT 9999 -RA FEW017 OVC045 03/01 Q1000
                        R07/29//95=
201912240330 METAR LRCL 240330Z 27008KT 9999 -RA FEW017 OVC047 03/01 Q1000
                        R07/29//95=
201912240400 METAR LRCL 240400Z 28008KT 9999 -RA FEW017 OVC047 03/01 Q1001
                        R07/29//95=
201912240430 METAR LRCL 240430Z 27007KT 9999 -RA FEW015 OVC039 03/01 Q1001
                        R07/29//95=
201912240500 METAR LRCL 240500Z 27008KT 9999 -RA FEW013 OVC036 03/01 Q1002
                        R07/29//95=
201912240530 METAR LRCL 240530Z 27008KT 9999 -RA FEW013 OVC036 03/01 Q1002
                        R07/29//95=
201912240600 METAR LRCL 240600Z 27010KT 9999 -RA FEW012 OVC035 03/01 Q1003
                        R07/29//95=
201912240630 METAR LRCL 240630Z 26010KT 9999 -RA FEW012 OVC041 03/01 Q1003
                        R07/29//95=
201912240700 METAR LRCL 240700Z 26010KT 9999 -RA FEW012 OVC041 03/01 Q1004
                        R07/29//95=
201912240730 METAR LRCL 240730Z 26010KT 9999 -RA FEW012 OVC033 03/01 Q1004
                        R07/29//95=
201912240800 METAR LRCL 240800Z 27009KT 9999 -RA FEW010 OVC024 03/01 Q1005
                        R07/29//95=
201912240830 METAR LRCL 240830Z 27009KT 9999 -RA FEW010 OVC024 03/01 Q1005
                        R07/29//95=
201912240900 METAR LRCL 240900Z 26009KT 9999 -RA FEW008 OVC024 03/01 Q1005
                        R07/29//95=
201912240930 METAR LRCL 240930Z 26008KT 9999 -RA BKN009 OVC024 03/01 Q1006
                        R07/29//95=
201912241000 METAR LRCL 241000Z 26010KT 9999 -RA BKN008 OVC030 03/02 Q1005
                        R07/29//95=
201912241030 METAR LRCL 241030Z 26011KT 9999 -RA SCT008 OVC032 03/01 Q1006
                        R07/29//95=
201912241100 METAR LRCL 241100Z 27011KT 9999 SCT010 OVC034 04/02 Q1006
                        R07/29//95=
201912241130 METAR LRCL 241130Z 27009KT 9999 BKN015 OVC039 04/01 Q1006
                        R07/29//95=
201912241200 METAR LRCL 241200Z 27006KT 9999 BKN013 OVC039 04/02 Q1006
                        R07/29//95=
201912241230 METAR LRCL 241230Z 26005KT 9999 OVC010 04/02 Q1006 R07/29//95=
201912241300 METAR LRCL 241300Z 26004KT 9999 OVC010 04/03 Q1007 R07/29//95=
201912241330 METAR LRCL 241330Z 27005KT 9999 OVC010 04/03 Q1007 R07/29//95=
201912241400 METAR LRCL 241400Z 27004KT 9999 OVC012 04/03 Q1007 R07/29//95=
201912241430 METAR LRCL 241430Z 26005KT 7000 -DZ FEW004 OVC010 04/03 Q1007
                        R07/29//95=
201912241500 METAR LRCL 241500Z 25006KT 6000 -DZ FEW003 OVC008 04/03 Q1007
                        R07/29//95=
201912241530 METAR LRCL 241530Z 26006KT 5000 -DZ BR FEW003 OVC008 04/03
                        Q1008 R07/29//95=
201912241600 METAR LRCL 241600Z 26006KT 5000 -RA BR OVC010 04/03 Q1008
                        R07/29//95=
201912241630 METAR LRCL 241630Z 27007KT 9999 OVC010 04/03 Q1008 R07/29//95=
201912241700 METAR LRCL 241700Z 27006KT 9999 -RA OVC013 04/03 Q1008 R07/29//95=
201912241730 METAR LRCL 241730Z 27005KT 9999 OVC011 04/03 Q1008 R07/29//95=
201912241800 METAR LRCL 241800Z 26009KT 9999 OVC012 04/03 Q1008 R07/29//95=
201912241830 METAR LRCL 241830Z 26009KT 9999 OVC009 04/03 Q1008 R07/29//95=
201912241900 METAR LRCL 241900Z 27008KT 9999 OVC011 04/03 Q1008 R07/29//95=
201912241930 METAR LRCL 241930Z 27008KT 9999 OVC011 04/03 Q1008 R07/29//95=
201912242000 METAR LRCL 242000Z 27008KT 9999 OVC011 04/03 Q1008 R07/29//95=
201912242030 METAR LRCL 242030Z 27007KT 9999 OVC011 04/02 Q1008 R07/29//95=
201912242100 METAR LRCL 242100Z 27007KT 9999 OVC011 04/02 Q1008 R07/29//95=
201912242130 METAR LRCL 242130Z 28008KT 9999 OVC011 04/02 Q1008 R07/29//95=
201912242200 METAR LRCL 242200Z 27008KT 9999 OVC011 04/02 Q1008 R07/29//95=
201912242230 METAR LRCL 242230Z 28009KT 9999 OVC011 04/02 Q1008 R07/29//95=
201912242300 METAR LRCL 242300Z 28008KT 9999 -RA OVC011 04/02 Q1008 R07/29//95=
201912242330 METAR LRCL 242330Z 27006KT 9999 -RA SCT013 BKN034 OVC050
                        04/02 Q1008 R07/29//95=
201912250000 METAR LRCL 250000Z 27007KT 9999 SCT012 SCT023 OVC043 03/01
                        Q1008 R07/29//95=
201912250030 METAR LRCL 250030Z 27008KT 9999 SCT040 BKN059 03/01 Q1008
                        R07/29//95=
201912250100 METAR LRCL 250100Z 27006KT 9999 BKN038 OVC065 03/01 Q1008
                        R07/29//95=
201912250130 METAR LRCL 250130Z 28008KT 9999 OVC027 03/01 Q1008 R07/29//95=
201912250200 METAR LRCL 250200Z 26004KT 9999 FEW014 BKN028 03/01 Q1008
                        R07/29//95=
201912250230 METAR LRCL 250230Z 26004KT 9999 BKN014 BKN028 03/01 Q1008
                        R07/29//95=
201912250300 METAR LRCL 250300Z 27006KT 9999 OVC013 04/01 Q1008 R07/29//95=
201912250330 METAR LRCL 250330Z 28008KT 9999 OVC013 04/01 Q1008 R07/29//95=
201912250400 METAR LRCL 250400Z 27007KT 9999 OVC015 04/01 Q1008 R07/29//95=
201912250430 METAR LRCL 250430Z 27006KT 9999 OVC021 04/01 Q1008 R07/29//95=
201912250500 METAR LRCL 250500Z 27007KT 9999 BKN022 04/01 Q1008 R07/19//95=
201912250530 METAR LRCL 250530Z 28006KT 9999 SCT023 03/00 Q1008 R07/19//95=
201912250600 METAR LRCL 250600Z 30004KT 9999 FEW022 03/00 Q1009 R07/19//95=
201912250630 METAR LRCL 250630Z VRB02KT 9999 FEW024 03/00 Q1009 R07/19//95=
201912250700 METAR LRCL 250700Z VRB02KT CAVOK 03/00 Q1009 R07/19//95=
201912250730 METAR LRCL 250730Z 28010KT 9999 FEW067 04/01 Q1009 R07/19//95=
201912250800 METAR LRCL 250800Z 28012KT 9999 FEW067 04/01 Q1009 R07/19//95=
201912250830 METAR LRCL 250830Z 28013KT 9999 FEW067 04/01 Q1009 R07/CLRD//=
201912250900 METAR LRCL 250900Z 28012KT 9999 FEW067 05/01 Q1010=
201912250930 METAR COR LRCL 250930Z 29011KT 9999 FEW067 05/01 Q1009=
201912251000 METAR LRCL 251000Z 29012KT 9999 SCT067 05/00 Q1010=
201912251030 METAR LRCL 251030Z 28011KT 9999 FEW067 05/00 Q1009=
201912251100 METAR LRCL 251100Z 29011KT 9999 FEW067 05/M01 Q1010=
201912251130 METAR LRCL 251130Z 30010KT 270V330 9999 SCT046 06/M00 Q1009=
201912251200 METAR LRCL 251200Z 30010KT 9999 BKN047 05/00 Q1009=
201912251230 METAR LRCL 251230Z 30009KT 9999 BKN049 05/M00 Q1009=
201912251300 METAR LRCL 251300Z 30010KT 9999 BKN053 05/M00 Q1010=
201912251330 METAR LRCL 251330Z 29008KT 9999 BKN054 05/M01 Q1010=
201912251400 METAR LRCL 251400Z 30009KT 9999 SCT052 05/M01 Q1010=
201912251430 METAR LRCL 251430Z 30008KT 9999 SCT055 05/M01 Q1010=
201912251500 METAR LRCL 251500Z 30006KT 9999 BKN051 04/M01 Q1010=
201912251530 METAR LRCL 251530Z 31005KT 9999 BKN049 04/M00 Q1011=
201912251600 METAR LRCL 251600Z 30006KT 9999 BKN050 04/M00 Q1011=
201912251630 METAR LRCL 251630Z 30007KT 9999 BKN050 04/M01 Q1011=
201912251700 METAR LRCL 251700Z 31006KT 9999 BKN051 04/M01 Q1011=
201912251730 METAR LRCL 251730Z 31007KT 9999 BKN044 04/M01 Q1011=
201912251800 METAR LRCL 251800Z 29005KT 9999 BKN041 04/M01 Q1011=
201912251830 METAR LRCL 251830Z 30006KT 9999 BKN040 04/M02 Q1011=
201912251900 METAR LRCL 251900Z 28004KT 9999 BKN040 04/M02 Q1011=
201912251930 METAR LRCL 251930Z 28006KT 9999 BKN042 04/M02 Q1012=
201912252000 METAR LRCL 252000Z 28006KT 9999 OVC046 03/M01 Q1012=
201912252030 METAR LRCL 252030Z 27006KT 9999 OVC045 03/M01 Q1012=
201912252100 METAR LRCL 252100Z 27005KT 9999 OVC046 03/M01 Q1012=
201912252130 METAR LRCL 252130Z 26006KT 9999 OVC046 03/M01 Q1012=
201912252200 METAR LRCL 252200Z 27005KT 9999 OVC047 03/M01 Q1012=
201912252230 METAR LRCL 252230Z 27006KT 9999 OVC047 03/M02 Q1012=
201912252300 METAR LRCL 252300Z 27005KT 9999 OVC046 04/M02 Q1012=
201912252330 METAR LRCL 252330Z 26005KT 9999 OVC048 03/M01 Q1012=
201912260000 METAR LRCL 260000Z 28004KT 9999 OVC048 03/M01 Q1012=
201912260030 METAR LRCL 260030Z 27005KT 9999 OVC040 03/M01 Q1012=
201912260100 METAR LRCL 260100Z 30003KT 270V350 9999 OVC040 03/M01 Q1013=
201912260130 METAR LRCL 260130Z 28003KT 9999 OVC038 03/M01 Q1013=
201912260200 METAR LRCL 260200Z 32005KT 9999 OVC040 04/M01 Q1013=
201912260230 METAR COR LRCL 260230Z 26004KT 9999 OVC050 03/M02 Q1013=
201912260300 METAR LRCL 260300Z 23004KT 9999 SCT041 OVC057 03/M01 Q1013=
201912260330 METAR LRCL 260330Z VRB02KT 9999 BKN042 OVC057 03/M01 Q1013=
201912260400 METAR LRCL 260400Z 28003KT 9999 SCT042 OVC057 03/M01 Q1013=
201912260430 METAR LRCL 260430Z 26006KT 9999 OVC060 03/M01 Q1013=
201912260500 METAR LRCL 260500Z 27007KT 9999 SCT046 OVC065 03/M01 Q1014=
201912260530 METAR LRCL 260530Z 26005KT 9999 BKN043 OVC066 03/M01 Q1014=
201912260600 METAR LRCL 260600Z 26005KT 9999 BKN044 OVC067 03/M01 Q1014=
201912260630 METAR LRCL 260630Z 25005KT 9999 BKN041 OVC061 03/M00 Q1014=
201912260700 METAR LRCL 260700Z 25005KT 9999 BKN037 BKN061 03/M00 Q1014=
201912260730 METAR LRCL 260730Z 28007KT 9999 SCT014 BKN033 OVC061 04/00
                        Q1015=
201912260800 METAR LRCL 260800Z 29009KT 9999 SCT015 BKN033 OVC061 04/00
                        Q1015=
201912260830 METAR LRCL 260830Z 28007KT 9999 SCT012 BKN036 BKN066 03/01
                        Q1015=
201912260900 METAR LRCL 260900Z 28009KT 9999 FEW016 BKN033 BKN066 04/00
                        Q1015=
201912260930 METAR LRCL 260930Z 28009KT 240V310 9999 FEW018 SCT035 04/00
                        Q1015=
201912261000 METAR LRCL 261000Z 29009KT 9999 FEW022 SCT047 04/M00 Q1016=
201912261030 METAR LRCL 261030Z 28010KT 9999 FEW020 SCT048 04/M01 Q1015=
201912261100 METAR LRCL 261100Z 29011KT 9999 FEW025 BKN047 04/M01 Q1016=
201912261130 METAR LRCL 261130Z 29014KT 9999 FEW027 BKN049 05/M01 Q1016=
201912261200 METAR LRCL 261200Z 30013KT 9999 FEW027 BKN053 05/M02 Q1016=
201912261230 METAR LRCL 261230Z 29015KT 9999 SCT029 BKN058 05/M01 Q1016=
201912261300 METAR LRCL 261300Z 30014KT 9999 SCT030 BKN056 04/M01 Q1016=
201912261330 METAR LRCL 261330Z 30014KT 9999 SCT031 BKN056 04/M01 Q1017=
201912261400 METAR LRCL 261400Z 30014KT 9999 SCT033 BKN056 04/M01 Q1017=
201912261430 METAR LRCL 261430Z 29013KT 9999 SCT035 BKN056 04/M00 Q1017=
201912261500 METAR LRCL 261500Z 29013KT 9999 SCT035 BKN057 04/M00 Q1017=
201912261530 METAR LRCL 261530Z 30011KT 9999 BKN035 BKN055 04/M00 Q1018=
201912261600 METAR LRCL 261600Z 30011KT 9999 SCT040 BKN059 04/M00 Q1018=
201912261630 METAR LRCL 261630Z 29012KT 9999 SCT042 BKN063 04/M00 Q1018=
201912261700 METAR LRCL 261700Z 29011KT 9999 SCT045 BKN065 04/M00 Q1018=
201912261730 METAR LRCL 261730Z 28011KT 9999 FEW020 BKN045 04/M01 Q1018=
201912261800 METAR LRCL 261800Z 30011KT 9999 FEW020 BKN046 04/M01 Q1018=
201912261830 METAR LRCL 261830Z AUTO 30012KT 9999 OVC071/// 04/M01 Q1018=
201912261900 METAR LRCL 261900Z 29010KT 9999 FEW020 BKN055 04/M01 Q1018=
201912261930 METAR LRCL 261930Z 30010KT 9999 FEW022 OVC060 04/M01 Q1018=
201912262000 METAR LRCL 262000Z 30009KT 9999 FEW024 OVC066 04/M01 Q1018=
201912262030 METAR LRCL 262030Z 31007KT 9999 SCT024 OVC067 03/M01 Q1018=
201912262100 METAR LRCL 262100Z 30010KT 9999 FEW022 BKN065 03/M01 Q1018=
201912262130 METAR LRCL 262130Z 30010KT 9999 -RA FEW021 BKN064 03/M01
                        Q1018=
201912262200 METAR LRCL 262200Z 30007KT 9999 -RA BKN024 OVC060 02/00 Q1018=
201912262230 METAR LRCL 262230Z 28010KT 9999 BKN023 BKN067 03/M00 Q1018
                        R07/29//95=
201912262300 METAR LRCL 262300Z 27008KT 9999 FEW022 SCT067 03/M00 Q1018
                        R07/29//95=
201912262330 METAR LRCL 262330Z 26004KT 9999 BKN026 02/M00 Q1018 R07/29//95=
201912270000 METAR LRCL 270000Z 25005KT 9999 SCT024 02/M01 Q1018 R07/29//95=
201912270030 METAR LRCL 270030Z VRB02KT 9999 BKN028 02/M01 Q1018 R07/29//95=
201912270100 METAR LRCL 270100Z 16004KT 9999 BKN024 03/M01 Q1018 R07/29//95=
201912270130 METAR LRCL 270130Z VRB02KT 9999 BKN022 03/M01 Q1018 R07/29//95=
201912270200 METAR LRCL 270200Z 26003KT 9999 BKN023 02/M01 Q1018 R07/29//95=
201912270230 METAR LRCL 270230Z 28004KT 250V320 9999 SCT021 02/M01 Q1018
                        R07/29//95=
201912270300 METAR LRCL 270300Z 15004KT 120V210 9999 BKN021 02/M01 Q1018
                        R07/29//95=
201912270330 METAR LRCL 270330Z 15004KT 120V210 9999 BKN021 02/M01 Q1018
                        R07/19//95=
201912270400 METAR LRCL 270400Z 26004KT 230V310 9999 BKN020 03/M02 Q1018
                        R07/19//95=
201912270430 METAR LRCL 270430Z 26007KT 9999 BKN020 03/M02 Q1018 R07/19//95=
201912270500 METAR LRCL 270500Z 27008KT 250V310 9999 BKN020 03/M02 Q1018
                        R07/19//95=
201912270530 METAR LRCL 270530Z 29010KT 260V320 9999 BKN021 03/M02 Q1018
                        R07/CLDR//=
201912270600 METAR LRCL 270600Z 29011KT 9999 SCT020 02/M02 Q1018=
201912270630 METAR LRCL 270630Z 28010KT 9999 SCT020 02/M02 Q1018=
201912270700 METAR LRCL 270700Z 29009KT 9999 BKN021 02/M02 Q1018=
201912270730 METAR LRCL 270730Z 29010KT 9999 SCT022 04/M02 Q1018=
201912270800 METAR LRCL 270800Z 29012KT 9999 BKN020 03/M02 Q1019=
201912270830 METAR LRCL 270830Z 28013KT 9999 SCT019 03/M02 Q1019=
201912270900 METAR LRCL 270900Z 30013KT 9999 SCT019 04/M01 Q1019=
201912270930 METAR LRCL 270930Z 31016KT 9999 FEW025 04/M02 Q1019=
201912271000 METAR LRCL 271000Z 30015KT 9999 FEW030 04/M02 Q1019=
201912271030 METAR LRCL 271030Z 31017KT 9999 FEW030 05/M02 Q1018=
201912271100 METAR LRCL 271100Z 31014KT 9999 SCT030 05/M03 Q1018=
201912271130 METAR LRCL 271130Z 30012KT 270V330 9999 BKN047 04/M03 Q1018=
201912271200 METAR COR LRCL 271200Z 30014KT 9999 BKN035 05/M02 Q1018=
201912271230 METAR LRCL 271230Z 31014KT 9999 SCT036 04/M02 Q1018=
201912271300 METAR LRCL 271300Z 31012KT 9999 FEW046 04/M03 Q1018=
201912271330 METAR LRCL 271330Z 31013KT 9999 FEW046 04/M03 Q1018=
201912271400 METAR LRCL 271400Z 31013KT 9999 FEW050 03/M02 Q1018=
201912271430 METAR LRCL 271430Z 30012KT 9999 FEW050 03/M02 Q1019=
201912271500 METAR LRCL 271500Z 30013KT 9999 FEW050 02/M01 Q1019=
201912271530 METAR LRCL 271530Z 31010KT 9999 SCT054 02/M01 Q1019 R07/19//95=
201912271600 METAR LRCL 271600Z 29010KT 9999 SCT055 02/M01 Q1019 R07/19//95=
201912271630 METAR LRCL 271630Z 29010KT 9999 FEW048 02/M01 Q1019 R07/19//95=
201912271700 METAR LRCL 271700Z 30010KT 9999 FEW050 02/M01 Q1019 R07/CLRD//=
201912271730 METAR LRCL 271730Z 29009KT 260V320 9999 SCT024 02/M02 Q1019=
201912271800 METAR LRCL 271800Z 29005KT 250V330 9999 SCT020 02/M02 Q1019=
201912271830 METAR LRCL 271830Z 27008KT 240V300 9999 BKN018 02/M02 Q1019=
201912271900 METAR LRCL 271900Z 27010KT 9999 BKN017 02/M02 Q1019=
201912271930 METAR LRCL 271930Z 26010KT 9999 BKN017 02/M02 Q1019=
201912272000 METAR LRCL 272000Z 27009KT 240V300 9999 OVC016 02/M02 Q1019=
201912272030 METAR LRCL 272030Z 27009KT 9999 OVC015 02/M02 Q1020=
201912272100 METAR LRCL 272100Z 28012KT 9999 OVC016 02/M02 Q1019=
201912272130 METAR LRCL 272130Z 28011KT 9999 OVC016 02/M02 Q1020=
201912272200 METAR LRCL 272200Z 28012KT 9999 OVC017 02/M02 Q1020=
201912272230 METAR LRCL 272230Z 29012KT 9999 OVC018 02/M02 Q1019=
201912272300 METAR LRCL 272300Z 28015KT 9999 OVC016 02/M02 Q1019=
201912272330 METAR LRCL 272330Z 27015KT 9999 OVC015 02/M02 Q1019=
201912280000 METAR LRCL 280000Z 28014KT 9999 BKN013 BKN067 02/M02 Q1020=
201912280030 METAR LRCL 280030Z 28012KT 9999 BKN012 BKN047 02/M02 Q1020=
201912280100 METAR LRCL 280100Z 28009KT 9999 OVC014 02/M02 Q1020=
201912280130 METAR LRCL 280130Z 30010KT 9999 OVC014 02/M02 Q1020=
201912280200 METAR LRCL 280200Z 29009KT 250V320 9999 SCT015 OVC043 02/M02
                        Q1020=
201912280230 METAR LRCL 280230Z 28008KT 9999 SCT015 BKN046 01/M02 Q1020=
201912280300 METAR LRCL 280300Z 27011KT 9999 SCT019 SCT068 01/M03 Q1020=
201912280330 METAR LRCL 280330Z 29014KT 9999 SCT019 SCT068 01/M03 Q1020=
201912280400 METAR LRCL 280400Z 29014KT 9999 FEW020 SCT068 01/M03 Q1020=
201912280430 METAR LRCL 280430Z 29014KT 9999 FEW022 00/M04 Q1020=
201912280500 METAR LRCL 280500Z 30016KT 9999 BFEW023 01/M04 Q1020=
201912280530 METAR LRCL 280530Z 30013KT 9999 FEW023 00/M03 Q1020=
201912280600 METAR LRCL 280600Z 30014KT 9999 FEW022 01/M04 Q1020=
201912280630 METAR LRCL 280630Z 31014KT 9999 FEW023 01/M04 Q1021=
201912280700 METAR LRCL 280700Z 30013KT 9999 FEW020 01/M04 Q1020=
201912280730 METAR LRCL 280730Z 30012KT 9999 BKN019 01/M04 Q1021=
201912280800 METAR LRCL 280800Z 30012KT 9999 BKN021 01/M04 Q1021=
201912280830 METAR LRCL 280830Z 30011G21KT 9999 SCT020 01/M04 Q1021=
201912280900 METAR LRCL 280900Z 31011KT 9999 SCT020 01/M04 Q1021=
201912280930 METAR LRCL 280930Z 31013KT 9999 SCT020 01/M04 Q1021=
201912281000 METAR LRCL 281000Z 31015KT 9999 FEW020 02/M04 Q1021=
201912281030 METAR LRCL 281030Z 31014KT 9999 FEW020 01/M04 Q1021=
201912281100 METAR LRCL 281100Z 31015KT 9999 FEW020 02/M04 Q1022=
201912281130 METAR LRCL 281130Z 31016KT 9999 FEW020 SCT058 02/M04 Q1022=
201912281200 METAR LRCL 281200Z 31015KT 9999 FEW018 BKN056 02/M03 Q1022=
201912281230 METAR LRCL 281230Z 31013KT 9999 FEW020 BKN063 01/M03 Q1022=
201912281300 METAR LRCL 281300Z 31014KT 9999 FEW020 OVC057 01/M03 Q1022=
201912281330 METAR LRCL 281330Z 30013KT 9999 FEW020 OVC057 01/M03 Q1022=
201912281400 METAR LRCL 281400Z 30012KT 9999 FEW018 OVC060 01/M03 Q1022=
201912281430 METAR LRCL 281430Z 30014KT 9999 FEW018 OVC064 01/M03 Q1023=
201912281500 METAR LRCL 281500Z 30016KT 9999 FEW018 OVC067 01/M04 Q1023=
201912281530 METAR LRCL 281530Z 30014KT 9999 FEW018 SCT067 01/M04 Q1023=
201912281600 METAR LRCL 281600Z 30013KT 9999 FEW017 BKN062 01/M04 Q1023=
201912281630 METAR LRCL 281630Z 30013KT 9999 FEW017 OVC066 01/M04 Q1023=
201912281700 METAR COR LRCL 281700Z 30014KT 9999 FEW020 BKN065 01/M05
                        Q1024=
201912281730 METAR LRCL 281730Z 30014KT 9999 BKN067 01/M05 Q1024=
201912281800 METAR LRCL 281800Z 31014KT CAVOK 01/M05 Q1024=
201912281830 METAR COR LRCL 281830Z 30014KT CAVOK 00/M05 Q1025=
201912281900 METAR LRCL 281900Z 31014KT CAVOK 00/M05 Q1025=
201912281930 METAR LRCL 281930Z 32013KT 9999 FEW066 00/M06 Q1025=
201912282000 METAR LRCL 282000Z 31014KT CAVOK 00/M06 Q1025=
201912282030 METAR LRCL 282030Z 31014KT CAVOK M00/M06 Q1026=
201912282100 METAR LRCL 282100Z 31013KT CAVOK M00/M06 Q1026=
201912282130 METAR LRCL 282130Z 31012KT CAVOK M01/M06 Q1026=
201912282200 METAR LRCL 282200Z 31013KT CAVOK M01/M06 Q1026=
201912282230 METAR LRCL 282230Z 30011KT CAVOK M01/M06 Q1026=
201912282300 METAR LRCL 282300Z 30010KT CAVOK M01/M06 Q1026=
201912282330 METAR LRCL 282330Z 30013KT CAVOK M01/M06 Q1026=
201912290000 METAR LRCL 290000Z 30012KT CAVOK M01/M06 Q1026=
201912290030 METAR LRCL 290030Z 30011KT CAVOK M01/M06 Q1027=
201912290100 METAR LRCL 290100Z 29012KT CAVOK M01/M06 Q1027=
201912290130 METAR LRCL 290130Z 29013KT 9999 -SN OVC067 M01/M06 Q1027=
201912290200 METAR LRCL 290200Z 29014KT 9999 BKN067 M01/M06 Q1027=
201912290230 METAR LRCL 290230Z 28012KT 260V320 CAVOK M01/M06 Q1027=
201912290300 METAR LRCL 290300Z 27011KT CAVOK M01/M06 Q1027=
201912290330 METAR LRCL 290330Z 28009KT 9999 -SN OVC063 M01/M06 Q1027=
201912290400 METAR COR LRCL 290400Z 28009KT 9999 -SN OVC052 M01/M05 Q1027=
201912290430 METAR LRCL 290430Z AUTO 26010KT 9999 -SHSN BKN045/// OVC079///
                        M01/M05 Q1027=
201912290500 METAR LRCL 290500Z 26010KT 9999 OVC066 M01/M06 Q1027=
201912290530 METAR LRCL 290530Z 28009KT 250V310 9999 BKN066 M01/M06 Q1028=
201912290600 METAR LRCL 290600Z 28011KT 250V310 9999 OVC063 M01/M05 Q1028=
201912290630 METAR LRCL 290630Z 29012KT 250V310 9999 BKN063 M01/M06 Q1028=
201912290700 METAR LRCL 290700Z 30013KT 9999 BKN053 M01/M06 Q1028=
201912290730 METAR LRCL 290730Z 30011KT 9999 SCT058 M01/M06 Q1028=
201912290800 METAR COR LRCL 290800Z 30010KT 9999 FEW060 M01/M06 Q1028=
201912290830 METAR LRCL 290830Z 28010KT 9999 FEW064 M01/M06 Q1029=
201912290900 METAR LRCL 290900Z 29012KT 9999 FEW064 M00/M06 Q1029=
201912290930 METAR LRCL 290930Z 30013KT 9999 FEW065 00/M07 Q1029=
201912291000 METAR LRCL 291000Z 29013KT 9999 FEW065 00/M06 Q1029=
201912291030 METAR LRCL 291030Z 29012KT 9999 FEW065 01/M07 Q1029=
201912291100 METAR LRCL 291100Z 30011KT 9999 FEW065 01/M07 Q1029=
201912291130 METAR LRCL 291130Z 31009KT 9999 FEW067 01/M07 Q1029=
201912291200 METAR COR LRCL 291200Z 31009KT 9999 FEW067 01/M07 Q1029=
201912291230 METAR LRCL 291230Z 30008KT 9999 FEW057 01/M07 Q1029=
201912291300 METAR LRCL 291300Z 30010KT 9999 FEW067 01/M07 Q1030=
201912291330 METAR LRCL 291330Z 30008KT CAVOK 00/M07 Q1030=
201912291400 METAR LRCL 291400Z 29007KT CAVOK 00/M07 Q1030=
201912291430 METAR LRCL 291430Z 28006KT CAVOK M00/M07 Q1030=
201912291500 METAR LRCL 291500Z 29006KT 9999 FEW067 M01/M07 Q1031=
201912291530 METAR LRCL 291530Z 29007KT 9999 FEW064 M02/M08 Q1031=
201912291600 METAR LRCL 291600Z 28005KT 240V320 9999 FEW067 M03/M08 Q1031=
201912291630 METAR LRCL 291630Z 27006KT CAVOK M02/M08 Q1031=
201912291700 METAR LRCL 291700Z 28005KT CAVOK M03/M08 Q1031=
201912291730 METAR LRCL 291730Z 26007KT 230V290 CAVOK M04/M09 Q1032=
201912291800 METAR LRCL 291800Z 27007KT CAVOK M03/M08 Q1032=
201912291830 METAR LRCL 291830Z 26006KT CAVOK M03/M08 Q1033=
201912291900 METAR LRCL 291900Z 31005KT CAVOK M04/M08 Q1033=
201912291930 METAR LRCL 291930Z 25006KT CAVOK M04/M08 Q1033=
201912292000 METAR LRCL 292000Z 29006KT CAVOK M04/M07 Q1033=
201912292030 METAR LRCL 292030Z 28005KT CAVOK M04/M08 Q1033=
201912292100 METAR LRCL 292100Z 29004KT CAVOK M04/M07 Q1033=
201912292130 METAR LRCL 292130Z 24005KT CAVOK M04/M08 Q1034=
201912292200 METAR LRCL 292200Z 28005KT CAVOK M04/M07 Q1034=
201912292230 METAR LRCL 292230Z 27005KT CAVOK M05/M08 Q1034=
201912292300 METAR COR LRCL 292300Z 27005KT CAVOK M05/M08 Q1034=
201912292330 METAR LRCL 292330Z 28005KT CAVOK M05/M08 Q1035=
201912300000 METAR COR LRCL 300000Z 27005KT CAVOK M05/M08 Q1035=
201912300030 METAR LRCL 300030Z 27007KT CAVOK M05/M09 Q1035=
201912300100 METAR LRCL 300100Z 28006KT CAVOK M06/M09 Q1035=
201912300130 METAR LRCL 300130Z 28006KT CAVOK M06/M09 Q1035=
201912300200 METAR LRCL 300200Z 28005KT CAVOK M06/M09 Q1035=
201912300230 METAR LRCL 300230Z 27005KT CAVOK M06/M09 Q1035=
201912300300 METAR LRCL 300300Z 28007KT CAVOK M06/M10 Q1035=
201912300330 METAR LRCL 300330Z 26004KT 210V300 CAVOK M07/M10 Q1035=
201912300400 METAR LRCL 300400Z 27004KT CAVOK M07/M10 Q1035=
201912300430 METAR LRCL 300430Z 25003KT CAVOK M08/M10 Q1035=
201912300500 METAR COR LRCL 300500Z 24003KT 200V270 CAVOK M08/M11 Q1035=
201912300530 METAR LRCL 300530Z 26004KT CAVOK M08/M10 Q1035=
201912300600 METAR LRCL 300600Z 27004KT 250V310 CAVOK M08/M10 Q1035=
201912300630 METAR LRCL 300630Z 24004KT CAVOK M09/M11 Q1036=
201912300700 METAR LRCL 300700Z 26003KT CAVOK M07/M10 Q1036=
201912300730 METAR LRCL 300730Z 23004KT CAVOK M06/M10 Q1036=
201912300800 METAR LRCL 300800Z 24003KT CAVOK M05/M10 Q1036=
201912300830 METAR LRCL 300830Z 25003KT CAVOK M04/M10 Q1036=
201912300900 METAR LRCL 300900Z VRB02KT CAVOK M02/M09 Q1036=
201912300930 METAR LRCL 300930Z VRB01KT CAVOK M01/M09 Q1036=
201912301000 METAR LRCL 301000Z VRB01KT CAVOK M01/M09 Q1035=
201912301030 METAR LRCL 301030Z VRB02KT CAVOK M01/M09 Q1035=
201912301100 METAR LRCL 301100Z VRB02KT CAVOK 00/M09 Q1035=
201912301130 METAR LRCL 301130Z VRB02KT CAVOK 02/M09 Q1035=
201912301200 METAR LRCL 301200Z VRB01KT CAVOK 01/M08 Q1034=
201912301230 METAR LRCL 301230Z VRB02KT CAVOK 02/M09 Q1034=
201912301300 METAR LRCL 301300Z 12002KT CAVOK 02/M09 Q1035=
201912301330 METAR LRCL 301330Z VRB01KT CAVOK 02/M09 Q1034=
201912301400 METAR LRCL 301400Z 07003KT CAVOK 01/M08 Q1034=
201912301430 METAR LRCL 301430Z 07004KT CAVOK 00/M08 Q1034=
201912301500 METAR LRCL 301500Z 05002KT CAVOK M01/M07 Q1034=
201912301530 METAR LRCL 301530Z VRB01KT CAVOK M03/M08 Q1034=
201912301600 METAR LRCL 301600Z VRB02KT CAVOK M03/M08 Q1034=
201912301630 METAR LRCL 301630Z VRB02KT CAVOK M04/M09 Q1034=
201912301700 METAR LRCL 301700Z 29003KT CAVOK M05/M08 Q1035=
201912301730 METAR LRCL 301730Z 23003KT CAVOK M06/M09 Q1034=
201912301800 METAR COR LRCL 301800Z 27004KT CAVOK M05/M08 Q1035=
201912301830 METAR LRCL 301830Z 27004KT CAVOK M05/M08 Q1034=
201912301900 METAR LRCL 301900Z 25004KT CAVOK M06/M09 Q1034=
201912301930 METAR LRCL 301930Z 29003KT CAVOK M05/M08 Q1034=
201912302000 METAR LRCL 302000Z 26005KT CAVOK M05/M09 Q1034=
201912302030 METAR LRCL 302030Z 24003KT CAVOK M05/M09 Q1034=
201912302100 METAR LRCL 302100Z 27005KT 240V300 CAVOK M06/M09 Q1034=
201912302130 METAR LRCL 302130Z 24005KT 9999 FEW064 M05/M08 Q1034=
201912302200 METAR LRCL 302200Z 25004KT 9999 BKN067 M05/M08 Q1034=
201912302230 METAR LRCL 302230Z 24003KT 9999 BKN066 M04/M07 Q1033=
201912302300 METAR LRCL 302300Z VRB02KT 9999 BKN056 M04/M08 Q1033=
201912302330 METAR COR LRCL 302330Z 25003KT 220V280 9999 BKN053 M04/M07
                        Q1033=
201912310000 METAR LRCL 310000Z 30003KT 260V320 9999 FEW052 BKN065 M04/M08
                        Q1033=
201912310030 METAR COR LRCL 310030Z 25002KT 9999 BKN064 M04/M07 Q1033=
201912310100 METAR LRCL 310100Z AUTO 26003KT 9999 OVC060/// M04/M07 Q1033=
201912310130 METAR COR LRCL 310130Z 27003KT 250V310 9999 OVC053 M03/M07
                        Q1033=
201912310200 METAR LRCL 310200Z VRB02KT 9999 OVC052 M03/M07 Q1032=
201912310230 METAR COR LRCL 310230Z 24002KT 9999 OVC053 M03/M07 Q1032=
201912310300 METAR LRCL 310300Z VRB01KT 9999 BKN055 M03/M07 Q1032=
201912310330 METAR LRCL 310330Z 24001KT 9999 OVC051 M03/M07 Q1031=
201912310400 METAR LRCL 310400Z 29001KT 9999 OVC057 M03/M07 Q1031=
201912310430 METAR LRCL 310430Z 33002KT 9999 OVC064 M03/M07 Q1031=
201912310500 METAR LRCL 310500Z 00000KT 9999 OVC062 M02/M07 Q1030=
201912310530 METAR LRCL 310530Z VRB02KT 9999 BKN064 M02/M07 Q1030=
201912310600 METAR LRCL 310600Z VRB01KT 9999 SCT065 M02/M06 Q1030=
201912310630 METAR LRCL 310630Z 09001KT 9999 SCT067 M02/M06 Q1030=
201912310700 METAR LRCL 310700Z 00000KT 9999 -SN SCT067 M02/M06 Q1030=
201912310730 METAR LRCL 310730Z VRB01KT 9999 BKN062 M02/M06 Q1029=
201912310800 METAR LRCL 310800Z VRB02KT 9999 BKN062 M02/M06 Q1029=
201912310830 METAR LRCL 310830Z VRB02KT 9999 BKN065 M01/M06 Q1029=
201912310900 METAR LRCL 310900Z VRB02KT 9999 SCT066 M01/M06 Q1029=
201912310930 METAR LRCL 310930Z 09004KT 9999 SCT067 M01/M06 Q1028=
201912311000 METAR LRCL 311000Z 09005KT 9999 SCT067 M00/M06 Q1028=
201912311030 METAR LRCL 311030Z 09005KT 9999 FEW044 M00/M07 Q1027=
201912311100 METAR LRCL 311100Z 10006KT 080V140 9999 FEW045 M00/M07 Q1027=
201912311130 METAR LRCL 311130Z 11005KT 9999 FEW044 M00/M07 Q1026=
201912311200 METAR LRCL 311200Z 10006KT 9999 FEW045 00/M07 Q1026=
201912311230 METAR LRCL 311230Z 08005KT 050V110 CAVOK M00/M07 Q1026=
201912311300 METAR LRCL 311300Z 08003KT 9999 FEW047 00/M06 Q1025=
201912311330 METAR LRCL 311330Z 07004KT 040V100 CAVOK 01/M07 Q1024=
201912311400 METAR LRCL 311400Z 15004KT CAVOK 00/M07 Q1024=
201912311430 METAR LRCL 311430Z 10005KT 070V150 CAVOK M01/M07 Q1024=
201912311500 METAR LRCL 311500Z 08005KT CAVOK M02/M07 Q1024=
201912311530 METAR LRCL 311530Z 07006KT CAVOK M02/M06 Q1024=
201912311600 METAR LRCL 311600Z 06005KT CAVOK M03/M06 Q1025=
201912311630 METAR LRCL 311630Z 01004KT CAVOK M03/M06 Q1025=
201912311700 METAR LRCL 311700Z VRB01KT 9999 SCT058 M03/M06 Q1025=
201912311730 METAR LRCL 311730Z 17003KT 9999 SCT045 M03/M06 Q1026=
201912311800 METAR LRCL 311800Z 00000KT 9999 BKN042 M02/M06 Q1026=
201912311830 METAR LRCL 311830Z VRB01KT 9999 BKN042 M02/M06 Q1026=
201912311900 METAR LRCL 311900Z 23005KT 9999 BKN044 M02/M05 Q1026=
201912311930 METAR LRCL 311930Z 29003KT 9999 BKN044 M01/M06 Q1026=
201912312000 METAR LRCL 312000Z 27010KT 9999 BKN044 M00/M06 Q1026=
201912312030 METAR LRCL 312030Z 36005KT 9999 OVC044 00/M06 Q1026=
201912312100 METAR LRCL 312100Z 12004KT 9999 OVC044 M01/M05 Q1026=
201912312130 METAR COR LRCL 312130Z 12003KT 9999 OVC044 M01/M05 Q1026=
201912312200 METAR LRCL 312200Z 09002KT 9999 OVC046 M01/M05 Q1026=
201912312230 METAR LRCL 312230Z 08007KT 9999 OVC046 M01/M05 Q1026=
201912312300 METAR LRCL 312300Z 09006KT 9999 OVC050 M01/M05 Q1026=
201912312330 METAR LRCL 312330Z 34005KT 9999 FEW030 OVC050 M00/M05 Q1026=
