201901010500 TAF LRCK 010500Z 0106/0206 01010KT 9999 SCT025
                      BECMG 0113/0115 27010KT 5000 BR BKN010
                      TEMPO 0116/0122 1500 BR BKN005=
201901011100 TAF LRCK 011100Z 0112/0212 27008KT 9999 BKN025
                      BECMG 0115/0117 5000 BR BKN010
                      TEMPO 0117/0122 1500 BR BKN005
                      BECMG 0206/0208 9999 NSW SCT025=
201901011700 TAF LRCK 011700Z 0118/0218 27008KT 5000 BR SCT020
                      BECMG 0118/0120 3000 BR BKN015
                      TEMPO 0123/0205 1500 BR BKN005
                      BECMG 0207/0209 9999 NSW SCT025=
201901012300 TAF LRCK 012300Z 0200/0224 26014KT 5000 BR BKN010
                      TEMPO 0200/0206 1500 BR BKN005
                      BECMG 0207/0209 9999 NSW BKN030
                      BECMG 0217/0219 VRB04KT
                      BECMG 0220/0222 3000 BR BKN010=
201901020500 TAF LRCK 020500Z 0206/0306 23012KT 9999 BKN015
                      TEMPO 0206/0210 5000 BR OVC010
                      BECMG 0210/0212 BKN025
                      BECMG 0216/0218 30010KT
                      BECMG 0220/0222 BKN010
                      PROB40 TEMPO 0302/0304 3000 BR OVC005=
201901021100 TAF LRCK 021100Z 0212/0312 25015KT 9999 BKN015
                      BECMG 0212/0213 BKN025
                      BECMG 0216/0218 31010KT
                      BECMG 0220/0222 5000 BR BKN010
                      PROB30 TEMPO 0222/0304 3000 BR OVC005
                      BECMG 0307/0309 03010KT 9999 NSW BKN025=
201901021700 TAF LRCK 021700Z 0218/0318 26008KT 3000 BR BKN015
                      BECMG 0219/0221 BKN010
                      TEMPO 0221/0304 1500 BR OVC005
                      BECMG 0306/0308 34010KT 9999 NSW SCT025
                      BECMG 0310/0312 04010KT=
201901022300 TAF LRCK 022300Z 0300/0324 27010KT 3000 BR NSC
                      TEMPO 0301/0304 1500 BR BKN005
                      BECMG 0306/0308 34010KT CAVOK
                      BECMG 0310/0312 04010KT=
201901030500 TAF LRCK 030500Z 0306/0406 32010KT 3000 BR NSC
                      BECMG 0306/0307 5000
                      BECMG 0307/0309 CAVOK
                      BECMG 0310/0312 04010KT
                      PROB40 TEMPO 0316/0320 02015G25KT
                      TEMPO 0403/0406 35015G25KT=
201901031100 TAF LRCK 031100Z 0312/0412 04010KT CAVOK
                      PROB40 TEMPO 0319/0401 02015G25KT
                      BECMG 0401/0403 34016KT
                      TEMPO 0401/0407 35016G32KT
                      TEMPO 0407/0412 33015G27KT=
201901031700 TAF LRCK 031700Z 0318/0418 01015KT CAVOK
                      TEMPO 0321/0401 01015G25KT
                      PROB30 TEMPO 0323/0406 5000 -SN DRSN BKN015
                       BKN040
                      TEMPO 0401/0407 01020G32KT
                      BECMG 0410/0412 32015G25KT
                      BECMG 0415/0417 30010KT=
201901032300 TAF LRCK 032300Z 0400/0424 01020KT CAVOK
                      PROB30 TEMPO 0400/0406 5000 -SN DRSN BKN015
                       BKN040
                      TEMPO 0402/0411 36020G30KT
                      BECMG 0412/0414 31017KT
                      BECMG 0416/0418 30007KT=
201901040500 TAF LRCK 040500Z 0406/0506 36018KT CAVOK
                      TEMPO 0406/0411 36020G30KT
                      BECMG 0412/0414 30016KT
                      BECMG 0418/0420 30006KT
                      PROB30 TEMPO 0502/0506 3000 BR=
201901041100 TAF LRCK 041100Z 0412/0512 32014KT 9999 SCT035
                      TEMPO 0412/0415 31015G25KT
                      BECMG 0420/0422 VRB04KT
                      PROB30 TEMPO 0502/0506 3000 BR
                      BECMG 0508/0510 28014KT=
201901041700 TAF LRCK 041700Z 0418/0518 31006KT 9999 SCT040
                      PROB30 TEMPO 0502/0506 3000 BR
                      BECMG 0508/0510 28016KT=
201901042300 TAF LRCK 042300Z 0500/0524 31006KT CAVOK
                      PROB30 TEMPO 0502/0506 3000 BR
                      BECMG 0508/0510 28016KT=
201901050500 TAF LRCK 050500Z 0506/0606 VRB04KT CAVOK
                      TEMPO 0506/0507 5000 BR
                      BECMG 0507/0509 28012KT
                      PROB40 TEMPO 0602/0606 3000 BR BKN010=
201901050621 TAF AMD LRCK 050621Z 0506/0606 29010KT 0800 FZFG BKN002
                      TEMPO 0506/0507 0350 FZFG VV001
                      BECMG 0507/0509 3000 BR BKN010
                      BECMG 0509/0510 9999 NSW SCT020
                      TEMPO 0602/0606 3000 BR BKN010=
201901051038 TAF AMD LRCK 051038Z 0510/0606 27010KT 5000 BR BKN005
                      BECMG 0511/0513 9999 NSW SCT015
                      TEMPO 0602/0606 3000 BR BKN010=
201901051100 TAF LRCK 051100Z 0512/0612 26010KT 9999 BKN010
                      BECMG 0512/0514 SCT020
                      TEMPO 0602/0606 3000 BR BKN010
                      BECMG 0608/0610 32010KT 5000 -SN BKN015 OVC030
                       TEMPO 0610/0612 1500 SN OVC005=
201901051700 TAF LRCK 051700Z 0518/0618 23006KT CAVOK
                      BECMG 0518/0520 5000 BR
                      TEMPO 0523/0606 1500 BR BKN005
                      BECMG 0607/0609 32010KT -SN BKN010 OVC025
                       BECMG 0614/0616 9999 NSW BKN030=
201901052300 TAF LRCK 052300Z 0600/0624 26012KT CAVOK
                      TEMPO 0600/0606 3000 BR BKN010
                      BECMG 0606/0608 32010KT
                      TEMPO 0608/0614 5000 -SN BKN010 OVC025=
201901060500 TAF LRCK 060500Z 0606/0706 28012KT CAVOK
                      BECMG 0606/0608 5000 -SN BKN010 OVC025
                      TEMPO 0608/0613 3000 SN BKN005 OVC020
                      BECMG 0613/0615 34014KT
                      BECMG 0615/0617 9999 NSW SCT015 BKN030
                      PROB30 TEMPO 0704/0706 5000 -SN BKN010 BKN035=
201901061100 TAF LRCK 061100Z 0612/0712 33013KT 5000 -SN SCT010 BKN040
                      PROB30 TEMPO 0612/0614 3000 -SN
                      BECMG 0615/0617 9999 NSW
                      BECMG 0704/0706 5000 -SN
                      TEMPO 0706/0710 1500 SN BKN010 BKN020=
201901061700 TAF LRCK 061700Z 0618/0718 34012KT 9999 SCT035
                      TEMPO 0703/0708 5000 -SN BKN015 BKN035
                      BECMG 0714/0716 5000 -SN BKN015 BKN035
                      PROB40 TEMPO 0716/0718 1500 SN BKN005 OVC020=
201901062300 TAF AMD LRCK 070231Z 0702/0724 34012KT 1500 SN BKN010 OVC025
                      PROB40 TEMPO 0703/0705 0800 +SN OVC005
                      BECMG 0705/0707 5000 -SN SCT015 BKN030
                      BECMG 0707/0709 9999 NSW
                      BECMG 0714/0716 5000 -SN BKN015 BKN035
                      PROB40 TEMPO 0716/0719 1500 SN BKN005 OVC020
                       BECMG 0720/0722 9999 NSW BKN020=
201901070231 TAF AMD LRCK 070231Z 0702/0724 34012KT 1500 SN BKN010 OVC025
                      PROB40 TEMPO 0703/0705 0800 +SN OVC005
                      BECMG 0705/0707 5000 -SN SCT015 BKN030
                      BECMG 0707/0709 9999 NSW
                      BECMG 0714/0716 5000 -SN BKN015 BKN035
                      PROB40 TEMPO 0716/0719 1500 SN BKN005 OVC020
                       BECMG 0720/0722 9999 NSW BKN020=
201901070500 TAF LRCK 070500Z 0706/0806 35015KT 1500 SN BKN010 OVC020
                      BECMG 0706/0708 5000 -SN SCT015 BKN030
                      BECMG 0708/0710 9999 NSW
                      TEMPO 0714/0719 5000 -SN BKN010 BKN030=
201901071100 TAF LRCK 071100Z 0712/0812 33014KT 9999 SCT020
                      TEMPO 0714/0719 5000 -SN BKN010 BKN030
                      BECMG 0809/0811 27012KT=
201901071700 TAF LRCK 071700Z 0718/0818 34011KT 9999 SCT015 BKN030
                      PROB30 TEMPO 0718/0721 5000 -SN BKN015 BKN030
                       BECMG 0808/0810 28010KT
                      PROB30 TEMPO 0810/0814 BKN015
                      BECMG 0817/0818 22007KT=
201901072300 TAF LRCK 072300Z 0800/0824 34012KT 9999 BKN025
                      BECMG 0808/0810 28010KT
                      PROB30 TEMPO 0810/0814 BKN015
                      BECMG 0818/0820 22007KT=
201901080500 TAF LRCK 080500Z 0806/0906 29008KT CAVOK
                      PROB30 TEMPO 0810/0814 BKN015
                      BECMG 0818/0820 22008KT
                      BECMG 0903/0905 5000 BR BKN010=
201901081100 TAF LRCK 081100Z 0812/0912 25008KT CAVOK
                      PROB30 TEMPO 0812/0815 BKN015
                      TEMPO 0903/0907 5000 BR BKN010=
201901081700 TAF LRCK 081700Z 0818/0918 24008KT CAVOK
                      TEMPO 0903/0907 3000 BR
                      BECMG 0915/0917 18010KT=
201901082300 TAF LRCK 082300Z 0900/0924 23008KT CAVOK
                      TEMPO 0903/0907 3000 BR
                      BECMG 0917/0919 17010KT
                      PROB40 TEMPO 0919/0921 5000 -FZRA BKN015
                       OVC030
                      BECMG 0921/0923 5000 -RA BKN010 OVC030=
201901090500 TAF LRCK 090500Z 0906/1006 23010KT CAVOK
                      BECMG 0917/0919 17010KT
                      PROB40 TEMPO 0919/0921 5000 -FZRA BKN015
                       OVC030
                      BECMG 0921/0923 5000 -RA BKN010 OVC030
                      TEMPO 0923/1006 3000 RA BKN005 OVC025
                      PROB40 TEMPO 1002/1006 15015G25KT 1500 SHRA
                       BKN005 SCT020CB BKN025=
201901091100 TAF LRCK 091100Z 0912/1012 19010KT 9999 SCT030
                      PROB40 TEMPO 0919/0921 5000 -FZRA BKN015
                       OVC030
                      BECMG 0921/0923 5000 -RA BKN010 OVC030
                      TEMPO 0923/1007 3000 RA BKN005 OVC025
                      PROB40 TEMPO 1002/1006 16015G25KT 1500 SHRA
                       BKN005 SCT020CB BKN025
                      BECMG 1007/1009 26010KT=
201901091700 TAF LRCK 091700Z 0918/1018 17010KT CAVOK
                      PROB40 TEMPO 0920/0923 -FZRA BKN015 BKN030
                       BECMG 0923/1001 5000 -RA BKN010 OVC030
                      TEMPO 1001/1006 13015G25KT 3000 RA BKN005
                       OVC020
                      BECMG 1008/1010 26010KT 7000 NSW BKN015=
201901092300 TAF LRCK 092300Z 1000/1024 15010KT 5000 -RA BR BKN010 BKN030
                      TEMPO 1001/1005 13015G25KT 3000 RA BKN005
                       OVC020
                      BECMG 1008/1010 26010KT 7000 NSW BKN015
                      TEMPO 1020/1023 5000 -RA=
201901100500 TAF LRCK 100500Z 1006/1106 16008KT 5000 -RA BR BKN010 BKN030
                      TEMPO 1006/1008 3000 RA BR BKN005 OVC020
                       BECMG 1008/1010 26010KT 7000 NSW BKN015
                       BKN035
                      BECMG 1015/1017 32008KT 5000 -RA BKN005 OVC020
                       BECMG 1021/1023 3000 BR
                      TEMPO 1102/1106 3000 -SN BR BKN002 OVC020=
201901101034 TAF AMD LRCK 101034Z 1010/1106 27012KT 3000 BR BKN005 BKN030
                      TEMPO 1012/1015 7000 NSW SCT010 BKN035
                      BECMG 1015/1017 33008KT 5000 -RA
                      BECMG 1021/1023 3000 BR
                      TEMPO 1102/1106 3000 -SN BR BKN002 OVC020=
201901101100 TAF LRCK 101100Z 1012/1112 27012KT 3000 BR BKN005 BKN030
                      TEMPO 1012/1015 7000 NSW SCT010 BKN035
                      BECMG 1015/1017 33008KT 5000 -RA
                      BECMG 1021/1023 3000 BR
                      TEMPO 1102/1109 3000 -SN BR BKN002 OVC020=
201901101222 TAF AMD LRCK 101222Z 1012/1112 27012KT 0600 FG BKN002 OVC020
                      TEMPO 1012/1015 1500 BR BKN005 BKN025
                      BECMG 1014/1016 33008KT 5000 -RA BKN005 OVC020
                       BECMG 1021/1023 3000 BR
                      TEMPO 1102/1109 3000 -SN BR BKN002 OVC020=
201901101522 TAF AMD LRCK 101522Z 1015/1112 31008KT 0350 FG OVC002
                      TEMPO 1016/1021 1500 -FZDZ BR BKN005 OVC015
                       BECMG 1021/1023 1500 -SN BR BKN001 OVC020
                       TEMPO 1101/1109 0800 -SN FZFG=
201901101700 TAF LRCK 101700Z 1018/1118 VRB04KT 3000 -FZRA SCT010 OVC030
                      TEMPO 1018/1022 1500 FZRA BKN005 OVC020
                      BECMG 1022/1024 30010KT 1500 BR BKN005 OVC020
                       TEMPO 1101/1107 0600 FZFG OVC001
                      BECMG 1107/1109 3000 BKN010
                      BECMG 1109/1111 7000 NSW SCT030=
201901102300 TAF LRCK 102300Z 1100/1124 30012KT 1500 BR BKN005 OVC015
                      TEMPO 1100/1107 0600 FZFG OVC002
                      BECMG 1107/1109 3000 BKN010
                      BECMG 1109/1111 7000 NSW SCT030
                      BECMG 1118/1120 5000 BR BKN010
                      BECMG 1121/1123 1500 BR BKN005=
201901110500 TAF LRCK 110500Z 1106/1206 28016KT 4000 BR OVC005
                      BECMG 1108/1110 7000 NSW BKN015
                      BECMG 1110/1112 BKN030
                      BECMG 1120/1122 28006KT 5000 BR
                      TEMPO 1200/1206 1500 BR BKN005=
201901111100 TAF LRCK 111100Z 1112/1212 31016KT 3000 BR BKN010 BKN030
                      TEMPO 1112/1117 7000 NSW BKN015 BKN030
                      BECMG 1122/1124 28006KT
                      TEMPO 1200/1206 1500 BR BKN005
                      BECMG 1207/1209 9999 NSW BKN025=
201901111322 TAF AMD LRCK 111322Z 1113/1212 30012KT 3000 -FZDZ BR BKN005 OVC010
                       BECMG 1115/1117 BR
                      TEMPO 1200/1206 1500 BR BKN002 OVC005
                      BECMG 1207/1209 9999 NSW BKN015 BKN025
                      BECMG 1209/1211 BKN025=
201901111515 TAF AMD LRCK 111515Z 1115/1212 29010KT 7000 BKN015 OVC020
                      TEMPO 1115/1118 OVC020
                      BECMG 1120/1122 5000 BR
                      TEMPO 1200/1206 1500 BR BKN005 OVC015
                      BECMG 1207/1209 9999 NSW
                      BECMG 1209/1211 BKN025=
201901111700 TAF LRCK 111700Z 1118/1218 29010KT 5000 BR OVC020
                      BECMG 1122/1124 3000 BR BKN010
                      TEMPO 1200/1206 1500 BR OVC005
                      BECMG 1207/1209 9999 NSW BKN025=
201901112300 TAF LRCK 112300Z 1200/1224 27010KT 5000 BR SCT020
                      TEMPO 1200/1206 1500 BR OVC005
                      BECMG 1207/1209 9999 NSW=
201901120500 TAF LRCK 120500Z 1206/1306 27012KT 3000 BR OVC010
                      BECMG 1207/1209 9999 NSW SCT025
                      TEMPO 1300/1306 3000 BR BKN005=
201901121100 TAF LRCK 121100Z 1212/1312 27018KT CAVOK
                      TEMPO 1212/1215 5000 BR BKN005
                      BECMG 1216/1218 29008KT
                      TEMPO 1302/1308 3000 BR BKN005=
201901121700 TAF LRCK 121700Z 1218/1318 27012KT CAVOK
                      TEMPO 1301/1307 3000 BR BKN010=
201901122300 TAF LRCK 122300Z 1300/1324 27012KT CAVOK
                      TEMPO 1301/1307 3000 BR BKN010=
201901130500 TAF LRCK 130500Z 1306/1406 27008KT 8000 NSC
                      TEMPO 1306/1307 5000 BR
                      BECMG 1307/1309 CAVOK
                      BECMG 1316/1318 BKN015=
201901131100 TAF LRCK 131100Z 1312/1412 27008KT CAVOK
                      BECMG 1316/1318 BKN015
                      BECMG 1406/1408 SCT025=
201901131700 TAF LRCK 131700Z 1318/1418 25008KT 8000 NSC
                      TEMPO 1323/1406 3000 BR BKN010
                      PROB30 TEMPO 1412/1416 24015G25KT 5000 -RA
                       BR=
201901132300 TAF LRCK 132300Z 1400/1424 23010KT 9999 BKN025
                      TEMPO 1400/1406 3000 BR BKN010
                      PROB30 TEMPO 1412/1416 24015G25KT 5000 -RA
                       BR
                      BECMG 1418/1420 30016KT
                      TEMPO 1420/1424 30018G28KT=
201901140500 TAF LRCK 140500Z 1406/1506 22008KT CAVOK
                      BECMG 1410/1412 24018KT
                      TEMPO 1415/1421 27018G28KT
                      BECMG 1500/1502 30012KT
                      TEMPO 1502/1506 5000 -SN BKN010 BKN030
                      BECMG 1504/1506 01008KT=
201901141100 TAF LRCK 141100Z 1412/1512 24018KT CAVOK
                      TEMPO 1415/1421 27018G28KT
                      BECMG 1500/1502 30012KT
                      TEMPO 1503/1509 5000 -SN BKN010 BKN030
                      BECMG 1504/1506 01010KT=
201901141700 TAF LRCK 141700Z 1418/1518 26015KT CAVOK
                      TEMPO 1418/1421 26020G30KT
                      BECMG 1503/1505 34014KT
                      TEMPO 1505/1511 34018G28KT 5000 -SN DRSN
                       BKN015 BKN030=
201901142300 TAF LRCK 142300Z 1500/1524 26014KT CAVOK
                      BECMG 1503/1505 34014KT
                      TEMPO 1505/1511 34018G28KT 5000 -SN DRSN
                       BKN015 BKN030=
201901150500 TAF LRCK 150500Z 1506/1606 31008KT 5000 -SN BKN015 BKN030
                      TEMPO 1506/1511 34018KT 1500 SN DRSN
                      BECMG 1511/1513 CAVOK
                      BECMG 1522/1601 27018G28KT=
201901150800 TAF AMD LRCK 150800Z 1508/1606 36018KT 0800 SN BLSN BKN010 BKN030
                       TEMPO 1508/1510 0350 +SN BLSN BKN005 OVC020
                       BECMG 1510/1511 5000 -SN
                      BECMG 1511/1512 CAVOK
                      BECMG 1522/1601 27018G28KT=
201901151100 TAF LRCK 151100Z 1512/1612 36016KT CAVOK
                      BECMG 1522/1601 27018G28KT=
201901151700 TAF LRCK 151700Z 1518/1618 29016KT CAVOK
                      BECMG 1604/1606 26018G28KT
                      PROB30 TEMPO 1614/1617 FEW030CB
                      BECMG 1615/1617 31010KT=
201901152300 TAF LRCK 152300Z 1600/1624 29012KT CAVOK
                      BECMG 1604/1606 26018G28KT
                      PROB30 TEMPO 1614/1617 FEW030CB
                      BECMG 1615/1617 31008KT=
201901160500 TAF LRCK 160500Z 1606/1706 29012KT CAVOK
                      TEMPO 1606/1612 26018G28KT
                      BECMG 1617/1619 VRB04KT
                      BECMG 1621/1623 5000 BR
                      PROB40 TEMPO 1622/1706 1500 BR=
201901161100 TAF LRCK 161100Z 1612/1712 29018KT CAVOK
                      BECMG 1617/1619 29008KT
                      BECMG 1621/1623 5000 BR
                      PROB40 TEMPO 1622/1706 1500 BR
                      BECMG 1706/1708 20008KT CAVOK=
201901161700 TAF LRCK 161700Z 1618/1718 28010KT CAVOK
                      BECMG 1621/1623 VRB04KT 3000 BR
                      TEMPO 1700/1706 0600 FZFG OVC002
                      BECMG 1708/1710 CAVOK=
201901162300 TAF LRCK 162300Z 1700/1724 VRB04KT CAVOK
                      TEMPO 1701/1706 3000 BR=
201901170500 TAF LRCK 170500Z 1706/1806 VRB04KT CAVOK
                      PROB30 TEMPO 1706/1708 5000 BR
                      BECMG 1708/1710 20010KT=
201901171100 TAF LRCK 171100Z 1712/1812 19010KT CAVOK
                      BECMG 1716/1718 25007KT=
201901171700 TAF LRCK 171700Z 1718/1818 20006KT CAVOK=
201901172300 TAF LRCK 172300Z 1800/1824 24008KT CAVOK
                      TEMPO 1801/1806 3000 BR=
201901180500 TAF LRCK 180500Z 1806/1906 26008KT CAVOK
                      BECMG 1901/1903 36010KT=
201901181100 TAF LRCK 181100Z 1812/1912 26008KT CAVOK
                      TEMPO 1900/1904 33010KT
                      BECMG 1904/1906 02010KT=
201901181700 TAF LRCK 181700Z 1818/1918 24006KT CAVOK
                      TEMPO 1823/1904 32010KT
                      BECMG 1904/1906 02010KT
                      BECMG 1915/1917 5000 -RA BR BKN015 OVC040=
201901182300 TAF LRCK 182300Z 1900/1924 27007KT CAVOK
                      TEMPO 1900/1904 33010KT
                      BECMG 1904/1906 03010KT
                      BECMG 1916/1918 5000 -RA BR BKN015 OVC040
                       PROB30
                      TEMPO 1919/1924 3000 -RASN BR BKN010 OVC035=
201901190500 TAF LRCK 190500Z 1906/2006 34008KT 5000 BR NSC
                      BECMG 1908/1910 04010KT CAVOK
                      BECMG 1916/1918 5000 -RA BR BKN015 OVC040
                       PROB30
                      TEMPO 1919/1924 3000 -RASN BR BKN010 OVC035
                       TEMPO 2000/2006 10008KT 3000 -RA BR BKN010
                       OVC030=
201901191100 TAF LRCK 191100Z 1912/2012 04010KT CAVOK
                      BECMG 1916/1918 5000 -RA BR BKN015 OVC040
                       PROB30
                      TEMPO 1919/1924 3000 -RASN BR BKN010 OVC035
                       TEMPO 2000/2006 3000 -RA BR BKN005 OVC025
                       BECMG 2003/2005 10008KT
                      BECMG 2008/2010 14010KT=
201901191700 TAF LRCK 191700Z 1918/2018 04010KT 9999 OVC040
                      TEMPO 1920/2002 5000 -SNRA BKN015 OVC035
                       BECMG 2002/2004 12010KT 5000 -RA BR BKN015
                       OVC030
                      TEMPO 2006/2012 3000 -RA BR BKN010 OVC025
                       BECMG 2015/2017 19010KT=
201901192300 TAF AMD LRCK 200421Z 2004/2024 06010KT 9999 OVC010
                      BECMG 2007/2009 13010KT BKN015 OVC030
                      BECMG 2014/2016 19010KT 5000 -RA BKN010 OVC025
                       BECMG 2019/2021 26012KT 9999 NSW=
201901200421 TAF AMD LRCK 200421Z 2004/2024 06010KT 9999 OVC010
                      BECMG 2007/2009 13010KT BKN015 OVC030
                      BECMG 2014/2016 19010KT 5000 -RA BKN010 OVC025
                       BECMG 2019/2021 26012KT 9999 NSW=
201901200500 TAF LRCK 200500Z 2006/2106 05008KT 9999 OVC010
                      BECMG 2007/2009 14010KT BKN015 OVC030
                      BECMG 2016/2018 21012KT 5000 -RA BKN010 OVC025
                       BECMG 2022/2024 27016KT 9999 NSW
                      BECMG 2103/2105 33010KT=
201901200712 TAF AMD LRCK 200712Z 2007/2106 07006KT 3000 BR BKN005
                      TEMPO 2007/2009 1500 -DZ BR OVC002
                      BECMG 2009/2011 14010KT 5000 BKN015 OVC030
                       BECMG 2016/2018 21012KT 3000 -RA BR BKN010
                       OVC025
                      BECMG 2022/2024 28016KT 5000 BR BKN015=
201901201100 TAF LRCK 201100Z 2012/2112 13008KT 5000 BR BKN010
                      TEMPO 2016/2022 3000 -RA BR BKN005 OVC020
                       BECMG 2021/2023 27016KT
                      BECMG 2106/2108 34010KT 9999 NSW BKN025=
201901201423 TAF AMD LRCK 201423Z 2014/2112 13008KT 0150 FG VV001
                      TEMPO 2014/2020 0600 BKN002
                      BECMG 2020/2022 27016KT 1500 -RA BR BKN005
                       OVC015
                      BECMG 2103/2105 3000 BR BKN010
                      BECMG 2106/2108 34012KT 9999 NSW BKN025=
201901201700 TAF LRCK 201700Z 2018/2118 16008KT 0600 FG BKN002
                      PROB30 TEMPO 2018/2020 0350 FG VV001
                      BECMG 2020/2022 26012KT 3000 -RA BR
                      BECMG 2023/2101 5000 BR BKN005
                      PROB30 TEMPO 2102/2105 30015G25KT
                      BECMG 2105/2107 34012KT 9999 NSW BKN020=
201901202110 TAF AMD LRCK 202110Z 2021/2118 20008KT 0150 -DZ FG BKN002
                      BECMG 2021/2023 26012KT 1500 -RA BR
                      BECMG 2023/2101 3000 BR BKN005
                      PROB30 TEMPO 2102/2105 30015G25KT 9999 NSW
                       BKN010
                      BECMG 2105/2107 34012KT 9999 NSW BKN020=
201901202300 TAF AMD LRCK 210450Z 2104/2124 27014KT 0600 FG BKN001
                      TEMPO 2104/2106 1500 BR BKN002
                      BECMG 2106/2107 3000 BR BKN005
                      BECMG 2107/2108 34012KT 9999 NSW BKN020
                      BECMG 2121/2123 05006KT 3000 BR BKN005=
201901210450 TAF AMD LRCK 210450Z 2104/2124 27014KT 0600 FG BKN001
                      TEMPO 2104/2106 1500 BR BKN002
                      BECMG 2106/2107 3000 BR BKN005
                      BECMG 2107/2108 34012KT 9999 NSW BKN020
                      BECMG 2121/2123 05006KT 3000 BR BKN005=
201901210500 TAF LRCK 210500Z 2106/2206 27018KT 1500 BR OVC002
                      TEMPO 2106/2107 0600 FG OVC001
                      BECMG 2107/2108 3000 BKN005
                      BECMG 2108/2110 35012KT 9999 NSW BKN025
                      BECMG 2121/2123 05005KT
                      TEMPO 2200/2206 3000 BR=
201901211100 TAF LRCK 211100Z 2112/2212 33010KT 9999 BKN020
                      BECMG 2117/2119 5000 BR BKN010
                      BECMG 2121/2123 05005KT 3000 BR BKN005
                      BECMG 2207/2209 7000 NSW BKN015=
201901211700 TAF LRCK 211700Z 2118/2218 34008KT 9999 BKN015
                      BECMG 2118/2120 5000 BR BKN010
                      TEMPO 2121/2203 1500 BR BKN005
                      BECMG 2207/2209 10010KT 9999 NSW BKN015
                      PROB40 TEMPO 2213/2218 5000 -RA BKN010 OVC025=
201901212300 TAF LRCK 212300Z 2200/2224 04008KT 9999 BKN020
                      TEMPO 2200/2203 5000 BR BKN010
                      BECMG 2207/2209 12010KT
                      PROB30 TEMPO 2209/2212 5000 -RA -RASN BKN010
                       OVC025
                      TEMPO 2219/2224 5000 -RA BKN010 OVC025=
201901220500 TAF LRCK 220500Z 2206/2306 04007KT 9999 BKN020
                      BECMG 2207/2209 11012KT
                      BECMG 2223/2301 17012KT 5000 RA BKN010 OVC025
                       TEMPO 2300/2306 3000 RA BKN005 OVC020=
201901221100 TAF LRCK 221100Z 2212/2312 08010KT 9999 BKN020
                      BECMG 2216/2218 15012KT
                      BECMG 2223/2301 BKN010 OVC025
                      BECMG 2302/2304 3000 RA BR BKN005 OVC020
                       BECMG 2307/2309 23010KT 9999 NSW SCT020=
201901221700 TAF LRCK 221700Z 2218/2318 12010KT 9999 OVC020
                      BECMG 2223/2301 BKN010 OVC020
                      BECMG 2303/2305 21010KT 5000 -RA BR
                      BECMG 2308/2310 9999 NSW BKN025
                      TEMPO 2315/2318 5000 -RA BR BKN015 BKN025=
201901222300 TAF LRCK 222300Z 2300/2324 14012KT 9999 BKN010 OVC020
                      BECMG 2303/2305 21010KT 5000 -RA BR
                      BECMG 2308/2310 9999 NSW BKN025
                      TEMPO 2315/2320 5000 -RA BR BKN015 BKN025=
201901230500 TAF LRCK 230500Z 2306/2406 15012KT 5000 -RA BR BKN010 OVC030
                      TEMPO 2306/2308 3000 RA BKN005 OVC020
                      BECMG 2308/2310 21010KT 9999 NSW BKN035
                      BECMG 2317/2319 5000 -RA BR BKN010 BKN030
                       TEMPO 2319/2324 3000 RA BR BKN005 OVC025
                       TEMPO 2400/2404 1500 -RADZ BR OVC005
                      BECMG 2404/2406 15010KT=
201901231100 TAF LRCK 231100Z 2312/2412 24012KT CAVOK
                      BECMG 2315/2317 VRB04KT BKN015
                      BECMG 2318/2320 18010KT 5000 -RA BKN010 OVC030
                       TEMPO 2320/2324 3000 RA BR BKN005 OVC025
                       TEMPO 2400/2404 1500 -RADZ BR OVC002
                      BECMG 2408/2410 12008KT=
201901231607 TAF AMD LRCK 231607Z 2316/2412 VRB04KT 3000 BR NSC
                      BECMG 2318/2320 18010KT 5000 -RA BKN010 OVC030
                       TEMPO 2320/2324 3000 RA BR BKN005 OVC025
                       TEMPO 2400/2404 1500 -RADZ BR OVC002
                      BECMG 2408/2410 12008KT=
201901231700 TAF LRCK 231700Z 2318/2418 06008KT 3000 BR NSC
                      BECMG 2321/2323 17010KT 1500 RA BR BKN010
                       OVC030
                      TEMPO 2323/2406 0800 RA FG BKN005 OVC025
                       BECMG 2408/2410 11010KT 5000 BR
                      BECMG 2413/2415 05008KT 3000 BR BKN005=
201901232300 TAF AMD LRCK 240454Z 2404/2424 07010KT 0150 FG VV001
                      BECMG 2407/2409 0800 OVC002
                      BECMG 2409/2411 3000 -RA BR BKN005 OVC020
                       BECMG 2418/2420 1500 BR=
201901240454 TAF AMD LRCK 240454Z 2404/2424 07010KT 0150 FG VV001
                      BECMG 2407/2409 0800 OVC002
                      BECMG 2409/2411 3000 -RA BR BKN005 OVC020
                       BECMG 2418/2420 1500 BR=
201901240500 TAF LRCK 240500Z 2406/2506 07010KT 0100 FG VV001
                      BECMG 2407/2409 0800 OVC002
                      BECMG 2409/2411 3000 -RA BR BKN005 OVC020
                       TEMPO 2417/2423 1500 DZ BR BKN002 OVC010=
201901241100 TAF LRCK 241100Z 2412/2512 07012KT 3000 BR BKN015 OVC020
                      TEMPO 2412/2420 1500 -RA BR BKN002 OVC020
                       TEMPO 2422/2504 1500 -DZ BR BKN001 OVC005
                       PROB30 2500/2503 0800 DZ FG
                      TEMPO 2504/2510 1500 RA BR BKN005 OVC020=
201901241351 TAF AMD LRCK 241351Z 2413/2512 07012KT 0800 FG OVC002
                      TEMPO 2413/2420 0350 DZ FG VV001
                      TEMPO 2422/2506 1500 -DZ BR BKN001 OVC005
                       BECMG 2506/2508 1500 RA BR BKN005 OVC020=
201901241700 TAF LRCK 241700Z 2418/2518 04018KT 0350 FG BKN002 OVC010
                      TEMPO 2418/2424 0150 -RA FG BKN001 OVC005
                       PROB30
                      TEMPO 2500/2506 1500 -RA BR BKN005 OVC015
                       BECMG 2506/2508 1500 -RA BR BKN005 OVC020
                       TEMPO 2512/2516 3000 BKN010 OVC025
                      BECMG 2516/2518 VRB04KT 0800 -DZ FG OVC001=
201901242300 TAF AMD LRCK 250353Z 2503/2524 03016KT 0300 -DZ FG OVC001
                      BECMG 2505/2507 1500 -RA BR BKN002 OVC015
                       BECMG 2507/2509 3000 BR BKN005 OVC020
                      TEMPO 2510/2515 5000 BKN010 BKN025
                      BECMG 2516/2518 1500 BR
                      BECMG 2518/2520 0600 FG OVC002
                      TEMPO 2520/2524 0150 FG VV001=
201901250353 TAF AMD LRCK 250353Z 2503/2524 03016KT 0300 -DZ FG OVC001
                      BECMG 2505/2507 1500 -RA BR BKN002 OVC015
                       BECMG 2507/2509 3000 BR BKN005 OVC020
                      TEMPO 2510/2515 5000 BKN010 BKN025
                      BECMG 2516/2518 1500 BR
                      BECMG 2518/2520 0600 FG OVC002
                      TEMPO 2520/2524 0150 FG VV001=
201901250500 TAF LRCK 250500Z 2506/2606 03016KT 0350 FG OVC002
                      TEMPO 2506/2509 0150 -DZ FG BKN001 OVC015
                       TEMPO 2511/2514 1500 BR BKN005 OVC020
                      TEMPO 2520/2602 0150 -DZ FG VV001
                      BECMG 2602/2604 0600 -RA=
201901251100 TAF LRCK 251100Z 2512/2612 04016KT 0300 -DZ FG VV001
                      TEMPO 2512/2517 0600 FG BKN002
                      TEMPO 2520/2602 0150 -DZ FG VV001
                      BECMG 2602/2604 1500 -RA BKN005 OVC025
                      PROB40 TEMPO 2604/2609 3000 RA=
201901251355 TAF COR LRCK 251355Z 2512/2612 04016KT 0300 -DZ FG VV001
                      TEMPO 2512/2517 0600 FG BKN002
                      TEMPO 2520/2602 0150 -DZ FG
                      BECMG 2602/2604 1500 -RA BKN005 OVC025
                      PROB40 TEMPO 2604/2609 3000 RA=
201901251700 TAF LRCK 251700Z 2518/2618 04016KT 0350 FG VV001
                      TEMPO 2600/2605 0800 -RA FG BKN002 OVC010
                       PROB40 2600/2605 -FZRA FG
                      BECMG 2605/2607 1500 RA BR BKN005 OVC020
                       TEMPO 2614/2618 0600 DZ FG BKN002 OVC005=
201901252300 TAF LRCK 252300Z 2600/2624 04014KT 0150 DZ FG VV001
                      TEMPO 2600/2605 0600 -RA FG BKN002 OVC010
                       PROB30 2600/2603 -FZRA FG
                      BECMG 2605/2607 0800 -RA FG BKN002 OVC010
                       BECMG 2607/2609 1500 RA BR BKN005 OVC020
                       TEMPO 2614/2618 0600 DZ FG BKN002 OVC005
                       BECMG 2618/2620 28014KT 1500 BR=
201901260500 TAF LRCK 260500Z 2606/2706 04014KT 0100 DZ FG VV001
                      BECMG 2607/2609 0600 -RA FG BKN002 OVC010
                       BECMG 2610/2612 1500 RA BR BKN005 OVC020
                       TEMPO 2613/2618 0600 DZ FG BKN002 OVC005
                       BECMG 2618/2620 28012KT 3000 BR BKN005=
201901260936 TAF AMD LRCK 260936Z 2609/2706 04014KT 5000 -RA BR BKN002 OVC020
                       TEMPO 2610/2613 3000 DZ BR
                      BECMG 2616/2618 28012KT 3000 BR OVC005=
201901261100 TAF LRCK 261100Z 2612/2712 04018KT 9999 BKN010 OVC030
                      TEMPO 2612/2614 5000 -DZ BR BKN005 OVC020
                       BECMG 2616/2618 29012KT 3000 BR OVC005
                      TEMPO 2703/2709 1500 -SN BR BKN002 OVC015
                       BECMG 2710/2712 9999 NSW BKN015 BKN030=
201901261539 TAF AMD LRCK 261539Z 2615/2712 VRB04KT 0800 -DZ FG BKN002 OVC010
                       TEMPO 2617/2620 1500 -DZ BR BKN005 OVC015
                       BECMG 2620/2622 29012KT 3000 BR BKN005 OVC015
                       PROB40
                      TEMPO 2703/2709 1500 -SN BR BKN002 OVC010
                       BECMG 2710/2712 6000 NSW BKN015 BKN030=
201901261700 TAF LRCK 261700Z 2618/2718 29010KT 1500 -FZDZ BKN002 OVC010
                      TEMPO 2618/2620 3000 BKN005 OVC015
                      BECMG 2620/2622 3000 BR BKN005 OVC015
                      PROB40 TEMPO 2703/2709 1500 -SN BR BKN002
                       OVC010
                      BECMG 2709/2711 9999 NSW BKN030
                      BECMG 2716/2718 VRB04KT=
201901262300 TAF LRCK 262300Z 2700/2724 27014KT 3000 BR BKN005 OVC020
                      TEMPO 2700/2704 1500 BR OVC002
                      PROB40 TEMPO 2704/2709 1500 -SN BR BKN002
                       OVC010
                      BECMG 2709/2711 9999 NSW BKN015 BKN030
                      BECMG 2711/2713 SCT020
                      BECMG 2716/2718 VRB04KT 5000 BR=
201901270500 TAF LRCK 270500Z 2706/2806 29012KT 3000 BR BKN005 OVC020
                      TEMPO 2706/2708 1500 -SN BR BKN002 OVC020
                       BECMG 2708/2710 9999 NSW BKN015 BKN030
                      BECMG 2710/2712 VRB04KT BKN020
                      BECMG 2718/2720 5000 BR
                      TEMPO 2720/2804 3000 BR BKN010
                      BECMG 2804/2806 18010KT=
201901270837 TAF AMD LRCK 270837Z 2708/2806 29010KT 0200 FZFG VV001
                      BECMG 2710/2712 0800 OVC003
                      BECMG 2712/2714 VRB04KT 3000 BR BKN010
                      TEMPO 2714/2718 5000 BKN015
                      TEMPO 2720/2804 1500 BR BKN005
                      BECMG 2804/2806 18010KT=
201901271007 TAF AMD LRCK 271007Z 2710/2806 29006KT 3000 BR BKN003 OVC045
                      BECMG 2710/2712 5000 BKN010 BKN045
                      BECMG 2712/2714 9999 NSW BKN045
                      BECMG 2716/2718 5000 BR
                      TEMPO 2720/2804 1500 BR BKN005
                      BECMG 2804/2806 18010KT=
201901271100 TAF LRCK 271100Z 2712/2812 29006KT 3000 BR OVC005
                      PROB40 TEMPO 2713/2717 7000 NSW BKN015 BKN045
                       TEMPO 2720/2804 1500 BR BKN002
                      BECMG 2804/2806 18010KT
                      BECMG 2807/2809 7000 NSW BKN010 BKN020=
201901271700 TAF LRCK 271700Z 2718/2818 16008KT 3000 BR BKN035
                      TEMPO 2719/2804 1500 BR BKN005
                      PROB30 TEMPO 2722/2804 0600 FZFG BKN002
                      BECMG 2806/2808 9999 NSW BKN020=
201901272300 TAF LRCK 272300Z 2800/2824 16008KT 1500 BR SCT010 SCT035
                      TEMPO 2800/2806 0600 FZFG BKN002
                      PROB30 TEMPO 2801/2805 0150 FZFG VV001
                      BECMG 2807/2809 9999 NSW BKN020=
201901280500 TAF LRCK 280500Z 2806/2906 16010KT 5000 BR BKN030
                      TEMPO 2806/2808 1500 BR BKN005
                      BECMG 2808/2810 9999 NSW
                      TEMPO 2900/2906 3000 BR=
201901281100 TAF LRCK 281100Z 2812/2912 16015KT 9999 BKN010
                      BECMG 2815/2817 5000 BR BKN005
                      TEMPO 2900/2906 3000 BR BKN002=
201901281700 TAF LRCK 281700Z 2818/2918 17012KT 3000 BR BKN003 BKN025
                      BECMG 2820/2822 1500 BR
                      PROB40 TEMPO 2823/2906 0600 FG OVC002
                      BECMG 2907/2909 9999 NSW BKN025=
201901282230 TAF AMD LRCK 282230Z 2822/2918 17012KT 6000 NSC
                      BECMG 2900/2902 3000 BR
                      PROB30 TEMPO 2902/2906 0600 FG OVC002
                      BECMG 2907/2909 9999 NSW=
201901282300 TAF LRCK 282300Z 2900/2924 19012KT 6000 NSC
                      BECMG 2901/2903 3000 BR
                      PROB30 TEMPO 2903/2906 0600 FG OVC002
                      BECMG 2906/2908 9999 NSW
                      TEMPO 2919/2924 3000 BR=
201901290500 TAF LRCK 290500Z 2906/3006 23008KT 3000 BR NSC
                      TEMPO 2906/2908 1500 BR
                      BECMG 2908/2910 17012KT 9999 NSW
                      BECMG 2920/2922 3000 BR
                      TEMPO 3000/3006 1500 BR BKN005=
201901291129 TAF COR LRCK 291129Z 2912/3012 18015KT 9999 BKN030
                      BECMG 2920/2922 3000 BR BKN010
                      TEMPO 3000/3006 1500 BR BKN005
                      BECMG 3007/3009 CAVOK=
201901291700 TAF LRCK 291700Z 2918/3018 18012KT CAVOK
                      TEMPO 2920/3003 3000 -RA BR BKN010 BKN040
                       BECMG 3015/3017 11010KT 3000 BR=
201901292300 TAF LRCK 292300Z 3000/3024 18012KT CAVOK
                      TEMPO 3000/3003 3000 -RA BR BKN010 BKN040
                       BECMG 3015/3017 11010KT 3000 BR
                      TEMPO 3020/3024 1500 BR BKN005=
201901300500 TAF LRCK 300500Z 3006/3106 12008KT 5000 BR NSC
                      TEMPO 3006/3008 1500 BR
                      BECMG 3008/3010 9999 NSW
                      BECMG 3015/3017 3000 BR
                      BECMG 3022/3024 19010KT
                      TEMPO 3100/3106 1500 BR BKN005=
201901301100 TAF LRCK 301100Z 3012/3112 13008KT CAVOK
                      BECMG 3016/3018 3000 BR
                      PROB30 TEMPO 3018/3024 0800 FG OVC002
                      BECMG 3100/3102 19010KT
                      TEMPO 3100/3106 1500 BR BKN005
                      BECMG 3107/3109 7000 NSW=
201901301700 TAF LRCK 301700Z 3018/3118 10008KT 1500 BR NSC
                      BECMG 3019/3021 0800 FG BKN002
                      TEMPO 3100/3106 0350 FG OVC001
                      BECMG 3106/3108 18010KT 3000 BR SCT010
                      BECMG 3108/3110 CAVOK
                      BECMG 3115/3117 3000 BR BKN010=
201901302300 TAF LRCK 302300Z 3100/3124 06007KT 3000 BR NSC
                      TEMPO 3100/3106 0800 FG BKN002
                      BECMG 3106/3108 18010KT 5000 SCT010
                      BECMG 3110/3112 CAVOK
                      BECMG 3120/3122 VRB04KT 3000 RA BR BKN005
                       OVC030=
201901310500 TAF LRCK 310500Z 3106/0106 12008KT 5000 BR SCT025
                      BECMG 3107/3109 18012KT 9999 NSW
                      BECMG 3117/3119 VRB04KT 3000 BR
                      BECMG 3120/3122 30012KT 1500 RA BR BKN005
                       OVC025
                      PROB30 TEMPO 0100/0104 0800 RADZ BKN002 OVC020
                       BECMG 0104/0106 BR BKN002 OVC005=
201901311100 TAF LRCK 311100Z 3112/0112 18012KT 9999 SCT025 SCT045
                      BECMG 3117/3119 VRB04KT 3000 BR
                      BECMG 3120/3122 30012KT BKN005 OVC025
                      TEMPO 3122/0104 1500 RADZ BKN002 OVC020
                      BECMG 0105/0107 5000 BR
                      BECMG 0108/0110 9999 NSW SCT010=
201901311700 TAF LRCK 311700Z 3118/0118 VRB04KT CAVOK
                      BECMG 3119/3121 5000 -RA BKN015 OVC040
                      TEMPO 3121/0103 3000 RA BKN010 OVC030
                      PROB30 TEMPO 3122/0102 1500 SHRA BKN005 BKN025
                       SCT030CB
                      BECMG 0101/0103 29014KT
                      BECMG 0106/0108 CAVOK
                      BECMG 0116/0118 VRB04KT 5000 BR=
201901312300 TAF AMD LRCK 010445Z 0104/0124 29014KT 0800 FG OVC002
                      TEMPO 0106/0107 0600 FG OVC001
                      BECMG 0107/0109 3000 BR SCT005 BKN030
                      BECMG 0109/0111 CAVOK
                      BECMG 0117/0119 VRB04KT 5000 BR
                      BECMG 0120/0122 3000 BR=
