201901010000 METAR LRCK 010000Z 36007KT 7000 FEW011 M00/M01 Q1027 NOSIG=
201901010030 METAR LRCK 010030Z 02005KT 360V140 7000 NSC M00/M00 Q1027
                        NOSIG=
201901010100 METAR LRCK 010100Z 01004KT 8000 NSC M00/M01 Q1027 NOSIG=
201901010130 METAR LRCK 010130Z 02006KT 9000 NSC 00/00 Q1027 NOSIG=
201901010200 METAR COR LRCK 010200Z 03006KT 9000 FEW009 01/00 Q1027 NOSIG=
201901010230 METAR LRCK 010230Z 01007KT 8000 FEW010 00/M00 Q1027 NOSIG=
201901010300 METAR LRCK 010300Z 01007KT 8000 SCT018 00/M00 Q1027 NOSIG=
201901010330 METAR COR LRCK 010330Z 36007KT 8000 BKN022 M00/M01 Q1027
                        NOSIG=
201901010400 METAR LRCK 010400Z 01007KT 8000 SCT023 M01/M01 Q1027 NOSIG=
201901010430 METAR LRCK 010430Z 36009KT 8000 NSC M01/M01 Q1027 NOSIG=
201901010500 METAR LRCK 010500Z 01009KT 8000 SCT022 M00/M01 Q1027 NOSIG=
201901010530 METAR LRCK 010530Z 36008KT 6000 BKN017 M00/M01 Q1027 NOSIG=
201901010600 METAR LRCK 010600Z 02008KT 7000 FEW017 SCT025 M00/M01 Q1027
                        NOSIG=
201901010630 METAR LRCK 010630Z 01007KT 6000 SCT023 00/00 Q1027 NOSIG=
201901010700 METAR LRCK 010700Z 02006KT 7000 FEW023 01/00 Q1027 NOSIG=
201901010730 METAR LRCK 010730Z 01005KT 7000 FEW023 01/00 Q1027 NOSIG=
201901010800 METAR LRCK 010800Z 02007KT 7000 FEW030 03/01 Q1027 NOSIG=
201901010830 METAR LRCK 010830Z 02008KT 8000 BKN030 03/02 Q1027 NOSIG=
201901010900 METAR LRCK 010900Z 02007KT 9999 BKN024 04/03 Q1027 NOSIG=
201901010930 METAR LRCK 010930Z 03006KT 9999 BKN028 04/02 Q1026 NOSIG=
201901011000 METAR LRCK 011000Z 05006KT 9999 BKN028 04/03 Q1026 NOSIG=
201901011030 METAR LRCK 011030Z 06005KT 9999 BKN029 05/03 Q1025 NOSIG=
201901011100 METAR LRCK 011100Z 04004KT 360V080 9999 SCT012 BKN028 04/02
                        Q1024 NOSIG=
201901011130 METAR LRCK 011130Z 06003KT 010V090 9999 BKN012 BKN023 05/02
                        Q1024 NOSIG=
201901011200 METAR LRCK 011200Z VRB02KT 9999 BKN012 BKN023 05/02 Q1024
                        NOSIG=
201901011230 METAR LRCK 011230Z 29007KT 9999 BKN012 BKN027 04/02 Q1024
                        NOSIG=
201901011300 METAR LRCK 011300Z 28007KT 9999 BKN014 05/02 Q1023 NOSIG=
201901011330 METAR LRCK 011330Z 28008KT 9999 BKN016 04/01 Q1023 NOSIG=
201901011400 METAR LRCK 011400Z 29007KT 9999 BKN018 03/00 Q1023 NOSIG=
201901011430 METAR LRCK 011430Z 28007KT 9999 BKN021 03/00 Q1023 NOSIG=
201901011500 METAR LRCK 011500Z 26007KT 7000 SCT025 01/M00 Q1022 NOSIG=
201901011530 METAR COR LRCK 011530Z 27006KT 5000 BR FEW025 M00/M01 Q1022
                        NOSIG=
201901011600 METAR LRCK 011600Z 26009KT 4000 BR FEW022 M00/M01 Q1022 NOSIG=
201901011630 METAR LRCK 011630Z 27010KT 4000 BR NSC M00/M01 Q1022 NOSIG=
201901011700 METAR LRCK 011700Z 27009KT 4000 BR SCT006 M01/M01 Q1022 NOSIG=
201901011730 METAR LRCK 011730Z 26010KT 4000 BR BKN006 M01/M01 Q1021 NOSIG=
201901011800 METAR LRCK 011800Z 26009KT 4000 BR BKN006 M01/M01 Q1021 NOSIG=
201901011830 METAR LRCK 011830Z 26009KT 7000 FEW006 M01/M02 Q1021 NOSIG=
201901011900 METAR LRCK 011900Z 27009KT 8000 NSC M01/M02 Q1020 NOSIG=
201901011930 METAR LRCK 011930Z 27010KT 8000 NSC M01/M02 Q1020 NOSIG=
201901012000 METAR LRCK 012000Z 27010KT 8000 NSC M01/M02 Q1019 NOSIG=
201901012030 METAR LRCK 012030Z 27012KT 8000 FEW007 M01/M02 Q1019 NOSIG=
201901012100 METAR LRCK 012100Z 26010KT 7000 SCT006 M01/M02 Q1019 NOSIG=
201901012130 METAR LRCK 012130Z 26010KT 7000 BKN005 M01/M02 Q1018 NOSIG=
201901012200 METAR LRCK 012200Z 25012KT 7000 BKN005 M01/M01 Q1018 NOSIG=
201901012230 METAR LRCK 012230Z 25011KT 7000 OVC005 M01/M02 Q1017 NOSIG=
201901012300 METAR LRCK 012300Z 25011KT 7000 BKN006 M01/M02 Q1017 NOSIG=
201901012330 METAR LRCK 012330Z 25011KT 8000 BKN006 M01/M02 Q1016 NOSIG=
201901020000 METAR LRCK 020000Z 26011KT 8000 OVC006 M01/M02 Q1016 NOSIG=
201901020030 METAR LRCK 020030Z 26012KT 8000 BKN007 M01/M02 Q1016 NOSIG=
201901020100 METAR LRCK 020100Z 26010KT 9999 OVC007 M01/M02 Q1015 NOSIG=
201901020130 METAR LRCK 020130Z 26013KT 9999 OVC007 M01/M02 Q1015 NOSIG=
201901020200 METAR LRCK 020200Z 24011KT 9999 OVC007 M01/M02 Q1014 NOSIG=
201901020230 METAR LRCK 020230Z 25013KT 9999 OVC008 M01/M02 Q1014 NOSIG=
201901020300 METAR LRCK 020300Z 25012KT 9999 OVC008 M01/M02 Q1014 NOSIG=
201901020330 METAR LRCK 020330Z 24010KT 9999 OVC010 M01/M02 Q1013 NOSIG=
201901020400 METAR LRCK 020400Z 24009KT 9999 OVC011 M01/M02 Q1013 NOSIG=
201901020430 METAR LRCK 020430Z 24009KT 9999 OVC012 M01/M02 Q1013 NOSIG=
201901020500 METAR LRCK 020500Z 23006KT 8000 BKN014 M02/M03 Q1012 NOSIG=
201901020530 METAR LRCK 020530Z 21008KT 8000 BKN015 M02/M03 Q1012 NOSIG=
201901020600 METAR LRCK 020600Z 21006KT 8000 FEW017 M03/M03 Q1012 NOSIG=
201901020630 METAR LRCK 020630Z 23008KT 7000 SCT017 M01/M02 Q1012 NOSIG=
201901020700 METAR LRCK 020700Z 23008KT 7000 BKN018 M00/M01 Q1012 NOSIG=
201901020730 METAR LRCK 020730Z 24010KT 8000 BKN017 01/M01 Q1012 NOSIG=
201901020800 METAR LRCK 020800Z 23011KT 8000 BKN016 01/M01 Q1011 NOSIG=
201901020830 METAR LRCK 020830Z 23010KT 9999 BKN017 02/00 Q1011 NOSIG=
201901020900 METAR LRCK 020900Z 24013KT 9999 BKN017 03/M01 Q1011 NOSIG=
201901020930 METAR LRCK 020930Z 24015KT 9999 SCT016 03/M01 Q1010 NOSIG=
201901021000 METAR LRCK 021000Z 25015KT 9999 BKN015 03/M01 Q1009 NOSIG=
201901021030 METAR LRCK 021030Z 25017KT 9999 BKN015 04/M00 Q1009 NOSIG=
201901021100 METAR LRCK 021100Z 26017KT 9999 SCT015 03/M01 Q1009 NOSIG=
201901021130 METAR LRCK 021130Z 26016KT 9999 SCT015 03/M01 Q1008 NOSIG=
201901021200 METAR LRCK 021200Z 26013KT 9999 SCT014 03/M00 Q1008 NOSIG=
201901021230 METAR LRCK 021230Z 27010KT 9999 FEW015 SCT021 03/M00 Q1008
                        NOSIG=
201901021300 METAR LRCK 021300Z 26011KT 9999 FEW015 SCT021 03/00 Q1008
                        NOSIG=
201901021330 METAR LRCK 021330Z 25009KT 9999 FEW021 03/M00 Q1008 NOSIG=
201901021400 METAR LRCK 021400Z 29007KT 7000 FEW025 03/00 Q1008 NOSIG=
201901021430 METAR LRCK 021430Z 29009KT 5000 BR NSC 02/00 Q1008 NOSIG=
201901021500 METAR LRCK 021500Z 28008KT 4000 BR NSC 01/M00 Q1009 NOSIG=
201901021530 METAR LRCK 021530Z 28008KT 5000 BR SCT021 01/M00 Q1009 NOSIG=
201901021600 METAR LRCK 021600Z 27006KT 5000 BR BKN020 01/M00 Q1009 NOSIG=
201901021630 METAR LRCK 021630Z 27005KT 5000 BR BKN014 01/M00 Q1009 NOSIG=
201901021700 METAR LRCK 021700Z 25005KT 4000 BR BKN015 01/M00 Q1009 NOSIG=
201901021730 METAR LRCK 021730Z 26004KT 4000 BR SCT015 M00/M01 Q1009 NOSIG=
201901021800 METAR LRCK 021800Z 28007KT 4000 BR SCT015 M00/M01 Q1009 NOSIG=
201901021830 METAR LRCK 021830Z 25008KT 4000 BR FEW015 M01/M01 Q1009 NOSIG=
201901021900 METAR LRCK 021900Z 27007KT 4000 BR NSC M00/M01 Q1010 NOSIG=
201901021930 METAR LRCK 021930Z 28008KT 4000 BR NSC M00/M01 Q1010 NOSIG=
201901022000 METAR LRCK 022000Z 27010KT 4000 BR NSC M00/M01 Q1010 NOSIG=
201901022030 METAR LRCK 022030Z 28010KT 4000 BR NSC M01/M01 Q1010 NOSIG=
201901022100 METAR LRCK 022100Z 28009KT 3500 BR NSC M01/M01 Q1010 NOSIG=
201901022130 METAR LRCK 022130Z 28010KT 3500 BR NSC M00/M01 Q1010 NOSIG=
201901022200 METAR LRCK 022200Z 28009KT 3500 BR NSC 00/M01 Q1010 NOSIG=
201901022230 METAR LRCK 022230Z 28009KT 3500 BR NSC M00/M01 Q1010 NOSIG=
201901022300 METAR LRCK 022300Z 28009KT 3000 BR NSC M00/M01 Q1010 NOSIG=
201901022330 METAR LRCK 022330Z 28010KT 3000 BR NSC M00/M01 Q1010 NOSIG=
201901030000 METAR LRCK 030000Z 29008KT 3000 BR NSC M01/M01 Q1011 NOSIG=
201901030030 METAR LRCK 030030Z 28009KT 2500 BR NSC M01/M02 Q1011 BECMG
                        1500 BR=
201901030100 METAR LRCK 030100Z 26009KT 2500 BR NSC M01/M02 Q1011 NOSIG=
201901030130 METAR LRCK 030130Z 27009KT 3000 BR NSC M02/M02 Q1011 NOSIG=
201901030200 METAR LRCK 030200Z 28009KT 2000 BR SCT001 M02/M02 Q1011 NOSIG=
201901030230 METAR LRCK 030230Z 28010KT 2000 BR SCT001 M02/M02 Q1011 NOSIG=
201901030300 METAR LRCK 030300Z 29009KT 2500 BR SCT001 M02/M03 Q1011 NOSIG=
201901030330 METAR LRCK 030330Z 29008KT 3000 BR SCT001 M03/M03 Q1012 NOSIG=
201901030400 METAR LRCK 030400Z 29008KT 3000 BR FEW001 M03/M03 Q1012 NOSIG=
201901030430 METAR LRCK 030430Z 29009KT 3000 BR NSC M03/M03 Q1012 BECMG
                        5000=
201901030500 METAR LRCK 030500Z 30009KT 1500 BR NSC M03/M03 Q1012 TEMPO
                        0800=
201901030530 METAR LRCK 030530Z 29008KT 1500 BR FEW002 M03/M04 Q1013 NOSIG=
201901030600 METAR LRCK 030600Z 29008KT 2000 BR NSC M04/M04 Q1013 NOSIG=
201901030630 METAR LRCK 030630Z 30008KT 3000 BR NSC M03/M03 Q1013 NOSIG=
201901030700 METAR LRCK 030700Z 27004KT 240V300 4000 BR NSC M03/M03 Q1014
                        NOSIG=
201901030730 METAR LRCK 030730Z 25004KT 5000 BR NSC M02/M03 Q1014 NOSIG=
201901030800 METAR LRCK 030800Z 23004KT 6000 NSC M01/M02 Q1014 NOSIG=
201901030830 METAR LRCK 030830Z 26005KT 6000 NSC M01/M01 Q1015 NOSIG=
201901030900 METAR LRCK 030900Z 28006KT 8000 NSC 01/M00 Q1015 NOSIG=
201901030930 METAR LRCK 030930Z 29005KT CAVOK 02/M01 Q1014 NOSIG=
201901031000 METAR LRCK 031000Z 33004KT 300V010 CAVOK 03/M00 Q1014 NOSIG=
201901031030 METAR LRCK 031030Z 33006KT 290V010 9999 FEW020 04/00 Q1014
                        NOSIG=
201901031100 METAR LRCK 031100Z 02007KT 9999 FEW018 04/M00 Q1014 NOSIG=
201901031130 METAR LRCK 031130Z 02008KT 9999 FEW018 04/01 Q1014 NOSIG=
201901031200 METAR LRCK 031200Z 01009KT 9999 FEW018 04/00 Q1014 NOSIG=
201901031230 METAR LRCK 031230Z 03008KT 9999 FEW021 05/M00 Q1015 NOSIG=
201901031300 METAR LRCK 031300Z 02010KT 9999 FEW023 04/01 Q1015 NOSIG=
201901031330 METAR LRCK 031330Z 03010KT 9999 FEW023 03/M00 Q1015 NOSIG=
201901031400 METAR LRCK 031400Z 01008KT 9999 FEW025 02/M01 Q1015 NOSIG=
201901031430 METAR LRCK 031430Z 01007KT CAVOK 01/M01 Q1015 NOSIG=
201901031500 METAR LRCK 031500Z 03008KT 9999 FEW047 01/M01 Q1016 NOSIG=
201901031530 METAR LRCK 031530Z 01007KT 9999 FEW048 00/M01 Q1016 NOSIG=
201901031600 METAR LRCK 031600Z 01009KT CAVOK 00/M01 Q1015 NOSIG=
201901031630 METAR LRCK 031630Z 01011KT CAVOK 01/M01 Q1015 NOSIG=
201901031700 METAR LRCK 031700Z 01011KT CAVOK 01/M01 Q1015 NOSIG=
201901031730 METAR LRCK 031730Z 02013KT CAVOK 00/M01 Q1015 NOSIG=
201901031800 METAR LRCK 031800Z 02014KT CAVOK 00/M02 Q1015 NOSIG=
201901031830 METAR LRCK 031830Z 01014KT CAVOK 00/M02 Q1014 NOSIG=
201901031900 METAR LRCK 031900Z 01015KT CAVOK 00/M02 Q1014 NOSIG=
201901031930 METAR LRCK 031930Z 01017KT CAVOK 00/M03 Q1014 NOSIG=
201901032000 METAR LRCK 032000Z 01016KT CAVOK 00/M02 Q1014 NOSIG=
201901032030 METAR LRCK 032030Z 02018KT CAVOK M00/M02 Q1014 NOSIG=
201901032100 METAR LRCK 032100Z 02017KT CAVOK M00/M03 Q1014 NOSIG=
201901032130 METAR LRCK 032130Z 02018KT CAVOK M00/M03 Q1014 NOSIG=
201901032200 METAR LRCK 032200Z 01020KT CAVOK M01/M04 Q1014 NOSIG=
201901032230 METAR LRCK 032230Z 01020KT CAVOK M01/M04 Q1014 NOSIG=
201901032300 METAR LRCK 032300Z 36020KT CAVOK M01/M05 Q1014 NOSIG=
201901032330 METAR LRCK 032330Z 36019KT CAVOK M01/M05 Q1015 NOSIG=
201901040000 METAR LRCK 040000Z 36019KT 9999 SCT049 M01/M05 Q1015 NOSIG=
201901040030 METAR LRCK 040030Z 36019KT 9999 SCT049 M01/M05 Q1016 NOSIG=
201901040100 METAR LRCK 040100Z 36022KT 9999 BKN048 M01/M05 Q1016 NOSIG=
201901040130 METAR LRCK 040130Z 36022KT CAVOK M01/M06 Q1015 NOSIG=
201901040200 METAR LRCK 040200Z 35023KT CAVOK M02/M06 Q1015 NOSIG=
201901040230 METAR LRCK 040230Z 35025KT CAVOK M02/M07 Q1015 NOSIG=
201901040300 METAR LRCK 040300Z 35022KT CAVOK M02/M07 Q1014 NOSIG=
201901040330 METAR LRCK 040330Z 35023KT CAVOK M02/M07 Q1014 NOSIG=
201901040400 METAR LRCK 040400Z 35022KT CAVOK M03/M08 Q1014 NOSIG=
201901040430 METAR LRCK 040430Z 35018KT CAVOK M03/M08 Q1015 NOSIG=
201901040500 METAR LRCK 040500Z 35015KT CAVOK M03/M08 Q1016 NOSIG=
201901040530 METAR LRCK 040530Z 35016KT CAVOK M03/M08 Q1016 NOSIG=
201901040600 METAR LRCK 040600Z 34017KT CAVOK M03/M08 Q1017 NOSIG=
201901040630 METAR LRCK 040630Z 34014KT 9999 FEW010 M03/M08 Q1018 TEMPO
                        35015G25KT=
201901040700 METAR LRCK 040700Z 33015KT 9999 FEW010 M03/M08 Q1018 TEMPO
                        35015G25KT=
201901040730 METAR LRCK 040730Z 34015KT 9999 FEW010 M02/M08 Q1019 TEMPO
                        35015G25KT=
201901040800 METAR LRCK 040800Z 33015KT 9999 FEW010 M02/M08 Q1019 NOSIG=
201901040830 METAR LRCK 040830Z 33016KT 9999 FEW010 M02/M07 Q1020 NOSIG=
201901040900 METAR LRCK 040900Z 32017KT 9999 FEW010 M02/M08 Q1020 NOSIG=
201901040930 METAR LRCK 040930Z 32016KT 9999 FEW010 M01/M08 Q1020 NOSIG=
201901041000 METAR LRCK 041000Z 32017KT 9999 FEW030 M01/M08 Q1020 NOSIG=
201901041030 METAR LRCK 041030Z 32016KT 9999 FEW030 M01/M09 Q1021 NOSIG=
201901041100 METAR LRCK 041100Z 32019KT 9999 FEW035 M01/M09 Q1021 NOSIG=
201901041130 METAR LRCK 041130Z 33014KT 9999 SCT034 00/M08 Q1021 NOSIG=
201901041200 METAR LRCK 041200Z 33016KT 9999 BKN033 M01/M08 Q1022 NOSIG=
201901041230 METAR LRCK 041230Z 33016KT 9999 BKN034 M01/M09 Q1022 NOSIG=
201901041300 METAR LRCK 041300Z 32018KT 9999 FEW038 M00/M09 Q1022 NOSIG=
201901041330 METAR LRCK 041330Z 33013KT 9999 FEW040 M01/M08 Q1023 NOSIG=
201901041400 METAR LRCK 041400Z 32012KT 9999 FEW040 M01/M08 Q1023 NOSIG=
201901041430 METAR LRCK 041430Z 32011KT 9999 SCT043 M02/M08 Q1023 NOSIG=
201901041500 METAR LRCK 041500Z 32009KT 9999 SCT043 M02/M08 Q1024 NOSIG=
201901041530 METAR LRCK 041530Z 32008KT 9999 BKN044 M02/M08 Q1024 NOSIG=
201901041600 METAR LRCK 041600Z 31007KT 9999 BKN043 M02/M08 Q1024 NOSIG=
201901041630 METAR LRCK 041630Z 29006KT 9999 BKN043 M02/M07 Q1024 NOSIG=
201901041700 METAR LRCK 041700Z 31007KT 9999 BKN043 M02/M07 Q1025 NOSIG=
201901041730 METAR LRCK 041730Z 30006KT 9999 SCT039 M02/M08 Q1024 NOSIG=
201901041800 METAR LRCK 041800Z 27004KT 9999 SCT034 M03/M07 Q1025 NOSIG=
201901041830 METAR LRCK 041830Z 29005KT 9999 FEW034 M04/M06 Q1024 NOSIG=
201901041900 METAR LRCK 041900Z 27005KT 230V290 CAVOK M04/M06 Q1025 NOSIG=
201901041930 METAR LRCK 041930Z 28006KT CAVOK M05/M07 Q1025 NOSIG=
201901042000 METAR LRCK 042000Z 27005KT CAVOK M05/M07 Q1024 NOSIG=
201901042030 METAR LRCK 042030Z 27005KT CAVOK M06/M07 Q1025 NOSIG=
201901042100 METAR LRCK 042100Z 25006KT CAVOK M06/M07 Q1025 NOSIG=
201901042130 METAR LRCK 042130Z 25007KT CAVOK M06/M07 Q1024 NOSIG=
201901042200 METAR LRCK 042200Z 25007KT CAVOK M06/M07 Q1024 NOSIG=
201901042230 METAR LRCK 042230Z 26008KT CAVOK M05/M06 Q1024 NOSIG=
201901042300 METAR COR LRCK 042300Z 27007KT CAVOK M06/M07 Q1024 NOSIG=
201901042330 METAR LRCK 042330Z 27007KT CAVOK M06/M07 Q1024 NOSIG=
201901050000 METAR COR LRCK 050000Z 32004KT CAVOK M08/M09 Q1023 NOSIG=
201901050030 METAR LRCK 050030Z 33002KT 8000 NSC M08/M09 Q1023 NOSIG=
201901050100 METAR COR LRCK 050100Z 31006KT 6000 NSC M08/M09 Q1023 NOSIG=
201901050130 METAR LRCK 050130Z 31007KT 6000 NSC M08/M09 Q1022 NOSIG=
201901050200 METAR LRCK 050200Z 30008KT 5000 MIFG BR NSC M07/M08 Q1022
                        NOSIG=
201901050230 METAR LRCK 050230Z 29006KT 3000 MIFG BR NSC M08/M09 Q1022
                        NOSIG=
201901050300 METAR LRCK 050300Z 28006KT 3000 MIFG BR NSC M09/M10 Q1021
                        TEMPO 1500 BR=
201901050330 METAR LRCK 050330Z 27005KT 3000 MIFG BR NSC M09/M09 Q1021
                        TEMPO 1500 BR=
201901050400 METAR LRCK 050400Z 27005KT 5000 BR NSC M08/M09 Q1021 NOSIG=
201901050430 METAR COR LRCK 050430Z 28006KT 5000 BR NSC M09/M10 Q1021
                        NOSIG=
201901050500 METAR LRCK 050500Z 29006KT 8000 NSC M09/M11 Q1021 NOSIG=
201901050530 METAR LRCK 050530Z 27006KT 8000 NSC M09/M11 Q1021 TEMPO 5000
                        BR=
201901050600 METAR LRCK 050600Z 28007KT 8000 FEW012 M08/M09 Q1021 TEMPO
                        5000 BR=
201901050630 METAR LRCK 050630Z 28009KT 0400 R36/0650D FZFG BKN001 M07/M08
                        Q1021 NOSIG=
201901050700 METAR LRCK 050700Z 28010KT 0400 R36/0650N FZFG BKN002 M06/M06
                        Q1020 NOSIG=
201901050730 METAR LRCK 050730Z 28011KT 0800 R36/1200U FZFG BKN002 M06/M06
                        Q1020 BECMG 1500 BR BKN005=
201901050800 METAR COR LRCK 050800Z 27011KT 2000 BR BKN003 M05/M06 Q1020
                        BECMG 5000 BKN010=
201901050830 METAR LRCK 050830Z 28011KT 2500 BR BKN004 M04/M05 Q1019 BECMG
                        5000 BKN010=
201901050900 METAR LRCK 050900Z 27012KT 3000 BR BKN004 M04/M04 Q1019 BECMG
                        5000 BKN010=
201901050930 METAR LRCK 050930Z 26010KT 5000 BR BKN005 M04/M04 Q1018 BECMG
                        9999 NSW BKN010=
201901051000 METAR LRCK 051000Z 27011KT 3500 BR BKN004 M04/M05 Q1018 BECMG
                        9999 NSW BKN010=
201901051030 METAR LRCK 051030Z 27010KT 5000 BR BKN005 M04/M05 Q1017 BECMG
                        9999 NSW BKN010=
201901051100 METAR LRCK 051100Z 26009KT 7000 BKN007 M02/M04 Q1017 BECMG
                        SCT010=
201901051130 METAR LRCK 051130Z 24009KT 220V280 9999 SCT010 M03/M05 Q1016
                        NOSIG=
201901051200 METAR LRCK 051200Z 25009KT 9999 BKN012 M02/M05 Q1016 BECMG
                        SCT015=
201901051230 METAR LRCK 051230Z 25012KT 9999 SCT015 M02/M05 Q1015 NOSIG=
201901051300 METAR LRCK 051300Z 25009KT 9999 BKN017 M01/M05 Q1015 NOSIG=
201901051330 METAR LRCK 051330Z 26012KT 9999 SCT015 M02/M06 Q1014 NOSIG=
201901051400 METAR LRCK 051400Z 26010KT 9999 FEW014 M03/M06 Q1014 NOSIG=
201901051430 METAR LRCK 051430Z 25010KT 9999 FEW014 M04/M06 Q1014 NOSIG=
201901051500 METAR LRCK 051500Z 24007KT 8000 NSC M06/M07 Q1014 NOSIG=
201901051530 METAR LRCK 051530Z 24007KT 8000 NSC M06/M07 Q1014 NOSIG=
201901051600 METAR LRCK 051600Z 24007KT 8000 NSC M06/M08 Q1014 NOSIG=
201901051630 METAR LRCK 051630Z 25008KT 6000 NSC M07/M08 Q1013 NOSIG=
201901051700 METAR LRCK 051700Z 22005KT 7000 NSC M08/M09 Q1014 NOSIG=
201901051730 METAR LRCK 051730Z 23006KT 7000 NSC M08/M09 Q1013 NOSIG=
201901051800 METAR LRCK 051800Z 25008KT 7000 NSC M08/M09 Q1013 NOSIG=
201901051830 METAR LRCK 051830Z 24008KT CAVOK M08/M09 Q1013 NOSIG=
201901051900 METAR LRCK 051900Z 25009KT CAVOK M07/M08 Q1013 NOSIG=
201901051930 METAR LRCK 051930Z 25011KT CAVOK M06/M07 Q1013 NOSIG=
201901052000 METAR LRCK 052000Z 26012KT CAVOK M06/M07 Q1012 NOSIG=
201901052030 METAR COR LRCK 052030Z 27013KT CAVOK M05/M07 Q1012 NOSIG=
201901052100 METAR LRCK 052100Z 26013KT CAVOK M06/M08 Q1011 NOSIG=
201901052130 METAR LRCK 052130Z 25009KT CAVOK M09/M10 Q1011 NOSIG=
201901052200 METAR LRCK 052200Z 25009KT CAVOK M08/M10 Q1011 NOSIG=
201901052230 METAR LRCK 052230Z 26010KT CAVOK M08/M09 Q1010 NOSIG=
201901052300 METAR LRCK 052300Z 26012KT CAVOK M07/M08 Q1010 NOSIG=
201901052330 METAR LRCK 052330Z 25010KT CAVOK M08/M10 Q1010 NOSIG=
201901060000 METAR LRCK 060000Z 25010KT CAVOK M07/M09 Q1010 NOSIG=
201901060030 METAR LRCK 060030Z 25011KT CAVOK M08/M09 Q1009 NOSIG=
201901060100 METAR LRCK 060100Z 26012KT CAVOK M08/M10 Q1009 NOSIG=
201901060130 METAR LRCK 060130Z 26010KT CAVOK M07/M09 Q1009 NOSIG=
201901060200 METAR LRCK 060200Z 26010KT CAVOK M08/M10 Q1009 NOSIG=
201901060230 METAR LRCK 060230Z 26007KT CAVOK M09/M11 Q1008 NOSIG=
201901060300 METAR LRCK 060300Z 26008KT CAVOK M08/M10 Q1008 NOSIG=
201901060330 METAR LRCK 060330Z 26011KT CAVOK M09/M11 Q1008 NOSIG=
201901060400 METAR LRCK 060400Z 26010KT CAVOK M10/M11 Q1008 NOSIG=
201901060430 METAR LRCK 060430Z 27010KT CAVOK M07/M09 Q1008 NOSIG=
201901060500 METAR LRCK 060500Z 29012KT CAVOK M08/M10 Q1008 NOSIG=
201901060530 METAR LRCK 060530Z 28012KT CAVOK M08/M10 Q1008 NOSIG=
201901060600 METAR LRCK 060600Z 29010KT CAVOK M08/M09 Q1008 NOSIG=
201901060630 METAR LRCK 060630Z 28009KT CAVOK M07/M08 Q1008 NOSIG=
201901060700 METAR LRCK 060700Z 28011KT CAVOK M06/M08 Q1008 NOSIG=
201901060730 METAR LRCK 060730Z 30011KT CAVOK M04/M06 Q1008 NOSIG=
201901060800 METAR LRCK 060800Z 30008KT 9999 FEW049 M03/M05 Q1008 NOSIG=
201901060830 METAR LRCK 060830Z 29008KT 8000 FEW010 SCT040 M03/M05 Q1009
                        NOSIG=
201901060900 METAR LRCK 060900Z 30008KT 2500 -SN BR FEW010 BKN045 M03/M05
                        Q1009 NOSIG=
201901060930 METAR LRCK 060930Z 29006KT 2500 -SN BR FEW030 BKN045 M03/M04
                        Q1009 NOSIG=
201901061000 METAR LRCK 061000Z 29007KT 1500 -SN BR SCT010 BKN045 M02/M03
                        Q1009 NOSIG=
201901061030 METAR LRCK 061030Z 30007KT 1500 -SN BR SCT008 BKN042 M02/M03
                        Q1009 R36/490295 NOSIG=
201901061100 METAR LRCK 061100Z 31008KT 3000 -SN BR SCT010 BKN040 M02/M03
                        Q1008 R36/490295 NOSIG=
201901061130 METAR LRCK 061130Z 32011KT 2500 -SN BR SCT009 BKN033 M01/M03
                        Q1008 R36/490295 NOSIG=
201901061200 METAR LRCK 061200Z 30011KT 1500 SN BR BKN007 BKN033 M02/M03
                        Q1009 R36/490295 BECMG 3000 -SN SCT010
                        BKN030=
201901061230 METAR LRCK 061230Z 32011KT 2500 -SN BR SCT008 BKN030 M02/M03
                        Q1009 R36/490295 NOSIG=
201901061300 METAR LRCK 061300Z 32010KT 3000 -SN BR SCT008 BKN030 M02/M03
                        Q1009 R36/490295 NOSIG=
201901061330 METAR LRCK 061330Z 32011KT 3000 -SN BR SCT007 BKN035 M02/M03
                        Q1010 R36/490295 NOSIG=
201901061400 METAR LRCK 061400Z 32012KT 5000 -SN BR FEW010 BKN040 M02/M03
                        Q1010 R36/450295 NOSIG=
201901061430 METAR LRCK 061430Z 33011KT 6000 FEW024 SCT045 M02/M03 Q1010
                        R36/450295 NOSIG=
201901061500 METAR LRCK 061500Z 34011KT 7000 SCT023 M02/M04 Q1010 R36/450295
                        NOSIG=
201901061530 METAR LRCK 061530Z 33010KT 8000 BKN020 M02/M04 Q1011 R36/450295
                        NOSIG=
201901061600 METAR LRCK 061600Z 32010KT 9999 BKN025 M02/M05 Q1011 R36/450295
                        NOSIG=
201901061630 METAR LRCK 061630Z 33012KT 9999 SCT035 M03/M05 Q1012 R36/450295
                        NOSIG=
201901061700 METAR LRCK 061700Z 34013KT 9999 FEW035 M03/M06 Q1012 R36/450295
                        NOSIG=
201901061730 METAR LRCK 061730Z 33013KT 9999 FEW040 M03/M06 Q1012 R36/450295
                        NOSIG=
201901061800 METAR LRCK 061800Z 33011KT 9999 FEW045 M04/M06 Q1013 R36/450295
                        NOSIG=
201901061830 METAR LRCK 061830Z 33011KT CAVOK M04/M06 Q1013 R36/450295
                        NOSIG=
201901061900 METAR LRCK 061900Z 33012KT CAVOK M04/M06 Q1013 R36/450295
                        NOSIG=
201901061930 METAR LRCK 061930Z 33012KT CAVOK M04/M06 Q1014 R36/450295
                        NOSIG=
201901062000 METAR LRCK 062000Z 33012KT CAVOK M05/M06 Q1014 R36/450295
                        NOSIG=
201901062030 METAR LRCK 062030Z 33012KT CAVOK M05/M06 Q1014 R36/450295
                        NOSIG=
201901062100 METAR LRCK 062100Z 32012KT CAVOK M05/M06 Q1014 R36/450295
                        NOSIG=
201901062130 METAR LRCK 062130Z 32012KT CAVOK M05/M06 Q1014 R36/520295
                        NOSIG=
201901062200 METAR LRCK 062200Z 32012KT CAVOK M05/M06 Q1014 R36/520295
                        NOSIG=
201901062230 METAR LRCK 062230Z 32012KT CAVOK M05/M06 Q1014 R36/520295
                        NOSIG=
201901062300 METAR LRCK 062300Z 33012KT CAVOK M05/M06 Q1014 R36/520295
                        NOSIG=
201901062330 METAR LRCK 062330Z 33011KT CAVOK M05/M07 Q1014 R36/520295
                        NOSIG=
201901070000 METAR LRCK 070000Z 33012KT CAVOK M05/M06 Q1014 R36/520295
                        NOSIG=
201901070030 METAR LRCK 070030Z 32013KT CAVOK M05/M06 Q1015 R36/520295
                        NOSIG=
201901070100 METAR LRCK 070100Z 32013KT CAVOK M05/M06 Q1015 R36/520295
                        NOSIG=
201901070130 METAR LRCK 070130Z 33013KT CAVOK M05/M06 Q1015 R36/520295
                        BECMG 5000 -SN BKN015 BKN030=
201901070200 METAR LRCK 070200Z 33014KT 6000 -SN SCT048 M04/M06 Q1015
                        R36/520295 TEMPO 3000 -SN BKN010
                        BKN030=
201901070230 METAR LRCK 070230Z 32013KT 1500 SN BR SCT017 SCT030 M04/M05
                        Q1015 R36/520295 NOSIG=
201901070300 METAR LRCK 070300Z 33012KT 1500 SN BR SCT015 BKN023 M04/M05
                        Q1015 R36/550295 NOSIG=
201901070330 METAR LRCK 070330Z 33011KT 1500 -SN BR SCT005 BKN022 M04/M05
                        Q1015 R36/550295 BECMG 3000=
201901070400 METAR LRCK 070400Z 34012KT 1500 -SN BR SCT007 BKN015 M04/M05
                        Q1016 R36/550295 NOSIG=
201901070430 METAR LRCK 070430Z 35013KT 1500 SN BR BKN008 M04/M04 Q1016
                        R36/550295 NOSIG=
201901070500 METAR LRCK 070500Z 36015KT 1500 SN BR BKN014 M04/M05 Q1017
                        R36/590593 NOSIG=
201901070530 METAR LRCK 070530Z 01015KT 1500 SN BR SCT013 BKN023 M05/M05
                        Q1017 R36/590593 NOSIG=
201901070600 METAR LRCK 070600Z 36013KT 3000 -SN BR BKN026 M05/M06 Q1018
                        R36/590593 BECMG 5000=
201901070630 METAR COR LRCK 070630Z 36013KT 5000 -SN BR BKN047 M05/M07
                        Q1018 R36/590593 NOSIG=
201901070700 METAR LRCK 070700Z 35012KT 8000 -SN SCT048 M05/M07 Q1018
                        R36/850395 NOSIG=
201901070730 METAR LRCK 070730Z 35011KT CAVOK M04/M07 Q1019 RESN R36/850395
                        NOSIG=
201901070800 METAR LRCK 070800Z 34012KT CAVOK M04/M07 Q1019 R36/850395
                        NOSIG=
201901070830 METAR LRCK 070830Z 34012KT CAVOK M04/M07 Q1020 R36/850395
                        NOSIG=
201901070900 METAR COR LRCK 070900Z 34015KT CAVOK M04/M07 Q1019 R36/850395
                        NOSIG=
201901070930 METAR LRCK 070930Z 34016KT CAVOK M04/M07 Q1020 R36/850395
                        NOSIG=
201901071000 METAR LRCK 071000Z 34016KT 9999 FEW020 M03/M07 Q1020 R36/850395
                        NOSIG=
201901071030 METAR LRCK 071030Z 34013KT 9999 SCT021 M03/M07 Q1020 R36/850395
                        NOSIG=
201901071100 METAR LRCK 071100Z 33012KT 9999 FEW022 M03/M06 Q1020 R36/850395
                        NOSIG=
201901071130 METAR LRCK 071130Z 33015KT 9999 FEW016 SCT029 M03/M06 Q1020
                        R36/850395 NOSIG=
201901071200 METAR LRCK 071200Z 34017KT 8000 SCT019 BKN035 M03/M05 Q1020
                        R36/850395 NOSIG=
201901071230 METAR LRCK 071230Z 34015KT 8000 SCT018 BKN035 M03/M06 Q1020
                        R36/850395 NOSIG=
201901071300 METAR LRCK 071300Z 33014KT 8000 FEW018 BKN036 M03/M06 Q1020
                        R36/850395 NOSIG=
201901071330 METAR LRCK 071330Z 33016KT 8000 FEW016 BKN036 M03/M06 Q1021
                        R36/850395 NOSIG=
201901071400 METAR LRCK 071400Z 33014KT 8000 -SN BKN039 M04/M06 Q1021
                        R36/850395 NOSIG=
201901071430 METAR LRCK 071430Z 33014KT 7000 -SN BKN038 M04/M06 Q1021
                        R36/850395 NOSIG=
201901071500 METAR LRCK 071500Z 33013KT 7000 -SN SCT018 BKN032 M04/M05
                        Q1021 R36/850395 NOSIG=
201901071530 METAR LRCK 071530Z 33012KT 6000 -SN BKN017 BKN032 M04/M05
                        Q1021 R36/850395 NOSIG=
201901071600 METAR LRCK 071600Z 33011KT 8000 -SN BKN017 M04/M05 Q1022
                        R36/850395 NOSIG=
201901071630 METAR LRCK 071630Z 34011KT 8000 -SN BKN019 M04/M05 Q1022
                        R36/820395 NOSIG=
201901071700 METAR LRCK 071700Z 33011KT 8000 -SN SCT021 BKN030 M04/M05
                        Q1022 R36/820395 NOSIG=
201901071730 METAR LRCK 071730Z 33010KT 8000 -SN BKN019 M04/M06 Q1022
                        R36/820395 NOSIG=
201901071800 METAR LRCK 071800Z 33009KT 9999 BKN021 M04/M06 Q1023 RESN
                        R36/820395 NOSIG=
201901071830 METAR LRCK 071830Z 33011KT 9999 BKN021 M04/M06 Q1023 R36/820395
                        NOSIG=
201901071900 METAR LRCK 071900Z 33010KT 9999 BKN021 M04/M06 Q1023 R36/820395
                        NOSIG=
201901071930 METAR LRCK 071930Z 35015KT 9999 BKN021 M04/M07 Q1023 R36/820395
                        NOSIG=
201901072000 METAR LRCK 072000Z 35017KT 9999 DRSN BKN020 M04/M07 Q1023
                        R36/820395 NOSIG=
201901072030 METAR LRCK 072030Z 35017KT 9999 DRSN BKN020 M04/M07 Q1023
                        R36/820395 NOSIG=
201901072100 METAR LRCK 072100Z 34013KT 9999 BKN021 M04/M07 Q1023 R36/820395
                        NOSIG=
201901072130 METAR LRCK 072130Z 34013KT 9999 SCT022 M05/M08 Q1023 R36/820395
                        NOSIG=
201901072200 METAR LRCK 072200Z 33009KT 9999 FEW023 M06/M09 Q1023 R36/820395
                        NOSIG=
201901072230 METAR LRCK 072230Z 33009KT 9999 FEW025 M06/M09 Q1023 R36/820395
                        NOSIG=
201901072300 METAR LRCK 072300Z 31009KT 9999 FEW030 M06/M09 Q1023 R36/820395
                        NOSIG=
201901072330 METAR LRCK 072330Z 30008KT CAVOK M06/M08 Q1023 R36/820395
                        NOSIG=
201901080000 METAR LRCK 080000Z 32012KT 9999 -SN FEW049 M06/M08 Q1023
                        R36/820395 NOSIG=
201901080030 METAR LRCK 080030Z 32012KT 9999 FEW049 M06/M09 Q1023 R36/820395
                        NOSIG=
201901080100 METAR LRCK 080100Z 32011KT CAVOK M06/M09 Q1023 R36/820395
                        NOSIG=
201901080130 METAR LRCK 080130Z 32011KT CAVOK M06/M09 Q1023 R36/820395
                        NOSIG=
201901080200 METAR LRCK 080200Z 33010KT CAVOK M06/M09 Q1022 R36/820395
                        NOSIG=
201901080230 METAR LRCK 080230Z 32009KT CAVOK M07/M10 Q1022 R36/820395
                        NOSIG=
201901080300 METAR LRCK 080300Z 32008KT CAVOK M07/M10 Q1022 R36/820395
                        NOSIG=
201901080330 METAR LRCK 080330Z 31008KT CAVOK M07/M10 Q1022 R36/820395
                        NOSIG=
201901080400 METAR LRCK 080400Z 29007KT CAVOK M08/M11 Q1022 R36/820395
                        NOSIG=
201901080430 METAR LRCK 080430Z 28006KT CAVOK M09/M11 Q1022 R36/820395
                        NOSIG=
201901080500 METAR LRCK 080500Z 28008KT CAVOK M09/M11 Q1021 R36/820395
                        NOSIG=
201901080530 METAR LRCK 080530Z 29010KT CAVOK M09/M10 Q1021 R36/820395
                        NOSIG=
201901080600 METAR LRCK 080600Z 29008KT 8000 NSC M09/M10 Q1021 R36/820395
                        NOSIG=
201901080630 METAR LRCK 080630Z 29009KT 8000 NSC M08/M10 Q1021 R36/820395
                        NOSIG=
201901080700 METAR LRCK 080700Z 29008KT CAVOK M08/M10 Q1021 R36/820395
                        NOSIG=
201901080730 METAR LRCK 080730Z 29006KT CAVOK M07/M09 Q1021 R36/820395
                        NOSIG=
201901080800 METAR LRCK 080800Z 28009KT 8000 SCT016 M06/M08 Q1020 R36/820395
                        NOSIG=
201901080830 METAR LRCK 080830Z 28011KT 8000 BKN022 M06/M08 Q1020 R36/820395
                        NOSIG=
201901080900 METAR LRCK 080900Z 27010KT 8000 FEW009 BKN026 M06/M08 Q1020
                        R36/820395 NOSIG=
201901080930 METAR LRCK 080930Z 27010KT 8000 OVC027 M06/M08 Q1019 R36/820395
                        NOSIG=
201901081000 METAR LRCK 081000Z 28009KT 8000 OVC028 M06/M08 Q1019 R36/820395
                        NOSIG=
201901081030 METAR LRCK 081030Z 27011KT 9999 SCT025 M05/M08 Q1018 R36/820395
                        NOSIG=
201901081100 METAR LRCK 081100Z 26011KT 9999 FEW018 M05/M08 Q1018 R36/820395
                        NOSIG=
201901081130 METAR LRCK 081130Z 25010KT 9999 FEW012 M05/M08 Q1017 R36/820395
                        NOSIG=
201901081200 METAR LRCK 081200Z 25011KT 9999 FEW012 M05/M08 Q1017 R36/810295
                        NOSIG=
201901081230 METAR LRCK 081230Z 24010KT 9999 FEW012 M05/M08 Q1016 R36/810295
                        NOSIG=
201901081300 METAR LRCK 081300Z 27009KT 9999 FEW016 M04/M08 Q1016 R36/810295
                        NOSIG=
201901081330 METAR LRCK 081330Z 26008KT CAVOK M05/M08 Q1016 R36/810295
                        NOSIG=
201901081400 METAR LRCK 081400Z 25005KT CAVOK M06/M09 Q1015 R36/810295
                        NOSIG=
201901081430 METAR LRCK 081430Z 24006KT CAVOK M08/M10 Q1015 R18/810295
                        NOSIG=
201901081500 METAR LRCK 081500Z 24007KT CAVOK M09/M10 Q1015 R18/810295
                        NOSIG=
201901081530 METAR LRCK 081530Z 24006KT CAVOK M10/M11 Q1015 R18/810295
                        NOSIG=
201901081600 METAR LRCK 081600Z 24006KT CAVOK M10/M11 Q1014 R18/810295
                        NOSIG=
201901081630 METAR LRCK 081630Z 25006KT CAVOK M09/M11 Q1014 R18/810295
                        NOSIG=
201901081700 METAR LRCK 081700Z 24006KT CAVOK M08/M10 Q1014 R18/810295
                        NOSIG=
201901081730 METAR LRCK 081730Z 23005KT CAVOK M09/M11 Q1014 R18/810295
                        NOSIG=
201901081800 METAR LRCK 081800Z 25006KT CAVOK M11/M12 Q1014 R18/810295
                        NOSIG=
201901081830 METAR LRCK 081830Z 23005KT 8000 NSC M11/M12 Q1014 R18/810295
                        NOSIG=
201901081900 METAR LRCK 081900Z 23005KT 7000 NSC M11/M12 Q1013 R18/810295
                        NOSIG=
201901081930 METAR LRCK 081930Z 22006KT 8000 NSC M11/M13 Q1013 R18/810295
                        NOSIG=
201901082000 METAR LRCK 082000Z 22006KT 8000 NSC M12/M13 Q1013 R18/810295
                        NOSIG=
201901082030 METAR LRCK 082030Z 23007KT CAVOK M11/M13 Q1012 R18/810295
                        NOSIG=
201901082100 METAR LRCK 082100Z 23007KT CAVOK M11/M13 Q1012 R18/810295
                        NOSIG=
201901082130 METAR LRCK 082130Z 24008KT CAVOK M12/M14 Q1012 R18/810295
                        NOSIG=
201901082200 METAR LRCK 082200Z 24010KT CAVOK M12/M13 Q1011 R18/810295
                        NOSIG=
201901082230 METAR LRCK 082230Z 22009KT CAVOK M12/M13 Q1011 R18/810295
                        NOSIG=
201901082300 METAR LRCK 082300Z 23008KT CAVOK M12/M14 Q1011 R18/810295
                        NOSIG=
201901082330 METAR COR LRCK 082330Z 24010KT CAVOK M12/M14 Q1010 R18/810295
                        NOSIG=
201901090000 METAR LRCK 090000Z 23007KT CAVOK M12/M14 Q1010 R18/810295
                        NOSIG=
201901090030 METAR LRCK 090030Z 22007KT CAVOK M12/M14 Q1010 R18/810295
                        NOSIG=
201901090100 METAR LRCK 090100Z 20006KT CAVOK M13/M14 Q1010 R18/810295
                        NOSIG=
201901090130 METAR LRCK 090130Z 22006KT CAVOK M11/M13 Q1010 R18/810295
                        NOSIG=
201901090200 METAR LRCK 090200Z 21008KT CAVOK M11/M13 Q1010 R18/810295
                        NOSIG=
201901090230 METAR LRCK 090230Z 22007KT CAVOK M10/M12 Q1010 R18/810295
                        NOSIG=
201901090300 METAR LRCK 090300Z 22009KT CAVOK M09/M12 Q1009 R18/810295
                        NOSIG=
201901090330 METAR COR LRCK 090330Z 22008KT CAVOK M08/M11 Q1009 R18/810295
                        NOSIG=
201901090400 METAR LRCK 090400Z 23009KT CAVOK M08/M11 Q1009 R18/810295
                        NOSIG=
201901090430 METAR COR LRCK 090430Z 22009KT CAVOK M08/M10 Q1009 R18/810295
                        NOSIG=
201901090500 METAR LRCK 090500Z 23009KT CAVOK M07/M10 Q1009 R18/810295
                        NOSIG=
201901090530 METAR LRCK 090530Z 23007KT 9999 FEW040 M08/M10 Q1009 R18/810295
                        NOSIG=
201901090600 METAR LRCK 090600Z 23007KT 9999 SCT035 M07/M10 Q1009 R18/810295
                        NOSIG=
201901090630 METAR LRCK 090630Z 23008KT 9999 FEW031 SCT049 M06/M09 Q1009
                        R18/810295 NOSIG=
201901090700 METAR LRCK 090700Z 22008KT 9999 FEW049 M05/M09 Q1009 R18/810295
                        NOSIG=
201901090730 METAR LRCK 090730Z 23009KT CAVOK M04/M08 Q1009 R18/810295
                        NOSIG=
201901090800 METAR LRCK 090800Z 24010KT 9999 FEW048 M04/M07 Q1009 R18/810295
                        NOSIG=
201901090830 METAR LRCK 090830Z 24009KT 9999 SCT049 M03/M07 Q1009 R18/810295
                        NOSIG=
201901090900 METAR LRCK 090900Z 24010KT 9999 -SN SCT039 M02/M06 Q1009
                        R18/810295 NOSIG=
201901090930 METAR LRCK 090930Z 23005KT 9999 SCT029 M01/M05 Q1009 R18/810295
                        NOSIG=
201901091000 METAR LRCK 091000Z 21003KT 170V270 9999 BKN031 M01/M05 Q1009
                        R18/810295 NOSIG=
201901091030 METAR LRCK 091030Z 19006KT 9999 BKN029 00/M05 Q1009 R18/810295
                        NOSIG=
201901091100 METAR LRCK 091100Z 19009KT 9999 FEW031 01/M05 Q1009 R18/810295
                        NOSIG=
201901091130 METAR LRCK 091130Z 18010KT CAVOK 01/M04 Q1009 R18/810295
                        NOSIG=
201901091200 METAR LRCK 091200Z 19009KT CAVOK 01/M04 Q1008 R18/810295
                        NOSIG=
201901091230 METAR LRCK 091230Z 19009KT CAVOK 02/M04 Q1008 R18/210095
                        NOSIG=
201901091300 METAR LRCK 091300Z AUTO 20010KT 9999 NCD 02/M04 Q1009 NOSIG=
201901091330 METAR LRCK 091330Z 20006KT CAVOK 01/M03 Q1009 R18/210095
                        NOSIG=
201901091400 METAR LRCK 091400Z 19007KT CAVOK 01/M03 Q1009 R18/210095
                        NOSIG=
201901091430 METAR LRCK 091430Z 19009KT CAVOK 00/M03 Q1009 R18/210095
                        NOSIG=
201901091500 METAR LRCK 091500Z 18008KT CAVOK M01/M03 Q1008 R18/210095
                        NOSIG=
201901091530 METAR LRCK 091530Z 17006KT CAVOK M01/M04 Q1008 R18/210095
                        NOSIG=
201901091600 METAR LRCK 091600Z 17008KT CAVOK M01/M04 Q1009 R18/210095
                        NOSIG=
201901091630 METAR LRCK 091630Z 17007KT CAVOK M02/M04 Q1009 R18/210095
                        NOSIG=
201901091700 METAR LRCK 091700Z 18004KT CAVOK M02/M05 Q1009 R18/210095
                        NOSIG=
201901091730 METAR LRCK 091730Z 16008KT CAVOK M01/M05 Q1009 R18/210095
                        NOSIG=
201901091800 METAR LRCK 091800Z 16007KT CAVOK M03/M05 Q1009 R18/910195
                        NOSIG=
201901091830 METAR LRCK 091830Z 15008KT CAVOK M02/M05 Q1009 R18/910195
                        NOSIG=
201901091900 METAR LRCK 091900Z 16007KT CAVOK M02/M06 Q1009 R18/910195
                        NOSIG=
201901091930 METAR LRCK 091930Z 16004KT 120V190 CAVOK M02/M05 Q1009 R18/910195
                        NOSIG=
201901092000 METAR LRCK 092000Z 15006KT CAVOK M01/M03 Q1009 R18/910195
                        NOSIG=
201901092030 METAR LRCK 092030Z 14005KT CAVOK M01/M03 Q1009 R18/910195
                        NOSIG=
201901092100 METAR LRCK 092100Z 13006KT CAVOK 00/M02 Q1008 R18/910195
                        NOSIG=
201901092130 METAR LRCK 092130Z 10007KT 9999 -RA BKN015 01/M00 Q1008 R18/910195
                        BECMG 5000 -RA BKN010=
201901092200 METAR LRCK 092200Z 13006KT 5000 -RA OVC015 01/01 Q1008 R18/910195
                        TEMPO 3000 RA BKN010=
201901092230 METAR LRCK 092230Z 13008KT 3500 RA OVC013 02/02 Q1008 R18/910195
                        TEMPO 1500 RA BKN010=
201901092300 METAR LRCK 092300Z 15010KT 3000 RA BR SCT003 OVC011 03/03
                        Q1008 R18/910195 TEMPO 1500 RA BKN010=
201901092330 METAR LRCK 092330Z 16013KT 5000 RA BR FEW008 OVC011 02/02
                        Q1007 R18/690294 NOSIG=
201901100000 METAR LRCK 100000Z 15014KT 6000 RA SCT008 OVC012 02/02 Q1007
                        R18/690294 NOSIG=
201901100030 METAR LRCK 100030Z 15014KT 6000 RA OVC007 02/01 Q1007 R18/690294
                        NOSIG=
201901100100 METAR LRCK 100100Z 14015KT 7000 -RA BKN007 OVC014 02/01 Q1007
                        R18/690294 NOSIG=
201901100130 METAR LRCK 100130Z 13010KT 6000 -RA BKN009 OVC014 02/02 Q1006
                        R18/690294 NOSIG=
201901100200 METAR LRCK 100200Z 13012KT 7000 -RA SCT007 OVC015 03/03 Q1006
                        R18/690294 NOSIG=
201901100230 METAR LRCK 100230Z 13011KT 5000 -RA BR BKN007 OVC015 03/03
                        Q1006 R18/690294 NOSIG=
201901100300 METAR LRCK 100300Z 13012KT 5000 -RA BR BKN004 OVC015 03/03
                        Q1005 R18/29//95 NOSIG=
201901100330 METAR LRCK 100330Z 13009KT 5000 -RA BR OVC006 04/03 Q1005
                        R18/29//95 NOSIG=
201901100400 METAR LRCK 100400Z 13011KT 4000 -RA BR OVC009 04/04 Q1005
                        R18/29//95 NOSIG=
201901100430 METAR LRCK 100430Z 13010KT 2500 -RA BR BKN006 OVC015 04/03
                        Q1005 R18/29//95 NOSIG=
201901100500 METAR LRCK 100500Z 15008KT 3000 -RA BR BKN006 OVC020 04/04
                        Q1005 R18/29//95 NOSIG=
201901100530 METAR LRCK 100530Z 13007KT 3000 -RA BR OVC008 03/03 Q1004
                        R18/29//95 BECMG 5000 SCT010 OVC020=
201901100600 METAR LRCK 100600Z 16008KT 5000 -DZ BR OVC007 04/03 Q1005
                        R18/29//95 NOSIG=
201901100630 METAR LRCK 100630Z 17008KT 2500 -DZ BR OVC008 04/04 Q1005
                        R18/29//95 NOSIG=
201901100700 METAR LRCK 100700Z 19009KT 1500 -DZ BR OVC005 04/04 Q1005
                        R18/29//95 NOSIG=
201901100730 METAR LRCK 100730Z 19009KT 1500 -DZ BR BKN006 OVC012 04/04
                        Q1005 R18/29//95 NOSIG=
201901100800 METAR LRCK 100800Z 22007KT 0800 R18/1900D R36/1800D FG BKN003
                        OVC010 03/03 Q1006 R18/29//95 BECMG
                        1500 BR BKN010 OVC020=
201901100830 METAR LRCK 100830Z 25007KT 0800 R18/0800U R36/P2000 FG BKN002
                        OVC015 04/04 Q1006 R18/29//95 BECMG
                        1500 BR BKN005 OVC020=
201901100900 METAR LRCK 100900Z 26010KT 5000 BR FEW003 SCT010 BKN030 05/05
                        Q1006 R18/29//95 BECMG 7000 NSW=
201901100930 METAR LRCK 100930Z 28012KT 5000 BR BKN004 BKN035 04/04 Q1006
                        R18/29//95 NOSIG=
201901101000 METAR LRCK 101000Z 28012KT 2000 BR BKN003 BKN033 04/04 Q1006
                        R18/29//95 NOSIG=
201901101030 METAR LRCK 101030Z 27010KT 2500 BR SCT003 BKN030 04/04 Q1006
                        R18/29//95 BECMG 5000=
201901101100 METAR LRCK 101100Z 28009KT 3000 BR BKN004 BKN029 04/03 Q1006
                        R18/29//95 BECMG 5000=
201901101130 METAR LRCK 101130Z 27011KT 1400 R18/1600D R36/P2000 BR BKN002
                        BKN028 03/03 Q1006 R18/29//95 BECMG
                        5000=
201901101200 METAR LRCK 101200Z 28013KT 0500 R18/0550D R36/1000D FG OVC002
                        02/02 Q1006 R18/29//95 NOSIG=
201901101230 METAR LRCK 101230Z 28012KT 0400 R18/0450N R36/0800D FG OVC002
                        02/02 Q1007 R18/29//95 NOSIG=
201901101300 METAR LRCK 101300Z 26012KT 0500 R18/0650N R36/1600U FG OVC002
                        01/01 Q1007 R18/29//95 NOSIG=
201901101330 METAR LRCK 101330Z 27012KT 0500 R18/0800D R36/1200D FG BKN001
                        OVC002 01/01 Q1007 R18/29//95 NOSIG=
201901101400 METAR LRCK 101400Z 27013KT 0400 R18/0600D R36/1500D FG BKN001
                        OVC002 00/00 Q1007 R18/29//95 NOSIG=
201901101430 METAR LRCK 101430Z 29014KT 0400 R18/0700N R36/1000D FZFG
                        OVC002 M00/M00 Q1007 R18/29//95 TEMPO
                        0800 FG OVC005=
201901101500 METAR LRCK 101500Z 29010KT 0250 R18/0550N R36/0750N FZFG
                        OVC002 M00/M00 Q1007 R18/12//95 TEMPO
                        0800 FG OVC005=
201901101530 METAR COR LRCK 101530Z 31011KT 0500 R18/1000U R36/0900U FZFG
                        OVC002 M00/M00 Q1007 R18/12//95 TEMPO
                        1500 -FZDZ OVC005=
201901101600 METAR LRCK 101600Z 31011KT 1500 BR BKN001 OVC021 M00/M00
                        Q1008 R36/12//95 TEMPO 3000 -FZDZ
                        BKN002 OVC020=
201901101630 METAR LRCK 101630Z VRB02KT 1500 BR BKN002 OVC022 M00/M00
                        Q1008 R36/12//95 TEMPO 3000 -FZDZ
                        BKN005 OVC020=
201901101700 METAR LRCK 101700Z 28002KT 1500 -FZRA BR SCT003 OVC021 M00/M00
                        Q1008 R36/29//95 NOSIG=
201901101730 METAR LRCK 101730Z 34005KT 1500 -FZRASN BR SCT003 BKN021
                        M00/M00 Q1008 R36/29//95 NOSIG=
201901101800 METAR LRCK 101800Z 35007KT 1400 R18/1500D R36/P2000 -FZDZ
                        BR BKN003 OVC018 M00/M00 Q1007 R36/29//95
                        NOSIG=
201901101830 METAR LRCK 101830Z 36006KT 1500 -FZDZ BR BKN002 OVC018 M00/M00
                        Q1007 R36/29//95 NOSIG=
201901101900 METAR LRCK 101900Z 03003KT 1500 -FZDZ BR SCT002 OVC014 M00/M00
                        Q1007 R36/29//95 NOSIG=
201901101930 METAR LRCK 101930Z 03005KT 1500 -RASN BR FEW005 BKN014 00/00
                        Q1007 R36/29//95 NOSIG=
201901102000 METAR LRCK 102000Z 01005KT 1500 -RASN BR SCT004 BKN013 00/00
                        Q1007 R36/29//95 NOSIG=
201901102030 METAR LRCK 102030Z 04007KT 1500 -RASN BR BKN002 BKN013 00/00
                        Q1007 R36/290195 NOSIG=
201901102100 METAR COR LRCK 102100Z 02004KT 320V050 0800 R18/1200U R36/1500U
                        -RASN FG BKN002 00/00 Q1007 R36/290195
                        BECMG 1500 BR=
201901102130 METAR LRCK 102130Z 01004KT 0800 R18/1300D R36/1900U -RASN
                        FG BKN002 00/00 Q1007 R36/290195
                        BECMG 1500 BR=
201901102200 METAR LRCK 102200Z 01005KT 1500 BR OVC002 01/01 Q1006 R36/290195
                        BECMG 3000=
201901102230 METAR LRCK 102230Z 03004KT 1500 BR OVC002 01/01 Q1007 R36/290195
                        BECMG 3000=
201901102300 METAR LRCK 102300Z VRB02KT 1500 BR OVC003 01/01 Q1007 R36/290195
                        BECMG 3000=
201901102330 METAR LRCK 102330Z 03004KT 1500 BR OVC003 01/01 Q1006 R36/290195
                        BECMG 3000=
201901110000 METAR LRCK 110000Z 05007KT 2000 BR OVC003 01/01 Q1006 R36/290195
                        BECMG 3000=
201901110030 METAR LRCK 110030Z 04006KT 3000 BR OVC003 01/01 Q1007 R36/290195
                        NOSIG=
201901110100 METAR LRCK 110100Z VRB01KT 3000 BR OVC003 02/02 Q1007 R36/290195
                        NOSIG=
201901110130 METAR LRCK 110130Z 00000KT 1500 BR OVC002 01/01 Q1007 R36/290195
                        NOSIG=
201901110200 METAR LRCK 110200Z 25004KT 0600 R18/0900D R36/1600D FG OVC002
                        01/01 Q1007 R36/290195 TEMPO 350
                        FG OVC001=
201901110230 METAR LRCK 110230Z 27010KT 0600 R18/1600U R36/1600N FG OVC002
                        00/00 Q1007 R36/290195 NOSIG=
201901110300 METAR LRCK 110300Z 27010KT 0600 R18/1400U R36/1800U FZFG
                        OVC002 M00/M00 Q1007 R36/19//95 NOSIG=
201901110330 METAR LRCK 110330Z 27013KT 0800 R36/P2000 FZFG OVC002 M01/M01
                        Q1007 R36/19//95 NOSIG=
201901110400 METAR LRCK 110400Z 27013KT 1500 BR OVC002 M01/M01 Q1008 R36/19//95
                        NOSIG=
201901110430 METAR LRCK 110430Z 28015KT 3000 BR OVC002 M02/M02 Q1008 R36/19//95
                        NOSIG=
201901110500 METAR LRCK 110500Z 28016KT 4000 BR OVC004 M02/M02 Q1008 R36/19//95
                        BECMG 5000 OVC005=
201901110530 METAR LRCK 110530Z 29014KT 4000 BR OVC005 M02/M03 Q1009 R36/19//95
                        BECMG 5000=
201901110600 METAR LRCK 110600Z 28018KT 3500 BR OVC006 M03/M03 Q1009 R36/19//95
                        NOSIG=
201901110630 METAR LRCK 110630Z 30016KT 4000 BR OVC006 M03/M03 Q1010 R36/19//95
                        NOSIG=
201901110700 METAR LRCK 110700Z 30016KT 4000 BR OVC006 M03/M04 Q1010 R36/19//95
                        NOSIG=
201901110730 METAR LRCK 110730Z 30018KT 4500 BR OVC007 M03/M03 Q1011 R36/710195
                        BECMG 5000=
201901110800 METAR LRCK 110800Z 30015KT 5000 BR OVC007 M03/M03 Q1012 R36/710195
                        NOSIG=
201901110830 METAR LRCK 110830Z 30016KT 5000 BR OVC008 M02/M03 Q1013 R36/710195
                        NOSIG=
201901110900 METAR LRCK 110900Z 30018KT 6000 BKN008 M02/M03 Q1012 R36/710195
                        NOSIG=
201901110930 METAR LRCK 110930Z 30018KT 7000 SCT011 OVC020 M02/M04 Q1013
                        R36/710195 NOSIG=
201901111000 METAR LRCK 111000Z 32016KT 8000 SCT019 OVC027 M01/M03 Q1012
                        R36/710195 NOSIG=
201901111030 METAR LRCK 111030Z 31014KT 8000 BKN012 OVC027 M01/M04 Q1013
                        R36/710195 NOSIG=
201901111100 METAR LRCK 111100Z 30015KT 8000 OVC011 M02/M04 Q1013 R36/21//95
                        NOSIG=
201901111130 METAR LRCK 111130Z 31014KT 3500 BR SCT007 OVC010 M02/M03
                        Q1013 R36/21//95 TEMPO 3000 BR=
201901111200 METAR COR LRCK 111200Z 30013KT 3500 -FZDZ BR OVC007 M02/M03
                        Q1014 R36/29//95 TEMPO 3000 BR=
201901111230 METAR LRCK 111230Z 30013KT 3500 -FZDZ BR OVC006 M02/M03 Q1014
                        R36/29//95 NOSIG=
201901111300 METAR LRCK 111300Z 30010KT 3000 -FZDZ BR BKN005 OVC010 M02/M03
                        Q1014 R36/790193 NOSIG=
201901111330 METAR COR LRCK 111330Z 31010KT 3500 -FZDZ BR BKN005 OVC010
                        M02/M03 Q1014 R36/790193 NOSIG=
201901111400 METAR LRCK 111400Z 30010KT 5000 BR SCT007 OVC011 M02/M04
                        Q1014 R36/790193 NOSIG=
201901111430 METAR LRCK 111430Z 29007KT 6000 OVC011 M02/M04 Q1015 R36/790193
                        NOSIG=
201901111500 METAR LRCK 111500Z 29008KT 6000 BKN012 OVC019 M02/M04 Q1015
                        R36/790193 NOSIG=
201901111530 METAR LRCK 111530Z 30009KT 5000 BR BKN015 OVC019 M03/M04
                        Q1015 R36/790193 NOSIG=
201901111600 METAR LRCK 111600Z 28008KT 5000 BR OVC021 M03/M04 Q1016 R36/29//95
                        NOSIG=
201901111630 METAR LRCK 111630Z 29009KT 5000 BR OVC022 M03/M05 Q1016 R36/29//95
                        NOSIG=
201901111700 METAR LRCK 111700Z 29010KT 6000 OVC022 M03/M05 Q1016 R36/29//95
                        NOSIG=
201901111730 METAR LRCK 111730Z 28010KT 6000 OVC023 M03/M05 Q1016 R36/29//95
                        NOSIG=
201901111800 METAR LRCK 111800Z 28009KT 6000 OVC023 M03/M05 Q1016 R36/29//95
                        NOSIG=
201901111830 METAR LRCK 111830Z 27008KT 6000 OVC030 M03/M05 Q1017 R36/29//95
                        NOSIG=
201901111900 METAR LRCK 111900Z 28007KT 6000 BKN038 M04/M05 Q1017 R36/29//95
                        NOSIG=
201901111930 METAR LRCK 111930Z 28008KT 5000 BR BKN040 M04/M05 Q1017 R36/12//95
                        NOSIG=
201901112000 METAR LRCK 112000Z 28011KT 5000 BR SCT049 M04/M05 Q1017 R36/12//95
                        NOSIG=
201901112030 METAR LRCK 112030Z 29010KT 5000 BR SCT046 M04/M05 Q1017 R36/12//95
                        NOSIG=
201901112100 METAR LRCK 112100Z 29010KT 5000 BR SCT046 M04/M05 Q1017 R36/12//95
                        NOSIG=
201901112130 METAR LRCK 112130Z 30007KT 5000 BR SCT046 M04/M06 Q1017 R36/12//95
                        NOSIG=
201901112200 METAR LRCK 112200Z 28005KT 5000 BR FEW025 SCT047 M05/M06
                        Q1017 R36/12//95 NOSIG=
201901112230 METAR LRCK 112230Z 28005KT 5000 BR FEW025 SCT049 M05/M06
                        Q1016 R36/12//95 NOSIG=
201901112300 METAR LRCK 112300Z 28006KT 5000 BR SCT023 M05/M06 Q1016 R36/12//95
                        NOSIG=
201901112330 METAR LRCK 112330Z 29005KT 5000 BR SCT022 M05/M06 Q1016 R36/12//95
                        NOSIG=
201901120000 METAR LRCK 120000Z 22006KT 5000 BR BKN021 M04/M05 Q1016 R36/12//95
                        NOSIG=
201901120030 METAR LRCK 120030Z 24007KT 5000 BR BKN018 M04/M05 Q1016 R36/12//95
                        NOSIG=
201901120100 METAR LRCK 120100Z 25006KT 5000 BR OVC018 M03/M04 Q1016 R36/12//95
                        NOSIG=
201901120130 METAR LRCK 120130Z 25007KT 5000 BR OVC017 M03/M04 Q1016 R36/12//95
                        NOSIG=
201901120200 METAR LRCK 120200Z 24005KT 5000 BR OVC015 M03/M04 Q1016 R36/12//95
                        NOSIG=
201901120230 METAR LRCK 120230Z 24006KT 5000 BR OVC015 M03/M04 Q1016 R36/12//95
                        NOSIG=
201901120300 METAR LRCK 120300Z 24007KT 5000 BR OVC015 M02/M03 Q1015 R36/12//95
                        NOSIG=
201901120330 METAR LRCK 120330Z 24008KT 4000 BR OVC010 M02/M03 Q1015 R36/12//95
                        NOSIG=
201901120400 METAR LRCK 120400Z 25009KT 4000 BR OVC009 M02/M04 Q1015 R36/12//95
                        NOSIG=
201901120430 METAR LRCK 120430Z 27012KT 3000 BR OVC007 M02/M03 Q1015 R36/12//95
                        NOSIG=
201901120500 METAR LRCK 120500Z 27012KT 3000 BR OVC007 M03/M03 Q1015 R36/12//95
                        NOSIG=
201901120530 METAR LRCK 120530Z 26009KT 3000 BR OVC006 M03/M03 Q1014 R36/12//95
                        BECMG 5000 BKN010=
201901120600 METAR LRCK 120600Z 27008KT 4000 BR OVC007 M02/M03 Q1014 R36/12//95
                        BECMG 5000 BKN010=
201901120630 METAR LRCK 120630Z 26012KT 5000 BR OVC007 M03/M03 Q1015 R36/12//95
                        NOSIG=
201901120700 METAR LRCK 120700Z 25013KT 5000 BR OVC006 M03/M04 Q1015 R18/12//95
                        NOSIG=
201901120730 METAR LRCK 120730Z 24013KT 4500 BR OVC006 M03/M04 Q1014 R18/12//95
                        NOSIG=
201901120800 METAR LRCK 120800Z 25016KT 4500 BR BKN006 M03/M04 Q1014 R18/12//95
                        NOSIG=
201901120830 METAR LRCK 120830Z 26017KT 6000 BKN007 M02/M04 Q1014 R18/12//95
                        NOSIG=
201901120900 METAR LRCK 120900Z 26016KT 8000 SCT008 M02/M04 Q1013 R18/12//95
                        NOSIG=
201901120930 METAR LRCK 120930Z 26017KT 8000 SCT009 M01/M04 Q1013 R18/12//95
                        NOSIG=
201901121000 METAR LRCK 121000Z 26018KT 9999 FEW011 M01/M03 Q1012 R18/12//95
                        NOSIG=
201901121030 METAR LRCK 121030Z 26024KT 9999 BKN011 M01/M04 Q1012 R18/11//95
                        NOSIG=
201901121100 METAR LRCK 121100Z 26022KT 7000 BKN005 M02/M03 Q1012 R18/11//95
                        NOSIG=
201901121130 METAR LRCK 121130Z 27025KT 7000 BKN006 M01/M03 Q1011 R18/11//95
                        NOSIG=
201901121200 METAR LRCK 121200Z 27022KT 9999 FEW007 M01/M03 Q1011 R18/11//95
                        NOSIG=
201901121230 METAR LRCK 121230Z 26020KT 9999 FEW011 M01/M04 Q1011 R18/11//95
                        NOSIG=
201901121300 METAR LRCK 121300Z 26017KT 9999 FEW010 M01/M04 Q1011 R18/11//95
                        NOSIG=
201901121330 METAR LRCK 121330Z 26018KT 9999 FEW010 M01/M04 Q1011 R18/11//95
                        NOSIG=
201901121400 METAR LRCK 121400Z 27018KT CAVOK M01/M05 Q1011 R18/11//95
                        NOSIG=
201901121430 METAR LRCK 121430Z AUTO 27019KT 9999 BKN200/// M02/M05 Q1011
                        NOSIG=
201901121500 METAR LRCK 121500Z 27016KT CAVOK M02/M05 Q1012 R18/11//95
                        NOSIG=
201901121530 METAR LRCK 121530Z 27014KT CAVOK M02/M05 Q1012 R18/11//95
                        NOSIG=
201901121600 METAR LRCK 121600Z 27014KT CAVOK M02/M05 Q1012 R18/CLRD//
                        NOSIG=
201901121630 METAR LRCK 121630Z 27015KT CAVOK M02/M05 Q1012 NOSIG=
201901121700 METAR LRCK 121700Z 27014KT CAVOK M02/M05 Q1012 NOSIG=
201901121730 METAR LRCK 121730Z 27013KT CAVOK M03/M06 Q1012 NOSIG=
201901121800 METAR LRCK 121800Z 28015KT CAVOK M04/M05 Q1012 NOSIG=
201901121830 METAR LRCK 121830Z 28013KT CAVOK M04/M06 Q1012 NOSIG=
201901121900 METAR LRCK 121900Z 28013KT CAVOK M04/M06 Q1012 NOSIG=
201901121930 METAR LRCK 121930Z 27011KT CAVOK M04/M06 Q1012 NOSIG=
201901122000 METAR LRCK 122000Z 27011KT CAVOK M04/M06 Q1012 NOSIG=
201901122030 METAR LRCK 122030Z 27012KT CAVOK M05/M06 Q1012 NOSIG=
201901122100 METAR COR LRCK 122100Z 27010KT CAVOK M05/M06 Q1012 NOSIG=
201901122130 METAR LRCK 122130Z 27009KT 8000 NSC M05/M06 Q1012 NOSIG=
201901122200 METAR LRCK 122200Z 27010KT 8000 NSC M05/M06 Q1012 NOSIG=
201901122230 METAR LRCK 122230Z 26009KT 8000 NSC M04/M06 Q1012 NOSIG=
201901122300 METAR LRCK 122300Z 27010KT 7000 NSC M04/M06 Q1012 NOSIG=
201901122330 METAR LRCK 122330Z 27009KT 7000 NSC M04/M06 Q1012 NOSIG=
201901130000 METAR COR LRCK 130000Z 26008KT 7000 NSC M04/M05 Q1012 NOSIG=
201901130030 METAR LRCK 130030Z 27008KT 6000 NSC M04/M06 Q1012 NOSIG=
201901130100 METAR LRCK 130100Z AUTO 27009KT 5000 BR OVC054/// M05/M06
                        Q1012 NOSIG=
201901130130 METAR COR LRCK 130130Z 27008KT 6000 NSC M05/M06 Q1011 NOSIG=
201901130200 METAR LRCK 130200Z 26009KT 6000 NSC M05/M06 Q1011 NOSIG=
201901130230 METAR LRCK 130230Z 28008KT 6000 NSC M04/M05 Q1011 NOSIG=
201901130300 METAR LRCK 130300Z 29008KT 6000 BKN048 M04/M05 Q1011 NOSIG=
201901130330 METAR LRCK 130330Z 26007KT 6000 SCT049 M05/M06 Q1011 NOSIG=
201901130400 METAR LRCK 130400Z 27005KT 7000 NSC M05/M07 Q1011 NOSIG=
201901130430 METAR LRCK 130430Z 28007KT 7000 NSC M06/M06 Q1011 NOSIG=
201901130500 METAR LRCK 130500Z 28008KT 8000 NSC M05/M06 Q1011 NOSIG=
201901130530 METAR LRCK 130530Z 28008KT 8000 NSC M05/M06 Q1011 NOSIG=
201901130600 METAR LRCK 130600Z 29008KT 8000 NSC M05/M06 Q1011 NOSIG=
201901130630 METAR LRCK 130630Z 28008KT 8000 NSC M05/M06 Q1011 NOSIG=
201901130700 METAR LRCK 130700Z 28008KT CAVOK M04/M05 Q1011 NOSIG=
201901130730 METAR LRCK 130730Z 27008KT CAVOK M03/M05 Q1011 NOSIG=
201901130800 METAR LRCK 130800Z 27009KT CAVOK M02/M05 Q1011 NOSIG=
201901130830 METAR LRCK 130830Z 27008KT CAVOK M02/M04 Q1011 NOSIG=
201901130900 METAR LRCK 130900Z 27007KT CAVOK M01/M04 Q1011 NOSIG=
201901130930 METAR LRCK 130930Z 23007KT CAVOK M01/M04 Q1010 NOSIG=
201901131000 METAR LRCK 131000Z 26008KT CAVOK M00/M04 Q1010 NOSIG=
201901131030 METAR LRCK 131030Z 24008KT CAVOK 00/M03 Q1009 NOSIG=
201901131100 METAR LRCK 131100Z 24008KT CAVOK 02/M03 Q1009 NOSIG=
201901131130 METAR LRCK 131130Z 24008KT CAVOK 01/M03 Q1009 NOSIG=
201901131200 METAR LRCK 131200Z 24007KT CAVOK 02/M03 Q1009 NOSIG=
201901131230 METAR LRCK 131230Z 24006KT CAVOK 02/M03 Q1008 NOSIG=
201901131300 METAR LRCK 131300Z 24006KT CAVOK 02/M02 Q1008 NOSIG=
201901131330 METAR LRCK 131330Z 24007KT CAVOK 01/M02 Q1008 NOSIG=
201901131400 METAR LRCK 131400Z 27006KT CAVOK M00/M02 Q1007 NOSIG=
201901131430 METAR LRCK 131430Z 27005KT 8000 NSC M01/M02 Q1007 NOSIG=
201901131500 METAR LRCK 131500Z 27006KT 5000 BR NSC M02/M02 Q1007 NOSIG=
201901131530 METAR LRCK 131530Z 25006KT 5000 BR NSC M02/M02 Q1007 NOSIG=
201901131600 METAR LRCK 131600Z 24005KT 5000 BR NSC M02/M03 Q1007 NOSIG=
201901131630 METAR LRCK 131630Z 23007KT 8000 NSC M02/M03 Q1007 NOSIG=
201901131700 METAR LRCK 131700Z 23008KT 8000 NSC M02/M03 Q1007 NOSIG=
201901131730 METAR LRCK 131730Z 22008KT 6000 NSC M02/M03 Q1006 NOSIG=
201901131800 METAR LRCK 131800Z 21008KT 6000 NSC M02/M03 Q1006 NOSIG=
201901131830 METAR LRCK 131830Z 23008KT 9999 SCT023 M01/M02 Q1006 NOSIG=
201901131900 METAR LRCK 131900Z 21007KT 9999 SCT022 M02/M02 Q1006 NOSIG=
201901131930 METAR LRCK 131930Z 24009KT 9999 BKN019 M01/M02 Q1005 NOSIG=
201901132000 METAR LRCK 132000Z 22008KT 9999 SCT019 M01/M02 Q1005 NOSIG=
201901132030 METAR LRCK 132030Z 22007KT 9999 SCT018 M02/M03 Q1005 NOSIG=
201901132100 METAR LRCK 132100Z 23009KT 9999 FEW018 M02/M03 Q1004 NOSIG=
201901132130 METAR LRCK 132130Z 23008KT CAVOK M02/M03 Q1004 NOSIG=
201901132200 METAR LRCK 132200Z 22009KT CAVOK M03/M03 Q1003 NOSIG=
201901132230 METAR LRCK 132230Z 21008KT 8000 NSC M03/M03 Q1003 TEMPO 5000
                        BR=
201901132300 METAR LRCK 132300Z 22008KT 8000 NSC M03/M04 Q1002 TEMPO 5000
                        BR=
201901132330 METAR LRCK 132330Z 22008KT 8000 NSC M03/M03 Q1002 TEMPO 5000
                        BR=
201901140000 METAR LRCK 140000Z 23009KT CAVOK M03/M03 Q1002 TEMPO 5000
                        BR=
201901140030 METAR LRCK 140030Z 23009KT CAVOK M03/M03 Q1001 NOSIG=
201901140100 METAR LRCK 140100Z 22006KT 9999 FEW012 M03/M04 Q1001 NOSIG=
201901140130 METAR LRCK 140130Z 21007KT 9999 FEW012 M04/M04 Q1001 NOSIG=
201901140200 METAR LRCK 140200Z 21006KT 8000 NSC M04/M04 Q1000 NOSIG=
201901140230 METAR LRCK 140230Z 21008KT 8000 NSC M03/M04 Q1000 NOSIG=
201901140300 METAR LRCK 140300Z 23007KT 8000 NSC M04/M04 Q0999 NOSIG=
201901140330 METAR LRCK 140330Z 22009KT 8000 NSC M04/M04 Q0999 NOSIG=
201901140400 METAR LRCK 140400Z 22008KT 8000 NSC M04/M05 Q0999 NOSIG=
201901140430 METAR LRCK 140430Z 22008KT 8000 NSC M05/M05 Q0998 NOSIG=
201901140500 METAR LRCK 140500Z 21008KT CAVOK M04/M05 Q0998 NOSIG=
201901140530 METAR LRCK 140530Z 21008KT CAVOK M04/M05 Q0998 NOSIG=
201901140600 METAR LRCK 140600Z 22008KT CAVOK M04/M04 Q0998 NOSIG=
201901140630 METAR LRCK 140630Z 21009KT CAVOK M01/M03 Q0998 NOSIG=
201901140700 METAR LRCK 140700Z 21011KT CAVOK M00/M02 Q0998 NOSIG=
201901140730 METAR LRCK 140730Z 22011KT CAVOK 01/M01 Q0998 NOSIG=
201901140800 METAR LRCK 140800Z 22009KT CAVOK 02/M00 Q0998 NOSIG=
201901140830 METAR LRCK 140830Z 22012KT CAVOK 03/M00 Q0998 NOSIG=
201901140900 METAR LRCK 140900Z 22011KT CAVOK 04/00 Q0997 NOSIG=
201901140930 METAR LRCK 140930Z 22012KT CAVOK 05/00 Q0997 NOSIG=
201901141000 METAR LRCK 141000Z 21012KT CAVOK 06/00 Q0997 NOSIG=
201901141030 METAR LRCK 141030Z 22012KT CAVOK 06/01 Q0996 NOSIG=
201901141100 METAR LRCK 141100Z 22012KT CAVOK 07/00 Q0996 NOSIG=
201901141130 METAR LRCK 141130Z 21015KT CAVOK 06/00 Q0995 NOSIG=
201901141200 METAR LRCK 141200Z 22015KT CAVOK 07/01 Q0995 NOSIG=
201901141230 METAR LRCK 141230Z 22013KT CAVOK 06/01 Q0995 NOSIG=
201901141300 METAR LRCK 141300Z 23010KT CAVOK 06/02 Q0995 NOSIG=
201901141330 METAR LRCK 141330Z 23011KT CAVOK 06/01 Q0995 NOSIG=
201901141400 METAR LRCK 141400Z 22010KT CAVOK 05/01 Q0995 NOSIG=
201901141430 METAR LRCK 141430Z 24012KT CAVOK 04/01 Q0995 NOSIG=
201901141500 METAR LRCK 141500Z 23013KT CAVOK 04/M01 Q0995 NOSIG=
201901141530 METAR LRCK 141530Z 23014KT CAVOK 03/M01 Q0995 NOSIG=
201901141600 METAR LRCK 141600Z 24012KT 9999 FEW029 02/M01 Q0996 NOSIG=
201901141630 METAR LRCK 141630Z 25015KT CAVOK 02/M01 Q0996 NOSIG=
201901141700 METAR LRCK 141700Z 25020KT CAVOK 03/M00 Q0996 NOSIG=
201901141730 METAR LRCK 141730Z 25018KT CAVOK 03/M00 Q0996 NOSIG=
201901141800 METAR LRCK 141800Z 26016KT CAVOK 03/M00 Q0996 NOSIG=
201901141830 METAR LRCK 141830Z 26016KT CAVOK 02/M00 Q0996 NOSIG=
201901141900 METAR LRCK 141900Z 26013KT CAVOK 02/M00 Q0997 NOSIG=
201901141930 METAR LRCK 141930Z 26010KT CAVOK 01/M00 Q0997 NOSIG=
201901142000 METAR LRCK 142000Z 26015KT CAVOK 01/M00 Q0997 NOSIG=
201901142030 METAR LRCK 142030Z 26013KT CAVOK 01/M00 Q0998 NOSIG=
201901142100 METAR LRCK 142100Z 26013KT CAVOK 01/M00 Q0998 NOSIG=
201901142130 METAR LRCK 142130Z 27016KT CAVOK 01/00 Q0998 NOSIG=
201901142200 METAR LRCK 142200Z 26013KT CAVOK 01/00 Q0998 NOSIG=
201901142230 METAR LRCK 142230Z 25013KT CAVOK 01/M00 Q0998 NOSIG=
201901142300 METAR LRCK 142300Z 26014KT CAVOK 01/M00 Q0998 NOSIG=
201901142330 METAR LRCK 142330Z 26015KT CAVOK 01/00 Q0998 NOSIG=
201901150000 METAR LRCK 150000Z 27014KT CAVOK 01/00 Q0999 NOSIG=
201901150030 METAR LRCK 150030Z 27011KT CAVOK 01/00 Q0999 NOSIG=
201901150100 METAR LRCK 150100Z 27012KT CAVOK 01/M00 Q0999 NOSIG=
201901150130 METAR LRCK 150130Z 26012KT CAVOK 01/00 Q0999 NOSIG=
201901150200 METAR LRCK 150200Z 28012KT 9999 FEW047 01/M00 Q0999 NOSIG=
201901150230 METAR LRCK 150230Z 28012KT 9999 FEW049 01/M00 Q0999 NOSIG=
201901150300 METAR LRCK 150300Z 29011KT CAVOK 00/M01 Q1000 NOSIG=
201901150330 METAR LRCK 150330Z 28011KT CAVOK 00/M01 Q1000 NOSIG=
201901150400 METAR LRCK 150400Z 28008KT 8000 SCT024 00/M01 Q1000 NOSIG=
201901150430 METAR LRCK 150430Z 30008KT 6000 FEW015 SCT022 00/M01 Q1001
                        NOSIG=
201901150500 METAR LRCK 150500Z 30007KT 5000 -SN BR SCT017 SCT030 00/M01
                        Q1001 TEMPO 3000 -SN=
201901150530 METAR LRCK 150530Z 32007KT 4000 -SN BR BKN015 M00/M00 Q1001
                        R18/490295 NOSIG=
201901150600 METAR LRCK 150600Z 33008KT 3000 -SN BR BKN011 00/M00 Q1002
                        R18/490295 NOSIG=
201901150630 METAR LRCK 150630Z 32008KT 2000 -SN BR BKN005 BKN013 M00/M00
                        Q1002 R36/490295 TEMPO 0800 SN=
201901150700 METAR LRCK 150700Z 35015KT 3000 -SN BR BKN005 BKN015 M00/M01
                        Q1003 R36/490295 TEMPO 0800 SN=
201901150730 METAR LRCK 150730Z 36016KT 2000 -SN BR BKN009 BKN024 M01/M01
                        Q1004 R36/490295 TEMPO 0800 SN=
201901150800 METAR LRCK 150800Z 01019KT 0600 R18/1200D R36/0900N SN FZFG
                        BKN008 OVC024 M01/M01 Q1004 R36/490295
                        NOSIG=
201901150830 METAR LRCK 150830Z 36019KT 0500 R36/0800D SN FZFG BKN006
                        OVC025 M01/M01 Q1004 R36/490295 NOSIG=
201901150900 METAR LRCK 150900Z 36019KT 0500 R18/1500U R36/0800U SN FZFG
                        OVC005 M01/M01 Q1005 R36/590291 NOSIG=
201901150930 METAR LRCK 150930Z 01022KT 0800 R36/1700U SN FZFG BKN008
                        OVC035 M01/M01 Q1004 R36/SNOCLO//
                        NOSIG=
201901151000 METAR LRCK 151000Z 36018KT 1500 -SN BR BKN009 OVC043 M01/M01
                        Q1005 SNOCLO BECMG 3000 BR SCT020
                        BKN040=
201901151030 METAR LRCK 151030Z 36017KT 5000 -SN BR SCT008 OVC043 M01/M01
                        Q1005 SNOCLO BECMG 5000 BR=
201901151100 METAR LRCK 151100Z 35015KT 9999 FEW010 BKN046 M01/M02 Q1005
                        RESN R36/820295 NOSIG=
201901151130 METAR LRCK 151130Z 34014KT 9999 FEW048 M01/M03 Q1005 R36/820295
                        NOSIG=
201901151200 METAR LRCK 151200Z 35013KT CAVOK M01/M03 Q1006 R36/290195
                        NOSIG=
201901151230 METAR LRCK 151230Z 35014KT CAVOK M01/M03 Q1006 R36/290195
                        NOSIG=
201901151300 METAR LRCK 151300Z 35010KT CAVOK M01/M03 Q1006 R36/290195
                        NOSIG=
201901151330 METAR LRCK 151330Z 34010KT CAVOK M01/M04 Q1007 R36/290195
                        NOSIG=
201901151400 METAR LRCK 151400Z 32009KT CAVOK M01/M04 Q1007 R36/290195
                        NOSIG=
201901151430 METAR LRCK 151430Z 31009KT CAVOK M02/M05 Q1007 R36/290195
                        NOSIG=
201901151500 METAR LRCK 151500Z 31009KT CAVOK M02/M06 Q1008 R36/290195
                        NOSIG=
201901151530 METAR LRCK 151530Z 31008KT CAVOK M03/M07 Q1008 R36/22//95
                        NOSIG=
201901151600 METAR LRCK 151600Z 30007KT CAVOK M04/M08 Q1008 R36/22//95
                        NOSIG=
201901151630 METAR LRCK 151630Z 30011KT CAVOK M04/M07 Q1008 R36/22//95
                        NOSIG=
201901151700 METAR LRCK 151700Z 29011KT CAVOK M04/M06 Q1008 R36/22//95
                        NOSIG=
201901151730 METAR LRCK 151730Z 29010KT CAVOK M04/M07 Q1008 R36/22//95
                        NOSIG=
201901151800 METAR LRCK 151800Z 29012KT CAVOK M04/M05 Q1008 R36/22//95
                        NOSIG=
201901151830 METAR LRCK 151830Z 29011KT CAVOK M04/M06 Q1009 R36/22//95
                        NOSIG=
201901151900 METAR LRCK 151900Z 29010KT CAVOK M05/M07 Q1009 R36/22//95
                        NOSIG=
201901151930 METAR LRCK 151930Z 28010KT CAVOK M05/M07 Q1009 R36/22//95
                        NOSIG=
201901152000 METAR LRCK 152000Z 28011KT CAVOK M04/M08 Q1009 R36/22//95
                        NOSIG=
201901152030 METAR LRCK 152030Z 28011KT CAVOK M05/M08 Q1010 R36/22//95
                        NOSIG=
201901152100 METAR LRCK 152100Z 27010KT CAVOK M06/M09 Q1010 R36/22//95
                        NOSIG=
201901152130 METAR LRCK 152130Z 27007KT CAVOK M05/M09 Q1010 R36/22//95
                        NOSIG=
201901152200 METAR LRCK 152200Z 28008KT CAVOK M06/M10 Q1010 R36/22//95
                        NOSIG=
201901152230 METAR LRCK 152230Z 25008KT CAVOK M06/M09 Q1010 R36/22//95
                        NOSIG=
201901152300 METAR LRCK 152300Z 27010KT CAVOK M06/M09 Q1010 R36/22//95
                        NOSIG=
201901152330 METAR LRCK 152330Z 27009KT CAVOK M07/M10 Q1010 R36/22//95
                        NOSIG=
201901160000 METAR LRCK 160000Z 27009KT CAVOK M07/M08 Q1010 R36/22//95
                        NOSIG=
201901160030 METAR LRCK 160030Z 26012KT CAVOK M06/M08 Q1011 R36/22//95
                        NOSIG=
201901160100 METAR LRCK 160100Z 27013KT CAVOK M06/M08 Q1011 R36/22//95
                        NOSIG=
201901160130 METAR LRCK 160130Z 27009KT CAVOK M06/M08 Q1011 R36/22//95
                        NOSIG=
201901160200 METAR LRCK 160200Z 27012KT CAVOK M06/M08 Q1011 R36/CLRD//
                        NOSIG=
201901160230 METAR LRCK 160230Z 27010KT CAVOK M07/M08 Q1011 NOSIG=
201901160300 METAR LRCK 160300Z 27009KT CAVOK M07/M09 Q1011 NOSIG=
201901160330 METAR LRCK 160330Z 27010KT CAVOK M07/M09 Q1010 NOSIG=
201901160400 METAR LRCK 160400Z 25009KT CAVOK M08/M10 Q1010 NOSIG=
201901160430 METAR LRCK 160430Z 26011KT CAVOK M07/M09 Q1010 NOSIG=
201901160500 METAR LRCK 160500Z 25008KT CAVOK M08/M10 Q1010 NOSIG=
201901160530 METAR LRCK 160530Z 27010KT CAVOK M06/M08 Q1010 NOSIG=
201901160600 METAR LRCK 160600Z 25014KT CAVOK M05/M07 Q1010 NOSIG=
201901160630 METAR LRCK 160630Z 25013KT CAVOK M04/M06 Q1010 NOSIG=
201901160700 METAR LRCK 160700Z 25011KT CAVOK M03/M05 Q1010 NOSIG=
201901160730 METAR LRCK 160730Z 25008KT CAVOK M02/M04 Q1010 NOSIG=
201901160800 METAR LRCK 160800Z 25015KT CAVOK M01/M03 Q1010 NOSIG=
201901160830 METAR LRCK 160830Z 25013KT CAVOK M01/M03 Q1010 NOSIG=
201901160900 METAR LRCK 160900Z 25010KT CAVOK M00/M03 Q1009 NOSIG=
201901160930 METAR LRCK 160930Z 25013KT 9999 FEW049 01/M02 Q1009 NOSIG=
201901161000 METAR LRCK 161000Z 25014KT CAVOK 02/M01 Q1008 NOSIG=
201901161030 METAR LRCK 161030Z 26017KT CAVOK 03/M02 Q1008 NOSIG=
201901161100 METAR LRCK 161100Z 26017KT CAVOK 02/M02 Q1008 NOSIG=
201901161130 METAR LRCK 161130Z 26017KT CAVOK 03/M01 Q1008 NOSIG=
201901161200 METAR LRCK 161200Z 26017KT CAVOK 03/M01 Q1008 NOSIG=
201901161230 METAR LRCK 161230Z 26016KT CAVOK 03/M01 Q1008 NOSIG=
201901161300 METAR LRCK 161300Z 27016KT CAVOK 03/M01 Q1009 NOSIG=
201901161330 METAR LRCK 161330Z 27014KT CAVOK 02/M01 Q1009 NOSIG=
201901161400 METAR LRCK 161400Z 27014KT CAVOK 02/M01 Q1009 NOSIG=
201901161430 METAR LRCK 161430Z 27015KT CAVOK 02/M01 Q1009 NOSIG=
201901161500 METAR LRCK 161500Z 27014KT CAVOK 01/M01 Q1010 NOSIG=
201901161530 METAR LRCK 161530Z 27014KT CAVOK 01/M01 Q1010 NOSIG=
201901161600 METAR LRCK 161600Z 27013KT CAVOK 01/M01 Q1011 NOSIG=
201901161630 METAR LRCK 161630Z 28011KT CAVOK 01/M01 Q1011 NOSIG=
201901161700 METAR LRCK 161700Z 28011KT CAVOK 01/M01 Q1012 NOSIG=
201901161730 METAR LRCK 161730Z 29009KT CAVOK 00/M01 Q1012 NOSIG=
201901161800 METAR LRCK 161800Z 28009KT CAVOK 00/M01 Q1012 NOSIG=
201901161830 METAR LRCK 161830Z 28009KT CAVOK 00/M01 Q1013 NOSIG=
201901161900 METAR LRCK 161900Z 28007KT CAVOK M00/M02 Q1013 NOSIG=
201901161930 METAR LRCK 161930Z 29005KT CAVOK M01/M02 Q1014 NOSIG=
201901162000 METAR LRCK 162000Z 28006KT CAVOK M00/M01 Q1014 NOSIG=
201901162030 METAR LRCK 162030Z 29007KT CAVOK M01/M02 Q1015 NOSIG=
201901162100 METAR LRCK 162100Z 29006KT CAVOK M01/M01 Q1015 NOSIG=
201901162130 METAR LRCK 162130Z 29006KT CAVOK M00/M01 Q1015 NOSIG=
201901162200 METAR COR LRCK 162200Z 26007KT CAVOK M00/M01 Q1015 NOSIG=
201901162230 METAR LRCK 162230Z 23004KT CAVOK M00/M01 Q1016 NOSIG=
201901162300 METAR LRCK 162300Z 28004KT CAVOK M00/M01 Q1016 NOSIG=
201901162330 METAR LRCK 162330Z 26005KT 230V290 CAVOK M00/M01 Q1016 NOSIG=
201901170000 METAR COR LRCK 170000Z VRB01KT CAVOK M00/M01 Q1017 NOSIG=
201901170030 METAR LRCK 170030Z 00000KT CAVOK M01/M01 Q1017 NOSIG=
201901170100 METAR LRCK 170100Z 00000KT CAVOK M00/M01 Q1017 NOSIG=
201901170130 METAR LRCK 170130Z 00000KT CAVOK M01/M01 Q1017 NOSIG=
201901170200 METAR LRCK 170200Z VRB01KT 8000 NSC M01/M01 Q1017 NOSIG=
201901170230 METAR LRCK 170230Z 17003KT 6000 NSC M01/M02 Q1017 NOSIG=
201901170300 METAR LRCK 170300Z 15003KT 5000 BR NSC M01/M01 Q1017 NOSIG=
201901170330 METAR LRCK 170330Z 13002KT 5000 BR NSC M02/M02 Q1017 NOSIG=
201901170400 METAR LRCK 170400Z 12004KT 5000 BR NSC M02/M02 Q1017 NOSIG=
201901170430 METAR LRCK 170430Z 10003KT 8000 NSC M02/M03 Q1017 NOSIG=
201901170500 METAR LRCK 170500Z 20004KT CAVOK M02/M03 Q1018 NOSIG=
201901170530 METAR LRCK 170530Z 18005KT CAVOK M02/M03 Q1018 NOSIG=
201901170600 METAR LRCK 170600Z 17007KT CAVOK M02/M03 Q1017 NOSIG=
201901170630 METAR LRCK 170630Z 19008KT CAVOK M01/M02 Q1018 NOSIG=
201901170700 METAR LRCK 170700Z 20007KT CAVOK 00/M01 Q1018 NOSIG=
201901170730 METAR LRCK 170730Z 18006KT CAVOK 01/M00 Q1018 NOSIG=
201901170800 METAR LRCK 170800Z 21005KT CAVOK 01/M00 Q1018 NOSIG=
201901170830 METAR LRCK 170830Z 19005KT CAVOK 03/00 Q1018 NOSIG=
201901170900 METAR LRCK 170900Z 19006KT CAVOK 04/01 Q1018 NOSIG=
201901170930 METAR LRCK 170930Z 20006KT CAVOK 05/01 Q1018 NOSIG=
201901171000 METAR LRCK 171000Z 20008KT CAVOK 05/01 Q1017 NOSIG=
201901171030 METAR LRCK 171030Z 20010KT CAVOK 07/03 Q1017 NOSIG=
201901171100 METAR LRCK 171100Z 19009KT CAVOK 07/02 Q1017 NOSIG=
201901171130 METAR LRCK 171130Z 21009KT CAVOK 08/02 Q1016 NOSIG=
201901171200 METAR LRCK 171200Z 20010KT CAVOK 08/02 Q1016 NOSIG=
201901171230 METAR LRCK 171230Z 21010KT CAVOK 08/02 Q1016 NOSIG=
201901171300 METAR LRCK 171300Z 21010KT CAVOK 08/03 Q1016 NOSIG=
201901171330 METAR LRCK 171330Z 21008KT CAVOK 08/03 Q1016 NOSIG=
201901171400 METAR LRCK 171400Z 21007KT CAVOK 07/03 Q1015 NOSIG=
201901171430 METAR LRCK 171430Z 21006KT CAVOK 06/02 Q1015 NOSIG=
201901171500 METAR LRCK 171500Z 19009KT CAVOK 04/02 Q1015 NOSIG=
201901171530 METAR LRCK 171530Z 19011KT CAVOK 02/00 Q1015 NOSIG=
201901171600 METAR LRCK 171600Z 19010KT CAVOK 03/01 Q1015 NOSIG=
201901171630 METAR LRCK 171630Z 21008KT CAVOK 03/01 Q1015 NOSIG=
201901171700 METAR LRCK 171700Z 21008KT CAVOK 01/00 Q1015 NOSIG=
201901171730 METAR LRCK 171730Z 22009KT CAVOK 01/M00 Q1015 NOSIG=
201901171800 METAR LRCK 171800Z 21008KT CAVOK 01/M00 Q1015 NOSIG=
201901171830 METAR LRCK 171830Z 22007KT CAVOK 03/00 Q1015 NOSIG=
201901171900 METAR LRCK 171900Z 21009KT CAVOK 02/M00 Q1015 NOSIG=
201901171930 METAR LRCK 171930Z 21010KT CAVOK 02/M00 Q1015 NOSIG=
201901172000 METAR LRCK 172000Z 21007KT CAVOK 00/M01 Q1015 NOSIG=
201901172030 METAR LRCK 172030Z 24006KT CAVOK 00/M01 Q1015 NOSIG=
201901172100 METAR LRCK 172100Z 23009KT CAVOK 02/M01 Q1015 NOSIG=
201901172130 METAR LRCK 172130Z 22009KT CAVOK 01/M01 Q1015 NOSIG=
201901172200 METAR LRCK 172200Z 23009KT CAVOK 01/M01 Q1015 NOSIG=
201901172230 METAR LRCK 172230Z 23008KT CAVOK 01/M01 Q1015 NOSIG=
201901172300 METAR LRCK 172300Z 24008KT CAVOK 01/M01 Q1015 NOSIG=
201901172330 METAR LRCK 172330Z 23008KT CAVOK 01/M01 Q1015 NOSIG=
201901180000 METAR LRCK 180000Z 24008KT CAVOK 01/M01 Q1015 NOSIG=
201901180030 METAR LRCK 180030Z 25007KT CAVOK 01/M01 Q1015 NOSIG=
201901180100 METAR LRCK 180100Z 23007KT CAVOK 00/M01 Q1015 NOSIG=
201901180130 METAR LRCK 180130Z 24007KT CAVOK 00/M01 Q1014 NOSIG=
201901180200 METAR LRCK 180200Z 24007KT CAVOK 00/M01 Q1014 NOSIG=
201901180230 METAR LRCK 180230Z 25007KT CAVOK M00/M02 Q1015 NOSIG=
201901180300 METAR LRCK 180300Z 24006KT CAVOK M00/M02 Q1014 NOSIG=
201901180330 METAR LRCK 180330Z 27008KT CAVOK M00/M02 Q1014 NOSIG=
201901180400 METAR LRCK 180400Z 26007KT CAVOK M01/M02 Q1014 NOSIG=
201901180430 METAR LRCK 180430Z 25007KT CAVOK 00/M02 Q1014 NOSIG=
201901180500 METAR LRCK 180500Z 26007KT CAVOK 00/M02 Q1014 NOSIG=
201901180530 METAR LRCK 180530Z 26007KT CAVOK M01/M02 Q1015 NOSIG=
201901180600 METAR LRCK 180600Z 26006KT CAVOK 00/M02 Q1015 NOSIG=
201901180630 METAR LRCK 180630Z 28006KT CAVOK 01/M01 Q1015 NOSIG=
201901180700 METAR LRCK 180700Z 29006KT CAVOK 03/M00 Q1015 NOSIG=
201901180730 METAR LRCK 180730Z 29006KT CAVOK 05/00 Q1015 NOSIG=
201901180800 METAR LRCK 180800Z 27007KT CAVOK 06/M00 Q1015 NOSIG=
201901180830 METAR LRCK 180830Z 27007KT CAVOK 07/00 Q1015 NOSIG=
201901180900 METAR LRCK 180900Z 26007KT CAVOK 07/00 Q1015 NOSIG=
201901180930 METAR LRCK 180930Z 25007KT CAVOK 07/00 Q1015 NOSIG=
201901181000 METAR LRCK 181000Z 25008KT CAVOK 08/01 Q1015 NOSIG=
201901181030 METAR LRCK 181030Z 26008KT CAVOK 09/01 Q1015 NOSIG=
201901181100 METAR LRCK 181100Z 27008KT CAVOK 10/01 Q1014 NOSIG=
201901181130 METAR LRCK 181130Z 25007KT CAVOK 10/02 Q1014 NOSIG=
201901181200 METAR LRCK 181200Z 25007KT CAVOK 10/02 Q1014 NOSIG=
201901181230 METAR LRCK 181230Z 25007KT CAVOK 11/03 Q1014 NOSIG=
201901181300 METAR LRCK 181300Z 22005KT CAVOK 11/02 Q1014 NOSIG=
201901181330 METAR LRCK 181330Z 19007KT CAVOK 11/03 Q1014 NOSIG=
201901181400 METAR LRCK 181400Z 20007KT CAVOK 10/02 Q1014 NOSIG=
201901181430 METAR LRCK 181430Z 18006KT CAVOK 08/04 Q1014 NOSIG=
201901181500 METAR LRCK 181500Z 18008KT CAVOK 07/03 Q1014 NOSIG=
201901181530 METAR LRCK 181530Z 18007KT CAVOK 05/02 Q1014 NOSIG=
201901181600 METAR LRCK 181600Z 20005KT CAVOK 05/03 Q1014 NOSIG=
201901181630 METAR LRCK 181630Z 23004KT CAVOK 04/02 Q1014 NOSIG=
201901181700 METAR LRCK 181700Z 26006KT CAVOK 03/02 Q1014 NOSIG=
201901181730 METAR LRCK 181730Z 28008KT CAVOK 03/02 Q1014 NOSIG=
201901181800 METAR LRCK 181800Z 26005KT CAVOK 03/02 Q1014 NOSIG=
201901181830 METAR LRCK 181830Z 26007KT 6000 NSC 03/01 Q1014 NOSIG=
201901181900 METAR LRCK 181900Z 26006KT 7000 NSC 03/01 Q1014 NOSIG=
201901181930 METAR LRCK 181930Z 27005KT CAVOK 03/01 Q1013 NOSIG=
201901182000 METAR LRCK 182000Z 27006KT 8000 NSC 01/M00 Q1014 NOSIG=
201901182030 METAR LRCK 182030Z 28007KT 7000 NSC 02/00 Q1014 NOSIG=
201901182100 METAR LRCK 182100Z 28007KT 7000 NSC 01/00 Q1014 NOSIG=
201901182130 METAR LRCK 182130Z 28006KT 6000 NSC 02/00 Q1014 NOSIG=
201901182200 METAR LRCK 182200Z 29005KT 8000 NSC 02/00 Q1014 NOSIG=
201901182230 METAR LRCK 182230Z 27006KT CAVOK 02/M00 Q1014 NOSIG=
201901182300 METAR LRCK 182300Z 27007KT 8000 NSC 02/M00 Q1014 NOSIG=
201901182330 METAR LRCK 182330Z 29010KT 8000 NSC 03/M00 Q1015 NOSIG=
201901190000 METAR LRCK 190000Z 28010KT CAVOK 02/M00 Q1015 NOSIG=
201901190030 METAR LRCK 190030Z 26009KT CAVOK 03/M00 Q1015 NOSIG=
201901190100 METAR LRCK 190100Z 26008KT CAVOK 02/M01 Q1015 NOSIG=
201901190130 METAR LRCK 190130Z 27007KT CAVOK 02/M01 Q1016 NOSIG=
201901190200 METAR LRCK 190200Z 32006KT CAVOK 01/M01 Q1016 NOSIG=
201901190230 METAR LRCK 190230Z 34007KT 7000 NSC 01/M01 Q1016 TEMPO 5000
                        BR=
201901190300 METAR LRCK 190300Z 35009KT 7000 NSC 00/M02 Q1016 TEMPO 5000
                        BR=
201901190330 METAR LRCK 190330Z 02003KT 340V050 6000 NSC M00/M01 Q1017
                        TEMPO 5000 BR=
201901190400 METAR LRCK 190400Z 36010KT 6000 NSC 00/M01 Q1018 TEMPO 5000
                        BR=
201901190430 METAR LRCK 190430Z 36009KT 6000 NSC M00/M01 Q1018 NOSIG=
201901190500 METAR LRCK 190500Z 34006KT 6000 NSC M00/M01 Q1019 NOSIG=
201901190530 METAR LRCK 190530Z 35008KT 5000 BR NSC M01/M02 Q1019 NOSIG=
201901190600 METAR LRCK 190600Z 35004KT 5000 BR NSC M01/M01 Q1019 NOSIG=
201901190630 METAR LRCK 190630Z 02007KT 8000 NSC 01/M00 Q1020 NOSIG=
201901190700 METAR LRCK 190700Z 01008KT CAVOK 01/00 Q1021 NOSIG=
201901190730 METAR LRCK 190730Z 03009KT CAVOK 02/M00 Q1021 NOSIG=
201901190800 METAR LRCK 190800Z 02008KT CAVOK 02/M00 Q1021 NOSIG=
201901190830 METAR LRCK 190830Z 03009KT CAVOK 02/M00 Q1022 NOSIG=
201901190900 METAR LRCK 190900Z 02009KT CAVOK 02/M00 Q1022 NOSIG=
201901190930 METAR LRCK 190930Z 02010KT CAVOK 02/M00 Q1022 NOSIG=
201901191000 METAR LRCK 191000Z 02011KT CAVOK 02/M00 Q1022 NOSIG=
201901191030 METAR LRCK 191030Z 02010KT CAVOK 02/M00 Q1022 NOSIG=
201901191100 METAR LRCK 191100Z 02009KT CAVOK 02/M00 Q1022 NOSIG=
201901191130 METAR LRCK 191130Z 02010KT CAVOK 02/M00 Q1022 NOSIG=
201901191200 METAR LRCK 191200Z 02010KT CAVOK 02/M00 Q1023 NOSIG=
201901191230 METAR LRCK 191230Z 02007KT CAVOK 02/M00 Q1023 NOSIG=
201901191300 METAR LRCK 191300Z 02008KT 9999 SCT048 02/M00 Q1023 NOSIG=
201901191330 METAR LRCK 191330Z 04009KT 9999 SCT048 02/M00 Q1023 NOSIG=
201901191400 METAR LRCK 191400Z 03009KT 9999 BKN046 01/M01 Q1023 NOSIG=
201901191430 METAR LRCK 191430Z 03008KT 9999 BKN046 01/M01 Q1023 NOSIG=
201901191500 METAR LRCK 191500Z 03008KT 9999 BKN046 01/M01 Q1023 NOSIG=
201901191530 METAR LRCK 191530Z 03007KT 9999 OVC047 01/M01 Q1023 NOSIG=
201901191600 METAR LRCK 191600Z 04007KT 9999 OVC046 01/M01 Q1023 NOSIG=
201901191630 METAR LRCK 191630Z 03009KT 9999 -SN OVC043 01/M02 Q1023 NOSIG=
201901191700 METAR LRCK 191700Z 04010KT 9999 -SN OVC043 00/M02 Q1023 NOSIG=
201901191730 METAR LRCK 191730Z 04011KT 9999 OVC043 00/M02 Q1024 NOSIG=
201901191800 METAR LRCK 191800Z 04012KT 9999 OVC042 00/M02 Q1024 NOSIG=
201901191830 METAR LRCK 191830Z 04012KT 9999 BKN044 00/M02 Q1023 NOSIG=
201901191900 METAR LRCK 191900Z 04012KT 9999 SCT044 00/M02 Q1023 NOSIG=
201901191930 METAR LRCK 191930Z 04013KT 9999 SCT015 00/M02 Q1023 NOSIG=
201901192000 METAR LRCK 192000Z 04011KT 9999 BKN015 00/M02 Q1024 NOSIG=
201901192030 METAR LRCK 192030Z 04011KT 9999 BKN018 00/M02 Q1024 NOSIG=
201901192100 METAR LRCK 192100Z 04010KT 9999 SCT012 BKN020 00/M01 Q1023
                        NOSIG=
201901192130 METAR COR LRCK 192130Z 04010KT 9999 SCT013 BKN018 00/M01
                        Q1023 NOSIG=
201901192200 METAR LRCK 192200Z 04008KT 9999 BKN013 00/M01 Q1024 NOSIG=
201901192230 METAR LRCK 192230Z 05008KT 9999 BKN014 00/M01 Q1023 NOSIG=
201901192300 METAR LRCK 192300Z 03009KT 9999 BKN012 00/M01 Q1023 BECMG
                        BKN010=
201901192330 METAR LRCK 192330Z 03008KT 9999 BKN011 00/M01 Q1023 BECMG
                        BKN010=
201901200000 METAR LRCK 200000Z 04009KT 9999 BKN014 00/M01 Q1022 BECMG
                        BKN010=
201901200030 METAR LRCK 200030Z 05009KT 9999 BKN015 01/M01 Q1022 BECMG
                        BKN010=
201901200100 METAR LRCK 200100Z 04010KT 9999 BKN015 01/M01 Q1022 BECMG
                        BKN010=
201901200130 METAR LRCK 200130Z 04009KT 9999 BKN015 01/M00 Q1022 NOSIG=
201901200200 METAR LRCK 200200Z 03008KT 9999 OVC015 01/M00 Q1022 NOSIG=
201901200230 METAR LRCK 200230Z 03008KT 9999 OVC015 01/00 Q1022 NOSIG=
201901200300 METAR LRCK 200300Z 06007KT 9999 OVC013 01/00 Q1021 NOSIG=
201901200330 METAR LRCK 200330Z 03007KT 9999 OVC013 01/00 Q1021 NOSIG=
201901200400 METAR LRCK 200400Z 04008KT 9999 OVC013 01/00 Q1021 NOSIG=
201901200430 METAR LRCK 200430Z 03007KT 9999 OVC012 01/01 Q1021 NOSIG=
201901200500 METAR LRCK 200500Z 03006KT 9999 OVC012 01/01 Q1020 NOSIG=
201901200530 METAR LRCK 200530Z 06007KT 8000 OVC012 01/01 Q1020 NOSIG=
201901200600 METAR LRCK 200600Z 06006KT 5000 -DZ BR OVC010 01/01 Q1020
                        NOSIG=
201901200630 METAR LRCK 200630Z VRB03KT 6000 OVC007 02/01 Q1020 NOSIG=
201901200700 METAR LRCK 200700Z 07004KT 3500 -DZ BR OVC004 02/02 Q1020
                        NOSIG=
201901200730 METAR LRCK 200730Z 11007KT 0500 R18/0650D R36/0900D FG BKN002
                        OVC013 03/03 Q1020 TEMPO 0350 FG
                        VV001=
201901200800 METAR LRCK 200800Z 12007KT 0800 R18/1200U R36/1500D -DZ FG
                        OVC006 03/03 Q1020 R36/19//95 BECMG
                        1500 BR BKN010=
201901200830 METAR LRCK 200830Z 13008KT 0800 R18/1000D R36/1400U -DZ FG
                        OVC002 04/04 Q1020 R36/19//95 BECMG
                        1500 BR BKN010=
201901200900 METAR LRCK 200900Z 13008KT 2000 BR OVC002 05/05 Q1019 R36/19//95
                        BECMG 1500 BR BKN010=
201901200930 METAR LRCK 200930Z 13009KT 3000 BR OVC003 05/05 Q1019 R36/19//95
                        BECMG 5000 BKN005=
201901201000 METAR LRCK 201000Z 14006KT 5000 BR OVC005 05/05 Q1019 R36/19//95
                        NOSIG=
201901201030 METAR LRCK 201030Z 13007KT 5000 BR OVC007 05/05 Q1018 R36/19//95
                        NOSIG=
201901201100 METAR LRCK 201100Z 11005KT 080V150 7000 BKN010 06/05 Q1018
                        R36/19//95 NOSIG=
201901201130 METAR LRCK 201130Z 12007KT 8000 BKN009 06/05 Q1017 R36/19//95
                        NOSIG=
201901201200 METAR LRCK 201200Z 13008KT 8000 BKN010 06/05 Q1017 R36/19//95
                        NOSIG=
201901201230 METAR LRCK 201230Z 13008KT 7000 OVC010 06/05 Q1017 R36/19//95
                        NOSIG=
201901201300 METAR LRCK 201300Z 13006KT 6000 OVC009 06/05 Q1016 R18/19//95
                        NOSIG=
201901201330 METAR LRCK 201330Z 14008KT 2500 BR OVC007 05/05 Q1016 R18/19//95
                        TEMPO 1500 BR OVC005=
201901201400 METAR LRCK 201400Z 13008KT 0800 R18/1500D R36/P2000 FG OVC004
                        05/05 Q1016 R18/19//95 NOSIG=
201901201430 METAR LRCK 201430Z 13008KT 0200 R18/0450N R36/0800D FG VV002
                        05/05 Q1016 R18/19//95 NOSIG=
201901201500 METAR LRCK 201500Z 13007KT 0150 R18/0500N R36/0600N FG VV002
                        05/05 Q1015 R18/19//95 NOSIG=
201901201530 METAR LRCK 201530Z 13007KT 0150 R18/0400N R36/0450N FG VV002
                        05/05 Q1015 R18/19//95 NOSIG=
201901201600 METAR LRCK 201600Z 13009KT 0100 R18/0400N R36/0400N FG VV001
                        05/05 Q1015 R18/19//95 NOSIG=
201901201630 METAR LRCK 201630Z 15006KT 0500 0150N R18/0375N R36/0800U
                        FG VV002 05/05 Q1015 R18/19//95 NOSIG=
201901201700 METAR LRCK 201700Z 16008KT 0800 0200N R18/0550N R36/1700N
                        FG VV002 05/05 Q1015 R18/19//95 NOSIG=
201901201730 METAR LRCK 201730Z 16008KT 0400 0150N R18/0500N R36/0750D
                        -RA FG VV002 05/05 Q1015 R18/19//95
                        NOSIG=
201901201800 METAR LRCK 201800Z 17008KT 0600 0150N R18/0450N R36/1100U
                        FG VV002 05/05 Q1015 R18/19//95 NOSIG=
201901201830 METAR LRCK 201830Z 17008KT 0400 R18/0550N R36/1100N FG VV002
                        05/05 Q1014 R18/290195 NOSIG=
201901201900 METAR LRCK 201900Z 17008KT 0200 R18/0450N R36/0700N FG VV002
                        05/05 Q1014 R18/290195 NOSIG=
201901201930 METAR LRCK 201930Z 17007KT 0150 R18/0400N R36/0500N -DZ FG
                        VV002 05/05 Q1014 R18/290195 NOSIG=
201901202000 METAR LRCK 202000Z 19005KT 0150 R18/0400N R36/0400N -DZ FG
                        VV002 05/05 Q1014 R18/290195 NOSIG=
201901202030 METAR LRCK 202030Z 20007KT 0150 R18/0450N R36/0400N -DZ FG
                        VV002 05/05 Q1014 R18/290195 NOSIG=
201901202100 METAR COR LRCK 202100Z 20007KT 0200 R18/0600N R36/0550N -DZ
                        FG BKN002 OVC020 05/05 Q1014 R18/290195
                        NOSIG=
201901202130 METAR LRCK 202130Z 22005KT 0150 R18/0550N R36/0450N FG VV002
                        04/04 Q1014 R18/290195 NOSIG=
201901202200 METAR LRCK 202200Z 22007KT 0100 R18/0800U R36/0400N FG VV002
                        04/04 Q1014 R18/290195 NOSIG=
201901202230 METAR LRCK 202230Z 24006KT 0300 R18/0900U R36/0650N FG VV002
                        05/05 Q1014 R18/290195 BECMG 0800=
201901202300 METAR LRCK 202300Z 27011KT 0350 R18/0600N R36/1000U FG VV002
                        04/04 Q1014 R18/290195 BECMG 0600=
201901202330 METAR LRCK 202330Z 27014KT 1500 BR OVC003 03/03 Q1014 R18/290195
                        BECMG 3000 BKN005=
201901210000 METAR LRCK 210000Z 28019KT 2000 BR OVC004 02/02 Q1014 R18/290195
                        NOSIG=
201901210030 METAR LRCK 210030Z 27018KT 3000 BR SCT002 OVC004 02/02 Q1014
                        R18/290195 NOSIG=
201901210100 METAR LRCK 210100Z 26014KT 3000 BR BKN004 02/02 Q1014 R18/290195
                        NOSIG=
201901210130 METAR COR LRCK 210130Z 27018KT 3000 BR OVC004 02/02 Q1014
                        R18/290195 NOSIG=
201901210200 METAR COR LRCK 210200Z 28024KT 2000 BR OVC002 01/01 Q1014
                        R18/290195 NOSIG=
201901210230 METAR LRCK 210230Z 28025KT 0400 R18/0900D R36/1000D FG VV002
                        00/00 Q1014 R18/290195 TEMPO 0350
                        FG OVC001=
201901210300 METAR LRCK 210300Z 27021KT 0400 R18/0800N R36/1200D FG VV002
                        00/00 Q1014 R18/290195 TEMPO 0350
                        FG OVC001=
201901210330 METAR LRCK 210330Z 27020KT 0600 R18/1200D R36/1400U FG OVC002
                        00/00 Q1014 R18/290195 TEMPO 0350
                        FG OVC001=
201901210400 METAR COR LRCK 210400Z 27016KT 0600 R18/0900V1600U R36/1100N
                        FG OVC002 00/00 Q1015 R18/290195
                        TEMPO 0350 FG OVC001=
201901210430 METAR LRCK 210430Z 27016KT 0800 R18/1300D R36/P2000 FG OVC001
                        00/00 Q1015 R18/290195 NOSIG=
201901210500 METAR LRCK 210500Z 28021KT 1000 R18/1800N BR OVC002 00/00
                        Q1015 R18/290195 BECMG 1500 BR=
201901210530 METAR LRCK 210530Z 28017KT 1500 BR OVC002 00/00 Q1016 R18/290195
                        TEMPO 0800 FG OVC001=
201901210600 METAR LRCK 210600Z 29018KT 0800 R18/1100U R36/1600U FG OVC002
                        00/00 Q1016 R18/290195 TEMPO 0600
                        FG OVC001=
201901210630 METAR LRCK 210630Z 30011KT 3000 BR OVC004 01/01 Q1017 R18/290195
                        BECMG 7000 NSW BKN010=
201901210700 METAR LRCK 210700Z 31012KT 5000 BR BKN008 00/00 Q1017 R18/290195
                        BECMG 7000 NSW BKN010=
201901210730 METAR LRCK 210730Z 31013KT 9999 BKN010 00/00 Q1017 R36/290195
                        NOSIG=
201901210800 METAR LRCK 210800Z 32013KT 9999 BKN010 02/02 Q1018 R36/290195
                        NOSIG=
201901210830 METAR LRCK 210830Z 31015KT 9999 SCT010 01/01 Q1018 R36/290195
                        NOSIG=
201901210900 METAR LRCK 210900Z 31015KT 9999 SCT012 01/01 Q1019 R36/290195
                        NOSIG=
201901210930 METAR LRCK 210930Z 31014KT 9999 SCT012 01/01 Q1019 NOSIG=
201901211000 METAR LRCK 211000Z 32010KT 9999 BKN015 01/01 Q1019 NOSIG=
201901211030 METAR LRCK 211030Z 32011KT 9999 BKN017 02/02 Q1019 NOSIG=
201901211100 METAR LRCK 211100Z 33010KT 9999 BKN019 03/03 Q1019 NOSIG=
201901211130 METAR LRCK 211130Z 33010KT 9999 BKN017 03/03 Q1020 NOSIG=
201901211200 METAR LRCK 211200Z 33009KT 9999 BKN017 03/02 Q1019 NOSIG=
201901211230 METAR LRCK 211230Z 33010KT 9999 BKN017 02/02 Q1019 NOSIG=
201901211300 METAR LRCK 211300Z 33009KT 9999 BKN017 02/02 Q1020 NOSIG=
201901211330 METAR LRCK 211330Z 34009KT 9999 BKN016 02/02 Q1020 NOSIG=
201901211400 METAR LRCK 211400Z 33008KT 9999 BKN016 01/01 Q1021 NOSIG=
201901211430 METAR LRCK 211430Z 34007KT 9999 BKN016 01/01 Q1021 NOSIG=
201901211500 METAR LRCK 211500Z 33007KT 9999 BKN017 00/00 Q1021 NOSIG=
201901211530 METAR LRCK 211530Z 33007KT 9999 BKN017 M00/M00 Q1021 NOSIG=
201901211600 METAR LRCK 211600Z 33006KT 9999 BKN017 M00/M00 Q1022 NOSIG=
201901211630 METAR LRCK 211630Z 36008KT 9999 BKN016 M01/M01 Q1022 NOSIG=
201901211700 METAR LRCK 211700Z 36009KT 9999 BKN017 M01/M01 Q1022 NOSIG=
201901211730 METAR LRCK 211730Z 36009KT 9999 BKN017 M01/M01 Q1022 NOSIG=
201901211800 METAR LRCK 211800Z 02009KT 9999 BKN016 M01/M01 Q1022 NOSIG=
201901211830 METAR LRCK 211830Z 01010KT 9999 BKN016 M01/M03 Q1022 NOSIG=
201901211900 METAR LRCK 211900Z 02009KT 9999 BKN016 M01/M03 Q1023 NOSIG=
201901211930 METAR LRCK 211930Z 03010KT 9999 BKN016 M01/M03 Q1023 NOSIG=
201901212000 METAR LRCK 212000Z 02008KT 9999 BKN016 M01/M03 Q1023 NOSIG=
201901212030 METAR LRCK 212030Z 03009KT 9999 BKN016 M01/M04 Q1023 NOSIG=
201901212100 METAR LRCK 212100Z 03008KT 9999 OVC016 M01/M04 Q1023 NOSIG=
201901212130 METAR LRCK 212130Z 05006KT 9999 OVC016 M01/M04 Q1023 NOSIG=
201901212200 METAR LRCK 212200Z 04006KT 9999 OVC016 M01/M04 Q1023 NOSIG=
201901212230 METAR LRCK 212230Z 04007KT 9999 OVC017 M01/M04 Q1023 NOSIG=
201901212300 METAR LRCK 212300Z 04007KT 9999 OVC019 M01/M04 Q1023 NOSIG=
201901212330 METAR LRCK 212330Z 05006KT 9999 OVC017 M01/M03 Q1023 NOSIG=
201901220000 METAR LRCK 220000Z 04007KT 9999 OVC016 M01/M04 Q1023 NOSIG=
201901220030 METAR LRCK 220030Z 05009KT 9999 OVC019 M02/M05 Q1023 NOSIG=
201901220100 METAR LRCK 220100Z 05006KT 9999 OVC020 M02/M04 Q1023 NOSIG=
201901220130 METAR LRCK 220130Z 04006KT 9999 OVC020 M02/M05 Q1023 NOSIG=
201901220200 METAR LRCK 220200Z 04005KT 9999 OVC020 M02/M05 Q1023 NOSIG=
201901220230 METAR LRCK 220230Z 03007KT 9999 BKN020 M02/M04 Q1023 NOSIG=
201901220300 METAR LRCK 220300Z 03007KT 9999 BKN021 M02/M04 Q1023 NOSIG=
201901220330 METAR LRCK 220330Z 02006KT 9999 OVC020 M02/M04 Q1022 NOSIG=
201901220400 METAR LRCK 220400Z 01006KT 9999 BKN020 M03/M04 Q1022 NOSIG=
201901220430 METAR LRCK 220430Z 36005KT 9999 BKN018 M03/M05 Q1022 NOSIG=
201901220500 METAR LRCK 220500Z 36005KT 9999 OVC018 M03/M05 Q1022 NOSIG=
201901220530 METAR LRCK 220530Z 03005KT 9999 OVC018 M02/M04 Q1022 NOSIG=
201901220600 METAR LRCK 220600Z 02005KT 9999 OVC017 M02/M04 Q1022 NOSIG=
201901220630 METAR LRCK 220630Z 01004KT 9999 OVC017 M02/M04 Q1022 NOSIG=
201901220700 METAR LRCK 220700Z 02003KT 9999 OVC017 M02/M03 Q1022 NOSIG=
201901220730 METAR LRCK 220730Z 03003KT 350V050 9999 OVC017 M02/M03 Q1022
                        NOSIG=
201901220800 METAR LRCK 220800Z 04005KT 9999 OVC018 M01/M03 Q1022 NOSIG=
201901220830 METAR LRCK 220830Z 04006KT 9999 OVC019 M01/M03 Q1022 NOSIG=
201901220900 METAR LRCK 220900Z 05007KT 8000 OVC018 M01/M02 Q1021 BECMG
                        11012KT=
201901220930 METAR LRCK 220930Z 05007KT 8000 OVC018 M01/M02 Q1021 BECMG
                        11012KT=
201901221000 METAR LRCK 221000Z 06008KT 8000 OVC018 M01/M02 Q1020 BECMG
                        11012KT=
201901221030 METAR LRCK 221030Z 06007KT 8000 OVC019 M01/M02 Q1020 NOSIG=
201901221100 METAR LRCK 221100Z 06009KT 8000 BKN019 M01/M02 Q1019 NOSIG=
201901221130 METAR LRCK 221130Z 06009KT 8000 BKN022 M00/M01 Q1019 NOSIG=
201901221200 METAR LRCK 221200Z 06009KT 9999 BKN025 00/M01 Q1018 NOSIG=
201901221230 METAR LRCK 221230Z 06010KT 9999 BKN024 00/M01 Q1018 NOSIG=
201901221300 METAR LRCK 221300Z 06011KT 9999 BKN023 00/M01 Q1017 NOSIG=
201901221330 METAR LRCK 221330Z 06010KT 9999 BKN023 00/M01 Q1017 NOSIG=
201901221400 METAR LRCK 221400Z 07009KT 9999 BKN021 00/M01 Q1017 NOSIG=
201901221430 METAR LRCK 221430Z 07009KT 9999 BKN022 01/M00 Q1017 NOSIG=
201901221500 METAR LRCK 221500Z 11007KT 9999 BKN022 02/00 Q1016 NOSIG=
201901221530 METAR LRCK 221530Z 12010KT 9999 BKN023 02/M00 Q1016 NOSIG=
201901221600 METAR LRCK 221600Z 12009KT 9999 OVC021 02/00 Q1016 NOSIG=
201901221630 METAR LRCK 221630Z 13009KT 9999 OVC021 02/00 Q1015 NOSIG=
201901221700 METAR LRCK 221700Z 11010KT 9999 OVC021 02/00 Q1015 NOSIG=
201901221730 METAR LRCK 221730Z 13009KT 9999 OVC020 02/00 Q1015 NOSIG=
201901221800 METAR LRCK 221800Z 13010KT 9999 OVC020 03/01 Q1015 NOSIG=
201901221830 METAR LRCK 221830Z 14008KT 9999 OVC020 02/01 Q1014 NOSIG=
201901221900 METAR LRCK 221900Z 13010KT 9999 OVC020 03/01 Q1014 NOSIG=
201901221930 METAR LRCK 221930Z 13011KT 9999 OVC019 03/01 Q1013 NOSIG=
201901222000 METAR LRCK 222000Z 13012KT 9999 OVC018 03/02 Q1013 NOSIG=
201901222030 METAR LRCK 222030Z 14013KT 9999 OVC018 03/02 Q1013 NOSIG=
201901222100 METAR LRCK 222100Z 15012KT 9999 OVC019 03/02 Q1012 NOSIG=
201901222130 METAR LRCK 222130Z 15011KT 9999 OVC019 04/02 Q1012 NOSIG=
201901222200 METAR LRCK 222200Z 14007KT 9999 OVC015 04/03 Q1012 TEMPO
                        OVC010=
201901222230 METAR LRCK 222230Z 14008KT 9999 OVC015 04/03 Q1011 TEMPO
                        OVC010=
201901222300 METAR LRCK 222300Z 14008KT 9999 OVC015 04/03 Q1011 NOSIG=
201901222330 METAR LRCK 222330Z 14009KT 9999 OVC017 04/03 Q1010 NOSIG=
201901230000 METAR LRCK 230000Z 14010KT 9999 OVC017 04/03 Q1010 NOSIG=
201901230030 METAR LRCK 230030Z 14010KT 9999 OVC017 05/03 Q1009 NOSIG=
201901230100 METAR LRCK 230100Z 14010KT 9999 OVC015 04/03 Q1009 NOSIG=
201901230130 METAR LRCK 230130Z 14010KT 9999 OVC015 04/04 Q1009 NOSIG=
201901230200 METAR LRCK 230200Z 13009KT 8000 OVC015 05/04 Q1008 NOSIG=
201901230230 METAR LRCK 230230Z 14010KT 8000 OVC015 05/04 Q1007 NOSIG=
201901230300 METAR LRCK 230300Z 14012KT 8000 OVC016 05/04 Q1007 NOSIG=
201901230330 METAR LRCK 230330Z 15013KT 8000 OVC015 05/04 Q1006 TEMPO
                        5000 -RA OVC010=
201901230400 METAR LRCK 230400Z 14014KT 5000 -RA BR OVC010 05/05 Q1006
                        NOSIG=
201901230430 METAR LRCK 230430Z 14012KT 5000 -RA BR OVC010 05/05 Q1005
                        R18/19//95 NOSIG=
201901230500 METAR LRCK 230500Z 15016KT 5000 BR OVC010 06/05 Q1005 R18/19//95
                        NOSIG=
201901230530 METAR LRCK 230530Z 14012KT 3000 -RA BR OVC005 06/05 Q1005
                        R18/290195 NOSIG=
201901230600 METAR LRCK 230600Z 16011KT 3000 -RA BR OVC004 06/06 Q1005
                        R18/290195 BECMG 5000=
201901230630 METAR LRCK 230630Z 17011KT 2500 BR OVC003 06/06 Q1005 R18/290195
                        BECMG 5000=
201901230700 METAR LRCK 230700Z 17012KT 2000 BR OVC003 06/06 Q1005 R18/290195
                        NOSIG=
201901230730 METAR LRCK 230730Z 18013KT 3000 BR BKN003 OVC010 07/07 Q1004
                        R18/290195 NOSIG=
201901230800 METAR LRCK 230800Z 19013KT 3500 BR OVC006 07/07 Q1004 R18/290195
                        BECMG CAVOK=
201901230830 METAR LRCK 230830Z 21010KT 4000 BR BKN006 08/07 Q1004 R18/290195
                        BECMG CAVOK=
201901230900 METAR LRCK 230900Z 20012KT 5000 BR BKN008 09/08 Q1004 R18/290195
                        BECMG CAVOK=
201901230930 METAR LRCK 230930Z 23010KT 7000 SCT008 09/08 Q1004 R18/290195
                        BECMG CAVOK=
201901231000 METAR LRCK 231000Z 23011KT 8000 SCT014 10/07 Q1004 R18/290195
                        NOSIG=
201901231030 METAR LRCK 231030Z 24011KT 9999 SCT016 10/07 Q1004 R18/25//95
                        NOSIG=
201901231100 METAR LRCK 231100Z 25012KT 9999 FEW016 11/07 Q1003 R18/25//95
                        NOSIG=
201901231130 METAR LRCK 231130Z 26009KT 9999 FEW018 10/06 Q1003 R18/25//95
                        NOSIG=
201901231200 METAR LRCK 231200Z 25008KT 9999 FEW020 11/07 Q1003 R18/25//95
                        NOSIG=
201901231230 METAR LRCK 231230Z 24007KT CAVOK 10/07 Q1003 R18/25//95 NOSIG=
201901231300 METAR LRCK 231300Z 27007KT CAVOK 10/07 Q1003 R18/25//95 NOSIG=
201901231330 METAR LRCK 231330Z VRB02KT CAVOK 10/07 Q1003 R36/CLRD// NOSIG=
201901231400 METAR LRCK 231400Z 23004KT CAVOK 10/07 Q1003 NOSIG=
201901231430 METAR LRCK 231430Z 19003KT CAVOK 09/07 Q1003 NOSIG=
201901231500 METAR LRCK 231500Z VRB02KT 8000 NSC 08/07 Q1003 NOSIG=
201901231530 METAR LRCK 231530Z VRB01KT 5000 BR NSC 07/06 Q1003 BECMG
                        3000 BR=
201901231600 METAR LRCK 231600Z 00000KT 3000 BR NSC 06/06 Q1003 NOSIG=
201901231630 METAR LRCK 231630Z 06003KT 4000 BR NSC 05/05 Q1003 NOSIG=
201901231700 METAR LRCK 231700Z 01005KT 3000 BR NSC 05/05 Q1003 NOSIG=
201901231730 METAR LRCK 231730Z 02003KT 4000 BR NSC 04/04 Q1003 NOSIG=
201901231800 METAR LRCK 231800Z 09004KT 3000 BR NSC 04/04 Q1003 NOSIG=
201901231830 METAR LRCK 231830Z 08005KT 1500 MIFG BR NSC 04/04 Q1003 NOSIG=
201901231900 METAR LRCK 231900Z 08004KT 1500 MIFG BR SCT035 04/04 Q1003
                        NOSIG=
201901231930 METAR LRCK 231930Z 07005KT 1500 BR BKN034 04/04 Q1003 NOSIG=
201901232000 METAR LRCK 232000Z 06006KT 0300 R18/1200D R36/0800D FG SCT001
                        BKN045 04/04 Q1003 BECMG 0800 -RA
                        FG=
201901232030 METAR LRCK 232030Z 05005KT 0500 R18/0650N R36/0900N FG SCT001
                        04/04 Q1003 BECMG 0800 -RA FG=
201901232100 METAR LRCK 232100Z 07005KT 1000 R18/1800U R36/1700U -RA BR
                        FEW001 BKN033 05/05 Q1003 BECMG 3000=
201901232130 METAR LRCK 232130Z 05005KT 0600 R18/0800N R36/1000N -RA FG
                        SCT002 SCT030 04/04 Q1003 BECMG 1500=
201901232200 METAR LRCK 232200Z 07006KT 0300 R18/0600N R36/0700N FG SCT002
                        SCT035 04/04 Q1003 NOSIG=
201901232230 METAR LRCK 232230Z 05008KT 0300 R18/0450N R36/0800N -DZRA
                        FG BKN002 BKN040 04/04 Q1003 NOSIG=
201901232300 METAR LRCK 232300Z 06008KT 0300 R18/0400N R36/0550N -DZRA
                        FG BKN002 BKN039 04/04 Q1003 NOSIG=
201901232330 METAR LRCK 232330Z 06009KT 0250 R18/0500N R36/0500N -DZ FG
                        OVC001 04/04 Q1003 NOSIG=
201901240000 METAR LRCK 240000Z 04011KT 0400 R18/0800N R36/0800U FG OVC002
                        03/03 Q1003 NOSIG=
201901240030 METAR LRCK 240030Z 05010KT 0300 R18/0400N R36/0800N FG OVC002
                        03/03 Q1003 NOSIG=
201901240100 METAR LRCK 240100Z 05009KT 0250 R18/0450N R36/0700N FG VV002
                        03/03 Q1003 NOSIG=
201901240130 METAR LRCK 240130Z 04010KT 0250 R18/0400N R36/0550N FG VV002
                        03/03 Q1002 NOSIG=
201901240200 METAR LRCK 240200Z 03011KT 0150 R18/0400N R36/0500N FG VV002
                        03/03 Q1002 NOSIG=
201901240230 METAR LRCK 240230Z 05010KT 0150 R18/0350N R36/0500N FG VV002
                        03/03 Q1002 NOSIG=
201901240300 METAR LRCK 240300Z 05009KT 0150 R18/0375N R36/0550N FG VV002
                        03/03 Q1002 R36/29//95 NOSIG=
201901240330 METAR LRCK 240330Z 06010KT 0150 R18/0350N R36/0500N -DZ FG
                        VV001 03/03 Q1002 R36/29//95 NOSIG=
201901240400 METAR LRCK 240400Z 05010KT 0150 R18/0325N R36/0450N -DZ FG
                        VV001 03/03 Q1002 R36/29//95 NOSIG=
201901240430 METAR LRCK 240430Z 05010KT 0150 R18/0300N R36/0450N FG VV001
                        03/03 Q1002 R36/29//95 NOSIG=
201901240500 METAR LRCK 240500Z 04010KT 0100 R18/0300N R36/0400N FG VV001
                        03/03 Q1002 R36/29//95 NOSIG=
201901240530 METAR LRCK 240530Z 04010KT 0100 R18/0350N R36/0400N FG VV001
                        03/03 Q1002 R36/29//95 NOSIG=
201901240600 METAR LRCK 240600Z 05011KT 0100 R18/0250N R36/0325N FG VV001
                        03/03 Q1002 R36/29//95 NOSIG=
201901240630 METAR LRCK 240630Z 05011KT 0150 R18/0275N R36/0400N FG VV001
                        04/04 Q1002 R36/29//95 NOSIG=
201901240700 METAR LRCK 240700Z 05010KT 0150 R18/0275N R36/0450N FG VV002
                        04/04 Q1002 R36/29//95 BECMG 0600=
201901240730 METAR LRCK 240730Z 03012KT 0250 R18/0325N R36/0400N FG OVC001
                        04/04 Q1002 R36/29//95 BECMG 0600=
201901240800 METAR LRCK 240800Z 04011KT 1500 BR BKN003 05/05 Q1002 R36/29//95
                        BECMG 3000 BKN010=
201901240830 METAR LRCK 240830Z 05010KT 2300 0500N PRFG BR BKN002 06/06
                        Q1002 R36/29//95 NOSIG=
201901240900 METAR LRCK 240900Z 05012KT 2700 BR BKN002 06/06 Q1002 R36/29//95
                        NOSIG=
201901240930 METAR LRCK 240930Z 04011KT 5000 BR FEW001 07/07 Q1002 R36/29//95
                        NOSIG=
201901241000 METAR LRCK 241000Z 04011KT 4000 BR SCT003 07/07 Q1002 R36/29//95
                        NOSIG=
201901241030 METAR LRCK 241030Z 02011KT 4000 BR SCT003 06/06 Q1002 R36/29//95
                        NOSIG=
201901241100 METAR LRCK 241100Z 04014KT 5000 BR FEW003 06/06 Q1002 R36/29//95
                        NOSIG=
201901241130 METAR LRCK 241130Z 04014KT 7000 FEW004 07/07 Q1001 R36/29//95
                        NOSIG=
201901241200 METAR LRCK 241200Z 03015KT 6000 FEW004 06/06 Q1001 R36/29//95
                        NOSIG=
201901241230 METAR LRCK 241230Z 03017KT 6000 SCT003 06/06 Q1001 R36/29//95
                        NOSIG=
201901241300 METAR LRCK 241300Z 04016KT 4000 BR BKN003 05/05 Q1001 R36/CLRD//
                        NOSIG=
201901241330 METAR LRCK 241330Z 03017KT 2000 -RA BR OVC002 05/05 Q1001
                        NOSIG=
201901241400 METAR LRCK 241400Z 03020KT 0500 R18/1200D R36/1300D -RA FG
                        OVC001 04/04 Q1002 NOSIG=
201901241430 METAR LRCK 241430Z 03018KT 0250 R18/0450N R36/0800N -RA FG
                        VV002 04/04 Q1002 NOSIG=
201901241500 METAR LRCK 241500Z 03020KT 0200 R18/0375N R36/0650N -RA FG
                        VV002 04/04 Q1002 R36/290195 NOSIG=
201901241530 METAR LRCK 241530Z 03020KT 0300 R18/0550N R36/0650N FG VV002
                        04/04 Q1002 R36/290195 NOSIG=
201901241600 METAR LRCK 241600Z 03021KT 0300 R18/0500N R36/0650N FG VV001
                        03/03 Q1002 R36/290195 NOSIG=
201901241630 METAR LRCK 241630Z 03019KT 0300 R18/0450N R36/0600N FG VV001
                        03/03 Q1003 R36/290195 NOSIG=
201901241700 METAR LRCK 241700Z 03019KT 0200 R18/0450N R36/0600N FG VV001
                        03/03 Q1003 R36/290195 NOSIG=
201901241730 METAR LRCK 241730Z 03022KT 0250 R18/0450N R36/0550N FG VV002
                        03/03 Q1002 R36/290195 NOSIG=
201901241800 METAR LRCK 241800Z 03024KT 0250 R18/0400N R36/0500N FG VV001
                        03/03 Q1003 R36/290195 NOSIG=
201901241830 METAR LRCK 241830Z 03023KT 0100 R36/0450N FG VV001 03/03
                        Q1003 R36/290195 NOSIG=
201901241900 METAR LRCK 241900Z 03021KT 0100 R36/0450N FG VV001 03/03
                        Q1003 R36/290195 NOSIG=
201901241930 METAR LRCK 241930Z 03020KT 0150 R36/0450N FG VV001 03/03
                        Q1004 R36/290195 NOSIG=
201901242000 METAR LRCK 242000Z 03018KT 0150 R36/0500N FG VV001 03/03
                        Q1004 R36/290195 NOSIG=
201901242030 METAR LRCK 242030Z 02016KT 0100 R36/0400N FG VV001 03/03
                        Q1005 R36/290195 TEMPO 0600 -RA=
201901242100 METAR LRCK 242100Z 03017KT 0150 R36/0550N FG VV001 03/03
                        Q1005 R36/290195 NOSIG=
201901242130 METAR LRCK 242130Z 02019KT 0100 R36/0450N -DZ FG VV001 03/03
                        Q1005 R36/290195 NOSIG=
201901242200 METAR LRCK 242200Z 03018KT 0150 R36/0500N -DZ FG VV001 03/03
                        Q1005 R36/290195 NOSIG=
201901242230 METAR LRCK 242230Z 03018KT 0150 R36/0500N -DZ FG VV001 03/03
                        Q1005 R36/290195 NOSIG=
201901242300 METAR LRCK 242300Z 03020KT 0150 R36/0500N FG VV001 03/03
                        Q1005 R36/290195 NOSIG=
201901242330 METAR LRCK 242330Z 03019KT 0150 R36/0550N FG VV001 03/03
                        Q1005 R36/290195 NOSIG=
201901250000 METAR LRCK 250000Z 03018KT 0150 R36/0550N FG VV001 03/03
                        Q1006 R36/290195 NOSIG=
201901250030 METAR LRCK 250030Z 03017KT 0100 R36/0500N -DZ FG VV001 02/02
                        Q1006 R36/290195 NOSIG=
201901250100 METAR LRCK 250100Z 03018KT 0150 R36/0500N -DZ FG VV001 02/02
                        Q1006 R36/290195 NOSIG=
201901250130 METAR LRCK 250130Z 03018KT 0150 R36/0500N -DZ FG VV001 02/02
                        Q1006 R36/290195 NOSIG=
201901250200 METAR COR LRCK 250200Z 03018KT 0150 R36/0500N -DZ FG VV001
                        02/02 Q1006 R36/290195 NOSIG=
201901250230 METAR LRCK 250230Z 03018KT 0200 R36/0600N -DZ FG VV002 01/01
                        Q1006 R36/290195 NOSIG=
201901250300 METAR LRCK 250300Z 03019KT 0200 R36/0700N -RA FG VV001 01/01
                        Q1007 R36/290195 NOSIG=
201901250330 METAR COR LRCK 250330Z 03016KT 0300 R36/0700N -RA FG VV002
                        01/01 Q1007 R36/290195 NOSIG=
201901250400 METAR LRCK 250400Z 03016KT 0200 R36/0700N -RA FG VV002 01/01
                        Q1007 R36/290195 NOSIG=
201901250430 METAR LRCK 250430Z 03017KT 0200 R36/0750N -RA FG VV002 01/01
                        Q1008 R36/290195 NOSIG=
201901250500 METAR LRCK 250500Z 03017KT 0200 R36/0650N -RA FG VV002 01/01
                        Q1008 R36/290195 NOSIG=
201901250530 METAR LRCK 250530Z 04017KT 0200 R36/0700N -DZ FG VV001 01/01
                        Q1008 R36/290195 NOSIG=
201901250600 METAR LRCK 250600Z 03018KT 0100 R36/0550D -DZ FG VV001 01/01
                        Q1008 R36/290195 NOSIG=
201901250630 METAR LRCK 250630Z 03017KT 0100 R36/0450N FG VV001 01/01
                        Q1008 R36/290195 NOSIG=
201901250700 METAR LRCK 250700Z 03018KT 0100 R36/0350N FG VV001 00/00
                        Q1008 R36/19//95 NOSIG=
201901250730 METAR LRCK 250730Z 03018KT 0100 R36/0400N FG VV001 01/01
                        Q1009 R36/19//95 NOSIG=
201901250800 METAR LRCK 250800Z 04017KT 0100 R36/0350N FG VV001 01/01
                        Q1009 R36/19//95 NOSIG=
201901250830 METAR LRCK 250830Z 03017KT 0200 R36/0375N FG VV001 01/01
                        Q1009 R36/19//95 NOSIG=
201901250900 METAR LRCK 250900Z 03017KT 0200 R36/0325N FG VV002 01/01
                        Q1009 R36/19//95 NOSIG=
201901250930 METAR LRCK 250930Z 04018KT 0250 R36/0300N FG VV002 01/01
                        Q1009 R36/19//95 NOSIG=
201901251000 METAR LRCK 251000Z 04018KT 0200 R36/0300N -DZFG VV001 01/01
                        Q1008 R36/19//95 NOSIG=
201901251030 METAR LRCK 251030Z 04016KT 0200 R36/0275N -DZFG VV001 01/01
                        Q1008 R36/19//95 NOSIG=
201901251100 METAR LRCK 251100Z 03018KT 0200 R36/0275N -DZ FG VV001 01/01
                        Q1008 R36/19//95 NOSIG=
201901251130 METAR LRCK 251130Z 04017KT 0200 R36/0325N -DZ FG VV001 01/01
                        Q1008 R36/19//95 NOSIG=
201901251200 METAR LRCK 251200Z 04015KT 0250 R36/0300N FG VV002 01/01
                        Q1008 R36/19//95 NOSIG=
201901251230 METAR LRCK 251230Z 03015KT 0300 R36/0325N FG VV002 01/01
                        Q1009 R36/19//95 NOSIG=
201901251300 METAR LRCK 251300Z 03014KT 0300 R36/0600N FG VV002 01/01
                        Q1009 R36/19//95 NOSIG=
201901251330 METAR LRCK 251330Z 03013KT 0300 R36/0550N FG VV002 01/01
                        Q1009 R36/19//95 NOSIG=
201901251400 METAR LRCK 251400Z 03014KT 0300 R36/0450N -DZ FG VV002 01/01
                        Q1009 R36/19//95 NOSIG=
201901251430 METAR LRCK 251430Z 03015KT 0300 R36/0400N -DZ FG VV002 01/01
                        Q1008 R36/19//95 NOSIG=
201901251500 METAR LRCK 251500Z 03016KT 0300 R36/0550N -DZ FG VV002 01/01
                        Q1008 R36/19//95 NOSIG=
201901251530 METAR LRCK 251530Z 03019KT 0400 R36/0600N -DZ FG OVC001 01/01
                        Q1008 R36/19//95 NOSIG=
201901251600 METAR LRCK 251600Z 03017KT 0600 R36/0800N FG OVC001 01/01
                        Q1008 R36/19//95 NOSIG=
201901251630 METAR LRCK 251630Z 04016KT 0400 R36/0800N FG VV001 01/01
                        Q1008 R36/19//95 NOSIG=
201901251700 METAR LRCK 251700Z 04016KT 0400 R36/0800N FG VV001 01/01
                        Q1008 R36/19//95 NOSIG=
201901251730 METAR LRCK 251730Z 03018KT 0400 R36/0800N FG VV002 01/01
                        Q1008 R36/19//95 NOSIG=
201901251800 METAR LRCK 251800Z 04016KT 0400 R36/0700N FG VV001 01/01
                        Q1008 R36/19//95 NOSIG=
201901251830 METAR LRCK 251830Z 04017KT 0450 R18/0400N R36/0650N FG VV002
                        01/01 Q1008 R36/19//95 NOSIG=
201901251900 METAR LRCK 251900Z 04018KT 0450 R18/0400N R36/0650N FG VV002
                        01/01 Q1008 R36/19//95 NOSIG=
201901251930 METAR COR LRCK 251930Z 04015KT 0300 R18/0400N R36/0600N -DZ
                        FG VV002 01/01 Q1008 R36/19//95 NOSIG=
201901252000 METAR LRCK 252000Z 04016KT 0200 R18/0400N R36/0600N -DZ FG
                        VV002 01/01 Q1008 R36/19//95 NOSIG=
201901252030 METAR LRCK 252030Z 04015KT 0200 R18/0400N R36/0600N -RADZ
                        FG VV002 01/01 Q1008 R36/19//95 NOSIG=
201901252100 METAR LRCK 252100Z 04016KT 0200 R18/0375N R36/0600N -DZ FG
                        VV002 01/01 Q1008 R36/19//95 NOSIG=
201901252130 METAR LRCK 252130Z 04015KT 0150 R18/0375N R36/0600N -DZ FG
                        VV002 01/01 Q1008 R36/19//95 NOSIG=
201901252200 METAR LRCK 252200Z 04014KT 0150 R18/0375N R36/0600D -DZ FG
                        VV002 01/01 Q1007 R36/19//95 NOSIG=
201901252230 METAR LRCK 252230Z 04016KT 0150 R18/0325N R36/0500N -DZ FG
                        VV001 01/01 Q1007 R36/19//95 NOSIG=
201901252300 METAR LRCK 252300Z 04014KT 0150 R18/0325N R36/0500N DZ FG
                        VV001 01/01 Q1007 R36/19//95 NOSIG=
201901252330 METAR LRCK 252330Z 04015KT 0100 R18/0350N R36/0450N DZ FG
                        VV001 01/01 Q1006 R36/19//95 NOSIG=
201901260000 METAR COR LRCK 260000Z 03015KT 0100 R18/0350N R36/0400N DZ
                        FG VV001 01/01 Q1006 R36/19//95 NOSIG=
201901260030 METAR LRCK 260030Z 04015KT 0100 R18/0375N R36/0500N -DZ FG
                        VV001 01/01 Q1006 REDZ R36/19//95
                        NOSIG=
201901260100 METAR LRCK 260100Z 04013KT 0100 R18/0375N R36/0400N -DZ FG
                        VV001 01/01 Q1006 R36/19//95 NOSIG=
201901260130 METAR LRCK 260130Z 03015KT 0100 R18/0375N R36/0400N -DZ FG
                        VV001 01/01 Q1005 R36/19//95 NOSIG=
201901260200 METAR LRCK 260200Z 03015KT 0100 R18/0350N R36/0450N -DZ FG
                        VV001 01/01 Q1005 R36/19//95 BECMG
                        0350 DZ FG=
201901260230 METAR LRCK 260230Z 03016KT 0100 R18/0350N R36/0450N DZ FG
                        VV001 01/01 Q1004 R36/19//95 BECMG
                        0350 DZ FG=
201901260300 METAR LRCK 260300Z 03017KT 0100 R18/0350N R36/0400N DZ FG
                        VV001 01/01 Q1004 R36/29//95 BECMG
                        0350=
201901260330 METAR LRCK 260330Z 03016KT 0100 R18/0375N R36/0400N DZ FG
                        VV002 01/01 Q1004 R36/29//95 BECMG
                        0350=
201901260400 METAR LRCK 260400Z 03018KT 0100 R18/0350N R36/0450N DZ FG
                        VV001 01/01 Q1004 R36/29//95 BECMG
                        0350=
201901260430 METAR LRCK 260430Z 03017KT 0100 R18/0350N R36/0400N -DZ FG
                        VV001 00/00 Q1004 REDZ R36/29//95
                        NOSIG=
201901260500 METAR LRCK 260500Z 03019KT 0100 R18/0350N R36/0400N -DZ FG
                        VV001 00/00 Q1004 R36/29//95 NOSIG=
201901260530 METAR LRCK 260530Z 03020KT 0150 R18/0400N R36/0400N -RA FG
                        VV001 00/00 Q1004 R36/29//95 NOSIG=
201901260600 METAR LRCK 260600Z 03020KT 0150 R18/0450N R36/0450D -FZRA
                        FZFG VV002 M00/M00 Q1004 R36/29//95
                        NOSIG=
201901260630 METAR LRCK 260630Z 03019KT 0150 R18/0500N R36/0500N -RA FG
                        VV002 00/00 Q1004 R36/29//95 NOSIG=
201901260700 METAR LRCK 260700Z 03020KT 0500 R18/0900U R36/0800U -RA FG
                        OVC002 00/00 Q1004 R36/29//95 NOSIG=
201901260730 METAR LRCK 260730Z 03019KT 1200 R18/1400N R36/1300N -RA BR
                        OVC002 00/00 Q1004 R36/29//95 NOSIG=
201901260800 METAR LRCK 260800Z 03019KT 1400 R18/1500N R36/1300N -RA BR
                        OVC003 00/00 Q1004 R36/29//95 NOSIG=
201901260830 METAR LRCK 260830Z 03017KT 1500 -RA BR OVC003 00/00 Q1004
                        R36/29//95 NOSIG=
201901260900 METAR LRCK 260900Z 03018KT 3000 -RA BR BKN004 00/00 Q1004
                        R36/29//95 NOSIG=
201901260930 METAR LRCK 260930Z 03016KT 5000 -RA BR BKN004 01/01 Q1004
                        R36/29//95 NOSIG=
201901261000 METAR LRCK 261000Z 03019KT 5000 -RA BR BKN004 01/01 Q1004
                        R36/29//95 NOSIG=
201901261030 METAR LRCK 261030Z 03018KT 7000 -RA BKN004 01/01 Q1004 R36/29//95
                        NOSIG=
201901261100 METAR LRCK 261100Z 03017KT 8000 -RA BKN004 01/01 Q1003 R36/29//95
                        NOSIG=
201901261130 METAR LRCK 261130Z 03018KT 7000 BKN004 01/01 Q1003 R36/29//95
                        NOSIG=
201901261200 METAR LRCK 261200Z 03017KT 8000 OVC004 01/01 Q1003 R36/29//95
                        NOSIG=
201901261230 METAR LRCK 261230Z 02016KT 7000 OVC004 01/01 Q1003 R36/29//95
                        NOSIG=
201901261300 METAR LRCK 261300Z 01010KT 5000 BR OVC004 02/02 Q1003 R36/29//95
                        NOSIG=
201901261330 METAR LRCK 261330Z 36006KT 5000 BR OVC004 01/01 Q1004 R36/29//95
                        NOSIG=
201901261400 METAR LRCK 261400Z 36006KT 5000 BR OVC004 01/01 Q1004 R36/29//95
                        NOSIG=
201901261430 METAR LRCK 261430Z 33004KT 5000 BR OVC004 01/01 Q1004 R36/29//95
                        NOSIG=
201901261500 METAR LRCK 261500Z 34005KT 1500 -DZ BR OVC004 01/01 Q1004
                        R36/29//95 NOSIG=
201901261530 METAR LRCK 261530Z 00000KT 0800 R18/1800D R36/1800D -DZ FG
                        OVC002 01/01 Q1004 R36/29//95 NOSIG=
201901261600 METAR LRCK 261600Z 29007KT 0800 R18/P2000 R36/P2000 -DZ FG
                        OVC002 01/01 Q1004 R36/29//95 NOSIG=
201901261630 METAR LRCK 261630Z 29008KT 1000 R18/P2000 R36/P2000 -DZ BR
                        OVC003 00/00 Q1004 R36/29//95 BECMG
                        1500 OVC005=
201901261700 METAR COR LRCK 261700Z 29008KT 1500 -FZDZ BR OVC002 M00/M00
                        Q1005 R36/29//95 TEMPO 3000 OVC005=
201901261730 METAR LRCK 261730Z 29010KT 1500 -FZDZ BR BKN002 OVC010 M00/M00
                        Q1004 R36/29//95 NOSIG=
201901261800 METAR LRCK 261800Z 29008KT 1500 -FZDZ BR SCT002 OVC012 M00/M00
                        Q1005 R36/29//95 NOSIG=
201901261830 METAR LRCK 261830Z 30008KT 1500 -FZDZ BR FEW003 OVC015 M00/M00
                        Q1004 R36/29//95 TEMPO 3000 BKN003=
201901261900 METAR LRCK 261900Z 27010KT 2000 -FZDZ BR SCT003 OVC017 M00/M00
                        Q1005 R36/29//95 TEMPO 3000 BKN003=
201901261930 METAR LRCK 261930Z 27010KT 1500 BR BKN002 OVC017 M01/M01
                        Q1005 R36/19//95 TEMPO 0800 FZFG=
201901262000 METAR LRCK 262000Z 28010KT 0800 R36/1700U FZFG OVC002 M01/M01
                        Q1004 R36/19//95 NOSIG=
201901262030 METAR LRCK 262030Z 27012KT 1500 BR OVC002 M01/M01 Q1004 R36/19//95
                        TEMPO 3000=
201901262100 METAR LRCK 262100Z 27014KT 3000 BR OVC002 M01/M01 Q1005 R36/19//95
                        TEMPO 5000 BKN005=
201901262130 METAR LRCK 262130Z 27016KT 4000 BR OVC003 M01/M01 Q1004 R36/19//95
                        TEMPO 5000 BKN005=
201901262200 METAR LRCK 262200Z 27015KT 4000 BR OVC004 M01/M01 Q1004 R36/19//95
                        TEMPO 5000 BKN005=
201901262230 METAR LRCK 262230Z 27015KT 3000 BR OVC003 M01/M01 Q1004 R36/19//95
                        TEMPO 1500 BR=
201901262300 METAR LRCK 262300Z 27013KT 2000 BR OVC002 M01/M01 Q1004 R36/19//95
                        NOSIG=
201901262330 METAR LRCK 262330Z 27015KT 2000 BR OVC002 M00/M00 Q1004 R36/19//95
                        NOSIG=
201901270000 METAR LRCK 270000Z 27015KT 2000 BR OVC003 M00/M00 Q1004 R36/19//95
                        NOSIG=
201901270030 METAR LRCK 270030Z 28015KT 3000 BR OVC004 M00/M00 Q1005 R36/19//95
                        NOSIG=
201901270100 METAR LRCK 270100Z 28014KT 3000 BR OVC004 M00/M00 Q1005 R36/19//95
                        NOSIG=
201901270130 METAR LRCK 270130Z 28014KT 3000 BR OVC004 M00/M00 Q1005 R36/19//95
                        NOSIG=
201901270200 METAR LRCK 270200Z 28014KT 2500 BR OVC003 M00/M00 Q1005 R36/19//95
                        NOSIG=
201901270230 METAR LRCK 270230Z 28014KT 2000 BR OVC003 M00/M00 Q1005 R36/19//95
                        NOSIG=
201901270300 METAR LRCK 270300Z 28013KT 2000 BR OVC003 M00/M00 Q1005 R36/15//95
                        NOSIG=
201901270330 METAR LRCK 270330Z 28011KT 1500 BR OVC003 M00/M00 Q1005 R36/15//95
                        NOSIG=
201901270400 METAR LRCK 270400Z 28009KT 1500 BR OVC003 M00/M00 Q1006 R36/15//95
                        NOSIG=
201901270430 METAR LRCK 270430Z 29009KT 1500 BR OVC004 M00/M00 Q1006 R36/15//95
                        NOSIG=
201901270500 METAR LRCK 270500Z 29009KT 1500 BR OVC002 M00/M00 Q1007 R36/15//95
                        NOSIG=
201901270530 METAR LRCK 270530Z 28010KT 1500 -SN BR VV002 M00/M00 Q1007
                        R36/15//95 NOSIG=
201901270600 METAR LRCK 270600Z 28011KT 1500 -SN BR BKN003 OVC035 M00/M00
                        Q1007 R36/15//95 NOSIG=
201901270630 METAR LRCK 270630Z 28009KT 2000 -SN BR BKN003 OVC034 M00/M00
                        Q1008 R36/55//95 BECMG 3000=
201901270700 METAR LRCK 270700Z 28008KT 1500 -SN BR BKN003 OVC031 M00/M00
                        Q1008 R36/55//95 NOSIG=
201901270730 METAR LRCK 270730Z 28007KT 1200 R36/2000N BR OVC002 M00/M00
                        Q1008 RESN R36/55//95 NOSIG=
201901270800 METAR LRCK 270800Z 29007KT 1000 R18/1200D R36/P2000 BR OVC002
                        M00/M00 Q1008 R36/55//95 TEMPO 0800
                        FZFG=
201901270830 METAR LRCK 270830Z 29006KT 0300 R18/0550D R36/0800D FZFG
                        VV002 M00/M00 Q1008 R36/29//95 NOSIG=
201901270900 METAR LRCK 270900Z 29008KT 0300 R18/0400N R36/0600N FZFG
                        VV001 M00/M00 Q1009 R36/29//95 NOSIG=
201901270930 METAR LRCK 270930Z 31007KT 0800 R36/1700U FG OVC002 00/00
                        Q1009 R36/29//95 BECMG 1500 BR BKN005=
201901271000 METAR LRCK 271000Z 29006KT 3000 BR BKN003 OVC045 01/01 Q1009
                        R36/29//95 BECMG BKN005=
201901271030 METAR COR LRCK 271030Z 27006KT 3500 BR BKN005 OVC045 01/01
                        Q1008 R36/29//95 NOSIG=
201901271100 METAR LRCK 271100Z 28007KT 4000 BR OVC004 01/01 Q1008 R36/29//95
                        BECMG 5000 OVC005=
201901271130 METAR LRCK 271130Z 28007KT 3000 BR OVC003 01/01 Q1008 R36/29//95
                        NOSIG=
201901271200 METAR LRCK 271200Z 26007KT 2000 BR OVC003 01/01 Q1008 R36/29//95
                        NOSIG=
201901271230 METAR LRCK 271230Z 27007KT 2500 BR BKN004 OVC042 01/01 Q1008
                        R36/29//95 NOSIG=
201901271300 METAR LRCK 271300Z 27007KT 2500 BR BKN005 OVC042 01/01 Q1008
                        R36/29//95 NOSIG=
201901271330 METAR LRCK 271330Z 27007KT 2500 BR SCT005 OVC040 01/01 Q1009
                        R36/29//95 NOSIG=
201901271400 METAR LRCK 271400Z 26007KT 2500 BR SCT005 OVC039 01/00 Q1009
                        R36/29//95 NOSIG=
201901271430 METAR LRCK 271430Z 27006KT 2500 BR SCT005 OVC036 01/00 Q1009
                        R36/29//95 NOSIG=
201901271500 METAR LRCK 271500Z 24004KT 2500 BR FEW005 OVC033 01/00 Q1009
                        R36/29//95 NOSIG=
201901271530 METAR LRCK 271530Z 25004KT 2500 BR OVC033 01/00 Q1009 R36/29//95
                        NOSIG=
201901271600 METAR LRCK 271600Z 00000KT 2500 BR OVC036 00/00 Q1009 R36/29//95
                        NOSIG=
201901271630 METAR LRCK 271630Z 00000KT 2500 BR OVC036 01/00 Q1009 R36/29//95
                        NOSIG=
201901271700 METAR LRCK 271700Z 16003KT 2000 BR BKN036 00/00 Q1009 R36/29//95
                        BECMG 1500 BR=
201901271730 METAR LRCK 271730Z 17003KT 2000 BR BKN034 00/00 Q1009 R36/29//95
                        NOSIG=
201901271800 METAR LRCK 271800Z 15003KT 2000 BR BKN034 00/00 Q1009 R36/29//95
                        NOSIG=
201901271830 METAR LRCK 271830Z 04003KT 1200 R36/P2000 BR BKN035 M00/M00
                        Q1009 R36/29//95 NOSIG=
201901271900 METAR LRCK 271900Z 12004KT 1500 BR SCT009 BKN033 M00/M00
                        Q1010 R36/12//95 NOSIG=
201901271930 METAR LRCK 271930Z 16006KT 1500 BR FEW008 SCT035 00/00 Q1009
                        R36/12//95 NOSIG=
201901272000 METAR LRCK 272000Z 17005KT 1500 BR FEW009 M01/M01 Q1009 R36/12//95
                        NOSIG=
201901272030 METAR LRCK 272030Z 19006KT 2500 BR NSC M00/M00 Q1009 R36/12//95
                        NOSIG=
201901272100 METAR LRCK 272100Z 17006KT 2500 BR NSC M00/M00 Q1009 R36/12//95
                        NOSIG=
201901272130 METAR LRCK 272130Z 17005KT 3000 BR NSC M00/M00 Q1009 R36/12//95
                        NOSIG=
201901272200 METAR LRCK 272200Z 19006KT 2500 BR NSC M01/M01 Q1009 R36/12//95
                        NOSIG=
201901272230 METAR LRCK 272230Z 17005KT 2500 BR NSC M00/M00 Q1009 R36/12//95
                        NOSIG=
201901272300 METAR LRCK 272300Z 17005KT 2500 BR FEW030 M01/M01 Q1009 R36/12//95
                        NOSIG=
201901272330 METAR LRCK 272330Z 16007KT 2500 BR NSC M01/M01 Q1009 R36/12//95
                        NOSIG=
201901280000 METAR LRCK 280000Z 16006KT 2500 BR NSC M01/M01 Q1009 R36/12//95
                        NOSIG=
201901280030 METAR LRCK 280030Z 15005KT 1500 BR SCT017 M00/M00 Q1008 R36/12//95
                        NOSIG=
201901280100 METAR LRCK 280100Z 16007KT 1500 BR BKN016 00/00 Q1008 R36/12//95
                        NOSIG=
201901280130 METAR LRCK 280130Z 16007KT 1500 BR BKN016 01/01 Q1008 R36/12//95
                        NOSIG=
201901280200 METAR LRCK 280200Z 16006KT 2000 BR BKN017 01/01 Q1008 R36/12//95
                        NOSIG=
201901280230 METAR LRCK 280230Z 16007KT 2500 BR BKN017 01/01 Q1008 R36/12//95
                        NOSIG=
201901280300 METAR LRCK 280300Z 17007KT 3000 BR BKN019 01/01 Q1008 R36/CLRD//
                        NOSIG=
201901280330 METAR LRCK 280330Z 16007KT 3000 BR BKN020 01/01 Q1008 NOSIG=
201901280400 METAR LRCK 280400Z 16007KT 3000 BR BKN020 01/01 Q1008 NOSIG=
201901280430 METAR LRCK 280430Z 16008KT 4000 BR BKN019 01/01 Q1008 NOSIG=
201901280500 METAR LRCK 280500Z 17009KT 3000 BR BKN018 01/01 Q1007 NOSIG=
201901280530 METAR LRCK 280530Z 17010KT 3000 BR BKN016 02/02 Q1007 NOSIG=
201901280600 METAR LRCK 280600Z 16006KT 5000 BR OVC017 02/02 Q1007 NOSIG=
201901280630 METAR LRCK 280630Z 15009KT 7000 OVC017 03/03 Q1007 NOSIG=
201901280700 METAR LRCK 280700Z 16008KT 8000 BKN017 03/03 Q1008 R18/19//95
                        NOSIG=
201901280730 METAR LRCK 280730Z 17009KT 9999 BKN017 03/03 Q1007 R18/19//95
                        NOSIG=
201901280800 METAR LRCK 280800Z 16010KT 9999 BKN015 04/04 Q1007 R18/19//95
                        NOSIG=
201901280830 METAR LRCK 280830Z 16013KT 9999 FEW008 BKN016 06/05 Q1007
                        R18/19//95 NOSIG=
201901280900 METAR LRCK 280900Z 17015KT 9999 BKN009 BKN017 06/05 Q1007
                        R18/19//95 NOSIG=
201901280930 METAR LRCK 280930Z 17015KT 9999 BKN011 BKN017 06/05 Q1007
                        R18/19//95 NOSIG=
201901281000 METAR LRCK 281000Z 17017KT 9999 BKN012 07/06 Q1006 R18/19//95
                        NOSIG=
201901281030 METAR LRCK 281030Z 16017KT 9999 BKN011 07/06 Q1006 R18/19//95
                        NOSIG=
201901281100 METAR LRCK 281100Z 16016KT 9999 BKN009 07/06 Q1005 R18/19//95
                        NOSIG=
201901281130 METAR LRCK 281130Z 17016KT 9999 BKN009 07/06 Q1005 R18/19//95
                        NOSIG=
201901281200 METAR LRCK 281200Z 18015KT 9999 BKN013 BKN024 07/06 Q1005
                        R18/CLRD// NOSIG=
201901281230 METAR LRCK 281230Z 17014KT 9999 SCT016 BKN025 07/06 Q1005
                        NOSIG=
201901281300 METAR LRCK 281300Z 17014KT 9999 BKN024 08/06 Q1004 NOSIG=
201901281330 METAR LRCK 281330Z 17014KT 9999 BKN022 07/06 Q1005 NOSIG=
201901281400 METAR LRCK 281400Z 17014KT 9999 BKN022 08/06 Q1005 NOSIG=
201901281430 METAR LRCK 281430Z 17012KT 9999 FEW014 SCT027 07/06 Q1005
                        NOSIG=
201901281500 METAR LRCK 281500Z 17011KT 5000 BR FEW011 BKN027 06/06 Q1005
                        TEMPO 3000 BR=
201901281530 METAR LRCK 281530Z 17012KT 5000 BR OVC025 06/06 Q1005 TEMPO
                        3000 BR=
201901281600 METAR LRCK 281600Z 17013KT 4000 BR FEW006 OVC026 06/06 Q1005
                        BECMG 3000 BR=
201901281630 METAR LRCK 281630Z 17014KT 3500 BR SCT005 BKN026 06/06 Q1005
                        BECMG 3000 BR=
201901281700 METAR LRCK 281700Z 17014KT 3000 BR BKN004 BKN026 06/06 Q1005
                        BECMG 1500 BR=
201901281730 METAR LRCK 281730Z 17012KT 3000 BR OVC004 06/06 Q1005 NOSIG=
201901281800 METAR LRCK 281800Z 17009KT 2000 BR OVC003 06/06 Q1004 NOSIG=
201901281830 METAR LRCK 281830Z 17007KT 1800 BR BKN002 05/05 Q1004 BECMG
                        1500 BR=
201901281900 METAR LRCK 281900Z 17010KT 2000 BR FEW003 05/05 Q1004 NOSIG=
201901281930 METAR LRCK 281930Z 18009KT 2000 BR NSC 05/05 Q1004 NOSIG=
201901282000 METAR LRCK 282000Z 18009KT 2500 BR NSC 05/05 Q1004 NOSIG=
201901282030 METAR LRCK 282030Z 18011KT 3000 BR NSC 05/05 Q1004 NOSIG=
201901282100 METAR LRCK 282100Z 18010KT 4000 BR NSC 06/06 Q1004 BECMG
                        5000=
201901282130 METAR LRCK 282130Z 18011KT 5000 BR NSC 05/05 Q1004 NOSIG=
201901282200 METAR LRCK 282200Z 19012KT 6000 NSC 06/06 Q1004 NOSIG=
201901282230 METAR LRCK 282230Z 18012KT 6000 NSC 05/05 Q1004 NOSIG=
201901282300 METAR LRCK 282300Z AUTO 19011KT 6000 NCD 05/05 Q1004 NOSIG=
201901282330 METAR LRCK 282330Z 19012KT 6000 NSC 05/05 Q1004 NOSIG=
201901290000 METAR LRCK 290000Z 19011KT 6000 NSC 05/05 Q1004 NOSIG=
201901290030 METAR LRCK 290030Z 19010KT 6000 NSC 05/05 Q1004 NOSIG=
201901290100 METAR LRCK 290100Z 20012KT 6000 NSC 05/05 Q1004 NOSIG=
201901290130 METAR COR LRCK 290130Z 19007KT 5000 BR NSC 05/05 Q1004 NOSIG=
201901290200 METAR LRCK 290200Z 20005KT 150V220 5000 BR NSC 05/05 Q1004
                        NOSIG=
201901290230 METAR LRCK 290230Z 21008KT 6000 NSC 04/04 Q1004 NOSIG=
201901290300 METAR LRCK 290300Z 20009KT 5000 BR NSC 05/05 Q1005 TEMPO
                        3000 BR=
201901290330 METAR LRCK 290330Z 21008KT 3000 BR NSC 03/03 Q1005 NOSIG=
201901290400 METAR COR LRCK 290400Z 21004KT 3000 BR NSC 03/03 Q1005 NOSIG=
201901290430 METAR LRCK 290430Z 21004KT 3000 BR NSC 02/02 Q1005 NOSIG=
201901290500 METAR LRCK 290500Z 22005KT 4000 BR NSC 02/02 Q1005 R18/29//95
                        NOSIG=
201901290530 METAR LRCK 290530Z 25004KT 4000 BR NSC 03/03 Q1005 R18/29//95
                        NOSIG=
201901290600 METAR LRCK 290600Z 23004KT 5000 BR NSC 03/03 Q1006 R18/29//95
                        NOSIG=
201901290630 METAR LRCK 290630Z 19004KT 5000 BR NSC 03/03 Q1006 R18/29//95
                        NOSIG=
201901290700 METAR LRCK 290700Z 19005KT 7000 BR NSC 05/05 Q1006 R18/19//95
                        NOSIG=
201901290730 METAR LRCK 290730Z 19004KT CAVOK 07/07 Q1007 R18/19//95 NOSIG=
201901290800 METAR LRCK 290800Z 20006KT CAVOK 09/09 Q1007 R18/19//95 NOSIG=
201901290830 METAR LRCK 290830Z 20007KT CAVOK 10/07 Q1007 R18/19//95 NOSIG=
201901290900 METAR LRCK 290900Z 21009KT CAVOK 11/08 Q1007 R18/19//95 NOSIG=
201901290930 METAR LRCK 290930Z 21009KT CAVOK 12/09 Q1007 R18/19//95 NOSIG=
201901291000 METAR LRCK 291000Z 20010KT CAVOK 14/10 Q1007 R18/19//95 NOSIG=
201901291030 METAR LRCK 291030Z 22011KT 9999 FEW020 15/09 Q1007 R18/19//95
                        NOSIG=
201901291100 METAR LRCK 291100Z 22011KT 9999 FEW025 14/09 Q1006 R18/19//95
                        NOSIG=
201901291130 METAR LRCK 291130Z 19009KT 9999 SCT030 14/11 Q1006 R18/19//95
                        NOSIG=
201901291200 METAR LRCK 291200Z 18012KT 9999 BKN030 13/10 Q1006 R18/19//95
                        NOSIG=
201901291230 METAR LRCK 291230Z 19014KT 9999 BKN030 13/10 Q1007 R18/CLRD//
                        NOSIG=
201901291300 METAR LRCK 291300Z 19014KT 9999 SCT028 13/10 Q1007 NOSIG=
201901291330 METAR LRCK 291330Z 17014KT 9999 FEW026 12/10 Q1007 NOSIG=
201901291400 METAR LRCK 291400Z 17012KT CAVOK 11/09 Q1007 NOSIG=
201901291430 METAR LRCK 291430Z 17013KT CAVOK 11/09 Q1007 NOSIG=
201901291500 METAR LRCK 291500Z 17012KT CAVOK 10/09 Q1007 NOSIG=
201901291530 METAR LRCK 291530Z 18013KT CAVOK 10/09 Q1007 NOSIG=
201901291600 METAR LRCK 291600Z 18009KT CAVOK 10/08 Q1007 NOSIG=
201901291630 METAR LRCK 291630Z 19010KT CAVOK 09/08 Q1007 NOSIG=
201901291700 METAR LRCK 291700Z 19013KT CAVOK 09/08 Q1007 NOSIG=
201901291730 METAR LRCK 291730Z 19011KT CAVOK 10/08 Q1007 NOSIG=
201901291800 METAR LRCK 291800Z 19010KT 9999 -RA NSC 09/08 Q1007 NOSIG=
201901291830 METAR LRCK 291830Z 19012KT 9999 -RA NSC 09/08 Q1007 NOSIG=
201901291900 METAR LRCK 291900Z 18012KT CAVOK 09/07 Q1007 NOSIG=
201901291930 METAR LRCK 291930Z 18012KT 9999 -RA FEW030 09/07 Q1007 NOSIG=
201901292000 METAR LRCK 292000Z 18011KT 9999 FEW030 08/07 Q1007 NOSIG=
201901292030 METAR LRCK 292030Z 19008KT CAVOK 08/07 Q1007 R18/290195 NOSIG=
201901292100 METAR LRCK 292100Z 18010KT CAVOK 08/07 Q1007 R18/290195 NOSIG=
201901292130 METAR LRCK 292130Z 19012KT 9999 -RA NSC 09/07 Q1007 R18/290195
                        NOSIG=
201901292200 METAR LRCK 292200Z 17011KT 9999 -SHRA NSC 09/08 Q1007 R18/290195
                        NOSIG=
201901292230 METAR LRCK 292230Z 17013KT 9999 -RA NSC 09/08 Q1007 R18/290195
                        NOSIG=
201901292300 METAR LRCK 292300Z 17012KT CAVOK 09/08 Q1007 R18/290195 NOSIG=
201901292330 METAR LRCK 292330Z 17011KT CAVOK 09/08 Q1007 R18/290195 NOSIG=
201901300000 METAR LRCK 300000Z 17006KT CAVOK 08/07 Q1007 R18/290195 NOSIG=
201901300030 METAR LRCK 300030Z VRB01KT CAVOK 07/07 Q1007 R18/290195 NOSIG=
201901300100 METAR LRCK 300100Z VRB02KT CAVOK 06/06 Q1007 R18/290195 NOSIG=
201901300130 METAR LRCK 300130Z 16006KT 8000 NSC 06/06 Q1006 R18/290195
                        TEMPO 5000 BR=
201901300200 METAR LRCK 300200Z 16009KT 8000 NSC 06/06 Q1006 R18/290195
                        TEMPO 5000 BR=
201901300230 METAR LRCK 300230Z 16009KT CAVOK 06/06 Q1006 R18/290195 TEMPO
                        5000 BR=
201901300300 METAR LRCK 300300Z 15008KT CAVOK 07/06 Q1006 R18/290195 NOSIG=
201901300330 METAR LRCK 300330Z 13006KT CAVOK 07/06 Q1006 R18/290195 NOSIG=
201901300400 METAR LRCK 300400Z 11007KT CAVOK 07/06 Q1006 R18/290195 NOSIG=
201901300430 METAR LRCK 300430Z 11008KT 5000 BR NSC 06/06 Q1006 R18/290195
                        TEMPO 3000 BR=
201901300500 METAR LRCK 300500Z 12007KT 4500 BR NSC 05/05 Q1006 R18/290195
                        TEMPO 3000 BR=
201901300530 METAR LRCK 300530Z 11008KT 6000 NSC 05/05 Q1006 R18/290195
                        NOSIG=
201901300600 METAR LRCK 300600Z 12008KT CAVOK 05/05 Q1006 R18/290195 NOSIG=
201901300630 METAR LRCK 300630Z 11007KT CAVOK 07/06 Q1006 R18/290195 NOSIG=
201901300700 METAR LRCK 300700Z 11007KT CAVOK 07/07 Q1006 R18/290195 NOSIG=
201901300730 METAR LRCK 300730Z 11008KT CAVOK 07/07 Q1006 R18/290195 NOSIG=
201901300800 METAR LRCK 300800Z 10006KT CAVOK 08/08 Q1006 R18/290195 NOSIG=
201901300830 METAR LRCK 300830Z 11007KT CAVOK 09/08 Q1006 R18/290195 NOSIG=
201901300900 METAR LRCK 300900Z 12009KT CAVOK 10/08 Q1006 R18/290195 NOSIG=
201901300930 METAR LRCK 300930Z 13010KT CAVOK 10/09 Q1006 R18/290195 NOSIG=
201901301000 METAR LRCK 301000Z 14008KT CAVOK 10/08 Q1005 R18/290195 NOSIG=
201901301030 METAR LRCK 301030Z 14008KT CAVOK 11/08 Q1005 R18/290195 NOSIG=
201901301100 METAR LRCK 301100Z 13008KT CAVOK 12/09 Q1005 R18/290195 NOSIG=
201901301130 METAR LRCK 301130Z 12010KT CAVOK 12/08 Q1005 R18/290195 NOSIG=
201901301200 METAR LRCK 301200Z 14011KT CAVOK 11/08 Q1004 R18/290195 NOSIG=
201901301230 METAR LRCK 301230Z 13007KT CAVOK 11/08 Q1004 R18/290195 NOSIG=
201901301300 METAR LRCK 301300Z 13009KT CAVOK 11/08 Q1004 R18/CLRD// NOSIG=
201901301330 METAR LRCK 301330Z 13007KT CAVOK 11/08 Q1004 R18/CLRD// NOSIG=
201901301400 METAR LRCK 301400Z 09007KT CAVOK 09/08 Q1004 NOSIG=
201901301430 METAR LRCK 301430Z 09008KT CAVOK 08/07 Q1004 NOSIG=
201901301500 METAR LRCK 301500Z 09006KT CAVOK 08/07 Q1004 NOSIG=
201901301530 METAR LRCK 301530Z 08006KT CAVOK 07/07 Q1004 NOSIG=
201901301600 METAR LRCK 301600Z 08007KT 7000 NSC 07/07 Q1004 BECMG 5000
                        BR=
201901301630 METAR LRCK 301630Z 09006KT 4000 BR NSC 06/06 Q1004 BECMG
                        3000 BR=
201901301700 METAR LRCK 301700Z 07007KT 2500 BR NSC 06/06 Q1004 TEMPO
                        1500 BR=
201901301730 METAR LRCK 301730Z 07007KT 1500 BR NSC 06/06 Q1004 BECMG
                        0800 FG=
201901301800 METAR LRCK 301800Z 06007KT 0800 R18/P2000 R36/1800U FG NSC
                        05/05 Q1004 BECMG 0600 FG=
201901301830 METAR COR LRCK 301830Z 06008KT 0600 R18/0600D R36/0800D FG
                        SCT001 05/05 Q1004 BECMG 0350 FG=
201901301900 METAR LRCK 301900Z 06006KT 0400 R18/0500N R36/0350N FG BKN001
                        05/05 Q1004 NOSIG=
201901301930 METAR LRCK 301930Z 06007KT 0250 R18/0375N R36/0300N FG VV001
                        04/04 Q1004 NOSIG=
201901302000 METAR LRCK 302000Z 05006KT 0250 R18/0375N R36/0275N FG VV001
                        04/04 Q1004 NOSIG=
201901302030 METAR LRCK 302030Z 06004KT 0300 R18/0500N R36/0350N FG VV001
                        04/04 Q1004 NOSIG=
201901302100 METAR LRCK 302100Z 07006KT 0400 R18/0550U R36/0550N FG OVC002
                        04/04 Q1004 NOSIG=
201901302130 METAR LRCK 302130Z 06007KT 0600 R18/0600N R36/0800N FG BKN003
                        04/04 Q1004 NOSIG=
201901302200 METAR COR LRCK 302200Z 05007KT 0800 R18/P2000 R36/P2000 FG
                        BKN003 04/04 Q1004 NOSIG=
201901302230 METAR LRCK 302230Z 05008KT 1500 BR NSC 05/05 Q1003 TEMPO
                        3000=
201901302300 METAR LRCK 302300Z 05007KT 2000 BR NSC 05/05 Q1003 NOSIG=
201901302330 METAR LRCK 302330Z 04007KT 2500 BR NSC 04/04 Q1003 NOSIG=
201901310000 METAR LRCK 310000Z 05006KT 2000 BR NSC 04/04 Q1003 NOSIG=
201901310030 METAR LRCK 310030Z 05008KT 2000 BR NSC 04/04 Q1003 NOSIG=
201901310100 METAR LRCK 310100Z 05007KT 1500 BR NSC 04/04 Q1003 TEMPO
                        0600 FG=
201901310130 METAR LRCK 310130Z 06008KT 1500 BR NSC 05/05 Q1002 TEMPO
                        0600 FG=
201901310200 METAR LRCK 310200Z 07006KT 1500 BR NSC 05/05 Q1003 TEMPO
                        0600 FG=
201901310230 METAR LRCK 310230Z 07004KT 1500 -RA BR NSC 05/05 Q1002 TEMPO
                        3000=
201901310300 METAR LRCK 310300Z 08003KT 2000 -RA BR SCT048 05/05 Q1002
                        R36/290195 TEMPO 3000=
201901310330 METAR LRCK 310330Z 08005KT 2000 -RA BR NSC 05/05 Q1002 R36/290195
                        TEMPO 3000=
201901310400 METAR LRCK 310400Z 09005KT 2000 BR NSC 05/05 Q1002 R36/290195
                        TEMPO 3000=
201901310430 METAR LRCK 310430Z 12007KT 3000 BR NSC 05/05 Q1002 R36/290195
                        NOSIG=
201901310500 METAR LRCK 310500Z 14006KT 3000 BR NSC 05/05 Q1003 R36/290195
                        NOSIG=
201901310530 METAR LRCK 310530Z 15007KT 5000 BR SCT023 05/05 Q1003 R36/290195
                        BECMG 9999 NSW=
201901310600 METAR LRCK 310600Z 15005KT 9999 SCT023 05/05 Q1003 R36/290195
                        NOSIG=
201901310630 METAR LRCK 310630Z VRB02KT 9999 FEW023 06/06 Q1003 R36/290195
                        NOSIG=
201901310700 METAR LRCK 310700Z 17009KT 9999 FEW025 07/07 Q1003 R36/290195
                        NOSIG=
201901310730 METAR LRCK 310730Z 17012KT 9999 FEW025 07/07 Q1003 R36/290195
                        NOSIG=
201901310800 METAR LRCK 310800Z 19013KT CAVOK 09/07 Q1003 R18/290195 NOSIG=
201901310830 METAR LRCK 310830Z 18014KT CAVOK 09/08 Q1003 R18/290195 NOSIG=
201901310900 METAR LRCK 310900Z 18016KT CAVOK 11/09 Q1003 R18/290195 NOSIG=
201901310930 METAR LRCK 310930Z 18015KT CAVOK 11/08 Q1003 R18/290195 NOSIG=
201901311000 METAR LRCK 311000Z 17014KT 9999 FEW012 BKN048 10/08 Q1003
                        R18/290195 NOSIG=
201901311030 METAR LRCK 311030Z 18014KT 9999 SCT026 BKN048 12/09 Q1003
                        R18/290195 NOSIG=
201901311100 METAR LRCK 311100Z 17011KT 9999 SCT017 BKN035 11/09 Q1003
                        R18/290195 NOSIG=
201901311130 METAR LRCK 311130Z 18013KT 9999 FEW018 BKN035 12/08 Q1003
                        R18/290195 NOSIG=
201901311200 METAR LRCK 311200Z 20013KT 9999 FEW018 BKN030 12/08 Q1003
                        R18/290195 NOSIG=
201901311230 METAR LRCK 311230Z 23008KT 9999 FEW020 SCT038 12/08 Q1003
                        NOSIG=
201901311300 METAR LRCK 311300Z 26004KT 9999 FEW048 13/08 Q1003 NOSIG=
201901311330 METAR LRCK 311330Z 27002KT 9999 SCT045 11/08 Q1003 NOSIG=
201901311400 METAR LRCK 311400Z 18004KT 9999 FEW023 BKN038 11/08 Q1003
                        NOSIG=
201901311430 METAR LRCK 311430Z 16006KT 9999 FEW023 BKN037 10/08 Q1003
                        NOSIG=
201901311500 METAR LRCK 311500Z VRB02KT 9999 FEW035 09/07 Q1003 NOSIG=
201901311530 METAR LRCK 311530Z VRB02KT CAVOK 08/07 Q1003 NOSIG=
201901311600 METAR LRCK 311600Z 15005KT CAVOK 08/06 Q1003 NOSIG=
201901311630 METAR LRCK 311630Z 09003KT CAVOK 06/06 Q1003 NOSIG=
201901311700 METAR LRCK 311700Z 14003KT CAVOK 06/06 Q1003 NOSIG=
201901311730 METAR LRCK 311730Z VRB01KT CAVOK 06/06 Q1004 NOSIG=
201901311800 METAR LRCK 311800Z 00000KT CAVOK 06/06 Q1004 NOSIG=
201901311830 METAR LRCK 311830Z 00000KT 7000 NSC 06/06 Q1004 BECMG 5000
                        -RA BR=
201901311900 METAR LRCK 311900Z 06003KT 4000 BR FEW040 06/06 Q1004 NOSIG=
201901311930 METAR LRCK 311930Z 09005KT 2500 BR SCT043 06/06 Q1004 TEMPO
                        1500 BR=
201901312000 METAR LRCK 312000Z 10005KT 2500 BR SCT043 05/05 Q1005 NOSIG=
201901312030 METAR LRCK 312030Z 10005KT 2500 -RA BR SCT045 06/06 Q1005
                        NOSIG=
201901312100 METAR LRCK 312100Z 15003KT 2000 -RA BR SCT045 05/05 Q1005
                        NOSIG R36/19//95=
201901312130 METAR LRCK 312130Z 16004KT 2000 -RA BR BKN040 06/06 Q1005
                        R36/19//95 NOSIG=
201901312200 METAR LRCK 312200Z 16003KT 2500 -RA BR BKN038 06/06 Q1005
                        R36/19//95 NOSIG=
201901312230 METAR LRCK 312230Z 21003KT 3000 -RA BR BKN038 06/06 Q1006
                        R36/19//95 NOSIG=
201901312300 METAR LRCK 312300Z 27005KT 1500 -RA BR BKN032 06/06 Q1006
                        R36/19//95 NOSIG=
201901312330 METAR LRCK 312330Z 28006KT 1500 -RA BR FEW015 BKN036 05/05
                        Q1006 R36/19//95 NOSIG=