201902010000 METAR LRCK 010000Z 29008KT 1500 -RA BR FEW015 BKN036 05/05
                        Q1006 R36/19//95 NOSIG=
201902010030 METAR LRCK 010030Z 29009KT 2500 BR BKN037 05/05 Q1006 R36/19//95
                        NOSIG=
201902010100 METAR LRCK 010100Z 29009KT 2500 BR FEW002 BKN034 05/05 Q1006
                        R36/19//95 NOSIG=
201902010130 METAR LRCK 010130Z 29012KT 2500 -RA BR BKN002 BKN030 04/04
                        Q1006 R36/19//95 NOSIG=
201902010200 METAR LRCK 010200Z 29013KT 3000 -RA BR BKN003 BKN026 03/03
                        Q1007 R36/19//95 NOSIG=
201902010230 METAR LRCK 010230Z 29012KT 3000 -RA BR BKN003 BKN027 03/03
                        Q1007 R36/19//95 NOSIG=
201902010300 METAR LRCK 010300Z 29014KT 4000 -RA BR SCT003 BKN025 03/03
                        Q1007 R36/290195 NOSIG=
201902010330 METAR LRCK 010330Z 29015KT 4000 -RA BR SCT003 BKN027 03/03
                        Q1007 R36/290195 NOSIG=
201902010400 METAR LRCK 010400Z 29012KT 3000 BR BKN002 OVC027 03/03 Q1007
                        R36/290195 NOSIG=
201902010430 METAR LRCK 010430Z 29011KT 0800 R18/1900D R36/1700D FG OVC002
                        03/03 Q1008 R36/290195 TEMPO 0600
                        FG OVC001=
201902010500 METAR LRCK 010500Z 29011KT 0600 R18/1800D R36/1100D FG OVC001
                        03/03 Q1008 R36/290195 NOSIG=
201902010530 METAR LRCK 010530Z 28012KT 0800 R18/1900N R36/1500N FG OVC001
                        04/04 Q1008 R36/290195 NOSIG=
201902010600 METAR LRCK 010600Z 28013KT 0800 R18/1500N R36/1700N FG OVC002
                        04/04 Q1009 R36/290195 BECMG 1500
                        BR=
201902010630 METAR LRCK 010630Z 28014KT 1500 BR OVC002 04/04 Q1009 R36/290195
                        BECMG 3000=
201902010700 METAR LRCK 010700Z 28014KT 0700 R18/0800D R36/1500D FG OVC002
                        04/04 Q1010 R36/290195 NOSIG=
201902010730 METAR LRCK 010730Z 27016KT 1000 R18/1200D R36/P2000 BR OVC002
                        03/03 Q1010 R36/290195 BECMG 3000
                        BR=
201902010800 METAR LRCK 010800Z 28018KT 0800 R18/0900N R36/1100D FG OVC002
                        03/03 Q1010 R36/290195 BECMG 3000
                        BR=
201902010830 METAR LRCK 010830Z 27014KT 0150 R18/0650N R36/0550N FG VV002
                        03/03 Q1011 R36/290195 NOSIG=
201902010900 METAR LRCK 010900Z 28014KT 0800 R18/0500U R36/1000U FG OVC002
                        03/03 Q1012 R36/25//95 NOSIG=
201902010930 METAR LRCK 010930Z 27013KT 1000 R18/1900U R36/1500U BR OVC002
                        03/03 Q1012 R36/25//95 TEMPO 1500=
201902011000 METAR LRCK 011000Z 27016KT 1500 BR OVC002 03/03 Q1012 R36/25//95
                        TEMPO 1500=
201902011030 METAR LRCK 011030Z 27014KT 2000 BR OVC002 03/03 Q1012 R36/25//95
                        TEMPO 1500=
201902011100 METAR LRCK 011100Z 28011KT 3000 BR OVC002 03/03 Q1012 R36/25//95
                        NOSIG=
201902011130 METAR LRCK 011130Z 27011KT 3500 BR OVC003 03/03 Q1013 R36/25//95
                        NOSIG=
201902011200 METAR LRCK 011200Z 27011KT 4500 BR OVC004 04/04 Q1012 R36/CLRD//
                        NOSIG=
201902011230 METAR LRCK 011230Z 28012KT 5000 BR OVC004 04/04 Q1013 NOSIG=
201902011300 METAR LRCK 011300Z 27013KT 5000 BR OVC005 04/04 Q1013 NOSIG=
201902011330 METAR LRCK 011330Z 28010KT 5000 BR OVC005 04/04 Q1013 NOSIG=
201902011400 METAR LRCK 011400Z 27010KT 6000 BKN005 05/04 Q1013 NOSIG=
201902011430 METAR LRCK 011430Z 26007KT 5000 BR OVC006 04/04 Q1014 NOSIG=
201902011500 METAR LRCK 011500Z 27009KT 5000 BR OVC006 04/04 Q1014 NOSIG=
201902011530 METAR LRCK 011530Z 28007KT 5000 BR OVC006 04/04 Q1014 BECMG
                        3000 BR=
201902011600 METAR LRCK 011600Z 28008KT 5000 BR OVC006 04/03 Q1015 BECMG
                        3000 BR=
201902011630 METAR LRCK 011630Z 28010KT 5000 BR OVC006 04/03 Q1015 BECMG
                        3000 BR=
201902011700 METAR LRCK 011700Z 28010KT 5000 BR BKN005 03/03 Q1015 BECMG
                        3000 BR=
201902011730 METAR LRCK 011730Z 30007KT 4000 BR NSC 03/03 Q1015 NOSIG=
201902011800 METAR LRCK 011800Z 31004KT 3500 BR NSC 02/02 Q1015 BECMG
                        1500 BR=
201902011830 METAR COR LRCK 011830Z 27004KT 1500 R18/0700U R36/P2000 BCFG
                        BR NSC 01/01 Q1015 BECMG 0600 FG
                        BKN002=
201902011900 METAR LRCK 011900Z 00000KT 0800 R18/0400N R36/0800D FG SCT001
                        00/00 Q1015 BECMG 0600 FG BKN002=
201902011930 METAR LRCK 011930Z 07003KT 0100 R18/0325N R36/0275N FZFG
                        BKN001 M00/M00 Q1015 NOSIG=
201902012000 METAR LRCK 012000Z VRB01KT 0100 R18/0225N R36/0200N FZFG
                        VV001 M01/M01 Q1015 NOSIG=
201902012030 METAR LRCK 012030Z 15003KT 0100 R18/0275N R36/0250N FZFG
                        VV001 M01/M01 Q1016 NOSIG=
201902012100 METAR LRCK 012100Z 00000KT 0100 R18/0225N R36/0300N FZFG
                        VV001 M01/M01 Q1016 NOSIG=
201902012130 METAR LRCK 012130Z 17005KT 0100 R18/0375N R36/0350N FZFG
                        VV002 M01/M01 Q1016 NOSIG=
201902012200 METAR LRCK 012200Z 17006KT 0100 R18/0350N R36/0300N FZFG
                        VV002 M01/M01 Q1016 NOSIG=
201902012230 METAR LRCK 012230Z 15007KT 0100 R18/0400N R36/0350N FG VV001
                        00/00 Q1016 NOSIG=
201902012300 METAR LRCK 012300Z 16007KT 0100 R18/0325N R36/0275N FG VV001
                        00/00 Q1016 NOSIG=
201902012330 METAR LRCK 012330Z 15006KT 0100 R18/0325N R36/0325N FG VV001
                        00/00 Q1016 NOSIG=
201902020000 METAR COR LRCK 020000Z 15007KT 0100 R18/0300N R36/0400N FG
                        VV001 00/00 Q1016 NOSIG=
201902020030 METAR LRCK 020030Z 15004KT 0100 R36/0325N FG VV001 00/00
                        Q1016 NOSIG=
201902020100 METAR LRCK 020100Z 17004KT 0100 R36/0350N FG VV001 00/00
                        Q1016 NOSIG=
201902020130 METAR LRCK 020130Z 18003KT 130V210 0100 R36/0300N FG VV001
                        00/00 Q1016 NOSIG=
201902020200 METAR LRCK 020200Z 13005KT 0100 R36/0250N FG VV001 01/01
                        Q1016 NOSIG=
201902020230 METAR COR LRCK 020230Z 10004KT 0100 R36/0300N FG VV001 01/01
                        Q1016 R36/19//95 NOSIG=
201902020300 METAR LRCK 020300Z 09004KT 0100 R36/0200N FG VV001 01/01
                        Q1016 R36/19//95 NOSIG=
201902020330 METAR LRCK 020330Z 08005KT 0100 R36/0300N FG VV001 01/01
                        Q1016 R36/19//95 NOSIG=
201902020400 METAR LRCK 020400Z 08006KT 0100 R36/0350N FG VV001 01/01
                        Q1015 R36/19//95 NOSIG=
201902020430 METAR LRCK 020430Z 08004KT 0100 R36/0325N FG VV001 02/02
                        Q1015 R36/19//95 NOSIG=
201902020500 METAR COR LRCK 020500Z 08005KT 0100 R36/0300N FG VV001 03/03
                        Q1016 R36/19//95 NOSIG=
201902020530 METAR LRCK 020530Z 09006KT 0100 R36/0250N FG VV001 03/03
                        Q1016 R36/19//95 BECMG 0350 BKN002=
201902020600 METAR LRCK 020600Z 07007KT 0100 R36/0225N FG VV001 04/04
                        Q1016 R36/19//95 BECMG 0350 BKN002=
201902020630 METAR LRCK 020630Z 09005KT 0100 R36/0200N FG VV001 04/04
                        Q1016 R36/19//95 BECMG 0350 BKN002=
201902020700 METAR COR LRCK 020700Z 11008KT 0100 R36/0225N FG VV001 06/06
                        Q1016 R36/19//95 NOSIG=
201902020730 METAR LRCK 020730Z 11008KT 0200 R36/0500U FG VV001 06/06
                        Q1016 R36/19//95 BECMG 0600 BKN002=
201902020800 METAR LRCK 020800Z 14005KT 3000 BR SCT002 06/06 Q1016 R18/19//95
                        BECMG 5000=
201902020830 METAR LRCK 020830Z 15007KT 9999 FEW003 08/08 Q1016 R18/19//95
                        NOSIG=
201902020900 METAR LRCK 020900Z 15010KT CAVOK 09/09 Q1016 R18/19//95 NOSIG=
201902020930 METAR LRCK 020930Z 14010KT CAVOK 09/07 Q1015 R18/19//95 NOSIG=
201902021000 METAR LRCK 021000Z 11007KT CAVOK 10/07 Q1015 R18/19//95 NOSIG=
201902021030 METAR LRCK 021030Z 14009KT CAVOK 10/07 Q1015 R18/19//95 NOSIG=
201902021100 METAR LRCK 021100Z 16010KT CAVOK 11/08 Q1015 R18/19//95 NOSIG=
201902021130 METAR LRCK 021130Z 16011KT CAVOK 12/08 Q1014 R18/12//95 NOSIG=
201902021200 METAR LRCK 021200Z 17011KT CAVOK 12/09 Q1014 R18/12//95 NOSIG=
201902021230 METAR LRCK 021230Z 17010KT CAVOK 13/10 Q1014 R18/12//95 NOSIG=
201902021300 METAR LRCK 021300Z 16009KT CAVOK 13/10 Q1014 NOSIG=
201902021330 METAR LRCK 021330Z 17011KT CAVOK 12/09 Q1014 NOSIG=
201902021400 METAR LRCK 021400Z 14008KT 120V180 CAVOK 11/09 Q1014 NOSIG=
201902021430 METAR LRCK 021430Z 14007KT CAVOK 11/09 Q1014 NOSIG=
201902021500 METAR LRCK 021500Z 13005KT CAVOK 09/09 Q1014 NOSIG=
201902021530 METAR LRCK 021530Z 15005KT CAVOK 08/08 Q1014 NOSIG=
201902021600 METAR LRCK 021600Z 15007KT 8000 NSC 08/07 Q1014 NOSIG=
201902021630 METAR LRCK 021630Z 15007KT 7000 NSC 07/07 Q1014 NOSIG=
201902021700 METAR LRCK 021700Z 14005KT 7000 NSC 07/07 Q1014 NOSIG=
201902021730 METAR LRCK 021730Z 17008KT 8000 NSC 07/06 Q1014 NOSIG=
201902021800 METAR LRCK 021800Z 20003KT 8000 NSC 06/06 Q1014 NOSIG=
201902021830 METAR LRCK 021830Z 18005KT CAVOK 07/06 Q1014 NOSIG=
201902021900 METAR LRCK 021900Z 18002KT CAVOK 06/05 Q1014 NOSIG=
201902021930 METAR LRCK 021930Z 20006KT CAVOK 06/06 Q1014 NOSIG=
201902022000 METAR LRCK 022000Z VRB03KT 9999 MIFG NSC 07/06 Q1014 NOSIG=
201902022030 METAR LRCK 022030Z 13003KT 9999 MIFG NSC 06/06 Q1014 NOSIG=
201902022100 METAR LRCK 022100Z 12004KT 9999 MIFG NSC 05/05 Q1014 NOSIG=
201902022130 METAR LRCK 022130Z VRB02KT CAVOK 06/06 Q1014 NOSIG=
201902022200 METAR LRCK 022200Z 18006KT CAVOK 07/06 Q1014 NOSIG=
201902022230 METAR LRCK 022230Z 14004KT CAVOK 06/06 Q1014 NOSIG=
201902022300 METAR LRCK 022300Z 17005KT CAVOK 06/06 Q1014 NOSIG=
201902022330 METAR LRCK 022330Z 18004KT CAVOK 07/06 Q1014 NOSIG=
201902030000 METAR LRCK 030000Z 20005KT CAVOK 06/06 Q1014 NOSIG=
201902030030 METAR LRCK 030030Z 17004KT 9999 MIFG NSC 06/06 Q1014 NOSIG=
201902030100 METAR LRCK 030100Z 18008KT 9999 MIFG NSC 06/06 Q1014 NOSIG=
201902030130 METAR LRCK 030130Z 17005KT 7000 MIFG NSC 05/05 Q1014 NOSIG=
201902030200 METAR LRCK 030200Z 18006KT 8000 MIFG NSC 05/05 Q1013 NOSIG=
201902030230 METAR LRCK 030230Z 20006KT 8000 MIFG NSC 06/06 Q1014 TEMPO
                        5000 BR=
201902030300 METAR COR LRCK 030300Z VRB02KT 3000 BR FEW003 04/04 Q1014
                        TEMPO 1500 BR=
201902030330 METAR LRCK 030330Z 16004KT 1500 0500N R18/1000U R36/P2000U
                        PRFG BR FEW003 04/04 Q1014 BECMG
                        0800 FG BKN002=
201902030400 METAR LRCK 030400Z 17003KT 1000 0300N R18/0800U R36/1600U
                        PRFG BR FEW003 04/04 Q1014 BECMG
                        0600 FG BKN002=
201902030430 METAR LRCK 030430Z 19006KT 3000 BR NSC 05/05 Q1014 BECMG
                        0600 FG BKN002=
201902030500 METAR LRCK 030500Z 19007KT 5000 BR NSC 05/05 Q1014 NOSIG=
201902030530 METAR LRCK 030530Z 19007KT 7000 MIFG NSC 05/05 Q1014 NOSIG=
201902030600 METAR LRCK 030600Z 19007KT 8000 MIFG NSC 06/06 Q1014 NOSIG=
201902030630 METAR LRCK 030630Z 19006KT CAVOK 06/06 Q1014 NOSIG=
201902030700 METAR LRCK 030700Z 12002KT 5000 MIFG BR FEW006 06/06 Q1014
                        NOSIG=
201902030730 METAR LRCK 030730Z 17004KT 8000 MIFG NSC 07/07 Q1015 NOSIG=
201902030800 METAR LRCK 030800Z 13003KT 100V160 8000 MIFG FEW002 09/09
                        Q1015 NOSIG=
201902030830 METAR LRCK 030830Z 15005KT 9999 FEW004 10/09 Q1015 NOSIG=
201902030900 METAR LRCK 030900Z 16007KT CAVOK 11/10 Q1015 NOSIG=
201902030930 METAR LRCK 030930Z 17009KT CAVOK 11/10 Q1015 NOSIG=
201902031000 METAR LRCK 031000Z 17009KT CAVOK 13/11 Q1015 NOSIG=
201902031030 METAR LRCK 031030Z 17010KT CAVOK 14/11 Q1015 NOSIG=
201902031100 METAR LRCK 031100Z 18009KT CAVOK 14/10 Q1014 NOSIG=
201902031130 METAR LRCK 031130Z 19007KT CAVOK 15/11 Q1014 NOSIG=
201902031200 METAR LRCK 031200Z 18006KT 150V210 CAVOK 16/11 Q1014 NOSIG=
201902031230 METAR LRCK 031230Z 05005KT CAVOK 16/11 Q1014 NOSIG=
201902031300 METAR LRCK 031300Z 08005KT 050V110 CAVOK 14/11 Q1014 NOSIG=
201902031330 METAR LRCK 031330Z 06004KT CAVOK 14/12 Q1014 NOSIG=
201902031400 METAR LRCK 031400Z 10004KT CAVOK 13/11 Q1014 NOSIG=
201902031430 METAR LRCK 031430Z 13007KT CAVOK 12/11 Q1015 NOSIG=
201902031500 METAR LRCK 031500Z 14008KT CAVOK 12/11 Q1015 NOSIG=
201902031530 METAR LRCK 031530Z 15007KT CAVOK 11/10 Q1015 NOSIG=
201902031600 METAR LRCK 031600Z 17010KT CAVOK 10/09 Q1015 NOSIG=
201902031630 METAR LRCK 031630Z 17008KT CAVOK 09/09 Q1015 NOSIG=
201902031700 METAR LRCK 031700Z 17007KT CAVOK 09/08 Q1015 NOSIG=
201902031730 METAR LRCK 031730Z 22004KT 170V290 CAVOK 08/08 Q1015 NOSIG=
201902031800 METAR LRCK 031800Z 14003KT 090V170 CAVOK 08/08 Q1016 NOSIG=
201902031830 METAR LRCK 031830Z 07004KT 5000 BR NSC 06/07 Q1016 NOSIG=
201902031900 METAR LRCK 031900Z 07004KT 1500 BR NSC 06/06 Q1016 TEMPO
                        3000=
201902031930 METAR LRCK 031930Z 11004KT 2000 BR NSC 06/06 Q1016 TEMPO
                        5000=
201902032000 METAR LRCK 032000Z 09004KT 040V120 3000 BR NSC 06/06 Q1016
                        BECMG 5000=
201902032030 METAR LRCK 032030Z 12004KT 3000 BR NSC 06/06 Q1016 NOSIG=
201902032100 METAR LRCK 032100Z 11004KT 3000 BR NSC 06/06 Q1016 NOSIG=
201902032130 METAR LRCK 032130Z 12004KT 3000 BR FEW002 05/05 Q1016 NOSIG=
201902032200 METAR LRCK 032200Z 08004KT 1300 R18/P2000 R36/1700D PRFG
                        BR FEW003 06/06 Q1017 NOSIG=
201902032230 METAR LRCK 032230Z 11003KT 1500 PRFG BR BKN003 05/05 Q1017
                        NOSIG=
201902032300 METAR LRCK 032300Z 06003KT 0800 R18/1000D R36/P2000N PRFG
                        BKN003 05/05 Q1016 TEMPO 1500 BR=
201902032330 METAR LRCK 032330Z 08003KT 040V140 0800 R18/P2000N R36/0550N
                        FG SCT003 04/04 Q1017 TEMPO 1500
                        BR=
201902040000 METAR LRCK 040000Z 05003KT 0600 R18/0800N R36/0500N FG FEW005
                        04/04 Q1017 TEMPO 1500 BR=
201902040030 METAR LRCK 040030Z 06003KT 0600 R18/P2000N R36/0450N FG FEW003
                        04/04 Q1017 TEMPO 1500 BR=
201902040100 METAR LRCK 040100Z 05005KT 0600 R18/0450N R36/0450N FG VV002
                        04/04 Q1017 NOSIG=
201902040130 METAR LRCK 040130Z 05005KT 0400 R18/0450N R36/0500N FG VV001
                        03/03 Q1017 NOSIG=
201902040200 METAR LRCK 040200Z 00000KT 0800 R18/P2000N R36/0800N FG VV003
                        03/03 Q1017 NOSIG=
201902040230 METAR LRCK 040230Z 22005KT 1200 R18/P2000 R36/0800D PRFG
                        BR NSC 03/03 Q1018 TEMPO 0600 FG
                        OVC002=
201902040300 METAR LRCK 040300Z 20006KT 0800 R18/P2000 R36/0650D FG NSC
                        05/05 Q1018 NOSIG=
201902040330 METAR LRCK 040330Z VRB02KT 1500 BR NSC 05/05 Q1018 NOSIG=
201902040400 METAR LRCK 040400Z 20004KT 1500 BR NSC 04/04 Q1018 NOSIG=
201902040430 METAR LRCK 040430Z 25004KT 1500 BR NSC 03/03 Q1018 NOSIG=
201902040500 METAR LRCK 040500Z 26004KT 1500 BR NSC 05/05 Q1018 NOSIG=
201902040530 METAR LRCK 040530Z 26006KT 1500 MIFG BR NSC 04/04 Q1018 NOSIG=
201902040600 METAR LRCK 040600Z VRB02KT 1500 MIFG BR NSC 05/05 Q1019 NOSIG=
201902040630 METAR LRCK 040630Z 20003KT 3000 BR NSC 05/05 Q1019 NOSIG=
201902040700 METAR LRCK 040700Z VRB02KT 5000 BR NSC 07/07 Q1020 BECMG
                        9999 NSW=
201902040730 METAR LRCK 040730Z 24003KT 8000 NSC 09/09 Q1020 NOSIG=
201902040800 METAR LRCK 040800Z 00000KT CAVOK 11/09 Q1020 NOSIG=
201902040830 METAR LRCK 040830Z 26004KT CAVOK 12/09 Q1020 NOSIG=
201902040900 METAR LRCK 040900Z 27004KT CAVOK 15/10 Q1020 NOSIG=
201902040930 METAR LRCK 040930Z 29005KT CAVOK 15/09 Q1021 NOSIG=
201902041000 METAR LRCK 041000Z 28004KT CAVOK 16/09 Q1021 NOSIG=
201902041030 METAR LRCK 041030Z 28005KT 230V310 CAVOK 17/09 Q1021 NOSIG=
201902041100 METAR LRCK 041100Z 29004KT CAVOK 16/09 Q1021 NOSIG=
201902041130 METAR LRCK 041130Z 06004KT CAVOK 17/10 Q1021 NOSIG=
201902041200 METAR LRCK 041200Z 06003KT 010V100 CAVOK 16/12 Q1021 NOSIG=
201902041230 METAR LRCK 041230Z 03004KT 010V070 CAVOK 16/11 Q1021 NOSIG=
201902041300 METAR LRCK 041300Z 08005KT CAVOK 15/11 Q1020 NOSIG=
201902041330 METAR LRCK 041330Z 07007KT CAVOK 14/12 Q1021 NOSIG=
201902041400 METAR LRCK 041400Z 07007KT CAVOK 13/10 Q1021 NOSIG=
201902041430 METAR LRCK 041430Z 08005KT CAVOK 11/10 Q1021 NOSIG=
201902041500 METAR LRCK 041500Z 08005KT CAVOK 10/09 Q1021 NOSIG=
201902041530 METAR LRCK 041530Z 08004KT 8000 NSC 09/09 Q1021 NOSIG=
201902041600 METAR LRCK 041600Z 08004KT 7000 NSC 08/08 Q1021 BECMG 5000
                        BR=
201902041630 METAR LRCK 041630Z 06004KT 6000 NSC 08/08 Q1022 BECMG 5000
                        BR=
201902041700 METAR LRCK 041700Z 03007KT 8000 NSC 07/07 Q1022 NOSIG=
201902041730 METAR LRCK 041730Z 03006KT 8000 NSC 07/07 Q1022 NOSIG=
201902041800 METAR LRCK 041800Z 01006KT 6000 NSC 07/07 Q1022 NOSIG=
201902041830 METAR LRCK 041830Z 35004KT 300V030 6000 NSC 08/07 Q1023 NOSIG=
201902041900 METAR LRCK 041900Z 04013KT 5000 BR NSC 07/07 Q1023 NOSIG=
201902041930 METAR LRCK 041930Z 04013KT 2500 BR SCT004 07/07 Q1023 BECMG
                        1500 BR=
201902042000 METAR LRCK 042000Z 03011KT 0500 R18/0600N R36/1200D FG OVC002
                        07/07 Q1023 BECMG 0350 FG OVC001=
201902042030 METAR LRCK 042030Z 02011KT 0150 R18/0400N R36/0450N FG VV001
                        07/07 Q1024 NOSIG=
201902042100 METAR LRCK 042100Z 02009KT 0150 R18/0375N R36/0450N FG VV001
                        08/08 Q1024 NOSIG=
201902042130 METAR LRCK 042130Z 02008KT 0150 R18/0325N R36/0400N FG VV001
                        08/08 Q1024 NOSIG=
201902042200 METAR LRCK 042200Z 01008KT 0200 R18/0650N R36/0650N FG VV001
                        08/08 Q1024 NOSIG=
201902042230 METAR LRCK 042230Z 01008KT 1500 BR OVC002 08/08 Q1025 NOSIG=
201902042300 METAR LRCK 042300Z 01012KT 1500 OVC002 08/08 Q1025 TEMPO
                        3000 SCT003 BKN010=
201902042330 METAR LRCK 042330Z 01013KT 1500 BR OVC002 07/07 Q1025 TEMPO
                        3000 SCT003 BKN010=
201902050000 METAR LRCK 050000Z 01013KT 2500 BR OVC003 07/07 Q1025 NOSIG=
201902050030 METAR LRCK 050030Z 01012KT 2500 BR OVC003 07/07 Q1025 NOSIG=
201902050100 METAR LRCK 050100Z 36013KT 2500 BR OVC004 07/07 Q1025 NOSIG=
201902050130 METAR LRCK 050130Z 01014KT 3000 BR OVC004 07/07 Q1024 NOSIG=
201902050200 METAR LRCK 050200Z 02013KT 2500 BR OVC004 07/07 Q1024 NOSIG=
201902050230 METAR LRCK 050230Z 02013KT 2500 BR OVC003 07/07 Q1024 NOSIG=
201902050300 METAR LRCK 050300Z 02013KT 1500 BR OVC002 07/07 Q1024 NOSIG=
201902050330 METAR LRCK 050330Z 02012KT 1500 BR OVC002 06/06 Q1025 NOSIG=
201902050400 METAR LRCK 050400Z 02012KT 1200 R18/1800D R36/1700D BR OVC002
                        06/06 Q1025 TEMPO 0800 FG OVC001=
201902050430 METAR LRCK 050430Z 02011KT 1200 R18/1800D R36/1800U BR OVC001
                        06/06 Q1025 TEMPO 0800 FG OVC001=
201902050500 METAR LRCK 050500Z 02012KT 0800 R18/1900N R36/1800N FG OVC001
                        06/06 Q1025 NOSIG=
201902050530 METAR LRCK 050530Z 03014KT 0800 R18/1700D R36/1800D FG OVC001
                        06/06 Q1025 BECMG 1500 BR BKN002=
201902050600 METAR LRCK 050600Z 02013KT 0350 R18/0600D R36/0900D FG OVC002
                        06/06 Q1026 BECMG 1500 BR BKN002=
201902050630 METAR LRCK 050630Z 03014KT 0350 R18/0700U R36/1000U FG VV002
                        06/06 Q1026 BECMG 1500 BR BKN002=
201902050700 METAR LRCK 050700Z 03015KT 0450 R18/0750U R36/1000N FG VV002
                        06/06 Q1026 NOSIG=
201902050730 METAR LRCK 050730Z 03015KT 0700 R18/0900N R36/1100N FG OVC001
                        06/06 Q1026 BECMG 1500 BR BKN002=
201902050800 METAR LRCK 050800Z 03015KT 0800 R18/1500N R36/1200U FG OVC001
                        06/06 Q1026 BECMG 1500 BR BKN002=
201902050830 METAR LRCK 050830Z 03018KT 3000 BR OVC002 06/06 Q1026 BECMG
                        5000 BR BKN005=
201902050900 METAR LRCK 050900Z 03016KT 8000 BKN006 07/07 Q1026 NOSIG=
201902050930 METAR LRCK 050930Z 03016KT 8000 BKN007 07/07 Q1026 NOSIG=
201902051000 METAR LRCK 051000Z 03014KT 9999 BKN006 07/07 Q1026 NOSIG=
201902051030 METAR LRCK 051030Z 03014KT 9999 BKN005 07/07 Q1026 NOSIG=
201902051100 METAR LRCK 051100Z 03013KT 9999 BKN005 07/07 Q1025 NOSIG=
201902051130 METAR LRCK 051130Z 04014KT 9999 BKN005 07/07 Q1025 NOSIG=
201902051200 METAR LRCK 051200Z 03015KT 9999 BKN005 07/06 Q1025 NOSIG=
201902051230 METAR LRCK 051230Z 03013KT 9999 BKN005 07/07 Q1025 NOSIG=
201902051300 METAR LRCK 051300Z 02011KT 9999 BKN005 07/06 Q1025 NOSIG=
201902051330 METAR LRCK 051330Z 02011KT 9999 BKN006 07/06 Q1025 NOSIG=
201902051400 METAR LRCK 051400Z 03013KT 9999 BKN006 06/06 Q1025 NOSIG=
201902051430 METAR LRCK 051430Z 03012KT 9999 BKN006 06/06 Q1025 NOSIG=
201902051500 METAR LRCK 051500Z 03013KT 8000 BKN006 06/05 Q1025 BECMG
                        5000 BR=
201902051530 METAR LRCK 051530Z 02012KT 8000 OVC006 06/05 Q1025 BECMG
                        5000 BR=
201902051600 METAR LRCK 051600Z 02012KT 7000 OVC005 05/05 Q1025 BECMG
                        5000 BR=
201902051630 METAR LRCK 051630Z 02013KT 5000 BR OVC004 05/05 Q1025 BECMG
                        3000 BR=
201902051700 METAR LRCK 051700Z 03015KT 5000 BR OVC004 05/05 Q1025 BECMG
                        3000 BR=
201902051730 METAR LRCK 051730Z 03014KT 5000 BR OVC004 05/05 Q1024 BECMG
                        3000 BR=
201902051800 METAR LRCK 051800Z 03014KT 5000 BR OVC003 05/05 Q1024 BECMG
                        3000 BR=
201902051830 METAR LRCK 051830Z 03014KT 4000 BR OVC003 05/05 Q1024 BECMG
                        3000 BR=
201902051900 METAR LRCK 051900Z 03013KT 4000 BR OVC004 05/05 Q1024 BECMG
                        3000 BR=
201902051930 METAR LRCK 051930Z 03013KT 5000 BR OVC005 05/05 Q1024 BECMG
                        3000 BR=
201902052000 METAR LRCK 052000Z 02013KT 5000 BR OVC005 05/05 Q1024 BECMG
                        3000 BR=
201902052030 METAR LRCK 052030Z 03013KT 5000 BR OVC005 04/04 Q1024 NOSIG=
201902052100 METAR LRCK 052100Z 02013KT 5000 BR OVC004 04/04 Q1024 NOSIG=
201902052130 METAR LRCK 052130Z 04012KT 5000 BR OVC004 04/04 Q1024 NOSIG=
201902052200 METAR LRCK 052200Z 04012KT 4000 BR OVC003 04/04 Q1024 TEMPO
                        3000 BR=
201902052230 METAR LRCK 052230Z 04011KT 3000 BR OVC002 04/04 Q1024 TEMPO
                        1500 BR=
201902052300 METAR LRCK 052300Z 04010KT 1500 BR OVC002 04/04 Q1024 NOSIG=
201902052330 METAR LRCK 052330Z 03013KT 1500 BR OVC002 03/03 Q1022 NOSIG=
201902060000 METAR LRCK 060000Z 02012KT 0800 R36/1600N FG OVC001 03/03
                        Q1022 NOSIG=
201902060030 METAR LRCK 060030Z 01013KT 1500 BR OVC002 03/03 Q1022 NOSIG=
201902060100 METAR LRCK 060100Z 02013KT 1000 R36/P2000 BR OVC002 03/03
                        Q1021 TEMPO 0600 FG=
201902060130 METAR LRCK 060130Z 03013KT 1500 BR OVC002 03/03 Q1021 TEMPO
                        0800 FG=
201902060200 METAR LRCK 060200Z 02011KT 0800 R36/1500N FG OVC002 03/03
                        Q1021 TEMPO 0600 FG=
201902060230 METAR COR LRCK 060230Z 03012KT 1500 BR OVC002 03/03 Q1021
                        NOSIG=
201902060300 METAR COR LRCK 060300Z 03013KT 1500 FG OVC001 03/03 Q1020
                        NOSIG=
201902060330 METAR LRCK 060330Z 03009KT 2000 BR OVC002 03/03 Q1021 NOSIG=
201902060400 METAR COR LRCK 060400Z 03012KT 2000 BR OVC002 03/03 Q1020
                        NOSIG=
201902060430 METAR LRCK 060430Z 02013KT 2000 BR OVC002 03/03 Q1020 NOSIG=
201902060500 METAR LRCK 060500Z 02011KT 2000 BR OVC002 03/03 Q1020 BECMG
                        3000=
201902060530 METAR LRCK 060530Z 03012KT 3000 BR OVC003 03/03 Q1021 BECMG
                        5000=
201902060600 METAR LRCK 060600Z 02011KT 3000 BR OVC002 03/03 Q1021 NOSIG=
201902060630 METAR LRCK 060630Z 02013KT 1500 BR OVC002 03/03 Q1021 NOSIG=
201902060700 METAR LRCK 060700Z 03012KT 1200 R18/1900U R36/P2000 BR OVC002
                        03/03 Q1021 NOSIG=
201902060730 METAR LRCK 060730Z 02013KT 1500 BR OVC002 03/03 Q1022 BECMG
                        3000=
201902060800 METAR LRCK 060800Z 02014KT 1500 BR OVC002 03/03 Q1021 BECMG
                        3000=
201902060830 METAR LRCK 060830Z 02015KT 1500 BR OVC002 03/03 Q1021 NOSIG=
201902060900 METAR LRCK 060900Z 01017KT 3000 BR OVC003 03/03 Q1020 NOSIG=
201902060930 METAR LRCK 060930Z 01015KT 5000 BR OVC003 03/03 Q1020 NOSIG=
201902061000 METAR LRCK 061000Z 01016KT 8000 OVC004 03/03 Q1020 NOSIG=
201902061030 METAR LRCK 061030Z 02014KT 9999 OVC005 03/03 Q1021 NOSIG=
201902061100 METAR LRCK 061100Z 01013KT 9999 BKN005 04/03 Q1021 BECMG
                        BKN010=
201902061130 METAR LRCK 061130Z 01013KT 9999 BKN008 04/03 Q1021 BECMG
                        BKN010=
201902061200 METAR LRCK 061200Z 01015KT 9999 BKN008 04/03 Q1021 NOSIG=
201902061230 METAR LRCK 061230Z 02012KT 9999 BKN010 04/03 Q1021 NOSIG=
201902061300 METAR LRCK 061300Z 01012KT 9999 BKN009 04/03 Q1021 NOSIG=
201902061330 METAR LRCK 061330Z 01013KT 9999 BKN010 04/03 Q1022 NOSIG=
201902061400 METAR LRCK 061400Z 36017KT 9999 BKN009 04/03 Q1021 NOSIG=
201902061430 METAR LRCK 061430Z 36018KT 9999 BKN008 03/03 Q1021 NOSIG=
201902061500 METAR LRCK 061500Z 36019KT 9999 BKN008 03/03 Q1021 NOSIG=
201902061530 METAR LRCK 061530Z 01014KT 9999 BKN010 03/03 Q1020 NOSIG=
201902061600 METAR LRCK 061600Z 01016KT 8000 BKN007 03/03 Q1021 NOSIG=
201902061630 METAR LRCK 061630Z 36016KT 6000 BKN007 03/03 Q1021 NOSIG=
201902061700 METAR LRCK 061700Z 36016KT 7000 BKN008 04/03 Q1022 NOSIG=
201902061730 METAR LRCK 061730Z 01015KT 8000 BKN010 04/03 Q1022 NOSIG=
201902061800 METAR LRCK 061800Z 01016KT 8000 OVC013 04/02 Q1022 NOSIG=
201902061830 METAR LRCK 061830Z 02015KT 9999 OVC013 04/02 Q1022 NOSIG=
201902061900 METAR LRCK 061900Z 36017KT 9999 OVC013 04/02 Q1023 NOSIG=
201902061930 METAR LRCK 061930Z 01017KT 9999 OVC013 03/02 Q1023 NOSIG=
201902062000 METAR LRCK 062000Z 36018KT 9999 OVC015 03/02 Q1023 NOSIG=
201902062030 METAR LRCK 062030Z 36018KT 9999 OVC015 03/01 Q1023 NOSIG=
201902062100 METAR LRCK 062100Z 36016KT 9999 OVC018 03/00 Q1024 NOSIG=
201902062130 METAR LRCK 062130Z 36017KT 9999 OVC019 03/00 Q1024 NOSIG=
201902062200 METAR LRCK 062200Z 01016KT 9999 OVC018 02/00 Q1024 NOSIG=
201902062230 METAR LRCK 062230Z 01016KT 9999 BKN018 OVC027 02/00 Q1024
                        NOSIG=
201902062300 METAR LRCK 062300Z 01014KT 9999 FEW018 OVC028 02/M00 Q1024
                        NOSIG=
201902062330 METAR LRCK 062330Z 01015KT 9999 OVC032 02/M01 Q1024 NOSIG=
201902070000 METAR LRCK 070000Z 02019KT 9999 OVC030 02/M01 Q1024 NOSIG=
201902070030 METAR LRCK 070030Z 02016KT 9999 OVC032 01/M01 Q1025 NOSIG=
201902070100 METAR LRCK 070100Z 02016KT 9999 OVC032 01/M01 Q1025 NOSIG=
201902070130 METAR LRCK 070130Z 02016KT 9999 BKN035 01/M01 Q1024 NOSIG=
201902070200 METAR LRCK 070200Z 01014KT 9999 FEW035 01/M02 Q1024 NOSIG=
201902070230 METAR LRCK 070230Z 01014KT CAVOK 01/M01 Q1024 NOSIG=
201902070300 METAR LRCK 070300Z 36013KT CAVOK 01/M02 Q1024 NOSIG=
201902070330 METAR LRCK 070330Z 36013KT CAVOK 01/M02 Q1024 NOSIG=
201902070400 METAR LRCK 070400Z 36011KT CAVOK 01/M02 Q1024 NOSIG=
201902070430 METAR LRCK 070430Z 36012KT CAVOK 01/M02 Q1024 NOSIG=
201902070500 METAR LRCK 070500Z 35012KT CAVOK M00/M02 Q1024 NOSIG=
201902070530 METAR LRCK 070530Z 36009KT 9999 FEW029 M00/M02 Q1025 NOSIG=
201902070600 METAR LRCK 070600Z 36010KT CAVOK 01/M02 Q1025 NOSIG=
201902070630 METAR LRCK 070630Z 01012KT CAVOK 01/M01 Q1025 NOSIG=
201902070700 METAR LRCK 070700Z 01011KT CAVOK 01/M01 Q1025 NOSIG=
201902070730 METAR LRCK 070730Z 01013KT CAVOK 01/M01 Q1024 NOSIG=
201902070800 METAR LRCK 070800Z 01014KT CAVOK 02/M00 Q1024 NOSIG=
201902070830 METAR LRCK 070830Z 01015KT 9999 FEW010 03/M00 Q1024 NOSIG=
201902070900 METAR LRCK 070900Z 02017KT 9999 FEW010 03/M00 Q1024 NOSIG=
201902070930 METAR LRCK 070930Z 02017KT 9999 FEW015 04/01 Q1024 NOSIG=
201902071000 METAR LRCK 071000Z 03016KT 9999 SCT022 04/00 Q1024 NOSIG=
201902071030 METAR LRCK 071030Z 04018KT 9999 BKN025 04/M00 Q1024 NOSIG=
201902071100 METAR LRCK 071100Z 03014KT 9999 BKN025 04/M00 Q1024 NOSIG=
201902071130 METAR LRCK 071130Z 03012KT 9999 BKN027 03/M00 Q1023 NOSIG=
201902071200 METAR LRCK 071200Z 04011KT 9999 BKN027 03/M00 Q1023 NOSIG=
201902071230 METAR LRCK 071230Z 07009KT 9999 BKN026 03/M00 Q1023 NOSIG=
201902071300 METAR LRCK 071300Z 04009KT 9999 BKN030 04/M01 Q1023 NOSIG=
201902071330 METAR LRCK 071330Z 03009KT 9999 BKN035 04/M01 Q1023 NOSIG=
201902071400 METAR LRCK 071400Z 02011KT 9999 BKN033 04/M02 Q1023 NOSIG=
201902071430 METAR LRCK 071430Z 02011KT 9999 BKN035 04/M01 Q1023 NOSIG=
201902071500 METAR LRCK 071500Z 02009KT 9999 BKN035 03/M01 Q1023 NOSIG=
201902071530 METAR LRCK 071530Z 01008KT 9999 BKN034 02/M00 Q1023 NOSIG=
201902071600 METAR LRCK 071600Z 01008KT 9999 BKN038 02/M00 Q1023 NOSIG=
201902071630 METAR LRCK 071630Z 01008KT 9999 BKN037 02/M00 Q1023 NOSIG=
201902071700 METAR LRCK 071700Z 36008KT 9999 SCT035 01/M01 Q1023 NOSIG=
201902071730 METAR LRCK 071730Z 35009KT 9999 SCT035 01/M02 Q1023 NOSIG=
201902071800 METAR LRCK 071800Z 05006KT 360V080 9999 BKN027 01/M00 Q1023
                        NOSIG=
201902071830 METAR LRCK 071830Z 03007KT 9999 BKN024 02/M00 Q1023 NOSIG=
201902071900 METAR LRCK 071900Z 02006KT 9999 BKN026 01/M00 Q1023 NOSIG=
201902071930 METAR LRCK 071930Z 03007KT 9999 SCT027 01/M00 Q1023 NOSIG=
201902072000 METAR LRCK 072000Z 01006KT 8000 SCT012 BKN030 00/M00 Q1023
                        BECMG 5000 BR=
201902072030 METAR LRCK 072030Z 01006KT 6000 BKN018 00/M00 Q1023 BECMG
                        5000 BR=
201902072100 METAR LRCK 072100Z 01006KT 6000 BKN020 00/M00 Q1023 BECMG
                        5000 BR=
201902072130 METAR LRCK 072130Z 01007KT 6000 BKN025 00/M00 Q1022 BECMG
                        5000 BR=
201902072200 METAR LRCK 072200Z 35008KT 5000 BR SCT024 M01/M01 Q1022 NOSIG=
201902072230 METAR LRCK 072230Z 35009KT 7000 FEW026 M00/M01 Q1022 NOSIG=
201902072300 METAR LRCK 072300Z 35010KT 9999 FEW030 M01/M02 Q1022 NOSIG=
201902072330 METAR LRCK 072330Z 36010KT 9999 SCT028 M00/M02 Q1022 NOSIG=
201902080000 METAR LRCK 080000Z 35010KT 9999 BKN027 M00/M02 Q1022 NOSIG=
201902080030 METAR LRCK 080030Z 34007KT 9999 BKN028 M01/M02 Q1022 NOSIG=
201902080100 METAR LRCK 080100Z 34008KT 9999 BKN029 M00/M02 Q1022 NOSIG=
201902080130 METAR LRCK 080130Z 34010KT 9999 BKN029 00/M01 Q1021 NOSIG=
201902080200 METAR LRCK 080200Z 34009KT 9999 BKN028 00/M01 Q1021 NOSIG=
201902080230 METAR LRCK 080230Z 34008KT 9999 BKN026 00/M02 Q1021 NOSIG=
201902080300 METAR LRCK 080300Z 34008KT 9999 OVC026 00/M02 Q1021 NOSIG=
201902080330 METAR LRCK 080330Z 34008KT 9999 OVC027 00/M02 Q1021 NOSIG=
201902080400 METAR LRCK 080400Z 36008KT 9999 OVC028 00/M02 Q1021 NOSIG=
201902080430 METAR LRCK 080430Z 36006KT 9999 OVC028 00/M01 Q1021 NOSIG=
201902080500 METAR LRCK 080500Z 35006KT 9999 OVC027 00/M02 Q1021 NOSIG=
201902080530 METAR LRCK 080530Z 36008KT 9999 OVC029 00/M01 Q1021 NOSIG=
201902080600 METAR LRCK 080600Z 35008KT 9999 BKN030 01/M01 Q1021 NOSIG=
201902080630 METAR LRCK 080630Z 36009KT 9999 SCT030 01/M01 Q1022 NOSIG=
201902080700 METAR LRCK 080700Z 01008KT 9999 BKN030 01/M01 Q1021 NOSIG=
201902080730 METAR LRCK 080730Z 01010KT 9999 FEW028 SCT031 02/M01 Q1021
                        NOSIG=
201902080800 METAR LRCK 080800Z 01010KT 9999 BKN028 02/M01 Q1022 NOSIG=
201902080830 METAR LRCK 080830Z 01010KT 9999 BKN027 02/M01 Q1022 NOSIG=
201902080900 METAR LRCK 080900Z 36010KT 9999 BKN028 03/M01 Q1022 NOSIG=
201902080930 METAR LRCK 080930Z 01010KT 9999 OVC029 02/M00 Q1022 NOSIG=
201902081000 METAR LRCK 081000Z 02009KT 9999 OVC028 03/M00 Q1022 NOSIG=
201902081030 METAR LRCK 081030Z 03009KT 9999 BKN017 OVC028 03/M00 Q1022
                        NOSIG=
201902081100 METAR LRCK 081100Z 03010KT 9999 BKN016 OVC028 02/M00 Q1021
                        NOSIG=
201902081130 METAR LRCK 081130Z 02009KT 9999 BKN017 OVC024 02/M00 Q1021
                        NOSIG=
201902081200 METAR LRCK 081200Z 02009KT 9999 SCT018 OVC024 02/M00 Q1021
                        NOSIG=
201902081230 METAR LRCK 081230Z 03011KT 9999 SCT017 OVC024 02/00 Q1021
                        NOSIG=
201902081300 METAR LRCK 081300Z 02009KT 9999 BKN018 OVC024 02/00 Q1021
                        NOSIG=
201902081330 METAR LRCK 081330Z 03010KT 9999 BKN016 OVC024 02/M01 Q1021
                        NOSIG=
201902081400 METAR LRCK 081400Z 03010KT 9999 BKN017 OVC023 02/M00 Q1021
                        NOSIG=
201902081430 METAR LRCK 081430Z 03009KT 9999 SCT018 OVC031 02/M00 Q1021
                        NOSIG=
201902081500 METAR LRCK 081500Z 03009KT 9999 SCT018 OVC024 02/M01 Q1022
                        NOSIG=
201902081530 METAR LRCK 081530Z 04010KT 9999 SCT018 OVC024 01/M01 Q1022
                        NOSIG=
201902081600 METAR LRCK 081600Z 03009KT 9999 FEW018 OVC025 01/M01 Q1022
                        NOSIG=
201902081630 METAR LRCK 081630Z 02007KT 9999 OVC025 01/M00 Q1022 NOSIG=
201902081700 METAR LRCK 081700Z 02008KT 9999 OVC027 01/M01 Q1022 NOSIG=
201902081730 METAR LRCK 081730Z 02006KT 9999 OVC028 01/M01 Q1023 NOSIG=
201902081800 METAR LRCK 081800Z 36006KT 9999 OVC028 01/M01 Q1023 NOSIG=
201902081830 METAR LRCK 081830Z 35006KT 9999 OVC028 01/M01 Q1023 NOSIG=
201902081900 METAR LRCK 081900Z 01007KT 9999 OVC029 00/M01 Q1023 NOSIG=
201902081930 METAR LRCK 081930Z 02008KT 9999 OVC029 00/M01 Q1023 NOSIG=
201902082000 METAR LRCK 082000Z 02008KT 9999 OVC030 00/M01 Q1023 NOSIG=
201902082030 METAR LRCK 082030Z 03007KT 9999 OVC030 00/M01 Q1023 NOSIG=
201902082100 METAR LRCK 082100Z 02008KT 9999 OVC030 M00/M01 Q1022 NOSIG=
201902082130 METAR LRCK 082130Z 01008KT 9999 OVC030 M00/M02 Q1022 NOSIG=
201902082200 METAR LRCK 082200Z 01008KT 9999 OVC030 M00/M02 Q1022 NOSIG=
201902082230 METAR LRCK 082230Z 02009KT 9999 OVC029 M00/M02 Q1022 NOSIG=
201902082300 METAR LRCK 082300Z 02007KT 9999 OVC028 M00/M02 Q1022 NOSIG=
201902082330 METAR LRCK 082330Z 02007KT 9999 OVC025 M00/M02 Q1022 NOSIG=
201902090000 METAR LRCK 090000Z 01007KT 9999 OVC025 M00/M03 Q1022 NOSIG=
201902090030 METAR LRCK 090030Z 03007KT 9999 OVC025 M00/M03 Q1023 NOSIG=
201902090100 METAR LRCK 090100Z 01004KT 9999 OVC025 M00/M03 Q1022 NOSIG=
201902090130 METAR LRCK 090130Z 01004KT 9999 OVC025 M00/M02 Q1022 NOSIG=
201902090200 METAR LRCK 090200Z 02004KT 9999 OVC024 M00/M03 Q1022 NOSIG=
201902090230 METAR LRCK 090230Z 02004KT 9999 OVC024 M00/M03 Q1022 NOSIG=
201902090300 METAR LRCK 090300Z 03006KT 9999 OVC025 M01/M03 Q1022 NOSIG=
201902090330 METAR LRCK 090330Z 02005KT 9999 OVC028 M01/M03 Q1022 NOSIG=
201902090400 METAR COR LRCK 090400Z 02005KT 9999 OVC028 M01/M03 Q1022
                        NOSIG=
201902090430 METAR LRCK 090430Z 36005KT 9999 OVC028 M01/M04 Q1022 NOSIG=
201902090500 METAR LRCK 090500Z 35004KT 9999 OVC029 M01/M04 Q1022 NOSIG=
201902090530 METAR LRCK 090530Z 35004KT 9999 OVC030 M01/M04 Q1022 NOSIG=
201902090600 METAR LRCK 090600Z 34005KT 9999 OVC030 M01/M04 Q1023 NOSIG=
201902090630 METAR LRCK 090630Z 34004KT 9999 BKN031 M01/M05 Q1023 NOSIG=
201902090700 METAR LRCK 090700Z 32004KT 9999 BKN030 M00/M05 Q1023 NOSIG=
201902090730 METAR LRCK 090730Z 33004KT 9999 OVC030 M00/M05 Q1023 NOSIG=
201902090800 METAR LRCK 090800Z 36007KT 9999 OVC030 00/M04 Q1023 NOSIG=
201902090830 METAR LRCK 090830Z 02006KT 9999 OVC029 00/M04 Q1023 NOSIG=
201902090900 METAR LRCK 090900Z 03007KT 9999 BKN029 01/M03 Q1022 NOSIG=
201902090930 METAR LRCK 090930Z 04007KT 9999 BKN030 01/M03 Q1022 NOSIG=
201902091000 METAR LRCK 091000Z 02005KT 310V090 9999 BKN033 02/M04 Q1022
                        NOSIG=
201902091030 METAR LRCK 091030Z 01004KT 300V110 9999 SCT026 BKN036 02/M03
                        Q1022 NOSIG=
201902091100 METAR LRCK 091100Z 32005KT 260V340 9999 BKN027 BKN036 02/M04
                        Q1022 NOSIG=
201902091130 METAR LRCK 091130Z 32004KT 290V350 9999 BKN027 02/M04 Q1022
                        NOSIG=
201902091200 METAR LRCK 091200Z 33004KT 290V030 9999 BKN026 03/M03 Q1021
                        NOSIG=
201902091230 METAR LRCK 091230Z VRB02KT 9999 BKN027 03/M04 Q1021 NOSIG=
201902091300 METAR LRCK 091300Z 30004KT 240V020 9999 BKN027 03/M03 Q1021
                        NOSIG=
201902091330 METAR LRCK 091330Z VRB02KT 9999 BKN027 03/M02 Q1021 NOSIG=
201902091400 METAR LRCK 091400Z 08004KT 040V120 9999 BKN029 03/M02 Q1021
                        NOSIG=
201902091430 METAR LRCK 091430Z 06004KT 9999 SCT026 03/M02 Q1021 NOSIG=
201902091500 METAR LRCK 091500Z 07005KT 9999 BKN027 02/M02 Q1021 NOSIG=
201902091530 METAR LRCK 091530Z 12006KT 9999 BKN036 01/M02 Q1021 NOSIG=
201902091600 METAR LRCK 091600Z 13006KT 9999 BKN035 00/M02 Q1021 NOSIG=
201902091630 METAR LRCK 091630Z 13005KT 9999 BKN035 00/M02 Q1021 NOSIG=
201902091700 METAR LRCK 091700Z 13005KT 9999 OVC034 00/M02 Q1022 NOSIG=
201902091730 METAR LRCK 091730Z 15005KT 9999 BKN034 M00/M02 Q1022 NOSIG=
201902091800 METAR LRCK 091800Z 17005KT 9999 BKN032 M00/M02 Q1022 NOSIG=
201902091830 METAR LRCK 091830Z 16006KT 8000 SCT032 M01/M02 Q1022 NOSIG=
201902091900 METAR LRCK 091900Z 16005KT 7000 FEW032 M01/M02 Q1021 NOSIG=
201902091930 METAR LRCK 091930Z 16004KT 7000 NSC M02/M03 Q1021 NOSIG=
201902092000 METAR LRCK 092000Z 16005KT 6000 NSC M02/M03 Q1021 NOSIG=
201902092030 METAR LRCK 092030Z 15006KT 6000 NSC M01/M02 Q1021 NOSIG=
201902092100 METAR LRCK 092100Z 16006KT 6000 NSC M01/M03 Q1021 NOSIG=
201902092130 METAR LRCK 092130Z 17006KT 6000 NSC M01/M03 Q1021 NOSIG=
201902092200 METAR LRCK 092200Z 19004KT 6000 NSC M01/M03 Q1021 NOSIG=
201902092230 METAR LRCK 092230Z 20004KT 6000 FEW035 M02/M03 Q1021 NOSIG=
201902092300 METAR LRCK 092300Z 20003KT 6000 FEW034 M02/M03 Q1021 NOSIG=
201902092330 METAR LRCK 092330Z 21004KT 6000 FEW035 M02/M02 Q1021 NOSIG=
201902100000 METAR COR LRCK 100000Z 24004KT 6000 NSC M03/M03 Q1021 NOSIG=
201902100030 METAR COR LRCK 100030Z 25004KT 6000 BR NSC M03/M04 Q1021
                        NOSIG=
201902100100 METAR LRCK 100100Z 24004KT 6000 NSC M03/M03 Q1021 NOSIG=
201902100130 METAR LRCK 100130Z 22004KT 6000 NSC M03/M03 Q1020 NOSIG=
201902100200 METAR LRCK 100200Z 20004KT 6000 NSC M03/M03 Q1020 NOSIG=
201902100230 METAR LRCK 100230Z 20004KT 6000 NSC M03/M04 Q1020 NOSIG=
201902100300 METAR COR LRCK 100300Z 26005KT 6000 NSC M03/M04 Q1020 NOSIG=
201902100330 METAR LRCK 100330Z 25004KT 6000 NSC M03/M04 Q1020 NOSIG=
201902100400 METAR LRCK 100400Z 27005KT 6000 NSC M02/M03 Q1021 NOSIG=
201902100430 METAR LRCK 100430Z 28004KT 5000 BR NSC M03/M04 Q1021 NOSIG=
201902100500 METAR LRCK 100500Z 27004KT 6000 NSC M03/M04 Q1021 NOSIG=
201902100530 METAR LRCK 100530Z 26003KT 6000 NSC M03/M03 Q1021 NOSIG=
201902100600 METAR LRCK 100600Z 27004KT 6000 BR NSC M02/M03 Q1021 NOSIG=
201902100630 METAR LRCK 100630Z 25005KT 5000 BR NSC M01/M02 Q1021 NOSIG=
201902100700 METAR LRCK 100700Z 25004KT 7000 NSC 01/M01 Q1021 NOSIG=
201902100730 METAR LRCK 100730Z 26004KT 8000 NSC 02/M00 Q1021 NOSIG=
201902100800 METAR LRCK 100800Z 27004KT CAVOK 03/M00 Q1022 NOSIG=
201902100830 METAR LRCK 100830Z 25004KT CAVOK 04/M01 Q1021 NOSIG=
201902100900 METAR LRCK 100900Z 25004KT 230V290 CAVOK 05/M02 Q1022 NOSIG=
201902100930 METAR LRCK 100930Z 22003KT 200V280 CAVOK 05/M02 Q1022 NOSIG=
201902101000 METAR LRCK 101000Z 25005KT CAVOK 06/M02 Q1021 NOSIG=
201902101030 METAR LRCK 101030Z 25008KT CAVOK 07/M02 Q1021 NOSIG=
201902101100 METAR LRCK 101100Z 24008KT CAVOK 07/M01 Q1021 NOSIG=
201902101130 METAR LRCK 101130Z 24005KT 140V280 CAVOK 08/M01 Q1020 NOSIG=
201902101200 METAR LRCK 101200Z 24007KT 210V270 CAVOK 08/M01 Q1020 NOSIG=
201902101230 METAR LRCK 101230Z 23005KT 190V270 CAVOK 08/M01 Q1020 NOSIG=
201902101300 METAR LRCK 101300Z 24005KT CAVOK 08/M01 Q1020 NOSIG=
201902101330 METAR LRCK 101330Z 19004KT 150V270 CAVOK 07/00 Q1020 NOSIG=
201902101400 METAR LRCK 101400Z 12008KT CAVOK 05/01 Q1019 NOSIG=
201902101430 METAR LRCK 101430Z 12008KT CAVOK 05/01 Q1019 NOSIG=
201902101500 METAR LRCK 101500Z 13007KT CAVOK 04/02 Q1019 NOSIG=
201902101530 METAR LRCK 101530Z 14006KT 8000 NSC 03/02 Q1019 NOSIG=
201902101600 METAR LRCK 101600Z 14007KT 5000 BR NSC 02/01 Q1019 TEMPO
                        3000 BR=
201902101630 METAR LRCK 101630Z 15006KT 5000 BR NSC 01/01 Q1019 TEMPO
                        3000 BR=
201902101700 METAR LRCK 101700Z 15006KT 4000 BR NSC 01/01 Q1019 TEMPO
                        3000 BR=
201902101730 METAR LRCK 101730Z 16007KT 5000 BR NSC 01/01 Q1019 NOSIG=
201902101800 METAR LRCK 101800Z 16007KT 5000 BR NSC 01/M00 Q1019 NOSIG=
201902101830 METAR LRCK 101830Z 16008KT 6000 NSC 01/M00 Q1019 NOSIG=
201902101900 METAR LRCK 101900Z 17007KT 5000 BR NSC 00/M00 Q1018 NOSIG=
201902101930 METAR LRCK 101930Z 17007KT 5000 BR NSC 01/M00 Q1018 NOSIG=
201902102000 METAR LRCK 102000Z 19006KT 7000 NSC M00/M01 Q1018 NOSIG=
201902102030 METAR LRCK 102030Z 19006KT 8000 NSC M00/M01 Q1017 NOSIG=
201902102100 METAR LRCK 102100Z 19007KT 7000 NSC M00/M01 Q1017 NOSIG=
201902102130 METAR LRCK 102130Z 20008KT 5000 BR NSC 01/01 Q1017 NOSIG=
201902102200 METAR LRCK 102200Z 19007KT 4000 BR NSC 01/00 Q1017 NOSIG=
201902102230 METAR LRCK 102230Z 19010KT 4000 BR NSC 01/01 Q1016 NOSIG=
201902102300 METAR LRCK 102300Z 18011KT 4000 BR NSC 01/01 Q1016 NOSIG=
201902102330 METAR LRCK 102330Z 17008KT 3000 BR NSC 00/00 Q1015 NOSIG=
201902110000 METAR LRCK 110000Z 17008KT 2500 BR NSC 01/01 Q1015 NOSIG=
201902110030 METAR LRCK 110030Z 17009KT 2000 BR NSC 01/01 Q1015 TEMPO
                        1500 BR=
201902110100 METAR LRCK 110100Z 18010KT 1500 BR NSC 01/01 Q1015 TEMPO
                        0800 FG=
201902110130 METAR LRCK 110130Z 18009KT 0800 R18/1900D R36/P2000 FG FEW002
                        01/01 Q1014 TEMPO 0600 FG=
201902110200 METAR LRCK 110200Z 20005KT 0150 R18/0450N R36/0450D FG VV002
                        01/01 Q1014 NOSIG=
201902110230 METAR COR LRCK 110230Z 21005KT 0100 R18/0375N R36/0350N FG
                        VV001 01/01 Q1013 NOSIG=
201902110300 METAR LRCK 110300Z 19008KT 0800 R18/P2000 R36/1800D FG SCT003
                        01/01 Q1013 TEMPO 1500 BR=
201902110330 METAR LRCK 110330Z 17008KT 1500 BR FEW003 01/01 Q1013 NOSIG=
201902110400 METAR LRCK 110400Z 17010KT 3500 BR NSC 01/01 Q1013 NOSIG=
201902110430 METAR LRCK 110430Z 18010KT 3500 BR NSC 01/01 Q1013 NOSIG=
201902110500 METAR LRCK 110500Z 18010KT 4000 BR NSC 02/02 Q1012 NOSIG=
201902110530 METAR LRCK 110530Z 18010KT 5000 BR NSC 02/02 Q1012 NOSIG=
201902110600 METAR LRCK 110600Z 18010KT 5000 BR NSC 02/02 Q1012 NOSIG=
201902110630 METAR LRCK 110630Z 17009KT 5000 BR NSC 03/02 Q1012 NOSIG=
201902110700 METAR LRCK 110700Z 17007KT 4000 BR NSC 03/03 Q1012 NOSIG=
201902110730 METAR LRCK 110730Z 17011KT 5000 BR NSC 05/04 Q1012 BECMG
                        9999 NSW=
201902110800 METAR LRCK 110800Z 19010KT 5000 BR NSC 05/04 Q1012 BECMG
                        9999 NSW=
201902110830 METAR LRCK 110830Z 19013KT 5000 BR FEW008 06/05 Q1012 BECMG
                        9999 NSW=
201902110900 METAR LRCK 110900Z 19013KT 7000 FEW009 07/05 Q1011 BECMG
                        9999 NSW=
201902110930 METAR LRCK 110930Z 19011KT 8000 FEW009 09/05 Q1011 NOSIG=
201902111000 METAR LRCK 111000Z 18011KT 8000 FEW011 10/05 Q1010 NOSIG=
201902111030 METAR LRCK 111030Z 20010KT CAVOK 10/05 Q1010 NOSIG=
201902111100 METAR LRCK 111100Z 18010KT CAVOK 11/06 Q1009 NOSIG=
201902111130 METAR LRCK 111130Z 17008KT CAVOK 12/06 Q1009 NOSIG=
201902111200 METAR LRCK 111200Z 16009KT CAVOK 12/06 Q1008 NOSIG=
201902111230 METAR LRCK 111230Z 17009KT CAVOK 12/06 Q1008 NOSIG=
201902111300 METAR LRCK 111300Z 14008KT CAVOK 11/07 Q1008 NOSIG=
201902111330 METAR LRCK 111330Z 13007KT 7000 NSC 10/07 Q1008 NOSIG=
201902111400 METAR LRCK 111400Z 14006KT 120V180 7000 NSC 11/06 Q1008 NOSIG=
201902111430 METAR LRCK 111430Z 14006KT 7000 NSC 10/06 Q1008 NOSIG=
201902111500 METAR LRCK 111500Z 17009KT 7000 NSC 09/06 Q1007 NOSIG=
201902111530 METAR LRCK 111530Z 12004KT 100V170 6000 NSC 08/06 Q1007 BECMG
                        5000 BR=
201902111600 METAR LRCK 111600Z 18009KT 6000 NSC 07/05 Q1007 BECMG 5000
                        BR=
201902111630 METAR LRCK 111630Z 17008KT 6000 NSC 06/05 Q1007 NOSIG=
201902111700 METAR LRCK 111700Z 18009KT 5000 BR NSC 05/04 Q1007 NOSIG=
201902111730 METAR LRCK 111730Z 18010KT 4000 BR NSC 05/05 Q1007 TEMPO
                        3000 BR=
201902111800 METAR LRCK 111800Z 18011KT 4000 BR NSC 06/05 Q1007 TEMPO
                        3000 BR=
201902111830 METAR LRCK 111830Z 18009KT 4000 BR NSC 05/04 Q1007 TEMPO
                        3000 BR=
201902111900 METAR LRCK 111900Z 17009KT 4000 BR NSC 04/04 Q1007 NOSIG=
201902111930 METAR LRCK 111930Z 17007KT 4000 BR NSC 04/04 Q1006 NOSIG=
201902112000 METAR LRCK 112000Z 16006KT 3000 BR NSC 05/04 Q1006 NOSIG=
201902112030 METAR LRCK 112030Z 17008KT 3000 BR NSC 04/04 Q1006 NOSIG=
201902112100 METAR LRCK 112100Z 19005KT 3000 BR NSC 04/04 Q1006 NOSIG=
201902112130 METAR LRCK 112130Z 18009KT 4000 BR NSC 05/05 Q1005 BECMG
                        6000 NSW=
201902112200 METAR LRCK 112200Z 19012KT 5000 BR NSC 06/05 Q1005 BECMG
                        6000 NSW=
201902112230 METAR LRCK 112230Z 18009KT 5000 BR NSC 05/04 Q1005 BECMG
                        6000 NSW=
201902112300 METAR LRCK 112300Z 16005KT 5000 BR NSC 04/04 Q1005 NOSIG=
201902112330 METAR LRCK 112330Z 19006KT 5000 BR NSC 04/04 Q1005 NOSIG=
201902120000 METAR LRCK 120000Z 17008KT 5000 BR NSC 04/04 Q1005 NOSIG=
201902120030 METAR LRCK 120030Z 18006KT 5000 BR NSC 05/05 Q1005 NOSIG=
201902120100 METAR LRCK 120100Z VRB02KT 7000 NSC 06/06 Q1004 NOSIG=
201902120130 METAR LRCK 120130Z 21003KT 6000 NSC 05/05 Q1004 NOSIG=
201902120200 METAR LRCK 120200Z 17005KT 7000 NSC 04/04 Q1004 NOSIG=
201902120230 METAR LRCK 120230Z 19005KT 6000 NSC 05/05 Q1004 NOSIG=
201902120300 METAR LRCK 120300Z 20006KT 6000 NSC 04/04 Q1004 NOSIG=
201902120330 METAR LRCK 120330Z 21006KT 6000 NSC 05/05 Q1004 NOSIG=
201902120400 METAR LRCK 120400Z 24005KT 6000 NSC 04/04 Q1004 NOSIG=
201902120430 METAR LRCK 120430Z 24005KT 6000 NSC 04/04 Q1004 NOSIG=
201902120500 METAR LRCK 120500Z 24006KT 6000 NSC 04/04 Q1004 NOSIG=
201902120530 METAR LRCK 120530Z 24010KT 8000 NSC 04/04 Q1005 NOSIG=
201902120600 METAR LRCK 120600Z 26016KT 8000 NSC 06/05 Q1005 NOSIG=
201902120630 METAR LRCK 120630Z 26015KT 5000 BR NSC 06/05 Q1004 BECMG
                        3000 -RA BR BKN015 BKN030=
201902120700 METAR LRCK 120700Z 25011KT 4000 -RA BR NSC 05/05 Q1005 TEMPO
                        3000 -RA BR=
201902120730 METAR LRCK 120730Z 25013KT 3000 -RA BR FEW004 SCT013 05/05
                        Q1006 R18/29//95 BECMG BKN005 BKN030=
201902120800 METAR LRCK 120800Z 26015KT 1600 -RA BR BKN003 BKN045 05/05
                        Q1006 R18/29//95 TEMPO 1500 -RA BR=
201902120830 METAR LRCK 120830Z 26018KT 2000 -RA BR BKN004 BKN043 04/04
                        Q1007 R18/29//95 NOSIG=
201902120900 METAR LRCK 120900Z 29012KT 2500 -RA BR BKN004 BKN035 04/04
                        Q1006 R18/29//95 NOSIG=
201902120930 METAR LRCK 120930Z 27009KT 3000 BR BKN004 BKN045 05/05 Q1006
                        RERA R36/29//95 BECMG 5000 BKN005
                        BKN045=
201902121000 METAR LRCK 121000Z 26014KT 4000 BR BKN004 BKN045 05/04 Q1007
                        R36/29//95 BECMG 5000 BKN005 BKN045=
201902121030 METAR LRCK 121030Z 26014KT 5000 BR BKN004 04/04 Q1007 R36/29//95
                        BECMG BKN005=
201902121100 METAR LRCK 121100Z 27014KT 4500 BR BKN004 04/04 Q1006 R36/29//95
                        NOSIG=
201902121130 METAR LRCK 121130Z 26015KT 5000 BR BKN004 04/04 Q1008 R36/29//95
                        NOSIG=
201902121200 METAR LRCK 121200Z 26013KT 8000 OVC005 04/03 Q1008 R36/29//95
                        NOSIG=
201902121230 METAR LRCK 121230Z 28012KT 8000 OVC005 04/03 Q1007 R36/25//95
                        NOSIG=
201902121300 METAR LRCK 121300Z 28013KT 9999 OVC005 04/03 Q1008 R36/25//95
                        NOSIG=
201902121330 METAR LRCK 121330Z 28012KT 9999 OVC006 03/03 Q1009 R36/25//95
                        NOSIG=
201902121400 METAR LRCK 121400Z 28012KT 9999 OVC007 03/03 Q1009 R36/25//95
                        NOSIG=
201902121430 METAR LRCK 121430Z 28012KT 9999 OVC008 03/02 Q1010 R36/25//95
                        NOSIG=
201902121500 METAR LRCK 121500Z 29011KT 9999 OVC009 03/02 Q1010 R36/25//95
                        NOSIG=
201902121530 METAR LRCK 121530Z 28009KT 9999 OVC007 03/02 Q1011 R36/25//95
                        NOSIG=
201902121600 METAR LRCK 121600Z 30009KT 9999 OVC010 03/02 Q1012 R36/25//95
                        NOSIG=
201902121630 METAR LRCK 121630Z 31010KT 9999 BKN011 OVC031 03/02 Q1013
                        R36/CLRD// NOSIG=
201902121700 METAR LRCK 121700Z 31011KT 9999 BKN013 OVC035 03/02 Q1013
                        NOSIG=
201902121730 METAR LRCK 121730Z 30011KT 9999 BKN015 OVC042 03/02 Q1014
                        NOSIG=
201902121800 METAR LRCK 121800Z 30011KT 9999 BKN017 OVC041 03/02 Q1015
                        NOSIG=
201902121830 METAR LRCK 121830Z 30012KT 9999 SCT016 BKN020 03/02 Q1015
                        NOSIG=
201902121900 METAR LRCK 121900Z 31011KT 9999 BKN017 BKN020 03/01 Q1016
                        NOSIG=
201902121930 METAR LRCK 121930Z 31013KT 9999 SCT016 BKN019 03/01 Q1016
                        NOSIG=
201902122000 METAR LRCK 122000Z 31013KT 9999 BKN018 BKN021 03/01 Q1017
                        NOSIG=
201902122030 METAR LRCK 122030Z 30014KT 9999 FEW017 BKN020 02/00 Q1017
                        NOSIG=
201902122100 METAR LRCK 122100Z 31013KT 9999 SCT021 02/00 Q1018 NOSIG=
201902122130 METAR LRCK 122130Z 31010KT CAVOK 02/M00 Q1019 NOSIG=
201902122200 METAR LRCK 122200Z 32010KT CAVOK 02/M00 Q1019 NOSIG=
201902122230 METAR LRCK 122230Z 32010KT CAVOK 01/M01 Q1019 NOSIG=
201902122300 METAR LRCK 122300Z 32009KT CAVOK 01/M00 Q1020 NOSIG=
201902122330 METAR LRCK 122330Z 34009KT CAVOK 01/M01 Q1020 NOSIG=
201902130000 METAR LRCK 130000Z 34010KT CAVOK 01/M01 Q1021 NOSIG=
201902130030 METAR LRCK 130030Z 34008KT CAVOK 01/M01 Q1021 NOSIG=
201902130100 METAR LRCK 130100Z 33007KT CAVOK 00/M01 Q1021 NOSIG=
201902130130 METAR LRCK 130130Z 34008KT CAVOK 00/M02 Q1021 NOSIG=
201902130200 METAR LRCK 130200Z 34008KT CAVOK 00/M02 Q1022 NOSIG=
201902130230 METAR LRCK 130230Z 34006KT CAVOK 00/M02 Q1022 NOSIG=
201902130300 METAR LRCK 130300Z 35011KT CAVOK 01/M02 Q1023 NOSIG=
201902130330 METAR LRCK 130330Z 35011KT CAVOK 01/M02 Q1023 NOSIG=
201902130400 METAR LRCK 130400Z 35013KT CAVOK 01/M02 Q1023 NOSIG=
201902130430 METAR LRCK 130430Z 35012KT CAVOK 00/M02 Q1024 NOSIG=
201902130500 METAR LRCK 130500Z 36012KT CAVOK 00/M02 Q1024 NOSIG=
201902130530 METAR LRCK 130530Z 36012KT CAVOK 00/M03 Q1025 NOSIG=
201902130600 METAR LRCK 130600Z 36010KT CAVOK 00/M03 Q1026 NOSIG=
201902130630 METAR LRCK 130630Z 35009KT CAVOK 00/M03 Q1026 NOSIG=
201902130700 METAR LRCK 130700Z 35010KT CAVOK 01/M02 Q1026 NOSIG=
201902130730 METAR LRCK 130730Z 36011KT CAVOK 02/M02 Q1026 NOSIG=
201902130800 METAR LRCK 130800Z 35014KT CAVOK 03/M01 Q1027 NOSIG=
201902130830 METAR LRCK 130830Z 35014KT 9999 FEW015 04/M02 Q1027 NOSIG=
201902130900 METAR LRCK 130900Z 36014KT 9999 FEW018 05/M01 Q1027 NOSIG=
201902130930 METAR LRCK 130930Z 36013KT 9999 FEW029 05/00 Q1028 NOSIG=
201902131000 METAR LRCK 131000Z 01013KT 9999 FEW028 06/00 Q1028 NOSIG=
201902131030 METAR LRCK 131030Z 01016KT 9999 SCT030 06/01 Q1028 NOSIG=
201902131100 METAR LRCK 131100Z 02016KT 9999 SCT033 06/M00 Q1028 NOSIG=
201902131130 METAR LRCK 131130Z 02015KT 9999 SCT039 06/M01 Q1028 NOSIG=
201902131200 METAR LRCK 131200Z 01013KT 9999 BKN038 06/M01 Q1028 NOSIG=
201902131230 METAR LRCK 131230Z 01014KT 9999 BKN037 05/M01 Q1028 NOSIG=
201902131300 METAR LRCK 131300Z 01012KT 9999 BKN036 05/M02 Q1028 NOSIG=
201902131330 METAR LRCK 131330Z 36011KT 9999 SCT036 05/M02 Q1028 NOSIG=
201902131400 METAR LRCK 131400Z 35008KT 9999 SCT035 05/M02 Q1028 NOSIG=
201902131430 METAR LRCK 131430Z 01009KT 9999 SCT035 04/M02 Q1029 NOSIG=
201902131500 METAR LRCK 131500Z 35008KT 9999 SCT038 04/M02 Q1029 NOSIG=
201902131530 METAR LRCK 131530Z 36008KT 9999 FEW035 03/M01 Q1029 NOSIG=
201902131600 METAR LRCK 131600Z 35009KT 9999 FEW038 02/M03 Q1029 NOSIG=
201902131630 METAR LRCK 131630Z 34007KT CAVOK 00/M04 Q1029 NOSIG=
201902131700 METAR LRCK 131700Z 35008KT CAVOK M01/M04 Q1030 NOSIG=
201902131730 METAR LRCK 131730Z 35007KT CAVOK M01/M03 Q1030 NOSIG=
201902131800 METAR LRCK 131800Z 34004KT CAVOK M02/M04 Q1030 NOSIG=
201902131830 METAR LRCK 131830Z 28006KT CAVOK M02/M04 Q1030 NOSIG=
201902131900 METAR LRCK 131900Z 30005KT CAVOK M01/M04 Q1030 NOSIG=
201902131930 METAR LRCK 131930Z 30006KT CAVOK M03/M05 Q1029 NOSIG=
201902132000 METAR LRCK 132000Z 28005KT CAVOK M02/M04 Q1029 NOSIG=
201902132030 METAR LRCK 132030Z 27005KT CAVOK M03/M04 Q1030 NOSIG=
201902132100 METAR LRCK 132100Z 24004KT CAVOK M03/M04 Q1030 NOSIG=
201902132130 METAR LRCK 132130Z 28003KT CAVOK M02/M04 Q1030 NOSIG=
201902132200 METAR LRCK 132200Z 27004KT CAVOK M02/M03 Q1030 NOSIG=
201902132230 METAR LRCK 132230Z 31004KT CAVOK M03/M04 Q1029 NOSIG=
201902132300 METAR LRCK 132300Z 28006KT CAVOK M03/M04 Q1029 NOSIG=
201902132330 METAR LRCK 132330Z 27005KT CAVOK M03/M04 Q1029 NOSIG=
201902140000 METAR COR LRCK 140000Z 25005KT CAVOK M03/M04 Q1029 NOSIG=
201902140030 METAR LRCK 140030Z 25006KT CAVOK M03/M04 Q1028 NOSIG=
201902140100 METAR LRCK 140100Z 27007KT CAVOK M03/M04 Q1028 NOSIG=
201902140130 METAR LRCK 140130Z 27008KT CAVOK M03/M03 Q1028 NOSIG=
201902140200 METAR COR LRCK 140200Z 27008KT CAVOK M03/M03 Q1028 NOSIG=
201902140230 METAR LRCK 140230Z 27009KT 8000 NSC M03/M03 Q1028 NOSIG=
201902140300 METAR LRCK 140300Z 27008KT 7000 NSC M02/M02 Q1028 NOSIG=
201902140330 METAR LRCK 140330Z 28009KT 7000 SCT049 M02/M02 Q1028 TEMPO
                        5000 BR=
201902140400 METAR COR LRCK 140400Z 28008KT 7000 BKN048 M01/M02 Q1027
                        TEMPO 5000 BR=
201902140430 METAR COR LRCK 140430Z 28008KT 6000 BKN040 M01/M02 Q1027
                        TEMPO 5000 BR=
201902140500 METAR LRCK 140500Z 27007KT 7000 BKN043 M01/M02 Q1027 NOSIG=
201902140530 METAR LRCK 140530Z 28009KT 8000 BKN040 M01/M02 Q1027 NOSIG=
201902140600 METAR LRCK 140600Z 28009KT 8000 BKN040 M01/M02 Q1027 NOSIG=
201902140630 METAR LRCK 140630Z 29007KT 8000 BKN041 M01/M02 Q1028 NOSIG=
201902140700 METAR LRCK 140700Z 28007KT 9999 BKN046 M00/M01 Q1027 NOSIG=
201902140730 METAR LRCK 140730Z 28009KT 9999 BKN045 M00/M01 Q1027 NOSIG=
201902140800 METAR LRCK 140800Z 28009KT 9999 BKN045 00/M01 Q1027 NOSIG=
201902140830 METAR LRCK 140830Z 27009KT 9999 SCT047 01/M01 Q1027 NOSIG=
201902140900 METAR LRCK 140900Z 28010KT 9999 BKN040 01/M01 Q1027 NOSIG=
201902140930 METAR LRCK 140930Z 28013KT 9999 BKN040 01/M01 Q1027 NOSIG=
201902141000 METAR LRCK 141000Z 27009KT 9999 BKN040 01/M00 Q1026 NOSIG=
201902141030 METAR LRCK 141030Z 27010KT 9999 -SN BKN040 01/M00 Q1026 NOSIG=
201902141100 METAR LRCK 141100Z 28010KT 9999 -SN BKN041 01/M00 Q1026 NOSIG=
201902141130 METAR LRCK 141130Z 28010KT 9999 BKN030 01/M00 Q1025 NOSIG=
201902141200 METAR LRCK 141200Z 29010KT 9999 -SN BKN030 01/M00 Q1025 NOSIG=
201902141230 METAR LRCK 141230Z 28011KT 5000 -SN BR OVC025 01/01 Q1025
                        R36/19//95 NOSIG=
201902141300 METAR LRCK 141300Z 29011KT 1500 -SN BR OVC025 01/01 Q1025
                        R36/19//95 NOSIG=
201902141330 METAR LRCK 141330Z 29010KT 3000 -RA BR OVC026 01/01 Q1025
                        R36/19//95 NOSIG=
201902141400 METAR LRCK 141400Z 29011KT 3000 -RA BR BKN018 01/01 Q1025
                        R36/19//95 NOSIG=
201902141430 METAR LRCK 141430Z 29009KT 3000 -RA BR BKN018 01/01 Q1025
                        R36/19//95 NOSIG=
201902141500 METAR LRCK 141500Z 28008KT 5000 BR BKN015 01/01 Q1024 R36/19//95
                        NOSIG=
201902141530 METAR LRCK 141530Z 29007KT 5000 BR BKN013 02/01 Q1024 R36/19//95
                        NOSIG=
201902141600 METAR LRCK 141600Z 29008KT 5000 BR BKN025 02/02 Q1024 R36/19//95
                        NOSIG=
201902141630 METAR LRCK 141630Z 31006KT 8000 SCT011 BKN030 02/02 Q1025
                        R36/19//95 NOSIG=
201902141700 METAR LRCK 141700Z 32011KT 8000 FEW010 BKN027 03/03 Q1025
                        R36/19//95 NOSIG=
201902141730 METAR LRCK 141730Z 32009KT 3000 BR BKN017 03/02 Q1025 R36/19//95
                        NOSIG=
201902141800 METAR LRCK 141800Z 33009KT 3000 BR BKN025 02/02 Q1024 R36/19//95
                        NOSIG=
201902141830 METAR LRCK 141830Z 33009KT 5000 -RA BR SCT014 OVC025 02/02
                        Q1024 R36/19//95 NOSIG=
201902141900 METAR LRCK 141900Z 33008KT 6000 -DZ OVC013 03/02 Q1024 R36/19//95
                        TEMPO 3000 -RA BR=
201902141930 METAR LRCK 141930Z 33007KT 6000 OVC012 03/02 Q1025 R36/19//95
                        TEMPO 3000 -RA BR=
201902142000 METAR LRCK 142000Z 35008KT 6000 OVC009 02/02 Q1025 R36/19//95
                        TEMPO 3000 -RA BR=
201902142030 METAR LRCK 142030Z 35008KT 8000 BKN009 OVC012 03/02 Q1025
                        R36/19//95 TEMPO 3000 -RA BR=
201902142100 METAR LRCK 142100Z 02010KT 6000 OVC009 03/03 Q1025 R36/19//95
                        TEMPO 3000 -RA BR=
201902142130 METAR LRCK 142130Z 02012KT 5000 -RA BR OVC005 03/03 Q1025
                        R36/19//95 TEMPO 3000 -RA BR=
201902142200 METAR LRCK 142200Z 02012KT 5000 -RA BR OVC004 03/02 Q1025
                        R36/19//95 TEMPO 3000 -RA BR=
201902142230 METAR LRCK 142230Z 03012KT 5000 -RA BR OVC004 02/02 Q1025
                        R36/19//95 TEMPO 3000 -RA BR=
201902142300 METAR LRCK 142300Z 02012KT 8000 SCT004 OVC012 02/02 Q1025
                        R36/19//95 TEMPO 3000 -RA BR=
201902142330 METAR LRCK 142330Z 02013KT 8000 -RA OVC007 02/02 Q1025 R36/19//95
                        NOSIG=
201902150000 METAR LRCK 150000Z 02012KT 7000 OVC004 02/02 Q1025 R36/19//95
                        NOSIG=
201902150030 METAR LRCK 150030Z 01012KT 6000 OVC004 02/02 Q1025 R36/19//95
                        NOSIG=
201902150100 METAR LRCK 150100Z 36013KT 6000 FEW004 SCT019 BKN035 02/02
                        Q1025 R36/19//95 NOSIG=
201902150130 METAR LRCK 150130Z 01011KT 6000 SCT007 02/02 Q1025 R36/19//95
                        NOSIG=
201902150200 METAR LRCK 150200Z 02012KT 6000 SCT008 02/02 Q1025 R36/19//95
                        NOSIG=
201902150230 METAR LRCK 150230Z 02014KT 6000 FEW009 02/02 Q1026 R36/19//95
                        NOSIG=
201902150300 METAR LRCK 150300Z 02013KT 6000 SCT022 02/01 Q1026 R36/19//95
                        NOSIG=
201902150330 METAR LRCK 150330Z 02013KT 6000 OVC023 02/01 Q1026 R36/19//95
                        NOSIG=
201902150400 METAR LRCK 150400Z 01012KT 7000 OVC026 02/01 Q1026 R36/19//95
                        NOSIG=
201902150430 METAR LRCK 150430Z 01011KT 8000 OVC030 02/01 Q1026 R36/19//95
                        NOSIG=
201902150500 METAR LRCK 150500Z 01011KT 8000 OVC025 02/01 Q1027 R36/29//95
                        NOSIG=
201902150530 METAR LRCK 150530Z 01011KT 9999 SCT036 02/01 Q1027 R36/29//95
                        NOSIG=
201902150600 METAR LRCK 150600Z 02013KT 9999 BKN033 02/01 Q1028 R36/29//95
                        NOSIG=
201902150630 METAR LRCK 150630Z 01012KT 9999 BKN032 02/01 Q1028 R36/29//95
                        NOSIG=
201902150700 METAR LRCK 150700Z 02014KT 9999 FEW010 BKN033 02/02 Q1028
                        R36/29//95 NOSIG=
201902150730 METAR LRCK 150730Z 02014KT 9999 SCT010 BKN032 03/02 Q1029
                        R36/29//95 NOSIG=
201902150800 METAR LRCK 150800Z 02014KT 9999 SCT009 SCT033 03/01 Q1029
                        R36/29//95 NOSIG=
201902150830 METAR LRCK 150830Z 02016KT 9999 SCT013 03/01 Q1029 R36/CLRD//
                        NOSIG=
201902150900 METAR LRCK 150900Z 01015KT 9999 SCT015 04/01 Q1029 NOSIG=
201902150930 METAR LRCK 150930Z 02017KT 9999 SCT021 05/01 Q1029 NOSIG=
201902151000 METAR LRCK 151000Z 03017KT 9999 BKN023 05/01 Q1029 NOSIG=
201902151030 METAR LRCK 151030Z 03017KT 9999 BKN024 04/00 Q1029 NOSIG=
201902151100 METAR LRCK 151100Z 03016KT 9999 BKN023 05/02 Q1029 NOSIG=
201902151130 METAR LRCK 151130Z 03017KT 9999 BKN025 05/01 Q1029 NOSIG=
201902151200 METAR LRCK 151200Z 03017KT 9999 SCT026 06/M00 Q1029 NOSIG=
201902151230 METAR LRCK 151230Z 03017KT 9999 FEW026 06/M00 Q1029 NOSIG=
201902151300 METAR LRCK 151300Z 04017KT 9999 FEW035 06/M00 Q1029 NOSIG=
201902151330 METAR LRCK 151330Z 03017KT 9999 FEW035 05/M01 Q1029 NOSIG=
201902151400 METAR LRCK 151400Z 03016KT 9999 FEW040 05/M01 Q1029 NOSIG=
201902151430 METAR LRCK 151430Z 03014KT 9999 SCT036 05/M01 Q1029 NOSIG=
201902151500 METAR LRCK 151500Z 02010KT 9999 FEW035 SCT040 04/M00 Q1029
                        NOSIG=
201902151530 METAR LRCK 151530Z 02010KT 9999 BKN033 04/00 Q1029 NOSIG=
201902151600 METAR LRCK 151600Z 01007KT 9999 OVC038 04/00 Q1029 NOSIG=
201902151630 METAR LRCK 151630Z 36007KT 9999 OVC039 04/00 Q1030 NOSIG=
201902151700 METAR LRCK 151700Z 34007KT 9999 OVC040 03/M00 Q1030 NOSIG=
201902151730 METAR LRCK 151730Z 35007KT 9999 FEW034 OVC040 04/M00 Q1030
                        NOSIG=
201902151800 METAR LRCK 151800Z 36010KT 9999 OVC030 04/01 Q1030 NOSIG=
201902151830 METAR LRCK 151830Z 36012KT 9999 OVC030 04/01 Q1030 NOSIG=
201902151900 METAR LRCK 151900Z 36012KT 9999 OVC026 04/01 Q1030 NOSIG=
201902151930 METAR LRCK 151930Z 01012KT 9999 OVC028 03/01 Q1030 NOSIG=
201902152000 METAR LRCK 152000Z 01012KT 9999 OVC036 03/00 Q1030 NOSIG=
201902152030 METAR LRCK 152030Z 36011KT 9999 OVC034 03/00 Q1030 NOSIG=
201902152100 METAR LRCK 152100Z 35009KT 9999 OVC034 03/M00 Q1030 NOSIG=
201902152130 METAR LRCK 152130Z 35007KT 9999 OVC036 03/M00 Q1030 NOSIG=
201902152200 METAR COR LRCK 152200Z 34006KT 9999 OVC037 02/M01 Q1030 NOSIG=
201902152230 METAR LRCK 152230Z 32006KT 9999 OVC037 01/M01 Q1030 NOSIG=
201902152300 METAR LRCK 152300Z 34007KT 9999 BKN035 01/M01 Q1030 NOSIG=
201902152330 METAR LRCK 152330Z 35009KT 9999 BKN031 01/M02 Q1030 NOSIG=
201902160000 METAR LRCK 160000Z 34006KT 9999 BKN031 01/M01 Q1030 NOSIG=
201902160030 METAR LRCK 160030Z 32006KT 9999 OVC032 02/M01 Q1030 NOSIG=
201902160100 METAR LRCK 160100Z 31006KT 9999 OVC032 02/M01 Q1029 NOSIG=
201902160130 METAR LRCK 160130Z 30005KT 9999 OVC030 02/M01 Q1029 NOSIG=
201902160200 METAR LRCK 160200Z 33007KT 9999 OVC031 02/M01 Q1029 NOSIG=
201902160230 METAR LRCK 160230Z 30006KT 9999 OVC028 02/M00 Q1029 NOSIG=
201902160300 METAR LRCK 160300Z 30004KT 9999 OVC028 01/M00 Q1029 NOSIG=
201902160330 METAR LRCK 160330Z 30006KT 9999 OVC031 02/M00 Q1029 NOSIG=
201902160400 METAR LRCK 160400Z 30007KT 9999 OVC033 01/M01 Q1029 NOSIG=
201902160430 METAR LRCK 160430Z 28006KT 9999 OVC034 01/M00 Q1029 NOSIG=
201902160500 METAR LRCK 160500Z 30007KT 9999 OVC035 02/M01 Q1029 NOSIG=
201902160530 METAR LRCK 160530Z 30006KT 9999 OVC034 02/M01 Q1029 NOSIG=
201902160600 METAR LRCK 160600Z 29008KT 9999 BKN033 02/M00 Q1029 NOSIG=
201902160630 METAR LRCK 160630Z 29007KT 9999 OVC031 02/M00 Q1030 NOSIG=
201902160700 METAR LRCK 160700Z 30008KT 9999 OVC029 03/M00 Q1030 NOSIG=
201902160730 METAR LRCK 160730Z 31010KT 9999 OVC028 03/M00 Q1030 NOSIG=
201902160800 METAR LRCK 160800Z 32010KT 9999 FEW017 OVC025 03/M01 Q1030
                        NOSIG=
201902160830 METAR LRCK 160830Z 33013KT 9999 FEW018 OVC021 04/M01 Q1030
                        NOSIG=
201902160900 METAR LRCK 160900Z 34012KT 9999 OVC021 04/M01 Q1030 NOSIG=
201902160930 METAR LRCK 160930Z 35012KT 9999 OVC023 05/M01 Q1030 NOSIG=
201902161000 METAR LRCK 161000Z 36012KT 9999 OVC025 05/M00 Q1030 NOSIG=
201902161030 METAR LRCK 161030Z 34008KT 9999 BKN026 05/00 Q1029 NOSIG=
201902161100 METAR LRCK 161100Z 34006KT 310V010 9999 BKN027 06/M00 Q1029
                        NOSIG=
201902161130 METAR LRCK 161130Z 30008KT 9999 BKN027 06/M00 Q1029 NOSIG=
201902161200 METAR LRCK 161200Z 31009KT 9999 OVC028 06/00 Q1028 NOSIG=
201902161230 METAR LRCK 161230Z 32009KT 9999 OVC028 06/01 Q1028 NOSIG=
201902161300 METAR LRCK 161300Z 31010KT 9999 OVC028 06/01 Q1028 NOSIG=
201902161330 METAR LRCK 161330Z 30008KT 9999 OVC030 06/01 Q1028 NOSIG=
201902161400 METAR LRCK 161400Z 30010KT 9999 BKN032 06/01 Q1028 NOSIG=
201902161430 METAR LRCK 161430Z 31008KT 9999 OVC032 06/01 Q1028 NOSIG=
201902161500 METAR LRCK 161500Z 30006KT 260V330 9999 OVC031 06/01 Q1028
                        NOSIG=
201902161530 METAR LRCK 161530Z 28005KT 9999 BKN032 05/01 Q1028 NOSIG=
201902161600 METAR LRCK 161600Z 26004KT 9999 BKN032 04/01 Q1028 NOSIG=
201902161630 METAR LRCK 161630Z 28004KT 8000 BKN032 03/01 Q1028 NOSIG=
201902161700 METAR LRCK 161700Z 28003KT 8000 SCT034 02/01 Q1028 NOSIG=
201902161730 METAR LRCK 161730Z 26004KT 6000 FEW034 01/00 Q1028 NOSIG=
201902161800 METAR LRCK 161800Z 28004KT 6000 FEW035 02/01 Q1028 NOSIG=
201902161830 METAR LRCK 161830Z 29005KT 6000 NSC 01/M00 Q1028 NOSIG=
201902161900 METAR LRCK 161900Z 29005KT 5000 BR NSC 01/00 Q1028 NOSIG=
201902161930 METAR LRCK 161930Z 27006KT 3000 BR NSC 00/M00 Q1028 NOSIG=
201902162000 METAR LRCK 162000Z 27004KT 4000 BR NSC 01/00 Q1028 NOSIG=
201902162030 METAR LRCK 162030Z 28004KT 4000 BR NSC 01/M00 Q1028 BECMG
                        3000 BR=
201902162100 METAR LRCK 162100Z 27005KT 4000 BR NSC M01/M01 Q1028 BECMG
                        3000 BR=
201902162130 METAR COR LRCK 162130Z 26005KT 3000 BR NSC 01/00 Q1028 NOSIG=
201902162200 METAR LRCK 162200Z 26004KT 3000 BR NSC M01/M01 Q1028 NOSIG=
201902162230 METAR LRCK 162230Z 27006KT 3000 BR NSC 00/M00 Q1027 NOSIG=
201902162300 METAR LRCK 162300Z 27006KT 3000 BR NSC M00/M01 Q1027 NOSIG=
201902162330 METAR LRCK 162330Z 27007KT 3000 BR NSC M00/M01 Q1027 TEMPO
                        1500 BR=
201902170000 METAR LRCK 170000Z 27007KT 3000 BR NSC M00/M01 Q1027 NOSIG=
201902170030 METAR LRCK 170030Z 28007KT 3000 BR NSC M00/M01 Q1027 NOSIG=
201902170100 METAR LRCK 170100Z 28007KT 4000 BR NSC M00/M01 Q1027 NOSIG=
201902170130 METAR LRCK 170130Z 28009KT 5000 BR NSC 00/M00 Q1026 NOSIG=
201902170200 METAR LRCK 170200Z 29009KT 5000 BR NSC 01/00 Q1026 NOSIG=
201902170230 METAR LRCK 170230Z 28009KT 6000 NSC 01/M00 Q1026 NOSIG=
201902170300 METAR LRCK 170300Z 28009KT 6000 NSC 00/M00 Q1026 NOSIG=
201902170330 METAR LRCK 170330Z 28009KT 5000 BR NSC 00/M00 Q1026 NOSIG=
201902170400 METAR LRCK 170400Z 29009KT 5000 BR NSC 00/M00 Q1025 NOSIG=
201902170430 METAR LRCK 170430Z 27008KT 5000 BR NSC M00/M01 Q1026 NOSIG=
201902170500 METAR LRCK 170500Z 28008KT 4000 BR NSC M01/M01 Q1026 NOSIG=
201902170530 METAR LRCK 170530Z 27008KT 4000 BR NSC M01/M01 Q1026 NOSIG=
201902170600 METAR LRCK 170600Z 27009KT 5000 BR NSC M00/M00 Q1026 NOSIG=
201902170630 METAR LRCK 170630Z 29010KT 7000 NSC 01/00 Q1026 NOSIG=
201902170700 METAR LRCK 170700Z 28010KT 7000 NSC 02/01 Q1026 NOSIG=
201902170730 METAR LRCK 170730Z 28009KT CAVOK 03/02 Q1026 NOSIG=
201902170800 METAR LRCK 170800Z 29010KT CAVOK 05/02 Q1026 NOSIG=
201902170830 METAR LRCK 170830Z 28010KT CAVOK 06/02 Q1026 NOSIG=
201902170900 METAR LRCK 170900Z 28011KT CAVOK 07/02 Q1026 NOSIG=
201902170930 METAR LRCK 170930Z 29010KT CAVOK 08/03 Q1026 NOSIG=
201902171000 METAR LRCK 171000Z 27011KT CAVOK 09/03 Q1026 NOSIG=
201902171030 METAR LRCK 171030Z 27011KT CAVOK 10/03 Q1025 NOSIG=
201902171100 METAR LRCK 171100Z 28013KT CAVOK 11/02 Q1025 NOSIG=
201902171130 METAR LRCK 171130Z 28011KT CAVOK 12/03 Q1025 NOSIG=
201902171200 METAR LRCK 171200Z 27011KT CAVOK 12/03 Q1024 NOSIG=
201902171230 METAR LRCK 171230Z 29011KT 250V310 CAVOK 13/04 Q1024 NOSIG=
201902171300 METAR LRCK 171300Z 28011KT CAVOK 13/04 Q1023 NOSIG=
201902171330 METAR LRCK 171330Z 28013KT CAVOK 12/03 Q1023 NOSIG=
201902171400 METAR LRCK 171400Z 28012KT CAVOK 12/04 Q1023 NOSIG=
201902171430 METAR LRCK 171430Z 28011KT CAVOK 12/04 Q1023 NOSIG=
201902171500 METAR LRCK 171500Z 28011KT CAVOK 11/04 Q1023 NOSIG=
201902171530 METAR LRCK 171530Z 27010KT CAVOK 10/05 Q1023 NOSIG=
201902171600 METAR LRCK 171600Z 26009KT CAVOK 08/04 Q1023 NOSIG=
201902171630 METAR LRCK 171630Z 27009KT CAVOK 08/04 Q1023 NOSIG=
201902171700 METAR LRCK 171700Z 26010KT CAVOK 07/04 Q1023 NOSIG=
201902171730 METAR LRCK 171730Z 26009KT CAVOK 07/04 Q1023 NOSIG=
201902171800 METAR LRCK 171800Z 26011KT CAVOK 07/04 Q1023 NOSIG=
201902171830 METAR LRCK 171830Z 27013KT CAVOK 07/04 Q1022 NOSIG=
201902171900 METAR LRCK 171900Z 26014KT CAVOK 06/04 Q1022 NOSIG=
201902171930 METAR LRCK 171930Z 27013KT CAVOK 07/04 Q1022 NOSIG=
201902172000 METAR LRCK 172000Z 27013KT CAVOK 06/03 Q1023 NOSIG=
201902172030 METAR LRCK 172030Z 28012KT CAVOK 06/03 Q1022 NOSIG=
201902172100 METAR LRCK 172100Z 28011KT CAVOK 05/03 Q1022 NOSIG=
201902172130 METAR LRCK 172130Z 28014KT CAVOK 06/04 Q1022 NOSIG=
201902172200 METAR LRCK 172200Z 27012KT CAVOK 06/04 Q1022 NOSIG=
201902172230 METAR LRCK 172230Z 28012KT CAVOK 05/03 Q1023 NOSIG=
201902172300 METAR LRCK 172300Z 29012KT CAVOK 06/03 Q1023 NOSIG=
201902172330 METAR LRCK 172330Z 28012KT 8000 NSC 05/03 Q1023 NOSIG=
201902180000 METAR LRCK 180000Z 28009KT 7000 NSC 04/03 Q1023 NOSIG=
201902180030 METAR LRCK 180030Z 28010KT 7000 NSC 04/03 Q1023 NOSIG=
201902180100 METAR COR LRCK 180100Z 28010KT 7000 NSC 04/02 Q1023 NOSIG=
201902180130 METAR COR LRCK 180130Z 28010KT 7000 NSC 03/02 Q1023 NOSIG=
201902180200 METAR LRCK 180200Z 28010KT 6000 NSC 03/02 Q1023 NOSIG=
201902180230 METAR COR LRCK 180230Z 29011KT 6000 NSC 03/02 Q1022 NOSIG=
201902180300 METAR LRCK 180300Z 29010KT 5000 BR NSC 02/02 Q1023 NOSIG=
201902180330 METAR COR LRCK 180330Z 29010KT 5000 BR NSC 02/01 Q1023 TEMPO
                        3000 BR=
201902180400 METAR LRCK 180400Z 29010KT 4000 BR NSC 01/01 Q1023 TEMPO
                        3000 BR=
201902180430 METAR LRCK 180430Z 28010KT 4000 BR NSC 01/01 Q1023 TEMPO
                        3000 BR=
201902180500 METAR LRCK 180500Z 28010KT 3000 BR NSC 01/01 Q1023 NOSIG=
201902180530 METAR LRCK 180530Z 29009KT 3000 BR NSC 01/01 Q1023 NOSIG=
201902180600 METAR LRCK 180600Z 28009KT 3000 BR NSC 02/02 Q1024 BECMG
                        5000=
201902180630 METAR LRCK 180630Z 29010KT 3000 BR NSC 03/02 Q1024 BECMG
                        5000=
201902180700 METAR LRCK 180700Z 29010KT 4000 BR NSC 04/02 Q1024 BECMG
                        9999 NSW=
201902180730 METAR LRCK 180730Z 29009KT 5000 BR NSC 06/03 Q1024 BECMG
                        9999 NSW=
201902180800 METAR LRCK 180800Z 29010KT 7000 NSC 07/03 Q1024 NOSIG=
201902180830 METAR LRCK 180830Z 29009KT 8000 NSC 09/04 Q1024 NOSIG=
201902180900 METAR LRCK 180900Z 27010KT 8000 NSC 10/04 Q1024 NOSIG=
201902180930 METAR LRCK 180930Z 28009KT CAVOK 11/04 Q1024 NOSIG=
201902181000 METAR LRCK 181000Z 28010KT CAVOK 11/05 Q1024 NOSIG=
201902181030 METAR LRCK 181030Z 34008KT CAVOK 13/04 Q1024 NOSIG=
201902181100 METAR LRCK 181100Z 34007KT 310V020 CAVOK 13/04 Q1024 NOSIG=
201902181130 METAR LRCK 181130Z 36007KT 320V050 CAVOK 13/03 Q1024 NOSIG=
201902181200 METAR LRCK 181200Z 36007KT 330V040 CAVOK 14/04 Q1024 NOSIG=
201902181230 METAR LRCK 181230Z 03006KT 360V060 CAVOK 13/04 Q1023 NOSIG=
201902181300 METAR LRCK 181300Z 05006KT 010V070 CAVOK 13/04 Q1023 NOSIG=
201902181330 METAR LRCK 181330Z 04007KT CAVOK 13/03 Q1023 NOSIG=
201902181400 METAR LRCK 181400Z 04006KT CAVOK 12/03 Q1023 NOSIG=
201902181430 METAR LRCK 181430Z 10007KT CAVOK 11/03 Q1023 NOSIG=
201902181500 METAR LRCK 181500Z 12006KT CAVOK 10/03 Q1023 NOSIG=
201902181530 METAR LRCK 181530Z 13005KT CAVOK 08/03 Q1023 NOSIG=
201902181600 METAR LRCK 181600Z 13004KT CAVOK 07/02 Q1023 NOSIG=
201902181630 METAR LRCK 181630Z 12004KT CAVOK 06/02 Q1024 NOSIG=
201902181700 METAR LRCK 181700Z 13004KT 8000 NSC 05/02 Q1024 NOSIG=
201902181730 METAR LRCK 181730Z 15003KT 8000 NSC 05/02 Q1024 NOSIG=
201902181800 METAR LRCK 181800Z 17003KT 7000 NSC 05/02 Q1024 NOSIG=
201902181830 METAR LRCK 181830Z 17003KT 8000 NSC 04/02 Q1024 NOSIG=
201902181900 METAR LRCK 181900Z 00000KT 6000 NSC 02/01 Q1024 BECMG 5000
                        BR=
201902181930 METAR LRCK 181930Z 00000KT 5000 BR NSC 03/02 Q1024 BECMG
                        3000 BR=
201902182000 METAR LRCK 182000Z 20002KT 5000 BR NSC 03/02 Q1024 NOSIG=
201902182030 METAR LRCK 182030Z VRB02KT 5000 BR NSC 03/02 Q1024 NOSIG=
201902182100 METAR LRCK 182100Z 07005KT 4000 BR NSC 02/01 Q1024 BECMG
                        3000 BR=
201902182130 METAR LRCK 182130Z 08003KT 4000 BR NSC 02/02 Q1024 BECMG
                        3000 BR=
201902182200 METAR LRCK 182200Z 12004KT 4500 BR NSC 02/02 Q1024 BECMG
                        3000 BR=
201902182230 METAR LRCK 182230Z 16003KT 4000 MIFG BR NSC 02/02 Q1024 BECMG
                        3000 BR=
201902182300 METAR COR LRCK 182300Z 16004KT 4000 MIFG BR NSC 01/01 Q1025
                        BECMG 3000 BR=
201902182330 METAR LRCK 182330Z 17005KT 4000 MIFG BR NSC 02/01 Q1025 BECMG
                        3000 BR=
201902190000 METAR LRCK 190000Z 14003KT 3000 BR NSC 01/01 Q1025 BECMG
                        1500 BR=
201902190030 METAR LRCK 190030Z 10003KT 1500 BR NSC 02/02 Q1025 BECMG
                        0600 FG=
201902190100 METAR LRCK 190100Z 10003KT 0800 R18/P2000 R36/1000N FG FEW005
                        02/02 Q1024 BECMG 0600 FG=
201902190130 METAR LRCK 190130Z 09001KT 0800 R18/P2000 R36/1100D PRFG
                        FEW006 01/01 Q1024 BECMG 0600 FG=
201902190200 METAR LRCK 190200Z 00000KT 0800 R18/P2000 R36/0500D PRFG
                        NSC 01/01 Q1024 TEMPO 0600 FG=
201902190230 METAR LRCK 190230Z 00000KT 0800 R18/P2000 R36/0700N PRFG
                        NSC 01/01 Q1024 NOSIG=
201902190300 METAR LRCK 190300Z 13002KT 0600 R18/P2000 R36/0275N PRFG
                        NSC 01/01 Q1024 TEMPO 0350 FG=
201902190330 METAR LRCK 190330Z 09002KT 0100 R18/P2000 R36/0225N PRFG
                        FEW002 00/00 Q1024 NOSIG=
201902190400 METAR LRCK 190400Z 13002KT 0050 R18/0600N R36/0225N FG FEW001
                        01/01 Q1024 NOSIG=
201902190430 METAR LRCK 190430Z 11002KT 0050 R18/0275N R36/0150N FG SCT001
                        00/00 Q1024 NOSIG=
201902190500 METAR LRCK 190500Z 11002KT 0050 R18/0200N R36/0225N FZFG
                        BKN001 M01/M01 Q1024 NOSIG=
201902190530 METAR LRCK 190530Z 12003KT 0050 R18/0375N R36/0200N FZFG
                        BKN001 M01/M01 Q1024 NOSIG=
201902190600 METAR LRCK 190600Z 10002KT 0100 R18/0250N R36/0200N FZFG
                        BKN001 M01/M01 Q1024 BECMG 0600 FG
                        BKN002=
201902190630 METAR LRCK 190630Z 09004KT 0050 R18/0125N R36/0125N FG VV001
                        00/00 Q1025 BECMG 0600 FG BKN002=
201902190700 METAR LRCK 190700Z 09003KT 0150 R18/0325N R36/0275N FG BKN001
                        02/02 Q1025 BECMG 0600 FG BKN002=
201902190730 METAR LRCK 190730Z 10005KT 1000 R18/0550N R36/P2000 BR BKN001
                        04/04 Q1025 BECMG 16010KT 3000 SCT002=
201902190800 METAR LRCK 190800Z 12005KT 0350 R18/1500D R36/1300D FG OVC002
                        05/05 Q1025 BECMG 16010KT 1500 BR
                        SCT003=
201902190830 METAR LRCK 190830Z 13007KT 0250 R18/0700D R36/0600D FG OVC002
                        05/05 Q1025 BECMG 0800 SCT003=
201902190900 METAR LRCK 190900Z 13008KT 0650 R18/1700U R36/1800U FG OVC002
                        06/06 Q1025 BECMG 1500 BR SCT003=
201902190930 METAR LRCK 190930Z 13008KT 1500 BR BKN004 07/07 Q1025 BECMG
                        5000 SCT010=
201902191000 METAR LRCK 191000Z 13008KT 5000 BR BKN007 09/09 Q1024 BECMG
                        9999 NSW SCT010=
201902191030 METAR LRCK 191030Z 13008KT 8000 BKN008 09/09 Q1024 BECMG
                        SCT010=
201902191100 METAR LRCK 191100Z 13010KT 9999 SCT010 09/09 Q1024 NOSIG=
201902191130 METAR LRCK 191130Z 13013KT 9999 FEW013 10/06 Q1023 NOSIG=
201902191200 METAR LRCK 191200Z 13013KT CAVOK 10/05 Q1023 NOSIG=
201902191230 METAR LRCK 191230Z 13015KT CAVOK 10/05 Q1023 NOSIG=
201902191300 METAR LRCK 191300Z 14016KT CAVOK 10/05 Q1023 NOSIG=
201902191330 METAR LRCK 191330Z 14016KT CAVOK 09/05 Q1022 NOSIG=
201902191400 METAR LRCK 191400Z 14014KT CAVOK 09/05 Q1022 NOSIG=
201902191430 METAR LRCK 191430Z 14014KT CAVOK 09/05 Q1022 NOSIG=
201902191500 METAR LRCK 191500Z 15013KT CAVOK 08/05 Q1022 NOSIG=
201902191530 METAR LRCK 191530Z 15012KT CAVOK 07/05 Q1022 NOSIG=
201902191600 METAR LRCK 191600Z 15012KT CAVOK 06/05 Q1022 NOSIG=
201902191630 METAR LRCK 191630Z 16012KT 7000 NSC 05/05 Q1022 NOSIG=
201902191700 METAR LRCK 191700Z 15010KT 7000 NSC 05/04 Q1022 BECMG 5000
                        BR=
201902191730 METAR COR LRCK 191730Z 16010KT 5000 BR NSC 04/04 Q1022 BECMG
                        3000 BR=
201902191800 METAR LRCK 191800Z 16010KT 5000 BR NSC 03/03 Q1021 BECMG
                        3000 BR=
201902191830 METAR LRCK 191830Z 16010KT 5000 BR NSC 03/03 Q1021 BECMG
                        3000 BR=
201902191900 METAR LRCK 191900Z 17012KT 5000 BR NSC 03/03 Q1021 BECMG
                        3000 BR=
201902191930 METAR LRCK 191930Z 17012KT 5000 BR NSC 03/03 Q1021 BECMG
                        3000 BR=
201902192000 METAR LRCK 192000Z 17011KT 5000 BR NSC 03/03 Q1021 BECMG
                        3000 BR=
201902192030 METAR LRCK 192030Z 17010KT 5000 BR NSC 02/02 Q1021 NOSIG=
201902192100 METAR LRCK 192100Z 17008KT 5000 BR NSC 02/02 Q1020 NOSIG=
201902192130 METAR LRCK 192130Z 17011KT 5000 BR NSC 02/02 Q1020 NOSIG=
201902192200 METAR LRCK 192200Z 17011KT 5000 BR NSC 02/02 Q1020 BECMG
                        3000 BR=
201902192230 METAR LRCK 192230Z 17009KT 5000 BR NSC 02/02 Q1020 NOSIG=
201902192300 METAR LRCK 192300Z 17005KT 5000 BR NSC 02/02 Q1020 NOSIG=
201902192330 METAR LRCK 192330Z 18007KT 5000 BR NSC 02/02 Q1019 NOSIG=
201902200000 METAR LRCK 200000Z 18008KT 5000 BR NSC 02/02 Q1019 NOSIG=
201902200030 METAR LRCK 200030Z 19007KT 5000 BR NSC 02/02 Q1019 NOSIG=
201902200100 METAR LRCK 200100Z 19005KT 5000 BR NSC 02/02 Q1018 NOSIG=
201902200130 METAR LRCK 200130Z 19005KT 5000 BR NSC 02/02 Q1018 NOSIG=
201902200200 METAR LRCK 200200Z 19008KT 3000 BR NSC 02/02 Q1018 TEMPO
                        1500 BR=
201902200230 METAR LRCK 200230Z 20008KT 3000 BR NSC 02/02 Q1017 TEMPO
                        1500 BR=
201902200300 METAR LRCK 200300Z 20007KT 3000 BR NSC 01/01 Q1017 TEMPO
                        1500 BR=
201902200330 METAR LRCK 200330Z 20008KT 3000 BR NSC 01/01 Q1017 TEMPO
                        1500 BR=
201902200400 METAR LRCK 200400Z 21007KT 1500 BR NSC 00/00 Q1017 NOSIG=
201902200430 METAR LRCK 200430Z 21007KT 1200 BR FEW007 00/00 Q1017 NOSIG=
201902200500 METAR LRCK 200500Z 22007KT 0600 R18/P2000 R36/0500D FZFG
                        SCT008 M00/M00 Q1017 TEMPO 0300 FZFG
                        VV002=
201902200530 METAR LRCK 200530Z 21005KT 0400 R18/0550D R36/0300N FZFG
                        BKN001 M01/M01 Q1017 TEMPO 0300 FZFG
                        VV002=
201902200600 METAR LRCK 200600Z 21005KT 0400 R18/0500N R36/0550N FZFG
                        OVC002 M01/M01 Q1017 NOSIG=
201902200630 METAR LRCK 200630Z 21007KT 0300 R18/0800U R36/0550N FG BKN001
                        00/00 Q1017 BECMG 0800 BKN003=
201902200700 METAR COR LRCK 200700Z 22006KT 1500 BR FEW003 02/02 Q1017
                        BECMG 3000=
201902200730 METAR LRCK 200730Z 25006KT 5000 BR FEW012 04/04 Q1017 BECMG
                        9999 NSW=
201902200800 METAR LRCK 200800Z 24007KT 7000 NSC 06/06 Q1017 NOSIG=
201902200830 METAR LRCK 200830Z 24007KT 8000 NSC 08/05 Q1017 NOSIG=
201902200900 METAR LRCK 200900Z 25010KT 8000 NSC 09/06 Q1017 NOSIG=
201902200930 METAR LRCK 200930Z 26015KT 8000 NSC 12/06 Q1016 NOSIG=
201902201000 METAR LRCK 201000Z 26016KT 8000 NSC 14/05 Q1016 NOSIG=
201902201030 METAR LRCK 201030Z 26017KT 8000 NSC 15/04 Q1016 NOSIG=
201902201100 METAR LRCK 201100Z 27018KT 8000 NSC 15/04 Q1015 NOSIG=
201902201130 METAR LRCK 201130Z 27017KT 8000 NSC 15/04 Q1015 NOSIG=
201902201200 METAR LRCK 201200Z 28016KT 8000 NSC 15/05 Q1015 NOSIG=
201902201230 METAR LRCK 201230Z 28014KT 8000 NSC 15/04 Q1015 NOSIG=
201902201300 METAR LRCK 201300Z 28011KT 9000 NSC 15/03 Q1015 NOSIG=
201902201330 METAR LRCK 201330Z 30009KT CAVOK 15/02 Q1015 NOSIG=
201902201400 METAR LRCK 201400Z 29008KT CAVOK 15/01 Q1015 NOSIG=
201902201430 METAR LRCK 201430Z 29008KT CAVOK 14/M00 Q1016 NOSIG=
201902201500 METAR LRCK 201500Z 30006KT CAVOK 13/00 Q1016 NOSIG=
201902201530 METAR LRCK 201530Z 33005KT CAVOK 11/M01 Q1016 NOSIG=
201902201600 METAR LRCK 201600Z 02007KT CAVOK 08/01 Q1017 NOSIG=
201902201630 METAR LRCK 201630Z 06004KT CAVOK 08/01 Q1017 NOSIG=
201902201700 METAR LRCK 201700Z 05005KT CAVOK 07/01 Q1017 NOSIG=
201902201730 METAR LRCK 201730Z 03007KT CAVOK 07/01 Q1017 NOSIG=
201902201800 METAR LRCK 201800Z 03007KT CAVOK 06/01 Q1018 NOSIG=
201902201830 METAR LRCK 201830Z 01007KT 8000 NSC 06/01 Q1018 NOSIG=
201902201900 METAR LRCK 201900Z 02004KT 7000 NSC 05/01 Q1018 NOSIG=
201902201930 METAR LRCK 201930Z 02004KT 5000 MIFG BR NSC 05/00 Q1018 NOSIG=
201902202000 METAR LRCK 202000Z 02007KT 7000 MIFG NSC 05/01 Q1019 NOSIG=
201902202030 METAR LRCK 202030Z 01011KT CAVOK 06/01 Q1019 NOSIG=
201902202100 METAR LRCK 202100Z 01010KT CAVOK 07/02 Q1019 NOSIG=
201902202130 METAR LRCK 202130Z 01009KT CAVOK 06/01 Q1019 NOSIG=
201902202200 METAR LRCK 202200Z 36010KT CAVOK 06/01 Q1019 NOSIG=
201902202230 METAR LRCK 202230Z 36013KT CAVOK 07/01 Q1020 NOSIG=
201902202300 METAR LRCK 202300Z 35011KT CAVOK 06/01 Q1020 NOSIG=
201902202330 METAR LRCK 202330Z 34008KT CAVOK 06/01 Q1020 NOSIG=
201902210000 METAR LRCK 210000Z 30005KT CAVOK 06/01 Q1020 NOSIG=
201902210030 METAR LRCK 210030Z 33005KT CAVOK 06/00 Q1020 NOSIG=
201902210100 METAR LRCK 210100Z 31006KT CAVOK 05/00 Q1021 NOSIG=
201902210130 METAR LRCK 210130Z 32006KT CAVOK 05/00 Q1021 NOSIG=
201902210200 METAR LRCK 210200Z 33007KT CAVOK 06/00 Q1021 NOSIG=
201902210230 METAR LRCK 210230Z 33006KT CAVOK 05/01 Q1021 NOSIG=
201902210300 METAR LRCK 210300Z 33005KT CAVOK 04/00 Q1021 NOSIG=
201902210330 METAR LRCK 210330Z 29003KT 250V050 CAVOK 05/00 Q1021 NOSIG=
201902210400 METAR LRCK 210400Z 35008KT CAVOK 02/M01 Q1022 NOSIG=
201902210430 METAR LRCK 210430Z 33005KT CAVOK 03/M00 Q1022 NOSIG=
201902210500 METAR LRCK 210500Z 33004KT CAVOK 02/M01 Q1022 NOSIG=
201902210530 METAR LRCK 210530Z 34005KT CAVOK 02/M01 Q1022 NOSIG=
201902210600 METAR LRCK 210600Z 29003KT 260V320 CAVOK 04/M01 Q1023 NOSIG=
201902210630 METAR LRCK 210630Z 33004KT CAVOK 06/00 Q1023 NOSIG=
201902210700 METAR LRCK 210700Z 35008KT CAVOK 09/M00 Q1023 NOSIG=
201902210730 METAR LRCK 210730Z 27004KT 230V320 CAVOK 09/M01 Q1024 NOSIG=
201902210800 METAR LRCK 210800Z 25006KT CAVOK 09/02 Q1024 NOSIG=
201902210830 METAR LRCK 210830Z 29006KT 270V330 9999 FEW035 11/01 Q1024
                        NOSIG=
201902210900 METAR LRCK 210900Z 29008KT 270V330 9999 FEW040 11/M00 Q1024
                        NOSIG=
201902210930 METAR LRCK 210930Z 30010KT 9999 FEW040 12/M00 Q1024 NOSIG=
201902211000 METAR LRCK 211000Z 27010KT 240V310 9999 FEW045 11/M01 Q1023
                        NOSIG=
201902211030 METAR LRCK 211030Z 27010KT 9999 FEW045 12/M02 Q1023 NOSIG=
201902211100 METAR LRCK 211100Z 28010KT 250V310 9999 FEW045 12/M02 Q1023
                        NOSIG=
201902211130 METAR LRCK 211130Z 26009KT 230V300 CAVOK 12/M04 Q1023 NOSIG=
201902211200 METAR LRCK 211200Z 28009KT 250V310 CAVOK 12/M03 Q1023 NOSIG=
201902211230 METAR LRCK 211230Z 29011KT 250V310 CAVOK 13/M03 Q1022 NOSIG=
201902211300 METAR LRCK 211300Z 27013KT 240V300 CAVOK 12/M03 Q1022 NOSIG=
201902211330 METAR LRCK 211330Z 29013KT CAVOK 12/M04 Q1022 NOSIG=
201902211400 METAR LRCK 211400Z 27012KT CAVOK 12/M03 Q1022 NOSIG=
201902211430 METAR LRCK 211430Z 29011KT CAVOK 11/M03 Q1022 NOSIG=
201902211500 METAR LRCK 211500Z 27011KT CAVOK 11/M02 Q1022 NOSIG=
201902211530 METAR LRCK 211530Z 27009KT CAVOK 10/M02 Q1022 NOSIG=
201902211600 METAR LRCK 211600Z 26007KT CAVOK 09/M01 Q1022 NOSIG=
201902211630 METAR LRCK 211630Z 26006KT CAVOK 07/M01 Q1022 NOSIG=
201902211700 METAR LRCK 211700Z 25005KT CAVOK 07/M00 Q1022 NOSIG=
201902211730 METAR LRCK 211730Z 24006KT CAVOK 07/00 Q1022 NOSIG=
201902211800 METAR LRCK 211800Z 24007KT CAVOK 07/00 Q1022 NOSIG=
201902211830 METAR LRCK 211830Z 24007KT 9999 FEW043 06/00 Q1022 NOSIG=
201902211900 METAR LRCK 211900Z 25006KT 9999 FEW042 07/01 Q1022 NOSIG=
201902211930 METAR LRCK 211930Z 26007KT 9999 BKN043 07/02 Q1022 NOSIG=
201902212000 METAR LRCK 212000Z 28006KT 9999 SCT045 07/01 Q1022 NOSIG=
201902212030 METAR LRCK 212030Z 30006KT 9999 FEW046 07/00 Q1022 NOSIG=
201902212100 METAR LRCK 212100Z 28005KT 260V320 CAVOK 07/M01 Q1021 NOSIG=
201902212130 METAR LRCK 212130Z 27005KT CAVOK 06/M01 Q1021 NOSIG=
201902212200 METAR LRCK 212200Z 30006KT CAVOK 06/M01 Q1021 NOSIG=
201902212230 METAR LRCK 212230Z 30005KT CAVOK 04/M02 Q1021 NOSIG=
201902212300 METAR LRCK 212300Z 28004KT CAVOK 02/M02 Q1021 NOSIG=
201902212330 METAR LRCK 212330Z 29006KT CAVOK 02/M02 Q1020 NOSIG=
201902220000 METAR LRCK 220000Z 28006KT CAVOK 01/M03 Q1020 NOSIG=
201902220030 METAR COR LRCK 220030Z 27004KT CAVOK 01/M03 Q1019 NOSIG=
201902220100 METAR LRCK 220100Z 27005KT CAVOK 01/M03 Q1019 NOSIG=
201902220130 METAR LRCK 220130Z 27006KT CAVOK M00/M03 Q1019 NOSIG=
201902220200 METAR LRCK 220200Z 29005KT CAVOK M01/M03 Q1018 NOSIG=
201902220230 METAR COR LRCK 220230Z 28005KT CAVOK 00/M03 Q1018 NOSIG=
201902220300 METAR LRCK 220300Z 29006KT CAVOK 00/M03 Q1018 NOSIG=
201902220330 METAR LRCK 220330Z 29006KT CAVOK 00/M03 Q1017 NOSIG=
201902220400 METAR LRCK 220400Z 26006KT CAVOK 01/M02 Q1017 NOSIG=
201902220430 METAR LRCK 220430Z 26008KT CAVOK 01/M02 Q1017 NOSIG=
201902220500 METAR LRCK 220500Z 27007KT CAVOK 02/M02 Q1016 NOSIG=
201902220530 METAR LRCK 220530Z 27008KT CAVOK 03/M01 Q1016 NOSIG=
201902220600 METAR LRCK 220600Z 26009KT CAVOK 04/M00 Q1016 NOSIG=
201902220630 METAR LRCK 220630Z 26009KT CAVOK 04/M00 Q1016 NOSIG=
201902220700 METAR LRCK 220700Z 27010KT CAVOK 05/M01 Q1016 NOSIG=
201902220730 METAR LRCK 220730Z 27011KT CAVOK 06/M01 Q1015 NOSIG=
201902220800 METAR LRCK 220800Z 28013KT CAVOK 06/M01 Q1015 NOSIG=
201902220830 METAR LRCK 220830Z 28012KT CAVOK 07/M00 Q1015 NOSIG=
201902220900 METAR LRCK 220900Z 29011KT 260V320 CAVOK 07/M00 Q1015 NOSIG=
201902220930 METAR LRCK 220930Z 27009KT CAVOK 08/M00 Q1014 NOSIG=
201902221000 METAR LRCK 221000Z 28005KT 250V320 CAVOK 09/M01 Q1014 NOSIG=
201902221030 METAR LRCK 221030Z 30007KT 260V320 CAVOK 10/M01 Q1014 NOSIG=
201902221100 METAR LRCK 221100Z 34012KT CAVOK 09/M02 Q1013 NOSIG=
201902221130 METAR LRCK 221130Z 33008KT CAVOK 08/M03 Q1013 NOSIG=
201902221200 METAR LRCK 221200Z 33007KT CAVOK 08/M02 Q1013 NOSIG=
201902221230 METAR LRCK 221230Z 33009KT 9999 -RA OVC048 06/01 Q1014 NOSIG=
201902221300 METAR LRCK 221300Z 32004KT 280V360 9999 -RA OVC040 05/02
                        Q1014 R36/19//95 NOSIG=
201902221330 METAR LRCK 221330Z 32008KT 9999 -RA OVC030 05/03 Q1014 R36/19//95
                        NOSIG=
201902221400 METAR LRCK 221400Z 31008KT 8000 -RA OVC021 04/03 Q1014 R36/19//95
                        NOSIG=
201902221430 METAR COR LRCK 221430Z 33008KT 8000 -RA OVC015 04/03 Q1014
                        R36/19//95 BECMG 01025G35KT 3000
                        -RASN BKN010 OVC020=
201902221500 METAR LRCK 221500Z 33010KT 9999 -RA OVC010 03/03 Q1015 R36/290095
                        BECMG 01025G35KT 3000 -RASN=
201902221530 METAR LRCK 221530Z 36024G34KT 1500 RASN BR OVC008 01/01 Q1015
                        R36/290095 TEMPO 0600 RASN=
201902221600 METAR LRCK 221600Z 36024KT 1500 SN BR OVC007 M00/M00 Q1016
                        R36/290095 NOSIG=
201902221630 METAR LRCK 221630Z 01024KT 5000 -SN BR OVC006 M01/M01 Q1017
                        R36/290095 NOSIG=
201902221700 METAR LRCK 221700Z 01025KT 5000 -SN BR BKN008 OVC040 M01/M02
                        Q1018 R36/290095 NOSIG=
201902221730 METAR LRCK 221730Z 01025KT 5000 -SN BR BKN009 OVC038 M01/M02
                        Q1019 R36/290095 NOSIG=
201902221800 METAR LRCK 221800Z 01025KT 3000 -SN BR BKN009 OVC037 M02/M03
                        Q1019 R36/290095 NOSIG=
201902221830 METAR LRCK 221830Z 02027KT 4000 -SN BKN010 OVC047 M02/M04
                        Q1020 R36/290095 NOSIG=
201902221900 METAR LRCK 221900Z 02025KT 3000 SN SCT007 BKN025 OVC039 M03/M04
                        Q1021 R36/15//95 NOSIG=
201902221930 METAR LRCK 221930Z 02027KT 3000 -SN BKN008 OVC049 M03/M05
                        Q1021 RESN R36/15//95 NOSIG=
201902222000 METAR LRCK 222000Z 01023KT 3000 -SN BKN009 OVC049 M04/M05
                        Q1022 RESN R36/15//95 BECMG 5000=
201902222030 METAR LRCK 222030Z 01021KT 5000 -SN SCT010 OVC049 M04/M05
                        Q1022 R36/15//95 BECMG 5000=
201902222100 METAR LRCK 222100Z 02028KT 9999 SCT013 OVC047 M04/M08 Q1023
                        R36/15//95 NOSIG=
201902222130 METAR LRCK 222130Z 01027KT CAVOK M04/M08 Q1023 R36/15//95
                        NOSIG=
201902222200 METAR LRCK 222200Z 02024KT CAVOK M04/M08 Q1023 R36/15//95
                        NOSIG=
201902222230 METAR LRCK 222230Z 02021KT CAVOK M04/M09 Q1024 R36/15//95
                        NOSIG=
201902222300 METAR LRCK 222300Z 02022KT CAVOK M04/M09 Q1024 R36/15//95
                        NOSIG=
201902222330 METAR LRCK 222330Z 02021KT CAVOK M05/M09 Q1025 R36/15//95
                        NOSIG=
201902230000 METAR LRCK 230000Z 02021KT CAVOK M05/M10 Q1025 R36/15//95
                        NOSIG=
201902230030 METAR LRCK 230030Z 01020KT CAVOK M05/M10 Q1026 R36/15//95
                        NOSIG=
201902230100 METAR COR LRCK 230100Z 01022KT CAVOK M06/M10 Q1027 R36/15//95
                        NOSIG=
201902230130 METAR LRCK 230130Z 01023KT CAVOK M06/M12 Q1027 R36/15//95
                        NOSIG=
201902230200 METAR LRCK 230200Z 01021KT CAVOK M06/M11 Q1028 R36/15//95
                        NOSIG=
201902230230 METAR LRCK 230230Z 01020KT CAVOK M06/M10 Q1028 R36/15//95
                        NOSIG=
201902230300 METAR LRCK 230300Z 01021KT CAVOK M06/M10 Q1029 R36/15//95
                        NOSIG=
201902230330 METAR LRCK 230330Z 01020KT CAVOK M06/M11 Q1029 R36/15//95
                        NOSIG=
201902230400 METAR LRCK 230400Z 01020KT CAVOK M07/M11 Q1029 R36/15//95
                        NOSIG=
201902230430 METAR LRCK 230430Z 36020KT CAVOK M07/M11 Q1030 R36/15//95
                        NOSIG=
201902230500 METAR LRCK 230500Z 36019KT 9999 FEW045 M07/M11 Q1031 R36/15//95
                        NOSIG=
201902230530 METAR LRCK 230530Z 36019KT 9999 FEW045 M07/M11 Q1031 R36/CLRD//
                        NOSIG=
201902230600 METAR LRCK 230600Z 36018KT 9999 FEW045 M07/M11 Q1032 NOSIG=
201902230630 METAR LRCK 230630Z 36020KT 9999 FEW035 M06/M10 Q1032 NOSIG=
201902230700 METAR LRCK 230700Z 36021KT 9999 FEW027 M06/M10 Q1033 NOSIG=
201902230730 METAR LRCK 230730Z 01020KT 9999 FEW024 M06/M11 Q1033 NOSIG=
201902230800 METAR LRCK 230800Z 36021KT 9999 FEW027 M05/M11 Q1033 NOSIG=
201902230830 METAR LRCK 230830Z 36024KT 9999 SCT025 M05/M10 Q1033 NOSIG=
201902230900 METAR LRCK 230900Z 01020KT 9999 SCT023 M04/M10 Q1034 NOSIG=
201902230930 METAR LRCK 230930Z 02022KT 9999 BKN027 M04/M09 Q1034 NOSIG=
201902231000 METAR LRCK 231000Z 01020KT 9999 FEW020 BKN027 M04/M09 Q1034
                        NOSIG=
201902231030 METAR LRCK 231030Z 01020KT 9999 SCT023 BKN030 M03/M09 Q1034
                        NOSIG=
201902231100 METAR LRCK 231100Z 01020KT 9999 -SN BKN031 M04/M10 Q1034
                        NOSIG=
201902231130 METAR LRCK 231130Z 01020KT 9999 BKN031 M03/M09 Q1034 NOSIG=
201902231200 METAR LRCK 231200Z 36020KT 9999 BKN030 M03/M10 Q1034 NOSIG=
201902231230 METAR LRCK 231230Z 36018KT 9999 BKN032 M03/M08 Q1034 NOSIG=
201902231300 METAR LRCK 231300Z 01016KT 9999 BKN032 M03/M08 Q1034 NOSIG=
201902231330 METAR LRCK 231330Z 01018KT 9999 BKN031 M03/M09 Q1035 NOSIG=
201902231400 METAR LRCK 231400Z 01016KT 9999 SCT031 SCT040 M03/M09 Q1035
                        NOSIG=
201902231430 METAR LRCK 231430Z 36016KT 9999 BKN040 M04/M10 Q1035 NOSIG=
201902231500 METAR LRCK 231500Z 36016KT 9999 FEW026 SCT049 M04/M09 Q1035
                        NOSIG=
201902231530 METAR LRCK 231530Z 36016KT 9999 BKN028 M04/M09 Q1036 NOSIG=
201902231600 METAR LRCK 231600Z 36012KT 9999 SCT028 M05/M09 Q1036 NOSIG=
201902231630 METAR LRCK 231630Z 36011KT 9999 FEW042 M05/M09 Q1036 NOSIG=
201902231700 METAR LRCK 231700Z 35009KT 9999 SCT031 M05/M09 Q1037 NOSIG=
201902231730 METAR LRCK 231730Z 34007KT 9999 SCT030 M06/M09 Q1037 NOSIG=
201902231800 METAR LRCK 231800Z 33008KT 8000 -SN BKN026 M05/M08 Q1037
                        NOSIG=
201902231830 METAR LRCK 231830Z 34009KT 8000 -SN BKN023 M05/M07 Q1037
                        NOSIG=
201902231900 METAR LRCK 231900Z 35011KT 9999 BKN035 M06/M08 Q1037 NOSIG=
201902231930 METAR LRCK 231930Z 34008KT 9999 SCT035 M06/M08 Q1037 R36/410195
                        NOSIG=
201902232000 METAR LRCK 232000Z 34009KT 9999 FEW040 M06/M08 Q1037 R36/410195
                        NOSIG=
201902232030 METAR LRCK 232030Z 35009KT 9999 FEW040 M06/M08 Q1037 R36/410195
                        NOSIG=
201902232100 METAR LRCK 232100Z 34007KT 9999 FEW040 M06/M08 Q1037 R36/410195
                        NOSIG=
201902232130 METAR LRCK 232130Z 33006KT CAVOK M07/M08 Q1037 R36/410195
                        NOSIG=
201902232200 METAR LRCK 232200Z 33007KT CAVOK M07/M08 Q1037 R36/410195
                        NOSIG=
201902232230 METAR LRCK 232230Z 33008KT CAVOK M07/M08 Q1037 R36/410195
                        NOSIG=
201902232300 METAR LRCK 232300Z 33008KT 9999 FEW025 M06/M08 Q1037 R36/410195
                        NOSIG=
201902232330 METAR LRCK 232330Z 33008KT 9999 -SN BKN038 M05/M07 Q1037
                        R36/410195 NOSIG=
201902240000 METAR LRCK 240000Z 33009KT 9999 -SN OVC040 M05/M07 Q1037
                        R36/410195 NOSIG=
201902240030 METAR LRCK 240030Z 33009KT 9999 -SN BKN040 M06/M07 Q1037
                        R36/410195 NOSIG=
201902240100 METAR LRCK 240100Z 33008KT 9999 -SN BKN040 M06/M07 Q1036
                        R36/410195 NOSIG=
201902240130 METAR LRCK 240130Z 33007KT 9999 -SN OVC034 M06/M07 Q1036
                        R36/410195 NOSIG=
201902240200 METAR LRCK 240200Z 32007KT 9999 -SN BKN018 M06/M07 Q1036
                        R36/410195 NOSIG=
201902240230 METAR LRCK 240230Z 32008KT 9999 BKN018 M07/M07 Q1036 R36/410195
                        NOSIG=
201902240300 METAR LRCK 240300Z 32008KT 9999 SCT018 M07/M08 Q1036 R36/410195
                        NOSIG=
201902240330 METAR LRCK 240330Z 32006KT 9999 FEW019 M07/M08 Q1036 R36/410195
                        NOSIG=
201902240400 METAR LRCK 240400Z 30007KT CAVOK M07/M08 Q1036 R36/410195
                        NOSIG=
201902240430 METAR LRCK 240430Z 30007KT CAVOK M07/M08 Q1036 R36/410195
                        NOSIG=
201902240500 METAR LRCK 240500Z 31008KT CAVOK M07/M08 Q1035 R36/410195
                        NOSIG=
201902240530 METAR LRCK 240530Z 31008KT CAVOK M06/M07 Q1036 R36/410195
                        NOSIG=
201902240600 METAR LRCK 240600Z 32009KT 9999 BKN045 M06/M07 Q1036 R36/410195
                        NOSIG=
201902240630 METAR LRCK 240630Z 33008KT 9999 FEW035 M05/M06 Q1036 R36/410195
                        NOSIG=
201902240700 METAR LRCK 240700Z 33010KT 9999 FEW049 M04/M06 Q1036 R36/410195
                        NOSIG=
201902240730 METAR LRCK 240730Z 33010KT 9999 FEW030 M03/M06 Q1036 R36/410195
                        NOSIG=
201902240800 METAR LRCK 240800Z 33010KT 9999 FEW030 M03/M06 Q1036 R36/410195
                        NOSIG=
201902240830 METAR LRCK 240830Z 33010KT 9999 SCT020 M01/M05 Q1036 R36/410195
                        NOSIG=
201902240900 METAR LRCK 240900Z 34012KT 9999 BKN020 M02/M07 Q1036 R36/410195
                        NOSIG=
201902240930 METAR LRCK 240930Z 34010KT 320V020 9999 BKN024 M02/M08 Q1036
                        R36/410195 NOSIG=
201902241000 METAR LRCK 241000Z 34009KT 9999 BKN026 M02/M07 Q1036 R36/410195
                        NOSIG=
201902241030 METAR LRCK 241030Z 34010KT 310V010 9999 BKN027 M01/M09 Q1036
                        R36/410195 NOSIG=
201902241100 METAR LRCK 241100Z 35008KT 330V030 9999 BKN030 M01/M09 Q1036
                        R36/410195 NOSIG=
201902241130 METAR LRCK 241130Z 35008KT 9999 BKN031 M01/M08 Q1035 R36/CLRD//
                        NOSIG=
201902241200 METAR LRCK 241200Z 01008KT 340V050 9999 BKN033 M01/M08 Q1035
                        NOSIG=
201902241230 METAR LRCK 241230Z 02008KT 9999 BKN032 M02/M09 Q1035 NOSIG=
201902241300 METAR LRCK 241300Z 36008KT 9999 BKN032 M02/M09 Q1035 NOSIG=
201902241330 METAR LRCK 241330Z 01007KT 9999 SCT033 M02/M09 Q1035 NOSIG=
201902241400 METAR LRCK 241400Z 02007KT 9999 FEW030 M02/M10 Q1035 NOSIG=
201902241430 METAR LRCK 241430Z 01007KT CAVOK M02/M10 Q1035 NOSIG=
201902241500 METAR LRCK 241500Z 01007KT CAVOK M02/M10 Q1035 NOSIG=
201902241530 METAR LRCK 241530Z 02006KT CAVOK M02/M09 Q1035 NOSIG=
201902241600 METAR LRCK 241600Z 01005KT CAVOK M03/M09 Q1035 NOSIG=
201902241630 METAR LRCK 241630Z 02005KT 9999 FEW049 M03/M09 Q1035 NOSIG=
201902241700 METAR LRCK 241700Z 02005KT 9999 FEW047 M03/M08 Q1035 NOSIG=
201902241730 METAR LRCK 241730Z 02005KT 9999 SCT048 M03/M08 Q1035 NOSIG=
201902241800 METAR LRCK 241800Z 01004KT 9999 FEW048 M03/M08 Q1035 NOSIG=
201902241830 METAR LRCK 241830Z 01004KT CAVOK M03/M07 Q1035 NOSIG=
201902241900 METAR LRCK 241900Z 36004KT 9999 FEW048 M04/M08 Q1035 NOSIG=
201902241930 METAR LRCK 241930Z 34005KT CAVOK M04/M08 Q1035 NOSIG=
201902242000 METAR LRCK 242000Z 32004KT CAVOK M04/M08 Q1035 NOSIG=
201902242030 METAR LRCK 242030Z 32005KT CAVOK M04/M08 Q1035 NOSIG=
201902242100 METAR LRCK 242100Z 33005KT CAVOK M04/M07 Q1035 NOSIG=
201902242130 METAR LRCK 242130Z 33005KT CAVOK M04/M07 Q1035 NOSIG=
201902242200 METAR LRCK 242200Z 33006KT 9999 SCT040 M04/M07 Q1035 NOSIG=
201902242230 METAR LRCK 242230Z 32007KT 9999 FEW041 M05/M08 Q1036 NOSIG=
201902242300 METAR LRCK 242300Z 33007KT 9999 FEW041 M05/M08 Q1035 NOSIG=
201902242330 METAR LRCK 242330Z 33008KT 9999 SCT041 M05/M07 Q1035 NOSIG=
201902250000 METAR LRCK 250000Z 32007KT 9999 FEW042 M06/M08 Q1035 NOSIG=
201902250030 METAR LRCK 250030Z 32006KT 9999 FEW042 M06/M08 Q1035 NOSIG=
201902250100 METAR LRCK 250100Z 32008KT CAVOK M06/M09 Q1035 NOSIG=
201902250130 METAR LRCK 250130Z 33007KT CAVOK M06/M09 Q1035 NOSIG=
201902250200 METAR LRCK 250200Z 31006KT CAVOK M06/M09 Q1035 NOSIG=
201902250230 METAR LRCK 250230Z 29006KT CAVOK M06/M09 Q1035 NOSIG=
201902250300 METAR LRCK 250300Z 28006KT CAVOK M07/M10 Q1035 NOSIG=
201902250330 METAR COR LRCK 250330Z 29006KT CAVOK M06/M09 Q1034 NOSIG=
201902250400 METAR LRCK 250400Z 30007KT CAVOK M06/M09 Q1034 NOSIG=
201902250430 METAR LRCK 250430Z 29007KT CAVOK M07/M09 Q1034 NOSIG=
201902250500 METAR LRCK 250500Z 29007KT CAVOK M07/M09 Q1034 NOSIG=
201902250530 METAR LRCK 250530Z 29007KT CAVOK M06/M08 Q1035 NOSIG=
201902250600 METAR LRCK 250600Z 28006KT CAVOK M04/M07 Q1035 NOSIG=
201902250630 METAR LRCK 250630Z 29007KT CAVOK M02/M07 Q1034 NOSIG=
201902250700 METAR LRCK 250700Z 29008KT CAVOK M01/M06 Q1034 NOSIG=
201902250730 METAR LRCK 250730Z 29008KT CAVOK M01/M06 Q1034 NOSIG=
201902250800 METAR LRCK 250800Z 28010KT 9999 NCD 00/M06 Q1034 NOSIG=
201902250830 METAR LRCK 250830Z 28010KT CAVOK 01/M05 Q1034 NOSIG=
201902250900 METAR LRCK 250900Z 27012KT CAVOK 01/M05 Q1033 NOSIG=
201902250930 METAR LRCK 250930Z 27011KT CAVOK 03/M06 Q1033 NOSIG=
201902251000 METAR LRCK 251000Z 26015KT CAVOK 04/M05 Q1032 NOSIG=
201902251030 METAR LRCK 251030Z 27016KT CAVOK 04/M06 Q1032 NOSIG=
201902251100 METAR LRCK 251100Z 27017KT CAVOK 05/M06 Q1031 NOSIG=
201902251130 METAR LRCK 251130Z 26017KT CAVOK 05/M07 Q1031 NOSIG=
201902251200 METAR LRCK 251200Z 26017KT CAVOK 05/M07 Q1030 NOSIG=
201902251230 METAR LRCK 251230Z 27015KT CAVOK 05/M07 Q1030 NOSIG=
201902251300 METAR LRCK 251300Z 27016KT CAVOK 06/M07 Q1029 NOSIG=
201902251330 METAR LRCK 251330Z 26017KT CAVOK 05/M08 Q1029 NOSIG=
201902251400 METAR LRCK 251400Z 26017KT CAVOK 05/M07 Q1028 NOSIG=
201902251430 METAR LRCK 251430Z 26018KT CAVOK 05/M07 Q1028 NOSIG=
201902251500 METAR LRCK 251500Z 27015KT CAVOK 04/M07 Q1028 NOSIG=
201902251530 METAR LRCK 251530Z 27014KT CAVOK 03/M07 Q1028 NOSIG=
201902251600 METAR LRCK 251600Z 27017KT CAVOK 02/M06 Q1027 NOSIG=
201902251630 METAR LRCK 251630Z 26016KT CAVOK 01/M06 Q1027 NOSIG=
201902251700 METAR LRCK 251700Z 25015KT CAVOK 01/M05 Q1026 NOSIG=
201902251730 METAR LRCK 251730Z 26018KT CAVOK 01/M05 Q1026 NOSIG=
201902251800 METAR LRCK 251800Z 26018KT CAVOK 00/M05 Q1025 NOSIG=
201902251830 METAR LRCK 251830Z 27020KT CAVOK 00/M05 Q1025 NOSIG=
201902251900 METAR LRCK 251900Z 27020KT CAVOK M00/M05 Q1026 NOSIG=
201902251930 METAR LRCK 251930Z 27019KT CAVOK M00/M06 Q1026 NOSIG=
201902252000 METAR LRCK 252000Z 27018KT CAVOK M00/M06 Q1025 NOSIG=
201902252030 METAR LRCK 252030Z 27018KT CAVOK M01/M06 Q1025 NOSIG=
201902252100 METAR LRCK 252100Z 27018KT CAVOK M01/M06 Q1025 NOSIG=
201902252130 METAR LRCK 252130Z 27015KT CAVOK M01/M06 Q1025 NOSIG=
201902252200 METAR LRCK 252200Z 28018KT CAVOK M00/M06 Q1025 NOSIG=
201902252230 METAR LRCK 252230Z 27019KT CAVOK M01/M06 Q1024 NOSIG=
201902252300 METAR LRCK 252300Z 27018KT CAVOK M01/M06 Q1024 NOSIG=
201902252330 METAR LRCK 252330Z 27016KT CAVOK M01/M06 Q1024 NOSIG=
201902260000 METAR LRCK 260000Z 27018KT CAVOK M02/M06 Q1024 NOSIG=
201902260030 METAR LRCK 260030Z 27016KT CAVOK M02/M06 Q1024 NOSIG=
201902260100 METAR LRCK 260100Z 27014KT CAVOK M02/M06 Q1023 NOSIG=
201902260130 METAR LRCK 260130Z 27014KT CAVOK M02/M06 Q1023 NOSIG=
201902260200 METAR LRCK 260200Z 27013KT CAVOK M02/M06 Q1023 NOSIG=
201902260230 METAR LRCK 260230Z 27013KT CAVOK M03/M06 Q1022 NOSIG=
201902260300 METAR LRCK 260300Z 27014KT CAVOK M03/M06 Q1022 NOSIG=
201902260330 METAR LRCK 260330Z 27014KT CAVOK M03/M06 Q1022 NOSIG=
201902260400 METAR LRCK 260400Z 27013KT CAVOK M03/M06 Q1021 NOSIG=
201902260430 METAR LRCK 260430Z 27014KT CAVOK M03/M06 Q1021 NOSIG=
201902260500 METAR LRCK 260500Z 27016KT CAVOK M03/M06 Q1021 NOSIG=
201902260530 METAR LRCK 260530Z 26013KT CAVOK M02/M06 Q1020 NOSIG=
201902260600 METAR LRCK 260600Z 27014KT CAVOK M02/M06 Q1020 NOSIG=
201902260630 METAR LRCK 260630Z 28013KT CAVOK M00/M06 Q1020 NOSIG=
201902260700 METAR LRCK 260700Z 28016KT CAVOK 01/M05 Q1019 NOSIG=
201902260730 METAR LRCK 260730Z 27015KT CAVOK 02/M05 Q1019 NOSIG=
201902260800 METAR LRCK 260800Z 26015KT CAVOK 02/M05 Q1018 NOSIG=
201902260830 METAR LRCK 260830Z 27015KT CAVOK 04/M05 Q1018 NOSIG=
201902260900 METAR LRCK 260900Z 26016KT CAVOK 05/M05 Q1017 NOSIG=
201902260930 METAR LRCK 260930Z 26016KT CAVOK 05/M05 Q1017 NOSIG=
201902261000 METAR LRCK 261000Z 26018KT CAVOK 07/M04 Q1016 NOSIG=
201902261030 METAR LRCK 261030Z 26016KT CAVOK 06/M05 Q1016 NOSIG=
201902261100 METAR LRCK 261100Z 26015KT CAVOK 08/M04 Q1015 NOSIG=
201902261130 METAR LRCK 261130Z 26015KT CAVOK 07/M04 Q1014 NOSIG=
201902261200 METAR LRCK 261200Z 27014G24KT CAVOK 07/M04 Q1013 NOSIG=
201902261230 METAR LRCK 261230Z 27014KT CAVOK 07/M04 Q1013 BECMG 34015KT=
201902261300 METAR LRCK 261300Z 27013KT CAVOK 06/M04 Q1013 BECMG 34015KT=
201902261330 METAR LRCK 261330Z 27014KT CAVOK 06/M03 Q1012 BECMG 34015KT=
201902261400 METAR LRCK 261400Z 27013KT CAVOK 05/M03 Q1012 NOSIG=
201902261430 METAR LRCK 261430Z 27014KT CAVOK 05/M03 Q1012 NOSIG=
201902261500 METAR LRCK 261500Z 27015KT CAVOK 04/M02 Q1012 NOSIG=
201902261530 METAR LRCK 261530Z 28011KT CAVOK 04/M03 Q1012 NOSIG=
201902261600 METAR LRCK 261600Z 27010KT CAVOK 04/M03 Q1012 NOSIG=
201902261630 METAR LRCK 261630Z 28009KT CAVOK 03/M03 Q1012 NOSIG=
201902261700 METAR LRCK 261700Z 28008KT CAVOK 04/M03 Q1012 NOSIG=
201902261730 METAR LRCK 261730Z 27009KT CAVOK 04/M03 Q1012 NOSIG=
201902261800 METAR LRCK 261800Z 28010KT CAVOK 04/M03 Q1012 NOSIG=
201902261830 METAR LRCK 261830Z 29010KT CAVOK 04/M03 Q1012 NOSIG=
201902261900 METAR LRCK 261900Z 32007KT 9999 BKN037 04/M02 Q1013 NOSIG=
201902261930 METAR LRCK 261930Z 32010KT 9999 BKN034 04/M01 Q1013 NOSIG=
201902262000 METAR LRCK 262000Z 33007KT 9999 BKN030 03/M01 Q1013 NOSIG=
201902262030 METAR LRCK 262030Z 32007KT 9999 SCT034 02/M01 Q1013 NOSIG=
201902262100 METAR LRCK 262100Z 32009KT 9999 BKN036 03/00 Q1013 NOSIG=
201902262130 METAR LRCK 262130Z 32009KT 9999 BKN040 03/01 Q1013 NOSIG=
201902262200 METAR LRCK 262200Z 32013KT 9999 BKN041 03/01 Q1013 NOSIG=
201902262230 METAR LRCK 262230Z 32013KT 9999 BKN040 03/01 Q1013 NOSIG=
201902262300 METAR LRCK 262300Z 32013KT 9999 BKN031 03/01 Q1013 NOSIG=
201902262330 METAR LRCK 262330Z 32011KT 5000 -RASN BR OVC026 02/01 Q1014
                        NOSIG=
201902270000 METAR LRCK 270000Z 32011KT 9999 BKN027 03/01 Q1014 R36/29//95
                        NOSIG=
201902270030 METAR LRCK 270030Z 33010KT 9999 BKN030 03/02 Q1014 R36/29//95
                        NOSIG=
201902270100 METAR LRCK 270100Z 33010KT 9999 -RA OVC035 02/01 Q1014 R36/29//95
                        NOSIG=
201902270130 METAR LRCK 270130Z 33009KT 8000 -RA OVC038 02/01 Q1014 R36/29//95
                        NOSIG=
201902270200 METAR LRCK 270200Z 33008KT 8000 BKN036 02/01 Q1014 R36/29//95
                        NOSIG=
201902270230 METAR LRCK 270230Z 32009KT 9999 BKN030 02/01 Q1014 R36/29//95
                        NOSIG=
201902270300 METAR COR LRCK 270300Z 33008KT 9999 -RASN BKN025 02/01 Q1014
                        R36/29//95 NOSIG=
201902270330 METAR LRCK 270330Z 33008KT 9999 -RASN BKN025 02/01 Q1014
                        R36/29//95 NOSIG=
201902270400 METAR LRCK 270400Z 33009KT 9999 BKN030 02/01 Q1015 R36/29//95
                        NOSIG=
201902270430 METAR LRCK 270430Z 33009KT 9999 BKN025 02/01 Q1015 R36/29//95
                        NOSIG=
201902270500 METAR LRCK 270500Z 34009KT 9999 SCT025 02/00 Q1015 R36/29//95
                        NOSIG=
201902270530 METAR LRCK 270530Z 34009KT 9999 FEW024 02/00 Q1016 R36/29//95
                        NOSIG=
201902270600 METAR LRCK 270600Z 34009KT CAVOK 02/00 Q1016 R36/29//95 NOSIG=
201902270630 METAR LRCK 270630Z 34010KT 9999 BKN039 02/00 Q1016 R36/29//95
                        NOSIG=
201902270700 METAR LRCK 270700Z 34010KT 9999 BKN043 03/01 Q1017 R36/29//95
                        NOSIG=
201902270730 METAR LRCK 270730Z 34014KT 9999 SCT023 03/01 Q1017 R36/29//95
                        NOSIG=
201902270800 METAR LRCK 270800Z 35019KT 9999 SCT024 05/01 Q1017 R36/29//95
                        NOSIG=
201902270830 METAR LRCK 270830Z 35021KT 9999 BKN024 05/01 Q1017 R36/29//95
                        NOSIG=
201902270900 METAR LRCK 270900Z 36020KT 9999 BKN025 06/01 Q1017 R36/29//95
                        NOSIG=
201902270930 METAR LRCK 270930Z 35021KT 9999 BKN026 06/M00 Q1017 R36/29//95
                        NOSIG=
201902271000 METAR LRCK 271000Z 35022KT 9999 BKN029 05/M01 Q1017 R36/29//95
                        NOSIG=
201902271030 METAR LRCK 271030Z 34016KT 9999 BKN031 06/M00 Q1017 R36/29//95
                        NOSIG=
201902271100 METAR LRCK 271100Z 36016KT 9999 BKN032 07/M01 Q1017 R36/29//95
                        NOSIG=
201902271130 METAR LRCK 271130Z 35015KT 9999 FEW034 BKN041 05/M01 Q1017
                        R36/CLRD// NOSIG=
201902271200 METAR LRCK 271200Z 33013KT 9999 BKN035 05/M02 Q1017 NOSIG=
201902271230 METAR LRCK 271230Z 33014KT 9999 FEW035 05/M02 Q1017 NOSIG=
201902271300 METAR LRCK 271300Z 33016KT 9999 BKN047 05/M02 Q1017 NOSIG=
201902271330 METAR LRCK 271330Z 32016KT 9999 BKN047 05/M02 Q1017 NOSIG=
201902271400 METAR LRCK 271400Z 32013KT CAVOK 05/M02 Q1017 NOSIG=
201902271430 METAR LRCK 271430Z 33013KT CAVOK 05/M03 Q1018 NOSIG=
201902271500 METAR LRCK 271500Z 33011KT CAVOK 04/M03 Q1018 NOSIG=
201902271530 METAR LRCK 271530Z 32013KT CAVOK 04/M03 Q1018 NOSIG=
201902271600 METAR LRCK 271600Z 33013KT 9999 BKN047 03/M02 Q1018 NOSIG=
201902271630 METAR LRCK 271630Z 32011KT 9999 FEW048 03/M01 Q1018 NOSIG=
201902271700 METAR LRCK 271700Z 31013KT CAVOK 03/M01 Q1018 NOSIG=
201902271730 METAR LRCK 271730Z 32013KT 9999 BKN042 03/M00 Q1018 NOSIG=
201902271800 METAR LRCK 271800Z 32011KT 9999 BKN047 02/M00 Q1018 NOSIG=
201902271830 METAR LRCK 271830Z 33010KT CAVOK 02/M00 Q1018 NOSIG=
201902271900 METAR LRCK 271900Z 33010KT CAVOK 02/M01 Q1018 NOSIG=
201902271930 METAR LRCK 271930Z 35013KT CAVOK 02/M01 Q1018 NOSIG=
201902272000 METAR LRCK 272000Z 36011KT 9999 SCT042 02/M02 Q1017 NOSIG=
201902272030 METAR LRCK 272030Z 36009KT 9999 FEW045 02/M02 Q1018 NOSIG=
201902272100 METAR LRCK 272100Z 35007KT CAVOK 02/M03 Q1017 NOSIG=
201902272130 METAR LRCK 272130Z 33006KT CAVOK 02/M03 Q1017 NOSIG=
201902272200 METAR LRCK 272200Z 32007KT CAVOK 02/M03 Q1017 NOSIG=
201902272230 METAR LRCK 272230Z 30006KT CAVOK 02/M02 Q1017 NOSIG=
201902272300 METAR LRCK 272300Z 30005KT CAVOK 02/M02 Q1017 NOSIG=
201902272330 METAR LRCK 272330Z 28006KT CAVOK 01/M01 Q1017 NOSIG=
201902280000 METAR LRCK 280000Z 27006KT CAVOK 01/M01 Q1016 NOSIG=
201902280030 METAR LRCK 280030Z 28008KT 9999 FEW045 01/M01 Q1016 NOSIG=
201902280100 METAR LRCK 280100Z 28007KT CAVOK 01/M01 Q1015 NOSIG=
201902280130 METAR LRCK 280130Z 28008KT CAVOK 00/M02 Q1015 NOSIG=
201902280200 METAR LRCK 280200Z 28008KT CAVOK 01/M01 Q1015 NOSIG=
201902280230 METAR LRCK 280230Z 28008KT CAVOK 01/M01 Q1015 NOSIG=
201902280300 METAR LRCK 280300Z 29006KT CAVOK 01/M01 Q1014 NOSIG=
201902280330 METAR LRCK 280330Z 27009KT CAVOK M00/M01 Q1014 NOSIG=
201902280400 METAR LRCK 280400Z 27008KT CAVOK M00/M01 Q1014 NOSIG=
201902280430 METAR COR LRCK 280430Z 27009KT CAVOK 00/M01 Q1014 NOSIG=
201902280500 METAR LRCK 280500Z 26010KT CAVOK M00/M01 Q1014 NOSIG=
201902280530 METAR LRCK 280530Z 26009KT CAVOK M00/M01 Q1013 NOSIG=
201902280600 METAR LRCK 280600Z 25011KT CAVOK 01/M01 Q1013 NOSIG=
201902280630 METAR LRCK 280630Z 26011KT CAVOK 02/M01 Q1013 NOSIG=
201902280700 METAR LRCK 280700Z 26013KT CAVOK 03/M01 Q1013 NOSIG=
201902280730 METAR LRCK 280730Z 26014KT CAVOK 05/M01 Q1012 NOSIG=
201902280800 METAR LRCK 280800Z 25016KT CAVOK 05/M01 Q1012 NOSIG=
201902280830 METAR LRCK 280830Z 26016KT CAVOK 05/M02 Q1012 NOSIG=
201902280900 METAR LRCK 280900Z 26017KT CAVOK 07/M01 Q1011 NOSIG=
201902280930 METAR LRCK 280930Z 26017KT CAVOK 08/M01 Q1010 NOSIG=
201902281000 METAR LRCK 281000Z 26015KT CAVOK 09/M00 Q1010 NOSIG=
201902281030 METAR LRCK 281030Z 25018KT CAVOK 10/M01 Q1009 NOSIG=
201902281100 METAR LRCK 281100Z 26018KT CAVOK 11/M01 Q1008 NOSIG=
201902281130 METAR LRCK 281130Z 26017KT 250V310 CAVOK 12/M01 Q1008 NOSIG=
201902281200 METAR LRCK 281200Z 26018KT CAVOK 13/M01 Q1007 NOSIG=
201902281230 METAR LRCK 281230Z 27019KT CAVOK 13/M01 Q1007 NOSIG=
201902281300 METAR LRCK 281300Z 26019KT CAVOK 14/M02 Q1006 NOSIG=
201902281330 METAR LRCK 281330Z 26021KT CAVOK 14/M02 Q1005 NOSIG=
201902281400 METAR LRCK 281400Z 25018KT CAVOK 14/M02 Q1005 NOSIG=
201902281430 METAR LRCK 281430Z 25018KT CAVOK 13/M02 Q1005 NOSIG=
201902281500 METAR LRCK 281500Z 25018KT CAVOK 13/M02 Q1004 NOSIG=
201902281530 METAR LRCK 281530Z 25017KT CAVOK 12/M01 Q1004 NOSIG=
201902281600 METAR LRCK 281600Z 25016KT CAVOK 11/M01 Q1004 NOSIG=
201902281630 METAR LRCK 281630Z 24018KT CAVOK 10/M01 Q1003 NOSIG=
201902281700 METAR LRCK 281700Z 25016KT CAVOK 09/M00 Q1003 NOSIG=
201902281730 METAR LRCK 281730Z 25014KT CAVOK 08/00 Q1003 NOSIG=
201902281800 METAR LRCK 281800Z 25015KT CAVOK 09/00 Q1002 NOSIG=
201902281830 METAR LRCK 281830Z 25014KT CAVOK 08/00 Q1002 NOSIG=
201902281900 METAR LRCK 281900Z 26019KT CAVOK 10/M01 Q1002 NOSIG=
201902281930 METAR LRCK 281930Z 26015KT CAVOK 10/M01 Q1002 NOSIG=
201902282000 METAR LRCK 282000Z 26010KT CAVOK 09/M01 Q1002 NOSIG=
201902282030 METAR LRCK 282030Z 27013KT CAVOK 09/M02 Q1002 NOSIG=
201902282100 METAR LRCK 282100Z 26014KT CAVOK 09/M02 Q1002 NOSIG=
201902282130 METAR LRCK 282130Z 26012KT CAVOK 08/M02 Q1002 NOSIG=
201902282200 METAR LRCK 282200Z 26009KT CAVOK 06/M02 Q1002 NOSIG=
201902282230 METAR LRCK 282230Z 26011KT CAVOK 07/M01 Q1002 NOSIG=
201902282300 METAR LRCK 282300Z 26010KT CAVOK 05/M01 Q1002 NOSIG=
201902282330 METAR LRCK 282330Z 25008KT CAVOK 05/M01 Q1003 NOSIG=
