201903010500 TAF LRCK 010500Z 0106/0206 29010KT CAVOK
                      PROB30 TEMPO 0119/0124 5000 -SHRA SCT040CB
                       BECMG 0201/0203 02010KT
                      TEMPO 0203/0206 5000 -RA BR BKN015 BKN030=
201903011100 TAF LRCK 011100Z 0112/0212 29010KT CAVOK
                      BECMG 0116/0118 VRB04KT
                      PROB30 TEMPO 0119/0124 5000 -SHRA SCT040CB
                       BECMG 0202/0204 02012KT
                      TEMPO 0204/0209 5000 -RA BR BKN015 BKN030=
201903011412 TAF AMD LRCK 011412Z 0114/0212 12012KT CAVOK
                      BECMG 0116/0118 VRB04KT
                      PROB30 TEMPO 0119/0124 5000 -SHRA SCT040CB
                       BECMG 0202/0204 02012KT
                      TEMPO 0204/0209 5000 -RA BR BKN015 BKN030=
201903011700 TAF LRCK 011700Z 0118/0218 VRB04KT CAVOK
                      BECMG 0202/0204 02015KT
                      TEMPO 0204/0206 02015G25KT 5000 -SHRA BKN010
                       SCT030CB BKN035
                      TEMPO 0206/0209 5000 -RA BKN015 BKN030
                      BECMG 0216/0218 36005KT=
201903012300 TAF LRCK 012300Z 0200/0224 VRB04KT 5000 BR NSC
                      BECMG 0202/0204 02015KT 9999 NSW
                      PROB40 TEMPO 0204/0206 02015G25KT 5000 -SHRA
                       BKN010 SCT030CB BKN035
                      TEMPO 0206/0209 5000 -RA BKN015 BKN030
                      BECMG 0217/0219 VRB04KT=
201903020500 TAF LRCK 020500Z 0206/0306 02016KT 9999 BKN035
                      TEMPO 0206/0210 5000 -RA BKN015 BKN030
                      BECMG 0220/0222 VRB04KT=
201903021100 TAF LRCK 021100Z 0212/0312 02012KT 9999 SCT035
                      BECMG 0220/0222 VRB04KT=
201903021700 TAF LRCK 021700Z 0218/0318 33005KT 9999 BKN045
                      BECMG 0312/0314 18010KT=
201903022300 TAF LRCK 022300Z 0300/0324 05006KT 9999 SCT045
                      BECMG 0312/0314 18010KT=
201903030500 TAF LRCK 030500Z 0306/0406 VRB04KT CAVOK
                      BECMG 0310/0312 18010KT
                      BECMG 0322/0324 24010KT
                      PROB40 TEMPO 0400/0406 3000 BR=
201903031100 TAF LRCK 031100Z 0312/0412 15008KT CAVOK
                      BECMG 0322/0324 24010KT
                      PROB40 TEMPO 0400/0406 3000 BR=
201903031700 TAF LRCK 031700Z 0318/0418 14008KT CAVOK
                      BECMG 0322/0324 24010KT
                      PROB40 TEMPO 0400/0406 3000 BR
                      PROB30 TEMPO 0410/0414 24015G25KT=
201903032300 TAF LRCK 032300Z 0400/0424 24010KT CAVOK
                      PROB40 TEMPO 0400/0406 3000 BR
                      PROB30 TEMPO 0410/0414 24015G25KT=
201903040500 TAF LRCK 040500Z 0406/0506 24010KT CAVOK
                      PROB30 TEMPO 0410/0416 23015G25KT=
201903041100 TAF LRCK 041100Z 0412/0512 24014KT CAVOK=
201903041700 TAF LRCK 041700Z 0418/0518 20010KT CAVOK
                      BECMG 0510/0512 27014KT=
201903042300 TAF LRCK 042300Z 0500/0524 20010KT CAVOK
                      BECMG 0510/0512 28014KT=
201903050500 TAF LRCK 050500Z 0506/0606 25016KT CAVOK
                      TEMPO 0508/0514 27018G28KT
                      BECMG 0516/0518 29006KT=
201903051100 TAF LRCK 051100Z 0512/0612 26022KT CAVOK
                      TEMPO 0512/0515 27025G35KT
                      BECMG 0516/0518 28012KT
                      BECMG 0608/0610 29015G25KT FEW045CB=
201903051700 TAF LRCK 051700Z 0518/0618 32006KT CAVOK
                      BECMG 0606/0608 26012KT
                      BECMG 0612/0614 34015KT
                      TEMPO 0614/0617 5000 SHRA SCT035CB=
201903052300 TAF LRCK 052300Z 0600/0624 26012KT CAVOK
                      BECMG 0612/0614 34015KT
                      PROB30 TEMPO 0614/0617 5000 SHRA SCT035CB=
201903060500 TAF LRCK 060500Z 0606/0706 27010KT CAVOK
                      TEMPO 0611/0615 27015G25KT
                      PROB30 TEMPO 0613/0616 5000 SHRA SCT035CB
                       BECMG 0615/0617 34015KT
                      BECMG 0620/0622 VRB04KT=
201903061100 TAF LRCK 061100Z 0612/0712 27014KT 9999 SCT040
                      TEMPO 0613/0616 27016G26KT 5000 SHRA SCT035CB
                       BKN040
                      BECMG 0616/0618 35015KT
                      BECMG 0620/0622 VRB04KT
                      PROB40 TEMPO 0701/0706 3000 BR
                      BECMG 0707/0709 16010KT=
201903061700 TAF LRCK 061700Z 0618/0718 01010KT CAVOK
                      BECMG 0619/0621 VRB04KT
                      PROB40 TEMPO 0701/0706 3000 BR
                      BECMG 0707/0709 16010KT=
201903062300 TAF LRCK 062300Z 0700/0724 01006KT CAVOK
                      PROB40 TEMPO 0701/0706 3000 BR
                      BECMG 0707/0709 17012KT=
201903070500 TAF LRCK 070500Z 0706/0806 VRB04KT CAVOK
                      BECMG 0707/0709 18012KT=
201903071100 TAF LRCK 071100Z 0712/0812 14016KT CAVOK
                      BECMG 0806/0808 21008KT=
201903071700 TAF LRCK 071700Z 0718/0818 16012KT CAVOK
                      BECMG 0808/0810 22008KT=
201903072300 TAF LRCK 072300Z 0800/0824 16012KT CAVOK
                      BECMG 0808/0810 22008KT=
201903080500 TAF LRCK 080500Z 0806/0906 VRB04KT CAVOK
                      BECMG 0806/0808 20010KT
                      BECMG 0820/0822 VRB04KT
                      BECMG 0904/0906 27010KT=
201903081100 TAF LRCK 081100Z 0812/0912 08007KT CAVOK
                      BECMG 0904/0907 27012KT=
201903081435 TAF AMD LRCK 081435Z 0814/0912 16012KT CAVOK
                      BECMG 0819/0821 VRB04KT
                      BECMG 0904/0907 27012KT=
201903081700 TAF LRCK 081700Z 0818/0918 21010KT CAVOK
                      BECMG 0820/0822 VRB04KT
                      BECMG 0902/0904 27015KT=
201903082300 TAF LRCK 082300Z 0900/0924 21008KT CAVOK
                      BECMG 0902/0904 27015KT=
201903090500 TAF LRCK 090500Z 0906/1006 26012KT CAVOK
                      TEMPO 0914/0924 27015G25KT=
201903091100 TAF LRCK 091100Z 0912/1012 VRB04KT CAVOK
                      BECMG 0912/0914 26012KT
                      TEMPO 0914/0923 27015G25KT=
201903091700 TAF LRCK 091700Z 0918/1018 25012KT CAVOK
                      BECMG 1006/1008 27022KT
                      TEMPO 1008/1015 27030G40KT
                      BECMG 1015/1017 24012KT=
201903092300 TAF LRCK 092300Z 1000/1024 27012KT CAVOK
                      BECMG 1006/1008 27022KT
                      TEMPO 1008/1015 27030G40KT
                      BECMG 1015/1017 24012KT=
201903100500 TAF LRCK 100500Z 1006/1106 27012KT CAVOK
                      BECMG 1006/1008 27022KT
                      TEMPO 1008/1014 28030G40KT
                      BECMG 1014/1016 26012KT
                      TEMPO 1103/1106 27018G32KT=
201903101100 TAF LRCK 101100Z 1012/1112 28020KT CAVOK
                      TEMPO 1012/1016 28030G40KT
                      BECMG 1017/1019 25010KT
                      TEMPO 1103/1112 28018G32KT=
201903101700 TAF LRCK 101700Z 1018/1118 24012KT CAVOK
                      TEMPO 1103/1112 26020G30KT
                      BECMG 1112/1114 32014KT=
201903102300 TAF LRCK 102300Z 1100/1124 25010KT CAVOK
                      TEMPO 1102/1112 26020G30KT
                      BECMG 1121/1123 34015KT 3000 RA BKN010 OVC025=
201903110500 TAF LRCK 110500Z 1106/1206 27018KT CAVOK
                      BECMG 1116/1118 34010KT
                      BECMG 1120/1122 04015KT 5000 RA BKN015 OVC030
                       TEMPO 1200/1206 3000 RA BKN010 OVC025=
201903111100 TAF LRCK 111100Z 1112/1212 30020KT CAVOK
                      BECMG 1115/1117 35010KT
                      BECMG 1120/1122 05016KT 5000 RA BKN015 OVC030
                       TEMPO 1202/1209 04018G28KT 3000 RA BKN010
                       OVC025=
201903111700 TAF LRCK 111700Z 1118/1218 30010KT CAVOK
                      BECMG 1120/1122 04014KT 5000 RA BKN015 OVC030
                       TEMPO 1200/1206 04016G26KT 3000 RA BKN010
                       OVC025
                      BECMG 1210/1212 9999 NSW BKN020
                      BECMG 1215/1217 VRB04KT=
201903111831 TAF AMD LRCK 111831Z 1118/1218 05012KT CAVOK
                      TEMPO 1118/1121 05022KT 5000 -RA -SHRA BKN015
                       SCT030CB BKN035
                      BECMG 1121/1123 5000 RA BKN015 OVC030
                      TEMPO 1200/1206 04016G26KT 3000 RA BKN010
                       OVC025
                      BECMG 1210/1212 9999 NSW BKN020
                      BECMG 1215/1217 VRB04KT=
201903112300 TAF LRCK 112300Z 1200/1224 05018KT 5000 -RA BKN015 BKN035
                      TEMPO 1200/1207 05020G30KT 3000 RA BKN010
                       OVC025
                      BECMG 1211/1213 9999 NSW BKN020
                      BECMG 1215/1217 03008KT=
201903120500 TAF LRCK 120500Z 1206/1306 05016KT 7000 -RA BKN010 BKN035
                      TEMPO 1206/1210 05018G28KT 5000 RA BKN005
                       OVC030
                      BECMG 1211/1213 9999 NSW BKN020
                      BECMG 1215/1217 03004KT
                      BECMG 1223/1301 02014KT=
201903120530 TAF COR LRCK 120530Z 1206/1306 05016KT 9999 BKN010 BKN035
                      TEMPO 1206/1210 05018G28KT 5000 RA BKN005
                       OVC030
                      BECMG 1211/1213 BKN020
                      BECMG 1215/1217 03004KT
                      BECMG 1223/1301 02014KT=
201903121100 TAF LRCK 121100Z 1212/1312 04019KT 9999 BKN025
                      TEMPO 1212/1214 BKN015 BKN025
                      BECMG 1215/1217 03009KT=
201903121700 TAF LRCK 121700Z 1218/1318 VRB04KT 9999 SCT035
                      BECMG 1300/1302 03012KT
                      BECMG 1314/1316 16010KT=
201903122300 TAF LRCK 122300Z 1300/1324 32008KT 9999 SCT035
                      BECMG 1301/1303 03012KT
                      BECMG 1314/1316 16006KT=
201903130500 TAF LRCK 130500Z 1306/1406 02010KT CAVOK
                      BECMG 1314/1316 16006KT
                      BECMG 1322/1324 5000 BR
                      TEMPO 1400/1405 1500 BR BKN010=
201903131100 TAF LRCK 131100Z 1312/1412 07010KT CAVOK
                      BECMG 1322/1324 16006KT 3000 BR
                      TEMPO 1400/1405 1500 BR BKN010
                      BECMG 1406/1408 CAVOK=
201903131700 TAF LRCK 131700Z 1318/1418 16004KT CAVOK
                      BECMG 1322/1324 3000 BR
                      PROB40 TEMPO 1400/1405 1500 BR
                      BECMG 1405/1407 CAVOK
                      BECMG 1409/1411 14014KT
                      BECMG 1416/1418 15004KT=
201903132300 TAF LRCK 132300Z 1400/1424 VRB04KT CAVOK
                      PROB40 TEMPO 1401/1405 3000 BR
                      BECMG 1409/1411 14014KT
                      BECMG 1417/1419 15004KT
                      BECMG 1419/1421 3000 BR=
201903140159 TAF LRCK 1312/1412 07010KT CAVOK
                      BECMG 1322/1324 16006KT 3000 BR
                      TEMPO 1400/1405 1500 BR BKN010
                      BECMG 1406/1408 CAVOK=
201903140200 TAF LRCK 1312/1412 07010KT CAVOK
                      BECMG 1322/1324 16006KT 3000 BR
                      TEMPO 1400/1405 1500 BR BKN010
                      BECMG 1406/1408 CAVOK=
201903140500 TAF LRCK 140500Z 1406/1506 15004KT CAVOK
                      BECMG 1409/1411 14014KT
                      BECMG 1417/1419 16004KT
                      TEMPO 1500/1506 5000 BR=
201903141100 TAF LRCK 141100Z 1412/1512 15010KT 9999 SCT035
                      BECMG 1420/1422 VRB04KT
                      PROB30 TEMPO 1503/1509 5000 -RA
                      BECMG 1510/1512 26010KT=
201903141700 TAF LRCK 141700Z 1418/1518 12006KT 9999 SCT035
                      PROB30 TEMPO 1500/1506 5000 -RA BKN020
                      PROB30 TEMPO 1509/1515 SCT040CB
                      BECMG 1511/1513 26010KT=
201903142300 TAF LRCK 142300Z 1500/1524 14006KT 9999 SCT035
                      PROB30 TEMPO 1500/1506 5000 -RA BKN020
                      PROB30 TEMPO 1509/1515 5000 -SHRA SCT040CB
                       BECMG 1511/1513 26010KT=
201903150500 TAF LRCK 150500Z 1506/1606 VRB04KT 9999 SCT035
                      BECMG 1507/1509 26010KT
                      PROB30 TEMPO 1509/1514 5000 -SHRA SCT040CB=
201903151100 TAF LRCK 151100Z 1512/1612 25008KT 9999 SCT035
                      TEMPO 1512/1515 SCT040CB
                      BECMG 1604/1606 26018KT
                      TEMPO 1606/1612 26025G35KT=
201903151700 TAF LRCK 151700Z 1518/1618 20010KT CAVOK
                      BECMG 1604/1606 26015KT
                      TEMPO 1608/1616 26020G35KT
                      TEMPO 1612/1617 5000 -SHRA SCT040CB
                      BECMG 1616/1618 35008KT=
201903152300 TAF LRCK 152300Z 1600/1624 25010KT CAVOK
                      BECMG 1606/1608 25020G30KT
                      PROB40 TEMPO 1614/1618 5000 -SHRA SCT040CB
                       BECMG 1616/1618 33012KT=
201903160500 TAF LRCK 160500Z 1606/1706 25010KT CAVOK
                      BECMG 1607/1609 26020G30KT
                      PROB30 TEMPO 1615/1618 5000 -SHRA SCT040CB
                       BECMG 1616/1618 33012KT
                      BECMG 1704/1706 27010KT=
201903161100 TAF LRCK 161100Z 1612/1712 25022KT CAVOK
                      PROB30 TEMPO 1615/1618 5000 -SHRA SCT040CB
                       BECMG 1616/1618 33012KT
                      BECMG 1704/1706 27008KT=
201903161700 TAF LRCK 161700Z 1618/1718 03010KT CAVOK
                      BECMG 1700/1702 VRB04KT=
201903162300 TAF LRCK 162300Z 1700/1724 VRB04KT CAVOK
                      BECMG 1722/1724 5000 BR=
201903170500 TAF LRCK 170500Z 1706/1806 26010KT CAVOK
                      BECMG 1716/1718 14008KT
                      TEMPO 1800/1806 3000 BR=
201903171100 TAF LRCK 171100Z 1712/1812 24010KT CAVOK
                      BECMG 1716/1718 14006KT
                      TEMPO 1800/1806 3000 BR
                      BECMG 1808/1810 14018KT=
201903171700 TAF LRCK 171700Z 1718/1818 15007KT CAVOK
                      PROB30 TEMPO 1801/1806 3000 BR
                      BECMG 1809/1811 14016KT
                      PROB30 TEMPO 1811/1816 14016G26KT=
201903172300 TAF LRCK 172300Z 1800/1824 20008KT CAVOK
                      PROB30 TEMPO 1801/1806 3000 BR
                      BECMG 1809/1811 14016KT
                      PROB30 TEMPO 1811/1816 14016G26KT=
201903180500 TAF LRCK 180500Z 1806/1906 08006KT 5000 BR NSC
                      PROB30 TEMPO 1806/1807 3000 BR BKN005
                      BECMG 1807/1809 14012KT CAVOK
                      PROB30 TEMPO 1810/1816 14016G26KT
                      TEMPO 1902/1906 3000 BR=
201903181100 TAF LRCK 181100Z 1812/1912 13014KT CAVOK
                      PROB30 TEMPO 1812/1816 14016G26KT
                      BECMG 1820/1822 5000 BR BKN010
                      PROB40 TEMPO 1900/1905 1500 BR BKN002
                      BECMG 1907/1909 9999 NSW SCT020=
201903181700 TAF LRCK 181700Z 1818/1918 12012KT CAVOK
                      TEMPO 1901/1905 3000 BR BKN010=
201903182300 TAF LRCK 182300Z 1900/1924 12015KT CAVOK
                      TEMPO 1901/1905 3000 BR
                      PROB40 TEMPO 1909/1915 12015G25KT
                      BECMG 1922/1924 VRB04KT=
201903190500 TAF LRCK 190500Z 1906/2006 12012KT CAVOK
                      PROB40 TEMPO 1909/1915 12015G25KT
                      BECMG 1921/1923 VRB04KT
                      TEMPO 2000/2006 3000 BR=
201903191100 TAF LRCK 191100Z 1912/2012 12015KT CAVOK
                      PROB40 TEMPO 1912/1915 12015G25KT
                      BECMG 1921/1923 VRB04KT
                      TEMPO 2000/2006 3000 BR
                      BECMG 2006/2008 02010KT=
201903191700 TAF LRCK 191700Z 1918/2018 10010KT CAVOK
                      PROB30 TEMPO 1918/1921 BKN008
                      BECMG 1921/1923 VRB04KT
                      TEMPO 2000/2006 3000 BR
                      BECMG 2006/2008 02010KT=
201903192207 TAF AMD LRCK 192207Z 1922/2018 05007KT 9999 BKN010
                      TEMPO 2000/2006 3000 BR BKN005
                      BECMG 2006/2008 SCT020=
201903192300 TAF LRCK 192300Z 2000/2024 05008KT 9999 BKN010
                      PROB30 TEMPO 2000/2006 3000 BR BKN005
                      BECMG 2006/2008 SCT020=
201903200500 TAF LRCK 200500Z 2006/2106 02010KT 0350 FG OVC002
                      BECMG 2006/2008 1500 BR BKN005
                      BECMG 2008/2010 9999 NSW SCT020=
201903200707 TAF AMD LRCK 200707Z 2007/2106 02010KT CAVOK=
201903201100 TAF LRCK 201100Z 2012/2112 02010KT CAVOK
                      TEMPO 2012/2015 09006KT
                      BECMG 2109/2111 VRB04KT=
201903201700 TAF LRCK 201700Z 2018/2118 01010KT CAVOK
                      BECMG 2111/2113 10008KT
                      BECMG 2116/2118 18010KT=
201903202300 TAF LRCK 202300Z 2100/2124 01010KT CAVOK
                      TEMPO 2110/2115 10010KT
                      BECMG 2115/2117 VRB04KT=
201903210500 TAF LRCK 210500Z 2106/2206 33008KT CAVOK=
201903211100 TAF LRCK 211100Z 2112/2212 01008KT 9999 SCT045=
201903211700 TAF LRCK 211700Z 2118/2218 18006KT CAVOK
                      BECMG 2200/2202 30010KT
                      BECMG 2204/2206 36006KT
                      BECMG 2209/2211 33016KT=
201903212300 TAF LRCK 212300Z 2200/2224 30006KT CAVOK
                      BECMG 2208/2210 33016KT
                      TEMPO 2216/2220 30006KT=
201903220500 TAF LRCK 220500Z 2206/2306 30012KT CAVOK
                      BECMG 2300/2302 35016KT=
201903221100 TAF LRCK 221100Z 2212/2312 33012KT CAVOK
                      BECMG 2306/2308 34015G25KT=
201903221700 TAF LRCK 221700Z 2218/2318 33010KT CAVOK
                      TEMPO 2308/2314 35018G28KT=
201903222300 TAF LRCK 222300Z 2300/2324 33010KT CAVOK
                      PROB30 TEMPO 2303/2307 BKN010 BKN030
                      TEMPO 2308/2314 35018G28KT=
201903230500 TAF LRCK 230500Z 2306/2406 33010KT CAVOK
                      BECMG 2307/2309 35016G28KT
                      BECMG 2313/2315 36014KT
                      BECMG 2320/2322 34004KT=
201903231100 TAF LRCK 231100Z 2312/2412 33015G28KT CAVOK
                      BECMG 2316/2318 34007KT=
201903231700 TAF LRCK 231700Z 2318/2418 35007KT CAVOK=
201903232300 TAF LRCK 232300Z 2400/2424 VRB04KT CAVOK=
201903240500 TAF LRCK 240500Z 2406/2506 34010KT CAVOK
                      BECMG 2415/2417 VRB04KT=
201903241100 TAF LRCK 241100Z 2412/2512 VRB04KT CAVOK
                      TEMPO 2412/2415 30010KT
                      BECMG 2507/2509 22012KT=
201903241700 TAF LRCK 241700Z 2418/2518 17005KT CAVOK
                      BECMG 2507/2509 21015KT=
201903242300 TAF LRCK 242300Z 2500/2524 20010KT CAVOK=
201903250500 TAF LRCK 250500Z 2506/2606 24006KT CAVOK
                      BECMG 2518/2520 18012KT
                      BECMG 2522/2524 VRB04KT
                      PROB30 TEMPO 2602/2605 5000 BR=
201903251100 TAF LRCK 251100Z 2512/2612 22015KT CAVOK
                      TEMPO 2512/2517 22015G25KT
                      BECMG 2522/2524 VRB04KT
                      TEMPO 2600/2604 5000 BR=
201903251700 TAF LRCK 251700Z 2518/2618 19015KT CAVOK
                      BECMG 2522/2524 VRB04KT
                      BECMG 2604/2606 06012KT
                      BECMG 2616/2618 36012KT=
201903252300 TAF AMD LRCK 260252Z 2602/2624 VRB04KT 1500 BR NSC
                      TEMPO 2602/2605 0300 FG VV002
                      BECMG 2605/2607 06012KT 5000
                      BECMG 2607/2608 CAVOK
                      BECMG 2616/2618 36012KT
                      PROB40 TEMPO 2618/2621 5000 -RA
                      BECMG 2622/2624 30005KT=
201903260252 TAF AMD LRCK 260252Z 2602/2624 VRB04KT 1500 BR NSC
                      TEMPO 2602/2605 0300 FG VV002
                      BECMG 2605/2607 06012KT 5000
                      BECMG 2607/2608 CAVOK
                      BECMG 2616/2618 36012KT
                      PROB40 TEMPO 2618/2621 5000 -RA
                      BECMG 2622/2624 30005KT=
201903260500 TAF LRCK 260500Z 2606/2706 01010KT 9999 BKN010
                      PROB30 2606/2607 5000 BR BKN005
                      BECMG 2608/2610 07018KT NSC
                      PROB40 TEMPO 2615/2618 5000 -SHRA SCT030CB
                       BECMG 2616/2618 36012KT
                      PROB40 TEMPO 2618/2621 5000 -RA
                      BECMG 2622/2624 30005KT
                      BECMG 2704/2706 30015KT=
201903261100 TAF LRCK 261100Z 2612/2712 06017KT 9999 BKN030
                      PROB40 TEMPO 2612/2618 5000 -SHRA SCT030CB
                       BKN040
                      BECMG 2616/2618 36012KT
                      PROB30 TEMPO 2618/2621 5000 -RA BKN015 BKN030
                       BECMG 2622/2624 30005KT
                      BECMG 2704/2706 30015KT
                      TEMPO 2708/2712 32015G25KT=
201903261700 TAF LRCK 261700Z 2618/2718 36012KT 9999 BKN030
                      TEMPO 2618/2621 5000 -RA BKN015 BKN030
                      BECMG 2622/2624 30005KT
                      BECMG 2704/2706 30015KT
                      TEMPO 2708/2714 32015G25KT=
201903262300 TAF LRCK 262300Z 2700/2724 28005KT 5000 BR NSC
                      PROB40 TEMPO 2700/2704 1500 BR BKN005
                      BECMG 2704/2706 32015KT 9999 NSW
                      TEMPO 2708/2714 32015G25KT=
201903270500 TAF LRCK 270500Z 2706/2806 27008KT 5000 BR NSC
                      TEMPO 2706/2707 3000 BR
                      BECMG 2707/2709 33015KT 9999 NSW
                      TEMPO 2710/2714 32016G26KT=
201903271100 TAF LRCK 271100Z 2712/2812 33018KT 9999 SCT045
                      TEMPO 2712/2715 32020G30KT
                      BECMG 2718/2720 35008KT=
201903271700 TAF LRCK 271700Z 2718/2818 01014KT CAVOK
                      PROB30 2723/2806 31008KT
                      BECMG 2809/2811 07008KT
                      BECMG 2813/2815 14010KT=
201903272300 TAF LRCK 272300Z 2800/2824 32006KT CAVOK
                      BECMG 2807/2809 04010KT
                      BECMG 2813/2815 14010KT
                      BECMG 2818/2820 VRB04KT=
201903280500 TAF LRCK 280500Z 2806/2906 29008KT CAVOK
                      BECMG 2808/2810 04010KT
                      BECMG 2813/2815 14010KT
                      BECMG 2818/2820 VRB04KT
                      PROB30 TEMPO 2903/2906 FEW030CB BKN040=
201903281100 TAF LRCK 281100Z 2812/2912 04008KT CAVOK
                      BECMG 2813/2815 14010KT
                      BECMG 2818/2820 VRB04KT
                      PROB30 TEMPO 2903/2908 FEW030CB BKN040=
201903281700 TAF LRCK 281700Z 2818/2918 14006KT CAVOK
                      BECMG 2902/2904 06010KT
                      PROB30 TEMPO 2904/2910 5000 -RA BKN015 BKN040
                       BECMG 2912/2914 14006KT=
201903282300 TAF LRCK 282300Z 2900/2924 01006KT CAVOK
                      BECMG 2903/2905 07010KT
                      PROB30 TEMPO 2905/2909 5000 -RA BR BKN015
                       BKN040
                      BECMG 2916/2918 14006KT=
201903290500 TAF LRCK 290500Z 2906/3006 35008KT 9999 BKN035
                      PROB30 TEMPO 2906/2908 BKN010 BKN030
                      BECMG 2907/2909 07012KT
                      BECMG 2916/2918 VRB04KT=
201903291100 TAF LRCK 291100Z 2912/3012 06010KT 9999 BKN035
                      TEMPO 2912/2915 SCT025CB OVC035
                      BECMG 2916/2918 VRB04KT=
201903291700 TAF LRCK 291700Z 2918/3018 12006KT CAVOK=
201903292300 TAF LRCK 292300Z 3000/3024 VRB04KT 9999 SCT045
                      BECMG 3006/3008 01010KT
                      BECMG 3012/3014 10010KT
                      BECMG 3018/3020 VRB04KT=
201903300500 TAF LRCK 300500Z 3006/3106 28008KT CAVOK
                      BECMG 3007/3009 35010KT
                      BECMG 3012/3014 10010KT
                      BECMG 3018/3020 VRB04KT=
201903301100 TAF LRCK 301100Z 3012/3112 09010KT 9999 SCT045
                      BECMG 3017/3019 VRB04KT
                      BECMG 3108/3110 09010KT=
201903301700 TAF LRCK 301700Z 3018/3118 VRB04KT CAVOK
                      BECMG 3108/3110 10010KT
                      BECMG 3115/3117 VRB04KT=
201903302300 TAF LRCK 302300Z 3100/3124 VRB04KT CAVOK
                      BECMG 3108/3110 10010KT
                      BECMG 3115/3117 VRB04KT=
201903310500 TAF LRCK 310500Z 3106/0106 32008KT CAVOK
                      BECMG 3108/3110 11010KT
                      BECMG 3116/3119 32006KT=
201903311100 TAF LRCK 311100Z 3112/0112 13010KT CAVOK
                      BECMG 3116/3119 33006KT
                      BECMG 0108/0110 05012KT=
201903311700 TAF LRCK 311700Z 3118/0118 VRB04KT CAVOK
                      BECMG 0108/0110 03012KT
                      BECMG 0114/0116 09010KT=
201903312300 TAF LRCK 312300Z 0100/0124 33006KT CAVOK
                      BECMG 0108/0110 03010KT
                      BECMG 0113/0115 09012KT
                      BECMG 0118/0120 03015KT=
