201904010000 METAR LRCK 010000Z 32010KT CAVOK 06/M01 Q1014 NOSIG=
201904010030 METAR LRCK 010030Z 33009KT CAVOK 05/M02 Q1014 NOSIG=
201904010100 METAR COR LRCK 010100Z 33011KT CAVOK 05/M00 Q1014 NOSIG=
201904010130 METAR LRCK 010130Z 33011KT CAVOK 04/M00 Q1014 NOSIG=
201904010200 METAR LRCK 010200Z 33010KT CAVOK 03/M01 Q1014 NOSIG=
201904010230 METAR LRCK 010230Z 34009KT CAVOK 03/M01 Q1014 NOSIG=
201904010300 METAR COR LRCK 010300Z 34009KT CAVOK 04/M02 Q1014 NOSIG=
201904010330 METAR LRCK 010330Z 34009KT CAVOK 05/M02 Q1014 NOSIG=
201904010400 METAR LRCK 010400Z 34008KT CAVOK 05/M02 Q1015 NOSIG=
201904010430 METAR LRCK 010430Z 34007KT CAVOK 06/M00 Q1015 NOSIG=
201904010500 METAR COR LRCK 010500Z 32006KT CAVOK 09/02 Q1015 NOSIG=
201904010530 METAR LRCK 010530Z 32005KT CAVOK 11/03 Q1015 NOSIG=
201904010600 METAR LRCK 010600Z VRB03KT CAVOK 13/03 Q1015 NOSIG=
201904010630 METAR LRCK 010630Z 02004KT 340V060 CAVOK 14/04 Q1015 NOSIG=
201904010700 METAR LRCK 010700Z 03004KT 340V070 CAVOK 15/04 Q1015 NOSIG=
201904010730 METAR LRCK 010730Z 07004KT 010V120 CAVOK 15/04 Q1015 NOSIG=
201904010800 METAR LRCK 010800Z 01005KT 340V110 CAVOK 17/05 Q1015 NOSIG=
201904010830 METAR LRCK 010830Z 02006KT 350V070 CAVOK 17/05 Q1015 NOSIG=
201904010900 METAR LRCK 010900Z 05006KT 010V090 CAVOK 18/05 Q1015 NOSIG=
201904010930 METAR LRCK 010930Z 05009KT 020V080 CAVOK 18/05 Q1015 NOSIG=
201904011000 METAR LRCK 011000Z 03011KT 350V060 CAVOK 19/04 Q1015 NOSIG=
201904011030 METAR LRCK 011030Z 06008KT 040V100 CAVOK 19/04 Q1015 NOSIG=
201904011100 METAR LRCK 011100Z 07011KT 030V090 CAVOK 19/04 Q1014 NOSIG=
201904011130 METAR LRCK 011130Z 08008KT 040V110 CAVOK 19/04 Q1014 NOSIG=
201904011200 METAR LRCK 011200Z 09010KT CAVOK 19/04 Q1014 NOSIG=
201904011230 METAR LRCK 011230Z 08010KT 050V110 CAVOK 19/04 Q1014 NOSIG=
201904011300 METAR LRCK 011300Z 10010KT CAVOK 19/04 Q1014 NOSIG=
201904011330 METAR LRCK 011330Z 09009KT 060V120 CAVOK 18/04 Q1014 NOSIG=
201904011400 METAR LRCK 011400Z 09009KT CAVOK 18/04 Q1014 NOSIG=
201904011430 METAR LRCK 011430Z 10009KT CAVOK 18/02 Q1014 NOSIG=
201904011500 METAR LRCK 011500Z 09008KT CAVOK 17/02 Q1014 NOSIG=
201904011530 METAR LRCK 011530Z NIL=
201904011600 METAR LRCK 011600Z 09005KT CAVOK 16/03 Q1014 NOSIG=
201904011630 METAR LRCK 011630Z 00000KT CAVOK 14/03 Q1015 BECMG 03012KT=
201904011700 METAR LRCK 011700Z 00000KT CAVOK 12/03 Q1015 BECMG 03012KT=
201904011730 METAR LRCK 011730Z 32003KT CAVOK 13/04 Q1015 BECMG 02012KT=
201904011800 METAR LRCK 011800Z 32004KT CAVOK 13/03 Q1015 BECMG 02012KT=
201904011830 METAR LRCK 011830Z 30005KT CAVOK 10/03 Q1016 BECMG 02012KT=
201904011900 METAR LRCK 011900Z 31006KT CAVOK 12/03 Q1016 BECMG 02012KT=
201904011930 METAR LRCK 011930Z 36010KT CAVOK 13/04 Q1016 NOSIG=
201904012000 METAR LRCK 012000Z 02011KT CAVOK 13/03 Q1016 NOSIG=
201904012030 METAR LRCK 012030Z 35013KT CAVOK 13/02 Q1017 NOSIG=
201904012100 METAR LRCK 012100Z 35015KT CAVOK 12/02 Q1017 NOSIG=
201904012130 METAR LRCK 012130Z 36017KT CAVOK 11/01 Q1017 NOSIG=
201904012200 METAR LRCK 012200Z 01019KT CAVOK 11/M00 Q1018 NOSIG=
201904012230 METAR LRCK 012230Z 02020KT CAVOK 11/M02 Q1018 NOSIG=
201904012300 METAR LRCK 012300Z 02017KT CAVOK 10/M03 Q1018 NOSIG=
201904012330 METAR LRCK 012330Z 01014KT CAVOK 09/M03 Q1019 NOSIG=
201904020000 METAR LRCK 020000Z 01013KT CAVOK 09/M04 Q1019 NOSIG=
201904020030 METAR LRCK 020030Z 02015KT CAVOK 08/M04 Q1019 NOSIG=
201904020100 METAR LRCK 020100Z 36015KT CAVOK 08/M05 Q1019 NOSIG=
201904020130 METAR LRCK 020130Z 01019KT CAVOK 08/M05 Q1019 NOSIG=
201904020200 METAR LRCK 020200Z 35014KT CAVOK 07/M05 Q1020 NOSIG=
201904020230 METAR LRCK 020230Z 36013KT CAVOK 06/M06 Q1020 NOSIG=
201904020300 METAR LRCK 020300Z 36013KT CAVOK 06/M06 Q1020 NOSIG=
201904020330 METAR LRCK 020330Z 36013KT CAVOK 05/M06 Q1021 NOSIG=
201904020400 METAR LRCK 020400Z 36014KT CAVOK 05/M07 Q1021 NOSIG=
201904020430 METAR LRCK 020430Z 36016KT CAVOK 05/M07 Q1021 NOSIG=
201904020500 METAR LRCK 020500Z 01018KT CAVOK 06/M07 Q1022 NOSIG=
201904020530 METAR LRCK 020530Z 01017KT CAVOK 07/M06 Q1022 NOSIG=
201904020600 METAR LRCK 020600Z 01018KT CAVOK 08/M06 Q1022 NOSIG=
201904020630 METAR LRCK 020630Z 01018KT CAVOK 09/M06 Q1022 NOSIG=
201904020700 METAR LRCK 020700Z 02020KT CAVOK 11/M06 Q1022 NOSIG=
201904020730 METAR LRCK 020730Z 01018KT CAVOK 12/M07 Q1022 NOSIG=
201904020800 METAR LRCK 020800Z 01021KT CAVOK 12/M09 Q1022 NOSIG=
201904020830 METAR LRCK 020830Z 02020KT CAVOK 11/M08 Q1022 NOSIG=
201904020900 METAR LRCK 020900Z 01017KT CAVOK 13/M07 Q1022 NOSIG=
201904020930 METAR LRCK 020930Z 02018KT 360V060 CAVOK 13/M09 Q1022 NOSIG=
201904021000 METAR LRCK 021000Z 02016KT CAVOK 13/M08 Q1022 NOSIG=
201904021030 METAR LRCK 021030Z 02015KT CAVOK 13/M06 Q1022 NOSIG=
201904021100 METAR LRCK 021100Z 03015G25KT CAVOK 13/M06 Q1022 NOSIG=
201904021130 METAR LRCK 021130Z 03015KT CAVOK 13/M05 Q1022 NOSIG=
201904021200 METAR LRCK 021200Z 04017KT CAVOK 13/M05 Q1021 NOSIG=
201904021230 METAR LRCK 021230Z 04012KT 360V070 CAVOK 13/M05 Q1021 NOSIG=
201904021300 METAR LRCK 021300Z 07012KT 030V110 CAVOK 12/M01 Q1021 NOSIG=
201904021330 METAR LRCK 021330Z 09013KT CAVOK 12/M00 Q1022 NOSIG=
201904021400 METAR LRCK 021400Z 09012KT CAVOK 10/M01 Q1022 NOSIG=
201904021430 METAR LRCK 021430Z 08012KT CAVOK 10/M01 Q1022 NOSIG=
201904021500 METAR LRCK 021500Z 09012KT CAVOK 09/M01 Q1022 NOSIG=
201904021530 METAR LRCK 021530Z 08011KT CAVOK 09/M01 Q1022 NOSIG=
201904021600 METAR LRCK 021600Z 09010KT CAVOK 08/M02 Q1022 NOSIG=
201904021630 METAR LRCK 021630Z 09008KT CAVOK 07/M02 Q1022 NOSIG=
201904021700 METAR LRCK 021700Z 10009KT CAVOK 06/M02 Q1023 NOSIG=
201904021730 METAR LRCK 021730Z 10007KT CAVOK 05/M03 Q1023 NOSIG=
201904021800 METAR LRCK 021800Z 11004KT CAVOK 05/M03 Q1023 NOSIG=
201904021830 METAR LRCK 021830Z 07003KT CAVOK 05/M03 Q1023 NOSIG=
201904021900 METAR LRCK 021900Z 03002KT CAVOK 05/M02 Q1023 NOSIG=
201904021930 METAR LRCK 021930Z 36003KT CAVOK 05/M02 Q1023 NOSIG=
201904022000 METAR LRCK 022000Z 34004KT CAVOK 04/M03 Q1023 NOSIG=
201904022030 METAR LRCK 022030Z 34004KT CAVOK 04/M03 Q1023 NOSIG=
201904022100 METAR LRCK 022100Z 32005KT CAVOK 02/M04 Q1023 NOSIG=
201904022130 METAR LRCK 022130Z 32006KT CAVOK 02/M04 Q1023 NOSIG=
201904022200 METAR LRCK 022200Z 33006KT CAVOK 01/M03 Q1023 NOSIG=
201904022230 METAR LRCK 022230Z 34005KT CAVOK 02/M04 Q1023 NOSIG=
201904022300 METAR LRCK 022300Z 34008KT CAVOK 02/M03 Q1023 NOSIG=
201904022330 METAR LRCK 022330Z 34007KT CAVOK 00/M04 Q1023 NOSIG=
201904030000 METAR LRCK 030000Z 35008KT CAVOK 01/M05 Q1023 NOSIG=
201904030030 METAR LRCK 030030Z 35009KT CAVOK 01/M05 Q1022 NOSIG=
201904030100 METAR LRCK 030100Z 35010KT CAVOK 01/M06 Q1022 NOSIG=
201904030130 METAR LRCK 030130Z 35010KT CAVOK 02/M06 Q1022 NOSIG=
201904030200 METAR LRCK 030200Z 36011KT CAVOK 02/M06 Q1022 NOSIG=
201904030230 METAR LRCK 030230Z 36010KT CAVOK 02/M06 Q1022 NOSIG=
201904030300 METAR LRCK 030300Z 35010KT CAVOK 01/M06 Q1022 NOSIG=
201904030330 METAR LRCK 030330Z 36010KT CAVOK 02/M07 Q1022 NOSIG=
201904030400 METAR LRCK 030400Z 36009KT CAVOK 01/M06 Q1022 NOSIG=
201904030430 METAR LRCK 030430Z 36008KT CAVOK 03/M05 Q1022 NOSIG=
201904030500 METAR LRCK 030500Z 01008KT CAVOK 05/M04 Q1022 NOSIG=
201904030530 METAR LRCK 030530Z 02009KT CAVOK 06/M02 Q1022 NOSIG=
201904030600 METAR LRCK 030600Z 03008KT CAVOK 07/M01 Q1022 NOSIG=
201904030630 METAR LRCK 030630Z 02006KT 320V060 CAVOK 08/00 Q1023 NOSIG=
201904030700 METAR COR LRCK 030700Z 06012KT CAVOK 09/00 Q1023 NOSIG=
201904030730 METAR LRCK 030730Z 06011KT 9999 FEW030 10/M00 Q1023 NOSIG=
201904030800 METAR LRCK 030800Z 07012KT 9999 FEW045 11/M04 Q1023 NOSIG=
201904030830 METAR LRCK 030830Z 07010KT 020V110 9999 FEW048 11/M08 Q1023
                        NOSIG=
201904030900 METAR LRCK 030900Z 08012KT 050V110 9999 FEW048 10/M07 Q1023
                        NOSIG=
201904030930 METAR LRCK 030930Z 09012KT CAVOK 11/M08 Q1023 NOSIG=
201904031000 METAR LRCK 031000Z 09012KT 050V120 CAVOK 11/M06 Q1022 NOSIG=
201904031030 METAR LRCK 031030Z 09011KT CAVOK 11/M07 Q1022 NOSIG=
201904031100 METAR LRCK 031100Z 09012KT CAVOK 11/M07 Q1022 NOSIG=
201904031130 METAR LRCK 031130Z 09013KT 9999 FEW046 11/M05 Q1022 NOSIG=
201904031200 METAR LRCK 031200Z 09012KT 9999 FEW048 10/M04 Q1022 NOSIG=
201904031230 METAR LRCK 031230Z 09012KT 070V130 9999 FEW048 10/M03 Q1021
                        NOSIG=
201904031300 METAR LRCK 031300Z 11012KT 9999 FEW048 10/M04 Q1021 NOSIG=
201904031330 METAR LRCK 031330Z 11012KT 9999 FEW049 10/M05 Q1021 NOSIG=
201904031400 METAR LRCK 031400Z 10011KT 9999 FEW049 10/M04 Q1021 NOSIG=
201904031430 METAR LRCK 031430Z 10011KT CAVOK 10/M04 Q1021 NOSIG=
201904031500 METAR LRCK 031500Z 11010KT CAVOK 09/M04 Q1021 NOSIG=
201904031530 METAR LRCK 031530Z 11011KT CAVOK 08/M02 Q1021 NOSIG=
201904031600 METAR LRCK 031600Z 12010KT CAVOK 08/M02 Q1021 NOSIG=
201904031630 METAR LRCK 031630Z 11008KT CAVOK 07/M03 Q1021 NOSIG=
201904031700 METAR LRCK 031700Z 12006KT CAVOK 05/M04 Q1021 NOSIG=
201904031730 METAR LRCK 031730Z 12006KT CAVOK 04/M04 Q1021 NOSIG=
201904031800 METAR LRCK 031800Z 13005KT CAVOK 03/M04 Q1021 NOSIG=
201904031830 METAR LRCK 031830Z 13005KT CAVOK 03/M04 Q1021 NOSIG=
201904031900 METAR LRCK 031900Z 14003KT CAVOK 03/M03 Q1021 NOSIG=
201904031930 METAR LRCK 031930Z 11001KT CAVOK 02/M03 Q1021 NOSIG=
201904032000 METAR LRCK 032000Z 05003KT CAVOK 02/M03 Q1021 NOSIG=
201904032030 METAR LRCK 032030Z 03003KT CAVOK 02/M02 Q1021 NOSIG=
201904032100 METAR LRCK 032100Z 36004KT CAVOK 02/M03 Q1021 NOSIG=
201904032130 METAR LRCK 032130Z 03005KT CAVOK 01/M04 Q1021 NOSIG=
201904032200 METAR LRCK 032200Z 04004KT CAVOK 01/M03 Q1021 NOSIG=
201904032230 METAR LRCK 032230Z 03005KT CAVOK 01/M03 Q1020 NOSIG=
201904032300 METAR LRCK 032300Z 02005KT CAVOK 00/M03 Q1020 NOSIG=
201904032330 METAR LRCK 032330Z 03004KT CAVOK 00/M03 Q1020 NOSIG=
201904040000 METAR LRCK 040000Z 04005KT CAVOK 01/M03 Q1020 NOSIG=
201904040030 METAR LRCK 040030Z 03003KT CAVOK M00/M04 Q1020 NOSIG=
201904040100 METAR LRCK 040100Z 03003KT CAVOK 00/M04 Q1019 NOSIG=
201904040130 METAR LRCK 040130Z 03003KT CAVOK 00/M04 Q1019 NOSIG=
201904040200 METAR LRCK 040200Z 02003KT CAVOK 00/M04 Q1019 NOSIG=
201904040230 METAR LRCK 040230Z 02005KT CAVOK M01/M05 Q1019 NOSIG=
201904040300 METAR LRCK 040300Z 01005KT CAVOK M01/M04 Q1019 NOSIG=
201904040330 METAR LRCK 040330Z 01005KT CAVOK M01/M04 Q1019 NOSIG=
201904040400 METAR LRCK 040400Z 02006KT CAVOK M01/M04 Q1019 NOSIG=
201904040430 METAR LRCK 040430Z 02007KT CAVOK M00/M04 Q1019 NOSIG=
201904040500 METAR LRCK 040500Z 03005KT CAVOK 02/M03 Q1019 NOSIG=
201904040530 METAR LRCK 040530Z 03004KT CAVOK 04/M01 Q1020 NOSIG=
201904040600 METAR LRCK 040600Z 08004KT 9999 SCT034 06/M01 Q1020 NOSIG=
201904040630 METAR LRCK 040630Z 10006KT 070V130 9999 BKN033 08/M00 Q1020
                        NOSIG=
201904040700 METAR LRCK 040700Z 11012KT 080V140 9999 BKN034 08/M01 Q1020
                        NOSIG=
201904040730 METAR LRCK 040730Z 14011KT 9999 BKN035 08/M01 Q1020 NOSIG=
201904040800 METAR LRCK 040800Z 14010KT 9999 BKN037 09/M01 Q1020 NOSIG=
201904040830 METAR LRCK 040830Z 13010KT 9999 BKN039 09/M01 Q1020 NOSIG=
201904040900 METAR LRCK 040900Z 11012KT 9999 BKN035 10/00 Q1020 NOSIG=
201904040930 METAR LRCK 040930Z 12011KT 9999 BKN037 09/M01 Q1020 NOSIG=
201904041000 METAR LRCK 041000Z 14014KT 9999 BKN035 10/M00 Q1020 NOSIG=
201904041030 METAR LRCK 041030Z 13013KT 9999 BKN035 09/01 Q1020 NOSIG=
201904041100 METAR LRCK 041100Z 12013KT 9999 BKN031 10/01 Q1020 NOSIG=
201904041130 METAR LRCK 041130Z 13013KT 9999 SCT031 10/00 Q1019 NOSIG=
201904041200 METAR LRCK 041200Z 13012KT 100V160 9999 BKN032 10/00 Q1019
                        NOSIG=
201904041230 METAR LRCK 041230Z 13013KT 9999 SCT035 10/00 Q1019 NOSIG=
201904041300 METAR LRCK 041300Z 12014KT 9999 SCT034 10/00 Q1019 NOSIG=
201904041330 METAR LRCK 041330Z 13011KT 9999 SCT028 10/00 Q1018 NOSIG=
201904041400 METAR LRCK 041400Z 13011KT 9999 SCT026 10/M00 Q1018 NOSIG=
201904041430 METAR LRCK 041430Z 12011KT 9999 FEW027 09/M01 Q1018 NOSIG=
201904041500 METAR LRCK 041500Z 13012KT 9999 FEW027 09/00 Q1018 NOSIG=
201904041530 METAR LRCK 041530Z 13013KT 9999 FEW030 08/M00 Q1018 NOSIG=
201904041600 METAR LRCK 041600Z 13012KT 9999 FEW028 08/01 Q1018 NOSIG=
201904041630 METAR LRCK 041630Z 13010KT 9999 FEW030 07/M00 Q1018 NOSIG=
201904041700 METAR LRCK 041700Z 14009KT 9999 FEW030 06/00 Q1018 NOSIG=
201904041730 METAR LRCK 041730Z 14007KT 9999 FEW027 05/00 Q1018 NOSIG=
201904041800 METAR LRCK 041800Z 15008KT 9999 FEW027 04/00 Q1018 NOSIG=
201904041830 METAR LRCK 041830Z 14007KT 9999 SCT027 05/00 Q1018 NOSIG=
201904041900 METAR LRCK 041900Z 14006KT 9999 FEW028 04/00 Q1018 NOSIG=
201904041930 METAR LRCK 041930Z 14006KT 9999 FEW028 04/00 Q1018 NOSIG=
201904042000 METAR LRCK 042000Z 14006KT CAVOK 04/M00 Q1018 NOSIG=
201904042030 METAR LRCK 042030Z 14007KT CAVOK 03/M02 Q1018 NOSIG=
201904042100 METAR LRCK 042100Z 14006KT CAVOK 03/M01 Q1018 NOSIG=
201904042130 METAR COR LRCK 042130Z 14007KT CAVOK 03/M00 Q1018 NOSIG=
201904042200 METAR LRCK 042200Z 13006KT 9999 FEW026 02/M01 Q1018 NOSIG=
201904042230 METAR LRCK 042230Z 14006KT 9999 FEW025 03/M00 Q1018 NOSIG=
201904042300 METAR LRCK 042300Z 14006KT 9999 FEW025 03/00 Q1018 NOSIG=
201904042330 METAR LRCK 042330Z 14005KT 9999 SCT025 02/M01 Q1017 NOSIG=
201904050000 METAR LRCK 050000Z 15006KT 9999 SCT026 03/00 Q1017 NOSIG=
201904050030 METAR LRCK 050030Z 15006KT 9999 SCT025 03/01 Q1017 NOSIG=
201904050100 METAR LRCK 050100Z 13004KT 9999 SCT023 03/01 Q1017 NOSIG=
201904050130 METAR COR LRCK 050130Z 14006KT 9999 BKN022 03/01 Q1017 TEMPO
                        BKN010=
201904050200 METAR LRCK 050200Z 14006KT 9999 SCT023 03/01 Q1017 TEMPO
                        BKN010=
201904050230 METAR LRCK 050230Z 13006KT 9999 FEW021 SCT026 03/01 Q1017
                        TEMPO BKN010=
201904050300 METAR LRCK 050300Z 13007KT 9999 SCT022 SCT028 04/02 Q1017
                        TEMPO BKN010=
201904050330 METAR LRCK 050330Z 13007KT 9999 SCT022 BKN029 04/01 Q1017
                        NOSIG=
201904050400 METAR LRCK 050400Z 12008KT 9999 FEW018 BKN027 06/03 Q1017
                        NOSIG=
201904050430 METAR LRCK 050430Z 12009KT 9999 FEW018 BKN025 07/04 Q1017
                        NOSIG=
201904050500 METAR LRCK 050500Z 13012KT 9999 SCT018 BKN026 08/04 Q1017
                        NOSIG=
201904050530 METAR LRCK 050530Z 13014KT 9999 SCT017 BKN029 09/04 Q1018
                        NOSIG=
201904050600 METAR LRCK 050600Z 13013KT 9999 SCT016 BKN028 08/04 Q1018
                        NOSIG=
201904050630 METAR LRCK 050630Z 13018KT 9999 FEW018 BKN028 10/04 Q1018
                        NOSIG=
201904050700 METAR LRCK 050700Z 13017KT 9999 BKN025 10/04 Q1018 NOSIG=
201904050730 METAR LRCK 050730Z 13016KT 9999 BKN026 10/03 Q1018 NOSIG=
201904050800 METAR LRCK 050800Z 13016KT 9999 BKN026 10/02 Q1018 NOSIG=
201904050830 METAR LRCK 050830Z 13016KT 9999 BKN024 10/03 Q1018 NOSIG=
201904050900 METAR LRCK 050900Z 13016KT 9999 BKN026 09/03 Q1018 NOSIG=
201904050930 METAR LRCK 050930Z 12016KT 9999 BKN026 10/03 Q1018 NOSIG=
201904051000 METAR LRCK 051000Z 12017KT 9999 BKN027 10/03 Q1018 NOSIG=
201904051030 METAR LRCK 051030Z 12016KT 9999 BKN027 10/03 Q1018 NOSIG=
201904051100 METAR LRCK 051100Z 13017KT 9999 BKN025 10/03 Q1018 NOSIG=
201904051130 METAR LRCK 051130Z 13017KT 9999 BKN025 10/03 Q1018 NOSIG=
201904051200 METAR LRCK 051200Z 12017KT 9999 BKN025 10/03 Q1018 NOSIG=
201904051230 METAR LRCK 051230Z 12016KT 9999 BKN024 10/03 Q1018 NOSIG=
201904051300 METAR LRCK 051300Z 13017KT 9999 BKN024 10/03 Q1017 NOSIG=
201904051330 METAR LRCK 051330Z 12017KT 9999 BKN023 11/03 Q1017 NOSIG=
201904051400 METAR LRCK 051400Z 12016KT 9999 BKN022 10/03 Q1017 NOSIG=
201904051430 METAR LRCK 051430Z 12016KT 9999 BKN022 10/03 Q1016 NOSIG=
201904051500 METAR LRCK 051500Z 12015KT 9999 FEW016 BKN022 09/04 Q1016
                        NOSIG=
201904051530 METAR LRCK 051530Z 12015KT 9999 BKN022 09/05 Q1016 NOSIG=
201904051600 METAR LRCK 051600Z 12014KT 9999 BKN022 08/05 Q1016 NOSIG=
201904051630 METAR LRCK 051630Z 12014KT 9999 BKN022 08/05 Q1016 NOSIG=
201904051700 METAR LRCK 051700Z 12012KT 9999 BKN022 08/04 Q1016 NOSIG=
201904051730 METAR LRCK 051730Z 11012KT 9999 BKN021 08/04 Q1016 NOSIG=
201904051800 METAR LRCK 051800Z 11013KT 9999 BKN022 08/04 Q1016 NOSIG=
201904051830 METAR LRCK 051830Z 12013KT 9999 BKN020 08/03 Q1016 NOSIG=
201904051900 METAR LRCK 051900Z 12013KT 9999 BKN020 08/04 Q1016 NOSIG=
201904051930 METAR LRCK 051930Z 12010KT 9999 SCT012 BKN020 08/03 Q1016
                        NOSIG=
201904052000 METAR LRCK 052000Z 12013KT 9999 SCT012 BKN020 08/05 Q1016
                        NOSIG=
201904052030 METAR LRCK 052030Z 12014KT 9999 FEW013 BKN020 08/03 Q1016
                        NOSIG=
201904052100 METAR LRCK 052100Z 12014KT 9999 BKN022 08/03 Q1016 NOSIG=
201904052130 METAR LRCK 052130Z 12013KT 9999 BKN021 08/04 Q1016 NOSIG=
201904052200 METAR LRCK 052200Z 12013KT 9999 BKN021 08/04 Q1016 NOSIG=
201904052230 METAR LRCK 052230Z 12013KT 9999 OVC020 08/04 Q1016 NOSIG=
201904052300 METAR LRCK 052300Z 13012KT 9999 OVC020 08/03 Q1016 NOSIG=
201904052330 METAR LRCK 052330Z 13011KT 9999 OVC020 08/04 Q1016 NOSIG=
201904060000 METAR LRCK 060000Z 14012KT 9999 OVC021 08/03 Q1016 NOSIG=
201904060030 METAR LRCK 060030Z 12012KT 9999 OVC021 08/03 Q1016 NOSIG=
201904060100 METAR LRCK 060100Z 12011KT 9999 OVC021 08/04 Q1015 NOSIG=
201904060130 METAR LRCK 060130Z 12009KT 9999 OVC020 08/04 Q1015 NOSIG=
201904060200 METAR LRCK 060200Z 12011KT 9999 OVC020 08/03 Q1015 NOSIG=
201904060230 METAR LRCK 060230Z 12010KT 9999 OVC020 08/03 Q1015 NOSIG=
201904060300 METAR LRCK 060300Z 12008KT 9999 OVC020 08/03 Q1015 NOSIG=
201904060330 METAR LRCK 060330Z 11009KT 9999 SCT015 OVC020 08/04 Q1015
                        NOSIG=
201904060400 METAR LRCK 060400Z 11010KT 9999 SCT016 OVC020 08/04 Q1015
                        NOSIG=
201904060430 METAR LRCK 060430Z 11011KT 9999 BKN017 OVC020 08/04 Q1015
                        NOSIG=
201904060500 METAR LRCK 060500Z 11011KT 9999 BKN017 OVC020 08/04 Q1015
                        NOSIG=
201904060530 METAR LRCK 060530Z 09011KT 9999 BKN015 OVC020 08/04 Q1015
                        NOSIG=
201904060600 METAR LRCK 060600Z 08014KT 9999 BKN015 OVC020 08/05 Q1015
                        NOSIG=
201904060630 METAR LRCK 060630Z 09015KT 9999 BKN016 OVC020 08/04 Q1015
                        NOSIG=
201904060700 METAR LRCK 060700Z 09015KT 9999 BKN016 OVC020 09/04 Q1016
                        NOSIG=
201904060730 METAR LRCK 060730Z 09015KT 9999 SCT017 BKN022 09/04 Q1016
                        NOSIG=
201904060800 METAR LRCK 060800Z 09015KT 9999 SCT017 BKN021 10/04 Q1016
                        NOSIG=
201904060830 METAR LRCK 060830Z 09015KT 9999 SCT017 BKN021 10/05 Q1016
                        NOSIG=
201904060900 METAR LRCK 060900Z 09015KT 9999 FEW015 BKN019 09/05 Q1016
                        NOSIG=
201904060930 METAR LRCK 060930Z 09016KT 9999 FEW015 BKN019 10/05 Q1016
                        NOSIG=
201904061000 METAR LRCK 061000Z 09015KT 9999 FEW015 BKN018 10/05 Q1016
                        NOSIG=
201904061030 METAR LRCK 061030Z 10013KT 9999 BKN018 10/05 Q1016 NOSIG=
201904061100 METAR LRCK 061100Z 09013KT 9999 BKN020 11/05 Q1015 NOSIG=
201904061130 METAR LRCK 061130Z 10011KT 9999 SCT021 11/04 Q1015 NOSIG=
201904061200 METAR LRCK 061200Z 10011KT 9999 SCT023 11/04 Q1015 NOSIG=
201904061230 METAR LRCK 061230Z 10012KT 9999 FEW025 12/02 Q1015 NOSIG=
201904061300 METAR LRCK 061300Z 10013KT 9999 FEW025 12/02 Q1014 NOSIG=
201904061330 METAR LRCK 061330Z 10012KT 9999 FEW025 12/02 Q1014 NOSIG=
201904061400 METAR LRCK 061400Z 09013KT CAVOK 11/03 Q1014 NOSIG=
201904061430 METAR LRCK 061430Z 10013KT CAVOK 11/03 Q1014 NOSIG=
201904061500 METAR LRCK 061500Z 09013KT CAVOK 11/00 Q1014 NOSIG=
201904061530 METAR LRCK 061530Z 09013KT CAVOK 10/03 Q1014 NOSIG=
201904061600 METAR LRCK 061600Z 09011KT CAVOK 09/05 Q1014 NOSIG=
201904061630 METAR LRCK 061630Z 08010KT CAVOK 08/05 Q1014 NOSIG=
201904061700 METAR LRCK 061700Z 09009KT CAVOK 08/05 Q1014 NOSIG=
201904061730 METAR LRCK 061730Z 08009KT CAVOK 07/05 Q1014 NOSIG=
201904061800 METAR LRCK 061800Z 08009KT CAVOK 07/05 Q1014 NOSIG=
201904061830 METAR LRCK 061830Z 09009KT CAVOK 06/05 Q1014 NOSIG=
201904061900 METAR LRCK 061900Z 08008KT CAVOK 06/05 Q1014 NOSIG=
201904061930 METAR LRCK 061930Z 07006KT 8000 NSC 05/05 Q1014 NOSIG=
201904062000 METAR LRCK 062000Z 09005KT 8000 NSC 05/05 Q1014 NOSIG=
201904062030 METAR LRCK 062030Z 08005KT 5000 BR NSC 05/05 Q1014 TEMPO
                        1500 BR=
201904062100 METAR LRCK 062100Z 06006KT 3000 BR NSC 05/05 Q1014 TEMPO
                        1500 BR=
201904062130 METAR LRCK 062130Z 04005KT 0800 R18/1700U R36/0600D FG NSC
                        04/04 Q1014 NOSIG=
201904062200 METAR LRCK 062200Z 05006KT 0400 R18/0500N R36/0375N FG VV002
                        04/04 Q1014 NOSIG=
201904062230 METAR LRCK 062230Z 03005KT 0400 R18/0600N R36/0450N FG VV001
                        04/04 Q1013 NOSIG=
201904062300 METAR LRCK 062300Z 04005KT 0800 R18/0900N R36/0400N FG FEW004
                        05/05 Q1013 NOSIG=
201904062330 METAR LRCK 062330Z 03006KT 1500 BR NSC 04/04 Q1013 NOSIG=
201904070000 METAR LRCK 070000Z 03005KT 8000 NSC 05/05 Q1013 NOSIG=
201904070030 METAR LRCK 070030Z 02007KT 8000 NSC 04/04 Q1012 NOSIG=
201904070100 METAR LRCK 070100Z 02007KT 6000 NSC 04/04 Q1012 NOSIG=
201904070130 METAR LRCK 070130Z 02007KT 6000 NSC 04/04 Q1012 NOSIG=
201904070200 METAR LRCK 070200Z 03009KT 6000 NSC 04/04 Q1011 NOSIG=
201904070230 METAR LRCK 070230Z 04010KT 6000 NSC 05/05 Q1011 NOSIG=
201904070300 METAR LRCK 070300Z 04009KT 7000 NSC 06/05 Q1011 NOSIG=
201904070330 METAR LRCK 070330Z 05010KT 8000 NSC 06/05 Q1011 NOSIG=
201904070400 METAR LRCK 070400Z 05009KT CAVOK 06/05 Q1011 NOSIG=
201904070430 METAR LRCK 070430Z 06009KT CAVOK 07/05 Q1011 NOSIG=
201904070500 METAR LRCK 070500Z 05010KT CAVOK 07/05 Q1011 NOSIG=
201904070530 METAR LRCK 070530Z 05010KT CAVOK 08/06 Q1011 NOSIG=
201904070600 METAR LRCK 070600Z 05010KT CAVOK 09/07 Q1011 NOSIG=
201904070630 METAR LRCK 070630Z 05011KT CAVOK 10/06 Q1011 NOSIG=
201904070700 METAR LRCK 070700Z 05013KT CAVOK 11/07 Q1011 NOSIG=
201904070730 METAR LRCK 070730Z 06015KT CAVOK 13/06 Q1011 NOSIG=
201904070800 METAR LRCK 070800Z 06013KT CAVOK 14/05 Q1011 NOSIG=
201904070830 METAR LRCK 070830Z 07016KT CAVOK 14/05 Q1011 NOSIG=
201904070900 METAR LRCK 070900Z 08013KT CAVOK 14/05 Q1011 NOSIG=
201904070930 METAR LRCK 070930Z 08013KT CAVOK 14/06 Q1011 NOSIG=
201904071000 METAR LRCK 071000Z 07013KT CAVOK 14/06 Q1011 NOSIG=
201904071030 METAR LRCK 071030Z 08015KT CAVOK 14/06 Q1011 NOSIG=
201904071100 METAR LRCK 071100Z 08016KT CAVOK 13/06 Q1011 NOSIG=
201904071130 METAR LRCK 071130Z 08015KT CAVOK 13/06 Q1010 NOSIG=
201904071200 METAR LRCK 071200Z 08014KT CAVOK 13/07 Q1010 NOSIG=
201904071230 METAR LRCK 071230Z 08012KT CAVOK 13/06 Q1010 NOSIG=
201904071300 METAR LRCK 071300Z 07013KT CAVOK 13/07 Q1009 NOSIG=
201904071330 METAR LRCK 071330Z 07013KT CAVOK 13/07 Q1009 NOSIG=
201904071400 METAR LRCK 071400Z 08011KT CAVOK 12/07 Q1009 NOSIG=
201904071430 METAR LRCK 071430Z 08012KT CAVOK 12/07 Q1009 NOSIG=
201904071500 METAR LRCK 071500Z 07012KT CAVOK 11/07 Q1009 NOSIG=
201904071530 METAR LRCK 071530Z 08011KT 9999 SCT012 11/08 Q1009 NOSIG=
201904071600 METAR LRCK 071600Z 08009KT 9999 BKN011 10/08 Q1009 NOSIG=
201904071630 METAR LRCK 071630Z 09008KT 9999 BKN010 10/08 Q1009 NOSIG=
201904071700 METAR LRCK 071700Z 10007KT 9999 BKN010 10/08 Q1009 NOSIG=
201904071730 METAR LRCK 071730Z 10006KT 8000 BKN007 10/08 Q1009 NOSIG=
201904071800 METAR LRCK 071800Z 11005KT 6000 BKN006 09/08 Q1010 NOSIG=
201904071830 METAR LRCK 071830Z 11005KT 6000 BKN006 09/08 Q1010 NOSIG=
201904071900 METAR COR LRCK 071900Z 11005KT 4000 BR BKN007 09/08 Q1009
                        BECMG 3000 BR BKN005=
201904071930 METAR LRCK 071930Z 12003KT 2000 BR BKN003 08/08 Q1009 BECMG
                        1500 BR BKN001=
201904072000 METAR LRCK 072000Z 12005KT 1500 BR BKN002 08/07 Q1009 NOSIG=
201904072030 METAR LRCK 072030Z 12004KT 1500 BR BKN002 08/08 Q1009 NOSIG=
201904072100 METAR LRCK 072100Z 13004KT 1500 BR BKN002 08/07 Q1009 NOSIG=
201904072130 METAR LRCK 072130Z 11003KT 1500 BR SCT002 08/07 Q1009 NOSIG=
201904072200 METAR LRCK 072200Z 12005KT 1500 BR SCT002 08/08 Q1009 NOSIG=
201904072230 METAR LRCK 072230Z 14005KT 1500 BR SCT004 08/08 Q1009 NOSIG=
201904072300 METAR LRCK 072300Z 15005KT 1500 BR BKN003 09/08 Q1009 NOSIG=
201904072330 METAR LRCK 072330Z 14005KT 1500 BR BKN003 09/09 Q1009 NOSIG=
201904080000 METAR LRCK 080000Z 15006KT 2000 -RA BR SCT004 09/09 Q1009
                        NOSIG=
201904080030 METAR LRCK 080030Z 15004KT 2000 BR FEW005 09/08 Q1009 NOSIG=
201904080100 METAR LRCK 080100Z 17004KT 2000 BR SCT049 09/09 Q1008 NOSIG=
201904080130 METAR LRCK 080130Z 18003KT 2000 BR FEW004 SCT049 09/09 Q1008
                        NOSIG=
201904080200 METAR LRCK 080200Z VRB01KT 2500 BR FEW004 SCT043 09/09 Q1008
                        NOSIG=
201904080230 METAR LRCK 080230Z 18001KT 2500 BR BKN037 09/09 Q1008 NOSIG=
201904080300 METAR LRCK 080300Z 00000KT 3000 BR BKN030 09/09 Q1008 NOSIG=
201904080330 METAR LRCK 080330Z 13001KT 2000 BR SCT023 09/09 Q1008 TEMPO
                        1500 BR=
201904080400 METAR LRCK 080400Z 00000KT 1500 -RA BR SCT030 09/09 Q1008
                        NOSIG=
201904080430 METAR LRCK 080430Z 07004KT 1500 -RA BR BKN025 10/09 Q1008
                        NOSIG=
201904080500 METAR LRCK 080500Z 08004KT 0800 R18/1600D R36/1600D FG FEW002
                        BKN026 10/10 Q1008 BECMG 1500 BR=
201904080530 METAR LRCK 080530Z 08008KT 0800 R18/0600N R36/1600D FG BKN001
                        OVC032 10/10 Q1008 R36/29//95 BECMG
                        1500 BR BKN002 OVC030=
201904080600 METAR LRCK 080600Z 10007KT 0800 R18/0800N R36/1600D -SHRA
                        FG BKN001 SCT030CB 10/10 Q1008 R36/29//95
                        NOSIG=
201904080630 METAR LRCK 080630Z 08010KT 1000 R18/1300N R36/1800N BR BKN002
                        10/10 Q1008 R36/29//95 BECMG 3000
                        BKN005=
201904080700 METAR LRCK 080700Z 10009KT 1500 BR BKN002 11/11 Q1008 R36/29//95
                        BECMG 3000 BKN005=
201904080730 METAR LRCK 080730Z 10010KT 7000 BKN005 11/11 Q1009 R36/29//95
                        BECMG BKN010=
201904080800 METAR LRCK 080800Z 11011KT 6000 BKN004 11/11 Q1009 R36/29//95
                        NOSIG=
201904080830 METAR LRCK 080830Z 11011KT 6000 BKN004 11/11 Q1009 R36/29//95
                        BECMG BKN010=
201904080900 METAR LRCK 080900Z 12012KT 6000 BKN005 OVC023 11/10 Q1008
                        R36/29//95 BECMG SCT010 BKN025=
201904080930 METAR LRCK 080930Z 11013KT 7000 BKN005 OVC022 11/10 Q1008
                        R36/29//95 BECMG SCT010 BKN025=
201904081000 METAR LRCK 081000Z 12011KT 6000 SCT004 OVC019 11/10 Q1008
                        R36/29//95 NOSIG=
201904081030 METAR LRCK 081030Z 11010KT 7000 FEW005 SCT018 BKN045 11/10
                        Q1008 R36/CLRD// NOSIG=
201904081100 METAR LRCK 081100Z 11010KT 8000 SCT017 BKN045 11/10 Q1008
                        NOSIG=
201904081130 METAR LRCK 081130Z 11010KT 8000 FEW007 SCT022 BKN042 12/10
                        Q1008 NOSIG=
201904081200 METAR LRCK 081200Z 12010KT 9999 SCT020 BKN034 13/11 Q1007
                        NOSIG=
201904081230 METAR LRCK 081230Z 11011KT 9999 BKN027 13/09 Q1007 NOSIG=
201904081300 METAR LRCK 081300Z 10010KT 9999 BKN030 12/09 Q1007 NOSIG=
201904081330 METAR LRCK 081330Z 10011KT 8000 SCT023 BKN030 12/09 Q1007
                        NOSIG=
201904081400 METAR LRCK 081400Z 11011KT 8000 BKN023 12/09 Q1007 NOSIG=
201904081430 METAR LRCK 081430Z 10010KT 9999 FEW017 BKN022 12/09 Q1006
                        NOSIG=
201904081500 METAR LRCK 081500Z 08010KT 7000 FEW014 BKN022 12/09 Q1006
                        NOSIG=
201904081530 METAR LRCK 081530Z 08010KT 6000 SCT023 11/10 Q1006 NOSIG=
201904081600 METAR LRCK 081600Z 08010KT 5000 BR SCT004 11/09 Q1006 BECMG
                        BKN004=
201904081630 METAR LRCK 081630Z 08009KT 2500 BR BKN003 10/09 Q1006 BECMG
                        BKN002=
201904081700 METAR LRCK 081700Z 08009KT 2500 BR BKN003 10/09 Q1006 NOSIG=
201904081730 METAR LRCK 081730Z 08010KT 2500 BR SCT002 BKN003 09/09 Q1007
                        TEMPO SCT007=
201904081800 METAR LRCK 081800Z 07008KT 1700 BR SCT004 08/08 Q1007 NOSIG=
201904081830 METAR LRCK 081830Z 07008KT 1500 BR BKN002 09/09 Q1006 NOSIG=
201904081900 METAR LRCK 081900Z 07008KT 1500 BR BKN001 08/08 Q1006 TEMPO
                        0800 FG=
201904081930 METAR LRCK 081930Z 07007KT 0200 R36/0550D FG BKN001 08/08
                        Q1006 NOSIG=
201904082000 METAR LRCK 082000Z 06006KT 0400 R36/0800U FG BKN003 07/07
                        Q1006 BECMG 0600 SCT005=
201904082030 METAR LRCK 082030Z 05007KT 0800 R36/1500U FG SCT002 06/06
                        Q1006 TEMPO 1500 BR=
201904082100 METAR LRCK 082100Z 04007KT 1500 BR SCT002 06/06 Q1005 BECMG
                        3000=
201904082130 METAR LRCK 082130Z 04007KT 3000 BR FEW003 05/06 Q1005 BECMG
                        5000=
201904082200 METAR LRCK 082200Z 04005KT 2500 BR NSC 06/06 Q1005 BECMG
                        5000=
201904082230 METAR LRCK 082230Z 03008KT 2500 BR NSC 06/06 Q1005 BECMG
                        5000=
201904082300 METAR COR LRCK 082300Z 04007KT 1500 BR SCT004 07/07 Q1005
                        TEMPO 0600=
201904082330 METAR LRCK 082330Z 04006KT 0100 R36/0275N FG VV001 07/07
                        Q1004 TEMPO 0800=
201904090000 METAR LRCK 090000Z 04009KT 0100 R36/0400N FG VV001 08/08
                        Q1004 TEMPO 0800=
201904090030 METAR LRCK 090030Z 03011KT 0100 R36/0400N FG VV001 08/08
                        Q1004 TEMPO 0800 VV002=
201904090100 METAR LRCK 090100Z 03012KT 0800 R36/0800 FG SCT001 08/08
                        Q1004 TEMPO 1500 BR=
201904090130 METAR LRCK 090130Z 03012KT 1500 BR NSC 08/08 Q1004 BECMG
                        3000=
201904090200 METAR LRCK 090200Z 04013KT 3000 BR NSC 08/08 Q1003 NOSIG=
201904090230 METAR LRCK 090230Z 04013KT 3000 BR NSC 07/07 Q1003 NOSIG=
201904090300 METAR LRCK 090300Z 03011KT 3000 BR NSC 08/08 Q1003 BECMG
                        5000=
201904090330 METAR LRCK 090330Z 03010KT 5000 BR NSC 08/07 Q1003 TEMPO
                        7000 NSW=
201904090400 METAR LRCK 090400Z 03012KT 5000 BR NSC 08/07 Q1003 TEMPO
                        7000 NSW=
201904090430 METAR LRCK 090430Z 03012KT 5000 BR NSC 08/08 Q1003 TEMPO
                        7000 NSW=
201904090500 METAR LRCK 090500Z 04012KT 6000 NSC 09/08 Q1003 NOSIG=
201904090530 METAR LRCK 090530Z 04012KT 6000 NSC 10/09 Q1003 NOSIG=
201904090600 METAR LRCK 090600Z 05012KT 8000 NSC 11/09 Q1003 NOSIG=
201904090630 METAR LRCK 090630Z 05012KT CAVOK 11/10 Q1003 NOSIG=
201904090700 METAR LRCK 090700Z 05015KT CAVOK 12/09 Q1003 NOSIG=
201904090730 METAR LRCK 090730Z 05014KT CAVOK 14/10 Q1003 NOSIG=
201904090800 METAR LRCK 090800Z 05016KT CAVOK 14/11 Q1003 NOSIG=
201904090830 METAR LRCK 090830Z 05017KT CAVOK 16/09 Q1003 NOSIG=
201904090900 METAR LRCK 090900Z 04018KT CAVOK 16/10 Q1003 NOSIG=
201904090930 METAR LRCK 090930Z 06017KT CAVOK 16/08 Q1003 NOSIG=
201904091000 METAR LRCK 091000Z 07017KT CAVOK 17/07 Q1003 NOSIG=
201904091030 METAR LRCK 091030Z 07017KT CAVOK 16/06 Q1003 NOSIG=
201904091100 METAR LRCK 091100Z 06018KT CAVOK 16/06 Q1003 NOSIG=
201904091130 METAR LRCK 091130Z 06017KT CAVOK 15/06 Q1003 NOSIG=
201904091200 METAR LRCK 091200Z 07019KT CAVOK 15/07 Q1003 NOSIG=
201904091230 METAR LRCK 091230Z 07016KT 9999 FEW040CB 14/10 Q1003 NOSIG=
201904091300 METAR LRCK 091300Z 06016KT 9999 FEW045CB 15/08 Q1003 NOSIG=
201904091330 METAR LRCK 091330Z 06018KT 9999 FEW048CB 17/07 Q1003 NOSIG=
201904091400 METAR LRCK 091400Z 07018KT 9999 FEW049CB 16/05 Q1002 NOSIG=
201904091430 METAR LRCK 091430Z 07016KT 9999 FEW050CB 15/04 Q1003 NOSIG=
201904091500 METAR LRCK 091500Z 08015KT 9999 FEW050CB 15/05 Q1003 NOSIG=
201904091530 METAR LRCK 091530Z 07014KT CAVOK 14/06 Q1003 NOSIG=
201904091600 METAR LRCK 091600Z 09013KT CAVOK 13/07 Q1003 NOSIG=
201904091630 METAR LRCK 091630Z 07010KT 9999 FEW050CB 12/07 Q1003 NOSIG=
201904091700 METAR LRCK 091700Z 06010KT 9999 FEW050CB 11/07 Q1003 NOSIG=
201904091730 METAR LRCK 091730Z 07009KT 9999 FEW050CB 11/07 Q1004 NOSIG=
201904091800 METAR LRCK 091800Z 06009KT 9999 FEW050CB 10/09 Q1004 NOSIG=
201904091830 METAR LRCK 091830Z 07007KT 9999 FEW050CB 10/09 Q1004 NOSIG=
201904091900 METAR LRCK 091900Z 07007KT 9999 -SHRA FEW050CB 10/09 Q1004
                        NOSIG=
201904091930 METAR LRCK 091930Z 07007KT 8000 -SHRA FEW050CB 09/09 Q1004
                        NOSIG=
201904092000 METAR LRCK 092000Z 08006KT 7000 FEW050CB 09/09 Q1004 NOSIG=
201904092030 METAR LRCK 092030Z 08007KT 6000 -SHRA FEW050CB 09/09 Q1004
                        NOSIG=
201904092100 METAR LRCK 092100Z 07006KT 5000 BR NSC 09/09 Q1004 NOSIG=
201904092130 METAR LRCK 092130Z 09005KT 5000 BR NSC 09/08 Q1004 BECMG
                        3000 BR=
201904092200 METAR LRCK 092200Z 06004KT 4000 BR NSC 08/08 Q1004 BECMG
                        3000 BR=
201904092230 METAR LRCK 092230Z 02003KT 330V050 4000 BR FEW005 08/07 Q1004
                        BECMG 3000 BR=
201904092300 METAR LRCK 092300Z 33004KT 5000 BR NSC 08/08 Q1003 NOSIG=
201904092330 METAR LRCK 092330Z 35004KT 6000 NSC 08/08 Q1004 NOSIG=
201904100000 METAR LRCK 100000Z 34005KT 6000 -RA NSC 09/08 Q1004 NOSIG=
201904100030 METAR LRCK 100030Z 35002KT 6000 FEW046 09/08 Q1004 NOSIG=
201904100100 METAR LRCK 100100Z 15001KT 5000 -RA BR SCT047 09/09 Q1004
                        NOSIG=
201904100130 METAR LRCK 100130Z 00000KT 5000 -RA BR SCT047 09/09 Q1004
                        NOSIG=
201904100200 METAR LRCK 100200Z 01003KT 5000 -RA BR SCT049 09/09 Q1004
                        NOSIG=
201904100230 METAR LRCK 100230Z 30004KT 5000 BR SCT049 09/09 Q1004 TEMPO
                        3000 -RA BR=
201904100300 METAR LRCK 100300Z 31003KT 4000 BR BKN047 08/08 Q1004 TEMPO
                        3000 -RA BR=
201904100330 METAR COR LRCK 100330Z 34003KT 4000 -RA BR BKN046 09/09 Q1004
                        R36/19//95 TEMPO 3000 -RA BR=
201904100400 METAR LRCK 100400Z 15004KT 2500 BR BKN046 09/09 Q1004 R36/19//95
                        TEMPO 1500 -RA BR=
201904100430 METAR LRCK 100430Z VRB01KT 2500 -RA BR BKN048 09/09 Q1005
                        R36/29//95 NOSIG=
201904100500 METAR LRCK 100500Z 25003KT 220V280 2500 -RA BR BKN048 09/09
                        Q1005 R36/29//95 NOSIG=
201904100530 METAR LRCK 100530Z VRB01KT 2000 -RA BR BKN048 09/09 Q1005
                        R36/29//95 NOSIG=
201904100600 METAR LRCK 100600Z 32003KT 290V350 2500 -RA BR BKN045 09/09
                        Q1005 R36/29//95 NOSIG=
201904100630 METAR LRCK 100630Z 28005KT 3000 BR BKN047 10/10 Q1005 R36/29//95
                        NOSIG=
201904100700 METAR LRCK 100700Z 24005KT 210V290 5000 BR BKN049 11/10 Q1005
                        R36/29//95 NOSIG=
201904100730 METAR LRCK 100730Z 25005KT 210V270 5000 BR FEW010 SCT049
                        11/10 Q1005 R36/29//95 NOSIG=
201904100800 METAR LRCK 100800Z 26003KT 220V310 6000 FEW007 SCT049 12/11
                        Q1005 R36/29//95 NOSIG=
201904100830 METAR LRCK 100830Z 28004KT 250V340 7000 FEW006 SCT049 12/11
                        Q1005 R36/29//95 NOSIG=
201904100900 METAR LRCK 100900Z 25005KT 220V280 9999 FEW010 SCT040 14/10
                        Q1005 R36/29//95 NOSIG=
201904100930 METAR LRCK 100930Z 20005KT 9999 FEW011 SCT035 14/11 Q1006
                        R36/29//95 NOSIG=
201904101000 METAR LRCK 101000Z 22004KT 170V250 9999 SCT015 SCT021 16/12
                        Q1006 R36/29//95 NOSIG=
201904101030 METAR LRCK 101030Z 28005KT 230V340 9999 SCT019 FEW040CB 16/10
                        Q1006 R36/29//95 NOSIG=
201904101100 METAR COR LRCK 101100Z 12007KT 7000 FEW010 SCT025 FEW040CB
                        15/12 Q1006 R36/CLRD// NOSIG=
201904101130 METAR LRCK 101130Z 15005KT 100V210 8000 BKN024 FEW040CB 15/12
                        Q1006 NOSIG=
201904101200 METAR LRCK 101200Z 15008KT 8000 SCT015 SCT028 FEW045CB 15/11
                        Q1006 NOSIG=
201904101230 METAR LRCK 101230Z 14007KT 120V200 9999 FEW015 SCT021 FEW045CB
                        17/11 Q1006 NOSIG=
201904101300 METAR LRCK 101300Z 16008KT 9999 SCT022 FEW050CB 17/11 Q1006
                        NOSIG=
201904101330 METAR LRCK 101330Z 15009KT 9999 VCTS SCT023 FEW040CB 18/10
                        Q1006 NOSIG=
201904101400 METAR LRCK 101400Z 17011KT 9999 VCTS SCT030 FEW040CB 15/10
                        Q1006 NOSIG=
201904101430 METAR LRCK 101430Z 21011KT 170V240 9999 SCT031 FEW040CB 15/10
                        Q1006 NOSIG=
201904101500 METAR LRCK 101500Z 24011KT 9999 SCT030 FEW050CB 15/09 Q1006
                        NOSIG=
201904101530 METAR LRCK 101530Z 21008KT 9999 FEW035 14/08 Q1006 NOSIG=
201904101600 METAR LRCK 101600Z 22006KT 9999 FEW035 13/08 Q1006 NOSIG=
201904101630 METAR LRCK 101630Z 25006KT 9999 FEW040 11/08 Q1006 NOSIG=
201904101700 METAR LRCK 101700Z 22005KT 9999 FEW040 10/08 Q1006 NOSIG=
201904101730 METAR LRCK 101730Z 19004KT CAVOK 10/09 Q1007 BECMG 5000 BR
                        BKN010=
201904101800 METAR LRCK 101800Z 18004KT CAVOK 09/08 Q1007 BECMG 5000 BR
                        BKN010=
201904101830 METAR LRCK 101830Z 18005KT CAVOK 09/08 Q1007 BECMG 5000 BR
                        BKN010=
201904101900 METAR LRCK 101900Z 20005KT 8000 NSC 09/08 Q1007 BECMG 5000
                        BR BKN010=
201904101930 METAR LRCK 101930Z VRB01KT 8000 NSC 08/08 Q1007 BECMG 5000
                        BR BKN010=
201904102000 METAR LRCK 102000Z 25003KT 8000 NSC 08/08 Q1007 BECMG 5000
                        BR BKN010=
201904102030 METAR LRCK 102030Z 26005KT 8000 NSC 08/08 Q1007 NOSIG=
201904102100 METAR LRCK 102100Z 24004KT 8000 NSC 09/09 Q1008 NOSIG=
201904102130 METAR LRCK 102130Z 21005KT 8000 NSC 08/08 Q1008 NOSIG=
201904102200 METAR LRCK 102200Z 23003KT 8000 NSC 09/09 Q1008 NOSIG=
201904102230 METAR LRCK 102230Z 24005KT 8000 NSC 09/09 Q1008 NOSIG=
201904102300 METAR LRCK 102300Z 23005KT 8000 NSC 09/08 Q1008 NOSIG=
201904102330 METAR LRCK 102330Z 19003KT 5000 BR NSC 07/07 Q1008 TEMPO
                        3000 BR=
201904110000 METAR LRCK 110000Z 17004KT 2000 BR NSC 08/08 Q1007 TEMPO
                        1500 BR=
201904110030 METAR LRCK 110030Z 14003KT 0800 R18/0650D FG NSC 07/07 Q1007
                        TEMPO 0150 FG VV001=
201904110100 METAR LRCK 110100Z 17005KT 0600 R18/0350N FG NSC 07/07 Q1007
                        TEMPO 0150 FG VV001=
201904110130 METAR LRCK 110130Z 18005KT 3000 BR NSC 07/07 Q1007 NOSIG=
201904110200 METAR LRCK 110200Z 17004KT 5000 BR NSC 07/07 Q1007 NOSIG=
201904110230 METAR COR LRCK 110230Z 13004KT 6000 NSC 07/06 Q1007 NOSIG=
201904110300 METAR LRCK 110300Z 10003KT 3000 BR NSC 06/06 Q1007 TEMPO
                        1500 BR=
201904110330 METAR LRCK 110330Z 12003KT 3000 MIFG BR NSC 06/06 Q1007 TEMPO
                        1500 BR=
201904110400 METAR LRCK 110400Z 12004KT 2000 MIFG BR NSC 06/06 Q1007 TEMPO
                        1500 BR=
201904110430 METAR LRCK 110430Z 13003KT 2000 MIFG BR NSC 07/07 Q1008 TEMPO
                        1500 BR=
201904110500 METAR COR LRCK 110500Z 13003KT 3000 BR NSC 09/09 Q1008 BECMG
                        5000=
201904110530 METAR LRCK 110530Z 14003KT 4000 BR FEW015 10/09 Q1008 BECMG
                        5000=
201904110600 METAR COR LRCK 110600Z 13006KT 5000 BR FEW005 11/10 Q1008
                        BECMG 9999 NSW=
201904110630 METAR LRCK 110630Z 09006KT 0800 R18/0800D R36/0900U FG BKN001
                        10/10 Q1008 NOSIG=
201904110700 METAR LRCK 110700Z 11008KT 070V130 3000 BR SCT001 BKN004
                        11/10 Q1008 BECMG 5000 BKN007=
201904110730 METAR LRCK 110730Z 12008KT 3000 BR SCT001 BKN003 11/10 Q1008
                        BECMG 5000 BKN005=
201904110800 METAR LRCK 110800Z 11008KT 5000 BR FEW002 BKN005 11/10 Q1008
                        BECMG 9999 NSW BKN010=
201904110830 METAR LRCK 110830Z 13008KT 9999 BKN007 12/09 Q1009 BECMG
                        BKN010=
201904110900 METAR LRCK 110900Z 11008KT 9999 BKN010 13/10 Q1008 BECMG
                        SCT015=
201904110930 METAR LRCK 110930Z 11008KT 070V140 9999 BKN010 14/10 Q1008
                        BECMG SCT015=
201904111000 METAR COR LRCK 111000Z 11008KT 9999 FEW008 SCT011 13/09 Q1008
                        NOSIG=
201904111030 METAR LRCK 111030Z 11010KT 9999 BKN009 13/10 Q1008 NOSIG=
201904111100 METAR LRCK 111100Z 11011KT 9000 BKN008 13/10 Q1008 NOSIG=
201904111130 METAR LRCK 111130Z 10010KT 9999 BKN008 12/10 Q1008 NOSIG=
201904111200 METAR LRCK 111200Z 10009KT 9999 BKN008 12/09 Q1008 NOSIG=
201904111230 METAR LRCK 111230Z 11010KT 9999 BKN007 12/10 Q1008 NOSIG=
201904111300 METAR LRCK 111300Z 10011KT 8000 BKN006 11/09 Q1008 NOSIG=
201904111330 METAR LRCK 111330Z 11011KT 5000 BR BKN002 OVC003 11/09 Q1008
                        NOSIG=
201904111400 METAR COR LRCK 111400Z 12009KT 6000 SCT002 OVC004 10/09 Q1008
                        NOSIG=
201904111430 METAR LRCK 111430Z 11010KT 6000 OVC004 10/09 Q1008 NOSIG=
201904111500 METAR LRCK 111500Z 11010KT 5000 BR OVC003 10/09 Q1008 TEMPO
                        3000 BR=
201904111530 METAR LRCK 111530Z 11010KT 4000 BR OVC002 10/09 Q1008 NOSIG=
201904111600 METAR LRCK 111600Z 10008KT 3000 BR OVC002 10/09 Q1008 NOSIG=
201904111630 METAR LRCK 111630Z 10007KT 3000 BR OVC002 10/09 Q1008 NOSIG=
201904111700 METAR LRCK 111700Z 11007KT 1500 BCFG BR OVC002 10/09 Q1009
                        TEMPO 0800 FG=
201904111730 METAR LRCK 111730Z 10007KT 0800 R18/1000D R36/1200D FG OVC001
                        10/09 Q1009 BECMG 0600 FG=
201904111800 METAR LRCK 111800Z 08006KT 0600 R18/1000D R36/1000D FG VV002
                        10/09 Q1009 BECMG 0350 FG VV001=
201904111830 METAR COR LRCK 111830Z 08006KT 0500 R18/1400D R36/1200D FG
                        VV001 09/09 Q1009 BECMG 0350 FG=
201904111900 METAR LRCK 111900Z 07006KT 0500 R18/1800D R36/1000U FG OVC001
                        10/10 Q1010 TEMPO 0350 FG=
201904111930 METAR LRCK 111930Z 07006KT 0800 R18/1800D R36/1800D FG BKN001
                        OVC002 10/10 Q1009 NOSIG=
201904112000 METAR LRCK 112000Z 07006KT 0800 R18/1800D R36/1600D FG OVC002
                        10/10 Q1009 NOSIG=
201904112030 METAR LRCK 112030Z 08006KT 1500 BR OVC002 10/10 Q1009 NOSIG=
201904112100 METAR LRCK 112100Z 05006KT 1500 BR OVC003 10/10 Q1009 NOSIG=
201904112130 METAR LRCK 112130Z 05005KT 1500 BR OVC003 10/09 Q1009 NOSIG=
201904112200 METAR LRCK 112200Z 06005KT 1500 BR OVC004 10/09 Q1010 NOSIG=
201904112230 METAR LRCK 112230Z 06005KT 1500 -RA BR BKN005 10/09 Q1010
                        NOSIG=
201904112300 METAR LRCK 112300Z 06005KT 1500 -RA BR BKN004 10/09 Q1009
                        NOSIG=
201904112330 METAR LRCK 112330Z 04004KT 1500 -DZ BR BKN003 OVC010 09/09
                        Q1010 NOSIG=
201904120000 METAR LRCK 120000Z 36005KT 1500 -DZ BR BKN003 OVC010 10/10
                        Q1010 NOSIG=
201904120030 METAR LRCK 120030Z 35005KT 1500 BR BKN004 OVC010 09/09 Q1010
                        NOSIG=
201904120100 METAR LRCK 120100Z 34004KT 1500 BR BKN005 OVC010 10/09 Q1010
                        NOSIG=
201904120130 METAR LRCK 120130Z 36005KT 2000 BR OVC005 10/10 Q1010 R36/19//95
                        NOSIG=
201904120200 METAR LRCK 120200Z 35004KT 2000 BR BKN006 OVC012 10/09 Q1010
                        R36/19//95 NOSIG=
201904120230 METAR LRCK 120230Z 33003KT 2000 BR BKN006 OVC012 10/10 Q1010
                        R36/19//95 NOSIG=
201904120300 METAR LRCK 120300Z 36004KT 2000 BR SCT007 OVC012 10/10 Q1010
                        R36/19//95 NOSIG=
201904120330 METAR LRCK 120330Z 32004KT 1500 BR SCT008 OVC016 10/09 Q1010
                        R36/19//95 NOSIG=
201904120400 METAR LRCK 120400Z 32004KT 2000 BR SCT010 OVC018 10/09 Q1011
                        R36/19//95 NOSIG=
201904120430 METAR LRCK 120430Z 31005KT 3000 BR FEW010 OVC019 10/10 Q1011
                        R36/19//95 NOSIG=
201904120500 METAR LRCK 120500Z 32005KT 3000 BR FEW010 OVC019 10/10 Q1011
                        R36/19//95 NOSIG=
201904120530 METAR LRCK 120530Z 33004KT 5000 BR SCT018 BKN021 11/10 Q1011
                        R36/19//95 NOSIG=
201904120600 METAR LRCK 120600Z 32004KT 8000 SCT013 BKN022 11/10 Q1011
                        R36/19//95 NOSIG=
201904120630 METAR LRCK 120630Z 33004KT 8000 SCT012 BKN023 12/10 Q1011
                        R36/19//95 NOSIG=
201904120700 METAR LRCK 120700Z 00000KT 8000 BKN012 OVC022 12/09 Q1012
                        R36/19//95 NOSIG=
201904120730 METAR LRCK 120730Z 00000KT 9999 BKN013 OVC022 12/09 Q1012
                        R36/19//95 NOSIG=
201904120800 METAR LRCK 120800Z 15003KT 120V220 9999 SCT013 BKN022 13/09
                        Q1012 R36/19//95 NOSIG=
201904120830 METAR LRCK 120830Z 17003KT 110V230 9999 FEW013 BKN023 13/09
                        Q1012 R36/19//95 NOSIG=
201904120900 METAR LRCK 120900Z VRB02KT 9999 OVC021 13/09 Q1012 R36/19//95
                        NOSIG=
201904120930 METAR LRCK 120930Z 21005KT 170V250 9999 BKN021 OVC030 12/09
                        Q1012 R36/19//95 NOSIG=
201904121000 METAR LRCK 121000Z 27006KT 9999 BKN022 OVC030 13/09 Q1012
                        R36/19//95 NOSIG=
201904121030 METAR LRCK 121030Z 25005KT 210V280 9999 SCT023 BKN042 13/09
                        Q1012 R36/19//95 NOSIG=
201904121100 METAR LRCK 121100Z 22004KT 170V260 9999 FEW023 BKN040 FEW045CB
                        15/10 Q1012 R36/19//95 NOSIG=
201904121130 METAR LRCK 121130Z 24004KT 200V310 9999 FEW022 SCT028 FEW040CB
                        15/09 Q1012 R36/19//95 NOSIG=
201904121200 METAR LRCK 121200Z VRB02KT 9999 SCT025 FEW040CB 15/09 Q1012
                        R36/19//95 NOSIG=
201904121230 METAR LRCK 121230Z VRB03KT 9999 BKN025 FEW040CB 16/08 Q1012
                        R36/19//95 NOSIG=
201904121300 METAR LRCK 121300Z 34007KT 9999 FEW025 BKN030 FEW040CB 15/09
                        Q1012 R36/19//95 NOSIG=
201904121330 METAR LRCK 121330Z 06004KT 010V120 9999 BKN035 FEW045CB 15/09
                        Q1012 R36/19//95 NOSIG=
201904121400 METAR LRCK 121400Z 13008KT 9999 BKN024 FEW045CB 14/10 Q1012
                        R36/19//95 NOSIG=
201904121430 METAR LRCK 121430Z 13008KT 9999 SCT025 BKN035 FEW045CB 13/10
                        Q1012 R36/19//95 NOSIG=
201904121500 METAR LRCK 121500Z 11005KT 8000 BKN042 13/10 Q1012 R36/19//95
                        NOSIG=
201904121530 METAR LRCK 121530Z 11005KT 7000 FEW043 13/10 Q1012 NOSIG=
201904121600 METAR LRCK 121600Z 12006KT 6000 SCT032 13/10 Q1012 BECMG
                        5000 BR=
201904121630 METAR LRCK 121630Z 14008KT 6000 BKN024 13/10 Q1012 NOSIG=
201904121700 METAR LRCK 121700Z 07008KT 5000 BR FEW008 SCT018 BKN025 12/10
                        Q1012 NOSIG=
201904121730 METAR LRCK 121730Z 12007KT 4000 -RA BR FEW010 SCT014 BKN025
                        12/10 Q1012 NOSIG=
201904121800 METAR LRCK 121800Z 07004KT 3500 BR BKN027 BKN033 11/10 Q1013
                        NOSIG=
201904121830 METAR LRCK 121830Z 14006KT 3500 FEW005 SCT019 BKN023 11/10
                        Q1013 NOSIG=
201904121900 METAR LRCK 121900Z 18005KT 3500 BR SCT005 BKN020 11/10 Q1013
                        NOSIG=
201904121930 METAR LRCK 121930Z 00000KT 4000 BR BKN017 BKN032 11/10 Q1013
                        NOSIG=
201904122000 METAR LRCK 122000Z VRB02KT 3000 BR FEW005 OVC016 11/10 Q1013
                        NOSIG=
201904122030 METAR LRCK 122030Z 08003KT 3000 BR BKN004 OVC016 11/10 Q1013
                        NOSIG=
201904122100 METAR LRCK 122100Z 05005KT 3000 BR BKN004 OVC016 11/10 Q1013
                        NOSIG=
201904122130 METAR LRCK 122130Z 03012KT 4000 BR FEW004 OVC008 11/10 Q1013
                        NOSIG=
201904122200 METAR LRCK 122200Z 03010KT 4000 -RA BR BKN007 10/10 Q1013
                        NOSIG=
201904122230 METAR LRCK 122230Z 03010KT 4000 BR BKN008 10/09 Q1013 RERA
                        NOSIG=
201904122300 METAR LRCK 122300Z 03011KT 5000 BR OVC009 10/09 Q1013 TEMPO
                        3000 -RA BR=
201904122330 METAR COR LRCK 122330Z 03013KT 6000 OVC009 10/09 Q1013 TEMPO
                        3000 -RA BR=
201904130000 METAR LRCK 130000Z 04013KT 6000 OVC009 10/09 Q1013 TEMPO
                        3000 -RA BR=
201904130030 METAR LRCK 130030Z 03013KT 6000 OVC008 10/09 Q1013 TEMPO
                        3000 -RA BR=
201904130100 METAR LRCK 130100Z 02013KT 6000 OVC008 10/09 Q1012 TEMPO
                        3000 -RA BR=
201904130130 METAR COR LRCK 130130Z 03013KT 6000 OVC008 10/08 Q1012 TEMPO
                        3000 -RA BR=
201904130200 METAR COR LRCK 130200Z 03012KT 6000 OVC008 09/08 Q1012 TEMPO
                        3000 -RA BR=
201904130230 METAR COR LRCK 130230Z 03011KT 6000 OVC007 09/08 Q1012 TEMPO
                        3000 -RA BR=
201904130300 METAR COR LRCK 130300Z 03013KT 6000 OVC007 09/08 Q1012 TEMPO
                        3000 -RA BR=
201904130330 METAR LRCK 130330Z 02012KT 6000 OVC007 09/08 Q1012 TEMPO
                        5000 -RA BR=
201904130400 METAR LRCK 130400Z 03012KT 6000 OVC006 09/08 Q1013 TEMPO
                        5000 -RA BR=
201904130430 METAR LRCK 130430Z 03012KT 5000 BR OVC006 09/08 Q1013 TEMPO
                        OVC005=
201904130500 METAR LRCK 130500Z 02012KT 4000 BR OVC006 09/08 Q1012 NOSIG=
201904130530 METAR LRCK 130530Z 01012KT 4000 BR OVC006 09/08 Q1012 NOSIG=
201904130600 METAR LRCK 130600Z 02011KT 4000 BR OVC005 09/08 Q1012 NOSIG=
201904130630 METAR LRCK 130630Z 02010KT 4000 BR OVC005 09/09 Q1013 NOSIG=
201904130700 METAR LRCK 130700Z 02012KT 4000 BR OVC005 09/09 Q1013 NOSIG=
201904130730 METAR LRCK 130730Z 03011KT 4000 BR OVC005 09/09 Q1013 NOSIG=
201904130800 METAR LRCK 130800Z 02011KT 4500 BR OVC004 10/09 Q1013 NOSIG=
201904130830 METAR LRCK 130830Z 02012KT 4000 BR OVC004 10/09 Q1013 NOSIG=
201904130900 METAR LRCK 130900Z 03013KT 3000 BR OVC003 10/10 Q1013 NOSIG=
201904130930 METAR LRCK 130930Z 03013KT 3000 BR OVC003 10/10 Q1012 NOSIG=
201904131000 METAR LRCK 131000Z 04011KT 5000 BR OVC004 11/10 Q1013 BECMG
                        BKN005=
201904131030 METAR LRCK 131030Z 04011KT 5000 BR BKN005 11/10 Q1012 NOSIG=
201904131100 METAR LRCK 131100Z 06012KT 8000 BKN009 12/10 Q1012 NOSIG=
201904131130 METAR LRCK 131130Z 09010KT 9999 SCT008 BKN030 12/10 Q1013
                        NOSIG=
201904131200 METAR LRCK 131200Z 08011KT 9999 -RA SCT014 BKN030 11/10 Q1013
                        R36/19//95 NOSIG=
201904131230 METAR LRCK 131230Z 08009KT 8000 -RA SCT011 BKN032 11/10 Q1013
                        R36/19//95 NOSIG=
201904131300 METAR LRCK 131300Z 07009KT 8000 -RA SCT013 BKN027 11/10 Q1012
                        R36/19//95 NOSIG=
201904131330 METAR LRCK 131330Z 06007KT 7000 -RA BKN010 11/10 Q1012 R36/19//95
                        NOSIG=
201904131400 METAR LRCK 131400Z 06008KT 5000 -RA BR BKN008 10/10 Q1012
                        R36/19//95 NOSIG=
201904131430 METAR LRCK 131430Z 06008KT 3000 -RA BR OVC015 10/10 Q1012
                        R36/29//95 NOSIG=
201904131500 METAR LRCK 131500Z 05007KT 4000 -RA BR OVC010 11/11 Q1012
                        R36/29//95 NOSIG=
201904131530 METAR LRCK 131530Z 04006KT 3000 -RA BR OVC010 10/10 Q1012
                        R36/29//95 NOSIG=
201904131600 METAR LRCK 131600Z 02007KT 1500 -RA BR BKN003 OVC027 10/10
                        Q1012 R36/29//95 NOSIG=
201904131630 METAR LRCK 131630Z 02008KT 2000 -RA BR OVC005 10/10 Q1012
                        R36/29//95 BECMG 3000=
201904131700 METAR LRCK 131700Z 02010KT 3000 -RA BR BKN010 10/10 Q1012
                        R36/29//95 NOSIG=
201904131730 METAR LRCK 131730Z 36009KT 8000 BKN007 10/10 Q1013 R36/29//95
                        NOSIG=
201904131800 METAR LRCK 131800Z 36011KT 9999 BKN010 10/10 Q1013 R36/29//95
                        NOSIG=
201904131830 METAR LRCK 131830Z 01011KT 8000 BKN009 10/09 Q1013 R36/29//95
                        NOSIG=
201904131900 METAR LRCK 131900Z 36012KT 8000 SCT006 BKN009 10/09 Q1013
                        R36/29//95 NOSIG=
201904131930 METAR LRCK 131930Z 36011KT 5000 BR OVC005 10/09 Q1013 R36/29//95
                        NOSIG=
201904132000 METAR LRCK 132000Z 36013KT 2500 BR OVC005 09/09 Q1013 R36/29//95
                        NOSIG=
201904132030 METAR LRCK 132030Z 36011KT 3000 BR BKN005 09/09 Q1013 R36/29//95
                        NOSIG=
201904132100 METAR LRCK 132100Z 36011KT 3000 BR BKN006 09/09 Q1013 R36/19//95
                        NOSIG=
201904132130 METAR LRCK 132130Z 01009KT 3000 BR OVC005 09/09 Q1013 R36/19//95
                        NOSIG=
201904132200 METAR LRCK 132200Z 01011KT 3000 BR OVC005 09/09 Q1013 R36/19//95
                        NOSIG=
201904132230 METAR LRCK 132230Z 01010KT 5000 BR OVC006 09/09 Q1013 R36/19//95
                        NOSIG=
201904132300 METAR LRCK 132300Z 35008KT 8000 OVC006 09/09 Q1013 R36/19//95
                        NOSIG=
201904132330 METAR LRCK 132330Z 35010KT 8000 OVC005 09/09 Q1013 R36/19//95
                        NOSIG=
201904140000 METAR LRCK 140000Z 35011KT 8000 OVC006 09/09 Q1012 R36/19//95
                        NOSIG=
201904140030 METAR LRCK 140030Z 36011KT 9999 OVC006 09/08 Q1012 R36/19//95
                        NOSIG=
201904140100 METAR LRCK 140100Z 35013KT 9999 OVC007 09/08 Q1012 R36/19//95
                        NOSIG=
201904140130 METAR LRCK 140130Z 36014KT 9999 OVC008 09/08 Q1011 R36/19//95
                        NOSIG=
201904140200 METAR LRCK 140200Z 36012KT 9999 BKN008 09/08 Q1011 R36/19//95
                        NOSIG=
201904140230 METAR LRCK 140230Z 34012KT 9999 BKN009 08/08 Q1011 R36/19//95
                        NOSIG=
201904140300 METAR LRCK 140300Z 36013KT 9999 BKN008 08/08 Q1011 R36/19//95
                        NOSIG=
201904140330 METAR LRCK 140330Z 36011KT 9999 BKN008 08/08 Q1011 R36/19//95
                        NOSIG=
201904140400 METAR LRCK 140400Z 36010KT 8000 BKN006 08/08 Q1012 R36/19//95
                        NOSIG=
201904140430 METAR LRCK 140430Z 36011KT 8000 BKN006 08/07 Q1012 R36/CLRD//
                        NOSIG=
201904140500 METAR LRCK 140500Z 01010KT 8000 BKN006 08/07 Q1012 NOSIG=
201904140530 METAR LRCK 140530Z 01012KT 7000 OVC006 08/07 Q1011 NOSIG=
201904140600 METAR LRCK 140600Z 02013KT 6000 OVC006 08/07 Q1011 NOSIG=
201904140630 METAR LRCK 140630Z 02012KT 6000 OVC006 09/08 Q1012 NOSIG=
201904140700 METAR LRCK 140700Z 01011KT 7000 OVC007 09/08 Q1012 NOSIG=
201904140730 METAR LRCK 140730Z 01009KT 7000 OVC008 09/08 Q1012 NOSIG=
201904140800 METAR LRCK 140800Z 35011KT 7000 OVC007 09/08 Q1012 NOSIG=
201904140830 METAR LRCK 140830Z 36015KT 7000 OVC007 09/08 Q1012 NOSIG=
201904140900 METAR LRCK 140900Z 36015KT 7000 OVC007 09/08 Q1012 NOSIG=
201904140930 METAR LRCK 140930Z 36017KT 7000 OVC007 09/08 Q1012 NOSIG=
201904141000 METAR LRCK 141000Z 36015KT 8000 OVC008 09/08 Q1012 NOSIG=
201904141030 METAR LRCK 141030Z 36015KT 8000 BKN009 09/08 Q1012 NOSIG=
201904141100 METAR LRCK 141100Z 35018KT 9999 BKN010 09/08 Q1012 NOSIG=
201904141130 METAR LRCK 141130Z 35017KT 9999 BKN011 09/08 Q1012 NOSIG=
201904141200 METAR LRCK 141200Z 35016KT 7000 -RA BKN010 09/08 Q1012 NOSIG=
201904141230 METAR LRCK 141230Z 36014KT 5000 -RA BR BKN010 10/09 Q1012
                        NOSIG=
201904141300 METAR LRCK 141300Z 36014KT 6000 -RA SCT008 BKN025 10/08 Q1012
                        NOSIG=
201904141330 METAR LRCK 141330Z 36014KT 7000 BKN010 BKN022 09/08 Q1012
                        R36/29//95 NOSIG=
201904141400 METAR LRCK 141400Z 36016KT 8000 BKN010 BKN021 09/08 Q1012
                        R36/29//95 NOSIG=
201904141430 METAR LRCK 141430Z 36012KT 5000 -DZ BR OVC010 09/07 Q1012
                        R36/29//95 NOSIG=
201904141500 METAR LRCK 141500Z 36014KT 3000 -DZ BR OVC010 08/07 Q1012
                        R36/29//95 NOSIG=
201904141530 METAR LRCK 141530Z 35015KT 3000 -DZ BR SCT006 OVC010 08/07
                        Q1012 R36/29//95 NOSIG=
201904141600 METAR LRCK 141600Z 35015KT 5000 BR BKN007 OVC015 08/07 Q1012
                        R36/29//95 NOSIG=
201904141630 METAR LRCK 141630Z 35013KT 6000 SCT007 OVC013 08/07 Q1013
                        R36/29//95 NOSIG=
201904141700 METAR LRCK 141700Z 36012KT 5000 BR SCT008 OVC010 08/07 Q1013
                        R36/29//95 NOSIG=
201904141730 METAR LRCK 141730Z 35012KT 5000 -RA BR OVC008 07/07 Q1013
                        R36/29//95 NOSIG=
201904141800 METAR LRCK 141800Z 36014KT 8000 -RA OVC010 08/07 Q1013 R36/29//95
                        NOSIG=
201904141830 METAR LRCK 141830Z 36016KT 8000 OVC010 08/07 Q1013 R36/29//95
                        NOSIG=
201904141900 METAR LRCK 141900Z 01016KT 6000 OVC010 07/07 Q1014 R36/29//95
                        NOSIG=
201904141930 METAR LRCK 141930Z 01016KT 6000 OVC009 07/06 Q1014 R36/29//95
                        NOSIG=
201904142000 METAR LRCK 142000Z 36014KT 6000 OVC010 07/06 Q1014 R36/29//95
                        NOSIG=
201904142030 METAR LRCK 142030Z 36013KT 8000 OVC010 07/06 Q1014 R36/29//95
                        NOSIG=
201904142100 METAR LRCK 142100Z 36014KT 7000 OVC010 07/06 Q1014 R36/29//95
                        NOSIG=
201904142130 METAR LRCK 142130Z 35012KT 7000 OVC015 07/06 Q1014 R36/29//95
                        NOSIG=
201904142200 METAR LRCK 142200Z 36013KT 7000 OVC012 07/06 Q1014 R36/29//95
                        NOSIG=
201904142230 METAR LRCK 142230Z 36012KT 7000 OVC012 07/05 Q1014 R36/29//95
                        NOSIG=
201904142300 METAR LRCK 142300Z 36013KT 8000 OVC015 07/05 Q1014 R36/29//95
                        NOSIG=
201904142330 METAR LRCK 142330Z 35011KT 8000 OVC014 07/05 Q1014 R36/29//95
                        NOSIG=
201904150000 METAR LRCK 150000Z 36013KT 9999 OVC015 07/05 Q1014 R36/29//95
                        BECMG BKN020=
201904150030 METAR LRCK 150030Z AUTO 01010KT 9999 OVC014/// 06/05 Q1014
                        BECMG BKN020=
201904150100 METAR LRCK 150100Z 36011KT 9999 OVC015 07/05 Q1014 R36/29//95
                        BECMG BKN020=
201904150130 METAR LRCK 150130Z 33008KT 9999 OVC015 06/05 Q1014 R36/29//95
                        BECMG BKN020=
201904150200 METAR COR LRCK 150200Z 34010KT 9999 OVC017 06/04 Q1015 R36/29//95
                        BECMG BKN020=
201904150230 METAR LRCK 150230Z 34010KT 9999 BKN018 06/04 Q1015 R36/29//95
                        NOSIG=
201904150300 METAR LRCK 150300Z 33009KT 9999 BKN020 06/04 Q1015 R36/29//95
                        NOSIG=
201904150330 METAR LRCK 150330Z 34011KT 9999 BKN020 06/03 Q1015 R36/29//95
                        NOSIG=
201904150400 METAR LRCK 150400Z 35011KT 9999 BKN020 06/03 Q1015 R36/CLRD//
                        NOSIG=
201904150430 METAR LRCK 150430Z 34009KT 9999 BKN021 06/03 Q1015 NOSIG=
201904150500 METAR LRCK 150500Z 34011KT 9999 BKN023 06/03 Q1015 NOSIG=
201904150530 METAR LRCK 150530Z 35013KT 9999 BKN023 06/03 Q1015 NOSIG=
201904150600 METAR LRCK 150600Z 35013KT 9999 OVC024 07/03 Q1015 NOSIG=
201904150630 METAR LRCK 150630Z 34011KT 9999 BKN022 07/03 Q1016 NOSIG=
201904150700 METAR LRCK 150700Z 35014KT 9999 BKN023 07/02 Q1016 NOSIG=
201904150730 METAR LRCK 150730Z 35016KT 9999 BKN025 08/02 Q1016 NOSIG=
201904150800 METAR LRCK 150800Z 34014KT 9999 BKN027 08/02 Q1016 NOSIG=
201904150830 METAR LRCK 150830Z 35018KT 9999 BKN027 08/02 Q1016 NOSIG=
201904150900 METAR LRCK 150900Z 35018KT 9999 BKN026 08/02 Q1016 NOSIG=
201904150930 METAR LRCK 150930Z 35018KT 9999 BKN029 09/01 Q1016 NOSIG=
201904151000 METAR LRCK 151000Z 34014KT 9999 BKN032 09/02 Q1016 NOSIG=
201904151030 METAR LRCK 151030Z 35015KT 9999 BKN033 10/02 Q1017 NOSIG=
201904151100 METAR LRCK 151100Z 35014KT 9999 BKN035 10/01 Q1016 NOSIG=
201904151130 METAR LRCK 151130Z 35017G27KT 9999 SCT040 10/M01 Q1016 NOSIG=
201904151200 METAR LRCK 151200Z 34015KT 9999 FEW049 12/M01 Q1016 NOSIG=
201904151230 METAR LRCK 151230Z 35015KT CAVOK 12/M02 Q1016 NOSIG=
201904151300 METAR LRCK 151300Z 35016KT CAVOK 11/M02 Q1016 NOSIG=
201904151330 METAR LRCK 151330Z 34015KT 310V010 CAVOK 12/M01 Q1016 NOSIG=
201904151400 METAR LRCK 151400Z 32012KT CAVOK 11/M02 Q1016 NOSIG=
201904151430 METAR LRCK 151430Z 35016KT CAVOK 11/M01 Q1016 NOSIG=
201904151500 METAR LRCK 151500Z 35015KT CAVOK 11/M01 Q1016 NOSIG=
201904151530 METAR LRCK 151530Z 34011KT CAVOK 10/M01 Q1016 NOSIG=
201904151600 METAR LRCK 151600Z 34012KT CAVOK 09/M01 Q1016 NOSIG=
201904151630 METAR LRCK 151630Z 34009KT CAVOK 08/M01 Q1016 NOSIG=
201904151700 METAR LRCK 151700Z 32008KT CAVOK 07/M01 Q1017 NOSIG=
201904151730 METAR LRCK 151730Z 32007KT CAVOK 06/M01 Q1017 NOSIG=
201904151800 METAR LRCK 151800Z 33007KT CAVOK 05/M01 Q1017 NOSIG=
201904151830 METAR LRCK 151830Z 32007KT CAVOK 06/M01 Q1017 NOSIG=
201904151900 METAR LRCK 151900Z 31008KT CAVOK 06/M01 Q1018 NOSIG=
201904151930 METAR LRCK 151930Z 31006KT CAVOK 05/M01 Q1018 NOSIG=
201904152000 METAR LRCK 152000Z 29006KT CAVOK 04/M01 Q1018 NOSIG=
201904152030 METAR LRCK 152030Z 31007KT CAVOK 04/M01 Q1018 NOSIG=
201904152100 METAR LRCK 152100Z 30007KT CAVOK 03/M01 Q1018 NOSIG=
201904152130 METAR LRCK 152130Z 29007KT CAVOK 02/M01 Q1018 NOSIG=
201904152200 METAR LRCK 152200Z 29007KT CAVOK 02/M01 Q1018 NOSIG=
201904152230 METAR LRCK 152230Z 28007KT CAVOK 03/M01 Q1018 NOSIG=
201904152300 METAR LRCK 152300Z 28007KT CAVOK 02/M01 Q1018 NOSIG=
201904152330 METAR LRCK 152330Z 29007KT CAVOK 02/M01 Q1018 NOSIG=
201904160000 METAR LRCK 160000Z 29008KT CAVOK 02/M01 Q1018 NOSIG=
201904160030 METAR LRCK 160030Z 29007KT CAVOK 02/M01 Q1017 NOSIG=
201904160100 METAR LRCK 160100Z 29008KT CAVOK 02/M01 Q1017 NOSIG=
201904160130 METAR LRCK 160130Z 29007KT CAVOK 02/M01 Q1017 NOSIG=
201904160200 METAR LRCK 160200Z 29007KT CAVOK 01/M01 Q1017 NOSIG=
201904160230 METAR LRCK 160230Z 30009KT CAVOK 03/M01 Q1017 NOSIG=
201904160300 METAR LRCK 160300Z 31009KT CAVOK 03/M01 Q1017 NOSIG=
201904160330 METAR LRCK 160330Z 32010KT CAVOK 03/M02 Q1017 NOSIG=
201904160400 METAR LRCK 160400Z 32009KT CAVOK 03/M02 Q1017 NOSIG=
201904160430 METAR LRCK 160430Z 32009KT CAVOK 04/M01 Q1017 NOSIG=
201904160500 METAR LRCK 160500Z 33010KT CAVOK 06/M01 Q1017 NOSIG=
201904160530 METAR LRCK 160530Z 33010KT CAVOK 06/M01 Q1017 NOSIG=
201904160600 METAR LRCK 160600Z 32017KT CAVOK 08/M02 Q1017 NOSIG=
201904160630 METAR LRCK 160630Z 32018KT CAVOK 08/M02 Q1017 NOSIG=
201904160700 METAR LRCK 160700Z 32017KT CAVOK 09/M02 Q1017 NOSIG=
201904160730 METAR LRCK 160730Z 32017G27KT CAVOK 10/M02 Q1017 NOSIG=
201904160800 METAR LRCK 160800Z 32019KT CAVOK 10/M03 Q1016 NOSIG=
201904160830 METAR LRCK 160830Z 33019G29KT CAVOK 11/M03 Q1016 NOSIG=
201904160900 METAR LRCK 160900Z 31018KT CAVOK 12/M02 Q1016 NOSIG=
201904160930 METAR COR LRCK 160930Z 32017KT CAVOK 13/M02 Q1016 NOSIG=
201904161000 METAR LRCK 161000Z 31019KT CAVOK 13/M04 Q1016 NOSIG=
201904161030 METAR LRCK 161030Z 32018KT CAVOK 13/M03 Q1016 NOSIG=
201904161100 METAR LRCK 161100Z 32018G28KT CAVOK 13/M02 Q1016 NOSIG=
201904161130 METAR LRCK 161130Z 31018KT CAVOK 13/M03 Q1016 NOSIG=
201904161200 METAR LRCK 161200Z 31016KT 280V340 CAVOK 14/M03 Q1015 NOSIG=
201904161230 METAR LRCK 161230Z 33014KT CAVOK 13/M03 Q1015 NOSIG=
201904161300 METAR LRCK 161300Z 34018KT CAVOK 12/M01 Q1015 NOSIG=
201904161330 METAR LRCK 161330Z 34015KT CAVOK 11/01 Q1015 NOSIG=
201904161400 METAR LRCK 161400Z 35018KT CAVOK 10/02 Q1015 NOSIG=
201904161430 METAR LRCK 161430Z 35017KT CAVOK 11/02 Q1015 NOSIG=
201904161500 METAR LRCK 161500Z 36016KT CAVOK 10/02 Q1015 NOSIG=
201904161530 METAR LRCK 161530Z 01011KT CAVOK 10/02 Q1015 NOSIG=
201904161600 METAR LRCK 161600Z 02008KT CAVOK 09/02 Q1016 NOSIG=
201904161630 METAR LRCK 161630Z 02008KT CAVOK 08/02 Q1016 NOSIG=
201904161700 METAR LRCK 161700Z 36008KT CAVOK 08/02 Q1016 NOSIG=
201904161730 METAR LRCK 161730Z 34007KT CAVOK 08/01 Q1017 NOSIG=
201904161800 METAR LRCK 161800Z 34007KT CAVOK 07/01 Q1017 NOSIG=
201904161830 METAR LRCK 161830Z 34006KT CAVOK 07/01 Q1017 NOSIG=
201904161900 METAR LRCK 161900Z 34004KT CAVOK 07/01 Q1017 NOSIG=
201904161930 METAR LRCK 161930Z VRB01KT CAVOK 07/02 Q1017 NOSIG=
201904162000 METAR LRCK 162000Z 13004KT CAVOK 06/02 Q1017 NOSIG=
201904162030 METAR LRCK 162030Z 16003KT CAVOK 06/02 Q1017 NOSIG=
201904162100 METAR LRCK 162100Z 11002KT CAVOK 06/02 Q1017 NOSIG=
201904162130 METAR LRCK 162130Z VRB01KT CAVOK 06/03 Q1017 NOSIG=
201904162200 METAR LRCK 162200Z 00000KT CAVOK 05/02 Q1016 NOSIG=
201904162230 METAR LRCK 162230Z 31003KT CAVOK 05/02 Q1016 NOSIG=
201904162300 METAR LRCK 162300Z 30006KT CAVOK 05/02 Q1016 NOSIG=
201904162330 METAR LRCK 162330Z 31005KT CAVOK 04/01 Q1016 NOSIG=
201904170000 METAR LRCK 170000Z 31007KT CAVOK 04/01 Q1016 NOSIG=
201904170030 METAR LRCK 170030Z 30006KT CAVOK 03/01 Q1016 NOSIG=
201904170100 METAR LRCK 170100Z 30007KT CAVOK 03/01 Q1016 NOSIG=
201904170130 METAR LRCK 170130Z 30006KT CAVOK 02/01 Q1015 NOSIG=
201904170200 METAR LRCK 170200Z 30007KT CAVOK 02/01 Q1015 NOSIG=
201904170230 METAR LRCK 170230Z 28005KT CAVOK 03/02 Q1015 NOSIG=
201904170300 METAR LRCK 170300Z 28006KT 9999 FEW015 03/02 Q1015 NOSIG=
201904170330 METAR LRCK 170330Z 28005KT 9999 FEW014 04/02 Q1016 NOSIG=
201904170400 METAR LRCK 170400Z 27007KT 9999 SCT014 04/03 Q1016 NOSIG=
201904170430 METAR LRCK 170430Z 30007KT 9999 FEW015 05/03 Q1016 NOSIG=
201904170500 METAR LRCK 170500Z 31007KT CAVOK 05/03 Q1016 NOSIG=
201904170530 METAR LRCK 170530Z 33006KT CAVOK 06/03 Q1016 NOSIG=
201904170600 METAR LRCK 170600Z 34007KT CAVOK 07/04 Q1016 NOSIG=
201904170630 METAR LRCK 170630Z 32008KT CAVOK 07/03 Q1016 NOSIG=
201904170700 METAR LRCK 170700Z 33008KT 290V350 CAVOK 08/04 Q1017 NOSIG=
201904170730 METAR LRCK 170730Z 34009KT 9999 FEW017 08/04 Q1017 NOSIG=
201904170800 METAR LRCK 170800Z 33008KT 9999 FEW019 08/04 Q1017 NOSIG=
201904170830 METAR LRCK 170830Z 32009KT CAVOK 10/05 Q1017 NOSIG=
201904170900 METAR LRCK 170900Z 30008KT 290V350 CAVOK 10/05 Q1017 NOSIG=
201904170930 METAR LRCK 170930Z 32008KT 280V340 CAVOK 12/05 Q1017 NOSIG=
201904171000 METAR LRCK 171000Z 35007KT 320V020 9999 FEW025 12/05 Q1017
                        NOSIG=
201904171030 METAR LRCK 171030Z 34009KT 300V010 9999 SCT027 12/05 Q1018
                        NOSIG=
201904171100 METAR LRCK 171100Z 34009KT 9999 BKN027 12/04 Q1018 NOSIG=
201904171130 METAR LRCK 171130Z 08009KT 9999 BKN027 10/05 Q1018 NOSIG=
201904171200 METAR LRCK 171200Z 07007KT 050V110 9999 BKN029 10/05 Q1018
                        NOSIG=
201904171230 METAR LRCK 171230Z 09008KT 9999 BKN035 10/06 Q1018 NOSIG=
201904171300 METAR LRCK 171300Z 08006KT 9999 BKN037 10/06 Q1018 NOSIG=
201904171330 METAR LRCK 171330Z 08005KT 040V110 9999 BKN040 10/06 Q1019
                        NOSIG=
201904171400 METAR LRCK 171400Z 07004KT 040V110 9999 BKN043 10/06 Q1019
                        NOSIG=
201904171430 METAR LRCK 171430Z 06005KT 030V100 9999 BKN043 10/06 Q1019
                        NOSIG=
201904171500 METAR LRCK 171500Z 07005KT 050V110 9999 BKN045 10/06 Q1019
                        NOSIG=
201904171530 METAR LRCK 171530Z 08007KT 9999 BKN048 10/06 Q1019 NOSIG=
201904171600 METAR LRCK 171600Z 08007KT 9999 FEW015 SCT030CB 09/06 Q1020
                        NOSIG=
201904171630 METAR LRCK 171630Z 06006KT 9999 SCT030CB 09/06 Q1020 NOSIG=
201904171700 METAR LRCK 171700Z 06007KT 9999 SCT035CB 08/06 Q1020 NOSIG=
201904171730 METAR LRCK 171730Z 06005KT 8000 BKN035 07/05 Q1020 NOSIG=
201904171800 METAR LRCK 171800Z 04005KT 8000 BKN032 07/06 Q1021 NOSIG=
201904171830 METAR LRCK 171830Z 02005KT 9999 BKN031 07/05 Q1021 NOSIG=
201904171900 METAR LRCK 171900Z 01004KT 9999 SCT035 06/05 Q1021 NOSIG=
201904171930 METAR LRCK 171930Z 33004KT 9999 FEW035 06/05 Q1021 NOSIG=
201904172000 METAR LRCK 172000Z 35006KT CAVOK 06/04 Q1021 NOSIG=
201904172030 METAR LRCK 172030Z 33004KT 9999 FEW049 06/05 Q1021 NOSIG=
201904172100 METAR LRCK 172100Z 31005KT 9999 FEW049 07/05 Q1021 NOSIG=
201904172130 METAR LRCK 172130Z 30004KT CAVOK 07/05 Q1021 NOSIG=
201904172200 METAR LRCK 172200Z 30004KT 9999 FEW023 07/05 Q1021 NOSIG=
201904172230 METAR LRCK 172230Z 31005KT 9999 FEW025 07/05 Q1022 NOSIG=
201904172300 METAR LRCK 172300Z 31006KT CAVOK 07/05 Q1021 NOSIG=
201904172330 METAR LRCK 172330Z 30006KT CAVOK 06/05 Q1021 NOSIG=
201904180000 METAR LRCK 180000Z 30006KT CAVOK 06/05 Q1021 NOSIG=
201904180030 METAR LRCK 180030Z 30006KT CAVOK 06/05 Q1021 NOSIG=
201904180100 METAR LRCK 180100Z 29006KT 8000 NSC 05/05 Q1021 NOSIG=
201904180130 METAR LRCK 180130Z 30006KT 8000 NSC 05/05 Q1021 NOSIG=
201904180200 METAR LRCK 180200Z 29006KT 8000 NSC 06/05 Q1021 NOSIG=
201904180230 METAR LRCK 180230Z 30006KT CAVOK 06/05 Q1021 NOSIG=
201904180300 METAR COR LRCK 180300Z 29006KT CAVOK 06/05 Q1021 BECMG 5000
                        -RA BR BKN015 OVC030=
201904180330 METAR LRCK 180330Z 29007KT 7000 NSC 06/05 Q1021 BECMG 06015KT
                        5000 -RA BR BKN015 OVC030=
201904180400 METAR LRCK 180400Z 30007KT 8000 SCT048 06/06 Q1021 BECMG
                        06015KT 5000 -RA BR BKN015 OVC030=
201904180430 METAR LRCK 180430Z 32003KT 8000 -RA SCT009 BKN048 07/06 Q1022
                        BECMG 06016KT 5000 -RA BR BKN010
                        OVC030=
201904180500 METAR LRCK 180500Z 02006KT 5000 -RA BR BKN008 08/07 Q1022
                        BECMG 06016KT 3000 RA BR BKN005 OVC030=
201904180530 METAR LRCK 180530Z 03007KT 3000 -RA BR BKN004 08/07 Q1022
                        NOSIG=
201904180600 METAR LRCK 180600Z 02010KT 3000 -RADZ BR BKN003 08/08 Q1023
                        R36/29//95 NOSIG=
201904180630 METAR LRCK 180630Z 05012KT 3000 -RADZ BR BKN003 08/08 Q1023
                        R36/29//95 NOSIG=
201904180700 METAR LRCK 180700Z 06015KT 4000 -RADZ BR BKN003 08/08 Q1023
                        R36/29//95 NOSIG=
201904180730 METAR COR LRCK 180730Z 06014KT 7000 -RADZ BKN007 09/08 Q1024
                        R36/29//95 NOSIG=
201904180800 METAR LRCK 180800Z 06016KT 8000 -RADZ BKN007 BKN035 09/08
                        Q1024 R36/29//95 NOSIG=
201904180830 METAR LRCK 180830Z 06015KT 9999 BKN009 BKN035 09/08 Q1024
                        R36/29//95 NOSIG=
201904180900 METAR LRCK 180900Z 06014KT 9999 BKN009 BKN041 10/08 Q1025
                        R36/29//95 NOSIG=
201904180930 METAR LRCK 180930Z 05014KT 9999 SCT012 BKN026 10/08 Q1025
                        R36/29//95 NOSIG=
201904181000 METAR LRCK 181000Z 04014KT 9999 SCT013 BKN031 10/07 Q1025
                        R36/29//95 NOSIG=
201904181030 METAR LRCK 181030Z 02013KT 9999 FEW013 BKN031 09/07 Q1025
                        R36/29//95 NOSIG=
201904181100 METAR LRCK 181100Z 04010KT 9999 SCT015 BKN031 09/08 Q1025
                        R36/29//95 NOSIG=
201904181130 METAR LRCK 181130Z 05009KT 9999 SCT019 09/08 Q1025 R36/29//95
                        NOSIG=
201904181200 METAR LRCK 181200Z 03008KT 9999 SCT018 SCT039 09/07 Q1025
                        R36/29//95 NOSIG=
201904181230 METAR COR LRCK 181230Z 04006KT 9999 BKN023 09/07 Q1025 NOSIG=
201904181300 METAR LRCK 181300Z 04006KT 5000 DZ BR BKN014 OVC020 08/07
                        Q1025 TEMPO 3000 -DZ BR=
201904181330 METAR LRCK 181330Z 02006KT 7000 -RA FEW009 BKN028 08/08 Q1025
                        NOSIG=
201904181400 METAR LRCK 181400Z 07007KT 9999 SCT011 BKN032 09/06 Q1025
                        NOSIG=
201904181430 METAR LRCK 181430Z 08009KT 9999 BKN024 08/05 Q1025 NOSIG=
201904181500 METAR LRCK 181500Z 07010KT 9999 BKN028 08/06 Q1025 NOSIG=
201904181530 METAR LRCK 181530Z 08009KT 9999 BKN029 08/06 Q1025 NOSIG=
201904181600 METAR LRCK 181600Z 07009KT 9999 BKN028 08/05 Q1025 NOSIG=
201904181630 METAR LRCK 181630Z 06008KT 9999 SCT036 07/04 Q1025 NOSIG=
201904181700 METAR LRCK 181700Z 06006KT 9999 SCT035 06/04 Q1025 NOSIG=
201904181730 METAR LRCK 181730Z 05004KT 9999 FEW040 05/03 Q1025 R36/29//95
                        NOSIG=
201904181800 METAR LRCK 181800Z 02004KT CAVOK 04/02 Q1026 R36/29//95 NOSIG=
201904181830 METAR LRCK 181830Z 36006KT CAVOK 04/02 Q1026 R36/29//95 NOSIG=
201904181900 METAR LRCK 181900Z 36006KT CAVOK 04/01 Q1026 R36/29//95 NOSIG=
201904181930 METAR LRCK 181930Z 34005KT CAVOK 03/01 Q1026 R36/29//95 NOSIG=
201904182000 METAR LRCK 182000Z 32005KT CAVOK 03/01 Q1026 R36/29//95 NOSIG=
201904182030 METAR LRCK 182030Z 32006KT CAVOK 03/01 Q1026 R36/29//95 NOSIG=
201904182100 METAR LRCK 182100Z 33006KT CAVOK 03/00 Q1026 R36/29//95 NOSIG=
201904182130 METAR LRCK 182130Z 31007KT CAVOK 02/M00 Q1025 R36/29//95
                        NOSIG=
201904182200 METAR LRCK 182200Z 29007KT CAVOK 02/00 Q1025 R36/29//95 NOSIG=
201904182230 METAR LRCK 182230Z 29008KT CAVOK 02/00 Q1025 R36/29//95 NOSIG=
201904182300 METAR LRCK 182300Z 29008KT CAVOK 02/01 Q1025 R36/29//95 NOSIG=
201904182330 METAR LRCK 182330Z 29008KT CAVOK 02/01 Q1025 R36/29//95 NOSIG=
201904190000 METAR LRCK 190000Z 29008KT CAVOK 02/01 Q1024 R36/29//95 NOSIG=
201904190030 METAR LRCK 190030Z 29008KT CAVOK 03/02 Q1024 R36/29//95 NOSIG=
201904190100 METAR LRCK 190100Z 29008KT CAVOK 03/02 Q1024 R36/29//95 NOSIG=
201904190130 METAR LRCK 190130Z 29008KT 8000 NSC 03/02 Q1024 R36/29//95
                        NOSIG=
201904190200 METAR LRCK 190200Z 29008KT 8000 NSC 03/02 Q1023 R36/29//95
                        NOSIG=
201904190230 METAR LRCK 190230Z 29008KT 7000 NSC 03/02 Q1023 R36/29//95
                        TEMPO 5000 BR=
201904190300 METAR LRCK 190300Z 29007KT 7000 NSC 03/02 Q1023 R36/29//95
                        TEMPO 5000 BR=
201904190330 METAR LRCK 190330Z 29007KT 8000 NSC 03/02 Q1023 R36/29//95
                        NOSIG=
201904190400 METAR LRCK 190400Z 29007KT CAVOK 03/02 Q1023 R36/CLRD// NOSIG=
201904190430 METAR LRCK 190430Z 29007KT CAVOK 05/03 Q1023 NOSIG=
201904190500 METAR LRCK 190500Z 29008KT CAVOK 05/04 Q1023 NOSIG=
201904190530 METAR LRCK 190530Z 29007KT CAVOK 06/05 Q1023 NOSIG=
201904190600 METAR LRCK 190600Z 29006KT CAVOK 08/06 Q1023 NOSIG=
201904190630 METAR LRCK 190630Z 29008KT CAVOK 10/06 Q1023 NOSIG=
201904190700 METAR LRCK 190700Z 29009KT CAVOK 12/06 Q1022 NOSIG=
201904190730 METAR LRCK 190730Z 28010KT 9999 FEW030 12/05 Q1022 NOSIG=
201904190800 METAR LRCK 190800Z 29010KT 9999 FEW030 13/05 Q1022 NOSIG=
201904190830 METAR LRCK 190830Z 29012KT 9999 FEW030TCU 14/04 Q1023 NOSIG=
201904190900 METAR LRCK 190900Z 35008KT 9999 FEW030 FEW045TCU 13/01 Q1023
                        NOSIG=
201904190930 METAR LRCK 190930Z 33006KT 9999 BKN040 FEW046CB 13/02 Q1023
                        NOSIG=
201904191000 METAR LRCK 191000Z 08008KT 9999 BKN049 FEW050CB 11/06 Q1023
                        TEMPO 5000 -SHRA=
201904191030 METAR LRCK 191030Z 07008KT 9999 BKN048 FEW050CB 12/05 Q1022
                        TEMPO 5000 -SHRA=
201904191100 METAR LRCK 191100Z 08008KT 9999 BKN049 FEW050CB 12/02 Q1023
                        TEMPO 5000 -SHRA=
201904191130 METAR LRCK 191130Z 09007KT 9999 SCT049 FEW050CB 11/04 Q1023
                        TEMPO 5000 -SHRA=
201904191200 METAR LRCK 191200Z 08011KT 9999 -SHRA FEW032 FEW050CB 11/05
                        Q1023 TEMPO 5000 -SHRA=
201904191230 METAR LRCK 191230Z 08014KT 9999 SCT043 FEW050CB 09/06 Q1023
                        R36/19//95 NOSIG=
201904191300 METAR LRCK 191300Z 08011KT 9999 FEW038 BKN049 FEW050CB 08/04
                        Q1023 R36/19//95 NOSIG=
201904191330 METAR LRCK 191330Z 05010KT 9999 -RA OVC040 08/06 Q1024 R36/19//95
                        NOSIG=
201904191400 METAR LRCK 191400Z 07006KT 9999 BKN039 08/05 Q1024 R36/19//95
                        NOSIG=
201904191430 METAR LRCK 191430Z 05004KT 010V070 9999 FEW047 09/03 Q1024
                        R36/19//95 NOSIG=
201904191500 METAR LRCK 191500Z 08006KT CAVOK 09/03 Q1024 R36/19//95 NOSIG=
201904191530 METAR LRCK 191530Z 06006KT CAVOK 09/03 Q1024 R36/19//95 NOSIG=
201904191600 METAR LRCK 191600Z 08005KT CAVOK 09/03 Q1024 R36/CLRD// NOSIG=
201904191630 METAR LRCK 191630Z 07004KT CAVOK 08/04 Q1025 NOSIG=
201904191700 METAR LRCK 191700Z 06003KT CAVOK 07/03 Q1025 NOSIG=
201904191730 METAR LRCK 191730Z 05001KT CAVOK 07/02 Q1025 NOSIG=
201904191800 METAR LRCK 191800Z 35001KT CAVOK 07/03 Q1026 NOSIG=
201904191830 METAR LRCK 191830Z 32003KT CAVOK 06/02 Q1026 NOSIG=
201904191900 METAR LRCK 191900Z 32003KT CAVOK 05/03 Q1026 NOSIG=
201904191930 METAR LRCK 191930Z 30005KT CAVOK 04/02 Q1026 NOSIG=
201904192000 METAR LRCK 192000Z 29006KT 9999 SCT048 03/02 Q1026 NOSIG=
201904192030 METAR LRCK 192030Z 29007KT 9999 FEW049 04/02 Q1026 NOSIG=
201904192100 METAR LRCK 192100Z 29006KT CAVOK 04/03 Q1026 NOSIG=
201904192130 METAR LRCK 192130Z 34007KT 300V050 8000 -RA BKN039 07/02
                        Q1026 NOSIG=
201904192200 METAR LRCK 192200Z 29005KT 9999 BKN039 04/03 Q1026 NOSIG=
201904192230 METAR LRCK 192230Z 32008KT 8000 -RA BKN031 06/03 Q1026 NOSIG=
201904192300 METAR LRCK 192300Z 32004KT 290V350 8000 -RA BKN031 FEW050CB
                        05/04 Q1025 NOSIG=
201904192330 METAR LRCK 192330Z 01003KT 9999 SCT043 FEW050CB 05/03 Q1025
                        R36/29//95 NOSIG=
201904200000 METAR LRCK 200000Z 32004KT 9999 FEW045 04/03 Q1025 R36/29//95
                        NOSIG=
201904200030 METAR LRCK 200030Z 29007KT CAVOK 05/04 Q1025 R36/29//95 NOSIG=
201904200100 METAR LRCK 200100Z 30007KT CAVOK 05/03 Q1024 R36/29//95 NOSIG=
201904200130 METAR LRCK 200130Z 29007KT CAVOK 04/03 Q1024 R36/29//95 NOSIG=
201904200200 METAR LRCK 200200Z 29007KT CAVOK 03/03 Q1024 R36/29//95 NOSIG=
201904200230 METAR LRCK 200230Z 29008KT 7000 NSC 04/03 Q1024 R36/29//95
                        NOSIG=
201904200300 METAR LRCK 200300Z 29008KT 8000 NSC 03/03 Q1024 R36/29//95
                        NOSIG=
201904200330 METAR LRCK 200330Z 30007KT 8000 NSC 04/03 Q1024 R36/29//95
                        NOSIG=
201904200400 METAR LRCK 200400Z 32009KT CAVOK 05/04 Q1024 R36/29//95 NOSIG=
201904200430 METAR LRCK 200430Z 33010KT CAVOK 06/04 Q1024 R36/29//95 NOSIG=
201904200500 METAR LRCK 200500Z 33010KT CAVOK 07/04 Q1024 R36/29//95 NOSIG=
201904200530 METAR LRCK 200530Z 33010KT CAVOK 08/04 Q1024 R36/29//95 NOSIG=
201904200600 METAR LRCK 200600Z 34011KT CAVOK 09/04 Q1025 R36/29//95 NOSIG=
201904200630 METAR LRCK 200630Z 01012KT CAVOK 09/01 Q1025 R36/29//95 NOSIG=
201904200700 METAR LRCK 200700Z 02015KT CAVOK 10/01 Q1025 R36/29//95 NOSIG=
201904200730 METAR LRCK 200730Z 02014KT CAVOK 10/03 Q1025 R36/29//95 NOSIG=
201904200800 METAR LRCK 200800Z 03015KT 9999 FEW035 11/00 Q1025 R36/29//95
                        NOSIG=
201904200830 METAR LRCK 200830Z 02013KT 9999 FEW035 FEW040CB 12/M01 Q1025
                        R36/29//95 NOSIG=
201904200900 METAR LRCK 200900Z 01017KT 9999 FEW035 FEW040CB 12/00 Q1025
                        R36/29//95 NOSIG=
201904200930 METAR LRCK 200930Z 03017KT CAVOK 12/M02 Q1025 R36/CLRD//
                        NOSIG=
201904201000 METAR LRCK 201000Z 03017KT CAVOK 12/M01 Q1025 NOSIG=
201904201030 METAR LRCK 201030Z 03019KT CAVOK 13/M02 Q1025 NOSIG=
201904201100 METAR LRCK 201100Z 03019KT CAVOK 12/M03 Q1025 NOSIG=
201904201130 METAR LRCK 201130Z 05016KT CAVOK 12/M03 Q1025 NOSIG=
201904201200 METAR LRCK 201200Z 07013KT 040V100 CAVOK 12/01 Q1026 NOSIG=
201904201230 METAR LRCK 201230Z 07012KT CAVOK 12/M02 Q1026 NOSIG=
201904201300 METAR LRCK 201300Z 09014KT CAVOK 13/M01 Q1025 NOSIG=
201904201330 METAR LRCK 201330Z 08013KT CAVOK 12/M02 Q1025 NOSIG=
201904201400 METAR LRCK 201400Z 08013KT CAVOK 12/M02 Q1025 NOSIG=
201904201430 METAR LRCK 201430Z 09012KT CAVOK 11/M02 Q1026 NOSIG=
201904201500 METAR COR LRCK 201500Z 09010KT CAVOK 11/M03 Q1026 NOSIG=
201904201530 METAR LRCK 201530Z 09008KT CAVOK 10/M03 Q1026 NOSIG=
201904201600 METAR LRCK 201600Z 08008KT CAVOK 10/M02 Q1026 NOSIG=
201904201630 METAR LRCK 201630Z 08007KT CAVOK 08/M01 Q1026 NOSIG=
201904201700 METAR LRCK 201700Z 07003KT CAVOK 07/M01 Q1026 NOSIG=
201904201730 METAR LRCK 201730Z 00000KT CAVOK 07/M02 Q1026 NOSIG=
201904201800 METAR LRCK 201800Z 24002KT CAVOK 05/M01 Q1026 NOSIG=
201904201830 METAR LRCK 201830Z 25003KT CAVOK 05/M01 Q1026 NOSIG=
201904201900 METAR LRCK 201900Z 27006KT CAVOK 04/M02 Q1026 NOSIG=
201904201930 METAR LRCK 201930Z 28006KT CAVOK 03/M02 Q1026 NOSIG=
201904202000 METAR LRCK 202000Z 29007KT CAVOK 03/M01 Q1026 NOSIG=
201904202030 METAR LRCK 202030Z 28007KT CAVOK 03/M01 Q1026 NOSIG=
201904202100 METAR LRCK 202100Z 29007KT CAVOK 03/M01 Q1026 NOSIG=
201904202130 METAR LRCK 202130Z 29007KT CAVOK 02/M01 Q1025 NOSIG=
201904202200 METAR LRCK 202200Z 28006KT CAVOK 03/M02 Q1025 NOSIG=
201904202230 METAR LRCK 202230Z 28006KT CAVOK 02/M02 Q1025 NOSIG=
201904202300 METAR LRCK 202300Z 28005KT CAVOK 02/M02 Q1025 NOSIG=
201904202330 METAR LRCK 202330Z 29009KT CAVOK 03/M02 Q1024 NOSIG=
201904210000 METAR LRCK 210000Z 29009KT CAVOK 04/M02 Q1024 NOSIG=
201904210030 METAR LRCK 210030Z 29009KT CAVOK 03/M01 Q1024 NOSIG=
201904210100 METAR LRCK 210100Z 29009KT CAVOK 03/M01 Q1024 NOSIG=
201904210130 METAR LRCK 210130Z 29009KT CAVOK 03/M01 Q1024 NOSIG=
201904210200 METAR LRCK 210200Z 29009KT CAVOK 03/M01 Q1024 NOSIG=
201904210230 METAR LRCK 210230Z 29008KT CAVOK 03/M01 Q1024 NOSIG=
201904210300 METAR LRCK 210300Z 29007KT CAVOK 02/M01 Q1024 NOSIG=
201904210330 METAR LRCK 210330Z 29009KT CAVOK 03/M01 Q1024 NOSIG=
201904210400 METAR LRCK 210400Z 29009KT CAVOK 03/M01 Q1024 NOSIG=
201904210430 METAR LRCK 210430Z 29008KT CAVOK 04/M00 Q1024 NOSIG=
201904210500 METAR LRCK 210500Z 29009KT CAVOK 05/01 Q1024 NOSIG=
201904210530 METAR LRCK 210530Z 29008KT CAVOK 06/01 Q1024 NOSIG=
201904210600 METAR LRCK 210600Z 29009KT CAVOK 08/01 Q1024 NOSIG=
201904210630 METAR LRCK 210630Z 28007KT CAVOK 10/02 Q1024 NOSIG=
201904210700 METAR LRCK 210700Z 28007KT CAVOK 12/03 Q1024 NOSIG=
201904210730 METAR LRCK 210730Z 29006KT 260V320 CAVOK 13/02 Q1024 NOSIG=
201904210800 METAR LRCK 210800Z 28007KT 260V320 CAVOK 14/01 Q1024 NOSIG=
201904210830 METAR LRCK 210830Z 28007KT 260V320 CAVOK 14/01 Q1024 NOSIG=
201904210900 METAR LRCK 210900Z 28005KT 180V350 CAVOK 15/M01 Q1023 BECMG
                        10010KT=
201904210930 METAR LRCK 210930Z 30005KT 270V330 CAVOK 14/M01 Q1023 BECMG
                        10010KT=
201904211000 METAR LRCK 211000Z 09009KT CAVOK 13/01 Q1023 NOSIG=
201904211030 METAR LRCK 211030Z 12009KT CAVOK 13/00 Q1023 NOSIG=
201904211100 METAR LRCK 211100Z 11009KT CAVOK 14/M00 Q1023 NOSIG=
201904211130 METAR LRCK 211130Z 11010KT CAVOK 14/M01 Q1023 NOSIG=
201904211200 METAR LRCK 211200Z 11012KT CAVOK 15/M01 Q1023 NOSIG=
201904211230 METAR LRCK 211230Z 13012KT CAVOK 14/M01 Q1023 NOSIG=
201904211300 METAR LRCK 211300Z 14011KT CAVOK 14/00 Q1023 NOSIG=
201904211330 METAR LRCK 211330Z 14012KT CAVOK 14/01 Q1023 NOSIG=
201904211400 METAR LRCK 211400Z 14012KT CAVOK 14/01 Q1023 NOSIG=
201904211430 METAR LRCK 211430Z 13013KT CAVOK 13/01 Q1023 NOSIG=
201904211500 METAR LRCK 211500Z 14011KT CAVOK 12/01 Q1023 NOSIG=
201904211530 METAR LRCK 211530Z 13009KT CAVOK 11/01 Q1022 NOSIG=
201904211600 METAR LRCK 211600Z 13008KT CAVOK 11/00 Q1022 NOSIG=
201904211630 METAR LRCK 211630Z 14007KT CAVOK 10/01 Q1022 NOSIG=
201904211700 METAR LRCK 211700Z 14006KT CAVOK 09/00 Q1023 NOSIG=
201904211730 METAR LRCK 211730Z 17006KT CAVOK 08/00 Q1023 NOSIG=
201904211800 METAR LRCK 211800Z 17006KT CAVOK 07/01 Q1023 NOSIG=
201904211830 METAR LRCK 211830Z 16006KT CAVOK 07/02 Q1023 NOSIG=
201904211900 METAR LRCK 211900Z 16005KT CAVOK 07/02 Q1023 NOSIG=
201904211930 METAR LRCK 211930Z 16005KT CAVOK 07/01 Q1023 NOSIG=
201904212000 METAR LRCK 212000Z 18007KT CAVOK 06/00 Q1023 NOSIG=
201904212030 METAR LRCK 212030Z 18006KT CAVOK 05/M00 Q1023 NOSIG=
201904212100 METAR LRCK 212100Z 20005KT CAVOK 04/M01 Q1023 NOSIG=
201904212130 METAR LRCK 212130Z 22005KT CAVOK 05/M01 Q1023 NOSIG=
201904212200 METAR COR LRCK 212200Z 22005KT CAVOK 05/M01 Q1023 NOSIG=
201904212230 METAR LRCK 212230Z 22004KT CAVOK 04/M01 Q1022 NOSIG=
201904212300 METAR LRCK 212300Z AUTO 23004KT 9999 NCD 05/M01 Q1022 NOSIG=
201904212330 METAR LRCK 212330Z 20005KT CAVOK 05/M02 Q1022 NOSIG=
201904220000 METAR LRCK 220000Z 20004KT CAVOK 05/M02 Q1022 NOSIG=
201904220030 METAR LRCK 220030Z 07003KT CAVOK 04/M01 Q1022 NOSIG=
201904220100 METAR COR LRCK 220100Z 10004KT CAVOK 03/M01 Q1022 NOSIG=
201904220130 METAR LRCK 220130Z 10004KT CAVOK 03/M01 Q1022 NOSIG=
201904220200 METAR LRCK 220200Z 12002KT CAVOK 03/M01 Q1022 NOSIG=
201904220230 METAR LRCK 220230Z 00000KT CAVOK 03/M01 Q1022 NOSIG=
201904220300 METAR LRCK 220300Z 00000KT CAVOK 03/M01 Q1022 NOSIG=
201904220330 METAR LRCK 220330Z 05004KT CAVOK 05/M02 Q1022 NOSIG=
201904220400 METAR LRCK 220400Z 05006KT CAVOK 03/M02 Q1022 NOSIG=
201904220430 METAR LRCK 220430Z 07004KT 9999 FEW001 05/01 Q1023 NOSIG=
201904220500 METAR LRCK 220500Z 06003KT 8000 SCT002 07/05 Q1023 NOSIG=
201904220530 METAR LRCK 220530Z 07005KT CAVOK 08/06 Q1023 NOSIG=
201904220600 METAR LRCK 220600Z 07005KT CAVOK 09/06 Q1023 NOSIG=
201904220630 METAR LRCK 220630Z 08005KT CAVOK 10/05 Q1023 NOSIG=
201904220700 METAR LRCK 220700Z 09007KT 060V130 CAVOK 12/02 Q1024 NOSIG=
201904220730 METAR LRCK 220730Z 10008KT CAVOK 13/00 Q1024 NOSIG=
201904220800 METAR LRCK 220800Z 12008KT 080V140 CAVOK 14/M03 Q1024 NOSIG=
201904220830 METAR LRCK 220830Z 12008KT CAVOK 14/M03 Q1024 NOSIG=
201904220900 METAR LRCK 220900Z 11009KT 060V140 CAVOK 14/M03 Q1024 NOSIG=
201904220930 METAR LRCK 220930Z 11010KT CAVOK 14/M03 Q1024 NOSIG=
201904221000 METAR LRCK 221000Z 11010KT CAVOK 14/M05 Q1024 NOSIG=
201904221030 METAR LRCK 221030Z 11011KT CAVOK 14/M04 Q1024 NOSIG=
201904221100 METAR LRCK 221100Z 12010KT CAVOK 14/M05 Q1024 NOSIG=
201904221130 METAR LRCK 221130Z 11010KT CAVOK 14/M04 Q1024 NOSIG=
201904221200 METAR LRCK 221200Z 11010KT CAVOK 14/M04 Q1024 NOSIG=
201904221230 METAR LRCK 221230Z 10011KT CAVOK 14/M04 Q1024 NOSIG=
201904221300 METAR LRCK 221300Z 11010KT CAVOK 14/M05 Q1024 NOSIG=
201904221330 METAR LRCK 221330Z 11009KT CAVOK 15/M04 Q1024 NOSIG=
201904221400 METAR LRCK 221400Z 11010KT CAVOK 14/M05 Q1024 NOSIG=
201904221430 METAR LRCK 221430Z 11010KT CAVOK 14/M05 Q1024 NOSIG=
201904221500 METAR LRCK 221500Z 11010KT CAVOK 14/M05 Q1024 NOSIG=
201904221530 METAR LRCK 221530Z 12008KT CAVOK 13/M04 Q1024 NOSIG=
201904221600 METAR LRCK 221600Z 11008KT CAVOK 12/M04 Q1024 NOSIG=
201904221630 METAR LRCK 221630Z 11006KT CAVOK 12/M05 Q1024 NOSIG=
201904221700 METAR LRCK 221700Z 11006KT CAVOK 10/M04 Q1025 NOSIG=
201904221730 METAR LRCK 221730Z 12006KT CAVOK 08/M02 Q1025 NOSIG=
201904221800 METAR LRCK 221800Z 12005KT CAVOK 07/M00 Q1025 NOSIG=
201904221830 METAR LRCK 221830Z 12003KT CAVOK 07/02 Q1025 NOSIG=
201904221900 METAR LRCK 221900Z 10002KT CAVOK 08/04 Q1025 NOSIG=
201904221930 METAR LRCK 221930Z 03003KT CAVOK 07/03 Q1025 NOSIG=
201904222000 METAR LRCK 222000Z 05004KT CAVOK 06/02 Q1025 NOSIG=
201904222030 METAR LRCK 222030Z 05004KT CAVOK 06/03 Q1025 NOSIG=
201904222100 METAR LRCK 222100Z 07003KT CAVOK 06/04 Q1025 NOSIG=
201904222130 METAR LRCK 222130Z 07005KT CAVOK 06/04 Q1026 NOSIG=
201904222200 METAR LRCK 222200Z 07004KT CAVOK 05/04 Q1026 NOSIG=
201904222230 METAR LRCK 222230Z 04005KT 7000 NSC 05/04 Q1025 NOSIG=
201904222300 METAR LRCK 222300Z 03006KT 5000 BR NSC 05/04 Q1025 NOSIG=
201904222330 METAR LRCK 222330Z 02006KT 5000 BR NSC 04/04 Q1025 NOSIG=
201904230000 METAR LRCK 230000Z 03007KT 5000 BR NSC 04/03 Q1025 NOSIG=
201904230030 METAR LRCK 230030Z 02006KT 5000 BR NSC 04/04 Q1025 NOSIG=
201904230100 METAR LRCK 230100Z 01006KT 3000 BR NSC 05/05 Q1026 NOSIG=
201904230130 METAR LRCK 230130Z 01007KT 3000 BR NSC 05/05 Q1025 NOSIG=
201904230200 METAR LRCK 230200Z 01007KT 3000 BR NSC 04/04 Q1025 NOSIG=
201904230230 METAR LRCK 230230Z 02006KT 2000 BR NSC 04/04 Q1026 NOSIG=
201904230300 METAR COR LRCK 230300Z 02005KT 1000 MIFG BR NSC 04/04 Q1026
                        BECMG 5000=
201904230330 METAR LRCK 230330Z 03005KT 8000 NSC 05/05 Q1026 NOSIG=
201904230400 METAR LRCK 230400Z 02006KT CAVOK 04/04 Q1026 NOSIG=
201904230430 METAR LRCK 230430Z 02004KT CAVOK 07/04 Q1027 NOSIG=
201904230500 METAR LRCK 230500Z 03005KT CAVOK 09/05 Q1027 NOSIG=
201904230530 METAR LRCK 230530Z 04008KT CAVOK 10/04 Q1027 NOSIG=
201904230600 METAR LRCK 230600Z 04007KT CAVOK 11/04 Q1027 NOSIG=
201904230630 METAR LRCK 230630Z 07010KT CAVOK 12/04 Q1027 NOSIG=
201904230700 METAR LRCK 230700Z 08010KT CAVOK 13/03 Q1027 NOSIG=
201904230730 METAR LRCK 230730Z 09011KT CAVOK 14/02 Q1028 NOSIG=
201904230800 METAR LRCK 230800Z 10011KT CAVOK 14/01 Q1028 NOSIG=
201904230830 METAR LRCK 230830Z 11011KT CAVOK 14/01 Q1028 NOSIG=
201904230900 METAR LRCK 230900Z 10013KT CAVOK 14/M00 Q1028 NOSIG=
201904230930 METAR LRCK 230930Z 10014KT CAVOK 14/00 Q1028 NOSIG=
201904231000 METAR LRCK 231000Z 10013KT CAVOK 14/02 Q1028 NOSIG=
201904231030 METAR LRCK 231030Z 10015KT CAVOK 14/02 Q1028 NOSIG=
201904231100 METAR LRCK 231100Z 12014KT CAVOK 13/01 Q1028 NOSIG=
201904231130 METAR LRCK 231130Z 11013KT CAVOK 14/02 Q1028 NOSIG=
201904231200 METAR LRCK 231200Z 10013KT CAVOK 15/03 Q1028 NOSIG=
201904231230 METAR LRCK 231230Z 10012KT CAVOK 14/03 Q1028 NOSIG=
201904231300 METAR LRCK 231300Z 13010KT CAVOK 14/04 Q1028 NOSIG=
201904231330 METAR LRCK 231330Z 12011KT CAVOK 14/05 Q1028 NOSIG=
201904231400 METAR LRCK 231400Z 12010KT CAVOK 13/04 Q1027 NOSIG=
201904231430 METAR LRCK 231430Z 11010KT CAVOK 13/04 Q1027 NOSIG=
201904231500 METAR LRCK 231500Z 12010KT CAVOK 13/05 Q1027 NOSIG=
201904231530 METAR LRCK 231530Z 12010KT CAVOK 12/05 Q1027 NOSIG=
201904231600 METAR LRCK 231600Z 12010KT CAVOK 11/06 Q1027 NOSIG=
201904231630 METAR LRCK 231630Z 10010KT CAVOK 11/07 Q1027 NOSIG=
201904231700 METAR LRCK 231700Z 10009KT CAVOK 10/07 Q1027 NOSIG=
201904231730 METAR LRCK 231730Z 11006KT CAVOK 09/07 Q1027 NOSIG=
201904231800 METAR LRCK 231800Z 09009KT CAVOK 08/07 Q1027 NOSIG=
201904231830 METAR LRCK 231830Z 10007KT CAVOK 07/06 Q1027 NOSIG=
201904231900 METAR LRCK 231900Z 10007KT 8000 NSC 07/06 Q1027 NOSIG=
201904231930 METAR LRCK 231930Z 12007KT 8000 NSC 08/07 Q1027 NOSIG=
201904232000 METAR LRCK 232000Z 12007KT 8000 NSC 07/07 Q1027 NOSIG=
201904232030 METAR LRCK 232030Z 12006KT 8000 NSC 08/06 Q1027 NOSIG=
201904232100 METAR LRCK 232100Z 11008KT 8000 NSC 07/06 Q1027 NOSIG=
201904232130 METAR LRCK 232130Z 11007KT 8000 NSC 07/06 Q1027 NOSIG=
201904232200 METAR LRCK 232200Z 11007KT 8000 NSC 06/06 Q1027 NOSIG=
201904232230 METAR LRCK 232230Z 12008KT 8000 NSC 07/06 Q1027 NOSIG=
201904232300 METAR LRCK 232300Z 12008KT 8000 NSC 07/07 Q1026 NOSIG=
201904232330 METAR LRCK 232330Z 12006KT 8000 NSC 09/08 Q1026 NOSIG=
201904240000 METAR LRCK 240000Z 14007KT 8000 NSC 09/07 Q1026 NOSIG=
201904240030 METAR LRCK 240030Z 13007KT CAVOK 09/07 Q1026 NOSIG=
201904240100 METAR LRCK 240100Z 14006KT CAVOK 09/07 Q1026 NOSIG=
201904240130 METAR LRCK 240130Z 13006KT CAVOK 09/07 Q1026 NOSIG=
201904240200 METAR LRCK 240200Z 10009KT CAVOK 09/08 Q1026 NOSIG=
201904240230 METAR LRCK 240230Z 12009KT CAVOK 09/08 Q1026 NOSIG=
201904240300 METAR LRCK 240300Z 10009KT 9999 -RA NSC 09/08 Q1025 NOSIG=
201904240330 METAR LRCK 240330Z 11012KT CAVOK 09/08 Q1026 NOSIG=
201904240400 METAR LRCK 240400Z 13008KT CAVOK 09/08 Q1026 NOSIG=
201904240430 METAR LRCK 240430Z 13008KT CAVOK 09/08 Q1027 R18/29//95 NOSIG=
201904240500 METAR LRCK 240500Z 12007KT CAVOK 09/08 Q1027 R18/29//95 NOSIG=
201904240530 METAR LRCK 240530Z 12007KT CAVOK 10/08 Q1027 R18/29//95 NOSIG=
201904240600 METAR LRCK 240600Z 11007KT CAVOK 10/08 Q1028 R18/29//95 NOSIG=
201904240630 METAR LRCK 240630Z 11008KT CAVOK 10/08 Q1028 R18/29//95 NOSIG=
201904240700 METAR LRCK 240700Z 10008KT CAVOK 10/07 Q1028 R36/29//95 NOSIG=
201904240730 METAR LRCK 240730Z 11009KT CAVOK 11/08 Q1028 R36/29//95 NOSIG=
201904240800 METAR LRCK 240800Z 11010KT CAVOK 12/06 Q1028 R36/29//95 NOSIG=
201904240830 METAR LRCK 240830Z 11011KT CAVOK 12/07 Q1028 R36/CLRD//=
201904240900 METAR LRCK 240900Z 12011KT CAVOK 12/07 Q1028 NOSIG=
201904240930 METAR LRCK 240930Z 12011KT CAVOK 13/06 Q1028 NOSIG=
201904241000 METAR LRCK 241000Z 12011KT CAVOK 13/06 Q1028 NOSIG=
201904241030 METAR LRCK 241030Z 12013KT CAVOK 14/05 Q1028 NOSIG=
201904241100 METAR LRCK 241100Z 11014KT CAVOK 15/03 Q1028 NOSIG=
201904241130 METAR LRCK 241130Z 12014KT CAVOK 15/01 Q1028 NOSIG=
201904241200 METAR LRCK 241200Z 12014KT CAVOK 15/03 Q1028 NOSIG=
201904241230 METAR LRCK 241230Z 13016KT CAVOK 15/02 Q1028 NOSIG=
201904241300 METAR LRCK 241300Z 13015KT CAVOK 14/03 Q1027 NOSIG=
201904241330 METAR LRCK 241330Z 14015KT CAVOK 15/02 Q1027 NOSIG=
201904241400 METAR LRCK 241400Z 13014KT CAVOK 14/03 Q1027 NOSIG=
201904241430 METAR LRCK 241430Z 12015KT CAVOK 14/03 Q1027 NOSIG=
201904241500 METAR LRCK 241500Z 12014KT CAVOK 14/03 Q1027 NOSIG=
201904241530 METAR LRCK 241530Z 12013KT CAVOK 13/03 Q1027 NOSIG=
201904241600 METAR LRCK 241600Z 12012KT CAVOK 12/04 Q1027 NOSIG=
201904241630 METAR LRCK 241630Z 11011KT CAVOK 11/04 Q1027 NOSIG=
201904241700 METAR LRCK 241700Z 11010KT CAVOK 10/05 Q1027 NOSIG=
201904241730 METAR LRCK 241730Z 10008KT CAVOK 09/05 Q1027 NOSIG=
201904241800 METAR LRCK 241800Z 11008KT CAVOK 08/06 Q1027 NOSIG=
201904241830 METAR LRCK 241830Z 10008KT CAVOK 08/06 Q1027 NOSIG=
201904241900 METAR LRCK 241900Z 10007KT CAVOK 07/06 Q1027 NOSIG=
201904241930 METAR LRCK 241930Z 09007KT CAVOK 08/06 Q1027 NOSIG=
201904242000 METAR LRCK 242000Z 10007KT CAVOK 07/06 Q1027 NOSIG=
201904242030 METAR LRCK 242030Z 11009KT CAVOK 07/06 Q1027 NOSIG=
201904242100 METAR LRCK 242100Z 10006KT CAVOK 07/07 Q1027 TEMPO 5000 BR=
201904242130 METAR LRCK 242130Z 08005KT 7000 MIFG NSC 07/07 Q1027 TEMPO
                        5000 BR=
201904242200 METAR LRCK 242200Z 08005KT 5000 BR NSC 07/07 Q1027 TEMPO
                        3000 BR=
201904242230 METAR LRCK 242230Z 08004KT 8000 2000N BR MIFG NSC 07/07 Q1026
                        TEMPO 5000 BR=
201904242300 METAR LRCK 242300Z 10005KT 1500 BR MIFG SCT004 07/07 Q1026
                        TEMPO 0800 FG BKN004=
201904242330 METAR LRCK 242330Z 10007KT 1500 0700N R18/P2000U R36/P2000
                        PRFG BKN004 07/07 Q1026 TEMPO 0800
                        FG=
201904250000 METAR COR LRCK 250000Z 11008KT 1500 0700N R18/1100U R36/P2000
                        PRFG BKN002 07/07 Q1026 TEMPO 0800
                        FG=
201904250030 METAR LRCK 250030Z AUTO 10007KT 0550 R18/0650D R36/1000V1700U
                        FG SCT005/// 06/06 Q1026 TEMPO 0600
                        FG=
201904250100 METAR COR LRCK 250100Z 11007KT 1500 R18/1400U R36/P2000 BR
                        PRFG SCT006 06/06 Q1026 NOSIG=
201904250130 METAR LRCK 250130Z 11006KT 0700 R18/0650D R36/1500D FG SCT006
                        06/06 Q1026 NOSIG=
201904250200 METAR LRCK 250200Z 10006KT 0250 R18/0700N R36/0400N FG OVC002
                        06/06 Q1026 NOSIG=
201904250230 METAR LRCK 250230Z 10007KT 0250 R18/0375U R36/0275N FG OVC002
                        06/06 Q1026 NOSIG=
201904250300 METAR LRCK 250300Z 09004KT 0150 R18/0300N R36/0300N FG OVC001
                        06/06 Q1026 NOSIG=
201904250330 METAR LRCK 250330Z 09005KT 0100 R18/0250N R36/0200N FG OVC001
                        06/06 Q1026 NOSIG=
201904250400 METAR LRCK 250400Z 07004KT 0150 R18/0175N R36/0200N FG BKN002
                        07/07 Q1026 NOSIG=
201904250430 METAR LRCK 250430Z 08006KT 2000 0400N R18/0350N R36/0350N
                        PRFG BR SCT001 09/09 Q1026 NOSIG=
201904250500 METAR LRCK 250500Z 08007KT 5000 BR SCT002 10/10 Q1026 NOSIG=
201904250530 METAR LRCK 250530Z 10011KT 9999 SCT002 11/09 Q1026 NOSIG=
201904250600 METAR LRCK 250600Z 10010KT 9999 FEW002 12/08 Q1026 NOSIG=
201904250630 METAR LRCK 250630Z 11011KT CAVOK 12/08 Q1027 NOSIG=
201904250700 METAR LRCK 250700Z 11011KT CAVOK 13/08 Q1027 NOSIG=
201904250730 METAR LRCK 250730Z 11012KT CAVOK 14/09 Q1027 NOSIG=
201904250800 METAR LRCK 250800Z 11013KT CAVOK 14/08 Q1027 NOSIG=
201904250830 METAR LRCK 250830Z 11013KT CAVOK 14/07 Q1027 NOSIG=
201904250900 METAR LRCK 250900Z 13013KT CAVOK 15/06 Q1027 NOSIG=
201904250930 METAR COR LRCK 250930Z 12013KT CAVOK 15/05 Q1027 NOSIG=
201904251000 METAR LRCK 251000Z 12014KT CAVOK 16/06 Q1027 NOSIG=
201904251030 METAR LRCK 251030Z 12014KT CAVOK 15/06 Q1026 NOSIG=
201904251100 METAR LRCK 251100Z 13014KT CAVOK 15/05 Q1026 NOSIG=
201904251130 METAR LRCK 251130Z 13014KT CAVOK 15/04 Q1026 NOSIG=
201904251200 METAR LRCK 251200Z 12014KT CAVOK 15/05 Q1026 NOSIG=
201904251230 METAR LRCK 251230Z 14015KT CAVOK 15/05 Q1026 NOSIG=
201904251300 METAR LRCK 251300Z 12013KT CAVOK 15/06 Q1025 NOSIG=
201904251330 METAR LRCK 251330Z 12013KT CAVOK 15/07 Q1025 NOSIG=
201904251400 METAR LRCK 251400Z 11012KT CAVOK 14/07 Q1025 NOSIG=
201904251430 METAR LRCK 251430Z 12012KT CAVOK 14/07 Q1024 NOSIG=
201904251500 METAR LRCK 251500Z 12012KT CAVOK 14/07 Q1024 NOSIG=
201904251530 METAR LRCK 251530Z 11012KT CAVOK 13/07 Q1024 NOSIG=
201904251600 METAR LRCK 251600Z 11013KT CAVOK 12/08 Q1024 NOSIG=
201904251630 METAR LRCK 251630Z 12012KT CAVOK 11/08 Q1024 NOSIG=
201904251700 METAR LRCK 251700Z 12010KT CAVOK 11/08 Q1024 NOSIG=
201904251730 METAR LRCK 251730Z 12007KT CAVOK 10/08 Q1024 NOSIG=
201904251800 METAR LRCK 251800Z 12006KT CAVOK 10/08 Q1024 NOSIG=
201904251830 METAR LRCK 251830Z 12006KT 9999 FEW006 09/08 Q1024 BECMG
                        5000 BR BKN005=
201904251900 METAR LRCK 251900Z 12007KT 8000 BKN006 09/08 Q1024 BECMG
                        5000 BR=
201904251930 METAR LRCK 251930Z 12007KT 7000 BKN006 09/08 Q1024 BECMG
                        5000 BR=
201904252000 METAR LRCK 252000Z 13006KT 5000 BR BKN005 09/08 Q1023 BECMG
                        3000 BR=
201904252030 METAR LRCK 252030Z 14004KT 3000 BR BKN005 09/08 Q1023 BECMG
                        1500 BR=
201904252100 METAR LRCK 252100Z 12004KT 3000 BR BKN005 08/07 Q1023 BECMG
                        1500 BR=
201904252130 METAR LRCK 252130Z 11003KT 3000 BR BKN005 08/07 Q1023 NOSIG=
201904252200 METAR LRCK 252200Z 13006KT 4000 BR BKN005 08/08 Q1023 NOSIG=
201904252230 METAR LRCK 252230Z 11005KT 4000 BR BKN005 09/08 Q1023 NOSIG=
201904252300 METAR LRCK 252300Z 12005KT 4000 BR BKN005 08/08 Q1023 NOSIG=
201904252330 METAR LRCK 252330Z 13005KT 4000 BR BKN005 08/08 Q1022 NOSIG=
201904260000 METAR LRCK 260000Z 12006KT 4000 BR OVC005 08/08 Q1022 NOSIG=
201904260030 METAR LRCK 260030Z 17003KT 3000 BR BKN005 08/08 Q1022 NOSIG=
201904260100 METAR LRCK 260100Z 16004KT 2500 BR BKN005 08/07 Q1022 NOSIG=
201904260130 METAR LRCK 260130Z 15004KT 2500 BR BKN004 08/08 Q1022 NOSIG=
201904260200 METAR LRCK 260200Z 12004KT 2000 BR BKN004 07/06 Q1022 TEMPO
                        1500 BR=
201904260230 METAR LRCK 260230Z 12004KT 0800 R18/1900D R36/1300D FG BKN004
                        07/07 Q1021 BECMG 0600 FG BKN002=
201904260300 METAR LRCK 260300Z 12005KT 080V140 1500 BR BKN004 08/08 Q1022
                        BECMG 3000=
201904260330 METAR LRCK 260330Z 12006KT 2000 BR BKN004 08/08 Q1022 NOSIG=
201904260400 METAR LRCK 260400Z 12007KT 3000 BR BKN004 09/09 Q1022 BECMG
                        5000=
201904260430 METAR COR LRCK 260430Z 12009KT 7000 BKN004 10/09 Q1022 NOSIG=
201904260500 METAR LRCK 260500Z 13010KT 9999 BKN005 10/09 Q1022 NOSIG=
201904260530 METAR LRCK 260530Z 12008KT 9999 BKN005 11/09 Q1022 NOSIG=
201904260600 METAR LRCK 260600Z 12009KT 9999 BKN006 11/09 Q1022 NOSIG=
201904260630 METAR LRCK 260630Z 12010KT 9999 SCT007 12/09 Q1022 NOSIG=
201904260700 METAR LRCK 260700Z 13011KT 9999 FEW008 13/09 Q1022 NOSIG=
201904260730 METAR LRCK 260730Z 13011KT CAVOK 14/09 Q1022 NOSIG=
201904260800 METAR LRCK 260800Z 13012KT CAVOK 15/09 Q1022 NOSIG=
201904260830 METAR LRCK 260830Z 14012KT CAVOK 16/09 Q1022 NOSIG=
201904260900 METAR LRCK 260900Z 13013KT CAVOK 17/09 Q1022 NOSIG=
201904260930 METAR LRCK 260930Z 14013KT CAVOK 17/08 Q1022 NOSIG=
201904261000 METAR LRCK 261000Z 14013KT CAVOK 17/06 Q1022 NOSIG=
201904261030 METAR LRCK 261030Z 14014KT CAVOK 19/06 Q1022 NOSIG=
201904261100 METAR LRCK 261100Z 14015KT CAVOK 18/06 Q1021 NOSIG=
201904261130 METAR LRCK 261130Z 14013KT CAVOK 18/06 Q1022 NOSIG=
201904261200 METAR LRCK 261200Z 14014KT CAVOK 18/07 Q1021 NOSIG=
201904261230 METAR LRCK 261230Z 14013KT CAVOK 18/05 Q1021 NOSIG=
201904261300 METAR LRCK 261300Z 13013KT CAVOK 18/06 Q1021 NOSIG=
201904261330 METAR LRCK 261330Z 13014KT CAVOK 17/08 Q1020 NOSIG=
201904261400 METAR LRCK 261400Z 13013KT CAVOK 16/08 Q1020 NOSIG=
201904261430 METAR LRCK 261430Z 13012KT CAVOK 17/07 Q1020 NOSIG=
201904261500 METAR LRCK 261500Z 14012KT CAVOK 16/07 Q1020 NOSIG=
201904261530 METAR LRCK 261530Z 14010KT CAVOK 16/07 Q1020 NOSIG=
201904261600 METAR LRCK 261600Z 13010KT CAVOK 14/08 Q1020 NOSIG=
201904261630 METAR LRCK 261630Z 13009KT CAVOK 14/07 Q1020 NOSIG=
201904261700 METAR LRCK 261700Z 13007KT CAVOK 12/08 Q1020 NOSIG=
201904261730 METAR LRCK 261730Z 13007KT CAVOK 11/08 Q1019 NOSIG=
201904261800 METAR LRCK 261800Z 14008KT CAVOK 10/06 Q1020 NOSIG=
201904261830 METAR LRCK 261830Z 12004KT CAVOK 10/06 Q1020 NOSIG=
201904261900 METAR LRCK 261900Z 12004KT CAVOK 09/06 Q1020 NOSIG=
201904261930 METAR LRCK 261930Z 13005KT CAVOK 09/06 Q1020 NOSIG=
201904262000 METAR LRCK 262000Z 15005KT CAVOK 09/06 Q1019 NOSIG=
201904262030 METAR LRCK 262030Z 16007KT CAVOK 09/06 Q1019 NOSIG=
201904262100 METAR LRCK 262100Z 14006KT CAVOK 08/07 Q1019 NOSIG=
201904262130 METAR LRCK 262130Z 17005KT CAVOK 08/07 Q1019 NOSIG=
201904262200 METAR LRCK 262200Z 17005KT CAVOK 08/07 Q1019 NOSIG=
201904262230 METAR LRCK 262230Z 17007KT 5000 R18/P2000 R36/0650N BR MIFG
                        NSC 07/07 Q1019 TEMPO 3000 BR=
201904262300 METAR LRCK 262300Z 17007KT 2000 R18/P2000 R36/0700N BR MIFG
                        NSC 07/06 Q1019 TEMPO 1500 BR=
201904262330 METAR LRCK 262330Z 17006KT 3000 BR NSC 06/06 Q1018 NOSIG=
201904270000 METAR LRCK 270000Z 17006KT 5000 BR NSC 07/07 Q1018 NOSIG=
201904270030 METAR COR LRCK 270030Z 11003KT 3000 BR NSC 05/05 Q1018 NOSIG=
201904270100 METAR LRCK 270100Z 13005KT 3000 BR NSC 06/06 Q1018 NOSIG=
201904270130 METAR LRCK 270130Z 16006KT 2000 BR NSC 06/06 Q1017 NOSIG=
201904270200 METAR LRCK 270200Z 13006KT 3000 BR NSC 07/07 Q1017 NOSIG=
201904270230 METAR LRCK 270230Z 13007KT 4000 BR NSC 07/06 Q1017 NOSIG=
201904270300 METAR LRCK 270300Z 13005KT 4000 BR NSC 07/07 Q1017 NOSIG=
201904270330 METAR COR LRCK 270330Z 14005KT 1400 R18/1400N R36/P2000 BR
                        MIFG NSC 05/05 Q1017 NOSIG=
201904270400 METAR LRCK 270400Z 14004KT 1800 R18/1600D R36/P2000 BR MIFG
                        FEW003 08/08 Q1017 BECMG 5000=
201904270430 METAR LRCK 270430Z 14004KT 3000 BR NSC 09/09 Q1017 BECMG
                        7000 NSW=
201904270500 METAR LRCK 270500Z 14006KT 8000 NSC 12/10 Q1017 NOSIG=
201904270530 METAR LRCK 270530Z 16009KT CAVOK 14/08 Q1017 NOSIG=
201904270600 METAR LRCK 270600Z 16012KT CAVOK 15/07 Q1017 NOSIG=
201904270630 METAR LRCK 270630Z 15012KT CAVOK 16/07 Q1016 NOSIG=
201904270700 METAR LRCK 270700Z 15015KT CAVOK 17/07 Q1016 NOSIG=
201904270730 METAR LRCK 270730Z 15015KT CAVOK 18/07 Q1016 NOSIG=
201904270800 METAR LRCK 270800Z 16015KT CAVOK 18/05 Q1016 NOSIG=
201904270830 METAR LRCK 270830Z 15015KT CAVOK 19/05 Q1016 NOSIG=
201904270900 METAR LRCK 270900Z 15016KT CAVOK 19/05 Q1016 NOSIG=
201904270930 METAR LRCK 270930Z 15015KT CAVOK 19/05 Q1015 NOSIG=
201904271000 METAR LRCK 271000Z 15016KT CAVOK 20/06 Q1015 NOSIG=
201904271030 METAR LRCK 271030Z 15015KT CAVOK 20/06 Q1015 NOSIG=
201904271100 METAR LRCK 271100Z 15016KT CAVOK 21/06 Q1015 NOSIG=
201904271130 METAR LRCK 271130Z 15016KT CAVOK 20/05 Q1015 NOSIG=
201904271200 METAR LRCK 271200Z 16015KT CAVOK 20/05 Q1014 NOSIG=
201904271230 METAR LRCK 271230Z 15015KT CAVOK 20/03 Q1015 NOSIG=
201904271300 METAR LRCK 271300Z 15014KT CAVOK 20/04 Q1014 NOSIG=
201904271330 METAR LRCK 271330Z 13012KT CAVOK 19/03 Q1014 NOSIG=
201904271400 METAR LRCK 271400Z 13012KT CAVOK 17/07 Q1013 NOSIG=
201904271430 METAR LRCK 271430Z 12011KT CAVOK 16/08 Q1013 NOSIG=
201904271500 METAR LRCK 271500Z 13012KT CAVOK 16/08 Q1013 NOSIG=
201904271530 METAR LRCK 271530Z 13012KT CAVOK 15/09 Q1013 NOSIG=
201904271600 METAR LRCK 271600Z 13010KT CAVOK 14/08 Q1012 NOSIG=
201904271630 METAR LRCK 271630Z 12008KT CAVOK 13/08 Q1012 NOSIG=
201904271700 METAR LRCK 271700Z 12009KT CAVOK 12/09 Q1012 NOSIG=
201904271730 METAR COR LRCK 271730Z 12007KT 8000 NSC 11/09 Q1012 NOSIG=
201904271800 METAR LRCK 271800Z 13006KT 7000 NSC 10/09 Q1013 NOSIG=
201904271830 METAR COR LRCK 271830Z 14004KT 6000 NSC 10/09 Q1013 NOSIG=
201904271900 METAR LRCK 271900Z 14006KT 6000 NSC 10/09 Q1013 NOSIG=
201904271930 METAR LRCK 271930Z 16004KT 5000 BR NSC 10/09 Q1012 NOSIG=
201904272000 METAR LRCK 272000Z 15004KT 4000 BR NSC 09/09 Q1012 TEMPO
                        3000 BR=
201904272030 METAR LRCK 272030Z 15006KT 4000 BR NSC 09/09 Q1012 TEMPO
                        3000 BR=
201904272100 METAR LRCK 272100Z 15006KT 4000 BR FEW005 09/09 Q1012 TEMPO
                        3000 BR=
201904272130 METAR LRCK 272130Z 16005KT 3000 BR SCT004 09/09 Q1012 TEMPO
                        1500 BR=
201904272200 METAR LRCK 272200Z 18010KT 3000 BR SCT004 10/10 Q1012 TEMPO
                        1500 BR=
201904272230 METAR LRCK 272230Z 17009KT 4000 BR FEW004 09/09 Q1011 NOSIG=
201904272300 METAR LRCK 272300Z 17006KT 4000 BR FEW004 09/09 Q1011 NOSIG=
201904272330 METAR LRCK 272330Z 15005KT 4000 BR NSC 09/08 Q1010 NOSIG=
201904280000 METAR LRCK 280000Z 15005KT 4000 BR NSC 09/08 Q1010 NOSIG=
201904280030 METAR LRCK 280030Z 14006KT 5000 BR NSC 09/08 Q1010 NOSIG=
201904280100 METAR LRCK 280100Z 17005KT 5000 BR NSC 09/08 Q1010 NOSIG=
201904280130 METAR LRCK 280130Z 18006KT 7000 NSC 09/08 Q1010 NOSIG=
201904280200 METAR LRCK 280200Z 17003KT CAVOK 09/08 Q1009 NOSIG=
201904280230 METAR LRCK 280230Z 22004KT CAVOK 10/08 Q1009 NOSIG=
201904280300 METAR LRCK 280300Z 23006KT CAVOK 10/08 Q1009 NOSIG=
201904280330 METAR LRCK 280330Z 23008KT CAVOK 11/09 Q1009 NOSIG=
201904280400 METAR LRCK 280400Z 24009KT CAVOK 12/10 Q1010 NOSIG=
201904280430 METAR LRCK 280430Z 24010KT CAVOK 13/11 Q1010 NOSIG=
201904280500 METAR LRCK 280500Z 24010KT 9999 FEW050CB 14/11 Q1011 NOSIG=
201904280530 METAR LRCK 280530Z 24011KT 9999 -TSRA FEW050CB 14/12 Q1010
                        TEMPO VRB15G25KT 5000 TSRA=
201904280600 METAR LRCK 280600Z 24009KT 9999 FEW050CB 14/12 Q1011 NOSIG=
201904280630 METAR LRCK 280630Z 23006KT 9999 FEW050 15/13 Q1011 NOSIG=
201904280700 METAR LRCK 280700Z 24008KT 9999 FEW038 FEW050CB 16/13 Q1011
                        NOSIG=
201904280730 METAR LRCK 280730Z 24010KT CAVOK 19/12 Q1011 NOSIG=
201904280800 METAR LRCK 280800Z 25015KT CAVOK 20/11 Q1011 NOSIG=
201904280830 METAR LRCK 280830Z 25015KT CAVOK 21/11 Q1011 NOSIG=
201904280900 METAR LRCK 280900Z 26016KT CAVOK 21/11 Q1011 NOSIG=
201904280930 METAR LRCK 280930Z 26018KT CAVOK 22/10 Q1011 NOSIG=
201904281000 METAR LRCK 281000Z 25016KT CAVOK 22/08 Q1011 NOSIG=
201904281030 METAR LRCK 281030Z 25016KT CAVOK 22/09 Q1011 NOSIG=
201904281100 METAR LRCK 281100Z 26013KT CAVOK 23/09 Q1011 NOSIG=
201904281130 METAR LRCK 281130Z 25015KT 220V290 CAVOK 23/07 Q1011 NOSIG=
201904281200 METAR LRCK 281200Z 27016KT CAVOK 23/08 Q1010 NOSIG=
201904281230 METAR LRCK 281230Z 26015KT CAVOK 23/07 Q1010 NOSIG=
201904281300 METAR LRCK 281300Z 24016KT CAVOK 23/07 Q1010 NOSIG=
201904281330 METAR LRCK 281330Z 25017KT CAVOK 23/07 Q1010 NOSIG=
201904281400 METAR LRCK 281400Z 26018KT CAVOK 23/07 Q1010 NOSIG=
201904281430 METAR LRCK 281430Z 25017KT CAVOK 22/06 Q1010 NOSIG=
201904281500 METAR LRCK 281500Z 27016KT CAVOK 22/07 Q1010 NOSIG=
201904281530 METAR LRCK 281530Z 26016KT CAVOK 21/06 Q1010 NOSIG=
201904281600 METAR LRCK 281600Z 26016KT CAVOK 19/06 Q1010 NOSIG=
201904281630 METAR LRCK 281630Z 26013KT CAVOK 18/07 Q1010 NOSIG=
201904281700 METAR LRCK 281700Z 24007KT CAVOK 16/07 Q1010 NOSIG=
201904281730 METAR LRCK 281730Z 24006KT CAVOK 15/08 Q1011 NOSIG=
201904281800 METAR LRCK 281800Z 23005KT CAVOK 15/07 Q1011 NOSIG=
201904281830 METAR LRCK 281830Z 25005KT CAVOK 14/06 Q1011 NOSIG=
201904281900 METAR LRCK 281900Z 25006KT CAVOK 13/06 Q1011 NOSIG=
201904281930 METAR LRCK 281930Z 25006KT CAVOK 12/06 Q1011 NOSIG=
201904282000 METAR LRCK 282000Z 24008KT CAVOK 10/05 Q1011 NOSIG=
201904282030 METAR LRCK 282030Z 23006KT CAVOK 10/06 Q1012 NOSIG=
201904282100 METAR LRCK 282100Z 24006KT CAVOK 08/05 Q1012 NOSIG=
201904282130 METAR LRCK 282130Z 24008KT CAVOK 09/05 Q1012 NOSIG=
201904282200 METAR LRCK 282200Z 24008KT CAVOK 11/06 Q1012 NOSIG=
201904282230 METAR LRCK 282230Z 24009KT CAVOK 11/06 Q1012 NOSIG=
201904282300 METAR LRCK 282300Z 24009KT CAVOK 11/06 Q1012 NOSIG=
201904282330 METAR LRCK 282330Z 26007KT CAVOK 12/06 Q1011 NOSIG=
201904290000 METAR LRCK 290000Z 24006KT CAVOK 09/05 Q1012 NOSIG=
201904290030 METAR LRCK 290030Z 26008KT CAVOK 10/06 Q1012 NOSIG=
201904290100 METAR LRCK 290100Z 26008KT CAVOK 09/05 Q1012 NOSIG=
201904290130 METAR COR LRCK 290130Z 26007KT CAVOK 09/05 Q1012 NOSIG=
201904290200 METAR LRCK 290200Z 26007KT CAVOK 08/05 Q1011 NOSIG=
201904290230 METAR LRCK 290230Z 26008KT CAVOK 10/06 Q1011 NOSIG=
201904290300 METAR LRCK 290300Z 25007KT CAVOK 08/05 Q1011 NOSIG=
201904290330 METAR LRCK 290330Z 25007KT CAVOK 06/04 Q1012 NOSIG=
201904290400 METAR LRCK 290400Z 25007KT CAVOK 08/06 Q1012 NOSIG=
201904290430 METAR LRCK 290430Z 26007KT CAVOK 11/07 Q1012 NOSIG=
201904290500 METAR LRCK 290500Z 25008KT CAVOK 13/08 Q1012 NOSIG=
201904290530 METAR LRCK 290530Z 24007KT CAVOK 14/07 Q1012 NOSIG=
201904290600 METAR LRCK 290600Z 24009KT CAVOK 15/08 Q1012 NOSIG=
201904290630 METAR LRCK 290630Z 23008KT CAVOK 16/08 Q1012 NOSIG=
201904290700 METAR LRCK 290700Z 23008KT CAVOK 16/08 Q1012 NOSIG=
201904290730 METAR LRCK 290730Z 24010KT 220V280 CAVOK 19/09 Q1012 NOSIG=
201904290800 METAR LRCK 290800Z 26010KT CAVOK 20/06 Q1012 NOSIG=
201904290830 METAR LRCK 290830Z 26009KT CAVOK 21/06 Q1012 NOSIG=
201904290900 METAR LRCK 290900Z 27008KT 230V290 CAVOK 21/06 Q1012 NOSIG=
201904290930 METAR LRCK 290930Z 25008KT CAVOK 21/06 Q1012 NOSIG=
201904291000 METAR LRCK 291000Z 25007KT CAVOK 21/06 Q1012 NOSIG=
201904291030 METAR LRCK 291030Z 24005KT 220V290 CAVOK 21/05 Q1012 NOSIG=
201904291100 METAR LRCK 291100Z 26007KT 230V300 CAVOK 21/06 Q1012 NOSIG=
201904291130 METAR LRCK 291130Z 23006KT 130V260 CAVOK 22/06 Q1011 NOSIG=
201904291200 METAR LRCK 291200Z 23004KT 160V290 CAVOK 22/07 Q1011 NOSIG=
201904291230 METAR LRCK 291230Z 14010KT CAVOK 22/07 Q1011 NOSIG=
201904291300 METAR LRCK 291300Z 13011KT CAVOK 21/06 Q1011 NOSIG=
201904291330 METAR LRCK 291330Z 14013KT CAVOK 21/07 Q1010 NOSIG=
201904291400 METAR LRCK 291400Z 14013KT 9999 FEW040 21/06 Q1011 NOSIG=
201904291430 METAR LRCK 291430Z 14012KT 9999 FEW045 20/04 Q1011 NOSIG=
201904291500 METAR LRCK 291500Z 16012KT 9999 FEW045 19/05 Q1010 NOSIG=
201904291530 METAR LRCK 291530Z 15010KT 9999 FEW048 19/07 Q1010 NOSIG=
201904291600 METAR LRCK 291600Z 15009KT 9999 FEW049 18/06 Q1010 NOSIG=
201904291630 METAR LRCK 291630Z 16008KT 9999 FEW050CB 17/06 Q1010 NOSIG=
201904291700 METAR LRCK 291700Z 12004KT 080V140 9999 FEW050CB 16/07 Q1010
                        NOSIG=
201904291730 METAR LRCK 291730Z 14004KT CAVOK 15/08 Q1010 NOSIG=
201904291800 METAR LRCK 291800Z 14005KT CAVOK 14/09 Q1011 NOSIG=
201904291830 METAR LRCK 291830Z 14003KT CAVOK 14/09 Q1011 NOSIG=
201904291900 METAR LRCK 291900Z 14004KT CAVOK 13/09 Q1011 NOSIG=
201904291930 METAR LRCK 291930Z 14005KT CAVOK 13/08 Q1010 NOSIG=
201904292000 METAR LRCK 292000Z 12004KT CAVOK 13/09 Q1010 NOSIG=
201904292030 METAR LRCK 292030Z 07003KT CAVOK 11/09 Q1010 NOSIG=
201904292100 METAR LRCK 292100Z 09004KT 060V120 7000 NSC 11/09 Q1010 NOSIG=
201904292130 METAR LRCK 292130Z 10003KT 4000 BR NSC 11/10 Q1010 BECMG
                        3000 BR BKN010=
201904292200 METAR LRCK 292200Z 12006KT 1500 BR NSC 10/09 Q1010 TEMPO
                        0800 FG BKN010=
201904292230 METAR COR LRCK 292230Z 12006KT 1500 BR NSC 10/10 Q1010 BECMG
                        3000=
201904292300 METAR LRCK 292300Z 11004KT 0800 R18/P2000 R36/0750N FG NSC
                        09/09 Q1010 TEMPO 1500 BR=
201904292330 METAR LRCK 292330Z 09003KT 0350 R18/P2000 R36/0400N FG SCT004
                        10/09 Q1010 NOSIG=
201904300000 METAR LRCK 300000Z 07004KT 0100 R18/0200N R36/0225N FG BKN001
                        09/09 Q1009 NOSIG=
201904300030 METAR LRCK 300030Z 06005KT 0100 R18/0150N R36/0200N FG BKN002
                        09/09 Q1009 NOSIG=
201904300100 METAR LRCK 300100Z 08005KT 0100 R18/0175N R36/0275N FG BKN002
                        10/10 Q1009 NOSIG=
201904300130 METAR LRCK 300130Z 06006KT 0100 R18/0200N R36/0175N FG BKN001
                        11/11 Q1009 NOSIG=
201904300200 METAR LRCK 300200Z 09006KT 0100 R18/0250N R36/0250N FG VV001
                        11/11 Q1008 NOSIG=
201904300230 METAR LRCK 300230Z 09007KT 0100 R18/0300N R36/0300N FG VV001
                        12/12 Q1008 NOSIG=
201904300300 METAR LRCK 300300Z 09006KT 0150 R18/0350N R36/0300N FG VV001
                        12/12 Q1008 NOSIG=
201904300330 METAR LRCK 300330Z 08005KT 0150 R18/0250N R36/0275N FG VV001
                        12/12 Q1008 NOSIG=
201904300400 METAR LRCK 300400Z 08005KT 0150 R18/0225N R36/0225N FG VV001
                        12/12 Q1008 NOSIG=
201904300430 METAR LRCK 300430Z 06006KT 0100 R18/0150N R36/0200N FG VV001
                        12/12 Q1008 NOSIG=
201904300500 METAR LRCK 300500Z 06006KT 0250 R18/0200N R36/0350N FG OVC002
                        13/13 Q1008 BECMG 0350 FG=
201904300530 METAR LRCK 300530Z 07007KT 0300 R18/0450N R36/0500U FG OVC001
                        13/13 Q1008 BECMG 0350 FG=
201904300600 METAR LRCK 300600Z 09006KT 1500 BR BKN004 14/14 Q1008 BECMG
                        3000 BR SCT010=
201904300630 METAR COR LRCK 300630Z 09006KT 3000 BR BKN005 16/13 Q1008
                        NOSIG=
201904300700 METAR LRCK 300700Z 10006KT 070V130 7000 FEW008 17/13 Q1008
                        NOSIG=
201904300730 METAR LRCK 300730Z VRB04KT 9999 FEW016 17/13 Q1008 NOSIG=
201904300800 METAR LRCK 300800Z VRB03KT CAVOK 18/13 Q1007 NOSIG=
201904300830 METAR LRCK 300830Z 08006KT 020V120 9999 FEW021 19/12 Q1007
                        NOSIG=
201904300900 METAR LRCK 300900Z 09005KT 050V150 9999 SCT022 19/13 Q1007
                        NOSIG=
201904300930 METAR LRCK 300930Z 05008KT 010V070 9999 SCT023 SCT028 20/14
                        Q1007 NOSIG=
201904301000 METAR LRCK 301000Z 07006KT 030V100 9999 BKN025 19/13 Q1007
                        NOSIG=
201904301030 METAR LRCK 301030Z 09008KT 9999 SCT027 20/13 Q1007 NOSIG=
201904301100 METAR LRCK 301100Z 09008KT 060V120 9999 SCT025 21/13 Q1006
                        NOSIG=
201904301130 METAR LRCK 301130Z 09008KT 060V120 9999 SCT025 21/13 Q1006
                        NOSIG=
201904301200 METAR LRCK 301200Z 09009KT 9999 FEW017 22/12 Q1006 NOSIG=
201904301230 METAR LRCK 301230Z 10011KT 9999 FEW017 21/12 Q1005 NOSIG=
201904301300 METAR LRCK 301300Z 09009KT 9999 FEW025 21/13 Q1005 NOSIG=
201904301330 METAR LRCK 301330Z 11010KT 9999 FEW025 21/12 Q1004 NOSIG=
201904301400 METAR LRCK 301400Z 11011KT 9999 FEW025 21/12 Q1003 NOSIG=
201904301430 METAR LRCK 301430Z 14013KT 110V170 9999 FEW025 24/13 Q1004
                        NOSIG=
201904301500 METAR LRCK 301500Z 18018KT 9999 FEW025 FEW040CB 24/12 Q1004
                        NOSIG=
201904301530 METAR LRCK 301530Z 17015KT 9999 FEW040CB 22/13 Q1003 NOSIG=
201904301600 METAR LRCK 301600Z 27023KT 9999 FEW040CB SCT047 17/09 Q1004
                        NOSIG=
201904301630 METAR LRCK 301630Z 28016KT 9999 FEW011 FEW045CB 16/11 Q1005
                        NOSIG=
201904301700 METAR LRCK 301700Z 28015KT 9999 FEW016 15/12 Q1005 NOSIG=
201904301730 METAR LRCK 301730Z 28011KT 9999 FEW020 15/12 Q1006 TEMPO
                        5000 -SHRA SCT040CB=
201904301800 METAR LRCK 301800Z 26007KT 9999 FEW030 14/12 Q1006 TEMPO
                        5000 -SHRA SCT040CB=
201904301830 METAR LRCK 301830Z 27011KT 9999 FEW045CB 14/13 Q1006 TEMPO
                        5000 -SHRA=
201904301900 METAR LRCK 301900Z 25010KT 9999 FEW050CB 13/13 Q1007 R18
                        29//95 NOSIG=
201904301930 METAR LRCK 301930Z 26012KT 9999 FEW050CB 13/11 Q1007 R18/
                        29//95 NOSIG=
201904302000 METAR LRCK 302000Z 25007KT CAVOK 12/11 Q1006 R18/ 29//95
                        NOSIG=
201904302030 METAR LRCK 302030Z 25010KT CAVOK 12/11 Q1007 R18/29//95 NOSIG=
201904302100 METAR LRCK 302100Z 23008KT CAVOK 12/10 Q1006 R18/29//95 NOSIG=
201904302130 METAR LRCK 302130Z 24011KT CAVOK 12/10 Q1007 R18/29//95 NOSIG=
201904302200 METAR LRCK 302200Z 25010KT CAVOK 12/10 Q1006 R18/29//95 NOSIG=
201904302230 METAR LRCK 302230Z 26009KT CAVOK 12/10 Q1006 R18/29//95 NOSIG=
201904302300 METAR LRCK 302300Z 24009KT CAVOK 12/10 Q1006 R18/29//95 NOSIG=
201904302330 METAR LRCK 302330Z 26013KT CAVOK 11/09 Q1006 R18/29//95 NOSIG=
