201904010500 TAF LRCK 010500Z 0106/0206 32006KT CAVOK
                      BECMG 0108/0110 03010KT
                      BECMG 0113/0115 09012KT
                      BECMG 0118/0120 03015KT
                      TEMPO 0202/0206 03015G25KT=
201904011100 TAF LRCK 011100Z 0112/0212 09012KT CAVOK
                      BECMG 0119/0121 03015KT
                      TEMPO 0204/0209 03015G25KT
                      BECMG 0210/0212 09012KT=
201904011700 TAF LRCK 011700Z 0118/0218 VRB04KT CAVOK
                      BECMG 0118/0120 02016KT
                      TEMPO 0204/0210 02016G26KT
                      BECMG 0212/0214 10010KT=
201904012300 TAF LRCK 012300Z 0200/0224 02016KT CAVOK
                      TEMPO 0204/0210 02016G26KT
                      BECMG 0212/0214 10010KT
                      BECMG 0218/0220 03008KT=
201904020500 TAF LRCK 020500Z 0206/0306 02018KT CAVOK
                      TEMPO 0206/0212 02020G30KT
                      BECMG 0213/0215 10010KT
                      BECMG 0220/0222 03008KT=
201904021100 TAF LRCK 021100Z 0212/0312 02013KT CAVOK
                      TEMPO 0212/0214 02015G25KT
                      BECMG 0214/0216 10010KT
                      BECMG 0220/0222 03008KT=
201904021700 TAF LRCK 021700Z 0218/0318 10010KT CAVOK
                      BECMG 0220/0222 03006KT
                      BECMG 0309/0311 10012KT=
201904022300 TAF LRCK 022300Z 0300/0324 01006KT CAVOK
                      BECMG 0309/0311 10012KT
                      BECMG 0318/0320 VRB04KT=
201904030500 TAF LRCK 030500Z 0306/0406 01010KT CAVOK
                      BECMG 0309/0311 10012KT
                      BECMG 0318/0320 VRB04KT=
201904031100 TAF LRCK 031100Z 0312/0412 09012KT CAVOK
                      BECMG 0318/0320 VRB04KT
                      BECMG 0407/0409 10010KT=
201904031700 TAF LRCK 031700Z NIL=
201904031730 TAF COR LRCK 031730Z 0318/0418 VRB04KT CAVOK
                      BECMG 0407/0409 12012KT=
201904032300 TAF LRCK 032300Z 0400/0424 VRB04KT CAVOK
                      BECMG 0407/0409 12014KT=
201904040500 TAF LRCK 040500Z 0406/0506 03006KT CAVOK
                      BECMG 0407/0409 12012KT
                      TEMPO 0500/0506 3000 BR BKN010=
201904041100 TAF LRCK 041100Z 0412/0512 12010KT CAVOK
                      TEMPO 0500/0506 3000 BR BKN010=
201904041700 TAF LRCK 041700Z 0418/0518 13010KT 9999 FEW030
                      PROB40 TEMPO 0501/0506 5000 BR BKN010
                      TEMPO 0508/0514 13015G25KT
                      TEMPO 0514/0518 BKN015=
201904042300 TAF LRCK 042300Z 0500/0524 14008KT 9999 FEW025
                      PROB40 TEMPO 0501/0506 5000 BR BKN010
                      TEMPO 0508/0514 13015G25KT
                      TEMPO 0514/0518 BKN015
                      BECMG 0518/0520 5000 BR BKN010=
201904050500 TAF LRCK 050500Z 0506/0606 12010KT 9999 BKN020
                      TEMPO 0510/0515 12020KT
                      BECMG 0520/0522 3000 BR
                      PROB30 TEMPO 0523/0603 0800 FG OVC005
                      BECMG 0604/0606 9999 NSW=
201904051100 TAF LRCK 051100Z 0512/0612 12018KT 9999 BKN025
                      BECMG 0517/0519 12008KT
                      BECMG 0520/0522 3000 BR
                      PROB30 TEMPO 0523/0603 0800 FG OVC002
                      BECMG 0604/0606 9999 NSW
                      BECMG 0607/0609 12018KT=
201904051700 TAF LRCK 051700Z 0518/0618 11012KT 9999 BKN020
                      BECMG 0520/0522 5000 BR BKN010
                      PROB40 TEMPO 0523/0603 0800 FG OVC005
                      BECMG 0604/0606 9999 NSW SCT020=
201904052300 TAF LRCK 052300Z 0600/0624 11012KT 9999 BKN015 OVC020
                      BECMG 0604/0606 SCT020
                      BECMG 0621/0623 VRB04KT=
201904060500 TAF LRCK 060500Z 0606/0706 12014KT 9999 BKN015 OVC020
                      BECMG 0606/0608 SCT025
                      TEMPO 0608/0614 12015G25KT
                      BECMG 0620/0622 06006KT=
201904061100 TAF LRCK 061100Z 0612/0712 09016KT 9999 BKN020
                      BECMG 0619/0621 07006KT
                      BECMG 0705/0707 09016KT=
201904061700 TAF LRCK 061700Z 0618/0718 08008KT CAVOK=
201904062124 TAF AMD LRCK 062124Z 0621/0718 06006KT 1500 BR NSC
                      TEMPO 0621/0705 0600 FG VV002
                      BECMG 0705/0707 5000
                      BECMG 0707/0708 CAVOK=
201904062300 TAF AMD LRCK 070229Z 0702/0724 06006KT CAVOK
                      TEMPO 0703/0705 3000 BR
                      PROB30 TEMPO 0722/0724 5000 -RA BKN015 BKN045=
201904070229 TAF AMD LRCK 070229Z 0702/0724 06006KT CAVOK
                      TEMPO 0703/0705 3000 BR
                      PROB30 TEMPO 0722/0724 5000 -RA BKN015 BKN045=
201904070500 TAF LRCK 070500Z 0706/0806 07010KT CAVOK
                      PROB40 TEMPO 0721/0803 VRB04KT 5000 -RA BKN015
                       BKN045
                      BECMG 0803/0805 3000 -RA BR BKN010 BKN035=
201904071100 TAF LRCK 071100Z 0712/0812 07015KT CAVOK
                      BECMG 0719/0721 VRB04KT
                      PROB40 TEMPO 0721/0803 5000 -SHRA SCT015
                       SCT035CB
                      BECMG 0803/0805 10012KT 5000 -RA BR BKN015
                       BKN035=
201904071611 TAF AMD LRCK 071611Z 0716/0812 07006KT 9999 BKN015
                      BECMG 0722/0724 5000 -RA BR BKN010 BKN040
                       TEMPO 0800/0803 3000 SHRA BKN005 SCT030CB
                       OVC035
                      BECMG 0808/0810 11016KT 9999 NSW BKN030=
201904071700 TAF LRCK 071700Z 0718/0818 09006KT 9999 BKN010
                      PROB40 TEMPO 0718/0721 5000 -RA BR BKN005
                       BKN030
                      BECMG 0722/0724 5000 -RA BR BKN005 BKN040
                       TEMPO 0800/0803 3000 SHRA BKN005 SCT030CB
                       OVC035
                      BECMG 0808/0810 11016KT 9999 NSW BKN030=
201904072004 TAF AMD LRCK 072004Z 0720/0818 12004KT 1500 BR BKN002
                      TEMPO 0720/0722 0600 FG VV001
                      BECMG 0722/0724 3000 RA BR BKN005 OVC025
                       TEMPO 0800/0804 1500 SHRA BKN002 SCT020CB
                       OVC025
                      BECMG 0808/0810 11016KT 9999 NSW BKN030=
201904072300 TAF LRCK 072300Z 0800/0824 12004KT 1500 BR BKN002
                      BECMG 0800/0802 3000 -RA BR BKN005 BKN030
                       PROB40
                      TEMPO 0802/0806 1500 SHRA BKN002 SCT020CB
                       OVC025
                      BECMG 0808/0810 11016KT 9999 NSW BKN030
                      BECMG 0820/0822 05008KT=
201904080500 TAF LRCK 080500Z 0806/0906 11012KT 0800 FG BKN002 BKN030
                      BECMG 0807/0808 5000 BR BKN010 SCT030
                      BECMG 0808/0810 CAVOK
                      BECMG 0820/0822 05010KT=
201904081100 TAF LRCK 081100Z 0812/0912 10012KT 9999 BKN040
                      BECMG 0909/0911 5000 -RA BKN015 OVC035=
201904081658 TAF AMD LRCK 081658Z 0816/0912 10012KT 3000 BR BKN003
                      TEMPO 0818/0908 1500 BR BKN002
                      PROB30 TEMPO 0900/0906 0800 FG VV001
                      BECMG 0909/0911 5000 -RA BKN010 OVC035=
201904081700 TAF LRCK 081700Z 0818/0918 10012KT 3000 BR BKN003
                      BECMG 0819/0821 5000 SCT015
                      BECMG 0909/0911 5000 -RA BKN010 OVC035=
201904081743 TAF COR LRCK 081743Z 0818/0918 10012KT 3000 BR BKN003
                      BECMG 0819/0821 5000 SCT015
                      BECMG 0909/0911 3000 -RA BKN010 OVC035=
201904081944 TAF AMD LRCK 081944Z 0819/0918 08008KT 0350 FG BKN001
                      TEMPO 0819/0824 1500 BR VV002
                      BECMG 0906/0908 1500 BR SCT005
                      BECMG 0909/0911 3000 -RA BKN010 OVC035=
201904082300 TAF AMD LRCK 090238Z 0902/0924 06012KT 3000 BR NSC
                      PROB30 TEMPO 0902/0905 1500 BR BKN005
                      BECMG 0906/0908 7000 NSW
                      BECMG 0909/0911 5000 -RA BKN015 BKN035
                      PROB30 TEMPO 0913/0917 3000 SHRA BKN010 SCT030CB
                       BKN035
                      BECMG 0920/0922 VRB04KT 1500 BR BKN005
                      BECMG 0922/0924 0600 FG VV002=
201904090238 TAF AMD LRCK 090238Z 0902/0924 06012KT 3000 BR NSC
                      PROB30 TEMPO 0902/0905 1500 BR BKN005
                      BECMG 0906/0908 7000 NSW
                      BECMG 0909/0911 5000 -RA BKN015 BKN035
                      PROB30 TEMPO 0913/0917 3000 SHRA BKN010 SCT030CB
                       BKN035
                      BECMG 0920/0922 VRB04KT 1500 BR BKN005
                      BECMG 0922/0924 0600 FG VV002=
201904090500 TAF LRCK 090500Z 0906/1006 06012KT 7000 NSC
                      PROB30 TEMPO 0906/0909 5000 -SHRA SCT030CB
                       TEMPO 0913/0918 5000 -SHRA SCT030CB
                      BECMG 0920/0922 VRB04KT 3000 -RA BR BKN005
                       BKN040
                      BECMG 1002/1004 0600 FG VV002=
201904091100 TAF LRCK 091100Z 0912/1012 06016KT CAVOK
                      PROB40 TEMPO 0913/0917 5000 -SHRA SCT040CB
                       BECMG 0918/0920 VRB04KT 5000 BR
                      TEMPO 0922/1002 3000 -RA BR BKN005 BKN040
                       BECMG 1002/1004 0600 FG VV002
                      BECMG 1006/1008 3000 -RA BR BKN005 BKN030
                       BECMG 1008/1010 9999 NSW BKN015=
201904091700 TAF LRCK 091700Z 0918/1018 07010KT CAVOK
                      TEMPO 0918/0924 5000 SHRA SCT040CB
                      BECMG 0922/0924 VRB04KT
                      BECMG 1000/1002 5000 BR BKN010 BKN040
                      TEMPO 1002/1008 3000 -RA BR BKN005 BKN030
                       BECMG 1008/1010 09010KT 9999 NSW SCT015
                       BKN030
                      TEMPO 1011/1016 5000 -SHRA SCT015 SCT030CB
                       BKN040
                      BECMG 1016/1018 16010KT 5000 BR BKN010=
201904092300 TAF LRCK 092300Z 1000/1024 VRB04KT 5000 BR NSC
                      TEMPO 1002/1008 3000 -RA BR BKN010 BKN030
                       BECMG 1008/1010 09010KT 9999 NSW
                      TEMPO 1011/1016 5000 -SHRA SCT015 SCT030CB
                       BKN040
                      BECMG 1016/1018 16010KT 5000 BR BKN010
                      BECMG 1019/1021 3000 BR BKN005
                      TEMPO 1021/1024 1500 BR OVC002=
201904100500 TAF LRCK 100500Z 1006/1106 VRB04KT 3000 BR BKN045
                      PROB30 TEMPO 1006/1008 1500 -RA BR
                      BECMG 1008/1010 11010KT 9999 NSW
                      PROB30 TEMPO 1011/1015 5000 -RA
                      BECMG 1018/1020 19007KT 5000 BR
                      BECMG 1020/1022 3000 BR BKN005
                      PROB40 TEMPO 1101/1105 0800 FG BKN002=
201904101100 TAF LRCK 101100Z 1012/1112 12010KT 9999 SCT045
                      PROB40 TEMPO 1012/1015 5000 -SHRA SCT040CB
                       BECMG 1018/1020 19007KT 5000 BR
                      BECMG 1020/1022 3000 BR BKN005
                      PROB40 TEMPO 1101/1105 0800 FG BKN002
                      BECMG 1106/1108 13010KT 9999 NSW SCT020=
201904101700 TAF LRCK 101700Z 1018/1118 19006KT CAVOK
                      BECMG 1018/1020 5000 BR BKN010
                      BECMG 1020/1022 3000 BR BKN005
                      PROB40 TEMPO 1101/1105 0800 FG BKN002
                      BECMG 1106/1109 11012KT 9999 NSW SCT020
                      BECMG 1116/1118 VRB04KT 3000 BR BKN010=
201904102300 TAF AMD LRCK 110303Z 1103/1124 11004KT 3000 BR NSC
                      TEMPO 1103/1107 1500 BR
                      PROB40 TEMPO 1103/1106 0600 FG VV002
                      BECMG 1107/1110 11014KT 9999 NSW
                      BECMG 1116/1118 VRB04KT 3000 BR BKN010
                      TEMPO 1118/1124 1500 -DZ BR OVC005=
201904110052 TAF AMD LRCK 110052Z 1100/1124 14004KT 0800 FG NSC
                      TEMPO 1101/1105 0150 FG VV001
                      BECMG 1106/1108 3000 BR BKN005
                      BECMG 1108/1110 11014KT 9999 NSW SCT025
                      BECMG 1116/1118 VRB04KT 3000 BR BKN010
                      TEMPO 1118/1124 1500 -DZ BR OVC005=
201904110303 TAF AMD LRCK 110303Z 1103/1124 11004KT 3000 BR NSC
                      TEMPO 1103/1107 1500 BR
                      PROB40 TEMPO 1103/1106 0600 FG VV002
                      BECMG 1107/1110 11014KT 9999 NSW
                      BECMG 1116/1118 VRB04KT 3000 BR BKN010
                      TEMPO 1118/1124 1500 -DZ BR OVC005=
201904110500 TAF LRCK 110500Z 1106/1206 VRB04KT 3000 BR NSC
                      BECMG 1106/1109 11012KT 9999 NSW
                      TEMPO 1110/1115 SCT040CB
                      BECMG 1116/1118 VRB04KT 3000 BR BKN010
                      TEMPO 1118/1124 1500 -DZ BR OVC005
                      BECMG 1200/1202 1500 BR OVC005
                      TEMPO 1202/1205 0600 FG VV002=
201904110719 TAF AMD LRCK 110719Z 1107/1206 11010KT 3000 BR BKN002
                      BECMG 1108/1110 5000 BR BKN005
                      BECMG 1110/1112 9999 NSW SCT010 SCT040
                      TEMPO 1112/1116 SCT040CB
                      BECMG 1116/1118 VRB04KT 3000 BR BKN010
                      TEMPO 1118/1124 1500 -DZ BR OVC005
                      BECMG 1200/1202 1500 BR OVC005
                      TEMPO 1202/1205 0600 FG VV002=
201904111100 TAF LRCK 111100Z 1112/1212 11010KT 9999 BKN010
                      PROB30 TEMPO 1112/1116 SCT010 SCT035CB
                      BECMG 1116/1118 VRB04KT 3000 BR BKN005
                      BECMG 1118/1120 1500 BR BKN002
                      TEMPO 1122/1204 0600 FG VV001
                      BECMG 1206/1208 5000 BR BKN010
                      BECMG 1208/1210 9999 NSW SCT020=
201904111459 TAF AMD LRCK 111459Z 1114/1212 11010KT 3000 BR BKN002
                      PROB40 TEMPO 1115/1118 5000 BKN005
                      BECMG 1118/1120 VRB04KT 1500 BR
                      TEMPO 1122/1204 0600 FG VV001
                      BECMG 1206/1208 5000 BR BKN005
                      BECMG 1208/1210 9999 NSW BKN015=
201904111700 TAF LRCK 111700Z 1118/1218 09006KT 1500 BR OVC002
                      BECMG 1119/1121 0600 FG OVC001
                      PROB40 TEMPO 1123/1206 0350 FG VV000
                      BECMG 1206/1208 15010KT 3000 BR BKN005
                      BECMG 1208/1210 9999 BKN020=
201904112210 TAF AMD LRCK 112210Z 1122/1218 06006KT 1500 BR OVC005
                      TEMPO 1123/1205 0600 FG VV001
                      BECMG 1206/1208 15010KT 5000 BR BKN010
                      BECMG 1208/1210 9999 NSW BKN020=
201904112300 TAF LRCK 112300Z 1200/1224 06006KT 1500 BR BKN005
                      TEMPO 1200/1205 0600 -DZ FG BKN002 OVC005
                       BECMG 1206/1208 15010KT 3000 BKN010
                      BECMG 1208/1210 9999 NSW BKN025
                      BECMG 1217/1219 VRB04KT=
201904120500 TAF LRCK 120500Z 1206/1306 VRB04KT 3000 BR BKN025
                      BECMG 1207/1209 9999 NSW
                      PROB30 TEMPO 1212/1216 15010KT 5000 -SHRA
                       SCT015 SCT030CB
                      BECMG 1216/1218 BKN010
                      TEMPO 1218/1222 5000 -SHRA BKN010 SCT030CB
                       BECMG 1222/1224 3000 -RA BR BKN005 BKN020
                       TEMPO 1300/1306 1500 -RADZ BR OVC002=
201904121100 TAF LRCK 121100Z 1212/1312 VRB04KT 9999 BKN030
                      TEMPO 1212/1216 15010KT SCT015 SCT030CB
                      PROB40 TEMPO 1212/1216 5000 SHRA
                      BECMG 1216/1218 BKN010
                      TEMPO 1218/1222 5000 SHRA BKN010 SCT030CB
                       BECMG 1222/1224 3000 -RA BR BKN005 OVC020
                       TEMPO 1300/1309 1500 -RADZ BR OVC002
                      BECMG 1305/1307 09010KT
                      TEMPO 1309/1312 1500 SHRA BKN005 BKN020 SCT030CB=
201904121700 TAF LRCK 121700Z 1218/1318 08010KT 5000 BR SCT010 BKN025
                      BECMG 1219/1222 3000 BR BKN010 OVC025
                      TEMPO 1223/1304 1500 -RADZ BR OVC002
                      BECMG 1304/1306 5000 -RA BR
                      TEMPO 1314/1317 3000 SHRA BKN005 SCT020CB
                       OVC025=
201904122300 TAF LRCK 122300Z 1300/1324 03008KT 5000 -RA BR BKN010 BKN025
                      TEMPO 1300/1304 1500 -RADZ BR OVC002
                      BECMG 1304/1306 09010KT 7000 NSW BKN015 BKN030
                       TEMPO 1314/1317 3000 SHRA BKN005 SCT025CB
                       OVC030
                      TEMPO 1320/1324 1500 -RADZ BR OVC002=
201904130500 TAF LRCK 130500Z 1306/1406 01012KT 5000 -RA BR BKN010 BKN025
                      TEMPO 1306/1308 3000 -RADZ BR OVC005
                      BECMG 1308/1310 08012KT 7000 NSW BKN010 BKN030
                       TEMPO 1312/1317 3000 SHRA BKN005 SCT025CB
                       OVC030
                      BECMG 1317/1319 OVC005
                      BECMG 1321/1323 02012KT 3000 -RADZ BR
                      TEMPO 1323/1406 1500 -RA -SHRA BKN002 BKN025CB
                       OVC030=
201904130930 TAF AMD LRCK 130930Z 1309/1406 02012KT 3000 BR OVC002
                      BECMG 1309/1311 08012KT 5000 BKN005 OVC025
                       TEMPO 1312/1317 1500 -SHRA BKN010 SCT025CB
                       OVC030
                      BECMG 1321/1323 02012KT 3000 -RADZ BR
                      PROB40 TEMPO 1323/1406 1500 -RA -SHRA BKN005
                       BKN025CB OVC030=
201904131100 TAF LRCK 131100Z 1312/1412 08012KT 9999 BKN010
                      PROB40 TEMPO 1313/1317 5000 -RA -SHRA BKN015
                       SCT025CB BKN030
                      TEMPO 1317/1321 3000 BR
                      BECMG 1321/1323 02012KT
                      PROB40 TEMPO 1323/1405 3000 -SHRA BKN005
                       BKN025CB OVC030
                      TEMPO 1409/1412 02015G25KT=
201904131647 TAF AMD LRCK 131647Z 1316/1412 02012KT 3000 -RA BR BKN005 OVC020
                       TEMPO 1316/1320 5000
                      BECMG 1320/1322 1500 -RA BR BKN002 OVC010
                       PROB30
                      TEMPO 1322/1403 0600 -RADZ FG OVC001
                      BECMG 1406/1408 3000 BKN005 OVC020
                      BECMG 1408/1410 5000 BKN010 OVC025=
201904131700 TAF LRCK 131700Z 1318/1418 01012KT 3000 BR BKN005 OVC020
                      TEMPO 1318/1321 7000 NSW BKN010
                      BECMG 1321/1323 1500 -RA BR BKN002 OVC015
                       PROB30
                      TEMPO 1323/1403 0800 -DZ FG OVC001
                      BECMG 1406/1408 4000 BKN010 OVC025
                      BECMG 1408/1410 7000 NSW BKN015 BKN030
                      TEMPO 1411/1418 5000 -RA BKN015 FEW025CB
                       BKN030=
201904132300 TAF LRCK 132300Z 1400/1424 36012KT 5000 BR BKN005 OVC020
                      TEMPO 1400/1406 3000 -RA BR BKN002 OVC015
                       PROB30
                      TEMPO 1400/1403 1500 -RADZ BR
                      BECMG 1406/1408 9999 NSW BKN015 BKN030
                      TEMPO 1411/1418 5000 -RA BKN015 FEW025CB
                       BKN030
                      BECMG 1418/1420 5000 BR BKN010 OVC025
                      TEMPO 1420/1424 3000 -RA BR=
201904140500 TAF LRCK 140500Z 1406/1506 36012KT 9999 BKN005 OVC020
                      PROB40 TEMPO 1407/1410 5000 -DZRA BR BKN002
                       OVC015
                      BECMG 1410/1412 5000 -RA BKN015 BKN030
                      TEMPO 1414/1418 3000 SHRA BKN010 SCT025CB
                       OVC030
                      BECMG 1421/1423 9999 BKN020
                      PROB40 TEMPO 1503/1506 5000 -RA BKN015 OVC040=
201904141100 TAF LRCK 141100Z 1412/1512 36016KT 9999 BKN015 OVC040
                      BECMG 1412/1414 5000 -RA BKN010 BKN035
                      TEMPO 1414/1418 3000 SHRA BKN005 SCT025CB
                       OVC030
                      BECMG 1421/1423 9999 BKN020
                      PROB40 TEMPO 1503/1506 5000 -RA BKN015 OVC040=
201904141700 TAF LRCK 141700Z 1418/1518 35012KT 5000 BR BKN010 BKN040
                      BECMG 1419/1421 9999 NSW
                      BECMG 1421/1423 BKN020=
201904142300 TAF LRCK 142300Z 1500/1524 36014KT 9999 OVC015
                      BECMG 1500/1502 BKN020=
201904150500 TAF LRCK 150500Z 1506/1606 35012KT 9999 BKN025
                      TEMPO 1506/1512 35015G25KT=
201904151100 TAF LRCK 151100Z 1512/1612 35014KT 9999 SCT035
                      TEMPO 1608/1612 33015G25KT=
201904151146 TAF COR LRCK 151146Z 1512/1612 35014KT 9999 SCT035
                      TEMPO 1512/1515 35017G27KT
                      TEMPO 1608/1612 33015G25KT=
201904151700 TAF LRCK 151700Z 1518/1618 32010KT CAVOK
                      TEMPO 1608/1615 34020G30KT=
201904152300 TAF LRCK 152300Z 1600/1624 28008KT CAVOK
                      BECMG 1607/1609 32018KT
                      TEMPO 1609/1615 34020G30KT
                      BECMG 1617/1619 30008KT=
201904160500 TAF LRCK 160500Z 1606/1706 32012KT CAVOK
                      TEMPO 1608/1612 33015G27KT
                      BECMG 1623/1701 VRB04KT
                      PROB40 TEMPO 1702/1706 5000 BR BKN015=
201904161100 TAF LRCK 161100Z 1612/1712 33015G27KT CAVOK
                      BECMG 1616/1618 33012KT
                      BECMG 1621/1623 VRB04KT
                      PROB40 TEMPO 1704/1708 5000 -RA BR BKN015
                       BKN025=
201904161700 TAF LRCK 161700Z 1618/1718 02008KT CAVOK
                      PROB40 TEMPO 1705/1710 5000 -RA BR BKN015
                       BKN025=
201904162300 TAF LRCK 162300Z 1700/1724 32006KT CAVOK
                      PROB40 TEMPO 1705/1710 5000 -RA BR BKN015
                       BKN025=
201904170500 TAF LRCK 170500Z 1706/1806 33010KT 9999 SCT045
                      BECMG 1712/1714 VRB04KT
                      PROB40 TEMPO 1712/1716 5000 -SHRA SCT010
                       SCT030CB=
201904171100 TAF LRCK 171100Z 1712/1812 09008KT 9999 BKN035
                      PROB40 TEMPO 1712/1716 5000 -SHRA SCT030CB
                       BKN035
                      BECMG 1806/1808 5000 -RA BR BKN010 BKN030
                       TEMPO 1808/1812 08015G25KT 3000 RA BKN005
                       OVC025=
201904171700 TAF LRCK 171700Z 1718/1818 06010KT 9999 BKN030
                      PROB30 TEMPO 1718/1722 5000 BR
                      BECMG 1719/1721 34008KT
                      BECMG 1803/1805 06015KT 5000 -RA BR BKN015
                       OVC030
                      TEMPO 1805/1810 06015G25KT 3000 RA BKN010
                       BKN030
                      BECMG 1810/1812 9999 NSW BKN030
                      PROB30 TEMPO 1812/1817 5000 -SHRA SCT030CB
                       BKN040
                      BECMG 1815/1817 05005KT=
201904172300 TAF LRCK 172300Z 1800/1824 34008KT CAVOK
                      BECMG 1803/1805 06015KT 5000 -RA BR BKN015
                       OVC030
                      TEMPO 1805/1810 06015G25KT 3000 RA BKN010
                       BKN030
                      BECMG 1810/1812 9999 NSW BKN030
                      PROB30 TEMPO 1812/1817 5000 -SHRA SCT030CB
                       BKN040
                      BECMG 1818/1820 34008KT=
201904180500 TAF LRCK 180500Z 1806/1906 05012KT 5000 -RA BR BKN010 BKN025
                      TEMPO 1806/1811 06016G26KT 3000 RA BR BKN005
                       OVC020
                      BECMG 1811/1813 9999 NSW BKN030
                      PROB30 TEMPO 1813/1817 5000 -SHRA SCT030CB
                       BKN040
                      BECMG 1818/1820 34008KT=
201904180949 TAF AMD LRCK 180949Z 1809/1906 05014KT 9999 BKN030
                      TEMPO 1809/1813 06015G25KT
                      PROB30 TEMPO 1813/1817 5000 -SHRA SCT025CB
                       OVC040
                      BECMG 1818/1820 34008KT=
201904181100 TAF LRCK 181100Z 1812/1912 04014KT 9999 SCT020 BKN035
                      PROB40 TEMPO 1813/1817 5000 -SHRA BKN010
                       SCT025CB BKN030
                      BECMG 1817/1819 VRB04KT
                      BECMG 1903/1905 33010KT=
201904181700 TAF LRCK 181700Z 1818/1918 VRB04KT CAVOK
                      BECMG 1906/1908 02010KT
                      BECMG 1910/1912 SCT030CB
                      TEMPO 1912/1916 5000 SHRA
                      PROB40 TEMPO 1912/1915 3000 TSRA SCT010 BKN030CB
                       BECMG 1916/1918 NSC=
201904182300 TAF LRCK 182300Z 1900/1924 28006KT CAVOK
                      BECMG 1906/1908 02010KT
                      BECMG 1910/1912 SCT030CB
                      TEMPO 1912/1916 5000 SHRA
                      PROB40 TEMPO 1912/1915 3000 TSRA SCT010 BKN030CB
                       BECMG 1916/1918 NSC=
201904190500 TAF LRCK 190500Z 1906/2006 30008KT CAVOK
                      BECMG 1908/1910 02010KT SCT035CB
                      TEMPO 1910/1917 5000 -SHRA
                      PROB40 1911/1916 VRB15G25KT 3000 TSRA BKN010
                       BKN030CB BKN045
                      BECMG 1916/1918 NSC=
201904191100 TAF LRCK 191100Z 1912/2012 04010KT 9999 SCT030CB BKN035
                      TEMPO 1912/1917 5000 -SHRA
                      PROB40 1912/1916 VRB15G25KT 3000 TSRA BKN010
                       BKN030CB BKN045
                      BECMG 1917/1919 NSC
                      TEMPO 2007/2012 04015G25KT=
201904191700 TAF LRCK 191700Z 1918/2018 VRB04KT CAVOK
                      BECMG 1918/1920 01012KT
                      TEMPO 2007/2013 04015G25KT
                      BECMG 2016/2018 VRB04KT=
201904192300 TAF LRCK 192300Z 2000/2024 35010KT 9999 SCT045
                      TEMPO 2000/2003 5000 -RA BR BKN015 BKN035
                       TEMPO 2007/2013 01015G25KT
                      BECMG 2016/2018 VRB04KT=
201904200500 TAF LRCK 200500Z 2006/2106 33010KT CAVOK
                      BECMG 2010/2012 03018KT
                      PROB30 TEMPO 2012/2016 FEW030CB SCT040
                      BECMG 2012/2014 09010KT
                      BECMG 2016/2018 34008KT=
201904201100 TAF LRCK 201100Z 2012/2112 05020KT CAVOK
                      PROB30 TEMPO 2012/2016 FEW030CB SCT040
                      BECMG 2014/2016 08010KT
                      BECMG 2018/2021 34008KT
                      BECMG 2108/2110 12015KT
                      TEMPO 2110/2112 FEW040CB=
201904201700 TAF LRCK 201700Z 2018/2118 VRB03KT CAVOK
                      BECMG 2110/2112 12010KT
                      TEMPO 2112/2118 FEW040CB=
201904202300 TAF LRCK 202300Z 2100/2124 VRB03KT CAVOK
                      BECMG 2110/2112 12010KT
                      TEMPO 2112/2118 FEW040CB
                      BECMG 2119/2121 VRB03KT=
201904210500 TAF LRCK 210500Z 2106/2206 29008KT CAVOK
                      BECMG 2109/2111 11010KT
                      TEMPO 2112/2115 FEW040CB
                      BECMG 2118/2120 VRB04KT=
201904211100 TAF LRCK 211100Z 2112/2212 11010KT CAVOK
                      BECMG 2118/2120 VRB04KT
                      BECMG 2207/2209 11010KT=
201904211700 TAF LRCK 211700Z 2118/2218 16005KT CAVOK
                      PROB30 TEMPO 2121/2203 3000 BR
                      BECMG 2208/2210 11015KT
                      BECMG 2215/2217 10005KT=
201904212300 TAF LRCK 212300Z 2200/2224 VRB04KT CAVOK
                      BECMG 2208/2210 11015KT
                      BECMG 2216/2218 10005KT=
201904220500 TAF LRCK 220500Z 2206/2306 VRB04KT 9999 SCT015
                      BECMG 2206/2208 11015KT BKN010
                      BECMG 2208/2210 NSC
                      BECMG 2216/2218 06005KT=
201904220708 TAF AMD LRCK 220708Z 2207/2306 VRB04KT CAVOK
                      BECMG 2207/2209 11015KT
                      BECMG 2216/2218 06005KT=
201904221100 TAF LRCK 221100Z 2212/2312 12010KT CAVOK
                      BECMG 2216/2218 06005KT=
201904221700 TAF LRCK 221700Z 2218/2318 VRB04KT CAVOK
                      BECMG 2307/2309 10014KT=
201904222300 TAF LRCK 222300Z 2300/2324 VRB04KT CAVOK
                      TEMPO 2300/2304 3000 BR
                      BECMG 2307/2309 10014KT=
201904230500 TAF LRCK 230500Z 2306/2406 VRB04KT CAVOK
                      BECMG 2307/2309 11014KT
                      TEMPO 2401/2406 SCT035CB=
201904231100 TAF LRCK 231100Z 2312/2412 12014KT CAVOK
                      TEMPO 2320/2402 VRB04KT
                      PROB30 TEMPO 2402/2410 5000 -SHRA SCT035CB=
201904231700 TAF LRCK 231700Z 2318/2418 12014KT CAVOK
                      BECMG 2320/2322 VRB04KT
                      BECMG 2406/2408 12012KT=
201904232300 TAF LRCK 232300Z 2400/2424 VRB04KT CAVOK
                      TEMPO 2400/2405 3000 BR BKN010
                      BECMG 2406/2408 12012KT=
201904240500 TAF LRCK 240500Z 2406/2506 13008KT CAVOK
                      TEMPO 2406/2409 5000 -RA BR=
201904241100 TAF LRCK 241100Z 2412/2512 12016KT CAVOK
                      BECMG 2416/2418 VRB04KT
                      TEMPO 2500/2505 5000 BR
                      BECMG 2507/2509 11012KT=
201904241700 TAF LRCK 241700Z 2418/2518 12010KT CAVOK
                      TEMPO 2500/2505 VRB04KT 5000 BR=
201904242245 TAF AMD LRCK 242245Z 2422/2518 08006KT 0800 FG NSC
                      TEMPO 2422/2505 0600 FG VV002
                      PROB40 TEMPO 2423/2504 0350 FG VV001
                      BECMG 2505/2507 1500 BR
                      BECMG 2507/2509 11012KT CAVOK=
201904242300 TAF AMD LRCK 250338Z 2503/2524 09008KT 0100 FG OVC001
                      BECMG 2503/2505 0800 VV002
                      BECMG 2505/2507 3000 BR SCT005
                      BECMG 2507/2509 CAVOK
                      TEMPO 2521/2524 3000 BR=
201904250338 TAF AMD LRCK 250338Z 2503/2524 09008KT 0100 FG OVC001
                      BECMG 2503/2505 0800 VV002
                      BECMG 2505/2507 3000 BR SCT005
                      BECMG 2507/2509 CAVOK
                      TEMPO 2521/2524 3000 BR=
201904250500 TAF LRCK 250500Z 2506/2606 10014KT CAVOK
                      BECMG 2521/2523 VRB03KT 3000 BR
                      TEMPO 2600/2605 0800 FG VV002=
201904251100 TAF LRCK 251100Z 2512/2612 14014KT CAVOK
                      BECMG 2521/2523 VRB03KT 3000 BR
                      PROB30 TEMPO 2523/2604 0800 FG VV002
                      BECMG 2604/2606 14010KT CAVOK=
201904251700 TAF LRCK 251700Z 2518/2618 11010KT CAVOK
                      BECMG 2519/2521 VRB04KT 5000 BR BKN005
                      TEMPO 2523/2605 1500 BR BKN002
                      PROB30 TEMPO 2601/2604 0600 FG VV001
                      BECMG 2605/2607 14012KT CAVOK=
201904252300 TAF LRCK 252300Z 2600/2624 VRB04KT 3000 BR BKN005
                      TEMPO 2600/2605 1500 BR BKN002
                      PROB30 TEMPO 2601/2604 0350 FG VV001
                      BECMG 2605/2607 14010KT CAVOK
                      BECMG 2620/2622 5000 BR=
201904260500 TAF LRCK 260500Z 2606/2706 14010KT CAVOK
                      TEMPO 2606/2608 5000 BR BKN005
                      BECMG 2618/2620 3000 BR BKN005
                      TEMPO 2700/2706 1500 BR BKN002=
201904261100 TAF LRCK 261100Z 2612/2712 14016KT CAVOK
                      BECMG 2617/2619 15006KT
                      BECMG 2619/2621 5000 BR SCT015
                      TEMPO 2700/2705 1500 BR BKN005
                      BECMG 2706/2708 13018KT CAVOK=
201904261700 TAF LRCK 261700Z 2618/2718 14007KT CAVOK
                      BECMG 2620/2622 5000 BR BKN015
                      PROB30 TEMPO 2700/2705 1500 BR BKN005
                      BECMG 2705/2707 13018KT CAVOK=
201904262300 TAF LRCK 262300Z 2700/2724 17006KT 3000 BR NSC
                      PROB30 TEMPO 2700/2705 0800 FG BKN003
                      BECMG 2705/2707 CAVOK
                      BECMG 2707/2709 15017KT
                      BECMG 2718/2720 VRB04KT=
201904270500 TAF LRCK 270500Z 2706/2806 16010KT CAVOK
                      TEMPO 2707/2715 16015G25KT
                      BECMG 2803/2805 27010KT SCT040CB=
201904271100 TAF LRCK 271100Z 2712/2812 15016KT CAVOK
                      BECMG 2803/2805 25010KT SCT040CB
                      TEMPO 2805/2809 5000 -SHRA
                      PROB30 TEMPO 2805/2809 -TSRA=
201904271700 TAF LRCK 271700Z 2718/2818 13008KT CAVOK
                      TEMPO 2719/2722 3000 BR
                      BECMG 2722/2724 20010KT
                      TEMPO 2800/2805 VRB20G30KT 3000 TSRA BKN010
                       BKN030CB
                      PROB30 2800/2804 1500 +TSRA
                      BECMG 2806/2808 26015G25KT=
201904272300 TAF LRCK 272300Z 2800/2824 20008KT 5000 BR SCT020
                      TEMPO 2800/2804 3000 BR BKN005
                      BECMG 2804/2806 CAVOK
                      BECMG 2806/2808 26015G25KT
                      BECMG 2817/2819 27008KT=
201904280500 TAF LRCK 280500Z 2806/2906 25010KT 9999 FEW050CB
                      BECMG 2806/2808 NSC
                      PROB30 TEMPO 2808/2815 25015G25KT=
201904281100 TAF LRCK 281100Z 2812/2912 26010KT CAVOK
                      PROB30 TEMPO 2812/2815 26015G25KT=
201904281700 TAF LRCK 281700Z 2818/2918 24008KT CAVOK
                      BECMG 2912/2914 16010KT
                      TEMPO 2914/2918 SCT040CB=
201904282300 TAF LRCK 282300Z 2900/2924 24008KT CAVOK
                      BECMG 2912/2914 16010KT
                      TEMPO 2914/2919 SCT040CB
                      BECMG 2920/2922 VRB04KT=
201904290500 TAF LRCK 290500Z 2906/3006 25010KT CAVOK
                      BECMG 2912/2914 14008KT
                      TEMPO 2912/2915 SCT040CB
                      PROB30 TEMPO 2922/3001 5000 -SHRA SCT040CB
                       TEMPO 3001/3005 3000 BR=
201904291100 TAF LRCK 291100Z 2912/3012 25010KT CAVOK
                      BECMG 2912/2914 14008KT
                      TEMPO 2912/2915 SCT040CB
                      PROB30 TEMPO 2922/3001 5000 -SHRA SCT040CB
                       TEMPO 3001/3005 3000 BR=
201904291700 TAF LRCK 291700Z 2918/3018 16008KT CAVOK
                      TEMPO 2918/3001 FEW050CB
                      PROB30 TEMPO 2922/3001 5000 -SHRA
                      TEMPO 3001/3005 3000 BR
                      BECMG 3016/3018 18018KT 5000 SHRA SCT035CB
                       BKN040=
201904292300 TAF LRCK 292300Z 3000/3024 07005KT 1500 BR NSC
                      TEMPO 3000/3004 0600 FG BKN010
                      BECMG 3005/3007 12010KT 5000
                      BECMG 3007/3009 9999 NSW
                      BECMG 3016/3018 18018KT 5000 SHRA SCT035CB
                       BKN040
                      BECMG 3021/3023 26012KT CAVOK=
201904292351 TAF AMD LRCK 292351Z 3000/3024 07005KT 0800 FG BKN005
                      TEMPO 3000/3004 0150 FG BKN001
                      BECMG 3005/3007 13010KT 3000 BR SCT010
                      BECMG 3007/3009 9999 NSW
                      BECMG 3016/3018 18018KT 5000 SHRA SCT035CB
                       BKN040
                      BECMG 3021/3023 26012KT CAVOK=
201904300500 TAF LRCK 300500Z 3006/0106 07005KT 0800 FG BKN005
                      BECMG 3006/3008 3000 BR SCT010
                      BECMG 3008/3010 16014KT 9999 NSW
                      TEMPO 3016/3021 5000 SHRA SCT035CB BKN040
                       PROB40
                      TEMPO 3016/3019 VRB20G30KT 3000 TSRA BKN010
                       BKN030CB OVC035
                      TEMPO 0100/0104 3000 BR BKN015=
201904301100 TAF LRCK 301100Z 3012/0112 09008KT 9999 BKN030
                      BECMG 3012/3014 22012KT
                      TEMPO 3016/3021 5000 SHRA SCT035CB BKN040
                       PROB40
                      TEMPO 3016/3019 VRB20G30KT 3000 TSRA BKN010
                       BKN030CB OVC035
                      TEMPO 0108/0112 24020G30KT=
201904301700 TAF LRCK 301700Z 3018/0118 27012KT CAVOK
                      TEMPO 3018/3021 5000 -SHRA SCT040CB
                      BECMG 0103/0106 25022KT=
201904302300 TAF LRCK 302300Z 0100/0124 25010KT CAVOK
                      BECMG 0103/0105 25022KT
                      BECMG 0117/0119 26010KT=