201905010000 METAR LRCK 010000Z 25009KT CAVOK 11/09 Q1006 R18/29//95 NOSIG=
201905010030 METAR COR LRCK 010030Z 24009KT CAVOK 11/09 Q1006 R18/29//95
                        NOSIG=
201905010100 METAR LRCK 010100Z 25011KT CAVOK 11/09 Q1006 R18/29//95 NOSIG=
201905010130 METAR LRCK 010130Z 24010KT CAVOK 11/09 Q1006 R18/29//95 NOSIG=
201905010200 METAR LRCK 010200Z 25011KT CAVOK 10/08 Q1006 R18/29//95 NOSIG=
201905010230 METAR LRCK 010230Z 25013KT CAVOK 10/08 Q1006 R18/29//95 NOSIG=
201905010300 METAR LRCK 010300Z 24010KT CAVOK 09/08 Q1006 R18/29//95 NOSIG=
201905010330 METAR LRCK 010330Z 25013KT CAVOK 09/07 Q1006 R18/29//95 NOSIG=
201905010400 METAR LRCK 010400Z 25012KT CAVOK 09/08 Q1006 R18/CLRD// NOSIG=
201905010430 METAR LRCK 010430Z 24012KT CAVOK 11/08 Q1006 NOSIG=
201905010500 METAR LRCK 010500Z 24013KT CAVOK 11/08 Q1007 NOSIG=
201905010530 METAR LRCK 010530Z 24013KT CAVOK 13/08 Q1006 NOSIG=
201905010600 METAR LRCK 010600Z 24014KT CAVOK 13/08 Q1006 NOSIG=
201905010630 METAR LRCK 010630Z 25016KT CAVOK 14/07 Q1006 NOSIG=
201905010700 METAR LRCK 010700Z 24015KT CAVOK 15/08 Q1006 NOSIG=
201905010730 METAR LRCK 010730Z 22015KT 9999 FEW032 17/07 Q1006 NOSIG=
201905010800 METAR LRCK 010800Z 23018KT 9999 FEW035 17/06 Q1006 NOSIG=
201905010830 METAR LRCK 010830Z 23021KT 9999 SCT045 18/07 Q1006 NOSIG=
201905010900 METAR LRCK 010900Z 24018KT 9999 SCT047 19/07 Q1006 NOSIG=
201905010930 METAR LRCK 010930Z 24019KT 9999 BKN046 18/07 Q1005 NOSIG=
201905011000 METAR LRCK 011000Z 24022KT 9999 BKN047 18/07 Q1005 NOSIG=
201905011030 METAR LRCK 011030Z 24020KT 9999 BKN047 19/07 Q1005 NOSIG=
201905011100 METAR LRCK 011100Z 24022KT 9999 BKN049 19/07 Q1005 NOSIG=
201905011130 METAR LRCK 011130Z 25021KT 9999 BKN049 19/07 Q1005 NOSIG=
201905011200 METAR LRCK 011200Z 25023KT 9999 BKN049 20/07 Q1004 NOSIG=
201905011230 METAR LRCK 011230Z 25021KT 9999 FEW049 19/07 Q1004 NOSIG=
201905011300 METAR LRCK 011300Z 24025KT 9999 FEW049 21/08 Q1004 NOSIG=
201905011330 METAR LRCK 011330Z 25022KT CAVOK 20/07 Q1004 NOSIG=
201905011400 METAR LRCK 011400Z 25019KT CAVOK 20/07 Q1004 NOSIG=
201905011430 METAR LRCK 011430Z 25020KT CAVOK 19/07 Q1004 NOSIG=
201905011500 METAR LRCK 011500Z 26021KT CAVOK 20/08 Q1004 NOSIG=
201905011530 METAR LRCK 011530Z 26018KT CAVOK 19/07 Q1004 NOSIG=
201905011600 METAR LRCK 011600Z 26018KT 9999 FEW047 18/08 Q1004 NOSIG=
201905011630 METAR LRCK 011630Z 25015KT 9999 FEW049 18/08 Q1004 NOSIG=
201905011700 METAR LRCK 011700Z 26016KT 9999 FEW049 17/08 Q1004 NOSIG=
201905011730 METAR LRCK 011730Z 26015KT CAVOK 16/08 Q1005 NOSIG=
201905011800 METAR LRCK 011800Z 26013KT CAVOK 15/08 Q1005 NOSIG=
201905011830 METAR LRCK 011830Z 26014KT CAVOK 15/08 Q1005 NOSIG=
201905011900 METAR LRCK 011900Z 26011KT CAVOK 14/09 Q1006 NOSIG=
201905011930 METAR LRCK 011930Z 26013KT CAVOK 12/08 Q1006 NOSIG=
201905012000 METAR LRCK 012000Z 27012KT CAVOK 11/08 Q1006 NOSIG=
201905012030 METAR LRCK 012030Z 27010KT CAVOK 11/08 Q1006 NOSIG=
201905012100 METAR LRCK 012100Z 25009KT CAVOK 11/09 Q1006 NOSIG=
201905012130 METAR LRCK 012130Z 27008KT CAVOK 11/09 Q1006 NOSIG=
201905012200 METAR LRCK 012200Z 28009KT CAVOK 11/09 Q1006 NOSIG=
201905012230 METAR LRCK 012230Z 27008KT CAVOK 11/09 Q1006 NOSIG=
201905012300 METAR LRCK 012300Z 28008KT CAVOK 10/09 Q1006 NOSIG=
201905012330 METAR LRCK 012330Z 28009KT CAVOK 10/09 Q1006 NOSIG=
201905020000 METAR LRCK 020000Z 30008KT CAVOK 10/09 Q1006 NOSIG=
201905020030 METAR LRCK 020030Z 29006KT CAVOK 09/08 Q1006 NOSIG=
201905020100 METAR COR LRCK 020100Z 26005KT CAVOK 09/09 Q1006 NOSIG=
201905020130 METAR LRCK 020130Z 25005KT 8000 NSC 09/08 Q1006 NOSIG=
201905020200 METAR LRCK 020200Z 25005KT 8000 NSC 09/09 Q1006 NOSIG=
201905020230 METAR LRCK 020230Z 27005KT 8000 NSC 10/09 Q1006 NOSIG=
201905020300 METAR LRCK 020300Z 25004KT CAVOK 10/09 Q1007 NOSIG=
201905020330 METAR LRCK 020330Z 27005KT 8000 NSC 10/09 Q1007 TEMPO 5000
                        BR=
201905020400 METAR COR LRCK 020400Z 28007KT 8000 NSC 11/10 Q1007 TEMPO
                        SCT040CB=
201905020430 METAR LRCK 020430Z 29007KT 8000 NSC 11/10 Q1007 TEMPO 5000
                        -SHRA SCT040CB=
201905020500 METAR LRCK 020500Z 30007KT 8000 FEW047 11/10 Q1007 TEMPO
                        5000 -SHRA SCT040CB=
201905020530 METAR LRCK 020530Z 32005KT 8000 SCT045 11/10 Q1008 TEMPO
                        5000 -SHRA SCT040CB=
201905020600 METAR COR LRCK 020600Z 27005KT 230V300 9999 FEW047 12/11
                        Q1008 NOSIG=
201905020630 METAR LRCK 020630Z 22004KT 190V260 9999 FEW049 13/11 Q1008
                        NOSIG=
201905020700 METAR LRCK 020700Z 21005KT 9999 FEW049 13/11 Q1008 NOSIG=
201905020730 METAR LRCK 020730Z 18007KT 9999 -RA FEW047 13/11 Q1008 NOSIG=
201905020800 METAR LRCK 020800Z 20008KT 9999 FEW049 14/11 Q1008 NOSIG=
201905020830 METAR LRCK 020830Z 21007KT 9999 FEW020 15/10 Q1008 NOSIG=
201905020900 METAR LRCK 020900Z 24008KT 9999 FEW030 16/09 Q1009 NOSIG=
201905020930 METAR LRCK 020930Z 24008KT 9999 FEW030 16/09 Q1009 NOSIG=
201905021000 METAR LRCK 021000Z 22009KT 190V260 9999 SCT031 17/08 Q1009
                        NOSIG=
201905021030 METAR LRCK 021030Z 22010KT 9999 FEW033 SCT046 18/09 Q1008
                        NOSIG=
201905021100 METAR LRCK 021100Z 25011KT 9999 FEW036 SCT044 FEW048CB 19/09
                        Q1008 NOSIG=
201905021130 METAR LRCK 021130Z 20008KT 9999 VCTS SCT040 FEW050CB 19/09
                        Q1008 TEMPO -TSRA=
201905021200 METAR LRCK 021200Z 24014KT 9999 VCTS SCT041 FEW045CB 20/10
                        Q1007 TEMPO -TSRA=
201905021230 METAR LRCK 021230Z 28022KT 9999 -TSRA SCT041 SCT045CB 17/10
                        Q1008 TEMPO 5000 TSRA=
201905021300 METAR LRCK 021300Z 34011KT 310V010 9999 -TSRA BKN038 SCT040CB
                        14/10 Q1008 R36/29//95 NOSIG=
201905021330 METAR LRCK 021330Z 14005KT 110V180 9999 TS VCSH FEW009 SCT033
                        BKN040CB 15/10 Q1007 R36/29//95 NOSIG=
201905021400 METAR LRCK 021400Z 14007KT 8000 -TSRA BKN028CB 12/10 Q1008
                        R36/29//95 NOSIG=
201905021430 METAR LRCK 021430Z 13006KT 9999 -SHRA VCTS SCT045CB 13/11
                        Q1008 R36/29//95 NOSIG=
201905021500 METAR LRCK 021500Z 16010KT 9999 FEW045CB 13/11 Q1008 R36/29//95
                        NOSIG=
201905021530 METAR LRCK 021530Z 18010KT 9999 FEW050CB 14/11 Q1008 R36/29//95
                        NOSIG=
201905021600 METAR LRCK 021600Z 19008KT 9999 FEW050CB 14/11 Q1008 R36/29//95
                        NOSIG=
201905021630 METAR LRCK 021630Z 21010KT 9999 FEW050CB 13/11 Q1008 R18/29//95
                        NOSIG=
201905021700 METAR LRCK 021700Z 21008KT 9999 FEW050CB 12/10 Q1008 R18/29//95
                        NOSIG=
201905021730 METAR LRCK 021730Z 21010KT 9999 FEW050CB 11/10 Q1008 R18/29//95
                        NOSIG=
201905021800 METAR LRCK 021800Z 22009KT CAVOK 11/09 Q1008 R18/29//95 NOSIG=
201905021830 METAR LRCK 021830Z 23007KT CAVOK 10/09 Q1009 R18/29//95 NOSIG=
201905021900 METAR LRCK 021900Z 23006KT CAVOK 10/09 Q1009 R18/29//95 NOSIG=
201905021930 METAR LRCK 021930Z 23007KT CAVOK 10/09 Q1009 R18/29//95 NOSIG=
201905022000 METAR LRCK 022000Z 22008KT CAVOK 10/09 Q1009 R18/CLRD// NOSIG=
201905022030 METAR LRCK 022030Z 23007KT CAVOK 10/09 Q1009 NOSIG=
201905022100 METAR LRCK 022100Z 26007KT CAVOK 09/09 Q1009 NOSIG=
201905022130 METAR LRCK 022130Z 25008KT CAVOK 10/09 Q1009 NOSIG=
201905022200 METAR COR LRCK 022200Z 26008KT CAVOK 10/09 Q1009 NOSIG=
201905022230 METAR LRCK 022230Z 25008KT CAVOK 10/09 Q1009 NOSIG=
201905022300 METAR LRCK 022300Z 26007KT CAVOK 09/08 Q1009 NOSIG=
201905022330 METAR LRCK 022330Z 26009KT CAVOK 09/09 Q1009 NOSIG=
201905030000 METAR LRCK 030000Z 26008KT CAVOK 09/09 Q1009 NOSIG=
201905030030 METAR LRCK 030030Z 27008KT CAVOK 09/09 Q1009 NOSIG=
201905030100 METAR LRCK 030100Z 27007KT CAVOK 09/08 Q1009 NOSIG=
201905030130 METAR LRCK 030130Z 26007KT CAVOK 09/08 Q1009 NOSIG=
201905030200 METAR LRCK 030200Z 28009KT CAVOK 09/08 Q1009 NOSIG=
201905030230 METAR LRCK 030230Z 28008KT CAVOK 08/07 Q1009 NOSIG=
201905030300 METAR LRCK 030300Z 27009KT CAVOK 08/07 Q1009 NOSIG=
201905030330 METAR LRCK 030330Z 27009KT CAVOK 09/08 Q1009 NOSIG=
201905030400 METAR COR LRCK 030400Z 27007KT CAVOK 10/09 Q1009 NOSIG=
201905030430 METAR LRCK 030430Z 27007KT CAVOK 12/09 Q1010 NOSIG=
201905030500 METAR LRCK 030500Z 26007KT CAVOK 13/10 Q1010 NOSIG=
201905030530 METAR LRCK 030530Z 28011KT CAVOK 14/11 Q1010 NOSIG=
201905030600 METAR LRCK 030600Z 28008KT CAVOK 15/11 Q1010 NOSIG=
201905030630 METAR LRCK 030630Z 28009KT CAVOK 16/11 Q1010 NOSIG=
201905030700 METAR LRCK 030700Z 28009KT CAVOK 17/12 Q1010 NOSIG=
201905030730 METAR LRCK 030730Z 28008KT 240V330 CAVOK 19/12 Q1011 NOSIG=
201905030800 METAR LRCK 030800Z 28007KT CAVOK 19/11 Q1011 NOSIG=
201905030830 METAR LRCK 030830Z 27008KT CAVOK 20/11 Q1011 NOSIG=
201905030900 METAR LRCK 030900Z 24008KT 210V300 CAVOK 21/09 Q1011 NOSIG=
201905030930 METAR LRCK 030930Z 25010KT CAVOK 21/10 Q1011 NOSIG=
201905031000 METAR LRCK 031000Z 27008KT 240V300 9999 FEW030 22/09 Q1011
                        NOSIG=
201905031030 METAR LRCK 031030Z 27009KT 9999 FEW035 22/08 Q1010 NOSIG=
201905031100 METAR LRCK 031100Z 24008KT 9999 FEW040 22/08 Q1010 NOSIG=
201905031130 METAR LRCK 031130Z 27009KT 250V320 9999 FEW045 23/09 Q1010
                        NOSIG=
201905031200 METAR LRCK 031200Z 25010KT 220V280 9999 FEW048 23/08 Q1010
                        NOSIG=
201905031230 METAR LRCK 031230Z 24006KT 210V270 9999 FEW050CB 23/06 Q1010
                        NOSIG=
201905031300 METAR LRCK 031300Z 15009KT 120V200 9999 FEW050CB 22/11 Q1009
                        NOSIG=
201905031330 METAR LRCK 031330Z 13011KT 9999 FEW050CB 21/11 Q1009 NOSIG=
201905031400 METAR LRCK 031400Z 14011KT 9999 FEW050CB 20/12 Q1009 NOSIG=
201905031430 METAR LRCK 031430Z 15011KT 9999 FEW050CB 20/12 Q1009 NOSIG=
201905031500 METAR LRCK 031500Z 16010KT CAVOK 20/13 Q1009 NOSIG=
201905031530 METAR LRCK 031530Z 17013KT CAVOK 20/11 Q1009 NOSIG=
201905031600 METAR LRCK 031600Z 17012KT CAVOK 20/12 Q1009 NOSIG=
201905031630 METAR LRCK 031630Z 17009KT CAVOK 19/13 Q1009 NOSIG=
201905031700 METAR LRCK 031700Z 17009KT CAVOK 18/12 Q1009 NOSIG=
201905031730 METAR LRCK 031730Z 17009KT CAVOK 16/12 Q1009 NOSIG=
201905031800 METAR LRCK 031800Z 18010KT CAVOK 16/11 Q1009 NOSIG=
201905031830 METAR LRCK 031830Z 17009KT CAVOK 14/11 Q1009 NOSIG=
201905031900 METAR LRCK 031900Z 18009KT CAVOK 14/10 Q1010 NOSIG=
201905031930 METAR LRCK 031930Z 19009KT CAVOK 14/10 Q1010 NOSIG=
201905032000 METAR LRCK 032000Z 20009KT CAVOK 13/10 Q1010 NOSIG=
201905032030 METAR LRCK 032030Z 22005KT CAVOK 13/09 Q1009 NOSIG=
201905032100 METAR LRCK 032100Z 22006KT CAVOK 12/10 Q1010 NOSIG=
201905032130 METAR LRCK 032130Z 22005KT CAVOK 13/09 Q1009 NOSIG=
201905032200 METAR LRCK 032200Z 21004KT 170V230 CAVOK 13/09 Q1009 NOSIG=
201905032230 METAR LRCK 032230Z 25006KT CAVOK 12/09 Q1009 NOSIG=
201905032300 METAR LRCK 032300Z 25007KT CAVOK 11/09 Q1009 NOSIG=
201905032330 METAR LRCK 032330Z 26006KT CAVOK 13/09 Q1009 NOSIG=
201905040000 METAR LRCK 040000Z 26005KT CAVOK 11/09 Q1009 NOSIG=
201905040030 METAR LRCK 040030Z 26006KT CAVOK 11/09 Q1009 NOSIG=
201905040100 METAR LRCK 040100Z 26007KT CAVOK 11/09 Q1009 NOSIG=
201905040130 METAR LRCK 040130Z VRB04KT CAVOK 12/09 Q1009 NOSIG=
201905040200 METAR LRCK 040200Z 26007KT CAVOK 12/08 Q1009 NOSIG=
201905040230 METAR LRCK 040230Z 27006KT CAVOK 11/08 Q1009 NOSIG=
201905040300 METAR LRCK 040300Z 27006KT CAVOK 10/08 Q1009 NOSIG=
201905040330 METAR LRCK 040330Z 27007KT CAVOK 11/08 Q1009 NOSIG=
201905040400 METAR LRCK 040400Z 27007KT CAVOK 12/09 Q1009 NOSIG=
201905040430 METAR LRCK 040430Z 26006KT CAVOK 15/10 Q1009 NOSIG=
201905040500 METAR LRCK 040500Z 30007KT CAVOK 17/10 Q1009 NOSIG=
201905040530 METAR LRCK 040530Z 31004KT CAVOK 18/09 Q1009 NOSIG=
201905040600 METAR LRCK 040600Z 31004KT 270V330 CAVOK 19/10 Q1009 NOSIG=
201905040630 METAR LRCK 040630Z VRB02KT CAVOK 21/11 Q1010 NOSIG=
201905040700 METAR LRCK 040700Z 31003KT 260V020 CAVOK 21/11 Q1010 NOSIG=
201905040730 METAR LRCK 040730Z 07005KT 040V110 CAVOK 22/11 Q1010 NOSIG=
201905040800 METAR LRCK 040800Z 11007KT 9999 FEW014 21/13 Q1010 NOSIG=
201905040830 METAR LRCK 040830Z 13007KT 100V160 9999 FEW015 22/12 Q1010
                        NOSIG=
201905040900 METAR LRCK 040900Z 11007KT 9999 FEW023 23/09 Q1009 NOSIG=
201905040930 METAR LRCK 040930Z 12010KT 9999 FEW025 23/08 Q1009 NOSIG=
201905041000 METAR LRCK 041000Z 13010KT 9999 FEW035 24/09 Q1009 NOSIG=
201905041030 METAR LRCK 041030Z 15011KT 9999 FEW040 24/10 Q1009 NOSIG=
201905041100 METAR LRCK 041100Z 14014KT 9999 FEW040TCU 25/09 Q1009 NOSIG=
201905041130 METAR LRCK 041130Z 16014KT 9999 FEW040TCU 24/09 Q1009 NOSIG=
201905041200 METAR LRCK 041200Z 15015KT 9999 FEW040TCU 25/08 Q1009 NOSIG=
201905041230 METAR LRCK 041230Z 15015KT 9999 FEW045 25/08 Q1009 NOSIG=
201905041300 METAR LRCK 041300Z 16013KT CAVOK 24/08 Q1008 NOSIG=
201905041330 METAR LRCK 041330Z 15014KT CAVOK 24/09 Q1008 NOSIG=
201905041400 METAR LRCK 041400Z 16013KT CAVOK 24/09 Q1008 NOSIG=
201905041430 METAR LRCK 041430Z 16012KT CAVOK 23/11 Q1008 NOSIG=
201905041500 METAR LRCK 041500Z 13010KT CAVOK 22/11 Q1008 NOSIG=
201905041530 METAR LRCK 041530Z 15010KT CAVOK 20/10 Q1008 NOSIG=
201905041600 METAR LRCK 041600Z 15010KT CAVOK 19/10 Q1008 NOSIG=
201905041630 METAR LRCK 041630Z 15011KT CAVOK 18/10 Q1007 NOSIG=
201905041700 METAR LRCK 041700Z 15010KT CAVOK 17/11 Q1008 NOSIG=
201905041730 METAR LRCK 041730Z 16010KT CAVOK 15/12 Q1008 NOSIG=
201905041800 METAR LRCK 041800Z 15012KT CAVOK 15/11 Q1008 NOSIG=
201905041830 METAR LRCK 041830Z 15010KT CAVOK 14/11 Q1008 NOSIG=
201905041900 METAR LRCK 041900Z 16012KT CAVOK 14/11 Q1008 NOSIG=
201905041930 METAR LRCK 041930Z 16012KT CAVOK 13/10 Q1008 NOSIG=
201905042000 METAR LRCK 042000Z 16012KT CAVOK 14/10 Q1008 NOSIG=
201905042030 METAR LRCK 042030Z 16012KT CAVOK 14/10 Q1008 NOSIG=
201905042100 METAR LRCK 042100Z 16014KT CAVOK 14/10 Q1008 NOSIG=
201905042130 METAR LRCK 042130Z 16015KT CAVOK 14/10 Q1008 NOSIG=
201905042200 METAR LRCK 042200Z 17013KT CAVOK 14/10 Q1008 NOSIG=
201905042230 METAR LRCK 042230Z 16009KT CAVOK 14/11 Q1008 NOSIG=
201905042300 METAR LRCK 042300Z 16010KT CAVOK 13/11 Q1008 NOSIG=
201905042330 METAR LRCK 042330Z 16008KT CAVOK 12/10 Q1008 NOSIG=
201905050000 METAR LRCK 050000Z 17009KT CAVOK 12/10 Q1008 NOSIG=
201905050030 METAR COR LRCK 050030Z 17008KT CAVOK 14/10 Q1008 NOSIG=
201905050100 METAR LRCK 050100Z 17006KT CAVOK 14/10 Q1007 NOSIG=
201905050130 METAR LRCK 050130Z 15006KT CAVOK 14/10 Q1007 NOSIG=
201905050200 METAR LRCK 050200Z 14007KT CAVOK 14/10 Q1007 NOSIG=
201905050230 METAR LRCK 050230Z 14007KT CAVOK 14/11 Q1007 NOSIG=
201905050300 METAR LRCK 050300Z 15009KT CAVOK 14/11 Q1007 NOSIG=
201905050330 METAR LRCK 050330Z 15008KT CAVOK 14/11 Q1007 NOSIG=
201905050400 METAR COR LRCK 050400Z 15009KT CAVOK 14/10 Q1007 NOSIG=
201905050430 METAR LRCK 050430Z 16012KT CAVOK 14/10 Q1007 NOSIG=
201905050500 METAR LRCK 050500Z 16012KT CAVOK 15/10 Q1007 NOSIG=
201905050530 METAR LRCK 050530Z 16014KT CAVOK 16/11 Q1007 NOSIG=
201905050600 METAR LRCK 050600Z 16015KT CAVOK 17/10 Q1008 NOSIG=
201905050630 METAR LRCK 050630Z 16018KT CAVOK 18/10 Q1008 NOSIG=
201905050700 METAR LRCK 050700Z 16019KT CAVOK 19/10 Q1008 NOSIG=
201905050730 METAR LRCK 050730Z 16020KT CAVOK 20/10 Q1007 NOSIG=
201905050800 METAR LRCK 050800Z 17019KT 9999 FEW036 20/10 Q1007 NOSIG=
201905050830 METAR LRCK 050830Z 16020KT 9999 FEW036 21/10 Q1008 NOSIG=
201905050900 METAR LRCK 050900Z 16020KT 9999 FEW040 21/10 Q1008 NOSIG=
201905050930 METAR LRCK 050930Z 16021KT 9999 FEW040 20/09 Q1008 NOSIG=
201905051000 METAR LRCK 051000Z 15018KT 9999 FEW036 21/11 Q1007 NOSIG=
201905051030 METAR LRCK 051030Z 15018KT 9999 FEW036 21/11 Q1007 NOSIG=
201905051100 METAR LRCK 051100Z 14017KT 9999 FEW035 21/12 Q1007 NOSIG=
201905051130 METAR LRCK 051130Z 15017KT 9999 FEW032 21/11 Q1007 NOSIG=
201905051200 METAR LRCK 051200Z 15017KT 9999 FEW030 20/12 Q1007 NOSIG=
201905051230 METAR LRCK 051230Z 14018KT 9999 FEW030 20/12 Q1007 NOSIG=
201905051300 METAR LRCK 051300Z 15018KT 9999 FEW030 21/12 Q1007 NOSIG=
201905051330 METAR LRCK 051330Z 15018KT 9999 FEW030 19/12 Q1006 NOSIG=
201905051400 METAR LRCK 051400Z 15016KT CAVOK 18/12 Q1007 NOSIG=
201905051430 METAR LRCK 051430Z 16018KT CAVOK 18/12 Q1006 NOSIG=
201905051500 METAR LRCK 051500Z 15016KT CAVOK 17/12 Q1006 NOSIG=
201905051530 METAR LRCK 051530Z 16017KT CAVOK 16/12 Q1007 NOSIG=
201905051600 METAR LRCK 051600Z 15013KT 8000 -RA NSC 15/12 Q1007 NOSIG=
201905051630 METAR LRCK 051630Z 15016KT 9999 -RA NSC 14/13 Q1006 R18/19//95
                        NOSIG=
201905051700 METAR LRCK 051700Z 14014KT CAVOK 14/13 Q1007 R18/19//95 NOSIG=
201905051730 METAR LRCK 051730Z 14013KT 9999 -RA NSC 14/13 Q1007 R18/19//95
                        NOSIG=
201905051800 METAR LRCK 051800Z 14013KT CAVOK 14/12 Q1007 R18/19//95 NOSIG=
201905051830 METAR LRCK 051830Z 15016KT CAVOK 14/12 Q1007 R18/19//95 NOSIG=
201905051900 METAR LRCK 051900Z 14014KT CAVOK 14/12 Q1007 R18/19//95 NOSIG=
201905051930 METAR LRCK 051930Z 15015KT CAVOK 14/12 Q1007 R18/19//95 NOSIG=
201905052000 METAR LRCK 052000Z 15014KT CAVOK 14/12 Q1007 R18/19//95 NOSIG=
201905052030 METAR LRCK 052030Z 16015KT CAVOK 14/12 Q1007 R18/19//95 NOSIG=
201905052100 METAR LRCK 052100Z 16014KT CAVOK 14/12 Q1007 R18/19//95 NOSIG=
201905052130 METAR LRCK 052130Z 16012KT 9999 -RA NSC 14/13 Q1006 R18/19//95
                        NOSIG=
201905052200 METAR LRCK 052200Z 16013KT 9999 -RA NSC 15/13 Q1006 R18/19//95
                        NOSIG=
201905052230 METAR LRCK 052230Z 16011KT 9999 -RA NSC 15/13 Q1006 R18/19//95
                        NOSIG=
201905052300 METAR LRCK 052300Z 16009KT 9999 -RA NSC 14/13 Q1005 R18/19//95
                        NOSIG=
201905052330 METAR LRCK 052330Z 15009KT CAVOK 14/13 Q1005 R18/19//95 NOSIG=
201905060000 METAR LRCK 060000Z 15009KT CAVOK 14/13 Q1005 R18/19//95 NOSIG=
201905060030 METAR LRCK 060030Z 16010KT CAVOK 14/13 Q1005 R18/19//95 NOSIG=
201905060100 METAR LRCK 060100Z AUTO 16009KT 8000 NCD 13/13 Q1005 NOSIG=
201905060130 METAR LRCK 060130Z 16010KT CAVOK 13/13 Q1004 R18/19//95 NOSIG=
201905060200 METAR LRCK 060200Z 17010KT CAVOK 14/13 Q1004 R18/19//95 NOSIG=
201905060230 METAR LRCK 060230Z 17010KT CAVOK 13/13 Q1004 R18/19//95 NOSIG=
201905060300 METAR LRCK 060300Z 17011KT CAVOK 14/13 Q1004 R18/19//95 NOSIG=
201905060330 METAR LRCK 060330Z 19012KT CAVOK 14/13 Q1005 R18/19//95 NOSIG=
201905060400 METAR COR LRCK 060400Z 17011KT CAVOK 14/13 Q1005 R18/19//95
                        NOSIG=
201905060430 METAR LRCK 060430Z 17011KT CAVOK 15/14 Q1005 R18/19//95 NOSIG=
201905060500 METAR LRCK 060500Z 17011KT CAVOK 16/14 Q1005 R18/19//95 NOSIG=
201905060530 METAR LRCK 060530Z 17010KT CAVOK 17/14 Q1005 R18/19//95 NOSIG=
201905060600 METAR LRCK 060600Z 17012KT CAVOK 18/14 Q1005 R18/19//95 NOSIG=
201905060630 METAR LRCK 060630Z 17016KT CAVOK 18/13 Q1005 R18/19//95 NOSIG=
201905060700 METAR LRCK 060700Z 18015KT CAVOK 19/13 Q1005 R18/19//95 NOSIG=
201905060730 METAR LRCK 060730Z 17014KT 130V190 9999 FEW030 20/15 Q1005
                        R18/19//95 NOSIG=
201905060800 METAR LRCK 060800Z 16014KT 9999 FEW023 21/14 Q1005 R18/19//95
                        NOSIG=
201905060830 METAR LRCK 060830Z 16014KT 9999 SCT024 21/14 Q1005 R18/19//95
                        NOSIG=
201905060900 METAR LRCK 060900Z 15013KT 9999 FEW025 22/14 Q1005 R18/19//95
                        NOSIG=
201905060930 METAR LRCK 060930Z 14016KT 9999 SCT028 21/14 Q1005 R18/19//95
                        NOSIG=
201905061000 METAR LRCK 061000Z 14016KT 9999 SCT043 FEW045CB 22/14 Q1004
                        R18/19//95 NOSIG=
201905061030 METAR LRCK 061030Z 13015KT 9999 FEW040 FEW045CB 21/14 Q1004
                        R18/19//95 NOSIG=
201905061100 METAR LRCK 061100Z 13015KT 9999 FEW040 22/14 Q1004 R18/19//95
                        NOSIG=
201905061130 METAR LRCK 061130Z 13018KT CAVOK 22/13 Q1004 R18/19//95 NOSIG=
201905061200 METAR LRCK 061200Z 14017KT CAVOK 21/13 Q1003 R18/19//95 NOSIG=
201905061230 METAR LRCK 061230Z 14019KT CAVOK 22/13 Q1003 R18/19//95 NOSIG=
201905061300 METAR LRCK 061300Z 13016KT CAVOK 21/13 Q1003 R18/19//95 NOSIG=
201905061330 METAR LRCK 061330Z 13018KT CAVOK 19/13 Q1002 R18/19//95 NOSIG=
201905061400 METAR LRCK 061400Z 14017KT CAVOK 19/13 Q1002 R18/19//95 NOSIG=
201905061430 METAR LRCK 061430Z 14016KT CAVOK 18/13 Q1002 R18/19//95 NOSIG=
201905061500 METAR LRCK 061500Z 14015KT CAVOK 19/13 Q1002 NOSIG=
201905061530 METAR LRCK 061530Z 13015KT CAVOK 18/13 Q1002 NOSIG=
201905061600 METAR LRCK 061600Z 14014KT CAVOK 18/12 Q1002 NOSIG=
201905061630 METAR LRCK 061630Z 14010KT CAVOK 17/11 Q1002 BECMG SCT040CB=
201905061700 METAR LRCK 061700Z 15011KT 9999 FEW050CB 16/11 Q1002 NOSIG=
201905061730 METAR LRCK 061730Z 16010KT 9999 FEW050CB 16/11 Q1002 NOSIG=
201905061800 METAR LRCK 061800Z 14010KT 9999 FEW050CB 16/11 Q1002 BECMG
                        VRB15G25KT 5000 -TSRA=
201905061830 METAR LRCK 061830Z 17013KT 9999 FEW043 FEW050CB 15/11 Q1003
                        TEMPO VRB20KT 5000 -TSRA=
201905061900 METAR LRCK 061900Z 27014KT 9999 -RA VCTS FEW008 FEW052CB
                        14/14 Q1003 R18/290095 TEMPO VRB20KT
                        5000 -TSRA=
201905061930 METAR LRCK 061930Z 26014KT 9999 SCT006 FEW052CB 14/13 Q1003
                        R18/290095 NOSIG=
201905062000 METAR LRCK 062000Z 26013KT 9999 BKN006 13/12 Q1003 R18/290095
                        NOSIG=
201905062030 METAR LRCK 062030Z 27011KT 9999 FEW008 13/12 Q1003 R18/290095
                        NOSIG=
201905062100 METAR LRCK 062100Z 26011KT 9999 FEW019 12/11 Q1003 R18/290095
                        NOSIG=
201905062130 METAR LRCK 062130Z 26012KT 9999 FEW019 12/11 Q1003 R18/15//95
                        NOSIG=
201905062200 METAR LRCK 062200Z 26012KT 9999 SCT007 12/11 Q1003 R18/15//95
                        NOSIG=
201905062230 METAR LRCK 062230Z 26010KT 9999 SCT007 11/11 Q1003 R18/15//95
                        NOSIG=
201905062300 METAR LRCK 062300Z 27011KT 9999 BKN010 11/10 Q1003 R18/15//95
                        NOSIG=
201905062330 METAR LRCK 062330Z 26014KT 9999 BKN010 11/11 Q1003 R18/15//95
                        NOSIG=
201905070000 METAR LRCK 070000Z 26016KT 9999 BKN010 11/10 Q1003 R18/15//95
                        NOSIG=
201905070030 METAR COR LRCK 070030Z 25014KT 9999 BKN011 11/10 Q1003 R18/15//95
                        NOSIG=
201905070100 METAR LRCK 070100Z 25012KT 9999 SCT013 11/10 Q1003 R18/15//95
                        NOSIG=
201905070130 METAR LRCK 070130Z 26013KT 9999 FEW015 10/10 Q1003 R18/15//95
                        NOSIG=
201905070200 METAR LRCK 070200Z 26019KT 9999 SCT015 10/09 Q1003 R18/15//95
                        NOSIG=
201905070230 METAR LRCK 070230Z 26018KT 9999 BKN012 09/08 Q1004 R18/15//95
                        NOSIG=
201905070300 METAR LRCK 070300Z 26017KT 9999 OVC011 09/08 Q1004 R18/15//95
                        NOSIG=
201905070330 METAR LRCK 070330Z 27016KT 9999 BKN011 09/08 Q1004 R18/CLRD//
                        NOSIG=
201905070400 METAR LRCK 070400Z 26020KT 9999 BKN012 09/08 Q1004 NOSIG=
201905070430 METAR LRCK 070430Z 26019KT 9999 BKN010 09/08 Q1004 NOSIG=
201905070500 METAR LRCK 070500Z 26018KT 9999 BKN010 09/08 Q1004 NOSIG=
201905070530 METAR LRCK 070530Z 26017KT 9999 BKN007 10/08 Q1005 NOSIG=
201905070600 METAR LRCK 070600Z 27016KT 8000 BKN007 09/08 Q1005 NOSIG=
201905070630 METAR LRCK 070630Z 26015KT 8000 BKN005 09/08 Q1005 NOSIG=
201905070700 METAR LRCK 070700Z 26012KT 8000 BKN005 09/08 Q1006 NOSIG=
201905070730 METAR LRCK 070730Z 25013KT 9999 BKN005 10/08 Q1006 NOSIG=
201905070800 METAR LRCK 070800Z 26015KT 9999 BKN005 10/09 Q1006 NOSIG=
201905070830 METAR LRCK 070830Z 26015KT 9999 BKN007 10/08 Q1006 NOSIG=
201905070900 METAR LRCK 070900Z 26014KT 9999 BKN008 11/09 Q1006 NOSIG=
201905070930 METAR LRCK 070930Z 26015KT 9999 BKN008 11/09 Q1006 NOSIG=
201905071000 METAR LRCK 071000Z 26015KT 9999 BKN009 11/09 Q1006 NOSIG=
201905071030 METAR LRCK 071030Z 26013KT 9999 BKN010 12/08 Q1007 NOSIG=
201905071100 METAR LRCK 071100Z 27013KT 9999 BKN012 13/09 Q1007 NOSIG=
201905071130 METAR LRCK 071130Z 26012KT 9999 SCT010 BKN015 13/09 Q1007
                        NOSIG=
201905071200 METAR LRCK 071200Z 27014KT 9999 SCT010 BKN013 12/09 Q1007
                        NOSIG=
201905071230 METAR LRCK 071230Z 26012KT 9999 SCT009 BKN043 12/09 Q1007
                        NOSIG=
201905071300 METAR LRCK 071300Z 26014KT 9999 BKN009 BKN048 12/09 Q1007
                        NOSIG=
201905071330 METAR LRCK 071330Z 26013KT 9999 BKN007 BKN038 11/09 Q1007
                        NOSIG=
201905071400 METAR LRCK 071400Z 27013KT 9999 SCT007 BKN040 11/09 Q1007
                        NOSIG=
201905071430 METAR LRCK 071430Z 28015KT 9999 -RA FEW008 BKN043 11/10 Q1008
                        NOSIG=
201905071500 METAR LRCK 071500Z 28013KT 9999 -RA FEW007 BKN048 11/10 Q1008
                        NOSIG=
201905071530 METAR LRCK 071530Z 28013KT 9999 -RA FEW008 BKN044 11/10 Q1008
                        NOSIG=
201905071600 METAR LRCK 071600Z 28012KT 9999 -RA FEW010 BKN043 11/10 Q1008
                        NOSIG=
201905071630 METAR LRCK 071630Z 28009KT 9999 SCT008 BKN045 11/10 Q1009
                        NOSIG=
201905071700 METAR LRCK 071700Z 29014KT 5000 -SHRA BR FEW010 BKN020 FEW040CB
                        10/10 Q1009 NOSIG=
201905071730 METAR LRCK 071730Z 29007KT 260V320 6000 -RA FEW010 BKN017
                        FEW040CB 10/10 Q1010 R36/19//95 BECMG
                        9999 NSW=
201905071800 METAR LRCK 071800Z 29008KT 8000 -RADZ FEW005 BKN009 BKN035
                        10/10 Q1010 R36/19//95 NOSIG=
201905071830 METAR LRCK 071830Z 30006KT 7000 -RA SCT005 BKN016 BKN024
                        09/09 Q1010 R36/19//95 NOSIG=
201905071900 METAR LRCK 071900Z 31007KT 8000 FEW008 BKN017 BKN035 09/08
                        Q1011 RERA R36/19//95 NOSIG=
201905071930 METAR LRCK 071930Z 32008KT 9999 FEW017 OVC026 10/08 Q1011
                        R36/19//95 NOSIG=
201905072000 METAR LRCK 072000Z 34009KT 9999 OVC026 09/07 Q1011 R36/19//95
                        NOSIG=
201905072030 METAR LRCK 072030Z 33011KT 9999 SCT028 OVC033 09/06 Q1011
                        R36/19//95 NOSIG=
201905072100 METAR LRCK 072100Z 33010KT 9999 OVC034 09/05 Q1012 R36/19//95
                        NOSIG=
201905072130 METAR LRCK 072130Z 32010KT 9999 OVC034 08/05 Q1012 R36/19//95
                        NOSIG=
201905072200 METAR LRCK 072200Z 32010KT 9999 OVC035 08/05 Q1012 R36/19//95
                        NOSIG=
201905072230 METAR LRCK 072230Z 32011KT 9999 OVC042 08/04 Q1012 R36/19//95
                        NOSIG=
201905072300 METAR LRCK 072300Z 31011KT 9999 OVC045 08/04 Q1012 R36/19//95
                        NOSIG=
201905072330 METAR LRCK 072330Z 31012KT 9999 SCT047 07/04 Q1012 R36/19//95
                        NOSIG=
201905080000 METAR LRCK 080000Z 32011KT 9999 SCT048 07/04 Q1012 R36/19//95
                        NOSIG=
201905080030 METAR LRCK 080030Z 32011KT 9999 FEW048 07/03 Q1012 R36/19//95
                        NOSIG=
201905080100 METAR LRCK 080100Z 32012KT CAVOK 07/03 Q1012 R36/19//95 NOSIG=
201905080130 METAR LRCK 080130Z 30006KT CAVOK 07/04 Q1013 R36/19//95 NOSIG=
201905080200 METAR COR LRCK 080200Z 29006KT CAVOK 07/04 Q1013 R36/19//95
                        NOSIG=
201905080230 METAR COR LRCK 080230Z 29005KT 9999 FEW045 07/04 Q1013 R36/19//95
                        NOSIG=
201905080300 METAR LRCK 080300Z 27005KT 9999 FEW048 06/04 Q1013 R36/19//95
                        NOSIG=
201905080330 METAR LRCK 080330Z 26005KT 9999 SCT048 07/05 Q1013 R36/19//95
                        NOSIG=
201905080400 METAR LRCK 080400Z 25006KT 9999 BKN048 07/05 Q1013 R36/CLRD//
                        NOSIG=
201905080430 METAR LRCK 080430Z 25008KT 9999 FEW008 BKN043 07/06 Q1013
                        NOSIG=
201905080500 METAR LRCK 080500Z 27012KT 9999 SCT006 BKN042 08/07 Q1013
                        NOSIG=
201905080530 METAR LRCK 080530Z 28015KT 9999 BKN007 BKN045 09/07 Q1013
                        NOSIG=
201905080600 METAR LRCK 080600Z 30018KT 9999 BKN010 BKN021 10/05 Q1013
                        NOSIG=
201905080630 METAR LRCK 080630Z 31016KT 9999 SCT010 SCT023 11/04 Q1013
                        NOSIG=
201905080700 METAR LRCK 080700Z 31015KT 9999 BKN024 10/06 Q1013 NOSIG=
201905080730 METAR LRCK 080730Z 30017KT 9999 BKN027 10/05 Q1014 NOSIG=
201905080800 METAR LRCK 080800Z 31018KT 9999 BKN023 10/04 Q1014 NOSIG=
201905080830 METAR LRCK 080830Z 31017KT 9999 SCT016 BKN023 09/06 Q1014
                        NOSIG=
201905080900 METAR LRCK 080900Z 30014KT 260V320 9999 BKN019 BKN028 10/05
                        Q1014 NOSIG=
201905080930 METAR LRCK 080930Z 30014KT 9999 SCT019 BKN027 09/05 Q1014
                        NOSIG=
201905081000 METAR LRCK 081000Z 30017KT 9999 BKN019 BKN024 10/05 Q1014
                        NOSIG=
201905081030 METAR LRCK 081030Z 30015KT 9999 BKN019 BKN023 09/05 Q1014
                        NOSIG=
201905081100 METAR LRCK 081100Z 30015KT 9999 -RA BKN016 BKN023 09/06 Q1015
                        NOSIG=
201905081130 METAR LRCK 081130Z 30015KT 9999 -RA BKN015 BKN030 09/06 Q1015
                        NOSIG=
201905081200 METAR LRCK 081200Z 30020KT 9999 -RA BKN016 BKN030 10/07 Q1015
                        NOSIG=
201905081230 METAR LRCK 081230Z 30016KT 9999 -RA BKN016 BKN023 09/06 Q1015
                        NOSIG=
201905081300 METAR LRCK 081300Z 30015KT 9999 BKN017 BKN025 10/06 Q1015
                        NOSIG=
201905081330 METAR LRCK 081330Z 30014KT 9999 SCT017 BKN030 09/06 Q1015
                        NOSIG=
201905081400 METAR LRCK 081400Z 31013KT 9999 SCT017 BKN030 10/06 Q1015
                        NOSIG=
201905081430 METAR LRCK 081430Z 32014KT 9999 SCT019 BKN033 10/06 Q1015
                        NOSIG=
201905081500 METAR LRCK 081500Z 31012KT 9999 SCT020 BKN043 10/06 Q1015
                        NOSIG=
201905081530 METAR LRCK 081530Z 32010KT 9999 FEW019 BKN032 10/06 Q1015
                        NOSIG=
201905081600 METAR LRCK 081600Z 31011KT 9999 SCT025 BKN043 10/06 Q1015
                        NOSIG=
201905081630 METAR LRCK 081630Z 29009KT 9999 BKN043 10/06 Q1014 NOSIG=
201905081700 METAR LRCK 081700Z 29009KT 9999 BKN042 10/06 Q1015 NOSIG=
201905081730 METAR LRCK 081730Z 27007KT 9999 BKN042 10/07 Q1015 NOSIG=
201905081800 METAR LRCK 081800Z 27007KT 9999 BKN042 10/07 Q1015 NOSIG=
201905081830 METAR LRCK 081830Z 26006KT 240V300 9999 BKN045 10/07 Q1015
                        NOSIG=
201905081900 METAR LRCK 081900Z 27006KT 9999 FEW030 OVC045 09/07 Q1015
                        NOSIG=
201905081930 METAR LRCK 081930Z 28006KT 9999 FEW030 OVC049 10/06 Q1015
                        NOSIG=
201905082000 METAR LRCK 082000Z 29006KT 260V320 9999 FEW028 BKN049 10/07
                        Q1015 NOSIG=
201905082030 METAR LRCK 082030Z 29006KT 9999 FEW030 09/07 Q1015 NOSIG=
201905082100 METAR LRCK 082100Z 27007KT 9999 FEW030 09/07 Q1014 NOSIG=
201905082130 METAR LRCK 082130Z 28007KT 9999 FEW035 09/07 Q1014 NOSIG=
201905082200 METAR LRCK 082200Z 29005KT 260V320 9999 FEW035 09/07 Q1015
                        NOSIG=
201905082230 METAR LRCK 082230Z 29005KT 9999 SCT035 09/07 Q1015 NOSIG=
201905082300 METAR LRCK 082300Z 28006KT 9999 BKN035 09/07 Q1015 NOSIG=
201905082330 METAR LRCK 082330Z 28006KT 9999 SCT036 09/07 Q1014 NOSIG=
201905090000 METAR LRCK 090000Z 28008KT 9999 SCT036 09/06 Q1014 NOSIG=
201905090030 METAR LRCK 090030Z 28006KT 9999 FEW036 09/06 Q1014 NOSIG=
201905090100 METAR LRCK 090100Z 28007KT CAVOK 09/06 Q1014 NOSIG=
201905090130 METAR LRCK 090130Z 29006KT CAVOK 09/07 Q1014 NOSIG=
201905090200 METAR LRCK 090200Z 29007KT CAVOK 09/07 Q1013 NOSIG=
201905090230 METAR LRCK 090230Z 29005KT CAVOK 08/07 Q1013 NOSIG=
201905090300 METAR LRCK 090300Z 29005KT CAVOK 08/07 Q1014 NOSIG=
201905090330 METAR LRCK 090330Z 27004KT CAVOK 08/07 Q1014 NOSIG=
201905090400 METAR LRCK 090400Z 29004KT CAVOK 09/07 Q1014 NOSIG=
201905090430 METAR LRCK 090430Z 28006KT CAVOK 09/07 Q1014 NOSIG=
201905090500 METAR LRCK 090500Z 29006KT CAVOK 10/07 Q1014 NOSIG=
201905090530 METAR LRCK 090530Z 29004KT CAVOK 11/07 Q1014 NOSIG=
201905090600 METAR LRCK 090600Z 29007KT 260V320 CAVOK 12/07 Q1013 NOSIG=
201905090630 METAR LRCK 090630Z 31007KT 280V350 CAVOK 13/05 Q1013 NOSIG=
201905090700 METAR LRCK 090700Z 30007KT 280V340 9999 FEW030 14/06 Q1013
                        NOSIG=
201905090730 METAR LRCK 090730Z 33005KT 290V360 9999 FEW034 14/04 Q1013
                        NOSIG=
201905090800 METAR LRCK 090800Z 33007KT 9999 FEW036 14/04 Q1013 NOSIG=
201905090830 METAR LRCK 090830Z 29007KT 240V340 9999 FEW044 15/04 Q1013
                        NOSIG=
201905090900 METAR LRCK 090900Z 26006KT 220V300 9999 SCT046 15/04 Q1013
                        NOSIG=
201905090930 METAR LRCK 090930Z 21006KT 140V290 9999 SCT049 16/03 Q1013
                        NOSIG=
201905091000 METAR LRCK 091000Z 25007KT 180V280 9999 SCT049 17/02 Q1012
                        NOSIG=
201905091030 METAR LRCK 091030Z 27006KT 200V320 9999 BKN049 17/03 Q1012
                        NOSIG=
201905091100 METAR LRCK 091100Z 24006KT 200V290 9999 FEW049 16/03 Q1012
                        NOSIG=
201905091130 METAR LRCK 091130Z 14010KT 110V170 CAVOK 17/06 Q1012 NOSIG=
201905091200 METAR LRCK 091200Z 13012KT CAVOK 16/06 Q1012 NOSIG=
201905091230 METAR LRCK 091230Z 13011KT CAVOK 16/06 Q1011 NOSIG=
201905091300 METAR LRCK 091300Z 14014KT CAVOK 15/07 Q1011 NOSIG=
201905091330 METAR LRCK 091330Z 14013KT CAVOK 16/06 Q1011 NOSIG=
201905091400 METAR LRCK 091400Z 14013KT CAVOK 17/05 Q1010 NOSIG=
201905091430 METAR LRCK 091430Z 15012KT CAVOK 16/05 Q1010 NOSIG=
201905091500 METAR LRCK 091500Z 15014KT CAVOK 16/04 Q1010 NOSIG=
201905091530 METAR LRCK 091530Z 16012KT CAVOK 15/05 Q1010 NOSIG=
201905091600 METAR LRCK 091600Z 15013KT CAVOK 15/06 Q1010 NOSIG=
201905091630 METAR LRCK 091630Z 15012KT CAVOK 13/07 Q1010 NOSIG=
201905091700 METAR LRCK 091700Z 16012KT CAVOK 12/07 Q1009 NOSIG=
201905091730 METAR LRCK 091730Z 16012KT CAVOK 11/07 Q1009 NOSIG=
201905091800 METAR LRCK 091800Z 16012KT CAVOK 11/08 Q1009 NOSIG=
201905091830 METAR LRCK 091830Z 15010KT CAVOK 11/08 Q1009 NOSIG=
201905091900 METAR LRCK 091900Z 16009KT CAVOK 11/09 Q1009 NOSIG=
201905091930 METAR LRCK 091930Z 15010KT CAVOK 11/09 Q1009 NOSIG=
201905092000 METAR LRCK 092000Z 15011KT CAVOK 12/09 Q1009 NOSIG=
201905092030 METAR LRCK 092030Z 15011KT CAVOK 12/09 Q1009 NOSIG=
201905092100 METAR LRCK 092100Z 14010KT CAVOK 12/09 Q1009 NOSIG=
201905092130 METAR LRCK 092130Z 14011KT CAVOK 12/09 Q1009 NOSIG=
201905092200 METAR LRCK 092200Z 14011KT CAVOK 12/09 Q1008 NOSIG=
201905092230 METAR LRCK 092230Z 14011KT CAVOK 12/10 Q1008 NOSIG=
201905092300 METAR LRCK 092300Z 15012KT CAVOK 12/10 Q1008 NOSIG=
201905092330 METAR LRCK 092330Z 16011KT CAVOK 12/10 Q1008 NOSIG=
201905100000 METAR LRCK 100000Z 17012KT 9999 SCT023 12/10 Q1007 NOSIG=
201905100030 METAR LRCK 100030Z 18009KT 9999 SCT013 SCT027 12/10 Q1007
                        NOSIG=
201905100100 METAR LRCK 100100Z 18010KT 9999 BKN022 BKN048 12/10 Q1007
                        NOSIG=
201905100130 METAR LRCK 100130Z 19010KT 8000 -RA SCT019 11/11 Q1007 NOSIG=
201905100200 METAR LRCK 100200Z 20009KT 9999 -RA NSC 11/11 Q1007 NOSIG=
201905100230 METAR LRCK 100230Z 20007KT 8000 NSC 11/11 Q1007 NOSIG=
201905100300 METAR LRCK 100300Z 19007KT 5000 -RA BR NSC 11/11 Q1007 NOSIG=
201905100330 METAR LRCK 100330Z 18004KT 5000 BR NSC 11/11 Q1007 NOSIG=
201905100400 METAR LRCK 100400Z 17004KT 4000 BR NSC 11/11 Q1007 R18/29//95
                        NOSIG=
201905100430 METAR LRCK 100430Z 15003KT 5000 -RA BR NSC 12/12 Q1007 R18/29//95
                        NOSIG=
201905100500 METAR LRCK 100500Z 10004KT 5000 -RA BR NSC 12/12 Q1007 R18/29//95
                        NOSIG=
201905100530 METAR LRCK 100530Z 10004KT 4000 -RA BR SCT003 BKN047 13/12
                        Q1007 R18/29//95 NOSIG=
201905100600 METAR LRCK 100600Z 12005KT 4000 -RA BR SCT002 BKN037 13/12
                        Q1007 R18/29//95 NOSIG=
201905100630 METAR LRCK 100630Z 12006KT 5000 -RA BR BKN004 BKN049 13/12
                        Q1008 R18/29//95 NOSIG=
201905100700 METAR LRCK 100700Z 17007KT 8000 -RA SCT008 BKN032 13/12 Q1008
                        R18/29//95 NOSIG=
201905100730 METAR LRCK 100730Z 17007KT 9999 -RA SCT014 SCT027 13/12 Q1008
                        R18/29//95 NOSIG=
201905100800 METAR LRCK 100800Z 15007KT 9999 FEW015 SCT048 13/10 Q1008
                        RERA R18/29//95 NOSIG=
201905100830 METAR LRCK 100830Z 13007KT 9999 FEW015 BKN048 13/11 Q1008
                        R18/29//95 NOSIG=
201905100900 METAR LRCK 100900Z 13007KT 9999 FEW015 BKN043 13/11 Q1008
                        R18/29//95 NOSIG=
201905100930 METAR LRCK 100930Z 13007KT 9999 SCT013 BKN042 13/12 Q1008
                        R18/29//95 NOSIG=
201905101000 METAR LRCK 101000Z 13007KT 9999 SCT011 BKN042 13/11 Q1008
                        R18/29//95 NOSIG=
201905101030 METAR LRCK 101030Z 11006KT 080V150 9999 SCT012 BKN035 14/11
                        Q1008 R18/CLRD// NOSIG=
201905101100 METAR LRCK 101100Z 09007KT 060V130 9999 BKN012 BKN039 15/10
                        Q1007 NOSIG=
201905101130 METAR LRCK 101130Z 08008KT 9999 SCT018 SCT038 15/10 Q1007
                        NOSIG=
201905101200 METAR LRCK 101200Z 08007KT 9999 SCT021 SCT042 15/11 Q1007
                        NOSIG=
201905101230 METAR LRCK 101230Z 07007KT 9999 FEW015 SCT030 16/12 Q1007
                        NOSIG=
201905101300 METAR LRCK 101300Z 09006KT 9999 FEW014 SCT028 16/11 Q1007
                        NOSIG=
201905101330 METAR LRCK 101330Z 10006KT 060V120 9999 FEW015 SCT027 15/11
                        Q1008 NOSIG=
201905101400 METAR COR LRCK 101400Z 10007KT 9999 FEW014 SCT038 15/11 Q1007
                        NOSIG=
201905101430 METAR LRCK 101430Z 07008KT 9999 FEW030 FEW045CB 15/11 Q1008
                        NOSIG=
201905101500 METAR LRCK 101500Z 09007KT 9999 FEW018 FEW045CB 15/11 Q1008
                        NOSIG=
201905101530 METAR LRCK 101530Z 10006KT 9999 TS FEW018 FEW032CB 14/11
                        Q1008 TEMPO VRB20KT 5000 TSRA=
201905101600 METAR LRCK 101600Z VRB02KT 9999 FEW013 SCT028 FEW042CB 13/12
                        Q1008 NOSIG=
201905101630 METAR LRCK 101630Z 34003KT 310V020 9999 FEW013 SCT025 13/11
                        Q1008 NOSIG=
201905101700 METAR LRCK 101700Z 28005KT 240V300 9999 SCT028 13/11 Q1008
                        NOSIG=
201905101730 METAR LRCK 101730Z 25004KT 9999 FEW028 FEW050CB 12/11 Q1008
                        NOSIG=
201905101800 METAR LRCK 101800Z 22004KT 9999 FEW050CB 12/11 Q1008 BECMG
                        NSC=
201905101830 METAR LRCK 101830Z 24003KT CAVOK 12/11 Q1009 NOSIG=
201905101900 METAR LRCK 101900Z 17002KT 9999 FEW024 11/11 Q1009 NOSIG=
201905101930 METAR LRCK 101930Z 23003KT 9999 SCT017 11/11 Q1009 NOSIG=
201905102000 METAR LRCK 102000Z 29003KT 9999 FEW009 BKN019 12/11 Q1009
                        NOSIG=
201905102030 METAR LRCK 102030Z 31003KT 9999 FEW010 BKN023 12/11 Q1009
                        NOSIG=
201905102100 METAR LRCK 102100Z 00000KT 9999 FEW008 BKN023 12/11 Q1009
                        NOSIG=
201905102130 METAR LRCK 102130Z 24005KT 9999 SCT023 SCT045 11/10 Q1009
                        NOSIG=
201905102200 METAR LRCK 102200Z 26005KT 8000 FEW036 SCT044 11/11 Q1009
                        NOSIG=
201905102230 METAR LRCK 102230Z 26004KT 8000 BKN040 11/11 Q1009 BECMG
                        5000 BR=
201905102300 METAR LRCK 102300Z 27003KT 8000 SCT040 11/11 Q1010 BECMG
                        5000 BR=
201905102330 METAR LRCK 102330Z 25004KT 5000 BR NSC 10/10 Q1009 BECMG
                        3000 BR=
201905110000 METAR LRCK 110000Z 28004KT 3000 BR FEW001 10/10 Q1009 TEMPO
                        1500 BR=
201905110030 METAR LRCK 110030Z 29005KT 3000 BR FEW001 10/10 Q1009 TEMPO
                        1500 BR=
201905110100 METAR LRCK 110100Z 28005KT 3000 BR SCT003 10/10 Q1010 NOSIG=
201905110130 METAR LRCK 110130Z 31005KT 3000 BR FEW045 11/11 Q1010 NOSIG=
201905110200 METAR LRCK 110200Z 31004KT 2500 0500N PRFG BR SCT003 11/11
                        Q1010 NOSIG=
201905110230 METAR LRCK 110230Z 29003KT 260V320 1500 0300N R18/0600U R36/P2000
                        PRFG BR BKN001 11/11 Q1010 TEMPO
                        0600 FG=
201905110300 METAR LRCK 110300Z 29004KT 0400 R18/0650N R36/0700N FG BKN002
                        11/11 Q1010 NOSIG=
201905110330 METAR LRCK 110330Z 26004KT 0600 R18/1300U R36/1600D FG OVC002
                        11/11 Q1011 NOSIG=
201905110400 METAR LRCK 110400Z 30005KT 0800 R18/P2000 R36/1300U FG BKN001
                        11/11 Q1011 BECMG 3000 BR BKN005=
201905110430 METAR LRCK 110430Z 29005KT 1500 BR BKN001 11/11 Q1011 BECMG
                        3000 BKN005=
201905110500 METAR LRCK 110500Z 30006KT 3000 BR BKN002 12/12 Q1011 BECMG
                        5000 BKN005=
201905110530 METAR LRCK 110530Z 29006KT 5000 BR BKN003 12/12 Q1012 BECMG
                        9999 NSW SCT010=
201905110600 METAR LRCK 110600Z 32006KT 7000 SCT004 15/12 Q1012 NOSIG=
201905110630 METAR LRCK 110630Z 32007KT 290V360 9999 FEW005 BKN013 15/11
                        Q1012 NOSIG=
201905110700 METAR LRCK 110700Z 30008KT 9999 SCT015 BKN033 14/11 Q1012
                        NOSIG=
201905110730 METAR LRCK 110730Z 30007KT 9999 FEW014 BKN035 14/11 Q1012
                        NOSIG=
201905110800 METAR LRCK 110800Z 27010KT 9999 SCT015 BKN040 15/11 Q1013
                        NOSIG=
201905110830 METAR LRCK 110830Z 29010KT 9999 SCT017 BKN045 16/11 Q1013
                        NOSIG=
201905110900 METAR LRCK 110900Z 28010KT 250V310 9999 SCT019 BKN040 16/11
                        Q1013 NOSIG=
201905110930 METAR LRCK 110930Z 31009KT 280V340 9999 SCT022 BKN045 16/10
                        Q1013 NOSIG=
201905111000 METAR LRCK 111000Z 29009KT 9999 SCT025 BKN049 17/11 Q1013
                        NOSIG=
201905111030 METAR LRCK 111030Z 30011KT 9999 SCT025 BKN049 16/10 Q1013
                        NOSIG=
201905111100 METAR LRCK 111100Z 28010KT 9999 SCT026 FEW045CB 19/12 Q1013
                        NOSIG=
201905111130 METAR LRCK 111130Z 28011KT 250V320 9999 SCT030 FEW048CB 19/10
                        Q1013 NOSIG=
201905111200 METAR LRCK 111200Z 31008KT 280V350 9999 SCT033 FEW050CB 19/10
                        Q1013 NOSIG=
201905111230 METAR LRCK 111230Z 28009KT 240V310 9999 SCT040 FEW050CB 20/09
                        Q1013 NOSIG=
201905111300 METAR LRCK 111300Z 29006KT 260V320 9999 SCT043 FEW050CB 19/08
                        Q1013 NOSIG=
201905111330 METAR LRCK 111330Z 35009KT 320V020 9999 SCT045 FEW050CB 19/10
                        Q1013 NOSIG=
201905111400 METAR LRCK 111400Z 35011KT 9999 SCT044 FEW050CB 19/10 Q1014
                        NOSIG=
201905111430 METAR LRCK 111430Z 01010KT 9999 FEW045 FEW050CB 20/09 Q1014
                        NOSIG=
201905111500 METAR LRCK 111500Z 35009KT 9999 FEW048 FEW050CB 18/09 Q1014
                        NOSIG=
201905111530 METAR LRCK 111530Z 34011KT 9999 FEW050CB 18/08 Q1014 NOSIG=
201905111600 METAR LRCK 111600Z 01009KT 9999 FEW049 17/09 Q1014 NOSIG=
201905111630 METAR LRCK 111630Z 01005KT 9999 FEW049 16/11 Q1014 NOSIG=
201905111700 METAR LRCK 111700Z 02002KT CAVOK 16/10 Q1015 NOSIG=
201905111730 METAR LRCK 111730Z 07001KT CAVOK 15/10 Q1015 NOSIG=
201905111800 METAR LRCK 111800Z VRB01KT CAVOK 14/09 Q1015 NOSIG=
201905111830 METAR LRCK 111830Z 00000KT CAVOK 13/10 Q1016 NOSIG=
201905111900 METAR LRCK 111900Z 19003KT CAVOK 12/09 Q1016 NOSIG=
201905111930 METAR LRCK 111930Z 21003KT CAVOK 11/09 Q1016 NOSIG=
201905112000 METAR LRCK 112000Z 24004KT CAVOK 10/09 Q1016 NOSIG=
201905112030 METAR LRCK 112030Z 25005KT CAVOK 11/09 Q1017 NOSIG=
201905112100 METAR LRCK 112100Z 27004KT CAVOK 11/09 Q1017 NOSIG=
201905112130 METAR LRCK 112130Z 26003KT CAVOK 11/09 Q1017 NOSIG=
201905112200 METAR LRCK 112200Z 27005KT CAVOK 10/08 Q1017 NOSIG=
201905112230 METAR LRCK 112230Z 28005KT CAVOK 10/09 Q1017 NOSIG=
201905112300 METAR LRCK 112300Z 30007KT CAVOK 10/08 Q1017 NOSIG=
201905112330 METAR COR LRCK 112330Z 29005KT CAVOK 09/08 Q1017 NOSIG=
201905120000 METAR LRCK 120000Z 30005KT CAVOK 10/08 Q1017 NOSIG=
201905120030 METAR COR LRCK 120030Z 28006KT CAVOK 09/09 Q1017 NOSIG=
201905120100 METAR LRCK 120100Z 30006KT CAVOK 10/09 Q1017 NOSIG=
201905120130 METAR LRCK 120130Z 30007KT CAVOK 09/08 Q1017 NOSIG=
201905120200 METAR LRCK 120200Z AUTO 30006KT 9999 NCD 09/08 Q1017 NOSIG=
201905120230 METAR COR LRCK 120230Z 33005KT CAVOK 10/08 Q1017 NOSIG=
201905120300 METAR LRCK 120300Z 35004KT 340V080 CAVOK 08/06 Q1017 NOSIG=
201905120330 METAR LRCK 120330Z VRB02KT CAVOK 09/08 Q1018 NOSIG=
201905120400 METAR LRCK 120400Z 34003KT CAVOK 11/09 Q1018 NOSIG=
201905120430 METAR LRCK 120430Z VRB02KT CAVOK 13/10 Q1018 NOSIG=
201905120500 METAR LRCK 120500Z 04003KT CAVOK 14/11 Q1019 NOSIG=
201905120530 METAR LRCK 120530Z 06004KT CAVOK 14/11 Q1019 NOSIG=
201905120600 METAR LRCK 120600Z 07005KT 020V090 CAVOK 16/12 Q1019 NOSIG=
201905120630 METAR LRCK 120630Z 09006KT CAVOK 17/12 Q1019 NOSIG=
201905120700 METAR LRCK 120700Z 06006KT CAVOK 17/12 Q1019 NOSIG=
201905120730 METAR LRCK 120730Z 06005KT 030V090 CAVOK 18/11 Q1019 NOSIG=
201905120800 METAR LRCK 120800Z 06006KT 020V090 9999 FEW029 19/11 Q1019
                        NOSIG=
201905120830 METAR LRCK 120830Z 08006KT 040V110 9999 FEW026 19/10 Q1019
                        NOSIG=
201905120900 METAR LRCK 120900Z 08008KT 030V110 9999 FEW029 19/12 Q1019
                        NOSIG=
201905120930 METAR LRCK 120930Z 08010KT 9999 FEW029 20/11 Q1019 NOSIG=
201905121000 METAR LRCK 121000Z 08010KT 9999 FEW029 20/11 Q1020 NOSIG=
201905121030 METAR LRCK 121030Z 07010KT 9999 FEW029 20/11 Q1020 NOSIG=
201905121100 METAR LRCK 121100Z 07010KT 9999 FEW035 20/10 Q1020 NOSIG=
201905121130 METAR LRCK 121130Z 09009KT 9999 FEW035 19/09 Q1020 NOSIG=
201905121200 METAR LRCK 121200Z 09011KT 9999 FEW035 20/10 Q1020 NOSIG=
201905121230 METAR LRCK 121230Z 11011KT 9999 FEW035 19/11 Q1020 NOSIG=
201905121300 METAR LRCK 121300Z 11010KT 080V140 9999 FEW035 19/11 Q1020
                        NOSIG=
201905121330 METAR LRCK 121330Z 10009KT 9999 FEW035 19/11 Q1020 NOSIG=
201905121400 METAR LRCK 121400Z 10009KT 9999 FEW035 18/11 Q1020 NOSIG=
201905121430 METAR LRCK 121430Z 10009KT CAVOK 18/11 Q1020 NOSIG=
201905121500 METAR LRCK 121500Z 10010KT CAVOK 17/12 Q1020 NOSIG=
201905121530 METAR LRCK 121530Z 11010KT CAVOK 16/12 Q1020 NOSIG=
201905121600 METAR LRCK 121600Z 11009KT CAVOK 16/12 Q1020 NOSIG=
201905121630 METAR LRCK 121630Z 11009KT 9999 FEW010 15/12 Q1020 NOSIG=
201905121700 METAR LRCK 121700Z 11007KT 9999 FEW010 15/12 Q1020 NOSIG=
201905121730 METAR LRCK 121730Z 11004KT 7000 FEW008 14/12 Q1020 NOSIG=
201905121800 METAR LRCK 121800Z 11004KT 6000 FEW008 13/11 Q1021 TEMPO
                        5000 BR=
201905121830 METAR LRCK 121830Z 13004KT 5000 BR FEW008 12/11 Q1021 TEMPO
                        3000 BR=
201905121900 METAR LRCK 121900Z 10004KT 1500 BR FEW010 12/11 Q1021 TEMPO
                        0800 FG=
201905121930 METAR LRCK 121930Z 11005KT 0800 R18/P2000 R36/0800D FG NSC
                        12/12 Q1021 BECMG 0350 FG=
201905122000 METAR LRCK 122000Z 06005KT 0800 R18/P2000 R36/0800D FG NSC
                        11/11 Q1021 BECMG 0350 FG=
201905122030 METAR LRCK 122030Z 04006KT 0600 R18/P2000 R36/0550D FG FEW002
                        10/10 Q1021 BECMG 0350 FG VV001=
201905122100 METAR LRCK 122100Z 05005KT 0600 R18/1900D R36/0550N FG FEW002
                        11/11 Q1020 BECMG 0350 FG VV001=
201905122130 METAR LRCK 122130Z 04005KT 0400 R18/0800D R36/0400D FG SCT002
                        10/10 Q1020 BECMG 0350 FG VV001=
201905122200 METAR LRCK 122200Z 05005KT 0200 R18/0800D R36/0225N FG BKN001
                        10/10 Q1020 NOSIG=
201905122230 METAR LRCK 122230Z 04006KT 0100 R18/0325N R36/0325N FG OVC001
                        10/10 Q1020 NOSIG=
201905122300 METAR LRCK 122300Z 04005KT 0200 R18/0800U R36/0400N FG BKN002
                        09/09 Q1020 NOSIG=
201905122330 METAR LRCK 122330Z 04002KT 0200 R18/0350N R36/0350N FG BKN002
                        10/10 Q1020 NOSIG=
201905130000 METAR LRCK 130000Z 07003KT 0100 R18/0250N R36/0150N FG OVC002
                        10/10 Q1020 NOSIG=
201905130030 METAR LRCK 130030Z 05005KT 0200 R18/0275N R36/0200N FG OVC002
                        09/09 Q1020 NOSIG=
201905130100 METAR LRCK 130100Z 04006KT 0250 R18/0750N R36/0225N FG OVC002
                        10/10 Q1020 NOSIG=
201905130130 METAR LRCK 130130Z 03006KT 0350 R18/0400N R36/0250N FG OVC001
                        11/11 Q1020 NOSIG=
201905130200 METAR LRCK 130200Z 02005KT 0350 R18/0375N R36/0275N FG OVC001
                        10/10 Q1020 NOSIG=
201905130230 METAR LRCK 130230Z 02006KT 0250 R18/0325N R36/0225N FG OVC001
                        10/10 Q1020 NOSIG=
201905130300 METAR LRCK 130300Z 02005KT 0200 R18/0250N R36/0200N FG OVC001
                        09/09 Q1020 NOSIG=
201905130330 METAR LRCK 130330Z 02004KT 0150 R18/0175N R36/0150N FG OVC001
                        10/10 Q1020 NOSIG=
201905130400 METAR LRCK 130400Z 02004KT 0200 R18/0225N R36/0225N FG OVC001
                        11/11 Q1021 BECMG 0600 BKN002=
201905130430 METAR LRCK 130430Z 04006KT 0200 R18/0225N R36/0225N FG OVC001
                        11/11 Q1021 BECMG 0600 BKN002=
201905130500 METAR LRCK 130500Z 04006KT 0250 R18/0200N R36/0300N FG OVC001
                        12/12 Q1021 BECMG 0600 BKN002=
201905130530 METAR LRCK 130530Z 05007KT 0800 R18/0800U R36/1700U FG OVC002
                        13/13 Q1021 BECMG 1500 BR BKN005=
201905130600 METAR LRCK 130600Z 06007KT 020V090 5000 BR BKN004 14/14 Q1021
                        BECMG SCT015=
201905130630 METAR LRCK 130630Z 07008KT 9999 BKN007 15/15 Q1021 BECMG
                        SCT015=
201905130700 METAR LRCK 130700Z 07007KT 030V110 9999 SCT011 16/12 Q1021
                        NOSIG=
201905130730 METAR LRCK 130730Z 05008KT 9999 SCT015 17/12 Q1021 NOSIG=
201905130800 METAR LRCK 130800Z 06009KT 030V090 9999 SCT025 18/12 Q1021
                        NOSIG=
201905130830 METAR LRCK 130830Z 08008KT 050V120 9999 FEW027 19/11 Q1021
                        NOSIG=
201905130900 METAR LRCK 130900Z 09008KT 9999 FEW033 19/10 Q1021 NOSIG=
201905130930 METAR LRCK 130930Z 09008KT 9999 FEW035 19/10 Q1021 NOSIG=
201905131000 METAR LRCK 131000Z 08009KT 050V120 9999 FEW040 20/11 Q1021
                        NOSIG=
201905131030 METAR LRCK 131030Z 06009KT 9999 FEW040 20/11 Q1021 NOSIG=
201905131100 METAR LRCK 131100Z 09009KT 9999 FEW046 20/10 Q1021 NOSIG=
201905131130 METAR LRCK 131130Z 08008KT 9999 FEW049 20/10 Q1021 NOSIG=
201905131200 METAR LRCK 131200Z 10008KT 040V130 CAVOK 21/10 Q1021 NOSIG=
201905131230 METAR LRCK 131230Z 09007KT 060V120 CAVOK 21/10 Q1021 NOSIG=
201905131300 METAR LRCK 131300Z 10008KT 050V120 CAVOK 21/09 Q1020 NOSIG=
201905131330 METAR LRCK 131330Z 09007KT 050V110 CAVOK 20/10 Q1020 NOSIG=
201905131400 METAR LRCK 131400Z 12007KT 090V150 CAVOK 20/10 Q1020 NOSIG=
201905131430 METAR LRCK 131430Z 14006KT CAVOK 20/10 Q1020 NOSIG=
201905131500 METAR LRCK 131500Z 14006KT CAVOK 20/09 Q1020 NOSIG=
201905131530 METAR LRCK 131530Z 12005KT CAVOK 20/09 Q1020 NOSIG=
201905131600 METAR LRCK 131600Z 12005KT CAVOK 20/09 Q1019 NOSIG=
201905131630 METAR LRCK 131630Z 11006KT CAVOK 19/09 Q1019 NOSIG=
201905131700 METAR LRCK 131700Z 10005KT CAVOK 18/09 Q1019 NOSIG=
201905131730 METAR LRCK 131730Z 14003KT CAVOK 17/09 Q1019 NOSIG=
201905131800 METAR LRCK 131800Z 14003KT CAVOK 15/10 Q1020 NOSIG=
201905131830 METAR LRCK 131830Z 14004KT CAVOK 14/10 Q1020 NOSIG=
201905131900 METAR LRCK 131900Z 11003KT CAVOK 14/10 Q1020 NOSIG=
201905131930 METAR LRCK 131930Z 09003KT CAVOK 13/10 Q1020 NOSIG=
201905132000 METAR LRCK 132000Z 08002KT CAVOK 13/10 Q1020 NOSIG=
201905132030 METAR LRCK 132030Z 12002KT CAVOK 13/10 Q1020 NOSIG=
201905132100 METAR LRCK 132100Z VRB01KT CAVOK 13/11 Q1019 NOSIG=
201905132130 METAR LRCK 132130Z 05003KT CAVOK 13/10 Q1019 NOSIG=
201905132200 METAR LRCK 132200Z 05003KT CAVOK 13/10 Q1019 NOSIG=
201905132230 METAR LRCK 132230Z 03003KT CAVOK 12/10 Q1019 NOSIG=
201905132300 METAR LRCK 132300Z 00000KT CAVOK 12/10 Q1020 NOSIG=
201905132330 METAR LRCK 132330Z 10001KT CAVOK 12/11 Q1020 NOSIG=
201905140000 METAR LRCK 140000Z 21004KT CAVOK 12/11 Q1020 NOSIG=
201905140030 METAR LRCK 140030Z 00000KT CAVOK 12/10 Q1019 NOSIG=
201905140100 METAR LRCK 140100Z 00000KT CAVOK 12/10 Q1019 NOSIG=
201905140130 METAR LRCK 140130Z 35002KT CAVOK 12/10 Q1019 NOSIG=
201905140200 METAR LRCK 140200Z 03006KT 6000 NSC 11/10 Q1018 NOSIG=
201905140230 METAR LRCK 140230Z 02006KT 6000 NSC 11/10 Q1017 NOSIG=
201905140300 METAR LRCK 140300Z 36007KT 6000 NSC 12/11 Q1017 NOSIG=
201905140330 METAR LRCK 140330Z 03008KT 6000 NSC 12/11 Q1017 NOSIG=
201905140400 METAR COR LRCK 140400Z 04007KT 8000 FEW005 14/12 Q1017 TEMPO
                        BKN005=
201905140430 METAR LRCK 140430Z 05007KT 6000 BKN006 15/13 Q1017 NOSIG=
201905140500 METAR LRCK 140500Z 07006KT 5000 BR BKN005 15/14 Q1018 NOSIG=
201905140530 METAR LRCK 140530Z 08006KT 5000 BR BKN005 15/14 Q1019 NOSIG=
201905140600 METAR LRCK 140600Z 09009KT 8000 BKN007 16/14 Q1018 NOSIG=
201905140630 METAR LRCK 140630Z 08011KT 9999 BKN008 17/14 Q1018 BECMG
                        BKN015=
201905140700 METAR LRCK 140700Z 08010KT 9999 BKN008 17/13 Q1018 BECMG
                        BKN015=
201905140730 METAR LRCK 140730Z 07010KT 9999 BKN011 17/14 Q1018 BECMG
                        BKN015=
201905140800 METAR COR LRCK 140800Z 07011KT 9999 FEW012 SCT015 17/13 Q1018
                        NOSIG=
201905140830 METAR LRCK 140830Z 09010KT 9999 SCT015 17/13 Q1018 NOSIG=
201905140900 METAR LRCK 140900Z 10012KT 9999 SCT012 FEW049CB 18/13 Q1018
                        NOSIG=
201905140930 METAR LRCK 140930Z 11012KT 9999 FEW013 FEW049CB 18/11 Q1018
                        NOSIG=
201905141000 METAR LRCK 141000Z 12012KT 9999 FEW015 18/11 Q1018 NOSIG=
201905141030 METAR LRCK 141030Z 10013KT 9999 FEW018 18/10 Q1017 NOSIG=
201905141100 METAR LRCK 141100Z 11011KT 9999 FEW048 17/10 Q1017 NOSIG=
201905141130 METAR LRCK 141130Z 11010KT 9999 FEW032 17/10 Q1018 NOSIG=
201905141200 METAR LRCK 141200Z 11007KT 9999 FEW030 16/11 Q1018 NOSIG=
201905141230 METAR LRCK 141230Z 08008KT 9999 FEW030 16/11 Q1018 NOSIG=
201905141300 METAR LRCK 141300Z 08011KT 9999 FEW035 17/12 Q1017 NOSIG=
201905141330 METAR LRCK 141330Z 08013KT 9999 FEW018 16/11 Q1017 NOSIG=
201905141400 METAR LRCK 141400Z 08012KT 9999 FEW018 17/12 Q1017 NOSIG=
201905141430 METAR LRCK 141430Z 08014KT 9999 FEW035 17/12 Q1016 NOSIG=
201905141500 METAR LRCK 141500Z 07012KT 9999 FEW040 16/12 Q1016 NOSIG=
201905141530 METAR LRCK 141530Z 07012KT 9999 -RA FEW045 16/12 Q1016 NOSIG=
201905141600 METAR LRCK 141600Z 07012KT 9999 -RA FEW040 15/13 Q1015 NOSIG=
201905141630 METAR LRCK 141630Z 07013KT 9999 FEW045 15/13 Q1015 RERA NOSIG=
201905141700 METAR LRCK 141700Z 08013KT 9999 FEW048 15/13 Q1015 NOSIG=
201905141730 METAR LRCK 141730Z 08012KT CAVOK 15/13 Q1016 NOSIG=
201905141800 METAR LRCK 141800Z 09011KT CAVOK 15/13 Q1016 NOSIG=
201905141830 METAR LRCK 141830Z 09011KT CAVOK 14/13 Q1015 NOSIG=
201905141900 METAR LRCK 141900Z 08011KT CAVOK 14/13 Q1015 NOSIG=
201905141930 METAR LRCK 141930Z 08011KT CAVOK 14/13 Q1014 NOSIG=
201905142000 METAR LRCK 142000Z 08010KT CAVOK 14/13 Q1014 NOSIG=
201905142030 METAR LRCK 142030Z 08010KT 9999 FEW010 14/13 Q1014 NOSIG=
201905142100 METAR LRCK 142100Z 09010KT 9999 FEW007 14/14 Q1014 TEMPO
                        BKN005=
201905142130 METAR LRCK 142130Z 08009KT 9999 SCT007 14/14 Q1014 TEMPO
                        BKN005=
201905142200 METAR LRCK 142200Z 09008KT 9999 BKN007 14/14 Q1014 NOSIG=
201905142230 METAR LRCK 142230Z 08007KT 9999 BKN008 14/14 Q1014 NOSIG=
201905142300 METAR LRCK 142300Z 09007KT 9999 BKN008 14/14 Q1014 NOSIG=
201905142330 METAR LRCK 142330Z 07007KT 9999 BKN008 14/13 Q1013 NOSIG=
201905150000 METAR LRCK 150000Z 08007KT 9999 SCT008 14/13 Q1013 NOSIG=
201905150030 METAR LRCK 150030Z 08008KT 9999 SCT008 14/13 Q1013 NOSIG=
201905150100 METAR LRCK 150100Z 07008KT 9999 SCT008 14/13 Q1012 NOSIG=
201905150130 METAR LRCK 150130Z 07007KT 9999 FEW008 14/14 Q1012 NOSIG=
201905150200 METAR LRCK 150200Z 06005KT CAVOK 14/14 Q1012 NOSIG=
201905150230 METAR COR LRCK 150230Z 03006KT CAVOK 14/13 Q1012 NOSIG=
201905150300 METAR LRCK 150300Z 05007KT CAVOK 14/14 Q1013 NOSIG=
201905150330 METAR LRCK 150330Z 05007KT 9999 FEW010 14/14 Q1013 NOSIG=
201905150400 METAR LRCK 150400Z 06008KT 9999 FEW010 14/14 Q1013 NOSIG=
201905150430 METAR LRCK 150430Z 06011KT 9999 FEW011 FEW040CB 15/14 Q1012
                        NOSIG=
201905150500 METAR LRCK 150500Z 03004KT 360V060 9999 TS FEW007 FEW040CB
                        15/14 Q1014 NOSIG=
201905150530 METAR LRCK 150530Z 04012KT 9999 VCTS FEW008 FEW040CB 16/14
                        Q1013 NOSIG=
201905150600 METAR LRCK 150600Z 04011KT 9999 VCTS FEW008 FEW040CB 16/14
                        Q1013 NOSIG=
201905150630 METAR LRCK 150630Z 06011KT 9999 VCTS SCT008 FEW040CB 16/14
                        Q1014 NOSIG=
201905150700 METAR LRCK 150700Z 05010KT 9999 SCT009 FEW040CB 17/15 Q1014
                        NOSIG=
201905150730 METAR LRCK 150730Z 05012KT 9999 TS FEW010 SCT040CB 17/14
                        Q1013 TEMPO 5000 TSRA BKN035CB=
201905150800 METAR LRCK 150800Z 05015KT 9999 FEW040CB 18/14 Q1013 NOSIG=
201905150830 METAR LRCK 150830Z 06018KT 9999 FEW045CB 18/14 Q1012 NOSIG=
201905150900 METAR LRCK 150900Z 06021KT 9999 FEW045CB 19/14 Q1012 NOSIG=
201905150930 METAR LRCK 150930Z 07017KT 9999 FEW045CB 19/13 Q1013 NOSIG=
201905151000 METAR LRCK 151000Z 07016KT 9999 FEW050CB 19/13 Q1013 NOSIG=
201905151030 METAR LRCK 151030Z 07015KT 9999 FEW050CB 19/12 Q1013 NOSIG=
201905151100 METAR LRCK 151100Z 07019KT 9999 FEW050CB 18/13 Q1012 NOSIG=
201905151130 METAR LRCK 151130Z 08021KT 9999 FEW050CB 18/13 Q1012 NOSIG=
201905151200 METAR LRCK 151200Z 23008KT 200V260 9999 FEW050CB 18/12 Q1015
                        NOSIG=
201905151230 METAR LRCK 151230Z 13006KT 080V180 9999 FEW050CB 18/12 Q1014
                        NOSIG=
201905151300 METAR LRCK 151300Z 07010KT 9999 FEW050CB 17/13 Q1014 NOSIG=
201905151330 METAR LRCK 151330Z 09009KT 9999 FEW050CB 18/13 Q1014 NOSIG=
201905151400 METAR LRCK 151400Z 06013KT 9999 FEW050CB 17/12 Q1013 NOSIG=
201905151430 METAR LRCK 151430Z 08010KT 9999 FEW045CB 17/12 Q1014 NOSIG=
201905151500 METAR LRCK 151500Z 07010KT 9999 -SHRA FEW045CB 17/12 Q1014
                        NOSIG=
201905151530 METAR LRCK 151530Z 06013KT 9999 FEW045CB 16/12 Q1013 NOSIG=
201905151600 METAR LRCK 151600Z 06011KT 9999 FEW050CB 16/12 Q1013 NOSIG=
201905151630 METAR LRCK 151630Z 06012KT 9999 FEW055CB 16/12 Q1013 NOSIG=
201905151700 METAR LRCK 151700Z 05017KT 9999 FEW055CB 16/12 Q1012 NOSIG=
201905151730 METAR LRCK 151730Z 07016KT 9999 FEW055CB 16/11 Q1012 NOSIG=
201905151800 METAR LRCK 151800Z 07015KT 9999 FEW055CB 16/11 Q1013 NOSIG=
201905151830 METAR LRCK 151830Z 07011KT 9999 FEW055CB 15/11 Q1013 NOSIG=
201905151900 METAR LRCK 151900Z 08006KT 360V160 9999 FEW055CB 15/11 Q1013
                        NOSIG=
201905151930 METAR LRCK 151930Z 08012KT CAVOK 15/11 Q1013 NOSIG=
201905152000 METAR LRCK 152000Z 16007KT 120V180 CAVOK 15/11 Q1015 NOSIG=
201905152030 METAR LRCK 152030Z 08009KT CAVOK 15/11 Q1014 NOSIG=
201905152100 METAR LRCK 152100Z 06010KT CAVOK 15/11 Q1013 NOSIG=
201905152130 METAR LRCK 152130Z 07009KT CAVOK 15/11 Q1013 NOSIG=
201905152200 METAR LRCK 152200Z 08009KT CAVOK 15/11 Q1013 NOSIG=
201905152230 METAR LRCK 152230Z 06004KT CAVOK 14/11 Q1013 NOSIG=
201905152300 METAR LRCK 152300Z 06010KT CAVOK 14/12 Q1012 NOSIG=
201905152330 METAR LRCK 152330Z 06010KT 9999 FEW050CB 14/12 Q1012 NOSIG=
201905160000 METAR LRCK 160000Z 36005KT 9999 FEW050CB 14/12 Q1012 NOSIG=
201905160030 METAR LRCK 160030Z VRB01KT CAVOK 14/12 Q1012 NOSIG=
201905160100 METAR LRCK 160100Z 04007KT CAVOK 14/12 Q1011 NOSIG=
201905160130 METAR COR LRCK 160130Z VRB01KT CAVOK 13/11 Q1011 NOSIG=
201905160200 METAR LRCK 160200Z 04008KT CAVOK 13/12 Q1011 NOSIG=
201905160230 METAR LRCK 160230Z 34003KT 300V040 CAVOK 13/12 Q1011 NOSIG=
201905160300 METAR LRCK 160300Z 30005KT 270V330 CAVOK 13/12 Q1011 NOSIG=
201905160330 METAR LRCK 160330Z 30006KT CAVOK 13/11 Q1011 NOSIG=
201905160400 METAR LRCK 160400Z 31005KT CAVOK 13/12 Q1011 NOSIG=
201905160430 METAR LRCK 160430Z 30006KT 270V330 CAVOK 14/12 Q1011 NOSIG=
201905160500 METAR LRCK 160500Z 32005KT 280V360 CAVOK 14/12 Q1011 NOSIG=
201905160530 METAR LRCK 160530Z 33004KT CAVOK 15/12 Q1012 NOSIG=
201905160600 METAR LRCK 160600Z 27006KT CAVOK 15/12 Q1012 NOSIG=
201905160630 METAR LRCK 160630Z 31006KT CAVOK 15/12 Q1012 NOSIG=
201905160700 METAR LRCK 160700Z 29006KT 260V320 CAVOK 16/12 Q1012 NOSIG=
201905160730 METAR LRCK 160730Z 28005KT 9999 FEW036 17/12 Q1013 NOSIG=
201905160800 METAR LRCK 160800Z AUTO 31009KT 9999 -RA FEW051/// BKN077///
                        16/12 Q1012 NOSIG=
201905160830 METAR LRCK 160830Z 35005KT 300V040 9999 -RA BKN035 17/14
                        Q1012 R36/19//95 NOSIG=
201905160900 METAR LRCK 160900Z 31006KT 280V340 9999 SCT035 17/13 Q1012
                        R36/19//95 NOSIG=
201905160930 METAR LRCK 160930Z 36010KT 9999 FEW048 18/14 Q1012 R36/19//95
                        NOSIG=
201905161000 METAR LRCK 161000Z 36009KT CAVOK 19/14 Q1011 R36/CLRD// NOSIG=
201905161030 METAR LRCK 161030Z 02012KT CAVOK 19/13 Q1011 NOSIG=
201905161100 METAR COR LRCK 161100Z 03011KT CAVOK 23/13 Q1010 NOSIG=
201905161130 METAR LRCK 161130Z 02010KT CAVOK 23/14 Q1010 NOSIG=
201905161200 METAR LRCK 161200Z 03016KT CAVOK 24/13 Q1010 NOSIG=
201905161230 METAR LRCK 161230Z 05011KT CAVOK 23/12 Q1010 NOSIG=
201905161300 METAR LRCK 161300Z 04011KT CAVOK 24/10 Q1010 NOSIG=
201905161330 METAR LRCK 161330Z 04010KT CAVOK 24/12 Q1010 NOSIG=
201905161400 METAR LRCK 161400Z 07011KT 040V100 CAVOK 24/12 Q1010 NOSIG=
201905161430 METAR LRCK 161430Z 06010KT CAVOK 23/13 Q1010 NOSIG=
201905161500 METAR LRCK 161500Z 05010KT CAVOK 23/13 Q1010 NOSIG=
201905161530 METAR LRCK 161530Z 04011KT CAVOK 22/13 Q1010 NOSIG=
201905161600 METAR LRCK 161600Z 05009KT CAVOK 22/13 Q1010 NOSIG=
201905161630 METAR LRCK 161630Z 05006KT CAVOK 21/13 Q1010 NOSIG=
201905161700 METAR LRCK 161700Z 10009KT CAVOK 18/14 Q1011 NOSIG=
201905161730 METAR LRCK 161730Z 10007KT CAVOK 16/14 Q1011 NOSIG=
201905161800 METAR LRCK 161800Z 13005KT 7000 NSC 15/14 Q1011 BECMG 5000
                        BR=
201905161830 METAR LRCK 161830Z 17003KT 5000 BR NSC 14/13 Q1011 TEMPO
                        3000 BR=
201905161900 METAR LRCK 161900Z 21004KT 5000 BR NSC 13/12 Q1011 NOSIG=
201905161930 METAR LRCK 161930Z 21005KT 5000 BR NSC 13/12 Q1011 NOSIG=
201905162000 METAR LRCK 162000Z 23004KT 200V260 5000 BR NSC 13/13 Q1011
                        NOSIG=
201905162030 METAR LRCK 162030Z 27006KT 5000 BR NSC 13/13 Q1011 NOSIG=
201905162100 METAR LRCK 162100Z 28006KT 5000 BR NSC 13/13 Q1011 NOSIG=
201905162130 METAR LRCK 162130Z 29006KT 3000 BR NSC 13/13 Q1011 NOSIG=
201905162200 METAR LRCK 162200Z 30006KT 3000 BR NSC 12/12 Q1011 NOSIG=
201905162230 METAR LRCK 162230Z 30008KT 4000 BR NSC 13/13 Q1011 NOSIG=
201905162300 METAR COR LRCK 162300Z 29007KT 5000 BR NSC 13/13 Q1011 NOSIG=
201905162330 METAR LRCK 162330Z 30008KT 5000 BR NSC 13/12 Q1010 NOSIG=
201905170000 METAR LRCK 170000Z 30008KT 5000 BR NSC 13/12 Q1010 NOSIG=
201905170030 METAR LRCK 170030Z 32005KT 6000 NSC 11/10 Q1010 NOSIG=
201905170100 METAR LRCK 170100Z 32006KT 6000 NSC 11/11 Q1010 NOSIG=
201905170130 METAR LRCK 170130Z 32007KT 6000 NSC 13/12 Q1010 NOSIG=
201905170200 METAR LRCK 170200Z 32007KT 6000 NSC 13/12 Q1010 NOSIG=
201905170230 METAR LRCK 170230Z 29008KT 5000 BR NSC 13/12 Q1010 NOSIG=
201905170300 METAR LRCK 170300Z 30008KT 5000 BR NSC 13/12 Q1010 NOSIG=
201905170330 METAR LRCK 170330Z 30007KT 7000 MIFG NSC 13/12 Q1010 NOSIG=
201905170400 METAR LRCK 170400Z 30006KT 8000 MIFG NSC 15/13 Q1011 NOSIG=
201905170430 METAR LRCK 170430Z 32005KT 8000 NSC 16/13 Q1010 NOSIG=
201905170500 METAR LRCK 170500Z VRB02KT 7000 NSC 15/13 Q1011 NOSIG=
201905170530 METAR LRCK 170530Z 06006KT 320V090 CAVOK 17/14 Q1011 NOSIG=
201905170600 METAR LRCK 170600Z 06005KT CAVOK 17/14 Q1011 NOSIG=
201905170630 METAR LRCK 170630Z 07007KT 040V100 CAVOK 18/15 Q1011 NOSIG=
201905170700 METAR LRCK 170700Z 05006KT CAVOK 19/16 Q1011 NOSIG=
201905170730 METAR LRCK 170730Z 05008KT CAVOK 20/16 Q1011 NOSIG=
201905170800 METAR LRCK 170800Z 06009KT CAVOK 21/16 Q1011 NOSIG=
201905170830 METAR LRCK 170830Z 05008KT 010V080 CAVOK 21/16 Q1011 NOSIG=
201905170900 METAR LRCK 170900Z 03010KT CAVOK 22/17 Q1011 NOSIG=
201905170930 METAR LRCK 170930Z 03008KT 360V060 CAVOK 23/16 Q1011 NOSIG=
201905171000 METAR LRCK 171000Z 05008KT 020V080 CAVOK 25/16 Q1010 NOSIG=
201905171030 METAR LRCK 171030Z 03010KT CAVOK 25/15 Q1010 NOSIG=
201905171100 METAR LRCK 171100Z 05009KT 010V100 CAVOK 25/15 Q1010 NOSIG=
201905171130 METAR LRCK 171130Z 13011KT CAVOK 22/15 Q1011 BECMG 33012KT=
201905171200 METAR LRCK 171200Z 12009KT CAVOK 21/15 Q1011 BECMG 33012KT=
201905171230 METAR LRCK 171230Z 14008KT 9999 FEW050CB 21/15 Q1011 BECMG
                        33012KT=
201905171300 METAR LRCK 171300Z 14003KT 110V180 9999 FEW050CB 22/15 Q1011
                        BECMG 33012KT=
201905171330 METAR LRCK 171330Z VRB02KT 9999 FEW035 23/15 Q1011 NOSIG=
201905171400 METAR LRCK 171400Z 27003KT 230V320 9999 FEW035 24/16 Q1010
                        NOSIG=
201905171430 METAR LRCK 171430Z 27010KT CAVOK 23/17 Q1010 NOSIG=
201905171500 METAR LRCK 171500Z 28010KT CAVOK 22/17 Q1010 NOSIG=
201905171530 METAR LRCK 171530Z 27010KT CAVOK 22/17 Q1011 NOSIG=
201905171600 METAR LRCK 171600Z 29011KT CAVOK 22/15 Q1010 NOSIG=
201905171630 METAR LRCK 171630Z 29012KT 9999 FEW050CB 21/14 Q1010 NOSIG=
201905171700 METAR LRCK 171700Z 28012KT 9999 FEW050CB 20/13 Q1010 NOSIG=
201905171730 METAR LRCK 171730Z 28011KT 9999 FEW050CB 20/13 Q1010 NOSIG=
201905171800 METAR LRCK 171800Z 28010KT 9999 FEW050CB 19/13 Q1010 NOSIG=
201905171830 METAR LRCK 171830Z 30013KT CAVOK 19/14 Q1010 NOSIG=
201905171900 METAR LRCK 171900Z 30013KT CAVOK 19/14 Q1009 NOSIG=
201905171930 METAR LRCK 171930Z 32013KT CAVOK 19/13 Q1009 NOSIG=
201905172000 METAR LRCK 172000Z 32011KT CAVOK 20/11 Q1009 NOSIG=
201905172030 METAR LRCK 172030Z 31013KT CAVOK 20/11 Q1008 NOSIG=
201905172100 METAR LRCK 172100Z 32012KT CAVOK 19/11 Q1008 NOSIG=
201905172130 METAR LRCK 172130Z 34013KT CAVOK 19/12 Q1008 NOSIG=
201905172200 METAR LRCK 172200Z 35009KT CAVOK 18/11 Q1008 NOSIG=
201905172230 METAR LRCK 172230Z 34006KT 230V020 CAVOK 17/12 Q1008 NOSIG=
201905172300 METAR LRCK 172300Z VRB03KT CAVOK 18/11 Q1008 NOSIG=
201905172330 METAR LRCK 172330Z 27005KT 230V290 CAVOK 17/11 Q1007 NOSIG=
201905180000 METAR LRCK 180000Z 30011KT CAVOK 19/11 Q1007 NOSIG=
201905180030 METAR LRCK 180030Z 28009KT CAVOK 18/12 Q1006 NOSIG=
201905180100 METAR LRCK 180100Z 27010KT CAVOK 16/12 Q1006 NOSIG=
201905180130 METAR LRCK 180130Z 29012KT CAVOK 16/13 Q1006 NOSIG=
201905180200 METAR LRCK 180200Z 30012KT CAVOK 16/13 Q1006 NOSIG=
201905180230 METAR LRCK 180230Z 28011KT CAVOK 16/13 Q1006 NOSIG=
201905180300 METAR LRCK 180300Z 28011KT 9999 FEW050CB 16/13 Q1006 NOSIG=
201905180330 METAR LRCK 180330Z 30011KT 5000 TSRA SCT035CB 15/14 Q1007
                        BECMG 9999 NSW=
201905180400 METAR LRCK 180400Z 32020KT 1500 +TSRA SCT008 BKN025CB 16/16
                        Q1006 R36/290395 BECMG 32010KT 5000
                        -TSRA=
201905180430 METAR LRCK 180430Z 33006KT 9999 TS FEW018 FEW035CB 18/16
                        Q1006 R36/290395 NOSIG=
201905180500 METAR LRCK 180500Z VRB04KT 9999 TS SCT040CB 17/15 Q1007 R36/290395
                        NOSIG=
201905180530 METAR LRCK 180530Z 28011KT 9999 FEW040CB 17/15 Q1007 R36/290395
                        NOSIG=
201905180600 METAR LRCK 180600Z 29012KT 9999 FEW018 FEW045CB 17/15 Q1007
                        R36/290395 NOSIG=
201905180630 METAR LRCK 180630Z 28009KT 9999 FEW018 FEW045CB 18/16 Q1008
                        R36/290395 NOSIG=
201905180700 METAR LRCK 180700Z 29013KT 9999 FEW025 FEW045CB 18/16 Q1007
                        R36/290395 NOSIG=
201905180730 METAR LRCK 180730Z 30014KT 9999 FEW048 20/17 Q1007 R36/21//95
                        NOSIG=
201905180800 METAR LRCK 180800Z 29015KT 9999 FEW048 21/17 Q1007 R36/21//95
                        NOSIG=
201905180830 METAR LRCK 180830Z 31014KT 9999 FEW048 23/18 Q1007 R36/21//95
                        NOSIG=
201905180900 METAR LRCK 180900Z 30014KT 9999 FEW048 23/17 Q1007 R36/21//95
                        NOSIG=
201905180930 METAR LRCK 180930Z 31012KT CAVOK 24/18 Q1006 R36/21//95 NOSIG=
201905181000 METAR LRCK 181000Z 31014KT 9999 FEW045 24/18 Q1006 R36/21//95
                        NOSIG=
201905181030 METAR LRCK 181030Z 30014KT 9999 FEW030 25/18 Q1006 R36/21//95
                        NOSIG=
201905181100 METAR LRCK 181100Z 32014KT 9999 FEW028 25/18 Q1006 R36/CLRD//
                        NOSIG=
201905181130 METAR LRCK 181130Z 31015KT 9999 SCT030 26/18 Q1006 NOSIG=
201905181200 METAR LRCK 181200Z 30015KT 9999 SCT031 25/18 Q1006 NOSIG=
201905181230 METAR LRCK 181230Z 29014KT 9999 SCT032 25/19 Q1006 NOSIG=
201905181300 METAR LRCK 181300Z 30014KT 270V330 9999 FEW028 FEW045TCU
                        25/18 Q1006 NOSIG=
201905181330 METAR LRCK 181330Z 29014KT 260V330 9999 FEW030 FEW045CB 25/18
                        Q1005 NOSIG=
201905181400 METAR LRCK 181400Z 30014KT 9999 FEW045CB 25/19 Q1006 NOSIG=
201905181430 METAR LRCK 181430Z 29012KT 260V320 9999 FEW045CB 24/17 Q1006
                        NOSIG=
201905181500 METAR LRCK 181500Z 29012KT 9999 FEW045CB 24/18 Q1006 NOSIG=
201905181530 METAR LRCK 181530Z 29011KT 9999 VCTS FEW043CB 24/17 Q1006
                        TEMPO -TSRA=
201905181600 METAR LRCK 181600Z 29010KT 9999 FEW042CB 24/17 Q1006 TEMPO
                        -TSRA=
201905181630 METAR LRCK 181630Z 28008KT 9999 FEW038 FEW047CB 23/17 Q1006
                        TEMPO -TSRA=
201905181700 METAR LRCK 181700Z 28007KT 9999 SCT041 FEW048CB 22/17 Q1006
                        NOSIG=
201905181730 METAR LRCK 181730Z 27008KT 9999 SCT043 FEW048CB 21/17 Q1007
                        NOSIG=
201905181800 METAR LRCK 181800Z 27008KT 9999 FEW046 20/16 Q1006 NOSIG=
201905181830 METAR LRCK 181830Z 27008KT 9999 BKN045 21/16 Q1007 NOSIG=
201905181900 METAR LRCK 181900Z 28006KT 9999 SCT043 20/16 Q1007 NOSIG=
201905181930 METAR LRCK 181930Z 26006KT 9999 VCTS FEW050CB 18/16 Q1007
                        NOSIG=
201905182000 METAR LRCK 182000Z 27010KT 9999 FEW050CB 18/16 Q1007 NOSIG=
201905182030 METAR LRCK 182030Z 27007KT 9999 FEW050CB 19/17 Q1007 NOSIG=
201905182100 METAR LRCK 182100Z 28007KT 9999 FEW050CB 18/17 Q1007 NOSIG=
201905182130 METAR LRCK 182130Z 29007KT CAVOK 18/17 Q1007 NOSIG=
201905182200 METAR LRCK 182200Z 28007KT CAVOK 18/17 Q1007 NOSIG=
201905182230 METAR LRCK 182230Z 28007KT CAVOK 17/16 Q1007 NOSIG=
201905182300 METAR LRCK 182300Z 29008KT CAVOK 17/16 Q1007 NOSIG=
201905182330 METAR LRCK 182330Z 30008KT CAVOK 17/16 Q1007 NOSIG=
201905190000 METAR LRCK 190000Z 27009KT CAVOK 16/16 Q1007 NOSIG=
201905190030 METAR LRCK 190030Z 27009KT CAVOK 16/15 Q1007 NOSIG=
201905190100 METAR LRCK 190100Z 28009KT CAVOK 16/16 Q1007 NOSIG=
201905190130 METAR LRCK 190130Z 29008KT CAVOK 16/15 Q1007 NOSIG=
201905190200 METAR LRCK 190200Z 29008KT CAVOK 16/15 Q1007 NOSIG=
201905190230 METAR LRCK 190230Z 27009KT 8000 NSC 15/15 Q1007 NOSIG=
201905190300 METAR LRCK 190300Z 28009KT CAVOK 16/15 Q1007 NOSIG=
201905190330 METAR LRCK 190330Z 29008KT CAVOK 16/15 Q1008 NOSIG=
201905190400 METAR LRCK 190400Z 28009KT CAVOK 16/16 Q1008 NOSIG=
201905190430 METAR LRCK 190430Z 28011KT CAVOK 17/16 Q1008 NOSIG=
201905190500 METAR LRCK 190500Z 29010KT CAVOK 16/16 Q1008 NOSIG=
201905190530 METAR LRCK 190530Z 28010KT 9999 FEW010 18/16 Q1008 NOSIG=
201905190600 METAR LRCK 190600Z 29009KT 9999 FEW010 18/17 Q1009 NOSIG=
201905190630 METAR LRCK 190630Z 29007KT 9999 FEW015 20/17 Q1009 NOSIG=
201905190700 METAR LRCK 190700Z 30005KT 260V330 CAVOK 21/18 Q1009 NOSIG=
201905190730 METAR LRCK 190730Z 30006KT CAVOK 23/19 Q1009 NOSIG=
201905190800 METAR LRCK 190800Z 27010KT 240V300 CAVOK 23/18 Q1009 NOSIG=
201905190830 METAR LRCK 190830Z 28009KT 250V310 9999 FEW030 23/19 Q1009
                        NOSIG=
201905190900 METAR LRCK 190900Z 28009KT 9999 FEW030 24/19 Q1009 NOSIG=
201905190930 METAR LRCK 190930Z 30009KT 260V330 9999 FEW035TCU 25/19 Q1009
                        NOSIG=
201905191000 METAR LRCK 191000Z 29009KT 260V320 9999 FEW035TCU 26/17 Q1009
                        NOSIG=
201905191030 METAR LRCK 191030Z 28009KT 260V330 9999 FEW038 26/18 Q1009
                        NOSIG=
201905191100 METAR LRCK 191100Z 28009KT 9999 FEW040 26/16 Q1009 NOSIG=
201905191130 METAR LRCK 191130Z 30009KT 270V330 9999 FEW040 27/16 Q1009
                        NOSIG=
201905191200 METAR LRCK 191200Z 28008KT 250V310 9999 FEW045 27/16 Q1009
                        NOSIG=
201905191230 METAR LRCK 191230Z 30007KT 260V330 9999 FEW048 27/16 Q1009
                        NOSIG=
201905191300 METAR LRCK 191300Z 28007KT 240V330 9999 FEW048 28/16 Q1009
                        NOSIG=
201905191330 METAR LRCK 191330Z 29008KT 9999 FEW049 28/15 Q1009 NOSIG=
201905191400 METAR LRCK 191400Z 28007KT 250V320 9999 FEW049 28/13 Q1009
                        NOSIG=
201905191430 METAR LRCK 191430Z 28007KT 9999 FEW050CB 28/12 Q1009 NOSIG=
201905191500 METAR LRCK 191500Z 29005KT 260V320 9999 FEW050CB 28/13 Q1009
                        NOSIG=
201905191530 METAR LRCK 191530Z 25006KT 210V270 9999 FEW050CB 27/13 Q1009
                        NOSIG=
201905191600 METAR LRCK 191600Z 29005KT 9999 FEW050CB 27/14 Q1009 NOSIG=
201905191630 METAR LRCK 191630Z 26005KT 9999 FEW050CB 24/14 Q1009 NOSIG=
201905191700 METAR LRCK 191700Z 28004KT CAVOK 24/14 Q1009 NOSIG=
201905191730 METAR LRCK 191730Z 04003KT CAVOK 21/17 Q1009 NOSIG=
201905191800 METAR LRCK 191800Z 03003KT CAVOK 20/17 Q1009 NOSIG=
201905191830 METAR LRCK 191830Z 05003KT 030V140 CAVOK 19/17 Q1010 NOSIG=
201905191900 METAR LRCK 191900Z 20004KT CAVOK 18/16 Q1010 NOSIG=
201905191930 METAR LRCK 191930Z VRB02KT CAVOK 18/15 Q1010 NOSIG=
201905192000 METAR LRCK 192000Z VRB01KT CAVOK 18/15 Q1010 NOSIG=
201905192030 METAR LRCK 192030Z 05005KT CAVOK 16/15 Q1010 NOSIG=
201905192100 METAR LRCK 192100Z 08003KT CAVOK 17/16 Q1009 NOSIG=
201905192130 METAR COR LRCK 192130Z 12003KT CAVOK 16/15 Q1009 NOSIG=
201905192200 METAR LRCK 192200Z 10003KT CAVOK 17/15 Q1010 NOSIG=
201905192230 METAR LRCK 192230Z 12004KT CAVOK 17/14 Q1009 NOSIG=
201905192300 METAR COR LRCK 192300Z 09005KT CAVOK 16/15 Q1009 NOSIG=
201905192330 METAR LRCK 192330Z 06003KT CAVOK 16/15 Q1009 NOSIG=
201905200000 METAR COR LRCK 200000Z 10004KT 050V150 CAVOK 16/14 Q1009
                        NOSIG=
201905200030 METAR COR LRCK 200030Z 12003KT 100V160 8000 NSC 15/14 Q1010
                        NOSIG=
201905200100 METAR COR LRCK 200100Z 07003KT 5000 BR NSC 16/15 Q1010 BECMG
                        3000 BR=
201905200130 METAR LRCK 200130Z 07005KT 3000 MIFG BR NSC 15/15 Q1009 BECMG
                        0800 FG=
201905200200 METAR LRCK 200200Z 07007KT 0800 R36/2000 FG FEW001 16/16
                        Q1009 BECMG 0600 FG BKN001=
201905200230 METAR LRCK 200230Z 07005KT 0100 R18/0225N R36/0250N FG VV001
                        16/16 Q1009 NOSIG=
201905200300 METAR LRCK 200300Z 08007KT 0100 R18/0200N R36/0225N FG VV001
                        17/17 Q1010 NOSIG=
201905200330 METAR LRCK 200330Z 09007KT 0100 R18/0450D R36/0200D FG BKN001
                        17/17 Q1010 BECMG 0600 BKN002=
201905200400 METAR LRCK 200400Z 11006KT 1500 BR SCT002 17/17 Q1010 BECMG
                        5000=
201905200430 METAR LRCK 200430Z 11007KT 5000 BR NSC 17/17 Q1010 BECMG
                        9999 NSW=
201905200500 METAR LRCK 200500Z 11010KT 7000 NSC 18/17 Q1010 NOSIG=
201905200530 METAR LRCK 200530Z 12009KT CAVOK 20/17 Q1010 NOSIG=
201905200600 METAR LRCK 200600Z 12010KT CAVOK 20/16 Q1010 NOSIG=
201905200630 METAR LRCK 200630Z 14010KT CAVOK 21/16 Q1010 NOSIG=
201905200700 METAR LRCK 200700Z 14010KT CAVOK 23/14 Q1010 NOSIG=
201905200730 METAR LRCK 200730Z 14013KT CAVOK 23/14 Q1010 NOSIG=
201905200800 METAR LRCK 200800Z 13014KT CAVOK 23/15 Q1010 NOSIG=
201905200830 METAR LRCK 200830Z 14015KT CAVOK 23/15 Q1011 NOSIG=
201905200900 METAR LRCK 200900Z 14014KT CAVOK 23/16 Q1011 NOSIG=
201905200930 METAR LRCK 200930Z 13014KT CAVOK 23/15 Q1011 NOSIG=
201905201000 METAR LRCK 201000Z 13015KT CAVOK 23/15 Q1011 NOSIG=
201905201030 METAR LRCK 201030Z 13015KT CAVOK 22/15 Q1011 NOSIG=
201905201100 METAR LRCK 201100Z 13015KT CAVOK 22/15 Q1011 NOSIG=
201905201130 METAR LRCK 201130Z 13015KT CAVOK 21/16 Q1011 NOSIG=
201905201200 METAR LRCK 201200Z 13013KT CAVOK 21/17 Q1011 NOSIG=
201905201230 METAR LRCK 201230Z 13015KT CAVOK 21/17 Q1010 NOSIG=
201905201300 METAR LRCK 201300Z 13015KT CAVOK 21/16 Q1010 NOSIG=
201905201330 METAR LRCK 201330Z 12015KT 9999 FEW012 20/16 Q1010 NOSIG=
201905201400 METAR LRCK 201400Z 12017KT 9999 FEW012 20/16 Q1010 NOSIG=
201905201430 METAR LRCK 201430Z 12018KT 9999 FEW011 19/16 Q1009 NOSIG=
201905201500 METAR LRCK 201500Z 13018KT 9999 SCT011 19/16 Q1009 NOSIG=
201905201530 METAR LRCK 201530Z 12017KT 9999 SCT009 18/16 Q1009 NOSIG=
201905201600 METAR LRCK 201600Z 12018KT 9999 BKN009 18/16 Q1008 NOSIG=
201905201630 METAR LRCK 201630Z 13017KT 9999 BKN009 18/16 Q1008 NOSIG=
201905201700 METAR LRCK 201700Z 13015KT 9999 SCT009 18/16 Q1008 NOSIG=
201905201730 METAR LRCK 201730Z 13011KT 7000 BKN008 17/15 Q1009 NOSIG=
201905201800 METAR LRCK 201800Z 13012KT 5000 BR SCT010 17/15 Q1008 NOSIG=
201905201830 METAR LRCK 201830Z 13009KT 3000 BR FEW010 16/15 Q1008 NOSIG=
201905201900 METAR LRCK 201900Z 13007KT 2500 BR NSC 16/15 Q1008 TEMPO
                        1500 BR=
201905201930 METAR LRCK 201930Z 25010KT 3000 BR NSC 16/15 Q1009 BECMG
                        9999 NSW=
201905202000 METAR LRCK 202000Z 21006KT 4000 BR NSC 15/15 Q1009 BECMG
                        9999 NSW=
201905202030 METAR LRCK 202030Z 26009KT 5000 BR NSC 15/15 Q1009 BECMG
                        9999 NSW=
201905202100 METAR COR LRCK 202100Z 26011KT 8000 NSC 16/15 Q1009 NOSIG=
201905202130 METAR LRCK 202130Z 26011KT CAVOK 15/14 Q1010 NOSIG=
201905202200 METAR LRCK 202200Z 25011KT CAVOK 14/14 Q1010 NOSIG=
201905202230 METAR LRCK 202230Z 26008KT CAVOK 14/13 Q1010 NOSIG=
201905202300 METAR LRCK 202300Z 27010KT CAVOK 13/13 Q1010 NOSIG=
201905202330 METAR LRCK 202330Z 26009KT CAVOK 14/13 Q1010 NOSIG=
201905210000 METAR LRCK 210000Z 25009KT CAVOK 13/13 Q1010 NOSIG=
201905210030 METAR LRCK 210030Z 23010KT CAVOK 13/13 Q1011 NOSIG=
201905210100 METAR LRCK 210100Z 24008KT CAVOK 13/13 Q1011 NOSIG=
201905210130 METAR LRCK 210130Z 24007KT CAVOK 12/12 Q1011 NOSIG=
201905210200 METAR LRCK 210200Z 24006KT CAVOK 12/11 Q1010 NOSIG=
201905210230 METAR LRCK 210230Z 25007KT CAVOK 12/12 Q1011 NOSIG=
201905210300 METAR LRCK 210300Z 25008KT CAVOK 13/12 Q1011 NOSIG=
201905210330 METAR LRCK 210330Z 26006KT CAVOK 13/12 Q1011 NOSIG=
201905210400 METAR LRCK 210400Z 26005KT CAVOK 15/13 Q1011 NOSIG=
201905210430 METAR LRCK 210430Z 23005KT CAVOK 16/14 Q1012 NOSIG=
201905210500 METAR LRCK 210500Z 20005KT CAVOK 17/14 Q1012 NOSIG=
201905210530 METAR LRCK 210530Z 19006KT 160V220 CAVOK 18/14 Q1012 NOSIG=
201905210600 METAR LRCK 210600Z 23006KT CAVOK 19/13 Q1012 NOSIG=
201905210630 METAR LRCK 210630Z 23005KT 200V270 CAVOK 20/13 Q1012 NOSIG=
201905210700 METAR LRCK 210700Z 25005KT CAVOK 21/13 Q1012 NOSIG=
201905210730 METAR LRCK 210730Z 26003KT 200V340 CAVOK 22/12 Q1012 NOSIG=
201905210800 METAR LRCK 210800Z 15003KT 120V230 CAVOK 22/12 Q1012 NOSIG=
201905210830 METAR LRCK 210830Z 10005KT 070V160 9999 SCT045 24/13 Q1012
                        NOSIG=
201905210900 METAR LRCK 210900Z 11009KT 9999 SCT043 22/13 Q1012 NOSIG=
201905210930 METAR LRCK 210930Z 13011KT 9999 SCT043 23/14 Q1012 NOSIG=
201905211000 METAR LRCK 211000Z 12011KT 9999 FEW045 23/14 Q1012 NOSIG=
201905211030 METAR LRCK 211030Z 12013KT 9999 SCT047 FEW049CB 24/15 Q1012
                        NOSIG=
201905211100 METAR LRCK 211100Z 12012KT 9999 SCT048 FEW050CB 24/12 Q1011
                        NOSIG=
201905211130 METAR LRCK 211130Z 14016KT 9999 TS SCT045CB 24/11 Q1011 NOSIG=
201905211200 METAR LRCK 211200Z 14016KT 9999 TS SCT045CB 24/11 Q1011 NOSIG=
201905211230 METAR COR LRCK 211230Z 02006KT 340V060 9999 VCTS SCT040 SCT045CB
                        22/12 Q1011 TEMPO 5000 -TSRA=
201905211300 METAR LRCK 211300Z 07005KT 9999 -TSRA SCT045CB 21/14 Q1011
                        TEMPO 5000 TSRA=
201905211330 METAR LRCK 211330Z 09006KT 5000 TSRA BKN040CB 20/15 Q1011
                        R36/290195 TEMPO 3000 TSRA=
201905211400 METAR LRCK 211400Z 09008KT 9999 VCTS SCT033 SCT040CB 21/15
                        Q1011 R36/290195 NOSIG=
201905211430 METAR LRCK 211430Z 10006KT 9999 TS SCT040CB 19/16 Q1011 R36/290195
                        TEMPO VRB15G25KT 3000 TSRA BKN010
                        BKN040CB=
201905211500 METAR LRCK 211500Z 14006KT 090V160 9999 -TSRA BKN040CB 18/17
                        Q1011 R36/290195 NOSIG=
201905211530 METAR LRCK 211530Z 14013KT 9999 VCTS FEW025 BKN040CB 19/11
                        Q1011 R36/290195 NOSIG=
201905211600 METAR LRCK 211600Z 10007KT 9999 VCTS BKN045CB 19/11 Q1010
                        R18/290195 NOSIG=
201905211630 METAR LRCK 211630Z 29003KT 240V330 9999 VCSH SCT045CB 17/13
                        Q1011 R18/290195 TEMPO 5000 TSRA=
201905211700 METAR LRCK 211700Z 07003KT 350V140 9999 VCTS SCT045CB 17/13
                        Q1011 R18/290195 TEMPO 5000 TSRA=
201905211730 METAR LRCK 211730Z VRB02KT 9999 VCTS SCT045CB 16/15 Q1011
                        R18/290195 TEMPO 5000 TSRA=
201905211800 METAR LRCK 211800Z 18008KT 9999 TS SCT045CB 17/14 Q1011 R18/290195
                        TEMPO 5000 TSRA=
201905211830 METAR LRCK 211830Z 24014KT 5000 TSRA BKN040CB 16/14 Q1012
                        R18/290395 TEMPO 3000 TSRA=
201905211900 METAR LRCK 211900Z 17010KT 160V240 9999 -TSRA SCT040CB 16/11
                        Q1013 R18/290395 NOSIG=
201905211930 METAR LRCK 211930Z 17014KT 9999 -TSRA SCT040CB 14/13 Q1013
                        R18/290395 NOSIG=
201905212000 METAR LRCK 212000Z 17010KT 9999 VCTS SCT040CB 14/13 Q1012
                        R18/290395 NOSIG=
201905212030 METAR COR LRCK 212030Z 18009KT 9999 FEW040CB 14/13 Q1012
                        RETS R18/290395 NOSIG=
201905212100 METAR LRCK 212100Z 19009KT 9999 FEW040CB 14/13 Q1012 R18/290395
                        NOSIG=
201905212130 METAR LRCK 212130Z 22004KT CAVOK 13/12 Q1012 R18/290395 NOSIG=
201905212200 METAR LRCK 212200Z 26004KT CAVOK 13/12 Q1012 R18/290395 NOSIG=
201905212230 METAR LRCK 212230Z 27007KT CAVOK 12/12 Q1012 R18/290395 NOSIG=
201905212300 METAR LRCK 212300Z 25007KT CAVOK 12/11 Q1012 R18/290395 NOSIG=
201905212330 METAR LRCK 212330Z 26007KT CAVOK 11/10 Q1012 R18/290395 NOSIG=
201905220000 METAR LRCK 220000Z 26008KT CAVOK 11/11 Q1012 R18/290395 NOSIG=
201905220030 METAR LRCK 220030Z 25007KT CAVOK 10/10 Q1012 R18/290395 NOSIG=
201905220100 METAR LRCK 220100Z 25008KT CAVOK 11/11 Q1012 R18/290395 NOSIG=
201905220130 METAR LRCK 220130Z 26009KT CAVOK 12/10 Q1011 R18/290395 NOSIG=
201905220200 METAR LRCK 220200Z 26008KT CAVOK 11/10 Q1011 R18/290395 NOSIG=
201905220230 METAR LRCK 220230Z 25008KT CAVOK 10/10 Q1012 R18/290395 NOSIG=
201905220300 METAR LRCK 220300Z 26008KT CAVOK 10/10 Q1012 R18/290395 NOSIG=
201905220330 METAR LRCK 220330Z 26008KT CAVOK 12/11 Q1012 R18/290395 NOSIG=
201905220400 METAR LRCK 220400Z 25008KT CAVOK 14/12 Q1012 R18/290395 NOSIG=
201905220430 METAR LRCK 220430Z 27009KT CAVOK 15/12 Q1012 R18/CLRD// NOSIG=
201905220500 METAR LRCK 220500Z 26010KT CAVOK 16/12 Q1012 NOSIG=
201905220530 METAR LRCK 220530Z 26012KT CAVOK 17/12 Q1012 NOSIG=
201905220600 METAR LRCK 220600Z 25010KT CAVOK 18/12 Q1012 NOSIG=
201905220630 METAR LRCK 220630Z 26009KT CAVOK 20/13 Q1012 NOSIG=
201905220700 METAR LRCK 220700Z 26010KT CAVOK 21/13 Q1012 NOSIG=
201905220730 METAR LRCK 220730Z 27009KT CAVOK 21/13 Q1012 NOSIG=
201905220800 METAR LRCK 220800Z 27008KT 230V290 CAVOK 21/13 Q1012 NOSIG=
201905220830 METAR LRCK 220830Z 26008KT 9999 FEW035 21/13 Q1012 NOSIG=
201905220900 METAR LRCK 220900Z 22010KT 9999 FEW035 23/14 Q1012 NOSIG=
201905220930 METAR LRCK 220930Z 25011KT 9999 FEW035 23/13 Q1013 NOSIG=
201905221000 METAR LRCK 221000Z 25010KT 9999 FEW035 24/13 Q1012 NOSIG=
201905221030 METAR LRCK 221030Z 24012KT 210V280 9999 FEW040 23/13 Q1012
                        NOSIG=
201905221100 METAR LRCK 221100Z 24012KT 9999 FEW045 24/12 Q1012 NOSIG=
201905221130 METAR LRCK 221130Z 24011KT 9999 FEW045 25/11 Q1012 NOSIG=
201905221200 METAR LRCK 221200Z 25012KT 9999 FEW045 24/11 Q1012 NOSIG=
201905221230 METAR LRCK 221230Z 25011KT 9999 FEW045 FEW058TCU 25/10 Q1012
                        NOSIG=
201905221300 METAR LRCK 221300Z 26015KT 9999 FEW048 25/10 Q1011 NOSIG=
201905221330 METAR LRCK 221330Z 25014KT CAVOK 25/11 Q1011 NOSIG=
201905221400 METAR LRCK 221400Z 25014KT CAVOK 25/09 Q1011 NOSIG=
201905221430 METAR LRCK 221430Z 25013KT CAVOK 24/11 Q1011 NOSIG=
201905221500 METAR LRCK 221500Z 26013KT CAVOK 24/09 Q1011 NOSIG=
201905221530 METAR LRCK 221530Z 25014KT CAVOK 23/09 Q1011 NOSIG=
201905221600 METAR LRCK 221600Z 25013KT CAVOK 23/10 Q1011 NOSIG=
201905221630 METAR LRCK 221630Z 25011KT CAVOK 22/10 Q1011 NOSIG=
201905221700 METAR LRCK 221700Z 25010KT CAVOK 21/11 Q1011 NOSIG=
201905221730 METAR LRCK 221730Z 25008KT CAVOK 18/12 Q1011 NOSIG=
201905221800 METAR LRCK 221800Z 26005KT CAVOK 17/12 Q1011 NOSIG=
201905221830 METAR LRCK 221830Z 26005KT CAVOK 17/12 Q1011 NOSIG=
201905221900 METAR LRCK 221900Z 23005KT CAVOK 16/12 Q1012 NOSIG=
201905221930 METAR LRCK 221930Z 25007KT 230V290 CAVOK 16/12 Q1012 NOSIG=
201905222000 METAR LRCK 222000Z 23007KT CAVOK 15/12 Q1012 NOSIG=
201905222030 METAR LRCK 222030Z 23007KT CAVOK 14/12 Q1011 NOSIG=
201905222100 METAR LRCK 222100Z 22005KT CAVOK 14/12 Q1011 NOSIG=
201905222130 METAR LRCK 222130Z 21008KT CAVOK 14/12 Q1011 NOSIG=
201905222200 METAR LRCK 222200Z 23006KT CAVOK 13/12 Q1011 NOSIG=
201905222230 METAR LRCK 222230Z 23006KT CAVOK 13/12 Q1011 NOSIG=
201905222300 METAR LRCK 222300Z 23007KT CAVOK 13/12 Q1011 NOSIG=
201905222330 METAR LRCK 222330Z 23006KT CAVOK 13/12 Q1011 NOSIG=
201905230000 METAR LRCK 230000Z 24006KT CAVOK 13/12 Q1011 NOSIG=
201905230030 METAR LRCK 230030Z 25007KT CAVOK 13/11 Q1011 NOSIG=
201905230100 METAR LRCK 230100Z 24007KT CAVOK 12/11 Q1010 NOSIG=
201905230130 METAR LRCK 230130Z 25008KT CAVOK 12/11 Q1010 NOSIG=
201905230200 METAR LRCK 230200Z 25006KT CAVOK 12/11 Q1010 NOSIG=
201905230230 METAR LRCK 230230Z 25007KT CAVOK 13/11 Q1010=
201905230300 METAR LRCK 230300Z 25008KT CAVOK 13/11 Q1010 NOSIG=
201905230330 METAR LRCK 230330Z 27007KT CAVOK 15/12 Q1010 NOSIG=
201905230400 METAR LRCK 230400Z 23008KT CAVOK 15/12 Q1010 NOSIG=
201905230430 METAR LRCK 230430Z 25007KT CAVOK 16/13 Q1011 NOSIG=
201905230500 METAR LRCK 230500Z 26013KT CAVOK 17/13 Q1010 NOSIG=
201905230530 METAR LRCK 230530Z 27012KT CAVOK 19/13 Q1011 NOSIG=
201905230600 METAR LRCK 230600Z 26012KT CAVOK 19/13 Q1011 NOSIG=
201905230630 METAR LRCK 230630Z 27013KT CAVOK 20/14 Q1011 NOSIG=
201905230700 METAR LRCK 230700Z 27014KT CAVOK 21/13 Q1011 NOSIG=
201905230730 METAR LRCK 230730Z 26014KT CAVOK 22/14 Q1011 NOSIG=
201905230800 METAR LRCK 230800Z 27015KT 9999 FEW040 23/13 Q1011 NOSIG=
201905230830 METAR LRCK 230830Z 26013KT 9999 FEW040 23/14 Q1011 NOSIG=
201905230900 METAR LRCK 230900Z 26013KT 9999 FEW040 24/13 Q1011 NOSIG=
201905230930 METAR LRCK 230930Z 26015KT 9999 FEW042 24/12 Q1011 NOSIG=
201905231000 METAR LRCK 231000Z 26014KT 9999 SCT047 25/12 Q1011 NOSIG=
201905231030 METAR LRCK 231030Z 27016KT 9999 SCT047 25/12 Q1011 NOSIG=
201905231100 METAR LRCK 231100Z 27015KT 9999 SCT049 26/12 Q1010 NOSIG=
201905231130 METAR LRCK 231130Z 26014KT 9999 FEW048 FEW050TCU 25/12 Q1010
                        NOSIG=
201905231200 METAR LRCK 231200Z 25015KT 9999 FEW045 FEW050TCU 24/12 Q1010
                        NOSIG=
201905231230 METAR LRCK 231230Z 26013KT 9999 FEW045 FEW050TCU 26/12 Q1010
                        NOSIG=
201905231300 METAR LRCK 231300Z 25013KT 9999 FEW048 FEW050TCU 26/12 Q1010
                        NOSIG=
201905231330 METAR LRCK 231330Z 26013KT 9999 FEW050TCU 25/12 Q1010 NOSIG=
201905231400 METAR LRCK 231400Z 24012KT 9999 FEW055TCU 25/12 Q1010 NOSIG=
201905231430 METAR LRCK 231430Z 25013KT 9999 FEW055CB 24/12 Q1009 NOSIG=
201905231500 METAR LRCK 231500Z 25013KT 9999 FEW055CB 24/12 Q1009 NOSIG=
201905231530 METAR LRCK 231530Z 25010KT CAVOK 24/12 Q1009 NOSIG=
201905231600 METAR LRCK 231600Z 25011KT CAVOK 24/12 Q1009 NOSIG=
201905231630 METAR LRCK 231630Z 25011KT CAVOK 23/13 Q1009 NOSIG=
201905231700 METAR LRCK 231700Z 26009KT CAVOK 22/13 Q1009 NOSIG=
201905231730 METAR LRCK 231730Z 24006KT 9999 FEW050CB 19/13 Q1009 NOSIG=
201905231800 METAR LRCK 231800Z 23006KT 9999 FEW055CB 18/13 Q1009 NOSIG=
201905231830 METAR LRCK 231830Z 24006KT 9999 FEW055CB 16/13 Q1010 NOSIG=
201905231900 METAR LRCK 231900Z 23006KT CAVOK 16/13 Q1010 NOSIG=
201905231930 METAR LRCK 231930Z 24005KT CAVOK 16/13 Q1010 NOSIG=
201905232000 METAR LRCK 232000Z 23006KT CAVOK 15/13 Q1010 NOSIG=
201905232030 METAR LRCK 232030Z 23004KT CAVOK 15/13 Q1010 NOSIG=
201905232100 METAR LRCK 232100Z 23004KT CAVOK 15/13 Q1010 NOSIG=
201905232130 METAR COR LRCK 232130Z 26006KT CAVOK 15/13 Q1010 NOSIG=
201905232200 METAR LRCK 232200Z 25006KT CAVOK 15/12 Q1010 NOSIG=
201905232230 METAR LRCK 232230Z 25007KT CAVOK 15/12 Q1010 NOSIG=
201905232300 METAR COR LRCK 232300Z 25006KT CAVOK 14/12 Q1009 NOSIG=
201905232330 METAR LRCK 232330Z 25006KT CAVOK 14/12 Q1009 NOSIG=
201905240000 METAR LRCK 240000Z 26007KT CAVOK 15/12 Q1009 NOSIG=
201905240030 METAR COR LRCK 240030Z 27008KT CAVOK 14/12 Q1009 NOSIG=
201905240100 METAR COR LRCK 240100Z 27009KT CAVOK 14/12 Q1009 NOSIG=
201905240130 METAR LRCK 240130Z 26010KT CAVOK 13/11 Q1008 NOSIG=
201905240200 METAR LRCK 240200Z 27010KT CAVOK 14/11 Q1008 NOSIG=
201905240230 METAR LRCK 240230Z 26009KT CAVOK 14/11 Q1008 NOSIG=
201905240300 METAR COR LRCK 240300Z 27009KT CAVOK 14/12 Q1008 NOSIG=
201905240330 METAR LRCK 240330Z 26010KT CAVOK 14/12 Q1008 NOSIG=
201905240400 METAR LRCK 240400Z 27011KT CAVOK 15/12 Q1008 NOSIG=
201905240430 METAR LRCK 240430Z 26013KT CAVOK 15/12 Q1008 NOSIG=
201905240500 METAR LRCK 240500Z 27015KT CAVOK 16/12 Q1008 NOSIG=
201905240530 METAR LRCK 240530Z 27014KT CAVOK 17/12 Q1008 NOSIG=
201905240600 METAR LRCK 240600Z 26014KT CAVOK 17/13 Q1008 NOSIG=
201905240630 METAR LRCK 240630Z 26012KT CAVOK 17/13 Q1008 NOSIG=
201905240700 METAR LRCK 240700Z 27012KT CAVOK 17/13 Q1008 NOSIG=
201905240730 METAR LRCK 240730Z 27012KT CAVOK 18/13 Q1008 NOSIG=
201905240800 METAR LRCK 240800Z 26009KT 9999 FEW036 17/14 Q1008 NOSIG=
201905240830 METAR LRCK 240830Z 26008KT 9999 FEW036 18/14 Q1008 NOSIG=
201905240900 METAR LRCK 240900Z 26008KT 9999 FEW036 19/14 Q1009 NOSIG=
201905240930 METAR LRCK 240930Z 25006KT 210V270 9999 FEW036 FEW045CB 20/14
                        Q1009 NOSIG=
201905241000 METAR LRCK 241000Z 24009KT 9999 FEW045CB 21/15 Q1009 NOSIG=
201905241030 METAR LRCK 241030Z 21011KT 9999 FEW045CB 21/15 Q1009 NOSIG=
201905241100 METAR LRCK 241100Z 20013KT 9999 FEW021 FEW045CB 20/15 Q1008
                        NOSIG=
201905241130 METAR LRCK 241130Z 21011KT 9999 FEW021 FEW045CB 20/14 Q1008
                        NOSIG=
201905241200 METAR LRCK 241200Z 22011KT 9999 FEW021 FEW045CB 20/15 Q1008
                        NOSIG=
201905241230 METAR LRCK 241230Z 18008KT 9999 FEW025 FEW045CB 20/16 Q1008
                        NOSIG=
201905241300 METAR LRCK 241300Z 22008KT 9999 FEW045CB 19/16 Q1007 NOSIG=
201905241330 METAR LRCK 241330Z 25007KT 9999 FEW045 20/15 Q1007 NOSIG=
201905241400 METAR LRCK 241400Z 24007KT 9999 FEW045CB 19/15 Q1007 NOSIG=
201905241430 METAR LRCK 241430Z 24007KT 9999 FEW045CB 19/15 Q1007 NOSIG=
201905241500 METAR LRCK 241500Z 26006KT 9999 FEW045CB 20/15 Q1007 NOSIG=
201905241530 METAR LRCK 241530Z 28009KT 9999 FEW050CB 19/14 Q1007 NOSIG=
201905241600 METAR LRCK 241600Z 30007KT CAVOK 19/15 Q1007 NOSIG=
201905241630 METAR LRCK 241630Z 31004KT CAVOK 18/15 Q1007 NOSIG=
201905241700 METAR LRCK 241700Z 00000KT CAVOK 18/15 Q1007 NOSIG=
201905241730 METAR LRCK 241730Z 00000KT CAVOK 17/15 Q1007 NOSIG=
201905241800 METAR LRCK 241800Z 00000KT CAVOK 17/15 Q1007 NOSIG=
201905241830 METAR LRCK 241830Z 08002KT CAVOK 15/14 Q1007 NOSIG=
201905241900 METAR LRCK 241900Z 17003KT 8000 MIFG NSC 15/14 Q1007 NOSIG=
201905241930 METAR LRCK 241930Z 18004KT 8000 MIFG NSC 14/14 Q1007 NOSIG=
201905242000 METAR LRCK 242000Z 19006KT 7000 MIFG NSC 14/14 Q1007 NOSIG=
201905242030 METAR LRCK 242030Z VRB02KT 8000 MIFG NSC 14/14 Q1007 NOSIG=
201905242100 METAR LRCK 242100Z 28006KT 9999 FEW041 15/14 Q1008 NOSIG=
201905242130 METAR LRCK 242130Z 32005KT 9999 FEW040 14/13 Q1008 NOSIG=
201905242200 METAR LRCK 242200Z 31007KT 9999 FEW040 15/14 Q1008 NOSIG=
201905242230 METAR LRCK 242230Z 30006KT 9999 SCT042 15/13 Q1007 NOSIG=
201905242300 METAR LRCK 242300Z 30005KT 9999 SCT045 14/13 Q1007 NOSIG=
201905242330 METAR LRCK 242330Z 29005KT 9999 SCT045 14/13 Q1007 NOSIG=
201905250000 METAR LRCK 250000Z 28009KT 9999 SCT045 14/14 Q1007 NOSIG=
201905250030 METAR LRCK 250030Z 29010KT 9999 SCT045 14/14 Q1007 NOSIG=
201905250100 METAR LRCK 250100Z 28010KT 9999 FEW045 13/13 Q1007 NOSIG=
201905250130 METAR LRCK 250130Z 27010KT 9999 FEW048 14/13 Q1007 NOSIG=
201905250200 METAR LRCK 250200Z 28009KT 8000 FEW048 14/13 Q1008 NOSIG=
201905250230 METAR LRCK 250230Z 27008KT 5000 BR FEW035 13/13 Q1008 NOSIG=
201905250300 METAR LRCK 250300Z 29008KT 5000 BR FEW025 14/14 Q1008 NOSIG=
201905250330 METAR LRCK 250330Z 28009KT 5000 BR SCT004 14/14 Q1008 TEMPO
                        BKN005=
201905250400 METAR LRCK 250400Z 28010KT 5000 BR BKN003 14/14 Q1008 NOSIG=
201905250430 METAR LRCK 250430Z 27011KT 6000 -RA BKN003 15/14 Q1008 R18/29//95
                        NOSIG=
201905250500 METAR LRCK 250500Z 28013KT 8000 -RA BKN005 15/15 Q1008 R18/29//95
                        NOSIG=
201905250530 METAR LRCK 250530Z 28012KT 8000 BKN007 15/15 Q1009 R18/29//95
                        NOSIG=
201905250600 METAR LRCK 250600Z 29012KT 9999 SCT007 SCT010 16/14 Q1009
                        R18/CLRD// NOSIG=
201905250630 METAR LRCK 250630Z 28012KT 9999 BKN010 17/14 Q1009 NOSIG=
201905250700 METAR LRCK 250700Z 28014KT 9999 FEW015 SCT044 17/14 Q1009
                        NOSIG=
201905250730 METAR LRCK 250730Z 28014KT 9999 SCT015 BKN040 18/15 Q1009
                        NOSIG=
201905250800 METAR LRCK 250800Z 29014KT 9999 FEW015 SCT021 FEW045CB 19/15
                        Q1009 NOSIG=
201905250830 METAR LRCK 250830Z 29016KT 9999 FEW020 SCT047 FEW050CB 20/14
                        Q1010 NOSIG=
201905250900 METAR LRCK 250900Z 29015KT 9999 FEW021 SCT047 FEW050CB 20/14
                        Q1010 NOSIG=
201905250930 METAR LRCK 250930Z 29015KT 9999 FEW023 SCT048 FEW050CB 20/15
                        Q1010 NOSIG=
201905251000 METAR LRCK 251000Z 29014KT 9999 TS SCT026 FEW050CB 21/14
                        Q1010 BECMG NSW=
201905251030 METAR LRCK 251030Z 28014KT 9999 VCTS SCT027 FEW050CB 21/14
                        Q1010 NOSIG=
201905251100 METAR LRCK 251100Z 28015KT 9999 VCTS SCT029 FEW050CB 22/14
                        Q1010 NOSIG=
201905251130 METAR LRCK 251130Z 29015KT 9999 VCTS SCT031 FEW045CB 23/14
                        Q1010 NOSIG=
201905251200 METAR LRCK 251200Z 28014KT 9999 VCTS SCT035 FEW045CB 22/13
                        Q1010 NOSIG=
201905251230 METAR LRCK 251230Z 28013KT 9999 VCTS SCT035 SCT045CB 22/13
                        Q1010 NOSIG=
201905251300 METAR LRCK 251300Z 25017KT 9999 SCT037 SCT045CB 20/15 Q1010
                        NOSIG=
201905251330 METAR LRCK 251330Z 26012KT 9999 -TSRA SCT032 SCT040CB 20/14
                        Q1010 TEMPO 5000 -TSRA=
201905251400 METAR LRCK 251400Z 26010KT 9999 VCTS SCT041 FEW049CB 20/15
                        Q1010 NOSIG=
201905251430 METAR LRCK 251430Z 27011KT 9999 FEW026 SCT040 FEW050CB 20/15
                        Q1010 NOSIG=
201905251500 METAR LRCK 251500Z 27011KT 9999 FEW050CB 21/16 Q1010 NOSIG=
201905251530 METAR LRCK 251530Z 28014KT 9999 SCT029 FEW050CB 21/15 Q1010
                        NOSIG=
201905251600 METAR LRCK 251600Z 28011KT 9999 FEW037 FEW050CB 21/15 Q1010
                        NOSIG=
201905251630 METAR LRCK 251630Z 28012KT 9999 FEW050CB 20/13 Q1010 NOSIG=
201905251700 METAR LRCK 251700Z 28011KT 9999 FEW050CB 20/13 Q1011 NOSIG=
201905251730 METAR LRCK 251730Z 27008KT 9999 FEW050CB 19/13 Q1011 NOSIG=
201905251800 METAR LRCK 251800Z 27007KT 9999 FEW050CB 17/14 Q1011 NOSIG=
201905251830 METAR LRCK 251830Z 26006KT 9999 FEW050CB 17/14 Q1011 NOSIG=
201905251900 METAR LRCK 251900Z 29004KT 9999 FEW050CB 16/14 Q1011 NOSIG=
201905251930 METAR LRCK 251930Z 27005KT 9999 FEW050CB 16/14 Q1012 NOSIG=
201905252000 METAR LRCK 252000Z 24005KT CAVOK 15/14 Q1012 NOSIG=
201905252030 METAR LRCK 252030Z 25005KT CAVOK 15/14 Q1012 NOSIG=
201905252100 METAR LRCK 252100Z 25005KT CAVOK 15/14 Q1012 NOSIG=
201905252130 METAR LRCK 252130Z 25007KT CAVOK 15/14 Q1012 NOSIG=
201905252200 METAR LRCK 252200Z 26007KT CAVOK 15/14 Q1012 NOSIG=
201905252230 METAR LRCK 252230Z 27008KT CAVOK 15/14 Q1012 NOSIG=
201905252300 METAR LRCK 252300Z 27009KT CAVOK 15/14 Q1012 NOSIG=
201905252330 METAR LRCK 252330Z 27006KT CAVOK 15/14 Q1012 NOSIG=
201905260000 METAR LRCK 260000Z 29006KT CAVOK 15/14 Q1012 NOSIG=
201905260030 METAR LRCK 260030Z 28007KT CAVOK 14/13 Q1012 NOSIG=
201905260100 METAR LRCK 260100Z 28008KT 8000 NSC 14/13 Q1012 NOSIG=
201905260130 METAR LRCK 260130Z 27008KT 7000 NSC 14/13 Q1013 TEMPO 5000
                        BR=
201905260200 METAR LRCK 260200Z 28008KT 7000 NSC 14/13 Q1013 TEMPO 5000
                        BR=
201905260230 METAR LRCK 260230Z 27008KT 7000 NSC 13/13 Q1013 TEMPO 5000
                        BR=
201905260300 METAR LRCK 260300Z 28008KT 7000 NSC 13/13 Q1013 TEMPO 5000
                        BR=
201905260330 METAR LRCK 260330Z 29006KT 8000 NSC 14/13 Q1014 NOSIG=
201905260400 METAR LRCK 260400Z 27006KT CAVOK 15/14 Q1014 NOSIG=
201905260430 METAR LRCK 260430Z 29007KT CAVOK 16/14 Q1014 NOSIG=
201905260500 METAR LRCK 260500Z 29005KT CAVOK 18/15 Q1014 NOSIG=
201905260530 METAR LRCK 260530Z 29005KT 250V320 CAVOK 19/15 Q1015 NOSIG=
201905260600 METAR LRCK 260600Z 30008KT 260V330 CAVOK 20/15 Q1015 NOSIG=
201905260630 METAR LRCK 260630Z 32010KT CAVOK 21/14 Q1015 NOSIG=
201905260700 METAR LRCK 260700Z 32011KT CAVOK 22/13 Q1015 NOSIG=
201905260730 METAR LRCK 260730Z 31011KT CAVOK 23/14 Q1015 NOSIG=
201905260800 METAR LRCK 260800Z 32010KT 300V360 9999 FEW030 23/13 Q1015
                        NOSIG=
201905260830 METAR LRCK 260830Z 31010KT 280V340 9999 FEW040 23/13 Q1016
                        NOSIG=
201905260900 METAR LRCK 260900Z 32008KT 290V350 9999 FEW040 24/13 Q1015
                        NOSIG=
201905260930 METAR LRCK 260930Z 32010KT 300V010 9999 FEW043 25/12 Q1015
                        NOSIG=
201905261000 METAR LRCK 261000Z 31012KT 280V340 9999 SCT045 25/12 Q1016
                        NOSIG=
201905261030 METAR LRCK 261030Z 32010KT 9999 FEW048 26/13 Q1016 NOSIG=
201905261100 METAR LRCK 261100Z 28010KT 9999 FEW048 FEW054TCU 26/13 Q1016
                        NOSIG=
201905261130 METAR LRCK 261130Z 31009KT 270V340 9999 FEW048 27/13 Q1015
                        NOSIG=
201905261200 METAR LRCK 261200Z 32008KT 290V350 CAVOK 25/13 Q1015 NOSIG=
201905261230 METAR LRCK 261230Z 28010KT CAVOK 27/13 Q1015 NOSIG=
201905261300 METAR LRCK 261300Z 28008KT 240V350 CAVOK 26/13 Q1015 NOSIG=
201905261330 METAR LRCK 261330Z 27009KT 230V300 CAVOK 27/13 Q1015 NOSIG=
201905261400 METAR LRCK 261400Z 26008KT CAVOK 26/12 Q1015 NOSIG=
201905261430 METAR LRCK 261430Z 29007KT CAVOK 26/13 Q1015 NOSIG=
201905261500 METAR LRCK 261500Z 28005KT 240V330 CAVOK 26/14 Q1015 NOSIG=
201905261530 METAR LRCK 261530Z 29007KT 270V330 CAVOK 26/15 Q1015 NOSIG=
201905261600 METAR LRCK 261600Z 27006KT CAVOK 25/13 Q1015 NOSIG=
201905261630 METAR LRCK 261630Z 29004KT CAVOK 24/13 Q1015 NOSIG=
201905261700 METAR LRCK 261700Z 14005KT CAVOK 23/16 Q1015 NOSIG=
201905261730 METAR LRCK 261730Z 15005KT CAVOK 22/16 Q1015 NOSIG=
201905261800 METAR LRCK 261800Z 18005KT CAVOK 20/16 Q1016 NOSIG=
201905261830 METAR LRCK 261830Z 18006KT CAVOK 20/16 Q1016 NOSIG=
201905261900 METAR LRCK 261900Z 23005KT CAVOK 19/15 Q1016 NOSIG=
201905261930 METAR LRCK 261930Z 23005KT CAVOK 18/15 Q1017 NOSIG=
201905262000 METAR LRCK 262000Z 23005KT CAVOK 17/15 Q1017 NOSIG=
201905262030 METAR LRCK 262030Z 26005KT CAVOK 17/14 Q1017 NOSIG=
201905262100 METAR LRCK 262100Z 26006KT CAVOK 17/14 Q1017 NOSIG=
201905262130 METAR LRCK 262130Z 26006KT CAVOK 17/14 Q1017 NOSIG=
201905262200 METAR LRCK 262200Z 25005KT CAVOK 17/14 Q1017 NOSIG=
201905262230 METAR LRCK 262230Z 25005KT CAVOK 16/14 Q1017 NOSIG=
201905262300 METAR LRCK 262300Z 26005KT CAVOK 16/14 Q1017 NOSIG=
201905262330 METAR LRCK 262330Z 27007KT CAVOK 15/13 Q1017 NOSIG=
201905270000 METAR LRCK 270000Z 26007KT CAVOK 16/13 Q1017 NOSIG=
201905270030 METAR LRCK 270030Z 25007KT CAVOK 16/13 Q1017 NOSIG=
201905270100 METAR LRCK 270100Z 26006KT CAVOK 15/13 Q1016 NOSIG=
201905270130 METAR LRCK 270130Z 26005KT CAVOK 16/13 Q1016 NOSIG=
201905270200 METAR LRCK 270200Z 27005KT CAVOK 16/13 Q1016 NOSIG=
201905270230 METAR LRCK 270230Z 26005KT CAVOK 16/12 Q1016 NOSIG=
201905270300 METAR LRCK 270300Z 26005KT CAVOK 16/12 Q1016 NOSIG=
201905270330 METAR LRCK 270330Z 25004KT CAVOK 17/13 Q1017 NOSIG=
201905270400 METAR LRCK 270400Z 11004KT 090V180 CAVOK 16/13 Q1017 NOSIG=
201905270430 METAR LRCK 270430Z 12002KT CAVOK 18/14 Q1017 NOSIG=
201905270500 METAR LRCK 270500Z 11004KT CAVOK 20/14 Q1017 NOSIG=
201905270530 METAR LRCK 270530Z 11005KT CAVOK 21/15 Q1017 NOSIG=
201905270600 METAR LRCK 270600Z 09006KT CAVOK 22/14 Q1017 NOSIG=
201905270630 METAR LRCK 270630Z 11006KT CAVOK 23/14 Q1018 NOSIG=
201905270700 METAR LRCK 270700Z 13006KT CAVOK 23/15 Q1017 NOSIG=
201905270730 METAR LRCK 270730Z 13007KT 100V160 9999 FEW040 24/14 Q1018
                        NOSIG=
201905270800 METAR LRCK 270800Z 13009KT 9999 FEW040 25/14 Q1018 NOSIG=
201905270830 METAR LRCK 270830Z 14010KT 110V170 9999 FEW040 25/13 Q1018
                        NOSIG=
201905270900 METAR LRCK 270900Z 13010KT 9999 FEW042 26/13 Q1018 NOSIG=
201905270930 METAR LRCK 270930Z 14012KT 9999 FEW045 26/13 Q1018 NOSIG=
201905271000 METAR LRCK 271000Z 13013KT 9999 FEW045 26/13 Q1018 NOSIG=
201905271030 METAR LRCK 271030Z 14013KT 9999 FEW045 26/13 Q1018 NOSIG=
201905271100 METAR LRCK 271100Z 14013KT 9999 FEW049 26/12 Q1018 NOSIG=
201905271130 METAR LRCK 271130Z 13014KT 9999 FEW049 25/12 Q1018 NOSIG=
201905271200 METAR LRCK 271200Z 13015KT 9999 FEW049 25/12 Q1018 NOSIG=
201905271230 METAR LRCK 271230Z 14015KT CAVOK 25/13 Q1018 NOSIG=
201905271300 METAR LRCK 271300Z 14014KT CAVOK 25/12 Q1017 NOSIG=
201905271330 METAR LRCK 271330Z 13013KT CAVOK 24/12 Q1017 NOSIG=
201905271400 METAR LRCK 271400Z 14012KT CAVOK 24/12 Q1017 NOSIG=
201905271430 METAR LRCK 271430Z 14011KT CAVOK 23/11 Q1017 NOSIG=
201905271500 METAR LRCK 271500Z 13009KT CAVOK 22/13 Q1017 NOSIG=
201905271530 METAR LRCK 271530Z 13009KT CAVOK 22/13 Q1017 NOSIG=
201905271600 METAR LRCK 271600Z 12009KT CAVOK 21/11 Q1017 NOSIG=
201905271630 METAR LRCK 271630Z 13007KT CAVOK 20/12 Q1017 NOSIG=
201905271700 METAR LRCK 271700Z 14003KT CAVOK 20/12 Q1017 NOSIG=
201905271730 METAR LRCK 271730Z 14004KT CAVOK 19/13 Q1017 NOSIG=
201905271800 METAR LRCK 271800Z 15005KT CAVOK 18/13 Q1017 NOSIG=
201905271830 METAR LRCK 271830Z 15005KT CAVOK 16/13 Q1017 NOSIG=
201905271900 METAR LRCK 271900Z 15005KT CAVOK 15/13 Q1017 NOSIG=
201905271930 METAR LRCK 271930Z 15003KT CAVOK 16/13 Q1017 NOSIG=
201905272000 METAR LRCK 272000Z 16004KT CAVOK 16/14 Q1017 NOSIG=
201905272030 METAR LRCK 272030Z 13005KT 8000 NSC 16/14 Q1017 NOSIG=
201905272100 METAR LRCK 272100Z 10006KT 7000 NSC 15/14 Q1017 NOSIG=
201905272130 METAR LRCK 272130Z 11006KT 3000 BR NSC 15/15 Q1017 NOSIG=
201905272200 METAR LRCK 272200Z 12005KT 2000 BCFG BR NSC 15/15 Q1016 NOSIG=
201905272230 METAR LRCK 272230Z 11006KT 0100 R18/1600D R36/0300N FG SCT001
                        15/15 Q1016 NOSIG=
201905272300 METAR LRCK 272300Z 11007KT 0300 R18/0350V0550N R36/1000U
                        FG SCT001 15/15 Q1016 NOSIG=
201905272330 METAR LRCK 272330Z 12007KT 0800 R18/P2000 R36/P2000U FG SCT001
                        15/15 Q1016 NOSIG=
201905280000 METAR LRCK 280000Z 11005KT 0800 R18/P2000 R36/0450N FG SCT001
                        15/15 Q1016 NOSIG=
201905280030 METAR LRCK 280030Z 10007KT 0800 R18/P2000 R36/0600N FG FEW001
                        15/15 Q1015 NOSIG=
201905280100 METAR LRCK 280100Z 11007KT 0800 R18/P2000 R36/0900U FG SCT001
                        15/15 Q1015 NOSIG=
201905280130 METAR COR LRCK 280130Z 10008KT 1500 BR SCT001 15/15 Q1015
                        NOSIG=
201905280200 METAR COR LRCK 280200Z 10007KT 3000 BR SCT001 15/15 Q1015
                        NOSIG=
201905280230 METAR LRCK 280230Z 10005KT 5000 BR SCT003 15/15 Q1015 NOSIG=
201905280300 METAR LRCK 280300Z 10005KT 7000 NSC 15/15 Q1015 NOSIG=
201905280330 METAR LRCK 280330Z 06005KT 5000 BR NSC 16/16 Q1015 NOSIG=
201905280400 METAR LRCK 280400Z 10007KT 7000 FEW008 17/17 Q1015 NOSIG=
201905280430 METAR LRCK 280430Z 10010KT 8000 SCT007 19/18 Q1015 NOSIG=
201905280500 METAR LRCK 280500Z 11012KT 9999 FEW008 20/17 Q1015 NOSIG=
201905280530 METAR LRCK 280530Z 10014KT 9999 FEW008 20/17 Q1015 NOSIG=
201905280600 METAR LRCK 280600Z 11014KT 9999 FEW008 21/16 Q1015 NOSIG=
201905280630 METAR LRCK 280630Z 11014KT CAVOK 21/16 Q1015 NOSIG=
201905280700 METAR LRCK 280700Z 12017KT CAVOK 22/15 Q1015 NOSIG=
201905280730 METAR LRCK 280730Z 12017KT CAVOK 22/16 Q1015 NOSIG=
201905280800 METAR LRCK 280800Z 11018KT CAVOK 22/16 Q1015 NOSIG=
201905280830 METAR LRCK 280830Z 12017KT CAVOK 22/16 Q1015 NOSIG=
201905280900 METAR LRCK 280900Z 12018KT CAVOK 21/16 Q1014 NOSIG=
201905280930 METAR LRCK 280930Z 12016KT CAVOK 22/16 Q1014 NOSIG=
201905281000 METAR LRCK 281000Z 11017KT CAVOK 22/17 Q1014 NOSIG=
201905281030 METAR LRCK 281030Z 11017KT CAVOK 22/17 Q1014 NOSIG=
201905281100 METAR LRCK 281100Z 12017KT CAVOK 22/17 Q1013 NOSIG=
201905281130 METAR LRCK 281130Z 11018KT 9999 FEW018 22/17 Q1013 NOSIG=
201905281200 METAR LRCK 281200Z 12019KT 9999 FEW018 22/17 Q1013 NOSIG=
201905281230 METAR LRCK 281230Z 12017KT 9999 FEW014 22/17 Q1013 NOSIG=
201905281300 METAR LRCK 281300Z 11017KT 9999 SCT014 21/17 Q1013 NOSIG=
201905281330 METAR LRCK 281330Z 11016KT 9999 BKN013 21/17 Q1012 NOSIG=
201905281400 METAR COR LRCK 281400Z 13015KT 9999 BKN012 21/17 Q1012 NOSIG=
201905281430 METAR LRCK 281430Z 13015KT 9999 SCT011 20/17 Q1012 NOSIG=
201905281500 METAR LRCK 281500Z 12015KT 9999 SCT011 20/17 Q1011 NOSIG=
201905281530 METAR LRCK 281530Z 12015KT 9999 SCT009 20/17 Q1011 NOSIG=
201905281600 METAR LRCK 281600Z 12015KT 9999 SCT008 19/17 Q1011 NOSIG=
201905281630 METAR LRCK 281630Z 11013KT 9999 BKN007 19/17 Q1011 NOSIG=
201905281700 METAR LRCK 281700Z 11013KT 9999 BKN007 19/17 Q1011 NOSIG=
201905281730 METAR LRCK 281730Z 11013KT 8000 BKN006 18/17 Q1010 NOSIG=
201905281800 METAR LRCK 281800Z 11012KT 7000 BKN006 18/17 Q1010 NOSIG=
201905281830 METAR LRCK 281830Z 12009KT 6000 BKN006 18/17 Q1010 BECMG
                        5000 BR BKN005=
201905281900 METAR LRCK 281900Z 11008KT 5000 BR BKN007 18/17 Q1010 BECMG
                        3000 BR BKN005=
201905281930 METAR LRCK 281930Z 11008KT 5000 BR BKN006 17/17 Q1010 BECMG
                        BKN005=
201905282000 METAR LRCK 282000Z 11008KT 5000 BR BKN005 17/17 Q1010 NOSIG=
201905282030 METAR LRCK 282030Z 11008KT 3000 BR BKN005 17/17 Q1010 NOSIG=
201905282100 METAR LRCK 282100Z 12008KT 3000 BR BKN005 17/17 Q1010 NOSIG=
201905282130 METAR LRCK 282130Z 11007KT 3000 BR BKN005 17/17 Q1010 NOSIG=
201905282200 METAR LRCK 282200Z 11008KT 1500 BR BKN004 17/17 Q1010 TEMPO
                        BKN002=
201905282230 METAR LRCK 282230Z 12007KT 1500 BR BKN003 17/17 Q1010 BECMG
                        BKN002=
201905282300 METAR COR LRCK 282300Z 12006KT 1500 BR OVC002 17/17 Q1009
                        NOSIG=
201905282330 METAR LRCK 282330Z 10006KT 1500 BR OVC002 17/17 Q1009 NOSIG=
201905290000 METAR LRCK 290000Z 12006KT 1500 BR OVC002 17/17 Q1009 NOSIG=
201905290030 METAR LRCK 290030Z 10007KT 2000 BR OVC002 17/17 Q1009 TEMPO
                        3000=
201905290100 METAR LRCK 290100Z 10007KT 2000 BR BKN002 17/17 Q1009 TEMPO
                        3000=
201905290130 METAR LRCK 290130Z 10007KT 0800 R18/P2000 R36/1500D FG OVC001
                        17/17 Q1009 NOSIG=
201905290200 METAR LRCK 290200Z 09008KT 0800 R18/1500D R36/1700D FG OVC002
                        17/17 Q1009 NOSIG=
201905290230 METAR LRCK 290230Z 09008KT 0800 R18/1500U R36/1500U FG OVC002
                        17/17 Q1009 BECMG 1500 BR=
201905290300 METAR LRCK 290300Z 11007KT 0800 R18/1600N R36/1400N FG OVC002
                        17/17 Q1009 BECMG 1500 BR=
201905290330 METAR LRCK 290330Z 12007KT 1500 BR BKN002 17/17 Q1009 BECMG
                        3000 BKN005=
201905290400 METAR LRCK 290400Z 13008KT 3000 BR BKN003 18/18 Q1009 BECMG
                        5000 BKN005=
201905290430 METAR LRCK 290430Z 16007KT 3000 BR BKN003 18/18 Q1009 BECMG
                        5000 BKN005=
201905290500 METAR LRCK 290500Z 17006KT 3000 BR BKN003 18/18 Q1009 BECMG
                        5000 BKN005=
201905290530 METAR LRCK 290530Z 18006KT 8000 SCT005 SCT008 19/18 Q1009
                        NOSIG=
201905290600 METAR LRCK 290600Z 17005KT 140V200 9999 SCT008 21/17 Q1009
                        NOSIG=
201905290630 METAR LRCK 290630Z 20005KT 160V230 CAVOK 22/17 Q1009 NOSIG=
201905290700 METAR LRCK 290700Z 17005KT 130V220 CAVOK 23/17 Q1009 NOSIG=
201905290730 METAR LRCK 290730Z 19005KT 140V250 CAVOK 24/17 Q1009 NOSIG=
201905290800 METAR LRCK 290800Z 22006KT 170V270 CAVOK 25/16 Q1010 NOSIG=
201905290830 METAR LRCK 290830Z 21007KT 180V240 CAVOK 25/16 Q1010 NOSIG=
201905290900 METAR LRCK 290900Z 24008KT 220V300 CAVOK 26/16 Q1010 NOSIG=
201905290930 METAR LRCK 290930Z 23008KT 210V270 CAVOK 26/16 Q1010 NOSIG=
201905291000 METAR LRCK 291000Z 27011KT CAVOK 27/15 Q1010 NOSIG=
201905291030 METAR LRCK 291030Z 26010KT CAVOK 28/14 Q1010 NOSIG=
201905291100 METAR LRCK 291100Z 23011KT CAVOK 28/15 Q1010 NOSIG=
201905291130 METAR LRCK 291130Z 29008KT CAVOK 28/15 Q1010 NOSIG=
201905291200 METAR LRCK 291200Z 23009KT CAVOK 29/17 Q1010 NOSIG=
201905291230 METAR LRCK 291230Z 28009KT 240V320 9999 FEW045 29/16 Q1010
                        NOSIG=
201905291300 METAR LRCK 291300Z 27009KT 9999 FEW047 29/16 Q1010 NOSIG=
201905291330 METAR LRCK 291330Z 24009KT 210V270 9999 FEW048 29/16 Q1010
                        NOSIG=
201905291400 METAR LRCK 291400Z 27009KT 9999 FEW048 29/16 Q1011 NOSIG=
201905291430 METAR LRCK 291430Z 27010KT 9999 FEW049 29/16 Q1011 NOSIG=
201905291500 METAR LRCK 291500Z 27009KT CAVOK 28/17 Q1011 NOSIG=
201905291530 METAR LRCK 291530Z 29008KT CAVOK 28/16 Q1011 NOSIG=
201905291600 METAR LRCK 291600Z VRB04KT CAVOK 27/18 Q1011 NOSIG=
201905291630 METAR LRCK 291630Z 14004KT CAVOK 26/19 Q1011 NOSIG=
201905291700 METAR LRCK 291700Z 16005KT CAVOK 24/19 Q1011 NOSIG=
201905291730 METAR LRCK 291730Z 17006KT CAVOK 23/19 Q1011 NOSIG=
201905291800 METAR LRCK 291800Z 16003KT CAVOK 21/18 Q1011 NOSIG=
201905291830 METAR LRCK 291830Z 18007KT CAVOK 20/18 Q1012 NOSIG=
201905291900 METAR LRCK 291900Z VRB02KT CAVOK 20/18 Q1012 NOSIG=
201905291930 METAR LRCK 291930Z 19004KT CAVOK 20/18 Q1013 NOSIG=
201905292000 METAR LRCK 292000Z VRB02KT 8000 NSC 20/18 Q1013 NOSIG=
201905292030 METAR LRCK 292030Z 17003KT 8000 NSC 19/18 Q1013 NOSIG=
201905292100 METAR LRCK 292100Z 16003KT 8000 NSC 19/18 Q1013 NOSIG=
201905292130 METAR LRCK 292130Z 16004KT 8000 NSC 19/17 Q1013 NOSIG=
201905292200 METAR LRCK 292200Z 16003KT CAVOK 19/18 Q1013 NOSIG=
201905292230 METAR LRCK 292230Z 05001KT 4000 BR NSC 19/18 Q1013 TEMPO
                        3000 BR=
201905292300 METAR LRCK 292300Z 08003KT 4000 BR NSC 19/18 Q1013 TEMPO
                        3000 BR=
201905292330 METAR LRCK 292330Z 05004KT 3000 BR NSC 18/17 Q1013 NOSIG=
201905300000 METAR LRCK 300000Z 07003KT 3000 BR NSC 17/17 Q1013 NOSIG=
201905300030 METAR LRCK 300030Z 04003KT 3000 BR NSC 17/17 Q1013 NOSIG=
201905300100 METAR LRCK 300100Z 09002KT 2500 BR NSC 17/17 Q1013 TEMPO
                        1500 BR BKN005=
201905300130 METAR LRCK 300130Z 00000KT 1500 BR NSC 17/16 Q1013 NOSIG=
201905300200 METAR LRCK 300200Z 00000KT 1500 BR NSC 17/16 Q1013 NOSIG=
201905300230 METAR LRCK 300230Z 00000KT 1500 BR NSC 16/16 Q1013 NOSIG=
201905300300 METAR LRCK 300300Z 26004KT 3000 BR NSC 16/16 Q1014 NOSIG=
201905300330 METAR LRCK 300330Z VRB01KT 5000 BR NSC 17/16 Q1014 BECMG
                        9999 NSW=
201905300400 METAR LRCK 300400Z 25005KT 8000 NSC 19/17 Q1014 NOSIG=
201905300430 METAR LRCK 300430Z 30007KT CAVOK 20/17 Q1014 NOSIG=
201905300500 METAR LRCK 300500Z 30007KT CAVOK 22/17 Q1014 NOSIG=
201905300530 METAR LRCK 300530Z 34008KT CAVOK 23/18 Q1014 NOSIG=
201905300600 METAR LRCK 300600Z 35006KT CAVOK 25/18 Q1014 NOSIG=
201905300630 METAR LRCK 300630Z 03006KT 360V060 CAVOK 26/18 Q1014 NOSIG=
201905300700 METAR LRCK 300700Z 05006KT CAVOK 26/18 Q1015 NOSIG=
201905300730 METAR LRCK 300730Z 06004KT 350V160 CAVOK 28/17 Q1015 NOSIG=
201905300800 METAR LRCK 300800Z 16005KT 120V200 9999 FEW035 28/16 Q1015
                        NOSIG=
201905300830 METAR LRCK 300830Z 08011KT 9999 FEW035 27/18 Q1015 NOSIG=
201905300900 METAR LRCK 300900Z 10011KT 9999 FEW035 27/18 Q1015 NOSIG=
201905300930 METAR LRCK 300930Z 11010KT 9999 FEW035 26/18 Q1016 NOSIG=
201905301000 METAR LRCK 301000Z 11010KT 9999 FEW035 27/15 Q1015 NOSIG=
201905301030 METAR LRCK 301030Z 13010KT 110V170 9999 FEW035 28/14 Q1015
                        NOSIG=
201905301100 METAR LRCK 301100Z 14010KT 9999 FEW035 FEW050TCU 28/12 Q1015
                        NOSIG=
201905301130 METAR LRCK 301130Z 13010KT 9999 FEW035 FEW050CB 28/14 Q1015
                        NOSIG=
201905301200 METAR LRCK 301200Z 13010KT 9999 FEW045TCU 28/15 Q1015 NOSIG=
201905301230 METAR LRCK 301230Z 14009KT 9999 FEW045TCU 28/13 Q1015 NOSIG=
201905301300 METAR LRCK 301300Z 13009KT 9999 FEW045TCU 28/11 Q1015 NOSIG=
201905301330 METAR LRCK 301330Z 13010KT 9999 FEW045TCU 27/12 Q1015 NOSIG=
201905301400 METAR LRCK 301400Z 13010KT 9999 FEW045TCU 27/12 Q1015 NOSIG=
201905301430 METAR LRCK 301430Z 13009KT 9999 FEW045TCU 27/13 Q1015 NOSIG=
201905301500 METAR LRCK 301500Z 13008KT 9999 FEW045CB 26/13 Q1015 NOSIG=
201905301530 METAR LRCK 301530Z 13008KT 9999 FEW045CB 25/14 Q1015 NOSIG=
201905301600 METAR LRCK 301600Z 14007KT 9999 FEW050CB 25/13 Q1015 NOSIG=
201905301630 METAR LRCK 301630Z 11004KT 9999 FEW050CB 24/15 Q1015 NOSIG=
201905301700 METAR LRCK 301700Z 12004KT 9999 FEW050CB 23/16 Q1015 NOSIG=
201905301730 METAR LRCK 301730Z 10003KT 050V130 9999 FEW050CB 22/16 Q1016
                        NOSIG=
201905301800 METAR LRCK 301800Z 07001KT 9999 FEW050CB 20/16 Q1016 BECMG
                        NSC=
201905301830 METAR LRCK 301830Z 08003KT CAVOK 20/16 Q1016 NOSIG=
201905301900 METAR LRCK 301900Z VRB01KT CAVOK 19/16 Q1016 NOSIG=
201905301930 METAR LRCK 301930Z 00000KT CAVOK 19/17 Q1016 NOSIG=
201905302000 METAR LRCK 302000Z 05005KT 4000 MIFG BR NSC 17/17 Q1016 NOSIG=
201905302030 METAR LRCK 302030Z 04005KT 3000 BR SCT003 17/17 Q1016 TEMPO
                        5000=
201905302100 METAR LRCK 302100Z 01003KT 2000 BR NSC 18/17 Q1016 TEMPO
                        3000=
201905302130 METAR LRCK 302130Z VRB02KT 1500 MIFG BR NSC 18/18 Q1016 NOSIG=
201905302200 METAR LRCK 302200Z 00000KT 1500 MIFG BR NSC 17/17 Q1016 BECMG
                        3000=
201905302230 METAR LRCK 302230Z 33002KT 2500 MIFG BR NSC 17/17 Q1016 NOSIG=
201905302300 METAR LRCK 302300Z VRB02KT 2500 MIFG BR NSC 17/17 Q1016 NOSIG=
201905302330 METAR LRCK 302330Z 33003KT 0800 R18/0375N R36/1200D FG SCT001
                        17/17 Q1016 TEMPO 1500 BR=
201905310000 METAR LRCK 310000Z VRB02KT 0800 R18/0400D R36/1800D FG SCT001
                        16/16 Q1016 TEMPO 1500 BR=
201905310030 METAR LRCK 310030Z VRB01KT 1500 MIFG BR NSC 16/15 Q1016 TEMPO
                        3000 BR=
201905310100 METAR LRCK 310100Z 30005KT 4000 MIFG BR NSC 16/16 Q1016 NOSIG=
201905310130 METAR LRCK 310130Z 30007KT 7000 NSC 17/16 Q1016 NOSIG=
201905310200 METAR LRCK 310200Z 30006KT CAVOK 17/16 Q1016 NOSIG=
201905310230 METAR LRCK 310230Z 28003KT 230V330 CAVOK 16/15 Q1016 NOSIG=
201905310300 METAR LRCK 310300Z 32006KT CAVOK 16/16 Q1015 NOSIG=
201905310330 METAR LRCK 310330Z 26006KT CAVOK 17/16 Q1016 NOSIG=
201905310400 METAR LRCK 310400Z 28007KT CAVOK 18/17 Q1016 NOSIG=
201905310430 METAR LRCK 310430Z 30010KT 8000 FEW004 18/17 Q1016 NOSIG=
201905310500 METAR LRCK 310500Z 27006KT 5000 BR BKN003 18/18 Q1016 NOSIG=
201905310530 METAR LRCK 310530Z 28006KT 250V310 8000 SCT003 20/18 Q1016
                        NOSIG=
201905310600 METAR LRCK 310600Z 31004KT 260V010 9999 FEW005 22/18 Q1016
                        NOSIG=
201905310630 METAR LRCK 310630Z 05005KT 340V080 9999 FEW005 SCT015 23/17
                        Q1017 NOSIG=
201905310700 METAR LRCK 310700Z 03004KT 320V070 9999 FEW010 SCT021 24/18
                        Q1016 NOSIG=
201905310730 METAR LRCK 310730Z 03003KT 300V110 9999 SCT022 24/18 Q1016
                        NOSIG=
201905310800 METAR LRCK 310800Z 05005KT 020V100 9999 BKN023 25/19 Q1016
                        NOSIG=
201905310830 METAR LRCK 310830Z 06005KT 350V130 9999 BKN027 25/17 Q1016
                        NOSIG=
201905310900 METAR LRCK 310900Z 02006KT 290V080 9999 SCT030 27/17 Q1016
                        NOSIG=
201905310930 METAR LRCK 310930Z VRB03KT 9999 SCT030 28/16 Q1016 NOSIG=
201905311000 METAR LRCK 311000Z 08007KT 050V120 9999 FEW035 FEW045CB 28/16
                        Q1016 NOSIG=
201905311030 METAR LRCK 311030Z 11010KT 9999 FEW035 FEW043CB 26/18 Q1016
                        NOSIG=
201905311100 METAR LRCK 311100Z 08008KT 040V110 9999 FEW035 FEW043CB 27/17
                        Q1016 NOSIG=
201905311130 METAR LRCK 311130Z 08007KT 060V120 9999 TS SCT040CB 26/17
                        Q1016 NOSIG=
201905311200 METAR LRCK 311200Z 10008KT 9999 -TSRA SCT040CB 25/16 Q1016
                        TEMPO 5000 -TSRA=
201905311230 METAR LRCK 311230Z 14009KT 9999 -TSRA SCT040CB 22/17 Q1016
                        TEMPO 5000 -TSRA=
201905311300 METAR LRCK 311300Z 15007KT 9999 -SHRA VCTS FEW040CB 22/18
                        Q1016 R18/19//95 NOSIG=
201905311330 METAR LRCK 311330Z 13007KT 9999 VCTS FEW031 FEW045CB 24/15
                        Q1015 R18/CLRD// NOSIG=
201905311400 METAR LRCK 311400Z 13006KT 100V170 9999 VCTS FEW045CB 25/14
                        Q1015 NOSIG=
201905311430 METAR LRCK 311430Z 15005KT 120V180 9999 FEW050CB 26/13 Q1015
                        NOSIG=
201905311500 METAR LRCK 311500Z 13005KT 9999 FEW050CB 26/14 Q1014 NOSIG=
201905311530 METAR LRCK 311530Z 10006KT 9999 FEW050CB 26/14 Q1014 NOSIG=
201905311600 METAR LRCK 311600Z 10006KT 9999 FEW050CB 25/15 Q1014 NOSIG=
201905311630 METAR LRCK 311630Z 09005KT 9999 VCTS SCT050CB 23/16 Q1014
                        NOSIG=
201905311700 METAR LRCK 311700Z 11005KT 9999 VCTS SCT050CB 21/15 Q1014
                        NOSIG=
201905311730 METAR LRCK 311730Z VRB02KT 9999 FEW015 SCT044CB 20/15 Q1014
                        NOSIG=
201905311800 METAR LRCK 311800Z 16003KT 9999 SCT044CB 19/17 Q1014 NOSIG=
201905311830 METAR LRCK 311830Z 16001KT 9999 SCT046CB 20/17 Q1015 NOSIG=
201905311900 METAR LRCK 311900Z VRB02KT 9999 FEW050CB 19/17 Q1015 NOSIG=
201905311930 METAR LRCK 311930Z 33003KT 9999 FEW045 FEW048CB 18/16 Q1015
                        NOSIG=
201905312000 METAR LRCK 312000Z 36005KT 9999 SCT043 FEW050CB 19/17 Q1015
                        NOSIG=
201905312030 METAR LRCK 312030Z 31003KT 9999 BKN042 FEW050CB 18/17 Q1016
                        NOSIG=
201905312100 METAR LRCK 312100Z 35007KT 9999 SCT019 BKN041 FEW050CB 20/17
                        Q1016 NOSIG=
201905312130 METAR LRCK 312130Z 31005KT 9999 SCT019 BKN041 FEW050CB 20/18
                        Q1016 NOSIG=
201905312200 METAR COR LRCK 312200Z 35007KT 9999 SCT026 SCT041 FEW050CB
                        20/17 Q1015 NOSIG=
201905312230 METAR COR LRCK 312230Z 30005KT 9999 SCT038 19/17 Q1015 NOSIG=
201905312300 METAR LRCK 312300Z 28006KT 9999 FEW023 SCT031 18/17 Q1015
                        NOSIG=
201905312330 METAR COR LRCK 312330Z 29010KT 9999 FEW017 SCT031 18/17 Q1015
                        NOSIG=
