201906010500 TAF LRCK 010500Z 0106/0206 34012KT 9999 BKN045
                      TEMPO 0113/0117 SCT040CB
                      PROB30 TEMPO 0113/0116 TSRA=
201906011100 TAF LRCK 011100Z 0112/0212 32010KT 9999 BKN035
                      TEMPO 0113/0117 SCT040CB=
201906011700 TAF LRCK 011700Z 0118/0218 30006KT CAVOK
                      BECMG 0209/0211 11010KT
                      BECMG 0215/0217 VRB04KT=
201906012300 TAF LRCK 012300Z 0200/0224 34006KT CAVOK
                      BECMG 0209/0211 11010KT
                      BECMG 0215/0217 VRB04KT=
201906020500 TAF LRCK 020500Z 0206/0306 33007KT CAVOK
                      TEMPO 0209/0214 FEW050CB
                      BECMG 0303/0305 11010KT=
201906021100 TAF LRCK 021100Z 0212/0312 10010KT 9999 SCT045
                      TEMPO 0212/0216 SCT045 FEW050CB
                      BECMG 0220/0222 VRB04KT 5000 BR BKN010
                      TEMPO 0300/0303 1500 BR BKN005
                      BECMG 0304/0306 9999 NSW SCT030
                      BECMG 0306/0308 12015KT=
201906021700 TAF LRCK 021700Z 0218/0318 VRB04KT 9999 SCT045
                      BECMG 0220/0222 5000 BR BKN010
                      TEMPO 0300/0303 1500 BR BKN005
                      BECMG 0304/0306 9999 NSW SCT030
                      BECMG 0306/0308 12015KT
                      TEMPO 0312/0316 SCT030CB=
201906022300 TAF LRCK 022300Z 0300/0324 VRB04KT CAVOK
                      TEMPO 0301/0305 3000 BR
                      BECMG 0306/0308 12015KT
                      TEMPO 0312/0316 SCT030CB
                      BECMG 0318/0320 VRB04KT=
201906030500 TAF LRCK 030500Z 0306/0406 07007KT 9999 BKN010
                      BECMG 0306/0308 13010KT SCT015 SCT030
                      TEMPO 0312/0316 BKN030 FEW040CB
                      BECMG 0318/0320 3000 BR BKN005
                      TEMPO 0320/0402 1500 BR OVC002
                      BECMG 0402/0404 5000 SCT010
                      BECMG 0405/0406 9999 NSW=
201906031100 TAF LRCK 031100Z 0312/0412 14010KT 9999 SCT030 FEW040CB
                      BECMG 0319/0321 3000 BR BKN005
                      TEMPO 0322/0403 1500 BR OVC002
                      BECMG 0404/0406 9999 NSW SCT015
                      PROB40 TEMPO 0406/0410 5000 SHRA SCT015 SCT030CB=
201906031700 TAF LRCK 031700Z 0318/0418 16006KT 9999 BKN040
                      TEMPO 0318/0320 SCT030CB
                      TEMPO 0323/0403 3000 BR BKN005
                      BECMG 0403/0405 15016KT
                      PROB30 TEMPO 0405/0408 3000 TSRA SCT015 BKN030CB
                       BECMG 0411/0413 SCT030CB
                      TEMPO 0413/0417 3000 TSRA BKN010 BKN025CB=
201906031931 TAF AMD LRCK 031931Z 0319/0418 16006KT 9999 BKN040
                      TEMPO 0319/0324 3000 BR BKN005
                      BECMG 0403/0405 15016KT
                      PROB30 TEMPO 0405/0408 3000 TSRA SCT015 BKN030CB
                       BECMG 0411/0413 SCT030CB
                      TEMPO 0413/0417 3000 TSRA BKN010 BKN025CB=
201906032300 TAF LRCK 032300Z 0400/0424 10005KT 3000 BR SCT005
                      PROB30 TEMPO 0400/0403 0800 FG BKN002
                      BECMG 0403/0405 15016KT 9999 NSW
                      PROB30 TEMPO 0405/0408 3000 TSRA SCT015 BKN030CB
                       TEMPO 0412/0417 SCT025CB=
201906040500 TAF LRCK 040500Z 0406/0506 16010KT 3000 BR BKN005
                      BECMG 0406/0407 BKN010
                      BECMG 0407/0409 9999 SCT020
                      TEMPO 0409/0413 3000 TSRA BKN015 BKN030CB
                       BECMG 0423/0501 VRB04KT 3000 BR BKN005=
201906041100 TAF LRCK 041100Z 0412/0512 12006KT 9999 SCT025
                      TEMPO 0412/0415 5000 -TSRA SCT040CB
                      BECMG 0423/0501 3000 BR
                      BECMG 0505/0507 9999 NSW=
201906041700 TAF LRCK 041700Z 0418/0518 15008KT 9999 FEW050CB
                      BECMG 0418/0420 NSC
                      BECMG 0422/0424 5000 BR
                      TEMPO 0501/0505 3000 BR
                      BECMG 0505/0507 9999 NSW=
201906042300 TAF LRCK 042300Z 0500/0524 VRB04KT 5000 BR NSC
                      TEMPO 0500/0504 3000 BR
                      BECMG 0505/0507 12010KT 9999 NSW
                      BECMG 0517/0519 VRB04KT=
201906050500 TAF LRCK 050500Z 0506/0606 VRB04KT 9999 SCT030
                      TEMPO 0506/0507 5000 BR BKN010
                      BECMG 0507/0509 12010KT
                      BECMG 0517/0519 VRB04KT=
201906051100 TAF LRCK 051100Z 0512/0612 11012KT 9999 SCT035
                      TEMPO 0512/0517 SCT030CB
                      PROB30 TEMPO 0512/0516 5000 -TSRA
                      BECMG 0517/0519 VRB04KT=
201906051700 TAF LRCK 051700Z 0518/0618 13010KT CAVOK
                      BECMG 0519/0521 VRB04KT
                      BECMG 0522/0524 3000 BR
                      PROB30 TEMPO 0601/0604 0800 FG
                      BECMG 0610/0611 19010KT
                      TEMPO 0613/0616 SCT040CB
                      BECMG 0616/0618 27005KT=
201906052300 TAF LRCK 052300Z 0600/0624 VRB04KT CAVOK
                      BECMG 0600/0601 3000 BR
                      PROB30 TEMPO 0601/0604 0800 FG
                      BECMG 0605/0607 CAVOK
                      BECMG 0610/0611 19010KT
                      TEMPO 0613/0616 SCT040CB
                      BECMG 0616/0618 27005KT=
201906060500 TAF LRCK 060500Z 0606/0706 VRB04KT CAVOK
                      BECMG 0609/0611 17010KT
                      TEMPO 0612/0616 SCT040CB
                      BECMG 0618/0620 23005KT=
201906061100 TAF LRCK 061100Z 0612/0712 14010KT 9999 SCT045CB
                      TEMPO 0612/0617 5000 -TSRA
                      BECMG 0618/0620 22005KT SCT045
                      BECMG 0708/0710 SCT045CB
                      TEMPO 0710/0712 VRB15G25KT 3000 TSRA BKN010
                       BKN040CB=
201906061700 TAF LRCK 061700Z 0618/0718 16006KT 9999 SCT045
                      TEMPO 0618/0621 SCT040CB
                      BECMG 0710/0712 SCT040CB
                      TEMPO 0712/0718 VRB15G25KT 3000 TSRA BKN010
                       BKN035CB=
201906062300 TAF LRCK 062300Z 0700/0724 26006KT CAVOK
                      TEMPO 0700/0704 5000 BR
                      BECMG 0710/0712 SCT040CB
                      TEMPO 0712/0718 VRB15G25KT 3000 TSRA BKN010
                       BKN035CB=
201906070500 TAF LRCK 070500Z 0706/0806 28007KT CAVOK
                      TEMPO 0710/0716 VRB15G25KT 5000 TSRA SCT015
                       BKN035CB
                      PROB30 TEMPO 0711/0715 1500 +TSRA
                      TEMPO 0800/0806 3000 BR=
201906071100 TAF LRCK 071100Z 0712/0812 29008KT 9999 SCT040
                      TEMPO 0712/0716 SCT040CB
                      PROB30 TEMPO 0712/0716 VRB15G25KT 5000 TSRA
                       TEMPO 0800/0804 3000 BR
                      TEMPO 0809/0812 VRB15G25KT 5000 TSRA SCT015
                       SCT030CB=
201906071427 TAF AMD LRCK 071427Z 0714/0812 12010KT 9999 FEW050CB
                      PROB30 TEMPO 0714/0716 VRB15G25KT 5000 TSRA
                       BKN040CB
                      BECMG 0716/0718 28006KT NSC
                      TEMPO 0800/0804 3000 BR
                      TEMPO 0809/0812 VRB15G25KT 5000 TSRA SCT015
                       SCT030CB=
201906071700 TAF LRCK 071700Z 0718/0818 VRB04KT 9999 FEW045
                      PROB30 TEMPO 0718/0719 TS SCT045CB
                      TEMPO 0800/0804 3000 BR
                      BECMG 0809/0811 SCT045CB
                      TEMPO 0811/0817 VRB15G25KT 3000 TSRA BKN010
                       BKN040CB=
201906072300 TAF LRCK 072300Z 0800/0824 30006KT 9999 FEW045
                      TEMPO 0800/0804 5000 BR
                      BECMG 0809/0811 SCT045CB
                      TEMPO 0811/0817 VRB15G25KT 3000 TSRA BKN010
                       BKN040CB
                      BECMG 0817/0819 SCT040=
201906080500 TAF LRCK 080500Z 0806/0906 VRB04KT CAVOK
                      BECMG 0810/0812 11010KT SCT040CB
                      PROB30 TEMPO 0812/0814 VRB20KT 3000 TSRAGR
                       BKN035CB
                      TEMPO 0814/0816 5000 -TSRA
                      BECMG 0816/0818 VRB04KT NSC=
201906080956 TAF AMD LRCK 080956Z 0809/0906 VRB04KT 9999 SCT045CB
                      TEMPO 0809/0813 5000 TSRA
                      PROB30 TEMPO 0813/0816 5000 -SHRA
                      BECMG 0816/0818 NSC=
201906081100 TAF LRCK 081100Z 0812/0912 VRB04KT 9999 SCT045CB
                      PROB30 TEMPO 0812/0815 5000 -TSRA
                      BECMG 0815/0817 NSC=
201906081700 TAF LRCK 081700Z 0818/0918 VRB04KT 9999 BKN040
                      TEMPO 0823/0903 3000 BR
                      BECMG 0903/0905 02010KT BKN010
                      BECMG 0912/0914 35008KT 5000 -SHRA BKN010
                       BKN030CB
                      TEMPO 0914/0918 1500 +TSRA=
201906082300 TAF COR LRCK 090013Z 0900/0924 VRB04KT CAVOK
                      TEMPO 0900/0903 3000 BR
                      BECMG 0903/0905 05010KT BKN010
                      BECMG 0912/0914 35008KT 5000 -SHRA BKN010
                       BKN030CB
                      TEMPO 0914/0918 1500 +TSRA=
201906090013 TAF COR LRCK 090013Z 0900/0924 VRB04KT CAVOK
                      TEMPO 0900/0903 3000 BR
                      BECMG 0903/0905 05010KT BKN010
                      BECMG 0912/0914 35008KT 5000 -SHRA BKN010
                       BKN030CB
                      TEMPO 0914/0918 1500 +TSRA=
201906090500 TAF LRCK 090500Z 0906/1006 02010KT 9999 SCT040
                      TEMPO 0906/0909 BKN005
                      TEMPO 0910/0917 VRB15G25KT 5000 -TSRA BKN010
                       SCT035CB
                      PROB40 TEMPO 0911/0916 1500 +TSRA BKN005
                       BKN030CB=
201906091100 TAF LRCK 091100Z 0912/1012 02010KT 9999 SCT040
                      TEMPO 0912/0918 5000 -TSRA SCT035CB
                      PROB40 TEMPO 0913/0917 VRB20G30KT 1500 +TSRA
                       BKN010 BKN030CB
                      BECMG 1008/1010 09010KT=
201906091700 TAF LRCK 091700Z 0918/1018 VRB04KT 9999 FEW050CB
                      BECMG 0918/0920 NSC
                      BECMG 1001/1003 02010KT
                      BECMG 1006/1008 09012KT
                      PROB30 TEMPO 1009/1013 5000 -SHRA SCT045CB=
201906092300 TAF LRCK 092300Z 1000/1024 31007KT CAVOK
                      BECMG 1001/1003 01010KT
                      BECMG 1006/1008 09012KT
                      PROB30 TEMPO 1009/1013 5000 -SHRA SCT045CB
                       BECMG 1018/1020 02010KT=
201906100500 TAF LRCK 100500Z 1006/1106 01012KT CAVOK
                      BECMG 1007/1009 08016KT
                      PROB30 TEMPO 1008/1013 5000 -TSRA SCT045CB
                       BECMG 1018/1020 02010KT
                      PROB40 TEMPO 1022/1102 5000 -SHRA SCT040CB=
201906101100 TAF LRCK 101100Z 1012/1112 05012KT 9999 SCT040
                      PROB30 TEMPO 1022/1102 5000 -SHRA SCT035CB
                       TEMPO 1108/1112 06018G28KT=
201906101700 TAF LRCK 101700Z 1018/1118 05010KT 9999 SCT045
                      TEMPO 1018/1021 VRB20KT SCT035CB
                      PROB40 TEMPO 1100/1106 VRB15G25KT 5000 -SHRA
                       SCT035CB
                      TEMPO 1108/1114 06020G30KT=
201906102300 TAF AMD LRCK 110334Z 1103/1124 06010KT 9999 BKN015
                      TEMPO 1103/1105 5000 BR BKN005
                      BECMG 1105/1107 SCT040
                      TEMPO 1108/1114 07020G30KT=
201906110334 TAF AMD LRCK 110334Z 1103/1124 06010KT 9999 BKN015
                      TEMPO 1103/1105 5000 BR BKN005
                      BECMG 1105/1107 SCT040
                      TEMPO 1108/1114 07020G30KT=
201906110500 TAF LRCK 110500Z 1106/1206 07012KT 9999 BKN015
                      BECMG 1106/1108 NSC
                      TEMPO 1108/1114 08015G25KT FEW050CB
                      BECMG 1120/1122 01010KT=
201906111100 TAF LRCK 111100Z 1112/1212 08016KT 9999 SCT030
                      TEMPO 1112/1115 09017G27KT FEW050CB
                      BECMG 1120/1122 02010KT=
201906111700 TAF LRCK 111700Z 1118/1218 03006KT CAVOK
                      BECMG 1209/1211 12010KT
                      TEMPO 1211/1215 SCT045CB
                      BECMG 1215/1217 23006KT=
201906112300 TAF LRCK 112300Z 1200/1224 01006KT CAVOK
                      BECMG 1209/1211 12010KT
                      TEMPO 1211/1215 SCT045CB
                      BECMG 1215/1217 23006KT
                      BECMG 1220/1222 35010KT=
201906120500 TAF LRCK 120500Z 1206/1306 03010KT CAVOK
                      BECMG 1210/1212 12010KT
                      PROB30 TEMPO 1211/1216 SCT045CB
                      BECMG 1214/1216 VRB03KT
                      TEMPO 1220/1306 35013KT=
201906121100 TAF LRCK 121100Z 1212/1312 06012KT CAVOK
                      PROB30 TEMPO 1212/1216 SCT045CB
                      BECMG 1214/1216 VRB03KT
                      TEMPO 1220/1306 35013KT=
201906121700 TAF LRCK 121700Z 1218/1318 VRB04KT CAVOK
                      BECMG 1220/1222 35010KT
                      BECMG 1308/1310 07010KT
                      TEMPO 1311/1316 FEW050CB
                      BECMG 1316/1318 VRB04KT=
201906122300 TAF LRCK 122300Z 1300/1324 34010KT CAVOK
                      BECMG 1308/1310 05010KT
                      TEMPO 1311/1316 FEW050CB
                      BECMG 1314/1316 VRB04KT
                      BECMG 1320/1322 06010KT=
201906130500 TAF LRCK 130500Z 1306/1406 34008KT CAVOK
                      BECMG 1310/1312 12010KT
                      TEMPO 1311/1316 SCT050CB
                      BECMG 1320/1322 35010KT=
201906131100 TAF LRCK 131100Z 1312/1412 11010KT CAVOK
                      TEMPO 1312/1316 SCT050CB
                      BECMG 1316/1318 VRB04KT
                      BECMG 1322/1324 35010KT
                      BECMG 1408/1410 12008KT=
201906131250 TAF AMD LRCK 131250Z 1312/1412 11010KT CAVOK
                      TEMPO 1312/1316 VRB20G30KT 3000 TSRA BKN010
                       BKN030CB
                      BECMG 1316/1318 VRB04KT
                      BECMG 1322/1324 35010KT
                      BECMG 1408/1410 12008KT=
201906131700 TAF LRCK 131700Z 1318/1418 VRB04KT CAVOK
                      BECMG 1404/1406 01010KT
                      BECMG 1409/1411 10010KT
                      PROB30 TEMPO 1412/1416 SCT035CB
                      BECMG 1416/1418 33010KT=
201906132300 TAF LRCK 132300Z 1400/1424 VRB04KT CAVOK
                      BECMG 1404/1406 01010KT
                      BECMG 1409/1411 10010KT
                      PROB30 TEMPO 1412/1416 SCT035CB
                      BECMG 1416/1418 34010KT=
201906140500 TAF LRCK 140500Z 1406/1506 34008KT CAVOK
                      BECMG 1409/1411 08010KT
                      PROB30 TEMPO 1412/1416 SCT035CB
                      BECMG 1416/1418 36010KT=
201906141100 TAF LRCK 141100Z 1412/1512 08010KT CAVOK
                      PROB30 TEMPO 1412/1416 SCT040CB
                      BECMG 1416/1418 36010KT
                      BECMG 1508/1510 08010KT SCT040CB=
201906141700 TAF LRCK 141700Z 1418/1518 06008KT CAVOK
                      TEMPO 1418/1420 SCT040CB
                      TEMPO 1423/1504 3000 BR BKN005
                      TEMPO 1511/1517 SCT040CB=
201906142300 TAF LRCK 142300Z 1500/1524 03008KT CAVOK
                      TEMPO 1500/1504 3000 BR BKN005
                      TEMPO 1511/1517 SCT040CB
                      PROB40 TEMPO 1512/1516 VRB20KT 5000 TSRA=
201906150500 TAF LRCK 150500Z 1506/1606 04012KT CAVOK
                      BECMG 1510/1512 10010KT
                      TEMPO 1512/1518 SCT040CB
                      PROB40 TEMPO 1512/1517 VRB18KT 5000 TSRA
                       BECMG 1519/1521 35006KT=
201906151100 TAF LRCK 151100Z 1512/1612 09010KT 9999 FEW050CB
                      PROB30 TEMPO 1512/1516 -TSRA
                      BECMG 1516/1518 NSC
                      BECMG 1519/1521 33006KT
                      BECMG 1607/1609 06010KT=
201906151700 TAF LRCK 151700Z 1518/1618 36008KT CAVOK
                      BECMG 1607/1609 06010KT
                      TEMPO 1611/1615 VRB15G25KT 5000 -TSRA SCT045CB=
201906152300 TAF LRCK 152300Z 1600/1624 34008KT CAVOK
                      BECMG 1607/1609 06010KT
                      TEMPO 1611/1615 VRB15G25KT 5000 -TSRA SCT045CB=
201906160500 TAF LRCK 160500Z 1606/1706 34006KT CAVOK
                      BECMG 1608/1610 10012KT
                      TEMPO 1611/1615 VRB15G25KT 5000 -TSRA SCT045CB
                       BECMG 1615/1617 VRB04KT
                      BECMG 1620/1622 35010KT=
201906161100 TAF LRCK 161100Z 1612/1712 10012KT CAVOK
                      BECMG 1615/1617 VRB04KT
                      BECMG 1620/1622 34010KT
                      BECMG 1705/1707 04008KT
                      BECMG 1709/1711 10014KT=
201906161700 TAF LRCK 161700Z 1618/1718 VRB04KT CAVOK
                      BECMG 1704/1706 03010KT
                      BECMG 1707/1709 09012KT
                      TEMPO 1709/1714 FEW050CB
                      BECMG 1716/1718 VRB04KT=
201906162300 TAF LRCK 162300Z 1700/1724 33007KT CAVOK
                      BECMG 1703/1705 03010KT
                      BECMG 1707/1709 09012KT
                      TEMPO 1709/1714 FEW050CB
                      BECMG 1717/1719 32005KT=
201906170500 TAF LRCK 170500Z 1706/1806 02010KT CAVOK
                      BECMG 1707/1709 10012KT
                      TEMPO 1709/1716 11020G30KT
                      BECMG 1717/1719 34006KT=
201906171100 TAF LRCK 171100Z 1712/1812 09012KT 9999 SCT045
                      TEMPO 1712/1716 11020G30KT SCT040CB
                      BECMG 1717/1719 VRB04KT
                      BECMG 1805/1807 06012KT=
201906171700 TAF LRCK 171700Z 1718/1818 VRB04KT CAVOK
                      BECMG 1806/1808 07015KT
                      BECMG 1815/1817 07005KT=
201906172300 TAF LRCK 172300Z 1800/1824 33006KT CAVOK
                      BECMG 1806/1808 07015KT
                      BECMG 1815/1817 07005KT
                      BECMG 1820/1822 32010KT=
201906180500 TAF LRCK 180500Z 1806/1906 36008KT CAVOK
                      BECMG 1806/1808 07015KT
                      BECMG 1816/1818 VRB04KT
                      BECMG 1820/1822 32010KT=
201906181100 TAF LRCK 181100Z 1812/1912 07014KT CAVOK
                      BECMG 1816/1818 VRB04KT
                      BECMG 1820/1822 32010KT
                      BECMG 1904/1906 05010KT
                      TEMPO 1907/1912 VRB20KT 3000 TSRA SCT015
                       BKN035CB=
201906181700 TAF LRCK 181700Z 1818/1918 08006KT 9999 SCT045
                      TEMPO 1818/1821 SCT040CB
                      BECMG 1901/1903 35010KT
                      TEMPO 1908/1914 VRB20G30KT 3000 TSRA SCT015
                       BKN035CB=
201906182300 TAF LRCK 182300Z 1900/1924 34008KT CAVOK
                      TEMPO 1908/1914 VRB20G30KT 3000 TSRA BKN015
                       BKN035CB=
201906190500 TAF LRCK 190500Z 1906/2006 35008KT CAVOK
                      TEMPO 1907/1909 06010KT
                      TEMPO 1911/1917 SCT040CB
                      PROB40 TEMPO 1912/1916 VRB20KT 3000 TSRA
                       BKN015 BKN035CB
                      TEMPO 2000/2005 3000 BR=
201906191100 TAF LRCK 191100Z 1912/2012 10010KT CAVOK
                      TEMPO 1912/1917 SCT040CB
                      PROB40 TEMPO 1912/1916 VRB20KT 3000 TSRA
                       BKN015 BKN035CB
                      BECMG 1918/1920 33008KT
                      TEMPO 2000/2004 3000 BR
                      TEMPO 2007/2012 16012KT 5000 -SHRA BKN010
                       SCT035CB=
201906191700 TAF LRCK 191700Z 1918/2018 07010KT CAVOK
                      BECMG 1919/1921 34008KT
                      TEMPO 2000/2004 5000 BR
                      TEMPO 2011/2017 VRB15KT 5000 -TSRA SCT035CB=
201906192300 TAF LRCK 192300Z 2000/2024 33006KT CAVOK
                      TEMPO 2000/2004 5000 BR
                      TEMPO 2011/2017 VRB15KT 5000 -TSRA SCT035CB=
201906200500 TAF LRCK 200500Z 2006/2106 28006KT CAVOK
                      BECMG 2009/2011 10010KT
                      TEMPO 2009/2014 SCT040CB
                      PROB30 TEMPO 2011/2013 3000 TSRA BKN040CB
                       BECMG 2016/2018 VRB04KT=
201906201100 TAF LRCK 201100Z 2012/2112 10012KT 9999 FEW050CB
                      PROB30 TEMPO 2012/2014 27010KT 3000 TSRA
                       BKN040CB
                      BECMG 2014/2016 NSC
                      BECMG 2016/2018 VRB04KT
                      PROB30 TEMPO 2110/2112 5000 -TSRA SCT045CB=
201906201700 TAF LRCK 201700Z 2018/2118 VRB04KT CAVOK
                      BECMG 2109/2111 35012KT
                      TEMPO 2111/2117 5000 -TSRA SCT045CB
                      BECMG 2116/2118 VRB04KT=
201906202300 TAF LRCK 202300Z 2100/2124 VRB04KT CAVOK
                      BECMG 2109/2111 35012KT
                      PROB40 TEMPO 2111/2117 5000 -TSRA SCT045CB
                       BECMG 2116/2118 VRB04KT=
201906210500 TAF LRCK 210500Z 2106/2206 28008KT CAVOK
                      BECMG 2109/2111 35012KT
                      PROB40 TEMPO 2111/2117 5000 -TSRA SCT045CB
                       BECMG 2116/2118 VRB04KT=
201906211100 TAF LRCK 211100Z 2112/2212 30010KT CAVOK
                      PROB30 TEMPO 2113/2117 5000 -TSRA SCT045CB
                       BECMG 2116/2118 VRB04KT=
201906211700 TAF LRCK 211700Z 2118/2218 VRB04KT CAVOK
                      PROB30 TEMPO 2209/2213 VRB18KT 3000 TSRA
                       BKN040CB=
201906212300 TAF LRCK 212300Z 2200/2224 32006KT CAVOK
                      PROB30 TEMPO 2209/2213 VRB18KT 3000 TSRA
                       BKN040CB=
201906220500 TAF LRCK 220500Z 2206/2306 29010KT CAVOK
                      TEMPO 2211/2215 VRB20G30KT 3000 TSRA SCT010
                       BKN035CB
                      BECMG 2214/2216 35007KT=
201906221100 TAF LRCK 221100Z 2212/2312 VRB04KT 9999 SCT045
                      PROB40 TEMPO 2212/2215 VRB18KT 5000 -TSRA
                       SCT045CB
                      TEMPO 2310/2312 VRB18KT 5000 -TSRA SCT045CB=
201906221700 TAF LRCK 221700Z 2218/2318 VRB04KT CAVOK
                      TEMPO 2310/2316 VRB15G25KT 5000 -TSRA SCT040CB=
201906222300 TAF LRCK 222300Z 2300/2324 VRB04KT CAVOK
                      TEMPO 2300/2305 3000 BR
                      TEMPO 2310/2316 VRB15G25KT 5000 -TSRA SCT040CB=
201906230500 TAF LRCK 230500Z 2306/2406 VRB04KT CAVOK
                      PROB30 TEMPO 2312/2316 VRB15G25KT 5000 -TSRA
                       SCT040CB=
201906231100 TAF LRCK 231100Z 2312/2412 VRB04KT CAVOK
                      TEMPO 2312/2316 VRB15G25KT 5000 -TSRA BKN015
                       SCT035CB=
201906231700 TAF LRCK 231700Z 2318/2418 13006KT CAVOK
                      TEMPO 2410/2414 VRB15G25KT 5000 -TSRA SCT040CB
                       BECMG 2414/2416 28010KT=
201906232300 TAF LRCK 232300Z 2400/2424 VRB04KT CAVOK
                      TEMPO 2410/2414 VRB15G25KT 5000 -TSRA SCT040CB
                       BECMG 2414/2416 28010KT
                      BECMG 2421/2423 35010KT=
201906240500 TAF LRCK 240500Z 2406/2506 VRB04KT CAVOK
                      PROB30 TEMPO 2411/2417 VRB15G25KT 5000 -TSRA
                       BKN015 SCT040CB
                      BECMG 2500/2502 01012KT=
201906241100 TAF LRCK 241100Z 2412/2512 VRB04KT CAVOK
                      PROB30 TEMPO 2412/2417 5000 -TSRA BKN015
                       SCT040CB
                      BECMG 2500/2502 01012KT=
201906241700 TAF LRCK 241700Z 2418/2518 35008KT 9999 FEW050CB
                      BECMG 2418/2419 NSC
                      BECMG 2508/2509 FEW040CB
                      TEMPO 2509/2515 VRB20G30KT 5000 TSRA SCT010
                       BKN035CB
                      PROB40 TEMPO 2509/2512 3000 +TSRA
                      BECMG 2516/2518 07010KT NSC=
201906242300 TAF LRCK 242300Z 2500/2524 35008KT CAVOK
                      BECMG 2508/2509 07010KT FEW040CB
                      TEMPO 2509/2515 VRB20G30KT 5000 TSRA SCT010
                       BKN035CB
                      PROB40 TEMPO 2509/2512 3000 +TSRA
                      TEMPO 2516/2518 36010KT NSC=
201906250500 TAF LRCK 250500Z 2506/2606 33010KT CAVOK
                      BECMG 2507/2509 06010KT SCT040CB
                      TEMPO 2509/2515 5000 TSRA SCT010 BKN035CB
                       PROB40
                      TEMPO 2509/2512 VRB28G38KT 1500 SQ +TSRAGR
                       BECMG 2516/2518 CAVOK
                      PROB30 TEMPO 2601/2605 3000 -TSRA BKN005
                       BKN025CB=
201906251100 TAF LRCK 251100Z 2512/2612 33010KT 9999 SCT040CB
                      TEMPO 2512/2517 5000 -TSRA SCT010 BKN035CB
                       PROB30
                      TEMPO 2512/2515 VRB28G38KT 1500 SQ +TSRAGR
                       BECMG 2516/2518 CAVOK
                      PROB30 TEMPO 2601/2605 3000 -TSRA BKN005
                       BKN025CB
                      BECMG 2605/2607 09010KT=
201906251700 TAF LRCK 251700Z 2518/2618 VRB04KT CAVOK
                      BECMG 2605/2607 03012KT
                      PROB30 TEMPO 2611/2615 VRB15G25KT 3000 -TSRA
                       BKN010 BKN025CB
                      BECMG 2616/2618 VRB03KT=
201906252300 TAF LRCK 252300Z 2600/2624 34010KT CAVOK
                      PROB30 TEMPO 2611/2615 VRB15G25KT 3000 -TSRA
                       BKN010 BKN025CB
                      BECMG 2616/2618 VRB03KT=
201906260500 TAF LRCK 260500Z 2606/2706 02012KT CAVOK
                      BECMG 2608/2610 SCT045CB
                      PROB40 TEMPO 2610/2615 VRB20G30KT 5000 TSRA
                       SCT015 BKN035CB
                      BECMG 2616/2618 VRB04KT SCT040=
201906261100 TAF LRCK 261100Z 2612/2712 04014KT 9999 SCT045
                      PROB30 TEMPO 2612/2616 VRB20G30KT 5000 TSRA
                       SCT015 SCT040CB
                      BECMG 2616/2618 VRB04KT
                      BECMG 2706/2708 27010KT=
201906261700 TAF LRCK 261700Z 2618/2718 08008KT CAVOK
                      BECMG 2706/2708 21010KT=
201906262300 TAF LRCK 262300Z 2700/2724 08008KT CAVOK
                      BECMG 2706/2708 21010KT
                      BECMG 2718/2720 33015KT
                      TEMPO 2720/2724 33020G30KT=
201906270500 TAF LRCK 270500Z 2706/2806 28008KT CAVOK
                      TEMPO 2720/2724 35020G30KT
                      BECMG 2800/2802 36012KT
                      TEMPO 2803/2806 5000 -SHRA SCT045CB=
201906271100 TAF LRCK 271100Z 2712/2812 27008KT CAVOK
                      TEMPO 2720/2724 35020G30KT
                      BECMG 2800/2802 35012KT
                      TEMPO 2802/2806 5000 TSRA SCT045CB
                      TEMPO 2808/2812 35015G25KT=
201906271700 TAF LRCK 271700Z 2718/2818 28008KT CAVOK
                      TEMPO 2718/2723 32025G35KT 3000 TSRA SCT015
                       BKN040CB
                      BECMG 2723/2801 35012KT
                      TEMPO 2808/2815 35017G27KT=
201906272300 TAF LRCK 272300Z 2800/2824 35012KT CAVOK
                      TEMPO 2808/2815 35017G27KT=
201906280500 TAF LRCK 280500Z 2806/2906 34015KT CAVOK
                      TEMPO 2811/2816 SCT040CB=
201906281100 TAF LRCK 281100Z 2812/2912 33012KT CAVOK
                      PROB30 TEMPO 2812/2816 SCT040CB=
201906281700 TAF LRCK 281700Z 2818/2918 34012KT 9999 FEW050CB
                      BECMG 2819/2821 NSC
                      TEMPO 2906/2915 33015G25KT=
201906282300 TAF LRCK 282300Z 2900/2924 34015KT CAVOK
                      TEMPO 2908/2916 33015G25KT=
201906290500 TAF LRCK 290500Z 2906/3006 34012KT CAVOK
                      TEMPO 2908/2917 33015G25KT
                      PROB40 TEMPO 2912/2917 SCT040CB=
201906291100 TAF LRCK 291100Z 2912/3012 33012KT CAVOK
                      TEMPO 2912/2917 34015G25KT
                      PROB40 TEMPO 2914/2917 SCT040CB=
201906291700 TAF LRCK 291700Z 2918/3018 32010KT CAVOK=
201906292300 TAF LRCK 292300Z 3000/3024 33008KT CAVOK=
201906300500 TAF LRCK 300500Z 3006/0106 33014KT CAVOK
                      BECMG 3019/3021 VRB04KT=
201906301100 TAF LRCK 301100Z 3012/0112 34014KT CAVOK
                      BECMG 3019/3021 VRB03KT=
201906301700 TAF LRCK 301700Z 3018/0118 30006KT CAVOK
                      BECMG 0116/0118 17010KT=
201906302300 TAF LRCK 302300Z 0100/0124 23006KT CAVOK
                      BECMG 0116/0118 17010KT=
