201906010000 METAR LRCK 010000Z 29010KT 9999 SCT018 BKN031 18/17 Q1015
                        NOSIG=
201906010030 METAR LRCK 010030Z 30010KT 9999 BKN018 BKN026 18/17 Q1015
                        NOSIG=
201906010100 METAR LRCK 010100Z 31008KT 9999 BKN019 18/17 Q1014 NOSIG=
201906010130 METAR COR LRCK 010130Z 32009KT 9999 SCT019 18/17 Q1014 NOSIG=
201906010200 METAR LRCK 010200Z 34010KT 9999 FEW023 17/16 Q1014 NOSIG=
201906010230 METAR COR LRCK 010230Z 34011KT CAVOK 17/16 Q1014 NOSIG=
201906010300 METAR LRCK 010300Z 33010KT CAVOK 17/16 Q1014 NOSIG=
201906010330 METAR LRCK 010330Z 34012KT CAVOK 18/16 Q1014 NOSIG=
201906010400 METAR LRCK 010400Z 34011KT CAVOK 18/16 Q1014 NOSIG=
201906010430 METAR LRCK 010430Z 35012KT 9999 FEW020 19/17 Q1015 NOSIG=
201906010500 METAR LRCK 010500Z 35009KT 9999 FEW020 21/17 Q1015 NOSIG=
201906010530 METAR LRCK 010530Z 34005KT 9999 SCT021 21/17 Q1015 NOSIG=
201906010600 METAR LRCK 010600Z 30004KT 260V330 9999 BKN022 22/18 Q1015
                        NOSIG=
201906010630 METAR LRCK 010630Z 26009KT 9999 BKN022 21/18 Q1015 NOSIG=
201906010700 METAR LRCK 010700Z 27008KT 240V300 9999 BKN024 23/18 Q1015
                        NOSIG=
201906010730 METAR LRCK 010730Z 28009KT 240V310 9999 SCT022 23/18 Q1015
                        NOSIG=
201906010800 METAR LRCK 010800Z 28009KT 9999 SCT022 23/18 Q1015 NOSIG=
201906010830 METAR LRCK 010830Z 27009KT 240V300 9999 BKN022 23/18 Q1016
                        NOSIG=
201906010900 METAR LRCK 010900Z 27010KT 250V310 9999 BKN021 25/19 Q1016
                        NOSIG=
201906010930 METAR LRCK 010930Z 30010KT 9999 SCT022 25/17 Q1016 NOSIG=
201906011000 METAR LRCK 011000Z 31009KT 270V340 9999 SCT029 26/18 Q1015
                        NOSIG=
201906011030 METAR LRCK 011030Z 30009KT 260V350 9999 SCT030 26/16 Q1015
                        NOSIG=
201906011100 METAR LRCK 011100Z 31008KT 270V350 9999 SCT037 27/17 Q1015
                        NOSIG=
201906011130 METAR LRCK 011130Z 31007KT 270V020 9999 SCT038 27/17 Q1015
                        NOSIG=
201906011200 METAR LRCK 011200Z 29007KT 250V340 9999 SCT042 28/17 Q1015
                        NOSIG=
201906011230 METAR LRCK 011230Z 31010KT 280V340 9999 SCT044 28/17 Q1015
                        NOSIG=
201906011300 METAR LRCK 011300Z 30009KT 270V330 9999 FEW044 28/17 Q1015
                        NOSIG=
201906011330 METAR LRCK 011330Z 29009KT 9999 FEW045 28/16 Q1014 NOSIG=
201906011400 METAR LRCK 011400Z 12006KT 070V160 9999 FEW049 27/19 Q1014
                        NOSIG=
201906011430 METAR LRCK 011430Z 14008KT 9999 SCT041 25/19 Q1014 NOSIG=
201906011500 METAR LRCK 011500Z 14006KT 9999 FEW042 25/19 Q1014 NOSIG=
201906011530 METAR LRCK 011530Z 13006KT 9999 SCT044 25/19 Q1014 NOSIG=
201906011600 METAR LRCK 011600Z 15006KT 9999 FEW043 25/19 Q1014 NOSIG=
201906011630 METAR LRCK 011630Z 27005KT 160V330 9999 SCT046 24/19 Q1014
                        NOSIG=
201906011700 METAR LRCK 011700Z 30008KT 9999 FEW047 24/18 Q1014 NOSIG=
201906011730 METAR LRCK 011730Z 31005KT 9999 FEW049 24/17 Q1014 NOSIG=
201906011800 METAR LRCK 011800Z 30006KT CAVOK 23/17 Q1014 NOSIG=
201906011830 METAR LRCK 011830Z 30007KT CAVOK 21/17 Q1015 NOSIG=
201906011900 METAR LRCK 011900Z 30008KT CAVOK 21/17 Q1015 NOSIG=
201906011930 METAR LRCK 011930Z 29007KT CAVOK 20/17 Q1015 NOSIG=
201906012000 METAR LRCK 012000Z 33009KT 9999 FEW049 21/17 Q1015 NOSIG=
201906012030 METAR LRCK 012030Z 33009KT 9999 FEW049 21/16 Q1015 NOSIG=
201906012100 METAR LRCK 012100Z 33009KT 9999 SCT049 21/16 Q1016 NOSIG=
201906012130 METAR LRCK 012130Z 34008KT 9999 SCT049 20/16 Q1015 NOSIG=
201906012200 METAR LRCK 012200Z 35011KT 9999 FEW049 19/16 Q1015 NOSIG=
201906012230 METAR LRCK 012230Z 35011KT 9999 FEW049 19/16 Q1015 NOSIG=
201906012300 METAR LRCK 012300Z 34010KT CAVOK 18/16 Q1015 NOSIG=
201906012330 METAR LRCK 012330Z 34008KT CAVOK 18/16 Q1015 NOSIG=
201906020000 METAR LRCK 020000Z 35010KT CAVOK 18/16 Q1015 NOSIG=
201906020030 METAR LRCK 020030Z 34009KT CAVOK 17/15 Q1015 NOSIG=
201906020100 METAR LRCK 020100Z 33007KT CAVOK 17/15 Q1015 NOSIG=
201906020130 METAR LRCK 020130Z 31007KT CAVOK 17/15 Q1015 NOSIG=
201906020200 METAR LRCK 020200Z 31004KT CAVOK 16/15 Q1015 NOSIG=
201906020230 METAR LRCK 020230Z 27003KT 190V310 CAVOK 15/14 Q1015 NOSIG=
201906020300 METAR LRCK 020300Z 27004KT CAVOK 17/15 Q1015 NOSIG=
201906020330 METAR LRCK 020330Z 30005KT 270V330 CAVOK 17/15 Q1015 NOSIG=
201906020400 METAR LRCK 020400Z 31005KT CAVOK 17/14 Q1015 NOSIG=
201906020430 METAR LRCK 020430Z 34005KT CAVOK 19/14 Q1015 NOSIG=
201906020500 METAR LRCK 020500Z 33005KT CAVOK 20/15 Q1015 NOSIG=
201906020530 METAR LRCK 020530Z 32006KT CAVOK 21/14 Q1015 NOSIG=
201906020600 METAR LRCK 020600Z 32006KT CAVOK 22/15 Q1015 NOSIG=
201906020630 METAR LRCK 020630Z 33006KT 300V010 CAVOK 23/15 Q1015 NOSIG=
201906020700 METAR LRCK 020700Z 34005KT 270V020 CAVOK 24/15 Q1016 NOSIG=
201906020730 METAR LRCK 020730Z 01007KT CAVOK 25/16 Q1016 NOSIG=
201906020800 METAR LRCK 020800Z 33006KT 310V010 CAVOK 25/16 Q1015 NOSIG=
201906020830 METAR LRCK 020830Z VRB04KT CAVOK 26/16 Q1015 NOSIG=
201906020900 METAR LRCK 020900Z 03007KT 9999 FEW040 28/16 Q1015 NOSIG=
201906020930 METAR LRCK 020930Z 33007KT 9999 SCT045 27/16 Q1015 NOSIG=
201906021000 METAR LRCK 021000Z 07006KT 030V100 9999 SCT045 27/17 Q1015
                        NOSIG=
201906021030 METAR LRCK 021030Z 08007KT 060V120 9999 FEW045 28/18 Q1015
                        NOSIG=
201906021100 METAR LRCK 021100Z 07009KT 030V100 9999 FEW048 28/17 Q1015
                        NOSIG=
201906021130 METAR LRCK 021130Z 10010KT 9999 FEW049 28/18 Q1014 NOSIG=
201906021200 METAR LRCK 021200Z 11011KT 9999 VCTS FEW050CB 26/19 Q1014
                        NOSIG=
201906021230 METAR LRCK 021230Z 09010KT 9999 VCTS SCT043 FEW050CB 26/18
                        Q1014 NOSIG=
201906021300 METAR LRCK 021300Z 09009KT 9999 VCTS SCT045 FEW050CB 25/18
                        Q1014 NOSIG=
201906021330 METAR LRCK 021330Z 09007KT 9999 FEW050CB 24/18 Q1014 NOSIG=
201906021400 METAR LRCK 021400Z 07008KT 9999 FEW050CB 25/18 Q1014 NOSIG=
201906021430 METAR LRCK 021430Z 08006KT 9999 FEW050CB 26/18 Q1013 NOSIG=
201906021500 METAR LRCK 021500Z 09006KT 9999 FEW050CB 24/18 Q1013 NOSIG=
201906021530 METAR LRCK 021530Z 13006KT 9999 FEW050CB 24/18 Q1013 NOSIG=
201906021600 METAR LRCK 021600Z 10006KT 9999 FEW050CB 23/18 Q1013 NOSIG=
201906021630 METAR LRCK 021630Z 12007KT CAVOK 22/18 Q1013 NOSIG=
201906021700 METAR LRCK 021700Z 14005KT CAVOK 22/19 Q1013 NOSIG=
201906021730 METAR LRCK 021730Z VRB02KT CAVOK 21/19 Q1013 NOSIG=
201906021800 METAR LRCK 021800Z VRB02KT CAVOK 21/19 Q1013 NOSIG=
201906021830 METAR LRCK 021830Z 00000KT CAVOK 21/19 Q1013 NOSIG=
201906021900 METAR LRCK 021900Z 00000KT CAVOK 20/18 Q1013 NOSIG=
201906021930 METAR LRCK 021930Z 00000KT CAVOK 20/18 Q1013 NOSIG=
201906022000 METAR LRCK 022000Z 00000KT CAVOK 20/18 Q1013 NOSIG=
201906022030 METAR LRCK 022030Z 16003KT CAVOK 20/18 Q1013 NOSIG=
201906022100 METAR LRCK 022100Z 00000KT CAVOK 20/18 Q1013 NOSIG=
201906022130 METAR LRCK 022130Z 18004KT CAVOK 20/18 Q1013 NOSIG=
201906022200 METAR LRCK 022200Z 30002KT CAVOK 20/18 Q1013 NOSIG=
201906022230 METAR LRCK 022230Z 00000KT CAVOK 19/18 Q1013 NOSIG=
201906022300 METAR LRCK 022300Z 26004KT CAVOK 19/18 Q1013 NOSIG=
201906022330 METAR LRCK 022330Z 27003KT CAVOK 19/18 Q1013 NOSIG=
201906030000 METAR LRCK 030000Z 27004KT 250V310 CAVOK 18/18 Q1013 NOSIG=
201906030030 METAR LRCK 030030Z 29004KT CAVOK 19/18 Q1013 NOSIG=
201906030100 METAR LRCK 030100Z 28004KT CAVOK 18/18 Q1012 NOSIG=
201906030130 METAR LRCK 030130Z 27004KT CAVOK 18/17 Q1012 NOSIG=
201906030200 METAR LRCK 030200Z 27003KT 8000 NSC 18/17 Q1012 NOSIG=
201906030230 METAR LRCK 030230Z 34005KT 7000 NSC 18/17 Q1012 NOSIG=
201906030300 METAR LRCK 030300Z 01004KT 350V050 5000 BR NSC 17/17 Q1012
                        NOSIG=
201906030330 METAR LRCK 030330Z 02005KT 5000 BR NSC 19/18 Q1012 NOSIG=
201906030400 METAR LRCK 030400Z 02004KT 7000 NSC 20/19 Q1012 NOSIG=
201906030430 METAR LRCK 030430Z 05007KT 9999 SCT014 21/19 Q1012 NOSIG=
201906030500 METAR LRCK 030500Z 07008KT 9999 BKN010 20/19 Q1013 NOSIG=
201906030530 METAR LRCK 030530Z 09008KT 9999 BKN010 20/18 Q1013 NOSIG=
201906030600 METAR LRCK 030600Z 09005KT 9999 SCT011 22/19 Q1013 NOSIG=
201906030630 METAR LRCK 030630Z 13004KT 080V170 9999 BKN012 23/19 Q1013
                        NOSIG=
201906030700 METAR LRCK 030700Z 14005KT 100V170 9999 FEW014 SCT021 23/19
                        Q1013 NOSIG=
201906030730 METAR LRCK 030730Z 09005KT 060V130 9999 SCT020 SCT031 24/18
                        Q1013 NOSIG=
201906030800 METAR LRCK 030800Z VRB02KT 9999 FEW021 SCT034 24/18 Q1013
                        NOSIG=
201906030830 METAR LRCK 030830Z 14005KT 080V180 9999 SCT028 25/18 Q1013
                        NOSIG=
201906030900 METAR LRCK 030900Z 12007KT 090V150 9999 FEW026 SCT029 25/19
                        Q1013 NOSIG=
201906030930 METAR LRCK 030930Z 15006KT 9999 SCT026 26/19 Q1013 NOSIG=
201906031000 METAR LRCK 031000Z 14008KT 9999 FEW028 26/18 Q1013 NOSIG=
201906031030 METAR LRCK 031030Z 14011KT 9999 FEW030 26/20 Q1013 NOSIG=
201906031100 METAR LRCK 031100Z 13010KT 110V170 9999 FEW030 FEW040TCU
                        25/19 Q1013 NOSIG=
201906031130 METAR LRCK 031130Z 13009KT 090V150 9999 FEW030 26/19 Q1013
                        NOSIG=
201906031200 METAR LRCK 031200Z 13012KT 9999 FEW028 25/19 Q1013 NOSIG=
201906031230 METAR LRCK 031230Z 13015KT 9999 FEW031 25/19 Q1012 NOSIG=
201906031300 METAR LRCK 031300Z 13013KT 9999 FEW032 25/19 Q1012 NOSIG=
201906031330 METAR LRCK 031330Z 14014KT 9999 FEW035 25/19 Q1012 NOSIG=
201906031400 METAR LRCK 031400Z 14013KT 9999 FEW035 25/18 Q1012 NOSIG=
201906031430 METAR LRCK 031430Z 15013KT 9999 FEW040CB 25/17 Q1012 NOSIG=
201906031500 METAR LRCK 031500Z 14012KT 9999 FEW040CB 25/17 Q1012 NOSIG=
201906031530 METAR LRCK 031530Z 13011KT 9999 FEW045CB 24/17 Q1012 NOSIG=
201906031600 METAR LRCK 031600Z 14011KT 9999 FEW045CB 23/18 Q1012 NOSIG=
201906031630 METAR LRCK 031630Z 15010KT 9999 FEW048CB 22/17 Q1012 NOSIG=
201906031700 METAR LRCK 031700Z 16008KT 9999 FEW049 21/17 Q1012 NOSIG=
201906031730 METAR LRCK 031730Z 16009KT 9999 FEW049 20/17 Q1013 NOSIG=
201906031800 METAR LRCK 031800Z 16007KT 8000 NSC 19/18 Q1013 NOSIG=
201906031830 METAR LRCK 031830Z 12006KT 4000 BR NSC 19/18 Q1013 TEMPO
                        3000 BR=
201906031900 METAR LRCK 031900Z 15006KT 3000 BR NSC 18/17 Q1014 NOSIG=
201906031930 METAR LRCK 031930Z 16007KT 3000 BR NSC 18/17 Q1014 NOSIG=
201906032000 METAR LRCK 032000Z 13004KT 2000 BR NSC 18/18 Q1014 TEMPO
                        1500 BR=
201906032030 METAR LRCK 032030Z 07004KT 2000 BR NSC 17/16 Q1014 TEMPO
                        1500 BR=
201906032100 METAR LRCK 032100Z 10007KT 2000 BR FEW005 18/17 Q1014 TEMPO
                        1500 BR BKN005=
201906032130 METAR LRCK 032130Z 13007KT 2000 BR FEW004 SCT040 18/18 Q1014
                        TEMPO 1500 BR BKN005=
201906032200 METAR LRCK 032200Z 12005KT 1500 BR FEW005 SCT040 18/18 Q1013
                        NOSIG=
201906032230 METAR LRCK 032230Z 12004KT 2000 BR FEW005 BKN040 18/18 Q1013
                        NOSIG=
201906032300 METAR LRCK 032300Z 09003KT 2000 BR FEW005 BKN040 18/17 Q1013
                        NOSIG=
201906032330 METAR LRCK 032330Z 10004KT 1200 R36/1200D BR SCT038 17/17
                        Q1013 NOSIG=
201906040000 METAR COR LRCK 040000Z 13004KT 0600 R36/0400N FG OVC003 17/17
                        Q1013 NOSIG=
201906040030 METAR LRCK 040030Z 13006KT 0500 R36/0650N FG OVC002 17/17
                        Q1013 NOSIG=
201906040100 METAR LRCK 040100Z 16006KT 1500 BR FEW042 18/18 Q1013 BECMG
                        3000=
201906040130 METAR LRCK 040130Z 16007KT 1500 BR FEW044 18/18 Q1013 BECMG
                        3000=
201906040200 METAR LRCK 040200Z 16005KT 1500 BR FEW047 18/18 Q1012 BECMG
                        3000=
201906040230 METAR LRCK 040230Z 16006KT 1200 BR SCT047 18/18 Q1013 NOSIG=
201906040300 METAR LRCK 040300Z 17004KT 1200 BR FEW048 18/18 Q1013 NOSIG=
201906040330 METAR LRCK 040330Z VRB02KT 1200 BR BKN001 18/18 Q1013 NOSIG=
201906040400 METAR LRCK 040400Z 01004KT 1200 BR BKN001 FEW030CB 18/18
                        Q1013 NOSIG=
201906040430 METAR LRCK 040430Z 03002KT 1500 BR BKN002 19/19 Q1013 NOSIG=
201906040500 METAR LRCK 040500Z 18007KT 2000 BR BKN005 20/19 Q1014 NOSIG=
201906040530 METAR COR LRCK 040530Z 22006KT 3000 BR SCT006 SCT021 20/19
                        Q1014 BECMG 9999 NSW=
201906040600 METAR LRCK 040600Z VRB01KT 5000 BR FEW008 SCT023 21/18 Q1014
                        BECMG 9999 NSW=
201906040630 METAR LRCK 040630Z 19004KT 170V230 8000 VCTS FEW015 FEW045CB
                        22/17 Q1014 NOSIG=
201906040700 METAR LRCK 040700Z 23003KT 150V290 9999 VCTS FEW022 SCT047
                        FEW050CB 24/16 Q1014 NOSIG=
201906040730 METAR LRCK 040730Z 20009KT 170V230 9999 SCT027 FEW050CB 23/14
                        Q1014 NOSIG=
201906040800 METAR LRCK 040800Z 22009KT 9999 FEW036 SCT050CB 22/11 Q1014
                        NOSIG=
201906040830 METAR LRCK 040830Z 21006KT 9999 -SHRA SCT040 SCT045CB 21/12
                        Q1014 NOSIG=
201906040900 METAR LRCK 040900Z 12006KT 9999 -SHRA SCT045CB 20/16 Q1014
                        NOSIG=
201906040930 METAR LRCK 040930Z 10005KT 070V160 9999 FEW050CB 21/15 Q1015
                        R18/19//95 NOSIG=
201906041000 METAR LRCK 041000Z 10005KT 070V160 9999 FEW050CB 21/15 Q1015
                        R18/19//95 NOSIG=
201906041030 METAR LRCK 041030Z 07004KT 360V120 9999 FEW049 23/13 Q1014
                        R18/19//95 NOSIG=
201906041100 METAR LRCK 041100Z 10007KT 9999 FEW045 24/14 Q1014 R18/CLRD//
                        NOSIG=
201906041130 METAR LRCK 041130Z 12005KT 080V190 9999 FEW045 25/14 Q1013
                        NOSIG=
201906041200 METAR LRCK 041200Z 15010KT 110V170 9999 FEW045 25/13 Q1013
                        NOSIG=
201906041230 METAR LRCK 041230Z 13011KT 9999 FEW048 24/14 Q1013 NOSIG=
201906041300 METAR LRCK 041300Z 13010KT 100V160 9999 FEW050CB 24/14 Q1013
                        NOSIG=
201906041330 METAR LRCK 041330Z 12010KT 9999 FEW050CB 23/15 Q1013 NOSIG=
201906041400 METAR LRCK 041400Z 14012KT 9999 FEW050CB 23/15 Q1013 NOSIG=
201906041430 METAR LRCK 041430Z 13013KT 9999 FEW050CB 24/14 Q1013 NOSIG=
201906041500 METAR LRCK 041500Z 15013KT 9999 FEW050CB 23/15 Q1013 NOSIG=
201906041530 METAR LRCK 041530Z 15012KT 9999 FEW050CB 23/15 Q1013 NOSIG=
201906041600 METAR LRCK 041600Z 16014KT 9999 FEW049 22/14 Q1013 NOSIG=
201906041630 METAR LRCK 041630Z 17012KT 9999 FEW050CB 22/15 Q1013 NOSIG=
201906041700 METAR LRCK 041700Z 17010KT 9999 FEW050CB 20/15 Q1013 NOSIG=
201906041730 METAR LRCK 041730Z 17008KT 9999 FEW050CB 20/15 Q1013 NOSIG=
201906041800 METAR LRCK 041800Z 16006KT CAVOK 18/15 Q1013 NOSIG=
201906041830 METAR LRCK 041830Z 17007KT CAVOK 17/15 Q1014 NOSIG=
201906041900 METAR LRCK 041900Z 16007KT CAVOK 16/15 Q1014 NOSIG=
201906041930 METAR LRCK 041930Z 15006KT CAVOK 16/15 Q1014 NOSIG=
201906042000 METAR LRCK 042000Z 19006KT CAVOK 15/14 Q1014 NOSIG=
201906042030 METAR LRCK 042030Z 15005KT CAVOK 16/15 Q1014 NOSIG=
201906042100 METAR LRCK 042100Z 14006KT CAVOK 15/14 Q1014 NOSIG=
201906042130 METAR LRCK 042130Z 16006KT CAVOK 15/14 Q1014 NOSIG=
201906042200 METAR LRCK 042200Z 16005KT 8000 NSC 14/14 Q1014 NOSIG=
201906042230 METAR LRCK 042230Z 16004KT 7000 NSC 15/15 Q1014 BECMG 5000
                        BR=
201906042300 METAR COR LRCK 042300Z 16002KT 6000 NSC 15/15 Q1014 BECMG
                        5000 BR=
201906042330 METAR LRCK 042330Z 13003KT 6000 NSC 16/15 Q1014 BECMG 5000
                        BR=
201906050000 METAR LRCK 050000Z 16004KT 5000 BR NSC 16/16 Q1014 TEMPO
                        3000 BR=
201906050030 METAR LRCK 050030Z 15005KT 4000 BR NSC 16/15 Q1014 TEMPO
                        3000 BR=
201906050100 METAR COR LRCK 050100Z 07003KT 040V110 3000 BR NSC 16/16
                        Q1013 TEMPO 1500 BR=
201906050130 METAR LRCK 050130Z 06005KT 2000 BCFG BR NSC 14/14 Q1013 TEMPO
                        0800 FG=
201906050200 METAR LRCK 050200Z 04005KT 2500 BR NSC 14/14 Q1013 TEMPO
                        1500 BR=
201906050230 METAR LRCK 050230Z 09003KT 1500 MIFG BR NSC 15/15 Q1013 TEMPO
                        0800 FG=
201906050300 METAR LRCK 050300Z 00000KT 3000 BR NSC 15/15 Q1013 TEMPO
                        1500 BR=
201906050330 METAR LRCK 050330Z 00000KT 3000 BR NSC 16/16 Q1013 TEMPO
                        1500 BR=
201906050400 METAR LRCK 050400Z 05003KT 3000 BR NSC 19/18 Q1014 NOSIG=
201906050430 METAR COR LRCK 050430Z 09003KT 4000 BR FEW008 20/18 Q1014
                        BECMG 5000=
201906050500 METAR LRCK 050500Z 06004KT 5000 BR BKN007 20/18 Q1014 BECMG
                        9999 NSW=
201906050530 METAR LRCK 050530Z 11004KT 9999 SCT007 SCT013 20/19 Q1014
                        NOSIG=
201906050600 METAR COR LRCK 050600Z 10003KT 050V150 9999 SCT012 SCT022
                        20/18 Q1014 NOSIG=
201906050630 METAR LRCK 050630Z 10006KT 060V140 9999 SCT019 23/17 Q1014
                        NOSIG=
201906050700 METAR LRCK 050700Z 10006KT 070V150 9999 SCT021 23/17 Q1014
                        NOSIG=
201906050730 METAR LRCK 050730Z 12007KT 9999 SCT024 24/18 Q1014 NOSIG=
201906050800 METAR LRCK 050800Z 10005KT 060V150 9999 SCT030 23/17 Q1014
                        NOSIG=
201906050830 METAR LRCK 050830Z 10005KT 060V150 9999 SCT030 23/17 Q1014
                        NOSIG=
201906050900 METAR LRCK 050900Z 10006KT 060V140 9999 SCT034 25/15 Q1015
                        NOSIG=
201906050930 METAR LRCK 050930Z 10010KT 070V130 9999 SCT034 25/17 Q1015
                        NOSIG=
201906051000 METAR LRCK 051000Z 10010KT 9999 FEW035 25/16 Q1014 NOSIG=
201906051030 METAR LRCK 051030Z 10010KT 9999 FEW035 25/14 Q1014 NOSIG=
201906051100 METAR LRCK 051100Z 10010KT 9999 FEW040 25/15 Q1014 NOSIG=
201906051130 METAR LRCK 051130Z 11011KT 9999 FEW040CB 25/14 Q1014 NOSIG=
201906051200 METAR LRCK 051200Z 12013KT 9999 FEW040CB 25/16 Q1014 NOSIG=
201906051230 METAR LRCK 051230Z 11012KT 9999 FEW045CB 24/16 Q1014 NOSIG=
201906051300 METAR LRCK 051300Z 12012KT 9999 FEW045CB 25/17 Q1014 NOSIG=
201906051330 METAR LRCK 051330Z 14012KT 100V160 9999 FEW045CB 24/17 Q1014
                        NOSIG=
201906051400 METAR LRCK 051400Z 14011KT 9999 FEW026 24/17 Q1014 NOSIG=
201906051430 METAR LRCK 051430Z 14011KT 9999 FEW026 24/18 Q1013 NOSIG=
201906051500 METAR LRCK 051500Z 12010KT 9999 FEW026 24/18 Q1013 NOSIG=
201906051530 METAR LRCK 051530Z 13011KT CAVOK 23/17 Q1013 NOSIG=
201906051600 METAR LRCK 051600Z 14010KT CAVOK 23/18 Q1013 NOSIG=
201906051630 METAR LRCK 051630Z 13010KT CAVOK 22/18 Q1013 NOSIG=
201906051700 METAR LRCK 051700Z 13008KT CAVOK 22/18 Q1013 NOSIG=
201906051730 METAR LRCK 051730Z 13006KT CAVOK 21/18 Q1013 NOSIG=
201906051800 METAR LRCK 051800Z 16006KT CAVOK 19/17 Q1014 NOSIG=
201906051830 METAR LRCK 051830Z 17007KT CAVOK 19/16 Q1014 NOSIG=
201906051900 METAR LRCK 051900Z 17006KT CAVOK 18/16 Q1014 NOSIG=
201906051930 METAR LRCK 051930Z 21004KT CAVOK 17/16 Q1015 NOSIG=
201906052000 METAR LRCK 052000Z 08003KT 040V120 CAVOK 17/16 Q1015 NOSIG=
201906052030 METAR LRCK 052030Z 09003KT CAVOK 17/16 Q1015 NOSIG=
201906052100 METAR LRCK 052100Z 17006KT CAVOK 18/17 Q1015 NOSIG=
201906052130 METAR LRCK 052130Z 16007KT CAVOK 17/15 Q1014 NOSIG=
201906052200 METAR LRCK 052200Z 23006KT CAVOK 16/15 Q1014 NOSIG=
201906052230 METAR LRCK 052230Z 22006KT CAVOK 16/15 Q1014 NOSIG=
201906052300 METAR LRCK 052300Z 24006KT CAVOK 16/15 Q1014 NOSIG=
201906052330 METAR LRCK 052330Z 26005KT CAVOK 16/15 Q1014 NOSIG=
201906060000 METAR LRCK 060000Z 27004KT CAVOK 16/15 Q1014 NOSIG=
201906060030 METAR LRCK 060030Z 27006KT CAVOK 16/15 Q1014 NOSIG=
201906060100 METAR LRCK 060100Z 27006KT CAVOK 15/14 Q1014 NOSIG=
201906060130 METAR LRCK 060130Z 28008KT 8000 NSC 16/15 Q1014 NOSIG=
201906060200 METAR LRCK 060200Z 28006KT 7000 NSC 15/15 Q1014 NOSIG=
201906060230 METAR LRCK 060230Z 27006KT 5000 BR NSC 15/14 Q1014 NOSIG=
201906060300 METAR LRCK 060300Z 27005KT 6000 NSC 16/16 Q1014 NOSIG=
201906060330 METAR LRCK 060330Z 03005KT 290V050 5000 BR NSC 16/16 Q1015
                        NOSIG=
201906060400 METAR LRCK 060400Z 03004KT 7000 NSC 17/16 Q1015 NOSIG=
201906060430 METAR LRCK 060430Z 06004KT CAVOK 19/17 Q1015 NOSIG=
201906060500 METAR LRCK 060500Z 07005KT CAVOK 20/16 Q1015 NOSIG=
201906060530 METAR LRCK 060530Z 08004KT CAVOK 22/15 Q1015 NOSIG=
201906060600 METAR LRCK 060600Z 12003KT 080V150 CAVOK 23/15 Q1015 NOSIG=
201906060630 METAR LRCK 060630Z 15003KT 100V230 CAVOK 24/15 Q1016 NOSIG=
201906060700 METAR LRCK 060700Z VRB05KT CAVOK 24/16 Q1016 NOSIG=
201906060730 METAR LRCK 060730Z 15005KT 080V210 CAVOK 25/16 Q1015 NOSIG=
201906060800 METAR LRCK 060800Z 16005KT 120V220 CAVOK 25/17 Q1015 NOSIG=
201906060830 METAR LRCK 060830Z VRB04KT 9999 FEW030 25/18 Q1015 NOSIG=
201906060900 METAR LRCK 060900Z 15008KT 9999 FEW035 26/17 Q1016 NOSIG=
201906060930 METAR LRCK 060930Z 16008KT 110V190 9999 FEW040 26/17 Q1015
                        NOSIG=
201906061000 METAR LRCK 061000Z 14008KT 9999 FEW045CB 28/17 Q1015 NOSIG=
201906061030 METAR LRCK 061030Z 12009KT 100V160 9999 FEW045CB 27/17 Q1015
                        NOSIG=
201906061100 METAR LRCK 061100Z 12008KT 060V150 9999 FEW045CB 28/16 Q1015
                        NOSIG=
201906061130 METAR LRCK 061130Z 12010KT 9999 FEW048CB 27/17 Q1015 NOSIG=
201906061200 METAR LRCK 061200Z 12011KT 9999 FEW048CB 27/16 Q1015 NOSIG=
201906061230 METAR LRCK 061230Z 14012KT 9999 TS SCT045CB 25/15 Q1015 TEMPO
                        VRB15G25KT 5000 -TSRA=
201906061300 METAR LRCK 061300Z 14010KT 9999 VCTS SCT045CB 24/17 Q1015
                        TEMPO VRB15G25KT 5000 -TSRA=
201906061330 METAR LRCK 061330Z 14007KT 9999 VCTS FEW048CB 23/17 Q1015
                        NOSIG=
201906061400 METAR LRCK 061400Z 12008KT 9999 VCTS FEW050CB 23/17 Q1015
                        NOSIG=
201906061430 METAR LRCK 061430Z 13008KT 9999 FEW050CB 23/17 Q1015 NOSIG=
201906061500 METAR LRCK 061500Z 14009KT 9999 FEW050CB 23/18 Q1015 NOSIG=
201906061530 METAR LRCK 061530Z 16007KT 9999 VCTS FEW050CB 24/17 Q1015
                        NOSIG=
201906061600 METAR COR LRCK 061600Z 15008KT 9999 FEW050CB 23/17 Q1015
                        NOSIG=
201906061630 METAR LRCK 061630Z 14007KT 9999 FEW050CB 23/17 Q1015 NOSIG=
201906061700 METAR LRCK 061700Z 15007KT 9999 FEW050CB 23/16 Q1015 NOSIG=
201906061730 METAR LRCK 061730Z 16007KT 9999 FEW050CB 22/17 Q1015 NOSIG=
201906061800 METAR LRCK 061800Z 16006KT 9999 FEW050CB 21/17 Q1015 NOSIG=
201906061830 METAR LRCK 061830Z 16006KT 9999 FEW050CB 20/17 Q1016 NOSIG=
201906061900 METAR LRCK 061900Z 15005KT 9999 FEW050CB 20/17 Q1016 NOSIG=
201906061930 METAR LRCK 061930Z 16006KT CAVOK 19/18 Q1016 NOSIG=
201906062000 METAR LRCK 062000Z 19007KT CAVOK 19/17 Q1016 NOSIG=
201906062030 METAR LRCK 062030Z 19007KT CAVOK 19/17 Q1016 NOSIG=
201906062100 METAR LRCK 062100Z 21008KT CAVOK 19/16 Q1016 NOSIG=
201906062130 METAR LRCK 062130Z 21006KT CAVOK 18/16 Q1016 NOSIG=
201906062200 METAR LRCK 062200Z 21007KT CAVOK 18/15 Q1015 NOSIG=
201906062230 METAR LRCK 062230Z 22006KT CAVOK 17/15 Q1016 NOSIG=
201906062300 METAR LRCK 062300Z 25003KT CAVOK 16/15 Q1015 NOSIG=
201906062330 METAR LRCK 062330Z 26006KT CAVOK 16/15 Q1015 NOSIG=
201906070000 METAR LRCK 070000Z 25002KT CAVOK 16/15 Q1015 NOSIG=
201906070030 METAR LRCK 070030Z 26006KT CAVOK 16/15 Q1015 NOSIG=
201906070100 METAR LRCK 070100Z 28007KT CAVOK 16/16 Q1015 NOSIG=
201906070130 METAR LRCK 070130Z 28007KT 8000 NSC 16/15 Q1015 NOSIG=
201906070200 METAR LRCK 070200Z 27009KT 8000 NSC 16/15 Q1015 NOSIG=
201906070230 METAR LRCK 070230Z 28008KT 8000 NSC 16/16 Q1015 TEMPO 5000
                        BR=
201906070300 METAR LRCK 070300Z 27008KT CAVOK 17/16 Q1015 NOSIG=
201906070330 METAR LRCK 070330Z 27009KT CAVOK 18/16 Q1015 NOSIG=
201906070400 METAR LRCK 070400Z 26007KT CAVOK 19/16 Q1016 NOSIG=
201906070430 METAR LRCK 070430Z 27008KT CAVOK 20/17 Q1016 NOSIG=
201906070500 METAR LRCK 070500Z 28007KT CAVOK 21/18 Q1016 NOSIG=
201906070530 METAR LRCK 070530Z 29007KT CAVOK 23/19 Q1016 NOSIG=
201906070600 METAR LRCK 070600Z 29005KT CAVOK 24/19 Q1017 NOSIG=
201906070630 METAR LRCK 070630Z 28006KT 9999 FEW030 25/19 Q1017 NOSIG=
201906070700 METAR LRCK 070700Z 27008KT 240V310 9999 FEW030 26/19 Q1017
                        NOSIG=
201906070730 METAR LRCK 070730Z 29006KT 240V330 9999 FEW035 27/19 Q1017
                        NOSIG=
201906070800 METAR LRCK 070800Z 28008KT 250V330 9999 FEW035 FEW040TCU
                        28/18 Q1017 NOSIG=
201906070830 METAR LRCK 070830Z 29008KT 260V320 9999 VCTS FEW035 FEW045CB
                        27/18 Q1017 NOSIG=
201906070900 METAR LRCK 070900Z 26005KT 170V320 9999 TS FEW040 SCT042CB
                        27/16 Q1017 TEMPO VRB18KT 5000 TSRA=
201906070930 METAR LRCK 070930Z 08010KT 9999 TS SCT045CB 23/16 Q1017 TEMPO
                        VRB20KT 5000 TSRA=
201906071000 METAR LRCK 071000Z 04011KT 9999 SCT048 26/17 Q1017 NOSIG=
201906071030 METAR LRCK 071030Z 27004KT 210V330 9999 FEW041 FEW050CB 29/16
                        Q1017 NOSIG=
201906071100 METAR LRCK 071100Z 26008KT 200V300 9999 FEW050CB 29/16 Q1017
                        NOSIG=
201906071130 METAR LRCK 071130Z 29008KT 240V330 9999 FEW048CB 29/16 Q1017
                        NOSIG=
201906071200 METAR LRCK 071200Z 31007KT 9999 FEW052TCU 30/16 Q1016 NOSIG=
201906071230 METAR LRCK 071230Z 29006KT 270V340 9999 FEW054CB 29/16 Q1016
                        NOSIG=
201906071300 METAR LRCK 071300Z 13009KT 9999 VCTS FEW054CB 26/19 Q1016
                        NOSIG=
201906071330 METAR LRCK 071330Z 11008KT 9999 VCTS SCT042 FEW054CB 27/19
                        Q1016 NOSIG=
201906071400 METAR LRCK 071400Z 09009KT 9999 VCTS SCT041 FEW055CB 26/19
                        Q1016 TEMPO VRB20KT -TSRA=
201906071430 METAR COR LRCK 071430Z 11009KT 9999 VCTS SCT044CB 24/17 Q1016
                        RESHRA TEMPO VRB20KT -TSRA=
201906071500 METAR LRCK 071500Z 13012G24KT 9999 -TSRA FEW004 SCT044CB
                        23/20 Q1016 R36/29//95 BECMG NSW=
201906071530 METAR LRCK 071530Z 16008KT 9999 TS VCSH SCT045CB 22/20 Q1017
                        RESHRA R36/29//95 TEMPO 5000 TSRA=
201906071600 METAR LRCK 071600Z 23005KT 170V270 9999 TS SCT050CB 25/18
                        Q1017 R36/29//95 TEMPO 5000 -TSRA=
201906071630 METAR LRCK 071630Z VRB04KT 9999 VCTS SCT050CB 25/19 Q1017
                        R36/29//95 TEMPO 5000 -TSRA=
201906071700 METAR LRCK 071700Z 35007KT 9999 FEW050CB 25/17 Q1017 R36/29//95
                        NOSIG=
201906071730 METAR LRCK 071730Z VRB02KT 9999 FEW050CB 23/18 Q1017 R36/CLRD//
                        NOSIG=
201906071800 METAR LRCK 071800Z 12003KT 100V160 9999 FEW050CB 22/19 Q1017
                        NOSIG=
201906071830 METAR LRCK 071830Z 02002KT 9999 FEW050CB 21/18 Q1017 NOSIG=
201906071900 METAR LRCK 071900Z 22001KT 9999 FEW050CB 20/17 Q1017 NOSIG=
201906071930 METAR LRCK 071930Z 21004KT CAVOK 19/18 Q1017 NOSIG=
201906072000 METAR LRCK 072000Z 24003KT CAVOK 21/17 Q1017 NOSIG=
201906072030 METAR LRCK 072030Z 27004KT 240V300 CAVOK 20/17 Q1017 NOSIG=
201906072100 METAR LRCK 072100Z 34003KT 280V020 CAVOK 19/17 Q1018 NOSIG=
201906072130 METAR LRCK 072130Z 33003KT CAVOK 19/17 Q1018 NOSIG=
201906072200 METAR LRCK 072200Z 29005KT CAVOK 18/17 Q1018 NOSIG=
201906072230 METAR LRCK 072230Z 30006KT CAVOK 19/17 Q1017 NOSIG=
201906072300 METAR LRCK 072300Z 30007KT CAVOK 19/17 Q1017 NOSIG=
201906072330 METAR LRCK 072330Z 28005KT CAVOK 18/16 Q1017 NOSIG=
201906080000 METAR LRCK 080000Z 28006KT CAVOK 19/17 Q1017 NOSIG=
201906080030 METAR LRCK 080030Z 28005KT CAVOK 18/17 Q1017 NOSIG=
201906080100 METAR LRCK 080100Z 29005KT CAVOK 19/17 Q1017 NOSIG=
201906080130 METAR COR LRCK 080130Z 29007KT CAVOK 19/17 Q1017 NOSIG=
201906080200 METAR LRCK 080200Z 29007KT CAVOK 19/17 Q1017 NOSIG=
201906080230 METAR LRCK 080230Z 03006KT 8000 NSC 18/17 Q1017 NOSIG=
201906080300 METAR LRCK 080300Z 01005KT CAVOK 18/17 Q1017 NOSIG=
201906080330 METAR LRCK 080330Z 34003KT CAVOK 20/17 Q1017 NOSIG=
201906080400 METAR LRCK 080400Z 32003KT 290V350 CAVOK 21/18 Q1017 NOSIG=
201906080430 METAR LRCK 080430Z VRB01KT CAVOK 22/19 Q1017 NOSIG=
201906080500 METAR LRCK 080500Z 00000KT CAVOK 24/20 Q1017 NOSIG=
201906080530 METAR LRCK 080530Z VRB01KT CAVOK 25/20 Q1018 NOSIG=
201906080600 METAR LRCK 080600Z VRB02KT CAVOK 25/20 Q1018 NOSIG=
201906080630 METAR LRCK 080630Z VRB01KT CAVOK 25/19 Q1018 NOSIG=
201906080700 METAR LRCK 080700Z 08003KT 040V130 9999 FEW030 27/20 Q1018
                        NOSIG=
201906080730 METAR LRCK 080730Z 34003KT 250V030 9999 FEW030 27/20 Q1018
                        NOSIG=
201906080800 METAR LRCK 080800Z 07003KT 9999 FEW035 27/20 Q1018 NOSIG=
201906080830 METAR LRCK 080830Z VRB02KT 9999 FEW035 FEW040TCU 28/18 Q1018
                        NOSIG=
201906080900 METAR LRCK 080900Z 06004KT 350V140 9999 SCT039 FEW045CB 28/18
                        Q1017 NOSIG=
201906080930 METAR LRCK 080930Z VRB03KT 9999 TS SCT040 FEW045CB 29/17
                        Q1017 NOSIG=
201906081000 METAR LRCK 081000Z 26015KT 9999 TSRA FEW027 BKN041CB 22/18
                        Q1017 R36/290295 TEMPO 5000 TSRA=
201906081030 METAR LRCK 081030Z 14009KT 9999 TS SCT033 SCT040CB 21/18
                        Q1017 R36/290295 BECMG NSW=
201906081100 METAR LRCK 081100Z 05014KT 9999 TS FEW025 SCT040CB 20/18
                        Q1018 R36/290295 BECMG NSW=
201906081130 METAR LRCK 081130Z 08008KT 9999 TS VCSH FEW038 SCT040CB 23/20
                        Q1017 R36/290295 NOSIG=
201906081200 METAR LRCK 081200Z 09006KT 060V140 9999 VCTS FEW038 FEW040CB
                        23/21 Q1018 R36/29//95 NOSIG=
201906081230 METAR LRCK 081230Z 14008KT 9999 VCTS FEW038 FEW040CB 25/21
                        Q1017 R18/29//95 NOSIG=
201906081300 METAR LRCK 081300Z 15006KT 9999 VCTS SCT050CB 24/22 Q1017
                        R18/21//95 NOSIG=
201906081330 METAR LRCK 081330Z 16006KT 9999 VCTS FEW009 FEW050CB 23/22
                        Q1017 R18/21//95 NOSIG=
201906081400 METAR LRCK 081400Z 20008KT 9999 VCTS FEW008 FEW050CB 23/22
                        Q1018 R18/CLRD// NOSIG=
201906081430 METAR LRCK 081430Z 16005KT 9999 FEW008 FEW050CB 23/21 Q1017
                        NOSIG=
201906081500 METAR LRCK 081500Z 17008KT 9999 FEW050CB 24/20 Q1017 NOSIG=
201906081530 METAR LRCK 081530Z 16006KT 130V190 9999 FEW050CB 24/20 Q1017
                        NOSIG=
201906081600 METAR LRCK 081600Z 19002KT 9999 VCTS FEW050CB 23/20 Q1017
                        NOSIG=
201906081630 METAR LRCK 081630Z 23004KT 9999 VCTS FEW050CB 22/21 Q1017
                        NOSIG=
201906081700 METAR LRCK 081700Z 28003KT 9999 FEW050CB 22/20 Q1017 NOSIG=
201906081730 METAR LRCK 081730Z 32004KT 9999 FEW050CB 22/20 Q1017 NOSIG=
201906081800 METAR LRCK 081800Z 31004KT 9999 FEW050CB 21/20 Q1017 NOSIG=
201906081830 METAR LRCK 081830Z 02003KT CAVOK 21/19 Q1017 NOSIG=
201906081900 METAR LRCK 081900Z 36006KT CAVOK 20/19 Q1018 NOSIG=
201906081930 METAR LRCK 081930Z 26003KT CAVOK 19/18 Q1018 NOSIG=
201906082000 METAR LRCK 082000Z 27003KT CAVOK 19/18 Q1018 NOSIG=
201906082030 METAR LRCK 082030Z 24002KT CAVOK 20/19 Q1017 NOSIG=
201906082100 METAR LRCK 082100Z 34004KT CAVOK 19/17 Q1018 NOSIG=
201906082130 METAR LRCK 082130Z 01005KT CAVOK 19/17 Q1017 NOSIG=
201906082200 METAR COR LRCK 082200Z 01006KT CAVOK 19/18 Q1017 NOSIG=
201906082230 METAR COR LRCK 082230Z 01007KT CAVOK 19/18 Q1017 NOSIG=
201906082300 METAR LRCK 082300Z 35009KT CAVOK 19/18 Q1017 NOSIG=
201906082330 METAR LRCK 082330Z 34004KT CAVOK 18/17 Q1018 NOSIG=
201906090000 METAR LRCK 090000Z 24006KT CAVOK 18/17 Q1018 NOSIG=
201906090030 METAR LRCK 090030Z 29006KT CAVOK 19/18 Q1018 NOSIG=
201906090100 METAR LRCK 090100Z 35005KT CAVOK 18/18 Q1018 NOSIG=
201906090130 METAR COR LRCK 090130Z 34009KT CAVOK 19/18 Q1018 NOSIG=
201906090200 METAR LRCK 090200Z 36009KT CAVOK 19/18 Q1018 NOSIG=
201906090230 METAR LRCK 090230Z 36008KT CAVOK 18/17 Q1018 NOSIG=
201906090300 METAR LRCK 090300Z 06004KT CAVOK 18/17 Q1018 NOSIG=
201906090330 METAR LRCK 090330Z 33004KT CAVOK 19/18 Q1018 NOSIG=
201906090400 METAR LRCK 090400Z 32005KT CAVOK 20/18 Q1018 NOSIG=
201906090430 METAR LRCK 090430Z 02008KT 9999 FEW010 21/19 Q1018 NOSIG=
201906090500 METAR LRCK 090500Z 03008KT 9999 BKN006 21/19 Q1019 NOSIG=
201906090530 METAR LRCK 090530Z 03010KT 9999 BKN005 21/20 Q1019 NOSIG=
201906090600 METAR LRCK 090600Z 02007KT 350V060 9999 SCT007 22/20 Q1019
                        NOSIG=
201906090630 METAR LRCK 090630Z 02010KT 9999 FEW010 SCT023 22/19 Q1019
                        NOSIG=
201906090700 METAR LRCK 090700Z 03010KT 9999 SCT024 23/17 Q1019 NOSIG=
201906090730 METAR LRCK 090730Z 03009KT 010V070 9999 FEW023 23/16 Q1019
                        NOSIG=
201906090800 METAR LRCK 090800Z 04007KT 9999 FEW024 24/18 Q1019 NOSIG=
201906090830 METAR LRCK 090830Z 02007KT 9999 FEW030 25/16 Q1019 NOSIG=
201906090900 METAR LRCK 090900Z 36009KT 9999 FEW035 26/16 Q1019 NOSIG=
201906090930 METAR LRCK 090930Z 02007KT 330V040 9999 FEW046 27/15 Q1019
                        NOSIG=
201906091000 METAR LRCK 091000Z 36009KT 9999 FEW046 27/15 Q1019 NOSIG=
201906091030 METAR LRCK 091030Z 01009KT 9999 SCT049 28/15 Q1019 NOSIG=
201906091100 METAR LRCK 091100Z 03010KT 9999 FEW049 FEW050TCU 27/16 Q1019
                        NOSIG=
201906091130 METAR LRCK 091130Z 03012KT 9999 VCTS FEW048 FEW050CB 28/17
                        Q1018 NOSIG=
201906091200 METAR LRCK 091200Z 36014KT 9999 FEW039 FEW047CB 25/17 Q1018
                        NOSIG=
201906091230 METAR LRCK 091230Z 34010KT 9999 FEW040 FEW047CB 27/18 Q1018
                        NOSIG=
201906091300 METAR LRCK 091300Z 05005KT 350V100 9999 FEW040 FEW050CB 28/17
                        Q1017 NOSIG=
201906091330 METAR LRCK 091330Z 32009KT 9999 -TSRA FEW044 FEW054CB 25/18
                        Q1017 NOSIG=
201906091400 METAR LRCK 091400Z VRB03KT 9999 TS VCSH FEW037 SCT046CB 23/21
                        Q1017 R36/290295 NOSIG=
201906091430 METAR LRCK 091430Z 12012KT 9999 TS FEW045 FEW058CB 24/20
                        Q1017 R36/290295 NOSIG=
201906091500 METAR LRCK 091500Z 11008KT 9999 FEW050CB 24/20 Q1017 RETS
                        R36/25//95 NOSIG=
201906091530 METAR LRCK 091530Z 10006KT 9999 FEW050CB 24/20 Q1017 R36/25//95
                        NOSIG=
201906091600 METAR LRCK 091600Z 11005KT 9999 FEW055CB 23/20 Q1017 R36/25//95
                        NOSIG=
201906091630 METAR LRCK 091630Z 10005KT 9999 FEW054CB 22/20 Q1017 R36/CLRD//
                        NOSIG=
201906091700 METAR LRCK 091700Z 09001KT 9999 TS FEW050CB 22/20 Q1017 NOSIG=
201906091730 METAR LRCK 091730Z 06003KT 9999 VCTS FEW047 FEW050CB 22/19
                        Q1017 NOSIG=
201906091800 METAR LRCK 091800Z 33007KT 9999 VCTS SCT046 FEW050CB 21/18
                        Q1018 NOSIG=
201906091830 METAR LRCK 091830Z 35006KT 9999 FEW046 FEW050CB 20/18 Q1018
                        NOSIG=
201906091900 METAR LRCK 091900Z 02007KT 9999 FEW060CB 20/18 Q1018 NOSIG=
201906091930 METAR LRCK 091930Z 01007KT CAVOK 19/18 Q1018 NOSIG=
201906092000 METAR LRCK 092000Z 35008KT CAVOK 19/17 Q1018 NOSIG=
201906092030 METAR LRCK 092030Z 34006KT CAVOK 19/18 Q1017 NOSIG=
201906092100 METAR LRCK 092100Z 33007KT CAVOK 19/17 Q1018 NOSIG=
201906092130 METAR LRCK 092130Z 31008KT 9999 FEW049 19/17 Q1017 NOSIG=
201906092200 METAR LRCK 092200Z 31006KT 9999 FEW048 19/17 Q1017 NOSIG=
201906092230 METAR LRCK 092230Z 29006KT 9999 FEW047 19/17 Q1017 NOSIG=
201906092300 METAR LRCK 092300Z 31007KT 9999 FEW047 19/17 Q1017 NOSIG=
201906092330 METAR LRCK 092330Z 31008KT 9999 SCT048 FEW050CB 19/17 Q1017
                        NOSIG=
201906100000 METAR LRCK 100000Z 32009KT 9999 SCT049 19/16 Q1016 NOSIG=
201906100030 METAR LRCK 100030Z 34008KT 9999 FEW049 18/16 Q1016 NOSIG=
201906100100 METAR LRCK 100100Z 33006KT CAVOK 18/16 Q1016 NOSIG=
201906100130 METAR LRCK 100130Z 35009KT CAVOK 18/17 Q1016 NOSIG=
201906100200 METAR LRCK 100200Z 35010KT CAVOK 18/17 Q1016 NOSIG=
201906100230 METAR LRCK 100230Z 36009KT CAVOK 19/17 Q1016 NOSIG=
201906100300 METAR COR LRCK 100300Z 01009KT CAVOK 20/18 Q1016 NOSIG=
201906100330 METAR LRCK 100330Z 01009KT CAVOK 20/18 Q1016 NOSIG=
201906100400 METAR LRCK 100400Z 01010KT CAVOK 21/18 Q1016 NOSIG=
201906100430 METAR LRCK 100430Z 01011KT CAVOK 22/18 Q1016 NOSIG=
201906100500 METAR LRCK 100500Z 01009KT 9999 SCT014 22/19 Q1016 NOSIG=
201906100530 METAR LRCK 100530Z 02010KT 9999 SCT014 23/19 Q1016 NOSIG=
201906100600 METAR LRCK 100600Z 02010KT 340V040 9999 FEW019 24/20 Q1016
                        NOSIG=
201906100630 METAR LRCK 100630Z 03009KT 9999 FEW020 25/20 Q1016 NOSIG=
201906100700 METAR LRCK 100700Z 04008KT 9999 FEW025 25/20 Q1016 NOSIG=
201906100730 METAR LRCK 100730Z 05011KT 9999 FEW030 26/20 Q1016 NOSIG=
201906100800 METAR LRCK 100800Z 05011KT 010V070 9999 FEW030 26/20 Q1015
                        NOSIG=
201906100830 METAR LRCK 100830Z 03010KT 9999 FEW035 26/21 Q1016 NOSIG=
201906100900 METAR LRCK 100900Z 03010KT 9999 SCT035 26/20 Q1015 NOSIG=
201906100930 METAR LRCK 100930Z 05010KT 9999 SCT035 27/20 Q1015 NOSIG=
201906101000 METAR LRCK 101000Z 03009KT 350V060 9999 SCT035 27/19 Q1015
                        NOSIG=
201906101030 METAR LRCK 101030Z 04010KT 9999 SCT035 27/20 Q1015 NOSIG=
201906101100 METAR LRCK 101100Z 06010KT 030V090 9999 FEW038 28/21 Q1015
                        NOSIG=
201906101130 METAR LRCK 101130Z 05012KT 9999 FEW040 28/20 Q1014 NOSIG=
201906101200 METAR LRCK 101200Z 07010KT 030V090 9999 FEW040 28/20 Q1014
                        NOSIG=
201906101230 METAR LRCK 101230Z 08012KT 9999 FEW045 28/20 Q1014 NOSIG=
201906101300 METAR LRCK 101300Z 08012KT 9999 FEW048 28/21 Q1013 NOSIG=
201906101330 METAR LRCK 101330Z 09011KT 9999 FEW049 27/21 Q1013 NOSIG=
201906101400 METAR LRCK 101400Z 08010KT CAVOK 26/19 Q1013 NOSIG=
201906101430 METAR LRCK 101430Z 08012KT CAVOK 26/21 Q1013 NOSIG=
201906101500 METAR LRCK 101500Z 08013KT CAVOK 25/21 Q1013 NOSIG=
201906101530 METAR LRCK 101530Z 08011KT CAVOK 24/18 Q1013 NOSIG=
201906101600 METAR LRCK 101600Z 06006KT 9999 -RA FEW050CB 24/17 Q1013
                        R36/19//95 NOSIG=
201906101630 METAR LRCK 101630Z 30005KT 9999 FEW050CB 23/18 Q1012 R36/19//95
                        NOSIG=
201906101700 METAR LRCK 101700Z 30007KT 9999 FEW050CB 23/17 Q1012 R36/19//95
                        NOSIG=
201906101730 METAR LRCK 101730Z 31008KT CAVOK 23/17 Q1012 R36/19//95 NOSIG=
201906101800 METAR LRCK 101800Z 32009KT CAVOK 24/16 Q1011 R36/19//95 NOSIG=
201906101830 METAR LRCK 101830Z 33009KT CAVOK 24/17 Q1011 R36/19//95 NOSIG=
201906101900 METAR LRCK 101900Z 33009KT CAVOK 24/18 Q1012 R36/19//95 NOSIG=
201906101930 METAR LRCK 101930Z 34010KT CAVOK 24/18 Q1012 R36/CLRD// NOSIG=
201906102000 METAR LRCK 102000Z 36010KT 9999 -RA NSC 24/17 Q1012 NOSIG=
201906102030 METAR LRCK 102030Z 01011KT 9999 -RA NSC 23/17 Q1012 NOSIG=
201906102100 METAR LRCK 102100Z 33008KT CAVOK 22/17 Q1011 NOSIG=
201906102130 METAR LRCK 102130Z 34008KT CAVOK 22/16 Q1011 NOSIG=
201906102200 METAR LRCK 102200Z 01010KT CAVOK 22/16 Q1010 NOSIG=
201906102230 METAR LRCK 102230Z 02009KT 9999 VCTS FEW046CB 22/17 Q1010
                        NOSIG=
201906102300 METAR LRCK 102300Z 01009KT 9999 VCTS FEW046CB 22/18 Q1010
                        NOSIG=
201906102330 METAR LRCK 102330Z 03011KT 9999 FEW046CB 22/20 Q1010 NOSIG=
201906110000 METAR LRCK 110000Z 04009KT CAVOK 22/21 Q1010 NOSIG=
201906110030 METAR LRCK 110030Z 05008KT 9999 FEW016 22/22 Q1010 NOSIG=
201906110100 METAR LRCK 110100Z 04008KT 9999 FEW015 22/21 Q1009 NOSIG=
201906110130 METAR LRCK 110130Z 05006KT 9999 FEW014 21/21 Q1010 NOSIG=
201906110200 METAR LRCK 110200Z 05007KT 9999 BKN008 21/21 Q1009 NOSIG=
201906110230 METAR LRCK 110230Z 07007KT 9999 BKN005 22/22 Q1010 NOSIG=
201906110300 METAR LRCK 110300Z 08007KT 9999 BKN008 22/21 Q1010 NOSIG=
201906110330 METAR LRCK 110330Z 06007KT 9999 BKN007 22/21 Q1010 NOSIG=
201906110400 METAR LRCK 110400Z 06008KT 9999 BKN006 22/22 Q1011 NOSIG=
201906110430 METAR LRCK 110430Z 06008KT 9999 BKN008 23/22 Q1011 NOSIG=
201906110500 METAR LRCK 110500Z 06009KT 9999 BKN008 24/22 Q1011 BECMG
                        NSC=
201906110530 METAR LRCK 110530Z 06009KT 9999 SCT012 24/21 Q1011 NOSIG=
201906110600 METAR LRCK 110600Z 06010KT 9999 SCT015 25/21 Q1011 NOSIG=
201906110630 METAR LRCK 110630Z 06009KT 030V090 9999 FEW016 25/21 Q1011
                        NOSIG=
201906110700 METAR LRCK 110700Z 08008KT 9999 FEW018 26/21 Q1011 NOSIG=
201906110730 METAR LRCK 110730Z 06009KT 040V100 9999 FEW023 26/21 Q1011
                        NOSIG=
201906110800 METAR LRCK 110800Z 08009KT 050V110 9999 SCT021 27/22 Q1012
                        NOSIG=
201906110830 METAR LRCK 110830Z 05009KT 020V090 9999 SCT025 28/22 Q1012
                        NOSIG=
201906110900 METAR LRCK 110900Z 03011KT 9999 SCT025 28/22 Q1012 NOSIG=
201906110930 METAR LRCK 110930Z 04010KT 010V080 9999 SCT025 28/21 Q1012
                        NOSIG=
201906111000 METAR LRCK 111000Z 07010KT 9999 FEW024 28/22 Q1012 NOSIG=
201906111030 METAR LRCK 111030Z 08011KT 9999 FEW028 27/21 Q1012 NOSIG=
201906111100 METAR LRCK 111100Z 08013KT 9999 FEW030 28/21 Q1011 NOSIG=
201906111130 METAR LRCK 111130Z 07014KT 9999 FEW030 28/20 Q1011 NOSIG=
201906111200 METAR LRCK 111200Z 07014KT 9999 FEW035 28/20 Q1011 NOSIG=
201906111230 METAR LRCK 111230Z 07015KT CAVOK 28/19 Q1011 NOSIG=
201906111300 METAR LRCK 111300Z 06014KT CAVOK 27/19 Q1011 NOSIG=
201906111330 METAR LRCK 111330Z 06013KT CAVOK 27/17 Q1011 NOSIG=
201906111400 METAR LRCK 111400Z 06012KT CAVOK 27/17 Q1011 NOSIG=
201906111430 METAR LRCK 111430Z 07014KT CAVOK 28/17 Q1010 NOSIG=
201906111500 METAR LRCK 111500Z 06012KT CAVOK 27/17 Q1010 NOSIG=
201906111530 METAR LRCK 111530Z 06011KT CAVOK 27/17 Q1010 NOSIG=
201906111600 METAR LRCK 111600Z 04010KT CAVOK 27/17 Q1011 NOSIG=
201906111630 METAR LRCK 111630Z 04008KT CAVOK 26/18 Q1010 NOSIG=
201906111700 METAR LRCK 111700Z 03006KT CAVOK 25/19 Q1010 NOSIG=
201906111730 METAR LRCK 111730Z 36007KT CAVOK 25/19 Q1010 NOSIG=
201906111800 METAR LRCK 111800Z 03008KT CAVOK 24/18 Q1010 NOSIG=
201906111830 METAR LRCK 111830Z 06007KT CAVOK 23/20 Q1011 NOSIG=
201906111900 METAR LRCK 111900Z 06009KT CAVOK 23/20 Q1011 NOSIG=
201906111930 METAR LRCK 111930Z 06009KT CAVOK 23/21 Q1012 NOSIG=
201906112000 METAR LRCK 112000Z 06007KT CAVOK 23/22 Q1012 NOSIG=
201906112030 METAR LRCK 112030Z 06008KT CAVOK 22/22 Q1012 NOSIG=
201906112100 METAR LRCK 112100Z 07010KT CAVOK 23/22 Q1012 NOSIG=
201906112130 METAR LRCK 112130Z NIL=
201906112200 METAR LRCK 112200Z NIL=
201906112230 METAR LRCK 112230Z NIL=
201906112300 METAR COR LRCK 112300Z 31004KT CAVOK 22/20 Q1011 NOSIG=
201906112330 METAR LRCK 112330Z 31004KT CAVOK 22/21 Q1011 NOSIG=
201906120000 METAR LRCK 120000Z 34005KT CAVOK 22/21 Q1011 NOSIG=
201906120030 METAR LRCK 120030Z 00000KT CAVOK 22/21 Q1011 NOSIG=
201906120100 METAR LRCK 120100Z 30004KT CAVOK 22/21 Q1011 NOSIG=
201906120130 METAR LRCK 120130Z 30006KT CAVOK 22/20 Q1011 NOSIG=
201906120200 METAR LRCK 120200Z 31005KT CAVOK 21/19 Q1011 NOSIG=
201906120230 METAR LRCK 120230Z 30005KT CAVOK 21/19 Q1011 NOSIG=
201906120300 METAR LRCK 120300Z 31005KT CAVOK 22/18 Q1011 NOSIG=
201906120330 METAR LRCK 120330Z 33004KT CAVOK 21/17 Q1011 NOSIG=
201906120400 METAR LRCK 120400Z 08004KT 050V110 CAVOK 21/17 Q1011 NOSIG=
201906120430 METAR LRCK 120430Z 36006KT CAVOK 23/16 Q1011 NOSIG=
201906120500 METAR LRCK 120500Z 36006KT CAVOK 23/16 Q1011 NOSIG=
201906120530 METAR LRCK 120530Z 02009KT CAVOK 24/15 Q1012 NOSIG=
201906120600 METAR LRCK 120600Z 36009KT CAVOK 26/16 Q1012 NOSIG=
201906120630 METAR LRCK 120630Z 01009KT CAVOK 28/14 Q1011 NOSIG=
201906120700 METAR LRCK 120700Z 02008KT 350V050 CAVOK 27/14 Q1011 NOSIG=
201906120730 METAR COR LRCK 120730Z 36009KT CAVOK 29/15 Q1012 NOSIG=
201906120800 METAR COR LRCK 120800Z 01008KT CAVOK 29/14 Q1012 NOSIG=
201906120830 METAR LRCK 120830Z 01008KT CAVOK 29/14 Q1012 NOSIG=
201906120900 METAR LRCK 120900Z 02009KT 350V050 CAVOK 32/15 Q1012 NOSIG=
201906120930 METAR LRCK 120930Z 01009KT 330V060 CAVOK 32/14 Q1012 NOSIG=
201906121000 METAR LRCK 121000Z 04011KT CAVOK 32/14 Q1012 NOSIG=
201906121030 METAR LRCK 121030Z 05011KT CAVOK 32/14 Q1012 NOSIG=
201906121100 METAR LRCK 121100Z 05012KT CAVOK 31/13 Q1012 NOSIG=
201906121130 METAR LRCK 121130Z 05011KT CAVOK 32/14 Q1011 NOSIG=
201906121200 METAR LRCK 121200Z 07010KT CAVOK 32/14 Q1011 NOSIG=
201906121230 METAR LRCK 121230Z 05012KT 010V070 CAVOK 32/14 Q1011 NOSIG=
201906121300 METAR LRCK 121300Z 03011KT 360V060 CAVOK 32/14 Q1011 NOSIG=
201906121330 METAR LRCK 121330Z 06010KT CAVOK 33/14 Q1011 NOSIG=
201906121400 METAR LRCK 121400Z 06011KT 030V090 CAVOK 32/15 Q1011 NOSIG=
201906121430 METAR LRCK 121430Z 09011KT CAVOK 31/16 Q1010 NOSIG=
201906121500 METAR LRCK 121500Z 08008KT CAVOK 31/15 Q1010 NOSIG=
201906121530 METAR LRCK 121530Z 08008KT CAVOK 31/15 Q1010 NOSIG=
201906121600 METAR LRCK 121600Z 09007KT CAVOK 28/15 Q1011 NOSIG=
201906121630 METAR LRCK 121630Z 09006KT CAVOK 28/17 Q1011 NOSIG=
201906121700 METAR LRCK 121700Z 11004KT CAVOK 26/19 Q1011 NOSIG=
201906121730 METAR LRCK 121730Z VRB01KT CAVOK 25/18 Q1011 NOSIG=
201906121800 METAR LRCK 121800Z 27003KT CAVOK 25/17 Q1012 NOSIG=
201906121830 METAR LRCK 121830Z 30004KT CAVOK 25/17 Q1012 NOSIG=
201906121900 METAR LRCK 121900Z 30007KT CAVOK 26/17 Q1012 NOSIG=
201906121930 METAR LRCK 121930Z 30005KT CAVOK 26/16 Q1012 NOSIG=
201906122000 METAR LRCK 122000Z 31005KT CAVOK 26/15 Q1012 NOSIG=
201906122030 METAR LRCK 122030Z 30006KT CAVOK 26/15 Q1012 NOSIG=
201906122100 METAR LRCK 122100Z 34007KT CAVOK 25/15 Q1012 NOSIG=
201906122130 METAR LRCK 122130Z 34007KT CAVOK 24/15 Q1012 NOSIG=
201906122200 METAR LRCK 122200Z 33007KT CAVOK 24/15 Q1012 NOSIG=
201906122230 METAR LRCK 122230Z 32008KT CAVOK 24/15 Q1012 NOSIG=
201906122300 METAR LRCK 122300Z 33007KT CAVOK 24/16 Q1012 NOSIG=
201906122330 METAR LRCK 122330Z 34007KT CAVOK 23/16 Q1012 NOSIG=
201906130000 METAR LRCK 130000Z 32007KT CAVOK 22/16 Q1012 NOSIG=
201906130030 METAR LRCK 130030Z AUTO 32008KT 9999 NCD 22/16 Q1012 NOSIG=
201906130100 METAR COR LRCK 130100Z 30008KT CAVOK 22/16 Q1012 NOSIG=
201906130130 METAR LRCK 130130Z 30009KT CAVOK 22/16 Q1012 NOSIG=
201906130200 METAR LRCK 130200Z 32007KT CAVOK 21/16 Q1012 NOSIG=
201906130230 METAR LRCK 130230Z 30008KT CAVOK 22/16 Q1012 NOSIG=
201906130300 METAR LRCK 130300Z 30008KT CAVOK 21/16 Q1012 NOSIG=
201906130330 METAR LRCK 130330Z 30008KT CAVOK 22/17 Q1012 NOSIG=
201906130400 METAR LRCK 130400Z 30008KT CAVOK 22/17 Q1012 NOSIG=
201906130430 METAR LRCK 130430Z 31006KT CAVOK 23/18 Q1013 NOSIG=
201906130500 METAR LRCK 130500Z 34003KT 310V010 CAVOK 25/18 Q1013 NOSIG=
201906130530 METAR LRCK 130530Z 34004KT 290V010 CAVOK 25/17 Q1014 NOSIG=
201906130600 METAR LRCK 130600Z 01007KT 340V040 CAVOK 28/17 Q1014 NOSIG=
201906130630 METAR LRCK 130630Z 01008KT 340V040 CAVOK 29/17 Q1014 NOSIG=
201906130700 METAR LRCK 130700Z 02008KT CAVOK 29/16 Q1014 NOSIG=
201906130730 METAR LRCK 130730Z 02007KT 350V050 CAVOK 31/14 Q1014 NOSIG=
201906130800 METAR LRCK 130800Z 05008KT 010V080 CAVOK 31/15 Q1014 NOSIG=
201906130830 METAR LRCK 130830Z 06011KT CAVOK 29/18 Q1015 NOSIG=
201906130900 METAR LRCK 130900Z 07010KT CAVOK 28/17 Q1015 NOSIG=
201906130930 METAR LRCK 130930Z 08008KT CAVOK 29/18 Q1015 NOSIG=
201906131000 METAR LRCK 131000Z 07008KT 040V100 CAVOK 29/17 Q1015 NOSIG=
201906131030 METAR LRCK 131030Z 08007KT 050V110 CAVOK 30/16 Q1015 NOSIG=
201906131100 METAR LRCK 131100Z 05008KT CAVOK 31/16 Q1015 NOSIG=
201906131130 METAR LRCK 131130Z 06007KT 030V100 CAVOK 32/16 Q1014 NOSIG=
201906131200 METAR LRCK 131200Z 09009KT 060V130 9999 TS FEW055CB 30/16
                        Q1014 NOSIG=
201906131230 METAR LRCK 131230Z 11008KT 9999 VCSH TS FEW055CB 28/17 Q1014
                        NOSIG=
201906131300 METAR LRCK 131300Z 26011KT 240V310 9999 -TSRA SCT060CB 24/18
                        Q1015 NOSIG=
201906131330 METAR LRCK 131330Z 20008KT 9999 VCSH TS SCT050CB 23/18 Q1015
                        R36/29//95 NOSIG=
201906131400 METAR LRCK 131400Z 19007KT 160V220 9999 TS SCT050CB 24/18
                        Q1014 R36/29//95 NOSIG=
201906131430 METAR LRCK 131430Z 14005KT 120V290 9999 TS FEW050CB 25/18
                        Q1014 R36/CLRD// TEMPO VRB20KT 5000
                        TSRA=
201906131500 METAR LRCK 131500Z 03014KT 9999 TS SCT050CB 27/17 Q1015 TEMPO
                        VRB20KT 5000 TSRA=
201906131530 METAR LRCK 131530Z 35005KT 320V040 9999 -TSRA SCT050CB 23/19
                        Q1015 TEMPO VRB20KT 5000 TSRA=
201906131600 METAR LRCK 131600Z 29011KT 9999 VCTS SCT050CB 22/17 Q1015
                        TEMPO VRB20KT 5000 TSRA=
201906131630 METAR LRCK 131630Z 06008KT 9999 FEW050CB 22/18 Q1015 R18/CLRD//
                        NOSIG=
201906131700 METAR LRCK 131700Z 06007KT 9999 -SHRA FEW050CB 22/18 Q1015
                        NOSIG=
201906131730 METAR LRCK 131730Z 08004KT 9999 FEW050CB 21/19 Q1015 NOSIG=
201906131800 METAR LRCK 131800Z 28007KT 9999 FEW050CB 21/18 Q1015 NOSIG=
201906131830 METAR LRCK 131830Z 30006KT 9999 FEW060CB 20/18 Q1016 NOSIG=
201906131900 METAR LRCK 131900Z 31005KT CAVOK 21/18 Q1015 NOSIG=
201906131930 METAR LRCK 131930Z 35008KT CAVOK 20/17 Q1016 NOSIG=
201906132000 METAR LRCK 132000Z 33004KT CAVOK 20/17 Q1015 NOSIG=
201906132030 METAR LRCK 132030Z 33005KT CAVOK 20/17 Q1015 NOSIG=
201906132100 METAR LRCK 132100Z 31007KT CAVOK 20/17 Q1015 NOSIG=
201906132130 METAR LRCK 132130Z 34006KT CAVOK 20/17 Q1016 NOSIG=
201906132200 METAR LRCK 132200Z 33005KT CAVOK 20/17 Q1015 NOSIG=
201906132230 METAR LRCK 132230Z 32006KT CAVOK 20/16 Q1015 NOSIG=
201906132300 METAR LRCK 132300Z 31006KT CAVOK 19/16 Q1015 NOSIG=
201906132330 METAR LRCK 132330Z 29008KT CAVOK 19/16 Q1015 NOSIG=
201906140000 METAR LRCK 140000Z 29007KT CAVOK 19/16 Q1015 NOSIG=
201906140030 METAR LRCK 140030Z 29008KT CAVOK 19/16 Q1015 NOSIG=
201906140100 METAR LRCK 140100Z 30007KT CAVOK 19/16 Q1015 NOSIG=
201906140130 METAR LRCK 140130Z 31008KT CAVOK 20/16 Q1015 NOSIG=
201906140200 METAR LRCK 140200Z 31007KT CAVOK 19/16 Q1015 NOSIG=
201906140230 METAR LRCK 140230Z 32007KT CAVOK 19/16 Q1015 NOSIG=
201906140300 METAR LRCK 140300Z 30008KT CAVOK 19/16 Q1015 NOSIG=
201906140330 METAR LRCK 140330Z 30007KT CAVOK 20/16 Q1015 NOSIG=
201906140400 METAR LRCK 140400Z 32006KT CAVOK 21/16 Q1015 NOSIG=
201906140430 METAR LRCK 140430Z 34008KT CAVOK 22/17 Q1015 NOSIG=
201906140500 METAR LRCK 140500Z 33007KT CAVOK 23/17 Q1015 NOSIG=
201906140530 METAR LRCK 140530Z 01009KT CAVOK 25/17 Q1015 NOSIG=
201906140600 METAR LRCK 140600Z 01011KT CAVOK 25/16 Q1015 NOSIG=
201906140630 METAR LRCK 140630Z 36009KT 330V030 CAVOK 26/17 Q1016 NOSIG=
201906140700 METAR LRCK 140700Z 36009KT CAVOK 25/16 Q1016 NOSIG=
201906140730 METAR LRCK 140730Z 36011KT CAVOK 25/17 Q1016 NOSIG=
201906140800 METAR LRCK 140800Z 35009KT 310V010 CAVOK 27/17 Q1016 NOSIG=
201906140830 METAR LRCK 140830Z 35010KT CAVOK 27/17 Q1016 NOSIG=
201906140900 METAR LRCK 140900Z 01008KT 340V050 CAVOK 29/18 Q1016 NOSIG=
201906140930 METAR LRCK 140930Z 34007KT 300V010 CAVOK 30/18 Q1016 NOSIG=
201906141000 METAR LRCK 141000Z 02009KT CAVOK 30/18 Q1016 NOSIG=
201906141030 METAR LRCK 141030Z 01010KT CAVOK 31/18 Q1016 NOSIG=
201906141100 METAR LRCK 141100Z 05009KT 020V080 CAVOK 31/17 Q1016 NOSIG=
201906141130 METAR LRCK 141130Z 06008KT 020V090 9999 FEW030 31/19 Q1016
                        NOSIG=
201906141200 METAR LRCK 141200Z 06009KT 020V080 9999 FEW035 32/14 Q1015
                        NOSIG=
201906141230 METAR LRCK 141230Z 05011KT 9999 FEW040 32/14 Q1015 NOSIG=
201906141300 METAR LRCK 141300Z 06013KT 020V080 9999 VCTS FEW045CB 30/17
                        Q1015 NOSIG=
201906141330 METAR LRCK 141330Z 05015KT 9999 VCTS FEW045CB 30/21 Q1015
                        TEMPO TS=
201906141400 METAR LRCK 141400Z 05017KT 9999 VCTS FEW048CB 30/16 Q1015
                        TEMPO TS=
201906141430 METAR LRCK 141430Z 06015KT 9999 VCTS FEW050CB 29/17 Q1015
                        TEMPO TS=
201906141500 METAR LRCK 141500Z 06013KT 9999 VCTS FEW050CB 28/15 Q1015
                        NOSIG=
201906141530 METAR LRCK 141530Z 04011KT 9999 FEW050CB 28/16 Q1015 NOSIG=
201906141600 METAR LRCK 141600Z 06013KT 9999 FEW050CB 26/19 Q1015 NOSIG=
201906141630 METAR LRCK 141630Z 06009KT 9999 FEW050CB 25/19 Q1015 NOSIG=
201906141700 METAR LRCK 141700Z 05007KT 9999 FEW050CB 25/18 Q1015 NOSIG=
201906141730 METAR LRCK 141730Z 02006KT CAVOK 24/17 Q1015 NOSIG=
201906141800 METAR LRCK 141800Z 36007KT CAVOK 24/17 Q1015 NOSIG=
201906141830 METAR LRCK 141830Z 35007KT CAVOK 24/18 Q1016 NOSIG=
201906141900 METAR LRCK 141900Z 36007KT CAVOK 24/17 Q1016 NOSIG=
201906141930 METAR LRCK 141930Z 01007KT CAVOK 24/17 Q1016 NOSIG=
201906142000 METAR LRCK 142000Z 36009KT CAVOK 24/16 Q1016 NOSIG=
201906142030 METAR LRCK 142030Z 34007KT CAVOK 23/18 Q1016 NOSIG=
201906142100 METAR LRCK 142100Z 35007KT CAVOK 23/18 Q1016 NOSIG=
201906142130 METAR LRCK 142130Z 35008KT CAVOK 23/18 Q1016 NOSIG=
201906142200 METAR LRCK 142200Z 33005KT CAVOK 23/18 Q1015 NOSIG=
201906142230 METAR LRCK 142230Z 34008KT CAVOK 22/17 Q1015 NOSIG=
201906142300 METAR LRCK 142300Z 35010KT CAVOK 23/17 Q1015 NOSIG=
201906142330 METAR LRCK 142330Z 36011KT CAVOK 23/16 Q1015 NOSIG=
201906150000 METAR LRCK 150000Z 01011KT 9999 NCD 23/16 Q1014 NOSIG=
201906150030 METAR LRCK 150030Z 36010KT CAVOK 22/16 Q1014 NOSIG=
201906150100 METAR COR LRCK 150100Z 01012KT CAVOK 22/16 Q1014 NOSIG=
201906150130 METAR COR LRCK 150130Z 36010KT CAVOK 22/16 Q1014 NOSIG=
201906150200 METAR LRCK 150200Z 02012KT CAVOK 22/16 Q1014 NOSIG=
201906150230 METAR LRCK 150230Z 03012KT CAVOK 22/17 Q1014 NOSIG=
201906150300 METAR LRCK 150300Z 04009KT CAVOK 22/17 Q1014 NOSIG=
201906150330 METAR LRCK 150330Z 04011KT CAVOK 22/18 Q1014 NOSIG=
201906150400 METAR LRCK 150400Z 03013KT CAVOK 24/18 Q1014 NOSIG=
201906150430 METAR LRCK 150430Z 03012KT CAVOK 24/18 Q1015 NOSIG=
201906150500 METAR LRCK 150500Z 04013KT CAVOK 26/18 Q1015 NOSIG=
201906150530 METAR LRCK 150530Z 04013KT CAVOK 26/16 Q1015 NOSIG=
201906150600 METAR LRCK 150600Z 04013KT CAVOK 28/17 Q1015 NOSIG=
201906150630 METAR LRCK 150630Z 04014KT CAVOK 28/16 Q1015 NOSIG=
201906150700 METAR LRCK 150700Z 02013KT CAVOK 29/16 Q1015 NOSIG=
201906150730 METAR LRCK 150730Z 03012KT CAVOK 29/16 Q1015 NOSIG=
201906150800 METAR LRCK 150800Z 05013KT CAVOK 31/15 Q1015 NOSIG=
201906150830 METAR LRCK 150830Z 05014KT CAVOK 31/15 Q1015 NOSIG=
201906150900 METAR LRCK 150900Z 07014KT CAVOK 31/16 Q1015 NOSIG=
201906150930 METAR LRCK 150930Z 06014KT CAVOK 31/15 Q1015 NOSIG=
201906151000 METAR LRCK 151000Z 05013KT CAVOK 31/17 Q1015 NOSIG=
201906151030 METAR LRCK 151030Z 05012KT 020V080 9999 FEW047 31/17 Q1015
                        NOSIG=
201906151100 METAR LRCK 151100Z 07012KT 9999 FEW047TCU 30/17 Q1015 NOSIG=
201906151130 METAR LRCK 151130Z 08012KT 040V120 9999 FEW047CB 30/16 Q1014
                        NOSIG=
201906151200 METAR LRCK 151200Z 11013KT 9999 FEW047CB 30/16 Q1014 NOSIG=
201906151230 METAR LRCK 151230Z 10011KT 9999 FEW047CB 30/16 Q1014 NOSIG=
201906151300 METAR LRCK 151300Z 11009KT 9999 FEW047CB 30/16 Q1013 NOSIG=
201906151330 METAR LRCK 151330Z 11008KT 080V140 9999 FEW047CB 30/17 Q1014
                        NOSIG=
201906151400 METAR LRCK 151400Z 11007KT 9999 FEW047CB 29/16 Q1013 NOSIG=
201906151430 METAR LRCK 151430Z 09005KT 9999 FEW045CB 28/17 Q1013 NOSIG=
201906151500 METAR LRCK 151500Z 35008KT 9999 FEW050CB 28/17 Q1013 NOSIG=
201906151530 METAR LRCK 151530Z 35006KT 9999 FEW050CB 27/17 Q1014 NOSIG=
201906151600 METAR LRCK 151600Z 36009KT 9999 FEW050CB 27/17 Q1013 NOSIG=
201906151630 METAR LRCK 151630Z 36009KT CAVOK 26/17 Q1013 NOSIG=
201906151700 METAR LRCK 151700Z 35009KT CAVOK 26/16 Q1013 NOSIG=
201906151730 METAR LRCK 151730Z 34007KT CAVOK 25/17 Q1013 NOSIG=
201906151800 METAR LRCK 151800Z 35008KT CAVOK 23/17 Q1013 NOSIG=
201906151830 METAR LRCK 151830Z 04005KT CAVOK 23/17 Q1014 NOSIG=
201906151900 METAR LRCK 151900Z 06004KT CAVOK 22/16 Q1013 NOSIG=
201906151930 METAR LRCK 151930Z 35003KT CAVOK 22/16 Q1013 NOSIG=
201906152000 METAR LRCK 152000Z 35009KT CAVOK 22/16 Q1013 NOSIG=
201906152030 METAR LRCK 152030Z 31009KT CAVOK 21/17 Q1013 NOSIG=
201906152100 METAR LRCK 152100Z 30007KT CAVOK 21/17 Q1013 NOSIG=
201906152130 METAR LRCK 152130Z 30008KT CAVOK 20/17 Q1013 NOSIG=
201906152200 METAR LRCK 152200Z 28006KT CAVOK 20/17 Q1013 NOSIG=
201906152230 METAR LRCK 152230Z 34006KT CAVOK 20/17 Q1013 NOSIG=
201906152300 METAR COR LRCK 152300Z 33007KT CAVOK 20/16 Q1013 NOSIG=
201906152330 METAR LRCK 152330Z 34007KT CAVOK 20/16 Q1012 NOSIG=
201906160000 METAR LRCK 160000Z 31006KT CAVOK 20/16 Q1012 NOSIG=
201906160030 METAR LRCK 160030Z 34008KT CAVOK 20/16 Q1012 NOSIG=
201906160100 METAR LRCK 160100Z 33007KT CAVOK 20/15 Q1012 NOSIG=
201906160130 METAR COR LRCK 160130Z 30007KT CAVOK 19/16 Q1012 NOSIG=
201906160200 METAR LRCK 160200Z 29007KT CAVOK 19/16 Q1012 NOSIG=
201906160230 METAR LRCK 160230Z 27006KT CAVOK 18/16 Q1012 NOSIG=
201906160300 METAR LRCK 160300Z 27007KT CAVOK 18/17 Q1012 NOSIG=
201906160330 METAR LRCK 160330Z 27007KT CAVOK 19/17 Q1012 NOSIG=
201906160400 METAR LRCK 160400Z 28005KT CAVOK 21/18 Q1012 NOSIG=
201906160430 METAR LRCK 160430Z 29004KT 250V330 CAVOK 22/18 Q1012 NOSIG=
201906160500 METAR LRCK 160500Z 34006KT CAVOK 24/19 Q1012 NOSIG=
201906160530 METAR LRCK 160530Z 34006KT 310V010 CAVOK 26/18 Q1012 NOSIG=
201906160600 METAR LRCK 160600Z 02006KT 330V080 CAVOK 28/19 Q1013 NOSIG=
201906160630 METAR LRCK 160630Z 05005KT 010V100 CAVOK 28/20 Q1013 NOSIG=
201906160700 METAR LRCK 160700Z 08005KT 010V120 CAVOK 29/20 Q1013 NOSIG=
201906160730 METAR LRCK 160730Z 08005KT 010V120 9999 FEW040 29/20 Q1013
                        NOSIG=
201906160800 METAR LRCK 160800Z 07006KT 030V090 9999 FEW045 30/19 Q1013
                        NOSIG=
201906160830 METAR LRCK 160830Z 06012KT 9999 FEW040 FEW045CB 30/20 Q1013
                        NOSIG=
201906160900 METAR LRCK 160900Z 06011KT 9999 FEW040 FEW045CB 31/15 Q1013
                        NOSIG=
201906160930 METAR LRCK 160930Z 07013KT 9999 FEW045CB 32/14 Q1013 NOSIG=
201906161000 METAR LRCK 161000Z 07013KT 9999 FEW045CB 31/16 Q1013 NOSIG=
201906161030 METAR LRCK 161030Z 03013KT 9999 FEW050CB 30/15 Q1013 NOSIG=
201906161100 METAR LRCK 161100Z 04010KT 9999 FEW050CB 31/14 Q1013 NOSIG=
201906161130 METAR LRCK 161130Z 10015KT 9999 FEW050CB 30/18 Q1012 NOSIG=
201906161200 METAR LRCK 161200Z 10013KT 9999 FEW050CB 30/15 Q1012 NOSIG=
201906161230 METAR LRCK 161230Z 10013KT 9999 FEW050CB 30/15 Q1012 NOSIG=
201906161300 METAR LRCK 161300Z 10013KT 9999 FEW050CB 30/12 Q1012 NOSIG=
201906161330 METAR LRCK 161330Z 11011KT 9999 FEW050CB 30/12 Q1012 NOSIG=
201906161400 METAR LRCK 161400Z 09009KT 9999 FEW050CB 30/11 Q1012 NOSIG=
201906161430 METAR LRCK 161430Z 08008KT 9999 FEW060CB 30/11 Q1012 NOSIG=
201906161500 METAR LRCK 161500Z 10008KT 080V140 CAVOK 30/10 Q1012 NOSIG=
201906161530 METAR LRCK 161530Z 09008KT CAVOK 29/12 Q1012 NOSIG=
201906161600 METAR LRCK 161600Z 09008KT CAVOK 29/13 Q1012 NOSIG=
201906161630 METAR LRCK 161630Z 09006KT CAVOK 28/13 Q1012 NOSIG=
201906161700 METAR LRCK 161700Z 06004KT CAVOK 25/14 Q1012 NOSIG=
201906161730 METAR LRCK 161730Z 08003KT CAVOK 24/14 Q1012 NOSIG=
201906161800 METAR LRCK 161800Z 00000KT CAVOK 22/13 Q1012 NOSIG=
201906161830 METAR LRCK 161830Z 31003KT CAVOK 22/13 Q1012 NOSIG=
201906161900 METAR LRCK 161900Z 31005KT CAVOK 21/13 Q1012 NOSIG=
201906161930 METAR LRCK 161930Z 32004KT CAVOK 22/12 Q1012 NOSIG=
201906162000 METAR LRCK 162000Z 32005KT CAVOK 21/11 Q1012 NOSIG=
201906162030 METAR LRCK 162030Z 32007KT CAVOK 21/11 Q1012 NOSIG=
201906162100 METAR COR LRCK 162100Z 30006KT CAVOK 21/11 Q1012 NOSIG=
201906162130 METAR LRCK 162130Z 30008KT CAVOK 21/12 Q1012 NOSIG=
201906162200 METAR LRCK 162200Z 30008KT CAVOK 22/12 Q1012 NOSIG=
201906162230 METAR LRCK 162230Z 31007KT CAVOK 21/13 Q1012 NOSIG=
201906162300 METAR LRCK 162300Z 33005KT CAVOK 21/12 Q1012 NOSIG=
201906162330 METAR LRCK 162330Z 32006KT CAVOK 21/13 Q1012 NOSIG=
201906170000 METAR LRCK 170000Z 32006KT CAVOK 21/13 Q1012 NOSIG=
201906170030 METAR LRCK 170030Z 32007KT CAVOK 22/12 Q1012 NOSIG=
201906170100 METAR LRCK 170100Z 32006KT CAVOK 22/12 Q1012 NOSIG=
201906170130 METAR LRCK 170130Z 34005KT CAVOK 21/12 Q1012 NOSIG=
201906170200 METAR LRCK 170200Z 35006KT CAVOK 22/13 Q1012 NOSIG=
201906170230 METAR LRCK 170230Z 34005KT CAVOK 21/13 Q1012 NOSIG=
201906170300 METAR LRCK 170300Z 35007KT CAVOK 21/14 Q1012 NOSIG=
201906170330 METAR LRCK 170330Z 34006KT CAVOK 23/15 Q1012 NOSIG=
201906170400 METAR LRCK 170400Z 36010KT CAVOK 25/16 Q1012 NOSIG=
201906170430 METAR LRCK 170430Z 01011KT CAVOK 26/17 Q1012 NOSIG=
201906170500 METAR LRCK 170500Z 02010KT CAVOK 27/18 Q1012 NOSIG=
201906170530 METAR LRCK 170530Z 03009KT CAVOK 28/19 Q1013 NOSIG=
201906170600 METAR LRCK 170600Z 02007KT CAVOK 29/19 Q1013 NOSIG=
201906170630 METAR LRCK 170630Z 04011KT CAVOK 29/19 Q1013 NOSIG=
201906170700 METAR COR LRCK 170700Z 05008KT 010V070 CAVOK 30/20 Q1013
                        BECMG 11014KT=
201906170730 METAR LRCK 170730Z 04011KT 010V080 CAVOK 30/21 Q1013 BECMG
                        11014KT=
201906170800 METAR LRCK 170800Z 07013KT 9999 FEW040 30/18 Q1013 NOSIG=
201906170830 METAR LRCK 170830Z 08012KT 9999 FEW040 30/18 Q1013 NOSIG=
201906170900 METAR LRCK 170900Z 07014KT 9999 FEW043 30/18 Q1013 NOSIG=
201906170930 METAR LRCK 170930Z 08012KT 9999 FEW043 30/17 Q1014 NOSIG=
201906171000 METAR LRCK 171000Z 07012KT 9999 FEW043 30/17 Q1013 NOSIG=
201906171030 METAR LRCK 171030Z 06012KT 9999 FEW043 FEW050TCU 30/17 Q1013
                        NOSIG=
201906171100 METAR LRCK 171100Z 09011KT 9999 FEW045 FEW050TCU 30/17 Q1013
                        NOSIG=
201906171130 METAR LRCK 171130Z 08013KT CAVOK 30/18 Q1013 NOSIG=
201906171200 METAR LRCK 171200Z 09013KT CAVOK 30/17 Q1013 NOSIG=
201906171230 METAR LRCK 171230Z 09013KT CAVOK 29/18 Q1013 NOSIG=
201906171300 METAR LRCK 171300Z 09013KT CAVOK 29/17 Q1013 NOSIG=
201906171330 METAR LRCK 171330Z 08014KT CAVOK 28/17 Q1013 NOSIG=
201906171400 METAR LRCK 171400Z 08013KT CAVOK 29/16 Q1013 NOSIG=
201906171430 METAR LRCK 171430Z 07013KT CAVOK 29/14 Q1013 NOSIG=
201906171500 METAR LRCK 171500Z 07012KT CAVOK 28/18 Q1013 NOSIG=
201906171530 METAR LRCK 171530Z 07009KT CAVOK 27/18 Q1013 NOSIG=
201906171600 METAR LRCK 171600Z 07009KT CAVOK 27/18 Q1013 NOSIG=
201906171630 METAR LRCK 171630Z 07008KT CAVOK 26/15 Q1013 NOSIG=
201906171700 METAR LRCK 171700Z 08005KT CAVOK 25/16 Q1013 NOSIG=
201906171730 METAR LRCK 171730Z 07004KT CAVOK 23/16 Q1013 NOSIG=
201906171800 METAR LRCK 171800Z VRB02KT CAVOK 23/15 Q1014 NOSIG=
201906171830 METAR LRCK 171830Z 01003KT CAVOK 22/16 Q1014 NOSIG=
201906171900 METAR LRCK 171900Z 34002KT CAVOK 23/16 Q1014 NOSIG=
201906171930 METAR LRCK 171930Z 36005KT CAVOK 22/16 Q1014 NOSIG=
201906172000 METAR LRCK 172000Z 34003KT CAVOK 22/16 Q1014 NOSIG=
201906172030 METAR LRCK 172030Z 32005KT CAVOK 21/16 Q1014 NOSIG=
201906172100 METAR LRCK 172100Z 32005KT CAVOK 21/16 Q1014 NOSIG=
201906172130 METAR LRCK 172130Z 32006KT CAVOK 21/16 Q1014 NOSIG=
201906172200 METAR LRCK 172200Z 32006KT CAVOK 21/16 Q1014 NOSIG=
201906172230 METAR LRCK 172230Z 32006KT CAVOK 21/16 Q1014 NOSIG=
201906172300 METAR LRCK 172300Z 33007KT CAVOK 21/16 Q1014 NOSIG=
201906172330 METAR LRCK 172330Z 32007KT CAVOK 21/16 Q1014 NOSIG=
201906180000 METAR LRCK 180000Z 32007KT CAVOK 21/15 Q1014 NOSIG=
201906180030 METAR LRCK 180030Z 34008KT CAVOK 21/15 Q1013 NOSIG=
201906180100 METAR LRCK 180100Z 34007KT CAVOK 20/15 Q1013 NOSIG=
201906180130 METAR LRCK 180130Z 34007KT CAVOK 20/14 Q1014 NOSIG=
201906180200 METAR LRCK 180200Z 35008KT CAVOK 20/14 Q1014 NOSIG=
201906180230 METAR LRCK 180230Z 35011KT CAVOK 21/15 Q1014 NOSIG=
201906180300 METAR LRCK 180300Z AUTO 35008KT 9999 NCD 20/15 Q1014 NOSIG=
201906180330 METAR LRCK 180330Z 35009KT CAVOK 21/16 Q1014 NOSIG=
201906180400 METAR LRCK 180400Z 01008KT CAVOK 23/17 Q1014 NOSIG=
201906180430 METAR LRCK 180430Z 36010KT CAVOK 24/17 Q1014 NOSIG=
201906180500 METAR LRCK 180500Z 01008KT CAVOK 26/17 Q1014 NOSIG=
201906180530 METAR LRCK 180530Z 01011KT CAVOK 27/16 Q1014 NOSIG=
201906180600 METAR LRCK 180600Z 01011KT CAVOK 28/15 Q1015 NOSIG=
201906180630 METAR LRCK 180630Z 02011KT CAVOK 29/15 Q1015 NOSIG=
201906180700 METAR LRCK 180700Z 01010KT CAVOK 29/15 Q1015 NOSIG=
201906180730 METAR LRCK 180730Z 04011KT CAVOK 30/14 Q1015 NOSIG=
201906180800 METAR LRCK 180800Z 05010KT 360V080 CAVOK 30/15 Q1015 NOSIG=
201906180830 METAR LRCK 180830Z 05012KT CAVOK 31/17 Q1015 NOSIG=
201906180900 METAR LRCK 180900Z 07014KT CAVOK 30/14 Q1015 NOSIG=
201906180930 METAR LRCK 180930Z 06013KT 9999 FEW040 30/15 Q1015 NOSIG=
201906181000 METAR LRCK 181000Z 05012KT 9999 FEW045 30/14 Q1015 NOSIG=
201906181030 METAR LRCK 181030Z 05012KT 010V080 9999 FEW048 30/13 Q1015
                        NOSIG=
201906181100 METAR LRCK 181100Z 05011KT 020V090 9999 FEW049 30/17 Q1015
                        NOSIG=
201906181130 METAR LRCK 181130Z 08013KT CAVOK 30/18 Q1015 NOSIG=
201906181200 METAR LRCK 181200Z 06012KT 040V110 CAVOK 30/18 Q1015 NOSIG=
201906181230 METAR LRCK 181230Z 09012KT CAVOK 29/18 Q1014 NOSIG=
201906181300 METAR LRCK 181300Z 10012KT CAVOK 29/17 Q1014 NOSIG=
201906181330 METAR LRCK 181330Z 10010KT 060V140 CAVOK 29/18 Q1014 NOSIG=
201906181400 METAR LRCK 181400Z 10010KT CAVOK 29/16 Q1014 NOSIG=
201906181430 METAR LRCK 181430Z 10010KT CAVOK 29/15 Q1013 NOSIG=
201906181500 METAR LRCK 181500Z NIL=
201906181530 METAR LRCK 181530Z 09009KT 9999 VCTS FEW050CB 28/15 Q1013
                        NOSIG=
201906181600 METAR LRCK 181600Z 08008KT 9999 FEW050CB 27/14 Q1013 NOSIG=
201906181630 METAR LRCK 181630Z 09007KT 9999 FEW050CB 27/17 Q1013 NOSIG=
201906181700 METAR COR LRCK 181700Z 11006KT 9999 FEW050CB 25/16 Q1013
                        NOSIG=
201906181730 METAR LRCK 181730Z 09005KT CAVOK 23/16 Q1014 NOSIG=
201906181800 METAR LRCK 181800Z 08002KT CAVOK 23/17 Q1014 NOSIG=
201906181830 METAR LRCK 181830Z 05002KT CAVOK 23/18 Q1015 NOSIG=
201906181900 METAR LRCK 181900Z 08005KT CAVOK 21/17 Q1014 NOSIG=
201906181930 METAR LRCK 181930Z 07007KT CAVOK 20/17 Q1015 NOSIG=
201906182000 METAR LRCK 182000Z 05005KT CAVOK 21/17 Q1015 NOSIG=
201906182030 METAR LRCK 182030Z 02003KT CAVOK 21/16 Q1015 NOSIG=
201906182100 METAR LRCK 182100Z 33003KT CAVOK 19/15 Q1015 NOSIG=
201906182130 METAR LRCK 182130Z 30004KT CAVOK 18/16 Q1015 NOSIG=
201906182200 METAR LRCK 182200Z 31004KT CAVOK 19/15 Q1015 NOSIG=
201906182230 METAR LRCK 182230Z 32004KT CAVOK 18/15 Q1014 NOSIG=
201906182300 METAR LRCK 182300Z 34003KT CAVOK 19/15 Q1014 NOSIG=
201906182330 METAR LRCK 182330Z 34004KT CAVOK 18/15 Q1014 NOSIG=
201906190000 METAR LRCK 190000Z 32005KT CAVOK 18/15 Q1014 NOSIG=
201906190030 METAR LRCK 190030Z 33004KT CAVOK 17/14 Q1014 NOSIG=
201906190100 METAR LRCK 190100Z 33004KT CAVOK 17/15 Q1014 NOSIG=
201906190130 METAR LRCK 190130Z 33004KT CAVOK 18/14 Q1014 NOSIG=
201906190200 METAR LRCK 190200Z 33005KT CAVOK 17/14 Q1014 NOSIG=
201906190230 METAR LRCK 190230Z 33004KT CAVOK 17/14 Q1014 NOSIG=
201906190300 METAR LRCK 190300Z 33005KT CAVOK 18/14 Q1014 NOSIG=
201906190330 METAR LRCK 190330Z 33004KT CAVOK 19/14 Q1014 NOSIG=
201906190400 METAR LRCK 190400Z 36007KT CAVOK 21/15 Q1014 NOSIG=
201906190430 METAR LRCK 190430Z 36006KT CAVOK 23/16 Q1014 NOSIG=
201906190500 METAR LRCK 190500Z 01009KT CAVOK 25/18 Q1014 NOSIG=
201906190530 METAR LRCK 190530Z 01010KT CAVOK 25/18 Q1014 NOSIG=
201906190600 METAR LRCK 190600Z 01010KT CAVOK 27/17 Q1014 NOSIG=
201906190630 METAR LRCK 190630Z 02009KT CAVOK 28/17 Q1014 NOSIG=
201906190700 METAR LRCK 190700Z 02007KT CAVOK 29/18 Q1014 NOSIG=
201906190730 METAR LRCK 190730Z 05006KT 9999 FEW040 29/18 Q1014 NOSIG=
201906190800 METAR LRCK 190800Z 09008KT 9999 FEW040 29/18 Q1014 NOSIG=
201906190830 METAR LRCK 190830Z 09009KT 050V110 9999 FEW036 30/20 Q1014
                        NOSIG=
201906190900 METAR LRCK 190900Z 11008KT 9999 SCT040 30/19 Q1014 NOSIG=
201906190930 METAR LRCK 190930Z 10005KT 050V190 9999 FEW040 30/17 Q1014
                        NOSIG=
201906191000 METAR LRCK 191000Z 10008KT 060V130 9999 FEW048 31/17 Q1014
                        NOSIG=
201906191030 METAR LRCK 191030Z 09010KT 060V120 9999 FEW048CB 31/15 Q1013
                        NOSIG=
201906191100 METAR LRCK 191100Z 09010KT 050V120 9999 FEW048CB 31/17 Q1013
                        NOSIG=
201906191130 METAR LRCK 191130Z 12012KT 9999 FEW048CB 31/17 Q1013 NOSIG=
201906191200 METAR LRCK 191200Z 10012KT 9999 FEW048CB 31/15 Q1012 NOSIG=
201906191230 METAR LRCK 191230Z 10012KT 9999 FEW048CB 31/16 Q1012 NOSIG=
201906191300 METAR LRCK 191300Z 10011KT 9999 FEW050CB 31/15 Q1012 NOSIG=
201906191330 METAR LRCK 191330Z 09011KT 9999 FEW050CB 31/15 Q1012 NOSIG=
201906191400 METAR LRCK 191400Z 08011KT 050V110 9999 FEW050CB 30/15 Q1012
                        NOSIG=
201906191430 METAR LRCK 191430Z 09011KT 9999 FEW050CB 30/16 Q1012 NOSIG=
201906191500 METAR LRCK 191500Z 08008KT 9999 FEW050CB 29/16 Q1012 NOSIG=
201906191530 METAR LRCK 191530Z 09010KT 9999 FEW050CB 29/17 Q1011 NOSIG=
201906191600 METAR LRCK 191600Z 07008KT CAVOK 29/17 Q1012 NOSIG=
201906191630 METAR LRCK 191630Z 04009KT 010V070 CAVOK 29/16 Q1012 NOSIG=
201906191700 METAR LRCK 191700Z 08007KT CAVOK 28/17 Q1012 NOSIG=
201906191730 METAR LRCK 191730Z 08006KT CAVOK 26/16 Q1012 NOSIG=
201906191800 METAR LRCK 191800Z 10004KT CAVOK 24/18 Q1012 NOSIG=
201906191830 METAR LRCK 191830Z 13003KT CAVOK 23/20 Q1012 NOSIG=
201906191900 METAR LRCK 191900Z 00000KT CAVOK 23/22 Q1012 NOSIG=
201906191930 METAR COR LRCK 191930Z 26003KT 240V300 CAVOK 21/20 Q1012
                        NOSIG=
201906192000 METAR LRCK 192000Z 29006KT CAVOK 22/20 Q1012 NOSIG=
201906192030 METAR COR LRCK 192030Z 31003KT CAVOK 21/18 Q1012 NOSIG=
201906192100 METAR LRCK 192100Z 32005KT CAVOK 21/18 Q1012 NOSIG=
201906192130 METAR LRCK 192130Z 31004KT CAVOK 21/18 Q1012 NOSIG=
201906192200 METAR LRCK 192200Z NIL=
201906192230 METAR LRCK 192230Z 31006KT CAVOK 21/17 Q1012 NOSIG=
201906192300 METAR LRCK 192300Z 31006KT CAVOK 21/17 Q1012 NOSIG=
201906192330 METAR LRCK 192330Z 32006KT CAVOK 22/18 Q1012 NOSIG=
201906200000 METAR LRCK 200000Z 32005KT CAVOK 22/18 Q1012 NOSIG=
201906200030 METAR LRCK 200030Z 31006KT CAVOK 22/18 Q1011 NOSIG=
201906200100 METAR COR LRCK 200100Z 33005KT CAVOK 22/18 Q1011 NOSIG=
201906200130 METAR LRCK 200130Z 34005KT CAVOK 21/17 Q1011 NOSIG=
201906200200 METAR LRCK 200200Z 33004KT CAVOK 21/17 Q1011 NOSIG=
201906200230 METAR LRCK 200230Z 31006KT CAVOK 21/18 Q1011 NOSIG=
201906200300 METAR LRCK 200300Z 30007KT CAVOK 21/17 Q1011 NOSIG=
201906200330 METAR LRCK 200330Z 29007KT CAVOK 21/17 Q1011 NOSIG=
201906200400 METAR LRCK 200400Z 29007KT CAVOK 21/17 Q1011 NOSIG=
201906200430 METAR LRCK 200430Z 28007KT CAVOK 20/18 Q1011 NOSIG=
201906200500 METAR LRCK 200500Z 28007KT CAVOK 22/18 Q1011 NOSIG=
201906200530 METAR LRCK 200530Z 29006KT CAVOK 24/19 Q1011 NOSIG=
201906200600 METAR LRCK 200600Z 29005KT CAVOK 25/19 Q1011 NOSIG=
201906200630 METAR LRCK 200630Z 31006KT 270V020 CAVOK 27/19 Q1011 NOSIG=
201906200700 METAR LRCK 200700Z 31005KT 260V350 CAVOK 28/20 Q1011 NOSIG=
201906200730 METAR LRCK 200730Z 01005KT 320V060 CAVOK 30/19 Q1011 NOSIG=
201906200800 METAR LRCK 200800Z 04008KT 010V080 9999 FEW049 31/19 Q1011
                        NOSIG=
201906200830 METAR LRCK 200830Z 02008KT 350V050 9999 FEW046 FEW050CB 32/21
                        Q1011 NOSIG=
201906200900 METAR LRCK 200900Z 07010KT 030V100 9999 VCTS FEW048 FEW050CB
                        31/20 Q1011 NOSIG=
201906200930 METAR LRCK 200930Z 08011KT 9999 VCTS FEW048 FEW050CB 28/20
                        Q1011 NOSIG=
201906201000 METAR LRCK 201000Z 13008KT 9999 VCTS FEW048CB 27/22 Q1011
                        NOSIG=
201906201030 METAR LRCK 201030Z 10015KT 9999 VCTS FEW042 FEW050CB 28/20
                        Q1011 NOSIG=
201906201100 METAR LRCK 201100Z 08011KT 9999 VCTS FEW050CB 28/17 Q1011
                        NOSIG=
201906201130 METAR LRCK 201130Z 29011KT 9999 VCTS FEW050CB 25/16 Q1011
                        NOSIG=
201906201200 METAR LRCK 201200Z 30008KT 9999 VCTS FEW050CB 25/17 Q1012
                        NOSIG=
201906201230 METAR LRCK 201230Z 30012KT 9999 FEW050CB 24/17 Q1012 NOSIG=
201906201300 METAR LRCK 201300Z 31009KT 280V340 9999 FEW050CB 25/17 Q1012
                        NOSIG=
201906201330 METAR LRCK 201330Z 32007KT 9999 FEW050CB 25/17 Q1011 NOSIG=
201906201400 METAR LRCK 201400Z 34005KT 310V010 9999 FEW050CB 26/17 Q1012
                        NOSIG=
201906201430 METAR LRCK 201430Z 32007KT 9999 FEW060CB 26/16 Q1011 NOSIG=
201906201500 METAR LRCK 201500Z 33008KT 9999 FEW060CB 26/17 Q1011 NOSIG=
201906201530 METAR LRCK 201530Z 34009KT CAVOK 26/17 Q1011 NOSIG=
201906201600 METAR LRCK 201600Z 33006KT CAVOK 26/17 Q1011 NOSIG=
201906201630 METAR LRCK 201630Z 31005KT CAVOK 26/17 Q1011 NOSIG=
201906201700 METAR LRCK 201700Z 29006KT CAVOK 25/18 Q1011 NOSIG=
201906201730 METAR LRCK 201730Z 28011KT CAVOK 22/19 Q1012 NOSIG=
201906201800 METAR LRCK 201800Z 29012KT CAVOK 22/19 Q1011 NOSIG=
201906201830 METAR LRCK 201830Z 30009KT CAVOK 22/19 Q1012 NOSIG=
201906201900 METAR LRCK 201900Z 31009KT CAVOK 22/19 Q1012 NOSIG=
201906201930 METAR LRCK 201930Z 31008KT 270V330 CAVOK 22/18 Q1012 NOSIG=
201906202000 METAR LRCK 202000Z 31007KT 280V340 CAVOK 21/18 Q1012 NOSIG=
201906202030 METAR LRCK 202030Z 34006KT CAVOK 21/18 Q1012 NOSIG=
201906202100 METAR LRCK 202100Z 32004KT CAVOK 22/18 Q1012 NOSIG=
201906202130 METAR LRCK 202130Z 36006KT CAVOK 22/18 Q1012 NOSIG=
201906202200 METAR LRCK 202200Z 36006KT CAVOK 22/17 Q1012 NOSIG=
201906202230 METAR LRCK 202230Z VRB02KT CAVOK 21/18 Q1012 NOSIG=
201906202300 METAR LRCK 202300Z 31004KT 260V340 CAVOK 22/18 Q1012 NOSIG=
201906202330 METAR LRCK 202330Z 22005KT CAVOK 21/19 Q1012 NOSIG=
201906210000 METAR LRCK 210000Z 32006KT CAVOK 21/19 Q1012 NOSIG=
201906210030 METAR LRCK 210030Z 31005KT CAVOK 21/19 Q1012 NOSIG=
201906210100 METAR COR LRCK 210100Z 28004KT CAVOK 20/19 Q1012 NOSIG=
201906210130 METAR LRCK 210130Z 27005KT CAVOK 20/19 Q1012 NOSIG=
201906210200 METAR LRCK 210200Z 28007KT CAVOK 20/19 Q1012 NOSIG=
201906210230 METAR LRCK 210230Z 29009KT CAVOK 20/19 Q1012 NOSIG=
201906210300 METAR LRCK 210300Z 27006KT CAVOK 20/19 Q1012 NOSIG=
201906210330 METAR LRCK 210330Z 27008KT CAVOK 20/19 Q1013 NOSIG=
201906210400 METAR LRCK 210400Z 29010KT CAVOK 20/19 Q1012 NOSIG=
201906210430 METAR LRCK 210430Z 28008KT CAVOK 21/19 Q1013 NOSIG=
201906210500 METAR LRCK 210500Z 28006KT CAVOK 22/20 Q1013 NOSIG=
201906210530 METAR LRCK 210530Z 28009KT CAVOK 22/20 Q1013 NOSIG=
201906210600 METAR LRCK 210600Z 28009KT CAVOK 23/20 Q1013 NOSIG=
201906210630 METAR LRCK 210630Z 28007KT CAVOK 25/20 Q1013 NOSIG=
201906210700 METAR LRCK 210700Z 26009KT CAVOK 26/20 Q1014 NOSIG=
201906210730 METAR LRCK 210730Z 28009KT CAVOK 27/20 Q1014 NOSIG=
201906210800 METAR LRCK 210800Z 28011KT CAVOK 28/19 Q1013 NOSIG=
201906210830 METAR LRCK 210830Z 28009KT CAVOK 28/19 Q1013 NOSIG=
201906210900 METAR LRCK 210900Z 29008KT CAVOK 30/19 Q1013 NOSIG=
201906210930 METAR LRCK 210930Z 29006KT CAVOK 30/18 Q1013 NOSIG=
201906211000 METAR LRCK 211000Z 26006KT 230V290 CAVOK 30/18 Q1013 NOSIG=
201906211030 METAR LRCK 211030Z 30008KT 260V320 CAVOK 32/18 Q1013 NOSIG=
201906211100 METAR LRCK 211100Z 29009KT CAVOK 32/18 Q1013 NOSIG=
201906211130 METAR LRCK 211130Z 31008KT CAVOK 32/18 Q1013 NOSIG=
201906211200 METAR LRCK 211200Z 26009KT 9999 FEW055TCU 31/18 Q1013 NOSIG=
201906211230 METAR LRCK 211230Z VRB04KT 9999 FEW055CB 31/18 Q1013 NOSIG=
201906211300 METAR LRCK 211300Z 06006KT 020V090 9999 TS FEW060CB 31/16
                        Q1013 NOSIG=
201906211330 METAR LRCK 211330Z 12009KT 9999 VCSH TS SCT060CB 29/19 Q1013
                        NOSIG=
201906211400 METAR LRCK 211400Z 28009KT 9999 VCSH TS FEW060CB 27/16 Q1013
                        TEMPO 5000 TSRA=
201906211430 METAR LRCK 211430Z 30005KT 260V330 9999 FEW060CB 28/17 Q1013
                        RETS NOSIG=
201906211500 METAR LRCK 211500Z 31004KT 9999 FEW060CB 29/18 Q1013 NOSIG=
201906211530 METAR LRCK 211530Z 32004KT CAVOK 30/18 Q1013 NOSIG=
201906211600 METAR LRCK 211600Z 05005KT CAVOK 29/17 Q1013 NOSIG=
201906211630 METAR LRCK 211630Z 08004KT CAVOK 29/18 Q1013 NOSIG=
201906211700 METAR LRCK 211700Z 09004KT CAVOK 28/20 Q1013 NOSIG=
201906211730 METAR LRCK 211730Z 05003KT 350V070 CAVOK 26/17 Q1013 NOSIG=
201906211800 METAR LRCK 211800Z 29006KT CAVOK 26/21 Q1013 NOSIG=
201906211830 METAR LRCK 211830Z 30007KT CAVOK 25/22 Q1014 NOSIG=
201906211900 METAR LRCK 211900Z 30006KT CAVOK 24/21 Q1014 NOSIG=
201906211930 METAR LRCK 211930Z 31005KT CAVOK 23/21 Q1014 NOSIG=
201906212000 METAR LRCK 212000Z 33006KT CAVOK 23/19 Q1014 NOSIG=
201906212030 METAR LRCK 212030Z 32004KT CAVOK 22/19 Q1014 NOSIG=
201906212100 METAR LRCK 212100Z 32005KT CAVOK 22/18 Q1014 NOSIG=
201906212130 METAR LRCK 212130Z 32005KT CAVOK 21/18 Q1014 NOSIG=
201906212200 METAR LRCK 212200Z 33005KT CAVOK 22/18 Q1014 NOSIG=
201906212230 METAR LRCK 212230Z 34004KT CAVOK 21/18 Q1014 NOSIG=
201906212300 METAR LRCK 212300Z 32006KT CAVOK 21/18 Q1013 NOSIG=
201906212330 METAR LRCK 212330Z 30007KT CAVOK 21/17 Q1013 NOSIG=
201906220000 METAR LRCK 220000Z 30007KT CAVOK 20/17 Q1013 NOSIG=
201906220030 METAR LRCK 220030Z 30007KT CAVOK 21/17 Q1013 NOSIG=
201906220100 METAR LRCK 220100Z 32005KT CAVOK 21/17 Q1013 NOSIG=
201906220130 METAR LRCK 220130Z 01005KT 340V040 CAVOK 20/16 Q1014 NOSIG=
201906220200 METAR LRCK 220200Z 32007KT CAVOK 21/16 Q1014 NOSIG=
201906220230 METAR LRCK 220230Z 31007KT CAVOK 21/16 Q1014 NOSIG=
201906220300 METAR LRCK 220300Z 30005KT CAVOK 19/16 Q1014 NOSIG=
201906220330 METAR LRCK 220330Z 30007KT CAVOK 21/17 Q1014 NOSIG=
201906220400 METAR LRCK 220400Z 30007KT CAVOK 23/17 Q1014 NOSIG=
201906220430 METAR LRCK 220430Z 29008KT CAVOK 24/18 Q1014 NOSIG=
201906220500 METAR LRCK 220500Z 29007KT CAVOK 26/19 Q1014 NOSIG=
201906220530 METAR LRCK 220530Z 29008KT CAVOK 27/20 Q1014 NOSIG=
201906220600 METAR LRCK 220600Z 28008KT CAVOK 27/20 Q1014 NOSIG=
201906220630 METAR LRCK 220630Z 28008KT CAVOK 29/20 Q1014 NOSIG=
201906220700 METAR LRCK 220700Z 32007KT 280V340 CAVOK 30/21 Q1014 NOSIG=
201906220730 METAR LRCK 220730Z 31009KT CAVOK 31/18 Q1014 NOSIG=
201906220800 METAR LRCK 220800Z 33009KT CAVOK 33/15 Q1014 NOSIG=
201906220830 METAR LRCK 220830Z 35010KT CAVOK 34/16 Q1014 NOSIG=
201906220900 METAR LRCK 220900Z 35011KT 310V040 CAVOK 34/14 Q1014 NOSIG=
201906220930 METAR LRCK 220930Z 04009KT 360V080 CAVOK 32/14 Q1014 NOSIG=
201906221000 METAR LRCK 221000Z 06015KT 9999 TS SCT050CB 33/15 Q1014 TEMPO
                        5000 -TSRA=
201906221030 METAR LRCK 221030Z 29014KT 9999 -TSRA SCT050CB 27/15 Q1015
                        TEMPO 5000 -TSRA=
201906221100 METAR LRCK 221100Z 27004KT 180V300 9999 TS FEW050CB 24/18
                        Q1015 NOSIG=
201906221130 METAR LRCK 221130Z 21003KT 110V280 9999 VCTS FEW050CB 24/18
                        Q1015 NOSIG=
201906221200 METAR COR LRCK 221200Z 28008KT 9999 VCTS FEW050CB 24/17 Q1015
                        NOSIG=
201906221230 METAR LRCK 221230Z 30006KT 270V350 9999 VCTS FEW050CB 24/17
                        Q1015 NOSIG=
201906221300 METAR LRCK 221300Z 29005KT 9999 VCTS FEW050CB 25/16 Q1014
                        NOSIG=
201906221330 METAR LRCK 221330Z 30007KT 9999 FEW050CB 26/17 Q1014 NOSIG=
201906221400 METAR COR LRCK 221400Z 31005KT 9999 FEW050CB 27/17 Q1014
                        NOSIG=
201906221430 METAR LRCK 221430Z 29007KT CAVOK 27/18 Q1014 NOSIG=
201906221500 METAR LRCK 221500Z 31005KT CAVOK 29/18 Q1014 NOSIG=
201906221530 METAR LRCK 221530Z 33005KT CAVOK 29/18 Q1014 NOSIG=
201906221600 METAR LRCK 221600Z 35008KT CAVOK 29/18 Q1014 NOSIG=
201906221630 METAR LRCK 221630Z 34007KT CAVOK 27/17 Q1014 NOSIG=
201906221700 METAR LRCK 221700Z 01006KT CAVOK 27/17 Q1014 NOSIG=
201906221730 METAR LRCK 221730Z 34005KT CAVOK 25/17 Q1014 NOSIG=
201906221800 METAR LRCK 221800Z 05003KT 320V080 CAVOK 23/17 Q1015 NOSIG=
201906221830 METAR LRCK 221830Z VRB01KT CAVOK 22/17 Q1015 NOSIG=
201906221900 METAR LRCK 221900Z 36005KT CAVOK 23/17 Q1015 NOSIG=
201906221930 METAR LRCK 221930Z 03006KT CAVOK 21/16 Q1015 NOSIG=
201906222000 METAR LRCK 222000Z 02004KT CAVOK 21/17 Q1015 NOSIG=
201906222030 METAR LRCK 222030Z VRB01KT CAVOK 20/17 Q1014 NOSIG=
201906222100 METAR LRCK 222100Z 10003KT CAVOK 21/20 Q1014 NOSIG=
201906222130 METAR LRCK 222130Z 31006KT CAVOK 20/18 Q1015 NOSIG=
201906222200 METAR LRCK 222200Z 28004KT 240V310 CAVOK 19/18 Q1014 NOSIG=
201906222230 METAR LRCK 222230Z 28004KT CAVOK 19/18 Q1015 NOSIG=
201906222300 METAR LRCK 222300Z 30004KT CAVOK 19/18 Q1015 NOSIG=
201906222330 METAR LRCK 222330Z 29008KT CAVOK 19/18 Q1014 NOSIG=
201906230000 METAR LRCK 230000Z 30005KT CAVOK 19/18 Q1015 NOSIG=
201906230030 METAR LRCK 230030Z 30005KT CAVOK 19/18 Q1014 NOSIG=
201906230100 METAR LRCK 230100Z 32006KT CAVOK 19/18 Q1014 NOSIG=
201906230130 METAR LRCK 230130Z 31006KT CAVOK 19/18 Q1015 NOSIG=
201906230200 METAR LRCK 230200Z 31006KT CAVOK 20/18 Q1015 NOSIG=
201906230230 METAR LRCK 230230Z 33003KT CAVOK 19/17 Q1015 NOSIG=
201906230300 METAR LRCK 230300Z 30004KT CAVOK 18/17 Q1015 NOSIG=
201906230330 METAR LRCK 230330Z 32004KT CAVOK 20/17 Q1015 NOSIG=
201906230400 METAR LRCK 230400Z 31005KT CAVOK 21/18 Q1015 NOSIG=
201906230430 METAR LRCK 230430Z 36003KT 320V030 CAVOK 23/19 Q1015 NOSIG=
201906230500 METAR LRCK 230500Z 36004KT CAVOK 25/18 Q1015 NOSIG=
201906230530 METAR LRCK 230530Z 07002KT 340V110 CAVOK 28/18 Q1015 NOSIG=
201906230600 METAR LRCK 230600Z 26004KT 240V310 CAVOK 27/18 Q1015 NOSIG=
201906230630 METAR LRCK 230630Z 29005KT CAVOK 27/19 Q1015 NOSIG=
201906230700 METAR LRCK 230700Z 27005KT CAVOK 28/18 Q1015 NOSIG=
201906230730 METAR LRCK 230730Z 27005KT 230V330 CAVOK 29/18 Q1015 NOSIG=
201906230800 METAR LRCK 230800Z 27007KT 240V300 CAVOK 30/19 Q1015 NOSIG=
201906230830 METAR LRCK 230830Z 29006KT 250V350 CAVOK 31/18 Q1014 NOSIG=
201906230900 METAR LRCK 230900Z 31005KT 250V360 9999 FEW048 32/17 Q1014
                        NOSIG=
201906230930 METAR LRCK 230930Z 32005KT 270V360 9999 FEW048 32/17 Q1014
                        NOSIG=
201906231000 METAR LRCK 231000Z VRB04KT 9999 FEW048 33/18 Q1014 NOSIG=
201906231030 METAR LRCK 231030Z 11009KT 080V140 9999 FEW048CB 31/22 Q1014
                        NOSIG=
201906231100 METAR LRCK 231100Z 10010KT 070V130 9999 TS FEW048CB 30/23
                        Q1014 TEMPO VRB15G25KT 5000 TSRA=
201906231130 METAR LRCK 231130Z 12010KT 080V140 9999 TS FEW048CB 30/22
                        Q1014 TEMPO VRB15G25KT 5000 TSRA=
201906231200 METAR LRCK 231200Z 09008KT 9999 TS SCT048CB 29/20 Q1014 TEMPO
                        VRB15G25KT 5000 TSRA=
201906231230 METAR LRCK 231230Z 09009KT 9999 TS SCT032 SCT045CB 29/19
                        Q1014 TEMPO VRB15G25KT 5000 TSRA=
201906231300 METAR LRCK 231300Z 04008KT 9999 TS SCT045CB 27/18 Q1015 NOSIG=
201906231330 METAR LRCK 231330Z 20004KT 120V230 9999 TS FEW045CB 26/19
                        Q1014 NOSIG=
201906231400 METAR LRCK 231400Z 08003KT 030V150 9999 VCTS FEW045CB 27/20
                        Q1014 NOSIG=
201906231430 METAR LRCK 231430Z 12006KT 9999 FEW050CB 28/20 Q1014 RETS
                        NOSIG=
201906231500 METAR LRCK 231500Z 09006KT 070V140 9999 FEW050CB 29/19 Q1014
                        NOSIG=
201906231530 METAR LRCK 231530Z 15006KT 100V170 CAVOK 29/18 Q1014 NOSIG=
201906231600 METAR LRCK 231600Z 12005KT CAVOK 30/18 Q1014 NOSIG=
201906231630 METAR LRCK 231630Z 09007KT CAVOK 29/18 Q1014 NOSIG=
201906231700 METAR LRCK 231700Z 13007KT CAVOK 27/20 Q1014 NOSIG=
201906231730 METAR LRCK 231730Z 13006KT CAVOK 26/20 Q1013 NOSIG=
201906231800 METAR LRCK 231800Z 14004KT CAVOK 24/20 Q1014 NOSIG=
201906231830 METAR LRCK 231830Z 11004KT CAVOK 23/20 Q1014 NOSIG=
201906231900 METAR LRCK 231900Z 13004KT CAVOK 22/20 Q1014 NOSIG=
201906231930 METAR LRCK 231930Z 15003KT CAVOK 22/20 Q1014 NOSIG=
201906232000 METAR LRCK 232000Z 11004KT CAVOK 22/20 Q1014 NOSIG=
201906232030 METAR LRCK 232030Z 07003KT 050V110 CAVOK 21/20 Q1014 NOSIG=
201906232100 METAR LRCK 232100Z 14003KT CAVOK 21/20 Q1014 NOSIG=
201906232130 METAR LRCK 232130Z 00000KT CAVOK 21/20 Q1014 NOSIG=
201906232200 METAR LRCK 232200Z 00000KT 8000 NSC 21/20 Q1014 NOSIG=
201906232230 METAR LRCK 232230Z 21003KT 8000 NSC 20/19 Q1014 NOSIG=
201906232300 METAR LRCK 232300Z 19005KT CAVOK 20/20 Q1014 NOSIG=
201906232330 METAR LRCK 232330Z 24004KT CAVOK 20/20 Q1014 NOSIG=
201906240000 METAR LRCK 240000Z 24005KT CAVOK 20/20 Q1014 NOSIG=
201906240030 METAR LRCK 240030Z 25004KT CAVOK 20/19 Q1014 NOSIG=
201906240100 METAR LRCK 240100Z 26003KT CAVOK 20/19 Q1014 NOSIG=
201906240130 METAR LRCK 240130Z 28004KT CAVOK 20/20 Q1014 NOSIG=
201906240200 METAR LRCK 240200Z 33004KT CAVOK 20/19 Q1014 NOSIG=
201906240230 METAR LRCK 240230Z VRB01KT CAVOK 18/18 Q1014 NOSIG=
201906240300 METAR LRCK 240300Z 30005KT CAVOK 19/19 Q1014 NOSIG=
201906240330 METAR LRCK 240330Z 36006KT CAVOK 19/19 Q1014 NOSIG=
201906240400 METAR LRCK 240400Z 34005KT CAVOK 22/20 Q1015 NOSIG=
201906240430 METAR LRCK 240430Z 34005KT 320V030 CAVOK 24/21 Q1015 NOSIG=
201906240500 METAR LRCK 240500Z 35005KT CAVOK 26/20 Q1015 NOSIG=
201906240530 METAR LRCK 240530Z 36007KT 330V030 CAVOK 28/19 Q1015 NOSIG=
201906240600 METAR LRCK 240600Z 02007KT 350V050 CAVOK 29/18 Q1015 NOSIG=
201906240630 METAR LRCK 240630Z 04007KT CAVOK 29/16 Q1015 NOSIG=
201906240700 METAR COR LRCK 240700Z 06008KT CAVOK 30/18 Q1015 NOSIG=
201906240730 METAR LRCK 240730Z 07008KT 040V100 CAVOK 30/20 Q1015 NOSIG=
201906240800 METAR LRCK 240800Z 09008KT 060V120 9999 FEW045 30/19 Q1015
                        NOSIG=
201906240830 METAR LRCK 240830Z 08007KT 040V100 9999 FEW045 31/20 Q1015
                        NOSIG=
201906240900 METAR LRCK 240900Z 10007KT 070V130 9999 FEW050CB 31/20 Q1015
                        NOSIG=
201906240930 METAR LRCK 240930Z 11008KT 080V140 9999 TS FEW050CB 31/21
                        Q1015 NOSIG=
201906241000 METAR LRCK 241000Z 13009KT 100V160 9999 TS FEW050CB 31/21
                        Q1015 NOSIG=
201906241030 METAR COR LRCK 241030Z 17015G26KT 140V200 1200 R18/1400VP2000D
                        +TSRA FEW012 SCT020 BKN040CB 24/19
                        Q1016 R18/29//95 TEMPO VRB26G36KT
                        0600 +TSRA BKN010 SCT030CB=
201906241100 METAR LRCK 241100Z 23006KT 190V290 9999 -TSRA FEW030 SCT040CB
                        22/19 Q1015 RETSRA R18/29//95 NOSIG=
201906241130 METAR LRCK 241130Z 24007KT 9999 VCTS FEW045CB 24/19 Q1015
                        R18/29//95 NOSIG=
201906241200 METAR LRCK 241200Z 29004KT 9999 VCTS FEW050CB 25/21 Q1016
                        R18/29//95 NOSIG=
201906241230 METAR LRCK 241230Z 20005KT 170V230 9999 FEW050CB 26/22 Q1015
                        R18/29//95 NOSIG=
201906241300 METAR COR LRCK 241300Z 32008G18KT 300V360 9999 TS VCSH FEW050CB
                        28/20 Q1015 TEMPO VRB18G28KT 5000
                        TSRA=
201906241330 METAR LRCK 241330Z 08015G28KT 030V120 9999 -TSRA FEW012 SCT039CB
                        22/19 Q1016 TEMPO 5000 TSRA=
201906241400 METAR LRCK 241400Z 20005KT 150V220 9999 TS FEW014 SCT040CB
                        23/21 Q1016 R36/29//95 TEMPO 5000
                        TSRA=
201906241430 METAR LRCK 241430Z 01022G34KT 9999 -TSRA SCT036 BKN041CB
                        21/19 Q1017 R36/29//95 TEMPO 3000
                        TSRA=
201906241500 METAR LRCK 241500Z VRB03KT 9999 -TSRA FEW024 SCT042CB 20/19
                        Q1017 RETSRA R36/29//95 NOSIG=
201906241530 METAR LRCK 241530Z 23004KT 9999 VCTS FEW050CB 20/19 Q1016
                        R36/29//95 NOSIG=
201906241600 METAR LRCK 241600Z 31009KT 9999 FEW050CB 20/18 Q1016 RETS
                        R36/29//95 NOSIG=
201906241630 METAR LRCK 241630Z 31005KT 9999 -SHRA FEW050CB 21/19 Q1016
                        R36/29//95 NOSIG=
201906241700 METAR LRCK 241700Z 35005KT 9999 FEW050CB 21/20 Q1017 R36/29//95
                        NOSIG=
201906241730 METAR LRCK 241730Z 01008KT 9999 FEW050CB 21/20 Q1017 R36/29//95
                        NOSIG=
201906241800 METAR LRCK 241800Z 35009KT 9999 FEW050CB 22/19 Q1017 R36/29//95
                        NOSIG=
201906241830 METAR LRCK 241830Z 33007KT 9999 FEW050CB 21/19 Q1017 R36/CLRD//
                        NOSIG=
201906241900 METAR LRCK 241900Z 32009KT CAVOK 22/19 Q1017 NOSIG=
201906241930 METAR LRCK 241930Z 32009KT CAVOK 22/19 Q1017 NOSIG=
201906242000 METAR LRCK 242000Z 33009KT CAVOK 22/20 Q1017 NOSIG=
201906242030 METAR LRCK 242030Z 32009KT CAVOK 22/20 Q1017 NOSIG=
201906242100 METAR LRCK 242100Z 31008KT CAVOK 21/20 Q1018 NOSIG=
201906242130 METAR LRCK 242130Z 32010KT CAVOK 22/19 Q1018 NOSIG=
201906242200 METAR LRCK 242200Z 33010KT CAVOK 22/19 Q1017 NOSIG=
201906242230 METAR LRCK 242230Z 32010KT CAVOK 21/19 Q1017 NOSIG=
201906242300 METAR LRCK 242300Z 33010KT CAVOK 21/19 Q1017 NOSIG=
201906242330 METAR LRCK 242330Z 32010KT CAVOK 21/18 Q1017 NOSIG=
201906250000 METAR LRCK 250000Z 33009KT CAVOK 21/18 Q1017 NOSIG=
201906250030 METAR LRCK 250030Z 33009KT CAVOK 21/18 Q1017 NOSIG=
201906250100 METAR LRCK 250100Z 33009KT CAVOK 21/18 Q1017 NOSIG=
201906250130 METAR LRCK 250130Z 32009KT CAVOK 21/18 Q1017 NOSIG=
201906250200 METAR LRCK 250200Z 29009KT CAVOK 20/18 Q1017 NOSIG=
201906250230 METAR LRCK 250230Z 30009KT CAVOK 20/19 Q1017 NOSIG=
201906250300 METAR LRCK 250300Z 30008KT CAVOK 21/19 Q1017 NOSIG=
201906250330 METAR LRCK 250330Z 31009KT CAVOK 21/19 Q1017 NOSIG=
201906250400 METAR COR LRCK 250400Z 34012KT CAVOK 22/20 Q1017 NOSIG=
201906250430 METAR LRCK 250430Z 33011KT CAVOK 23/20 Q1017 NOSIG=
201906250500 METAR LRCK 250500Z 33010KT CAVOK 23/20 Q1017 NOSIG=
201906250530 METAR LRCK 250530Z 34010KT CAVOK 25/21 Q1017 NOSIG=
201906250600 METAR LRCK 250600Z 34011KT CAVOK 26/21 Q1018 NOSIG=
201906250630 METAR LRCK 250630Z 01013KT 9999 FEW023 27/20 Q1018 NOSIG=
201906250700 METAR LRCK 250700Z 36014KT 9999 FEW029 28/20 Q1018 NOSIG=
201906250730 METAR LRCK 250730Z 01014KT 340V040 9999 FEW031 27/20 Q1018
                        NOSIG=
201906250800 METAR LRCK 250800Z 02014KT 9999 SCT037 28/20 Q1018 NOSIG=
201906250830 METAR LRCK 250830Z 03013KT 9999 SCT039 27/19 Q1018 NOSIG=
201906250900 METAR LRCK 250900Z 04016KT 9999 FEW039 FEW045TCU 29/21 Q1018
                        NOSIG=
201906250930 METAR LRCK 250930Z 04015KT 9999 FEW040 FEW045TCU 27/20 Q1018
                        NOSIG=
201906251000 METAR LRCK 251000Z 05014KT 9999 FEW045 28/21 Q1018 NOSIG=
201906251030 METAR LRCK 251030Z 03014KT 9999 FEW038 FEW050CB 29/20 Q1018
                        NOSIG=
201906251100 METAR LRCK 251100Z 03015KT 010V070 9999 FEW041 FEW050CB 29/20
                        Q1018 NOSIG=
201906251130 METAR COR LRCK 251130Z 04017KT 9999 FEW042 FEW050CB 30/21
                        Q1018 NOSIG=
201906251200 METAR LRCK 251200Z 05017KT 9999 FEW050CB 30/20 Q1018 NOSIG=
201906251230 METAR LRCK 251230Z 07012KT 9999 FEW050CB 28/21 Q1018 NOSIG=
201906251300 METAR LRCK 251300Z 08013KT 9999 FEW050CB 27/22 Q1018 NOSIG=
201906251330 METAR LRCK 251330Z 08013KT 9999 FEW050CB 27/21 Q1019 NOSIG=
201906251400 METAR LRCK 251400Z 07012KT 9999 SCT050CB 27/21 Q1019 NOSIG=
201906251430 METAR LRCK 251430Z 08012KT 9999 FEW050CB 27/20 Q1018 NOSIG=
201906251500 METAR LRCK 251500Z 07009KT 9999 FEW050CB 27/20 Q1019 NOSIG=
201906251530 METAR LRCK 251530Z 05008KT 9999 FEW050CB 27/20 Q1019 NOSIG=
201906251600 METAR LRCK 251600Z 06006KT 9999 FEW050CB 26/19 Q1019 NOSIG=
201906251630 METAR LRCK 251630Z 06004KT CAVOK 26/20 Q1019 NOSIG=
201906251700 METAR LRCK 251700Z 34006KT CAVOK 26/20 Q1020 NOSIG=
201906251730 METAR LRCK 251730Z 32006KT CAVOK 25/20 Q1020 NOSIG=
201906251800 METAR LRCK 251800Z 32009KT CAVOK 24/20 Q1020 NOSIG=
201906251830 METAR LRCK 251830Z 33011KT CAVOK 23/19 Q1020 NOSIG=
201906251900 METAR LRCK 251900Z 33010KT CAVOK 23/19 Q1020 NOSIG=
201906251930 METAR LRCK 251930Z 33010KT CAVOK 23/19 Q1020 NOSIG=
201906252000 METAR LRCK 252000Z 33012KT CAVOK 23/19 Q1020 NOSIG=
201906252030 METAR LRCK 252030Z 34011KT CAVOK 23/19 Q1020 NOSIG=
201906252100 METAR LRCK 252100Z 35010KT CAVOK 22/19 Q1020 NOSIG=
201906252130 METAR LRCK 252130Z 36012KT CAVOK 23/19 Q1020 NOSIG=
201906252200 METAR LRCK 252200Z 36012KT CAVOK 23/19 Q1020 NOSIG=
201906252230 METAR LRCK 252230Z 36011KT CAVOK 23/19 Q1020 NOSIG=
201906252300 METAR LRCK 252300Z 01011KT CAVOK 23/19 Q1020 NOSIG=
201906252330 METAR LRCK 252330Z 01010KT CAVOK 23/19 Q1020 NOSIG=
201906260000 METAR LRCK 260000Z 01010KT CAVOK 22/19 Q1021 NOSIG=
201906260030 METAR LRCK 260030Z 01009KT CAVOK 22/19 Q1021 NOSIG=
201906260100 METAR LRCK 260100Z 01010KT CAVOK 22/19 Q1021 NOSIG=
201906260130 METAR LRCK 260130Z 01010KT CAVOK 22/19 Q1020 NOSIG=
201906260200 METAR LRCK 260200Z 36011KT CAVOK 22/19 Q1020 NOSIG=
201906260230 METAR LRCK 260230Z 35013KT CAVOK 22/19 Q1021 NOSIG=
201906260300 METAR LRCK 260300Z 36013KT CAVOK 22/19 Q1021 NOSIG=
201906260330 METAR LRCK 260330Z 01013KT CAVOK 23/18 Q1021 NOSIG=
201906260400 METAR LRCK 260400Z 01012KT CAVOK 23/18 Q1021 NOSIG=
201906260430 METAR LRCK 260430Z 02012KT CAVOK 24/18 Q1021 NOSIG=
201906260500 METAR LRCK 260500Z 02013KT CAVOK 25/18 Q1021 NOSIG=
201906260530 METAR LRCK 260530Z 02013KT CAVOK 26/19 Q1022 NOSIG=
201906260600 METAR LRCK 260600Z 02014KT CAVOK 26/19 Q1022 NOSIG=
201906260630 METAR LRCK 260630Z 03011KT CAVOK 27/18 Q1022 NOSIG=
201906260700 METAR LRCK 260700Z 03012KT CAVOK 28/18 Q1022 NOSIG=
201906260730 METAR LRCK 260730Z 04011KT CAVOK 29/19 Q1022 NOSIG=
201906260800 METAR LRCK 260800Z 04014KT CAVOK 29/18 Q1022 NOSIG=
201906260830 METAR LRCK 260830Z 03014KT CAVOK 30/18 Q1022 NOSIG=
201906260900 METAR LRCK 260900Z 03015KT 9999 FEW030 31/18 Q1022 NOSIG=
201906260930 METAR LRCK 260930Z 04014KT 9999 FEW035 31/18 Q1022 NOSIG=
201906261000 METAR LRCK 261000Z 05016KT 9999 FEW040 30/18 Q1022 NOSIG=
201906261030 METAR COR LRCK 261030Z 04014KT 010V070 9999 FEW035 31/19
                        Q1022 NOSIG=
201906261100 METAR LRCK 261100Z 04016KT 9999 FEW045 31/18 Q1022 NOSIG=
201906261130 METAR LRCK 261130Z 05016KT 9999 FEW048 31/17 Q1021 NOSIG=
201906261200 METAR LRCK 261200Z 04014KT 9999 FEW048 31/18 Q1021 NOSIG=
201906261230 METAR LRCK 261230Z 05015KT 020V080 9999 FEW049 30/17 Q1021
                        NOSIG=
201906261300 METAR LRCK 261300Z 05014KT CAVOK 30/21 Q1021 NOSIG=
201906261330 METAR LRCK 261330Z 07013KT CAVOK 30/21 Q1021 NOSIG=
201906261400 METAR LRCK 261400Z 07014KT CAVOK 29/21 Q1021 NOSIG=
201906261430 METAR LRCK 261430Z 08013KT CAVOK 29/20 Q1021 NOSIG=
201906261500 METAR LRCK 261500Z 08013KT CAVOK 29/20 Q1020 NOSIG=
201906261530 METAR LRCK 261530Z 07010KT CAVOK 29/21 Q1020 NOSIG=
201906261600 METAR LRCK 261600Z 08009KT CAVOK 28/21 Q1020 NOSIG=
201906261630 METAR LRCK 261630Z 09009KT CAVOK 27/20 Q1020 NOSIG=
201906261700 METAR LRCK 261700Z 09007KT CAVOK 27/21 Q1020 NOSIG=
201906261730 METAR LRCK 261730Z 10004KT CAVOK 25/21 Q1020 NOSIG=
201906261800 METAR LRCK 261800Z 13003KT CAVOK 24/20 Q1020 NOSIG=
201906261830 METAR LRCK 261830Z 00000KT CAVOK 23/20 Q1021 NOSIG=
201906261900 METAR LRCK 261900Z 00000KT CAVOK 23/20 Q1021 NOSIG=
201906261930 METAR LRCK 261930Z 00000KT CAVOK 22/20 Q1021 NOSIG=
201906262000 METAR LRCK 262000Z 29004KT CAVOK 22/20 Q1021 NOSIG=
201906262030 METAR LRCK 262030Z 31002KT CAVOK 22/20 Q1020 NOSIG=
201906262100 METAR LRCK 262100Z 29003KT CAVOK 21/20 Q1020 NOSIG=
201906262130 METAR LRCK 262130Z 30003KT CAVOK 21/20 Q1020 NOSIG=
201906262200 METAR LRCK 262200Z 27004KT CAVOK 21/19 Q1020 NOSIG=
201906262230 METAR LRCK 262230Z 28005KT CAVOK 21/19 Q1020 NOSIG=
201906262300 METAR LRCK 262300Z 28005KT CAVOK 20/19 Q1019 NOSIG=
201906262330 METAR LRCK 262330Z 29007KT CAVOK 21/19 Q1019 NOSIG=
201906270000 METAR LRCK 270000Z 29008KT CAVOK 20/19 Q1019 NOSIG=
201906270030 METAR LRCK 270030Z 29009KT CAVOK 21/19 Q1019 NOSIG=
201906270100 METAR LRCK 270100Z 35005KT 310V050 CAVOK 20/18 Q1019 NOSIG=
201906270130 METAR COR LRCK 270130Z 08001KT CAVOK 19/18 Q1019 NOSIG=
201906270200 METAR LRCK 270200Z 00000KT CAVOK 18/17 Q1018 NOSIG=
201906270230 METAR COR LRCK 270230Z 27005KT CAVOK 19/18 Q1018 NOSIG=
201906270300 METAR LRCK 270300Z 27006KT CAVOK 19/18 Q1018 NOSIG=
201906270330 METAR LRCK 270330Z 28005KT CAVOK 20/18 Q1018 NOSIG=
201906270400 METAR LRCK 270400Z 28006KT CAVOK 21/19 Q1018 NOSIG=
201906270430 METAR LRCK 270430Z 28005KT CAVOK 22/19 Q1018 NOSIG=
201906270500 METAR LRCK 270500Z 27005KT CAVOK 23/19 Q1018 NOSIG=
201906270530 METAR LRCK 270530Z 27006KT CAVOK 25/19 Q1018 NOSIG=
201906270600 METAR LRCK 270600Z 28006KT CAVOK 26/17 Q1018 NOSIG=
201906270630 METAR LRCK 270630Z 29008KT CAVOK 27/18 Q1017 NOSIG=
201906270700 METAR LRCK 270700Z 30009KT CAVOK 29/17 Q1017 NOSIG=
201906270730 METAR LRCK 270730Z 28010KT CAVOK 29/16 Q1017 NOSIG=
201906270800 METAR LRCK 270800Z 29009KT CAVOK 30/16 Q1016 NOSIG=
201906270830 METAR LRCK 270830Z 30009KT 260V330 CAVOK 30/15 Q1016 NOSIG=
201906270900 METAR LRCK 270900Z 29007KT 250V330 CAVOK 31/15 Q1016 NOSIG=
201906270930 METAR LRCK 270930Z 27006KT 250V310 CAVOK 31/14 Q1016 NOSIG=
201906271000 METAR LRCK 271000Z 26007KT 230V290 CAVOK 31/14 Q1015 NOSIG=
201906271030 METAR LRCK 271030Z 24009KT 210V270 CAVOK 32/14 Q1015 NOSIG=
201906271100 METAR LRCK 271100Z 24007KT 210V270 CAVOK 32/14 Q1014 NOSIG=
201906271130 METAR LRCK 271130Z 23010KT 210V270 CAVOK 32/15 Q1014 NOSIG=
201906271200 METAR LRCK 271200Z 24009KT 200V270 CAVOK 33/15 Q1013 NOSIG=
201906271230 METAR LRCK 271230Z 26007KT 230V300 CAVOK 33/14 Q1013 NOSIG=
201906271300 METAR LRCK 271300Z 28009KT 9999 FEW049 34/14 Q1012 NOSIG=
201906271330 METAR LRCK 271330Z 29009KT 260V320 9999 FEW049 34/14 Q1012
                        NOSIG=
201906271400 METAR LRCK 271400Z 28007KT CAVOK 34/14 Q1012 NOSIG=
201906271430 METAR LRCK 271430Z 29009KT 240V310 CAVOK 34/15 Q1011 NOSIG=
201906271500 METAR LRCK 271500Z 28007KT 240V320 CAVOK 34/16 Q1011 NOSIG=
201906271530 METAR LRCK 271530Z 27008KT 250V310 CAVOK 33/16 Q1010 NOSIG=
201906271600 METAR LRCK 271600Z 28009KT 260V320 CAVOK 33/14 Q1010 NOSIG=
201906271630 METAR LRCK 271630Z 29009KT CAVOK 32/13 Q1010 NOSIG=
201906271700 METAR LRCK 271700Z 28006KT 250V310 CAVOK 31/15 Q1010 NOSIG=
201906271730 METAR LRCK 271730Z 27006KT CAVOK 29/15 Q1010 NOSIG=
201906271800 METAR LRCK 271800Z 27006KT CAVOK 28/15 Q1010 NOSIG=
201906271830 METAR LRCK 271830Z 28007KT CAVOK 27/15 Q1010 NOSIG=
201906271900 METAR LRCK 271900Z 27006KT CAVOK 24/17 Q1010 TEMPO 34015G25KT=
201906271930 METAR LRCK 271930Z 28012KT CAVOK 27/17 Q1010 NOSIG=
201906272000 METAR LRCK 272000Z 30010KT CAVOK 26/19 Q1010 NOSIG=
201906272030 METAR LRCK 272030Z 33010KT CAVOK 25/18 Q1010 NOSIG=
201906272100 METAR LRCK 272100Z 31010KT CAVOK 24/19 Q1010 NOSIG=
201906272130 METAR LRCK 272130Z 33010KT CAVOK 23/19 Q1010 NOSIG=
201906272200 METAR LRCK 272200Z 28003KT 230V300 CAVOK 21/18 Q1009 NOSIG=
201906272230 METAR LRCK 272230Z 29010KT CAVOK 21/18 Q1009 NOSIG=
201906272300 METAR LRCK 272300Z 30007KT CAVOK 22/18 Q1010 NOSIG=
201906272330 METAR LRCK 272330Z 31010KT CAVOK 22/17 Q1010 NOSIG=
201906280000 METAR LRCK 280000Z 31009KT CAVOK 22/16 Q1010 NOSIG=
201906280030 METAR LRCK 280030Z 30008KT CAVOK 21/16 Q1010 NOSIG=
201906280100 METAR LRCK 280100Z 32008KT CAVOK 21/17 Q1009 NOSIG=
201906280130 METAR LRCK 280130Z 32009KT CAVOK 21/17 Q1009 NOSIG=
201906280200 METAR LRCK 280200Z 32008KT CAVOK 21/17 Q1009 NOSIG=
201906280230 METAR LRCK 280230Z 33008KT 9999 FEW046 21/17 Q1009 NOSIG=
201906280300 METAR LRCK 280300Z 34007KT 9999 FEW046 20/17 Q1010 NOSIG=
201906280330 METAR LRCK 280330Z 35009KT 9999 FEW048 21/17 Q1010 NOSIG=
201906280400 METAR LRCK 280400Z 34009KT CAVOK 21/16 Q1010 NOSIG=
201906280430 METAR LRCK 280430Z 35013KT CAVOK 23/16 Q1010 NOSIG=
201906280500 METAR LRCK 280500Z 35013KT CAVOK 24/16 Q1011 NOSIG=
201906280530 METAR LRCK 280530Z 36016KT CAVOK 25/14 Q1011 NOSIG=
201906280600 METAR LRCK 280600Z 36016KT CAVOK 25/13 Q1011 NOSIG=
201906280630 METAR LRCK 280630Z 01015KT CAVOK 26/13 Q1011 NOSIG=
201906280700 METAR LRCK 280700Z 01016KT CAVOK 25/13 Q1011 NOSIG=
201906280730 METAR LRCK 280730Z 01015KT CAVOK 26/13 Q1011 NOSIG=
201906280800 METAR LRCK 280800Z 01015KT CAVOK 27/13 Q1011 NOSIG=
201906280830 METAR LRCK 280830Z 36014KT CAVOK 27/13 Q1011 NOSIG=
201906280900 METAR LRCK 280900Z 36014KT 340V040 CAVOK 28/12 Q1011 NOSIG=
201906280930 METAR LRCK 280930Z 36012KT 330V030 CAVOK 28/12 Q1011 NOSIG=
201906281000 METAR LRCK 281000Z 36012KT 320V040 CAVOK 28/11 Q1011 NOSIG=
201906281030 METAR LRCK 281030Z 33012KT CAVOK 29/12 Q1011 NOSIG=
201906281100 METAR LRCK 281100Z 33011KT CAVOK 29/12 Q1011 NOSIG=
201906281130 METAR LRCK 281130Z 34010KT CAVOK 29/11 Q1011 NOSIG=
201906281200 METAR LRCK 281200Z 36014KT CAVOK 29/13 Q1011 NOSIG=
201906281230 METAR LRCK 281230Z 36013KT 340V040 CAVOK 29/12 Q1011 NOSIG=
201906281300 METAR LRCK 281300Z 34014KT 310V020 CAVOK 29/12 Q1011 NOSIG=
201906281330 METAR LRCK 281330Z 35013KT CAVOK 29/11 Q1011 NOSIG=
201906281400 METAR LRCK 281400Z 34014KT CAVOK 29/12 Q1011 NOSIG=
201906281430 METAR LRCK 281430Z 34014KT CAVOK 28/11 Q1011 NOSIG=
201906281500 METAR LRCK 281500Z 34015KT CAVOK 27/10 Q1011 NOSIG=
201906281530 METAR LRCK 281530Z 35016KT CAVOK 26/10 Q1012 NOSIG=
201906281600 METAR LRCK 281600Z 35014KT CAVOK 25/09 Q1012 NOSIG=
201906281630 METAR LRCK 281630Z 34014KT CAVOK 25/08 Q1012 NOSIG=
201906281700 METAR LRCK 281700Z 35014KT 9999 FEW050CB 24/08 Q1012 NOSIG=
201906281730 METAR LRCK 281730Z 34012KT 9999 FEW050CB 23/08 Q1013 NOSIG=
201906281800 METAR LRCK 281800Z 34011KT 9999 FEW050CB 23/08 Q1013 NOSIG=
201906281830 METAR LRCK 281830Z 35015KT 9999 FEW050CB 22/09 Q1013 NOSIG=
201906281900 METAR LRCK 281900Z 35012KT 9999 FEW050CB 22/09 Q1014 NOSIG=
201906281930 METAR LRCK 281930Z 34013KT 9999 -SHRA FEW050CB 21/10 Q1014
                        NOSIG=
201906282000 METAR LRCK 282000Z 34010KT 9999 FEW050CB 21/09 Q1014 NOSIG=
201906282030 METAR LRCK 282030Z 35013KT 9999 FEW055CB 21/08 Q1015 NOSIG=
201906282100 METAR LRCK 282100Z 35014KT 9999 FEW049 21/08 Q1015 NOSIG=
201906282130 METAR LRCK 282130Z 34011KT 9999 FEW049 20/09 Q1015 NOSIG=
201906282200 METAR LRCK 282200Z 34008KT 9999 FEW040 20/09 Q1015 NOSIG=
201906282230 METAR LRCK 282230Z 34008KT 9999 FEW045 19/08 Q1015 NOSIG=
201906282300 METAR LRCK 282300Z 33007KT CAVOK 19/08 Q1015 NOSIG=
201906282330 METAR LRCK 282330Z 34009KT CAVOK 18/08 Q1015 NOSIG=
201906290000 METAR LRCK 290000Z 34009KT CAVOK 18/08 Q1015 NOSIG=
201906290030 METAR LRCK 290030Z 33008KT CAVOK 18/08 Q1015 NOSIG=
201906290100 METAR LRCK 290100Z 33007KT CAVOK 18/08 Q1016 NOSIG=
201906290130 METAR LRCK 290130Z 34007KT CAVOK 17/08 Q1016 NOSIG=
201906290200 METAR LRCK 290200Z 33006KT CAVOK 16/08 Q1016 NOSIG=
201906290230 METAR LRCK 290230Z 33006KT CAVOK 16/07 Q1016 NOSIG=
201906290300 METAR LRCK 290300Z 33008KT CAVOK 16/07 Q1016 NOSIG=
201906290330 METAR LRCK 290330Z 33008KT CAVOK 17/07 Q1016 NOSIG=
201906290400 METAR LRCK 290400Z 33008KT CAVOK 17/08 Q1016 NOSIG=
201906290430 METAR LRCK 290430Z 32009KT CAVOK 18/08 Q1016 NOSIG=
201906290500 METAR LRCK 290500Z 33009KT CAVOK 19/08 Q1016 NOSIG=
201906290530 METAR LRCK 290530Z 34011KT CAVOK 20/07 Q1017 NOSIG=
201906290600 METAR LRCK 290600Z 35012KT CAVOK 21/07 Q1017 NOSIG=
201906290630 METAR LRCK 290630Z 34011KT 310V010 CAVOK 22/07 Q1016 NOSIG=
201906290700 METAR LRCK 290700Z 33011KT 300V360 CAVOK 23/06 Q1016 NOSIG=
201906290730 METAR LRCK 290730Z 33009KT 300V360 CAVOK 23/07 Q1016 NOSIG=
201906290800 METAR LRCK 290800Z 32012KT CAVOK 23/06 Q1016 NOSIG=
201906290830 METAR LRCK 290830Z 34013KT 310V010 CAVOK 24/07 Q1016 NOSIG=
201906290900 METAR LRCK 290900Z 34011G21KT CAVOK 24/07 Q1016 NOSIG=
201906290930 METAR LRCK 290930Z 33010KT CAVOK 25/07 Q1016 NOSIG=
201906291000 METAR LRCK 291000Z 34015KT CAVOK 26/06 Q1016 NOSIG=
201906291030 METAR LRCK 291030Z 33014KT CAVOK 26/06 Q1016 NOSIG=
201906291100 METAR LRCK 291100Z 32013KT CAVOK 26/07 Q1016 NOSIG=
201906291130 METAR LRCK 291130Z 33014KT CAVOK 27/08 Q1016 NOSIG=
201906291200 METAR LRCK 291200Z 31014KT CAVOK 26/07 Q1016 NOSIG=
201906291230 METAR LRCK 291230Z 33011KT CAVOK 27/06 Q1016 NOSIG=
201906291300 METAR LRCK 291300Z 32013KT CAVOK 26/07 Q1016 NOSIG=
201906291330 METAR LRCK 291330Z 34014KT CAVOK 27/06 Q1016 NOSIG=
201906291400 METAR LRCK 291400Z 32013KT CAVOK 26/07 Q1016 NOSIG=
201906291430 METAR LRCK 291430Z 32013KT 280V360 CAVOK 26/05 Q1016 NOSIG=
201906291500 METAR LRCK 291500Z 32013KT CAVOK 26/07 Q1016 NOSIG=
201906291530 METAR LRCK 291530Z 31011KT 280V350 CAVOK 25/07 Q1016 NOSIG=
201906291600 METAR LRCK 291600Z 32011KT CAVOK 25/08 Q1016 NOSIG=
201906291630 METAR LRCK 291630Z 32009KT CAVOK 24/08 Q1016 NOSIG=
201906291700 METAR LRCK 291700Z 33006KT CAVOK 24/08 Q1016 NOSIG=
201906291730 METAR LRCK 291730Z 30004KT CAVOK 22/09 Q1016 NOSIG=
201906291800 METAR LRCK 291800Z 31003KT CAVOK 22/09 Q1016 NOSIG=
201906291830 METAR LRCK 291830Z 33004KT CAVOK 22/09 Q1017 NOSIG=
201906291900 METAR LRCK 291900Z 36008KT CAVOK 20/10 Q1017 NOSIG=
201906291930 METAR LRCK 291930Z 36007KT CAVOK 20/10 Q1017 NOSIG=
201906292000 METAR LRCK 292000Z 33006KT CAVOK 20/10 Q1017 NOSIG=
201906292030 METAR LRCK 292030Z 34010KT CAVOK 20/10 Q1017 NOSIG=
201906292100 METAR LRCK 292100Z 34010KT CAVOK 20/11 Q1017 NOSIG=
201906292130 METAR LRCK 292130Z 33009KT CAVOK 19/10 Q1017 NOSIG=
201906292200 METAR LRCK 292200Z 33009KT CAVOK 19/10 Q1017 NOSIG=
201906292230 METAR LRCK 292230Z 32008KT CAVOK 18/09 Q1017 NOSIG=
201906292300 METAR LRCK 292300Z 32008KT CAVOK 18/07 Q1017 NOSIG=
201906292330 METAR LRCK 292330Z 31007KT CAVOK 18/07 Q1017 NOSIG=
201906300000 METAR LRCK 300000Z 30006KT CAVOK 16/07 Q1017 NOSIG=
201906300030 METAR LRCK 300030Z 32006KT CAVOK 18/07 Q1017 NOSIG=
201906300100 METAR LRCK 300100Z 31006KT CAVOK 18/08 Q1017 NOSIG=
201906300130 METAR LRCK 300130Z 32006KT CAVOK 16/08 Q1017 NOSIG=
201906300200 METAR LRCK 300200Z 32009KT CAVOK 17/10 Q1017 NOSIG=
201906300230 METAR LRCK 300230Z 32008KT CAVOK 17/11 Q1017 NOSIG=
201906300300 METAR LRCK 300300Z 32009KT CAVOK 17/11 Q1017 NOSIG=
201906300330 METAR LRCK 300330Z 29007KT CAVOK 17/12 Q1018 NOSIG=
201906300400 METAR LRCK 300400Z 29007KT CAVOK 18/12 Q1018 NOSIG=
201906300430 METAR LRCK 300430Z 32010KT CAVOK 20/12 Q1018 NOSIG=
201906300500 METAR LRCK 300500Z 33012KT CAVOK 21/12 Q1018 NOSIG=
201906300530 METAR LRCK 300530Z 33013KT CAVOK 21/12 Q1018 NOSIG=
201906300600 METAR LRCK 300600Z 33012KT CAVOK 22/12 Q1018 NOSIG=
201906300630 METAR LRCK 300630Z 34013KT CAVOK 23/12 Q1018 NOSIG=
201906300700 METAR LRCK 300700Z 34012KT CAVOK 24/12 Q1019 NOSIG=
201906300730 METAR LRCK 300730Z 34017KT 9999 FEW040 24/10 Q1019 NOSIG=
201906300800 METAR LRCK 300800Z 35015KT 9999 FEW045 25/11 Q1019 NOSIG=
201906300830 METAR LRCK 300830Z 33011KT 9999 FEW048 26/11 Q1019 NOSIG=
201906300900 METAR LRCK 300900Z 33012KT 9999 FEW049 26/10 Q1019 NOSIG=
201906300930 METAR LRCK 300930Z 34013G23KT 310V020 9999 FEW049 26/10 Q1019
                        NOSIG=
201906301000 METAR LRCK 301000Z 35013KT 320V020 CAVOK 27/10 Q1019 NOSIG=
201906301030 METAR LRCK 301030Z 34012KT 300V010 CAVOK 27/09 Q1019 NOSIG=
201906301100 METAR LRCK 301100Z 34011KT 300V360 CAVOK 27/08 Q1019 NOSIG=
201906301130 METAR LRCK 301130Z 33011KT CAVOK 28/09 Q1019 NOSIG=
201906301200 METAR LRCK 301200Z 36014KT CAVOK 27/09 Q1019 NOSIG=
201906301230 METAR LRCK 301230Z 32010KT CAVOK 27/10 Q1019 NOSIG=
201906301300 METAR LRCK 301300Z 35014KT 320V020 CAVOK 28/10 Q1019 NOSIG=
201906301330 METAR LRCK 301330Z 34010KT CAVOK 28/12 Q1019 NOSIG=
201906301400 METAR LRCK 301400Z 13006KT 090V170 CAVOK 25/12 Q1019 NOSIG=
201906301430 METAR LRCK 301430Z VRB03KT CAVOK 27/13 Q1019 NOSIG=
201906301500 METAR LRCK 301500Z 13006KT CAVOK 26/13 Q1018 NOSIG=
201906301530 METAR LRCK 301530Z VRB05KT CAVOK 27/13 Q1018 NOSIG=
201906301600 METAR LRCK 301600Z 31010KT 280V350 CAVOK 28/11 Q1018 NOSIG=
201906301630 METAR LRCK 301630Z 30009KT 270V330 CAVOK 27/11 Q1018 NOSIG=
201906301700 METAR LRCK 301700Z 30009KT CAVOK 26/12 Q1018 NOSIG=
201906301730 METAR LRCK 301730Z 28005KT CAVOK 25/12 Q1018 NOSIG=
201906301800 METAR LRCK 301800Z VRB02KT CAVOK 23/13 Q1018 NOSIG=
201906301830 METAR LRCK 301830Z VRB02KT CAVOK 22/13 Q1018 NOSIG=
201906301900 METAR LRCK 301900Z 19003KT CAVOK 21/13 Q1018 NOSIG=
201906301930 METAR LRCK 301930Z 18005KT CAVOK 20/13 Q1018 NOSIG=
201906302000 METAR LRCK 302000Z 21006KT CAVOK 19/13 Q1018 NOSIG=
201906302030 METAR LRCK 302030Z 22005KT CAVOK 19/12 Q1018 NOSIG=
201906302100 METAR LRCK 302100Z 21006KT CAVOK 19/12 Q1018 NOSIG=
201906302130 METAR LRCK 302130Z 23004KT CAVOK 18/13 Q1018 NOSIG=
201906302200 METAR LRCK 302200Z 21007KT CAVOK 18/12 Q1018 NOSIG=
201906302230 METAR LRCK 302230Z 22007KT CAVOK 17/12 Q1018 NOSIG=
201906302300 METAR LRCK 302300Z 23007KT CAVOK 18/12 Q1018 NOSIG=
201906302330 METAR COR LRCK 302330Z 22008KT CAVOK 17/13 Q1018 NOSIG=
