201907010500 TAF LRCK 010500Z 0106/0206 28010KT CAVOK
                      BECMG 0113/0115 22007KT=
201907011100 TAF LRCK 011100Z 0112/0212 15010KT CAVOK
                      BECMG 0121/0123 22007KT
                      BECMG 0210/0212 14010KT=
201907011700 TAF LRCK 011700Z 0118/0218 16012KT CAVOK
                      BECMG 0120/0122 22007KT
                      BECMG 0213/0215 15010KT=
201907012300 TAF LRCK 012300Z 0200/0224 22008KT CAVOK
                      BECMG 0213/0215 17010KT=
201907020500 TAF LRCK 020500Z 0206/0306 19010KT CAVOK
                      BECMG 0217/0219 VRB04KT=
201907021100 TAF LRCK 021100Z 0212/0312 16010KT CAVOK
                      BECMG 0217/0219 VRB04KT
                      BECMG 0309/0311 13014KT=
201907021700 TAF LRCK 021700Z 0218/0318 16010KT CAVOK
                      BECMG 0218/0220 VRB04KT
                      BECMG 0309/0311 13012KT
                      PROB40 TEMPO 0312/0317 5000 TSRA SCT040CB=
201907022300 TAF LRCK 022300Z 0300/0324 VRB04KT CAVOK
                      BECMG 0309/0311 13012KT
                      PROB40 TEMPO 0312/0317 5000 TSRA SCT040CB
                       BECMG 0316/0318 VRB04KT
                      TEMPO 0322/0324 5000 BR=
201907030500 TAF LRCK 030500Z 0306/0406 VRB04KT CAVOK
                      BECMG 0309/0311 13012KT
                      TEMPO 0312/0319 VRB15G25KT 5000 TSRA SCT040CB
                       PROB40 0313/0317 VRB35G45KT 1500 +TSRAGR
                       SQ BKN010 BKN030CB
                      BECMG 0319/0321 VRB04KT
                      PROB40 TEMPO 0401/0405 5000 SHRA SCT040CB=
201907031100 TAF LRCK 031100Z 0312/0412 11012KT CAVOK
                      TEMPO 0312/0319 5000 TSRA SCT040CB
                      PROB40 0313/0318 VRB35G45KT 1500 +TSRAGR
                       SQ BKN010 BKN030CB
                      BECMG 0319/0321 VRB04KT
                      PROB40 TEMPO 0401/0405 5000 SHRA SCT040CB
                       PROB30
                      TEMPO 0409/0412 5000 -TSRA SCT040CB=
201907031700 TAF LRCK 031700Z 0318/0418 09012KT CAVOK
                      PROB30 TEMPO 0320/0323 3000 SHRA BKN040CB
                       BECMG 0323/0401 03010KT
                      BECMG 0405/0407 VRB04KT
                      PROB30 TEMPO 0409/0412 3000 TSRA BKN040CB=
201907032300 TAF LRCK 032300Z 0400/0424 31010KT CAVOK
                      BECMG 0405/0407 VRB04KT
                      PROB30 TEMPO 0409/0412 3000 TSRA BKN040CB=
201907040500 TAF LRCK 040500Z 0406/0506 06007KT CAVOK
                      PROB30 TEMPO 0411/0415 VRB18KT 5000 -TSRA
                       SCT040CB
                      BECMG 0415/0417 14010KT
                      BECMG 0419/0421 VRB04KT=
201907041100 TAF LRCK 041100Z 0412/0512 08012KT CAVOK
                      PROB30 TEMPO 0412/0415 VRB18KT 5000 -TSRA
                       SCT040CB
                      BECMG 0415/0417 14010KT
                      BECMG 0419/0421 VRB04KT
                      BECMG 0510/0512 17010KT=
201907041700 TAF LRCK 041700Z 0418/0518 09006KT CAVOK
                      BECMG 0508/0510 17010KT
                      TEMPO 0513/0517 VRB15G25KT SCT040CB
                      PROB30 TEMPO 0514/0517 5000 -TSRA=
201907042300 TAF LRCK 042300Z 0500/0524 VRB04KT CAVOK
                      BECMG 0508/0510 17010KT
                      TEMPO 0513/0517 VRB15G25KT SCT040CB
                      PROB30 TEMPO 0514/0517 5000 -TSRA=
201907050500 TAF LRCK 050500Z 0506/0606 15004KT CAVOK
                      BECMG 0507/0509 15014KT
                      TEMPO 0513/0517 VRB16G26KT SCT040CB
                      BECMG 0517/0519 24008KT=
201907051100 TAF LRCK 051100Z 0512/0612 15016KT CAVOK
                      TEMPO 0512/0517 FEW050CB
                      BECMG 0517/0519 24008KT
                      BECMG 0608/0610 11012KT SCT040CB=
201907051700 TAF LRCK 051700Z 0518/0618 15010KT CAVOK
                      BECMG 0521/0524 23008KT
                      BECMG 0604/0607 30010KT
                      BECMG 0609/0611 08010KT
                      TEMPO 0611/0616 SCT040CB
                      PROB30 TEMPO 0612/0615 VRB20KT 5000 -TSRA=
201907052300 TAF LRCK 052300Z 0600/0624 15008KT CAVOK
                      BECMG 0604/0606 30010KT
                      BECMG 0609/0611 08010KT
                      TEMPO 0611/0616 SCT040CB
                      PROB30 TEMPO 0612/0615 VRB20KT 5000 -TSRA
                       BKN040CB
                      BECMG 0617/0619 VRB04KT=
201907060500 TAF LRCK 060500Z 0606/0706 30008KT CAVOK
                      BECMG 0609/0611 10010KT
                      PROB30 TEMPO 0611/0615 SCT040CB
                      BECMG 0616/0618 VRB04KT=
201907061100 TAF LRCK 061100Z 0612/0712 10010KT CAVOK
                      BECMG 0616/0618 VRB04KT
                      BECMG 0709/0711 16014KT=
201907061700 TAF LRCK 061700Z 0618/0718 VRB04KT CAVOK
                      BECMG 0709/0711 18014KT
                      TEMPO 0711/0716 FEW050CB=
201907062300 TAF LRCK 062300Z 0700/0724 VRB04KT CAVOK
                      BECMG 0707/0709 20012KT
                      TEMPO 0711/0716 FEW050CB=
201907070500 TAF LRCK 070500Z 0706/0806 22010KT CAVOK
                      TEMPO 0711/0716 SCT045CB
                      BECMG 0800/0802 SCT010 SCT030CB
                      PROB40 TEMPO 0802/0806 5000 SHRA BKN005 BKN030CB=
201907071100 TAF LRCK 071100Z 0712/0812 15010KT CAVOK
                      TEMPO 0712/0716 15015G25KT SCT045CB
                      BECMG 0802/0804 24015KT SCT010 SCT030CB
                      PROB40 TEMPO 0806/0810 27020G30KT 3000 TSRA
                       BKN005 BKN030CB
                      BECMG 0810/0812 33015G25KT=
201907071700 TAF LRCK 071700Z 0718/0818 17016KT CAVOK
                      BECMG 0803/0805 27010KT
                      TEMPO 0806/0811 27020G30KT 3000 TSRA BKN030CB
                       BECMG 0811/0813 34018KT
                      BECMG 0815/0817 34008KT=
201907072300 TAF LRCK 072300Z 0800/0824 20012KT CAVOK
                      BECMG 0803/0805 27012KT
                      TEMPO 0806/0811 27020G30KT 3000 TSRA BKN030CB
                       BECMG 0811/0813 34018KT
                      BECMG 0815/0817 34008KT=
201907080500 TAF LRCK 080500Z 0806/0906 27010KT CAVOK
                      BECMG 0806/0808 34012KT
                      TEMPO 0808/0812 34020G30KT 5000 TSRA SCT015
                       SCT040CB
                      BECMG 0819/0821 VRB04KT=
201907081100 TAF LRCK 081100Z 0812/0912 32014KT 9999 SCT040
                      BECMG 0819/0821 VRB04KT
                      BECMG 0907/0909 11010KT SCT040CB
                      TEMPO 0909/0912 01020G30KT 3000 TSRA BKN015
                       BKN035CB=
201907081700 TAF LRCK 081700Z 0818/0918 VRB04KT CAVOK
                      PROB30 TEMPO 0818/0821 5000 -SHRA SCT040CB
                       BECMG 0907/0909 08010KT SCT040CB
                      TEMPO 0910/0916 10015G25KT 3000 TSRA BKN015
                       BKN035CB
                      PROB40 TEMPO 0910/0913 VRB25G35KT 1500 +TSRA=
201907082300 TAF LRCK 082300Z 0900/0924 30006KT CAVOK
                      BECMG 0907/0909 08010KT SCT040CB
                      TEMPO 0910/0916 VRB15G25KT 3000 TSRA BKN015
                       BKN035CB
                      PROB40 TEMPO 0910/0913 VRB25G35KT 1500 +TSRA
                       BECMG 0918/0920 VRB04KT NSC=
201907090500 TAF LRCK 090500Z 0906/1006 05010KT CAVOK
                      BECMG 0907/0909 SCT045CB
                      TEMPO 0909/0915 VRB15G25KT 3000 TSRA SCT015
                       BKN040CB
                      PROB40 0910/0914 VRB25G35KT 1500 +TSRA
                      BECMG 0917/0919 30007KT NSC
                      BECMG 0923/1001 5000 BR
                      TEMPO 1001/1004 1500 BR=
201907091100 TAF LRCK 091100Z 0912/1012 05010KT 9999 BKN030 SCT040CB
                      TEMPO 0912/0916 VRB20G30KT 3000 TSRA
                      BECMG 0917/0919 VRB04KT NSC
                      TEMPO 1000/1004 3000 BR
                      BECMG 1008/1010 SCT050CB
                      TEMPO 1010/1012 VRB20KT -TSRA=
201907091700 TAF LRCK 091700Z 0918/1018 09006KT 9999 SCT045CB
                      BECMG 0918/0920 NSC
                      TEMPO 1000/1004 3000 BR
                      BECMG 1012/1014 16010KT 5000 -SHRA SCT050CB
                       TEMPO 1015/1018 3000 TSRA BKN015 BKN035CB=
201907092300 TAF LRCK 092300Z 1000/1024 VRB04KT CAVOK
                      TEMPO 1000/1004 3000 BR
                      BECMG 1012/1014 16010KT 5000 -SHRA SCT050CB
                       TEMPO 1015/1020 3000 TSRA BKN015 BKN035CB
                       BECMG 1021/1023 33010KT 9999 NSW SCT040=
201907100500 TAF LRCK 100500Z 1006/1106 VRB04KT CAVOK
                      BECMG 1010/1012 16010KT
                      BECMG 1017/1019 SCT040CB
                      TEMPO 1019/1101 5000 SHRA
                      PROB40 TEMPO 1019/1022 VRB16KT 3000 TSRA
                       BKN015 BKN030CB
                      BECMG 1101/1103 35010KT NSC=
201907101100 TAF LRCK 101100Z 1012/1112 12010KT CAVOK
                      PROB30 TEMPO 1012/1016 SCT040CB
                      BECMG 1016/1018 SCT040CB
                      TEMPO 1018/1024 5000 SHRA
                      PROB30 TEMPO 1018/1022 VRB16KT 3000 TSRA
                       BKN015 BKN030CB
                      BECMG 1100/1102 35010KT NSC
                      BECMG 1109/1111 29010KT=
201907101700 TAF LRCK 101700Z 1018/1118 VRB04KT 9999 FEW050CB
                      BECMG 1020/1022 NSC
                      BECMG 1022/1024 01010KT
                      BECMG 1112/1114 VRB04KT FEW045CB=
201907102300 TAF LRCK 102300Z 1100/1124 35010KT CAVOK
                      BECMG 1112/1114 VRB04KT FEW045CB
                      BECMG 1118/1120 NSC=
201907110500 TAF LRCK 110500Z 1106/1206 34010KT CAVOK
                      TEMPO 1113/1118 SCT030CB
                      BECMG 1118/1120 VRB04KT=
201907111100 TAF LRCK 111100Z 1112/1212 34014KT CAVOK
                      TEMPO 1112/1117 SCT030CB
                      BECMG 1118/1120 VRB04KT
                      BECMG 1206/1208 30010KT=
201907111700 TAF LRCK 111700Z 1118/1218 32008KT CAVOK
                      TEMPO 1200/1205 5000 -SHRA SCT035CB
                      TEMPO 1212/1216 SCT040CB=
201907112300 TAF LRCK 112300Z 1200/1224 30006KT CAVOK
                      PROB30 TEMPO 1200/1205 5000 -SHRA SCT035CB
                       TEMPO 1212/1216 SCT040CB=
201907120500 TAF LRCK 120500Z 1206/1306 32009KT CAVOK=
201907121100 TAF LRCK 121100Z 1212/1312 31007KT CAVOK=
201907121700 TAF LRCK 121700Z 1218/1318 VRB04KT CAVOK
                      TEMPO 1300/1305 3000 BR
                      BECMG 1310/1312 17012KT
                      TEMPO 1312/1317 SCT030CB=
201907122300 TAF LRCK 122300Z 1300/1324 VRB04KT CAVOK
                      TEMPO 1300/1305 3000 BR
                      BECMG 1310/1312 17012KT
                      TEMPO 1312/1317 SCT030CB
                      BECMG 1318/1320 VRB04KT=
201907130500 TAF LRCK 130500Z 1306/1406 27008KT CAVOK
                      BECMG 1310/1312 17012KT
                      TEMPO 1311/1316 FEW040CB
                      TEMPO 1320/1404 VRB04KT=
201907131100 TAF LRCK 131100Z 1312/1412 15010KT CAVOK
                      TEMPO 1312/1316 FEW040CB
                      TEMPO 1318/1320 21008KT
                      BECMG 1407/1409 15014KT
                      TEMPO 1409/1412 SCT040CB=
201907131700 TAF LRCK 131700Z 1318/1418 17005KT CAVOK
                      BECMG 1408/1410 15015KT
                      BECMG 1414/1416 23008KT=
201907132300 TAF LRCK 132300Z 1400/1424 17005KT CAVOK
                      BECMG 1408/1410 15015KT
                      BECMG 1415/1417 28007KT=
201907140500 TAF LRCK 140500Z 1406/1506 13012KT CAVOK
                      TEMPO 1409/1412 SCT040CB
                      BECMG 1414/1416 VRB04KT=
201907141100 TAF LRCK 141100Z 1412/1512 13012KT 9999 SCT050CB
                      PROB30 TEMPO 1412/1414 TS
                      BECMG 1414/1416 VRB04KT NSC=
201907141700 TAF LRCK 141700Z 1418/1518 34007KT 9999 SCT040
                      PROB30 TEMPO 1418/1420 SCT040 FEW050CB
                      TEMPO 1512/1517 VRB18KT 5000 TSRA SCT040CB=
201907142300 TAF LRCK 142300Z 1500/1524 33007KT 9999 SCT040
                      TEMPO 1512/1517 VRB18KT 5000 TSRA SCT040CB=
201907150500 TAF LRCK 150500Z 1506/1606 33008KT CAVOK
                      TEMPO 1512/1517 32018KT 5000 TSRA SCT040CB
                       TEMPO 1600/1605 3000 BR BKN010=
201907151100 TAF LRCK 151100Z 1512/1612 33008KT CAVOK
                      TEMPO 1512/1518 32018KT 5000 TSRA SCT040CB
                       TEMPO 1600/1605 3000 BR BKN010=
201907151700 TAF LRCK 151700Z 1518/1618 32008KT 9999 FEW050CB
                      BECMG 1518/1520 NSC
                      BECMG 1609/1611 09010KT
                      TEMPO 1611/1616 SCT045CB
                      PROB30 TEMPO 1611/1615 5000 -TSRA
                      BECMG 1616/1618 VRB04KT=
201907152300 TAF LRCK 152300Z 1600/1624 30008KT CAVOK
                      BECMG 1609/1611 09010KT
                      TEMPO 1611/1616 SCT045CB
                      PROB30 TEMPO 1611/1615 5000 -TSRA
                      BECMG 1616/1618 VRB04KT=
201907160500 TAF LRCK 160500Z 1606/1706 30006KT CAVOK
                      BECMG 1609/1611 09010KT
                      TEMPO 1611/1616 SCT045CB
                      PROB30 TEMPO 1611/1615 5000 -TSRA
                      BECMG 1616/1618 VRB04KT=
201907161100 TAF LRCK 161100Z 1612/1712 08010KT 9999 SCT045CB
                      TEMPO 1612/1616 5000 -TSRA
                      BECMG 1616/1618 VRB04KT FEW045
                      TEMPO 1709/1712 27010KT=
201907161700 TAF LRCK 161700Z 1618/1718 VRB04KT CAVOK=
201907162300 TAF LRCK 162300Z 1700/1724 VRB04KT CAVOK=
201907170500 TAF LRCK 170500Z 1706/1806 29008KT CAVOK
                      PROB30 TEMPO 1715/1718 18012KT FEW050CB
                      BECMG 1722/1724 36012KT=
201907171100 TAF LRCK 171100Z 1712/1812 29008KT CAVOK
                      PROB30 TEMPO 1715/1718 18012KT FEW050CB
                      BECMG 1809/1811 14012KT SCT040CB=
201907171700 TAF LRCK 171700Z 1718/1818 15006KT CAVOK
                      BECMG 1808/1810 09010KT
                      TEMPO 1811/1816 SCT045CB=
201907172300 TAF AMD LRCK 180443Z 1804/1824 03012KT CAVOK
                      BECMG 1809/1811 09010KT
                      TEMPO 1811/1816 SCT045CB
                      BECMG 1820/1822 VRB04KT=
201907180443 TAF AMD LRCK 180443Z 1804/1824 03012KT CAVOK
                      BECMG 1809/1811 09010KT
                      TEMPO 1811/1816 SCT045CB
                      BECMG 1820/1822 VRB04KT=
201907180500 TAF LRCK 180500Z 1806/1906 03012KT CAVOK
                      BECMG 1809/1811 10010KT
                      TEMPO 1811/1815 SCT045CB
                      BECMG 1817/1819 19006KT=
201907181100 TAF LRCK 181100Z 1812/1912 10012KT CAVOK
                      BECMG 1817/1819 19006KT=
201907181700 TAF LRCK 181700Z 1818/1918 14010KT CAVOK
                      BECMG 1823/1901 VRB04KT 5000 BR
                      TEMPO 1901/1904 1500 BR
                      BECMG 1905/1907 9999 NSW
                      BECMG 1909/1911 12010KT
                      TEMPO 1912/1914 FEW040CB=
201907182300 TAF AMD LRCK 190234Z 1902/1924 VRB04KT 0800 FG SCT003
                      TEMPO 1902/1904 0300 FG BKN001
                      BECMG 1904/1905 5000 BR
                      BECMG 1905/1906 CAVOK
                      BECMG 1909/1911 12010KT
                      TEMPO 1912/1914 FEW040CB
                      BECMG 1917/1919 VRB04KT=
201907190234 TAF AMD LRCK 190234Z 1902/1924 VRB04KT 0800 FG SCT003
                      TEMPO 1902/1904 0300 FG BKN001
                      BECMG 1904/1905 5000 BR
                      BECMG 1905/1906 CAVOK
                      BECMG 1909/1911 12010KT
                      TEMPO 1912/1914 FEW040CB
                      BECMG 1917/1919 VRB04KT=
201907190500 TAF LRCK 190500Z 1906/2006 VRB04KT CAVOK
                      TEMPO 1906/1907 5000 BR SCT005
                      BECMG 1909/1911 14010KT
                      TEMPO 1912/1916 VRB20KT SCT040CB
                      BECMG 1918/1920 VRB04KT=
201907191100 TAF LRCK 191100Z 1912/2012 14010KT 9999 SCT040
                      TEMPO 1912/1916 VRB20KT SCT040CB
                      PROB30 TEMPO 1912/1915 5000 -TSRA
                      BECMG 1918/1920 VRB04KT
                      BECMG 2009/2011 12014KT=
201907191700 TAF LRCK 191700Z 1918/2018 15010KT CAVOK
                      BECMG 1918/1920 VRB04KT
                      BECMG 2009/2011 12016KT
                      BECMG 2015/2017 15006KT=
201907192300 TAF LRCK 192300Z 2000/2024 VRB04KT CAVOK
                      BECMG 2009/2011 12016KT
                      BECMG 2015/2017 15006KT=
201907200500 TAF LRCK 200500Z 2006/2106 VRB04KT CAVOK
                      BECMG 2009/2011 12014KT
                      TEMPO 2012/2018 SCT040CB
                      BECMG 2018/2020 VRB04KT=
201907201100 TAF LRCK 201100Z 2012/2112 12010KT CAVOK
                      PROB40 TEMPO 2012/2018 SCT040CB
                      BECMG 2018/2020 VRB04KT
                      BECMG 2107/2109 13010KT=
201907201700 TAF LRCK 201700Z 2018/2118 15008KT CAVOK
                      TEMPO 2023/2104 3000 BR BKN010
                      TEMPO 2112/2116 SCT030CB=
201907202300 TAF LRCK 202300Z 2100/2124 25006KT CAVOK
                      TEMPO 2101/2104 3000 BR BKN010
                      TEMPO 2112/2117 12012KT SCT040CB=
201907210500 TAF LRCK 210500Z 2106/2206 VRB04KT CAVOK
                      BECMG 2108/2110 13010KT
                      TEMPO 2111/2115 VRB20G30KT -TSRA SCT045CB
                       BECMG 2118/2120 VRB04KT=
201907211100 TAF LRCK 211100Z 2112/2212 13012KT 9999 FEW050CB
                      TEMPO 2112/2115 VRB20G30KT -TSRA
                      BECMG 2117/2119 VRB04KT NSC
                      BECMG 2208/2210 FEW050CB=
201907211700 TAF LRCK 211700Z 2118/2218 15010KT CAVOK
                      BECMG 2118/2120 VRB04KT
                      PROB30 TEMPO 2210/2213 VRB20KT -TSRA SCT040CB
                       BECMG 2213/2215 14010KT=
201907212300 TAF LRCK 212300Z 2200/2224 26007KT CAVOK
                      PROB30 TEMPO 2210/2213 VRB18KT -TSRA FEW040CB
                       BECMG 2213/2215 14010KT
                      TEMPO 2218/2222 VRB20KT 5000 TSRA SCT040CB
                       BECMG 2222/2224 35010KT=
201907220500 TAF LRCK 220500Z 2206/2306 VRB03KT CAVOK
                      BECMG 2213/2215 14010KT
                      PROB30 TEMPO 2218/2222 VRB20KT 5000 TSRA
                       SCT040CB
                      BECMG 2222/2224 35010KT=
201907221100 TAF LRCK 221100Z 2212/2312 14010KT CAVOK
                      PROB30 TEMPO 2213/2218 5000 TSRA SCT040CB
                       BECMG 2219/2221 32010KT=
201907221700 TAF LRCK 221700Z 2218/2318 VRB04KT 9999 FEW050CB
                      BECMG 2219/2221 NSC
                      BECMG 2302/2304 33010KT
                      TEMPO 2304/2308 5000 -TSRA SCT045CB
                      BECMG 2308/2310 07010KT SCT045CB
                      TEMPO 2311/2316 VRB18KT 3000 TSRA SCT010
                       BKN040CB=
201907222300 TAF LRCK 222300Z 2300/2324 35010KT CAVOK
                      TEMPO 2303/2308 -TSRA SCT045CB
                      BECMG 2308/2310 FEW050CB
                      TEMPO 2311/2315 VRB18KT 3000 TSRA SCT010
                       BKN040CB
                      BECMG 2317/2319 NSC=
201907230500 TAF LRCK 230500Z 2306/2406 02012KT 9999 FEW050CB
                      TEMPO 2306/2308 -TSRA
                      TEMPO 2310/2316 VRB20G30KT 3000 TSRA BKN010
                       BKN040CB
                      BECMG 2317/2319 NSC=
201907230808 TAF AMD LRCK 230808Z 2308/2406 02012KT 9999 FEW050CB
                      TEMPO 2308/2316 VRB20G30KT 3000 TSRA BKN015
                       BKN040CB
                      PROB30 TEMPO 2312/2316 1500 +TSRA BKN010
                       BKN035CB
                      BECMG 2317/2319 NSC=
201907231100 TAF LRCK 231100Z 2312/2412 VRB04KT 9999 SCT040
                      TEMPO 2313/2317 VRB20G30KT 3000 TSRA BKN015
                       BKN040CB
                      BECMG 2322/2324 33010KT=
201907231700 TAF LRCK 231700Z 2318/2418 36010KT CAVOK
                      PROB30 TEMPO 2318/2320 SCT040CB
                      BECMG 2407/2409 VRB03KT=
201907232300 TAF LRCK 232300Z 2400/2424 33008KT CAVOK
                      TEMPO 2401/2404 SCT045CB=
201907240500 TAF LRCK 240500Z 2406/2506 33008KT CAVOK
                      PROB30 TEMPO 2412/2416 SCT045CB=
201907241100 TAF LRCK 241100Z 2412/2512 01012KT CAVOK
                      TEMPO 2412/2417 SCT040CB=
201907241414 TAF AMD LRCK 241414Z 2414/2512 12008KT CAVOK
                      TEMPO 2414/2417 SCT040CB
                      BECMG 2500/2502 34010KT=
201907241700 TAF LRCK 241700Z 2418/2518 34010KT CAVOK
                      TEMPO 2512/2516 SCT040CB=
201907242300 TAF LRCK 242300Z 2500/2524 34010KT CAVOK
                      TEMPO 2512/2516 SCT040CB=
201907250500 TAF LRCK 250500Z 2506/2606 33010KT CAVOK
                      TEMPO 2510/2515 FEW050CB
                      BECMG 2510/2512 04010KT
                      TEMPO 2512/2516 12010KT
                      BECMG 2516/2518 30006KT=
201907251100 TAF LRCK 251100Z 2512/2612 12010KT CAVOK
                      TEMPO 2512/2515 FEW050CB
                      BECMG 2516/2518 30006KT
                      BECMG 2609/2611 16012KT=
201907251700 TAF LRCK 251700Z 2518/2618 VRB04KT CAVOK
                      BECMG 2609/2611 16012KT=
201907252300 TAF LRCK 252300Z 2600/2624 VRB04KT CAVOK
                      BECMG 2609/2611 16012KT=
201907260500 TAF LRCK 260500Z 2606/2706 28006KT CAVOK
                      BECMG 2612/2614 15012KT
                      TEMPO 2614/2617 FEW045CB
                      BECMG 2618/2620 VRB04KT=
201907261100 TAF LRCK 261100Z 2612/2712 16012KT CAVOK
                      TEMPO 2613/2617 FEW045CB
                      BECMG 2618/2620 VRB04KT
                      BECMG 2709/2711 13010KT=
201907261700 TAF LRCK 261700Z 2618/2718 15010KT CAVOK
                      BECMG 2619/2621 21006KT
                      BECMG 2707/2709 13012KT
                      PROB30 TEMPO 2710/2714 13015G25KT=
201907262300 TAF LRCK 262300Z 2700/2724 21006KT CAVOK
                      BECMG 2707/2709 13012KT
                      PROB30 TEMPO 2710/2714 13015G25KT
                      BECMG 2718/2720 VRB04KT=
201907270500 TAF LRCK 270500Z 2706/2806 13004KT CAVOK
                      BECMG 2707/2709 13014KT
                      PROB40 TEMPO 2710/2714 13025G35KT
                      BECMG 2719/2721 VRB04KT=
201907271100 TAF LRCK 271100Z 2712/2812 13014KT CAVOK
                      PROB40 TEMPO 2712/2715 13025G35KT
                      BECMG 2719/2721 VRB04KT
                      BECMG 2808/2810 12012KT=
201907271700 TAF LRCK 271700Z 2718/2818 15010KT CAVOK
                      BECMG 2718/2720 VRB04KT
                      BECMG 2809/2811 13014KT=
201907272300 TAF LRCK 272300Z 2800/2824 VRB04KT CAVOK
                      BECMG 2809/2811 13014KT
                      BECMG 2817/2819 VRB04KT=
201907280500 TAF LRCK 280500Z 2806/2906 VRB04KT CAVOK
                      BECMG 2808/2810 13014KT
                      BECMG 2817/2819 VRB04KT=
201907281100 TAF LRCK 281100Z 2812/2912 13014KT CAVOK
                      BECMG 2817/2819 VRB04KT
                      BECMG 2906/2908 SCT040CB
                      TEMPO 2908/2912 5000 -TSRA SCT010 BKN035CB
                       BECMG 2910/2912 09010KT=
201907281700 TAF LRCK 281700Z 2818/2918 VRB04KT CAVOK
                      PROB30 TEMPO 2823/2903 3000 BR
                      BECMG 2906/2908 09010KT
                      TEMPO 2910/2917 3000 TSRA BKN010 BKN035CB=
201907282300 TAF LRCK 282300Z 2900/2924 VRB04KT CAVOK
                      PROB30 TEMPO 2900/2903 1500 BR
                      BECMG 2906/2908 09010KT
                      TEMPO 2910/2917 3000 TSRA BKN010 BKN035CB=
201907290500 TAF LRCK 290500Z 2906/3006 VRB04KT CAVOK
                      BECMG 2906/2908 11010KT
                      TEMPO 2911/2916 FEW035CB
                      BECMG 2918/2920 30006KT
                      PROB30 TEMPO 2922/3003 5000 BR=
201907291100 TAF LRCK 291100Z 2912/3012 10010KT 9999 SCT035CB
                      PROB40 TEMPO 2912/2915 -TSRA
                      BECMG 2915/2917 NSC
                      BECMG 2919/2921 30007KT
                      PROB30 TEMPO 3010/3012 FEW040CB=
201907291700 TAF LRCK 291700Z 2918/3018 VRB05KT CAVOK
                      PROB30 TEMPO 3002/3006 SCT040CB
                      BECMG 3010/3012 32010KT SCT040CB
                      PROB40 TEMPO 3012/3016 -TSRA
                      BECMG 3016/3018 VRB04KT NSC=
201907292300 TAF LRCK 292300Z 3000/3024 VRB04KT CAVOK
                      PROB30 TEMPO 3002/3006 SCT040CB
                      BECMG 3010/3012 32010KT SCT040CB
                      PROB40 TEMPO 3012/3016 5000 -TSRA
                      BECMG 3016/3018 VRB04KT NSC
                      BECMG 3019/3021 29010KT=
201907300500 TAF LRCK 300500Z 3006/3106 30010KT CAVOK
                      TEMPO 3011/3016 SCT040CB
                      BECMG 3014/3016 VRB04KT NSC
                      BECMG 3019/3021 29010KT=
201907301100 TAF LRCK 301100Z 3012/3112 29010KT CAVOK
                      TEMPO 3012/3016 SCT040CB=
201907301700 TAF LRCK 301700Z 3018/3118 29010KT CAVOK
                      TEMPO 3112/3115 FEW040CB
                      BECMG 3116/3118 VRB04KT=
201907302300 TAF LRCK 302300Z 3100/3124 29010KT CAVOK
                      BECMG 3110/3112 VRB04KT
                      TEMPO 3112/3115 FEW040CB
                      BECMG 3121/3123 35010KT=
201907310500 TAF LRCK 310500Z 3106/0106 29010KT CAVOK
                      TEMPO 3112/3116 VRB15G25KT SCT040CB
                      BECMG 3121/3123 36010KT
                      BECMG 0103/0105 06010KT=
201907311100 TAF LRCK 311100Z 3112/0112 10010KT CAVOK
                      TEMPO 3112/3116 VRB15G25KT SCT040CB
                      BECMG 3120/3122 36010KT
                      BECMG 0103/0105 06010KT
                      PROB30 TEMPO 0106/0110 SCT040CB=
201907311700 TAF LRCK 311700Z 3118/0118 VRB04KT CAVOK
                      BECMG 0104/0106 34010KT SCT040CB
                      TEMPO 0106/0111 VRB16G26KT 5000 TSRA
                      BECMG 0112/0114 09008KT NSC
                      PROB40 TEMPO 0114/0118 5000 TSRA SCT040CB=
201907312300 TAF LRCK 312300Z 0100/0124 VRB04KT CAVOK
                      BECMG 0104/0106 34010KT SCT040CB
                      TEMPO 0106/0111 VRB16G26KT 5000 TSRA
                      BECMG 0112/0114 09010KT NSC
                      PROB40 TEMPO 0114/0118 5000 TSRA SCT040CB
                       BECMG 0118/0120 VRB04KT=
