201908010500 TAF LRCK 010500Z 0106/0206 02010KT 9999 SCT045
                      BECMG 0107/0109 VRB04KT
                      TEMPO 0107/0112 SCT040CB BKN045
                      PROB30 TEMPO 0108/0111 5000 TSRA
                      TEMPO 0114/0117 VRB20KT 5000 TSRA SCT040CB=
201908011100 TAF LRCK 011100Z 0112/0212 29007KT 9999 SCT045
                      BECMG 0112/0114 04010KT
                      TEMPO 0112/0117 SCT045CB
                      PROB30 TEMPO 0113/0116 VRB20KT 5000 -TSRA
                       BECMG 0116/0118 VRB04KT
                      TEMPO 0201/0205 3000 BR=
201908011700 TAF LRCK 011700Z 0118/0218 VRB04KT 9999 SCT045
                      PROB30 TEMPO 0120/0124 5000 SHRA SCT040CB
                       TEMPO 0201/0205 3000 BR
                      TEMPO 0213/0218 VRB18G28KT 3000 TSRA BKN030CB=
201908012300 TAF LRCK 012300Z 0200/0224 VRB04KT 9999 SCT045
                      PROB30 TEMPO 0202/0205 3000 BR
                      BECMG 0211/0213 SCT035CB
                      TEMPO 0213/0221 VRB18G28KT 3000 TSRA BKN030CB
                       BECMG 0221/0223 NSC=
201908020500 TAF LRCK 020500Z 0206/0306 29008KT CAVOK
                      PROB40 TEMPO 0209/0216 SCT045CB
                      BECMG 0216/0218 NSC=
201908021100 TAF LRCK 021100Z 0212/0312 29006KT CAVOK
                      PROB40 TEMPO 0212/0218 -TSRA SCT045CB
                      BECMG 0309/0311 26017G27KT 5000 SHRA SCT035CB=
201908021700 TAF LRCK 021700Z 0218/0318 15010KT CAVOK
                      BECMG 0218/0220 VRB04KT
                      BECMG 0308/0310 22012KT SCT040CB
                      TEMPO 0310/0316 22017G27KT 3000 TSRA SCT010
                       BKN035CB
                      BECMG 0316/0318 30015KT SCT045=
201908022300 TAF LRCK 022300Z 0300/0324 VRB04KT CAVOK
                      BECMG 0308/0310 22012KT SCT040CB
                      TEMPO 0310/0316 22017G27KT 3000 TSRA SCT010
                       BKN035CB
                      BECMG 0316/0318 30015KT SCT045
                      PROB30 TEMPO 0319/0323 31017G27KT=
201908030500 TAF LRCK 030500Z 0306/0406 20010KT CAVOK
                      TEMPO 0311/0318 22017G27KT 3000 TSRA BKN010
                       SCT035CB
                      BECMG 0320/0322 30015KT SCT045
                      PROB30 TEMPO 0322/0406 32018G28KT=
201908031100 TAF LRCK 031100Z 0312/0412 13014KT CAVOK
                      TEMPO 0312/0318 22017G27KT 3000 TSRA BKN010
                       SCT035CB
                      BECMG 0320/0322 30020KT SCT045=
201908031700 TAF LRCK 031700Z 0318/0418 35012KT CAVOK
                      PROB40 TEMPO 0318/0324 5000 -SHRA SCT045CB=
201908032300 TAF LRCK 032300Z 0400/0424 30016KT 9999 BKN008
                      BECMG 0405/0407 NSC
                      BECMG 0418/0420 33006KT=
201908040500 TAF LRCK 040500Z 0406/0506 32014KT CAVOK
                      TEMPO 0406/0408 BKN015
                      BECMG 0417/0419 VRB04KT
                      TEMPO 0500/0505 3000 BR=
201908041100 TAF LRCK 041100Z 0412/0512 32018KT CAVOK
                      BECMG 0417/0419 VRB04KT
                      TEMPO 0500/0505 3000 BR
                      BECMG 0506/0508 30010KT=
201908041700 TAF LRCK 041700Z 0418/0518 29006KT CAVOK=
201908042300 TAF LRCK 042300Z 0500/0524 29006KT CAVOK=
201908050500 TAF LRCK 050500Z 0506/0606 30008KT CAVOK
                      TEMPO 0512/0517 SCT040CB=
201908051100 TAF LRCK 051100Z 0512/0612 30008KT 9999 SCT040
                      TEMPO 0513/0517 SCT040CB=
201908051700 TAF LRCK 051700Z 0518/0618 VRB04KT CAVOK
                      TEMPO 0600/0605 3000 BR
                      BECMG 0609/0611 14010KT=
201908052300 TAF LRCK 052300Z 0600/0624 VRB04KT CAVOK
                      TEMPO 0600/0605 3000 BR
                      BECMG 0608/0610 14012KT
                      BECMG 0618/0620 VRB04KT=
201908060500 TAF LRCK 060500Z 0606/0706 VRB04KT CAVOK
                      BECMG 0609/0611 14012KT
                      BECMG 0618/0620 VRB04KT
                      PROB30 TEMPO 0702/0704 3000 BR=
201908061100 TAF LRCK 061100Z 0612/0712 14010KT CAVOK
                      BECMG 0618/0620 VRB04KT
                      PROB30 TEMPO 0702/0705 5000 BR
                      BECMG 0709/0711 18012KT=
201908061700 TAF LRCK 061700Z 0618/0718 17008KT CAVOK=
201908062300 TAF LRCK 062300Z 0700/0724 20008KT CAVOK=
201908070500 TAF LRCK 070500Z 0706/0806 25006KT CAVOK
                      BECMG 0710/0712 15018KT
                      TEMPO 0712/0716 15018G28KT
                      BECMG 0717/0719 18008KT=
201908071100 TAF LRCK 071100Z 0712/0812 15018KT CAVOK
                      TEMPO 0712/0716 15018G28KT
                      BECMG 0717/0719 18008KT
                      BECMG 0808/0810 14018KT=
201908071700 TAF LRCK 071700Z 0718/0818 15015KT CAVOK
                      BECMG 0718/0720 18005KT
                      BECMG 0808/0810 14018KT
                      TEMPO 0811/0816 14018G28KT=
201908072300 TAF LRCK 072300Z 0800/0824 18006KT CAVOK
                      BECMG 0808/0810 14016KT
                      TEMPO 0811/0816 14018G28KT
                      BECMG 0817/0819 19005KT=
201908080500 TAF LRCK 080500Z 0806/0906 19008KT CAVOK
                      TEMPO 0811/0816 14015G25KT=
201908081100 TAF LRCK 081100Z 0812/0912 14014KT CAVOK
                      TEMPO 0812/0816 14015G25KT
                      BECMG 0820/0822 VRB04KT=
201908081700 TAF LRCK 081700Z 0818/0918 16014KT CAVOK
                      BECMG 0820/0822 VRB04KT
                      BECMG 0910/0912 14010KT
                      BECMG 0916/0918 VRB04KT=
201908082300 TAF LRCK 082300Z 0900/0924 20006KT CAVOK
                      BECMG 0910/0912 14010KT
                      BECMG 0916/0918 VRB04KT=
201908090500 TAF LRCK 090500Z 0906/1006 20006KT CAVOK
                      BECMG 0910/0912 14010KT
                      BECMG 0916/0918 VRB04KT
                      PROB30 TEMPO 0918/0922 FEW045CB
                      BECMG 1004/1006 35010KT=
201908091100 TAF LRCK 091100Z 0912/1012 13010KT CAVOK
                      BECMG 0916/0918 VRB04KT
                      PROB30 TEMPO 0916/0921 FEW045CB
                      BECMG 1004/1006 35010KT
                      BECMG 1009/1011 11010KT=
201908091700 TAF LRCK 091700Z 0918/1018 VRB04KT CAVOK
                      BECMG 1004/1006 35010KT
                      BECMG 1009/1011 11010KT=
201908092300 TAF LRCK 092300Z 1000/1024 VRB04KT CAVOK
                      BECMG 1004/1006 35010KT
                      BECMG 1009/1011 11010KT=
201908100500 TAF LRCK 100500Z 1006/1106 02012KT CAVOK
                      BECMG 1007/1009 11012KT
                      BECMG 1016/1018 VRB04KT=
201908101100 TAF LRCK 101100Z 1012/1112 11012KT CAVOK
                      BECMG 1016/1018 VRB04KT=
201908101700 TAF LRCK 101700Z 1018/1118 14010KT CAVOK
                      BECMG 1018/1019 VRB04KT
                      BECMG 1108/1110 14010KT=
201908102300 TAF LRCK 102300Z 1100/1124 VRB04KT CAVOK
                      BECMG 1108/1110 14010KT
                      BECMG 1116/1118 VRB04KT=
201908110500 TAF LRCK 110500Z 1106/1206 VRB04KT CAVOK
                      BECMG 1108/1110 15012KT
                      BECMG 1118/1120 VRB04KT=
201908111100 TAF LRCK 111100Z 1112/1212 15012KT CAVOK
                      BECMG 1118/1120 VRB04KT
                      BECMG 1210/1212 13012KT=
201908111700 TAF LRCK 111700Z 1118/1218 VRB04KT CAVOK
                      BECMG 1208/1210 12012KT=
201908112300 TAF LRCK 112300Z 1200/1224 VRB04KT CAVOK
                      BECMG 1208/1210 12012KT
                      BECMG 1218/1220 VRB04KT=
201908120500 TAF LRCK 120500Z 1206/1306 VRB04KT CAVOK
                      BECMG 1208/1210 12012KT
                      BECMG 1217/1219 VRB04KT=
201908121100 TAF LRCK 121100Z 1212/1312 11010KT CAVOK
                      BECMG 1217/1219 VRB03KT=
201908121700 TAF LRCK 121700Z 1218/1318 12010KT CAVOK
                      BECMG 1219/1221 VRB03KT
                      BECMG 1307/1309 11012KT=
201908122300 TAF LRCK 122300Z 1300/1324 VRB03KT CAVOK
                      BECMG 1307/1309 11012KT
                      BECMG 1317/1319 VRB03KT=
201908130500 TAF LRCK 130500Z 1306/1406 VRB04KT CAVOK
                      BECMG 1306/1308 11012KT
                      BECMG 1316/1318 VRB04KT
                      PROB40 TEMPO 1400/1404 5000 BR=
201908131100 TAF LRCK 131100Z 1312/1412 11012KT CAVOK
                      BECMG 1316/1318 VRB04KT
                      TEMPO 1400/1404 3000 BR
                      BECMG 1408/1410 11010KT=
201908131700 TAF LRCK 131700Z 1318/1418 VRB04KT CAVOK
                      TEMPO 1400/1404 3000 BR
                      BECMG 1408/1410 11010KT=
201908132300 TAF LRCK 132300Z 1400/1424 VRB04KT CAVOK
                      TEMPO 1400/1404 3000 BR
                      BECMG 1408/1410 11012KT
                      BECMG 1417/1419 VRB04KT=
201908140500 TAF LRCK 140500Z 1406/1506 03010KT CAVOK
                      BECMG 1408/1410 12012KT
                      BECMG 1417/1419 VRB04KT
                      BECMG 1504/1506 34010KT=
201908141100 TAF LRCK 141100Z 1412/1512 12012KT CAVOK
                      BECMG 1417/1419 VRB04KT
                      BECMG 1504/1506 34010KT=
201908141700 TAF LRCK 141700Z 1418/1518 12010KT CAVOK
                      BECMG 1418/1420 VRB04KT
                      BECMG 1504/1506 34010KT=
201908142300 TAF LRCK 142300Z 1500/1524 27006KT CAVOK
                      BECMG 1504/1506 34010KT
                      TEMPO 1521/1524 5000 -SHRA SCT015 SCT035CB
                       BKN040=
201908150500 TAF LRCK 150500Z 1506/1606 35010KT CAVOK
                      TEMPO 1506/1508 36015G25KT
                      PROB40 TEMPO 1602/1606 5000 -SHRA SCT035CB=
201908151100 TAF LRCK 151100Z 1512/1612 34010KT CAVOK
                      PROB30 TEMPO 1602/1607 5000 -SHRA SCT035CB=
201908151700 TAF LRCK 151700Z 1518/1618 32012KT CAVOK
                      PROB30 TEMPO 1603/1608 SCT040CB=
201908152300 TAF LRCK 152300Z 1600/1624 34011KT CAVOK
                      TEMPO 1602/1608 SCT040CB
                      PROB30 TEMPO 1602/1606 5000 -SHRA=
201908160500 TAF LRCK 160500Z 1606/1706 34014KT 9999 SCT045
                      TEMPO 1606/1609 SCT040CB
                      PROB30 TEMPO 1606/1609 5000 -SHRA=
201908161100 TAF LRCK 161100Z 1612/1712 VRB04KT CAVOK
                      TEMPO 1612/1616 34014KT
                      BECMG 1708/1710 34010KT=
201908161700 TAF LRCK 161700Z 1618/1718 16006KT CAVOK
                      BECMG 1619/1621 35010KT=
201908162300 TAF LRCK 162300Z 1700/1724 35008KT CAVOK=
201908170500 TAF LRCK 170500Z 1706/1806 34008KT CAVOK=
201908171100 TAF LRCK 171100Z 1712/1812 36008KT CAVOK=
201908171410 TAF AMD LRCK 171410Z 1714/1812 10012KT CAVOK
                      BECMG 1716/1718 34008KT=
201908171700 TAF LRCK 171700Z 1718/1818 VRB04KT CAVOK=
201908172300 TAF LRCK 172300Z 1800/1824 34006KT CAVOK=
201908180500 TAF LRCK 180500Z 1806/1906 34008KT CAVOK
                      BECMG 1810/1812 10010KT
                      BECMG 1817/1819 VRB03KT=
201908181100 TAF LRCK 181100Z 1812/1912 14010KT CAVOK
                      BECMG 1817/1819 VRB03KT
                      BECMG 1908/1910 09010KT=
201908181700 TAF LRCK 181700Z 1818/1918 VRB04KT CAVOK
                      BECMG 1908/1910 09010KT=
201908182300 TAF LRCK 182300Z 1900/1924 25006KT CAVOK
                      BECMG 1908/1910 09010KT=
201908190500 TAF LRCK 190500Z 1906/2006 29005KT CAVOK
                      BECMG 1908/1910 11010KT
                      BECMG 1917/1919 VRB04KT=
201908191100 TAF LRCK 191100Z 1912/2012 11012KT CAVOK
                      BECMG 1917/1919 VRB04KT
                      BECMG 2009/2011 08010KT=
201908191700 TAF LRCK 191700Z 1918/2018 10010KT CAVOK
                      BECMG 1918/1920 VRB04KT
                      BECMG 2008/2010 09011KT=
201908192300 TAF LRCK 192300Z 2000/2024 VRB04KT CAVOK
                      BECMG 2008/2010 09011KT
                      BECMG 2017/2019 VRB04KT=
201908200500 TAF LRCK 200500Z 2006/2106 VRB04KT CAVOK
                      BECMG 2008/2010 09011KT
                      BECMG 2017/2019 VRB04KT
                      BECMG 2104/2106 02010KT=
201908201100 TAF LRCK 201100Z 2012/2112 09010KT CAVOK
                      BECMG 2017/2019 VRB04KT
                      BECMG 2104/2106 02010KT
                      BECMG 2109/2111 09010KT=
201908201700 TAF LRCK 201700Z 2018/2118 VRB04KT CAVOK
                      BECMG 2108/2110 10010KT
                      BECMG 2116/2118 VRB04KT=
201908202300 TAF LRCK 202300Z 2100/2124 VRB04KT CAVOK
                      BECMG 2108/2110 10010KT
                      BECMG 2116/2118 VRB04KT=
201908210500 TAF LRCK 210500Z 2106/2206 36010KT CAVOK
                      BECMG 2108/2110 10012KT
                      BECMG 2116/2118 VRB04KT
                      BECMG 2202/2204 36010KT=
201908211100 TAF LRCK 211100Z 2112/2212 06014KT CAVOK
                      BECMG 2117/2119 VRB04KT
                      BECMG 2202/2204 36012KT=
201908211700 TAF LRCK 211700Z 2118/2218 VRB04KT CAVOK
                      BECMG 2202/2204 36012KT=
201908212300 TAF LRCK 212300Z 2200/2224 34012KT CAVOK
                      BECMG 2213/2215 12010KT
                      BECMG 2220/2222 36012KT=
201908220500 TAF LRCK 220500Z 2206/2306 34010KT CAVOK
                      BECMG 2213/2215 12008KT
                      BECMG 2220/2222 36012KT
                      PROB40 TEMPO 2303/2306 01016G26KT=
201908221100 TAF LRCK 221100Z 2212/2312 03015KT CAVOK
                      BECMG 2215/2217 26005KT
                      BECMG 2219/2221 01014KT
                      PROB40 TEMPO 2303/2310 01016G26KT=
201908221700 TAF LRCK 221700Z 2218/2318 35012KT CAVOK
                      PROB40 TEMPO 2303/2310 01016G26KT
                      BECMG 2311/2313 07012KT=
201908222300 TAF COR LRCK 230341Z 2300/2324 35012KT CAVOK
                      PROB40 TEMPO 2303/2310 01016G26KT
                      BECMG 2311/2313 07012KT
                      BECMG 2321/2323 01010KT=
201908230341 TAF COR LRCK 230341Z 2300/2324 35012KT CAVOK
                      PROB40 TEMPO 2303/2310 01016G26KT
                      BECMG 2311/2313 07012KT
                      BECMG 2321/2323 01010KT=
201908230500 TAF LRCK 230500Z 2306/2406 35016KT CAVOK
                      BECMG 2311/2313 08012KT
                      BECMG 2318/2320 02012KT=
201908231100 TAF LRCK 231100Z 2312/2412 02014KT CAVOK
                      BECMG 2312/2314 09012KT
                      BECMG 2319/2321 02012KT
                      BECMG 2410/2412 09014KT=
201908231700 TAF LRCK 231700Z 2318/2418 09010KT CAVOK
                      BECMG 2319/2321 02008KT
                      BECMG 2410/2412 09014KT=
201908232300 TAF LRCK 232300Z 2400/2424 35012KT CAVOK
                      BECMG 2410/2412 09012KT
                      BECMG 2420/2422 35008KT=
201908240500 TAF LRCK 240500Z 2406/2506 36012KT CAVOK
                      BECMG 2409/2411 09014KT
                      BECMG 2417/2419 VRB04KT=
201908241100 TAF LRCK 241100Z 2412/2512 06014KT CAVOK
                      BECMG 2417/2419 VRB04KT
                      BECMG 2506/2508 08015KT=
201908241700 TAF LRCK 241700Z 2418/2518 07005KT CAVOK
                      BECMG 2420/2422 01010KT
                      BECMG 2506/2508 08015KT
                      TEMPO 2508/2513 08015G27KT=
201908242300 TAF LRCK 242300Z 2500/2524 32010KT CAVOK
                      BECMG 2504/2506 05015KT
                      TEMPO 2508/2514 08015G27KT=
201908250500 TAF LRCK 250500Z 2506/2606 02012KT CAVOK
                      BECMG 2506/2508 08014KT
                      TEMPO 2508/2514 08015G25KT=
201908251100 TAF LRCK 251100Z 2512/2612 07019KT CAVOK
                      BECMG 2516/2518 07009KT=
201908251700 TAF LRCK 251700Z 2518/2618 06010KT CAVOK
                      BECMG 2519/2521 VRB04KT
                      BECMG 2607/2609 08014KT=
201908252300 TAF LRCK 252300Z 2600/2624 04008KT CAVOK
                      TEMPO 2600/2605 3000 BR BKN010
                      BECMG 2607/2609 08014KT=
201908260500 TAF LRCK 260500Z 2606/2706 03015KT CAVOK
                      BECMG 2607/2609 09015KT
                      BECMG 2618/2620 01008KT=
201908261100 TAF LRCK 261100Z 2612/2712 08016KT CAVOK
                      BECMG 2617/2619 01008KT
                      BECMG 2707/2709 08016KT=
201908261700 TAF LRCK 261700Z 2618/2718 06006KT CAVOK
                      BECMG 2708/2710 09016KT
                      TEMPO 2712/2717 09016G26KT=
201908262300 TAF LRCK 262300Z 2700/2724 06006KT CAVOK
                      BECMG 2708/2710 09016KT
                      TEMPO 2712/2717 09016G26KT
                      BECMG 2718/2720 06006KT=
201908270500 TAF LRCK 270500Z 2706/2806 35008KT CAVOK
                      BECMG 2708/2710 07014KT
                      PROB40 TEMPO 2711/2715 10015G25KT TS SCT050CB
                       BECMG 2716/2718 VRB04KT=
201908271100 TAF LRCK 271100Z 2712/2812 09014KT CAVOK
                      BECMG 2716/2718 VRB04KT
                      BECMG 2806/2808 06010KT
                      TEMPO 2810/2812 10015G25KT=
201908271700 TAF LRCK 271700Z 2718/2818 09010KT CAVOK
                      BECMG 2718/2721 01005KT
                      BECMG 2807/2809 09015KT
                      TEMPO 2810/2814 10015G25KT
                      BECMG 2816/2818 10005KT=
201908272300 TAF LRCK 272300Z 2800/2824 36005KT CAVOK
                      PROB30 TEMPO 2800/2804 3000 BR
                      BECMG 2807/2809 09015KT
                      TEMPO 2810/2814 10015G25KT
                      BECMG 2816/2819 VRB04KT=
201908280500 TAF LRCK 280500Z 2806/2906 01006KT CAVOK
                      BECMG 2807/2809 09016KT
                      TEMPO 2810/2814 10016G26KT
                      BECMG 2816/2818 VRB04KT=
201908281100 TAF LRCK 281100Z 2812/2912 05014KT CAVOK
                      TEMPO 2812/2815 07015G25KT
                      BECMG 2816/2818 VRB04KT
                      BECMG 2909/2911 08014KT=
201908281700 TAF LRCK 281700Z 2818/2918 VRB04KT CAVOK
                      BECMG 2909/2911 09014KT
                      BECMG 2916/2918 VRB04KT=
201908282300 TAF LRCK 282300Z 2900/2924 VRB04KT CAVOK
                      BECMG 2909/2911 09014KT
                      BECMG 2916/2918 VRB04KT=
201908290500 TAF LRCK 290500Z 2906/3006 36005KT CAVOK
                      BECMG 2909/2911 12014KT
                      BECMG 2917/2919 VRB04KT=
201908291100 TAF LRCK 291100Z 2912/3012 10012KT CAVOK
                      BECMG 2917/2919 VRB03KT
                      BECMG 3008/3010 10012KT=
201908291700 TAF LRCK 291700Z 2918/3018 VRB04KT CAVOK
                      BECMG 3008/3010 10012KT=
201908292300 TAF LRCK 292300Z 3000/3024 VRB04KT CAVOK
                      BECMG 3008/3010 10012KT
                      BECMG 3018/3020 VRB04KT=
201908300500 TAF LRCK 300500Z 3006/3106 35008KT CAVOK
                      BECMG 3008/3010 10010KT
                      BECMG 3018/3020 VRB04KT=
201908301100 TAF LRCK 301100Z 3012/3112 09012KT CAVOK
                      BECMG 3018/3020 02006KT
                      BECMG 3106/3108 08012KT=
201908301700 TAF LRCK 301700Z 3018/3118 08012KT CAVOK
                      BECMG 3019/3021 02005KT
                      BECMG 3106/3108 08013KT
                      TEMPO 3111/3116 08017G27KT=
201908302300 TAF LRCK 302300Z 3100/3124 02005KT CAVOK
                      BECMG 3106/3108 08013KT
                      TEMPO 3111/3116 08017G27KT=
201908310500 TAF LRCK 310500Z 3106/0106 36010KT CAVOK
                      BECMG 3108/3110 07012KT
                      BECMG 3116/3118 VRB04KT=
201908311100 TAF LRCK 311100Z 3112/0112 06015KT CAVOK
                      BECMG 3116/3118 VRB04KT
                      BECMG 0108/0110 07014KT=
201908311700 TAF LRCK 311700Z 3118/0118 02006KT CAVOK
                      BECMG 0108/0110 08014KT=
201908312300 TAF LRCK 312300Z 0100/0124 36008KT CAVOK
                      BECMG 0108/0110 08014KT
                      BECMG 0117/0119 VRB04KT=
