201908010000 METAR LRCK 010000Z 36007KT 9999 FEW045 24/18 Q1010 RERA NOSIG=
201908010030 METAR LRCK 010030Z 01007KT CAVOK 24/17 Q1010 NOSIG=
201908010100 METAR LRCK 010100Z 01010KT CAVOK 24/17 Q1010 NOSIG=
201908010130 METAR LRCK 010130Z 02009KT CAVOK 24/17 Q1010 NOSIG=
201908010200 METAR LRCK 010200Z 36007KT CAVOK 24/17 Q1010 NOSIG=
201908010230 METAR LRCK 010230Z 36009KT 9999 FEW042 24/17 Q1010 NOSIG=
201908010300 METAR COR LRCK 010300Z 02007KT 9999 -RA FEW045 22/19 Q1010
                        R36/29//95 NOSIG=
201908010330 METAR LRCK 010330Z 02006KT 9999 FEW045 22/19 Q1010 RERA R36/29//95
                        NOSIG=
201908010400 METAR LRCK 010400Z 02007KT CAVOK 23/18 Q1010 R36/29//95 NOSIG=
201908010430 METAR LRCK 010430Z 02008KT CAVOK 24/18 Q1011 R36/29//95 NOSIG=
201908010500 METAR LRCK 010500Z 02008KT CAVOK 25/18 Q1011 R36/29//95 NOSIG=
201908010530 METAR LRCK 010530Z 02008KT 9999 FEW045CB 27/17 Q1011 R36/29//95
                        NOSIG=
201908010600 METAR LRCK 010600Z 03010KT 9999 FEW045CB 26/16 Q1011 NOSIG=
201908010630 METAR LRCK 010630Z 03010KT 9999 FEW045CB 29/16 Q1011 NOSIG=
201908010700 METAR LRCK 010700Z 04010KT 9999 FEW045CB 30/16 Q1011 NOSIG=
201908010730 METAR LRCK 010730Z 03008KT 360V060 9999 FEW045CB 30/16 Q1011
                        NOSIG=
201908010800 METAR LRCK 010800Z 03006KT 9999 FEW045CB 29/16 Q1011 NOSIG=
201908010830 METAR LRCK 010830Z 29010KT 250V320 9999 FEW045CB 26/19 Q1011
                        NOSIG=
201908010900 METAR LRCK 010900Z 28009KT 9999 -SHRA SCT045CB 24/20 Q1012
                        NOSIG=
201908010930 METAR LRCK 010930Z 26007KT 230V290 9999 FEW045CB 23/20 Q1012
                        NOSIG=
201908011000 METAR LRCK 011000Z 25005KT 210V280 9999 FEW045CB 23/21 Q1012
                        NOSIG=
201908011030 METAR LRCK 011030Z 28008KT 9999 FEW045CB 25/20 Q1012 NOSIG=
201908011100 METAR LRCK 011100Z 29007KT 9999 FEW045CB 27/19 Q1012 NOSIG=
201908011130 METAR LRCK 011130Z 27007KT 9999 FEW045CB 27/19 Q1012 NOSIG=
201908011200 METAR LRCK 011200Z 22005KT 180V280 9999 SCT046 FEW050CB 29/19
                        Q1011 NOSIG=
201908011230 METAR LRCK 011230Z 25004KT 200V300 9999 SCT045 FEW050CB 29/18
                        Q1011 NOSIG=
201908011300 METAR LRCK 011300Z 01012KT 7000 SHRA SCT041 SCT045CB 27/20
                        Q1011 NOSIG=
201908011330 METAR LRCK 011330Z 04012KT 9999 FEW042 FEW045CB 22/21 Q1011
                        RESHRA R36/290294 NOSIG=
201908011400 METAR LRCK 011400Z 06005KT 9999 SCT049 23/21 Q1011 R36/290095
                        NOSIG=
201908011430 METAR LRCK 011430Z 05003KT 020V100 CAVOK 25/21 Q1011 R36/290095
                        NOSIG=
201908011500 METAR LRCK 011500Z VRB02KT CAVOK 26/21 Q1011 R36/290095 NOSIG=
201908011530 METAR LRCK 011530Z 05003KT CAVOK 26/21 Q1011 R36/290095 NOSIG=
201908011600 METAR LRCK 011600Z 06004KT CAVOK 25/21 Q1011 R36/290095 NOSIG=
201908011630 METAR LRCK 011630Z 04007KT 9999 FEW047 25/20 Q1011 NOSIG=
201908011700 METAR LRCK 011700Z 04007KT 9999 SCT047 24/21 Q1012 NOSIG=
201908011730 METAR LRCK 011730Z 02006KT 9999 FEW039 SCT049 24/20 Q1012
                        NOSIG=
201908011800 METAR LRCK 011800Z 03005KT 9999 SCT049 23/20 Q1012 NOSIG=
201908011830 METAR LRCK 011830Z 02005KT 9999 FEW049 23/20 Q1012 NOSIG=
201908011900 METAR LRCK 011900Z 03008KT 9999 FEW049 22/18 Q1012 NOSIG=
201908011930 METAR LRCK 011930Z 02007KT 9999 FEW044 22/18 Q1012 NOSIG=
201908012000 METAR LRCK 012000Z 03006KT 9999 FEW044 22/18 Q1012 NOSIG=
201908012030 METAR LRCK 012030Z 35008KT 8000 RA SCT041 21/19 Q1012 R36/29//95
                        NOSIG=
201908012100 METAR LRCK 012100Z 05008KT 9999 SCT042 19/19 Q1012 RERA R36/29//95
                        NOSIG=
201908012130 METAR LRCK 012130Z 06005KT 9999 FEW047 20/19 Q1012 R36/29//95
                        NOSIG=
201908012200 METAR LRCK 012200Z 00000KT 9999 FEW047 19/18 Q1012 R36/29//95
                        NOSIG=
201908012230 METAR LRCK 012230Z 00000KT CAVOK 19/18 Q1012 R36/29//95 NOSIG=
201908012300 METAR LRCK 012300Z 33004KT CAVOK 19/18 Q1012 R36/29//95 NOSIG=
201908012330 METAR LRCK 012330Z 34004KT CAVOK 18/18 Q1012 R36/29//95 NOSIG=
201908020000 METAR LRCK 020000Z 31005KT CAVOK 19/18 Q1012 R36/29//95 NOSIG=
201908020030 METAR LRCK 020030Z 32005KT CAVOK 19/18 Q1012 R36/29//95 NOSIG=
201908020100 METAR LRCK 020100Z 31004KT CAVOK 19/18 Q1012 R36/29//95 NOSIG=
201908020130 METAR LRCK 020130Z 31006KT CAVOK 18/18 Q1012 R36/29//95 NOSIG=
201908020200 METAR LRCK 020200Z 29006KT CAVOK 18/18 Q1012 R36/29//95 NOSIG=
201908020230 METAR LRCK 020230Z 27006KT 9999 SCT049 17/17 Q1012 R36/CLRD//
                        NOSIG=
201908020300 METAR LRCK 020300Z 27005KT 9999 FEW049 17/17 Q1012 NOSIG=
201908020330 METAR LRCK 020330Z 28003KT CAVOK 17/17 Q1012 NOSIG=
201908020400 METAR LRCK 020400Z 28004KT 8000 NSC 18/18 Q1012 NOSIG=
201908020430 METAR LRCK 020430Z 29007KT 8000 FEW005 19/18 Q1012 NOSIG=
201908020500 METAR LRCK 020500Z 29009KT 8000 2500W FEW005 19/19 Q1012
                        NOSIG=
201908020530 METAR LRCK 020530Z 29007KT 8000 FEW005 20/19 Q1012 NOSIG=
201908020600 METAR LRCK 020600Z 27007KT 9999 FEW007 22/19 Q1012 NOSIG=
201908020630 METAR LRCK 020630Z 29008KT 9999 FEW010 23/19 Q1012 NOSIG=
201908020700 METAR LRCK 020700Z 28007KT 9999 FEW025 24/19 Q1012 NOSIG=
201908020730 METAR LRCK 020730Z 30007KT 270V330 9999 FEW028 26/18 Q1012
                        NOSIG=
201908020800 METAR LRCK 020800Z 30007KT 270V350 9999 FEW030 27/18 Q1012
                        NOSIG=
201908020830 METAR LRCK 020830Z 31007KT 260V350 9999 FEW030 27/17 Q1012
                        NOSIG=
201908020900 METAR LRCK 020900Z 30005KT 260V340 9999 FEW035 28/17 Q1012
                        NOSIG=
201908020930 METAR LRCK 020930Z 27004KT 210V310 9999 FEW040 29/15 Q1011
                        NOSIG=
201908021000 METAR LRCK 021000Z 30007KT 9999 FEW045 29/16 Q1011 NOSIG=
201908021030 METAR LRCK 021030Z 32005KT 9999 SCT049 29/16 Q1011 NOSIG=
201908021100 METAR LRCK 021100Z 28008KT 240V310 9999 SCT049 30/17 Q1011
                        NOSIG=
201908021130 METAR LRCK 021130Z 28006KT 230V330 9999 FEW049 30/16 Q1011
                        NOSIG=
201908021200 METAR LRCK 021200Z 30009KT 260V330 CAVOK 30/16 Q1010 NOSIG=
201908021230 METAR LRCK 021230Z 28007KT 250V320 9999 FEW050CB 31/16 Q1010
                        NOSIG=
201908021300 METAR LRCK 021300Z 28009KT 230V310 9999 FEW050CB 32/16 Q1010
                        NOSIG=
201908021330 METAR LRCK 021330Z 31008KT 9999 FEW050CB 31/16 Q1010 NOSIG=
201908021400 METAR LRCK 021400Z 12010KT 100V160 9999 FEW060CB 29/19 Q1010
                        NOSIG=
201908021430 METAR LRCK 021430Z 11012KT 9999 FEW060CB 27/19 Q1010 NOSIG=
201908021500 METAR LRCK 021500Z 12012KT CAVOK 27/19 Q1010 NOSIG=
201908021530 METAR LRCK 021530Z 13011KT CAVOK 27/19 Q1009 NOSIG=
201908021600 METAR LRCK 021600Z 12009KT CAVOK 26/19 Q1010 NOSIG=
201908021630 METAR LRCK 021630Z 14009KT CAVOK 25/19 Q1010 NOSIG=
201908021700 METAR LRCK 021700Z 16010KT CAVOK 25/18 Q1009 NOSIG=
201908021730 METAR LRCK 021730Z 15009KT CAVOK 25/18 Q1009 NOSIG=
201908021800 METAR LRCK 021800Z 17008KT CAVOK 24/19 Q1009 NOSIG=
201908021830 METAR LRCK 021830Z 11005KT CAVOK 23/19 Q1010 NOSIG=
201908021900 METAR LRCK 021900Z 13005KT CAVOK 22/19 Q1009 NOSIG=
201908021930 METAR LRCK 021930Z 16006KT CAVOK 22/19 Q1009 NOSIG=
201908022000 METAR LRCK 022000Z 17005KT CAVOK 23/19 Q1009 NOSIG=
201908022030 METAR LRCK 022030Z 19007KT CAVOK 22/19 Q1009 NOSIG=
201908022100 METAR LRCK 022100Z 19006KT CAVOK 22/19 Q1009 NOSIG=
201908022130 METAR LRCK 022130Z 19006KT CAVOK 22/19 Q1009 NOSIG=
201908022200 METAR LRCK 022200Z 18005KT CAVOK 21/19 Q1009 NOSIG=
201908022230 METAR LRCK 022230Z 00000KT CAVOK 22/20 Q1009 NOSIG=
201908022300 METAR LRCK 022300Z 18006KT CAVOK 21/20 Q1009 NOSIG=
201908022330 METAR LRCK 022330Z 18006KT CAVOK 21/19 Q1008 NOSIG=
201908030000 METAR LRCK 030000Z 20006KT CAVOK 21/19 Q1008 NOSIG=
201908030030 METAR LRCK 030030Z 21007KT CAVOK 21/19 Q1008 NOSIG=
201908030100 METAR LRCK 030100Z 21007KT CAVOK 20/19 Q1008 NOSIG=
201908030130 METAR LRCK 030130Z 21006KT CAVOK 20/19 Q1008 NOSIG=
201908030200 METAR LRCK 030200Z 20005KT CAVOK 20/19 Q1007 NOSIG=
201908030230 METAR LRCK 030230Z 14003KT CAVOK 20/19 Q1007 NOSIG=
201908030300 METAR LRCK 030300Z 00000KT 8000 NSC 20/19 Q1007 NOSIG=
201908030330 METAR LRCK 030330Z 00000KT 7000 NSC 20/19 Q1007 NOSIG=
201908030400 METAR LRCK 030400Z 00000KT 7000 NSC 21/20 Q1007 NOSIG=
201908030430 METAR LRCK 030430Z VRB01KT CAVOK 22/21 Q1007 NOSIG=
201908030500 METAR LRCK 030500Z 19005KT CAVOK 24/20 Q1007 NOSIG=
201908030530 METAR LRCK 030530Z 19008KT CAVOK 25/19 Q1006 NOSIG=
201908030600 METAR LRCK 030600Z 21010KT 9999 FEW048CB 27/19 Q1006 NOSIG=
201908030630 METAR LRCK 030630Z 21009KT 180V240 9999 FEW048CB 26/20 Q1006
                        NOSIG=
201908030700 METAR LRCK 030700Z 18009KT 9999 FEW048CB 24/20 Q1006 NOSIG=
201908030730 METAR LRCK 030730Z 21008KT 9999 FEW050CB 27/19 Q1006 NOSIG=
201908030800 METAR LRCK 030800Z 19007KT 160V220 9999 FEW050CB 28/19 Q1006
                        NOSIG=
201908030830 METAR LRCK 030830Z 21006KT 9999 FEW048CB 29/19 Q1005 NOSIG=
201908030900 METAR LRCK 030900Z 12008KT 100V170 9999 SCT041 FEW045CB 29/19
                        Q1005 NOSIG=
201908030930 METAR LRCK 030930Z 11010KT 080V140 9999 VCTS SCT027 FEW045CB
                        28/22 Q1004 NOSIG=
201908031000 METAR LRCK 031000Z 14009KT 100V160 9999 TS SCT028 FEW045CB
                        29/22 Q1004 NOSIG=
201908031030 METAR LRCK 031030Z 13015KT 9999 TS FEW024 FEW045CB 28/23
                        Q1003 NOSIG=
201908031100 METAR LRCK 031100Z 12015KT 9999 VCTS SCT025 FEW045CB 27/22
                        Q1003 NOSIG=
201908031130 METAR LRCK 031130Z 10013KT 9999 VCTS FEW027 FEW050CB 29/22
                        Q1002 NOSIG=
201908031200 METAR LRCK 031200Z 07019KT 9999 VCTS FEW012 FEW045CB 24/19
                        Q1003 NOSIG=
201908031230 METAR LRCK 031230Z 08015KT 9999 FEW014 FEW048CB 24/19 Q1003
                        NOSIG=
201908031300 METAR LRCK 031300Z 10016KT 9999 TS FEW015 FEW050CB 27/21
                        Q1002 NOSIG=
201908031330 METAR LRCK 031330Z 09017KT 9999 FEW017 FEW050CB 26/20 Q1002
                        NOSIG=
201908031400 METAR LRCK 031400Z 09013KT 9999 FEW019 FEW050CB 27/20 Q1001
                        NOSIG=
201908031430 METAR LRCK 031430Z 11016KT 9999 FEW016 FEW050CB 25/20 Q1001
                        NOSIG=
201908031500 METAR LRCK 031500Z 12014KT 9999 TS FEW018 FEW050CB 24/21
                        Q1001 NOSIG=
201908031530 METAR LRCK 031530Z 11015KT 5000 TSRA FEW012 SCT045CB 23/21
                        Q1000 TEMPO 3000 TSRA=
201908031600 METAR LRCK 031600Z 34018KT 1500 +TSRA SCT005 BKN028CB 18/18
                        Q1003 R18/290295 BECMG 5000 -TSRA=
201908031630 METAR LRCK 031630Z 01013KT 9999 -SHRA FEW016 SCT045CB 18/18
                        Q1002 R36/290295 NOSIG=
201908031700 METAR LRCK 031700Z 02011KT 9999 FEW018 FEW050CB 19/19 Q1002
                        R36/290295 NOSIG=
201908031730 METAR LRCK 031730Z 01008KT 9999 FEW050CB 19/18 Q1002 R36/29//95
                        NOSIG=
201908031800 METAR LRCK 031800Z 00000KT 9999 FEW050CB 18/17 Q1002 R36/29//95
                        NOSIG=
201908031830 METAR LRCK 031830Z 23006KT CAVOK 18/18 Q1003 R36/29//95 NOSIG=
201908031900 METAR LRCK 031900Z 24011KT 9999 FEW050CB 19/18 Q1003 R36/29//95
                        NOSIG=
201908031930 METAR LRCK 031930Z 25010KT 9999 FEW050CB 19/18 Q1003 R36/29//95
                        NOSIG=
201908032000 METAR LRCK 032000Z 27011KT 8000 -SHRA FEW021 FEW045CB 19/19
                        Q1003 R36/29//95 NOSIG=
201908032030 METAR LRCK 032030Z 28009KT 7000 -SHRA SCT008 SCT045CB 19/19
                        Q1003 R36/29//95 NOSIG=
201908032100 METAR LRCK 032100Z 31012KT 9999 BKN007 FEW050CB 18/17 Q1003
                        R36/29//95 BECMG BKN030=
201908032130 METAR LRCK 032130Z 32014KT 9999 SCT007 BKN021 17/16 Q1003
                        R36/29//95 NOSIG=
201908032200 METAR LRCK 032200Z 32013KT 9999 BKN009 BKN021 17/16 Q1003
                        R36/29//95 NOSIG=
201908032230 METAR LRCK 032230Z 32016KT 9999 BKN008 17/16 Q1003 R36/29//95
                        NOSIG=
201908032300 METAR LRCK 032300Z 32017KT 9999 BKN008 17/16 Q1003 R36/29//95
                        NOSIG=
201908032330 METAR LRCK 032330Z 32016KT 9999 OVC010 17/16 Q1003 R36/29//95
                        NOSIG=
201908040000 METAR LRCK 040000Z 32016KT 9999 BKN012 17/16 Q1004 R36/29//95
                        NOSIG=
201908040030 METAR LRCK 040030Z 32015KT 9999 BKN012 17/16 Q1004 R36/29//95
                        NOSIG=
201908040100 METAR LRCK 040100Z 31013KT 9999 SCT010 SCT020 17/16 Q1004
                        R36/29//95 NOSIG=
201908040130 METAR LRCK 040130Z 31014KT 9999 SCT010 SCT020 17/15 Q1005
                        R36/29//95 NOSIG=
201908040200 METAR LRCK 040200Z 31012KT 9999 BKN013 17/15 Q1005 R36/29//95
                        NOSIG=
201908040230 METAR LRCK 040230Z 30011KT 9999 BKN016 17/15 Q1005 R36/29//95
                        NOSIG=
201908040300 METAR LRCK 040300Z 31011KT 9999 BKN018 17/15 Q1005 R36/29//95
                        NOSIG=
201908040330 METAR LRCK 040330Z 32012KT 9999 FEW012 SCT018 16/15 Q1006
                        R36/29//95 NOSIG=
201908040400 METAR LRCK 040400Z 31011KT 9999 BKN012 17/15 Q1006 R36/29//95
                        NOSIG=
201908040430 METAR LRCK 040430Z 32013KT 9999 BKN015 17/15 Q1006 R36/CLRD//
                        NOSIG=
201908040500 METAR LRCK 040500Z 31014KT 9999 BKN016 17/15 Q1007 NOSIG=
201908040530 METAR LRCK 040530Z 31014KT 9999 BKN017 18/15 Q1007 NOSIG=
201908040600 METAR LRCK 040600Z 31014KT 9999 BKN019 18/15 Q1008 NOSIG=
201908040630 METAR LRCK 040630Z 32013KT 9999 BKN018 20/15 Q1008 NOSIG=
201908040700 METAR LRCK 040700Z 33013KT 9999 SCT022 20/15 Q1008 NOSIG=
201908040730 METAR LRCK 040730Z 32013KT 9999 SCT022 21/15 Q1008 NOSIG=
201908040800 METAR LRCK 040800Z 31014KT 9999 FEW024 22/15 Q1008 NOSIG=
201908040830 METAR LRCK 040830Z 32017KT 9999 FEW029 22/13 Q1008 NOSIG=
201908040900 METAR LRCK 040900Z 33016KT 9999 FEW034 24/14 Q1008 NOSIG=
201908040930 METAR LRCK 040930Z 32015KT 9999 SCT035 23/13 Q1009 NOSIG=
201908041000 METAR LRCK 041000Z 32014KT 9999 SCT042 23/13 Q1009 NOSIG=
201908041030 METAR LRCK 041030Z 32014KT 9999 SCT047 25/12 Q1009 NOSIG=
201908041100 METAR LRCK 041100Z 31018KT 9999 SCT049 25/12 Q1009 NOSIG=
201908041130 METAR LRCK 041130Z 31013KT 290V350 CAVOK 25/12 Q1009 NOSIG=
201908041200 METAR LRCK 041200Z 32015KT CAVOK 25/11 Q1009 NOSIG=
201908041230 METAR LRCK 041230Z 31015KT CAVOK 26/11 Q1009 NOSIG=
201908041300 METAR LRCK 041300Z 32016KT CAVOK 25/10 Q1009 NOSIG=
201908041330 METAR LRCK 041330Z 32016KT CAVOK 26/09 Q1009 NOSIG=
201908041400 METAR LRCK 041400Z 33012KT CAVOK 26/10 Q1010 NOSIG=
201908041430 METAR LRCK 041430Z 32012KT 290V350 CAVOK 25/09 Q1010 NOSIG=
201908041500 METAR LRCK 041500Z 32011KT CAVOK 24/10 Q1010 NOSIG=
201908041530 METAR LRCK 041530Z 31010KT CAVOK 24/09 Q1010 NOSIG=
201908041600 METAR LRCK 041600Z 31008KT CAVOK 23/10 Q1010 NOSIG=
201908041630 METAR LRCK 041630Z 30007KT CAVOK 23/11 Q1010 NOSIG=
201908041700 METAR LRCK 041700Z 29007KT CAVOK 22/11 Q1011 NOSIG=
201908041730 METAR LRCK 041730Z 27007KT CAVOK 19/12 Q1011 NOSIG=
201908041800 METAR LRCK 041800Z 28007KT CAVOK 19/12 Q1011 NOSIG=
201908041830 METAR LRCK 041830Z 28006KT CAVOK 18/13 Q1012 NOSIG=
201908041900 METAR LRCK 041900Z 28006KT CAVOK 17/14 Q1012 NOSIG=
201908041930 METAR LRCK 041930Z 28006KT CAVOK 16/13 Q1012 NOSIG=
201908042000 METAR LRCK 042000Z 29007KT CAVOK 17/13 Q1013 NOSIG=
201908042030 METAR LRCK 042030Z 30007KT CAVOK 17/14 Q1013 NOSIG=
201908042100 METAR LRCK 042100Z 29006KT CAVOK 17/14 Q1013 NOSIG=
201908042130 METAR LRCK 042130Z 29007KT CAVOK 17/14 Q1013 NOSIG=
201908042200 METAR COR LRCK 042200Z 29006KT CAVOK 17/13 Q1013 NOSIG=
201908042230 METAR LRCK 042230Z 29006KT CAVOK 16/13 Q1013 NOSIG=
201908042300 METAR LRCK 042300Z 29007KT CAVOK 16/13 Q1013 NOSIG=
201908042330 METAR LRCK 042330Z AUTO 29006KT 9999 NCD 16/13 Q1013 NOSIG=
201908050000 METAR LRCK 050000Z 28007KT CAVOK 15/13 Q1013 NOSIG=
201908050030 METAR LRCK 050030Z 29008KT CAVOK 16/13 Q1013 NOSIG=
201908050100 METAR LRCK 050100Z 29007KT CAVOK 15/13 Q1013 NOSIG=
201908050130 METAR LRCK 050130Z 29006KT CAVOK 15/13 Q1013 NOSIG=
201908050200 METAR LRCK 050200Z 29007KT CAVOK 15/13 Q1013 NOSIG=
201908050230 METAR COR LRCK 050230Z 28007KT 6000 NSC 14/13 Q1014 NOSIG=
201908050300 METAR LRCK 050300Z 28007KT 5000 BR NSC 14/13 Q1014 TEMPO
                        3000 BR=
201908050330 METAR LRCK 050330Z 28007KT 6000 NSC 14/13 Q1014 NOSIG=
201908050400 METAR LRCK 050400Z 28008KT CAVOK 15/14 Q1014 NOSIG=
201908050430 METAR LRCK 050430Z 29008KT CAVOK 16/15 Q1014 NOSIG=
201908050500 METAR LRCK 050500Z 28008KT CAVOK 17/14 Q1014 NOSIG=
201908050530 METAR LRCK 050530Z 29008KT CAVOK 19/15 Q1014 NOSIG=
201908050600 METAR LRCK 050600Z 29007KT CAVOK 20/14 Q1014 NOSIG=
201908050630 METAR LRCK 050630Z 29006KT 250V320 CAVOK 22/15 Q1015 NOSIG=
201908050700 METAR LRCK 050700Z 30005KT 260V350 CAVOK 22/14 Q1015 NOSIG=
201908050730 METAR LRCK 050730Z 34005KT 280V020 CAVOK 24/12 Q1015 NOSIG=
201908050800 METAR LRCK 050800Z 32006KT 280V030 9999 FEW043 24/12 Q1015
                        NOSIG=
201908050830 METAR LRCK 050830Z 32005KT 280V010 9999 FEW043 25/12 Q1015
                        NOSIG=
201908050900 METAR LRCK 050900Z 34005KT 290V020 9999 FEW047 25/12 Q1015
                        NOSIG=
201908050930 METAR LRCK 050930Z 33006KT 290V020 9999 SCT048 26/11 Q1015
                        NOSIG=
201908051000 METAR LRCK 051000Z 31009KT 9999 SCT048 26/11 Q1014 NOSIG=
201908051030 METAR LRCK 051030Z 32005KT 280V070 9999 FEW048 26/11 Q1014
                        NOSIG=
201908051100 METAR LRCK 051100Z 27006KT 200V320 9999 FEW048 26/11 Q1014
                        NOSIG=
201908051130 METAR LRCK 051130Z 25008KT 9999 FEW048 27/10 Q1014 NOSIG=
201908051200 METAR LRCK 051200Z 28007KT 230V320 9999 FEW048 27/10 Q1014
                        NOSIG=
201908051230 METAR LRCK 051230Z 29008KT 260V320 9999 FEW048 27/10 Q1013
                        NOSIG=
201908051300 METAR LRCK 051300Z 32008KT 290V360 9999 FEW048 27/11 Q1013
                        NOSIG=
201908051330 METAR LRCK 051330Z 30009KT 260V330 9999 FEW048 28/10 Q1013
                        NOSIG=
201908051400 METAR LRCK 051400Z 28008KT 250V320 9999 FEW048 27/10 Q1013
                        NOSIG=
201908051430 METAR LRCK 051430Z 31008KT 280V340 CAVOK 27/10 Q1013 NOSIG=
201908051500 METAR LRCK 051500Z 29006KT 240V340 CAVOK 27/10 Q1013 NOSIG=
201908051530 METAR LRCK 051530Z 29007KT 240V320 CAVOK 27/10 Q1013 NOSIG=
201908051600 METAR LRCK 051600Z 30007KT 270V330 CAVOK 27/10 Q1013 NOSIG=
201908051630 METAR LRCK 051630Z 30006KT CAVOK 26/10 Q1013 NOSIG=
201908051700 METAR LRCK 051700Z 29005KT CAVOK 25/11 Q1014 NOSIG=
201908051730 METAR LRCK 051730Z 26004KT 140V290 CAVOK 22/13 Q1014 NOSIG=
201908051800 METAR LRCK 051800Z 17008KT CAVOK 21/13 Q1014 NOSIG=
201908051830 METAR LRCK 051830Z 18008KT CAVOK 20/13 Q1014 NOSIG=
201908051900 METAR LRCK 051900Z 19007KT CAVOK 20/13 Q1015 NOSIG=
201908051930 METAR LRCK 051930Z 24006KT 210V270 CAVOK 20/13 Q1015 NOSIG=
201908052000 METAR LRCK 052000Z 26007KT CAVOK 20/13 Q1015 NOSIG=
201908052030 METAR LRCK 052030Z 27007KT CAVOK 20/12 Q1015 NOSIG=
201908052100 METAR LRCK 052100Z 30005KT CAVOK 19/13 Q1015 NOSIG=
201908052130 METAR LRCK 052130Z 29006KT CAVOK 19/13 Q1015 NOSIG=
201908052200 METAR LRCK 052200Z VRB03KT CAVOK 18/13 Q1015 NOSIG=
201908052230 METAR LRCK 052230Z 04004KT CAVOK 16/13 Q1015 NOSIG=
201908052300 METAR LRCK 052300Z 00000KT CAVOK 16/13 Q1015 NOSIG=
201908052330 METAR LRCK 052330Z 23006KT CAVOK 16/13 Q1015 NOSIG=
201908060000 METAR LRCK 060000Z 26005KT CAVOK 16/13 Q1015 NOSIG=
201908060030 METAR LRCK 060030Z 30006KT CAVOK 16/13 Q1015 NOSIG=
201908060100 METAR LRCK 060100Z 29005KT CAVOK 16/13 Q1015 NOSIG=
201908060130 METAR LRCK 060130Z 29006KT 8000 MIFG NSC 16/13 Q1015 NOSIG=
201908060200 METAR LRCK 060200Z 31004KT CAVOK 16/13 Q1015 NOSIG=
201908060230 METAR LRCK 060230Z 31006KT CAVOK 16/13 Q1015 NOSIG=
201908060300 METAR LRCK 060300Z 31007KT CAVOK 17/13 Q1015 NOSIG=
201908060330 METAR LRCK 060330Z 33003KT CAVOK 17/12 Q1015 NOSIG=
201908060400 METAR LRCK 060400Z 33003KT CAVOK 18/13 Q1015 NOSIG=
201908060430 METAR LRCK 060430Z 34003KT CAVOK 20/14 Q1016 NOSIG=
201908060500 METAR LRCK 060500Z 04004KT CAVOK 21/14 Q1016 NOSIG=
201908060530 METAR LRCK 060530Z 02004KT CAVOK 23/14 Q1016 NOSIG=
201908060600 METAR LRCK 060600Z 05003KT 010V090 CAVOK 24/13 Q1016 NOSIG=
201908060630 METAR LRCK 060630Z VRB02KT CAVOK 25/12 Q1016 NOSIG=
201908060700 METAR LRCK 060700Z 09003KT 040V160 CAVOK 26/12 Q1016 NOSIG=
201908060730 METAR LRCK 060730Z VRB02KT CAVOK 26/13 Q1016 NOSIG=
201908060800 METAR LRCK 060800Z 10003KT 360V170 CAVOK 26/13 Q1016 NOSIG=
201908060830 METAR LRCK 060830Z 10007KT 080V150 CAVOK 27/14 Q1017 NOSIG=
201908060900 METAR LRCK 060900Z 11005KT 050V190 CAVOK 27/14 Q1017 NOSIG=
201908060930 METAR LRCK 060930Z VRB05KT CAVOK 28/16 Q1016 NOSIG=
201908061000 METAR LRCK 061000Z 11008KT 080V150 9999 FEW048 28/15 Q1016
                        NOSIG=
201908061030 METAR LRCK 061030Z 12006KT 080V170 9999 FEW048 27/16 Q1016
                        NOSIG=
201908061100 METAR LRCK 061100Z 15007KT 130V190 9999 FEW048 27/15 Q1016
                        NOSIG=
201908061130 METAR LRCK 061130Z VRB06KT 9999 FEW049 28/16 Q1016 NOSIG=
201908061200 METAR LRCK 061200Z 15010KT 120V190 CAVOK 28/15 Q1016 NOSIG=
201908061230 METAR LRCK 061230Z 14009KT CAVOK 28/16 Q1016 NOSIG=
201908061300 METAR LRCK 061300Z 12010KT CAVOK 26/16 Q1016 NOSIG=
201908061330 METAR LRCK 061330Z 13011KT CAVOK 26/15 Q1016 NOSIG=
201908061400 METAR LRCK 061400Z 14011KT CAVOK 27/16 Q1016 NOSIG=
201908061430 METAR LRCK 061430Z 13011KT CAVOK 28/16 Q1015 NOSIG=
201908061500 METAR LRCK 061500Z 16010KT CAVOK 28/16 Q1015 NOSIG=
201908061530 METAR LRCK 061530Z 16010KT CAVOK 27/16 Q1015 NOSIG=
201908061600 METAR LRCK 061600Z 16010KT CAVOK 26/15 Q1015 NOSIG=
201908061630 METAR LRCK 061630Z 17010KT CAVOK 26/15 Q1015 NOSIG=
201908061700 METAR LRCK 061700Z 15008KT CAVOK 25/16 Q1015 NOSIG=
201908061730 METAR LRCK 061730Z 15007KT CAVOK 23/14 Q1015 NOSIG=
201908061800 METAR LRCK 061800Z 16008KT CAVOK 22/15 Q1016 NOSIG=
201908061830 METAR LRCK 061830Z 15007KT CAVOK 21/15 Q1016 NOSIG=
201908061900 METAR LRCK 061900Z 16006KT CAVOK 21/15 Q1016 NOSIG=
201908061930 METAR LRCK 061930Z 19006KT CAVOK 21/14 Q1016 NOSIG=
201908062000 METAR LRCK 062000Z 19007KT CAVOK 20/14 Q1016 NOSIG=
201908062030 METAR LRCK 062030Z 21006KT CAVOK 20/14 Q1016 NOSIG=
201908062100 METAR COR LRCK 062100Z 21006KT CAVOK 19/15 Q1016 NOSIG=
201908062130 METAR LRCK 062130Z 21005KT CAVOK 19/15 Q1016 NOSIG=
201908062200 METAR LRCK 062200Z 23006KT CAVOK 18/15 Q1016 NOSIG=
201908062230 METAR LRCK 062230Z 23006KT CAVOK 18/15 Q1016 NOSIG=
201908062300 METAR LRCK 062300Z 22006KT CAVOK 18/15 Q1016 NOSIG=
201908062330 METAR LRCK 062330Z 25006KT CAVOK 18/15 Q1016 NOSIG=
201908070000 METAR LRCK 070000Z 25006KT CAVOK 17/15 Q1016 NOSIG=
201908070030 METAR LRCK 070030Z 25007KT CAVOK 18/15 Q1016 NOSIG=
201908070100 METAR LRCK 070100Z 24006KT CAVOK 17/15 Q1016 NOSIG=
201908070130 METAR LRCK 070130Z 25006KT CAVOK 17/14 Q1016 NOSIG=
201908070200 METAR LRCK 070200Z 25007KT CAVOK 17/14 Q1016 NOSIG=
201908070230 METAR LRCK 070230Z 23006KT CAVOK 18/13 Q1016 NOSIG=
201908070300 METAR LRCK 070300Z 25006KT CAVOK 18/13 Q1016 NOSIG=
201908070330 METAR LRCK 070330Z 25006KT CAVOK 18/13 Q1016 NOSIG=
201908070400 METAR LRCK 070400Z 24006KT CAVOK 19/13 Q1016 NOSIG=
201908070430 METAR LRCK 070430Z 25006KT CAVOK 21/13 Q1016 NOSIG=
201908070500 METAR LRCK 070500Z 24006KT CAVOK 23/12 Q1016 NOSIG=
201908070530 METAR LRCK 070530Z 24007KT CAVOK 24/12 Q1016 NOSIG=
201908070600 METAR LRCK 070600Z 24009KT CAVOK 26/12 Q1017 NOSIG=
201908070630 METAR LRCK 070630Z 24008KT CAVOK 27/12 Q1017 NOSIG=
201908070700 METAR LRCK 070700Z 22009KT CAVOK 29/11 Q1017 NOSIG=
201908070730 METAR LRCK 070730Z 23010KT CAVOK 29/11 Q1017 NOSIG=
201908070800 METAR LRCK 070800Z 20009KT 170V250 CAVOK 30/12 Q1017 NOSIG=
201908070830 METAR LRCK 070830Z 18009KT 160V220 CAVOK 30/11 Q1017 NOSIG=
201908070900 METAR LRCK 070900Z 21008KT CAVOK 31/11 Q1017 NOSIG=
201908070930 METAR LRCK 070930Z 19010KT CAVOK 31/12 Q1016 NOSIG=
201908071000 METAR LRCK 071000Z 17011KT CAVOK 31/11 Q1016 NOSIG=
201908071030 METAR LRCK 071030Z 15015KT CAVOK 30/16 Q1016 NOSIG=
201908071100 METAR LRCK 071100Z 14016KT CAVOK 30/16 Q1016 NOSIG=
201908071130 METAR LRCK 071130Z 13017KT CAVOK 30/16 Q1016 NOSIG=
201908071200 METAR LRCK 071200Z 14017KT CAVOK 30/13 Q1016 NOSIG=
201908071230 METAR LRCK 071230Z 15017KT CAVOK 30/13 Q1015 NOSIG=
201908071300 METAR LRCK 071300Z 14017KT CAVOK 30/11 Q1015 NOSIG=
201908071330 METAR LRCK 071330Z 14019KT CAVOK 30/14 Q1015 NOSIG=
201908071400 METAR LRCK 071400Z 15016KT 110V170 CAVOK 30/11 Q1015 NOSIG=
201908071430 METAR LRCK 071430Z 15018KT CAVOK 29/12 Q1015 NOSIG=
201908071500 METAR LRCK 071500Z 15019KT CAVOK 29/11 Q1015 NOSIG=
201908071530 METAR LRCK 071530Z 16017KT CAVOK 28/13 Q1015 NOSIG=
201908071600 METAR LRCK 071600Z 15017KT CAVOK 27/14 Q1015 NOSIG=
201908071630 METAR LRCK 071630Z 16015KT CAVOK 26/13 Q1015 BECMG 18005KT=
201908071700 METAR LRCK 071700Z 17014KT CAVOK 25/15 Q1015 BECMG 18005KT=
201908071730 METAR LRCK 071730Z 17014KT CAVOK 24/16 Q1015 NOSIG=
201908071800 METAR LRCK 071800Z 17013KT CAVOK 23/16 Q1015 NOSIG=
201908071830 METAR LRCK 071830Z 18013KT CAVOK 23/17 Q1015 NOSIG=
201908071900 METAR LRCK 071900Z 18013KT CAVOK 22/17 Q1016 NOSIG=
201908071930 METAR LRCK 071930Z 18012KT CAVOK 22/17 Q1016 NOSIG=
201908072000 METAR LRCK 072000Z 18011KT CAVOK 22/17 Q1016 NOSIG=
201908072030 METAR LRCK 072030Z 18010KT CAVOK 21/18 Q1016 NOSIG=
201908072100 METAR COR LRCK 072100Z 19008KT CAVOK 20/17 Q1016 NOSIG=
201908072130 METAR LRCK 072130Z 19006KT CAVOK 20/17 Q1016 NOSIG=
201908072200 METAR LRCK 072200Z 18007KT CAVOK 20/17 Q1016 NOSIG=
201908072230 METAR LRCK 072230Z 18007KT CAVOK 20/17 Q1016 NOSIG=
201908072300 METAR LRCK 072300Z 19007KT CAVOK 20/18 Q1015 NOSIG=
201908072330 METAR LRCK 072330Z 19007KT CAVOK 19/18 Q1015 NOSIG=
201908080000 METAR LRCK 080000Z 20007KT CAVOK 20/17 Q1015 NOSIG=
201908080030 METAR LRCK 080030Z 19008KT CAVOK 19/17 Q1015 NOSIG=
201908080100 METAR LRCK 080100Z 20007KT CAVOK 19/17 Q1015 NOSIG=
201908080130 METAR LRCK 080130Z 18008KT CAVOK 18/17 Q1015 NOSIG=
201908080200 METAR LRCK 080200Z 19008KT CAVOK 18/17 Q1015 NOSIG=
201908080230 METAR LRCK 080230Z 18008KT CAVOK 19/17 Q1014 NOSIG=
201908080300 METAR LRCK 080300Z 19007KT CAVOK 18/17 Q1014 NOSIG=
201908080330 METAR LRCK 080330Z 18007KT CAVOK 19/18 Q1015 NOSIG=
201908080400 METAR LRCK 080400Z 20007KT CAVOK 20/18 Q1015 NOSIG=
201908080430 METAR LRCK 080430Z 22005KT CAVOK 21/19 Q1015 NOSIG=
201908080500 METAR LRCK 080500Z 18007KT CAVOK 22/19 Q1015 NOSIG=
201908080530 METAR LRCK 080530Z 19010KT CAVOK 24/19 Q1015 NOSIG=
201908080600 METAR LRCK 080600Z 18010KT CAVOK 25/18 Q1015 NOSIG=
201908080630 METAR LRCK 080630Z 17012KT CAVOK 26/16 Q1015 NOSIG=
201908080700 METAR LRCK 080700Z 18012KT CAVOK 27/16 Q1015 NOSIG=
201908080730 METAR LRCK 080730Z 17010KT CAVOK 28/17 Q1015 NOSIG=
201908080800 METAR LRCK 080800Z 17010KT CAVOK 29/17 Q1015 NOSIG=
201908080830 METAR LRCK 080830Z 16010KT CAVOK 29/16 Q1015 NOSIG=
201908080900 METAR LRCK 080900Z 14013KT CAVOK 30/17 Q1014 NOSIG=
201908080930 METAR LRCK 080930Z 14013KT CAVOK 29/18 Q1014 NOSIG=
201908081000 METAR LRCK 081000Z 13014KT CAVOK 29/18 Q1014 NOSIG=
201908081030 METAR LRCK 081030Z 13014KT CAVOK 29/18 Q1014 NOSIG=
201908081100 METAR LRCK 081100Z 14014KT CAVOK 29/19 Q1014 NOSIG=
201908081130 METAR LRCK 081130Z 13016KT CAVOK 29/19 Q1014 NOSIG=
201908081200 METAR LRCK 081200Z 13015KT CAVOK 29/19 Q1014 NOSIG=
201908081230 METAR LRCK 081230Z 13016KT CAVOK 28/19 Q1014 NOSIG=
201908081300 METAR LRCK 081300Z 14015KT CAVOK 28/18 Q1013 NOSIG=
201908081330 METAR LRCK 081330Z 14016KT CAVOK 29/18 Q1013 NOSIG=
201908081400 METAR COR LRCK 081400Z 14015KT CAVOK 28/17 Q1013 NOSIG=
201908081430 METAR LRCK 081430Z 14016KT CAVOK 28/17 Q1013 NOSIG=
201908081500 METAR LRCK 081500Z 15015KT CAVOK 27/17 Q1013 NOSIG=
201908081530 METAR LRCK 081530Z 15014KT CAVOK 27/16 Q1013 NOSIG=
201908081600 METAR LRCK 081600Z 15014KT CAVOK 26/17 Q1013 NOSIG=
201908081630 METAR LRCK 081630Z 16014KT CAVOK 25/18 Q1013 NOSIG=
201908081700 METAR LRCK 081700Z 16013KT CAVOK 24/18 Q1013 NOSIG=
201908081730 METAR LRCK 081730Z 16011KT CAVOK 23/18 Q1013 NOSIG=
201908081800 METAR LRCK 081800Z 16009KT CAVOK 22/18 Q1013 NOSIG=
201908081830 METAR LRCK 081830Z 17008KT CAVOK 22/19 Q1013 NOSIG=
201908081900 METAR LRCK 081900Z 18008KT CAVOK 22/19 Q1014 NOSIG=
201908081930 METAR LRCK 081930Z 18009KT CAVOK 21/19 Q1013 NOSIG=
201908082000 METAR LRCK 082000Z 19008KT CAVOK 21/19 Q1013 NOSIG=
201908082030 METAR LRCK 082030Z 19007KT CAVOK 21/19 Q1013 NOSIG=
201908082100 METAR LRCK 082100Z 17004KT CAVOK 20/18 Q1014 NOSIG=
201908082130 METAR COR LRCK 082130Z 18005KT CAVOK 20/18 Q1014 NOSIG=
201908082200 METAR LRCK 082200Z 18004KT CAVOK 19/17 Q1013 NOSIG=
201908082230 METAR LRCK 082230Z 18006KT CAVOK 19/18 Q1013 NOSIG=
201908082300 METAR LRCK 082300Z 19006KT CAVOK 19/17 Q1013 NOSIG=
201908082330 METAR LRCK 082330Z 20006KT CAVOK 19/17 Q1013 NOSIG=
201908090000 METAR LRCK 090000Z 19005KT CAVOK 19/17 Q1013 NOSIG=
201908090030 METAR LRCK 090030Z 20005KT CAVOK 18/17 Q1013 NOSIG=
201908090100 METAR LRCK 090100Z 20006KT CAVOK 18/17 Q1013 NOSIG=
201908090130 METAR COR LRCK 090130Z 20005KT CAVOK 18/17 Q1013 NOSIG=
201908090200 METAR LRCK 090200Z 20005KT CAVOK 18/17 Q1013 NOSIG=
201908090230 METAR LRCK 090230Z 20005KT CAVOK 17/17 Q1013 NOSIG=
201908090300 METAR COR LRCK 090300Z 20007KT CAVOK 18/17 Q1013 NOSIG=
201908090330 METAR LRCK 090330Z 21007KT CAVOK 18/18 Q1013 NOSIG=
201908090400 METAR LRCK 090400Z 21006KT CAVOK 20/19 Q1013 NOSIG=
201908090430 METAR LRCK 090430Z 21005KT CAVOK 21/20 Q1013 NOSIG=
201908090500 METAR LRCK 090500Z 22005KT CAVOK 23/20 Q1013 NOSIG=
201908090530 METAR LRCK 090530Z 21006KT CAVOK 24/20 Q1013 NOSIG=
201908090600 METAR LRCK 090600Z 19008KT CAVOK 25/20 Q1013 NOSIG=
201908090630 METAR LRCK 090630Z 18008KT CAVOK 26/18 Q1013 NOSIG=
201908090700 METAR LRCK 090700Z 17007KT CAVOK 28/17 Q1013 NOSIG=
201908090730 METAR LRCK 090730Z 15006KT CAVOK 29/14 Q1013 NOSIG=
201908090800 METAR LRCK 090800Z 16006KT 140V200 CAVOK 30/16 Q1013 NOSIG=
201908090830 METAR LRCK 090830Z 13005KT 070V170 CAVOK 30/19 Q1013 NOSIG=
201908090900 METAR LRCK 090900Z 13006KT 070V160 CAVOK 30/20 Q1013 NOSIG=
201908090930 METAR LRCK 090930Z 12008KT CAVOK 29/21 Q1013 NOSIG=
201908091000 METAR LRCK 091000Z 11008KT CAVOK 29/20 Q1013 NOSIG=
201908091030 METAR LRCK 091030Z 13011KT CAVOK 28/20 Q1013 NOSIG=
201908091100 METAR LRCK 091100Z 13011KT CAVOK 29/20 Q1013 NOSIG=
201908091130 METAR LRCK 091130Z 13011KT 9999 FEW040 29/18 Q1013 NOSIG=
201908091200 METAR LRCK 091200Z 12010KT 9999 FEW040 28/17 Q1013 NOSIG=
201908091230 METAR LRCK 091230Z 12011KT 9999 FEW040 29/16 Q1013 NOSIG=
201908091300 METAR LRCK 091300Z 13013KT 9999 FEW045 29/15 Q1012 NOSIG=
201908091330 METAR LRCK 091330Z 13011KT CAVOK 29/18 Q1012 NOSIG=
201908091400 METAR LRCK 091400Z 13009KT CAVOK 29/18 Q1013 NOSIG=
201908091430 METAR LRCK 091430Z 11010KT CAVOK 28/18 Q1012 NOSIG=
201908091500 METAR LRCK 091500Z 12010KT CAVOK 28/18 Q1012 NOSIG=
201908091530 METAR LRCK 091530Z 11009KT CAVOK 27/19 Q1012 NOSIG=
201908091600 METAR LRCK 091600Z 12009KT CAVOK 26/19 Q1012 NOSIG=
201908091630 METAR LRCK 091630Z 12008KT CAVOK 25/19 Q1012 NOSIG=
201908091700 METAR LRCK 091700Z 13006KT CAVOK 25/18 Q1012 NOSIG=
201908091730 METAR LRCK 091730Z 14006KT CAVOK 24/18 Q1012 NOSIG=
201908091800 METAR LRCK 091800Z 15007KT CAVOK 23/18 Q1013 NOSIG=
201908091830 METAR LRCK 091830Z 16005KT CAVOK 23/18 Q1013 NOSIG=
201908091900 METAR LRCK 091900Z 16005KT CAVOK 22/18 Q1013 NOSIG=
201908091930 METAR LRCK 091930Z 15005KT CAVOK 21/18 Q1013 NOSIG=
201908092000 METAR LRCK 092000Z 18006KT CAVOK 21/18 Q1013 NOSIG=
201908092030 METAR LRCK 092030Z 19005KT CAVOK 21/18 Q1013 NOSIG=
201908092100 METAR LRCK 092100Z 18006KT CAVOK 20/18 Q1013 NOSIG=
201908092130 METAR LRCK 092130Z 17002KT CAVOK 20/18 Q1013 NOSIG=
201908092200 METAR LRCK 092200Z 18004KT CAVOK 19/18 Q1013 NOSIG=
201908092230 METAR LRCK 092230Z 19006KT CAVOK 19/17 Q1013 NOSIG=
201908092300 METAR LRCK 092300Z 20004KT CAVOK 20/18 Q1013 NOSIG=
201908092330 METAR LRCK 092330Z 21003KT CAVOK 19/18 Q1013 NOSIG=
201908100000 METAR LRCK 100000Z 23004KT CAVOK 19/18 Q1013 NOSIG=
201908100030 METAR LRCK 100030Z 24004KT CAVOK 18/17 Q1013 NOSIG=
201908100100 METAR LRCK 100100Z 27006KT CAVOK 19/18 Q1013 NOSIG=
201908100130 METAR LRCK 100130Z 36010KT CAVOK 19/18 Q1014 NOSIG=
201908100200 METAR LRCK 100200Z 34002KT CAVOK 19/18 Q1013 NOSIG=
201908100230 METAR LRCK 100230Z 34007KT CAVOK 19/17 Q1014 NOSIG=
201908100300 METAR LRCK 100300Z 34006KT CAVOK 19/17 Q1014 NOSIG=
201908100330 METAR LRCK 100330Z 34009KT CAVOK 19/17 Q1014 NOSIG=
201908100400 METAR LRCK 100400Z 36009KT CAVOK 20/18 Q1014 NOSIG=
201908100430 METAR LRCK 100430Z 01009KT CAVOK 22/19 Q1015 NOSIG=
201908100500 METAR LRCK 100500Z 03011KT CAVOK 24/19 Q1015 NOSIG=
201908100530 METAR LRCK 100530Z 03011KT CAVOK 25/20 Q1015 NOSIG=
201908100600 METAR LRCK 100600Z 03012KT CAVOK 25/19 Q1015 NOSIG=
201908100630 METAR LRCK 100630Z 04014KT CAVOK 26/18 Q1016 NOSIG=
201908100700 METAR LRCK 100700Z 04013KT CAVOK 27/19 Q1016 NOSIG=
201908100730 METAR LRCK 100730Z 04012KT CAVOK 27/18 Q1016 NOSIG=
201908100800 METAR LRCK 100800Z 04011KT 010V070 CAVOK 28/18 Q1016 NOSIG=
201908100830 METAR LRCK 100830Z 06009KT CAVOK 29/17 Q1016 NOSIG=
201908100900 METAR LRCK 100900Z 04010KT CAVOK 29/15 Q1016 NOSIG=
201908100930 METAR LRCK 100930Z 05011KT CAVOK 29/16 Q1016 NOSIG=
201908101000 METAR LRCK 101000Z 07011KT 030V100 9999 FEW049 30/17 Q1016
                        NOSIG=
201908101030 METAR LRCK 101030Z 08010KT 050V110 9999 FEW049 30/18 Q1016
                        NOSIG=
201908101100 METAR LRCK 101100Z 09010KT 050V120 9999 FEW049 30/17 Q1016
                        NOSIG=
201908101130 METAR LRCK 101130Z 10009KT 060V120 9999 FEW049 30/18 Q1016
                        NOSIG=
201908101200 METAR LRCK 101200Z 10011KT CAVOK 29/18 Q1016 NOSIG=
201908101230 METAR LRCK 101230Z 10011KT CAVOK 29/17 Q1016 NOSIG=
201908101300 METAR LRCK 101300Z 11010KT CAVOK 29/17 Q1016 NOSIG=
201908101330 METAR LRCK 101330Z 12010KT CAVOK 29/17 Q1016 NOSIG=
201908101400 METAR LRCK 101400Z 11009KT 080V140 CAVOK 28/18 Q1016 NOSIG=
201908101430 METAR LRCK 101430Z 12009KT CAVOK 28/17 Q1016 NOSIG=
201908101500 METAR LRCK 101500Z 13010KT CAVOK 27/18 Q1016 NOSIG=
201908101530 METAR LRCK 101530Z 13010KT CAVOK 27/18 Q1016 NOSIG=
201908101600 METAR LRCK 101600Z 12010KT CAVOK 26/15 Q1016 NOSIG=
201908101630 METAR LRCK 101630Z 12009KT CAVOK 26/15 Q1016 NOSIG=
201908101700 METAR LRCK 101700Z 14008KT CAVOK 25/13 Q1017 NOSIG=
201908101730 METAR LRCK 101730Z 14005KT CAVOK 24/14 Q1017 NOSIG=
201908101800 METAR LRCK 101800Z 13003KT CAVOK 22/14 Q1017 NOSIG=
201908101830 METAR LRCK 101830Z 17004KT CAVOK 22/14 Q1017 NOSIG=
201908101900 METAR LRCK 101900Z 18005KT CAVOK 22/16 Q1017 NOSIG=
201908101930 METAR LRCK 101930Z 19004KT CAVOK 21/17 Q1017 NOSIG=
201908102000 METAR LRCK 102000Z 21004KT CAVOK 21/18 Q1018 NOSIG=
201908102030 METAR LRCK 102030Z 20005KT CAVOK 21/18 Q1017 NOSIG=
201908102100 METAR LRCK 102100Z 22006KT CAVOK 21/19 Q1017 NOSIG=
201908102130 METAR LRCK 102130Z 23005KT CAVOK 20/18 Q1017 NOSIG=
201908102200 METAR LRCK 102200Z 23005KT CAVOK 19/17 Q1017 NOSIG=
201908102230 METAR LRCK 102230Z 21004KT CAVOK 19/18 Q1017 NOSIG=
201908102300 METAR LRCK 102300Z 21005KT CAVOK 18/17 Q1017 NOSIG=
201908102330 METAR LRCK 102330Z 23004KT CAVOK 18/18 Q1017 NOSIG=
201908110000 METAR LRCK 110000Z 25005KT CAVOK 20/19 Q1017 NOSIG=
201908110030 METAR LRCK 110030Z 25004KT CAVOK 20/19 Q1017 NOSIG=
201908110100 METAR LRCK 110100Z 25002KT CAVOK 19/18 Q1017 NOSIG=
201908110130 METAR COR LRCK 110130Z 26003KT CAVOK 18/18 Q1017 NOSIG=
201908110200 METAR LRCK 110200Z 27004KT CAVOK 18/18 Q1017 NOSIG=
201908110230 METAR LRCK 110230Z 27004KT CAVOK 17/17 Q1017 NOSIG=
201908110300 METAR LRCK 110300Z 28003KT CAVOK 18/18 Q1017 NOSIG=
201908110330 METAR LRCK 110330Z 29004KT CAVOK 19/17 Q1017 NOSIG=
201908110400 METAR LRCK 110400Z 30003KT CAVOK 20/18 Q1017 NOSIG=
201908110430 METAR LRCK 110430Z 31004KT CAVOK 21/19 Q1017 NOSIG=
201908110500 METAR LRCK 110500Z 32003KT CAVOK 23/18 Q1018 NOSIG=
201908110530 METAR LRCK 110530Z 00000KT CAVOK 25/14 Q1018 NOSIG=
201908110600 METAR LRCK 110600Z VRB01KT CAVOK 26/12 Q1018 NOSIG=
201908110630 METAR LRCK 110630Z VRB02KT CAVOK 28/13 Q1018 NOSIG=
201908110700 METAR LRCK 110700Z VRB02KT CAVOK 30/11 Q1018 NOSIG=
201908110730 METAR LRCK 110730Z 25003KT 180V320 CAVOK 31/13 Q1019 NOSIG=
201908110800 METAR LRCK 110800Z 15005KT 110V200 CAVOK 31/13 Q1019 NOSIG=
201908110830 METAR LRCK 110830Z 12007KT 080V170 CAVOK 31/13 Q1019 NOSIG=
201908110900 METAR LRCK 110900Z 10007KT 060V130 CAVOK 31/13 Q1018 NOSIG=
201908110930 METAR LRCK 110930Z 13008KT CAVOK 31/13 Q1018 NOSIG=
201908111000 METAR LRCK 111000Z 12009KT 100V160 CAVOK 32/13 Q1018 NOSIG=
201908111030 METAR LRCK 111030Z 12010KT CAVOK 31/13 Q1018 NOSIG=
201908111100 METAR LRCK 111100Z 14011KT CAVOK 31/13 Q1018 NOSIG=
201908111130 METAR LRCK 111130Z 13011KT CAVOK 31/14 Q1018 NOSIG=
201908111200 METAR LRCK 111200Z 14011KT CAVOK 31/14 Q1018 NOSIG=
201908111230 METAR LRCK 111230Z 14012KT CAVOK 30/15 Q1018 NOSIG=
201908111300 METAR LRCK 111300Z 14013KT CAVOK 30/15 Q1018 NOSIG=
201908111330 METAR COR LRCK 111330Z 14012KT CAVOK 30/16 Q1017 NOSIG=
201908111400 METAR LRCK 111400Z AUTO 14013KT 9999 NCD 30/16 Q1017 NOSIG=
201908111430 METAR LRCK 111430Z 15012KT CAVOK 30/15 Q1017 NOSIG=
201908111500 METAR LRCK 111500Z 14011KT CAVOK 30/14 Q1017 NOSIG=
201908111530 METAR LRCK 111530Z 14010KT CAVOK 30/13 Q1017 NOSIG=
201908111600 METAR LRCK 111600Z 14010KT CAVOK 29/13 Q1017 NOSIG=
201908111630 METAR LRCK 111630Z 15010KT CAVOK 28/12 Q1017 NOSIG=
201908111700 METAR LRCK 111700Z 15009KT CAVOK 26/13 Q1017 NOSIG=
201908111730 METAR LRCK 111730Z 15007KT CAVOK 25/14 Q1017 NOSIG=
201908111800 METAR LRCK 111800Z 14006KT CAVOK 24/14 Q1017 NOSIG=
201908111830 METAR LRCK 111830Z 15005KT CAVOK 22/14 Q1018 NOSIG=
201908111900 METAR LRCK 111900Z 16005KT CAVOK 22/15 Q1018 NOSIG=
201908111930 METAR LRCK 111930Z 17005KT CAVOK 21/15 Q1018 NOSIG=
201908112000 METAR LRCK 112000Z 18005KT CAVOK 20/16 Q1018 NOSIG=
201908112030 METAR LRCK 112030Z 17007KT CAVOK 21/16 Q1018 NOSIG=
201908112100 METAR LRCK 112100Z 19006KT CAVOK 21/17 Q1018 NOSIG=
201908112130 METAR LRCK 112130Z 21005KT CAVOK 21/17 Q1018 NOSIG=
201908112200 METAR LRCK 112200Z 21005KT CAVOK 20/17 Q1018 NOSIG=
201908112230 METAR LRCK 112230Z 23005KT CAVOK 20/17 Q1018 NOSIG=
201908112300 METAR LRCK 112300Z 23005KT CAVOK 20/17 Q1018 NOSIG=
201908112330 METAR LRCK 112330Z 25005KT CAVOK 20/17 Q1018 NOSIG=
201908120000 METAR LRCK 120000Z 25006KT CAVOK 20/17 Q1018 NOSIG=
201908120030 METAR LRCK 120030Z 26005KT CAVOK 20/17 Q1017 NOSIG=
201908120100 METAR LRCK 120100Z 27005KT CAVOK 19/17 Q1017 NOSIG=
201908120130 METAR LRCK 120130Z 27005KT CAVOK 19/16 Q1017 NOSIG=
201908120200 METAR LRCK 120200Z 27005KT CAVOK 19/16 Q1017 NOSIG=
201908120230 METAR LRCK 120230Z 29005KT CAVOK 18/16 Q1017 NOSIG=
201908120300 METAR LRCK 120300Z 30005KT CAVOK 19/15 Q1017 NOSIG=
201908120330 METAR LRCK 120330Z 30006KT CAVOK 19/15 Q1017 NOSIG=
201908120400 METAR LRCK 120400Z 32004KT CAVOK 20/16 Q1018 NOSIG=
201908120430 METAR LRCK 120430Z 34003KT CAVOK 21/16 Q1018 NOSIG=
201908120500 METAR LRCK 120500Z 35004KT 330V030 CAVOK 24/15 Q1018 NOSIG=
201908120530 METAR LRCK 120530Z VRB03KT CAVOK 26/14 Q1018 NOSIG=
201908120600 METAR LRCK 120600Z 32004KT 290V010 CAVOK 27/14 Q1018 NOSIG=
201908120630 METAR LRCK 120630Z VRB03KT CAVOK 28/14 Q1018 NOSIG=
201908120700 METAR LRCK 120700Z 00000KT CAVOK 29/14 Q1018 NOSIG=
201908120730 METAR LRCK 120730Z 04004KT 300V110 CAVOK 30/13 Q1018 NOSIG=
201908120800 METAR LRCK 120800Z VRB02KT CAVOK 31/12 Q1018 NOSIG=
201908120830 METAR LRCK 120830Z 09005KT 060V170 CAVOK 31/13 Q1018 NOSIG=
201908120900 METAR LRCK 120900Z 13007KT 080V160 CAVOK 31/15 Q1018 NOSIG=
201908120930 METAR LRCK 120930Z 08007KT 020V130 CAVOK 31/14 Q1018 NOSIG=
201908121000 METAR LRCK 121000Z 10007KT 070V140 CAVOK 31/13 Q1018 NOSIG=
201908121030 METAR LRCK 121030Z 11009KT CAVOK 32/14 Q1018 NOSIG=
201908121100 METAR LRCK 121100Z 10009KT 070V130 CAVOK 31/14 Q1018 NOSIG=
201908121130 METAR LRCK 121130Z 10010KT 060V130 CAVOK 31/14 Q1018 NOSIG=
201908121200 METAR LRCK 121200Z 11010KT CAVOK 31/14 Q1018 NOSIG=
201908121230 METAR LRCK 121230Z 11010KT CAVOK 31/14 Q1018 NOSIG=
201908121300 METAR LRCK 121300Z 10010KT CAVOK 30/14 Q1017 NOSIG=
201908121330 METAR LRCK 121330Z 10010KT CAVOK 30/15 Q1017 NOSIG=
201908121400 METAR LRCK 121400Z 11011KT CAVOK 30/16 Q1017 NOSIG=
201908121430 METAR LRCK 121430Z 12011KT CAVOK 29/14 Q1017 NOSIG=
201908121500 METAR LRCK 121500Z 11010KT CAVOK 29/14 Q1017 NOSIG=
201908121530 METAR LRCK 121530Z 12010KT CAVOK 28/15 Q1017 NOSIG=
201908121600 METAR LRCK 121600Z 11009KT CAVOK 27/15 Q1017 NOSIG=
201908121630 METAR LRCK 121630Z 11008KT CAVOK 27/17 Q1017 NOSIG=
201908121700 METAR LRCK 121700Z 12009KT CAVOK 25/18 Q1017 NOSIG=
201908121730 METAR LRCK 121730Z 12007KT CAVOK 24/19 Q1017 NOSIG=
201908121800 METAR LRCK 121800Z 12007KT CAVOK 23/19 Q1017 NOSIG=
201908121830 METAR LRCK 121830Z 13006KT CAVOK 22/19 Q1017 NOSIG=
201908121900 METAR LRCK 121900Z 14005KT CAVOK 22/19 Q1017 NOSIG=
201908121930 METAR LRCK 121930Z 13003KT CAVOK 21/19 Q1017 NOSIG=
201908122000 METAR COR LRCK 122000Z 13005KT CAVOK 21/20 Q1017 NOSIG=
201908122030 METAR LRCK 122030Z 14005KT CAVOK 21/20 Q1017 NOSIG=
201908122100 METAR COR LRCK 122100Z 15005KT CAVOK 21/19 Q1017 NOSIG=
201908122130 METAR LRCK 122130Z 16004KT CAVOK 20/19 Q1017 NOSIG=
201908122200 METAR LRCK 122200Z 17003KT CAVOK 21/20 Q1017 NOSIG=
201908122230 METAR LRCK 122230Z 00000KT CAVOK 20/20 Q1017 NOSIG=
201908122300 METAR LRCK 122300Z 00000KT CAVOK 21/20 Q1016 NOSIG=
201908122330 METAR LRCK 122330Z 00000KT CAVOK 20/18 Q1016 NOSIG=
201908130000 METAR LRCK 130000Z 00000KT CAVOK 21/20 Q1016 NOSIG=
201908130030 METAR LRCK 130030Z 00000KT CAVOK 21/21 Q1016 NOSIG=
201908130100 METAR LRCK 130100Z 02004KT 5000 MIFG BR NSC 20/20 Q1016 NOSIG=
201908130130 METAR LRCK 130130Z 02005KT 6000 NSC 20/20 Q1016 NOSIG=
201908130200 METAR LRCK 130200Z 03004KT 8000 NSC 20/20 Q1016 NOSIG=
201908130230 METAR LRCK 130230Z 03005KT 8000 NSC 20/19 Q1016 NOSIG=
201908130300 METAR LRCK 130300Z 02005KT 8000 NSC 19/19 Q1016 NOSIG=
201908130330 METAR LRCK 130330Z 02005KT CAVOK 20/19 Q1016 NOSIG=
201908130400 METAR LRCK 130400Z 03005KT CAVOK 21/20 Q1016 NOSIG=
201908130430 METAR LRCK 130430Z 04004KT CAVOK 23/20 Q1016 NOSIG=
201908130500 METAR LRCK 130500Z 05005KT CAVOK 25/21 Q1016 NOSIG=
201908130530 METAR LRCK 130530Z 06007KT CAVOK 26/21 Q1016 NOSIG=
201908130600 METAR LRCK 130600Z 07007KT 040V100 CAVOK 27/21 Q1016 NOSIG=
201908130630 METAR LRCK 130630Z 07007KT 030V100 CAVOK 28/20 Q1016 NOSIG=
201908130700 METAR LRCK 130700Z 08008KT CAVOK 29/19 Q1016 NOSIG=
201908130730 METAR LRCK 130730Z 10008KT CAVOK 29/18 Q1016 NOSIG=
201908130800 METAR LRCK 130800Z 11010KT CAVOK 29/19 Q1016 NOSIG=
201908130830 METAR LRCK 130830Z 11011KT 070V140 CAVOK 29/18 Q1016 NOSIG=
201908130900 METAR LRCK 130900Z 11013KT CAVOK 29/17 Q1016 NOSIG=
201908130930 METAR LRCK 130930Z 10012KT CAVOK 29/18 Q1016 NOSIG=
201908131000 METAR LRCK 131000Z 11012KT CAVOK 30/17 Q1016 NOSIG=
201908131030 METAR LRCK 131030Z 11012KT CAVOK 30/19 Q1015 NOSIG=
201908131100 METAR LRCK 131100Z 11013KT CAVOK 30/18 Q1015 NOSIG=
201908131130 METAR LRCK 131130Z 11013KT CAVOK 30/17 Q1015 NOSIG=
201908131200 METAR LRCK 131200Z 09013KT CAVOK 30/17 Q1015 NOSIG=
201908131230 METAR LRCK 131230Z 10012KT CAVOK 30/18 Q1015 NOSIG=
201908131300 METAR LRCK 131300Z 10012KT CAVOK 29/18 Q1015 NOSIG=
201908131330 METAR LRCK 131330Z 12013KT CAVOK 29/17 Q1015 NOSIG=
201908131400 METAR LRCK 131400Z 11012KT CAVOK 28/17 Q1014 NOSIG=
201908131430 METAR LRCK 131430Z 11012KT CAVOK 28/17 Q1015 NOSIG=
201908131500 METAR LRCK 131500Z 11012KT CAVOK 28/16 Q1014 NOSIG=
201908131530 METAR LRCK 131530Z 11011KT CAVOK 28/16 Q1014 NOSIG=
201908131600 METAR LRCK 131600Z 11009KT CAVOK 27/17 Q1014 NOSIG=
201908131630 METAR LRCK 131630Z 11009KT CAVOK 26/17 Q1014 NOSIG=
201908131700 METAR LRCK 131700Z 11007KT CAVOK 25/18 Q1014 NOSIG=
201908131730 METAR LRCK 131730Z 11004KT CAVOK 23/18 Q1014 NOSIG=
201908131800 METAR LRCK 131800Z 12003KT CAVOK 22/18 Q1014 NOSIG=
201908131830 METAR LRCK 131830Z 11003KT CAVOK 21/17 Q1014 NOSIG=
201908131900 METAR LRCK 131900Z 11003KT CAVOK 21/18 Q1014 NOSIG=
201908131930 METAR LRCK 131930Z 05003KT CAVOK 21/18 Q1014 NOSIG=
201908132000 METAR COR LRCK 132000Z 03003KT CAVOK 21/18 Q1014 NOSIG=
201908132030 METAR LRCK 132030Z 04004KT CAVOK 20/18 Q1014 NOSIG=
201908132100 METAR LRCK 132100Z 36004KT CAVOK 20/18 Q1014 NOSIG=
201908132130 METAR LRCK 132130Z 02005KT CAVOK 20/18 Q1014 NOSIG=
201908132200 METAR LRCK 132200Z 02005KT CAVOK 20/17 Q1013 NOSIG=
201908132230 METAR LRCK 132230Z 01006KT CAVOK 20/18 Q1013 NOSIG=
201908132300 METAR LRCK 132300Z 36007KT CAVOK 19/17 Q1013 NOSIG=
201908132330 METAR LRCK 132330Z 01006KT CAVOK 19/17 Q1013 NOSIG=
201908140000 METAR LRCK 140000Z 02005KT CAVOK 18/17 Q1013 NOSIG=
201908140030 METAR LRCK 140030Z 01005KT CAVOK 17/16 Q1012 NOSIG=
201908140100 METAR LRCK 140100Z 01006KT CAVOK 19/17 Q1012 NOSIG=
201908140130 METAR LRCK 140130Z 36007KT CAVOK 17/16 Q1012 NOSIG=
201908140200 METAR LRCK 140200Z 36007KT CAVOK 18/17 Q1012 NOSIG=
201908140230 METAR LRCK 140230Z 01007KT CAVOK 19/17 Q1012 NOSIG=
201908140300 METAR LRCK 140300Z 01006KT CAVOK 18/16 Q1011 NOSIG=
201908140330 METAR LRCK 140330Z 36007KT CAVOK 17/16 Q1011 NOSIG=
201908140400 METAR LRCK 140400Z 36007KT CAVOK 18/17 Q1012 NOSIG=
201908140430 METAR LRCK 140430Z 36007KT CAVOK 20/18 Q1011 NOSIG=
201908140500 METAR LRCK 140500Z 01007KT CAVOK 23/19 Q1011 NOSIG=
201908140530 METAR LRCK 140530Z 03007KT CAVOK 24/20 Q1012 NOSIG=
201908140600 METAR LRCK 140600Z 03007KT CAVOK 25/20 Q1011 NOSIG=
201908140630 METAR LRCK 140630Z 05007KT 020V080 CAVOK 26/21 Q1011 NOSIG=
201908140700 METAR LRCK 140700Z 07005KT 340V140 9999 FEW030 28/18 Q1011
                        NOSIG=
201908140730 METAR LRCK 140730Z 07007KT 9999 FEW030 28/18 Q1011 NOSIG=
201908140800 METAR LRCK 140800Z 09008KT CAVOK 29/15 Q1011 NOSIG=
201908140830 METAR LRCK 140830Z 13007KT CAVOK 29/14 Q1010 NOSIG=
201908140900 METAR LRCK 140900Z 06006KT 030V120 CAVOK 30/13 Q1010 NOSIG=
201908140930 METAR LRCK 140930Z 10008KT 050V150 CAVOK 30/13 Q1010 NOSIG=
201908141000 METAR LRCK 141000Z 11007KT 070V150 CAVOK 30/13 Q1009 NOSIG=
201908141030 METAR LRCK 141030Z 12008KT 090V160 CAVOK 30/13 Q1009 NOSIG=
201908141100 METAR LRCK 141100Z 13004KT 050V220 CAVOK 30/13 Q1009 NOSIG=
201908141130 METAR LRCK 141130Z VRB06KT CAVOK 31/14 Q1009 NOSIG=
201908141200 METAR LRCK 141200Z 12008KT 070V150 CAVOK 30/14 Q1009 NOSIG=
201908141230 METAR LRCK 141230Z 11009KT 080V150 CAVOK 30/15 Q1009 NOSIG=
201908141300 METAR LRCK 141300Z 11009KT 080V150 CAVOK 30/14 Q1008 NOSIG=
201908141330 METAR LRCK 141330Z 11010KT 070V140 CAVOK 30/15 Q1008 NOSIG=
201908141400 METAR LRCK 141400Z 11011KT CAVOK 29/16 Q1008 NOSIG=
201908141430 METAR LRCK 141430Z 11010KT CAVOK 28/17 Q1008 NOSIG=
201908141500 METAR LRCK 141500Z 12011KT CAVOK 28/17 Q1008 NOSIG=
201908141530 METAR LRCK 141530Z 11011KT CAVOK 27/16 Q1008 NOSIG=
201908141600 METAR LRCK 141600Z 11010KT CAVOK 27/15 Q1008 NOSIG=
201908141630 METAR LRCK 141630Z 12009KT CAVOK 26/18 Q1008 NOSIG=
201908141700 METAR LRCK 141700Z 11010KT CAVOK 25/17 Q1008 NOSIG=
201908141730 METAR LRCK 141730Z 12007KT CAVOK 24/18 Q1008 NOSIG=
201908141800 METAR LRCK 141800Z 12005KT CAVOK 23/18 Q1008 NOSIG=
201908141830 METAR LRCK 141830Z 11004KT CAVOK 22/18 Q1008 NOSIG=
201908141900 METAR LRCK 141900Z 14005KT CAVOK 21/18 Q1008 NOSIG=
201908141930 METAR LRCK 141930Z 16002KT CAVOK 20/18 Q1008 NOSIG=
201908142000 METAR LRCK 142000Z 22003KT CAVOK 20/17 Q1008 NOSIG=
201908142030 METAR LRCK 142030Z 00000KT CAVOK 20/18 Q1008 NOSIG=
201908142100 METAR LRCK 142100Z 25003KT CAVOK 20/18 Q1008 NOSIG=
201908142130 METAR LRCK 142130Z 19005KT CAVOK 20/18 Q1008 NOSIG=
201908142200 METAR LRCK 142200Z 22005KT CAVOK 20/18 Q1008 NOSIG=
201908142230 METAR LRCK 142230Z 26006KT CAVOK 20/18 Q1008 NOSIG=
201908142300 METAR LRCK 142300Z 25007KT CAVOK 19/18 Q1008 NOSIG=
201908142330 METAR LRCK 142330Z 28008KT CAVOK 20/19 Q1007 NOSIG=
201908150000 METAR LRCK 150000Z 27007KT CAVOK 20/18 Q1008 NOSIG=
201908150030 METAR LRCK 150030Z 26004KT CAVOK 20/18 Q1007 NOSIG=
201908150100 METAR LRCK 150100Z VRB01KT CAVOK 19/17 Q1008 NOSIG=
201908150130 METAR LRCK 150130Z 15005KT CAVOK 18/17 Q1008 NOSIG=
201908150200 METAR LRCK 150200Z 19002KT CAVOK 19/17 Q1008 NOSIG=
201908150230 METAR LRCK 150230Z 26006KT CAVOK 20/18 Q1008 NOSIG=
201908150300 METAR LRCK 150300Z 30006KT CAVOK 20/18 Q1008 NOSIG=
201908150330 METAR LRCK 150330Z 31009KT CAVOK 19/18 Q1008 NOSIG=
201908150400 METAR LRCK 150400Z 32007KT CAVOK 20/18 Q1008 NOSIG=
201908150430 METAR LRCK 150430Z 32009KT CAVOK 20/18 Q1008 NOSIG=
201908150500 METAR LRCK 150500Z 35014KT CAVOK 21/18 Q1008 NOSIG=
201908150530 METAR LRCK 150530Z 36011KT CAVOK 22/17 Q1008 NOSIG=
201908150600 METAR LRCK 150600Z 34009KT CAVOK 22/17 Q1009 NOSIG=
201908150630 METAR LRCK 150630Z 36010KT CAVOK 22/17 Q1010 NOSIG=
201908150700 METAR LRCK 150700Z 33007KT CAVOK 22/16 Q1010 NOSIG=
201908150730 METAR LRCK 150730Z 04006KT 360V060 CAVOK 24/17 Q1010 NOSIG=
201908150800 METAR LRCK 150800Z 35006KT 300V030 CAVOK 24/16 Q1010 NOSIG=
201908150830 METAR LRCK 150830Z VRB03KT CAVOK 25/16 Q1010 NOSIG=
201908150900 METAR LRCK 150900Z 30006KT 240V330 CAVOK 26/16 Q1010 NOSIG=
201908150930 METAR LRCK 150930Z 36005KT 330V120 CAVOK 27/17 Q1010 NOSIG=
201908151000 METAR LRCK 151000Z 35005KT 280V090 CAVOK 29/16 Q1010 NOSIG=
201908151030 METAR LRCK 151030Z 35007KT 310V010 CAVOK 29/16 Q1010 NOSIG=
201908151100 METAR LRCK 151100Z 35008KT 320V030 CAVOK 29/16 Q1009 NOSIG=
201908151130 METAR LRCK 151130Z 32007KT 290V350 CAVOK 29/16 Q1009 NOSIG=
201908151200 METAR LRCK 151200Z 01009KT 340V050 CAVOK 30/16 Q1009 NOSIG=
201908151230 METAR LRCK 151230Z 33011KT CAVOK 30/15 Q1009 NOSIG=
201908151300 METAR LRCK 151300Z 31011KT CAVOK 30/15 Q1009 NOSIG=
201908151330 METAR LRCK 151330Z 31013KT CAVOK 29/15 Q1009 NOSIG=
201908151400 METAR LRCK 151400Z 32012KT CAVOK 27/15 Q1009 NOSIG=
201908151430 METAR LRCK 151430Z 32013KT CAVOK 26/15 Q1009 NOSIG=
201908151500 METAR LRCK 151500Z 33011KT CAVOK 27/15 Q1009 NOSIG=
201908151530 METAR LRCK 151530Z 36011KT CAVOK 26/15 Q1010 NOSIG=
201908151600 METAR LRCK 151600Z 02011KT CAVOK 26/15 Q1010 NOSIG=
201908151630 METAR LRCK 151630Z 33011KT CAVOK 25/14 Q1010 NOSIG=
201908151700 METAR LRCK 151700Z 33011KT CAVOK 23/14 Q1010 NOSIG=
201908151730 METAR LRCK 151730Z 33012KT CAVOK 22/14 Q1011 NOSIG=
201908151800 METAR LRCK 151800Z 34010KT CAVOK 21/14 Q1011 NOSIG=
201908151830 METAR LRCK 151830Z 35014KT CAVOK 21/14 Q1012 NOSIG=
201908151900 METAR LRCK 151900Z 34011KT CAVOK 20/14 Q1012 NOSIG=
201908151930 METAR LRCK 151930Z 35010KT CAVOK 20/14 Q1012 NOSIG=
201908152000 METAR LRCK 152000Z 34011KT CAVOK 19/13 Q1012 NOSIG=
201908152030 METAR LRCK 152030Z 34008KT CAVOK 19/13 Q1013 NOSIG=
201908152100 METAR LRCK 152100Z 35010KT CAVOK 19/13 Q1013 NOSIG=
201908152130 METAR LRCK 152130Z 34009KT CAVOK 18/13 Q1013 NOSIG=
201908152200 METAR LRCK 152200Z 34008KT CAVOK 18/13 Q1013 NOSIG=
201908152230 METAR LRCK 152230Z 34008KT CAVOK 18/13 Q1013 NOSIG=
201908152300 METAR LRCK 152300Z 34008KT CAVOK 17/13 Q1013 NOSIG=
201908152330 METAR LRCK 152330Z 34008KT CAVOK 17/13 Q1013 NOSIG=
201908160000 METAR LRCK 160000Z 34008KT CAVOK 17/13 Q1012 NOSIG=
201908160030 METAR LRCK 160030Z 34004KT CAVOK 16/13 Q1013 NOSIG=
201908160100 METAR LRCK 160100Z 32004KT CAVOK 16/13 Q1013 NOSIG=
201908160130 METAR LRCK 160130Z 31007KT CAVOK 16/13 Q1013 NOSIG=
201908160200 METAR LRCK 160200Z 32005KT CAVOK 16/13 Q1013 NOSIG=
201908160230 METAR LRCK 160230Z 31007KT CAVOK 16/12 Q1013 NOSIG=
201908160300 METAR LRCK 160300Z 29004KT 240V330 CAVOK 16/12 Q1013 NOSIG=
201908160330 METAR LRCK 160330Z 34005KT CAVOK 16/12 Q1013 NOSIG=
201908160400 METAR LRCK 160400Z 34005KT 9999 FEW060CB 17/12 Q1013 NOSIG=
201908160430 METAR LRCK 160430Z 34006KT 9999 FEW060CB 17/12 Q1013 NOSIG=
201908160500 METAR LRCK 160500Z 32010KT 9999 FEW060CB 17/12 Q1013 NOSIG=
201908160530 METAR LRCK 160530Z 33006KT 300V070 CAVOK 17/13 Q1014 NOSIG=
201908160600 METAR LRCK 160600Z 32007KT CAVOK 17/12 Q1013 NOSIG=
201908160630 METAR LRCK 160630Z 34007KT CAVOK 18/12 Q1014 NOSIG=
201908160700 METAR LRCK 160700Z 31005KT 290V350 9999 -RA NSC 18/13 Q1014
                        NOSIG=
201908160730 METAR LRCK 160730Z 32007KT CAVOK 19/13 Q1014 NOSIG=
201908160800 METAR LRCK 160800Z 35010KT CAVOK 19/12 Q1014 NOSIG=
201908160830 METAR LRCK 160830Z 34007KT CAVOK 20/12 Q1014 NOSIG=
201908160900 METAR LRCK 160900Z 36008KT 330V030 CAVOK 21/12 Q1013 NOSIG=
201908160930 METAR LRCK 160930Z 35006KT 310V020 CAVOK 23/12 Q1013 NOSIG=
201908161000 METAR COR LRCK 161000Z 02004KT 330V120 CAVOK 25/11 Q1013
                        NOSIG=
201908161030 METAR LRCK 161030Z 02004KT 330V120 CAVOK 25/11 Q1013 NOSIG=
201908161100 METAR LRCK 161100Z VRB04KT CAVOK 26/11 Q1013 NOSIG=
201908161130 METAR LRCK 161130Z 35011KT CAVOK 27/11 Q1012 NOSIG=
201908161200 METAR LRCK 161200Z 33009KT CAVOK 27/11 Q1012 NOSIG=
201908161230 METAR LRCK 161230Z 14009KT CAVOK 25/14 Q1012 NOSIG=
201908161300 METAR LRCK 161300Z 14009KT CAVOK 25/14 Q1012 NOSIG=
201908161330 METAR LRCK 161330Z 14007KT CAVOK 26/14 Q1012 NOSIG=
201908161400 METAR LRCK 161400Z 13007KT 090V160 CAVOK 25/14 Q1012 NOSIG=
201908161430 METAR LRCK 161430Z 12005KT 060V180 CAVOK 25/14 Q1012 NOSIG=
201908161500 METAR LRCK 161500Z 15006KT CAVOK 24/13 Q1013 NOSIG=
201908161530 METAR LRCK 161530Z 18004KT CAVOK 23/13 Q1012 NOSIG=
201908161600 METAR LRCK 161600Z 16006KT CAVOK 23/14 Q1012 NOSIG=
201908161630 METAR LRCK 161630Z 15007KT CAVOK 22/14 Q1013 NOSIG=
201908161700 METAR LRCK 161700Z 17005KT CAVOK 22/14 Q1013 NOSIG=
201908161730 METAR LRCK 161730Z 19005KT CAVOK 21/14 Q1013 NOSIG=
201908161800 METAR LRCK 161800Z 32003KT 270V010 CAVOK 20/14 Q1013 NOSIG=
201908161830 METAR LRCK 161830Z 33006KT CAVOK 21/11 Q1014 NOSIG=
201908161900 METAR LRCK 161900Z 33009KT CAVOK 21/11 Q1014 NOSIG=
201908161930 METAR LRCK 161930Z 33008KT CAVOK 20/11 Q1014 NOSIG=
201908162000 METAR LRCK 162000Z 34007KT CAVOK 20/11 Q1014 NOSIG=
201908162030 METAR LRCK 162030Z 33007KT CAVOK 19/11 Q1014 NOSIG=
201908162100 METAR LRCK 162100Z 33006KT CAVOK 19/11 Q1014 NOSIG=
201908162130 METAR LRCK 162130Z 32007KT CAVOK 18/11 Q1014 NOSIG=
201908162200 METAR LRCK 162200Z 32006KT CAVOK 18/11 Q1014 NOSIG=
201908162230 METAR LRCK 162230Z 32005KT CAVOK 17/10 Q1014 NOSIG=
201908162300 METAR LRCK 162300Z 31006KT CAVOK 18/10 Q1014 NOSIG=
201908162330 METAR LRCK 162330Z 32006KT CAVOK 18/10 Q1014 NOSIG=
201908170000 METAR LRCK 170000Z 34006KT CAVOK 17/10 Q1014 NOSIG=
201908170030 METAR LRCK 170030Z 34008KT CAVOK 18/10 Q1014 NOSIG=
201908170100 METAR LRCK 170100Z 34007KT CAVOK 18/10 Q1014 NOSIG=
201908170130 METAR COR LRCK 170130Z 33006KT CAVOK 17/10 Q1014 NOSIG=
201908170200 METAR LRCK 170200Z 33006KT CAVOK 17/10 Q1014 NOSIG=
201908170230 METAR LRCK 170230Z 33005KT CAVOK 17/11 Q1014 NOSIG=
201908170300 METAR LRCK 170300Z 32007KT CAVOK 18/10 Q1014 NOSIG=
201908170330 METAR LRCK 170330Z 31005KT CAVOK 17/10 Q1014 NOSIG=
201908170400 METAR LRCK 170400Z 30005KT CAVOK 18/10 Q1014 NOSIG=
201908170430 METAR LRCK 170430Z 31005KT CAVOK 20/10 Q1014 NOSIG=
201908170500 METAR LRCK 170500Z 34008KT CAVOK 22/10 Q1015 NOSIG=
201908170530 METAR LRCK 170530Z 36009KT CAVOK 22/09 Q1015 NOSIG=
201908170600 METAR LRCK 170600Z 36008KT CAVOK 22/10 Q1015 NOSIG=
201908170630 METAR LRCK 170630Z 35009KT CAVOK 24/10 Q1015 NOSIG=
201908170700 METAR LRCK 170700Z 01009KT 340V040 CAVOK 25/09 Q1015 NOSIG=
201908170730 METAR LRCK 170730Z 36009KT 310V020 CAVOK 24/08 Q1015 NOSIG=
201908170800 METAR LRCK 170800Z 35010KT CAVOK 24/08 Q1015 NOSIG=
201908170830 METAR LRCK 170830Z 05008KT CAVOK 25/08 Q1015 NOSIG=
201908170900 METAR LRCK 170900Z 04008KT 010V070 CAVOK 26/08 Q1015 NOSIG=
201908170930 METAR LRCK 170930Z 03010KT 350V050 CAVOK 26/07 Q1014 NOSIG=
201908171000 METAR LRCK 171000Z 35008KT 320V020 CAVOK 26/08 Q1014 NOSIG=
201908171030 METAR LRCK 171030Z 35006KT 290V030 9999 FEW049 26/08 Q1014
                        NOSIG=
201908171100 METAR LRCK 171100Z 36007KT 320V040 9999 FEW049 26/10 Q1014
                        NOSIG=
201908171130 METAR LRCK 171130Z 04007KT 010V070 CAVOK 26/10 Q1014 NOSIG=
201908171200 METAR LRCK 171200Z 06010KT CAVOK 25/10 Q1014 NOSIG=
201908171230 METAR LRCK 171230Z 07011KT 040V100 CAVOK 26/10 Q1014 NOSIG=
201908171300 METAR LRCK 171300Z 09011KT CAVOK 25/10 Q1014 NOSIG=
201908171330 METAR LRCK 171330Z 10009KT CAVOK 26/11 Q1014 NOSIG=
201908171400 METAR LRCK 171400Z 10010KT CAVOK 24/11 Q1014 NOSIG=
201908171430 METAR LRCK 171430Z 10008KT CAVOK 24/11 Q1014 NOSIG=
201908171500 METAR LRCK 171500Z 13007KT CAVOK 24/10 Q1014 NOSIG=
201908171530 METAR LRCK 171530Z 12005KT CAVOK 24/10 Q1014 NOSIG=
201908171600 METAR LRCK 171600Z 13003KT CAVOK 23/10 Q1014 NOSIG=
201908171630 METAR LRCK 171630Z 16003KT 130V200 CAVOK 23/10 Q1014 NOSIG=
201908171700 METAR LRCK 171700Z 15003KT CAVOK 22/10 Q1014 NOSIG=
201908171730 METAR LRCK 171730Z 19003KT CAVOK 20/10 Q1014 NOSIG=
201908171800 METAR LRCK 171800Z 00000KT CAVOK 19/10 Q1014 NOSIG=
201908171830 METAR LRCK 171830Z 00000KT CAVOK 19/10 Q1015 NOSIG=
201908171900 METAR LRCK 171900Z 00000KT CAVOK 18/10 Q1015 NOSIG=
201908171930 METAR LRCK 171930Z 34004KT CAVOK 19/09 Q1015 NOSIG=
201908172000 METAR LRCK 172000Z 35006KT CAVOK 19/07 Q1015 NOSIG=
201908172030 METAR LRCK 172030Z 35006KT CAVOK 19/07 Q1015 NOSIG=
201908172100 METAR LRCK 172100Z 35006KT CAVOK 19/07 Q1015 NOSIG=
201908172130 METAR LRCK 172130Z 35006KT CAVOK 18/07 Q1015 NOSIG=
201908172200 METAR LRCK 172200Z 36006KT CAVOK 17/07 Q1015 NOSIG=
201908172230 METAR LRCK 172230Z 34006KT CAVOK 17/07 Q1015 NOSIG=
201908172300 METAR LRCK 172300Z 34004KT CAVOK 17/08 Q1015 NOSIG=
201908172330 METAR LRCK 172330Z 30006KT CAVOK 15/08 Q1015 NOSIG=
201908180000 METAR LRCK 180000Z 30007KT CAVOK 16/08 Q1015 NOSIG=
201908180030 METAR LRCK 180030Z 29006KT CAVOK 16/08 Q1015 NOSIG=
201908180100 METAR LRCK 180100Z 29007KT CAVOK 16/08 Q1015 NOSIG=
201908180130 METAR LRCK 180130Z 29007KT CAVOK 15/08 Q1015 NOSIG=
201908180200 METAR LRCK 180200Z 29006KT CAVOK 15/07 Q1015 NOSIG=
201908180230 METAR LRCK 180230Z 29007KT CAVOK 15/08 Q1015 NOSIG=
201908180300 METAR LRCK 180300Z 29008KT CAVOK 15/08 Q1015 NOSIG=
201908180330 METAR LRCK 180330Z 29007KT CAVOK 15/08 Q1015 NOSIG=
201908180400 METAR LRCK 180400Z 29007KT CAVOK 15/08 Q1015 NOSIG=
201908180430 METAR LRCK 180430Z 29007KT CAVOK 16/09 Q1015 NOSIG=
201908180500 METAR LRCK 180500Z 29007KT CAVOK 18/09 Q1016 NOSIG=
201908180530 METAR LRCK 180530Z 30006KT CAVOK 20/10 Q1016 NOSIG=
201908180600 METAR LRCK 180600Z 34008KT CAVOK 23/09 Q1016 NOSIG=
201908180630 METAR LRCK 180630Z 35009KT CAVOK 24/10 Q1016 NOSIG=
201908180700 METAR LRCK 180700Z 33008KT 310V010 CAVOK 25/09 Q1016 NOSIG=
201908180730 METAR LRCK 180730Z 33009KT CAVOK 25/09 Q1016 NOSIG=
201908180800 METAR LRCK 180800Z 32008KT 280V360 CAVOK 26/09 Q1016 NOSIG=
201908180830 METAR LRCK 180830Z 36008KT 340V040 CAVOK 26/09 Q1016 NOSIG=
201908180900 METAR LRCK 180900Z 34006KT 300V020 CAVOK 26/08 Q1016 NOSIG=
201908180930 METAR LRCK 180930Z 36008KT 330V060 CAVOK 27/09 Q1016 NOSIG=
201908181000 METAR LRCK 181000Z 33008KT 280V360 CAVOK 28/08 Q1016 NOSIG=
201908181030 METAR LRCK 181030Z 34008KT CAVOK 27/08 Q1016 NOSIG=
201908181100 METAR LRCK 181100Z 32004KT 280V030 CAVOK 27/08 Q1016 NOSIG=
201908181130 METAR LRCK 181130Z 10009KT 080V140 CAVOK 27/12 Q1016 NOSIG=
201908181200 METAR LRCK 181200Z 14013KT CAVOK 28/12 Q1016 NOSIG=
201908181230 METAR LRCK 181230Z 11009KT CAVOK 27/11 Q1016 NOSIG=
201908181300 METAR LRCK 181300Z 11007KT 080V150 CAVOK 28/11 Q1016 NOSIG=
201908181330 METAR LRCK 181330Z 11008KT 080V140 CAVOK 28/11 Q1016 NOSIG=
201908181400 METAR LRCK 181400Z 13007KT CAVOK 27/11 Q1016 NOSIG=
201908181430 METAR LRCK 181430Z 12008KT 090V160 CAVOK 26/12 Q1016 NOSIG=
201908181500 METAR LRCK 181500Z 14008KT CAVOK 26/11 Q1016 NOSIG=
201908181530 METAR LRCK 181530Z 14007KT CAVOK 26/11 Q1016 NOSIG=
201908181600 METAR LRCK 181600Z 14007KT CAVOK 26/11 Q1016 NOSIG=
201908181630 METAR LRCK 181630Z 13005KT CAVOK 25/11 Q1016 NOSIG=
201908181700 METAR COR LRCK 181700Z 15007KT CAVOK 23/11 Q1016 NOSIG=
201908181730 METAR LRCK 181730Z 16007KT CAVOK 22/11 Q1016 NOSIG=
201908181800 METAR LRCK 181800Z 14007KT CAVOK 21/11 Q1016 NOSIG=
201908181830 METAR LRCK 181830Z 16008KT CAVOK 20/12 Q1017 NOSIG=
201908181900 METAR LRCK 181900Z 17008KT CAVOK 20/12 Q1017 NOSIG=
201908181930 METAR LRCK 181930Z 18008KT CAVOK 19/11 Q1017 NOSIG=
201908182000 METAR LRCK 182000Z 19008KT CAVOK 19/11 Q1017 NOSIG=
201908182030 METAR LRCK 182030Z 21007KT CAVOK 18/11 Q1017 NOSIG=
201908182100 METAR LRCK 182100Z 22007KT CAVOK 17/11 Q1017 NOSIG=
201908182130 METAR LRCK 182130Z 23006KT CAVOK 17/11 Q1017 NOSIG=
201908182200 METAR LRCK 182200Z 25006KT CAVOK 17/11 Q1017 NOSIG=
201908182230 METAR LRCK 182230Z 25005KT CAVOK 17/11 Q1017 NOSIG=
201908182300 METAR LRCK 182300Z 26005KT CAVOK 18/11 Q1017 NOSIG=
201908182330 METAR LRCK 182330Z 27006KT CAVOK 18/11 Q1017 NOSIG=
201908190000 METAR LRCK 190000Z 27006KT CAVOK 16/11 Q1017 NOSIG=
201908190030 METAR LRCK 190030Z 25006KT CAVOK 17/11 Q1017 NOSIG=
201908190100 METAR LRCK 190100Z 25006KT CAVOK 17/11 Q1017 NOSIG=
201908190130 METAR LRCK 190130Z 26005KT CAVOK 16/11 Q1017 NOSIG=
201908190200 METAR LRCK 190200Z 27005KT CAVOK 15/11 Q1017 NOSIG=
201908190230 METAR LRCK 190230Z 27006KT CAVOK 15/11 Q1017 NOSIG=
201908190300 METAR LRCK 190300Z 28005KT CAVOK 15/11 Q1017 NOSIG=
201908190330 METAR LRCK 190330Z 29006KT CAVOK 15/11 Q1018 NOSIG=
201908190400 METAR LRCK 190400Z 29006KT CAVOK 16/12 Q1018 NOSIG=
201908190430 METAR LRCK 190430Z 29005KT CAVOK 18/12 Q1018 NOSIG=
201908190500 METAR LRCK 190500Z 29005KT CAVOK 20/12 Q1018 NOSIG=
201908190530 METAR LRCK 190530Z 29003KT 270V330 CAVOK 22/12 Q1018 NOSIG=
201908190600 METAR LRCK 190600Z 32003KT 300V010 CAVOK 23/12 Q1018 NOSIG=
201908190630 METAR LRCK 190630Z 02005KT 340V070 CAVOK 26/12 Q1019 NOSIG=
201908190700 METAR LRCK 190700Z 03006KT 360V060 CAVOK 26/12 Q1019 NOSIG=
201908190730 METAR LRCK 190730Z 04007KT 020V080 CAVOK 27/12 Q1019 NOSIG=
201908190800 METAR LRCK 190800Z 05008KT 010V090 CAVOK 27/11 Q1019 NOSIG=
201908190830 METAR LRCK 190830Z 02009KT CAVOK 28/11 Q1018 NOSIG=
201908190900 METAR LRCK 190900Z 06008KT 030V100 CAVOK 28/10 Q1018 NOSIG=
201908190930 METAR LRCK 190930Z 07010KT 030V100 CAVOK 29/11 Q1018 NOSIG=
201908191000 METAR LRCK 191000Z 08010KT CAVOK 29/12 Q1018 NOSIG=
201908191030 METAR LRCK 191030Z 08011KT CAVOK 29/11 Q1019 NOSIG=
201908191100 METAR LRCK 191100Z 10012KT CAVOK 29/09 Q1019 NOSIG=
201908191130 METAR LRCK 191130Z 10013KT CAVOK 29/09 Q1018 NOSIG=
201908191200 METAR LRCK 191200Z 10013KT CAVOK 29/09 Q1019 NOSIG=
201908191230 METAR LRCK 191230Z 09011KT CAVOK 29/09 Q1019 NOSIG=
201908191300 METAR LRCK 191300Z 09011KT 050V110 CAVOK 28/08 Q1019 NOSIG=
201908191330 METAR LRCK 191330Z 09012KT 060V120 CAVOK 28/10 Q1019 NOSIG=
201908191400 METAR LRCK 191400Z 09011KT CAVOK 28/10 Q1019 NOSIG=
201908191430 METAR LRCK 191430Z 10010KT CAVOK 28/10 Q1019 NOSIG=
201908191500 METAR LRCK 191500Z 10009KT CAVOK 27/11 Q1019 NOSIG=
201908191530 METAR LRCK 191530Z 10008KT 070V130 CAVOK 27/11 Q1019 NOSIG=
201908191600 METAR LRCK 191600Z 10009KT CAVOK 26/11 Q1019 NOSIG=
201908191630 METAR LRCK 191630Z 09008KT CAVOK 25/12 Q1019 NOSIG=
201908191700 METAR LRCK 191700Z 09006KT CAVOK 23/14 Q1019 NOSIG=
201908191730 METAR LRCK 191730Z 11003KT CAVOK 22/14 Q1019 NOSIG=
201908191800 METAR LRCK 191800Z 13004KT 110V170 CAVOK 21/13 Q1020 NOSIG=
201908191830 METAR LRCK 191830Z 12004KT CAVOK 20/14 Q1020 NOSIG=
201908191900 METAR LRCK 191900Z 11004KT CAVOK 20/14 Q1020 NOSIG=
201908191930 METAR LRCK 191930Z 10004KT CAVOK 20/13 Q1020 NOSIG=
201908192000 METAR LRCK 192000Z 08004KT CAVOK 19/13 Q1019 NOSIG=
201908192030 METAR LRCK 192030Z 09004KT CAVOK 19/13 Q1019 NOSIG=
201908192100 METAR LRCK 192100Z 00000KT CAVOK 17/13 Q1019 NOSIG=
201908192130 METAR LRCK 192130Z 30003KT CAVOK 17/13 Q1019 NOSIG=
201908192200 METAR LRCK 192200Z 31002KT CAVOK 17/13 Q1019 NOSIG=
201908192230 METAR LRCK 192230Z 34002KT CAVOK 18/14 Q1019 NOSIG=
201908192300 METAR LRCK 192300Z 33004KT CAVOK 17/14 Q1019 NOSIG=
201908192330 METAR LRCK 192330Z 31006KT CAVOK 17/14 Q1019 NOSIG=
201908200000 METAR LRCK 200000Z 32005KT CAVOK 17/13 Q1019 NOSIG=
201908200030 METAR LRCK 200030Z 33004KT CAVOK 16/13 Q1019 NOSIG=
201908200100 METAR LRCK 200100Z 34005KT CAVOK 17/14 Q1019 NOSIG=
201908200130 METAR LRCK 200130Z 32006KT CAVOK 17/14 Q1019 NOSIG=
201908200200 METAR LRCK 200200Z 31007KT CAVOK 16/13 Q1020 NOSIG=
201908200230 METAR LRCK 200230Z 32006KT CAVOK 16/13 Q1020 NOSIG=
201908200300 METAR LRCK 200300Z 31007KT CAVOK 16/13 Q1020 NOSIG=
201908200330 METAR LRCK 200330Z 32006KT CAVOK 17/13 Q1020 NOSIG=
201908200400 METAR LRCK 200400Z 33004KT CAVOK 18/13 Q1020 NOSIG=
201908200430 METAR LRCK 200430Z 33004KT CAVOK 20/12 Q1020 NOSIG=
201908200500 METAR LRCK 200500Z 34003KT CAVOK 21/13 Q1020 NOSIG=
201908200530 METAR LRCK 200530Z 02004KT CAVOK 24/12 Q1020 NOSIG=
201908200600 METAR LRCK 200600Z 05005KT CAVOK 26/11 Q1020 NOSIG=
201908200630 METAR LRCK 200630Z 06005KT 020V090 CAVOK 26/11 Q1020 NOSIG=
201908200700 METAR LRCK 200700Z 06006KT 030V100 CAVOK 27/11 Q1021 NOSIG=
201908200730 METAR LRCK 200730Z 06006KT 020V080 CAVOK 28/11 Q1021 NOSIG=
201908200800 METAR LRCK 200800Z 09006KT 020V130 CAVOK 28/12 Q1021 NOSIG=
201908200830 METAR LRCK 200830Z 06007KT 030V100 CAVOK 29/13 Q1021 NOSIG=
201908200900 METAR LRCK 200900Z 06008KT 030V090 CAVOK 29/14 Q1021 NOSIG=
201908200930 METAR LRCK 200930Z 07009KT CAVOK 29/14 Q1021 NOSIG=
201908201000 METAR LRCK 201000Z 09009KT CAVOK 30/14 Q1021 NOSIG=
201908201030 METAR LRCK 201030Z 08009KT CAVOK 30/13 Q1021 NOSIG=
201908201100 METAR LRCK 201100Z 09010KT 050V120 CAVOK 29/12 Q1021 NOSIG=
201908201130 METAR LRCK 201130Z 10011KT CAVOK 30/12 Q1021 NOSIG=
201908201200 METAR LRCK 201200Z 10010KT 060V130 CAVOK 30/12 Q1020 NOSIG=
201908201230 METAR LRCK 201230Z 10009KT 070V130 CAVOK 30/13 Q1020 NOSIG=
201908201300 METAR LRCK 201300Z 09008KT CAVOK 30/13 Q1020 NOSIG=
201908201330 METAR LRCK 201330Z 11009KT CAVOK 29/13 Q1020 NOSIG=
201908201400 METAR LRCK 201400Z 12008KT 100V160 CAVOK 28/13 Q1020 NOSIG=
201908201430 METAR LRCK 201430Z 13007KT CAVOK 28/13 Q1020 NOSIG=
201908201500 METAR LRCK 201500Z 13006KT 090V160 CAVOK 28/14 Q1020 NOSIG=
201908201530 METAR LRCK 201530Z 13006KT 110V170 CAVOK 27/13 Q1020 NOSIG=
201908201600 METAR LRCK 201600Z 11007KT CAVOK 27/13 Q1020 NOSIG=
201908201630 METAR LRCK 201630Z 11005KT CAVOK 26/14 Q1020 NOSIG=
201908201700 METAR LRCK 201700Z 11004KT 080V140 CAVOK 24/15 Q1020 NOSIG=
201908201730 METAR LRCK 201730Z VRB01KT CAVOK 23/14 Q1020 NOSIG=
201908201800 METAR LRCK 201800Z 03001KT CAVOK 21/14 Q1021 NOSIG=
201908201830 METAR LRCK 201830Z 00000KT CAVOK 22/13 Q1021 NOSIG=
201908201900 METAR LRCK 201900Z 07005KT CAVOK 21/13 Q1021 NOSIG=
201908201930 METAR LRCK 201930Z 04003KT CAVOK 20/13 Q1020 NOSIG=
201908202000 METAR LRCK 202000Z 31004KT 270V330 CAVOK 20/14 Q1020 NOSIG=
201908202030 METAR LRCK 202030Z 30005KT CAVOK 19/15 Q1020 NOSIG=
201908202100 METAR LRCK 202100Z 32003KT CAVOK 19/15 Q1020 NOSIG=
201908202130 METAR LRCK 202130Z 34003KT CAVOK 19/15 Q1020 NOSIG=
201908202200 METAR LRCK 202200Z 33004KT CAVOK 18/14 Q1020 NOSIG=
201908202230 METAR LRCK 202230Z 35004KT CAVOK 19/15 Q1020 NOSIG=
201908202300 METAR LRCK 202300Z 00000KT CAVOK 19/14 Q1019 NOSIG=
201908202330 METAR LRCK 202330Z 34005KT CAVOK 19/14 Q1019 NOSIG=
201908210000 METAR LRCK 210000Z 33006KT CAVOK 20/14 Q1019 NOSIG=
201908210030 METAR COR LRCK 210030Z 33005KT CAVOK 20/13 Q1019 NOSIG=
201908210100 METAR LRCK 210100Z 32007KT CAVOK 21/12 Q1019 NOSIG=
201908210130 METAR LRCK 210130Z 30007KT CAVOK 20/12 Q1019 NOSIG=
201908210200 METAR LRCK 210200Z 30007KT CAVOK 20/12 Q1018 NOSIG=
201908210230 METAR LRCK 210230Z 31006KT CAVOK 20/12 Q1018 NOSIG=
201908210300 METAR LRCK 210300Z 30007KT CAVOK 20/12 Q1019 NOSIG=
201908210330 METAR LRCK 210330Z 31007KT CAVOK 20/12 Q1019 NOSIG=
201908210400 METAR LRCK 210400Z 32007KT CAVOK 21/12 Q1019 NOSIG=
201908210430 METAR LRCK 210430Z 35011KT CAVOK 23/12 Q1019 NOSIG=
201908210500 METAR LRCK 210500Z 36011KT CAVOK 25/12 Q1019 NOSIG=
201908210530 METAR LRCK 210530Z 01011KT CAVOK 26/13 Q1019 NOSIG=
201908210600 METAR LRCK 210600Z 02011KT CAVOK 27/14 Q1019 NOSIG=
201908210630 METAR LRCK 210630Z 03012KT CAVOK 28/14 Q1019 NOSIG=
201908210700 METAR LRCK 210700Z 03012KT CAVOK 29/15 Q1019 NOSIG=
201908210730 METAR LRCK 210730Z 04013KT CAVOK 30/15 Q1019 NOSIG=
201908210800 METAR LRCK 210800Z 04013KT CAVOK 31/15 Q1019 NOSIG=
201908210830 METAR LRCK 210830Z 04013KT CAVOK 31/14 Q1019 NOSIG=
201908210900 METAR LRCK 210900Z 03013KT CAVOK 32/13 Q1019 NOSIG=
201908210930 METAR LRCK 210930Z 05014KT CAVOK 32/12 Q1019 NOSIG=
201908211000 METAR LRCK 211000Z 05014KT CAVOK 32/13 Q1018 NOSIG=
201908211030 METAR LRCK 211030Z 04014KT 010V080 CAVOK 32/12 Q1018 NOSIG=
201908211100 METAR LRCK 211100Z 06017KT CAVOK 32/12 Q1018 NOSIG=
201908211130 METAR LRCK 211130Z 05015KT CAVOK 33/13 Q1018 NOSIG=
201908211200 METAR LRCK 211200Z 04011KT 010V070 CAVOK 33/13 Q1018 NOSIG=
201908211230 METAR LRCK 211230Z 04008KT 010V070 CAVOK 33/14 Q1017 NOSIG=
201908211300 METAR LRCK 211300Z 07008KT CAVOK 33/14 Q1017 NOSIG=
201908211330 METAR LRCK 211330Z 06010KT 020V080 CAVOK 33/14 Q1017 NOSIG=
201908211400 METAR LRCK 211400Z 06012KT CAVOK 32/14 Q1017 NOSIG=
201908211430 METAR LRCK 211430Z 07009KT CAVOK 32/14 Q1017 NOSIG=
201908211500 METAR LRCK 211500Z 07010KT CAVOK 31/15 Q1017 NOSIG=
201908211530 METAR LRCK 211530Z 09011KT CAVOK 30/16 Q1017 NOSIG=
201908211600 METAR LRCK 211600Z 08010KT CAVOK 29/16 Q1017 NOSIG=
201908211630 METAR LRCK 211630Z 07009KT CAVOK 28/17 Q1017 NOSIG=
201908211700 METAR LRCK 211700Z 07009KT CAVOK 27/18 Q1017 NOSIG=
201908211730 METAR LRCK 211730Z 05007KT CAVOK 26/16 Q1017 NOSIG=
201908211800 METAR LRCK 211800Z 03006KT CAVOK 26/15 Q1017 NOSIG=
201908211830 METAR LRCK 211830Z 01006KT CAVOK 25/15 Q1017 NOSIG=
201908211900 METAR LRCK 211900Z 35006KT CAVOK 25/15 Q1017 NOSIG=
201908211930 METAR LRCK 211930Z 34005KT CAVOK 24/15 Q1017 NOSIG=
201908212000 METAR LRCK 212000Z 32006KT CAVOK 24/15 Q1017 NOSIG=
201908212030 METAR LRCK 212030Z 32007KT CAVOK 25/15 Q1017 NOSIG=
201908212100 METAR LRCK 212100Z 31006KT CAVOK 24/15 Q1017 NOSIG=
201908212130 METAR LRCK 212130Z 33006KT CAVOK 24/14 Q1017 NOSIG=
201908212200 METAR LRCK 212200Z 31008KT CAVOK 24/14 Q1017 NOSIG=
201908212230 METAR LRCK 212230Z 31007KT CAVOK 24/14 Q1017 NOSIG=
201908212300 METAR LRCK 212300Z 29008KT CAVOK 23/14 Q1017 NOSIG=
201908212330 METAR LRCK 212330Z 29009KT CAVOK 23/14 Q1017 NOSIG=
201908220000 METAR LRCK 220000Z 29009KT CAVOK 23/14 Q1017 NOSIG=
201908220030 METAR LRCK 220030Z 29008KT CAVOK 22/14 Q1017 NOSIG=
201908220100 METAR LRCK 220100Z 30008KT CAVOK 23/14 Q1017 NOSIG=
201908220130 METAR LRCK 220130Z 30008KT CAVOK 23/15 Q1017 NOSIG=
201908220200 METAR LRCK 220200Z 31007KT CAVOK 23/15 Q1017 NOSIG=
201908220230 METAR LRCK 220230Z 31007KT CAVOK 23/15 Q1017 NOSIG=
201908220300 METAR LRCK 220300Z 32009KT CAVOK 22/14 Q1017 NOSIG=
201908220330 METAR LRCK 220330Z 34008KT CAVOK 23/14 Q1017 NOSIG=
201908220400 METAR LRCK 220400Z 35009KT CAVOK 24/14 Q1017 NOSIG=
201908220430 METAR LRCK 220430Z 35009KT CAVOK 25/13 Q1018 NOSIG=
201908220500 METAR LRCK 220500Z 34008KT CAVOK 25/13 Q1018 NOSIG=
201908220530 METAR LRCK 220530Z 33008KT CAVOK 27/13 Q1018 NOSIG=
201908220600 METAR LRCK 220600Z 32009KT CAVOK 26/13 Q1018 NOSIG=
201908220630 METAR LRCK 220630Z 33009KT CAVOK 27/13 Q1018 NOSIG=
201908220700 METAR COR LRCK 220700Z 34012KT CAVOK 28/13 Q1019 NOSIG=
201908220730 METAR LRCK 220730Z 33012KT CAVOK 30/13 Q1019 NOSIG=
201908220800 METAR LRCK 220800Z 34013KT CAVOK 31/12 Q1019 NOSIG=
201908220830 METAR LRCK 220830Z 01016KT CAVOK 32/11 Q1019 NOSIG=
201908220900 METAR LRCK 220900Z 01017KT CAVOK 33/12 Q1019 NOSIG=
201908220930 METAR LRCK 220930Z 01019KT CAVOK 33/12 Q1019 NOSIG=
201908221000 METAR LRCK 221000Z 02019KT CAVOK 33/12 Q1019 NOSIG=
201908221030 METAR LRCK 221030Z 03017KT CAVOK 33/14 Q1019 NOSIG=
201908221100 METAR LRCK 221100Z 02014KT 340V040 CAVOK 33/14 Q1019 NOSIG=
201908221130 METAR LRCK 221130Z 02014KT CAVOK 34/14 Q1019 NOSIG=
201908221200 METAR LRCK 221200Z 02014KT CAVOK 34/13 Q1018 NOSIG=
201908221230 METAR LRCK 221230Z 01014KT CAVOK 34/13 Q1018 NOSIG=
201908221300 METAR LRCK 221300Z 01014KT CAVOK 34/13 Q1018 NOSIG=
201908221330 METAR LRCK 221330Z 01015KT CAVOK 34/13 Q1018 NOSIG=
201908221400 METAR LRCK 221400Z 36014KT CAVOK 33/14 Q1018 NOSIG=
201908221430 METAR LRCK 221430Z 01012KT CAVOK 33/14 Q1018 NOSIG=
201908221500 METAR LRCK 221500Z 01014KT CAVOK 33/14 Q1018 NOSIG=
201908221530 METAR LRCK 221530Z 01015KT CAVOK 32/15 Q1018 NOSIG=
201908221600 METAR LRCK 221600Z 36014KT CAVOK 31/14 Q1018 NOSIG=
201908221630 METAR LRCK 221630Z 36013KT CAVOK 31/13 Q1018 NOSIG=
201908221700 METAR LRCK 221700Z 34011KT CAVOK 30/14 Q1018 NOSIG=
201908221730 METAR LRCK 221730Z 34011KT CAVOK 29/15 Q1019 NOSIG=
201908221800 METAR LRCK 221800Z 34010KT CAVOK 28/15 Q1019 NOSIG=
201908221830 METAR LRCK 221830Z 33010KT CAVOK 27/14 Q1019 NOSIG=
201908221900 METAR LRCK 221900Z 34010KT CAVOK 26/14 Q1020 NOSIG=
201908221930 METAR LRCK 221930Z 34012KT CAVOK 26/15 Q1020 NOSIG=
201908222000 METAR LRCK 222000Z 34012KT CAVOK 25/15 Q1020 NOSIG=
201908222030 METAR LRCK 222030Z 33010KT CAVOK 25/15 Q1020 NOSIG=
201908222100 METAR LRCK 222100Z 33011KT CAVOK 24/15 Q1019 NOSIG=
201908222130 METAR LRCK 222130Z 33012KT CAVOK 24/15 Q1019 NOSIG=
201908222200 METAR LRCK 222200Z 33012KT CAVOK 24/16 Q1019 NOSIG=
201908222230 METAR LRCK 222230Z 34012KT CAVOK 23/16 Q1019 NOSIG=
201908222300 METAR LRCK 222300Z 34013KT CAVOK 23/16 Q1019 NOSIG=
201908222330 METAR LRCK 222330Z 33013KT CAVOK 22/16 Q1019 NOSIG=
201908230000 METAR LRCK 230000Z 34014KT CAVOK 22/16 Q1019 NOSIG=
201908230030 METAR LRCK 230030Z 34015KT CAVOK 22/16 Q1019 NOSIG=
201908230100 METAR LRCK 230100Z 34015KT CAVOK 21/16 Q1019 NOSIG=
201908230130 METAR LRCK 230130Z 34015KT CAVOK 21/16 Q1019 NOSIG=
201908230200 METAR LRCK 230200Z 34014KT CAVOK 21/16 Q1019 NOSIG=
201908230230 METAR LRCK 230230Z 34014KT CAVOK 21/16 Q1019 NOSIG=
201908230300 METAR LRCK 230300Z 34016KT CAVOK 21/16 Q1019 NOSIG=
201908230330 METAR LRCK 230330Z 34015KT CAVOK 21/16 Q1019 NOSIG=
201908230400 METAR LRCK 230400Z 35015KT CAVOK 21/16 Q1020 NOSIG=
201908230430 METAR LRCK 230430Z 35015KT CAVOK 21/16 Q1020 NOSIG=
201908230500 METAR LRCK 230500Z 35015KT CAVOK 22/16 Q1020 NOSIG=
201908230530 METAR LRCK 230530Z 35016KT CAVOK 24/16 Q1020 NOSIG=
201908230600 METAR LRCK 230600Z 35016KT CAVOK 25/16 Q1020 NOSIG=
201908230630 METAR LRCK 230630Z 35015KT CAVOK 26/16 Q1020 NOSIG=
201908230700 METAR LRCK 230700Z 36014KT CAVOK 27/16 Q1020 NOSIG=
201908230730 METAR LRCK 230730Z 36012KT CAVOK 28/16 Q1020 NOSIG=
201908230800 METAR LRCK 230800Z 02010KT CAVOK 29/16 Q1020 NOSIG=
201908230830 METAR LRCK 230830Z 03011KT CAVOK 30/15 Q1020 NOSIG=
201908230900 METAR LRCK 230900Z 02012KT CAVOK 31/15 Q1020 NOSIG=
201908230930 METAR LRCK 230930Z 02014KT 350V050 CAVOK 32/15 Q1020 NOSIG=
201908231000 METAR LRCK 231000Z 02014KT CAVOK 32/15 Q1020 NOSIG=
201908231030 METAR LRCK 231030Z 01014KT CAVOK 33/14 Q1020 NOSIG=
201908231100 METAR LRCK 231100Z 02015KT CAVOK 34/15 Q1020 NOSIG=
201908231130 METAR LRCK 231130Z 02013KT CAVOK 34/15 Q1020 NOSIG=
201908231200 METAR LRCK 231200Z 03014KT CAVOK 33/15 Q1019 NOSIG=
201908231230 METAR LRCK 231230Z 04016KT CAVOK 33/16 Q1019 NOSIG=
201908231300 METAR LRCK 231300Z 03012KT CAVOK 34/17 Q1019 NOSIG=
201908231330 METAR LRCK 231330Z 04015KT CAVOK 33/16 Q1019 NOSIG=
201908231400 METAR LRCK 231400Z 05015KT CAVOK 33/16 Q1019 NOSIG=
201908231430 METAR LRCK 231430Z 05014KT CAVOK 33/16 Q1019 NOSIG=
201908231500 METAR LRCK 231500Z 06015KT CAVOK 32/18 Q1019 NOSIG=
201908231530 METAR LRCK 231530Z 07012KT CAVOK 30/19 Q1019 NOSIG=
201908231600 METAR LRCK 231600Z 08011KT CAVOK 29/19 Q1019 NOSIG=
201908231630 METAR LRCK 231630Z 08008KT CAVOK 28/19 Q1019 NOSIG=
201908231700 METAR LRCK 231700Z 08006KT CAVOK 27/18 Q1020 NOSIG=
201908231730 METAR LRCK 231730Z 05003KT CAVOK 26/18 Q1020 NOSIG=
201908231800 METAR LRCK 231800Z 07003KT CAVOK 26/17 Q1020 NOSIG=
201908231830 METAR LRCK 231830Z VRB02KT CAVOK 24/18 Q1020 NOSIG=
201908231900 METAR LRCK 231900Z 01005KT CAVOK 25/18 Q1020 NOSIG=
201908231930 METAR LRCK 231930Z 32005KT CAVOK 24/18 Q1020 NOSIG=
201908232000 METAR LRCK 232000Z 32006KT CAVOK 25/18 Q1020 NOSIG=
201908232030 METAR LRCK 232030Z 32005KT CAVOK 24/17 Q1020 NOSIG=
201908232100 METAR LRCK 232100Z 34007KT CAVOK 25/15 Q1020 NOSIG=
201908232130 METAR LRCK 232130Z 34008KT CAVOK 25/15 Q1020 NOSIG=
201908232200 METAR LRCK 232200Z 34008KT CAVOK 25/15 Q1020 NOSIG=
201908232230 METAR LRCK 232230Z 35013KT CAVOK 25/15 Q1020 NOSIG=
201908232300 METAR LRCK 232300Z 35012KT CAVOK 25/15 Q1020 NOSIG=
201908232330 METAR LRCK 232330Z 36011KT CAVOK 25/15 Q1020 NOSIG=
201908240000 METAR LRCK 240000Z 35011KT CAVOK 24/15 Q1020 NOSIG=
201908240030 METAR LRCK 240030Z 35010KT CAVOK 23/15 Q1020 NOSIG=
201908240100 METAR LRCK 240100Z 35009KT CAVOK 24/15 Q1020 NOSIG=
201908240130 METAR LRCK 240130Z 36012KT CAVOK 24/15 Q1020 NOSIG=
201908240200 METAR LRCK 240200Z 36012KT CAVOK 24/16 Q1020 NOSIG=
201908240230 METAR LRCK 240230Z 36012KT CAVOK 24/16 Q1020 NOSIG=
201908240300 METAR LRCK 240300Z 36012KT CAVOK 24/16 Q1020 NOSIG=
201908240330 METAR LRCK 240330Z 01011KT CAVOK 24/16 Q1020 NOSIG=
201908240400 METAR LRCK 240400Z 36011KT CAVOK 24/16 Q1020 NOSIG=
201908240430 METAR LRCK 240430Z 36011KT CAVOK 24/16 Q1020 NOSIG=
201908240500 METAR LRCK 240500Z 01015KT CAVOK 25/16 Q1020 NOSIG=
201908240530 METAR LRCK 240530Z 36015KT CAVOK 26/17 Q1021 NOSIG=
201908240600 METAR LRCK 240600Z 36013KT CAVOK 27/17 Q1021 NOSIG=
201908240630 METAR LRCK 240630Z 01012KT CAVOK 28/17 Q1021 NOSIG=
201908240700 METAR LRCK 240700Z 02012KT CAVOK 28/17 Q1021 NOSIG=
201908240730 METAR LRCK 240730Z 01013KT CAVOK 29/17 Q1021 NOSIG=
201908240800 METAR LRCK 240800Z 01014KT CAVOK 30/17 Q1020 NOSIG=
201908240830 METAR LRCK 240830Z 01012KT 350V050 CAVOK 31/17 Q1020 NOSIG=
201908240900 METAR LRCK 240900Z 02012KT CAVOK 32/16 Q1020 NOSIG=
201908240930 METAR LRCK 240930Z 04014KT CAVOK 32/16 Q1020 NOSIG=
201908241000 METAR LRCK 241000Z 03013KT 360V060 CAVOK 32/16 Q1020 NOSIG=
201908241030 METAR LRCK 241030Z 05014KT CAVOK 33/15 Q1020 NOSIG=
201908241100 METAR LRCK 241100Z 04014KT CAVOK 33/15 Q1020 NOSIG=
201908241130 METAR LRCK 241130Z 05014KT CAVOK 33/15 Q1020 NOSIG=
201908241200 METAR LRCK 241200Z 06014KT CAVOK 33/15 Q1020 NOSIG=
201908241230 METAR LRCK 241230Z 06014KT CAVOK 33/15 Q1020 NOSIG=
201908241300 METAR LRCK 241300Z 06014KT CAVOK 33/16 Q1020 NOSIG=
201908241330 METAR LRCK 241330Z 05014KT CAVOK 33/17 Q1020 NOSIG=
201908241400 METAR LRCK 241400Z 08014KT CAVOK 31/18 Q1020 NOSIG=
201908241430 METAR LRCK 241430Z 08014KT CAVOK 31/18 Q1020 NOSIG=
201908241500 METAR LRCK 241500Z 07013KT CAVOK 30/18 Q1020 NOSIG=
201908241530 METAR LRCK 241530Z 07012KT CAVOK 29/18 Q1020 NOSIG=
201908241600 METAR LRCK 241600Z 08009KT CAVOK 29/18 Q1020 NOSIG=
201908241630 METAR LRCK 241630Z 08007KT CAVOK 28/18 Q1020 NOSIG=
201908241700 METAR LRCK 241700Z 07005KT CAVOK 27/18 Q1020 NOSIG=
201908241730 METAR LRCK 241730Z 03002KT CAVOK 26/17 Q1020 NOSIG=
201908241800 METAR LRCK 241800Z 03003KT CAVOK 25/17 Q1020 NOSIG=
201908241830 METAR LRCK 241830Z 35003KT CAVOK 25/17 Q1020 NOSIG=
201908241900 METAR LRCK 241900Z 33004KT CAVOK 24/17 Q1019 NOSIG=
201908241930 METAR LRCK 241930Z 33004KT CAVOK 24/16 Q1019 NOSIG=
201908242000 METAR LRCK 242000Z 32006KT CAVOK 24/16 Q1019 NOSIG=
201908242030 METAR LRCK 242030Z 32007KT CAVOK 24/16 Q1019 NOSIG=
201908242100 METAR LRCK 242100Z 33006KT CAVOK 24/15 Q1019 NOSIG=
201908242130 METAR LRCK 242130Z 33007KT CAVOK 24/15 Q1019 NOSIG=
201908242200 METAR LRCK 242200Z 32010KT CAVOK 24/15 Q1019 NOSIG=
201908242230 METAR LRCK 242230Z 32009KT CAVOK 24/16 Q1019 NOSIG=
201908242300 METAR COR LRCK 242300Z 32009KT CAVOK 24/16 Q1018 NOSIG=
201908242330 METAR LRCK 242330Z 32009KT CAVOK 24/16 Q1018 NOSIG=
201908250000 METAR COR LRCK 250000Z 32009KT CAVOK 24/16 Q1018 NOSIG=
201908250030 METAR LRCK 250030Z 33009KT CAVOK 24/16 Q1018 NOSIG=
201908250100 METAR LRCK 250100Z 33008KT CAVOK 24/16 Q1018 NOSIG=
201908250130 METAR LRCK 250130Z 34008KT CAVOK 24/16 Q1018 NOSIG=
201908250200 METAR COR LRCK 250200Z 35010KT CAVOK 23/16 Q1018 NOSIG=
201908250230 METAR LRCK 250230Z 36011KT CAVOK 24/15 Q1018 NOSIG=
201908250300 METAR LRCK 250300Z 01010KT CAVOK 24/15 Q1018 NOSIG=
201908250330 METAR LRCK 250330Z 02012KT CAVOK 24/16 Q1018 NOSIG=
201908250400 METAR LRCK 250400Z 02013KT CAVOK 24/16 Q1018 NOSIG=
201908250430 METAR LRCK 250430Z 02013KT CAVOK 25/16 Q1018 NOSIG=
201908250500 METAR LRCK 250500Z 02012KT CAVOK 26/17 Q1018 NOSIG=
201908250530 METAR LRCK 250530Z 02014KT CAVOK 27/17 Q1018 NOSIG=
201908250600 METAR LRCK 250600Z 03015KT CAVOK 28/18 Q1018 NOSIG=
201908250630 METAR LRCK 250630Z 03015KT CAVOK 28/18 Q1019 NOSIG=
201908250700 METAR LRCK 250700Z 03017KT CAVOK 29/19 Q1019 NOSIG=
201908250730 METAR LRCK 250730Z 05017KT CAVOK 29/20 Q1019 NOSIG=
201908250800 METAR LRCK 250800Z 06017KT CAVOK 30/20 Q1019 NOSIG=
201908250830 METAR LRCK 250830Z 06018KT CAVOK 31/18 Q1019 NOSIG=
201908250900 METAR LRCK 250900Z 07019KT CAVOK 31/19 Q1019 NOSIG=
201908250930 METAR LRCK 250930Z 07017KT 9999 FEW048 31/19 Q1019 NOSIG=
201908251000 METAR LRCK 251000Z 07017KT 9999 FEW048 31/20 Q1019 NOSIG=
201908251030 METAR LRCK 251030Z 07018KT 9999 FEW048 31/20 Q1019 NOSIG=
201908251100 METAR LRCK 251100Z 07019KT CAVOK 31/20 Q1019 NOSIG=
201908251130 METAR LRCK 251130Z 07019KT CAVOK 31/20 Q1019 NOSIG=
201908251200 METAR LRCK 251200Z 07019KT CAVOK 32/20 Q1019 NOSIG=
201908251230 METAR LRCK 251230Z 07019KT CAVOK 31/18 Q1019 NOSIG=
201908251300 METAR LRCK 251300Z 07018KT CAVOK 31/18 Q1019 NOSIG=
201908251330 METAR LRCK 251330Z 08020KT CAVOK 30/18 Q1019 NOSIG=
201908251400 METAR LRCK 251400Z 07018KT CAVOK 30/18 Q1019 NOSIG=
201908251430 METAR LRCK 251430Z 07017KT CAVOK 29/18 Q1019 NOSIG=
201908251500 METAR LRCK 251500Z 07018KT CAVOK 29/18 Q1019 NOSIG=
201908251530 METAR LRCK 251530Z 07015KT CAVOK 28/18 Q1019 NOSIG=
201908251600 METAR LRCK 251600Z 06012KT CAVOK 28/18 Q1019 NOSIG=
201908251630 METAR LRCK 251630Z 06011KT CAVOK 27/19 Q1019 NOSIG=
201908251700 METAR LRCK 251700Z 06010KT CAVOK 26/19 Q1019 NOSIG=
201908251730 METAR LRCK 251730Z 05009KT CAVOK 26/18 Q1020 NOSIG=
201908251800 METAR LRCK 251800Z 05008KT CAVOK 25/19 Q1020 NOSIG=
201908251830 METAR LRCK 251830Z 05007KT CAVOK 25/19 Q1020 NOSIG=
201908251900 METAR LRCK 251900Z 04007KT CAVOK 25/19 Q1020 NOSIG=
201908251930 METAR LRCK 251930Z 03007KT CAVOK 25/18 Q1020 NOSIG=
201908252000 METAR LRCK 252000Z 03007KT CAVOK 25/17 Q1020 NOSIG=
201908252030 METAR LRCK 252030Z 02007KT CAVOK 25/17 Q1020 NOSIG=
201908252100 METAR LRCK 252100Z 03007KT CAVOK 25/17 Q1020 NOSIG=
201908252130 METAR LRCK 252130Z 03007KT CAVOK 25/16 Q1020 NOSIG=
201908252200 METAR LRCK 252200Z 03008KT CAVOK 25/16 Q1020 NOSIG=
201908252230 METAR LRCK 252230Z 02008KT CAVOK 24/16 Q1020 NOSIG=
201908252300 METAR LRCK 252300Z 02008KT CAVOK 24/15 Q1020 NOSIG=
201908252330 METAR LRCK 252330Z 02012KT CAVOK 25/15 Q1020 NOSIG=
201908260000 METAR LRCK 260000Z 01012KT CAVOK 25/15 Q1020 NOSIG=
201908260030 METAR LRCK 260030Z 01011KT CAVOK 25/15 Q1020 NOSIG=
201908260100 METAR LRCK 260100Z 02012KT CAVOK 25/15 Q1020 NOSIG=
201908260130 METAR LRCK 260130Z 02014KT CAVOK 24/15 Q1020 NOSIG=
201908260200 METAR LRCK 260200Z 01012KT CAVOK 24/15 Q1020 NOSIG=
201908260230 METAR LRCK 260230Z 01010KT CAVOK 23/15 Q1020 NOSIG=
201908260300 METAR LRCK 260300Z 02012KT CAVOK 24/15 Q1020 NOSIG=
201908260330 METAR LRCK 260330Z 02010KT CAVOK 23/16 Q1020 NOSIG=
201908260400 METAR LRCK 260400Z 02010KT CAVOK 23/16 Q1020 NOSIG=
201908260430 METAR LRCK 260430Z 02012KT CAVOK 24/16 Q1020 NOSIG=
201908260500 METAR LRCK 260500Z 03012KT CAVOK 25/17 Q1020 NOSIG=
201908260530 METAR LRCK 260530Z 03012KT CAVOK 25/17 Q1020 NOSIG=
201908260600 METAR LRCK 260600Z 05013KT CAVOK 27/18 Q1021 NOSIG=
201908260630 METAR LRCK 260630Z 05011KT CAVOK 28/18 Q1021 NOSIG=
201908260700 METAR LRCK 260700Z 05011KT CAVOK 29/18 Q1021 NOSIG=
201908260730 METAR LRCK 260730Z 07012KT CAVOK 29/16 Q1021 NOSIG=
201908260800 METAR LRCK 260800Z 07013KT CAVOK 30/15 Q1021 NOSIG=
201908260830 METAR LRCK 260830Z 07013KT CAVOK 31/15 Q1021 NOSIG=
201908260900 METAR LRCK 260900Z 07011KT CAVOK 32/16 Q1021 NOSIG=
201908260930 METAR LRCK 260930Z 07011KT CAVOK 32/16 Q1021 NOSIG=
201908261000 METAR LRCK 261000Z 07014KT CAVOK 32/13 Q1021 NOSIG=
201908261030 METAR LRCK 261030Z 07015KT CAVOK 32/11 Q1021 NOSIG=
201908261100 METAR LRCK 261100Z 07016KT CAVOK 32/12 Q1021 NOSIG=
201908261130 METAR LRCK 261130Z 07016KT CAVOK 32/11 Q1021 NOSIG=
201908261200 METAR LRCK 261200Z 07016KT CAVOK 32/10 Q1021 NOSIG=
201908261230 METAR LRCK 261230Z 07016KT CAVOK 32/12 Q1021 NOSIG=
201908261300 METAR LRCK 261300Z 08015KT CAVOK 32/12 Q1021 NOSIG=
201908261330 METAR LRCK 261330Z 07015KT CAVOK 31/11 Q1020 NOSIG=
201908261400 METAR LRCK 261400Z 07015KT CAVOK 31/12 Q1020 NOSIG=
201908261430 METAR LRCK 261430Z 07014KT CAVOK 30/14 Q1020 NOSIG=
201908261500 METAR LRCK 261500Z 07013KT CAVOK 29/16 Q1020 NOSIG=
201908261530 METAR LRCK 261530Z 07014KT CAVOK 29/17 Q1020 NOSIG=
201908261600 METAR LRCK 261600Z 07012KT CAVOK 27/18 Q1020 NOSIG=
201908261630 METAR LRCK 261630Z 06008KT CAVOK 27/17 Q1020 NOSIG=
201908261700 METAR LRCK 261700Z 06006KT CAVOK 26/17 Q1020 NOSIG=
201908261730 METAR LRCK 261730Z 05007KT CAVOK 25/15 Q1020 NOSIG=
201908261800 METAR LRCK 261800Z 04006KT CAVOK 25/16 Q1020 NOSIG=
201908261830 METAR LRCK 261830Z 04006KT CAVOK 24/16 Q1020 NOSIG=
201908261900 METAR LRCK 261900Z 03006KT CAVOK 23/17 Q1020 NOSIG=
201908261930 METAR LRCK 261930Z 03007KT CAVOK 23/16 Q1020 NOSIG=
201908262000 METAR LRCK 262000Z 04004KT CAVOK 22/15 Q1020 NOSIG=
201908262030 METAR LRCK 262030Z 03004KT CAVOK 21/15 Q1020 NOSIG=
201908262100 METAR LRCK 262100Z 03005KT CAVOK 22/15 Q1020 NOSIG=
201908262130 METAR LRCK 262130Z 03004KT CAVOK 22/14 Q1020 NOSIG=
201908262200 METAR LRCK 262200Z 03005KT CAVOK 22/14 Q1020 NOSIG=
201908262230 METAR LRCK 262230Z 01005KT CAVOK 21/14 Q1020 NOSIG=
201908262300 METAR LRCK 262300Z 34004KT CAVOK 21/14 Q1020 NOSIG=
201908262330 METAR LRCK 262330Z 35003KT CAVOK 21/13 Q1020 NOSIG=
201908270000 METAR LRCK 270000Z 36008KT CAVOK 21/13 Q1019 NOSIG=
201908270030 METAR LRCK 270030Z 01008KT CAVOK 21/12 Q1019 NOSIG=
201908270100 METAR LRCK 270100Z 01007KT CAVOK 20/12 Q1019 NOSIG=
201908270130 METAR LRCK 270130Z 01008KT CAVOK 22/12 Q1019 NOSIG=
201908270200 METAR LRCK 270200Z 35008KT CAVOK 20/12 Q1019 NOSIG=
201908270230 METAR LRCK 270230Z 35007KT CAVOK 20/12 Q1019 NOSIG=
201908270300 METAR LRCK 270300Z 34004KT CAVOK 20/12 Q1019 NOSIG=
201908270330 METAR LRCK 270330Z 34006KT CAVOK 20/12 Q1020 NOSIG=
201908270400 METAR LRCK 270400Z 34008KT CAVOK 21/13 Q1020 NOSIG=
201908270430 METAR LRCK 270430Z 35009KT CAVOK 23/14 Q1020 NOSIG=
201908270500 METAR LRCK 270500Z 34007KT CAVOK 24/15 Q1020 NOSIG=
201908270530 METAR LRCK 270530Z 01009KT CAVOK 25/16 Q1020 NOSIG=
201908270600 METAR LRCK 270600Z 02011KT CAVOK 26/17 Q1020 NOSIG=
201908270630 METAR LRCK 270630Z 03009KT CAVOK 27/18 Q1020 NOSIG=
201908270700 METAR LRCK 270700Z 05012KT CAVOK 28/19 Q1020 NOSIG=
201908270730 METAR LRCK 270730Z 06012KT CAVOK 28/20 Q1021 NOSIG=
201908270800 METAR LRCK 270800Z 06011KT CAVOK 29/20 Q1021 NOSIG=
201908270830 METAR LRCK 270830Z 08010KT CAVOK 30/18 Q1021 NOSIG=
201908270900 METAR LRCK 270900Z 07010KT CAVOK 30/16 Q1021 NOSIG=
201908270930 METAR LRCK 270930Z 08010KT CAVOK 31/15 Q1021 NOSIG=
201908271000 METAR LRCK 271000Z 08010KT CAVOK 31/14 Q1021 NOSIG=
201908271030 METAR LRCK 271030Z 09010KT CAVOK 32/13 Q1021 NOSIG=
201908271100 METAR LRCK 271100Z 09010KT 9999 FEW045 32/12 Q1021 NOSIG=
201908271130 METAR LRCK 271130Z 10013KT 9999 FEW045 32/11 Q1021 NOSIG=
201908271200 METAR LRCK 271200Z 08012KT 050V110 9999 FEW048 32/13 Q1021
                        NOSIG=
201908271230 METAR LRCK 271230Z 08013KT 9999 FEW048 32/13 Q1020 NOSIG=
201908271300 METAR LRCK 271300Z 09011KT 050V110 CAVOK 31/15 Q1020 NOSIG=
201908271330 METAR LRCK 271330Z 09013KT CAVOK 31/15 Q1020 NOSIG=
201908271400 METAR LRCK 271400Z 09012KT CAVOK 30/14 Q1020 NOSIG=
201908271430 METAR LRCK 271430Z 10010KT CAVOK 30/13 Q1020 NOSIG=
201908271500 METAR LRCK 271500Z 10010KT CAVOK 29/14 Q1020 NOSIG=
201908271530 METAR LRCK 271530Z 09009KT CAVOK 28/16 Q1020 NOSIG=
201908271600 METAR LRCK 271600Z 11007KT CAVOK 28/17 Q1020 NOSIG=
201908271630 METAR LRCK 271630Z 10008KT CAVOK 26/19 Q1020 NOSIG=
201908271700 METAR LRCK 271700Z 09008KT CAVOK 25/21 Q1020 NOSIG=
201908271730 METAR LRCK 271730Z 09007KT CAVOK 24/21 Q1020 NOSIG=
201908271800 METAR LRCK 271800Z 09004KT CAVOK 24/21 Q1020 NOSIG=
201908271830 METAR LRCK 271830Z 09003KT CAVOK 23/20 Q1021 NOSIG=
201908271900 METAR LRCK 271900Z 01001KT CAVOK 22/21 Q1021 NOSIG=
201908271930 METAR LRCK 271930Z VRB01KT 9999 MIFG NSC 22/21 Q1021 NOSIG=
201908272000 METAR LRCK 272000Z 00000KT 9999 MIFG NSC 21/21 Q1021 NOSIG=
201908272030 METAR LRCK 272030Z 00000KT CAVOK 21/21 Q1021 NOSIG=
201908272100 METAR LRCK 272100Z 00000KT CAVOK 21/20 Q1021 NOSIG=
201908272130 METAR LRCK 272130Z 00000KT CAVOK 20/20 Q1021 NOSIG=
201908272200 METAR LRCK 272200Z 00000KT CAVOK 20/19 Q1021 NOSIG=
201908272230 METAR LRCK 272230Z 00000KT CAVOK 19/19 Q1021 NOSIG=
201908272300 METAR LRCK 272300Z 00000KT CAVOK 19/19 Q1021 NOSIG=
201908272330 METAR LRCK 272330Z 32005KT CAVOK 19/19 Q1021 NOSIG=
201908280000 METAR LRCK 280000Z 33004KT CAVOK 19/18 Q1020 NOSIG=
201908280030 METAR LRCK 280030Z 33004KT CAVOK 19/18 Q1020 NOSIG=
201908280100 METAR LRCK 280100Z 33004KT CAVOK 19/17 Q1020 NOSIG=
201908280130 METAR LRCK 280130Z 33005KT CAVOK 19/17 Q1020 NOSIG=
201908280200 METAR LRCK 280200Z 34005KT CAVOK 18/16 Q1020 NOSIG=
201908280230 METAR LRCK 280230Z 34006KT CAVOK 18/15 Q1021 NOSIG=
201908280300 METAR LRCK 280300Z 36008KT CAVOK 19/15 Q1021 NOSIG=
201908280330 METAR LRCK 280330Z 01007KT CAVOK 18/14 Q1021 NOSIG=
201908280400 METAR LRCK 280400Z 03006KT CAVOK 19/14 Q1021 NOSIG=
201908280430 METAR LRCK 280430Z 36006KT CAVOK 20/14 Q1021 BECMG 09016KT=
201908280500 METAR LRCK 280500Z 34005KT CAVOK 22/14 Q1021 BECMG 09014KT=
201908280530 METAR LRCK 280530Z 35007KT CAVOK 24/14 Q1021 BECMG 09014KT=
201908280600 METAR LRCK 280600Z 36009KT CAVOK 27/13 Q1021 NOSIG=
201908280630 METAR LRCK 280630Z 02009KT CAVOK 28/13 Q1021 NOSIG=
201908280700 METAR LRCK 280700Z 02009KT CAVOK 29/13 Q1021 NOSIG=
201908280730 METAR LRCK 280730Z 03009KT CAVOK 30/13 Q1021 NOSIG=
201908280800 METAR LRCK 280800Z 04011KT CAVOK 30/13 Q1021 NOSIG=
201908280830 METAR LRCK 280830Z 03012KT CAVOK 31/12 Q1021 NOSIG=
201908280900 METAR LRCK 280900Z 04013KT CAVOK 31/11 Q1021 NOSIG=
201908280930 METAR LRCK 280930Z 04014KT CAVOK 32/11 Q1020 NOSIG=
201908281000 METAR LRCK 281000Z 04014KT CAVOK 32/10 Q1020 NOSIG=
201908281030 METAR LRCK 281030Z 04015KT CAVOK 32/11 Q1020 NOSIG=
201908281100 METAR LRCK 281100Z 03014KT CAVOK 32/10 Q1020 NOSIG=
201908281130 METAR LRCK 281130Z 04016KT CAVOK 31/10 Q1020 NOSIG=
201908281200 METAR LRCK 281200Z 07014KT CAVOK 30/18 Q1020 NOSIG=
201908281230 METAR LRCK 281230Z 07016KT CAVOK 30/18 Q1020 NOSIG=
201908281300 METAR LRCK 281300Z 07016KT CAVOK 30/19 Q1020 NOSIG=
201908281330 METAR LRCK 281330Z 08015KT CAVOK 30/18 Q1020 NOSIG=
201908281400 METAR LRCK 281400Z 08015KT CAVOK 28/17 Q1019 NOSIG=
201908281430 METAR LRCK 281430Z 08015KT CAVOK 29/16 Q1019 NOSIG=
201908281500 METAR LRCK 281500Z 10013KT CAVOK 28/16 Q1020 NOSIG=
201908281530 METAR LRCK 281530Z 10011KT CAVOK 27/17 Q1020 NOSIG=
201908281600 METAR LRCK 281600Z 09010KT CAVOK 26/18 Q1019 NOSIG=
201908281630 METAR LRCK 281630Z 10009KT CAVOK 25/18 Q1020 NOSIG=
201908281700 METAR LRCK 281700Z 10006KT CAVOK 24/18 Q1020 NOSIG=
201908281730 METAR LRCK 281730Z 08005KT CAVOK 23/18 Q1020 NOSIG=
201908281800 METAR LRCK 281800Z 09007KT CAVOK 22/19 Q1020 NOSIG=
201908281830 METAR LRCK 281830Z 08005KT CAVOK 22/18 Q1020 NOSIG=
201908281900 METAR LRCK 281900Z 08004KT CAVOK 21/18 Q1020 NOSIG=
201908281930 METAR LRCK 281930Z 06003KT CAVOK 21/19 Q1020 NOSIG=
201908282000 METAR LRCK 282000Z 06004KT CAVOK 21/19 Q1020 NOSIG=
201908282030 METAR LRCK 282030Z 07002KT CAVOK 20/18 Q1020 NOSIG=
201908282100 METAR LRCK 282100Z 31001KT CAVOK 19/18 Q1020 NOSIG=
201908282130 METAR LRCK 282130Z 34003KT CAVOK 19/18 Q1019 NOSIG=
201908282200 METAR COR LRCK 282200Z 35004KT CAVOK 19/17 Q1020 NOSIG=
201908282230 METAR LRCK 282230Z 36004KT CAVOK 19/17 Q1019 NOSIG=
201908282300 METAR LRCK 282300Z 34003KT CAVOK 19/17 Q1019 NOSIG=
201908282330 METAR COR LRCK 282330Z 01004KT CAVOK 19/18 Q1019 NOSIG=
201908290000 METAR LRCK 290000Z 03004KT CAVOK 19/18 Q1019 NOSIG=
201908290030 METAR LRCK 290030Z 36004KT CAVOK 18/17 Q1019 NOSIG=
201908290100 METAR LRCK 290100Z 36004KT CAVOK 18/17 Q1019 NOSIG=
201908290130 METAR LRCK 290130Z 33004KT CAVOK 18/17 Q1019 NOSIG=
201908290200 METAR LRCK 290200Z 32005KT CAVOK 17/17 Q1019 NOSIG=
201908290230 METAR COR LRCK 290230Z 32006KT CAVOK 17/17 Q1019 NOSIG=
201908290300 METAR LRCK 290300Z 32006KT CAVOK 17/17 Q1019 NOSIG=
201908290330 METAR LRCK 290330Z 32006KT CAVOK 17/17 Q1019 NOSIG=
201908290400 METAR LRCK 290400Z 31006KT CAVOK 18/17 Q1020 NOSIG=
201908290430 METAR LRCK 290430Z 31006KT CAVOK 19/18 Q1020 NOSIG=
201908290500 METAR LRCK 290500Z 33005KT CAVOK 20/16 Q1020 NOSIG=
201908290530 METAR LRCK 290530Z 36006KT CAVOK 22/15 Q1020 NOSIG=
201908290600 METAR LRCK 290600Z 03007KT CAVOK 24/15 Q1020 NOSIG=
201908290630 METAR LRCK 290630Z 04007KT CAVOK 26/13 Q1019 NOSIG=
201908290700 METAR LRCK 290700Z 03007KT CAVOK 27/13 Q1020 NOSIG=
201908290730 METAR LRCK 290730Z 04005KT 350V080 CAVOK 28/11 Q1019 NOSIG=
201908290800 METAR LRCK 290800Z 05006KT 010V080 CAVOK 29/10 Q1019 NOSIG=
201908290830 METAR LRCK 290830Z 06007KT CAVOK 29/11 Q1019 NOSIG=
201908290900 METAR LRCK 290900Z 08008KT CAVOK 30/11 Q1019 NOSIG=
201908290930 METAR LRCK 290930Z 07009KT 040V100 CAVOK 30/11 Q1019 NOSIG=
201908291000 METAR LRCK 291000Z 06009KT 030V090 CAVOK 31/11 Q1019 NOSIG=
201908291030 METAR LRCK 291030Z 07008KT CAVOK 31/11 Q1019 NOSIG=
201908291100 METAR LRCK 291100Z 08010KT 050V110 CAVOK 31/11 Q1019 NOSIG=
201908291130 METAR LRCK 291130Z 07012KT 030V100 CAVOK 32/12 Q1019 NOSIG=
201908291200 METAR LRCK 291200Z 09011KT 060V120 CAVOK 31/12 Q1019 NOSIG=
201908291230 METAR LRCK 291230Z 10012KT CAVOK 31/12 Q1019 NOSIG=
201908291300 METAR LRCK 291300Z 11011KT CAVOK 30/12 Q1019 NOSIG=
201908291330 METAR LRCK 291330Z 12010KT CAVOK 29/12 Q1018 NOSIG=
201908291400 METAR LRCK 291400Z 10010KT CAVOK 29/13 Q1018 NOSIG=
201908291430 METAR LRCK 291430Z 09009KT CAVOK 29/14 Q1018 NOSIG=
201908291500 METAR LRCK 291500Z 11008KT CAVOK 29/13 Q1018 NOSIG=
201908291530 METAR LRCK 291530Z 10007KT CAVOK 28/14 Q1018 NOSIG=
201908291600 METAR LRCK 291600Z 10007KT CAVOK 27/13 Q1018 NOSIG=
201908291630 METAR LRCK 291630Z 11006KT CAVOK 26/14 Q1018 NOSIG=
201908291700 METAR LRCK 291700Z 11005KT CAVOK 25/15 Q1018 NOSIG=
201908291730 METAR LRCK 291730Z 10003KT CAVOK 23/14 Q1018 NOSIG=
201908291800 METAR LRCK 291800Z 07004KT CAVOK 23/15 Q1018 NOSIG=
201908291830 METAR LRCK 291830Z 06004KT CAVOK 22/16 Q1018 NOSIG=
201908291900 METAR LRCK 291900Z 05004KT CAVOK 22/16 Q1018 NOSIG=
201908291930 METAR LRCK 291930Z 03003KT CAVOK 22/17 Q1018 NOSIG=
201908292000 METAR LRCK 292000Z 02004KT CAVOK 22/17 Q1018 NOSIG=
201908292030 METAR LRCK 292030Z 03003KT CAVOK 21/17 Q1018 NOSIG=
201908292100 METAR LRCK 292100Z 03005KT CAVOK 22/18 Q1018 NOSIG=
201908292130 METAR LRCK 292130Z 04006KT CAVOK 22/18 Q1019 NOSIG=
201908292200 METAR LRCK 292200Z 04004KT CAVOK 22/19 Q1019 NOSIG=
201908292230 METAR LRCK 292230Z VRB02KT CAVOK 22/20 Q1018 NOSIG=
201908292300 METAR LRCK 292300Z 04002KT CAVOK 21/19 Q1019 NOSIG=
201908292330 METAR LRCK 292330Z 04002KT CAVOK 21/19 Q1018 NOSIG=
201908300000 METAR LRCK 300000Z VRB03KT CAVOK 21/19 Q1018 NOSIG=
201908300030 METAR LRCK 300030Z 03004KT CAVOK 21/19 Q1018 NOSIG=
201908300100 METAR LRCK 300100Z 36006KT CAVOK 20/19 Q1018 NOSIG=
201908300130 METAR LRCK 300130Z 33004KT CAVOK 20/19 Q1018 NOSIG=
201908300200 METAR LRCK 300200Z 36008KT CAVOK 20/20 Q1018 NOSIG=
201908300230 METAR LRCK 300230Z 36008KT CAVOK 20/19 Q1018 NOSIG=
201908300300 METAR LRCK 300300Z 36008KT CAVOK 20/19 Q1018 NOSIG=
201908300330 METAR LRCK 300330Z 35007KT CAVOK 20/19 Q1019 NOSIG=
201908300400 METAR LRCK 300400Z 36008KT CAVOK 20/19 Q1019 NOSIG=
201908300430 METAR LRCK 300430Z 01006KT 9999 FEW026 21/19 Q1019 NOSIG=
201908300500 METAR LRCK 300500Z 01008KT CAVOK 23/19 Q1019 NOSIG=
201908300530 METAR LRCK 300530Z 03009KT CAVOK 24/18 Q1019 NOSIG=
201908300600 METAR LRCK 300600Z 04009KT CAVOK 24/16 Q1019 NOSIG=
201908300630 METAR LRCK 300630Z 05009KT 020V080 CAVOK 26/14 Q1019 NOSIG=
201908300700 METAR LRCK 300700Z 08009KT CAVOK 26/13 Q1020 NOSIG=
201908300730 METAR LRCK 300730Z 08010KT 050V110 CAVOK 27/13 Q1020 NOSIG=
201908300800 METAR LRCK 300800Z 07009KT 040V100 CAVOK 27/14 Q1020 NOSIG=
201908300830 METAR LRCK 300830Z 08010KT CAVOK 27/14 Q1020 NOSIG=
201908300900 METAR LRCK 300900Z 08012KT CAVOK 27/14 Q1020 NOSIG=
201908300930 METAR LRCK 300930Z 08012KT CAVOK 27/15 Q1020 NOSIG=
201908301000 METAR LRCK 301000Z 08011KT CAVOK 28/16 Q1020 NOSIG=
201908301030 METAR LRCK 301030Z 10012KT 9999 FEW048 28/15 Q1020 NOSIG=
201908301100 METAR LRCK 301100Z 09012KT 9999 FEW048 28/16 Q1020 NOSIG=
201908301130 METAR LRCK 301130Z 08013KT 9999 FEW045 27/15 Q1020 NOSIG=
201908301200 METAR LRCK 301200Z 09014KT 9999 FEW048 27/15 Q1020 NOSIG=
201908301230 METAR LRCK 301230Z 08012KT 9999 FEW049 27/14 Q1020 NOSIG=
201908301300 METAR LRCK 301300Z 09013KT CAVOK 27/13 Q1019 NOSIG=
201908301330 METAR LRCK 301330Z 09012KT CAVOK 27/13 Q1019 NOSIG=
201908301400 METAR LRCK 301400Z 08013KT 050V110 CAVOK 26/13 Q1019 NOSIG=
201908301430 METAR LRCK 301430Z 08012KT CAVOK 26/12 Q1019 NOSIG=
201908301500 METAR LRCK 301500Z 08012KT CAVOK 25/12 Q1019 NOSIG=
201908301530 METAR LRCK 301530Z 08012KT CAVOK 25/12 Q1019 NOSIG=
201908301600 METAR LRCK 301600Z 08012KT CAVOK 25/12 Q1019 NOSIG=
201908301630 METAR LRCK 301630Z 08010KT CAVOK 23/12 Q1019 NOSIG=
201908301700 METAR LRCK 301700Z 08010KT CAVOK 23/12 Q1019 NOSIG=
201908301730 METAR LRCK 301730Z 07006KT CAVOK 22/11 Q1019 NOSIG=
201908301800 METAR LRCK 301800Z 06006KT CAVOK 21/11 Q1019 NOSIG=
201908301830 METAR LRCK 301830Z 05007KT CAVOK 21/11 Q1019 NOSIG=
201908301900 METAR LRCK 301900Z 02005KT CAVOK 20/12 Q1019 NOSIG=
201908301930 METAR LRCK 301930Z 02006KT CAVOK 19/11 Q1019 NOSIG=
201908302000 METAR LRCK 302000Z 02007KT CAVOK 19/10 Q1019 NOSIG=
201908302030 METAR LRCK 302030Z 02007KT CAVOK 18/09 Q1019 NOSIG=
201908302100 METAR LRCK 302100Z 02007KT CAVOK 18/09 Q1019 NOSIG=
201908302130 METAR LRCK 302130Z 02007KT CAVOK 18/09 Q1019 NOSIG=
201908302200 METAR LRCK 302200Z 02008KT CAVOK 18/10 Q1019 NOSIG=
201908302230 METAR LRCK 302230Z 02007KT CAVOK 17/10 Q1019 NOSIG=
201908302300 METAR LRCK 302300Z 01007KT CAVOK 17/11 Q1019 NOSIG=
201908302330 METAR LRCK 302330Z 36008KT CAVOK 16/11 Q1019 NOSIG=
201908310000 METAR LRCK 310000Z 34007KT CAVOK 16/11 Q1019 NOSIG=
201908310030 METAR LRCK 310030Z 33005KT CAVOK 16/11 Q1019 NOSIG=
201908310100 METAR LRCK 310100Z 32006KT CAVOK 16/11 Q1018 NOSIG=
201908310130 METAR COR LRCK 310130Z 32005KT CAVOK 16/10 Q1018 NOSIG=
201908310200 METAR LRCK 310200Z 31006KT CAVOK 16/10 Q1018 NOSIG=
201908310230 METAR COR LRCK 310230Z 31006KT CAVOK 15/10 Q1018 NOSIG=
201908310300 METAR LRCK 310300Z 31006KT CAVOK 15/10 Q1018 NOSIG=
201908310330 METAR LRCK 310330Z 33005KT CAVOK 15/10 Q1018 NOSIG=
201908310400 METAR LRCK 310400Z 34007KT CAVOK 16/09 Q1018 NOSIG=
201908310430 METAR LRCK 310430Z 34007KT CAVOK 18/09 Q1018 NOSIG=
201908310500 METAR LRCK 310500Z 36009KT CAVOK 20/09 Q1019 NOSIG=
201908310530 METAR LRCK 310530Z 01012KT CAVOK 22/08 Q1019 NOSIG=
201908310600 METAR LRCK 310600Z 01013KT CAVOK 24/07 Q1019 NOSIG=
201908310630 METAR LRCK 310630Z 03015KT CAVOK 25/07 Q1019 NOSIG=
201908310700 METAR LRCK 310700Z 02016KT CAVOK 26/07 Q1019 NOSIG=
201908310730 METAR LRCK 310730Z 03016KT CAVOK 26/08 Q1019 NOSIG=
201908310800 METAR LRCK 310800Z 04015KT CAVOK 26/08 Q1019 NOSIG=
201908310830 METAR LRCK 310830Z 04016KT CAVOK 28/08 Q1019 NOSIG=
201908310900 METAR LRCK 310900Z 04014KT CAVOK 28/10 Q1019 NOSIG=
201908310930 METAR LRCK 310930Z 06013KT CAVOK 28/10 Q1019 NOSIG=
201908311000 METAR LRCK 311000Z 05013KT CAVOK 28/10 Q1018 NOSIG=
201908311030 METAR LRCK 311030Z 05014KT CAVOK 28/12 Q1018 NOSIG=
201908311100 METAR LRCK 311100Z 05015KT CAVOK 28/12 Q1018 NOSIG=
201908311130 METAR LRCK 311130Z 04014KT CAVOK 28/12 Q1018 NOSIG=
201908311200 METAR LRCK 311200Z 03016KT CAVOK 29/12 Q1018 NOSIG=
201908311230 METAR LRCK 311230Z 03016KT CAVOK 29/12 Q1018 NOSIG=
201908311300 METAR LRCK 311300Z 04015KT CAVOK 28/12 Q1017 NOSIG=
201908311330 METAR LRCK 311330Z 04015KT 020V080 CAVOK 28/14 Q1017 NOSIG=
201908311400 METAR LRCK 311400Z 05014KT CAVOK 28/14 Q1017 NOSIG=
201908311430 METAR LRCK 311430Z 06013KT CAVOK 27/12 Q1017 NOSIG=
201908311500 METAR LRCK 311500Z 07015KT CAVOK 27/14 Q1017 NOSIG=
201908311530 METAR LRCK 311530Z 07013KT CAVOK 26/14 Q1017 NOSIG=
201908311600 METAR LRCK 311600Z 07012KT CAVOK 25/12 Q1017 NOSIG=
201908311630 METAR LRCK 311630Z 06010KT CAVOK 24/13 Q1017 NOSIG=
201908311700 METAR LRCK 311700Z 06007KT CAVOK 23/13 Q1017 NOSIG=
201908311730 METAR LRCK 311730Z 05007KT CAVOK 22/13 Q1017 NOSIG=
201908311800 METAR LRCK 311800Z 03006KT CAVOK 21/12 Q1017 NOSIG=
201908311830 METAR LRCK 311830Z 02007KT CAVOK 20/12 Q1017 NOSIG=
201908311900 METAR LRCK 311900Z 01007KT CAVOK 20/12 Q1017 NOSIG=
201908311930 METAR LRCK 311930Z 01007KT CAVOK 20/11 Q1017 NOSIG=
201908312000 METAR LRCK 312000Z 36006KT CAVOK 18/11 Q1016 NOSIG=
201908312030 METAR LRCK 312030Z 35008KT CAVOK 19/11 Q1016 NOSIG=
201908312100 METAR LRCK 312100Z 34007KT CAVOK 17/10 Q1016 NOSIG=
201908312130 METAR LRCK 312130Z 33005KT CAVOK 18/10 Q1016 NOSIG=
201908312200 METAR LRCK 312200Z 35008KT CAVOK 17/09 Q1016 NOSIG=
201908312230 METAR LRCK 312230Z 35008KT CAVOK 18/08 Q1016 NOSIG=
201908312300 METAR LRCK 312300Z 35008KT CAVOK 17/08 Q1016 NOSIG=
201908312330 METAR LRCK 312330Z 35009KT CAVOK 18/08 Q1015 NOSIG=