201909010000 METAR LRCK 010000Z 35009KT CAVOK 19/08 Q1015 NOSIG=
201909010030 METAR LRCK 010030Z 35009KT CAVOK 17/07 Q1015 NOSIG=
201909010100 METAR LRCK 010100Z 35009KT CAVOK 18/07 Q1015 NOSIG=
201909010130 METAR LRCK 010130Z 34008KT CAVOK 18/07 Q1015 NOSIG=
201909010200 METAR LRCK 010200Z 35009KT CAVOK 18/07 Q1015 NOSIG=
201909010230 METAR LRCK 010230Z 36008KT CAVOK 18/07 Q1015 NOSIG=
201909010300 METAR LRCK 010300Z 34008KT CAVOK 16/07 Q1015 NOSIG=
201909010330 METAR LRCK 010330Z 33005KT CAVOK 17/07 Q1015 NOSIG=
201909010400 METAR LRCK 010400Z 34006KT CAVOK 17/07 Q1015 NOSIG=
201909010430 METAR LRCK 010430Z 36007KT CAVOK 19/07 Q1015 NOSIG=
201909010500 METAR LRCK 010500Z 02003KT CAVOK 20/07 Q1015 NOSIG=
201909010530 METAR LRCK 010530Z 05003KT CAVOK 23/08 Q1015 NOSIG=
201909010600 METAR LRCK 010600Z 03006KT CAVOK 24/07 Q1015 NOSIG=
201909010630 METAR LRCK 010630Z 04012KT CAVOK 25/07 Q1015 NOSIG=
201909010700 METAR LRCK 010700Z 04014KT CAVOK 26/07 Q1015 NOSIG=
201909010730 METAR LRCK 010730Z 04014KT CAVOK 27/10 Q1015 NOSIG=
201909010800 METAR LRCK 010800Z 05016KT CAVOK 28/11 Q1015 NOSIG=
201909010830 METAR LRCK 010830Z 06015KT CAVOK 28/12 Q1015 NOSIG=
201909010900 METAR LRCK 010900Z 06013KT CAVOK 29/13 Q1015 NOSIG=
201909010930 METAR LRCK 010930Z 07015KT CAVOK 29/10 Q1015 NOSIG=
201909011000 METAR LRCK 011000Z 07014KT CAVOK 29/13 Q1015 NOSIG=
201909011030 METAR LRCK 011030Z 07014KT CAVOK 29/13 Q1015 NOSIG=
201909011100 METAR LRCK 011100Z 07014KT CAVOK 29/12 Q1015 NOSIG=
201909011130 METAR LRCK 011130Z 08012KT 050V110 CAVOK 29/13 Q1015 NOSIG=
201909011200 METAR LRCK 011200Z 08013KT CAVOK 29/12 Q1014 NOSIG=
201909011230 METAR LRCK 011230Z 08013KT CAVOK 29/13 Q1014 NOSIG=
201909011300 METAR LRCK 011300Z 08012KT CAVOK 29/12 Q1014 NOSIG=
201909011330 METAR LRCK 011330Z 08012KT CAVOK 28/13 Q1014 NOSIG=
201909011400 METAR LRCK 011400Z 09012KT CAVOK 28/11 Q1014 NOSIG=
201909011430 METAR LRCK 011430Z 08011KT CAVOK 28/13 Q1014 NOSIG=
201909011500 METAR LRCK 011500Z 08010KT CAVOK 27/13 Q1014 NOSIG=
201909011530 METAR LRCK 011530Z 08010KT CAVOK 27/14 Q1014 NOSIG=
201909011600 METAR LRCK 011600Z 07008KT CAVOK 26/15 Q1014 NOSIG=
201909011630 METAR LRCK 011630Z 08008KT CAVOK 25/17 Q1014 NOSIG=
201909011700 METAR LRCK 011700Z 08006KT CAVOK 23/17 Q1014 NOSIG=
201909011730 METAR LRCK 011730Z 07004KT CAVOK 22/17 Q1015 NOSIG=
201909011800 METAR LRCK 011800Z VRB01KT CAVOK 20/17 Q1015 NOSIG=
201909011830 METAR LRCK 011830Z 08003KT CAVOK 20/17 Q1015 NOSIG=
201909011900 METAR LRCK 011900Z 03002KT CAVOK 20/18 Q1015 NOSIG=
201909011930 METAR LRCK 011930Z 03004KT CAVOK 20/17 Q1015 NOSIG=
201909012000 METAR LRCK 012000Z 36002KT CAVOK 20/18 Q1015 NOSIG=
201909012030 METAR LRCK 012030Z 04002KT CAVOK 19/18 Q1015 NOSIG=
201909012100 METAR LRCK 012100Z 03003KT CAVOK 20/18 Q1015 NOSIG=
201909012130 METAR LRCK 012130Z 02003KT CAVOK 19/17 Q1015 NOSIG=
201909012200 METAR LRCK 012200Z 01005KT CAVOK 19/17 Q1015 NOSIG=
201909012230 METAR LRCK 012230Z 36005KT CAVOK 19/17 Q1015 NOSIG=
201909012300 METAR LRCK 012300Z 36004KT CAVOK 19/17 Q1015 NOSIG=
201909012330 METAR COR LRCK 012330Z 35005KT CAVOK 18/17 Q1015 NOSIG=
201909020000 METAR LRCK 020000Z 35006KT CAVOK 18/17 Q1015 NOSIG=
201909020030 METAR LRCK 020030Z 34004KT CAVOK 17/16 Q1015 NOSIG=
201909020100 METAR COR LRCK 020100Z 33003KT CAVOK 18/16 Q1015 NOSIG=
201909020130 METAR LRCK 020130Z 33004KT CAVOK 17/16 Q1015 NOSIG=
201909020200 METAR LRCK 020200Z 34004KT CAVOK 17/16 Q1015 NOSIG=
201909020230 METAR LRCK 020230Z 34004KT CAVOK 18/16 Q1015 NOSIG=
201909020300 METAR LRCK 020300Z 35005KT CAVOK 17/16 Q1015 NOSIG=
201909020330 METAR LRCK 020330Z 32007KT CAVOK 17/16 Q1015 NOSIG=
201909020400 METAR LRCK 020400Z 33005KT CAVOK 17/15 Q1015 NOSIG=
201909020430 METAR LRCK 020430Z 33004KT CAVOK 19/16 Q1015 NOSIG=
201909020500 METAR LRCK 020500Z 32005KT CAVOK 21/16 Q1015 NOSIG=
201909020530 METAR LRCK 020530Z 31004KT CAVOK 23/14 Q1015 NOSIG=
201909020600 METAR LRCK 020600Z 33003KT 300V010 CAVOK 25/14 Q1015 NOSIG=
201909020630 METAR LRCK 020630Z 01006KT CAVOK 27/10 Q1015 NOSIG=
201909020700 METAR LRCK 020700Z 02006KT 340V040 CAVOK 28/09 Q1015 NOSIG=
201909020730 METAR LRCK 020730Z 04006KT 350V080 CAVOK 28/09 Q1015 NOSIG=
201909020800 METAR LRCK 020800Z 07010KT CAVOK 29/09 Q1016 NOSIG=
201909020830 METAR LRCK 020830Z 06010KT CAVOK 30/10 Q1016 NOSIG=
201909020900 METAR LRCK 020900Z 07010KT CAVOK 30/11 Q1016 NOSIG=
201909020930 METAR LRCK 020930Z 08011KT CAVOK 30/09 Q1016 NOSIG=
201909021000 METAR LRCK 021000Z 08012KT CAVOK 30/08 Q1016 NOSIG=
201909021030 METAR LRCK 021030Z 08011KT CAVOK 30/09 Q1016 NOSIG=
201909021100 METAR LRCK 021100Z 09012KT CAVOK 30/10 Q1016 NOSIG=
201909021130 METAR LRCK 021130Z 09012KT CAVOK 29/12 Q1016 NOSIG=
201909021200 METAR LRCK 021200Z 11012KT CAVOK 29/14 Q1015 NOSIG=
201909021230 METAR LRCK 021230Z 11011KT CAVOK 29/14 Q1015 NOSIG=
201909021300 METAR LRCK 021300Z 11010KT CAVOK 28/11 Q1015 NOSIG=
201909021330 METAR LRCK 021330Z 12010KT 090V150 CAVOK 29/12 Q1015 NOSIG=
201909021400 METAR LRCK 021400Z 12010KT CAVOK 28/13 Q1015 NOSIG=
201909021430 METAR LRCK 021430Z 11010KT CAVOK 28/14 Q1015=
201909021500 METAR LRCK 021500Z 12009KT CAVOK 27/14 Q1015=
201909021530 METAR LRCK 021530Z 12008KT CAVOK 27/14 Q1015=
201909021600 METAR LRCK 021600Z 13008KT CAVOK 26/15 Q1015=
201909021630 METAR LRCK 021630Z 14007KT CAVOK 25/15 Q1015=
201909021700 METAR LRCK 021700Z 13006KT CAVOK 23/16 Q1015=
201909021730 METAR LRCK 021730Z 13006KT CAVOK 22/17 Q1015 NOSIG=
201909021800 METAR LRCK 021800Z 13004KT CAVOK 21/17 Q1016 NOSIG=
201909021830 METAR LRCK 021830Z 13005KT CAVOK 20/17 Q1016 NOSIG=
201909021900 METAR LRCK 021900Z 13004KT CAVOK 19/17 Q1015 NOSIG=
201909021930 METAR LRCK 021930Z 13003KT CAVOK 19/17 Q1015 NOSIG=
201909022000 METAR LRCK 022000Z 14004KT CAVOK 19/18 Q1016 NOSIG=
201909022030 METAR LRCK 022030Z 14005KT CAVOK 19/18 Q1015 NOSIG=
201909022100 METAR LRCK 022100Z 14004KT CAVOK 18/17 Q1015 NOSIG=
201909022130 METAR LRCK 022130Z 16001KT CAVOK 17/16 Q1015 NOSIG=
201909022200 METAR LRCK 022200Z 20002KT CAVOK 18/16 Q1015 NOSIG=
201909022230 METAR LRCK 022230Z 21003KT CAVOK 18/17 Q1015 NOSIG=
201909022300 METAR LRCK 022300Z 25003KT CAVOK 17/16 Q1015 NOSIG=
201909022330 METAR LRCK 022330Z 27004KT CAVOK 16/15 Q1015 NOSIG=
201909030000 METAR LRCK 030000Z 28006KT CAVOK 17/15 Q1015 NOSIG=
201909030030 METAR LRCK 030030Z 28006KT CAVOK 17/16 Q1015 NOSIG=
201909030100 METAR LRCK 030100Z 29007KT CAVOK 17/15 Q1015 NOSIG=
201909030130 METAR LRCK 030130Z 28007KT CAVOK 16/15 Q1015 NOSIG=
201909030200 METAR LRCK 030200Z 29006KT CAVOK 18/16 Q1015 NOSIG=
201909030230 METAR LRCK 030230Z 30006KT CAVOK 17/16 Q1015 NOSIG=
201909030300 METAR LRCK 030300Z 30007KT CAVOK 18/15 Q1015 NOSIG=
201909030330 METAR LRCK 030330Z 32008KT CAVOK 17/12 Q1015 NOSIG=
201909030400 METAR LRCK 030400Z 31007KT CAVOK 17/11 Q1015 NOSIG=
201909030430 METAR LRCK 030430Z 31006KT 270V330 CAVOK 18/13 Q1015 NOSIG=
201909030500 METAR LRCK 030500Z 32006KT CAVOK 20/12 Q1015 NOSIG=
201909030530 METAR LRCK 030530Z 33004KT CAVOK 22/12 Q1016 NOSIG=
201909030600 METAR LRCK 030600Z 33004KT CAVOK 24/13 Q1016 NOSIG=
201909030630 METAR LRCK 030630Z 30003KT 250V340 CAVOK 26/12 Q1016 NOSIG=
201909030700 METAR LRCK 030700Z 25002KT CAVOK 27/10 Q1016 NOSIG=
201909030730 METAR LRCK 030730Z 00000KT CAVOK 28/09 Q1016 NOSIG=
201909030800 METAR LRCK 030800Z 00000KT CAVOK 29/10 Q1016 NOSIG=
201909030830 METAR LRCK 030830Z VRB03KT CAVOK 30/09 Q1016 NOSIG=
201909030900 METAR LRCK 030900Z VRB05KT CAVOK 30/09 Q1016 NOSIG=
201909030930 METAR LRCK 030930Z 25006KT 220V280 CAVOK 31/09 Q1016 NOSIG=
201909031000 METAR LRCK 031000Z 32004KT 270V010 CAVOK 31/09 Q1015 NOSIG=
201909031030 METAR LRCK 031030Z VRB02KT CAVOK 32/09 Q1015 NOSIG=
201909031100 METAR LRCK 031100Z VRB03KT CAVOK 32/10 Q1015 NOSIG=
201909031130 METAR LRCK 031130Z 13007KT 090V150 CAVOK 32/11 Q1015 NOSIG=
201909031200 METAR LRCK 031200Z 13007KT 100V160 CAVOK 32/11 Q1015 NOSIG=
201909031230 METAR LRCK 031230Z 14009KT CAVOK 31/11 Q1015 NOSIG=
201909031300 METAR LRCK 031300Z 14010KT 110V170 CAVOK 31/11 Q1015 NOSIG=
201909031330 METAR LRCK 031330Z 14012KT CAVOK 31/11 Q1014 NOSIG=
201909031400 METAR LRCK 031400Z 13012KT CAVOK 30/12 Q1014 NOSIG=
201909031430 METAR COR LRCK 031430Z 15011KT CAVOK 30/12 Q1014 NOSIG=
201909031500 METAR LRCK 031500Z 15011KT CAVOK 30/12 Q1014 NOSIG=
201909031530 METAR LRCK 031530Z 16009KT CAVOK 29/12 Q1014 NOSIG=
201909031600 METAR LRCK 031600Z 16008KT CAVOK 28/12 Q1014 NOSIG=
201909031630 METAR LRCK 031630Z 17007KT CAVOK 27/11 Q1014 NOSIG=
201909031700 METAR LRCK 031700Z 17006KT CAVOK 25/12 Q1014 NOSIG=
201909031730 METAR LRCK 031730Z 18007KT CAVOK 23/12 Q1014 NOSIG=
201909031800 METAR LRCK 031800Z 20007KT CAVOK 24/12 Q1014 NOSIG=
201909031830 METAR LRCK 031830Z 22006KT CAVOK 23/12 Q1014 NOSIG=
201909031900 METAR LRCK 031900Z 23006KT CAVOK 22/12 Q1014 NOSIG=
201909031930 METAR LRCK 031930Z 24007KT CAVOK 22/12 Q1014 NOSIG=
201909032000 METAR LRCK 032000Z 24006KT 190V250 CAVOK 21/12 Q1014 NOSIG=
201909032030 METAR LRCK 032030Z 26006KT CAVOK 21/12 Q1014 NOSIG=
201909032100 METAR LRCK 032100Z 34007KT CAVOK 22/12 Q1015 NOSIG=
201909032130 METAR LRCK 032130Z 34006KT CAVOK 22/11 Q1015 NOSIG=
201909032200 METAR LRCK 032200Z 34007KT CAVOK 21/12 Q1015 NOSIG=
201909032230 METAR LRCK 032230Z 34007KT CAVOK 22/11 Q1015 NOSIG=
201909032300 METAR LRCK 032300Z 32004KT CAVOK 22/12 Q1015 NOSIG=
201909032330 METAR LRCK 032330Z 28005KT CAVOK 21/11 Q1014 NOSIG=
201909040000 METAR LRCK 040000Z 32005KT CAVOK 21/11 Q1014 NOSIG=
201909040030 METAR LRCK 040030Z 01007KT CAVOK 21/11 Q1015 NOSIG=
201909040100 METAR LRCK 040100Z 33007KT CAVOK 21/11 Q1014 NOSIG=
201909040130 METAR LRCK 040130Z 01008KT CAVOK 20/11 Q1015 NOSIG=
201909040200 METAR COR LRCK 040200Z 01010KT CAVOK 20/12 Q1014 NOSIG=
201909040230 METAR LRCK 040230Z 36010KT CAVOK 19/13 Q1015 NOSIG=
201909040300 METAR LRCK 040300Z 36012KT CAVOK 20/14 Q1015 NOSIG=
201909040330 METAR LRCK 040330Z 02008KT CAVOK 20/14 Q1015 NOSIG=
201909040400 METAR LRCK 040400Z 02009KT CAVOK 21/14 Q1015 NOSIG=
201909040430 METAR LRCK 040430Z 01012KT CAVOK 21/14 Q1015 NOSIG=
201909040500 METAR LRCK 040500Z 01014KT CAVOK 22/14 Q1015 NOSIG=
201909040530 METAR LRCK 040530Z 02013KT CAVOK 23/15 Q1015 NOSIG=
201909040600 METAR LRCK 040600Z 01013KT CAVOK 23/14 Q1015 NOSIG=
201909040630 METAR LRCK 040630Z 01017KT CAVOK 24/14 Q1016 NOSIG=
201909040700 METAR LRCK 040700Z 01016KT CAVOK 25/14 Q1016 NOSIG=
201909040730 METAR LRCK 040730Z 02016KT CAVOK 26/14 Q1016 NOSIG=
201909040800 METAR LRCK 040800Z 02016KT CAVOK 26/14 Q1016 NOSIG=
201909040830 METAR LRCK 040830Z 03017KT CAVOK 26/14 Q1016 NOSIG=
201909040900 METAR LRCK 040900Z 02016KT CAVOK 26/14 Q1016 NOSIG=
201909040930 METAR LRCK 040930Z 02015KT CAVOK 26/14 Q1016 NOSIG=
201909041000 METAR LRCK 041000Z 01015KT CAVOK 27/14 Q1016 NOSIG=
201909041030 METAR LRCK 041030Z 01014KT CAVOK 27/14 Q1016 NOSIG=
201909041100 METAR LRCK 041100Z 01013KT CAVOK 26/14 Q1016 NOSIG=
201909041130 METAR LRCK 041130Z 02014KT CAVOK 25/15 Q1016 NOSIG=
201909041200 METAR LRCK 041200Z 02014KT CAVOK 25/15 Q1016 NOSIG=
201909041230 METAR LRCK 041230Z 02013KT CAVOK 25/15 Q1016 NOSIG=
201909041300 METAR LRCK 041300Z 02011KT CAVOK 25/14 Q1016 NOSIG=
201909041330 METAR LRCK 041330Z 01011KT CAVOK 27/14 Q1015 NOSIG=
201909041400 METAR LRCK 041400Z 02013KT CAVOK 26/14 Q1015 NOSIG=
201909041430 METAR LRCK 041430Z 03014KT CAVOK 25/14 Q1015 NOSIG=
201909041500 METAR LRCK 041500Z 02013KT CAVOK 25/14 Q1015 NOSIG=
201909041530 METAR LRCK 041530Z 02015KT CAVOK 24/14 Q1016 NOSIG=
201909041600 METAR LRCK 041600Z 03013KT CAVOK 23/14 Q1016 NOSIG=
201909041630 METAR LRCK 041630Z 03012KT CAVOK 22/14 Q1016 NOSIG=
201909041700 METAR LRCK 041700Z 02011KT CAVOK 21/13 Q1016 NOSIG=
201909041730 METAR LRCK 041730Z 02010KT CAVOK 20/13 Q1016 NOSIG=
201909041800 METAR LRCK 041800Z 36008KT CAVOK 19/13 Q1017 NOSIG=
201909041830 METAR LRCK 041830Z 35008KT CAVOK 18/13 Q1017 NOSIG=
201909041900 METAR LRCK 041900Z 32003KT CAVOK 18/13 Q1017 NOSIG=
201909041930 METAR LRCK 041930Z 30003KT CAVOK 18/13 Q1017 NOSIG=
201909042000 METAR LRCK 042000Z 33004KT CAVOK 18/13 Q1016 NOSIG=
201909042030 METAR LRCK 042030Z 30003KT 270V330 CAVOK 18/13 Q1016 NOSIG=
201909042100 METAR LRCK 042100Z 36005KT CAVOK 18/13 Q1016 NOSIG=
201909042130 METAR LRCK 042130Z 36006KT CAVOK 18/13 Q1017 NOSIG=
201909042200 METAR LRCK 042200Z 36008KT CAVOK 19/12 Q1017 NOSIG=
201909042230 METAR LRCK 042230Z 36008KT CAVOK 19/12 Q1016 NOSIG=
201909042300 METAR LRCK 042300Z 03010KT CAVOK 19/11 Q1016 NOSIG=
201909042330 METAR LRCK 042330Z 04006KT CAVOK 19/12 Q1016 NOSIG=
201909050000 METAR LRCK 050000Z 01007KT CAVOK 19/12 Q1016 NOSIG=
201909050030 METAR LRCK 050030Z 02009KT CAVOK 18/12 Q1016 NOSIG=
201909050100 METAR LRCK 050100Z 02008KT 9999 FEW060CB 18/12 Q1016 NOSIG=
201909050130 METAR LRCK 050130Z 01007KT 9999 FEW023 FEW060CB 17/14 Q1016
                        NOSIG=
201909050200 METAR LRCK 050200Z 36008KT 9999 FEW060CB 17/13 Q1016 NOSIG=
201909050230 METAR LRCK 050230Z 36008KT 9999 -SHRA FEW060CB 17/13 Q1016
                        NOSIG=
201909050300 METAR LRCK 050300Z 34006KT 9999 -SHRA FEW060CB 16/14 Q1016
                        NOSIG=
201909050330 METAR LRCK 050330Z 34006KT 9999 FEW060CB 16/14 Q1016 NOSIG=
201909050400 METAR LRCK 050400Z 34006KT 9999 FEW060CB 16/14 Q1016 NOSIG=
201909050430 METAR LRCK 050430Z 34007KT 9999 -SHRA FEW060CB 16/14 Q1016
                        NOSIG=
201909050500 METAR LRCK 050500Z 32005KT 9999 -SHRA FEW060CB 16/14 Q1016
                        NOSIG=
201909050530 METAR LRCK 050530Z 36005KT 9999 FEW060CB 16/14 Q1016 R36/29//95
                        NOSIG=
201909050600 METAR LRCK 050600Z 34006KT 9999 FEW035 FEW060CB 17/15 Q1016
                        R36/29//95 NOSIG=
201909050630 METAR LRCK 050630Z 31005KT 9999 FEW040 FEW060CB 17/14 Q1016
                        R36/29//95 NOSIG=
201909050700 METAR LRCK 050700Z 31006KT 9999 FEW040 18/14 Q1017 R36/29//95
                        NOSIG=
201909050730 METAR LRCK 050730Z 31006KT 9999 FEW040 18/15 Q1017 R36/29//95
                        NOSIG=
201909050800 METAR LRCK 050800Z 31006KT 9999 FEW045 19/14 Q1017 R36/29//95
                        NOSIG=
201909050830 METAR LRCK 050830Z 32006KT 9999 FEW045 20/14 Q1016 R36/CLRD//
                        NOSIG=
201909050900 METAR LRCK 050900Z 31005KT 280V350 9999 FEW040 20/14 Q1016
                        NOSIG=
201909050930 METAR LRCK 050930Z VRB04KT 9999 FEW040 23/12 Q1016 NOSIG=
201909051000 METAR LRCK 051000Z 09005KT 030V140 9999 FEW042 23/11 Q1016
                        NOSIG=
201909051030 METAR LRCK 051030Z VRB04KT 9999 FEW045 24/10 Q1016 NOSIG=
201909051100 METAR LRCK 051100Z 16005KT 090V240 9999 FEW045 24/10 Q1016
                        NOSIG=
201909051130 METAR LRCK 051130Z 23003KT 120V280 9999 FEW048 25/11 Q1015
                        NOSIG=
201909051200 METAR LRCK 051200Z 11007KT 060V180 9999 FEW049 25/11 Q1015
                        NOSIG=
201909051230 METAR LRCK 051230Z 11008KT 9999 FEW049 24/10 Q1015 NOSIG=
201909051300 METAR LRCK 051300Z 10009KT CAVOK 24/11 Q1015 NOSIG=
201909051330 METAR LRCK 051330Z 13007KT 100V170 CAVOK 25/11 Q1015 NOSIG=
201909051400 METAR LRCK 051400Z 10010KT CAVOK 24/10 Q1014 NOSIG=
201909051430 METAR LRCK 051430Z 11009KT CAVOK 24/10 Q1014 NOSIG=
201909051500 METAR LRCK 051500Z 11008KT CAVOK 23/11 Q1014 NOSIG=
201909051530 METAR LRCK 051530Z 12009KT CAVOK 23/11 Q1014 NOSIG=
201909051600 METAR LRCK 051600Z 13009KT CAVOK 22/11 Q1015 NOSIG=
201909051630 METAR LRCK 051630Z 14008KT CAVOK 21/11 Q1015 NOSIG=
201909051700 METAR LRCK 051700Z 14005KT CAVOK 20/11 Q1015 NOSIG=
201909051730 METAR LRCK 051730Z 16005KT CAVOK 18/11 Q1015 NOSIG=
201909051800 METAR LRCK 051800Z 16005KT CAVOK 17/10 Q1015 NOSIG=
201909051830 METAR LRCK 051830Z 19004KT CAVOK 17/11 Q1015 NOSIG=
201909051900 METAR LRCK 051900Z 22002KT CAVOK 16/10 Q1015 NOSIG=
201909051930 METAR LRCK 051930Z 23004KT CAVOK 16/11 Q1015 NOSIG=
201909052000 METAR LRCK 052000Z 22005KT CAVOK 15/11 Q1015 NOSIG=
201909052030 METAR LRCK 052030Z 23006KT CAVOK 15/11 Q1015 NOSIG=
201909052100 METAR LRCK 052100Z 25006KT CAVOK 15/11 Q1015 NOSIG=
201909052130 METAR LRCK 052130Z 26006KT CAVOK 16/12 Q1015 NOSIG=
201909052200 METAR LRCK 052200Z 26007KT CAVOK 15/11 Q1015 NOSIG=
201909052230 METAR COR LRCK 052230Z 27008KT CAVOK 17/12 Q1015 NOSIG=
201909052300 METAR LRCK 052300Z 27008KT CAVOK 15/11 Q1015 NOSIG=
201909052330 METAR LRCK 052330Z 28010KT CAVOK 15/11 Q1015 NOSIG=
201909060000 METAR LRCK 060000Z 28009KT CAVOK 15/12 Q1015 NOSIG=
201909060030 METAR LRCK 060030Z 27009KT CAVOK 15/12 Q1015 NOSIG=
201909060100 METAR LRCK 060100Z 27009KT CAVOK 15/12 Q1015 NOSIG=
201909060130 METAR COR LRCK 060130Z 28009KT CAVOK 15/12 Q1015 NOSIG=
201909060200 METAR LRCK 060200Z 28009KT CAVOK 15/12 Q1015 NOSIG=
201909060230 METAR LRCK 060230Z 29010KT CAVOK 15/13 Q1015 NOSIG=
201909060300 METAR LRCK 060300Z 28010KT CAVOK 15/13 Q1015 NOSIG=
201909060330 METAR LRCK 060330Z 29008KT CAVOK 15/14 Q1015 NOSIG=
201909060400 METAR LRCK 060400Z 30007KT CAVOK 15/13 Q1016 NOSIG=
201909060430 METAR LRCK 060430Z 28007KT CAVOK 16/13 Q1016 NOSIG=
201909060500 METAR LRCK 060500Z 29006KT CAVOK 17/12 Q1016 NOSIG=
201909060530 METAR LRCK 060530Z 30006KT CAVOK 19/12 Q1016 NOSIG=
201909060600 METAR LRCK 060600Z 30006KT CAVOK 21/12 Q1016 NOSIG=
201909060630 METAR LRCK 060630Z 30006KT CAVOK 22/11 Q1017 NOSIG=
201909060700 METAR LRCK 060700Z 36006KT 310V040 CAVOK 23/12 Q1017 NOSIG=
201909060730 METAR LRCK 060730Z 02007KT CAVOK 24/10 Q1017 NOSIG=
201909060800 METAR LRCK 060800Z 02008KT 350V050 CAVOK 25/08 Q1017 NOSIG=
201909060830 METAR LRCK 060830Z 03005KT 330V050 9999 FEW040 25/08 Q1017
                        NOSIG=
201909060900 METAR LRCK 060900Z 36012KT 320V030 9999 FEW045 26/07 Q1017
                        NOSIG=
201909060930 METAR LRCK 060930Z 32009KT 290V350 9999 FEW048 27/08 Q1017
                        NOSIG=
201909061000 METAR LRCK 061000Z 33010KT 9999 FEW049 27/08 Q1017 NOSIG=
201909061030 METAR LRCK 061030Z 36015KT 9999 FEW049 28/08 Q1017 NOSIG=
201909061100 METAR LRCK 061100Z 02009KT 330V070 9999 FEW049 26/08 Q1017
                        NOSIG=
201909061130 METAR LRCK 061130Z 03010KT CAVOK 27/08 Q1017 NOSIG=
201909061200 METAR LRCK 061200Z 01009KT 320V050 CAVOK 28/08 Q1016 NOSIG=
201909061230 METAR LRCK 061230Z 06009KT 020V090 CAVOK 28/08 Q1016 NOSIG=
201909061300 METAR LRCK 061300Z 03011KT 350V060 CAVOK 27/07 Q1016 NOSIG=
201909061330 METAR LRCK 061330Z 03012KT CAVOK 27/10 Q1016 NOSIG=
201909061400 METAR LRCK 061400Z 04012KT CAVOK 27/10 Q1016 NOSIG=
201909061430 METAR LRCK 061430Z 05011KT CAVOK 27/10 Q1017 NOSIG=
201909061500 METAR LRCK 061500Z 07011KT CAVOK 25/11 Q1017 NOSIG=
201909061530 METAR LRCK 061530Z 09009KT CAVOK 25/12 Q1017 NOSIG=
201909061600 METAR LRCK 061600Z 09007KT CAVOK 24/12 Q1017 NOSIG=
201909061630 METAR LRCK 061630Z 08008KT CAVOK 23/14 Q1017 NOSIG=
201909061700 METAR LRCK 061700Z 08005KT CAVOK 21/14 Q1017 NOSIG=
201909061730 METAR LRCK 061730Z 06003KT 040V110 CAVOK 20/15 Q1017 NOSIG=
201909061800 METAR LRCK 061800Z 00000KT CAVOK 19/15 Q1018 NOSIG=
201909061830 METAR LRCK 061830Z 09001KT CAVOK 19/16 Q1018 NOSIG=
201909061900 METAR LRCK 061900Z 24004KT CAVOK 18/14 Q1018 NOSIG=
201909061930 METAR LRCK 061930Z 26002KT CAVOK 18/15 Q1018 NOSIG=
201909062000 METAR LRCK 062000Z 28004KT CAVOK 17/15 Q1018 NOSIG=
201909062030 METAR LRCK 062030Z 29005KT CAVOK 18/15 Q1018 NOSIG=
201909062100 METAR LRCK 062100Z 29006KT CAVOK 17/15 Q1018 NOSIG=
201909062130 METAR LRCK 062130Z 30007KT CAVOK 17/15 Q1017 NOSIG=
201909062200 METAR LRCK 062200Z 30006KT CAVOK 17/15 Q1017 NOSIG=
201909062230 METAR LRCK 062230Z 30007KT CAVOK 18/15 Q1017 NOSIG=
201909062300 METAR LRCK 062300Z 30007KT CAVOK 18/14 Q1017 NOSIG=
201909062330 METAR LRCK 062330Z 30007KT CAVOK 18/14 Q1017 NOSIG=
201909070000 METAR LRCK 070000Z 32007KT CAVOK 18/14 Q1017 NOSIG=
201909070030 METAR LRCK 070030Z 33006KT CAVOK 17/13 Q1017 NOSIG=
201909070100 METAR LRCK 070100Z 35009KT CAVOK 17/13 Q1017 NOSIG=
201909070130 METAR LRCK 070130Z 35011KT CAVOK 18/12 Q1017 NOSIG=
201909070200 METAR LRCK 070200Z 35010KT CAVOK 18/12 Q1017 NOSIG=
201909070230 METAR LRCK 070230Z 36010KT CAVOK 18/12 Q1017 NOSIG=
201909070300 METAR LRCK 070300Z 36011KT CAVOK 19/12 Q1017 NOSIG=
201909070330 METAR LRCK 070330Z 36010KT CAVOK 19/12 Q1017 NOSIG=
201909070400 METAR LRCK 070400Z 01008KT CAVOK 17/11 Q1017 NOSIG=
201909070430 METAR LRCK 070430Z 01006KT CAVOK 19/12 Q1018 NOSIG=
201909070500 METAR LRCK 070500Z 01008KT CAVOK 21/13 Q1018 NOSIG=
201909070530 METAR LRCK 070530Z 01009KT CAVOK 22/13 Q1018 NOSIG=
201909070600 METAR LRCK 070600Z 02009KT CAVOK 23/14 Q1018 NOSIG=
201909070630 METAR LRCK 070630Z 04010KT CAVOK 24/15 Q1018 NOSIG=
201909070700 METAR LRCK 070700Z 03008KT CAVOK 25/16 Q1018 NOSIG=
201909070730 METAR LRCK 070730Z 04011KT CAVOK 25/16 Q1018 NOSIG=
201909070800 METAR LRCK 070800Z 05009KT CAVOK 26/16 Q1018 NOSIG=
201909070830 METAR LRCK 070830Z 05008KT 020V080 CAVOK 27/15 Q1018 NOSIG=
201909070900 METAR LRCK 070900Z 07010KT 9999 FEW048 27/16 Q1018 NOSIG=
201909070930 METAR LRCK 070930Z 07009KT 9999 FEW046 27/15 Q1018 NOSIG=
201909071000 METAR LRCK 071000Z 07009KT 9999 FEW046 27/15 Q1018 NOSIG=
201909071030 METAR LRCK 071030Z 08011KT 9999 FEW047 28/13 Q1018 NOSIG=
201909071100 METAR LRCK 071100Z 09011KT 060V120 CAVOK 29/11 Q1018 NOSIG=
201909071130 METAR LRCK 071130Z 09011KT 050V110 CAVOK 29/12 Q1017 NOSIG=
201909071200 METAR LRCK 071200Z 08013KT CAVOK 28/13 Q1017 NOSIG=
201909071230 METAR LRCK 071230Z 09013KT CAVOK 28/12 Q1017 NOSIG=
201909071300 METAR LRCK 071300Z 09013KT 9999 FEW049 28/11 Q1017 NOSIG=
201909071330 METAR LRCK 071330Z 08012KT 9999 FEW049 28/14 Q1017 NOSIG=
201909071400 METAR LRCK 071400Z 09012KT CAVOK 27/13 Q1018 NOSIG=
201909071430 METAR LRCK 071430Z 08011KT CAVOK 26/16 Q1018 NOSIG=
201909071500 METAR LRCK 071500Z 10010KT CAVOK 26/19 Q1018 NOSIG=
201909071530 METAR LRCK 071530Z 09009KT CAVOK 25/18 Q1018 NOSIG=
201909071600 METAR LRCK 071600Z 09009KT CAVOK 24/17 Q1018 NOSIG=
201909071630 METAR LRCK 071630Z 08009KT CAVOK 23/17 Q1018 NOSIG=
201909071700 METAR LRCK 071700Z 08007KT CAVOK 22/17 Q1018 NOSIG=
201909071730 METAR LRCK 071730Z 06005KT CAVOK 21/17 Q1018 NOSIG=
201909071800 METAR LRCK 071800Z 05005KT CAVOK 20/17 Q1018 NOSIG=
201909071830 METAR LRCK 071830Z 05004KT CAVOK 20/17 Q1018 NOSIG=
201909071900 METAR LRCK 071900Z 05004KT CAVOK 19/17 Q1018 NOSIG=
201909071930 METAR LRCK 071930Z 03003KT CAVOK 19/16 Q1018 NOSIG=
201909072000 METAR LRCK 072000Z 01004KT CAVOK 18/17 Q1018 NOSIG=
201909072030 METAR LRCK 072030Z 36004KT 8000 NSC 19/17 Q1018 NOSIG=
201909072100 METAR LRCK 072100Z 02006KT 8000 NSC 19/17 Q1018 NOSIG=
201909072130 METAR LRCK 072130Z 02005KT 8000 NSC 18/17 Q1018 NOSIG=
201909072200 METAR LRCK 072200Z 02006KT 8000 NSC 18/17 Q1018 NOSIG=
201909072230 METAR LRCK 072230Z 02006KT CAVOK 18/17 Q1018 NOSIG=
201909072300 METAR LRCK 072300Z 36007KT CAVOK 19/17 Q1018 NOSIG=
201909072330 METAR LRCK 072330Z 36007KT CAVOK 19/18 Q1018 NOSIG=
201909080000 METAR LRCK 080000Z 36008KT 8000 NSC 18/17 Q1018 NOSIG=
201909080030 METAR LRCK 080030Z 01007KT 8000 NSC 18/17 Q1018 NOSIG=
201909080100 METAR LRCK 080100Z 02007KT 8000 NSC 17/16 Q1018 NOSIG=
201909080130 METAR LRCK 080130Z 03005KT CAVOK 18/17 Q1018 NOSIG=
201909080200 METAR LRCK 080200Z 03005KT CAVOK 18/17 Q1018 NOSIG=
201909080230 METAR LRCK 080230Z 03004KT CAVOK 18/17 Q1018 NOSIG=
201909080300 METAR LRCK 080300Z 03004KT CAVOK 18/17 Q1018 NOSIG=
201909080330 METAR LRCK 080330Z 03005KT CAVOK 18/17 Q1018 NOSIG=
201909080400 METAR LRCK 080400Z 02005KT CAVOK 18/17 Q1019 NOSIG=
201909080430 METAR LRCK 080430Z 02008KT 9999 FEW015 FEW030CB 19/18 Q1019
                        NOSIG=
201909080500 METAR LRCK 080500Z 02007KT 9999 FEW019 FEW040CB 20/18 Q1019
                        NOSIG=
201909080530 METAR LRCK 080530Z 03006KT 9999 FEW019 SCT028 22/19 Q1019
                        NOSIG=
201909080600 METAR LRCK 080600Z 04008KT 9999 FEW018 SCT026 22/18 Q1019
                        NOSIG=
201909080630 METAR LRCK 080630Z 06012KT 9999 SCT022 FEW035TCU 25/18 Q1019
                        NOSIG=
201909080700 METAR LRCK 080700Z 08014KT 9999 FEW022 SCT027 24/17 Q1020
                        NOSIG=
201909080730 METAR LRCK 080730Z 07014KT 9999 SCT029 SCT035 25/17 Q1020
                        NOSIG=
201909080800 METAR LRCK 080800Z 07014KT 9999 SCT028 SCT032 24/17 Q1020
                        NOSIG=
201909080830 METAR LRCK 080830Z 08014KT 9999 SCT028 SCT032 25/16 Q1020
                        NOSIG=
201909080900 METAR LRCK 080900Z 08015KT 9999 BKN029 25/17 Q1020 NOSIG=
201909080930 METAR COR LRCK 080930Z 09014KT 9999 BKN028 25/17 Q1020 NOSIG=
201909081000 METAR LRCK 081000Z 07015KT 9999 BKN027 FEW031TCU 24/17 Q1020
                        NOSIG=
201909081030 METAR LRCK 081030Z 08014KT 9999 FEW028 SCT032 25/17 Q1020
                        NOSIG=
201909081100 METAR LRCK 081100Z 08014KT 9999 BKN033 25/16 Q1020 NOSIG=
201909081130 METAR LRCK 081130Z 07014KT 050V110 9999 SCT033 26/16 Q1020
                        NOSIG=
201909081200 METAR LRCK 081200Z 07015KT 9999 SCT035 26/16 Q1020 NOSIG=
201909081230 METAR LRCK 081230Z 08014KT 9999 SCT035 26/15 Q1020 NOSIG=
201909081300 METAR LRCK 081300Z 08014KT 9999 SCT035 26/15 Q1020 NOSIG=
201909081330 METAR LRCK 081330Z 09015KT 9999 SCT035 25/16 Q1020 NOSIG=
201909081400 METAR LRCK 081400Z 07014KT 9999 SCT033 25/16 Q1020 NOSIG=
201909081430 METAR LRCK 081430Z 08014KT 9999 SCT032 24/15 Q1020 NOSIG=
201909081500 METAR LRCK 081500Z 09013KT 9999 FEW032 24/15 Q1020 NOSIG=
201909081530 METAR LRCK 081530Z 08013KT 9999 FEW034 24/14 Q1020 NOSIG=
201909081600 METAR LRCK 081600Z 08009KT CAVOK 24/13 Q1020 NOSIG=
201909081630 METAR LRCK 081630Z 07009KT CAVOK 23/14 Q1020 NOSIG=
201909081700 METAR LRCK 081700Z 07007KT CAVOK 21/13 Q1020 NOSIG=
201909081730 METAR LRCK 081730Z 06006KT CAVOK 20/13 Q1021 NOSIG=
201909081800 METAR LRCK 081800Z 05006KT CAVOK 20/13 Q1021 NOSIG=
201909081830 METAR LRCK 081830Z 04005KT CAVOK 19/13 Q1021 NOSIG=
201909081900 METAR LRCK 081900Z 04005KT CAVOK 19/13 Q1021 NOSIG=
201909081930 METAR LRCK 081930Z 02005KT CAVOK 18/13 Q1020 NOSIG=
201909082000 METAR LRCK 082000Z 01007KT CAVOK 17/13 Q1020 NOSIG=
201909082030 METAR LRCK 082030Z 02007KT CAVOK 17/12 Q1020 NOSIG=
201909082100 METAR LRCK 082100Z 02006KT CAVOK 18/13 Q1020 NOSIG=
201909082130 METAR LRCK 082130Z 36007KT CAVOK 18/14 Q1020 NOSIG=
201909082200 METAR LRCK 082200Z 36008KT CAVOK 18/14 Q1020 NOSIG=
201909082230 METAR LRCK 082230Z 36009KT CAVOK 18/14 Q1020 NOSIG=
201909082300 METAR LRCK 082300Z 36008KT CAVOK 17/13 Q1020 NOSIG=
201909082330 METAR LRCK 082330Z AUTO 36007KT 9999 NCD 17/14 Q1019 NOSIG=
201909090000 METAR LRCK 090000Z 01008KT CAVOK 17/14 Q1019 NOSIG=
201909090030 METAR LRCK 090030Z 36008KT 9999 FEW047 18/15 Q1019 NOSIG=
201909090100 METAR LRCK 090100Z 03004KT 340V070 9999 FEW043 17/15 Q1019
                        NOSIG=
201909090130 METAR LRCK 090130Z 01005KT 9999 FEW043 17/14 Q1019 NOSIG=
201909090200 METAR LRCK 090200Z 01005KT 9999 FEW044 17/14 Q1019 NOSIG=
201909090230 METAR LRCK 090230Z 01007KT 9999 FEW047 16/14 Q1019 NOSIG=
201909090300 METAR LRCK 090300Z 01008KT CAVOK 16/14 Q1019 NOSIG=
201909090330 METAR LRCK 090330Z 01008KT CAVOK 17/14 Q1019 NOSIG=
201909090400 METAR LRCK 090400Z 01007KT CAVOK 16/14 Q1019 NOSIG=
201909090430 METAR LRCK 090430Z 02008KT CAVOK 18/14 Q1018 NOSIG=
201909090500 METAR LRCK 090500Z 02009KT CAVOK 19/15 Q1018 NOSIG=
201909090530 METAR LRCK 090530Z 02010KT 9999 FEW026 21/15 Q1018 NOSIG=
201909090600 METAR COR LRCK 090600Z 04011KT 9999 FEW027 22/16 Q1018 NOSIG=
201909090630 METAR LRCK 090630Z 05012KT 9999 FEW027 24/17 Q1018 NOSIG=
201909090700 METAR LRCK 090700Z 07015KT 9999 FEW035 25/13 Q1018 NOSIG=
201909090730 METAR LRCK 090730Z 08020KT 9999 FEW040 26/11 Q1018 NOSIG=
201909090800 METAR LRCK 090800Z 08019KT 9999 FEW040 26/09 Q1018 NOSIG=
201909090830 METAR LRCK 090830Z 08018KT 9999 FEW040 26/10 Q1019 NOSIG=
201909090900 METAR LRCK 090900Z 08018KT 9999 FEW045 26/11 Q1018 NOSIG=
201909090930 METAR LRCK 090930Z 08017KT 9999 FEW045 26/10 Q1018 NOSIG=
201909091000 METAR LRCK 091000Z 07016KT 9999 FEW045 27/10 Q1018 NOSIG=
201909091030 METAR LRCK 091030Z 07017KT 9999 FEW045 27/09 Q1018 NOSIG=
201909091100 METAR LRCK 091100Z 07017KT 040V100 9999 FEW045 26/10 Q1018
                        NOSIG=
201909091130 METAR LRCK 091130Z 08017KT 9999 FEW045 26/10 Q1018 NOSIG=
201909091200 METAR LRCK 091200Z 07016KT 9999 FEW045 26/13 Q1018 NOSIG=
201909091230 METAR LRCK 091230Z 07017KT 9999 FEW046 26/12 Q1017 NOSIG=
201909091300 METAR LRCK 091300Z 06016KT 9999 FEW043 26/13 Q1017 NOSIG=
201909091330 METAR LRCK 091330Z 06017KT 9999 FEW042 25/14 Q1017 NOSIG=
201909091400 METAR LRCK 091400Z 08016KT 9999 SCT037 25/15 Q1017 NOSIG=
201909091430 METAR LRCK 091430Z 07016KT 9999 SCT035 24/14 Q1017 NOSIG=
201909091500 METAR LRCK 091500Z 08016KT 9999 FEW036 24/13 Q1017 NOSIG=
201909091530 METAR LRCK 091530Z 09012KT 9999 SCT035 23/15 Q1017 NOSIG=
201909091600 METAR LRCK 091600Z 08012KT 9999 SCT033 23/14 Q1016 NOSIG=
201909091630 METAR LRCK 091630Z 08008KT 9999 FEW033 22/14 Q1017 NOSIG=
201909091700 METAR LRCK 091700Z 07007KT 9999 FEW033 21/13 Q1017 NOSIG=
201909091730 METAR LRCK 091730Z 05006KT 9999 FEW033 20/14 Q1017 NOSIG=
201909091800 METAR LRCK 091800Z 04005KT 9999 FEW034 20/14 Q1017 NOSIG=
201909091830 METAR LRCK 091830Z 04004KT 9999 FEW032 19/14 Q1017 NOSIG=
201909091900 METAR LRCK 091900Z 03004KT 9999 FEW032 19/14 Q1017 NOSIG=
201909091930 METAR LRCK 091930Z 35005KT 9999 FEW032 17/14 Q1017 NOSIG=
201909092000 METAR LRCK 092000Z 01007KT CAVOK 18/15 Q1017 NOSIG=
201909092030 METAR LRCK 092030Z 01005KT CAVOK 18/15 Q1017 NOSIG=
201909092100 METAR LRCK 092100Z 36006KT CAVOK 18/15 Q1017 NOSIG=
201909092130 METAR LRCK 092130Z 35008KT CAVOK 17/15 Q1017 NOSIG=
201909092200 METAR LRCK 092200Z 34005KT CAVOK 16/15 Q1017 NOSIG=
201909092230 METAR LRCK 092230Z 36008KT CAVOK 18/15 Q1017 NOSIG=
201909092300 METAR LRCK 092300Z 36008KT CAVOK 17/15 Q1016 NOSIG=
201909092330 METAR LRCK 092330Z 35008KT CAVOK 17/15 Q1016 NOSIG=
201909100000 METAR LRCK 100000Z 34005KT CAVOK 16/15 Q1016 NOSIG=
201909100030 METAR LRCK 100030Z 33005KT CAVOK 17/15 Q1016 NOSIG=
201909100100 METAR LRCK 100100Z 35007KT CAVOK 16/15 Q1016 NOSIG=
201909100130 METAR LRCK 100130Z 01008KT CAVOK 17/15 Q1016 NOSIG=
201909100200 METAR LRCK 100200Z 01009KT CAVOK 16/15 Q1016 NOSIG=
201909100230 METAR LRCK 100230Z 01008KT CAVOK 16/15 Q1016 NOSIG=
201909100300 METAR COR LRCK 100300Z 01007KT CAVOK 16/15 Q1016 NOSIG=
201909100330 METAR LRCK 100330Z 01006KT CAVOK 16/15 Q1017 NOSIG=
201909100400 METAR COR LRCK 100400Z 01009KT CAVOK 16/15 Q1017 NOSIG=
201909100430 METAR LRCK 100430Z 01008KT CAVOK 17/15 Q1017 NOSIG=
201909100500 METAR LRCK 100500Z 02008KT CAVOK 19/16 Q1017 NOSIG=
201909100530 METAR LRCK 100530Z 02008KT CAVOK 20/16 Q1017 NOSIG=
201909100600 METAR LRCK 100600Z 04008KT CAVOK 21/16 Q1017 NOSIG=
201909100630 METAR LRCK 100630Z 04012KT CAVOK 23/17 Q1017 NOSIG=
201909100700 METAR LRCK 100700Z 04011KT CAVOK 24/17 Q1018 NOSIG=
201909100730 METAR LRCK 100730Z 05012KT 9999 FEW025 24/17 Q1018 NOSIG=
201909100800 METAR LRCK 100800Z 06012KT 9999 FEW030 25/16 Q1018 NOSIG=
201909100830 METAR LRCK 100830Z 08010KT 9999 FEW035 25/15 Q1018 NOSIG=
201909100900 METAR LRCK 100900Z 07012KT 9999 FEW040 26/14 Q1018 NOSIG=
201909100930 METAR LRCK 100930Z 07012KT 9999 FEW045 26/15 Q1018 NOSIG=
201909101000 METAR LRCK 101000Z 07010KT 040V110 9999 FEW048 26/14 Q1018
                        NOSIG=
201909101030 METAR LRCK 101030Z 09011KT 9999 FEW049 26/15 Q1018 NOSIG=
201909101100 METAR LRCK 101100Z 08011KT CAVOK 27/13 Q1018 NOSIG=
201909101130 METAR LRCK 101130Z 08011KT 050V120 CAVOK 27/13 Q1018 NOSIG=
201909101200 METAR LRCK 101200Z 08011KT 050V110 CAVOK 27/11 Q1018 NOSIG=
201909101230 METAR LRCK 101230Z 09013KT CAVOK 25/14 Q1018 NOSIG=
201909101300 METAR LRCK 101300Z 08014KT CAVOK 25/14 Q1018 NOSIG=
201909101330 METAR LRCK 101330Z 08015KT CAVOK 25/14 Q1018 NOSIG=
201909101400 METAR LRCK 101400Z 07015KT CAVOK 25/14 Q1018 NOSIG=
201909101430 METAR LRCK 101430Z 07013KT CAVOK 24/13 Q1018 NOSIG=
201909101500 METAR LRCK 101500Z 07013KT CAVOK 24/12 Q1018 NOSIG=
201909101530 METAR LRCK 101530Z 06012KT CAVOK 23/12 Q1018 NOSIG=
201909101600 METAR LRCK 101600Z 06011KT CAVOK 23/12 Q1018 NOSIG=
201909101630 METAR LRCK 101630Z 06011KT CAVOK 22/12 Q1018 NOSIG=
201909101700 METAR LRCK 101700Z 05008KT CAVOK 21/12 Q1018 NOSIG=
201909101730 METAR LRCK 101730Z 04007KT CAVOK 21/12 Q1019 NOSIG=
201909101800 METAR LRCK 101800Z 03008KT CAVOK 20/12 Q1019 NOSIG=
201909101830 METAR LRCK 101830Z 02007KT CAVOK 19/12 Q1019 NOSIG=
201909101900 METAR LRCK 101900Z 36007KT CAVOK 18/12 Q1019 NOSIG=
201909101930 METAR LRCK 101930Z 36008KT CAVOK 18/12 Q1019 NOSIG=
201909102000 METAR LRCK 102000Z 35007KT CAVOK 18/12 Q1019 NOSIG=
201909102030 METAR COR LRCK 102030Z 35009KT CAVOK 18/12 Q1019 NOSIG=
201909102100 METAR LRCK 102100Z 35008KT CAVOK 17/13 Q1019 NOSIG=
201909102130 METAR LRCK 102130Z 36009KT 9999 SCT021 19/14 Q1019 NOSIG=
201909102200 METAR LRCK 102200Z 36010KT 9999 SCT021 19/14 Q1019 NOSIG=
201909102230 METAR LRCK 102230Z 01009KT 9999 FEW019 19/15 Q1019 NOSIG=
201909102300 METAR LRCK 102300Z 01008KT CAVOK 18/15 Q1019 NOSIG=
201909102330 METAR LRCK 102330Z 01007KT CAVOK 18/15 Q1019 NOSIG=
201909110000 METAR LRCK 110000Z 01008KT CAVOK 18/16 Q1019 NOSIG=
201909110030 METAR LRCK 110030Z 36008KT CAVOK 18/15 Q1019 NOSIG=
201909110100 METAR LRCK 110100Z AUTO 36008KT 9999 NCD 17/15 Q1019 NOSIG=
201909110130 METAR LRCK 110130Z 01007KT CAVOK 17/15 Q1019 NOSIG=
201909110200 METAR LRCK 110200Z 36008KT CAVOK 17/15 Q1019 NOSIG=
201909110230 METAR LRCK 110230Z 36008KT CAVOK 17/15 Q1019 NOSIG=
201909110300 METAR LRCK 110300Z 36009KT CAVOK 17/15 Q1020 NOSIG=
201909110330 METAR LRCK 110330Z 36009KT CAVOK 17/15 Q1020 NOSIG=
201909110400 METAR LRCK 110400Z 36008KT 9999 FEW025 17/15 Q1020 NOSIG=
201909110430 METAR LRCK 110430Z 01008KT 9999 FEW025 18/16 Q1020 NOSIG=
201909110500 METAR LRCK 110500Z 01009KT 9999 FEW025 19/16 Q1020 BECMG
                        07012KT=
201909110530 METAR COR LRCK 110530Z 02013KT 9999 FEW025 21/17 Q1020 BECMG
                        08014KT=
201909110600 METAR LRCK 110600Z 03014KT 9999 FEW020 22/17 Q1020 NOSIG=
201909110630 METAR LRCK 110630Z 03014KT 9999 FEW025 23/17 Q1021 NOSIG=
201909110700 METAR LRCK 110700Z 05015KT 9999 FEW030 24/17 Q1021 NOSIG=
201909110730 METAR LRCK 110730Z 06016KT 9999 FEW025 24/17 Q1021 NOSIG=
201909110800 METAR LRCK 110800Z 05014KT 9999 SCT025 25/17 Q1021 NOSIG=
201909110830 METAR LRCK 110830Z 08013KT 9999 FEW027 25/16 Q1021 NOSIG=
201909110900 METAR LRCK 110900Z 05012KT 020V080 9999 SCT029 25/17 Q1022
                        NOSIG=
201909110930 METAR LRCK 110930Z 05014KT 9999 FEW031 27/15 Q1021 NOSIG=
201909111000 METAR LRCK 111000Z 07016KT 9999 FEW034 27/15 Q1022 NOSIG=
201909111030 METAR LRCK 111030Z 08016KT 9999 FEW032 27/16 Q1022 NOSIG=
201909111100 METAR LRCK 111100Z 08018KT 9999 FEW039 27/15 Q1022 NOSIG=
201909111130 METAR LRCK 111130Z 07018KT 9999 FEW040 27/12 Q1021 NOSIG=
201909111200 METAR LRCK 111200Z 07018KT CAVOK 27/10 Q1022 NOSIG=
201909111230 METAR LRCK 111230Z 06015KT CAVOK 27/08 Q1022 NOSIG=
201909111300 METAR LRCK 111300Z 07019KT CAVOK 27/06 Q1022 NOSIG=
201909111330 METAR LRCK 111330Z 07017KT CAVOK 26/08 Q1021 NOSIG=
201909111400 METAR LRCK 111400Z 06017KT CAVOK 26/11 Q1021 NOSIG=
201909111430 METAR LRCK 111430Z 06015KT CAVOK 26/11 Q1022 NOSIG=
201909111500 METAR LRCK 111500Z 05013KT CAVOK 25/12 Q1022 NOSIG=
201909111530 METAR LRCK 111530Z 04013KT CAVOK 24/12 Q1022 NOSIG=
201909111600 METAR LRCK 111600Z 04012KT CAVOK 23/13 Q1022 NOSIG=
201909111630 METAR LRCK 111630Z 04011KT CAVOK 23/14 Q1022 NOSIG=
201909111700 METAR LRCK 111700Z 03008KT CAVOK 22/14 Q1022 NOSIG=
201909111730 METAR LRCK 111730Z 03009KT CAVOK 21/14 Q1022 NOSIG=
201909111800 METAR LRCK 111800Z 02008KT CAVOK 20/13 Q1022 NOSIG=
201909111830 METAR LRCK 111830Z 02009KT CAVOK 20/13 Q1022 NOSIG=
201909111900 METAR LRCK 111900Z 02009KT CAVOK 20/12 Q1022 NOSIG=
201909111930 METAR LRCK 111930Z 02009KT CAVOK 19/12 Q1022 NOSIG=
201909112000 METAR LRCK 112000Z 02009KT CAVOK 20/13 Q1022 NOSIG=
201909112030 METAR LRCK 112030Z 02009KT CAVOK 19/14 Q1022 NOSIG=
201909112100 METAR LRCK 112100Z 02009KT CAVOK 19/15 Q1022 NOSIG=
201909112130 METAR LRCK 112130Z 02009KT CAVOK 19/15 Q1022 NOSIG=
201909112200 METAR LRCK 112200Z 01010KT CAVOK 19/15 Q1022 NOSIG=
201909112230 METAR LRCK 112230Z 02010KT CAVOK 19/16 Q1022 NOSIG=
201909112300 METAR LRCK 112300Z 02011KT CAVOK 19/16 Q1022 NOSIG=
201909112330 METAR LRCK 112330Z 02009KT CAVOK 19/16 Q1021 NOSIG=
201909120000 METAR LRCK 120000Z 01009KT CAVOK 19/16 Q1021 NOSIG=
201909120030 METAR LRCK 120030Z 01009KT CAVOK 19/16 Q1021 NOSIG=
201909120100 METAR LRCK 120100Z 01008KT CAVOK 19/16 Q1021 NOSIG=
201909120130 METAR LRCK 120130Z 36009KT CAVOK 18/16 Q1022 NOSIG=
201909120200 METAR COR LRCK 120200Z 36010KT CAVOK 18/16 Q1022 NOSIG=
201909120230 METAR LRCK 120230Z 01009KT CAVOK 18/16 Q1022 NOSIG=
201909120300 METAR LRCK 120300Z 01010KT CAVOK 19/15 Q1022 NOSIG=
201909120330 METAR LRCK 120330Z 36010KT CAVOK 18/15 Q1022 NOSIG=
201909120400 METAR LRCK 120400Z 01011KT CAVOK 18/14 Q1022 NOSIG=
201909120430 METAR LRCK 120430Z 01010KT CAVOK 19/14 Q1022 NOSIG=
201909120500 METAR LRCK 120500Z 01009KT CAVOK 20/15 Q1022 NOSIG=
201909120530 METAR LRCK 120530Z 02009KT CAVOK 21/15 Q1022 NOSIG=
201909120600 METAR LRCK 120600Z 02011KT CAVOK 22/15 Q1022 NOSIG=
201909120630 METAR LRCK 120630Z 03012KT CAVOK 23/16 Q1023 NOSIG=
201909120700 METAR LRCK 120700Z 04013KT CAVOK 24/16 Q1023 NOSIG=
201909120730 METAR LRCK 120730Z 04012KT CAVOK 24/17 Q1023 NOSIG=
201909120800 METAR LRCK 120800Z 04014KT CAVOK 25/17 Q1023 NOSIG=
201909120830 METAR LRCK 120830Z 05013KT CAVOK 25/17 Q1023 NOSIG=
201909120900 METAR LRCK 120900Z 06013KT 020V080 9999 FEW028 26/16 Q1023
                        NOSIG=
201909120930 METAR LRCK 120930Z 05015KT 9999 FEW028 26/15 Q1023 NOSIG=
201909121000 METAR LRCK 121000Z 06015KT 9999 FEW030 27/13 Q1023 NOSIG=
201909121030 METAR LRCK 121030Z 07015KT 9999 FEW040 26/15 Q1023 NOSIG=
201909121100 METAR LRCK 121100Z 06014KT 9999 FEW040 27/16 Q1023 NOSIG=
201909121130 METAR LRCK 121130Z 07015KT 9999 FEW040 27/13 Q1023 NOSIG=
201909121200 METAR LRCK 121200Z 07014KT 9999 FEW045 26/13 Q1023 NOSIG=
201909121230 METAR LRCK 121230Z 06014KT 9999 FEW045 27/10 Q1023 NOSIG=
201909121300 METAR LRCK 121300Z 05015KT 9999 FEW048 27/07 Q1023 NOSIG=
201909121330 METAR LRCK 121330Z 06014KT 9999 FEW048 27/09 Q1023 NOSIG=
201909121400 METAR LRCK 121400Z 04015KT CAVOK 27/08 Q1023 NOSIG=
201909121430 METAR LRCK 121430Z 04016KT CAVOK 26/07 Q1023 NOSIG=
201909121500 METAR LRCK 121500Z 04015KT CAVOK 25/07 Q1023 NOSIG=
201909121530 METAR LRCK 121530Z 03014KT CAVOK 25/08 Q1023 NOSIG=
201909121600 METAR LRCK 121600Z 03013KT CAVOK 24/08 Q1023 NOSIG=
201909121630 METAR LRCK 121630Z 03011KT CAVOK 23/09 Q1023 NOSIG=
201909121700 METAR LRCK 121700Z 02009KT CAVOK 23/09 Q1023 NOSIG=
201909121730 METAR LRCK 121730Z 02008KT CAVOK 22/09 Q1024 NOSIG=
201909121800 METAR LRCK 121800Z 02008KT CAVOK 21/09 Q1024 NOSIG=
201909121830 METAR LRCK 121830Z 01008KT CAVOK 20/09 Q1024 NOSIG=
201909121900 METAR LRCK 121900Z 01008KT CAVOK 20/09 Q1024 NOSIG=
201909121930 METAR LRCK 121930Z 01010KT CAVOK 21/08 Q1024 NOSIG=
201909122000 METAR LRCK 122000Z 01009KT CAVOK 21/07 Q1024 NOSIG=
201909122030 METAR LRCK 122030Z 01010KT CAVOK 20/07 Q1023 NOSIG=
201909122100 METAR LRCK 122100Z 01009KT CAVOK 20/07 Q1023 NOSIG=
201909122130 METAR LRCK 122130Z 01010KT CAVOK 20/07 Q1023 NOSIG=
201909122200 METAR LRCK 122200Z 01010KT CAVOK 19/08 Q1023 NOSIG=
201909122230 METAR LRCK 122230Z 01010KT CAVOK 19/09 Q1023 NOSIG=
201909122300 METAR LRCK 122300Z 01010KT CAVOK 19/08 Q1023 NOSIG=
201909122330 METAR LRCK 122330Z 01010KT CAVOK 19/07 Q1023 NOSIG=
201909130000 METAR LRCK 130000Z 01010KT CAVOK 19/07 Q1023 NOSIG=
201909130030 METAR LRCK 130030Z 01010KT CAVOK 19/06 Q1023 NOSIG=
201909130100 METAR LRCK 130100Z 01009KT CAVOK 18/06 Q1023 NOSIG=
201909130130 METAR LRCK 130130Z 01009KT CAVOK 18/07 Q1023 NOSIG=
201909130200 METAR LRCK 130200Z 01010KT CAVOK 18/07 Q1023 NOSIG=
201909130230 METAR LRCK 130230Z 36009KT CAVOK 18/08 Q1023 NOSIG=
201909130300 METAR LRCK 130300Z 35009KT CAVOK 16/07 Q1023 NOSIG=
201909130330 METAR LRCK 130330Z 35012KT CAVOK 17/07 Q1024 NOSIG=
201909130400 METAR LRCK 130400Z 35010KT CAVOK 17/07 Q1024 NOSIG=
201909130430 METAR LRCK 130430Z 35010KT CAVOK 18/07 Q1024 NOSIG=
201909130500 METAR LRCK 130500Z 36010KT CAVOK 20/07 Q1024 NOSIG=
201909130530 METAR LRCK 130530Z 01011KT CAVOK 21/07 Q1024 NOSIG=
201909130600 METAR LRCK 130600Z 02011KT CAVOK 23/08 Q1025 NOSIG=
201909130630 METAR LRCK 130630Z 03013KT CAVOK 24/10 Q1025 NOSIG=
201909130700 METAR LRCK 130700Z 03012KT CAVOK 25/09 Q1025 NOSIG=
201909130730 METAR LRCK 130730Z 05012KT 020V080 CAVOK 26/09 Q1025 NOSIG=
201909130800 METAR LRCK 130800Z 04012KT 010V070 CAVOK 27/08 Q1025 NOSIG=
201909130830 METAR LRCK 130830Z 06011KT CAVOK 27/08 Q1025 NOSIG=
201909130900 METAR LRCK 130900Z 05011KT CAVOK 28/09 Q1025 NOSIG=
201909130930 METAR LRCK 130930Z 04010KT CAVOK 28/09 Q1025 NOSIG=
201909131000 METAR LRCK 131000Z 07010KT 020V090 CAVOK 28/07 Q1025 NOSIG=
201909131030 METAR LRCK 131030Z 05011KT 020V080 CAVOK 29/07 Q1024 NOSIG=
201909131100 METAR LRCK 131100Z 04011KT CAVOK 29/05 Q1024 NOSIG=
201909131130 METAR LRCK 131130Z 06011KT CAVOK 29/05 Q1024 NOSIG=
201909131200 METAR LRCK 131200Z 04012KT 010V070 CAVOK 29/05 Q1024 NOSIG=
201909131230 METAR LRCK 131230Z 05014KT CAVOK 29/05 Q1023 NOSIG=
201909131300 METAR LRCK 131300Z 04013KT 360V060 CAVOK 29/05 Q1023 NOSIG=
201909131330 METAR LRCK 131330Z 06012KT CAVOK 28/06 Q1023 NOSIG=
201909131400 METAR LRCK 131400Z 06012KT CAVOK 28/06 Q1023 NOSIG=
201909131430 METAR LRCK 131430Z 05012KT CAVOK 28/07 Q1023 NOSIG=
201909131500 METAR LRCK 131500Z 08010KT CAVOK 27/10 Q1023 NOSIG=
201909131530 METAR LRCK 131530Z 08010KT CAVOK 26/13 Q1023 NOSIG=
201909131600 METAR LRCK 131600Z 11007KT CAVOK 24/15 Q1023 NOSIG=
201909131630 METAR LRCK 131630Z 12006KT CAVOK 23/15 Q1023 NOSIG=
201909131700 METAR LRCK 131700Z 11002KT CAVOK 21/13 Q1023 NOSIG=
201909131730 METAR LRCK 131730Z 06004KT CAVOK 20/11 Q1023 NOSIG=
201909131800 METAR LRCK 131800Z 04003KT CAVOK 20/11 Q1024 NOSIG=
201909131830 METAR LRCK 131830Z 04005KT CAVOK 19/10 Q1024 NOSIG=
201909131900 METAR LRCK 131900Z 35004KT CAVOK 19/11 Q1024 NOSIG=
201909131930 METAR LRCK 131930Z 35004KT CAVOK 19/11 Q1024 NOSIG=
201909132000 METAR LRCK 132000Z 35005KT CAVOK 19/11 Q1024 NOSIG=
201909132030 METAR LRCK 132030Z 36005KT CAVOK 18/10 Q1024 NOSIG=
201909132100 METAR LRCK 132100Z 35005KT CAVOK 17/09 Q1023 NOSIG=
201909132130 METAR LRCK 132130Z 31007KT CAVOK 16/08 Q1023 NOSIG=
201909132200 METAR LRCK 132200Z 31007KT CAVOK 16/08 Q1023 NOSIG=
201909132230 METAR LRCK 132230Z 32006KT CAVOK 17/07 Q1023 NOSIG=
201909132300 METAR LRCK 132300Z 30010KT CAVOK 16/07 Q1023 NOSIG=
201909132330 METAR LRCK 132330Z 29008KT CAVOK 16/06 Q1023 NOSIG=
201909140000 METAR COR LRCK 140000Z 29009KT CAVOK 17/08 Q1023 NOSIG=
201909140030 METAR LRCK 140030Z 30010KT CAVOK 17/09 Q1023 NOSIG=
201909140100 METAR LRCK 140100Z 30009KT CAVOK 16/09 Q1023 NOSIG=
201909140130 METAR COR LRCK 140130Z 30010KT CAVOK 17/08 Q1023 NOSIG=
201909140200 METAR LRCK 140200Z 30010KT CAVOK 17/08 Q1023 NOSIG=
201909140230 METAR LRCK 140230Z 30009KT CAVOK 17/08 Q1023 NOSIG=
201909140300 METAR LRCK 140300Z 29009KT CAVOK 17/08 Q1023 NOSIG=
201909140330 METAR LRCK 140330Z 29009KT CAVOK 17/07 Q1023 NOSIG=
201909140400 METAR LRCK 140400Z 30009KT CAVOK 16/07 Q1022 NOSIG=
201909140430 METAR LRCK 140430Z 30009KT CAVOK 17/07 Q1022 NOSIG=
201909140500 METAR LRCK 140500Z 29009KT CAVOK 18/07 Q1023 NOSIG=
201909140530 METAR LRCK 140530Z 29009KT CAVOK 20/08 Q1023 NOSIG=
201909140600 METAR LRCK 140600Z 30010KT CAVOK 20/08 Q1023 NOSIG=
201909140630 METAR LRCK 140630Z 29009KT CAVOK 22/09 Q1023 NOSIG=
201909140700 METAR LRCK 140700Z 29008KT CAVOK 24/09 Q1023 NOSIG=
201909140730 METAR LRCK 140730Z 30007KT 270V340 CAVOK 26/09 Q1023 NOSIG=
201909140800 METAR LRCK 140800Z 35010KT 320V020 CAVOK 28/08 Q1023 NOSIG=
201909140830 METAR LRCK 140830Z 02009KT CAVOK 29/09 Q1023 NOSIG=
201909140900 METAR LRCK 140900Z 03008KT CAVOK 29/09 Q1022 NOSIG=
201909140930 METAR LRCK 140930Z 01009KT CAVOK 30/09 Q1022 NOSIG=
201909141000 METAR LRCK 141000Z 01009KT 330V040 CAVOK 30/08 Q1022 NOSIG=
201909141030 METAR LRCK 141030Z 01009KT CAVOK 29/09 Q1022 NOSIG=
201909141100 METAR LRCK 141100Z 05008KT CAVOK 29/09 Q1022 NOSIG=
201909141130 METAR LRCK 141130Z 02011KT CAVOK 28/09 Q1022 NOSIG=
201909141200 METAR LRCK 141200Z 03010KT CAVOK 28/10 Q1022 NOSIG=
201909141230 METAR LRCK 141230Z 05010KT 010V070 CAVOK 28/10 Q1022 NOSIG=
201909141300 METAR LRCK 141300Z 04010KT CAVOK 27/10 Q1022 NOSIG=
201909141330 METAR LRCK 141330Z 02010KT CAVOK 28/09 Q1022 NOSIG=
201909141400 METAR LRCK 141400Z 01011KT CAVOK 28/09 Q1022 NOSIG=
201909141430 METAR LRCK 141430Z 02013KT CAVOK 28/09 Q1021 NOSIG=
201909141500 METAR LRCK 141500Z 03013KT CAVOK 27/10 Q1021 NOSIG=
201909141530 METAR LRCK 141530Z 04011KT CAVOK 27/10 Q1022 NOSIG=
201909141600 METAR LRCK 141600Z 05011KT CAVOK 26/10 Q1022 NOSIG=
201909141630 METAR LRCK 141630Z 03013KT CAVOK 25/11 Q1022 NOSIG=
201909141700 METAR LRCK 141700Z 02013KT CAVOK 23/10 Q1023 NOSIG=
201909141730 METAR LRCK 141730Z 02011KT CAVOK 22/11 Q1023 NOSIG=
201909141800 METAR LRCK 141800Z 01016KT CAVOK 22/13 Q1023 NOSIG=
201909141830 METAR LRCK 141830Z 01014KT CAVOK 22/12 Q1024 NOSIG=
201909141900 METAR LRCK 141900Z 01017KT CAVOK 21/12 Q1024 NOSIG=
201909141930 METAR LRCK 141930Z 01014KT CAVOK 21/12 Q1024 NOSIG=
201909142000 METAR LRCK 142000Z 01015KT CAVOK 20/12 Q1025 NOSIG=
201909142030 METAR LRCK 142030Z 01015KT CAVOK 20/11 Q1025 NOSIG=
201909142100 METAR LRCK 142100Z 01016KT CAVOK 19/11 Q1025 NOSIG=
201909142130 METAR LRCK 142130Z 36015KT CAVOK 19/10 Q1025 NOSIG=
201909142200 METAR LRCK 142200Z 36015KT CAVOK 18/10 Q1026 NOSIG=
201909142230 METAR LRCK 142230Z 36015KT CAVOK 18/07 Q1026 NOSIG=
201909142300 METAR LRCK 142300Z 36014KT CAVOK 18/07 Q1026 NOSIG=
201909142330 METAR LRCK 142330Z 01013KT CAVOK 18/07 Q1026 NOSIG=
201909150000 METAR LRCK 150000Z 36013KT CAVOK 18/07 Q1026 NOSIG=
201909150030 METAR LRCK 150030Z 01013KT CAVOK 17/06 Q1025 NOSIG=
201909150100 METAR LRCK 150100Z 01014KT CAVOK 17/06 Q1025 NOSIG=
201909150130 METAR LRCK 150130Z 01012KT CAVOK 17/05 Q1026 NOSIG=
201909150200 METAR LRCK 150200Z 36008KT CAVOK 16/05 Q1026 NOSIG=
201909150230 METAR LRCK 150230Z 36007KT CAVOK 15/05 Q1026 NOSIG=
201909150300 METAR LRCK 150300Z 35009KT CAVOK 14/05 Q1026 NOSIG=
201909150330 METAR LRCK 150330Z 01008KT CAVOK 14/05 Q1026 NOSIG=
201909150400 METAR LRCK 150400Z 36010KT CAVOK 15/04 Q1026 NOSIG=
201909150430 METAR LRCK 150430Z 35010KT CAVOK 15/05 Q1026 NOSIG=
201909150500 METAR LRCK 150500Z 35008KT CAVOK 16/05 Q1026 NOSIG=
201909150530 METAR LRCK 150530Z 35009KT CAVOK 17/05 Q1026 NOSIG=
201909150600 METAR LRCK 150600Z 01010KT CAVOK 18/04 Q1026 NOSIG=
201909150630 METAR LRCK 150630Z 01010KT CAVOK 20/04 Q1027 NOSIG=
201909150700 METAR LRCK 150700Z 03011KT CAVOK 21/04 Q1027 NOSIG=
201909150730 METAR LRCK 150730Z 04010KT CAVOK 21/02 Q1027 NOSIG=
201909150800 METAR LRCK 150800Z 04009KT 360V060 CAVOK 22/02 Q1027 NOSIG=
201909150830 METAR LRCK 150830Z 01012KT CAVOK 22/02 Q1027 NOSIG=
201909150900 METAR LRCK 150900Z 05006KT 010V090 CAVOK 23/02 Q1027 NOSIG=
201909150930 METAR LRCK 150930Z 04009KT 010V080 CAVOK 23/02 Q1026 NOSIG=
201909151000 METAR LRCK 151000Z 02009KT CAVOK 24/02 Q1026 NOSIG=
201909151030 METAR LRCK 151030Z 02007KT CAVOK 23/03 Q1026 NOSIG=
201909151100 METAR LRCK 151100Z 08005KT 050V120 CAVOK 24/03 Q1026 NOSIG=
201909151130 METAR LRCK 151130Z 10008KT 050V140 CAVOK 24/03 Q1025 NOSIG=
201909151200 METAR LRCK 151200Z 05008KT CAVOK 24/04 Q1025 NOSIG=
201909151230 METAR LRCK 151230Z 09010KT CAVOK 23/05 Q1025 NOSIG=
201909151300 METAR LRCK 151300Z 09009KT 060V120 CAVOK 24/05 Q1024 NOSIG=
201909151330 METAR LRCK 151330Z 11010KT CAVOK 23/05 Q1024 NOSIG=
201909151400 METAR LRCK 151400Z 12010KT CAVOK 22/06 Q1024 NOSIG=
201909151430 METAR LRCK 151430Z 11009KT CAVOK 22/06 Q1024 NOSIG=
201909151500 METAR LRCK 151500Z 10009KT CAVOK 21/06 Q1024 NOSIG=
201909151530 METAR LRCK 151530Z 11009KT CAVOK 21/07 Q1024 NOSIG=
201909151600 METAR LRCK 151600Z 11009KT CAVOK 20/07 Q1023 NOSIG=
201909151630 METAR LRCK 151630Z 13007KT CAVOK 19/08 Q1023 NOSIG=
201909151700 METAR LRCK 151700Z 14005KT CAVOK 18/07 Q1023 NOSIG=
201909151730 METAR LRCK 151730Z 15005KT CAVOK 17/06 Q1023 NOSIG=
201909151800 METAR LRCK 151800Z 16004KT CAVOK 15/07 Q1023 NOSIG=
201909151830 METAR LRCK 151830Z 16004KT CAVOK 15/07 Q1023 NOSIG=
201909151900 METAR LRCK 151900Z 17004KT CAVOK 15/07 Q1023 NOSIG=
201909151930 METAR LRCK 151930Z 17005KT CAVOK 15/08 Q1023 NOSIG=
201909152000 METAR LRCK 152000Z 18006KT CAVOK 15/08 Q1023 NOSIG=
201909152030 METAR LRCK 152030Z 20006KT CAVOK 14/08 Q1022 NOSIG=
201909152100 METAR LRCK 152100Z 20006KT CAVOK 13/07 Q1022 NOSIG=
201909152130 METAR LRCK 152130Z 21007KT CAVOK 13/07 Q1022 NOSIG=
201909152200 METAR LRCK 152200Z 21007KT CAVOK 13/08 Q1022 NOSIG=
201909152230 METAR LRCK 152230Z 21007KT CAVOK 12/07 Q1021 NOSIG=
201909152300 METAR LRCK 152300Z 22006KT CAVOK 13/07 Q1021 NOSIG=
201909152330 METAR LRCK 152330Z 22005KT CAVOK 13/08 Q1021 NOSIG=
201909160000 METAR COR LRCK 160000Z 22008KT CAVOK 12/08 Q1020 NOSIG=
201909160030 METAR LRCK 160030Z 22008KT CAVOK 12/08 Q1020 NOSIG=
201909160100 METAR LRCK 160100Z 23007KT CAVOK 12/07 Q1020 NOSIG=
201909160130 METAR LRCK 160130Z 24005KT CAVOK 11/07 Q1019 NOSIG=
201909160200 METAR LRCK 160200Z 23005KT CAVOK 12/07 Q1019 NOSIG=
201909160230 METAR LRCK 160230Z 22004KT CAVOK 12/08 Q1019 NOSIG=
201909160300 METAR LRCK 160300Z 22006KT CAVOK 11/07 Q1019 NOSIG=
201909160330 METAR LRCK 160330Z 23005KT CAVOK 12/08 Q1019 NOSIG=
201909160400 METAR LRCK 160400Z 22004KT CAVOK 11/08 Q1019 NOSIG=
201909160430 METAR LRCK 160430Z 20004KT CAVOK 12/08 Q1019 NOSIG=
201909160500 METAR LRCK 160500Z 20005KT CAVOK 14/09 Q1018 NOSIG=
201909160530 METAR LRCK 160530Z VRB02KT CAVOK 16/09 Q1018 NOSIG=
201909160600 METAR LRCK 160600Z 24006KT CAVOK 18/10 Q1018 NOSIG=
201909160630 METAR LRCK 160630Z 24007KT CAVOK 20/10 Q1018 NOSIG=
201909160700 METAR LRCK 160700Z 24008KT CAVOK 21/10 Q1018 NOSIG=
201909160730 METAR LRCK 160730Z 25010KT CAVOK 22/10 Q1018 NOSIG=
201909160800 METAR LRCK 160800Z 25011KT CAVOK 24/09 Q1018 NOSIG=
201909160830 METAR LRCK 160830Z 26012KT 230V290 CAVOK 25/09 Q1017 NOSIG=
201909160900 METAR LRCK 160900Z 27013KT CAVOK 26/09 Q1017 NOSIG=
201909160930 METAR LRCK 160930Z 27011KT CAVOK 27/10 Q1017 NOSIG=
201909161000 METAR LRCK 161000Z 27012KT CAVOK 27/09 Q1016 NOSIG=
201909161030 METAR LRCK 161030Z 28010KT 240V310 CAVOK 27/10 Q1016 NOSIG=
201909161100 METAR LRCK 161100Z 26009KT 210V300 CAVOK 28/10 Q1016 NOSIG=
201909161130 METAR LRCK 161130Z 24010KT 210V270 CAVOK 29/09 Q1015 NOSIG=
201909161200 METAR LRCK 161200Z 30008KT 270V330 CAVOK 28/09 Q1015 NOSIG=
201909161230 METAR LRCK 161230Z 29009KT 270V350 CAVOK 29/08 Q1015 NOSIG=
201909161300 METAR LRCK 161300Z 28007KT 230V330 CAVOK 29/06 Q1014 NOSIG=
201909161330 METAR LRCK 161330Z 28007KT 230V310 CAVOK 29/07 Q1014 NOSIG=
201909161400 METAR LRCK 161400Z 26008KT CAVOK 29/06 Q1014 NOSIG=
201909161430 METAR LRCK 161430Z 30008KT 270V330 CAVOK 28/06 Q1014 NOSIG=
201909161500 METAR LRCK 161500Z 30008KT CAVOK 27/06 Q1014 NOSIG=
201909161530 METAR LRCK 161530Z 29007KT CAVOK 27/06 Q1014 NOSIG=
201909161600 METAR LRCK 161600Z 30004KT CAVOK 25/06 Q1014 NOSIG=
201909161630 METAR LRCK 161630Z 04004KT 310V090 CAVOK 23/09 Q1014 NOSIG=
201909161700 METAR LRCK 161700Z 16005KT CAVOK 22/09 Q1014 NOSIG=
201909161730 METAR LRCK 161730Z 16006KT CAVOK 21/10 Q1014 NOSIG=
201909161800 METAR LRCK 161800Z 18008KT CAVOK 20/09 Q1014 NOSIG=
201909161830 METAR LRCK 161830Z 20008KT CAVOK 20/11 Q1014 NOSIG=
201909161900 METAR LRCK 161900Z 21006KT CAVOK 19/10 Q1014 NOSIG=
201909161930 METAR LRCK 161930Z 23004KT 210V270 CAVOK 19/10 Q1014 NOSIG=
201909162000 METAR LRCK 162000Z 22004KT CAVOK 18/09 Q1014 NOSIG=
201909162030 METAR LRCK 162030Z 25005KT CAVOK 18/09 Q1014 NOSIG=
201909162100 METAR LRCK 162100Z 25006KT CAVOK 16/09 Q1014 NOSIG=
201909162130 METAR LRCK 162130Z 24006KT CAVOK 16/08 Q1013 NOSIG=
201909162200 METAR LRCK 162200Z 24005KT CAVOK 16/08 Q1013 NOSIG=
201909162230 METAR LRCK 162230Z 25006KT CAVOK 16/08 Q1013 NOSIG=
201909162300 METAR LRCK 162300Z 25006KT CAVOK 16/08 Q1013 NOSIG=
201909162330 METAR LRCK 162330Z 25007KT CAVOK 16/09 Q1013 NOSIG=
201909170000 METAR LRCK 170000Z 24006KT CAVOK 15/08 Q1012 NOSIG=
201909170030 METAR LRCK 170030Z 25007KT CAVOK 16/08 Q1012 NOSIG=
201909170100 METAR LRCK 170100Z 26008KT CAVOK 15/08 Q1012 NOSIG=
201909170130 METAR LRCK 170130Z 27009KT CAVOK 15/09 Q1012 NOSIG=
201909170200 METAR LRCK 170200Z 27009KT CAVOK 15/08 Q1012 NOSIG=
201909170230 METAR LRCK 170230Z 27009KT CAVOK 15/08 Q1012 NOSIG=
201909170300 METAR LRCK 170300Z 26008KT CAVOK 15/08 Q1012 NOSIG=
201909170330 METAR LRCK 170330Z 26008KT CAVOK 15/07 Q1012 NOSIG=
201909170400 METAR LRCK 170400Z 27009KT CAVOK 15/07 Q1012 NOSIG=
201909170430 METAR LRCK 170430Z 29008KT CAVOK 16/08 Q1012 NOSIG=
201909170500 METAR LRCK 170500Z 29008KT CAVOK 18/08 Q1012 NOSIG=
201909170530 METAR LRCK 170530Z 28007KT CAVOK 19/08 Q1012 NOSIG=
201909170600 METAR LRCK 170600Z 27007KT CAVOK 21/08 Q1012 NOSIG=
201909170630 METAR LRCK 170630Z 27007KT CAVOK 23/09 Q1013 NOSIG=
201909170700 METAR LRCK 170700Z 28009KT CAVOK 24/08 Q1013 NOSIG=
201909170730 METAR LRCK 170730Z 27008KT CAVOK 25/09 Q1013 NOSIG=
201909170800 METAR LRCK 170800Z 29008KT CAVOK 27/10 Q1013 NOSIG=
201909170830 METAR LRCK 170830Z 27007KT 240V300 CAVOK 26/10 Q1013 NOSIG=
201909170900 METAR LRCK 170900Z 26008KT CAVOK 27/10 Q1013 NOSIG=
201909170930 METAR LRCK 170930Z 30006KT 270V330 CAVOK 28/09 Q1013 NOSIG=
201909171000 METAR LRCK 171000Z VRB04KT CAVOK 28/09 Q1012 NOSIG=
201909171030 METAR LRCK 171030Z 33004KT 280V050 CAVOK 28/10 Q1012 NOSIG=
201909171100 METAR LRCK 171100Z 25006KT 180V320 CAVOK 29/09 Q1012 NOSIG=
201909171130 METAR LRCK 171130Z 24005KT 170V280 CAVOK 29/09 Q1012 NOSIG=
201909171200 METAR LRCK 171200Z 11012KT CAVOK 28/13 Q1011 NOSIG=
201909171230 METAR LRCK 171230Z 12011KT CAVOK 27/14 Q1011 NOSIG=
201909171300 METAR LRCK 171300Z 11013KT CAVOK 26/14 Q1011 NOSIG=
201909171330 METAR LRCK 171330Z 12013KT CAVOK 26/15 Q1011 NOSIG=
201909171400 METAR LRCK 171400Z 13011KT CAVOK 26/15 Q1011 NOSIG=
201909171430 METAR LRCK 171430Z 12012KT CAVOK 25/15 Q1011 NOSIG=
201909171500 METAR LRCK 171500Z 11010KT CAVOK 24/15 Q1011 NOSIG=
201909171530 METAR LRCK 171530Z 10010KT CAVOK 24/15 Q1011 NOSIG=
201909171600 METAR LRCK 171600Z 08009KT CAVOK 23/16 Q1011 NOSIG=
201909171630 METAR LRCK 171630Z 09009KT CAVOK 23/17 Q1011 NOSIG=
201909171700 METAR LRCK 171700Z 10008KT CAVOK 22/17 Q1011 NOSIG=
201909171730 METAR LRCK 171730Z 11007KT CAVOK 22/17 Q1011 NOSIG=
201909171800 METAR LRCK 171800Z 12008KT CAVOK 22/17 Q1011 NOSIG=
201909171830 METAR LRCK 171830Z 13008KT CAVOK 22/18 Q1011 NOSIG=
201909171900 METAR LRCK 171900Z 13007KT CAVOK 22/18 Q1011 NOSIG=
201909171930 METAR LRCK 171930Z 13004KT CAVOK 21/17 Q1011 NOSIG=
201909172000 METAR LRCK 172000Z 16005KT CAVOK 20/17 Q1011 NOSIG=
201909172030 METAR LRCK 172030Z 19007KT CAVOK 19/18 Q1011 NOSIG=
201909172100 METAR LRCK 172100Z 21006KT CAVOK 19/17 Q1010 NOSIG=
201909172130 METAR COR LRCK 172130Z 23007KT CAVOK 19/18 Q1010 NOSIG=
201909172200 METAR LRCK 172200Z 23006KT CAVOK 19/17 Q1010 NOSIG=
201909172230 METAR COR LRCK 172230Z 26006KT CAVOK 19/13 Q1010 NOSIG=
201909172300 METAR LRCK 172300Z 25007KT CAVOK 18/13 Q1010 NOSIG=
201909172330 METAR LRCK 172330Z 27007KT CAVOK 17/11 Q1010 NOSIG=
201909180000 METAR LRCK 180000Z 27008KT CAVOK 17/12 Q1010 NOSIG=
201909180030 METAR LRCK 180030Z 26008KT CAVOK 17/10 Q1010 NOSIG=
201909180100 METAR COR LRCK 180100Z 26008KT CAVOK 17/09 Q1010 NOSIG=
201909180130 METAR LRCK 180130Z 26007KT CAVOK 16/09 Q1010 NOSIG=
201909180200 METAR COR LRCK 180200Z 26008KT CAVOK 17/09 Q1010 NOSIG=
201909180230 METAR LRCK 180230Z 27008KT CAVOK 17/09 Q1010 NOSIG=
201909180300 METAR LRCK 180300Z 29009KT CAVOK 17/10 Q1010 NOSIG=
201909180330 METAR LRCK 180330Z 29006KT CAVOK 17/09 Q1010 NOSIG=
201909180400 METAR LRCK 180400Z 28006KT CAVOK 17/09 Q1010 NOSIG=
201909180430 METAR LRCK 180430Z 26006KT CAVOK 19/09 Q1010 NOSIG=
201909180500 METAR LRCK 180500Z 28007KT CAVOK 20/09 Q1010 NOSIG=
201909180530 METAR LRCK 180530Z 29007KT CAVOK 22/10 Q1010 NOSIG=
201909180600 METAR LRCK 180600Z 28008KT CAVOK 22/10 Q1010 NOSIG=
201909180630 METAR LRCK 180630Z 29009KT CAVOK 23/11 Q1010 NOSIG=
201909180700 METAR LRCK 180700Z 28009KT CAVOK 23/10 Q1010 NOSIG=
201909180730 METAR LRCK 180730Z 30009KT CAVOK 23/10 Q1011 NOSIG=
201909180800 METAR LRCK 180800Z 29007KT CAVOK 24/10 Q1011 BECMG 35016=
201909180830 METAR LRCK 180830Z 26007KT CAVOK 26/11 Q1011 BECMG 34016=
201909180900 METAR LRCK 180900Z 28008KT 260V320 CAVOK 28/10 Q1011 BECMG
                        34016=
201909180930 METAR LRCK 180930Z 28009KT 240V320 CAVOK 29/10 Q1011 BECMG
                        34016=
201909181000 METAR LRCK 181000Z 28011KT CAVOK 29/09 Q1011 BECMG 34016=
201909181030 METAR LRCK 181030Z 30011KT CAVOK 28/08 Q1011 TEMPO 34016G26KT=
201909181100 METAR LRCK 181100Z 33012KT CAVOK 28/07 Q1012 TEMPO 34016G26KT=
201909181130 METAR LRCK 181130Z 33013KT CAVOK 27/07 Q1012 TEMPO 34016G26KT=
201909181200 METAR LRCK 181200Z 03016KT CAVOK 27/11 Q1012 TEMPO 03020G30KT=
201909181230 METAR LRCK 181230Z 04017KT CAVOK 24/10 Q1013 TEMPO 03020G30KT=
201909181300 METAR LRCK 181300Z 04017KT CAVOK 24/09 Q1013 NOSIG=
201909181330 METAR LRCK 181330Z 03017KT CAVOK 22/08 Q1014 NOSIG=
201909181400 METAR LRCK 181400Z 04015KT CAVOK 21/09 Q1014 NOSIG=
201909181430 METAR LRCK 181430Z 05015KT CAVOK 20/09 Q1015 NOSIG=
201909181500 METAR LRCK 181500Z 05018KT CAVOK 19/09 Q1015 NOSIG=
201909181530 METAR LRCK 181530Z 04013KT CAVOK 18/08 Q1016 NOSIG=
201909181600 METAR LRCK 181600Z 04012KT CAVOK 18/08 Q1016 NOSIG=
201909181630 METAR LRCK 181630Z 04012KT CAVOK 17/09 Q1017 NOSIG=
201909181700 METAR LRCK 181700Z 04010KT CAVOK 17/09 Q1017 NOSIG=
201909181730 METAR LRCK 181730Z 04008KT CAVOK 17/08 Q1018 NOSIG=
201909181800 METAR LRCK 181800Z 03007KT CAVOK 16/07 Q1019 NOSIG=
201909181830 METAR LRCK 181830Z 03005KT CAVOK 16/07 Q1019 NOSIG=
201909181900 METAR LRCK 181900Z 03004KT CAVOK 16/07 Q1019 NOSIG=
201909181930 METAR LRCK 181930Z 02005KT CAVOK 14/06 Q1019 NOSIG=
201909182000 METAR LRCK 182000Z 01005KT CAVOK 14/07 Q1020 NOSIG=
201909182030 METAR LRCK 182030Z 03004KT CAVOK 13/06 Q1020 NOSIG=
201909182100 METAR LRCK 182100Z 35005KT CAVOK 12/06 Q1020 NOSIG=
201909182130 METAR LRCK 182130Z 34004KT CAVOK 13/07 Q1020 NOSIG=
201909182200 METAR LRCK 182200Z 35006KT CAVOK 12/07 Q1020 NOSIG=
201909182230 METAR LRCK 182230Z 36009KT CAVOK 14/06 Q1021 NOSIG=
201909182300 METAR LRCK 182300Z 36008KT CAVOK 13/05 Q1021 NOSIG=
201909182330 METAR LRCK 182330Z 02009KT CAVOK 13/05 Q1021 NOSIG=
201909190000 METAR LRCK 190000Z 02011KT CAVOK 13/04 Q1021 NOSIG=
201909190030 METAR LRCK 190030Z 03011KT CAVOK 14/04 Q1021 NOSIG=
201909190100 METAR LRCK 190100Z 03012KT CAVOK 14/03 Q1021 NOSIG=
201909190130 METAR LRCK 190130Z 03012KT CAVOK 14/03 Q1022 NOSIG=
201909190200 METAR LRCK 190200Z 04011KT CAVOK 14/03 Q1021 NOSIG=
201909190230 METAR LRCK 190230Z 04010KT CAVOK 14/04 Q1022 NOSIG=
201909190300 METAR LRCK 190300Z 03011KT CAVOK 14/04 Q1021 NOSIG=
201909190330 METAR LRCK 190330Z 03010KT CAVOK 14/03 Q1021 NOSIG=
201909190400 METAR LRCK 190400Z 03011KT CAVOK 13/03 Q1021 NOSIG=
201909190430 METAR LRCK 190430Z 03011KT CAVOK 14/03 Q1022 NOSIG=
201909190500 METAR LRCK 190500Z 03012KT CAVOK 14/03 Q1022 NOSIG=
201909190530 METAR LRCK 190530Z 03012KT CAVOK 14/03 Q1022 NOSIG=
201909190600 METAR LRCK 190600Z 04012KT 9999 FEW049 14/04 Q1022 NOSIG=
201909190630 METAR LRCK 190630Z 04014KT CAVOK 15/04 Q1022 NOSIG=
201909190700 METAR LRCK 190700Z 04014KT CAVOK 15/05 Q1022 NOSIG=
201909190730 METAR LRCK 190730Z 04013KT CAVOK 16/06 Q1022 NOSIG=
201909190800 METAR LRCK 190800Z 05013KT CAVOK 16/07 Q1022 NOSIG=
201909190830 METAR LRCK 190830Z 04013KT CAVOK 17/08 Q1022 NOSIG=
201909190900 METAR LRCK 190900Z 05013KT CAVOK 17/09 Q1021 NOSIG=
201909190930 METAR LRCK 190930Z 06010KT 9999 SCT040 18/10 Q1021 NOSIG=
201909191000 METAR LRCK 191000Z 09011KT 9999 BKN040 18/09 Q1021 NOSIG=
201909191030 METAR LRCK 191030Z 10011KT 9999 BKN040 18/09 Q1021 NOSIG=
201909191100 METAR LRCK 191100Z 11009KT 9999 BKN041 18/10 Q1021 NOSIG=
201909191130 METAR LRCK 191130Z 11011KT 9999 BKN043 18/10 Q1021 NOSIG=
201909191200 METAR LRCK 191200Z 13014KT 9999 BKN042 18/12 Q1021 NOSIG=
201909191230 METAR LRCK 191230Z 14014KT 9999 FEW030 BKN044 17/12 Q1021
                        NOSIG=
201909191300 METAR LRCK 191300Z 13011KT 9999 FEW017 BKN040 17/12 Q1021
                        NOSIG=
201909191330 METAR LRCK 191330Z 11011KT 9999 SCT018 BKN035 17/12 Q1020
                        NOSIG=
201909191400 METAR LRCK 191400Z 13011KT 9999 FEW018 BKN035 18/12 Q1020
                        NOSIG=
201909191430 METAR LRCK 191430Z 12012KT 9999 FEW024 BKN037 18/12 Q1020
                        NOSIG=
201909191500 METAR LRCK 191500Z 14010KT 9999 SCT023 BKN039 18/12 Q1020
                        NOSIG=
201909191530 METAR LRCK 191530Z 13012KT 9999 FEW019 BKN039 17/13 Q1020
                        NOSIG=
201909191600 METAR LRCK 191600Z 12011KT 9999 SCT020 BKN037 17/13 Q1020
                        NOSIG=
201909191630 METAR LRCK 191630Z 11003KT 080V150 9999 SCT020 BKN038 17/13
                        Q1020 NOSIG=
201909191700 METAR LRCK 191700Z 08011KT 9999 BKN038 16/11 Q1020 NOSIG=
201909191730 METAR LRCK 191730Z 04010KT 9999 BKN040 15/11 Q1020 NOSIG=
201909191800 METAR LRCK 191800Z 03009KT 9999 -RA BKN040 14/11 Q1020 NOSIG=
201909191830 METAR LRCK 191830Z 03010KT 9999 -RA BKN045 14/12 Q1020 NOSIG=
201909191900 METAR LRCK 191900Z 04009KT 9999 -RA BKN045 13/12 Q1020 NOSIG=
201909191930 METAR LRCK 191930Z 03012KT 9999 -RA BKN047 13/12 Q1020 R36/290095
                        NOSIG=
201909192000 METAR LRCK 192000Z 03011KT 9999 -RA FEW010 SCT048 13/12 Q1020
                        R36/290095 NOSIG=
201909192030 METAR LRCK 192030Z 04010KT 9999 -RA SCT015 13/12 Q1020 R36/290095
                        NOSIG=
201909192100 METAR LRCK 192100Z 32004KT 260V050 8000 -RA BKN020 13/12
                        Q1020 R36/290095 NOSIG=
201909192130 METAR LRCK 192130Z 02009KT 9999 -RA SCT020 13/13 Q1019 R36/290095
                        NOSIG=
201909192200 METAR LRCK 192200Z 03010KT 9999 -RA SCT022 13/13 Q1019 R36/290095
                        NOSIG=
201909192230 METAR LRCK 192230Z 01009KT 9999 -RA BKN018 13/13 Q1020 R36/290095
                        NOSIG=
201909192300 METAR LRCK 192300Z 03006KT 9999 -RA BKN018 14/13 Q1020 R36/290095
                        NOSIG=
201909192330 METAR LRCK 192330Z 06008KT 9999 -RA BKN018 14/14 Q1019 R36/290095
                        NOSIG=
201909200000 METAR LRCK 200000Z 05008KT 9999 -RA SCT007 BKN023 14/13 Q1019
                        R36/290095 NOSIG=
201909200030 METAR COR LRCK 200030Z 04008KT 9999 -RA SCT007 BKN024 14/13
                        Q1019 R36/290095 NOSIG=
201909200100 METAR LRCK 200100Z 02012KT 9999 -RA SCT005 BKN024 12/12 Q1020
                        R36/290095 TEMPO BKN005 BKN020=
201909200130 METAR LRCK 200130Z 03016KT 9999 -RA SCT003 BKN025 12/11 Q1019
                        R36/290195 NOSIG=
201909200200 METAR LRCK 200200Z 04018KT 9999 -RA SCT009 BKN020 11/10 Q1019
                        R36/290195 NOSIG=
201909200230 METAR LRCK 200230Z 03013KT 8000 -RA SCT020 BKN030 11/10 Q1019
                        R36/290195 NOSIG=
201909200300 METAR LRCK 200300Z 04014KT 7000 -RA BKN030 11/10 Q1019 R36/290195
                        NOSIG=
201909200330 METAR LRCK 200330Z 04011KT 7000 -RA SCT005 BKN030 11/11 Q1020
                        R36/290195 NOSIG=
201909200400 METAR LRCK 200400Z 03012KT 9999 -RA SCT005 BKN035 11/11 Q1020
                        R36/290195 NOSIG=
201909200430 METAR LRCK 200430Z 03011KT 9999 -RA BKN005 BKN045 11/11 Q1020
                        R36/290195 NOSIG=
201909200500 METAR LRCK 200500Z 02007KT 9999 BKN045 11/11 Q1020 R36/290195
                        NOSIG=
201909200530 METAR LRCK 200530Z 02008KT 9999 FEW006 12/10 Q1020 RERA R36/290195
                        NOSIG=
201909200600 METAR LRCK 200600Z 36010KT 9999 FEW008 12/11 Q1020 R36/290195
                        NOSIG=
201909200630 METAR LRCK 200630Z 36011KT 9999 FEW010 12/09 Q1020 R36/19//95
                        NOSIG=
201909200700 METAR LRCK 200700Z 36012KT 9999 FEW010 13/09 Q1021 R36/19//95
                        NOSIG=
201909200730 METAR LRCK 200730Z 36011KT 9999 FEW015 13/08 Q1021 R36/CLRD//
                        NOSIG=
201909200800 METAR LRCK 200800Z 01011KT 9999 FEW018 14/09 Q1021 NOSIG=
201909200830 METAR LRCK 200830Z 36012KT 9999 FEW025 15/08 Q1021 NOSIG=
201909200900 METAR LRCK 200900Z 36012KT 9999 FEW025 16/08 Q1021 NOSIG=
201909200930 METAR LRCK 200930Z 01011KT 340V040 9999 FEW025 17/08 Q1021
                        NOSIG=
201909201000 METAR LRCK 201000Z 36012KT 9999 FEW040 17/06 Q1021 NOSIG=
201909201030 METAR LRCK 201030Z 34011KT 9999 FEW043 18/07 Q1021 NOSIG=
201909201100 METAR LRCK 201100Z 35011KT 9999 FEW043 17/06 Q1021 NOSIG=
201909201130 METAR LRCK 201130Z 34012KT 9999 FEW045 18/06 Q1020 NOSIG=
201909201200 METAR LRCK 201200Z 34013KT 310V020 9999 FEW047 18/05 Q1020
                        NOSIG=
201909201230 METAR LRCK 201230Z 33011KT 300V360 9999 FEW048 18/04 Q1020
                        NOSIG=
201909201300 METAR LRCK 201300Z 34011KT CAVOK 19/03 Q1020 NOSIG=
201909201330 METAR LRCK 201330Z 36010KT CAVOK 18/05 Q1020 NOSIG=
201909201400 METAR LRCK 201400Z 33010KT 300V020 CAVOK 19/02 Q1020 NOSIG=
201909201430 METAR LRCK 201430Z 33010KT CAVOK 18/02 Q1021 NOSIG=
201909201500 METAR LRCK 201500Z 33011KT CAVOK 17/02 Q1021 NOSIG=
201909201530 METAR LRCK 201530Z 33008KT CAVOK 16/03 Q1021 NOSIG=
201909201600 METAR LRCK 201600Z 33006KT CAVOK 15/04 Q1021 NOSIG=
201909201630 METAR LRCK 201630Z 32006KT CAVOK 14/03 Q1022 NOSIG=
201909201700 METAR LRCK 201700Z 34006KT CAVOK 12/05 Q1022 NOSIG=
201909201730 METAR LRCK 201730Z 34005KT CAVOK 12/05 Q1022 NOSIG=
201909201800 METAR LRCK 201800Z 34005KT CAVOK 11/04 Q1023 NOSIG=
201909201830 METAR LRCK 201830Z 34007KT CAVOK 12/04 Q1023 NOSIG=
201909201900 METAR LRCK 201900Z 34009KT CAVOK 12/04 Q1023 NOSIG=
201909201930 METAR LRCK 201930Z 34008KT CAVOK 11/04 Q1023 NOSIG=
201909202000 METAR LRCK 202000Z 34007KT CAVOK 12/04 Q1024 NOSIG=
201909202030 METAR LRCK 202030Z 33006KT CAVOK 11/04 Q1024 NOSIG=
201909202100 METAR LRCK 202100Z 33006KT CAVOK 11/05 Q1024 NOSIG=
201909202130 METAR LRCK 202130Z 34008KT CAVOK 11/04 Q1024 NOSIG=
201909202200 METAR LRCK 202200Z 34007KT CAVOK 11/04 Q1024 NOSIG=
201909202230 METAR LRCK 202230Z 34008KT CAVOK 10/03 Q1024 NOSIG=
201909202300 METAR LRCK 202300Z 33006KT CAVOK 10/03 Q1024 NOSIG=
201909202330 METAR LRCK 202330Z 30006KT CAVOK 08/03 Q1025 NOSIG=
201909210000 METAR LRCK 210000Z 29006KT CAVOK 07/04 Q1025 NOSIG=
201909210030 METAR LRCK 210030Z 29007KT CAVOK 08/04 Q1025 NOSIG=
201909210100 METAR LRCK 210100Z 29007KT CAVOK 07/04 Q1025 NOSIG=
201909210130 METAR LRCK 210130Z 29006KT CAVOK 07/03 Q1025 NOSIG=
201909210200 METAR LRCK 210200Z 30006KT CAVOK 07/03 Q1025 NOSIG=
201909210230 METAR LRCK 210230Z 29007KT CAVOK 06/03 Q1025 NOSIG=
201909210300 METAR LRCK 210300Z 30007KT CAVOK 07/03 Q1025 NOSIG=
201909210330 METAR LRCK 210330Z 30007KT CAVOK 06/03 Q1025 NOSIG=
201909210400 METAR LRCK 210400Z 29008KT CAVOK 06/03 Q1025 NOSIG=
201909210430 METAR LRCK 210430Z 29007KT CAVOK 07/03 Q1025 NOSIG=
201909210500 METAR LRCK 210500Z 30007KT CAVOK 09/03 Q1026 NOSIG=
201909210530 METAR LRCK 210530Z 30007KT CAVOK 10/04 Q1026 NOSIG=
201909210600 METAR LRCK 210600Z 34009KT CAVOK 11/04 Q1026 NOSIG=
201909210630 METAR LRCK 210630Z 33009KT CAVOK 12/04 Q1027 NOSIG=
201909210700 METAR LRCK 210700Z 32008KT CAVOK 12/04 Q1027 NOSIG=
201909210730 METAR LRCK 210730Z 30007KT 270V340 CAVOK 13/05 Q1027 NOSIG=
201909210800 METAR LRCK 210800Z 31008KT CAVOK 15/05 Q1027 NOSIG=
201909210830 METAR LRCK 210830Z 34009KT 310V010 9999 FEW045 15/03 Q1027
                        NOSIG=
201909210900 METAR LRCK 210900Z 33009KT 9999 FEW047 16/03 Q1027 NOSIG=
201909210930 METAR LRCK 210930Z 33011KT 300V360 9999 FEW047 15/02 Q1027
                        NOSIG=
201909211000 METAR LRCK 211000Z 34009KT 9999 FEW048 16/02 Q1027 NOSIG=
201909211030 METAR LRCK 211030Z 33010KT 300V360 9999 FEW048 17/02 Q1027
                        NOSIG=
201909211100 METAR LRCK 211100Z 32011KT 280V360 9999 FEW048 17/01 Q1027
                        NOSIG=
201909211130 METAR LRCK 211130Z 35011KT 290V360 9999 FEW048 16/02 Q1027
                        NOSIG=
201909211200 METAR LRCK 211200Z 33011KT CAVOK 17/01 Q1026 NOSIG=
201909211230 METAR LRCK 211230Z 32009KT CAVOK 18/01 Q1026 NOSIG=
201909211300 METAR LRCK 211300Z 33010KT 300V360 CAVOK 17/00 Q1026 NOSIG=
201909211330 METAR LRCK 211330Z 32012KT 290V350 CAVOK 17/M00 Q1026 NOSIG=
201909211400 METAR LRCK 211400Z 33010KT CAVOK 17/00 Q1026 NOSIG=
201909211430 METAR LRCK 211430Z 33011KT CAVOK 17/00 Q1026 NOSIG=
201909211500 METAR LRCK 211500Z 33007KT CAVOK 17/00 Q1026 NOSIG=
201909211530 METAR LRCK 211530Z 33006KT CAVOK 16/00 Q1026 NOSIG=
201909211600 METAR LRCK 211600Z 33005KT CAVOK 14/01 Q1026 NOSIG=
201909211630 METAR LRCK 211630Z 31003KT CAVOK 14/01 Q1026 NOSIG=
201909211700 METAR LRCK 211700Z 31003KT CAVOK 11/02 Q1026 NOSIG=
201909211730 METAR LRCK 211730Z 26002KT CAVOK 12/02 Q1026 NOSIG=
201909211800 METAR LRCK 211800Z 23003KT CAVOK 11/02 Q1026 NOSIG=
201909211830 METAR LRCK 211830Z 24002KT CAVOK 10/02 Q1026 NOSIG=
201909211900 METAR LRCK 211900Z 22004KT CAVOK 10/02 Q1026 NOSIG=
201909211930 METAR LRCK 211930Z 21004KT CAVOK 10/02 Q1026 NOSIG=
201909212000 METAR LRCK 212000Z 22004KT CAVOK 10/01 Q1026 NOSIG=
201909212030 METAR LRCK 212030Z 23005KT CAVOK 09/01 Q1026 NOSIG=
201909212100 METAR LRCK 212100Z 22005KT CAVOK 09/02 Q1026 NOSIG=
201909212130 METAR LRCK 212130Z 23006KT CAVOK 08/02 Q1026 NOSIG=
201909212200 METAR COR LRCK 212200Z 24007KT CAVOK 07/02 Q1026 NOSIG=
201909212230 METAR LRCK 212230Z 24007KT CAVOK 08/03 Q1025 NOSIG=
201909212300 METAR LRCK 212300Z 23008KT CAVOK 09/04 Q1025 NOSIG=
201909212330 METAR LRCK 212330Z 24008KT CAVOK 08/04 Q1025 NOSIG=
201909220000 METAR LRCK 220000Z 23008KT CAVOK 08/04 Q1025 NOSIG=
201909220030 METAR LRCK 220030Z 24010KT CAVOK 08/05 Q1024 NOSIG=
201909220100 METAR LRCK 220100Z 24007KT CAVOK 08/05 Q1024 NOSIG=
201909220130 METAR LRCK 220130Z 25005KT CAVOK 07/04 Q1024 NOSIG=
201909220200 METAR LRCK 220200Z 26006KT CAVOK 07/04 Q1024 NOSIG=
201909220230 METAR LRCK 220230Z 26006KT CAVOK 07/05 Q1024 NOSIG=
201909220300 METAR COR LRCK 220300Z 26006KT CAVOK 08/05 Q1024 NOSIG=
201909220330 METAR LRCK 220330Z 26006KT CAVOK 07/05 Q1024 NOSIG=
201909220400 METAR LRCK 220400Z 26006KT CAVOK 07/04 Q1024 NOSIG=
201909220430 METAR LRCK 220430Z 25007KT CAVOK 07/05 Q1024 NOSIG=
201909220500 METAR LRCK 220500Z 26006KT CAVOK 10/06 Q1024 NOSIG=
201909220530 METAR COR LRCK 220530Z 25007KT CAVOK 12/07 Q1024 NOSIG=
201909220600 METAR LRCK 220600Z 25008KT CAVOK 13/06 Q1024 NOSIG=
201909220630 METAR LRCK 220630Z 26009KT CAVOK 15/06 Q1024 NOSIG=
201909220700 METAR LRCK 220700Z 26009KT CAVOK 16/06 Q1024 NOSIG=
201909220730 METAR LRCK 220730Z 26010KT CAVOK 17/06 Q1024 NOSIG=
201909220800 METAR LRCK 220800Z 26009KT CAVOK 18/06 Q1024 NOSIG=
201909220830 METAR LRCK 220830Z 26010KT CAVOK 19/04 Q1024 NOSIG=
201909220900 METAR LRCK 220900Z 25008KT CAVOK 20/03 Q1023 NOSIG=
201909220930 METAR LRCK 220930Z 25008KT 220V290 CAVOK 21/03 Q1023 NOSIG=
201909221000 METAR LRCK 221000Z 21008KT CAVOK 21/02 Q1023 NOSIG=
201909221030 METAR LRCK 221030Z 22006KT 200V270 CAVOK 22/02 Q1022 NOSIG=
201909221100 METAR LRCK 221100Z 24009KT 200V260 CAVOK 22/01 Q1022 NOSIG=
201909221130 METAR LRCK 221130Z 25007KT CAVOK 23/02 Q1021 NOSIG=
201909221200 METAR LRCK 221200Z 24007KT 180V270 CAVOK 23/01 Q1021 NOSIG=
201909221230 METAR LRCK 221230Z 22004KT 120V290 CAVOK 23/01 Q1020 NOSIG=
201909221300 METAR LRCK 221300Z 18006KT CAVOK 23/02 Q1020 NOSIG=
201909221330 METAR LRCK 221330Z 25007KT CAVOK 23/02 Q1020 NOSIG=
201909221400 METAR LRCK 221400Z 18005KT 120V230 CAVOK 23/08 Q1019 NOSIG=
201909221430 METAR LRCK 221430Z 15014KT CAVOK 22/09 Q1019 NOSIG=
201909221500 METAR LRCK 221500Z 15013KT CAVOK 21/10 Q1019 NOSIG=
201909221530 METAR LRCK 221530Z 15014KT CAVOK 20/10 Q1019 NOSIG=
201909221600 METAR LRCK 221600Z 16012KT CAVOK 18/09 Q1019 NOSIG=
201909221630 METAR LRCK 221630Z 18012KT CAVOK 18/08 Q1019 NOSIG=
201909221700 METAR LRCK 221700Z 17010KT CAVOK 17/08 Q1019 NOSIG=
201909221730 METAR LRCK 221730Z 18011KT CAVOK 16/09 Q1019 NOSIG=
201909221800 METAR LRCK 221800Z 20010KT CAVOK 15/09 Q1019 NOSIG=
201909221830 METAR LRCK 221830Z 21009KT CAVOK 15/09 Q1019 NOSIG=
201909221900 METAR LRCK 221900Z 20010KT CAVOK 14/09 Q1019 NOSIG=
201909221930 METAR LRCK 221930Z 21008KT CAVOK 14/09 Q1019 NOSIG=
201909222000 METAR LRCK 222000Z 21007KT CAVOK 14/09 Q1019 NOSIG=
201909222030 METAR LRCK 222030Z 22007KT CAVOK 13/09 Q1019 NOSIG=
201909222100 METAR LRCK 222100Z 22008KT CAVOK 12/09 Q1018 NOSIG=
201909222130 METAR LRCK 222130Z 22008KT CAVOK 13/09 Q1018 NOSIG=
201909222200 METAR LRCK 222200Z 22008KT CAVOK 11/08 Q1018 NOSIG=
201909222230 METAR LRCK 222230Z 23008KT CAVOK 11/08 Q1018 NOSIG=
201909222300 METAR LRCK 222300Z 24006KT CAVOK 11/09 Q1018 NOSIG=
201909222330 METAR LRCK 222330Z 25008KT CAVOK 11/09 Q1018 NOSIG=
201909230000 METAR LRCK 230000Z 25007KT CAVOK 11/09 Q1017 NOSIG=
201909230030 METAR LRCK 230030Z 24007KT CAVOK 11/09 Q1017 NOSIG=
201909230100 METAR LRCK 230100Z 23007KT CAVOK 11/09 Q1017 NOSIG=
201909230130 METAR LRCK 230130Z 23006KT CAVOK 11/08 Q1017 NOSIG=
201909230200 METAR LRCK 230200Z 23007KT CAVOK 10/08 Q1017 NOSIG=
201909230230 METAR LRCK 230230Z 23006KT CAVOK 10/08 Q1017 NOSIG=
201909230300 METAR LRCK 230300Z 22005KT CAVOK 10/08 Q1016 NOSIG=
201909230330 METAR LRCK 230330Z 22006KT CAVOK 10/08 Q1016 NOSIG=
201909230400 METAR LRCK 230400Z 23006KT CAVOK 10/08 Q1016 NOSIG=
201909230430 METAR LRCK 230430Z 22007KT CAVOK 11/09 Q1017 NOSIG=
201909230500 METAR LRCK 230500Z 22006KT CAVOK 13/10 Q1017 NOSIG=
201909230530 METAR LRCK 230530Z 22006KT CAVOK 14/11 Q1017 NOSIG=
201909230600 METAR LRCK 230600Z 21006KT CAVOK 16/10 Q1017 NOSIG=
201909230630 METAR LRCK 230630Z 19008KT CAVOK 17/09 Q1017 NOSIG=
201909230700 METAR LRCK 230700Z 19011KT CAVOK 18/10 Q1017 NOSIG=
201909230730 METAR LRCK 230730Z 19009KT CAVOK 19/10 Q1017 NOSIG=
201909230800 METAR LRCK 230800Z 19008KT CAVOK 20/10 Q1017 NOSIG=
201909230830 METAR LRCK 230830Z 16008KT 140V200 CAVOK 21/09 Q1016 NOSIG=
201909230900 METAR LRCK 230900Z 15008KT 120V180 CAVOK 22/10 Q1016 NOSIG=
201909230930 METAR LRCK 230930Z 16008KT CAVOK 23/09 Q1016 NOSIG=
201909231000 METAR LRCK 231000Z 13008KT 090V160 CAVOK 23/10 Q1016 NOSIG=
201909231030 METAR LRCK 231030Z 12010KT 090V150 CAVOK 23/13 Q1015 NOSIG=
201909231100 METAR LRCK 231100Z 12012KT CAVOK 22/12 Q1015 NOSIG=
201909231130 METAR LRCK 231130Z 12012KT CAVOK 21/13 Q1015 NOSIG=
201909231200 METAR LRCK 231200Z 13013KT CAVOK 21/13 Q1015 NOSIG=
201909231230 METAR LRCK 231230Z 13013KT CAVOK 22/13 Q1015 NOSIG=
201909231300 METAR LRCK 231300Z 13015KT CAVOK 21/12 Q1014 NOSIG=
201909231330 METAR LRCK 231330Z 12014KT CAVOK 21/13 Q1014 NOSIG=
201909231400 METAR LRCK 231400Z 14015KT CAVOK 20/13 Q1014 NOSIG=
201909231430 METAR LRCK 231430Z 14014KT CAVOK 20/13 Q1014 NOSIG=
201909231500 METAR LRCK 231500Z 15012KT CAVOK 20/13 Q1014 NOSIG=
201909231530 METAR LRCK 231530Z 14012KT CAVOK 19/13 Q1014 NOSIG=
201909231600 METAR LRCK 231600Z 14011KT CAVOK 19/13 Q1014 NOSIG=
201909231630 METAR LRCK 231630Z 15007KT CAVOK 18/13 Q1015 NOSIG=
201909231700 METAR LRCK 231700Z 15008KT CAVOK 18/13 Q1014 NOSIG=
201909231730 METAR LRCK 231730Z 16006KT CAVOK 18/13 Q1015 NOSIG=
201909231800 METAR LRCK 231800Z 15006KT CAVOK 17/13 Q1015 NOSIG=
201909231830 METAR LRCK 231830Z 16006KT CAVOK 17/13 Q1015 NOSIG=
201909231900 METAR LRCK 231900Z 16006KT CAVOK 16/13 Q1015 NOSIG=
201909231930 METAR LRCK 231930Z 16006KT CAVOK 16/13 Q1015 NOSIG=
201909232000 METAR LRCK 232000Z 15005KT CAVOK 16/13 Q1015 NOSIG=
201909232030 METAR LRCK 232030Z 15007KT CAVOK 15/13 Q1014 NOSIG=
201909232100 METAR LRCK 232100Z 16005KT CAVOK 16/13 Q1014 NOSIG=
201909232130 METAR LRCK 232130Z 16005KT CAVOK 16/13 Q1014 NOSIG=
201909232200 METAR LRCK 232200Z 16005KT CAVOK 16/13 Q1014 NOSIG=
201909232230 METAR LRCK 232230Z 15005KT CAVOK 15/13 Q1014 NOSIG=
201909232300 METAR LRCK 232300Z 15005KT CAVOK 15/13 Q1014 NOSIG=
201909232330 METAR LRCK 232330Z 13006KT CAVOK 15/13 Q1014 NOSIG=
201909240000 METAR LRCK 240000Z 12005KT CAVOK 15/13 Q1014 NOSIG=
201909240030 METAR LRCK 240030Z 11005KT CAVOK 15/13 Q1014 NOSIG=
201909240100 METAR COR LRCK 240100Z 12006KT CAVOK 15/13 Q1014 NOSIG=
201909240130 METAR LRCK 240130Z 13006KT CAVOK 15/13 Q1014 NOSIG=
201909240200 METAR LRCK 240200Z 13005KT 9999 FEW030 16/13 Q1014 NOSIG=
201909240230 METAR COR LRCK 240230Z 13005KT 9999 FEW025 16/14 Q1014 NOSIG=
201909240300 METAR LRCK 240300Z 12005KT 9999 FEW025 16/13 Q1014 NOSIG=
201909240330 METAR LRCK 240330Z 11005KT 9999 FEW025 16/14 Q1014 NOSIG=
201909240400 METAR LRCK 240400Z 11005KT 9999 FEW030 16/14 Q1014 NOSIG=
201909240430 METAR LRCK 240430Z 12005KT 9999 FEW030 16/14 Q1014 NOSIG=
201909240500 METAR COR LRCK 240500Z 11006KT 9999 FEW030CB 17/14 Q1014
                        TEMPO 5000 -RA -SHRA SCT030CB BKN035=
201909240530 METAR LRCK 240530Z 12009KT 9999 -RA SCT019 18/15 Q1014 TEMPO
                        5000 -SHRA SCT030CB BKN035=
201909240600 METAR LRCK 240600Z 11010KT 9999 SCT019 SCT030 18/15 Q1014
                        RERA NOSIG=
201909240630 METAR LRCK 240630Z 11010KT 9999 -RA FEW018 BKN035 18/16 Q1014
                        NOSIG=
201909240700 METAR LRCK 240700Z 10010KT 9999 -RA FEW019 BKN030 18/16 Q1014
                        R18/29//95 NOSIG=
201909240730 METAR LRCK 240730Z 11010KT 9999 RA FEW019 BKN036 18/16 Q1014
                        R18/29//95 NOSIG=
201909240800 METAR LRCK 240800Z 11008KT 9999 -RA SCT018 BKN030 17/16 Q1014
                        R18/29//95 NOSIG=
201909240830 METAR LRCK 240830Z 10008KT 9999 -RA SCT018 BKN032 18/16 Q1015
                        R18/29//95 NOSIG=
201909240900 METAR LRCK 240900Z 10009KT 9999 -RA SCT019 BKN030 18/16 Q1014
                        R18/29//95 NOSIG=
201909240930 METAR LRCK 240930Z 09009KT 9999 -RA FEW021 SCT032 18/16 Q1014
                        R18/29//95 NOSIG=
201909241000 METAR LRCK 241000Z 08009KT 9999 -RA FEW019 SCT044 18/15 Q1014
                        R18/29//95 NOSIG=
201909241030 METAR LRCK 241030Z 10009KT 9999 -RA FEW019 SCT040 18/16 Q1014
                        R18/29//95 NOSIG=
201909241100 METAR LRCK 241100Z 09008KT 9999 -RA FEW018 18/15 Q1014 R18/29//95
                        NOSIG=
201909241130 METAR LRCK 241130Z 08007KT 9999 FEW018 18/14 Q1014 RERA R18/29//95
                        NOSIG=
201909241200 METAR LRCK 241200Z 09010KT 9999 FEW015 19/16 Q1013 R18/29//95
                        NOSIG=
201909241230 METAR LRCK 241230Z 09009KT 9999 FEW018 SCT028 BKN045 18/16
                        Q1013 R18/29//95 NOSIG=
201909241300 METAR LRCK 241300Z 09008KT 9999 SCT013 SCT040 18/16 Q1013
                        R18/29//95 NOSIG=
201909241330 METAR LRCK 241330Z 09006KT 9999 -RA BKN010 18/15 Q1013 R18/29//95
                        NOSIG=
201909241400 METAR LRCK 241400Z 07005KT 040V100 9999 -RA FEW006 BKN010
                        17/16 Q1013 R18/29//95 NOSIG=
201909241430 METAR LRCK 241430Z VRB02KT 9999 FEW005 SCT010 17/16 Q1013
                        R18/29//95 NOSIG=
201909241500 METAR LRCK 241500Z 04005KT 9999 FEW006 SCT010 17/16 Q1013
                        R18/CLRD// NOSIG=
201909241530 METAR LRCK 241530Z 04005KT 9999 FEW006 SCT012 17/16 Q1013
                        NOSIG=
201909241600 METAR LRCK 241600Z 04005KT 9999 FEW015 SCT030 17/16 Q1013
                        NOSIG=
201909241630 METAR LRCK 241630Z 07006KT 9999 SCT022 17/15 Q1013 NOSIG=
201909241700 METAR LRCK 241700Z 07006KT 9999 SCT023 17/15 Q1013 NOSIG=
201909241730 METAR LRCK 241730Z 06006KT 9999 -RA SCT023 17/15 Q1013 NOSIG=
201909241800 METAR LRCK 241800Z 06006KT 9999 -RA BKN022 16/15 Q1013 NOSIG=
201909241830 METAR LRCK 241830Z 05007KT 9999 -RA SCT019 BKN026 16/15 Q1013
                        R36/29//95 NOSIG=
201909241900 METAR LRCK 241900Z 05007KT 9999 SCT017 SCT032 16/15 Q1012
                        R36/29//95 NOSIG=
201909241930 METAR LRCK 241930Z 05007KT 9999 FEW030 16/15 Q1012 R36/29//95
                        NOSIG=
201909242000 METAR LRCK 242000Z 05006KT 9999 FEW026 16/15 Q1012 R36/29//95
                        NOSIG=
201909242030 METAR LRCK 242030Z 06007KT 9999 -RA SCT026 17/15 Q1012 R36/29//95
                        NOSIG=
201909242100 METAR LRCK 242100Z 07008KT 9999 SCT025 17/15 Q1012 R36/29//95
                        NOSIG=
201909242130 METAR LRCK 242130Z 08008KT 9999 SCT025 17/15 Q1012 R36/29//95
                        NOSIG=
201909242200 METAR LRCK 242200Z 06008KT 9999 FEW024 17/14 Q1012 R36/29//95
                        NOSIG=
201909242230 METAR LRCK 242230Z 06007KT 9999 FEW030 17/14 Q1012 R36/29//95
                        NOSIG=
201909242300 METAR LRCK 242300Z 06006KT CAVOK 16/13 Q1012 R36/29//95 NOSIG=
201909242330 METAR LRCK 242330Z 05007KT CAVOK 16/13 Q1012 R36/29//95 NOSIG=
201909250000 METAR LRCK 250000Z 04007KT CAVOK 16/13 Q1012 R36/29//95 NOSIG=
201909250030 METAR LRCK 250030Z 03007KT CAVOK 15/13 Q1012 R36/29//95 NOSIG=
201909250100 METAR LRCK 250100Z 04007KT CAVOK 16/13 Q1012 R36/29//95 NOSIG=
201909250130 METAR LRCK 250130Z 07007KT CAVOK 17/12 Q1012 R36/29//95 NOSIG=
201909250200 METAR LRCK 250200Z 07009KT 9999 FEW028 17/13 Q1012 R36/29//95
                        NOSIG=
201909250230 METAR LRCK 250230Z 07012KT 9999 SCT021 17/16 Q1012 R36/29//95
                        NOSIG=
201909250300 METAR LRCK 250300Z 05009KT 9999 SCT026 17/16 Q1012 R36/29//95
                        NOSIG=
201909250330 METAR LRCK 250330Z 08011KT 9999 SCT048 17/15 Q1012 R36/29//95
                        NOSIG=
201909250400 METAR LRCK 250400Z 07009KT 9999 SCT048 17/15 Q1012 R36/CLRD//
                        NOSIG=
201909250430 METAR LRCK 250430Z 03008KT 9999 -RA FEW048 16/15 Q1013=
201909250500 METAR LRCK 250500Z 04010KT 9999 SCT047 16/15 Q1013 NOSIG=
201909250530 METAR LRCK 250530Z 07010KT 8000 -RA FEW020 BKN039 16/15 Q1013
                        NOSIG=
201909250600 METAR LRCK 250600Z 06008KT 9999 BKN036 16/14 Q1013 R36/29//95
                        NOSIG=
201909250630 METAR LRCK 250630Z 04008KT 9999 SCT047 17/15 Q1013 R36/29//95
                        NOSIG=
201909250700 METAR LRCK 250700Z 04008KT 9999 BKN046 17/15 Q1013 R36/29//95
                        NOSIG=
201909250730 METAR LRCK 250730Z 02008KT 9999 FEW029 BKN049 17/16 Q1013
                        R36/29//95 NOSIG=
201909250800 METAR LRCK 250800Z 04009KT 9999 FEW025 SCT049 19/16 Q1013
                        R36/29//95 NOSIG=
201909250830 METAR LRCK 250830Z 02009KT 9999 SCT029 18/17 Q1013 R36/29//95
                        NOSIG=
201909250900 METAR LRCK 250900Z 05005KT 9999 BKN021 18/17 Q1014 R36/29//95
                        NOSIG=
201909250930 METAR LRCK 250930Z 10011KT 9999 BKN022 19/15 Q1014 R36/29//95
                        NOSIG=
201909251000 METAR LRCK 251000Z 10011KT 9999 SCT026 SCT049 20/14 Q1013
                        R36/CLRD// NOSIG=
201909251030 METAR LRCK 251030Z 11012KT 9999 SCT040 21/15 Q1013 NOSIG=
201909251100 METAR LRCK 251100Z 07013KT 9999 BKN027 19/16 Q1014 NOSIG=
201909251130 METAR LRCK 251130Z 07009KT 9999 FEW023 BKN030 18/15 Q1014
                        NOSIG=
201909251200 METAR LRCK 251200Z 06007KT 9999 BKN041 18/15 Q1014 NOSIG=
201909251230 METAR LRCK 251230Z 05006KT 9999 SCT045 19/15 Q1013 NOSIG=
201909251300 METAR LRCK 251300Z 07007KT 030V090 9999 FEW023 SCT045 20/15
                        Q1013 NOSIG=
201909251330 METAR LRCK 251330Z 06008KT 9999 FEW024 SCT045 20/14 Q1013
                        NOSIG=
201909251400 METAR LRCK 251400Z 08008KT 9999 FEW025 SCT045 20/14 Q1013
                        NOSIG=
201909251430 METAR LRCK 251430Z 10009KT 9999 SCT025 19/15 Q1013 NOSIG=
201909251500 METAR LRCK 251500Z 10010KT 9999 SCT021 19/14 Q1013 NOSIG=
201909251530 METAR LRCK 251530Z 10008KT 9999 SCT022 19/15 Q1013 NOSIG=
201909251600 METAR LRCK 251600Z 10008KT 9999 SCT022 18/15 Q1013 NOSIG=
201909251630 METAR LRCK 251630Z 11007KT 9999 FEW022 18/14 Q1014 NOSIG=
201909251700 METAR LRCK 251700Z 10007KT CAVOK 17/14 Q1014 NOSIG=
201909251730 METAR LRCK 251730Z 11007KT CAVOK 17/14 Q1014 NOSIG=
201909251800 METAR LRCK 251800Z 10005KT 9999 FEW024 17/14 Q1014 NOSIG=
201909251830 METAR LRCK 251830Z 10006KT 9999 FEW022 17/14 Q1014 NOSIG=
201909251900 METAR LRCK 251900Z 11005KT 9999 SCT019 17/14 Q1014 NOSIG=
201909251930 METAR LRCK 251930Z 11007KT 9999 FEW021 16/14 Q1014 NOSIG=
201909252000 METAR LRCK 252000Z 13009KT 9999 FEW023 16/14 Q1014 NOSIG=
201909252030 METAR LRCK 252030Z 12007KT 9999 FEW023 16/14 Q1014 NOSIG=
201909252100 METAR COR LRCK 252100Z 13006KT 9999 FEW023 15/14 Q1014 NOSIG=
201909252130 METAR LRCK 252130Z 15006KT 9999 FEW021 15/13 Q1014 NOSIG=
201909252200 METAR LRCK 252200Z 15004KT 9999 FEW021 15/13 Q1014 NOSIG=
201909252230 METAR LRCK 252230Z 15004KT 9999 FEW021 15/13 Q1014 NOSIG=
201909252300 METAR LRCK 252300Z 11006KT 9999 FEW021 15/14 Q1013 NOSIG=
201909252330 METAR LRCK 252330Z 12006KT CAVOK 15/14 Q1013 NOSIG=
201909260000 METAR LRCK 260000Z 14006KT CAVOK 15/13 Q1013 NOSIG=
201909260030 METAR LRCK 260030Z 13006KT CAVOK 15/14 Q1013 NOSIG=
201909260100 METAR LRCK 260100Z 12007KT 9999 FEW023 15/14 Q1013 NOSIG=
201909260130 METAR LRCK 260130Z 12007KT CAVOK 15/13 Q1013 NOSIG=
201909260200 METAR LRCK 260200Z 14008KT 9999 SCT047 16/13 Q1013 NOSIG=
201909260230 METAR LRCK 260230Z 13007KT 9999 FEW025 16/13 Q1013 NOSIG=
201909260300 METAR LRCK 260300Z 14006KT 9999 SCT024 15/14 Q1013 NOSIG=
201909260330 METAR COR LRCK 260330Z 13007KT 9999 FEW024 SCT046 16/14 Q1013
                        NOSIG=
201909260400 METAR LRCK 260400Z 12007KT 9999 SCT023 16/14 Q1013 NOSIG=
201909260430 METAR LRCK 260430Z 12007KT 9999 BKN023 17/14 Q1013 NOSIG=
201909260500 METAR LRCK 260500Z 12006KT 9999 BKN023 17/14 Q1013 NOSIG=
201909260530 METAR LRCK 260530Z 12007KT 9999 BKN022 18/15 Q1013 NOSIG=
201909260600 METAR LRCK 260600Z 12010KT 9999 SCT023 18/15 Q1013 NOSIG=
201909260630 METAR LRCK 260630Z NIL=
201909260700 METAR LRCK 260700Z 13012KT 9999 FEW021 20/15 Q1013 NOSIG=
201909260730 METAR LRCK 260730Z 13011KT 9999 SCT025 19/14 Q1013 NOSIG=
201909260800 METAR LRCK 260800Z 13013KT 9999 SCT022 20/15 Q1013 NOSIG=
201909260830 METAR LRCK 260830Z 12012KT 9999 BKN021 20/15 Q1013 NOSIG=
201909260900 METAR LRCK 260900Z 12011KT 9999 BKN025 20/15 Q1013 NOSIG=
201909260930 METAR LRCK 260930Z 13012KT 9999 BKN025 19/15 Q1013 NOSIG=
201909261000 METAR LRCK 261000Z 12013KT 9999 BKN025 20/15 Q1013 NOSIG=
201909261030 METAR LRCK 261030Z 12012KT 9999 BKN027 21/15 Q1013 NOSIG=
201909261100 METAR LRCK 261100Z 13012KT 9999 BKN025 21/16 Q1013 NOSIG=
201909261130 METAR LRCK 261130Z 12012KT 9999 SCT018 BKN030 21/16 Q1012
                        NOSIG=
201909261200 METAR LRCK 261200Z 12012KT 9999 SCT017 BKN030 20/16 Q1012
                        NOSIG=
201909261230 METAR LRCK 261230Z 12013KT 9999 FEW015 BKN030 21/17 Q1012
                        NOSIG=
201909261300 METAR LRCK 261300Z 13013KT 9999 SCT015 BKN030 21/16 Q1012
                        BECMG 5000 -TSRA BKN015 SCT025CB
                        BKN030=
201909261330 METAR LRCK 261330Z 14011KT 9999 SCT015 BKN040 21/16 Q1012
                        BECMG 5000 -TSRA BKN015 SCT025CB
                        BKN030=
201909261400 METAR LRCK 261400Z 14013KT 9999 FEW016 BKN040 20/17 Q1011
                        BECMG 5000 -TSRA BKN015 SCT025CB
                        BKN030=
201909261430 METAR LRCK 261430Z 14013KT 9999 VCTS SCT015 FEW030CB 20/16
                        Q1011 BECMG 5000 -TSRA BKN015 SCT025CB
                        BKN030=
201909261500 METAR LRCK 261500Z 13011KT 9999 -TSRA SCT017 FEW030CB 19/17
                        Q1011 R18/19//95 NOSIG=
201909261530 METAR LRCK 261530Z 13009KT 9999 -TSRA SCT015 FEW030CB 19/18
                        Q1011 R18/290095 NOSIG=
201909261600 METAR LRCK 261600Z 14009KT 8000 -TSRA BKN011 FEW030CB 19/18
                        Q1011 R18/290095 NOSIG=
201909261630 METAR LRCK 261630Z 15009KT 9999 -RA SCT012 FEW040CB 18/18
                        Q1011 R18/290095 NOSIG=
201909261700 METAR LRCK 261700Z 15009KT 9999 -RA SCT015 18/18 Q1011 R18/290095
                        NOSIG=
201909261730 METAR LRCK 261730Z 15008KT 8000 SCT010 FEW045CB 18/18 Q1011
                        R18/290095 NOSIG=
201909261800 METAR LRCK 261800Z 15007KT 8000 SCT012 FEW045CB 18/18 Q1011
                        R18/290095 NOSIG=
201909261830 METAR LRCK 261830Z 17006KT 8000 TS SCT012 FEW045CB 18/18
                        Q1011 R18/290095 NOSIG=
201909261900 METAR LRCK 261900Z 19008KT 7000 -TSRA SCT012 SCT045CB 18/18
                        Q1011 R18/290095 NOSIG=
201909261930 METAR LRCK 261930Z 19011KT 8000 TS SCT012 SCT047CB 18/18
                        Q1010 R18/290095 TEMPO 5000 TSRA=
201909262000 METAR LRCK 262000Z 22007KT 3000 TSRA SCT012 SCT040CB 18/18
                        Q1010 R18/290095 TEMPO 1500 TSRA=
201909262030 METAR LRCK 262030Z 20005KT 9999 TS FEW016 SCT040CB 18/17
                        Q1010 RETSRA R18/290095 NOSIG=
201909262100 METAR LRCK 262100Z 18007KT 8000 TS SCT012 SCT045CB 18/17
                        Q1010 R18/290095 NOSIG=
201909262130 METAR LRCK 262130Z 21006KT 9999 SCT017 FEW045CB 17/17 Q1010
                        RETS R18/290095 NOSIG=
201909262200 METAR LRCK 262200Z 22005KT 9999 FEW040CB 17/17 Q1010 R18/290095
                        NOSIG=
201909262230 METAR LRCK 262230Z 23006KT 9999 FEW041CB 17/16 Q1010 R18/290095
                        NOSIG=
201909262300 METAR LRCK 262300Z 24007KT 8000 FEW045CB 16/16 Q1010 R18/290095
                        NOSIG=
201909262330 METAR LRCK 262330Z 25005KT 5000 BR NSC 16/15 Q1010 R18/290095
                        NOSIG=
201909270000 METAR LRCK 270000Z 25006KT 8000 NSC 16/16 Q1010 R18/290095
                        NOSIG=
201909270030 METAR LRCK 270030Z 26009KT 7000 SCT035 16/15 Q1010 R18/290095
                        TEMPO 5000 BR=
201909270100 METAR LRCK 270100Z 26010KT 5000 BR SCT035 16/15 Q1010 R18/290095
                        TEMPO 3000 BR=
201909270130 METAR LRCK 270130Z 27011KT 6000 SCT045 16/15 Q1010 R18/290095
                        NOSIG=
201909270200 METAR LRCK 270200Z 27013KT 7000 FEW011 SCT043 16/15 Q1010
                        R18/290095 NOSIG=
201909270230 METAR LRCK 270230Z 26011KT 6000 SCT012 SCT043 15/15 Q1010
                        R18/22//95 NOSIG=
201909270300 METAR LRCK 270300Z 25011KT 5000 BR BKN011 16/15 Q1010 R18/22//95
                        NOSIG=
201909270330 METAR LRCK 270330Z 25013KT 5000 BR BKN009 16/15 Q1010 R18/22//95
                        NOSIG=
201909270400 METAR LRCK 270400Z 27014KT 6000 BKN007 15/14 Q1010 R18/22//95
                        BECMG BKN015=
201909270430 METAR LRCK 270430Z 28013KT 8000 OVC008 15/14 Q1011 BECMG
                        BKN015=
201909270500 METAR LRCK 270500Z 27009KT 7000 OVC010 15/14 Q1011 BECMG
                        BKN015=
201909270530 METAR LRCK 270530Z 26012KT 9999 FEW007 BKN011 15/14 Q1011
                        BECMG BKN015=
201909270600 METAR LRCK 270600Z 26014KT 9999 SCT008 BKN011 15/14 Q1011
                        BECMG 33016KT BKN015=
201909270630 METAR LRCK 270630Z 26013KT 9999 FEW007 BKN015 16/14 Q1011
                        BECMG 32018KT=
201909270700 METAR LRCK 270700Z 26016KT 9999 BKN008 16/14 Q1011 BECMG
                        32018KT BKN015=
201909270730 METAR LRCK 270730Z 27017KT 9999 BKN007 15/15 Q1012 BECMG
                        33018KT BKN015=
201909270800 METAR LRCK 270800Z 27014KT 5000 BR BKN005 15/15 Q1012 R18/19//95
                        BECMG 9999 NSW BKN010=
201909270830 METAR LRCK 270830Z 29016KT 9999 SCT005 BKN008 16/15 Q1012
                        R18/19//95 BECMG BKN015=
201909270900 METAR LRCK 270900Z 29018KT 9999 BKN010 17/15 Q1011 R18/19//95
                        BECMG BKN015=
201909270930 METAR LRCK 270930Z 29019KT 9999 SCT011 SCT015 17/14 Q1012
                        R18/CLRD// BECMG BKN015=
201909271000 METAR LRCK 271000Z 29023KT 9999 BKN015 18/14 Q1012 NOSIG=
201909271030 METAR LRCK 271030Z 29022KT 9999 BKN015 18/13 Q1012 BECMG
                        BKN025=
201909271100 METAR LRCK 271100Z 30023KT 9999 BKN013 16/13 Q1012 BECMG
                        BKN020=
201909271130 METAR LRCK 271130Z 29020KT 9999 FEW009 BKN012 16/14 Q1012
                        NOSIG=
201909271200 METAR LRCK 271200Z 29019KT 9999 BKN009 16/13 Q1012 NOSIG=
201909271230 METAR LRCK 271230Z 29018KT 3000 SHRA BKN007 SCT029CB 15/14
                        Q1012 NOSIG=
201909271300 METAR LRCK 271300Z 32017KT 8000 -RA BKN006 15/14 Q1012 R36/29//95
                        NOSIG=
201909271330 METAR LRCK 271330Z 33017KT 5000 -RA BR BKN008 15/14 Q1013
                        R36/29//95 BECMG BKN015=
201909271400 METAR LRCK 271400Z 32015KT 8000 -RA BKN008 15/14 Q1014 R36/29//95
                        BECMG BKN015=
201909271430 METAR LRCK 271430Z 33014KT 9999 SCT008 BKN011 15/14 Q1014
                        R36/29//95 BECMG BKN015=
201909271500 METAR LRCK 271500Z 33012KT 9999 SCT011 BKN020 15/14 Q1015
                        R36/29//95 NOSIG=
201909271530 METAR LRCK 271530Z 33011KT 9999 SCT018 BKN020 15/14 Q1015
                        R36/29//95 NOSIG=
201909271600 METAR LRCK 271600Z 32011KT 9999 SCT016 SCT020 15/14 Q1016
                        R36/19//95 NOSIG=
201909271630 METAR LRCK 271630Z 33009KT 9999 SCT021 15/14 Q1016 R36/19//95
                        NOSIG=
201909271700 METAR LRCK 271700Z 34009KT CAVOK 14/14 Q1016 R36/19//95 NOSIG=
201909271730 METAR LRCK 271730Z 32008KT CAVOK 14/13 Q1017 R36/19//95 NOSIG=
201909271800 METAR LRCK 271800Z 30007KT CAVOK 14/13 Q1017 R36/19//95 NOSIG=
201909271830 METAR LRCK 271830Z 31007KT CAVOK 13/13 Q1017 R36/210095 NOSIG=
201909271900 METAR LRCK 271900Z 33005KT CAVOK 13/12 Q1017 R36/210095 NOSIG=
201909271930 METAR LRCK 271930Z 32004KT CAVOK 13/12 Q1017 R36/210095 NOSIG=
201909272000 METAR LRCK 272000Z 30005KT CAVOK 12/11 Q1018 R36/210095 NOSIG=
201909272030 METAR LRCK 272030Z 28007KT CAVOK 13/12 Q1018 R36/210095 NOSIG=
201909272100 METAR LRCK 272100Z 29006KT CAVOK 12/12 Q1018 R36/210095 NOSIG=
201909272130 METAR LRCK 272130Z 29008KT CAVOK 12/12 Q1018 R36/210095 NOSIG=
201909272200 METAR LRCK 272200Z 31003KT CAVOK 12/11 Q1018 R36/210095 NOSIG=
201909272230 METAR LRCK 272230Z VRB02KT CAVOK 10/10 Q1018 R36/210095 NOSIG=
201909272300 METAR LRCK 272300Z 26006KT 8000 NSC 11/11 Q1018 R36/210095
                        NOSIG=
201909272330 METAR LRCK 272330Z 27007KT 8000 NSC 11/11 Q1019 R36/CLRD//
                        NOSIG=
201909280000 METAR LRCK 280000Z 28008KT 8000 NSC 12/11 Q1019 NOSIG=
201909280030 METAR LRCK 280030Z 28008KT 8000 NSC 11/11 Q1019 NOSIG=
201909280100 METAR COR LRCK 280100Z 29008KT 5000 BR NSC 12/12 Q1019 NOSIG=
201909280130 METAR LRCK 280130Z 30008KT 3000 BR NSC 12/12 Q1019 NOSIG=
201909280200 METAR LRCK 280200Z 30009KT 3000 BR NSC 12/11 Q1019 NOSIG=
201909280230 METAR LRCK 280230Z 29008KT 5000 BR NSC 11/11 Q1019 NOSIG=
201909280300 METAR COR LRCK 280300Z 25003KT 220V300 5000 BR NSC 10/10
                        Q1019 NOSIG=
201909280330 METAR LRCK 280330Z 27004KT 5000 BR NSC 10/10 Q1019 NOSIG=
201909280400 METAR LRCK 280400Z 29008KT 5000 BR NSC 11/11 Q1019 NOSIG=
201909280430 METAR LRCK 280430Z 29008KT 5000 BR NSC 11/11 Q1019 BECMG
                        9999 NSW=
201909280500 METAR COR LRCK 280500Z 29008KT 7000 NSC 12/12 Q1019 NOSIG=
201909280530 METAR LRCK 280530Z 28007KT CAVOK 13/13 Q1020 NOSIG=
201909280600 METAR LRCK 280600Z 28005KT CAVOK 15/13 Q1020 NOSIG=
201909280630 METAR LRCK 280630Z 27005KT CAVOK 16/13 Q1020 NOSIG=
201909280700 METAR LRCK 280700Z 28003KT 260V320 CAVOK 18/13 Q1020 NOSIG=
201909280730 METAR LRCK 280730Z 26003KT 200V290 CAVOK 19/13 Q1020 NOSIG=
201909280800 METAR LRCK 280800Z 22005KT 190V250 CAVOK 19/13 Q1020 NOSIG=
201909280830 METAR LRCK 280830Z 21005KT 190V250 CAVOK 20/14 Q1020 NOSIG=
201909280900 METAR LRCK 280900Z 19006KT 160V220 CAVOK 21/15 Q1020 NOSIG=
201909280930 METAR LRCK 280930Z 19005KT 160V230 CAVOK 21/14 Q1020 NOSIG=
201909281000 METAR LRCK 281000Z 16007KT CAVOK 21/13 Q1020 NOSIG=
201909281030 METAR LRCK 281030Z 20007KT 160V230 9999 FEW032 22/14 Q1020
                        NOSIG=
201909281100 METAR COR LRCK 281100Z 16007KT 9999 FEW032 22/14 Q1019 NOSIG=
201909281130 METAR LRCK 281130Z 16006KT 9999 FEW034 22/14 Q1019 NOSIG=
201909281200 METAR LRCK 281200Z 14007KT 9999 FEW035 23/13 Q1019 NOSIG=
201909281230 METAR LRCK 281230Z 13010KT 9999 FEW035 21/15 Q1019 NOSIG=
201909281300 METAR LRCK 281300Z 13011KT 9999 FEW035 22/15 Q1018 NOSIG=
201909281330 METAR LRCK 281330Z 13013KT 9999 FEW035 22/15 Q1018 NOSIG=
201909281400 METAR LRCK 281400Z 14011KT CAVOK 21/15 Q1018 NOSIG=
201909281430 METAR LRCK 281430Z 14012KT CAVOK 21/14 Q1018 NOSIG=
201909281500 METAR LRCK 281500Z 14011KT CAVOK 20/14 Q1018 NOSIG=
201909281530 METAR LRCK 281530Z 15010KT CAVOK 19/15 Q1018 NOSIG=
201909281600 METAR LRCK 281600Z 15008KT CAVOK 18/15 Q1018 NOSIG=
201909281630 METAR LRCK 281630Z 16009KT CAVOK 17/15 Q1018 NOSIG=
201909281700 METAR LRCK 281700Z 16010KT CAVOK 17/15 Q1018 NOSIG=
201909281730 METAR LRCK 281730Z 16009KT CAVOK 17/15 Q1018 NOSIG=
201909281800 METAR LRCK 281800Z 16009KT CAVOK 16/15 Q1018 NOSIG=
201909281830 METAR LRCK 281830Z 17008KT CAVOK 16/15 Q1018 NOSIG=
201909281900 METAR LRCK 281900Z 18009KT CAVOK 16/15 Q1018 NOSIG=
201909281930 METAR LRCK 281930Z 17009KT CAVOK 15/14 Q1018 NOSIG=
201909282000 METAR LRCK 282000Z 17009KT CAVOK 15/14 Q1017 NOSIG=
201909282030 METAR LRCK 282030Z 17010KT CAVOK 15/14 Q1017 NOSIG=
201909282100 METAR COR LRCK 282100Z 17009KT CAVOK 15/14 Q1017 NOSIG=
201909282130 METAR LRCK 282130Z 17009KT CAVOK 15/14 Q1017 NOSIG=
201909282200 METAR LRCK 282200Z 18006KT CAVOK 15/14 Q1017 NOSIG=
201909282230 METAR LRCK 282230Z 18007KT CAVOK 15/15 Q1016 NOSIG=
201909282300 METAR LRCK 282300Z 19007KT CAVOK 15/15 Q1016 NOSIG=
201909282330 METAR LRCK 282330Z 20007KT CAVOK 15/15 Q1016 NOSIG=
201909290000 METAR LRCK 290000Z 20009KT CAVOK 15/15 Q1016 NOSIG=
201909290030 METAR LRCK 290030Z 20008KT CAVOK 15/15 Q1015 NOSIG=
201909290100 METAR LRCK 290100Z 23005KT 8000 NSC 14/14 Q1015 NOSIG=
201909290130 METAR LRCK 290130Z 21006KT 8000 NSC 13/13 Q1015 NOSIG=
201909290200 METAR LRCK 290200Z 23006KT CAVOK 14/14 Q1015 NOSIG=
201909290230 METAR LRCK 290230Z 24007KT CAVOK 14/14 Q1015 NOSIG=
201909290300 METAR LRCK 290300Z 25008KT 6000 NSC 14/14 Q1015 NOSIG=
201909290330 METAR LRCK 290330Z 23008KT CAVOK 14/14 Q1014 NOSIG=
201909290400 METAR LRCK 290400Z 25009KT CAVOK 14/13 Q1015 NOSIG=
201909290430 METAR LRCK 290430Z 24007KT CAVOK 14/13 Q1014 NOSIG=
201909290500 METAR LRCK 290500Z 24006KT CAVOK 14/14 Q1015 NOSIG=
201909290530 METAR LRCK 290530Z 24005KT CAVOK 15/15 Q1015 NOSIG=
201909290600 METAR LRCK 290600Z 24006KT CAVOK 16/15 Q1015 NOSIG=
201909290630 METAR LRCK 290630Z 25005KT CAVOK 17/14 Q1015 NOSIG=
201909290700 METAR LRCK 290700Z 27008KT CAVOK 19/14 Q1015 NOSIG=
201909290730 METAR LRCK 290730Z 27008KT CAVOK 20/13 Q1015 NOSIG=
201909290800 METAR LRCK 290800Z 27010KT CAVOK 22/13 Q1015 NOSIG=
201909290830 METAR LRCK 290830Z 29010KT CAVOK 22/13 Q1015 NOSIG=
201909290900 METAR LRCK 290900Z 30011KT CAVOK 23/13 Q1015 NOSIG=
201909290930 METAR LRCK 290930Z 32009KT 290V350 CAVOK 24/14 Q1015 NOSIG=
201909291000 METAR LRCK 291000Z 33008KT CAVOK 25/13 Q1015 NOSIG=
201909291030 METAR LRCK 291030Z 32009KT CAVOK 25/11 Q1015 NOSIG=
201909291100 METAR LRCK 291100Z 30007KT CAVOK 25/11 Q1015 NOSIG=
201909291130 METAR LRCK 291130Z 35009KT 320V020 CAVOK 27/10 Q1014 NOSIG=
201909291200 METAR LRCK 291200Z 06007KT CAVOK 26/14 Q1014 NOSIG=
201909291230 METAR LRCK 291230Z 10008KT CAVOK 25/13 Q1014 NOSIG=
201909291300 METAR LRCK 291300Z 08007KT 050V110 CAVOK 25/14 Q1014 NOSIG=
201909291330 METAR LRCK 291330Z 09005KT 040V140 CAVOK 24/13 Q1014 NOSIG=
201909291400 METAR LRCK 291400Z 11007KT CAVOK 24/14 Q1014 NOSIG=
201909291430 METAR LRCK 291430Z 08006KT CAVOK 23/14 Q1014 NOSIG=
201909291500 METAR LRCK 291500Z 09007KT CAVOK 22/15 Q1014 NOSIG=
201909291530 METAR LRCK 291530Z 10006KT CAVOK 22/15 Q1014 NOSIG=
201909291600 METAR LRCK 291600Z 12006KT CAVOK 20/15 Q1014 NOSIG=
201909291630 METAR LRCK 291630Z 10005KT CAVOK 19/15 Q1014 NOSIG=
201909291700 METAR LRCK 291700Z 13005KT CAVOK 18/15 Q1014 NOSIG=
201909291730 METAR LRCK 291730Z 17007KT CAVOK 17/15 Q1014 NOSIG=
201909291800 METAR LRCK 291800Z 17006KT CAVOK 17/15 Q1015 NOSIG=
201909291830 METAR LRCK 291830Z 17007KT 8000 NSC 17/15 Q1015 NOSIG=
201909291900 METAR LRCK 291900Z 18007KT CAVOK 17/15 Q1015 NOSIG=
201909291930 METAR LRCK 291930Z 18009KT CAVOK 17/15 Q1014 NOSIG=
201909292000 METAR LRCK 292000Z 18008KT CAVOK 17/15 Q1014 NOSIG=
201909292030 METAR LRCK 292030Z 17009KT CAVOK 17/14 Q1014 NOSIG=
201909292100 METAR LRCK 292100Z 15003KT CAVOK 17/14 Q1014 NOSIG=
201909292130 METAR LRCK 292130Z 15005KT CAVOK 16/13 Q1014 NOSIG=
201909292200 METAR COR LRCK 292200Z 16006KT CAVOK 16/13 Q1014 NOSIG=
201909292230 METAR LRCK 292230Z 15006KT CAVOK 15/13 Q1014 NOSIG=
201909292300 METAR LRCK 292300Z 13006KT CAVOK 16/13 Q1013 NOSIG=
201909292330 METAR LRCK 292330Z 13006KT CAVOK 16/14 Q1013 NOSIG=
201909300000 METAR COR LRCK 300000Z 14007KT CAVOK 16/14 Q1013 NOSIG=
201909300030 METAR COR LRCK 300030Z 15006KT CAVOK 16/15 Q1012 NOSIG=
201909300100 METAR COR LRCK 300100Z 15008KT CAVOK 15/15 Q1012 NOSIG=
201909300130 METAR LRCK 300130Z 15007KT CAVOK 16/15 Q1012 NOSIG=
201909300200 METAR LRCK 300200Z 16006KT CAVOK 16/15 Q1012 NOSIG=
201909300230 METAR LRCK 300230Z 18004KT CAVOK 15/15 Q1011 NOSIG=
201909300300 METAR LRCK 300300Z 18006KT CAVOK 16/15 Q1011 NOSIG=
201909300330 METAR LRCK 300330Z 17007KT CAVOK 16/15 Q1011 NOSIG=
201909300400 METAR LRCK 300400Z VRB02KT CAVOK 17/16 Q1011 NOSIG=
201909300430 METAR LRCK 300430Z 18008KT CAVOK 18/16 Q1011 NOSIG=
201909300500 METAR LRCK 300500Z 18010KT CAVOK 18/17 Q1011 BECMG 24012KT=
201909300530 METAR LRCK 300530Z 22008KT CAVOK 19/17 Q1011 NOSIG=
201909300600 METAR LRCK 300600Z 19010KT CAVOK 20/18 Q1011 NOSIG=
201909300630 METAR LRCK 300630Z 19012KT CAVOK 21/18 Q1011 NOSIG=
201909300700 METAR LRCK 300700Z 20012KT CAVOK 22/18 Q1011 NOSIG=
201909300730 METAR LRCK 300730Z AUTO 21010KT 9999 FEW082/// 24/17 Q1011
                        NOSIG=
201909300800 METAR LRCK 300800Z 21011KT CAVOK 25/17 Q1010 NOSIG=
201909300830 METAR LRCK 300830Z 21010KT CAVOK 26/16 Q1010 NOSIG=
201909300900 METAR LRCK 300900Z 23009KT CAVOK 27/14 Q1010 NOSIG=
201909300930 METAR LRCK 300930Z 24010KT CAVOK 28/14 Q1010 NOSIG=
201909301000 METAR LRCK 301000Z 27010KT CAVOK 28/13 Q1010 NOSIG=
201909301030 METAR LRCK 301030Z 27013KT CAVOK 29/12 Q1009 NOSIG=
201909301100 METAR LRCK 301100Z 25013KT CAVOK 29/12 Q1009 NOSIG=
201909301130 METAR LRCK 301130Z 25012KT CAVOK 29/12 Q1009 NOSIG=
201909301200 METAR LRCK 301200Z 26009KT 230V290 CAVOK 30/11 Q1008 NOSIG=
201909301230 METAR LRCK 301230Z 25009KT CAVOK 30/11 Q1008 NOSIG=
201909301300 METAR LRCK 301300Z 25009KT CAVOK 29/10 Q1008 NOSIG=
201909301330 METAR LRCK 301330Z 25010KT CAVOK 30/11 Q1007 NOSIG=
201909301400 METAR LRCK 301400Z 24010KT CAVOK 29/10 Q1007 NOSIG=
201909301430 METAR LRCK 301430Z 25007KT CAVOK 28/11 Q1007 NOSIG=
201909301500 METAR LRCK 301500Z VRB02KT CAVOK 28/16 Q1007 NOSIG=
201909301530 METAR LRCK 301530Z 17012KT CAVOK 26/14 Q1007 NOSIG=
201909301600 METAR LRCK 301600Z 19010KT CAVOK 25/14 Q1007 NOSIG=
201909301630 METAR LRCK 301630Z 18010KT CAVOK 24/15 Q1007 NOSIG=
201909301700 METAR LRCK 301700Z 19013KT CAVOK 23/15 Q1007 NOSIG=
201909301730 METAR LRCK 301730Z 19012KT CAVOK 22/15 Q1007 NOSIG=
201909301800 METAR LRCK 301800Z 19009KT CAVOK 21/15 Q1007 NOSIG=
201909301830 METAR LRCK 301830Z 21008KT CAVOK 20/15 Q1007 NOSIG=
201909301900 METAR LRCK 301900Z 21007KT CAVOK 20/15 Q1007 NOSIG=
201909301930 METAR LRCK 301930Z 22007KT CAVOK 19/15 Q1007 NOSIG=
201909302000 METAR LRCK 302000Z 22005KT CAVOK 18/14 Q1008 NOSIG=
201909302030 METAR LRCK 302030Z 23007KT CAVOK 18/14 Q1008 NOSIG=
201909302100 METAR LRCK 302100Z 24007KT CAVOK 17/14 Q1008 NOSIG=
201909302130 METAR LRCK 302130Z 25007KT CAVOK 18/13 Q1008 NOSIG=
201909302200 METAR LRCK 302200Z 24007KT CAVOK 18/12 Q1008 NOSIG=
201909302230 METAR LRCK 302230Z 24008KT CAVOK 18/12 Q1008 NOSIG=
201909302300 METAR LRCK 302300Z 26010KT CAVOK 18/12 Q1009 NOSIG=
201909302330 METAR COR LRCK 302330Z 28010KT CAVOK 18/12 Q1009 NOSIG=
