201909010500 TAF LRCK 010500Z 0106/0206 36008KT CAVOK
                      BECMG 0108/0110 08014KT
                      BECMG 0117/0119 VRB04KT=
201909011100 TAF LRCK 011100Z 0112/0212 08014KT CAVOK
                      BECMG 0117/0119 VRB04KT
                      TEMPO 0201/0204 3000 BR
                      BECMG 0208/0210 11014KT=
201909011700 TAF LRCK 011700Z 0118/0218 VRB04KT CAVOK
                      BECMG 0207/0209 08012KT
                      BECMG 0216/0218 VRB04KT=
201909012300 TAF LRCK 012300Z 0200/0224 36005KT CAVOK
                      BECMG 0207/0209 08012KT
                      BECMG 0216/0218 VRB04KT=
201909020500 TAF LRCK 020500Z 0206/0306 34005KT CAVOK
                      BECMG 0207/0209 08012KT
                      BECMG 0216/0218 VRB04KT
                      PROB30 TEMPO 0223/0303 5000 BR=
201909021100 TAF LRCK 021100Z 0212/0312 08012KT CAVOK
                      BECMG 0216/0218 VRB04KT
                      PROB30 TEMPO 0223/0303 5000 BR
                      BECMG 0310/0312 11010KT=
201909021700 TAF LRCK 021700Z 0218/0318 14008KT CAVOK
                      BECMG 0223/0301 3000 BR
                      PROB30 TEMPO 0301/0304 0600 FG BKN002
                      BECMG 0305/0307 CAVOK=
201909022300 TAF LRCK 022300Z 0300/0324 VRB04KT CAVOK
                      TEMPO 0300/0304 3000 BR
                      BECMG 0312/0314 13010KT
                      BECMG 0318/0320 VRB04KT=
201909030500 TAF LRCK 030500Z 0306/0406 32008KT CAVOK
                      BECMG 0310/0312 13012KT
                      BECMG 0318/0320 VRB04KT
                      BECMG 0401/0403 01012KT
                      PROB40 TEMPO 0403/0406 02016G26KT SCT035CB=
201909031100 TAF LRCK 031100Z 0312/0412 VRB04KT CAVOK
                      TEMPO 0312/0317 12010KT
                      BECMG 0401/0403 01014KT
                      TEMPO 0404/0410 02016G26KT SCT035CB
                      PROB40 TEMPO 0408/0412 5000 SHRA=
201909031700 TAF LRCK 031700Z 0318/0418 17006KT CAVOK
                      BECMG 0401/0403 01014KT
                      TEMPO 0404/0410 02016G26KT SCT035CB
                      PROB40 TEMPO 0408/0414 5000 SHRA=
201909032300 TAF LRCK 032300Z 0400/0424 VRB04KT CAVOK
                      BECMG 0401/0403 01014KT
                      TEMPO 0404/0410 02016G26KT
                      PROB40 TEMPO 0408/0414 5000 SHRA SCT035CB=
201909040500 TAF LRCK 040500Z 0406/0506 01014KT CAVOK=
201909041100 TAF LRCK 041100Z 0412/0512 02014KT CAVOK=
201909041700 TAF LRCK 041700Z 0418/0518 02010KT CAVOK
                      BECMG 0514/0516 12005KT=
201909042300 TAF LRCK 042300Z 0500/0524 01010KT CAVOK
                      BECMG 0510/0512 07010KT
                      BECMG 0515/0517 VRB04KT=
201909050500 TAF LRCK 050500Z 0506/0606 02007KT 9999 FEW060CB
                      BECMG 0507/0508 NSC
                      BECMG 0510/0512 13010KT
                      BECMG 0516/0518 VRB04KT=
201909051100 TAF LRCK 051100Z 0512/0612 VRB04KT CAVOK
                      TEMPO 0513/0519 14010KT
                      BECMG 0608/0610 01010KT=
201909051700 TAF LRCK 051700Z 0518/0618 VRB04KT CAVOK
                      BECMG 0606/0608 01010KT
                      BECMG 0612/0614 09010KT=
201909052300 TAF LRCK 052300Z 0600/0624 VRB04KT CAVOK
                      BECMG 0606/0608 01010KT
                      BECMG 0612/0614 09010KT=
201909060500 TAF LRCK 060500Z 0606/0706 29007KT CAVOK
                      BECMG 0606/0608 35010KT
                      BECMG 0613/0615 07010KT
                      BECMG 0617/0619 VRB04KT
                      PROB30 TEMPO 0702/0705 5000 BR=
201909061100 TAF LRCK 061100Z 0612/0712 01010KT CAVOK
                      BECMG 0613/0615 08010KT
                      BECMG 0617/0619 VRB04KT
                      PROB30 TEMPO 0702/0705 5000 BR
                      BECMG 0709/0711 07010KT=
201909061700 TAF LRCK 061700Z 0618/0718 VRB04KT CAVOK
                      TEMPO 0700/0705 3000 BR
                      BECMG 0707/0709 07012KT=
201909062300 TAF LRCK 062300Z 0700/0724 30008KT CAVOK
                      TEMPO 0700/0705 3000 BR
                      BECMG 0707/0709 07012KT=
201909070500 TAF LRCK 070500Z 0706/0806 01010KT CAVOK
                      BECMG 0708/0710 09012KT
                      BECMG 0718/0721 01006KT
                      BECMG 0804/0806 08012KT
                      PROB40 TEMPO 0804/0806 BKN015 FEW040CB=
201909071100 TAF LRCK 071100Z 0712/0812 09012KT CAVOK
                      BECMG 0718/0721 01006KT
                      BECMG 0804/0806 09012KT
                      PROB40 TEMPO 0804/0808 SCT015 FEW040CB
                      TEMPO 0808/0812 09015G25KT=
201909071700 TAF LRCK 071700Z 0718/0818 VRB04KT CAVOK
                      BECMG 0804/0806 09012KT
                      PROB30 TEMPO 0804/0808 SCT015 FEW040CB
                      TEMPO 0808/0814 09015G25KT=
201909072300 TAF LRCK 072300Z 0800/0824 01007KT CAVOK
                      BECMG 0804/0806 09012KT
                      PROB30 TEMPO 0804/0808 SCT015 FEW040CB
                      TEMPO 0808/0814 09015G25KT
                      BECMG 0817/0819 VRB04KT=
201909080500 TAF LRCK 080500Z 0806/0906 02010KT CAVOK
                      TEMPO 0807/0816 09015G25KT
                      BECMG 0818/0820 VRB04KT
                      BECMG 0904/0906 06010KT=
201909081100 TAF LRCK 081100Z 0812/0912 07014KT CAVOK
                      PROB30 TEMPO 0812/0816 09015G25KT
                      BECMG 0818/0820 VRB04KT
                      BECMG 0904/0906 06010KT=
201909081700 TAF LRCK 081700Z 0818/0918 03007KT CAVOK
                      BECMG 0906/0908 09015KT
                      PROB30 TEMPO 0909/0914 09015G25KT=
201909082300 TAF LRCK 082300Z 0900/0924 01007KT CAVOK
                      BECMG 0906/0908 09015KT
                      PROB30 TEMPO 0909/0914 09015G25KT
                      BECMG 0917/0919 01007KT=
201909090500 TAF LRCK 090500Z 0906/1006 01008KT CAVOK
                      BECMG 0906/0908 09015KT
                      PROB30 TEMPO 0909/0914 09015G25KT
                      BECMG 0917/0919 01008KT=
201909091100 TAF LRCK 091100Z 0912/1012 07017KT CAVOK
                      PROB40 TEMPO 0912/0915 09017G27KT
                      BECMG 0918/0920 01008KT
                      BECMG 1006/1008 07018KT=
201909091700 TAF LRCK 091700Z 0918/1018 07006KT CAVOK
                      BECMG 1005/1007 07016KT=
201909092300 TAF LRCK 092300Z 1000/1024 36008KT CAVOK
                      BECMG 1005/1007 07018KT
                      BECMG 1018/1020 VRB04KT=
201909100500 TAF LRCK 100500Z 1006/1106 09010KT CAVOK
                      BECMG 1102/1104 BKN010=
201909101100 TAF LRCK 101100Z 1012/1112 09010KT CAVOK
                      TEMPO 1100/1104 5000 BR BKN010
                      TEMPO 1109/1112 08020G30KT=
201909101700 TAF LRCK 101700Z 1018/1118 07010KT CAVOK
                      TEMPO 1100/1104 5000 BR BKN010
                      TEMPO 1109/1112 07020G30KT=
201909102300 TAF LRCK 102300Z 1100/1124 04007KT CAVOK
                      TEMPO 1100/1104 5000 BR BKN010
                      BECMG 1106/1108 07018KT
                      TEMPO 1109/1112 07020G30KT
                      BECMG 1118/1120 03008KT=
201909110500 TAF LRCK 110500Z 1106/1206 02012KT CAVOK
                      BECMG 1106/1108 08018KT
                      TEMPO 1109/1113 08020G30KT
                      BECMG 1118/1120 03008KT=
201909111100 TAF LRCK 111100Z 1112/1212 08018KT CAVOK
                      TEMPO 1112/1114 08018G28KT
                      BECMG 1118/1120 03008KT=
201909111700 TAF LRCK 111700Z 1118/1218 08006KT CAVOK
                      BECMG 1208/1210 08016KT
                      BECMG 1215/1217 05006KT=
201909112300 TAF LRCK 112300Z 1200/1224 02010KT CAVOK
                      BECMG 1208/1210 08016KT
                      BECMG 1215/1217 05006KT=
201909120500 TAF LRCK 120500Z 1206/1306 02010KT CAVOK
                      TEMPO 1208/1215 08015G25KT=
201909121100 TAF LRCK 121100Z 1212/1312 04010KT 9999 SCT040
                      TEMPO 1212/1216 07015G25KT=
201909121700 TAF LRCK 121700Z 1218/1318 02010KT 9999 SCT040
                      BECMG 1315/1317 VRB04KT=
201909122300 TAF LRCK 122300Z 1300/1324 01010KT 9999 SCT040
                      BECMG 1315/1317 VRB04KT=
201909130500 TAF LRCK 130500Z 1306/1406 03012KT CAVOK
                      BECMG 1310/1312 12010KT
                      BECMG 1316/1318 VRB04KT=
201909131100 TAF LRCK 131100Z 1312/1412 04012KT CAVOK
                      BECMG 1312/1314 12010KT
                      BECMG 1316/1318 VRB04KT=
201909131700 TAF LRCK 131700Z 1318/1418 VRB04KT CAVOK
                      BECMG 1408/1410 05010KT=
201909132300 TAF LRCK 132300Z 1400/1424 32006KT CAVOK
                      BECMG 1408/1410 03012KT=
201909140500 TAF LRCK 140500Z 1406/1506 30010KT CAVOK
                      BECMG 1408/1410 03012KT=
201909141100 TAF LRCK 141100Z 1412/1512 03012KT CAVOK
                      BECMG 1509/1511 09010KT=
201909141700 TAF LRCK 141700Z 1418/1518 03012KT CAVOK
                      BECMG 1509/1511 09010KT=
201909142300 TAF LRCK 142300Z 1500/1524 03014KT CAVOK
                      BECMG 1509/1511 09010KT
                      BECMG 1518/1520 VRB04KT=
201909150500 TAF LRCK 150500Z 1506/1606 36010KT CAVOK
                      BECMG 1510/1511 12010KT
                      BECMG 1519/1521 21004KT=
201909151100 TAF LRCK 151100Z 1512/1612 12010KT CAVOK
                      BECMG 1519/1521 20005KT
                      BECMG 1610/1612 26010KT=
201909151700 TAF LRCK 151700Z 1518/1618 14006KT CAVOK
                      BECMG 1608/1610 26010KT
                      BECMG 1616/1618 VRB04KT=
201909152300 TAF LRCK 152300Z 1600/1624 17006KT CAVOK
                      BECMG 1608/1610 26010KT
                      BECMG 1616/1618 VRB04KT=
201909160500 TAF LRCK 160500Z 1606/1706 VRB04KT CAVOK
                      BECMG 1608/1610 26010KT
                      BECMG 1616/1618 VRB04KT=
201909161100 TAF LRCK 161100Z 1612/1712 27010KT CAVOK
                      BECMG 1616/1618 VRB04KT
                      BECMG 1706/1708 28012KT=
201909161700 TAF LRCK 161700Z 1618/1718 VRB04KT CAVOK
                      BECMG 1705/1707 28012KT
                      BECMG 1715/1717 VRB04KT=
201909162300 TAF LRCK 162300Z 1700/1724 VRB04KT CAVOK
                      BECMG 1705/1707 28012KT
                      BECMG 1714/1716 VRB04KT
                      BECMG 1721/1723 27010KT=
201909170500 TAF LRCK 170500Z 1706/1806 30012KT CAVOK
                      BECMG 1715/1717 VRB04KT=
201909171100 TAF LRCK 171100Z 1712/1812 29010KT CAVOK
                      BECMG 1715/1717 VRB04KT
                      BECMG 1808/1810 32018KT=
201909171453 TAF AMD LRCK 171453Z 1714/1812 12012KT CAVOK
                      BECMG 1717/1719 VRB04KT
                      BECMG 1808/1810 32018KT=
201909171700 TAF LRCK 171700Z 1718/1818 10010KT CAVOK
                      BECMG 1718/1720 27008KT
                      BECMG 1808/1810 34018KT
                      PROB30 TEMPO 1813/1818 5000 RA BKN015 BKN030=
201909172300 TAF LRCK 172300Z 1800/1824 25007KT CAVOK
                      BECMG 1808/1810 34016KT
                      PROB30 TEMPO 1813/1818 5000 RA BKN015 BKN030
                       BECMG 1818/1820 05012KT=
201909180500 TAF LRCK 180500Z 1806/1906 28008KT CAVOK
                      BECMG 1808/1810 34016KT
                      TEMPO 1810/1813 34018G28KT
                      PROB30 TEMPO 1813/1818 5000 RA -SHRA SCT015
                       SCT030CB BKN040
                      BECMG 1818/1820 05012KT=
201909181100 TAF LRCK 181100Z 1812/1912 34014KT 9999 SCT040
                      TEMPO 1812/1816 5000 -RA -SHRA SCT030CB BKN040
                       PROB40
                      TEMPO 1812/1814 34018G28KT
                      BECMG 1818/1820 05012KT
                      PROB30 TEMPO 1910/1912 5000 -RA -SHRA SCT030CB
                       BKN040=
201909181700 TAF LRCK 181700Z 1818/1918 04010KT CAVOK
                      BECMG 1910/1912 VRB04KT
                      PROB30 TEMPO 1912/1917 5000 SHRA SCT030CB
                       BKN035=
201909182300 TAF LRCK 182300Z 1900/1924 03010KT CAVOK
                      BECMG 1910/1912 VRB04KT
                      PROB30 TEMPO 1912/1917 5000 SHRA SCT030CB
                       BKN035
                      BECMG 1921/1923 01015KT=
201909190500 TAF LRCK 190500Z 1906/2006 03012KT CAVOK
                      BECMG 1910/1912 09008KT
                      TEMPO 1920/2003 5000 -RA SCT010 FEW030CB
                       BKN035
                      BECMG 2004/2006 03012KT=
201909191100 TAF LRCK 191100Z 1912/2012 10008KT 9999 BKN045
                      TEMPO 1920/2003 5000 -RA SCT010 FEW030CB
                       BKN035
                      BECMG 2004/2006 02012KT=
201909191700 TAF LRCK 191700Z 1918/2018 08010KT 9999 BKN040
                      TEMPO 1918/1923 VRB04KT 5000 -RA -SHRA SCT010
                       FEW030CB BKN035
                      BECMG 1923/2001 36012KT 3000 RA SHRA BKN010
                       SCT030CB BKN035
                      BECMG 2006/2008 CAVOK=
201909192300 TAF LRCK 192300Z 2000/2024 36012KT 9999 BKN040
                      TEMPO 2000/2006 3000 RA SHRA BKN010 SCT030CB
                       BKN035=
201909200500 TAF LRCK 200500Z 2006/2106 36010KT 9999 BKN045
                      PROB30 TEMPO 2006/2009 5000 -RA BKN015 BKN035=
201909201100 TAF LRCK 201100Z 2012/2112 36010KT CAVOK=
201909201700 TAF LRCK 201700Z 2018/2118 33008KT CAVOK=
201909202300 TAF LRCK 202300Z 2100/2124 34010KT CAVOK
                      BECMG 2116/2118 VRB03KT=
201909210500 TAF LRCK 210500Z 2106/2206 34010KT CAVOK
                      BECMG 2116/2118 VRB03KT=
201909211100 TAF LRCK 211100Z 2112/2212 34010KT CAVOK
                      BECMG 2116/2118 VRB03KT
                      BECMG 2208/2210 24010KT=
201909211700 TAF LRCK 211700Z 2118/2218 VRB04KT CAVOK
                      BECMG 2208/2210 23010KT=
201909212300 TAF LRCK 212300Z 2200/2224 23010KT CAVOK
                      BECMG 2221/2223 VRB04KT=
201909220500 TAF LRCK 220500Z 2206/2306 24008KT CAVOK=
201909221100 TAF LRCK 221100Z 2212/2312 23008KT CAVOK=
201909221700 TAF LRCK 221700Z 2218/2318 18010KT CAVOK
                      BECMG 2221/2223 VRB04KT
                      BECMG 2307/2309 18010KT=
201909222300 TAF LRCK 222300Z 2300/2324 VRB04KT CAVOK
                      BECMG 2307/2309 18010KT=
201909230500 TAF LRCK 230500Z 2306/2406 22006KT CAVOK
                      BECMG 2310/2312 14010KT
                      BECMG 2317/2319 VRB04KT=
201909231100 TAF LRCK 231100Z 2312/2412 12012KT CAVOK
                      BECMG 2317/2319 VRB04KT
                      PROB30 TEMPO 2408/2412 5000 -RA -SHRA SCT010
                       SCT035CB BKN045=
201909231700 TAF LRCK 231700Z 2318/2418 15008KT CAVOK
                      PROB30 TEMPO 2408/2415 5000 -RA -SHRA SCT010
                       SCT035CB BKN045
                      BECMG 2415/2417 05010KT=
201909232300 TAF LRCK 232300Z 2400/2424 15006KT CAVOK
                      PROB30 TEMPO 2408/2416 5000 -RA -SHRA SCT010
                       SCT035CB BKN045
                      BECMG 2415/2417 05010KT=
201909240520 TAF COR LRCK 240520Z 2406/2506 11010KT 9999 SCT040
                      PROB30 TEMPO 2406/2412 5000 -SHRA SCT035CB
                       BKN045
                      TEMPO 2414/2418 05010KT 5000 RA=
201909241100 TAF LRCK 241100Z 2412/2512 08010KT 9999 SCT040
                      PROB30 TEMPO 2415/2418 5000 RA=
201909241700 TAF LRCK 241700Z 2418/2518 08010KT CAVOK
                      PROB30 TEMPO 2418/2421 5000 -SHRA SCT030CB=
201909242300 TAF LRCK 242300Z 2500/2524 06006KT CAVOK
                      BECMG 2507/2509 12010KT
                      BECMG 2518/2520 VRB04KT=
201909250500 TAF LRCK 250500Z 2506/2606 06010KT 9999 BKN040
                      TEMPO 2506/2509 5000 -RA BR BKN010 OVC040
                       BECMG 2518/2520 13010KT
                      TEMPO 2602/2606 5000 -SHRA BKN005 OVC035=
201909251100 TAF LRCK 251100Z 2512/2612 08010KT 9999 BKN040
                      PROB40 TEMPO 2602/2606 5000 -SHRA BKN005
                       SCT030CB OVC035
                      BECMG 2609/2611 16010KT
                      TEMPO 2609/2612 5000 -SHRA BKN010 SCT030CB
                       BKN035=
201909251700 TAF LRCK 251700Z 2518/2618 14010KT 9999 SCT045
                      TEMPO 2607/2611 5000 -SHRA BKN015 SCT035CB
                       BKN040
                      PROB40 TEMPO 2608/2611 3000 TSRA BKN010 BKN030CB
                       BKN035
                      BECMG 2611/2613 5000 -RA BKN005 OVC025
                      BECMG 2616/2618 21010KT=
201909252300 TAF LRCK 252300Z 2600/2624 12006KT 9999 SCT025
                      TEMPO 2607/2611 5000 -SHRA BKN015 SCT035CB
                       BKN040
                      PROB40 TEMPO 2608/2611 3000 TSRA BKN010 BKN030CB
                       BKN035
                      BECMG 2611/2613 5000 -RA BKN005 OVC025
                      BECMG 2617/2619 21010KT=
201909260500 TAF LRCK 260500Z 2606/2706 14010KT 9999 SCT025
                      BECMG 2611/2613 5000 -SHRA SCT015 SCT030CB
                       BKN035
                      TEMPO 2613/2619 VRB20KT 3000 TSRA BKN010
                       SCT030CB BKN035
                      BECMG 2619/2621 27012KT SCT015 BKN030
                      TEMPO 2700/2706 5000 -RA BR BKN015 BKN030
                       PROB30
                      TEMPO 2703/2706 3000 SHRA BKN010 SCT025 BKN030=
201909261100 TAF LRCK 261100Z 2612/2712 13012KT 9999 BKN025
                      BECMG 2612/2614 5000 -SHRA SCT015 SCT030CB
                       BKN035
                      PROB40 TEMPO 2614/2619 VRB15G25KT 3000 TSRA
                       BKN010 SCT030CB BKN035
                      BECMG 2619/2621 27012KT 9999 NSW SCT015 BKN030
                       TEMPO 2700/2708 5000 -RA BR BKN015 BKN030
                       PROB40
                      TEMPO 2703/2707 3000 SHRA BKN010 SCT025CB
                       BKN030
                      TEMPO 2709/2712 31015G25KT=
201909261700 TAF LRCK 261700Z 2618/2718 13012KT 9999 BKN025
                      BECMG 2619/2621 27012KT
                      TEMPO 2700/2708 5000 -RA BR BKN015 BKN030
                       PROB30
                      TEMPO 2703/2707 3000 SHRA BKN010 SCT025CB
                       BKN030
                      TEMPO 2706/2710 31015G25KT=
201909261831 TAF AMD LRCK 261831Z 2618/2718 15009KT 9999 BKN025
                      TEMPO 2618/2620 5000 -TSRA BKN010 SCT025CB
                       BKN030
                      BECMG 2621/2623 27012KT
                      TEMPO 2700/2708 5000 -RA BR BKN015 BKN030
                       PROB30
                      TEMPO 2703/2707 3000 SHRA BKN010 SCT025CB
                       BKN030
                      TEMPO 2706/2710 31015G25KT=
201909262300 TAF AMD LRCK 270340Z 2703/2724 25010KT 5000 BR BKN005 BKN025
                      BECMG 2704/2706 31015KT 9999 NSW BKN020
                      TEMPO 2706/2711 31015G25KT
                      PROB40 TEMPO 2714/2718 5000 SHRA BKN010 SCT030CB=
201909270340 TAF AMD LRCK 270340Z 2703/2724 25010KT 5000 BR BKN005 BKN025
                      BECMG 2704/2706 31015KT 9999 NSW BKN020
                      TEMPO 2706/2711 31015G25KT
                      PROB40 TEMPO 2714/2718 5000 SHRA BKN010 SCT030CB=
201909270500 TAF LRCK 270500Z 2706/2806 26015KT 9999 BKN015 BKN030
                      BECMG 2707/2709 32020KT SCT015 BKN035
                      TEMPO 2709/2714 32020G35KT 5000 -SHRA BKN015
                       SCT035CB
                      BECMG 2714/2716 33010KT
                      BECMG 2720/2722 VRB04KT 3000 BR BKN010 SCT030
                       TEMPO 2800/2805 0800 FG BKN002=
201909271100 TAF LRCK 271100Z 2712/2812 32020KT 9999 BKN015 BKN030
                      TEMPO 2712/2715 33020G30KT 5000 -SHRA BKN010
                       SCT030CB
                      BECMG 2715/2717 33010KT SCT030
                      BECMG 2720/2722 VRB04KT 3000 BR BKN010 SCT030
                       TEMPO 2800/2805 0600 FG BKN002
                      BECMG 2806/2808 CAVOK=
201909271700 TAF LRCK 271700Z 2718/2818 33010KT CAVOK
                      BECMG 2720/2722 VRB04KT 3000 BR
                      PROB40 TEMPO 2800/2805 0600 FG BKN002
                      BECMG 2806/2808 CAVOK
                      BECMG 2810/2812 17010KT=
201909272300 TAF LRCK 272300Z 2800/2824 27008KT CAVOK
                      TEMPO 2800/2805 3000 BR
                      PROB30 TEMPO 2802/2805 0600 FG BKN002
                      BECMG 2810/2812 17010KT=
201909280500 TAF LRCK 280500Z 2806/2906 26008KT CAVOK
                      BECMG 2812/2814 15010KT
                      BECMG 2822/2824 22008KT
                      TEMPO 2901/2905 5000 BR=
201909281100 TAF LRCK 281100Z 2812/2912 17008KT CAVOK
                      TEMPO 2901/2905 5000 BR
                      BECMG 2906/2908 28010KT=
201909281700 TAF LRCK 281700Z 2818/2918 17010KT CAVOK
                      TEMPO 2901/2905 5000 BR
                      BECMG 2906/2908 30012KT
                      BECMG 2912/2914 VRB04KT=
201909282300 TAF LRCK 282300Z 2900/2924 20010KT CAVOK
                      TEMPO 2901/2905 5000 BR
                      BECMG 2906/2908 30012KT
                      BECMG 2912/2914 VRB04KT=
201909290500 TAF LRCK 290500Z 2906/3006 24006KT CAVOK
                      BECMG 2906/2908 31010KT
                      BECMG 2911/2913 10010KT
                      BECMG 2917/2919 VRB04KT
                      TEMPO 3000/3004 3000 BR=
201909291100 TAF LRCK 291100Z 2912/3012 35010KT CAVOK
                      BECMG 2912/2914 10010KT
                      BECMG 2917/2919 VRB04KT
                      TEMPO 3000/3004 3000 BR
                      BECMG 3007/3009 24010KT=
201909291700 TAF LRCK 291700Z 2918/3018 13005KT CAVOK
                      TEMPO 3001/3005 5000 BR
                      BECMG 3007/3009 23010KT=
201909292300 TAF LRCK 292300Z 3000/3024 16006KT CAVOK
                      TEMPO 3001/3005 5000 BR
                      BECMG 3007/3009 24010KT=
201909300500 TAF LRCK 300500Z 3006/0106 19010KT CAVOK
                      BECMG 3008/3010 25010KT
                      BECMG 0101/0103 33008KT
                      PROB30 TEMPO 0101/0105 5000 BR=
201909301100 TAF LRCK 301100Z 3012/0112 25012KT CAVOK
                      BECMG 0101/0103 33008KT
                      PROB30 TEMPO 0101/0105 5000 BR=
201909301700 TAF LRCK 301700Z 3018/0118 25012KT CAVOK
                      BECMG 0101/0103 33008KT
                      PROB30 TEMPO 0101/0105 5000 BR
                      BECMG 0114/0116 14010KT=
201909302300 TAF LRCK 302300Z 0100/0124 25012KT CAVOK
                      BECMG 0101/0103 33014KT
                      BECMG 0114/0116 14010KT=
