201912010500 TAF LRCK 010500Z 0106/0206 34012KT CAVOK
                      BECMG 0114/0116 VRB04KT=
201912011100 TAF LRCK 011100Z 0112/0212 33010KT CAVOK
                      BECMG 0114/0116 VRB04KT
                      BECMG 0207/0210 17012KT=
201912011700 TAF LRCK 011700Z 0118/0218 29005KT CAVOK
                      BECMG 0208/0210 18012KT=
201912012300 TAF LRCK 012300Z 0200/0224 30005KT CAVOK
                      BECMG 0208/0210 18012KT
                      BECMG 0219/0221 27010KT=
201912020500 TAF LRCK 020500Z 0206/0306 VRB04KT CAVOK
                      BECMG 0208/0210 18010KT
                      BECMG 0219/0221 27010KT
                      BECMG 0302/0304 33006KT
                      TEMPO 0304/0306 5000 -RA BR BKN010 BKN045=
201912021100 TAF LRCK 021100Z 0212/0312 17014KT 9999 SCT035
                      BECMG 0219/0221 25010KT
                      BECMG 0302/0304 31010KT
                      TEMPO 0305/0310 5000 -RA BR BKN010 BKN030=
201912021700 TAF LRCK 021700Z 0218/0318 20008KT CAVOK
                      BECMG 0220/0222 28012KT=
201912022300 TAF LRCK 022300Z 0300/0324 30012KT CAVOK=
201912030500 TAF LRCK 030500Z 0306/0406 VRB04KT CAVOK
                      BECMG 0308/0310 30010KT
                      BECMG 0402/0404 36010KT
                      PROB30 TEMPO 0402/0406 5000 BR=
201912031100 TAF LRCK 031100Z 0312/0412 30008KT CAVOK
                      BECMG 0402/0404 36010KT
                      PROB30 TEMPO 0402/0406 5000 BR=
201912031700 TAF LRCK 031700Z 0318/0418 29008KT 5000 BR NSC
                      TEMPO 0318/0402 1500 BR BKN005
                      BECMG 0402/0404 01010KT CAVOK
                      BECMG 0413/0415 VRB04KT=
201912032036 TAF AMD LRCK 032036Z 0320/0418 29008KT 0350 FZFG VV001
                      TEMPO 0321/0324 0800 BKN002
                      BECMG 0402/0404 01010KT 0800 BKN002
                      BECMG 0404/0406 1500 BR BKN005
                      BECMG 0406/0408 5000 BKN015
                      BECMG 0408/0410 9999 NSW SCT025
                      BECMG 0413/0415 VRB04KT=
201912032300 TAF LRCK 032300Z 0400/0424 30006KT 5000 BR NSC
                      TEMPO 0400/0402 1500 BR BKN005
                      BECMG 0402/0404 01010KT CAVOK
                      BECMG 0413/0415 VRB04KT
                      BECMG 0416/0418 3000 BR BKN005
                      TEMPO 0421/0424 0800 FZFG BKN002=
201912040500 TAF LRCK 040500Z 0406/0506 36012KT CAVOK
                      BECMG 0412/0414 VRB04KT
                      BECMG 0416/0418 5000 BR
                      TEMPO 0500/0506 1500 BR BKN002
                      PROB30 TEMPO 0501/0505 0800 FZFG VV001=
201912041100 TAF LRCK 041100Z 0412/0512 VRB04KT CAVOK
                      BECMG 0416/0418 5000 BR
                      TEMPO 0500/0506 1500 BR BKN002
                      PROB30 TEMPO 0501/0505 0800 FZFG VV001
                      BECMG 0507/0509 27010KT 9999 NSW=
201912041700 TAF LRCK 041700Z 0418/0518 VRB04KT CAVOK
                      BECMG 0418/0420 5000 BR
                      TEMPO 0500/0506 1500 BR BKN002
                      PROB30 TEMPO 0501/0506 0800 FZFG VV001
                      BECMG 0507/0509 27010KT 9999 NSW
                      BECMG 0516/0518 VRB04KT=
201912042300 TAF LRCK 042300Z 0500/0524 27007KT 5000 BR NSC
                      TEMPO 0500/0506 1500 BR BKN002
                      PROB30 TEMPO 0501/0506 0600 FZFG VV001
                      BECMG 0507/0509 9999 NSW
                      BECMG 0519/0521 5000 BR=
201912050500 TAF LRCK 050500Z 0506/0606 26006KT 1500 BR NSC
                      TEMPO 0506/0507 0600=
201912051100 TAF LRCK 051100Z 0512/0612 26006KT CAVOK
                      PROB30 TEMPO 0600/0606 3000 BR=
201912051700 TAF LRCK 051700Z 0518/0618 22006KT CAVOK
                      PROB30 TEMPO 0600/0606 3000 BR=
201912052300 TAF LRCK 052300Z 0600/0624 22006KT CAVOK=
201912060500 TAF LRCK 060500Z 0606/0706 25008KT CAVOK
                      TEMPO 0703/0706 3000 BR=
201912061100 TAF LRCK 061100Z 0612/0712 25008KT CAVOK
                      TEMPO 0702/0706 3000 BR BKN010=
201912061700 TAF LRCK 061700Z 0618/0718 21006KT CAVOK
                      PROB30 TEMPO 0701/0706 3000 BR BKN010
                      BECMG 0709/0711 27010KT=
201912062300 TAF LRCK 062300Z 0700/0724 21006KT CAVOK
                      PROB30 TEMPO 0701/0706 3000 BR BKN010
                      BECMG 0709/0711 27010KT
                      BECMG 0720/0722 5000 BR=
201912070500 TAF LRCK 070500Z 0706/0806 27010KT CAVOK
                      BECMG 0716/0718 5000 BR
                      BECMG 0718/0720 3000 BR BKN005=
201912071100 TAF LRCK 071100Z 0712/0812 27012KT CAVOK
                      BECMG 0719/0721 5000 BR
                      BECMG 0721/0723 3000 BR BKN005
                      TEMPO 0723/0805 1500 BR BKN003
                      PROB40 0800/0804 0600 FZFG BKN002
                      BECMG 0806/0808 CAVOK=
201912071700 TAF LRCK 071700Z 0718/0818 27010KT 5000 BR NSC
                      BECMG 0721/0723 3000 BR BKN005
                      TEMPO 0723/0805 1500 BR BKN003
                      PROB30 0800/0805 0600=
201912072300 TAF LRCK 072300Z 0800/0824 27010KT 3000 BR NSC
                      TEMPO 0800/0805 1500 BR BKN003
                      PROB30 0800/0805 0600 FZFG BKN002
                      BECMG 0806/0808 CAVOK
                      BECMG 0816/0818 5000 BR
                      BECMG 0820/0822 1500 BR BKN010=
201912080500 TAF LRCK 080500Z 0806/0906 28012KT 0600 FZFG BKN002
                      BECMG 0806/0808 1500 BR SCT005
                      BECMG 0808/0809 5000
                      BECMG 0809/0810 CAVOK
                      BECMG 0818/0820 VRB04KT 3000 BR
                      BECMG 0821/0823 0800 FZFG BKN002
                      TEMPO 0902/0906 0300 FZFG OVC001=
201912081100 TAF LRCK 081100Z 0812/0912 28012KT 7000 NSC
                      BECMG 0815/0817 3000 BR
                      BECMG 0818/0820 1500 BR
                      BECMG 0821/0823 VRB04KT 0600 FZFG BKN002
                       TEMPO 0902/0906 0300 FZFG OVC001
                      BECMG 0906/0908 3000 BR BKN005
                      BECMG 0908/0910 20010KT 7000 NSW SCT010=
201912081700 TAF LRCK 081700Z 0818/0918 28008KT 3000 BR NSC
                      BECMG 0819/0821 1500 BR
                      BECMG 0821/0823 0600 FZFG BKN002
                      TEMPO 0901/0905 0150 FZFG VV001
                      BECMG 0905/0907 3000 BR BKN005
                      BECMG 0908/0910 20010KT 7000 NSW SCT020
                      BECMG 0916/0918 3000 BR=
201912082300 TAF AMD LRCK 090331Z 0903/0924 27006KT 5000 BR NSC
                      PROB30 TEMPO 0903/0906 1500 BR BKN005
                      BECMG 0906/0908 9999 NSW
                      BECMG 0908/0910 20010KT
                      BECMG 0916/0918 3000 BR
                      BECMG 0920/0922 1500 BR BKN005=
201912090331 TAF AMD LRCK 090331Z 0903/0924 27006KT 5000 BR NSC
                      PROB30 TEMPO 0903/0906 1500 BR BKN005
                      BECMG 0906/0908 9999 NSW
                      BECMG 0908/0910 20010KT
                      BECMG 0916/0918 3000 BR
                      BECMG 0920/0922 1500 BR BKN005=
201912090500 TAF LRCK 090500Z 0906/1006 20010KT CAVOK
                      BECMG 0918/0920 5000 BR
                      BECMG 0920/0922 3000 BR
                      TEMPO 0923/1005 1500 BR BKN002=
201912091116 TAF COR LRCK 091116Z 0912/1012 19010KT CAVOK
                      BECMG 0918/0920 5000 BR
                      BECMG 0920/0922 3000 BR
                      PROB30 TEMPO 0923/1005 1500 BR BKN002
                      BECMG 1006/1008 9999 NSW=
201912091700 TAF LRCK 091700Z 0918/1018 18010KT 7000 NSC
                      BECMG 0920/0922 3000 BR
                      TEMPO 0923/1005 1500 BR BKN005
                      BECMG 1006/1008 9999 NSW
                      BECMG 1012/1014 VRB04KT
                      BECMG 1015/1017 5000 BR BKN010 BKN035=
201912092300 TAF LRCK 092300Z 1000/1024 18010KT 5000 BR NSC
                      TEMPO 1000/1005 1500 BR
                      BECMG 1006/1008 9999 NSW
                      BECMG 1012/1014 VRB04KT
                      BECMG 1016/1018 3000 BR BKN010 BKN030
                      BECMG 1020/1022 0600 FG BKN002 BKN020=
201912100500 TAF LRCK 100500Z 1006/1106 17008KT CAVOK
                      TEMPO 1006/1008 5000 BR
                      BECMG 1020/1022 3000 BR BKN010 BKN030
                      BECMG 1023/1101 1500 BR BKN005 OVC020
                      TEMPO 1102/1106 0600 FG BKN002 OVC010=
201912101100 TAF LRCK 101100Z 1012/1112 13006KT CAVOK
                      BECMG 1020/1022 3000 BR BKN010 BKN030
                      BECMG 1023/1101 1500 BR BKN005 OVC020
                      TEMPO 1102/1106 0600 FG BKN002 OVC010
                      BECMG 1106/1108 04012KT 3000 BR BKN005 BKN030
                       TEMPO 1108/1112 -RADZ BR=
201912101700 TAF LRCK 101700Z 1018/1118 13006KT 5000 BR NSC
                      BECMG 1018/1020 1500 BR BKN005
                      BECMG 1021/1023 0600 BR BKN002
                      TEMPO 1100/1106 0150 FG VV001
                      BECMG 1106/1108 04012KT 1500 BR BKN005 BKN020
                       PROB40
                      TEMPO 1108/1112 3000 -RADZ BR
                      BECMG 1112/1114 5000 BKN010 BKN025=
201912102300 TAF LRCK 102300Z 1100/1124 VRB04KT 3000 BR NSC
                      PROB30 TEMPO 1100/1106 0800 FG VV002
                      BECMG 1106/1108 04012KT BKN005 BKN020
                      PROB40 TEMPO 1108/1112 3000 -RADZ BR
                      BECMG 1112/1114 5000 BKN010 BKN030
                      TEMPO 1121/1124 3000 BR BKN005 BKN025=
201912110529 TAF COR LRCK 110529Z 1106/1206 03010KT 3000 BR BKN005 BKN030
                      BECMG 1106/1108 1500 BR OVC002
                      BECMG 1108/1110 7000 NSW BKN015 BKN030
                      BECMG 1118/1120 5000 BR BKN010 BKN020
                      BECMG 1121/1123 1500 BR OVC005
                      TEMPO 1202/1206 0800 -DZ FG OVC002=
201912110757 TAF AMD LRCK 110757Z 1107/1206 05012KT 0600 FG OVC002
                      BECMG 1108/1110 1500 BR BKN005
                      TEMPO 1112/1116 5000 BR BKN010 BKN020
                      BECMG 1121/1123 0600 -DZ FG OVC002=
201912111100 TAF LRCK 111100Z 1112/1212 04010KT 9999 BKN010
                      TEMPO 1112/1116 BKN020
                      BECMG 1118/1120 3000 BR BKN005
                      BECMG 1120/1122 1500 BR OVC002
                      TEMPO 1123/1205 0600 -DZ FG OVC001
                      BECMG 1206/1208 3000 -RA BR BKN010 BKN030
                       BECMG 1210/1212 7000 NSW BKN030=
201912111433 TAF AMD LRCK 111433Z 1114/1212 03012KT 1500 BR OVC002
                      TEMPO 1115/1118 3000 BR BKN005
                      TEMPO 1122/1205 0600 -DZ FG OVC001
                      BECMG 1206/1208 3000 -RA BR BKN010 BKN030
                       BECMG 1210/1212 7000 NSW BKN030=
201912111700 TAF LRCK 111700Z 1118/1218 03012KT 5000 BR BKN010
                      BECMG 1118/1120 1500 BR OVC005
                      TEMPO 1122/1205 0600 -DZ FG OVC002
                      BECMG 1207/1209 3000 BR BKN010 BKN020
                      BECMG 1210/1212 7000 NSW BKN030=
201912112027 TAF AMD LRCK 112027Z 1120/1218 03012KT 9999 BKN015 OVC035
                      TEMPO 1121/1206 5000 -RADZ BR BKN010 OVC030=
201912112300 TAF LRCK 112300Z 1200/1224 03012KT 9999 BR SCT015 OVC030
                      TEMPO 1200/1205 3000 -RADZ BR BKN005 OVC025=
201912120500 TAF LRCK 120500Z 1206/1306 03012KT 9999 SCT010 OVC030
                      TEMPO 1206/1210 5000 BR -RADZ BKN010 OVC025
                       BECMG 1218/1220 3000 BR OVC005
                      PROB40 TEMPO 1300/1306 0600 FG OVC002=
201912121100 TAF LRCK 121100Z 1212/1312 03012KT 9999 BKN010 OVC030
                      BECMG 1218/1220 3000 BR OVC005
                      PROB40 TEMPO 1300/1306 0600 FG OVC002
                      BECMG 1308/1310 9999 NSW BKN010 OVC020
                      BECMG 1310/1312 11010KT=
201912121700 TAF LRCK 121700Z 1218/1318 03012KT 5000 BR SCT010 OVC030
                      BECMG 1220/1222 3000 BR BKN010 OVC025
                      PROB40 TEMPO 1223/1307 1500 -RADZ BR BKN005
                       OVC015
                      BECMG 1309/1311 12010KT 7000 NSW BKN025
                      TEMPO 1314/1318 3000 -RA BR BKN010 BKN030=
201912122300 TAF LRCK 122300Z 1300/1324 02012KT 3000 BR BKN010 OVC030
                      PROB30 TEMPO 1302/1307 1500 -DZ BR OVC002
                       BECMG 1307/1309 5000
                      BECMG 1309/1311 12010KT 9999 NSW BKN020
                      TEMPO 1314/1319 5000 -RA BR BKN015 BKN030
                       BECMG 1319/1321 18010KT 3000 BR BKN005 BKN020=
201912130500 TAF LRCK 130500Z 1306/1406 02010KT 3000 BR OVC010
                      TEMPO 1306/1312 1500 -RADZ BR OVC005
                      BECMG 1316/1318 18010KT 5000 -RA BR BKN015
                       BKN030
                      BECMG 1400/1402 3000 BR BKN005 BKN020=
201912131100 TAF LRCK 131100Z 1312/1412 05007KT 1500 -RADZ BR OVC002
                      PROB30 TEMPO 1312/1314 0800 -DZ FG OVC001
                       BECMG 1315/1317 3000 BR SCT003 OVC005
                      BECMG 1317/1319 16010KT
                      TEMPO 1320/1403 1500 BR BKN002 OVC005
                      TEMPO 1406/1408 5000 SCT005 BKN010
                      BECMG 1410/1412 8000 NSW SCT010 SCT025=
201912131700 TAF LRCK 131700Z 1318/1418 07007KT 3000 BR SCT002 OVC007
                      TEMPO 1319/1405 1500 -DZ BR BKN002 OVC005
                       BECMG 1406/1408 16010KT 5000 BKN010
                      BECMG 1409/1411 8000 NSW SCT010 SCT025=
201912132300 TAF LRCK 132300Z 1400/1424 08007KT 1500 BR BKN005 OVC010
                      TEMPO 1400/1404 0350 FG BKN002 OVC005
                      BECMG 1406/1408 16010KT 5000 BKN015
                      BECMG 1409/1411 8000 NSW SCT015 BKN025
                      BECMG 1419/1421 24010KT 5000 -RA BR
                      TEMPO 1421/1424 3000 BR BKN010 OVC020=
201912140500 TAF LRCK 140500Z 1406/1506 08006KT 5000 BR BKN010
                      TEMPO 1406/1408 1500 BR BKN002 OVC005
                      BECMG 1408/1410 16010KT 9999 NSW SCT020
                      BECMG 1420/1422 25012KT 5000 -RA BR BKN015
                       OVC040
                      TEMPO 1422/1504 3000 RA BKN010 OVC020=
201912140610 TAF AMD LRCK 140610Z 1406/1506 10006KT 0150 FG VV001
                      TEMPO 1407/1409 0600 BKN002
                      BECMG 1409/1411 17010KT 3000 BR BKN010
                      BECMG 1411/1412 5000 SCT020
                      BECMG 1420/1422 25012KT 3000 -RA BR BKN015
                       OVC040
                      TEMPO 1422/1504 1500 RA BKN010 OVC020=
201912140826 TAF AMD LRCK 140826Z 1408/1506 15010KT 7000 SCT030
                      BECMG 1421/1423 25012KT 5000 -RA BR BKN015
                       OVC040
                      TEMPO 1423/1504 3000 RA BKN010 OVC020=
201912141100 TAF LRCK 141100Z 1412/1512 17010KT 9999 SCT025
                      BECMG 1421/1423 25012KT 5000 -RA BR BKN015
                       OVC030
                      TEMPO 1423/1504 3000 RA BKN010 OVC020
                      BECMG 1507/1509 9999 NSW SCT030=
201912141700 TAF LRCK 141700Z 1418/1518 17008KT 5000 BR NSC
                      BECMG 1420/1422 27014KT 3000 -RA BR BKN015
                       OVC030
                      TEMPO 1422/1503 1500 RA BR BKN010 OVC020
                       BECMG 1503/1505 7000 NSW SCT030
                      BECMG 1515/1517 VRB04KT=
201912142300 TAF AMD LRCK 150418Z 1504/1524 27014KT 3000 BR BKN005
                      BECMG 1506/1508 CAVOK
                      BECMG 1515/1517 VRB04KT
                      BECMG 1521/1523 20010KT=
201912150418 TAF AMD LRCK 150418Z 1504/1524 27014KT 3000 BR BKN005
                      BECMG 1506/1508 CAVOK
                      BECMG 1515/1517 VRB04KT
                      BECMG 1521/1523 20010KT=
201912150500 TAF LRCK 150500Z 1506/1606 27015KT 3000 BR BKN007
                      BECMG 1507/1509 CAVOK
                      BECMG 1515/1517 VRB04KT=
201912151100 TAF LRCK 151100Z 1512/1612 29012KT CAVOK
                      BECMG 1515/1517 VRB04KT
                      BECMG 1600/1602 22010KT=
201912151700 TAF LRCK 151700Z 1518/1618 23008KT CAVOK=
201912152300 TAF LRCK 152300Z 1600/1624 22010KT CAVOK
                      BECMG 1615/1617 VRB04KT=
201912160500 TAF LRCK 160500Z 1606/1706 21008KT CAVOK
                      BECMG 1608/1610 27010KT
                      BECMG 1616/1618 VRB04KT=
201912161100 TAF LRCK 161100Z 1612/1712 27012KT CAVOK
                      BECMG 1618/1620 VRB04KT=
201912161700 TAF LRCK 161700Z 1618/1718 VRB04KT CAVOK
                      BECMG 1709/1711 27012KT=
201912162300 TAF LRCK 162300Z 1700/1724 27012KT CAVOK
                      BECMG 1717/1719 VRB04KT=
201912170500 TAF LRCK 170500Z 1706/1806 27008KT CAVOK=
201912171100 TAF LRCK 171100Z 1712/1812 27008KT CAVOK=
201912171700 TAF LRCK 171700Z 1718/1818 VRB04KT CAVOK
                      BECMG 1807/1809 26010KT=
201912172300 TAF LRCK 172300Z 1800/1824 VRB04KT CAVOK
                      BECMG 1806/1808 26011KT=
201912180500 TAF LRCK 180500Z 1806/1906 VRB04KT CAVOK
                      BECMG 1806/1808 26012KT
                      BECMG 1902/1904 VRB04KT=
201912181100 TAF LRCK 181100Z 1812/1912 26015KT CAVOK
                      BECMG 1822/1824 VRB04KT
                      TEMPO 1901/1906 3000 BR=
201912181700 TAF LRCK 181700Z 1818/1918 26015KT CAVOK
                      BECMG 1902/1904 VRB04KT
                      TEMPO 1904/1906 3000 BR=
201912182300 TAF LRCK 182300Z 1900/1924 28010KT CAVOK
                      BECMG 1902/1904 VRB04KT
                      TEMPO 1904/1906 3000 BR
                      BECMG 1919/1921 3000 BR
                      TEMPO 1921/1924 1500 BR=
201912190500 TAF LRCK 190500Z 1906/2006 28010KT 5000 BR NSC
                      BECMG 1908/1910 VRB04KT CAVOK
                      BECMG 1922/1924 3000 BR
                      BECMG 2000/2002 1500 BR=
201912191100 TAF LRCK 191100Z 1912/2012 28006KT CAVOK
                      BECMG 1916/1918 3000 BR
                      BECMG 1921/1923 1500 BR
                      PROB30 TEMPO 2000/2003 0600 FG VV002
                      BECMG 2006/2008 3000
                      BECMG 2008/2010 18010KT CAVOK=
201912191700 TAF LRCK 191700Z 1918/2018 28006KT 3000 BR NSC
                      BECMG 1919/1921 1500 BR BKN005
                      BECMG 1922/1924 0600 FG OVC002
                      PROB30 TEMPO 2000/2006 0300 FG VV001
                      BECMG 2007/2009 3000 BR BKN010
                      BECMG 2009/2011 19010KT CAVOK=
201912191915 TAF AMD LRCK 191915Z 1919/2018 06006KT 0150 FG VV001
                      PROB30 TEMPO 1919/1923 0600 FG OVC002
                      BECMG 2006/2008 0800 FG OVC002
                      BECMG 2008/2010 20010KT 3000 BR BKN005
                      BECMG 2010/2012 9999 NSW BKN030
                      BECMG 2016/2018 VRB04KT 3000 BR BKN010=
201912192300 TAF AMD LRCK 200407Z 2004/2024 10008KT 3000 BR OVC010
                      TEMPO 2004/2007 0800 FG OVC002
                      BECMG 2007/2009 20010KT 9999 NSW BKN030
                      BECMG 2017/2019 VRB04KT 5000 BR SCT015
                      BECMG 2019/2021 1500 BR BKN005
                      TEMPO 2021/2024 0600 FG OVC002=
201912200407 TAF AMD LRCK 200407Z 2004/2024 10008KT 3000 BR OVC010
                      TEMPO 2004/2007 0800 FG OVC002
                      BECMG 2007/2009 20010KT 9999 NSW BKN030
                      BECMG 2017/2019 VRB04KT 5000 BR SCT015
                      BECMG 2019/2021 1500 BR BKN005
                      TEMPO 2021/2024 0600 FG OVC002=
201912200500 TAF LRCK 200500Z 2006/2106 10008KT 0150 FG OVC001
                      BECMG 2007/2009 0800 OVC002
                      BECMG 2009/2011 20010KT 1500 BR BKN005
                      TEMPO 2011/2015 5000 BKN010
                      BECMG 2022/2024 VRB04KT
                      TEMPO 2100/2106 0600 FG OVC001=
201912200937 TAF AMD LRCK 200937Z 2009/2106 18012KT 5000 BR SCT010
                      TEMPO 2011/2015 9999 NSW
                      BECMG 2022/2024 VRB04KT 3000 BR BKN005
                      TEMPO 2100/2106 0600 FG OVC001=
201912201100 TAF LRCK 201100Z 2012/2112 16012KT 5000 BR BKN005
                      TEMPO 2012/2016 7000 NSW SCT010
                      BECMG 2022/2024 22008KT 3000 BR BKN002
                      PROB40 TEMPO 2100/2106 0600 FG OVC001
                      BECMG 2107/2109 9999 NSW SCT025=
201912201700 TAF LRCK 201700Z 2018/2118 21008KT 3000 BR NSC
                      BECMG 2019/2021 1500 BR BKN005
                      TEMPO 2100/2106 0600 FG OVC002
                      BECMG 2107/2109 3000 BKN010
                      BECMG 2110/2112 9999 NSW SCT020=
201912201915 TAF AMD LRCK 201915Z 2019/2118 21008KT 0350 FG VV002
                      BECMG 2019/2021 0150 FG VV001
                      BECMG 2105/2107 0800 BKN005
                      BECMG 2107/2109 3000 BR BKN010
                      BECMG 2109/2111 9999 NSW SCT020=
201912202300 TAF LRCK 202300Z 2100/2124 24008KT 0350 FG VV002
                      TEMPO 2100/2106 0150 FG VV001
                      BECMG 2106/2108 0800 BKN005
                      BECMG 2108/2110 3000 BR BKN010
                      BECMG 2110/2111 9999 NSW SCT020=
201912210500 TAF LRCK 210500Z 2106/2206 25006KT 3000 BR NSC
                      BECMG 2106/2108 9999 NSW
                      BECMG 2117/2119 19010KT=
201912211100 TAF LRCK 211100Z 2112/2212 VRB04KT CAVOK
                      BECMG 2117/2119 21010KT=
201912211700 TAF LRCK 211700Z 2118/2218 20010KT CAVOK=
201912212208 TAF AMD LRCK 212208Z 2122/2218 20010KT 3000 BR NSC
                      TEMPO 2200/2203 7000 NSW
                      BECMG 2206/2208 9999 NSW=
201912212300 TAF LRCK 212300Z 2200/2224 21010KT CAVOK
                      PROB30 TEMPO 2202/2205 1500 BR BKN002
                      TEMPO 2218/2224 21020G30KT 3000 -RA BR BKN010
                       OVC025=
201912220500 TAF LRCK 220500Z 2206/2306 22010KT CAVOK
                      BECMG 2218/2220 18020KT
                      BECMG 2223/2301 5000 -RA BKN010 OVC020
                      TEMPO 2301/2306 17020G30KT 1500 RA BKN005
                       OVC035=
201912221100 TAF LRCK 221100Z 2212/2312 22010KT CAVOK
                      BECMG 2218/2220 18020KT
                      BECMG 2223/2301 5000 -RA BKN010 OVC030
                      TEMPO 2301/2306 17020G30KT 1500 RA BKN005
                       OVC020=
201912221700 TAF LRCK 221700Z 2218/2318 19014KT CAVOK
                      BECMG 2219/2221 18024KT
                      TEMPO 2223/2304 3000 RA BKN010 OVC030
                      BECMG 2310/2312 17006KT
                      PROB30 TEMPO 2314/2318 5000 -SHRA BKN010
                       SCT030CB
                      BECMG 2315/2317 27015KT=
201912222300 TAF LRCK 222300Z 2300/2324 18022KT CAVOK
                      TEMPO 2301/2305 3000 RA BKN010 OVC030
                      BECMG 2310/2312 17008KT
                      PROB30 TEMPO 2314/2318 5000 -SHRA BKN010
                       SCT030CB
                      BECMG 2316/2318 27014KT=
201912230500 TAF LRCK 230500Z 2306/2406 17020KT 9999 SCT035
                      TEMPO 2306/2309 17022G32KT 5000 -RA BKN010
                       BKN030
                      BECMG 2310/2312 17010KT
                      TEMPO 2312/2320 5000 -SHRA BKN015 SCT035CB
                       PROB30
                      TEMPO 2314/2318 3000 -TSRA BKN010 SCT030CB
                       BKN040
                      BECMG 2315/2317 27014KT
                      TEMPO 2323/2405 5000 BR BKN010=
201912231100 TAF LRCK 231100Z 2312/2412 18014KT 9999 SCT015 SCT035
                      TEMPO 2313/2321 5000 -SHRA BKN015 SCT035CB
                       PROB30
                      TEMPO 2314/2318 3000 -TSRA BKN010 SCT030CB
                       BKN040
                      BECMG 2315/2317 27014KT
                      TEMPO 2323/2405 5000 BR BKN010=
201912231700 TAF LRCK 231700Z 2318/2418 28012KT 9999 SCT025 BKN040
                      TEMPO 2323/2405 3000 -RA BR BKN005 OVC020=
201912232300 TAF LRCK 232300Z 2400/2424 28012KT 9999 BKN030
                      PROB30 TEMPO 2400/2406 3000 -RA BR BKN010
                       OVC020=
201912240500 TAF LRCK 240500Z 2406/2506 28012KT 9999 BKN030
                      PROB30 TEMPO 2414/2420 5000 -RADZ BKN010
                       BKN030
                      TEMPO 2417/2422 31015G25KT=
201912241100 TAF LRCK 241100Z 2412/2512 28012KT 9999 BKN030
                      PROB40 TEMPO 2414/2420 29015G25KT 5000 -RA
                       BKN015 BKN030=
201912241515 TAF AMD LRCK 241515Z 2415/2512 28010KT 5000 -RA BR BKN010 BKN030
                       TEMPO 2415/2420 3000 -RA BR BKN005 BKN025
                       BECMG 2422/2424 9999 NSW SCT015 BKN045=
201912241700 TAF LRCK 241700Z 2418/2518 30012KT 5000 -RA BR BKN010 BKN030
                      TEMPO 2418/2421 3000 -RA BR BKN005 BKN025
                       BECMG 2422/2424 9999 NSW SCT015 BKN045
                      PROB30 TEMPO 2502/2506 5000 BR=
201912242300 TAF LRCK 242300Z 2500/2524 30014KT 9999 BKN040
                      TEMPO 2500/2505 5000 -RA BR BKN010 BKN035=
201912250500 TAF LRCK 250500Z 2506/2606 29012KT CAVOK=
201912251100 TAF LRCK 251100Z 2512/2612 31014KT CAVOK=
201912251723 TAF COR LRCK 251723Z 2518/2618 30010KT CAVOK
                      TEMPO 2518/2521 4000 BR=
201912252300 TAF LRCK 252300Z 2600/2624 31012KT CAVOK=
201912260500 TAF LRCK 260500Z 2606/2706 30012KT CAVOK
                      TEMPO 2610/2613 31015G25KT
                      BECMG 2700/2702 5000 BR
                      PROB30 TEMPO 2702/2704 1500 BR BKN010
                      BECMG 2704/2706 CAVOK=
201912261100 TAF LRCK 261100Z 2612/2712 30012KT CAVOK
                      BECMG 2700/2702 5000 BR
                      PROB30 TEMPO 2702/2704 1500 BR BKN010
                      BECMG 2704/2706 9999 NSW BKN040
                      PROB40 TEMPO 2708/2712 5000 -RADZ BR BKN015
                       OVC035=
201912261700 TAF LRCK 261700Z 2618/2718 28008KT CAVOK=
201912262300 TAF LRCK 262300Z 2700/2724 29008KT CAVOK=
201912270500 TAF LRCK 270500Z 2706/2806 27010KT CAVOK
                      BECMG 2723/2801 34012KT=
201912271100 TAF LRCK 271100Z 2712/2812 27010KT CAVOK
                      BECMG 2723/2801 34012KT
                      TEMPO 2801/2806 3000 BR=
201912271700 TAF LRCK 271700Z 2718/2818 30010KT CAVOK
                      TEMPO 2801/2805 3000 BR
                      PROB40 TEMPO 2815/2818 5000 -SN BR BKN010
                       OVC040=
201912272300 TAF LRCK 272300Z 2800/2824 32010KT CAVOK
                      TEMPO 2800/2805 3000 BR BKN010
                      PROB40 TEMPO 2815/2821 5000 -SN BR BKN010
                       OVC040=
201912280500 TAF LRCK 280500Z 2806/2906 32010KT 9999 BKN040
                      BECMG 2814/2816 5000 -SN BR BKN010 OVC035
                       PROB30
                      TEMPO 2822/2906 3000 -SN BR BKN005 OVC030=
201912281100 TAF LRCK 281100Z 2812/2912 34012KT 9999 BKN040
                      BECMG 2814/2816 5000 -SN BR BKN010 OVC035
                       PROB40
                      TEMPO 2900/2909 3000 -SN BR BKN005 OVC030=
201912281700 TAF LRCK 281700Z 2818/2918 33012KT 9999 BKN045
                      PROB40 TEMPO 2900/2905 3000 -SN BR BKN010
                       OVC035
                      TEMPO 2905/2913 5000 -SN BKN015 OVC035=
201912282300 TAF LRCK 282300Z 2900/2924 33012KT 9999 BKN045
                      TEMPO 2900/2905 3000 -SN BR BKN010 OVC035
                       TEMPO 2905/2913 5000 -SN BKN015 OVC035
                      BECMG 2917/2919 BKN010 OVC030=
201912290500 TAF LRCK 290500Z 2906/3006 33014KT 5000 -SN BKN007 BKN040
                      BECMG 2912/2914 9999 NSW SCT010 BKN045
                      PROB30 TEMPO 3001/3006 3000 BR BKN005 BKN030=
201912291100 TAF LRCK 291100Z 2912/3012 33013KT 9999 BKN010
                      PROB30 TEMPO 3001/3006 3000 BR BKN005=
201912291535 TAF AMD LRCK 291535Z 2915/3012 33013KT 5000 BR BKN015
                      TEMPO 2915/2918 1500 SN BR BKN010
                      PROB30 TEMPO 3001/3006 3000 BR BKN005=
201912291700 TAF LRCK 291700Z 2918/3018 33012KT 9999 BKN010 OVC025
                      BECMG 2922/2924 03018KT 5000 -SN OVC015
                      PROB30 TEMPO 3001/3006 02020G30KT
                      BECMG 3006/3008 9999 NSW=
201912291732 TAF AMD LRCK 291732Z 2918/3018 33012KT 9999 BKN015 OVC025
                      TEMPO 2918/2922 5000 -SN BKN010 OVC020
                      BECMG 2922/2924 03018KT
                      PROB30 TEMPO 3001/3006 02020G30KT
                      BECMG 3006/3008 9999 NSW=
201912291735 TAF AMD LRCK 291735Z 2918/3018 33012KT 9999 BKN015 OVC025
                      TEMPO 2918/2922 5000 -SN BKN010 OVC020
                      BECMG 2922/2924 03018KT
                      PROB30 TEMPO 3001/3006 02020G30KT
                      BECMG 3016/3018 35008KT=
201912292300 TAF LRCK 292300Z 3000/3024 01018KT 9999 SCT010 BKN030
                      PROB40 TEMPO 3001/3007 01020G30KT 5000 -DZ
                       BKN010 OVC020
                      BECMG 3018/3020 31008KT
                      BECMG 3022/3024 5000 BR=
201912300500 TAF LRCK 300500Z 3006/3106 01020KT 5000 BR OVC010
                      TEMPO 3006/3010 01020G30KT
                      BECMG 3010/3012 02010KT 9999 NSW BKN020
                      BECMG 3018/3020 30010KT
                      TEMPO 3100/3106 3000 BR OVC005=
201912301100 TAF LRCK 301100Z 3012/3112 01016KT 9999 BKN015
                      BECMG 3018/3020 30008KT BKN020
                      TEMPO 3100/3106 3000 BR OVC010=
201912301700 TAF LRCK 301700Z 3018/3118 36012KT 9999 BKN020
                      TEMPO 3022/3105 3000 BR OVC010
                      BECMG 3105/3107 27012KT=
201912302004 TAF AMD LRCK 302004Z 3020/3118 36012KT 9999 BKN015
                      TEMPO 3022/3105 3000 BR OVC010
                      BECMG 3105/3107 27012KT=
201912302300 TAF LRCK 302300Z 3100/3124 28005KT 9999 BKN010
                      TEMPO 3100/3105 3000 BR OVC005
                      BECMG 3106/3109 27015KT
                      BECMG 3109/3111 BKN025=
201912310500 TAF LRCK 310500Z 3106/0106 27015KT 3000 BR OVC005
                      TEMPO 3106/3108 1500 BR OVC002
                      BECMG 3108/3110 CAVOK
                      TEMPO 3108/3116 27016G26KT
                      PROB30 TEMPO 3118/3123 5000 -RA BR BKN015
                       BKN040
                      BECMG 3123/0101 33012KT=
201912311100 TAF LRCK 311100Z 3112/0112 27018KT CAVOK
                      PROB30 TEMPO 3118/3123 5000 -RA BR BKN015
                       BKN040
                      BECMG 3121/3123 33012KT
                      TEMPO 0108/0112 33016G26KT=
201912311700 TAF LRCK 311700Z 3118/0118 26016KT CAVOK
                      TEMPO 3118/3124 5000 -RA BR BKN015 BKN040
                       BECMG 3121/3123 32014KT
                      TEMPO 0108/0113 33016G26KT=
201912312300 TAF LRCK 312300Z 0100/0124 32012KT CAVOK
                      TEMPO 0100/0105 3000 BR
                      TEMPO 0108/0113 33016G26KT
                      PROB30 TEMPO 0112/0118 5000 -RA BR BKN015
                       BKN040=
