201912010000 METAR LRCK 010000Z 35013KT 9999 -RA BKN015 BKN048 04/03 Q1018
                        R36/290095 NOSIG=
201912010030 METAR LRCK 010030Z 34011KT 9999 BKN018 04/03 Q1018 R36/290095
                        NOSIG=
201912010100 METAR LRCK 010100Z 33008KT 9999 BKN017 04/03 Q1018 R36/290095
                        NOSIG=
201912010130 METAR LRCK 010130Z 34009KT 9999 BKN019 04/03 Q1019 R36/290095
                        NOSIG=
201912010200 METAR LRCK 010200Z 33010KT 9999 BKN019 04/03 Q1019 R36/290095
                        NOSIG=
201912010230 METAR COR LRCK 010230Z 34010KT 9999 SCT018 03/01 Q1020 R36/290095
                        NOSIG=
201912010300 METAR LRCK 010300Z 33010KT 9999 FEW020 03/01 Q1020 R36/19//95
                        NOSIG=
201912010330 METAR LRCK 010330Z 34012KT 9999 FEW029 03/01 Q1020 R36/19//95
                        NOSIG=
201912010400 METAR LRCK 010400Z 35013KT CAVOK 02/00 Q1021 R36/19//95 NOSIG=
201912010430 METAR LRCK 010430Z 35012KT CAVOK 02/M00 Q1021 R36/19//95
                        NOSIG=
201912010500 METAR LRCK 010500Z 35010KT CAVOK 02/M01 Q1022 R36/19//95
                        NOSIG=
201912010530 METAR LRCK 010530Z 34010KT CAVOK 01/M01 Q1022 R36/19//95
                        NOSIG=
201912010600 METAR LRCK 010600Z 33011KT CAVOK 01/M01 Q1023 R36/19//95
                        NOSIG=
201912010630 METAR LRCK 010630Z 33011KT CAVOK 02/M00 Q1023 R36/CLRD//
                        NOSIG=
201912010700 METAR LRCK 010700Z 33010KT CAVOK 02/M00 Q1024 NOSIG=
201912010730 METAR LRCK 010730Z 32012KT CAVOK 03/M01 Q1024 NOSIG=
201912010800 METAR LRCK 010800Z 33011KT CAVOK 03/M00 Q1025 NOSIG=
201912010830 METAR LRCK 010830Z 34011KT CAVOK 04/M00 Q1025 NOSIG=
201912010900 METAR LRCK 010900Z 34010KT CAVOK 04/M01 Q1025 NOSIG=
201912010930 METAR LRCK 010930Z 32010KT CAVOK 05/M02 Q1025 NOSIG=
201912011000 METAR LRCK 011000Z 33010KT CAVOK 05/M02 Q1025 NOSIG=
201912011030 METAR LRCK 011030Z 35010KT 320V020 9999 FEW030 05/M02 Q1025
                        NOSIG=
201912011100 METAR LRCK 011100Z 33009KT 9999 FEW033 05/M03 Q1025 NOSIG=
201912011130 METAR LRCK 011130Z 32010KT 9999 FEW034 05/M03 Q1025 NOSIG=
201912011200 METAR LRCK 011200Z 31009KT 9999 FEW034 05/M02 Q1026 NOSIG=
201912011230 METAR LRCK 011230Z 32008KT 9999 FEW034 05/M03 Q1026 NOSIG=
201912011300 METAR LRCK 011300Z 32011KT 9999 FEW035 05/M03 Q1026 NOSIG=
201912011330 METAR LRCK 011330Z 33008KT 9999 FEW040 04/M03 Q1027 NOSIG=
201912011400 METAR LRCK 011400Z 32007KT CAVOK 04/M04 Q1027 NOSIG=
201912011430 METAR LRCK 011430Z 31006KT CAVOK 02/M04 Q1027 NOSIG=
201912011500 METAR LRCK 011500Z 30005KT CAVOK 01/M04 Q1027 NOSIG=
201912011530 METAR LRCK 011530Z 30004KT CAVOK 00/M03 Q1027 NOSIG=
201912011600 METAR LRCK 011600Z 28005KT CAVOK M01/M04 Q1028 NOSIG=
201912011630 METAR LRCK 011630Z 28005KT CAVOK M02/M03 Q1028 NOSIG=
201912011700 METAR LRCK 011700Z 29004KT CAVOK M01/M03 Q1028 NOSIG=
201912011730 METAR LRCK 011730Z 28004KT CAVOK M01/M03 Q1028 NOSIG=
201912011800 METAR LRCK 011800Z 28006KT CAVOK M03/M04 Q1028 NOSIG=
201912011830 METAR LRCK 011830Z 29006KT CAVOK M02/M03 Q1028 NOSIG=
201912011900 METAR LRCK 011900Z 29007KT CAVOK M02/M04 Q1028 NOSIG=
201912011930 METAR LRCK 011930Z 30005KT CAVOK M02/M03 Q1028 NOSIG=
201912012000 METAR LRCK 012000Z 31005KT CAVOK M03/M04 Q1029 NOSIG=
201912012030 METAR LRCK 012030Z 35005KT CAVOK M03/M04 Q1028 NOSIG=
201912012100 METAR LRCK 012100Z 32005KT CAVOK M02/M04 Q1029 NOSIG=
201912012130 METAR LRCK 012130Z 34005KT CAVOK M03/M04 Q1029 NOSIG=
201912012200 METAR LRCK 012200Z 34004KT CAVOK M02/M04 Q1029 NOSIG=
201912012230 METAR LRCK 012230Z 35005KT CAVOK M02/M03 Q1029 NOSIG=
201912012300 METAR LRCK 012300Z 35005KT CAVOK M02/M03 Q1028 NOSIG=
201912012330 METAR LRCK 012330Z 01004KT CAVOK M02/M04 Q1028 NOSIG=
201912020000 METAR LRCK 020000Z 36005KT CAVOK M03/M04 Q1028 NOSIG=
201912020030 METAR LRCK 020030Z 32003KT CAVOK M02/M03 Q1028 NOSIG=
201912020100 METAR LRCK 020100Z 03003KT CAVOK M03/M04 Q1028 NOSIG=
201912020130 METAR LRCK 020130Z 06002KT CAVOK M02/M04 Q1028 NOSIG=
201912020200 METAR LRCK 020200Z 06003KT CAVOK M02/M04 Q1028 NOSIG=
201912020230 METAR LRCK 020230Z 03002KT CAVOK M03/M05 Q1027 NOSIG=
201912020300 METAR LRCK 020300Z 03002KT CAVOK M04/M06 Q1027 NOSIG=
201912020330 METAR LRCK 020330Z 04003KT CAVOK M02/M05 Q1027 NOSIG=
201912020400 METAR LRCK 020400Z 06004KT CAVOK M03/M06 Q1027 NOSIG=
201912020430 METAR LRCK 020430Z 04002KT CAVOK M02/M05 Q1027 NOSIG=
201912020500 METAR LRCK 020500Z 06003KT CAVOK M03/M05 Q1026 NOSIG=
201912020530 METAR LRCK 020530Z 05002KT CAVOK M02/M05 Q1026 NOSIG=
201912020600 METAR LRCK 020600Z 07004KT CAVOK M01/M05 Q1026 NOSIG=
201912020630 METAR LRCK 020630Z 06004KT CAVOK M00/M04 Q1026 NOSIG=
201912020700 METAR LRCK 020700Z 10003KT 070V130 CAVOK 02/M02 Q1026 NOSIG=
201912020730 METAR LRCK 020730Z 15002KT CAVOK 03/M01 Q1026 NOSIG=
201912020800 METAR LRCK 020800Z 16005KT CAVOK 04/00 Q1025 NOSIG=
201912020830 METAR LRCK 020830Z 15004KT CAVOK 04/01 Q1025 NOSIG=
201912020900 METAR LRCK 020900Z 16007KT CAVOK 07/02 Q1024 NOSIG=
201912020930 METAR LRCK 020930Z 17011KT CAVOK 07/01 Q1023 NOSIG=
201912021000 METAR LRCK 021000Z 17012KT CAVOK 08/01 Q1023 NOSIG=
201912021030 METAR LRCK 021030Z 18015KT CAVOK 08/02 Q1022 NOSIG=
201912021100 METAR LRCK 021100Z 17015KT 9999 FEW030 09/02 Q1022 NOSIG=
201912021130 METAR LRCK 021130Z 18018KT 9999 FEW031 09/03 Q1021 NOSIG=
201912021200 METAR LRCK 021200Z 18016KT 9999 SCT029 09/02 Q1021 NOSIG=
201912021230 METAR LRCK 021230Z 19017KT 9999 SCT030 09/02 Q1020 NOSIG=
201912021300 METAR LRCK 021300Z 19015KT 9999 FEW034 09/02 Q1020 NOSIG=
201912021330 METAR LRCK 021330Z 19015KT 9999 FEW032 08/02 Q1019 NOSIG=
201912021400 METAR LRCK 021400Z 19010KT 9999 FEW032 07/03 Q1019 NOSIG=
201912021430 METAR LRCK 021430Z 20010KT CAVOK 06/03 Q1019 NOSIG=
201912021500 METAR LRCK 021500Z 19008KT CAVOK 05/02 Q1018 NOSIG=
201912021530 METAR LRCK 021530Z 19010KT CAVOK 04/02 Q1018 NOSIG=
201912021600 METAR LRCK 021600Z 20010KT CAVOK 03/02 Q1018 NOSIG=
201912021630 METAR LRCK 021630Z 20008KT CAVOK 03/02 Q1018 NOSIG=
201912021700 METAR LRCK 021700Z 19008KT CAVOK 03/02 Q1017 NOSIG=
201912021730 METAR LRCK 021730Z 20008KT CAVOK 04/02 Q1017 NOSIG=
201912021800 METAR LRCK 021800Z 22007KT CAVOK 04/02 Q1017 NOSIG=
201912021830 METAR LRCK 021830Z 21008KT CAVOK 04/02 Q1016 NOSIG=
201912021900 METAR LRCK 021900Z 20008KT CAVOK 05/02 Q1016 NOSIG=
201912021930 METAR LRCK 021930Z 22010KT CAVOK 05/02 Q1016 NOSIG=
201912022000 METAR LRCK 022000Z 23011KT CAVOK 05/02 Q1016 NOSIG=
201912022030 METAR LRCK 022030Z 22010KT CAVOK 05/02 Q1015 NOSIG=
201912022100 METAR LRCK 022100Z 23009KT CAVOK 05/02 Q1015 NOSIG=
201912022130 METAR LRCK 022130Z 24010KT CAVOK 04/02 Q1015 NOSIG=
201912022200 METAR LRCK 022200Z 27010KT CAVOK 05/02 Q1016 NOSIG=
201912022230 METAR LRCK 022230Z 26013KT CAVOK 05/01 Q1015 NOSIG=
201912022300 METAR LRCK 022300Z 27015KT CAVOK 04/01 Q1015 NOSIG=
201912022330 METAR COR LRCK 022330Z 28012KT CAVOK 03/00 Q1016 NOSIG=
201912030000 METAR LRCK 030000Z 27011KT CAVOK 03/00 Q1016 NOSIG=
201912030030 METAR LRCK 030030Z 28012KT CAVOK 03/00 Q1016 NOSIG=
201912030100 METAR LRCK 030100Z 28015KT CAVOK 03/00 Q1016 NOSIG=
201912030130 METAR LRCK 030130Z 29013KT CAVOK 03/01 Q1017 NOSIG=
201912030200 METAR LRCK 030200Z 29014KT CAVOK 03/00 Q1017 NOSIG=
201912030230 METAR LRCK 030230Z 29011KT CAVOK 03/00 Q1017 NOSIG=
201912030300 METAR LRCK 030300Z 27006KT 9999 SCT048 03/00 Q1018 NOSIG=
201912030330 METAR LRCK 030330Z 29006KT CAVOK 03/01 Q1018 NOSIG=
201912030400 METAR LRCK 030400Z 31004KT CAVOK 03/01 Q1018 NOSIG=
201912030430 METAR LRCK 030430Z 30004KT CAVOK 03/01 Q1019 NOSIG=
201912030500 METAR LRCK 030500Z 26003KT 9999 FEW042 02/01 Q1019 NOSIG=
201912030530 METAR LRCK 030530Z 24002KT 9999 FEW043 02/01 Q1020 NOSIG=
201912030600 METAR LRCK 030600Z 23004KT 9999 SCT048 02/01 Q1020 NOSIG=
201912030630 METAR LRCK 030630Z 29005KT 9999 BKN048 03/01 Q1021 NOSIG=
201912030700 METAR LRCK 030700Z 26004KT CAVOK 03/01 Q1021 NOSIG=
201912030730 METAR LRCK 030730Z 27004KT 240V300 CAVOK 03/01 Q1021 NOSIG=
201912030800 METAR LRCK 030800Z 30005KT 9999 FEW045 03/00 Q1022 NOSIG=
201912030830 METAR LRCK 030830Z 29004KT 9999 FEW048 04/00 Q1022 NOSIG=
201912030900 METAR LRCK 030900Z 34005KT 320V020 CAVOK 04/M00 Q1022 NOSIG=
201912030930 METAR LRCK 030930Z 30004KT CAVOK 04/00 Q1022 NOSIG=
201912031000 METAR LRCK 031000Z 30005KT 270V330 CAVOK 04/M01 Q1022 NOSIG=
201912031030 METAR LRCK 031030Z 30006KT 270V330 CAVOK 05/00 Q1022 NOSIG=
201912031100 METAR LRCK 031100Z 29006KT 250V320 CAVOK 05/M01 Q1022 NOSIG=
201912031130 METAR LRCK 031130Z 28007KT CAVOK 05/M00 Q1022 NOSIG=
201912031200 METAR LRCK 031200Z 28008KT CAVOK 04/M00 Q1022 NOSIG=
201912031230 METAR LRCK 031230Z 28007KT CAVOK 04/M01 Q1022 NOSIG=
201912031300 METAR LRCK 031300Z 29008KT CAVOK 04/M01 Q1022 NOSIG=
201912031330 METAR LRCK 031330Z 28008KT CAVOK 04/M00 Q1022 NOSIG=
201912031400 METAR LRCK 031400Z 29006KT CAVOK 03/00 Q1022 NOSIG=
201912031430 METAR LRCK 031430Z 29006KT CAVOK 03/M00 Q1023 NOSIG=
201912031500 METAR LRCK 031500Z 30005KT CAVOK 03/00 Q1023 NOSIG=
201912031530 METAR LRCK 031530Z 28007KT 8000 NSC 02/01 Q1023 NOSIG=
201912031600 METAR LRCK 031600Z 29007KT 7000 NSC 02/01 Q1024 NOSIG=
201912031630 METAR LRCK 031630Z 28008KT 7000 FEW008 01/01 Q1024 TEMPO
                        5000 BR=
201912031700 METAR LRCK 031700Z 29007KT 5000 BR NSC 00/M00 Q1024 TEMPO
                        3000 BR=
201912031730 METAR LRCK 031730Z 28007KT 4000 BR NSC 00/00 Q1025 TEMPO
                        3000 BR=
201912031800 METAR LRCK 031800Z 29007KT 3000 BR NSC 00/00 Q1025 TEMPO
                        1500 BR=
201912031830 METAR LRCK 031830Z 29007KT 5000 BR NSC M00/M00 Q1025 NOSIG=
201912031900 METAR LRCK 031900Z 29007KT 8000 NSC M00/M01 Q1025 NOSIG=
201912031930 METAR LRCK 031930Z 29005KT 8000 NSC M01/M01 Q1026 NOSIG=
201912032000 METAR LRCK 032000Z 29008KT 0400 R18/0750D R36/0700N FZFG
                        FEW001 M00/M00 Q1026 TEMPO 0350 FZFG=
201912032030 METAR LRCK 032030Z 29008KT 0250 R18/1100U R36/0650N FZFG
                        FEW001 M01/M01 Q1026 NOSIG=
201912032100 METAR LRCK 032100Z 29007KT 0500 R18/P2000 R36/1500U FZFG
                        NSC M01/M01 Q1026 NOSIG=
201912032130 METAR LRCK 032130Z 29006KT 0800 R18/P2000 R36/2000U FZFG
                        NSC M01/M01 Q1026 NOSIG=
201912032200 METAR LRCK 032200Z 31006KT 0700 R18/0650N R36/1800D FZFG
                        NSC M02/M02 Q1027 NOSIG=
201912032230 METAR LRCK 032230Z 29006KT 0600 R18/P2000 R36/0900D FZFG
                        NSC M02/M02 Q1027 NOSIG=
201912032300 METAR LRCK 032300Z 30006KT 2000 BCFG BR NSC M02/M02 Q1027
                        NOSIG=
201912032330 METAR LRCK 032330Z 29006KT 5000 BR NSC M03/M03 Q1027 NOSIG=
201912040000 METAR LRCK 040000Z 30006KT CAVOK M03/M03 Q1027 NOSIG=
201912040030 METAR LRCK 040030Z 31007KT CAVOK M02/M03 Q1027 NOSIG=
201912040100 METAR LRCK 040100Z 33006KT CAVOK M03/M03 Q1027 NOSIG=
201912040130 METAR LRCK 040130Z 35009KT CAVOK M03/M04 Q1027 NOSIG=
201912040200 METAR LRCK 040200Z 35010KT CAVOK M02/M03 Q1027 NOSIG=
201912040230 METAR LRCK 040230Z 36010KT CAVOK M02/M04 Q1027 NOSIG=
201912040300 METAR LRCK 040300Z 36010KT CAVOK M02/M04 Q1028 NOSIG=
201912040330 METAR LRCK 040330Z 36011KT CAVOK M02/M04 Q1028 NOSIG=
201912040400 METAR LRCK 040400Z 36011KT CAVOK M02/M04 Q1028 NOSIG=
201912040430 METAR LRCK 040430Z 36012KT CAVOK M02/M04 Q1028 NOSIG=
201912040500 METAR LRCK 040500Z 35011KT CAVOK M03/M04 Q1029 NOSIG=
201912040530 METAR LRCK 040530Z 35009KT CAVOK M04/M05 Q1029 NOSIG=
201912040600 METAR LRCK 040600Z 34007KT CAVOK M03/M04 Q1029 NOSIG=
201912040630 METAR LRCK 040630Z 33007KT CAVOK M02/M04 Q1030 NOSIG=
201912040700 METAR LRCK 040700Z 34009KT CAVOK M01/M03 Q1030 NOSIG=
201912040730 METAR LRCK 040730Z 36008KT CAVOK M00/M02 Q1030 NOSIG=
201912040800 METAR LRCK 040800Z 01011KT CAVOK 01/M02 Q1030 NOSIG=
201912040830 METAR LRCK 040830Z 02011KT CAVOK 01/M02 Q1030 NOSIG=
201912040900 METAR LRCK 040900Z 02010KT CAVOK 01/M02 Q1030 NOSIG=
201912040930 METAR LRCK 040930Z 03010KT 9999 FEW015 02/M02 Q1030 NOSIG=
201912041000 METAR LRCK 041000Z 03010KT 9999 FEW017 02/M02 Q1030 NOSIG=
201912041030 METAR LRCK 041030Z 03009KT 9999 FEW021 02/M02 Q1030 NOSIG=
201912041100 METAR LRCK 041100Z 03010KT 9999 FEW025 03/M02 Q1030 BECMG
                        VRB04KT=
201912041130 METAR LRCK 041130Z 03009KT 9999 FEW025 03/M02 Q1030 BECMG
                        VRB04KT=
201912041200 METAR LRCK 041200Z 04007KT CAVOK 03/M02 Q1030 BECMG VRB04KT=
201912041230 METAR LRCK 041230Z 04005KT 010V070 CAVOK 03/M03 Q1030 NOSIG=
201912041300 METAR LRCK 041300Z 03005KT CAVOK 03/M04 Q1030 NOSIG=
201912041330 METAR LRCK 041330Z 04003KT CAVOK 02/M03 Q1030 NOSIG=
201912041400 METAR LRCK 041400Z VRB01KT CAVOK 02/M03 Q1030 NOSIG=
201912041430 METAR LRCK 041430Z 09002KT CAVOK 00/M03 Q1030 NOSIG=
201912041500 METAR LRCK 041500Z 14002KT CAVOK M00/M03 Q1030 NOSIG=
201912041530 METAR LRCK 041530Z 15001KT CAVOK M01/M03 Q1030 NOSIG=
201912041600 METAR LRCK 041600Z 07001KT CAVOK M01/M03 Q1031 NOSIG=
201912041630 METAR LRCK 041630Z 00000KT CAVOK M03/M05 Q1031 NOSIG=
201912041700 METAR LRCK 041700Z VRB01KT CAVOK M02/M04 Q1031 NOSIG=
201912041730 METAR LRCK 041730Z 27002KT CAVOK M03/M05 Q1031 BECMG 5000
                        BR=
201912041800 METAR LRCK 041800Z 25004KT 8000 NSC M04/M05 Q1031 BECMG 5000
                        BR=
201912041830 METAR LRCK 041830Z 26005KT 8000 NSC M02/M04 Q1031 BECMG 3000
                        BR=
201912041900 METAR LRCK 041900Z 26005KT 8000 NSC M03/M04 Q1031 BECMG 5000
                        BR=
201912041930 METAR LRCK 041930Z 27005KT 8000 NSC M04/M06 Q1032 BECMG 5000
                        BR=
201912042000 METAR LRCK 042000Z 30007KT 5000 BR NSC M04/M05 Q1032 NOSIG=
201912042030 METAR LRCK 042030Z 30007KT 3000 BR NSC M04/M05 Q1032 NOSIG=
201912042100 METAR LRCK 042100Z 29006KT 5000 BR NSC M05/M07 Q1032 NOSIG=
201912042130 METAR LRCK 042130Z 30007KT 6000 NSC M05/M05 Q1032 NOSIG=
201912042200 METAR LRCK 042200Z 30007KT 6000 NSC M04/M05 Q1032 NOSIG=
201912042230 METAR LRCK 042230Z 28006KT 5000 BR NSC M05/M06 Q1031 NOSIG=
201912042300 METAR LRCK 042300Z 28006KT 5000 BR NSC M05/M06 Q1031 NOSIG=
201912042330 METAR LRCK 042330Z 28006KT 5000 BR NSC M05/M06 Q1031 NOSIG=
201912050000 METAR LRCK 050000Z 28006KT 5000 BR NSC M05/M05 Q1032 NOSIG=
201912050030 METAR LRCK 050030Z 30007KT 5000 BR NSC M05/M06 Q1032 NOSIG=
201912050100 METAR LRCK 050100Z 29006KT 3000 BR NSC M05/M06 Q1031 NOSIG=
201912050130 METAR LRCK 050130Z 29006KT 3000 BR NSC M05/M05 Q1031 NOSIG=
201912050200 METAR LRCK 050200Z 28005KT 3000 BR NSC M05/M06 Q1031 NOSIG=
201912050230 METAR LRCK 050230Z 27005KT 3000 BR NSC M06/M06 Q1031 NOSIG=
201912050300 METAR LRCK 050300Z 27006KT 3000 BR NSC M06/M06 Q1031 NOSIG=
201912050330 METAR COR LRCK 050330Z 27006KT 1500 BR NSC M06/M06 Q1031
                        NOSIG=
201912050400 METAR LRCK 050400Z 28005KT 1500 BR FEW003 M05/M05 Q1031 NOSIG=
201912050430 METAR LRCK 050430Z 27005KT 0800 R18/0300N R36/P2000 FZFG
                        NSC M06/M07 Q1031 TEMPO 0350 FZFG
                        VV001=
201912050500 METAR LRCK 050500Z 26004KT 0800 R18/0400N R36/P2000 FZFG
                        NSC M06/M06 Q1031 TEMPO 0350 FZFG
                        VV001=
201912050530 METAR LRCK 050530Z 25003KT 1500 BR NSC M05/M06 Q1031 BECMG
                        3000=
201912050600 METAR LRCK 050600Z 24003KT 3000 BR NSC M05/M06 Q1032 BECMG
                        5000=
201912050630 METAR LRCK 050630Z 24004KT 5000 BR NSC M04/M04 Q1032 BECMG
                        CAVOK=
201912050700 METAR LRCK 050700Z 26006KT 6000 NSC M02/M03 Q1032 BECMG CAVOK=
201912050730 METAR LRCK 050730Z 25007KT 6000 NSC M01/M02 Q1032 NOSIG=
201912050800 METAR LRCK 050800Z 25006KT 8000 NSC 00/M02 Q1032 NOSIG=
201912050830 METAR LRCK 050830Z 26007KT CAVOK 01/M01 Q1032 NOSIG=
201912050900 METAR LRCK 050900Z 26007KT CAVOK 02/M01 Q1032 NOSIG=
201912050930 METAR LRCK 050930Z 27008KT CAVOK 02/M01 Q1031 NOSIG=
201912051000 METAR LRCK 051000Z 25008KT CAVOK 03/M01 Q1031 NOSIG=
201912051030 METAR LRCK 051030Z 26008KT CAVOK 04/M00 Q1031 NOSIG=
201912051100 METAR LRCK 051100Z 26007KT CAVOK 04/M01 Q1030 NOSIG=
201912051130 METAR LRCK 051130Z 24008KT CAVOK 05/M02 Q1030 NOSIG=
201912051200 METAR LRCK 051200Z 24007KT CAVOK 05/M02 Q1030 NOSIG=
201912051230 METAR LRCK 051230Z 24006KT CAVOK 05/M03 Q1030 NOSIG=
201912051300 METAR LRCK 051300Z 22006KT CAVOK 05/M03 Q1030 NOSIG=
201912051330 METAR LRCK 051330Z 23006KT CAVOK 05/M03 Q1030 NOSIG=
201912051400 METAR LRCK 051400Z 21004KT CAVOK 03/M03 Q1030 NOSIG=
201912051430 METAR LRCK 051430Z 22004KT CAVOK 01/M03 Q1030 NOSIG=
201912051500 METAR LRCK 051500Z 21005KT CAVOK M01/M03 Q1030 NOSIG=
201912051530 METAR LRCK 051530Z 21005KT CAVOK M01/M03 Q1029 NOSIG=
201912051600 METAR LRCK 051600Z 22006KT CAVOK M01/M04 Q1029 NOSIG=
201912051630 METAR LRCK 051630Z 22005KT CAVOK M01/M04 Q1029 NOSIG=
201912051700 METAR LRCK 051700Z 21007KT CAVOK M01/M04 Q1029 NOSIG=
201912051730 METAR LRCK 051730Z 21007KT CAVOK M01/M04 Q1029 NOSIG=
201912051800 METAR LRCK 051800Z 21007KT CAVOK M02/M04 Q1029 NOSIG=
201912051830 METAR LRCK 051830Z 22006KT CAVOK M03/M05 Q1029 NOSIG=
201912051900 METAR LRCK 051900Z 22006KT CAVOK M03/M04 Q1029 NOSIG=
201912051930 METAR LRCK 051930Z 22007KT CAVOK M03/M04 Q1029 NOSIG=
201912052000 METAR LRCK 052000Z 23008KT CAVOK M03/M04 Q1029 NOSIG=
201912052030 METAR LRCK 052030Z 23008KT CAVOK M03/M05 Q1029 NOSIG=
201912052100 METAR LRCK 052100Z 22007KT CAVOK M03/M04 Q1029 NOSIG=
201912052130 METAR LRCK 052130Z 22007KT CAVOK M03/M04 Q1029 NOSIG=
201912052200 METAR LRCK 052200Z 22009KT CAVOK M02/M03 Q1028 NOSIG=
201912052230 METAR LRCK 052230Z 22009KT CAVOK M01/M03 Q1028 NOSIG=
201912052300 METAR LRCK 052300Z 22008KT CAVOK M01/M03 Q1028 NOSIG=
201912052330 METAR LRCK 052330Z 23008KT CAVOK M01/M03 Q1028 NOSIG=
201912060000 METAR LRCK 060000Z 23009KT CAVOK M01/M02 Q1028 NOSIG=
201912060030 METAR LRCK 060030Z 24007KT CAVOK M01/M02 Q1028 NOSIG=
201912060100 METAR LRCK 060100Z 24007KT CAVOK M01/M02 Q1027 NOSIG=
201912060130 METAR LRCK 060130Z 25008KT CAVOK M00/M02 Q1027 NOSIG=
201912060200 METAR LRCK 060200Z 24009KT CAVOK M01/M03 Q1027 NOSIG=
201912060230 METAR LRCK 060230Z 24008KT CAVOK M01/M02 Q1026 NOSIG=
201912060300 METAR LRCK 060300Z 24008KT CAVOK M01/M03 Q1026 NOSIG=
201912060330 METAR LRCK 060330Z 25007KT CAVOK M01/M03 Q1026 NOSIG=
201912060400 METAR LRCK 060400Z 25007KT CAVOK M01/M03 Q1026 NOSIG=
201912060430 METAR LRCK 060430Z 25007KT CAVOK M02/M03 Q1026 NOSIG=
201912060500 METAR LRCK 060500Z 26006KT CAVOK M02/M03 Q1026 NOSIG=
201912060530 METAR LRCK 060530Z 25007KT CAVOK M02/M03 Q1026 NOSIG=
201912060600 METAR LRCK 060600Z 24008KT CAVOK M01/M03 Q1026 NOSIG=
201912060630 METAR LRCK 060630Z 23008KT CAVOK M00/M02 Q1027 NOSIG=
201912060700 METAR LRCK 060700Z 24009KT CAVOK 01/M01 Q1027 NOSIG=
201912060730 METAR LRCK 060730Z 24009KT CAVOK 02/M01 Q1027 NOSIG=
201912060800 METAR LRCK 060800Z 25009KT CAVOK 03/M01 Q1027 NOSIG=
201912060830 METAR LRCK 060830Z 24008KT CAVOK 04/M00 Q1027 NOSIG=
201912060900 METAR LRCK 060900Z 23010KT CAVOK 05/00 Q1026 NOSIG=
201912060930 METAR LRCK 060930Z 24008KT CAVOK 07/01 Q1026 NOSIG=
201912061000 METAR LRCK 061000Z 22009KT CAVOK 08/02 Q1025 NOSIG=
201912061030 METAR LRCK 061030Z 23011KT CAVOK 09/01 Q1025 NOSIG=
201912061100 METAR LRCK 061100Z 22011KT CAVOK 09/01 Q1025 NOSIG=
201912061130 METAR LRCK 061130Z 23011KT CAVOK 09/02 Q1024 NOSIG=
201912061200 METAR LRCK 061200Z 22011KT CAVOK 09/02 Q1024 NOSIG=
201912061230 METAR LRCK 061230Z 21011KT CAVOK 10/02 Q1024 NOSIG=
201912061300 METAR LRCK 061300Z 22010KT CAVOK 09/02 Q1023 NOSIG=
201912061330 METAR LRCK 061330Z 22009KT CAVOK 09/02 Q1023 NOSIG=
201912061400 METAR LRCK 061400Z 22009KT CAVOK 07/02 Q1023 NOSIG=
201912061430 METAR LRCK 061430Z 23007KT CAVOK 04/01 Q1023 NOSIG=
201912061500 METAR LRCK 061500Z 24006KT CAVOK 03/00 Q1023 NOSIG=
201912061530 METAR LRCK 061530Z 19004KT 150V250 CAVOK 02/M00 Q1023 NOSIG=
201912061600 METAR LRCK 061600Z 22005KT CAVOK 02/M00 Q1023 NOSIG=
201912061630 METAR LRCK 061630Z 22005KT CAVOK 02/00 Q1023 NOSIG=
201912061700 METAR LRCK 061700Z 21005KT CAVOK 02/01 Q1023 NOSIG=
201912061730 METAR LRCK 061730Z 21009KT CAVOK 02/01 Q1023 NOSIG=
201912061800 METAR LRCK 061800Z 22009KT CAVOK 00/M00 Q1022 NOSIG=
201912061830 METAR LRCK 061830Z 23006KT CAVOK M00/M01 Q1022 NOSIG=
201912061900 METAR LRCK 061900Z 24007KT CAVOK 00/M00 Q1022 NOSIG=
201912061930 METAR LRCK 061930Z 24007KT CAVOK 00/M01 Q1022 NOSIG=
201912062000 METAR LRCK 062000Z 23007KT CAVOK 01/M00 Q1022 NOSIG=
201912062030 METAR LRCK 062030Z 21006KT CAVOK M02/M02 Q1022 NOSIG=
201912062100 METAR LRCK 062100Z 20008KT CAVOK M00/M01 Q1021 NOSIG=
201912062130 METAR LRCK 062130Z 23006KT CAVOK 01/M00 Q1021 NOSIG=
201912062200 METAR COR LRCK 062200Z 21009KT CAVOK 00/M01 Q1021 NOSIG=
201912062230 METAR LRCK 062230Z 22007KT CAVOK M01/M02 Q1020 NOSIG=
201912062300 METAR LRCK 062300Z 23005KT CAVOK M01/M02 Q1020 NOSIG=
201912062330 METAR COR LRCK 062330Z 22006KT CAVOK M01/M02 Q1020 NOSIG=
201912070000 METAR LRCK 070000Z 22007KT CAVOK M01/M02 Q1020 NOSIG=
201912070030 METAR LRCK 070030Z 22006KT CAVOK M01/M02 Q1019 NOSIG=
201912070100 METAR LRCK 070100Z 25007KT CAVOK M02/M03 Q1019 NOSIG=
201912070130 METAR LRCK 070130Z 27008KT CAVOK M01/M02 Q1019 NOSIG=
201912070200 METAR COR LRCK 070200Z 25007KT CAVOK M01/M02 Q1018 NOSIG=
201912070230 METAR LRCK 070230Z 25008KT CAVOK M02/M02 Q1018 NOSIG=
201912070300 METAR COR LRCK 070300Z 25008KT CAVOK M01/M02 Q1018 NOSIG=
201912070330 METAR LRCK 070330Z 22005KT CAVOK M02/M02 Q1017 NOSIG=
201912070400 METAR LRCK 070400Z 22005KT CAVOK M00/M02 Q1017 NOSIG=
201912070430 METAR LRCK 070430Z 25005KT CAVOK M01/M02 Q1017 NOSIG=
201912070500 METAR LRCK 070500Z 23005KT CAVOK M01/M02 Q1017 NOSIG=
201912070530 METAR LRCK 070530Z 24006KT CAVOK M01/M02 Q1017 NOSIG=
201912070600 METAR LRCK 070600Z 26007KT CAVOK M01/M02 Q1017 NOSIG=
201912070630 METAR LRCK 070630Z 25007KT CAVOK 00/M01 Q1017 NOSIG=
201912070700 METAR LRCK 070700Z 25007KT 8000 NSC 02/M01 Q1017 NOSIG=
201912070730 METAR LRCK 070730Z 25005KT CAVOK 03/00 Q1017 NOSIG=
201912070800 METAR LRCK 070800Z 25005KT CAVOK 05/01 Q1017 NOSIG=
201912070830 METAR LRCK 070830Z 24007KT CAVOK 07/01 Q1017 NOSIG=
201912070900 METAR LRCK 070900Z 24008KT CAVOK 08/01 Q1016 NOSIG=
201912070930 METAR LRCK 070930Z 24009KT CAVOK 07/01 Q1016 NOSIG=
201912071000 METAR LRCK 071000Z 25009KT CAVOK 08/01 Q1016 NOSIG=
201912071030 METAR LRCK 071030Z 25009KT CAVOK 09/01 Q1015 NOSIG=
201912071100 METAR LRCK 071100Z 25011KT CAVOK 09/01 Q1015 NOSIG=
201912071130 METAR LRCK 071130Z 26014KT CAVOK 08/01 Q1015 NOSIG=
201912071200 METAR LRCK 071200Z 26012KT CAVOK 07/01 Q1014 NOSIG=
201912071230 METAR LRCK 071230Z 26009KT CAVOK 06/00 Q1014 NOSIG=
201912071300 METAR LRCK 071300Z 27008KT CAVOK 06/01 Q1014 NOSIG=
201912071330 METAR LRCK 071330Z 27008KT CAVOK 05/00 Q1014 NOSIG=
201912071400 METAR LRCK 071400Z 27009KT CAVOK 04/M00 Q1014 NOSIG=
201912071430 METAR LRCK 071430Z 26008KT CAVOK 03/M00 Q1014 NOSIG=
201912071500 METAR LRCK 071500Z 26009KT CAVOK 02/M00 Q1014 NOSIG=
201912071530 METAR LRCK 071530Z 26009KT 8000 NSC 02/00 Q1014 NOSIG=
201912071600 METAR LRCK 071600Z 26010KT 8000 NSC 02/00 Q1015 NOSIG=
201912071630 METAR LRCK 071630Z 27009KT 8000 NSC 02/00 Q1015 NOSIG=
201912071700 METAR LRCK 071700Z 27012KT 8000 NSC 02/00 Q1014 NOSIG=
201912071730 METAR LRCK 071730Z 25009KT 8000 NSC 02/M00 Q1015 NOSIG=
201912071800 METAR LRCK 071800Z 26010KT 8000 NSC 02/00 Q1015 NOSIG=
201912071830 METAR LRCK 071830Z 26008KT CAVOK 03/00 Q1015 NOSIG=
201912071900 METAR LRCK 071900Z 27009KT CAVOK 03/01 Q1015 NOSIG=
201912071930 METAR LRCK 071930Z 27011KT CAVOK 02/01 Q1015 NOSIG=
201912072000 METAR LRCK 072000Z 29013KT CAVOK 02/01 Q1015 NOSIG=
201912072030 METAR LRCK 072030Z 28011KT 8000 NSC 02/00 Q1015 NOSIG=
201912072100 METAR LRCK 072100Z 28010KT 8000 NSC 02/00 Q1015 NOSIG=
201912072130 METAR LRCK 072130Z 29010KT 8000 NSC 02/00 Q1014 NOSIG=
201912072200 METAR LRCK 072200Z 28012KT 7000 NSC 02/00 Q1015 BECMG 5000
                        BR=
201912072230 METAR LRCK 072230Z 29011KT 6000 NSC 02/00 Q1014 BECMG 3000
                        BR=
201912072300 METAR LRCK 072300Z 28009KT 5000 BR NSC 01/00 Q1014 BECMG
                        3000 BR=
201912072330 METAR LRCK 072330Z 28011KT 5000 BR NSC 02/00 Q1015 BECMG
                        3000 BR=
201912080000 METAR LRCK 080000Z 28012KT 5000 BR NSC 02/00 Q1015 BECMG
                        3000 BR=
201912080030 METAR LRCK 080030Z 28012KT 5000 BR NSC 01/00 Q1015 BECMG
                        3000 BR=
201912080100 METAR LRCK 080100Z 28011KT 4000 BR NSC 01/00 Q1015 BECMG
                        1500 BR=
201912080130 METAR LRCK 080130Z 28013KT 3500 BR NSC 01/00 Q1015 BECMG
                        1500 BR=
201912080200 METAR LRCK 080200Z 28011KT 3500 BR NSC 01/M00 Q1015 NOSIG=
201912080230 METAR LRCK 080230Z 27010KT 3500 BR NSC 01/M00 Q1015 NOSIG=
201912080300 METAR LRCK 080300Z 27011KT 3000 BR NSC 00/M00 Q1015 TEMPO
                        1500 BR=
201912080330 METAR LRCK 080330Z 28012KT 2500 BR NSC 00/M00 Q1015 TEMPO
                        1500 BR=
201912080400 METAR COR LRCK 080400Z 28012KT 1500 BR NSC 00/M00 Q1015 TEMPO
                        0800 FG=
201912080430 METAR LRCK 080430Z 28011KT 1500 MIFG BR NSC M00/M01 Q1016
                        TEMPO 0800 FZFG=
201912080500 METAR LRCK 080500Z 28011KT 1000 R18/1200U R36/P2000 MIFG
                        BR NSC M01/M01 Q1016 TEMPO 0800 FZFG=
201912080530 METAR LRCK 080530Z 27011KT 0500 R18/0700D R36/P2000 FZFG
                        FEW001 M02/M02 Q1016 NOSIG=
201912080600 METAR LRCK 080600Z 28011KT 1200 R18/0550D R36/P2000 PRFG
                        BR FEW001 M01/M01 Q1016 BECMG 3000=
201912080630 METAR COR LRCK 080630Z 26007KT 0800 R18/1000N R36/1600N FZFG
                        SCT003 M01/M01 Q1017 BECMG 1500 BR=
201912080700 METAR LRCK 080700Z 27009KT 1000 R18/1500U R36/1500U BR SCT001
                        M00/M00 Q1017 BECMG 3000=
201912080730 METAR LRCK 080730Z 27011KT 1200 R18/1600U R36/P2000 BR FEW002
                        01/01 Q1017 BECMG 3000=
201912080800 METAR LRCK 080800Z 27011KT 2000 BR NSC 02/01 Q1017 BECMG
                        5000=
201912080830 METAR LRCK 080830Z 27012KT 2500 BR NSC 03/01 Q1018 BECMG
                        5000=
201912080900 METAR LRCK 080900Z 27011KT 3000 BR NSC 04/02 Q1017 BECMG
                        5000=
201912080930 METAR LRCK 080930Z 28010KT 4000 BR NSC 05/02 Q1017 BECMG
                        5000=
201912081000 METAR LRCK 081000Z 28011KT 5000 BR NSC 05/03 Q1017 BECMG
                        9999 NSW=
201912081030 METAR LRCK 081030Z 28012KT 5000 BR NSC 06/02 Q1017 BECMG
                        9999 NSW=
201912081100 METAR LRCK 081100Z 28009KT 5000 BR NSC 06/03 Q1017 BECMG
                        9999 NSW=
201912081130 METAR LRCK 081130Z 28009KT 6000 NSC 07/03 Q1017 NOSIG=
201912081200 METAR LRCK 081200Z 28011KT 7000 NSC 08/04 Q1017 NOSIG=
201912081230 METAR LRCK 081230Z 29010KT 7000 NSC 08/03 Q1017 NOSIG=
201912081300 METAR LRCK 081300Z 28008KT 7000 NSC 08/04 Q1017 NOSIG=
201912081330 METAR LRCK 081330Z 27008KT 7000 NSC 07/04 Q1017 NOSIG=
201912081400 METAR LRCK 081400Z 28009KT 6000 NSC 06/03 Q1017 NOSIG=
201912081430 METAR LRCK 081430Z 28009KT 5000 BR NSC 05/03 Q1018 NOSIG=
201912081500 METAR LRCK 081500Z 28008KT 4000 BR NSC 04/03 Q1018 NOSIG=
201912081530 METAR LRCK 081530Z 29008KT 4000 BR NSC 04/03 Q1018 BECMG
                        3000 BR=
201912081600 METAR LRCK 081600Z 29008KT 3000 BR NSC 03/02 Q1018 NOSIG=
201912081630 METAR LRCK 081630Z 29007KT 3000 BR NSC 03/02 Q1018 NOSIG=
201912081700 METAR LRCK 081700Z 28006KT 3000 BR NSC 01/01 Q1018 BECMG
                        1500 BR=
201912081730 METAR LRCK 081730Z 29008KT 1500 BR NSC 02/02 Q1018 TEMPO
                        3000 BR=
201912081800 METAR LRCK 081800Z 29009KT 1500 BR NSC 02/02 Q1018 TEMPO
                        3000 BR=
201912081830 METAR LRCK 081830Z 28009KT 1500 BR NSC 02/02 Q1018 NOSIG=
201912081900 METAR LRCK 081900Z 28007KT 1200 R18/1400D R36/P2000 BR NSC
                        01/01 Q1018 BECMG 0800 FG=
201912081930 METAR LRCK 081930Z 28007KT 0400 R18/0175N R36/P2000 FG FEW004
                        01/01 Q1018 TEMPO 0600=
201912082000 METAR LRCK 082000Z 29008KT 0800 R18/0300N R36/P2000 FG FEW002
                        01/01 Q1018 NOSIG=
201912082030 METAR LRCK 082030Z 29009KT 1500 BR NSC 02/01 Q1018 TEMPO
                        0800 FG=
201912082100 METAR LRCK 082100Z 29008KT 1500 BR NSC 01/01 Q1018 TEMPO
                        0800 FG=
201912082130 METAR LRCK 082130Z 28007KT 1500 BR NSC 01/01 Q1018 TEMPO
                        0800 FG=
201912082200 METAR LRCK 082200Z 27007KT 0800 R18/0350N R36/P2000 FG FEW003
                        00/00 Q1018 TEMPO 0600 FG=
201912082230 METAR LRCK 082230Z 27006KT 0400 R18/0225N R36/1500D FZFG
                        SCT003 M00/M00 Q1017 TEMPO 0150 FG=
201912082300 METAR LRCK 082300Z 26004KT 0400 R18/0275N R36/1000U FG OVC002
                        01/01 Q1017 TEMPO 0150 FG=
201912082330 METAR LRCK 082330Z 26005KT 0400 R18/0375N R36/1800N FG BKN002
                        00/00 Q1017 TEMPO 0150 FG=
201912090000 METAR LRCK 090000Z 26006KT 0800 R18/0400N R36/P2000 FZFG
                        BKN002 M00/00 Q1017 TEMPO 1500 BR=
201912090030 METAR LRCK 090030Z 27006KT 0800 R18/0650N R36/P2000 FZFG
                        NSC M01/M01 Q1017 NOSIG=
201912090100 METAR LRCK 090100Z 25005KT 1500 BR NSC 01/01 Q1016 NOSIG=
201912090130 METAR LRCK 090130Z 25006KT 2000 BR NSC 01/01 Q1016 NOSIG=
201912090200 METAR LRCK 090200Z 23004KT 2500 BR NSC 01/00 Q1016 NOSIG=
201912090230 METAR LRCK 090230Z 22004KT 3000 BR NSC 01/00 Q1016 NOSIG=
201912090300 METAR LRCK 090300Z 22005KT 5000 BR NSC 01/M00 Q1016 NOSIG=
201912090330 METAR LRCK 090330Z 22003KT 5000 BR NSC M00/M02 Q1016 NOSIG=
201912090400 METAR LRCK 090400Z 19005KT 8000 NSC 01/M00 Q1016 NOSIG=
201912090430 METAR LRCK 090430Z 20006KT CAVOK M01/M02 Q1015 NOSIG=
201912090500 METAR LRCK 090500Z 22004KT CAVOK M01/M01 Q1015 NOSIG=
201912090530 METAR LRCK 090530Z 22005KT CAVOK M01/M01 Q1015 NOSIG=
201912090600 METAR LRCK 090600Z 23005KT 8000 NSC M00/M01 Q1015 NOSIG=
201912090630 METAR LRCK 090630Z 23007KT 8000 NSC 01/00 Q1016 NOSIG=
201912090700 METAR LRCK 090700Z 23006KT 8000 NSC 02/01 Q1016 NOSIG=
201912090730 METAR LRCK 090730Z 23007KT 8000 NSC 04/03 Q1016 NOSIG=
201912090800 METAR LRCK 090800Z 21007KT CAVOK 06/03 Q1016 NOSIG=
201912090830 METAR LRCK 090830Z 25004KT CAVOK 08/04 Q1015 NOSIG=
201912090900 METAR LRCK 090900Z 20007KT CAVOK 09/04 Q1015 NOSIG=
201912090930 METAR LRCK 090930Z 19009KT CAVOK 10/04 Q1015 NOSIG=
201912091000 METAR LRCK 091000Z 20012KT CAVOK 11/04 Q1015 NOSIG=
201912091030 METAR LRCK 091030Z 20011KT CAVOK 11/04 Q1014 NOSIG=
201912091100 METAR LRCK 091100Z 20010KT CAVOK 12/04 Q1014 NOSIG=
201912091130 METAR LRCK 091130Z 19010KT CAVOK 13/03 Q1013 NOSIG=
201912091200 METAR LRCK 091200Z 19011KT CAVOK 13/03 Q1013 NOSIG=
201912091230 METAR LRCK 091230Z 19012KT CAVOK 13/03 Q1013 NOSIG=
201912091300 METAR LRCK 091300Z 18010KT CAVOK 12/04 Q1013 NOSIG=
201912091330 METAR LRCK 091330Z 17011KT CAVOK 11/05 Q1013 NOSIG=
201912091400 METAR LRCK 091400Z 18008KT CAVOK 09/04 Q1013 NOSIG=
201912091430 METAR LRCK 091430Z 18009KT CAVOK 06/04 Q1013 NOSIG=
201912091500 METAR LRCK 091500Z 17009KT CAVOK 04/03 Q1013 NOSIG=
201912091530 METAR LRCK 091530Z 18009KT CAVOK 05/03 Q1013 NOSIG=
201912091600 METAR LRCK 091600Z 19010KT CAVOK 05/03 Q1013 NOSIG=
201912091630 METAR LRCK 091630Z 19010KT CAVOK 05/04 Q1013 NOSIG=
201912091700 METAR LRCK 091700Z 18010KT CAVOK 05/04 Q1013 NOSIG=
201912091730 METAR LRCK 091730Z 18009KT 8000 NSC 04/04 Q1013 BECMG 5000
                        BR=
201912091800 METAR LRCK 091800Z 18009KT 8000 NSC 04/03 Q1013 BECMG 5000
                        BR=
201912091830 METAR LRCK 091830Z 19010KT 8000 NSC 04/04 Q1013 BECMG 5000
                        BR=
201912091900 METAR LRCK 091900Z 19010KT 8000 NSC 02/02 Q1013 NOSIG=
201912091930 METAR LRCK 091930Z 19010KT 8000 NSC 04/04 Q1013 NOSIG=
201912092000 METAR LRCK 092000Z 19009KT CAVOK 03/03 Q1013 NOSIG=
201912092030 METAR LRCK 092030Z 19009KT CAVOK 04/04 Q1013 NOSIG=
201912092100 METAR LRCK 092100Z 18009KT 8000 NSC 03/03 Q1013 NOSIG=
201912092130 METAR LRCK 092130Z 18009KT 7000 NSC 03/03 Q1013 NOSIG=
201912092200 METAR LRCK 092200Z 18010KT 7000 NSC 03/03 Q1013 NOSIG=
201912092230 METAR LRCK 092230Z 18010KT 8000 NSC 03/03 Q1013 NOSIG=
201912092300 METAR LRCK 092300Z 18010KT 8000 NSC 03/03 Q1013 NOSIG=
201912092330 METAR LRCK 092330Z 18009KT 8000 FEW045 03/03 Q1012 NOSIG=
201912100000 METAR LRCK 100000Z 19009KT 8000 FEW046 04/04 Q1013 NOSIG=
201912100030 METAR LRCK 100030Z 19007KT 8000 FEW045 04/04 Q1013 NOSIG=
201912100100 METAR LRCK 100100Z 20007KT 7000 FEW045 04/04 Q1013 NOSIG=
201912100130 METAR LRCK 100130Z 19007KT 6000 NSC 03/03 Q1013 NOSIG=
201912100200 METAR LRCK 100200Z 19009KT 6000 FEW024 04/04 Q1012 NOSIG=
201912100230 METAR LRCK 100230Z 18008KT 6000 FEW025 03/03 Q1012 NOSIG=
201912100300 METAR LRCK 100300Z 17009KT 7000 FEW030 04/04 Q1012 NOSIG=
201912100330 METAR LRCK 100330Z 17009KT 7000 FEW030 04/04 Q1012 NOSIG=
201912100400 METAR LRCK 100400Z 17008KT 7000 FEW035 04/04 Q1012 NOSIG=
201912100430 METAR LRCK 100430Z 17008KT 7000 FEW035 04/04 Q1012 NOSIG=
201912100500 METAR LRCK 100500Z 17007KT 7000 FEW040 03/03 Q1013 NOSIG=
201912100530 METAR LRCK 100530Z 17006KT 7000 MIFG NSC 04/04 Q1013 NOSIG=
201912100600 METAR LRCK 100600Z 16006KT 8000 MIFG NSC 03/03 Q1013 NOSIG=
201912100630 METAR LRCK 100630Z 15006KT 8000 MIFG NSC 05/05 Q1013 NOSIG=
201912100700 METAR COR LRCK 100700Z 15006KT 8000 MIFG NSC 06/05 Q1013
                        NOSIG=
201912100730 METAR LRCK 100730Z 16005KT CAVOK 08/06 Q1013 NOSIG=
201912100800 METAR LRCK 100800Z 18005KT 9999 FEW029 09/07 Q1013 NOSIG=
201912100830 METAR LRCK 100830Z 17006KT 9999 FEW025 10/08 Q1013 NOSIG=
201912100900 METAR LRCK 100900Z 16006KT 9999 FEW023 12/08 Q1013 NOSIG=
201912100930 METAR LRCK 100930Z 16009KT 9999 FEW023 12/08 Q1013 NOSIG=
201912101000 METAR LRCK 101000Z 15008KT 9999 FEW021 13/09 Q1013 NOSIG=
201912101030 METAR LRCK 101030Z 16008KT 9999 SCT021 12/08 Q1013 NOSIG=
201912101100 METAR LRCK 101100Z 13006KT 9999 SCT023 14/08 Q1013 NOSIG=
201912101130 METAR LRCK 101130Z 13006KT 9999 FEW023 SCT039 13/08 Q1013
                        NOSIG=
201912101200 METAR LRCK 101200Z 16005KT 9999 FEW039 13/07 Q1013 NOSIG=
201912101230 METAR LRCK 101230Z 16008KT 9999 FEW040 12/07 Q1013 NOSIG=
201912101300 METAR LRCK 101300Z 14007KT CAVOK 12/06 Q1013 NOSIG=
201912101330 METAR LRCK 101330Z 13007KT CAVOK 11/07 Q1013 NOSIG=
201912101400 METAR LRCK 101400Z 13006KT 9999 FEW025 09/07 Q1013 NOSIG=
201912101430 METAR LRCK 101430Z 13008KT 6000 NSC 07/06 Q1014 NOSIG=
201912101500 METAR LRCK 101500Z 13009KT 5000 BR NSC 06/05 Q1014 NOSIG=
201912101530 METAR LRCK 101530Z 12006KT 6000 NSC 06/05 Q1014 NOSIG=
201912101600 METAR LRCK 101600Z 11005KT 5000 BR NSC 06/05 Q1014 NOSIG=
201912101630 METAR LRCK 101630Z 11005KT 5000 MIFG BR NSC 06/05 Q1014 NOSIG=
201912101700 METAR LRCK 101700Z 08002KT 6000 MIFG NSC 07/07 Q1015 NOSIG=
201912101730 METAR LRCK 101730Z 08003KT 6000 MIFG NSC 06/06 Q1015 NOSIG=
201912101800 METAR LRCK 101800Z 04003KT 7000 NSC 07/06 Q1015 NOSIG=
201912101830 METAR LRCK 101830Z 03005KT 5000 BR SCT024 06/05 Q1015 NOSIG=
201912101900 METAR LRCK 101900Z 04004KT 5000 BR BKN023 06/06 Q1016 NOSIG=
201912101930 METAR LRCK 101930Z 05004KT 5000 BR SCT022 06/06 Q1016 NOSIG=
201912102000 METAR LRCK 102000Z 04005KT 4000 BR FEW021 06/06 Q1016 BECMG
                        3000 BR=
201912102030 METAR LRCK 102030Z 02006KT 3000 BR FEW025 05/05 Q1017 BECMG
                        1500 BR=
201912102100 METAR LRCK 102100Z 02006KT 3000 BR FEW025 05/04 Q1017 BECMG
                        1500 BR=
201912102130 METAR LRCK 102130Z 01006KT 3000 BR FEW025 05/05 Q1017 NOSIG=
201912102200 METAR LRCK 102200Z 35006KT 3500 BR SCT026 04/04 Q1017 NOSIG=
201912102230 METAR LRCK 102230Z 35006KT 4000 BR SCT025 05/05 Q1017 NOSIG=
201912102300 METAR LRCK 102300Z 35007KT 3500 BR SCT025 05/05 Q1017 NOSIG=
201912102330 METAR COR LRCK 102330Z 01008KT 4000 BR BKN024 05/05 Q1017
                        NOSIG=
201912110000 METAR LRCK 110000Z 01008KT 3500 BR BKN025 06/06 Q1017 NOSIG=
201912110030 METAR LRCK 110030Z 03007KT 3000 BR FEW006 SCT027 BKN040 06/06
                        Q1018 NOSIG=
201912110100 METAR LRCK 110100Z 04006KT 1500 -RA BR FEW008 SCT024 OVC040
                        06/06 Q1018 NOSIG=
201912110130 METAR LRCK 110130Z 02006KT 1500 -RA BR FEW008 OVC039 06/06
                        Q1018 NOSIG=
201912110200 METAR LRCK 110200Z 01008KT 2000 -RA BR SCT027 OVC040 07/07
                        Q1017 NOSIG=
201912110230 METAR LRCK 110230Z 01007KT 3000 BR OVC047 07/07 Q1017 NOSIG=
201912110300 METAR LRCK 110300Z 01009KT 3000 -RA BR SCT029 OVC048 07/07
                        Q1017 NOSIG=
201912110330 METAR LRCK 110330Z 01008KT 4000 -RA BR SCT019 BKN028 07/07
                        Q1018 R36/29//95 NOSIG=
201912110400 METAR LRCK 110400Z 05006KT 360V080 4000 BR SCT013 BKN025
                        07/07 Q1018 R36/29//95 NOSIG=
201912110430 METAR LRCK 110430Z 03005KT 4000 BR SCT014 BKN048 06/06 Q1018
                        R36/29//95 NOSIG=
201912110500 METAR LRCK 110500Z 03007KT 4000 BR BKN005 BKN031 06/06 Q1018
                        R36/29//95 NOSIG=
201912110530 METAR LRCK 110530Z 02008KT 3000 BR OVC003 06/06 Q1018 R36/29//95
                        NOSIG=
201912110600 METAR LRCK 110600Z 02010KT 3000 BR OVC002 07/07 Q1018 R36/29//95
                        NOSIG=
201912110630 METAR LRCK 110630Z 03009KT 3500 BR OVC003 07/07 Q1018 R36/29//95
                        NOSIG=
201912110700 METAR LRCK 110700Z 03010KT 1500 BR OVC002 07/07 Q1018 R36/29//95
                        NOSIG=
201912110730 METAR LRCK 110730Z 05011KT 0800 R18/1600D R36/1000D FG OVC002
                        07/07 Q1018 R36/29//95 NOSIG=
201912110800 METAR LRCK 110800Z 05013KT 0800 R18/1300U R36/1100U FG OVC002
                        07/07 Q1019 R36/29//95 NOSIG=
201912110830 METAR LRCK 110830Z 03012KT 1300 R18/0550N R36/1800D BR OVC002
                        07/07 Q1019 R36/29//95 NOSIG=
201912110900 METAR LRCK 110900Z 03012KT 1300 R18/0700D R36/P2000 BR BKN002
                        OVC008 07/07 Q1018 R36/29//95 NOSIG=
201912110930 METAR LRCK 110930Z 03011KT 1200 R18/P2000 R36/1600U BR OVC002
                        07/07 Q1018 R36/29//95 NOSIG=
201912111000 METAR LRCK 111000Z 03011KT 3000 BR BKN004 07/07 Q1018 R36/29//95
                        NOSIG=
201912111030 METAR LRCK 111030Z 03009KT 8000 BKN007 08/08 Q1018 R36/29//95
                        NOSIG=
201912111100 METAR LRCK 111100Z 04010KT 9999 BKN008 08/08 Q1018 R36/29//95
                        NOSIG=
201912111130 METAR LRCK 111130Z 05011KT 9999 BKN009 08/08 Q1017 R36/29//95
                        NOSIG=
201912111200 METAR LRCK 111200Z 04015KT 9999 BKN007 08/07 Q1017 R36/29//95
                        NOSIG=
201912111230 METAR LRCK 111230Z 03015KT 9999 BKN007 08/07 Q1017 R36/29//95
                        NOSIG=
201912111300 METAR LRCK 111300Z 03014KT 7000 FEW005 SCT021 08/07 Q1017
                        R36/29//95 NOSIG=
201912111330 METAR LRCK 111330Z 03014KT 7000 SCT004 BKN045 08/07 Q1017
                        R36/29//95 NOSIG=
201912111400 METAR LRCK 111400Z 03013KT 5000 BR SCT004 BKN048 07/07 Q1017
                        R36/CLRD// NOSIG=
201912111430 METAR LRCK 111430Z 03013KT 1500 BR OVC002 07/07 Q1017 NOSIG=
201912111500 METAR LRCK 111500Z 02012KT 3000 BR BKN003 06/06 Q1017 NOSIG=
201912111530 METAR LRCK 111530Z 02012KT 3000 BR BKN003 06/06 Q1017 NOSIG=
201912111600 METAR LRCK 111600Z 02012KT 5000 BR BKN003 06/06 Q1017 NOSIG=
201912111630 METAR LRCK 111630Z 02012KT 5000 BR BKN014 06/06 Q1017 NOSIG=
201912111700 METAR LRCK 111700Z 02012KT 5000 BR FEW017 BKN031 06/06 Q1017
                        NOSIG=
201912111730 METAR LRCK 111730Z 01012KT 8000 BKN031 06/06 Q1017 NOSIG=
201912111800 METAR LRCK 111800Z 01010KT 9999 BKN030 06/06 Q1017 NOSIG=
201912111830 METAR LRCK 111830Z 03012KT 9999 BKN025 07/06 Q1017 NOSIG=
201912111900 METAR LRCK 111900Z 02013KT 9999 FEW021 OVC027 06/06 Q1017
                        NOSIG=
201912111930 METAR LRCK 111930Z 02012KT 9999 BKN017 BKN027 06/06 Q1016
                        NOSIG=
201912112000 METAR LRCK 112000Z 02013KT 9999 FEW018 OVC030 06/06 Q1016
                        NOSIG=
201912112030 METAR LRCK 112030Z 02012KT 9999 OVC031 06/06 Q1016 NOSIG=
201912112100 METAR LRCK 112100Z 02012KT 9999 FEW028 OVC032 06/06 Q1016
                        NOSIG=
201912112130 METAR LRCK 112130Z 02013KT 9999 FEW019 OVC043 06/06 Q1016
                        NOSIG=
201912112200 METAR LRCK 112200Z 03013KT 9999 OVC042 06/06 Q1015 NOSIG=
201912112230 METAR LRCK 112230Z 02013KT 9999 FEW007 OVC042 06/06 Q1015
                        NOSIG=
201912112300 METAR LRCK 112300Z 02012KT 9999 FEW006 BKN020 OVC042 06/06
                        Q1015 NOSIG=
201912112330 METAR LRCK 112330Z 02012KT 9999 BKN005 OVC023 06/06 Q1015
                        NOSIG=
201912120000 METAR LRCK 120000Z 02015KT 4000 -RADZ BR SCT005 OVC011 06/06
                        Q1014 NOSIG=
201912120030 METAR LRCK 120030Z 02013KT 5000 -RA BR SCT005 OVC012 06/06
                        Q1014 NOSIG=
201912120100 METAR LRCK 120100Z 03014KT 7000 OVC010 06/06 Q1014 NOSIG=
201912120130 METAR LRCK 120130Z 03014KT 4000 -RA BR BKN005 OVC010 06/06
                        Q1014 R36/19//95 TEMPO 3000 RA=
201912120200 METAR LRCK 120200Z 02014KT 5000 BR SCT006 OVC012 06/06 Q1013
                        R36/19//95 NOSIG=
201912120230 METAR LRCK 120230Z 02013KT 6000 FEW009 OVC013 06/06 Q1013
                        R36/19//95 NOSIG=
201912120300 METAR LRCK 120300Z 03014KT 6000 BKN006 OVC025 06/06 Q1013
                        R36/19//95 NOSIG=
201912120330 METAR LRCK 120330Z 02013KT 5000 BR OVC004 06/06 Q1013 R36/19//95
                        NOSIG=
201912120400 METAR LRCK 120400Z 03012KT 5000 BR FEW004 OVC018 06/06 Q1013
                        R36/19//95 NOSIG=
201912120430 METAR LRCK 120430Z 03013KT 7000 OVC015 06/06 Q1013 R36/19//95
                        NOSIG=
201912120500 METAR LRCK 120500Z 03014KT 7000 OVC012 06/06 Q1013 R36/19//95
                        NOSIG=
201912120530 METAR LRCK 120530Z 02013KT 8000 BKN010 OVC015 06/06 Q1013
                        R36/19//95 NOSIG=
201912120600 METAR LRCK 120600Z 02015KT 8000 BKN009 OVC020 06/06 Q1012
                        R36/19//95 NOSIG=
201912120630 METAR LRCK 120630Z 02013KT 7000 BKN010 OVC020 06/06 Q1013
                        R36/19//95 NOSIG=
201912120700 METAR LRCK 120700Z 02013KT 7000 SCT006 OVC010 06/06 Q1013
                        R36/19//95 NOSIG=
201912120730 METAR LRCK 120730Z 03013KT 8000 SCT006 OVC010 06/06 Q1013
                        R36/19//95 NOSIG=
201912120800 METAR LRCK 120800Z 02012KT 8000 FEW006 OVC010 06/06 Q1013
                        R36/19//95 NOSIG=
201912120830 METAR LRCK 120830Z 02012KT 8000 FEW007 OVC010 07/06 Q1013
                        R36/19//95 NOSIG=
201912120900 METAR LRCK 120900Z 02012KT 9999 FEW008 OVC011 07/06 Q1012
                        R36/19//95 NOSIG=
201912120930 METAR LRCK 120930Z 02013KT 9999 OVC011 07/06 Q1012 R36/19//95
                        NOSIG=
201912121000 METAR LRCK 121000Z 02014KT 9999 FEW007 OVC010 07/06 Q1012
                        R36/19//95 NOSIG=
201912121030 METAR LRCK 121030Z 02013KT 9999 FEW007 OVC010 07/06 Q1011
                        R36/19//95 NOSIG=
201912121100 METAR LRCK 121100Z 02012KT 9999 FEW007 OVC010 07/06 Q1011
                        R36/19//95 NOSIG=
201912121130 METAR LRCK 121130Z 02013KT 9999 FEW007 OVC010 07/06 Q1011
                        R36/19//95 NOSIG=
201912121200 METAR LRCK 121200Z 02014KT 9999 FEW007 OVC010 06/06 Q1011
                        R36/19//95 NOSIG=
201912121230 METAR LRCK 121230Z 02013KT 9999 FEW009 OVC012 06/06 Q1010
                        R36/19//95 NOSIG=
201912121300 METAR LRCK 121300Z 02011KT 9999 BKN012 06/06 Q1011 R36/19//95
                        NOSIG=
201912121330 METAR LRCK 121330Z 02013KT 9999 SCT013 OVC043 06/05 Q1011
                        R36/19//95 NOSIG=
201912121400 METAR LRCK 121400Z 02013KT 9999 FEW008 OVC037 06/05 Q1010
                        R36/19//95 NOSIG=
201912121430 METAR LRCK 121430Z 03012KT 7000 OVC039 06/05 Q1010 R36/19//95
                        NOSIG=
201912121500 METAR LRCK 121500Z 02013KT 7000 OVC037 06/05 Q1010 R36/19//95
                        NOSIG=
201912121530 METAR LRCK 121530Z 02010KT 6000 OVC030 06/05 Q1010 R36/19//95
                        NOSIG=
201912121600 METAR LRCK 121600Z 02011KT 6000 OVC030 06/05 Q1010 R36/19//95
                        NOSIG=
201912121630 METAR LRCK 121630Z 02011KT 5000 BR FEW016 OVC032 06/05 Q1010
                        R36/19//95 NOSIG=
201912121700 METAR LRCK 121700Z 01010KT 4000 BR FEW003 OVC030 06/05 Q1010
                        R36/19//95 NOSIG=
201912121730 METAR LRCK 121730Z 02011KT 4000 BR OVC033 06/05 Q1010 R36/19//95
                        NOSIG=
201912121800 METAR LRCK 121800Z 01011KT 5000 BR OVC033 06/05 Q1009 R36/19//95
                        NOSIG=
201912121830 METAR LRCK 121830Z 01012KT 5000 BR OVC040 06/05 Q1009 R36/19//95
                        NOSIG=
201912121900 METAR LRCK 121900Z 01011KT 5000 BR OVC040 06/05 Q1009 R36/19//95
                        NOSIG=
201912121930 METAR LRCK 121930Z 36011KT 5000 BR OVC038 06/05 Q1009 R36/19//95
                        NOSIG=
201912122000 METAR LRCK 122000Z 36010KT 5000 BR SCT005 OVC030 06/05 Q1009
                        R36/CLRD// NOSIG=
201912122030 METAR LRCK 122030Z 02012KT 5000 BR FEW005 OVC030 05/05 Q1009
                        NOSIG=
201912122100 METAR LRCK 122100Z 02011KT 5000 BR OVC031 05/05 Q1009 NOSIG=
201912122130 METAR LRCK 122130Z 36010KT 5000 BR OVC030 05/05 Q1008 NOSIG=
201912122200 METAR LRCK 122200Z 36009KT 3000 BR SCT004 OVC028 05/05 Q1008
                        NOSIG=
201912122230 METAR LRCK 122230Z 01011KT 3000 BR BKN011 OVC025 05/05 Q1008
                        NOSIG=
201912122300 METAR LRCK 122300Z 01011KT 3000 BR FEW003 OVC014 05/05 Q1008
                        NOSIG=
201912122330 METAR LRCK 122330Z 01011KT 3000 BR FEW004 OVC015 05/05 Q1007
                        NOSIG=
201912130000 METAR COR LRCK 130000Z 01011KT 5000 BR BKN005 OVC017 05/05
                        Q1007 NOSIG=
201912130030 METAR LRCK 130030Z 01010KT 5000 BR BKN005 OVC017 05/05 Q1007
                        NOSIG=
201912130100 METAR LRCK 130100Z 02012KT 5000 BR BKN005 OVC040 05/05 Q1007
                        NOSIG=
201912130130 METAR COR LRCK 130130Z 02011KT 5000 BR BKN017 OVC031 05/05
                        Q1006 NOSIG=
201912130200 METAR COR LRCK 130200Z 03011KT 3000 BR BKN017 OVC035 05/05
                        Q1006 NOSIG=
201912130230 METAR LRCK 130230Z 03011KT 3000 BR BKN004 OVC025 05/05 Q1006
                        NOSIG=
201912130300 METAR LRCK 130300Z 03010KT 2000 BR FEW004 OVC014 05/05 Q1006
                        R36/19//95 NOSIG=
201912130330 METAR LRCK 130330Z 03010KT 3000 BR BKN010 OVC023 06/06 Q1005
                        R36/19//95 NOSIG=
201912130400 METAR LRCK 130400Z 02010KT 3000 BR OVC010 06/06 Q1006 R36/19//95
                        NOSIG=
201912130430 METAR LRCK 130430Z 03012KT 3000 BR OVC008 06/06 Q1006 R36/19//95
                        NOSIG=
201912130500 METAR LRCK 130500Z 03013KT 3000 BR BKN007 OVC030 06/06 Q1005
                        R36/19//95 NOSIG=
201912130530 METAR LRCK 130530Z 04013KT 1500 -DZ BR BKN006 OVC035 06/06
                        Q1005 R36/19//95 NOSIG=
201912130600 METAR LRCK 130600Z 04010KT 2000 -DZ BR BKN004 OVC040 06/06
                        Q1005 R36/29//95 NOSIG=
201912130630 METAR LRCK 130630Z 05011KT 3000 BR OVC004 06/06 Q1005 R36/29//95
                        NOSIG=
201912130700 METAR LRCK 130700Z 05011KT 3500 BR BKN003 OVC004 06/06 Q1005
                        R36/29//95 NOSIG=
201912130730 METAR LRCK 130730Z 05010KT 3500 BR OVC003 06/06 Q1005 R36/29//95
                        NOSIG=
201912130800 METAR LRCK 130800Z 05009KT 3500 BR OVC003 07/07 Q1005 R36/29//95
                        NOSIG=
201912130830 METAR LRCK 130830Z 05010KT 3500 BR OVC003 07/07 Q1005 R36/29//95
                        NOSIG=
201912130900 METAR LRCK 130900Z 04011KT 3000 BR OVC002 07/07 Q1005 R36/29//95
                        NOSIG=
201912130930 METAR LRCK 130930Z 04009KT 2000 -DZ BR OVC002 07/07 Q1004
                        R36/29//95 NOSIG=
201912131000 METAR LRCK 131000Z 04010KT 2000 -DZ BR OVC002 07/07 Q1004
                        R36/29//95 NOSIG=
201912131030 METAR LRCK 131030Z 04010KT 1500 -DZ BR OVC002 08/08 Q1003
                        R36/29//95 NOSIG=
201912131100 METAR LRCK 131100Z 05008KT 1500 -DZ BR SCT001 OVC002 08/08
                        Q1003 R36/29//95 NOSIG=
201912131130 METAR LRCK 131130Z 05007KT 2000 -DZ BR OVC002 08/08 Q1003
                        R36/29//95 NOSIG=
201912131200 METAR LRCK 131200Z 04009KT 2000 BR SCT001 OVC002 08/08 Q1002
                        R36/29//95 NOSIG=
201912131230 METAR LRCK 131230Z 05009KT 3000 BR OVC002 09/09 Q1002 R36/29//95
                        NOSIG=
201912131300 METAR LRCK 131300Z 07009KT 3500 BR OVC002 09/09 Q1002 R36/29//95
                        NOSIG=
201912131330 METAR LRCK 131330Z 05008KT 3000 BR OVC002 09/09 Q1002 R36/29//95
                        NOSIG=
201912131400 METAR LRCK 131400Z 05006KT 2000 BR BKN001 OVC004 09/09 Q1002
                        R36/29//95 NOSIG=
201912131430 METAR LRCK 131430Z 09008KT 3000 BR SCT002 BKN021 10/10 Q1002
                        R36/29//95 NOSIG=
201912131500 METAR LRCK 131500Z 09008KT 5000 BR SCT003 BKN008 10/10 Q1002
                        R36/29//95 NOSIG=
201912131530 METAR LRCK 131530Z 09008KT 8000 SCT003 BKN006 10/10 Q1002
                        R36/29//95 NOSIG=
201912131600 METAR LRCK 131600Z 07007KT 6000 SCT003 BKN006 09/09 Q1002
                        R36/29//95 NOSIG=
201912131630 METAR LRCK 131630Z 07006KT 5000 BR SCT003 BKN007 09/09 Q1002
                        R36/29//95 BECMG 3000 BR=
201912131700 METAR LRCK 131700Z 07006KT 4000 BR SCT003 BKN006 09/09 Q1002
                        R36/29//95 BECMG 3000 BR=
201912131730 METAR LRCK 131730Z 07008KT 3500 BR SCT002 BKN006 10/10 Q1002
                        R36/29//95 BECMG 3000 BR=
201912131800 METAR LRCK 131800Z 07008KT 3000 BCFG BR SCT002 BKN006 09/09
                        Q1001 R36/29//95 TEMPO 1500 BR=
201912131830 METAR LRCK 131830Z 07007KT 1500 BR SCT002 BKN005 09/09 Q1002
                        R36/29//95 NOSIG=
201912131900 METAR LRCK 131900Z 07009KT 0800 R18/0800D R36/1100U FG SCT002
                        BKN005 09/09 Q1001 R36/29//95 TEMPO
                        0600 FG BKN002=
201912131930 METAR LRCK 131930Z 08007KT 0800 R18/0800N R36/0900U FG SCT003
                        BKN009 09/09 Q1001 R36/29//95 TEMPO
                        0600 FG BKN002=
201912132000 METAR LRCK 132000Z 09006KT 0800 R18/0600N R36/0800D FG SCT002
                        BKN007 08/08 Q1001 R36/29//95 TEMPO
                        0600 FG BKN002=
201912132030 METAR LRCK 132030Z 12004KT 0800 R18/0800N R36/1500D FG FEW002
                        BKN006 09/09 Q1001 R36/29//95 NOSIG=
201912132100 METAR LRCK 132100Z 10005KT 1200 R18/P2000 R36/1700U BR SCT006
                        BKN016 09/09 Q1001 R36/29//95 NOSIG=
201912132130 METAR LRCK 132130Z 10005KT 1200 R18/1400U R36/P2000 BR FEW002
                        SCT007 BKN017 09/09 Q1001 R36/29//95
                        NOSIG=
201912132200 METAR LRCK 132200Z 10005KT 1000 R18/P2000 R36/1600N BR SCT008
                        BKN018 09/09 Q1001 R36/29//95 NOSIG=
201912132230 METAR LRCK 132230Z 10005KT 0600 R18/0800N R36/0750D FG BKN002
                        09/09 Q1001 R36/29//95 NOSIG=
201912132300 METAR LRCK 132300Z 10004KT 0350 R18/0500N R36/0500N FG SCT002
                        BKN005 08/08 Q1001 R36/29//95 NOSIG=
201912132330 METAR LRCK 132330Z 09005KT 0600 R18/1700U R36/1000D FG SCT006
                        BKN024 08/08 Q1001 R36/29//95 TEMPO
                        1500 BR=
201912140000 METAR LRCK 140000Z 10006KT 0600 R18/1200D R36/1000D FG SCT008
                        BKN017 09/09 Q1000 R36/29//95 NOSIG=
201912140030 METAR LRCK 140030Z 10005KT 0600 R18/0900U R36/1200U FG BKN004
                        09/09 Q1001 R36/29//95 NOSIG=
201912140100 METAR LRCK 140100Z 14005KT 1500 BR SCT004 10/10 Q1000 R36/29//95
                        NOSIG=
201912140130 METAR LRCK 140130Z 13006KT 5000 BR FEW004 SCT046 08/08 Q1000
                        R36/29//95 NOSIG=
201912140200 METAR LRCK 140200Z 13007KT 6000 MIFG FEW009 SCT043 07/07
                        Q1000 R36/29//95 NOSIG=
201912140230 METAR LRCK 140230Z 13006KT 7000 MIFG FEW010 SCT039 06/06
                        Q1000 R36/29//95 NOSIG=
201912140300 METAR LRCK 140300Z 13005KT 6000 MIFG SCT009 BKN032 07/07
                        Q1000 R36/29//95 NOSIG=
201912140330 METAR LRCK 140330Z 11006KT 7000 MIFG BKN010 07/07 Q1000 R36/29//95
                        NOSIG=
201912140400 METAR LRCK 140400Z 08004KT 8000 MIFG BKN012 07/07 Q1000 R36/29//95
                        NOSIG=
201912140430 METAR LRCK 140430Z 08005KT 7000 MIFG SCT009 07/07 Q1000 R36/19//95
                        NOSIG=
201912140500 METAR LRCK 140500Z 09006KT 5000 MIFG BR FEW007 07/07 Q1000
                        R36/19//95 NOSIG=
201912140530 METAR LRCK 140530Z 08004KT 4000 MIFG BR BKN004 07/07 Q1001
                        R36/19//95 NOSIG=
201912140600 METAR LRCK 140600Z 11006KT 0100 R18/0400D R36/0275N FG BKN002
                        07/07 Q1000 R36/19//95 NOSIG=
201912140630 METAR LRCK 140630Z 12005KT 0100 R18/0250N R36/0250N FG BKN001
                        06/06 Q1001 R36/19//95 NOSIG=
201912140700 METAR LRCK 140700Z 13005KT 0200 R18/0900D R36/0375N FG BKN002
                        08/08 Q1001 R36/19//95 BECMG 600
                        BKN005=
201912140730 METAR LRCK 140730Z 16005KT 1500 BR SCT010 10/10 Q1001 R36/19//95
                        BECMG 3000 BR=
201912140800 METAR LRCK 140800Z 14009KT 3000 BR BKN010 11/11 Q1002 R18/19//95
                        BECMG 5000=
201912140830 METAR LRCK 140830Z 15010KT 5000 BR SCT010 12/11 Q1002 R18/19//95
                        NOSIG=
201912140900 METAR LRCK 140900Z 15010KT 8000 SCT008 13/11 Q1001 R18/19//95
                        NOSIG=
201912140930 METAR LRCK 140930Z 16013KT 9999 FEW011 14/11 Q1001 R18/19//95
                        NOSIG=
201912141000 METAR LRCK 141000Z 16012KT 9999 SCT013 13/11 Q1001 R18/19//95
                        NOSIG=
201912141030 METAR LRCK 141030Z 17012KT 9999 SCT013 14/11 Q1001 R18/19//95
                        NOSIG=
201912141100 METAR LRCK 141100Z 17011KT 9999 SCT014 15/12 Q1001 R18/CLRD//
                        NOSIG=
201912141130 METAR LRCK 141130Z 18012KT 9999 FEW013 SCT038 14/10 Q1001
                        NOSIG=
201912141200 METAR LRCK 141200Z 18012KT 9999 SCT038 15/10 Q1001 NOSIG=
201912141230 METAR LRCK 141230Z 16010KT 9999 FEW030 14/11 Q1002 NOSIG=
201912141300 METAR LRCK 141300Z 17008KT 9999 FEW025 13/11 Q1002 NOSIG=
201912141330 METAR LRCK 141330Z 15007KT 9999 FEW030 13/11 Q1002 NOSIG=
201912141400 METAR LRCK 141400Z 16007KT CAVOK 11/11 Q1003 NOSIG=
201912141430 METAR LRCK 141430Z 16008KT CAVOK 11/10 Q1003 NOSIG=
201912141500 METAR LRCK 141500Z 17008KT 8000 NSC 09/09 Q1003 NOSIG=
201912141530 METAR LRCK 141530Z 17009KT 8000 NSC 09/09 Q1004 TEMPO 5000
                        BR=
201912141600 METAR LRCK 141600Z 18009KT 8000 NSC 08/08 Q1004 TEMPO 5000
                        BR=
201912141630 METAR LRCK 141630Z 17010KT 8000 NSC 08/08 Q1004 NOSIG=
201912141700 METAR LRCK 141700Z 17009KT 8000 NSC 08/08 Q1004 NOSIG=
201912141730 METAR LRCK 141730Z 18008KT 5000 MIFG BR NSC 08/08 Q1004 TEMPO
                        3000 BR=
201912141800 METAR LRCK 141800Z 19008KT 5000 MIFG BR NSC 08/08 Q1005 TEMPO
                        3000 BR=
201912141830 METAR LRCK 141830Z 22005KT 5000 BR NSC 09/09 Q1005 TEMPO
                        3000 BR=
201912141900 METAR LRCK 141900Z 21006KT 7000 NSC 09/09 Q1005 NOSIG=
201912141930 METAR LRCK 141930Z 21009KT 7000 NSC 09/09 Q1005 NOSIG=
201912142000 METAR LRCK 142000Z 21009KT 6000 NSC 09/09 Q1005 BECMG 27014KT
                        5000 -RA BR=
201912142030 METAR LRCK 142030Z 21007KT 7000 NSC 10/09 Q1006 BECMG 27014KT
                        5000 -RA BR=
201912142100 METAR LRCK 142100Z 21010KT 8000 NSC 11/09 Q1006 BECMG 27014KT
                        5000 -RA BR=
201912142130 METAR LRCK 142130Z 23012KT 8000 SCT046 10/09 Q1006 BECMG
                        27014KT 5000 -RA BR=
201912142200 METAR LRCK 142200Z 26009KT 9999 SCT046 10/09 Q1007 NOSIG=
201912142230 METAR LRCK 142230Z 26014KT 8000 SCT043 10/09 Q1007 NOSIG=
201912142300 METAR LRCK 142300Z 26016KT 3000 BR BKN004 10/09 Q1007 TEMPO
                        1500 -RA BR=
201912142330 METAR LRCK 142330Z 27015KT 3000 -RA BR BKN003 09/09 Q1008
                        TEMPO 1500 -RA BR=
201912150000 METAR LRCK 150000Z 27013KT 3000 -RA BR SCT004 09/09 Q1008
                        TEMPO 1500 RA BR=
201912150030 METAR LRCK 150030Z 28018KT 3000 -RA BR SCT004 08/08 Q1009
                        R18/29//95 TEMPO 1500 RA BR=
201912150100 METAR LRCK 150100Z 26015KT 3000 -RA BR FEW004 08/08 Q1009
                        R18/29//95 TEMPO 1500 RA BR=
201912150130 METAR LRCK 150130Z 26014KT 3000 -RA BR BKN004 08/08 Q1009
                        R18/29//95 NOSIG=
201912150200 METAR LRCK 150200Z 26012KT 3000 BR SCT004 08/08 Q1010 R18/29//95
                        BECMG 5000=
201912150230 METAR LRCK 150230Z 26012KT 4000 BR SCT004 08/08 Q1010 R18/29//95
                        BECMG 5000=
201912150300 METAR LRCK 150300Z 26009KT 3500 BR BKN007 07/07 Q1010 R18/29//95
                        NOSIG=
201912150330 METAR LRCK 150330Z 27012KT 3500 BR BKN006 07/07 Q1011 R18/29//95
                        NOSIG=
201912150400 METAR LRCK 150400Z 26016KT 3500 BR BKN006 08/07 Q1012 R18/29//95
                        NOSIG=
201912150430 METAR LRCK 150430Z 27019KT 3000 BR BKN003 07/07 Q1012 R18/29//95
                        NOSIG=
201912150500 METAR LRCK 150500Z 27017KT 3000 BR BKN004 07/07 Q1013 R18/29//95
                        NOSIG=
201912150530 METAR LRCK 150530Z 27016KT 3000 BR BKN004 07/07 Q1013 R18/29//95
                        BECMG BKN010=
201912150600 METAR LRCK 150600Z 28013KT 3000 BR BKN007 07/07 Q1014 R18/29//95
                        BECMG 5000 BKN010=
201912150630 METAR LRCK 150630Z 28014KT 4000 BR BKN008 07/07 Q1014 R18/29//95
                        BECMG 5000 SCT010=
201912150700 METAR LRCK 150700Z 26009KT 5000 BR BKN008 07/07 Q1015 R36/29//95
                        BECMG SCT010=
201912150730 METAR LRCK 150730Z 28007KT 250V310 5000 BR BKN006 07/06 Q1015
                        R36/29//95 BECMG SCT010=
201912150800 METAR LRCK 150800Z 27010KT 5000 BR BKN007 07/07 Q1016 R36/29//95
                        BECMG CAVOK=
201912150830 METAR LRCK 150830Z 27010KT 7000 FEW006 08/07 Q1016 R36/29//95
                        NOSIG=
201912150900 METAR LRCK 150900Z 26009KT 8000 FEW009 09/07 Q1016 R36/CLRD//
                        NOSIG=
201912150930 METAR LRCK 150930Z 26009KT 8000 NSC 09/07 Q1016 NOSIG=
201912151000 METAR LRCK 151000Z 27010KT CAVOK 10/06 Q1016 NOSIG=
201912151030 METAR LRCK 151030Z 28011KT CAVOK 11/06 Q1017 NOSIG=
201912151100 METAR LRCK 151100Z 29012KT CAVOK 11/06 Q1017 NOSIG=
201912151130 METAR LRCK 151130Z 28012KT CAVOK 11/06 Q1017 NOSIG=
201912151200 METAR LRCK 151200Z 29011KT CAVOK 12/06 Q1018 NOSIG=
201912151230 METAR LRCK 151230Z 27011KT CAVOK 11/06 Q1018 NOSIG=
201912151300 METAR LRCK 151300Z 26011KT CAVOK 10/07 Q1018 NOSIG=
201912151330 METAR LRCK 151330Z 26008KT CAVOK 09/06 Q1019 NOSIG=
201912151400 METAR LRCK 151400Z 27008KT CAVOK 09/05 Q1019 NOSIG=
201912151430 METAR LRCK 151430Z 26009KT CAVOK 08/04 Q1019 NOSIG=
201912151500 METAR LRCK 151500Z 26007KT CAVOK 07/04 Q1020 NOSIG=
201912151530 METAR LRCK 151530Z 27005KT CAVOK 05/03 Q1020 NOSIG=
201912151600 METAR LRCK 151600Z 25006KT CAVOK 05/03 Q1021 NOSIG=
201912151630 METAR LRCK 151630Z 24006KT CAVOK 06/04 Q1020 NOSIG=
201912151700 METAR LRCK 151700Z 23007KT CAVOK 04/03 Q1021 NOSIG=
201912151730 METAR LRCK 151730Z 22009KT CAVOK 05/03 Q1021 NOSIG=
201912151800 METAR LRCK 151800Z 22009KT CAVOK 05/03 Q1021 NOSIG=
201912151830 METAR LRCK 151830Z 22008KT CAVOK 04/03 Q1021 NOSIG=
201912151900 METAR LRCK 151900Z 23008KT CAVOK 05/03 Q1022 NOSIG=
201912151930 METAR LRCK 151930Z 22007KT CAVOK 04/02 Q1022 NOSIG=
201912152000 METAR LRCK 152000Z 21006KT CAVOK 03/02 Q1022 NOSIG=
201912152030 METAR LRCK 152030Z 22005KT CAVOK 02/02 Q1022 NOSIG=
201912152100 METAR LRCK 152100Z 24008KT CAVOK 03/02 Q1022 NOSIG=
201912152130 METAR LRCK 152130Z 22011KT CAVOK 03/02 Q1022 NOSIG=
201912152200 METAR LRCK 152200Z 22010KT CAVOK 03/02 Q1022 NOSIG=
201912152230 METAR LRCK 152230Z 22007KT CAVOK 02/01 Q1022 NOSIG=
201912152300 METAR LRCK 152300Z 20008KT CAVOK 01/00 Q1022 NOSIG=
201912152330 METAR LRCK 152330Z 20008KT CAVOK 02/00 Q1022 NOSIG=
201912160000 METAR LRCK 160000Z 20009KT CAVOK 03/00 Q1022 NOSIG=
201912160030 METAR LRCK 160030Z 19008KT CAVOK 03/01 Q1022 NOSIG=
201912160100 METAR LRCK 160100Z 19009KT CAVOK 04/02 Q1022 NOSIG=
201912160130 METAR LRCK 160130Z 19010KT CAVOK 05/04 Q1022 NOSIG=
201912160200 METAR LRCK 160200Z 18011KT CAVOK 05/04 Q1022 NOSIG=
201912160230 METAR LRCK 160230Z 18006KT CAVOK 04/04 Q1022 NOSIG=
201912160300 METAR LRCK 160300Z 23004KT 200V260 CAVOK 03/03 Q1022 NOSIG=
201912160330 METAR LRCK 160330Z 22008KT CAVOK 03/03 Q1022 NOSIG=
201912160400 METAR LRCK 160400Z 19005KT CAVOK 03/03 Q1022 NOSIG=
201912160430 METAR LRCK 160430Z 20005KT CAVOK 03/03 Q1022 NOSIG=
201912160500 METAR LRCK 160500Z 22008KT CAVOK 02/02 Q1022 NOSIG=
201912160530 METAR LRCK 160530Z 22007KT CAVOK 02/02 Q1022 NOSIG=
201912160600 METAR LRCK 160600Z 21008KT CAVOK 03/03 Q1022 NOSIG=
201912160630 METAR LRCK 160630Z 21006KT CAVOK 04/04 Q1022 NOSIG=
201912160700 METAR LRCK 160700Z 23006KT CAVOK 04/04 Q1023 NOSIG=
201912160730 METAR LRCK 160730Z 24006KT CAVOK 06/05 Q1023 NOSIG=
201912160800 METAR LRCK 160800Z 24007KT CAVOK 07/04 Q1023 NOSIG=
201912160830 METAR LRCK 160830Z 23008KT CAVOK 08/05 Q1023 NOSIG=
201912160900 METAR LRCK 160900Z 24008KT CAVOK 09/05 Q1023 NOSIG=
201912160930 METAR LRCK 160930Z 24008KT CAVOK 10/04 Q1023 NOSIG=
201912161000 METAR LRCK 161000Z 24009KT CAVOK 11/05 Q1023 NOSIG=
201912161030 METAR LRCK 161030Z 25008KT CAVOK 11/05 Q1023 NOSIG=
201912161100 METAR LRCK 161100Z 26011KT CAVOK 12/05 Q1022 NOSIG=
201912161130 METAR LRCK 161130Z 26010KT CAVOK 12/06 Q1022 NOSIG=
201912161200 METAR LRCK 161200Z 25012KT CAVOK 13/06 Q1022 NOSIG=
201912161230 METAR LRCK 161230Z 25012KT CAVOK 13/05 Q1022 NOSIG=
201912161300 METAR LRCK 161300Z 26012KT CAVOK 13/05 Q1022 NOSIG=
201912161330 METAR LRCK 161330Z 27011KT CAVOK 12/05 Q1022 NOSIG=
201912161400 METAR LRCK 161400Z 27011KT CAVOK 12/04 Q1022 NOSIG=
201912161430 METAR LRCK 161430Z 27006KT CAVOK 10/04 Q1022 NOSIG=
201912161500 METAR LRCK 161500Z 02003KT 270V070 CAVOK 08/04 Q1022 NOSIG=
201912161530 METAR LRCK 161530Z 29006KT CAVOK 09/03 Q1022 NOSIG=
201912161600 METAR LRCK 161600Z VRB02KT CAVOK 07/03 Q1022 NOSIG=
201912161630 METAR LRCK 161630Z 28003KT CAVOK 06/03 Q1023 NOSIG=
201912161700 METAR LRCK 161700Z 27005KT CAVOK 07/04 Q1023 NOSIG=
201912161730 METAR LRCK 161730Z 25007KT CAVOK 06/03 Q1022 NOSIG=
201912161800 METAR LRCK 161800Z 30003KT 240V030 CAVOK 06/03 Q1023 NOSIG=
201912161830 METAR LRCK 161830Z 32004KT 250V040 CAVOK 06/03 Q1023 NOSIG=
201912161900 METAR LRCK 161900Z 29003KT CAVOK 04/02 Q1023 NOSIG=
201912161930 METAR LRCK 161930Z 31003KT CAVOK 05/03 Q1023 NOSIG=
201912162000 METAR LRCK 162000Z 28004KT CAVOK 03/02 Q1022 NOSIG=
201912162030 METAR LRCK 162030Z 28005KT CAVOK 03/02 Q1022 NOSIG=
201912162100 METAR LRCK 162100Z 26007KT CAVOK 03/01 Q1022 NOSIG=
201912162130 METAR LRCK 162130Z 27006KT CAVOK 03/02 Q1022 NOSIG=
201912162200 METAR LRCK 162200Z 25006KT CAVOK 03/01 Q1022 NOSIG=
201912162230 METAR LRCK 162230Z 26008KT CAVOK 03/02 Q1022 NOSIG=
201912162300 METAR LRCK 162300Z 27008KT CAVOK 03/01 Q1022 NOSIG=
201912162330 METAR LRCK 162330Z 27005KT CAVOK 05/02 Q1022 NOSIG=
201912170000 METAR LRCK 170000Z 27004KT CAVOK 03/02 Q1022 NOSIG=
201912170030 METAR LRCK 170030Z 26004KT CAVOK 01/00 Q1022 NOSIG=
201912170100 METAR LRCK 170100Z 25007KT CAVOK 03/01 Q1022 NOSIG=
201912170130 METAR LRCK 170130Z 25007KT CAVOK 05/02 Q1021 NOSIG=
201912170200 METAR COR LRCK 170200Z 28008KT CAVOK 02/01 Q1022 NOSIG=
201912170230 METAR LRCK 170230Z 28008KT CAVOK 02/01 Q1022 NOSIG=
201912170300 METAR LRCK 170300Z 28008KT CAVOK 02/01 Q1021 NOSIG=
201912170330 METAR LRCK 170330Z 28008KT CAVOK 02/00 Q1021 NOSIG=
201912170400 METAR LRCK 170400Z 28008KT CAVOK 02/M00 Q1021 NOSIG=
201912170430 METAR LRCK 170430Z 29006KT CAVOK 00/M02 Q1021 NOSIG=
201912170500 METAR LRCK 170500Z 29007KT CAVOK 01/M00 Q1022 NOSIG=
201912170530 METAR LRCK 170530Z 26007KT CAVOK M00/M01 Q1022 NOSIG=
201912170600 METAR LRCK 170600Z 26007KT CAVOK 02/M00 Q1022 NOSIG=
201912170630 METAR LRCK 170630Z 27007KT CAVOK 04/01 Q1022 NOSIG=
201912170700 METAR LRCK 170700Z 27006KT CAVOK 04/02 Q1022 NOSIG=
201912170730 METAR LRCK 170730Z 26006KT CAVOK 06/03 Q1022 NOSIG=
201912170800 METAR LRCK 170800Z 27005KT CAVOK 09/03 Q1022 NOSIG=
201912170830 METAR LRCK 170830Z 27005KT CAVOK 10/03 Q1022 NOSIG=
201912170900 METAR LRCK 170900Z 29006KT CAVOK 11/04 Q1022 NOSIG=
201912170930 METAR LRCK 170930Z 30005KT CAVOK 11/04 Q1022 NOSIG=
201912171000 METAR LRCK 171000Z 27005KT CAVOK 12/04 Q1022 NOSIG=
201912171030 METAR LRCK 171030Z 27005KT CAVOK 13/04 Q1022 NOSIG=
201912171100 METAR LRCK 171100Z 26008KT CAVOK 13/03 Q1021 NOSIG=
201912171130 METAR LRCK 171130Z 25008KT CAVOK 14/04 Q1021 NOSIG=
201912171200 METAR LRCK 171200Z 25007KT CAVOK 14/05 Q1021 NOSIG=
201912171230 METAR LRCK 171230Z 26009KT CAVOK 14/04 Q1021 NOSIG=
201912171300 METAR LRCK 171300Z 24008KT CAVOK 13/06 Q1022 NOSIG=
201912171330 METAR LRCK 171330Z 25005KT CAVOK 12/05 Q1022 NOSIG=
201912171400 METAR LRCK 171400Z 24006KT CAVOK 11/06 Q1022 NOSIG=
201912171430 METAR LRCK 171430Z 25006KT 180V270 CAVOK 09/05 Q1022 NOSIG=
201912171500 METAR LRCK 171500Z 24005KT CAVOK 08/04 Q1022 NOSIG=
201912171530 METAR LRCK 171530Z 23006KT CAVOK 08/04 Q1022 NOSIG=
201912171600 METAR LRCK 171600Z 22008KT CAVOK 07/04 Q1022 NOSIG=
201912171630 METAR LRCK 171630Z 22009KT CAVOK 06/04 Q1022 NOSIG=
201912171700 METAR LRCK 171700Z 26004KT CAVOK 07/04 Q1022 NOSIG=
201912171730 METAR LRCK 171730Z 24006KT CAVOK 06/04 Q1022 NOSIG=
201912171800 METAR LRCK 171800Z 23007KT CAVOK 06/04 Q1022 NOSIG=
201912171830 METAR LRCK 171830Z 24007KT CAVOK 05/04 Q1022 NOSIG=
201912171900 METAR LRCK 171900Z 25008KT CAVOK 06/04 Q1022 NOSIG=
201912171930 METAR LRCK 171930Z 25007KT CAVOK 06/04 Q1022 NOSIG=
201912172000 METAR LRCK 172000Z 25007KT CAVOK 06/04 Q1022 NOSIG=
201912172030 METAR LRCK 172030Z 24007KT CAVOK 05/03 Q1022 NOSIG=
201912172100 METAR LRCK 172100Z 25007KT CAVOK 06/03 Q1022 NOSIG=
201912172130 METAR LRCK 172130Z 25008KT CAVOK 05/03 Q1022 NOSIG=
201912172200 METAR LRCK 172200Z 26006KT CAVOK 04/03 Q1022 NOSIG=
201912172230 METAR LRCK 172230Z 25007KT CAVOK 05/03 Q1022 NOSIG=
201912172300 METAR LRCK 172300Z 26005KT CAVOK 04/03 Q1021 NOSIG=
201912172330 METAR LRCK 172330Z 26005KT CAVOK 05/03 Q1021 NOSIG=
201912180000 METAR LRCK 180000Z 26004KT CAVOK 04/03 Q1021 NOSIG=
201912180030 METAR LRCK 180030Z 24003KT CAVOK 04/03 Q1022 NOSIG=
201912180100 METAR LRCK 180100Z 25005KT CAVOK 04/02 Q1021 NOSIG=
201912180130 METAR LRCK 180130Z 25005KT CAVOK 03/02 Q1021 NOSIG=
201912180200 METAR LRCK 180200Z 26006KT CAVOK 03/02 Q1021 NOSIG=
201912180230 METAR LRCK 180230Z 25007KT CAVOK 03/01 Q1021 NOSIG=
201912180300 METAR LRCK 180300Z 26007KT CAVOK 04/01 Q1021 NOSIG=
201912180330 METAR LRCK 180330Z 25007KT CAVOK 03/01 Q1021 NOSIG=
201912180400 METAR LRCK 180400Z 26008KT CAVOK 04/01 Q1021 NOSIG=
201912180430 METAR LRCK 180430Z 25008KT CAVOK 03/01 Q1022 NOSIG=
201912180500 METAR LRCK 180500Z 26009KT CAVOK 03/01 Q1022 NOSIG=
201912180530 METAR LRCK 180530Z 26010KT CAVOK 03/00 Q1022 NOSIG=
201912180600 METAR LRCK 180600Z 26009KT CAVOK 05/02 Q1022 NOSIG=
201912180630 METAR LRCK 180630Z 26010KT CAVOK 06/02 Q1022 NOSIG=
201912180700 METAR LRCK 180700Z 26011KT CAVOK 08/03 Q1022 NOSIG=
201912180730 METAR LRCK 180730Z 26012KT CAVOK 09/03 Q1022 NOSIG=
201912180800 METAR LRCK 180800Z 26012KT CAVOK 10/03 Q1023 NOSIG=
201912180830 METAR LRCK 180830Z 27013KT CAVOK 11/04 Q1023 NOSIG=
201912180900 METAR LRCK 180900Z 26016KT CAVOK 12/04 Q1022 NOSIG=
201912180930 METAR LRCK 180930Z 27013KT CAVOK 13/05 Q1022 NOSIG=
201912181000 METAR LRCK 181000Z 26015KT CAVOK 14/05 Q1022 NOSIG=
201912181030 METAR LRCK 181030Z 27014KT CAVOK 14/05 Q1022 NOSIG=
201912181100 METAR LRCK 181100Z 27011KT CAVOK 15/06 Q1022 NOSIG=
201912181130 METAR LRCK 181130Z 26012KT CAVOK 15/06 Q1022 NOSIG=
201912181200 METAR LRCK 181200Z 25011KT CAVOK 16/06 Q1022 NOSIG=
201912181230 METAR LRCK 181230Z 25008KT CAVOK 16/06 Q1022 NOSIG=
201912181300 METAR LRCK 181300Z 25008KT CAVOK 16/07 Q1022 NOSIG=
201912181330 METAR LRCK 181330Z 25009KT CAVOK 15/08 Q1022 NOSIG=
201912181400 METAR LRCK 181400Z 24011KT CAVOK 14/07 Q1022 NOSIG=
201912181430 METAR LRCK 181430Z 24011KT CAVOK 12/06 Q1022 NOSIG=
201912181500 METAR LRCK 181500Z 24011KT CAVOK 10/06 Q1023 NOSIG=
201912181530 METAR LRCK 181530Z 23011KT CAVOK 09/05 Q1022 NOSIG=
201912181600 METAR LRCK 181600Z 23013KT CAVOK 10/04 Q1022 NOSIG=
201912181630 METAR LRCK 181630Z 23012KT CAVOK 09/04 Q1023 NOSIG=
201912181700 METAR LRCK 181700Z 23012KT CAVOK 08/04 Q1023 NOSIG=
201912181730 METAR LRCK 181730Z 23013KT CAVOK 07/04 Q1023=
201912181800 METAR LRCK 181800Z 25010KT CAVOK 08/04 Q1023 NOSIG=
201912181830 METAR LRCK 181830Z 25008KT CAVOK 09/04 Q1023 NOSIG=
201912181900 METAR LRCK 181900Z 27009KT CAVOK 09/03 Q1023 NOSIG=
201912181930 METAR LRCK 181930Z 27010KT CAVOK 09/03 Q1023 NOSIG=
201912182000 METAR LRCK 182000Z 27009KT CAVOK 08/03 Q1023 NOSIG=
201912182030 METAR LRCK 182030Z 28011KT CAVOK 08/03 Q1023 NOSIG=
201912182100 METAR LRCK 182100Z 29012KT CAVOK 08/03 Q1024 NOSIG=
201912182130 METAR LRCK 182130Z 29012KT CAVOK 08/04 Q1024 NOSIG=
201912182200 METAR LRCK 182200Z 29011KT CAVOK 08/04 Q1024 NOSIG=
201912182230 METAR LRCK 182230Z 29012KT CAVOK 08/04 Q1024 NOSIG=
201912182300 METAR LRCK 182300Z 28012KT CAVOK 07/03 Q1024 NOSIG=
201912182330 METAR LRCK 182330Z 28013KT CAVOK 08/03 Q1024 NOSIG=
201912190000 METAR LRCK 190000Z 28014KT CAVOK 08/03 Q1024 NOSIG=
201912190030 METAR LRCK 190030Z 28013KT CAVOK 08/03 Q1025 NOSIG=
201912190100 METAR LRCK 190100Z 29010KT CAVOK 07/04 Q1025 NOSIG=
201912190130 METAR LRCK 190130Z 29010KT CAVOK 07/04 Q1025 NOSIG=
201912190200 METAR LRCK 190200Z 29010KT CAVOK 06/04 Q1025 NOSIG=
201912190230 METAR LRCK 190230Z 29012KT CAVOK 06/04 Q1025 NOSIG=
201912190300 METAR LRCK 190300Z 27011KT 7000 NSC 05/03 Q1025 NOSIG=
201912190330 METAR LRCK 190330Z 29011KT 6000 NSC 05/03 Q1025 NOSIG=
201912190400 METAR LRCK 190400Z 29013KT 5000 BR NSC 05/03 Q1025 NOSIG=
201912190430 METAR LRCK 190430Z 29013KT 5000 BR NSC 04/03 Q1026 NOSIG=
201912190500 METAR LRCK 190500Z 29014KT 5000 BR NSC 04/03 Q1026 NOSIG=
201912190530 METAR LRCK 190530Z 29011KT 4000 BR NSC 04/03 Q1026 TEMPO
                        3000 BR=
201912190600 METAR LRCK 190600Z 29010KT 4000 BR NSC 03/02 Q1026 BECMG
                        6000 NSW=
201912190630 METAR LRCK 190630Z 28010KT 4000 BR NSC 04/03 Q1027 BECMG
                        6000 NSW=
201912190700 METAR LRCK 190700Z 29009KT 5000 BR NSC 04/03 Q1027 BECMG
                        6000 NSW=
201912190730 METAR LRCK 190730Z 29007KT 5000 BR NSC 06/04 Q1027 BECMG
                        7000 NSW=
201912190800 METAR LRCK 190800Z 28007KT 5000 BR NSC 07/04 Q1027 BECMG
                        7000 NSW=
201912190830 METAR LRCK 190830Z 29006KT 6000 NSC 08/05 Q1028 NOSIG=
201912190900 METAR LRCK 190900Z 29006KT 6000 NSC 10/06 Q1027 NOSIG=
201912190930 METAR LRCK 190930Z 29007KT 7000 NSC 10/07 Q1027 NOSIG=
201912191000 METAR LRCK 191000Z 30006KT 7000 NSC 11/06 Q1027 NOSIG=
201912191030 METAR LRCK 191030Z 29006KT 7000 NSC 11/07 Q1027 NOSIG=
201912191100 METAR LRCK 191100Z 29006KT 7000 NSC 12/07 Q1027 NOSIG=
201912191130 METAR LRCK 191130Z 30004KT 8000 NSC 12/07 Q1026 NOSIG=
201912191200 METAR LRCK 191200Z 32003KT 7000 NSC 13/08 Q1027 NOSIG=
201912191230 METAR LRCK 191230Z VRB02KT 8000 NSC 13/09 Q1026 NOSIG=
201912191300 METAR LRCK 191300Z 08003KT 8000 NSC 12/09 Q1026 NOSIG=
201912191330 METAR LRCK 191330Z 08004KT 8000 NSC 12/08 Q1026 NOSIG=
201912191400 METAR LRCK 191400Z 09003KT 8000 NSC 09/07 Q1026 NOSIG=
201912191430 METAR LRCK 191430Z 13004KT 8000 NSC 08/06 Q1026 TEMPO 5000
                        BR=
201912191500 METAR COR LRCK 191500Z 12002KT 5000 BR NSC 07/06 Q1026 TEMPO
                        3000 BR=
201912191530 METAR LRCK 191530Z 10002KT 5000 BR NSC 07/06 Q1027 TEMPO
                        3000 BR=
201912191600 METAR LRCK 191600Z 07003KT 5000 BR NSC 07/06 Q1027 TEMPO
                        3000 BR=
201912191630 METAR LRCK 191630Z 05004KT 4000 BR NSC 06/05 Q1026 TEMPO
                        3000 BR=
201912191700 METAR LRCK 191700Z 04006KT 3000 BR NSC 05/05 Q1026 TEMPO
                        1500 BR=
201912191730 METAR LRCK 191730Z 05006KT 3000 BR NSC 05/04 Q1026 TEMPO
                        1500 BR=
201912191800 METAR LRCK 191800Z 04006KT 2000 BR NSC 04/04 Q1026 BECMG
                        1500 BR BKN005=
201912191830 METAR LRCK 191830Z 05006KT 1800 BR NSC 04/04 Q1026 BECMG
                        0800 FG BKN002=
201912191900 METAR LRCK 191900Z 06006KT 0200 R18/P2000 R36/0375N FG FEW006
                        05/05 Q1026 TEMPO 0150 FG VV001=
201912191930 METAR LRCK 191930Z 05006KT 0100 R18/0375D R36/0225N FG OVC001
                        05/05 Q1026 NOSIG=
201912192000 METAR LRCK 192000Z 04005KT 0200 R18/0300N R36/0325N FG VV001
                        06/06 Q1026 NOSIG=
201912192030 METAR LRCK 192030Z 05004KT 0100 R18/0325N R36/0325N FG VV001
                        06/06 Q1026 NOSIG=
201912192100 METAR LRCK 192100Z 04006KT 0100 R18/0300N R36/0375N FG VV001
                        07/07 Q1025 NOSIG=
201912192130 METAR LRCK 192130Z 04004KT 0100 R18/0275N R36/0375N FG VV001
                        07/07 Q1025 NOSIG=
201912192200 METAR LRCK 192200Z 04005KT 0100 R18/0275N R36/0350N FG VV001
                        07/07 Q1025 NOSIG=
201912192230 METAR LRCK 192230Z 04006KT 0100 R18/0250N R36/0450N FG VV002
                        07/07 Q1025 NOSIG=
201912192300 METAR LRCK 192300Z 06005KT 0100 R18/0225N R36/0375N FG VV002
                        07/07 Q1024 NOSIG=
201912192330 METAR LRCK 192330Z 04006KT 0100 R18/0275N R36/0375N FG VV002
                        07/07 Q1024 NOSIG=
201912200000 METAR LRCK 200000Z 06006KT 0100 R18/0325N R36/0500N FG VV005
                        07/07 Q1024 NOSIG=
201912200030 METAR LRCK 200030Z 07005KT 0300 R18/0500N R36/0450N FG OVC006
                        08/08 Q1024 NOSIG=
201912200100 METAR LRCK 200100Z 06006KT 0200 R18/1500U R36/0900U FG OVC006
                        07/07 Q1023 NOSIG=
201912200130 METAR LRCK 200130Z 06006KT 0150 R18/0400N R36/0500D FG OVC007
                        07/07 Q1023 NOSIG=
201912200200 METAR LRCK 200200Z 08007KT 0600 R18/1100D R36/0800U FG OVC005
                        08/08 Q1023 NOSIG=
201912200230 METAR LRCK 200230Z 08006KT 0800 R18/0800U R36/1500U FG OVC006
                        08/08 Q1023 NOSIG=
201912200300 METAR LRCK 200300Z 09006KT 1500 BR OVC006 08/08 Q1022 NOSIG=
201912200330 METAR LRCK 200330Z 10006KT 1800 BR OVC007 08/08 Q1022 NOSIG=
201912200400 METAR LRCK 200400Z 10007KT 2500 BR OVC007 08/08 Q1022 BECMG
                        3000 BR BKN010=
201912200430 METAR LRCK 200430Z 10007KT 3000 BR OVC006 08/08 Q1022 NOSIG=
201912200500 METAR LRCK 200500Z 10007KT 3000 BR OVC005 09/09 Q1022 NOSIG=
201912200530 METAR LRCK 200530Z 15007KT 0100 R18/P2000 R36/0400N FG VV001
                        08/08 Q1022 NOSIG=
201912200600 METAR LRCK 200600Z 15005KT 0100 R18/0375N R36/0400N FG VV001
                        08/08 Q1022 NOSIG=
201912200630 METAR LRCK 200630Z 14007KT 0100 R18/0275N R36/0325N FG VV001
                        08/08 Q1021 NOSIG=
201912200700 METAR LRCK 200700Z 14007KT 0450 R18/0500U R36/0900U FG VV001
                        09/09 Q1021 BECMG 0800 OVC002=
201912200730 METAR COR LRCK 200730Z 16009KT 1500 BR OVC003 10/10 Q1021
                        BECMG 3000 BKN005=
201912200800 METAR LRCK 200800Z 16010KT 2500 BR BKN003 10/10 Q1021 BECMG
                        3000 BKN005=
201912200830 METAR LRCK 200830Z 16011KT 3000 BR BKN004 10/10 Q1021 NOSIG=
201912200900 METAR LRCK 200900Z 17011KT 5000 BR BKN005 11/11 Q1020 NOSIG=
201912200930 METAR LRCK 200930Z 17011KT 8000 FEW005 SCT011 11/11 Q1020
                        NOSIG=
201912201000 METAR LRCK 201000Z 18010KT 9999 FEW007 12/12 Q1019 NOSIG=
201912201030 METAR LRCK 201030Z 16011KT 5000 BR BKN006 12/12 Q1018 NOSIG=
201912201100 METAR LRCK 201100Z 16010KT 6000 BKN006 12/12 Q1018 NOSIG=
201912201130 METAR LRCK 201130Z 15010KT 7000 BKN007 12/11 Q1017 NOSIG=
201912201200 METAR LRCK 201200Z 17009KT 8000 BKN008 12/11 Q1017 NOSIG=
201912201230 METAR LRCK 201230Z 19010KT 9999 BKN010 12/10 Q1017 NOSIG=
201912201300 METAR LRCK 201300Z 19011KT 9999 BKN013 12/10 Q1017 BECMG
                        BKN020=
201912201330 METAR COR LRCK 201330Z 18011KT 9999 SCT015 BKN020 12/10 Q1016
                        NOSIG=
201912201400 METAR LRCK 201400Z 18009KT 9999 FEW015 SCT020 11/10 Q1016
                        NOSIG=
201912201430 METAR LRCK 201430Z 18009KT 8000 FEW020 10/09 Q1016 NOSIG=
201912201500 METAR LRCK 201500Z 18008KT 5000 BR FEW020 09/09 Q1016 NOSIG=
201912201530 METAR LRCK 201530Z 18008KT 5000 BR NSC 08/08 Q1016 NOSIG=
201912201600 METAR LRCK 201600Z 18008KT 4000 BR NSC 09/08 Q1016 BECMG
                        3000 BR=
201912201630 METAR COR LRCK 201630Z 18011KT 3000 BR NSC 07/07 Q1015 NOSIG=
201912201700 METAR LRCK 201700Z 21009KT 2500 BR NSC 08/08 Q1015 NOSIG=
201912201730 METAR LRCK 201730Z 22008KT 2500 BR NSC 08/08 Q1015 BECMG
                        1500 BR=
201912201800 METAR LRCK 201800Z 21008KT 1500 BR NSC 08/08 Q1015 NOSIG=
201912201830 METAR LRCK 201830Z 24008KT 0800 R18/0500N R36/1600D FG VV002
                        06/06 Q1015 NOSIG=
201912201900 METAR LRCK 201900Z 24007KT 0600 R18/0650N R36/0600N FG VV002
                        07/07 Q1015 BECMG 0350 FG=
201912201930 METAR LRCK 201930Z 25008KT 0400 R18/0450D R36/0500N FG VV001
                        06/06 Q1015 TEMPO 0150 FG=
201912202000 METAR LRCK 202000Z 25010KT 0300 R18/0375N R36/0450N FG VV001
                        06/06 Q1015 TEMPO 0150 FG=
201912202030 METAR LRCK 202030Z 26009KT 0300 R18/0375N R36/0450N FG VV001
                        05/05 Q1014 TEMPO 0150 FG=
201912202100 METAR LRCK 202100Z 26010KT 0350 R18/0400N R36/0550N FG VV001
                        04/04 Q1014 TEMPO 0150 FG=
201912202130 METAR LRCK 202130Z 26009KT 0350 R18/0375N R36/0550N FG VV001
                        04/04 Q1014 TEMPO 0150 FG=
201912202200 METAR LRCK 202200Z 25007KT 0350 R18/0375N R36/0550N FG VV001
                        03/03 Q1014 TEMPO 0150 FG=
201912202230 METAR LRCK 202230Z 25007KT 0300 R18/0375N R36/0400N FG VV001
                        03/03 Q1013 TEMPO 0150 FG=
201912202300 METAR LRCK 202300Z 25008KT 0300 R18/0350N R36/0400N FG VV001
                        03/03 Q1013 TEMPO 0150 FG=
201912202330 METAR LRCK 202330Z 25008KT 0350 R18/0450N R36/0400N FG VV001
                        03/03 Q1013 TEMPO 0150 FG=
201912210000 METAR LRCK 210000Z 25007KT 0350 R18/0400N R36/0400N FG VV001
                        03/03 Q1012 TEMPO 0150 FG=
201912210030 METAR LRCK 210030Z 25006KT 0400 R18/0450N R36/0450N FG VV001
                        02/02 Q1012 TEMPO 0150 FG=
201912210100 METAR LRCK 210100Z 26006KT 0550 R18/0650N R36/0800U FG OVC003
                        01/01 Q1012 TEMPO 0150 FG=
201912210130 METAR LRCK 210130Z 27006KT 0800 R18/1600U R36/1200U FG OVC003
                        01/01 Q1012 NOSIG=
201912210200 METAR LRCK 210200Z 27006KT 1500 BR FEW003 01/01 Q1012 NOSIG=
201912210230 METAR LRCK 210230Z 28004KT 1500 BR NSC 01/01 Q1012 NOSIG=
201912210300 METAR LRCK 210300Z 25005KT 3000 BR NSC 02/02 Q1011 NOSIG=
201912210330 METAR LRCK 210330Z 23004KT 1500 BR FEW003 02/02 Q1011 TEMPO
                        0600 FG BKN002=
201912210400 METAR LRCK 210400Z 20004KT 0600 R18/0600D R36/0500U FG FEW002
                        00/00 Q1011 BECMG 0350 FZFG BKN002=
201912210430 METAR LRCK 210430Z 24006KT 1500 BR NSC 02/02 Q1011 TEMPO
                        3000 BR=
201912210500 METAR LRCK 210500Z 23006KT 3000 BR NSC 03/03 Q1011=
201912210530 METAR LRCK 210530Z 24007KT 4000 BR NSC 04/04 Q1011 NOSIG=
201912210600 METAR LRCK 210600Z 22007KT 5000 BR NSC 04/04 Q1011 BECMG
                        9999 NSW=
201912210630 METAR LRCK 210630Z 24008KT 5000 BR NSC 05/05 Q1011 BECMG
                        9999 NSW=
201912210700 METAR LRCK 210700Z 25008KT 7000 NSC 06/06 Q1011 BECMG 9999
                        NSW=
201912210730 METAR LRCK 210730Z 24008KT CAVOK 07/07 Q1011 NOSIG=
201912210800 METAR LRCK 210800Z 25007KT CAVOK 08/08 Q1011 NOSIG=
201912210830 METAR LRCK 210830Z 25006KT CAVOK 09/08 Q1011 NOSIG=
201912210900 METAR LRCK 210900Z 24007KT CAVOK 11/09 Q1010 NOSIG=
201912210930 METAR LRCK 210930Z 24006KT CAVOK 11/09 Q1010 NOSIG=
201912211000 METAR LRCK 211000Z 23005KT CAVOK 13/10 Q1009 NOSIG=
201912211030 METAR LRCK 211030Z 21005KT CAVOK 13/10 Q1009 NOSIG=
201912211100 METAR LRCK 211100Z 20004KT CAVOK 13/11 Q1009 NOSIG=
201912211130 METAR LRCK 211130Z 21003KT 170V250 CAVOK 14/11 Q1009 NOSIG=
201912211200 METAR LRCK 211200Z 19005KT CAVOK 14/11 Q1009 NOSIG=
201912211230 METAR LRCK 211230Z 21005KT CAVOK 14/11 Q1008 NOSIG=
201912211300 METAR LRCK 211300Z 19005KT CAVOK 13/11 Q1008 NOSIG=
201912211330 METAR LRCK 211330Z 20004KT CAVOK 12/10 Q1007 NOSIG=
201912211400 METAR LRCK 211400Z VRB02KT CAVOK 12/10 Q1007 NOSIG=
201912211430 METAR LRCK 211430Z 19005KT CAVOK 10/09 Q1007 NOSIG=
201912211500 METAR LRCK 211500Z 17007KT 8000 NSC 10/09 Q1007 NOSIG=
201912211530 METAR LRCK 211530Z 18006KT 8000 NSC 09/09 Q1007 NOSIG=
201912211600 METAR LRCK 211600Z 19009KT 8000 NSC 09/09 Q1006 NOSIG=
201912211630 METAR LRCK 211630Z 19008KT CAVOK 09/09 Q1006 NOSIG=
201912211700 METAR LRCK 211700Z 19007KT CAVOK 10/09 Q1006 NOSIG=
201912211730 METAR LRCK 211730Z 19008KT 8000 NSC 08/08 Q1006 NOSIG=
201912211800 METAR LRCK 211800Z 22006KT 8000 NSC 09/08 Q1006 NOSIG=
201912211830 METAR LRCK 211830Z 20007KT CAVOK 08/08 Q1005 NOSIG=
201912211900 METAR LRCK 211900Z 18006KT 8000 NSC 08/08 Q1005 NOSIG=
201912211930 METAR LRCK 211930Z 18009KT 7000 NSC 08/08 Q1004 NOSIG=
201912212000 METAR LRCK 212000Z 18011KT 6000 NSC 08/08 Q1004 TEMPO 5000
                        BR=
201912212030 METAR LRCK 212030Z 19010KT 5000 BR NSC 07/07 Q1004 TEMPO
                        3000 BR=
201912212100 METAR LRCK 212100Z 19010KT 5000 BR NSC 08/08 Q1004 NOSIG=
201912212130 METAR LRCK 212130Z 18010KT 5000 BR NSC 07/07 Q1003 NOSIG=
201912212200 METAR LRCK 212200Z 20007KT 3000 MIFG BR NSC 07/07 Q1003 NOSIG=
201912212230 METAR LRCK 212230Z 22006KT 8000 MIFG NSC 08/08 Q1003 NOSIG=
201912212300 METAR LRCK 212300Z 22009KT CAVOK 07/07 Q1002 NOSIG=
201912212330 METAR LRCK 212330Z 22010KT CAVOK 08/08 Q1002 NOSIG=
201912220000 METAR LRCK 220000Z 23008KT CAVOK 09/09 Q1002 NOSIG=
201912220030 METAR LRCK 220030Z 23010KT CAVOK 08/07 Q1002 NOSIG=
201912220100 METAR LRCK 220100Z 24010KT CAVOK 09/08 Q1001 NOSIG=
201912220130 METAR COR LRCK 220130Z 23008KT CAVOK 08/07 Q1001 NOSIG=
201912220200 METAR LRCK 220200Z 23008KT CAVOK 08/07 Q1001 NOSIG=
201912220230 METAR LRCK 220230Z 23009KT CAVOK 09/08 Q1001 NOSIG=
201912220300 METAR LRCK 220300Z 22008KT CAVOK 09/08 Q1001 NOSIG=
201912220330 METAR LRCK 220330Z 23010KT CAVOK 09/08 Q1001 NOSIG=
201912220400 METAR LRCK 220400Z 23009KT CAVOK 09/08 Q1001 NOSIG=
201912220430 METAR LRCK 220430Z 22008KT CAVOK 08/08 Q1001 NOSIG=
201912220500 METAR LRCK 220500Z 23009KT CAVOK 09/08 Q1001 NOSIG=
201912220530 METAR LRCK 220530Z 22008KT CAVOK 08/07 Q1001 NOSIG=
201912220600 METAR LRCK 220600Z 22010KT CAVOK 09/08 Q1001 NOSIG=
201912220630 METAR LRCK 220630Z 22010KT CAVOK 10/08 Q1001 NOSIG=
201912220700 METAR LRCK 220700Z 22009KT CAVOK 11/09 Q1001 NOSIG=
201912220730 METAR LRCK 220730Z 23011KT CAVOK 12/09 Q1001 NOSIG=
201912220800 METAR LRCK 220800Z 23011KT CAVOK 14/10 Q1001 NOSIG=
201912220830 METAR LRCK 220830Z 22011KT CAVOK 15/10 Q1000 NOSIG=
201912220900 METAR LRCK 220900Z 22013KT CAVOK 16/10 Q1000 NOSIG=
201912220930 METAR LRCK 220930Z 22015KT CAVOK 17/10 Q1000 NOSIG=
201912221000 METAR LRCK 221000Z 22009KT CAVOK 18/11 Q1000 NOSIG=
201912221030 METAR LRCK 221030Z 21013KT CAVOK 18/10 Q1000 NOSIG=
201912221100 METAR LRCK 221100Z 22012KT CAVOK 18/11 Q0999 NOSIG=
201912221130 METAR LRCK 221130Z 22011KT CAVOK 18/10 Q0999 NOSIG=
201912221200 METAR LRCK 221200Z 21010KT CAVOK 19/10 Q0999 NOSIG=
201912221230 METAR LRCK 221230Z 21012KT CAVOK 18/11 Q0999 NOSIG=
201912221300 METAR LRCK 221300Z 20011KT CAVOK 17/11 Q0999 NOSIG=
201912221330 METAR COR LRCK 221330Z 20011KT CAVOK 16/11 Q0998 NOSIG=
201912221400 METAR LRCK 221400Z 20009KT CAVOK 14/11 Q0998 NOSIG=
201912221430 METAR LRCK 221430Z 18009KT CAVOK 12/10 Q0998 NOSIG=
201912221500 METAR LRCK 221500Z 16010KT CAVOK 12/10 Q0998 NOSIG=
201912221530 METAR LRCK 221530Z 16009KT CAVOK 11/10 Q0998 NOSIG=
201912221600 METAR LRCK 221600Z 16010KT CAVOK 11/10 Q0997 NOSIG=
201912221630 METAR LRCK 221630Z 17010KT CAVOK 12/10 Q0997 NOSIG=
201912221700 METAR LRCK 221700Z 18013KT CAVOK 13/11 Q0997 NOSIG=
201912221730 METAR LRCK 221730Z 18013KT CAVOK 13/11 Q0997 NOSIG=
201912221800 METAR LRCK 221800Z 18014KT CAVOK 13/11 Q0996 NOSIG=
201912221830 METAR LRCK 221830Z 17014KT CAVOK 12/11 Q0996 NOSIG=
201912221900 METAR LRCK 221900Z 18016KT CAVOK 13/11 Q0996 NOSIG=
201912221930 METAR LRCK 221930Z 18016KT CAVOK 14/11 Q0996 NOSIG=
201912222000 METAR LRCK 222000Z 18018KT CAVOK 14/11 Q0996 NOSIG=
201912222030 METAR LRCK 222030Z 18018KT CAVOK 14/11 Q0996 NOSIG=
201912222100 METAR LRCK 222100Z 19017KT CAVOK 14/11 Q0995 NOSIG=
201912222130 METAR LRCK 222130Z 18017KT CAVOK 14/10 Q0995 NOSIG=
201912222200 METAR LRCK 222200Z 18017KT CAVOK 13/10 Q0995 NOSIG=
201912222230 METAR LRCK 222230Z 18018KT CAVOK 13/10 Q0995 NOSIG=
201912222300 METAR LRCK 222300Z 18017KT CAVOK 13/10 Q0994 NOSIG=
201912222330 METAR LRCK 222330Z 18020KT CAVOK 13/10 Q0994 NOSIG=
201912230000 METAR LRCK 230000Z 18020KT CAVOK 13/10 Q0994 NOSIG=
201912230030 METAR LRCK 230030Z 18022KT CAVOK 13/10 Q0994 NOSIG=
201912230100 METAR LRCK 230100Z 18023KT 9999 -RA NSC 12/11 Q0994 NOSIG=
201912230130 METAR LRCK 230130Z 17018KT 9999 -RA NSC 12/11 Q0993 NOSIG=
201912230200 METAR LRCK 230200Z 17019KT 9999 -RA NSC 12/11 Q0993 NOSIG=
201912230230 METAR LRCK 230230Z 16019KT CAVOK 12/10 Q0993 NOSIG=
201912230300 METAR LRCK 230300Z 17017G27KT CAVOK 12/11 Q0992 R18/29//95
                        NOSIG=
201912230330 METAR LRCK 230330Z 17021KT CAVOK 13/10 Q0992 R18/29//95 NOSIG=
201912230400 METAR LRCK 230400Z 17023KT 9999 -RA NSC 13/11 Q0992 R18/29//95
                        NOSIG=
201912230430 METAR LRCK 230430Z 17019KT CAVOK 13/10 Q0992 R18/29//95 NOSIG=
201912230500 METAR LRCK 230500Z 17018KT CAVOK 13/10 Q0992 R18/29//95 NOSIG=
201912230530 METAR LRCK 230530Z 18019KT CAVOK 13/10 Q0992 R18/29//95 NOSIG=
201912230600 METAR LRCK 230600Z 17017KT CAVOK 12/10 Q0992 R18/29//95 NOSIG=
201912230630 METAR LRCK 230630Z 17017KT CAVOK 12/10 Q0992 R18/29//95 NOSIG=
201912230700 METAR LRCK 230700Z 18018KT CAVOK 12/10 Q0992 R18/CLRD// NOSIG=
201912230730 METAR LRCK 230730Z 17016KT CAVOK 12/11 Q0992 NOSIG=
201912230800 METAR LRCK 230800Z 17016KT CAVOK 13/11 Q0992 NOSIG=
201912230830 METAR LRCK 230830Z 17015KT CAVOK 13/11 Q0992 NOSIG=
201912230900 METAR LRCK 230900Z 18013KT 9999 BKN040 13/11 Q0992 NOSIG=
201912230930 METAR LRCK 230930Z 18012KT 9999 BKN044 13/11 Q0992 NOSIG=
201912231000 METAR LRCK 231000Z 17011KT 9999 BKN048 13/11 Q0992 NOSIG=
201912231030 METAR LRCK 231030Z 18013KT 9999 FEW017 BKN049 14/11 Q0992
                        NOSIG=
201912231100 METAR LRCK 231100Z 19014KT 9999 SCT015 14/11 Q0991 NOSIG=
201912231130 METAR LRCK 231130Z 19014KT 9999 SCT020 14/11 Q0991 NOSIG=
201912231200 METAR LRCK 231200Z 19011KT 9999 FEW020 14/11 Q0991 NOSIG=
201912231230 METAR LRCK 231230Z 17010KT 9999 FEW030 15/11 Q0991 NOSIG=
201912231300 METAR LRCK 231300Z 18011KT 9999 FEW035 15/11 Q0991 NOSIG=
201912231330 METAR LRCK 231330Z 17008KT 9999 FEW035CB 14/11 Q0991 NOSIG=
201912231400 METAR LRCK 231400Z 16006KT 9999 FEW040CB 13/12 Q0991 NOSIG=
201912231430 METAR LRCK 231430Z 15007KT 9999 SCT040CB 12/11 Q0992 NOSIG=
201912231500 METAR LRCK 231500Z 17007KT 9999 FEW045CB 11/11 Q0992 NOSIG=
201912231530 METAR LRCK 231530Z 19007KT 9999 FEW048CB 12/11 Q0992 NOSIG=
201912231600 METAR LRCK 231600Z 27010KT 9999 FEW048CB 11/09 Q0993 NOSIG=
201912231630 METAR COR LRCK 231630Z 28008KT 9999 SCT045 11/09 Q0993 NOSIG=
201912231700 METAR LRCK 231700Z 26008KT 9999 SCT045 10/08 Q0993 NOSIG=
201912231730 METAR LRCK 231730Z 26009KT 9999 SCT045 09/08 Q0993 NOSIG=
201912231800 METAR LRCK 231800Z 26009KT 9999 SCT048 09/07 Q0993 NOSIG=
201912231830 METAR LRCK 231830Z 27007KT CAVOK 10/09 Q0994 NOSIG=
201912231900 METAR LRCK 231900Z 27014KT 9999 SCT008 10/09 Q0994 NOSIG=
201912231930 METAR LRCK 231930Z 27017KT 9999 SCT006 08/07 Q0994 NOSIG=
201912232000 METAR LRCK 232000Z 27015KT 9999 FEW006 08/07 Q0995 NOSIG=
201912232030 METAR LRCK 232030Z 27014KT 9999 FEW041 08/06 Q0995 NOSIG=
201912232100 METAR LRCK 232100Z 27013KT 9999 -RA BKN044 08/06 Q0995 NOSIG=
201912232130 METAR LRCK 232130Z 27013KT 9999 -RA BKN040 08/06 Q0995 NOSIG=
201912232200 METAR LRCK 232200Z 27013KT 9999 SCT037 08/06 Q0995 NOSIG=
201912232230 METAR LRCK 232230Z 27012KT 9999 BKN039 08/06 Q0995 NOSIG=
201912232300 METAR LRCK 232300Z 28013KT 9999 BKN039 08/05 Q0995 NOSIG=
201912232330 METAR LRCK 232330Z 28011KT 9999 SCT037 08/05 Q0995 NOSIG=
201912240000 METAR LRCK 240000Z 28011KT 9999 SCT037 07/05 Q0996 NOSIG=
201912240030 METAR LRCK 240030Z 28011KT 9999 BKN037 07/05 Q0996 NOSIG=
201912240100 METAR LRCK 240100Z 27012KT 9999 OVC038 07/05 Q0996 NOSIG=
201912240130 METAR LRCK 240130Z 27012KT 9999 BKN037 07/05 Q0996 NOSIG=
201912240200 METAR LRCK 240200Z 28011KT 9999 BKN037 07/05 Q0996 NOSIG=
201912240230 METAR LRCK 240230Z 28012KT 9999 OVC037 07/05 Q0996 NOSIG=
201912240300 METAR LRCK 240300Z 27013KT 9999 BKN038 07/05 Q0996 NOSIG=
201912240330 METAR LRCK 240330Z 27012KT 9999 SCT035 07/04 Q0997 NOSIG=
201912240400 METAR LRCK 240400Z 28012KT 9999 BKN032 06/04 Q0997 NOSIG=
201912240430 METAR LRCK 240430Z 28012KT 9999 BKN032 06/04 Q0997 NOSIG=
201912240500 METAR LRCK 240500Z 28013KT 9999 BKN031 06/04 Q0998 NOSIG=
201912240530 METAR LRCK 240530Z 28013KT 9999 BKN030 06/04 Q0998 NOSIG=
201912240600 METAR LRCK 240600Z 29014KT 9999 BKN030 06/04 Q0998 NOSIG=
201912240630 METAR LRCK 240630Z 28014KT 9999 BKN030 06/04 Q0999 NOSIG=
201912240700 METAR LRCK 240700Z 29011KT 9999 -RA BKN031 06/04 Q0999 NOSIG=
201912240730 METAR LRCK 240730Z 29010KT 9999 SCT032 BKN040 06/04 Q1000
                        NOSIG=
201912240800 METAR LRCK 240800Z 28012KT 9999 -RA BKN032 06/05 Q1000 R36/29//95
                        NOSIG=
201912240830 METAR LRCK 240830Z 28010KT 9999 -RA BKN041 06/05 Q1000 R36/29//95
                        NOSIG=
201912240900 METAR LRCK 240900Z 28010KT 9999 SCT042 06/05 Q1000 R36/29//95
                        NOSIG=
201912240930 METAR LRCK 240930Z 28010KT 9999 SCT048 06/06 Q1000 R36/29//95
                        NOSIG=
201912241000 METAR LRCK 241000Z 28010KT 9999 BKN036 06/05 Q1000 R36/29//95
                        NOSIG=
201912241030 METAR LRCK 241030Z 28011KT 9999 BKN034 06/05 Q1000 R36/29//95
                        NOSIG=
201912241100 METAR LRCK 241100Z 28010KT 9999 BKN032 06/05 Q1000 R36/29//95
                        NOSIG=
201912241130 METAR LRCK 241130Z 28010KT 9999 FEW007 BKN029 06/05 Q1000
                        R36/29//95 NOSIG=
201912241200 METAR LRCK 241200Z 28010KT 9999 BKN029 06/06 Q1000 R36/29//95
                        NOSIG=
201912241230 METAR LRCK 241230Z 29010KT 8000 OVC027 06/05 Q1000 R36/29//95
                        NOSIG=
201912241300 METAR LRCK 241300Z 29009KT 6000 FEW018 BKN024 06/06 Q1001
                        R36/29//95 NOSIG=
201912241330 METAR LRCK 241330Z 28009KT 2500 -RA BR BKN012 OVC024 06/06
                        Q1001 R36/29//95 NOSIG=
201912241400 METAR LRCK 241400Z 28008KT 2500 -RA BR BKN012 06/06 Q1001
                        R36/29//95 NOSIG=
201912241430 METAR LRCK 241430Z 28010KT 3000 -RA BR SCT008 BKN012 06/06
                        Q1001 R36/29//95 NOSIG=
201912241500 METAR LRCK 241500Z 28011KT 2500 -RA BR BKN008 06/06 Q1001
                        R36/29//95 NOSIG=
201912241530 METAR LRCK 241530Z 28009KT 2500 -RA BR BKN004 07/07 Q1001
                        R36/29//95 NOSIG=
201912241600 METAR LRCK 241600Z 29009KT 1500 -RA BR SCT003 BKN007 07/07
                        Q1001 R36/29//95 NOSIG=
201912241630 METAR LRCK 241630Z 29007KT 2500 -RA BR BKN007 07/07 Q1002
                        R36/29//95 NOSIG=
201912241700 METAR LRCK 241700Z 30010KT 4000 -RA BR BKN008 OVC024 08/08
                        Q1002 R36/29//95 BECMG 5000 BKN010
                        BKN030=
201912241730 METAR COR LRCK 241730Z 32013KT 5000 -RA BR SCT009 BKN012
                        OVC028 08/08 Q1002 R36/29//95 NOSIG=
201912241800 METAR LRCK 241800Z 31013KT 5000 -RA BR BKN011 07/07 Q1002
                        R36/29//95 NOSIG=
201912241830 METAR LRCK 241830Z 30013KT 8000 -RA BKN011 07/07 Q1002 R36/29//95
                        NOSIG=
201912241900 METAR LRCK 241900Z 30013KT 9999 -RA BKN015 07/07 Q1003 R36/29//95
                        NOSIG=
201912241930 METAR LRCK 241930Z 31012KT 9999 -RA BKN015 07/07 Q1003 R36/29//95
                        NOSIG=
201912242000 METAR LRCK 242000Z 29013KT 9999 -RA BKN018 07/07 Q1003 R36/29//95
                        NOSIG=
201912242030 METAR LRCK 242030Z 29012KT 9999 -RA BKN023 07/07 Q1003 R36/29//95
                        NOSIG=
201912242100 METAR LRCK 242100Z 29013KT 9999 -RA OVC025 07/07 Q1003 R36/29//95
                        NOSIG=
201912242130 METAR LRCK 242130Z 30015KT 9999 -RA OVC028 07/07 Q1003 R36/29//95
                        NOSIG=
201912242200 METAR LRCK 242200Z 30013KT 9999 -RA OVC030 07/07 Q1004 R36/29//95
                        NOSIG=
201912242230 METAR LRCK 242230Z 29013KT 9999 -RA OVC032 07/07 Q1003 R36/29//95
                        NOSIG=
201912242300 METAR LRCK 242300Z 30014KT 9999 -RA OVC033 07/07 Q1003 R36/29//95
                        NOSIG=
201912242330 METAR COR LRCK 242330Z 29012KT 9999 -RA OVC035 06/06 Q1004
                        R36/29//95 NOSIG=
201912250000 METAR LRCK 250000Z 29012KT 9999 -RA OVC040 06/06 Q1004 R36/29//95
                        NOSIG=
201912250030 METAR LRCK 250030Z 29011KT 9999 -RA OVC042 06/06 Q1004 R36/29//95
                        NOSIG=
201912250100 METAR LRCK 250100Z 29009KT 9999 OVC048 06/06 Q1004 R36/29//95
                        NOSIG=
201912250130 METAR LRCK 250130Z 29009KT 9999 BKN049 06/06 Q1004 R36/29//95
                        NOSIG=
201912250200 METAR LRCK 250200Z 28010KT CAVOK 06/06 Q1004 R36/29//95 NOSIG=
201912250230 METAR LRCK 250230Z 28011KT CAVOK 06/06 Q1004 R36/29//95 NOSIG=
201912250300 METAR LRCK 250300Z 28011KT CAVOK 06/06 Q1004 R36/29//95 NOSIG=
201912250330 METAR LRCK 250330Z 28010KT CAVOK 06/06 Q1004 R36/29//95 NOSIG=
201912250400 METAR LRCK 250400Z 28008KT CAVOK 05/05 Q1004 R36/29//95 NOSIG=
201912250430 METAR LRCK 250430Z 28008KT CAVOK 05/05 Q1004 R36/29//95 NOSIG=
201912250500 METAR COR LRCK 250500Z 28008KT CAVOK 05/05 Q1005 R36/29//95
                        NOSIG=
201912250530 METAR LRCK 250530Z 28008KT CAVOK 04/04 Q1005 R36/29//95 NOSIG=
201912250600 METAR LRCK 250600Z 27009KT CAVOK 04/04 Q1005 R36/29//95 NOSIG=
201912250630 METAR LRCK 250630Z 28010KT CAVOK 05/05 Q1005 R36/29//95 NOSIG=
201912250700 METAR LRCK 250700Z 27011KT CAVOK 05/04 Q1005 R36/29//95 NOSIG=
201912250730 METAR LRCK 250730Z 28010KT CAVOK 06/05 Q1005 R36/29//95 NOSIG=
201912250800 METAR LRCK 250800Z 28010KT CAVOK 06/04 Q1006 R36/29//95 NOSIG=
201912250830 METAR LRCK 250830Z 28009KT CAVOK 06/04 Q1006 R36/29//95 NOSIG=
201912250900 METAR LRCK 250900Z 28011KT CAVOK 06/04 Q1006 R36/29//95 NOSIG=
201912250930 METAR LRCK 250930Z 29008KT CAVOK 06/05 Q1006 R36/29//95 NOSIG=
201912251000 METAR LRCK 251000Z 29008KT CAVOK 07/05 Q1005 R36/29//95 NOSIG=
201912251030 METAR LRCK 251030Z 30009KT CAVOK 09/05 Q1005 R36/29//95 NOSIG=
201912251100 METAR LRCK 251100Z 31015KT 9999 FEW015 08/04 Q1006 R36/CLRD//
                        NOSIG=
201912251130 METAR LRCK 251130Z 31013KT 9999 FEW023 08/04 Q1005 NOSIG=
201912251200 METAR LRCK 251200Z 31012KT 9999 SCT022 08/04 Q1006 NOSIG=
201912251230 METAR LRCK 251230Z 30011KT 9999 SCT025 08/03 Q1006 NOSIG=
201912251300 METAR LRCK 251300Z 31012KT 9999 FEW025 08/04 Q1006 NOSIG=
201912251330 METAR LRCK 251330Z 31009KT 9999 FEW035 07/03 Q1006 NOSIG=
201912251400 METAR LRCK 251400Z 31008KT 9999 SCT045 07/04 Q1006 NOSIG=
201912251430 METAR LRCK 251430Z 32010KT 9999 SCT045 06/03 Q1007 NOSIG=
201912251500 METAR LRCK 251500Z 32008KT 9999 SCT046 06/04 Q1007 NOSIG=
201912251530 METAR LRCK 251530Z 29007KT 9999 FEW047 05/03 Q1007 NOSIG=
201912251600 METAR LRCK 251600Z 28010KT CAVOK 05/04 Q1007 NOSIG=
201912251630 METAR LRCK 251630Z 28009KT CAVOK 05/04 Q1007 NOSIG=
201912251700 METAR LRCK 251700Z 28009KT CAVOK 04/04 Q1007 NOSIG=
201912251730 METAR LRCK 251730Z 28008KT 4000 BR NSC 04/03 Q1007 BECMG
                        3000 BR=
201912251800 METAR LRCK 251800Z 29008KT 1500 BR FEW001 03/03 Q1008 BECMG
                        0800 FG=
201912251830 METAR LRCK 251830Z 29008KT 0800 R18/1200N R36/P2000 NSC 03/03
                        Q1007 TEMPO 0350 FG=
201912251900 METAR LRCK 251900Z 29010KT 5000 BR NSC 04/04 Q1007 NOSIG=
201912251930 METAR LRCK 251930Z 29008KT 8000 NSC 04/04 Q1008 NOSIG=
201912252000 METAR LRCK 252000Z 28007KT CAVOK 04/04 Q1008 NOSIG=
201912252030 METAR LRCK 252030Z 29009KT CAVOK 05/04 Q1008 NOSIG=
201912252100 METAR LRCK 252100Z 31007KT CAVOK 04/03 Q1008 NOSIG=
201912252130 METAR LRCK 252130Z 30007KT CAVOK 04/03 Q1009 NOSIG=
201912252200 METAR LRCK 252200Z 31011KT CAVOK 05/02 Q1008 NOSIG=
201912252230 METAR LRCK 252230Z 32012KT CAVOK 05/02 Q1009 NOSIG=
201912252300 METAR LRCK 252300Z 32013KT CAVOK 05/02 Q1008 NOSIG=
201912252330 METAR LRCK 252330Z 32013KT CAVOK 05/02 Q1009 NOSIG=
201912260000 METAR LRCK 260000Z 32012KT CAVOK 05/01 Q1009 NOSIG=
201912260030 METAR LRCK 260030Z 33010KT CAVOK 05/01 Q1009 NOSIG=
201912260100 METAR LRCK 260100Z 35014KT CAVOK 05/01 Q1009 NOSIG=
201912260130 METAR LRCK 260130Z 35014KT CAVOK 04/01 Q1009 NOSIG=
201912260200 METAR LRCK 260200Z 34009KT CAVOK 04/01 Q1009 NOSIG=
201912260230 METAR LRCK 260230Z 30007KT CAVOK 04/01 Q1009 NOSIG=
201912260300 METAR COR LRCK 260300Z 30008KT CAVOK 04/01 Q1009 NOSIG=
201912260330 METAR LRCK 260330Z 29005KT CAVOK 04/01 Q1010 NOSIG=
201912260400 METAR LRCK 260400Z 29006KT CAVOK 04/00 Q1010 NOSIG=
201912260430 METAR LRCK 260430Z 31008KT CAVOK 04/00 Q1010 NOSIG=
201912260500 METAR LRCK 260500Z 32009KT CAVOK 04/00 Q1010 NOSIG=
201912260530 METAR LRCK 260530Z 32009KT CAVOK 03/00 Q1011 NOSIG=
201912260600 METAR LRCK 260600Z 32009KT CAVOK 03/00 Q1011 NOSIG=
201912260630 METAR LRCK 260630Z 29007KT CAVOK 03/M00 Q1012 NOSIG=
201912260700 METAR LRCK 260700Z 33009KT CAVOK 04/M00 Q1012 NOSIG=
201912260730 METAR LRCK 260730Z 33009KT CAVOK 05/00 Q1012 NOSIG=
201912260800 METAR LRCK 260800Z 33009KT CAVOK 06/00 Q1012 NOSIG=
201912260830 METAR LRCK 260830Z 32012KT CAVOK 06/00 Q1012 NOSIG=
201912260900 METAR LRCK 260900Z 33012KT CAVOK 06/M00 Q1012 NOSIG=
201912260930 METAR LRCK 260930Z 34014KT CAVOK 06/M00 Q1012 NOSIG=
201912261000 METAR LRCK 261000Z 33013KT CAVOK 07/M00 Q1012 NOSIG=
201912261030 METAR LRCK 261030Z 33013KT CAVOK 07/M00 Q1012 NOSIG=
201912261100 METAR LRCK 261100Z 33013KT CAVOK 08/00 Q1012 NOSIG=
201912261130 METAR LRCK 261130Z 33014KT CAVOK 08/M00 Q1012 NOSIG=
201912261200 METAR LRCK 261200Z 32014KT CAVOK 08/M00 Q1012 NOSIG=
201912261230 METAR LRCK 261230Z 32015KT CAVOK 08/M01 Q1012 NOSIG=
201912261300 METAR LRCK 261300Z 31015KT CAVOK 07/M01 Q1013 NOSIG=
201912261330 METAR LRCK 261330Z 32012KT CAVOK 07/M00 Q1013 NOSIG=
201912261400 METAR LRCK 261400Z 32010KT CAVOK 06/M01 Q1013 NOSIG=
201912261430 METAR LRCK 261430Z 31006KT CAVOK 05/M01 Q1013 NOSIG=
201912261500 METAR LRCK 261500Z 29006KT CAVOK 03/00 Q1013 NOSIG=
201912261530 METAR LRCK 261530Z 28005KT CAVOK 03/00 Q1013 NOSIG=
201912261600 METAR LRCK 261600Z 28006KT CAVOK 03/01 Q1013 NOSIG=
201912261630 METAR LRCK 261630Z 28006KT CAVOK 04/02 Q1014 NOSIG=
201912261700 METAR LRCK 261700Z 28007KT CAVOK 04/03 Q1014 NOSIG=
201912261730 METAR LRCK 261730Z 27008KT CAVOK 05/03 Q1014 NOSIG=
201912261800 METAR LRCK 261800Z 28008KT CAVOK 05/03 Q1014 NOSIG=
201912261830 METAR LRCK 261830Z 28009KT CAVOK 05/03 Q1014 NOSIG=
201912261900 METAR LRCK 261900Z 28008KT CAVOK 05/03 Q1015 NOSIG=
201912261930 METAR LRCK 261930Z 28009KT CAVOK 04/03 Q1014 NOSIG=
201912262000 METAR LRCK 262000Z 28009KT CAVOK 04/03 Q1014 NOSIG=
201912262030 METAR LRCK 262030Z 30009KT CAVOK 05/02 Q1015 NOSIG=
201912262100 METAR LRCK 262100Z 32011KT CAVOK 05/00 Q1015 NOSIG=
201912262130 METAR LRCK 262130Z 32012KT CAVOK 05/00 Q1015 NOSIG=
201912262200 METAR LRCK 262200Z 33009KT CAVOK 05/00 Q1015 NOSIG=
201912262230 METAR LRCK 262230Z 32008KT CAVOK 05/01 Q1015 NOSIG=
201912262300 METAR LRCK 262300Z 31008KT CAVOK 05/00 Q1015 NOSIG=
201912262330 METAR LRCK 262330Z 31007KT CAVOK 05/00 Q1015 NOSIG=
201912270000 METAR LRCK 270000Z 31007KT CAVOK 05/01 Q1015 NOSIG=
201912270030 METAR LRCK 270030Z 30006KT CAVOK 04/01 Q1015 NOSIG=
201912270100 METAR LRCK 270100Z 31006KT CAVOK 04/01 Q1015 NOSIG=
201912270130 METAR LRCK 270130Z 29007KT CAVOK 04/00 Q1015 NOSIG=
201912270200 METAR LRCK 270200Z 28007KT CAVOK 04/01 Q1015 NOSIG=
201912270230 METAR COR LRCK 270230Z 28005KT CAVOK 04/01 Q1015 NOSIG=
201912270300 METAR LRCK 270300Z 28006KT CAVOK 03/02 Q1015 NOSIG=
201912270330 METAR LRCK 270330Z 28006KT CAVOK 03/02 Q1016 NOSIG=
201912270400 METAR LRCK 270400Z 27007KT CAVOK 04/02 Q1016 NOSIG=
201912270430 METAR LRCK 270430Z 26007KT CAVOK 03/02 Q1016 NOSIG=
201912270500 METAR LRCK 270500Z 26008KT CAVOK 03/02 Q1016 NOSIG=
201912270530 METAR LRCK 270530Z 27009KT CAVOK 03/02 Q1016 NOSIG=
201912270600 METAR LRCK 270600Z 27008KT CAVOK 03/02 Q1016 NOSIG=
201912270630 METAR LRCK 270630Z 28008KT CAVOK 03/02 Q1016 NOSIG=
201912270700 METAR LRCK 270700Z 27009KT CAVOK 03/02 Q1016 NOSIG=
201912270730 METAR LRCK 270730Z 27009KT CAVOK 03/02 Q1016 NOSIG=
201912270800 METAR LRCK 270800Z 26009KT CAVOK 03/02 Q1016 NOSIG=
201912270830 METAR LRCK 270830Z 27009KT CAVOK 04/02 Q1016 NOSIG=
201912270900 METAR LRCK 270900Z 26009KT CAVOK 04/01 Q1016 NOSIG=
201912270930 METAR LRCK 270930Z 27010KT CAVOK 04/02 Q1016 NOSIG=
201912271000 METAR LRCK 271000Z 26011KT CAVOK 04/01 Q1016 NOSIG=
201912271030 METAR LRCK 271030Z 27011KT CAVOK 04/01 Q1016 NOSIG=
201912271100 METAR LRCK 271100Z 27008KT CAVOK 04/01 Q1016 NOSIG=
201912271130 METAR LRCK 271130Z 27009KT CAVOK 04/01 Q1016 NOSIG=
201912271200 METAR LRCK 271200Z 27011KT CAVOK 04/02 Q1015 NOSIG=
201912271230 METAR LRCK 271230Z 27010KT 9999 OVC079 04/02 Q1016 NOSIG=
201912271300 METAR LRCK 271300Z 28009KT CAVOK 04/02 Q1016 NOSIG=
201912271330 METAR LRCK 271330Z 28008KT CAVOK 04/02 Q1016 NOSIG=
201912271400 METAR LRCK 271400Z 28006KT CAVOK 04/02 Q1016 NOSIG=
201912271430 METAR LRCK 271430Z 28007KT CAVOK 04/02 Q1016 NOSIG=
201912271500 METAR LRCK 271500Z 28008KT CAVOK 03/02 Q1016 NOSIG=
201912271530 METAR LRCK 271530Z 27008KT CAVOK 03/01 Q1016 NOSIG=
201912271600 METAR LRCK 271600Z 28008KT CAVOK 03/01 Q1016 NOSIG=
201912271630 METAR LRCK 271630Z 31009KT CAVOK 03/02 Q1016 NOSIG=
201912271700 METAR LRCK 271700Z 30008KT CAVOK 03/01 Q1017 NOSIG=
201912271730 METAR LRCK 271730Z 27006KT CAVOK 03/01 Q1016 NOSIG=
201912271800 METAR LRCK 271800Z 28005KT CAVOK 03/00 Q1016 NOSIG=
201912271830 METAR LRCK 271830Z 29006KT CAVOK 03/M00 Q1017 NOSIG=
201912271900 METAR LRCK 271900Z 29006KT CAVOK 04/M00 Q1017 NOSIG=
201912271930 METAR LRCK 271930Z 28006KT CAVOK 04/00 Q1017 NOSIG=
201912272000 METAR LRCK 272000Z 29006KT CAVOK 03/00 Q1017 NOSIG=
201912272030 METAR LRCK 272030Z 29006KT CAVOK 03/00 Q1017 NOSIG=
201912272100 METAR LRCK 272100Z 31009KT CAVOK 03/01 Q1017 NOSIG=
201912272130 METAR LRCK 272130Z 34010KT CAVOK 02/01 Q1017 NOSIG=
201912272200 METAR LRCK 272200Z 33010KT 9999 FEW043 02/01 Q1017 NOSIG=
201912272230 METAR LRCK 272230Z 34012KT 9999 -RA SCT036 03/01 Q1017 NOSIG=
201912272300 METAR LRCK 272300Z 34010KT 9999 -RA SCT034 02/01 Q1017 NOSIG=
201912272330 METAR LRCK 272330Z 34005KT 300V010 9999 FEW042 02/01 Q1017
                        NOSIG=
201912280000 METAR LRCK 280000Z 29003KT 9999 BKN044 01/00 Q1017 NOSIG=
201912280030 METAR LRCK 280030Z 30004KT 9999 FEW038 BKN048 01/M00 Q1017
                        NOSIG=
201912280100 METAR LRCK 280100Z 29005KT 9999 FEW037 BKN049 01/00 Q1017
                        NOSIG=
201912280130 METAR LRCK 280130Z 29006KT 9999 FEW039 SCT046 01/00 Q1017
                        NOSIG=
201912280200 METAR COR LRCK 280200Z 28005KT 9999 FEW046 00/M01 Q1017 NOSIG=
201912280230 METAR LRCK 280230Z 28005KT CAVOK M01/M02 Q1017 NOSIG=
201912280300 METAR LRCK 280300Z 29006KT CAVOK M00/M01 Q1017 NOSIG=
201912280330 METAR LRCK 280330Z 29006KT CAVOK M00/M00 Q1017 NOSIG=
201912280400 METAR LRCK 280400Z 31009KT 9999 FEW049 01/M00 Q1017 NOSIG=
201912280430 METAR LRCK 280430Z 32011KT 9999 SCT040 02/00 Q1017 NOSIG=
201912280500 METAR LRCK 280500Z 32010KT 9999 BKN036 02/01 Q1018 NOSIG=
201912280530 METAR LRCK 280530Z 33010KT 9999 BKN048 02/00 Q1018 NOSIG=
201912280600 METAR LRCK 280600Z 34009KT 9999 FEW020 BKN045 01/00 Q1018
                        NOSIG=
201912280630 METAR LRCK 280630Z 35010KT 9999 FEW025 BKN041 02/M01 Q1019
                        NOSIG=
201912280700 METAR LRCK 280700Z 35006KT 9999 SCT040 02/M01 Q1019 NOSIG=
201912280730 METAR LRCK 280730Z 31004KT 9999 FEW040 02/M01 Q1019 NOSIG=
201912280800 METAR LRCK 280800Z 30006KT CAVOK 03/M02 Q1019 NOSIG=
201912280830 METAR LRCK 280830Z 32009KT CAVOK 04/M01 Q1019 NOSIG=
201912280900 METAR LRCK 280900Z 33009KT CAVOK 04/M02 Q1019 NOSIG=
201912280930 METAR LRCK 280930Z 33010KT CAVOK 04/M02 Q1018 NOSIG=
201912281000 METAR LRCK 281000Z 33010KT CAVOK 04/M02 Q1018 NOSIG=
201912281030 METAR LRCK 281030Z 32010KT CAVOK 04/M02 Q1018 NOSIG=
201912281100 METAR LRCK 281100Z 33011KT CAVOK 05/M02 Q1018 NOSIG=
201912281130 METAR LRCK 281130Z 33010KT CAVOK 05/M02 Q1018 NOSIG=
201912281200 METAR LRCK 281200Z 32011KT CAVOK 05/M02 Q1018 NOSIG=
201912281230 METAR LRCK 281230Z 33011KT CAVOK 05/M02 Q1018 NOSIG=
201912281300 METAR LRCK 281300Z 33011KT CAVOK 04/M02 Q1018 NOSIG=
201912281330 METAR LRCK 281330Z 31009KT 9999 FEW048 03/M02 Q1019 NOSIG=
201912281400 METAR LRCK 281400Z 32009KT 9999 BKN049 04/M02 Q1019 NOSIG=
201912281430 METAR LRCK 281430Z 31008KT 9999 BKN049 03/M02 Q1019 NOSIG=
201912281500 METAR LRCK 281500Z 30007KT 9999 SCT049 02/M02 Q1019 NOSIG=
201912281530 METAR LRCK 281530Z 30006KT 9999 BKN047 02/M02 Q1019 NOSIG=
201912281600 METAR LRCK 281600Z 31007KT 9999 BKN048 03/M02 Q1019 NOSIG=
201912281630 METAR LRCK 281630Z 31008KT 9999 BKN049 03/M02 Q1020 NOSIG=
201912281700 METAR LRCK 281700Z 33010KT 9999 BKN047 02/M01 Q1020 NOSIG=
201912281730 METAR LRCK 281730Z 34010KT 9999 SCT021 OVC040 02/M00 Q1020
                        NOSIG=
201912281800 METAR LRCK 281800Z 31011KT 9999 SCT017 BKN038 02/M01 Q1020
                        NOSIG=
201912281830 METAR LRCK 281830Z 32010KT 9999 FEW013 SCT040 01/M01 Q1021
                        NOSIG=
201912281900 METAR LRCK 281900Z 32011KT 9999 SCT040 01/M01 Q1020 NOSIG=
201912281930 METAR LRCK 281930Z 31010KT 9999 FEW012 01/M01 Q1020 NOSIG=
201912282000 METAR LRCK 282000Z 31012KT 9999 SCT011 01/M00 Q1021 BECMG
                        BKN010=
201912282030 METAR LRCK 282030Z 31010KT 9999 BKN011 01/M00 Q1021 NOSIG=
201912282100 METAR LRCK 282100Z 31012KT 9999 BKN010 01/M00 Q1021 NOSIG=
201912282130 METAR LRCK 282130Z 31012KT 9999 BKN010 01/M00 Q1021 NOSIG=
201912282200 METAR LRCK 282200Z 31013KT 9999 BKN012 01/M00 Q1020 NOSIG=
201912282230 METAR LRCK 282230Z 31014KT 9999 BKN013 01/M00 Q1021 NOSIG=
201912282300 METAR LRCK 282300Z 31011KT 9999 -SN BKN011 01/M00 Q1021 NOSIG=
201912282330 METAR LRCK 282330Z 31012KT 8000 -SN BKN010 01/M00 Q1020 NOSIG=
201912290000 METAR LRCK 290000Z 31014KT 9999 -SN BKN010 01/M00 Q1020 R36/19//95
                        NOSIG=
201912290030 METAR LRCK 290030Z 31012KT 8000 -SN BKN009 00/M00 Q1021 R36/19//95
                        NOSIG=
201912290100 METAR LRCK 290100Z 31012KT 8000 -SN BKN008 BKN025 00/M00
                        Q1021 R36/19//95 NOSIG=
201912290130 METAR LRCK 290130Z 31012KT 8000 -SN BKN008 BKN030 00/M00
                        Q1021 R36/19//95 NOSIG=
201912290200 METAR LRCK 290200Z 31011KT 8000 -SN BKN007 BKN040 00/M00
                        Q1021 R36/19//95 NOSIG=
201912290230 METAR LRCK 290230Z 31012KT 8000 -SN BKN007 BKN048 00/M00
                        Q1021 R36/19//95 NOSIG=
201912290300 METAR LRCK 290300Z 31013KT 8000 -SN BKN007 BKN048 00/M00
                        Q1021 R36/29//95 NOSIG=
201912290330 METAR LRCK 290330Z 31012KT 5000 -SN BR FEW007 BKN038 00/M00
                        Q1021 R36/29//95 NOSIG=
201912290400 METAR COR LRCK 290400Z 32014KT 5000 -SN BR FEW008 BKN048
                        00/M00 Q1021 R36/29//95 NOSIG=
201912290430 METAR LRCK 290430Z 32013KT 8000 -SN BKN007 BKN043 00/00 Q1021
                        R36/29//95 NOSIG=
201912290500 METAR LRCK 290500Z 32014KT 5000 -SN BR BKN007 BKN043 00/M00
                        Q1021 R36/29//95 NOSIG=
201912290530 METAR LRCK 290530Z 32012KT 8000 -SN SCT007 BKN043 00/M00
                        Q1021 R36/29//95 NOSIG=
201912290600 METAR LRCK 290600Z 32013KT 5000 -SN BR BKN045 00/M00 Q1021
                        R36/29//95 NOSIG=
201912290630 METAR LRCK 290630Z 32014KT 7000 -SN SCT012 00/M00 Q1022 R36/29//95
                        NOSIG=
201912290700 METAR LRCK 290700Z 32013KT 9999 -SN SCT023 00/M00 Q1022 R36/29//95
                        NOSIG=
201912290730 METAR LRCK 290730Z 33013KT 9999 -SN BKN024 01/00 Q1022 R36/29//95
                        NOSIG=
201912290800 METAR LRCK 290800Z 32012KT 9999 -SN FEW008 BKN024 01/00 Q1022
                        R36/29//95 NOSIG=
201912290830 METAR LRCK 290830Z 33012KT 9999 -SN FEW008 BKN026 01/00 Q1023
                        R36/29//95 NOSIG=
201912290900 METAR LRCK 290900Z 33013KT 9999 FEW007 SCT026 01/01 Q1023
                        R36/29//95 NOSIG=
201912290930 METAR LRCK 290930Z 33013KT 9999 FEW008 SCT025 02/01 Q1023
                        R36/29//95 NOSIG=
201912291000 METAR LRCK 291000Z 33011KT 9999 SCT007 SCT025 01/01 Q1022
                        R36/29//95 NOSIG=
201912291030 METAR LRCK 291030Z 33013KT 9999 BKN008 02/01 Q1023 R36/29//95
                        NOSIG=
201912291100 METAR LRCK 291100Z 33012KT 9999 BKN009 02/01 Q1022 R36/29//95
                        NOSIG=
201912291130 METAR LRCK 291130Z 33012KT 9999 -RA BKN009 02/01 Q1023 R36/29//95
                        NOSIG=
201912291200 METAR LRCK 291200Z 33012KT 9999 BKN008 01/01 Q1023 R36/29//95
                        NOSIG=
201912291230 METAR LRCK 291230Z 33011KT 9999 BKN008 01/01 Q1023 R36/29//95
                        NOSIG=
201912291300 METAR LRCK 291300Z 33011KT 9999 BKN009 01/01 Q1023 R36/29//95
                        NOSIG=
201912291330 METAR LRCK 291330Z 33009KT 9999 BKN011 01/01 Q1023 R36/29//95
                        NOSIG=
201912291400 METAR LRCK 291400Z 33009KT 9999 BKN010 01/01 Q1024 R36/29//95
                        NOSIG=
201912291430 METAR LRCK 291430Z 33010KT 7000 -SN BKN012 01/01 Q1024 R36/29//95
                        NOSIG=
201912291500 METAR LRCK 291500Z 33011KT 1500 SN BR BKN012 01/00 Q1024
                        R36/29//95 TEMPO 0800 +SN=
201912291530 METAR LRCK 291530Z 34012KT 1500 SN BR BKN011 BKN026 00/00
                        Q1024 R36/29//95 TEMPO 0800 +SN=
201912291600 METAR LRCK 291600Z 34011KT 3000 SN BR BKN011 BKN029 00/00
                        Q1025 R36/29//95 TEMPO 0800 +SN=
201912291630 METAR COR LRCK 291630Z 35014KT 3000 SN BR BKN011 00/00 Q1025
                        R36/29//95 NOSIG=
201912291700 METAR LRCK 291700Z 34011KT 3000 SN BR BKN010 BKN038 00/00
                        Q1025 R36/29//95 NOSIG=
201912291730 METAR LRCK 291730Z 35013KT 7000 -SN BKN010 01/01 Q1026 R36/29//95
                        NOSIG=
201912291800 METAR LRCK 291800Z 35015KT 1500 SN BR BKN008 00/00 Q1026
                        R36/29//95 BECMG 5000 -SN BR=
201912291830 METAR LRCK 291830Z 34013KT 2500 -SN BR BKN007 00/00 Q1026
                        R36/29//95 BECMG 5000 BKN010=
201912291900 METAR COR LRCK 291900Z 35015KT 8000 -SN SCT009 BKN012 00/00
                        Q1026 R36/29//95 NOSIG=
201912291930 METAR LRCK 291930Z 36017KT 9999 BKN011 01/01 Q1027 R36/29//95
                        NOSIG=
201912292000 METAR LRCK 292000Z 36019KT 8000 BKN010 01/01 Q1027 R36/29//95
                        NOSIG=
201912292030 METAR LRCK 292030Z 36016KT 6000 -SN BKN009 01/01 Q1027 R36/29//95
                        NOSIG=
201912292100 METAR LRCK 292100Z 36018KT 1500 -SN BR BKN007 01/00 Q1028
                        R36/29//95 BECMG 5000 BR BKN010=
201912292130 METAR LRCK 292130Z 36018KT 3000 -SN BR BKN006 01/01 Q1028
                        R36/29//95 BECMG 5000 BKN010=
201912292200 METAR LRCK 292200Z 36018KT 7000 BKN009 01/01 Q1028 R36/29//95
                        BECMG 5000 BKN010=
201912292230 METAR LRCK 292230Z 36020KT 8000 SCT009 BKN028 01/00 Q1028
                        R36/29//95 NOSIG=
201912292300 METAR LRCK 292300Z 36020KT 9999 FEW010 BKN034 01/00 Q1028
                        R36/29//95 NOSIG=
201912292330 METAR LRCK 292330Z 36020KT 8000 SCT010 OVC049 01/00 Q1028
                        R36/29//95 NOSIG=
201912300000 METAR LRCK 300000Z 36022KT 7000 BKN010 01/00 Q1028 R36/29//95
                        NOSIG=
201912300030 METAR LRCK 300030Z 36022KT 7000 BKN010 01/00 Q1029 R36/29//95
                        NOSIG=
201912300100 METAR LRCK 300100Z 36022KT 8000 OVC009 01/00 Q1029 R36/29//95
                        NOSIG=
201912300130 METAR LRCK 300130Z 36019KT 8000 OVC009 01/00 Q1029 R36/29//95
                        NOSIG=
201912300200 METAR LRCK 300200Z 36017KT 7000 OVC009 01/00 Q1029 R36/29//95
                        NOSIG=
201912300230 METAR LRCK 300230Z 36018KT 7000 OVC008 01/01 Q1029 R36/29//95
                        NOSIG=
201912300300 METAR LRCK 300300Z 36018KT 5000 BR OVC008 01/00 Q1029 R36/29//95
                        NOSIG=
201912300330 METAR LRCK 300330Z 36018KT 4000 BR OVC008 01/01 Q1029 R36/29//95
                        NOSIG=
201912300400 METAR LRCK 300400Z 01018KT 4000 BR OVC008 01/01 Q1029 R36/29//95
                        NOSIG=
201912300430 METAR LRCK 300430Z 01021KT 4000 BR OVC007 01/01 Q1030 R36/29//95
                        NOSIG=
201912300500 METAR LRCK 300500Z 36022KT 5000 BR OVC007 01/00 Q1030 R36/29//95
                        NOSIG=
201912300530 METAR LRCK 300530Z 36023KT 5000 BR BKN008 01/00 Q1030 R36/29//95
                        NOSIG=
201912300600 METAR LRCK 300600Z 36023KT 6000 BKN009 01/00 Q1030 R36/29//95
                        NOSIG=
201912300630 METAR LRCK 300630Z 36023KT 7000 BKN009 01/M00 Q1031 R36/29//95
                        NOSIG=
201912300700 METAR LRCK 300700Z 36020KT 7000 OVC009 01/M00 Q1031 R36/CLRD//
                        NOSIG=
201912300730 METAR LRCK 300730Z 36020KT 7000 OVC008 01/M00 Q1032 NOSIG=
201912300800 METAR LRCK 300800Z 36021KT 8000 BKN009 01/M00 Q1032 NOSIG=
201912300830 METAR LRCK 300830Z 01022KT 7000 OVC009 01/M00 Q1032 NOSIG=
201912300900 METAR LRCK 300900Z 01020KT 8000 BKN009 01/M00 Q1032 NOSIG=
201912300930 METAR LRCK 300930Z 01020KT 9999 OVC009 01/M00 Q1031 NOSIG=
201912301000 METAR LRCK 301000Z 36022KT 9999 BKN009 01/M00 Q1031 NOSIG=
201912301030 METAR LRCK 301030Z 01019KT 9999 BKN009 02/M01 Q1031 NOSIG=
201912301100 METAR LRCK 301100Z 01019KT 9999 SCT013 02/M01 Q1031 NOSIG=
201912301130 METAR LRCK 301130Z 01018KT 9999 BKN014 02/M01 Q1031 NOSIG=
201912301200 METAR LRCK 301200Z 01017KT 9999 BKN015 01/M01 Q1031 NOSIG=
201912301230 METAR LRCK 301230Z 01014KT 9999 BKN016 01/M02 Q1031 NOSIG=
201912301300 METAR LRCK 301300Z 02013KT 9999 BKN017 01/M02 Q1031 NOSIG=
201912301330 METAR LRCK 301330Z 36013KT 9999 BKN018 01/M02 Q1031 NOSIG=
201912301400 METAR LRCK 301400Z 01012KT 9999 BKN021 01/M02 Q1032 NOSIG=
201912301430 METAR LRCK 301430Z 02012KT 9999 OVC020 00/M02 Q1031 NOSIG=
201912301500 METAR LRCK 301500Z 02012KT 9999 OVC019 00/M02 Q1031 NOSIG=
201912301530 METAR LRCK 301530Z 01014KT 9999 OVC018 00/M02 Q1031 NOSIG=
201912301600 METAR LRCK 301600Z 36011KT 9999 OVC017 M00/M02 Q1031 NOSIG=
201912301630 METAR LRCK 301630Z 36013KT 9999 OVC018 M00/M03 Q1031 NOSIG=
201912301700 METAR LRCK 301700Z 36013KT 9999 OVC017 M00/M03 Q1031 NOSIG=
201912301730 METAR LRCK 301730Z 01010KT 9999 OVC017 M00/M03 Q1031 NOSIG=
201912301800 METAR LRCK 301800Z 01011KT 9999 BKN016 M01/M03 Q1031 NOSIG=
201912301830 METAR LRCK 301830Z 02008KT 9999 BKN015 M01/M03 Q1031 NOSIG=
201912301900 METAR LRCK 301900Z 35008KT 9999 BKN014 M01/M03 Q1031 NOSIG=
201912301930 METAR LRCK 301930Z 01006KT 9999 BKN013 M02/M03 Q1031 NOSIG=
201912302000 METAR LRCK 302000Z 33005KT 9999 BKN013 M02/M03 Q1031 NOSIG=
201912302030 METAR LRCK 302030Z 31004KT 9999 BKN013 M02/M03 Q1031 NOSIG=
201912302100 METAR LRCK 302100Z 31004KT 9999 BKN013 M02/M03 Q1030 NOSIG=
201912302130 METAR LRCK 302130Z 33004KT 9999 OVC012 M01/M03 Q1030 NOSIG=
201912302200 METAR LRCK 302200Z 31005KT 270V330 9999 OVC012 M01/M03 Q1030
                        NOSIG=
201912302230 METAR LRCK 302230Z 31005KT 270V330 9999 BKN012 M02/M03 Q1030
                        NOSIG=
201912302300 METAR LRCK 302300Z 29005KT 9999 OVC010 M02/M03 Q1029 NOSIG=
201912302330 METAR LRCK 302330Z 29006KT 9999 OVC010 M02/M03 Q1029 NOSIG=
201912310000 METAR LRCK 310000Z 28007KT 9999 OVC009 M02/M03 Q1029 NOSIG=
201912310030 METAR LRCK 310030Z 28007KT 9999 OVC008 M02/M03 Q1029 NOSIG=
201912310100 METAR LRCK 310100Z 27004KT 9999 OVC009 M02/M03 Q1028 NOSIG=
201912310130 METAR LRCK 310130Z 26006KT 8000 OVC009 M02/M03 Q1028 NOSIG=
201912310200 METAR LRCK 310200Z 26007KT 5000 BR BKN007 M02/M03 Q1028 NOSIG=
201912310230 METAR LRCK 310230Z 26007KT 5000 BR OVC009 M02/M02 Q1027 NOSIG=
201912310300 METAR LRCK 310300Z 26008KT 5000 BR OVC009 M02/M02 Q1027 NOSIG=
201912310330 METAR LRCK 310330Z 27009KT 6000 OVC008 M02/M02 Q1027 NOSIG=
201912310400 METAR LRCK 310400Z 27011KT 6000 BKN006 M02/M02 Q1027 NOSIG=
201912310430 METAR LRCK 310430Z 27011KT 5000 BR BKN003 M02/M03 Q1026 TEMPO
                        3000 BR BKN002=
201912310500 METAR LRCK 310500Z 28012KT 3000 BR OVC002 M02/M02 Q1026 TEMPO
                        1500 BR BKN002=
201912310530 METAR LRCK 310530Z 27012KT 2000 BR OVC002 M03/M03 Q1026 NOSIG=
201912310600 METAR LRCK 310600Z 27013KT 1500 BR OVC002 M03/M03 Q1025 NOSIG=
201912310630 METAR COR LRCK 310630Z 27015KT 3000 BR BKN002 M03/M03 Q1025
                        BECMG 5000 BKN005=
201912310700 METAR LRCK 310700Z 27017KT 5000 BR BKN003 M03/M04 Q1025 BECMG
                        9999 NSW SCT005=
201912310730 METAR COR LRCK 310730Z 27017KT 7000 NSC M02/M03 Q1025 NOSIG=
201912310800 METAR LRCK 310800Z 27016KT 8000 NSC M02/M03 Q1025 NOSIG=
201912310830 METAR LRCK 310830Z 27018KT 8000 NSC M01/M03 Q1025 NOSIG=
201912310900 METAR LRCK 310900Z 27018KT CAVOK 00/M03 Q1024 NOSIG=
201912310930 METAR LRCK 310930Z 26019KT CAVOK 00/M03 Q1024 NOSIG=
201912311000 METAR LRCK 311000Z 26018KT CAVOK 01/M03 Q1023 NOSIG=
201912311030 METAR LRCK 311030Z 27019KT CAVOK 02/M03 Q1022 NOSIG=
201912311100 METAR LRCK 311100Z 27018KT CAVOK 02/M03 Q1022 NOSIG=
201912311130 METAR LRCK 311130Z 26018KT CAVOK 03/M03 Q1021 NOSIG=
201912311200 METAR LRCK 311200Z 26017KT CAVOK 03/M02 Q1021 NOSIG=
201912311230 METAR LRCK 311230Z 25016KT CAVOK 03/M02 Q1020 NOSIG=
201912311300 METAR LRCK 311300Z 25018KT CAVOK 03/M02 Q1020 NOSIG=
201912311330 METAR LRCK 311330Z 26015KT CAVOK 03/M02 Q1020 NOSIG=
201912311400 METAR LRCK 311400Z 26014KT CAVOK 02/M03 Q1020 NOSIG=
201912311430 METAR LRCK 311430Z 26017KT CAVOK 01/M03 Q1019 NOSIG=
201912311500 METAR LRCK 311500Z 26014KT CAVOK 01/M03 Q1019 NOSIG=
201912311530 METAR LRCK 311530Z 26016KT CAVOK 01/M02 Q1019 NOSIG=
201912311600 METAR LRCK 311600Z 26018KT CAVOK 01/M02 Q1019 NOSIG=
201912311630 METAR LRCK 311630Z 26018KT CAVOK 01/M02 Q1018 NOSIG=
201912311700 METAR LRCK 311700Z 26018KT CAVOK 01/M02 Q1018 NOSIG=
201912311730 METAR LRCK 311730Z 26016KT CAVOK 01/M02 Q1018 NOSIG=
201912311800 METAR LRCK 311800Z 27019KT 9999 -RA NSC 02/M02 Q1017 NOSIG=
201912311830 METAR LRCK 311830Z 27019KT 9999 -RA NSC 01/M01 Q1018 NOSIG=
201912311900 METAR LRCK 311900Z 26016KT 9999 -RA NSC 01/M01 Q1018 NOSIG=
201912311930 METAR LRCK 311930Z 27013KT CAVOK 01/M01 Q1018 NOSIG=
201912312000 METAR LRCK 312000Z 26013KT CAVOK 01/M01 Q1019 R36/29//95
                        NOSIG=
201912312030 METAR LRCK 312030Z 27017KT CAVOK 01/M00 Q1018 R36/29//95
                        NOSIG=
201912312100 METAR LRCK 312100Z 28013KT CAVOK 01/M00 Q1019 R36/29//95
                        NOSIG=
201912312130 METAR LRCK 312130Z 28009KT CAVOK 01/M00 Q1020 R36/29//95
                        NOSIG=
201912312200 METAR LRCK 312200Z 28009KT CAVOK 00/M01 Q1020 R36/29//95
                        NOSIG=
201912312230 METAR LRCK 312230Z 28010KT CAVOK 01/M00 Q1019 R36/29//95
                        NOSIG=
201912312300 METAR LRCK 312300Z 28009KT CAVOK 01/M01 Q1019 R36/29//95
                        NOSIG=
201912312330 METAR LRCK 312330Z 27010KT CAVOK 01/M01 Q1019 R36/29//95
                        NOSIG=
