201902010200 TAF LRTM 010200Z NIL=
201902010500 TAF LRTM 010500Z 0106/0115 09005KT 5000 BR OVC015
                      TEMPO 0106/0108 3000 BR BKN010
                      BECMG 0108/0110 9999 NSW=
201902010800 TAF LRTM 010800Z 0109/0118 14008KT 9999 BKN020
                      TEMPO 0109/0111 5000 BR BKN010=
201902011100 TAF LRTM 011100Z 0112/0121 10010KT 9999 BKN035=
201902011400 TAF LRTM 011400Z 0115/0124 07008KT 9999 BKN040=
201902011700 TAF LRTM 011700Z 0118/0203 10006KT CAVOK=
201902011900 TAF AMD LRTM 011900Z 0119/0203 CNL=
201902012000 TAF LRTM 012000Z NIL=
201902012300 TAF LRTM 012300Z NIL=
201902020200 TAF LRTM 020200Z NIL=
201902020500 TAF LRTM 020500Z 0206/0215 10006KT CAVOK=
201902020800 TAF LRTM 020800Z 0209/0218 10006KT CAVOK=
201902021100 TAF LRTM 021100Z 0212/0221 07007KT CAVOK=
201902021400 TAF LRTM 021400Z 0215/0224 08006KT CAVOK=
201902021700 TAF LRTM 021700Z 0218/0303 08008KT CAVOK
                      TEMPO 0300/0303 3000 BR=
201902021912 TAF AMD LRTM 021912Z 0219/0303 CNL=
201902022000 TAF LRTM 022000Z NIL=
201902022300 TAF LRTM 022300Z NIL=
201902030200 TAF LRTM 030200Z NIL=
201902030500 TAF LRTM 030500Z 0306/0315 08008KT CAVOK
                      TEMPO 0306/0308 3000 BR=
201902030800 TAF LRTM 030800Z 0309/0318 08008KT CAVOK=
201902031100 TAF LRTM 031100Z 0312/0321 08008KT CAVOK=
201902031400 TAF LRTM 031400Z 0315/0324 08008KT CAVOK=
201902031700 TAF LRTM 031700Z 0318/0403 VRB03KT CAVOK
                      TEMPO 0400/0403 3000 BR=
201902031902 TAF AMD LRTM 031902Z 0319/0403 CNL=
201902032000 TAF LRTM 032000Z NIL=
201902032300 TAF LRTM 032300Z NIL=
201902040200 TAF LRTM 040200Z NIL=
201902040500 TAF LRTM 040500Z 0406/0415 VRB04KT CAVOK=
201902040800 TAF LRTM 040800Z 0409/0418 VRB04KT CAVOK
                      BECMG 0416/0418 3000 BR BKN010=
201902041100 TAF LRTM 041100Z 0412/0421 VRB04KT CAVOK
                      BECMG 0416/0418 3000 BR BKN010=
201902041400 TAF LRTM 041400Z 0415/0424 33006KT CAVOK
                      BECMG 0417/0419 3000 BR BKN010=
201902041700 TAF LRTM 041700Z 0418/0503 VRB04KT CAVOK
                      BECMG 0420/0422 3000 BR BKN010
                      TEMPO 0500/0503 1500 BR BKN005=
201902041901 TAF AMD LRTM 041901Z 0419/0503 CNL=
201902042000 TAF LRTM 042000Z NIL=
201902042300 TAF LRTM 042300Z NIL=
201902050200 TAF LRTM 050200Z NIL=
201902050500 TAF LRTM 050500Z 0506/0515 VRB04KT 9999 SCT020
                      TEMPO 0506/0509 3000 BR BKN010=
201902050800 TAF LRTM 050800Z 0509/0518 VRB04KT 9999 BKN020
                      TEMPO 0509/0511 5000 BR BKN005=
201902051100 TAF LRTM 051100Z 0512/0521 VRB04KT 6000 SCT010 BKN045
                      BECMG 0513/0515 3000 BR BKN005 OVC010
                      BECMG 0518/0520 1500 BR OVC002=
201902051400 TAF LRTM 051400Z 0515/0524 VRB04KT 6000 SCT010 BKN045
                      BECMG 0515/0517 3000 BR BKN005 OVC010
                      BECMG 0518/0520 1500 BR OVC002=
201902051700 TAF LRTM 051700Z 0518/0603 VRB04KT 5000 BR NSC
                      BECMG 0518/0520 3000 BR
                      TEMPO 0522/0603 1500 BR BKN010 OVC030=
201902052000 TAF LRTM 052000Z 0521/0606 VRB04KT 3000 BR BKN010
                      TEMPO 0522/0605 1500 BR BKN005 OVC030=
201902052300 TAF LRTM 052300Z 0600/0609 VRB04KT 4000 BR BKN002 BKN005
                      TEMPO 0600/0606 1500 BR
                      BECMG 0607/0609 BKN010=
201902060200 TAF LRTM 060200Z 0603/0612 VRB04KT 3000 BR BKN002 BKN005
                      TEMPO 0603/0606 1500 BR
                      BECMG 0607/0609 5000 BKN010
                      BECMG 0609/0611 9999 NSW BKN020=
201902060500 TAF LRTM 060500Z 0606/0615 VRB04KT 3000 BR BKN005 BKN010
                      BECMG 0606/0608 5000 BKN010
                      BECMG 0608/0610 9999 NSW BKN020=
201902060800 TAF LRTM 060800Z 0609/0618 VRB04KT 1500 BR OVC002
                      BECMG 0609/0611 5000 BKN005
                      TEMPO 0612/0615 9999 NSW BKN010=
201902061100 TAF LRTM 061100Z 0612/0621 VRB04KT 9999 BKN010
                      TEMPO 0612/0616 BKN020=
201902061400 TAF LRTM 061400Z 0615/0624 VRB04KT 9999 SCT010 BKN025
                      BECMG 0617/0619 5000 BR BKN010
                      BECMG 0621/0623 1500 BR OVC005=
201902061700 TAF LRTM 061700Z 0618/0703 VRB04KT 9999 SCT010 BKN025
                      BECMG 0619/0620 5000 -RA BR BKN010 OVC020
                       PROB30
                      TEMPO 0620/0623 -FZDZ
                      BECMG 0623/0701 3000 -SN BKN005 OVC010=
201902062000 TAF LRTM 062000Z 0621/0706 VRB04KT 5000 BR BKN010 BKN025
                      PROB30 TEMPO 0621/0623 -FZDZ
                      BECMG 0623/0701 3000 -SN BKN005 OVC010=
201902062300 TAF LRTM 062300Z 0700/0709 VRB04KT 9999 BKN025
                      PROB30 TEMPO 0700/0703 3000 -SN BR BKN005
                       OVC010=
201902070200 TAF LRTM 070200Z 0703/0712 VRB04KT 5000 BR BKN015
                      TEMPO 0703/0705 1500 BR BKN005
                      BECMG 0705/0707 9999 NSW BKN020=
201902070500 TAF LRTM 070500Z 0706/0715 VRB04KT 5000 BR BKN005 OVC030
                      BECMG 0707/0709 9999 NSW SCT005 BKN030=
201902070800 TAF LRTM 070800Z 0709/0718 09004KT 5000 BR SCT005 BKN025
                      BECMG 0709/0711 9999 NSW=
201902071100 TAF LRTM 071100Z 0712/0721 VRB03KT 9999 SCT010 BKN030
                      BECMG 0719/0721 5000 BR=
201902071400 TAF LRTM 071400Z 0715/0724 VRB03KT 9999 SCT025 BKN030
                      BECMG 0720/0722 5000 BR=
201902071700 TAF LRTM 071700Z 0718/0803 VRB04KT 9999 SCT035
                      BECMG 0720/0722 3000 BR
                      BECMG 0722/0724 1500 BR
                      BECMG 0800/0802 0600 FZFG BKN002=
201902072000 TAF LRTM 072000Z 0721/0806 VRB04KT CAVOK
                      BECMG 0722/0724 3000 BR
                      BECMG 0800/0802 1500 BR
                      TEMPO 0803/0806 0600 FZFG BKN002=
201902072300 TAF LRTM 072300Z 0800/0809 VRB04KT 7000 BKN035
                      BECMG 0800/0802 3000 BR BKN010
                      TEMPO 0802/0806 0800 FZFG BKN002
                      PROB40 0803/0806 0350=
201902080200 TAF LRTM 080200Z 0803/0812 VRB04KT 7000 BKN035
                      TEMPO 0803/0807 5000 BR=
201902080500 TAF LRTM 080500Z 0806/0815 VRB04KT 9999 OVC035=
201902080800 TAF LRTM 080800Z 0809/0818 VRB04KT 9999 OVC035=
201902081100 TAF LRTM 081100Z 0812/0821 VRB04KT 9999 OVC035=
201902081400 TAF LRTM 081400Z 0815/0824 VRB04KT 9999 OVC035=
201902081700 TAF LRTM 081700Z 0818/0903 VRB03KT 9999 SCT010 OVC030
                      TEMPO 0900/0903 5000 BR=
201902082000 TAF LRTM 082000Z 0821/0906 VRB03KT 9999 OVC035
                      BECMG 0900/0902 5000 BR=
201902082300 TAF LRTM 082300Z 0900/0909 VRB03KT 9999 OVC035
                      TEMPO 0902/0907 5000 BR=
201902090200 TAF LRTM 090200Z 0903/0912 VRB03KT 9999 OVC035
                      PROB30 TEMPO 0903/0907 5000 BR=
201902090500 TAF LRTM 090500Z 0906/0915 VRB03KT 9999 OVC035=
201902090800 TAF LRTM 090800Z 0909/0918 VRB03KT 9999 BKN030=
201902091100 TAF LRTM 091100Z 0912/0921 VRB03KT 9999 BKN030=
201902091400 TAF LRTM 091400Z 0915/0924 VRB03KT 9999 BKN030=
201902091700 TAF LRTM 091700Z 0918/1003 VRB04KT CAVOK
                      TEMPO 0923/1003 3000 BR=
201902092000 TAF LRTM 092000Z 0921/1006 VRB04KT CAVOK
                      TEMPO 0923/1005 3000 BR=
201902092300 TAF LRTM 092300Z 1000/1009 VRB04KT 5000 BR NSC
                      PROB30 TEMPO 1001/1005 1500 BR
                      BECMG 1006/1008 9999 NSW=
201902100200 TAF LRTM 100200Z 1003/1012 VRB04KT 5000 BR NSC
                      PROB30 TEMPO 1003/1006 1500 BR BKN005
                      BECMG 1006/1008 CAVOK=
201902100500 TAF LRTM 100500Z 1006/1015 VRB04KT 5000 BR NSC
                      TEMPO 1006/1008 1500 BR
                      BECMG 1008/1010 9999 NSW=
201902100800 TAF LRTM 100800Z 1009/1018 VRB04KT 3000 BR SCT005
                      BECMG 1009/1011 CAVOK=
201902101100 TAF LRTM 101100Z 1012/1021 10005KT CAVOK
                      BECMG 1018/1020 5000 BR=
201902101400 TAF LRTM 101400Z 1015/1024 10005KT CAVOK
                      BECMG 1019/1021 5000 BR=
201902101700 TAF LRTM 101700Z 1018/1103 VRB04KT CAVOK
                      BECMG 1019/1021 5000 BR
                      TEMPO 1021/1103 3000 BR BKN005=
201902102000 TAF LRTM 102000Z 1021/1106 VRB04KT 5000 BR NSC
                      TEMPO 1023/1104 1500 BR BKN005
                      BECMG 1104/1106 9999 NSW=
201902102300 TAF LRTM 102300Z 1100/1109 VRB04KT 5000 BR NSC
                      TEMPO 1100/1104 1500 BR BKN005
                      BECMG 1104/1106 9999 NSW=
201902110200 TAF LRTM 110200Z 1103/1112 VRB04KT 3000 BR NSC
                      TEMPO 1103/1105 1500 BR BKN005
                      BECMG 1105/1107 5000 BKN020=
201902110500 TAF LRTM 110500Z 1106/1115 VRB04KT CAVOK
                      BECMG 1113/1115 5000 -RA BR BKN015 OVC040=
201902110800 TAF LRTM 110800Z 1109/1118 VRB04KT CAVOK
                      BECMG 1113/1115 5000 -RA BR BKN015 OVC040
                       TEMPO 1116/1118 3000 RA BR BKN010 OVC035=
201902111100 TAF LRTM 111100Z 1112/1121 VRB04KT CAVOK
                      TEMPO 1114/1117 5000 -RA BR BKN015 OVC040
                       BECMG 1117/1119 5000 -RA BR BKN015 OVC040
                       PROB30
                      TEMPO 1119/1121 3000 -SN BR BKN005 OVC030=
201902111400 TAF LRTM 111400Z 1115/1124 VRB04KT 8000 -RA BKN045
                      TEMPO 1117/1121 5000 -RA BR BKN015 OVC040
                       BECMG 1122/1124 32010KT 3000 -SN BR BKN010
                       OVC030=
201902111700 TAF LRTM 111700Z 1118/1203 VRB04KT 8000 -RA BKN045
                      TEMPO 1118/1121 5000 -RA BR BKN015 OVC040
                       BECMG 1122/1124 32010KT 3000 -SN BR BKN010
                       OVC030
                      TEMPO 1200/1203 1500 SN BR BKN005 OVC025=
201902112000 TAF LRTM 112000Z 1121/1206 33012KT 7000 -RA SCT020 BKN045
                      BECMG 1121/1123 5000 -RASN BR BKN015 OVC035
                       BECMG 1123/1201 3000 -SN BR BKN010 OVC030
                       TEMPO 1200/1206 1500 SN BR BKN005 OVC025=
201902112300 TAF LRTM 112300Z 1200/1209 32010KT 5000 -RASN BR BKN015 BKN035
                       BECMG 1200/1202 3000 -SN BR BKN010 OVC030
                       TEMPO 1202/1206 1500 SN BR BKN005 OVC025
                       BECMG 1207/1209 7000 NSW BKN020 BKN040=
201902120200 TAF LRTM 120200Z 1203/1212 35012KT 5000 -RA BR BKN010 BKN035
                      TEMPO 1203/1206 1500 SN BR BKN002 OVC020
                       BECMG 1209/1211 9999 NSW BKN020 BKN050=
201902120500 TAF LRTM 120500Z 1206/1215 33012KT 3000 -SN BR BKN015 BKN030
                      TEMPO 1206/1210 1500 SN BR BKN005 OVC020
                       BECMG 1211/1213 9999 NSW SCT025 BKN050=
201902120618 TAF AMD LRTM 120618Z 1206/1215 34012KT 5000 RA BKN010 OVC025
                      TEMPO 1206/1210 1500 RASN BR BKN005 OVC020
                       BECMG 1211/1213 9999 NSW SCT025 BKN050=
201902120800 TAF LRTM 120800Z 1209/1218 33012KT 5000 -SN BKN010 OVC025
                      TEMPO 1209/1211 1500 SN BR BKN005 OVC020
                       BECMG 1211/1213 9999 NSW SCT025 BKN050=
201902121100 TAF LRTM 121100Z 1212/1221 31012KT 3000 -SN BR BKN010 OVC025
                      BECMG 1213/1215 9999 NSW SCT025 BKN040=
201902121400 TAF LRTM 121400Z 1215/1224 30014KT 9999 BKN025
                      PROB30 TEMPO 1215/1218 30015G25KT 3000 SHSN
                       BKN010 SCT020CB BKN040=
201902121700 TAF LRTM 121700Z 1218/1303 31010KT 9999 SCT025
                      BECMG 1300/1302 VRB04KT=
201902122000 TAF LRTM 122000Z 1221/1306 31010KT CAVOK
                      BECMG 1300/1302 VRB04KT=
201902122300 TAF LRTM 122300Z 1300/1309 32010KT CAVOK
                      BECMG 1301/1303 VRB04KT=
201902130200 TAF LRTM 130200Z 1303/1312 32010KT CAVOK
                      BECMG 1303/1305 VRB04KT=
201902130500 TAF LRTM 130500Z 1306/1315 30008KT CAVOK=
201902130800 TAF LRTM 130800Z 1309/1318 28008KT 9999 SCT025=
201902131100 TAF LRTM 131100Z 1312/1321 30008KT 9999 SCT025=
201902131400 TAF LRTM 131400Z 1315/1324 VRB04KT 9999 SCT025=
201902131700 TAF LRTM 131700Z 1318/1403 VRB04KT CAVOK=
201902132000 TAF LRTM 132000Z 1321/1406 VRB04KT 9999 BKN050=
201902132300 TAF LRTM 132300Z 1400/1409 VRB04KT CAVOK=
201902140200 TAF LRTM 140200Z 1403/1412 VRB04KT 9999 BKN045
                      PROB30 TEMPO 1408/1412 5000 -SN BKN015 BKN050=
201902140500 TAF LRTM 140500Z 1406/1415 VRB04KT 9999 BKN035
                      PROB30 TEMPO 1408/1412 5000 -SN BKN015 BKN030=
201902140800 TAF LRTM 140800Z 1409/1418 28006KT 9999 BKN030
                      BECMG 1410/1412 BKN010 BKN020=
201902141100 TAF LRTM 141100Z 1412/1421 28006KT 9999 SCT015 OVC035
                      TEMPO 1413/1418 5000 -SN BKN010 OVC030=
201902141400 TAF LRTM 141400Z 1415/1424 VRB04KT 9999 SCT015 OVC035
                      TEMPO 1415/1418 5000 -SN BKN010 OVC020
                      BECMG 1418/1420 BKN010 BKN030=
201902141700 TAF LRTM 141700Z 1418/1503 30006KT 9999 BKN015 BKN025
                      BECMG 1420/1422 5000 BR BKN010 BKN020
                      PROB30 TEMPO 1423/1503 1500 BR=
201902142000 TAF LRTM 142000Z 1421/1506 VRB04KT 9999 BKN025
                      BECMG 1421/1423 5000 BR BKN015 BKN045
                      TEMPO 1423/1505 1500 BR BKN010=
201902142300 TAF LRTM 142300Z 1500/1509 VRB04KT 5000 BR BKN025
                      TEMPO 1500/1505 1500 BR BKN010
                      BECMG 1505/1507 CAVOK=
201902150200 TAF LRTM 150200Z 1503/1512 VRB04KT 9999 BKN030
                      TEMPO 1503/1506 3000 BR BKN010 BKN025=
201902150500 TAF LRTM 150500Z 1506/1515 VRB04KT 5000 BR SCT010 BKN045
                      TEMPO 1506/1508 3000 BR BKN010 BKN040
                      BECMG 1508/1510 9999 NSW=
201902150800 TAF LRTM 150800Z 1509/1518 08005KT 5000 BR SCT015 SCT045
                      BECMG 1509/1511 9999 NSW=
201902151100 TAF LRTM 151100Z 1512/1521 VRB04KT 9999 SCT015 SCT035
                      BECMG 1517/1519 5000 BR
                      BECMG 1519/1521 3000 BR BKN010=
201902151400 TAF LRTM 151400Z 1515/1524 VRB04KT 9999 SCT015 SCT035
                      BECMG 1518/1520 5000 BR
                      BECMG 1521/1523 3000 BR BKN007=
201902151700 TAF LRTM 151700Z 1518/1603 VRB04KT CAVOK
                      BECMG 1521/1523 5000 BR
                      TEMPO 1601/1603 3000 BR=
201902152000 TAF LRTM 152000Z 1521/1606 VRB04KT 7000 NSC
                      BECMG 1521/1523 5000 BR
                      TEMPO 1601/1606 3000 BR=
201902152300 TAF LRTM 152300Z NIL=
201902160200 TAF LRTM 160200Z 1603/1612 VRB04KT 5000 BR NSC
                      TEMPO 1603/1607 1500 BR
                      BECMG 1607/1609 9999 NSW=
201902160500 TAF LRTM 160500Z 1606/1615 VRB04KT CAVOK
                      TEMPO 1606/1608 3000 BR=
201902160800 TAF LRTM 160800Z 1609/1618 VRB04KT CAVOK=
201902161100 TAF LRTM 161100Z 1612/1621 VRB04KT 9999 BKN035=
201902161400 TAF LRTM 161400Z 1615/1624 VRB04KT CAVOK
                      BECMG 1620/1622 3000 BR=
201902161700 TAF LRTM 161700Z 1618/1703 07005KT 7000 FEW035
                      BECMG 1619/1621 5000 BR
                      BECMG 1623/1701 3000 BR
                      TEMPO 1701/1703 1500 BR BKN005=
201902162000 TAF LRTM 162000Z NIL=
201902162026 TAF AMD LRTM 162026Z 1620/1703 CNL=
201902162300 TAF LRTM 162300Z NIL=
201902170200 TAF LRTM 170200Z NIL=
201902170500 TAF LRTM 170500Z 1706/1715 07005KT 5000 BR NSC
                      TEMPO 1706/1707 1500 BR
                      BECMG 1708/1710 9999 NSW=
201902170800 TAF LRTM 170800Z 1709/1718 07006KT 3000 BR NSC
                      BECMG 1710/1712 9999 NSW
                      BECMG 1715/1717 3000 BR=
201902171100 TAF LRTM 171100Z 1712/1721 VRB04KT CAVOK
                      BECMG 1715/1717 3000 BR
                      BECMG 1718/1720 0800 FZFG BKN002=
201902171400 TAF LRTM 171400Z 1715/1724 VRB04KT CAVOK
                      BECMG 1718/1720 3000 BR
                      BECMG 1721/1723 0800 FZFG BKN002=
201902171700 TAF LRTM 171700Z 1718/1803 VRB04KT 7000 NSC
                      BECMG 1720/1722 5000 BR BKN010
                      TEMPO 1800/1803 1500 BR BKN005=
201902172000 TAF LRTM 172000Z 1721/1806 VRB04KT 5000 BR NSC
                      TEMPO 1800/1806 1500 BR BKN005=
201902172300 TAF LRTM 172300Z 1800/1809 09005KT 3000 BR NSC
                      TEMPO 1800/1806 1500 BR BKN005
                      BECMG 1807/1809 7000 NSW=
201902180200 TAF LRTM 180200Z 1803/1812 09005KT 0150 FZFG BKN001
                      BECMG 1805/1807 0600 BKN002
                      BECMG 1807/1809 3000 BR SCT005
                      BECMG 1809/1811 CAVOK=
201902180410 TAF AMD LRTM 180410Z 1804/1812 09005KT 0600 FZFG BKN002
                      TEMPO 1804/1806 0150 FZFG BKN001
                      BECMG 1807/1809 3000 BR SCT005
                      BECMG 1809/1811 CAVOK=
201902180500 TAF LRTM 180500Z 1806/1815 VRB04KT 0150 FZFG VV001
                      BECMG 1807/1809 0800 BKN002
                      BECMG 1809/1811 3000 BR NSC
                      BECMG 1811/1812 9999 NSW=
201902180800 TAF LRTM 180800Z 1809/1818 VRB04KT 0150 FZFG VV001
                      BECMG 1809/1811 0800 BKN002
                      BECMG 1811/1812 3000 BR NSC
                      BECMG 1812/1813 9999 NSW=
201902181100 TAF LRTM 181100Z 1812/1821 VRB04KT 5000 BR NSC
                      BECMG 1812/1814 9999 NSW
                      BECMG 1817/1819 5000 BR
                      BECMG 1819/1821 1500 BR=
201902181400 TAF LRTM 181400Z 1815/1824 VRB04KT CAVOK
                      BECMG 1817/1819 5000 BR
                      BECMG 1819/1821 1500 BR
                      BECMG 1822/1824 0600 FZFG BKN002=
201902181700 TAF LRTM 181700Z 1818/1903 VRB04KT 5000 BR NSC
                      BECMG 1821/1823 1500 BR
                      BECMG 1900/1902 0600 FZFG BKN002=
201902181958 TAF AMD LRTM 181958Z 1819/1903 CNL=
201902182000 TAF LRTM 182000Z NIL=
201902182300 TAF LRTM 182300Z NIL=
201902190200 TAF LRTM 190200Z 1903/1912 VRB04KT 0150 FZFG VV001
                      BECMG 1906/1908 0800 FZFG OVC002
                      BECMG 1908/1910 1500 BR BKN005
                      BECMG 1910/1912 5000 NSC=
201902190500 TAF LRTM 190500Z 1906/1915 09004KT 0350 FZFG VV001
                      BECMG 1906/1908 0600 OVC002
                      BECMG 1909/1910 1500 BR BKN005
                      BECMG 1910/1912 5000 NSC
                      TEMPO 1912/1915 9999 NSW=
201902190800 TAF LRTM 190800Z 1909/1918 VRB04KT 0200 FZFG VV001
                      BECMG 1909/1911 0800 FG BKN003
                      BECMG 1911/1913 3000 NSC
                      PROB40 TEMPO 1913/1915 7000 NSW=
201902191100 TAF LRTM 191100Z 1912/1921 VRB04KT 5000 BR SCT010
                      TEMPO 1912/1915 9999 NSW
                      BECMG 1916/1918 0800 FZFG OVC002=
201902191400 TAF LRTM 191400Z 1915/1924 VRB04KT CAVOK
                      BECMG 1916/1918 3000 BR
                      BECMG 1921/1923 0800 FZFG OVC001=
201902191700 TAF LRTM 191700Z 1918/2003 VRB04KT 5000 BR NSC
                      BECMG 1918/1920 3000 BR BKN010
                      BECMG 1921/1923 0800 FZFG OVC002=
201902191835 TAF AMD LRTM 191835Z 1918/2003 CNL=
201902192000 TAF LRTM 192000Z NIL=
201902192300 TAF LRTM 192300Z NIL=
201902200200 TAF LRTM 200200Z NIL=
201902200500 TAF LRTM 200500Z 2006/2015 VRB04KT 1500 BR NSC
                      BECMG 2006/2008 3000
                      BECMG 2008/2010 CAVOK=
201902200612 TAF AMD LRTM 200612Z 2006/2015 VRB04KT 0300 FZFG BKN002
                      BECMG 2007/2009 0800
                      BECMG 2009/2010 3000 BR BKN005
                      BECMG 2010/2011 9999 SCT025=
201902200800 TAF LRTM 200800Z 2009/2018 VRB04KT 3000 BR SCT005
                      BECMG 2009/2010 CAVOK=
201902201100 TAF LRTM 201100Z 2012/2021 VRB04KT 9999 SCT025
                      BECMG 2018/2020 3000 BR=
201902201400 TAF LRTM 201400Z 2015/2024 30008KT 9999 SCT025
                      BECMG 2018/2020 3000 BR=
201902201700 TAF LRTM 201700Z 2018/2103 29006KT CAVOK
                      BECMG 2021/2023 5000 BR
                      BECMG 2023/2101 3000 BR
                      TEMPO 2101/2103 1500 BR=
201902202000 TAF LRTM 202000Z NIL=
201902202007 TAF AMD LRTM 202007Z 2020/2103 CNL=
201902202300 TAF LRTM 202300Z NIL=
201902210200 TAF LRTM 210200Z NIL=
201902210500 TAF LRTM 210500Z 2106/2115 VRB04KT 5000 BR NSC
                      BECMG 2106/2108 9999 NSW
                      BECMG 2108/2110 29010KT=
201902210800 TAF LRTM 210800Z 2109/2118 24006KT CAVOK=
201902211100 TAF LRTM 211100Z 2112/2121 25008KT CAVOK=
201902211400 TAF LRTM 211400Z 2115/2124 30008KT CAVOK=
201902211700 TAF LRTM 211700Z 2118/2203 29008KT CAVOK
                      BECMG 2200/2202 5000 -RA BKN015 OVC035=
201902212000 TAF LRTM 212000Z 2121/2206 VRB04KT CAVOK
                      PROB30 TEMPO 2201/2203 5000 -FZRA BKN010
                       OVC030
                      BECMG 2203/2205 1500 SN BKN005 OVC020=
201902212300 TAF LRTM 212300Z 2200/2209 VRB04KT CAVOK
                      PROB30 TEMPO 2201/2203 5000 -FZRA BKN010
                       OVC030
                      BECMG 2203/2205 1500 SN BKN005 OVC020
                      BECMG 2206/2208 3000 -SN=
201902220200 TAF LRTM 220200Z 2203/2212 VRB04KT 7000 OVC035
                      BECMG 2203/2205 5000 -SN BKN010 OVC020
                      TEMPO 2206/2208 3000 SN BKN005 OVC020
                      BECMG 2210/2212 33010KT 7000 -RA=
201902220500 TAF LRTM 220500Z 2206/2215 VRB04KT 3000 -SN BR BKN010 OVC030
                      TEMPO 2206/2209 1500 SN BKN005 OVC015
                      BECMG 2210/2212 33010KT 7000 -RA BKN015 BKN035
                       BECMG 2213/2215 05010KT BKN040=
201902220800 TAF LRTM 220800Z 2209/2218 VRB04KT 5000 -RA BR BKN015 OVC030
                      TEMPO 2209/2211 1500 SN RASN BKN005 OVC015
                       BECMG 2213/2215 05010KT 9999 NSW BKN040=
201902221100 TAF LRTM 221100Z 2212/2221 25006KT 3000 BR BKN015 OVC030
                      BECMG 2213/2215 05010KT 9999 NSW BKN030=
201902221400 TAF LRTM 221400Z 2215/2224 29006KT 5000 -RA BKN015 OVC030
                      BECMG 2215/2217 05010KT 9999 NSW BKN030=
201902221700 TAF LRTM 221700Z 2218/2303 04012KT 9999 BKN035
                      TEMPO 2218/2220 5000 -SN BR BKN015 OVC025
                       BECMG 2221/2223 VRB04KT=
201902221844 TAF AMD LRTM 221844Z 2218/2303 CNL=
201902222000 TAF LRTM 222000Z NIL=
201902222300 TAF LRTM 222300Z NIL=
201902230200 TAF LRTM 230200Z NIL=
201902230500 TAF LRTM 230500Z 2306/2315 VRB04KT CAVOK=
201902230800 TAF LRTM 230800Z 2309/2318 VRB04KT CAVOK=
201902231100 TAF LRTM 231100Z 2312/2321 32008KT 9999 SCT040=
201902231400 TAF LRTM 231400Z 2315/2324 29008KT 9999 SCT040=
201902231700 TAF LRTM 231700Z 2318/2403 26005KT CAVOK=
201902231845 TAF AMD LRTM 231845Z 2318/2403 CNL=
201902232000 TAF LRTM 232000Z NIL=
201902232300 TAF LRTM 232300Z NIL=
201902240200 TAF LRTM 240200Z NIL=
201902240500 TAF LRTM 240500Z 2406/2415 VRB04KT CAVOK=
201902240800 TAF LRTM 240800Z 2409/2418 VRB04KT CAVOK=
201902241100 TAF LRTM 241100Z 2412/2421 VRB04KT CAVOK=
201902241400 TAF LRTM 241400Z 2415/2424 VRB04KT CAVOK=
201902241700 TAF LRTM 241700Z 2418/2503 VRB04KT CAVOK=
201902242000 TAF LRTM 242000Z 2421/2506 VRB04KT 9999 BKN045=
201902242300 TAF LRTM 242300Z 2500/2509 VRB04KT 9999 BKN040=
201902250200 TAF LRTM 250200Z 2503/2512 VRB04KT 9999 BKN040=
201902250500 TAF LRTM 250500Z 2506/2515 VRB04KT CAVOK=
201902250800 TAF LRTM 250800Z 2509/2518 VRB04KT 9999 SCT035=
201902251100 TAF LRTM 251100Z 2512/2521 VRB04KT CAVOK=
201902251400 TAF LRTM 251400Z 2515/2524 VRB04KT CAVOK=
201902251700 TAF LRTM 251700Z 2518/2603 VRB04KT CAVOK=
201902252000 TAF LRTM 252000Z NIL=
201902252004 TAF AMD LRTM 252004Z 2520/2603 CNL=
201902252300 TAF LRTM 252300Z NIL=
201902260200 TAF LRTM 260200Z NIL=
201902260500 TAF LRTM 260500Z 2606/2615 VRB04KT CAVOK
                      BECMG 2610/2612 32010KT=
201902260800 TAF LRTM 260800Z 2609/2618 VRB04KT CAVOK
                      BECMG 2610/2612 32010KT=
201902261100 TAF LRTM 261100Z 2612/2621 VRB04KT 9999 SCT045
                      BECMG 2612/2614 32010KT=
201902261400 TAF LRTM 261400Z 2615/2624 30010KT 9999 SCT045=
201902261700 TAF LRTM 261700Z 2618/2703 30010KT 9999 SCT045
                      BECMG 2701/2703 VRB04KT=
201902262000 TAF LRTM 262000Z NIL=
201902262300 TAF LRTM 262300Z NIL=
201902270200 TAF LRTM 270200Z NIL=
201902270500 TAF LRTM 270500Z 2706/2715 32008KT CAVOK=
201902270800 TAF LRTM 270800Z 2709/2718 32008KT CAVOK=
201902271100 TAF LRTM 271100Z 2712/2721 33012KT 9999 SCT030
                      BECMG 2716/2718 VRB04KT=
201902271400 TAF LRTM 271400Z 2715/2724 33010KT CAVOK
                      BECMG 2716/2718 VRB04KT=
201902271700 TAF LRTM 271700Z 2718/2803 30006KT CAVOK=
201902271847 TAF AMD LRTM 271847Z 2718/2803 CNL=
201902272000 TAF LRTM 272000Z NIL=
201902272300 TAF LRTM 272300Z NIL=
201902280200 TAF LRTM 280200Z NIL=
201902280500 TAF LRTM 280500Z 2806/2815 10006KT CAVOK=
201902280800 TAF LRTM 280800Z 2809/2818 09006KT CAVOK=
201902281100 TAF LRTM 281100Z 2812/2821 23008KT CAVOK=
201902281400 TAF LRTM 281400Z 2815/2824 23016KT CAVOK
                      PROB30 TEMPO 2815/2818 23016G26KT
                      BECMG 2818/2820 23006KT=
201902281700 TAF LRTM 281700Z 2818/0103 24008KT CAVOK=
201902282000 TAF LRTM 282000Z 2821/0106 24008KT CAVOK=
201902282300 TAF LRTM 282300Z 0100/0109 24008KT CAVOK=
