201902010000 METAR LRTM 010000Z AUTO 08003KT 3100 R07/2000 BR OVC014///
                        02/01 Q1007=
201902010030 METAR LRTM 010030Z AUTO 10004KT 4300 BR BKN013/// SCT017///
                        02/01 Q1008=
201902010100 METAR LRTM 010100Z AUTO 07004KT 3600 BR BKN014/// SCT018///
                        02/01 Q1008=
201902010130 METAR LRTM 010130Z AUTO 07004KT 3600 BR SCT014/// BKN018///
                        02/01 Q1008=
201902010200 METAR LRTM 010200Z AUTO 08004KT 4200 BR BKN013/// BKN017///
                        02/01 Q1008=
201902010230 METAR LRTM 010230Z AUTO 07003KT 4200 BR BKN013/// SCT018///
                        02/01 Q1008=
201902010300 METAR LRTM 010300Z AUTO 11004KT 4000 BR BKN013/// BKN022///
                        02/01 Q1009=
201902010330 METAR LRTM 010330Z AUTO 07004KT 3400 BR OVC013/// 01/01 Q1009=
201902010400 METAR LRTM 010400Z AUTO 07005KT 3400 BR OVC014/// 01/01 Q1009=
201902010430 METAR LRTM 010430Z AUTO 06003KT 4200 BR OVC014/// 02/01 Q1009=
201902010500 METAR LRTM 010500Z AUTO 11002KT 4200 BR OVC014/// 02/01 Q1009=
201902010530 METAR LRTM 010530Z AUTO 09001KT 5000 BR SCT013/// BKN024///
                        02/01 Q1010=
201902010600 METAR LRTM 010600Z 11003KT 6000 FEW007 BKN027 02/01 Q1010
                        R07/29//95=
201902010630 METAR LRTM 010630Z 08003KT 6000 FEW012 SCT028 01/00 Q1010
                        R07/29//95=
201902010700 METAR LRTM 010700Z 09003KT 6000 FEW015 SCT030 01/00 Q1011
                        R07/29//95=
201902010730 METAR LRTM 010730Z 07004KT 5000 BR FEW012 SCT030 02/01 Q1011
                        R07/29//95=
201902010800 METAR LRTM 010800Z 14004KT 100V170 7000 FEW012 OVC032 04/02
                        Q1011 R07/29//95=
201902010830 METAR LRTM 010830Z 15005KT 7000 FEW013 BKN032 04/02 Q1011
                        R07/29//95=
201902010900 METAR LRTM 010900Z 14004KT 110V180 9999 FEW009 BKN032 05/02
                        Q1012 R07/29//95=
201902010930 METAR LRTM 010930Z 14006KT 120V190 9999 FEW013 BKN035 06/02
                        Q1012 R07/29//95=
201902011000 METAR LRTM 011000Z 14005KT 9999 FEW013 BKN035 06/02 Q1012
                        R07/19//95=
201902011030 METAR LRTM 011030Z 13004KT 9999 SCT038 06/02 Q1012 R07/19//95=
201902011100 METAR LRTM 011100Z 13003KT 050V210 9999 SCT038 06/02 Q1012
                        R07/19//95=
201902011130 METAR LRTM 011130Z 12003KT 050V180 9999 SCT040 06/02 Q1012
                        R07/19//95=
201902011200 METAR LRTM 011200Z VRB02KT 9999 SCT040 07/02 Q1011 R07/19//95=
201902011230 METAR LRTM 011230Z 07004KT 030V110 9999 BKN040 07/03 Q1011
                        R07/CLRD//=
201902011300 METAR LRTM 011300Z 07005KT 9999 BKN042 07/02 Q1011=
201902011330 METAR LRTM 011330Z 06006KT 9999 BKN042 07/02 Q1011=
201902011400 METAR LRTM 011400Z 07007KT 9999 BKN043 07/02 Q1011=
201902011430 METAR LRTM 011430Z 07006KT CAVOK 06/03 Q1011=
201902011500 METAR LRTM 011500Z 09004KT CAVOK 06/03 Q1011=
201902011530 METAR LRTM 011530Z 07006KT CAVOK 05/02 Q1011=
201902011600 METAR LRTM 011600Z 08006KT CAVOK 04/01 Q1011=
201902011630 METAR LRTM 011630Z 09006KT 8000 NSC 03/01 Q1011=
201902011700 METAR LRTM 011700Z 09007KT 8000 NSC 03/01 Q1011=
201902011730 METAR LRTM 011730Z 08004KT 8000 NSC 02/00 Q1011=
201902011800 METAR LRTM 011800Z 09006KT 8000 NSC 01/M01 Q1011=
201902011830 METAR LRTM 011830Z AUTO 08004KT 7000 NCD 01/M01 Q1011=
201902011900 METAR LRTM 011900Z AUTO 07005KT 9999 NCD 00/M01 Q1011=
201902011930 METAR LRTM 011930Z AUTO 07006KT 9999 NCD 01/M01 Q1011=
201902012000 METAR LRTM 012000Z AUTO 09005KT 9999 NCD 01/M01 Q1011=
201902012030 METAR LRTM 012030Z AUTO 09005KT 9999 NCD 02/M01 Q1011=
201902012100 METAR LRTM 012100Z AUTO 09008KT 9000 NCD 02/M01 Q1011=
201902012130 METAR LRTM 012130Z AUTO 08005KT 7000 NCD 00/M01 Q1011=
201902012200 METAR LRTM 012200Z AUTO 08006KT 7000 NCD 01/M01 Q1011=
201902012230 METAR LRTM 012230Z AUTO 09005KT 6000 NCD 00/M01 Q1011=
201902012300 METAR LRTM 012300Z AUTO 09006KT 7000 NCD 01/M01 Q1011=
201902012330 METAR LRTM 012330Z AUTO 09006KT 8000 NCD 00/M01 Q1011=
201902020000 METAR LRTM 020000Z AUTO 09006KT 9000 NCD 00/M01 Q1011=
201902020030 METAR LRTM 020030Z AUTO 10005KT 8000 FEW210/// 00/M01 Q1011=
201902020100 METAR LRTM 020100Z AUTO 09007KT 8000 BKN096/// 00/M01 Q1011=
201902020130 METAR LRTM 020130Z AUTO 09007KT 9000 SCT094/// 00/M01 Q1010=
201902020200 METAR LRTM 020200Z AUTO 09006KT 9000 FEW120/// SCT150///
                        00/M02 Q1010=
201902020230 METAR LRTM 020230Z AUTO 09007KT 9999 BKN096/// SCT120///
                        00/M01 Q1011=
201902020300 METAR LRTM 020300Z AUTO 09008KT 9000 SCT110/// 00/M01 Q1010=
201902020330 METAR LRTM 020330Z AUTO 10006KT 8000 BKN110/// M00/M02 Q1011=
201902020400 METAR LRTM 020400Z AUTO 10006KT 9000 FEW120/// SCT170///
                        M00/M02 Q1010=
201902020430 METAR LRTM 020430Z AUTO 09006KT 9999 BKN130/// M00/M02 Q1010=
201902020500 METAR LRTM 020500Z AUTO 09006KT 9000 FEW160/// M00/M02 Q1010=
201902020530 METAR LRTM 020530Z AUTO 10006KT 9999 BKN170/// M00/M02 Q1010=
201902020600 METAR LRTM 020600Z 09008KT CAVOK 00/M02 Q1010=
201902020630 METAR LRTM 020630Z 10006KT CAVOK 01/M01 Q1011=
201902020700 METAR LRTM 020700Z 09006KT CAVOK 00/M01 Q1011=
201902020730 METAR LRTM 020730Z 10005KT CAVOK 01/M01 Q1011=
201902020800 METAR LRTM 020800Z 09006KT 8000 NSC 02/M00 Q1011=
201902020830 METAR LRTM 020830Z 08009KT 8000 NSC 03/00 Q1011=
201902020900 METAR LRTM 020900Z 10006KT CAVOK 04/01 Q1011=
201902020930 METAR LRTM 020930Z 09006KT CAVOK 05/01 Q1011=
201902021000 METAR LRTM 021000Z 08008KT CAVOK 07/02 Q1010=
201902021030 METAR LRTM 021030Z 07006KT CAVOK 08/03 Q1010=
201902021100 METAR LRTM 021100Z 07005KT CAVOK 09/03 Q1010=
201902021130 METAR LRTM 021130Z 08005KT CAVOK 10/04 Q1010=
201902021200 METAR LRTM 021200Z 08006KT CAVOK 10/04 Q1009=
201902021230 METAR LRTM 021230Z 06005KT CAVOK 12/05 Q1009=
201902021300 METAR LRTM 021300Z 08005KT CAVOK 13/05 Q1009=
201902021330 METAR LRTM 021330Z 06006KT CAVOK 13/05 Q1009=
201902021400 METAR LRTM 021400Z 08005KT CAVOK 11/06 Q1009=
201902021430 METAR LRTM 021430Z 07006KT CAVOK 11/05 Q1008=
201902021500 METAR LRTM 021500Z 00000KT CAVOK 10/05 Q1009=
201902021530 METAR LRTM 021530Z 10004KT 070V130 CAVOK 08/04 Q1009=
201902021600 METAR LRTM 021600Z 09004KT CAVOK 07/04 Q1009=
201902021630 METAR LRTM 021630Z 08005KT CAVOK 06/03 Q1009=
201902021700 METAR LRTM 021700Z 08005KT CAVOK 06/03 Q1009=
201902021730 METAR LRTM 021730Z 09007KT CAVOK 07/03 Q1010=
201902021800 METAR LRTM 021800Z 09005KT CAVOK 06/02 Q1010=
201902021830 METAR LRTM 021830Z AUTO 08007KT 8000 BKN130/// 05/02 Q1010=
201902021900 METAR LRTM 021900Z AUTO 09006KT 9000 OVC120/// 05/02 Q1010=
201902021930 METAR LRTM 021930Z AUTO 09006KT 8000 OVC120/// 05/02 Q1010=
201902022000 METAR LRTM 022000Z AUTO 10008KT 7000 OVC120/// 05/02 Q1010=
201902022030 METAR LRTM 022030Z AUTO 09008KT 6000 BKN120/// 04/02 Q1010=
201902022100 METAR LRTM 022100Z AUTO 09007KT 8000 BKN120/// 04/02 Q1010=
201902022130 METAR LRTM 022130Z AUTO 10007KT 7000 SCT110/// 04/01 Q1010=
201902022200 METAR LRTM 022200Z AUTO 09007KT 6000 NCD 03/01 Q1010=
201902022230 METAR LRTM 022230Z AUTO 09008KT 6000 NCD 03/01 Q1010=
201902022300 METAR LRTM 022300Z AUTO 09008KT 6000 NCD 03/01 Q1010=
201902022330 METAR LRTM 022330Z AUTO 10007KT 6000 OVC100/// 03/01 Q1010=
201902030000 METAR LRTM 030000Z AUTO 09008KT 5000 BR FEW100/// 03/01 Q1010=
201902030030 METAR LRTM 030030Z AUTO 09007KT 6000 NCD 02/01 Q1010=
201902030100 METAR LRTM 030100Z AUTO 10008KT 6000 NCD 03/01 Q1010=
201902030130 METAR LRTM 030130Z AUTO 09005KT 6000 NCD 02/01 Q1010=
201902030200 METAR LRTM 030200Z AUTO 09006KT 6000 NCD 02/01 Q1009=
201902030230 METAR LRTM 030230Z AUTO 10006KT 6000 NCD 02/01 Q1010=
201902030300 METAR LRTM 030300Z AUTO 09007KT 7000 NCD 02/00 Q1010=
201902030330 METAR LRTM 030330Z AUTO 09007KT 6000 NCD 02/00 Q1010=
201902030400 METAR LRTM 030400Z AUTO 09008KT 6000 NCD 02/00 Q1010=
201902030430 METAR LRTM 030430Z AUTO 10008KT 6000 NCD 02/00 Q1010=
201902030500 METAR LRTM 030500Z AUTO 09007KT 5000 BR FEW130/// 02/00 Q1010=
201902030530 METAR LRTM 030530Z AUTO 09006KT 6000 FEW130/// 01/M00 Q1011=
201902030600 METAR LRTM 030600Z 09008KT 8000 NSC 02/00 Q1011=
201902030630 METAR LRTM 030630Z 09007KT 8000 NSC 02/00 Q1011=
201902030700 METAR LRTM 030700Z 09007KT 8000 FEW015 02/01 Q1011=
201902030730 METAR LRTM 030730Z 09007KT 7000 FEW015 03/01 Q1011=
201902030800 METAR LRTM 030800Z 10006KT 7000 FEW015 03/01 Q1011=
201902030830 METAR LRTM 030830Z 09005KT 7000 NSC 04/02 Q1011=
201902030900 METAR LRTM 030900Z 10005KT 070V140 6000 NSC 05/02 Q1011=
201902030930 METAR LRTM 030930Z 11003KT 070V150 6000 NSC 06/03 Q1011=
201902031000 METAR LRTM 031000Z 08004KT 050V110 6000 FEW016 07/04 Q1011=
201902031030 METAR LRTM 031030Z 08004KT 050V110 6000 FEW018 07/04 Q1011=
201902031100 METAR LRTM 031100Z 09005KT 7000 FEW024 09/04 Q1010=
201902031130 METAR LRTM 031130Z 11003KT 070V170 7000 FEW024 10/05 Q1011=
201902031200 METAR LRTM 031200Z 08008KT 7000 FEW028 11/05 Q1010=
201902031230 METAR LRTM 031230Z 08008KT 8000 NSC 11/06 Q1010=
201902031300 METAR LRTM 031300Z 09005KT 8000 NSC 11/06 Q1010=
201902031330 METAR LRTM 031330Z 09007KT 8000 NSC 11/06 Q1010=
201902031400 METAR LRTM 031400Z 11004KT 070V160 CAVOK 11/06 Q1010=
201902031430 METAR LRTM 031430Z 08010KT CAVOK 11/06 Q1010=
201902031500 METAR LRTM 031500Z 08011KT 9999 FEW040 12/05 Q1010=
201902031530 METAR LRTM 031530Z 08008KT 9999 FEW040 12/05 Q1009=
201902031600 METAR LRTM 031600Z 12004KT 080V200 CAVOK 10/04 Q1010=
201902031630 METAR LRTM 031630Z VRB01KT CAVOK 11/04 Q1010=
201902031700 METAR LRTM 031700Z VRB01KT CAVOK 11/04 Q1010=
201902031730 METAR LRTM 031730Z 13007KT CAVOK 11/04 Q1011=
201902031800 METAR LRTM 031800Z VRB02KT CAVOK 10/04 Q1011=
201902031830 METAR LRTM 031830Z AUTO VRB01KT 9999 SCT150/// SCT210///
                        10/03 Q1011=
201902031900 METAR LRTM 031900Z AUTO 15013KT 9999 SCT140/// 11/03 Q1011=
201902031930 METAR LRTM 031930Z AUTO 13007KT 9999 FEW240/// 10/03 Q1012=
201902032000 METAR LRTM 032000Z AUTO 07009KT 9999 FEW240/// 08/03 Q1012=
201902032030 METAR LRTM 032030Z AUTO 09005KT 9999 FEW240/// 07/03 Q1012=
201902032100 METAR LRTM 032100Z AUTO 09010KT 9999 FEW230/// 06/02 Q1013=
201902032130 METAR LRTM 032130Z AUTO 09009KT 9999 SCT230/// 06/02 Q1013=
201902032200 METAR LRTM 032200Z AUTO 10008KT 9000 FEW210/// 05/02 Q1014=
201902032230 METAR LRTM 032230Z AUTO 10007KT 9999 SCT220/// 05/02 Q1014=
201902032300 METAR LRTM 032300Z AUTO 08004KT 7000 FEW230/// 04/01 Q1015=
201902032330 METAR LRTM 032330Z AUTO 10005KT 9999 FEW240/// 04/02 Q1016=
201902040000 METAR LRTM 040000Z AUTO 07004KT 8000 FEW100/// 03/01 Q1016=
201902040030 METAR LRTM 040030Z AUTO 00000KT 6000 FEW095/// 02/00 Q1016=
201902040100 METAR LRTM 040100Z AUTO VRB01KT 8000 BKN094/// 03/01 Q1017=
201902040130 METAR LRTM 040130Z AUTO 09004KT 9999 FEW100/// 02/01 Q1017=
201902040200 METAR LRTM 040200Z AUTO 09005KT 8000 NCD 02/01 Q1017=
201902040230 METAR LRTM 040230Z AUTO 09005KT 9000 BKN079/// 03/01 Q1017=
201902040300 METAR LRTM 040300Z AUTO 03002KT 360V080 8000 OVC078/// 02/00
                        Q1018=
201902040330 METAR LRTM 040330Z AUTO 11004KT 6000 BKN079/// 02/01 Q1018=
201902040400 METAR LRTM 040400Z AUTO 07004KT 010V100 8000 NCD 03/00 Q1018=
201902040430 METAR LRTM 040430Z AUTO 08004KT 7000 FEW210/// 02/01 Q1019=
201902040500 METAR LRTM 040500Z AUTO 09004KT 8000 FEW210/// 02/00 Q1019=
201902040530 METAR LRTM 040530Z AUTO 09005KT 050V110 8000 FEW084/// 02/M00
                        Q1020=
201902040600 METAR LRTM 040600Z 08004KT 7000 FEW009 02/00 Q1020=
201902040630 METAR LRTM 040630Z 12006KT 8000 FEW009 03/01 Q1021=
201902040700 METAR LRTM 040700Z 01004KT 6000 FEW010 03/01 Q1021=
201902040730 METAR LRTM 040730Z VRB01KT 6000 FEW010 04/02 Q1022=
201902040800 METAR LRTM 040800Z 11002KT 6000 FEW011 05/02 Q1022=
201902040830 METAR LRTM 040830Z 32003KT 290V350 7000 FEW011 06/02 Q1023=
201902040900 METAR LRTM 040900Z 10002KT 7000 FEW012 07/03 Q1022=
201902040930 METAR LRTM 040930Z VRB02KT 8000 NSC 09/03 Q1023=
201902041000 METAR LRTM 041000Z 13003KT 080V220 8000 NSC 09/03 Q1023=
201902041030 METAR LRTM 041030Z VRB01KT 9000 NSC 10/04 Q1023=
201902041100 METAR LRTM 041100Z 19002KT CAVOK 11/04 Q1023=
201902041130 METAR LRTM 041130Z VRB02KT CAVOK 12/05 Q1023=
201902041200 METAR LRTM 041200Z 27003KT 240V310 CAVOK 12/05 Q1023=
201902041230 METAR LRTM 041230Z 34006KT CAVOK 11/05 Q1023=
201902041300 METAR LRTM 041300Z 35006KT CAVOK 11/05 Q1023=
201902041330 METAR LRTM 041330Z 34006KT CAVOK 12/05 Q1023=
201902041400 METAR LRTM 041400Z 33006KT 290V360 CAVOK 12/05 Q1023=
201902041430 METAR LRTM 041430Z 33005KT CAVOK 11/05 Q1024=
201902041500 METAR LRTM 041500Z 29006KT 260V320 CAVOK 10/06 Q1024=
201902041530 METAR LRTM 041530Z 31008KT CAVOK 09/06 Q1024=
201902041600 METAR LRTM 041600Z 31007KT CAVOK 08/05 Q1024=
201902041630 METAR LRTM 041630Z 29007KT 260V320 CAVOK 08/04 Q1025=
201902041700 METAR LRTM 041700Z 28002KT CAVOK 08/04 Q1025=
201902041730 METAR LRTM 041730Z 29003KT 260V020 CAVOK 07/04 Q1025=
201902041800 METAR LRTM 041800Z 34003KT 310V010 CAVOK 07/03 Q1025=
201902041830 METAR LRTM 041830Z AUTO 29002KT 250V340 9999 BKN130/// BKN160///
                        06/03 Q1026=
201902041900 METAR LRTM 041900Z AUTO 29003KT 260V340 9999 BKN130/// BKN160///
                        06/03 Q1026=
201902041930 METAR LRTM 041930Z AUTO 28004KT 9999 SCT120/// BKN160///
                        06/03 Q1026=
201902042000 METAR LRTM 042000Z AUTO 27004KT 9999 OVC130/// 06/03 Q1026=
201902042030 METAR LRTM 042030Z AUTO 27004KT 9999 FEW120/// BKN150///
                        05/03 Q1026=
201902042100 METAR LRTM 042100Z AUTO 28004KT 9999 FEW120/// BKN160///
                        05/02 Q1027=
201902042130 METAR LRTM 042130Z AUTO 27005KT 9999 SCT120/// BKN160///
                        04/02 Q1027=
201902042200 METAR LRTM 042200Z AUTO 27004KT 9999 OVC130/// 04/02 Q1027=
201902042230 METAR LRTM 042230Z AUTO 24002KT 190V280 9000 OVC130/// 03/02
                        Q1027=
201902042300 METAR LRTM 042300Z AUTO 27003KT 9000 OVC120/// 03/01 Q1027=
201902042330 METAR LRTM 042330Z AUTO VRB01KT 7000 BKN120/// 03/01 Q1027=
201902050000 METAR LRTM 050000Z AUTO 00000KT 7000 OVC120/// 02/01 Q1027=
201902050030 METAR LRTM 050030Z AUTO 25002KT 6000 OVC130/// 02/01 Q1027=
201902050100 METAR LRTM 050100Z AUTO 24003KT 200V270 6000 BKN130/// SCT170///
                        02/01 Q1027=
201902050130 METAR LRTM 050130Z AUTO 24003KT 3500 R07/2000 BR FEW120///
                        BKN150/// 01/00 Q1026=
201902050200 METAR LRTM 050200Z AUTO 24003KT 3500 R07/2000 BR FEW150///
                        02/01 Q1026=
201902050230 METAR LRTM 050230Z AUTO 24002KT 4900 BR SCT140/// 02/01 Q1026=
201902050300 METAR LRTM 050300Z AUTO 00000KT 5000 BR SCT120/// 02/01 Q1026=
201902050330 METAR LRTM 050330Z AUTO 00000KT 5000 BR SCT110/// 02/01 Q1026=
201902050400 METAR LRTM 050400Z AUTO 04001KT 4900 BR SCT120/// 02/01 Q1026=
201902050430 METAR LRTM 050430Z AUTO 00000KT 5000 BR FEW130/// 02/01 Q1026=
201902050500 METAR LRTM 050500Z AUTO 17002KT 100V200 4600 BR FEW007///
                        SCT120/// 02/01 Q1026=
201902050530 METAR LRTM 050530Z AUTO 00000KT 4900 BR BKN140/// 02/01 Q1026=
201902050600 METAR LRTM 050600Z 00000KT 5000 BR FEW008 02/01 Q1026=
201902050630 METAR LRTM 050630Z 00000KT 4000 BR SCT006 02/01 Q1026=
201902050700 METAR LRTM 050700Z 00000KT 3800 BR SCT006 03/02 Q1026=
201902050730 METAR LRTM 050730Z VRB02KT 4000 BR SCT005 03/02 Q1026=
201902050800 METAR LRTM 050800Z 11003KT 080V140 5000 BR FEW004 04/02 Q1026=
201902050830 METAR LRTM 050830Z 09003KT 050V120 4500 BR FEW004 04/02 Q1026=
201902050900 METAR LRTM 050900Z 08003KT 010V120 5000 BR FEW005 05/02 Q1026=
201902050930 METAR LRTM 050930Z 07004KT 040V100 6000 FEW006 06/03 Q1025=
201902051000 METAR LRTM 051000Z VRB02KT 8000 FEW008 06/03 Q1025=
201902051030 METAR LRTM 051030Z 29003KT 260V330 6000 SCT006 06/03 Q1025=
201902051100 METAR LRTM 051100Z 27004KT 220V320 6000 SCT006 07/04 Q1025=
201902051130 METAR LRTM 051130Z VRB04KT 8000 SCT008 07/04 Q1025=
201902051200 METAR LRTM 051200Z 27003KT 230V320 8000 NSC 08/04 Q1025=
201902051230 METAR LRTM 051230Z VRB01KT 8000 NSC 08/04 Q1024=
201902051300 METAR LRTM 051300Z VRB01KT 8000 NSC 08/04 Q1024=
201902051330 METAR LRTM 051330Z VRB02KT 8000 NSC 08/04 Q1024=
201902051400 METAR LRTM 051400Z 25003KT 220V280 8000 NSC 09/05 Q1024=
201902051430 METAR LRTM 051430Z 29005KT 270V330 8000 NSC 09/05 Q1024=
201902051500 METAR LRTM 051500Z 28003KT 8000 NSC 08/05 Q1024=
201902051530 METAR LRTM 051530Z 27004KT 7000 NSC 07/04 Q1024=
201902051600 METAR LRTM 051600Z 32005KT 270V330 7000 NSC 07/04 Q1024=
201902051630 METAR LRTM 051630Z 27004KT 7000 NSC 06/04 Q1024=
201902051700 METAR LRTM 051700Z VRB02KT 6000 NSC 05/03 Q1024=
201902051730 METAR LRTM 051730Z 24004KT 6000 NSC 04/02 Q1024=
201902051800 METAR LRTM 051800Z 22004KT 5000 BR NSC 02/01 Q1024=
201902051830 METAR LRTM 051830Z AUTO 24006KT 2100 BR NCD 01/00 Q1024=
201902051900 METAR LRTM 051900Z AUTO 24006KT 3500 R07/2000 BR NCD 02/02
                        Q1024=
201902051930 METAR LRTM 051930Z AUTO 24005KT 3300 BR NCD 02/02 Q1024=
201902052000 METAR LRTM 052000Z AUTO 23004KT 2500 FEW007/// 01/01 Q1024=
201902052030 METAR LRTM 052030Z AUTO 00000KT 2300 R07/1700VP2000U FEW006///
                        SCT007/// 01/01 Q1024=
201902052100 METAR LRTM 052100Z AUTO VRB01KT 3500 FEW004/// SCT005///
                        03/02 Q1024=
201902052130 METAR LRTM 052130Z AUTO 24002KT 210V280 4400 BR FEW004///
                        BKN005/// 03/02 Q1024=
201902052200 METAR LRTM 052200Z AUTO 25004KT 4200 BR FEW003/// BKN004///
                        04/03 Q1024=
201902052230 METAR LRTM 052230Z AUTO 29004KT 260V320 4400 BR FEW002///
                        SCT003/// 04/03 Q1024=
201902052300 METAR LRTM 052300Z AUTO 30006KT 270V330 4200 BR SCT002///
                        SCT003/// 04/03 Q1024=
201902052330 METAR LRTM 052330Z AUTO 28004KT 250V310 3800 BR FEW002///
                        SCT003/// 04/03 Q1024=
201902060000 METAR LRTM 060000Z AUTO 26003KT 3300 R07/2000 BR FEW002///
                        BKN003/// 04/03 Q1024=
201902060030 METAR LRTM 060030Z AUTO 31002KT 240V010 4500 BR SCT003///
                        SCT004/// 04/03 Q1024=
201902060100 METAR LRTM 060100Z AUTO 29002KT 220V350 4100 BR FEW002///
                        SCT003/// BKN004/// 04/03 Q1024=
201902060130 METAR LRTM 060130Z AUTO 00000KT 2500 BR FEW001/// SCT003///
                        04/03 Q1024=
201902060200 METAR LRTM 060200Z AUTO VRB01KT 2900 BR FEW002/// SCT003///
                        04/03 Q1024=
201902060230 METAR LRTM 060230Z AUTO 00000KT 3400 BR FEW003/// SCT004///
                        04/03 Q1023=
201902060300 METAR LRTM 060300Z AUTO 31003KT 4300 BR FEW003/// SCT007///
                        04/03 Q1023=
201902060330 METAR LRTM 060330Z AUTO 32005KT 4500 BR FEW004/// SCT007///
                        04/03 Q1023=
201902060400 METAR LRTM 060400Z AUTO 33004KT 4000 R07/2000 BR FEW003///
                        SCT004/// 04/03 Q1023=
201902060430 METAR LRTM 060430Z AUTO 30003KT 3800 BR FEW004/// SCT007///
                        04/03 Q1023=
201902060500 METAR LRTM 060500Z AUTO 31004KT 3700 BR FEW004/// SCT005///
                        04/03 Q1023=
201902060530 METAR LRTM 060530Z AUTO 34003KT 4200 BR FEW003/// SCT006///
                        04/03 Q1023=
201902060600 METAR LRTM 060600Z 32004KT 4200 BR BKN004 OVC006 04/03 Q1023=
201902060630 METAR LRTM 060630Z 34003KT 280V030 4600 BR BKN003 OVC004
                        04/03 Q1023=
201902060700 METAR LRTM 060700Z 32004KT 290V360 4800 BR BKN002 OVC003
                        04/03 Q1024=
201902060730 METAR LRTM 060730Z 31003KT 3000 BR SCT001 OVC003 04/03 Q1023=
201902060800 METAR LRTM 060800Z 31005KT 270V330 1500 BR SCT001 OVC003
                        04/03 Q1023=
201902060830 METAR LRTM 060830Z 32005KT 280V350 1300 R07/1700U BR SCT001
                        OVC003 04/03 Q1024=
201902060900 METAR LRTM 060900Z 31005KT 270V340 3700 BR SCT002 OVC005
                        04/03 Q1024=
201902060930 METAR LRTM 060930Z 32006KT 4000 BR SCT002 OVC005 04/03 Q1024=
201902061000 METAR LRTM 061000Z 33006KT 5000 BR SCT002 OVC005 04/03 Q1024=
201902061030 METAR LRTM 061030Z 34004KT 300V020 6000 SCT004 OVC007 04/03
                        Q1024=
201902061100 METAR LRTM 061100Z VRB02KT 9999 SCT007 OVC010 05/03 Q1023=
201902061130 METAR LRTM 061130Z 32004KT 290V010 9999 FEW006 OVC008 05/03
                        Q1023=
201902061200 METAR LRTM 061200Z 29003KT 260V340 9999 FEW007 OVC010 05/03
                        Q1023=
201902061230 METAR LRTM 061230Z 32004KT 280V360 9999 SCT008 OVC010 05/03
                        Q1023=
201902061300 METAR LRTM 061300Z 34005KT 300V360 9000 SCT009 BKN011 OVC025
                        05/03 Q1023=
201902061330 METAR LRTM 061330Z 02004KT 350V060 9000 FEW009 SCT012 BKN024
                        05/03 Q1023=
201902061400 METAR LRTM 061400Z 07004KT 040V100 9999 FEW009 SCT012 BKN023
                        05/03 Q1023=
201902061430 METAR LRTM 061430Z 09003KT 050V130 9999 SCT015 BKN021 05/03
                        Q1023=
201902061500 METAR LRTM 061500Z 06003KT 300V090 9999 SCT013 BKN022 05/03
                        Q1022=
201902061530 METAR LRTM 061530Z 04002KT 9999 SCT015 BKN023 05/03 Q1022=
201902061600 METAR LRTM 061600Z 02003KT 330V050 9999 SCT012 BKN022 05/02
                        Q1023=
201902061630 METAR LRTM 061630Z 34006KT 9999 SCT011 OVC022 05/01 Q1023=
201902061700 METAR LRTM 061700Z 01005KT 340V040 9999 SCT011 BKN023 05/01
                        Q1023=
201902061730 METAR LRTM 061730Z 32006KT 9999 FEW011 BKN023 03/01 Q1023=
201902061800 METAR LRTM 061800Z 31005KT 280V340 9999 FEW013 BKN026 03/01
                        Q1023=
201902061830 METAR LRTM 061830Z AUTO 25005KT 8000 FEW014/// BKN020///
                        03/01 Q1024=
201902061900 METAR LRTM 061900Z AUTO 24006KT 8000 FEW014/// SCT018///
                        BKN023/// 03/01 Q1024=
201902061930 METAR LRTM 061930Z AUTO 24005KT 8000 FEW010/// BKN024///
                        03/01 Q1024=
201902062000 METAR LRTM 062000Z AUTO 25005KT 7000 FEW009/// BKN024///
                        03/01 Q1024=
201902062030 METAR LRTM 062030Z AUTO 24004KT 7000 FEW012/// OVC025///
                        03/01 Q1024=
201902062100 METAR LRTM 062100Z AUTO 24004KT 7000 FEW007/// OVC026///
                        03/01 Q1024=
201902062130 METAR LRTM 062130Z AUTO 24004KT 7000 FEW007/// OVC024///
                        03/01 Q1024=
201902062200 METAR LRTM 062200Z AUTO 24003KT 6000 FEW007/// BKN023///
                        03/01 Q1024=
201902062230 METAR LRTM 062230Z AUTO 22003KT 6000 FEW007/// BKN009///
                        03/01 Q1024=
201902062300 METAR LRTM 062300Z AUTO 24003KT 7000 FEW007/// BKN008///
                        03/01 Q1024=
201902062330 METAR LRTM 062330Z AUTO 25003KT 6000 FEW006/// BKN007///
                        03/01 Q1024=
201902070000 METAR LRTM 070000Z AUTO 24003KT 6000 FEW006/// BKN007///
                        03/01 Q1024=
201902070030 METAR LRTM 070030Z AUTO 23003KT 6000 FEW007/// BKN008///
                        03/01 Q1024=
201902070100 METAR LRTM 070100Z AUTO 21003KT 5000 BR FEW007/// BKN008///
                        03/02 Q1024=
201902070130 METAR LRTM 070130Z AUTO 18002KT 6000 FEW007/// BKN008///
                        03/01 Q1024=
201902070200 METAR LRTM 070200Z AUTO 00000KT 6000 BKN007/// 03/01 Q1024=
201902070230 METAR LRTM 070230Z AUTO VRB01KT 6000 FEW006/// BKN007///
                        03/01 Q1024=
201902070300 METAR LRTM 070300Z AUTO 17003KT 6000 BKN006/// 03/01 Q1024=
201902070330 METAR LRTM 070330Z AUTO 17002KT 140V210 6000 FEW005/// BKN006///
                        03/01 Q1024=
201902070400 METAR LRTM 070400Z AUTO 12002KT 080V150 6000 FEW005/// BKN006///
                        02/01 Q1024=
201902070430 METAR LRTM 070430Z AUTO 20002KT 6000 SCT005/// SCT007///
                        02/01 Q1024=
201902070500 METAR LRTM 070500Z AUTO 17003KT 6000 FEW005/// BKN006///
                        02/01 Q1024=
201902070530 METAR LRTM 070530Z AUTO 24001KT 5000 BR FEW004/// SCT008///
                        02/01 Q1024=
201902070600 METAR LRTM 070600Z 25002KT 5000 BR SCT003 OVC022 02/01 Q1024=
201902070630 METAR LRTM 070630Z VRB01KT 5000 BR SCT005 OVC022 02/01 Q1024=
201902070700 METAR LRTM 070700Z 00000KT 5000 BR SCT006 OVC022 03/01 Q1024=
201902070730 METAR LRTM 070730Z 08003KT 5000 BR SCT004 OVC020 03/01 Q1024=
201902070800 METAR LRTM 070800Z 06003KT 030V090 5000 BR SCT004 BKN023
                        03/01 Q1024=
201902070830 METAR LRTM 070830Z VRB02KT 6000 SCT005 BKN030 03/00 Q1024=
201902070900 METAR LRTM 070900Z 07003KT 020V120 7000 FEW006 SCT012 BKN032
                        04/01 Q1024=
201902070930 METAR LRTM 070930Z VRB02KT 8000 FEW006 SCT012 BKN035 04/01
                        Q1024=
201902071000 METAR LRTM 071000Z VRB02KT 9000 FEW008 BKN035 05/01 Q1024=
201902071030 METAR LRTM 071030Z VRB02KT 9999 FEW010 BKN031 05/01 Q1023=
201902071100 METAR LRTM 071100Z 27003KT 230V290 9999 FEW012 BKN027 05/00
                        Q1023=
201902071130 METAR LRTM 071130Z VRB01KT 9999 BKN033 05/00 Q1023=
201902071200 METAR LRTM 071200Z VRB01KT 9999 BKN031 05/M01 Q1023=
201902071230 METAR LRTM 071230Z VRB02KT 9999 BKN028 05/M01 Q1022=
201902071300 METAR LRTM 071300Z VRB02KT 9999 FEW025 BKN032 05/M01 Q1022=
201902071330 METAR LRTM 071330Z VRB01KT 9999 FEW025 BKN032 05/M01 Q1022=
201902071400 METAR LRTM 071400Z 25005KT 9999 FEW025 BKN033 05/M02 Q1022=
201902071430 METAR LRTM 071430Z 25003KT 9999 BKN033 05/M02 Q1022=
201902071500 METAR LRTM 071500Z 25003KT 9999 BKN034 05/M01 Q1022=
201902071530 METAR LRTM 071530Z 23005KT 9999 BKN035 04/M02 Q1022=
201902071600 METAR LRTM 071600Z 24005KT 9999 BKN034 03/M03 Q1022=
201902071630 METAR LRTM 071630Z 24004KT 9999 BKN033 02/M02 Q1022=
201902071700 METAR LRTM 071700Z 19002KT 9999 FEW033 01/M02 Q1022=
201902071730 METAR LRTM 071730Z VRB02KT CAVOK 00/M03 Q1022=
201902071800 METAR LRTM 071800Z 00000KT CAVOK 00/M03 Q1022=
201902071830 METAR LRTM 071830Z 03002KT CAVOK M01/M03 Q1021=
201902071900 METAR LRTM 071900Z 08003KT CAVOK M02/M03 Q1021=
201902071930 METAR LRTM 071930Z 09005KT CAVOK M03/M04 Q1021=
201902072000 METAR COR LRTM 072000Z 09004KT CAVOK M03/M04 Q1021=
201902072030 METAR COR LRTM 072030Z 07003KT CAVOK M02/M04 Q1021=
201902072100 METAR LRTM 072100Z 09003KT 8000 BKN033 M03/M04 Q1021=
201902072130 METAR LRTM 072130Z 08005KT 8000 FEW034 M02/M04 Q1021=
201902072200 METAR LRTM 072200Z 09005KT 7000 SCT036 M02/M04 Q1021=
201902072230 METAR LRTM 072230Z 09004KT 7000 BKN035 M02/M03 Q1021=
201902072300 METAR LRTM 072300Z 08003KT 8000 OVC034 M01/M03 Q1021=
201902072330 METAR LRTM 072330Z 07004KT 7000 OVC034 M01/M03 Q1021=
201902080000 METAR LRTM 080000Z 08004KT 7000 OVC035 M02/M03 Q1021=
201902080030 METAR LRTM 080030Z 08004KT 6000 OVC034 M02/M03 Q1021=
201902080100 METAR LRTM 080100Z 09005KT 6000 OVC034 M02/M03 Q1020=
201902080130 METAR LRTM 080130Z 10004KT 6000 OVC035 M02/M03 Q1020=
201902080200 METAR LRTM 080200Z 09004KT 6000 OVC035 M02/M03 Q1020=
201902080230 METAR LRTM 080230Z 09004KT 5000 BR OVC034 M02/M03 Q1020=
201902080300 METAR LRTM 080300Z 09004KT 5000 BR FEW008 OVC035 M02/M03
                        Q1020=
201902080330 METAR LRTM 080330Z 11004KT 5000 BR FEW007 OVC035 M02/M03
                        Q1020=
201902080400 METAR LRTM 080400Z 09004KT 5000 BR FEW008 BKN034 M01/M03
                        Q1020=
201902080430 METAR LRTM 080430Z 09004KT 5000 BR FEW008 OVC034 M01/M03
                        Q1020=
201902080500 METAR LRTM 080500Z 10004KT 6000 OVC034 M01/M03 Q1020=
201902080530 METAR LRTM 080530Z 09004KT 4000 BR FEW007 OVC034 M01/M02
                        Q1020=
201902080600 METAR LRTM 080600Z 09003KT 4000 BR SCT007 OVC034 M01/M02
                        Q1020=
201902080630 METAR LRTM 080630Z 09002KT 4500 BR SCT007 OVC034 M01/M02
                        Q1021=
201902080700 METAR LRTM 080700Z 09003KT 5000 BR SCT008 OVC034 M01/M02
                        Q1021=
201902080730 METAR LRTM 080730Z 09002KT 5000 BR SCT008 OVC034 M00/M02
                        Q1021=
201902080800 METAR LRTM 080800Z 08002KT 5000 BR SCT007 OVC034 00/M01 Q1021=
201902080830 METAR LRTM 080830Z 10002KT 6000 SCT008 OVC034 01/M01 Q1021=
201902080900 METAR LRTM 080900Z 06002KT 8000 SCT009 OVC034 01/M02 Q1021=
201902080930 METAR LRTM 080930Z 03002KT 8000 SCT009 OVC035 02/M01 Q1021=
201902081000 METAR LRTM 081000Z 32002KT 7000 FEW009 OVC035 03/M01 Q1021=
201902081030 METAR LRTM 081030Z 16002KT 9999 SCT010 BKN035 04/M03 Q1021=
201902081100 METAR LRTM 081100Z 10002KT 9999 SCT010 OVC034 04/M04 Q1021=
201902081130 METAR LRTM 081130Z VRB02KT 9999 SCT010 OVC032 04/M04 Q1021=
201902081200 METAR LRTM 081200Z VRB01KT 9999 FEW011 OVC032 04/M04 Q1021=
201902081230 METAR LRTM 081230Z 35004KT 290V050 9999 FEW012 BKN032 04/M04
                        Q1021=
201902081300 METAR LRTM 081300Z 33004KT 270V360 9999 FEW012 BKN033 04/M03
                        Q1021=
201902081330 METAR LRTM 081330Z 36004KT 320V040 9999 FEW012 OVC030 04/M03
                        Q1021=
201902081400 METAR LRTM 081400Z 32004KT 280V340 9999 FEW012 OVC033 04/M03
                        Q1021=
201902081430 METAR LRTM 081430Z 34004KT 270V020 9999 FEW012 OVC032 03/M04
                        Q1021=
201902081500 METAR LRTM 081500Z VRB02KT 9999 FEW012 OVC033 03/M05 Q1021=
201902081530 METAR LRTM 081530Z 00000KT 9999 SCT013 OVC033 03/M04 Q1021=
201902081600 METAR LRTM 081600Z 00000KT 9999 SCT013 OVC033 03/M03 Q1021=
201902081630 METAR LRTM 081630Z 00000KT 9999 FEW013 OVC032 03/M04 Q1021=
201902081700 METAR LRTM 081700Z 00000KT 9999 OVC032 03/M03 Q1021=
201902081730 METAR LRTM 081730Z 31002KT 9999 OVC033 03/M03 Q1021=
201902081800 METAR LRTM 081800Z 29004KT 250V330 9999 OVC034 03/M04 Q1021=
201902081830 METAR LRTM 081830Z AUTO 31004KT 9999 OVC035/// 02/M04 Q1021=
201902081900 METAR LRTM 081900Z AUTO 02003KT 330V050 9999 OVC036/// 02/M04
                        Q1021=
201902081930 METAR LRTM 081930Z AUTO 29002KT 260V330 9999 OVC036/// 02/M04
                        Q1022=
201902082000 METAR LRTM 082000Z AUTO VRB01KT 9999 OVC036/// 01/M03 Q1022=
201902082030 METAR LRTM 082030Z AUTO 36001KT 9999 OVC036/// 01/M03 Q1022=
201902082100 METAR LRTM 082100Z AUTO 02003KT 9999 OVC035/// 02/M04 Q1022=
201902082130 METAR LRTM 082130Z AUTO 08002KT 020V130 9999 OVC035/// 01/M03
                        Q1022=
201902082200 METAR LRTM 082200Z AUTO 09003KT 050V110 9999 OVC035/// 01/M03
                        Q1022=
201902082230 METAR LRTM 082230Z AUTO VRB01KT 9999 OVC035/// 01/M04 Q1022=
201902082300 METAR LRTM 082300Z AUTO VRB01KT 9999 OVC035/// 01/M02 Q1022=
201902082330 METAR LRTM 082330Z AUTO VRB01KT 9999 OVC035/// 01/M02 Q1022=
201902090000 METAR LRTM 090000Z AUTO VRB01KT 9999 OVC035/// 01/M03 Q1021=
201902090030 METAR LRTM 090030Z AUTO 00000KT 9999 OVC034/// 01/M02 Q1021=
201902090100 METAR LRTM 090100Z AUTO 00000KT 9999 OVC035/// 01/M02 Q1021=
201902090130 METAR LRTM 090130Z AUTO VRB01KT 9999 OVC034/// 01/M03 Q1021=
201902090200 METAR LRTM 090200Z AUTO 00000KT 9999 OVC035/// 01/M02 Q1021=
201902090230 METAR LRTM 090230Z AUTO 24001KT 9999 OVC034/// 00/M03 Q1021=
201902090300 METAR LRTM 090300Z AUTO VRB01KT 9999 OVC034/// 01/M02 Q1021=
201902090330 METAR LRTM 090330Z AUTO 00000KT 9999 OVC034/// 01/M03 Q1021=
201902090400 METAR LRTM 090400Z AUTO 00000KT 9999 OVC034/// 01/M03 Q1021=
201902090430 METAR LRTM 090430Z AUTO 00000KT 9999 OVC034/// 00/M03 Q1021=
201902090500 METAR LRTM 090500Z AUTO 00000KT 9999 OVC034/// 01/M03 Q1021=
201902090530 METAR LRTM 090530Z AUTO VRB01KT 9000 OVC034/// 00/M03 Q1021=
201902090600 METAR LRTM 090600Z 08003KT 9999 SCT035 00/M02 Q1021=
201902090630 METAR LRTM 090630Z 11003KT 9999 BKN033 01/M03 Q1021=
201902090700 METAR LRTM 090700Z 10003KT 9999 BKN033 01/M03 Q1021=
201902090730 METAR LRTM 090730Z 08004KT 9999 BKN033 01/M03 Q1021=
201902090800 METAR LRTM 090800Z 14002KT 9999 BKN031 02/M05 Q1021=
201902090830 METAR LRTM 090830Z 07002KT 9999 BKN028 02/M05 Q1021=
201902090900 METAR LRTM 090900Z 02003KT 9999 BKN028 03/M05 Q1021=
201902090930 METAR LRTM 090930Z 36004KT 320V030 9999 BKN030 03/M05 Q1021=
201902091000 METAR LRTM 091000Z 35004KT 320V020 9999 BKN031 03/M05 Q1021=
201902091030 METAR LRTM 091030Z VRB01KT 9999 OVC032 03/M05 Q1021=
201902091100 METAR LRTM 091100Z 05003KT 350V140 9999 BKN033 03/M05 Q1021=
201902091130 METAR LRTM 091130Z VRB02KT 9999 BKN033 04/M05 Q1020=
201902091200 METAR LRTM 091200Z 04004KT 350V080 9999 SCT033 04/M05 Q1020=
201902091230 METAR LRTM 091230Z VRB02KT 9999 SCT033 04/M05 Q1020=
201902091300 METAR LRTM 091300Z 35003KT 290V050 9999 BKN034 04/M05 Q1020=
201902091330 METAR LRTM 091330Z 04003KT 9999 BKN034 04/M05 Q1020=
201902091400 METAR LRTM 091400Z 05004KT 9999 SCT033 04/M04 Q1020=
201902091430 METAR LRTM 091430Z 35006KT 320V020 9999 SCT034 04/M04 Q1020=
201902091500 METAR LRTM 091500Z 35004KT 9999 FEW034 03/M04 Q1020=
201902091530 METAR LRTM 091530Z 02003KT 9999 FEW034 02/M05 Q1020=
201902091600 METAR LRTM 091600Z 02003KT 340V070 CAVOK 00/M04 Q1020=
201902091630 METAR LRTM 091630Z VRB01KT CAVOK 00/M04 Q1020=
201902091700 METAR LRTM 091700Z 00000KT CAVOK M00/M04 Q1020=
201902091730 METAR LRTM 091730Z 00000KT CAVOK M01/M05 Q1020=
201902091800 METAR LRTM 091800Z 07004KT CAVOK M01/M04 Q1020=
201902091830 METAR LRTM 091830Z AUTO 07002KT 7000 FEW036/// SCT230///
                        M02/M04 Q1021=
201902091900 METAR LRTM 091900Z AUTO 11004KT 6000 FEW036/// M02/M05 Q1021=
201902091930 METAR LRTM 091930Z AUTO 09003KT 6000 FEW220/// M02/M04 Q1021=
201902092000 METAR LRTM 092000Z AUTO 05001KT 6000 FEW170/// M02/M04 Q1021=
201902092030 METAR LRTM 092030Z AUTO 00000KT 5000 BR FEW200/// M02/M04
                        Q1021=
201902092100 METAR LRTM 092100Z AUTO 00000KT 5000 BR BKN150/// M03/M05
                        Q1022=
201902092130 METAR LRTM 092130Z AUTO 00000KT 5000 BR OVC160/// M03/M04
                        Q1021=
201902092200 METAR LRTM 092200Z AUTO VRB01KT 5000 BR BKN160/// M03/M04
                        Q1021=
201902092230 METAR LRTM 092230Z AUTO 00000KT 5000 BR SCT170/// M03/M04
                        Q1021=
201902092300 METAR LRTM 092300Z AUTO 00000KT 4300 BR NCD M04/M05 Q1021=
201902092330 METAR LRTM 092330Z AUTO VRB01KT 3300 BR NCD M04/M04 Q1021=
201902100000 METAR LRTM 100000Z AUTO 00000KT 3700 BR NCD M04/M05 Q1022=
201902100030 METAR LRTM 100030Z AUTO 00000KT 3700 BR NCD M05/M06 Q1022=
201902100100 METAR LRTM 100100Z AUTO 33003KT 4100 BR NCD M04/M05 Q1022=
201902100130 METAR LRTM 100130Z AUTO 23002KT 3500 R07/2000 BR NCD M05/M06
                        Q1022=
201902100200 METAR LRTM 100200Z AUTO 27002KT 4300 BR NCD M05/M06 Q1022=
201902100230 METAR LRTM 100230Z AUTO 00000KT 3200 R07/2000 BR NCD M05/M06
                        Q1022=
201902100300 METAR LRTM 100300Z AUTO 00000KT 4800 BR NCD M06/M07 Q1022=
201902100330 METAR LRTM 100330Z AUTO 00000KT 5000 BR SCT170/// M05/M07
                        Q1022=
201902100400 METAR LRTM 100400Z AUTO 00000KT 5000 BR FEW170/// M06/M07
                        Q1022=
201902100430 METAR LRTM 100430Z AUTO 00000KT 5000 BR NCD M05/M07 Q1022=
201902100500 METAR LRTM 100500Z AUTO 00000KT 4800 BR NCD M05/M07 Q1022=
201902100530 METAR LRTM 100530Z AUTO 00000KT 4600 BR FEW002/// M06/M07
                        Q1022=
201902100600 METAR LRTM 100600Z 00000KT 2000 BR FEW004 M05/M06 Q1022=
201902100630 METAR LRTM 100630Z 00000KT 2800 BR FEW003 M04/M06 Q1022=
201902100700 METAR LRTM 100700Z 10002KT 3200 BR FEW003 M04/M05 Q1022=
201902100730 METAR LRTM 100730Z 09005KT 3200 BR FEW004 M03/M05 Q1022=
201902100800 METAR LRTM 100800Z 07005KT 3900 BR FEW005 M02/M04 Q1022=
201902100830 METAR LRTM 100830Z 06005KT 4200 BR FEW007 M01/M04 Q1021=
201902100900 METAR LRTM 100900Z 07005KT 030V100 5000 BR FEW008 M00/M03
                        Q1021=
201902100930 METAR LRTM 100930Z 07004KT 010V100 6000 FEW010 01/M03 Q1021=
201902101000 METAR LRTM 101000Z 05004KT 010V090 6000 FEW010 02/M03 Q1021=
201902101030 METAR LRTM 101030Z 08004KT 010V130 7000 FEW010 03/M03 Q1020=
201902101100 METAR LRTM 101100Z 10004KT 360V150 8000 FEW010 04/M04 Q1020=
201902101130 METAR LRTM 101130Z 07004KT 030V120 8000 FEW010 04/M04 Q1019=
201902101200 METAR LRTM 101200Z 09004KT 030V160 CAVOK 05/M03 Q1019=
201902101230 METAR LRTM 101230Z 07004KT 020V120 CAVOK 05/M03 Q1018=
201902101300 METAR LRTM 101300Z 05003KT 340V100 CAVOK 06/M02 Q1018=
201902101330 METAR LRTM 101330Z 06003KT 360V110 CAVOK 06/M03 Q1017=
201902101400 METAR LRTM 101400Z 11003KT 010V160 CAVOK 06/M03 Q1017=
201902101430 METAR LRTM 101430Z 00000KT CAVOK 06/M03 Q1017=
201902101500 METAR LRTM 101500Z 00000KT CAVOK 05/M02 Q1016=
201902101530 METAR LRTM 101530Z 00000KT CAVOK 04/M02 Q1016=
201902101600 METAR LRTM 101600Z 00000KT CAVOK 03/M01 Q1016=
201902101630 METAR LRTM 101630Z 00000KT CAVOK 02/M02 Q1015=
201902101700 METAR LRTM 101700Z 27002KT CAVOK 01/M02 Q1015=
201902101730 METAR LRTM 101730Z 00000KT CAVOK 01/M02 Q1015=
201902101800 METAR LRTM 101800Z 00000KT 8000 NSC M00/M03 Q1015=
201902101830 METAR LRTM 101830Z 09004KT 7000 NSC M01/M03 Q1014=
201902101900 METAR LRTM 101900Z VRB01KT 6000 NSC M00/M03 Q1014=
201902101930 METAR LRTM 101930Z 11001KT 5000 BR NSC M01/M03 Q1014=
201902102000 METAR LRTM 102000Z 10003KT 5000 BR NSC M01/M03 Q1014=
201902102030 METAR LRTM 102030Z 00000KT 5000 BR NSC M02/M03 Q1013=
201902102100 METAR LRTM 102100Z 10004KT 5000 BR NSC M02/M04 Q1013=
201902102130 METAR LRTM 102130Z 09004KT 5000 BR NSC M02/M03 Q1012=
201902102200 METAR LRTM 102200Z 10006KT 5000 BR NSC M01/M03 Q1012=
201902102230 METAR LRTM 102230Z 10004KT 5000 BR NSC M01/M03 Q1012=
201902102300 METAR LRTM 102300Z 10004KT 4900 BR NSC M02/M03 Q1011=
201902102330 METAR LRTM 102330Z 12003KT 5000 BR NSC M01/M03 Q1011=
201902110000 METAR LRTM 110000Z 11004KT 5000 BR NSC M01/M03 Q1011=
201902110030 METAR LRTM 110030Z 09003KT 5000 BR NSC M01/M03 Q1011=
201902110100 METAR LRTM 110100Z 09006KT 5000 BR NSC M01/M03 Q1010=
201902110130 METAR LRTM 110130Z 07006KT 4800 BR NSC M01/M03 Q1010=
201902110200 METAR LRTM 110200Z 06004KT 030V090 5000 BR NSC M00/M03 Q1009=
201902110230 METAR LRTM 110230Z 08005KT 6000 NSC M00/M02 Q1009=
201902110300 METAR LRTM 110300Z 09005KT 5000 BR NSC M01/M03 Q1008=
201902110330 METAR LRTM 110330Z 09006KT 6000 NSC M00/M02 Q1008=
201902110400 METAR LRTM 110400Z 08005KT 6000 NSC 00/M02 Q1007=
201902110430 METAR LRTM 110430Z 10003KT 070V140 7000 NSC M00/M03 Q1008=
201902110500 METAR LRTM 110500Z VRB02KT 8000 NSC M00/M03 Q1007=
201902110530 METAR LRTM 110530Z 08005KT 8000 NSC M00/M03 Q1007=
201902110600 METAR LRTM 110600Z 10004KT 8000 NSC 00/M02 Q1007=
201902110630 METAR LRTM 110630Z 09005KT 8000 NSC 01/M02 Q1007=
201902110700 METAR LRTM 110700Z 10004KT 9000 NSC 02/M01 Q1007=
201902110730 METAR LRTM 110730Z 07006KT CAVOK 03/M02 Q1007=
201902110800 METAR LRTM 110800Z 06005KT 030V090 CAVOK 05/M02 Q1006=
201902110830 METAR LRTM 110830Z 07005KT 030V100 CAVOK 07/M01 Q1006=
201902110900 METAR LRTM 110900Z 09004KT 050V120 CAVOK 07/M01 Q1006=
201902110930 METAR LRTM 110930Z 09004KT 050V130 CAVOK 08/M01 Q1006=
201902111000 METAR LRTM 111000Z 08004KT 040V110 CAVOK 08/M01 Q1005=
201902111030 METAR LRTM 111030Z 07003KT 9999 -RA FEW045 08/M00 Q1005=
201902111100 METAR LRTM 111100Z 09003KT 060V120 9999 SCT045 09/M01 Q1005=
201902111130 METAR LRTM 111130Z 10005KT 9999 SCT043 09/M01 Q1004=
201902111200 METAR LRTM 111200Z 00000KT 9999 SCT044 09/00 Q1004=
201902111230 METAR LRTM 111230Z 08002KT 9999 -RA SCT044 09/02 Q1004=
201902111300 METAR LRTM 111300Z 00000KT 9999 -RA BKN044 08/02 Q1004 R07/19//95=
201902111330 METAR LRTM 111330Z 10005KT 8000 -RA SCT043 07/03 Q1003 R07/19//95=
201902111400 METAR LRTM 111400Z 06006KT 020V090 7000 SCT044 07/02 Q1003
                        R07/19//95=
201902111430 METAR LRTM 111430Z 09005KT 8000 SCT044 07/02 Q1003 R07/19//95=
201902111500 METAR LRTM 111500Z 09005KT 8000 SCT045 06/02 Q1003 R07/19//95=
201902111530 METAR LRTM 111530Z 10006KT 8000 FEW045 05/02 Q1003 R07/19//95=
201902111600 METAR LRTM 111600Z 09006KT 8000 FEW045 05/02 Q1003 R07/19//95=
201902111630 METAR LRTM 111630Z 08008KT 8000 SCT045 05/02 Q1004 R07/19//95=
201902111700 METAR LRTM 111700Z 09006KT 9000 SCT044 05/02 Q1004 R07/19//95=
201902111730 METAR LRTM 111730Z 09006KT 8000 -RA BKN041 05/02 Q1004 R07/19//95=
201902111800 METAR LRTM 111800Z VRB01KT 7000 -RA BKN038 04/02 Q1004 R07/19//95=
201902111830 METAR LRTM 111830Z AUTO 28005KT 240V300 8000 BKN070/// BKN090///
                        05/02 Q1004=
201902111900 METAR LRTM 111900Z AUTO 31008KT 270V340 9000 FEW043/// SCT080///
                        BKN095/// 05/02 Q1004 REDZ=
201902111930 METAR LRTM 111930Z AUTO 32011KT 8000 -DZ FEW042/// BKN085///
                        OVC100/// 04/02 Q1004=
201902112000 METAR LRTM 112000Z AUTO 32011KT 9000 BKN048/// BKN100///
                        04/02 Q1005 REDZ=
201902112030 METAR LRTM 112030Z AUTO 32010KT 9999 -SHRA BKN039/// BKN047///
                        04/02 Q1005=
201902112100 METAR LRTM 112100Z AUTO 23008KT 200V260 9999 -SHRA BKN008///
                        BKN039/// 04/02 Q1005=
201902112130 METAR LRTM 112130Z AUTO 26004KT 220V310 9999 -RA BKN008///
                        04/02 Q1005=
201902112200 METAR LRTM 112200Z AUTO 27004KT 230V320 9999 -RA SCT008///
                        BKN010/// 04/02 Q1005=
201902112230 METAR LRTM 112230Z AUTO 26005KT 8000 -RA SCT007/// BKN009///
                        OVC011/// 03/02 Q1005=
201902112300 METAR LRTM 112300Z AUTO 28006KT 240V320 9999 -RA SCT009///
                        BKN011/// BKN019/// 04/02 Q1005=
201902112330 METAR LRTM 112330Z AUTO 31008KT 270V330 9999 -RA FEW009///
                        OVC020/// 03/02 Q1005=
201902120000 METAR LRTM 120000Z AUTO 28006KT 9999 -RA SCT009/// BKN020///
                        03/02 Q1005=
201902120030 METAR LRTM 120030Z AUTO 28005KT 230V330 9000 RA FEW009///
                        BKN011/// BKN020/// 03/01 Q1006=
201902120100 METAR LRTM 120100Z AUTO 29006KT 250V320 8000 RA FEW008///
                        SCT010/// BKN020/// 02/00 Q1006=
201902120130 METAR LRTM 120130Z AUTO 24005KT 210V280 4600 RASN SCT005///
                        BKN020/// 01/M00 Q1006=
201902120200 METAR LRTM 120200Z AUTO 23007KT 2500 -SN SCT003/// OVC005///
                        01/M00 Q1006=
201902120230 METAR LRTM 120230Z AUTO 24006KT 3100 -SN BKN006/// OVC008///
                        01/M00 Q1006=
201902120300 METAR LRTM 120300Z AUTO 27006KT 5000 -SN FEW005/// SCT007///
                        OVC010/// 01/M00 Q1006=
201902120330 METAR LRTM 120330Z AUTO 30006KT 260V330 8000 -SN FEW006///
                        SCT009/// BKN011/// 01/M00 Q1006=
201902120400 METAR LRTM 120400Z AUTO 31010KT 6000 -PL SCT008/// BKN010///
                        OVC013/// 01/M00 Q1006=
201902120430 METAR LRTM 120430Z AUTO 32007KT 4800 -RASN FEW008/// SCT016///
                        OVC023/// 01/M00 Q1006=
201902120500 METAR LRTM 120500Z AUTO 33007KT 3300 -SN FEW006/// SCT012///
                        OVC019/// 01/M00 Q1007=
201902120530 METAR LRTM 120530Z AUTO 34008KT 3500 -SN FEW005/// BKN010///
                        OVC013/// 01/M00 Q1007=
201902120600 METAR COR LRTM 120600Z 34013KT 5000 RA BKN008 OVC025 01/M00
                        Q1007 R07/29//94=
201902120630 METAR LRTM 120630Z 33012KT 2900 RASN BR OVC010 01/M00 Q1007
                        R07/29//94=
201902120700 METAR LRTM 120700Z 33013KT 3000 -RASN BR BKN012 OVC023 01/M00
                        Q1008 RERASN R07/29//94=
201902120730 METAR LRTM 120730Z 33010KT 3000 -SN BR BKN010 OVC025 01/M00
                        Q1009 R07/690393=
201902120800 METAR LRTM 120800Z 33012KT 2000 SN BR OVC007 01/M00 Q1009
                        R07/690393=
201902120830 METAR LRTM 120830Z 32014KT 1600 SN BR OVC007 01/M00 Q1009
                        R07/690393=
201902120900 METAR LRTM 120900Z 32014KT 2500 -SN BR OVC006 01/M00 Q1009
                        RESN R07/690393=
201902120930 METAR LRTM 120930Z 32016KT 1600 -SN BR OVC007 01/M00 Q1010
                        R07/690393=
201902121000 METAR LRTM 121000Z 31011KT 1600 -SN BR OVC007 01/M00 Q1010
                        R07/690393=
201902121030 METAR LRTM 121030Z 31012KT 280V340 1600 -SN BR OVC007 01/M00
                        Q1010 R07/29//95=
201902121100 METAR LRTM 121100Z 31012KT 1600 -SN BR OVC008 01/M00 Q1011
                        R07/29//95=
201902121130 METAR LRTM 121130Z 31013KT 2000 -SN BR OVC008 01/M00 Q1011
                        R07/29//95=
201902121200 METAR LRTM 121200Z 31012KT 270V330 7000 -SN OVC012 02/00
                        Q1011 R07/29//95=
201902121230 METAR LRTM 121230Z 30011KT 7000 -RASN OVC012 02/00 Q1012
                        R07/29//95=
201902121300 METAR LRTM 121300Z 30010KT 6000 -RA OVC007 02/00 Q1012 R07/29//95=
201902121330 METAR LRTM 121330Z 31016G26KT 9999 BKN010 BKN023 02/M02 Q1012
                        R07/29//95=
201902121400 METAR LRTM 121400Z 30016KT 9999 SCT022 SCT025 02/M02 Q1013
                        R07/29//95=
201902121430 METAR LRTM 121430Z 29014G25KT 260V320 9999 SCT017 SCT025
                        01/M03 Q1014 R07/29//95=
201902121500 METAR LRTM 121500Z 28014G24KT 9999 SCT017 01/M02 Q1014 R07/29//95=
201902121530 METAR LRTM 121530Z 29015KT 270V330 9999 FEW017 01/M03 Q1015
                        R07/29//95=
201902121600 METAR LRTM 121600Z 28011KT 9999 FEW017 02/M03 Q1015 R07/29//95=
201902121630 METAR LRTM 121630Z 27009KT 230V300 9999 FEW025 02/M04 Q1016
                        R07/29//95=
201902121700 METAR LRTM 121700Z 29011KT 270V330 9999 FEW025 02/M05 Q1016
                        R07/29//95=
201902121730 METAR LRTM 121730Z 30010KT 270V330 CAVOK 02/M05 Q1017 R07/29//95=
201902121800 METAR LRTM 121800Z 30011KT CAVOK 01/M05 Q1017 R07/29//95=
201902121830 METAR LRTM 121830Z AUTO 29012KT 9999 FEW060/// BKN110///
                        01/M05 Q1018=
201902121900 METAR LRTM 121900Z AUTO 29012KT 9999 FEW055/// BKN110///
                        01/M05 Q1018=
201902121930 METAR LRTM 121930Z AUTO 29014KT 9999 BKN055/// OVC130///
                        00/M04 Q1019=
201902122000 METAR LRTM 122000Z AUTO 29014KT 9999 BKN065/// BKN130///
                        00/M05 Q1020=
201902122030 METAR LRTM 122030Z AUTO 29013KT 9999 BKN065/// M00/M05 Q1020=
201902122100 METAR LRTM 122100Z AUTO 30008KT 260V330 9999 NCD M01/M05
                        Q1021=
201902122130 METAR LRTM 122130Z AUTO 30011KT 270V330 9999 FEW070/// M01/M05
                        Q1021=
201902122200 METAR LRTM 122200Z AUTO 29008KT 270V330 9999 FEW070/// M01/M05
                        Q1022=
201902122230 METAR LRTM 122230Z AUTO 30009KT 270V330 9999 OVC065/// M01/M05
                        Q1022=
201902122300 METAR LRTM 122300Z AUTO 31010KT 9999 OVC065/// M01/M05 Q1022=
201902122330 METAR LRTM 122330Z AUTO 31010KT 9999 OVC070/// M01/M05 Q1023=
201902130000 METAR LRTM 130000Z AUTO 31012KT 9999 BKN070/// M01/M05 Q1023=
201902130030 METAR LRTM 130030Z AUTO 32009KT 9999 OVC070/// M01/M04 Q1024=
201902130100 METAR LRTM 130100Z AUTO 32009KT 9999 BKN070/// M01/M04 Q1024=
201902130130 METAR LRTM 130130Z AUTO 32009KT 290V350 9999 FEW050/// OVC070///
                        M01/M05 Q1024=
201902130200 METAR LRTM 130200Z AUTO 32010KT 9999 BKN050/// BKN070///
                        M01/M05 Q1025=
201902130230 METAR LRTM 130230Z AUTO 31009KT 290V350 9999 FEW055/// BKN075///
                        M01/M04 Q1025=
201902130300 METAR LRTM 130300Z AUTO VRB04KT 9999 BKN075/// M01/M04 Q1026=
201902130330 METAR LRTM 130330Z AUTO 28004KT 9999 FEW016/// SCT021///
                        OVC075/// M01/M04 Q1026=
201902130400 METAR LRTM 130400Z AUTO 28008KT 9999 BKN075/// M01/M04 Q1027=
201902130430 METAR LRTM 130430Z AUTO 26005KT 220V290 9999 FEW021/// BKN075///
                        M02/M04 Q1027=
201902130500 METAR LRTM 130500Z AUTO 25004KT 9999 BKN075/// M02/M04 Q1028=
201902130530 METAR LRTM 130530Z AUTO 24003KT 220V280 9999 OVC075/// M02/M04
                        Q1028=
201902130600 METAR LRTM 130600Z 26005KT 9999 FEW032 M01/M04 Q1029 R07/29//95=
201902130630 METAR LRTM 130630Z 26003KT 9999 FEW017 M01/M04 Q1029 R07/CLRD//=
201902130700 METAR LRTM 130700Z 26003KT 9999 SCT014 M01/M04 Q1029=
201902130730 METAR LRTM 130730Z 26007KT 230V290 9999 FEW014 00/M03 Q1030=
201902130800 METAR LRTM 130800Z 27006KT 250V310 9999 SCT013 00/M04 Q1030=
201902130830 METAR LRTM 130830Z 30007KT 270V330 9999 SCT013 M00/M04 Q1030=
201902130900 METAR LRTM 130900Z 30007KT 9999 SCT014 00/M04 Q1031=
201902130930 METAR LRTM 130930Z 30006KT 270V330 9999 SCT015 01/M03 Q1031=
201902131000 METAR LRTM 131000Z 33005KT 290V010 9999 SCT015 01/M04 Q1031=
201902131030 METAR LRTM 131030Z 31004KT 280V360 9999 SCT015 01/M04 Q1031=
201902131100 METAR LRTM 131100Z 28005KT 240V330 9999 SCT016 02/M03 Q1031=
201902131130 METAR LRTM 131130Z 28006KT 240V310 9999 SCT017 02/M04 Q1031=
201902131200 METAR LRTM 131200Z 30005KT 260V330 9999 SCT017 02/M03 Q1031=
201902131230 METAR LRTM 131230Z 29004KT 220V360 9999 FEW017 SCT024 03/M03
                        Q1032=
201902131300 METAR LRTM 131300Z 29004KT 240V330 9999 SCT024 02/M04 Q1031=
201902131330 METAR LRTM 131330Z 27004KT 180V310 9999 FEW025 03/M03 Q1031=
201902131400 METAR LRTM 131400Z 30004KT 230V010 9999 FEW026 03/M05 Q1031=
201902131430 METAR LRTM 131430Z VRB03KT 9999 FEW027 03/M04 Q1031=
201902131500 METAR LRTM 131500Z 28002KT 9999 FEW030 03/M04 Q1031=
201902131530 METAR LRTM 131530Z 18005KT 9999 FEW033 01/M03 Q1031=
201902131600 METAR LRTM 131600Z 18004KT 9999 FEW035 01/M03 Q1032=
201902131630 METAR LRTM 131630Z 24002KT CAVOK M01/M03 Q1032=
201902131700 METAR LRTM 131700Z 23006KT CAVOK M01/M03 Q1032=
201902131730 METAR LRTM 131730Z 23004KT 200V280 CAVOK M01/M03 Q1032=
201902131800 METAR LRTM 131800Z 22003KT CAVOK M02/M04 Q1032=
201902131830 METAR LRTM 131830Z AUTO 25004KT 220V280 9999 BKN055/// M01/M03
                        Q1032=
201902131900 METAR LRTM 131900Z AUTO 25004KT 9999 OVC050/// M01/M03 Q1032=
201902131930 METAR LRTM 131930Z AUTO 24003KT 9999 BKN049/// M00/M03 Q1032=
201902132000 METAR LRTM 132000Z AUTO 23003KT 9999 OVC050/// M00/M03 Q1032=
201902132030 METAR LRTM 132030Z AUTO 35002KT 300V010 9999 BKN047/// M00/M03
                        Q1032=
201902132100 METAR LRTM 132100Z AUTO 00000KT 9999 BKN049/// M00/M03 Q1032=
201902132130 METAR LRTM 132130Z AUTO VRB01KT 9999 BKN048/// M00/M03 Q1032=
201902132200 METAR LRTM 132200Z AUTO 19002KT 9999 BKN050/// 00/M03 Q1032=
201902132230 METAR LRTM 132230Z AUTO 20003KT 160V220 9999 OVC057/// M00/M03
                        Q1032=
201902132300 METAR LRTM 132300Z AUTO 28002KT 190V310 9999 OVC056/// M00/M03
                        Q1032=
201902132330 METAR LRTM 132330Z AUTO 25004KT 9999 OVC056/// M00/M03 Q1032=
201902140000 METAR LRTM 140000Z AUTO 34002KT 250V030 9999 OVC055/// M00/M03
                        Q1032=
201902140030 METAR LRTM 140030Z AUTO 03003KT 350V050 9999 OVC050/// M00/M03
                        Q1032=
201902140100 METAR LRTM 140100Z AUTO 15003KT 080V190 9999 OVC048/// M00/M03
                        Q1031=
201902140130 METAR LRTM 140130Z AUTO 24005KT 220V300 9999 SCT045/// OVC055///
                        M00/M03 Q1031=
201902140200 METAR LRTM 140200Z AUTO 00000KT 9999 BKN046/// M00/M04 Q1031=
201902140230 METAR LRTM 140230Z AUTO 06002KT 030V090 9999 BKN043/// OVC055///
                        M00/M03 Q1031=
201902140300 METAR LRTM 140300Z AUTO 11004KT 9999 OVC043/// M00/M03 Q1031=
201902140330 METAR LRTM 140330Z AUTO 15002KT 080V170 9999 OVC040/// M00/M03
                        Q1031=
201902140400 METAR LRTM 140400Z AUTO 08004KT 9999 OVC038/// M01/M03 Q1031=
201902140430 METAR LRTM 140430Z AUTO 08005KT 9999 OVC036/// M01/M03 Q1031=
201902140500 METAR LRTM 140500Z AUTO 10005KT 9999 OVC033/// M01/M03 Q1031=
201902140530 METAR LRTM 140530Z AUTO 06003KT 9999 BKN032/// M01/M03 Q1031=
201902140600 METAR LRTM 140600Z 08004KT 9999 OVC031 M00/M03 Q1031=
201902140630 METAR LRTM 140630Z 00000KT 9999 OVC030 M00/M03 Q1031=
201902140700 METAR LRTM 140700Z 08003KT 9999 OVC030 M00/M03 Q1031=
201902140730 METAR LRTM 140730Z 09003KT 9999 OVC029 00/M03 Q1031=
201902140800 METAR LRTM 140800Z 11003KT 060V150 9999 OVC027 00/M03 Q1031=
201902140830 METAR LRTM 140830Z 21003KT 9999 OVC027 01/M03 Q1030=
201902140900 METAR LRTM 140900Z 27005KT 9999 OVC025 01/M03 Q1030=
201902140930 METAR LRTM 140930Z 26005KT 9999 OVC025 01/M03 Q1030=
201902141000 METAR LRTM 141000Z 25006KT 220V290 9999 OVC022 02/M03 Q1030=
201902141030 METAR LRTM 141030Z 26005KT 9999 OVC021 02/M03 Q1030=
201902141100 METAR LRTM 141100Z 28005KT 250V320 9999 OVC020 02/M03 Q1030=
201902141130 METAR LRTM 141130Z 29004KT 260V330 9999 BKN021 OVC024 02/M03
                        Q1030=
201902141200 METAR LRTM 141200Z 34003KT 250V020 9999 BKN021 OVC024 03/M02
                        Q1029=
201902141230 METAR LRTM 141230Z 33005KT 290V360 9999 BKN021 OVC024 03/M02
                        Q1029=
201902141300 METAR LRTM 141300Z 36002KT 290V060 9999 BKN019 OVC024 03/M02
                        Q1029=
201902141330 METAR LRTM 141330Z VRB02KT 9999 OVC020 03/M02 Q1029=
201902141400 METAR LRTM 141400Z VRB01KT 9999 OVC019 03/M02 Q1029=
201902141430 METAR LRTM 141430Z 15003KT 9999 OVC020 03/M01 Q1029=
201902141500 METAR LRTM 141500Z 22004KT 200V270 9999 BKN019 03/M01 Q1028=
201902141530 METAR LRTM 141530Z 26004KT 230V290 9999 BKN019 BKN023 03/M00
                        Q1028=
201902141600 METAR LRTM 141600Z 26003KT 9999 BKN019 OVC023 03/00 Q1028=
201902141630 METAR LRTM 141630Z 31005KT 280V340 9999 BKN019 OVC023 03/M00
                        Q1028=
201902141700 METAR LRTM 141700Z 31007KT 9999 BKN019 BKN027 03/00 Q1028=
201902141730 METAR LRTM 141730Z 32005KT 9999 BKN017 BKN030 03/00 Q1028=
201902141800 METAR LRTM 141800Z 32007KT 280V010 9999 BKN017 OVC033 03/M00
                        Q1029=
201902141830 METAR LRTM 141830Z VRB01KT 9999 BKN017 OVC033 03/M00 Q1029=
201902141900 METAR LRTM 141900Z 16002KT 9999 BKN015 OVC034 03/M00 Q1029=
201902141930 METAR LRTM 141930Z VRB01KT 9999 BKN014 OVC034 03/M00 Q1029=
201902142000 METAR LRTM 142000Z 26005KT 8000 SCT014 BKN036 02/M00 Q1029=
201902142030 METAR LRTM 142030Z 24005KT 7000 FEW013 SCT036 01/M01 Q1028=
201902142100 METAR LRTM 142100Z 28004KT 220V320 8000 FEW011 BKN036 02/M00
                        Q1029=
201902142130 METAR LRTM 142130Z 05002KT 8000 FEW011 BKN037 02/M01 Q1028=
201902142200 METAR LRTM 142200Z VRB01KT 8000 FEW012 BKN037 02/M01 Q1029=
201902142230 METAR LRTM 142230Z 05002KT 8000 FEW013 BKN037 02/M01 Q1029=
201902142300 METAR LRTM 142300Z 10003KT 8000 BKN037 02/M01 Q1029=
201902142330 METAR LRTM 142330Z 05001KT 8000 BKN039 02/M01 Q1029=
201902150000 METAR LRTM 150000Z VRB01KT 6000 OVC040 01/M01 Q1029=
201902150030 METAR LRTM 150030Z 25002KT 8000 OVC040 02/M01 Q1029=
201902150100 METAR LRTM 150100Z 26003KT 6000 OVC040 01/M01 Q1028=
201902150130 METAR LRTM 150130Z 24002KT 5000 BR FEW008 OVC038 01/M01 Q1028=
201902150200 METAR LRTM 150200Z 16002KT 5000 BR SCT008 OVC037 00/M01 Q1028=
201902150230 METAR LRTM 150230Z VRB01KT 5000 BR SCT009 OVC037 00/M01 Q1028=
201902150300 METAR LRTM 150300Z 00000KT 5000 BR SCT008 BKN039 00/M01 Q1028=
201902150330 METAR LRTM 150330Z 00000KT 5000 BR SCT007 BKN038 01/M01 Q1029=
201902150400 METAR LRTM 150400Z VRB01KT 5000 BR SCT007 BKN037 00/M01 Q1029=
201902150430 METAR LRTM 150430Z 00000KT 5000 BR SCT008 BKN042 00/M01 Q1029=
201902150500 METAR LRTM 150500Z 09003KT 4900 BR FEW009 BKN043 00/M01 Q1029=
201902150530 METAR LRTM 150530Z 07003KT 4000 BR SCT010 BKN043 00/M01 Q1030=
201902150600 METAR LRTM 150600Z 09003KT 020V140 3000 BR FEW013 SCT048
                        00/M01 Q1030=
201902150630 METAR LRTM 150630Z 10002KT 3600 BR FEW015 00/M01 Q1030=
201902150700 METAR LRTM 150700Z 06003KT 3500 BR FEW015 01/M00 Q1031=
201902150730 METAR LRTM 150730Z 07003KT 4100 BR FEW012 01/M00 Q1031=
201902150800 METAR LRTM 150800Z 08005KT 4700 BR FEW015 02/M00 Q1032=
201902150830 METAR LRTM 150830Z 08003KT 5000 BR FEW015 02/M00 Q1032=
201902150900 METAR LRTM 150900Z VRB02KT 6000 FEW017 02/00 Q1032=
201902150930 METAR LRTM 150930Z VRB01KT 7000 FEW017 03/00 Q1032=
201902151000 METAR LRTM 151000Z VRB02KT 7000 FEW017 04/M00 Q1032=
201902151030 METAR LRTM 151030Z 17004KT 120V220 8000 FEW018 04/00 Q1032=
201902151100 METAR LRTM 151100Z VRB03KT 9999 FEW017 06/00 Q1032=
201902151130 METAR LRTM 151130Z 20004KT 160V260 9999 FEW019 06/M00 Q1032=
201902151200 METAR LRTM 151200Z 08004KT 020V140 9999 FEW027 06/M02 Q1032=
201902151230 METAR LRTM 151230Z 16005KT 110V210 9999 FEW027 07/M02 Q1032=
201902151300 METAR LRTM 151300Z 14005KT 110V170 9999 FEW033 07/M02 Q1031=
201902151330 METAR LRTM 151330Z 17006KT 110V200 9999 FEW033 07/M02 Q1031=
201902151400 METAR LRTM 151400Z 20005KT 160V220 9999 FEW035 07/M02 Q1031=
201902151430 METAR LRTM 151430Z 20003KT 170V260 9999 FEW035 07/M02 Q1031=
201902151500 METAR LRTM 151500Z 19004KT 9999 FEW035 06/M02 Q1031=
201902151530 METAR LRTM 151530Z 20004KT 9999 FEW033 05/M02 Q1031=
201902151600 METAR LRTM 151600Z 19003KT CAVOK 03/M01 Q1031=
201902151630 METAR LRTM 151630Z VRB02KT CAVOK 02/M02 Q1032=
201902151700 METAR LRTM 151700Z 24004KT CAVOK 01/M02 Q1032=
201902151730 METAR LRTM 151730Z 24003KT CAVOK M00/M03 Q1031=
201902151800 METAR LRTM 151800Z 28002KT CAVOK M00/M02 Q1031=
201902151830 METAR LRTM 151830Z AUTO 21002KT 190V250 9999 NCD M00/M03
                        Q1031=
201902151900 METAR LRTM 151900Z AUTO 00000KT 9999 NCD M02/M04 Q1032=
201902151930 METAR LRTM 151930Z AUTO VRB01KT 9000 NCD M01/M03 Q1032=
201902152000 METAR LRTM 152000Z AUTO 00000KT 7000 NCD M02/M04 Q1032=
201902152030 METAR LRTM 152030Z AUTO 06002KT 020V080 7000 NCD M02/M03
                        Q1032=
201902152100 METAR LRTM 152100Z AUTO 08004KT 5000 BR NCD M03/M04 Q1031=
201902152130 METAR LRTM 152130Z AUTO 08005KT 6000 NCD M03/M05 Q1032=
201902152200 METAR LRTM 152200Z AUTO 10005KT 5000 BR NCD M03/M04 Q1032=
201902152230 METAR LRTM 152230Z AUTO 10004KT 5000 BR NCD M03/M04 Q1032=
201902152300 METAR LRTM 152300Z AUTO 10004KT 5000 BR NCD M03/M04 Q1032=
201902152330 METAR LRTM 152330Z AUTO 06003KT 6000 NCD M04/M05 Q1031=
201902160000 METAR LRTM 160000Z AUTO 08004KT 6000 NCD M04/M05 Q1031=
201902160030 METAR LRTM 160030Z AUTO 10004KT 6000 NCD M04/M05 Q1031=
201902160100 METAR LRTM 160100Z AUTO 10004KT 5000 BR NCD M04/M05 Q1032=
201902160130 METAR LRTM 160130Z AUTO 08003KT 040V100 5000 BR NCD M04/M05
                        Q1031=
201902160200 METAR LRTM 160200Z AUTO 03002KT 360V080 5000 BR FEW230///
                        M05/M06 Q1031=
201902160230 METAR LRTM 160230Z AUTO 08003KT 6000 FEW140/// M05/M06 Q1031=
201902160300 METAR LRTM 160300Z AUTO 09004KT 6000 SCT150/// M05/M06 Q1031=
201902160330 METAR LRTM 160330Z AUTO 09003KT 6000 NCD M05/M06 Q1031=
201902160400 METAR LRTM 160400Z AUTO 07002KT 6000 NCD M05/M06 Q1031=
201902160430 METAR LRTM 160430Z AUTO 07003KT 5000 BR NCD M05/M06 Q1031=
201902160500 METAR LRTM 160500Z AUTO 10004KT 6000 FEW002/// M05/M07 Q1031=
201902160530 METAR LRTM 160530Z AUTO 04002KT 5000 BR NCD M05/M07 Q1031=
201902160600 METAR LRTM 160600Z 08003KT 3500 BR FEW003 M05/M06 Q1032=
201902160630 METAR LRTM 160630Z 08003KT 4000 BR FEW003 M04/M05 Q1032=
201902160700 METAR LRTM 160700Z 07004KT 5000 BR FEW004 M02/M04 Q1032=
201902160730 METAR LRTM 160730Z 08004KT 5000 BR FEW005 M02/M04 Q1032=
201902160800 METAR LRTM 160800Z 08005KT 5000 BR FEW006 M01/M03 Q1032=
201902160830 METAR LRTM 160830Z 08005KT 5000 BR FEW006 M01/M03 Q1032=
201902160900 METAR LRTM 160900Z 07004KT 030V110 6000 FEW007 01/M02 Q1032=
201902160930 METAR LRTM 160930Z 09003KT 050V140 6000 FEW033 02/M02 Q1032=
201902161000 METAR LRTM 161000Z 10003KT 060V180 8000 BKN034 02/M02 Q1032=
201902161030 METAR LRTM 161030Z 13003KT 020V180 9999 BKN033 02/M02 Q1032=
201902161100 METAR LRTM 161100Z VRB01KT 9999 BKN033 03/M02 Q1031=
201902161130 METAR LRTM 161130Z VRB01KT 9999 SCT033 04/M02 Q1031=
201902161200 METAR LRTM 161200Z VRB02KT 9999 SCT033 05/M02 Q1031=
201902161230 METAR LRTM 161230Z 07003KT 010V130 9999 BKN034 05/M02 Q1031=
201902161300 METAR LRTM 161300Z 07003KT 010V100 9999 SCT033 05/M02 Q1031=
201902161330 METAR LRTM 161330Z VRB02KT 9999 FEW034 06/M02 Q1031=
201902161400 METAR LRTM 161400Z 10003KT 060V170 9999 FEW036 06/M01 Q1031=
201902161430 METAR LRTM 161430Z VRB02KT 9999 FEW038 05/M01 Q1031=
201902161500 METAR LRTM 161500Z 11003KT CAVOK 05/M01 Q1030=
201902161530 METAR LRTM 161530Z 09003KT CAVOK 04/M01 Q1030=
201902161600 METAR LRTM 161600Z 08006KT CAVOK 02/M01 Q1030=
201902161630 METAR LRTM 161630Z 07005KT 8000 FEW035 01/M01 Q1031=
201902161700 METAR LRTM 161700Z 07005KT 7000 NSC 00/M02 Q1031=
201902161730 METAR LRTM 161730Z 11003KT 060V150 7000 NSC M00/M02 Q1031=
201902161800 METAR LRTM 161800Z 06003KT 020V080 7000 NSC M00/M02 Q1031=
201902161830 METAR LRTM 161830Z AUTO 05002KT 360V080 5000 BR NCD 00/M01
                        Q1031=
201902161900 METAR LRTM 161900Z AUTO 09003KT 5000 BR NCD M01/M02 Q1031=
201902161930 METAR LRTM 161930Z AUTO 08003KT 5000 BR NCD M01/M02 Q1031=
201902162000 METAR LRTM 162000Z AUTO 09005KT 5000 BR NCD M02/M03 Q1031=
201902162030 METAR LRTM 162030Z AUTO 09005KT 4200 BR NCD M01/M02 Q1031=
201902162100 METAR LRTM 162100Z AUTO 09006KT 4000 BR NCD M01/M02 Q1031=
201902162130 METAR LRTM 162130Z AUTO 09005KT 3800 BR BKN033/// M01/M02
                        Q1031=
201902162200 METAR LRTM 162200Z AUTO 09005KT 3500 BR OVC031/// M01/M02
                        Q1031=
201902162230 METAR LRTM 162230Z AUTO 10004KT 3800 BR OVC030/// M01/M02
                        Q1031=
201902162300 METAR LRTM 162300Z AUTO 12004KT 4300 BR OVC029/// M01/M02
                        Q1031=
201902162330 METAR LRTM 162330Z AUTO 10003KT 4500 BR OVC029/// M01/M02
                        Q1030=
201902170000 METAR LRTM 170000Z AUTO 09004KT 4500 BR BKN029/// M01/M03
                        Q1030=
201902170030 METAR LRTM 170030Z AUTO 10005KT 4200 BR OVC030/// M01/M02
                        Q1030=
201902170100 METAR LRTM 170100Z AUTO 09005KT 4100 BR OVC029/// M01/M02
                        Q1030=
201902170130 METAR LRTM 170130Z AUTO 09005KT 3800 BR FEW029/// M02/M03
                        Q1030=
201902170200 METAR LRTM 170200Z AUTO 07003KT 3900 BR NCD M03/M04 Q1030=
201902170230 METAR LRTM 170230Z AUTO 09005KT 4400 BR NCD M02/M04 Q1030=
201902170300 METAR LRTM 170300Z AUTO 09005KT 3800 BR NCD M03/M04 Q1030=
201902170330 METAR LRTM 170330Z AUTO 08004KT 3200 R07/2000 BR FEW002///
                        M03/M04 Q1029=
201902170400 METAR LRTM 170400Z AUTO 09004KT 3400 BR NCD M04/M05 Q1029=
201902170430 METAR LRTM 170430Z AUTO 10004KT 3700 BR NCD M03/M05 Q1029=
201902170500 METAR LRTM 170500Z AUTO 09005KT 4000 BR NCD M04/M05 Q1029=
201902170530 METAR LRTM 170530Z AUTO 10003KT 2300 BR NCD M04/M05 Q1030=
201902170600 METAR LRTM 170600Z 09004KT 2400 BR FEW008 M03/M04 Q1030=
201902170630 METAR LRTM 170630Z 08004KT 2600 BR FEW008 M02/M04 Q1030=
201902170700 METAR LRTM 170700Z 09005KT 2800 BR FEW007 M02/M03 Q1030=
201902170730 METAR LRTM 170730Z 09006KT 2800 BR FEW007 M01/M02 Q1030=
201902170800 METAR COR LRTM 170800Z 08004KT 050V120 3600 BR FEW009 00/M01
                        Q1030=
201902170830 METAR LRTM 170830Z 07003KT 010V110 4400 BR FEW010 01/M01
                        Q1030=
201902170900 METAR LRTM 170900Z 10004KT 5000 BR FEW011 02/M01 Q1030=
201902170930 METAR LRTM 170930Z 11002KT 6000 FEW012 03/M01 Q1030=
201902171000 METAR LRTM 171000Z VRB02KT 7000 NSC 05/M00 Q1030=
201902171030 METAR LRTM 171030Z VRB02KT 8000 NSC 06/00 Q1029=
201902171100 METAR LRTM 171100Z VRB02KT CAVOK 06/00 Q1029=
201902171130 METAR LRTM 171130Z VRB02KT CAVOK 07/00 Q1029=
201902171200 METAR LRTM 171200Z 18002KT CAVOK 08/00 Q1028=
201902171230 METAR LRTM 171230Z 10004KT 030V130 CAVOK 07/00 Q1028=
201902171300 METAR LRTM 171300Z VRB03KT CAVOK 08/01 Q1027=
201902171330 METAR LRTM 171330Z 09002KT CAVOK 08/01 Q1027=
201902171400 METAR LRTM 171400Z VRB01KT CAVOK 09/01 Q1027=
201902171430 METAR LRTM 171430Z 21002KT CAVOK 09/01 Q1027=
201902171500 METAR LRTM 171500Z 00000KT CAVOK 08/01 Q1027=
201902171530 METAR LRTM 171530Z 08001KT CAVOK 07/01 Q1027=
201902171600 METAR LRTM 171600Z 08003KT CAVOK 05/01 Q1027=
201902171630 METAR LRTM 171630Z VRB01KT 8000 NSC 04/00 Q1027=
201902171700 METAR LRTM 171700Z 35004KT 7000 NSC 02/M00 Q1027=
201902171730 METAR LRTM 171730Z 04002KT 5000 BR FEW010 01/M01 Q1027=
201902171800 METAR LRTM 171800Z 09005KT 6000 FEW010 M00/M02 Q1027=
201902171830 METAR LRTM 171830Z 09005KT 5000 BR FEW010 M00/M02 Q1027=
201902171900 METAR LRTM 171900Z 09004KT 4800 BR FEW009 M00/M02 Q1027=
201902171930 METAR LRTM 171930Z 10005KT 5000 BR FEW010 M00/M02 Q1027=
201902172000 METAR LRTM 172000Z 09005KT 5000 BR FEW009 M00/M01 Q1027=
201902172030 METAR LRTM 172030Z 10004KT 5000 BR FEW009 M01/M02 Q1027=
201902172100 METAR COR LRTM 172100Z 10004KT 3200 BR FEW008 M01/M02 Q1027=
201902172130 METAR COR LRTM 172130Z 10005KT 4000 BR FEW008 M02/M03 Q1027=
201902172200 METAR LRTM 172200Z 09005KT 3500 BR FEW002 M02/M03 Q1027=
201902172230 METAR LRTM 172230Z 10005KT 3500 BR FEW003 M02/M03 Q1027=
201902172300 METAR LRTM 172300Z 10005KT 2800 BR FEW003 M02/M03 Q1027=
201902172330 METAR LRTM 172330Z 09005KT 2700 BR NSC M02/M03 Q1027=
201902180000 METAR LRTM 180000Z 10004KT 2700 BR NSC M02/M03 Q1027=
201902180030 METAR LRTM 180030Z 10004KT 2600 BR SCT007 M02/M03 Q1027=
201902180100 METAR LRTM 180100Z 09004KT 2300 BR SCT007 M02/M03 Q1027=
201902180130 METAR COR LRTM 180130Z 10004KT 2000 BR SCT002 M03/M04 Q1027=
201902180200 METAR COR LRTM 180200Z 09005KT 0200 FZFG R07/0250N BKN001
                        M03/M03 Q1026=
201902180230 METAR LRTM 180230Z 09005KT 0400 R07/0550N FZFG BKN001 M03/M04
                        Q1026=
201902180300 METAR LRTM 180300Z 10006KT 0600 R07/1000VP2000U FZFG BKN001
                        M03/M03 Q1026=
201902180330 METAR LRTM 180330Z 09005KT 0600 R07/1000 FZFG FEW001 BKN002
                        M03/M04 Q1026=
201902180400 METAR LRTM 180400Z 10005KT 0500 R07/0550N FZFG BKN001 M03/M04
                        Q1026=
201902180430 METAR LRTM 180430Z 11004KT 0200 R07/0225N FZFG VV001 M03/M04
                        Q1026=
201902180500 METAR LRTM 180500Z 10004KT 0250 R07/0275N FZFG VV001 M03/M04
                        Q1026=
201902180530 METAR LRTM 180530Z 09004KT 0200 R07/0250N FZFG VV001 M03/M03
                        Q1026=
201902180600 METAR LRTM 180600Z 10004KT 0200 R07/0450U FZFG VV001 M03/M03
                        Q1027=
201902180630 METAR LRTM 180630Z 10003KT 0200 R07/0200N FZFG VV001 M03/M03
                        Q1027=
201902180700 METAR LRTM 180700Z 09004KT 0200 R07/0225N FZFG VV001 M03/M03
                        Q1027=
201902180730 METAR LRTM 180730Z 09003KT 050V120 0200 R07/0225N FZFG VV001
                        M03/M03 Q1027=
201902180800 METAR LRTM 180800Z 08003KT 040V120 0200 R07/0225N FZFG VV001
                        M02/M03 Q1027=
201902180830 METAR COR LRTM 180830Z 09003KT 040V120 0300 R07/0450N FZFG
                        VV001 M01/M02 Q1027=
201902180900 METAR LRTM 180900Z VRB02KT 0800 R07/1000U PRFG SCT001 M00/M01
                        Q1027=
201902180930 METAR LRTM 180930Z 30003KT 230V350 0900 R07/1200N PRFG SCT002
                        00/M00 Q1027=
201902181000 METAR LRTM 181000Z 31004KT 250V350 2000 BR SCT001 02/01 Q1026=
201902181030 METAR LRTM 181030Z 27003KT 210V010 3900 BR FEW001 03/01 Q1026=
201902181100 METAR LRTM 181100Z 22003KT 180V300 5000 BR FEW001 05/02 Q1026=
201902181130 METAR LRTM 181130Z VRB02KT 6000 NSC 06/02 Q1025=
201902181200 METAR LRTM 181200Z 25003KT 180V330 7000 NSC 07/02 Q1025=
201902181230 METAR LRTM 181230Z VRB01KT 8000 NSC 08/02 Q1025=
201902181300 METAR LRTM 181300Z VRB02KT 9000 NSC 09/02 Q1024=
201902181330 METAR LRTM 181330Z 00000KT 9000 NSC 09/02 Q1024=
201902181400 METAR LRTM 181400Z 32003KT 280V360 8000 NSC 09/02 Q1024=
201902181430 METAR LRTM 181430Z VRB02KT 9000 NSC 09/02 Q1024=
201902181500 METAR LRTM 181500Z VRB02KT 9999 FEW012 09/02 Q1024=
201902181530 METAR LRTM 181530Z 27002KT 9999 FEW012 08/02 Q1023=
201902181600 METAR LRTM 181600Z VRB02KT 8000 FEW015 06/02 Q1023=
201902181630 METAR LRTM 181630Z 31001KT 6000 FEW015 04/02 Q1023=
201902181700 METAR LRTM 181700Z 00000KT 6000 NSC 02/00 Q1024=
201902181730 METAR LRTM 181730Z 00000KT 5000 BR NSC 01/M01 Q1024=
201902181800 METAR LRTM 181800Z 01002KT 5000 BR NSC 00/M01 Q1024=
201902181830 METAR LRTM 181830Z AUTO 00000KT 3500 BR NCD M00/M01 Q1024=
201902181900 METAR LRTM 181900Z AUTO 00000KT 3100 R07/2000 BR NCD M01/M01
                        Q1024=
201902181930 METAR LRTM 181930Z AUTO 08003KT 2300 R07/1500VP2000U NCD
                        M01/M02 Q1024=
201902182000 METAR LRTM 182000Z AUTO 06003KT 330V080 2900 R07/2000 NCD
                        M01/M02 Q1024=
201902182030 METAR LRTM 182030Z AUTO 10003KT 2600 BR NCD M02/M02 Q1024=
201902182100 METAR LRTM 182100Z AUTO 09005KT 2700 BR NCD M01/M02 Q1024=
201902182130 METAR LRTM 182130Z AUTO 10004KT 2200 BR NCD M01/M02 Q1024=
201902182200 METAR LRTM 182200Z AUTO 10004KT 2300 BR NCD M01/M02 Q1024=
201902182230 METAR LRTM 182230Z AUTO 10004KT 2200 BR NCD M02/M02 Q1024=
201902182300 METAR LRTM 182300Z AUTO 09005KT 2800 BR FEW001/// M01/M02
                        Q1024=
201902182330 METAR LRTM 182330Z AUTO 10004KT 2900 BR BKN001/// M01/M02
                        Q1024=
201902190000 METAR LRTM 190000Z AUTO 09004KT 2200 BR FEW001/// M02/M03
                        Q1024=
201902190030 METAR LRTM 190030Z AUTO 09005KT 2100 BR NCD M03/M04 Q1024=
201902190100 METAR LRTM 190100Z AUTO 10006KT 2300 BR NCD M02/M03 Q1023=
201902190130 METAR LRTM 190130Z AUTO 10005KT 2100 BR FEW001/// M02/M02
                        Q1023=
201902190200 METAR LRTM 190200Z AUTO 10005KT 2100 BR FEW000/// M02/M03
                        Q1023=
201902190230 METAR LRTM 190230Z AUTO 09005KT 0500 R07/0500V0750D FZFG
                        FEW001/// M03/M04 Q1023=
201902190300 METAR LRTM 190300Z AUTO 10005KT 0350 R07/0375V0550U FZFG
                        VV001 M02/M03 Q1023=
201902190330 METAR LRTM 190330Z AUTO 10004KT 0750 R07/0900N FZFG VV001
                        M03/M03 Q1023=
201902190400 METAR LRTM 190400Z AUTO 09004KT 0400 R07/0400V0550N FZFG
                        VV001 M03/M04 Q1023=
201902190430 METAR LRTM 190430Z AUTO 10004KT 0350 R07/0400N FZFG VV001
                        M03/M04 Q1022=
201902190500 METAR LRTM 190500Z AUTO 09004KT 050V110 0250 R07/0275N FZFG
                        NCD M03/M04 Q1022=
201902190530 METAR LRTM 190530Z AUTO 08003KT 0200 R07/0250N FZFG VV001
                        M03/M04 Q1023=
201902190600 METAR COR LRTM 190600Z 09003KT 0300 R07/0375N FZFG VV001
                        M03/M04 Q1023=
201902190630 METAR LRTM 190630Z 07003KT 0300 R07/0400N FZFG VV001 M03/M04
                        Q1023=
201902190700 METAR LRTM 190700Z 08002KT 0250 R07/0300N FZFG VV001 M03/M04
                        Q1023=
201902190730 METAR LRTM 190730Z 07002KT 0150 R07/0175N FZFG VV001 M03/M04
                        Q1023=
201902190800 METAR LRTM 190800Z 11002KT 0150 R07/0175N FZFG VV001 M02/M03
                        Q1023=
201902190830 METAR LRTM 190830Z 00000KT 0200 R07/0225N FZFG BKN001 M01/M02
                        Q1023=
201902190900 METAR LRTM 190900Z 26002KT 0200 R07/0225N FZFG SCT001 BKN003
                        M01/M02 Q1023=
201902190930 METAR LRTM 190930Z 27003KT 240V300 0900 R07/1000U FZFG SCT001
                        BKN004 M00/M01 Q1022=
201902191000 METAR LRTM 191000Z 24004KT 200V290 2800 BR FEW002 SCT006
                        01/01 Q1022=
201902191030 METAR LRTM 191030Z 23005KT 210V270 4000 BR FEW002 SCT007
                        03/01 Q1022=
201902191100 METAR LRTM 191100Z 23005KT 210V270 5000 BR SCT007 04/02 Q1021=
201902191130 METAR LRTM 191130Z 26005KT 230V290 7000 FEW012 06/02 Q1021=
201902191200 METAR LRTM 191200Z 25004KT 210V290 7000 FEW012 07/02 Q1021=
201902191230 METAR LRTM 191230Z 25004KT 200V290 8000 FEW012 08/02 Q1020=
201902191300 METAR LRTM 191300Z VRB02KT CAVOK 10/02 Q1020=
201902191330 METAR LRTM 191330Z VRB02KT CAVOK 10/02 Q1020=
201902191400 METAR LRTM 191400Z 26003KT 220V300 CAVOK 10/02 Q1019=
201902191430 METAR LRTM 191430Z 25003KT 220V290 CAVOK 10/01 Q1019=
201902191500 METAR LRTM 191500Z 26003KT CAVOK 10/00 Q1019=
201902191530 METAR LRTM 191530Z 25002KT 8000 NSC 09/02 Q1019=
201902191600 METAR LRTM 191600Z 23004KT 8000 NSC 05/01 Q1019=
201902191630 METAR LRTM 191630Z 28002KT 7000 FEW011 04/01 Q1019=
201902191700 METAR LRTM 191700Z 25002KT 6000 FEW011 03/M01 Q1019=
201902191730 METAR LRTM 191730Z 25004KT 5000 BR SCT010 02/00 Q1019=
201902191800 METAR LRTM 191800Z 29004KT 260V320 5000 BR SCT010 03/01 Q1019=
201902191830 METAR LRTM 191830Z AUTO 00000KT 4200 BR NCD 01/M01 Q1019=
201902191900 METAR LRTM 191900Z AUTO 00000KT 3500 R07/2000 BR NCD M00/M01
                        Q1019=
201902191930 METAR LRTM 191930Z AUTO 07001KT 4000 BR NCD M01/M02 Q1019=
201902192000 METAR LRTM 192000Z AUTO 05003KT 340V070 3100 R07/2000 BR
                        NCD M01/M02 Q1019=
201902192030 METAR LRTM 192030Z AUTO 00000KT 1600 R07/0500VP2000D BCFG
                        NCD M02/M03 Q1019=
201902192100 METAR LRTM 192100Z AUTO VRB01KT 2500 NCD M02/M03 Q1019=
201902192130 METAR LRTM 192130Z AUTO 10001KT 2800 NCD M02/M03 Q1018=
201902192200 METAR LRTM 192200Z AUTO 00000KT 2300 R07/1500VP2000D BCFG
                        NCD M02/M03 Q1018=
201902192230 METAR LRTM 192230Z AUTO 00000KT 2700 NCD M03/M03 Q1018=
201902192300 METAR LRTM 192300Z AUTO 35001KT 1800 R07/1100VP2000D FZFG
                        NCD M03/M04 Q1018=
201902192330 METAR LRTM 192330Z AUTO 07002KT 2800 NCD M03/M04 Q1018=
201902200000 METAR LRTM 200000Z AUTO 10005KT 3600 NCD M02/M03 Q1018=
201902200030 METAR LRTM 200030Z AUTO 09005KT 3400 BR NCD M02/M03 Q1018=
201902200100 METAR LRTM 200100Z AUTO 09005KT 3300 R07/2000 BR NCD M03/M04
                        Q1018=
201902200130 METAR LRTM 200130Z AUTO 10004KT 2800 BR FEW004/// M03/M04
                        Q1018=
201902200200 METAR LRTM 200200Z AUTO 09005KT 3500 BR NCD M03/M04 Q1018=
201902200230 METAR LRTM 200230Z AUTO 10005KT 3200 R07/2000 BR NCD M03/M04
                        Q1018=
201902200300 METAR LRTM 200300Z AUTO 10004KT 4000 BR NCD M03/M03 Q1018=
201902200330 METAR LRTM 200330Z AUTO 09005KT 3600 BR FEW002/// M03/M04
                        Q1018=
201902200400 METAR LRTM 200400Z AUTO 09003KT 360V110 3900 BR NCD M03/M04
                        Q1018=
201902200430 METAR LRTM 200430Z AUTO 32002KT 3500 BR NCD M04/M05 Q1018=
201902200500 METAR LRTM 200500Z AUTO 25002KT 2400 BR NCD M05/M06 Q1018=
201902200530 METAR LRTM 200530Z AUTO 27002KT 240V310 0650 R07/0650V1000D
                        FZFG NCD M06/M06 Q1018=
201902200600 METAR LRTM 200600Z 00000KT 0400 R07/0450N FZFG BKN002 OVC004
                        M05/M06 Q1018=
201902200630 METAR LRTM 200630Z VRB02KT 0200 R07/0200N FZFG BKN001 BKN003
                        M05/M06 Q1019=
201902200700 METAR LRTM 200700Z 00000KT 0350 R07/0500U FZFG BKN002 BKN004
                        M04/M05 Q1019=
201902200730 METAR LRTM 200730Z VRB01KT 1500 BR FEW002 SCT004 M03/M03
                        Q1019=
201902200800 METAR LRTM 200800Z 07003KT 030V110 3000 BR FEW002 SCT004
                        M01/M02 Q1019=
201902200830 METAR LRTM 200830Z 08004KT 3500 BR FEW004 SCT007 01/M01 Q1019=
201902200900 METAR LRTM 200900Z 09005KT 4500 BR FEW005 SCT008 02/M00 Q1019=
201902200930 METAR LRTM 200930Z VRB02KT 4700 BR FEW005 SCT009 04/00 Q1019=
201902201000 METAR LRTM 201000Z VRB02KT 4500 BR SCT007 05/01 Q1019=
201902201030 METAR LRTM 201030Z VRB02KT 6000 FEW010 06/01 Q1019=
201902201100 METAR LRTM 201100Z VRB01KT 7000 FEW010 08/02 Q1018=
201902201130 METAR LRTM 201130Z 29004KT 200V010 8000 FEW012 08/02 Q1018=
201902201200 METAR LRTM 201200Z VRB02KT 8000 FEW015 10/02 Q1018=
201902201230 METAR LRTM 201230Z 35005KT 300V040 8000 NSC 10/02 Q1018=
201902201300 METAR LRTM 201300Z 32007KT 270V360 8000 NSC 10/02 Q1018=
201902201330 METAR LRTM 201330Z 30008KT 260V330 8000 NSC 10/02 Q1018=
201902201400 METAR LRTM 201400Z 34007KT 280V010 7000 NSC 10/02 Q1019=
201902201430 METAR LRTM 201430Z 32005KT 290V350 7000 FEW035 09/02 Q1018=
201902201500 METAR LRTM 201500Z 31006KT 7000 NSC 09/03 Q1019=
201902201530 METAR LRTM 201530Z 28005KT 260V320 7000 NSC 08/02 Q1019=
201902201600 METAR LRTM 201600Z 26004KT 220V320 8000 NSC 07/01 Q1019=
201902201630 METAR LRTM 201630Z VRB02KT 8000 NSC 06/M00 Q1020=
201902201700 METAR LRTM 201700Z 31007KT 280V350 CAVOK 07/00 Q1020=
201902201730 METAR LRTM 201730Z 32012KT 290V350 CAVOK 06/M00 Q1020=
201902201800 METAR LRTM 201800Z 33016KT 9999 FEW045 06/M01 Q1020=
201902201830 METAR LRTM 201830Z AUTO 32014KT 9999 SCT076/// 06/M01 Q1021=
201902201900 METAR LRTM 201900Z AUTO 33013KT 9999 BKN084/// 06/M01 Q1021=
201902201930 METAR LRTM 201930Z AUTO 33010KT 9999 OVC090/// 06/M01 Q1021=
201902202000 METAR LRTM 202000Z AUTO 32007KT 9999 OVC083/// 05/M01 Q1021=
201902202030 METAR LRTM 202030Z AUTO 22004KT 200V270 9999 OVC095/// 03/M01
                        Q1022=
201902202100 METAR LRTM 202100Z AUTO VRB03KT 9999 BKN085/// 02/M01 Q1022=
201902202130 METAR LRTM 202130Z AUTO 20004KT 170V230 9999 BKN081/// 03/M01
                        Q1022=
201902202200 METAR LRTM 202200Z AUTO 22004KT 200V260 9999 BKN083/// 03/M01
                        Q1022=
201902202230 METAR LRTM 202230Z AUTO 24003KT 9999 BKN066/// 03/M02 Q1022=
201902202300 METAR LRTM 202300Z AUTO 23002KT 190V280 9999 BKN069/// 02/M02
                        Q1022=
201902202330 METAR LRTM 202330Z AUTO 21004KT 9999 BKN078/// 03/M01 Q1023=
201902210000 METAR LRTM 210000Z AUTO 29002KT 240V340 9999 BKN073/// 02/M01
                        Q1023=
201902210030 METAR LRTM 210030Z AUTO VRB01KT 9999 BKN077/// 01/M02 Q1023=
201902210100 METAR LRTM 210100Z AUTO 25003KT 9999 NCD M00/M02 Q1023=
201902210130 METAR LRTM 210130Z AUTO 23003KT 9999 NCD M00/M03 Q1023=
201902210200 METAR LRTM 210200Z AUTO 24002KT 210V280 9999 NCD M00/M03
                        Q1023=
201902210230 METAR LRTM 210230Z AUTO 09002KT 050V150 8000 FEW072/// M02/M03
                        Q1023=
201902210300 METAR LRTM 210300Z AUTO 08004KT 8000 NCD M02/M04 Q1023=
201902210330 METAR LRTM 210330Z AUTO 09005KT 6000 NCD M03/M04 Q1024=
201902210400 METAR LRTM 210400Z AUTO 05002KT 350V080 5000 BR FEW068///
                        M03/M04 Q1024=
201902210430 METAR LRTM 210430Z AUTO 09004KT 6000 BKN065/// M03/M04 Q1024=
201902210500 METAR LRTM 210500Z AUTO VRB01KT 7000 OVC065/// M02/M03 Q1024=
201902210530 METAR LRTM 210530Z AUTO VRB01KT 6000 OVC062/// M02/M03 Q1024=
201902210600 METAR COR LRTM 210600Z 00000KT CAVOK M01/M03 Q1025=
201902210630 METAR LRTM 210630Z VRB01KT CAVOK M01/M02 Q1025=
201902210700 METAR LRTM 210700Z VRB01KT CAVOK 00/M01 Q1025=
201902210730 METAR LRTM 210730Z 24004KT CAVOK 02/M00 Q1025=
201902210800 METAR LRTM 210800Z 23004KT CAVOK 03/M00 Q1025=
201902210830 METAR LRTM 210830Z 22009KT CAVOK 04/M01 Q1025=
201902210900 METAR LRTM 210900Z 23007KT CAVOK 05/M01 Q1025=
201902210930 METAR LRTM 210930Z 24008KT CAVOK 06/M01 Q1025=
201902211000 METAR LRTM 211000Z 24009KT CAVOK 07/M01 Q1025=
201902211030 METAR LRTM 211030Z 26008KT 240V300 CAVOK 08/M01 Q1025=
201902211100 METAR LRTM 211100Z 26008KT 230V300 CAVOK 08/M03 Q1025=
201902211130 METAR LRTM 211130Z 28009KT CAVOK 09/M03 Q1025=
201902211200 METAR LRTM 211200Z 29007KT 260V330 CAVOK 08/M03 Q1024=
201902211230 METAR LRTM 211230Z 27008KT 250V320 CAVOK 09/M03 Q1024=
201902211300 METAR LRTM 211300Z 30008KT 270V340 CAVOK 09/M03 Q1024=
201902211330 METAR LRTM 211330Z 29009KT 260V330 CAVOK 09/M03 Q1024=
201902211400 METAR LRTM 211400Z 31009KT CAVOK 08/M03 Q1024=
201902211430 METAR LRTM 211430Z 30005KT 260V330 CAVOK 09/M02 Q1024=
201902211500 METAR LRTM 211500Z 29006KT CAVOK 08/M03 Q1024=
201902211530 METAR LRTM 211530Z 31003KT 270V350 CAVOK 08/M02 Q1024=
201902211600 METAR LRTM 211600Z 32003KT CAVOK 07/M02 Q1023=
201902211630 METAR LRTM 211630Z 01005KT CAVOK 06/M03 Q1023=
201902211700 METAR LRTM 211700Z VRB02KT CAVOK 04/M02 Q1023=
201902211730 METAR LRTM 211730Z VRB01KT CAVOK 04/M02 Q1023=
201902211800 METAR LRTM 211800Z 26003KT 220V350 CAVOK 03/M02 Q1023=
201902211830 METAR LRTM 211830Z 24002KT CAVOK 02/M02 Q1023=
201902211900 METAR LRTM 211900Z VRB01KT CAVOK 01/M02 Q1023=
201902211930 METAR LRTM 211930Z VRB01KT CAVOK 00/M03 Q1023=
201902212000 METAR LRTM 212000Z 00000KT CAVOK M00/M03 Q1022=
201902212030 METAR LRTM 212030Z 08002KT CAVOK M01/M03 Q1022=
201902212100 METAR LRTM 212100Z 24005KT CAVOK M01/M03 Q1022=
201902212130 METAR LRTM 212130Z 00000KT CAVOK M01/M03 Q1022=
201902212200 METAR LRTM 212200Z 00000KT CAVOK M01/M03 Q1022=
201902212230 METAR LRTM 212230Z 00000KT CAVOK 00/M03 Q1022=
201902212300 METAR LRTM 212300Z 08002KT CAVOK M00/M02 Q1021=
201902212330 METAR LRTM 212330Z 08002KT CAVOK 00/M02 Q1021=
201902220000 METAR LRTM 220000Z 33001KT CAVOK 00/M02 Q1020=
201902220030 METAR LRTM 220030Z 00000KT CAVOK 00/M02 Q1020=
201902220100 METAR LRTM 220100Z 09002KT CAVOK 00/M02 Q1019=
201902220130 METAR LRTM 220130Z 06003KT 010V090 CAVOK 00/M02 Q1019=
201902220200 METAR LRTM 220200Z 08003KT 7000 FEW009 00/M01 Q1018=
201902220230 METAR LRTM 220230Z 00000KT 7000 FEW010 SCT045 01/M01 Q1018=
201902220300 METAR LRTM 220300Z VRB01KT 7000 -SN FEW010 BKN040 01/M01
                        Q1018=
201902220330 METAR LRTM 220330Z 04002KT 7000 -RASN SCT009 BKN036 01/M01
                        Q1018=
201902220400 METAR LRTM 220400Z 09005KT 4400 -RASN BR SCT009 BKN035 01/M01
                        Q1018=
201902220430 METAR LRTM 220430Z 11004KT 2200 -SHSN BR SCT008 SCT028CB
                        OVC032 00/M00 Q1017 R07/29//95=
201902220500 METAR LRTM 220500Z 13002KT 1600 SN BR SCT002 BKN007 OVC025
                        00/M00 Q1017 R07/29//95=
201902220530 METAR LRTM 220530Z 08002KT 1000 R07/1300D -SN BR BKN003 OVC012
                        00/M00 Q1017 R07/29//95=
201902220600 METAR LRTM 220600Z 05002KT 1500 -SN BR SCT005 OVC013 00/M00
                        Q1016 R07/29//95=
201902220630 METAR LRTM 220630Z 08001KT 1200 R07/1300N -SN BR SCT003 OVC010
                        00/M00 Q1016 R07/29//95=
201902220700 METAR LRTM 220700Z 00000KT 1000 R07/1000U -SN BR BKN003 OVC010
                        00/M00 Q1016 R07/29//95=
201902220730 METAR COR LRTM 220730Z 00000KT 1000 R07/1300D -SN BR BKN003
                        OVC010 01/01 Q1016 R07/690395=
201902220800 METAR LRTM 220800Z 00000KT 1000 R07/1300N -RASN BR BKN005
                        OVC011 01/01 Q1016 R07/690395=
201902220830 METAR LRTM 220830Z VRB01KT 1500 -RASN BR BKN006 OVC012 01/M00
                        Q1016 R07/690395=
201902220900 METAR LRTM 220900Z 24003KT 2000 -RASN BR FEW003 BKN010 OVC020
                        01/00 Q1016 R07/690395=
201902220930 METAR LRTM 220930Z 24005KT 1700 -RASN BR SCT002 BKN010 OVC020
                        01/00 Q1016 R07/690395=
201902221000 METAR LRTM 221000Z 25006KT 2000 BR SCT002 BKN010 OVC020 01/01
                        Q1016 R07/29//95=
201902221030 METAR LRTM 221030Z 25006KT 2500 BR SCT004 BKN012 OVC021 02/01
                        Q1016 R07/29//95=
201902221100 METAR LRTM 221100Z 25006KT 3500 BR FEW005 SCT015 OVC025 02/01
                        Q1016 R07/29//95=
201902221130 METAR LRTM 221130Z 26005KT 210V290 4000 BR FEW007 SCT015
                        OVC025 02/01 Q1016 R07/29//95=
201902221200 METAR LRTM 221200Z 28006KT 7000 SCT006 BKN015 OVC025 03/01
                        Q1016 R07/29//95=
201902221230 METAR LRTM 221230Z 31005KT 270V340 8000 FEW006 BKN020 OVC028
                        03/01 Q1016 R07/29//95=
201902221300 METAR LRTM 221300Z 28004KT 250V320 8000 -RA FEW009 BKN020
                        OVC028 03/01 Q1016 R07/29//95=
201902221330 METAR LRTM 221330Z 31005KT 270V330 8000 -RA FEW009 BKN020
                        OVC028 03/01 Q1015 R07/29//95=
201902221400 METAR LRTM 221400Z 32004KT 290V350 7000 -RA FEW007 BKN020
                        OVC025 02/01 Q1015 R07/29//95=
201902221430 METAR LRTM 221430Z 34007KT 300V360 7000 RASN FEW007 BKN020
                        OVC025 02/01 Q1016 R07/29//95=
201902221500 METAR LRTM 221500Z 03012KT 360V060 4500 -SHSNRA BR FEW005
                        BKN010 FEW020CB OVC023 01/M00 Q1016
                        R07/29//95=
201902221530 METAR LRTM 221530Z 05011KT 1200 R07/1300D SHSN BR BKN003
                        FEW020CB OVC023 00/M02 Q1017 R07/29//95=
201902221600 METAR LRTM 221600Z 04008KT 5000 -SN BR FEW008 SCT023 BKN036
                        M00/M02 Q1018 R07/29//95=
201902221630 METAR LRTM 221630Z 01007KT 9999 -SN BKN036 M00/M03 Q1019
                        R07/29//95=
201902221700 METAR LRTM 221700Z 03006KT 9999 BKN040 00/M04 Q1020 R07/29//95=
201902221730 METAR LRTM 221730Z 06009KT 9999 -SN BKN038 M01/M08 Q1021
                        R07/29//95=
201902221800 METAR LRTM 221800Z 04014KT 9999 -SN BKN038 M02/M11 Q1022
                        R07/29//95=
201902221830 METAR LRTM 221830Z AUTO 04012KT 010V070 9999 FEW085/// M03/M12
                        Q1023=
201902221900 METAR LRTM 221900Z AUTO 04013KT 9999 SCT070/// M03/M13 Q1024=
201902221930 METAR LRTM 221930Z AUTO 04015G25KT 9999 FEW065/// M04/M14
                        Q1025=
201902222000 METAR LRTM 222000Z AUTO 04015KT 9999 NCD M04/M14 Q1026=
201902222030 METAR LRTM 222030Z AUTO 04019G29KT 360V070 9999 NCD M05/M15
                        Q1027=
201902222100 METAR LRTM 222100Z AUTO 04015KT 9999 NCD M05/M15 Q1027=
201902222130 METAR LRTM 222130Z AUTO 03009KT 9999 NCD M05/M14 Q1028=
201902222200 METAR LRTM 222200Z AUTO 01005KT 340V050 9999 NCD M06/M14
                        Q1029=
201902222230 METAR LRTM 222230Z AUTO 36005KT 9999 NCD M06/M14 Q1029=
201902222300 METAR LRTM 222300Z AUTO 34003KT 300V020 9999 NCD M07/M13
                        Q1030=
201902222330 METAR LRTM 222330Z AUTO VRB01KT 9999 NCD M07/M13 Q1030=
201902230000 METAR LRTM 230000Z AUTO 27002KT 210V360 9999 NCD M07/M14
                        Q1031=
201902230030 METAR LRTM 230030Z AUTO 29002KT 260V320 9999 BKN055/// M07/M14
                        Q1031=
201902230100 METAR LRTM 230100Z AUTO 35003KT 300V040 9999 BKN055/// M07/M14
                        Q1032=
201902230130 METAR LRTM 230130Z AUTO 35003KT 9999 SCT055/// M08/M14 Q1032=
201902230200 METAR LRTM 230200Z AUTO VRB01KT 9999 NCD M08/M13 Q1032=
201902230230 METAR LRTM 230230Z AUTO 01002KT 320V130 9999 NCD M08/M13
                        Q1033=
201902230300 METAR LRTM 230300Z AUTO 36004KT 340V040 9999 NCD M09/M13
                        Q1033=
201902230330 METAR LRTM 230330Z AUTO 23003KT 9999 NCD M09/M13 Q1034=
201902230400 METAR LRTM 230400Z AUTO 19004KT 9999 NCD M09/M13 Q1034=
201902230430 METAR LRTM 230430Z AUTO 20003KT 180V240 9999 NCD M09/M13
                        Q1034=
201902230500 METAR LRTM 230500Z AUTO 26004KT 9999 NCD M10/M13 Q1034=
201902230530 METAR LRTM 230530Z AUTO 23004KT 9999 NCD M10/M13 Q1035=
201902230600 METAR LRTM 230600Z 28003KT CAVOK M09/M12 Q1035 R07/29//95=
201902230630 METAR LRTM 230630Z 25004KT CAVOK M07/M12 Q1036 R07/29//95=
201902230700 METAR LRTM 230700Z 24005KT CAVOK M06/M12 Q1036 R07/CLRD//=
201902230730 METAR LRTM 230730Z 23005KT CAVOK M06/M12 Q1036=
201902230800 METAR LRTM 230800Z 25004KT CAVOK M05/M11 Q1036=
201902230830 METAR LRTM 230830Z 24004KT 210V280 9999 FEW025 M04/M11 Q1036=
201902230900 METAR LRTM 230900Z 21005KT 180V250 9999 FEW027 M04/M11 Q1036=
201902230930 METAR LRTM 230930Z VRB06KT 9999 SCT033 M03/M12 Q1037=
201902231000 METAR LRTM 231000Z 26006KT 220V290 9999 FEW033 SCT037 M02/M11
                        Q1037=
201902231030 METAR LRTM 231030Z 32005KT 290V010 9999 FEW034 BKN040 M03/M13
                        Q1037=
201902231100 METAR LRTM 231100Z 30008KT 270V330 9999 SCT040 M02/M12 Q1036=
201902231130 METAR LRTM 231130Z 26004KT 220V280 9999 BKN040 M03/M13 Q1036=
201902231200 METAR LRTM 231200Z 24004KT 200V290 9999 BKN045 M02/M12 Q1036=
201902231230 METAR LRTM 231230Z 26007KT 9999 BKN045 M02/M10 Q1036=
201902231300 METAR LRTM 231300Z 27007KT 9999 BKN045 M02/M12 Q1036=
201902231330 METAR LRTM 231330Z 28006KT 260V320 9999 BKN045 M02/M12 Q1036=
201902231400 METAR LRTM 231400Z 28006KT 240V330 9999 SCT044 M02/M12 Q1036=
201902231430 METAR LRTM 231430Z 31006KT 250V340 9999 SCT047 M02/M12 Q1036=
201902231500 METAR LRTM 231500Z VRB05KT 9999 FEW048 M01/M11 Q1037=
201902231530 METAR LRTM 231530Z 22006KT 160V280 CAVOK M01/M10 Q1037=
201902231600 METAR LRTM 231600Z 23007KT CAVOK M03/M09 Q1037=
201902231630 METAR LRTM 231630Z 24005KT CAVOK M03/M09 Q1037=
201902231700 METAR LRTM 231700Z 26004KT CAVOK M03/M09 Q1037=
201902231730 METAR LRTM 231730Z 23005KT CAVOK M04/M09 Q1037=
201902231800 METAR LRTM 231800Z 24005KT CAVOK M05/M09 Q1037=
201902231830 METAR LRTM 231830Z AUTO 25004KT 9999 NCD M05/M09 Q1037=
201902231900 METAR LRTM 231900Z AUTO 24003KT 9999 NCD M05/M09 Q1037=
201902231930 METAR LRTM 231930Z AUTO 22004KT 9999 NCD M07/M10 Q1037=
201902232000 METAR LRTM 232000Z AUTO 24004KT 9999 NCD M06/M10 Q1037=
201902232030 METAR LRTM 232030Z AUTO VRB01KT 9999 NCD M06/M10 Q1037=
201902232100 METAR LRTM 232100Z AUTO 00000KT 9999 NCD M06/M10 Q1038=
201902232130 METAR LRTM 232130Z AUTO VRB01KT 9999 NCD M06/M10 Q1038=
201902232200 METAR LRTM 232200Z AUTO 14002KT 080V170 9999 NCD M07/M10
                        Q1038=
201902232230 METAR LRTM 232230Z AUTO 08005KT 9999 NCD M08/M11 Q1038=
201902232300 METAR LRTM 232300Z AUTO 06004KT 9999 NCD M07/M11 Q1038=
201902232330 METAR LRTM 232330Z AUTO 07005KT 9999 NCD M08/M11 Q1038=
201902240000 METAR LRTM 240000Z AUTO 07004KT 9999 NCD M08/M11 Q1038=
201902240030 METAR LRTM 240030Z AUTO 07003KT 9999 NCD M09/M11 Q1038=
201902240100 METAR LRTM 240100Z AUTO 10003KT 9999 NCD M09/M11 Q1038=
201902240130 METAR LRTM 240130Z AUTO 09004KT 9999 FEW240/// M09/M12 Q1037=
201902240200 METAR LRTM 240200Z AUTO 08005KT 9999 FEW240/// M09/M12 Q1037=
201902240230 METAR LRTM 240230Z AUTO 11002KT 9999 FEW190/// M09/M11 Q1037=
201902240300 METAR LRTM 240300Z AUTO 05003KT 9999 BKN150/// M09/M11 Q1037=
201902240330 METAR LRTM 240330Z AUTO 09002KT 9999 SCT130/// BKN150///
                        M09/M11 Q1037=
201902240400 METAR LRTM 240400Z AUTO VRB01KT 9999 FEW100/// BKN120///
                        BKN150/// M08/M11 Q1037=
201902240430 METAR LRTM 240430Z AUTO 06003KT 9999 BKN120/// M08/M10 Q1037=
201902240500 METAR LRTM 240500Z AUTO 10004KT 9999 OVC110/// M07/M10 Q1037=
201902240530 METAR LRTM 240530Z AUTO 09003KT 9999 FEW095/// BKN110///
                        BKN130/// M07/M10 Q1037=
201902240600 METAR LRTM 240600Z 05003KT 010V070 CAVOK M07/M11 Q1037=
201902240630 METAR LRTM 240630Z 06003KT CAVOK M07/M10 Q1037=
201902240700 METAR LRTM 240700Z 07004KT CAVOK M06/M10 Q1037=
201902240730 METAR LRTM 240730Z 09004KT CAVOK M06/M09 Q1037=
201902240800 METAR LRTM 240800Z 08004KT CAVOK M05/M10 Q1037=
201902240830 METAR LRTM 240830Z 07003KT 040V110 CAVOK M05/M09 Q1038=
201902240900 METAR LRTM 240900Z VRB03KT CAVOK M04/M10 Q1038=
201902240930 METAR LRTM 240930Z VRB02KT CAVOK M03/M11 Q1037=
201902241000 METAR LRTM 241000Z VRB01KT CAVOK M03/M10 Q1037=
201902241030 METAR LRTM 241030Z VRB02KT CAVOK M03/M10 Q1037=
201902241100 METAR LRTM 241100Z VRB02KT CAVOK M02/M09 Q1037=
201902241130 METAR LRTM 241130Z VRB01KT CAVOK M02/M09 Q1037=
201902241200 METAR LRTM 241200Z 28002KT CAVOK M02/M10 Q1036=
201902241230 METAR LRTM 241230Z 24003KT 190V290 CAVOK M02/M10 Q1036=
201902241300 METAR LRTM 241300Z 04002KT CAVOK M01/M10 Q1036=
201902241330 METAR LRTM 241330Z 18002KT CAVOK M01/M10 Q1036=
201902241400 METAR LRTM 241400Z 33003KT 280V030 CAVOK M02/M10 Q1035=
201902241430 METAR LRTM 241430Z VRB03KT CAVOK M02/M10 Q1035=
201902241500 METAR LRTM 241500Z VRB01KT CAVOK M02/M10 Q1035=
201902241530 METAR LRTM 241530Z VRB02KT CAVOK M02/M11 Q1035=
201902241600 METAR LRTM 241600Z VRB01KT CAVOK M02/M10 Q1035=
201902241630 METAR LRTM 241630Z 00000KT CAVOK M02/M10 Q1035=
201902241700 METAR LRTM 241700Z 09003KT CAVOK M03/M09 Q1035=
201902241730 METAR LRTM 241730Z 13003KT CAVOK M02/M08 Q1035=
201902241800 METAR LRTM 241800Z 12002KT CAVOK M02/M08 Q1035=
201902241830 METAR LRTM 241830Z 15003KT CAVOK M02/M09 Q1035=
201902241900 METAR LRTM 241900Z 08002KT CAVOK M02/M07 Q1035=
201902241930 METAR LRTM 241930Z 05002KT CAVOK M02/M08 Q1035=
201902242000 METAR LRTM 242000Z 07003KT 9999 BKN045 M03/M07 Q1036=
201902242030 METAR LRTM 242030Z 06002KT 9999 OVC048 M03/M07 Q1036=
201902242100 METAR LRTM 242100Z 05001KT 9999 BKN044 M03/M07 Q1036=
201902242130 METAR LRTM 242130Z 00000KT 9999 BKN044 M03/M07 Q1036=
201902242200 METAR LRTM 242200Z 00000KT 9999 BKN041 M03/M07 Q1036=
201902242230 METAR LRTM 242230Z VRB02KT 9999 BKN036 BKN047 M03/M07 Q1036=
201902242300 METAR LRTM 242300Z 18003KT 9999 BKN038 SCT047 M03/M07 Q1036=
201902242330 METAR LRTM 242330Z VRB01KT 9999 BKN040 M03/M07 Q1035=
201902250000 METAR LRTM 250000Z VRB01KT 9999 OVC042 M03/M08 Q1036=
201902250030 METAR LRTM 250030Z 00000KT 9999 OVC041 M03/M07 Q1036=
201902250100 METAR LRTM 250100Z 00000KT 9999 OVC040 M03/M08 Q1035=
201902250130 METAR LRTM 250130Z 08002KT 9999 OVC039 M03/M06 Q1035=
201902250200 METAR LRTM 250200Z 00000KT 9999 OVC039 M03/M06 Q1035=
201902250230 METAR LRTM 250230Z 00000KT 9999 OVC039 M03/M06 Q1035=
201902250300 METAR LRTM 250300Z 26001KT 9999 OVC039 M03/M06 Q1035=
201902250330 METAR LRTM 250330Z 00000KT 9999 FEW005 BKN039 M03/M07 Q1035=
201902250400 METAR LRTM 250400Z 08002KT 9999 FEW005 BKN037 M03/M06 Q1035=
201902250430 METAR LRTM 250430Z 09002KT 9999 FEW006 BKN037 M04/M07 Q1035=
201902250500 METAR LRTM 250500Z 11003KT 9999 FEW036 M04/M07 Q1035=
201902250530 METAR LRTM 250530Z 00000KT CAVOK M05/M07 Q1035=
201902250600 METAR LRTM 250600Z 09003KT CAVOK M05/M07 Q1035=
201902250630 METAR LRTM 250630Z 09004KT CAVOK M04/M06 Q1035=
201902250700 METAR LRTM 250700Z 08003KT 050V110 9999 FEW038 M02/M07 Q1035=
201902250730 METAR LRTM 250730Z 12002KT 9999 SCT036 M01/M07 Q1035=
201902250800 METAR LRTM 250800Z VRB02KT 9999 SCT036 M01/M07 Q1035=
201902250830 METAR LRTM 250830Z 12002KT 9999 SCT036 M00/M07 Q1035=
201902250900 METAR LRTM 250900Z VRB03KT 9999 SCT031 M00/M08 Q1035=
201902250930 METAR LRTM 250930Z VRB03KT 9999 SCT032 01/M08 Q1035=
201902251000 METAR LRTM 251000Z VRB04KT 9999 FEW034 02/M07 Q1034=
201902251030 METAR LRTM 251030Z 23004KT 150V290 9999 FEW036 01/M07 Q1034=
201902251100 METAR LRTM 251100Z VRB04KT CAVOK 02/M06 Q1034=
201902251130 METAR LRTM 251130Z VRB05KT CAVOK 03/M06 Q1034=
201902251200 METAR LRTM 251200Z VRB04KT CAVOK 03/M06 Q1033=
201902251230 METAR LRTM 251230Z 26005KT 220V310 9999 FEW036 04/M05 Q1033=
201902251300 METAR LRTM 251300Z 25004KT 200V350 9999 FEW036 04/M05 Q1033=
201902251330 METAR LRTM 251330Z 25005KT 190V290 9999 FEW036 04/M05 Q1032=
201902251400 METAR LRTM 251400Z VRB03KT 9999 FEW037 04/M05 Q1032=
201902251430 METAR LRTM 251430Z 25005KT 200V300 CAVOK 04/M05 Q1032=
201902251500 METAR LRTM 251500Z 23006KT CAVOK 04/M05 Q1031=
201902251530 METAR LRTM 251530Z 20005KT 180V240 CAVOK 03/M04 Q1031=
201902251600 METAR LRTM 251600Z 20004KT CAVOK 02/M04 Q1031=
201902251630 METAR LRTM 251630Z 21004KT CAVOK 00/M05 Q1031=
201902251700 METAR LRTM 251700Z 27003KT CAVOK M00/M04 Q1031=
201902251730 METAR LRTM 251730Z 00000KT CAVOK M00/M04 Q1031=
201902251800 METAR LRTM 251800Z 22002KT CAVOK M01/M04 Q1030=
201902251830 METAR LRTM 251830Z AUTO VRB01KT 9999 FEW046/// SCT150///
                        M01/M04 Q1031=
201902251900 METAR LRTM 251900Z AUTO 19002KT 9999 OVC050/// M00/M04 Q1031=
201902251930 METAR LRTM 251930Z AUTO VRB01KT 9999 BKN050/// M01/M04 Q1031=
201902252000 METAR LRTM 252000Z AUTO 23003KT 9999 BKN047/// M01/M04 Q1030=
201902252030 METAR LRTM 252030Z AUTO 27003KT 240V310 9999 BKN046/// M01/M04
                        Q1030=
201902252100 METAR LRTM 252100Z AUTO 26003KT 9999 SCT047/// M01/M04 Q1030=
201902252130 METAR LRTM 252130Z AUTO 30002KT 260V340 8000 NCD M02/M05
                        Q1030=
201902252200 METAR LRTM 252200Z AUTO 28003KT 9000 FEW048/// M02/M05 Q1030=
201902252230 METAR LRTM 252230Z AUTO 00000KT 9999 NCD M03/M05 Q1029=
201902252300 METAR LRTM 252300Z AUTO 27002KT 220V310 9999 NCD M03/M05
                        Q1029=
201902252330 METAR LRTM 252330Z AUTO 28004KT 9999 BKN120/// M02/M04 Q1029=
201902260000 METAR LRTM 260000Z AUTO 26002KT 230V290 9999 FEW046/// M03/M05
                        Q1029=
201902260030 METAR LRTM 260030Z AUTO 30003KT 9999 FEW130/// M04/M06 Q1028=
201902260100 METAR LRTM 260100Z AUTO 00000KT 9999 NCD M04/M06 Q1028=
201902260130 METAR LRTM 260130Z AUTO VRB01KT 8000 NCD M05/M06 Q1027=
201902260200 METAR LRTM 260200Z AUTO 09002KT 8000 NCD M05/M06 Q1027=
201902260230 METAR LRTM 260230Z AUTO 09004KT 9000 NCD M05/M07 Q1027=
201902260300 METAR LRTM 260300Z AUTO 07006KT 6000 NCD M05/M07 Q1027=
201902260330 METAR LRTM 260330Z AUTO 09004KT 6000 NCD M05/M07 Q1026=
201902260400 METAR LRTM 260400Z AUTO 09004KT 6000 FEW043/// M05/M07 Q1026=
201902260430 METAR LRTM 260430Z AUTO 12002KT 080V150 6000 FEW044/// M06/M07
                        Q1026=
201902260500 METAR LRTM 260500Z AUTO 08002KT 050V110 6000 NCD M06/M07
                        Q1025=
201902260530 METAR LRTM 260530Z AUTO 09003KT 6000 BKN170/// M05/M07 Q1025=
201902260600 METAR LRTM 260600Z 09004KT 5000 BR SCT006 M05/M06 Q1025=
201902260630 METAR LRTM 260630Z 09004KT 5000 BR SCT006 M04/M06 Q1024=
201902260700 METAR LRTM 260700Z VRB02KT 5000 BR SCT007 M03/M05 Q1024=
201902260730 METAR LRTM 260730Z VRB02KT 4000 BR SCT005 M03/M05 Q1024=
201902260800 METAR LRTM 260800Z 11003KT 5000 BR SCT005 M02/M05 Q1023=
201902260830 METAR LRTM 260830Z VRB02KT 6000 SCT007 M01/M04 Q1023=
201902260900 METAR LRTM 260900Z VRB02KT 8000 SCT009 BKN040 M01/M05 Q1023=
201902260930 METAR LRTM 260930Z VRB01KT 8000 SCT011 BKN040 01/M04 Q1022=
201902261000 METAR LRTM 261000Z 24003KT 180V280 8000 FEW015 BKN042 01/M04
                        Q1022=
201902261030 METAR LRTM 261030Z 23005KT 190V260 9999 BKN042 02/M04 Q1021=
201902261100 METAR LRTM 261100Z 24003KT 180V270 9999 BKN045 02/M03 Q1021=
201902261130 METAR LRTM 261130Z 23003KT 180V290 CAVOK 03/M03 Q1020=
201902261200 METAR LRTM 261200Z 25004KT 190V280 CAVOK 03/M04 Q1020=
201902261230 METAR LRTM 261230Z VRB03KT CAVOK 05/M04 Q1019=
201902261300 METAR LRTM 261300Z 30005KT 270V340 CAVOK 05/M03 Q1019=
201902261330 METAR LRTM 261330Z 28004KT 230V350 CAVOK 06/M03 Q1018=
201902261400 METAR LRTM 261400Z 26006KT 240V310 CAVOK 06/M03 Q1017=
201902261430 METAR LRTM 261430Z 29011KT 260V330 CAVOK 07/M03 Q1017=
201902261500 METAR LRTM 261500Z 31013KT 280V340 CAVOK 06/M02 Q1017=
201902261530 METAR LRTM 261530Z 33010KT CAVOK 05/M02 Q1017=
201902261600 METAR LRTM 261600Z 31008KT CAVOK 05/M02 Q1017=
201902261630 METAR LRTM 261630Z 29003KT 230V030 CAVOK 03/M03 Q1017=
201902261700 METAR LRTM 261700Z 29006KT CAVOK 04/M02 Q1017=
201902261730 METAR LRTM 261730Z 27006KT CAVOK 02/M02 Q1017=
201902261800 METAR LRTM 261800Z 27006KT CAVOK 03/M02 Q1017=
201902261830 METAR LRTM 261830Z AUTO 27004KT 9999 BKN180/// 02/M02 Q1017=
201902261900 METAR LRTM 261900Z AUTO 29006KT 9999 FEW070/// SCT085///
                        BKN100/// 03/M02 Q1017=
201902261930 METAR LRTM 261930Z AUTO 30005KT 250V340 9999 FEW080/// SCT110///
                        BKN140/// 03/M02 Q1017=
201902262000 METAR LRTM 262000Z AUTO VRB01KT 9999 FEW095/// BKN130///
                        02/M02 Q1017=
201902262030 METAR LRTM 262030Z AUTO 22003KT 190V250 9999 BKN090/// 02/M02
                        Q1017=
201902262100 METAR LRTM 262100Z AUTO 08003KT 020V120 9999 FEW080/// BKN110///
                        02/M02 Q1017=
201902262130 METAR LRTM 262130Z AUTO 30003KT 9999 SCT070/// BKN085///
                        03/M02 Q1017=
201902262200 METAR LRTM 262200Z AUTO 28004KT 9999 BKN060/// BKN075///
                        02/M02 Q1018=
201902262230 METAR LRTM 262230Z AUTO 33004KT 290V360 9999 -RA BKN065///
                        OVC080/// 03/M01 Q1017=
201902262300 METAR LRTM 262300Z AUTO 35005KT 9999 -SHRA SCT075/// BKN090///
                        03/M02 Q1017=
201902262330 METAR LRTM 262330Z AUTO 34004KT 9999 BKN080/// BKN095///
                        02/M02 Q1017 REDZ=
201902270000 METAR LRTM 270000Z AUTO 04004KT 360V100 9999 SCT075/// BKN090///
                        03/M02 Q1018=
201902270030 METAR LRTM 270030Z AUTO 08003KT 9999 SCT050/// BKN085///
                        01/M02 Q1018=
201902270100 METAR LRTM 270100Z AUTO 33005KT 9999 FEW050/// BKN080///
                        02/M02 Q1018=
201902270130 METAR LRTM 270130Z AUTO VRB03KT 9999 BKN080/// 02/M02 Q1018=
201902270200 METAR LRTM 270200Z AUTO 17003KT 120V200 9999 OVC085/// 02/M02
                        Q1018=
201902270230 METAR LRTM 270230Z AUTO VRB03KT 9999 OVC085/// 03/M02 Q1018=
201902270300 METAR LRTM 270300Z AUTO VRB02KT 9999 BKN085/// 02/M02 Q1019=
201902270330 METAR LRTM 270330Z AUTO VRB01KT 9999 FEW065/// SCT082///
                        01/M02 Q1019=
201902270400 METAR LRTM 270400Z AUTO VRB01KT 9999 FEW080/// 01/M02 Q1019=
201902270430 METAR LRTM 270430Z AUTO VRB02KT 9999 NCD 01/M03 Q1020=
201902270500 METAR LRTM 270500Z AUTO 34004KT 9999 NCD 01/M02 Q1020=
201902270530 METAR LRTM 270530Z AUTO VRB01KT 9999 NCD M02/M04 Q1020=
201902270600 METAR LRTM 270600Z 23004KT 9999 FEW036 M01/M02 Q1020=
201902270630 METAR LRTM 270630Z 23003KT 9999 SCT036 01/M01 Q1021=
201902270700 METAR LRTM 270700Z 23004KT 9999 FEW036 02/M01 Q1021=
201902270730 METAR LRTM 270730Z 23005KT 9999 FEW036 03/M01 Q1021=
201902270800 METAR LRTM 270800Z 27004KT 240V310 9999 FEW036 04/M02 Q1021=
201902270830 METAR COR LRTM 270830Z 32007KT 280V350 9999 FEW037 06/M01
                        Q1021=
201902270900 METAR LRTM 270900Z VRB05KT 9999 FEW037 06/M02 Q1021=
201902270930 METAR LRTM 270930Z 33006KT 290V360 9999 FEW028 07/M02 Q1021=
201902271000 METAR LRTM 271000Z 31009KT 270V340 9999 SCT028 08/M02 Q1021=
201902271030 METAR LRTM 271030Z 33010KT 300V360 9999 SCT028 08/M03 Q1021=
201902271100 METAR LRTM 271100Z 34012KT 290V010 9999 SCT035 09/M04 Q1020=
201902271130 METAR LRTM 271130Z 34012KT 9999 SCT043 08/M04 Q1020=
201902271200 METAR LRTM 271200Z 34013KT 9999 SCT048 09/M04 Q1020=
201902271230 METAR LRTM 271230Z 32013KT 290V350 9999 BKN048 08/M03 Q1020=
201902271300 METAR LRTM 271300Z 33012KT CAVOK 08/M03 Q1020=
201902271330 METAR LRTM 271330Z 30010KT 270V330 CAVOK 09/M03 Q1019=
201902271400 METAR LRTM 271400Z 32010KT 270V350 CAVOK 09/M03 Q1019=
201902271430 METAR LRTM 271430Z 32009KT CAVOK 08/M03 Q1019=
201902271500 METAR LRTM 271500Z 32013KT CAVOK 08/M03 Q1019=
201902271530 METAR LRTM 271530Z 32012KT CAVOK 08/M03 Q1019=
201902271600 METAR LRTM 271600Z 31006KT 260V330 CAVOK 07/M02 Q1019=
201902271630 METAR LRTM 271630Z 27004KT 240V300 CAVOK 04/M02 Q1019=
201902271700 METAR LRTM 271700Z 30007KT 270V330 CAVOK 05/M02 Q1019=
201902271730 METAR LRTM 271730Z 29007KT CAVOK 04/M02 Q1019=
201902271800 METAR LRTM 271800Z 28007KT CAVOK 03/M02 Q1019=
201902271830 METAR LRTM 271830Z AUTO 29007KT 9999 FEW240/// 03/M02 Q1019=
201902271900 METAR LRTM 271900Z AUTO 28007KT 9999 SCT240/// 03/M02 Q1019=
201902271930 METAR LRTM 271930Z AUTO 27005KT 9999 FEW210/// 03/M02 Q1019=
201902272000 METAR LRTM 272000Z AUTO 28003KT 240V300 9999 FEW230/// 02/M03
                        Q1019=
201902272030 METAR LRTM 272030Z AUTO 26005KT 220V290 9999 NCD 01/M04 Q1019=
201902272100 METAR LRTM 272100Z AUTO 23007KT 9999 NCD M01/M03 Q1019=
201902272130 METAR LRTM 272130Z AUTO 28002KT 230V340 9999 FEW100/// M00/M03
                        Q1019=
201902272200 METAR LRTM 272200Z AUTO 25005KT 9999 BKN100/// M01/M03 Q1019=
201902272230 METAR LRTM 272230Z AUTO 24006KT 9999 OVC110/// 01/M02 Q1018=
201902272300 METAR LRTM 272300Z AUTO 24005KT 9999 OVC110/// 00/M02 Q1018=
201902272330 METAR LRTM 272330Z AUTO 24006KT 9999 FEW080/// BKN110///
                        00/M02 Q1018=
201902280000 METAR LRTM 280000Z AUTO 24003KT 9999 FEW110/// 01/M02 Q1018=
201902280030 METAR LRTM 280030Z AUTO 27004KT 9999 BKN070/// 00/M02 Q1018=
201902280100 METAR LRTM 280100Z AUTO 28002KT 240V300 9999 FEW070/// M01/M03
                        Q1017=
201902280130 METAR LRTM 280130Z AUTO 24002KT 200V260 9999 FEW070/// SCT120///
                        M01/M03 Q1017=
201902280200 METAR LRTM 280200Z AUTO VRB01KT 9999 FEW070/// BKN120///
                        M02/M03 Q1017=
201902280230 METAR LRTM 280230Z AUTO 00000KT 9999 FEW074/// OVC120///
                        M02/M03 Q1016=
201902280300 METAR LRTM 280300Z AUTO 07002KT 9999 OVC120/// M02/M03 Q1016=
201902280330 METAR LRTM 280330Z AUTO 09004KT 9999 OVC130/// M02/M03 Q1016=
201902280400 METAR LRTM 280400Z AUTO 09007KT 7000 BKN072/// M01/M03 Q1016=
201902280430 METAR LRTM 280430Z AUTO 09007KT 7000 OVC068/// M01/M03 Q1016=
201902280500 METAR LRTM 280500Z AUTO 10005KT 8000 OVC067/// M01/M03 Q1016=
201902280530 METAR LRTM 280530Z AUTO 08005KT 6000 OVC065/// M01/M02 Q1016=
201902280600 METAR LRTM 280600Z 09005KT 8000 FEW010 M00/M02 Q1015=
201902280630 METAR LRTM 280630Z 09006KT 9000 FEW010 00/M02 Q1015=
201902280700 METAR LRTM 280700Z 08006KT 9000 FEW012 01/M01 Q1015=
201902280730 METAR LRTM 280730Z 08006KT CAVOK 03/M01 Q1014=
201902280800 METAR LRTM 280800Z 08005KT CAVOK 04/M01 Q1013=
201902280830 METAR LRTM 280830Z 07005KT 020V100 CAVOK 06/M01 Q1013=
201902280900 METAR LRTM 280900Z 06004KT 360V110 CAVOK 07/M00 Q1013=
201902280930 METAR LRTM 280930Z 06004KT 360V110 CAVOK 07/M00 Q1013=
201902281000 METAR LRTM 281000Z VRB02KT CAVOK 10/00 Q1011=
201902281030 METAR LRTM 281030Z 22008KT CAVOK 11/M01 Q1011=
201902281100 METAR LRTM 281100Z 22010KT 200V260 CAVOK 12/M00 Q1010=
201902281130 METAR LRTM 281130Z 22011KT CAVOK 13/M02 Q1009=
201902281200 METAR LRTM 281200Z 24012KT CAVOK 13/M02 Q1008=
201902281230 METAR LRTM 281230Z 22013KT 200V260 CAVOK 14/M00 Q1008=
201902281300 METAR LRTM 281300Z 22013KT 200V260 CAVOK 14/M01 Q1007=
201902281330 METAR LRTM 281330Z 22016KT CAVOK 14/M02 Q1006=
201902281400 METAR LRTM 281400Z 23018KT CAVOK 14/M02 Q1005=
201902281430 METAR LRTM 281430Z 23015KT CAVOK 14/M02 Q1005=
201902281500 METAR LRTM 281500Z 25014KT CAVOK 14/M02 Q1004=
201902281530 METAR LRTM 281530Z 26011KT CAVOK 13/M02 Q1004=
201902281600 METAR LRTM 281600Z 25012KT CAVOK 12/M02 Q1004=
201902281630 METAR LRTM 281630Z 25009KT CAVOK 09/M02 Q1005=
201902281700 METAR LRTM 281700Z 23010KT CAVOK 07/M01 Q1005=
201902281730 METAR LRTM 281730Z 23009KT CAVOK 07/M02 Q1004=
201902281800 METAR LRTM 281800Z 24010KT CAVOK 07/M01 Q1004=
201902281830 METAR LRTM 281830Z 26007KT CAVOK 07/M01 Q1004=
201902281900 METAR LRTM 281900Z 25011KT CAVOK 08/M01 Q1004=
201902281930 METAR LRTM 281930Z 24009KT CAVOK 06/M01 Q1004=
201902282000 METAR LRTM 282000Z 23009KT CAVOK 04/M01 Q1004=
201902282030 METAR LRTM 282030Z 29004KT 240V330 CAVOK 06/M01 Q1004=
201902282100 METAR LRTM 282100Z 24004KT CAVOK 06/M02 Q1004=
201902282130 METAR LRTM 282130Z VRB01KT CAVOK 04/M02 Q1004=
201902282200 METAR LRTM 282200Z 26004KT CAVOK 04/M02 Q1004=
201902282230 METAR LRTM 282230Z 25006KT 220V280 CAVOK 03/M02 Q1004=
201902282300 METAR LRTM 282300Z 24007KT CAVOK 02/M02 Q1005=
201902282330 METAR LRTM 282330Z 25004KT CAVOK 03/M02 Q1005=
