201904010000 METAR LRTM 010000Z AUTO 36003KT 9999 NCD 01/M04 Q1016=
201904010030 METAR LRTM 010030Z AUTO 22002KT 9999 NCD 01/M04 Q1016=
201904010100 METAR LRTM 010100Z AUTO 09006KT 9999 NCD M00/M03 Q1016=
201904010130 METAR LRTM 010130Z AUTO 08005KT 9999 NCD 01/M03 Q1016=
201904010200 METAR LRTM 010200Z AUTO 07003KT 9000 NCD 00/M03 Q1016=
201904010230 METAR LRTM 010230Z AUTO 08003KT 9999 NCD 01/M04 Q1016=
201904010300 METAR LRTM 010300Z AUTO 09006KT 9999 NCD M01/M04 Q1016=
201904010330 METAR LRTM 010330Z AUTO 07004KT 9000 NCD M01/M04 Q1017=
201904010400 METAR LRTM 010400Z AUTO 09003KT 9999 NCD M00/M03 Q1017=
201904010430 METAR LRTM 010430Z AUTO 09005KT 9000 NCD M00/M03 Q1017=
201904010500 METAR LRTM 010500Z 08004KT 8000 FEW008 01/M02 Q1018=
201904010530 METAR LRTM 010530Z 08006KT 9000 FEW008 02/M02 Q1018=
201904010600 METAR LRTM 010600Z 10004KT 060V130 8000 FEW008 04/M01 Q1018=
201904010630 METAR LRTM 010630Z 08005KT 8000 FEW009 07/M00 Q1018=
201904010700 METAR LRTM 010700Z 05003KT 020V100 9000 FEW009 08/00 Q1018=
201904010730 METAR LRTM 010730Z 10003KT 070V130 CAVOK 11/01 Q1018=
201904010800 METAR LRTM 010800Z 09004KT 050V130 CAVOK 13/M00 Q1018=
201904010830 METAR LRTM 010830Z 10003KT 010V160 CAVOK 15/01 Q1018=
201904010900 METAR LRTM 010900Z 09004KT 040V190 CAVOK 17/02 Q1018=
201904010930 METAR LRTM 010930Z 09005KT 030V170 CAVOK 18/01 Q1017=
201904011000 METAR LRTM 011000Z VRB04KT 9999 FEW030 19/02 Q1017=
201904011030 METAR LRTM 011030Z 09008KT 360V120 9999 FEW030 20/01 Q1017=
201904011100 METAR LRTM 011100Z 08006KT 9999 FEW032 20/01 Q1017=
201904011130 METAR LRTM 011130Z 08008KT 040V110 9999 FEW032 20/01 Q1016=
201904011200 METAR LRTM 011200Z 04007KT 360V070 9999 FEW034 21/01 Q1016=
201904011230 METAR LRTM 011230Z VRB03KT 9999 FEW035 FEW037TCU 21/01 Q1016=
201904011300 METAR LRTM 011300Z 28004KT 210V350 9999 FEW035 FEW037TCU
                        21/00 Q1015=
201904011330 METAR LRTM 011330Z 02005KT 340V080 9999 SCT035 FEW037TCU
                        22/01 Q1015=
201904011400 METAR LRTM 011400Z 06006KT 020V110 9999 SCT035 FEW037TCU
                        22/00 Q1015=
201904011430 METAR LRTM 011430Z 06004KT 030V100 9999 SCT035 FEW037TCU
                        20/00 Q1015=
201904011500 METAR LRTM 011500Z 05005KT 360V080 9999 FEW036 20/01 Q1014=
201904011530 METAR LRTM 011530Z 04007KT 9999 FEW036 19/01 Q1015=
201904011600 METAR LRTM 011600Z 05008KT CAVOK 19/02 Q1015=
201904011630 METAR LRTM 011630Z 06007KT CAVOK 18/02 Q1015=
201904011700 METAR LRTM 011700Z 07006KT CAVOK 15/02 Q1015=
201904011730 METAR LRTM 011730Z AUTO 10007KT 9999 NCD 14/02 Q1015=
201904011800 METAR LRTM 011800Z AUTO 09004KT 9999 NCD 12/01 Q1016=
201904011830 METAR LRTM 011830Z AUTO 06004KT 9999 NCD 11/01 Q1016=
201904011900 METAR LRTM 011900Z AUTO 06008KT 9999 NCD 13/01 Q1016=
201904011930 METAR LRTM 011930Z AUTO 07008KT 9999 NCD 12/02 Q1017=
201904012000 METAR LRTM 012000Z AUTO 09009KT 9999 NCD 11/02 Q1017=
201904012030 METAR LRTM 012030Z AUTO 07007KT 9999 FEW093/// 08/01 Q1018=
201904012100 METAR LRTM 012100Z AUTO 07009KT 1300 R07/1200VP2000U FG BKN092///
                        10/01 Q1018=
201904012130 METAR LRTM 012130Z AUTO 06007KT 030V110 6000 R07/1200VP2000D
                        BKN091/// 09/01 Q1019=
201904012200 METAR LRTM 012200Z AUTO 07005KT 2000 R07/1400VP2000D FG BKN085///
                        07/01 Q1019=
201904012230 METAR LRTM 012230Z AUTO 09004KT 3800 R07/0900VP2000U FG OVC082///
                        08/02 Q1020=
201904012300 METAR LRTM 012300Z AUTO 09004KT 1800 R07/0600VP2000U FG SCT082///
                        07/01 Q1020=
201904012330 METAR LRTM 012330Z AUTO 10004KT 1900 R07/1600VP2000U FG BKN100///
                        07/00 Q1020=
201904020000 METAR LRTM 020000Z AUTO 09003KT 5000 R07/1600VP2000U BKN095///
                        06/M00 Q1020=
201904020030 METAR LRTM 020030Z AUTO 11004KT 9999 OVC084/// 07/M00 Q1020=
201904020100 METAR LRTM 020100Z AUTO 09004KT 9999 SCT089/// BKN110///
                        06/M01 Q1020=
201904020130 METAR LRTM 020130Z AUTO 09002KT 060V150 9999 FEW110/// 06/M02
                        Q1020=
201904020200 METAR LRTM 020200Z AUTO 10003KT 9999 SCT100/// 05/M02 Q1020=
201904020230 METAR LRTM 020230Z AUTO 08003KT 9999 FEW100/// 05/M02 Q1020=
201904020300 METAR LRTM 020300Z AUTO 09003KT 9999 BKN100/// SCT120///
                        05/M02 Q1020=
201904020330 METAR LRTM 020330Z AUTO 10003KT 9999 BKN099/// SCT120///
                        05/M01 Q1020=
201904020400 METAR LRTM 020400Z AUTO 10002KT 9999 SCT110/// 05/M02 Q1021=
201904020430 METAR LRTM 020430Z AUTO 10004KT 9999 FEW120/// 05/M02 Q1021=
201904020500 METAR LRTM 020500Z 08004KT 9999 FEW025 FEW030CB 05/M00 Q1021=
201904020530 METAR LRTM 020530Z 09004KT 9999 FEW025 FEW030CB 07/M00 Q1021=
201904020600 METAR LRTM 020600Z 09005KT 9999 FEW025 FEW030CB 08/M01 Q1021=
201904020630 METAR LRTM 020630Z 11008KT 9999 FEW028 FEW032CB 09/M03 Q1021=
201904020700 METAR LRTM 020700Z 10010KT 9999 FEW035CB 10/M03 Q1021=
201904020730 METAR LRTM 020730Z 10013KT CAVOK 10/M03 Q1022=
201904020800 METAR LRTM 020800Z 11010KT 070V140 CAVOK 11/M03 Q1022=
201904020830 METAR LRTM 020830Z 12012KT 080V140 CAVOK 11/M03 Q1022=
201904020900 METAR LRTM 020900Z 11012KT 070V140 CAVOK 11/M03 Q1022=
201904020930 METAR LRTM 020930Z 10012KT 070V140 CAVOK 13/M01 Q1022=
201904021000 METAR LRTM 021000Z 13010KT 090V160 CAVOK 13/M02 Q1021=
201904021030 METAR LRTM 021030Z 10012KT 070V130 CAVOK 13/M03 Q1021=
201904021100 METAR LRTM 021100Z 12013KT CAVOK 13/M03 Q1021=
201904021130 METAR LRTM 021130Z 13013KT CAVOK 13/M02 Q1021=
201904021200 METAR LRTM 021200Z 11012KT 070V130 CAVOK 13/M02 Q1021=
201904021230 METAR LRTM 021230Z 11012KT 070V130 CAVOK 14/M01 Q1020=
201904021300 METAR LRTM 021300Z 11011KT 050V140 CAVOK 14/M02 Q1020=
201904021330 METAR LRTM 021330Z 10014KT CAVOK 13/M02 Q1020=
201904021400 METAR LRTM 021400Z 10014KT CAVOK 13/M03 Q1020=
201904021430 METAR LRTM 021430Z 10014KT CAVOK 12/M04 Q1020=
201904021500 METAR LRTM 021500Z 11013KT CAVOK 12/M04 Q1020=
201904021530 METAR LRTM 021530Z 11010KT CAVOK 12/M04 Q1020=
201904021600 METAR LRTM 021600Z 12010KT CAVOK 11/M05 Q1020=
201904021630 METAR LRTM 021630Z 11011KT CAVOK 11/M06 Q1020=
201904021700 METAR LRTM 021700Z 11006KT CAVOK 10/M05 Q1020=
201904021730 METAR LRTM 021730Z AUTO 11006KT 9999 OVC079/// 10/M04 Q1020=
201904021800 METAR LRTM 021800Z AUTO 08004KT 040V130 9999 OVC083/// 10/M04
                        Q1020=
201904021830 METAR LRTM 021830Z AUTO 10007KT 9999 OVC081/// 09/M05 Q1020=
201904021900 METAR LRTM 021900Z AUTO 09005KT 9999 OVC084/// 09/M05 Q1020=
201904021930 METAR LRTM 021930Z AUTO 09006KT 9999 SCT089/// 07/M06 Q1020=
201904022000 METAR LRTM 022000Z AUTO 08007KT 9999 SCT091/// 07/M06 Q1020=
201904022030 METAR LRTM 022030Z AUTO 09007KT 9999 FEW089/// 06/M07 Q1020=
201904022100 METAR LRTM 022100Z AUTO 08006KT 9999 BKN085/// 05/M07 Q1020=
201904022130 METAR LRTM 022130Z AUTO 09005KT 9999 OVC083/// 04/M06 Q1020=
201904022200 METAR LRTM 022200Z AUTO 08003KT 9999 BKN081/// 04/M07 Q1020=
201904022230 METAR LRTM 022230Z AUTO 09004KT 9999 FEW080/// 04/M07 Q1020=
201904022300 METAR LRTM 022300Z AUTO 10003KT 9999 FEW080/// 04/M08 Q1020=
201904022330 METAR LRTM 022330Z AUTO 12002KT 9999 NCD 03/M08 Q1020=
201904030000 METAR LRTM 030000Z AUTO 07002KT 030V130 9999 BKN080/// 03/M08
                        Q1020=
201904030030 METAR LRTM 030030Z AUTO 00000KT 9999 OVC081/// 04/M06 Q1019=
201904030100 METAR LRTM 030100Z AUTO 00000KT 9999 BKN080/// 03/M06 Q1019=
201904030130 METAR LRTM 030130Z AUTO 00000KT 9999 OVC080/// 02/M06 Q1019=
201904030200 METAR LRTM 030200Z AUTO 09002KT 9999 FEW080/// 02/M06 Q1019=
201904030230 METAR LRTM 030230Z AUTO 08005KT 9999 BKN078/// 02/M06 Q1019=
201904030300 METAR LRTM 030300Z AUTO 10006KT 9999 OVC079/// 04/M06 Q1018=
201904030330 METAR LRTM 030330Z AUTO 08005KT 9999 OVC081/// 03/M05 Q1018=
201904030400 METAR LRTM 030400Z AUTO 08006KT 9999 OVC082/// 04/M06 Q1018=
201904030430 METAR LRTM 030430Z AUTO 08007KT 9999 BKN083/// 04/M06 Q1018=
201904030500 METAR LRTM 030500Z 07006KT CAVOK 05/M07 Q1018=
201904030530 METAR LRTM 030530Z 07005KT CAVOK 06/M06 Q1018=
201904030600 METAR LRTM 030600Z 08007KT CAVOK 08/M07 Q1018=
201904030630 METAR LRTM 030630Z 10009KT CAVOK 09/M07 Q1018=
201904030700 METAR LRTM 030700Z 10009KT CAVOK 10/M07 Q1018=
201904030730 METAR LRTM 030730Z 09010KT CAVOK 11/M06 Q1018=
201904030800 METAR LRTM 030800Z 12008KT CAVOK 12/M06 Q1018=
201904030830 METAR LRTM 030830Z 11009KT 080V140 CAVOK 12/M06 Q1018=
201904030900 METAR LRTM 030900Z 09008KT 040V130 CAVOK 14/M05 Q1017=
201904030930 METAR LRTM 030930Z 10009KT 050V130 CAVOK 13/M05 Q1017=
201904031000 METAR LRTM 031000Z 12006KT 060V150 CAVOK 14/M05 Q1017=
201904031030 METAR LRTM 031030Z 11009KT 080V160 CAVOK 15/M04 Q1016=
201904031100 METAR LRTM 031100Z 10008KT 070V130 CAVOK 15/M04 Q1016=
201904031130 METAR LRTM 031130Z 12009KT 080V160 CAVOK 16/M04 Q1016=
201904031200 METAR LRTM 031200Z 11011KT 070V140 CAVOK 16/M04 Q1015=
201904031230 METAR LRTM 031230Z 12010KT 080V150 CAVOK 17/M04 Q1015=
201904031300 METAR LRTM 031300Z 12008KT 080V160 CAVOK 16/M04 Q1014=
201904031330 METAR LRTM 031330Z 11011KT CAVOK 17/M03 Q1014=
201904031400 METAR LRTM 031400Z 09012KT CAVOK 17/M03 Q1014=
201904031430 METAR LRTM 031430Z 11010KT 080V140 CAVOK 17/M04 Q1014=
201904031500 METAR LRTM 031500Z 10011KT CAVOK 16/M03 Q1013=
201904031530 METAR LRTM 031530Z 11010KT CAVOK 16/M04 Q1013=
201904031600 METAR LRTM 031600Z 11010KT CAVOK 15/M04 Q1013=
201904031630 METAR LRTM 031630Z 11009KT CAVOK 15/M04 Q1013=
201904031700 METAR LRTM 031700Z 10007KT CAVOK 13/M04 Q1013=
201904031730 METAR LRTM 031730Z AUTO 11007KT 9999 NCD 12/M04 Q1013=
201904031800 METAR LRTM 031800Z AUTO 11008KT 9999 NCD 12/M05 Q1014=
201904031830 METAR LRTM 031830Z AUTO 11009KT 9999 FEW200/// 12/M05 Q1014=
201904031900 METAR LRTM 031900Z AUTO 06004KT 9999 FEW200/// 10/M05 Q1014=
201904031930 METAR LRTM 031930Z AUTO 10003KT 050V170 9999 FEW190/// 09/M05
                        Q1014=
201904032000 METAR LRTM 032000Z AUTO 10007KT 9999 NCD 08/M05 Q1014=
201904032030 METAR LRTM 032030Z AUTO 10007KT 9999 FEW200/// 08/M06 Q1015=
201904032100 METAR LRTM 032100Z AUTO 08004KT 9999 FEW190/// 07/M06 Q1015=
201904032130 METAR LRTM 032130Z AUTO 08007KT 9999 FEW190/// 05/M06 Q1015=
201904032200 METAR LRTM 032200Z AUTO 08008KT 9999 FEW190/// 04/M06 Q1015=
201904032230 METAR LRTM 032230Z AUTO 10006KT 9999 NCD 03/M06 Q1015=
201904032300 METAR LRTM 032300Z AUTO 09009KT 9999 NCD 06/M06 Q1015=
201904032330 METAR LRTM 032330Z AUTO 06005KT 9999 FEW150/// 05/M07 Q1015=
201904040000 METAR LRTM 040000Z AUTO 10007KT 9999 FEW140/// 04/M07 Q1015=
201904040030 METAR LRTM 040030Z AUTO 06006KT 9999 BKN150/// 03/M07 Q1015=
201904040100 METAR LRTM 040100Z AUTO 07006KT 9999 OVC130/// 02/M06 Q1015=
201904040130 METAR LRTM 040130Z AUTO 08008KT 9999 SCT100/// BKN130///
                        02/M06 Q1015=
201904040200 METAR LRTM 040200Z AUTO 08007KT 9999 OVC100/// 01/M07 Q1015=
201904040230 METAR LRTM 040230Z AUTO 04005KT 010V070 9999 SCT083/// SCT100///
                        02/M07 Q1015=
201904040300 METAR LRTM 040300Z AUTO 07006KT 9999 FEW084/// 02/M07 Q1015=
201904040330 METAR LRTM 040330Z AUTO 07005KT 9999 SCT100/// 01/M06 Q1015=
201904040400 METAR LRTM 040400Z AUTO 06005KT 9999 BKN110/// M00/M06 Q1015=
201904040430 METAR LRTM 040430Z AUTO 07003KT 050V110 9999 SCT110/// 02/M05
                        Q1015=
201904040500 METAR LRTM 040500Z 06004KT CAVOK 04/M04 Q1015=
201904040530 METAR LRTM 040530Z 06005KT CAVOK 05/M04 Q1015=
201904040600 METAR LRTM 040600Z 08006KT 040V110 CAVOK 06/M04 Q1015=
201904040630 METAR LRTM 040630Z 10008KT CAVOK 07/M03 Q1015=
201904040700 METAR LRTM 040700Z 12006KT 090V150 CAVOK 08/M03 Q1014=
201904040730 METAR LRTM 040730Z 11005KT 070V150 CAVOK 09/M03 Q1014=
201904040800 METAR LRTM 040800Z 10006KT CAVOK 11/M03 Q1014=
201904040830 METAR LRTM 040830Z VRB06KT CAVOK 12/M03 Q1014=
201904040900 METAR LRTM 040900Z 06005KT 340V120 CAVOK 13/M03 Q1014=
201904040930 METAR LRTM 040930Z VRB05KT CAVOK 13/M04 Q1014=
201904041000 METAR LRTM 041000Z VRB05KT CAVOK 14/M02 Q1013=
201904041030 METAR LRTM 041030Z VRB03KT CAVOK 15/M02 Q1013=
201904041100 METAR LRTM 041100Z VRB04KT CAVOK 16/M03 Q1013=
201904041130 METAR LRTM 041130Z VRB04KT CAVOK 16/M02 Q1012=
201904041200 METAR LRTM 041200Z 17007KT 150V210 CAVOK 17/M02 Q1012=
201904041230 METAR LRTM 041230Z 16006KT 110V200 CAVOK 18/M02 Q1011=
201904041300 METAR COR LRTM 041300Z 15007KT 110V190 CAVOK 19/M01 Q1011=
201904041330 METAR LRTM 041330Z 14007KT 100V160 CAVOK 18/M02 Q1010=
201904041400 METAR LRTM 041400Z 14006KT 120V190 CAVOK 18/M01 Q1010=
201904041430 METAR LRTM 041430Z 14007KT 120V190 CAVOK 18/M01 Q1010=
201904041500 METAR LRTM 041500Z 18008KT CAVOK 19/M02 Q1009=
201904041530 METAR LRTM 041530Z 13007KT CAVOK 18/M01 Q1009=
201904041600 METAR LRTM 041600Z 15007KT CAVOK 18/M01 Q1009=
201904041630 METAR LRTM 041630Z 17006KT CAVOK 17/M01 Q1009=
201904041700 METAR LRTM 041700Z 17006KT CAVOK 17/M01 Q1009=
201904041730 METAR LRTM 041730Z AUTO 16008KT 9999 NCD 14/M01 Q1010=
201904041800 METAR LRTM 041800Z AUTO 14009KT 9999 NCD 13/M01 Q1010=
201904041830 METAR LRTM 041830Z AUTO 15009KT 9999 NCD 13/M01 Q1010=
201904041900 METAR LRTM 041900Z AUTO 14008KT 9999 NCD 12/M01 Q1011=
201904041930 METAR LRTM 041930Z AUTO 14006KT 9999 NCD 09/M02 Q1011=
201904042000 METAR LRTM 042000Z AUTO 09006KT 9999 NCD 06/M01 Q1011=
201904042030 METAR LRTM 042030Z AUTO 07009KT 9999 NCD 08/M01 Q1011=
201904042100 METAR LRTM 042100Z AUTO 09005KT 050V140 9999 NCD 07/M01 Q1011=
201904042130 METAR LRTM 042130Z AUTO 09007KT 9999 NCD 07/M01 Q1012=
201904042200 METAR LRTM 042200Z AUTO 06004KT 9999 NCD 07/M02 Q1012=
201904042230 METAR LRTM 042230Z AUTO 05005KT 9999 NCD 06/M02 Q1012=
201904042300 METAR LRTM 042300Z AUTO 07006KT 9999 NCD 05/M03 Q1012=
201904042330 METAR LRTM 042330Z AUTO 07005KT 9999 NCD 05/M03 Q1012=
201904050000 METAR LRTM 050000Z AUTO 07005KT 9999 NCD 05/M03 Q1012=
201904050030 METAR LRTM 050030Z AUTO 11002KT 080V150 9999 NCD 04/M03 Q1012=
201904050100 METAR LRTM 050100Z AUTO 09006KT 9999 NCD 03/M03 Q1012=
201904050130 METAR LRTM 050130Z AUTO 09003KT 9999 NCD 04/M03 Q1012=
201904050200 METAR LRTM 050200Z AUTO 08004KT 9999 NCD 02/M03 Q1012=
201904050230 METAR LRTM 050230Z AUTO 08005KT 9999 NCD 02/M03 Q1012=
201904050300 METAR LRTM 050300Z AUTO 10005KT 9999 NCD 01/M04 Q1012=
201904050330 METAR LRTM 050330Z AUTO 10004KT 9999 NCD 02/M04 Q1012=
201904050400 METAR LRTM 050400Z AUTO 09005KT 9999 NCD 01/M04 Q1012=
201904050430 METAR LRTM 050430Z AUTO 09005KT 9999 NCD 02/M03 Q1012=
201904050500 METAR LRTM 050500Z 09004KT CAVOK 04/M02 Q1012=
201904050530 METAR LRTM 050530Z 10004KT CAVOK 05/M01 Q1012=
201904050600 METAR LRTM 050600Z 09004KT CAVOK 07/M01 Q1012=
201904050630 METAR LRTM 050630Z 08004KT 050V110 CAVOK 09/M01 Q1012=
201904050700 METAR LRTM 050700Z 06006KT 030V090 CAVOK 10/00 Q1012=
201904050730 METAR LRTM 050730Z 07005KT 020V100 CAVOK 12/M00 Q1012=
201904050800 METAR LRTM 050800Z VRB04KT CAVOK 14/00 Q1011=
201904050830 METAR LRTM 050830Z 07005KT 350V120 CAVOK 15/00 Q1011=
201904050900 METAR LRTM 050900Z 07006KT 360V120 CAVOK 17/02 Q1011=
201904050930 METAR LRTM 050930Z 08008KT CAVOK 18/01 Q1010=
201904051000 METAR LRTM 051000Z 09008KT 050V140 9999 FEW030 19/01 Q1010=
201904051030 METAR LRTM 051030Z 19009KT 9999 FEW033 19/01 Q1010=
201904051100 METAR LRTM 051100Z 16007KT 120V200 9999 FEW035 20/01 Q1009=
201904051130 METAR LRTM 051130Z 18007KT 140V220 9999 FEW036 21/00 Q1009=
201904051200 METAR LRTM 051200Z 14004KT 070V240 9999 SCT036 20/01 Q1009=
201904051230 METAR LRTM 051230Z 11006KT 070V150 9999 SCT036 20/M00 Q1008=
201904051300 METAR LRTM 051300Z 11006KT 9999 SCT036 20/00 Q1008=
201904051330 METAR LRTM 051330Z 13007KT 9999 SCT036 20/00 Q1008=
201904051400 METAR LRTM 051400Z 10009KT 9999 SCT036 20/00 Q1008=
201904051430 METAR LRTM 051430Z 12008KT 9999 FEW036 20/00 Q1007=
201904051500 METAR LRTM 051500Z 12007KT 9999 FEW037 20/00 Q1007=
201904051530 METAR LRTM 051530Z 19011KT 150V220 9999 FEW037 20/M01 Q1008=
201904051600 METAR LRTM 051600Z 21015KT 9999 FEW037 19/M02 Q1007=
201904051630 METAR LRTM 051630Z 20011KT 9999 FEW037 18/M01 Q1008=
201904051700 METAR LRTM 051700Z 19010KT 9999 FEW037 16/M02 Q1008=
201904051730 METAR LRTM 051730Z AUTO 18009KT 9999 NCD 16/M02 Q1008=
201904051800 METAR LRTM 051800Z AUTO 15007KT 9999 FEW200/// 14/M02 Q1008=
201904051830 METAR LRTM 051830Z AUTO 13008KT 9999 FEW170/// 13/M01 Q1009=
201904051900 METAR LRTM 051900Z AUTO 08006KT 9999 FEW170/// 10/M00 Q1009=
201904051930 METAR LRTM 051930Z AUTO 07006KT 9999 FEW160/// 11/M00 Q1010=
201904052000 METAR LRTM 052000Z AUTO 10009KT 9999 BKN170/// 12/02 Q1010=
201904052030 METAR LRTM 052030Z AUTO 11008KT 9999 FEW100/// OVC150///
                        11/02 Q1010=
201904052100 METAR LRTM 052100Z AUTO 08007KT 9999 FEW096/// OVC140///
                        09/02 Q1010=
201904052130 METAR LRTM 052130Z AUTO 09007KT 9999 BKN110/// SCT150///
                        10/02 Q1010=
201904052200 METAR LRTM 052200Z AUTO 09008KT 9999 BKN096/// SCT150///
                        10/02 Q1010=
201904052230 METAR LRTM 052230Z AUTO 09008KT 9999 OVC100/// 11/02 Q1010=
201904052300 METAR LRTM 052300Z AUTO 10007KT 9999 OVC091/// 10/02 Q1010=
201904052330 METAR LRTM 052330Z AUTO 10007KT 9999 OVC090/// 10/02 Q1010=
201904060000 METAR LRTM 060000Z AUTO 06005KT 9999 BKN088/// SCT130///
                        09/02 Q1010=
201904060030 METAR LRTM 060030Z AUTO 07006KT 9999 OVC085/// 09/02 Q1010=
201904060100 METAR LRTM 060100Z AUTO 05005KT 9999 BKN084/// BKN100///
                        10/02 Q1010=
201904060130 METAR LRTM 060130Z AUTO 06007KT 9999 BKN086/// SCT110///
                        09/02 Q1010=
201904060200 METAR LRTM 060200Z AUTO 07007KT 9999 OVC086/// 08/02 Q1010=
201904060230 METAR LRTM 060230Z AUTO 09003KT 9999 OVC084/// 08/02 Q1010=
201904060300 METAR LRTM 060300Z AUTO 08003KT 9999 FEW084/// BKN100///
                        08/02 Q1010=
201904060330 METAR LRTM 060330Z AUTO 08005KT 9999 OVC110/// 08/02 Q1010=
201904060400 METAR LRTM 060400Z AUTO 10004KT 9999 BKN100/// 07/02 Q1010=
201904060430 METAR LRTM 060430Z AUTO 10005KT 9999 BKN100/// SCT140///
                        08/02 Q1010=
201904060500 METAR LRTM 060500Z 10004KT CAVOK 08/02 Q1010=
201904060530 METAR LRTM 060530Z 08004KT CAVOK 09/03 Q1010=
201904060600 METAR LRTM 060600Z 06003KT 010V130 CAVOK 11/03 Q1010=
201904060630 METAR LRTM 060630Z 09005KT 030V130 CAVOK 12/02 Q1010=
201904060700 METAR LRTM 060700Z 11008KT CAVOK 13/02 Q1010=
201904060730 METAR LRTM 060730Z 13007KT 100V210 CAVOK 15/02 Q1010=
201904060800 METAR LRTM 060800Z 11007KT 080V170 CAVOK 15/02 Q1009=
201904060830 METAR LRTM 060830Z 09004KT 350V150 CAVOK 17/02 Q1009=
201904060900 METAR LRTM 060900Z 07004KT 360V120 CAVOK 17/03 Q1009=
201904060930 METAR LRTM 060930Z 10006KT 060V150 CAVOK 18/02 Q1009=
201904061000 METAR LRTM 061000Z VRB03KT CAVOK 19/02 Q1009=
201904061030 METAR LRTM 061030Z 20005KT 150V290 CAVOK 20/02 Q1009=
201904061100 METAR LRTM 061100Z VRB02KT CAVOK 20/02 Q1009=
201904061130 METAR LRTM 061130Z VRB04KT CAVOK 20/02 Q1008=
201904061200 METAR LRTM 061200Z 22004KT 170V250 CAVOK 20/02 Q1008=
201904061230 METAR LRTM 061230Z 21006KT 170V240 CAVOK 21/03 Q1008=
201904061300 METAR LRTM 061300Z VRB04KT CAVOK 21/02 Q1007=
201904061330 METAR LRTM 061330Z 20009KT CAVOK 22/01 Q1007=
201904061400 METAR LRTM 061400Z 15004KT 110V180 9999 FEW038 21/02 Q1007=
201904061430 METAR LRTM 061430Z VRB03KT 9999 SCT040 21/01 Q1007=
201904061500 METAR LRTM 061500Z 24008KT 9999 SCT040 21/01 Q1007=
201904061530 METAR LRTM 061530Z 21006KT 170V230 CAVOK 21/02 Q1007=
201904061600 METAR LRTM 061600Z 21010KT CAVOK 20/01 Q1007=
201904061630 METAR LRTM 061630Z 20010KT CAVOK 20/M01 Q1007=
201904061700 METAR LRTM 061700Z 15004KT 100V180 CAVOK 18/M00 Q1007=
201904061730 METAR LRTM 061730Z AUTO 14006KT 9999 OVC081/// 17/00 Q1008=
201904061800 METAR LRTM 061800Z AUTO 13007KT 9999 OVC083/// 17/01 Q1008=
201904061830 METAR LRTM 061830Z AUTO 13005KT 9999 OVC084/// 17/00 Q1008=
201904061900 METAR LRTM 061900Z AUTO 13005KT 9999 SCT083/// 15/01 Q1009=
201904061930 METAR LRTM 061930Z AUTO 12007KT 9999 SCT083/// 13/00 Q1009=
201904062000 METAR LRTM 062000Z AUTO 13008KT 9999 FEW080/// 13/00 Q1009=
201904062030 METAR LRTM 062030Z AUTO 08003KT 040V150 9999 NCD 11/M01 Q1009=
201904062100 METAR LRTM 062100Z AUTO 11006KT 9999 NCD 11/M01 Q1010=
201904062130 METAR LRTM 062130Z AUTO 10007KT 9999 FEW110/// 10/M01 Q1010=
201904062200 METAR LRTM 062200Z AUTO 12008KT 9999 BKN110/// 12/M01 Q1010=
201904062230 METAR LRTM 062230Z AUTO 11009KT 9999 OVC110/// 11/M02 Q1010=
201904062300 METAR LRTM 062300Z AUTO 04005KT 9999 OVC110/// 10/M02 Q1010=
201904062330 METAR LRTM 062330Z AUTO 07007KT 9999 OVC110/// 10/M01 Q1010=
201904070000 METAR LRTM 070000Z AUTO 07006KT 9999 OVC110/// 10/M01 Q1010=
201904070030 METAR LRTM 070030Z AUTO 09005KT 9999 OVC110/// 09/M01 Q1010=
201904070100 METAR LRTM 070100Z AUTO 08007KT 9999 OVC110/// 08/M01 Q1009=
201904070130 METAR LRTM 070130Z AUTO 07007KT 9999 OVC110/// 08/M01 Q1009=
201904070200 METAR LRTM 070200Z AUTO 06004KT 030V110 9999 OVC110/// 09/M01
                        Q1009=
201904070230 METAR LRTM 070230Z AUTO 10004KT 9999 BKN110/// 08/M01 Q1009=
201904070300 METAR LRTM 070300Z AUTO 09005KT 9999 NCD 06/M01 Q1009=
201904070330 METAR LRTM 070330Z AUTO 02002KT 320V050 9999 FEW110/// 06/M01
                        Q1009=
201904070400 METAR LRTM 070400Z AUTO 08004KT 9999 NCD 05/M01 Q1009=
201904070430 METAR LRTM 070430Z AUTO 10005KT 9999 NCD 05/M01 Q1010=
201904070500 METAR LRTM 070500Z 09004KT 9999 FEW008 06/M01 Q1010=
201904070530 METAR LRTM 070530Z 09005KT 9999 FEW008 08/M00 Q1010=
201904070600 METAR LRTM 070600Z 08005KT 040V100 9999 FEW009 10/01 Q1010=
201904070630 METAR LRTM 070630Z 08005KT 050V120 CAVOK 12/M00 Q1010=
201904070700 METAR LRTM 070700Z 07004KT 020V130 CAVOK 13/01 Q1010=
201904070730 METAR LRTM 070730Z 07004KT 020V120 CAVOK 15/01 Q1009=
201904070800 METAR LRTM 070800Z 09006KT 060V130 CAVOK 16/02 Q1009=
201904070830 METAR LRTM 070830Z VRB04KT CAVOK 17/01 Q1009=
201904070900 METAR LRTM 070900Z VRB04KT CAVOK 19/02 Q1009=
201904070930 METAR LRTM 070930Z VRB04KT CAVOK 19/02 Q1009=
201904071000 METAR LRTM 071000Z 12004KT 030V170 CAVOK 20/02 Q1009=
201904071030 METAR LRTM 071030Z 19010KT 150V220 9999 FEW030 21/03 Q1008=
201904071100 METAR LRTM 071100Z VRB07KT 9999 FEW033 22/02 Q1008=
201904071130 METAR LRTM 071130Z VRB04KT 9999 FEW035 22/01 Q1008=
201904071200 METAR LRTM 071200Z 16008KT 130V200 9999 SCT036 22/01 Q1008=
201904071230 METAR LRTM 071230Z 16004KT 130V250 9999 SCT037 23/M01 Q1007=
201904071300 METAR LRTM 071300Z 11007KT 040V150 9999 SCT037 22/01 Q1007=
201904071330 METAR LRTM 071330Z 11009KT 9999 SCT037 22/01 Q1007=
201904071400 METAR LRTM 071400Z 20014KT 9999 SCT037 21/04 Q1007=
201904071430 METAR LRTM 071430Z 20011KT 160V220 9999 FEW037 21/03 Q1007=
201904071500 METAR LRTM 071500Z 21011KT 9999 FEW037 20/04 Q1007=
201904071530 METAR LRTM 071530Z 20009KT 9999 FEW037 20/04 Q1007=
201904071600 METAR LRTM 071600Z 18009KT 9999 FEW037 19/03 Q1007=
201904071630 METAR LRTM 071630Z 20007KT CAVOK 18/03 Q1007=
201904071700 METAR LRTM 071700Z 21007KT CAVOK 17/04 Q1007=
201904071730 METAR LRTM 071730Z AUTO 19005KT 9999 FEW110/// 15/03 Q1007=
201904071800 METAR LRTM 071800Z AUTO 35003KT 310V060 9999 FEW087/// 13/03
                        Q1008=
201904071830 METAR LRTM 071830Z AUTO 02003KT 330V100 9999 FEW095/// 12/03
                        Q1008=
201904071900 METAR LRTM 071900Z AUTO VRB01KT 9999 FEW095/// 11/03 Q1008=
201904071930 METAR LRTM 071930Z AUTO VRB01KT 9999 FEW089/// 10/03 Q1008=
201904072000 METAR LRTM 072000Z AUTO 36003KT 350V050 9999 OVC091/// 10/04
                        Q1008=
201904072030 METAR LRTM 072030Z AUTO 12001KT 9999 FEW100/// 09/03 Q1008=
201904072100 METAR LRTM 072100Z AUTO 00000KT 9999 BKN100/// 09/03 Q1008=
201904072130 METAR LRTM 072130Z AUTO 00000KT 9999 BKN093/// 09/03 Q1008=
201904072200 METAR LRTM 072200Z AUTO 08005KT 9999 FEW090/// SCT160///
                        08/02 Q1008=
201904072230 METAR LRTM 072230Z AUTO 09005KT 9999 FEW150/// 09/03 Q1007=
201904072300 METAR LRTM 072300Z AUTO 09005KT 9999 OVC110/// 09/03 Q1007=
201904072330 METAR LRTM 072330Z AUTO 10004KT 9999 BKN120/// 09/03 Q1007=
201904080000 METAR LRTM 080000Z AUTO VRB01KT 9999 FEW110/// BKN170///
                        08/03 Q1007=
201904080030 METAR LRTM 080030Z AUTO 22003KT 140V240 9999 BKN170/// 07/03
                        Q1007=
201904080100 METAR LRTM 080100Z AUTO VRB01KT 9999 BKN150/// 06/02 Q1006=
201904080130 METAR LRTM 080130Z AUTO 26002KT 240V310 9999 FEW100/// BKN150///
                        06/02 Q1006=
201904080200 METAR LRTM 080200Z AUTO VRB01KT 9999 FEW140/// 06/02 Q1006=
201904080230 METAR LRTM 080230Z AUTO 00000KT 9999 FEW067/// BKN100///
                        05/02 Q1006=
201904080300 METAR LRTM 080300Z AUTO 00000KT 9999 BKN100/// 05/02 Q1006=
201904080330 METAR LRTM 080330Z AUTO 00000KT 9999 FEW069/// 05/02 Q1006=
201904080400 METAR LRTM 080400Z AUTO 00000KT 9999 BKN070/// BKN097///
                        05/02 Q1006=
201904080430 METAR LRTM 080430Z AUTO 00000KT 9999 SCT071/// SCT093///
                        06/03 Q1006=
201904080500 METAR LRTM 080500Z 00000KT 9999 FEW009 06/03 Q1006=
201904080530 METAR LRTM 080530Z 00000KT 9999 FEW009 07/03 Q1006=
201904080600 METAR LRTM 080600Z VRB02KT 8000 FEW008 08/03 Q1006=
201904080630 METAR LRTM 080630Z VRB02KT 8000 FEW008 09/04 Q1006=
201904080700 METAR LRTM 080700Z VRB01KT 8000 -RA FEW007 BKN042 10/04 Q1006=
201904080730 METAR LRTM 080730Z VRB02KT 8000 -RA FEW008 BKN042 12/06 Q1006=
201904080800 METAR LRTM 080800Z VRB03KT 9999 FEW012 BKN045 14/05 Q1005=
201904080830 METAR LRTM 080830Z VRB03KT CAVOK 15/04 Q1005=
201904080900 METAR LRTM 080900Z VRB03KT CAVOK 17/03 Q1005=
201904080930 METAR LRTM 080930Z 26004KT 190V350 CAVOK 17/04 Q1005=
201904081000 METAR LRTM 081000Z VRB03KT CAVOK 18/04 Q1004=
201904081030 METAR LRTM 081030Z VRB03KT CAVOK 18/04 Q1004=
201904081100 METAR LRTM 081100Z VRB05KT 9999 FEW030 19/04 Q1004=
201904081130 METAR LRTM 081130Z 30005KT 250V010 9999 FEW030 20/04 Q1004=
201904081200 METAR LRTM 081200Z VRB04KT 9999 SCT034 20/04 Q1003=
201904081230 METAR LRTM 081230Z 30005KT 190V340 9999 SCT034 21/04 Q1003=
201904081300 METAR LRTM 081300Z 30008KT 9999 SCT036 22/04 Q1003=
201904081330 METAR LRTM 081330Z VRB02KT 9999 SCT036 21/04 Q1002=
201904081400 METAR LRTM 081400Z 27003KT 240V310 9999 SCT036 22/04 Q1002=
201904081430 METAR LRTM 081430Z 09006KT 9999 SCT040 22/05 Q1002=
201904081500 METAR LRTM 081500Z 12011KT 9999 BKN038 FEW042CB 20/05 Q1002=
201904081530 METAR LRTM 081530Z 13009KT 9999 BKN038 FEW042CB 20/05 Q1002=
201904081600 METAR LRTM 081600Z 11009KT 9999 BKN040 FEW045CB 19/05 Q1002=
201904081630 METAR LRTM 081630Z 11010KT 9999 FEW045CB 18/06 Q1002=
201904081700 METAR LRTM 081700Z 10008KT 9999 FEW046CB 17/06 Q1003=
201904081730 METAR LRTM 081730Z AUTO 10004KT 9999 FEW082/// 14/06 Q1003=
201904081800 METAR LRTM 081800Z AUTO 10008KT 9999 SCT086/// 16/07 Q1003=
201904081830 METAR LRTM 081830Z AUTO 07006KT 9999 NCD 14/07 Q1004=
201904081900 METAR LRTM 081900Z AUTO 07005KT 9999 NCD 12/06 Q1004=
201904081930 METAR LRTM 081930Z AUTO 07006KT 9999 NCD 12/06 Q1004=
201904082000 METAR LRTM 082000Z AUTO 07007KT 9999 NCD 12/06 Q1004=
201904082030 METAR LRTM 082030Z AUTO 05004KT 010V080 9999 NCD 11/06 Q1004=
201904082100 METAR LRTM 082100Z AUTO 07005KT 9999 NCD 11/06 Q1004=
201904082130 METAR LRTM 082130Z AUTO 08005KT 9999 FEW086/// 10/06 Q1004=
201904082200 METAR LRTM 082200Z AUTO 11004KT 9999 NCD 09/05 Q1004=
201904082230 METAR LRTM 082230Z AUTO 12004KT 9999 FEW064/// 09/05 Q1004=
201904082300 METAR LRTM 082300Z AUTO VRB01KT 9999 FEW079/// 09/06 Q1004=
201904082330 METAR LRTM 082330Z AUTO 08005KT 9999 NCD 08/05 Q1004=
201904090000 METAR LRTM 090000Z AUTO 10004KT 9999 NCD 07/05 Q1004=
201904090030 METAR LRTM 090030Z AUTO 10006KT 9999 FEW064/// 07/05 Q1004=
201904090100 METAR LRTM 090100Z AUTO 09005KT 9999 FEW063/// 06/04 Q1004=
201904090130 METAR LRTM 090130Z AUTO 09003KT 050V120 9999 NCD 06/04 Q1004=
201904090200 METAR LRTM 090200Z AUTO 09004KT 9999 NCD 06/04 Q1004=
201904090230 METAR LRTM 090230Z AUTO 07002KT 310V110 9999 NCD 06/04 Q1004=
201904090300 METAR LRTM 090300Z AUTO 00000KT 8000 NCD 05/03 Q1004=
201904090330 METAR LRTM 090330Z AUTO 08002KT 9999 NCD 04/03 Q1004=
201904090400 METAR LRTM 090400Z AUTO 02002KT 350V050 9000 FEW095/// 03/02
                        Q1004=
201904090430 METAR LRTM 090430Z AUTO 04002KT 350V070 9999 FEW096/// 04/03
                        Q1005=
201904090500 METAR COR LRTM 090500Z 10002KT 9999 FEW008 07/05 Q1005=
201904090530 METAR LRTM 090530Z 09004KT 9999 FEW008 08/05 Q1005=
201904090600 METAR LRTM 090600Z 10003KT 060V130 9999 FEW008 10/06 Q1005=
201904090630 METAR LRTM 090630Z 08003KT 040V140 9999 FEW008 12/07 Q1005=
201904090700 METAR LRTM 090700Z VRB02KT 9999 FEW040 14/07 Q1005=
201904090730 METAR LRTM 090730Z VRB02KT CAVOK 16/07 Q1004=
201904090800 METAR LRTM 090800Z 11006KT 070V160 9999 FEW036 17/08 Q1004=
201904090830 METAR LRTM 090830Z 09005KT 030V160 9999 FEW037 18/08 Q1004=
201904090900 METAR LRTM 090900Z VRB04KT 9999 FEW037 19/08 Q1004=
201904090930 METAR LRTM 090930Z VRB04KT 9999 FEW038 19/08 Q1004=
201904091000 METAR LRTM 091000Z 07005KT 010V160 9999 FEW038 20/08 Q1004=
201904091030 METAR LRTM 091030Z VRB04KT 9999 FEW038 20/07 Q1003=
201904091100 METAR LRTM 091100Z VRB05KT 9999 SCT038 20/07 Q1003=
201904091130 METAR LRTM 091130Z 08004KT 340V150 9999 SCT038 21/07 Q1003=
201904091200 METAR LRTM 091200Z VRB04KT 9999 SCT038 21/06 Q1003=
201904091230 METAR LRTM 091230Z VRB03KT 9999 FEW036TCU SCT038 21/06 Q1003=
201904091300 METAR LRTM 091300Z VRB03KT 9999 FEW036TCU SCT038 22/06 Q1002=
201904091330 METAR LRTM 091330Z 14004KT 070V210 9999 FEW036TCU SCT038
                        22/06 Q1002=
201904091400 METAR LRTM 091400Z VRB03KT 9999 FEW037CB SCT038 23/05 Q1002=
201904091430 METAR LRTM 091430Z VRB03KT 9999 VCSH FEW037CB SCT038 22/06
                        Q1002=
201904091500 METAR LRTM 091500Z VRB03KT 9999 VCSH FEW038CB SCT040 22/05
                        Q1002=
201904091530 METAR LRTM 091530Z 06007G18KT 010V080 9999 VCSH FEW037 SCT039CB
                        21/06 Q1002=
201904091600 METAR LRTM 091600Z 12014KT 9999 VCSH FEW036 SCT038CB 19/08
                        Q1003=
201904091630 METAR LRTM 091630Z 11011KT 9999 VCSH FEW035 BKN037CB 16/09
                        Q1003=
201904091700 METAR LRTM 091700Z 09010KT 9999 FEW035 SCT037CB 16/09 Q1004=
201904091730 METAR LRTM 091730Z AUTO 11009KT 9999 BKN069/// SCT097///
                        16/07 Q1004 RERA=
201904091800 METAR LRTM 091800Z AUTO 11008KT 9999 -SHRA FEW076/// OVC110///
                        15/08 Q1004=
201904091830 METAR LRTM 091830Z AUTO 09007KT 9999 BKN083/// 15/09 Q1004
                        RERA=
201904091900 METAR LRTM 091900Z AUTO 10006KT 9999 -SHRA SCT078/// BKN098///
                        14/09 Q1005=
201904091930 METAR LRTM 091930Z AUTO 09005KT 9999 -SHRA BKN082/// BKN100///
                        13/10 Q1005=
201904092000 METAR LRTM 092000Z AUTO 06005KT 9999 BKN097/// 14/09 Q1005
                        REDZ=
201904092030 METAR LRTM 092030Z AUTO 10004KT 9999 OVC091/// 13/09 Q1005=
201904092100 METAR LRTM 092100Z AUTO 10003KT 9999 BKN100/// SCT120///
                        13/09 Q1005=
201904092130 METAR LRTM 092130Z AUTO 09005KT 9999 OVC110/// 12/09 Q1005=
201904092200 METAR LRTM 092200Z AUTO 08004KT 9999 BKN110/// 11/09 Q1005=
201904092230 METAR LRTM 092230Z AUTO 05003KT 350V070 9999 BKN110/// 09/08
                        Q1006=
201904092300 METAR LRTM 092300Z AUTO 09004KT 9999 OVC110/// 08/07 Q1006=
201904092330 METAR LRTM 092330Z AUTO 08002KT 340V120 9999 FEW110/// 07/06
                        Q1006=
201904100000 METAR LRTM 100000Z AUTO 11002KT 080V150 9999 SCT130/// 07/05
                        Q1006=
201904100030 METAR LRTM 100030Z AUTO 07002KT 040V100 9999 OVC130/// 07/06
                        Q1006=
201904100100 METAR LRTM 100100Z AUTO 09002KT 9999 OVC130/// 08/06 Q1006=
201904100130 METAR LRTM 100130Z AUTO 08002KT 9999 OVC130/// 07/06 Q1006=
201904100200 METAR LRTM 100200Z AUTO 07002KT 030V090 9999 BKN120/// 07/06
                        Q1006=
201904100230 METAR LRTM 100230Z AUTO 09004KT 9999 FEW094/// SCT120///
                        06/05 Q1006=
201904100300 METAR LRTM 100300Z AUTO 35003KT 310V070 9999 FEW095/// OVC130///
                        07/06 Q1006=
201904100330 METAR LRTM 100330Z AUTO 05005KT 360V080 9000 FEW099/// OVC120///
                        08/07 Q1005=
201904100400 METAR LRTM 100400Z AUTO 08002KT 020V120 9999 OVC120/// 09/07
                        Q1006=
201904100430 METAR LRTM 100430Z AUTO 12006KT 9999 OVC130/// 10/08 Q1006=
201904100500 METAR LRTM 100500Z 08003KT 040V110 CAVOK 10/08 Q1006=
201904100530 METAR LRTM 100530Z 07004KT CAVOK 12/08 Q1007=
201904100600 METAR LRTM 100600Z 07003KT 030V110 CAVOK 13/09 Q1007=
201904100630 METAR LRTM 100630Z VRB02KT CAVOK 15/09 Q1007=
201904100700 METAR LRTM 100700Z VRB03KT 9000 NSC 16/08 Q1007=
201904100730 METAR LRTM 100730Z 09003KT 040V150 CAVOK 16/07 Q1007=
201904100800 METAR LRTM 100800Z 12004KT 070V150 CAVOK 17/07 Q1007=
201904100830 METAR LRTM 100830Z 12003KT 040V200 9999 FEW038 18/06 Q1007=
201904100900 METAR LRTM 100900Z 15004KT 050V190 9999 FEW038 19/07 Q1007=
201904100930 METAR LRTM 100930Z 05005KT 330V080 9999 FEW040 20/07 Q1006=
201904101000 METAR LRTM 101000Z VRB04KT 9999 FEW040 20/05 Q1006=
201904101030 METAR LRTM 101030Z 32007KT 300V360 9999 FEW042 20/05 Q1006=
201904101100 METAR LRTM 101100Z VRB02KT 9999 FEW045 21/05 Q1006=
201904101130 METAR LRTM 101130Z 08007KT 050V110 9999 FEW048 21/05 Q1005=
201904101200 METAR LRTM 101200Z 03010KT 360V070 9999 SCT048 FEW048TCU
                        23/06 Q1005=
201904101230 METAR LRTM 101230Z 06014KT 9999 SCT048 FEW048CB 20/06 Q1005=
201904101300 METAR LRTM 101300Z 09011KT 9999 SCT049 21/06 Q1005=
201904101330 METAR LRTM 101330Z 09011KT 9999 FEW046 21/06 Q1005=
201904101400 METAR LRTM 101400Z 15008KT 9999 FEW047 FEW047CB 20/07 Q1005=
201904101430 METAR LRTM 101430Z 14006KT 110V180 9999 FEW047 FEW047CB 21/07
                        Q1005=
201904101500 METAR LRTM 101500Z 11006KT 080V180 9999 FEW047 FEW047CB 21/07
                        Q1005=
201904101530 METAR LRTM 101530Z 13009KT 9999 FEW047 20/06 Q1005=
201904101600 METAR LRTM 101600Z 11011KT 9999 FEW047 19/05 Q1005=
201904101630 METAR LRTM 101630Z 11007KT 9999 FEW047 18/05 Q1005=
201904101700 METAR LRTM 101700Z 10005KT CAVOK 16/06 Q1006=
201904101730 METAR LRTM 101730Z AUTO 13002KT 090V170 9999 SCT077/// SCT098///
                        16/05 Q1006=
201904101800 METAR LRTM 101800Z AUTO VRB01KT 9999 BKN080/// 15/05 Q1006=
201904101830 METAR LRTM 101830Z AUTO 06003KT 020V090 9999 OVC083/// 14/06
                        Q1006=
201904101900 METAR LRTM 101900Z AUTO 08005KT 9999 SCT091/// BKN110///
                        13/06 Q1007=
201904101930 METAR LRTM 101930Z AUTO 10005KT 9999 FEW069/// BKN096///
                        14/07 Q1007=
201904102000 METAR LRTM 102000Z AUTO 09005KT 9999 BKN093/// SCT110///
                        13/07 Q1007=
201904102030 METAR LRTM 102030Z AUTO 08005KT 9999 OVC100/// 13/07 Q1007=
201904102100 METAR LRTM 102100Z AUTO 11004KT 9999 FEW085/// BKN100///
                        13/07 Q1007=
201904102130 METAR LRTM 102130Z AUTO 12003KT 080V240 9999 BKN086/// SCT100///
                        12/07 Q1007=
201904102200 METAR LRTM 102200Z AUTO 11003KT 080V160 9999 BKN088/// SCT110///
                        13/07 Q1007=
201904102230 METAR LRTM 102230Z AUTO VRB02KT 9999 BKN100/// 12/07 Q1007=
201904102300 METAR LRTM 102300Z AUTO 08002KT 9999 SCT092/// 11/07 Q1007=
201904102330 METAR LRTM 102330Z AUTO 07003KT 040V100 9999 SCT074/// OVC094///
                        11/07 Q1007=
201904110000 METAR LRTM 110000Z AUTO 09003KT 9999 BKN071/// 11/06 Q1007=
201904110030 METAR LRTM 110030Z AUTO 09001KT 9999 FEW070/// 10/06 Q1007=
201904110100 METAR LRTM 110100Z AUTO 00000KT 9999 NCD 08/05 Q1007=
201904110130 METAR LRTM 110130Z AUTO 26002KT 9999 NCD 07/04 Q1007=
201904110200 METAR LRTM 110200Z AUTO VRB01KT 9999 NCD 07/05 Q1007=
201904110230 METAR LRTM 110230Z AUTO 22004KT 9999 BKN085/// 07/05 Q1006=
201904110300 METAR LRTM 110300Z AUTO 25003KT 9999 OVC078/// 08/05 Q1006=
201904110330 METAR LRTM 110330Z AUTO 29003KT 260V320 9999 OVC077/// 08/05
                        Q1006=
201904110400 METAR LRTM 110400Z AUTO 27002KT 9999 BKN080/// 08/05 Q1007=
201904110430 METAR LRTM 110430Z AUTO VRB01KT 9000 SCT072/// BKN092///
                        08/05 Q1007=
201904110500 METAR LRTM 110500Z VRB01KT 9999 BKN036 09/06 Q1007=
201904110530 METAR LRTM 110530Z 27003KT 240V300 9999 FEW010 BKN036 10/06
                        Q1007=
201904110600 METAR LRTM 110600Z 25005KT 230V310 9999 FEW010 BKN036 10/07
                        Q1007=
201904110630 METAR LRTM 110630Z 26005KT 240V300 9999 FEW010 BKN036 11/07
                        Q1007=
201904110700 METAR LRTM 110700Z 26004KT 240V300 9999 FEW010 BKN036 12/07
                        Q1007=
201904110730 METAR LRTM 110730Z VRB01KT 9999 -RA BKN036 12/07 Q1007 R07/19//95=
201904110800 METAR LRTM 110800Z 08003KT 8000 -RA FEW012 BKN036 12/09 Q1008
                        R07/19//95=
201904110830 METAR LRTM 110830Z 35003KT 330V030 6000 RA SCT012 BKN035
                        11/09 Q1008 R07/29//95=
201904110900 METAR LRTM 110900Z 28003KT 7000 -RA SCT012 BKN035 11/09 Q1007
                        RERA R07/29//95=
201904110930 METAR LRTM 110930Z 22003KT 160V260 7000 -RA SCT013 BKN035
                        12/10 Q1008 R07/29//95=
201904111000 METAR LRTM 111000Z 22003KT 160V260 9000 -RA FEW013 SCT035
                        12/10 Q1008 R07/29//95=
201904111030 METAR LRTM 111030Z 36005KT 9999 FEW013 SCT035 14/10 Q1008
                        R07/29//95=
201904111100 METAR LRTM 111100Z 01005KT 320V060 9999 -RA FEW013 SCT035
                        14/10 Q1008 R07/29//95=
201904111130 METAR LRTM 111130Z 04005KT 340V090 9999 -SHRA FEW023 FEW027CB
                        BKN036 15/10 Q1008 R07/29//95=
201904111200 METAR LRTM 111200Z 02003KT 350V050 9999 FEW023 FEW027CB BKN036
                        15/09 Q1008 R07/29//95=
201904111230 METAR LRTM 111230Z VRB01KT 9999 FEW024 FEW028CB BKN036 16/08
                        Q1007 R07/29//95=
201904111300 METAR LRTM 111300Z 04004KT 350V100 9999 FEW025 FEW030CB BKN037
                        16/09 Q1007 R07/29//95=
201904111330 METAR LRTM 111330Z 01005KT 320V070 9999 SCT027 FEW031CB 16/08
                        Q1007 R07/CLRD//=
201904111400 METAR LRTM 111400Z 02005KT 340V050 9999 SCT030 FEW033CB 16/08
                        Q1007=
201904111430 METAR LRTM 111430Z 01004KT 310V050 9999 SCT030 FEW034CB 16/08
                        Q1007=
201904111500 METAR LRTM 111500Z 35004KT 310V050 9999 SCT033 FEW035CB 17/07
                        Q1007=
201904111530 METAR LRTM 111530Z 16010KT 9999 VCSH FEW030 SCT033CB 14/08
                        Q1007=
201904111600 METAR LRTM 111600Z VRB03KT 9999 -SHRA FEW030 SCT033 13/09
                        Q1007=
201904111630 METAR LRTM 111630Z 23004KT 190V340 9999 VCSH FEW030 SCT033CB
                        13/09 Q1007=
201904111700 METAR LRTM 111700Z 25004KT 9999 SCT032 FEW034CB 12/09 Q1008=
201904111730 METAR LRTM 111730Z AUTO 25004KT 9999 FEW056/// OVC072///
                        12/09 Q1008=
201904111800 METAR LRTM 111800Z AUTO 22004KT 9999 OVC052/// 12/09 Q1008=
201904111830 METAR LRTM 111830Z AUTO 16003KT 080V210 9999 SCT052/// SCT066///
                        12/09 Q1009=
201904111900 METAR LRTM 111900Z AUTO VRB01KT 9999 BKN048/// SCT062///
                        12/09 Q1009=
201904111930 METAR LRTM 111930Z AUTO 30002KT 180V350 9999 BKN051/// SCT064///
                        11/09 Q1009=
201904112000 METAR LRTM 112000Z AUTO 08002KT 010V130 9999 SCT061/// BKN080///
                        11/09 Q1009 REDZ=
201904112030 METAR LRTM 112030Z AUTO 08004KT 9999 BKN060/// 10/08 Q1009
                        REDZ=
201904112100 METAR LRTM 112100Z AUTO 08003KT 7000 FEW062/// 09/08 Q1009=
201904112130 METAR LRTM 112130Z AUTO 09004KT 5000 BR BKN092/// 08/07 Q1010=
201904112200 METAR LRTM 112200Z AUTO 10002KT 060V120 9999 FEW094/// 08/06
                        Q1010=
201904112230 METAR LRTM 112230Z AUTO 00000KT 7000 FEW062/// 07/06 Q1010=
201904112300 METAR LRTM 112300Z AUTO 00000KT 6000 NCD 07/07 Q1010=
201904112330 METAR LRTM 112330Z AUTO 35002KT 310V010 8000 NCD 06/05 Q1010=
201904120000 METAR LRTM 120000Z AUTO 01002KT 7000 FEW085/// 06/05 Q1010=
201904120030 METAR LRTM 120030Z AUTO 35002KT 320V020 6000 BKN081/// 05/04
                        Q1010=
201904120100 METAR LRTM 120100Z AUTO 00000KT 7000 OVC083/// 06/05 Q1010=
201904120130 METAR LRTM 120130Z AUTO VRB01KT 9999 OVC088/// 06/05 Q1010=
201904120200 METAR LRTM 120200Z AUTO 00000KT 7000 OVC091/// 06/05 Q1010=
201904120230 METAR LRTM 120230Z AUTO 34002KT 6000 OVC092/// 06/05 Q1010=
201904120300 METAR LRTM 120300Z AUTO VRB01KT 7000 OVC093/// 06/06 Q1010=
201904120330 METAR LRTM 120330Z AUTO 08002KT 040V120 6000 BKN090/// 06/05
                        Q1010=
201904120400 METAR LRTM 120400Z AUTO 09004KT 4000 R07/1900VP2000U BR BKN062///
                        05/05 Q1011=
201904120430 METAR LRTM 120430Z AUTO 09003KT 9999 OVC062/// 07/06 Q1011=
201904120500 METAR LRTM 120500Z 06003KT CAVOK 07/06 Q1011=
201904120530 METAR LRTM 120530Z 08004KT CAVOK 08/07 Q1011=
201904120600 METAR LRTM 120600Z 09003KT 050V130 CAVOK 09/07 Q1011=
201904120630 METAR LRTM 120630Z 08004KT CAVOK 10/07 Q1011=
201904120700 METAR LRTM 120700Z 09003KT 040V140 CAVOK 11/08 Q1011=
201904120730 METAR LRTM 120730Z 03004KT 330V070 9999 FEW025 12/07 Q1011=
201904120800 METAR LRTM 120800Z 07004KT 360V120 9999 FEW025 13/07 Q1011=
201904120830 METAR LRTM 120830Z 08004KT 020V150 9999 SCT025 13/07 Q1011=
201904120900 METAR LRTM 120900Z 08006KT 040V150 9999 FEW030 14/07 Q1011=
201904120930 METAR LRTM 120930Z 06006KT 020V100 9999 SCT030 14/07 Q1011=
201904121000 METAR LRTM 121000Z 07006KT 020V130 9999 SCT030 15/07 Q1011=
201904121030 METAR LRTM 121030Z 07005KT 010V120 9999 SCT033 16/07 Q1011=
201904121100 METAR LRTM 121100Z 02005KT 300V070 9999 SCT035 16/07 Q1010=
201904121130 METAR LRTM 121130Z 05004KT 010V090 9999 SCT035 16/07 Q1010=
201904121200 METAR LRTM 121200Z 08007KT 050V160 9999 SCT035 FEW038CB 16/06
                        Q1010=
201904121230 METAR LRTM 121230Z 06007KT 020V080 9999 SCT035 FEW038CB 16/06
                        Q1010=
201904121300 METAR LRTM 121300Z 05007KT 020V080 9999 SCT036 FEW040CB 17/07
                        Q1010=
201904121330 METAR LRTM 121330Z 08011KT 9999 SCT040 FEW043CB 17/07 Q1010=
201904121400 METAR LRTM 121400Z 10013KT 9999 SCT040 FEW043CB 16/06 Q1010=
201904121430 METAR LRTM 121430Z 08013KT 9999 SCT040 FEW043CB 16/06 Q1010=
201904121500 METAR LRTM 121500Z 08010KT 9999 SCT040 FEW043CB 15/06 Q1010=
201904121530 METAR LRTM 121530Z 13006KT 9999 SCT043 FEW045CB 15/06 Q1010=
201904121600 METAR LRTM 121600Z 17008KT 9999 VCSH SCT043 FEW045CB 15/07
                        Q1010=
201904121630 METAR LRTM 121630Z 19007KT 9999 VCSH SCT043 FEW045CB 14/07
                        Q1010=
201904121700 METAR LRTM 121700Z 28005KT 220V340 9999 VCSH SCT043 FEW045CB
                        13/08 Q1010=
201904121730 METAR LRTM 121730Z AUTO 17004KT 140V230 9999 -SHRA BKN048///
                        SCT062/// 12/08 Q1011=
201904121800 METAR LRTM 121800Z AUTO 26005KT 9999 OVC047/// 12/09 Q1012
                        RERA=
201904121830 METAR LRTM 121830Z AUTO 27004KT 9999 +SHRA BKN038/// SCT048///
                        11/09 Q1012=
201904121900 METAR LRTM 121900Z AUTO 26002KT 230V290 9999 -SHRA BKN039///
                        SCT049/// 11/09 Q1012=
201904121930 METAR LRTM 121930Z AUTO 24005KT 9999 OVC045/// 10/09 Q1012
                        RERA=
201904122000 METAR LRTM 122000Z AUTO 00000KT 9999 OVC047/// 11/09 Q1012=
201904122030 METAR LRTM 122030Z AUTO 20002KT 9999 FEW046/// OVC058///
                        11/09 Q1013=
201904122100 METAR LRTM 122100Z AUTO 21002KT 9999 FEW044/// SCT058///
                        10/09 Q1013=
201904122130 METAR LRTM 122130Z AUTO 36001KT 9999 BKN043/// BKN058///
                        10/09 Q1013=
201904122200 METAR LRTM 122200Z AUTO 14002KT 9999 OVC042/// 10/09 Q1013=
201904122230 METAR LRTM 122230Z AUTO 00000KT 9999 OVC042/// 10/09 Q1013=
201904122300 METAR LRTM 122300Z AUTO 00000KT 9999 SCT043/// SCT055///
                        10/09 Q1013=
201904122330 METAR LRTM 122330Z AUTO 00000KT 9999 FEW046/// BKN058///
                        10/09 Q1013=
201904130000 METAR LRTM 130000Z AUTO 00000KT 7000 BKN040/// 10/09 Q1013=
201904130030 METAR LRTM 130030Z AUTO 00000KT 9000 OVC040/// 09/09 Q1013=
201904130100 METAR LRTM 130100Z AUTO 00000KT 9999 OVC040/// 09/07 Q1013=
201904130130 METAR LRTM 130130Z AUTO 00000KT 9999 OVC039/// 09/08 Q1013=
201904130200 METAR LRTM 130200Z AUTO 13004KT 080V160 9999 OVC036/// 10/05
                        Q1013=
201904130230 METAR LRTM 130230Z AUTO 12004KT 9999 OVC037/// 09/06 Q1013=
201904130300 METAR LRTM 130300Z AUTO 10003KT 070V130 9999 BKN037/// SCT048///
                        09/05 Q1013=
201904130330 METAR LRTM 130330Z AUTO VRB01KT 9999 OVC042/// 09/05 Q1013=
201904130400 METAR LRTM 130400Z AUTO 00000KT 9999 DZ OVC043/// 09/06 Q1013=
201904130430 METAR LRTM 130430Z AUTO 08003KT 9999 -SHRA OVC044/// 09/07
                        Q1013=
201904130500 METAR LRTM 130500Z 09004KT 9999 BKN037 09/07 Q1013=
201904130530 METAR LRTM 130530Z 08003KT 9999 BKN037 10/07 Q1013=
201904130600 METAR LRTM 130600Z 07005KT 9999 BKN037 10/07 Q1013=
201904130630 METAR LRTM 130630Z 07004KT 030V100 9999 BKN038 10/06 Q1013=
201904130700 METAR LRTM 130700Z 06003KT 350V100 9999 BKN038 11/05 Q1013=
201904130730 METAR LRTM 130730Z VRB02KT 9999 FEW025 BKN038 12/05 Q1014=
201904130800 METAR LRTM 130800Z VRB02KT 9999 FEW025 BKN038 12/05 Q1014=
201904130830 METAR LRTM 130830Z VRB03KT 9999 FEW026 SCT038 13/05 Q1014=
201904130900 METAR LRTM 130900Z VRB02KT 9999 FEW027 SCT038 13/05 Q1014=
201904130930 METAR LRTM 130930Z VRB03KT 9999 FEW027 SCT038 14/05 Q1013=
201904131000 METAR LRTM 131000Z VRB02KT 9999 FEW027TCU SCT038 14/05 Q1013=
201904131030 METAR LRTM 131030Z 24005KT 200V280 9999 FEW028 FEW030CB 15/05
                        Q1013=
201904131100 METAR LRTM 131100Z VRB03KT 9999 FEW030 FEW033CB 16/05 Q1013=
201904131130 METAR LRTM 131130Z 25004KT 180V320 9999 FEW032 SCT034CB 15/05
                        Q1013=
201904131200 METAR LRTM 131200Z 10004KT 050V170 9999 FEW033 SCT035CB 15/05
                        Q1013=
201904131230 METAR LRTM 131230Z VRB02KT 9999 FEW033 SCT035CB 16/05 Q1013=
201904131300 METAR LRTM 131300Z 29004KT 230V010 9999 FEW033 SCT035CB 16/05
                        Q1012=
201904131330 METAR LRTM 131330Z 13003KT 080V190 9999 VCSH FEW033 SCT035CB
                        16/05 Q1012=
201904131400 METAR LRTM 131400Z 16007KT 130V190 9999 VCSH FEW033 SCT035CB
                        15/05 Q1012=
201904131430 METAR LRTM 131430Z 12009KT 9999 -SHRA FEW030 SCT033CB 14/06
                        Q1012=
201904131500 METAR LRTM 131500Z 14011KT 9999 VCTS VCSH FEW030 SCT033CB
                        12/07 Q1012=
201904131530 METAR LRTM 131530Z 18007KT 150V220 9999 VCSH SCT030 SCT033CB
                        12/06 Q1013=
201904131600 METAR LRTM 131600Z 25004KT 9999 SCT033 FEW035CB 12/07 Q1013=
201904131630 METAR LRTM 131630Z 23004KT 9999 VCTS SCT033 SCT035CB 11/08
                        Q1013=
201904131700 METAR LRTM 131700Z VRB01KT 9999 VCTS SCT033 SCT035CB 11/08
                        Q1013=
201904131730 METAR LRTM 131730Z AUTO VRB01KT 9999 OVC054/// 11/08 Q1013
                        REDZ=
201904131800 METAR LRTM 131800Z AUTO 14003KT 070V190 9999 BKN043/// SCT054///
                        11/08 Q1014=
201904131830 METAR LRTM 131830Z AUTO 34003KT 9999 FEW027/// BKN040///
                        11/08 Q1014=
201904131900 METAR LRTM 131900Z AUTO 03005KT 360V080 9999 RA SCT017///
                        SCT022/// 10/08 Q1014=
201904131930 METAR LRTM 131930Z AUTO 00000KT 9999 -RA FEW011/// SCT043///
                        10/08 Q1014=
201904132000 METAR LRTM 132000Z AUTO 31003KT 9999 FEW025/// OVC080///
                        10/08 Q1014 RERA=
201904132030 METAR LRTM 132030Z AUTO 00000KT 9999 SCT031/// OVC085///
                        09/08 Q1015=
201904132100 METAR LRTM 132100Z AUTO VRB01KT 9999 FEW010/// SCT022///
                        OVC028/// 10/08 Q1015=
201904132130 METAR LRTM 132130Z AUTO 19001KT 9999 FEW011/// BKN029///
                        10/07 Q1015=
201904132200 METAR LRTM 132200Z AUTO 23004KT 9999 FEW029/// BKN089///
                        09/07 Q1015=
201904132230 METAR LRTM 132230Z AUTO 00000KT 9999 -DZ BKN037/// 08/07
                        Q1015=
201904132300 METAR LRTM 132300Z AUTO VRB01KT 9999 BKN036/// SCT047///
                        09/08 Q1015 REDZ=
201904132330 METAR LRTM 132330Z AUTO 33003KT 240V030 9999 -SHRA FEW013///
                        BKN032/// BKN041/// 09/08 Q1014=
201904140000 METAR LRTM 140000Z AUTO 31004KT 9999 -SHRA FEW033/// BKN042///
                        09/07 Q1014=
201904140030 METAR LRTM 140030Z AUTO 29003KT 9999 SCT017/// SCT022///
                        09/07 Q1014 REDZ=
201904140100 METAR LRTM 140100Z AUTO 27002KT 9999 BKN023/// SCT059///
                        09/07 Q1014 REUP=
201904140130 METAR LRTM 140130Z AUTO 24001KT 9999 FEW034/// SCT052///
                        BKN066/// 08/07 Q1014=
201904140200 METAR LRTM 140200Z AUTO 23002KT 210V270 9999 FEW032/// OVC052///
                        09/07 Q1014=
201904140230 METAR LRTM 140230Z AUTO 23001KT 9999 OVC052/// 08/07 Q1014=
201904140300 METAR LRTM 140300Z AUTO 24001KT 9999 FEW012/// OVC052///
                        08/07 Q1014=
201904140330 METAR LRTM 140330Z AUTO 00000KT 9999 FEW010/// OVC049///
                        08/07 Q1014=
201904140400 METAR LRTM 140400Z AUTO 00000KT 9999 OVC046/// 08/07 Q1014=
201904140430 METAR LRTM 140430Z AUTO 07002KT 9999 -DZ FEW004/// BKN050///
                        08/07 Q1014=
201904140500 METAR LRTM 140500Z VRB02KT 9999 FEW040CB 09/07 Q1014=
201904140530 METAR LRTM 140530Z 00000KT 9999 FEW036 FEW042CB 09/06 Q1014
                        R07/19//95=
201904140600 METAR LRTM 140600Z 06003KT 020V100 9999 FEW036 FEW042CB 09/06
                        Q1014 R07/19//95=
201904140630 METAR LRTM 140630Z 25003KT 200V290 9999 FEW036 10/06 Q1014
                        R07/19//95=
201904140700 METAR LRTM 140700Z 26003KT 200V310 9999 SCT030 10/06 Q1014
                        R07/CLRD//=
201904140730 METAR LRTM 140730Z VRB02KT 9999 SCT030 11/05 Q1014=
201904140800 METAR LRTM 140800Z VRB01KT 9999 FEW030 BKN046 11/04 Q1014=
201904140830 METAR LRTM 140830Z 26003KT 210V290 9999 FEW032 BKN046 11/05
                        Q1014=
201904140900 METAR LRTM 140900Z VRB04KT 9999 BKN047 12/04 Q1014=
201904140930 METAR LRTM 140930Z 34004KT 240V040 9999 FEW028 BKN047 12/03
                        Q1014=
201904141000 METAR LRTM 141000Z 00000KT 9999 FEW028 BKN047 12/03 Q1014=
201904141030 METAR LRTM 141030Z VRB01KT 9999 FEW032 BKN048 12/03 Q1014=
201904141100 METAR LRTM 141100Z 29003KT 240V330 9999 FEW032 12/03 Q1014=
201904141130 METAR LRTM 141130Z 31003KT 240V020 9999 FEW034 13/03 Q1014=
201904141200 METAR LRTM 141200Z 32003KT 280V020 9999 FEW034 13/03 Q1014=
201904141230 METAR LRTM 141230Z VRB02KT 9999 FEW036 13/03 Q1014=
201904141300 METAR LRTM 141300Z VRB01KT 9999 FEW038 13/04 Q1014=
201904141330 METAR LRTM 141330Z 07008KT 040V100 9999 FEW038 12/03 Q1014=
201904141400 METAR LRTM 141400Z 10008KT 9999 FEW039 BKN049 12/03 Q1014=
201904141430 METAR LRTM 141430Z 12007KT 9999 BKN046 12/03 Q1014=
201904141500 METAR LRTM 141500Z 10006KT CAVOK 12/03 Q1014=
201904141530 METAR LRTM 141530Z 08008KT CAVOK 12/03 Q1014=
201904141600 METAR LRTM 141600Z 10006KT CAVOK 12/03 Q1014=
201904141630 METAR LRTM 141630Z 11005KT CAVOK 12/03 Q1014=
201904141700 METAR LRTM 141700Z 10008KT CAVOK 11/01 Q1015=
201904141730 METAR LRTM 141730Z AUTO 11006KT 9999 SCT048/// SCT100///
                        10/01 Q1015=
201904141800 METAR LRTM 141800Z AUTO 09005KT 9999 OVC068/// 10/02 Q1016=
201904141830 METAR LRTM 141830Z AUTO 11005KT 9999 OVC061/// 10/01 Q1016=
201904141900 METAR LRTM 141900Z AUTO 11004KT 9999 OVC062/// 10/01 Q1016=
201904141930 METAR LRTM 141930Z AUTO 08003KT 9999 OVC069/// 09/02 Q1016=
201904142000 METAR LRTM 142000Z AUTO 02002KT 9999 OVC070/// 09/02 Q1016=
201904142030 METAR LRTM 142030Z AUTO VRB01KT 9999 OVC070/// 08/02 Q1016=
201904142100 METAR LRTM 142100Z AUTO 07002KT 9999 BKN066/// SCT083///
                        09/02 Q1017=
201904142130 METAR LRTM 142130Z AUTO 00000KT 9999 BKN061/// BKN100///
                        08/02 Q1017=
201904142200 METAR LRTM 142200Z AUTO 35002KT 9999 OVC064/// 08/04 Q1017=
201904142230 METAR LRTM 142230Z AUTO VRB01KT 9999 OVC062/// 07/04 Q1017=
201904142300 METAR LRTM 142300Z AUTO 00000KT 9999 OVC067/// 07/03 Q1017=
201904142330 METAR LRTM 142330Z AUTO 36002KT 9999 BKN071/// SCT110///
                        07/03 Q1017=
201904150000 METAR LRTM 150000Z AUTO 35001KT 9999 SCT079/// BKN110///
                        06/04 Q1017=
201904150030 METAR LRTM 150030Z AUTO 33003KT 9999 OVC110/// 06/03 Q1017=
201904150100 METAR LRTM 150100Z AUTO VRB01KT 9999 OVC100/// 06/03 Q1017=
201904150130 METAR LRTM 150130Z AUTO 00000KT 9999 OVC110/// 06/03 Q1017=
201904150200 METAR LRTM 150200Z AUTO 00000KT 9999 OVC110/// 06/03 Q1017=
201904150230 METAR LRTM 150230Z AUTO 25001KT 9999 OVC100/// 05/02 Q1017=
201904150300 METAR LRTM 150300Z AUTO 25002KT 9999 OVC110/// 05/02 Q1017=
201904150330 METAR LRTM 150330Z AUTO 00000KT 9999 OVC100/// 05/02 Q1017=
201904150400 METAR LRTM 150400Z AUTO VRB01KT 9999 OVC110/// 05/02 Q1018=
201904150430 METAR LRTM 150430Z AUTO 06004KT 9999 BKN110/// 05/01 Q1018=
201904150500 METAR LRTM 150500Z 08005KT 9999 FEW008 06/01 Q1018=
201904150530 METAR LRTM 150530Z 07006KT 9999 FEW009 07/01 Q1018=
201904150600 METAR LRTM 150600Z 07005KT 9999 FEW010 08/01 Q1018=
201904150630 METAR LRTM 150630Z 06004KT 340V120 9999 FEW010 09/M02 Q1018=
201904150700 METAR LRTM 150700Z 06006KT 350V090 CAVOK 10/M02 Q1018=
201904150730 METAR LRTM 150730Z 03005KT 320V110 9999 FEW028 11/M02 Q1018=
201904150800 METAR LRTM 150800Z 05005KT 360V110 9999 FEW030 11/M02 Q1018=
201904150830 METAR LRTM 150830Z VRB05KT 9999 FEW030 11/M03 Q1018=
201904150900 METAR LRTM 150900Z 03007KT 360V060 9999 FEW033 12/M03 Q1018=
201904150930 METAR LRTM 150930Z VRB04KT 9999 FEW033 13/M03 Q1018=
201904151000 METAR LRTM 151000Z 06005KT 350V120 9999 FEW033 13/M05 Q1017=
201904151030 METAR LRTM 151030Z 04007KT 360V090 9999 FEW033 13/M06 Q1017=
201904151100 METAR LRTM 151100Z 05007KT 010V100 9999 FEW034 14/M05 Q1017=
201904151130 METAR LRTM 151130Z VRB06KT 9999 FEW034 14/M06 Q1017=
201904151200 METAR LRTM 151200Z VRB05KT 9999 FEW034 14/M06 Q1017=
201904151230 METAR LRTM 151230Z 05006KT 310V100 9999 FEW036 15/M05 Q1016=
201904151300 METAR LRTM 151300Z VRB04KT 9999 FEW036 14/M04 Q1016=
201904151330 METAR LRTM 151330Z 35007KT 320V060 9999 FEW036 15/M05 Q1016=
201904151400 METAR LRTM 151400Z 28009KT 250V330 9999 FEW037 15/M04 Q1016=
201904151430 METAR LRTM 151430Z 26005KT 230V300 9999 FEW038 15/M05 Q1016=
201904151500 METAR LRTM 151500Z 28005KT 220V330 9999 FEW038 16/M05 Q1016=
201904151530 METAR LRTM 151530Z 27008KT CAVOK ///// Q1016=
201904151600 METAR LRTM 151600Z 30006KT 270V340 CAVOK 15/M05 Q1015=
201904151630 METAR LRTM 151630Z 30006KT 260V330 CAVOK 15/M06 Q1015=
201904151700 METAR LRTM 151700Z 28006KT CAVOK 12/M03 Q1016=
201904151730 METAR LRTM 151730Z 28005KT CAVOK 10/M03 Q1016=
201904151800 METAR LRTM 151800Z 00000KT CAVOK 09/M02 Q1016=
201904151830 METAR LRTM 151830Z AUTO 05003KT 360V110 9999 BKN087/// 09/M03
                        Q1017=
201904151900 METAR LRTM 151900Z AUTO 07008KT 9999 NCD 07/M04 Q1017=
201904151930 METAR LRTM 151930Z AUTO 07006KT 030V090 9999 NCD 06/M03 Q1017=
201904152000 METAR LRTM 152000Z AUTO 08007KT 9999 NCD 05/M03 Q1018=
201904152030 METAR LRTM 152030Z AUTO 09005KT 060V120 9999 NCD 05/M04 Q1018=
201904152100 METAR LRTM 152100Z AUTO 10004KT 9999 NCD 04/M04 Q1018=
201904152130 METAR LRTM 152130Z AUTO 11003KT 9999 NCD 04/M04 Q1018=
201904152200 METAR LRTM 152200Z AUTO 07006KT 9999 NCD 04/M04 Q1019=
201904152230 METAR LRTM 152230Z AUTO 09005KT 9999 NCD 03/M04 Q1019=
201904152300 METAR LRTM 152300Z AUTO 09006KT 9999 NCD 02/M04 Q1019=
201904152330 METAR LRTM 152330Z AUTO 09006KT 9999 NCD 02/M04 Q1019=
201904160000 METAR LRTM 160000Z AUTO 09006KT 9999 NCD 00/M04 Q1019=
201904160030 METAR LRTM 160030Z AUTO 10004KT 9999 NCD M00/M04 Q1019=
201904160100 METAR LRTM 160100Z AUTO 08003KT 9999 NCD 01/M04 Q1019=
201904160130 METAR LRTM 160130Z AUTO 11002KT 070V130 9999 NCD M01/M05
                        Q1019=
201904160200 METAR LRTM 160200Z AUTO 07002KT 9999 NCD M01/M05 Q1019=
201904160230 METAR LRTM 160230Z AUTO 07003KT 5000 BR NCD M02/M05 Q1019=
201904160300 METAR LRTM 160300Z AUTO VRB01KT 9999 NCD M02/M05 Q1019=
201904160330 METAR LRTM 160330Z AUTO 00000KT 9000 NCD M03/M05 Q1019=
201904160400 METAR LRTM 160400Z AUTO 23001KT 9000 NCD M02/M05 Q1019=
201904160430 METAR LRTM 160430Z AUTO 00000KT 9000 NCD M00/M04 Q1019=
201904160500 METAR LRTM 160500Z 00000KT 9999 FEW015 01/M03 Q1019=
201904160530 METAR LRTM 160530Z 08004KT 060V120 CAVOK 02/M03 Q1019=
201904160600 METAR LRTM 160600Z 08003KT 030V110 CAVOK 04/M03 Q1019=
201904160630 METAR LRTM 160630Z VRB02KT CAVOK 06/M02 Q1019=
201904160700 METAR LRTM 160700Z VRB02KT CAVOK 07/M02 Q1019=
201904160730 METAR LRTM 160730Z VRB02KT CAVOK 08/M02 Q1019=
201904160800 METAR LRTM 160800Z VRB04KT CAVOK 10/M03 Q1019=
201904160830 METAR LRTM 160830Z 32005KT 250V020 CAVOK 11/M04 Q1018=
201904160900 METAR LRTM 160900Z 32007KT 280V350 CAVOK 12/M04 Q1018=
201904160930 METAR LRTM 160930Z 29010KT 240V330 CAVOK 12/M06 Q1017=
201904161000 METAR LRTM 161000Z 32007KT 260V340 CAVOK 13/M07 Q1017=
201904161030 METAR LRTM 161030Z 31008KT 270V340 CAVOK 13/M06 Q1017=
201904161100 METAR LRTM 161100Z 27008KT 240V310 CAVOK 14/M05 Q1017=
201904161130 METAR LRTM 161130Z 27010KT 240V300 CAVOK 14/M06 Q1016=
201904161200 METAR LRTM 161200Z 32009KT 270V360 CAVOK 15/M05 Q1016=
201904161230 METAR LRTM 161230Z 30011KT 260V340 9999 FEW036 14/M06 Q1016=
201904161300 METAR LRTM 161300Z 31009KT 270V360 9999 FEW036 15/M06 Q1015=
201904161330 METAR LRTM 161330Z 31010KT 270V340 9999 FEW037 16/M07 Q1015=
201904161400 METAR LRTM 161400Z 31011KT 280V350 9999 FEW038 15/M08 Q1015=
201904161430 METAR LRTM 161430Z 33012KT 9999 FEW040 14/M08 Q1015=
201904161500 METAR LRTM 161500Z 31010KT 270V340 9999 FEW040 15/M07 Q1015=
201904161530 METAR LRTM 161530Z 32011KT 270V350 9999 FEW040 15/M10 Q1015=
201904161600 METAR LRTM 161600Z 30010KT 9999 FEW043 14/M08 Q1015=
201904161630 METAR LRTM 161630Z 29009KT 260V320 9999 FEW044 13/M07 Q1015=
201904161700 METAR LRTM 161700Z 30007KT 270V340 9999 FEW044 13/M06 Q1015=
201904161730 METAR LRTM 161730Z AUTO 29007KT 9999 NCD 12/M06 Q1015=
201904161800 METAR LRTM 161800Z AUTO 30007KT 260V330 9999 FEW200/// 12/M06
                        Q1015=
201904161830 METAR LRTM 161830Z AUTO 31008KT 9999 FEW160/// 12/M07 Q1016=
201904161900 METAR LRTM 161900Z AUTO 31008KT 9999 FEW120/// 11/M07 Q1016=
201904161930 METAR LRTM 161930Z AUTO 35005KT 300V070 9999 BKN110/// 10/M06
                        Q1016=
201904162000 METAR LRTM 162000Z AUTO 02008KT 350V060 9999 BKN100/// 11/M02
                        Q1016=
201904162030 METAR LRTM 162030Z AUTO 03006KT 350V050 9999 OVC092/// 10/M01
                        Q1016=
201904162100 METAR LRTM 162100Z AUTO 01006KT 340V040 9999 OVC086/// 10/M01
                        Q1016=
201904162130 METAR LRTM 162130Z AUTO 04002KT 340V110 9999 BKN067/// 10/M02
                        Q1016=
201904162200 METAR LRTM 162200Z AUTO 35002KT 300V110 9999 OVC068/// 09/M01
                        Q1016=
201904162230 METAR LRTM 162230Z AUTO 31004KT 9999 OVC067/// 09/M01 Q1016=
201904162300 METAR LRTM 162300Z AUTO 31003KT 270V330 9999 OVC068/// 09/M01
                        Q1016=
201904162330 METAR LRTM 162330Z AUTO 31005KT 9999 OVC065/// 08/M01 Q1016=
201904170000 METAR LRTM 170000Z AUTO 31006KT 270V330 9999 OVC065/// 08/M00
                        Q1016=
201904170030 METAR LRTM 170030Z AUTO 30006KT 260V340 9999 OVC061/// 07/00
                        Q1016=
201904170100 METAR LRTM 170100Z AUTO 28008KT 250V310 9999 BKN055/// BKN094///
                        06/01 Q1016=
201904170130 METAR LRTM 170130Z AUTO 28007KT 9999 BKN098/// 06/01 Q1016=
201904170200 METAR LRTM 170200Z AUTO 29005KT 260V340 9999 SCT077/// SCT100///
                        06/01 Q1016=
201904170230 METAR LRTM 170230Z AUTO 27005KT 240V300 9999 SCT051/// SCT100///
                        05/01 Q1016=
201904170300 METAR LRTM 170300Z AUTO 31004KT 250V350 9999 SCT051/// BKN064///
                        06/01 Q1016=
201904170330 METAR LRTM 170330Z AUTO 32005KT 250V360 9999 BKN063/// SCT086///
                        05/01 Q1016=
201904170400 METAR LRTM 170400Z AUTO 29004KT 250V350 9999 -DZ SCT062///
                        06/01 Q1016=
201904170430 METAR LRTM 170430Z AUTO 04002KT 320V100 9999 -RA BKN031///
                        05/02 Q1016=
201904170500 METAR LRTM 170500Z VRB01KT 9999 -RA FEW009 BKN028 05/03 Q1017
                        R07/29//95=
201904170530 METAR LRTM 170530Z VRB02KT 9999 -RA SCT010 BKN026 06/03 Q1017
                        R07/29//95=
201904170600 METAR LRTM 170600Z 26005KT 230V320 9999 -RA SCT010 BKN026
                        06/04 Q1017 R07/29//95=
201904170630 METAR LRTM 170630Z 27006KT 230V300 9999 -RA SCT008 BKN028
                        06/03 Q1017 R07/29//95=
201904170700 METAR LRTM 170700Z 28008KT 9999 -RA SCT009 BKN028 07/04 Q1017
                        R07/29//95=
201904170730 METAR LRTM 170730Z 28006KT 260V030 9999 -RA SCT010 BKN028
                        07/04 Q1018=
201904170800 METAR COR LRTM 170800Z 29007KT 270V330 9999 -RA SCT011 BKN030
                        08/04 Q1018 R07/29//95=
201904170830 METAR LRTM 170830Z 28007KT 250V310 9999 -RA FEW011 BKN030
                        09/05 Q1018 R07/29//95=
201904170900 METAR LRTM 170900Z 27005KT 240V320 9999 -RA FEW011 BKN030
                        09/04 Q1018 R07/29//95=
201904170930 METAR LRTM 170930Z 28005KT 240V330 9999 -RA FEW011 BKN030
                        09/04 Q1018 R07/29//95=
201904171000 METAR LRTM 171000Z 31005KT 260V360 9999 -RA SCT011 BKN030
                        10/05 Q1018 R07/29//95=
201904171030 METAR LRTM 171030Z 32003KT 240V050 9999 -RA FEW011 BKN030
                        10/04 Q1018 R07/29//95=
201904171100 METAR LRTM 171100Z VRB02KT 9999 -RA SCT011 BKN030 11/05 Q1019
                        R07/29//95=
201904171130 METAR LRTM 171130Z 36003KT 270V060 9999 -RA SCT011 BKN028
                        10/04 Q1019 R07/29//95=
201904171200 METAR LRTM 171200Z 34006KT 9999 -RA SCT009 BKN028 10/04 Q1019
                        R07/29//95=
201904171230 METAR LRTM 171230Z 33005KT 300V360 9999 -RA SCT009 BKN028
                        10/04 Q1019 R07/29//95=
201904171300 METAR LRTM 171300Z 33005KT 9999 -RA SCT011 FEW028CB BKN030
                        10/03 Q1019 R07/29//95=
201904171330 METAR LRTM 171330Z VRB02KT 9999 -RA SCT012 FEW028CB BKN033
                        10/04 Q1019 R07/29//95=
201904171400 METAR LRTM 171400Z VRB02KT 9999 -RA FEW012 FEW030CB BKN033
                        11/04 Q1019 R07/29//95=
201904171430 METAR LRTM 171430Z 20003KT 160V230 9999 FEW012 FEW030CB BKN034
                        11/04 Q1019 R07/29//95=
201904171500 METAR LRTM 171500Z 20003KT 150V230 9999 FEW014 BKN035 10/05
                        Q1020 R07/29//95=
201904171530 METAR LRTM 171530Z 16003KT 9999 FEW014 BKN036 10/04 Q1020
                        R07/29//95=
201904171600 METAR LRTM 171600Z 15005KT 9999 FEW014 BKN037 10/05 Q1020
                        R07/29//95=
201904171630 METAR LRTM 171630Z 16007KT 9999 SCT037 10/06 Q1020 R07/29//95=
201904171700 METAR LRTM 171700Z 17006KT 9999 SCT038 09/06 Q1021 R07/29//95=
201904171730 METAR LRTM 171730Z AUTO 18004KT 9999 SCT035/// BKN068///
                        09/05 Q1021=
201904171800 METAR LRTM 171800Z AUTO 00000KT 9000 BKN045/// SCT074///
                        09/05 Q1022=
201904171830 METAR LRTM 171830Z AUTO 05002KT 9999 SCT043/// BKN073///
                        09/05 Q1022=
201904171900 METAR LRTM 171900Z AUTO 09003KT 9999 SCT043/// SCT057///
                        BKN072/// 08/05 Q1022=
201904171930 METAR LRTM 171930Z AUTO 09002KT 9999 FEW055/// OVC072///
                        08/05 Q1022=
201904172000 METAR LRTM 172000Z AUTO 09004KT 9999 FEW056/// OVC073///
                        07/05 Q1023=
201904172030 METAR LRTM 172030Z AUTO 09003KT 9999 OVC074/// 07/05 Q1023=
201904172100 METAR LRTM 172100Z AUTO 10004KT 9999 OVC074/// 07/05 Q1023=
201904172130 METAR LRTM 172130Z AUTO VRB01KT 9999 OVC075/// 07/05 Q1023=
201904172200 METAR LRTM 172200Z AUTO 09003KT 9999 OVC073/// 06/05 Q1023=
201904172230 METAR LRTM 172230Z AUTO VRB01KT 9999 SCT073/// 05/04 Q1023=
201904172300 METAR LRTM 172300Z AUTO 05002KT 010V140 9999 NCD 04/03 Q1024=
201904172330 METAR LRTM 172330Z AUTO 11004KT 7000 NCD 02/01 Q1024=
201904180000 METAR LRTM 180000Z AUTO 08005KT 6000 NCD 02/01 Q1024=
201904180030 METAR LRTM 180030Z AUTO 09004KT 6000 NCD 03/02 Q1024=
201904180100 METAR LRTM 180100Z AUTO 10003KT 4500 BR NCD 02/01 Q1024=
201904180130 METAR LRTM 180130Z AUTO 10003KT 5000 BR BKN065/// 02/01 Q1024=
201904180200 METAR LRTM 180200Z AUTO 04002KT 320V090 6000 FEW067/// 02/01
                        Q1024=
201904180230 METAR LRTM 180230Z AUTO 10002KT 060V120 8000 NCD 00/M00 Q1024=
201904180300 METAR LRTM 180300Z AUTO 11002KT 8000 BKN046/// 00/M00 Q1024=
201904180330 METAR LRTM 180330Z AUTO VRB01KT 6000 OVC054/// 02/01 Q1025=
201904180400 METAR LRTM 180400Z AUTO 00000KT 8000 BKN050/// 02/02 Q1025=
201904180430 METAR LRTM 180430Z AUTO 30002KT 250V350 8000 OVC046/// 03/02
                        Q1025=
201904180500 METAR LRTM 180500Z 27002KT 7000 FEW012 BKN038 04/03 Q1025
                        R07/29//95=
201904180530 METAR LRTM 180530Z 24003KT 210V270 7000 FEW012 BKN037 05/04
                        Q1025 R07/29//95=
201904180600 METAR LRTM 180600Z 25004KT 7000 FEW011 BKN038 06/04 Q1026
                        R07/29//95=
201904180630 METAR LRTM 180630Z 23004KT 9000 FEW011 BKN040 07/05 Q1026
                        R07/29//95=
201904180700 METAR LRTM 180700Z 25004KT 9999 -RA FEW013 BKN040 07/05 Q1026
                        R07/19//95=
201904180730 METAR LRTM 180730Z 23005KT 9999 -RA FEW014 BKN042 08/06 Q1026
                        R07/19//95=
201904180800 METAR LRTM 180800Z 23006KT 210V270 9999 FEW014 SCT043 10/07
                        Q1026 R07/19//95=
201904180830 METAR LRTM 180830Z 26004KT 230V320 9999 BKN044 10/06 Q1027
                        R07/19//95=
201904180900 METAR LRTM 180900Z 24005KT 200V290 9999 FEW025 SCT044 11/06
                        Q1027 R07/19//95=
201904180930 METAR LRTM 180930Z 24004KT 180V280 9999 FEW025 SCT044 12/07
                        Q1027 R07/CLRD//=
201904181000 METAR LRTM 181000Z 23004KT 200V270 9999 FEW025 FEW030CB BKN044
                        13/07 Q1027=
201904181030 METAR LRTM 181030Z VRB02KT 9999 -SHRA FEW026 FEW030CB BKN042
                        13/06 Q1027=
201904181100 METAR LRTM 181100Z 04004KT 340V100 9999 FEW028 SCT033CB BKN043
                        14/04 Q1027=
201904181130 METAR LRTM 181130Z VRB05KT 9999 FEW025 SCT033CB BKN040 14/05
                        Q1027=
201904181200 METAR LRTM 181200Z 04006KT 010V070 9999 FEW026 SCT033CB BKN042
                        14/04 Q1027=
201904181230 METAR LRTM 181230Z 05007KT 020V090 9999 SCT033CB SCT043 14/03
                        Q1027=
201904181300 METAR LRTM 181300Z 07009KT 030V100 9999 FEW036CB SCT045 15/02
                        Q1027=
201904181330 METAR LRTM 181330Z 06009KT 020V110 9999 FEW035CB SCT045 15/02
                        Q1027=
201904181400 METAR LRTM 181400Z 10007KT 060V130 9999 FEW033CB SCT045 15/02
                        Q1027=
201904181430 METAR LRTM 181430Z 05007KT 010V080 9999 FEW030 FEW036CB 14/02
                        Q1027=
201904181500 METAR LRTM 181500Z 05007KT 010V080 9999 FEW030 FEW036CB 14/02
                        Q1027=
201904181530 METAR LRTM 181530Z 08004KT 050V110 9999 SCT033 15/01 Q1027=
201904181600 METAR LRTM 181600Z 05006KT 350V090 9999 SCT038 15/00 Q1027=
201904181630 METAR LRTM 181630Z 06004KT 040V110 9999 SCT036 13/M00 Q1027=
201904181700 METAR LRTM 181700Z 17003KT 9999 SCT040 13/01 Q1027=
201904181730 METAR LRTM 181730Z AUTO 24003KT 9999 BKN064/// 12/01 Q1027=
201904181800 METAR LRTM 181800Z AUTO 22005KT 9999 FEW062/// SCT078///
                        10/02 Q1027=
201904181830 METAR LRTM 181830Z AUTO 25006KT 9999 NCD 07/03 Q1027=
201904181900 METAR LRTM 181900Z AUTO 28003KT 9999 NCD 08/04 Q1028=
201904181930 METAR LRTM 181930Z AUTO 26002KT 9999 SCT069/// 06/04 Q1028=
201904182000 METAR LRTM 182000Z AUTO 07002KT 040V140 9999 BKN061/// 06/03
                        Q1028=
201904182030 METAR LRTM 182030Z AUTO 09004KT 9999 FEW070/// 05/03 Q1028=
201904182100 METAR LRTM 182100Z AUTO VRB01KT 9999 BKN066/// 05/02 Q1028=
201904182130 METAR LRTM 182130Z AUTO 26002KT 220V320 9999 FEW066/// 05/03
                        Q1028=
201904182200 METAR LRTM 182200Z AUTO 09005KT 9999 NCD 02/M00 Q1028=
201904182230 METAR LRTM 182230Z AUTO 04002KT 360V070 9999 NCD 03/01 Q1028=
201904182300 METAR LRTM 182300Z AUTO 23002KT 9999 NCD 01/M00 Q1027=
201904182330 METAR LRTM 182330Z AUTO 27003KT 9999 NCD 02/00 Q1027=
201904190000 METAR LRTM 190000Z AUTO 08005KT 9000 NCD 01/M01 Q1027=
201904190030 METAR LRTM 190030Z AUTO 10004KT 9999 FEW170/// 02/00 Q1027=
201904190100 METAR LRTM 190100Z AUTO 05003KT 330V120 8000 SCT170/// 01/M01
                        Q1027=
201904190130 METAR LRTM 190130Z AUTO VRB01KT 8000 NCD 01/M01 Q1027=
201904190200 METAR LRTM 190200Z AUTO 07003KT 7000 NCD 01/M00 Q1026=
201904190230 METAR LRTM 190230Z AUTO 06002KT 6000 NCD M00/M02 Q1026=
201904190300 METAR LRTM 190300Z AUTO 00000KT 7000 NCD M01/M02 Q1026=
201904190330 METAR LRTM 190330Z AUTO 00000KT 8000 SCT160/// M01/M03 Q1026=
201904190400 METAR LRTM 190400Z AUTO VRB01KT 9000 FEW004/// BKN150///
                        M00/M02 Q1026=
201904190430 METAR LRTM 190430Z AUTO 00000KT 6000 SCT140/// 01/M00 Q1026=
201904190500 METAR LRTM 190500Z AUTO 09002KT 060V120 7000 BKN140/// 02/01
                        Q1026=
201904190530 METAR LRTM 190530Z 00000KT 7000 FEW007 04/02 Q1026=
201904190600 METAR LRTM 190600Z VRB01KT 8000 FEW008 06/03 Q1026=
201904190630 METAR LRTM 190630Z 25005KT 220V280 CAVOK 08/04 Q1026=
201904190700 METAR LRTM 190700Z 26006KT 230V310 CAVOK 10/04 Q1025=
201904190730 METAR LRTM 190730Z 27007KT 220V300 CAVOK 11/05 Q1025=
201904190800 METAR LRTM 190800Z 28008KT 240V330 9999 FEW030 13/04 Q1025=
201904190830 METAR LRTM 190830Z 30008KT 260V330 9999 FEW030 15/04 Q1024=
201904190900 METAR LRTM 190900Z 32010KT 280V360 9999 FEW030 16/03 Q1024=
201904190930 METAR LRTM 190930Z 35012KT 320V040 9999 SCT031 FEW033TCU
                        16/M00 Q1024=
201904191000 METAR LRTM 191000Z 36015KT 320V030 9999 SCT032 FEW034TCU
                        18/M03 Q1024=
201904191030 METAR LRTM 191030Z 02011KT 350V050 9999 SCT033 FEW035CB 17/M03
                        Q1024=
201904191100 METAR LRTM 191100Z 35012KT 320V030 9999 SCT033 FEW035CB 17/M04
                        Q1024=
201904191130 METAR LRTM 191130Z 35013KT 9999 SCT034 FEW036CB 19/M05 Q1024=
201904191200 METAR LRTM 191200Z 02009KT 350V060 9999 SCT034 FEW036CB 19/M05
                        Q1024=
201904191230 METAR LRTM 191230Z 03012KT 360V070 9999 SCT036 19/M04 Q1024=
201904191300 METAR LRTM 191300Z 05013KT 9999 SCT036 FEW038TCU 18/M04 Q1023=
201904191330 METAR LRTM 191330Z 05009KT 360V070 9999 SCT036 FEW038TCU
                        18/M02 Q1023=
201904191400 METAR LRTM 191400Z 03010KT 360V060 9999 SCT036 FEW038TCU
                        18/M04 Q1023=
201904191430 METAR LRTM 191430Z 02011KT 350V050 9999 SCT038 17/M05 Q1023=
201904191500 METAR LRTM 191500Z 03009KT 360V060 9999 FEW038 FEW040TCU
                        17/M04 Q1024=
201904191530 METAR LRTM 191530Z 03009KT 9999 FEW042 17/M05 Q1024=
201904191600 METAR LRTM 191600Z 04009KT 9999 FEW042 16/M05 Q1024=
201904191630 METAR LRTM 191630Z 04010KT 010V070 9999 FEW042 16/M05 Q1024=
201904191700 METAR LRTM 191700Z 04007KT 9999 FEW042 15/M04 Q1024=
201904191730 METAR LRTM 191730Z AUTO 04007KT 9999 NCD 13/M04 Q1025=
201904191800 METAR LRTM 191800Z AUTO 05006KT 9999 NCD 12/M05 Q1026=
201904191830 METAR LRTM 191830Z AUTO 06006KT 9999 NCD 10/M04 Q1026=
201904191900 METAR LRTM 191900Z AUTO 10007KT 9999 NCD 08/M02 Q1027=
201904191930 METAR LRTM 191930Z AUTO 09006KT 9999 NCD 08/M01 Q1027=
201904192000 METAR LRTM 192000Z AUTO 16003KT 110V180 9999 NCD 07/M01 Q1027=
201904192030 METAR LRTM 192030Z AUTO 09002KT 040V160 9999 NCD 06/M01 Q1027=
201904192100 METAR LRTM 192100Z AUTO 00000KT 9999 NCD 05/M01 Q1028=
201904192130 METAR LRTM 192130Z AUTO 35002KT 9999 NCD 04/M02 Q1028=
201904192200 METAR LRTM 192200Z AUTO 00000KT 9999 NCD 04/M01 Q1028=
201904192230 METAR LRTM 192230Z AUTO 21004KT 180V240 9999 NCD 02/M02 Q1028=
201904192300 METAR LRTM 192300Z AUTO 20003KT 9999 NCD 02/M03 Q1028=
201904192330 METAR LRTM 192330Z AUTO VRB02KT 9999 NCD 02/M01 Q1028=
201904200000 METAR LRTM 200000Z AUTO 04002KT 340V080 9999 NCD 01/M03 Q1028=
201904200030 METAR LRTM 200030Z AUTO VRB01KT 9999 NCD 01/M03 Q1027=
201904200100 METAR LRTM 200100Z AUTO 21003KT 9999 NCD 01/M02 Q1027=
201904200130 METAR LRTM 200130Z AUTO 33002KT 280V060 9999 NCD 00/M03 Q1027=
201904200200 METAR LRTM 200200Z AUTO 05003KT 9999 NCD M00/M03 Q1027=
201904200230 METAR LRTM 200230Z AUTO 10003KT 9999 NCD M01/M04 Q1027=
201904200300 METAR LRTM 200300Z AUTO 08003KT 010V100 9999 NCD M02/M04
                        Q1027=
201904200330 METAR LRTM 200330Z AUTO 07002KT 040V100 9999 NCD M01/M03
                        Q1028=
201904200400 METAR LRTM 200400Z AUTO 00000KT 9999 NCD M02/M04 Q1028=
201904200430 METAR LRTM 200430Z AUTO 11002KT 070V140 9999 NCD 00/M02 Q1028=
201904200500 METAR LRTM 200500Z 08004KT CAVOK 02/M01 Q1028=
201904200530 METAR LRTM 200530Z 09004KT CAVOK 04/M00 Q1028=
201904200600 METAR LRTM 200600Z 10003KT 050V140 CAVOK 06/00 Q1028=
201904200630 METAR LRTM 200630Z 07004KT 040V110 9999 FEW018 08/01 Q1028=
201904200700 METAR LRTM 200700Z VRB03KT CAVOK 10/01 Q1028=
201904200730 METAR COR LRTM 200730Z VRB02KT CAVOK 12/00 Q1028=
201904200800 METAR LRTM 200800Z VRB03KT 9999 FEW030 12/M01 Q1028=
201904200830 METAR LRTM 200830Z VRB04KT 9999 FEW030 13/M02 Q1028=
201904200900 METAR LRTM 200900Z VRB04KT 9999 SCT030 14/M02 Q1028=
201904200930 METAR LRTM 200930Z VRB06KT 9999 SCT033 14/M04 Q1028=
201904201000 METAR LRTM 201000Z 13006KT 9999 SCT040 15/M03 Q1028=
201904201030 METAR LRTM 201030Z VRB05KT 9999 SCT043 15/M02 Q1027=
201904201100 METAR LRTM 201100Z 17006KT 070V210 9999 SCT043 15/M03 Q1027=
201904201130 METAR LRTM 201130Z 24005KT 180V310 9999 SCT045 15/M04 Q1027=
201904201200 METAR LRTM 201200Z 24003KT CAVOK 14/M03 Q1027=
201904201230 METAR LRTM 201230Z VRB04KT CAVOK 16/M04 Q1027=
201904201300 METAR LRTM 201300Z VRB05KT CAVOK 16/M04 Q1026=
201904201330 METAR LRTM 201330Z 24006KT 200V280 CAVOK 16/M03 Q1026=
201904201400 METAR LRTM 201400Z 22003KT CAVOK 16/M05 Q1026=
201904201430 METAR LRTM 201430Z 25008KT CAVOK 16/M03 Q1026=
201904201500 METAR LRTM 201500Z 26004KT 200V330 CAVOK 16/M04 Q1025=
201904201530 METAR LRTM 201530Z 24004KT 200V270 CAVOK 16/M04 Q1025=
201904201600 METAR COR LRTM 201600Z 27003KT CAVOK 15/M03 Q1025=
201904201630 METAR LRTM 201630Z 24006KT CAVOK 15/M03 Q1025=
201904201700 METAR LRTM 201700Z 22006KT CAVOK 14/M03 Q1025=
201904201730 METAR LRTM 201730Z AUTO 19005KT 9999 BKN140/// 13/M04 Q1025=
201904201800 METAR LRTM 201800Z AUTO 16007KT 9999 OVC140/// 12/M03 Q1025=
201904201830 METAR LRTM 201830Z AUTO 28005KT 240V320 9999 OVC140/// 11/M03
                        Q1025=
201904201900 METAR LRTM 201900Z AUTO 25003KT 210V280 9999 BKN092/// 09/M02
                        Q1025=
201904201930 METAR LRTM 201930Z AUTO 22003KT 180V250 9999 OVC091/// 10/M02
                        Q1025=
201904202000 METAR LRTM 202000Z AUTO 25002KT 210V280 9999 FEW100/// 09/M02
                        Q1025=
201904202030 METAR LRTM 202030Z AUTO VRB01KT 9999 NCD 08/M03 Q1025=
201904202100 METAR LRTM 202100Z AUTO 10002KT 9999 NCD 06/M03 Q1025=
201904202130 METAR LRTM 202130Z AUTO 06003KT 9999 NCD 06/M03 Q1025=
201904202200 METAR LRTM 202200Z AUTO 07004KT 010V090 9999 NCD 04/M03 Q1024=
201904202230 METAR LRTM 202230Z AUTO 08005KT 9999 NCD 03/M03 Q1024=
201904202300 METAR LRTM 202300Z AUTO 09007KT 9999 NCD 03/M03 Q1024=
201904202330 METAR LRTM 202330Z AUTO 11005KT 9999 FEW110/// 03/M02 Q1024=
201904210000 METAR LRTM 210000Z AUTO 09005KT 9999 BKN100/// 03/M02 Q1024=
201904210030 METAR LRTM 210030Z AUTO 10005KT 9999 SCT100/// 03/M02 Q1024=
201904210100 METAR LRTM 210100Z AUTO 10005KT 9999 BKN099/// 03/M02 Q1024=
201904210130 METAR LRTM 210130Z AUTO 09004KT 9999 SCT095/// 03/M02 Q1024=
201904210200 METAR LRTM 210200Z AUTO 07002KT 350V110 9999 BKN110/// 03/M02
                        Q1023=
201904210230 METAR LRTM 210230Z AUTO 08004KT 040V110 9999 FEW092/// SCT140///
                        03/M01 Q1023=
201904210300 METAR LRTM 210300Z AUTO 09004KT 050V110 9999 FEW097/// SCT120///
                        03/M01 Q1023=
201904210330 METAR LRTM 210330Z AUTO 11005KT 050V130 9999 FEW100/// 03/M01
                        Q1023=
201904210400 METAR LRTM 210400Z AUTO 08004KT 9999 FEW110/// 03/M01 Q1023=
201904210430 METAR LRTM 210430Z AUTO 08005KT 030V110 9999 SCT094/// 05/M00
                        Q1023=
201904210500 METAR LRTM 210500Z 07006KT 030V110 9999 FEW008 SCT042 06/M00
                        Q1023=
201904210530 METAR LRTM 210530Z 05003KT 330V110 9999 FEW008 SCT042 06/00
                        Q1023=
201904210600 METAR LRTM 210600Z 08003KT 020V130 9999 FEW009 SCT043 08/00
                        Q1023=
201904210630 METAR LRTM 210630Z 25002KT 9999 FEW044 09/01 Q1023=
201904210700 METAR LRTM 210700Z 01003KT 320V060 9999 FEW045 10/01 Q1023=
201904210730 METAR LRTM 210730Z VRB03KT 9999 FEW045 12/01 Q1023=
201904210800 METAR LRTM 210800Z 11005KT 080V150 9999 FEW045 13/00 Q1022=
201904210830 METAR LRTM 210830Z 11003KT 050V150 9999 FEW045 13/00 Q1022=
201904210900 METAR LRTM 210900Z VRB04KT 9999 FEW045 16/01 Q1022=
201904210930 METAR LRTM 210930Z 17005KT 120V220 9999 FEW045 17/M01 Q1021=
201904211000 METAR LRTM 211000Z 23004KT 170V340 9999 FEW045 16/M03 Q1021=
201904211030 METAR LRTM 211030Z 16007KT 120V190 9999 FEW033 18/M02 Q1021=
201904211100 METAR LRTM 211100Z 20006KT 150V260 9999 FEW035 18/M01 Q1020=
201904211130 METAR LRTM 211130Z 17006KT 130V200 9999 FEW037 18/M01 Q1020=
201904211200 METAR LRTM 211200Z 19007KT 9999 FEW037 19/M00 Q1019=
201904211230 METAR LRTM 211230Z VRB03KT 9999 FEW037 19/M01 Q1019=
201904211300 METAR LRTM 211300Z 20005KT 150V250 9999 FEW038 FEW042CB 19/00
                        Q1019=
201904211330 METAR LRTM 211330Z 23005KT 170V270 9999 FEW037 SCT040CB 18/M01
                        Q1018=
201904211400 METAR LRTM 211400Z VRB04KT 9999 SCT036CB 18/M01 Q1018=
201904211430 METAR LRTM 211430Z 36007KT 9999 -SHRA SCT036CB 17/01 Q1018=
201904211500 METAR LRTM 211500Z 10003KT 050V170 9999 FEW037CB 17/01 Q1018=
201904211530 METAR LRTM 211530Z 12004KT 9999 FEW037CB 16/02 Q1018=
201904211600 METAR LRTM 211600Z 09005KT 9999 FEW037CB 16/02 Q1018=
201904211630 METAR LRTM 211630Z 36005KT 310V040 9999 SCT036CB 15/02 Q1018=
201904211700 METAR LRTM 211700Z 36005KT 320V020 9999 -SHRA SCT036CB 14/05
                        Q1019=
201904211730 METAR LRTM 211730Z AUTO VRB02KT 9999 FEW100/// 13/05 Q1018
                        RERA=
201904211800 METAR LRTM 211800Z AUTO VRB01KT 9999 FEW120/// 13/05 Q1018
                        RERA=
201904211830 METAR LRTM 211830Z AUTO 00000KT 9999 FEW095/// 12/06 Q1018=
201904211900 METAR LRTM 211900Z AUTO 15002KT 100V200 9999 FEW072/// SCT110///
                        12/05 Q1019=
201904211930 METAR LRTM 211930Z AUTO 03002KT 360V100 9999 BKN100/// 12/05
                        Q1019=
201904212000 METAR LRTM 212000Z AUTO VRB01KT 9999 SCT093/// 11/05 Q1019=
201904212030 METAR LRTM 212030Z AUTO 08002KT 9999 SCT100/// SCT130///
                        10/06 Q1019=
201904212100 METAR LRTM 212100Z AUTO 07003KT 9999 FEW130/// 07/04 Q1019=
201904212130 METAR LRTM 212130Z AUTO 10005KT 9999 NCD 07/04 Q1018=
201904212200 METAR LRTM 212200Z AUTO 10003KT 9999 NCD 07/03 Q1019=
201904212230 METAR LRTM 212230Z AUTO 10005KT 070V140 9999 NCD 05/02 Q1018=
201904212300 METAR LRTM 212300Z AUTO 09005KT 9999 NCD 05/02 Q1018=
201904212330 METAR LRTM 212330Z AUTO 09006KT 9999 FEW140/// 04/01 Q1018=
201904220000 METAR LRTM 220000Z AUTO 09006KT 9999 FEW100/// BKN130///
                        04/02 Q1018=
201904220030 METAR LRTM 220030Z AUTO 09005KT 9999 FEW100/// 06/04 Q1018=
201904220100 METAR LRTM 220100Z AUTO 05006KT 9999 BKN076/// 08/04 Q1019=
201904220130 METAR LRTM 220130Z AUTO 07006KT 9999 -DZ BKN068/// 07/05
                        Q1019=
201904220200 METAR LRTM 220200Z AUTO 07006KT 040V100 9999 -SHRA BKN067///
                        08/06 Q1019=
201904220230 METAR LRTM 220230Z AUTO 07007KT 9999 FEW069/// SCT110///
                        08/06 Q1018 RERA=
201904220300 METAR LRTM 220300Z VRB01KT 9999 -SHRA BKN038 FEW040CB 09/06
                        Q1018=
201904220330 METAR LRTM 220330Z 03004KT 320V120 9999 -SHRA BKN038 FEW040CB
                        09/06 Q1018=
201904220400 METAR LRTM 220400Z 02004KT 330V070 9999 FEW042CB 09/05 Q1018=
201904220430 METAR LRTM 220430Z 07005KT 040V100 9999 SCT042CB 09/06 Q1018=
201904220500 METAR LRTM 220500Z 07007KT 9999 FEW045CB 09/07 Q1018 R07/29//95=
201904220530 METAR LRTM 220530Z 07008KT 9999 FEW045CB 10/07 Q1018 R07/29//95=
201904220600 METAR LRTM 220600Z 05004KT 020V080 9999 FEW049CB 10/07 Q1019
                        R07/29//95=
201904220630 METAR LRTM 220630Z VRB02KT 9999 -SHRA FEW048CB 10/07 Q1019
                        R07/29//95=
201904220700 METAR LRTM 220700Z 08005KT 9999 -SHRA FEW045CB 10/07 Q1019
                        R07/29//95=
201904220730 METAR LRTM 220730Z 07003KT 020V120 9999 FEW045CB 11/07 Q1019
                        R07/29//95=
201904220800 METAR LRTM 220800Z 03006KT 360V060 9999 FEW023 FEW045CB 12/08
                        Q1020 R07/29//95=
201904220830 METAR LRTM 220830Z 02005KT 320V120 9999 SCT025 FEW048CB 13/08
                        Q1020 R07/29//95=
201904220900 METAR LRTM 220900Z 08005KT 020V130 9999 SCT030 FEW051CB 13/08
                        Q1019 R07/29//95=
201904220930 METAR LRTM 220930Z 06006KT 030V090 9999 SCT030 BKN040 13/07
                        Q1020 R07/19//95=
201904221000 METAR LRTM 221000Z 05009KT 020V080 9999 FEW033 SCT042CB BKN045
                        14/05 Q1020 R07/CLRD//=
201904221030 METAR LRTM 221030Z 06008KT 360V100 9999 -SHRA FEW033 SCT042CB
                        BKN045 14/07 Q1020=
201904221100 METAR LRTM 221100Z 04009KT 010V070 9999 -SHRA SCT042CB BKN048
                        13/07 Q1020 R07/19//95=
201904221130 METAR LRTM 221130Z 05011KT 9999 -SHRA FEW032 SCT042CB BKN048
                        13/07 Q1020 R07/19//95=
201904221200 METAR LRTM 221200Z 07014KT 040V100 9999 FEW028 SCT040CB BKN045
                        13/08 Q1020 R07/19//95=
201904221230 METAR LRTM 221230Z 08017KT 9999 FEW028 FEW040CB BKN048 13/08
                        Q1020 R07/19//95=
201904221300 METAR LRTM 221300Z 08018KT 9999 FEW030 FEW042CB BKN048 12/07
                        Q1020 R07/19//95=
201904221330 METAR LRTM 221330Z 08016KT 9999 FEW033 FEW045CB 11/06 Q1020
                        R07/19//95=
201904221400 METAR LRTM 221400Z 07016KT 9999 FEW035 FEW048CB 10/06 Q1020
                        R07/19//95=
201904221430 METAR LRTM 221430Z 08014KT 9999 FEW038 FEW050CB 11/05 Q1020
                        R07/19//95=
201904221500 METAR LRTM 221500Z 08014KT 9999 FEW050CB 10/05 Q1020 R07/19//95=
201904221530 METAR LRTM 221530Z 08013KT 9999 FEW052CB 10/04 Q1021 R07/19//95=
201904221600 METAR LRTM 221600Z 09012KT 9999 FEW052CB 10/04 Q1021 R07/19//95=
201904221630 METAR LRTM 221630Z 10013KT 9999 FEW052CB 09/03 Q1021 R07/CLRD//=
201904221700 METAR LRTM 221700Z 10013KT 9999 FEW058CB 09/03 Q1021=
201904221730 METAR LRTM 221730Z AUTO 10012KT 9999 -DZ SCT100/// 08/03
                        Q1021=
201904221800 METAR LRTM 221800Z AUTO 09012KT 9999 BKN099/// SCT120///
                        08/03 Q1021 REDZ=
201904221830 METAR LRTM 221830Z AUTO 09014KT 9999 SCT097/// 08/02 Q1021
                        REDZ=
201904221900 METAR LRTM 221900Z AUTO 08012KT 9999 OVC110/// 08/02 Q1021=
201904221930 METAR LRTM 221930Z AUTO 08010KT 050V110 9999 OVC100/// 07/02
                        Q1022=
201904222000 METAR LRTM 222000Z AUTO 08010KT 9999 FEW100/// 07/02 Q1022=
201904222030 METAR LRTM 222030Z AUTO 07011KT 9999 FEW110/// SCT160///
                        07/02 Q1022=
201904222100 METAR LRTM 222100Z AUTO 07012KT 9999 SCT110/// 07/02 Q1022=
201904222130 METAR LRTM 222130Z AUTO 07011KT 9999 SCT110/// 07/02 Q1022=
201904222200 METAR LRTM 222200Z AUTO 07009KT 9999 BKN130/// 06/01 Q1022=
201904222230 METAR LRTM 222230Z AUTO 10003KT 080V140 9999 OVC130/// 06/01
                        Q1022=
201904222300 METAR LRTM 222300Z AUTO 12003KT 050V200 9999 FEW130/// 04/00
                        Q1022=
201904222330 METAR LRTM 222330Z AUTO 11002KT 060V150 9999 NCD 03/M00 Q1022=
201904230000 METAR LRTM 230000Z AUTO 08006KT 9999 NCD 03/M01 Q1022=
201904230030 METAR LRTM 230030Z AUTO 10004KT 9999 NCD 03/M00 Q1022=
201904230100 METAR LRTM 230100Z AUTO 07002KT 350V120 9999 NCD 04/M01 Q1022=
201904230130 METAR LRTM 230130Z AUTO 08002KT 050V120 9999 NCD 03/M01 Q1021=
201904230200 METAR LRTM 230200Z AUTO 05003KT 9999 NCD 03/M02 Q1021=
201904230230 METAR LRTM 230230Z AUTO 00000KT 9999 BKN180/// 04/M02 Q1022=
201904230300 METAR LRTM 230300Z AUTO 08003KT 9999 BKN180/// 04/M02 Q1021=
201904230330 METAR LRTM 230330Z AUTO 09005KT 9999 FEW160/// 04/M01 Q1021=
201904230400 METAR LRTM 230400Z AUTO 10004KT 9999 FEW140/// 05/M01 Q1021=
201904230430 METAR LRTM 230430Z AUTO 09003KT 050V150 9999 BKN086/// 07/00
                        Q1022=
201904230500 METAR LRTM 230500Z 09008KT CAVOK 09/M02 Q1022=
201904230530 METAR LRTM 230530Z 10011KT CAVOK 10/M03 Q1022=
201904230600 METAR LRTM 230600Z 11011KT CAVOK 11/M04 Q1022=
201904230630 METAR LRTM 230630Z 11012KT CAVOK 12/M04 Q1022=
201904230700 METAR LRTM 230700Z 12011KT CAVOK 12/M03 Q1022=
201904230730 METAR LRTM 230730Z 11010KT CAVOK 13/M03 Q1023=
201904230800 METAR LRTM 230800Z 12011KT 090V150 CAVOK 13/M03 Q1022=
201904230830 METAR LRTM 230830Z 11013KT CAVOK 14/M03 Q1023=
201904230900 METAR LRTM 230900Z 11012KT CAVOK 14/M03 Q1022=
201904230930 METAR LRTM 230930Z 11012KT 080V140 CAVOK 14/M03 Q1022=
201904231000 METAR LRTM 231000Z 12011KT CAVOK 15/M02 Q1022=
201904231030 METAR LRTM 231030Z 12014KT 9999 FEW045 15/M03 Q1022=
201904231100 METAR LRTM 231100Z 12012KT 9999 FEW045 15/M03 Q1022=
201904231130 METAR LRTM 231130Z 13013KT 9999 FEW055CB 15/M03 Q1023=
201904231200 METAR LRTM 231200Z 11014KT 9999 FEW055CB 15/M03 Q1023=
201904231230 METAR LRTM 231230Z 11017KT 9999 FEW050CB 15/M03 Q1022=
201904231300 METAR LRTM 231300Z 12014KT 9999 FEW030 FEW050CB 15/M03 Q1022=
201904231330 METAR COR LRTM 231330Z 12015KT 9999 FEW033 15/M03 Q1022=
201904231400 METAR COR LRTM 231400Z 11014KT 080V140 9999 FEW033 FEW052CB
                        16/M02 Q1021=
201904231430 METAR LRTM 231430Z 10015KT 9999 FEW050CB 15/M02 Q1021=
201904231500 METAR LRTM 231500Z 11013KT 9999 FEW050CB 15/M02 Q1021=
201904231530 METAR LRTM 231530Z 12014KT CAVOK 15/M03 Q1021=
201904231600 METAR LRTM 231600Z 12016KT CAVOK 14/M02 Q1021=
201904231630 METAR COR LRTM 231630Z 12013KT 9999 FEW055CB 14/M02 Q1020=
201904231700 METAR LRTM 231700Z 12012KT 9999 FEW055CB 14/M02 Q1020=
201904231730 METAR LRTM 231730Z AUTO 12008KT 9999 OVC069/// 14/M01 Q1020=
201904231800 METAR LRTM 231800Z AUTO 11010KT 9999 OVC067/// 14/M01 Q1021=
201904231830 METAR LRTM 231830Z AUTO 11008KT 9999 OVC066/// 13/M01 Q1021=
201904231900 METAR LRTM 231900Z AUTO 12008KT 9999 OVC066/// 13/M01 Q1021=
201904231930 METAR LRTM 231930Z AUTO 13008KT 9999 OVC066/// 13/M01 Q1021=
201904232000 METAR LRTM 232000Z AUTO 12006KT 9999 -SHRA BKN071/// 12/M00
                        Q1021=
201904232030 METAR LRTM 232030Z AUTO 12007KT 9999 OVC077/// 12/00 Q1021=
201904232100 METAR LRTM 232100Z AUTO 11006KT 9999 OVC073/// 12/01 Q1021=
201904232130 METAR LRTM 232130Z AUTO 08006KT 9999 OVC071/// 11/01 Q1021=
201904232200 METAR LRTM 232200Z AUTO 08006KT 9999 OVC076/// 11/01 Q1021=
201904232230 METAR LRTM 232230Z AUTO 08007KT 9999 OVC073/// 11/01 Q1022=
201904232300 METAR LRTM 232300Z AUTO 08007KT 9999 BKN065/// 11/01 Q1022=
201904232330 METAR LRTM 232330Z AUTO 08006KT 9999 BKN082/// 10/01 Q1021=
201904240000 METAR LRTM 240000Z AUTO 07004KT 9999 BKN083/// 10/01 Q1021=
201904240030 METAR LRTM 240030Z AUTO 10004KT 9999 FEW070/// OVC091///
                        10/01 Q1021=
201904240100 METAR LRTM 240100Z AUTO 09004KT 9999 BKN090/// 10/00 Q1021=
201904240130 METAR LRTM 240130Z AUTO 06004KT 9999 OVC089/// 10/01 Q1021=
201904240200 METAR LRTM 240200Z AUTO 08005KT 9999 OVC084/// 09/01 Q1021=
201904240230 METAR LRTM 240230Z AUTO 07004KT 9999 OVC085/// 10/01 Q1021=
201904240300 METAR LRTM 240300Z AUTO 09007KT 9999 FEW100/// 10/00 Q1021
                        RERA=
201904240330 METAR LRTM 240330Z AUTO 09007KT 9999 -SHRA BKN083/// 10/01
                        Q1022=
201904240400 METAR LRTM 240400Z AUTO 08006KT 9999 -SHRA OVC079/// 10/01
                        Q1022=
201904240430 METAR LRTM 240430Z AUTO 09006KT 9999 FEW076/// SCT096///
                        10/01 Q1022 REDZ=
201904240500 METAR LRTM 240500Z 08004KT CAVOK 10/02 Q1022=
201904240530 METAR LRTM 240530Z 09004KT CAVOK 11/01 Q1023=
201904240600 METAR LRTM 240600Z 10006KT CAVOK 11/01 Q1023=
201904240630 METAR LRTM 240630Z 10006KT CAVOK 12/01 Q1023=
201904240700 METAR LRTM 240700Z 10006KT 070V140 CAVOK 13/01 Q1023=
201904240730 METAR LRTM 240730Z 08007KT CAVOK 13/02 Q1023=
201904240800 METAR LRTM 240800Z 09007KT 060V120 CAVOK 14/03 Q1023=
201904240830 METAR LRTM 240830Z 08007KT 040V110 CAVOK 16/03 Q1023=
201904240900 METAR LRTM 240900Z 07007KT 040V120 CAVOK 16/04 Q1023=
201904240930 METAR LRTM 240930Z 14006KT 070V170 CAVOK 18/04 Q1023=
201904241000 METAR LRTM 241000Z 09008KT CAVOK 18/05 Q1023=
201904241030 METAR LRTM 241030Z 11007KT 050V160 CAVOK 19/05 Q1023=
201904241100 METAR LRTM 241100Z 09008KT 020V120 CAVOK 20/05 Q1022=
201904241130 METAR LRTM 241130Z 15007KT 070V190 CAVOK 21/05 Q1022=
201904241200 METAR LRTM 241200Z 10009KT CAVOK 21/06 Q1021=
201904241230 METAR LRTM 241230Z 14008KT 110V170 CAVOK 21/06 Q1021=
201904241300 METAR LRTM 241300Z 12007KT CAVOK 21/06 Q1021=
201904241330 METAR LRTM 241330Z 11008KT 070V160 CAVOK 22/06 Q1020=
201904241400 METAR LRTM 241400Z 11007KT 070V150 9999 FEW037 22/06 Q1020=
201904241430 METAR LRTM 241430Z 10009KT 9999 FEW038 22/06 Q1020=
201904241500 METAR LRTM 241500Z 09007KT 9999 FEW038 22/06 Q1020=
201904241530 METAR LRTM 241530Z 10008KT 9999 FEW040 22/06 Q1020=
201904241600 METAR LRTM 241600Z 12008KT 080V150 9999 FEW040 21/06 Q1020=
201904241630 METAR LRTM 241630Z 11007KT CAVOK 21/06 Q1020=
201904241700 METAR LRTM 241700Z 11006KT CAVOK 20/06 Q1020=
201904241730 METAR LRTM 241730Z AUTO 12007KT 9999 NCD 18/05 Q1020=
201904241800 METAR LRTM 241800Z AUTO 15008KT 9999 NCD 17/05 Q1021=
201904241830 METAR LRTM 241830Z AUTO 13007KT 9999 NCD 16/05 Q1021=
201904241900 METAR LRTM 241900Z AUTO 13007KT 9999 NCD 15/04 Q1022=
201904241930 METAR LRTM 241930Z AUTO 11006KT 9999 NCD 13/03 Q1022=
201904242000 METAR LRTM 242000Z AUTO 10009KT 9999 NCD 14/03 Q1022=
201904242030 METAR LRTM 242030Z AUTO 07009KT 9999 NCD 11/03 Q1022=
201904242100 METAR LRTM 242100Z AUTO 07009KT 9999 NCD 10/03 Q1022=
201904242130 METAR LRTM 242130Z AUTO 08006KT 9999 NCD 10/03 Q1022=
201904242200 METAR LRTM 242200Z AUTO 08006KT 9999 NCD 10/03 Q1022=
201904242230 METAR LRTM 242230Z AUTO 08006KT 9999 NCD 10/03 Q1022=
201904242300 METAR LRTM 242300Z AUTO 08003KT 040V140 9999 NCD 10/03 Q1022=
201904242330 METAR LRTM 242330Z AUTO 09004KT 050V130 9999 NCD 09/03 Q1022=
201904250000 METAR LRTM 250000Z AUTO 06004KT 9999 NCD 07/02 Q1022=
201904250030 METAR LRTM 250030Z AUTO 08005KT 9999 NCD 06/02 Q1022=
201904250100 METAR LRTM 250100Z AUTO 08003KT 9999 NCD 08/03 Q1022=
201904250130 METAR LRTM 250130Z AUTO 08003KT 9999 NCD 08/03 Q1022=
201904250200 METAR LRTM 250200Z AUTO 09004KT 9999 NCD 07/02 Q1022=
201904250230 METAR LRTM 250230Z AUTO 10004KT 9999 NCD 06/02 Q1022=
201904250300 METAR LRTM 250300Z AUTO 10004KT 9999 NCD 06/02 Q1022=
201904250330 METAR LRTM 250330Z AUTO 10005KT 9999 NCD 05/02 Q1022=
201904250400 METAR LRTM 250400Z AUTO 09005KT 9999 NCD 06/02 Q1022=
201904250430 METAR LRTM 250430Z AUTO 09004KT 9999 NCD 08/04 Q1023=
201904250500 METAR LRTM 250500Z 07005KT CAVOK 09/05 Q1023=
201904250530 METAR LRTM 250530Z 07004KT 040V140 CAVOK 10/05 Q1023=
201904250600 METAR LRTM 250600Z 08005KT CAVOK 13/06 Q1023=
201904250630 METAR LRTM 250630Z 07005KT CAVOK 13/06 Q1023=
201904250700 METAR LRTM 250700Z 06005KT 020V090 CAVOK 14/06 Q1023=
201904250730 METAR LRTM 250730Z 06005KT 360V090 9999 FEW046CB 16/07 Q1023=
201904250800 METAR LRTM 250800Z VRB03KT 9999 FEW046 17/06 Q1023=
201904250830 METAR LRTM 250830Z VRB03KT CAVOK 19/08 Q1022=
201904250900 METAR LRTM 250900Z 12006KT CAVOK 20/07 Q1022=
201904250930 METAR LRTM 250930Z VRB04KT CAVOK 21/07 Q1022=
201904251000 METAR LRTM 251000Z VRB04KT 9999 FEW040 22/08 Q1022=
201904251030 METAR LRTM 251030Z 21005KT 140V270 9999 FEW045 23/08 Q1021=
201904251100 METAR LRTM 251100Z VRB04KT 9999 FEW048 24/08 Q1021=
201904251130 METAR LRTM 251130Z VRB04KT 9999 FEW055CB 24/08 Q1021=
201904251200 METAR LRTM 251200Z 15005KT 080V210 CAVOK 24/08 Q1020=
201904251230 METAR LRTM 251230Z VRB03KT CAVOK 25/08 Q1020=
201904251300 METAR LRTM 251300Z 18007KT 150V220 CAVOK 25/08 Q1020=
201904251330 METAR LRTM 251330Z 24004KT 200V280 9999 FEW048 26/08 Q1019=
201904251400 METAR LRTM 251400Z 23006KT 210V270 9999 FEW048 25/08 Q1019=
201904251430 METAR LRTM 251430Z 15003KT 060V210 9999 FEW048 26/09 Q1019=
201904251500 METAR LRTM 251500Z 23005KT 9999 SCT045 24/08 Q1019=
201904251530 METAR LRTM 251530Z 26005KT 9999 FEW045 FEW048CB 24/08 Q1019=
201904251600 METAR LRTM 251600Z 27004KT 9999 FEW045 FEW048CB 24/08 Q1018=
201904251630 METAR COR LRTM 251630Z 35002KT 320V020 9999 FEW040 23/08
                        Q1018=
201904251700 METAR LRTM 251700Z 01002KT 9999 FEW040 FEW044CB 22/09 Q1018=
201904251730 METAR LRTM 251730Z 12002KT 9999 FEW040 20/09 Q1018=
201904251800 METAR LRTM 251800Z AUTO 02003KT 350V070 9999 NCD 18/09 Q1019=
201904251830 METAR LRTM 251830Z AUTO 07004KT 9999 FEW096/// 16/08 Q1019=
201904251900 METAR LRTM 251900Z AUTO 10002KT 9999 NCD 16/08 Q1019=
201904251930 METAR LRTM 251930Z AUTO 07005KT 9999 NCD 15/08 Q1019=
201904252000 METAR LRTM 252000Z AUTO 07005KT 9999 NCD 14/08 Q1019=
201904252030 METAR LRTM 252030Z AUTO 08004KT 9999 NCD 13/07 Q1019=
201904252100 METAR LRTM 252100Z AUTO 09005KT 9999 FEW190/// 12/07 Q1019=
201904252130 METAR LRTM 252130Z AUTO 10006KT 9999 NCD 12/07 Q1019=
201904252200 METAR LRTM 252200Z AUTO 09006KT 9999 NCD 11/07 Q1019=
201904252230 METAR LRTM 252230Z AUTO 09007KT 9999 NCD 11/07 Q1019=
201904252300 METAR LRTM 252300Z AUTO 10005KT 9999 NCD 11/08 Q1019=
201904252330 METAR LRTM 252330Z AUTO 10005KT 9999 NCD 10/07 Q1019=
201904260000 METAR LRTM 260000Z AUTO 09005KT 9999 NCD 10/07 Q1019=
201904260030 METAR LRTM 260030Z AUTO 10004KT 9999 NCD 10/07 Q1019=
201904260100 METAR LRTM 260100Z AUTO 09005KT 9999 NCD 09/07 Q1019=
201904260130 METAR LRTM 260130Z AUTO 09005KT 9999 NCD 08/06 Q1019=
201904260200 METAR LRTM 260200Z AUTO 09004KT 9999 NCD 08/06 Q1019=
201904260230 METAR LRTM 260230Z AUTO 10005KT 9999 NCD 09/07 Q1019=
201904260300 METAR LRTM 260300Z AUTO 11004KT 9000 NCD 08/06 Q1019=
201904260330 METAR LRTM 260330Z AUTO 10005KT 9000 NCD 08/06 Q1019=
201904260400 METAR LRTM 260400Z AUTO 10005KT 9000 NCD 09/07 Q1019=
201904260430 METAR LRTM 260430Z AUTO 09005KT 9999 NCD 10/07 Q1020=
201904260500 METAR LRTM 260500Z 10005KT 9000 FEW012 11/07 Q1020=
201904260530 METAR LRTM 260530Z 09005KT 9000 FEW011 12/09 Q1020=
201904260600 METAR LRTM 260600Z 08004KT 040V110 8000 FEW012 14/09 Q1020=
201904260630 METAR LRTM 260630Z AUTO 08004KT 040V120 9999 NCD 16/09 Q1020=
201904260700 METAR LRTM 260700Z 08005KT 050V140 CAVOK 18/10 Q1019=
201904260730 METAR LRTM 260730Z 06003KT 310V100 CAVOK 20/10 Q1019=
201904260800 METAR LRTM 260800Z VRB02KT CAVOK 21/10 Q1019=
201904260830 METAR LRTM 260830Z VRB04KT CAVOK 23/10 Q1019=
201904260900 METAR LRTM 260900Z 11005KT 050V200 CAVOK 24/10 Q1019=
201904260930 METAR LRTM 260930Z VRB04KT 9999 FEW035 25/08 Q1018=
201904261000 METAR LRTM 261000Z VRB04KT 9999 FEW035 26/08 Q1018=
201904261030 METAR LRTM 261030Z VRB04KT 9999 FEW036 26/07 Q1018=
201904261100 METAR LRTM 261100Z 36004KT 290V080 9999 FEW036 26/07 Q1017=
201904261130 METAR LRTM 261130Z 30004KT 230V030 9999 FEW036 26/06 Q1017=
201904261200 METAR LRTM 261200Z 29005KT 220V030 9999 FEW037 27/06 Q1017=
201904261230 METAR LRTM 261230Z 17006KT 130V200 9999 FEW037 27/06 Q1016=
201904261300 METAR LRTM 261300Z 23005KT 150V290 9999 FEW037 FEW042TCU
                        27/05 Q1016=
201904261330 METAR LRTM 261330Z 28006KT 240V330 9999 FEW038 FEW042TCU
                        27/05 Q1015=
201904261400 METAR LRTM 261400Z 28005KT 240V300 9999 FEW038 FEW042TCU
                        28/05 Q1015=
201904261430 METAR LRTM 261430Z 28006KT 250V310 9999 FEW038 FEW044CB 27/06
                        Q1015=
201904261500 METAR LRTM 261500Z 27009KT 9999 FEW040 FEW044CB 26/07 Q1015=
201904261530 METAR LRTM 261530Z 27010KT 9999 FEW042 FEW045CB 26/07 Q1015=
201904261600 METAR LRTM 261600Z 28006KT 9999 FEW045CB 25/08 Q1015=
201904261630 METAR LRTM 261630Z 30003KT 250V330 9999 FEW045CB 25/08 Q1015=
201904261700 METAR LRTM 261700Z 28003KT 250V310 9999 FEW043 FEW045CB 24/08
                        Q1015=
201904261730 METAR LRTM 261730Z AUTO VRB01KT 9999 FEW140/// 21/08 Q1014=
201904261800 METAR LRTM 261800Z AUTO 03002KT 350V080 9999 SCT150/// 20/08
                        Q1015=
201904261830 METAR LRTM 261830Z AUTO VRB01KT 9999 SCT120/// 18/08 Q1015=
201904261900 METAR LRTM 261900Z AUTO 35003KT 330V030 9999 SCT120/// 15/07
                        Q1015=
201904261930 METAR LRTM 261930Z AUTO 02004KT 340V140 9999 NCD 15/07 Q1015=
201904262000 METAR LRTM 262000Z AUTO 08006KT 9999 NCD 14/07 Q1015=
201904262030 METAR LRTM 262030Z AUTO 06004KT 010V090 9999 NCD 15/08 Q1015=
201904262100 METAR LRTM 262100Z AUTO 07005KT 9999 NCD 14/08 Q1015=
201904262130 METAR LRTM 262130Z AUTO 11005KT 9999 NCD 14/07 Q1015=
201904262200 METAR LRTM 262200Z AUTO 09007KT 9999 NCD 14/08 Q1015=
201904262230 METAR LRTM 262230Z AUTO 08006KT 9999 FEW240/// 12/08 Q1015=
201904262300 METAR LRTM 262300Z AUTO 10004KT 9999 FEW240/// 13/08 Q1014=
201904262330 METAR LRTM 262330Z AUTO 09005KT 9999 FEW140/// 13/08 Q1014=
201904270000 METAR LRTM 270000Z AUTO 09007KT 9999 SCT140/// 12/08 Q1014=
201904270030 METAR LRTM 270030Z AUTO 09006KT 9999 BKN140/// 12/08 Q1014=
201904270100 METAR LRTM 270100Z AUTO 10007KT 9999 BKN130/// 12/08 Q1014=
201904270130 METAR LRTM 270130Z AUTO 09006KT 9999 BKN150/// 12/08 Q1014=
201904270200 METAR LRTM 270200Z AUTO 09008KT 9999 BKN130/// 11/07 Q1013=
201904270230 METAR LRTM 270230Z AUTO 09007KT 9999 OVC140/// 11/07 Q1013=
201904270300 METAR LRTM 270300Z AUTO 09004KT 9999 FEW140/// SCT240///
                        10/07 Q1013=
201904270330 METAR LRTM 270330Z AUTO 10006KT 9999 FEW240/// 11/07 Q1013=
201904270400 METAR LRTM 270400Z AUTO 10004KT 9999 BKN130/// 11/07 Q1013=
201904270430 METAR LRTM 270430Z AUTO 09003KT 9999 BKN130/// 12/08 Q1013=
201904270500 METAR LRTM 270500Z 08006KT CAVOK 14/09 Q1013=
201904270530 METAR LRTM 270530Z 07006KT 030V090 CAVOK 15/09 Q1013=
201904270600 METAR LRTM 270600Z 08007KT CAVOK 16/10 Q1013=
201904270630 METAR LRTM 270630Z 07005KT CAVOK 17/10 Q1013=
201904270700 METAR LRTM 270700Z 08005KT 050V110 CAVOK 19/10 Q1012=
201904270730 METAR LRTM 270730Z 07005KT 030V120 CAVOK 22/11 Q1012=
201904270800 METAR LRTM 270800Z VRB02KT CAVOK 22/10 Q1012=
201904270830 METAR LRTM 270830Z VRB05KT CAVOK 23/11 Q1012=
201904270900 METAR LRTM 270900Z 28004KT 210V340 CAVOK 23/10 Q1012=
201904270930 METAR LRTM 270930Z 24006KT 220V300 CAVOK 23/10 Q1012=
201904271000 METAR LRTM 271000Z 23006KT 180V280 CAVOK 25/10 Q1011=
201904271030 METAR LRTM 271030Z 30006KT 260V350 CAVOK 24/09 Q1011=
201904271100 METAR LRTM 271100Z 28005KT 250V310 CAVOK 25/10 Q1011=
201904271130 METAR LRTM 271130Z 28006KT CAVOK 25/09 Q1011=
201904271200 METAR LRTM 271200Z 30004KT 250V350 CAVOK 25/09 Q1010=
201904271230 METAR LRTM 271230Z VRB03KT CAVOK 26/09 Q1010=
201904271300 METAR LRTM 271300Z 12004KT CAVOK 26/09 Q1009=
201904271330 METAR LRTM 271330Z 18006KT 150V230 CAVOK 26/09 Q1008=
201904271400 METAR LRTM 271400Z 17004KT 120V230 CAVOK 25/08 Q1008=
201904271430 METAR LRTM 271430Z 00000KT CAVOK 26/08 Q1008=
201904271500 METAR LRTM 271500Z 16004KT 130V210 CAVOK 26/08 Q1007=
201904271530 METAR LRTM 271530Z 11005KT 080V150 CAVOK 25/09 Q1007=
201904271600 METAR LRTM 271600Z 13004KT 9999 FEW051CB 24/09 Q1007=
201904271630 METAR LRTM 271630Z 13005KT 9999 FEW048CB 23/09 Q1007=
201904271700 METAR LRTM 271700Z 28023G34KT 6000 TSRA SCT041CB 16/12 Q1008=
201904271730 METAR LRTM 271730Z AUTO 26014KT 9999 -SHRA VCTS FEW027///
                        SCT036/// 15/12 Q1011=
201904271800 METAR LRTM 271800Z AUTO 28007KT 240V320 5000 +TSRA SCT048///
                        14/12 Q1012=
201904271830 METAR LRTM 271830Z AUTO 28006KT 6000 +SHRA FEW053/// 13/12
                        Q1012=
201904271900 METAR LRTM 271900Z AUTO 28004KT 250V320 5000 +SHRA FEW056///
                        14/12 Q1012=
201904271930 METAR LRTM 271930Z AUTO VRB01KT 7000 SHRA FEW057/// 13/12
                        Q1012=
201904272000 METAR LRTM 272000Z AUTO 08006KT 9999 SHRA SCT072/// 13/13
                        Q1012=
201904272030 METAR LRTM 272030Z AUTO 09005KT 7000 RA BKN076/// 13/12 Q1012=
201904272100 METAR LRTM 272100Z AUTO 10008KT 8000 -RA FEW006/// SCT065///
                        BKN082/// 13/12 Q1011=
201904272130 METAR LRTM 272130Z AUTO 10005KT 0750 R07/0275V1900D +SHRA
                        FEW006/// BKN067/// 13/12 Q1011=
201904272200 METAR LRTM 272200Z AUTO 10003KT 0150 R07/0125V0250N SHRA
                        FEW110/// SCT140/// 13/12 Q1010=
201904272230 METAR LRTM 272230Z AUTO 22004KT 0050 R07/0075N +RA FEW022///
                        SCT090/// 13/12 Q1010=
201904272300 METAR LRTM 272300Z AUTO 00000KT 0050 R07/0050N FG FEW016///
                        SCT022/// BKN091/// 13/12 Q1010=
201904272330 METAR LRTM 272330Z AUTO VRB01KT 0050 R07/0075N SHRA FEW007///
                        SCT009/// 13/12 Q1010=
201904280000 METAR LRTM 280000Z AUTO 21004KT 180V240 0050 R07/0100N +RA
                        FEW010/// 13/12 Q1010=
201904280030 METAR LRTM 280030Z AUTO 19003KT 0050 R07/0075N RA FEW008///
                        SCT010/// 13/12 Q1009=
201904280100 METAR LRTM 280100Z AUTO 21007KT 0150 R07/0175N +RA FEW010///
                        BKN013/// 13/11 Q1009=
201904280130 METAR LRTM 280130Z AUTO 21007KT 0200 R07/0200V0325N +RA FEW007///
                        SCT009/// 13/11 Q1009=
201904280200 METAR LRTM 280200Z AUTO 22007KT 0750 R07/0900N +RA SCT013///
                        SCT017/// 12/11 Q1009=
201904280230 METAR LRTM 280230Z AUTO 24005KT 0300 R07/0250V0550N RA FEW016///
                        SCT027/// BKN074/// 12/11 Q1009=
201904280300 METAR LRTM 280300Z AUTO 25004KT 8000 -RA FEW010/// SCT018///
                        12/11 Q1009=
201904280330 METAR LRTM 280330Z AUTO 31005KT 260V350 6000 +RA FEW008///
                        SCT017/// 11/10 Q1009=
201904280400 METAR LRTM 280400Z AUTO 24008KT 6000 RA FEW008/// BKN010///
                        11/10 Q1010=
201904280430 METAR LRTM 280430Z AUTO 26004KT 230V310 6000 RA FEW008///
                        SCT012/// 11/10 Q1010=
201904280500 METAR LRTM 280500Z 22005KT 4800 RA BR FEW003 SCT013 OVC022
                        11/10 Q1010=
201904280530 METAR LRTM 280530Z 23004KT 6000 RA FEW008 SCT015 OVC025 11/11
                        Q1010 R07/29//95=
201904280600 METAR LRTM 280600Z 23004KT 9999 -RA FEW010 BKN020 OVC030
                        11/10 Q1011 RERA R07/29//95=
201904280630 METAR LRTM 280630Z 24004KT 9999 -RA FEW012 BKN021 OVC032
                        12/10 Q1011 R07/29//95=
201904280700 METAR LRTM 280700Z 23003KT 8000 -RA FEW008 BKN020 OVC030
                        12/10 Q1011 R07/29//95=
201904280730 METAR LRTM 280730Z 20003KT 7000 RA FEW008 BKN020 OVC030 12/10
                        Q1011 R07/29//95=
201904280800 METAR LRTM 280800Z 20003KT 150V240 6000 RA FEW006 BKN015
                        OVC028 12/10 Q1011 R07/29//95=
201904280830 METAR LRTM 280830Z VRB02KT 7000 -RA FEW010 BKN018 OVC028
                        12/11 Q1011 RERA R07/29//95=
201904280900 METAR LRTM 280900Z VRB01KT 8000 FEW012 SCT019 BKN028 12/10
                        Q1011 R07/29//95=
201904280930 METAR LRTM 280930Z VRB01KT 9999 SCT023 BKN030 12/10 Q1011
                        R07/29//95=
201904281000 METAR LRTM 281000Z VRB02KT 9999 SCT025 BKN032 13/10 Q1011
                        R07/29//95=
201904281030 METAR LRTM 281030Z 07003KT 020V110 9999 FEW025 BKN036 14/11
                        Q1011 R07/29//95=
201904281100 METAR LRTM 281100Z 07005KT 9999 FEW030 BKN040 14/11 Q1011
                        R07/29//95=
201904281130 METAR LRTM 281130Z 09005KT 9999 FEW033 BKN042 15/11 Q1010
                        R07/29//95=
201904281200 METAR LRTM 281200Z 09008KT 9999 FEW033 BKN042 15/11 Q1010
                        R07/29//95=
201904281230 METAR LRTM 281230Z 10005KT 080V140 9999 FEW035 BKN045 16/10
                        Q1010 R07/CLRD//=
201904281300 METAR LRTM 281300Z 21010KT 190V250 9999 SCT038 17/08 Q1010=
201904281330 METAR COR LRTM 281330Z 22010KT 190V250 9999 SCT042 18/08
                        Q1010=
201904281400 METAR LRTM 281400Z 23009KT 200V260 9999 SCT043 17/07 Q1009=
201904281430 METAR LRTM 281430Z 27010KT 9999 SCT043 FEW045CB 17/07 Q1009=
201904281500 METAR LRTM 281500Z 30008KT 270V330 9999 SCT043 FEW045CB 17/09
                        Q1009=
201904281530 METAR LRTM 281530Z 30007KT 9999 -SHRA SCT045 FEW048CB 15/09
                        Q1010=
201904281600 METAR LRTM 281600Z 31008KT 270V330 9999 SCT036 SCT042CB 15/10
                        Q1010=
201904281630 METAR LRTM 281630Z 29005KT 260V330 9999 SCT036 FEW042CB 14/09
                        Q1010=
201904281700 METAR LRTM 281700Z 24004KT 200V280 9999 SCT038 FEW045CB 13/09
                        Q1010=
201904281730 METAR LRTM 281730Z AUTO 27003KT 9999 FEW040/// 12/10 Q1010=
201904281800 METAR LRTM 281800Z AUTO 22008KT 9999 NCD 12/08 Q1011=
201904281830 METAR LRTM 281830Z AUTO 22007KT 9999 NCD 11/07 Q1011=
201904281900 METAR LRTM 281900Z AUTO 24007KT 9999 NCD 10/07 Q1011=
201904281930 METAR LRTM 281930Z AUTO 27004KT 9999 NCD 10/07 Q1012=
201904282000 METAR LRTM 282000Z AUTO 25005KT 9999 NCD 10/06 Q1012=
201904282030 METAR LRTM 282030Z AUTO 20006KT 9999 NCD 10/07 Q1012=
201904282100 METAR LRTM 282100Z AUTO 00000KT 9999 FEW048/// 09/06 Q1012=
201904282130 METAR LRTM 282130Z AUTO VRB01KT 9999 NCD 07/06 Q1012=
201904282200 METAR LRTM 282200Z AUTO VRB02KT 9999 NCD 08/06 Q1012=
201904282230 METAR LRTM 282230Z AUTO 16004KT 130V210 9999 NCD 08/06 Q1012=
201904282300 METAR LRTM 282300Z AUTO VRB02KT 9999 NCD 07/06 Q1012=
201904282330 METAR LRTM 282330Z AUTO VRB02KT 9999 SCT048/// 06/05 Q1011=
201904290000 METAR LRTM 290000Z AUTO 00000KT 8000 FEW047/// 06/05 Q1011=
201904290030 METAR LRTM 290030Z AUTO VRB02KT 9000 NCD 05/05 Q1011=
201904290100 METAR LRTM 290100Z AUTO 09002KT 9999 NCD 05/04 Q1011=
201904290130 METAR LRTM 290130Z AUTO 05002KT 8000 NCD 05/05 Q1012=
201904290200 METAR LRTM 290200Z AUTO 08003KT 7000 NCD 05/04 Q1012=
201904290230 METAR LRTM 290230Z AUTO 11002KT 6000 NCD 05/04 Q1012=
201904290300 METAR LRTM 290300Z AUTO 02003KT 340V060 5000 BR NCD 04/03
                        Q1012=
201904290330 METAR LRTM 290330Z AUTO 08005KT 3900 BR NCD 04/03 Q1012=
201904290400 METAR LRTM 290400Z AUTO 07005KT 3600 BR NCD 05/04 Q1012=
201904290430 METAR LRTM 290430Z AUTO 07004KT 7000 NCD 06/06 Q1012=
201904290500 METAR LRTM 290500Z 06003KT 9999 FEW034 08/06 Q1012=
201904290530 METAR LRTM 290530Z 07004KT 040V110 9999 FEW035 09/07 Q1012=
201904290600 METAR LRTM 290600Z 07004KT 020V100 9999 FEW015 SCT037 10/07
                        Q1012=
201904290630 METAR LRTM 290630Z 16003KT 120V220 9999 FEW016 SCT040 11/07
                        Q1012=
201904290700 METAR LRTM 290700Z 34004KT 290V030 9999 FEW018 SCT041 12/08
                        Q1012=
201904290730 METAR LRTM 290730Z 33004KT 260V030 9999 SCT021 13/08 Q1012=
201904290800 METAR LRTM 290800Z 31003KT 250V010 9999 SCT020 13/08 Q1012=
201904290830 METAR LRTM 290830Z VRB03KT 9999 SCT019 15/08 Q1012=
201904290900 METAR LRTM 290900Z VRB04KT 9999 SCT024 16/09 Q1012=
201904290930 METAR LRTM 290930Z 36003KT 290V050 9999 SCT030 14/07 Q1012=
201904291000 METAR LRTM 291000Z VRB03KT 9999 SCT033 16/07 Q1011=
201904291030 METAR LRTM 291030Z VRB02KT 9999 SCT039 16/06 Q1011=
201904291100 METAR LRTM 291100Z VRB04KT 9999 SCT045 17/07 Q1011=
201904291130 METAR LRTM 291130Z VRB02KT 9999 SCT042 18/07 Q1011=
201904291200 METAR LRTM 291200Z VRB04KT 9999 FEW045 18/06 Q1011=
201904291230 METAR LRTM 291230Z 10005KT 060V150 9999 FEW048 18/07 Q1010=
201904291300 METAR LRTM 291300Z VRB03KT CAVOK 18/06 Q1010=
201904291330 METAR LRTM 291330Z VRB04KT CAVOK 18/06 Q1010=
201904291400 METAR LRTM 291400Z VRB04KT CAVOK 19/05 Q1009=
201904291430 METAR LRTM 291430Z VRB03KT CAVOK 18/05 Q1009=
201904291500 METAR LRTM 291500Z 07003KT 020V120 CAVOK 18/05 Q1009=
201904291530 METAR LRTM 291530Z VRB01KT CAVOK 19/05 Q1009=
201904291600 METAR LRTM 291600Z 07004KT 350V120 CAVOK 18/05 Q1009=
201904291630 METAR LRTM 291630Z 06004KT 010V090 CAVOK 17/05 Q1009=
201904291700 METAR LRTM 291700Z 07003KT CAVOK 17/06 Q1009=
201904291730 METAR LRTM 291730Z AUTO 34004KT 9999 FEW091/// 15/08 Q1009=
201904291800 METAR LRTM 291800Z AUTO 34004KT 9999 FEW100/// 14/09 Q1009=
201904291830 METAR LRTM 291830Z AUTO VRB02KT 9999 FEW100/// 14/09 Q1010=
201904291900 METAR LRTM 291900Z AUTO VRB02KT 9999 FEW060/// SCT092///
                        14/08 Q1010=
201904291930 METAR LRTM 291930Z AUTO 25004KT 9999 BKN058/// 13/09 Q1010=
201904292000 METAR LRTM 292000Z AUTO 31005KT 9999 FEW060/// BKN091///
                        13/08 Q1010=
201904292030 METAR LRTM 292030Z AUTO 33005KT 9999 FEW100/// SCT160///
                        12/09 Q1010=
201904292100 METAR LRTM 292100Z AUTO 35006KT 9999 BKN074/// 12/09 Q1010=
201904292130 METAR LRTM 292130Z AUTO 04004KT 350V090 9000 OVC069/// 12/08
                        Q1010=
201904292200 METAR LRTM 292200Z AUTO 36003KT 300V040 9999 FEW065/// SCT082///
                        12/08 Q1010=
201904292230 METAR LRTM 292230Z AUTO VRB02KT 9999 BKN093/// 12/08 Q1010=
201904292300 METAR LRTM 292300Z AUTO 31004KT 9999 SCT059/// 12/08 Q1009=
201904292330 METAR LRTM 292330Z AUTO 00000KT 9999 FEW081/// SCT130///
                        11/08 Q1009=
201904300000 METAR LRTM 300000Z AUTO 00000KT 9999 SCT073/// 11/09 Q1009=
201904300030 METAR LRTM 300030Z AUTO 15002KT 9000 FEW061/// 11/08 Q1009=
201904300100 METAR LRTM 300100Z AUTO 24008KT 9999 -RA BKN056/// 11/10
                        Q1010=
201904300130 METAR LRTM 300130Z AUTO 00000KT 8000 -RA FEW055/// SCT130///
                        11/09 Q1009=
201904300200 METAR LRTM 300200Z AUTO 26003KT 9999 OVC130/// 11/09 Q1009
                        RERA=
201904300230 METAR LRTM 300230Z AUTO 00000KT 9999 BKN120/// 10/09 Q1009
                        RERA=
201904300300 METAR LRTM 300300Z AUTO 09002KT 9999 FEW072/// BKN120///
                        10/09 Q1009=
201904300330 METAR LRTM 300330Z AUTO 06003KT 010V090 9999 SCT120/// 10/09
                        Q1008=
201904300400 METAR LRTM 300400Z AUTO 07006KT 9999 OVC120/// 10/09 Q1008=
201904300430 METAR LRTM 300430Z AUTO 08007KT 9999 BKN130/// 10/09 Q1008=
201904300500 METAR LRTM 300500Z 07006KT 9999 FEW048CB 10/09 Q1008=
201904300530 METAR LRTM 300530Z 06005KT 9999 FEW050CB 11/09 Q1008=
201904300600 METAR LRTM 300600Z 06003KT 9999 FEW050CB 11/09 Q1008 R07/19//95=
201904300630 METAR LRTM 300630Z 07005KT CAVOK 12/10 Q1008 R07/19//95=
201904300700 METAR LRTM 300700Z 09005KT CAVOK 12/10 Q1008 R07/19//95=
201904300730 METAR LRTM 300730Z 07005KT CAVOK 13/10 Q1008 R07/19//95=
201904300800 METAR LRTM 300800Z 09004KT 050V130 9999 FEW025 FEW030CB BKN040
                        13/10 Q1008 R07/19//95=
201904300830 METAR LRTM 300830Z 07004KT 030V100 9999 FEW025 FEW030CB BKN040
                        14/10 Q1008 R07/CLRD//=
201904300900 METAR LRTM 300900Z 10005KT 070V150 9999 FEW026 FEW032CB BKN042
                        15/11 Q1007=
201904300930 METAR LRTM 300930Z VRB03KT 9999 FEW028 FEW034CB BKN045 16/09
                        Q1007=
201904301000 METAR LRTM 301000Z VRB02KT 9999 FEW028 FEW034CB BKN045 17/10
                        Q1006=
201904301030 METAR LRTM 301030Z 04004KT 340V090 9999 SCT030 FEW036CB BKN046
                        16/10 Q1006=
201904301100 METAR LRTM 301100Z 09004KT 360V170 9999 SCT030 FEW036CB BKN046
                        17/10 Q1006=
201904301130 METAR LRTM 301130Z 04003KT 340V120 9999 SCT030 FEW036CB BKN046
                        16/10 Q1005=
201904301200 METAR LRTM 301200Z 07006KT 9999 -SHRA SCT032 SCT038CB BKN045
                        16/11 Q1005=
201904301230 METAR LRTM 301230Z 10004KT 070V140 9999 -SHRA VCTS SCT030
                        SCT036CB BKN045 15/11 Q1005 R07/29//95=
201904301300 METAR LRTM 301300Z 24004KT 9999 VCTS SCT030 SCT036CB OVC045
                        15/11 Q1005 R07/29//95=
201904301330 METAR LRTM 301330Z 24008KT 9999 -SHRA VCTS SCT036CB OVC045
                        13/11 Q1005 R07/29//95=
201904301400 METAR LRTM 301400Z 27010KT 8000 SHRA VCTS SCT029 SCT034CB
                        OVC042 12/10 Q1005 R07/29//95=
201904301430 METAR LRTM 301430Z 26010KT 4000 TSRA FEW019 SCT026 BKN036CB
                        OVC040 11/10 Q1005 RESHRA R07/29//95=
201904301500 METAR LRTM 301500Z 25007KT 4000 SHRA VCTS FEW026 BKN036CB
                        OVC040 11/10 Q1006 RETSRA R07/29//95=
201904301530 METAR LRTM 301530Z 33007KT 8000 -SHRA FEW026 BKN036CB OVC040
                        11/10 Q1005 RESHRA R07/29//95=
201904301600 METAR LRTM 301600Z 30005KT 240V350 8000 -SHRA FEW026 SCT036CB
                        BKN042 11/09 Q1005 R07/29//95=
201904301630 METAR LRTM 301630Z 26004KT 9999 SCT038CB BKN045 11/09 Q1005
                        R07/29//95=
201904301700 METAR LRTM 301700Z 24003KT 210V270 9999 FEW036 SCT040CB BKN045
                        11/09 Q1005 R07/29//95=
201904301730 METAR LRTM 301730Z AUTO 26004KT 9999 SCT036/// BKN047///
                        11/09 Q1004=
201904301800 METAR LRTM 301800Z AUTO 24004KT 9999 SCT031/// SCT040///
                        10/09 Q1004=
201904301830 METAR LRTM 301830Z AUTO 24005KT 9999 OVC032/// 11/09 Q1004=
201904301900 METAR LRTM 301900Z AUTO 22009KT 9999 FEW009/// SCT013///
                        10/08 Q1005=
201904301930 METAR LRTM 301930Z AUTO 23006KT 200V260 9000 DZ FEW010///
                        SCT013/// 09/08 Q1004=
201904302000 METAR LRTM 302000Z AUTO 22008KT 9999 -SHRA BKN017/// 09/07
                        Q1004=
201904302030 METAR LRTM 302030Z AUTO 22008KT 9999 SCT019/// BKN033///
                        09/07 Q1004 RERA=
201904302100 METAR LRTM 302100Z AUTO 22008KT 9999 BKN015/// 09/07 Q1004=
201904302130 METAR LRTM 302130Z AUTO 21007KT 9999 BKN014/// 09/07 Q1004=
201904302200 METAR LRTM 302200Z AUTO 21008KT 9999 SCT014/// SCT018///
                        09/06 Q1004=
201904302230 METAR LRTM 302230Z AUTO 22008KT 9999 SCT015/// BKN019///
                        09/06 Q1003=
201904302300 METAR LRTM 302300Z AUTO 22010KT 9999 SCT019/// BKN029///
                        08/06 Q1003=
201904302330 METAR LRTM 302330Z AUTO 21008KT 9999 BKN027/// 08/06 Q1003=
