201905010200 TAF LRTM 010200Z NIL=
201905010500 TAF LRTM 010500Z 0106/0115 VRB04KT 9999 BKN035
                      BECMG 0106/0108 30010KT
                      TEMPO 0106/0115 5000 -RA=
201905010800 TAF LRTM 010800Z 0109/0118 30012KT 9999 BKN035
                      TEMPO 0109/0116 5000 -RA -SHRA BKN015 SCT030CB
                       BKN040=
201905011100 TAF LRTM 011100Z 0112/0121 29012KT 9999 BKN035
                      TEMPO 0112/0117 5000 -RA -SHRA BKN015 SCT030CB
                       BKN035=
201905011400 TAF LRTM 011400Z 0115/0124 29012KT 9999 BKN035
                      TEMPO 0115/0117 5000 -SHRA BKN015 SCT030CB
                       BKN035
                      BECMG 0122/0124 VRB04KT=
201905011700 TAF LRTM 011700Z NIL=
201905012000 TAF LRTM 012000Z NIL=
201905012300 TAF LRTM 012300Z NIL=
201905020200 TAF LRTM 020200Z NIL=
201905020500 TAF LRTM 020500Z 0206/0215 VRB04KT 0600 FG OVC001
                      BECMG 0206/0208 3000 BR BKN005
                      BECMG 0208/0210 9999 NSW SCT035
                      TEMPO 0210/0215 5000 SHRA SCT035CB
                      PROB30 TEMPO 0213/0215 VRB15G25KT 3000 TSRA=
201905020800 TAF LRTM 020800Z 0209/0218 VRB04KT 9999 SCT035
                      TEMPO 0210/0217 5000 SHRA SCT035CB
                      PROB30 TEMPO 0213/0216 VRB15G25KT 3000 TSRA=
201905021100 TAF LRTM 021100Z 0212/0221 VRB04KT 9999 SCT030
                      PROB30 TEMPO 0212/0217 5000 -SHRA SCT030CB=
201905021400 TAF LRTM 021400Z 0215/0224 VRB04KT 9999 SCT030
                      PROB30 TEMPO 0215/0218 5000 -SHRA SCT030CB=
201905021700 TAF LRTM 021700Z 0218/0303 VRB04KT 9999 SCT030
                      BECMG 0221/0223 3000 BR
                      PROB40 TEMPO 0223/0303 0800 FG VV002=
201905021803 TAF AMD LRTM 021803Z 0218/0303 CNL=
201905022000 TAF LRTM 022000Z NIL=
201905022300 TAF LRTM 022300Z NIL=
201905030200 TAF LRTM 030200Z NIL=
201905030500 TAF LRTM 030500Z 0306/0315 06005KT CAVOK
                      BECMG 0310/0312 25010KT
                      PROB30 TEMPO 0312/0315 5000 -TSRA SCT040CB=
201905030800 TAF LRTM 030800Z 0309/0318 22010KT CAVOK
                      PROB30 TEMPO 0312/0316 5000 -TSRA SCT040CB=
201905031100 TAF LRTM 031100Z 0312/0321 24012KT CAVOK
                      PROB30 TEMPO 0312/0316 5000 -TSRA SCT040CB
                       BECMG 0317/0319 VRB04KT=
201905031400 TAF LRTM 031400Z 0315/0324 26010KT 9999 SCT045CB
                      BECMG 0315/0317 NSC
                      BECMG 0317/0319 VRB04KT=
201905031700 TAF LRTM 031700Z NIL=
201905032000 TAF LRTM 032000Z NIL=
201905032300 TAF LRTM 032300Z NIL=
201905040200 TAF LRTM 040200Z NIL=
201905040500 TAF LRTM 040500Z 0406/0415 12006KT CAVOK
                      PROB30 TEMPO 0411/0415 VRB20KT 5000 TSRA
                       SCT040CB=
201905040800 TAF LRTM 040800Z 0409/0418 10006KT CAVOK
                      PROB30 TEMPO 0411/0415 VRB20KT 5000 TSRA
                       SCT040CB=
201905041100 TAF LRTM 041100Z 0412/0421 VRB04KT CAVOK
                      PROB30 TEMPO 0412/0416 VRB20KT 5000 TSRA
                       SCT040CB=
201905041400 TAF LRTM 041400Z 0415/0424 VRB04KT CAVOK
                      PROB30 TEMPO 0415/0417 VRB20KT 5000 TSRA
                       SCT040CB=
201905041700 TAF LRTM 041700Z NIL=
201905042000 TAF LRTM 042000Z NIL=
201905042300 TAF LRTM 042300Z NIL=
201905050200 TAF LRTM 050200Z NIL=
201905050500 TAF LRTM 050500Z 0506/0515 12007KT CAVOK
                      TEMPO 0511/0514 5000 -SHRA SCT040CB BKN045=
201905050800 TAF LRTM 050800Z 0509/0518 VRB04KT CAVOK
                      TEMPO 0512/0517 5000 -SHRA SCT040CB BKN045=
201905051100 TAF LRTM 051100Z 0512/0521 VRB04KT 9999 SCT045
                      TEMPO 0512/0516 5000 -SHRA SCT040CB BKN045=
201905051400 TAF LRTM 051400Z 0515/0524 VRB04KT 9999 SCT045
                      TEMPO 0515/0517 5000 -SHRA SCT040CB BKN045
                       TEMPO 0522/0524 3000 BR BKN010=
201905051700 TAF LRTM 051700Z NIL=
201905052000 TAF LRTM 052000Z NIL=
201905052300 TAF LRTM 052300Z NIL=
201905060200 TAF LRTM 060200Z NIL=
201905060500 TAF LRTM 060500Z 0606/0615 VRB04KT 9999 SCT035
                      TEMPO 0609/0615 5000 TSRA SCT010 SCT030CB
                       BKN040
                      PROB40 TEMPO 0609/0613 1500 +TSRA
                      BECMG 0610/0612 29012KT=
201905060800 TAF LRTM 060800Z 0609/0618 24010KT 9999 SCT035
                      TEMPO 0610/0616 5000 TSRA SCT010 SCT030CB
                       BKN040
                      PROB30 0610/0614 1500 +TSRA
                      BECMG 0611/0613 30012KT
                      BECMG 0616/0618 5000 -RA BR BKN015 OVC030=
201905061100 TAF LRTM 061100Z 0612/0621 24014KT 9999 SCT030
                      TEMPO 0612/0616 5000 TSRA SCT010 SCT030CB
                       BKN040
                      PROB30 TEMPO 0612/0614 VRB15G25KT 1500 +TSRA
                       BECMG 0614/0616 31014KT
                      BECMG 0616/0618 5000 -RA BKN015 OVC030
                      PROB30 TEMPO 0618/0621 3000 RA BKN010 OVC025=
201905061400 TAF LRTM 061400Z 0615/0624 32014KT 9999 SCT015 BKN025
                      TEMPO 0615/0618 5000 -SHRA SCT010 SCT025CB
                       BKN030
                      BECMG 0618/0620 5000 -RA BKN015 OVC025
                      TEMPO 0620/0624 3000 RA BKN010 OVC020=
201905061700 TAF LRTM 061700Z NIL=
201905062000 TAF LRTM 062000Z NIL=
201905062300 TAF LRTM 062300Z NIL=
201905070200 TAF LRTM 070200Z NIL=
201905070500 TAF LRTM 070500Z 0706/0715 27012KT 9999 -RA SCT015 BKN035
                      TEMPO 0706/0711 5000 RA BKN010 OVC030
                      TEMPO 0711/0715 32015G25KT=
201905070800 TAF LRTM 070800Z 0709/0718 30012KT 9999 BKN015 BKN035
                      BECMG 0709/0711 BKN025 BKN040
                      PROB40 TEMPO 0711/0715 32015G25KT=
201905071100 TAF LRTM 071100Z 0712/0721 30012KT 9999 BKN020 BKN035
                      PROB40 TEMPO 0712/0715 32015G25KT
                      BECMG 0715/0717 BKN010=
201905071400 TAF LRTM 071400Z 0715/0724 32012KT 9999 BKN020 BKN035
                      BECMG 0716/0718 BKN015=
201905071700 TAF LRTM 071700Z NIL=
201905072000 TAF LRTM 072000Z NIL=
201905072300 TAF LRTM 072300Z NIL=
201905080200 TAF LRTM 080200Z 0803/0812 24006KT CAVOK
                      BECMG 0806/0808 32010KT=
201905080500 TAF LRTM 080500Z 0806/0815 24006KT 9999 BKN020 BKN045
                      TEMPO 0806/0807 BKN010 BKN040
                      BECMG 0807/0809 32010KT
                      TEMPO 0810/0815 5000 SHRA BKN010 SCT025CB=
201905080800 TAF LRTM 080800Z 0809/0818 30008KT 9999 BKN045
                      PROB30 TEMPO 0810/0815 5000 SHRA BKN010 SCT025CB=
201905081100 TAF LRTM 081100Z 0812/0821 VRB04KT 9999 BKN045
                      PROB30 TEMPO 0812/0815 5000 -SHRA BKN010
                       SCT025CB=
201905081400 TAF LRTM 081400Z 0815/0824 33008KT CAVOK=
201905081700 TAF LRTM 081700Z NIL=
201905082000 TAF LRTM 082000Z NIL=
201905082300 TAF LRTM 082300Z NIL=
201905090200 TAF LRTM 090200Z NIL=
201905090500 TAF LRTM 090500Z 0906/0915 10006KT CAVOK=
201905090800 TAF LRTM 090800Z 0909/0918 11006KT CAVOK
                      BECMG 0916/0918 5000 -RA BR BKN015 BKN040=
201905091100 TAF LRTM 091100Z 0912/0921 17005KT CAVOK
                      BECMG 0916/0918 5000 -RA BR BKN015 BKN040=
201905091400 TAF LRTM 091400Z 0915/0924 VRB04KT CAVOK
                      BECMG 0918/0920 5000 -RA BR BKN015 BKN040=
201905091700 TAF LRTM 091700Z NIL=
201905092000 TAF LRTM 092000Z NIL=
201905092300 TAF LRTM 092300Z NIL=
201905100200 TAF LRTM 100200Z NIL=
201905100500 TAF LRTM 100500Z 1006/1015 VRB04KT 7000 -RA BKN010 OVC020
                      TEMPO 1006/1009 5000 -RA BR BKN005 OVC015
                       BECMG 1013/1015 CAVOK=
201905100800 TAF LRTM 100800Z 1009/1018 29006KT 7000 -RA BKN010 OVC025
                      TEMPO 1009/1011 5000 -RA BR BKN010 OVC020
                       BECMG 1013/1015 CAVOK=
201905101100 TAF LRTM 101100Z 1012/1021 31006KT 9999 BKN040
                      TEMPO 1012/1016 5000 -SHRA BKN010 SCT025CB
                       OVC040=
201905101400 TAF LRTM 101400Z 1015/1024 30006KT 9999 BKN045
                      TEMPO 1015/1018 5000 -SHRA BKN010 SCT025CB
                       OVC045=
201905101700 TAF LRTM 101700Z NIL=
201905102000 TAF LRTM 102000Z NIL=
201905102300 TAF LRTM 102300Z NIL=
201905110200 TAF LRTM 110200Z NIL=
201905110500 TAF LRTM 110500Z 1106/1115 25006KT 9999 SCT035
                      BECMG 1109/1111 SCT040CB
                      TEMPO 1111/1115 3000 TSRA BKN010 BKN035CB=
201905110800 TAF LRTM 110800Z 1109/1118 29006KT 9999 SCT030
                      BECMG 1109/1111 SCT030CB
                      TEMPO 1111/1116 3000 TSRA BKN010 BKN030CB=
201905111100 TAF LRTM 111100Z 1112/1121 29006KT 9999 SCT035CB
                      TEMPO 1112/1116 3000 TSRA BKN010 BKN030CB
                       BECMG 1116/1118 SCT030
                      BECMG 1118/1120 3000 BR=
201905111400 TAF LRTM 111400Z 1115/1124 33010KT 9999 SCT035CB
                      PROB40 TEMPO 1115/1117 3000 TSRA SCT010 BKN030CB
                       BECMG 1117/1119 VRB04KT SCT030
                      BECMG 1119/1121 3000 BR
                      BECMG 1121/1123 0800 FG BKN002=
201905111700 TAF LRTM 111700Z NIL=
201905112000 TAF LRTM 112000Z NIL=
201905112300 TAF LRTM 112300Z NIL=
201905120200 TAF LRTM 120200Z 1203/1212 09006KT 1000 BR NSC
                      TEMPO 1203/1205 0350 FG VV001
                      BECMG 1206/1208 CAVOK=
201905120500 TAF LRTM 120500Z 1206/1215 08006KT CAVOK
                      TEMPO 1206/1207 5000 BR SCT010=
201905120800 TAF LRTM 120800Z 1209/1218 08008KT CAVOK=
201905121100 TAF LRTM 121100Z 1212/1221 12008KT CAVOK=
201905121400 TAF LRTM 121400Z 1215/1224 VRB04KT CAVOK=
201905121700 TAF LRTM 121700Z NIL=
201905122000 TAF LRTM 122000Z NIL=
201905122300 TAF LRTM 122300Z NIL=
201905130200 TAF LRTM 130200Z NIL=
201905130500 TAF LRTM 130500Z 1306/1315 07006KT CAVOK
                      TEMPO 1311/1315 SCT040CB=
201905130800 TAF LRTM 130800Z 1309/1318 11013KT 9999 SCT030
                      TEMPO 1311/1315 SCT030CB=
201905131100 TAF LRTM 131100Z 1312/1321 11012KT 9999 SCT035
                      TEMPO 1312/1315 SCT030CB=
201905131400 TAF LRTM 131400Z 1315/1324 11010KT 9999 SCT035
                      TEMPO 1315/1318 SCT030CB=
201905131700 TAF LRTM 131700Z 1318/1403 VRB04KT CAVOK=
201905132000 TAF LRTM 132000Z NIL=
201905132300 TAF LRTM 132300Z NIL=
201905140200 TAF LRTM 140200Z NIL=
201905140500 TAF LRTM 140500Z 1406/1415 VRB04KT 9999 SCT035CB BKN045
                      TEMPO 1406/1409 5000 SHRA
                      TEMPO 1409/1415 VRB15G25KT 3000 TSRA=
201905140800 TAF LRTM 140800Z 1409/1418 VRB04KT 9999 BKN040
                      TEMPO 1409/1418 5000 SHRA SCT010 SCT035CB
                       BKN040
                      PROB40 TEMPO 1411/1415 VRB15G25KT 3000 TSRA=
201905141100 TAF LRTM 141100Z 1412/1421 VRB04KT 9999 BKN040
                      TEMPO 1412/1418 5000 SHRA SCT010 SCT035CB
                       BKN040=
201905141400 TAF LRTM 141400Z 1415/1424 VRB04KT 9999 BKN040
                      TEMPO 1415/1418 5000 SHRA SCT010 SCT035CB
                       BKN040=
201905141700 TAF LRTM 141700Z NIL=
201905142000 TAF LRTM 142000Z NIL=
201905142300 TAF LRTM 142300Z NIL=
201905150200 TAF LRTM 150200Z 1503/1512 VRB04KT 9999 SCT045
                      TEMPO 1503/1506 3000 BR
                      TEMPO 1510/1512 SCT040CB BKN045=
201905150500 TAF LRTM 150500Z 1506/1515 08005KT CAVOK
                      PROB40 TEMPO 1512/1515 3000 TSRA SCT040CB=
201905150800 TAF LRTM 150800Z 1509/1518 VRB04KT CAVOK
                      PROB40 TEMPO 1512/1517 3000 TSRA SCT040CB=
201905151100 TAF LRTM 151100Z 1512/1521 VRB04KT CAVOK
                      PROB40 TEMPO 1512/1517 3000 TSRA SCT040CB=
201905151400 TAF LRTM 151400Z 1515/1524 VRB04KT 9999 SCT040CB
                      PROB40 TEMPO 1515/1517 3000 TSRA
                      BECMG 1517/1519 NSC=
201905151700 TAF LRTM 151700Z NIL=
201905152000 TAF LRTM 152000Z NIL=
201905152300 TAF LRTM 152300Z NIL=
201905160200 TAF LRTM 160200Z NIL=
201905160500 TAF LRTM 160500Z 1606/1615 28006KT 9999 BKN030
                      TEMPO 1606/1607 BKN010
                      BECMG 1608/1610 5000 -RA BR
                      TEMPO 1610/1614 3000 SHRA BKN010 SCT020CB
                       OVC025=
201905160800 TAF LRTM 160800Z 1609/1618 30006KT 7000 -RA BKN010 BKN040
                      TEMPO 1609/1612 3000 SHRA BKN005 SCT030CB
                       OVC035=
201905161100 TAF LRTM 161100Z 1612/1621 30006KT 9999 SCT010 BKN040
                      PROB40 TEMPO 1612/1615 5000 -SHRA BKN005
                       SCT030CB OVC035=
201905161400 TAF LRTM 161400Z 1615/1624 30006KT 9999 BKN040
                      PROB40 TEMPO 1615/1617 5000 -RA BR BKN010
                       OVC035
                      BECMG 1620/1622 3000 BR BKN010=
201905161700 TAF LRTM 161700Z NIL=
201905162000 TAF LRTM 162000Z NIL=
201905162300 TAF LRTM 162300Z NIL=
201905170200 TAF LRTM 170200Z NIL=
201905170500 TAF LRTM 170500Z 1706/1715 VRB04KT 9999 SCT030
                      TEMPO 1706/1708 5000 BR BKN005 BKN025
                      BECMG 1712/1714 SCT040CB=
201905170800 TAF LRTM 170800Z 1709/1718 VRB04KT 9999 SCT030
                      TEMPO 1709/1710 BKN015 BKN025
                      BECMG 1712/1714 SCT040CB
                      TEMPO 1714/1718 VRB15G25KT 3000 TSRA BKN010
                       BKN035CB=
201905171100 TAF LRTM 171100Z 1712/1721 VRB04KT 9999 SCT030
                      BECMG 1712/1714 SCT040CB
                      TEMPO 1714/1720 VRB15G25KT 3000 TSRA BKN010
                       BKN035CB=
201905171400 TAF LRTM 171400Z 1715/1724 09006KT 9999 SCT035CB
                      TEMPO 1715/1720 VRB15G25KT 3000 TSRA BKN010
                       BKN035CB
                      BECMG 1720/1722 SCT035=
201905171700 TAF LRTM 171700Z 1718/1803 09006KT 9999 SCT035CB
                      TEMPO 1718/1722 VRB15G25KT 5000 TSRA BKN010
                       BKN035CB
                      BECMG 1720/1722 SCT035=
201905172000 TAF LRTM 172000Z NIL=
201905172300 TAF LRTM 172300Z NIL=
201905180200 TAF LRTM 180200Z NIL=
201905180500 TAF LRTM 180500Z 1806/1815 VRB04KT 0600 FG BKN005
                      BECMG 1806/1808 12010KT 3000 -RA BKN010 OVC045
                       TEMPO 1810/1815 VRB15G25KT 1500 TSRA BKN005
                       BKN025CB OVC040=
201905180800 TAF LRTM 180800Z 1809/1818 08008KT 9999 BKN020
                      TEMPO 1809/1814 3000 -SHRA BKN005 OVC045=
201905181100 TAF LRTM 181100Z 1812/1821 08008KT 9999 BKN020
                      TEMPO 1812/1815 SCT040CB=
201905181400 TAF LRTM 181400Z 1815/1824 06006KT CAVOK
                      TEMPO 1815/1817 SCT040CB=
201905181700 TAF LRTM 181700Z NIL=
201905182000 TAF LRTM 182000Z NIL=
201905182300 TAF LRTM 182300Z NIL=
201905190200 TAF LRTM 190200Z NIL=
201905190407 TAF LRTM 190407Z 1904/1912 09005KT 5000 BR NSC
                      BECMG 1904/1906 9999 NSW=
201905190500 TAF LRTM 190500Z 1906/1915 09006KT CAVOK=
201905190800 TAF LRTM 190800Z 1909/1918 11006KT CAVOK=
201905191100 TAF LRTM 191100Z 1912/1921 12006KT CAVOK=
201905191400 TAF LRTM 191400Z 1915/1924 12006KT CAVOK=
201905191700 TAF LRTM 191700Z NIL=
201905192000 TAF LRTM 192000Z NIL=
201905192300 TAF LRTM 192300Z NIL=
201905200200 TAF LRTM 200200Z NIL=
201905200500 TAF LRTM 200500Z 2006/2015 VRB04KT 9999 SCT045
                      PROB30 TEMPO 2012/2015 VRB15G25KT 3000 TSRA
                       BKN010 BKN030CB=
201905200800 TAF LRTM 200800Z 2009/2018 VRB04KT CAVOK
                      TEMPO 2012/2017 VRB15G25KT 3000 TSRA BKN010
                       BKN030CB=
201905201100 TAF LRTM 201100Z 2012/2021 VRB04KT CAVOK
                      TEMPO 2012/2017 VRB15G25KT 3000 TSRA BKN010
                       BKN030CB
                      BECMG 2017/2019 5000 -SHRA BKN010 SCT025CB=
201905201400 TAF LRTM 201400Z 2015/2024 26008KT 9999 SCT045
                      TEMPO 2015/2016 3000 TSRA BKN010 BKN030CB
                       TEMPO 2016/2021 5000 -SHRA BKN010 SCT025CB=
201905201700 TAF LRTM 201700Z NIL=
201905202000 TAF LRTM 202000Z NIL=
201905202300 TAF LRTM 202300Z NIL=
201905210200 TAF LRTM 210200Z NIL=
201905210500 TAF LRTM 210500Z 2106/2115 23007KT 9999 SCT040
                      TEMPO 2106/2109 5000 -SHRA SCT010 SCT040CB
                       BKN045
                      PROB40 TEMPO 2107/2109 VRB20KT -TSRA
                      TEMPO 2111/2115 VRB18G28KT 3000 TSRA SCT015
                       BKN035CB=
201905210800 TAF LRTM 210800Z 2109/2118 23010KT 9999 SCT010 SCT035CB BKN040
                       BECMG 2109/2111 VRB04KT
                      PROB30 TEMPO 2109/2111 5000 -SHRA
                      TEMPO 2111/2115 VRB18G28KT 3000 TSRA SCT010
                       BKN035CB=
201905211100 TAF LRTM 211100Z 2112/2121 23010KT 9999 SCT035
                      TEMPO 2112/2115 VRB18G28KT 3000 TSRA SCT010
                       BKN035CB=
201905211400 TAF LRTM 211400Z 2115/2124 VRB04KT 9999 SCT040CB
                      PROB30 TEMPO 2115/2116 VRB15G25KT 5000 -TSRA
                       BECMG 2116/2118 NSC=
201905211700 TAF LRTM 211700Z 2118/2203 VRB04KT CAVOK
                      TEMPO 2118/2120 SCT040CB=
201905212000 TAF LRTM 212000Z NIL=
201905212300 TAF LRTM 212300Z NIL=
201905220200 TAF LRTM 220200Z NIL=
201905220335 TAF LRTM 220335Z 2203/2212 08005KT 3000 BR SCT015
                      TEMPO 2203/2205 1500 BR BKN005
                      BECMG 2205/2207 CAVOK=
201905220500 TAF LRTM 220500Z 2206/2215 VRB04KT CAVOK
                      BECMG 2206/2208 22012KT
                      TEMPO 2210/2215 SCT040CB
                      PROB40 2212/2215 VRB18KT -TSRA=
201905220800 TAF LRTM 220800Z 2209/2218 22012KT 9999 SCT035
                      TEMPO 2210/2217 SCT040CB
                      PROB40 2212/2216 VRB18KT -TSRA=
201905221100 TAF LRTM 221100Z 2212/2221 23012KT 9999 BKN035 FEW040CB
                      PROB40 2212/2216 VRB18KT -TSRA BKN035CB=
201905221400 TAF LRTM 221400Z 2215/2224 23008KT 9999 BKN040
                      TEMPO 2215/2219 5000 -SHRA SCT040CB
                      PROB30 2215/2218 VRB16KT -TSRA
                      BECMG 2220/2222 BKN010 BKN035=
201905221700 TAF LRTM 221700Z NIL=
201905222000 TAF LRTM 222000Z NIL=
201905222300 TAF LRTM 222300Z NIL=
201905230200 TAF LRTM 230200Z NIL=
201905230500 TAF LRTM 230500Z 2306/2315 24008KT 9999 BKN035
                      TEMPO 2311/2315 5000 -TSRA SCT030CB BKN035=
201905230800 TAF LRTM 230800Z 2309/2318 24008KT 9999 BKN035
                      TEMPO 2311/2315 5000 -TSRA SCT030CB BKN035=
201905231100 TAF LRTM 231100Z 2312/2321 34008KT 9999 BKN030
                      TEMPO 2312/2315 5000 -TSRA SCT030CB BKN035=
201905231400 TAF LRTM 231400Z 2315/2324 VRB04KT 9999 BKN030
                      TEMPO 2315/2317 SCT030CB BKN035=
201905231700 TAF LRTM 231700Z NIL=
201905232000 TAF LRTM 232000Z NIL=
201905232300 TAF LRTM 232300Z NIL=
201905240200 TAF LRTM 240200Z NIL=
201905240500 TAF LRTM 240500Z 2406/2415 VRB04KT 9999 FEW005 SCT040
                      BECMG 2409/2411 SCT035CB
                      TEMPO 2411/2415 5000 -TSRA=
201905240800 TAF LRTM 240800Z 2409/2418 VRB04KT 9999 SCT035
                      BECMG 2409/2411 SCT035CB
                      TEMPO 2411/2417 5000 -TSRA SCT010 BKN030CB=
201905241100 TAF LRTM 241100Z 2412/2421 VRB04KT 9999 SCT035CB SCT045
                      TEMPO 2412/2416 VRB15G25KT 3000 TSRA SCT010
                       BKN035CB
                      BECMG 2416/2418 SCT040=
201905241400 TAF LRTM 241400Z 2415/2424 26012KT 9999 SCT040CB
                      TEMPO 2415/2418 VRB15G25KT 3000 TSRA SCT010
                       BKN035CB
                      BECMG 2418/2420 VRB04KT SCT040=
201905241700 TAF LRTM 241700Z NIL=
201905242000 TAF LRTM 242000Z NIL=
201905242300 TAF LRTM 242300Z NIL=
201905250200 TAF LRTM 250200Z NIL=
201905250500 TAF LRTM 250500Z 2506/2515 27008KT 9999 BKN035
                      TEMPO 2510/2515 3000 TSRA BKN015 SCT035CB
                       BKN045=
201905250800 TAF LRTM 250800Z 2509/2518 27008KT 9999 BKN035
                      TEMPO 2510/2515 5000 TSRA BKN015 SCT035CB
                       BKN045=
201905251100 TAF LRTM 251100Z 2512/2521 31008KT 9999 SCT035
                      TEMPO 2512/2516 5000 TSRA SCT015 SCT035CB
                       BKN045=
201905251400 TAF LRTM 251400Z 2515/2524 25008KT 9999 SCT040
                      TEMPO 2515/2518 5000 -SHRA SCT035CB
                      PROB40 2515/2517 -TSRA=
201905251700 TAF LRTM 251700Z NIL=
201905252000 TAF LRTM 252000Z NIL=
201905252300 TAF LRTM 252300Z NIL=
201905260200 TAF LRTM 260200Z NIL=
201905260420 TAF LRTM 260420Z 2604/2612 VRB04KT 9999 SCT007 BKN040
                      TEMPO 2604/2605 5000 MIFG BR BKN005 BKN040=
201905260500 TAF LRTM 260500Z 2606/2615 VRB04KT CAVOK
                      PROB30 TEMPO 2613/2615 FEW035CB=
201905260800 TAF LRTM 260800Z 2609/2618 VRB04KT 9999 SCT030
                      PROB30 TEMPO 2613/2616 FEW035CB=
201905261100 TAF LRTM 261100Z 2612/2621 VRB04KT 9999 SCT035
                      PROB30 TEMPO 2613/2616 SCT040 FEW045CB=
201905261400 TAF LRTM 261400Z 2615/2624 VRB04KT 9999 SCT040
                      PROB40 TEMPO 2622/2624 5000 BR=
201905261700 TAF LRTM 261700Z NIL=
201905262000 TAF LRTM 262000Z NIL=
201905262300 TAF LRTM 262300Z NIL=
201905270200 TAF LRTM 270200Z NIL=
201905270500 TAF LRTM 270500Z 2706/2715 14006KT CAVOK
                      TEMPO 2711/2715 SCT045CB=
201905270800 TAF LRTM 270800Z 2709/2718 14006KT 9999 SCT040
                      TEMPO 2712/2715 SCT045CB=
201905271100 TAF LRTM 271100Z 2712/2721 14006KT 9999 SCT040
                      TEMPO 2712/2716 SCT045CB=
201905271400 TAF LRTM 271400Z 2715/2724 VRB04KT CAVOK=
201905271700 TAF LRTM 271700Z NIL=
201905272000 TAF LRTM 272000Z NIL=
201905272300 TAF LRTM 272300Z NIL=
201905280200 TAF LRTM 280200Z NIL=
201905280500 TAF LRTM 280500Z 2806/2815 VRB04KT CAVOK
                      BECMG 2808/2810 14010KT SCT040CB
                      PROB40 TEMPO 2812/2815 5000 TSRA=
201905280800 TAF LRTM 280800Z 2809/2818 11010KT 9999 SCT040
                      TEMPO 2812/2816 VRB20KT 5000 TSRA SCT040CB=
201905281100 TAF LRTM 281100Z 2812/2821 11010KT 9999 SCT040
                      TEMPO 2813/2818 VRB20KT 5000 TSRA SCT040CB=
201905281400 TAF LRTM 281400Z 2815/2824 20010KT 9999 SCT040
                      TEMPO 2816/2820 VRB20KT 5000 TSRA SCT040CB=
201905281700 TAF LRTM 281700Z NIL=
201905282000 TAF LRTM 282000Z NIL=
201905282300 TAF LRTM 282300Z NIL=
201905290200 TAF LRTM 290200Z 2903/2912 VRB04KT CAVOK=
201905290500 TAF LRTM 290500Z 2906/2915 VRB04KT CAVOK
                      TEMPO 2906/2907 5000 BR BKN005
                      TEMPO 2909/2915 5000 -TSRA SCT040CB
                      PROB30 2911/2915 VRB20KT 3000 TSRAGR BKN015
                       BKN035CB=
201905290800 TAF LRTM 290800Z 2909/2918 VRB04KT 9999 SCT040
                      TEMPO 2909/2917 5000 -TSRA SCT040CB
                      PROB30 TEMPO 2911/2916 VRB20KT 3000 TSRAGR
                       BKN015 BKN035CB=
201905291100 TAF LRTM 291100Z 2912/2921 VRB04KT 9999 SCT030CB
                      TEMPO 2912/2918 5000 -TSRA
                      PROB30 TEMPO 2913/2917 VRB20KT 3000 TSRAGR
                       BKN015 BKN035CB
                      BECMG 2918/2920 NSC=
201905291400 TAF LRTM 291400Z 2915/2924 VRB04KT 9999 SCT030CB
                      TEMPO 2915/2918 5000 -TSRA
                      BECMG 2918/2920 NSC=
201905291700 TAF LRTM 291700Z NIL=
201905292000 TAF LRTM 292000Z NIL=
201905292300 TAF LRTM 292300Z NIL=
201905300200 TAF LRTM 300200Z NIL=
201905300500 TAF LRTM 300500Z 3006/3015 24007KT 9999 SCT010 BKN040
                      TEMPO 3010/3015 VRB20KT 5000 TSRA SCT010
                       SCT030CB BKN040=
201905300800 TAF LRTM 300800Z 3009/3018 VRB04KT 9999 BKN030
                      TEMPO 3011/3016 VRB20KT 5000 TSRA SCT010
                       SCT030CB BKN040=
201905301100 TAF LRTM 301100Z 3012/3021 VRB04KT 9999 BKN030
                      TEMPO 3012/3016 VRB20KT 5000 TSRA SCT010
                       SCT030CB BKN040
                      PROB30 TEMPO 3012/3015 3000 TSRA=
201905301400 TAF LRTM 301400Z 3015/3024 32010KT 9999 SCT040CB
                      PROB30 TEMPO 3015/3017 VRB20KT -TSRA
                      BECMG 3017/3019 SCT040
                      BECMG 3021/3023 5000 BR BKN015 BKN030=
201905301700 TAF LRTM 301700Z NIL=
201905302000 TAF LRTM 302000Z NIL=
201905302300 TAF LRTM 302300Z NIL=
201905310200 TAF LRTM 310200Z NIL=
201905310500 TAF LRTM 310500Z 3106/3115 29008KT 9999 BKN030
                      TEMPO 3111/3115 SCT030CB
                      PROB40 TEMPO 3112/3115 VRB15G25KT 5000 TSRA=
201905310800 TAF LRTM 310800Z 3109/3118 VRB04KT 9999 SCT030
                      TEMPO 3112/3117 SCT030CB
                      PROB40 TEMPO 3112/3116 VRB15G25KT 5000 TSRA=
201905311100 TAF LRTM 311100Z 3112/3121 VRB04KT 9999 SCT030
                      TEMPO 3112/3117 SCT030CB
                      PROB40 TEMPO 3113/3117 VRB15G25KT 5000 TSRA=
201905311400 TAF LRTM 311400Z 3115/3124 VRB04KT 9999 SCT030
                      TEMPO 3115/3119 SCT030CB
                      PROB40 TEMPO 3115/3118 VRB15G25KT 5000 TSRA=
201905311700 TAF LRTM 311700Z NIL=
201905312000 TAF LRTM 312000Z NIL=
201905312300 TAF LRTM 312300Z NIL=