201905010000 METAR LRTM 010000Z AUTO 20008KT 9999 OVC028/// 08/06 Q1002=
201905010030 METAR LRTM 010030Z AUTO 21006KT 9999 OVC030/// 08/06 Q1002=
201905010100 METAR LRTM 010100Z AUTO 20003KT 170V230 9999 BKN033/// 08/06
                        Q1002=
201905010130 METAR LRTM 010130Z AUTO 21004KT 9999 BKN031/// SCT052///
                        08/06 Q1002=
201905010200 METAR LRTM 010200Z AUTO 22004KT 190V250 9999 BKN038/// 08/06
                        Q1001=
201905010230 METAR LRTM 010230Z AUTO 21003KT 9999 BKN012/// OVC035///
                        08/06 Q1001=
201905010300 METAR LRTM 010300Z AUTO 21003KT 9999 FEW014/// OVC036///
                        08/06 Q1001=
201905010330 METAR LRTM 010330Z AUTO 22006KT 9999 FEW011/// OVC038///
                        09/07 Q1001=
201905010400 METAR LRTM 010400Z AUTO 22004KT 9999 FEW011/// OVC037///
                        09/07 Q1001=
201905010430 METAR LRTM 010430Z AUTO 23006KT 9999 SCT011/// SCT014///
                        BKN036/// 09/07 Q1001=
201905010500 METAR LRTM 010500Z 24005KT 9999 SCT009 BKN034 09/07 Q1001
                        R07/29//95=
201905010530 METAR LRTM 010530Z 23006KT 9999 SCT010 BKN035 09/07 Q1001
                        R07/29//95=
201905010600 METAR LRTM 010600Z 24005KT 220V280 9999 SCT009 BKN035 10/07
                        Q1002 R07/CLRD//=
201905010630 METAR LRTM 010630Z 25006KT 7000 -DZ SCT010 BKN017 OVC034
                        09/07 Q1002 R07/CLRD//=
201905010700 METAR LRTM 010700Z 26005KT 6000 -DZ FEW007 SCT012 BKN033
                        09/07 Q1002 R07/29//95=
201905010730 METAR LRTM 010730Z 23005KT 7000 -DZ FEW008 SCT014 BKN034
                        09/08 Q1002 R07/29//95=
201905010800 METAR COR LRTM 010800Z 26003KT 190V300 9999 SCT012 BKN034
                        10/08 Q1002 R07/29//95=
201905010830 METAR LRTM 010830Z 23003KT 200V270 9999 FEW008 BKN015 BKN034
                        10/08 Q1002 R07/29//95=
201905010900 METAR LRTM 010900Z 25009KT 9999 -RA FEW009 SCT015 BKN034
                        12/09 Q1002 R07/29//95=
201905010930 METAR LRTM 010930Z 29010KT 260V320 8000 -SHRA SCT010 FEW025CB
                        BKN030 11/08 Q1003 R07/29//95=
201905011000 METAR LRTM 011000Z 27007KT 9999 SCT007 FEW025CB BKN030 12/09
                        Q1003 R07/29//95=
201905011030 METAR LRTM 011030Z 27011KT 9999 -SHRA SCT008 FEW024CB BKN028
                        12/10 Q1003 R07/29//95=
201905011100 METAR LRTM 011100Z 27010KT 9999 -SHRA SCT009 FEW027CB BKN034
                        12/09 Q1003 R07/29//95=
201905011130 METAR LRTM 011130Z 27009KT 240V300 8000 -SHRA SCT010 SCT027CB
                        BKN032 12/10 Q1004 R07/29//95=
201905011200 METAR LRTM 011200Z 27007KT 240V300 9999 SCT012 FEW028CB BKN033
                        13/10 Q1004 R07/29//95=
201905011230 METAR LRTM 011230Z 28009KT 250V310 7000 -SHRA SCT010 SCT026CB
                        BKN030 12/10 Q1004 R07/29//95=
201905011300 METAR LRTM 011300Z 28006KT 240V330 9999 -SHRA FEW011 FEW027CB
                        BKN033 13/10 Q1004 R07/29//95=
201905011330 METAR LRTM 011330Z 27011KT 9999 SCT011 FEW027CB BKN036 13/09
                        Q1004 R07/29//95=
201905011400 METAR LRTM 011400Z 26008KT 9999 SCT012 FEW028CB BKN035 13/10
                        Q1004 R07/29//95=
201905011430 METAR LRTM 011430Z 27010KT 9999 SCT011 FEW028CB BKN035 13/10
                        Q1005 R07/29//95=
201905011500 METAR LRTM 011500Z 26009KT 9999 FEW012 FEW029CB BKN035 13/10
                        Q1005 R07/29//95=
201905011530 METAR LRTM 011530Z 29012KT 9999 FEW012 FEW030CB BKN036 14/08
                        Q1005 R07/29//95=
201905011600 METAR LRTM 011600Z 28011KT 9999 FEW012 FEW030CB BKN036 13/08
                        Q1005 R07/29//95=
201905011630 METAR LRTM 011630Z 29009KT 260V320 9999 FEW014 SCT036 13/08
                        Q1005 R07/29//95=
201905011700 METAR LRTM 011700Z 27005KT 240V300 9999 SCT036 13/08 Q1006
                        R07/29//95=
201905011730 METAR LRTM 011730Z AUTO 24006KT 9999 BKN084/// 11/08 Q1006=
201905011800 METAR LRTM 011800Z AUTO 23005KT 9999 NCD 10/08 Q1006=
201905011830 METAR LRTM 011830Z AUTO 24004KT 210V280 9999 NCD 10/08 Q1007=
201905011900 METAR LRTM 011900Z AUTO 28003KT 9999 FEW081/// 10/08 Q1007=
201905011930 METAR LRTM 011930Z AUTO 24004KT 200V290 9999 BKN065/// 10/08
                        Q1008=
201905012000 METAR LRTM 012000Z AUTO 21006KT 9999 OVC072/// 11/08 Q1007=
201905012030 METAR LRTM 012030Z AUTO 24005KT 9999 OVC083/// 10/08 Q1007=
201905012100 METAR LRTM 012100Z AUTO 26003KT 9999 FEW099/// 09/07 Q1007=
201905012130 METAR LRTM 012130Z AUTO 26003KT 9999 FEW100/// 09/07 Q1007=
201905012200 METAR LRTM 012200Z AUTO 00000KT 9999 NCD 07/06 Q1007=
201905012230 METAR LRTM 012230Z AUTO VRB02KT 9999 NCD 07/06 Q1007=
201905012300 METAR LRTM 012300Z AUTO VRB01KT 9999 NCD 06/05 Q1008=
201905012330 METAR LRTM 012330Z AUTO 07002KT 8000 NCD 06/05 Q1007=
201905020000 METAR LRTM 020000Z AUTO 09005KT 7000 NCD 05/04 Q1007=
201905020030 METAR LRTM 020030Z AUTO 08004KT 6000 NCD 05/04 Q1007=
201905020100 METAR LRTM 020100Z AUTO 07004KT 5000 BR FEW079/// 05/04 Q1007=
201905020130 METAR LRTM 020130Z AUTO 21002KT 5000 BR FEW079/// 04/04 Q1007=
201905020200 METAR LRTM 020200Z AUTO 02001KT 4400 BR SCT080/// 05/04 Q1007=
201905020230 METAR LRTM 020230Z AUTO 08004KT 2300 R07/2000 BR SCT078///
                        04/04 Q1007=
201905020300 METAR LRTM 020300Z AUTO 07006KT 0600 R07/0750N FG FEW002///
                        04/03 Q1007=
201905020330 METAR LRTM 020330Z AUTO 10006KT 0400 R07/0550N FG VV001 05/04
                        Q1008=
201905020400 METAR LRTM 020400Z AUTO 08005KT 0250 R07/0300N FG VV001 05/04
                        Q1008=
201905020430 METAR LRTM 020430Z AUTO 09005KT 0300 R07/0400N FG VV001 06/05
                        Q1008=
201905020500 METAR LRTM 020500Z 09006KT 0300 R07/0400N FG VV001 06/05
                        Q1008 R07/29//95=
201905020530 METAR LRTM 020530Z 07005KT 0300 R07/0375N FG VV001 06/06
                        Q1008 R07/29//95=
201905020600 METAR LRTM 020600Z 07005KT 040V100 0900 R07/1100D FG VV001
                        07/07 Q1009 R07/29//95=
201905020630 METAR LRTM 020630Z 06005KT 0500 R07/0700N FG VV001 08/07
                        Q1009 R07/29//95=
201905020700 METAR LRTM 020700Z 07005KT 030V100 2000 BR BKN001 09/08 Q1009
                        R07/29//95=
201905020730 METAR LRTM 020730Z 07004KT 020V120 4300 BR FEW001 SCT005
                        10/09 Q1009 R07/29//95=
201905020800 METAR LRTM 020800Z 09003KT 060V140 9999 FEW007 11/10 Q1009
                        R07/29//95=
201905020830 METAR LRTM 020830Z VRB02KT 9999 FEW015 14/09 Q1009 R07/29//95=
201905020900 METAR LRTM 020900Z VRB03KT 9999 FEW017 15/09 Q1009=
201905020930 METAR LRTM 020930Z VRB03KT 9999 FEW021 15/09 Q1009=
201905021000 METAR LRTM 021000Z VRB04KT 9999 FEW023 16/08 Q1009=
201905021030 METAR LRTM 021030Z VRB03KT 9999 FEW025 17/08 Q1009 R07/29//95=
201905021100 METAR LRTM 021100Z 29005KT 250V360 9999 FEW025 16/08 Q1009
                        R07/29//95=
201905021130 METAR LRTM 021130Z 31005KT 240V350 9999 FEW027 17/06 Q1009
                        R07/29//95=
201905021200 METAR LRTM 021200Z 33004KT 9999 FEW030 17/07 Q1008 R07/29//95=
201905021230 METAR LRTM 021230Z 23007KT 9999 FEW030 17/08 Q1008 R07/29//95=
201905021300 METAR LRTM 021300Z 25004KT 220V310 9999 FEW033 17/07 Q1008
                        R07/29//95=
201905021330 METAR LRTM 021330Z 29003KT 230V020 9999 FEW033 18/07 Q1008
                        R07/29//95=
201905021400 METAR LRTM 021400Z 28004KT 210V330 9999 FEW035 18/08 Q1008
                        R07/29//95=
201905021430 METAR LRTM 021430Z 29003KT 230V010 9999 FEW035 18/08 Q1008
                        R07/29//95=
201905021500 METAR LRTM 021500Z 29003KT 270V340 9999 FEW040 18/07 Q1008
                        R07/29//95=
201905021530 METAR LRTM 021530Z VRB03KT 9999 FEW040 18/07 Q1007 R07/29//95=
201905021600 METAR LRTM 021600Z VRB02KT 9999 FEW040 18/08 Q1007 R07/29//95=
201905021630 METAR LRTM 021630Z VRB02KT 9999 FEW040TCU 18/07 Q1007 R07/29//95=
201905021700 METAR LRTM 021700Z 00000KT 9999 FEW040 16/08 Q1007 R07/29//95=
201905021730 METAR LRTM 021730Z AUTO 18003KT 9999 BKN084/// 15/10 Q1008=
201905021800 METAR LRTM 021800Z AUTO 29013KT 260V320 9999 -SHRA SCT048///
                        SCT085/// 14/08 Q1008=
201905021830 METAR LRTM 021830Z AUTO 24007KT 9999 BKN056/// 12/08 Q1009
                        RERA=
201905021900 METAR LRTM 021900Z AUTO 23003KT 180V280 9999 FEW068/// 12/08
                        Q1009 REDZ=
201905021930 METAR LRTM 021930Z AUTO 29003KT 9999 BKN090/// 12/08 Q1009=
201905022000 METAR LRTM 022000Z AUTO 00000KT 7000 BKN062/// BKN078///
                        12/08 Q1009=
201905022030 METAR LRTM 022030Z AUTO 09002KT 7000 BKN058/// SCT073///
                        12/09 Q1009=
201905022100 METAR LRTM 022100Z AUTO 29002KT 230V340 8000 FEW071/// 10/08
                        Q1009=
201905022130 METAR LRTM 022130Z AUTO VRB01KT 5000 BR BKN076/// 10/09 Q1009=
201905022200 METAR LRTM 022200Z AUTO 08002KT 3300 BR SCT079/// 10/08 Q1009=
201905022230 METAR LRTM 022230Z AUTO 10004KT 2500 BR NCD 09/07 Q1009=
201905022300 METAR LRTM 022300Z AUTO 10003KT 2200 BR BKN069/// 10/08 Q1009=
201905022330 METAR LRTM 022330Z AUTO 09005KT 2100 BR BKN063/// SCT079///
                        09/08 Q1009=
201905030000 METAR LRTM 030000Z AUTO 08006KT 2700 BR FEW072/// BKN100///
                        09/07 Q1009=
201905030030 METAR LRTM 030030Z AUTO 07006KT 5000 BR FEW074/// SCT100///
                        08/07 Q1009=
201905030100 METAR LRTM 030100Z AUTO 06007KT 8000 SCT067/// SCT110///
                        09/08 Q1009=
201905030130 METAR LRTM 030130Z AUTO 08007KT 9000 FEW068/// OVC100///
                        09/08 Q1009=
201905030200 METAR LRTM 030200Z AUTO 09005KT 7000 FEW073/// BKN110///
                        08/07 Q1009=
201905030230 METAR LRTM 030230Z AUTO 07006KT 5000 BR SCT075/// BKN097///
                        08/07 Q1009=
201905030300 METAR LRTM 030300Z AUTO 07007KT 5000 BR FEW110/// 07/06 Q1009=
201905030330 METAR LRTM 030330Z AUTO 09005KT 6000 FEW110/// 08/07 Q1009=
201905030400 METAR LRTM 030400Z AUTO 08005KT 5000 BR FEW110/// 08/07 Q1009=
201905030430 METAR LRTM 030430Z AUTO 07005KT 8000 FEW100/// 09/08 Q1010=
201905030500 METAR LRTM 030500Z 06005KT CAVOK 11/09 Q1010 R07/29//95=
201905030530 METAR LRTM 030530Z 08005KT CAVOK 13/10 Q1010 R07/29//95=
201905030600 METAR LRTM 030600Z 10006KT CAVOK 14/10 Q1010 R07/29//95=
201905030630 METAR LRTM 030630Z 10006KT 030V130 CAVOK 15/10 Q1010 R07/CLRD//=
201905030700 METAR LRTM 030700Z 17005KT 9999 FEW030 17/09 Q1010=
201905030730 METAR LRTM 030730Z 20005KT 170V230 9999 FEW030 18/10 Q1010=
201905030800 METAR LRTM 030800Z 20008KT 170V230 9999 FEW040 18/10 Q1010=
201905030830 METAR LRTM 030830Z 20008KT 180V240 9999 FEW040 19/11 Q1009=
201905030900 METAR LRTM 030900Z 24008KT 200V260 9999 FEW040 20/09 Q1009=
201905030930 METAR LRTM 030930Z 23009KT 190V260 9999 FEW046 21/08 Q1009=
201905031000 METAR LRTM 031000Z 22010KT 180V240 9999 FEW048 21/07 Q1009=
201905031030 METAR LRTM 031030Z 23009KT 190V280 9999 FEW048 22/07 Q1008=
201905031100 METAR LRTM 031100Z 24012KT 9999 FEW048 23/08 Q1008=
201905031130 METAR LRTM 031130Z 23011KT 200V270 9999 SCT048 22/07 Q1008=
201905031200 METAR LRTM 031200Z 21013KT 9999 FEW048 FEW050CB 22/07 Q1008=
201905031230 METAR LRTM 031230Z 25012KT 9999 SCT045 FEW048CB 22/06 Q1007=
201905031300 METAR LRTM 031300Z 25010KT 9999 SCT045 FEW048CB 23/08 Q1007=
201905031330 METAR LRTM 031330Z 26014KT 9999 SCT045 FEW048CB 21/05 Q1007=
201905031400 METAR LRTM 031400Z 27011KT 9999 -SHRA SCT035 SCT045CB 19/08
                        Q1007=
201905031430 METAR LRTM 031430Z 23015KT 9999 SCT035 FEW045CB 19/07 Q1007=
201905031500 METAR LRTM 031500Z 22016KT 9999 SCT035 FEW045CB 19/07 Q1008=
201905031530 METAR LRTM 031530Z 20016KT 9999 VCSH SCT030 FEW045CB 18/08
                        Q1008=
201905031600 METAR LRTM 031600Z 19015KT 9999 VCSH SCT033 SCT045CB 17/07
                        Q1008=
201905031630 METAR LRTM 031630Z 20012KT 9999 SCT033 FEW045CB 17/07 Q1008=
201905031700 METAR LRTM 031700Z 21011KT 9999 SCT035 FEW050CB 16/08 Q1008=
201905031730 METAR LRTM 031730Z AUTO 20009KT 9999 FEW150/// 16/08 Q1008=
201905031800 METAR LRTM 031800Z AUTO 19008KT 9999 FEW190/// 15/08 Q1008=
201905031830 METAR LRTM 031830Z AUTO 19007KT 9999 FEW180/// 14/08 Q1009=
201905031900 METAR LRTM 031900Z AUTO 22003KT 190V260 9999 FEW210/// 13/08
                        Q1009=
201905031930 METAR LRTM 031930Z AUTO 23002KT 9999 FEW160/// 12/08 Q1009=
201905032000 METAR LRTM 032000Z AUTO VRB02KT 9999 FEW110/// 13/08 Q1009=
201905032030 METAR LRTM 032030Z AUTO VRB01KT 9999 BKN095/// 11/08 Q1009=
201905032100 METAR LRTM 032100Z AUTO 33007KT 310V010 9999 FEW098/// 11/08
                        Q1009=
201905032130 METAR LRTM 032130Z AUTO 00000KT 9999 OVC120/// 10/07 Q1010=
201905032200 METAR LRTM 032200Z AUTO 10003KT 4700 BR FEW080/// SCT100///
                        09/07 Q1009=
201905032230 METAR LRTM 032230Z AUTO VRB02KT 9999 SCT081/// 09/07 Q1010=
201905032300 METAR LRTM 032300Z AUTO 08003KT 4400 BR BKN076/// 09/08 Q1010=
201905032330 METAR LRTM 032330Z AUTO VRB02KT 7000 BKN072/// BKN091///
                        10/08 Q1010=
201905040000 METAR LRTM 040000Z AUTO 09002KT 7000 -SHRA BKN065/// SCT100///
                        10/08 Q1010=
201905040030 METAR LRTM 040030Z AUTO 08005KT 4000 BR BKN078/// 09/08 Q1009=
201905040100 METAR LRTM 040100Z AUTO 07004KT 030V090 4900 BR OVC081///
                        09/08 Q1009=
201905040130 METAR LRTM 040130Z AUTO 06005KT 4900 BR OVC083/// 10/08 Q1010=
201905040200 METAR LRTM 040200Z AUTO 07005KT 4400 BR SCT090/// BKN110///
                        09/08 Q1009=
201905040230 METAR LRTM 040230Z AUTO 08003KT 9000 BKN090/// SCT110///
                        09/08 Q1009=
201905040300 METAR LRTM 040300Z AUTO 07005KT 7000 OVC087/// 09/08 Q1009=
201905040330 METAR LRTM 040330Z AUTO 06006KT 8000 OVC096/// 09/08 Q1009=
201905040400 METAR LRTM 040400Z AUTO 06004KT 9000 FEW072/// OVC091///
                        10/08 Q1009=
201905040430 METAR LRTM 040430Z AUTO 06005KT 9999 SCT089/// 10/08 Q1009=
201905040500 METAR LRTM 040500Z 07005KT CAVOK 12/10 Q1009=
201905040530 METAR LRTM 040530Z 08004KT CAVOK 12/09 Q1009=
201905040600 METAR LRTM 040600Z 07004KT 040V110 CAVOK 13/09 Q1009=
201905040630 METAR LRTM 040630Z 09005KT CAVOK 14/09 Q1009=
201905040700 METAR LRTM 040700Z 09006KT CAVOK 14/10 Q1009=
201905040730 METAR LRTM 040730Z 08005KT 040V110 9999 FEW020 15/09 Q1009=
201905040800 METAR LRTM 040800Z 11005KT 080V140 9999 FEW020 16/09 Q1009=
201905040830 METAR LRTM 040830Z VRB03KT 9999 FEW020 17/10 Q1009=
201905040900 METAR LRTM 040900Z VRB02KT 9999 FEW023 18/09 Q1008=
201905040930 METAR LRTM 040930Z 11005KT 040V180 9999 FEW028 19/09 Q1008=
201905041000 METAR LRTM 041000Z 08005KT 020V120 9999 FEW033 19/09 Q1008=
201905041030 METAR LRTM 041030Z VRB03KT 9999 FEW035 19/08 Q1007=
201905041100 METAR LRTM 041100Z VRB03KT 9999 FEW035 20/09 Q1007=
201905041130 METAR LRTM 041130Z 03004KT 310V090 9999 SCT042 21/08 Q1006=
201905041200 METAR LRTM 041200Z 14011KT 9999 SCT045 FEW045CB 20/09 Q1006=
201905041230 METAR LRTM 041230Z 12007KT 080V140 9999 SCT048 FEW048CB 21/09
                        Q1006 RETS=
201905041300 METAR LRTM 041300Z 14008KT 9999 FEW050CB 22/08 Q1005=
201905041330 METAR LRTM 041330Z 17008KT 140V210 9999 FEW050CB 22/07 Q1005=
201905041400 METAR LRTM 041400Z 13008KT 9999 FEW050CB 21/07 Q1004=
201905041430 METAR LRTM 041430Z 13005KT 9999 FEW050CB 21/09 Q1004=
201905041500 METAR LRTM 041500Z 14003KT 100V180 9999 FEW050CB 21/07 Q1004=
201905041530 METAR LRTM 041530Z 00000KT 9999 FEW050TCU 21/08 Q1004=
201905041600 METAR LRTM 041600Z 10001KT 9999 FEW047CB 20/09 Q1003=
201905041630 METAR LRTM 041630Z 07004KT 9999 FEW047 19/10 Q1003=
201905041700 METAR LRTM 041700Z 09003KT CAVOK 19/10 Q1004=
201905041730 METAR LRTM 041730Z AUTO 15006KT 9999 BKN095/// 19/07 Q1004=
201905041800 METAR LRTM 041800Z AUTO 16008KT 9999 FEW082/// SCT200///
                        18/07 Q1004=
201905041830 METAR LRTM 041830Z AUTO 16009KT 9999 SCT170/// 17/07 Q1004=
201905041900 METAR LRTM 041900Z AUTO VRB02KT 9999 FEW170/// 16/08 Q1004=
201905041930 METAR LRTM 041930Z AUTO VRB02KT 9999 SCT160/// 16/07 Q1004=
201905042000 METAR LRTM 042000Z AUTO 09006KT 8000 FEW096/// BKN150///
                        14/09 Q1004=
201905042030 METAR LRTM 042030Z AUTO 08004KT 8000 FEW140/// 14/10 Q1004=
201905042100 METAR LRTM 042100Z AUTO 09003KT 8000 SCT083/// 14/10 Q1004=
201905042130 METAR LRTM 042130Z AUTO 10005KT 010V140 6000 RA BKN069///
                        14/10 Q1004=
201905042200 METAR LRTM 042200Z AUTO 09004KT 030V130 8000 -SHRA SCT061///
                        BKN077/// 15/09 Q1004=
201905042230 METAR LRTM 042230Z AUTO VRB03KT 9999 -SHRA BKN067/// 14/10
                        Q1004=
201905042300 METAR LRTM 042300Z AUTO VRB02KT 9999 -SHRA OVC069/// 13/10
                        Q1004=
201905042330 METAR LRTM 042330Z AUTO 31003KT 260V340 9999 OVC070/// 13/11
                        Q1003 RERA=
201905050000 METAR LRTM 050000Z AUTO 08006KT 020V100 8000 BKN067/// 13/11
                        Q1003=
201905050030 METAR LRTM 050030Z AUTO 07004KT 9000 FEW067/// SCT140///
                        13/11 Q1003=
201905050100 METAR LRTM 050100Z AUTO 07005KT 7000 SCT150/// 12/11 Q1003=
201905050130 METAR LRTM 050130Z AUTO 07006KT 6000 SCT089/// SCT130///
                        12/11 Q1002=
201905050200 METAR LRTM 050200Z AUTO 07006KT 6000 FEW088/// BKN130///
                        12/11 Q1002=
201905050230 METAR LRTM 050230Z AUTO 05004KT 8000 BKN140/// 12/11 Q1002=
201905050300 METAR LRTM 050300Z AUTO 06003KT 030V100 7000 BKN110/// 12/11
                        Q1002=
201905050330 METAR LRTM 050330Z AUTO 08003KT 6000 SCT092/// SCT150///
                        12/11 Q1002=
201905050400 METAR LRTM 050400Z AUTO 08003KT 040V110 7000 BKN083/// 12/11
                        Q1002=
201905050430 METAR LRTM 050430Z AUTO 08004KT 6000 SCT079/// 13/11 Q1002=
201905050500 METAR LRTM 050500Z 07003KT CAVOK 13/12 Q1002=
201905050530 METAR LRTM 050530Z 07005KT CAVOK 14/11 Q1002=
201905050600 METAR LRTM 050600Z 07004KT CAVOK 15/12 Q1002 R07/19//95=
201905050630 METAR LRTM 050630Z 06003KT 020V100 CAVOK 16/11 Q1002 R07/19//95=
201905050700 METAR LRTM 050700Z 09004KT 050V140 CAVOK 16/10 Q1002 R07/19//95=
201905050730 METAR LRTM 050730Z 16003KT 120V210 CAVOK 17/09 Q1002 R07/19//95=
201905050800 METAR LRTM 050800Z VRB02KT CAVOK 18/10 Q1002 R07/CLRD//=
201905050830 METAR LRTM 050830Z 14007KT 100V170 CAVOK 18/09 Q1002=
201905050900 METAR LRTM 050900Z 13005KT 100V160 CAVOK 18/09 Q1002=
201905050930 METAR LRTM 050930Z 13005KT 090V170 CAVOK 19/09 Q1002=
201905051000 METAR LRTM 051000Z 17004KT 090V220 9999 SCT047 19/09 Q1002=
201905051030 METAR LRTM 051030Z 20004KT 160V240 9999 SCT045 19/10 Q1002=
201905051100 METAR LRTM 051100Z 23007KT 9999 -RA BKN045 18/12 Q1003=
201905051130 METAR LRTM 051130Z 23009KT 9999 -SHRA FEW040CB BKN045 17/11
                        Q1003=
201905051200 METAR LRTM 051200Z 22011KT 9999 -SHRA FEW040CB BKN042 16/12
                        Q1003 R07/29//95=
201905051230 METAR LRTM 051230Z 26006KT 9999 -SHRA FEW040CB BKN042 16/12
                        Q1003 R07/29//95=
201905051300 METAR LRTM 051300Z 26006KT 9999 -SHRA FEW042CB SCT044 16/12
                        Q1003 R07/29//95=
201905051330 METAR LRTM 051330Z 26004KT 200V350 9999 FEW042CB SCT044 18/12
                        Q1003 R07/29//95=
201905051400 METAR LRTM 051400Z VRB02KT 9999 -SHRA FEW041CB SCT043 17/11
                        Q1003 R07/29//95=
201905051430 METAR LRTM 051430Z VRB02KT 9999 -SHRA FEW042CB BKN044 17/12
                        Q1003 R07/29//95=
201905051500 METAR LRTM 051500Z 15005KT 120V190 9000 -RA SCT043 17/12
                        Q1003 R07/29//95=
201905051530 METAR LRTM 051530Z 12004KT 9999 -RA SCT043 17/12 Q1003 R07/29//95=
201905051600 METAR LRTM 051600Z 07005KT 9999 -RA SCT042 16/13 Q1003 R07/29//95=
201905051630 METAR LRTM 051630Z 08005KT 9999 SCT043 16/13 Q1003 R07/29//95=
201905051700 METAR LRTM 051700Z 09003KT 050V110 9999 SCT044 16/13 Q1003
                        R07/29//95=
201905051730 METAR LRTM 051730Z AUTO 07002KT 9999 SCT062/// SCT120///
                        16/13 Q1003 RERA=
201905051800 METAR LRTM 051800Z AUTO 00000KT 9999 -SHRA FEW065/// OVC085///
                        15/13 Q1003=
201905051830 METAR LRTM 051830Z AUTO 00000KT 9999 -SHRA SCT086/// 15/13
                        Q1003=
201905051900 METAR LRTM 051900Z AUTO 00000KT 9999 OVC086/// 15/13 Q1003
                        RERA=
201905051930 METAR LRTM 051930Z AUTO 00000KT 7000 OVC086/// 14/13 Q1003
                        REDZ=
201905052000 METAR LRTM 052000Z AUTO 25002KT 7000 BKN078/// 14/13 Q1003=
201905052030 METAR LRTM 052030Z AUTO VRB01KT 5000 RA SCT083/// 14/13 Q1003=
201905052100 METAR LRTM 052100Z AUTO 09003KT 5000 RA OVC083/// 14/13 Q1003=
201905052130 METAR LRTM 052130Z AUTO 08004KT 4200 RA SCT078/// 14/13 Q1003=
201905052200 METAR LRTM 052200Z AUTO 09003KT 4500 SHRA FEW040/// BKN074///
                        14/13 Q1003=
201905052230 METAR LRTM 052230Z AUTO 19003KT 150V220 4300 BKN047/// SCT074///
                        14/13 Q1002 RERA=
201905052300 METAR LRTM 052300Z AUTO 22004KT 3200 R07/2000 -SHRA FEW003///
                        BKN045/// 14/13 Q1002=
201905052330 METAR LRTM 052330Z AUTO 22004KT 180V250 4700 RA SCT031///
                        SCT040/// 14/13 Q1002=
201905060000 METAR LRTM 060000Z AUTO VRB02KT 3500 RA FEW036/// SCT060///
                        13/13 Q1002=
201905060030 METAR LRTM 060030Z AUTO 00000KT 3300 R07/2000 -DZ BKN058///
                        SCT073/// 13/13 Q1002=
201905060100 METAR LRTM 060100Z AUTO VRB01KT 3100 R07/2000 DZ SCT054///
                        BKN074/// 13/13 Q1001=
201905060130 METAR LRTM 060130Z AUTO VRB02KT 3300 -SHRA OVC054/// 13/13
                        Q1002=
201905060200 METAR LRTM 060200Z AUTO 00000KT 2600 -SHRA FEW010/// OVC053///
                        13/13 Q1002=
201905060230 METAR LRTM 060230Z AUTO 00000KT 3000 R07/2000 -SHRA FEW008///
                        OVC051/// 13/13 Q1002=
201905060300 METAR LRTM 060300Z AUTO VRB01KT 7000 FEW004/// BKN055///
                        13/13 Q1002 REDZ=
201905060330 METAR LRTM 060330Z AUTO 19003KT 9999 BKN059/// SCT081///
                        13/12 Q1002=
201905060400 METAR LRTM 060400Z AUTO 19004KT 160V220 9999 FEW059/// BKN080///
                        13/12 Q1002=
201905060430 METAR LRTM 060430Z AUTO VRB02KT 9999 FEW036/// BKN079///
                        13/12 Q1002=
201905060500 METAR LRTM 060500Z VRB02KT 9999 FEW006 14/13 Q1002 R07/29//95=
201905060530 METAR LRTM 060530Z 21003KT 140V250 9999 FEW006 SCT012 15/12
                        Q1002 R07/29//95=
201905060600 METAR LRTM 060600Z 19003KT 130V230 9999 FEW009 15/13 Q1002
                        R07/29//95=
201905060630 METAR LRTM 060630Z 20005KT 160V230 9999 FEW013 17/12 Q1002
                        R07/29//95=
201905060700 METAR LRTM 060700Z 18006KT 150V230 9999 FEW018 17/13 Q1002
                        R07/29//95=
201905060730 METAR LRTM 060730Z 21008KT 170V230 9999 FEW015 17/13 Q1003
                        R07/29//95=
201905060800 METAR LRTM 060800Z 24009KT 9999 SCT018 18/13 Q1002 R07/CLRD//=
201905060830 METAR LRTM 060830Z 22008KT 180V250 9999 SCT020 17/12 Q1002=
201905060900 METAR LRTM 060900Z 24008KT 210V290 9999 SCT022 18/13 Q1002=
201905060930 METAR LRTM 060930Z 23009KT 9999 SCT022 18/13 Q1002=
201905061000 METAR LRTM 061000Z 23010KT 9999 SCT025 FEW025CB 18/12 Q1002=
201905061030 METAR LRTM 061030Z 22011KT 190V250 9999 SCT027 FEW027CB 19/12
                        Q1002=
201905061100 METAR LRTM 061100Z 23014KT 200V260 9999 FEW023 FEW025CB 18/12
                        Q1002=
201905061130 METAR LRTM 061130Z 25011KT 9999 FEW025 FEW027CB 18/12 Q1002=
201905061200 METAR LRTM 061200Z 23014KT 9999 FEW026 FEW028CB 18/12 Q1002=
201905061230 METAR LRTM 061230Z 24015KT 9999 SCT024 FEW026CB 16/12 Q1003=
201905061300 METAR LRTM 061300Z 26009KT 9999 BKN023 FEW025CB 16/11 Q1003=
201905061330 METAR LRTM 061330Z 32014KT 9999 BKN020 FEW025CB 15/11 Q1003=
201905061400 METAR LRTM 061400Z 33013KT 9999 FEW011 BKN022 SCT026CB 14/10
                        Q1003=
201905061430 METAR LRTM 061430Z 33014KT 9999 SCT014 BKN024 SCT026CB 14/10
                        Q1003=
201905061500 METAR COR LRTM 061500Z 34012KT 310V010 9999 SCT014 BKN024
                        FEW026CB 13/09 Q1004=
201905061530 METAR LRTM 061530Z 33010KT 290V360 9999 SCT014 BKN024 FEW026CB
                        12/09 Q1004=
201905061600 METAR LRTM 061600Z 33012KT 9999 -SHRA SCT015 BKN026 SCT030CB
                        12/08 Q1003=
201905061630 METAR LRTM 061630Z 32008KT 280V350 9999 SCT017 SCT030CB BKN039
                        11/08 Q1005=
201905061700 METAR LRTM 061700Z 28007KT 240V320 7000 SHRA BKN015 SCT030CB
                        BKN033 11/08 Q1005=
201905061730 METAR LRTM 061730Z AUTO 31006KT 270V340 6000 +RA FEW016///
                        SCT019/// BKN022/// 10/08 Q1005=
201905061800 METAR LRTM 061800Z AUTO 29007KT 260V340 9999 RA FEW024///
                        SCT043/// BKN049/// 10/08 Q1005=
201905061830 METAR LRTM 061830Z AUTO 29006KT 240V340 9999 -RA SCT039///
                        BKN049/// 10/08 Q1005=
201905061900 METAR LRTM 061900Z AUTO 27008KT 240V310 9999 -DZ SCT039///
                        BKN050/// 09/07 Q1005=
201905061930 METAR LRTM 061930Z AUTO 27008KT 240V300 9999 -SHRA FEW009///
                        BKN039/// 09/07 Q1005=
201905062000 METAR LRTM 062000Z AUTO 27006KT 240V300 9999 -SHRA FEW009///
                        BKN012/// 09/07 Q1006=
201905062030 METAR LRTM 062030Z AUTO 29006KT 250V320 9999 -RA FEW009///
                        BKN013/// 09/07 Q1005=
201905062100 METAR LRTM 062100Z AUTO 29008KT 260V320 9999 DZ FEW013///
                        OVC042/// 08/06 Q1005=
201905062130 METAR LRTM 062130Z AUTO 30013KT 9000 -RA FEW024/// BKN036///
                        08/06 Q1005=
201905062200 METAR LRTM 062200Z AUTO 31010KT 9999 -RA FEW022/// SCT035///
                        BKN042/// 08/06 Q1005=
201905062230 METAR LRTM 062230Z AUTO 31014KT 9000 RA OVC022/// 07/05 Q1005=
201905062300 METAR LRTM 062300Z AUTO 31014KT 290V350 9999 RA BKN024///
                        OVC043/// 07/05 Q1006=
201905062330 METAR LRTM 062330Z AUTO 31011KT 8000 RA BKN026/// OVC030///
                        07/05 Q1006=
201905070000 METAR LRTM 070000Z AUTO 29008KT 260V330 9999 -RA FEW032///
                        OVC045/// 07/05 Q1006=
201905070030 METAR LRTM 070030Z AUTO 29013KT 9999 RA BKN040/// OVC046///
                        06/04 Q1006=
201905070100 METAR LRTM 070100Z AUTO 29010KT 250V320 9999 RA OVC041///
                        06/04 Q1006=
201905070130 METAR LRTM 070130Z AUTO 28010KT 240V310 8000 RA FEW011///
                        BKN039/// 06/04 Q1006=
201905070200 METAR LRTM 070200Z AUTO 28009KT 250V310 9999 RA FEW011///
                        SCT014/// 06/04 Q1006=
201905070230 METAR LRTM 070230Z AUTO 27009KT 240V300 9999 RA FEW010///
                        BKN013/// 06/04 Q1006=
201905070300 METAR LRTM 070300Z AUTO 27012KT 9999 RA FEW012/// BKN016///
                        05/03 Q1007=
201905070330 METAR LRTM 070330Z AUTO 28011KT 9999 RA FEW012/// BKN016///
                        OVC022/// 05/03 Q1007=
201905070400 METAR LRTM 070400Z AUTO 28011KT 250V310 9999 RA FEW012///
                        BKN015/// OVC021/// 05/03 Q1007=
201905070430 METAR LRTM 070430Z AUTO 28010KT 9999 RA SCT013/// BKN016///
                        OVC020/// 05/03 Q1007=
201905070500 METAR COR LRTM 070500Z 27010KT 8000 -RA SCT015 BKN032 OVC045
                        05/03 Q1008 R07/29//95=
201905070530 METAR LRTM 070530Z 28010KT 250V310 8000 -SHRA FEW009 BKN015
                        SCT024CB 04/03 Q1008 R07/29//95=
201905070600 METAR LRTM 070600Z 27012KT 8000 -SHRA FEW009 BKN016 SCT024CB
                        04/02 Q1008 R07/29//95=
201905070630 METAR LRTM 070630Z 27009KT 8000 -SHRA SCT008 BKN015 SCT025
                        05/03 Q1008 R07/29//95=
201905070700 METAR LRTM 070700Z 28010KT 9000 -SHRA FEW011 BKN014 SCT024CB
                        05/03 Q1008 R07/29//95=
201905070730 METAR LRTM 070730Z 29014KT 260V320 9999 -SHRA FEW011 BKN014
                        SCT025CB 05/02 Q1009 R07/29//95=
201905070800 METAR LRTM 070800Z 29013KT 9999 -SHRA FEW011 BKN014 SCT025CB
                        05/02 Q1009 R07/29//95=
201905070830 METAR LRTM 070830Z 28010KT 250V310 9999 -SHRA FEW011 BKN015
                        SCT026CB 05/03 Q1009 R07/29//95=
201905070900 METAR LRTM 070900Z 30010KT 270V330 9999 -SHRA FEW010 BKN013
                        SCT024CB 06/03 Q1009 R07/29//95=
201905070930 METAR LRTM 070930Z 29012KT 9999 -SHRA FEW010 BKN013 SCT024CB
                        06/04 Q1010 R07/29//95=
201905071000 METAR LRTM 071000Z 30011KT 270V330 9000 -SHRA FEW009 BKN014
                        SCT025CB 06/04 Q1010 R07/29//95=
201905071030 METAR LRTM 071030Z 30010KT 270V330 9999 -SHRA FEW011 BKN017
                        SCT025CB 06/04 Q1010 R07/29//95=
201905071100 METAR LRTM 071100Z 30009KT 270V340 9999 -SHRA FEW012 BKN017
                        SCT027CB 07/04 Q1010 R07/29//95=
201905071130 METAR LRTM 071130Z 30010KT 260V330 9000 -SHRA FEW012 BKN018
                        SCT027CB 06/04 Q1010 R07/29//95=
201905071200 METAR LRTM 071200Z 31012KT 270V330 9999 -SHRA FEW015 BKN019
                        SCT028CB 06/04 Q1011 R07/29//95=
201905071230 METAR LRTM 071230Z 31014KT 270V330 9999 -SHRA FEW012 BKN019
                        SCT027CB 07/04 Q1011 R07/29//95=
201905071300 METAR LRTM 071300Z 30012KT 270V340 9999 -RA SCT015 BKN019
                        OVC030 07/04 Q1011 R07/29//95=
201905071330 METAR LRTM 071330Z 31011KT 270V330 9999 -RA SCT016 BKN020
                        OVC031 07/04 Q1011 R07/29//95=
201905071400 METAR LRTM 071400Z 32014KT 280V350 9999 -RA FEW015 BKN020
                        OVC030 07/04 Q1011 R07/29//95=
201905071430 METAR LRTM 071430Z 32015KT 9999 SCT016 BKN021 OVC035 07/04
                        Q1012 R07/29//95=
201905071500 METAR LRTM 071500Z 32016KT 9999 -RA SCT016 BKN030 07/04 Q1012
                        R07/29//95=
201905071530 METAR LRTM 071530Z 31017KT 9999 SCT015 BKN033 07/03 Q1012
                        R07/29//95=
201905071600 METAR LRTM 071600Z 31015KT 9999 SCT012 BKN028 FEW030CB 07/04
                        Q1012 R07/29//95=
201905071630 METAR LRTM 071630Z 32013KT 9999 -RA SCT014 BKN030 FEW033CB
                        07/04 Q1013 R07/29//95=
201905071700 METAR LRTM 071700Z 32011KT 9999 FEW015 SCT033 FEW035CB 07/04
                        Q1013 R07/29//95=
201905071730 METAR LRTM 071730Z AUTO 29008KT 260V330 9999 DZ OVC037///
                        07/04 Q1013=
201905071800 METAR LRTM 071800Z AUTO 30007KT 250V330 9999 OVC043/// 07/03
                        Q1014 REDZ=
201905071830 METAR LRTM 071830Z AUTO 27004KT 220V320 9999 -SHRA OVC047///
                        06/04 Q1014=
201905071900 METAR LRTM 071900Z AUTO VRB03KT 9999 FEW019/// SCT038///
                        BKN052/// 06/04 Q1014 REDZ=
201905071930 METAR LRTM 071930Z AUTO 29005KT 250V330 9999 OVC036/// 07/03
                        Q1015=
201905072000 METAR LRTM 072000Z AUTO 24005KT 9999 FEW022/// OVC034///
                        06/04 Q1015=
201905072030 METAR LRTM 072030Z AUTO 25005KT 9999 OVC036/// 06/04 Q1015=
201905072100 METAR LRTM 072100Z AUTO 24005KT 9999 OVC038/// 06/04 Q1015
                        REUP=
201905072130 METAR LRTM 072130Z AUTO 25006KT 9999 FEW043/// OVC056///
                        06/04 Q1015=
201905072200 METAR LRTM 072200Z AUTO 24006KT 9999 OVC061/// 06/04 Q1015=
201905072230 METAR LRTM 072230Z AUTO 25004KT 9999 SCT048/// OVC069///
                        06/04 Q1015=
201905072300 METAR LRTM 072300Z AUTO 25005KT 9999 FEW047/// OVC082///
                        06/04 Q1015=
201905072330 METAR LRTM 072330Z AUTO 26004KT 9999 SCT044/// SCT056///
                        BKN083/// 06/04 Q1015=
201905080000 METAR LRTM 080000Z AUTO 25003KT 9999 SCT046/// OVC075///
                        06/04 Q1015=
201905080030 METAR LRTM 080030Z AUTO 24004KT 9999 FEW064/// OVC083///
                        06/04 Q1015=
201905080100 METAR LRTM 080100Z AUTO 25004KT 9999 SCT057/// OVC074///
                        06/04 Q1015=
201905080130 METAR LRTM 080130Z AUTO 25003KT 9999 FEW057/// OVC074///
                        06/04 Q1015=
201905080200 METAR LRTM 080200Z AUTO 24004KT 9999 SCT066/// BKN089///
                        05/04 Q1015=
201905080230 METAR LRTM 080230Z AUTO 24004KT 9999 FEW041/// OVC062///
                        06/04 Q1016=
201905080300 METAR LRTM 080300Z AUTO 25003KT 9999 FEW037/// OVC062///
                        06/04 Q1016=
201905080330 METAR LRTM 080330Z 24004KT 9999 FEW012 SCT037 06/04 Q1016
                        R07/29//95=
201905080400 METAR LRTM 080400Z 25003KT 9999 FEW012 SCT037 06/05 Q1016
                        R07/29//95=
201905080430 METAR LRTM 080430Z 23003KT 9999 FEW013 SCT039 07/04 Q1016
                        R07/19//95=
201905080500 METAR LRTM 080500Z 27004KT 9999 FEW015 SCT042 07/04 Q1016
                        R07/19//95=
201905080530 METAR LRTM 080530Z 24004KT 9999 FEW017 SCT042 07/04 Q1016
                        R07/19//95=
201905080600 METAR LRTM 080600Z 26004KT 9999 FEW014 SCT027 07/04 Q1016
                        R07/19//95=
201905080630 METAR LRTM 080630Z 26004KT 240V300 9999 FEW015 SCT027 08/04
                        Q1016 R07/19//95=
201905080700 METAR LRTM 080700Z 30004KT 260V340 9999 FEW018 08/04 Q1016
                        R07/19//95=
201905080730 METAR LRTM 080730Z 29005KT 250V330 9999 FEW020 09/04 Q1017
                        R07/CLRD//=
201905080800 METAR LRTM 080800Z 29005KT 250V340 9999 FEW020 10/05 Q1017=
201905080830 METAR LRTM 080830Z 30006KT 250V360 9999 FEW026 10/04 Q1017=
201905080900 METAR LRTM 080900Z 30006KT 220V340 9999 FEW026 11/04 Q1017=
201905080930 METAR LRTM 080930Z 30004KT 220V360 9999 FEW027 12/05 Q1017=
201905081000 METAR LRTM 081000Z 29006KT 230V330 9999 SCT033 12/05 Q1017=
201905081030 METAR LRTM 081030Z 25005KT 200V350 9999 SCT033 13/05 Q1016=
201905081100 METAR LRTM 081100Z VRB04KT 9999 SCT037 13/04 Q1016=
201905081130 METAR LRTM 081130Z 26004KT 190V360 9999 SCT037 13/03 Q1016=
201905081200 METAR LRTM 081200Z 32005KT 240V360 9999 BKN043 14/03 Q1016=
201905081230 METAR LRTM 081230Z 33006KT 300V360 9999 SCT045 13/03 Q1016=
201905081300 METAR LRTM 081300Z 33006KT 280V010 9999 SCT045 13/03 Q1015=
201905081330 METAR LRTM 081330Z 32007KT 9999 SCT042 13/02 Q1015=
201905081400 METAR LRTM 081400Z 33005KT 290V350 9999 SCT042 13/03 Q1015=
201905081430 METAR LRTM 081430Z 33005KT 290V360 9999 SCT042 13/03 Q1015=
201905081500 METAR LRTM 081500Z 34003KT 310V010 9999 FEW040 13/03 Q1015=
201905081530 METAR LRTM 081530Z VRB02KT 9999 FEW040 13/03 Q1015=
201905081600 METAR LRTM 081600Z VRB02KT 9999 FEW040 13/03 Q1015=
201905081630 METAR LRTM 081630Z AUTO 36001KT 9999 OVC073/// 13/03 Q1015=
201905081700 METAR LRTM 081700Z AUTO VRB01KT 9999 BKN075/// 12/05 Q1015=
201905081730 METAR LRTM 081730Z AUTO 12004KT 9999 OVC071/// 11/06 Q1015=
201905081800 METAR LRTM 081800Z AUTO 13003KT 9999 OVC070/// 10/06 Q1015=
201905081830 METAR LRTM 081830Z AUTO 17004KT 9999 OVC072/// 10/06 Q1015=
201905081900 METAR LRTM 081900Z AUTO VRB01KT 9999 FEW074/// 10/06 Q1015=
201905081930 METAR LRTM 081930Z AUTO 00000KT 9999 NCD 08/05 Q1015=
201905082000 METAR LRTM 082000Z AUTO 08002KT 9999 NCD 07/05 Q1015=
201905082030 METAR LRTM 082030Z AUTO 06003KT 9999 NCD 06/04 Q1015=
201905082100 METAR LRTM 082100Z AUTO 08006KT 9000 NCD 05/04 Q1015=
201905082130 METAR LRTM 082130Z AUTO 08006KT 7000 NCD 05/04 Q1015=
201905082200 METAR LRTM 082200Z AUTO 10004KT 7000 NCD 05/04 Q1014=
201905082230 METAR LRTM 082230Z AUTO 09005KT 7000 NCD 04/03 Q1014=
201905082300 METAR LRTM 082300Z AUTO 10005KT 9000 NCD 04/03 Q1014=
201905082330 METAR LRTM 082330Z AUTO 10004KT 5000 BR NCD 03/02 Q1014=
201905090000 METAR LRTM 090000Z AUTO 09005KT 5000 BR NCD 03/02 Q1014=
201905090030 METAR LRTM 090030Z AUTO 07007KT 4600 BR NCD 03/02 Q1013=
201905090100 METAR LRTM 090100Z AUTO 10008KT 6000 NCD 04/03 Q1013=
201905090130 METAR LRTM 090130Z AUTO 09004KT 5000 BR NCD 03/02 Q1013=
201905090200 METAR LRTM 090200Z AUTO 10003KT 4700 BR NCD 02/01 Q1013=
201905090230 METAR LRTM 090230Z AUTO 09004KT 4100 BR NCD 02/01 Q1013=
201905090300 METAR LRTM 090300Z AUTO 10005KT 5000 BR NCD 02/02 Q1013=
201905090330 METAR LRTM 090330Z AUTO 09004KT 5000 BR NCD 02/02 Q1013=
201905090400 METAR LRTM 090400Z AUTO 09005KT 040V100 7000 NCD 03/02 Q1013=
201905090430 METAR LRTM 090430Z AUTO 08005KT 050V110 7000 NCD 04/03 Q1012=
201905090500 METAR LRTM 090500Z 08006KT 8000 FEW009 05/03 Q1012=
201905090530 METAR LRTM 090530Z 06005KT 030V090 9000 FEW010 06/04 Q1012=
201905090600 METAR LRTM 090600Z 06005KT 020V090 9000 FEW011 08/05 Q1011=
201905090630 METAR LRTM 090630Z 08005KT 050V110 CAVOK 10/06 Q1011=
201905090700 METAR LRTM 090700Z 09005KT 050V140 CAVOK 12/06 Q1011=
201905090730 METAR LRTM 090730Z 09005KT 060V130 CAVOK 13/05 Q1011=
201905090800 METAR LRTM 090800Z 09005KT 040V150 CAVOK 14/06 Q1010=
201905090830 METAR COR LRTM 090830Z 11006KT CAVOK 14/05 Q1010=
201905090900 METAR LRTM 090900Z 10005KT 040V180 CAVOK 15/04 Q1010=
201905090930 METAR LRTM 090930Z 14005KT 9999 FEW033 15/03 Q1009=
201905091000 METAR LRTM 091000Z 16005KT 100V210 9999 FEW034 15/03 Q1009=
201905091030 METAR LRTM 091030Z VRB03KT 9999 FEW036 16/04 Q1009=
201905091100 METAR LRTM 091100Z VRB03KT 9999 FEW036 17/03 Q1008=
201905091130 METAR LRTM 091130Z VRB05KT 9999 FEW037 18/04 Q1008=
201905091200 METAR LRTM 091200Z 23006KT 180V260 9999 FEW037 17/04 Q1007=
201905091230 METAR LRTM 091230Z 28003KT 9999 FEW038 17/02 Q1007=
201905091300 METAR LRTM 091300Z VRB02KT 9999 FEW038 18/03 Q1007=
201905091330 METAR LRTM 091330Z VRB03KT 9999 FEW040 18/04 Q1006=
201905091400 METAR LRTM 091400Z VRB02KT 9999 FEW040 17/04 Q1006=
201905091430 METAR LRTM 091430Z 33004KT 290V360 CAVOK 17/04 Q1006=
201905091500 METAR LRTM 091500Z 36003KT CAVOK 17/04 Q1006=
201905091530 METAR LRTM 091530Z 34003KT CAVOK 16/06 Q1005=
201905091600 METAR LRTM 091600Z 00000KT CAVOK 16/06 Q1005=
201905091630 METAR LRTM 091630Z 27006KT CAVOK 15/06 Q1005=
201905091700 METAR LRTM 091700Z 26006KT 220V290 CAVOK 15/06 Q1005=
201905091730 METAR LRTM 091730Z AUTO 24011KT 9999 BKN061/// 13/08 Q1006=
201905091800 METAR LRTM 091800Z AUTO 24012KT 9999 -SHRA BKN059/// SCT076///
                        12/08 Q1006=
201905091830 METAR LRTM 091830Z AUTO 25009KT 9999 -SHRA OVC052/// 11/08
                        Q1006=
201905091900 METAR LRTM 091900Z AUTO 26006KT 9999 -SHRA OVC049/// 11/08
                        Q1006=
201905091930 METAR LRTM 091930Z AUTO 25005KT 9999 DZ OVC054/// 10/09 Q1006=
201905092000 METAR LRTM 092000Z AUTO 25005KT 9999 DZ OVC053/// 10/08 Q1006=
201905092030 METAR LRTM 092030Z AUTO 25004KT 9999 -RA OVC049/// 10/09
                        Q1006=
201905092100 METAR LRTM 092100Z AUTO 25004KT 9000 -RA OVC047/// 10/08
                        Q1006=
201905092130 METAR LRTM 092130Z AUTO 25004KT 9000 RA OVC046/// 09/08 Q1006=
201905092200 METAR LRTM 092200Z AUTO 23002KT 8000 RA OVC044/// 09/08 Q1006=
201905092230 METAR LRTM 092230Z AUTO 00000KT 8000 RA BKN044/// 09/08 Q1006=
201905092300 METAR LRTM 092300Z AUTO 05001KT 8000 RA FEW014/// BKN045///
                        09/08 Q1006=
201905092330 METAR LRTM 092330Z AUTO 00000KT 8000 RA BKN013/// 09/08 Q1006=
201905100000 METAR LRTM 100000Z AUTO 07002KT 7000 -RA BKN012/// SCT016///
                        09/08 Q1006=
201905100030 METAR LRTM 100030Z AUTO 00000KT 8000 -RA BKN014/// 09/08
                        Q1006=
201905100100 METAR LRTM 100100Z AUTO 00000KT 7000 RA BKN013/// SCT017///
                        09/08 Q1005=
201905100130 METAR LRTM 100130Z AUTO VRB01KT 6000 RA SCT009/// BKN012///
                        09/08 Q1005=
201905100200 METAR LRTM 100200Z AUTO 26003KT 8000 RA FEW008/// BKN012///
                        09/08 Q1005=
201905100230 METAR LRTM 100230Z AUTO 28003KT 9999 -RA BKN014/// BKN041///
                        09/08 Q1006=
201905100300 METAR LRTM 100300Z AUTO 25002KT 6000 -RA FEW014/// OVC046///
                        09/08 Q1006=
201905100330 METAR LRTM 100330Z AUTO 25003KT 8000 DZ SCT018/// SCT023///
                        BKN046/// 09/08 Q1006=
201905100400 METAR LRTM 100400Z AUTO 25003KT 9999 -DZ FEW019/// BKN024///
                        09/09 Q1006=
201905100430 METAR LRTM 100430Z AUTO 24004KT 9999 -SHRA SCT015/// SCT028///
                        10/08 Q1006=
201905100500 METAR LRTM 100500Z 25004KT 9999 -RA SCT006 OVC018 10/08 Q1006=
201905100530 METAR LRTM 100530Z 25005KT 9999 -RA SCT006 BKN018 OVC040
                        10/08 Q1006 R07/29//95=
201905100600 METAR LRTM 100600Z 26004KT 9999 -RA SCT006 BKN018 OVC040
                        10/08 Q1007 R07/29//95=
201905100630 METAR LRTM 100630Z 26004KT 230V310 9999 -RA SCT006 BKN018
                        OVC040 10/08 Q1007 R07/29//95=
201905100700 METAR LRTM 100700Z 26004KT 230V290 9999 -RA SCT006 BKN014
                        OVC040 11/08 Q1007 R07/29//95=
201905100730 METAR LRTM 100730Z 28003KT 230V350 9999 -RA SCT008 BKN015
                        OVC040 11/09 Q1007 R07/29//95=
201905100800 METAR LRTM 100800Z 27005KT 240V310 9999 -RA SCT008 BKN015
                        OVC040 12/08 Q1007 R07/29//95=
201905100830 METAR LRTM 100830Z 25005KT 9999 -RA BKN013 OVC046 12/09 Q1007
                        R07/29//95=
201905100900 METAR LRTM 100900Z 25007KT 210V270 9999 -RA BKN013 OVC046
                        12/09 Q1007 R07/29//95=
201905100930 METAR LRTM 100930Z 26007KT 230V290 9999 -RA BKN013 OVC046
                        13/09 Q1008 R07/29//95=
201905101000 METAR LRTM 101000Z 27006KT 240V300 9999 -RA BKN013 OVC046
                        12/09 Q1008 R07/29//95=
201905101030 METAR LRTM 101030Z 26006KT 230V310 9999 -RA SCT015 BKN018
                        OVC040 13/10 Q1008 R07/29//95=
201905101100 METAR LRTM 101100Z 31007KT 260V340 9999 -SHRA SCT015 FEW025CB
                        OVC040 13/09 Q1008 R07/29//95=
201905101130 METAR LRTM 101130Z 26007KT 230V290 9999 FEW014 FEW025CB OVC040
                        14/10 Q1008 R07/29//95=
201905101200 METAR LRTM 101200Z 25007KT 220V280 9999 -SHRA FEW015 FEW026CB
                        OVC040 14/11 Q1008 R07/29//95=
201905101230 METAR LRTM 101230Z 25005KT 220V310 9999 FEW025CB BKN040 14/10
                        Q1008 R07/29//95=
201905101300 METAR LRTM 101300Z 32005KT 270V360 9999 -SHRA SCT020 SCT025CB
                        BKN040 14/09 Q1008 R07/29//95=
201905101330 METAR LRTM 101330Z 29007KT 260V330 9999 SCT021 SCT026CB BKN040
                        14/09 Q1008 R07/29//95=
201905101400 METAR LRTM 101400Z 30009KT 270V340 9999 -SHRA FEW025 SCT026CB
                        BKN045 14/09 Q1008 R07/29//95=
201905101430 METAR LRTM 101430Z 31008KT 9999 VCSH FEW025 BKN026CB OVC045
                        14/09 Q1008 R07/29//95=
201905101500 METAR LRTM 101500Z 28004KT 9999 VCSH FEW030 BKN035CB OVC046
                        14/10 Q1009 R07/CLRD//=
201905101530 METAR LRTM 101530Z 23004KT 9999 -SHRA FEW030 BKN035CB OVC046
                        13/11 Q1009=
201905101600 METAR LRTM 101600Z VRB06KT 9999 -SHRA FEW028 BKN035CB OVC045
                        13/10 Q1009 R07/29//95=
201905101630 METAR LRTM 101630Z 07007KT 9000 SHRA FEW012 BKN032CB OVC045
                        12/10 Q1009 R07/29//95=
201905101700 METAR LRTM 101700Z 10005KT 9000 -SHRA FEW015 BKN032CB OVC048
                        12/10 Q1009 R07/29//95=
201905101730 METAR LRTM 101730Z 19003KT 150V210 7000 SHRA FEW009 BKN032CB
                        OVC044 11/10 Q1010 R07/29//95=
201905101800 METAR LRTM 101800Z AUTO VRB01KT 8000 RA FEW014/// SCT033///
                        11/10 Q1010=
201905101830 METAR LRTM 101830Z AUTO 24002KT 6000 -RA FEW026/// SCT046///
                        11/10 Q1010=
201905101900 METAR LRTM 101900Z AUTO 00000KT 7000 -RA FEW020/// SCT052///
                        11/10 Q1011=
201905101930 METAR LRTM 101930Z AUTO 26003KT 9999 DZ FEW036/// SCT046///
                        BKN058/// 11/10 Q1011=
201905102000 METAR LRTM 102000Z AUTO 22002KT 9999 -DZ SCT049/// SCT086///
                        11/10 Q1011=
201905102030 METAR LRTM 102030Z AUTO 23004KT 9000 -SHRA FEW003/// SCT048///
                        11/10 Q1011=
201905102100 METAR LRTM 102100Z AUTO 24004KT 6000 -SHRA SCT053/// 11/10
                        Q1011=
201905102130 METAR LRTM 102130Z AUTO 25003KT 6000 DZ FEW047/// BKN059///
                        11/10 Q1011=
201905102200 METAR LRTM 102200Z AUTO 26003KT 8000 FEW061/// BKN130///
                        10/10 Q1011 REDZ=
201905102230 METAR LRTM 102230Z AUTO 25003KT 7000 SCT066/// SCT120///
                        10/09 Q1011 REDZ=
201905102300 METAR LRTM 102300Z AUTO 25003KT 9999 -SHRA BKN029/// BKN059///
                        10/10 Q1011=
201905102330 METAR LRTM 102330Z AUTO 25003KT 9000 BKN033/// SCT064///
                        10/10 Q1011=
201905110000 METAR LRTM 110000Z AUTO 26003KT 7000 BKN031/// SCT059///
                        10/10 Q1011=
201905110030 METAR LRTM 110030Z AUTO 25003KT 6000 SCT026/// SCT033///
                        10/10 Q1012=
201905110100 METAR LRTM 110100Z AUTO 23004KT 5000 BR FEW026/// SCT081///
                        10/09 Q1012=
201905110130 METAR LRTM 110130Z AUTO 25004KT 5000 BR FEW024/// OVC065///
                        10/09 Q1012=
201905110200 METAR LRTM 110200Z AUTO 24003KT 4800 BR FEW026/// SCT046///
                        BKN067/// 10/09 Q1012=
201905110230 METAR LRTM 110230Z AUTO 24005KT 5000 BR FEW050/// OVC076///
                        10/10 Q1012=
201905110300 METAR LRTM 110300Z AUTO 24005KT 5000 BR FEW039/// OVC073///
                        10/09 Q1012=
201905110330 METAR LRTM 110330Z AUTO 24004KT 6000 FEW036/// SCT047///
                        BKN074/// 10/09 Q1012=
201905110400 METAR LRTM 110400Z AUTO 24005KT 7000 SCT048/// BKN077///
                        10/10 Q1012=
201905110430 METAR LRTM 110430Z AUTO 24007KT 9000 OVC079/// 11/09 Q1013=
201905110500 METAR LRTM 110500Z 25006KT 9999 FEW008 SCT033 10/09 Q1013
                        R07/29//95=
201905110530 METAR LRTM 110530Z 22005KT 9999 FEW008 SCT034 12/10 Q1013
                        R07/29//95=
201905110600 METAR LRTM 110600Z 24006KT 9999 FEW009 SCT034 13/10 Q1013
                        R07/29//95=
201905110630 METAR LRTM 110630Z 23005KT 200V280 9999 FEW009 SC033 13/10
                        Q1014 R07/29//95=
201905110700 METAR LRTM 110700Z 25004KT 210V320 9999 FEW010 14/11 Q1014
                        R07/CLRD//=
201905110730 METAR LRTM 110730Z 29004KT 210V360 9999 FEW011 SCT025 15/11
                        Q1014=
201905110800 METAR LRTM 110800Z 29005KT 220V340 9999 FEW023 FEW025TCU
                        15/10 Q1014=
201905110830 METAR LRTM 110830Z VRB03KT 9999 SCT024 FEW026CB 16/10 Q1014=
201905110900 METAR LRTM 110900Z VRB02KT 9999 SCT025 FEW027CB 16/09 Q1014=
201905110930 METAR LRTM 110930Z VRB01KT 9999 FEW026 SCT028CB 17/10 Q1014=
201905111000 METAR LRTM 111000Z VRB04KT 9999 -SHRA FEW026 SCT028CB 17/10
                        Q1013=
201905111030 METAR LRTM 111030Z 36003KT 280V070 9999 SCT028 FEW030CB 17/10
                        Q1013=
201905111100 METAR LRTM 111100Z VRB03KT 9999 FEW032 SCT035CB 18/10 Q1013=
201905111130 METAR LRTM 111130Z 27004KT 190V350 9999 VCSH FEW033 SCT036CB
                        19/09 Q1013=
201905111200 METAR LRTM 111200Z VRB03KT 9999 TS VCSH SCT033 SCT036CB 19/08
                        Q1013=
201905111230 METAR LRTM 111230Z 23015KT 9999 TS VCSH SCT032 SCT035CB 16/09
                        Q1013=
201905111300 METAR LRTM 111300Z 31012KT 9999 -TSRA SCT028 BKN030CB 15/11
                        Q1014=
201905111330 METAR LRTM 111330Z 33012KT 9999 -TSRA FEW015 SCT027 SCT029CB
                        12/09 Q1015 R07/29//95=
201905111400 METAR LRTM 111400Z 33010KT 9000 SHRA FEW015 SCT030 SCT034CB
                        12/10 Q1014 R07/29//95=
201905111430 METAR LRTM 111430Z 33005KT 300V360 9999 -SHRA SCT033 FEW036CB
                        13/10 Q1015 RESHRA R07/29//95=
201905111500 METAR LRTM 111500Z VRB01KT 9999 SCT033 FEW037CB 14/10 Q1015
                        R07/29//95=
201905111530 METAR LRTM 111530Z 24003KT 200V280 9999 SCT033 FEW037CB 14/10
                        Q1015 R07/29//95=
201905111600 METAR LRTM 111600Z 23003KT 180V280 9999 SCT033 FEW037CB 15/11
                        Q1015 R07/29//95=
201905111630 METAR LRTM 111630Z 32003KT 260V020 9999 SCT037 16/10 Q1015
                        R07/29//95=
201905111700 METAR LRTM 111700Z 00000KT 9999 FEW037 15/10 Q1015 R07/29//95=
201905111730 METAR LRTM 111730Z AUTO VRB01KT 9999 FEW100/// 14/10 Q1015=
201905111800 METAR LRTM 111800Z AUTO 10005KT 9999 FEW100/// 12/10 Q1015=
201905111830 METAR LRTM 111830Z AUTO 05002KT 9999 NCD 12/10 Q1016=
201905111900 METAR LRTM 111900Z AUTO 05004KT 9999 NCD 10/09 Q1016=
201905111930 METAR LRTM 111930Z AUTO 08004KT 9999 NCD 10/09 Q1016=
201905112000 METAR LRTM 112000Z AUTO 08005KT 9999 NCD 08/08 Q1017=
201905112030 METAR LRTM 112030Z AUTO 08005KT 9000 FEW077/// 09/08 Q1017=
201905112100 METAR LRTM 112100Z AUTO 11003KT 9999 SCT090/// 09/08 Q1017=
201905112130 METAR LRTM 112130Z AUTO 08004KT 5000 BR FEW071/// SCT092///
                        08/07 Q1017=
201905112200 METAR LRTM 112200Z AUTO 09005KT 6000 NCD 08/07 Q1017=
201905112230 METAR LRTM 112230Z AUTO 10004KT 5000 BR NCD 08/07 Q1017=
201905112300 METAR LRTM 112300Z AUTO 09006KT 2800 BR NCD 07/06 Q1017=
201905112330 METAR LRTM 112330Z AUTO 12006KT 4600 BR NCD 08/07 Q1017=
201905120000 METAR LRTM 120000Z AUTO 09003KT 2200 BR NCD 07/06 Q1017=
201905120030 METAR LRTM 120030Z AUTO 09006KT 3900 NCD 07/06 Q1017=
201905120100 METAR LRTM 120100Z AUTO 09006KT 1400 R07/1000VP2000U FG FEW003///
                        07/06 Q1017=
201905120130 METAR LRTM 120130Z AUTO 09006KT 4100 FEW001/// 06/06 Q1017=
201905120200 METAR LRTM 120200Z AUTO 09006KT 3700 NCD 06/05 Q1017=
201905120230 METAR LRTM 120230Z AUTO 10004KT 4300 NCD 06/05 Q1017=
201905120300 METAR LRTM 120300Z AUTO 09005KT 2200 NCD 05/04 Q1017=
201905120330 METAR LRTM 120330Z 10005KT 4000 1500SE BR FEW002 06/05 Q1017
                        R07/29//95=
201905120400 METAR LRTM 120400Z 10005KT 4500 BR FEW003 07/06 Q1017 R07/CLRD//=
201905120430 METAR LRTM 120430Z 09005KT 7000 FEW004 08/07 Q1017=
201905120500 METAR LRTM 120500Z 08006KT 8000 FEW004 09/08 Q1018=
201905120530 METAR LRTM 120530Z 08006KT 050V110 8000 FEW007 11/08 Q1018=
201905120600 METAR LRTM 120600Z 07004KT 040V120 8000 FEW008 12/09 Q1018=
201905120630 METAR LRTM 120630Z 06004KT 010V100 9999 FEW012 13/10 Q1018=
201905120700 METAR LRTM 120700Z 06004KT 010V120 9999 FEW013 14/11 Q1018=
201905120730 METAR LRTM 120730Z 06004KT 030V140 9999 FEW026 15/11 Q1017=
201905120800 METAR LRTM 120800Z 09005KT 040V130 9999 FEW023 17/11 Q1017=
201905120830 METAR LRTM 120830Z 08004KT 020V120 9999 FEW025 18/12 Q1017=
201905120900 METAR LRTM 120900Z 08005KT 020V150 9999 FEW026 19/12 Q1017=
201905120930 METAR LRTM 120930Z 11005KT 040V180 9999 FEW026 20/10 Q1017=
201905121000 METAR LRTM 121000Z 09004KT 020V180 9999 FEW028 20/11 Q1017=
201905121030 METAR LRTM 121030Z 13006KT 070V160 9999 FEW028 21/11 Q1017=
201905121100 METAR LRTM 121100Z VRB04KT 9999 FEW028 22/10 Q1017=
201905121130 METAR LRTM 121130Z VRB04KT 9999 FEW032 22/10 Q1017=
201905121200 METAR LRTM 121200Z 16005KT 070V230 9999 FEW034 22/08 Q1017=
201905121230 METAR LRTM 121230Z 15006KT 110V170 9999 FEW036 22/07 Q1017=
201905121300 METAR LRTM 121300Z VRB02KT 9999 FEW037 23/08 Q1017=
201905121330 METAR LRTM 121330Z 11005KT 070V140 9999 FEW038 23/07 Q1016=
201905121400 METAR LRTM 121400Z 07004KT 010V110 9999 FEW038 23/07 Q1016=
201905121430 METAR LRTM 121430Z VRB02KT 9999 FEW038 22/07 Q1016=
201905121500 METAR LRTM 121500Z 13004KT 9999 FEW038 22/08 Q1016=
201905121530 METAR LRTM 121530Z VRB02KT 9999 FEW038 23/06 Q1016=
201905121600 METAR LRTM 121600Z 09003KT 050V130 9999 FEW035 23/09 Q1016=
201905121630 METAR LRTM 121630Z AUTO 07006KT 9999 NCD 20/10 Q1016=
201905121700 METAR LRTM 121700Z AUTO 09005KT 9999 NCD 19/11 Q1017=
201905121730 METAR LRTM 121730Z AUTO 10006KT 9999 NCD 19/10 Q1017=
201905121800 METAR LRTM 121800Z AUTO 12009KT 9999 FEW220/// 19/09 Q1017=
201905121830 METAR LRTM 121830Z AUTO 09006KT 060V120 9999 FEW190/// 17/10
                        Q1018=
201905121900 METAR LRTM 121900Z AUTO 06006KT 9999 FEW210/// 17/09 Q1018=
201905121930 METAR LRTM 121930Z AUTO 05003KT 360V110 9999 FEW210/// 16/09
                        Q1018=
201905122000 METAR LRTM 122000Z AUTO 05006KT 9999 SCT220/// 16/09 Q1018=
201905122030 METAR LRTM 122030Z AUTO 06005KT 030V100 9999 SCT190/// 16/09
                        Q1018=
201905122100 METAR LRTM 122100Z AUTO 04007KT 9999 SCT170/// 16/09 Q1018=
201905122130 METAR LRTM 122130Z AUTO 11003KT 9999 SCT170/// 14/09 Q1019=
201905122200 METAR LRTM 122200Z AUTO 09003KT 060V130 9999 NCD 14/09 Q1019=
201905122230 METAR LRTM 122230Z AUTO 07004KT 9999 NCD 13/08 Q1019=
201905122300 METAR LRTM 122300Z AUTO 07006KT 9999 FEW088/// 12/08 Q1019=
201905122330 METAR LRTM 122330Z AUTO 09003KT 060V120 9999 FEW190/// 12/08
                        Q1019=
201905130000 METAR LRTM 130000Z AUTO 11002KT 040V150 9999 NCD 11/08 Q1019=
201905130030 METAR LRTM 130030Z AUTO 24001KT 9999 NCD 11/08 Q1019=
201905130100 METAR LRTM 130100Z AUTO 00000KT 9999 NCD 10/08 Q1019=
201905130130 METAR LRTM 130130Z AUTO VRB02KT 9999 NCD 10/08 Q1019=
201905130200 METAR LRTM 130200Z AUTO 08003KT 9999 NCD 09/07 Q1019=
201905130230 METAR LRTM 130230Z AUTO 10003KT 9999 NCD 09/07 Q1019=
201905130300 METAR LRTM 130300Z AUTO 09005KT 9999 NCD 09/07 Q1019=
201905130330 METAR LRTM 130330Z AUTO 09005KT 9999 NCD 09/08 Q1020=
201905130400 METAR LRTM 130400Z AUTO 09005KT 9999 FEW220/// 11/09 Q1020=
201905130430 METAR LRTM 130430Z AUTO 07005KT 9999 NCD 12/09 Q1020=
201905130500 METAR LRTM 130500Z 07005KT 9999 FEW011 13/09 Q1020=
201905130530 METAR LRTM 130530Z 06004KT 9999 FEW011 14/10 Q1020=
201905130600 METAR LRTM 130600Z 07005KT 9999 FEW012 16/09 Q1020=
201905130630 METAR LRTM 130630Z 06003KT 010V100 CAVOK 17/11 Q1020=
201905130700 METAR LRTM 130700Z 09009KT 010V120 CAVOK 19/09 Q1020=
201905130730 METAR LRTM 130730Z 10015KT 9999 FEW032 20/09 Q1020=
201905130800 METAR LRTM 130800Z 11013KT 9999 FEW032 20/09 Q1020=
201905130830 METAR LRTM 130830Z 12014KT 9999 SCT033 21/09 Q1020=
201905130900 METAR LRTM 130900Z 12011KT 9999 SCT034 21/08 Q1020=
201905130930 METAR LRTM 130930Z 11011KT 080V140 9999 SCT034 22/10 Q1020=
201905131000 METAR LRTM 131000Z 11010KT 060V140 9999 SCT035 22/09 Q1020=
201905131030 METAR LRTM 131030Z 11010KT 080V140 9999 SCT035 23/09 Q1020=
201905131100 METAR LRTM 131100Z 11010KT 050V140 9999 SCT036 22/08 Q1020=
201905131130 METAR LRTM 131130Z 10009KT 070V150 9999 SCT036 23/08 Q1019=
201905131200 METAR LRTM 131200Z 08010KT 050V120 9999 SCT036 23/09 Q1019=
201905131230 METAR LRTM 131230Z 10009KT 060V140 9999 SCT036 23/08 Q1019=
201905131300 METAR LRTM 131300Z 12009KT 090V150 9999 SCT036 23/08 Q1018=
201905131330 METAR LRTM 131330Z 13010KT 9999 SCT037 23/07 Q1018=
201905131400 METAR LRTM 131400Z 09009KT 070V130 9999 SCT037 23/07 Q1018=
201905131430 METAR LRTM 131430Z 13010KT 9999 FEW037 23/07 Q1018=
201905131500 METAR LRTM 131500Z 12008KT 9999 FEW037 23/07 Q1018=
201905131530 METAR LRTM 131530Z 13008KT 9999 FEW038 22/08 Q1018=
201905131600 METAR LRTM 131600Z 10006KT 9999 FEW040 21/08 Q1018=
201905131630 METAR LRTM 131630Z 12006KT 9999 FEW040 21/09 Q1018=
201905131700 METAR LRTM 131700Z 12004KT 9999 FEW040 20/09 Q1018=
201905131730 METAR LRTM 131730Z AUTO 07004KT 9999 NCD 19/08 Q1018=
201905131800 METAR LRTM 131800Z AUTO 08003KT 9999 NCD 18/09 Q1018=
201905131830 METAR LRTM 131830Z AUTO 07004KT 9999 FEW240/// 16/10 Q1018=
201905131900 METAR LRTM 131900Z AUTO 08005KT 9999 FEW230/// 15/10 Q1019=
201905131930 METAR LRTM 131930Z AUTO 07005KT 9999 FEW240/// 15/09 Q1019=
201905132000 METAR LRTM 132000Z AUTO 07005KT 9999 FEW230/// 14/09 Q1019=
201905132030 METAR LRTM 132030Z AUTO 06005KT 9999 SCT180/// 14/09 Q1019=
201905132100 METAR LRTM 132100Z AUTO 08005KT 9999 BKN190/// 13/09 Q1019=
201905132130 METAR LRTM 132130Z AUTO 09005KT 9999 SCT160/// 13/09 Q1019=
201905132200 METAR LRTM 132200Z AUTO 08004KT 9999 OVC170/// 13/09 Q1019=
201905132230 METAR LRTM 132230Z AUTO 08005KT 9999 OVC160/// 12/09 Q1019=
201905132300 METAR LRTM 132300Z AUTO 10005KT 9999 OVC160/// 12/09 Q1018=
201905132330 METAR LRTM 132330Z AUTO 09006KT 9999 BKN160/// 12/09 Q1018=
201905140000 METAR LRTM 140000Z AUTO 09006KT 9999 BKN150/// 12/09 Q1018=
201905140030 METAR LRTM 140030Z AUTO 07005KT 9999 SCT150/// 11/09 Q1018=
201905140100 METAR LRTM 140100Z AUTO 07007KT 9999 OVC160/// 11/09 Q1017=
201905140130 METAR LRTM 140130Z AUTO 08009KT 9999 SCT150/// 12/09 Q1017=
201905140200 METAR LRTM 140200Z AUTO 11005KT 070V130 9999 BKN150/// 11/09
                        Q1017=
201905140230 METAR LRTM 140230Z AUTO 08005KT 9999 BKN150/// 11/09 Q1017=
201905140300 METAR LRTM 140300Z AUTO 08004KT 9999 FEW089/// BKN150///
                        11/09 Q1016=
201905140330 METAR LRTM 140330Z AUTO 07006KT 9999 FEW089/// BKN140///
                        12/09 Q1016=
201905140400 METAR LRTM 140400Z AUTO 12005KT 9999 FEW082/// SCT140///
                        12/10 Q1016 RERA=
201905140430 METAR LRTM 140430Z AUTO 18003KT 060V220 9999 -SHRA BKN067///
                        13/10 Q1016=
201905140500 METAR COR LRTM 140500Z 24005KT 9999 VCSH SCT017 SCT033CB
                        12/11 Q1017 R07/29//95=
201905140530 METAR LRTM 140530Z 22004KT 140V300 7000 3000SE SHRA FEW017
                        SCT031CB BKN040 12/11 Q1017 R07/29//95=
201905140600 METAR LRTM 140600Z 27003KT 210V320 9000 -SHRA FEW018 FEW036CB
                        BKN045 13/11 Q1017 RESHRA R07/29//95=
201905140630 METAR LRTM 140630Z 30003KT 250V350 9999 FEW019 SCT044 13/11
                        Q1017 R07/29//95=
201905140700 METAR LRTM 140700Z 26002KT 9999 FEW020 FEW035CB BKN048 14/12
                        Q1016 R07/29//95=
201905140730 METAR LRTM 140730Z 24004KT 9999 FEW020 SCT043 14/12 Q1016
                        R07/29//95=
201905140800 METAR LRTM 140800Z 24005KT 9999 -RA FEW020 BKN042 14/12 Q1016
                        R07/29//95=
201905140830 METAR LRTM 140830Z 24005KT 9999 -RA FEW017 SCT031 15/13 Q1016
                        R07/29//95=
201905140900 METAR LRTM 140900Z 25003KT 220V290 9999 FEW016 SCT043 15/12
                        Q1016 R07/29//95=
201905140930 METAR LRTM 140930Z VRB03KT 9999 FEW015 SCT043 16/12 Q1016
                        R07/29//95=
201905141000 METAR LRTM 141000Z VRB02KT 9999 FEW017 SCT045 17/12 Q1015
                        R07/29//95=
201905141030 METAR COR LRTM 141030Z 24002KT 120V290 9999 -SHRA FEW019
                        FEW033CB SCT049 16/13 Q1015 R07/29//95=
201905141100 METAR LRTM 141100Z 26005KT 9999 -RA FEW020 SCT033CB BKN045
                        16/13 Q1015 R07/29//95=
201905141130 METAR LRTM 141130Z 25007KT 6000 -SHRA FEW009 SCT026CB BKN040
                        15/13 Q1015 R07/29//95=
201905141200 METAR LRTM 141200Z 22006KT 5000 -SHRA VCTS FEW009 SCT025CB
                        BKN038 15/14 Q1015 RESHRA R07/29//95=
201905141230 METAR LRTM 141230Z 23007KT 4700 SHRA FEW012 SCT028CB BKN038
                        15/14 Q1015 R07/29//95=
201905141300 METAR LRTM 141300Z 24007KT 6000 -SHRA FEW012 SCT033CB BKN044
                        15/14 Q1015 RESHRA R07/29//95=
201905141330 METAR LRTM 141330Z 24004KT 210V270 7000 -SHRA FEW004 SCT010
                        SCT033CB 15/14 Q1015 R07/29//95=
201905141400 METAR LRTM 141400Z VRB02KT 9999 -SHRA SCT005 SCT033CB BKN045
                        15/13 Q1015 R07/29//95=
201905141430 METAR LRTM 141430Z VRB01KT 9999 SCT008 FEW033CB 16/13 Q1014
                        R07/29//95=
201905141500 METAR LRTM 141500Z 11006KT 9999 FEW010 FEW035CB 16/11 Q1014
                        R07/29//95=
201905141530 METAR LRTM 141530Z 10006KT 9999 FEW015 16/11 Q1014 R07/29//95=
201905141600 METAR LRTM 141600Z 07006KT 9999 FEW018 15/12 Q1014 R07/29//95=
201905141630 METAR LRTM 141630Z 10009KT 9999 FEW018 16/10 Q1014 R07/29//95=
201905141700 METAR LRTM 141700Z 10004KT 9999 FEW018 15/10 Q1014 R07/29//95=
201905141730 METAR LRTM 141730Z VRB02KT 9999 FEW018 15/11 Q1014 R07/29//95=
201905141800 METAR LRTM 141800Z AUTO 07003KT 9999 BKN067/// SCT130///
                        14/11 Q1014=
201905141830 METAR LRTM 141830Z AUTO 08006KT 9999 -RA OVC063/// 14/11
                        Q1014=
201905141900 METAR LRTM 141900Z AUTO 08007KT 9999 -RA OVC061/// 13/11
                        Q1014=
201905141930 METAR LRTM 141930Z AUTO 06007KT 9999 -RA OVC059/// 13/11
                        Q1014=
201905142000 METAR LRTM 142000Z AUTO 08007KT 9999 -SHRA OVC065/// 13/11
                        Q1014=
201905142030 METAR LRTM 142030Z AUTO 10004KT 9999 -SHRA BKN064/// BKN083///
                        13/11 Q1013=
201905142100 METAR LRTM 142100Z AUTO 08003KT 9999 OVC055/// 13/11 Q1013
                        RERA=
201905142130 METAR LRTM 142130Z AUTO 09003KT 9999 -SHRA OVC056/// 13/11
                        Q1013=
201905142200 METAR LRTM 142200Z AUTO 08006KT 9999 OVC065/// 13/12 Q1013
                        RERA=
201905142230 METAR LRTM 142230Z AUTO 05002KT 360V130 9999 -SHRA BKN062///
                        SCT078/// 13/11 Q1012=
201905142300 METAR LRTM 142300Z AUTO 12002KT 070V150 9999 BKN078/// SCT098///
                        13/11 Q1012 RERA=
201905142330 METAR LRTM 142330Z AUTO 09004KT 9000 BKN078/// 12/10 Q1012=
201905150000 METAR LRTM 150000Z AUTO 09003KT 9999 OVC075/// 12/11 Q1012=
201905150030 METAR LRTM 150030Z AUTO 09002KT 030V150 9000 -RA FEW077///
                        12/11 Q1012=
201905150100 METAR LRTM 150100Z AUTO 09004KT 9999 SCT078/// BKN099///
                        12/11 Q1012 RERA=
201905150130 METAR LRTM 150130Z AUTO 09005KT 9999 BKN097/// 11/10 Q1011
                        REDZ=
201905150200 METAR LRTM 150200Z AUTO 08005KT 9000 OVC091/// 11/10 Q1011=
201905150230 METAR LRTM 150230Z AUTO 09004KT 8000 BKN082/// 10/10 Q1011=
201905150300 METAR LRTM 150300Z AUTO 07002KT 7000 SCT081/// 11/10 Q1011=
201905150330 METAR LRTM 150330Z 07002KT 6000 MIFG FEW009 10/09 Q1011 R07/29//95=
201905150400 METAR LRTM 150400Z 07003KT 010V090 6000 MIFG FEW009 10/10
                        Q1011 R07/29//95=
201905150430 METAR LRTM 150430Z 08005KT 7000 MIFG FEW008 12/11 Q1011 R07/29//95=
201905150500 METAR LRTM 150500Z 08005KT 9999 FEW008 13/11 Q1011 R07/29//95=
201905150530 METAR LRTM 150530Z 06005KT 030V100 9999 FEW009 14/11 Q1011
                        R07/29//95=
201905150600 METAR LRTM 150600Z 07005KT 030V110 9999 FEW010 15/12 Q1011
                        R07/29//95=
201905150630 METAR LRTM 150630Z VRB03KT 9999 FEW012 16/12 Q1011 R07/29//95=
201905150700 METAR LRTM 150700Z VRB02KT 9999 FEW014 17/11 Q1011 R07/CLRD//=
201905150730 METAR LRTM 150730Z VRB02KT 9999 FEW030 19/12 Q1011=
201905150800 METAR LRTM 150800Z VRB02KT 9999 FEW030 19/13 Q1011=
201905150830 METAR LRTM 150830Z VRB02KT 9999 FEW030 20/13 Q1011=
201905150900 METAR LRTM 150900Z 23004KT 140V310 9999 FEW030 20/13 Q1010=
201905150930 METAR LRTM 150930Z VRB03KT 9999 FEW033 21/13 Q1010=
201905151000 METAR LRTM 151000Z 25005KT 190V300 9999 FEW033 21/14 Q1010=
201905151030 METAR LRTM 151030Z VRB04KT 9999 FEW033 21/12 Q1010=
201905151100 METAR LRTM 151100Z VRB04KT 9999 FEW033 FEW035TCU 22/12 Q1010=
201905151130 METAR LRTM 151130Z 24007KT 200V270 9999 FEW033 FEW036CB 22/13
                        Q1010=
201905151200 METAR LRTM 151200Z 25006KT 210V300 9999 SCT035 FEW037CB 22/13
                        Q1010=
201905151230 METAR LRTM 151230Z 27008KT 240V310 9999 SCT035 FEW037CB 21/13
                        Q1009=
201905151300 METAR LRTM 151300Z 27008KT 240V310 9999 FEW036 FEW038CB 22/14
                        Q1009=
201905151330 METAR LRTM 151330Z 26009KT 230V300 9999 VCTS FEW036 SCT038CB
                        22/12 Q1009=
201905151400 METAR LRTM 151400Z 27009KT 240V300 9999 VCTS FEW036 SCT038CB
                        22/13 Q1009=
201905151430 METAR LRTM 151430Z 25010KT 9999 VCTS FEW036 SCT038CB 22/14
                        Q1009=
201905151500 METAR LRTM 151500Z 25014KT 9999 TS VCSH FEW036 SCT040CB 20/13
                        Q1010=
201905151530 METAR LRTM 151530Z 25017KT 9999 TS VCSH SCT033 SCT040CB 19/12
                        Q1010=
201905151600 METAR LRTM 151600Z 25014KT 9999 FEW033 SCT045CB 18/11 Q1010
                        RETS=
201905151630 METAR LRTM 151630Z 24008KT 9999 FEW030 FEW045CB BKN048 17/10
                        Q1011=
201905151700 METAR LRTM 151700Z 26008KT 9999 VCSH SCT030 SCT045CB 17/10
                        Q1011=
201905151730 METAR LRTM 151730Z AUTO 27005KT 240V350 9999 FEW031/// SCT100///
                        16/12 Q1012=
201905151800 METAR LRTM 151800Z AUTO 31004KT 250V360 9999 BKN029/// SCT037///
                        16/12 Q1013=
201905151830 METAR LRTM 151830Z AUTO 27008KT 9999 SCT018/// SCT036///
                        15/11 Q1013=
201905151900 METAR LRTM 151900Z AUTO 29006KT 260V320 9999 SCT041/// SCT053///
                        14/11 Q1013=
201905151930 METAR LRTM 151930Z AUTO 32006KT 290V350 9999 -RA FEW041///
                        SCT052/// 14/11 Q1013=
201905152000 METAR LRTM 152000Z AUTO 32005KT 9999 SCT019/// SCT059///
                        13/11 Q1014 RERA=
201905152030 METAR LRTM 152030Z AUTO 27004KT 230V300 9999 BKN012/// 13/11
                        Q1014=
201905152100 METAR LRTM 152100Z AUTO 27004KT 230V320 9999 OVC011/// 13/11
                        Q1014=
201905152130 METAR LRTM 152130Z AUTO 27004KT 250V310 9999 BKN012/// 13/11
                        Q1014=
201905152200 METAR LRTM 152200Z AUTO 29004KT 240V350 9999 OVC012/// 13/11
                        Q1014=
201905152230 METAR LRTM 152230Z AUTO 29004KT 250V330 9999 OVC012/// 13/11
                        Q1014=
201905152300 METAR LRTM 152300Z AUTO 28004KT 250V310 9999 -DZ FEW009///
                        BKN012/// 13/11 Q1014=
201905152330 METAR LRTM 152330Z AUTO 32004KT 290V360 9999 -RA FEW011///
                        OVC014/// 13/10 Q1014=
201905160000 METAR LRTM 160000Z AUTO 33003KT 290V010 9999 OVC013/// 13/11
                        Q1014 RERA=
201905160030 METAR LRTM 160030Z AUTO 33003KT 290V360 9999 FEW008/// BKN011///
                        13/11 Q1014 RERA=
201905160100 METAR LRTM 160100Z AUTO VRB02KT 9999 FEW009/// BKN012///
                        13/11 Q1013=
201905160130 METAR LRTM 160130Z AUTO VRB02KT 9999 FEW008/// BKN009///
                        13/11 Q1013=
201905160200 METAR LRTM 160200Z AUTO 32003KT 270V350 9999 SCT009/// BKN012///
                        13/11 Q1013=
201905160230 METAR LRTM 160230Z AUTO VRB02KT 9999 FEW008/// BKN012///
                        12/11 Q1013=
201905160300 METAR LRTM 160300Z AUTO 27003KT 9999 FEW007/// BKN009///
                        12/11 Q1013=
201905160330 METAR LRTM 160330Z AUTO 27004KT 9999 BKN009/// 12/11 Q1013=
201905160400 METAR LRTM 160400Z AUTO 28004KT 250V310 9999 FEW007/// SCT008///
                        BKN009/// 13/11 Q1013=
201905160430 METAR LRTM 160430Z AUTO 28005KT 9999 FEW008/// BKN009///
                        13/11 Q1013=
201905160500 METAR LRTM 160500Z 29005KT 240V330 9999 FEW008 FEW036CB OVC040
                        13/11 Q1013=
201905160530 METAR LRTM 160530Z 32005KT 9999 SCT008 FEW036CB OVC040 13/11
                        Q1013=
201905160600 METAR LRTM 160600Z 32006KT 290V350 9999 BKN009 OVC042 13/11
                        Q1013=
201905160630 METAR LRTM 160630Z 32006KT 290V360 9999 BKN009 OVC042 13/11
                        Q1013=
201905160700 METAR LRTM 160700Z 30005KT 270V010 9999 BKN009 OVC042 14/11
                        Q1013=
201905160730 METAR LRTM 160730Z 31005KT 270V340 9999 -SHRA BKN009 SCT036CB
                        OVC040 14/11 Q1013=
201905160800 METAR LRTM 160800Z 31004KT 280V350 6000 SHRA BKN007 SCT034CB
                        OVC038 13/11 Q1013 R07/29//95=
201905160830 METAR LRTM 160830Z VRB01KT 7000 -SHRA BKN006 SCT035CB OVC040
                        13/12 Q1013 R07/29//95=
201905160900 METAR LRTM 160900Z 34004KT 290V020 6000 -SHRA BKN007 SCT035CB
                        OVC038 13/12 Q1013 R07/29//95=
201905160930 METAR LRTM 160930Z 34005KT 310V010 9000 -SHRA SCT007 SCT036CB
                        OVC040 14/12 Q1013 R07/29//95=
201905161000 METAR LRTM 161000Z 34005KT 9999 -RA SCT010 SCT028 OVC040
                        14/12 Q1012 R07/29//95=
201905161030 METAR LRTM 161030Z 34004KT 300V010 9999 SCT011 SCT028 OVC042
                        14/12 Q1012 R07/29//95=
201905161100 METAR LRTM 161100Z 32004KT 280V350 9999 -SHRA SCT012 FEW036CB
                        OVC042 14/12 Q1012 R07/29//95=
201905161130 METAR LRTM 161130Z 29005KT 250V330 9999 SCT015 FEW036CB OVC042
                        15/12 Q1012 R07/29//95=
201905161200 METAR LRTM 161200Z 28005KT 250V310 9999 -SHRA SCT015 FEW036CB
                        OVC044 15/12 Q1012 R07/29//95=
201905161230 METAR LRTM 161230Z 31005KT 9999 SCT015 BKN026 OVC044 15/12
                        Q1012 R07/29//95=
201905161300 METAR LRTM 161300Z 29004KT 250V340 9999 SCT015 BKN028 OVC045
                        15/12 Q1012 R07/29//95=
201905161330 METAR LRTM 161330Z 30004KT 230V360 9999 SCT015 BKN028 OVC045
                        16/12 Q1012 R07/29//95=
201905161400 METAR LRTM 161400Z 29003KT 250V330 9999 SCT015 BKN030 OVC045
                        16/12 Q1012 R07/19//95=
201905161430 METAR LRTM 161430Z 30003KT 230V350 9999 SCT015 BKN030 OVC045
                        16/12 Q1011 R07/19//95=
201905161500 METAR LRTM 161500Z 30003KT 250V020 9999 FEW015 BKN030 OVC045
                        16/12 Q1011 R07/19//95=
201905161530 METAR LRTM 161530Z 33003KT 260V020 9999 FEW015 BKN038 16/12
                        Q1011 R07/19//95=
201905161600 METAR LRTM 161600Z 34003KT 310V010 9999 FEW015 SCT040 16/13
                        Q1011 R07/CLRD//=
201905161630 METAR LRTM 161630Z 34004KT 9999 FEW015 SCT040 15/13 Q1011=
201905161700 METAR LRTM 161700Z 29004KT 260V330 9999 SCT042 16/13 Q1011=
201905161730 METAR LRTM 161730Z AUTO 32004KT 9999 SCT019/// BKN083///
                        15/12 Q1012=
201905161800 METAR LRTM 161800Z AUTO VRB01KT 9999 SCT020/// BKN085///
                        15/12 Q1012=
201905161830 METAR LRTM 161830Z AUTO VRB01KT 9999 OVC020/// 14/12 Q1012=
201905161900 METAR LRTM 161900Z AUTO 27003KT 220V320 9999 BKN020/// 13/12
                        Q1012=
201905161930 METAR LRTM 161930Z AUTO 00000KT 9999 OVC019/// 14/12 Q1012=
201905162000 METAR LRTM 162000Z AUTO VRB02KT 9999 OVC021/// 14/12 Q1012=
201905162030 METAR LRTM 162030Z AUTO 28004KT 9999 BKN019/// 14/12 Q1012=
201905162100 METAR LRTM 162100Z AUTO 25003KT 9999 FEW022/// BKN048///
                        13/12 Q1012=
201905162130 METAR LRTM 162130Z AUTO 23004KT 9000 -RA SCT050/// SCT063///
                        13/12 Q1012=
201905162200 METAR LRTM 162200Z AUTO 23004KT 6000 -RA SCT074/// 13/12
                        Q1012=
201905162230 METAR LRTM 162230Z AUTO VRB02KT 5000 RA BKN064/// 13/12 Q1012=
201905162300 METAR LRTM 162300Z AUTO 23006KT 5000 -RA FEW008/// SCT019///
                        12/12 Q1012=
201905162330 METAR LRTM 162330Z AUTO 23004KT 6000 -DZ FEW006/// SCT009///
                        12/12 Q1012=
201905170000 METAR LRTM 170000Z AUTO VRB02KT 6000 FEW008/// BKN069///
                        12/11 Q1012 RERA=
201905170030 METAR LRTM 170030Z AUTO 23002KT 6000 -SHRA FEW008/// BKN074///
                        12/11 Q1012=
201905170100 METAR LRTM 170100Z AUTO 23002KT 5000 FEW034/// SCT094///
                        12/11 Q1012 RERA=
201905170130 METAR LRTM 170130Z AUTO 25002KT 4000 R07/2000 BR FEW008///
                        OVC096/// 11/11 Q1012=
201905170200 METAR LRTM 170200Z AUTO 00000KT 5000 BR FEW007/// OVC088///
                        12/11 Q1012=
201905170230 METAR LRTM 170230Z AUTO 00000KT 3500 BR FEW006/// BKN084///
                        11/11 Q1012=
201905170300 METAR LRTM 170300Z AUTO 25003KT 3500 BR BKN006/// SCT007///
                        12/11 Q1012=
201905170330 METAR LRTM 170330Z AUTO 25004KT 4500 BR SCT005/// SCT006///
                        12/11 Q1012=
201905170400 METAR LRTM 170400Z AUTO 25003KT 5000 BR SCT004/// BKN005///
                        12/12 Q1012=
201905170430 METAR LRTM 170430Z AUTO 25003KT 5000 BR SCT004/// BKN005///
                        13/12 Q1013=
201905170500 METAR LRTM 170500Z 26003KT 4000 BR SCT003 OVC005 13/12 Q1013=
201905170530 METAR LRTM 170530Z VRB02KT 3500 BR SCT003 OVC004 13/12 Q1013=
201905170600 METAR LRTM 170600Z VRB02KT 4500 BR SCT004 OVC006 14/12 Q1013=
201905170630 METAR LRTM 170630Z VRB01KT 6000 SCT005 BKN008 14/12 Q1013=
201905170700 METAR LRTM 170700Z 19003KT 140V250 7000 SCT006 BKN010 14/12
                        Q1013=
201905170730 METAR COR LRTM 170730Z 09005KT 8000 SCT008 BKN014 14/12 Q1014=
201905170800 METAR LRTM 170800Z 11003KT 060V170 9000 SCT008 BKN013 15/12
                        Q1014=
201905170830 METAR LRTM 170830Z VRB02KT 9999 SCT010 BKN014 16/12 Q1013=
201905170900 METAR LRTM 170900Z 21003KT 9999 FEW009 SCT012 17/12 Q1013=
201905170930 METAR LRTM 170930Z VRB02KT 9999 FEW015 SCT024 18/13 Q1013=
201905171000 METAR LRTM 171000Z 28003KT 210V330 9999 FEW015 SCT024 18/13
                        Q1013=
201905171030 METAR LRTM 171030Z VRB03KT 9999 SCT025 19/12 Q1012=
201905171100 METAR LRTM 171100Z 14004KT 100V220 9999 SCT025 20/12 Q1012=
201905171130 METAR LRTM 171130Z VRB02KT 9999 SCT026 20/14 Q1012=
201905171200 METAR LRTM 171200Z VRB03KT 9999 SCT026 20/13 Q1012=
201905171230 METAR LRTM 171230Z VRB02KT 9999 SCT028 21/14 Q1012=
201905171300 METAR COR LRTM 171300Z 33004KT 280V030 9999 FEW032 FEW034TCU
                        20/13 Q1012=
201905171330 METAR LRTM 171330Z VRB03KT 9999 FEW033 FEW035TCU 20/13 Q1011=
201905171400 METAR LRTM 171400Z 06003KT 350V130 9999 FEW034 FEW036CB 20/14
                        Q1011=
201905171430 METAR LRTM 171430Z VRB01KT 9999 FEW036 FEW040CB 21/14 Q1012=
201905171500 METAR LRTM 171500Z VRB02KT 9999 FEW037 FEW042CB 21/13 Q1011=
201905171530 METAR LRTM 171530Z VRB02KT 9999 FEW038 FEW044CB 20/14 Q1011=
201905171600 METAR LRTM 171600Z 26003KT 9999 FEW040 FEW044CB 20/15 Q1011=
201905171630 METAR LRTM 171630Z 27003KT 9999 FEW040 SCT044CB 19/15 Q1011=
201905171700 METAR COR LRTM 171700Z 11017KT 9999 -TSRA SCT031 BKN038CB
                        18/11 Q1012 R07/29//95=
201905171730 METAR LRTM 171730Z 11010KT 090V150 9999 -TSRA FEW015 SCT034
                        SCT036CB 15/12 Q1013 R07/29//95=
201905171800 METAR LRTM 171800Z 06006KT 9999 -RA FEW012 BKN034 SCT036CB
                        15/12 Q1013 R07/29//95=
201905171830 METAR LRTM 171830Z AUTO VRB04KT 9999 -RA BKN073/// 15/12
                        Q1013=
201905171900 METAR LRTM 171900Z AUTO VRB02KT 9999 -SHRA OVC067/// 15/12
                        Q1013=
201905171930 METAR LRTM 171930Z AUTO VRB02KT 9999 BKN063/// 14/13 Q1013
                        RERA=
201905172000 METAR LRTM 172000Z AUTO VRB02KT 9999 FEW065/// 14/13 Q1013=
201905172030 METAR LRTM 172030Z AUTO 00000KT 9999 BKN100/// 13/12 Q1013=
201905172100 METAR LRTM 172100Z AUTO 07002KT 7000 FEW100/// SCT210///
                        13/12 Q1013=
201905172130 METAR LRTM 172130Z AUTO 10004KT 8000 FEW100/// 12/12 Q1013=
201905172200 METAR LRTM 172200Z AUTO 08004KT 8000 FEW100/// OVC130///
                        12/12 Q1013=
201905172230 METAR LRTM 172230Z AUTO 11003KT 7000 OVC120/// 13/12 Q1012=
201905172300 METAR LRTM 172300Z AUTO 09005KT 8000 OVC120/// 13/12 Q1012=
201905172330 METAR LRTM 172330Z AUTO 04004KT 6000 BKN110/// 13/12 Q1012=
201905180000 METAR LRTM 180000Z AUTO 00000KT 5000 BR OVC100/// 13/12 Q1012=
201905180030 METAR LRTM 180030Z AUTO VRB01KT 3600 BR OVC100/// 12/11 Q1012=
201905180100 METAR LRTM 180100Z AUTO 00000KT 3000 R07/1300VP2000D BR FEW110///
                        12/11 Q1012=
201905180130 METAR LRTM 180130Z AUTO VRB02KT 2900 R07/1500VP2000D FEW004///
                        11/10 Q1012=
201905180200 METAR LRTM 180200Z AUTO VRB02KT 0600 R07/0700U FG FEW001///
                        11/11 Q1012=
201905180230 METAR LRTM 180230Z AUTO 21003KT 190V250 1400 R07/M0050VP2000U
                        FG FEW002/// 12/11 Q1012=
201905180300 METAR LRTM 180300Z AUTO VRB02KT 0700 R07/0900U FG FEW002///
                        12/11 Q1012=
201905180330 METAR LRTM 180330Z AUTO 00000KT 0650 R07/0800N FG FEW001///
                        SCT003/// 12/11 Q1012=
201905180400 METAR LRTM 180400Z AUTO 00000KT 0350 R07/0450V0550N FG FEW001///
                        12/11 Q1012=
201905180430 METAR LRTM 180430Z AUTO 00000KT 0750 R07/1000U FG VV001 12/12
                        Q1012=
201905180500 METAR LRTM 180500Z VRB01KT 0400 R07/0550N FG BKN001 OVC003
                        12/12 Q1012 R07/19//95=
201905180530 METAR LRTM 180530Z VRB02KT 0700 R07/1100U FG SCT001 OVC004
                        13/12 Q1012 R07/19//95=
201905180600 METAR LRTM 180600Z VRB01KT 1500 BR SCT001 OVC004 13/12 Q1012
                        R07/19//95=
201905180630 METAR LRTM 180630Z VRB02KT 2500 BR SCT002 OVC006 13/12 Q1012
                        R07/19//95=
201905180700 METAR LRTM 180700Z VRB01KT 4000 BR SCT003 OVC008 13/13 Q1012
                        R07/19//95=
201905180730 METAR LRTM 180730Z VRB01KT 7000 FEW003 SCT009 14/13 Q1012
                        R07/19//95=
201905180800 METAR LRTM 180800Z VRB02KT 9000 FEW007 15/13 Q1012 R07/19//95=
201905180830 METAR LRTM 180830Z VRB02KT 9999 FEW009 17/15 Q1012 R07/CLRD//=
201905180900 METAR LRTM 180900Z VRB02KT 9999 FEW012 18/14 Q1011=
201905180930 METAR LRTM 180930Z 07005KT 030V100 9999 FEW013 19/14 Q1011=
201905181000 METAR LRTM 181000Z 06006KT 030V110 9999 FEW025 19/15 Q1011=
201905181030 METAR LRTM 181030Z 08007KT 040V120 9999 FEW026 20/13 Q1011=
201905181100 METAR LRTM 181100Z 08008KT 060V120 9999 FEW027 20/14 Q1011=
201905181130 METAR LRTM 181130Z 08008KT 050V120 9999 FEW028 21/16 Q1010=
201905181200 METAR LRTM 181200Z 09008KT 9999 FEW033 22/15 Q1010=
201905181230 METAR LRTM 181230Z 08009KT 040V110 9999 FEW034 22/14 Q1009=
201905181300 METAR LRTM 181300Z 09009KT 050V110 9999 FEW036 22/14 Q1009=
201905181330 METAR LRTM 181330Z 08007KT 040V110 9999 FEW037 23/14 Q1008=
201905181400 METAR LRTM 181400Z 06006KT 350V100 9999 FEW037 23/13 Q1008=
201905181430 METAR LRTM 181430Z 03006KT 360V080 9999 FEW040 23/13 Q1008=
201905181500 METAR LRTM 181500Z 07004KT 340V140 9999 FEW042 23/14 Q1007=
201905181530 METAR LRTM 181530Z 13003KT 050V210 9999 FEW042 23/13 Q1008=
201905181600 METAR LRTM 181600Z VRB02KT 9999 FEW044TCU 23/12 Q1007=
201905181630 METAR LRTM 181630Z 06003KT 9999 FEW044TCU 22/13 Q1007=
201905181700 METAR LRTM 181700Z 07005KT 9999 FEW044TCU 21/14 Q1008=
201905181730 METAR LRTM 181730Z AUTO 06004KT 9999 NCD 20/13 Q1008=
201905181800 METAR LRTM 181800Z AUTO 01004KT 330V050 9999 FEW140/// 19/14
                        Q1008=
201905181830 METAR LRTM 181830Z AUTO VRB02KT 9999 FEW130/// 18/14 Q1008=
201905181900 METAR LRTM 181900Z AUTO 00000KT 9999 NCD 17/14 Q1008=
201905181930 METAR LRTM 181930Z AUTO 10005KT 9999 NCD 16/13 Q1009=
201905182000 METAR LRTM 182000Z AUTO 08006KT 9999 NCD 14/13 Q1009=
201905182030 METAR LRTM 182030Z AUTO 09005KT 9999 NCD 14/13 Q1009=
201905182100 METAR LRTM 182100Z AUTO 08005KT 9999 FEW040/// 14/13 Q1009=
201905182130 METAR LRTM 182130Z AUTO 07003KT 9999 SCT040/// 14/13 Q1009=
201905182200 METAR LRTM 182200Z AUTO 11005KT 9999 NCD 13/12 Q1009=
201905182230 METAR LRTM 182230Z AUTO 09005KT 7000 NCD 12/12 Q1009=
201905182300 METAR LRTM 182300Z AUTO 08002KT 8000 NCD 13/12 Q1008=
201905182330 METAR LRTM 182330Z AUTO 09005KT 6000 NCD 12/11 Q1008=
201905190000 METAR LRTM 190000Z AUTO 10004KT 9000 NCD 12/11 Q1009=
201905190030 METAR LRTM 190030Z AUTO 10003KT 5000 BR NCD 12/11 Q1009=
201905190100 METAR LRTM 190100Z AUTO VRB02KT 8000 NCD 12/11 Q1009=
201905190130 METAR LRTM 190130Z AUTO 07004KT 3600 BR NCD 11/11 Q1009=
201905190200 METAR LRTM 190200Z AUTO 09005KT 5000 BR NCD 11/10 Q1009=
201905190230 METAR LRTM 190230Z AUTO 09004KT 4900 BR NCD 10/10 Q1009=
201905190300 METAR LRTM 190300Z AUTO 09004KT 6000 NCD 10/10 Q1009=
201905190330 METAR LRTM 190330Z 10005KT 5000 BR FEW005 11/10 Q1009=
201905190400 METAR LRTM 190400Z 09005KT 6000 1800S BCFG FEW004 12/11 Q1010=
201905190430 METAR LRTM 190430Z 08005KT 7000 2000SE BCFG FEW003 13/12
                        Q1010=
201905190500 METAR LRTM 190500Z 07005KT 7000 FEW003 14/12 Q1010=
201905190530 METAR LRTM 190530Z 07005KT 040V100 CAVOK 15/13 Q1010=
201905190600 METAR LRTM 190600Z 06006KT 020V080 CAVOK 16/14 Q1009=
201905190630 METAR COR LRTM 190630Z 07005KT 030V110 CAVOK 18/15 Q1009=
201905190700 METAR LRTM 190700Z 07004KT 010V180 9999 FEW030 19/15 Q1009=
201905190730 METAR LRTM 190730Z VRB03KT 9999 FEW033 20/15 Q1009=
201905190800 METAR LRTM 190800Z 13004KT 090V210 9999 FEW033 21/15 Q1009=
201905190830 METAR LRTM 190830Z 10005KT 050V140 9999 FEW040 22/16 Q1009=
201905190900 METAR COR LRTM 190900Z 09006KT 040V160 9999 FEW040 23/15
                        Q1009=
201905190930 METAR LRTM 190930Z VRB04KT 9999 FEW040 24/15 Q1009=
201905191000 METAR LRTM 191000Z 14006KT 9999 FEW040 24/13 Q1009=
201905191030 METAR LRTM 191030Z 10004KT 350V150 9999 FEW043 25/14 Q1008=
201905191100 METAR LRTM 191100Z VRB04KT 9999 FEW045 25/12 Q1008=
201905191130 METAR LRTM 191130Z 12006KT 090V150 9999 FEW045CB 27/13 Q1008=
201905191200 METAR LRTM 191200Z 14003KT 070V220 9999 FEW045CB 26/12 Q1008=
201905191230 METAR LRTM 191230Z VRB04KT 9999 FEW048 26/09 Q1008=
201905191300 METAR LRTM 191300Z 10005KT 030V160 9999 FEW048 26/12 Q1007=
201905191330 METAR LRTM 191330Z 12005KT 070V160 9999 FEW048 26/12 Q1007=
201905191400 METAR LRTM 191400Z 09006KT 050V150 9999 FEW045 27/14 Q1007=
201905191430 METAR LRTM 191430Z 14005KT 090V180 9999 SCT048 26/12 Q1007=
201905191500 METAR LRTM 191500Z 12007KT 9999 FEW048 26/12 Q1007=
201905191530 METAR LRTM 191530Z 13007KT 9999 FEW048 26/12 Q1007=
201905191600 METAR LRTM 191600Z AUTO 10007KT 9999 NCD 26/12 Q1006=
201905191630 METAR LRTM 191630Z AUTO 12007KT 9999 BKN130/// 26/11 Q1006=
201905191700 METAR LRTM 191700Z AUTO 12006KT 9999 SCT120/// 24/13 Q1006=
201905191730 METAR LRTM 191730Z AUTO 12005KT 9999 SCT140/// 22/13 Q1006=
201905191800 METAR LRTM 191800Z AUTO 14004KT 9999 SCT180/// 20/14 Q1006=
201905191830 METAR LRTM 191830Z AUTO 32003KT 240V020 9999 FEW190/// 20/13
                        Q1006=
201905191900 METAR LRTM 191900Z AUTO 08005KT 9999 NCD 17/13 Q1006=
201905191930 METAR LRTM 191930Z AUTO 07006KT 9999 NCD 18/13 Q1006=
201905192000 METAR LRTM 192000Z AUTO 07007KT 9999 NCD 16/13 Q1006=
201905192030 METAR LRTM 192030Z AUTO 07010KT 9999 SCT160/// 17/13 Q1006=
201905192100 METAR LRTM 192100Z AUTO 09006KT 9999 FEW130/// BKN160///
                        16/13 Q1006=
201905192130 METAR LRTM 192130Z AUTO 11004KT 9999 FEW130/// 15/13 Q1006=
201905192200 METAR LRTM 192200Z AUTO 07005KT 9999 BKN130/// 17/13 Q1006=
201905192230 METAR LRTM 192230Z AUTO 07009KT 9999 FEW120/// 18/14 Q1006=
201905192300 METAR LRTM 192300Z AUTO 09007KT 9999 FEW130/// 18/14 Q1006=
201905192330 METAR LRTM 192330Z AUTO 09008KT 9999 SCT130/// 18/14 Q1006=
201905200000 METAR LRTM 200000Z AUTO 07005KT 9999 BKN130/// 18/14 Q1005=
201905200030 METAR LRTM 200030Z AUTO 06008KT 9999 OVC130/// 20/13 Q1005=
201905200100 METAR LRTM 200100Z AUTO 08006KT 050V110 9999 OVC120/// 19/13
                        Q1005=
201905200130 METAR LRTM 200130Z AUTO 12006KT 9999 BKN120/// 20/13 Q1005=
201905200200 METAR LRTM 200200Z AUTO 26005KT 230V290 9999 FEW090/// 18/13
                        Q1006=
201905200230 METAR LRTM 200230Z AUTO 26006KT 9999 NCD 18/13 Q1007=
201905200300 METAR LRTM 200300Z AUTO 24007KT 9999 FEW130/// 16/12 Q1007=
201905200330 METAR LRTM 200330Z AUTO 20004KT 180V240 9999 NCD 16/12 Q1007=
201905200400 METAR LRTM 200400Z AUTO 35003KT 290V020 9999 NCD 16/13 Q1007=
201905200430 METAR LRTM 200430Z AUTO VRB02KT 9999 NCD 18/13 Q1007=
201905200500 METAR LRTM 200500Z 23003KT 190V280 CAVOK 18/14 Q1007=
201905200530 METAR LRTM 200530Z 25004KT CAVOK 18/13 Q1007=
201905200600 METAR LRTM 200600Z 29004KT 250V340 CAVOK 19/13 Q1007=
201905200630 METAR LRTM 200630Z 26003KT 230V290 CAVOK 19/13 Q1007=
201905200700 METAR LRTM 200700Z 24005KT 210V280 CAVOK 20/14 Q1007=
201905200730 METAR LRTM 200730Z 24005KT CAVOK 20/14 Q1007=
201905200800 METAR LRTM 200800Z 25005KT CAVOK 20/13 Q1007=
201905200830 METAR LRTM 200830Z 24005KT 210V270 CAVOK 21/14 Q1007=
201905200900 METAR LRTM 200900Z 25005KT 210V280 CAVOK 21/14 Q1007=
201905200930 METAR LRTM 200930Z 24006KT CAVOK 21/15 Q1007=
201905201000 METAR LRTM 201000Z 24007KT CAVOK 21/15 Q1007=
201905201030 METAR LRTM 201030Z VRB04KT 9999 FEW030 FEW036CB 22/14 Q1007=
201905201100 METAR LRTM 201100Z 25008KT 220V280 9999 FEW033 FEW038CB 22/15
                        Q1007=
201905201130 METAR LRTM 201130Z 25009KT 9999 FEW033 FEW038CB 22/15 Q1007=
201905201200 METAR LRTM 201200Z 27010KT 9999 VCTS FEW033 SCT038CB 21/14
                        Q1007=
201905201230 METAR LRTM 201230Z 26015KT 9999 VCTS FEW033 SCT038CB BKN047
                        20/13 Q1007=
201905201300 METAR LRTM 201300Z 26009KT 9000 -SHRA VCTS SCT038CB BKN047
                        17/13 Q1007 RESHRA R07/29//95=
201905201330 METAR LRTM 201330Z 25009KT 8000 -TSRA BKN038CB BKN045 16/13
                        Q1008 RETSRA R07/29//95=
201905201400 METAR LRTM 201400Z 27011KT 7000 TSRA BKN038CB BKN042 14/12
                        Q1007 R07/29//95=
201905201430 METAR LRTM 201430Z 28007KT 240V300 7000 TSRA BKN040CB BKN042
                        15/12 Q1007 R07/29//95=
201905201500 METAR LRTM 201500Z VRB05KT 7000 TSRA BKN040CB BKN042 14/12
                        Q1007 R07/29//95=
201905201530 METAR LRTM 201530Z 07004KT 360V130 7000 TSRA FEW005 BKN038CB
                        BKN040 14/13 Q1009 R07/29//95=
201905201600 METAR LRTM 201600Z VRB02KT 8000 -TSRA FEW005 BKN038CB BKN040
                        14/13 Q1009 RESHRA R07/29//95=
201905201630 METAR LRTM 201630Z 06007KT 8000 -SHRA FEW007 BKN040CB BKN042
                        14/13 Q1009 RETS R07/29//95=
201905201700 METAR LRTM 201700Z 07009KT 8000 -SHRA FEW007 BKN040CB BKN042
                        14/13 Q1009 R07/29//95=
201905201730 METAR LRTM 201730Z AUTO 08007KT 9000 RA FEW086/// 14/13 Q1008=
201905201800 METAR LRTM 201800Z AUTO 09005KT 9999 FEW080/// 14/13 Q1007=
201905201830 METAR LRTM 201830Z AUTO 08008KT 9999 -SHRA FEW011/// 14/13
                        Q1007=
201905201900 METAR LRTM 201900Z AUTO 08003KT 9999 FEW120/// 13/13 Q1008
                        RERA=
201905201930 METAR LRTM 201930Z AUTO 26002KT 9999 FEW140/// 14/13 Q1008
                        RERA=
201905202000 METAR LRTM 202000Z AUTO 19005KT 9999 FEW130/// 13/13 Q1008=
201905202030 METAR LRTM 202030Z AUTO VRB02KT 9999 FEW079/// SCT110///
                        13/12 Q1007=
201905202100 METAR LRTM 202100Z AUTO 00000KT 9999 -RA OVC076/// 13/12
                        Q1008=
201905202130 METAR LRTM 202130Z AUTO 24003KT 210V280 9999 -RA OVC073///
                        14/12 Q1008=
201905202200 METAR LRTM 202200Z AUTO 29003KT 250V320 9999 -RA FEW008///
                        SCT076/// 14/12 Q1008=
201905202230 METAR LRTM 202230Z AUTO 22003KT 7000 -RA SCT030/// 14/13
                        Q1008=
201905202300 METAR LRTM 202300Z AUTO 21004KT 9999 -RA FEW006/// BKN023///
                        14/13 Q1008=
201905202330 METAR LRTM 202330Z AUTO 23004KT 8000 RA FEW007/// 14/13 Q1007=
201905210000 METAR LRTM 210000Z AUTO 23006KT //// R07////// FEW008///
                        BKN009/// 14/13 Q1007=
201905210030 METAR LRTM 210030Z AUTO 23007KT 9999 DZ FEW008/// BKN009///
                        14/13 Q1007=
201905210100 METAR LRTM 210100Z AUTO 23012KT 9999 FEW011/// BKN038///
                        13/11 Q1007 RERA=
201905210130 METAR LRTM 210130Z AUTO 23012KT 9999 SHRA FEW035/// BKN044///
                        13/11 Q1008=
201905210200 METAR LRTM 210200Z AUTO 25007KT 9999 SHRA FEW045/// SCT072///
                        12/11 Q1008=
201905210230 METAR LRTM 210230Z AUTO 24007KT 9999 -SHRA FEW045/// SCT057///
                        13/11 Q1008=
201905210300 METAR LRTM 210300Z AUTO 23006KT 9999 -SHRA SCT067/// 13/11
                        Q1008=
201905210330 METAR LRTM 210330Z AUTO 22007KT 9999 DZ SCT054/// SCT068///
                        13/11 Q1008=
201905210400 METAR LRTM 210400Z AUTO 22006KT 9999 -RA BKN063/// SCT080///
                        13/11 Q1009=
201905210430 METAR LRTM 210430Z AUTO 22004KT 9999 -DZ BKN068/// 13/11
                        Q1009=
201905210500 METAR LRTM 210500Z 24004KT 210V280 9999 FEW010 BKN036 14/12
                        Q1009 R07/29//95=
201905210530 METAR LRTM 210530Z 19004KT 9999 FEW010 BKN036 14/12 Q1009
                        R07/29//95=
201905210600 METAR LRTM 210600Z 22007KT 9999 FEW011 SCT035 14/11 Q1009
                        R07/29//95=
201905210630 METAR LRTM 210630Z 22006KT 9999 -RA SCT013 BKN034 14/11 Q1010
                        R07/29//95=
201905210700 METAR LRTM 210700Z 21009KT 8000 RA SCT012 BKN033 13/11 Q1010
                        R07/29//95=
201905210730 METAR LRTM 210730Z 21010KT 9999 -RA SCT014 BKN035 14/11 Q1010
                        R07/29//95=
201905210800 METAR LRTM 210800Z 24010KT 9999 -SHRA SCT012 FEW028CB BKN034
                        13/12 Q1010 R07/29//95=
201905210830 METAR LRTM 210830Z 24010KT 9999 -SHRA SCT011 FEW027CB BKN034
                        13/12 Q1011 R07/29//95=
201905210900 METAR LRTM 210900Z 23008KT 9000 SHRA FEW011 SCT027CB BKN032
                        13/12 Q1011 R07/29//95=
201905210930 METAR LRTM 210930Z 25006KT 9999 -SHRA SCT010 FEW027CB BKN033
                        14/12 Q1011 RESHRA R07/29//95=
201905211000 METAR LRTM 211000Z VRB02KT 9999 -RA FEW013 SCT032 14/11 Q1011
                        R07/29//95=
201905211030 METAR LRTM 211030Z VRB02KT 9999 -RA SCT011 SCT032 15/12 Q1011
                        R07/29//95=
201905211100 METAR LRTM 211100Z VRB02KT 9999 SCT013 SCT034 15/12 Q1011
                        R07/29//95=
201905211130 METAR LRTM 211130Z 10005KT 070V130 9999 FEW015 SCT023 16/12
                        Q1011 R07/29//95=
201905211200 METAR LRTM 211200Z 08007KT 050V110 9999 FEW015 SCT026 17/12
                        Q1011 R07/29//95=
201905211230 METAR LRTM 211230Z 08008KT 050V130 9999 FEW015 SCT027 FEW030TCU
                        17/12 Q1011 R07/29//95=
201905211300 METAR LRTM 211300Z 08008KT 9999 FEW028 FEW033CB 17/12 Q1011
                        R07/29//95=
201905211330 METAR COR LRTM 211330Z 09009KT 050V130 9999 FEW028 FEW033CB
                        18/12 Q1011 R07/CLRD//=
201905211400 METAR LRTM 211400Z 09006KT 050V130 9999 FEW030 FEW034CB 17/12
                        Q1011=
201905211430 METAR LRTM 211430Z 11005KT 080V150 9999 VCSH FEW030 SCT034CB
                        17/11 Q1011=
201905211500 METAR LRTM 211500Z 18017KT 9999 VCSH FEW032 SCT035CB 17/10
                        Q1010=
201905211530 METAR LRTM 211530Z 16011KT 9999 TS VCSH FEW030 SCT034CB 15/10
                        Q1010=
201905211600 METAR LRTM 211600Z 16007KT 9999 FEW034 FEW036CB 16/10 Q1010
                        RETS=
201905211630 METAR LRTM 211630Z 15006KT 120V180 9999 FEW035 FEW037CB 16/10
                        Q1011=
201905211700 METAR LRTM 211700Z 12004KT 9999 FEW036 FEW040CB 16/11 Q1011=
201905211730 METAR LRTM 211730Z AUTO 12004KT 9999 NCD ///// Q1011=
201905211800 METAR LRTM 211800Z AUTO VRB01KT 9999 NCD 14/11 Q1011=
201905211830 METAR LRTM 211830Z AUTO 09003KT 9999 FEW047/// 12/11 Q1011=
201905211900 METAR LRTM 211900Z AUTO 07003KT 9999 FEW050/// SCT089///
                        12/10 Q1012=
201905211930 METAR LRTM 211930Z AUTO 10006KT 9999 OVC097/// 12/11 Q1012=
201905212000 METAR LRTM 212000Z AUTO 08004KT 9999 FEW110/// SCT230///
                        11/09 Q1011=
201905212030 METAR LRTM 212030Z AUTO 07005KT 9999 FEW230/// 10/09 Q1012=
201905212100 METAR LRTM 212100Z AUTO 08003KT 9999 FEW220/// 10/09 Q1012=
201905212130 METAR LRTM 212130Z AUTO 06004KT 8000 FEW210/// 09/08 Q1012=
201905212200 METAR LRTM 212200Z AUTO 06005KT 7000 NCD 09/08 Q1012=
201905212230 METAR LRTM 212230Z AUTO 08004KT 9999 NCD 09/09 Q1012=
201905212300 METAR LRTM 212300Z AUTO 06004KT 8000 FEW240/// 09/08 Q1012=
201905212330 METAR LRTM 212330Z AUTO 08004KT 9000 SCT049/// 09/08 Q1012=
201905220000 METAR LRTM 220000Z AUTO 07004KT 8000 FEW057/// 09/08 Q1012=
201905220030 METAR LRTM 220030Z AUTO 08004KT //// R07////// FEW091///
                        08/08 Q1012=
201905220100 METAR LRTM 220100Z AUTO 08005KT //// R07////// BKN088///
                        09/08 Q1011=
201905220130 METAR LRTM 220130Z AUTO 08004KT //// R07////// FEW072///
                        BKN095/// 09/08 Q1011=
201905220200 METAR LRTM 220200Z AUTO 08004KT 8000 FEW099/// 09/08 Q1011=
201905220230 METAR LRTM 220230Z AUTO 08004KT 7000 NCD 08/07 Q1011=
201905220300 METAR LRTM 220300Z AUTO 08004KT 7000 NCD 08/07 Q1011=
201905220330 METAR LRTM 220330Z 08005KT 8000 MIFG FEW005 08/07 Q1011=
201905220400 METAR LRTM 220400Z 08004KT 8000 MIFG FEW005 09/09 Q1012=
201905220430 METAR LRTM 220430Z 07003KT 050V110 8000 MIFG FEW006 11/10
                        Q1012=
201905220500 METAR LRTM 220500Z VRB01KT 9999 FEW008 12/10 Q1012=
201905220530 METAR LRTM 220530Z 00000KT 9999 SCT008 13/11 Q1012=
201905220600 METAR LRTM 220600Z 20005KT 9999 SCT010 14/10 Q1012=
201905220630 METAR LRTM 220630Z 21007KT 9999 FEW012 15/11 Q1011=
201905220700 METAR LRTM 220700Z 21009KT 180V250 9999 FEW030 16/11 Q1011=
201905220730 METAR LRTM 220730Z 21011KT 9999 FEW033 16/11 Q1011=
201905220800 METAR LRTM 220800Z 23011KT 9999 SCT033 18/12 Q1011=
201905220830 METAR LRTM 220830Z 22009KT 9999 SCT033 17/11 Q1012=
201905220900 METAR LRTM 220900Z 22009KT 190V260 9999 BKN035 18/11 Q1011=
201905220930 METAR LRTM 220930Z 23010KT 210V280 9999 BKN035 FEW038CB 19/11
                        Q1012=
201905221000 METAR LRTM 221000Z 22010KT 9999 BKN035 FEW038CB 18/11 Q1012=
201905221030 METAR LRTM 221030Z 23010KT 200V260 9999 BKN037 FEW040CB 19/11
                        Q1012=
201905221100 METAR LRTM 221100Z 23012KT 9999 VCSH BKN037 FEW040CB 18/11
                        Q1012=
201905221130 METAR LRTM 221130Z 21012KT 9999 VCSH BKN038 FEW041CB 20/13
                        Q1012=
201905221200 METAR LRTM 221200Z 22012KT 9999 BKN038 FEW041CB 20/13 Q1011=
201905221230 METAR LRTM 221230Z 23009KT 9999 BKN040 FEW043CB 20/12 Q1011=
201905221300 METAR LRTM 221300Z 23010KT 9999 BKN040 20/12 Q1011=
201905221330 METAR LRTM 221330Z 22007KT 190V260 9999 BKN040 20/12 Q1011=
201905221400 METAR LRTM 221400Z 23007KT 9999 BKN040 20/12 Q1010=
201905221430 METAR LRTM 221430Z 23009KT 9999 BKN040 20/11 Q1010=
201905221500 METAR LRTM 221500Z 23013KT 9999 BKN040 20/12 Q1010=
201905221530 METAR LRTM 221530Z 24009KT 9999 BKN040 19/11 Q1010=
201905221600 METAR LRTM 221600Z AUTO 24007KT 9999 OVC076/// 19/12 Q1010=
201905221630 METAR LRTM 221630Z AUTO 23005KT 9999 SCT085/// 19/12 Q1010=
201905221700 METAR LRTM 221700Z AUTO 22008KT 9999 SCT081/// 18/12 Q1010=
201905221730 METAR LRTM 221730Z AUTO 22009KT 9999 FEW068/// 17/11 Q1010=
201905221800 METAR LRTM 221800Z AUTO 21009KT 9999 BKN067/// 17/11 Q1010=
201905221830 METAR LRTM 221830Z AUTO 20008KT 9999 SCT069/// SCT087///
                        17/11 Q1011=
201905221900 METAR LRTM 221900Z AUTO 22009KT 9999 FEW071/// BKN089///
                        16/11 Q1011=
201905221930 METAR LRTM 221930Z AUTO 21006KT 9999 BKN093/// 16/11 Q1011
                        RERA=
201905222000 METAR LRTM 222000Z AUTO 22008KT 9999 FEW075/// 15/10 Q1011=
201905222030 METAR LRTM 222030Z AUTO 24005KT 9999 BKN065/// 14/11 Q1011=
201905222100 METAR LRTM 222100Z AUTO 25007KT 9999 FEW066/// SCT085///
                        13/11 Q1011=
201905222130 METAR LRTM 222130Z AUTO 25006KT 9999 FEW077/// 14/11 Q1011=
201905222200 METAR LRTM 222200Z AUTO 22008KT 9999 OVC094/// 14/11 Q1011=
201905222230 METAR LRTM 222230Z AUTO 22009KT 9999 FEW060/// BKN087///
                        14/11 Q1011=
201905222300 METAR LRTM 222300Z AUTO 24003KT 9999 BKN089/// 13/11 Q1011=
201905222330 METAR LRTM 222330Z AUTO 25004KT 9999 OVC094/// 14/11 Q1011=
201905230000 METAR LRTM 230000Z AUTO 23006KT 200V260 9999 DZ BKN080///
                        SCT100/// 14/11 Q1010=
201905230030 METAR LRTM 230030Z AUTO 22006KT 190V250 9999 DZ FEW056///
                        BKN077/// 14/11 Q1010=
201905230100 METAR LRTM 230100Z AUTO 22008KT 9999 FEW059/// BKN077///
                        BKN120/// 14/11 Q1010 RERA=
201905230130 METAR LRTM 230130Z AUTO 26003KT //// R07////// BKN078///
                        SCT098/// 14/11 Q1010=
201905230200 METAR LRTM 230200Z AUTO 23004KT 190V260 9999 BKN052/// 14/11
                        Q1010=
201905230230 METAR LRTM 230230Z AUTO 23004KT 190V260 //// R07////// BKN050///
                        SCT063/// 14/11 Q1010=
201905230300 METAR LRTM 230300Z AUTO 25004KT 210V280 9999 OVC050/// 14/11
                        Q1010=
201905230330 METAR LRTM 230330Z AUTO 24004KT 210V280 9999 OVC053/// 14/11
                        Q1010=
201905230400 METAR LRTM 230400Z AUTO 24008KT 9999 OVC053/// 14/11 Q1010=
201905230430 METAR LRTM 230430Z AUTO 24008KT 9999 OVC049/// 15/12 Q1010=
201905230500 METAR LRTM 230500Z 24009KT 9999 FEW015 BKN036 15/12 Q1010=
201905230530 METAR LRTM 230530Z 24010KT 9999 FEW015 BOKN036 15/11 Q1011=
201905230600 METAR LRTM 230600Z 24009KT 9999 FEW016 SCT037 15/12 Q1011=
201905230630 METAR LRTM 230630Z 24007KT 9999 FEW016 BKN036 16/12 Q1011=
201905230700 METAR LRTM 230700Z 24007KT 9999 FEW015 BKN036 16/12 Q1011=
201905230730 METAR LRTM 230730Z 24009KT 9999 FEW015 SCT036 17/12 Q1011=
201905230800 METAR LRTM 230800Z 23008KT 180V250 9999 FEW023 SCT035 17/13
                        Q1011=
201905230830 METAR LRTM 230830Z 23008KT 200V260 9999 FEW024 SCT035 18/12
                        Q1011=
201905230900 METAR LRTM 230900Z 24007KT 210V270 9999 FEW014 SCT028 18/12
                        Q1011=
201905230930 METAR LRTM 230930Z 22008KT 9999 FEW016 SCT027 FEW034CB 18/12
                        Q1011=
201905231000 METAR LRTM 231000Z 23008KT 200V270 9999 SCT028 FEW033CB 18/12
                        Q1011=
201905231030 METAR LRTM 231030Z 22008KT 9999 -SHRA SCT029 SCT032CB 18/12
                        Q1011=
201905231100 METAR LRTM 231100Z 31006KT 230V360 8000 SHRA SCT030CB BKN031
                        17/13 Q1011 R07/29//95=
201905231130 METAR LRTM 231130Z 02006KT 350V070 9999 -SHRA FEW012 SCT031CB
                        BKN033 16/13 Q1011 R07/29//95=
201905231200 METAR LRTM 231200Z 36005KT 330V050 9999 -SHRA FEW013 SCT029CB
                        BKN034 15/12 Q1011 R07/29//95=
201905231230 METAR LRTM 231230Z 35008KT 320V030 9000 -SHRA FEW012 SCT032CB
                        BKN035 14/13 Q1011 RESHRA R07/29//95=
201905231300 METAR LRTM 231300Z 33005KT 5000 +SHRA FEW010 SCT030CB BKN033
                        14/13 Q1011 R07/29//95=
201905231330 METAR LRTM 231330Z VRB01KT 7000 -SHRA FEW011 SCT030CB BKN032
                        13/12 Q1011 RESHRA R07/29//95=
201905231400 METAR LRTM 231400Z 05003KT 8000 -SHRA FEW008 SCT033CB BKN035
                        14/12 Q1012 R07/29//95=
201905231430 METAR LRTM 231430Z 11003KT 070V130 9999 -SHRA FEW009 SCT034CB
                        BKN037 13/12 Q1012 R07/29//95=
201905231500 METAR LRTM 231500Z 04003KT 9999 -SHRA FEW010 FEW035CB BKN037
                        14/12 Q1012 R07/29//95=
201905231530 METAR LRTM 231530Z 00000KT 9999 -SHRA FEW012 SCT036 FEW038CB
                        14/13 Q1012 R07/29//95=
201905231600 METAR LRTM 231600Z 00000KT 9999 FEW014 FEW036CB SCT037 14/13
                        Q1011 R07/29//95=
201905231630 METAR LRTM 231630Z 25003KT 9999 FEW014 SCT036 FEW038CB 15/13
                        Q1011 R07/29//95=
201905231700 METAR LRTM 231700Z 28003KT 9999 SCT036 FEW038CB 15/13 Q1011
                        R07/29//95=
201905231730 METAR LRTM 231730Z AUTO 28003KT 9999 SCT022/// SCT028///
                        14/13 Q1012=
201905231800 METAR LRTM 231800Z AUTO VRB01KT 9999 -RA FEW015/// SCT031///
                        14/13 Q1012=
201905231830 METAR LRTM 231830Z AUTO 24003KT 9999 -RA SCT031/// 14/13
                        Q1012=
201905231900 METAR LRTM 231900Z AUTO VRB02KT 9999 FEW034/// BKN054///
                        BKN073/// 14/13 Q1012 RERA=
201905231930 METAR LRTM 231930Z AUTO 29003KT 9999 -SHRA FEW022/// OVC072///
                        14/13 Q1012=
201905232000 METAR LRTM 232000Z AUTO 25003KT 9999 FEW013/// SCT074///
                        BKN093/// 14/13 Q1012 REDZ=
201905232030 METAR LRTM 232030Z AUTO 24004KT 8000 OVC094/// 13/12 Q1012=
201905232100 METAR LRTM 232100Z AUTO 24005KT 9999 OVC079/// 13/13 Q1012=
201905232130 METAR LRTM 232130Z AUTO 25003KT 7000 -DZ BKN033/// BKN080///
                        13/13 Q1012=
201905232200 METAR LRTM 232200Z AUTO 27003KT 9999 BKN035/// SCT077///
                        13/13 Q1012 RERA=
201905232230 METAR LRTM 232230Z AUTO 00000KT 8000 OVC036/// 13/12 Q1012
                        RERA=
201905232300 METAR LRTM 232300Z AUTO 28003KT 9000 OVC038/// 13/13 Q1012=
201905232330 METAR LRTM 232330Z AUTO 28003KT 9000 -RA BKN045/// BKN074///
                        13/13 Q1012=
201905240000 METAR LRTM 240000Z AUTO 22003KT 6000 -SHRA FEW047/// BKN073///
                        13/12 Q1012=
201905240030 METAR LRTM 240030Z AUTO 25003KT 5000 BKN090/// 13/12 Q1012
                        RERA=
201905240100 METAR LRTM 240100Z AUTO 24001KT 5000 OVC100/// 13/12 Q1011
                        RERA=
201905240130 METAR LRTM 240130Z AUTO VRB02KT 5000 BR BKN052/// SCT100///
                        13/12 Q1011=
201905240200 METAR LRTM 240200Z AUTO 00000KT 6000 FEW051/// BKN100///
                        13/12 Q1011=
201905240230 METAR LRTM 240230Z AUTO 00000KT 5000 BR BKN062/// SCT078///
                        12/12 Q1011=
201905240300 METAR LRTM 240300Z AUTO 00000KT 3900 BR SCT051/// BKN067///
                        13/12 Q1011=
201905240330 METAR LRTM 240330Z AUTO VRB02KT 4300 BR BKN059/// BKN075///
                        13/12 Q1011=
201905240400 METAR LRTM 240400Z AUTO 25001KT 5000 BR BKN021/// 13/13 Q1011=
201905240430 METAR LRTM 240430Z AUTO 00000KT 7000 FEW021/// SCT052///
                        BKN100/// 13/13 Q1011=
201905240500 METAR LRTM 240500Z VRB02KT 9000 FEW002 SCT008 14/13 Q1011
                        R07/29//95=
201905240530 METAR LRTM 240530Z VRB02KT 9000 SCT008 14/13 Q1011 R07/29//95=
201905240600 METAR LRTM 240600Z 26004KT 230V310 9999 SCT010 SCT023 15/13
                        Q1011 R07/19//95=
201905240630 METAR LRTM 240630Z 25004KT 180V290 9999 SCT023 15/13 Q1011
                        R07/19//95=
201905240700 METAR LRTM 240700Z 23004KT 180V280 9999 SCT023 SCT048 16/13
                        Q1011 R07/19//95=
201905240730 METAR LRTM 240730Z VRB02KT 9999 SCT025 BKN046 17/13 Q1011
                        R07/19//95=
201905240800 METAR LRTM 240800Z 31003KT 240V010 9999 BKN025 17/12 Q1011
                        R07/CLRD//=
201905240830 METAR LRTM 240830Z 26004KT 220V290 9999 BKN025 FEW028CB 16/12
                        Q1011=
201905240900 METAR LRTM 240900Z 20003KT 170V250 9999 BKN027 FEW030CB 17/13
                        Q1011=
201905240930 METAR LRTM 240930Z VRB02KT 9999 -SHRA BKN027 FEW030CB 18/12
                        Q1011=
201905241000 METAR LRTM 241000Z VRB04KT 9999 BKN030 FEW033CB 18/13 Q1011=
201905241030 METAR LRTM 241030Z 26005KT 200V340 9999 BKN033 FEW035CB 20/13
                        Q1010=
201905241100 METAR LRTM 241100Z 25006KT 210V280 9999 BKN033 FEW035CB 20/13
                        Q1010=
201905241130 METAR LRTM 241130Z 24007KT 210V280 9999 BKN033 FEW035CB 21/14
                        Q1010=
201905241200 METAR LRTM 241200Z 25005KT 210V280 9999 VCSH BKN033 SCT035CB
                        21/13 Q1010=
201905241230 METAR LRTM 241230Z 25007KT 210V300 9999 VCSH BKN035 SCT038CB
                        21/13 Q1009=
201905241300 METAR LRTM 241300Z 26008KT 230V290 9999 VCSH SCT037 SCT040CB
                        21/13 Q1009=
201905241330 METAR LRTM 241330Z 25008KT 9999 VCSH SCT037 SCT040CB 21/13
                        Q1009=
201905241400 METAR LRTM 241400Z 24012KT 9999 VCSH SCT038 SCT042CB 20/14
                        Q1009=
201905241430 METAR LRTM 241430Z 26010KT 9999 VCSH FEW040 SCT045CB 20/12
                        Q1009=
201905241500 METAR LRTM 241500Z 28008KT 9999 VCSH FEW040 SCT045CB 21/13
                        Q1009=
201905241530 METAR LRTM 241530Z 31011KT 260V330 9999 VCSH FEW040 SCT045CB
                        19/12 Q1009=
201905241600 METAR LRTM 241600Z 32010KT 290V350 9999 VCSH FEW043 SCT048CB
                        19/12 Q1009=
201905241630 METAR LRTM 241630Z 32009KT 290V350 9999 VCSH SCT043 FEW048CB
                        19/12 Q1009=
201905241700 METAR LRTM 241700Z 32007KT 9999 VCSH SCT043 FEW048CB 18/12
                        Q1009=
201905241730 METAR LRTM 241730Z AUTO 28005KT 260V320 9999 NCD 18/12 Q1009=
201905241800 METAR LRTM 241800Z AUTO 25004KT 9999 FEW100/// 15/12 Q1009=
201905241830 METAR LRTM 241830Z AUTO 24004KT 9999 OVC100/// 16/12 Q1010=
201905241900 METAR LRTM 241900Z AUTO 28004KT 250V010 9999 OVC100/// 16/12
                        Q1010=
201905241930 METAR LRTM 241930Z AUTO 24006KT 9999 FEW100/// 14/12 Q1010=
201905242000 METAR LRTM 242000Z AUTO 25004KT 9999 SCT084/// 14/12 Q1010=
201905242030 METAR LRTM 242030Z AUTO 24006KT 9999 FEW084/// 13/12 Q1010=
201905242100 METAR LRTM 242100Z AUTO 26005KT 9999 FEW220/// 13/12 Q1010=
201905242130 METAR LRTM 242130Z AUTO 24004KT 9999 SCT073/// 12/11 Q1010=
201905242200 METAR LRTM 242200Z AUTO 24005KT 9999 BKN074/// 13/12 Q1010=
201905242230 METAR LRTM 242230Z AUTO 24007KT 9999 FEW075/// 13/12 Q1010=
201905242300 METAR LRTM 242300Z AUTO 24007KT 9999 FEW017/// 13/11 Q1010=
201905242330 METAR LRTM 242330Z AUTO 24007KT 9999 NCD 12/11 Q1010=
201905250000 METAR LRTM 250000Z AUTO 24006KT 9999 BKN016/// 13/12 Q1010=
201905250030 METAR LRTM 250030Z AUTO 26004KT 9999 OVC018/// 13/12 Q1010=
201905250100 METAR LRTM 250100Z AUTO 27003KT 9999 BKN018/// SCT023///
                        13/12 Q1011=
201905250130 METAR LRTM 250130Z AUTO 26003KT 9999 BKN018/// 13/12 Q1011=
201905250200 METAR LRTM 250200Z AUTO 24004KT 9999 BKN017/// 13/12 Q1011=
201905250230 METAR LRTM 250230Z AUTO 23004KT 9999 BKN015/// SCT019///
                        13/12 Q1011=
201905250300 METAR LRTM 250300Z AUTO 23004KT 9999 FEW022/// BKN100///
                        13/12 Q1011=
201905250330 METAR LRTM 250330Z AUTO 23005KT 9999 SCT014/// BKN098///
                        13/12 Q1011=
201905250400 METAR LRTM 250400Z AUTO 23004KT 9999 SCT014/// SCT100///
                        13/13 Q1011=
201905250430 METAR LRTM 250430Z AUTO 24004KT 9999 BKN013/// 14/13 Q1011=
201905250500 METAR LRTM 250500Z 24005KT 9999 SCT013 BKN035 14/13 Q1011=
201905250530 METAR LRTM 250530Z 24004KT 9999 SCT015 BKN023 15/13 Q1011=
201905250600 METAR LRTM 250600Z 24004KT 9999 SCT015 BKN025 15/12 Q1012=
201905250630 METAR LRTM 250630Z 25004KT 210V290 9999 SCT015 SCT026 16/13
                        Q1012=
201905250700 METAR LRTM 250700Z 28005KT 240V320 9999 FEW015 SCT027 17/12
                        Q1012=
201905250730 METAR LRTM 250730Z 27005KT 210V320 9999 SCT014 SCT030 17/13
                        Q1012=
201905250800 METAR LRTM 250800Z 31006KT 270V340 9999 SCT016 BKN030 17/12
                        Q1012=
201905250830 METAR LRTM 250830Z 31008KT 9999 FEW016 SCT022 17/13 Q1012=
201905250900 METAR LRTM 250900Z 29007KT 240V330 9999 FEW016 SCT023 FEW025CB
                        18/13 Q1012=
201905250930 METAR LRTM 250930Z 30007KT 260V340 9999 FEW017 SCT025 FEW027CB
                        19/13 Q1012=
201905251000 METAR LRTM 251000Z 32007KT 270V350 9999 SCT026 FEW028CB 18/14
                        Q1012=
201905251030 METAR LRTM 251030Z 33006KT 290V360 9999 SCT028 FEW033CB 19/14
                        Q1012=
201905251100 METAR LRTM 251100Z 32006KT 280V350 9999 SCT028 FEW033CB 20/14
                        Q1012=
201905251130 METAR LRTM 251130Z 29005KT 240V330 9999 SCT028 FEW034CB 20/14
                        Q1012=
201905251200 METAR LRTM 251200Z 27008KT 240V300 9999 SCT028 FEW034CB 21/14
                        Q1012=
201905251230 METAR LRTM 251230Z 24012KT 9999 VCSH SCT028 FEW034CB 20/15
                        Q1012=
201905251300 METAR LRTM 251300Z 24012KT 9999 SCT034 FEW037CB 20/15 Q1012=
201905251330 METAR LRTM 251330Z 25010KT 220V280 9999 SCT035 FEW037CB 18/14
                        Q1012=
201905251400 METAR LRTM 251400Z 25008KT 9999 SCT036 FEW038CB 18/14 Q1012=
201905251430 METAR LRTM 251430Z 25007KT 9999 FEW036 FEW038CB 19/15 Q1012=
201905251500 METAR LRTM 251500Z 27009KT 240V310 9999 SCT036 FEW038CB 20/14
                        Q1012=
201905251530 METAR LRTM 251530Z 27010KT 9999 FEW037 FEW040CB 20/13 Q1012=
201905251600 METAR LRTM 251600Z 24009KT 9999 FEW037 FEW040CB 19/15 Q1012=
201905251630 METAR LRTM 251630Z 24008KT 9999 FEW037 FEW040CB 20/14 Q1012=
201905251700 METAR LRTM 251700Z 24008KT 9999 FEW038 FEW042CB 19/14 Q1013=
201905251730 METAR LRTM 251730Z AUTO 23006KT 9999 OVC093/// 18/15 Q1013=
201905251800 METAR LRTM 251800Z AUTO 24004KT 9999 FEW042/// OVC094///
                        18/15 Q1013=
201905251830 METAR LRTM 251830Z AUTO 27004KT 9999 FEW042/// BKN100///
                        17/14 Q1013=
201905251900 METAR LRTM 251900Z AUTO 26004KT 9999 OVC100/// 16/14 Q1014=
201905251930 METAR LRTM 251930Z AUTO 30003KT 230V340 9999 BKN042/// SCT100///
                        16/14 Q1014=
201905252000 METAR LRTM 252000Z AUTO 24005KT 9999 SCT041/// BKN053///
                        16/14 Q1014=
201905252030 METAR LRTM 252030Z AUTO 24007KT 9999 BKN049/// 15/14 Q1014=
201905252100 METAR LRTM 252100Z AUTO 24006KT 9999 NCD 14/13 Q1014=
201905252130 METAR LRTM 252130Z AUTO 27004KT 250V310 9999 NCD 15/14 Q1014=
201905252200 METAR LRTM 252200Z AUTO 23005KT 9999 NCD 13/12 Q1015=
201905252230 METAR LRTM 252230Z AUTO 25003KT 9999 NCD 14/12 Q1015=
201905252300 METAR LRTM 252300Z AUTO 25003KT 9999 NCD 13/12 Q1015=
201905252330 METAR LRTM 252330Z AUTO 26003KT 9999 NCD 13/12 Q1015=
201905260000 METAR LRTM 260000Z AUTO 33002KT 3100 R07/1900VP2000D BR NCD
                        13/12 Q1015=
201905260030 METAR LRTM 260030Z AUTO 00000KT //// R07////// FEW040///
                        12/11 Q1015=
201905260100 METAR LRTM 260100Z AUTO 07001KT 6000 BKN036/// BKN046///
                        12/11 Q1015=
201905260130 METAR LRTM 260130Z AUTO 00000KT 5000 R07/1600VP2000U SCT040///
                        BKN051/// 12/12 Q1015=
201905260200 METAR LRTM 260200Z AUTO 00000KT 7000 FEW003/// BKN052///
                        12/12 Q1015=
201905260230 METAR LRTM 260230Z AUTO VRB01KT 6000 BKN050/// 13/12 Q1015=
201905260300 METAR LRTM 260300Z AUTO 00000KT 7000 BKN052/// 13/12 Q1016=
201905260330 METAR LRTM 260330Z VRB01KT 8000 MIFG SCT006 13/13 Q1016=
201905260400 METAR LRTM 260400Z 27001KT 8000 MIFG SCT007 14/13 Q1016=
201905260430 METAR LRTM 260430Z 00000KT 8000 SCT008 14/13 Q1016=
201905260500 METAR LRTM 260500Z 27003KT 240V310 8000 FEW009 15/14 Q1016=
201905260530 METAR LRTM 260530Z VRB02KT 9000 FEW010 16/14 Q1016=
201905260600 METAR LRTM 260600Z 25004KT 200V280 9999 FEW020 17/14 Q1017=
201905260630 METAR LRTM 260630Z 26003KT 180V300 9999 FEW020 18/13 Q1017=
201905260700 METAR LRTM 260700Z 27003KT 180V340 9999 SCT023 19/14 Q1017=
201905260730 METAR LRTM 260730Z VRB01KT 9999 SCT024 20/14 Q1017=
201905260800 METAR LRTM 260800Z 22003KT 9999 SCT025 21/15 Q1017=
201905260830 METAR LRTM 260830Z VRB03KT 9999 BKN025 21/14 Q1017=
201905260900 METAR LRTM 260900Z VRB03KT 9999 BKN025 22/14 Q1017=
201905260930 METAR LRTM 260930Z VRB03KT 9999 BKN027 21/13 Q1017=
201905261000 METAR LRTM 261000Z 29004KT 210V010 9999 BKN030 22/13 Q1016=
201905261030 METAR LRTM 261030Z 27005KT 200V330 9999 BKN032 23/13 Q1016=
201905261100 METAR LRTM 261100Z VRB03KT 9999 BKN034 23/13 Q1016=
201905261130 METAR LRTM 261130Z VRB03KT 9999 BKN034 24/12 Q1016=
201905261200 METAR LRTM 261200Z 30004KT 220V020 9999 SCT035 24/12 Q1016=
201905261230 METAR LRTM 261230Z VRB03KT 9999 SCT035 24/11 Q1016=
201905261300 METAR LRTM 261300Z VRB02KT 9999 FEW038 25/12 Q1015=
201905261330 METAR LRTM 261330Z 10003KT 050V160 9999 FEW038 24/10 Q1015=
201905261400 METAR LRTM 261400Z VRB02KT 9999 FEW040 25/11 Q1015=
201905261430 METAR LRTM 261430Z VRB02KT 9999 FEW040 24/11 Q1015=
201905261500 METAR LRTM 261500Z VRB01KT 9999 FEW040 FEW042CB 25/10 Q1015=
201905261530 METAR LRTM 261530Z 00000KT 9999 FEW042 FEW045CB 24/10 Q1015=
201905261600 METAR LRTM 261600Z AUTO 24003KT 9999 NCD 23/11 Q1015=
201905261630 METAR LRTM 261630Z AUTO 26001KT 9999 NCD 24/10 Q1015=
201905261700 METAR LRTM 261700Z AUTO 00000KT 9999 NCD 23/12 Q1015=
201905261730 METAR LRTM 261730Z AUTO 22002KT 9999 NCD 21/14 Q1015=
201905261800 METAR LRTM 261800Z AUTO 33003KT 9999 NCD 19/15 Q1015=
201905261830 METAR LRTM 261830Z AUTO 00000KT 9999 NCD 18/14 Q1015=
201905261900 METAR LRTM 261900Z AUTO 35002KT 320V020 9999 NCD 16/14 Q1016=
201905261930 METAR LRTM 261930Z AUTO 06003KT 010V080 9999 NCD 15/12 Q1016=
201905262000 METAR LRTM 262000Z AUTO VRB01KT 9999 NCD 14/12 Q1016=
201905262030 METAR LRTM 262030Z AUTO 09005KT 9999 NCD 13/11 Q1016=
201905262100 METAR LRTM 262100Z AUTO 09004KT 9999 NCD 13/11 Q1016=
201905262130 METAR LRTM 262130Z AUTO 10004KT 9999 FEW087/// 13/11 Q1016=
201905262200 METAR LRTM 262200Z AUTO 11004KT 9999 NCD 13/11 Q1016=
201905262230 METAR LRTM 262230Z AUTO 10004KT 9999 NCD 13/11 Q1016=
201905262300 METAR LRTM 262300Z AUTO 09005KT 9999 NCD 12/11 Q1016=
201905262330 METAR LRTM 262330Z AUTO 09006KT 9999 NCD 12/11 Q1016=
201905270000 METAR LRTM 270000Z AUTO 09004KT 9999 NCD 12/11 Q1016=
201905270030 METAR LRTM 270030Z AUTO 09005KT 9999 NCD 12/11 Q1016=
201905270100 METAR LRTM 270100Z AUTO 10005KT 9999 NCD 12/11 Q1016=
201905270130 METAR LRTM 270130Z AUTO 09005KT 9999 NCD 12/11 Q1016=
201905270200 METAR LRTM 270200Z AUTO 09004KT //// R07////// SCT096///
                        11/10 Q1016=
201905270230 METAR LRTM 270230Z AUTO 09005KT 9999 FEW100/// 12/11 Q1016=
201905270300 METAR LRTM 270300Z AUTO 10005KT 9999 FEW097/// 12/11 Q1016=
201905270330 METAR LRTM 270330Z AUTO 09006KT 9999 SCT093/// 12/11 Q1016=
201905270400 METAR LRTM 270400Z AUTO 08007KT 9999 BKN180/// 13/12 Q1016=
201905270430 METAR LRTM 270430Z AUTO 07006KT 9000 BKN170/// 14/12 Q1016=
201905270500 METAR LRTM 270500Z 08005KT CAVOK 14/12 Q1016=
201905270530 METAR LRTM 270530Z 07005KT CAVOK 15/13 Q1016=
201905270600 METAR LRTM 270600Z 07005KT 030V090 CAVOK 17/13 Q1016=
201905270630 METAR LRTM 270630Z 10003KT 050V180 CAVOK 18/13 Q1016=
201905270700 METAR LRTM 270700Z 06004KT 020V110 CAVOK 20/14 Q1016=
201905270730 METAR LRTM 270730Z 08004KT 040V140 CAVOK 22/16 Q1016=
201905270800 METAR LRTM 270800Z VRB03KT 9999 FEW034 23/15 Q1015=
201905270830 METAR LRTM 270830Z 11004KT 360V150 9999 FEW034 24/15 Q1015=
201905270900 METAR LRTM 270900Z 11004KT 040V210 9999 FEW035 25/13 Q1015=
201905270930 METAR LRTM 270930Z 14005KT 100V200 9999 FEW036 25/13 Q1015=
201905271000 METAR LRTM 271000Z 18006KT 150V210 9999 FEW036 24/13 Q1015=
201905271030 METAR LRTM 271030Z 18005KT 150V220 9999 FEW036 25/15 Q1015=
201905271100 METAR LRTM 271100Z 20006KT 170V230 9999 FEW037 24/14 Q1015=
201905271130 METAR LRTM 271130Z 20004KT 170V250 9999 FEW037 25/14 Q1015=
201905271200 METAR LRTM 271200Z VRB05KT 9999 FEW038 25/13 Q1015=
201905271230 METAR LRTM 271230Z 22004KT 170V270 9999 FEW040 25/15 Q1014=
201905271300 METAR LRTM 271300Z 20005KT 9999 FEW042 24/14 Q1014=
201905271330 METAR LRTM 271330Z 23004KT 170V270 9999 FEW042 25/14 Q1014=
201905271400 METAR LRTM 271400Z 25003KT 9999 FEW043 25/14 Q1014=
201905271430 METAR LRTM 271430Z 26002KT 9999 FEW043 25/14 Q1014=
201905271500 METAR LRTM 271500Z 26002KT 9999 FEW043 25/14 Q1014=
201905271530 METAR COR LRTM 271530Z 27002KT 9999 -RA SCT044 24/14 Q1013=
201905271600 METAR LRTM 271600Z VRB01KT 9999 SCT044 24/14 Q1013=
201905271630 METAR LRTM 271630Z 29002KT 9999 SCT044 23/15 Q1013=
201905271700 METAR LRTM 271700Z 01002KT 9999 SCT044 23/16 Q1013=
201905271730 METAR LRTM 271730Z AUTO 34002KT 310V020 9999 BKN097/// 22/16
                        Q1013=
201905271800 METAR LRTM 271800Z AUTO 35003KT 9999 OVC100/// 21/17 Q1013=
201905271830 METAR LRTM 271830Z AUTO 00000KT 9999 OVC094/// 21/17 Q1013=
201905271900 METAR LRTM 271900Z AUTO 08003KT 9999 OVC090/// 20/17 Q1013=
201905271930 METAR LRTM 271930Z AUTO 07002KT 9999 BKN100/// 20/16 Q1013=
201905272000 METAR LRTM 272000Z AUTO VRB01KT 9999 FEW100/// SCT180///
                        18/16 Q1013=
201905272030 METAR LRTM 272030Z AUTO 00000KT 9999 BKN100/// 18/16 Q1013=
201905272100 METAR LRTM 272100Z AUTO 00000KT 9999 BKN100/// 18/16 Q1013=
201905272130 METAR LRTM 272130Z AUTO VRB01KT 9999 BKN100/// 18/16 Q1013=
201905272200 METAR LRTM 272200Z AUTO 08002KT 9999 OVC094/// 18/16 Q1013=
201905272230 METAR LRTM 272230Z AUTO 08003KT 040V100 9999 -SHRA OVC092///
                        18/16 Q1013=
201905272300 METAR LRTM 272300Z AUTO 09005KT 9999 -SHRA OVC087/// 17/16
                        Q1013=
201905272330 METAR LRTM 272330Z AUTO 06006KT 9999 OVC092/// 17/16 Q1012
                        RERA=
201905280000 METAR LRTM 280000Z AUTO 08002KT 9999 OVC087/// 17/16 Q1012=
201905280030 METAR LRTM 280030Z AUTO 08005KT 9999 OVC085/// 17/16 Q1012=
201905280100 METAR LRTM 280100Z AUTO 07005KT 9999 BKN085/// BKN110///
                        17/16 Q1012=
201905280130 METAR LRTM 280130Z AUTO 07007KT 9999 OVC091/// 17/15 Q1011=
201905280200 METAR LRTM 280200Z AUTO 07005KT 040V100 9999 FEW100/// 16/14
                        Q1011=
201905280230 METAR LRTM 280230Z AUTO 09004KT 070V140 9999 NCD 15/14 Q1011=
201905280300 METAR LRTM 280300Z AUTO 07005KT 8000 NCD 15/14 Q1011=
201905280330 METAR LRTM 280330Z AUTO 11004KT 9999 NCD 15/14 Q1010=
201905280400 METAR LRTM 280400Z AUTO 11004KT 9999 NCD 17/15 Q1011=
201905280430 METAR LRTM 280430Z AUTO 36002KT 290V050 9999 NCD 18/15 Q1011=
201905280500 METAR LRTM 280500Z VRB01KT CAVOK 20/15 Q1011=
201905280530 METAR LRTM 280530Z 07003KT 010V130 CAVOK 20/16 Q1011=
201905280600 METAR LRTM 280600Z 07006KT 9999 FEW035CB SCT040 20/15 Q1010=
201905280630 METAR LRTM 280630Z 10006KT 9999 SCT040 21/14 Q1011=
201905280700 METAR LRTM 280700Z 10006KT 9999 SCT043 21/14 Q1010=
201905280730 METAR LRTM 280730Z 11006KT 080V140 9999 FEW045 23/14 Q1010=
201905280800 METAR LRTM 280800Z 09008KT 070V130 9999 FEW047 23/14 Q1010=
201905280830 METAR LRTM 280830Z 09005KT 060V140 9999 SCT048 23/13 Q1010=
201905280900 METAR LRTM 280900Z 13008KT CAVOK 24/14 Q1010=
201905280930 METAR LRTM 280930Z 10007KT 060V140 9999 FEW023 25/14 Q1010=
201905281000 METAR LRTM 281000Z 12006KT 050V160 9999 FEW023 26/14 Q1009=
201905281030 METAR LRTM 281030Z 09005KT 050V130 9999 FEW025 26/14 Q1009=
201905281100 METAR LRTM 281100Z 11003KT 040V170 9999 FEW025 27/14 Q1009=
201905281130 METAR LRTM 281130Z 13007KT 110V170 9999 SCT027 27/13 Q1008=
201905281200 METAR LRTM 281200Z 17007KT 140V230 9999 FEW030 27/13 Q1008=
201905281230 METAR LRTM 281230Z 15007KT 110V200 9999 SCT030 28/14 Q1007=
201905281300 METAR LRTM 281300Z 15012KT 9999 FEW032 28/13 Q1007=
201905281330 METAR LRTM 281330Z 13008KT 9999 FEW032 28/14 Q1006=
201905281400 METAR LRTM 281400Z 20008KT 170V230 9999 FEW032 FEW034TCU
                        27/14 Q1006=
201905281430 METAR LRTM 281430Z 18008KT 150V210 9999 FEW034 FEW036TCU
                        28/13 Q1006=
201905281500 METAR LRTM 281500Z 16010KT 130V200 9999 FEW036 27/13 Q1005=
201905281530 METAR LRTM 281530Z 18011KT 9999 FEW038 28/15 Q1005=
201905281600 METAR LRTM 281600Z 19012KT 9999 FEW040 FEW042CB 27/14 Q1005=
201905281630 METAR LRTM 281630Z 19011KT 9999 FEW042 26/13 Q1006=
201905281700 METAR LRTM 281700Z 20013KT 9999 FEW042 FEW045CB 25/10 Q1006=
201905281730 METAR LRTM 281730Z AUTO 19012KT 9999 NCD 24/11 Q1006=
201905281800 METAR LRTM 281800Z AUTO 20012KT 9999 NCD 23/11 Q1007=
201905281830 METAR LRTM 281830Z AUTO 20009KT 9999 BKN110/// 22/12 Q1007=
201905281900 METAR LRTM 281900Z AUTO 23017KT 9999 FEW086/// SCT120///
                        22/13 Q1008=
201905281930 METAR LRTM 281930Z AUTO 28010KT //// R07////// FEW110///
                        19/11 Q1009=
201905282000 METAR LRTM 282000Z AUTO 31008KT 270V340 //// R07////// BKN097///
                        19/11 Q1009=
201905282030 METAR LRTM 282030Z AUTO 31004KT 270V330 9999 OVC089/// 19/14
                        Q1009=
201905282100 METAR LRTM 282100Z AUTO 22003KT 160V310 9999 FEW060/// OVC083///
                        18/14 Q1009=
201905282130 METAR LRTM 282130Z AUTO 21010KT 170V230 5000 R07/1200VP2000D
                        +SHRA SCT034/// 16/14 Q1011=
201905282200 METAR LRTM 282200Z AUTO 14006KT 8000 +TSRA FEW028/// 15/14
                        Q1010=
201905282230 METAR LRTM 282230Z AUTO 07006KT 7000 +RA FEW086/// 15/14
                        Q1010=
201905282300 METAR LRTM 282300Z AUTO 12005KT 080V140 9999 RA FEW094///
                        15/14 Q1010=
201905282330 METAR LRTM 282330Z AUTO 09005KT 9999 -RA OVC070/// 15/14
                        Q1010=
201905290000 METAR LRTM 290000Z AUTO 08005KT 9999 -SHRA SCT084/// 15/14
                        Q1009=
201905290030 METAR LRTM 290030Z AUTO 09005KT 9999 -SHRA BKN110/// 15/14
                        Q1009=
201905290100 METAR LRTM 290100Z AUTO 10004KT 9999 SCT100/// 15/14 Q1010
                        RERA=
201905290130 METAR LRTM 290130Z AUTO 14005KT 100V170 9999 FEW100/// 14/13
                        Q1009=
201905290200 METAR LRTM 290200Z AUTO 03003KT 340V050 9999 NCD 14/13 Q1009=
201905290230 METAR LRTM 290230Z AUTO 31002KT 280V020 9999 FEW140/// 14/13
                        Q1009=
201905290300 METAR LRTM 290300Z AUTO 00000KT 9999 FEW140/// 13/12 Q1009=
201905290330 METAR LRTM 290330Z 00000KT 8000 MIFG FEW008 14/13 Q1010=
201905290400 METAR LRTM 290400Z 00000KT 8000 MIFG FEW008 15/14 Q1010=
201905290430 METAR LRTM 290430Z VRB01KT 9000 FEW009 16/14 Q1010 R07/19//95=
201905290500 METAR LRTM 290500Z VRB01KT 9999 FEW010 17/14 Q1010 R07/19//95=
201905290530 METAR LRTM 290530Z 00000KT 9999 FEW012 18/15 Q1011 R07/19//95=
201905290600 METAR LRTM 290600Z VRB01KT 9999 FEW007 SCT020 18/14 Q1011
                        R07/19//95=
201905290630 METAR LRTM 290630Z VRB01KT 9999 FEW009 SCT020 19/15 Q1011
                        R07/CLRD//=
201905290700 METAR LRTM 290700Z VRB02KT 9999 FEW017 SCT020 19/14 Q1011=
201905290730 METAR LRTM 290730Z VRB03KT 9999 SCT019 20/15 Q1011=
201905290800 METAR LRTM 290800Z VRB01KT 9999 SCT019 20/13 Q1011=
201905290830 METAR LRTM 290830Z VRB01KT 9999 SCT020 21/14 Q1011=
201905290900 METAR LRTM 290900Z VRB02KT 9999 SCT020 22/14 Q1011=
201905290930 METAR LRTM 290930Z 26004KT 160V310 9999 SCT030 22/15 Q1012=
201905291000 METAR LRTM 291000Z 13003KT 020V170 9999 SCT030 23/15 Q1012=
201905291030 METAR LRTM 291030Z VRB02KT 9999 SCT030 FEW040TCU 23/16 Q1011=
201905291100 METAR LRTM 291100Z 29004KT 200V340 9999 SCT033 FEW045CB 23/16
                        Q1011=
201905291130 METAR LRTM 291130Z 08004KT 360V140 9999 SCT033 FEW045CB 24/15
                        Q1011=
201905291200 METAR LRTM 291200Z VRB02KT 9999 SCT035 FEW045CB 24/14 Q1011=
201905291230 METAR LRTM 291230Z 19003KT 120V290 9999 SCT035 FEW048CB 25/15
                        Q1011=
201905291300 METAR LRTM 291300Z 20002KT 9999 SCT033 FEW045CB 25/13 Q1011=
201905291330 METAR LRTM 291330Z VRB03KT 9999 SCT033 FEW045CB 25/14 Q1011=
201905291400 METAR LRTM 291400Z 32004KT 260V360 9999 SCT033 SCT042CB 24/14
                        Q1011=
201905291430 METAR LRTM 291430Z 28005KT 9999 VCTS SCT033 SCT042CB 24/15
                        Q1011=
201905291500 METAR LRTM 291500Z 27005KT 210V340 9999 SCT033 FEW042CB 25/14
                        Q1011=
201905291530 METAR LRTM 291530Z 28005KT 220V360 9999 FEW033 FEW045CB 25/14
                        Q1011=
201905291600 METAR LRTM 291600Z AUTO 28006KT 250V320 9999 FEW032/// 24/14
                        Q1011=
201905291630 METAR LRTM 291630Z AUTO 32004KT 290V350 9999 FEW100/// 24/16
                        Q1011=
201905291700 METAR LRTM 291700Z AUTO 33003KT 9999 NCD 24/15 Q1011=
201905291730 METAR LRTM 291730Z AUTO 29004KT 9999 FEW110/// 22/15 Q1011=
201905291800 METAR LRTM 291800Z AUTO 32004KT 290V350 9999 FEW130/// 21/16
                        Q1012=
201905291830 METAR LRTM 291830Z AUTO 00000KT 9999 BKN120/// 20/16 Q1012=
201905291900 METAR LRTM 291900Z AUTO VRB01KT 9999 OVC110/// 19/16 Q1013=
201905291930 METAR LRTM 291930Z AUTO 25003KT 170V330 9999 OVC110/// 20/16
                        Q1013=
201905292000 METAR LRTM 292000Z AUTO 22003KT 180V240 9999 SCT071/// SCT110///
                        19/15 Q1013=
201905292030 METAR LRTM 292030Z AUTO VRB01KT 9999 FEW070/// 19/16 Q1013=
201905292100 METAR LRTM 292100Z AUTO 26005KT 230V290 9999 SCT060/// 17/15
                        Q1013=
201905292130 METAR LRTM 292130Z AUTO 25005KT 9999 SCT060/// SCT076///
                        BKN130/// 18/16 Q1013=
201905292200 METAR LRTM 292200Z AUTO 03003KT 350V090 9999 BKN062/// SCT130///
                        18/16 Q1013=
201905292230 METAR LRTM 292230Z AUTO 20004KT 130V280 9999 FEW043/// BKN059///
                        18/16 Q1014=
201905292300 METAR LRTM 292300Z AUTO 24008KT 9999 OVC041/// 17/14 Q1014=
201905292330 METAR LRTM 292330Z AUTO 24011KT 9999 DZ VCTS FEW008/// 17/16
                        Q1014=
201905300000 METAR LRTM 300000Z AUTO 28009KT 240V320 9999 -RA FEW037///
                        BKN047/// 17/15 Q1014=
201905300030 METAR LRTM 300030Z AUTO 28004KT 250V060 3700 +SHRA FEW007///
                        SCT042/// 16/15 Q1014=
201905300100 METAR LRTM 300100Z AUTO VRB02KT 9999 -SHRA SCT037/// 16/15
                        Q1014=
201905300130 METAR LRTM 300130Z AUTO 04002KT 330V090 9999 SCT040/// 16/15
                        Q1014=
201905300200 METAR LRTM 300200Z AUTO 18002KT 140V210 //// R07////// FEW059///
                        SCT160/// 16/15 Q1015=
201905300230 METAR LRTM 300230Z AUTO 15004KT 9999 FEW008/// SCT009///
                        BKN042/// 16/15 Q1015=
201905300300 METAR LRTM 300300Z AUTO VRB03KT 3100 R07/1000VP2000U +TSRA
                        BKN009/// 16/15 Q1015=
201905300330 METAR LRTM 300330Z AUTO 19002KT 140V250 9999 SHRA FEW012///
                        BKN051/// 16/15 Q1016=
201905300400 METAR LRTM 300400Z AUTO 00000KT 9999 -RA BKN051/// 16/15
                        Q1016=
201905300430 METAR LRTM 300430Z AUTO 22004KT 190V250 9999 OVC052/// 16/16
                        Q1016 RERA=
201905300500 METAR LRTM 300500Z 21003KT 190V260 9999 SCT008 BKN045 17/16
                        Q1016=
201905300530 METAR LRTM 300530Z 23003KT 210V300 9999 FEW008 SCT020 BKN045
                        17/16 Q1016=
201905300600 METAR LRTM 300600Z 26003KT 9999 FEW008 SCT022 BKN045 18/16
                        Q1017=
201905300630 METAR LRTM 300630Z 27003KT 230V310 9999 FEW009 SCT023 BKN046
                        18/15 Q1017=
201905300700 METAR LRTM 300700Z 26005KT 230V310 9999 FEW012 SCT025 20/16
                        Q1017=
201905300730 METAR LRTM 300730Z 33003KT 280V030 9999 BKN025 20/16 Q1017=
201905300800 METAR LRTM 300800Z VRB02KT 9999 BKN030 21/15 Q1017=
201905300830 METAR LRTM 300830Z VRB02KT 9999 BKN030 FEW032TCU 20/14 Q1017=
201905300900 METAR LRTM 300900Z 10003KT 070V140 9999 BKN030 FEW032TCU
                        22/15 Q1017=
201905300930 METAR LRTM 300930Z VRB03KT 9999 BKN030 FEW032TCU 21/15 Q1017=
201905301000 METAR LRTM 301000Z VRB04KT 9999 BKN030 FEW032TCU 21/16 Q1017=
201905301030 METAR LRTM 301030Z VRB04KT 9999 BKN032 FEW034TCU 22/16 Q1017=
201905301100 METAR LRTM 301100Z VRB03KT 9999 BKN032 FEW034TCU 23/14 Q1017=
201905301130 METAR LRTM 301130Z 32004KT 230V010 9999 BKN032 FEW034CB 24/16
                        Q1017=
201905301200 METAR LRTM 301200Z 36003KT 310V070 9999 VCSH BKN035 SCT038CB
                        23/14 Q1017=
201905301230 METAR LRTM 301230Z 25004KT 220V290 9999 VCSH BKN035 SCT038CB
                        23/15 Q1017=
201905301300 METAR LRTM 301300Z 27013G23KT 190V310 9999 VCSH BKN036 SCT038CB
                        23/16 Q1017=
201905301330 METAR LRTM 301330Z 30012KT 9999 VCSH SCT036 SCT038CB 22/14
                        Q1017=
201905301400 METAR LRTM 301400Z 32013KT 9999 VCSH FEW038 SCT040CB 21/15
                        Q1017=
201905301430 METAR LRTM 301430Z 31012KT 9999 VCSH FEW038 SCT040CB 21/14
                        Q1018=
201905301500 METAR LRTM 301500Z 29008KT 250V330 9999 VCSH FEW038 SCT040CB
                        21/15 Q1018=
201905301530 METAR LRTM 301530Z 29009KT 260V320 9999 VCSH FEW040 SCT042CB
                        21/15 Q1018=
201905301600 METAR LRTM 301600Z 32009KT 290V350 9999 FEW045 20/14 Q1018=
201905301630 METAR LRTM 301630Z 32006KT 290V360 9999 SCT048 20/15 Q1018=
201905301700 METAR LRTM 301700Z 32009KT 280V350 9999 FEW046CB 20/14 Q1018=
201905301730 METAR LRTM 301730Z AUTO 30008KT 280V340 9999 BKN074/// 19/15
                        Q1018=
201905301800 METAR LRTM 301800Z AUTO 26004KT 220V320 9999 FEW020/// SCT077///
                        18/15 Q1019=
201905301830 METAR LRTM 301830Z AUTO 22003KT 190V270 9999 SCT079/// 17/14
                        Q1019=
201905301900 METAR LRTM 301900Z AUTO 24003KT 220V290 9999 FEW032/// BKN110///
                        17/14 Q1020=
201905301930 METAR LRTM 301930Z AUTO 27004KT 240V340 9999 FEW032/// OVC110///
                        17/14 Q1020=
201905302000 METAR LRTM 302000Z AUTO 25004KT 230V290 9999 FEW080/// BKN110///
                        16/14 Q1020=
201905302030 METAR LRTM 302030Z AUTO 25006KT 9999 SCT081/// BKN100///
                        16/14 Q1020=
201905302100 METAR LRTM 302100Z AUTO 25002KT 220V300 9999 FEW080/// SCT200///
                        16/14 Q1020=
201905302130 METAR LRTM 302130Z AUTO 25004KT 9999 BKN015/// SCT078///
                        15/14 Q1020=
201905302200 METAR LRTM 302200Z AUTO 27005KT 9999 FEW018/// BKN086///
                        15/14 Q1020=
201905302230 METAR LRTM 302230Z AUTO 25006KT 9999 FEW030/// SCT180///
                        15/14 Q1020=
201905302300 METAR LRTM 302300Z AUTO 26004KT 9999 BKN030/// 15/14 Q1020=
201905302330 METAR LRTM 302330Z AUTO 25004KT 220V290 9999 FEW030/// SCT200///
                        15/13 Q1020=
201905310000 METAR LRTM 310000Z AUTO 25003KT 220V280 9999 SCT009/// SCT190///
                        15/14 Q1020=
201905310030 METAR LRTM 310030Z AUTO 25004KT 9999 FEW009/// SCT012///
                        15/14 Q1020=
201905310100 METAR LRTM 310100Z AUTO 22006KT 9999 BKN009/// 15/14 Q1020=
201905310130 METAR LRTM 310130Z AUTO 25005KT 9999 OVC009/// 15/14 Q1020=
201905310200 METAR LRTM 310200Z AUTO 27004KT 240V320 9999 BKN009/// 15/14
                        Q1020=
201905310230 METAR LRTM 310230Z AUTO 25005KT 9999 FEW008/// BKN009///
                        15/13 Q1020=
201905310300 METAR LRTM 310300Z AUTO 24004KT 200V270 9999 BKN008/// SCT009///
                        15/13 Q1020=
201905310330 METAR LRTM 310330Z AUTO 24006KT 9999 FEW008/// BKN009///
                        15/13 Q1020=
201905310400 METAR LRTM 310400Z AUTO 25005KT 220V280 9999 BKN009/// SCT017///
                        15/13 Q1020=
201905310430 METAR LRTM 310430Z AUTO 27006KT 240V300 9999 OVC010/// 15/13
                        Q1020=
201905310500 METAR LRTM 310500Z 28005KT 250V320 9999 SCT009 BKN023 16/13
                        Q1020=
201905310530 METAR LRTM 310530Z 30004KT 230V360 9999 SCT010 BKN023 16/13
                        Q1020=
201905310600 METAR LRTM 310600Z 32004KT 290V010 9999 -DZ BKN011 BKN025
                        16/14 Q1020=
201905310630 METAR LRTM 310630Z 33003KT 300V360 9999 SCT011 BKN026 17/14
                        Q1020=
201905310700 METAR LRTM 310700Z 32003KT 260V010 9999 SCT012 BKN027 17/14
                        Q1021=
201905310730 METAR LRTM 310730Z 32003KT 240V020 9999 SCT012 BKN029 18/14
                        Q1020=
201905310800 METAR LRTM 310800Z VRB03KT 9999 SCT016 SCT030 19/14 Q1020=
201905310830 METAR LRTM 310830Z VRB04KT 9999 SCT018 SCT030 19/15 Q1020=
201905310900 METAR LRTM 310900Z 27003KT 200V010 9999 FEW022 SCT030 20/15
                        Q1020=
201905310930 METAR LRTM 310930Z VRB02KT 9999 SCT023 20/15 Q1020=
201905311000 METAR LRTM 311000Z 10003KT 050V160 9999 SCT024 FEW027TCU
                        20/14 Q1020=
201905311030 METAR LRTM 311030Z 14003KT 030V200 9999 SCT025 FEW027TCU
                        21/14 Q1020=
201905311100 METAR LRTM 311100Z 25003KT 170V290 9999 SCT026 FEW028CB 21/14
                        Q1019=
201905311130 METAR LRTM 311130Z VRB03KT 9999 FEW027 FEW030CB 21/15 Q1019=
201905311200 METAR LRTM 311200Z 22004KT 190V270 9999 VCSH SCT027 FEW030CB
                        21/14 Q1019=
201905311230 METAR LRTM 311230Z 17003KT 140V200 9999 VCSH SCT028 SCT031CB
                        21/13 Q1019=
201905311300 METAR LRTM 311300Z VRB01KT 9999 -SHRA SCT028 SCT031CB 21/14
                        Q1019 R07/19//95=
201905311330 METAR LRTM 311330Z VRB02KT 9999 -SHRA SCT030 SCT033CB 20/15
                        Q1019 R07/29//95=
201905311400 METAR LRTM 311400Z 16004KT 130V200 9999 -SHRA FEW030 SCT033CB
                        20/16 Q1018 R07/29//95=
201905311430 METAR LRTM 311430Z 16003KT 100V190 9999 SCT033CB BKN048 21/15
                        Q1018 R07/29//95=
201905311500 METAR LRTM 311500Z 19005KT 9999 SCT035CB BKN044 21/16 Q1018
                        R07/19//95=
201905311530 METAR LRTM 311530Z 17005KT 130V190 9999 SCT036CB BKN045 21/16
                        Q1018 R07/19//95=
201905311600 METAR LRTM 311600Z 17005KT 9999 -RA FEW036CB BKN045 20/16
                        Q1018 R07/19//95=
201905311630 METAR LRTM 311630Z 17006KT 9999 -RA FEW037CB SCT042 19/17
                        Q1018 R07/19//95=
201905311700 METAR LRTM 311700Z 20006KT 160V220 9999 -RA FEW037CB SCT042
                        19/16 Q1018 R07/19//95=
201905311730 METAR LRTM 311730Z AUTO 19004KT 9999 -RA FEW065/// BKN088///
                        18/16 Q1018=
201905311800 METAR LRTM 311800Z AUTO 15005KT 080V200 9999 -SHRA FEW015///
                        SCT026/// 18/16 Q1018=
201905311830 METAR LRTM 311830Z AUTO 20005KT 150V240 5000 +SHRA VCTS FEW011///
                        17/16 Q1018=
201905311900 METAR LRTM 311900Z AUTO 22004KT 170V250 9999 RA FEW007///
                        SCT010/// 17/16 Q1019=
201905311930 METAR LRTM 311930Z AUTO 01002KT 330V100 9999 -RA FEW006///
                        16/16 Q1019=
201905312000 METAR LRTM 312000Z AUTO 30003KT 270V330 9999 RA FEW007///
                        16/15 Q1019=
201905312030 METAR LRTM 312030Z AUTO VRB01KT 9999 FEW008/// BKN069///
                        16/15 Q1019 RERA=
201905312100 METAR LRTM 312100Z AUTO 05001KT 9999 -SHRA SCT009/// BKN012///
                        16/15 Q1019=
201905312130 METAR LRTM 312130Z AUTO 00000KT 9999 FEW011/// SCT069///
                        16/15 Q1018 RERA=
201905312200 METAR LRTM 312200Z AUTO 14002KT 9999 BKN029/// BKN072///
                        16/15 Q1018 REDZ=
201905312230 METAR LRTM 312230Z AUTO VRB01KT 9999 FEW024/// BKN075///
                        16/15 Q1018=
201905312300 METAR LRTM 312300Z AUTO 00000KT 9999 DZ SCT075/// BKN095///
                        16/15 Q1018=
201905312330 METAR LRTM 312330Z AUTO 00000KT 9999 BKN039/// BKN084///
                        16/15 Q1018 REDZ=