201906010200 TAF LRTM 010200Z 0103/0112 VRB04KT 9999 BKN040
                      TEMPO 0109/0112 07010KT 5000 -SHRA SCT035CB
                       BKN040=
201906010500 TAF LRTM 010500Z 0106/0115 12006KT 5000 -SHRA SCT015 SCT035CB BKN040
                       TEMPO 0106/0109 1500 +SHRA BKN005 SCT030CB
                       BKN040
                      TEMPO 0109/0113 18010KT 3000 TSRA BKN015
                       BKN030CB=
201906010800 TAF LRTM 010800Z 0109/0118 17008KT 9999 SCT015 BKN035
                      TEMPO 0109/0112 5000 -TSRA SCT015 SCT035CB
                       BKN040=
201906011100 TAF LRTM 011100Z 0112/0121 VRB04KT 9999 SCT015 SCT040
                      TEMPO 0112/0118 5000 -SHRA SCT015 SCT035CB
                       BKN040
                      PROB30 TEMPO 0114/0118 -TSRA=
201906011400 TAF LRTM 011400Z 0115/0124 VRB04KT 9999 SCT040
                      TEMPO 0115/0118 5000 -TSRA SCT015 SCT035CB
                       BKN040=
201906011700 TAF LRTM 011700Z NIL=
201906012000 TAF LRTM 012000Z NIL=
201906012300 TAF LRTM 012300Z NIL=
201906020200 TAF LRTM 020200Z 0203/0212 VRB04KT 3000 BR BKN005
                      PROB40 TEMPO 0203/0205 0600 FG OVC002
                      BECMG 0205/0207 9999 NSW BKN025=
201906020500 TAF LRTM 020500Z 0206/0215 06006KT 0800 FG BKN002
                      BECMG 0206/0207 3000 BR BKN005
                      BECMG 0207/0208 CAVOK=
201906020800 TAF LRTM 020800Z 0209/0218 VRB04KT 9999 SCT020
                      PROB30 TEMPO 0213/0217 SCT040CB=
201906021100 TAF LRTM 021100Z 0212/0221 VRB04KT 9999 SCT025
                      PROB30 TEMPO 0213/0217 SCT040CB=
201906021400 TAF LRTM 021400Z 0215/0224 VRB04KT 9999 SCT025
                      PROB40 TEMPO 0215/0217 SCT040CB
                      BECMG 0220/0222 5000 BR
                      TEMPO 0222/0224 1500 BR BKN005=
201906021700 TAF LRTM 021700Z NIL=
201906022000 TAF LRTM 022000Z NIL=
201906022300 TAF LRTM 022300Z NIL=
201906030200 TAF LRTM 030200Z NIL=
201906030500 TAF LRTM 030500Z 0306/0315 VRB04KT 9999 SCT040
                      TEMPO 0308/0314 5000 TSRA SCT010 SCT040CB=
201906030800 TAF LRTM 030800Z 0309/0318 VRB04KT 9999 SCT040
                      TEMPO 0309/0316 5000 -SHRA BKN015 SCT040CB
                       PROB30
                      TEMPO 0310/0314 VRB15G25KT 3000 TSRA=
201906031100 TAF LRTM 031100Z 0312/0321 VRB04KT 9999 SCT040
                      TEMPO 0312/0318 5000 -SHRA SCT010 SCT040CB
                       PROB30
                      TEMPO 0312/0315 VRB15G25KT 3000 TSRA=
201906031400 TAF LRTM 031400Z 0315/0324 VRB04KT 9999 SCT040CB
                      TEMPO 0315/0319 5000 -SHRA
                      PROB30 TEMPO 0315/0318 VRB15G25KT 3000 TSRA
                       BECMG 0319/0321 BKN020=
201906031700 TAF LRTM 031700Z 0318/0403 VRB04KT 9999 SCT040CB
                      TEMPO 0318/0319 5000 -SHRA
                      BECMG 0319/0321 BKN020=
201906032000 TAF LRTM 032000Z NIL=
201906032300 TAF LRTM 032300Z NIL=
201906040200 TAF LRTM 040200Z NIL=
201906040500 TAF LRTM 040500Z 0406/0415 VRB04KT CAVOK
                      TEMPO 0411/0415 VRB18KT 3000 TSRA SCT040CB=
201906040800 TAF LRTM 040800Z 0409/0418 VRB04KT CAVOK
                      TEMPO 0411/0416 VRB18KT 3000 TSRA SCT040CB=
201906041100 TAF LRTM 041100Z 0412/0421 VRB04KT CAVOK
                      TEMPO 0412/0416 VRB18KT 3000 TSRA SCT040CB=
201906041400 TAF LRTM 041400Z 0415/0424 20010KT CAVOK
                      PROB30 TEMPO 0415/0417 5000 -TSRA SCT040CB
                       BECMG 0417/0419 VRB04KT=
201906041700 TAF LRTM 041700Z NIL=
201906042000 TAF LRTM 042000Z NIL=
201906050200 TAF LRTM 050200Z NIL=
201906050344 TAF AMD LRTM 050344Z 0503/0512 07006KT CAVOK
                      TEMPO 0503/0505 5000 BR BKN005
                      BECMG 0508/0510 14010KT=
201906050500 TAF LRTM 050500Z 0506/0515 12008KT CAVOK
                      TEMPO 0506/0507 5000 BR BKN005
                      PROB40 TEMPO 0511/0515 5000 TSRA SCT045CB=
201906050800 TAF LRTM 050800Z 0509/0518 13008KT 9999 SCT035
                      PROB40 TEMPO 0511/0516 5000 TSRA SCT045CB=
201906051100 TAF LRTM 051100Z 0512/0521 13010KT 9999 BKN035
                      TEMPO 0512/0516 VRB15G25KT 5000 TSRA SCT045CB=
201906051400 TAF LRTM 051400Z 0515/0524 12006KT 9999 BKN035
                      PROB30 TEMPO 0515/0517 VRB15G25KT 5000 TSRA
                       SCT045CB=
201906051700 TAF LRTM 051700Z NIL=
201906052000 TAF LRTM 052000Z NIL=
201906052300 TAF LRTM 052300Z NIL=
201906060200 TAF LRTM 060200Z NIL=
201906060500 TAF LRTM 060500Z 0606/0615 VRB04KT 9999 SCT040
                      TEMPO 0606/0609 5000 -SHRA SCT040CB
                      PROB30 TEMPO 0612/0615 5000 -TSRA SCT040CB=
201906060800 TAF LRTM 060800Z 0609/0618 VRB04KT 9999 SCT040
                      PROB30 TEMPO 0612/0615 5000 -TSRA SCT040CB=
201906061100 TAF LRTM 061100Z 0612/0621 VRB04KT 9999 SCT040
                      TEMPO 0612/0615 5000 -TSRA SCT040CB=
201906061400 TAF LRTM 061400Z 0615/0624 VRB04KT 9999 SCT040
                      TEMPO 0615/0617 SCT040CB
                      TEMPO 0621/0624 3000 BR BKN010=
201906061700 TAF LRTM 061700Z NIL=
201906062000 TAF LRTM 062000Z NIL=
201906062300 TAF LRTM 062300Z NIL=
201906070200 TAF LRTM 070200Z NIL=
201906070500 TAF LRTM 070500Z 0706/0715 VRB04KT CAVOK
                      TEMPO 0706/0709 FEW040CB
                      PROB40 TEMPO 0711/0715 5000 -TSRA SCT010
                       SCT050CB=
201906070800 TAF LRTM 070800Z 0709/0718 VRB04KT CAVOK
                      PROB40 TEMPO 0713/0717 5000 -TSRA SCT010
                       SCT050CB=
201906071100 TAF LRTM 071100Z 0712/0721 VRB04KT CAVOK
                      PROB40 TEMPO 0713/0717 5000 -TSRA SCT010
                       SCT040CB=
201906071400 TAF LRTM 071400Z 0715/0724 VRB04KT 9999 SCT040
                      PROB40 TEMPO 0715/0717 5000 -TSRA SCT010
                       SCT040CB=
201906071700 TAF LRTM 071700Z NIL=
201906072000 TAF LRTM 072000Z NIL=
201906072300 TAF LRTM 072300Z NIL=
201906080200 TAF LRTM 080200Z NIL=
201906080500 TAF LRTM 080500Z 0806/0815 VRB04KT 3000 BR BKN005
                      BECMG 0806/0808 9999 NSW SCT025=
201906080800 TAF LRTM 080800Z 0809/0818 VRB04KT 9999 SCT030
                      TEMPO 0813/0815 SCT035CB=
201906081100 TAF LRTM 081100Z 0812/0821 VRB04KT 9999 SCT030
                      TEMPO 0813/0816 SCT035CB=
201906081400 TAF LRTM 081400Z 0815/0824 VRB04KT 9999 SCT040
                      TEMPO 0815/0816 SCT035CB=
201906081700 TAF LRTM 081700Z 0818/0903 VRB04KT 9999 SCT040
                      TEMPO 0818/0820 SCT040CB
                      BECMG 0822/0824 3000 BR=
201906082000 TAF LRTM 082000Z NIL=
201906082300 TAF LRTM 082300Z NIL=
201906090200 TAF LRTM 090200Z NIL=
201906090436 TAF LRTM 090436Z 0904/0912 VRB04KT CAVOK
                      TEMPO 0904/0906 3000 BR BKN010
                      TEMPO 0910/0912 SCT030CB=
201906090500 TAF LRTM 090500Z 0906/0915 VRB04KT CAVOK
                      TEMPO 0913/0915 VRB20G30KT 3000 TSRA BKN010
                       BKN030CB=
201906090800 TAF LRTM 090800Z 0909/0918 VRB04KT CAVOK
                      TEMPO 0913/0917 VRB20G30KT 3000 TSRA BKN010
                       BKN030CB=
201906091100 TAF LRTM 091100Z 0912/0921 VRB04KT CAVOK
                      TEMPO 0912/0916 VRB20G30KT 3000 TSRA BKN010
                       OVC030CB=
201906091400 TAF LRTM 091400Z 0915/0924 VRB04KT CAVOK
                      TEMPO 0915/0918 SCT030CB=
201906091700 TAF LRTM 091700Z 0918/1003 VRB04KT CAVOK
                      PROB30 TEMPO 1000/1003 3000 BR BKN010=
201906092000 TAF LRTM 092000Z NIL=
201906092300 TAF LRTM 092300Z NIL=
201906100200 TAF LRTM 100200Z NIL=
201906100500 TAF LRTM 100500Z 1006/1015 VRB04KT CAVOK
                      TEMPO 1011/1015 SCT040CB=
201906100800 TAF LRTM 100800Z 1009/1018 VRB04KT CAVOK
                      TEMPO 1011/1017 SCT040CB=
201906101100 TAF LRTM 101100Z 1012/1021 10008KT 9999 SCT035
                      TEMPO 1012/1018 5000 -TSRA SCT040CB=
201906101400 TAF LRTM 101400Z 1015/1024 10008KT 9999 SCT040CB
                      TEMPO 1015/1018 5000 -TSRA SCT040CB
                      BECMG 1018/1020 NSC=
201906101700 TAF LRTM 101700Z NIL=
201906102000 TAF LRTM 102000Z NIL=
201906102300 TAF LRTM 102300Z NIL=
201906110200 TAF LRTM 110200Z NIL=
201906110500 TAF LRTM 110500Z 1106/1115 VRB04KT 3000 BR BKN002
                      PROB30 TEMPO 1106/1107 OVC001
                      BECMG 1107/1109 9999 NSW SCT010 FEW040CB
                       TEMPO 1109/1115 5000 TSRA SCT010 BKN030CB=
201906110800 TAF LRTM 110800Z 1109/1118 VRB04KT 9999 SCT040
                      TEMPO 1109/1115 5000 TSRA SCT010 SCT030CB
                       PROB30
                      TEMPO 1109/1112 VRB20KT 3000 TSRA=
201906111100 TAF LRTM 111100Z 1112/1121 VRB04KT 9999 SCT040
                      TEMPO 1112/1115 SCT030CB
                      PROB30 TEMPO 1112/1115 VRB20KT 5000 TSRA=
201906111400 TAF LRTM 111400Z 1115/1124 VRB04KT 9999 SCT040
                      PROB30 TEMPO 1115/1116 FEW030CB=
201906111700 TAF LRTM 111700Z NIL=
201906112000 TAF LRTM 112000Z NIL=
201906112300 TAF LRTM 112300Z NIL=
201906120200 TAF LRTM 120200Z NIL=
201906120500 TAF LRTM 120500Z 1206/1215 VRB04KT CAVOK
                      PROB30 TEMPO 1212/1215 VRB18KT 3000 TSRA
                       BKN040CB=
201906120800 TAF LRTM 120800Z 1209/1218 VRB04KT CAVOK
                      PROB30 TEMPO 1212/1216 VRB18KT 3000 TSRA
                       BKN040CB=
201906121100 TAF LRTM 121100Z 1212/1221 VRB04KT CAVOK
                      PROB30 TEMPO 1213/1216 VRB18KT 3000 TSRA
                       BKN040CB=
201906121400 TAF LRTM 121400Z 1215/1224 VRB04KT CAVOK
                      PROB30 TEMPO 1215/1217 VRB18KT 3000 TSRA
                       BKN040CB=
201906121700 TAF LRTM 121700Z NIL=
201906122000 TAF LRTM 122000Z NIL=
201906122300 TAF LRTM 122300Z NIL=
201906130200 TAF LRTM 130200Z NIL=
201906130500 TAF LRTM 130500Z 1306/1315 VRB04KT CAVOK
                      TEMPO 1313/1315 SCT030CB=
201906130800 TAF LRTM 130800Z 1309/1318 VRB04KT CAVOK
                      TEMPO 1312/1316 SCT030CB=
201906131100 TAF LRTM 131100Z 1312/1321 14008KT CAVOK
                      TEMPO 1312/1316 SCT030CB=
201906131400 TAF LRTM 131400Z 1315/1324 VRB04KT CAVOK=
201906131700 TAF LRTM 131700Z 1318/1403 VRB04KT CAVOK=
201906131914 TAF AMD LRTM 131914Z 1319/1403 CNL=
201906132000 TAF LRTM 132000Z NIL=
201906132300 TAF LRTM 132300Z NIL=
201906140200 TAF LRTM 140200Z NIL=
201906140500 TAF LRTM 140500Z 1406/1415 09006KT CAVOK=
201906140800 TAF LRTM 140800Z 1409/1418 09006KT CAVOK
                      PROB40 TEMPO 1413/1417 SCT040CB=
201906141100 TAF LRTM 141100Z 1412/1421 VRB04KT CAVOK
                      TEMPO 1412/1417 SCT040CB=
201906141400 TAF LRTM 141400Z 1415/1424 VRB04KT CAVOK
                      TEMPO 1415/1419 SCT040CB
                      PROB40 1415/1418 5000 -TSRA=
201906141700 TAF LRTM 141700Z NIL=
201906142000 TAF LRTM 142000Z NIL=
201906142300 TAF LRTM 142300Z NIL=
201906150200 TAF LRTM 150200Z NIL=
201906150500 TAF LRTM 150500Z 1506/1515 VRB04KT CAVOK
                      TEMPO 1510/1515 FEW045CB
                      BECMG 1513/1515 10010KT=
201906150800 TAF LRTM 150800Z 1509/1518 VRB04KT CAVOK
                      TEMPO 1511/1516 FEW045CB
                      BECMG 1513/1515 11010KT=
201906151100 TAF LRTM 151100Z 1512/1521 VRB04KT 9999 SCT040CB
                      PROB40 1513/1517 VRB20G30KT -TSRA
                      BECMG 1517/1519 NSC=
201906151400 TAF LRTM 151400Z 1515/1524 VRB04KT 9999 SCT045CB
                      PROB30 TEMPO 1515/1517 VRB20G30KT -TSRA
                      BECMG 1517/1519 NSC=
201906151700 TAF LRTM 151700Z 1518/1603 VRB04KT CAVOK
                      TEMPO 1518/1521 VRB15KT 5000 -TSRA SCT045CB=
201906152000 TAF LRTM 152000Z NIL=
201906152300 TAF LRTM 152300Z NIL=
201906160200 TAF LRTM 160200Z 1603/1612 VRB04KT CAVOK
                      PROB40 TEMPO 1603/1605 3000 BR=
201906160500 TAF LRTM 160500Z 1606/1615 VRB04KT CAVOK
                      TEMPO 1612/1615 5000 SHRA SCT035CB=
201906160800 TAF LRTM 160800Z 1609/1618 VRB04KT CAVOK
                      TEMPO 1612/1616 5000 SHRA SCT035CB=
201906161100 TAF LRTM 161100Z 1612/1621 VRB04KT CAVOK
                      PROB30 TEMPO 1613/1617 5000 SHRA SCT035CB=
201906161400 TAF LRTM 161400Z 1615/1624 VRB04KT CAVOK
                      PROB30 TEMPO 1615/1618 5000 SHRA SCT035CB=
201906161700 TAF LRTM 161700Z NIL=
201906162000 TAF LRTM 162000Z NIL=
201906162300 TAF LRTM 162300Z NIL=
201906170200 TAF LRTM 170200Z NIL=
201906170500 TAF LRTM 170500Z 1706/1715 VRB04KT CAVOK
                      BECMG 1708/1710 SCT040CB
                      TEMPO 1711/1715 VRB15G25KT 5000 TSRA=
201906170800 TAF LRTM 170800Z 1709/1718 VRB04KT CAVOK
                      BECMG 1709/1711 SCT040CB
                      TEMPO 1711/1716 VRB15G25KT 5000 TSRA=
201906171100 TAF LRTM 171100Z 1712/1721 VRB04KT 9999 SCT050CB
                      PROB40 TEMPO 1712/1716 VRB15G25KT 5000 TSRA
                       BECMG 1717/1719 NSC=
201906171400 TAF LRTM 171400Z 1715/1724 VRB04KT 9999 SCT040CB
                      TEMPO 1715/1718 VRB15G25KT 3000 TSRA BKN015
                       BKN035CB
                      BECMG 1718/1720 NSC=
201906171700 TAF LRTM 171700Z 1718/1803 VRB04KT CAVOK=
201906172000 TAF LRTM 172000Z NIL=
201906172300 TAF LRTM 172300Z NIL=
201906180200 TAF LRTM 180200Z NIL=
201906180500 TAF LRTM 180500Z 1806/1815 09006KT CAVOK
                      BECMG 1810/1812 SCT045CB
                      TEMPO 1812/1815 VRB20G30KT 3000 TSRA SCT010
                       BKN035CB
                      PROB30 1813/1815 1500 +TSRAGR BKN010 BKN030CB=
201906180800 TAF LRTM 180800Z 1809/1818 VRB04KT CAVOK
                      BECMG 1810/1812 SCT045CB
                      TEMPO 1812/1816 VRB20G30KT 3000 TSRA SCT010
                       BKN035CB
                      PROB30 1813/1815 1500 +TSRAGR BKN010 BKN030CB
                       BECMG 1816/1818 NSC=
201906181100 TAF LRTM 181100Z 1812/1821 VRB04KT 9999 FEW040CB
                      TEMPO 1812/1816 VRB20G30KT 3000 TSRA SCT010
                       BKN035CB
                      PROB30 1813/1815 1500 +TSRAGR BKN010 BKN030CB
                       BECMG 1816/1818 NSC=
201906181400 TAF LRTM 181400Z 1815/1824 16007KT 9999 SCT040CB
                      TEMPO 1815/1817 VRB20KT 5000 -TSRA
                      BECMG 1817/1819 NSC=
201906181700 TAF LRTM 181700Z NIL=
201906182000 TAF LRTM 182000Z NIL=
201906182300 TAF LRTM 182300Z NIL=
201906190200 TAF LRTM 190200Z 1903/1912 VRB03KT 3000 BR NSC
                      TEMPO 1903/1905 0800 FG
                      BECMG 1905/1907 9999 NSW BKN025=
201906190500 TAF LRTM 190500Z 1906/1915 07005KT CAVOK
                      BECMG 1909/1911 13010KT
                      PROB30 TEMPO 1912/1915 -TSRA SCT040CB=
201906190800 TAF LRTM 190800Z 1909/1918 VRB04KT 9999 SCT040
                      PROB30 TEMPO 1912/1915 13010KT -TSRA SCT040CB=
201906191100 TAF LRTM 191100Z 1912/1921 VRB04KT 9999 SCT040 FEW050CB
                      PROB30 TEMPO 1914/1917 13010KT -TSRA SCT040CB=
201906191400 TAF LRTM 191400Z 1915/1924 VRB04KT 9999 SCT040CB
                      TEMPO 1915/1917 13010KT 5000 TSRA
                      BECMG 1917/1919 SCT040=
201906191700 TAF LRTM 191700Z NIL=
201906192000 TAF LRTM 192000Z NIL=
201906192300 TAF LRTM 192300Z NIL=
201906200200 TAF LRTM 200200Z NIL=
201906200500 TAF LRTM 200500Z 2006/2015 VRB04KT CAVOK
                      PROB30 TEMPO 2012/2015 VRB16G26KT 5000 TSRA
                       SCT040CB=
201906200800 TAF LRTM 200800Z 2009/2018 VRB04KT CAVOK
                      TEMPO 2011/2016 SCT040CB
                      PROB30 TEMPO 2012/2016 VRB18G28KT 5000 TSRA=
201906201100 TAF LRTM 201100Z 2012/2021 VRB04KT CAVOK
                      TEMPO 2012/2017 SCT035CB
                      PROB30 TEMPO 2012/2016 VRB18G28KT 5000 TSRA=
201906201400 TAF LRTM 201400Z 2015/2024 VRB04KT CAVOK
                      TEMPO 2015/2018 SCT035CB
                      PROB40 TEMPO 2015/2017 VRB16G26KT 5000 TSRA=
201906201700 TAF LRTM 201700Z NIL=
201906202000 TAF LRTM 202000Z NIL=
201906202300 TAF LRTM 202300Z NIL=
201906210200 TAF LRTM 210200Z NIL=
201906210500 TAF LRTM 210500Z 2106/2115 VRB04KT CAVOK
                      BECMG 2109/2111 SCT040CB
                      PROB40 TEMPO 2112/2115 5000 TSRA=
201906210800 TAF LRTM 210800Z 2109/2118 VRB04KT CAVOK
                      PROB30 TEMPO 2112/2116 VRB20KT 5000 TSRA
                       SCT040CB=
201906211100 TAF LRTM 211100Z 2112/2121 VRB04KT CAVOK
                      PROB30 TEMPO 2112/2116 VRB20KT 5000 TSRA
                       SCT040CB=
201906211400 TAF LRTM 211400Z 2115/2124 VRB04KT CAVOK
                      PROB40 TEMPO 2115/2117 VRB20KT 5000 TSRA
                       SCT040CB=
201906211700 TAF LRTM 211700Z NIL=
201906212000 TAF LRTM 212000Z NIL=
201906212300 TAF LRTM 212300Z NIL=
201906220200 TAF LRTM 220200Z NIL=
201906220500 TAF LRTM 220500Z 2206/2215 VRB04KT 9999 SCT035
                      TEMPO 2206/2207 BKN010
                      BECMG 2210/2212 SCT030CB
                      TEMPO 2212/2215 VRB15G25KT 5000 -TSRA=
201906220800 TAF LRTM 220800Z 2209/2218 VRB04KT 9999 SCT030
                      BECMG 2210/2212 SCT025CB
                      TEMPO 2214/2218 VRB15G25KT 5000 -TSRA=
201906221100 TAF LRTM 221100Z 2212/2221 VRB04KT 9999 SCT030CB
                      TEMPO 2213/2216 VRB15G25KT 5000 -TSRA
                      BECMG 2218/2220 NSC=
201906221400 TAF LRTM 221400Z 2215/2224 VRB04KT 9999 SCT040
                      TEMPO 2215/2218 VRB15G25KT 5000 -TSRA SCT035CB=
201906221700 TAF LRTM 221700Z NIL=
201906222000 TAF LRTM 222000Z NIL=
201906222300 TAF LRTM 222300Z NIL=
201906230200 TAF LRTM 230200Z 2303/2312 VRB04KT CAVOK=
201906230500 TAF LRTM 230500Z 2306/2315 VRB04KT CAVOK
                      TEMPO 2311/2315 SCT050CB=
201906230800 TAF LRTM 230800Z 2309/2318 VRB04KT CAVOK
                      TEMPO 2311/2316 SCT050CB=
201906231100 TAF LRTM 231100Z 2312/2321 12006KT 9999 SCT040CB
                      PROB30 TEMPO 2314/2316 -TSRA=
201906231400 TAF LRTM 231400Z 2315/2324 VRB04KT 9999 FEW040CB
                      PROB40 TEMPO 2316/2317 5000 -TSRA BKN010
                       BKN040CB
                      BECMG 2317/2319 NSC=
201906231700 TAF LRTM 231700Z NIL=
201906232000 TAF LRTM 232000Z NIL=
201906232300 TAF LRTM 232300Z NIL=
201906240200 TAF LRTM 240200Z NIL=
201906240500 TAF LRTM 240500Z 2406/2415 27005KT CAVOK
                      PROB30 TEMPO 2411/2415 3000 TSRA BKN045CB=
201906240800 TAF LRTM 240800Z 2409/2418 VRB04KT CAVOK
                      PROB30 TEMPO 2411/2416 3000 TSRA BKN045CB=
201906241100 TAF LRTM 241100Z 2412/2421 VRB04KT 9999 FEW045CB
                      PROB30 TEMPO 2412/2416 3000 TSRA BKN040CB
                       BECMG 2416/2418 NSC=
201906241400 TAF LRTM 241400Z 2415/2424 VRB04KT 9999 FEW045CB
                      BECMG 2415/2417 NSC=
201906241700 TAF LRTM 241700Z NIL=
201906242000 TAF LRTM 242000Z NIL=
201906242300 TAF LRTM 242300Z NIL=
201906250200 TAF LRTM 250200Z 2503/2512 VRB04KT CAVOK
                      TEMPO 2503/2504 5000 BR
                      PROB40 TEMPO 2509/2512 VRB20G30KT 5000 TSRA
                       SCT040CB=
201906250500 TAF LRTM 250500Z 2506/2515 VRB04KT CAVOK
                      TEMPO 2506/2509 SCT040CB
                      PROB40 TEMPO 2510/2514 VRB15G25KT 5000 TSRA
                       SCT040CB=
201906250800 TAF LRTM 250800Z 2509/2518 VRB04KT CAVOK
                      TEMPO 2510/2514 VRB15G25KT 5000 TSRA SCT040CB=
201906251100 TAF LRTM 251100Z 2512/2521 VRB04KT CAVOK
                      TEMPO 2512/2516 VRB15G25KT 5000 TSRA SCT040CB=
201906251400 TAF LRTM 251400Z 2515/2524 VRB04KT CAVOK=
201906251700 TAF LRTM 251700Z NIL=
201906252000 TAF LRTM 252000Z NIL=
201906252300 TAF LRTM 252300Z NIL=
201906260200 TAF LRTM 260200Z 2603/2612 VRB04KT CAVOK
                      TEMPO 2603/2604 3000 BR=
201906260500 TAF LRTM 260500Z 2606/2615 VRB04KT 5000 BR SCT005
                      BECMG 2606/2608 CAVOK=
201906260800 TAF LRTM 260800Z 2609/2618 VRB04KT CAVOK=
201906261100 TAF LRTM 261100Z 2612/2621 VRB04KT CAVOK=
201906261400 TAF LRTM 261400Z 2615/2624 VRB04KT CAVOK=
201906261700 TAF LRTM 261700Z NIL=
201906262000 TAF LRTM 262000Z NIL=
201906262300 TAF LRTM 262300Z NIL=
201906270200 TAF LRTM 270200Z 2703/2712 VRB04KT CAVOK
                      TEMPO 2703/2705 3000 BR
                      BECMG 2708/2710 30010KT SCT030CB
                      TEMPO 2710/2712 32015G25KT=
201906270500 TAF LRTM 270500Z 2706/2715 VRB04KT CAVOK
                      BECMG 2708/2710 28010KT
                      TEMPO 2712/2715 30015G25KT SCT050CB=
201906270800 TAF LRTM 270800Z 2709/2718 VRB04KT CAVOK
                      BECMG 2709/2711 28010KT
                      BECMG 2711/2713 SCT045CB
                      TEMPO 2714/2718 30015G25KT 3000 TSRA BKN010
                       BKN035CB=
201906271100 TAF LRTM 271100Z 2712/2721 28010KT 9999 SCT045
                      BECMG 2712/2714 SCT045CB
                      TEMPO 2715/2720 30015G25KT 3000 TSRA BKN010
                       BKN035CB=
201906271400 TAF LRTM 271400Z 2715/2724 26010KT 9999 SCT045CB
                      TEMPO 2715/2718 VRB30G45KT 3000 TSRA SQ BKN010
                       BKN035CB
                      TEMPO 2718/2720 5000 -TSRA=
201906271700 TAF LRTM 271700Z 2718/2803 26006KT 9999 SCT045
                      TEMPO 2718/2721 5000 TSRA SCT015 BKN045CB
                       TEMPO 2800/2803 5000 BR=
201906272000 TAF LRTM 272000Z NIL=
201906272300 TAF LRTM 272300Z NIL=
201906280200 TAF LRTM 280200Z NIL=
201906280500 TAF LRTM 280500Z 2806/2815 32008KT 9999 BKN015 OVC035
                      BECMG 2806/2808 CAVOK
                      TEMPO 2810/2815 34015G25KT=
201906280514 TAF COR LRTM 280514Z 2805/2812 32008KT 9999 BKN015 OVC035
                      BECMG 2806/2808 CAVOK=
201906280800 TAF LRTM 280800Z 2809/2818 30008KT 9999 BKN035
                      TEMPO 2810/2815 32015G25KT
                      BECMG 2815/2817 02010KT=
201906281100 TAF LRTM 281100Z 2812/2821 30012KT CAVOK
                      TEMPO 2812/2815 32015G25KT
                      BECMG 2815/2817 02010KT=
201906281400 TAF LRTM 281400Z 2815/2824 31014KT CAVOK
                      BECMG 2815/2817 02010KT=
201906281700 TAF LRTM 281700Z NIL=
201906282000 TAF LRTM 282000Z NIL=
201906282300 TAF LRTM 282300Z NIL=
201906290200 TAF LRTM 290200Z 2903/2912 VRB04KT CAVOK
                      TEMPO 2903/2905 3000 BR
                      BECMG 2906/2908 32012KT=
201906290500 TAF LRTM 290500Z 2906/2915 VRB04KT CAVOK
                      BECMG 2906/2908 32012KT SCT030CB
                      PROB30 TEMPO 2910/2915 3000 TSRA BKN025CB=
201906290800 TAF LRTM 290800Z 2909/2918 31010KT CAVOK
                      PROB30 TEMPO 2910/2915 5000 -TSRA BKN025CB=
201906291100 TAF LRTM 291100Z 2912/2921 29010KT CAVOK
                      TEMPO 2912/2915 31015G25KT
                      PROB30 2912/2915 5000 -TSRA BKN025CB=
201906291400 TAF LRTM 291400Z 2915/2924 31010KT CAVOK
                      TEMPO 2915/2917 31020G30KT=
201906291700 TAF LRTM 291700Z NIL=
201906292000 TAF LRTM 292000Z NIL=
201906292300 TAF LRTM 292300Z NIL=
201906300200 TAF LRTM 300200Z 3003/3012 VRB04KT CAVOK
                      BECMG 3005/3007 30010KT=
201906300500 TAF LRTM 300500Z 3006/3015 30006KT CAVOK=
201906300800 TAF LRTM 300800Z 3009/3018 25007KT CAVOK=
201906301100 TAF LRTM 301100Z 3012/3021 27008KT CAVOK=
201906301400 TAF LRTM 301400Z 3015/3024 29012KT CAVOK
                      BECMG 3019/3021 VRB04KT=
201906301700 TAF LRTM 301700Z NIL=
201906302000 TAF LRTM 302000Z NIL=
201906302300 TAF LRTM 302300Z NIL=
