201907010000 METAR LRTM 010000Z AUTO 10003KT 9999 NCD 15/14 Q1021=
201907010030 METAR LRTM 010030Z AUTO 08005KT 9999 NCD 14/13 Q1021=
201907010100 METAR LRTM 010100Z AUTO 09005KT 9999 NCD 14/13 Q1021=
201907010130 METAR LRTM 010130Z AUTO 10005KT 9999 NCD 15/14 Q1021=
201907010200 METAR LRTM 010200Z AUTO 07003KT 9999 NCD 14/13 Q1021=
201907010230 METAR LRTM 010230Z AUTO 10002KT 9000 NCD 14/13 Q1021=
201907010300 METAR LRTM 010300Z AUTO 09004KT 9999 NCD 14/13 Q1021=
201907010330 METAR LRTM 010330Z AUTO 10004KT 9999 NCD 15/14 Q1021=
201907010400 METAR LRTM 010400Z AUTO 09004KT 9999 NCD 16/15 Q1021=
201907010430 METAR LRTM 010430Z AUTO 08005KT 9999 NCD 17/15 Q1021=
201907010500 METAR LRTM 010500Z 10004KT 070V140 CAVOK 18/15 Q1021=
201907010530 METAR LRTM 010530Z 07003KT 360V130 CAVOK 19/16 Q1021=
201907010600 METAR LRTM 010600Z VRB01KT CAVOK 21/16 Q1021=
201907010630 METAR LRTM 010630Z VRB01KT CAVOK 22/17 Q1021=
201907010700 METAR LRTM 010700Z 00000KT CAVOK 24/18 Q1021=
201907010730 METAR LRTM 010730Z VRB01KT CAVOK 25/19 Q1021=
201907010800 METAR LRTM 010800Z VRB02KT CAVOK 26/18 Q1021=
201907010830 METAR LRTM 010830Z VRB01KT CAVOK 27/18 Q1021=
201907010900 METAR LRTM 010900Z VRB02KT CAVOK 28/19 Q1020=
201907010930 METAR LRTM 010930Z VRB03KT CAVOK 28/17 Q1020=
201907011000 METAR LRTM 011000Z 19004KT 140V230 CAVOK 28/18 Q1020=
201907011030 METAR LRTM 011030Z VRB03KT CAVOK 28/18 Q1020=
201907011100 METAR LRTM 011100Z 16004KT 120V250 CAVOK 29/19 Q1020=
201907011130 METAR LRTM 011130Z 11005KT 050V160 CAVOK 29/17 Q1019=
201907011200 METAR LRTM 011200Z 12004KT 060V150 CAVOK 30/19 Q1019=
201907011230 METAR LRTM 011230Z 19004KT 110V230 CAVOK 30/18 Q1019=
201907011300 METAR LRTM 011300Z VRB03KT CAVOK 30/18 Q1018=
201907011330 METAR LRTM 011330Z 15003KT 060V200 CAVOK 31/17 Q1018=
201907011400 METAR LRTM 011400Z VRB01KT CAVOK 31/18 Q1018=
201907011430 METAR LRTM 011430Z VRB02KT CAVOK 32/19 Q1018=
201907011500 METAR LRTM 011500Z VRB02KT CAVOK 31/17 Q1017=
201907011530 METAR LRTM 011530Z 14003KT 110V170 CAVOK 31/18 Q1017=
201907011600 METAR LRTM 011600Z VRB02KT CAVOK 31/17 Q1017=
201907011630 METAR LRTM 011630Z 15002KT CAVOK 31/16 Q1017=
201907011700 METAR LRTM 011700Z 00000KT CAVOK 32/18 Q1017=
201907011730 METAR LRTM 011730Z AUTO 00000KT 9999 NCD 29/19 Q1017=
201907011800 METAR LRTM 011800Z AUTO 35004KT 9999 NCD 26/20 Q1017=
201907011830 METAR LRTM 011830Z AUTO 36003KT 330V030 9999 NCD 23/20 Q1017=
201907011900 METAR LRTM 011900Z AUTO 34003KT 9999 NCD 22/20 Q1017=
201907011930 METAR LRTM 011930Z AUTO 06002KT 360V120 9999 NCD 21/19 Q1017=
201907012000 METAR LRTM 012000Z AUTO 08005KT 9999 NCD 21/18 Q1017=
201907012030 METAR LRTM 012030Z AUTO 07006KT 9999 NCD 20/17 Q1017=
201907012100 METAR LRTM 012100Z AUTO 09007KT 9999 NCD 20/18 Q1017=
201907012130 METAR LRTM 012130Z AUTO 10004KT 9999 NCD 19/17 Q1017=
201907012200 METAR LRTM 012200Z AUTO 10004KT 9999 NCD 19/17 Q1017=
201907012230 METAR LRTM 012230Z AUTO 09006KT 9999 NCD 19/17 Q1017=
201907012300 METAR LRTM 012300Z AUTO 11004KT 9999 NCD 18/17 Q1017=
201907012330 METAR LRTM 012330Z AUTO 10005KT 7000 NCD 18/17 Q1017=
201907020000 METAR LRTM 020000Z AUTO 10005KT 9999 NCD 18/17 Q1016=
201907020030 METAR LRTM 020030Z AUTO 10004KT 9999 NCD 18/16 Q1016=
201907020100 METAR LRTM 020100Z AUTO 09006KT 9999 NCD 18/17 Q1016=
201907020130 METAR LRTM 020130Z AUTO 10003KT 9999 NCD 17/16 Q1016=
201907020200 METAR LRTM 020200Z AUTO 09004KT 8000 NCD 16/16 Q1016=
201907020230 METAR LRTM 020230Z AUTO 09004KT 7000 NCD 16/16 Q1016=
201907020300 METAR LRTM 020300Z AUTO 10005KT 9999 NCD 17/16 Q1016=
201907020330 METAR LRTM 020330Z AUTO 08004KT //// R07////// NCD /////
                        Q1016=
201907020400 METAR COR LRTM 020400Z 11005KT 070V130 CAVOK 18/16 Q1016=
201907020430 METAR LRTM 020430Z 07004KT CAVOK 19/17 Q1016=
201907020500 METAR LRTM 020500Z 08005KT CAVOK 20/17 Q1015=
201907020530 METAR LRTM 020530Z VRB02KT CAVOK 21/18 Q1015=
201907020600 METAR LRTM 020600Z 06003KT 020V110 CAVOK 23/18 Q1015=
201907020630 METAR LRTM 020630Z VRB02KT CAVOK 24/18 Q1015=
201907020700 METAR LRTM 020700Z 31002KT CAVOK 25/19 Q1015=
201907020730 METAR LRTM 020730Z VRB02KT CAVOK 26/19 Q1015=
201907020800 METAR LRTM 020800Z VRB02KT CAVOK 27/18 Q1015=
201907020830 METAR LRTM 020830Z VRB02KT CAVOK 28/19 Q1015=
201907020900 METAR LRTM 020900Z VRB03KT CAVOK 29/17 Q1015=
201907020930 METAR LRTM 020930Z VRB02KT CAVOK 30/18 Q1014=
201907021000 METAR LRTM 021000Z 13003KT 060V220 CAVOK 30/18 Q1014=
201907021030 METAR LRTM 021030Z 08004KT 340V140 CAVOK 31/18 Q1014=
201907021100 METAR LRTM 021100Z VRB03KT CAVOK 31/19 Q1014=
201907021130 METAR LRTM 021130Z VRB02KT CAVOK 33/18 Q1014=
201907021200 METAR LRTM 021200Z 26004KT 200V300 CAVOK 33/20 Q1013=
201907021230 METAR LRTM 021230Z VRB04KT CAVOK 33/19 Q1013=
201907021300 METAR LRTM 021300Z 22003KT 120V280 CAVOK 34/16 Q1013=
201907021330 METAR LRTM 021330Z 32006KT 260V360 9999 FEW045 34/15 Q1013=
201907021400 METAR LRTM 021400Z VRB04KT 9999 FEW046 33/16 Q1013=
201907021430 METAR LRTM 021430Z VRB03KT 9999 FEW046 34/15 Q1013=
201907021500 METAR LRTM 021500Z VRB02KT 9999 FEW048 33/18 Q1013=
201907021530 METAR LRTM 021530Z 09003KT 050V170 9999 FEW048 33/19 Q1013=
201907021600 METAR LRTM 021600Z 14003KT 080V160 9999 FEW048 32/18 Q1013=
201907021630 METAR COR LRTM 021630Z 17003KT CAVOK 33/18 Q1013=
201907021700 METAR LRTM 021700Z 17003KT CAVOK 32/20 Q1012=
201907021730 METAR LRTM 021730Z AUTO 18003KT 9999 NCD 29/20 Q1012=
201907021800 METAR LRTM 021800Z AUTO 33004KT 9999 NCD 28/19 Q1013=
201907021830 METAR LRTM 021830Z AUTO VRB01KT 9999 NCD 26/20 Q1013=
201907021900 METAR LRTM 021900Z AUTO 00000KT 9999 NCD 25/19 Q1013=
201907021930 METAR LRTM 021930Z AUTO 00000KT 9999 NCD 24/20 Q1013=
201907022000 METAR LRTM 022000Z AUTO 00000KT 9999 NCD 23/20 Q1013=
201907022030 METAR LRTM 022030Z AUTO 00000KT 9999 NCD 22/20 Q1013=
201907022100 METAR LRTM 022100Z AUTO VRB01KT 9999 NCD 22/19 Q1014=
201907022130 METAR LRTM 022130Z AUTO 00000KT 9999 NCD 21/19 Q1014=
201907022200 METAR LRTM 022200Z AUTO 00000KT 9999 NCD 21/19 Q1014=
201907022230 METAR LRTM 022230Z AUTO 08002KT 9999 NCD 20/19 Q1014=
201907022300 METAR LRTM 022300Z AUTO 00000KT 9999 NCD 20/19 Q1014=
201907022330 METAR LRTM 022330Z AUTO 00000KT 9999 NCD 20/19 Q1014=
201907030000 METAR LRTM 030000Z AUTO 00000KT 9000 NCD 20/19 Q1014=
201907030030 METAR LRTM 030030Z AUTO 00000KT 8000 NCD 19/18 Q1014=
201907030100 METAR LRTM 030100Z AUTO 00000KT 8000 NCD 19/18 Q1013=
201907030130 METAR LRTM 030130Z AUTO 00000KT 8000 NCD 19/18 Q1013=
201907030200 METAR LRTM 030200Z AUTO 00000KT 8000 FEW056/// 19/18 Q1013=
201907030230 METAR LRTM 030230Z AUTO 12002KT 8000 SCT061/// 18/18 Q1014=
201907030300 METAR LRTM 030300Z AUTO 05002KT 360V070 7000 FEW063/// 18/18
                        Q1014=
201907030330 METAR LRTM 030330Z 07004KT CAVOK 19/18 Q1014=
201907030400 METAR LRTM 030400Z 09001KT CAVOK 20/19 Q1014=
201907030430 METAR LRTM 030430Z 07003KT 030V100 CAVOK 21/20 Q1014=
201907030500 METAR LRTM 030500Z 06003KT 020V090 CAVOK 22/19 Q1014=
201907030530 METAR LRTM 030530Z VRB01KT CAVOK 23/20 Q1014=
201907030600 METAR LRTM 030600Z VRB01KT 9999 FEW045CB 25/20 Q1014=
201907030630 METAR LRTM 030630Z 27005KT 200V310 9999B VCSH FEW018 SCT048CB
                        24/21 Q1015=
201907030700 METAR LRTM 030700Z 30009KT 260V340 9999 -TSRA FEW018 SCT040CB
                        BKN046 21/15 Q1015=
201907030730 METAR LRTM 030730Z 32005KT 280V020 7000 -TSRA FEW015 SCT038CB
                        BKN045 18/16 Q1015 RESHRA R07/29//95=
201907030800 METAR LRTM 030800Z 05006KT 030V090 9000 -TSRA FEW015 SCT038CB
                        BKN045 18/17 Q1015 R07/29//95=
201907030830 METAR LRTM 030830Z 08007KT 9999 -SHRA FEW016 SCT040CB BKN048
                        19/17 Q1016 RETS R07/29//95=
201907030900 METAR LRTM 030900Z 05005KT 320V090 9999 -SHRA FEW016 SCT040CB
                        BKN048 18/17 Q1016 R07/29//95=
201907030930 METAR LRTM 030930Z 10004KT 060V140 9999 -SHRA FEW013 SCT038CB
                        BKN046 19/17 Q1017 R07/29//95=
201907031000 METAR LRTM 031000Z 12004KT 080V160 9999 VCSH FEW015 SCT040CB
                        BKN048 20/17 Q1017 R07/29//95=
201907031030 METAR LRTM 031030Z 17005KT 150V210 9999 VCSH FEW017 SCT042CB
                        BKN048 20/18 Q1017 R07/29//95=
201907031100 METAR LRTM 031100Z VRB02KT 9999 FEW008 FEW045CB SCT048 21/18
                        Q1016 R07/29//95=
201907031130 METAR LRTM 031130Z VRB02KT CAVOK 22/17 Q1017 R07/29//95=
201907031200 METAR LRTM 031200Z VRB03KT 9999 FEW023 23/18 Q1017 R07/CLRD//=
201907031230 METAR LRTM 031230Z VRB03KT 9999 FEW030 24/17 Q1017=
201907031300 METAR LRTM 031300Z VRB03KT 9999 FEW030 25/19 Q1017=
201907031330 METAR LRTM 031330Z 14005KT 080V190 9999 FEW032 25/19 Q1017=
201907031400 METAR LRTM 031400Z 16006KT 120V190 9999 SCT035 25/18 Q1017=
201907031430 METAR LRTM 031430Z 13004KT 070V200 9999 SCT036 26/19 Q1016=
201907031500 METAR LRTM 031500Z 24005KT 200V270 9999 SCT038 27/19 Q1016=
201907031530 METAR LRTM 031530Z 26005KT 9999 SCT040 26/17 Q1016=
201907031600 METAR LRTM 031600Z 32011KT 9999 SCT040 26/11 Q1016=
201907031630 METAR LRTM 031630Z 32010KT 9999 SCT042 26/10 Q1016=
201907031700 METAR LRTM 031700Z 32007KT 300V360 9999 FEW045 24/11 Q1016=
201907031730 METAR LRTM 031730Z 31005KT 270V330 9999 FEW046 24/11 Q1017=
201907031800 METAR LRTM 031800Z AUTO 30005KT 250V330 9999 OVC064/// 23/12
                        Q1017=
201907031830 METAR LRTM 031830Z AUTO 30004KT 260V340 9999 OVC066/// 22/12
                        Q1017=
201907031900 METAR LRTM 031900Z AUTO 29004KT 260V330 9999 BKN066/// SCT084///
                        21/12 Q1017=
201907031930 METAR LRTM 031930Z AUTO 23004KT 9999 FEW069/// 19/13 Q1017=
201907032000 METAR LRTM 032000Z AUTO 24005KT 9999 SCT070/// 17/12 Q1018=
201907032030 METAR LRTM 032030Z AUTO 21003KT 9999 FEW072/// 18/12 Q1018=
201907032100 METAR LRTM 032100Z AUTO 21004KT 9999 FEW075/// 17/12 Q1018=
201907032130 METAR LRTM 032130Z AUTO 35002KT 320V100 9999 NCD 15/12 Q1018=
201907032200 METAR LRTM 032200Z AUTO 24002KT 9999 NCD 15/13 Q1019=
201907032230 METAR LRTM 032230Z AUTO 00000KT 9999 NCD 14/12 Q1019=
201907032300 METAR LRTM 032300Z AUTO 02003KT 350V070 9999 NCD 14/12 Q1019=
201907032330 METAR LRTM 032330Z AUTO 00000KT 9999 NCD 13/12 Q1019=
201907040000 METAR LRTM 040000Z AUTO 00000KT 9999 NCD 13/11 Q1019=
201907040030 METAR LRTM 040030Z AUTO 02002KT 350V050 9999 NCD 13/11 Q1019=
201907040100 METAR LRTM 040100Z AUTO 35002KT 320V030 9999 NCD 12/11 Q1019=
201907040130 METAR LRTM 040130Z AUTO 06003KT 9999 NCD 12/11 Q1019=
201907040200 METAR LRTM 040200Z AUTO 09003KT 040V110 9999 NCD 12/11 Q1019=
201907040230 METAR LRTM 040230Z AUTO 10003KT 9999 NCD 12/11 Q1019=
201907040300 METAR LRTM 040300Z AUTO 09007KT 9999 NCD 12/11 Q1019=
201907040330 METAR LRTM 040330Z AUTO 07005KT 8000 NCD 12/11 Q1019=
201907040400 METAR LRTM 040400Z 08003KT CAVOK 13/12 Q1019=
201907040430 METAR LRTM 040430Z 10004KT CAVOK 14/13 Q1019=
201907040500 METAR LRTM 040500Z 07005KT 020V090 CAVOK 16/13 Q1020=
201907040530 METAR LRTM 040530Z 08003KT 020V180 CAVOK 17/14 Q1020=
201907040600 METAR LRTM 040600Z 08003KT 020V130 CAVOK 18/14 Q1019=
201907040630 METAR LRTM 040630Z 05003KT 350V110 CAVOK 20/14 Q1019=
201907040700 METAR LRTM 040700Z 07003KT 340V140 CAVOK 21/14 Q1019=
201907040730 METAR LRTM 040730Z VRB03KT CAVOK 22/14 Q1019=
201907040800 METAR LRTM 040800Z VRB02KT CAVOK 23/13 Q1019=
201907040830 METAR LRTM 040830Z VRB01KT CAVOK 24/14 Q1019=
201907040900 METAR LRTM 040900Z VRB02KT CAVOK 25/15 Q1019=
201907040930 METAR LRTM 040930Z VRB03KT CAVOK 25/13 Q1019=
201907041000 METAR LRTM 041000Z VRB03KT 9999 FEW046 26/13 Q1019=
201907041030 METAR LRTM 041030Z 19004KT 100V260 9999 FEW048 27/14 Q1019=
201907041100 METAR LRTM 041100Z VRB02KT CAVOK 27/14 Q1019=
201907041130 METAR LRTM 041130Z 21006KT 140V290 CAVOK 27/12 Q1019=
201907041200 METAR LRTM 041200Z VRB04KT CAVOK 28/15 Q1018=
201907041230 METAR LRTM 041230Z 19005KT 130V250 CAVOK 28/13 Q1018=
201907041300 METAR LRTM 041300Z VRB03KT CAVOK 29/14 Q1018=
201907041330 METAR LRTM 041330Z VRB04KT CAVOK 29/14 Q1018=
201907041400 METAR LRTM 041400Z VRB04KT CAVOK 29/13 Q1017=
201907041430 METAR LRTM 041430Z 28003KT 200V010 CAVOK 29/13 Q1017=
201907041500 METAR LRTM 041500Z 21005KT 170V280 CAVOK 28/13 Q1017=
201907041530 METAR LRTM 041530Z 27004KT 230V330 CAVOK 28/14 Q1017=
201907041600 METAR LRTM 041600Z 27005KT CAVOK 27/13 Q1017=
201907041630 METAR LRTM 041630Z 32008KT 260V350 CAVOK 27/14 Q1017=
201907041700 METAR LRTM 041700Z 34009KT CAVOK 25/14 Q1017=
201907041730 METAR LRTM 041730Z 32009KT CAVOK 24/14 Q1017=
201907041800 METAR LRTM 041800Z 34007KT CAVOK 22/13 Q1017=
201907041830 METAR LRTM 041830Z VRB02KT CAVOK 22/13 Q1018=
201907041900 METAR LRTM 041900Z 25004KT CAVOK 20/14 Q1018=
201907041930 METAR LRTM 041930Z 25004KT CAVOK 20/14 Q1018=
201907042000 METAR LRTM 042000Z AUTO 26004KT 230V300 9999 BKN062/// 20/14
                        Q1019=
201907042030 METAR LRTM 042030Z AUTO 27004KT 230V310 9999 SCT062/// 20/14
                        Q1019=
201907042100 METAR LRTM 042100Z AUTO VRB01KT 9999 SCT064/// 20/14 Q1019=
201907042130 METAR LRTM 042130Z AUTO 25003KT 9999 SCT057/// 19/13 Q1019=
201907042200 METAR LRTM 042200Z AUTO 25004KT 9999 BKN055/// 18/14 Q1019=
201907042230 METAR LRTM 042230Z AUTO VRB01KT 9999 NCD 17/14 Q1019=
201907042300 METAR LRTM 042300Z AUTO VRB02KT 9999 BKN053/// 17/14 Q1019=
201907042330 METAR LRTM 042330Z AUTO 23002KT 9999 BKN053/// 17/14 Q1019=
201907050000 METAR LRTM 050000Z AUTO 26003KT 9999 OVC051/// 17/14 Q1019=
201907050030 METAR LRTM 050030Z AUTO 25003KT 9999 NCD 15/13 Q1018=
201907050100 METAR LRTM 050100Z AUTO 28002KT 9999 NCD 14/12 Q1018=
201907050130 METAR LRTM 050130Z AUTO 27003KT 9999 NCD 14/13 Q1018=
201907050200 METAR LRTM 050200Z AUTO VRB01KT 9999 FEW051/// 14/12 Q1018=
201907050230 METAR LRTM 050230Z AUTO 00000KT 9999 NCD 13/12 Q1018=
201907050300 METAR LRTM 050300Z AUTO 27002KT 230V330 9999 NCD 13/12 Q1018=
201907050330 METAR LRTM 050330Z AUTO VRB01KT 9999 NCD 13/12 Q1018=
201907050400 METAR LRTM 050400Z AUTO 00000KT 9999 NCD 15/13 Q1018=
201907050430 METAR LRTM 050430Z AUTO 08002KT 060V120 9999 NCD 16/14 Q1018=
201907050500 METAR LRTM 050500Z 07003KT 030V100 9999 FEW012 17/14 Q1018=
201907050530 METAR LRTM 050530Z VRB02KT 9999 FEW015 18/15 Q1018=
201907050600 METAR LRTM 050600Z VRB02KT CAVOK 19/14 Q1018=
201907050630 METAR LRTM 050630Z VRB03KT CAVOK 21/14 Q1018=
201907050700 METAR LRTM 050700Z VRB02KT CAVOK 22/16 Q1017=
201907050730 METAR LRTM 050730Z VRB02KT 9999 FEW023 23/13 Q1017=
201907050800 METAR LRTM 050800Z 22003KT 140V290 9999 FEW023 23/12 Q1017=
201907050830 METAR LRTM 050830Z VRB03KT 9999 FEW025 24/13 Q1017=
201907050900 METAR LRTM 050900Z 23006KT 180V320 9999 SCT025 25/15 Q1017=
201907050930 METAR LRTM 050930Z 24008KT 190V270 9999 SCT026 25/13 Q1017=
201907051000 METAR LRTM 051000Z 25007KT 210V280 9999 SCT028 26/12 Q1016=
201907051030 METAR LRTM 051030Z 25006KT 9999 SCT028 26/13 Q1016=
201907051100 METAR LRTM 051100Z VRB05KT 9999 SCT030 26/12 Q1016=
201907051130 METAR LRTM 051130Z 07004KT 340V130 9999 SCT032 26/10 Q1015=
201907051200 METAR LRTM 051200Z 30006KT 250V360 9999 FEW034 FEW038CB 27/09
                        Q1015=
201907051230 METAR LRTM 051230Z 36004KT 300V090 9999 FEW034 FEW038CB 27/08
                        Q1015=
201907051300 METAR LRTM 051300Z 36003KT 280V090 9999 SCT036 FEW040CB 27/10
                        Q1014=
201907051330 METAR LRTM 051330Z 20006KT 170V260 9999 SCT036 FEW040CB 27/09
                        Q1014=
201907051400 METAR LRTM 051400Z 21004KT 120V270 9999 SCT038 FEW042CB 28/11
                        Q1014=
201907051430 METAR LRTM 051430Z 28005KT 230V030 9999 SCT038 FEW042CB 27/11
                        Q1014=
201907051500 METAR LRTM 051500Z 29005KT 240V330 9999 SCT040 27/12 Q1014=
201907051530 METAR LRTM 051530Z 35007KT 9999 SCT042 26/13 Q1013=
201907051600 METAR LRTM 051600Z 30008KT 280V350 CAVOK 26/12 Q1013=
201907051630 METAR LRTM 051630Z 32005KT 290V350 CAVOK 26/12 Q1013=
201907051700 METAR LRTM 051700Z 34003KT CAVOK 25/12 Q1013=
201907051730 METAR LRTM 051730Z AUTO 32002KT 280V360 9999 NCD 23/15 Q1013=
201907051800 METAR LRTM 051800Z AUTO VRB02KT 9999 FEW072/// 22/13 Q1013=
201907051830 METAR LRTM 051830Z AUTO 00000KT 9999 NCD 21/14 Q1013=
201907051900 METAR LRTM 051900Z AUTO 00000KT 9999 FEW070/// 19/14 Q1013=
201907051930 METAR LRTM 051930Z AUTO 26002KT 230V320 9999 SCT066/// 18/15
                        Q1013=
201907052000 METAR LRTM 052000Z AUTO 00000KT 9999 NCD 18/14 Q1013=
201907052030 METAR LRTM 052030Z AUTO VRB01KT 9999 NCD 16/14 Q1013=
201907052100 METAR LRTM 052100Z AUTO 24006KT 9999 FEW080/// 16/13 Q1013=
201907052130 METAR LRTM 052130Z AUTO VRB03KT 9999 FEW085/// 16/14 Q1013=
201907052200 METAR LRTM 052200Z AUTO 26003KT 220V340 9999 FEW070/// 16/14
                        Q1013=
201907052230 METAR LRTM 052230Z AUTO 27002KT 150V310 9999 FEW070/// 17/14
                        Q1013=
201907052300 METAR LRTM 052300Z AUTO 24002KT 140V290 9999 FEW070/// SCT085///
                        17/14 Q1013=
201907052330 METAR LRTM 052330Z AUTO 32001KT 9999 FEW070/// BKN110///
                        16/14 Q1013=
201907060000 METAR LRTM 060000Z AUTO 29002KT 190V350 9999 FEW065/// SCT110///
                        16/14 Q1013=
201907060030 METAR LRTM 060030Z AUTO VRB01KT 9999 NCD 15/13 Q1013=
201907060100 METAR LRTM 060100Z AUTO 24003KT 9999 NCD 15/13 Q1013=
201907060130 METAR LRTM 060130Z AUTO 25003KT 9999 NCD 15/12 Q1013=
201907060200 METAR LRTM 060200Z AUTO 27004KT 9999 NCD 16/13 Q1013=
201907060230 METAR LRTM 060230Z AUTO VRB02KT 9999 NCD 14/12 Q1013=
201907060300 METAR LRTM 060300Z AUTO 20005KT 9999 NCD 15/13 Q1013=
201907060330 METAR LRTM 060330Z AUTO 24005KT 9999 NCD 16/13 Q1014=
201907060400 METAR LRTM 060400Z AUTO 25005KT 9999 NCD 17/14 Q1014=
201907060430 METAR LRTM 060430Z AUTO 24005KT 220V280 9999 NCD 19/14 Q1014=
201907060500 METAR LRTM 060500Z 26003KT 210V290 CAVOK 20/14 Q1014=
201907060530 METAR LRTM 060530Z VRB03KT CAVOK 21/14 Q1014=
201907060600 METAR LRTM 060600Z 25005KT 210V340 CAVOK 21/15 Q1014=
201907060630 METAR LRTM 060630Z 28004KT 220V310 CAVOK 22/14 Q1014=
201907060700 METAR LRTM 060700Z VRB04KT 9999 FEW028 23/14 Q1014=
201907060730 METAR LRTM 060730Z VRB05KT 9999 FEW028 24/14 Q1014=
201907060800 METAR LRTM 060800Z 29006KT 250V350 9999 FEW030 24/12 Q1014=
201907060830 METAR COR LRTM 060830Z 27006KT 230V310 9999 FEW030 25/12
                        Q1014=
201907060900 METAR LRTM 060900Z 29006KT 240V330 9999 FEW030 25/11 Q1014=
201907060930 METAR LRTM 060930Z 34005KT 250V050 9999 FEW033 25/10 Q1014=
201907061000 METAR LRTM 061000Z 33008KT 300V010 9999 FEW040 26/09 Q1014=
201907061030 METAR LRTM 061030Z 32007KT 280V350 9999 FEW040 27/10 Q1014=
201907061100 METAR LRTM 061100Z VRB02KT 9999 SCT040 26/09 Q1014=
201907061130 METAR LRTM 061130Z VRB03KT 9999 SCT040 27/10 Q1014=
201907061200 METAR LRTM 061200Z 01005KT 320V060 9999 FEW040 27/10 Q1014=
201907061230 METAR LRTM 061230Z 27008KT 200V350 9999 SCT040 28/11 Q1013=
201907061300 METAR LRTM 061300Z VRB02KT 9999 SCT043 27/10 Q1013=
201907061330 METAR LRTM 061330Z 24007KT 200V270 9999 SCT044 28/11 Q1013=
201907061400 METAR LRTM 061400Z VRB05KT 9999 SCT045 27/12 Q1013=
201907061430 METAR LRTM 061430Z 23006KT CAVOK 28/12 Q1013=
201907061500 METAR LRTM 061500Z 24007KT CAVOK 28/13 Q1012=
201907061530 METAR LRTM 061530Z 27006KT 240V300 CAVOK 27/11 Q1012=
201907061600 METAR LRTM 061600Z 24004KT CAVOK 26/13 Q1012=
201907061630 METAR LRTM 061630Z 26002KT CAVOK 27/13 Q1012=
201907061700 METAR LRTM 061700Z VRB01KT CAVOK 25/13 Q1012=
201907061730 METAR LRTM 061730Z AUTO 36003KT 9999 FEW088/// 24/15 Q1012=
201907061800 METAR LRTM 061800Z AUTO 01003KT 9999 BKN076/// 23/15 Q1012=
201907061830 METAR LRTM 061830Z AUTO 36004KT 9999 FEW077/// 22/14 Q1012=
201907061900 METAR LRTM 061900Z AUTO 00000KT 9999 NCD 20/15 Q1012=
201907061930 METAR LRTM 061930Z AUTO 08004KT 9999 NCD 18/15 Q1012=
201907062000 METAR LRTM 062000Z AUTO 10003KT 080V150 9999 NCD 17/15 Q1012=
201907062030 METAR LRTM 062030Z AUTO 04002KT 330V090 9999 NCD 18/14 Q1012=
201907062100 METAR LRTM 062100Z AUTO VRB01KT 9999 NCD 17/14 Q1012=
201907062130 METAR LRTM 062130Z AUTO 08005KT 9999 NCD 16/13 Q1012=
201907062200 METAR LRTM 062200Z AUTO 09006KT 9999 NCD 16/13 Q1012=
201907062230 METAR LRTM 062230Z AUTO 09006KT 9999 NCD 16/13 Q1012=
201907062300 METAR LRTM 062300Z AUTO 09004KT 9999 NCD 15/13 Q1012=
201907062330 METAR LRTM 062330Z AUTO 10004KT 9999 NCD 15/13 Q1013=
201907070000 METAR LRTM 070000Z AUTO 10004KT 9999 NCD 15/13 Q1013=
201907070030 METAR LRTM 070030Z AUTO 09005KT 9999 NCD 14/12 Q1013=
201907070100 METAR LRTM 070100Z AUTO 09005KT 9999 NCD 14/13 Q1012=
201907070130 METAR LRTM 070130Z AUTO 10005KT 9999 NCD 14/12 Q1012=
201907070200 METAR LRTM 070200Z AUTO 09004KT 9999 NCD 13/12 Q1012=
201907070230 METAR LRTM 070230Z AUTO 09005KT 9999 NCD 13/12 Q1012=
201907070300 METAR LRTM 070300Z AUTO 09005KT 9999 NCD 13/12 Q1011=
201907070330 METAR LRTM 070330Z 10005KT 9000 FEW010 14/12 Q1011=
201907070400 METAR LRTM 070400Z 09004KT CAVOK 15/13 Q1011=
201907070430 METAR LRTM 070430Z 09005KT CAVOK 16/13 Q1011=
201907070500 METAR LRTM 070500Z 09004KT CAVOK 17/14 Q1011=
201907070530 METAR LRTM 070530Z 07004KT 030V090 CAVOK 20/15 Q1010=
201907070600 METAR LRTM 070600Z 07005KT 050V110 CAVOK 21/14 Q1010=
201907070630 METAR LRTM 070630Z 09006KT 060V120 CAVOK 22/14 Q1010=
201907070700 METAR LRTM 070700Z 09005KT 050V130 CAVOK 24/15 Q1010=
201907070730 METAR LRTM 070730Z 08006KT 050V120 CAVOK 25/15 Q1009=
201907070800 METAR LRTM 070800Z 09006KT 050V130 CAVOK 25/14 Q1009=
201907070830 METAR LRTM 070830Z 10006KT 040V160 CAVOK 27/15 Q1009=
201907070900 METAR LRTM 070900Z 14005KT 070V190 CAVOK 28/14 Q1009=
201907070930 METAR LRTM 070930Z 18007KT CAVOK 28/15 Q1009=
201907071000 METAR LRTM 071000Z 20006KT 170V230 CAVOK 27/15 Q1009=
201907071030 METAR LRTM 071030Z 24019KT 9999 -SHRA SCT053CB 24/16 Q1009=
201907071100 METAR LRTM 071100Z 22012KT 9999 -SHRA SCT053CB 21/17 Q1009
                        R07/29//95=
201907071130 METAR LRTM 071130Z 25006KT 180V290 9999 FEW055CB 21/17 Q1009
                        R07/29//95=
201907071200 METAR LRTM 071200Z 27006KT 240V300 9999 FEW055CB 21/18 Q1009
                        R07/29//95=
201907071230 METAR LRTM 071230Z 27004KT 240V300 9999 FEW055CB 22/17 Q1009
                        R07/CLRD//=
201907071300 METAR LRTM 071300Z VRB02KT 9999 FEW055CB 24/16 Q1008=
201907071330 METAR LRTM 071330Z VRB04KT CAVOK 25/17 Q1008=
201907071400 METAR LRTM 071400Z VRB03KT CAVOK 25/17 Q1008=
201907071430 METAR LRTM 071430Z 26005KT 170V320 CAVOK 26/17 Q1007=
201907071500 METAR LRTM 071500Z 20004KT 120V270 9999 FEW047 27/17 Q1007=
201907071530 METAR LRTM 071530Z VRB02KT 9999 FEW045 26/16 Q1007=
201907071600 METAR LRTM 071600Z AUTO 30003KT 250V340 9999 NCD 26/17 Q1007=
201907071630 METAR LRTM 071630Z AUTO 32002KT 270V010 9999 NCD 26/17 Q1006=
201907071700 METAR LRTM 071700Z AUTO 03004KT 350V060 9999 NCD 25/17 Q1006=
201907071730 METAR LRTM 071730Z AUTO 07003KT 020V110 9999 FEW100/// 24/18
                        Q1006=
201907071800 METAR LRTM 071800Z AUTO 10003KT 9999 FEW096/// 23/18 Q1006=
201907071830 METAR LRTM 071830Z AUTO 06006KT 9999 FEW075/// 22/18 Q1006=
201907071900 METAR LRTM 071900Z AUTO 06003KT 010V110 9999 NCD 21/18 Q1007=
201907071930 METAR LRTM 071930Z AUTO 07003KT 9999 SCT190/// 20/17 Q1006=
201907072000 METAR LRTM 072000Z AUTO 11003KT 070V140 9999 FEW053/// SCT240///
                        20/17 Q1007=
201907072030 METAR LRTM 072030Z AUTO 09004KT 9999 SCT240/// 19/17 Q1006=
201907072100 METAR LRTM 072100Z AUTO 08004KT 9999 SCT240/// 19/17 Q1006=
201907072130 METAR LRTM 072130Z AUTO 10003KT 9999 FEW050/// 19/17 Q1006=
201907072200 METAR LRTM 072200Z AUTO VRB01KT 9999 FEW100/// 19/17 Q1007=
201907072230 METAR LRTM 072230Z AUTO 10004KT 9999 -DZ NCD 19/17 Q1007=
201907072300 METAR LRTM 072300Z AUTO 05005KT 010V090 9999 -SHRA SCT046///
                        SCT067/// 19/17 Q1007=
201907072330 METAR LRTM 072330Z AUTO VRB05KT 9999 +TSRA BKN018/// 19/17
                        Q1007=
201907080000 METAR LRTM 080000Z AUTO 35003KT 7000 SHRA VCTS SCT019///
                        19/18 Q1007=
201907080030 METAR LRTM 080030Z AUTO 32005KT 270V010 7000 +RA VCTS FEW015///
                        SCT024/// 18/17 Q1007=
201907080100 METAR LRTM 080100Z AUTO VRB01KT 6000 RA FEW020/// 18/17 Q1007=
201907080130 METAR LRTM 080130Z AUTO 20005KT 9999 -RA FEW046/// SCT060///
                        18/17 Q1007=
201907080200 METAR LRTM 080200Z AUTO 25005KT 9999 SCT067/// BKN086///
                        18/17 Q1007 RERA=
201907080230 METAR LRTM 080230Z AUTO 28004KT 9999 OVC096/// 18/17 Q1008=
201907080300 METAR LRTM 080300Z AUTO 23004KT 7000 FEW006/// SCT098///
                        18/17 Q1008=
201907080330 METAR LRTM 080330Z AUTO 21004KT 9999 -RA FEW029/// OVC100///
                        18/17 Q1008=
201907080400 METAR LRTM 080400Z AUTO 23005KT 9999 FEW006/// BKN097///
                        18/17 Q1008=
201907080430 METAR LRTM 080430Z AUTO 24006KT 9999 FEW022/// BKN096///
                        18/17 Q1009=
201907080500 METAR LRTM 080500Z 22007KT 9999 FEW005 BKN018 18/17 Q1009=
201907080530 METAR LRTM 080530Z 26007KT 9999 FEW008 BKN019 BKN035 19/17
                        Q1009=
201907080600 METAR COR LRTM 080600Z 28006KT 9999 SCT019 BKN035 20/17 Q1010
                        R07/19//95=
201907080630 METAR LRTM 080630Z 29008KT 260V330 9999 SCT018 SCT030 20/16
                        Q1010 R07/19//95=
201907080700 METAR COR LRTM 080700Z 29010KT 270V330 9999 SCT020 SCT030
                        21/16 Q1010 R07/19//95=
201907080730 METAR LRTM 080730Z 30009KT 260V340 9999 FEW021 22/16 Q1011
                        R07/19//95=
201907080800 METAR LRTM 080800Z 30006KT 230V030 9999 SCT021 23/16 Q1011
                        R07/CLRD//=
201907080830 METAR LRTM 080830Z 31008KT 270V360 9999 SCT021 FEW025TCU
                        22/14 Q1011=
201907080900 METAR LRTM 080900Z 30008KT 260V330 9999 SCT021 FEW038CB 23/14
                        Q1011=
201907080930 METAR LRTM 080930Z 31006KT 270V350 9999 SCT021 SCT033CB 22/14
                        Q1011=
201907081000 METAR LRTM 081000Z 32008KT 270V360 9999 VCSH SCT023 SCT033CB
                        22/13 Q1011=
201907081030 METAR LRTM 081030Z 31007KT 280V350 9999 SCT025 FEW033CB 24/14
                        Q1011=
201907081100 METAR LRTM 081100Z 31010KT 280V340 9999 SCT025 FEW033CB 24/14
                        Q1011=
201907081130 METAR LRTM 081130Z 31012KT 260V350 9999 SCT030 FEW040CB 24/13
                        Q1012=
201907081200 METAR LRTM 081200Z 32012KT 9999 SCT030 FEW040CB 24/12 Q1012=
201907081230 METAR LRTM 081230Z 33011KT 290V360 9999 SCT030 FEW033CB 23/12
                        Q1012=
201907081300 METAR LRTM 081300Z 31012KT 280V340 9999 SCT030 FEW033CB 23/12
                        Q1012=
201907081330 METAR LRTM 081330Z 31012KT 280V340 9999 SCT030 FEW035CB 23/12
                        Q1012=
201907081400 METAR LRTM 081400Z 33013KT 9999 SCT030 23/09 Q1013=
201907081430 METAR LRTM 081430Z 32011KT 280V340 9999 SCT033 FEW040CB 22/09
                        Q1013=
201907081500 METAR LRTM 081500Z 34009KT 9999 SCT033 22/10 Q1013=
201907081530 METAR LRTM 081530Z 33009KT 290V010 9999 SCT033 23/09 Q1013=
201907081600 METAR COR LRTM 081600Z 33009KT 290V010 9999 SCT033 23/09
                        Q1013=
201907081630 METAR LRTM 081630Z 33009KT 300V010 9999 SCT040 21/09 Q1013=
201907081700 METAR LRTM 081700Z 36004KT 330V030 9999 SCT040 20/09 Q1013=
201907081730 METAR LRTM 081730Z AUTO VRB01KT 9999 NCD 19/09 Q1013=
201907081800 METAR LRTM 081800Z AUTO 00000KT 9999 FEW240/// 19/09 Q1013=
201907081830 METAR LRTM 081830Z AUTO 31003KT 240V020 9999 SCT240/// 17/12
                        Q1014=
201907081900 METAR LRTM 081900Z AUTO 22003KT 120V240 9999 FEW065/// SCT240///
                        16/12 Q1014=
201907081930 METAR LRTM 081930Z AUTO VRB01KT 9999 FEW073/// BKN230///
                        15/12 Q1014=
201907082000 METAR LRTM 082000Z AUTO 36003KT 9999 FEW065/// BKN220///
                        15/12 Q1014=
201907082030 METAR LRTM 082030Z AUTO 05002KT 010V090 9999 BKN220/// 14/12
                        Q1014=
201907082100 METAR LRTM 082100Z AUTO 09002KT 050V120 9999 SCT072/// SCT210///
                        14/12 Q1014=
201907082130 METAR LRTM 082130Z AUTO 00000KT 9999 BKN067/// SCT200///
                        14/12 Q1014=
201907082200 METAR LRTM 082200Z AUTO 04002KT 360V060 9999 OVC068/// 14/12
                        Q1014=
201907082230 METAR LRTM 082230Z AUTO 07002KT 9999 FEW066/// BKN120///
                        14/12 Q1014=
201907082300 METAR LRTM 082300Z AUTO 03003KT 360V060 9999 SCT061/// 14/12
                        Q1014=
201907082330 METAR LRTM 082330Z AUTO 11003KT 9999 FEW064/// 14/12 Q1014=
201907090000 METAR LRTM 090000Z AUTO 10003KT 9999 FEW072/// BKN180///
                        13/11 Q1014=
201907090030 METAR LRTM 090030Z AUTO 10004KT 9999 OVC200/// 13/11 Q1014=
201907090100 METAR LRTM 090100Z AUTO 09004KT 9999 OVC190/// 12/11 Q1014=
201907090130 METAR LRTM 090130Z AUTO 10005KT 9999 FEW061/// OVC160///
                        13/11 Q1014=
201907090200 METAR LRTM 090200Z AUTO 08003KT 9999 BKN150/// 13/11 Q1014=
201907090230 METAR LRTM 090230Z AUTO 09004KT 9999 OVC140/// 13/11 Q1014=
201907090300 METAR LRTM 090300Z AUTO 10003KT 030V130 9999 FEW120/// SCT150///
                        13/11 Q1014=
201907090330 METAR LRTM 090330Z AUTO 08004KT 9999 FEW130/// 13/11 Q1014=
201907090400 METAR LRTM 090400Z AUTO 10003KT 050V140 9999 FEW110/// 13/11
                        Q1014=
201907090430 METAR LRTM 090430Z AUTO 08003KT 050V120 9999 FEW110/// 13/11
                        Q1014=
201907090500 METAR LRTM 090500Z 10004KT CAVOK 14/11 Q1015=
201907090530 METAR LRTM 090530Z 09004KT CAVOK 14/12 Q1015=
201907090600 METAR LRTM 090600Z 05004KT 020V080 CAVOK 15/12 Q1015=
201907090630 METAR LRTM 090630Z 09003KT 050V120 CAVOK 16/12 Q1015=
201907090700 METAR LRTM 090700Z VRB02KT CAVOK 18/13 Q1015=
201907090730 METAR LRTM 090730Z 23005KT 190V260 9999 FEW026 20/12 Q1015=
201907090800 METAR LRTM 090800Z 26007KT 210V300 9999 FEW030 21/12 Q1015=
201907090830 METAR LRTM 090830Z 26008KT 220V300 9999 FEW033 22/12 Q1014=
201907090900 METAR LRTM 090900Z 27006KT 230V360 9999 FEW041 22/10 Q1014=
201907090930 METAR LRTM 090930Z 33007KT 290V360 9999 FEW048 22/09 Q1014=
201907091000 METAR LRTM 091000Z 31010KT 260V330 CAVOK 23/09 Q1014=
201907091030 METAR LRTM 091030Z 32009KT 300V360 CAVOK 23/07 Q1014=
201907091100 METAR LRTM 091100Z 35010KT 320V020 CAVOK 23/07 Q1014=
201907091130 METAR LRTM 091130Z 32009KT 250V010 CAVOK 24/08 Q1014=
201907091200 METAR LRTM 091200Z 34006KT 250V030 CAVOK 24/08 Q1013=
201907091230 METAR LRTM 091230Z 36007KT 320V020 CAVOK 23/08 Q1013=
201907091300 METAR LRTM 091300Z 32008KT 290V020 CAVOK 23/07 Q1013=
201907091330 METAR LRTM 091330Z 33007KT 280V020 CAVOK 22/07 Q1013=
201907091400 METAR LRTM 091400Z 32007KT 270V360 CAVOK 23/09 Q1013=
201907091430 METAR LRTM 091430Z 31007KT 260V360 CAVOK 22/08 Q1013=
201907091500 METAR LRTM 091500Z 31005KT 260V360 CAVOK 23/09 Q1012=
201907091530 METAR LRTM 091530Z 32006KT 270V360 CAVOK 22/08 Q1012=
201907091600 METAR LRTM 091600Z 33007KT 300V360 CAVOK 21/08 Q1012=
201907091630 METAR LRTM 091630Z 33005KT CAVOK 20/09 Q1013=
201907091700 METAR LRTM 091700Z 32006KT CAVOK 20/09 Q1013=
201907091730 METAR LRTM 091730Z AUTO 26004KT 210V320 9999 -RA FEW061///
                        SCT077/// 18/11 Q1013=
201907091800 METAR LRTM 091800Z AUTO 21003KT 150V260 9999 BKN066/// 18/13
                        Q1013 RERA=
201907091830 METAR LRTM 091830Z AUTO 00000KT 9999 BKN064/// 18/13 Q1013
                        REDZ=
201907091900 METAR LRTM 091900Z AUTO 04003KT 360V070 9999 BKN072/// 17/12
                        Q1013=
201907091930 METAR LRTM 091930Z AUTO 10003KT 9999 BKN064/// 15/13 Q1013=
201907092000 METAR LRTM 092000Z AUTO 00000KT 9999 BKN066/// 16/12 Q1013=
201907092030 METAR LRTM 092030Z AUTO VRB03KT 9999 NCD 14/12 Q1013=
201907092100 METAR LRTM 092100Z AUTO 00000KT 9999 FEW066/// 13/11 Q1013=
201907092130 METAR LRTM 092130Z AUTO 00000KT 9999 NCD 13/11 Q1013=
201907092200 METAR LRTM 092200Z AUTO 35003KT 9999 FEW053/// SCT093///
                        12/11 Q1013=
201907092230 METAR LRTM 092230Z AUTO 00000KT 9999 BKN054/// 13/11 Q1013=
201907092300 METAR LRTM 092300Z AUTO 03001KT 9999 FEW055/// 12/11 Q1013=
201907092330 METAR LRTM 092330Z AUTO 00000KT 9999 NCD 11/10 Q1013=
201907100000 METAR LRTM 100000Z AUTO VRB01KT 9999 SCT055/// 11/10 Q1012=
201907100030 METAR LRTM 100030Z AUTO 05004KT 9999 FEW055/// 11/10 Q1012=
201907100100 METAR LRTM 100100Z AUTO 10005KT 9999 NCD 10/09 Q1012=
201907100130 METAR LRTM 100130Z AUTO 10003KT 9999 NCD 11/10 Q1012=
201907100200 METAR LRTM 100200Z AUTO VRB01KT 9999 NCD 10/09 Q1012=
201907100230 METAR LRTM 100230Z AUTO VRB01KT 8000 FEW064/// 10/09 Q1012=
201907100300 METAR LRTM 100300Z AUTO VRB02KT 9999 FEW047/// SCT086///
                        10/09 Q1012=
201907100330 METAR LRTM 100330Z 11003KT 8000 FEW012 SCT047 11/10 Q1012=
201907100400 METAR LRTM 100400Z 10004KT 8000 FEW005 SCT033 12/11 Q1012=
201907100430 METAR LRTM 100430Z 09004KT 060V120 9999 FEW006 SCT030 12/10
                        Q1012=
201907100500 METAR LRTM 100500Z 00000KT 9999 FEW009 SCT025 13/11 Q1012=
201907100530 METAR LRTM 100530Z 19003KT 150V220 9999 FEW010 SCT025 13/11
                        Q1012=
201907100600 METAR LRTM 100600Z 20002KT 9999 FEW010 SCT025 15/11 Q1012=
201907100630 METAR LRTM 100630Z 27004KT 230V320 9999 FEW020 16/12 Q1012=
201907100700 METAR LRTM 100700Z 25003KT 150V310 9999 FEW020 17/13 Q1012=
201907100730 METAR LRTM 100730Z 26005KT 220V300 9999 FEW026 18/13 Q1012=
201907100800 METAR LRTM 100800Z 33005KT 9999 SCT030 19/11 Q1012=
201907100830 METAR LRTM 100830Z 30006KT 260V330 9999 SCT031 19/11 Q1012=
201907100900 METAR COR LRTM 100900Z 30007KT 270V350 9999 SCT031 FEW033TCU
                        20/10 Q1012=
201907100930 METAR LRTM 100930Z 34007KT 300V020 9999 SCT033 FEW041CB 21/11
                        Q1012=
201907101000 METAR LRTM 101000Z 34010KT 300V010 9999 SCT033 FEW042CB 20/11
                        Q1011=
201907101030 METAR LRTM 101030Z 33011KT 290V010 9999 SCT033 FEW040CB 21/09
                        Q1011=
201907101100 METAR LRTM 101100Z 31009KT 270V360 9999 BKN033 FEW040CB 21/09
                        Q1011=
201907101130 METAR LRTM 101130Z 33009KT 280V360 9999 SCT033 FEW040CB 20/09
                        Q1011=
201907101200 METAR LRTM 101200Z 32008KT 260V010 9999 SCT033 FEW045CB 20/08
                        Q1011=
201907101230 METAR LRTM 101230Z 31010KT 270V330 9999 SCT036 FEW045CB 20/08
                        Q1011=
201907101300 METAR LRTM 101300Z 32010KT 290V350 9999 SCT040 FEW045CB 20/07
                        Q1011=
201907101330 METAR LRTM 101330Z 32012KT 290V350 9999 SCT040 20/06 Q1011=
201907101400 METAR LRTM 101400Z 34016KT 9999 SCT040 FEW044CB 19/08 Q1011=
201907101430 METAR LRTM 101430Z 32014KT 9999 SCT040 FEW045CB 20/08 Q1012=
201907101500 METAR LRTM 101500Z 32013KT 290V350 9999 SCT042 FEW046CB 20/07
                        Q1011=
201907101530 METAR LRTM 101530Z 32012KT 290V350 9999 SCT042 FEW046CB 20/08
                        Q1011=
201907101600 METAR LRTM 101600Z 31011KT 280V340 9999 SCT042 FEW046CB 20/08
                        Q1011=
201907101630 METAR LRTM 101630Z 32009KT 290V360 9999 SCT045 FEW048CB 19/08
                        Q1012=
201907101700 METAR LRTM 101700Z 30008KT 260V330 9999 SCT048 19/09 Q1012=
201907101730 METAR LRTM 101730Z 28005KT 250V310 CAVOK 18/09 Q1012=
201907101800 METAR LRTM 101800Z AUTO 28005KT 9999 NCD 16/09 Q1012=
201907101830 METAR LRTM 101830Z AUTO 27005KT 9999 SCT100/// 15/09 Q1012=
201907101900 METAR LRTM 101900Z AUTO 28005KT 9999 BKN100/// 15/09 Q1012=
201907101930 METAR LRTM 101930Z AUTO 28004KT 9999 SCT110/// 14/09 Q1012=
201907102000 METAR LRTM 102000Z AUTO 22004KT 9999 NCD 12/09 Q1013=
201907102030 METAR LRTM 102030Z AUTO 22003KT 9999 BKN080/// 12/09 Q1013=
201907102100 METAR LRTM 102100Z AUTO 25007KT 9999 OVC075/// 13/09 Q1013=
201907102130 METAR LRTM 102130Z AUTO 26003KT 230V320 9999 OVC079/// 12/09
                        Q1013=
201907102200 METAR LRTM 102200Z AUTO 25007KT 9999 BKN090/// 11/09 Q1013=
201907102230 METAR LRTM 102230Z AUTO 25005KT 9999 OVC093/// 12/09 Q1013=
201907102300 METAR LRTM 102300Z AUTO 23004KT 9999 OVC099/// 11/09 Q1013=
201907102330 METAR LRTM 102330Z AUTO 27005KT 9999 NCD 11/09 Q1013=
201907110000 METAR LRTM 110000Z AUTO 26003KT 9999 NCD 10/08 Q1013=
201907110030 METAR LRTM 110030Z AUTO 24003KT 9999 NCD 09/08 Q1012=
201907110100 METAR LRTM 110100Z AUTO 26004KT 9999 BKN082/// 10/08 Q1012=
201907110130 METAR LRTM 110130Z AUTO 27003KT 9999 BKN078/// 10/09 Q1013=
201907110200 METAR LRTM 110200Z AUTO 27003KT 250V310 9999 FEW051/// OVC067///
                        09/08 Q1012=
201907110230 METAR LRTM 110230Z AUTO 25003KT 9999 SCT081/// SCT120///
                        09/08 Q1012=
201907110300 METAR LRTM 110300Z AUTO 25003KT 9999 FEW061/// BKN077///
                        10/09 Q1013=
201907110330 METAR LRTM 110330Z AUTO 23004KT 9999 -SHRA BKN050/// SCT080///
                        11/10 Q1013=
201907110400 METAR LRTM 110400Z AUTO 27004KT 240V310 9999 OVC055/// 12/10
                        Q1013 REDZ=
201907110430 METAR LRTM 110430Z AUTO 25004KT 9999 FEW059/// SCT074///
                        12/10 Q1013=
201907110500 METAR LRTM 110500Z 26003KT 220V290 CAVOK 13/11 Q1013=
201907110530 METAR LRTM 110530Z 24003KT 180V280 CAVOK 14/10 Q1013=
201907110600 METAR LRTM 110600Z 24005KT 200V280 CAVOK 16/11 Q1013=
201907110630 METAR LRTM 110630Z 23005KT 190V310 CAVOK 16/11 Q1013=
201907110700 METAR LRTM 110700Z VRB03KT 9999 FEW028 17/10 Q1013=
201907110730 METAR LRTM 110730Z 22005KT 160V290 9999 FEW033 17/11 Q1013=
201907110800 METAR LRTM 110800Z 25005KT 200V290 9999 FEW035 18/11 Q1013=
201907110830 METAR LRTM 110830Z VRB03KT 9999 FEW040 19/11 Q1012=
201907110900 METAR LRTM 110900Z VRB03KT 9999 FEW038 FEW041TCU 19/11 Q1012=
201907110930 METAR LRTM 110930Z 29007KT 260V340 9999 FEW039 FEW041CB 19/10
                        Q1012=
201907111000 METAR LRTM 111000Z 27011KT 9999 VCTS VCSH FEW038 FEW040CB
                        17/11 Q1012=
201907111030 METAR LRTM 111030Z 26003KT 210V310 9999 TS VCSH SCT038 FEW040CB
                        17/13 Q1012=
201907111100 METAR LRTM 111100Z 31003KT 240V040 9999 SCT038 FEW040CB 18/09
                        Q1012=
201907111130 METAR LRTM 111130Z 26006KT 230V300 9999 SCT038 FEW040CB 18/11
                        Q1011=
201907111200 METAR LRTM 111200Z 25006KT 9999 SCT035 FEW040CB 18/13 Q1011=
201907111230 METAR LRTM 111230Z 27004KT 230V320 9999 FEW036 FEW040CB 19/11
                        Q1011=
201907111300 METAR LRTM 111300Z 27007KT 240V310 9999 FEW040 FEW044CB 21/11
                        Q1011=
201907111330 METAR LRTM 111330Z 27007KT 240V300 9999 FEW040 FEW044CB 20/10
                        Q1011=
201907111400 METAR LRTM 111400Z 27008KT 9999 FEW042 FEW045CB 21/10 Q1010=
201907111430 METAR LRTM 111430Z 24007KT 9999 FEW042 FEW045CB 20/11 Q1010=
201907111500 METAR LRTM 111500Z 24007KT 9999 VCTS VCSH FEW038 SCT040CB
                        19/10 Q1011=
201907111530 METAR LRTM 111530Z 25009KT 230V300 9999 -TSRA FEW033 BKN035CB
                        14/12 Q1012 RESHRA R07/29//95=
201907111600 METAR LRTM 111600Z 18004KT 130V230 9999 FEW033 SCT038CB 15/12
                        Q1011 RETS R07/29//95=
201907111630 METAR LRTM 111630Z 00000KT 9999 FEW033 FEW038CB 16/13 Q1011
                        R07/29//95=
201907111700 METAR LRTM 111700Z 26002KT 9999 FEW033 FEW038CB 15/12 Q1012
                        R07/29//95=
201907111730 METAR LRTM 111730Z AUTO 24004KT 9999 BKN084/// 14/12 Q1012=
201907111800 METAR LRTM 111800Z AUTO 00000KT 9999 VCTS BKN079/// 14/12
                        Q1012=
201907111830 METAR LRTM 111830Z AUTO 28014G26KT 260V320 9999 -SHRA VCTS
                        FEW019/// SCT031/// 14/10 Q1012=
201907111900 METAR LRTM 111900Z AUTO 26007KT 6000 +SHRA FEW034/// SCT043///
                        12/11 Q1013=
201907111930 METAR LRTM 111930Z AUTO 21005KT 9999 +SHRA FEW070/// SCT100///
                        12/11 Q1013=
201907112000 METAR LRTM 112000Z AUTO 30004KT 260V340 9999 -SHRA OVC069///
                        12/11 Q1013=
201907112030 METAR LRTM 112030Z AUTO 22005KT 9999 -SHRA SCT050/// BKN066///
                        12/11 Q1013=
201907112100 METAR LRTM 112100Z AUTO 10002KT 040V160 9999 -SHRA FEW042///
                        SCT055/// 12/11 Q1013=
201907112130 METAR LRTM 112130Z AUTO 26002KT 230V290 9999 RA SCT057///
                        SCT073/// 12/11 Q1013=
201907112200 METAR LRTM 112200Z AUTO 25002KT 220V280 9999 -RA FEW076///
                        12/11 Q1013=
201907112230 METAR LRTM 112230Z AUTO 00000KT 9999 BKN059/// 12/11 Q1013
                        RERA=
201907112300 METAR LRTM 112300Z AUTO 00000KT 9999 -SHRA FEW047/// SCT100///
                        12/11 Q1013=
201907112330 METAR LRTM 112330Z AUTO 00000KT 9999 FEW093/// BKN140///
                        12/11 Q1013 REDZ=
201907120000 METAR LRTM 120000Z AUTO VRB01KT 9000 BKN093/// 11/11 Q1013=
201907120030 METAR LRTM 120030Z AUTO 00000KT 3000 R07/1000VP2000U FG NCD
                        11/10 Q1013=
201907120100 METAR LRTM 120100Z AUTO 00000KT 0550 R07/0700N BCFG SCT003///
                        10/10 Q1013=
201907120130 METAR LRTM 120130Z AUTO VRB01KT 1800 R07/1300VP2000U FG FEW001///
                        SCT002/// 11/10 Q1013=
201907120200 METAR LRTM 120200Z AUTO 21003KT 160V240 1300 R07/0900VP2000N
                        FG FEW001/// 11/11 Q1013=
201907120230 METAR LRTM 120230Z AUTO 20004KT 0650 R07/0750U FG FEW002///
                        11/10 Q1013=
201907120300 METAR LRTM 120300Z AUTO 17003KT 130V190 0500 R07/0650N FG
                        VV001 11/10 Q1013=
201907120330 METAR LRTM 120330Z AUTO 17003KT 1100 R07/0800VP2000U FG VV001
                        11/10 Q1013=
201907120400 METAR LRTM 120400Z AUTO 13002KT 100V160 1200 R07/0900V2000U
                        FEW001/// 11/10 Q1014=
201907120430 METAR LRTM 120430Z AUTO 17002KT 130V200 7000 FEW001/// 11/11
                        Q1014=
201907120500 METAR LRTM 120500Z VRB02KT 8000 SCT002 OVC005 11/11 Q1014
                        R07/29//95=
201907120530 METAR LRTM 120530Z 22003KT 190V260 9000 SCT003 OVC008 12/11
                        Q1014 R07/19//95=
201907120600 METAR LRTM 120600Z 21003KT 160V240 9999 SCT003 OVC008 12/11
                        Q1014 R07/19//95=
201907120630 METAR LRTM 120630Z VRB03KT 9999 SCT005 OVC009 12/11 Q1014
                        R07/19//95=
201907120700 METAR LRTM 120700Z 21003KT 130V300 9999 BKN007 14/11 Q1014
                        R07/19//95=
201907120730 METAR LRTM 120730Z VRB03KT 9999 FEW007 BKN032 15/11 Q1014
                        R07/CLRD//=
201907120800 METAR LRTM 120800Z VRB02KT 9999 FEW013 BKN032 16/11 Q1014=
201907120830 METAR LRTM 120830Z 10003KT 030V170 9999 FEW018 BKN033 16/11
                        Q1014=
201907120900 METAR LRTM 120900Z VRB04KT 9999 BKN023 17/11 Q1014=
201907120930 METAR LRTM 120930Z VRB03KT 9999 BKN023 17/10 Q1014=
201907121000 METAR LRTM 121000Z VRB04KT 9999 BKN028 18/10 Q1014=
201907121030 METAR LRTM 121030Z 02004KT 300V100 9999 BKN033 19/11 Q1014=
201907121100 METAR LRTM 121100Z 30004KT 200V010 9999 BKN033 20/10 Q1014=
201907121130 METAR LRTM 121130Z VRB02KT 9999 BKN035 20/11 Q1013=
201907121200 METAR LRTM 121200Z 20003KT 110V260 9999 BKN038 21/11 Q1013=
201907121230 METAR LRTM 121230Z VRB04KT 9999 BKN040 21/10 Q1013=
201907121300 METAR LRTM 121300Z VRB04KT 9999 BKN042 22/10 Q1013=
201907121330 METAR LRTM 121330Z 35004KT 300V050 9999 SCT042 21/10 Q1013=
201907121400 METAR LRTM 121400Z VRB04KT 9999 SCT046 21/10 Q1012=
201907121430 METAR LRTM 121430Z 35005KT 260V020 9999 SCT046 22/11 Q1012=
201907121500 METAR LRTM 121500Z 25004KT 200V290 9999 SCT048 23/10 Q1012=
201907121530 METAR LRTM 121530Z 26004KT 240V300 CAVOK 21/10 Q1012=
201907121600 METAR LRTM 121600Z 25005KT 220V280 CAVOK 22/10 Q1012=
201907121630 METAR LRTM 121630Z 26004KT 230V290 CAVOK 22/10 Q1012=
201907121700 METAR LRTM 121700Z 24006KT CAVOK 20/12 Q1012=
201907121730 METAR LRTM 121730Z AUTO 25004KT 9999 NCD 19/13 Q1012=
201907121800 METAR LRTM 121800Z AUTO 24005KT 9999 NCD 16/13 Q1012=
201907121830 METAR LRTM 121830Z AUTO 23004KT 9999 FEW073/// 15/12 Q1012=
201907121900 METAR LRTM 121900Z AUTO 24004KT 9999 FEW069/// 15/12 Q1012=
201907121930 METAR LRTM 121930Z AUTO 32003KT 9999 OVC083/// 14/12 Q1013=
201907122000 METAR LRTM 122000Z AUTO 27003KT 9999 BKN083/// 14/12 Q1013=
201907122030 METAR LRTM 122030Z AUTO 00000KT 9999 BKN060/// 14/12 Q1013=
201907122100 METAR LRTM 122100Z AUTO 00000KT 9999 FEW060/// BKN085///
                        14/12 Q1013=
201907122130 METAR LRTM 122130Z AUTO 00000KT 9999 FEW057/// SCT073///
                        14/12 Q1013=
201907122200 METAR LRTM 122200Z AUTO 05002KT 9999 FEW056/// 13/12 Q1013=
201907122230 METAR LRTM 122230Z AUTO 09005KT 9999 NCD 12/11 Q1013=
201907122300 METAR LRTM 122300Z AUTO 10005KT 9999 FEW056/// 12/11 Q1013=
201907122330 METAR LRTM 122330Z AUTO 10005KT 9999 NCD 12/11 Q1013=
201907130000 METAR LRTM 130000Z AUTO 10004KT 9999 FEW058/// 11/10 Q1013=
201907130030 METAR LRTM 130030Z AUTO 09004KT 9999 SCT056/// 11/10 Q1013=
201907130100 METAR LRTM 130100Z AUTO 09003KT 9999 FEW059/// 10/09 Q1013=
201907130130 METAR LRTM 130130Z AUTO 10004KT 9999 BKN100/// 10/09 Q1012=
201907130200 METAR LRTM 130200Z AUTO 10003KT 9999 SCT100/// 10/09 Q1012=
201907130230 METAR LRTM 130230Z AUTO 08003KT 8000 FEW110/// 10/09 Q1012=
201907130300 METAR LRTM 130300Z AUTO 08005KT 9999 BKN097/// 10/09 Q1012=
201907130330 METAR LRTM 130330Z AUTO 12006KT 070V190 9999 OVC096/// 10/09
                        Q1012=
201907130400 METAR LRTM 130400Z AUTO 07004KT 9999 BKN093/// 11/10 Q1012=
201907130430 METAR LRTM 130430Z AUTO 08005KT 9999 OVC091/// 12/10 Q1012=
201907130500 METAR LRTM 130500Z 06005KT CAVOK 12/10 Q1012=
201907130530 METAR LRTM 130530Z 07003KT 030V100 CAVOK 12/11 Q1013=
201907130600 METAR LRTM 130600Z 08006KT 9999 FEW013 13/11 Q1012=
201907130630 METAR LRTM 130630Z VRB02KT 9999 FEW012 14/12 Q1013=
201907130700 METAR LRTM 130700Z VRB02KT 9999 FEW015 14/12 Q1012=
201907130730 METAR LRTM 130730Z VRB02KT 9999 FEW018 16/13 Q1012=
201907130800 METAR LRTM 130800Z 00000KT 9999 FEW020 16/13 Q1012=
201907130830 METAR LRTM 130830Z VRB02KT 9999 FEW020 17/13 Q1012=
201907130900 METAR LRTM 130900Z VRB01KT 9999 FEW020 18/13 Q1012=
201907130930 METAR LRTM 130930Z VRB02KT 9999 FEW023 19/13 Q1012=
201907131000 METAR LRTM 131000Z VRB02KT 9999 FEW023 20/14 Q1012=
201907131030 METAR LRTM 131030Z VRB03KT 9999 FEW023 20/13 Q1011=
201907131100 METAR LRTM 131100Z VRB04KT 9999 FEW030 21/12 Q1011=
201907131130 METAR LRTM 131130Z VRB05KT 9999 SCT037 21/12 Q1011=
201907131200 METAR LRTM 131200Z VRB03KT 9999 SCT044 21/11 Q1011=
201907131230 METAR LRTM 131230Z VRB04KT 9999 BKN041 FEW041CB 21/12 Q1010=
201907131300 METAR LRTM 131300Z 18005KT 9999 VCSH SCT042 SCT042CB 20/13
                        Q1010=
201907131330 METAR LRTM 131330Z 19007KT 170V250 9999 VCSH SCT043 SCT043CB
                        19/14 Q1010=
201907131400 METAR LRTM 131400Z 01004KT 340V040 9999 VCSH SCT043 FEW043CB
                        18/15 Q1010=
201907131430 METAR LRTM 131430Z 00000KT 9999 FEW043 FEW043CB 20/14 Q1010=
201907131500 METAR LRTM 131500Z 00000KT 9999 FEW043 FEW043CB 20/15 Q1010=
201907131530 METAR LRTM 131530Z VRB01KT 9999 -SHRA SCT045 SCT045CB 19/15
                        Q1010=
201907131600 METAR LRTM 131600Z 05002KT 9999 VCSH FEW014 SCT045 FEW045CB
                        19/16 Q1010=
201907131630 METAR LRTM 131630Z 10004KT 9999 VCSH FEW018 SCT045 FEW045CB
                        19/15 Q1010=
201907131700 METAR LRTM 131700Z 09005KT 9999 FEW018 SCT045 FEW045CB 19/15
                        Q1010=
201907131730 METAR LRTM 131730Z AUTO 09004KT 9999 OVC088/// 18/15 Q1010=
201907131800 METAR LRTM 131800Z AUTO 06004KT 9999 OVC087/// 17/15 Q1010=
201907131830 METAR LRTM 131830Z AUTO 06005KT 9999 SCT088/// 16/14 Q1010=
201907131900 METAR LRTM 131900Z AUTO 09004KT 5000 BR NCD 14/13 Q1010=
201907131930 METAR LRTM 131930Z AUTO 09003KT 6000 BKN110/// 14/13 Q1010=
201907132000 METAR LRTM 132000Z AUTO VRB02KT 8000 FEW030/// OVC110///
                        14/13 Q1010=
201907132030 METAR LRTM 132030Z AUTO 00000KT 9999 FEW030/// OVC100///
                        15/14 Q1010=
201907132100 METAR LRTM 132100Z AUTO 10002KT 060V130 9000 OVC100/// 14/14
                        Q1010=
201907132130 METAR LRTM 132130Z AUTO 10002KT 9999 OVC100/// 14/14 Q1010=
201907132200 METAR LRTM 132200Z AUTO 08004KT 9000 OVC091/// 14/13 Q1010=
201907132230 METAR LRTM 132230Z AUTO 08002KT 9000 OVC089/// 14/13 Q1010=
201907132300 METAR LRTM 132300Z AUTO 07004KT 7000 FEW088/// BKN110///
                        14/13 Q1010=
201907132330 METAR LRTM 132330Z AUTO 10003KT 6000 FEW092/// BKN110///
                        14/13 Q1009=
201907140000 METAR LRTM 140000Z AUTO 13003KT 7000 BKN094/// BKN110///
                        14/13 Q1009=
201907140030 METAR LRTM 140030Z AUTO 07005KT 5000 BR BKN092/// SCT120///
                        13/13 Q1009=
201907140100 METAR LRTM 140100Z AUTO 10004KT 6000 OVC100/// 13/13 Q1009=
201907140130 METAR LRTM 140130Z AUTO 09004KT 7000 OVC100/// 13/12 Q1009=
201907140200 METAR LRTM 140200Z AUTO 10003KT 7000 OVC110/// 13/12 Q1009=
201907140230 METAR LRTM 140230Z AUTO 11005KT 8000 SCT076/// BKN110///
                        13/12 Q1009=
201907140300 METAR LRTM 140300Z AUTO 08003KT 7000 OVC075/// 13/12 Q1009=
201907140330 METAR LRTM 140330Z 36001KT 7000 FEW002 13/12 Q1009=
201907140400 METAR LRTM 140400Z 00000KT 7000 FEW002 13/13 Q1009=
201907140430 METAR LRTM 140430Z 08002KT 6000 FEW002 SCT045 14/13 Q1009=
201907140500 METAR LRTM 140500Z 00000KT 6000 SCT003 SCT045 14/13 Q1009=
201907140530 METAR LRTM 140530Z 00000KT 6000 SCT004 SCT045 16/14 Q1009=
201907140600 METAR LRTM 140600Z VRB02KT 7000 SCT004 SCT045 16/14 Q1009=
201907140630 METAR LRTM 140630Z VRB01KT 9000 SCT005 SCT045 17/14 Q1009=
201907140700 METAR LRTM 140700Z 30002KT 9999 SCT008 18/14 Q1009=
201907140730 METAR LRTM 140730Z 24002KT 9999 FEW010 FEW023TCU 18/14 Q1009=
201907140800 METAR LRTM 140800Z VRB04KT 9999 SCT014 19/15 Q1009=
201907140830 METAR LRTM 140830Z VRB03KT 9999 FEW015 SCT024 20/15 Q1009=
201907140900 METAR COR LRTM 140900Z VRB03KT 9999 SCT022 FEW024TCU 21/15
                        Q1009=
201907140930 METAR LRTM 140930Z VRB04KT 9999 SCT022 FEW025CB 21/13 Q1008=
201907141000 METAR LRTM 141000Z VRB04KT 9999 SCT024 FEW026TCU 22/14 Q1008=
201907141030 METAR LRTM 141030Z 31004KT 9999 SCT027 FEW030CB 22/14 Q1008=
201907141100 METAR LRTM 141100Z 29006KT 250V330 9999 BKN030 FEW032CB 23/13
                        Q1008=
201907141130 METAR LRTM 141130Z 33005KT 240V040 9999 SCT032 FEW034CB 24/13
                        Q1007=
201907141200 METAR LRTM 141200Z 31008KT 270V340 9999 BKN035 FEW037CB 24/14
                        Q1007=
201907141230 METAR LRTM 141230Z 32005KT 250V010 9999 BKN035 FEW037CB 23/14
                        Q1007=
201907141300 METAR LRTM 141300Z 27007KT 240V310 9999 BKN037 FEW040CB 24/13
                        Q1007=
201907141330 METAR LRTM 141330Z 33008KT 280V020 9999 VCTS SCT040 SCT042CB
                        24/12 Q1007=
201907141400 METAR LRTM 141400Z 29009KT 9999 VCTS VCSH SCT040 SCT042CB
                        24/12 Q1007=
201907141430 METAR LRTM 141430Z 28008KT 9999 VCTS VCSH SCT042 SCT044CB
                        23/12 Q1007=
201907141500 METAR LRTM 141500Z 26007KT 9999 VCTS VCSH SCT040 SCT044CB
                        22/13 Q1007=
201907141530 METAR LRTM 141530Z 24013KT 9999 VCTS VCSH SCT033 BKN042CB
                        19/14 Q1008=
201907141600 METAR LRTM 141600Z AUTO 19008KT 150V230 9999 -RA BKN051///
                        18/15 Q1008=
201907141630 METAR LRTM 141630Z AUTO 15008KT 9999 -RA BKN048/// 17/15
                        Q1009=
201907141700 METAR LRTM 141700Z AUTO 14008KT 9999 RA FEW035/// SCT045///
                        16/14 Q1009=
201907141730 METAR LRTM 141730Z AUTO 08004KT 030V120 3900 R07/1600VP2000U
                        +SHRA SCT034/// SCT045/// 15/14 Q1009=
201907141800 METAR LRTM 141800Z AUTO 06005KT 020V080 9999 SHRA SCT038///
                        15/14 Q1009=
201907141830 METAR LRTM 141830Z AUTO 12002KT 090V160 9999 -RA FEW030///
                        BKN038/// 15/14 Q1010=
201907141900 METAR LRTM 141900Z AUTO 06004KT 9999 DZ BKN078/// 15/14 Q1009=
201907141930 METAR LRTM 141930Z AUTO VRB01KT 9999 -DZ BKN065/// SCT086///
                        15/14 Q1009=
201907142000 METAR LRTM 142000Z AUTO 00000KT 9999 SCT065/// BKN083///
                        15/14 Q1009 RERA=
201907142030 METAR LRTM 142030Z AUTO 06004KT 9999 OVC064/// 15/14 Q1010=
201907142100 METAR LRTM 142100Z AUTO 06005KT 6000 FEW007/// SCT064///
                        BKN089/// 15/14 Q1010=
201907142130 METAR LRTM 142130Z AUTO 07005KT 9999 FEW007/// BKN016///
                        15/14 Q1010=
201907142200 METAR LRTM 142200Z AUTO 10004KT 7000 FEW004/// SCT013///
                        14/14 Q1010=
201907142230 METAR LRTM 142230Z AUTO 07004KT 8000 OVC012/// 14/14 Q1010=
201907142300 METAR LRTM 142300Z AUTO 08002KT 040V110 9000 FEW004/// OVC013///
                        15/14 Q1009=
201907142330 METAR LRTM 142330Z AUTO 06003KT 030V090 8000 BKN012/// SCT100///
                        15/14 Q1009=
201907150000 METAR LRTM 150000Z AUTO 34002KT 7000 FEW004/// SCT011///
                        15/14 Q1010=
201907150030 METAR LRTM 150030Z AUTO VRB01KT 9999 FEW006/// OVC012///
                        15/14 Q1009=
201907150100 METAR LRTM 150100Z AUTO 00000KT 9000 OVC013/// 15/14 Q1009=
201907150130 METAR LRTM 150130Z AUTO 10003KT 8000 FEW007/// OVC011///
                        15/14 Q1009=
201907150200 METAR LRTM 150200Z AUTO 13002KT 8000 FEW004/// BKN009///
                        15/14 Q1009=
201907150230 METAR LRTM 150230Z AUTO 08003KT 7000 FEW011/// SCT100///
                        15/14 Q1009=
201907150300 METAR LRTM 150300Z AUTO 07004KT 6000 -RA SCT006/// SCT007///
                        15/14 Q1009=
201907150330 METAR LRTM 150330Z AUTO 07004KT 5000 FEW003/// SCT007///
                        15/14 Q1009 RERA=
201907150400 METAR LRTM 150400Z AUTO 09003KT 5000 FEW005/// SCT007///
                        15/14 Q1009 RERA=
201907150430 METAR LRTM 150430Z AUTO VRB01KT 6000 FEW006/// BKN039///
                        15/14 Q1009=
201907150500 METAR LRTM 150500Z 08004KT 8000 BKN004 OVC012 15/14 Q1010=
201907150530 METAR LRTM 150530Z 12003KT 8000 -DZ BKN004 OVC012 15/14 Q1010
                        R07/19//95=
201907150600 METAR LRTM 150600Z 09004KT 7000 -RA BKN007 BKN017 OVC030
                        15/14 Q1010 R07/19//95=
201907150630 METAR LRTM 150630Z 10004KT 6000 -SHRA BKN005 BKN019 SCT027CB
                        15/14 Q1010 R07/29//95=
201907150700 METAR LRTM 150700Z VRB02KT 5000 -SHRA SCT006 BKN018 SCT024CB
                        15/14 Q1010 RESHRA R07/29//95=
201907150730 METAR LRTM 150730Z VRB02KT 5000 -SHRA SCT007 BKN018 SCT025CB
                        15/14 Q1010 R07/29//95=
201907150800 METAR LRTM 150800Z VRB02KT 6000 -RA SCT008 OVC030 15/14 Q1011
                        R07/29//95=
201907150830 METAR LRTM 150830Z 21002KT 6000 -RA BKN009 OVC035 16/15 Q1011
                        R07/29//95=
201907150900 METAR LRTM 150900Z 22004KT 180V240 8000 -RA BKN009 OVC035
                        16/15 Q1011 R07/29//95=
201907150930 METAR LRTM 150930Z 23004KT 200V260 9999 -RA BKN010 OVC036
                        16/15 Q1011 R07/29//95=
201907151000 METAR LRTM 151000Z 25003KT 190V330 9999 FEW006 BKN012 BKN036
                        17/15 Q1011 R07/29//95=
201907151030 METAR LRTM 151030Z 25003KT 200V290 9999 FEW007 BKN015 BKN036
                        18/16 Q1011 R07/29//95=
201907151100 METAR LRTM 151100Z VRB03KT 9999 BKN013 SCT036 19/16 Q1011
                        R07/29//95=
201907151130 METAR LRTM 151130Z 21004KT 150V280 9999 SCT018 FEW025CB 20/15
                        Q1010 R07/29//95=
201907151200 METAR LRTM 151200Z 19006KT 9999 SCT019 FEW026CB 20/16 Q1010
                        R07/29//95=
201907151230 METAR LRTM 151230Z VRB04KT 9999 SCT019 SCT026CB 21/15 Q1011
                        R07/29//95=
201907151300 METAR LRTM 151300Z 01013KT 9999 4000NE TS VCSH SCT023 BKN026CB
                        20/14 Q1011 R07/29//95=
201907151330 METAR LRTM 151330Z 35005KT 280V050 1600 +TSRA FEW023 BKN027CB
                        14/13 Q1012 R07/29//95=
201907151400 METAR LRTM 151400Z 28006KT 240V320 9999 -TSRA FEW028 BKN034CB
                        14/13 Q1012 RESHRA R07/29//95=
201907151430 METAR LRTM 151430Z 23004KT 210V270 9999 SHRA VCTS FEW030
                        BKN035CB 14/13 Q1012 RETS R07/29//95=
201907151500 METAR LRTM 151500Z 21003KT 9999 SHRA FEW030 SCT036CB 14/13
                        Q1012 R07/29//95=
201907151530 METAR LRTM 151530Z 28004KT 9999 SHRA FEW032 SCT035CB 15/14
                        Q1012 R07/29//95=
201907151600 METAR LRTM 151600Z VRB01KT 9999 FEW032 FEW035CB 16/15 Q1012
                        RESHRA R07/29//95=
201907151630 METAR LRTM 151630Z VRB02KT 9999 FEW032 17/14 Q1012 R07/29//95=
201907151700 METAR LRTM 151700Z 07003KT 030V100 9999 FEW032 17/14 Q1012
                        R07/29//95=
201907151730 METAR LRTM 151730Z AUTO 06002KT 030V100 9999 FEW097/// 17/13
                        Q1012=
201907151800 METAR LRTM 151800Z AUTO 00000KT 9999 FEW090/// 16/14 Q1012=
201907151830 METAR LRTM 151830Z AUTO 26003KT 9999 FEW098/// 14/13 Q1012=
201907151900 METAR LRTM 151900Z AUTO 00000KT 9999 FEW100/// 14/13 Q1012=
201907151930 METAR LRTM 151930Z AUTO 00000KT 7000 NCD 13/13 Q1012=
201907152000 METAR LRTM 152000Z AUTO 27002KT 240V300 7000 NCD 12/12 Q1013=
201907152030 METAR LRTM 152030Z AUTO 27001KT 2600 R07/1600VP2000D BR BKN085///
                        12/12 Q1013=
201907152100 METAR LRTM 152100Z AUTO 26003KT 6000 BCFG OVC080/// 12/12
                        Q1013=
201907152130 METAR LRTM 152130Z AUTO 00000KT 6000 BKN083/// 12/11 Q1013=
201907152200 METAR LRTM 152200Z AUTO 00000KT 4000 R07/0800VP2000D FG SCT095///
                        12/11 Q1013=
201907152230 METAR LRTM 152230Z AUTO 27001KT 4800 FEW058/// 12/11 Q1013=
201907152300 METAR LRTM 152300Z AUTO 00000KT 1100 R07/0800VP2000D FG FEW081///
                        BKN110/// 12/11 Q1013=
201907152330 METAR LRTM 152330Z AUTO 23001KT 0500 R07/0500V0800U FG FEW002///
                        11/11 Q1013=
201907160000 METAR LRTM 160000Z AUTO 26001KT 0800 R07/0800V1800N FG FEW002///
                        SCT068/// 11/11 Q1013=
201907160030 METAR LRTM 160030Z AUTO VRB01KT 1500 R07/1100VP2000D FG SCT068///
                        BKN110/// 11/11 Q1013=
201907160100 METAR LRTM 160100Z AUTO 29001KT 1200 R07/1000VP2000U FG FEW001///
                        BKN110/// 11/11 Q1013=
201907160130 METAR LRTM 160130Z AUTO 25001KT 4700 FEW001/// SCT002///
                        11/11 Q1013=
201907160200 METAR LRTM 160200Z AUTO VRB01KT 2300 R07/1300VP2000D FG FEW001///
                        12/11 Q1013=
201907160230 METAR LRTM 160230Z AUTO VRB01KT 3300 FEW003/// 12/11 Q1013=
201907160300 METAR LRTM 160300Z AUTO 00000KT 0550 R07/0700N FG VV001 12/12
                        Q1013=
201907160330 METAR LRTM 160330Z AUTO 26002KT 230V310 0350 R07/0450N FG
                        VV001 13/12 Q1013=
201907160400 METAR LRTM 160400Z AUTO VRB01KT 0300 R07/0375N FG VV001 12/12
                        Q1013=
201907160430 METAR LRTM 160430Z AUTO 00000KT 0250 R07/0325N FG VV001 13/12
                        Q1013=
201907160500 METAR LRTM 160500Z VRB01KT 0350 R07/0550N FG VV002 13/13
                        Q1013 R07/29//95=
201907160530 METAR LRTM 160530Z VRB02KT 0300 R07/0600N FG VV001 13/13
                        Q1013 R07/CLRD//=
201907160600 METAR LRTM 160600Z 00000KT 0400 R07/1000U FG VV002 14/13
                        Q1013=
201907160630 METAR LRTM 160630Z VRB02KT 0800 R07/1300U FEW001 BKN002 OVC004
                        14/14 Q1013=
201907160700 METAR LRTM 160700Z 00000KT 3000 BR FEW001 BKN002 OVC004 15/14
                        Q1013=
201907160730 METAR LRTM 160730Z VRB01KT 6000 FEW002 SCT004 OVC006 15/14
                        Q1013=
201907160800 METAR LRTM 160800Z VRB02KT 9999 SCT006 BKN011 16/15 Q1013=
201907160830 METAR LRTM 160830Z VRB02KT 9999 SCT008 BKN012 18/15 Q1013=
201907160900 METAR LRTM 160900Z VRB03KT 9999 FEW010 SCT013 18/15 Q1013=
201907160930 METAR LRTM 160930Z VRB02KT 9999 FEW015 20/15 Q1013=
201907161000 METAR LRTM 161000Z VRB03KT 9999 FEW018 21/16 Q1013=
201907161030 METAR LRTM 161030Z 25003KT 190V330 9999 FEW023 FEW025TCU
                        21/15 Q1012=
201907161100 METAR LRTM 161100Z VRB04KT 9999 FEW025 FEW028CB 22/15 Q1012=
201907161130 METAR LRTM 161130Z VRB03KT 9999 FEW027 FEW030CB 23/14 Q1012=
201907161200 METAR LRTM 161200Z VRB02KT 9999 FEW027 FEW032CB 23/11 Q1012=
201907161230 METAR LRTM 161230Z VRB04KT 9999 FEW030 FEW035CB 24/12 Q1011=
201907161300 METAR LRTM 161300Z VRB02KT 9999 FEW032 FEW035CB 24/14 Q1011=
201907161330 METAR LRTM 161330Z VRB02KT 9999 FEW034 FEW037CB 24/11 Q1011=
201907161400 METAR LRTM 161400Z VRB03KT 9999 FEW040 25/12 Q1011=
201907161430 METAR LRTM 161430Z 26004KT 9999 FEW043 24/12 Q1011=
201907161500 METAR LRTM 161500Z 24006KT 200V260 9999 SCT045 23/11 Q1011=
201907161530 METAR LRTM 161530Z 24005KT 200V280 9999 SCT045 25/11 Q1011=
201907161600 METAR LRTM 161600Z 28005KT 250V330 9999 FEW045 24/12 Q1011=
201907161630 METAR LRTM 161630Z 25005KT 9999 FEW045 23/13 Q1011=
201907161700 METAR LRTM 161700Z 25004KT 9999 FEW045 22/14 Q1011=
201907161730 METAR LRTM 161730Z AUTO 23005KT 9999 FEW110/// 20/15 Q1011=
201907161800 METAR LRTM 161800Z AUTO 22004KT 9999 NCD 18/14 Q1011=
201907161830 METAR LRTM 161830Z AUTO 26003KT 230V330 9999 SCT062/// 18/15
                        Q1011=
201907161900 METAR LRTM 161900Z AUTO 00000KT 9999 OVC059/// 18/15 Q1011=
201907161930 METAR LRTM 161930Z AUTO 00000KT 9999 FEW080/// 17/14 Q1012=
201907162000 METAR LRTM 162000Z AUTO 00000KT 0800 R07/0800V1700D FG NCD
                        16/14 Q1012=
201907162030 METAR LRTM 162030Z AUTO 00000KT 9999 BCFG NCD 15/13 Q1012=
201907162100 METAR LRTM 162100Z AUTO 00000KT 9999 NCD 14/13 Q1012=
201907162130 METAR LRTM 162130Z AUTO 00000KT 9999 NCD 13/12 Q1012=
201907162200 METAR LRTM 162200Z AUTO 07003KT 5000 BR NCD 12/11 Q1012=
201907162230 METAR LRTM 162230Z AUTO 10004KT 9999 NCD 12/11 Q1012=
201907162300 METAR LRTM 162300Z AUTO 09004KT 9999 NCD 12/11 Q1012=
201907162330 METAR LRTM 162330Z AUTO 07002KT 030V100 9999 NCD 12/11 Q1012=
201907170000 METAR LRTM 170000Z AUTO 11003KT 7000 NCD 12/11 Q1012=
201907170030 METAR LRTM 170030Z AUTO 09004KT 7000 NCD 12/11 Q1012=
201907170100 METAR LRTM 170100Z AUTO 11004KT 9000 NCD 11/10 Q1012=
201907170130 METAR LRTM 170130Z AUTO 09004KT 6000 NCD 11/10 Q1012=
201907170200 METAR LRTM 170200Z AUTO 08004KT 6000 NCD 10/09 Q1012=
201907170230 METAR LRTM 170230Z AUTO 09004KT 5000 BR NCD 10/09 Q1012=
201907170300 METAR LRTM 170300Z AUTO 08005KT 4900 BR NCD 10/09 Q1012=
201907170330 METAR LRTM 170330Z 09005KT 6000 NSC 10/09 Q1012=
201907170400 METAR LRTM 170400Z 09005KT 8000 NSC 11/11 Q1012=
201907170430 METAR LRTM 170430Z 09005KT CAVOK 12/11 Q1012=
201907170500 METAR LRTM 170500Z 09005KT 060V120 9999 FEW033 13/12 Q1012=
201907170530 METAR LRTM 170530Z 07004KT 030V090 9999 FEW043 15/13 Q1012=
201907170600 METAR LRTM 170600Z 06004KT 030V090 CAVOK 15/13 Q1012=
201907170630 METAR LRTM 170630Z 08005KT 030V120 CAVOK 17/14 Q1011=
201907170700 METAR LRTM 170700Z VRB04KT CAVOK 19/14 Q1011=
201907170730 METAR LRTM 170730Z 21003KT 160V280 CAVOK 21/14 Q1011=
201907170800 METAR LRTM 170800Z 17005KT 120V220 CAVOK 22/14 Q1011=
201907170830 METAR LRTM 170830Z 19006KT 130V220 9999 FEW023 22/13 Q1011=
201907170900 METAR LRTM 170900Z 21006KT 170V250 9999 FEW025 23/13 Q1011=
201907170930 METAR LRTM 170930Z 27005KT 220V300 9999 FEW030 24/15 Q1010=
201907171000 METAR LRTM 171000Z VRB04KT 9999 FEW040 24/13 Q1010=
201907171030 METAR LRTM 171030Z VRB03KT 9999 SCT045 25/12 Q1010=
201907171100 METAR LRTM 171100Z 24004KT 190V280 9999 FEW048 FEW048CB 24/14
                        Q1010=
201907171130 METAR LRTM 171130Z VRB02KT 9999 FEW048 FEW048CB 25/12 Q1010=
201907171200 METAR LRTM 171200Z 00000KT 9999 SCT048 FEW048CB 25/11 Q1009=
201907171230 METAR LRTM 171230Z 36006KT 330V030 9999 FEW050CB 25/14 Q1009=
201907171300 METAR LRTM 171300Z 36004KT 290V080 9999 SCT040 25/13 Q1009=
201907171330 METAR LRTM 171330Z 31008KT 9999 SCT040 26/13 Q1009=
201907171400 METAR LRTM 171400Z 35008KT 330V030 9999 SCT043 25/13 Q1009=
201907171430 METAR LRTM 171430Z 31009KT 9999 SCT045 25/12 Q1009=
201907171500 METAR LRTM 171500Z 31010KT 260V350 9999 FEW046 26/11 Q1009=
201907171530 METAR LRTM 171530Z 33010KT 300V360 9999 FEW048 25/11 Q1009=
201907171600 METAR LRTM 171600Z 31010KT 270V330 CAVOK 25/11 Q1010=
201907171630 METAR LRTM 171630Z 32009KT CAVOK 23/10 Q1010=
201907171700 METAR LRTM 171700Z 32009KT 280V350 CAVOK 22/10 Q1010=
201907171730 METAR LRTM 171730Z 32008KT 290V350 CAVOK 22/10 Q1010=
201907171800 METAR LRTM 171800Z AUTO 32007KT 9999 NCD 21/10 Q1011=
201907171830 METAR LRTM 171830Z AUTO 29003KT 250V340 9999 SCT065/// 19/11
                        Q1011=
201907171900 METAR LRTM 171900Z AUTO 35002KT 310V030 9999 SCT063/// 18/11
                        Q1011=
201907171930 METAR LRTM 171930Z AUTO 18003KT 9999 NCD 16/12 Q1012=
201907172000 METAR LRTM 172000Z AUTO 21004KT 190V250 9999 NCD 15/11 Q1012=
201907172030 METAR LRTM 172030Z AUTO 22004KT 200V260 9999 NCD 14/11 Q1012=
201907172100 METAR LRTM 172100Z AUTO 26004KT 9999 SCT071/// 14/11 Q1012=
201907172130 METAR LRTM 172130Z AUTO 25006KT 9999 NCD 12/10 Q1012=
201907172200 METAR LRTM 172200Z AUTO 28003KT 260V350 9999 NCD 12/11 Q1012=
201907172230 METAR LRTM 172230Z AUTO 00000KT 9999 NCD 12/11 Q1012=
201907172300 METAR LRTM 172300Z AUTO 26002KT 9999 NCD 11/10 Q1012=
201907172330 METAR LRTM 172330Z AUTO 07002KT 030V100 9999 NCD 11/09 Q1012=
201907180000 METAR LRTM 180000Z AUTO VRB01KT 9999 NCD 11/09 Q1013=
201907180030 METAR LRTM 180030Z AUTO 34002KT 9000 NCD 10/09 Q1013=
201907180100 METAR LRTM 180100Z AUTO 07003KT 7000 NCD 09/09 Q1013=
201907180130 METAR LRTM 180130Z AUTO 11003KT 9999 NCD 09/09 Q1013=
201907180200 METAR LRTM 180200Z AUTO 06003KT 020V080 9999 NCD 09/08 Q1013=
201907180230 METAR LRTM 180230Z AUTO 11003KT 9999 NCD 09/08 Q1013=
201907180300 METAR LRTM 180300Z AUTO 10003KT 8000 NCD 09/08 Q1013=
201907180330 METAR LRTM 180330Z AUTO 06003KT 9999 NCD 10/09 Q1013=
201907180400 METAR LRTM 180400Z AUTO 11004KT 9999 NCD 11/10 Q1014=
201907180430 METAR LRTM 180430Z AUTO 09003KT 9999 NCD 12/10 Q1014=
201907180500 METAR LRTM 180500Z 10003KT 9999 FEW015 13/11 Q1014=
201907180530 METAR LRTM 180530Z 09003KT 060V130 9999 FEW017 14/11 Q1014=
201907180600 METAR LRTM 180600Z 08003KT 040V130 9999 FEW017 15/12 Q1014=
201907180630 METAR LRTM 180630Z 10003KT 050V140 9999 FEW018 17/11 Q1014=
201907180700 METAR LRTM 180700Z VRB03KT 9999 FEW018 18/12 Q1014=
201907180730 METAR LRTM 180730Z VRB02KT 9999 FEW020 20/11 Q1014=
201907180800 METAR LRTM 180800Z VRB03KT 9999 FEW022 21/13 Q1014=
201907180830 METAR LRTM 180830Z VRB03KT 9999 FEW023 22/14 Q1014=
201907180900 METAR LRTM 180900Z 15004KT 080V190 9999 FEW025 23/12 Q1014=
201907180930 METAR LRTM 180930Z 14004KT 070V180 9999 FEW025 23/11 Q1014=
201907181000 METAR LRTM 181000Z VRB02KT 9999 FEW028 24/09 Q1014=
201907181030 METAR LRTM 181030Z VRB02KT 9999 FEW032 24/10 Q1014=
201907181100 METAR LRTM 181100Z VRB04KT 9999 FEW035 24/11 Q1014=
201907181130 METAR LRTM 181130Z VRB03KT 9999 FEW037 25/11 Q1014=
201907181200 METAR LRTM 181200Z VRB04KT 9999 FEW040 26/11 Q1014=
201907181230 METAR LRTM 181230Z VRB03KT 9999 SCT040 25/10 Q1014=
201907181300 METAR LRTM 181300Z 05002KT 9999 FEW042 26/11 Q1014=
201907181330 METAR LRTM 181330Z VRB03KT 9999 FEW042 25/11 Q1013=
201907181400 METAR LRTM 181400Z 35003KT 310V060 9999 FEW043 25/11 Q1013=
201907181430 METAR LRTM 181430Z VRB01KT 9999 FEW045 FEW048CB 25/10 Q1013=
201907181500 METAR LRTM 181500Z VRB02KT 9999 FEW047 FEW050CB 25/12 Q1013=
201907181530 METAR LRTM 181530Z VRB02KT 9999 FEW048 24/11 Q1013=
201907181600 METAR LRTM 181600Z VRB01KT 9999 FEW048 25/12 Q1013=
201907181630 METAR LRTM 181630Z VRB02KT CAVOK 25/12 Q1013=
201907181700 METAR LRTM 181700Z 18004KT CAVOK 24/13 Q1013=
201907181730 METAR LRTM 181730Z AUTO 18002KT 160V330 9999 FEW150/// 20/14
                        Q1014=
201907181800 METAR LRTM 181800Z AUTO 00000KT 9999 OVC150/// 20/14 Q1014=
201907181830 METAR LRTM 181830Z AUTO 25001KT 9999 FEW080/// BKN150///
                        19/15 Q1014=
201907181900 METAR LRTM 181900Z AUTO 24005KT 9999 FEW100/// BKN140///
                        17/14 Q1015=
201907181930 METAR LRTM 181930Z AUTO 23003KT 9999 -DZ SCT098/// 18/14
                        Q1015=
201907182000 METAR LRTM 182000Z AUTO 24005KT 9999 -SHRA FEW110/// 18/15
                        Q1015=
201907182030 METAR LRTM 182030Z AUTO 22005KT 190V290 9999 -SHRA FEW110///
                        18/15 Q1015=
201907182100 METAR LRTM 182100Z AUTO 23004KT 9999 -SHRA FEW098/// 17/15
                        Q1015=
201907182130 METAR LRTM 182130Z AUTO 21004KT 9999 BKN100/// 17/15 Q1015
                        RERA=
201907182200 METAR LRTM 182200Z AUTO 28003KT 210V340 9999 FEW094/// 17/15
                        Q1015 RERA=
201907182230 METAR LRTM 182230Z AUTO 23002KT 200V280 9999 SCT094/// BKN120///
                        17/15 Q1016=
201907182300 METAR LRTM 182300Z AUTO VRB01KT 9999 FEW070/// SCT100///
                        16/15 Q1016=
201907182330 METAR LRTM 182330Z AUTO 26002KT 230V290 9999 OVC088/// 16/15
                        Q1016=
201907190000 METAR LRTM 190000Z AUTO 25002KT 200V320 9999 OVC086/// 16/15
                        Q1016=
201907190030 METAR LRTM 190030Z AUTO 00000KT 9999 OVC072/// 16/15 Q1016=
201907190100 METAR LRTM 190100Z AUTO 09002KT 060V130 9999 OVC067/// 16/15
                        Q1016=
201907190130 METAR LRTM 190130Z AUTO 07004KT 9999 SCT076/// 15/14 Q1016=
201907190200 METAR LRTM 190200Z AUTO 07007KT 9999 NCD 14/13 Q1016=
201907190230 METAR LRTM 190230Z AUTO 10004KT 9999 NCD 14/13 Q1017=
201907190300 METAR LRTM 190300Z AUTO 08003KT 9999 NCD 14/13 Q1017=
201907190330 METAR LRTM 190330Z AUTO 11002KT 9999 NCD 14/13 Q1017=
201907190400 METAR LRTM 190400Z AUTO 00000KT 9999 NCD 15/14 Q1017=
201907190430 METAR LRTM 190430Z AUTO 24003KT 9999 NCD 16/14 Q1017=
201907190500 METAR LRTM 190500Z 23004KT 9999 FEW010 17/15 Q1017=
201907190530 METAR LRTM 190530Z 22003KT 160V250 9999 FEW012 18/14 Q1017=
201907190600 METAR LRTM 190600Z 23003KT 140V280 CAVOK 19/15 Q1017=
201907190630 METAR LRTM 190630Z 18003KT 070V220 CAVOK 20/14 Q1017=
201907190700 METAR LRTM 190700Z VRB04KT CAVOK 21/16 Q1018=
201907190730 METAR LRTM 190730Z VRB03KT 9999 FEW025 22/16 Q1017=
201907190800 METAR LRTM 190800Z VRB01KT 9999 FEW025 22/17 Q1017=
201907190830 METAR LRTM 190830Z VRB04KT 9999 FEW028 24/17 Q1017=
201907190900 METAR LRTM NIL=
201907190930 METAR LRTM 190930Z 30003KT 230V020 9999 SCT030 25/13 Q1017=
201907191000 METAR LRTM 191000Z VRB03KT 9999 SCT032 25/15 Q1017=
201907191030 METAR LRTM 191030Z 23004KT 190V340 9999 SCT035 25/14 Q1017=
201907191100 METAR LRTM 191100Z 20004KT 140V290 9999 SCT038 26/14 Q1017=
201907191130 METAR LRTM 191130Z 27004KT 200V350 9999 SCT038 26/14 Q1017=
201907191200 METAR LRTM 191200Z 31006KT 280V360 9999 SCT038 FEW040CB 26/13
                        Q1017=
201907191230 METAR LRTM 191230Z 26005KT 180V310 9999 SCT040 FEW042CB 27/15
                        Q1017=
201907191300 METAR LRTM 191300Z VRB02KT 9999 SCT040 FEW042CB 27/13 Q1017=
201907191330 METAR LRTM 191330Z 23005KT 180V260 9999 VCSH SCT042 SCT045CB
                        25/14 Q1017=
201907191400 METAR LRTM 191400Z 22006KT 200V270 9999 VCSH SCT042 SCT045CB
                        25/15 Q1017=
201907191430 METAR LRTM 191430Z 23005KT 9999 VCSH SCT043 SCT046CB 25/15
                        Q1016=
201907191500 METAR LRTM 191500Z 21005KT 9999 VCSH FEW045 SCT048CB 26/13
                        Q1016=
201907191530 METAR LRTM 191530Z 20006KT 170V230 9999 VCSH FEW045 FEW048CB
                        26/14 Q1016=
201907191600 METAR LRTM 191600Z 21007KT 9999 FEW048 FEW050CB 26/15 Q1016=
201907191630 METAR LRTM 191630Z 20010KT 9999 FEW048 24/14 Q1016=
201907191700 METAR LRTM 191700Z 21006KT 9999 FEW048 23/14 Q1017=
201907191730 METAR LRTM 191730Z AUTO 24006KT 9999 NCD 22/14 Q1017=
201907191800 METAR LRTM 191800Z AUTO 23004KT 9999 NCD 19/14 Q1017=
201907191830 METAR LRTM 191830Z AUTO 20003KT 190V260 9999 NCD 18/14 Q1017=
201907191900 METAR LRTM 191900Z AUTO 26002KT 9999 NCD 18/13 Q1018=
201907191930 METAR LRTM 191930Z AUTO VRB01KT 9999 NCD 17/13 Q1018=
201907192000 METAR LRTM 192000Z AUTO 00000KT 9999 NCD 16/13 Q1018=
201907192030 METAR LRTM 192030Z AUTO 36001KT 9999 NCD 16/13 Q1018=
201907192100 METAR LRTM 192100Z AUTO 03002KT 010V100 9999 NCD 15/13 Q1019=
201907192130 METAR LRTM 192130Z AUTO 08002KT 9999 NCD 14/13 Q1019=
201907192200 METAR LRTM 192200Z AUTO 08004KT 9999 NCD 13/12 Q1019=
201907192230 METAR LRTM 192230Z AUTO 09004KT 9999 NCD 13/12 Q1019=
201907192300 METAR LRTM 192300Z AUTO 09005KT 9999 NCD 13/12 Q1019=
201907192330 METAR LRTM 192330Z AUTO 09004KT 9999 NCD 13/12 Q1019=
201907200000 METAR LRTM 200000Z AUTO 07004KT 9999 NCD 13/12 Q1019=
201907200030 METAR LRTM 200030Z AUTO 11003KT 9999 NCD 13/12 Q1019=
201907200100 METAR LRTM 200100Z AUTO 08004KT 9999 NCD 13/12 Q1019=
201907200130 METAR LRTM 200130Z AUTO 09004KT 9000 NCD 12/11 Q1019=
201907200200 METAR LRTM 200200Z AUTO 10004KT 9999 NCD 12/11 Q1019=
201907200230 METAR LRTM 200230Z AUTO 10004KT 050V110 9000 NCD 13/12 Q1019=
201907200300 METAR LRTM 200300Z AUTO 09004KT 7000 NCD 12/11 Q1020=
201907200330 METAR LRTM 200330Z AUTO 10004KT 8000 NCD 13/12 Q1020=
201907200400 METAR LRTM 200400Z AUTO 09004KT 9999 NCD 14/13 Q1020=
201907200430 METAR LRTM 200430Z AUTO 08005KT 9999 NCD 14/13 Q1020=
201907200500 METAR LRTM 200500Z 07005KT 8000 NSC 16/14 Q1020=
201907200530 METAR LRTM 200530Z 06003KT 030V110 9000 NSC 17/14 Q1020=
201907200600 METAR LRTM 200600Z 08003KT CAVOK 18/15 Q1020=
201907200630 METAR LRTM 200630Z VRB02KT CAVOK 20/15 Q1020=
201907200700 METAR LRTM 200700Z VRB02KT CAVOK 21/16 Q1020=
201907200730 METAR LRTM 200730Z VRB01KT 9999 FEW024 22/16 Q1020=
201907200800 METAR LRTM 200800Z 24003KT 180V330 9999 FEW025 23/16 Q1020=
201907200830 METAR LRTM 200830Z VRB03KT 9999 FEW028 24/16 Q1020=
201907200900 METAR LRTM 200900Z VRB01KT 9999 FEW030 25/17 Q1020=
201907200930 METAR LRTM 200930Z 15003KT 090V210 9999 FEW030 26/16 Q1020=
201907201000 METAR LRTM 201000Z 15003KT 090V240 9999 SCT032 27/16 Q1020=
201907201030 METAR LRTM 201030Z 26005KT 190V300 9999 FEW034 27/14 Q1020=
201907201100 METAR LRTM 201100Z VRB03KT 9999 FEW037 FEW042CB 28/13 Q1020=
201907201130 METAR LRTM 201130Z VRB04KT 9999 FEW039 FEW043CB 28/13 Q1020=
201907201200 METAR LRTM 201200Z VRB02KT 9999 FEW039 FEW043CB 27/13 Q1019=
201907201230 METAR LRTM 201230Z 19005KT 170V230 9999 FEW042 FEW045CB 28/13
                        Q1019=
201907201300 METAR LRTM 201300Z 22004KT 170V330 9999 FEW044 FEW046CB 28/12
                        Q1019=
201907201330 METAR LRTM 201330Z 34004KT 270V040 9999 FEW044 28/13 Q1019=
201907201400 METAR LRTM 201400Z VRB02KT 9999 FEW046 29/12 Q1019=
201907201430 METAR LRTM 201430Z 26005KT 200V320 9999 FEW046 29/13 Q1019=
201907201500 METAR LRTM 201500Z 33005KT 260V020 9999 FEW048 29/13 Q1019=
201907201530 METAR LRTM 201530Z 33006KT 260V360 9999 FEW048 28/13 Q1019=
201907201600 METAR LRTM 201600Z 35006KT CAVOK 27/15 Q1019=
201907201630 METAR LRTM 201630Z 35006KT CAVOK 27/15 Q1019=
201907201700 METAR LRTM 201700Z 01006KT 340V050 CAVOK 25/15 Q1019=
201907201730 METAR LRTM 201730Z AUTO 03004KT 360V090 9999 NCD 24/14 Q1019=
201907201800 METAR LRTM 201800Z AUTO 01003KT 9999 NCD 23/13 Q1019=
201907201830 METAR LRTM 201830Z AUTO 08003KT 040V100 9999 NCD 21/14 Q1020=
201907201900 METAR LRTM 201900Z AUTO 08003KT 020V110 9999 NCD 20/14 Q1020=
201907201930 METAR LRTM 201930Z AUTO 00000KT 9999 FEW220/// 20/14 Q1020=
201907202000 METAR LRTM 202000Z AUTO 31002KT 260V330 9999 NCD 18/14 Q1020=
201907202030 METAR LRTM 202030Z AUTO 22003KT 9999 NCD 17/14 Q1020=
201907202100 METAR LRTM 202100Z AUTO 33003KT 9999 NCD 16/14 Q1020=
201907202130 METAR LRTM 202130Z AUTO 00000KT 9999 NCD 16/14 Q1020=
201907202200 METAR LRTM 202200Z AUTO 07003KT 9999 NCD 15/14 Q1020=
201907202230 METAR LRTM 202230Z AUTO 09002KT 9999 NCD 14/13 Q1021=
201907202300 METAR LRTM 202300Z AUTO 03002KT 360V110 9999 NCD 14/13 Q1021=
201907202330 METAR LRTM 202330Z AUTO 00000KT 9999 NCD 14/13 Q1021=
201907210000 METAR LRTM 210000Z AUTO 06001KT 9999 NCD 14/13 Q1021=
201907210030 METAR LRTM 210030Z AUTO VRB01KT 9999 NCD 13/12 Q1021=
201907210100 METAR LRTM 210100Z AUTO 35001KT 9999 NCD 13/12 Q1021=
201907210130 METAR LRTM 210130Z AUTO 00000KT 9999 NCD 13/13 Q1020=
201907210200 METAR LRTM 210200Z AUTO 09004KT 8000 NCD 12/12 Q1021=
201907210230 METAR LRTM 210230Z AUTO 09005KT 9999 NCD 13/13 Q1020=
201907210300 METAR LRTM 210300Z AUTO 09004KT 9000 NCD 13/12 Q1021=
201907210330 METAR LRTM 210330Z 09004KT 8000 FEW010 13/12 Q1021=
201907210400 METAR LRTM 210400Z 09004KT 9000 FEW012 14/13 Q1021=
201907210430 METAR LRTM 210430Z 10005KT 9999 FEW012 15/13 Q1021=
201907210500 METAR LRTM 210500Z 07005KT 9999 FEW015 16/14 Q1021=
201907210530 METAR LRTM 210530Z 08004KT 050V110 7000 FEW015 17/14 Q1021=
201907210600 METAR LRTM 210600Z 08003KT 360V150 CAVOK 19/15 Q1021=
201907210630 METAR LRTM 210630Z VRB02KT CAVOK 21/15 Q1021=
201907210700 METAR LRTM 210700Z VRB02KT CAVOK 22/15 Q1021=
201907210730 METAR LRTM 210730Z VRB01KT CAVOK 23/16 Q1021=
201907210800 METAR LRTM 210800Z 00000KT CAVOK 25/15 Q1021=
201907210830 METAR LRTM 210830Z VRB01KT CAVOK 26/16 Q1021=
201907210900 METAR LRTM 210900Z VRB02KT CAVOK 27/15 Q1021=
201907210930 METAR LRTM 210930Z 17004KT 120V230 CAVOK 27/15 Q1020=
201907211000 METAR LRTM 211000Z VRB03KT 9999 FEW023 28/16 Q1021=
201907211030 METAR LRTM 211030Z VRB05KT 9999 FEW025 28/16 Q1020=
201907211100 METAR LRTM 211100Z 19004KT 140V290 9999 FEW025 28/17 Q1020=
201907211130 METAR LRTM 211130Z 13004KT 060V170 9999 FEW030 FEW032CB 28/16
                        Q1020=
201907211200 METAR LRTM 211200Z 23004KT 180V280 9999 FEW030 FEW032CB 28/16
                        Q1020=
201907211230 METAR LRTM 211230Z VRB04KT 9999 FEW033 FEW035CB 28/16 Q1020=
201907211300 METAR LRTM 211300Z 25003KT 200V310 9999 FEW035 FEW038CB 28/16
                        Q1020=
201907211330 METAR LRTM 211330Z VRB02KT 9999 FEW035 FEW038CB 29/17 Q1019=
201907211400 METAR LRTM 211400Z 35003KT 290V090 9999 FEW037 FEW040CB 29/15
                        Q1019=
201907211430 METAR LRTM 211430Z 16003KT 110V250 9999 FEW040 30/16 Q1019=
201907211500 METAR LRTM 211500Z VRB02KT CAVOK 30/15 Q1019=
201907211530 METAR LRTM 211530Z VRB02KT CAVOK 30/16 Q1019=
201907211600 METAR LRTM 211600Z AUTO VRB01KT 9999 NCD 30/15 Q1019=
201907211630 METAR LRTM 211630Z AUTO 07003KT 040V100 9999 NCD 28/16 Q1019=
201907211700 METAR LRTM 211700Z AUTO 08002KT 9999 NCD 27/18 Q1019=
201907211730 METAR LRTM 211730Z AUTO 15002KT 9999 NCD 25/18 Q1019=
201907211800 METAR LRTM 211800Z AUTO VRB01KT 9999 NCD 23/18 Q1019=
201907211830 METAR LRTM 211830Z AUTO 36003KT 7000 NCD 22/17 Q1019=
201907211900 METAR LRTM 211900Z AUTO 00000KT 9999 NCD 21/17 Q1019=
201907211930 METAR LRTM 211930Z AUTO VRB01KT 9999 NCD 20/17 Q1020=
201907212000 METAR LRTM 212000Z AUTO 00000KT 9999 NCD 19/17 Q1020=
201907212030 METAR LRTM 212030Z AUTO 00000KT 9999 SCT075/// 19/17 Q1020=
201907212100 METAR LRTM 212100Z AUTO 08002KT 9999 FEW073/// 18/16 Q1020=
201907212130 METAR LRTM 212130Z AUTO 14002KT 080V190 9999 NCD 18/16 Q1020=
201907212200 METAR LRTM 212200Z AUTO 10004KT 9999 NCD 18/16 Q1020=
201907212230 METAR LRTM 212230Z AUTO 09003KT 9999 FEW071/// 18/16 Q1020=
201907212300 METAR LRTM 212300Z AUTO 10004KT 9999 NCD 17/15 Q1020=
201907212330 METAR LRTM 212330Z AUTO 13004KT 9999 NCD 17/15 Q1020=
201907220000 METAR LRTM 220000Z AUTO 03003KT 350V090 7000 NCD 16/15 Q1020=
201907220030 METAR LRTM 220030Z AUTO 09005KT 8000 NCD 16/15 Q1020=
201907220100 METAR LRTM 220100Z AUTO 09005KT 8000 NCD 16/15 Q1020=
201907220130 METAR LRTM 220130Z AUTO 10004KT 7000 NCD 16/15 Q1020=
201907220200 METAR LRTM 220200Z AUTO 11003KT 9999 NCD 16/15 Q1020=
201907220230 METAR LRTM 220230Z AUTO 09005KT 7000 NCD 15/14 Q1020=
201907220300 METAR LRTM 220300Z AUTO 10004KT 9999 FEW210/// 16/15 Q1020=
201907220330 METAR LRTM 220330Z AUTO 10004KT 9000 NCD 16/15 Q1020=
201907220400 METAR LRTM 220400Z AUTO 03004KT 360V090 9999 FEW086/// 17/15
                        Q1020=
201907220430 METAR LRTM 220430Z AUTO 09004KT 9000 FEW150/// 17/16 Q1020=
201907220500 METAR LRTM 220500Z 10003KT 050V130 8000 FEW012 SCT033 FEW040CB
                        18/16 Q1021=
201907220530 METAR LRTM 220530Z 00000KT 9000 FEW012 SCT033 FEW040CB 19/16
                        Q1021=
201907220600 METAR LRTM 220600Z VRB02KT 9000 FEW012 SCT033 FEW040CB 19/16
                        Q1021=
201907220630 METAR LRTM 220630Z 09003KT 050V180 9999 FEW012 SCT035 FEW040CB
                        20/17 Q1020=
201907220700 METAR LRTM 220700Z 01003KT 320V050 9999 FEW036 FEW042CB 22/16
                        Q1020=
201907220730 METAR LRTM 220730Z 35008KT 9999 VCSH FEW036 SCT043CB 23/16
                        Q1021=
201907220800 METAR LRTM 220800Z 05008KT 9999 -TSRA SCT035 SCT040CB 20/17
                        Q1021 RESHRA R07/29//95=
201907220830 METAR LRTM 220830Z 07005KT 9999 FEW036 SCT040CB 22/18 Q1021
                        RETS R07/29//95=
201907220900 METAR LRTM 220900Z 04005KT 020V100 9999 FEW036 FEW042CB 23/18
                        Q1021 R07/29//95=
201907220930 METAR LRTM 220930Z 06006KT 020V110 9999 FEW037TCU FEW043CB
                        24/18 Q1021 R07/29//95=
201907221000 METAR LRTM 221000Z 04005KT 340V070 9999 FEW033 FEW037TCU
                        25/18 Q1020 R07/29//95=
201907221030 METAR LRTM 221030Z 08005KT 030V130 9999 FEW035 FEW037TCU
                        26/18 Q1020 R07/29//95=
201907221100 METAR LRTM 221100Z VRB03KT 9999 FEW035 FEW039CB 25/18 Q1020
                        R07/29//95=
201907221130 METAR LRTM 221130Z 04003KT 360V090 9999 VCSH FEW035 FEW040CB
                        25/17 Q1020 R07/29//95=
201907221200 METAR LRTM 221200Z 27003KT 240V310 9999 FEW036 FEW042CB 25/17
                        Q1020 R07/29//95=
201907221230 METAR LRTM 221230Z 32003KT 260V040 9999 FEW036 FEW040TCU
                        26/18 Q1019 R07/29//95=
201907221300 METAR LRTM 221300Z VRB02KT 9999 FEW036 FEW040CB 26/17 Q1019
                        R07/29//95=
201907221330 METAR LRTM 221330Z 19004KT 9999 FEW036 FEW040CB 26/18 Q1019
                        R07/CLRD//=
201907221400 METAR LRTM 221400Z 22006KT 9999 FEW036 FEW042CB 26/19 Q1019=
201907221430 METAR LRTM 221430Z 23007KT 9999 FEW036 FEW042CB 25/19 Q1019=
201907221500 METAR LRTM 221500Z 24007KT 9999 FEW036 FEW043CB 25/19 Q1019=
201907221530 METAR LRTM 221530Z 24008KT 9999 FEW036 FEW042CB 25/19 Q1019=
201907221600 METAR LRTM 221600Z 24007KT 9999 FEW036 FEW043TCU 25/19 Q1019=
201907221630 METAR LRTM 221630Z 22005KT 9999 FEW036 FEW043CB 25/19 Q1019=
201907221700 METAR LRTM 221700Z 23004KT 9999 FEW036 FEW043CB 25/19 Q1019=
201907221730 METAR LRTM 221730Z AUTO 23006KT 9999 SCT053/// 25/19 Q1019=
201907221800 METAR LRTM 221800Z AUTO 23006KT 9999 FEW054/// 22/19 Q1019=
201907221830 METAR LRTM 221830Z AUTO 25005KT 230V290 9999 SCT052/// 22/19
                        Q1019=
201907221900 METAR LRTM 221900Z AUTO 26004KT 9999 OVC098/// 22/19 Q1019=
201907221930 METAR LRTM 221930Z AUTO VRB01KT 9999 OVC100/// 21/19 Q1020=
201907222000 METAR LRTM 222000Z AUTO 21004KT 180V240 9999 FEW100/// 20/17
                        Q1020=
201907222030 METAR LRTM 222030Z AUTO 23005KT 9999 BKN100/// 20/16 Q1020=
201907222100 METAR LRTM 222100Z AUTO 24002KT 9999 BKN100/// 20/16 Q1020=
201907222130 METAR LRTM 222130Z AUTO 23006KT 9999 SCT100/// 17/15 Q1020=
201907222200 METAR LRTM 222200Z AUTO 24004KT 9999 NCD 18/16 Q1019=
201907222230 METAR LRTM 222230Z AUTO 21005KT 9999 NCD 17/15 Q1019=
201907222300 METAR LRTM 222300Z AUTO 23004KT 190V260 9999 NCD 17/15 Q1019=
201907222330 METAR LRTM 222330Z AUTO VRB03KT 9999 NCD 18/15 Q1019=
201907230000 METAR LRTM 230000Z AUTO 00000KT 9999 NCD 17/15 Q1019=
201907230030 METAR LRTM 230030Z AUTO 32002KT 280V340 9999 NCD 16/14 Q1019=
201907230100 METAR LRTM 230100Z AUTO 31002KT 270V360 9999 NCD 15/14 Q1019=
201907230130 METAR LRTM 230130Z AUTO 26002KT 9999 NCD 15/14 Q1019=
201907230200 METAR LRTM 230200Z AUTO VRB01KT 9999 SCT110/// 15/14 Q1019=
201907230230 METAR LRTM 230230Z AUTO 27002KT 230V320 9999 FEW110/// 14/13
                        Q1019=
201907230300 METAR LRTM 230300Z AUTO 00000KT 9999 FEW100/// 14/14 Q1019=
201907230330 METAR LRTM 230330Z AUTO VRB01KT 9999 BKN110/// 15/14 Q1019=
201907230400 METAR LRTM 230400Z AUTO 00000KT 9000 BKN110/// 16/15 Q1019=
201907230430 METAR LRTM 230430Z AUTO 25003KT 9999 BKN110/// 16/15 Q1019=
201907230500 METAR LRTM 230500Z 25004KT CAVOK 18/16 Q1019=
201907230530 METAR LRTM 230530Z 26003KT CAVOK 19/16 Q1019=
201907230600 METAR LRTM 230600Z VRB02KT CAVOK 20/16 Q1018=
201907230630 METAR LRTM 230630Z 25004KT CAVOK 21/16 Q1018=
201907230700 METAR LRTM 230700Z 24003KT 170V290 CAVOK 22/16 Q1018=
201907230730 METAR LRTM 230730Z 23005KT 160V290 CAVOK 23/16 Q1018=
201907230800 METAR LRTM 230800Z VRB03KT 9999 FEW023 24/16 Q1018=
201907230830 METAR LRTM 230830Z VRB05KT 9999 FEW025 25/16 Q1018=
201907230900 METAR LRTM 230900Z 30007KT 260V330 9999 SCT031 25/16 Q1018=
201907230930 METAR LRTM 230930Z 31008KT 270V340 9999 SCT031 FEW035CB 26/15
                        Q1017=
201907231000 METAR LRTM 231000Z 35004KT 280V050 9999 SCT032 FEW035CB 25/15
                        Q1017=
201907231030 METAR LRTM 231030Z 36005KT 310V070 9999 SCT035 FEW038CB 25/15
                        Q1017=
201907231100 METAR LRTM 231100Z 30008KT 250V020 9999 SCT038 FEW040CB 26/14
                        Q1017=
201907231130 METAR LRTM 231130Z 31009KT 9999 VCSH SCT040CB 25/14 Q1017=
201907231200 METAR LRTM 231200Z 34009KT 9999 VCSH SCT040CB 23/14 Q1016=
201907231230 METAR LRTM 231230Z 29008KT 260V320 7000 -SHRA SCT040CB 22/16
                        Q1016=
201907231300 METAR LRTM 231300Z 03005KT 360V070 9999 -SHRA SCT038CB 20/17
                        Q1016 R07/29//95=
201907231330 METAR LRTM 231330Z 34007KT 9999 -SHRA SCT038CB 21/18 Q1016
                        R07/29//95=
201907231400 METAR LRTM 231400Z 34005KT 9999 SCT040CB 20/17 Q1017 R07/29//95=
201907231430 METAR LRTM 231430Z 33008KT 290V360 8000 -SHRA FEW017 SCT038CB
                        20/17 Q1017 R07/29//95=
201907231500 METAR LRTM 231500Z 31007KT 260V340 8000 -SHRA FEW020 SCT038CB
                        19/17 Q1017 R07/29//95=
201907231530 METAR LRTM 231530Z 21005KT 9999 -SHRA SCT038CB 18/16 Q1017
                        R07/29//95=
201907231600 METAR LRTM 231600Z 23003KT 200V260 9999 FEW040CB 19/16 Q1017
                        R07/29//95=
201907231630 METAR LRTM 231630Z 22003KT 9999 FEW042CB 19/16 Q1016 R07/29//95=
201907231700 METAR LRTM 231700Z 22003KT 9999 FEW043CB 19/16 Q1016 R07/29//95=
201907231730 METAR LRTM 231730Z 26004KT 9999 FEW045CB 19/17 Q1017 R07/29//95=
201907231800 METAR LRTM 231800Z 26002KT 9999 FEW038 FEW045CB 18/17 Q1017
                        R07/29//95=
201907231830 METAR LRTM 231830Z 25004KT 9999 FEW048CB 18/17 Q1017 R07/29//95=
201907231900 METAR LRTM 231900Z AUTO 00000KT 9999 SCT064/// BKN100///
                        18/17 Q1017=
201907231930 METAR LRTM 231930Z AUTO 23002KT 9999 FEW070/// OVC100///
                        17/16 Q1017=
201907232000 METAR LRTM 232000Z AUTO 24002KT 220V300 9999 SCT029/// BKN110///
                        17/16 Q1017=
201907232030 METAR LRTM 232030Z AUTO 00000KT 6000 FEW032/// BKN110///
                        17/16 Q1017=
201907232100 METAR LRTM 232100Z AUTO 00000KT 6000 FEW044/// 17/16 Q1017=
201907232130 METAR LRTM 232130Z AUTO 00000KT 4000 R07/1200VP2000D BR FEW110///
                        17/16 Q1017=
201907232200 METAR LRTM 232200Z AUTO 00000KT 5000 FEW066/// 15/15 Q1017=
201907232230 METAR LRTM 232230Z AUTO 00000KT 2300 R07/1100VP2000D BCFG
                        SCT068/// 15/15 Q1017=
201907232300 METAR LRTM 232300Z AUTO 00000KT 6000 SCT081/// 16/15 Q1017=
201907232330 METAR LRTM 232330Z AUTO 00000KT 6000 BKN086/// 15/14 Q1017=
201907240000 METAR LRTM 240000Z AUTO 00000KT 7000 OVC083/// 15/15 Q1017=
201907240030 METAR LRTM 240030Z AUTO 00000KT 7000 OVC091/// 15/15 Q1017=
201907240100 METAR LRTM 240100Z AUTO 07003KT 3200 R07/1000VP2000U BCFG
                        SCT091/// 15/14 Q1017=
201907240130 METAR LRTM 240130Z AUTO 11003KT 1300 R07/0800VP2000D FG BKN087///
                        14/14 Q1017=
201907240200 METAR LRTM 240200Z AUTO 10003KT 1000 R07/0800V1400N FG FEW001///
                        14/13 Q1017=
201907240230 METAR LRTM 240230Z AUTO VRB01KT 0300 R07/0350N FG FEW001///
                        15/14 Q1017=
201907240300 METAR LRTM 240300Z AUTO 00000KT 0300 R07/0400N FG FEW002///
                        15/15 Q1017=
201907240330 METAR LRTM 240330Z VRB02KT 0150 R07/0450U FG VV001 15/15
                        Q1017 R07/29//95=
201907240400 METAR LRTM 240400Z VRB01KT 0800 R07/1100U FG FEW001 BKN002
                        15/15 Q1018 R07/CLRD//=
201907240430 METAR LRTM 240430Z VRB02KT 0900 R07/1400U FG FEW001 BKN002
                        15/15 Q1018=
201907240500 METAR LRTM 240500Z 11003KT 080V140 0800 R07/1500D FG FEW001
                        OVC002 15/15 Q1018=
201907240530 METAR LRTM 240530Z VRB02KT 0900 R07/1700U FG SCT001 OVC002
                        16/15 Q1018=
201907240600 METAR LRTM 240600Z VRB02KT 1700 BR SCT001 OVC002 16/15 Q1018=
201907240630 METAR LRTM 240630Z VRB01KT 2800 BR FEW002 OVC003 16/15 Q1018=
201907240700 METAR LRTM 240700Z 00000KT 4000 BR SCT002 BKN004 17/16 Q1018=
201907240730 METAR LRTM 240730Z 03002KT 5000 BR FEW003 BKN005 17/16 Q1018=
201907240800 METAR LRTM 240800Z 33002KT 6000 FEW004 BKN007 18/16 Q1018=
201907240830 METAR LRTM 240830Z VRB03KT 8000 FEW006 SCT008 20/16 Q1018=
201907240900 METAR LRTM 240900Z VRB03KT 9999 FEW010 FEW024TCU 21/16 Q1018=
201907240930 METAR LRTM 240930Z VRB04KT 9999 FEW025TCU 22/16 Q1018=
201907241000 METAR LRTM 241000Z 15004KT 090V230 9999 FEW025 FEW027TCU
                        23/15 Q1018=
201907241030 METAR LRTM 241030Z VRB03KT 9999 FEW030 24/14 Q1017=
201907241100 METAR LRTM 241100Z VRB02KT 9999 FEW033 25/15 Q1017=
201907241130 METAR LRTM 241130Z VRB03KT 9999 SCT034 25/14 Q1017=
201907241200 METAR LRTM 241200Z 26005KT 180V340 9999 SCT035 26/12 Q1017=
201907241230 METAR LRTM 241230Z VRB04KT 9999 SCT036 26/11 Q1017=
201907241300 METAR LRTM 241300Z 24005KT 210V280 9999 SCT036 25/12 Q1017=
201907241330 METAR LRTM 241330Z 26005KT 170V340 9999 SCT037 27/13 Q1017=
201907241400 METAR LRTM 241400Z 26005KT 230V290 9999 SCT037 27/13 Q1016=
201907241430 METAR LRTM 241430Z 24006KT 210V280 9999 FEW037 27/13 Q1016=
201907241500 METAR LRTM 241500Z 26008KT 9999 FEW038 25/13 Q1016=
201907241530 METAR LRTM 241530Z 25006KT 9999 FEW038 25/14 Q1016=
201907241600 METAR LRTM 241600Z 25006KT 9999 FEW040 24/14 Q1016=
201907241630 METAR LRTM 241630Z 25005KT 230V300 9999 FEW040 26/14 Q1016=
201907241700 METAR LRTM 241700Z 25006KT 9999 FEW042 23/14 Q1016=
201907241730 METAR LRTM 241730Z 25006KT 9999 FEW042 23/15 Q1016=
201907241800 METAR LRTM 241800Z AUTO 24004KT 9999 FEW065/// BKN091///
                        22/16 Q1017=
201907241830 METAR LRTM 241830Z AUTO 24004KT 9999 BKN098/// 20/16 Q1017=
201907241900 METAR LRTM 241900Z AUTO 26003KT 240V340 9999 NCD 19/15 Q1017=
201907241930 METAR LRTM 241930Z AUTO 23003KT 200V270 6000 R07/1500VP2000U
                        FEW110/// 18/14 Q1017=
201907242000 METAR LRTM 242000Z AUTO 25003KT 210V300 9999 SCT110/// 18/14
                        Q1017=
201907242030 METAR LRTM 242030Z AUTO 24005KT 9999 BKN110/// 16/13 Q1018=
201907242100 METAR LRTM 242100Z AUTO 25005KT 9999 NCD 17/13 Q1018=
201907242130 METAR LRTM 242130Z AUTO 26004KT 200V280 9999 BKN110/// 18/14
                        Q1018=
201907242200 METAR LRTM 242200Z AUTO 27005KT 240V310 9999 OVC110/// 18/14
                        Q1018=
201907242230 METAR LRTM 242230Z AUTO 23003KT 9999 OVC110/// 17/14 Q1018=
201907242300 METAR LRTM 242300Z AUTO 24003KT 9999 OVC120/// 17/14 Q1018=
201907242330 METAR LRTM 242330Z AUTO 00000KT 9999 OVC110/// 17/14 Q1018=
201907250000 METAR LRTM 250000Z AUTO 20001KT 9999 OVC120/// 16/14 Q1018=
201907250030 METAR LRTM 250030Z AUTO VRB01KT 9999 OVC110/// 16/14 Q1018=
201907250100 METAR LRTM 250100Z AUTO 00000KT 9999 OVC110/// 16/14 Q1018=
201907250130 METAR LRTM 250130Z AUTO 00000KT 9999 OVC110/// 15/14 Q1018=
201907250200 METAR LRTM 250200Z AUTO 00000KT 9999 OVC110/// 15/14 Q1018=
201907250230 METAR LRTM 250230Z AUTO 00000KT 9999 SCT120/// 15/14 Q1018=
201907250300 METAR LRTM 250300Z AUTO 10005KT 9999 BKN084/// 14/14 Q1019=
201907250330 METAR LRTM 250330Z AUTO 08005KT 9000 OVC079/// 15/14 Q1019=
201907250400 METAR LRTM 250400Z AUTO 08005KT 9999 OVC079/// 16/14 Q1019=
201907250430 METAR LRTM 250430Z AUTO 08004KT 050V110 9999 BKN079/// 17/14
                        Q1019=
201907250500 METAR LRTM 250500Z 08003KT 050V110 9999 FEW048CB 18/15 Q1019=
201907250530 METAR LRTM 250530Z 08003KT 040V180 CAVOK 19/15 Q1019=
201907250600 METAR LRTM 250600Z 10004KT 060V130 CAVOK 20/16 Q1019=
201907250630 METAR LRTM 250630Z VRB03KT CAVOK 21/15 Q1019=
201907250700 METAR LRTM 250700Z VRB03KT CAVOK 22/16 Q1019=
201907250730 METAR LRTM 250730Z VRB04KT 9999 FEW023 23/17 Q1019=
201907250800 METAR LRTM 250800Z 06003KT 360V120 9999 FEW025 23/16 Q1019=
201907250830 METAR LRTM 250830Z 15004KT 100V220 9999 SCT028 25/17 Q1019=
201907250900 METAR LRTM 250900Z 14004KT 080V200 9999 SCT030 25/16 Q1019=
201907250930 METAR LRTM 250930Z 25004KT 170V310 9999 SCT030 25/15 Q1018=
201907251000 METAR LRTM 251000Z VRB02KT 9999 SCT032 26/15 Q1018=
201907251030 METAR LRTM 251030Z 29005KT 230V330 9999 SCT032 27/14 Q1018=
201907251100 METAR LRTM 251100Z VRB03KT 9999 SCT035 27/14 Q1018=
201907251130 METAR LRTM 251130Z 21004KT 140V270 9999 SCT035 27/14 Q1018=
201907251200 METAR LRTM 251200Z VRB03KT 9999 SCT038 28/13 Q1018=
201907251230 METAR LRTM 251230Z 28004KT 190V330 9999 SCT038 29/14 Q1017=
201907251300 METAR LRTM 251300Z VRB03KT 9999 SCT038 28/13 Q1017=
201907251330 METAR LRTM 251330Z VRB03KT 9999 SCT040 29/14 Q1017=
201907251400 METAR LRTM 251400Z VRB03KT 9999 SCT040 29/13 Q1017=
201907251430 METAR LRTM 251430Z 18004KT 090V230 9999 SCT042 28/13 Q1017=
201907251500 METAR LRTM 251500Z VRB03KT 9999 FEW042 29/13 Q1017=
201907251530 METAR LRTM 251530Z 25004KT 210V320 9999 FEW043 28/13 Q1017=
201907251600 METAR LRTM 251600Z 24005KT 9999 FEW045 28/14 Q1016=
201907251630 METAR LRTM 251630Z 25004KT 220V280 9999 FEW045 28/14 Q1016=
201907251700 METAR LRTM 251700Z 24005KT 9999 FEW045 26/16 Q1017=
201907251730 METAR LRTM 251730Z AUTO 25004KT 9999 NCD 24/16 Q1016=
201907251800 METAR LRTM 251800Z AUTO 22003KT 9999 NCD 22/16 Q1017=
201907251830 METAR LRTM 251830Z AUTO 00000KT 9999 NCD 21/16 Q1017=
201907251900 METAR LRTM 251900Z AUTO 00000KT 9999 NCD 20/16 Q1017=
201907251930 METAR LRTM 251930Z AUTO 00000KT 9999 NCD 19/15 Q1017=
201907252000 METAR LRTM 252000Z AUTO 00000KT 9999 NCD 18/15 Q1017=
201907252030 METAR LRTM 252030Z AUTO 08003KT 9999 NCD 16/14 Q1017=
201907252100 METAR LRTM 252100Z AUTO 09003KT 9999 NCD 16/14 Q1017=
201907252130 METAR LRTM 252130Z AUTO 10004KT 9999 FEW089/// 16/14 Q1017=
201907252200 METAR LRTM 252200Z AUTO 09003KT 9999 FEW089/// 17/15 Q1016=
201907252230 METAR LRTM 252230Z AUTO 02002KT 360V060 9000 BKN084/// 16/14
                        Q1016=
201907252300 METAR LRTM 252300Z AUTO 09004KT 9999 NCD 15/14 Q1016=
201907252330 METAR LRTM 252330Z AUTO 10004KT 9999 NCD 15/14 Q1016=
201907260000 METAR LRTM 260000Z AUTO 10004KT 4400 BR NCD 15/14 Q1016=
201907260030 METAR LRTM 260030Z AUTO 10004KT 9999 NCD 15/14 Q1016=
201907260100 METAR LRTM 260100Z AUTO 09005KT 9999 NCD 15/14 Q1015=
201907260130 METAR LRTM 260130Z AUTO 10004KT 9999 NCD 14/13 Q1015=
201907260200 METAR LRTM 260200Z AUTO 10005KT 9999 NCD 15/13 Q1015=
201907260230 METAR LRTM 260230Z AUTO 10003KT 9000 NCD 14/13 Q1015=
201907260300 METAR LRTM 260300Z AUTO 09004KT 9000 NCD 13/13 Q1015=
201907260330 METAR LRTM 260330Z AUTO 09005KT 9000 NCD 14/13 Q1015=
201907260400 METAR LRTM 260400Z AUTO 10005KT 9999 NCD 15/13 Q1015=
201907260430 METAR LRTM 260430Z AUTO 09005KT 9999 NCD 16/14 Q1015=
201907260500 METAR LRTM 260500Z 08004KT 8000 FEW008 17/14 Q1015=
201907260530 METAR LRTM 260530Z 08004KT 040V110 9000 FEW008 18/15 Q1015=
201907260600 METAR LRTM 260600Z 08004KT 030V100 9999 FEW010 19/15 Q1015=
201907260630 METAR LRTM 260630Z VRB01KT CAVOK 21/16 Q1015=
201907260700 METAR LRTM 260700Z VRB01KT 9999 FEW025 23/17 Q1015=
201907260730 METAR LRTM 260730Z VRB02KT 9999 FEW028 23/17 Q1014=
201907260800 METAR LRTM 260800Z VRB02KT 9999 FEW030 25/16 Q1014=
201907260830 METAR LRTM 260830Z VRB02KT 9999 FEW032 25/15 Q1014=
201907260900 METAR LRTM 260900Z 20004KT 140V280 9999 FEW034 27/16 Q1014=
201907260930 METAR LRTM 260930Z 24005KT 200V270 9999 FEW034 27/17 Q1013=
201907261000 METAR LRTM 261000Z VRB04KT 9999 SCT034 28/17 Q1013=
201907261030 METAR LRTM 261030Z VRB05KT 9999 SCT034 28/16 Q1013=
201907261100 METAR COR LRTM 261100Z 30003KT 210V020 9999 FEW035 28/14
                        Q1013=
201907261130 METAR LRTM 261130Z VRB03KT 9999 SCT035 29/14 Q1012=
201907261200 METAR LRTM 261200Z VRB04KT 9999 SCT035 29/13 Q1012=
201907261230 METAR LRTM 261230Z VRB04KT 9999 SCT036 30/13 Q1012=
201907261300 METAR LRTM 261300Z VRB03KT 9999 FEW036 30/13 Q1011=
201907261330 METAR LRTM 261330Z VRB04KT 9999 FEW036 30/13 Q1011=
201907261400 METAR LRTM 261400Z VRB03KT 9999 FEW037 30/13 Q1011=
201907261430 METAR LRTM 261430Z VRB02KT 9999 FEW037 31/12 Q1010=
201907261500 METAR LRTM 261500Z 17003KT 120V230 9999 FEW037 30/11 Q1010=
201907261530 METAR LRTM 261530Z 17004KT 130V210 9999 FEW037 30/11 Q1010=
201907261600 METAR LRTM 261600Z 18004KT 150V250 9999 FEW038 30/12 Q1010=
201907261630 METAR LRTM 261630Z 18004KT 9999 FEW038 29/14 Q1010=
201907261700 METAR LRTM 261700Z 19005KT 9999 FEW038 26/15 Q1010=
201907261730 METAR LRTM 261730Z 16005KT 9999 FEW038 24/15 Q1010=
201907261800 METAR LRTM 261800Z 29002KT 9999 FEW040 23/15 Q1010=
201907261830 METAR LRTM 261830Z 00000KT 9999 FEW042 21/16 Q1010=
201907261900 METAR LRTM 261900Z 35001KT 9999 FEW044 20/15 Q1010=
201907261930 METAR LRTM 261930Z 00000KT 9999 FEW044 19/15 Q1010=
201907262000 METAR LRTM 262000Z 04001KT 9999 SCT044 19/15 Q1010=
201907262030 METAR LRTM 262030Z 10003KT CAVOK 17/14 Q1010=
201907262100 METAR LRTM 262100Z 07003KT 030V190 CAVOK 18/14 Q1010=
201907262130 METAR LRTM 262130Z 10005KT CAVOK 18/15 Q1010=
201907262200 METAR LRTM 262200Z AUTO 09004KT 9999 NCD 17/14 Q1010=
201907262230 METAR LRTM 262230Z AUTO 11003KT 9999 SCT170/// 16/14 Q1010=
201907262300 METAR LRTM 262300Z AUTO 15003KT 070V210 9999 BKN069/// 17/15
                        Q1010=
201907262330 METAR LRTM 262330Z AUTO VRB02KT 9999 FEW091/// 16/14 Q1010=
201907270000 METAR LRTM 270000Z AUTO VRB02KT 9999 NCD 16/14 Q1009=
201907270030 METAR LRTM 270030Z AUTO 00000KT 9999 NCD 16/14 Q1009=
201907270100 METAR LRTM 270100Z AUTO 00000KT 8000 NCD 15/14 Q1009=
201907270130 METAR LRTM 270130Z AUTO 00000KT 7000 NCD 15/14 Q1009=
201907270200 METAR LRTM 270200Z AUTO 00000KT 7000 SCT120/// 15/14 Q1009=
201907270230 METAR LRTM 270230Z AUTO 00000KT 6000 NCD 14/13 Q1009=
201907270300 METAR LRTM 270300Z AUTO 07004KT 5000 BR NCD 14/13 Q1009=
201907270330 METAR LRTM 270330Z AUTO 07003KT 050V110 5000 BR NCD 14/13
                        Q1009=
201907270400 METAR LRTM 270400Z AUTO 09005KT 4700 BR NCD 15/14 Q1009=
201907270430 METAR LRTM 270430Z AUTO 10005KT 9999 NCD 16/15 Q1009=
201907270500 METAR LRTM 270500Z 07004KT 050V110 9999 FEW008 18/15 Q1009=
201907270530 METAR LRTM 270530Z 07003KT 9999 FEW010 19/16 Q1010=
201907270600 METAR LRTM 270600Z 07003KT 010V130 CAVOK 21/16 Q1010=
201907270630 METAR LRTM 270630Z 14005KT 110V190 CAVOK 22/16 Q1009=
201907270700 METAR LRTM 270700Z 15004KT 090V230 CAVOK 23/17 Q1009=
201907270730 METAR LRTM 270730Z 15004KT 110V230 CAVOK 24/17 Q1009=
201907270800 METAR LRTM 270800Z 11003KT 060V170 CAVOK 26/18 Q1009=
201907270830 METAR LRTM 270830Z 13004KT 080V170 9999 FEW025 27/17 Q1009=
201907270900 METAR LRTM 270900Z 13005KT 060V170 9999 FEW027 28/16 Q1009=
201907270930 METAR LRTM 270930Z VRB03KT 9999 FEW027 29/16 Q1009=
201907271000 METAR LRTM 271000Z 13005KT 050V180 9999 FEW030 29/17 Q1009=
201907271030 METAR LRTM 271030Z VRB04KT 9999 FEW030 30/15 Q1008=
201907271100 METAR LRTM 271100Z 17007KT 9999 FEW032 31/15 Q1008=
201907271130 METAR LRTM 271130Z VRB05KT 9999 FEW032 FEW035CB 31/15 Q1008=
201907271200 METAR LRTM 271200Z 19006KT 9999 FEW033 FEW036CB 31/15 Q1007=
201907271230 METAR LRTM 271230Z 14006KT 9999 FEW033 FEW036CB 31/15 Q1007=
201907271300 METAR LRTM 271300Z 17004KT 070V230 9999 FEW035 FEW037CB 32/15
                        Q1007=
201907271330 METAR LRTM 271330Z VRB03KT 9999 FEW035 FEW037CB 32/15 Q1007=
201907271400 METAR LRTM 271400Z VRB04KT 9999 FEW038 FEW040CB 32/15 Q1007=
201907271430 METAR LRTM 271430Z 16004KT 070V230 9999 FEW038 FEW040CB 32/15
                        Q1007=
201907271500 METAR LRTM 271500Z 20005KT 160V240 9999 FEW040 FEW042CB 32/14
                        Q1006=
201907271530 METAR LRTM 271530Z 16005KT 9999 FEW040 FEW042CB 32/14 Q1006=
201907271600 METAR LRTM 271600Z 17005KT 9999 FEW045CB 30/15 Q1006=
201907271630 METAR LRTM 271630Z 16004KT 9999 FEW045CB 31/16 Q1006=
201907271700 METAR LRTM 271700Z 16005KT 9999 FEW048CB 29/17 Q1006=
201907271730 METAR LRTM 271730Z AUTO 16006KT 9999 SCT140/// 27/16 Q1006=
201907271800 METAR LRTM 271800Z AUTO 16007KT 9999 FEW190/// 25/16 Q1006=
201907271830 METAR LRTM 271830Z AUTO 17002KT 100V210 9999 NCD 24/16 Q1007=
201907271900 METAR LRTM 271900Z AUTO VRB03KT 9999 FEW170/// 23/17 Q1007=
201907271930 METAR LRTM 271930Z AUTO 04004KT 010V070 9999 FEW120/// 23/17
                        Q1007=
201907272000 METAR LRTM 272000Z AUTO 07006KT 9999 BKN120/// 21/17 Q1007=
201907272030 METAR LRTM 272030Z AUTO 08006KT 9999 SCT120/// 20/17 Q1007=
201907272100 METAR LRTM 272100Z AUTO 07006KT 9999 BKN120/// 21/17 Q1007=
201907272130 METAR LRTM 272130Z AUTO 10004KT 9999 SCT120/// 21/17 Q1007=
201907272200 METAR LRTM 272200Z AUTO 10004KT 9999 NCD 21/17 Q1007=
201907272230 METAR LRTM 272230Z AUTO 07004KT 9999 NCD 19/17 Q1007=
201907272300 METAR LRTM 272300Z AUTO 09005KT 9999 NCD 19/17 Q1007=
201907272330 METAR LRTM 272330Z AUTO 09004KT 9999 NCD 19/17 Q1007=
201907280000 METAR LRTM 280000Z AUTO 08005KT 9000 NCD 18/16 Q1007=
201907280030 METAR LRTM 280030Z AUTO 07007KT 9999 NCD 19/17 Q1007=
201907280100 METAR LRTM 280100Z AUTO 08005KT 9999 NCD 19/16 Q1007=
201907280130 METAR LRTM 280130Z AUTO 09004KT 9999 NCD 18/16 Q1007=
201907280200 METAR LRTM 280200Z AUTO 10004KT 9999 NCD 18/16 Q1008=
201907280230 METAR LRTM 280230Z AUTO 09008KT 9999 NCD 18/16 Q1008=
201907280300 METAR LRTM 280300Z AUTO 08009KT 9999 NCD 18/16 Q1008=
201907280330 METAR LRTM 280330Z 10005KT 9000 FEW009 18/16 Q1008=
201907280400 METAR LRTM 280400Z 10004KT 9000 FEW010 19/16 Q1008=
201907280430 METAR LRTM 280430Z 10005KT 9999 FEW012 20/17 Q1008=
201907280500 METAR LRTM 280500Z 08008KT 9999 FEW012 21/17 Q1008=
201907280530 METAR LRTM 280530Z 09005KT 9999 FEW013 22/17 Q1008=
201907280600 METAR LRTM 280600Z 06006KT 010V090 CAVOK 24/17 Q1008=
201907280630 METAR LRTM 280630Z 09004KT 040V140 CAVOK 25/17 Q1008=
201907280700 METAR LRTM 280700Z 07004KT 030V120 CAVOK 27/18 Q1008=
201907280730 METAR LRTM 280730Z 10005KT 050V140 CAVOK 28/17 Q1008=
201907280800 METAR LRTM 280800Z 09004KT 060V130 CAVOK 28/17 Q1008=
201907280830 METAR LRTM 280830Z 13004KT 050V190 CAVOK 29/17 Q1007=
201907280900 METAR LRTM 280900Z VRB05KT CAVOK 30/18 Q1007=
201907280930 METAR LRTM 280930Z 09006KT 050V130 CAVOK 31/17 Q1007=
201907281000 METAR LRTM 281000Z 11008KT 080V180 9999 FEW040TCU 31/17 Q1007=
201907281030 METAR LRTM 281030Z 10010KT 9999 FEW040TCU 32/16 Q1007=
201907281100 METAR LRTM 281100Z 10008KT 070V130 9999 FEW041TCU 33/16 Q1006=
201907281130 METAR LRTM 281130Z 08006KT 030V140 9999 FEW041TCU 32/16 Q1006=
201907281200 METAR LRTM 281200Z 11007KT 070V170 9999 FEW040 33/16 Q1006=
201907281230 METAR LRTM 281230Z 13005KT 080V160 9999 FEW040 33/16 Q1006=
201907281300 METAR LRTM 281300Z 10008KT 070V130 9999 FEW038 FEW040TCU
                        33/17 Q1005=
201907281330 METAR LRTM 281330Z 10008KT 060V140 9999 FEW038 FEW040TCU
                        32/17 Q1005=
201907281400 METAR LRTM 281400Z 10009KT 9999 FEW038 FEW041TCU 33/17 Q1004=
201907281430 METAR LRTM 281430Z 11010KT 9999 FEW041TCU 33/16 Q1004=
201907281500 METAR LRTM 281500Z 10011KT 9999 FEW041CB 33/16 Q1004=
201907281530 METAR LRTM 281530Z 12008KT 9999 FEW041CB 33/16 Q1004=
201907281600 METAR LRTM 281600Z AUTO 10009KT 9999 NCD 31/16 Q1004=
201907281630 METAR LRTM 281630Z AUTO 15004KT 120V180 9999 SCT076/// 31/17
                        Q1004=
201907281700 METAR LRTM 281700Z AUTO 12005KT 9999 NCD 29/17 Q1004=
201907281730 METAR LRTM 281730Z AUTO 11006KT 9999 NCD 28/16 Q1004=
201907281800 METAR LRTM 281800Z AUTO 08006KT 9999 NCD 24/16 Q1005=
201907281830 METAR LRTM 281830Z AUTO 07008KT 6000 NCD 23/15 Q1005=
201907281900 METAR LRTM 281900Z AUTO 11005KT 9999 NCD 24/15 Q1005=
201907281930 METAR LRTM 281930Z AUTO 07004KT 9999 NCD 23/14 Q1005=
201907282000 METAR LRTM 282000Z AUTO VRB03KT 9999 FEW220/// 21/14 Q1005=
201907282030 METAR LRTM 282030Z AUTO 10003KT 9999 SCT210/// 22/14 Q1005=
201907282100 METAR LRTM 282100Z AUTO 07005KT 9999 NCD 20/14 Q1004=
201907282130 METAR LRTM 282130Z AUTO 07007KT 9999 NCD 20/14 Q1004=
201907282200 METAR LRTM 282200Z AUTO 10003KT 070V150 9999 NCD 18/14 Q1004=
201907282230 METAR LRTM 282230Z AUTO 10007KT 9999 NCD 18/13 Q1004=
201907282300 METAR LRTM 282300Z AUTO 10006KT 9999 NCD 18/14 Q1005=
201907282330 METAR LRTM 282330Z AUTO 10003KT 9999 NCD 19/13 Q1005=
201907290000 METAR LRTM 290000Z AUTO 08005KT 9999 FEW190/// 18/13 Q1005=
201907290030 METAR LRTM 290030Z AUTO 10008KT 9999 BKN170/// 18/14 Q1005=
201907290100 METAR LRTM 290100Z AUTO 08007KT 9999 OVC180/// 18/14 Q1005=
201907290130 METAR LRTM 290130Z AUTO 09004KT 9999 BKN087/// 18/14 Q1005=
201907290200 METAR LRTM 290200Z AUTO 10003KT 060V130 9999 BKN090/// 18/14
                        Q1005=
201907290230 METAR LRTM 290230Z AUTO 10004KT 9999 OVC160/// 17/14 Q1005=
201907290300 METAR LRTM 290300Z AUTO 09005KT 9999 BKN150/// 18/14 Q1005=
201907290330 METAR LRTM 290330Z AUTO 10003KT 9999 FEW150/// SCT180///
                        18/14 Q1005=
201907290400 METAR LRTM 290400Z AUTO 10002KT 060V120 9999 BKN190/// 18/15
                        Q1005=
201907290430 METAR LRTM 290430Z AUTO 07001KT 9999 FEW067/// 19/15 Q1005=
201907290500 METAR LRTM 290500Z VRB02KT 9999 SCT045 20/15 Q1005=
201907290530 METAR LRTM 290530Z 30004KT 270V330 9999 SCT042 FEW045CB 21/15
                        Q1005=
201907290600 METAR LRTM 290600Z VRB01KT 9999 SCT042 FEW045CB 21/15 Q1005=
201907290630 METAR LRTM 290630Z VRB01KT 9999 SCT038 22/16 Q1005=
201907290700 METAR LRTM 290700Z VRB02KT 9999 SCT038 23/15 Q1005=
201907290730 METAR LRTM 290730Z 27004KT 230V310 9999 FEW030 SCT038 24/16
                        Q1005=
201907290800 METAR LRTM 290800Z 27004KT 230V310 9999 FEW025 SCT035 FEW040CB
                        24/16 Q1005=
201907290830 METAR LRTM 290830Z 23004KT 200V260 9999 FEW025 SCT035 FEW040CB
                        24/16 Q1006=
201907290900 METAR LRTM 290900Z 23004KT 150V300 9999 FEW025 SCT035 FEW040CB
                        25/17 Q1006=
201907290930 METAR LRTM 290930Z 32005KT 250V040 9999 FEW025 SCT035 FEW040CB
                        26/16 Q1006=
201907291000 METAR LRTM 291000Z 33005KT 290V020 9999 FEW028 SCT035 FEW042CB
                        26/17 Q1006=
201907291030 METAR LRTM 291030Z 33006KT 300V020 9999 FEW028 BKN035 FEW043CB
                        26/17 Q1006=
201907291100 METAR LRTM 291100Z 32005KT 270V020 9999 FEW030 BKN037 FEW045CB
                        25/17 Q1006=
201907291130 METAR LRTM 291130Z 28006KT 240V310 9999 SCT030 BKN037 FEW045CB
                        25/16 Q1006=
201907291200 METAR LRTM 291200Z 26007KT 9999 SCT032 BKN037 FEW045CB 25/16
                        Q1006=
201907291230 METAR LRTM 291230Z 25008KT 9999 FEW032 BKN037 FEW045CB 25/16
                        Q1006=
201907291300 METAR LRTM 291300Z 25008KT 9999 FEW032 SCT037 SCT045CB 25/15
                        Q1006=
201907291330 METAR LRTM 291330Z 24008KT 9999 FEW034 SCT047CB 26/15 Q1006=
201907291400 METAR LRTM 291400Z 24009KT 9999 SCT047CB 27/16 Q1005=
201907291430 METAR LRTM 291430Z 24009KT 9999 FEW042 FEW047CB 26/15 Q1005=
201907291500 METAR LRTM 291500Z 25007KT 220V280 9999 FEW042 FEW047CB 26/15
                        Q1005=
201907291530 METAR LRTM 291530Z 25008KT 9999 FEW044 FEW048CB 25/15 Q1005=
201907291600 METAR LRTM 291600Z 24007KT 9999 FEW048CB 25/16 Q1005=
201907291630 METAR LRTM 291630Z 24006KT 9999 FEW050CB 25/16 Q1006=
201907291700 METAR LRTM 291700Z 23005KT 9999 FEW050CB 25/16 Q1006=
201907291730 METAR LRTM 291730Z AUTO 21005KT 9999 OVC140/// 24/16 Q1006=
201907291800 METAR LRTM 291800Z AUTO 23003KT 200V270 9999 OVC150/// 22/16
                        Q1006=
201907291830 METAR LRTM 291830Z AUTO 24005KT 9999 SCT150/// 21/16 Q1006=
201907291900 METAR LRTM 291900Z AUTO 27004KT 240V300 9999 FEW150/// 21/16
                        Q1007=
201907291930 METAR LRTM 291930Z AUTO 23003KT 9999 FEW120/// 19/16 Q1007=
201907292000 METAR LRTM 292000Z AUTO 24003KT 9999 NCD 19/16 Q1007=
201907292030 METAR LRTM 292030Z AUTO 26003KT 9999 FEW100/// 18/15 Q1007=
201907292100 METAR LRTM 292100Z AUTO 00000KT 9999 BKN052/// 18/16 Q1007=
201907292130 METAR LRTM 292130Z AUTO 29003KT 250V330 9999 OVC053/// 18/16
                        Q1007=
201907292200 METAR LRTM 292200Z AUTO 27002KT 230V320 9999 FEW054/// 18/16
                        Q1007=
201907292230 METAR LRTM 292230Z AUTO 29003KT 260V330 8000 BKN053/// 18/16
                        Q1007=
201907292300 METAR LRTM 292300Z AUTO 28003KT 240V300 9999 BKN052/// 18/15
                        Q1007=
201907292330 METAR LRTM 292330Z AUTO VRB01KT 9999 FEW053/// 17/15 Q1007=
201907300000 METAR LRTM 300000Z AUTO 26002KT 210V300 9999 NCD 16/15 Q1007=
201907300030 METAR LRTM 300030Z AUTO 25004KT 9999 SCT075/// 16/14 Q1007=
201907300100 METAR LRTM 300100Z AUTO 26003KT 9999 NCD 17/15 Q1007=
201907300130 METAR LRTM 300130Z AUTO 29003KT 230V330 9999 NCD 16/15 Q1007=
201907300200 METAR LRTM 300200Z AUTO 00000KT 7000 NCD 16/14 Q1007=
201907300230 METAR LRTM 300230Z AUTO 26003KT 7000 NCD 15/14 Q1007=
201907300300 METAR LRTM 300300Z AUTO 04002KT 330V070 3700 BR NCD 15/14
                        Q1007=
201907300330 METAR LRTM 300330Z AUTO 09003KT 6000 NCD 15/14 Q1008=
201907300400 METAR LRTM 300400Z AUTO 08003KT 6000 SCT040/// 16/15 Q1008=
201907300430 METAR LRTM 300430Z AUTO 07002KT 8000 NCD 17/15 Q1008=
201907300500 METAR LRTM 300500Z 09003KT 9000 FEW040 18/16 Q1008=
201907300530 METAR COR LRTM 300530Z 07003KT 040V120 9999 FEW040 19/16
                        Q1009=
201907300600 METAR LRTM 300600Z VRB01KT 9999 FEW040 21/17 Q1009=
201907300630 METAR LRTM 300630Z VRB02KT 9999 FEW030 22/17 Q1009=
201907300700 METAR LRTM 300700Z 25003KT 180V290 9999 FEW026 23/17 Q1009=
201907300730 METAR LRTM 300730Z 31004KT 250V060 9999 SCT028 24/18 Q1009=
201907300800 METAR LRTM 300800Z 30005KT 250V350 9999 FEW025 SCT034 25/18
                        Q1009=
201907300830 METAR LRTM 300830Z 33006KT 280V020 9999 FEW028 SCT034 26/18
                        Q1009=
201907300900 METAR LRTM 300900Z 31006KT 250V040 9999 FEW028 SCT032 27/18
                        Q1009=
201907300930 METAR LRTM 300930Z 30006KT 270V350 9999 FEW030 BKN034 27/18
                        Q1009=
201907301000 METAR LRTM 301000Z 27007KT 250V310 9999 FEW032 SCT035 28/18
                        Q1009=
201907301030 METAR LRTM 301030Z 34007KT 9999 SCT035 27/17 Q1009=
201907301100 METAR LRTM 301100Z 29006KT 240V330 9999 SCT036 29/15 Q1008=
201907301130 METAR LRTM 301130Z 28005KT 220V360 9999 SCT036 29/15 Q1008=
201907301200 METAR LRTM 301200Z 32008KT 300V360 9999 SCT036 30/17 Q1008=
201907301230 METAR LRTM 301230Z 22006KT 190V250 9999 SCT036 30/16 Q1008=
201907301300 METAR LRTM 301300Z 29006KT 240V320 9999 FEW037 31/15 Q1008=
201907301330 METAR LRTM 301330Z 31006KT 270V350 9999 FEW037 30/16 Q1008=
201907301400 METAR LRTM 301400Z 27006KT 220V330 9999 FEW037 31/15 Q1007=
201907301430 METAR LRTM 301430Z 27007KT 9999 FEW037 31/15 Q1007=
201907301500 METAR LRTM 301500Z 33006KT 260V020 9999 FEW037 31/16 Q1007=
201907301530 METAR LRTM 301530Z 29005KT 260V340 9999 FEW037 31/16 Q1007=
201907301600 METAR LRTM 301600Z 32005KT 280V350 9999 FEW038 31/17 Q1007=
201907301630 METAR LRTM 301630Z 31007KT 9999 FEW038 30/16 Q1007=
201907301700 METAR LRTM 301700Z 31007KT 270V330 9999 FEW038 29/16 Q1007=
201907301730 METAR LRTM 301730Z AUTO 28004KT 260V340 9999 FEW150/// 28/17
                        Q1007=
201907301800 METAR LRTM 301800Z AUTO 28005KT 9999 BKN160/// 26/17 Q1008=
201907301830 METAR LRTM 301830Z AUTO 34003KT 270V050 9999 OVC160/// 25/17
                        Q1008=
201907301900 METAR LRTM 301900Z AUTO 25002KT 9999 OVC160/// 24/18 Q1009=
201907301930 METAR LRTM 301930Z AUTO 23004KT 9999 SCT160/// 23/18 Q1009=
201907302000 METAR LRTM 302000Z AUTO 22004KT 9999 FEW150/// 22/18 Q1009=
201907302030 METAR LRTM 302030Z AUTO 23005KT 9999 FEW150/// 23/18 Q1009=
201907302100 METAR LRTM 302100Z AUTO 22005KT 9999 BKN072/// 22/18 Q1009=
201907302130 METAR LRTM 302130Z AUTO 24005KT 9999 NCD 22/18 Q1010=
201907302200 METAR LRTM 302200Z AUTO 22005KT 9999 NCD 22/18 Q1010=
201907302230 METAR LRTM 302230Z AUTO 24006KT 9999 SCT083/// 21/18 Q1010=
201907302300 METAR LRTM 302300Z AUTO 25003KT 170V270 9999 BKN069/// 21/18
                        Q1010=
201907302330 METAR LRTM 302330Z AUTO 26003KT 9999 SCT060/// SCT082///
                        20/18 Q1010=
201907310000 METAR LRTM 310000Z AUTO 00000KT 9999 NCD 19/18 Q1010=
201907310030 METAR LRTM 310030Z AUTO 20001KT 9999 FEW036/// SCT082///
                        19/18 Q1010=
201907310100 METAR LRTM 310100Z AUTO 00000KT 9000 BKN037/// 19/18 Q1010=
201907310130 METAR LRTM 310130Z AUTO 34002KT 9999 FEW038/// 19/17 Q1010=
201907310200 METAR LRTM 310200Z AUTO 00000KT 9000 SCT039/// SCT120///
                        19/18 Q1010=
201907310230 METAR LRTM 310230Z AUTO 09002KT 050V120 9999 BKN038/// 20/18
                        Q1010=
201907310300 METAR LRTM 310300Z AUTO 14002KT 9999 BKN041/// SCT120///
                        20/18 Q1010=
201907310330 METAR LRTM 310330Z 35003KT 290V360 8000 FEW012 FEW042CB 20/18
                        Q1010=
201907310400 METAR LRTM 310400Z 24003KT 8000 FEW012 FEW042CB 20/19 Q1010=
201907310430 METAR LRTM 310430Z 28004KT 8000 FEW015 FEW045CB 21/18 Q1010=
201907310500 METAR LRTM 310500Z 24005KT 8000 FEW039 FEW045CB 21/19 Q1011=
201907310530 METAR LRTM 310530Z 28003KT 260V320 9999 FEW036 FEW045CB 22/19
                        Q1011=
201907310600 METAR LRTM 310600Z VRB02KT 8000 SCT036 FEW045CB 23/19 Q1011=
201907310630 METAR LRTM 310630Z VRB01KT 8000 FEW036 FEW046CB 25/19 Q1011=
201907310700 METAR LRTM 310700Z VRB01KT 9000 FEW046CB 26/19 Q1011=
201907310730 METAR LRTM 310730Z VRB04KT 9999 FEW024 FEW045CB 26/19 Q1011=
201907310800 METAR LRTM 310800Z 31004KT 250V030 9999 SCT025 FEW045CB 27/19
                        Q1011=
201907310830 METAR LRTM 310830Z VRB05KT 9999 SCT026 FEW045CB 27/19 Q1011=
201907310900 METAR LRTM 310900Z 29004KT 250V010 9999 SCT026 FEW045CB 28/19
                        Q1011=
201907310930 METAR LRTM 310930Z VRB04KT 9999 BKN028 FEW030TCU FEW040CB
                        29/20 Q1011=
201907311000 METAR LRTM 311000Z 30004KT 240V030 9999 BKN030 FEW033TCU
                        FEW040CB 28/19 Q1011=
201907311030 METAR LRTM 311030Z VRB03KT 9999 SCT032 FEW035TCU FEW040CB
                        29/19 Q1010=
201907311100 METAR LRTM 311100Z 35005KT 260V050 9999 BKN034 FEW037TCU
                        FEW042CB 29/18 Q1010=
201907311130 METAR LRTM 311130Z 32005KT 250V020 9999 BKN036 FEW039TCU
                        FEW042CB 30/19 Q1010=
201907311200 METAR LRTM 311200Z 25006KT 220V300 9999 VCTS VCSH BKN038
                        SCT041CB 29/19 Q1010=
201907311230 METAR LRTM 311230Z 22009KT 9999 VCTS VCSH BKN038 SCT042CB
                        27/19 Q1010=
201907311300 METAR LRTM 311300Z 23013KT 9999 -TSRA SCT034 BKN040CB 26/20
                        Q1011=
201907311330 METAR LRTM 311330Z 25010KT 9999 TS VCSH SCT034 BKN040CB 26/20
                        Q1011=
201907311400 METAR LRTM 311400Z 24010KT 9999 FEW032 SCT040CB 26/20 Q1011
                        RETS=
201907311430 METAR LRTM 311430Z 25008KT 9999 FEW042CB 25/20 Q1010=
201907311500 METAR LRTM 311500Z 24010KT 9999 FEW044CB 25/20 Q1011=
201907311530 METAR LRTM 311530Z 24007KT 9999 FEW030 FEW044CB 25/20 Q1011=
201907311600 METAR LRTM 311600Z 23007KT 9999 FEW030 FEW046CB 24/20 Q1011=
201907311630 METAR LRTM 311630Z 23006KT 9999 FEW046CB 25/20 Q1011=
201907311700 METAR LRTM 311700Z 19005KT 9999 FEW046CB 24/20 Q1011=
201907311730 METAR LRTM 311730Z 18004KT 150V210 9999 FEW046CB 23/20 Q1011=
201907311800 METAR LRTM 311800Z AUTO 25003KT 220V290 9999 FEW150/// 23/20
                        Q1012=
201907311830 METAR LRTM 311830Z AUTO 24004KT 9999 SCT210/// 22/19 Q1012=
201907311900 METAR LRTM 311900Z AUTO 27004KT 240V300 9999 OVC120/// 22/20
                        Q1012=
201907311930 METAR LRTM 311930Z AUTO 30002KT 260V360 9999 OVC120/// 22/20
                        Q1013=
201907312000 METAR LRTM 312000Z AUTO VRB01KT 9999 FEW052/// OVC130///
                        21/19 Q1013=
201907312030 METAR LRTM 312030Z AUTO 14003KT 9999 FEW049/// BKN160///
                        21/19 Q1013=
201907312100 METAR LRTM 312100Z AUTO 16005KT 9999 SCT120/// 21/18 Q1013=
201907312130 METAR LRTM 312130Z AUTO VRB01KT 9999 SCT049/// 21/18 Q1013=
201907312200 METAR LRTM 312200Z AUTO 00000KT 9999 BKN046/// 20/18 Q1013=
201907312230 METAR LRTM 312230Z AUTO 00000KT 9999 FEW046/// SCT180///
                        19/18 Q1013=
201907312300 METAR LRTM 312300Z AUTO 00000KT 9999 BKN180/// 19/18 Q1013=
201907312330 METAR LRTM 312330Z AUTO 00000KT 9999 VCTS FEW029/// BKN047///
                        19/18 Q1013=
