201908010200 TAF LRTM 010200Z NIL=
201908010500 TAF LRTM 010500Z 0106/0115 VRB04KT 9999 SCT045
                      TEMPO 0106/0109 5000 -TSRA SCT010 SCT040CB
                       TEMPO 0111/0115 5000 TSRA SCT010 BKN045CB=
201908010800 TAF LRTM 010800Z 0109/0118 VRB04KT 9999 SCT045
                      TEMPO 0111/0117 5000 TSRA SCT015 BKN040CB=
201908011100 TAF LRTM 011100Z 0112/0121 VRB04KT 9999 SCT045
                      TEMPO 0112/0117 5000 TSRA SCT015 BKN040CB=
201908011400 TAF LRTM 011400Z 0115/0124 VRB04KT 9999 SCT045
                      TEMPO 0115/0118 5000 TSRA SCT015 BKN040CB=
201908011700 TAF LRTM 011700Z 0118/0203 VRB04KT 9999 SCT045
                      PROB40 TEMPO 0118/0121 5000 TSRA SCT015 BKN045CB
                       BECMG 0123/0201 3000 BR BKN010=
201908012000 TAF LRTM 012000Z NIL=
201908012300 TAF LRTM 012300Z NIL=
201908020200 TAF LRTM 020200Z NIL=
201908020500 TAF LRTM 020500Z 0206/0215 VRB04KT 0150 FG BKN001
                      BECMG 0206/0207 0800 BKN003
                      BECMG 0207/0208 3000 BR BKN005
                      BECMG 0208/0209 9999 NSW SCT020=
201908020800 TAF LRTM 020800Z 0209/0218 VRB04KT 9999 SCT020
                      TEMPO 0209/0210 5000 BR BKN010=
201908021100 TAF LRTM 021100Z 0212/0221 VRB04KT 9999 SCT025=
201908021400 TAF LRTM 021400Z 0215/0224 VRB04KT 9999 SCT040
                      TEMPO 0215/0217 SCT040 FEW045CB
                      BECMG 0222/0224 5000 BR=
201908021700 TAF LRTM 021700Z NIL=
201908022000 TAF LRTM 022000Z NIL=
201908022300 TAF LRTM 022300Z NIL=
201908030200 TAF LRTM 030200Z NIL=
201908030500 TAF LRTM 030500Z 0306/0315 06006KT 9999 SCT040
                      TEMPO 0307/0313 5000 RA SHRA BKN005 SCT035CB
                       OVC040
                      BECMG 0307/0309 27010KT
                      PROB30 TEMPO 0309/0313 VRB16KT 3000 TSRA=
201908030800 TAF LRTM 030800Z 0309/0318 VRB04KT 9999 SCT035
                      TEMPO 0309/0313 5000 RA SHRA SCT030CB OVC035
                       PROB30
                      TEMPO 0309/0313 VRB16KT 3000 TSRA BKN010
                       BKN030CB OVC035
                      BECMG 0313/0315 29010KT=
201908031100 TAF LRTM 031100Z 0312/0321 29008KT 9999 BKN035
                      TEMPO 0312/0316 5000 RA SHRA BKN010 SCT030CB
                       OVC035
                      PROB30 TEMPO 0312/0315 3000 TSRA=
201908031400 TAF LRTM 031400Z 0315/0324 30008KT 9999 BKN035
                      PROB40 TEMPO 0315/0318 5000 SHRA BKN010 SCT030CB
                       BKN035=
201908031700 TAF LRTM 031700Z NIL=
201908032000 TAF LRTM 032000Z NIL=
201908032300 TAF LRTM 032300Z NIL=
201908040200 TAF LRTM 040200Z 0403/0412 VRB04KT CAVOK
                      TEMPO 0403/0406 BKN015 SCT040
                      BECMG 0406/0408 31012KT=
201908040500 TAF LRTM 040500Z 0406/0415 30008KT 9999 BKN040
                      TEMPO 0410/0414 SCT040CB=
201908040800 TAF LRTM 040800Z 0409/0418 30010KT 9999 BKN040
                      TEMPO 0413/0417 SCT040CB=
201908041100 TAF LRTM 041100Z 0412/0421 30010KT 9999 BKN040
                      TEMPO 0412/0417 SCT040CB
                      BECMG 0417/0419 VRB04KT=
201908041400 TAF LRTM 041400Z 0415/0424 30012KT 9999 BKN040
                      TEMPO 0415/0417 SCT040CB
                      BECMG 0417/0419 VRB04KT=
201908041700 TAF LRTM 041700Z 0418/0503 VRB04KT CAVOK=
201908042000 TAF LRTM 042000Z NIL=
201908042300 TAF LRTM 042300Z NIL=
201908050200 TAF LRTM 050200Z 0503/0512 VRB04KT CAVOK
                      TEMPO 0503/0505 3000 BR=
201908050500 TAF LRTM 050500Z 0506/0515 VRB04KT CAVOK
                      TEMPO 0512/0515 27010KT 5000 -TSRA SCT040CB=
201908050800 TAF LRTM 050800Z 0509/0518 VRB04KT CAVOK
                      PROB40 TEMPO 0512/0516 27010KT 5000 -TSRA
                       SCT040CB=
201908051100 TAF LRTM 051100Z 0512/0521 VRB04KT 9999 SCT035
                      TEMPO 0512/0516 27010KT 5000 -TSRA SCT040CB=
201908051400 TAF LRTM 051400Z 0515/0524 VRB05KT 9999 SCT035
                      TEMPO 0515/0517 20010KT -TSRA SCT040CB=
201908051700 TAF LRTM 051700Z NIL=
201908052000 TAF LRTM 052000Z NIL=
201908052300 TAF LRTM 052300Z NIL=
201908060200 TAF LRTM 060200Z 0603/0612 VRB04KT 3000 BR NSC
                      PROB40 TEMPO 0603/0605 0600 FG BKN002
                      BECMG 0605/0607 9999 NSW=
201908060500 TAF LRTM 060500Z 0606/0615 VRB04KT CAVOK=
201908060800 TAF LRTM 060800Z 0609/0618 VRB04KT CAVOK=
201908061100 TAF LRTM 061100Z 0612/0621 VRB04KT 9999 SCT035=
201908061400 TAF LRTM 061400Z 0615/0624 VRB04KT 9999 SCT045=
201908061700 TAF LRTM 061700Z NIL=
201908062000 TAF LRTM 062000Z NIL=
201908062300 TAF LRTM 062300Z NIL=
201908070207 TAF COR LRTM 070207Z 0703/0712 VRB04KT CAVOK
                      PROB30 TEMPO 0703/0705 3000 BR=
201908070500 TAF LRTM 070500Z 0706/0715 VRB04KT CAVOK=
201908070800 TAF LRTM 070800Z 0709/0718 VRB04KT CAVOK=
201908071100 TAF LRTM 071100Z 0712/0721 VRB04KT CAVOK=
201908071400 TAF LRTM 071400Z 0715/0724 18006KT CAVOK=
201908071700 TAF LRTM 071700Z NIL=
201908072000 TAF LRTM 072000Z NIL=
201908072300 TAF LRTM 072300Z NIL=
201908080200 TAF LRTM 080200Z 0803/0812 VRB04KT CAVOK
                      BECMG 0808/0810 23012KT=
201908080500 TAF LRTM 080500Z 0806/0815 VRB04KT CAVOK
                      BECMG 0807/0809 24010KT
                      PROB40 TEMPO 0812/0815 VRB15G25KT 3000 TSRA
                       BKN015 BKN030CB=
201908080800 TAF LRTM 080800Z 0809/0818 VRB04KT CAVOK
                      PROB30 0813/0816 VRB15G25KT 3000 TSRA BKN010
                       BKN030CB=
201908081100 TAF LRTM 081100Z 0812/0821 VRB04KT CAVOK
                      PROB40 TEMPO 0812/0816 VRB20G30KT 3000 TSRA
                       BKN010 BKN030CB=
201908081400 TAF LRTM 081400Z 0815/0824 32007KT CAVOK
                      TEMPO 0815/0817 SCT030CB=
201908081700 TAF LRTM 081700Z NIL=
201908082000 TAF LRTM 082000Z NIL=
201908082300 TAF LRTM 082300Z NIL=
201908090200 TAF LRTM 090200Z NIL=
201908090500 TAF LRTM 090500Z 0906/0915 VRB04KT 9999 SCT040
                      PROB30 TEMPO 0906/0909 VRB18KT 5000 -TSRA
                       SCT040CB=
201908090800 TAF LRTM 090800Z 0909/0918 VRB04KT 9999 SCT040
                      PROB30 TEMPO 0910/0912 -TSRA SCT040CB
                      BECMG 0915/0917 32010KT=
201908091100 TAF LRTM 091100Z 0912/0921 VRB04KT 9999 SCT040
                      BECMG 0915/0917 32010KT=
201908091400 TAF LRTM 091400Z 0915/0924 VRB04KT CAVOK
                      TEMPO 0915/0919 32010KT=
201908091700 TAF LRTM 091700Z NIL=
201908092000 TAF LRTM 092000Z NIL=
201908092300 TAF LRTM 092300Z NIL=
201908100200 TAF LRTM 100200Z NIL=
201908100500 TAF LRTM 100500Z 1006/1015 VRB04KT CAVOK=
201908100800 TAF LRTM 100800Z 1009/1018 VRB03KT CAVOK=
201908101100 TAF LRTM 101100Z 1012/1021 VRB03KT CAVOK=
201908101400 TAF LRTM 101400Z 1015/1024 VRB03KT CAVOK=
201908101700 TAF LRTM 101700Z NIL=
201908102000 TAF LRTM 102000Z NIL=
201908102300 TAF LRTM 102300Z NIL=
201908110200 TAF LRTM 110200Z 1103/1112 VRB04KT CAVOK=
201908110500 TAF LRTM 110500Z 1106/1115 VRB04KT CAVOK=
201908110800 TAF LRTM 110800Z 1109/1118 VRB04KT CAVOK=
201908111100 TAF LRTM 111100Z 1112/1121 VRB04KT CAVOK=
201908111400 TAF LRTM 111400Z 1115/1124 VRB04KT CAVOK=
201908111700 TAF LRTM 111700Z NIL=
201908112000 TAF LRTM 112000Z NIL=
201908112300 TAF LRTM 112300Z NIL=
201908120200 TAF LRTM 120200Z NIL=
201908120500 TAF LRTM 120500Z 1206/1215 VRB04KT CAVOK=
201908120800 TAF LRTM 120800Z 1209/1218 12004KT CAVOK=
201908121100 TAF LRTM 121100Z 1212/1221 VRB04KT CAVOK=
201908121400 TAF LRTM 121400Z 1215/1224 VRB04KT CAVOK=
201908121700 TAF LRTM 121700Z NIL=
201908122000 TAF LRTM 122000Z NIL=
201908122300 TAF LRTM 122300Z NIL=
201908130200 TAF LRTM 130200Z 1303/1312 10005KT CAVOK=
201908130500 TAF LRTM 130500Z 1306/1315 10005KT CAVOK=
201908130800 TAF LRTM 130800Z 1309/1318 10005KT CAVOK=
201908131100 TAF LRTM 131100Z 1312/1321 16005KT CAVOK=
201908131400 TAF LRTM 131400Z 1315/1324 10005KT CAVOK=
201908131700 TAF LRTM 131700Z 1318/1403 VRB04KT CAVOK=
201908132000 TAF LRTM 132000Z NIL=
201908132300 TAF LRTM 132300Z NIL=
201908140200 TAF LRTM 140200Z 1403/1412 14008KT CAVOK=
201908140500 TAF LRTM 140500Z 1406/1415 VRB04KT CAVOK
                      TEMPO 1413/1415 29012KT SCT045CB=
201908140800 TAF LRTM 140800Z 1409/1418 VRB04KT CAVOK
                      BECMG 1412/1414 29012KT SCT045CB
                      TEMPO 1415/1418 32015G30KT 5000 TSRA=
201908141100 TAF LRTM 141100Z 1412/1421 21006KT CAVOK
                      BECMG 1412/1414 29012KT FEW040CB
                      TEMPO 1415/1421 32015G30KT 5000 TSRA BKN010
                       BKN035CB=
201908141400 TAF LRTM 141400Z 1415/1424 31012KT 9999 FEW045CB
                      TEMPO 1415/1421 32015G30KT 5000 TSRA BKN010
                       BKN035CB=
201908141700 TAF LRTM 141700Z NIL=
201908142000 TAF LRTM 142000Z NIL=
201908142300 TAF LRTM 142300Z NIL=
201908150200 TAF LRTM 150200Z NIL=
201908150401 TAF LRTM 150401Z 1504/1512 VRB04KT 9999 BKN010 BKN030
                      TEMPO 1504/1506 5000 -SHRA BKN005 SCT025CB
                       BKN030
                      BECMG 1507/1509 BKN030=
201908150500 TAF LRTM 150500Z 1506/1515 VRB04KT 9999 BKN010 BKN025
                      BECMG 1507/1509 BKN025=
201908150800 TAF LRTM 150800Z 1509/1518 VRB04KT 9999 BKN010 BKN025
                      BECMG 1509/1511 BKN025
                      TEMPO 1512/1516 SCT035CB=
201908151100 TAF LRTM 151100Z 1512/1521 VRB04KT 9999 BKN025
                      TEMPO 1515/1518 SCT035CB=
201908151400 TAF LRTM 151400Z 1515/1524 VRB04KT 9999 BKN030=
201908151700 TAF LRTM 151700Z NIL=
201908152000 TAF LRTM 152000Z NIL=
201908152300 TAF LRTM 152300Z NIL=
201908160200 TAF LRTM 160200Z NIL=
201908160500 TAF LRTM 160500Z 1606/1615 30006KT CAVOK
                      TEMPO 1612/1615 SCT030CB=
201908160800 TAF LRTM 160800Z 1609/1618 VRB04KT 9999 BKN030
                      TEMPO 1612/1616 SCT030CB=
201908161100 TAF LRTM 161100Z 1612/1621 15008KT 9999 BKN035
                      TEMPO 1612/1616 SCT030CB=
201908161400 TAF LRTM 161400Z 1615/1624 16006KT 9999 BKN035
                      TEMPO 1615/1618 SCT030CB=
201908161700 TAF LRTM 161700Z NIL=
201908162000 TAF LRTM 162000Z NIL=
201908162300 TAF LRTM 162300Z NIL=
201908170200 TAF LRTM 170200Z 1703/1712 VRB04KT CAVOK
                      TEMPO 1703/1705 3000 BR BKN005=
201908170412 TAF AMD LRTM 170412Z 1704/1712 VRB04KT 0350 FG VV001
                      BECMG 1704/1706 0800 BKN005
                      BECMG 1706/1707 3000 BR BKN010
                      BECMG 1707/1708 CAVOK=
201908170500 TAF LRTM 170500Z 1706/1715 VRB04KT 0800 FG BKN002
                      BECMG 1706/1707 3000 BR BKN010
                      BECMG 1707/1709 CAVOK
                      BECMG 1712/1714 30010KT=
201908170800 TAF LRTM 170800Z 1709/1718 VRB04KT CAVOK
                      BECMG 1712/1714 30010KT=
201908171100 TAF LRTM 171100Z 1712/1721 27007KT 9999 SCT045=
201908171400 TAF LRTM 171400Z 1715/1724 30007KT 9999 SCT045=
201908171700 TAF LRTM 171700Z NIL=
201908172000 TAF LRTM 172000Z NIL=
201908172300 TAF LRTM 172300Z NIL=
201908180200 TAF LRTM 180200Z 1803/1812 VRB04KT CAVOK
                      TEMPO 1803/1805 3000 BR=
201908180500 TAF LRTM 180500Z 1806/1815 VRB04KT CAVOK=
201908180800 TAF LRTM 180800Z 1809/1818 VRB04KT CAVOK=
201908181100 TAF LRTM 181100Z 1812/1821 VRB04KT CAVOK=
201908181400 TAF LRTM 181400Z 1815/1824 VRB04KT CAVOK=
201908181700 TAF LRTM 181700Z NIL=
201908182000 TAF LRTM 182000Z NIL=
201908182300 TAF LRTM 182300Z NIL=
201908190200 TAF LRTM 190200Z NIL=
201908190335 TAF LRTM 190335Z 1903/1912 VRB04KT CAVOK
                      TEMPO 1903/1905 5000 BR=
201908190500 TAF LRTM 190500Z 1906/1915 VRB04KT CAVOK=
201908190800 TAF LRTM 190800Z 1909/1918 VRB04KT CAVOK=
201908191100 TAF LRTM 191100Z 1912/1921 VRB04KT CAVOK=
201908191400 TAF LRTM 191400Z 1915/1924 VRB04KT CAVOK=
201908191700 TAF LRTM 191700Z 1918/2003 VRB04KT CAVOK=
201908192000 TAF LRTM 192000Z NIL=
201908192300 TAF LRTM 192300Z NIL=
201908200200 TAF LRTM 200200Z NIL=
201908200500 TAF LRTM 200500Z 2006/2015 VRB04KT CAVOK
                      TEMPO 2006/2008 5000 BR=
201908200800 TAF LRTM 200800Z 2009/2018 VRB04KT CAVOK=
201908201100 TAF LRTM 201100Z 2012/2021 VRB04KT 9999 SCT040=
201908201400 TAF LRTM 201400Z 2015/2024 VRB04KT 9999 SCT040=
201908201700 TAF LRTM 201700Z NIL=
201908202000 TAF LRTM 202000Z NIL=
201908202300 TAF LRTM 202300Z NIL=
201908210200 TAF LRTM 210200Z 2103/2112 VRB04KT CAVOK=
201908210500 TAF LRTM 210500Z 2106/2115 VRB04KT CAVOK=
201908210800 TAF LRTM 210800Z 2109/2118 VRB04KT CAVOK=
201908211100 TAF LRTM 211100Z 2112/2121 VRB04KT 9999 SCT040=
201908211400 TAF LRTM 211400Z 2115/2124 VRB04KT CAVOK=
201908211700 TAF LRTM 211700Z NIL=
201908212000 TAF LRTM 212000Z NIL=
201908212300 TAF LRTM 212300Z NIL=
201908220200 TAF LRTM 220200Z NIL=
201908220500 TAF LRTM 220500Z 2206/2215 VRB04KT CAVOK=
201908220800 TAF LRTM 220800Z 2209/2218 VRB04KT CAVOK=
201908221100 TAF LRTM 221100Z 2212/2221 VRB04KT CAVOK=
201908221400 TAF LRTM 221400Z 2215/2224 VRB04KT CAVOK=
201908221700 TAF LRTM 221700Z NIL=
201908222000 TAF LRTM 222000Z NIL=
201908222300 TAF LRTM 222300Z NIL=
201908230200 TAF LRTM 230200Z NIL=
201908230500 TAF LRTM 230500Z 2306/2315 VRB04KT CAVOK=
201908230800 TAF LRTM 230800Z 2309/2318 VRB04KT CAVOK=
201908231100 TAF LRTM 231100Z 2312/2321 VRB04KT CAVOK=
201908231400 TAF LRTM 231400Z 2315/2324 VRB04KT CAVOK=
201908231700 TAF LRTM 231700Z NIL=
201908232000 TAF LRTM 232000Z NIL=
201908232300 TAF LRTM 232300Z NIL=
201908240200 TAF LRTM 240200Z NIL=
201908240500 TAF LRTM 240500Z 2406/2415 10005KT CAVOK
                      TEMPO 2406/2407 5000 BR BKN010=
201908240800 TAF LRTM 240800Z 2409/2418 13005KT CAVOK=
201908241100 TAF LRTM 241100Z 2412/2421 13005KT CAVOK
                      TEMPO 2412/2416 SCT030CB=
201908241400 TAF LRTM 241400Z 2415/2424 09005KT CAVOK
                      TEMPO 2415/2416 SCT030CB=
201908241700 TAF LRTM 241700Z NIL=
201908242000 TAF LRTM 242000Z NIL=
201908242300 TAF LRTM 242300Z NIL=
201908250200 TAF LRTM 250200Z 2503/2512 09006KT CAVOK
                      TEMPO 2510/2512 SCT040CB=
201908250500 TAF LRTM 250500Z 2506/2515 10006KT CAVOK
                      TEMPO 2511/2515 SCT040CB
                      PROB40 2512/2515 VRB20KT 5000 -TSRA=
201908250800 TAF LRTM 250800Z 2509/2518 10006KT CAVOK
                      TEMPO 2511/2518 SCT040CB
                      PROB40 2513/2517 VRB20KT 5000 -TSRA=
201908251100 TAF LRTM 251100Z 2512/2521 12007KT 9999 SCT035
                      TEMPO 2512/2518 SCT035CB
                      PROB40 2513/2517 VRB20KT 5000 -TSRA=
201908251400 TAF LRTM 251400Z 2515/2524 12008KT 9999 SCT040
                      TEMPO 2515/2519 SCT040CB
                      PROB40 2515/2518 VRB20KT 5000 -TSRA=
201908251700 TAF LRTM 251700Z NIL=
201908252000 TAF LRTM 252000Z NIL=
201908252300 TAF LRTM 252300Z NIL=
201908260200 TAF LRTM 260200Z NIL=
201908260500 TAF LRTM 260500Z 2606/2615 VRB04KT CAVOK
                      BECMG 2607/2609 11010KT
                      TEMPO 2611/2615 SCT045CB=
201908260800 TAF LRTM 260800Z 2609/2618 12006KT CAVOK
                      TEMPO 2611/2618 SCT045CB
                      PROB30 TEMPO 2614/2617 VRB25G35KT 5000 -TSRA=
201908261100 TAF LRTM 261100Z 2612/2621 12006KT 9999 FEW045CB
                      TEMPO 2612/2618 VRB25KT 5000 -TSRA BKN010
                       BKN030CB
                      BECMG 2618/2620 NSC=
201908261400 TAF LRTM 261400Z 2615/2624 09008KT 9999 FEW045CB
                      TEMPO 2615/2618 VRB25KT 5000 -TSRA BKN010
                       BKN030CB
                      BECMG 2618/2620 NSC=
201908261700 TAF LRTM 261700Z NIL=
201908262000 TAF LRTM 262000Z NIL=
201908262300 TAF LRTM 262300Z NIL=
201908270200 TAF LRTM 270200Z NIL=
201908270500 TAF LRTM 270500Z 2706/2715 12006KT CAVOK=
201908270800 TAF LRTM 270800Z 2709/2718 11006KT CAVOK=
201908271100 TAF LRTM 271100Z 2712/2721 11006KT 9999 SCT030
                      TEMPO 2712/2717 SCT035CB
                      PROB30 2714/2717 5000 -TSRA=
201908271400 TAF LRTM 271400Z 2715/2724 VRB04KT CAVOK
                      TEMPO 2715/2717 SCT045CB=
201908271700 TAF LRTM 271700Z 2718/2803 VRB04KT 9999 FEW050CB
                      BECMG 2718/2720 NSC=
201908271946 TAF AMD LRTM 271946Z 2719/2803 CNL=
201908272000 TAF LRTM 272000Z NIL=
201908272300 TAF LRTM 272300Z NIL=
201908280200 TAF LRTM 280200Z NIL=
201908280337 TAF LRTM 280337Z 2803/2812 VRB04KT CAVOK=
201908280500 TAF LRTM 280500Z 2806/2815 10008KT CAVOK
                      TEMPO 2812/2815 SCT030CB
                      PROB30 2813/2815 VRB20G30KT 3000 TSRA BKN010
                       BKN030CB=
201908280800 TAF LRTM 280800Z 2809/2818 10008KT CAVOK
                      TEMPO 2812/2816 SCT035CB
                      PROB30 2813/2816 VRB20G30KT 3000 TSRA BKN010
                       BKN030CB=
201908281100 TAF LRTM 281100Z 2812/2821 10008KT CAVOK
                      TEMPO 2812/2817 SCT035CB
                      PROB30 2813/2817 VRB20G30KT 3000 TSRA BKN010
                       BKN030CB=
201908281400 TAF LRTM 281400Z 2815/2824 10008KT CAVOK
                      TEMPO 2815/2818 SCT035CB=
201908281700 TAF LRTM 281700Z NIL=
201908282000 TAF LRTM 282000Z NIL=
201908282300 TAF LRTM 282300Z NIL=
201908290200 TAF LRTM 290200Z NIL=
201908290500 TAF LRTM 290500Z 2906/2915 VRB04KT CAVOK
                      TEMPO 2911/2915 SCT045CB
                      PROB30 TEMPO 2912/2915 VRB15G25KT 5000 -TSRA=
201908290800 TAF LRTM 290800Z 2909/2918 VRB04KT CAVOK
                      TEMPO 2911/2916 SCT045CB
                      PROB30 TEMPO 2912/2916 VRB15G25KT 5000 -TSRA=
201908291100 TAF LRTM 291100Z 2912/2921 VRB04KT 9999 SCT040CB
                      PROB30 TEMPO 2914/2917 5000 -TSRA
                      BECMG 2917/2919 NSC=
201908291400 TAF LRTM 291400Z 2915/2924 VRB04KT 9999 SCT040CB
                      PROB30 TEMPO 2915/2917 VRB15G25KT 5000 -TSRA
                       BECMG 2917/2919 NSC=
201908291700 TAF LRTM 291700Z NIL=
201908292000 TAF LRTM 292000Z NIL=
201908292300 TAF LRTM 292300Z NIL=
201908300200 TAF LRTM 300200Z NIL=
201908300500 TAF LRTM 300500Z 3006/3015 VRB04KT CAVOK
                      TEMPO 3012/3015 FEW040CB=
201908300800 TAF LRTM 300800Z 3009/3018 VRB04KT CAVOK
                      TEMPO 3012/3016 FEW040CB=
201908301100 TAF LRTM 301100Z 3012/3021 VRB04KT CAVOK
                      TEMPO 3013/3016 FEW050CB=
201908301400 TAF LRTM 301400Z 3015/3024 VRB04KT CAVOK=
201908301700 TAF LRTM 301700Z NIL=
201908302000 TAF LRTM 302000Z NIL=
201908302300 TAF LRTM 302300Z NIL=
201908310200 TAF LRTM 310200Z NIL=
201908310500 TAF LRTM 310500Z 3106/3115 VRB04KT CAVOK=
201908310800 TAF LRTM 310800Z 3109/3118 VRB04KT CAVOK=
201908311100 TAF LRTM 311100Z 3112/3121 VRB04KT CAVOK=
201908311400 TAF LRTM 311400Z 3115/3124 VRB04KT CAVOK=
201908311700 TAF LRTM 311700Z 3118/0103 13005KT CAVOK=
201908311931 TAF AMD LRTM 311931Z 3119/0103 CNL=
201908312000 TAF LRTM 312000Z NIL=
201908312300 TAF LRTM 312300Z NIL=