201908010000 METAR LRTM 010000Z AUTO 01003KT 350V090 8000 FEW032/// SCT200///
                        19/18 Q1013=
201908010030 METAR LRTM 010030Z AUTO 00000KT 9999 OVC120/// 19/18 Q1013=
201908010100 METAR LRTM 010100Z AUTO 00000KT 9000 BKN150/// SCT190///
                        19/18 Q1013=
201908010130 METAR LRTM 010130Z AUTO VRB01KT 7000 SCT180/// 18/17 Q1013=
201908010200 METAR LRTM 010200Z AUTO 06002KT 6000 FEW025/// BKN110///
                        18/17 Q1013=
201908010230 METAR LRTM 010230Z AUTO 00000KT 8000 BKN021/// SCT027///
                        18/18 Q1013=
201908010300 METAR LRTM 010300Z AUTO 00000KT 9999 OVC021/// 19/18 Q1013=
201908010330 METAR LRTM 010330Z AUTO 25003KT 7000 TS FEW012/// SCT016///
                        19/18 Q1013=
201908010400 METAR LRTM 010400Z AUTO 26003KT 6000 FEW011/// SCT110///
                        19/18 Q1013=
201908010430 METAR LRTM 010430Z AUTO 19002KT 100V230 7000 DZ BKN009///
                        19/18 Q1013=
201908010500 METAR LRTM 010500Z VRB01KT 6000 -SHRA FEW002 BKN007 SCT034CB
                        19/18 Q1013=
201908010530 METAR LRTM 010530Z 07005KT 6000 -SHRA FEW003 BKN008 SCT034CB
                        20/19 Q1013 R07/29//95=
201908010600 METAR LRTM 010600Z 10004KT 6000 -SHRA FEW003 BKN009 SCT032CB
                        20/19 Q1014 R07/29//95=
201908010630 METAR LRTM 010630Z 00000KT 7000 -SHRA FEW005 BKN010 SCT032CB
                        20/19 Q1014 R07/29//95=
201908010700 METAR LRTM 010700Z VRB02KT 6000 FEW007 BKN015 SCT032CB 20/19
                        Q1014 R07/29//95=
201908010730 METAR LRTM 010730Z VRB02KT 7000 -SHRA FEW005 BKN015 SCT032CB
                        21/19 Q1014 R07/29//95=
201908010800 METAR LRTM 010800Z VRB01KT 7000 FEW005 BKN020 FEW035CB 21/19
                        Q1014 R07/29//95=
201908010830 METAR LRTM 010830Z VRB02KT 8000 FEW005 BKN020 FEW035CB 22/20
                        Q1014 R07/29//95=
201908010900 METAR LRTM 010900Z 14007KT 9999 TS SCT009 BKN023 FEW035CB
                        22/19 Q1014 R07/29//95=
201908010930 METAR COR LRTM 010930Z 15008KT 120V180 9999 -TSRA SCT012
                        BKN023 SCT034CB 22/19 Q1014 R07/29//95=
201908011000 METAR LRTM 011000Z 14007KT 9999 -SHRA SCT010 BKN025 SCT034CB
                        22/19 Q1014 RETS R07/19//95=
201908011030 METAR LRTM 011030Z 11006KT 9999 -SHRA FEW015 BKN030 SCT036CB
                        22/19 Q1014 R07/29//95=
201908011100 METAR LRTM 011100Z 09005KT 9999 -SHRA FEW015 BKN032 SCT036CB
                        22/19 Q1014 R07/29//95=
201908011130 METAR LRTM 011130Z 07006KT 9999 TS FEW018 BKN029 SCT034CB
                        22/19 Q1014 R07/29//95=
201908011200 METAR LRTM 011200Z 06004KT 9999 -TSRA FEW015 BKN030 SCT034CB
                        22/19 Q1014 R07/29//95=
201908011230 METAR LRTM 011230Z 21004KT 9999 -TSRA FEW016 BKN029 SCT033CB
                        21/20 Q1014 R07/29//95=
201908011300 METAR LRTM 011300Z 27003KT 240V320 8000 -TSRA FEW015 BKN030
                        SCT034CB 21/20 Q1014 R07/29//95=
201908011330 METAR LRTM 011330Z 31007KT 9999 -TSRA FEW014 SCT032CB OVC034
                        21/20 Q1014 R07/29//95=
201908011400 METAR LRTM 011400Z VRB01KT 9999 -RA FEW016 FEW033CB BKN035
                        21/19 Q1014 RETS R07/29//95=
201908011430 METAR LRTM 011430Z 28005KT 210V330 9999 FEW015 BKN035 21/20
                        Q1013 R07/29//95=
201908011500 METAR LRTM 011500Z 04004KT 340V090 9999 FEW015 SCT035 21/20
                        Q1014 R07/29//95=
201908011530 METAR LRTM 011530Z 08002KT 9999 FEW010 SCT035 22/20 Q1014
                        R07/29//95=
201908011600 METAR LRTM 011600Z 07005KT 7000 FEW011 SCT035 22/20 Q1014
                        R07/29//95=
201908011630 METAR LRTM 011630Z 06003KT 020V080 9999 FEW015 SCT036 22/19
                        Q1014 R07/29//95=
201908011700 METAR LRTM 011700Z VRB01KT 9999 FEW012 FEW033CB BKN035 22/19
                        Q1014 R07/29//95=
201908011730 METAR LRTM 011730Z 01005KT 340V040 2100 +SHRA SCT008 SCT027CB
                        OVC030 20/19 Q1015 R07/29//95=
201908011800 METAR LRTM 011800Z 15002KT 9000 -SHRA FEW008 SCT026CB BKN030
                        20/19 Q1014 R07/29//95=
201908011830 METAR LRTM 011830Z 24006KT 200V270 9000 -SHRA FEW008 SCT027CB
                        BKN032 20/19 Q1014 R07/29//95=
201908011900 METAR LRTM 011900Z AUTO 23007KT 9000 -SHRA SCT110/// 20/19
                        Q1014=
201908011930 METAR LRTM 011930Z AUTO 25008KT 7000 -RA FEW071/// 20/19
                        Q1014=
201908012000 METAR LRTM 012000Z AUTO 26006KT 8000 FEW011/// SCT210///
                        19/18 Q1014 RERA=
201908012030 METAR LRTM 012030Z AUTO 01002KT 320V050 9999 FEW007/// SCT008///
                        19/18 Q1014=
201908012100 METAR LRTM 012100Z AUTO 20003KT 9999 FEW008/// BKN009///
                        19/19 Q1014=
201908012130 METAR LRTM 012130Z AUTO 12002KT 6000 BKN012/// 19/18 Q1014=
201908012200 METAR LRTM 012200Z AUTO VRB01KT 4700 BR NCD 18/18 Q1014=
201908012230 METAR LRTM 012230Z AUTO 00000KT 4100 BCFG FEW005/// SCT017///
                        18/17 Q1014=
201908012300 METAR LRTM 012300Z AUTO 00000KT 5000 FEW002/// SCT012///
                        18/18 Q1014=
201908012330 METAR LRTM 012330Z AUTO 00000KT 3600 BR BKN017/// 18/17 Q1014=
201908020000 METAR LRTM 020000Z AUTO 06001KT 0350 R07/0350V0500N FG FEW020///
                        17/16 Q1014=
201908020030 METAR LRTM 020030Z AUTO 00000KT 2800 R07/1600VP2000U FEW001///
                        16/16 Q1014=
201908020100 METAR LRTM 020100Z AUTO 00000KT 0400 R07/0450N BCFG FEW001///
                        16/15 Q1014=
201908020130 METAR LRTM 020130Z AUTO 00000KT 0350 R07/0450N FG VV001 17/16
                        Q1014=
201908020200 METAR LRTM 020200Z AUTO 00000KT 0350 R07/0400N FG VV001 17/16
                        Q1014=
201908020230 METAR LRTM 020230Z AUTO 00000KT 0900 R07/0600V1600D FG VV002
                        17/17 Q1014=
201908020300 METAR LRTM 020300Z AUTO 09004KT 0750 R07/0900D FG FEW002///
                        17/17 Q1014=
201908020330 METAR LRTM 020330Z AUTO 08004KT 0400 R07/0550N FG VV001 17/17
                        Q1014=
201908020400 METAR LRTM 020400Z AUTO 05004KT 0250 R07/0275N FG VV001 17/17
                        Q1014=
201908020430 METAR LRTM 020430Z AUTO 05003KT 020V080 0300 R07/0350N -RA
                        VV001 17/17 Q1014=
201908020500 METAR LRTM 020500Z 08004KT 0150 R07/0450N FG BKN001 OVC003
                        18/17 Q1014 R07/29//95=
201908020530 METAR LRTM 020530Z 06003KT 020V100 0500 R07/0700 FG BKN001
                        OVC003 18/17 Q1014 R07/29//95=
201908020600 METAR LRTM 020600Z 12003KT 090V160 0700 R07/1100D FG BKN001
                        OVC003 18/18 Q1014 R07/29//95=
201908020630 METAR LRTM 020630Z VRB01KT 2000 BR SCT001 BKN002 OVC003 18/18
                        Q1014 R07/29//95=
201908020700 METAR LRTM 020700Z VRB03KT 3000 BR FEW001 SCT003 BKN005 18/18
                        Q1014 R07/29//95=
201908020730 METAR LRTM 020730Z VRB01KT 5000 BR FEW002 SCT004 BKN007 19/18
                        Q1014 R07/25//95=
201908020800 METAR LRTM 020800Z 14004KT 100V180 7000 FEW005 SCT007 BKN009
                        20/18 Q1014 R07/25//95=
201908020830 METAR LRTM 020830Z VRB01KT 8000 FEW005 SCT007 BKN011 21/18
                        Q1014 R07/25//95=
201908020900 METAR LRTM 020900Z 22003KT 130V300 8000 SCT008 BKN011 21/18
                        Q1014 R07/CLRD//=
201908020930 METAR LRTM 020930Z VRB03KT 9000 FEW010 SCT023 22/18 Q1014=
201908021000 METAR LRTM 021000Z VRB03KT 9000 FEW012 SCT024 23/19 Q1014=
201908021030 METAR LRTM 021030Z VRB03KT 9999 FEW015 SCT024 24/18 Q1014=
201908021100 METAR LRTM 021100Z VRB03KT 9999 SCT026 25/19 Q1013=
201908021130 METAR LRTM 021130Z VRB04KT 9999 SCT027 26/17 Q1013=
201908021200 METAR LRTM 021200Z VRB03KT 9999 SCT030 26/16 Q1013=
201908021230 METAR LRTM 021230Z VRB04KT 9999 SCT033 26/16 Q1013=
201908021300 METAR LRTM 021300Z VRB03KT 9999 FEW035 27/17 Q1012=
201908021330 METAR LRTM 021330Z 33005KT 270V020 9999 SCT038 27/15 Q1012=
201908021400 METAR LRTM 021400Z 35006KT 300V030 9999 SCT040 FEW042CB 28/15
                        Q1012=
201908021430 METAR LRTM 021430Z 36005KT 320V040 9999 SCT040 28/14 Q1012=
201908021500 METAR LRTM 021500Z 01004KT 320V080 9999 SCT040 28/14 Q1011=
201908021530 METAR LRTM 021530Z 30005KT 260V340 9999 FEW040 FEW046CB 28/13
                        Q1011=
201908021600 METAR LRTM 021600Z VRB02KT 9999 FEW040 FEW046CB 28/13 Q1011=
201908021630 METAR LRTM 021630Z 21007KT 9999 FEW048CB 26/16 Q1011=
201908021700 METAR LRTM 021700Z 22004KT CAVOK 25/17 Q1011=
201908021730 METAR LRTM 021730Z AUTO VRB01KT 9999 NCD 24/18 Q1010=
201908021800 METAR LRTM 021800Z AUTO VRB02KT 9999 NCD 22/18 Q1010=
201908021830 METAR LRTM 021830Z AUTO VRB01KT 9999 SCT130/// 21/18 Q1010=
201908021900 METAR LRTM 021900Z AUTO 26003KT 9999 OVC120/// 21/18 Q1010=
201908021930 METAR LRTM 021930Z AUTO 25002KT 9999 OVC110/// 21/18 Q1011=
201908022000 METAR LRTM 022000Z AUTO 25001KT 9999 BKN100/// 21/18 Q1011=
201908022030 METAR LRTM 022030Z AUTO 00000KT 9999 -RA OVC100/// 21/18
                        Q1011=
201908022100 METAR LRTM 022100Z AUTO VRB01KT 9999 -DZ OVC096/// 20/19
                        Q1010=
201908022130 METAR LRTM 022130Z AUTO 06005KT 9999 -SHRA OVC100/// 19/18
                        Q1010=
201908022200 METAR LRTM 022200Z AUTO 08006KT 9999 OVC095/// 19/17 Q1010
                        RERA=
201908022230 METAR LRTM 022230Z AUTO 05005KT 9999 SCT100/// SCT130///
                        19/16 Q1009 REDZ=
201908022300 METAR LRTM 022300Z AUTO 06006KT 9999 FEW078/// SCT130///
                        18/16 Q1009=
201908022330 METAR LRTM 022330Z AUTO 05006KT 9999 BKN120/// 18/16 Q1009=
201908030000 METAR LRTM 030000Z AUTO 04007KT 9999 FEW086/// BKN120///
                        18/15 Q1009=
201908030030 METAR LRTM 030030Z AUTO VRB02KT 9999 SCT061/// SCT078///
                        18/15 Q1009=
201908030100 METAR LRTM 030100Z AUTO 20003KT 140V230 9999 -RA BKN058///
                        18/16 Q1009=
201908030130 METAR LRTM 030130Z AUTO VRB02KT 7000 -RA SCT057/// SCT090///
                        18/17 Q1009=
201908030200 METAR LRTM 030200Z AUTO 34003KT 310V010 5000 RA FEW098///
                        18/17 Q1009=
201908030230 METAR LRTM 030230Z AUTO 06003KT 360V090 6000 RA BKN076///
                        17/16 Q1008=
201908030300 METAR LRTM 030300Z AUTO 11005KT 6000 FEW008/// OVC080///
                        17/16 Q1008 RERA=
201908030330 METAR LRTM 030330Z AUTO 05004KT 3700 -SHRA SCT008/// SCT009///
                        17/17 Q1008=
201908030400 METAR LRTM 030400Z AUTO 05005KT 4900 -SHRA SCT008/// SCT009///
                        18/16 Q1008=
201908030430 METAR LRTM 030430Z AUTO 07006KT 9999 -SHRA BKN009/// SCT012///
                        17/16 Q1008=
201908030500 METAR COR LRTM 030500Z 06005KT 9999 SCT012 17/16 Q1007=
201908030530 METAR LRTM 030530Z 07007KT 9999 SCT013 18/16 Q1007 R07/19//95=
201908030600 METAR LRTM 030600Z 05006KT 9999 SCT015 18/16 Q1007 R07/19//95=
201908030630 METAR LRTM 030630Z 04006KT 9999 SCT018 18/16 Q1007 R07/19//95=
201908030700 METAR LRTM 030700Z 04004KT 010V080 9999 SCT018 19/16 Q1006
                        R07/19//95=
201908030730 METAR LRTM 030730Z 04003KT 9999 SCT020 19/16 Q1006 R07/19//95=
201908030800 METAR LRTM 030800Z VRB01KT 9999 SCT021 SCT033 20/17 Q1006
                        R07/19//95=
201908030830 METAR LRTM 030830Z 24003KT 210V280 9999 BKN017 SCT022 FEW033CB
                        19/17 Q1006 R07/19//95=
201908030900 METAR LRTM 030900Z 23003KT 9999 SCT011 BKN016 FEW033CB 19/16
                        Q1006 R07/19//95=
201908030930 METAR LRTM 030930Z 24004KT 7000 3000W SHRA SCT015 BKN019
                        SCT033CB 18/17 Q1006 R07/29//95=
201908031000 METAR LRTM 031000Z 24003KT 4700 -SHRA SCT019 BKN023 SCT034CB
                        18/17 Q1006 RESHRA R07/29//95=
201908031030 METAR LRTM 031030Z 25003KT 220V290 5000 RA BKN020 OVC028
                        18/17 Q1006 R07/29//95=
201908031100 METAR LRTM 031100Z VRB01KT 6000 RA SCT004 BKN009 OVC025 18/17
                        Q1006 R07/29//95=
201908031130 METAR LRTM 031130Z 34007KT 320V020 9999 RA BKN006 OVC033
                        18/17 Q1006 RERA R07/29//95=
201908031200 METAR LRTM 031200Z 36007KT 9999 -RA BKN008 OVC035 18/17 Q1006
                        R07/29//95=
201908031230 METAR LRTM 031230Z 35007KT 320V020 9999 -RA BKN009 OVC032
                        19/17 Q1006 R07/29//95=
201908031300 METAR LRTM 031300Z 35006KT 320V020 9999 -RA BKN009 OVC030
                        19/17 Q1006 R07/29//95=
201908031330 METAR LRTM 031330Z 31007KT 270V340 9999 -RA SCT009 BKN013
                        OVC030 19/16 Q1006 R07/29//95=
201908031400 METAR LRTM 031400Z 32009KT 280V350 9999 4000W SHRA BKN013
                        SCT026CB OVC030 18/16 Q1006 R07/29//95=
201908031430 METAR LRTM 031430Z 30006KT 260V340 9999 BKN013 SCT024CB OVC030
                        18/17 Q1006 RESHRA R07/29//95=
201908031500 METAR LRTM 031500Z 31008KT 280V350 9999 BKN014 OVC033 19/16
                        Q1006 R07/29//95=
201908031530 METAR LRTM 031530Z 31008KT 270V340 9999 BKN015 FEW028CB OVC033
                        19/16 Q1006 R07/29//95=
201908031600 METAR LRTM 031600Z 32008KT 290V350 9999 BKN020 OVC039 18/16
                        Q1007 R07/29//95=
201908031630 METAR LRTM 031630Z 33009KT 9999 BKN013 FEW026CB OVC039 18/16
                        Q1007 R07/29//95=
201908031700 METAR LRTM 031700Z 33009KT 9999 VCSH BKN011 FEW026CB OVC036
                        17/15 Q1007 R07/29//95=
201908031730 METAR LRTM 031730Z AUTO 34005KT 300V020 9999 -SHRA BKN049///
                        SCT099/// 17/15 Q1008=
201908031800 METAR LRTM 031800Z AUTO 32006KT 280V350 9999 FEW061/// BKN120///
                        17/15 Q1008 RERA=
201908031830 METAR LRTM 031830Z AUTO 30004KT 250V350 9999 BKN110/// 17/15
                        Q1008=
201908031900 METAR LRTM 031900Z AUTO 29003KT 190V340 9999 SCT099/// 16/14
                        Q1008=
201908031930 METAR LRTM 031930Z AUTO VRB02KT 9999 FEW100/// 16/14 Q1008=
201908032000 METAR LRTM 032000Z AUTO 23005KT 200V260 9999 FEW100/// BKN130///
                        16/14 Q1009=
201908032030 METAR LRTM 032030Z AUTO 25004KT 9999 BKN078/// 16/14 Q1009=
201908032100 METAR LRTM 032100Z AUTO 28003KT 9999 OVC078/// 16/14 Q1009=
201908032130 METAR LRTM 032130Z AUTO VRB01KT 9999 FEW028/// BKN082///
                        16/14 Q1009=
201908032200 METAR LRTM 032200Z AUTO 23004KT 200V260 9999 -RA SCT083///
                        SCT100/// 16/15 Q1009=
201908032230 METAR LRTM 032230Z AUTO VRB02KT 9999 -SHRA FEW010/// BKN078///
                        16/15 Q1009=
201908032300 METAR LRTM 032300Z AUTO 28003KT 240V310 9999 FEW080/// BKN140///
                        16/15 Q1009 RERA=
201908032330 METAR LRTM 032330Z AUTO 27005KT 9999 OVC079/// 16/15 Q1009=
201908040000 METAR LRTM 040000Z AUTO 28004KT 250V320 9999 OVC084/// 16/15
                        Q1009=
201908040030 METAR LRTM 040030Z AUTO 26005KT 9999 OVC082/// 16/14 Q1010=
201908040100 METAR LRTM 040100Z AUTO 26006KT 9999 BKN078/// 15/14 Q1010=
201908040130 METAR LRTM 040130Z AUTO 26005KT 9999 FEW032/// SCT068///
                        15/13 Q1010=
201908040200 METAR LRTM 040200Z AUTO 27004KT 9000 NCD 14/13 Q1010=
201908040230 METAR LRTM 040230Z AUTO 06003KT 6000 FEW055/// 13/12 Q1010=
201908040300 METAR LRTM 040300Z AUTO 27003KT 240V320 9999 BKN010/// 14/13
                        Q1010=
201908040330 METAR LRTM 040330Z 27004KT 8000 SCT005 OVC007 15/14 Q1011
                        R07/29//95=
201908040400 METAR LRTM 040400Z 29005KT 240V330 8000 FEW003 SCT007 OVC012
                        15/14 Q1011 R07/29//95=
201908040430 METAR LRTM 040430Z 33003KT 280V020 8000 FEW005 SCT013 BKN030
                        15/14 Q1011 R07/29//95=
201908040500 METAR LRTM 040500Z 28003KT 240V340 8000 FEW004 SCT014 BKN030
                        16/14 Q1011 R07/29//95=
201908040530 METAR LRTM 040530Z 22004KT 9999 FEW005 SCT015 BKN030 16/14
                        Q1012 R07/29//95=
201908040600 METAR LRTM 040600Z 28003KT 230V310 9999 FEW007 SCT016 OVC030
                        16/14 Q1012 R07/29//95=
201908040630 METAR LRTM 040630Z 31005KT 250V340 9999 FEW015 BKN032 16/13
                        Q1012 R07/CLRD//=
201908040700 METAR LRTM 040700Z 36003KT 280V050 9999 BKN032 17/14 Q1012=
201908040730 METAR LRTM 040730Z 30007KT 260V350 9999 FEW024 BKN034 18/13
                        Q1012=
201908040800 METAR LRTM 040800Z 34006KT 300V020 9999 SCT024 19/13 Q1012=
201908040830 METAR LRTM 040830Z 31006KT 240V020 9999 BKN022 20/13 Q1012=
201908040900 METAR LRTM 040900Z 31006KT 250V010 9999 SCT022 FEW024TCU
                        21/13 Q1012=
201908040930 METAR LRTM 040930Z 32008KT 260V360 9999 SCT024 FEW026TCU
                        20/12 Q1012=
201908041000 METAR LRTM 041000Z 28008KT 240V340 9999 SCT025 FEW028TCU
                        22/12 Q1012=
201908041030 METAR LRTM 041030Z 31011KT 260V340 9999 SCT030 23/10 Q1012=
201908041100 METAR LRTM 041100Z 30008KT 250V360 9999 SCT035 23/11 Q1012=
201908041130 METAR LRTM 041130Z 30010KT 270V340 9999 SCT040 23/10 Q1012=
201908041200 METAR LRTM 041200Z 30010KT 270V340 9999 SCT040 23/11 Q1012=
201908041230 METAR LRTM 041230Z 30011KT 270V340 9999 SCT040 24/10 Q1012=
201908041300 METAR LRTM 041300Z 30012KT 260V330 9999 SCT040 FEW045CB 24/09
                        Q1012=
201908041330 METAR LRTM 041330Z 31013KT 270V360 9999 SCT040 FEW045CB 24/10
                        Q1012=
201908041400 METAR LRTM 041400Z 31012KT 270V350 9999 SCT040 FEW045CB 24/10
                        Q1012=
201908041430 METAR LRTM 041430Z 35016G27KT 310V010 9999 VCTS VCSH SCT030CB
                        BKN040 22/11 Q1012=
201908041500 METAR COR LRTM 041500Z 35009KT 300V040 8000 4000E -SHRA SCT026CB
                        BKN033 17/14 Q1013 RETSRA R07/29//95=
201908041530 METAR LRTM 041530Z 02006KT 340V070 9999 SCT030 FEW035CB 19/13
                        Q1013 R07/29//95=
201908041600 METAR LRTM 041600Z 10004KT 9999 FEW033 FEW040CB 19/14 Q1013
                        R07/29//95=
201908041630 METAR LRTM 041630Z 12003KT 070V140 9999 FEW033 FEW040CB 20/14
                        Q1013 R07/29//95=
201908041700 METAR LRTM 041700Z 15002KT 9999 FEW040 FEW045CB 20/14 Q1013
                        R07/29//95=
201908041730 METAR LRTM 041730Z 20002KT 9999 FEW033 FEW042CB 19/15 Q1013
                        R07/29//95=
201908041800 METAR LRTM 041800Z 00000KT 9999 FEW033 18/16 Q1013 R07/19//95=
201908041830 METAR LRTM 041830Z 00000KT 9999 SCT033 17/15 Q1014 R07/19//95=
201908041900 METAR LRTM 041900Z VRB01KT 9999 SCT030 16/15 Q1014 R07/CLRD//=
201908041930 METAR LRTM 041930Z AUTO VRB02KT 9999 FEW068/// 15/13 Q1015=
201908042000 METAR LRTM 042000Z AUTO VRB02KT 9999 NCD 14/13 Q1015=
201908042030 METAR LRTM 042030Z AUTO VRB01KT 9999 FEW064/// 14/13 Q1015=
201908042100 METAR LRTM 042100Z AUTO VRB02KT 9999 FEW065/// SCT083///
                        14/13 Q1015=
201908042130 METAR LRTM 042130Z AUTO VRB01KT 8000 FEW070/// 13/12 Q1015=
201908042200 METAR LRTM 042200Z AUTO VRB02KT 9999 FEW070/// 13/12 Q1015=
201908042230 METAR LRTM 042230Z AUTO 08004KT 9000 FEW065/// 12/12 Q1016=
201908042300 METAR LRTM 042300Z AUTO 10003KT 7000 FEW094/// 12/11 Q1016=
201908042330 METAR LRTM 042330Z AUTO 07005KT 4600 BR NCD 12/11 Q1016=
201908050000 METAR LRTM 050000Z AUTO 00000KT 6000 NCD 12/11 Q1016=
201908050030 METAR LRTM 050030Z AUTO 00000KT 6000 NCD 12/11 Q1016=
201908050100 METAR LRTM 050100Z AUTO 00000KT 2900 R07/1100VP2000D BR NCD
                        11/11 Q1016=
201908050130 METAR LRTM 050130Z AUTO 00000KT 1400 R07/1100VP2000U FG NCD
                        11/11 Q1016=
201908050200 METAR LRTM 050200Z AUTO 09003KT 3700 NCD 11/10 Q1016=
201908050230 METAR LRTM 050230Z AUTO 10004KT 4500 NCD 10/10 Q1016=
201908050300 METAR LRTM 050300Z AUTO 10002KT 1800 R07/0600VP2000D FG NCD
                        10/10 Q1016=
201908050330 METAR LRTM 050330Z AUTO 07002KT 1000 R07/0800V1800U FG FEW003///
                        10/10 Q1016=
201908050400 METAR LRTM 050400Z AUTO 06002KT 4100 R07/1500VP2000U FEW002///
                        11/10 Q1017=
201908050430 METAR LRTM 050430Z AUTO 09004KT 9999 FEW070/// 12/11 Q1017=
201908050500 METAR LRTM 050500Z 08004KT 9999 FEW007 13/12 Q1017=
201908050530 METAR LRTM 050530Z 07004KT 040V110 5000 BR FEW002 13/12 Q1017=
201908050600 METAR LRTM 050600Z 07003KT 020V110 3500 BR FEW003 14/13 Q1017=
201908050630 METAR LRTM 050630Z 09004KT 060V120 8000 FEW003 16/14 Q1017=
201908050700 METAR LRTM 050700Z VRB01KT 9999 FEW010 18/14 Q1017=
201908050730 METAR LRTM 050730Z VRB01KT 9999 FEW010 19/15 Q1017=
201908050800 METAR LRTM 050800Z VRB02KT 9999 FEW013 20/15 Q1017=
201908050830 METAR LRTM 050830Z VRB02KT 9999 FEW013 21/12 Q1017=
201908050900 METAR LRTM 050900Z VRB02KT 9999 FEW018 22/12 Q1017=
201908050930 METAR LRTM 050930Z VRB03KT 9999 FEW022 23/12 Q1016=
201908051000 METAR LRTM 051000Z 31005KT 270V360 9999 FEW025 23/12 Q1016=
201908051030 METAR LRTM 051030Z 32004KT 260V010 9999 FEW028 24/12 Q1016=
201908051100 METAR LRTM 051100Z VRB04KT 9999 SCT032 FEW032CB 24/12 Q1016=
201908051130 METAR LRTM 051130Z 22006KT 190V250 9999 VCSH SCT032 FEW034CB
                        24/12 Q1015=
201908051200 METAR LRTM 051200Z 25009KT 9999 SCT033 FEW035CB 24/12 Q1015=
201908051230 METAR LRTM 051230Z 24013KT 9999 VCSH SCT033 FEW035CB 23/14
                        Q1015=
201908051300 METAR LRTM 051300Z 25009KT 9999 VCSH SCT034 FEW036CB 23/14
                        Q1015=
201908051330 METAR LRTM 051330Z 25006KT 9999 VCSH SCT034 FEW036CB 24/14
                        Q1015=
201908051400 METAR LRTM 051400Z 21005KT 170V240 9999 FEW035 FEW036CB 24/13
                        Q1015=
201908051430 METAR LRTM 051430Z 23006KT 200V270 9999 FEW035 FEW036CB 25/12
                        Q1015=
201908051500 METAR LRTM 051500Z 23006KT 190V260 9999 SCT026 FEW038CB 24/14
                        Q1015=
201908051530 METAR LRTM 051530Z 23009KT 9999 SCT033 FEW037CB 22/14 Q1015=
201908051600 METAR LRTM 051600Z 25004KT 9999 FEW036 FEW038CB 23/14 Q1014=
201908051630 METAR LRTM 051630Z 13004KT 9999 FEW036 FEW038CB 23/15 Q1014=
201908051700 METAR LRTM 051700Z 09006KT 9999 FEW037 21/15 Q1014=
201908051730 METAR LRTM 051730Z AUTO 06007KT 9999 NCD 19/15 Q1015=
201908051800 METAR LRTM 051800Z AUTO 06005KT 9999 NCD 18/15 Q1015=
201908051830 METAR LRTM 051830Z AUTO 06004KT 030V090 9999 NCD 17/15 Q1015=
201908051900 METAR LRTM 051900Z AUTO VRB02KT 5000 BR NCD 16/14 Q1015=
201908051930 METAR LRTM 051930Z AUTO 08005KT 5000 BR NCD 15/14 Q1015=
201908052000 METAR LRTM 052000Z AUTO 09005KT 9999 NCD 15/14 Q1016=
201908052030 METAR LRTM 052030Z AUTO 09006KT 9999 NCD 15/14 Q1016=
201908052100 METAR LRTM 052100Z AUTO VRB01KT 9999 NCD 15/14 Q1016=
201908052130 METAR LRTM 052130Z AUTO VRB01KT 5000 R07/2000 BR NCD 14/13
                        Q1016=
201908052200 METAR LRTM 052200Z AUTO 10002KT 9999 NCD 14/13 Q1016=
201908052230 METAR LRTM 052230Z AUTO 07004KT 6000 NCD 13/12 Q1016=
201908052300 METAR LRTM 052300Z AUTO 10004KT 6000 NCD 13/13 Q1016=
201908052330 METAR LRTM 052330Z AUTO 09005KT 7000 SCT065/// 13/13 Q1016=
201908060000 METAR LRTM 060000Z AUTO 09006KT 8000 FEW064/// 14/13 Q1016=
201908060030 METAR LRTM 060030Z AUTO 10005KT 7000 FEW065/// 14/13 Q1016=
201908060100 METAR LRTM 060100Z AUTO 09004KT 7000 FEW068/// 13/13 Q1016=
201908060130 METAR LRTM 060130Z AUTO 10004KT 6000 NCD 12/12 Q1016=
201908060200 METAR LRTM 060200Z AUTO 08004KT 6000 SCT063/// 13/12 Q1016=
201908060230 METAR LRTM 060230Z AUTO 09006KT 9999 NCD 13/12 Q1016=
201908060300 METAR LRTM 060300Z AUTO 09005KT 8000 FEW063/// 13/12 Q1016=
201908060330 METAR LRTM 060330Z AUTO 09005KT 8000 FEW065/// 12/12 Q1017=
201908060400 METAR LRTM 060400Z AUTO 09005KT 8000 SCT065/// 13/12 Q1017=
201908060430 METAR LRTM 060430Z AUTO 09004KT 8000 FEW066/// 14/13 Q1017=
201908060500 METAR LRTM 060500Z 07004KT 9000 NSC 15/14 Q1017=
201908060530 METAR LRTM 060530Z 05004KT 020V090 CAVOK 16/14 Q1017=
201908060600 METAR LRTM 060600Z 06003KT 040V100 CAVOK 17/15 Q1017=
201908060630 METAR LRTM 060630Z 09003KT 020V140 9999 FEW021 20/15 Q1017=
201908060700 METAR LRTM 060700Z VRB02KT 9999 FEW024 21/13 Q1017=
201908060730 METAR LRTM 060730Z 10003KT 060V140 9999 FEW026 22/14 Q1017=
201908060800 METAR LRTM 060800Z VRB03KT 9999 FEW026 22/15 Q1017=
201908060830 METAR LRTM 060830Z VRB01KT 9999 FEW028 24/15 Q1017=
201908060900 METAR LRTM 060900Z VRB02KT 9999 FEW028 24/14 Q1017=
201908060930 METAR LRTM 060930Z VRB03KT 9999 FEW030 25/14 Q1017=
201908061000 METAR LRTM 061000Z VRB03KT 9999 FEW030 26/15 Q1017=
201908061030 METAR LRTM 061030Z VRB02KT 9999 SCT032 26/13 Q1017=
201908061100 METAR LRTM 061100Z VRB02KT 9999 SCT034 26/14 Q1017=
201908061130 METAR LRTM 061130Z 24004KT 170V330 9999 SCT037 27/13 Q1016=
201908061200 METAR LRTM 061200Z VRB03KT 9999 SCT038 28/14 Q1016=
201908061230 METAR LRTM 061230Z VRB03KT 9999 SCT040 27/12 Q1016=
201908061300 METAR LRTM 061300Z 26007KT 9999 SCT040 28/12 Q1016=
201908061330 METAR LRTM 061330Z 23007KT 9999 FEW042 FEW045CB 28/12 Q1015=
201908061400 METAR LRTM 061400Z 20004KT 160V250 9999 FEW042 FEW045CB 28/12
                        Q1015=
201908061430 METAR LRTM 061430Z 23004KT 170V330 9999 FEW045 27/13 Q1015=
201908061500 METAR LRTM 061500Z 25005KT 9999 FEW045 28/12 Q1015=
201908061530 METAR LRTM 061530Z 19005KT 9999 FEW048 28/13 Q1015=
201908061600 METAR LRTM 061600Z VRB02KT CAVOK 28/13 Q1015=
201908061630 METAR LRTM 061630Z 19003KT 150V240 CAVOK 28/14 Q1015=
201908061700 METAR LRTM 061700Z 13002KT CAVOK 26/15 Q1015=
201908061730 METAR LRTM 061730Z AUTO 14003KT 9999 NCD 23/16 Q1015=
201908061800 METAR LRTM 061800Z AUTO VRB01KT 9999 FEW069/// 22/15 Q1015=
201908061830 METAR LRTM 061830Z AUTO 07006KT 9999 FEW067/// 20/16 Q1015=
201908061900 METAR LRTM 061900Z AUTO 10004KT 9999 NCD 20/16 Q1015=
201908061930 METAR LRTM 061930Z AUTO 08005KT 9999 BKN130/// 19/16 Q1016=
201908062000 METAR LRTM 062000Z AUTO 09005KT 9999 OVC130/// 19/16 Q1016=
201908062030 METAR LRTM 062030Z AUTO 10004KT 9999 OVC110/// 19/16 Q1015=
201908062100 METAR LRTM 062100Z AUTO 10007KT 9999 SCT100/// BKN130///
                        19/16 Q1016=
201908062130 METAR LRTM 062130Z AUTO 10005KT 9999 OVC110/// 19/16 Q1015=
201908062200 METAR LRTM 062200Z AUTO 10004KT 9999 BKN100/// SCT130///
                        19/16 Q1016=
201908062230 METAR LRTM 062230Z AUTO 09005KT 9999 SCT100/// BKN120///
                        19/16 Q1016=
201908062300 METAR LRTM 062300Z AUTO 10004KT 9999 FEW100/// 18/16 Q1016=
201908062330 METAR LRTM 062330Z AUTO 10003KT 9999 BKN094/// 17/16 Q1016=
201908070000 METAR LRTM 070000Z AUTO 10004KT 9999 FEW096/// 17/15 Q1015=
201908070030 METAR LRTM 070030Z AUTO 10004KT 9999 NCD 16/15 Q1015=
201908070100 METAR LRTM 070100Z AUTO 08004KT 9999 NCD 16/15 Q1015=
201908070130 METAR LRTM 070130Z AUTO 09004KT 9999 NCD 15/14 Q1015=
201908070200 METAR LRTM 070200Z AUTO 09004KT 9999 NCD 15/14 Q1015=
201908070230 METAR LRTM 070230Z AUTO 09005KT 9999 NCD 15/14 Q1015=
201908070300 METAR LRTM 070300Z AUTO 09004KT 9999 NCD 15/14 Q1015=
201908070330 METAR LRTM 070330Z 09003KT 8000 MIFG FEW009 15/14 Q1016=
201908070400 METAR LRTM 070400Z 10005KT 9000 MIFG FEW010 16/15 Q1016=
201908070430 METAR COR LRTM 070430Z 10004KT 9000 MIFG FEW010 16/15 Q1016=
201908070500 METAR LRTM 070500Z 08006KT 8000 MIFG FEW010 17/15 Q1016=
201908070530 METAR LRTM 070530Z 07005KT 9000 MIFG FEW011 18/15 Q1016=
201908070600 METAR LRTM 070600Z 07004KT 030V110 9999 FEW012 20/16 Q1016=
201908070630 METAR LRTM 070630Z 08003KT 020V160 9999 FEW012 22/16 Q1016=
201908070700 METAR LRTM 070700Z 09003KT 020V180 9999 FEW014 23/16 Q1016=
201908070730 METAR LRTM 070730Z VRB03KT CAVOK 25/15 Q1016=
201908070800 METAR LRTM 070800Z VRB02KT CAVOK 25/15 Q1016=
201908070830 METAR LRTM 070830Z 13004KT 020V180 CAVOK 26/15 Q1016=
201908070900 METAR LRTM 070900Z 11005KT 070V140 CAVOK 26/16 Q1015=
201908070930 METAR LRTM 070930Z VRB03KT CAVOK 28/16 Q1015=
201908071000 METAR LRTM 071000Z 15005KT 100V200 CAVOK 28/16 Q1015=
201908071030 METAR LRTM 071030Z 20004KT 120V250 CAVOK 29/15 Q1015=
201908071100 METAR LRTM 071100Z 12005KT 060V170 9999 FEW032 29/15 Q1014=
201908071130 METAR LRTM 071130Z 19006KT 9999 FEW034 30/15 Q1014=
201908071200 METAR LRTM 071200Z 23006KT 9999 FEW034 31/14 Q1014=
201908071230 METAR LRTM 071230Z 21004KT 9999 FEW036 31/15 Q1014=
201908071300 METAR LRTM 071300Z 16006KT 130V200 9999 FEW036 31/14 Q1013=
201908071330 METAR LRTM 071330Z 20007KT 150V230 CAVOK 31/15 Q1013=
201908071400 METAR LRTM 071400Z 20007KT 150V250 CAVOK 31/16 Q1013=
201908071430 METAR LRTM 071430Z VRB05KT CAVOK 32/17 Q1013=
201908071500 METAR LRTM 071500Z 22008KT CAVOK 31/16 Q1013=
201908071530 METAR LRTM 071530Z 22008KT CAVOK 30/16 Q1012=
201908071600 METAR LRTM 071600Z 21005KT 180V240 CAVOK 30/17 Q1012=
201908071630 METAR LRTM 071630Z 19005KT CAVOK 29/17 Q1012=
201908071700 METAR LRTM 071700Z 18005KT 140V200 CAVOK 28/17 Q1012=
201908071730 METAR LRTM 071730Z 17005KT CAVOK 26/18 Q1012=
201908071800 METAR LRTM 071800Z AUTO 17003KT 140V230 9999 FEW068/// 24/18
                        Q1012=
201908071830 METAR LRTM 071830Z AUTO 32003KT 200V360 9999 SCT068/// 23/19
                        Q1013=
201908071900 METAR LRTM 071900Z AUTO VRB02KT 9999 FEW070/// 23/18 Q1013=
201908071930 METAR LRTM 071930Z AUTO VRB03KT 9999 NCD 23/18 Q1013=
201908072000 METAR LRTM 072000Z AUTO 31003KT 230V360 9999 NCD 21/18 Q1013=
201908072030 METAR LRTM 072030Z AUTO VRB02KT 9999 NCD 21/17 Q1012=
201908072100 METAR LRTM 072100Z AUTO 36003KT 9999 NCD 21/17 Q1012=
201908072130 METAR LRTM 072130Z AUTO VRB02KT 9999 NCD 21/17 Q1012=
201908072200 METAR LRTM 072200Z AUTO 34003KT 210V010 9999 NCD 20/17 Q1013=
201908072230 METAR LRTM 072230Z AUTO 00000KT 9999 NCD 20/17 Q1013=
201908072300 METAR LRTM 072300Z AUTO 00000KT 9999 NCD 19/17 Q1012=
201908072330 METAR LRTM 072330Z AUTO 10005KT 9999 NCD 18/16 Q1013=
201908080000 METAR LRTM 080000Z AUTO 10003KT 060V130 9999 NCD 18/16 Q1013=
201908080030 METAR LRTM 080030Z AUTO 09004KT 9999 NCD 18/16 Q1013=
201908080100 METAR LRTM 080100Z AUTO 10003KT 9999 NCD 18/16 Q1013=
201908080130 METAR LRTM 080130Z AUTO 09004KT 9999 NCD 17/16 Q1012=
201908080200 METAR LRTM 080200Z AUTO 09004KT 9000 FEW110/// 16/15 Q1012=
201908080230 METAR LRTM 080230Z AUTO 08005KT 9000 BKN110/// 17/16 Q1013=
201908080300 METAR LRTM 080300Z AUTO 10007KT 9999 FEW071/// 17/16 Q1012=
201908080330 METAR LRTM 080330Z AUTO 09004KT 9000 NCD 17/16 Q1012=
201908080400 METAR LRTM 080400Z AUTO 09005KT 9000 FEW077/// 17/16 Q1012=
201908080430 METAR LRTM 080430Z AUTO 10005KT 9999 NCD 18/17 Q1013=
201908080500 METAR LRTM 080500Z 10005KT 8000 FEW013 19/17 Q1013=
201908080530 METAR LRTM 080530Z 09004KT 060V120 9000 FEW008 FEW025TCU
                        21/18 Q1013=
201908080600 METAR LRTM 080600Z 08005KT 9999 FEW008 FEW030CB 22/17 Q1012=
201908080630 METAR LRTM 080630Z 07004KT 030V100 9999 VCTS VCSH SCT027
                        FEW032CB 23/17 Q1013=
201908080700 METAR LRTM 080700Z 08006KT 9999 VCTS SCT027 FEW032CB 25/18
                        Q1013=
201908080730 METAR LRTM 080730Z 09005KT 050V130 9999 FEW028 FEW032CB 26/18
                        Q1013=
201908080800 METAR LRTM 080800Z 11005KT 9999 FEW030 FEW033CB 27/18 Q1012=
201908080830 METAR LRTM 080830Z 18007KT 130V200 9999 FEW033 29/18 Q1012=
201908080900 METAR LRTM 080900Z 17005KT 120V220 9999 FEW035 30/18 Q1012=
201908080930 METAR LRTM 080930Z 21007KT 160V240 9999 FEW040 31/18 Q1012=
201908081000 METAR LRTM 081000Z 23009KT 170V250 9999 FEW040 31/18 Q1012=
201908081030 METAR COR LRTM 081030Z 23011KT 200V260 9999 FEW043 32/18
                        Q1011=
201908081100 METAR LRTM 081100Z 24008KT 210V270 9999 FEW045 FEW045CB 31/17
                        Q1012=
201908081130 METAR LRTM 081130Z 25009KT 9999 FEW043 FEW043CB 30/17 Q1012=
201908081200 METAR LRTM 081200Z 32018KT 9999 VCSH FEW043 FEW043CB 28/19
                        Q1012=
201908081230 METAR LRTM 081230Z 35012KT 9999 VCSH FEW043 FEW043CB 28/19
                        Q1012=
201908081300 METAR LRTM 081300Z 33007KT 280V360 9999 FEW043 FEW043CB 30/18
                        Q1012=
201908081330 METAR LRTM 081330Z 33008KT 300V010 9999 FEW043 FEW043CB 29/19
                        Q1012=
201908081400 METAR LRTM 081400Z 33009KT 300V010 9999 FEW045 FEW045CB 28/19
                        Q1012=
201908081430 METAR LRTM 081430Z 35008KT 310V030 9999 FEW045CB 29/19 Q1012=
201908081500 METAR LRTM 081500Z 03006KT 350V070 9999 FEW045CB 29/18 Q1012=
201908081530 METAR LRTM 081530Z 35007KT 320V020 9999 FEW048CB 29/18 Q1012=
201908081600 METAR LRTM 081600Z 36006KT 9999 FEW050CB 29/18 Q1012=
201908081630 METAR LRTM 081630Z 34005KT 9999 FEW050CB 28/19 Q1012=
201908081700 METAR LRTM 081700Z 02003KT 340V050 9999 FEW050CB 27/20 Q1013=
201908081730 METAR LRTM 081730Z AUTO VRB02KT 9999 SCT110/// 25/19 Q1013=
201908081800 METAR LRTM 081800Z AUTO 08002KT 9999 FEW110/// 24/19 Q1013=
201908081830 METAR LRTM 081830Z AUTO VRB01KT 9999 NCD 23/19 Q1014=
201908081900 METAR LRTM 081900Z AUTO 00000KT 9999 NCD 22/19 Q1014=
201908081930 METAR LRTM 081930Z AUTO 00000KT 9999 NCD 22/19 Q1014=
201908082000 METAR LRTM 082000Z AUTO VRB01KT 9999 NCD 21/19 Q1014=
201908082030 METAR LRTM 082030Z AUTO 00000KT 9999 NCD 20/19 Q1014=
201908082100 METAR LRTM 082100Z AUTO 20003KT 9999 NCD 20/18 Q1014=
201908082130 METAR LRTM 082130Z AUTO 06003KT 9999 BKN170/// 20/18 Q1014=
201908082200 METAR LRTM 082200Z AUTO 07004KT 9999 BKN170/// 19/18 Q1014=
201908082230 METAR LRTM 082230Z AUTO 14003KT 9999 NCD 19/18 Q1014=
201908082300 METAR LRTM 082300Z AUTO 00000KT 8000 NCD 19/18 Q1014=
201908082330 METAR LRTM 082330Z AUTO 00000KT 7000 NCD 18/18 Q1014=
201908090000 METAR LRTM 090000Z AUTO 00000KT 7000 NCD 18/17 Q1014=
201908090030 METAR LRTM 090030Z AUTO 00000KT 6000 FEW170/// 18/17 Q1014=
201908090100 METAR LRTM 090100Z AUTO 06004KT 030V090 8000 BKN170/// 19/18
                        Q1014=
201908090130 METAR LRTM 090130Z AUTO 10005KT 9000 FEW120/// BKN150///
                        19/18 Q1014=
201908090200 METAR LRTM 090200Z AUTO VRB01KT 9000 FEW052/// SCT160///
                        18/17 Q1014=
201908090230 METAR LRTM 090230Z AUTO VRB02KT 8000 SCT043/// SCT054///
                        19/18 Q1015=
201908090300 METAR LRTM 090300Z AUTO 27014KT 240V300 4200 R07/2000 +TSRA
                        FEW008/// 18/18 Q1016=
201908090330 METAR LRTM 090330Z AUTO 29007KT 9000 SHRA VCTS FEW047///
                        20/18 Q1015=
201908090400 METAR LRTM 090400Z AUTO 20011KT 9999 RA VCTS SCT110/// 19/18
                        Q1016=
201908090430 METAR LRTM 090430Z AUTO 18010KT 150V210 9999 -SHRA FEW120///
                        19/17 Q1016=
201908090500 METAR LRTM 090500Z VRB02KT 9999 BKN040CB 19/17 Q1016 R07/29//95=
201908090530 METAR LRTM 090530Z 05004KT 020V090 9999 SCT040CB 19/18 Q1016
                        R07/29//95=
201908090600 METAR LRTM 090600Z 12006KT 050V140 9999 FEW008 FEW042CB 21/18
                        Q1016 R07/29//95=
201908090630 METAR LRTM 090630Z VRB01KT 9999 FEW009 FEW045CB 22/18 Q1015
                        R07/29//95=
201908090700 METAR LRTM 090700Z VRB02KT 9999 FEW023 FEW046CB 22/18 Q1016
                        R07/29//95=
201908090730 METAR LRTM 090730Z 23005KT 190V270 9999 FEW015 SCT023 22/17
                        Q1016 R07/29//95=
201908090800 METAR LRTM 090800Z VRB04KT 9999 SCT023 24/18 Q1016 R07/29//95=
201908090830 METAR LRTM 090830Z VRB02KT 9999 SCT023 24/18 Q1015=
201908090900 METAR LRTM 090900Z 27004KT 200V360 9999 SCT025 24/18 Q1016=
201908090930 METAR LRTM 090930Z VRB04KT 9999 SCT026 25/18 Q1016=
201908091000 METAR LRTM 091000Z 22004KT 140V290 9999 SCT026 26/17 Q1015=
201908091030 METAR LRTM 091030Z VRB04KT 9999 SCT028 26/17 Q1015=
201908091100 METAR LRTM 091100Z VRB04KT 9999 SCT033 27/18 Q1015=
201908091130 METAR LRTM 091130Z 26005KT 170V310 9999 SCT036 27/18 Q1015=
201908091200 METAR LRTM 091200Z 25004KT 190V350 9999 SCT036 27/16 Q1015=
201908091230 METAR LRTM 091230Z 26007KT 210V300 9999 SCT036 28/18 Q1015=
201908091300 METAR LRTM 091300Z 25004KT 200V330 9999 SCT036 29/17 Q1014=
201908091330 METAR LRTM 091330Z VRB03KT 9999 FEW037 29/17 Q1014=
201908091400 METAR LRTM 091400Z 24005KT 200V300 9999 FEW037 29/17 Q1014=
201908091430 METAR LRTM 091430Z 23006KT 9999 FEW037 29/17 Q1014=
201908091500 METAR LRTM 091500Z 25007KT 9999 FEW037 29/17 Q1014=
201908091530 METAR LRTM 091530Z 24006KT 9999 FEW038 28/18 Q1014=
201908091600 METAR LRTM 091600Z 31004KT 270V350 9999 FEW040 28/16 Q1014=
201908091630 METAR LRTM 091630Z 32006KT 290V360 9999 FEW040 27/14 Q1014=
201908091700 METAR LRTM 091700Z 33007KT 9999 FEW040 26/14 Q1014=
201908091730 METAR LRTM 091730Z AUTO 32003KT 280V350 9999 NCD 24/14 Q1015=
201908091800 METAR LRTM 091800Z AUTO VRB01KT 9999 FEW072/// 23/14 Q1015=
201908091830 METAR LRTM 091830Z AUTO 00000KT 9999 BKN067/// 23/14 Q1015=
201908091900 METAR LRTM 091900Z AUTO VRB01KT 9999 FEW067/// 22/15 Q1016=
201908091930 METAR LRTM 091930Z AUTO VRB02KT 9999 FEW065/// 20/16 Q1016=
201908092000 METAR LRTM 092000Z AUTO VRB02KT 9999 NCD 19/16 Q1016=
201908092030 METAR LRTM 092030Z AUTO 24003KT 9999 NCD 18/16 Q1016=
201908092100 METAR LRTM 092100Z AUTO 00000KT 9999 NCD 17/15 Q1016=
201908092130 METAR LRTM 092130Z AUTO VRB01KT 9999 NCD 17/15 Q1016=
201908092200 METAR LRTM 092200Z AUTO 12003KT 9999 NCD 16/15 Q1016=
201908092230 METAR LRTM 092230Z AUTO 00000KT 9999 NCD 16/15 Q1016=
201908092300 METAR LRTM 092300Z AUTO 00000KT 9999 NCD 16/14 Q1016=
201908092330 METAR LRTM 092330Z AUTO VRB02KT 9999 NCD 15/14 Q1016=
201908100000 METAR LRTM 100000Z AUTO 00000KT 9999 NCD 15/14 Q1017=
201908100030 METAR LRTM 100030Z AUTO 00000KT 8000 NCD 15/14 Q1017=
201908100100 METAR LRTM 100100Z AUTO 00000KT 8000 NCD 14/13 Q1017=
201908100130 METAR LRTM 100130Z AUTO 09002KT 7000 NCD 14/13 Q1017=
201908100200 METAR LRTM 100200Z AUTO 09005KT 8000 NCD 13/13 Q1017=
201908100230 METAR LRTM 100230Z AUTO 10003KT 6000 NCD 14/13 Q1017=
201908100300 METAR LRTM 100300Z AUTO 09003KT 5000 BR NCD 14/13 Q1017=
201908100330 METAR LRTM 100330Z AUTO 10004KT 7000 NCD 13/13 Q1017=
201908100400 METAR LRTM 100400Z AUTO 09005KT 9999 NCD 15/14 Q1018=
201908100430 METAR LRTM 100430Z AUTO 08005KT 9999 NCD 15/14 Q1018=
201908100500 METAR LRTM 100500Z 08005KT 6000 FEW004 16/15 Q1018=
201908100530 METAR LRTM 100530Z 07004KT 030V110 7000 FEW005 17/15 Q1018=
201908100600 METAR LRTM 100600Z 08004KT 8000 FEW007 18/16 Q1018=
201908100630 METAR LRTM 100630Z 07004KT 030V100 9999 FEW010 20/16 Q1018=
201908100700 METAR LRTM 100700Z 09003KT 360V150 9999 FEW012 21/16 Q1018=
201908100730 METAR LRTM 100730Z VRB02KT 9999 FEW015 23/16 Q1018=
201908100800 METAR LRTM 100800Z VRB03KT CAVOK 24/16 Q1019=
201908100830 METAR LRTM 100830Z VRB02KT 9999 FEW025 25/16 Q1019=
201908100900 METAR LRTM 100900Z 26003KT 180V350 9999 FEW025 26/16 Q1018=
201908100930 METAR LRTM 100930Z VRB02KT 9999 FEW028 27/17 Q1018=
201908101000 METAR LRTM 101000Z 17003KT 100V250 9999 FEW030 27/15 Q1018=
201908101030 METAR LRTM 101030Z VRB04KT 9999 FEW032 28/15 Q1018=
201908101100 METAR LRTM 101100Z 36003KT 300V080 9999 FEW036 28/13 Q1018=
201908101130 METAR LRTM 101130Z VRB03KT 9999 FEW038 29/15 Q1017=
201908101200 METAR LRTM 101200Z VRB03KT 9999 FEW040 29/14 Q1017=
201908101230 METAR LRTM 101230Z 15004KT 100V210 9999 FEW040 30/15 Q1017=
201908101300 METAR LRTM 101300Z 13004KT 060V180 9999 FEW043 29/14 Q1017=
201908101330 METAR LRTM 101330Z VRB03KT 9999 FEW045 30/14 Q1017=
201908101400 METAR LRTM 101400Z VRB03KT 9999 FEW045 30/15 Q1017=
201908101430 METAR LRTM 101430Z 26003KT 190V330 9999 FEW048 30/14 Q1017=
201908101500 METAR LRTM 101500Z 32005KT CAVOK 30/13 Q1017=
201908101530 METAR LRTM 101530Z 32004KT 260V360 CAVOK 30/15 Q1017=
201908101600 METAR LRTM 101600Z 30003KT 260V330 CAVOK 30/13 Q1017=
201908101630 METAR LRTM 101630Z VRB02KT CAVOK 30/14 Q1017=
201908101700 METAR LRTM 101700Z VRB02KT CAVOK 29/15 Q1017=
201908101730 METAR LRTM 101730Z AUTO 08003KT 350V130 9999 NCD 25/18 Q1017=
201908101800 METAR LRTM 101800Z AUTO 00000KT 9999 NCD 23/17 Q1017=
201908101830 METAR LRTM 101830Z AUTO VRB01KT 9999 NCD 22/17 Q1018=
201908101900 METAR LRTM 101900Z AUTO VRB01KT 9999 NCD 20/18 Q1018=
201908101930 METAR LRTM 101930Z AUTO VRB01KT 9999 NCD 19/17 Q1018=
201908102000 METAR LRTM 102000Z AUTO 00000KT 9999 NCD 19/17 Q1018=
201908102030 METAR LRTM 102030Z AUTO 00000KT 9999 NCD 18/17 Q1018=
201908102100 METAR LRTM 102100Z AUTO 07003KT 030V090 9999 NCD 18/16 Q1018=
201908102130 METAR LRTM 102130Z AUTO 06001KT 9999 NCD 17/16 Q1018=
201908102200 METAR LRTM 102200Z AUTO 10004KT 9999 NCD 18/16 Q1018=
201908102230 METAR LRTM 102230Z AUTO 09005KT 9999 NCD 17/16 Q1018=
201908102300 METAR LRTM 102300Z AUTO 10005KT 9999 NCD 18/16 Q1018=
201908102330 METAR LRTM 102330Z AUTO 09004KT 9999 NCD 17/15 Q1018=
201908110000 METAR LRTM 110000Z AUTO 09006KT 9999 NCD 17/16 Q1018=
201908110030 METAR LRTM 110030Z AUTO 10004KT 9999 NCD 17/16 Q1018=
201908110100 METAR LRTM 110100Z AUTO 09004KT 9999 NCD 16/15 Q1018=
201908110130 METAR LRTM 110130Z AUTO 09005KT 9999 NCD 16/15 Q1018=
201908110200 METAR LRTM 110200Z AUTO 10005KT 9000 NCD 15/15 Q1018=
201908110230 METAR LRTM 110230Z AUTO 09004KT 9000 NCD 16/15 Q1018=
201908110300 METAR LRTM 110300Z AUTO 10005KT 8000 NCD 16/15 Q1018=
201908110330 METAR LRTM 110330Z 10003KT 9999 FEW012 15/15 Q1018=
201908110400 METAR LRTM 110400Z 09004KT 9999 FEW011 16/15 Q1018=
201908110430 METAR LRTM 110430Z 09004KT 9999 FEW008 17/15 Q1019=
201908110500 METAR LRTM 110500Z 09004KT 9999 FEW007 18/16 Q1019=
201908110530 METAR LRTM 110530Z 08005KT 9999 FEW006 19/16 Q1019=
201908110600 METAR LRTM 110600Z 08004KT 9999 FEW008 20/16 Q1019=
201908110630 METAR LRTM 110630Z 06004KT 360V100 CAVOK 22/17 Q1019=
201908110700 METAR LRTM 110700Z VRB01KT CAVOK 23/17 Q1019=
201908110730 METAR LRTM 110730Z VRB02KT CAVOK 25/18 Q1019=
201908110800 METAR LRTM 110800Z VRB02KT CAVOK 27/17 Q1019=
201908110830 METAR LRTM 110830Z VRB02KT CAVOK 27/18 Q1019=
201908110900 METAR LRTM 110900Z VRB01KT CAVOK 28/18 Q1019=
201908110930 METAR LRTM 110930Z VRB03KT CAVOK 29/18 Q1019=
201908111000 METAR LRTM 111000Z 14004KT 040V180 CAVOK 29/18 Q1019=
201908111030 METAR LRTM 111030Z 16005KT 090V240 9999 FEW038 30/18 Q1018=
201908111100 METAR LRTM 111100Z 19003KT 110V240 9999 FEW043 31/17 Q1018=
201908111130 METAR LRTM 111130Z VRB03KT 9999 FEW047 31/18 Q1018=
201908111200 METAR LRTM 111200Z VRB02KT 9999 FEW047 31/17 Q1018=
201908111230 METAR LRTM 111230Z VRB04KT CAVOK 32/18 Q1018=
201908111300 METAR LRTM 111300Z 32004KT 250V030 CAVOK 32/17 Q1017=
201908111330 METAR LRTM 111330Z 35004KT 310V110 CAVOK 32/16 Q1017=
201908111400 METAR LRTM 111400Z 35004KT 300V040 CAVOK 32/15 Q1017=
201908111430 METAR LRTM 111430Z VRB02KT 9999 FEW053CB 32/17 Q1017=
201908111500 METAR LRTM 111500Z VRB02KT 9999 FEW053CB 33/14 Q1017=
201908111530 METAR LRTM 111530Z VRB01KT 9999 FEW053CB 33/15 Q1017=
201908111600 METAR LRTM 111600Z AUTO 23002KT 9999 NCD 32/17 Q1017=
201908111630 METAR LRTM 111630Z AUTO 00000KT 9999 NCD 32/16 Q1017=
201908111700 METAR LRTM 111700Z AUTO 00000KT 9999 NCD 30/18 Q1017=
201908111730 METAR LRTM 111730Z AUTO 00000KT 9999 NCD 27/20 Q1017=
201908111800 METAR LRTM 111800Z AUTO 34002KT 9999 NCD 25/19 Q1017=
201908111830 METAR LRTM 111830Z AUTO 05003KT 9999 NCD 23/19 Q1017=
201908111900 METAR LRTM 111900Z AUTO 00000KT 9999 NCD 22/18 Q1017=
201908111930 METAR LRTM 111930Z AUTO 06001KT 9999 NCD 21/18 Q1017=
201908112000 METAR LRTM 112000Z AUTO 00000KT 9999 NCD 21/18 Q1018=
201908112030 METAR LRTM 112030Z AUTO 08003KT 030V110 9999 NCD 20/17 Q1018=
201908112100 METAR LRTM 112100Z AUTO 09005KT 9999 NCD 19/17 Q1018=
201908112130 METAR LRTM 112130Z AUTO 09005KT 9999 NCD 19/18 Q1018=
201908112200 METAR LRTM 112200Z AUTO 11004KT 9999 NCD 20/18 Q1018=
201908112230 METAR LRTM 112230Z AUTO 09005KT 9999 NCD 19/17 Q1018=
201908112300 METAR LRTM 112300Z AUTO 10005KT 9999 NCD 18/17 Q1018=
201908112330 METAR LRTM 112330Z AUTO 10006KT 9999 NCD 19/18 Q1018=
201908120000 METAR LRTM 120000Z AUTO 10004KT 9999 NCD 18/17 Q1018=
201908120030 METAR LRTM 120030Z AUTO 09004KT 9999 NCD 18/17 Q1018=
201908120100 METAR LRTM 120100Z AUTO 10006KT 9999 NCD 19/18 Q1018=
201908120130 METAR LRTM 120130Z AUTO 09004KT 9999 NCD 18/17 Q1018=
201908120200 METAR LRTM 120200Z AUTO 10005KT 9999 NCD 18/17 Q1017=
201908120230 METAR LRTM 120230Z AUTO 10004KT 9999 NCD 18/17 Q1017=
201908120300 METAR LRTM 120300Z AUTO 09005KT 9000 NCD 18/16 Q1017=
201908120330 METAR LRTM 120330Z AUTO 09004KT 9999 NCD 17/16 Q1018=
201908120400 METAR LRTM 120400Z AUTO 10004KT 9999 NCD 18/17 Q1018=
201908120430 METAR LRTM 120430Z AUTO 09004KT 9999 NCD 19/18 Q1018=
201908120500 METAR LRTM 120500Z 10003KT 8000 FEW012 20/18 Q1018=
201908120530 METAR LRTM 120530Z 09004KT 8000 FEW012 21/18 Q1018=
201908120600 METAR LRTM 120600Z 08005KT 050V110 7000 FEW015 22/19 Q1018=
201908120630 METAR LRTM 120630Z 09004KT 060V120 6000 FEW015 24/19 Q1018=
201908120700 METAR LRTM 120700Z VRB02KT 7000 FEW015 25/19 Q1018=
201908120730 METAR LRTM 120730Z 07005KT 010V120 9000 NSC 26/20 Q1018=
201908120800 METAR LRTM 120800Z 11004KT 040V180 9000 NSC 28/20 Q1018=
201908120830 METAR LRTM 120830Z 10004KT 040V160 CAVOK 29/20 Q1017=
201908120900 METAR LRTM 120900Z VRB02KT CAVOK 30/20 Q1017=
201908120930 METAR LRTM 120930Z 18003KT 110V260 CAVOK 30/20 Q1017=
201908121000 METAR LRTM 121000Z 17004KT 100V240 CAVOK 31/19 Q1017=
201908121030 METAR LRTM 121030Z 15007KT 110V180 9999 FEW023 32/19 Q1017=
201908121100 METAR LRTM 121100Z VRB03KT 9999 FEW025 33/19 Q1016=
201908121130 METAR LRTM 121130Z VRB04KT 9999 FEW025 33/19 Q1016=
201908121200 METAR LRTM 121200Z VRB04KT 9999 FEW027 33/19 Q1016=
201908121230 METAR LRTM 121230Z VRB03KT 9999 FEW030 34/18 Q1016=
201908121300 METAR LRTM 121300Z 21004KT 120V270 CAVOK 34/19 Q1015=
201908121330 METAR LRTM 121330Z 11003KT 040V170 CAVOK 34/19 Q1015=
201908121400 METAR LRTM 121400Z VRB02KT CAVOK 34/19 Q1015=
201908121430 METAR LRTM 121430Z VRB02KT CAVOK 34/19 Q1015=
201908121500 METAR LRTM 121500Z VRB03KT CAVOK 34/19 Q1015=
201908121530 METAR LRTM 121530Z VRB01KT CAVOK 34/19 Q1015=
201908121600 METAR LRTM 121600Z 34002KT CAVOK 34/19 Q1014=
201908121630 METAR LRTM 121630Z 11003KT CAVOK 32/21 Q1014=
201908121700 METAR LRTM 121700Z 12003KT CAVOK 31/21 Q1014=
201908121730 METAR LRTM 121730Z AUTO 12004KT 9999 NCD 29/21 Q1014=
201908121800 METAR LRTM 121800Z AUTO 09003KT 050V120 9999 NCD 27/20 Q1014=
201908121830 METAR LRTM 121830Z AUTO VRB02KT 9999 NCD 25/21 Q1015=
201908121900 METAR LRTM 121900Z AUTO 12002KT 9999 NCD 25/20 Q1015=
201908121930 METAR LRTM 121930Z AUTO 08003KT 9999 NCD 24/20 Q1015=
201908122000 METAR LRTM 122000Z AUTO VRB02KT 9999 NCD 23/20 Q1015=
201908122030 METAR LRTM 122030Z AUTO 09005KT 9999 NCD 22/20 Q1015=
201908122100 METAR LRTM 122100Z AUTO 09006KT 9999 NCD 22/20 Q1015=
201908122130 METAR LRTM 122130Z AUTO 10004KT 9999 NCD 22/20 Q1015=
201908122200 METAR LRTM 122200Z AUTO 09006KT 9999 NCD 23/20 Q1015=
201908122230 METAR LRTM 122230Z AUTO 09006KT 9999 NCD 22/20 Q1015=
201908122300 METAR LRTM 122300Z AUTO 09007KT 9999 NCD 22/19 Q1015=
201908122330 METAR LRTM 122330Z AUTO 09005KT 9999 NCD 21/19 Q1015=
201908130000 METAR LRTM 130000Z AUTO 09005KT 9999 NCD 20/19 Q1015=
201908130030 METAR LRTM 130030Z AUTO 09006KT 9000 NCD 20/19 Q1015=
201908130100 METAR LRTM 130100Z AUTO 10005KT 8000 NCD 20/18 Q1015=
201908130130 METAR LRTM 130130Z AUTO 09006KT 9999 NCD 20/18 Q1015=
201908130200 METAR LRTM 130200Z AUTO 10005KT 9999 NCD 20/18 Q1015=
201908130230 METAR LRTM 130230Z AUTO 11005KT 9999 NCD 19/18 Q1015=
201908130300 METAR LRTM 130300Z AUTO 11004KT 9999 NCD 19/17 Q1015=
201908130330 METAR LRTM 130330Z 09005KT CAVOK 18/17 Q1015=
201908130400 METAR LRTM 130400Z 10004KT 070V130 9000 MIFG FEW011 19/18
                        Q1015=
201908130430 METAR LRTM 130430Z 09005KT 9000 MIFG FEW011 20/18 Q1015=
201908130500 METAR LRTM 130500Z 10006KT 8000 MIFG FEW012 21/19 Q1015=
201908130530 METAR LRTM 130530Z 11004KT 9000 FEW012 23/19 Q1015=
201908130600 METAR LRTM 130600Z 10003KT 060V120 CAVOK 24/20 Q1015=
201908130630 METAR LRTM 130630Z 09005KT 060V140 CAVOK 26/18 Q1015=
201908130700 METAR LRTM 130700Z 08005KT CAVOK 27/18 Q1015=
201908130730 METAR LRTM 130730Z 10005KT 040V150 CAVOK 28/17 Q1015=
201908130800 METAR LRTM 130800Z 08004KT 030V140 CAVOK 29/18 Q1015=
201908130830 METAR LRTM 130830Z 09005KT 060V150 CAVOK 29/17 Q1015=
201908130900 METAR LRTM 130900Z 09006KT 060V130 CAVOK 30/18 Q1014=
201908130930 METAR LRTM 130930Z 09006KT 050V140 CAVOK 31/18 Q1014=
201908131000 METAR LRTM 131000Z 08006KT 020V120 CAVOK 31/18 Q1014=
201908131030 METAR LRTM 131030Z VRB04KT CAVOK 32/17 Q1014=
201908131100 METAR LRTM 131100Z 15005KT 110V200 CAVOK 32/17 Q1013=
201908131130 METAR LRTM 131130Z VRB04KT CAVOK 33/17 Q1013=
201908131200 METAR LRTM 131200Z 10004KT 030V170 CAVOK 33/17 Q1013=
201908131230 METAR LRTM 131230Z VRB03KT CAVOK 34/17 Q1013=
201908131300 METAR LRTM 131300Z VRB03KT CAVOK 34/18 Q1012=
201908131330 METAR LRTM 131330Z VRB03KT CAVOK 34/17 Q1012=
201908131400 METAR LRTM 131400Z 12003KT 080V220 CAVOK 33/16 Q1012=
201908131430 METAR LRTM 131430Z 10003KT 040V170 CAVOK 34/16 Q1012=
201908131500 METAR LRTM 131500Z VRB02KT CAVOK 34/16 Q1012=
201908131530 METAR LRTM 131530Z 00000KT 9999 FEW045TCU 35/17 Q1011=
201908131600 METAR LRTM 131600Z 00000KT 9999 FEW045CB 35/17 Q1011=
201908131630 METAR LRTM 131630Z 33002KT 9999 FEW045CB 33/18 Q1011=
201908131700 METAR LRTM 131700Z 34002KT 9999 FEW045CB 31/19 Q1011=
201908131730 METAR LRTM 131730Z AUTO 00000KT 9999 NCD 28/20 Q1012=
201908131800 METAR LRTM 131800Z AUTO 34005KT 9999 NCD 25/20 Q1012=
201908131830 METAR LRTM 131830Z AUTO 35003KT 9999 NCD 23/19 Q1012=
201908131900 METAR LRTM 131900Z AUTO 10003KT 9999 NCD 23/19 Q1012=
201908131930 METAR LRTM 131930Z AUTO 07003KT 020V100 9999 NCD 23/19 Q1012=
201908132000 METAR LRTM 132000Z AUTO 11004KT 9999 NCD 22/19 Q1012=
201908132030 METAR LRTM 132030Z AUTO 10004KT 9999 NCD 21/19 Q1012=
201908132100 METAR LRTM 132100Z AUTO 10003KT 9999 NCD 21/19 Q1012=
201908132130 METAR LRTM 132130Z AUTO 08005KT 9999 NCD 21/18 Q1012=
201908132200 METAR LRTM 132200Z AUTO 10005KT 9999 NCD 20/18 Q1012=
201908132230 METAR LRTM 132230Z AUTO 09007KT 9999 NCD 20/19 Q1012=
201908132300 METAR LRTM 132300Z AUTO 08006KT 9999 NCD 20/18 Q1012=
201908132330 METAR LRTM 132330Z AUTO 09004KT 9999 NCD 20/18 Q1012=
201908140000 METAR LRTM 140000Z AUTO 11006KT 9999 NCD 19/17 Q1011=
201908140030 METAR LRTM 140030Z AUTO 10007KT 9999 NCD 19/17 Q1011=
201908140100 METAR LRTM 140100Z AUTO 08006KT 9000 NCD 18/17 Q1011=
201908140130 METAR LRTM 140130Z AUTO 10006KT 9999 NCD 19/17 Q1011=
201908140200 METAR LRTM 140200Z AUTO 11004KT 070V140 9999 NCD 19/17 Q1011=
201908140230 METAR LRTM 140230Z AUTO 11004KT 9999 NCD 18/16 Q1011=
201908140300 METAR LRTM 140300Z AUTO 10004KT 9999 NCD 18/16 Q1011=
201908140330 METAR LRTM 140330Z 11004KT CAVOK 17/16 Q1011=
201908140400 METAR LRTM 140400Z 09003KT CAVOK 18/16 Q1011=
201908140430 METAR LRTM 140430Z 10004KT CAVOK 20/17 Q1011=
201908140500 METAR LRTM 140500Z 09005KT CAVOK 20/17 Q1011=
201908140530 METAR LRTM 140530Z 06005KT CAVOK 21/18 Q1010=
201908140600 METAR LRTM 140600Z 08004KT 030V120 CAVOK 23/18 Q1010=
201908140630 METAR LRTM 140630Z 05003KT 300V110 CAVOK 25/18 Q1010=
201908140700 METAR LRTM 140700Z VRB02KT CAVOK 27/17 Q1010=
201908140730 METAR LRTM 140730Z 12005KT 090V160 CAVOK 27/18 Q1010=
201908140800 METAR LRTM 140800Z 14005KT 090V220 CAVOK 28/18 Q1010=
201908140830 METAR LRTM 140830Z 19004KT 130V290 CAVOK 29/18 Q1010=
201908140900 METAR LRTM 140900Z 12004KT 020V170 CAVOK 29/17 Q1010=
201908140930 METAR LRTM 140930Z 15005KT 100V220 9999 FEW033 30/17 Q1009=
201908141000 METAR LRTM 141000Z VRB04KT 9999 FEW036 31/17 Q1009=
201908141030 METAR LRTM 141030Z VRB04KT 9999 FEW036 31/16 Q1009=
201908141100 METAR LRTM 141100Z 21006KT 150V260 9999 FEW038 32/17 Q1009=
201908141130 METAR LRTM 141130Z 21007KT 150V250 9999 FEW038 FEW040CB 32/17
                        Q1009=
201908141200 METAR LRTM 141200Z 20008KT 160V240 9999 FEW040 FEW042CB 32/16
                        Q1009=
201908141230 METAR LRTM 141230Z 24008KT 200V290 9999 FEW040 FEW042TCU
                        32/17 Q1008=
201908141300 METAR LRTM 141300Z 27008KT 250V310 9999 FEW043 FEW045TCU
                        32/17 Q1008=
201908141330 METAR LRTM 141330Z 25006KT 9999 FEW045 SCT047TCU 31/18 Q1008=
201908141400 METAR LRTM 141400Z 23013KT 210V270 9999 FEW045 FEW047TCU
                        FEW048CB 32/18 Q1008=
201908141430 METAR LRTM 141430Z 32015KT 9999 FEW045 FEW047TCU FEW048CB
                        30/18 Q1008=
201908141500 METAR LRTM 141500Z 31012KT 9999 SCT046 FEW048CB 30/18 Q1009=
201908141530 METAR LRTM 141530Z 31011KT 280V340 9999 -SHRA SCT046 FEW048CB
                        29/19 Q1009=
201908141600 METAR LRTM 141600Z 31012KT 280V340 9999 SCT046 FEW048CB 28/19
                        Q1009=
201908141630 METAR LRTM 141630Z 32017KT 9999 SCT046 FEW048CB 26/18 Q1009=
201908141700 METAR LRTM 141700Z 32017KT 9999 FEW046CB 24/17 Q1010=
201908141730 METAR LRTM 141730Z 33010G20KT 270V020 9999 FEW046CB 23/17
                        Q1011=
201908141800 METAR LRTM 141800Z AUTO 32008KT 270V360 9999 FEW026/// BKN046///
                        22/17 Q1012=
201908141830 METAR LRTM 141830Z AUTO 30006KT 270V330 9999 BKN023/// 22/17
                        Q1012=
201908141900 METAR LRTM 141900Z AUTO 31011KT 290V350 9999 FEW022/// BKN045///
                        21/16 Q1013=
201908141930 METAR LRTM 141930Z AUTO 29008KT 260V320 9999 FEW019/// OVC043///
                        20/16 Q1013=
201908142000 METAR LRTM 142000Z AUTO 30007KT 260V340 9999 FEW017/// OVC042///
                        20/16 Q1013=
201908142030 METAR LRTM 142030Z AUTO 28008KT 9999 FEW014/// OVC043///
                        19/15 Q1013=
201908142100 METAR LRTM 142100Z AUTO 26008KT 6000 +SHRA VCTS SCT014///
                        BKN041/// 18/16 Q1014=
201908142130 METAR LRTM 142130Z AUTO 25006KT 7000 +SHRA BKN034/// 17/16
                        Q1014=
201908142200 METAR LRTM 142200Z AUTO 26006KT 8000 +RA FEW005/// BKN036///
                        16/15 Q1014=
201908142230 METAR LRTM 142230Z AUTO 25009KT 9000 RA FEW006/// SCT009///
                        16/15 Q1014=
201908142300 METAR LRTM 142300Z AUTO 24007KT 9999 -RA FEW004/// BKN041///
                        16/15 Q1014=
201908142330 METAR LRTM 142330Z AUTO 26007KT 220V310 9000 +RA BKN045///
                        16/15 Q1013=
201908150000 METAR LRTM 150000Z AUTO 26005KT 9999 -RA FEW009/// BKN045///
                        16/15 Q1014=
201908150030 METAR LRTM 150030Z AUTO 27005KT 250V320 9999 -RA FEW008///
                        BKN043/// 16/15 Q1014=
201908150100 METAR LRTM 150100Z AUTO 24005KT 9999 -RA FEW007/// SCT009///
                        16/15 Q1014=
201908150130 METAR LRTM 150130Z AUTO 33003KT 280V050 9999 RA FEW010///
                        SCT081/// 16/15 Q1013=
201908150200 METAR LRTM 150200Z AUTO 33003KT 290V350 9999 -RA FEW004///
                        BKN083/// 16/14 Q1013=
201908150230 METAR LRTM 150230Z AUTO 36003KT 320V040 9999 -RA FEW009///
                        SCT012/// 16/15 Q1013=
201908150300 METAR LRTM 150300Z AUTO 30003KT 260V340 9999 -RA FEW008///
                        SCT022/// 16/14 Q1013=
201908150330 METAR LRTM 150330Z 27005KT 250V310 9999 BKN007 OVC012 16/14
                        Q1014=
201908150400 METAR LRTM 150400Z 28004KT 240V320 9999 BKN009 BKN011 OVC027
                        16/14 Q1013=
201908150430 METAR LRTM 150430Z 29003KT 260V330 9999 BKN008 OVC023 16/14
                        Q1013=
201908150500 METAR LRTM 150500Z 28004KT 250V320 9999 BKN008 OVC025 16/14
                        Q1014 R07/29//95=
201908150530 METAR LRTM 150530Z 28005KT 9999 BKN007 OVC025 16/14 Q1014
                        R07/29//95=
201908150600 METAR LRTM 150600Z 27006KT 250V310 9999 BKN007 OVC025 16/14
                        Q1014 R07/29//95=
201908150630 METAR LRTM 150630Z 27006KT 9999 BKN007 OVC025 16/14 Q1014
                        R07/29//95=
201908150700 METAR LRTM 150700Z 33004KT 290V010 9999 BKN008 OVC025 16/14
                        Q1014 R07/29//95=
201908150730 METAR LRTM 150730Z 34004KT 310V010 9999 BKN007 OVC025 16/14
                        Q1014 R07/29//95=
201908150800 METAR LRTM 150800Z 28004KT 250V320 9999 BKN008 OVC025 17/14
                        Q1014 R07/29//95=
201908150830 METAR LRTM 150830Z 29004KT 260V330 9999 BKN009 OVC025 17/15
                        Q1014 R07/29//95=
201908150900 METAR LRTM 150900Z 29004KT 240V340 9999 BKN010 OVC026 18/15
                        Q1014 R07/29//95=
201908150930 METAR LRTM 150930Z 29004KT 250V340 9999 BKN012 BKN028 18/15
                        Q1014 R07/CLRD//=
201908151000 METAR LRTM 151000Z VRB02KT 9999 OVC014 18/15 Q1014=
201908151030 METAR LRTM 151030Z 31003KT 220V010 9999 OVC016 19/15 Q1014=
201908151100 METAR LRTM 151100Z 31003KT 250V020 9999 OVC017 20/15 Q1014=
201908151130 METAR LRTM 151130Z 32004KT 260V040 9999 OVC018 20/15 Q1013=
201908151200 METAR LRTM 151200Z VRB02KT 9999 BKN020 SCT026 21/15 Q1013=
201908151230 METAR LRTM 151230Z 32004KT 220V010 9999 BKN021 BKN031 21/15
                        Q1013=
201908151300 METAR LRTM 151300Z VRB01KT 9999 BKN021 BKN033 21/15 Q1013=
201908151330 METAR LRTM 151330Z VRB02KT 9999 SCT026 SCT038 22/15 Q1013=
201908151400 METAR LRTM 151400Z 28003KT 220V360 9999 BKN027 BKN038 21/15
                        Q1013=
201908151430 METAR LRTM 151430Z 28004KT 230V330 9999 BKN027 BKN038 22/15
                        Q1013=
201908151500 METAR LRTM 151500Z 30005KT 9999 BKN027 SCT042 21/15 Q1013=
201908151530 METAR LRTM 151530Z 29005KT 250V330 9999 SCT030 SCT038 21/15
                        Q1013=
201908151600 METAR LRTM 151600Z 28005KT 9999 SCT030 FEW030CB 21/15 Q1013=
201908151630 METAR LRTM 151630Z 29005KT 260V330 9999 SCT025 FEW030CB 21/16
                        Q1013=
201908151700 METAR LRTM 151700Z 30006KT 270V330 9999 SCT025 FEW028CB 20/16
                        Q1013=
201908151730 METAR LRTM 151730Z AUTO 31007KT 270V340 9999 BKN032/// SCT046///
                        19/16 Q1014=
201908151800 METAR LRTM 151800Z AUTO 30005KT 250V330 9999 BKN042/// 18/16
                        Q1014=
201908151830 METAR LRTM 151830Z AUTO 30004KT 260V330 9999 BKN033/// SCT042///
                        18/15 Q1014=
201908151900 METAR LRTM 151900Z AUTO 30005KT 260V350 9999 BKN035/// BKN068///
                        18/15 Q1014=
201908151930 METAR LRTM 151930Z AUTO 30005KT 260V330 9999 SCT035/// BKN075///
                        18/15 Q1014=
201908152000 METAR LRTM 152000Z AUTO 27005KT 230V320 9999 SCT035/// BKN049///
                        18/15 Q1015=
201908152030 METAR LRTM 152030Z AUTO 25006KT 9999 -SHRA SCT037/// BKN048///
                        17/15 Q1015=
201908152100 METAR LRTM 152100Z AUTO 27006KT 240V310 9999 FEW037/// BKN047///
                        17/15 Q1015 RERA=
201908152130 METAR LRTM 152130Z AUTO 26004KT 9999 BKN026/// SCT060///
                        17/15 Q1015 REDZ=
201908152200 METAR LRTM 152200Z AUTO 26004KT 240V300 9999 BKN028/// SCT063///
                        17/15 Q1015=
201908152230 METAR LRTM 152230Z AUTO 26004KT 240V310 9999 OVC060/// 17/15
                        Q1015=
201908152300 METAR LRTM 152300Z AUTO 28006KT 9999 SCT030/// OVC059///
                        17/15 Q1015=
201908152330 METAR LRTM 152330Z AUTO 28005KT 240V330 9999 FEW039/// OVC057///
                        17/15 Q1015=
201908160000 METAR LRTM 160000Z AUTO 27005KT 240V300 9999 FEW009/// OVC055///
                        16/15 Q1015=
201908160030 METAR LRTM 160030Z AUTO 28004KT 250V310 9999 FEW041/// OVC055///
                        17/15 Q1015=
201908160100 METAR LRTM 160100Z AUTO 26004KT 9999 FEW011/// SCT038///
                        OVC054/// 16/15 Q1015=
201908160130 METAR LRTM 160130Z AUTO 27004KT 240V310 9999 RA FEW048///
                        SCT061/// 16/15 Q1014=
201908160200 METAR LRTM 160200Z AUTO 29005KT 260V320 9999 OVC046/// 16/14
                        Q1015 RERA=
201908160230 METAR LRTM 160230Z AUTO 28004KT 240V340 9999 OVC048/// 16/14
                        Q1015 REDZ=
201908160300 METAR LRTM 160300Z AUTO 28004KT 240V360 9999 -DZ BKN044///
                        BKN057/// 16/14 Q1015=
201908160330 METAR LRTM 160330Z AUTO 30005KT 270V330 9999 SCT044/// SCT058///
                        16/14 Q1015 REDZ=
201908160400 METAR LRTM 160400Z AUTO 28004KT 260V330 9999 FEW046/// BKN062///
                        16/14 Q1015=
201908160430 METAR LRTM 160430Z AUTO 29003KT 250V340 9999 SCT063/// SCT080///
                        16/14 Q1015=
201908160500 METAR LRTM 160500Z 30005KT 260V340 9999 FEW004 16/14 Q1015=
201908160530 METAR LRTM 160530Z 28004KT 230V320 9999 FEW004 SCT036 16/14
                        Q1015=
201908160600 METAR LRTM 160600Z 31004KT 270V350 9999 FEW005 SCT036 17/14
                        Q1015=
201908160630 METAR LRTM 160630Z 31004KT 290V350 9999 FEW005 SCT032 17/13
                        Q1015 R07/19//95=
201908160700 METAR LRTM 160700Z 28005KT 260V320 9999 FEW008 BKN032 FEW035CB
                        17/13 Q1015 R07/19//95=
201908160730 METAR LRTM 160730Z 27003KT 230V310 9999 FEW012 BKN034 FEW036CB
                        18/14 Q1016 R07/CLRD//=
201908160800 METAR LRTM 160800Z 20003KT 130V240 9999 FEW015 SCT021 BKN034
                        FEW036CB 18/14 Q1016=
201908160830 METAR LRTM 160830Z 19004KT 9999 SCT021 SCT034 FEW036CB 18/14
                        Q1016=
201908160900 METAR LRTM 160900Z 21005KT 150V240 9999 FEW024 SCT034 19/15
                        Q1016=
201908160930 METAR LRTM 160930Z 21005KT 170V260 9999 FEW026 SCT034 20/15
                        Q1016=
201908161000 METAR LRTM 161000Z 17005KT 140V220 9999 SCT028 20/14 Q1015=
201908161030 METAR LRTM 161030Z 18006KT 130V210 9999 SCT028 21/14 Q1015=
201908161100 METAR LRTM 161100Z 16005KT 110V190 9999 SCT030 FEW032TCU
                        21/14 Q1015=
201908161130 METAR LRTM 161130Z 17005KT 120V240 9999 SCT032 FEW035CB 21/14
                        Q1015=
201908161200 METAR LRTM 161200Z 14006KT 090V190 9999 SCT032 FEW035CB 22/14
                        Q1015=
201908161230 METAR LRTM 161230Z VRB03KT 9999 -SHRA SCT032 SCT033CB 22/14
                        Q1015=
201908161300 METAR LRTM 161300Z 15005KT 120V260 9999 FEW032 SCT034CB 23/15
                        Q1015=
201908161330 METAR LRTM 161330Z 14004KT 9999 SCT033 SCT035CB 21/14 Q1015=
201908161400 METAR LRTM 161400Z 17005KT 9999 SCT035 FEW037CB 22/13 Q1014=
201908161430 METAR LRTM 161430Z 17006KT 9999 SCT035 FEW037CB 22/13 Q1014=
201908161500 METAR LRTM 161500Z 16008KT 9999 SCT035 FEW037CB 21/14 Q1014=
201908161530 METAR LRTM 161530Z 19007KT 9999 VCSH SCT035 SCT037CB 22/14
                        Q1015=
201908161600 METAR LRTM 161600Z 22009KT 9999 VCSH FEW035 SCT037CB 22/14
                        Q1015=
201908161630 METAR LRTM 161630Z 20006KT 9999 FEW037CB 22/14 Q1015=
201908161700 METAR LRTM 161700Z 20007KT 9999 FEW037CB 21/14 Q1015=
201908161730 METAR LRTM 161730Z AUTO 27004KT 230V300 9999 FEW057/// SCT100///
                        20/14 Q1015=
201908161800 METAR LRTM 161800Z AUTO 21004KT 9999 NCD 19/14 Q1015=
201908161830 METAR LRTM 161830Z AUTO VRB01KT 9999 NCD 18/14 Q1016=
201908161900 METAR LRTM 161900Z AUTO 06003KT 9999 NCD 16/14 Q1016=
201908161930 METAR LRTM 161930Z AUTO VRB01KT 9999 NCD 15/14 Q1016=
201908162000 METAR LRTM 162000Z AUTO VRB02KT 9999 NCD 14/13 Q1016=
201908162030 METAR LRTM 162030Z AUTO VRB02KT 9000 R07/1800VP2000D NCD
                        14/13 Q1016=
201908162100 METAR LRTM 162100Z AUTO VRB01KT 9999 NCD 14/13 Q1016=
201908162130 METAR LRTM 162130Z AUTO 00000KT 9999 NCD 13/13 Q1017=
201908162200 METAR LRTM 162200Z AUTO 00000KT 9999 NCD 13/12 Q1017=
201908162230 METAR LRTM 162230Z AUTO 00000KT 3800 R07/1800VP2000U BR NCD
                        12/12 Q1017=
201908162300 METAR LRTM 162300Z AUTO 00000KT 9999 R07/1700VP2000U BCFG
                        NCD 12/11 Q1017=
201908162330 METAR LRTM 162330Z AUTO 00000KT 1000 R07/0900V1400U FG NCD
                        12/12 Q1017=
201908170000 METAR LRTM 170000Z AUTO VRB02KT 4300 R07/0800VP2000U BCFG
                        SCT001/// BKN005/// 12/11 Q1017=
201908170030 METAR LRTM 170030Z AUTO 00000KT 5000 FEW001/// BKN004///
                        13/12 Q1017=
201908170100 METAR LRTM 170100Z AUTO 00000KT 1800 R07/1500VP2000U FG FEW002///
                        SCT003/// 13/13 Q1017=
201908170130 METAR LRTM 170130Z AUTO 00000KT 6000 FEW003/// BKN004///
                        14/13 Q1017=
201908170200 METAR LRTM 170200Z AUTO 10003KT 7000 FEW002/// BKN003///
                        14/13 Q1017=
201908170230 METAR LRTM 170230Z AUTO 09003KT 6000 FEW002/// SCT003///
                        14/13 Q1017=
201908170300 METAR LRTM 170300Z AUTO 06001KT 0550 R07/0650D FG BKN003///
                        SCT004/// 14/14 Q1017=
201908170330 METAR LRTM 170330Z AUTO 06002KT 1100 R07/0900VP2000D FG VV001
                        14/13 Q1017=
201908170400 METAR LRTM 170400Z AUTO 06002KT 0350 R07/0400N +DZ FEW002///
                        14/13 Q1017=
201908170430 METAR LRTM 170430Z AUTO VRB01KT 0800 R07/1100N FG FEW002///
                        14/14 Q1017=
201908170500 METAR LRTM 170500Z 22001KT 0500 R07/0800N FG BKN001 OVC003
                        14/14 Q1017=
201908170530 METAR LRTM 170530Z 00000KT 0700 R07/1200U FG BKN001 OVC003
                        14/14 Q1018=
201908170600 METAR LRTM 170600Z VRB02KT 1200 R07/1400U BR BKN002 OVC004
                        14/14 Q1018 R07/19//95=
201908170630 METAR LRTM 170630Z VRB02KT 1500 BR BKN002 OVC005 15/14 Q1018
                        R07/19//95=
201908170700 METAR LRTM 170700Z 23003KT 160V280 3300 BR BKN003 OVC006
                        15/14 Q1018 R07/19//95=
201908170730 METAR LRTM 170730Z VRB02KT 3500 BR BKN004 OVC007 15/14 Q1018
                        R07/19//95=
201908170800 METAR LRTM 170800Z VRB02KT 7000 FEW001 BKN004 OVC007 16/15
                        Q1018 R07/19//95=
201908170830 METAR LRTM 170830Z 33003KT 270V040 9999 FEW005 SCT009 17/15
                        Q1018 R07/CLRD//=
201908170900 METAR LRTM 170900Z VRB02KT 9999 FEW008 19/14 Q1018=
201908170930 METAR LRTM 170930Z 34003KT 260V060 9999 FEW020 20/14 Q1018=
201908171000 METAR LRTM 171000Z VRB03KT 9999 FEW025 21/13 Q1017=
201908171030 METAR LRTM 171030Z VRB03KT 9999 FEW033 22/13 Q1017=
201908171100 METAR LRTM 171100Z 23004KT 180V290 9999 SCT047 23/13 Q1017=
201908171130 METAR LRTM 171130Z VRB04KT 9999 SCT047 24/13 Q1017=
201908171200 METAR LRTM 171200Z 35004KT 300V030 CAVOK 23/11 Q1016=
201908171230 METAR LRTM 171230Z VRB05KT CAVOK 25/12 Q1016=
201908171300 METAR LRTM 171300Z 26007KT 230V290 CAVOK 25/11 Q1016=
201908171330 METAR LRTM 171330Z VRB06G16KT CAVOK 25/12 Q1016=
201908171400 METAR LRTM 171400Z 31006KT 260V350 CAVOK 24/10 Q1016=
201908171430 METAR LRTM 171430Z 34006KT 260V020 CAVOK 25/10 Q1016=
201908171500 METAR LRTM 171500Z 32008KT 280V360 CAVOK 25/09 Q1016=
201908171530 METAR LRTM 171530Z 33005KT CAVOK 24/10 Q1016=
201908171600 METAR LRTM 171600Z 33006KT 300V360 CAVOK 24/11 Q1016=
201908171630 METAR LRTM 171630Z 35004KT CAVOK 23/11 Q1016=
201908171700 METAR LRTM 171700Z 35003KT CAVOK 22/12 Q1016=
201908171730 METAR LRTM 171730Z AUTO VRB02KT 9999 NCD 19/13 Q1016=
201908171800 METAR LRTM 171800Z AUTO 22002KT 9999 NCD 17/14 Q1016=
201908171830 METAR LRTM 171830Z AUTO 34002KT 9999 NCD 16/14 Q1016=
201908171900 METAR LRTM 171900Z AUTO 35001KT 9999 SCT073/// 15/13 Q1016=
201908171930 METAR LRTM 171930Z AUTO 00000KT 9999 BKN067/// 15/12 Q1016=
201908172000 METAR LRTM 172000Z AUTO 34002KT 9999 SCT064/// 15/13 Q1017=
201908172030 METAR LRTM 172030Z AUTO 00000KT 9999 FEW064/// 14/13 Q1017=
201908172100 METAR LRTM 172100Z AUTO VRB02KT 9999 NCD 13/12 Q1017=
201908172130 METAR LRTM 172130Z AUTO 11003KT 9999 SCT070/// 13/12 Q1017=
201908172200 METAR LRTM 172200Z AUTO 10003KT 9999 SCT070/// 13/12 Q1017=
201908172230 METAR LRTM 172230Z AUTO 08004KT 9999 FEW078/// 13/11 Q1017=
201908172300 METAR LRTM 172300Z AUTO 10004KT 9999 FEW082/// 12/11 Q1017=
201908172330 METAR LRTM 172330Z AUTO 10004KT 9999 NCD 13/12 Q1017=
201908180000 METAR LRTM 180000Z AUTO 10006KT 9999 NCD 13/12 Q1017=
201908180030 METAR LRTM 180030Z AUTO 10003KT 9999 NCD 12/11 Q1017=
201908180100 METAR LRTM 180100Z AUTO 10003KT 8000 NCD 11/11 Q1017=
201908180130 METAR LRTM 180130Z AUTO 10004KT 9000 NCD 11/10 Q1017=
201908180200 METAR LRTM 180200Z AUTO 10004KT 7000 NCD 11/10 Q1017=
201908180230 METAR LRTM 180230Z AUTO 09005KT 6000 NCD 11/10 Q1017=
201908180300 METAR LRTM 180300Z AUTO 09004KT 9999 SCT059/// 12/11 Q1017=
201908180330 METAR LRTM 180330Z 10005KT 9000 MIFG FEW011 12/11 Q1017=
201908180400 METAR LRTM 180400Z 10004KT 8000 MIFG FEW011 12/11 Q1018=
201908180430 METAR LRTM 180430Z 09005KT 8000 MIFG FEW012 13/12 Q1018=
201908180500 METAR LRTM 180500Z 10004KT 8000 MIFG FEW012 13/12 Q1018=
201908180530 METAR LRTM 180530Z 08005KT 7000 FEW010 14/12 Q1018=
201908180600 METAR LRTM 180600Z 06004KT 7000 FEW010 15/13 Q1018=
201908180630 METAR LRTM 180630Z 06003KT 360V120 9000 FEW011 17/14 Q1018=
201908180700 METAR LRTM 180700Z VRB01KT 9000 FEW012 18/14 Q1018=
201908180730 METAR LRTM 180730Z VRB02KT 9999 FEW021 19/14 Q1018=
201908180800 METAR LRTM 180800Z VRB02KT 9999 FEW022 21/14 Q1018=
201908180830 METAR LRTM 180830Z VRB02KT 9999 FEW024 22/15 Q1018=
201908180900 METAR LRTM 180900Z VRB02KT 9999 FEW025 23/14 Q1018=
201908180930 METAR LRTM 180930Z VRB03KT 9999 FEW025 24/14 Q1018=
201908181000 METAR LRTM 181000Z VRB02KT 9999 SCT027 25/14 Q1018=
201908181030 METAR LRTM 181030Z 24004KT 160V330 9999 SCT030 25/13 Q1018=
201908181100 METAR LRTM 181100Z VRB02KT 9999 SCT033 25/14 Q1018=
201908181130 METAR LRTM 181130Z 25003KT 180V340 9999 SCT034 26/14 Q1017=
201908181200 METAR LRTM 181200Z VRB01KT 9999 SCT036 25/13 Q1017=
201908181230 METAR LRTM 181230Z VRB03KT 9999 SCT036 27/13 Q1017=
201908181300 METAR LRTM 181300Z VRB03KT 9999 SCT037 27/12 Q1017=
201908181330 METAR LRTM 181330Z 08004KT 030V150 9999 SCT037 27/12 Q1017=
201908181400 METAR LRTM 181400Z VRB03KT 9999 FEW037 28/12 Q1017=
201908181430 METAR LRTM 181430Z 24004KT 200V290 9999 FEW037 27/12 Q1017=
201908181500 METAR LRTM 181500Z 22004KT 180V250 9999 FEW038 27/13 Q1017=
201908181530 METAR LRTM 181530Z 24004KT 200V260 9999 FEW038 26/14 Q1017=
201908181600 METAR LRTM 181600Z AUTO 24004KT 9999 NCD 24/15 Q1017=
201908181630 METAR LRTM 181630Z AUTO 24003KT 9999 NCD 25/14 Q1017=
201908181700 METAR LRTM 181700Z AUTO 22002KT 9999 FEW095/// 23/17 Q1017=
201908181730 METAR LRTM 181730Z AUTO 00000KT 9999 BKN092/// 22/16 Q1017=
201908181800 METAR LRTM 181800Z AUTO 00000KT 9999 OVC091/// 21/17 Q1017=
201908181830 METAR LRTM 181830Z AUTO VRB01KT 9999 OVC089/// 21/17 Q1017=
201908181900 METAR LRTM 181900Z AUTO 08003KT 050V110 9999 FEW085/// 19/16
                        Q1017=
201908181930 METAR LRTM 181930Z AUTO 11002KT 9999 SCT083/// 18/15 Q1017=
201908182000 METAR LRTM 182000Z AUTO 08004KT 9999 BKN083/// 17/15 Q1018=
201908182030 METAR LRTM 182030Z AUTO 09004KT 9999 FEW089/// 16/14 Q1018=
201908182100 METAR LRTM 182100Z AUTO 10007KT 9999 SCT087/// 17/14 Q1018=
201908182130 METAR LRTM 182130Z AUTO 10004KT 9999 SCT088/// 16/14 Q1018=
201908182200 METAR LRTM 182200Z AUTO 09004KT 9999 NCD 15/14 Q1018=
201908182230 METAR LRTM 182230Z AUTO 11003KT 080V140 9999 NCD 15/14 Q1018=
201908182300 METAR LRTM 182300Z AUTO 10004KT 9999 NCD 15/14 Q1018=
201908182330 METAR LRTM 182330Z AUTO 09004KT 9999 NCD 15/13 Q1018=
201908190000 METAR LRTM 190000Z AUTO 09006KT 9999 NCD 15/14 Q1018=
201908190030 METAR LRTM 190030Z AUTO 10006KT 9999 NCD 15/13 Q1018=
201908190100 METAR LRTM 190100Z AUTO 10004KT 9999 NCD 13/12 Q1019=
201908190130 METAR LRTM 190130Z AUTO 10004KT 9999 NCD 14/13 Q1019=
201908190200 METAR LRTM 190200Z AUTO 09005KT 9999 NCD 13/12 Q1019=
201908190230 METAR LRTM 190230Z AUTO 09004KT 9999 NCD 13/12 Q1019=
201908190300 METAR LRTM 190300Z AUTO 10004KT 9999 NCD 13/12 Q1019=
201908190330 METAR LRTM 190330Z 10005KT 8000 FEW008 14/12 Q1019=
201908190400 METAR LRTM 190400Z 09004KT 8000 FEW010 13/12 Q1019=
201908190430 METAR LRTM 190430Z 09005KT 8000 SCT010 14/13 Q1020=
201908190500 METAR LRTM 190500Z 08005KT 8000 SCT010 15/13 Q1020=
201908190530 METAR LRTM 190530Z 08004KT 8000 SCT009 16/14 Q1020=
201908190600 METAR LRTM 190600Z 09004KT 040V110 9000 FEW012 18/14 Q1020=
201908190630 METAR LRTM 190630Z 07004KT CAVOK 19/15 Q1020=
201908190700 METAR LRTM 190700Z 09004KT 050V130 CAVOK 21/16 Q1020=
201908190730 METAR LRTM 190730Z VRB02KT CAVOK 22/14 Q1020=
201908190800 METAR LRTM 190800Z VRB02KT CAVOK 23/15 Q1020=
201908190830 METAR LRTM 190830Z VRB01KT CAVOK 23/16 Q1020=
201908190900 METAR LRTM 190900Z 21004KT 150V280 9999 FEW023 25/17 Q1020=
201908190930 METAR LRTM 190930Z VRB01KT 9999 FEW025 26/15 Q1020=
201908191000 METAR LRTM 191000Z 29004KT 220V360 9999 FEW025 27/16 Q1019=
201908191030 METAR LRTM 191030Z VRB02KT 9999 FEW035 28/15 Q1019=
201908191100 METAR LRTM 191100Z VRB03KT 9999 FEW045 28/14 Q1019=
201908191130 METAR LRTM 191130Z 29004KT 230V350 9999 FEW045 28/14 Q1019=
201908191200 METAR LRTM 191200Z VRB03KT CAVOK 29/14 Q1019=
201908191230 METAR LRTM 191230Z VRB05KT CAVOK 29/14 Q1019=
201908191300 METAR LRTM 191300Z VRB03KT CAVOK 29/14 Q1019=
201908191330 METAR LRTM 191330Z VRB03KT CAVOK 29/14 Q1019=
201908191400 METAR LRTM 191400Z 24003KT 150V290 CAVOK 29/15 Q1019=
201908191430 METAR LRTM 191430Z 21003KT 150V260 CAVOK 30/15 Q1019=
201908191500 METAR LRTM 191500Z 18003KT 130V260 CAVOK 30/15 Q1019=
201908191530 METAR LRTM 191530Z 00000KT CAVOK 30/15 Q1018=
201908191600 METAR LRTM 191600Z VRB02KT CAVOK 29/15 Q1019=
201908191630 METAR LRTM 191630Z VRB01KT CAVOK 29/14 Q1019=
201908191700 METAR LRTM 191700Z 00000KT CAVOK 27/19 Q1019=
201908191730 METAR LRTM 191730Z 00000KT CAVOK 24/17 Q1019=
201908191800 METAR LRTM 191800Z 00000KT CAVOK 22/18 Q1019=
201908191830 METAR LRTM 191830Z 34003KT 310V020 CAVOK 21/17 Q1019=
201908191900 METAR LRTM 191900Z 08001KT CAVOK 20/17 Q1019=
201908191930 METAR LRTM 191930Z AUTO 00000KT 9999 NCD 19/17 Q1019=
201908192000 METAR LRTM 192000Z AUTO VRB02KT 9999 NCD 18/16 Q1020=
201908192030 METAR LRTM 192030Z AUTO 07002KT 9999 NCD 18/16 Q1020=
201908192100 METAR LRTM 192100Z AUTO 09004KT 9999 NCD 17/15 Q1020=
201908192130 METAR LRTM 192130Z AUTO 09005KT 9999 NCD 17/15 Q1020=
201908192200 METAR LRTM 192200Z AUTO 11004KT 9999 NCD 17/16 Q1020=
201908192230 METAR LRTM 192230Z AUTO 10004KT 9999 NCD 17/16 Q1020=
201908192300 METAR LRTM 192300Z AUTO 10005KT 9000 NCD 17/15 Q1020=
201908192330 METAR LRTM 192330Z AUTO 10005KT 9999 NCD 17/16 Q1020=
201908200000 METAR LRTM 200000Z AUTO 10004KT 9000 NCD 17/16 Q1020=
201908200030 METAR LRTM 200030Z AUTO 09004KT 9000 NCD 16/15 Q1020=
201908200100 METAR LRTM 200100Z AUTO 09004KT 8000 NCD 16/15 Q1020=
201908200130 METAR LRTM 200130Z AUTO 10005KT 7000 NCD 16/15 Q1020=
201908200200 METAR LRTM 200200Z AUTO 10005KT 9000 NCD 17/15 Q1020=
201908200230 METAR LRTM 200230Z AUTO 09004KT 8000 NCD 16/15 Q1020=
201908200300 METAR LRTM 200300Z AUTO 10006KT 6000 NCD 14/14 Q1021=
201908200330 METAR LRTM 200330Z AUTO 10005KT 9000 NCD 16/15 Q1021=
201908200400 METAR LRTM 200400Z AUTO 10005KT 8000 NCD 16/15 Q1021=
201908200430 METAR LRTM 200430Z AUTO 10005KT 7000 NCD 17/15 Q1021=
201908200500 METAR LRTM 200500Z 10004KT 5000 BR FEW008 17/16 Q1021=
201908200530 METAR LRTM 200530Z 07005KT 8000 FEW009 18/16 Q1022=
201908200600 METAR LRTM 200600Z 06004KT 030V100 9999 FEW010 20/17 Q1021=
201908200630 METAR LRTM 200630Z VRB02KT 9999 FEW011 22/17 Q1022=
201908200700 METAR LRTM 200700Z VRB03KT CAVOK 23/18 Q1022=
201908200730 METAR LRTM 200730Z VRB03KT CAVOK 24/18 Q1022=
201908200800 METAR LRTM 200800Z VRB02KT CAVOK 26/18 Q1022=
201908200830 METAR LRTM 200830Z VRB01KT CAVOK 27/17 Q1022=
201908200900 METAR LRTM 200900Z VRB03KT 9999 FEW034 28/17 Q1021=
201908200930 METAR LRTM 200930Z VRB03KT 9999 FEW035 29/17 Q1021=
201908201000 METAR LRTM 201000Z VRB03KT 9999 FEW035 29/17 Q1021=
201908201030 METAR LRTM 201030Z VRB02KT 9999 FEW036 29/16 Q1021=
201908201100 METAR LRTM 201100Z VRB04KT 9999 FEW037 30/18 Q1021=
201908201130 METAR LRTM 201130Z VRB03KT 9999 FEW037 30/18 Q1020=
201908201200 METAR LRTM 201200Z VRB03KT 9999 FEW037 31/17 Q1020=
201908201230 METAR LRTM 201230Z VRB04KT 9999 FEW037 30/16 Q1020=
201908201300 METAR LRTM 201300Z 23004KT 150V270 9999 FEW037 31/17 Q1020=
201908201330 METAR LRTM 201330Z VRB02KT 9999 FEW037 31/16 Q1020=
201908201400 METAR LRTM 201400Z VRB03KT 9999 FEW037 31/17 Q1020=
201908201430 METAR LRTM 201430Z VRB02KT 9999 FEW038 31/17 Q1020=
201908201500 METAR LRTM 201500Z VRB01KT 9999 FEW038 32/17 Q1020=
201908201530 METAR LRTM 201530Z 24004KT 9999 FEW040TCU 31/17 Q1020=
201908201600 METAR LRTM 201600Z 24003KT 200V260 9999 FEW040TCU 31/18 Q1020=
201908201630 METAR LRTM 201630Z 25002KT 9999 FEW040TCU 30/18 Q1020=
201908201700 METAR LRTM 201700Z 25001KT 9999 FEW042TCU 29/18 Q1020=
201908201730 METAR LRTM 201730Z AUTO 00000KT 9999 NCD 26/19 Q1020=
201908201800 METAR LRTM 201800Z AUTO 00000KT 9999 NCD 23/19 Q1020=
201908201830 METAR LRTM 201830Z AUTO VRB01KT 9999 NCD 22/18 Q1020=
201908201900 METAR LRTM 201900Z AUTO 08004KT 9999 NCD 21/18 Q1021=
201908201930 METAR LRTM 201930Z AUTO 08005KT 9999 NCD 20/17 Q1021=
201908202000 METAR LRTM 202000Z AUTO 07004KT 9999 NCD 20/18 Q1021=
201908202030 METAR LRTM 202030Z AUTO 09005KT 9999 NCD 20/17 Q1021=
201908202100 METAR LRTM 202100Z AUTO 09004KT 9999 NCD 20/17 Q1021=
201908202130 METAR LRTM 202130Z AUTO 09005KT 9999 NCD 19/17 Q1021=
201908202200 METAR LRTM 202200Z AUTO 10004KT 9999 OVC086/// 20/18 Q1021=
201908202230 METAR LRTM 202230Z AUTO 10004KT 9999 BKN084/// 20/18 Q1021=
201908202300 METAR LRTM 202300Z AUTO 10004KT 9999 FEW084/// 19/18 Q1021=
201908202330 METAR LRTM 202330Z AUTO 09005KT 9999 NCD 19/18 Q1021=
201908210000 METAR LRTM 210000Z AUTO 09005KT 9999 NCD 19/17 Q1021=
201908210030 METAR LRTM 210030Z AUTO 10003KT 9999 NCD 19/17 Q1021=
201908210100 METAR LRTM 210100Z AUTO 11003KT 080V140 9000 NCD 18/17 Q1021=
201908210130 METAR LRTM 210130Z AUTO 09005KT 8000 NCD 17/16 Q1021=
201908210200 METAR LRTM 210200Z AUTO 09006KT 9999 NCD 18/17 Q1021=
201908210230 METAR LRTM 210230Z AUTO 09005KT 9000 NCD 18/17 Q1021=
201908210300 METAR LRTM 210300Z AUTO 09005KT 9999 NCD 17/16 Q1021=
201908210330 METAR LRTM 210330Z 09005KT 8000 FEW001 SCT012 17/16 Q1021=
201908210400 METAR LRTM 210400Z 10005KT 9000 SCT012 18/16 Q1021=
201908210430 METAR LRTM 210430Z 09004KT 9000 FEW012 18/17 Q1021=
201908210500 METAR LRTM 210500Z 09005KT 9000 FEW015 19/17 Q1022=
201908210530 METAR LRTM 210530Z 08004KT 050V110 9000 FEW015 20/17 Q1022=
201908210600 METAR LRTM 210600Z 07004KT 020V100 9000 FEW015 21/18 Q1022=
201908210630 METAR LRTM 210630Z 06003KT 020V100 CAVOK 23/18 Q1022=
201908210700 METAR LRTM 210700Z 08003KT 030V130 CAVOK 25/17 Q1022=
201908210730 METAR LRTM 210730Z VRB03KT CAVOK 26/16 Q1022=
201908210800 METAR LRTM 210800Z 14003KT 060V210 CAVOK 27/13 Q1022=
201908210830 METAR LRTM 210830Z VRB02KT 9999 FEW023 29/16 Q1022=
201908210900 METAR LRTM 210900Z VRB03KT 9999 FEW023 29/16 Q1021=
201908210930 METAR LRTM 210930Z VRB03KT 9999 FEW025 29/17 Q1021=
201908211000 METAR LRTM 211000Z 18004KT 140V280 9999 FEW025 30/16 Q1021=
201908211030 METAR LRTM 211030Z VRB03KT 9999 FEW025 30/15 Q1021=
201908211100 METAR LRTM 211100Z VRB03KT 9999 FEW033 31/15 Q1021=
201908211130 METAR LRTM 211130Z 22004KT 160V270 9999 FEW038 31/16 Q1021=
201908211200 METAR LRTM 211200Z VRB04KT 9999 FEW042 31/15 Q1020=
201908211230 METAR LRTM 211230Z 22005KT 180V290 9999 FEW046 32/16 Q1020=
201908211300 METAR LRTM 211300Z VRB02KT CAVOK 32/16 Q1020=
201908211330 METAR LRTM 211330Z VRB03KT CAVOK 32/17 Q1019=
201908211400 METAR LRTM 211400Z 28004KT 200V350 CAVOK 32/16 Q1019=
201908211430 METAR LRTM 211430Z VRB03KT CAVOK 32/15 Q1019=
201908211500 METAR LRTM 211500Z 22004KT 190V260 CAVOK 32/17 Q1019=
201908211530 METAR LRTM 211530Z 24003KT CAVOK 32/17 Q1019=
201908211600 METAR LRTM 211600Z 25004KT CAVOK 31/18 Q1019=
201908211630 METAR LRTM 211630Z 26003KT 240V300 CAVOK 31/18 Q1019=
201908211700 METAR LRTM 211700Z 27004KT CAVOK 30/17 Q1019=
201908211730 METAR LRTM 211730Z VRB02KT 9999 FEW055CB 28/19 Q1019=
201908211800 METAR LRTM 211800Z AUTO 20003KT 9999 NCD 25/19 Q1019=
201908211830 METAR LRTM 211830Z AUTO VRB01KT 9999 NCD 25/19 Q1020=
201908211900 METAR LRTM 211900Z AUTO VRB02KT 8000 SCT089/// 23/19 Q1020=
201908211930 METAR LRTM 211930Z AUTO 11006KT 9999 SCT083/// 23/18 Q1020=
201908212000 METAR LRTM 212000Z AUTO VRB02KT 9999 SCT096/// 24/18 Q1020=
201908212030 METAR LRTM 212030Z AUTO VRB01KT 9999 SCT096/// SCT120///
                        23/18 Q1020=
201908212100 METAR LRTM 212100Z AUTO VRB02KT 9999 BKN088/// 23/19 Q1021=
201908212130 METAR LRTM 212130Z AUTO VRB01KT 9999 -SHRA OVC080/// 23/19
                        Q1021=
201908212200 METAR LRTM 212200Z AUTO 01003KT 340V140 3000 +SHRA SCT079///
                        21/20 Q1021=
201908212230 METAR LRTM 212230Z AUTO VRB03KT 7000 -SHRA FEW043/// 21/20
                        Q1021=
201908212300 METAR LRTM 212300Z AUTO 36005KT 320V050 8000 SCT062/// SCT130///
                        21/20 Q1021 RERA=
201908212330 METAR LRTM 212330Z AUTO 06003KT 360V160 9999 FEW067/// BKN120///
                        21/20 Q1021=
201908220000 METAR LRTM 220000Z AUTO 06003KT 360V080 8000 OVC120/// 21/19
                        Q1021=
201908220030 METAR LRTM 220030Z AUTO 07005KT 8000 OVC150/// 21/19 Q1021=
201908220100 METAR LRTM 220100Z AUTO 07005KT 9999 OVC150/// 21/19 Q1021=
201908220130 METAR LRTM 220130Z AUTO 07005KT 9000 OVC150/// 20/19 Q1022=
201908220200 METAR LRTM 220200Z AUTO 06005KT 8000 OVC140/// 19/18 Q1022=
201908220230 METAR LRTM 220230Z AUTO 08005KT 8000 OVC130/// 19/18 Q1022=
201908220300 METAR LRTM 220300Z AUTO 08005KT 8000 OVC130/// 19/18 Q1022=
201908220330 METAR LRTM 220330Z AUTO 08006KT 7000 OVC140/// 18/17 Q1022=
201908220400 METAR LRTM 220400Z AUTO 08006KT 7000 OVC140/// 18/17 Q1023=
201908220430 METAR LRTM 220430Z AUTO 09005KT 8000 BKN140/// 19/17 Q1023=
201908220500 METAR LRTM 220500Z 09005KT 8000 FEW012 20/17 Q1023=
201908220530 METAR LRTM 220530Z 06004KT 9000 FEW013 21/17 Q1023=
201908220600 METAR LRTM 220600Z 06004KT 030V090 9000 FEW013 22/17 Q1023=
201908220630 METAR LRTM 220630Z 06004KT 020V090 9000 FEW013 23/17 Q1023=
201908220700 METAR LRTM 220700Z 05004KT 320V110 8000 FEW012 24/17 Q1023=
201908220730 METAR LRTM 220730Z VRB02KT CAVOK 26/17 Q1023=
201908220800 METAR LRTM 220800Z VRB02KT CAVOK 27/18 Q1023=
201908220830 METAR LRTM 220830Z VRB01KT 9999 FEW036 29/16 Q1023=
201908220900 METAR LRTM 220900Z VRB02KT 9999 FEW036 29/17 Q1023=
201908220930 METAR LRTM 220930Z VRB02KT 9999 FEW036TCU 29/14 Q1023=
201908221000 METAR LRTM 221000Z VRB03KT 9999 FEW035 FEW037CB 29/15 Q1023=
201908221030 METAR LRTM 221030Z 13003KT 080V180 9999 FEW035 FEW037CB 30/14
                        Q1022=
201908221100 METAR LRTM 221100Z 19003KT 150V230 9999 FEW035 FEW37CB 31/14
                        Q1022=
201908221130 METAR LRTM 221130Z VRB03KT 9999 FEW036 FEW038CB 30/14 Q1022=
201908221200 METAR LRTM 221200Z VRB03KT 9999 FEW036 FEW038CB 31/14 Q1022=
201908221230 METAR LRTM 221230Z 31004KT 290V350 9999 FEW037 FEW040CB 30/13
                        Q1022=
201908221300 METAR LRTM 221300Z VRB02KT 9999 FEW037 FEW040CB 31/14 Q1021=
201908221330 METAR LRTM 221330Z 23004KT 200V260 9999 FEW040CB 31/14 Q1021=
201908221400 METAR LRTM 221400Z 21003KT 170V240 9999 FEW040CB 30/14 Q1021=
201908221430 METAR LRTM 221430Z 25004KT 9999 FEW042TCU 29/18 Q1021=
201908221500 METAR LRTM 221500Z 25004KT 9999 FEW042 28/18 Q1021=
201908221530 METAR LRTM 221530Z 26004KT 9999 FEW043CB 28/18 Q1022=
201908221600 METAR LRTM 221600Z 28003KT 260V350 9999 FEW043CB 29/17 Q1021=
201908221630 METAR LRTM 221630Z VRB01KT 9999 FEW043CB 29/20 Q1021=
201908221700 METAR LRTM 221700Z 32003KT 260V340 9999 FEW043CB 27/18 Q1022=
201908221730 METAR LRTM 221730Z AUTO 24002KT 9999 NCD 24/20 Q1022=
201908221800 METAR LRTM 221800Z AUTO VRB02KT 9999 NCD 23/18 Q1022=
201908221830 METAR LRTM 221830Z AUTO 00000KT 9000 NCD 22/17 Q1022=
201908221900 METAR LRTM 221900Z AUTO 00000KT 9999 NCD 20/18 Q1023=
201908221930 METAR LRTM 221930Z AUTO VRB01KT 9999 NCD 20/17 Q1023=
201908222000 METAR LRTM 222000Z AUTO 09004KT 9999 NCD 18/16 Q1023=
201908222030 METAR LRTM 222030Z AUTO 07004KT 9999 BKN077/// 20/17 Q1023=
201908222100 METAR LRTM 222100Z AUTO 08004KT 9000 NCD 19/16 Q1023=
201908222130 METAR LRTM 222130Z AUTO 07004KT 9000 NCD 19/16 Q1024=
201908222200 METAR LRTM 222200Z AUTO 10003KT 9000 NCD 18/16 Q1024=
201908222230 METAR LRTM 222230Z AUTO 09005KT 9000 NCD 18/16 Q1024=
201908222300 METAR LRTM 222300Z AUTO 11004KT 9000 NCD 18/16 Q1024=
201908222330 METAR LRTM 222330Z AUTO 10004KT 9000 NCD 18/16 Q1024=
201908230000 METAR LRTM 230000Z AUTO 10004KT 9000 NCD 18/16 Q1024=
201908230030 METAR LRTM 230030Z AUTO 09004KT 9000 NCD 17/15 Q1024=
201908230100 METAR LRTM 230100Z AUTO VRB02KT 9000 NCD 17/15 Q1024=
201908230130 METAR LRTM 230130Z AUTO 09002KT 8000 NCD 16/15 Q1024=
201908230200 METAR LRTM 230200Z AUTO 09003KT 7000 NCD 16/15 Q1024=
201908230230 METAR LRTM 230230Z AUTO VRB01KT 8000 NCD 16/15 Q1024=
201908230300 METAR LRTM 230300Z AUTO 00000KT 8000 NCD 15/14 Q1024=
201908230330 METAR LRTM 230330Z AUTO 00000KT 8000 NCD 15/14 Q1024=
201908230400 METAR LRTM 230400Z AUTO 00000KT 7000 NCD 15/14 Q1024=
201908230430 METAR LRTM 230430Z AUTO 08004KT 7000 NCD 16/15 Q1025=
201908230500 METAR LRTM 230500Z 08004KT 7000 FEW009 17/16 Q1025=
201908230530 METAR LRTM 230530Z 09004KT 8000 FEW009 18/16 Q1025=
201908230600 METAR LRTM 230600Z VRB04KT 9000 FEW010 20/16 Q1025=
201908230630 METAR LRTM 230630Z 08004KT 050V110 9000 FEW012 21/17 Q1025=
201908230700 METAR LRTM 230700Z VRB03KT 9000 FEW015 23/17 Q1025=
201908230730 METAR LRTM 230730Z 18003KT 120V270 9000 NSC 24/17 Q1025=
201908230800 METAR LRTM 230800Z VRB02KT CAVOK 25/17 Q1025=
201908230830 METAR LRTM 230830Z 10004KT 050V170 CAVOK 26/17 Q1025=
201908230900 METAR LRTM 230900Z VRB02KT CAVOK 27/17 Q1025=
201908230930 METAR LRTM 230930Z 09003KT 030V190 CAVOK 27/18 Q1024=
201908231000 METAR LRTM 231000Z VRB02KT CAVOK 28/17 Q1024=
201908231030 METAR LRTM 231030Z VRB02KT CAVOK 29/17 Q1024=
201908231100 METAR LRTM 231100Z VRB02KT 9999 FEW025 29/16 Q1024=
201908231130 METAR LRTM 231130Z VRB04KT 9999 FEW025 29/16 Q1024=
201908231200 METAR LRTM 231200Z 20005KT 130V250 9999 FEW028 30/17 Q1023=
201908231230 METAR LRTM 231230Z 22004KT 150V280 9999 FEW030 30/16 Q1023=
201908231300 METAR LRTM 231300Z VRB04KT 9999 SCT033 31/15 Q1023=
201908231330 METAR LRTM 231330Z 21003KT 140V260 9999 SCT035 31/16 Q1022=
201908231400 METAR LRTM 231400Z 23004KT 190V280 9999 SCT035 FEW038CB 30/16
                        Q1022=
201908231430 METAR LRTM 231430Z VRB03KT 9999 SCT036 FEW040CB 30/16 Q1022=
201908231500 METAR LRTM 231500Z VRB01KT 9999 FEW036 FEW040CB 31/17 Q1022=
201908231530 METAR LRTM 231530Z 00000KT 9999 FEW038 FEW042CB 31/18 Q1022=
201908231600 METAR LRTM 231600Z 00000KT 9999 FEW040 FEW042CB 31/17 Q1022=
201908231630 METAR LRTM 231630Z VRB01KT 9999 FEW040 FEW045CB 30/19 Q1022=
201908231700 METAR LRTM 231700Z 07003KT 9999 FEW048CB 27/17 Q1022=
201908231730 METAR LRTM 231730Z AUTO 05006KT 9999 NCD 26/17 Q1022=
201908231800 METAR LRTM 231800Z AUTO 07007KT 9999 NCD 24/17 Q1022=
201908231830 METAR LRTM 231830Z AUTO 08006KT 9999 NCD 22/17 Q1023=
201908231900 METAR LRTM 231900Z AUTO 08004KT 9999 NCD 22/16 Q1023=
201908231930 METAR LRTM 231930Z AUTO 08006KT 9999 FEW070/// 21/16 Q1023=
201908232000 METAR LRTM 232000Z AUTO 07006KT 9999 FEW069/// 20/16 Q1023=
201908232030 METAR LRTM 232030Z AUTO 07007KT 9999 NCD 19/17 Q1023=
201908232100 METAR LRTM 232100Z AUTO 08006KT 9999 BKN066/// 20/17 Q1023=
201908232130 METAR LRTM 232130Z AUTO 08004KT 9000 SCT066/// 19/17 Q1023=
201908232200 METAR LRTM 232200Z AUTO 11004KT 9000 NCD 19/17 Q1023=
201908232230 METAR LRTM 232230Z AUTO 09005KT 8000 NCD 19/17 Q1023=
201908232300 METAR LRTM 232300Z AUTO 09006KT 8000 NCD 19/17 Q1023=
201908232330 METAR LRTM 232330Z AUTO 09005KT 7000 NCD 18/17 Q1023=
201908240000 METAR LRTM 240000Z AUTO 08007KT 8000 NCD 18/16 Q1023=
201908240030 METAR LRTM 240030Z AUTO 12003KT 090V150 7000 NCD 18/16 Q1024=
201908240100 METAR LRTM 240100Z AUTO 10003KT 7000 NCD 17/16 Q1024=
201908240130 METAR LRTM 240130Z AUTO 09004KT 7000 NCD 16/15 Q1024=
201908240200 METAR LRTM 240200Z AUTO 10006KT 8000 NCD 17/16 Q1024=
201908240230 METAR LRTM 240230Z AUTO 09006KT 9000 NCD 17/16 Q1024=
201908240300 METAR LRTM 240300Z AUTO 09005KT 7000 NCD 16/15 Q1024=
201908240330 METAR LRTM 240330Z AUTO 09005KT 7000 NCD 16/15 Q1024=
201908240400 METAR LRTM 240400Z AUTO 09004KT 8000 NCD 17/15 Q1024=
201908240430 METAR LRTM 240430Z AUTO 08003KT 8000 NCD 17/16 Q1024=
201908240500 METAR LRTM 240500Z 08004KT 8000 FEW011 18/16 Q1024=
201908240530 METAR LRTM 240530Z 08005KT 9000 FEW011 19/16 Q1024=
201908240600 METAR LRTM 240600Z 07005KT 9000 FEW011 20/16 Q1024=
201908240630 METAR LRTM 240630Z 07004KT 040V100 9000 FEW012 21/16 Q1024=
201908240700 METAR LRTM 240700Z 06004KT 020V110 CAVOK 23/16 Q1024=
201908240730 METAR LRTM 240730Z VRB04KT CAVOK 24/16 Q1024=
201908240800 METAR LRTM 240800Z 08006KT 050V120 CAVOK 26/15 Q1024=
201908240830 METAR LRTM 240830Z 10005KT 070V200 CAVOK 26/15 Q1024=
201908240900 METAR LRTM 240900Z 08006KT 040V110 CAVOK 27/15 Q1023=
201908240930 METAR LRTM 240930Z 10005KT 040V140 9999 FEW036 28/16 Q1023=
201908241000 METAR LRTM 241000Z 10007KT 9999 FEW036 29/15 Q1023=
201908241030 METAR LRTM 241030Z 10007KT 070V170 9999 FEW037TCU 29/14 Q1023=
201908241100 METAR LRTM 241100Z 10004KT 360V160 9999 FEW038TCU 29/14 Q1022=
201908241130 METAR LRTM 241130Z 10005KT 040V150 9999 FEW038TCU 30/14 Q1022=
201908241200 METAR LRTM 241200Z 13006KT 090V200 9999 FEW038CB 31/14 Q1022=
201908241230 METAR LRTM 241230Z 12006KT 090V150 9999 FEW038CB 31/13 Q1022=
201908241300 METAR LRTM 241300Z 11005KT 080V160 9999 FEW040CB 31/13 Q1022=
201908241330 METAR LRTM 241330Z VRB05KT 9999 FEW042CB 31/13 Q1021=
201908241400 METAR LRTM 241400Z 09005KT 050V130 9999 FEW043CB 31/14 Q1021=
201908241430 METAR LRTM 241430Z 11005KT 060V150 9999 FEW043CB 31/13 Q1021=
201908241500 METAR LRTM 241500Z 12006KT 9999 FEW044CB 31/12 Q1021=
201908241530 METAR LRTM 241530Z 13005KT 9999 FEW044CB 30/15 Q1021=
201908241600 METAR LRTM 241600Z 12006KT 9999 FEW045CB 30/13 Q1021=
201908241630 METAR LRTM 241630Z 12004KT 9999 FEW045CB 28/16 Q1021=
201908241700 METAR LRTM 241700Z 12004KT 9999 FEW045CB 25/16 Q1021=
201908241730 METAR LRTM 241730Z AUTO VRB02KT 9999 NCD 24/16 Q1021=
201908241800 METAR LRTM 241800Z AUTO 09002KT 7000 NCD 22/16 Q1021=
201908241830 METAR LRTM 241830Z AUTO VRB02KT 9000 NCD 21/17 Q1021=
201908241900 METAR LRTM 241900Z AUTO 11003KT 9999 NCD 21/16 Q1021=
201908241930 METAR LRTM 241930Z AUTO 09005KT 9999 NCD 19/15 Q1022=
201908242000 METAR LRTM 242000Z AUTO 09005KT 9000 NCD 19/16 Q1022=
201908242030 METAR LRTM 242030Z AUTO 10003KT 9000 NCD 19/16 Q1022=
201908242100 METAR LRTM 242100Z AUTO 09003KT 060V130 9000 NCD 18/16 Q1022=
201908242130 METAR LRTM 242130Z AUTO 09006KT 9000 NCD 17/15 Q1022=
201908242200 METAR LRTM 242200Z AUTO 09006KT 8000 NCD 18/16 Q1022=
201908242230 METAR LRTM 242230Z AUTO 10005KT 8000 NCD 18/16 Q1022=
201908242300 METAR LRTM 242300Z AUTO VRB02KT 7000 NCD 18/16 Q1022=
201908242330 METAR LRTM 242330Z AUTO 12003KT 8000 NCD 18/16 Q1022=
201908250000 METAR LRTM 250000Z AUTO 09005KT 9000 NCD 17/15 Q1022=
201908250030 METAR LRTM 250030Z AUTO 10005KT 8000 NCD 16/14 Q1022=
201908250100 METAR LRTM 250100Z AUTO 09004KT 8000 NCD 16/14 Q1022=
201908250130 METAR LRTM 250130Z AUTO 09006KT 9000 NCD 16/14 Q1022=
201908250200 METAR LRTM 250200Z AUTO 09005KT 7000 NCD 16/14 Q1022=
201908250230 METAR LRTM 250230Z AUTO 09006KT 7000 NCD 16/15 Q1022=
201908250300 METAR LRTM 250300Z AUTO 12003KT 090V170 7000 NCD 16/14 Q1022=
201908250330 METAR LRTM 250330Z 10004KT 8000 FEW007 15/14 Q1022=
201908250400 METAR LRTM 250400Z 10003KT 7000 FEW006 15/14 Q1023=
201908250430 METAR LRTM 250430Z 11003KT 7000 FEW008 17/15 Q1023=
201908250500 METAR LRTM 250500Z 09003KT 7000 FEW010 18/15 Q1023=
201908250530 METAR LRTM 250530Z 07005KT 8000 FEW012 19/16 Q1023=
201908250600 METAR LRTM 250600Z 08004KT 9000 FEW012 20/16 Q1023=
201908250630 METAR LRTM 250630Z NIL=
201908250700 METAR LRTM 250700Z 08003KT 010V150 CAVOK 23/16 Q1023=
201908250730 METAR LRTM 250730Z VRB02KT CAVOK 25/16 Q1023=
201908250800 METAR LRTM 250800Z VRB03KT CAVOK 26/16 Q1023=
201908250830 METAR LRTM 250830Z 12004KT 050V180 9999 FEW025 28/16 Q1023=
201908250900 METAR LRTM 250900Z 09005KT 060V140 9999 FEW028 29/16 Q1022=
201908250930 METAR LRTM 250930Z 09008KT 9999 FEW030 30/17 Q1022=
201908251000 METAR LRTM 251000Z 08008KT 050V110 9999 SCT030 30/17 Q1022=
201908251030 METAR LRTM 251030Z 11006KT 9999 SCT032 30/17 Q1022=
201908251100 METAR LRTM 251100Z 12007KT 090V150 9999 BKN034 FEW036CB 31/15
                        Q1021=
201908251130 METAR LRTM 251130Z 15009KT 110V170 9999 BKN034 FEW036CB 32/15
                        Q1021=
201908251200 METAR LRTM 251200Z 15009KT 9999 BKN036 FEW038CB 32/15 Q1021=
201908251230 METAR LRTM 251230Z 12006KT 080V170 9999 BKN036 SCT038CB 32/14
                        Q1020=
201908251300 METAR LRTM 251300Z 10010KT 060V120 9999 BKN038 SCT040CB 32/14
                        Q1020=
201908251330 METAR LRTM 251330Z 11007KT 070V130 9999 BKN040 SCT042CB 31/14
                        Q1020=
201908251400 METAR LRTM 251400Z 12008KT 090V150 9999 BKN042 SCT045CB 31/15
                        Q1020=
201908251430 METAR LRTM 251430Z 12006KT 080V140 9999 SCT042 SCT045CB 30/15
                        Q1020=
201908251500 METAR LRTM 251500Z 15012KT 9999 VCTS SCT042 SCT045CB 30/15
                        Q1020=
201908251530 METAR LRTM 251530Z 14007KT 9999 FEW043 SCT046CB 29/17 Q1020=
201908251600 METAR LRTM 251600Z 10005KT 9999 FEW045 FEW048CB 29/16 Q1020=
201908251630 METAR LRTM 251630Z 11005KT 9999 FEW048CB 28/17 Q1020=
201908251700 METAR LRTM 251700Z 11004KT 9999 FEW050CB 26/18 Q1021=
201908251730 METAR LRTM 251730Z 11003KT 9999 FEW050CB 25/17 Q1021=
201908251800 METAR LRTM 251800Z AUTO 10004KT 070V150 9999 NCD 23/17 Q1021=
201908251830 METAR LRTM 251830Z AUTO VRB01KT 9000 NCD 22/17 Q1022=
201908251900 METAR LRTM 251900Z AUTO 09006KT 9999 NCD 21/17 Q1022=
201908251930 METAR LRTM 251930Z AUTO 09007KT 9999 NCD 20/17 Q1022=
201908252000 METAR LRTM 252000Z AUTO 09007KT 9999 NCD 21/17 Q1022=
201908252030 METAR LRTM 252030Z AUTO 08005KT 9999 NCD 20/17 Q1022=
201908252100 METAR LRTM 252100Z AUTO 11004KT 9999 NCD 20/17 Q1022=
201908252130 METAR LRTM 252130Z AUTO 09005KT 9999 NCD 19/17 Q1022=
201908252200 METAR LRTM 252200Z AUTO 00000KT 7000 NCD 19/17 Q1022=
201908252230 METAR LRTM 252230Z AUTO 11004KT 7000 FEW079/// 19/16 Q1022=
201908252300 METAR LRTM 252300Z AUTO 08005KT 9999 NCD 18/16 Q1022=
201908252330 METAR LRTM 252330Z AUTO VRB01KT 6000 FEW090/// 18/17 Q1022=
201908260000 METAR LRTM 260000Z AUTO VRB01KT 6000 NCD 18/16 Q1022=
201908260030 METAR LRTM 260030Z AUTO 00000KT 5000 FEW093/// 17/16 Q1022=
201908260100 METAR LRTM 260100Z AUTO 00000KT 6000 NCD 17/16 Q1022=
201908260130 METAR LRTM 260130Z AUTO 00000KT 5000 BR FEW097/// 16/15 Q1022=
201908260200 METAR LRTM 260200Z AUTO VRB01KT 6000 SCT089/// 16/16 Q1022=
201908260230 METAR LRTM 260230Z AUTO 09002KT 6000 FEW097/// 16/15 Q1022=
201908260300 METAR LRTM 260300Z AUTO VRB01KT 7000 NCD 16/15 Q1022=
201908260330 METAR LRTM 260330Z AUTO 00000KT 6000 NCD 16/15 Q1023=
201908260400 METAR LRTM 260400Z AUTO 07002KT 7000 NCD 16/15 Q1023=
201908260430 METAR LRTM 260430Z AUTO 00000KT 9000 NCD 17/16 Q1023=
201908260500 METAR LRTM 260500Z 04002KT 8000 FEW012 18/16 Q1023=
201908260530 METAR LRTM 260530Z 08002KT 9000 FEW011 20/17 Q1023=
201908260600 METAR LRTM 260600Z 09003KT 050V130 9000 FEW011 20/17 Q1023=
201908260630 METAR LRTM 260630Z VRB02KT 9999 FEW012 22/17 Q1023=
201908260700 METAR LRTM 260700Z 08003KT 050V130 CAVOK 24/18 Q1023=
201908260730 METAR LRTM 260730Z 07004KT 030V110 CAVOK 25/17 Q1023=
201908260800 METAR LRTM 260800Z 07006KT 030V110 CAVOK 26/16 Q1023=
201908260830 METAR LRTM 260830Z 11005KT 050V170 9999 FEW035 28/16 Q1023=
201908260900 METAR LRTM 260900Z 12006KT 080V180 9999 FEW039TCU 29/16 Q1023=
201908260930 METAR LRTM 260930Z 10004KT 020V190 9999 FEW043CB 29/16 Q1023=
201908261000 METAR LRTM 261000Z VRB02KT 9999 FEW047CB 30/16 Q1022=
201908261030 METAR LRTM 261030Z VRB03KT 9999 FEW047CB 30/17 Q1022=
201908261100 METAR LRTM 261100Z VRB04KT 9999 FEW047CB 31/17 Q1022=
201908261130 METAR LRTM 261130Z 13004KT 080V220 9999 FEW038 FEW046CB 31/16
                        Q1022=
201908261200 METAR LRTM 261200Z 13004KT 9999 FEW038 FEW046CB 32/15 Q1021=
201908261230 METAR LRTM 261230Z 04010KT 350V090 9999 FEW038 FEW045CB 32/15
                        Q1021=
201908261300 METAR LRTM 261300Z 07016KT 9999 FEW045 FEW048CB 31/14 Q1021=
201908261330 METAR LRTM 261330Z 09013KT 9999 FEW045 FEW048CB 31/15 Q1021=
201908261400 METAR LRTM 261400Z 08013KT 9999 FEW045 FEW048CB 30/15 Q1021=
201908261430 METAR LRTM 261430Z 13014KT 100V160 9999 FEW045 FEW048CB 28/16
                        Q1021=
201908261500 METAR LRTM 261500Z 12015KT 9999 FEW048 FEW050CB 27/16 Q1021=
201908261530 METAR LRTM 261530Z 12010KT 9999 FEW052CB 25/16 Q1022=
201908261600 METAR LRTM 261600Z 14008KT 9999 SCT052CB 24/16 Q1022=
201908261630 METAR LRTM 261630Z 17005KT 140V210 9999 SCT052CB 24/17 Q1023=
201908261700 METAR LRTM 261700Z 10003KT 060V160 9999 SCT052CB 23/17 Q1023=
201908261730 METAR LRTM 261730Z AUTO 07004KT 9999 NCD 21/16 Q1023=
201908261800 METAR LRTM 261800Z AUTO 06006KT 9999 NCD 21/17 Q1023=
201908261830 METAR LRTM 261830Z AUTO 08005KT 8000 NCD 19/16 Q1023=
201908261900 METAR LRTM 261900Z AUTO 09007KT 9999 NCD 19/16 Q1023=
201908261930 METAR LRTM 261930Z AUTO 07004KT 9999 FEW160/// 19/16 Q1023=
201908262000 METAR LRTM 262000Z AUTO 11002KT 070V160 9000 FEW160/// 18/16
                        Q1023=
201908262030 METAR LRTM 262030Z AUTO 00000KT 8000 NCD 18/16 Q1022=
201908262100 METAR LRTM 262100Z AUTO 08001KT 9999 NCD 18/16 Q1022=
201908262130 METAR LRTM 262130Z AUTO 09003KT 9999 NCD 18/15 Q1022=
201908262200 METAR LRTM 262200Z AUTO 11004KT 9000 NCD 17/15 Q1022=
201908262230 METAR LRTM 262230Z AUTO 08007KT 8000 NCD 16/15 Q1022=
201908262300 METAR LRTM 262300Z AUTO 11004KT 8000 BKN140/// 17/15 Q1022=
201908262330 METAR LRTM 262330Z AUTO VRB01KT 6000 FEW150/// 16/15 Q1022=
201908270000 METAR LRTM 270000Z AUTO 12002KT 7000 BKN150/// 16/14 Q1022=
201908270030 METAR LRTM 270030Z AUTO 09004KT 7000 SCT150/// 15/14 Q1022=
201908270100 METAR LRTM 270100Z AUTO 10004KT 7000 NCD 15/14 Q1022=
201908270130 METAR LRTM 270130Z AUTO 10005KT 7000 NCD 16/15 Q1022=
201908270200 METAR LRTM 270200Z AUTO 08004KT 7000 NCD 15/14 Q1022=
201908270230 METAR LRTM 270230Z AUTO 10004KT 6000 NCD 15/14 Q1022=
201908270300 METAR LRTM 270300Z AUTO 09003KT 5000 BR FEW089/// 14/14 Q1022=
201908270330 METAR LRTM 270330Z AUTO 10003KT 6000 OVC089/// 14/14 Q1022=
201908270400 METAR LRTM 270400Z AUTO 11004KT 7000 SCT095/// 15/14 Q1023=
201908270430 METAR LRTM 270430Z AUTO 09004KT 7000 FEW085/// 15/14 Q1023=
201908270500 METAR LRTM 270500Z 08005KT 7000 FEW009 16/15 Q1023=
201908270530 METAR LRTM 270530Z 08004KT 050V110 8000 FEW010 17/15 Q1023=
201908270600 METAR LRTM 270600Z 08003KT 330V120 8000 FEW010 19/15 Q1023=
201908270630 METAR LRTM 270630Z 08005KT 040V110 8000 FEW012 20/16 Q1023=
201908270700 METAR LRTM 270700Z 07004KT 020V130 8000 FEW012 21/16 Q1023=
201908270730 METAR LRTM 270730Z 09003KT 010V150 9000 FEW015 23/16 Q1023=
201908270800 METAR LRTM 270800Z 06003KT 360V160 9000 FEW015 25/17 Q1023=
201908270830 METAR LRTM 270830Z VRB02KT CAVOK 26/16 Q1023=
201908270900 METAR LRTM 270900Z 00000KT 9999 FEW025 27/16 Q1023=
201908270930 METAR LRTM 270930Z VRB02KT 9999 FEW025 28/16 Q1023=
201908271000 METAR LRTM 271000Z 10003KT 020V170 9999 FEW028 28/16 Q1023=
201908271030 METAR LRTM 271030Z VRB03KT 9999 FEW030 30/16 Q1022=
201908271100 METAR LRTM 271100Z 07004KT 010V150 9999 FEW030 FEW032CB 29/16
                        Q1022=
201908271130 METAR LRTM 271130Z VRB04KT 9999 FEW033 FEW035CB 30/16 Q1022=
201908271200 METAR LRTM 271200Z 20006KT 170V260 9999 FEW033 FEW035CB 31/15
                        Q1022=
201908271230 METAR LRTM 271230Z 25004KT 180V310 9999 FEW035 FEW038CB 31/16
                        Q1021=
201908271300 METAR LRTM 271300Z VRB02KT 9999 SCT036 FEW038CB 31/15 Q1021=
201908271330 METAR LRTM 271330Z VRB02KT 9999 SCT036 FEW038CB 31/15 Q1021=
201908271400 METAR LRTM 271400Z VRB05KT 9999 SCT038 FEW040CB 31/15 Q1021=
201908271430 METAR LRTM 271430Z VRB04KT 9999 SCT040 FEW042CB 31/14 Q1021=
201908271500 METAR LRTM 271500Z 22004KT 150V280 9999 SCT040 FEW042CB 31/14
                        Q1021=
201908271530 METAR LRTM 271530Z VRB02KT 9999 SCT042 FEW045CB 31/14 Q1020=
201908271600 METAR LRTM 271600Z 23003KT 140V300 9999 SCT042 FEW045CB 30/15
                        Q1020=
201908271630 METAR LRTM 271630Z VRB02KT 9999 SCT045 FEW048CB 29/17 Q1020=
201908271700 METAR LRTM 271700Z VRB02KT 9999 FEW048CB 27/17 Q1021=
201908271730 METAR LRTM 271730Z 00000KT 9999 FEW048CB 24/16 Q1021=
201908271800 METAR LRTM 271800Z VRB02KT 9000 FEW050CB 22/17 Q1021=
201908271830 METAR LRTM 271830Z VRB03KT 9000 NSC 22/17 Q1021=
201908271900 METAR LRTM 271900Z AUTO 09005KT 9999 NCD 20/16 Q1021=
201908271930 METAR LRTM 271930Z AUTO 09003KT 9999 NCD 21/16 Q1022=
201908272000 METAR LRTM 272000Z AUTO 10004KT 9999 NCD 20/16 Q1022=
201908272030 METAR LRTM 272030Z AUTO 09004KT 9000 NCD 19/15 Q1022=
201908272100 METAR LRTM 272100Z AUTO 10003KT 7000 NCD 19/15 Q1022=
201908272130 METAR LRTM 272130Z AUTO 10004KT 9999 FEW120/// 19/16 Q1022=
201908272200 METAR LRTM 272200Z AUTO 10005KT 9999 FEW110/// 18/15 Q1022=
201908272230 METAR LRTM 272230Z AUTO 10004KT 9999 SCT110/// 19/16 Q1022=
201908272300 METAR LRTM 272300Z AUTO 11004KT 9999 NCD 19/16 Q1022=
201908272330 METAR LRTM 272330Z AUTO 10004KT 9999 NCD 18/16 Q1022=
201908280000 METAR LRTM 280000Z AUTO 09005KT 9999 NCD 18/15 Q1022=
201908280030 METAR LRTM 280030Z AUTO 09003KT 9000 NCD 17/15 Q1022=
201908280100 METAR LRTM 280100Z AUTO 11004KT 9999 NCD 17/15 Q1023=
201908280130 METAR LRTM 280130Z AUTO 10004KT 9999 NCD 16/15 Q1023=
201908280200 METAR LRTM 280200Z AUTO 10002KT 070V140 9999 NCD 16/14 Q1023=
201908280230 METAR LRTM 280230Z AUTO 08003KT 040V100 9000 NCD 15/14 Q1023=
201908280300 METAR LRTM 280300Z AUTO 09005KT 9000 NCD 15/14 Q1023=
201908280330 METAR LRTM 280330Z 10005KT CAVOK 15/13 Q1023=
201908280400 METAR LRTM 280400Z 09006KT CAVOK 16/14 Q1023=
201908280430 METAR LRTM 280430Z 09007KT CAVOK 16/14 Q1023=
201908280500 METAR LRTM 280500Z 08006KT CAVOK 17/15 Q1023=
201908280530 METAR LRTM 280530Z 07005KT 9999 FEW007 18/15 Q1023=
201908280600 METAR LRTM 280600Z 08004KT 040V120 CAVOK 20/15 Q1023=
201908280630 METAR LRTM 280630Z 08004KT 050V120 CAVOK 21/15 Q1023=
201908280700 METAR LRTM 280700Z 07003KT 030V100 CAVOK 23/15 Q1023=
201908280730 METAR LRTM 280730Z 10004KT 030V140 CAVOK 25/14 Q1023=
201908280800 METAR LRTM 280800Z 08004KT 020V130 CAVOK 26/15 Q1023=
201908280830 METAR LRTM 280830Z 10004KT 030V150 9999 FEW043 27/14 Q1023=
201908280900 METAR LRTM 280900Z VRB03KT 9999 FEW045 28/15 Q1022=
201908280930 METAR LRTM 280930Z VRB02KT 9999 FEW048 29/15 Q1022=
201908281000 METAR LRTM 281000Z VRB04KT 9999 FEW048 30/14 Q1022=
201908281030 METAR LRTM 281030Z VRB03KT 9999 FEW048 30/13 Q1021=
201908281100 METAR LRTM 281100Z 08003KT 350V130 9999 FEW047 30/13 Q1021=
201908281130 METAR LRTM 281130Z 06004KT 340V110 9999 FEW046 30/13 Q1021=
201908281200 METAR LRTM 281200Z 08002KT 9999 FEW044 30/12 Q1021=
201908281230 METAR LRTM 281230Z 11003KT 050V190 9999 FEW044 30/12 Q1020=
201908281300 METAR LRTM 281300Z VRB02KT 9999 FEW044 32/14 Q1020=
201908281330 METAR LRTM 281330Z VRB02KT 9999 FEW044 32/13 Q1020=
201908281400 METAR LRTM 281400Z 24003KT 160V320 9999 FEW044 FEW046TCU
                        32/12 Q1020=
201908281430 METAR LRTM 281430Z VRB02KT 9999 FEW044 FEW046TCU 32/12 Q1019=
201908281500 METAR LRTM 281500Z VRB01KT 9999 FEW044 FEW047TCU 32/12 Q1019=
201908281530 METAR LRTM 281530Z 13003KT 080V190 9999 FEW045 31/12 Q1019=
201908281600 METAR LRTM 281600Z 14003KT 9999 FEW045 31/13 Q1019=
201908281630 METAR LRTM 281630Z 15004KT 9999 FEW045 28/15 Q1020=
201908281700 METAR LRTM 281700Z 15004KT CAVOK 25/15 Q1020=
201908281730 METAR LRTM 281730Z 36003KT CAVOK 23/16 Q1020=
201908281800 METAR LRTM 281800Z AUTO 07003KT 9999 NCD 22/15 Q1020=
201908281830 METAR LRTM 281830Z AUTO VRB01KT 9999 NCD 21/15 Q1020=
201908281900 METAR LRTM 281900Z AUTO VRB01KT 9999 NCD 19/15 Q1020=
201908281930 METAR LRTM 281930Z AUTO 08004KT 9999 NCD 19/14 Q1020=
201908282000 METAR LRTM 282000Z AUTO 10003KT 9999 NCD 18/14 Q1020=
201908282030 METAR LRTM 282030Z AUTO 10005KT 9999 NCD 19/14 Q1020=
201908282100 METAR LRTM 282100Z AUTO 10006KT 9999 NCD 18/14 Q1020=
201908282130 METAR LRTM 282130Z AUTO 09006KT 9999 NCD 17/14 Q1020=
201908282200 METAR LRTM 282200Z AUTO 10005KT 9999 NCD 17/14 Q1021=
201908282230 METAR LRTM 282230Z AUTO 09006KT 9999 NCD 17/14 Q1021=
201908282300 METAR LRTM 282300Z AUTO 09006KT 9999 NCD 16/14 Q1021=
201908282330 METAR LRTM 282330Z AUTO 09005KT 9999 NCD 16/14 Q1021=
201908290000 METAR LRTM 290000Z AUTO 09004KT 040V110 9999 NCD 16/14 Q1021=
201908290030 METAR LRTM 290030Z AUTO 09005KT 9999 NCD 16/14 Q1020=
201908290100 METAR LRTM 290100Z AUTO 10005KT 9999 NCD 15/13 Q1020=
201908290130 METAR LRTM 290130Z AUTO 09004KT 9999 NCD 15/13 Q1020=
201908290200 METAR LRTM 290200Z AUTO 10005KT 9999 NCD 15/13 Q1020=
201908290230 METAR LRTM 290230Z AUTO 10003KT 9000 NCD 14/13 Q1020=
201908290300 METAR LRTM 290300Z AUTO 10004KT 9999 NCD 15/13 Q1021=
201908290330 METAR LRTM 290330Z AUTO 10004KT 9999 NCD 14/13 Q1021=
201908290400 METAR LRTM 290400Z AUTO 09004KT 9999 NCD 14/12 Q1021=
201908290430 METAR LRTM 290430Z AUTO 10006KT 9999 NCD 15/14 Q1021=
201908290500 METAR LRTM 290500Z 10004KT 8000 FEW007 16/14 Q1021=
201908290530 METAR LRTM 290530Z 09004KT 8000 FEW009 17/14 Q1021=
201908290600 METAR LRTM 290600Z 08004KT 9000 FEW010 18/14 Q1021=
201908290630 METAR LRTM 290630Z 08003KT 9000 FEW012 19/14 Q1021=
201908290700 METAR LRTM 290700Z VRB03KT CAVOK 21/15 Q1021=
201908290730 METAR LRTM 290730Z VRB01KT CAVOK 24/15 Q1021=
201908290800 METAR LRTM 290800Z VRB02KT 9999 FEW025 25/16 Q1021=
201908290830 METAR LRTM 290830Z VRB02KT 9999 FEW025 26/16 Q1020=
201908290900 METAR LRTM 290900Z VRB02KT 9999 FEW028 28/16 Q1020=
201908290930 METAR LRTM 290930Z 25005KT 220V300 9999 FEW030 27/16 Q1020=
201908291000 METAR LRTM 291000Z VRB03KT 9999 FEW030 FEW032TCU 29/16 Q1020=
201908291030 METAR LRTM 291030Z VRB03KT 9999 FEW033 FEW035CB 30/15 Q1020=
201908291100 METAR LRTM 291100Z 25004KT 170V310 9999 FEW035 FEW038CB 30/14
                        Q1020=
201908291130 METAR LRTM 291130Z VRB04KT 9999 SCT035 FEW038CB 31/11 Q1019=
201908291200 METAR LRTM 291200Z VRB03KT 9999 SCT036 FEW038CB 31/13 Q1019=
201908291230 METAR LRTM 291230Z VRB03KT 9999 SCT036 FEW038CB 32/12 Q1019=
201908291300 METAR LRTM 291300Z 30002KT 9999 BKN038 FEW040CB 32/11 Q1019=
201908291330 METAR LRTM 291330Z 25004KT 210V310 9999 BKN038 FEW040CB 32/13
                        Q1018=
201908291400 METAR LRTM 291400Z 24004KT 150V300 9999 BKN040 FEW042CB 32/12
                        Q1018=
201908291430 METAR LRTM 291430Z 35009KT 9999 VCSH BKN040 FEW042CB 30/14
                        Q1018=
201908291500 METAR LRTM 291500Z 12005KT 080V150 9999 VCTS VCSH SCT042CB
                        28/15 Q1019=
201908291530 METAR LRTM 291530Z 36008KT 330V030 9999 VCSH SCT042CB 27/13
                        Q1019=
201908291600 METAR LRTM 291600Z 28006KT 260V320 9999 -SHRA SCT040CB 25/14
                        Q1019 R07/29//95=
201908291630 METAR LRTM 291630Z 01006KT 9999 -SHRA SCT040CB 24/16 Q1019
                        R07/29//95=
201908291700 METAR LRTM 291700Z 01004KT 310V050 9999 VCSH SCT041CB 23/15
                        Q1019 R07/29//95=
201908291730 METAR LRTM 291730Z AUTO 09003KT 050V140 9999 FEW130/// 21/15
                        Q1019=
201908291800 METAR LRTM 291800Z AUTO 05003KT 020V100 9999 BKN120/// 21/15
                        Q1019=
201908291830 METAR LRTM 291830Z AUTO 11004KT 9999 OVC110/// 21/15 Q1019=
201908291900 METAR LRTM 291900Z AUTO 06006KT 9999 FEW120/// 20/15 Q1019=
201908291930 METAR LRTM 291930Z AUTO 11004KT 080V140 9999 NCD 19/15 Q1019=
201908292000 METAR LRTM 292000Z AUTO VRB01KT 8000 NCD 19/15 Q1019=
201908292030 METAR LRTM 292030Z AUTO 28002KT 230V330 9999 NCD 17/15 Q1020=
201908292100 METAR LRTM 292100Z AUTO 00000KT 9999 NCD 17/15 Q1020=
201908292130 METAR LRTM 292130Z AUTO VRB01KT 9999 NCD 17/15 Q1020=
201908292200 METAR LRTM 292200Z AUTO 00000KT 9999 BKN140/// 17/15 Q1020=
201908292230 METAR LRTM 292230Z AUTO 00000KT 9999 FEW150/// 16/15 Q1020=
201908292300 METAR LRTM 292300Z AUTO 23001KT 9999 NCD 16/14 Q1020=
201908292330 METAR LRTM 292330Z AUTO VRB01KT 9000 NCD 15/14 Q1020=
201908300000 METAR LRTM 300000Z AUTO 00000KT 9999 NCD 15/14 Q1020=
201908300030 METAR LRTM 300030Z AUTO 00000KT 8000 NCD 15/14 Q1020=
201908300100 METAR LRTM 300100Z AUTO 00000KT 5000 R07/1500VP2000D BR NCD
                        14/14 Q1020=
201908300130 METAR LRTM 300130Z AUTO 00000KT 7000 NCD 14/13 Q1020=
201908300200 METAR LRTM 300200Z AUTO 00000KT 5000 BR FEW160/// 14/13 Q1020=
201908300230 METAR LRTM 300230Z AUTO 08003KT 5000 R07/1100VP2000U FG NCD
                        13/12 Q1020=
201908300300 METAR LRTM 300300Z AUTO 00000KT 6000 NCD 13/13 Q1020=
201908300330 METAR LRTM 300330Z AUTO 00000KT 5000 BCFG NCD 13/12 Q1020=
201908300400 METAR LRTM 300400Z AUTO 00000KT 5000 BR NCD 13/13 Q1020=
201908300430 METAR LRTM 300430Z AUTO 00000KT 6000 NCD 14/13 Q1021=
201908300500 METAR LRTM 300500Z 00000KT 7000 FEW009 16/14 Q1021 R07/CLRD//=
201908300530 METAR LRTM 300530Z 08002KT 8000 FEW010 17/14 Q1021 R07/CLRD//=
201908300600 METAR LRTM 300600Z 08003KT 050V130 9000 FEW010 18/15 Q1021=
201908300630 METAR LRTM 300630Z 09003KT 040V120 8000 FEW010 20/15 Q1021=
201908300700 METAR LRTM 300700Z 08003KT 020V160 9999 FEW012 21/16 Q1021=
201908300730 METAR LRTM 300730Z VRB01KT CAVOK 23/16 Q1021=
201908300800 METAR LRTM 300800Z 06002KT CAVOK 24/15 Q1021=
201908300830 METAR LRTM 300830Z VRB02KT CAVOK 24/15 Q1021=
201908300900 METAR LRTM 300900Z VRB03KT CAVOK 26/16 Q1021=
201908300930 METAR LRTM 300930Z VRB03KT CAVOK 27/16 Q1021=
201908301000 METAR LRTM 301000Z VRB03KT CAVOK 28/17 Q1021=
201908301030 METAR LRTM 301030Z 22005KT 160V320 CAVOK 29/15 Q1020=
201908301100 METAR LRTM 301100Z VRB03KT 9999 FEW040 29/15 Q1020=
201908301130 METAR LRTM 301130Z 19004KT 140V300 9999 FEW040 30/14 Q1020=
201908301200 METAR LRTM 301200Z VRB03KT 9999 FEW040 30/14 Q1020=
201908301230 METAR LRTM 301230Z VRB06KT 9999 FEW040 31/14 Q1019=
201908301300 METAR LRTM 301300Z VRB05KT 9999 FEW040 31/13 Q1019=
201908301330 METAR LRTM 301330Z VRB03KT 9999 FEW042 31/12 Q1019=
201908301400 METAR LRTM 301400Z 16005KT 090V200 9999 FEW043 31/13 Q1018=
201908301430 METAR LRTM 301430Z VRB03KT 9999 FEW043 32/13 Q1018=
201908301500 METAR LRTM 301500Z VRB02KT 9999 FEW043TCU 31/12 Q1018=
201908301530 METAR LRTM 301530Z VRB01KT 9999 FEW044CB 31/13 Q1018=
201908301600 METAR LRTM 301600Z VRB01KT 9999 FEW044CB 31/12 Q1018=
201908301630 METAR LRTM 301630Z 26003KT 9999 FEW044CB 28/16 Q1018=
201908301700 METAR LRTM 301700Z 23002KT 9999 FEW044CB 26/17 Q1018=
201908301730 METAR LRTM 301730Z AUTO 24002KT 9999 NCD 24/16 Q1019=
201908301800 METAR LRTM 301800Z AUTO 00000KT 9999 NCD 22/16 Q1019=
201908301830 METAR LRTM 301830Z AUTO 25002KT 220V290 9999 NCD 21/16 Q1019=
201908301900 METAR LRTM 301900Z AUTO 34003KT 9999 FEW077/// 20/16 Q1019=
201908301930 METAR LRTM 301930Z AUTO 10005KT 070V130 9999 SCT078/// 21/15
                        Q1020=
201908302000 METAR LRTM 302000Z AUTO VRB03KT 9999 FEW085/// 20/15 Q1020=
201908302030 METAR LRTM 302030Z AUTO 10005KT 9999 NCD 19/15 Q1020=
201908302100 METAR LRTM 302100Z AUTO VRB01KT 9999 NCD 19/15 Q1020=
201908302130 METAR LRTM 302130Z AUTO 09006KT 9999 FEW140/// 19/15 Q1020=
201908302200 METAR LRTM 302200Z AUTO 09006KT 9999 NCD 19/15 Q1020=
201908302230 METAR LRTM 302230Z AUTO 09007KT 9999 NCD 19/15 Q1020=
201908302300 METAR LRTM 302300Z AUTO 08006KT 9999 NCD 17/14 Q1020=
201908302330 METAR LRTM 302330Z AUTO 09006KT 9999 NCD 17/14 Q1020=
201908310000 METAR LRTM 310000Z AUTO 10006KT 9999 NCD 16/14 Q1020=
201908310030 METAR LRTM 310030Z AUTO 09006KT 9999 NCD 16/13 Q1020=
201908310100 METAR LRTM 310100Z AUTO 09007KT 9999 NCD 16/13 Q1020=
201908310130 METAR LRTM 310130Z AUTO 09003KT 050V110 9999 NCD 15/13 Q1020=
201908310200 METAR LRTM 310200Z AUTO 10004KT 9999 NCD 14/12 Q1020=
201908310230 METAR LRTM 310230Z AUTO 08005KT 9999 NCD 14/12 Q1020=
201908310300 METAR LRTM 310300Z AUTO 09007KT 9999 NCD 14/12 Q1020=
201908310330 METAR LRTM 310330Z AUTO 09005KT 9999 NCD 14/12 Q1021=
201908310400 METAR LRTM 310400Z AUTO 09005KT 9999 NCD 13/12 Q1021=
201908310430 METAR LRTM 310430Z AUTO 09004KT 9999 NCD 15/12 Q1021=
201908310500 METAR LRTM 310500Z 10004KT 9999 FEW013 16/13 Q1021=
201908310530 METAR LRTM 310530Z 09003KT 060V120 9999 FEW017 17/13 Q1021=
201908310600 METAR LRTM 310600Z 08004KT 9999 FEW019 18/13 Q1021=
201908310630 METAR LRTM 310630Z 07003KT 040V140 CAVOK 20/14 Q1021=
201908310700 METAR LRTM 310700Z 07003KT 030V120 CAVOK 21/14 Q1021=
201908310730 METAR LRTM 310730Z VRB02KT CAVOK 23/14 Q1021=
201908310800 METAR LRTM 310800Z VRB01KT CAVOK 25/14 Q1021=
201908310830 METAR LRTM 310830Z 12003KT 060V200 CAVOK 27/13 Q1020=
201908310900 METAR LRTM 310900Z VRB03KT CAVOK 28/12 Q1020=
201908310930 METAR LRTM 310930Z VRB02KT CAVOK 29/12 Q1020=
201908311000 METAR LRTM 311000Z VRB03KT CAVOK 29/11 Q1020=
201908311030 METAR LRTM 311030Z 02005KT 310V070 CAVOK 29/12 Q1019=
201908311100 METAR LRTM 311100Z 06006KT 010V110 CAVOK 30/10 Q1019=
201908311130 METAR LRTM 311130Z VRB04KT CAVOK 30/10 Q1019=
201908311200 METAR LRTM 311200Z 14006KT 100V200 CAVOK 31/11 Q1019=
201908311230 METAR LRTM 311230Z VRB03KT CAVOK 31/11 Q1018=
201908311300 METAR LRTM 311300Z 12004KT 070V180 CAVOK 31/11 Q1018=
201908311330 METAR LRTM 311330Z VRB03KT CAVOK 31/12 Q1018=
201908311400 METAR LRTM 311400Z 31005KT 250V010 CAVOK 31/11 Q1017=
201908311430 METAR LRTM 311430Z VRB03KT CAVOK 31/11 Q1017=
201908311500 METAR LRTM 311500Z 12005KT 080V170 CAVOK 31/11 Q1017=
201908311530 METAR LRTM 311530Z 13005KT 100V160 CAVOK 30/11 Q1017=
201908311600 METAR LRTM 311600Z 13005KT CAVOK 29/12 Q1017=
201908311630 METAR LRTM 311630Z 13005KT CAVOK 28/13 Q1017=
201908311700 METAR LRTM 311700Z 16006KT CAVOK 25/14 Q1017=
201908311730 METAR LRTM 311730Z VRB02KT CAVOK 23/14 Q1017=
201908311800 METAR LRTM 311800Z VRB02KT CAVOK 22/14 Q1017=
201908311830 METAR LRTM 311830Z AUTO 07003KT 360V090 9999 NCD 20/13 Q1017=
201908311900 METAR LRTM 311900Z AUTO 07003KT 020V110 9999 NCD 20/13 Q1018=
201908311930 METAR LRTM 311930Z AUTO 08005KT 9999 NCD 19/13 Q1018=
201908312000 METAR LRTM 312000Z AUTO 10004KT 9999 NCD 19/13 Q1018=
201908312030 METAR LRTM 312030Z AUTO 10003KT 9999 NCD 19/13 Q1018=
201908312100 METAR LRTM 312100Z AUTO 05004KT 9999 NCD 18/13 Q1018=
201908312130 METAR LRTM 312130Z AUTO 09005KT 9999 NCD 17/12 Q1018=
201908312200 METAR LRTM 312200Z AUTO 11003KT 9999 NCD 17/13 Q1018=
201908312230 METAR LRTM 312230Z AUTO VRB01KT 9999 NCD 17/13 Q1018=
201908312300 METAR LRTM 312300Z AUTO 11003KT 9999 NCD 15/12 Q1018=
201908312330 METAR LRTM 312330Z AUTO 10003KT 9999 NCD 15/12 Q1018=
