201909010000 METAR LRTM 010000Z AUTO 08004KT 040V100 9999 NCD 15/12 Q1018=
201909010030 METAR LRTM 010030Z AUTO 10003KT 9999 NCD 15/12 Q1018=
201909010100 METAR LRTM 010100Z AUTO 11003KT 9999 NCD 15/12 Q1018=
201909010130 METAR LRTM 010130Z AUTO 09005KT 9999 NCD 14/12 Q1018=
201909010200 METAR LRTM 010200Z AUTO 10005KT 9999 NCD 14/12 Q1017=
201909010230 METAR LRTM 010230Z AUTO 10006KT 9999 NCD 14/12 Q1017=
201909010300 METAR LRTM 010300Z AUTO 10005KT 9999 NCD 13/11 Q1017=
201909010330 METAR LRTM 010330Z 09005KT CAVOK 13/11 Q1017=
201909010400 METAR LRTM 010400Z 11003KT 9999 FEW011 13/11 Q1017=
201909010430 METAR LRTM 010430Z 03002KT 9999 FEW012 13/12 Q1017=
201909010500 METAR LRTM 010500Z 35002KT 9999 FEW012 14/12 Q1017=
201909010530 METAR LRTM 010530Z 06004KT 9999 FEW012 16/13 Q1017=
201909010600 METAR LRTM 010600Z 07003KT 030V090 9999 FEW012 18/14 Q1017=
201909010630 METAR LRTM 010630Z 07004KT 040V100 CAVOK 19/14 Q1017=
201909010700 METAR LRTM 010700Z 09004KT 050V140 CAVOK 21/14 Q1017=
201909010730 METAR LRTM 010730Z 07004KT 010V130 CAVOK 23/14 Q1017=
201909010800 METAR LRTM 010800Z 08003KT 020V150 CAVOK 25/13 Q1017=
201909010830 METAR LRTM 010830Z VRB04KT CAVOK 26/13 Q1017=
201909010900 METAR LRTM 010900Z VRB03KT 9999 FEW036 27/13 Q1017=
201909010930 METAR LRTM 010930Z 11004KT 020V190 9999 FEW036 28/12 Q1016=
201909011000 METAR LRTM 011000Z VRB03KT 9999 FEW037 29/11 Q1016=
201909011030 METAR LRTM 011030Z 17006KT 110V220 9999 FEW037 30/10 Q1016=
201909011100 METAR LRTM 011100Z 15007KT 120V180 9999 FEW037 30/10 Q1016=
201909011130 METAR LRTM 011130Z 16005KT 050V220 9999 FEW038 30/10 Q1015=
201909011200 METAR LRTM 011200Z VRB04KT 9999 FEW038TCU 30/10 Q1015=
201909011230 METAR LRTM 011230Z 19005KT 130V260 9999 FEW038TCU 31/10 Q1015=
201909011300 METAR LRTM 011300Z 17005KT 120V280 9999 FEW038TCU 31/10 Q1015=
201909011330 METAR LRTM 011330Z 26005KT 210V320 9999 FEW040CB 31/10 Q1014=
201909011400 METAR LRTM 011400Z 08003KT 010V150 9999 FEW040CB 30/11 Q1014=
201909011430 METAR LRTM 011430Z 17003KT 120V220 9999 FEW042CB 31/10 Q1014=
201909011500 METAR LRTM 011500Z 21006KT 190V250 9999 FEW042CB 30/10 Q1014=
201909011530 METAR LRTM 011530Z 23003KT 200V270 9999 FEW044CB 30/10 Q1014=
201909011600 METAR LRTM 011600Z 00000KT 9999 FEW044CB 31/11 Q1014=
201909011630 METAR LRTM 011630Z 00000KT 9999 FEW044CB 29/12 Q1014=
201909011700 METAR LRTM 011700Z 00000KT 9999 FEW044CB 25/13 Q1014=
201909011730 METAR LRTM 011730Z 35003KT 9999 FEW044CB 23/13 Q1014=
201909011800 METAR LRTM 011800Z VRB02KT CAVOK 21/13 Q1014=
201909011830 METAR LRTM 011830Z 09004KT CAVOK 19/12 Q1014=
201909011900 METAR LRTM 011900Z AUTO VRB01KT 9999 NCD 18/13 Q1015=
201909011930 METAR LRTM 011930Z AUTO 00000KT 9999 NCD 17/12 Q1015=
201909012000 METAR LRTM 012000Z AUTO 00000KT 9999 NCD 16/13 Q1015=
201909012030 METAR LRTM 012030Z AUTO 11003KT 9999 NCD 16/12 Q1015=
201909012100 METAR LRTM 012100Z AUTO VRB01KT 9999 NCD 15/12 Q1015=
201909012130 METAR LRTM 012130Z AUTO 01005KT 340V050 9999 NCD 15/12 Q1015=
201909012200 METAR LRTM 012200Z AUTO 10005KT 9999 NCD 15/12 Q1015=
201909012230 METAR LRTM 012230Z AUTO 09006KT 9999 NCD 16/12 Q1015=
201909012300 METAR LRTM 012300Z AUTO 10005KT 9999 NCD 15/12 Q1016=
201909012330 METAR LRTM 012330Z AUTO 10005KT 9999 NCD 15/12 Q1016=
201909020000 METAR LRTM 020000Z AUTO 10005KT 9999 NCD 15/12 Q1015=
201909020030 METAR LRTM 020030Z AUTO 10004KT 9999 NCD 15/12 Q1015=
201909020100 METAR LRTM 020100Z AUTO 10004KT 9999 NCD 14/11 Q1016=
201909020130 METAR LRTM 020130Z AUTO 10005KT 9999 NCD 14/12 Q1016=
201909020200 METAR LRTM 020200Z AUTO 10004KT 9999 NCD 13/12 Q1016=
201909020230 METAR LRTM 020230Z AUTO 09002KT 050V120 9999 NCD 13/11 Q1016=
201909020300 METAR LRTM 020300Z AUTO 10003KT 9999 NCD 13/11 Q1016=
201909020330 METAR LRTM 020330Z AUTO 11003KT 9999 NCD 13/11 Q1016=
201909020400 METAR LRTM 020400Z AUTO 09005KT 9999 NCD 13/11 Q1016=
201909020430 METAR LRTM 020430Z AUTO 10004KT 9999 NCD 14/12 Q1016=
201909020500 METAR LRTM 020500Z 08005KT 7000 FEW007 15/12 Q1016=
201909020530 METAR LRTM 020530Z 09005KT 8000 FEW009 16/13 Q1016=
201909020600 METAR LRTM 020600Z 09004KT 8000 FEW009 17/13 Q1017=
201909020630 METAR LRTM 020630Z 07004KT 050V110 8000 FEW010 18/13 Q1017=
201909020700 METAR LRTM 020700Z 08003KT 030V120 8000 FEW012 21/13 Q1017=
201909020730 METAR LRTM 020730Z VRB01KT CAVOK 22/14 Q1017=
201909020800 METAR LRTM 020800Z VRB02KT CAVOK 24/14 Q1016=
201909020830 METAR LRTM 020830Z VRB02KT CAVOK 26/14 Q1016=
201909020900 METAR LRTM 020900Z VRB03KT CAVOK 28/14 Q1016=
201909020930 METAR LRTM 020930Z VRB03KT 9999 FEW025 28/13 Q1016=
201909021000 METAR LRTM 021000Z VRB03KT 9999 FEW025 29/13 Q1016=
201909021030 METAR LRTM 021030Z VRB03KT 9999 FEW033 30/14 Q1016=
201909021100 METAR LRTM 021100Z 05003KT 310V110 9999 FEW035 30/12 Q1015=
201909021130 METAR LRTM 021130Z VRB03KT 9999 FEW040 FEW040CB 31/12 Q1015=
201909021200 METAR LRTM 021200Z 31006KT 250V360 9999 FEW043 31/11 Q1015=
201909021230 METAR LRTM 021230Z VRB04KT 9999 FEW045 FEW045TCU 31/11 Q1015=
201909021300 METAR LRTM 021300Z 17004KT 110V230 9999 FEW047 FEW047TCU
                        32/11 Q1015=
201909021330 METAR LRTM 021330Z VRB03KT CAVOK 31/11 Q1014=
201909021400 METAR LRTM 021400Z 01003KT 310V080 CAVOK 31/11 Q1014=
201909021430 METAR LRTM 021430Z 13004KT 080V160 CAVOK 31/10 Q1014=
201909021500 METAR LRTM 021500Z VRB02KT CAVOK 31/10 Q1014=
201909021530 METAR LRTM 021530Z VRB02KT CAVOK 31/10 Q1014=
201909021600 METAR LRTM 021600Z 08003KT CAVOK 30/13 Q1014=
201909021630 METAR LRTM 021630Z 12003KT CAVOK 28/13 Q1014=
201909021700 METAR LRTM 021700Z VRB02KT CAVOK 25/16 Q1014=
201909021730 METAR LRTM 021730Z AUTO 00000KT 9999 NCD 23/14 Q1014=
201909021800 METAR LRTM 021800Z AUTO 08002KT 310V120 9999 NCD 21/13 Q1014=
201909021830 METAR LRTM 021830Z AUTO 00000KT 9999 NCD 19/13 Q1015=
201909021900 METAR LRTM 021900Z AUTO 00000KT 9999 NCD 19/13 Q1015=
201909021930 METAR LRTM 021930Z AUTO 10003KT 9999 NCD 17/13 Q1015=
201909022000 METAR LRTM 022000Z AUTO 10004KT 9999 NCD 18/12 Q1015=
201909022030 METAR LRTM 022030Z AUTO 14005KT 070V180 9999 NCD 19/13 Q1016=
201909022100 METAR LRTM 022100Z AUTO 03005KT 360V100 9999 NCD 18/13 Q1016=
201909022130 METAR LRTM 022130Z AUTO 11005KT 9999 NCD 17/12 Q1016=
201909022200 METAR LRTM 022200Z AUTO 09004KT 9999 NCD 16/12 Q1016=
201909022230 METAR LRTM 022230Z AUTO 10005KT 9999 NCD 16/12 Q1016=
201909022300 METAR LRTM 022300Z AUTO 10005KT 9999 NCD 16/12 Q1016=
201909022330 METAR LRTM 022330Z AUTO 10005KT 9999 NCD 15/12 Q1016=
201909030000 METAR LRTM 030000Z AUTO 10004KT 9999 NCD 15/12 Q1016=
201909030030 METAR LRTM 030030Z AUTO 11003KT 9999 NCD 15/12 Q1016=
201909030100 METAR LRTM 030100Z AUTO 10005KT 9999 NCD 14/12 Q1016=
201909030130 METAR LRTM 030130Z AUTO 10005KT 9999 NCD 14/12 Q1016=
201909030200 METAR LRTM 030200Z AUTO 10006KT 9999 NCD 14/12 Q1016=
201909030230 METAR LRTM 030230Z AUTO 10004KT 9999 NCD 14/12 Q1016=
201909030300 METAR LRTM 030300Z AUTO 09004KT 9999 NCD 13/11 Q1016=
201909030330 METAR LRTM 030330Z AUTO 10005KT 9999 NCD 14/12 Q1016=
201909030400 METAR LRTM 030400Z AUTO 09004KT 9999 NCD 13/11 Q1016=
201909030430 METAR LRTM 030430Z AUTO 09004KT 9999 NCD 13/12 Q1017=
201909030500 METAR LRTM 030500Z 08002KT 8000 FEW006 FEW035CB 15/13 Q1017=
201909030530 METAR LRTM 030530Z 08004KT 8000 FEW008 16/13 Q1017=
201909030600 METAR LRTM 030600Z 07004KT 8000 FEW010 18/13 Q1017=
201909030630 METAR LRTM 030630Z 07003KT 030V110 8000 FEW010 19/13 Q1017=
201909030700 METAR LRTM 030700Z 06003KT 010V120 9000 FEW012 21/13 Q1017=
201909030730 METAR LRTM 030730Z 08003KT 360V150 9999 FEW023 23/14 Q1017=
201909030800 METAR LRTM 030800Z VRB03KT 9999 FEW024 25/13 Q1017=
201909030830 METAR LRTM 030830Z VRB03KT 9999 FEW026 27/12 Q1017=
201909030900 METAR LRTM 030900Z VRB03KT 9999 FEW026 27/12 Q1017=
201909030930 METAR LRTM 030930Z VRB03KT 9999 FEW029 28/12 Q1016=
201909031000 METAR LRTM 031000Z VRB04KT 9999 FEW032 29/12 Q1016=
201909031030 METAR LRTM 031030Z 25007KT 230V300 9999 FEW033 FEW035TCU
                        30/12 Q1016=
201909031100 METAR LRTM 031100Z 24006KT 200V290 9999 FEW034 FEW037CB 30/11
                        Q1016=
201909031130 METAR LRTM 031130Z 25005KT 220V300 9999 FEW036 FEW040CB 31/11
                        Q1015=
201909031200 METAR LRTM 031200Z VRB05KT 9999 FEW040 31/10 Q1015=
201909031230 METAR LRTM 031230Z 20004KT 140V240 9999 FEW040 32/09 Q1015=
201909031300 METAR LRTM 031300Z 24006KT 190V270 9999 FEW042 32/10 Q1015=
201909031330 METAR LRTM 031330Z 25007KT 210V290 9999 FEW042 32/09 Q1015=
201909031400 METAR LRTM 031400Z 25005KT 220V280 9999 FEW042 31/10 Q1014=
201909031430 METAR LRTM 031430Z 26005KT 220V300 9999 FEW042TCU 30/11 Q1014=
201909031500 METAR LRTM 031500Z 32014KT 9999 FEW043TCU 28/13 Q1014=
201909031530 METAR LRTM 031530Z 33012KT 290V360 9999 FEW043CB 27/13 Q1015=
201909031600 METAR LRTM 031600Z 32011KT 9999 FEW043CB 26/12 Q1015=
201909031630 METAR LRTM 031630Z 33010KT 290V350 9999 FEW043CB 25/12 Q1015=
201909031700 METAR LRTM 031700Z 30004KT 210V360 9999 FEW043CB 24/13 Q1016=
201909031730 METAR LRTM 031730Z AUTO 29003KT 210V360 9999 -SHRA SCT094///
                        SCT120/// 23/15 Q1017=
201909031800 METAR LRTM 031800Z AUTO 30007KT 240V340 9999 BKN088/// 23/15
                        Q1017 REDZ=
201909031830 METAR LRTM 031830Z AUTO 29009KT 260V330 9999 BKN092/// SCT110///
                        22/14 Q1018=
201909031900 METAR LRTM 031900Z AUTO 24007KT 210V270 9999 BKN074/// 21/14
                        Q1019=
201909031930 METAR LRTM 031930Z AUTO 31010KT 270V330 9999 -RA FEW058///
                        20/15 Q1018=
201909032000 METAR LRTM 032000Z AUTO 28006KT 250V320 9999 DZ BKN100///
                        19/15 Q1018=
201909032030 METAR LRTM 032030Z AUTO 25006KT 9999 -RA VCTS SCT080/// SCT100///
                        17/15 Q1019=
201909032100 METAR LRTM 032100Z AUTO 27004KT 9999 SCT044/// BKN056///
                        18/15 Q1019 RERA=
201909032130 METAR LRTM 032130Z AUTO 27007KT 9999 BKN040/// 18/15 Q1019
                        RERA=
201909032200 METAR LRTM 032200Z AUTO 28005KT 260V320 9999 -TSRA OVC040///
                        18/14 Q1019=
201909032230 METAR LRTM 032230Z AUTO 34004KT 250V030 9999 -SHRA VCTS SCT039///
                        SCT049/// 17/15 Q1020=
201909032300 METAR LRTM 032300Z AUTO 18002KT 120V250 9999 +SHRA BKN044///
                        SCT056/// 17/15 Q1020=
201909032330 METAR LRTM 032330Z AUTO 28003KT 240V320 9999 -SHRA FEW020///
                        BKN090/// 17/15 Q1020=
201909040000 METAR LRTM 040000Z AUTO 22002KT 170V260 9999 -SHRA FEW018///
                        SCT086/// 17/15 Q1019=
201909040030 METAR LRTM 040030Z AUTO 32002KT 280V350 9999 FEW017/// 16/15
                        Q1019 RERA=
201909040100 METAR LRTM 040100Z AUTO 32002KT 260V350 9999 -SHRA BKN091///
                        16/14 Q1019=
201909040130 METAR LRTM 040130Z AUTO 29003KT 240V320 9999 FEW094/// BKN120///
                        16/14 Q1019 REDZ=
201909040200 METAR LRTM 040200Z AUTO 28004KT 250V310 9999 -SHRA FEW015///
                        BKN110/// 16/14 Q1019=
201909040230 METAR LRTM 040230Z AUTO 31004KT 280V340 9999 FEW013/// BKN120///
                        16/14 Q1019 RERA=
201909040300 METAR LRTM 040300Z AUTO 29004KT 260V340 9999 OVC012/// 16/14
                        Q1019 REDZ=
201909040330 METAR LRTM 040330Z 29003KT 250V340 9999 FEW012 FEW045CB SCT048
                        16/14 Q1019=
201909040400 METAR LRTM 040400Z 30004KT 250V330 9999 FEW011 FEW045CB SCT048
                        16/14 Q1019 R07/19//95=
201909040430 METAR LRTM 040430Z 27003KT 210V360 9999 FEW013 FEW046CB SCT048
                        16/14 Q1019 R07/19//95=
201909040500 METAR LRTM 040500Z 30005KT 260V330 9999 SCT012 FEW046CB 16/14
                        Q1019 R07/19//95=
201909040530 METAR LRTM 040530Z 34004KT 9999 SCT012 FEW046CB 16/14 Q1020
                        R07/19//95=
201909040600 METAR LRTM 040600Z 34005KT 290V360 9999 FEW009 BKN015 FEW048CB
                        17/14 Q1020 R07/19//95=
201909040630 METAR LRTM 040630Z 33004KT 280V360 9999 FEW010 SCT014 17/14
                        Q1020 R07/19//95=
201909040700 METAR LRTM 040700Z 31004KT 270V350 9999 FEW011 18/14 Q1020
                        R07/19//95=
201909040730 METAR LRTM 040730Z VRB03KT 9999 FEW013 18/14 Q1020 R07/19//95=
201909040800 METAR LRTM 040800Z 31005KT 260V360 9999 SCT015 18/14 Q1020
                        R07/19//95=
201909040830 METAR LRTM 040830Z 32004KT 250V360 9999 FEW017 BKN042 19/14
                        Q1020 R07/CLRD//=
201909040900 METAR LRTM 040900Z 32003KT 9999 FEW018 BKN044 19/13 Q1020=
201909040930 METAR COR LRTM 040930Z 27004KT 180V340 9999 SCT044 19/13
                        Q1019=
201909041000 METAR LRTM 041000Z VRB03KT 9999 SCT030 20/13 Q1019=
201909041030 METAR LRTM 041030Z VRB03KT 9999 BKN036 20/13 Q1019=
201909041100 METAR LRTM 041100Z 33005KT 290V080 9999 BKN035 21/13 Q1019=
201909041130 METAR LRTM 041130Z 23004KT 160V300 9999 BKN037 21/13 Q1018=
201909041200 METAR COR LRTM 041200Z 23004KT 170V280 9999 FEW028 BKN031
                        22/14 Q1018=
201909041230 METAR LRTM 041230Z VRB03KT 9999 FEW030 BKN032 22/14 Q1018=
201909041300 METAR LRTM 041300Z VRB02KT 9999 SCT033 SCT035 22/14 Q1018=
201909041330 METAR LRTM 041330Z 27003KT 200V340 9999 SCT034 SCT043 24/14
                        Q1017=
201909041400 METAR LRTM 041400Z 31004KT 250V350 9999 SCT041 22/13 Q1017=
201909041430 METAR LRTM 041430Z VRB03KT 9999 SCT046 24/13 Q1017=
201909041500 METAR LRTM 041500Z 32004KT 260V360 9999 FEW046 23/13 Q1017=
201909041530 METAR LRTM 041530Z VRB02KT 9999 SCT049 23/13 Q1017=
201909041600 METAR LRTM 041600Z VRB02KT 9999 FEW042 22/14 Q1017=
201909041630 METAR LRTM 041630Z 35003KT 9999 FEW042 22/13 Q1017=
201909041700 METAR LRTM 041700Z 32005KT 9999 FEW042 20/13 Q1017=
201909041730 METAR LRTM 041730Z VRB01KT 9999 FEW042 19/12 Q1017=
201909041800 METAR LRTM 041800Z AUTO 25003KT 200V330 9999 OVC057/// 20/12
                        Q1017=
201909041830 METAR LRTM 041830Z AUTO 18003KT 110V230 9999 BKN056/// 19/13
                        Q1017=
201909041900 METAR LRTM 041900Z AUTO VRB01KT 9999 BKN063/// 19/12 Q1017=
201909041930 METAR LRTM 041930Z AUTO VRB01KT 9999 OVC054/// 18/13 Q1017=
201909042000 METAR LRTM 042000Z AUTO 00000KT 9999 OVC055/// 18/13 Q1017=
201909042030 METAR LRTM 042030Z AUTO 26001KT 9999 OVC063/// 17/14 Q1017=
201909042100 METAR LRTM 042100Z AUTO 25003KT 9999 BKN058/// 15/13 Q1017=
201909042130 METAR LRTM 042130Z AUTO VRB01KT 9999 BKN061/// 15/13 Q1017=
201909042200 METAR LRTM 042200Z AUTO 07002KT 010V110 9999 BKN043/// SCT059///
                        15/14 Q1017=
201909042230 METAR LRTM 042230Z AUTO 07005KT 9999 BKN040/// SCT052///
                        15/13 Q1017=
201909042300 METAR LRTM 042300Z AUTO 09006KT 9999 FEW040/// BKN057///
                        15/14 Q1017=
201909042330 METAR LRTM 042330Z AUTO 08004KT 9999 BKN039/// SCT054///
                        14/13 Q1017=
201909050000 METAR LRTM 050000Z AUTO 08005KT 9999 SCT040/// 13/12 Q1017=
201909050030 METAR LRTM 050030Z AUTO VRB01KT 9999 BKN048/// 14/12 Q1017=
201909050100 METAR LRTM 050100Z AUTO 11002KT 9999 SCT058/// 14/13 Q1017=
201909050130 METAR LRTM 050130Z AUTO 00000KT 9000 FEW048/// BKN062///
                        13/12 Q1017=
201909050200 METAR LRTM 050200Z AUTO 00000KT 9999 FEW047/// BKN059///
                        13/12 Q1016=
201909050230 METAR LRTM 050230Z AUTO 00000KT 9999 SCT049/// BKN062///
                        13/12 Q1016=
201909050300 METAR LRTM 050300Z AUTO 00000KT 9999 BKN045/// SCT057///
                        13/12 Q1016=
201909050330 METAR LRTM 050330Z AUTO 10003KT 070V130 9999 BKN042/// 14/12
                        Q1016=
201909050400 METAR LRTM 050400Z AUTO 05004KT 020V080 9999 BKN047/// 14/12
                        Q1016=
201909050430 METAR LRTM 050430Z AUTO 07005KT 9999 SCT045/// 14/12 Q1016=
201909050500 METAR LRTM 050500Z 07005KT 9999 FEW006 SCT045 14/12 Q1016=
201909050530 METAR LRTM 050530Z 05005KT 030V090 9999 FEW008 SCT045 15/12
                        Q1017=
201909050600 METAR LRTM 050600Z 07005KT 9999 FEW008 SCT045 16/12 Q1017=
201909050630 METAR LRTM 050630Z 07005KT 9999 FEW010 BKN048 16/12 Q1017=
201909050700 METAR LRTM 050700Z 08004KT 050V120 9999 SCT048 18/12 Q1017=
201909050730 METAR LRTM 050730Z 07005KT 020V110 9999 SCT045 19/12 Q1016=
201909050800 METAR LRTM 050800Z 10004KT 010V170 9999 SCT048 20/12 Q1016=
201909050830 METAR LRTM 050830Z 12004KT 9999 SCT048 21/12 Q1016=
201909050900 METAR LRTM 050900Z VRB03KT 9999 FEW030 22/13 Q1016=
201909050930 METAR LRTM 050930Z VRB04KT 9999 SCT032 24/14 Q1016=
201909051000 METAR LRTM 051000Z VRB03KT 9999 SCT033 23/12 Q1015=
201909051030 METAR LRTM 051030Z 09005KT 020V150 9999 SCT034 23/12 Q1015=
201909051100 METAR LRTM 051100Z VRB03KT 9999 SCT036 24/12 Q1015=
201909051130 METAR LRTM 051130Z VRB02KT 9999 SCT036 24/12 Q1015=
201909051200 METAR LRTM 051200Z VRB02KT 9999 SCT036 25/11 Q1014=
201909051230 METAR LRTM 051230Z 29004KT 250V010 9999 SCT036 26/11 Q1014=
201909051300 METAR LRTM 051300Z 20006KT 9999 SCT036 26/10 Q1014=
201909051330 METAR COR LRTM 051330Z 20004KT 140V240 9999 SCT037 27/11
                        Q1014=
201909051400 METAR LRTM 051400Z 31004KT 270V020 9999 SCT037 26/11 Q1014=
201909051430 METAR LRTM 051430Z VRB03KT 9999 SCT037 26/10 Q1013=
201909051500 METAR LRTM 051500Z 25004KT 9999 FEW037 26/11 Q1013=
201909051530 METAR LRTM 051530Z 25003KT 9999 FEW037 24/12 Q1014=
201909051600 METAR LRTM 051600Z 01002KT 9999 FEW037 25/10 Q1014=
201909051630 METAR LRTM 051630Z 00000KT 9999 FEW036 23/11 Q1014=
201909051700 METAR LRTM 051700Z 00000KT 9999 FEW036 21/11 Q1014=
201909051730 METAR LRTM 051730Z AUTO 00000KT 9999 SCT071/// 18/13 Q1014=
201909051800 METAR LRTM 051800Z AUTO 00000KT 9999 NCD 16/12 Q1014=
201909051830 METAR LRTM 051830Z AUTO 05003KT 9999 BKN071/// 17/12 Q1014=
201909051900 METAR LRTM 051900Z AUTO 10001KT 9999 FEW076/// 16/13 Q1015=
201909051930 METAR LRTM 051930Z AUTO VRB01KT 9999 FEW073/// 15/12 Q1015=
201909052000 METAR LRTM 052000Z AUTO 06002KT 9999 FEW070/// 14/12 Q1015=
201909052030 METAR LRTM 052030Z AUTO 13002KT 090V160 9999 SCT066/// 14/12
                        Q1015=
201909052100 METAR LRTM 052100Z AUTO 10004KT 9999 FEW067/// 15/12 Q1015=
201909052130 METAR LRTM 052130Z AUTO 10005KT 9999 OVC063/// 15/13 Q1015=
201909052200 METAR LRTM 052200Z AUTO 09005KT 9999 BKN068/// 15/12 Q1015=
201909052230 METAR LRTM 052230Z AUTO 09005KT 9999 SCT069/// 14/12 Q1016=
201909052300 METAR LRTM 052300Z AUTO 10003KT 9999 SCT069/// 13/12 Q1016=
201909052330 METAR LRTM 052330Z AUTO 10004KT 9999 FEW068/// 13/11 Q1016=
201909060000 METAR LRTM 060000Z AUTO 09004KT 9999 BKN067/// 14/11 Q1016=
201909060030 METAR LRTM 060030Z AUTO VRB01KT 9999 BKN070/// 13/11 Q1016=
201909060100 METAR LRTM 060100Z AUTO 10003KT 9999 NCD 13/11 Q1016=
201909060130 METAR LRTM 060130Z AUTO 09004KT 050V110 9999 FEW068/// 12/10
                        Q1017=
201909060200 METAR LRTM 060200Z AUTO 07005KT 9999 NCD 12/11 Q1017=
201909060230 METAR LRTM 060230Z AUTO 12002KT 9999 FEW070/// 11/10 Q1017=
201909060300 METAR LRTM 060300Z AUTO 10002KT 6000 FEW070/// 11/10 Q1017=
201909060330 METAR LRTM 060330Z AUTO VRB01KT 8000 SCT069/// 11/10 Q1017=
201909060400 METAR LRTM 060400Z AUTO 00000KT 9000 FEW073/// 11/10 Q1017=
201909060430 METAR LRTM 060430Z AUTO 09003KT 9999 SCT073/// 11/10 Q1018=
201909060500 METAR LRTM 060500Z 08004KT 9000 FEW012 12/10 Q1018=
201909060530 METAR LRTM 060530Z 09003KT 9000 FEW012 13/11 Q1018=
201909060600 METAR LRTM 060600Z 07005KT 9000 FEW015 14/11 Q1018=
201909060630 METAR LRTM 060630Z 07003KT 020V140 9000 FEW015 16/12 Q1018=
201909060700 METAR LRTM 060700Z 06003KT 010V110 9999 FEW015 17/12 Q1019=
201909060730 METAR LRTM 060730Z VRB02KT 9999 FEW016 19/11 Q1019=
201909060800 METAR LRTM 060800Z VRB03KT 9999 FEW025 20/12 Q1019=
201909060830 METAR LRTM 060830Z VRB02KT 9999 FEW028 22/13 Q1019=
201909060900 METAR LRTM 060900Z VRB03KT 9999 FEW030 22/12 Q1019=
201909060930 METAR LRTM 060930Z VRB02KT 9999 FEW032 24/12 Q1019=
201909061000 METAR LRTM 061000Z VRB03KT 9999 SCT032 24/11 Q1018=
201909061030 METAR LRTM 061030Z VRB03KT 9999 SCT033 25/11 Q1018=
201909061100 METAR LRTM 061100Z VRB04KT 9999 SCT035 26/10 Q1018=
201909061130 METAR LRTM 061130Z VRB03KT 9999 SCT036 27/10 Q1018=
201909061200 METAR LRTM 061200Z 30003KT 210V020 9999 BKN036 27/11 Q1018=
201909061230 METAR LRTM 061230Z VRB03KT 9999 SCT043 27/10 Q1018=
201909061300 METAR LRTM 061300Z VRB03KT 9999 FEW048 27/08 Q1017=
201909061330 METAR LRTM 061330Z VRB03KT CAVOK 27/09 Q1017=
201909061400 METAR LRTM 061400Z VRB03KT CAVOK 28/09 Q1017=
201909061430 METAR LRTM 061430Z 25004KT 220V290 CAVOK 28/09 Q1017=
201909061500 METAR LRTM 061500Z VRB02KT CAVOK 27/08 Q1017=
201909061530 METAR LRTM 061530Z VRB02KT CAVOK 27/08 Q1017=
201909061600 METAR LRTM 061600Z VRB01KT CAVOK 26/07 Q1017=
201909061630 METAR LRTM 061630Z 00000KT CAVOK 24/10 Q1017=
201909061700 METAR LRTM 061700Z 00000KT CAVOK 22/10 Q1017=
201909061730 METAR LRTM 061730Z AUTO 33003KT 9999 NCD 18/12 Q1018=
201909061800 METAR LRTM 061800Z AUTO 35002KT 9999 NCD 17/11 Q1018=
201909061830 METAR LRTM 061830Z AUTO 08004KT 9999 NCD 15/11 Q1018=
201909061900 METAR LRTM 061900Z AUTO 09008KT 9999 NCD 17/11 Q1019=
201909061930 METAR LRTM 061930Z AUTO 08004KT 9999 FEW089/// 16/11 Q1019=
201909062000 METAR LRTM 062000Z AUTO 06003KT 010V080 9999 FEW092/// 16/11
                        Q1019=
201909062030 METAR LRTM 062030Z AUTO 06007KT 9999 FEW093/// 18/11 Q1019=
201909062100 METAR LRTM 062100Z AUTO 08005KT 9999 NCD 15/11 Q1019=
201909062130 METAR LRTM 062130Z AUTO 08005KT 9999 NCD 15/10 Q1019=
201909062200 METAR LRTM 062200Z AUTO 10006KT 9999 NCD 14/10 Q1019=
201909062230 METAR LRTM 062230Z AUTO 08004KT 9999 NCD 14/10 Q1020=
201909062300 METAR LRTM 062300Z AUTO 12002KT 090V150 9999 SCT085/// 13/10
                        Q1019=
201909062330 METAR LRTM 062330Z AUTO VRB01KT 9999 SCT087/// 14/11 Q1019=
201909070000 METAR LRTM 070000Z AUTO 09004KT 9999 NCD 13/10 Q1019=
201909070030 METAR LRTM 070030Z AUTO 08005KT 9999 SCT086/// 12/10 Q1019=
201909070100 METAR LRTM 070100Z AUTO 09006KT 9999 FEW087/// 13/10 Q1019=
201909070130 METAR LRTM 070130Z AUTO 08006KT 9999 NCD 12/10 Q1019=
201909070200 METAR LRTM 070200Z AUTO 08007KT 9999 NCD 12/10 Q1019=
201909070230 METAR LRTM 070230Z AUTO 09007KT 9999 BKN087/// 13/11 Q1019=
201909070300 METAR LRTM 070300Z AUTO 08007KT 9999 BKN094/// 13/10 Q1019=
201909070330 METAR LRTM 070330Z AUTO 10006KT 9999 BKN095/// 13/10 Q1020=
201909070400 METAR LRTM 070400Z AUTO 10007KT 9999 BKN095/// 12/10 Q1020=
201909070430 METAR LRTM 070430Z AUTO 09005KT 9999 BKN095/// 13/10 Q1020=
201909070500 METAR LRTM 070500Z 10006KT 9999 FEW012 13/10 Q1020=
201909070530 METAR LRTM 070530Z 08005KT 9999 FEW012 14/11 Q1020=
201909070600 METAR LRTM 070600Z 07006KT CAVOK 16/11 Q1020=
201909070630 METAR LRTM 070630Z 09004KT 040V130 CAVOK 18/11 Q1020=
201909070700 METAR LRTM 070700Z 06003KT 030V100 CAVOK 18/11 Q1020=
201909070730 METAR LRTM 070730Z 09003KT 360V150 CAVOK 21/11 Q1020=
201909070800 METAR LRTM 070800Z 02004KT 320V070 CAVOK 21/11 Q1020=
201909070830 METAR LRTM 070830Z 11007KT 060V160 CAVOK 24/10 Q1020=
201909070900 METAR LRTM 070900Z 09005KT 040V160 CAVOK 24/10 Q1019=
201909070930 METAR LRTM 070930Z 05007KT 020V100 CAVOK 25/10 Q1019=
201909071000 METAR LRTM 071000Z 14004KT 090V180 CAVOK 26/09 Q1019=
201909071030 METAR LRTM 071030Z 09005KT 360V160 9999 FEW043 26/09 Q1018=
201909071100 METAR LRTM 071100Z 14006KT 100V190 9999 FEW043 27/08 Q1018=
201909071130 METAR LRTM 071130Z 09005KT 040V140 9999 FEW043 27/09 Q1018=
201909071200 METAR LRTM 071200Z 12006KT 9999 FEW043 28/08 Q1018=
201909071230 METAR LRTM 071230Z 10006KT 050V140 9999 FEW043 28/09 Q1017=
201909071300 METAR LRTM 071300Z 09006KT 040V140 9999 FEW045 28/09 Q1017=
201909071330 METAR LRTM 071330Z 10009KT 060V120 9999 FEW045 28/09 Q1017=
201909071400 METAR LRTM 071400Z 13005KT 100V170 9999 FEW045 28/09 Q1017=
201909071430 METAR LRTM 071430Z 11008KT 070V130 9999 FEW047 28/08 Q1017=
201909071500 METAR LRTM 071500Z 10006KT 9999 FEW047 28/09 Q1017=
201909071530 METAR LRTM 071530Z 11007KT 9999 FEW047 27/09 Q1017=
201909071600 METAR LRTM 071600Z 14006KT 9999 FEW047 26/10 Q1017=
201909071630 METAR LRTM 071630Z 13004KT 9999 FEW047 23/11 Q1017=
201909071700 METAR LRTM 071700Z 10003KT 9999 FEW047 23/11 Q1017=
201909071730 METAR LRTM 071730Z AUTO 08006KT 9999 OVC075/// 21/12 Q1017=
201909071800 METAR LRTM 071800Z AUTO 11005KT 9999 SCT094/// BKN230///
                        21/12 Q1018=
201909071830 METAR LRTM 071830Z AUTO 13005KT 9999 BKN230/// 22/11 Q1018=
201909071900 METAR LRTM 071900Z AUTO 13005KT 9999 FEW094/// 21/11 Q1018=
201909071930 METAR LRTM 071930Z AUTO 14007KT 9999 BKN081/// 22/12 Q1018=
201909072000 METAR LRTM 072000Z AUTO 13005KT 9999 OVC099/// 21/12 Q1018=
201909072030 METAR LRTM 072030Z AUTO 09006KT 9999 FEW100/// 19/12 Q1018=
201909072100 METAR LRTM 072100Z AUTO 08003KT 040V100 9999 FEW230/// 18/12
                        Q1018=
201909072130 METAR LRTM 072130Z AUTO 07006KT 9999 FEW230/// 17/12 Q1018=
201909072200 METAR LRTM 072200Z AUTO 08007KT 9999 BKN230/// 16/12 Q1018=
201909072230 METAR LRTM 072230Z AUTO 08006KT 9999 BKN240/// 17/12 Q1018=
201909072300 METAR LRTM 072300Z AUTO 07006KT 9999 SCT210/// 18/12 Q1018=
201909072330 METAR LRTM 072330Z AUTO 04002KT 340V070 9999 BKN097/// 17/12
                        Q1018=
201909080000 METAR LRTM 080000Z AUTO VRB01KT 9999 OVC088/// 17/12 Q1018=
201909080030 METAR LRTM 080030Z AUTO VRB01KT 9999 OVC083/// 17/12 Q1018=
201909080100 METAR LRTM 080100Z AUTO 09003KT 9999 BKN086/// 17/12 Q1018=
201909080130 METAR LRTM 080130Z AUTO VRB01KT 9999 OVC095/// 16/13 Q1018=
201909080200 METAR LRTM 080200Z AUTO 09003KT 9999 OVC086/// 17/13 Q1018=
201909080230 METAR LRTM 080230Z AUTO 09003KT 070V140 9999 OVC089/// 17/13
                        Q1018=
201909080300 METAR LRTM 080300Z AUTO VRB01KT 9999 FEW086/// 17/12 Q1018=
201909080330 METAR LRTM 080330Z 09006KT 8000 FEW005 15/12 Q1018=
201909080400 METAR LRTM 080400Z 07003KT 320V110 9000 FEW007 16/13 Q1019=
201909080430 METAR LRTM 080430Z 07004KT 9000 FEW009 16/13 Q1019=
201909080500 METAR LRTM 080500Z 07005KT 9000 FEW009 17/14 Q1019=
201909080530 METAR LRTM 080530Z 10003KT 9000 FEW012 18/13 Q1019=
201909080600 METAR LRTM 080600Z 08004KT 9000 FEW012 19/13 Q1019=
201909080630 METAR LRTM 080630Z 08004KT CAVOK 20/13 Q1019=
201909080700 METAR LRTM 080700Z 11004KT 060V140 CAVOK 21/12 Q1019=
201909080730 METAR LRTM 080730Z 11006KT CAVOK 23/11 Q1019=
201909080800 METAR LRTM 080800Z 11009KT CAVOK 24/10 Q1019=
201909080830 METAR LRTM 080830Z 12007KT 080V140 CAVOK 24/11 Q1019=
201909080900 METAR LRTM 080900Z 11007KT CAVOK 25/10 Q1019=
201909080930 METAR LRTM 080930Z 11009KT 080V140 CAVOK 25/10 Q1019=
201909081000 METAR LRTM 081000Z 14009KT CAVOK 26/10 Q1019=
201909081030 METAR LRTM 081030Z 12010KT 090V160 CAVOK 27/10 Q1019=
201909081100 METAR LRTM 081100Z 13007KT 090V160 9999 FEW030 28/10 Q1018=
201909081130 METAR LRTM 081130Z 12007KT 100V160 9999 SCT032 29/10 Q1018=
201909081200 METAR LRTM 081200Z 17008KT 9999 SCT033 29/10 Q1018=
201909081230 METAR LRTM 081230Z 11010KT 9999 SCT035 29/10 Q1018=
201909081300 METAR LRTM 081300Z 14007KT 9999 SCT035 29/10 Q1018=
201909081330 METAR LRTM 081330Z 12008KT 9999 SCT038 29/09 Q1017=
201909081400 METAR LRTM 081400Z 17009KT 130V210 9999 SCT040 29/11 Q1017=
201909081430 METAR LRTM 081430Z 11010KT 9999 SCT040 28/10 Q1018=
201909081500 METAR LRTM 081500Z 12011KT 9999 BKN042 28/10 Q1018=
201909081530 METAR LRTM 081530Z 11011KT 9999 BKN045 27/10 Q1018=
201909081600 METAR LRTM 081600Z AUTO 11009KT 9999 OVC082/// 26/10 Q1018=
201909081630 METAR LRTM 081630Z AUTO 11009KT 9999 FEW078/// BKN098///
                        26/10 Q1018=
201909081700 METAR LRTM 081700Z AUTO 10006KT 9999 NCD 24/10 Q1018=
201909081730 METAR LRTM 081730Z AUTO 08004KT 9999 NCD 22/10 Q1019=
201909081800 METAR LRTM 081800Z AUTO 08003KT 9999 NCD 20/11 Q1019=
201909081830 METAR LRTM 081830Z AUTO 06005KT 9999 NCD 20/10 Q1019=
201909081900 METAR LRTM 081900Z AUTO 07006KT 9999 NCD 18/11 Q1019=
201909081930 METAR LRTM 081930Z AUTO 07004KT 9999 NCD 17/11 Q1019=
201909082000 METAR LRTM 082000Z AUTO 07005KT 9999 NCD 17/11 Q1019=
201909082030 METAR LRTM 082030Z AUTO 07005KT 9999 NCD 18/11 Q1019=
201909082100 METAR LRTM 082100Z AUTO 09005KT 9999 FEW150/// 17/10 Q1019=
201909082130 METAR LRTM 082130Z AUTO 07004KT 9999 NCD 17/10 Q1019=
201909082200 METAR LRTM 082200Z AUTO 05003KT 9999 NCD 16/10 Q1019=
201909082230 METAR LRTM 082230Z AUTO 05004KT 9999 NCD 18/10 Q1019=
201909082300 METAR LRTM 082300Z AUTO 07004KT 9999 NCD 16/11 Q1019=
201909082330 METAR LRTM 082330Z AUTO 07004KT 9999 OVC078/// 18/11 Q1019=
201909090000 METAR LRTM 090000Z AUTO 03006KT 9999 FEW078/// 19/11 Q1019=
201909090030 METAR LRTM 090030Z AUTO 03006KT 9999 NCD 18/11 Q1019=
201909090100 METAR LRTM 090100Z AUTO 06007KT 9999 NCD 18/11 Q1019=
201909090130 METAR LRTM 090130Z AUTO 09005KT 9999 NCD 15/10 Q1019=
201909090200 METAR LRTM 090200Z AUTO 10008KT 9999 NCD 13/10 Q1018=
201909090230 METAR LRTM 090230Z AUTO 09002KT 060V120 9999 NCD 14/10 Q1018=
201909090300 METAR LRTM 090300Z AUTO 09005KT 9999 NCD 14/10 Q1018=
201909090330 METAR LRTM 090330Z AUTO 08006KT 9999 NCD 14/10 Q1018=
201909090400 METAR LRTM 090400Z AUTO 06006KT 9999 NCD 15/09 Q1018=
201909090430 METAR LRTM 090430Z AUTO 06004KT 9999 NCD 14/10 Q1018=
201909090500 METAR LRTM 090500Z 07004KT CAVOK 15/10 Q1018=
201909090530 METAR LRTM 090530Z 06005KT CAVOK 19/10 Q1018=
201909090600 METAR LRTM 090600Z 07005KT CAVOK 20/09 Q1018=
201909090630 METAR LRTM 090630Z 10006KT CAVOK 21/09 Q1018=
201909090700 METAR LRTM 090700Z 10011KT CAVOK 23/08 Q1018=
201909090730 METAR LRTM 090730Z 11010KT 090V150 CAVOK 23/07 Q1018=
201909090800 METAR LRTM 090800Z 11011KT CAVOK 24/07 Q1017=
201909090830 METAR LRTM 090830Z 13012KT CAVOK 25/07 Q1017=
201909090900 METAR LRTM 090900Z 12011KT CAVOK 26/07 Q1017=
201909090930 METAR LRTM 090930Z 12015KT CAVOK 26/06 Q1017=
201909091000 METAR LRTM 091000Z 11013KT CAVOK 26/07 Q1016=
201909091030 METAR LRTM 091030Z 11013KT 080V140 CAVOK 27/07 Q1016=
201909091100 METAR LRTM 091100Z 11012KT CAVOK 26/06 Q1016=
201909091130 METAR COR LRTM 091130Z 13012KT CAVOK 27/07 Q1015=
201909091200 METAR LRTM 091200Z 13014KT CAVOK 27/07 Q1015=
201909091230 METAR LRTM 091230Z 12012KT CAVOK 27/06 Q1015=
201909091300 METAR LRTM 091300Z 12010KT 090V160 CAVOK 27/08 Q1014=
201909091330 METAR LRTM 091330Z 13014KT CAVOK 27/07 Q1014=
201909091400 METAR LRTM 091400Z 13016KT CAVOK 27/07 Q1014=
201909091430 METAR LRTM 091430Z 13011KT CAVOK 27/08 Q1014=
201909091500 METAR LRTM 091500Z 13011KT 100V160 CAVOK 26/09 Q1014=
201909091530 METAR LRTM 091530Z 12011KT CAVOK 26/09 Q1014=
201909091600 METAR LRTM 091600Z 12006KT CAVOK 24/09 Q1014=
201909091630 METAR LRTM 091630Z 12007KT CAVOK 23/09 Q1014=
201909091700 METAR LRTM 091700Z 11008KT CAVOK 23/08 Q1015=
201909091730 METAR LRTM 091730Z AUTO 12007KT 9999 SCT110/// 22/09 Q1015=
201909091800 METAR LRTM 091800Z AUTO 12006KT 9999 BKN130/// 21/09 Q1015=
201909091830 METAR LRTM 091830Z AUTO 12004KT 080V140 9999 FEW093/// BKN120///
                        21/09 Q1015=
201909091900 METAR LRTM 091900Z AUTO 12007KT 9999 OVC110/// 22/09 Q1015=
201909091930 METAR LRTM 091930Z AUTO 13008KT 9999 OVC100/// 22/09 Q1016=
201909092000 METAR LRTM 092000Z AUTO 12005KT 080V140 9999 OVC100/// 21/10
                        Q1016=
201909092030 METAR LRTM 092030Z AUTO VRB01KT 9999 FEW089/// BKN110///
                        20/10 Q1016=
201909092100 METAR LRTM 092100Z AUTO 07008KT 9999 FEW120/// 18/10 Q1016=
201909092130 METAR LRTM 092130Z AUTO 06006KT 040V100 9999 NCD 19/10 Q1016=
201909092200 METAR LRTM 092200Z AUTO 36002KT 300V070 9999 FEW110/// 16/09
                        Q1016=
201909092230 METAR LRTM 092230Z AUTO 05003KT 9999 FEW090/// 15/10 Q1017=
201909092300 METAR LRTM 092300Z AUTO 25003KT 180V280 9999 BKN093/// 13/09
                        Q1017=
201909092330 METAR LRTM 092330Z AUTO 25005KT 200V300 9999 FEW095/// 13/10
                        Q1017=
201909100000 METAR LRTM 100000Z AUTO VRB01KT 9999 BKN092/// 14/10 Q1018=
201909100030 METAR LRTM 100030Z AUTO VRB02KT 9999 OVC088/// 15/10 Q1018=
201909100100 METAR LRTM 100100Z AUTO 23003KT 190V310 9999 BKN086/// 15/11
                        Q1018=
201909100130 METAR LRTM 100130Z AUTO 24003KT 9999 BKN110/// 14/11 Q1018=
201909100200 METAR LRTM 100200Z AUTO 23004KT 9999 BKN099/// 12/10 Q1018=
201909100230 METAR LRTM 100230Z AUTO 22005KT 9999 OVC100/// 14/11 Q1018=
201909100300 METAR LRTM 100300Z AUTO 20004KT 9999 BKN100/// 14/11 Q1018=
201909100330 METAR LRTM 100330Z AUTO 21002KT 180V250 9999 SCT100/// 12/10
                        Q1019=
201909100400 METAR LRTM 100400Z AUTO 36001KT 9999 FEW100/// 13/10 Q1019=
201909100430 METAR LRTM 100430Z AUTO 12003KT 9999 BKN098/// 12/10 Q1019=
201909100500 METAR LRTM 100500Z 07003KT 8000 FEW012 14/11 Q1019=
201909100530 METAR LRTM 100530Z 07003KT 9000 FEW012 15/11 Q1019=
201909100600 METAR LRTM 100600Z 07003KT 050V110 CAVOK 16/11 Q1020=
201909100630 METAR LRTM 100630Z 07004KT 360V130 CAVOK 17/11 Q1020=
201909100700 METAR LRTM 100700Z 10003KT 020V150 CAVOK 18/11 Q1020=
201909100730 METAR LRTM 100730Z VRB02KT CAVOK 20/11 Q1020=
201909100800 METAR LRTM 100800Z VRB03KT CAVOK 21/10 Q1020=
201909100830 METAR LRTM 100830Z VRB03KT CAVOK 21/10 Q1020=
201909100900 METAR LRTM 100900Z VRB04KT CAVOK 22/10 Q1020=
201909100930 METAR LRTM 100930Z 27003KT 200V340 CAVOK 22/10 Q1020=
201909101000 METAR LRTM 101000Z 24003KT 150V320 CAVOK 23/10 Q1019=
201909101030 METAR LRTM 101030Z VRB03KT CAVOK 24/10 Q1019=
201909101100 METAR LRTM 101100Z VRB03KT CAVOK 25/09 Q1019=
201909101130 METAR LRTM 101130Z VRB04KT 9999 FEW023 25/10 Q1019=
201909101200 METAR LRTM 101200Z 35003KT 270V070 9999 FEW025 25/10 Q1019=
201909101230 METAR LRTM 101230Z VRB04KT 9999 FEW028 26/10 Q1019=
201909101300 METAR LRTM 101300Z 11005KT 060V200 9999 FEW030 26/10 Q1019=
201909101330 METAR LRTM 101330Z 08004KT 010V140 9999 FEW030 26/10 Q1018=
201909101400 METAR LRTM 101400Z VRB02KT 9999 FEW032 27/10 Q1018=
201909101430 METAR LRTM 101430Z VRB03KT 9999 FEW035 27/10 Q1018=
201909101500 METAR LRTM 101500Z VRB02KT 9999 FEW038 27/10 Q1018=
201909101530 METAR LRTM 101530Z 21003KT 160V270 9999 FEW040 26/09 Q1018=
201909101600 METAR LRTM 101600Z 27004KT 250V310 CAVOK 25/11 Q1018=
201909101630 METAR LRTM 101630Z 31004KT CAVOK 24/11 Q1018=
201909101700 METAR LRTM 101700Z VRB01KT CAVOK 21/12 Q1019=
201909101730 METAR LRTM 101730Z AUTO VRB02KT 9999 FEW099/// 20/11 Q1019=
201909101800 METAR LRTM 101800Z AUTO 03002KT 330V130 9999 NCD 20/11 Q1019=
201909101830 METAR LRTM 101830Z AUTO VRB01KT 9999 FEW069/// 18/11 Q1020=
201909101900 METAR LRTM 101900Z AUTO 06004KT 9999 OVC068/// 19/12 Q1020=
201909101930 METAR LRTM 101930Z AUTO 21003KT 120V250 9999 BKN068/// 17/12
                        Q1020=
201909102000 METAR LRTM 102000Z AUTO 23005KT 9999 NCD 15/11 Q1021=
201909102030 METAR LRTM 102030Z AUTO VRB01KT 9999 SCT100/// 16/12 Q1021=
201909102100 METAR LRTM 102100Z AUTO 09003KT 9999 BKN100/// 16/12 Q1021=
201909102130 METAR LRTM 102130Z AUTO VRB01KT 9999 NCD 15/11 Q1021=
201909102200 METAR LRTM 102200Z AUTO 11003KT 9999 NCD 13/10 Q1021=
201909102230 METAR LRTM 102230Z AUTO 06002KT 020V080 9999 NCD 13/10 Q1021=
201909102300 METAR LRTM 102300Z AUTO 10004KT 9999 NCD 12/10 Q1022=
201909102330 METAR LRTM 102330Z AUTO 09003KT 360V120 9999 NCD 12/10 Q1022=
201909110000 METAR LRTM 110000Z AUTO 10004KT 9999 NCD 13/10 Q1022=
201909110030 METAR LRTM 110030Z AUTO VRB01KT 9999 NCD 12/10 Q1022=
201909110100 METAR LRTM 110100Z AUTO 08005KT 9999 NCD 12/10 Q1022=
201909110130 METAR LRTM 110130Z AUTO 10005KT 9999 NCD 12/10 Q1022=
201909110200 METAR LRTM 110200Z AUTO 09004KT 9999 NCD 12/10 Q1022=
201909110230 METAR LRTM 110230Z AUTO 11003KT 9999 NCD 11/09 Q1022=
201909110300 METAR LRTM 110300Z AUTO 09004KT 9999 NCD 11/10 Q1022=
201909110330 METAR LRTM 110330Z 10004KT CAVOK 10/09 Q1023=
201909110400 METAR LRTM 110400Z 10004KT CAVOK 09/08 Q1023=
201909110430 METAR LRTM 110430Z 10003KT 9999 FEW008 10/08 Q1023=
201909110500 METAR LRTM 110500Z 10003KT 8000 FEW008 12/10 Q1023=
201909110530 METAR LRTM 110530Z 09003KT 7000 FEW008 13/10 Q1023=
201909110600 METAR LRTM 110600Z 09004KT 8000 FEW010 14/11 Q1024=
201909110630 METAR LRTM 110630Z 08004KT 060V120 8000 FEW010 16/11 Q1024=
201909110700 METAR LRTM 110700Z 08003KT 020V130 9999 FEW012 18/11 Q1024=
201909110730 METAR LRTM 110730Z VRB02KT CAVOK 20/10 Q1024=
201909110800 METAR LRTM 110800Z VRB03KT CAVOK 22/10 Q1024=
201909110830 METAR LRTM 110830Z VRB02KT CAVOK 23/09 Q1024=
201909110900 METAR LRTM 110900Z 14004KT 060V230 CAVOK 24/07 Q1024=
201909110930 METAR LRTM 110930Z VRB04KT CAVOK 25/06 Q1023=
201909111000 METAR LRTM 111000Z VRB02KT CAVOK 26/07 Q1023=
201909111030 METAR LRTM 111030Z 15005KT 100V200 CAVOK 26/03 Q1023=
201909111100 METAR LRTM 111100Z VRB04KT CAVOK 27/04 Q1023=
201909111130 METAR LRTM 111130Z 11008KT 070V140 CAVOK 27/04 Q1023=
201909111200 METAR LRTM 111200Z 11008KT 070V140 CAVOK 27/04 Q1023=
201909111230 METAR LRTM 111230Z 11007KT 070V140 CAVOK 28/05 Q1023=
201909111300 METAR LRTM 111300Z 11006KT 050V150 CAVOK 28/06 Q1023=
201909111330 METAR LRTM 111330Z 14008KT 100V180 CAVOK 28/06 Q1022=
201909111400 METAR LRTM 111400Z 12006KT CAVOK 27/04 Q1022=
201909111430 METAR LRTM 111430Z 12005KT CAVOK 26/05 Q1022=
201909111500 METAR LRTM 111500Z 17004KT CAVOK 26/06 Q1022=
201909111530 METAR LRTM 111530Z 24002KT CAVOK 26/07 Q1022=
201909111600 METAR LRTM 111600Z 00000KT CAVOK 25/09 Q1022=
201909111630 METAR LRTM 111630Z 00000KT CAVOK 23/09 Q1023=
201909111700 METAR LRTM 111700Z 08005KT CAVOK 19/11 Q1023=
201909111730 METAR LRTM 111730Z 11002KT CAVOK 19/10 Q1023=
201909111800 METAR LRTM 111800Z AUTO 08004KT 9999 SCT240/// 17/10 Q1024=
201909111830 METAR LRTM 111830Z AUTO 09005KT 9999 BKN240/// 17/10 Q1024=
201909111900 METAR LRTM 111900Z AUTO 06006KT 9999 BKN240/// 16/10 Q1024=
201909111930 METAR LRTM 111930Z AUTO 08005KT 9999 SCT240/// 15/10 Q1024=
201909112000 METAR LRTM 112000Z AUTO 08006KT 9999 SCT240/// 16/10 Q1024=
201909112030 METAR LRTM 112030Z AUTO 10006KT 9999 BKN230/// 15/10 Q1025=
201909112100 METAR LRTM 112100Z AUTO 09006KT 9999 FEW240/// 15/10 Q1025=
201909112130 METAR LRTM 112130Z AUTO 09008KT 9999 BKN240/// 15/10 Q1025=
201909112200 METAR LRTM 112200Z AUTO 08007KT 9999 BKN230/// 15/10 Q1025=
201909112230 METAR LRTM 112230Z AUTO 09006KT 9999 SCT230/// 13/10 Q1025=
201909112300 METAR LRTM 112300Z AUTO 11004KT 9999 FEW230/// 14/10 Q1025=
201909112330 METAR LRTM 112330Z AUTO 12004KT 9999 BKN230/// 13/10 Q1025=
201909120000 METAR LRTM 120000Z AUTO 09005KT 9999 SCT230/// 12/09 Q1025=
201909120030 METAR LRTM 120030Z AUTO 10005KT 9999 BKN230/// 12/09 Q1025=
201909120100 METAR LRTM 120100Z AUTO 09004KT 9999 BKN230/// 11/09 Q1025=
201909120130 METAR LRTM 120130Z AUTO 10005KT 9999 FEW230/// 11/09 Q1026=
201909120200 METAR LRTM 120200Z AUTO 10003KT 9999 NCD 11/09 Q1026=
201909120230 METAR LRTM 120230Z AUTO 10005KT 9999 FEW240/// 11/08 Q1026=
201909120300 METAR LRTM 120300Z AUTO 09008KT 9999 BKN240/// 11/09 Q1026=
201909120330 METAR LRTM 120330Z AUTO 09006KT 9999 SCT240/// 10/08 Q1026=
201909120400 METAR LRTM 120400Z AUTO 10007KT 9999 FEW240/// 10/08 Q1026=
201909120430 METAR LRTM 120430Z AUTO 09008KT 9999 NCD 10/08 Q1026=
201909120500 METAR LRTM 120500Z 10006KT 9000 FEW009 10/08 Q1026=
201909120530 METAR LRTM 120530Z 10005KT 9000 FEW009 12/09 Q1026=
201909120600 METAR LRTM 120600Z 10005KT 9000 FEW010 13/09 Q1026=
201909120630 METAR LRTM 120630Z 08003KT 050V120 9000 FEW012 15/10 Q1027=
201909120700 METAR LRTM 120700Z VRB02KT 9000 FEW012 17/10 Q1027=
201909120730 METAR LRTM 120730Z VRB01KT 9000 FEW015 18/10 Q1027=
201909120800 METAR LRTM 120800Z VRB01KT CAVOK 19/10 Q1027=
201909120830 METAR LRTM 120830Z 31003KT 240V010 CAVOK 21/10 Q1027=
201909120900 METAR LRTM 120900Z 26004KT 210V320 CAVOK 22/10 Q1027=
201909120930 METAR LRTM 120930Z 26003KT 170V340 CAVOK 23/10 Q1027=
201909121000 METAR LRTM 121000Z 25004KT 210V320 CAVOK 24/10 Q1027=
201909121030 METAR LRTM 121030Z 26005KT 230V290 CAVOK 24/07 Q1027=
201909121100 METAR LRTM 121100Z 26005KT 210V310 CAVOK 25/06 Q1027=
201909121130 METAR LRTM 121130Z 32005KT 230V010 CAVOK 25/06 Q1027=
201909121200 METAR LRTM 121200Z VRB02KT CAVOK 26/06 Q1026=
201909121230 METAR LRTM 121230Z 32004KT 270V030 CAVOK 26/06 Q1026=
201909121300 METAR LRTM 121300Z VRB03KT CAVOK 27/06 Q1026=
201909121330 METAR LRTM 121330Z VRB02KT CAVOK 27/06 Q1026=
201909121400 METAR LRTM 121400Z VRB03KT CAVOK 28/06 Q1026=
201909121430 METAR LRTM 121430Z VRB03KT CAVOK 27/05 Q1026=
201909121500 METAR LRTM 121500Z 15004KT 120V180 CAVOK 26/06 Q1026=
201909121530 METAR LRTM 121530Z 14003KT CAVOK 26/06 Q1026=
201909121600 METAR LRTM 121600Z 15003KT CAVOK 26/07 Q1026=
201909121630 METAR LRTM 121630Z 16003KT CAVOK 23/08 Q1026=
201909121700 METAR LRTM 121700Z 20003KT CAVOK 20/08 Q1026=
201909121730 METAR LRTM 121730Z AUTO VRB01KT 9999 SCT220/// 18/09 Q1026=
201909121800 METAR LRTM 121800Z AUTO 00000KT 9999 NCD 17/09 Q1026=
201909121830 METAR LRTM 121830Z AUTO VRB01KT 9999 NCD 15/08 Q1027=
201909121900 METAR LRTM 121900Z AUTO VRB01KT 9999 NCD 14/08 Q1027=
201909121930 METAR LRTM 121930Z AUTO 08002KT 9999 FEW230/// 14/08 Q1027=
201909122000 METAR LRTM 122000Z AUTO 07003KT 9999 FEW230/// 13/08 Q1027=
201909122030 METAR LRTM 122030Z AUTO 08005KT 9999 BKN077/// 12/08 Q1027=
201909122100 METAR LRTM 122100Z AUTO 09004KT 9999 SCT079/// 12/08 Q1027=
201909122130 METAR LRTM 122130Z AUTO 08004KT 040V100 9999 BKN078/// 13/09
                        Q1027=
201909122200 METAR LRTM 122200Z AUTO 08005KT 9999 FEW081/// 13/08 Q1027=
201909122230 METAR LRTM 122230Z AUTO 11003KT 9999 FEW080/// 12/09 Q1027=
201909122300 METAR LRTM 122300Z AUTO 09002KT 040V130 9999 FEW080/// 12/09
                        Q1027=
201909122330 METAR LRTM 122330Z AUTO 00000KT 9999 FEW088/// 11/08 Q1027=
201909130000 METAR LRTM 130000Z AUTO 08002KT 330V140 9999 FEW091/// 10/08
                        Q1027=
201909130030 METAR LRTM 130030Z AUTO 10002KT 060V120 9999 FEW087/// 10/08
                        Q1028=
201909130100 METAR LRTM 130100Z AUTO 03003KT 340V090 9999 SCT090/// 09/08
                        Q1027=
201909130130 METAR LRTM 130130Z AUTO 09003KT 9999 FEW086/// 09/07 Q1028=
201909130200 METAR LRTM 130200Z AUTO 07003KT 9999 NCD 09/08 Q1028=
201909130230 METAR LRTM 130230Z AUTO 09002KT 050V110 9999 NCD 09/07 Q1028=
201909130300 METAR LRTM 130300Z AUTO 09004KT 9999 NCD 09/07 Q1028=
201909130330 METAR LRTM 130330Z AUTO VRB01KT 9999 NCD 08/06 Q1028=
201909130400 METAR LRTM 130400Z AUTO 00000KT 9999 NCD 08/06 Q1028=
201909130430 METAR LRTM 130430Z AUTO 09004KT 9999 NCD 08/06 Q1028=
201909130500 METAR LRTM 130500Z 09005KT 9999 FEW012 10/08 Q1029=
201909130530 METAR LRTM 130530Z 10004KT 9999 FEW014 12/09 Q1029=
201909130600 METAR LRTM 130600Z 08004KT CAVOK 13/09 Q1029=
201909130630 METAR LRTM 130630Z 07002KT CAVOK 15/09 Q1029=
201909130700 METAR LRTM 130700Z 09004KT 050V120 CAVOK 17/09 Q1029=
201909130730 METAR LRTM 130730Z VRB03KT CAVOK 19/08 Q1029=
201909130800 METAR LRTM 130800Z VRB01KT CAVOK 20/09 Q1029=
201909130830 METAR LRTM 130830Z VRB02KT CAVOK 21/09 Q1029=
201909130900 METAR LRTM 130900Z VRB04KT CAVOK 22/10 Q1029=
201909130930 METAR LRTM 130930Z VRB04KT CAVOK 23/10 Q1028=
201909131000 METAR LRTM 131000Z VRB03KT CAVOK 24/10 Q1028=
201909131030 METAR LRTM 131030Z VRB02KT CAVOK 26/10 Q1028=
201909131100 METAR LRTM 131100Z VRB03KT CAVOK 27/10 Q1027=
201909131130 METAR LRTM 131130Z VRB04KT CAVOK 28/10 Q1027=
201909131200 METAR LRTM 131200Z VRB03KT 9999 FEW045 27/09 Q1026=
201909131230 METAR LRTM 131230Z VRB03KT 9999 FEW045 28/08 Q1026=
201909131300 METAR COR LRTM 131300Z 25005KT 180V320 9999 FEW046 28/08
                        Q1026=
201909131330 METAR LRTM 131330Z VRB03KT 9999 FEW046 28/08 Q1026=
201909131400 METAR LRTM 131400Z 25006KT CAVOK 28/08 Q1025=
201909131430 METAR LRTM 131430Z 25003KT 200V330 CAVOK 28/08 Q1025=
201909131500 METAR LRTM 131500Z VRB04KT CAVOK 28/08 Q1025=
201909131530 METAR LRTM 131530Z 35004KT CAVOK 27/07 Q1025=
201909131600 METAR LRTM 131600Z 28003KT 250V310 CAVOK 25/08 Q1025=
201909131630 METAR LRTM 131630Z 26003KT 220V280 CAVOK 22/10 Q1025=
201909131700 METAR LRTM 131700Z 23002KT CAVOK 21/10 Q1025=
201909131730 METAR LRTM 131730Z AUTO 27002KT 220V010 9999 BKN082/// 20/10
                        Q1025=
201909131800 METAR LRTM 131800Z AUTO 24003KT 210V270 9999 BKN084/// 19/11
                        Q1026=
201909131830 METAR LRTM 131830Z AUTO 24003KT 210V280 9999 FEW082/// 19/10
                        Q1026=
201909131900 METAR LRTM 131900Z AUTO 22002KT 170V260 9999 OVC081/// 19/10
                        Q1026=
201909131930 METAR LRTM 131930Z AUTO 24002KT 210V280 9999 SCT081/// 18/10
                        Q1026=
201909132000 METAR LRTM 132000Z AUTO 24002KT 170V300 9999 FEW083/// 18/10
                        Q1026=
201909132030 METAR LRTM 132030Z AUTO 26002KT 210V310 9999 NCD 17/10 Q1026=
201909132100 METAR LRTM 132100Z AUTO 06002KT 020V100 9999 NCD 15/10 Q1026=
201909132130 METAR LRTM 132130Z AUTO 00000KT 9999 NCD 14/09 Q1026=
201909132200 METAR LRTM 132200Z AUTO 00000KT 9999 NCD 13/10 Q1027=
201909132230 METAR LRTM 132230Z AUTO 10004KT 9999 NCD 13/10 Q1027=
201909132300 METAR LRTM 132300Z AUTO 06002KT 9999 NCD 12/09 Q1027=
201909132330 METAR LRTM 132330Z AUTO 00000KT 9999 NCD 12/09 Q1027=
201909140000 METAR LRTM 140000Z AUTO 00000KT 9999 NCD 11/09 Q1027=
201909140030 METAR LRTM 140030Z AUTO 00000KT 9999 NCD 11/09 Q1027=
201909140100 METAR LRTM 140100Z AUTO 00000KT 9999 NCD 10/09 Q1026=
201909140130 METAR LRTM 140130Z AUTO 07002KT 9999 NCD 10/08 Q1026=
201909140200 METAR LRTM 140200Z AUTO 08002KT 9999 NCD 09/08 Q1026=
201909140230 METAR LRTM 140230Z AUTO 09003KT 9999 NCD 09/08 Q1026=
201909140300 METAR LRTM 140300Z AUTO 09004KT 9999 BKN063/// 10/08 Q1026=
201909140330 METAR LRTM 140330Z AUTO 08005KT 9999 BKN063/// 10/08 Q1027=
201909140400 METAR LRTM 140400Z AUTO 09005KT 9999 BKN063/// 10/09 Q1027=
201909140430 METAR LRTM 140430Z AUTO 08004KT 9999 OVC063/// 11/09 Q1027=
201909140500 METAR LRTM 140500Z 07005KT 8000 FEW008 12/10 Q1027=
201909140530 METAR LRTM 140530Z 09006KT 8000 FEW008 13/10 Q1027=
201909140600 METAR LRTM 140600Z 08006KT 8000 FEW010 14/11 Q1027=
201909140630 METAR LRTM 140630Z 08005KT 040V120 8000 FEW010 16/11 Q1027=
201909140700 METAR LRTM 140700Z 08003KT 040V140 8000 FEW012 17/11 Q1027=
201909140730 METAR LRTM 140730Z VRB01KT 9000 FEW012 20/11 Q1027=
201909140800 METAR LRTM 140800Z VRB03KT CAVOK 21/11 Q1027=
201909140830 METAR LRTM 140830Z 32005KT 270V020 CAVOK 22/11 Q1027=
201909140900 METAR LRTM 140900Z 29004KT 210V350 CAVOK 23/11 Q1027=
201909140930 METAR LRTM 140930Z VRB05KT 9999 FEW035 24/11 Q1027=
201909141000 METAR LRTM 141000Z 31007KT 260V010 9999 FEW035 24/11 Q1026=
201909141030 METAR COR LRTM 141030Z 30006KT 250V340 9999 FEW037 24/11
                        Q1026=
201909141100 METAR LRTM 141100Z 35006KT 310V020 9999 SCT037 25/11 Q1026=
201909141130 METAR LRTM 141130Z 28007KT 250V310 9999 BKN038 25/10 Q1026=
201909141200 METAR LRTM 141200Z 28008KT 9999 BKN040 27/10 Q1026=
201909141230 METAR LRTM 141230Z 31008KT 260V340 9999 BKN040 26/09 Q1025=
201909141300 METAR LRTM 141300Z 31009KT 270V340 9999 SCT040 25/09 Q1025=
201909141330 METAR LRTM 141330Z 32008KT 290V360 9999 SCT042 25/10 Q1025=
201909141400 METAR LRTM 141400Z 31005KT 250V030 9999 FEW042 25/09 Q1025=
201909141430 METAR LRTM 141430Z 31008KT 9999 FEW042 26/10 Q1025=
201909141500 METAR LRTM 141500Z 31009KT 280V340 9999 FEW044 25/10 Q1025=
201909141530 METAR LRTM 141530Z 34008KT 310V020 9999 FEW044 25/10 Q1025=
201909141600 METAR LRTM 141600Z 33008KT CAVOK 24/09 Q1024=
201909141630 METAR LRTM 141630Z 31008KT CAVOK 23/09 Q1025=
201909141700 METAR LRTM 141700Z 31004KT 280V340 CAVOK 21/09 Q1025=
201909141730 METAR LRTM 141730Z AUTO 32007KT 9999 NCD 21/09 Q1025=
201909141800 METAR LRTM 141800Z AUTO 30005KT 270V330 9999 NCD 20/09 Q1026=
201909141830 METAR LRTM 141830Z AUTO 30006KT 270V330 9999 NCD 20/09 Q1026=
201909141900 METAR LRTM 141900Z AUTO 29004KT 9999 NCD 18/09 Q1026=
201909141930 METAR LRTM 141930Z AUTO 29005KT 260V330 9999 NCD 17/09 Q1027=
201909142000 METAR LRTM 142000Z AUTO 25003KT 220V320 9999 NCD 15/09 Q1027=
201909142030 METAR LRTM 142030Z AUTO VRB02KT 9999 SCT082/// 16/08 Q1027=
201909142100 METAR LRTM 142100Z AUTO VRB01KT 9999 SCT073/// 16/08 Q1027=
201909142130 METAR LRTM 142130Z AUTO 26005KT 220V310 9999 BKN071/// 16/07
                        Q1027=
201909142200 METAR LRTM 142200Z AUTO 27003KT 230V350 9999 BKN068/// 15/07
                        Q1027=
201909142230 METAR LRTM 142230Z AUTO VRB01KT 9999 FEW070/// 13/07 Q1027=
201909142300 METAR LRTM 142300Z AUTO 26003KT 230V290 9999 NCD 13/06 Q1027=
201909142330 METAR LRTM 142330Z AUTO 24004KT 9999 FEW071/// 11/07 Q1027=
201909150000 METAR LRTM 150000Z AUTO 24004KT 9999 OVC067/// 12/08 Q1027=
201909150030 METAR LRTM 150030Z AUTO 24004KT 9999 BKN071/// 12/07 Q1027=
201909150100 METAR LRTM 150100Z AUTO 25003KT 9999 OVC062/// 14/07 Q1028=
201909150130 METAR LRTM 150130Z AUTO VRB01KT 9999 OVC069/// 13/07 Q1028=
201909150200 METAR LRTM 150200Z AUTO 23002KT 190V280 9999 FEW065/// 11/07
                        Q1027=
201909150230 METAR LRTM 150230Z AUTO VRB01KT 9999 FEW074/// 10/07 Q1027=
201909150300 METAR LRTM 150300Z AUTO 22004KT 9999 FEW072/// 08/05 Q1027=
201909150330 METAR LRTM 150330Z 33004KT 310V010 9999 FEW017 08/06 Q1027=
201909150400 METAR LRTM 150400Z 10001KT 9999 FEW017 07/05 Q1027=
201909150430 METAR LRTM 150430Z 00000KT 9999 FEW013 08/06 Q1027=
201909150500 METAR LRTM 150500Z 00000KT 9999 FEW013 10/07 Q1028=
201909150530 METAR LRTM 150530Z VRB02KT 9999 FEW021 11/08 Q1027=
201909150600 METAR LRTM 150600Z 08003KT 050V110 9999 FEW021 13/09 Q1027=
201909150630 METAR LRTM 150630Z 00000KT 9999 FEW021 14/08 Q1027=
201909150700 METAR LRTM 150700Z VRB01KT CAVOK 16/08 Q1028=
201909150730 METAR LRTM 150730Z 09003KT 010V140 CAVOK 17/09 Q1028=
201909150800 METAR LRTM 150800Z VRB02KT CAVOK 19/09 Q1027=
201909150830 METAR LRTM 150830Z VRB03KT CAVOK 20/08 Q1027=
201909150900 METAR LRTM 150900Z 29003KT 220V030 CAVOK 21/07 Q1027=
201909150930 METAR LRTM 150930Z VRB03KT CAVOK 22/07 Q1027=
201909151000 METAR LRTM 151000Z VRB04KT CAVOK 22/07 Q1027=
201909151030 METAR LRTM 151030Z VRB04KT CAVOK 23/08 Q1026=
201909151100 METAR LRTM 151100Z VRB04KT CAVOK 23/08 Q1026=
201909151130 METAR LRTM 151130Z VRB03KT CAVOK 24/08 Q1025=
201909151200 METAR LRTM 151200Z 23007KT 190V260 CAVOK 24/08 Q1025=
201909151230 METAR LRTM 151230Z 24007KT 210V290 CAVOK 25/08 Q1025=
201909151300 METAR LRTM 151300Z 24005KT 190V330 CAVOK 25/07 Q1024=
201909151330 METAR LRTM 151330Z VRB03KT CAVOK 25/07 Q1024=
201909151400 METAR LRTM 151400Z 31005KT 240V020 CAVOK 25/07 Q1023=
201909151430 METAR LRTM 151430Z 30004KT 240V340 CAVOK 25/08 Q1023=
201909151500 METAR LRTM 151500Z 33003KT 250V010 CAVOK 25/08 Q1023=
201909151530 METAR LRTM 151530Z 34003KT 290V020 CAVOK 24/08 Q1023=
201909151600 METAR LRTM 151600Z AUTO 35004KT 9999 NCD 22/09 Q1022=
201909151630 METAR LRTM 151630Z AUTO 35004KT 9999 NCD 21/09 Q1022=
201909151700 METAR LRTM 151700Z AUTO VRB01KT 9999 NCD 19/08 Q1022=
201909151730 METAR LRTM 151730Z AUTO VRB01KT 9999 NCD 16/09 Q1022=
201909151800 METAR LRTM 151800Z AUTO 00000KT 9999 NCD 15/09 Q1022=
201909151830 METAR LRTM 151830Z AUTO VRB01KT 9999 NCD 14/08 Q1022=
201909151900 METAR LRTM 151900Z AUTO 00000KT 9999 NCD 13/08 Q1022=
201909151930 METAR LRTM 151930Z AUTO 00000KT 9999 NCD 12/08 Q1022=
201909152000 METAR LRTM 152000Z AUTO 00000KT 9999 NCD 11/08 Q1022=
201909152030 METAR LRTM 152030Z AUTO 00000KT 9999 NCD 10/07 Q1022=
201909152100 METAR LRTM 152100Z AUTO 00000KT 9999 NCD 11/08 Q1022=
201909152130 METAR LRTM 152130Z AUTO 00000KT 9999 NCD 10/07 Q1022=
201909152200 METAR LRTM 152200Z AUTO 00000KT 9999 NCD 09/07 Q1022=
201909152230 METAR LRTM 152230Z AUTO 00000KT 9999 NCD 09/07 Q1022=
201909152300 METAR LRTM 152300Z AUTO 00000KT 9999 NCD 08/06 Q1022=
201909152330 METAR LRTM 152330Z AUTO 11002KT 9999 NCD 08/06 Q1022=
201909160000 METAR LRTM 160000Z AUTO 02002KT 350V060 9999 NCD 08/06 Q1022=
201909160030 METAR LRTM 160030Z AUTO 08002KT 9999 NCD 07/06 Q1022=
201909160100 METAR LRTM 160100Z AUTO 10002KT 9999 NCD 07/05 Q1021=
201909160130 METAR LRTM 160130Z AUTO 10004KT 9999 NCD 07/06 Q1021=
201909160200 METAR LRTM 160200Z AUTO 10006KT 9999 NCD 08/06 Q1021=
201909160230 METAR LRTM 160230Z AUTO 10004KT 9999 NCD 07/06 Q1021=
201909160300 METAR LRTM 160300Z AUTO 09005KT 9999 NCD 07/06 Q1021=
201909160330 METAR LRTM 160330Z 10004KT CAVOK 07/05 Q1021=
201909160400 METAR LRTM 160400Z 10005KT 9000 FEW012 07/06 Q1021=
201909160430 METAR LRTM 160430Z 10006KT 9000 FEW010 08/06 Q1021=
201909160500 METAR LRTM 160500Z 09005KT 9000 FEW010 08/06 Q1021=
201909160530 METAR LRTM 160530Z 09005KT 9000 FEW010 09/07 Q1021=
201909160600 METAR LRTM 160600Z 10004KT 9000 FEW012 10/07 Q1021=
201909160630 METAR LRTM 160630Z 08004KT 050V120 9000 FEW012 12/08 Q1021=
201909160700 METAR LRTM 160700Z VRB02KT 9000 FEW015 15/09 Q1021=
201909160730 METAR LRTM 160730Z VRB02KT 9000 FEW015 16/09 Q1020=
201909160800 METAR LRTM 160800Z 26003KT 180V340 CAVOK 17/09 Q1020=
201909160830 METAR LRTM 160830Z 12002KT CAVOK 20/08 Q1020=
201909160900 METAR LRTM 160900Z VRB03KT CAVOK 21/10 Q1020=
201909160930 METAR LRTM 160930Z 32008KT CAVOK 22/10 Q1020=
201909161000 METAR LRTM 161000Z 02006KT 350V060 CAVOK 23/09 Q1019=
201909161030 METAR LRTM 161030Z 31008KT 280V340 CAVOK 23/09 Q1019=
201909161100 METAR LRTM 161100Z 30006KT 260V320 9999 FEW023 24/09 Q1019=
201909161130 METAR LRTM 161130Z 29007KT 250V340 9999 FEW025 25/10 Q1018=
201909161200 METAR LRTM 161200Z 24006KT 200V310 9999 FEW028 25/09 Q1018=
201909161230 METAR LRTM 161230Z 33005KT 220V020 9999 FEW028 25/09 Q1017=
201909161300 METAR LRTM 161300Z VRB04KT 9999 FEW028 25/10 Q1017=
201909161330 METAR LRTM 161330Z 32005KT 270V010 9999 FEW030 26/10 Q1016=
201909161400 METAR LRTM 161400Z 24005KT 180V290 9999 FEW032 25/09 Q1016=
201909161430 METAR LRTM 161430Z VRB03KT 9999 FEW032 26/09 Q1016=
201909161500 METAR LRTM 161500Z 18003KT 090V260 9999 FEW035 25/10 Q1016=
201909161530 METAR LRTM 161530Z 24002KT 9999 FEW035 25/10 Q1015=
201909161600 METAR LRTM 161600Z 00000KT 9999 FEW038 25/10 Q1015=
201909161630 METAR LRTM 161630Z 00000KT 9999 FEW038 22/11 Q1015=
201909161700 METAR LRTM 161700Z 00000KT 9999 FEW038 19/11 Q1015=
201909161730 METAR LRTM 161730Z AUTO 05002KT 9999 SCT068/// 17/10 Q1015=
201909161800 METAR LRTM 161800Z AUTO 06003KT 9999 NCD 15/09 Q1015=
201909161830 METAR LRTM 161830Z AUTO VRB01KT 9999 FEW068/// 15/10 Q1015=
201909161900 METAR LRTM 161900Z AUTO 04002KT 330V070 9999 NCD 15/10 Q1015=
201909161930 METAR LRTM 161930Z AUTO 06003KT 010V090 9999 NCD 14/10 Q1016=
201909162000 METAR LRTM 162000Z AUTO 10004KT 9999 NCD 13/10 Q1016=
201909162030 METAR LRTM 162030Z AUTO 09005KT 9999 NCD 14/10 Q1015=
201909162100 METAR LRTM 162100Z AUTO 10004KT 9999 NCD 13/09 Q1015=
201909162130 METAR LRTM 162130Z AUTO 11003KT 9999 NCD 12/09 Q1015=
201909162200 METAR LRTM 162200Z AUTO 01003KT 320V070 9999 NCD 12/09 Q1015=
201909162230 METAR LRTM 162230Z AUTO 16001KT 9999 FEW220/// 11/09 Q1015=
201909162300 METAR LRTM 162300Z AUTO 08003KT 9999 NCD 11/09 Q1015=
201909162330 METAR LRTM 162330Z AUTO 04002KT 330V100 9999 FEW190/// 11/08
                        Q1015=
201909170000 METAR LRTM 170000Z AUTO 00000KT 9999 FEW190/// 10/08 Q1014=
201909170030 METAR LRTM 170030Z AUTO 00000KT 9999 NCD 10/08 Q1014=
201909170100 METAR LRTM 170100Z AUTO 05003KT 010V080 9999 NCD 10/09 Q1014=
201909170130 METAR LRTM 170130Z AUTO 08004KT 9999 NCD 10/09 Q1014=
201909170200 METAR LRTM 170200Z AUTO 10004KT 060V120 9999 SCT170/// 10/09
                        Q1014=
201909170230 METAR LRTM 170230Z AUTO 10005KT 9999 FEW170/// SCT240///
                        12/10 Q1014=
201909170300 METAR LRTM 170300Z AUTO 08003KT 060V120 9000 BKN170/// 11/10
                        Q1014=
201909170330 METAR LRTM 170330Z AUTO VRB01KT 9999 BKN140/// 11/09 Q1014=
201909170400 METAR LRTM 170400Z AUTO VRB01KT 9999 BKN120/// 11/10 Q1014=
201909170430 METAR LRTM 170430Z AUTO 07002KT 9999 -RA BKN097/// 12/10
                        Q1015=
201909170500 METAR LRTM 170500Z 06004KT 9999 -RA SCT033 12/10 Q1015=
201909170530 METAR LRTM 170530Z 07003KT 040V110 7000 -SHRA FEW015 SCT033
                        FEW045CB 12/11 Q1015=
201909170600 METAR LRTM 170600Z 11003KT 040V130 7000 -SHRA SCT017 SCT033
                        FEW043CB 13/11 Q1015 R07/19//95=
201909170630 METAR COR LRTM 170630Z 08003KT 030V100 7000 -SHRA SCT018
                        SCT032 FEW043CB 13/11 Q1015 R07/19//95=
201909170700 METAR COR LRTM 170700Z 04002KT 7000 -RA FEW018 SCT032 14/12
                        Q1015 R07/19//95=
201909170730 METAR LRTM 170730Z 35002KT 8000 SCT033 15/13 Q1014 R07/19//95=
201909170800 METAR LRTM 170800Z 36002KT 9999 SCT045 15/13 Q1014 R07/19//95=
201909170830 METAR LRTM 170830Z 03003KT 350V060 9999 SCT045 17/14 Q1015
                        R07/19//95=
201909170900 METAR LRTM 170900Z 08005KT 9999 SCT045 17/14 Q1015 R07/19//95=
201909170930 METAR LRTM 170930Z 10006KT 9999 SCT046 18/14 Q1014 R07/19//95=
201909171000 METAR LRTM 171000Z 08005KT 050V110 9999 SCT047 19/14 Q1014
                        R07/19//95=
201909171030 METAR LRTM 171030Z 07004KT 9999 SCT047 19/14 Q1014 R07/19//95=
201909171100 METAR LRTM 171100Z 08003KT 040V140 9999 SCT047 19/14 Q1014
                        R07/19//95=
201909171130 METAR LRTM 171130Z 08003KT 050V120 9999 SCT040 20/13 Q1014
                        R07/19//95=
201909171200 METAR LRTM 171200Z 09004KT 060V130 9999 SCT040 21/14 Q1013
                        R07/19//95=
201909171230 METAR LRTM 171230Z 08004KT 040V120 9999 FEW033 SCT045 21/13
                        Q1013 R07/19//95=
201909171300 METAR LRTM 171300Z 07004KT 040V120 9999 FEW033 SCT045 21/13
                        Q1013 R07/19//95=
201909171330 METAR LRTM 171330Z 06004KT 030V100 9999 FEW033 SCT045 21/13
                        Q1012 R07/CLRD//=
201909171400 METAR LRTM 171400Z 08004KT 9999 FEW035 BKN048 22/13 Q1012=
201909171430 METAR LRTM 171430Z 06004KT 320V110 9999 FEW035 BKN048 21/14
                        Q1012=
201909171500 METAR LRTM 171500Z 26005KT 220V320 9999 FEW035 BKN048 22/12
                        Q1011=
201909171530 METAR LRTM 171530Z 23009KT 9999 BKN048 22/12 Q1011=
201909171600 METAR LRTM 171600Z 23008KT 9999 SCT048 22/12 Q1011=
201909171630 METAR LRTM 171630Z 09003KT 360V170 9999 SCT048 20/13 Q1011=
201909171700 METAR LRTM 171700Z 05005KT 030V090 9999 BKN048 19/14 Q1012=
201909171730 METAR LRTM 171730Z AUTO 08003KT 040V130 9999 BKN058/// SCT110///
                        19/14 Q1012=
201909171800 METAR LRTM 171800Z AUTO 22002KT 150V280 9999 OVC100/// 19/13
                        Q1012=
201909171830 METAR LRTM 171830Z AUTO 25006KT 9999 OVC100/// 19/12 Q1012=
201909171900 METAR LRTM 171900Z AUTO 24009KT 9999 OVC110/// 19/11 Q1012=
201909171930 METAR LRTM 171930Z AUTO 25009KT 9999 BKN120/// 18/11 Q1012=
201909172000 METAR LRTM 172000Z AUTO 25008KT 9999 SCT120/// 17/11 Q1012=
201909172030 METAR LRTM 172030Z AUTO 25007KT 9999 NCD 16/11 Q1012=
201909172100 METAR LRTM 172100Z AUTO 26006KT 9999 NCD 16/11 Q1012=
201909172130 METAR LRTM 172130Z AUTO 24007KT 9999 FEW120/// 14/11 Q1012=
201909172200 METAR LRTM 172200Z AUTO 25006KT 9999 SCT110/// SCT130///
                        15/11 Q1012=
201909172230 METAR LRTM 172230Z AUTO 26006KT 9999 BKN110/// 17/12 Q1012=
201909172300 METAR LRTM 172300Z AUTO 25005KT 9999 OVC120/// 16/12 Q1011=
201909172330 METAR LRTM 172330Z AUTO 30004KT 270V330 9999 FEW067/// OVC120///
                        15/12 Q1012=
201909180000 METAR LRTM 180000Z AUTO 29003KT 260V330 9999 FEW054/// BKN110///
                        16/12 Q1012=
201909180030 METAR LRTM 180030Z AUTO 25003KT 220V280 9999 OVC110/// 16/12
                        Q1012=
201909180100 METAR LRTM 180100Z AUTO 25004KT 9999 -SHRA BKN099/// 16/12
                        Q1012=
201909180130 METAR LRTM 180130Z AUTO 30007KT 260V330 9999 BKN100/// 17/10
                        Q1012 REDZ=
201909180200 METAR LRTM 180200Z AUTO 28007KT 9999 -SHRA FEW037/// OVC100///
                        17/10 Q1012=
201909180230 METAR LRTM 180230Z AUTO 28007KT 250V310 9999 BKN100/// 17/09
                        Q1012 REDZ=
201909180300 METAR LRTM 180300Z AUTO 28008KT 9999 BKN120/// 17/09 Q1012=
201909180330 METAR LRTM 180330Z 28008KT CAVOK 16/09 Q1013=
201909180400 METAR LRTM 180400Z 28006KT 240V300 9999 FEW043 15/08 Q1013=
201909180430 METAR LRTM 180430Z 28006KT 240V320 9999 FEW040 15/08 Q1013=
201909180500 METAR LRTM 180500Z 27006KT 250V310 9999 FEW042 15/06 Q1014=
201909180530 METAR LRTM 180530Z 28012KT 250V320 9999 FEW042 16/06 Q1014=
201909180600 METAR LRTM 180600Z 30011KT 260V330 9999 FEW040 16/06 Q1014=
201909180630 METAR LRTM 180630Z 30012G22KT 270V330 9999 FEW041 17/06 Q1015=
201909180700 METAR LRTM 180700Z 32015KT 290V350 9999 FEW041 16/07 Q1016=
201909180730 METAR LRTM 180730Z 31012KT 9999 FEW042 16/05 Q1016=
201909180800 METAR LRTM 180800Z 31013KT 280V350 9999 FEW042 17/05 Q1016=
201909180830 METAR LRTM 180830Z 31016KT 270V330 9999 SCT045 16/04 Q1017=
201909180900 METAR LRTM 180900Z 32013KT 290V360 9999 SCT048 16/04 Q1017=
201909180930 METAR LRTM 180930Z 33015KT 9999 SCT048 16/03 Q1017=
201909181000 METAR LRTM 181000Z 32014G26KT 280V010 9999 FEW046 17/02 Q1017=
201909181030 METAR LRTM 181030Z 31014KT 9999 FEW046 17/02 Q1017=
201909181100 METAR LRTM 181100Z 31013KT 270V350 9999 FEW046 18/02 Q1018=
201909181130 METAR LRTM 181130Z 32013KT 290V010 9999 FEW046 18/02 Q1017=
201909181200 METAR LRTM 181200Z 32015KT 280V360 9999 FEW046 18/01 Q1018=
201909181230 METAR LRTM 181230Z 33015KT 300V360 9999 FEW046 18/00 Q1018=
201909181300 METAR LRTM 181300Z 33013KT 290V360 9999 FEW046 18/M00 Q1018=
201909181330 METAR LRTM 181330Z 33012KT 300V360 9999 FEW046 18/00 Q1018=
201909181400 METAR LRTM 181400Z 32013KT 290V350 9999 FEW046 18/M00 Q1018=
201909181430 METAR COR LRTM 181430Z 32011KT 280V010 9999 FEW046 17/M00
                        Q1019=
201909181500 METAR LRTM 181500Z 33010KT 300V010 CAVOK 17/M01 Q1019=
201909181530 METAR LRTM 181530Z 33008KT 280V030 CAVOK 17/M01 Q1019=
201909181600 METAR LRTM 181600Z 36007KT CAVOK 16/M01 Q1019=
201909181630 METAR LRTM 181630Z VRB01KT CAVOK 15/M01 Q1020=
201909181700 METAR LRTM 181700Z 00000KT CAVOK 13/M01 Q1020=
201909181730 METAR LRTM 181730Z 35004KT CAVOK 10/01 Q1020=
201909181800 METAR LRTM 181800Z AUTO 15001KT 9999 NCD 09/00 Q1021=
201909181830 METAR LRTM 181830Z AUTO VRB03KT 9999 NCD 08/01 Q1021=
201909181900 METAR LRTM 181900Z AUTO 00000KT 9999 NCD 08/01 Q1022=
201909181930 METAR LRTM 181930Z AUTO 10003KT 9999 NCD 07/01 Q1022=
201909182000 METAR LRTM 182000Z AUTO 00000KT 9999 NCD 06/01 Q1022=
201909182030 METAR LRTM 182030Z AUTO 24002KT 200V290 9999 NCD 04/01 Q1022=
201909182100 METAR LRTM 182100Z AUTO 00000KT 9999 NCD 04/01 Q1022=
201909182130 METAR LRTM 182130Z AUTO 10002KT 9999 NCD 05/00 Q1022=
201909182200 METAR LRTM 182200Z AUTO VRB01KT 9999 NCD 04/00 Q1022=
201909182230 METAR LRTM 182230Z AUTO 00000KT 9999 NCD 04/00 Q1022=
201909182300 METAR LRTM 182300Z AUTO 00000KT 9999 NCD 03/01 Q1022=
201909182330 METAR LRTM 182330Z AUTO 22003KT 9999 NCD 03/00 Q1022=
201909190000 METAR LRTM 190000Z AUTO 10003KT 9999 NCD 03/01 Q1022=
201909190030 METAR LRTM 190030Z AUTO 09003KT 9999 NCD 03/00 Q1022=
201909190100 METAR LRTM 190100Z AUTO 10005KT 9999 NCD 02/00 Q1022=
201909190130 METAR LRTM 190130Z AUTO 10005KT 9999 NCD 03/00 Q1022=
201909190200 METAR LRTM 190200Z AUTO 09005KT 9999 NCD 02/M00 Q1022=
201909190230 METAR LRTM 190230Z AUTO 15002KT 100V220 9999 NCD 02/00 Q1022=
201909190300 METAR LRTM 190300Z AUTO 09005KT 9999 NCD 01/M01 Q1022=
201909190330 METAR LRTM 190330Z AUTO 10005KT 9999 NCD 02/01 Q1022=
201909190400 METAR LRTM 190400Z AUTO 09005KT 9999 NCD 00/M01 Q1022=
201909190430 METAR LRTM 190430Z AUTO 10006KT 9999 NCD 02/00 Q1022=
201909190500 METAR LRTM 190500Z 11005KT 9999 FEW006 03/01 Q1023=
201909190530 METAR LRTM 190530Z 08005KT 9999 FEW006 04/02 Q1023=
201909190600 METAR LRTM 190600Z 07006KT 9999 FEW008 05/02 Q1023=
201909190630 METAR LRTM 190630Z 08004KT 030V120 9999 FEW009 07/02 Q1023=
201909190700 METAR LRTM 190700Z VRB02KT 9999 FEW010 09/02 Q1023=
201909190730 METAR LRTM 190730Z VRB02KT CAVOK 11/02 Q1023=
201909190800 METAR LRTM 190800Z 29004KT 230V040 9999 FEW028 12/02 Q1023=
201909190830 METAR LRTM 190830Z VRB03KT 9999 FEW028 13/02 Q1022=
201909190900 METAR LRTM 190900Z VRB04KT 9999 FEW030 14/02 Q1022=
201909190930 METAR LRTM 190930Z VRB03KT 9999 FEW030 17/02 Q1022=
201909191000 METAR LRTM 191000Z 31006KT 260V020 9999 SCT040 16/00 Q1022=
201909191030 METAR LRTM 191030Z 32010KT 9999 SCT042 16/01 Q1022=
201909191100 METAR LRTM 191100Z 31006KT 260V350 9999 SCT045 16/M01 Q1021=
201909191130 METAR LRTM 191130Z 33006KT 270V040 9999 SCT045 17/00 Q1021=
201909191200 METAR LRTM 191200Z 30010KT 260V360 9999 SCT045 18/01 Q1021=
201909191230 METAR LRTM 191230Z 36006KT 320V030 9999 SCT048 17/00 Q1021=
201909191300 METAR LRTM 191300Z 30008KT 270V330 9999 FEW048 17/00 Q1021=
201909191330 METAR LRTM 191330Z 32008KT 260V350 CAVOK 17/00 Q1021=
201909191400 METAR LRTM 191400Z 32007KT 260V360 CAVOK 17/00 Q1021=
201909191430 METAR LRTM 191430Z 32007KT 270V340 CAVOK 16/M00 Q1021=
201909191500 METAR LRTM 191500Z 33007KT 300V010 CAVOK 16/M01 Q1021=
201909191530 METAR LRTM 191530Z 29006KT 260V330 CAVOK 16/M01 Q1021=
201909191600 METAR LRTM 191600Z 29004KT 260V330 CAVOK 16/M01 Q1021=
201909191630 METAR LRTM 191630Z 32007KT CAVOK 15/00 Q1021=
201909191700 METAR LRTM 191700Z 33006KT CAVOK 14/M00 Q1021=
201909191730 METAR LRTM 191730Z AUTO 32005KT 300V360 9999 OVC080/// 14/M00
                        Q1021=
201909191800 METAR LRTM 191800Z AUTO 32008KT 9999 OVC082/// 14/M00 Q1022=
201909191830 METAR LRTM 191830Z AUTO 33007KT 300V360 9999 OVC084/// 13/M00
                        Q1022=
201909191900 METAR LRTM 191900Z AUTO 33007KT 9999 BKN086/// 13/00 Q1022=
201909191930 METAR LRTM 191930Z AUTO 33007KT 9999 OVC088/// 13/00 Q1022=
201909192000 METAR LRTM 192000Z AUTO 34006KT 9999 OVC090/// 12/01 Q1022=
201909192030 METAR LRTM 192030Z AUTO 35006KT 9999 OVC090/// 11/01 Q1023=
201909192100 METAR LRTM 192100Z AUTO 36005KT 9999 OVC091/// 11/01 Q1023=
201909192130 METAR LRTM 192130Z AUTO VRB01KT 9999 OVC090/// 10/01 Q1023=
201909192200 METAR LRTM 192200Z AUTO 00000KT 9999 OVC092/// 10/01 Q1023=
201909192230 METAR LRTM 192230Z AUTO 00000KT 9999 OVC094/// 09/01 Q1023=
201909192300 METAR LRTM 192300Z AUTO 19002KT 160V240 9999 OVC095/// 07/01
                        Q1023=
201909192330 METAR LRTM 192330Z AUTO 03002KT 9999 SCT098/// 06/01 Q1023=
201909200000 METAR LRTM 200000Z AUTO 10003KT 9999 BKN097/// 05/01 Q1023=
201909200030 METAR LRTM 200030Z AUTO 11002KT 090V150 9999 FEW097/// 04/00
                        Q1023=
201909200100 METAR LRTM 200100Z AUTO 11003KT 9999 FEW100/// 04/01 Q1023=
201909200130 METAR LRTM 200130Z AUTO 10005KT 9999 FEW096/// 03/00 Q1023=
201909200200 METAR LRTM 200200Z AUTO 10004KT 9999 NCD 02/00 Q1023=
201909200230 METAR LRTM 200230Z AUTO 08006KT 9999 NCD 02/M00 Q1023=
201909200300 METAR LRTM 200300Z AUTO 09004KT 9999 NCD 02/M00 Q1023=
201909200330 METAR LRTM 200330Z AUTO 11002KT 060V120 9999 FEW098/// 01/M00
                        Q1023=
201909200400 METAR LRTM 200400Z AUTO VRB01KT 9999 SCT094/// 02/M00 Q1024=
201909200430 METAR LRTM 200430Z AUTO 09003KT 9999 FEW095/// 02/00 Q1024=
201909200500 METAR LRTM 200500Z 08003KT 9000 FEW010 02/00 Q1024=
201909200530 METAR LRTM 200530Z 09004KT 9000 FEW010 04/02 Q1024=
201909200600 METAR LRTM 200600Z VRB02KT 9000 FEW010 06/02 Q1024=
201909200630 METAR LRTM 200630Z VRB02KT 9000 FEW012 07/02 Q1024=
201909200700 METAR LRTM 200700Z VRB02KT 9000 FEW012 09/02 Q1024=
201909200730 METAR LRTM 200730Z VRB02KT 9000 FEW023 11/03 Q1024=
201909200800 METAR LRTM 200800Z 31009KT 260V350 9999 SCT023 13/03 Q1024=
201909200830 METAR LRTM 200830Z 31010KT 270V350 9999 SCT025 13/03 Q1024=
201909200900 METAR LRTM 200900Z 30008KT 260V330 9999 SCT030 14/02 Q1024=
201909200930 METAR LRTM 200930Z 28012KT 250V320 9999 SCT030 14/02 Q1024=
201909201000 METAR LRTM 201000Z 28008KT 260V320 9999 SCT032 14/02 Q1024=
201909201030 METAR LRTM 201030Z 30012KT 260V330 9999 SCT035 14/01 Q1023=
201909201100 METAR LRTM 201100Z 29010KT 260V330 9999 SCT035 16/02 Q1023=
201909201130 METAR LRTM 201130Z 33010KT 260V030 9999 BKN038 16/00 Q1023=
201909201200 METAR LRTM 201200Z 32013KT 9999 BKN040 15/M01 Q1023=
201909201230 METAR LRTM 201230Z 31009KT 270V360 9999 BKN042 17/M02 Q1023=
201909201300 METAR LRTM 201300Z 32011KT 290V360 9999 SCT042 17/M03 Q1023=
201909201330 METAR LRTM 201330Z 31013KT 270V330 9999 SCT043 16/M03 Q1023=
201909201400 METAR LRTM 201400Z 30012KT 270V340 9999 SCT043 16/M04 Q1023=
201909201430 METAR LRTM 201430Z 31012KT 250V360 9999 SCT045 16/M04 Q1023=
201909201500 METAR LRTM 201500Z 32012KT 270V340 9999 SCT046 16/M03 Q1023=
201909201530 METAR LRTM 201530Z 30010KT 9999 SCT048 15/M03 Q1023=
201909201600 METAR LRTM 201600Z 32009KT CAVOK 14/M03 Q1024=
201909201630 METAR LRTM 201630Z 31007KT CAVOK 13/M02 Q1024=
201909201700 METAR LRTM 201700Z 32007KT CAVOK 12/M02 Q1024=
201909201730 METAR LRTM 201730Z AUTO 30006KT 270V330 9999 NCD 11/M02 Q1024=
201909201800 METAR LRTM 201800Z AUTO 25005KT 9999 NCD 07/M02 Q1025=
201909201830 METAR LRTM 201830Z AUTO 23005KT 9999 NCD 08/M02 Q1025=
201909201900 METAR LRTM 201900Z AUTO 24004KT 9999 NCD 06/M02 Q1025=
201909201930 METAR LRTM 201930Z AUTO 23004KT 9999 NCD 06/M02 Q1026=
201909202000 METAR LRTM 202000Z AUTO 24005KT 9999 NCD 06/M02 Q1026=
201909202030 METAR LRTM 202030Z AUTO 23006KT 9999 NCD 06/M02 Q1026=
201909202100 METAR LRTM 202100Z AUTO 20006KT 9999 NCD 06/M02 Q1026=
201909202130 METAR LRTM 202130Z AUTO 23005KT 9999 NCD 05/M02 Q1026=
201909202200 METAR LRTM 202200Z AUTO VRB01KT 9999 NCD 04/M01 Q1026=
201909202230 METAR LRTM 202230Z AUTO 13002KT 100V180 9999 NCD 02/M02 Q1026=
201909202300 METAR LRTM 202300Z AUTO 31002KT 250V340 9999 NCD 03/M02 Q1026=
201909202330 METAR LRTM 202330Z AUTO 28001KT 9999 NCD 03/M02 Q1026=
201909210000 METAR LRTM 210000Z AUTO 27002KT 240V300 9999 NCD 03/M02 Q1026=
201909210030 METAR LRTM 210030Z AUTO 00000KT 9999 NCD 01/M02 Q1026=
201909210100 METAR LRTM 210100Z AUTO 08002KT 9999 NCD 01/M02 Q1027=
201909210130 METAR LRTM 210130Z AUTO 07005KT 9999 NCD 00/M02 Q1027=
201909210200 METAR LRTM 210200Z AUTO 09005KT 9999 NCD M00/M02 Q1027=
201909210230 METAR LRTM 210230Z AUTO 10005KT 9999 NCD 01/M01 Q1027=
201909210300 METAR LRTM 210300Z AUTO 09002KT 060V120 9999 NCD M00/M02
                        Q1027=
201909210330 METAR LRTM 210330Z 09005KT CAVOK M00/M02 Q1027=
201909210400 METAR LRTM 210400Z 10006KT CAVOK 00/M02 Q1027=
201909210430 METAR LRTM 210430Z 10005KT CAVOK 00/M02 Q1027=
201909210500 METAR LRTM 210500Z 09005KT CAVOK 01/M01 Q1028=
201909210530 METAR LRTM 210530Z 10005KT CAVOK 02/M01 Q1028=
201909210600 METAR LRTM 210600Z 10005KT 070V130 CAVOK 04/00 Q1028=
201909210630 METAR LRTM 210630Z 08003KT 040V130 9999 FEW008 05/00 Q1028=
201909210700 METAR COR LRTM 210700Z 08003KT 010V120 9999 FEW008 08/00
                        Q1028=
201909210730 METAR LRTM 210730Z VRB02KT CAVOK 10/00 Q1028=
201909210800 METAR LRTM 210800Z VRB02KT CAVOK 11/01 Q1028=
201909210830 METAR LRTM 210830Z 21004KT 180V250 CAVOK 12/01 Q1028=
201909210900 METAR LRTM 210900Z VRB02KT CAVOK 14/01 Q1028=
201909210930 METAR LRTM 210930Z VRB03KT CAVOK 14/01 Q1028=
201909211000 METAR LRTM 211000Z 26006KT 230V310 9999 FEW033 15/00 Q1028=
201909211030 METAR LRTM 211030Z 31006KT 260V010 9999 FEW040 16/M00 Q1027=
201909211100 METAR COR LRTM 211100Z 30006KT 230V340 9999 FEW040 17/00
                        Q1027=
201909211130 METAR LRTM 211130Z 27007KT 240V310 9999 FEW045 17/00 Q1027=
201909211200 METAR LRTM 211200Z 28008KT 250V330 9999 FEW045 17/M00 Q1026=
201909211230 METAR LRTM 211230Z 30006KT 240V350 9999 FEW046 18/M01 Q1026=
201909211300 METAR LRTM 211300Z 30005KT 220V010 CAVOK 18/M01 Q1026=
201909211330 METAR LRTM 211330Z 26006KT 230V310 CAVOK 18/M01 Q1025=
201909211400 METAR LRTM 211400Z 28007KT 250V320 CAVOK 18/M00 Q1025=
201909211430 METAR LRTM 211430Z 30005KT 250V340 CAVOK 18/M01 Q1025=
201909211500 METAR LRTM 211500Z 34005KT 300V050 CAVOK 18/00 Q1025=
201909211530 METAR LRTM 211530Z VRB02KT CAVOK 18/00 Q1025=
201909211600 METAR LRTM 211600Z 00000KT CAVOK 17/00 Q1025=
201909211630 METAR LRTM 211630Z 16002KT CAVOK 13/01 Q1025=
201909211700 METAR LRTM 211700Z 34002KT CAVOK 11/02 Q1025=
201909211730 METAR LRTM 211730Z AUTO 35001KT 9999 NCD 10/01 Q1025=
201909211800 METAR LRTM 211800Z AUTO 01003KT 9999 NCD 08/02 Q1025=
201909211830 METAR LRTM 211830Z AUTO 00000KT 9999 NCD 06/01 Q1025=
201909211900 METAR COR LRTM 211900Z 00000KT CAVOK 06/01 Q1026=
201909211930 METAR LRTM 211930Z 07002KT CAVOK 05/00 Q1025=
201909212000 METAR LRTM 212000Z 09005KT CAVOK 05/01 Q1026=
201909212030 METAR LRTM 212030Z 10006KT CAVOK 05/01 Q1026=
201909212100 METAR LRTM 212100Z 10005KT CAVOK 05/01 Q1026=
201909212130 METAR LRTM 212130Z 10003KT 080V150 CAVOK 05/01 Q1025=
201909212200 METAR LRTM 212200Z AUTO 09005KT 6000 NCD 04/01 Q1025=
201909212230 METAR LRTM 212230Z AUTO 12004KT 9999 NCD 05/01 Q1025=
201909212300 METAR LRTM 212300Z AUTO 09006KT 5000 BR NCD 04/01 Q1025=
201909212330 METAR LRTM 212330Z AUTO 10005KT 7000 NCD 03/01 Q1025=
201909220000 METAR LRTM 220000Z AUTO 11004KT 6000 NCD 04/01 Q1025=
201909220030 METAR LRTM 220030Z AUTO 09005KT 5000 BR NCD 03/01 Q1025=
201909220100 METAR LRTM 220100Z AUTO 10005KT 5000 BR NCD 02/00 Q1025=
201909220130 METAR LRTM 220130Z AUTO 10005KT 5000 BR NCD 03/00 Q1025=
201909220200 METAR LRTM 220200Z AUTO 10005KT 6000 NCD 02/01 Q1025=
201909220230 METAR LRTM 220230Z AUTO 09005KT 4100 BR NCD 02/00 Q1025=
201909220300 METAR LRTM 220300Z AUTO 10004KT 5000 BR NCD 02/M00 Q1024=
201909220330 METAR LRTM 220330Z 09005KT 7000 FEW007 01/M00 Q1024=
201909220400 METAR LRTM 220400Z 11003KT 9000 FEW008 01/00 Q1025=
201909220430 METAR LRTM 220430Z 10004KT 060V120 9999 FEW008 01/M00 Q1025=
201909220500 METAR LRTM 220500Z 10006KT 9999 FEW008 03/01 Q1025=
201909220530 METAR LRTM 220530Z 10004KT 9999 FEW008 04/02 Q1025=
201909220600 METAR LRTM 220600Z 08005KT 9999 FEW008 05/02 Q1024=
201909220630 METAR LRTM 220630Z 08003KT 040V120 9999 FEW010 07/03 Q1025=
201909220700 METAR LRTM 220700Z 09003KT 050V130 CAVOK 09/03 Q1024=
201909220730 METAR LRTM 220730Z VRB02KT CAVOK 11/02 Q1024=
201909220800 METAR LRTM 220800Z 10002KT 030V170 CAVOK 13/03 Q1024=
201909220830 METAR LRTM 220830Z VRB03KT CAVOK 14/03 Q1023=
201909220900 METAR LRTM 220900Z VRB03KT CAVOK 16/03 Q1023=
201909220930 METAR LRTM 220930Z VRB03KT CAVOK 17/02 Q1023=
201909221000 METAR LRTM 221000Z VRB04KT CAVOK 18/03 Q1022=
201909221030 METAR LRTM 221030Z VRB03KT CAVOK 19/03 Q1022=
201909221100 METAR LRTM 221100Z VRB04KT CAVOK 20/03 Q1021=
201909221130 METAR LRTM 221130Z VRB04KT CAVOK 20/02 Q1021=
201909221200 METAR LRTM 221200Z 02005KT 320V090 CAVOK 21/02 Q1020=
201909221230 METAR LRTM 221230Z VRB03KT CAVOK 21/03 Q1020=
201909221300 METAR LRTM 221300Z VRB04KT CAVOK 21/02 Q1020=
201909221330 METAR LRTM 221330Z VRB03KT CAVOK 22/02 Q1019=
201909221400 METAR LRTM 221400Z 22003KT 150V260 CAVOK 22/02 Q1018=
201909221430 METAR LRTM 221430Z VRB03KT CAVOK 22/02 Q1018=
201909221500 METAR LRTM 221500Z 07005KT 030V090 CAVOK 21/02 Q1018=
201909221530 METAR LRTM 221530Z 04002KT 360V080 CAVOK 21/02 Q1018=
201909221600 METAR LRTM 221600Z AUTO 03002KT 9999 NCD 19/03 Q1018=
201909221630 METAR LRTM 221630Z AUTO 08002KT 9999 NCD 16/04 Q1017=
201909221700 METAR LRTM 221700Z AUTO 06002KT 9999 NCD 14/04 Q1018=
201909221730 METAR LRTM 221730Z AUTO 04002KT 9999 NCD 11/03 Q1018=
201909221800 METAR LRTM 221800Z AUTO 07003KT 9999 NCD 10/03 Q1018=
201909221830 METAR LRTM 221830Z AUTO 09005KT 9999 NCD 08/03 Q1018=
201909221900 METAR LRTM 221900Z AUTO 10005KT 9999 NCD 08/03 Q1018=
201909221930 METAR LRTM 221930Z AUTO 10005KT 9999 NCD 08/03 Q1018=
201909222000 METAR LRTM 222000Z AUTO 10004KT 9999 NCD 09/03 Q1018=
201909222030 METAR LRTM 222030Z AUTO 10004KT 9000 NCD 08/03 Q1018=
201909222100 METAR LRTM 222100Z AUTO 11004KT 4200 R07/1300VP2000D BR NCD
                        08/03 Q1018=
201909222130 METAR LRTM 222130Z AUTO 09005KT 9999 NCD 07/03 Q1018=
201909222200 METAR LRTM 222200Z AUTO 10004KT 8000 NCD 07/03 Q1018=
201909222230 METAR LRTM 222230Z AUTO 10005KT 9000 NCD 06/03 Q1018=
201909222300 METAR LRTM 222300Z AUTO 09006KT 8000 NCD 06/04 Q1018=
201909222330 METAR LRTM 222330Z AUTO 10005KT 7000 NCD 07/04 Q1018=
201909230000 METAR LRTM 230000Z AUTO 09005KT 6000 SCT240/// 06/03 Q1017=
201909230030 METAR LRTM 230030Z AUTO 10006KT 9999 SCT240/// 06/03 Q1017=
201909230100 METAR LRTM 230100Z AUTO 10007KT 9999 OVC240/// 06/03 Q1017=
201909230130 METAR LRTM 230130Z AUTO 11005KT 9000 SCT240/// 06/03 Q1017=
201909230200 METAR LRTM 230200Z AUTO 10004KT 9999 SCT220/// 05/02 Q1017=
201909230230 METAR LRTM 230230Z AUTO 10005KT 9999 SCT230/// 05/03 Q1017=
201909230300 METAR LRTM 230300Z AUTO 09004KT 9999 SCT220/// 05/03 Q1017=
201909230330 METAR LRTM 230330Z AUTO 10003KT 9999 FEW220/// 05/03 Q1017=
201909230400 METAR LRTM 230400Z AUTO 07003KT 030V100 9999 SCT190/// 05/03
                        Q1017=
201909230430 METAR LRTM 230430Z AUTO 10006KT 9999 BKN180/// 06/03 Q1017=
201909230500 METAR LRTM 230500Z 09005KT 9999 FEW009 06/04 Q1017=
201909230530 METAR LRTM 230530Z 10005KT 9999 FEW009 07/04 Q1017=
201909230600 METAR LRTM 230600Z 09005KT CAVOK 08/04 Q1017=
201909230630 METAR LRTM 230630Z 08003KT 040V120 9999 FEW006 09/05 Q1017=
201909230700 METAR LRTM 230700Z 07005KT 040V110 9999 FEW009 10/05 Q1017=
201909230730 METAR LRTM 230730Z 07003KT 030V140 CAVOK 11/05 Q1017=
201909230800 METAR LRTM 230800Z VRB02KT CAVOK 13/06 Q1017=
201909230830 METAR COR LRTM 230830Z 13002KT CAVOK 16/06 Q1016=
201909230900 METAR LRTM 230900Z VRB03KT CAVOK 17/06 Q1016=
201909230930 METAR LRTM 230930Z VRB02KT CAVOK 19/06 Q1016=
201909231000 METAR LRTM 231000Z VRB03KT CAVOK 19/06 Q1015=
201909231030 METAR LRTM 231030Z VRB03KT CAVOK 20/06 Q1015=
201909231100 METAR LRTM 231100Z VRB01KT CAVOK 21/05 Q1014=
201909231130 METAR LRTM 231130Z VRB02KT CAVOK 22/06 Q1014=
201909231200 METAR LRTM 231200Z 07003KT 340V140 CAVOK 23/05 Q1014=
201909231230 METAR LRTM 231230Z VRB03KT CAVOK 23/05 Q1013=
201909231300 METAR LRTM 231300Z 31003KT 250V350 CAVOK 23/04 Q1013=
201909231330 METAR LRTM 231330Z VRB03KT CAVOK 23/04 Q1013=
201909231400 METAR LRTM 231400Z 26004KT CAVOK 23/05 Q1013=
201909231430 METAR LRTM 231430Z 25003KT CAVOK 22/05 Q1013=
201909231500 METAR LRTM 231500Z 25003KT CAVOK 22/06 Q1013=
201909231530 METAR LRTM 231530Z 25004KT CAVOK 21/06 Q1013=
201909231600 METAR LRTM 231600Z 25003KT CAVOK 20/06 Q1013=
201909231630 METAR LRTM 231630Z 22004KT CAVOK 18/07 Q1013=
201909231700 METAR LRTM 231700Z VRB02KT CAVOK 18/07 Q1013=
201909231730 METAR LRTM 231730Z AUTO 00000KT 9999 OVC099/// 17/07 Q1013=
201909231800 METAR LRTM 231800Z AUTO 23003KT 9999 OVC099/// 17/07 Q1013=
201909231830 METAR LRTM 231830Z AUTO 30002KT 260V330 9999 OVC096/// 16/08
                        Q1013=
201909231900 METAR LRTM 231900Z AUTO 00000KT 9999 OVC096/// 16/09 Q1014=
201909231930 METAR LRTM 231930Z NIL=
201909232000 METAR LRTM 232000Z NIL=
201909232030 METAR LRTM 232030Z NIL=
201909232100 METAR LRTM 232100Z NIL=
201909232130 METAR LRTM 232130Z NIL=
201909232200 METAR LRTM 232200Z NIL=
201909232230 METAR LRTM 232230Z NIL=
201909232300 METAR LRTM 232300Z NIL=
201909232330 METAR LRTM 232330Z NIL=
201909240000 METAR LRTM 240000Z NIL=
201909240030 METAR LRTM 240030Z NIL=
201909240100 METAR LRTM 240100Z NIL=
201909240130 METAR LRTM 240130Z NIL=
201909240200 METAR LRTM 240200Z NIL=
201909240230 METAR LRTM 240230Z NIL=
201909240300 METAR LRTM 240300Z NIL=
201909240330 METAR LRTM 240330Z NIL=
201909240400 METAR LRTM 240400Z NIL=
201909240430 METAR LRTM 240430Z NIL=
201909240500 METAR LRTM 240500Z 10003KT 9000 FEW003 13/09 Q1012=
201909240530 METAR LRTM 240530Z 10003KT 9000 FEW004 14/09 Q1012=
201909240600 METAR LRTM 240600Z 08003KT 050V110 9000 FEW005 14/09 Q1013=
201909240630 METAR LRTM 240630Z 08004KT 9000 FEW006 16/09 Q1013=
201909240700 METAR LRTM 240700Z 08004KT 8000 FEW006 16/09 Q1013=
201909240730 METAR LRTM 240730Z 08006KT 8000 FEW008 17/09 Q1013=
201909240800 METAR LRTM 240800Z 07004KT 040V110 9000 FEW010 19/09 Q1013=
201909240830 METAR LRTM 240830Z 10006KT 070V140 9000 FEW014 20/08 Q1013=
201909240900 METAR LRTM 240900Z 11008KT 080V140 9999 FEW015 22/07 Q1013=
201909240930 METAR LRTM 240930Z 17009KT 9999 FEW016 23/07 Q1012=
201909241000 METAR LRTM 241000Z 14007KT 110V170 9999 FEW028 22/07 Q1012=
201909241030 METAR LRTM 241030Z 14009KT 110V170 9999 FEW028 23/07 Q1012=
201909241100 METAR LRTM 241100Z 13009KT 110V170 9999 FEW030 23/07 Q1012=
201909241130 METAR LRTM 241130Z 17007KT 9999 FEW030 23/07 Q1012=
201909241200 METAR LRTM 241200Z 17008KT 130V200 9999 FEW032 22/07 Q1012=
201909241230 METAR LRTM 241230Z 17008KT 9999 FEW035 22/07 Q1012=
201909241300 METAR LRTM 241300Z 18009KT 9999 FEW035 22/08 Q1012=
201909241330 METAR LRTM 241330Z 20008KT 9999 FEW038 21/07 Q1012=
201909241400 METAR LRTM 241400Z 21006KT 9999 -RA FEW040 21/08 Q1012=
201909241430 METAR LRTM 241430Z 22006KT 9999 FEW040 21/08 Q1012=
201909241500 METAR LRTM 241500Z 21004KT 9999 FEW040 21/09 Q1012=
201909241530 METAR LRTM 241530Z 21003KT 9999 FEW040 20/08 Q1012=
201909241600 METAR LRTM 241600Z VRB02KT 9999 FEW042 19/08 Q1012=
201909241630 METAR LRTM 241630Z 17003KT CAVOK 18/09 Q1012=
201909241700 METAR LRTM 241700Z 15003KT CAVOK 18/09 Q1012=
201909241730 METAR LRTM 241730Z AUTO 06004KT 9999 OVC087/// 18/09 Q1012=
201909241800 METAR LRTM 241800Z AUTO 05004KT 9999 BKN088/// SCT110///
                        18/09 Q1012=
201909241830 METAR LRTM 241830Z AUTO 08004KT 9999 OVC088/// 17/10 Q1013=
201909241900 METAR LRTM 241900Z AUTO 08005KT 9999 BKN093/// 16/10 Q1013=
201909241930 METAR LRTM 241930Z AUTO 08005KT 9999 BKN110/// 17/10 Q1013=
201909242000 METAR LRTM 242000Z AUTO 06006KT 9999 OVC110/// 18/10 Q1013=
201909242030 METAR LRTM 242030Z AUTO 08003KT 9999 OVC110/// 16/10 Q1013=
201909242100 METAR LRTM 242100Z AUTO 08005KT 9999 OVC110/// 15/10 Q1013=
201909242130 METAR LRTM 242130Z AUTO 08006KT 9999 BKN110/// 13/09 Q1013=
201909242200 METAR LRTM 242200Z AUTO 10005KT 9999 SCT099/// 13/09 Q1013=
201909242230 METAR LRTM 242230Z AUTO 10005KT 9999 SCT099/// 14/10 Q1013=
201909242300 METAR LRTM 242300Z AUTO 09005KT 9999 BKN100/// 12/09 Q1013=
201909242330 METAR LRTM 242330Z AUTO 10005KT 9999 FEW100/// 12/09 Q1013=
201909250000 METAR LRTM 250000Z AUTO 09008KT 1700 R07/1200VP2000D FG FEW100///
                        11/09 Q1013=
201909250030 METAR LRTM 250030Z AUTO 09007KT 1500 R07/1100VP2000D FG NCD
                        11/08 Q1013=
201909250100 METAR LRTM 250100Z AUTO 09005KT 6000 BKN180/// 11/08 Q1013=
201909250130 METAR LRTM 250130Z AUTO 09005KT 9000 OVC200/// 10/08 Q1013=
201909250200 METAR LRTM 250200Z AUTO 09005KT 9999 FEW100/// BKN180///
                        10/08 Q1013=
201909250230 METAR LRTM 250230Z AUTO 09007KT 2500 R07/1300VP2000D BR BKN100///
                        10/08 Q1013=
201909250300 METAR LRTM 250300Z AUTO 09007KT 2400 R07/1400VP2000N FEW100///
                        BKN230/// 10/08 Q1013=
201909250330 METAR LRTM 250330Z 10006KT CAVOK 10/08 Q1013=
201909250400 METAR LRTM 250400Z 09004KT CAVOK 09/08 Q1013=
201909250430 METAR LRTM 250430Z 09006KT CAVOK 10/08 Q1013=
201909250500 METAR LRTM 250500Z 09006KT CAVOK 10/08 Q1013=
201909250530 METAR LRTM 250530Z 08005KT CAVOK 11/09 Q1013=
201909250600 METAR LRTM 250600Z 08006KT CAVOK 12/09 Q1013=
201909250630 METAR LRTM 250630Z 08005KT CAVOK 13/09 Q1013=
201909250700 METAR LRTM 250700Z 08005KT CAVOK 14/10 Q1013=
201909250730 METAR LRTM 250730Z 07003KT 020V130 CAVOK 16/10 Q1013=
201909250800 METAR LRTM 250800Z 08003KT 020V120 CAVOK 17/10 Q1013=
201909250830 METAR LRTM 250830Z 19004KT 160V220 CAVOK 17/11 Q1013=
201909250900 METAR LRTM 250900Z VRB02KT CAVOK 18/11 Q1013=
201909250930 METAR LRTM 250930Z 22004KT 9999 FEW048 18/11 Q1013=
201909251000 METAR LRTM 251000Z 21003KT 9999 -RA FEW048 18/11 Q1013=
201909251030 METAR LRTM 251030Z VRB01KT 9999 FEW048 19/11 Q1013=
201909251100 METAR LRTM 251100Z VRB02KT 9999 FEW048 19/11 Q1013=
201909251130 METAR LRTM 251130Z VRB02KT 9999 FEW048 19/12 Q1012=
201909251200 METAR LRTM 251200Z VRB02KT 9999 FEW049 19/11 Q1012=
201909251230 METAR LRTM 251230Z 18008KT 160V230 9999 FEW047 19/11 Q1012=
201909251300 METAR LRTM 251300Z 17006KT 9999 -RA SCT042 18/11 Q1012=
201909251330 METAR LRTM 251330Z 15005KT 9999 -RA BKN037 17/13 Q1012 R07/29//95=
201909251400 METAR LRTM 251400Z 19005KT 9999 -RA BKN034 16/13 Q1012 R07/29//95=
201909251430 METAR LRTM 251430Z VRB02KT 9999 -RA BKN032 16/13 Q1012 R07/29//95=
201909251500 METAR LRTM 251500Z 15005KT 9999 -RA BKN034 15/14 Q1012 R07/29//95=
201909251530 METAR LRTM 251530Z 07004KT 9999 -RA BKN040 15/14 Q1012 R07/29//95=
201909251600 METAR LRTM 251600Z AUTO 07005KT 9000 RA BKN052/// 14/13 Q1012=
201909251630 METAR LRTM 251630Z AUTO 08005KT 9999 -RA BKN042/// BKN053///
                        14/13 Q1012=
201909251700 METAR LRTM 251700Z AUTO 07005KT 9999 -SHRA FEW042/// BKN054///
                        14/13 Q1012=
201909251730 METAR LRTM 251730Z AUTO 07003KT 6000 FEW056/// SCT071///
                        14/13 Q1012 REDZ=
201909251800 METAR LRTM 251800Z AUTO 00000KT 7000 SCT059/// OVC084///
                        14/13 Q1012=
201909251830 METAR LRTM 251830Z AUTO 07002KT 7000 -RA FEW058/// SCT085///
                        14/13 Q1012=
201909251900 METAR LRTM 251900Z AUTO 06001KT 8000 -RA FEW049/// SCT062///
                        14/13 Q1012=
201909251930 METAR LRTM 251930Z AUTO 06004KT 9999 -RA SCT046/// BKN064///
                        14/13 Q1012=
201909252000 METAR LRTM 252000Z AUTO 06003KT 5000 -SHRA OVC058/// 14/13
                        Q1012=
201909252030 METAR LRTM 252030Z AUTO 07005KT 5000 SCT055/// BKN069///
                        14/13 Q1012 RERA=
201909252100 METAR LRTM 252100Z AUTO 07004KT 7000 BKN052/// BKN066///
                        14/13 Q1012 RERA=
201909252130 METAR LRTM 252130Z AUTO 08003KT 050V110 8000 -SHRA BKN053///
                        BKN067/// 14/13 Q1012=
201909252200 METAR LRTM 252200Z AUTO 10003KT 9999 FEW044/// BKN079///
                        14/13 Q1012=
201909252230 METAR LRTM 252230Z AUTO 08003KT 6000 -SHRA BKN041/// SCT052///
                        14/13 Q1012=
201909252300 METAR LRTM 252300Z AUTO 10002KT 070V140 9999 BKN038/// 14/13
                        Q1012 REDZ=
201909252330 METAR LRTM 252330Z AUTO 08003KT 7000 -SHRA FEW032/// BKN042///
                        14/13 Q1012=
201909260000 METAR LRTM 260000Z AUTO 09002KT 5000 +SHRA BKN047/// 14/13
                        Q1012=
201909260030 METAR LRTM 260030Z AUTO 06003KT 5000 -RA SCT041/// BKN052///
                        13/13 Q1012=
201909260100 METAR LRTM 260100Z AUTO 07004KT 4800 +DZ BKN037/// 13/13
                        Q1012=
201909260130 METAR LRTM 260130Z AUTO 05003KT 7000 DZ OVC037/// 13/13 Q1012=
201909260200 METAR LRTM 260200Z AUTO 07004KT 6000 BKN046/// SCT058///
                        13/13 Q1012 REDZ=
201909260230 METAR LRTM 260230Z AUTO 04003KT 8000 -SHRA OVC040/// 14/13
                        Q1012=
201909260300 METAR LRTM 260300Z AUTO 07003KT 7000 OVC039/// 13/13 Q1012
                        REDZ=
201909260330 METAR LRTM 260330Z AUTO 07003KT 6000 DZ BKN038/// 14/13 Q1012=
201909260400 METAR LRTM 260400Z AUTO 07003KT 5000 OVC037/// 13/13 Q1012
                        REDZ=
201909260430 METAR LRTM 260430Z AUTO 07003KT 5000 FEW033/// OVC042///
                        13/13 Q1012 REUP=
201909260500 METAR LRTM 260500Z 07004KT 5000 BR SCT001 BKN009 OVC015 13/13
                        Q1012 R07/29//95=
201909260530 METAR LRTM 260530Z 09004KT 070V130 5000 BR SCT002 BKN010
                        OVC016 14/13 Q1012 R07/29//95=
201909260600 METAR LRTM 260600Z 09004KT 3500 -RA BR SCT001 BKN007 OVC015
                        14/13 Q1012 R07/29//95=
201909260630 METAR LRTM 260630Z 10002KT 4000 -RA BR SCT003 BKN007 OVC015
                        14/13 Q1012 R07/29//95=
201909260700 METAR LRTM 260700Z 06003KT 6000 FEW003 SCT007 OVC030 14/13
                        Q1012 R07/29//95=
201909260730 METAR LRTM 260730Z 09003KT 8000 FEW003 SCT008 OVC032 15/14
                        Q1012 R07/29//95=
201909260800 METAR LRTM 260800Z VRB01KT 8000 FEW004 SCT008 OVC032 15/14
                        Q1012 R07/29//95=
201909260830 METAR LRTM 260830Z 03003KT 360V060 9000 FEW004 SCT010 OVC035
                        16/14 Q1012 R07/29//95=
201909260900 METAR LRTM 260900Z VRB01KT 9000 -RA FEW007 SCT015 OVC035
                        16/14 Q1012 R07/29//95=
201909260930 METAR LRTM 260930Z 07003KT 030V090 9000 -RA FEW008 SCT016
                        OVC040 16/14 Q1012 R07/29//95=
201909261000 METAR LRTM 261000Z 04003KT 9000 -RA FEW009 BKN015 OVC038
                        16/14 Q1012 R07/29//95=
201909261030 METAR LRTM 261030Z VRB02KT 8000 -RA FEW007 BKN013 OVC038
                        16/14 Q1012 R07/29//95=
201909261100 METAR LRTM 261100Z 00000KT 6000 -RA FEW005 BKN013 OVC035
                        16/14 Q1012 R07/29//95=
201909261130 METAR LRTM 261130Z 00000KT 5000 RA BR FEW005 BKN012 OVC032
                        16/14 Q1012 R07/29//95=
201909261200 METAR LRTM 261200Z 00000KT 5000 RA BR FEW005 BKN012 OVC032
                        16/14 Q1012 R07/29//95=
201909261230 METAR LRTM 261230Z 00000KT 5000 RA BR FEW003 SCT010 OVC032
                        16/14 Q1012 R07/29//95=
201909261300 METAR LRTM 261300Z 00000KT 5000 RA BR FEW003 BKN009 OVC032
                        15/14 Q1012 R07/29//95=
201909261330 METAR LRTM 261330Z 00000KT 5000 -RA BR FEW003 BKN009 OVC033
                        15/14 Q1012 R07/29//95=
201909261400 METAR LRTM 261400Z 00000KT 6000 -RA FEW005 BKN009 OVC035
                        15/14 Q1012 R07/29//95=
201909261430 METAR LRTM 261430Z 00000KT 5000 RA BR FEW004 BKN009 OVC035
                        15/14 Q1012 R07/29//95=
201909261500 METAR LRTM 261500Z 00000KT 5000 RA BR FEW004 BKN009 OVC035
                        15/14 Q1012 R07/29//95=
201909261530 METAR LRTM 261530Z 00000KT 5000 -RA BR FEW007 BKN012 OVC038
                        15/14 Q1012 R07/29//95=
201909261600 METAR LRTM 261600Z 00000KT 6000 -RA FEW013 BKN035 OVC042
                        15/14 Q1012 R07/29//95=
201909261630 METAR LRTM 261630Z VRB01KT 6000 -RA FEW013 BKN024 OVC040
                        15/14 Q1012 R07/29//95=
201909261700 METAR LRTM 261700Z 00000KT 7000 -RA BKN020 OVC038 15/14 Q1012
                        R07/29//95=
201909261730 METAR LRTM 261730Z AUTO 29002KT 270V340 8000 -RA BKN012///
                        SCT071/// 15/14 Q1013=
201909261800 METAR LRTM 261800Z AUTO 28002KT 250V330 7000 DZ FEW031///
                        SCT055/// 15/14 Q1013=
201909261830 METAR LRTM 261830Z AUTO 00000KT 6000 -RA SCT031/// BKN040///
                        BKN051/// 14/13 Q1013=
201909261900 METAR LRTM 261900Z AUTO VRB01KT 5000 -RA SCT020/// SCT026///
                        14/13 Q1013=
201909261930 METAR LRTM 261930Z AUTO 27004KT 5000 RA FEW010/// SCT015///
                        14/13 Q1013=
201909262000 METAR LRTM 262000Z AUTO 27005KT 5000 RA FEW009/// SCT042///
                        14/13 Q1013=
201909262030 METAR LRTM 262030Z AUTO 26005KT 240V310 7000 DZ SCT052///
                        SCT067/// 14/13 Q1014=
201909262100 METAR LRTM 262100Z AUTO 27004KT 240V320 9999 -RA OVC060///
                        14/13 Q1014=
201909262130 METAR LRTM 262130Z AUTO 28005KT 9999 DZ OVC063/// 14/13 Q1014=
201909262200 METAR LRTM 262200Z AUTO 27003KT 240V310 9999 DZ OVC063///
                        14/13 Q1014=
201909262230 METAR LRTM 262230Z AUTO 26005KT 9999 -RA BKN067/// SCT085///
                        14/13 Q1014=
201909262300 METAR LRTM 262300Z AUTO 26003KT 9999 -DZ FEW009/// SCT012///
                        14/13 Q1015=
201909262330 METAR LRTM 262330Z AUTO 27003KT 240V310 8000 -RA FEW008///
                        BKN009/// 14/13 Q1015=
201909270000 METAR LRTM 270000Z AUTO 25004KT 8000 DZ FEW008/// SCT009///
                        BKN013/// 14/13 Q1015=
201909270030 METAR LRTM 270030Z AUTO 26005KT 8000 DZ FEW007/// BKN012///
                        14/13 Q1014=
201909270100 METAR LRTM 270100Z AUTO 25006KT 220V280 7000 -DZ FEW007///
                        BKN012/// 14/13 Q1015=
201909270130 METAR LRTM 270130Z AUTO 25005KT 7000 -RA FEW008/// BKN012///
                        14/13 Q1015=
201909270200 METAR LRTM 270200Z AUTO 24006KT 7000 RA BKN011/// SCT014///
                        14/13 Q1015=
201909270230 METAR LRTM 270230Z AUTO 23006KT 9999 DZ SCT013/// BKN037///
                        14/12 Q1015=
201909270300 METAR LRTM 270300Z AUTO 26006KT 9999 SCT010/// 14/12 Q1015
                        RERA=
201909270330 METAR LRTM 270330Z AUTO 23007KT 9999 SCT011/// BKN029///
                        14/12 Q1015 REDZ=
201909270400 METAR LRTM 270400Z AUTO 24007KT 9000 SCT011/// SCT014///
                        14/12 Q1016=
201909270430 METAR LRTM 270430Z AUTO 24006KT 9999 SCT009/// SCT017///
                        14/12 Q1016=
201909270500 METAR LRTM 270500Z 25005KT 9999 BKN009 OVC019 13/12 Q1016
                        R07/29//95=
201909270530 METAR LRTM 270530Z 22004KT 8000 BKN010 OVC020 13/12 Q1016
                        R07/29//95=
201909270600 METAR LRTM 270600Z 23004KT 7000 BKN010 OVC020 14/12 Q1017
                        R07/29//95=
201909270630 METAR COR LRTM 270630Z 24005KT 8000 BKN011 OVC025 14/13 Q1017
                        R07/29//95=
201909270700 METAR LRTM 270700Z 25004KT 9000 BKN009 BKN026 15/13 Q1017
                        R07/29//95=
201909270730 METAR LRTM 270730Z 26005KT 9999 BKN009 SCT012 BKN026 15/13
                        Q1017 R07/29//95=
201909270800 METAR LRTM 270800Z 27004KT 220V350 9999 BKN011 OVC027 15/13
                        Q1017 R07/29//95=
201909270830 METAR LRTM 270830Z 28006KT 250V310 9999 BKN012 OVC027 16/13
                        Q1017 R07/29//95=
201909270900 METAR LRTM 270900Z 28006KT 260V320 9999 BKN015 OVC028 16/13
                        Q1018 R07/29//95=
201909270930 METAR LRTM 270930Z 31006KT 280V350 9999 BKN018 OVC024 17/11
                        Q1018 R07/29//95=
201909271000 METAR LRTM 271000Z 28005KT 250V320 9999 BKN024 OVC031 17/11
                        Q1018 R07/29//95=
201909271030 METAR LRTM 271030Z 28005KT 240V300 9999 BKN025 BKN034 17/12
                        Q1018 R07/29//95=
201909271100 METAR LRTM 271100Z 29005KT 240V340 9999 SCT023 BKN032 18/12
                        Q1018 R07/29//95=
201909271130 METAR LRTM 271130Z 28004KT 190V340 9999 SCT026 18/11 Q1017
                        R07/CLRD//=
201909271200 METAR LRTM 271200Z 25006KT 210V290 9999 SCT030 19/12 Q1017=
201909271230 METAR LRTM 271230Z VRB05KT 9999 SCT033 19/10 Q1017=
201909271300 METAR LRTM 271300Z 31004KT 240V030 9999 SCT034 20/11 Q1017=
201909271330 METAR LRTM 271330Z VRB04KT 9999 SCT040 20/09 Q1017=
201909271400 METAR LRTM 271400Z 23005KT 200V290 9999 SCT040 21/10 Q1017=
201909271430 METAR LRTM 271430Z 26004KT 9999 FEW045 20/10 Q1017=
201909271500 METAR LRTM 271500Z 26003KT 9999 FEW045 20/10 Q1017=
201909271530 METAR LRTM 271530Z 25005KT 9999 FEW047 18/12 Q1017=
201909271600 METAR LRTM 271600Z 21004KT 9999 FEW048 16/12 Q1017=
201909271630 METAR LRTM 271630Z 25003KT 230V290 CAVOK 15/11 Q1017=
201909271700 METAR LRTM 271700Z VRB02KT CAVOK 14/11 Q1018=
201909271730 METAR LRTM 271730Z AUTO 27001KT 9999 BKN045/// 13/11 Q1018=
201909271800 METAR LRTM 271800Z AUTO 00000KT 9999 FEW050/// 13/11 Q1018=
201909271830 METAR LRTM 271830Z AUTO 23002KT 7000 NCD 13/11 Q1018=
201909271900 METAR LRTM 271900Z AUTO 09003KT 7000 NCD 10/09 Q1019=
201909271930 METAR LRTM 271930Z AUTO 07003KT 030V090 9000 NCD 12/11 Q1019=
201909272000 METAR LRTM 272000Z AUTO 07004KT 7000 NCD 10/09 Q1019=
201909272030 METAR LRTM 272030Z AUTO 09004KT 6000 NCD 10/10 Q1019=
201909272100 METAR LRTM 272100Z AUTO 10003KT 4000 R07/1800VP2000D BR NCD
                        09/09 Q1019=
201909272130 METAR LRTM 272130Z AUTO 09004KT 5000 BR NCD 09/09 Q1019=
201909272200 METAR LRTM 272200Z AUTO 09006KT 5000 BR NCD 11/10 Q1019=
201909272230 METAR LRTM 272230Z AUTO 09004KT 5000 BR NCD 10/09 Q1019=
201909272300 METAR LRTM 272300Z AUTO 08005KT 4100 BR NCD 09/08 Q1019=
201909272330 METAR LRTM 272330Z AUTO 10004KT 5000 BR NCD 10/09 Q1019=
201909280000 METAR LRTM 280000Z AUTO 10006KT 4100 BR SCT140/// 10/09 Q1019=
201909280030 METAR LRTM 280030Z AUTO 09005KT 5000 BR OVC140/// 10/09 Q1019=
201909280100 METAR LRTM 280100Z AUTO 11005KT 5000 BR OVC130/// 10/09 Q1019=
201909280130 METAR LRTM 280130Z AUTO 10003KT 5000 BR BKN130/// 09/08 Q1019=
201909280200 METAR LRTM 280200Z AUTO 10004KT 5000 BR BKN120/// 09/08 Q1019=
201909280230 METAR LRTM 280230Z AUTO 10005KT 4800 BR BKN120/// 09/09 Q1019=
201909280300 METAR LRTM 280300Z AUTO 10004KT 5000 BR NCD 09/08 Q1019=
201909280330 METAR LRTM 280330Z AUTO 10004KT 4500 BR NCD 08/07 Q1019=
201909280400 METAR LRTM 280400Z AUTO 09005KT 2400 R07/1100VP2000D FG FEW001///
                        09/08 Q1019=
201909280430 METAR LRTM 280430Z AUTO 00000KT 0400 R07/0500U FG FEW003///
                        08/08 Q1019=
201909280500 METAR LRTM 280500Z 00000KT 1200 R07/1500D BR FEW001 SCT006
                        09/08 Q1020=
201909280530 METAR LRTM 280530Z 09004KT 1700 BCFG BR FEW001 SCT006 09/09
                        Q1020=
201909280600 METAR LRTM 280600Z 09005KT 3500 BCFG BR FEW001 SCT006 10/09
                        Q1019=
201909280630 METAR LRTM 280630Z 08005KT 4000 BCFG BR FEW002 SCT006 11/10
                        Q1020=
201909280700 METAR LRTM 280700Z 09003KT 040V110 6000 FEW003 SCT008 12/10
                        Q1020=
201909280730 METAR LRTM 280730Z VRB02KT 9000 FEW010 13/12 Q1020=
201909280800 METAR LRTM 280800Z VRB02KT 9999 FEW010 14/12 Q1019=
201909280830 METAR LRTM 280830Z 11003KT 070V150 9999 FEW012 16/11 Q1019=
201909280900 METAR LRTM 280900Z VRB01KT 9999 FEW021 17/11 Q1019=
201909280930 METAR LRTM 280930Z VRB02KT 9999 FEW023 19/11 Q1019=
201909281000 METAR LRTM 281000Z VRB02KT 9999 FEW023 19/11 Q1019=
201909281030 METAR LRTM 281030Z VRB01KT 9999 FEW025 20/11 Q1019=
201909281100 METAR LRTM 281100Z VRB02KT 9999 FEW028 21/11 Q1018=
201909281130 METAR LRTM 281130Z VRB01KT 9999 FEW030 21/11 Q1018=
201909281200 METAR LRTM 281200Z 11003KT 040V170 9999 FEW030 21/11 Q1018=
201909281230 METAR LRTM 281230Z 10003KT 030V150 9999 FEW032 21/10 Q1017=
201909281300 METAR LRTM 281300Z 09003KT 050V160 9999 FEW035 22/10 Q1017=
201909281330 METAR LRTM 281330Z 09004KT 040V120 9999 FEW035 22/10 Q1017=
201909281400 METAR LRTM 281400Z 12004KT 080V140 9999 FEW035 22/10 Q1017=
201909281430 METAR LRTM 281430Z 12003KT CAVOK 22/10 Q1017=
201909281500 METAR LRTM 281500Z 11004KT CAVOK 21/11 Q1016=
201909281530 METAR LRTM 281530Z 00000KT CAVOK 19/11 Q1016=
201909281600 METAR LRTM 281600Z 00000KT CAVOK 18/12 Q1016=
201909281630 METAR LRTM 281630Z 00000KT CAVOK 18/12 Q1016=
201909281700 METAR LRTM 281700Z 00000KT CAVOK 18/12 Q1016=
201909281730 METAR LRTM 281730Z AUTO 00000KT 9999 OVC100/// 17/12 Q1016=
201909281800 METAR LRTM 281800Z AUTO 08002KT 8000 OVC110/// 16/12 Q1016=
201909281830 METAR LRTM 281830Z AUTO 00000KT 9999 BKN097/// 16/12 Q1016=
201909281900 METAR LRTM 281900Z AUTO 13002KT 100V170 9999 FEW080/// OVC100///
                        15/13 Q1016=
201909281930 METAR LRTM 281930Z AUTO 00000KT 9999 SCT059/// BKN074///
                        16/13 Q1016=
201909282000 METAR LRTM 282000Z AUTO 00000KT 9999 FEW076/// 15/13 Q1016=
201909282030 METAR LRTM 282030Z AUTO 00000KT 9999 FEW053/// SCT077///
                        BKN097/// 14/13 Q1016=
201909282100 METAR LRTM 282100Z AUTO 00000KT 9999 SCT089/// 14/13 Q1016=
201909282130 METAR LRTM 282130Z AUTO VRB01KT 9999 SCT120/// 14/12 Q1016=
201909282200 METAR LRTM 282200Z AUTO 00000KT 9999 BKN130/// 13/11 Q1016=
201909282230 METAR LRTM 282230Z AUTO VRB01KT 9999 OVC120/// 15/11 Q1016=
201909282300 METAR LRTM 282300Z AUTO 00000KT 9999 BKN110/// 14/11 Q1016=
201909282330 METAR LRTM 282330Z AUTO 00000KT 9999 SCT095/// BKN110///
                        14/12 Q1016=
201909290000 METAR LRTM 290000Z AUTO 00000KT 9999 BKN100/// 13/12 Q1016=
201909290030 METAR LRTM 290030Z AUTO 23001KT 9999 FEW055/// 13/12 Q1017=
201909290100 METAR LRTM 290100Z AUTO 21001KT 9999 FEW110/// 12/10 Q1016=
201909290130 METAR LRTM 290130Z AUTO 23003KT 9999 FEW110/// 12/10 Q1017=
201909290200 METAR LRTM 290200Z AUTO 26003KT 9999 NCD 12/10 Q1017=
201909290230 METAR LRTM 290230Z AUTO VRB01KT 9000 NCD 10/09 Q1017=
201909290300 METAR LRTM 290300Z AUTO 00000KT 7000 NCD 10/09 Q1017=
201909290330 METAR LRTM 290330Z 00000KT CAVOK 09/08 Q1017=
201909290400 METAR LRTM 290400Z 00000KT 8000 MIFG NSC 09/08 Q1017=
201909290430 METAR LRTM 290430Z 00000KT 6000 BCFG MIFG NSC 09/08 Q1017=
201909290500 METAR LRTM 290500Z 00000KT 7000 NSC 09/09 Q1017=
201909290530 METAR LRTM 290530Z 00000KT 7000 NSC 11/10 Q1018=
201909290600 METAR LRTM 290600Z 00000KT 9999 FEW018 13/11 Q1018=
201909290630 METAR LRTM 290630Z 00000KT 9999 FEW021 15/12 Q1018=
201909290700 METAR LRTM 290700Z 00000KT CAVOK 16/13 Q1018=
201909290730 METAR LRTM 290730Z 00000KT 9999 FEW038 16/12 Q1018=
201909290800 METAR LRTM 290800Z 00000KT 9999 FEW040 17/12 Q1018=
201909290830 METAR LRTM 290830Z VRB01KT 9999 FEW045 19/12 Q1018=
201909290900 METAR LRTM 290900Z VRB02KT 9999 FEW045 19/11 Q1018=
201909290930 METAR LRTM 290930Z VRB02KT 9999 FEW048 19/11 Q1018=
201909291000 METAR LRTM 291000Z 27003KT 220V330 9999 FEW048 20/11 Q1018=
201909291030 METAR LRTM 291030Z VRB02KT 9999 FEW042 20/11 Q1017=
201909291100 METAR LRTM 291100Z 20004KT 110V260 9999 FEW038 21/10 Q1017=
201909291130 METAR LRTM 291130Z 29003KT 240V330 9999 FEW040 21/10 Q1017=
201909291200 METAR LRTM 291200Z VRB02KT 9999 FEW040 22/10 Q1016=
201909291230 METAR LRTM 291230Z 31005KT 270V020 9999 FEW040 22/10 Q1016=
201909291300 METAR LRTM 291300Z VRB01KT 9999 FEW042 22/11 Q1016=
201909291330 METAR LRTM 291330Z VRB02KT 9999 FEW042 22/10 Q1015=
201909291400 METAR LRTM 291400Z 30004KT 240V020 9999 FEW042 23/11 Q1015=
201909291430 METAR LRTM 291430Z VRB02KT 9999 FEW042 22/10 Q1015=
201909291500 METAR LRTM 291500Z 07004KT 9999 FEW042 21/11 Q1015=
201909291530 METAR LRTM 291530Z 07004KT 9999 FEW042 20/11 Q1014=
201909291600 METAR LRTM 291600Z AUTO 03002KT 9999 NCD 19/11 Q1014=
201909291630 METAR LRTM 291630Z AUTO 36004KT 9999 NCD 17/11 Q1014=
201909291700 METAR LRTM 291700Z AUTO 07002KT 040V110 9999 NCD 17/11 Q1014=
201909291730 METAR LRTM 291730Z AUTO 09003KT 9999 NCD 16/11 Q1014=
201909291800 METAR LRTM 291800Z AUTO 11003KT 9999 NCD 14/10 Q1014=
201909291830 METAR LRTM 291830Z AUTO 09002KT 9999 NCD 14/10 Q1014=
201909291900 METAR LRTM 291900Z AUTO VRB01KT 9999 NCD 12/10 Q1014=
201909291930 METAR LRTM 291930Z AUTO 04003KT 330V100 9999 NCD 12/10 Q1014=
201909292000 METAR LRTM 292000Z AUTO 08003KT 040V110 9999 NCD 11/09 Q1014=
201909292030 METAR LRTM 292030Z AUTO 10005KT 9999 FEW090/// 11/10 Q1014=
201909292100 METAR LRTM 292100Z AUTO 10005KT 9999 NCD 11/10 Q1014=
201909292130 METAR LRTM 292130Z AUTO 09004KT 9000 NCD 10/09 Q1013=
201909292200 METAR LRTM 292200Z AUTO 10004KT 9999 NCD 11/09 Q1013=
201909292230 METAR LRTM 292230Z AUTO 10004KT 8000 NCD 10/09 Q1013=
201909292300 METAR LRTM 292300Z AUTO 10004KT 9000 NCD 10/09 Q1013=
201909292330 METAR LRTM 292330Z AUTO 09004KT 8000 NCD 10/09 Q1013=
201909300000 METAR LRTM 300000Z AUTO 10004KT 8000 NCD 10/09 Q1012=
201909300030 METAR LRTM 300030Z AUTO 09005KT 6000 NCD 09/08 Q1012=
201909300100 METAR LRTM 300100Z AUTO 09004KT 6000 NCD 09/08 Q1012=
201909300130 METAR LRTM 300130Z AUTO 10004KT 7000 NCD 09/08 Q1012=
201909300200 METAR LRTM 300200Z AUTO 08004KT 5000 BR NCD 08/07 Q1012=
201909300230 METAR LRTM 300230Z AUTO 10005KT 9999 NCD 09/08 Q1011=
201909300300 METAR LRTM 300300Z 09005KT 7000 NSC 08/07 Q1011=
201909300330 METAR LRTM 300330Z 10006KT 8000 NSC 09/08 Q1011=
201909300400 METAR LRTM 300400Z 09005KT 7000 FEW003 09/08 Q1011=
201909300430 METAR LRTM 300430Z 10005KT 7000 MIFG FEW003 09/08 Q1011=
201909300500 METAR LRTM 300500Z 09006KT 6000 MIFG FEW003 08/08 Q1011=
201909300530 METAR LRTM 300530Z 09005KT 7000 FEW005 09/08 Q1011=
201909300600 METAR LRTM 300600Z 11004KT 8000 FEW007 10/09 Q1011=
201909300630 METAR LRTM 300630Z 09003KT 8000 FEW009 10/09 Q1011=
201909300700 METAR LRTM 300700Z 06004KT 360V100 8000 FEW012 12/11 Q1010=
201909300730 METAR LRTM 300730Z 07004KT 040V100 8000 FEW012 14/12 Q1010=
201909300800 METAR LRTM 300800Z VRB02KT 9000 FEW015 16/12 Q1010=
201909300830 METAR LRTM 300830Z VRB02KT CAVOK 18/13 Q1010=
201909300900 METAR LRTM 300900Z 00000KT CAVOK 21/12 Q1010=
201909300930 METAR LRTM 300930Z 20010KT 170V230 CAVOK 23/11 Q1009=
201909301000 METAR LRTM 301000Z 22010KT 9999 FEW030 23/12 Q1009=
201909301030 METAR LRTM 301030Z 23012KT 9999 FEW032 25/12 Q1009=
201909301100 METAR LRTM 301100Z 23017KT 9999 FEW033 25/12 Q1009=
201909301130 METAR LRTM 301130Z 23014KT 200V260 9999 FEW036 25/12 Q1008=
201909301200 METAR LRTM 301200Z 22019KT 9999 FEW038 25/10 Q1008=
201909301230 METAR LRTM 301230Z 24016KT 9999 FEW040 26/10 Q1008=
201909301300 METAR LRTM 301300Z 24016KT 9999 FEW040 FEW041CB 24/11 Q1008=
201909301330 METAR LRTM 301330Z 24016KT 9999 FEW040 FEW042CB 23/11 Q1008=
201909301400 METAR LRTM 301400Z 24013KT 9999 FEW042 22/12 Q1008=
201909301430 METAR LRTM 301430Z 23013KT 9999 FEW042 22/12 Q1008=
201909301500 METAR LRTM 301500Z 24013KT 9999 FEW045 21/12 Q1008=
201909301530 METAR LRTM 301530Z AUTO 24010KT 9999 SCT100/// 20/12 Q1008=
201909301600 METAR LRTM 301600Z AUTO 24007KT 9999 SCT110/// 19/12 Q1008=
201909301630 METAR LRTM 301630Z AUTO 24006KT 9999 NCD 17/12 Q1008=
201909301700 METAR LRTM 301700Z AUTO 32003KT 260V350 9999 NCD 16/12 Q1008=
201909301730 METAR LRTM 301730Z AUTO 24003KT 5000 BR NCD 15/12 Q1008=
201909301800 METAR LRTM 301800Z AUTO 26004KT 240V300 9999 SCT110/// 16/12
                        Q1008=
201909301830 METAR LRTM 301830Z AUTO VRB01KT 9999 BKN089/// SCT110///
                        16/12 Q1008=
201909301900 METAR LRTM 301900Z AUTO 28004KT 9999 FEW072/// OVC091///
                        18/13 Q1009=
201909301930 METAR LRTM 301930Z AUTO 27006KT 9999 FEW058/// BKN079///
                        18/13 Q1009=
201909302000 METAR LRTM 302000Z AUTO 27007KT 9999 -SHRA BKN057/// SCT073///
                        18/13 Q1010=
201909302030 METAR LRTM 302030Z AUTO 28006KT 9999 -SHRA BKN054/// SCT068///
                        17/12 Q1010=
201909302100 METAR LRTM 302100Z AUTO 27007KT 9999 -SHRA BKN067/// 18/11
                        Q1010=
201909302130 METAR LRTM 302130Z AUTO 24007KT 9999 FEW110/// 15/12 Q1010
                        RERA=
201909302200 METAR LRTM 302200Z AUTO 28007KT 9999 BKN190/// 17/10 Q1011=
201909302230 METAR LRTM 302230Z AUTO 28008KT 9999 NCD 17/09 Q1011=
201909302300 METAR LRTM 302300Z AUTO 28007KT 9999 FEW170/// 16/09 Q1012=
201909302330 METAR LRTM 302330Z AUTO 26007KT 9999 NCD 14/08 Q1012=