201910010200 TAF LRTM 010200Z NIL=
201910010500 TAF LRTM 010500Z 0106/0115 VRB04KT CAVOK=
201910010800 TAF LRTM 010800Z 0109/0118 VRB04KT CAVOK=
201910011100 TAF LRTM 011100Z 0112/0121 VRB04KT CAVOK=
201910011400 TAF LRTM 011400Z 0115/0124 VRB04KT CAVOK=
201910011700 TAF LRTM 011700Z NIL=
201910012000 TAF LRTM 012000Z NIL=
201910012300 TAF LRTM 012300Z NIL=
201910020200 TAF LRTM 020200Z NIL=
201910020405 TAF LRTM 020405Z 0204/0212 VRB03KT CAVOK=
201910020500 TAF LRTM 020500Z 0206/0215 09005KT CAVOK=
201910020800 TAF LRTM 020800Z 0209/0218 08005KT CAVOK=
201910021100 TAF LRTM 021100Z 0212/0221 17006KT CAVOK=
201910021400 TAF LRTM 021400Z 0215/0224 VRB04KT CAVOK=
201910021700 TAF LRTM 021700Z NIL=
201910022000 TAF LRTM 022000Z NIL=
201910022300 TAF LRTM 022300Z NIL=
201910030200 TAF LRTM 030200Z NIL=
201910030500 TAF LRTM 030500Z 0306/0315 VRB04KT CAVOK
                      TEMPO 0306/0307 5000 BR BKN010
                      BECMG 0307/0309 32012KT SCT015 SCT030CB BKN040
                       TEMPO 0310/0315 3000 SHRA BKN010 SCT025CB
                       OVC035=
201910030800 TAF LRTM 030800Z 0309/0318 24008KT CAVOK
                      BECMG 0310/0312 32012KT 5000 RA SCT015 BKN040
                       TEMPO 0312/0318 3000 SHRA BKN010 SCT025CB
                       OVC035
                      PROB30 TEMPO 0312/0315 TSRA=
201910031100 TAF LRTM 031100Z 0312/0321 26008KT CAVOK
                      TEMPO 0312/0318 3000 SHRA BKN010 SCT025CB
                       OVC035
                      PROB30 TEMPO 0312/0315 TSRA=
201910031400 TAF LRTM 031400Z 0315/0324 30010KT 9999 BKN015 BKN040
                      TEMPO 0315/0318 5000 SHRA BKN010 SCT030CB
                       OVC035=
201910031700 TAF LRTM 031700Z NIL=
201910032000 TAF LRTM 032000Z NIL=
201910032300 TAF LRTM 032300Z NIL=
201910040200 TAF LRTM 040200Z 0403/0412 30005KT 9999 BKN045
                      TEMPO 0403/0408 5000 -RA BR BKN010 BKN030=
201910040500 TAF LRTM 040500Z 0406/0415 30005KT 9999 SCT015 BKN045
                      TEMPO 0406/0412 5000 -RA BR BKN010 BKN040=
201910040800 TAF LRTM 040800Z 0409/0418 VRB04KT 9999 SCT015 BKN045
                      TEMPO 0409/0416 5000 -RA BR BKN015 BKN040
                       PROB40
                      TEMPO 0411/0416 5000 SHRA SCT015 SCT030CB
                       BKN040=
201910041100 TAF LRTM 041100Z 0412/0421 VRB04KT 5000 -SHRA SCT010 SCT030CB BKN040
                       BECMG 0414/0416 9999 NSW BKN040
                      BECMG 0419/0421 5000 BR BKN010=
201910041400 TAF LRTM 041400Z 0415/0424 VRB04KT 9999 BKN035
                      BECMG 0417/0419 5000 BR BKN010 BKN035
                      BECMG 0422/0424 3000 BR OVC005=
201910041700 TAF LRTM 041700Z NIL=
201910042000 TAF LRTM 042000Z NIL=
201910042300 TAF LRTM 042300Z NIL=
201910050200 TAF LRTM 050200Z 0503/0512 VRB04KT 0350 FG VV001
                      TEMPO 0503/0505 0150 FG
                      BECMG 0505/0507 0800 BKN002
                      BECMG 0507/0509 3000 BR BKN010
                      BECMG 0509/0511 9999 NSW BKN025=
201910050500 TAF LRTM 050500Z 0506/0515 VRB04KT 0350 FG OVC002
                      PROB30 TEMPO 0506/0507 0150 FG OVC001
                      BECMG 0507/0509 3000 BR BKN007
                      BECMG 0509/0511 9999 NSW SCT010 BKN030=
201910050800 TAF LRTM 050800Z 0509/0518 VRB04KT 9999 BKN010
                      BECMG 0509/0511 SCT010 BKN030
                      PROB30 TEMPO 0511/0514 FEW030CB SCT040=
201910051100 TAF LRTM 051100Z 0512/0521 VRB04KT 9999 SCT040
                      PROB30 TEMPO 0512/0514 FEW030CB SCT040
                      BECMG 0518/0520 5000 -RA BKN015 BKN030=
201910051400 TAF LRTM 051400Z 0515/0524 VRB04KT 9999 SCT040
                      BECMG 0518/0520 5000 -RA BR BKN015 OVC040
                       TEMPO 0521/0524 3000 RA BR BKN010 OVC030=
201910051700 TAF LRTM 051700Z NIL=
201910052000 TAF LRTM 052000Z NIL=
201910052300 TAF LRTM 052300Z NIL=
201910060200 TAF LRTM 060200Z NIL=
201910060438 TAF LRTM 060438Z 0604/0612 VRB04KT 9999 BKN040
                      PROB30 TEMPO 0604/0607 5000 -RA BR BKN010
                       OVC035=
201910060500 TAF LRTM 060500Z 0606/0615 VRB04KT 9999 BKN045
                      TEMPO 0606/0609 5000 -SHRA -RA BKN015 SCT035CB
                       BKN040
                      BECMG 0609/0611 30010KT
                      PROB30 TEMPO 0612/0615 5000 -SHRA BKN010
                       SCT035CB OVC045=
201910060800 TAF LRTM 060800Z 0609/0618 VRB04KT 9999 SCT020 BKN045
                      PROB30 TEMPO 0612/0616 26010KT 5000 -SHRA
                       BKN010 SCT035CB OVC045=
201910061100 TAF LRTM 061100Z 0612/0621 VRB04KT 9999 SCT020 BKN035
                      PROB30 TEMPO 0612/0616 26010KT 5000 -SHRA
                       BKN010 SCT030CB BKN035
                      BECMG 0616/0618 32010KT=
201910061400 TAF LRTM 061400Z 0615/0624 31010KT 9999 SCT015 BKN035
                      TEMPO 0621/0624 BKN010 BKN025=
201910061700 TAF LRTM 061700Z NIL=
201910062000 TAF LRTM 062000Z NIL=
201910062300 TAF LRTM 062300Z NIL=
201910070200 TAF LRTM 070200Z 0703/0712 VRB04KT 9999 BKN015 BKN035
                      TEMPO 0703/0706 BKN010 BKN030
                      BECMG 0706/0708 BKN035=
201910070500 TAF LRTM 070500Z 0706/0715 VRB04KT 9999 BKN030
                      TEMPO 0706/0708 5000 BR BKN010=
201910070800 TAF LRTM 070800Z 0709/0718 VRB04KT 9999 BKN025=
201910071100 TAF LRTM 071100Z 0712/0721 VRB04KT 9999 BKN025=
201910071400 TAF LRTM 071400Z 0715/0724 33006KT 9999 BKN025=
201910071700 TAF LRTM 071700Z NIL=
201910072000 TAF LRTM 072000Z NIL=
201910072300 TAF LRTM 072300Z NIL=
201910080200 TAF LRTM 080200Z 0803/0812 VRB04KT CAVOK=
201910080500 TAF LRTM 080500Z 0806/0815 VRB04KT 3000 BR NSC
                      BECMG 0806/0808 9999 NSW=
201910080800 TAF LRTM 080800Z 0809/0818 VRB04KT CAVOK=
201910081100 TAF LRTM 081100Z 0812/0821 VRB04KT CAVOK=
201910081400 TAF LRTM 081400Z 0815/0824 VRB04KT CAVOK=
201910081700 TAF LRTM 081700Z NIL=
201910082000 TAF LRTM 082000Z NIL=
201910082300 TAF LRTM 082300Z NIL=
201910090200 TAF LRTM 090200Z 0903/0912 VRB04KT CAVOK
                      TEMPO 0903/0905 3000 BR=
201910090500 TAF LRTM 090500Z 0906/0915 09006KT CAVOK=
201910090800 TAF LRTM 090800Z 0909/0918 08006KT CAVOK=
201910091100 TAF LRTM 091100Z 0912/0921 VRB03KT CAVOK=
201910091400 TAF LRTM 091400Z 0915/0924 VRB03KT CAVOK=
201910091700 TAF LRTM 091700Z NIL=
201910092000 TAF LRTM 092000Z NIL=
201910092300 TAF LRTM 092300Z NIL=
201910100200 TAF LRTM 100200Z NIL=
201910100500 TAF LRTM 100500Z 1006/1015 VRB04KT CAVOK
                      BECMG 1013/1015 5000 -RA BKN015 OVC035=
201910100800 TAF LRTM 100800Z 1009/1018 VRB04KT CAVOK
                      BECMG 1015/1017 5000 -RA BKN015 OVC035=
201910101100 TAF LRTM 101100Z 1012/1021 VRB04KT CAVOK
                      BECMG 1015/1017 5000 -RA BKN015 OVC035=
201910101400 TAF LRTM 101400Z 1015/1024 VRB04KT CAVOK
                      BECMG 1015/1017 5000 -RA BKN015 OVC035=
201910101700 TAF LRTM 101700Z NIL=
201910102000 TAF LRTM 102000Z NIL=
201910102300 TAF LRTM 102300Z NIL=
201910110200 TAF LRTM 110200Z 1103/1112 VRB04KT 9999 SCT045
                      TEMPO 1103/1106 3000 BR BKN007
                      BECMG 1107/1109 26010KT=
201910110500 TAF LRTM 110500Z 1106/1115 VRB04KT 0300 FG VV001
                      BECMG 1106/1108 1500 BR BKN005
                      BECMG 1108/1110 CAVOK=
201910110705 TAF AMD LRTM 110705Z 1107/1115 VRB04KT 5000 BR BKN050
                      BECMG 1107/1109 9999 NSW=
201910110800 TAF LRTM 110800Z 1109/1118 VRB04KT 9999 BKN050=
201910111100 TAF LRTM 111100Z 1112/1121 VRB04KT 9999 BKN050=
201910111400 TAF LRTM 111400Z 1115/1124 VRB04KT 9999 BKN050=
201910111700 TAF LRTM 111700Z NIL=
201910112000 TAF LRTM 112000Z NIL=
201910112300 TAF LRTM 112300Z NIL=
201910120200 TAF LRTM 120200Z NIL=
201910120500 TAF LRTM 120500Z 1206/1215 VRB04KT CAVOK=
201910120800 TAF LRTM 120800Z 1209/1218 VRB04KT CAVOK=
201910121100 TAF LRTM 121100Z 1212/1221 VRB04KT CAVOK=
201910121400 TAF LRTM 121400Z 1215/1224 VRB04KT CAVOK=
201910121700 TAF LRTM 121700Z NIL=
201910122000 TAF LRTM 122000Z NIL=
201910122300 TAF LRTM 122300Z NIL=
201910130200 TAF LRTM 130200Z 1303/1312 VRB04KT 5000 BR NSC
                      TEMPO 1303/1306 1500 BR SCT005
                      BECMG 1306/1307 CAVOK=
201910130500 TAF LRTM 130500Z 1306/1315 VRB04KT CAVOK=
201910130800 TAF LRTM 130800Z 1309/1318 VRB04KT CAVOK=
201910131100 TAF LRTM 131100Z 1312/1321 VRB04KT CAVOK=
201910131400 TAF LRTM 131400Z 1315/1324 VRB04KT CAVOK=
201910131700 TAF LRTM 131700Z NIL=
201910132000 TAF LRTM 132000Z NIL=
201910132300 TAF LRTM 132300Z NIL=
201910140200 TAF LRTM 140200Z NIL=
201910140500 TAF LRTM 140500Z 1406/1415 VRB04KT CAVOK=
201910140800 TAF LRTM 140800Z 1409/1418 VRB03KT CAVOK=
201910141100 TAF LRTM 141100Z 1412/1421 VRB03KT CAVOK=
201910141400 TAF LRTM 141400Z 1415/1424 VRB03KT CAVOK=
201910141700 TAF LRTM 141700Z NIL=
201910142000 TAF LRTM 142000Z NIL=
201910142300 TAF LRTM 142300Z NIL=
201910150200 TAF LRTM 150200Z NIL=
201910150332 TAF LRTM 150332Z 1503/1512 VRB04KT 3000 BR SCT007
                      TEMPO 1504/1506 0800 FG BKN002
                      BECMG 1506/1508 CAVOK=
201910150500 TAF LRTM 150500Z 1506/1515 VRB03KT 0800 FG BKN003
                      TEMPO 1506/1507 0350 FG VV001
                      BECMG 1507/1508 3000 BR SCT010
                      BECMG 1509/1510 14010KT CAVOK=
201910150800 TAF LRTM 150800Z 1509/1518 VRB03KT CAVOK=
201910151100 TAF LRTM 151100Z 1512/1521 VRB03KT CAVOK=
201910151400 TAF LRTM 151400Z 1515/1524 VRB03KT CAVOK=
201910151700 TAF LRTM 151700Z NIL=
201910152000 TAF LRTM 152000Z NIL=
201910152300 TAF LRTM 152300Z NIL=
201910160200 TAF LRTM 160200Z 1603/1612 09006KT CAVOK=
201910160500 TAF LRTM 160500Z 1606/1615 VRB04KT 5000 BR BKN010
                      TEMPO 1606/1608 1500 BR BKN005
                      BECMG 1608/1610 CAVOK=
201910160800 TAF LRTM 160800Z 1609/1618 VRB04KT CAVOK=
201910161100 TAF LRTM 161100Z 1612/1621 VRB04KT CAVOK=
201910161400 TAF LRTM 161400Z 1615/1624 VRB04KT 9999 SCT015
                      BECMG 1615/1617 5000 BR BKN010
                      BECMG 1620/1622 1500 BR BKN005=
201910161700 TAF LRTM 161700Z NIL=
201910162000 TAF LRTM 162000Z NIL=
201910162300 TAF LRTM 162300Z NIL=
201910170200 TAF LRTM 170200Z NIL=
201910170500 TAF LRTM 170500Z 1706/1715 VRB04KT 1500 BR NSC
                      BECMG 1706/1707 3000
                      BECMG 1707/1709 9999 NSW=
201910170800 TAF LRTM 170800Z 1709/1718 VRB04KT CAVOK
                      PROB30 TEMPO 1717/1718 5000 BR=
201910171100 TAF LRTM 171100Z 1712/1721 VRB04KT CAVOK
                      BECMG 1719/1721 5000 BR=
201910171400 TAF LRTM 171400Z 1715/1724 VRB04KT CAVOK
                      BECMG 1720/1722 5000 BR=
201910171700 TAF LRTM 171700Z NIL=
201910172000 TAF LRTM 172000Z NIL=
201910172300 TAF LRTM 172300Z NIL=
201910180200 TAF LRTM 180200Z NIL=
201910180415 TAF LRTM 180415Z 1804/1812 07004KT 0800 FG NSC
                      TEMPO 1805/1806 0500 FG BKN001
                      BECMG 1806/1808 5000 BR
                      BECMG 1808/1809 9999 NSW=
201910180500 TAF LRTM 180500Z 1806/1815 VRB04KT 0800 FG NSC
                      PROB40 TEMPO 1806/1807 0300 FG BKN001
                      BECMG 1807/1809 5000 BR
                      BECMG 1809/1810 9999 NSW=
201910180800 TAF LRTM 180800Z 1809/1818 VRB04KT CAVOK=
201910181100 TAF LRTM 181100Z 1812/1821 VRB04KT CAVOK
                      BECMG 1818/1820 5000 BR=
201910181400 TAF LRTM 181400Z 1815/1824 VRB04KT CAVOK
                      BECMG 1818/1820 5000 BR
                      BECMG 1820/1822 3000 BR
                      TEMPO 1822/1824 1500 BR=
201910181700 TAF LRTM 181700Z NIL=
201910182000 TAF LRTM 182000Z NIL=
201910182300 TAF LRTM 182300Z NIL=
201910190200 TAF LRTM 190200Z NIL=
201910190500 TAF LRTM 190500Z 1906/1915 VRB04KT 3000 BR SCT010
                      TEMPO 1906/1908 1500 BR BKN005
                      BECMG 1908/1910 CAVOK=
201910190800 TAF LRTM 190800Z 1909/1918 VRB04KT CAVOK=
201910191100 TAF LRTM 191100Z 1912/1921 VRB04KT CAVOK=
201910191400 TAF LRTM 191400Z 1915/1924 VRB04KT CAVOK=
201910191700 TAF LRTM 191700Z NIL=
201910192000 TAF LRTM 192000Z NIL=
201910192300 TAF LRTM 192300Z NIL=
201910200200 TAF LRTM 200200Z 2003/2012 VRB04KT CAVOK
                      TEMPO 2003/2006 3000 BR=
201910200500 TAF LRTM 200500Z 2006/2015 VRB04KT 3000 BR NSC
                      BECMG 2006/2008 CAVOK=
201910200800 TAF LRTM 200800Z 2009/2018 09005KT CAVOK=
201910201100 TAF LRTM 201100Z 2012/2021 VRB04KT CAVOK=
201910201400 TAF LRTM 201400Z 2015/2024 08005KT CAVOK=
201910201700 TAF LRTM 201700Z NIL=
201910202000 TAF LRTM 202000Z NIL=
201910202300 TAF LRTM 202300Z NIL=
201910210200 TAF LRTM 210200Z 2103/2112 VRB04KT 5000 BR NSC
                      TEMPO 2103/2106 1500 BR BKN005
                      BECMG 2106/2108 CAVOK=
201910210500 TAF LRTM 210500Z 2106/2115 VRB04KT 3000 BR NSC
                      BECMG 2106/2108 CAVOK=
201910210800 TAF LRTM 210800Z 2109/2118 VRB04KT CAVOK=
201910211100 TAF LRTM 211100Z 2112/2121 VRB04KT CAVOK=
201910211400 TAF LRTM 211400Z 2115/2124 VRB04KT CAVOK
                      BECMG 2122/2124 5000 BR=
201910211700 TAF LRTM 211700Z NIL=
201910212000 TAF LRTM 212000Z NIL=
201910212300 TAF LRTM 212300Z NIL=
201910220200 TAF LRTM 220200Z NIL=
201910220420 TAF LRTM 220420Z 2204/2212 10006KT 5000 BR NSC
                      TEMPO 2204/2206 1500 BR BKN005
                      BECMG 2206/2208 CAVOK=
201910220500 TAF LRTM 220500Z 2206/2215 VRB04KT 3000 BR NSC
                      BECMG 2206/2208 CAVOK=
201910220800 TAF LRTM 220800Z 2209/2218 VRB04KT CAVOK=
201910221100 TAF LRTM 221100Z 2212/2221 VRB04KT CAVOK=
201910221400 TAF LRTM 221400Z 2215/2224 VRB04KT CAVOK
                      BECMG 2222/2224 5000 BR=
201910221700 TAF LRTM 221700Z NIL=
201910222000 TAF LRTM 222000Z NIL=
201910222300 TAF LRTM 222300Z NIL=
201910230200 TAF LRTM 230200Z 2303/2312 09006KT 5000 BR NSC
                      TEMPO 2303/2305 1500 BR
                      BECMG 2305/2307 9999 NSW=
201910230500 TAF LRTM 230500Z 2306/2315 VRB04KT 0800 FG BKN005
                      TEMPO 2306/2307 0350 FG BKN002
                      BECMG 2307/2309 3000 BR SCT015
                      BECMG 2309/2310 CAVOK=
201910230800 TAF LRTM 230800Z 2309/2318 VRB04KT CAVOK=
201910231100 TAF LRTM 231100Z 2312/2321 VRB04KT CAVOK
                      BECMG 2319/2321 5000 BR=
201910231400 TAF LRTM 231400Z 2315/2324 VRB04KT CAVOK
                      BECMG 2320/2322 5000 BR=
201910231700 TAF LRTM 231700Z 2318/2403 VRB04KT 7000 NSC
                      BECMG 2320/2322 3000 BR
                      BECMG 2322/2324 0800 FG BKN003
                      PROB30 TEMPO 2400/2403 0300 FG VV001=
201910232000 TAF LRTM 232000Z 2321/2406 VRB04KT 3000 BR NSC
                      BECMG 2321/2323 0800 FG BKN003
                      PROB30 TEMPO 2400/2405 0300 FG VV001=
201910232109 TAF AMD LRTM 232109Z 2321/2406 CNL=
201910232300 TAF LRTM 232300Z NIL=
201910240200 TAF LRTM 240200Z 2403/2412 08005KT 3000 BR SCT005
                      TEMPO 2403/2406 0600 FG BKN002
                      BECMG 2406/2408 CAVOK=
201910240500 TAF LRTM 240500Z 2406/2415 VRB04KT 3000 BR NSC
                      BECMG 2406/2408 9999 NSW=
201910240800 TAF LRTM 240800Z 2409/2418 VRB04KT CAVOK=
201910241100 TAF LRTM 241100Z 2412/2421 VRB04KT CAVOK=
201910241400 TAF LRTM 241400Z 2415/2424 VRB04KT CAVOK
                      TEMPO 2420/2424 5000 BR=
201910241700 TAF LRTM 241700Z NIL=
201910242000 TAF LRTM 242000Z NIL=
201910242300 TAF LRTM 242300Z NIL=
201910250200 TAF LRTM 250200Z 2503/2512 VRB04KT 5000 BR NSC
                      PROB30 TEMPO 2503/2506 1500 BR BKN010
                      BECMG 2506/2508 CAVOK=
201910250500 TAF LRTM 250500Z 2506/2515 VRB04KT 0600 FG SCT001 SCT005
                      TEMPO 2506/2507 0350 FG BKN001
                      BECMG 2507/2509 3000 BR
                      BECMG 2509/2510 CAVOK=
201910250800 TAF LRTM 250800Z 2509/2518 VRB04KT 5000 BR NSC
                      BECMG 2509/2510 9999 NSW=
201910251100 TAF LRTM 251100Z 2512/2521 VRB04KT CAVOK
                      BECMG 2519/2521 5000 BR=
201910251400 TAF LRTM 251400Z 2515/2524 VRB04KT CAVOK
                      BECMG 2519/2521 5000 BR
                      BECMG 2522/2524 3000 BR=
201910251700 TAF LRTM 251700Z NIL=
201910252000 TAF LRTM 252000Z NIL=
201910252300 TAF LRTM 252300Z NIL=
201910260200 TAF LRTM 260200Z NIL=
201910260500 TAF LRTM 260500Z 2606/2615 VRB04KT 0100 FG VV001
                      BECMG 2606/2607 0800 BKN003
                      BECMG 2607/2608 3000 BR SCT010
                      BECMG 2608/2609 CAVOK=
201910260800 TAF LRTM 260800Z 2609/2618 VRB04KT CAVOK=
201910261100 TAF LRTM 261100Z 2612/2621 VRB04KT CAVOK=
201910261400 TAF LRTM 261400Z 2615/2624 VRB04KT CAVOK
                      BECMG 2619/2621 3000 BR
                      BECMG 2622/2624 0800 FG BKN003=
201910261700 TAF LRTM 261700Z NIL=
201910262000 TAF LRTM 262000Z NIL=
201910262300 TAF LRTM 262300Z NIL=
201910270200 TAF LRTM 270200Z NIL=
201910270500 TAF LRTM 270500Z 2706/2715 VRB04KT 0300 FG BKN001
                      BECMG 2706/2708 3000 BR BKN010
                      BECMG 2708/2709 CAVOK=
201910270800 TAF LRTM 270800Z 2709/2718 VRB04KT CAVOK
                      BECMG 2716/2718 5000 BR=
201910271100 TAF LRTM 271100Z 2712/2721 VRB04KT CAVOK
                      BECMG 2716/2718 5000 BR
                      BECMG 2719/2721 3000 BR=
201910271400 TAF LRTM 271400Z 2715/2724 VRB04KT CAVOK
                      BECMG 2716/2718 5000 BR
                      BECMG 2719/2721 3000 BR=
201910271700 TAF LRTM 271700Z NIL=
201910272000 TAF LRTM 272000Z NIL=
201910272300 TAF LRTM 272300Z NIL=
201910280200 TAF LRTM 280200Z 2803/2812 VRB04KT 0800 FG NSC
                      TEMPO 2803/2806 0150 FG VV001
                      BECMG 2806/2808 3000 BR BKN010
                      BECMG 2808/2809 CAVOK=
201910280500 TAF LRTM 280500Z 2806/2815 VRB04KT 0300 FG OVC001
                      TEMPO 2806/2807 0150 FG VV001
                      BECMG 2807/2809 0800 BKN003
                      BECMG 2809/2810 3000 BR SCT010
                      BECMG 2810/2811 CAVOK=
201910280800 TAF LRTM 280800Z 2809/2818 VRB03KT 0600 FG BKN002
                      BECMG 2809/2810 1500 BR BKN005
                      BECMG 2810/2811 5000 SCT010
                      BECMG 2811/2813 CAVOK=
201910281100 TAF LRTM 281100Z 2812/2821 VRB03KT CAVOK
                      BECMG 2818/2820 5000 BR=
201910281400 TAF LRTM 281400Z 2815/2824 VRB03KT 7000 SCT010
                      BECMG 2818/2820 3000 BR BKN010
                      BECMG 2820/2822 1500 BR BKN005=
201910281700 TAF LRTM 281700Z NIL=
201910282000 TAF LRTM 282000Z NIL=
201910282300 TAF LRTM 282300Z NIL=
201910290200 TAF LRTM 290200Z 2903/2912 VRB04KT 9999 BKN030
                      TEMPO 2903/2907 3000 RA BR BKN005 OVC025=
201910290500 TAF LRTM 290500Z 2906/2915 VRB04KT 5000 -RA BR SCT015 OVC030
                      TEMPO 2906/2909 2000 -RA BKN005 OVC025
                      TEMPO 2910/2913 9999 NSW BKN030
                      BECMG 2913/2915 29010KT 3000 RA BKN010 OVC030=
201910290800 TAF LRTM 290800Z 2909/2918 VRB04KT 5000 BR BKN010 OVC030
                      TEMPO 2909/2910 1500 -RA BKN005 OVC025
                      PROB40 TEMPO 2911/2913 8000 NSW BKN030
                      BECMG 2913/2915 29010KT 3000 RA BKN010 OVC030=
201910291100 TAF LRTM 291100Z 2912/2921 VRB04KT 2000 BR BKN010 OVC030
                      BECMG 2914/2916 29010KT 1500 -RA BR BKN005
                       OVC020=
201910291400 TAF LRTM 291400Z 2915/2924 VRB04KT 1500 -RA BR BKN010 OVC030
                      TEMPO 2915/2920 29010KT BKN005 OVC020=
201910291700 TAF LRTM 291700Z 2918/3003 28007KT 9999 SCT015 BKN035
                      TEMPO 2918/2922 5000 -RA BR BKN010 OVC030=
201910291927 TAF AMD LRTM 291927Z 2919/3003 CNL=
201910292000 TAF LRTM 292000Z NIL=
201910292300 TAF LRTM 292300Z NIL=
201910300200 TAF LRTM 300200Z NIL=
201910300500 TAF LRTM 300500Z 3006/3015 VRB04KT 9999 SCT040=
201910300800 TAF LRTM 300800Z 3009/3018 VRB04KT 9999 SCT015 BKN030
                      BECMG 3016/3018 3000 -RA BR BKN010 OVC025=
201910301100 TAF LRTM 301100Z 3012/3021 VRB04KT 9999 BKN015 OVC025
                      BECMG 3015/3017 5000 -RA BR BKN010 OVC020
                       BECMG 3017/3019 3000 -RA BR BKN005 OVC015
                       TEMPO 3019/3021 1500 -RA BR=
201910301400 TAF LRTM 301400Z 3015/3024 VRB04KT 5000 -RA BR BKN015 OVC025
                      BECMG 3016/3018 3000 -RA BR BKN010 OVC020
                       TEMPO 3019/3024 1500 -RA BR BKN005 OVC015=
201910301700 TAF LRTM 301700Z 3018/3103 VRB04KT 9999 -RA SCT015 OVC025
                      BECMG 3018/3020 3000 -RA BR BKN010 OVC020
                       TEMPO 3020/3024 1500 -RA BR BKN005 OVC015=
201910302000 TAF LRTM 302000Z NIL=
201910302300 TAF LRTM 302300Z NIL=
201910310200 TAF LRTM 310200Z NIL=
201910310500 TAF LRTM 310500Z 3106/3115 09006KT 9999 SCT010 OVC025
                      TEMPO 3106/3108 5000 -RA BKN010 OVC020=
201910310800 TAF LRTM 310800Z 3109/3118 07006KT 9999 BKN010 OVC030=
201910311100 TAF LRTM 311100Z 3112/3121 11008KT 9999 BKN010 OVC030=
201910311400 TAF LRTM 311400Z 3115/3124 11006KT 9999 BKN015 OVC030=
201910311700 TAF LRTM 311700Z NIL=
201910312000 TAF LRTM 312000Z NIL=
201910312300 TAF LRTM 312300Z NIL=
