201903010000 METAR COR LRBS 010000Z 27004KT 240V300 CAVOK 08/M05 Q1003
                        NOSIG=
201903010030 METAR COR LRBS 010030Z VRB01KT CAVOK 06/M05 Q1003 NOSIG=
201903010100 METAR LRBS 010100Z 30003KT 240V020 CAVOK 06/M05 Q1003 NOSIG=
201903010130 METAR LRBS 010130Z 30004KT 250V010 CAVOK 05/M04 Q1003 NOSIG=
201903010200 METAR LRBS 010200Z 30004KT 250V010 CAVOK 05/M04 Q1003 NOSIG=
201903010230 METAR LRBS 010230Z 27005KT 250V330 CAVOK 06/M05 Q1003=
201903010300 METAR LRBS 010300Z VRB02KT CAVOK 06/M05 Q1003 NOSIG=
201903010330 METAR LRBS 010330Z 27004KT CAVOK 05/M04 Q1004 NOSIG=
201903010400 METAR LRBS 010400Z 29003KT 260V320 CAVOK 06/M05 Q1004 NOSIG=
201903010430 METAR LRBS 010430Z 29003KT 260V320 CAVOK 06/M05 Q1004 NOSIG=
201903010500 METAR LRBS 010500Z 29003KT 250V330 CAVOK 06/M04 Q1004 NOSIG=
201903010530 METAR LRBS 010530Z 27003KT 240V310 CAVOK 06/M04 Q1005 NOSIG=
201903010600 METAR LRBS 010600Z VRB02KT CAVOK 07/M04 Q1005 NOSIG=
201903010630 METAR LRBS 010630Z 24003KT 220V280 CAVOK 06/M03 Q1006 NOSIG=
201903010700 METAR LRBS 010700Z 28003KT 250V340 CAVOK 08/M04 Q1006 NOSIG=
201903010730 METAR LRBS 010730Z 28003KT 240V330 CAVOK 10/M04 Q1006 NOSIG=
201903010800 METAR LRBS 010800Z 27003KT 230V320 CAVOK 12/M04 Q1006 NOSIG=
201903010830 METAR LRBS 010830Z 29003KT 240V360 CAVOK 13/M04 Q1006 NOSIG=
201903010900 METAR LRBS 010900Z 25008KT CAVOK 12/M03 Q1006 NOSIG=
201903010930 METAR LRBS 010930Z 22005KT 190V250 CAVOK 15/M03 Q1006 NOSIG=
201903011000 METAR LRBS 011000Z 29004KT CAVOK 14/M03 Q1006 NOSIG=
201903011030 METAR LRBS 011030Z 27005KT 230V310 CAVOK 15/M03 Q1006 NOSIG=
201903011100 METAR LRBS 011100Z 23004KT 140V280 CAVOK 16/M03 Q1006 NOSIG=
201903011130 METAR LRBS 011130Z 27005KT CAVOK 17/M05 Q1005 NOSIG=
201903011200 METAR LRBS 011200Z 31007KT 260V030 CAVOK 17/M05 Q1005 NOSIG=
201903011230 METAR LRBS 011230Z 28009KT 230V360 CAVOK 17/M05 Q1005 NOSIG=
201903011300 METAR LRBS 011300Z 31006KT 220V030 CAVOK 17/M05 Q1005 NOSIG=
201903011330 METAR LRBS 011330Z 30006KT 240V020 CAVOK 17/M05 Q1004 NOSIG=
201903011400 METAR LRBS 011400Z 28008KT 240V340 CAVOK 17/M04 Q1004 NOSIG=
201903011430 METAR LRBS 011430Z 27008KT 240V310 CAVOK 16/M04 Q1004 NOSIG=
201903011500 METAR LRBS 011500Z 26005KT 240V300 CAVOK 16/M04 Q1004 NOSIG=
201903011530 METAR LRBS 011530Z 26002KT CAVOK 16/M04 Q1004 NOSIG=
201903011600 METAR LRBS 011600Z 24003KT 200V280 CAVOK 16/M03 Q1004 NOSIG=
201903011630 METAR LRBS 011630Z 25002KT CAVOK 15/M03 Q1004 NOSIG=
201903011700 METAR LRBS 011700Z 00000KT CAVOK 14/M03 Q1004 NOSIG=
201903011730 METAR LRBS 011730Z 01004KT 340V060 CAVOK 13/M03 Q1005 NOSIG=
201903011800 METAR LRBS 011800Z 05006KT 360V090 CAVOK 11/M05 Q1005 NOSIG=
201903011830 METAR LRBS 011830Z VRB01KT CAVOK 11/M05 Q1005 NOSIG=
201903011900 METAR LRBS 011900Z 00000KT CAVOK 11/M04 Q1005 NOSIG=
201903011930 METAR LRBS 011930Z 00000KT CAVOK 10/M04 Q1005 NOSIG=
201903012000 METAR LRBS 012000Z 27003KT CAVOK 08/M04 Q1005 NOSIG=
201903012030 METAR LRBS 012030Z VRB02KT CAVOK 08/M03 Q1005 NOSIG=
201903012100 METAR LRBS 012100Z 27004KT CAVOK 07/M03 Q1006 NOSIG=
201903012130 METAR LRBS 012130Z 00000KT CAVOK 07/M03 Q1006 NOSIG=
201903012200 METAR LRBS 012200Z VRB01KT CAVOK 07/M04 Q1005 NOSIG=
201903012230 METAR LRBS 012230Z 27003KT 250V310 CAVOK 07/M04 Q1006 NOSIG=
201903012300 METAR LRBS 012300Z 28004KT 260V320 CAVOK 07/M03 Q1005 NOSIG=
201903012330 METAR LRBS 012330Z AUTO 26003KT 9999 NCD 06/M03 Q1005 NOSIG=
201903020000 METAR LRBS 020000Z 30003KT CAVOK 05/M03 Q1005 NOSIG=
201903020030 METAR LRBS 020030Z VRB02KT CAVOK 04/M03 Q1005 NOSIG=
201903020100 METAR LRBS 020100Z 36003KT CAVOK 04/M03 Q1006 NOSIG=
201903020130 METAR LRBS 020130Z 02003KT 340V070 CAVOK 04/M03 Q1006 NOSIG=
201903020200 METAR LRBS 020200Z 00000KT CAVOK 03/M04 Q1006 NOSIG=
201903020230 METAR LRBS 020230Z 00000KT CAVOK 03/M04 Q1006 NOSIG=
201903020300 METAR LRBS 020300Z VRB02KT CAVOK 03/M04 Q1006 NOSIG=
201903020330 METAR LRBS 020330Z 07004KT 030V100 CAVOK 03/M03 Q1007 BECMG
                        07015KT=
201903020400 METAR COR LRBS 020400Z 07009KT 040V100 CAVOK 04/M05 Q1007
                        BECMG 07015KT=
201903020430 METAR LRBS 020430Z 05015G25KT CAVOK 04/M01 Q1008 NOSIG=
201903020500 METAR LRBS 020500Z 05010KT 010V070 9999 FEW013 03/M01 Q1008
                        TEMPO BKN015=
201903020530 METAR LRBS 020530Z 05011KT 020V090 9999 FEW013 03/M00 Q1009
                        TEMPO 5000 -RA BKN015 BKN040=
201903020600 METAR LRBS 020600Z 05012KT 020V090 9999 SCT010 03/M00 Q1010
                        TEMPO 5000 -RA BKN010 BKN040=
201903020630 METAR LRBS 020630Z 06010KT 9999 BKN010 03/M00 Q1010 TEMPO
                        5000 -RA=
201903020700 METAR LRBS 020700Z 06013KT 020V090 9999 -RA SCT010 03/M00
                        Q1011 TEMPO 5000 -RA=
201903020730 METAR LRBS 020730Z 08011KT 9999 -RA FEW011 03/M00 Q1011 TEMPO
                        5000 -RA=
201903020800 METAR LRBS 020800Z 08014KT 9999 FEW012 03/M00 Q1011 TEMPO
                        5000 -RA=
201903020830 METAR LRBS 020830Z 08012KT 040V100 9999 SCT012 04/M01 Q1012
                        TEMPO BKN010=
201903020900 METAR LRBS 020900Z 08012KT 9999 BKN014 BKN049 04/M00 Q1012
                        NOSIG=
201903020930 METAR LRBS 020930Z 09010KT 9999 BKN015 BKN047 04/M00 Q1013
                        NOSIG=
201903021000 METAR LRBS 021000Z 08010KT 040V110 9999 BKN016 OVC042 05/M00
                        Q1013 NOSIG=
201903021030 METAR LRBS 021030Z 08010KT 050V110 9999 BKN018 BKN044 05/M01
                        Q1013 NOSIG=
201903021100 METAR LRBS 021100Z 07012KT 9999 SCT024 OVC047 06/M02 Q1013
                        NOSIG=
201903021130 METAR LRBS 021130Z 08012KT 9999 SCT026 OVC047 06/M02 Q1013
                        NOSIG=
201903021200 METAR LRBS 021200Z 09010KT 060V130 9999 FEW032 BKN047 06/M03
                        Q1013 NOSIG=
201903021230 METAR LRBS 021230Z 09008KT 050V120 9999 SCT033 BKN048 07/M03
                        Q1013 NOSIG=
201903021300 METAR LRBS 021300Z 07008KT 030V130 9999 FEW033 BKN046 07/M03
                        Q1013 NOSIG=
201903021330 METAR LRBS 021330Z 08008KT 040V150 9999 FEW035 07/M04 Q1013
                        NOSIG=
201903021400 METAR LRBS 021400Z 08008KT 030V130 9999 SCT034 07/M04 Q1014
                        NOSIG=
201903021430 METAR LRBS 021430Z 10007KT 070V130 9999 SCT037 07/M03 Q1014
                        NOSIG=
201903021500 METAR LRBS 021500Z 09005KT 060V140 9999 SCT036 07/M03 Q1014
                        NOSIG=
201903021530 METAR LRBS 021530Z 11004KT 9999 SCT036 06/M04 Q1014 NOSIG=
201903021600 METAR LRBS 021600Z 12002KT 9999 FEW036 05/M04 Q1014 NOSIG=
201903021630 METAR LRBS 021630Z 07004KT CAVOK 04/M03 Q1015 NOSIG=
201903021700 METAR LRBS 021700Z 08003KT CAVOK 02/M04 Q1015 NOSIG=
201903021730 METAR LRBS 021730Z 08001KT CAVOK 03/M03 Q1015 NOSIG=
201903021800 METAR LRBS 021800Z 06003KT CAVOK 02/M03 Q1016 NOSIG=
201903021830 METAR LRBS 021830Z 07004KT CAVOK 01/M04 Q1016 NOSIG=
201903021900 METAR LRBS 021900Z 08003KT CAVOK 01/M04 Q1016 NOSIG=
201903021930 METAR LRBS 021930Z 06002KT CAVOK 01/M03 Q1017 NOSIG=
201903022000 METAR LRBS 022000Z 03003KT 9999 SCT043 01/M04 Q1017 NOSIG=
201903022030 METAR LRBS 022030Z 02003KT 9999 BKN043 01/M04 Q1017 NOSIG=
201903022100 METAR LRBS 022100Z 05003KT 9999 FEW046 M00/M04 Q1017 NOSIG=
201903022130 METAR LRBS 022130Z 07003KT CAVOK M01/M05 Q1017 NOSIG=
201903022200 METAR LRBS 022200Z 07004KT CAVOK M02/M05 Q1018 NOSIG=
201903022230 METAR LRBS 022230Z 09003KT CAVOK M01/M05 Q1018 NOSIG=
201903022300 METAR COR LRBS 022300Z 04003KT CAVOK M00/M05 Q1018 NOSIG=
201903022330 METAR LRBS 022330Z 02004KT CAVOK M00/M05 Q1018 NOSIG=
201903030000 METAR LRBS 030000Z 04003KT CAVOK M02/M06 Q1018 NOSIG=
201903030030 METAR COR LRBS 030030Z 36004KT CAVOK M00/M05 Q1018 NOSIG=
201903030100 METAR LRBS 030100Z 02003KT 320V090 9999 FEW042 M00/M05 Q1018
                        NOSIG=
201903030130 METAR LRBS 030130Z 03004KT 9999 SCT042 00/M04 Q1018 NOSIG=
201903030200 METAR LRBS 030200Z VRB02KT 9999 SCT039 00/M04 Q1018 NOSIG=
201903030230 METAR COR LRBS 030230Z 08006KT 9999 FEW043 01/M03 Q1018 NOSIG=
201903030300 METAR LRBS 030300Z 07006KT 9999 FEW047 01/M03 Q1018 NOSIG=
201903030330 METAR LRBS 030330Z 06005KT CAVOK 01/M03 Q1018 NOSIG=
201903030400 METAR LRBS 030400Z 04004KT 010V070 CAVOK 01/M03 Q1018 NOSIG=
201903030430 METAR LRBS 030430Z 02004KT 350V060 CAVOK 01/M04 Q1019 NOSIG=
201903030500 METAR LRBS 030500Z 03005KT 350V070 CAVOK 00/M05 Q1019 NOSIG=
201903030530 METAR LRBS 030530Z 03004KT 360V060 CAVOK 00/M05 Q1019 NOSIG=
201903030600 METAR LRBS 030600Z 04004KT 9999 -SN NSC 00/M05 Q1019 NOSIG=
201903030630 METAR LRBS 030630Z 05004KT 9999 -SN NSC 00/M05 Q1019 NOSIG=
201903030700 METAR LRBS 030700Z 02004KT 360V070 9999 -SN NSC 01/M05 Q1020
                        NOSIG=
201903030730 METAR LRBS 030730Z 03004KT CAVOK 01/M05 Q1020 NOSIG=
201903030800 METAR LRBS 030800Z 04004KT 010V090 CAVOK 02/M05 Q1020 NOSIG=
201903030830 METAR LRBS 030830Z 04003KT 340V090 CAVOK 04/M04 Q1020 NOSIG=
201903030900 METAR LRBS 030900Z VRB03KT CAVOK 05/M04 Q1020 NOSIG=
201903030930 METAR LRBS 030930Z 12003KT 040V180 CAVOK 06/M03 Q1020 NOSIG=
201903031000 METAR LRBS 031000Z 11006KT 070V140 CAVOK 07/M04 Q1020 NOSIG=
201903031030 METAR LRBS 031030Z 11005KT 060V190 CAVOK 07/M04 Q1020 NOSIG=
201903031100 METAR LRBS 031100Z VRB03KT 9999 FEW041 08/M04 Q1019 NOSIG=
201903031130 METAR LRBS 031130Z VRB04KT 9999 BKN041 09/M04 Q1019 NOSIG=
201903031200 METAR LRBS 031200Z VRB02KT 9999 SCT044 09/M05 Q1019 NOSIG=
201903031230 METAR LRBS 031230Z VRB04KT CAVOK 10/M06 Q1019 NOSIG=
201903031300 METAR LRBS 031300Z VRB03KT CAVOK 09/M06 Q1018 NOSIG=
201903031330 METAR LRBS 031330Z VRB03KT CAVOK 10/M07 Q1018 NOSIG=
201903031400 METAR LRBS 031400Z VRB02KT CAVOK 09/M06 Q1018 NOSIG=
201903031430 METAR COR LRBS 031430Z 25005KT 220V290 CAVOK 10/M06 Q1018
                        NOSIG=
201903031500 METAR LRBS 031500Z 23006KT 200V270 CAVOK 09/M06 Q1018 NOSIG=
201903031530 METAR LRBS 031530Z 21006KT CAVOK 09/M05 Q1018 NOSIG=
201903031600 METAR LRBS 031600Z 23006KT 190V250 CAVOK 08/M05 Q1018 NOSIG=
201903031630 METAR LRBS 031630Z 21004KT CAVOK 07/M04 Q1018 NOSIG=
201903031700 METAR LRBS 031700Z 21005KT CAVOK 07/M04 Q1018 NOSIG=
201903031730 METAR LRBS 031730Z 19004KT CAVOK 07/M04 Q1018 NOSIG=
201903031800 METAR LRBS 031800Z 18005KT CAVOK 06/M04 Q1018 NOSIG=
201903031830 METAR LRBS 031830Z 19006KT CAVOK 06/M04 Q1017 NOSIG=
201903031900 METAR LRBS 031900Z 20006KT CAVOK 06/M03 Q1017 NOSIG=
201903031930 METAR LRBS 031930Z 21007KT 9000 NSC 05/M02 Q1017 NOSIG=
201903032000 METAR LRBS 032000Z 22006KT CAVOK 05/M02 Q1017 NOSIG=
201903032030 METAR COR LRBS 032030Z 22006KT 9000 NSC 04/M03 Q1017 NOSIG=
201903032100 METAR LRBS 032100Z 22007KT 9000 NSC 04/M03 Q1017 NOSIG=
201903032130 METAR LRBS 032130Z 24006KT 9000 NSC 04/M03 Q1017 NOSIG=
201903032200 METAR LRBS 032200Z 23007KT 8000 NSC 03/M03 Q1017 NOSIG=
201903032230 METAR COR LRBS 032230Z 24007KT 8000 NSC 03/M03 Q1017 NOSIG=
201903032300 METAR LRBS 032300Z 24006KT 8000 NSC 02/M03 Q1017 NOSIG=
201903032330 METAR LRBS 032330Z 23004KT 8000 NSC 02/M03 Q1016 NOSIG=
201903040000 METAR LRBS 040000Z 28005KT 240V310 8000 NSC 01/M04 Q1016
                        NOSIG=
201903040030 METAR LRBS 040030Z 25003KT 8000 NSC 00/M04 Q1016 NOSIG=
201903040100 METAR LRBS 040100Z 24004KT 8000 NSC 00/M03 Q1016 NOSIG=
201903040130 METAR LRBS 040130Z 25003KT 7000 NSC 00/M03 Q1016 NOSIG=
201903040200 METAR LRBS 040200Z 24004KT 7000 NSC 00/M03 Q1016 NOSIG=
201903040230 METAR LRBS 040230Z 23005KT 8000 NSC 00/M03 Q1016 NOSIG=
201903040300 METAR LRBS 040300Z 22004KT 8000 NSC 00/M03 Q1015 NOSIG=
201903040330 METAR LRBS 040330Z 21005KT 8000 NSC 01/M03 Q1015 NOSIG=
201903040400 METAR COR LRBS 040400Z 22006KT 7000 NSC 01/M03 Q1015 NOSIG=
201903040430 METAR LRBS 040430Z VRB02KT 8000 NSC 01/M03 Q1015 NOSIG=
201903040500 METAR COR LRBS 040500Z 22006KT 8000 NSC 01/M03 Q1015 NOSIG=
201903040530 METAR LRBS 040530Z 23006KT 8000 NSC 02/M03 Q1015 NOSIG=
201903040600 METAR LRBS 040600Z 23006KT 8000 NSC 02/M02 Q1015 NOSIG=
201903040630 METAR LRBS 040630Z 23007KT CAVOK 03/M02 Q1015 NOSIG=
201903040700 METAR LRBS 040700Z 25007KT CAVOK 04/M02 Q1015 NOSIG=
201903040730 METAR LRBS 040730Z 26007KT 230V300 CAVOK 05/M02 Q1015 NOSIG=
201903040800 METAR LRBS 040800Z 25008KT CAVOK 07/M02 Q1015 NOSIG=
201903040830 METAR LRBS 040830Z 25009KT CAVOK 08/M01 Q1015 NOSIG=
201903040900 METAR LRBS 040900Z 24009KT 220V280 CAVOK 10/M01 Q1014 NOSIG=
201903040930 METAR LRBS 040930Z 24009KT 210V280 CAVOK 11/M01 Q1014 NOSIG=
201903041000 METAR LRBS 041000Z 24010KT 220V280 CAVOK 12/M01 Q1014 NOSIG=
201903041030 METAR LRBS 041030Z 23010KT 210V270 CAVOK 13/M00 Q1013 NOSIG=
201903041100 METAR LRBS 041100Z 25012KT 220V290 CAVOK 14/M01 Q1013 NOSIG=
201903041130 METAR LRBS 041130Z 25011KT 220V290 CAVOK 14/M02 Q1012 NOSIG=
201903041200 METAR COR LRBS 041200Z 25013KT 230V290 CAVOK 15/M02 Q1012
                        NOSIG=
201903041230 METAR LRBS 041230Z 26010KT 220V300 CAVOK 15/M02 Q1011 NOSIG=
201903041300 METAR LRBS 041300Z 25011KT 230V300 CAVOK 16/M03 Q1011 NOSIG=
201903041330 METAR LRBS 041330Z 26012KT 230V300 CAVOK 16/M02 Q1010 NOSIG=
201903041400 METAR LRBS 041400Z 25010KT 220V300 CAVOK 16/M02 Q1010 NOSIG=
201903041430 METAR LRBS 041430Z 24010KT CAVOK 15/M02 Q1009 NOSIG=
201903041500 METAR LRBS 041500Z 25011KT CAVOK 15/M02 Q1009 NOSIG=
201903041530 METAR LRBS 041530Z 25010KT CAVOK 15/M02 Q1009 NOSIG=
201903041600 METAR COR LRBS 041600Z 24006KT CAVOK 14/M01 Q1009 NOSIG=
201903041630 METAR LRBS 041630Z 23005KT CAVOK 13/M01 Q1009 NOSIG=
201903041700 METAR LRBS 041700Z 23004KT CAVOK 13/M01 Q1009 NOSIG=
201903041730 METAR LRBS 041730Z 22003KT 180V260 CAVOK 12/M01 Q1009 NOSIG=
201903041800 METAR LRBS 041800Z VRB02KT CAVOK 12/M01 Q1009 NOSIG=
201903041830 METAR LRBS 041830Z 24004KT 210V280 CAVOK 12/M02 Q1009 NOSIG=
201903041900 METAR LRBS 041900Z VRB01KT CAVOK 11/M02 Q1008 NOSIG=
201903041930 METAR COR LRBS 041930Z VRB02KT CAVOK 11/M02 Q1008 NOSIG=
201903042000 METAR LRBS 042000Z 00000KT CAVOK 11/M02 Q1008 NOSIG=
201903042030 METAR LRBS 042030Z VRB02KT CAVOK 11/M03 Q1008 NOSIG=
201903042100 METAR LRBS 042100Z 25004KT CAVOK 10/M03 Q1008 NOSIG=
201903042130 METAR LRBS 042130Z 24004KT CAVOK 10/M03 Q1007=
201903042200 METAR LRBS 042200Z 25004KT CAVOK 10/M03 Q1007 NOSIG=
201903042230 METAR LRBS 042230Z 23004KT CAVOK 09/M02 Q1007 NOSIG=
201903042300 METAR LRBS 042300Z 28003KT 240V320 CAVOK 08/M02 Q1007 NOSIG=
201903042330 METAR LRBS 042330Z 30004KT 260V350 CAVOK 07/M02 Q1007 NOSIG=
201903050000 METAR LRBS 050000Z 29004KT 260V330 CAVOK 06/M02 Q1007 NOSIG=
201903050030 METAR LRBS 050030Z 27003KT CAVOK 05/M02 Q1007 NOSIG=
201903050100 METAR LRBS 050100Z 27004KT CAVOK 05/M02 Q1007 NOSIG=
201903050130 METAR LRBS 050130Z 28003KT CAVOK 05/M02 Q1006 NOSIG=
201903050200 METAR LRBS 050200Z 28004KT 240V310 CAVOK 05/M02 Q1006 NOSIG=
201903050230 METAR LRBS 050230Z 27004KT 240V310 CAVOK 05/M02 Q1006 NOSIG=
201903050300 METAR LRBS 050300Z 27004KT CAVOK 05/M02 Q1006 NOSIG=
201903050330 METAR LRBS 050330Z 26004KT CAVOK 05/M02 Q1006 NOSIG=
201903050400 METAR LRBS 050400Z 27003KT CAVOK 05/M02 Q1006 NOSIG=
201903050430 METAR LRBS 050430Z 27005KT 240V300 CAVOK 05/M02 Q1006 NOSIG=
201903050500 METAR LRBS 050500Z 25005KT CAVOK 05/M02 Q1006 NOSIG=
201903050530 METAR LRBS 050530Z 26006KT CAVOK 05/M02 Q1006 NOSIG=
201903050600 METAR LRBS 050600Z 26009KT CAVOK 06/M02 Q1006 NOSIG=
201903050630 METAR LRBS 050630Z 25011KT CAVOK 07/M02 Q1007 NOSIG=
201903050700 METAR LRBS 050700Z 25011KT CAVOK 09/M02 Q1007 NOSIG=
201903050730 METAR LRBS 050730Z 26011KT CAVOK 11/M02 Q1007 NOSIG=
201903050800 METAR LRBS 050800Z 26014KT 230V310 CAVOK 12/M03 Q1007 NOSIG=
201903050830 METAR LRBS 050830Z 26016KT 230V310 CAVOK 14/M03 Q1007 TEMPO
                        25020G30KT=
201903050900 METAR LRBS 050900Z 26018KT 240V310 CAVOK 16/M02 Q1007 TEMPO
                        25020G30KT=
201903050930 METAR LRBS 050930Z 27019KT 220V310 CAVOK 17/M02 Q1007 TEMPO
                        25020G30KT=
201903051000 METAR LRBS 051000Z 28017G28KT 240V340 CAVOK 17/M02 Q1007
                        NOSIG=
201903051030 METAR LRBS 051030Z 28015KT 240V330 CAVOK 17/M02 Q1007 NOSIG=
201903051100 METAR LRBS 051100Z 28017KT 240V310 CAVOK 17/M02 Q1007 NOSIG=
201903051130 METAR LRBS 051130Z 27017KT 230V320 CAVOK 18/M02 Q1007 NOSIG=
201903051200 METAR LRBS 051200Z 27015KT 230V320 CAVOK 18/M02 Q1007 NOSIG=
201903051230 METAR LRBS 051230Z 25018G28KT 220V300 CAVOK 19/M02 Q1007
                        NOSIG=
201903051300 METAR LRBS 051300Z 28013KT 220V340 CAVOK 19/M03 Q1007 NOSIG=
201903051330 METAR LRBS 051330Z 27015KT 240V330 CAVOK 18/M03 Q1008 NOSIG=
201903051400 METAR LRBS 051400Z 28014KT 240V340 CAVOK 17/M04 Q1008 NOSIG=
201903051430 METAR LRBS 051430Z 27014KT 230V310 CAVOK 17/M02 Q1008 NOSIG=
201903051500 METAR LRBS 051500Z 27014KT 230V310 CAVOK 16/M03 Q1009 NOSIG=
201903051530 METAR LRBS 051530Z 27012KT 240V320 CAVOK 16/M03 Q1009 NOSIG=
201903051600 METAR LRBS 051600Z 28010KT 240V340 CAVOK 15/M02 Q1009 NOSIG=
201903051630 METAR LRBS 051630Z 27010KT 240V300 CAVOK 14/M00 Q1010 NOSIG=
201903051700 METAR LRBS 051700Z 27008KT 240V320 CAVOK 14/M00 Q1010 NOSIG=
201903051730 METAR LRBS 051730Z 28008KT 230V320 CAVOK 14/M01 Q1011 NOSIG=
201903051800 METAR LRBS 051800Z 28009KT 240V310 CAVOK 13/M03 Q1011 NOSIG=
201903051830 METAR LRBS 051830Z 29008KT 250V350 CAVOK 13/M03 Q1012 NOSIG=
201903051900 METAR LRBS 051900Z 29009KT 240V340 CAVOK 13/M04 Q1012 NOSIG=
201903051930 METAR LRBS 051930Z 30007KT 250V360 CAVOK 12/M04 Q1012 NOSIG=
201903052000 METAR LRBS 052000Z 28008KT 240V320 CAVOK 12/M03 Q1013 NOSIG=
201903052030 METAR LRBS 052030Z 27006KT 240V310 CAVOK 11/M03 Q1013 NOSIG=
201903052100 METAR LRBS 052100Z 27006KT 230V310 CAVOK 11/M03 Q1013 NOSIG=
201903052130 METAR LRBS 052130Z 27006KT 240V310 CAVOK 10/M02 Q1013 NOSIG=
201903052200 METAR LRBS 052200Z 27006KT 240V300 CAVOK 10/M01 Q1013 NOSIG=
201903052230 METAR LRBS 052230Z 27006KT CAVOK 09/M01 Q1014 NOSIG=
201903052300 METAR LRBS 052300Z 27006KT 240V300 CAVOK 09/M01 Q1014 NOSIG=
201903052330 METAR LRBS 052330Z 27006KT CAVOK 08/M01 Q1014 NOSIG=
201903060000 METAR LRBS 060000Z 27003KT 240V300 CAVOK 08/M01 Q1014 NOSIG=
201903060030 METAR LRBS 060030Z 28004KT CAVOK 08/M00 Q1014 NOSIG=
201903060100 METAR LRBS 060100Z 27004KT CAVOK 08/M00 Q1014 NOSIG=
201903060130 METAR LRBS 060130Z 26004KT CAVOK 07/M00 Q1014 NOSIG=
201903060200 METAR LRBS 060200Z 27004KT CAVOK 07/00 Q1014 NOSIG=
201903060230 METAR LRBS 060230Z 27004KT 250V320 CAVOK 07/00 Q1014 NOSIG=
201903060300 METAR LRBS 060300Z 28004KT 260V320 CAVOK 06/M00 Q1014 NOSIG=
201903060330 METAR LRBS 060330Z 27002KT CAVOK 06/M00 Q1014 NOSIG=
201903060400 METAR LRBS 060400Z 26004KT 240V300 CAVOK 06/01 Q1015 NOSIG=
201903060430 METAR LRBS 060430Z 27003KT CAVOK 06/01 Q1015 NOSIG=
201903060500 METAR LRBS 060500Z 27003KT 240V310 CAVOK 06/01 Q1015 NOSIG=
201903060530 METAR LRBS 060530Z 27005KT CAVOK 05/01 Q1015 NOSIG=
201903060600 METAR LRBS 060600Z 26003KT 240V310 CAVOK 07/01 Q1015 NOSIG=
201903060630 METAR LRBS 060630Z 26005KT CAVOK 08/M01 Q1015 NOSIG=
201903060700 METAR LRBS 060700Z 26006KT 230V300 CAVOK 10/M01 Q1015 NOSIG=
201903060730 METAR LRBS 060730Z 26007KT 230V310 CAVOK 12/M02 Q1016 NOSIG=
201903060800 METAR LRBS 060800Z 25011KT CAVOK 13/M02 Q1016 NOSIG=
201903060830 METAR LRBS 060830Z 26010KT 230V320 CAVOK 14/M03 Q1016 NOSIG=
201903060900 METAR LRBS 060900Z 26010KT 230V310 CAVOK 15/M03 Q1015 NOSIG=
201903060930 METAR LRBS 060930Z 28009KT 230V330 CAVOK 16/M03 Q1015 NOSIG=
201903061000 METAR LRBS 061000Z 27013KT 240V320 9999 FEW045CB 15/M04 Q1016
                        NOSIG=
201903061030 METAR LRBS 061030Z 28012KT 230V360 9999 FEW045CB 15/M02 Q1016
                        TEMPO 5000 -SHRA=
201903061100 METAR LRBS 061100Z 30009KT 250V020 9999 SCT045CB 15/M02 Q1016
                        TEMPO 5000 -SHRA=
201903061130 METAR LRBS 061130Z 32005KT 260V020 9999 FEW045CB 15/M02 Q1016
                        NOSIG=
201903061200 METAR LRBS 061200Z 31008KT 240V020 CAVOK 16/M03 Q1015 NOSIG=
201903061230 METAR LRBS 061230Z 31009KT 220V020 9999 FEW050TCU 16/M04
                        Q1015 NOSIG=
201903061300 METAR LRBS 061300Z 30009KT 240V360 9999 FEW050CB 16/M07 Q1016
                        NOSIG=
201903061330 METAR LRBS 061330Z 01010KT 300V060 9999 FEW050TCU 16/M05
                        Q1016 NOSIG=
201903061400 METAR LRBS 061400Z 01007KT 280V060 CAVOK 16/M05 Q1016 NOSIG=
201903061430 METAR LRBS 061430Z 03010KT 350V060 CAVOK 15/M06 Q1017 NOSIG=
201903061500 METAR LRBS 061500Z 02007KT 340V070 CAVOK 15/M09 Q1017 NOSIG=
201903061530 METAR LRBS 061530Z 02007KT 350V070 CAVOK 14/M09 Q1018 NOSIG=
201903061600 METAR LRBS 061600Z 03005KT 340V070 CAVOK 13/M10 Q1019 NOSIG=
201903061630 METAR LRBS 061630Z 01005KT 340V040 CAVOK 12/M09 Q1019 NOSIG=
201903061700 METAR LRBS 061700Z 01005KT 340V040 CAVOK 11/M09 Q1020 NOSIG=
201903061730 METAR LRBS 061730Z 02004KT 330V060 CAVOK 10/M10 Q1020 NOSIG=
201903061800 METAR LRBS 061800Z 05004KT 010V090 CAVOK 08/M08 Q1021 NOSIG=
201903061830 METAR LRBS 061830Z 06003KT 030V100 CAVOK 07/M08 Q1021 NOSIG=
201903061900 METAR LRBS 061900Z 08006KT CAVOK 05/M07 Q1021 NOSIG=
201903061930 METAR LRBS 061930Z 12005KT 090V170 CAVOK 06/M07 Q1022 NOSIG=
201903062000 METAR LRBS 062000Z 11004KT 080V150 CAVOK 06/M06 Q1022 NOSIG=
201903062030 METAR LRBS 062030Z 12003KT 090V150 CAVOK 07/M03 Q1022 NOSIG=
201903062100 METAR LRBS 062100Z 10004KT 070V150 CAVOK 07/M02 Q1023 NOSIG=
201903062130 METAR LRBS 062130Z 10004KT CAVOK 07/M02 Q1023 NOSIG=
201903062200 METAR LRBS 062200Z 11005KT 080V140 CAVOK 06/M02 Q1023 NOSIG=
201903062230 METAR LRBS 062230Z VRB02KT CAVOK 07/M02 Q1023 NOSIG=
201903062300 METAR LRBS 062300Z 12003KT 080V150 CAVOK 07/M01 Q1023 NOSIG=
201903062330 METAR LRBS 062330Z 12004KT 080V170 CAVOK 07/M02 Q1023 NOSIG=
201903070000 METAR LRBS 070000Z 08003KT CAVOK 04/M02 Q1023 NOSIG=
201903070030 METAR LRBS 070030Z 07003KT CAVOK 02/M03 Q1023 NOSIG=
201903070100 METAR LRBS 070100Z 05003KT CAVOK 00/M04 Q1023 NOSIG=
201903070130 METAR LRBS 070130Z 01003KT 340V040 CAVOK 02/M03 Q1023 NOSIG=
201903070200 METAR LRBS 070200Z 01004KT CAVOK 01/M03 Q1023 NOSIG=
201903070230 METAR LRBS 070230Z 02002KT CAVOK M00/M03 Q1023 NOSIG=
201903070300 METAR LRBS 070300Z 02003KT 350V050 CAVOK 01/M03 Q1023 NOSIG=
201903070330 METAR LRBS 070330Z 04003KT CAVOK 01/M03 Q1023 NOSIG=
201903070400 METAR LRBS 070400Z 05003KT 020V080 CAVOK 00/M04 Q1024 NOSIG=
201903070430 METAR LRBS 070430Z 05003KT CAVOK M01/M04 Q1024 NOSIG=
201903070500 METAR LRBS 070500Z 04004KT CAVOK M00/M04 Q1023 NOSIG=
201903070530 METAR LRBS 070530Z 05004KT 020V090 CAVOK 01/M02 Q1023 NOSIG=
201903070600 METAR LRBS 070600Z 04004KT CAVOK 03/M02 Q1023 NOSIG=
201903070630 METAR COR LRBS 070630Z 05004KT 020V090 CAVOK 04/M02 Q1023
                        NOSIG=
201903070700 METAR LRBS 070700Z 06007KT 020V090 CAVOK 05/M02 Q1023 NOSIG=
201903070730 METAR LRBS 070730Z 08007KT 040V110 CAVOK 07/M02 Q1023 NOSIG=
201903070800 METAR LRBS 070800Z 08006KT 040V110 CAVOK 09/M02 Q1023 NOSIG=
201903070830 METAR LRBS 070830Z 08004KT 020V130 CAVOK 10/M03 Q1023 NOSIG=
201903070900 METAR LRBS 070900Z 13004KT CAVOK 11/M03 Q1023 NOSIG=
201903070930 METAR LRBS 070930Z VRB03KT CAVOK 12/M03 Q1022 NOSIG=
201903071000 METAR LRBS 071000Z VRB03KT CAVOK 13/M03 Q1022 NOSIG=
201903071030 METAR LRBS 071030Z 15003KT 110V200 CAVOK 14/M04 Q1022 NOSIG=
201903071100 METAR LRBS 071100Z VRB02KT CAVOK 14/M04 Q1021 NOSIG=
201903071130 METAR LRBS 071130Z VRB02KT CAVOK 15/M03 Q1021 NOSIG=
201903071200 METAR LRBS 071200Z VRB02KT CAVOK 15/M03 Q1020 NOSIG=
201903071230 METAR LRBS 071230Z VRB02KT CAVOK 16/M04 Q1020 NOSIG=
201903071300 METAR LRBS 071300Z VRB01KT CAVOK 16/M03 Q1019 NOSIG=
201903071330 METAR LRBS 071330Z VRB02KT CAVOK 17/M03 Q1019 NOSIG=
201903071400 METAR LRBS 071400Z VRB02KT CAVOK 17/M03 Q1019 NOSIG=
201903071430 METAR LRBS 071430Z 24003KT 170V300 CAVOK 17/M03 Q1018 NOSIG=
201903071500 METAR LRBS 071500Z 26003KT CAVOK 17/M03 Q1019 NOSIG=
201903071530 METAR LRBS 071530Z 26003KT 220V280 CAVOK 16/M03 Q1019 NOSIG=
201903071600 METAR LRBS 071600Z 27003KT CAVOK 16/M02 Q1018 NOSIG=
201903071630 METAR LRBS 071630Z 28002KT CAVOK 15/M02 Q1018 NOSIG=
201903071700 METAR LRBS 071700Z 25002KT CAVOK 14/M02 Q1018 NOSIG=
201903071730 METAR LRBS 071730Z 03001KT CAVOK 11/M02 Q1018 NOSIG=
201903071800 METAR LRBS 071800Z 03001KT CAVOK 10/M02 Q1018 NOSIG=
201903071830 METAR LRBS 071830Z 31001KT CAVOK 10/M02 Q1018 NOSIG=
201903071900 METAR LRBS 071900Z 00000KT CAVOK 10/M02 Q1018 NOSIG=
201903071930 METAR LRBS 071930Z 26001KT 9000 NSC 09/M01 Q1018 NOSIG=
201903072000 METAR LRBS 072000Z 36001KT 9000 NSC 07/M02 Q1018 NOSIG=
201903072030 METAR LRBS 072030Z VRB02KT 9000 NSC 08/M02 Q1018 NOSIG=
201903072100 METAR LRBS 072100Z 33001KT 9000 NSC 09/M01 Q1018 NOSIG=
201903072130 METAR LRBS 072130Z VRB01KT CAVOK 07/M01 Q1018 NOSIG=
201903072200 METAR LRBS 072200Z 31002KT CAVOK 07/M02 Q1018 NOSIG=
201903072230 METAR LRBS 072230Z 00000KT 9000 NSC 06/M02 Q1018 NOSIG=
201903072300 METAR LRBS 072300Z 14001KT 9000 NSC 07/M02 Q1018 NOSIG=
201903072330 METAR LRBS 072330Z 09001KT CAVOK 05/M02 Q1018 NOSIG=
201903080000 METAR LRBS 080000Z 00000KT CAVOK 05/M02 Q1018 NOSIG=
201903080030 METAR LRBS 080030Z 00000KT CAVOK 05/M02 Q1018 NOSIG=
201903080100 METAR LRBS 080100Z 00000KT 9000 NSC 06/M02 Q1017 NOSIG=
201903080130 METAR LRBS 080130Z 29001KT 8000 NSC 05/M01 Q1017 NOSIG=
201903080200 METAR LRBS 080200Z 30002KT 8000 NSC 05/M02 Q1017 NOSIG=
201903080230 METAR LRBS 080230Z 00000KT 8000 NSC 05/M02 Q1018 NOSIG=
201903080300 METAR LRBS 080300Z 24002KT 8000 NSC 05/M01 Q1017 NOSIG=
201903080330 METAR LRBS 080330Z 23003KT 7000 NSC 05/M00 Q1017 NOSIG=
201903080400 METAR LRBS 080400Z 24002KT 7000 NSC 06/M00 Q1018 NOSIG=
201903080430 METAR LRBS 080430Z VRB02KT 7000 NSC 06/M01 Q1018 NOSIG=
201903080500 METAR LRBS 080500Z 27003KT 7000 NSC 06/M02 Q1018 NOSIG=
201903080530 METAR LRBS 080530Z 28001KT 9000 NSC 07/M02 Q1018 NOSIG=
201903080600 METAR LRBS 080600Z 25002KT 9000 NSC 08/M01 Q1018 NOSIG=
201903080630 METAR LRBS 080630Z VRB01KT CAVOK 09/M02 Q1018 NOSIG=
201903080700 METAR LRBS 080700Z 30003KT 230V350 CAVOK 11/M02 Q1018 NOSIG=
201903080730 METAR LRBS 080730Z 28005KT 250V340 CAVOK 12/M01 Q1018 NOSIG=
201903080800 METAR LRBS 080800Z 27006KT 220V310 CAVOK 13/M00 Q1018 NOSIG=
201903080830 METAR LRBS 080830Z 27005KT 230V340 CAVOK 15/01 Q1018 NOSIG=
201903080900 METAR LRBS 080900Z 27006KT 230V320 CAVOK 16/M00 Q1018 NOSIG=
201903080930 METAR LRBS 080930Z 26007KT 230V310 CAVOK 18/M01 Q1018 NOSIG=
201903081000 METAR LRBS 081000Z 25007KT 220V300 CAVOK 19/M01 Q1017 NOSIG=
201903081030 METAR LRBS 081030Z 25008KT 220V300 CAVOK 20/M01 Q1017 NOSIG=
201903081100 METAR LRBS 081100Z 26010KT CAVOK 21/M01 Q1017 NOSIG=
201903081130 METAR LRBS 081130Z 26010KT 230V300 CAVOK 22/M01 Q1016 NOSIG=
201903081200 METAR LRBS 081200Z 26009KT 220V310 CAVOK 22/M01 Q1016 NOSIG=
201903081230 METAR LRBS 081230Z 25009KT 220V310 CAVOK 23/M01 Q1016 NOSIG=
201903081300 METAR LRBS 081300Z 26010KT 230V300 CAVOK 23/M02 Q1016 NOSIG=
201903081330 METAR LRBS 081330Z 27010KT 230V310 CAVOK 23/M02 Q1016 NOSIG=
201903081400 METAR LRBS 081400Z 27010KT 230V310 CAVOK 23/M02 Q1016 NOSIG=
201903081430 METAR LRBS 081430Z 26007KT 240V300 CAVOK 23/M01 Q1015 NOSIG=
201903081500 METAR LRBS 081500Z 27005KT 250V310 CAVOK 21/M02 Q1015 NOSIG=
201903081530 METAR LRBS 081530Z 28005KT 240V310 CAVOK 21/M02 Q1015 NOSIG=
201903081600 METAR LRBS 081600Z 27004KT 240V310 CAVOK 20/M02 Q1016 NOSIG=
201903081630 METAR LRBS 081630Z 28004KT 250V310 CAVOK 19/M01 Q1016 NOSIG=
201903081700 METAR LRBS 081700Z 26003KT CAVOK 19/M01 Q1016 NOSIG=
201903081730 METAR LRBS 081730Z 26003KT 220V280 CAVOK 18/M01 Q1016 NOSIG=
201903081800 METAR LRBS 081800Z 28004KT 250V310 CAVOK 18/M01 Q1016 NOSIG=
201903081830 METAR LRBS 081830Z 28003KT 250V310 CAVOK 18/M01 Q1016 NOSIG=
201903081900 METAR LRBS 081900Z 27004KT CAVOK 17/M01 Q1016 NOSIG=
201903081930 METAR COR LRBS 081930Z 26003KT CAVOK 16/M01 Q1016 NOSIG=
201903082000 METAR LRBS 082000Z 30002KT CAVOK 15/M00 Q1017 NOSIG=
201903082030 METAR LRBS 082030Z 28002KT CAVOK 14/M00 Q1017 NOSIG=
201903082100 METAR LRBS 082100Z 28004KT 250V310 CAVOK 14/M00 Q1017 NOSIG=
201903082130 METAR LRBS 082130Z 28003KT 240V310 CAVOK 14/M00 Q1017 NOSIG=
201903082200 METAR LRBS 082200Z 29003KT 260V340 CAVOK 13/M00 Q1017 NOSIG=
201903082230 METAR LRBS 082230Z 29003KT 240V340 9000 NSC 13/M00 Q1017
                        NOSIG=
201903082300 METAR LRBS 082300Z 26004KT CAVOK 12/00 Q1017 NOSIG=
201903082330 METAR LRBS 082330Z 27003KT CAVOK 12/00 Q1017 NOSIG=
201903090000 METAR COR LRBS 090000Z 26006KT 9999 NCD 11/00 Q1017 NOSIG=
201903090030 METAR LRBS 090030Z 26006KT CAVOK 11/00 Q1017 NOSIG=
201903090100 METAR LRBS 090100Z 26006KT CAVOK 11/00 Q1017 NOSIG=
201903090130 METAR LRBS 090130Z 27004KT CAVOK 10/00 Q1017 NOSIG=
201903090200 METAR LRBS 090200Z 26005KT 240V300 CAVOK 11/00 Q1017 NOSIG=
201903090230 METAR LRBS 090230Z 28005KT 260V320 CAVOK 11/00 Q1017 NOSIG=
201903090300 METAR LRBS 090300Z VRB02KT CAVOK 10/00 Q1018 NOSIG=
201903090330 METAR LRBS 090330Z VRB02KT CAVOK 09/00 Q1018 NOSIG=
201903090400 METAR LRBS 090400Z 00000KT CAVOK 08/M00 Q1018 NOSIG=
201903090430 METAR LRBS 090430Z 00000KT CAVOK 09/M00 Q1018 NOSIG=
201903090500 METAR LRBS 090500Z 00000KT CAVOK 08/00 Q1019 NOSIG=
201903090530 METAR LRBS 090530Z VRB02KT CAVOK 09/01 Q1019 NOSIG=
201903090600 METAR LRBS 090600Z VRB01KT CAVOK 11/01 Q1019 NOSIG=
201903090630 METAR LRBS 090630Z VRB01KT CAVOK 12/01 Q1020 NOSIG=
201903090700 METAR LRBS 090700Z 13006KT CAVOK 15/01 Q1020 NOSIG=
201903090730 METAR LRBS 090730Z 13008KT 100V170 CAVOK 17/01 Q1020 NOSIG=
201903090800 METAR LRBS 090800Z 15006KT 110V200 CAVOK 16/01 Q1020 NOSIG=
201903090830 METAR LRBS 090830Z 15005KT 110V210 CAVOK 17/01 Q1020 NOSIG=
201903090900 METAR LRBS 090900Z 13008KT 100V170 CAVOK 17/01 Q1019 NOSIG=
201903090930 METAR LRBS 090930Z 16007KT 110V250 CAVOK 18/01 Q1020 NOSIG=
201903091000 METAR LRBS 091000Z 18009KT 140V220 CAVOK 19/01 Q1019 NOSIG=
201903091030 METAR LRBS 091030Z 22010KT 170V260 CAVOK 19/01 Q1019 NOSIG=
201903091100 METAR LRBS 091100Z 25012KT CAVOK 19/01 Q1019 NOSIG=
201903091130 METAR LRBS 091130Z 26012KT 230V320 CAVOK 20/01 Q1018 NOSIG=
201903091200 METAR LRBS 091200Z 27013KT 230V320 CAVOK 20/01 Q1018 NOSIG=
201903091230 METAR LRBS 091230Z 26017KT 230V300 CAVOK 20/01 Q1017 NOSIG=
201903091300 METAR LRBS 091300Z 27012KT 230V330 CAVOK 21/M00 Q1017 NOSIG=
201903091330 METAR LRBS 091330Z 28013KT 210V320 CAVOK 20/M00 Q1016 NOSIG=
201903091400 METAR LRBS 091400Z 27014KT 240V310 CAVOK 20/01 Q1016 NOSIG=
201903091430 METAR LRBS 091430Z 27016KT 240V300 CAVOK 19/02 Q1016 NOSIG=
201903091500 METAR LRBS 091500Z 27015KT 240V310 CAVOK 18/01 Q1016 NOSIG=
201903091530 METAR LRBS 091530Z 27014KT 240V300 CAVOK 18/02 Q1015 NOSIG=
201903091600 METAR LRBS 091600Z 27012KT 240V300 CAVOK 18/02 Q1015 NOSIG=
201903091630 METAR LRBS 091630Z 27011KT 240V300 CAVOK 17/01 Q1016 NOSIG=
201903091700 METAR LRBS 091700Z 26008KT CAVOK 16/02 Q1016 NOSIG=
201903091730 METAR LRBS 091730Z 26008KT CAVOK 15/03 Q1016 NOSIG=
201903091800 METAR LRBS 091800Z 27007KT 240V310 CAVOK 15/02 Q1016 NOSIG=
201903091830 METAR LRBS 091830Z 27009KT 240V310 CAVOK 15/02 Q1016 NOSIG=
201903091900 METAR LRBS 091900Z 27007KT 240V300 CAVOK 14/02 Q1016 NOSIG=
201903091930 METAR LRBS 091930Z 27007KT 240V300 CAVOK 14/01 Q1016 NOSIG=
201903092000 METAR LRBS 092000Z 27005KT 240V320 CAVOK 14/01 Q1016 NOSIG=
201903092030 METAR LRBS 092030Z 27006KT CAVOK 13/01 Q1016 NOSIG=
201903092100 METAR LRBS 092100Z 27007KT 240V300 CAVOK 12/01 Q1016 NOSIG=
201903092130 METAR LRBS 092130Z 27006KT 240V300 CAVOK 12/01 Q1015 NOSIG=
201903092200 METAR LRBS 092200Z 28006KT 240V320 CAVOK 12/01 Q1015 NOSIG=
201903092230 METAR LRBS 092230Z 27004KT 240V330 CAVOK 11/01 Q1015 NOSIG=
201903092300 METAR LRBS 092300Z 27006KT 230V310 CAVOK 11/01 Q1015 NOSIG=
201903092330 METAR LRBS 092330Z 27006KT CAVOK 11/01 Q1015 NOSIG=
201903100000 METAR LRBS 100000Z 27007KT 240V300 CAVOK 11/02 Q1015 NOSIG=
201903100030 METAR LRBS 100030Z 27006KT 240V300 CAVOK 10/02 Q1015 NOSIG=
201903100100 METAR LRBS 100100Z 27005KT 240V310 CAVOK 10/02 Q1015 NOSIG=
201903100130 METAR LRBS 100130Z 27005KT 240V300 CAVOK 09/02 Q1014 NOSIG=
201903100200 METAR LRBS 100200Z 27008KT CAVOK 09/02 Q1015 NOSIG=
201903100230 METAR LRBS 100230Z 27006KT 240V300 CAVOK 08/02 Q1014 NOSIG=
201903100300 METAR LRBS 100300Z 26007KT CAVOK 08/03 Q1014 NOSIG=
201903100330 METAR LRBS 100330Z 26007KT CAVOK 08/03 Q1014 NOSIG=
201903100400 METAR LRBS 100400Z 27007KT 240V300 CAVOK 08/03 Q1014 NOSIG=
201903100430 METAR LRBS 100430Z 26008KT CAVOK 09/03 Q1014 NOSIG=
201903100500 METAR LRBS 100500Z 26009KT CAVOK 09/04 Q1014 NOSIG=
201903100530 METAR LRBS 100530Z 25010KT CAVOK 09/04 Q1014 NOSIG=
201903100600 METAR LRBS 100600Z 26011KT CAVOK 09/04 Q1014 NOSIG=
201903100630 METAR LRBS 100630Z 26015KT 230V290 CAVOK 11/04 Q1014 TEMPO
                        26020G30KT=
201903100700 METAR LRBS 100700Z 28013KT 240V320 CAVOK 12/04 Q1015 TEMPO
                        26020G30KT=
201903100730 METAR LRBS 100730Z 27012KT 240V310 CAVOK 13/03 Q1014 TEMPO
                        26020G30KT=
201903100800 METAR LRBS 100800Z 27013G23KT 240V330 CAVOK 14/02 Q1015 TEMPO
                        27023G33KT=
201903100830 METAR COR LRBS 100830Z 28014G24KT 230V330 CAVOK 16/M00 Q1014
                        TEMPO 27024G34KT=
201903100900 METAR LRBS 100900Z 28014KT 240V320 CAVOK 17/M01 Q1014 TEMPO
                        27024G34KT=
201903100930 METAR LRBS 100930Z 27018KT 240V320 CAVOK 18/M03 Q1014 NOSIG=
201903101000 METAR LRBS 101000Z 27017KT 240V340 CAVOK 19/M04 Q1014 TEMPO
                        27020G30KT=
201903101030 METAR LRBS 101030Z 27017G28KT 230V340 CAVOK 19/M04 Q1014
                        NOSIG=
201903101100 METAR LRBS 101100Z 27016KT 240V330 CAVOK 19/M05 Q1014 TEMPO
                        27017G27KT=
201903101130 METAR LRBS 101130Z 27019KT 230V300 CAVOK 19/M04 Q1014 TEMPO
                        27020G30KT=
201903101200 METAR LRBS 101200Z 27015G25KT 230V340 CAVOK 19/M04 Q1013
                        TEMPO 27020G30KT=
201903101230 METAR LRBS 101230Z 27017G30KT 230V310 CAVOK 20/M04 Q1013
                        NOSIG=
201903101300 METAR LRBS 101300Z 26018KT 230V300 CAVOK 20/M05 Q1012 TEMPO
                        26018G28KT=
201903101330 METAR LRBS 101330Z 27013G24KT 230V310 CAVOK 20/M06 Q1012
                        NOSIG=
201903101400 METAR LRBS 101400Z 28014KT 230V340 CAVOK 21/M05 Q1012 TEMPO
                        28015G25KT=
201903101430 METAR LRBS 101430Z 27015KT 240V310 CAVOK 20/M04 Q1012 TEMPO
                        28015G25KT=
201903101500 METAR LRBS 101500Z 27013KT 240V320 CAVOK 20/M04 Q1012 NOSIG=
201903101530 METAR LRBS 101530Z 26013KT 240V300 CAVOK 19/M04 Q1011 NOSIG=
201903101600 METAR LRBS 101600Z 26011KT CAVOK 19/M04 Q1011 NOSIG=
201903101630 METAR LRBS 101630Z 25011KT CAVOK 18/M04 Q1011 NOSIG=
201903101700 METAR LRBS 101700Z 24010KT CAVOK 17/M04 Q1011 NOSIG=
201903101730 METAR LRBS 101730Z 24008KT CAVOK 16/M04 Q1011 NOSIG=
201903101800 METAR LRBS 101800Z 25008KT CAVOK 16/M04 Q1011 NOSIG=
201903101830 METAR LRBS 101830Z 25007KT CAVOK 15/M04 Q1010 NOSIG=
201903101900 METAR LRBS 101900Z 23005KT CAVOK 15/M04 Q1009 NOSIG=
201903101930 METAR LRBS 101930Z 23004KT 190V270 CAVOK 14/M04 Q1009 NOSIG=
201903102000 METAR LRBS 102000Z 23003KT CAVOK 14/M04 Q1009 NOSIG=
201903102030 METAR LRBS 102030Z 24004KT 210V280 CAVOK 14/M04 Q1009 NOSIG=
201903102100 METAR LRBS 102100Z 23005KT CAVOK 14/M04 Q1008 BECMG 26018KT=
201903102130 METAR LRBS 102130Z 24003KT CAVOK 14/M04 Q1008 BECMG 26018KT=
201903102200 METAR LRBS 102200Z 32003KT 290V350 CAVOK 13/M04 Q1008 BECMG
                        26018KT=
201903102230 METAR LRBS 102230Z 31004KT 260V010 CAVOK 12/M04 Q1008 BECMG
                        26018KT=
201903102300 METAR LRBS 102300Z 29003KT 240V340 CAVOK 11/M04 Q1008 BECMG
                        26018KT=
201903102330 METAR COR LRBS 102330Z 28004KT CAVOK 11/M03 Q1008 BECMG 26018KT=
201903110000 METAR LRBS 110000Z 27003KT CAVOK 12/M03 Q1008 BECMG 26018KT=
201903110030 METAR LRBS 110030Z 28003KT 230V320 CAVOK 12/M02 Q1008 BECMG
                        26018KT=
201903110100 METAR COR LRBS 110100Z 26008KT CAVOK 14/M01 Q1007 NOSIG=
201903110130 METAR COR LRBS 110130Z 28009KT 240V320 CAVOK 14/01 Q1007
                        NOSIG=
201903110200 METAR LRBS 110200Z 28009KT 240V330 CAVOK 13/01 Q1007 NOSIG=
201903110230 METAR COR LRBS 110230Z 28009KT 240V320 CAVOK 13/02 Q1008
                        NOSIG=
201903110300 METAR LRBS 110300Z 28008KT 240V310 CAVOK 13/02 Q1008 NOSIG=
201903110330 METAR LRBS 110330Z 27008KT 240V310 CAVOK 13/02 Q1008 NOSIG=
201903110400 METAR LRBS 110400Z 27007KT 230V310 CAVOK 12/02 Q1008 NOSIG=
201903110430 METAR LRBS 110430Z 28005KT 230V320 CAVOK 11/01 Q1008 NOSIG=
201903110500 METAR LRBS 110500Z 28005KT 240V310 CAVOK 11/01 Q1009 NOSIG=
201903110530 METAR LRBS 110530Z 28007KT 240V320 CAVOK 11/01 Q1009 NOSIG=
201903110600 METAR LRBS 110600Z 27008KT 240V310 CAVOK 12/02 Q1009 NOSIG=
201903110630 METAR LRBS 110630Z 28008KT 250V340 CAVOK 14/02 Q1009 NOSIG=
201903110700 METAR LRBS 110700Z 27010KT 240V300 CAVOK 15/02 Q1009 NOSIG=
201903110730 METAR LRBS 110730Z 28008KT 240V330 CAVOK 15/01 Q1009 NOSIG=
201903110800 METAR LRBS 110800Z 28008KT 240V330 CAVOK 15/01 Q1009 NOSIG=
201903110830 METAR LRBS 110830Z 28010KT 240V310 CAVOK 17/M01 Q1009 NOSIG=
201903110900 METAR LRBS 110900Z 29009KT 250V350 CAVOK 18/M03 Q1009 NOSIG=
201903110930 METAR LRBS 110930Z 28009KT 220V350 CAVOK 20/M05 Q1009 NOSIG=
201903111000 METAR LRBS 111000Z 32007KT 230V040 CAVOK 20/M07 Q1008 NOSIG=
201903111030 METAR LRBS 111030Z 29009KT 240V360 CAVOK 19/M07 Q1008 NOSIG=
201903111100 METAR LRBS 111100Z 29008KT 250V340 CAVOK 19/M06 Q1008 NOSIG=
201903111130 METAR LRBS 111130Z 29009KT 250V350 CAVOK 19/M06 Q1008 NOSIG=
201903111200 METAR LRBS 111200Z 27011KT 240V310 CAVOK 19/M06 Q1008 NOSIG=
201903111230 METAR LRBS 111230Z 30011KT 250V010 CAVOK 19/M09 Q1008 NOSIG=
201903111300 METAR LRBS 111300Z 31010KT 270V010 CAVOK 18/M07 Q1008 NOSIG=
201903111330 METAR LRBS 111330Z 33008KT 270V040 CAVOK 18/M07 Q1008 NOSIG=
201903111400 METAR LRBS 111400Z 31008KT 240V020 CAVOK 18/M06 Q1008 NOSIG=
201903111430 METAR LRBS 111430Z 29008KT 240V360 CAVOK 18/M05 Q1008 NOSIG=
201903111500 METAR LRBS 111500Z 31007KT 260V010 CAVOK 16/M05 Q1008 NOSIG=
201903111530 METAR LRBS 111530Z 30006KT 250V360 CAVOK 16/M05 Q1008 NOSIG=
201903111600 METAR LRBS 111600Z 32005KT 260V020 CAVOK 15/M05 Q1008 NOSIG=
201903111630 METAR LRBS 111630Z VRB02KT CAVOK 15/M05 Q1008 BECMG 03010KT=
201903111700 METAR LRBS 111700Z VRB02KT CAVOK 14/M05 Q1008 BECMG 03010KT=
201903111730 METAR LRBS 111730Z VRB01KT CAVOK 14/M05 Q1008 BECMG 03010KT=
201903111800 METAR LRBS 111800Z VRB01KT CAVOK 14/M05 Q1008 BECMG 03010KT=
201903111830 METAR LRBS 111830Z 29003KT 9999 -RA NSC 13/M05 Q1008 BECMG
                        03010KT 5000 -RA BR=
201903111900 METAR COR LRBS 111900Z 32003KT 260V010 CAVOK 13/M05 Q1008
                        BECMG 03010KT 5000 -RA BR=
201903111930 METAR LRBS 111930Z 31003KT 230V040 9999 -RA NSC 13/M03 Q1009
                        BECMG 03010KT 5000 -RA BR=
201903112000 METAR LRBS 112000Z 35005KT 310V040 9000 -RA SCT043 11/03
                        Q1010 R07/29//95 BECMG 5000 -RA BR=
201903112030 METAR LRBS 112030Z 01005KT 340V050 8000 -RA BKN040 09/04
                        Q1010 R07/29//95 TEMPO 5000 RA BKN015
                        OVC035=
201903112100 METAR LRBS 112100Z 02010KT 320V070 3500 RA BR FEW023 OVC030
                        08/05 Q1011 R07/29//95 TEMPO BKN015
                        OVC030=
201903112130 METAR LRBS 112130Z 06010G20KT 010V100 4000 RA OVC022 07/05
                        Q1011 R07/29//95 TEMPO BKN015 OVC030=
201903112200 METAR LRBS 112200Z 06013KT 350V100 3500 +RA SCT012 OVC022
                        06/04 Q1011 R07/29//95 TEMPO BKN015
                        OVC030=
201903112230 METAR LRBS 112230Z 05013KT 010V100 6000 SHRA BKN012 BKN025
                        SCT030CB 06/03 Q1012 R07/29//95 NOSIG=
201903112300 METAR LRBS 112300Z 04009KT 350V090 6000 SHRA BKN012 BKN022
                        SCT030CB 04/03 Q1012 R07/29//95 NOSIG=
201903112330 METAR LRBS 112330Z 06008KT 010V100 6000 SHRA BKN013 BKN025
                        SCT030CB 05/03 Q1012 R07/29//95 NOSIG=
201903120000 METAR LRBS 120000Z 07011KT 040V110 6000 SHRA BKN012 BKN023
                        SCT030CB 05/03 Q1012 R07/29//95 NOSIG=
201903120030 METAR LRBS 120030Z 09013KT 8000 -SHRA BKN012 BKN020 SCT030CB
                        05/03 Q1012 RESHRA R07/29//95 NOSIG=
201903120100 METAR LRBS 120100Z 06014KT 020V080 7000 SHRA BKN012 BKN019
                        SCT030CB 04/03 Q1012 R07/29//95 NOSIG=
201903120130 METAR LRBS 120130Z 06015KT 020V090 8000 -SHRA BKN011 FEW028CB
                        04/02 Q1012 RESHRA R07/29//95 NOSIG=
201903120200 METAR LRBS 120200Z 05011KT 020V090 6000 -RA BKN010 OVC027
                        04/02 Q1012 R07/29//95 NOSIG=
201903120230 METAR LRBS 120230Z 06012KT 030V090 9000 -RA BKN009 BKN016
                        OVC027 03/02 Q1012 RERA R07/29//95
                        NOSIG=
201903120300 METAR LRBS 120300Z 05010KT 9999 -RA BKN009 BKN015 03/02 Q1012
                        R07/29//95 NOSIG=
201903120330 METAR LRBS 120330Z 06009KT 020V090 9999 -RA SCT009 BKN017
                        OVC030 03/02 Q1012 R07/29//95 NOSIG=
201903120400 METAR LRBS 120400Z 04006KT 9999 -RA SCT009 OVC019 04/02 Q1013
                        R07/29//95 NOSIG=
201903120430 METAR COR LRBS 120430Z 03006KT 360V060 9999 -RA BKN008 OVC015
                        03/02 Q1013 R07/29//95 NOSIG=
201903120500 METAR LRBS 120500Z 03006KT 360V060 8000 -RA SCT008 OVC015
                        03/02 Q1014 R07/29//95 NOSIG=
201903120530 METAR LRBS 120530Z 03006KT 360V090 9999 -RA SCT008 OVC013
                        03/02 Q1014 R07/29//95 NOSIG=
201903120600 METAR LRBS 120600Z 05008KT 020V090 9999 -RA BKN007 OVC014
                        03/02 Q1014 R07/29//95 NOSIG=
201903120630 METAR LRBS 120630Z 03008KT 350V060 9999 -RA BKN007 OVC014
                        03/02 Q1015 R07/29//95 NOSIG=
201903120700 METAR LRBS 120700Z 01006KT 340V060 9999 -RA BKN007 OVC014
                        02/02 Q1016 R07/29//95 NOSIG=
201903120730 METAR LRBS 120730Z 36007KT 310V040 9000 -RASN SCT005 OVC010
                        02/01 Q1016 R07/29//95 NOSIG=
201903120800 METAR COR LRBS 120800Z 01006KT 330V050 9999 -RA SCT005 OVC017
                        02/01 Q1016 R07/29//95 NOSIG=
201903120830 METAR LRBS 120830Z 01006KT 330V050 9999 -RA SCT005 OVC017
                        02/01 Q1016 R07/29//95 NOSIG=
201903120900 METAR LRBS 120900Z 02005KT 340V060 9999 -RA BKN005 BKN030
                        02/01 Q1016 R07/29//95 NOSIG=
201903120930 METAR COR LRBS 120930Z 03006KT 350V080 9999 SCT006 BKN030
                        03/03 Q1017 R07/29//95 NOSIG=
201903121000 METAR LRBS 121000Z 05006KT 360V080 9999 BKN007 04/03 Q1017
                        R07/29//95 NOSIG=
201903121030 METAR LRBS 121030Z 04007KT 360V090 9999 BKN008 05/03 Q1017
                        R07/29//95 BECMG SCT015=
201903121100 METAR COR LRBS 121100Z 04006KT 360V090 9999 SCT011 06/03
                        Q1017 R07/29//95 NOSIG=
201903121130 METAR COR LRBS 121130Z 07007KT 020V090 9999 SCT013 06/02
                        Q1017 R07/29//95 NOSIG=
201903121200 METAR LRBS 121200Z 05005KT 010V100 9999 SCT017 SCT022 07/02
                        Q1017 R07/29//95 NOSIG=
201903121230 METAR LRBS 121230Z 05004KT 350V140 9999 SCT020 07/02 Q1017
                        R07/29//95 NOSIG=
201903121300 METAR LRBS 121300Z VRB02KT 9999 BKN023 08/01 Q1017 R07/19//95
                        NOSIG=
201903121330 METAR LRBS 121330Z 09003KT 060V130 9999 BKN027 07/M00 Q1017
                        R07/19//95 NOSIG=
201903121400 METAR LRBS 121400Z VRB02KT 9999 FEW027 BKN033 07/M00 Q1017
                        R07/19//95 NOSIG=
201903121430 METAR LRBS 121430Z VRB02KT 9999 SCT029 BKN049 08/00 Q1016
                        R07/19//95 NOSIG=
201903121500 METAR LRBS 121500Z 30003KT 270V350 9999 FEW029 08/M01 Q1016
                        R07/19//95 NOSIG=
201903121530 METAR LRBS 121530Z 28003KT 240V310 9999 FEW027 07/00 Q1016
                        R07/19//95 NOSIG=
201903121600 METAR COR LRBS 121600Z VRB02KT 9999 FEW028 07/01 Q1017 R07/19//95
                        NOSIG=
201903121630 METAR LRBS 121630Z 24002KT 9999 SCT034 07/01 Q1017 R07/19//95
                        NOSIG=
201903121700 METAR LRBS 121700Z VRB02KT 9999 FEW030 06/01 Q1017 R07/19//95
                        NOSIG=
201903121730 METAR COR LRBS 121730Z 30001KT CAVOK 06/01 Q1018 R07/19//95
                        NOSIG=
201903121800 METAR LRBS 121800Z 00000KT 9999 FEW028 06/02 Q1018 R07/19//95
                        NOSIG=
201903121830 METAR LRBS 121830Z 00000KT 9999 FEW028 06/02 Q1018 R07/19//95
                        NOSIG=
201903121900 METAR LRBS 121900Z VRB02KT CAVOK 05/02 Q1019 R07/19//95 NOSIG=
201903121930 METAR LRBS 121930Z 00000KT CAVOK 05/02 Q1019 R07/19//95 NOSIG=
201903122000 METAR LRBS 122000Z 30003KT 270V330 CAVOK 04/02 Q1019 R07/19//95
                        NOSIG=
201903122030 METAR COR LRBS 122030Z 29003KT CAVOK 04/01 Q1019 R07/19//95
                        NOSIG=
201903122100 METAR LRBS 122100Z 28003KT 260V320 CAVOK 04/01 Q1019 R07/19//95
                        NOSIG=
201903122130 METAR LRBS 122130Z 13001KT CAVOK 04/01 Q1019 R07/19//95 BECMG
                        05010KT=
201903122200 METAR LRBS 122200Z VRB02KT CAVOK 02/M00 Q1019 R07/19//95
                        NOSIG=
201903122230 METAR LRBS 122230Z 00000KT CAVOK 03/01 Q1019 R07/19//95 NOSIG=
201903122300 METAR LRBS 122300Z 05003KT CAVOK 03/01 Q1019 R07/19//95 NOSIG=
201903122330 METAR LRBS 122330Z 06003KT 020V080 8000 NSC 01/M00 Q1020
                        R07/19//95 NOSIG=
201903130000 METAR LRBS 130000Z VRB01KT 8000 NSC 01/00 Q1019 R07/19//95
                        NOSIG=
201903130030 METAR LRBS 130030Z 01003KT CAVOK 02/00 Q1019 R07/19//95 NOSIG=
201903130100 METAR COR LRBS 130100Z 01003KT CAVOK 02/00 Q1019 R07/19//95
                        NOSIG=
201903130130 METAR LRBS 130130Z 02004KT 350V050 6000 MIFG NSC 01/M00 Q1019
                        R07/19//95 NOSIG=
201903130200 METAR COR LRBS 130200Z 02004KT 350V050 5000 MIFG BR NSC 01/M00
                        Q1019 R07/19//95 TEMPO 1500 BR=
201903130230 METAR LRBS 130230Z VRB01KT 1100 R07/0400V0700D R25/1600VP2000D
                        BR NSC 00/M00 Q1019 R07/19//95 TEMPO
                        0800 FG=
201903130300 METAR LRBS 130300Z VRB01KT 5000 MIFG BR NSC 00/M00 Q1020
                        R07/19//95 TEMPO 0800 FG=
201903130330 METAR LRBS 130330Z VRB01KT 1500 MIFG BR NSC M00/M01 Q1020
                        R07/19//95 TEMPO 0800 FZFG=
201903130400 METAR LRBS 130400Z 00000KT 3000 MIFG BR NSC 00/M00 Q1020
                        R07/19//95 TEMPO 0800 FZFG=
201903130430 METAR LRBS 130430Z 00000KT 5000 MIFG BR NSC 00/M00 Q1020
                        R07/19//95 TEMPO 0600 FZFG=
201903130500 METAR LRBS 130500Z 06002KT 9999 MIFG NSC 01/00 Q1020 R07/19//95
                        NOSIG=
201903130530 METAR LRBS 130530Z 09002KT CAVOK 02/01 Q1020 R07/19//95 NOSIG=
201903130600 METAR LRBS 130600Z 07003KT CAVOK 02/00 Q1020 R07/19//95 NOSIG=
201903130630 METAR LRBS 130630Z 07006KT CAVOK 04/M00 Q1021 R07/19//95
                        NOSIG=
201903130700 METAR LRBS 130700Z 08008KT 050V110 CAVOK 05/M01 Q1021 R07/CLRD//
                        NOSIG=
201903130730 METAR LRBS 130730Z 07009KT CAVOK 05/M02 Q1021 NOSIG=
201903130800 METAR LRBS 130800Z 08007KT 030V130 CAVOK 06/M02 Q1021 NOSIG=
201903130830 METAR LRBS 130830Z 09007KT 020V140 9999 FEW034 07/M02 Q1021
                        NOSIG=
201903130900 METAR LRBS 130900Z 10006KT 060V130 9999 FEW034 07/M02 Q1020
                        NOSIG=
201903130930 METAR LRBS 130930Z 12004KT 080V200 9999 SCT036 07/M04 Q1020
                        NOSIG=
201903131000 METAR COR LRBS 131000Z 15006KT 100V220 9999 SCT038 08/M05
                        Q1020 NOSIG=
201903131030 METAR LRBS 131030Z VRB02KT 9999 BKN042 09/M03 Q1019 NOSIG=
201903131100 METAR LRBS 131100Z 21004KT 140V270 9999 BKN045 09/M04 Q1019
                        NOSIG=
201903131130 METAR LRBS 131130Z 26004KT 180V340 9999 BKN046 09/M04 Q1019
                        NOSIG=
201903131200 METAR LRBS 131200Z 25004KT 210V300 9999 BKN046 08/M05 Q1019
                        NOSIG=
201903131230 METAR LRBS 131230Z 25003KT 190V310 9999 BKN049 09/M04 Q1018
                        NOSIG=
201903131300 METAR LRBS 131300Z 26004KT 210V320 CAVOK 10/M05 Q1018 NOSIG=
201903131330 METAR LRBS 131330Z VRB04KT CAVOK 09/M05 Q1018 NOSIG=
201903131400 METAR LRBS 131400Z 26003KT 220V320 CAVOK 09/M06 Q1018 NOSIG=
201903131430 METAR LRBS 131430Z VRB01KT CAVOK 09/M05 Q1018 NOSIG=
201903131500 METAR LRBS 131500Z VRB02KT CAVOK 09/M05 Q1017 NOSIG=
201903131530 METAR LRBS 131530Z 29004KT 260V340 CAVOK 10/M06 Q1017 NOSIG=
201903131600 METAR LRBS 131600Z VRB01KT CAVOK 08/M05 Q1017 NOSIG=
201903131630 METAR COR LRBS 131630Z VRB01KT CAVOK 07/M03 Q1017 NOSIG=
201903131700 METAR LRBS 131700Z 33002KT CAVOK 07/M04 Q1017 NOSIG=
201903131730 METAR LRBS 131730Z 00000KT CAVOK 06/M03 Q1017 NOSIG=
201903131800 METAR LRBS 131800Z 11001KT CAVOK 05/M03 Q1017 NOSIG=
201903131830 METAR LRBS 131830Z 00000KT CAVOK 04/M03 Q1017 NOSIG=
201903131900 METAR LRBS 131900Z 00000KT CAVOK 04/M03 Q1017 NOSIG=
201903131930 METAR LRBS 131930Z 00000KT CAVOK 04/M02 Q1017 NOSIG=
201903132000 METAR LRBS 132000Z VRB01KT CAVOK 02/M03 Q1017 NOSIG=
201903132030 METAR LRBS 132030Z 10002KT CAVOK 01/M02 Q1017 NOSIG=
201903132100 METAR LRBS 132100Z 06002KT CAVOK 03/M02 Q1016 NOSIG=
201903132130 METAR LRBS 132130Z 07002KT CAVOK 01/M02 Q1016 NOSIG=
201903132200 METAR LRBS 132200Z 10004KT CAVOK 00/M03 Q1016 NOSIG=
201903132230 METAR LRBS 132230Z 10003KT CAVOK 02/M02 Q1016 NOSIG=
201903132300 METAR LRBS 132300Z 13003KT 090V170 CAVOK 05/M02 Q1016 NOSIG=
201903132330 METAR LRBS 132330Z 07003KT CAVOK 03/M02 Q1015 NOSIG=
201903140000 METAR LRBS 140000Z 05003KT CAVOK 03/M02 Q1015 NOSIG=
201903140030 METAR LRBS 140030Z 04003KT CAVOK 02/M02 Q1015 NOSIG=
201903140100 METAR LRBS 140100Z 04002KT CAVOK 01/M02 Q1015 NOSIG=
201903140130 METAR LRBS 140130Z 03001KT CAVOK 01/M02 Q1015 NOSIG=
201903140200 METAR LRBS 140200Z VRB01KT CAVOK 01/M02 Q1015 NOSIG=
201903140230 METAR LRBS 140230Z 00000KT CAVOK 02/M02 Q1015 NOSIG=
201903140300 METAR LRBS 140300Z 06003KT CAVOK 01/M02 Q1014 NOSIG=
201903140330 METAR LRBS 140330Z 08003KT CAVOK 01/M02 Q1014 NOSIG=
201903140400 METAR COR LRBS 140400Z 07003KT CAVOK 01/M01 Q1014 NOSIG=
201903140430 METAR LRBS 140430Z 06003KT CAVOK 00/M02 Q1014 NOSIG=
201903140500 METAR LRBS 140500Z 07004KT CAVOK M00/M02 Q1014 NOSIG=
201903140530 METAR LRBS 140530Z 06004KT 8000 NSC 00/M01 Q1014 NOSIG=
201903140600 METAR LRBS 140600Z VRB02KT 8000 NSC 03/01 Q1014 NOSIG=
201903140630 METAR LRBS 140630Z 07004KT CAVOK 03/01 Q1014 NOSIG=
201903140700 METAR LRBS 140700Z 07004KT 050V110 CAVOK 05/00 Q1014 NOSIG=
201903140730 METAR LRBS 140730Z 10007KT 070V130 CAVOK 06/M00 Q1013 NOSIG=
201903140800 METAR LRBS 140800Z 10004KT 050V190 CAVOK 07/M00 Q1013 NOSIG=
201903140830 METAR LRBS 140830Z 10004KT 020V190 CAVOK 08/M01 Q1013 NOSIG=
201903140900 METAR LRBS 140900Z 09003KT 010V170 CAVOK 08/M01 Q1013 NOSIG=
201903140930 METAR LRBS 140930Z VRB02KT CAVOK 09/M01 Q1012 NOSIG=
201903141000 METAR LRBS 141000Z VRB03KT 9999 FEW036 09/M02 Q1012 NOSIG=
201903141030 METAR LRBS 141030Z VRB05KT 9999 FEW035 10/M01 Q1012 NOSIG=
201903141100 METAR LRBS 141100Z VRB04KT 9999 SCT042 11/M02 Q1012 NOSIG=
201903141130 METAR LRBS 141130Z 05004KT 320V100 9999 BKN048 10/M04 Q1011
                        NOSIG=
201903141200 METAR LRBS 141200Z VRB02KT 9999 BKN049 10/M05 Q1011 NOSIG=
201903141230 METAR LRBS 141230Z 11003KT 050V180 9999 FEW048 11/M04 Q1011
                        NOSIG=
201903141300 METAR LRBS 141300Z VRB02KT CAVOK 10/M04 Q1011 NOSIG=
201903141330 METAR LRBS 141330Z VRB03KT CAVOK 11/M03 Q1010 NOSIG=
201903141400 METAR LRBS 141400Z VRB02KT CAVOK 10/M03 Q1010 NOSIG=
201903141430 METAR LRBS 141430Z 07003KT 020V110 CAVOK 10/M03 Q1010 NOSIG=
201903141500 METAR LRBS 141500Z VRB02KT CAVOK 10/M03 Q1010 NOSIG=
201903141530 METAR LRBS 141530Z 00000KT CAVOK 10/M03 Q1010 NOSIG=
201903141600 METAR LRBS 141600Z VRB01KT CAVOK 09/M03 Q1010 NOSIG=
201903141630 METAR LRBS 141630Z VRB02KT CAVOK 08/M02 Q1010 NOSIG=
201903141700 METAR LRBS 141700Z 08002KT CAVOK 08/M02 Q1010 NOSIG=
201903141730 METAR LRBS 141730Z VRB01KT CAVOK 08/M02 Q1010 NOSIG=
201903141800 METAR LRBS 141800Z 06002KT CAVOK 08/M02 Q1010 NOSIG=
201903141830 METAR LRBS 141830Z VRB01KT 9999 SCT047 08/M02 Q1010 NOSIG=
201903141900 METAR LRBS 141900Z 22005KT 180V260 CAVOK 09/M01 Q1010 NOSIG=
201903141930 METAR COR LRBS 141930Z 24006KT 9999 -RA OVC043 08/M01 Q1010
                        NOSIG=
201903142000 METAR LRBS 142000Z 26005KT 9999 -RA BKN034 08/01 Q1010 TEMPO
                        5000 SHRA SCT025CB BKN030=
201903142030 METAR LRBS 142030Z 25003KT 9999 -RA FEW037 07/02 Q1010 TEMPO
                        5000 SHRA SCT025CB BKN030=
201903142100 METAR LRBS 142100Z 23004KT 9999 -RA BKN030 07/03 Q1010 NOSIG=
201903142130 METAR LRBS 142130Z 22004KT 9999 -RA BKN033 07/04 Q1009 NOSIG=
201903142200 METAR LRBS 142200Z 23003KT 9999 -RA FEW028 06/04 Q1010 NOSIG=
201903142230 METAR LRBS 142230Z 23003KT 9999 -RA FEW033 06/04 Q1009 NOSIG=
201903142300 METAR LRBS 142300Z 24002KT CAVOK 06/04 Q1009 NOSIG=
201903142330 METAR LRBS 142330Z 26003KT 8000 NSC 06/04 Q1009 NOSIG=
201903150000 METAR LRBS 150000Z 26003KT 6000 FEW028 06/04 Q1009 NOSIG=
201903150030 METAR LRBS 150030Z 26003KT 7000 -RA NSC 05/04 Q1009 NOSIG=
201903150100 METAR LRBS 150100Z 26003KT 9000 NSC 05/03 Q1009 NOSIG=
201903150130 METAR COR LRBS 150130Z 23003KT CAVOK 05/03 Q1008 NOSIG=
201903150200 METAR LRBS 150200Z 28002KT CAVOK 05/03 Q1008 NOSIG=
201903150230 METAR COR LRBS 150230Z 24003KT CAVOK 05/03 Q1008 NOSIG=
201903150300 METAR LRBS 150300Z 26003KT 8000 NSC 05/03 Q1008 TEMPO 5000
                        BR=
201903150330 METAR LRBS 150330Z 26003KT 5000 BR NSC 04/03 Q1008 TEMPO
                        3000 BR=
201903150400 METAR LRBS 150400Z 25003KT 4000 BR NSC 04/03 Q1008 TEMPO
                        3000 BR=
201903150430 METAR LRBS 150430Z 25003KT 2500 MIFG BR NSC 04/03 Q1008 TEMPO
                        1500 BR=
201903150500 METAR LRBS 150500Z 24004KT 1500 MIFG BR NSC 04/03 Q1008 BECMG
                        3000=
201903150530 METAR LRBS 150530Z 24005KT 2000 BR FEW004 04/04 Q1009 TEMPO
                        0800 FG=
201903150600 METAR LRBS 150600Z 24006KT 2000 BR BKN003 04/04 Q1009 TEMPO
                        0800 FG BKN002=
201903150630 METAR LRBS 150630Z 26008KT 240V300 2000 BR BKN003 05/04 Q1009
                        BECMG 3000 BKN005=
201903150700 METAR LRBS 150700Z 27006KT 230V320 1500 BR BKN002 04/03 Q1009
                        TEMPO 1500 BR BKN002=
201903150730 METAR COR LRBS 150730Z 27005KT 220V320 2000 FEW002 06/04
                        Q1009 BECMG 5000=
201903150800 METAR LRBS 150800Z 27005KT 220V320 5000 BR FEW004 07/04 Q1009
                        BECMG 9999 NSW=
201903150830 METAR LRBS 150830Z 26006KT 230V300 8000 NSC 08/03 Q1009 NOSIG=
201903150900 METAR LRBS 150900Z 29007KT 240V350 CAVOK 09/03 Q1009 NOSIG=
201903150930 METAR COR LRBS 150930Z 28008KT 240V320 CAVOK 10/02 Q1009
                        NOSIG=
201903151000 METAR LRBS 151000Z 27008KT 220V320 CAVOK 11/01 Q1009 NOSIG=
201903151030 METAR LRBS 151030Z 25009KT 230V320 9999 FEW037 12/M01 Q1008
                        NOSIG=
201903151100 METAR LRBS 151100Z 27009G28KT 220V320 9999 SCT044 12/M01
                        Q1008 NOSIG=
201903151130 METAR LRBS 151130Z 27008KT 230V030 9999 SCT044 12/M02 Q1008
                        NOSIG=
201903151200 METAR LRBS 151200Z 27008KT 230V350 9999 FEW048 12/M03 Q1008
                        NOSIG=
201903151230 METAR LRBS 151230Z AUTO 27009KT 240V310 9999 NCD 11/M04 Q1008
                        NOSIG=
201903151300 METAR COR LRBS 151300Z 27008KT 220V340 CAVOK 13/M04 Q1007
                        NOSIG=
201903151330 METAR COR LRBS 151330Z 27008KT 230V310 CAVOK 13/M04 Q1007
                        NOSIG=
201903151400 METAR LRBS 151400Z 27009KT 240V330 CAVOK 13/M04 Q1007 NOSIG=
201903151430 METAR COR LRBS 151430Z 27009KT 230V320 CAVOK 13/M04 Q1007
                        NOSIG=
201903151500 METAR LRBS 151500Z 26009KT 240V300 CAVOK 13/M04 Q1007 NOSIG=
201903151530 METAR LRBS 151530Z 27009KT 240V330 CAVOK 12/M03 Q1008 NOSIG=
201903151600 METAR LRBS 151600Z 26009KT 230V290 CAVOK 12/M04 Q1008 NOSIG=
201903151630 METAR LRBS 151630Z 26006KT CAVOK 11/M03 Q1008 NOSIG=
201903151700 METAR LRBS 151700Z 27005KT CAVOK 10/M03 Q1009 NOSIG=
201903151730 METAR LRBS 151730Z 25005KT CAVOK 10/M02 Q1009 NOSIG=
201903151800 METAR LRBS 151800Z 25005KT 220V280 CAVOK 10/M02 Q1009 NOSIG=
201903151830 METAR LRBS 151830Z 25005KT CAVOK 10/M02 Q1009 NOSIG=
201903151900 METAR LRBS 151900Z 25007KT CAVOK 10/M02 Q1009 NOSIG=
201903151930 METAR LRBS 151930Z 26006KT CAVOK 09/M01 Q1009 NOSIG=
201903152000 METAR LRBS 152000Z 26009KT CAVOK 09/M02 Q1009 NOSIG=
201903152030 METAR LRBS 152030Z 26008KT CAVOK 09/M02 Q1009 NOSIG=
201903152100 METAR LRBS 152100Z 26008KT CAVOK 09/M02 Q1009 NOSIG=
201903152130 METAR LRBS 152130Z 26006KT 230V290 CAVOK 08/M02 Q1009 NOSIG=
201903152200 METAR LRBS 152200Z 27005KT 250V310 CAVOK 07/M01 Q1009 NOSIG=
201903152230 METAR LRBS 152230Z AUTO 27005KT 240V300 9999 NCD 06/M01 Q1009
                        NOSIG=
201903152300 METAR COR LRBS 152300Z 26004KT CAVOK 05/M01 Q1009 NOSIG=
201903152330 METAR LRBS 152330Z 27005KT CAVOK 05/M01 Q1009 NOSIG=
201903160000 METAR COR LRBS 160000Z 29003KT 260V320 CAVOK 04/M01 Q1009
                        NOSIG=
201903160030 METAR LRBS 160030Z 29003KT CAVOK 04/M01 Q1009 NOSIG=
201903160100 METAR LRBS 160100Z 29003KT 260V320 CAVOK 03/M01 Q1009 NOSIG=
201903160130 METAR LRBS 160130Z 28004KT 260V320 CAVOK 04/M01 Q1009 NOSIG=
201903160200 METAR COR LRBS 160200Z 28005KT 250V310 CAVOK 04/M01 Q1009
                        NOSIG=
201903160230 METAR COR LRBS 160230Z 27007KT CAVOK 03/M01 Q1009 NOSIG=
201903160300 METAR LRBS 160300Z 27007KT CAVOK 03/M01 Q1009 NOSIG=
201903160330 METAR LRBS 160330Z 27006KT CAVOK 03/M02 Q1009 NOSIG=
201903160400 METAR LRBS 160400Z 26005KT CAVOK 03/M01 Q1009 NOSIG=
201903160430 METAR LRBS 160430Z 28004KT 240V310 CAVOK 03/M02 Q1009 NOSIG=
201903160500 METAR LRBS 160500Z 27004KT 240V310 CAVOK 03/M01 Q1009 NOSIG=
201903160530 METAR LRBS 160530Z 27005KT 240V300 CAVOK 04/M01 Q1009 NOSIG=
201903160600 METAR LRBS 160600Z 27006KT 250V310 CAVOK 05/M01 Q1009 NOSIG=
201903160630 METAR LRBS 160630Z 25005KT CAVOK 06/M00 Q1009 NOSIG=
201903160700 METAR LRBS 160700Z 26010KT 240V300 CAVOK 08/M01 Q1009 NOSIG=
201903160730 METAR LRBS 160730Z 26012KT CAVOK 08/M00 Q1009 NOSIG=
201903160800 METAR LRBS 160800Z 25011KT 230V290 CAVOK 09/00 Q1008 NOSIG=
201903160830 METAR LRBS 160830Z 25015KT 220V280 CAVOK 10/01 Q1008 NOSIG=
201903160900 METAR LRBS 160900Z 25014KT 220V280 CAVOK 11/01 Q1008 NOSIG=
201903160930 METAR LRBS 160930Z 25015KT CAVOK 12/00 Q1008 NOSIG=
201903161000 METAR LRBS 161000Z 26017KT 240V300 CAVOK 12/00 Q1007 NOSIG=
201903161030 METAR LRBS 161030Z 26018KT CAVOK 13/00 Q1007 NOSIG=
201903161100 METAR LRBS 161100Z 27016KT 230V310 CAVOK 14/00 Q1007 NOSIG=
201903161130 METAR LRBS 161130Z 27014KT 220V320 CAVOK 15/01 Q1006 NOSIG=
201903161200 METAR LRBS 161200Z 27015KT 230V310 CAVOK 16/01 Q1006 NOSIG=
201903161230 METAR LRBS 161230Z 27016KT 240V320 CAVOK 16/01 Q1006 NOSIG=
201903161300 METAR LRBS 161300Z 28016G26KT 240V350 CAVOK 16/00 Q1006 NOSIG=
201903161330 METAR LRBS 161330Z 28013KT 240V330 CAVOK 17/01 Q1005 NOSIG=
201903161400 METAR LRBS 161400Z 29011KT 240V340 CAVOK 19/01 Q1005 NOSIG=
201903161430 METAR LRBS 161430Z 29011KT 240V350 CAVOK 18/01 Q1005 NOSIG=
201903161500 METAR LRBS 161500Z 28017G29KT 250V340 CAVOK 17/M00 Q1005
                        NOSIG=
201903161530 METAR LRBS 161530Z 28015G25KT 240V340 CAVOK 17/M00 Q1005
                        NOSIG=
201903161600 METAR LRBS 161600Z 29009KT 240V010 CAVOK 16/M00 Q1006 NOSIG=
201903161630 METAR LRBS 161630Z 32007KT 240V020 CAVOK 15/M01 Q1007 NOSIG=
201903161700 METAR LRBS 161700Z 33007KT 270V030 CAVOK 15/M02 Q1008 NOSIG=
201903161730 METAR LRBS 161730Z 32010KT 260V010 CAVOK 14/M03 Q1008 NOSIG=
201903161800 METAR LRBS 161800Z 01005KT 320V070 CAVOK 13/M03 Q1009 NOSIG=
201903161830 METAR LRBS 161830Z VRB01KT CAVOK 12/M04 Q1010 NOSIG=
201903161900 METAR LRBS 161900Z 36003KT 320V050 CAVOK 12/M04 Q1010 NOSIG=
201903161930 METAR LRBS 161930Z 08002KT CAVOK 11/M04 Q1011 NOSIG=
201903162000 METAR LRBS 162000Z VRB01KT CAVOK 09/M04 Q1011 NOSIG=
201903162030 METAR LRBS 162030Z VRB02KT CAVOK 09/M03 Q1012 NOSIG=
201903162100 METAR LRBS 162100Z 23004KT CAVOK 09/M03 Q1012 NOSIG=
201903162130 METAR LRBS 162130Z 28003KT CAVOK 08/M03 Q1013 NOSIG=
201903162200 METAR LRBS 162200Z VRB02KT CAVOK 08/M02 Q1013 NOSIG=
201903162230 METAR LRBS 162230Z VRB02KT CAVOK 07/M02 Q1013 NOSIG=
201903162300 METAR LRBS 162300Z VRB01KT CAVOK 06/M02 Q1013 NOSIG=
201903162330 METAR LRBS 162330Z VRB01KT CAVOK 06/M02 Q1013 NOSIG=
201903170000 METAR LRBS 170000Z 03001KT CAVOK 05/M02 Q1013 NOSIG=
201903170030 METAR LRBS 170030Z VRB01KT CAVOK 05/M02 Q1013 NOSIG=
201903170100 METAR LRBS 170100Z VRB02KT CAVOK 05/M02 Q1013 NOSIG=
201903170130 METAR LRBS 170130Z VRB01KT CAVOK 04/M01 Q1013 NOSIG=
201903170200 METAR LRBS 170200Z AUTO VRB01KT 9999 OVC099/// 05/M01 Q1014
                        NOSIG=
201903170230 METAR LRBS 170230Z 26003KT CAVOK 06/00 Q1014 NOSIG=
201903170300 METAR LRBS 170300Z VRB01KT CAVOK 06/01 Q1014 NOSIG=
201903170330 METAR LRBS 170330Z 34001KT CAVOK 06/01 Q1014 NOSIG=
201903170400 METAR LRBS 170400Z 36003KT 340V040 CAVOK 06/01 Q1014 NOSIG=
201903170430 METAR LRBS 170430Z VRB02KT CAVOK 06/01 Q1015 NOSIG=
201903170500 METAR LRBS 170500Z 00000KT CAVOK 06/01 Q1015 NOSIG=
201903170530 METAR LRBS 170530Z 17001KT CAVOK 07/02 Q1015 NOSIG=
201903170600 METAR LRBS 170600Z 00000KT CAVOK 07/02 Q1015 NOSIG=
201903170630 METAR LRBS 170630Z VRB02KT CAVOK 08/01 Q1016 NOSIG=
201903170700 METAR LRBS 170700Z VRB01KT CAVOK 09/00 Q1016 NOSIG=
201903170730 METAR LRBS 170730Z VRB01KT CAVOK 11/01 Q1016 NOSIG=
201903170800 METAR LRBS 170800Z VRB02KT CAVOK 12/00 Q1016 NOSIG=
201903170830 METAR LRBS 170830Z 22004KT 160V270 CAVOK 13/M01 Q1016 NOSIG=
201903170900 METAR LRBS 170900Z 25005KT 210V310 CAVOK 13/00 Q1016 NOSIG=
201903170930 METAR LRBS 170930Z 22005KT 110V280 CAVOK 15/M01 Q1016 NOSIG=
201903171000 METAR LRBS 171000Z 24005KT 190V300 CAVOK 16/01 Q1016 NOSIG=
201903171030 METAR LRBS 171030Z 26006KT 220V360 CAVOK 17/01 Q1015 NOSIG=
201903171100 METAR LRBS 171100Z 27007KT 220V350 CAVOK 18/01 Q1015 NOSIG=
201903171130 METAR LRBS 171130Z 30007KT 240V350 CAVOK 18/01 Q1015 NOSIG=
201903171200 METAR LRBS 171200Z 24006KT 190V280 CAVOK 18/02 Q1014 NOSIG=
201903171230 METAR LRBS 171230Z 23007KT 190V270 CAVOK 19/02 Q1014 NOSIG=
201903171300 METAR LRBS 171300Z 22006KT 180V260 CAVOK 19/02 Q1014 NOSIG=
201903171330 METAR LRBS 171330Z 24008KT 190V290 CAVOK 20/02 Q1014 NOSIG=
201903171400 METAR LRBS 171400Z 25005KT 190V310 CAVOK 20/02 Q1013 NOSIG=
201903171430 METAR COR LRBS 171430Z 25007KT 220V300 CAVOK 20/02 Q1013
                        NOSIG=
201903171500 METAR LRBS 171500Z 24005KT 200V290 CAVOK 20/02 Q1013 NOSIG=
201903171530 METAR LRBS 171530Z 26006KT 220V290 CAVOK 20/02 Q1013 NOSIG=
201903171600 METAR LRBS 171600Z 27005KT 240V300 CAVOK 19/02 Q1013 NOSIG=
201903171630 METAR LRBS 171630Z 24003KT 210V270 CAVOK 18/03 Q1013 NOSIG=
201903171700 METAR LRBS 171700Z 21001KT CAVOK 17/03 Q1013 NOSIG=
201903171730 METAR LRBS 171730Z 16001KT CAVOK 16/03 Q1013 NOSIG=
201903171800 METAR LRBS 171800Z 17001KT CAVOK 16/03 Q1013 NOSIG=
201903171830 METAR COR LRBS 171830Z 12002KT CAVOK 13/04 Q1013 NOSIG=
201903171900 METAR LRBS 171900Z 16002KT CAVOK 11/04 Q1013 NOSIG=
201903171930 METAR LRBS 171930Z 00000KT CAVOK 12/04 Q1014 NOSIG=
201903172000 METAR LRBS 172000Z VRB02KT CAVOK 11/04 Q1014 NOSIG=
201903172030 METAR LRBS 172030Z 09001KT CAVOK 12/04 Q1013 NOSIG=
201903172100 METAR LRBS 172100Z 00000KT CAVOK 11/04 Q1013 NOSIG=
201903172130 METAR LRBS 172130Z VRB02KT CAVOK 11/04 Q1013 NOSIG=
201903172200 METAR LRBS 172200Z VRB01KT CAVOK 08/04 Q1013 NOSIG=
201903172230 METAR COR LRBS 172230Z VRB02KT CAVOK 09/04 Q1013 NOSIG=
201903172300 METAR COR LRBS 172300Z VRB01KT CAVOK 08/04 Q1013 NOSIG=
201903172330 METAR LRBS 172330Z VRB01KT CAVOK 07/03 Q1013 NOSIG=
201903180000 METAR COR LRBS 180000Z 32002KT CAVOK 07/03 Q1013 NOSIG=
201903180030 METAR LRBS 180030Z AUTO 30002KT 9999 NCD 06/03 Q1013 NOSIG=
201903180100 METAR COR LRBS 180100Z 31003KT 280V340 CAVOK 06/03 Q1013
                        NOSIG=
201903180130 METAR COR LRBS 180130Z VRB02KT CAVOK 06/03 Q1012 NOSIG=
201903180200 METAR LRBS 180200Z VRB01KT CAVOK 06/03 Q1013 NOSIG=
201903180230 METAR LRBS 180230Z 31002KT CAVOK 06/03 Q1012 NOSIG=
201903180300 METAR LRBS 180300Z 00000KT CAVOK 06/03 Q1013 NOSIG=
201903180330 METAR LRBS 180330Z 00000KT CAVOK 05/03 Q1013 NOSIG=
201903180400 METAR LRBS 180400Z 00000KT CAVOK 05/02 Q1013 NOSIG=
201903180430 METAR LRBS 180430Z 09001KT 9999 MIFG NSC 03/01 Q1013 NOSIG=
201903180500 METAR LRBS 180500Z 00000KT CAVOK 06/04 Q1013 NOSIG=
201903180530 METAR LRBS 180530Z 00000KT CAVOK 07/04 Q1013 NOSIG=
201903180600 METAR LRBS 180600Z 00000KT CAVOK 10/05 Q1013 NOSIG=
201903180630 METAR LRBS 180630Z VRB02KT CAVOK 11/06 Q1013 NOSIG=
201903180700 METAR LRBS 180700Z 07003KT 010V110 CAVOK 13/05 Q1013 NOSIG=
201903180730 METAR LRBS 180730Z 08003KT 050V110 CAVOK 15/05 Q1013 NOSIG=
201903180800 METAR LRBS 180800Z 07004KT 020V110 CAVOK 17/05 Q1013 NOSIG=
201903180830 METAR LRBS 180830Z 04004KT 360V100 CAVOK 18/04 Q1013 NOSIG=
201903180900 METAR LRBS 180900Z 08004KT 040V120 CAVOK 19/05 Q1013 NOSIG=
201903180930 METAR LRBS 180930Z 09004KT 020V140 CAVOK 20/04 Q1013 NOSIG=
201903181000 METAR LRBS 181000Z 09005KT 040V130 CAVOK 21/04 Q1013 NOSIG=
201903181030 METAR LRBS 181030Z 08004KT 010V150 CAVOK 22/09 Q1013 NOSIG=
201903181100 METAR LRBS 181100Z VRB02KT CAVOK 24/08 Q1013 NOSIG=
201903181130 METAR LRBS 181130Z 12003KT 050V220 CAVOK 25/09 Q1012 NOSIG=
201903181200 METAR LRBS 181200Z 09003KT 360V150 CAVOK 25/07 Q1012 NOSIG=
201903181230 METAR LRBS 181230Z VRB01KT CAVOK 26/05 Q1011 NOSIG=
201903181300 METAR LRBS 181300Z 07004KT 040V120 CAVOK 26/05 Q1011 NOSIG=
201903181330 METAR LRBS 181330Z 12004KT 070V240 CAVOK 25/01 Q1011 NOSIG=
201903181400 METAR LRBS 181400Z 13003KT 070V230 CAVOK 25/02 Q1011 NOSIG=
201903181430 METAR LRBS 181430Z VRB04KT CAVOK 25/00 Q1011 NOSIG=
201903181500 METAR LRBS 181500Z 11005KT 050V140 CAVOK 24/01 Q1011 NOSIG=
201903181530 METAR LRBS 181530Z 11005KT CAVOK 24/00 Q1010 NOSIG=
201903181600 METAR LRBS 181600Z 10004KT CAVOK 22/00 Q1011 NOSIG=
201903181630 METAR LRBS 181630Z 00000KT CAVOK 20/00 Q1011 NOSIG=
201903181700 METAR LRBS 181700Z 03002KT CAVOK 19/01 Q1011 NOSIG=
201903181730 METAR LRBS 181730Z 03002KT CAVOK 17/01 Q1011 NOSIG=
201903181800 METAR LRBS 181800Z 03002KT CAVOK 15/02 Q1011 NOSIG=
201903181830 METAR LRBS 181830Z 00000KT CAVOK 14/02 Q1011 NOSIG=
201903181900 METAR LRBS 181900Z 06003KT CAVOK 14/03 Q1012 NOSIG=
201903181930 METAR LRBS 181930Z 09002KT CAVOK 14/02 Q1012 NOSIG=
201903182000 METAR LRBS 182000Z 07004KT CAVOK 13/03 Q1012 NOSIG=
201903182030 METAR LRBS 182030Z 05005KT CAVOK 13/03 Q1012 NOSIG=
201903182100 METAR LRBS NIL=
201903182130 METAR LRBS NIL=
201903182200 METAR LRBS 182200Z 03006KT CAVOK 11/06 Q1013 NOSIG=
201903182230 METAR LRBS 182230Z 05007KT 010V070 CAVOK 10/06 Q1013 NOSIG=
201903182300 METAR LRBS 182300Z 05007KT 010V080 CAVOK 10/05 Q1013 NOSIG=
201903182330 METAR LRBS 182330Z 03006KT 360V060 CAVOK 09/05 Q1013 NOSIG=
201903190000 METAR LRBS 190000Z 04007KT CAVOK 09/06 Q1013 NOSIG=
201903190030 METAR LRBS 190030Z 04008KT 010V080 CAVOK 09/05 Q1013 NOSIG=
201903190100 METAR COR LRBS 190100Z 04009KT CAVOK 08/05 Q1013 NOSIG=
201903190130 METAR LRBS 190130Z 04008KT 010V070 CAVOK 08/05 Q1013 NOSIG=
201903190200 METAR LRBS 190200Z 04009KT 360V070 CAVOK 08/05 Q1013 NOSIG=
201903190230 METAR LRBS 190230Z 05009KT CAVOK 07/04 Q1013 NOSIG=
201903190300 METAR LRBS 190300Z 04011KT 010V070 CAVOK 07/04 Q1014 NOSIG=
201903190330 METAR LRBS 190330Z 03010KT 340V060 CAVOK 07/04 Q1014 NOSIG=
201903190400 METAR LRBS 190400Z 03009KT 360V070 CAVOK 07/04 Q1014 NOSIG=
201903190430 METAR LRBS 190430Z 04010KT 010V070 CAVOK 07/04 Q1015 NOSIG=
201903190500 METAR LRBS 190500Z 05012KT 010V070 CAVOK 07/04 Q1015 NOSIG=
201903190530 METAR LRBS 190530Z 04010KT 360V070 CAVOK 08/04 Q1015 NOSIG=
201903190600 METAR COR LRBS 190600Z 04010KT 010V080 CAVOK 09/04 Q1016
                        NOSIG=
201903190630 METAR LRBS 190630Z 05012KT 020V090 CAVOK 09/04 Q1016 NOSIG=
201903190700 METAR LRBS 190700Z 05014KT 020V090 9999 FEW018 10/05 Q1016
                        NOSIG=
201903190730 METAR LRBS 190730Z 05014KT 360V080 CAVOK 11/05 Q1016 NOSIG=
201903190800 METAR LRBS 190800Z 06017KT 020V090 9999 FEW022 12/05 Q1016
                        NOSIG=
201903190830 METAR LRBS 190830Z 06017KT 020V080 9999 FEW024 13/04 Q1017
                        NOSIG=
201903190900 METAR LRBS 190900Z 05016KT 010V080 CAVOK 14/04 Q1017 NOSIG=
201903190930 METAR LRBS 190930Z 06018KT 010V100 CAVOK 14/04 Q1017 NOSIG=
201903191000 METAR LRBS 191000Z 06017KT 360V090 9999 FEW034 14/04 Q1018
                        NOSIG=
201903191030 METAR LRBS 191030Z 07017KT 030V100 9999 BKN034 16/04 Q1017
                        NOSIG=
201903191100 METAR LRBS 191100Z 05014KT 010V080 9999 SCT036 16/04 Q1017
                        NOSIG=
201903191130 METAR LRBS 191130Z 05015KT 010V080 9999 SCT040 16/04 Q1017
                        NOSIG=
201903191200 METAR LRBS 191200Z 05013G23KT 360V090 9999 SCT041 17/04 Q1017
                        NOSIG=
201903191230 METAR LRBS 191230Z 06015KT 010V100 9999 SCT042 17/04 Q1017
                        NOSIG=
201903191300 METAR LRBS 191300Z 05014KT 010V090 9999 SCT044 17/04 Q1017
                        NOSIG=
201903191330 METAR LRBS 191330Z 06013KT 020V090 9999 SCT048 17/05 Q1017
                        NOSIG=
201903191400 METAR LRBS 191400Z 05012KT 020V080 9999 SCT045 17/05 Q1017
                        NOSIG=
201903191430 METAR LRBS 191430Z 05012KT 010V090 9999 BKN046 18/05 Q1017
                        NOSIG=
201903191500 METAR LRBS 191500Z 04011KT 010V070 9999 BKN045 17/05 Q1017
                        NOSIG=
201903191530 METAR LRBS 191530Z 05012KT 9999 BKN044 16/04 Q1017 NOSIG=
201903191600 METAR LRBS 191600Z 04009KT 360V070 9999 BKN044 16/04 Q1018
                        NOSIG=
201903191630 METAR LRBS 191630Z 04010KT 360V070 9999 BKN045 15/04 Q1018
                        NOSIG=
201903191700 METAR LRBS 191700Z 03013KT 360V060 9999 BKN046 15/04 Q1019
                        NOSIG=
201903191730 METAR LRBS 191730Z 04012KT 010V070 CAVOK 14/04 Q1019 NOSIG=
201903191800 METAR LRBS 191800Z 04012KT 010V070 CAVOK 14/04 Q1020 NOSIG=
201903191830 METAR LRBS 191830Z 04013KT 360V070 CAVOK 13/04 Q1020 NOSIG=
201903191900 METAR LRBS 191900Z 05012KT 010V090 CAVOK 12/03 Q1020 NOSIG=
201903191930 METAR LRBS 191930Z 06012KT 030V090 CAVOK 12/03 Q1021 NOSIG=
201903192000 METAR LRBS 192000Z 06015KT 030V090 CAVOK 11/03 Q1021 NOSIG=
201903192030 METAR LRBS 192030Z 06014KT 9000 NSC 11/03 Q1021 NOSIG=
201903192100 METAR LRBS 192100Z 06012KT 020V090 CAVOK 10/03 Q1022 NOSIG=
201903192130 METAR LRBS 192130Z 05011KT 020V090 CAVOK 10/03 Q1022 NOSIG=
201903192200 METAR LRBS 192200Z 05013KT 020V080 CAVOK 10/03 Q1022 NOSIG=
201903192230 METAR LRBS 192230Z 06014KT CAVOK 09/03 Q1022 NOSIG=
201903192300 METAR LRBS 192300Z 05012KT 9000 NSC 09/03 Q1022 NOSIG=
201903192330 METAR LRBS 192330Z 05009KT 020V090 9000 NSC 09/03 Q1023 NOSIG=
201903200000 METAR LRBS 200000Z 06010KT 9000 NSC 08/03 Q1023 NOSIG=
201903200030 METAR LRBS 200030Z 07010KT 9000 NSC 07/03 Q1023 NOSIG=
201903200100 METAR LRBS 200100Z 06008KT CAVOK 07/03 Q1023 NOSIG=
201903200130 METAR LRBS 200130Z 06005KT 9000 NSC 07/03 Q1023 NOSIG=
201903200200 METAR LRBS 200200Z 07007KT 9000 NSC 07/04 Q1024 NOSIG=
201903200230 METAR LRBS 200230Z 07005KT 9000 NSC 06/03 Q1024 NOSIG=
201903200300 METAR LRBS 200300Z 07008KT 9000 NSC 06/03 Q1024 NOSIG=
201903200330 METAR LRBS 200330Z 07010KT CAVOK 06/04 Q1024 NOSIG=
201903200400 METAR LRBS 200400Z 06005KT 020V100 9000 NSC 06/03 Q1024 NOSIG=
201903200430 METAR LRBS 200430Z 06005KT 9000 FEW043 05/03 Q1025 NOSIG=
201903200500 METAR LRBS 200500Z 06005KT 9999 FEW042 05/03 Q1025 NOSIG=
201903200530 METAR LRBS 200530Z 07006KT CAVOK 07/04 Q1026 NOSIG=
201903200600 METAR LRBS 200600Z 07009KT CAVOK 08/04 Q1026 NOSIG=
201903200630 METAR LRBS 200630Z 07009KT CAVOK 09/04 Q1026 NOSIG=
201903200700 METAR LRBS 200700Z 06014KT CAVOK 10/04 Q1026 NOSIG=
201903200730 METAR LRBS 200730Z 06014KT 020V090 9999 FEW019 11/04 Q1027
                        NOSIG=
201903200800 METAR LRBS 200800Z 06012KT 020V090 CAVOK 12/04 Q1027 NOSIG=
201903200830 METAR LRBS 200830Z 06017KT 040V100 CAVOK 12/03 Q1027 NOSIG=
201903200900 METAR LRBS 200900Z 06014KT 020V090 CAVOK 13/03 Q1027 NOSIG=
201903200930 METAR LRBS 200930Z 07013KT 360V100 9999 FEW032 14/03 Q1027
                        NOSIG=
201903201000 METAR LRBS 201000Z 08015KT 9999 FEW033 14/03 Q1027 NOSIG=
201903201030 METAR LRBS 201030Z 05011KT 360V110 9999 SCT035 14/03 Q1027
                        NOSIG=
201903201100 METAR COR LRBS 201100Z 04009KT 350V100 9999 BKN036 14/03
                        Q1027 NOSIG=
201903201130 METAR LRBS 201130Z 06010KT 360V090 9999 BKN038 14/03 Q1027
                        NOSIG=
201903201200 METAR LRBS 201200Z 06008KT 020V110 9999 BKN039 14/03 Q1028
                        NOSIG=
201903201230 METAR LRBS 201230Z 07007KT 030V110 9999 BKN041 14/03 Q1027
                        NOSIG=
201903201300 METAR LRBS 201300Z 07010KT 9999 BKN042 14/03 Q1027 NOSIG=
201903201330 METAR LRBS 201330Z 06007KT 9999 SCT043 15/02 Q1027 NOSIG=
201903201400 METAR LRBS 201400Z 07008KT 030V110 9999 BKN044 14/02 Q1027
                        NOSIG=
201903201430 METAR LRBS 201430Z 07010KT 030V100 9999 BKN045 14/02 Q1027
                        NOSIG=
201903201500 METAR COR LRBS 201500Z 07010KT CAVOK 14/02 Q1028 NOSIG=
201903201530 METAR LRBS 201530Z 06012KT 020V090 CAVOK 13/02 Q1028 NOSIG=
201903201600 METAR LRBS 201600Z 06011KT CAVOK 12/02 Q1028 NOSIG=
201903201630 METAR LRBS 201630Z 06011KT CAVOK 11/02 Q1029 NOSIG=
201903201700 METAR LRBS 201700Z 05010KT 010V080 CAVOK 10/01 Q1029 NOSIG=
201903201730 METAR LRBS 201730Z 06009KT CAVOK 09/01 Q1030 NOSIG=
201903201800 METAR LRBS 201800Z 07007KT 9999 BKN047 09/02 Q1030 NOSIG=
201903201830 METAR LRBS 201830Z 06009KT 9999 FEW047 10/02 Q1030 NOSIG=
201903201900 METAR COR LRBS 201900Z 06010KT 030V090 CAVOK 09/02 Q1031
                        NOSIG=
201903201930 METAR LRBS 201930Z 07011KT 9999 BKN046 09/02 Q1031 NOSIG=
201903202000 METAR LRBS 202000Z 06010KT 020V090 9999 BKN045 09/01 Q1031
                        NOSIG=
201903202030 METAR LRBS 202030Z 06009KT 9999 BKN047 09/01 Q1031 NOSIG=
201903202100 METAR LRBS 202100Z 06009KT 9999 BKN046 09/01 Q1032 NOSIG=
201903202130 METAR LRBS 202130Z 07008KT 9999 BKN046 09/01 Q1032 NOSIG=
201903202200 METAR LRBS 202200Z 07009KT 9999 BKN045 09/01 Q1032 NOSIG=
201903202230 METAR LRBS 202230Z 07010KT 9999 BKN044 09/01 Q1032 NOSIG=
201903202300 METAR LRBS 202300Z 06009KT 020V090 9999 BKN044 09/01 Q1032
                        NOSIG=
201903202330 METAR LRBS 202330Z 06009KT 9999 BKN045 09/01 Q1032 NOSIG=
201903210000 METAR COR LRBS 210000Z 06008KT 9999 BKN041 09/00 Q1032 NOSIG=
201903210030 METAR LRBS 210030Z 06009KT 9999 BKN041 08/00 Q1032 NOSIG=
201903210100 METAR LRBS 210100Z 05007KT 020V090 9999 BKN040 09/00 Q1032
                        NOSIG=
201903210130 METAR LRBS 210130Z 06009KT 9999 BKN041 08/00 Q1032 NOSIG=
201903210200 METAR LRBS 210200Z 06007KT 020V090 9999 BKN041 08/M00 Q1032
                        NOSIG=
201903210230 METAR LRBS 210230Z 05007KT 020V080 9999 BKN038 08/M00 Q1032
                        NOSIG=
201903210300 METAR LRBS 210300Z 05007KT 020V080 9999 BKN038 08/M00 Q1032
                        NOSIG=
201903210330 METAR LRBS 210330Z 05006KT 9999 -RA BKN038 08/01 Q1032 NOSIG=
201903210400 METAR LRBS 210400Z 04003KT 010V070 9999 BKN043 08/01 Q1032
                        NOSIG=
201903210430 METAR LRBS 210430Z 04003KT 350V070 9999 BKN040 07/01 Q1033
                        NOSIG=
201903210500 METAR LRBS 210500Z 04003KT 010V070 9999 OVC042 08/01 Q1033
                        NOSIG=
201903210530 METAR LRBS 210530Z 05003KT 010V090 9999 OVC042 08/01 Q1033
                        NOSIG=
201903210600 METAR LRBS 210600Z 04004KT 360V060 9999 OVC043 08/01 Q1034
                        NOSIG=
201903210630 METAR LRBS 210630Z 04004KT 010V070 9999 -DZ OVC043 08/01
                        Q1034 NOSIG=
201903210700 METAR LRBS 210700Z 04005KT 010V070 9999 OVC045 08/00 Q1034
                        NOSIG=
201903210730 METAR LRBS 210730Z 06005KT 020V090 9999 OVC043 09/00 Q1034
                        NOSIG=
201903210800 METAR LRBS 210800Z 06005KT 020V090 9999 OVC041 09/M00 Q1034
                        NOSIG=
201903210830 METAR LRBS 210830Z 05005KT 010V070 9999 OVC041 09/M01 Q1034
                        NOSIG=
201903210900 METAR LRBS 210900Z 07005KT 020V100 9999 OVC041 10/M01 Q1034
                        NOSIG=
201903210930 METAR LRBS 210930Z 06004KT 020V110 9999 OVC043 10/M01 Q1034
                        NOSIG=
201903211000 METAR LRBS 211000Z VRB02KT 9999 BKN044 10/M01 Q1034 NOSIG=
201903211030 METAR COR LRBS 211030Z VRB01KT 9999 SCT046 11/M00 Q1034 NOSIG=
201903211100 METAR LRBS 211100Z 21004KT 130V270 9999 FEW045 12/M00 Q1033
                        NOSIG=
201903211130 METAR LRBS 211130Z 21004KT 150V270 9999 SCT048 12/00 Q1033
                        NOSIG=
201903211200 METAR LRBS 211200Z 23006KT 190V300 CAVOK 12/M00 Q1032 NOSIG=
201903211230 METAR LRBS 211230Z 31005KT 240V030 9999 FEW044 13/M00 Q1032
                        NOSIG=
201903211300 METAR LRBS 211300Z 28005KT 230V350 9999 FEW007 BKN043 12/00
                        Q1032 NOSIG=
201903211330 METAR LRBS 211330Z 32004KT 240V030 9999 BKN041 12/01 Q1031
                        NOSIG=
201903211400 METAR LRBS 211400Z 27008KT 240V320 9999 BKN042 12/01 Q1031
                        NOSIG=
201903211430 METAR LRBS 211430Z 29005KT 250V350 9999 BKN041 12/01 Q1031
                        NOSIG=
201903211500 METAR LRBS 211500Z 28006KT 240V340 9999 BKN040 12/02 Q1031
                        NOSIG=
201903211530 METAR LRBS 211530Z 29005KT 250V340 9999 BKN037 12/02 Q1031
                        NOSIG=
201903211600 METAR COR LRBS 211600Z 29004KT 250V350 9999 SCT038 11/02
                        Q1031 NOSIG=
201903211630 METAR LRBS 211630Z 29004KT 260V350 9999 FEW035 11/02 Q1031
                        NOSIG=
201903211700 METAR LRBS 211700Z 29003KT 260V330 CAVOK 10/02 Q1031 NOSIG=
201903211730 METAR LRBS 211730Z 28003KT 240V320 CAVOK 10/02 Q1031 NOSIG=
201903211800 METAR LRBS 211800Z 28003KT 260V320 CAVOK 09/02 Q1031 NOSIG=
201903211830 METAR LRBS 211830Z 29003KT 260V340 CAVOK 09/02 Q1031 NOSIG=
201903211900 METAR LRBS 211900Z 29003KT 260V330 CAVOK 08/02 Q1031 NOSIG=
201903211930 METAR LRBS 211930Z 28003KT CAVOK 08/02 Q1031 NOSIG=
201903212000 METAR LRBS 212000Z 28003KT CAVOK 07/02 Q1031 NOSIG=
201903212030 METAR LRBS 212030Z 28003KT 260V320 CAVOK 07/02 Q1031 NOSIG=
201903212100 METAR LRBS 212100Z 28003KT CAVOK 06/02 Q1031 NOSIG=
201903212130 METAR LRBS 212130Z 29002KT CAVOK 06/02 Q1031 NOSIG=
201903212200 METAR LRBS 212200Z VRB02KT CAVOK 06/02 Q1031 NOSIG=
201903212230 METAR LRBS 212230Z 27002KT CAVOK 05/02 Q1031 NOSIG=
201903212300 METAR LRBS 212300Z 28003KT CAVOK 05/02 Q1031 NOSIG=
201903212330 METAR LRBS 212330Z 28003KT CAVOK 05/02 Q1031 NOSIG=
201903220000 METAR LRBS 220000Z AUTO VRB02KT 9000 NCD 05/02 Q1031 NOSIG=
201903220030 METAR LRBS 220030Z 27003KT 250V290 CAVOK 04/02 Q1031 NOSIG=
201903220100 METAR LRBS 220100Z 28003KT 8000 NSC 04/02 Q1031 NOSIG=
201903220130 METAR LRBS 220130Z VRB01KT 6000 NSC 04/02 Q1030 TEMPO 3000
                        BR=
201903220200 METAR LRBS 220200Z 26002KT 6000 NSC 04/02 Q1030 TEMPO 3000
                        BR=
201903220230 METAR LRBS 220230Z 27003KT 5000 BR NSC 04/02 Q1030 TEMPO
                        3000 BR=
201903220300 METAR LRBS 220300Z VRB02KT 5000 BR NSC 04/02 Q1030 TEMPO
                        3000 BR=
201903220330 METAR LRBS 220330Z VRB02KT 5000 BR NSC 03/01 Q1030 TEMPO
                        3000 BR=
201903220400 METAR LRBS 220400Z 28003KT 5000 BR NSC 03/01 Q1030 TEMPO
                        3000 BR=
201903220430 METAR LRBS 220430Z 28003KT 4400 BR NSC 03/01 Q1031 NOSIG=
201903220500 METAR LRBS 220500Z 28002KT 5000 BR NSC 03/01 Q1031 NOSIG=
201903220530 METAR LRBS 220530Z VRB02KT 5000 BR NSC 04/02 Q1031 BECMG
                        9999 NSW=
201903220600 METAR LRBS 220600Z VRB01KT 7000 NSC 05/02 Q1031 NOSIG=
201903220630 METAR LRBS 220630Z 00000KT CAVOK 08/02 Q1031 NOSIG=
201903220700 METAR LRBS 220700Z VRB01KT CAVOK 10/01 Q1031 NOSIG=
201903220730 METAR LRBS 220730Z 10003KT 040V170 CAVOK 11/00 Q1031 NOSIG=
201903220800 METAR LRBS 220800Z 11004KT 070V130 CAVOK 13/00 Q1031 NOSIG=
201903220830 METAR LRBS 220830Z 12003KT 060V210 CAVOK 13/M00 Q1031 NOSIG=
201903220900 METAR LRBS 220900Z VRB03KT CAVOK 13/M01 Q1030 NOSIG=
201903220930 METAR LRBS 220930Z VRB02KT CAVOK 14/M01 Q1030 NOSIG=
201903221000 METAR LRBS 221000Z VRB05KT CAVOK 15/M01 Q1030 NOSIG=
201903221030 METAR LRBS 221030Z 25005KT 170V310 CAVOK 15/M01 Q1029 NOSIG=
201903221100 METAR LRBS 221100Z 25004KT 160V310 CAVOK 16/M01 Q1029 NOSIG=
201903221130 METAR LRBS 221130Z VRB03KT CAVOK 16/M01 Q1028 NOSIG=
201903221200 METAR LRBS 221200Z 24006KT 140V310 CAVOK 16/M01 Q1028 NOSIG=
201903221230 METAR LRBS 221230Z 24007KT 190V300 CAVOK 16/M01 Q1027 NOSIG=
201903221300 METAR LRBS 221300Z VRB04KT CAVOK 17/M01 Q1027 NOSIG=
201903221330 METAR LRBS 221330Z 25007KT 210V290 CAVOK 17/M01 Q1026 NOSIG=
201903221400 METAR COR LRBS 221400Z VRB05KT CAVOK 17/M02 Q1026 NOSIG=
201903221430 METAR LRBS 221430Z VRB06KT CAVOK 17/M01 Q1026 NOSIG=
201903221500 METAR LRBS 221500Z 26007KT 230V320 CAVOK 17/M01 Q1025 NOSIG=
201903221530 METAR LRBS 221530Z 26007KT 240V300 CAVOK 16/M01 Q1025 NOSIG=
201903221600 METAR LRBS 221600Z 27005KT 240V300 CAVOK 16/M01 Q1025 NOSIG=
201903221630 METAR LRBS 221630Z 27005KT 240V300 CAVOK 15/00 Q1025 NOSIG=
201903221700 METAR LRBS 221700Z 27005KT CAVOK 15/01 Q1025 NOSIG=
201903221730 METAR LRBS 221730Z 27004KT CAVOK 14/01 Q1025 NOSIG=
201903221800 METAR LRBS 221800Z 27003KT 250V320 CAVOK 14/01 Q1026 NOSIG=
201903221830 METAR LRBS 221830Z 28003KT 250V320 CAVOK 13/01 Q1026 NOSIG=
201903221900 METAR LRBS 221900Z 29003KT 260V330 CAVOK 13/01 Q1026 NOSIG=
201903221930 METAR LRBS 221930Z VRB02KT CAVOK 12/01 Q1026 NOSIG=
201903222000 METAR LRBS 222000Z VRB02KT CAVOK 11/01 Q1026 NOSIG=
201903222030 METAR LRBS 222030Z 28003KT CAVOK 10/01 Q1026 NOSIG=
201903222100 METAR LRBS 222100Z 29004KT 260V320 CAVOK 10/01 Q1026 NOSIG=
201903222130 METAR LRBS 222130Z 29004KT 270V330 CAVOK 10/01 Q1026 NOSIG=
201903222200 METAR LRBS 222200Z VRB01KT CAVOK 10/01 Q1026 NOSIG=
201903222230 METAR LRBS 222230Z VRB01KT CAVOK 09/01 Q1026 NOSIG=
201903222300 METAR LRBS 222300Z VRB01KT CAVOK 08/01 Q1026 NOSIG=
201903222330 METAR LRBS 222330Z 06004KT 360V110 CAVOK 06/01 Q1026 NOSIG=
201903230000 METAR LRBS 230000Z VRB01KT CAVOK 08/01 Q1026 NOSIG=
201903230030 METAR COR LRBS 230030Z 00000KT CAVOK 06/01 Q1025 NOSIG=
201903230100 METAR COR LRBS 230100Z 00000KT CAVOK 07/01 Q1025 NOSIG=
201903230130 METAR LRBS 230130Z 00000KT CAVOK 07/02 Q1025 NOSIG=
201903230200 METAR COR LRBS 230200Z 33001KT CAVOK 06/02 Q1025 NOSIG=
201903230230 METAR LRBS 230230Z VRB01KT CAVOK 06/01 Q1025 NOSIG=
201903230300 METAR LRBS 230300Z VRB02KT CAVOK 05/02 Q1025 NOSIG=
201903230330 METAR LRBS 230330Z 00000KT CAVOK 05/01 Q1025 TEMPO 5000 BR=
201903230400 METAR LRBS 230400Z 00000KT CAVOK 04/01 Q1025 TEMPO 5000 BR=
201903230430 METAR LRBS 230430Z 00000KT 9000 NSC 04/01 Q1025 TEMPO 5000
                        BR=
201903230500 METAR LRBS 230500Z VRB01KT 9000 NSC 04/01 Q1025 TEMPO 5000
                        BR=
201903230530 METAR LRBS 230530Z 25002KT 8000 NSC 06/02 Q1026 NOSIG=
201903230600 METAR LRBS 230600Z VRB01KT 8000 NSC 08/02 Q1025 NOSIG=
201903230630 METAR LRBS 230630Z VRB01KT CAVOK 09/03 Q1026 NOSIG=
201903230700 METAR LRBS 230700Z 00000KT CAVOK 11/03 Q1026 NOSIG=
201903230730 METAR LRBS 230730Z VRB02KT CAVOK 12/03 Q1026 NOSIG=
201903230800 METAR LRBS 230800Z 07008KT 010V100 CAVOK 13/03 Q1025 NOSIG=
201903230830 METAR LRBS 230830Z 08005KT 030V150 CAVOK 12/02 Q1025 NOSIG=
201903230900 METAR LRBS 230900Z 08008KT 040V140 CAVOK 13/02 Q1025 NOSIG=
201903230930 METAR LRBS 230930Z 12007KT 060V170 CAVOK 13/02 Q1025 NOSIG=
201903231000 METAR LRBS 231000Z 08005KT 350V140 CAVOK 14/02 Q1025 NOSIG=
201903231030 METAR LRBS 231030Z VRB03KT CAVOK 14/01 Q1024 NOSIG=
201903231100 METAR LRBS 231100Z VRB03KT CAVOK 15/01 Q1024 NOSIG=
201903231130 METAR LRBS 231130Z VRB02KT CAVOK 15/00 Q1024 NOSIG=
201903231200 METAR LRBS 231200Z 26003KT 200V360 CAVOK 15/00 Q1023 NOSIG=
201903231230 METAR LRBS 231230Z VRB02KT CAVOK 16/01 Q1023 NOSIG=
201903231300 METAR LRBS 231300Z 16004KT 110V220 CAVOK 15/00 Q1023 NOSIG=
201903231330 METAR LRBS 231330Z 11003KT 060V160 CAVOK 15/00 Q1022 NOSIG=
201903231400 METAR LRBS 231400Z 11005KT 070V150 CAVOK 15/00 Q1022 NOSIG=
201903231430 METAR LRBS 231430Z VRB01KT CAVOK 15/01 Q1022 NOSIG=
201903231500 METAR LRBS 231500Z 11006KT CAVOK 15/01 Q1022 NOSIG=
201903231530 METAR LRBS 231530Z 09011KT 060V120 CAVOK 14/M03 Q1022 NOSIG=
201903231600 METAR LRBS 231600Z 09012KT CAVOK 13/M06 Q1022 NOSIG=
201903231630 METAR LRBS 231630Z 09009KT 070V130 CAVOK 13/M07 Q1023 NOSIG=
201903231700 METAR LRBS 231700Z 09008KT CAVOK 12/M08 Q1023 NOSIG=
201903231730 METAR LRBS 231730Z 09007KT CAVOK 12/M08 Q1023 NOSIG=
201903231800 METAR LRBS 231800Z 08008KT CAVOK 12/M09 Q1023 NOSIG=
201903231830 METAR LRBS 231830Z 08009KT CAVOK 11/M12 Q1024 NOSIG=
201903231900 METAR LRBS 231900Z 08008KT CAVOK 10/M12 Q1024 NOSIG=
201903231930 METAR COR LRBS 231930Z 08007KT CAVOK 09/M12 Q1024 NOSIG=
201903232000 METAR LRBS 232000Z 09007KT CAVOK 09/M13 Q1025 NOSIG=
201903232030 METAR LRBS 232030Z 10007KT CAVOK 09/M13 Q1025 NOSIG=
201903232100 METAR LRBS 232100Z 10007KT CAVOK 09/M12 Q1025 NOSIG=
201903232130 METAR LRBS 232130Z 10005KT 070V130 CAVOK 08/M12 Q1025 NOSIG=
201903232200 METAR LRBS 232200Z 10006KT CAVOK 08/M11 Q1025 NOSIG=
201903232230 METAR LRBS 232230Z 11004KT CAVOK 07/M11 Q1025 NOSIG=
201903232300 METAR LRBS 232300Z VRB02KT CAVOK 07/M11 Q1025 NOSIG=
201903232330 METAR LRBS 232330Z 05004KT CAVOK 05/M11 Q1024 NOSIG=
201903240000 METAR LRBS 240000Z 04003KT CAVOK 03/M09 Q1024 NOSIG=
201903240030 METAR LRBS 240030Z VRB01KT CAVOK 05/M10 Q1024 NOSIG=
201903240100 METAR LRBS 240100Z 06002KT CAVOK 05/M11 Q1024 NOSIG=
201903240130 METAR LRBS 240130Z 32003KT CAVOK 05/M10 Q1024 NOSIG=
201903240200 METAR LRBS 240200Z 34003KT 320V360 CAVOK 03/M09 Q1024 NOSIG=
201903240230 METAR LRBS 240230Z 32002KT CAVOK 03/M09 Q1024 NOSIG=
201903240300 METAR LRBS 240300Z 26001KT CAVOK 03/M09 Q1024 NOSIG=
201903240330 METAR LRBS 240330Z 00000KT CAVOK 02/M09 Q1024 NOSIG=
201903240400 METAR LRBS 240400Z VRB01KT CAVOK 01/M08 Q1024 NOSIG=
201903240430 METAR LRBS 240430Z 26002KT CAVOK 01/M08 Q1024 NOSIG=
201903240500 METAR LRBS 240500Z 27001KT CAVOK 02/M07 Q1024 NOSIG=
201903240530 METAR COR LRBS 240530Z 25002KT CAVOK 04/M07 Q1024 NOSIG=
201903240600 METAR LRBS 240600Z VRB01KT CAVOK 05/M07 Q1024 NOSIG=
201903240630 METAR LRBS 240630Z VRB02KT CAVOK 08/M07 Q1024 NOSIG=
201903240700 METAR LRBS 240700Z 27005KT 230V320 CAVOK 10/M09 Q1024 NOSIG=
201903240730 METAR LRBS 240730Z 25006KT 220V300 CAVOK 11/M09 Q1024 NOSIG=
201903240800 METAR LRBS 240800Z 26007KT 220V330 CAVOK 12/M10 Q1024 NOSIG=
201903240830 METAR LRBS 240830Z 25008KT 210V310 CAVOK 12/M11 Q1023 NOSIG=
201903240900 METAR LRBS 240900Z 25008KT 210V300 CAVOK 13/M10 Q1023 NOSIG=
201903240930 METAR LRBS 240930Z 26010KT 220V330 CAVOK 14/M10 Q1023 NOSIG=
201903241000 METAR LRBS 241000Z 25009KT 210V290 CAVOK 15/M09 Q1022 NOSIG=
201903241030 METAR LRBS 241030Z 26009KT 220V310 CAVOK 15/M09 Q1022 NOSIG=
201903241100 METAR LRBS 241100Z 26008KT 210V340 CAVOK 15/M09 Q1021 NOSIG=
201903241130 METAR LRBS 241130Z 28008KT 230V340 CAVOK 16/M09 Q1021 NOSIG=
201903241200 METAR LRBS 241200Z 25010KT 210V280 CAVOK 16/M09 Q1020=
201903241230 METAR LRBS 241230Z 26009KT 220V300 CAVOK 17/M08 Q1020 NOSIG=
201903241300 METAR LRBS 241300Z 26010KT 210V310 CAVOK 18/M07 Q1019 NOSIG=
201903241330 METAR LRBS 241330Z 26010KT 220V320 CAVOK 17/M07 Q1019 NOSIG=
201903241400 METAR LRBS 241400Z 25009KT 220V310 CAVOK 18/M08 Q1018 NOSIG=
201903241430 METAR LRBS 241430Z 25010KT 220V300 CAVOK 18/M08 Q1018 NOSIG=
201903241500 METAR LRBS 241500Z 24010KT CAVOK 18/M08 Q1018 NOSIG=
201903241530 METAR LRBS 241530Z 24010KT CAVOK 17/M07 Q1018 NOSIG=
201903241600 METAR COR LRBS 241600Z 24009KT CAVOK 16/M07 Q1018 NOSIG=
201903241630 METAR LRBS 241630Z 24009KT CAVOK 16/M06 Q1018 NOSIG=
201903241700 METAR LRBS 241700Z 23006KT CAVOK 15/M06 Q1018 NOSIG=
201903241730 METAR LRBS 241730Z 23006KT 210V270 CAVOK 14/M06 Q1018 NOSIG=
201903241800 METAR LRBS 241800Z 22004KT CAVOK 14/M06 Q1018 NOSIG=
201903241830 METAR LRBS 241830Z VRB02KT CAVOK 14/M06 Q1018 NOSIG=
201903241900 METAR LRBS 241900Z VRB02KT CAVOK 13/M05 Q1018 NOSIG=
201903241930 METAR LRBS 241930Z 26002KT CAVOK 13/M05 Q1018 NOSIG=
201903242000 METAR LRBS 242000Z VRB02KT CAVOK 12/M05 Q1017 NOSIG=
201903242030 METAR LRBS 242030Z 27003KT CAVOK 11/M05 Q1017 NOSIG=
201903242100 METAR LRBS 242100Z 28003KT 250V310 CAVOK 11/M04 Q1017 NOSIG=
201903242130 METAR LRBS 242130Z 28003KT 260V320 CAVOK 10/M04 Q1017 NOSIG=
201903242200 METAR LRBS 242200Z 28004KT 240V320 CAVOK 10/M04 Q1017 NOSIG=
201903242230 METAR LRBS 242230Z 29005KT CAVOK 09/M04 Q1017=
201903242300 METAR LRBS 242300Z 27004KT CAVOK 08/M04 Q1016 NOSIG=
201903242330 METAR LRBS 242330Z AUTO 28004KT 9999 NCD 08/M04 Q1016 NOSIG=
201903250000 METAR LRBS 250000Z 27002KT CAVOK 08/M05 Q1016 NOSIG=
201903250030 METAR LRBS 250030Z 26003KT CAVOK 07/M04 Q1016 NOSIG=
201903250100 METAR LRBS 250100Z 27004KT CAVOK 07/M05 Q1015 NOSIG=
201903250130 METAR LRBS 250130Z 28003KT CAVOK 08/M05 Q1015 NOSIG=
201903250200 METAR LRBS 250200Z 05003KT 360V100 CAVOK 07/M05 Q1015 NOSIG=
201903250230 METAR LRBS 250230Z 00000KT CAVOK 05/M04 Q1015 NOSIG=
201903250300 METAR LRBS 250300Z 00000KT CAVOK 05/M04 Q1015 NOSIG=
201903250330 METAR LRBS 250330Z VRB01KT CAVOK 04/M04 Q1014 NOSIG=
201903250400 METAR LRBS 250400Z VRB01KT CAVOK 04/M04 Q1014 NOSIG=
201903250430 METAR LRBS 250430Z 07003KT CAVOK 04/M04 Q1014 NOSIG=
201903250500 METAR LRBS 250500Z 07003KT CAVOK 05/M03 Q1014 NOSIG=
201903250530 METAR LRBS 250530Z 00000KT CAVOK 07/M02 Q1013 NOSIG=
201903250600 METAR LRBS 250600Z 00000KT CAVOK 10/M01 Q1013 NOSIG=
201903250630 METAR LRBS 250630Z 19003KT 160V220 CAVOK 11/M05 Q1013 NOSIG=
201903250700 METAR LRBS 250700Z 24005KT 210V300 CAVOK 12/M05 Q1013 NOSIG=
201903250730 METAR LRBS 250730Z 24004KT 210V290 CAVOK 12/M05 Q1013 NOSIG=
201903250800 METAR LRBS 250800Z 25006KT 220V280 CAVOK 14/M04 Q1013 NOSIG=
201903250830 METAR LRBS 250830Z 23004KT 180V290 CAVOK 14/M04 Q1012 NOSIG=
201903250900 METAR COR LRBS 250900Z 26005KT 230V350 CAVOK 16/M04 Q1012
                        NOSIG=
201903250930 METAR LRBS 250930Z 25006KT 200V300 CAVOK 18/M04 Q1011 NOSIG=
201903251000 METAR LRBS 251000Z 23008KT 190V300 CAVOK 18/M04 Q1011 NOSIG=
201903251030 METAR COR LRBS 251030Z 24008KT 200V290 CAVOK 19/M04 Q1010
                        NOSIG=
201903251100 METAR LRBS 251100Z 24011KT 210V270 CAVOK 20/M04 Q1010 NOSIG=
201903251130 METAR LRBS 251130Z 25009KT 190V320 CAVOK 20/M05 Q1009 NOSIG=
201903251200 METAR LRBS 251200Z 25011KT 220V280 CAVOK 21/M06 Q1008 NOSIG=
201903251230 METAR LRBS 251230Z 23011KT 190V270 CAVOK 22/M05 Q1008 NOSIG=
201903251300 METAR LRBS 251300Z 24011KT 210V270 CAVOK 22/M07 Q1007 NOSIG=
201903251330 METAR LRBS 251330Z 26011KT 210V320 CAVOK 22/M07 Q1007 NOSIG=
201903251400 METAR LRBS 251400Z 25010KT 210V300 CAVOK 22/M07 Q1007 NOSIG=
201903251430 METAR LRBS 251430Z 26008KT 230V320 CAVOK 22/M07 Q1006 NOSIG=
201903251500 METAR LRBS 251500Z 25010KT 220V310 CAVOK 22/M06 Q1006 NOSIG=
201903251530 METAR LRBS 251530Z 25007KT 220V280 CAVOK 22/M06 Q1006 NOSIG=
201903251600 METAR LRBS 251600Z 24008KT CAVOK 21/M05 Q1006 NOSIG=
201903251630 METAR LRBS 251630Z 25004KT CAVOK 20/M05 Q1006 NOSIG=
201903251700 METAR LRBS 251700Z 23003KT CAVOK 19/M04 Q1006 NOSIG=
201903251730 METAR LRBS 251730Z 00000KT CAVOK 18/M04 Q1006 NOSIG=
201903251800 METAR LRBS 251800Z 00000KT CAVOK 17/M04 Q1006 NOSIG=
201903251830 METAR COR LRBS 251830Z 00000KT CAVOK 15/M03 Q1006 NOSIG=
201903251900 METAR LRBS 251900Z 00000KT CAVOK 15/M03 Q1006 NOSIG=
201903251930 METAR LRBS 251930Z 01006KT 340V070 CAVOK 15/M04 Q1007 NOSIG=
201903252000 METAR LRBS 252000Z 03005KT 360V070 CAVOK 15/M02 Q1007 NOSIG=
201903252030 METAR LRBS 252030Z 04005KT 360V090 CAVOK 15/M01 Q1007 NOSIG=
201903252100 METAR LRBS 252100Z 04005KT 360V090 CAVOK 14/M00 Q1007 NOSIG=
201903252130 METAR LRBS 252130Z 06004KT 360V090 CAVOK 13/M00 Q1007 NOSIG=
201903252200 METAR LRBS 252200Z 05007KT 360V110 CAVOK 13/M00 Q1008 NOSIG=
201903252230 METAR LRBS 252230Z 06007KT 020V110 CAVOK 12/02 Q1008 NOSIG=
201903252300 METAR COR LRBS 252300Z 07010KT 030V110 CAVOK 11/03 Q1008
                        NOSIG=
201903252330 METAR LRBS 252330Z 08009KT 040V110 CAVOK 10/03 Q1008 NOSIG=
201903260000 METAR COR LRBS 260000Z 07010KT 340V110 CAVOK 09/03 Q1009
                        NOSIG=
201903260030 METAR LRBS 260030Z 06010KT 020V100 CAVOK 09/03 Q1009 NOSIG=
201903260100 METAR LRBS 260100Z 07010KT 020V110 CAVOK 08/02 Q1009 NOSIG=
201903260130 METAR LRBS 260130Z 06008KT 030V100 CAVOK 08/02 Q1009 NOSIG=
201903260200 METAR LRBS 260200Z 07008KT 030V120 9999 NCD 07/02 Q1010 NOSIG=
201903260230 METAR LRBS 260230Z 07009KT 030V100 CAVOK 07/01 Q1010 NOSIG=
201903260300 METAR LRBS 260300Z 07009KT 040V100 CAVOK 07/01 Q1010 NOSIG=
201903260330 METAR LRBS 260330Z 06009KT 020V100 CAVOK 07/01 Q1010 NOSIG=
201903260400 METAR LRBS 260400Z 04010KT 360V060 CAVOK 08/00 Q1011 NOSIG=
201903260430 METAR LRBS 260430Z 04011KT CAVOK 08/00 Q1011 NOSIG=
201903260500 METAR LRBS 260500Z 05010KT 020V080 CAVOK 08/00 Q1011 NOSIG=
201903260530 METAR LRBS 260530Z 05006KT 010V080 CAVOK 08/00 Q1012 NOSIG=
201903260600 METAR LRBS 260600Z 06008KT 020V080 CAVOK 08/01 Q1012 NOSIG=
201903260630 METAR LRBS 260630Z 05010KT 010V080 CAVOK 09/01 Q1013 NOSIG=
201903260700 METAR LRBS 260700Z 03010KT 350V070 CAVOK 10/01 Q1013 TEMPO
                        SCT035CB=
201903260730 METAR LRBS 260730Z 05013KT 010V070 CAVOK 10/00 Q1014 TEMPO
                        SCT035CB=
201903260800 METAR LRBS 260800Z 05012KT 010V070 CAVOK 11/00 Q1014 TEMPO
                        SCT035CB=
201903260830 METAR LRBS 260830Z 05011KT 010V090 CAVOK 11/00 Q1014 TEMPO
                        SCT035CB=
201903260900 METAR LRBS 260900Z 05011KT 020V090 9999 FEW040CB 11/00 Q1014
                        NOSIG=
201903260930 METAR LRBS 260930Z 06015KT 010V100 9999 FEW050CB 12/01 Q1014
                        NOSIG=
201903261000 METAR LRBS 261000Z 06012KT 030V100 9999 FEW050CB 13/01 Q1015
                        NOSIG=
201903261030 METAR LRBS 261030Z 05010KT 020V090 9999 FEW050CB 12/01 Q1015
                        NOSIG=
201903261100 METAR LRBS 261100Z 06009KT 9999 -SHRA FEW050CB 11/02 Q1015
                        NOSIG=
201903261130 METAR LRBS 261130Z 04009KT 360V070 9999 -SHRA FEW040CB BKN048
                        09/04 Q1016 R07/19//95 NOSIG=
201903261200 METAR LRBS 261200Z 06008KT 9999 -SHRA FEW040CB 08/04 Q1016
                        R07/29//95 NOSIG=
201903261230 METAR LRBS 261230Z 07007KT 9999 -SHRA FEW016 FEW040CB BKN045
                        08/05 Q1016 R07/29//95 NOSIG=
201903261300 METAR LRBS 261300Z 08008KT 9000 -SHRA FEW010 FEW040CB OVC045
                        07/05 Q1017 R07/29//95 NOSIG=
201903261330 METAR LRBS 261330Z 08006KT 9000 -SHRA SCT008 BKN035 FEW040CB
                        07/05 Q1017 R07/29//95 NOSIG=
201903261400 METAR LRBS 261400Z 08008KT 9999 FEW007 SCT009 BKN048 07/05
                        Q1017 R07/29//95 NOSIG=
201903261430 METAR LRBS 261430Z 07009KT 9999 -DZ SCT009 BKN038 07/04 Q1018
                        R07/29//95 NOSIG=
201903261500 METAR LRBS 261500Z 08008KT 9999 -DZ FEW010 BKN039 06/04 Q1018
                        R07/29//95 NOSIG=
201903261530 METAR LRBS 261530Z 07006KT 9999 -RA OVC048 06/04 Q1018 R07/29//95
                        NOSIG=
201903261600 METAR LRBS 261600Z 09006KT 9999 -RA NSC 06/04 Q1018 R07/29//95
                        NOSIG=
201903261630 METAR LRBS 261630Z 08004KT 9999 -RA BKN041 06/04 Q1019 R07/29//95
                        NOSIG=
201903261700 METAR LRBS 261700Z 09003KT 9999 -RA BKN048 06/04 Q1019 R07/29//95
                        NOSIG=
201903261730 METAR LRBS 261730Z 04002KT 9999 -RA SCT037 OVC048 06/04 Q1019
                        R07/29//95 NOSIG=
201903261800 METAR LRBS 261800Z 00000KT 9999 -RA BKN038 06/04 Q1019 R07/29//95
                        NOSIG=
201903261830 METAR LRBS 261830Z 00000KT 9999 -RA NSC 06/04 Q1019 R07/29//95
                        NOSIG=
201903261900 METAR LRBS 261900Z VRB01KT 9999 -RA BKN047 07/04 Q1019 R07/29//95
                        NOSIG=
201903261930 METAR LRBS 261930Z 14003KT 110V170 9999 -RA NSC 07/04 Q1019
                        R07/29//95 NOSIG=
201903262000 METAR LRBS 262000Z VRB02KT 9999 SCT048 07/04 Q1019 R07/29//95
                        NOSIG=
201903262030 METAR LRBS 262030Z 04002KT 8000 NSC 06/04 Q1020 R07/29//95
                        NOSIG=
201903262100 METAR LRBS 262100Z 00000KT 8000 NSC 06/05 Q1020 R07/29//95
                        NOSIG=
201903262130 METAR LRBS 262130Z 00000KT 8000 NSC 06/05 Q1020 R07/29//95
                        BECMG 5000 BR=
201903262200 METAR COR LRBS 262200Z 27004KT 6000 NSC 06/05 Q1020 R07/29//95
                        BECMG 5000 BR=
201903262230 METAR LRBS 262230Z 27004KT 5000 BR NSC 06/05 Q1020 R07/29//95
                        BECMG 3000 BR=
201903262300 METAR LRBS 262300Z 28003KT 4000 BR NSC 06/05 Q1020 R07/29//95
                        NOSIG=
201903262330 METAR LRBS 262330Z 31003KT 280V340 4000 BR NSC 06/05 Q1020
                        R07/29//95 NOSIG=
201903270000 METAR COR LRBS 270000Z 28003KT 250V310 3000 BR NSC 05/04
                        Q1020 R07/29//95 NOSIG=
201903270030 METAR LRBS 270030Z 27003KT 240V300 3000 BR NSC 05/04 Q1020
                        R07/29//95 NOSIG=
201903270100 METAR LRBS 270100Z 28002KT 2000 BR NSC 04/04 Q1020 R07/29//95
                        BECMG 1500 BR=
201903270130 METAR LRBS 270130Z 25002KT 2000 BR NSC 04/03 Q1020 R07/29//95
                        BECMG 1500 BR=
201903270200 METAR COR LRBS 270200Z 26004KT 3000 BR NSC 03/03 Q1020 R07/29//95
                        BECMG 1500 BR=
201903270230 METAR LRBS 270230Z 26003KT 3500 BR NSC 04/03 Q1020 R07/29//95
                        NOSIG=
201903270300 METAR LRBS 270300Z 25004KT 4000 BR NSC 04/03 Q1020 R07/29//95
                        NOSIG=
201903270330 METAR LRBS 270330Z 21003KT 5000 BR NSC 04/03 Q1020 R07/29//95
                        NOSIG=
201903270400 METAR LRBS 270400Z 23003KT 5000 BR NSC 04/03 Q1020 R07/29//95
                        NOSIG=
201903270430 METAR LRBS 270430Z 28002KT 4000 BR NSC 04/03 Q1020 R07/29//95
                        NOSIG=
201903270500 METAR LRBS 270500Z 27002KT 4000 MIFG BR NSC 04/03 Q1021 R07/29//95
                        NOSIG=
201903270530 METAR LRBS 270530Z VRB02KT 5000 BR NSC 05/04 Q1021 R07/29//95
                        NOSIG=
201903270600 METAR LRBS 270600Z 27003KT 240V300 6000 NSC 06/05 Q1021 R07/29//95
                        NOSIG=
201903270630 METAR LRBS 270630Z 27005KT 230V330 8000 NSC 07/05 Q1021 R07/29//95
                        NOSIG=
201903270700 METAR LRBS 270700Z 28006KT 250V320 CAVOK 07/04 Q1021 R07/29//95
                        NOSIG=
201903270730 METAR LRBS 270730Z 29006KT 240V360 CAVOK 09/03 Q1021 R07/29//95
                        NOSIG=
201903270800 METAR LRBS 270800Z 30005KT 230V020 CAVOK 10/02 Q1021 R07/CLRD//
                        NOSIG=
201903270830 METAR LRBS 270830Z VRB03KT CAVOK 11/01 Q1022 NOSIG=
201903270900 METAR LRBS 270900Z VRB02KT CAVOK 11/M01 Q1022 NOSIG=
201903270930 METAR LRBS 270930Z 25004KT 200V340 CAVOK 12/M02 Q1022 NOSIG=
201903271000 METAR LRBS 271000Z VRB02KT CAVOK 12/M02 Q1022 NOSIG=
201903271030 METAR LRBS 271030Z VRB03KT CAVOK 13/M05 Q1022 NOSIG=
201903271100 METAR LRBS 271100Z VRB04KT CAVOK 13/M04 Q1022 NOSIG=
201903271130 METAR LRBS 271130Z 36003KT CAVOK 14/M05 Q1021 NOSIG=
201903271200 METAR LRBS 271200Z VRB02KT 9999 FEW011 14/M06 Q1021 NOSIG=
201903271230 METAR LRBS 271230Z VRB02KT 9999 FEW011 14/M06 Q1021 NOSIG=
201903271300 METAR LRBS 271300Z 30005KT 230V040 CAVOK 14/M07 Q1021 NOSIG=
201903271330 METAR LRBS 271330Z 03007KT 350V090 CAVOK 14/M06 Q1022 NOSIG=
201903271400 METAR LRBS 271400Z 03004KT 320V100 CAVOK 14/M07 Q1022 NOSIG=
201903271430 METAR LRBS 271430Z 32003KT 270V020 CAVOK 13/M07 Q1022 NOSIG=
201903271500 METAR LRBS 271500Z VRB04KT CAVOK 14/M08 Q1022 NOSIG=
201903271530 METAR COR LRBS 271530Z 05011KT 360V070 CAVOK 13/M09 Q1022
                        NOSIG=
201903271600 METAR LRBS 271600Z 04008KT CAVOK 12/M09 Q1023 NOSIG=
201903271630 METAR LRBS 271630Z 06010KT 020V080 CAVOK 10/M05 Q1023 NOSIG=
201903271700 METAR LRBS 271700Z 06009KT CAVOK 10/M05 Q1024 NOSIG=
201903271730 METAR LRBS 271730Z 07010KT CAVOK 10/M05 Q1025 NOSIG=
201903271800 METAR LRBS 271800Z 06015KT CAVOK 08/M06 Q1026 NOSIG=
201903271830 METAR LRBS 271830Z 06012KT CAVOK 08/M07 Q1026 NOSIG=
201903271900 METAR LRBS 271900Z 06012KT CAVOK 07/M07 Q1027 NOSIG=
201903271930 METAR LRBS 271930Z 07016KT 040V100 CAVOK 07/M07 Q1027 NOSIG=
201903272000 METAR LRBS 272000Z 07014KT CAVOK 06/M07 Q1027 NOSIG=
201903272030 METAR LRBS 272030Z 08012KT CAVOK 06/M07 Q1027 NOSIG=
201903272100 METAR LRBS 272100Z 07011KT 050V100 CAVOK 05/M07 Q1028 NOSIG=
201903272130 METAR LRBS 272130Z 08008KT CAVOK 05/M07 Q1028 NOSIG=
201903272200 METAR LRBS 272200Z 10008KT 070V130 CAVOK 05/M06 Q1029 NOSIG=
201903272230 METAR LRBS 272230Z 10008KT 070V130 CAVOK 05/M06 Q1029 NOSIG=
201903272300 METAR LRBS 272300Z 10007KT CAVOK 04/M06 Q1029 NOSIG=
201903272330 METAR LRBS 272330Z 10006KT CAVOK 04/M06 Q1029 NOSIG=
201903280000 METAR LRBS 280000Z 10005KT CAVOK 03/M05 Q1029 NOSIG=
201903280030 METAR LRBS 280030Z 09004KT 040V120 CAVOK 03/M05 Q1029 NOSIG=
201903280100 METAR LRBS 280100Z 07003KT CAVOK 02/M05 Q1029 NOSIG=
201903280130 METAR COR LRBS 280130Z 08003KT 040V110 CAVOK 02/M06 Q1029
                        NOSIG=
201903280200 METAR LRBS 280200Z 03003KT 360V070 CAVOK 02/M05 Q1029 NOSIG=
201903280230 METAR LRBS 280230Z VRB02KT CAVOK 02/M05 Q1029 NOSIG=
201903280300 METAR LRBS 280300Z 00000KT CAVOK 01/M05 Q1029 NOSIG=
201903280330 METAR LRBS 280330Z 00000KT CAVOK 00/M05 Q1030 NOSIG=
201903280400 METAR LRBS 280400Z 00000KT CAVOK M01/M05 Q1030 NOSIG=
201903280430 METAR LRBS 280430Z 00000KT CAVOK M00/M05 Q1030 NOSIG=
201903280500 METAR LRBS 280500Z 00000KT CAVOK 02/M05 Q1030 NOSIG=
201903280530 METAR LRBS 280530Z 00000KT CAVOK 03/M04 Q1030 NOSIG=
201903280600 METAR LRBS 280600Z VRB01KT CAVOK 05/M04 Q1030 NOSIG=
201903280630 METAR LRBS 280630Z VRB01KT CAVOK 06/M05 Q1030 NOSIG=
201903280700 METAR LRBS 280700Z VRB01KT CAVOK 07/M06 Q1030 NOSIG=
201903280730 METAR LRBS 280730Z 10003KT 010V180 CAVOK 07/M09 Q1031 NOSIG=
201903280800 METAR LRBS 280800Z 10007KT 050V150 CAVOK 08/M08 Q1030 NOSIG=
201903280830 METAR LRBS 280830Z 09007KT 060V120 CAVOK 09/M08 Q1030 NOSIG=
201903280900 METAR LRBS 280900Z 13005KT 060V230 CAVOK 09/M08 Q1030 NOSIG=
201903280930 METAR LRBS 280930Z VRB03KT CAVOK 10/M08 Q1030 NOSIG=
201903281000 METAR LRBS 281000Z 15004KT 090V260 CAVOK 10/M08 Q1029 NOSIG=
201903281030 METAR LRBS 281030Z 02004KT 310V080 CAVOK 11/M08 Q1029 NOSIG=
201903281100 METAR LRBS 281100Z 18003KT 110V260 CAVOK 12/M08 Q1029 NOSIG=
201903281130 METAR LRBS 281130Z VRB04KT CAVOK 12/M09 Q1028 NOSIG=
201903281200 METAR LRBS 281200Z 19004KT 130V280 CAVOK 12/M08 Q1028 NOSIG=
201903281230 METAR LRBS 281230Z VRB03KT CAVOK 12/M09 Q1028 NOSIG=
201903281300 METAR LRBS 281300Z VRB02KT CAVOK 13/M10 Q1028 NOSIG=
201903281330 METAR LRBS 281330Z VRB04KT CAVOK 12/M10 Q1027 NOSIG=
201903281400 METAR LRBS 281400Z VRB03KT CAVOK 13/M09 Q1027 NOSIG=
201903281430 METAR COR LRBS 281430Z VRB02KT CAVOK 13/M09 Q1027 NOSIG=
201903281500 METAR LRBS 281500Z 28004KT 230V350 CAVOK 12/M09 Q1026 NOSIG=
201903281530 METAR LRBS 281530Z 27003KT 240V310 CAVOK 12/M09 Q1026 NOSIG=
201903281600 METAR LRBS 281600Z VRB02KT CAVOK 12/M09 Q1026 NOSIG=
201903281630 METAR LRBS 281630Z VRB02KT CAVOK 12/M09 Q1026 NOSIG=
201903281700 METAR LRBS 281700Z VRB01KT CAVOK 11/M09 Q1026 NOSIG=
201903281730 METAR LRBS 281730Z 20005KT CAVOK 10/M08 Q1027 NOSIG=
201903281800 METAR LRBS 281800Z 19003KT 160V220 CAVOK 10/M08 Q1027 NOSIG=
201903281830 METAR LRBS 281830Z VRB01KT CAVOK 10/M08 Q1027 NOSIG=
201903281900 METAR LRBS 281900Z 00000KT CAVOK 09/M08 Q1027 NOSIG=
201903281930 METAR LRBS 281930Z 00000KT CAVOK 09/M08 Q1027 NOSIG=
201903282000 METAR LRBS 282000Z 00000KT CAVOK 08/M07 Q1028 NOSIG=
201903282030 METAR LRBS 282030Z 25003KT CAVOK 08/M07 Q1028 NOSIG=
201903282100 METAR LRBS 282100Z VRB02KT CAVOK 06/M06 Q1028 NOSIG=
201903282130 METAR LRBS 282130Z VRB02KT CAVOK 05/M06 Q1028 NOSIG=
201903282200 METAR LRBS 282200Z 29002KT CAVOK 05/M06 Q1028 NOSIG=
201903282230 METAR LRBS 282230Z VRB01KT CAVOK 05/M05 Q1028 NOSIG=
201903282300 METAR LRBS 282300Z 05005KT 360V090 CAVOK 05/M06 Q1028 NOSIG=
201903282330 METAR LRBS 282330Z VRB01KT CAVOK 04/M05 Q1028 NOSIG=
201903290000 METAR LRBS 290000Z VRB01KT CAVOK 04/M06 Q1028 NOSIG=
201903290030 METAR LRBS 290030Z 04004KT CAVOK 04/M06 Q1028 NOSIG=
201903290100 METAR LRBS 290100Z 06005KT 020V090 CAVOK 04/M04 Q1028 NOSIG=
201903290130 METAR LRBS 290130Z 07006KT 040V100 CAVOK 06/M02 Q1028 NOSIG=
201903290200 METAR LRBS 290200Z 07006KT 030V110 CAVOK 07/M01 Q1028 NOSIG=
201903290230 METAR COR LRBS 290230Z 07007KT 030V100 9999 OVC085 07/M01
                        Q1028 NOSIG=
201903290300 METAR LRBS 290300Z 07006KT 040V100 CAVOK 06/M01 Q1029 NOSIG=
201903290330 METAR LRBS 290330Z 07004KT 040V110 CAVOK 06/M01 Q1029 NOSIG=
201903290400 METAR LRBS 290400Z 06006KT CAVOK 06/M01 Q1029 NOSIG=
201903290430 METAR LRBS 290430Z 05006KT 020V090 CAVOK 06/M02 Q1029 NOSIG=
201903290500 METAR LRBS 290500Z 06007KT CAVOK 06/M02 Q1029 NOSIG=
201903290530 METAR LRBS 290530Z 06008KT 020V090 CAVOK 07/M01 Q1029 NOSIG=
201903290600 METAR LRBS 290600Z 06010KT 020V090 CAVOK 07/M01 Q1030 NOSIG=
201903290630 METAR LRBS 290630Z 06012KT CAVOK 07/M00 Q1030 NOSIG=
201903290700 METAR LRBS 290700Z 06012KT CAVOK 07/M01 Q1030 NOSIG=
201903290730 METAR LRBS 290730Z 06014KT CAVOK 07/M02 Q1030 NOSIG=
201903290800 METAR LRBS 290800Z 07014KT CAVOK 09/M02 Q1029 NOSIG=
201903290830 METAR LRBS 290830Z 07016KT 020V100 CAVOK 09/M02 Q1029 NOSIG=
201903290900 METAR LRBS 290900Z 07014KT 030V100 CAVOK 10/M02 Q1029 NOSIG=
201903290930 METAR LRBS 290930Z 04012KT 340V070 9999 FEW040 10/M02 Q1029
                        NOSIG=
201903291000 METAR LRBS 291000Z 05012KT 360V090 9999 FEW046 11/M02 Q1029
                        NOSIG=
201903291030 METAR LRBS 291030Z 06011KT 010V100 9999 SCT045 11/M02 Q1029
                        NOSIG=
201903291100 METAR LRBS 291100Z 06012KT 020V090 9999 SCT045 11/M02 Q1029
                        NOSIG=
201903291130 METAR LRBS 291130Z 06011KT 010V090 9999 SCT045 12/M02 Q1029
                        NOSIG=
201903291200 METAR LRBS 291200Z 06010KT 330V100 9999 FEW046 12/M02 Q1028
                        NOSIG=
201903291230 METAR LRBS 291230Z 06012KT 020V090 9999 FEW048 11/M03 Q1028
                        NOSIG=
201903291300 METAR LRBS 291300Z 07011KT 030V100 9999 FEW049 11/M03 Q1027
                        NOSIG=
201903291330 METAR LRBS 291330Z 05010KT 350V100 CAVOK 12/M03 Q1027 NOSIG=
201903291400 METAR LRBS 291400Z 06009KT 350V100 CAVOK 12/M04 Q1027 NOSIG=
201903291430 METAR LRBS 291430Z 07009KT 040V100 CAVOK 11/M04 Q1027 NOSIG=
201903291500 METAR LRBS 291500Z 06009KT 030V090 CAVOK 11/M04 Q1027 NOSIG=
201903291530 METAR LRBS 291530Z 06008KT 020V100 CAVOK 11/M04 Q1026 NOSIG=
201903291600 METAR LRBS 291600Z 07008KT 030V100 CAVOK 10/M05 Q1026 NOSIG=
201903291630 METAR LRBS 291630Z 06006KT CAVOK 08/M05 Q1026 NOSIG=
201903291700 METAR LRBS 291700Z 08005KT CAVOK 07/M05 Q1026 NOSIG=
201903291730 METAR LRBS 291730Z 07003KT CAVOK 07/M05 Q1027 NOSIG=
201903291800 METAR LRBS 291800Z 07003KT CAVOK 06/M05 Q1027 NOSIG=
201903291830 METAR LRBS 291830Z 06002KT CAVOK 06/M05 Q1027=
201903291900 METAR LRBS 291900Z 05003KT CAVOK 04/M04 Q1027 NOSIG=
201903291930 METAR LRBS 291930Z 00000KT CAVOK 05/M04 Q1027 NOSIG=
201903292000 METAR LRBS 292000Z 07003KT CAVOK 05/M04 Q1027 NOSIG=
201903292030 METAR LRBS 292030Z 09001KT CAVOK 05/M04 Q1027 NOSIG=
201903292100 METAR LRBS 292100Z 00000KT CAVOK 05/M04 Q1027 NOSIG=
201903292130 METAR LRBS 292130Z 00000KT CAVOK 04/M04 Q1027 NOSIG=
201903292200 METAR LRBS 292200Z 00000KT CAVOK 04/M03 Q1027 NOSIG=
201903292230 METAR LRBS 292230Z 31002KT CAVOK 04/M03 Q1027 NOSIG=
201903292300 METAR LRBS 292300Z 29002KT CAVOK 04/M03 Q1027 NOSIG=
201903292330 METAR LRBS 292330Z 00000KT CAVOK 04/M03 Q1027 NOSIG=
201903300000 METAR LRBS 300000Z 29002KT CAVOK 03/M03 Q1026 NOSIG=
201903300030 METAR LRBS 300030Z 28001KT CAVOK 03/M03 Q1026 NOSIG=
201903300100 METAR LRBS 300100Z 26002KT CAVOK 03/M03 Q1026 NOSIG=
201903300130 METAR LRBS 300130Z 29002KT CAVOK 03/M03 Q1026 NOSIG=
201903300200 METAR LRBS 300200Z 28003KT 9999 FEW058 03/M03 Q1026 NOSIG=
201903300230 METAR LRBS 300230Z 27003KT CAVOK 03/M03 Q1026 NOSIG=
201903300300 METAR LRBS 300300Z VRB02KT CAVOK 03/M03 Q1026 NOSIG=
201903300330 METAR LRBS 300330Z VRB02KT CAVOK 03/M03 Q1026=
201903300400 METAR LRBS 300400Z 30004KT 270V360 CAVOK 03/M03 Q1026 NOSIG=
201903300430 METAR LRBS 300430Z 30004KT 240V340 CAVOK 04/M03 Q1026 NOSIG=
201903300500 METAR LRBS 300500Z 30005KT CAVOK 04/M04 Q1026 NOSIG=
201903300530 METAR LRBS 300530Z 31005KT CAVOK 04/M03 Q1026 NOSIG=
201903300600 METAR LRBS 300600Z 31003KT 270V360 CAVOK 04/M04 Q1026 NOSIG=
201903300630 METAR LRBS 300630Z 31007KT 280V340 9000 NSC 07/M03 Q1026
                        NOSIG=
201903300700 METAR LRBS 300700Z 31007KT 280V350 CAVOK 09/M03 Q1026 NOSIG=
201903300730 METAR LRBS 300730Z 31007KT 270V010 CAVOK 11/M02 Q1026 NOSIG=
201903300800 METAR LRBS 300800Z 32004KT 250V040 CAVOK 13/M02 Q1026 NOSIG=
201903300830 METAR LRBS 300830Z 05008KT 350V110 CAVOK 13/M01 Q1026 NOSIG=
201903300900 METAR LRBS 300900Z 05007KT 350V110 CAVOK 13/M00 Q1025 NOSIG=
201903300930 METAR LRBS 300930Z 01005KT 300V080 9999 FEW048 14/M00 Q1025
                        NOSIG=
201903301000 METAR LRBS 301000Z VRB05KT 9999 FEW049 14/M00 Q1025 NOSIG=
201903301030 METAR LRBS 301030Z VRB04KT CAVOK 15/M01 Q1025 NOSIG=
201903301100 METAR LRBS 301100Z VRB04KT CAVOK 15/M01 Q1024 NOSIG=
201903301130 METAR LRBS 301130Z 05005KT 360V100 CAVOK 16/M01 Q1024 NOSIG=
201903301200 METAR LRBS 301200Z 07005KT 350V140 CAVOK 16/M01 Q1024 NOSIG=
201903301230 METAR LRBS 301230Z 02004KT 280V090 CAVOK 17/M01 Q1023 NOSIG=
201903301300 METAR LRBS 301300Z 05006KT 010V120 CAVOK 16/M01 Q1023 NOSIG=
201903301330 METAR LRBS 301330Z VRB06KT CAVOK 17/M01 Q1023 NOSIG=
201903301400 METAR LRBS 301400Z 05004KT 320V130 CAVOK 17/M01 Q1022 NOSIG=
201903301430 METAR LRBS 301430Z 06005KT 010V100 CAVOK 16/M01 Q1022 NOSIG=
201903301500 METAR LRBS 301500Z 05005KT 010V080 CAVOK 16/M01 Q1022 NOSIG=
201903301530 METAR LRBS 301530Z 06005KT 020V090 CAVOK 16/M01 Q1022 NOSIG=
201903301600 METAR LRBS 301600Z 07004KT CAVOK 15/01 Q1022 NOSIG=
201903301630 METAR LRBS 301630Z 09005KT CAVOK 14/00 Q1022 NOSIG=
201903301700 METAR LRBS 301700Z 10003KT CAVOK 12/00 Q1022 NOSIG=
201903301730 METAR LRBS 301730Z 08001KT CAVOK 12/01 Q1022 NOSIG=
201903301800 METAR LRBS 301800Z 09001KT CAVOK 11/01 Q1022 NOSIG=
201903301830 METAR LRBS 301830Z 00000KT CAVOK 11/01 Q1023 NOSIG=
201903301900 METAR LRBS 301900Z 00000KT CAVOK 11/01 Q1023 NOSIG=
201903301930 METAR LRBS 301930Z 00000KT CAVOK 10/01 Q1023 NOSIG=
201903302000 METAR LRBS 302000Z 26002KT CAVOK 10/02 Q1023 NOSIG=
201903302030 METAR LRBS 302030Z VRB01KT CAVOK 08/01 Q1023 NOSIG=
201903302100 METAR LRBS 302100Z 00000KT CAVOK 08/01 Q1023 NOSIG=
201903302130 METAR LRBS 302130Z 00000KT CAVOK 06/01 Q1022 NOSIG=
201903302200 METAR LRBS 302200Z 31002KT CAVOK 06/01 Q1022 NOSIG=
201903302230 METAR LRBS 302230Z 31002KT CAVOK 06/01 Q1022 NOSIG=
201903302300 METAR LRBS 302300Z AUTO 30001KT 9999 NCD 05/01 Q1022 NOSIG=
201903302330 METAR COR LRBS 302330Z 31002KT CAVOK 05/01 Q1022 NOSIG=
201903310000 METAR LRBS 310000Z 31003KT CAVOK 05/01 Q1021 NOSIG=
201903310030 METAR LRBS 310030Z 29002KT CAVOK 06/01 Q1021 NOSIG=
201903310100 METAR LRBS 310100Z 30003KT CAVOK 05/01 Q1021 NOSIG=
201903310130 METAR LRBS 310130Z 30003KT CAVOK 05/00 Q1021 NOSIG=
201903310200 METAR LRBS 310200Z 27003KT CAVOK 05/00 Q1020 NOSIG=
201903310230 METAR LRBS 310230Z 29003KT CAVOK 05/M00 Q1020 NOSIG=
201903310300 METAR LRBS 310300Z 29002KT CAVOK 05/M00 Q1020 NOSIG=
201903310330 METAR LRBS 310330Z 29002KT CAVOK 04/M00 Q1020 NOSIG=
201903310400 METAR LRBS 310400Z 29003KT CAVOK 04/M00 Q1020 NOSIG=
201903310430 METAR LRBS 310430Z 28001KT CAVOK 04/M00 Q1020 NOSIG=
201903310500 METAR LRBS 310500Z 00000KT CAVOK 06/M00 Q1020 NOSIG=
201903310530 METAR LRBS 310530Z VRB01KT CAVOK 06/01 Q1020 NOSIG=
201903310600 METAR LRBS 310600Z VRB02KT CAVOK 07/02 Q1020 NOSIG=
201903310630 METAR LRBS 310630Z VRB01KT CAVOK 09/02 Q1020 NOSIG=
201903310700 METAR LRBS 310700Z VRB02KT CAVOK 10/02 Q1020 NOSIG=
201903310730 METAR LRBS 310730Z VRB02KT CAVOK 12/02 Q1020 NOSIG=
201903310800 METAR COR LRBS 310800Z VRB02KT CAVOK 13/01 Q1020 NOSIG=
201903310830 METAR COR LRBS 310830Z VRB02KT CAVOK 15/02 Q1019 NOSIG=
201903310900 METAR LRBS 310900Z VRB02KT CAVOK 16/00 Q1019 NOSIG=
201903310930 METAR COR LRBS 310930Z VRB02KT CAVOK 16/01 Q1019 NOSIG=
201903311000 METAR LRBS 311000Z VRB03KT CAVOK 17/M00 Q1019 NOSIG=
201903311030 METAR LRBS 311030Z 20004KT 140V270 CAVOK 17/M00 Q1018 NOSIG=
201903311100 METAR LRBS 311100Z VRB03KT CAVOK 18/M00 Q1018 NOSIG=
201903311130 METAR LRBS 311130Z 22005KT 160V270 CAVOK 18/M01 Q1017 NOSIG=
201903311200 METAR COR LRBS 311200Z VRB02KT CAVOK 19/M01 Q1017 NOSIG=
201903311230 METAR LRBS 311230Z VRB02KT CAVOK 19/M02 Q1017 NOSIG=
201903311300 METAR LRBS 311300Z VRB04KT CAVOK 19/M01 Q1016 NOSIG=
201903311330 METAR LRBS 311330Z 05003KT 360V140 CAVOK 19/M01 Q1016=
201903311400 METAR LRBS 311400Z VRB02KT CAVOK 19/M02 Q1015 NOSIG=
201903311430 METAR LRBS 311430Z 09004KT 040V140 CAVOK 19/M02 Q1015 NOSIG=
201903311500 METAR LRBS 311500Z 05005KT 010V080 CAVOK 19/M02 Q1015 NOSIG=
201903311530 METAR LRBS 311530Z 07004KT 040V100 CAVOK 19/M01 Q1015 NOSIG=
201903311600 METAR LRBS 311600Z 06003KT CAVOK 18/M00 Q1015 NOSIG=
201903311630 METAR LRBS 311630Z 04003KT CAVOK 16/M01 Q1015 NOSIG=
201903311700 METAR LRBS 311700Z 06002KT CAVOK 15/M01 Q1015 NOSIG=
201903311730 METAR LRBS 311730Z 07001KT CAVOK 15/M01 Q1015 NOSIG=
201903311800 METAR LRBS 311800Z 05002KT CAVOK 13/00 Q1015 NOSIG=
201903311830 METAR LRBS 311830Z 00000KT CAVOK 12/00 Q1015 NOSIG=
201903311900 METAR LRBS 311900Z VRB02KT CAVOK 12/01 Q1015 NOSIG=
201903311930 METAR LRBS 311930Z 31001KT 9000 NSC 11/01 Q1015 NOSIG=
201903312000 METAR LRBS 312000Z 00000KT CAVOK 10/01 Q1015 NOSIG=
201903312030 METAR LRBS 312030Z 27001KT CAVOK 10/01 Q1015 NOSIG=
201903312100 METAR LRBS 312100Z 00000KT CAVOK 09/01 Q1015 NOSIG=
201903312130 METAR LRBS 312130Z 00000KT CAVOK 08/01 Q1015 NOSIG=
201903312200 METAR LRBS 312200Z 00000KT CAVOK 07/01 Q1015 NOSIG=
201903312230 METAR LRBS 312230Z VRB01KT CAVOK 07/01 Q1015 NOSIG=
201903312300 METAR LRBS 312300Z 00000KT CAVOK 08/01 Q1015 NOSIG=
201903312330 METAR LRBS 312330Z 00000KT CAVOK 07/01 Q1015 NOSIG=
