201904010000 METAR LRBS 010000Z 00000KT CAVOK 06/01 Q1015 NOSIG=
201904010030 METAR LRBS 010030Z 00000KT CAVOK 06/01 Q1015 NOSIG=
201904010100 METAR LRBS 010100Z 00000KT 8000 NSC 06/01 Q1015 NOSIG=
201904010130 METAR LRBS 010130Z VRB02KT 8000 NSC 06/01 Q1015 NOSIG=
201904010200 METAR LRBS 010200Z 31002KT 8000 NSC 05/01 Q1015 NOSIG=
201904010230 METAR LRBS 010230Z 30001KT 8000 NSC 05/01 Q1015 NOSIG=
201904010300 METAR LRBS 010300Z VRB02KT 8000 NSC 06/01 Q1015 NOSIG=
201904010330 METAR LRBS 010330Z VRB01KT 8000 MIFG NSC 05/01 Q1015 NOSIG=
201904010400 METAR COR LRBS 010400Z VRB01KT CAVOK 06/01 Q1015 NOSIG=
201904010430 METAR LRBS 010430Z VRB01KT CAVOK 06/01 Q1015 NOSIG=
201904010500 METAR LRBS 010500Z 00000KT CAVOK 07/01 Q1016 NOSIG=
201904010530 METAR LRBS 010530Z 10003KT 060V120 CAVOK 08/02 Q1016 NOSIG=
201904010600 METAR LRBS 010600Z VRB02KT CAVOK 09/03 Q1016 NOSIG=
201904010630 METAR LRBS 010630Z VRB02KT CAVOK 11/03 Q1016 NOSIG=
201904010700 METAR LRBS 010700Z VRB02KT CAVOK 13/02 Q1016 NOSIG=
201904010730 METAR LRBS 010730Z VRB01KT CAVOK 15/02 Q1016 NOSIG=
201904010800 METAR LRBS 010800Z VRB04KT CAVOK 17/01 Q1017 NOSIG=
201904010830 METAR LRBS 010830Z 06006KT 020V100 CAVOK 18/01 Q1016 NOSIG=
201904010900 METAR LRBS 010900Z 04006KT 310V110 CAVOK 19/01 Q1016 NOSIG=
201904010930 METAR LRBS 010930Z 06008KT 010V130 CAVOK 19/01 Q1016 NOSIG=
201904011000 METAR LRBS 011000Z 06010G20KT 010V130 CAVOK 21/01 Q1016 NOSIG=
201904011030 METAR LRBS 011030Z 07010KT 030V100 CAVOK 21/01 Q1015 NOSIG=
201904011100 METAR LRBS 011100Z 06013G23KT 360V090 CAVOK 22/M01 Q1015
                        NOSIG=
201904011130 METAR LRBS 011130Z 05013KT 350V090 CAVOK 22/M02 Q1015 NOSIG=
201904011200 METAR LRBS 011200Z 04014KT 350V090 CAVOK 23/M02 Q1015 NOSIG=
201904011230 METAR LRBS 011230Z 06015KT 020V090 CAVOK 22/M02 Q1015 NOSIG=
201904011300 METAR LRBS 011300Z 06016KT CAVOK 22/M02 Q1014 NOSIG=
201904011330 METAR LRBS 011330Z 05015KT 010V080 CAVOK 22/M01 Q1014 NOSIG=
201904011400 METAR LRBS 011400Z 05016KT 020V080 CAVOK 21/M01 Q1014 NOSIG=
201904011430 METAR LRBS 011430Z 06015KT 020V090 CAVOK 21/M01 Q1014 NOSIG=
201904011500 METAR LRBS 011500Z 05016KT 020V090 CAVOK 20/M01 Q1014 NOSIG=
201904011530 METAR COR LRBS 011530Z 05012KT 360V090 CAVOK 20/M01 Q1015
                        NOSIG=
201904011600 METAR LRBS 011600Z 05012KT 010V080 CAVOK 19/M01 Q1015 NOSIG=
201904011630 METAR LRBS 011630Z 05015KT 010V070 CAVOK 18/M00 Q1015 NOSIG=
201904011700 METAR LRBS 011700Z 04013KT 010V070 CAVOK 17/M01 Q1016 NOSIG=
201904011730 METAR LRBS 011730Z 04014KT 360V080 CAVOK 17/M00 Q1016 NOSIG=
201904011800 METAR LRBS 011800Z 05011KT 020V080 CAVOK 16/00 Q1016 NOSIG=
201904011830 METAR LRBS 011830Z 04013KT 010V070 CAVOK 15/00 Q1017 NOSIG=
201904011900 METAR LRBS 011900Z 04014KT 010V070 CAVOK 14/00 Q1017 NOSIG=
201904011930 METAR LRBS 011930Z 04012KT 010V070 CAVOK 14/M00 Q1018 NOSIG=
201904012000 METAR LRBS 012000Z 04012KT 010V080 CAVOK 13/M01 Q1018 NOSIG=
201904012030 METAR LRBS 012030Z 04013G23KT 010V070 CAVOK 13/M01 Q1018
                        NOSIG=
201904012100 METAR LRBS 012100Z 04013KT CAVOK 12/M01 Q1019 NOSIG=
201904012130 METAR LRBS 012130Z 04014KT 360V070 CAVOK 12/M01 Q1019 NOSIG=
201904012200 METAR LRBS 012200Z 04014KT 360V070 CAVOK 12/M03 Q1019 NOSIG=
201904012230 METAR LRBS 012230Z 05014KT 010V070 CAVOK 11/M06 Q1019 NOSIG=
201904012300 METAR LRBS 012300Z 05014KT 020V080 CAVOK 11/M07 Q1019 NOSIG=
201904012330 METAR LRBS 012330Z 04013KT 010V090 CAVOK 11/M07 Q1020 NOSIG=
201904020000 METAR LRBS 020000Z 04013KT 010V080 CAVOK 11/M08 Q1020 NOSIG=
201904020030 METAR LRBS 020030Z 04013KT 360V070 CAVOK 11/M07 Q1020 NOSIG=
201904020100 METAR COR LRBS 020100Z 05012KT 010V090 CAVOK 11/M07 Q1021
                        NOSIG=
201904020130 METAR LRBS 020130Z 05013KT 010V090 CAVOK 11/M08 Q1021 NOSIG=
201904020200 METAR LRBS 020200Z 05015KT 020V100 CAVOK 11/M07 Q1021 NOSIG=
201904020230 METAR LRBS 020230Z 06015G26KT 030V090 CAVOK 10/M07 Q1021
                        NOSIG=
201904020300 METAR COR LRBS 020300Z 06016KT 020V090 CAVOK 10/M07 Q1022
                        NOSIG=
201904020330 METAR LRBS 020330Z 06018KT 030V090 CAVOK 10/M07 Q1022 NOSIG=
201904020400 METAR LRBS 020400Z 06017KT CAVOK 09/M08 Q1022 NOSIG=
201904020430 METAR LRBS 020430Z 06015KT CAVOK 09/M08 Q1023 NOSIG=
201904020500 METAR LRBS 020500Z 05016G26KT 010V080 CAVOK 08/M09 Q1023
                        NOSIG=
201904020530 METAR LRBS 020530Z 06015KT 040V100 CAVOK 08/M11 Q1023 NOSIG=
201904020600 METAR LRBS 020600Z 05015KT 010V100 CAVOK 08/M11 Q1024 NOSIG=
201904020630 METAR LRBS 020630Z 06016KT 020V090 CAVOK 09/M11 Q1024 NOSIG=
201904020700 METAR LRBS 020700Z 06017KT 020V080 CAVOK 09/M11 Q1024 NOSIG=
201904020730 METAR LRBS 020730Z 06017KT CAVOK 09/M10 Q1024 NOSIG=
201904020800 METAR LRBS 020800Z 06014KT 020V090 CAVOK 09/M10 Q1025 NOSIG=
201904020830 METAR LRBS 020830Z 06016KT CAVOK 09/M11 Q1024 NOSIG=
201904020900 METAR LRBS 020900Z 06018KT CAVOK 10/M11 Q1024 NOSIG=
201904020930 METAR LRBS 020930Z 06018KT 020V090 CAVOK 10/M11 Q1024 NOSIG=
201904021000 METAR LRBS 021000Z 06017KT 010V090 CAVOK 10/M10 Q1024 NOSIG=
201904021030 METAR COR LRBS 021030Z 06016KT 020V090 CAVOK 11/M10 Q1024
                        NOSIG=
201904021100 METAR LRBS 021100Z 06017KT CAVOK 10/M09 Q1024 NOSIG=
201904021130 METAR LRBS 021130Z 06016KT 040V100 CAVOK 11/M10 Q1024 NOSIG=
201904021200 METAR LRBS 021200Z 07015KT 030V090 9999 FEW045CB 12/M08 Q1024
                        NOSIG=
201904021230 METAR LRBS 021230Z 05014KT 020V090 9999 FEW050CB 11/M09 Q1024
                        NOSIG=
201904021300 METAR LRBS 021300Z 05010KT 020V090 CAVOK 11/M08 Q1023 NOSIG=
201904021330 METAR LRBS 021330Z 06011KT 010V090 CAVOK 11/M08 Q1023 NOSIG=
201904021400 METAR LRBS 021400Z 06009KT 020V100 CAVOK 12/M08 Q1023 NOSIG=
201904021430 METAR LRBS 021430Z 05009KT 020V090 CAVOK 12/M09 Q1023 NOSIG=
201904021500 METAR COR LRBS 021500Z 06009KT 010V080 CAVOK 12/M09 Q1022
                        NOSIG=
201904021530 METAR LRBS 021530Z 06009KT CAVOK 11/M09 Q1022 NOSIG=
201904021600 METAR LRBS 021600Z 06009KT CAVOK 11/M10 Q1022 NOSIG=
201904021630 METAR LRBS 021630Z 06007KT CAVOK 08/M09 Q1022 NOSIG=
201904021700 METAR LRBS 021700Z 06005KT CAVOK 08/M10 Q1022 NOSIG=
201904021730 METAR LRBS 021730Z 05004KT CAVOK 08/M10 Q1023 NOSIG=
201904021800 METAR LRBS 021800Z 05005KT CAVOK 08/M09 Q1023 NOSIG=
201904021830 METAR LRBS 021830Z 06005KT CAVOK 07/M09 Q1023 NOSIG=
201904021900 METAR LRBS 021900Z 05004KT CAVOK 07/M10 Q1023 NOSIG=
201904021930 METAR LRBS 021930Z 05005KT CAVOK 06/M09 Q1023 NOSIG=
201904022000 METAR LRBS 022000Z 06006KT CAVOK 07/M09 Q1023 NOSIG=
201904022030 METAR LRBS 022030Z 04004KT CAVOK 07/M10 Q1023 NOSIG=
201904022100 METAR LRBS 022100Z 06006KT CAVOK 05/M09 Q1023 NOSIG=
201904022130 METAR LRBS 022130Z 06005KT CAVOK 04/M08 Q1023 NOSIG=
201904022200 METAR LRBS 022200Z 07004KT CAVOK 04/M07 Q1023 NOSIG=
201904022230 METAR LRBS 022230Z 06003KT CAVOK 05/M06 Q1023 NOSIG=
201904022300 METAR LRBS 022300Z 07002KT CAVOK 04/M06 Q1023 NOSIG=
201904022330 METAR LRBS 022330Z 07003KT CAVOK 03/M05 Q1023 NOSIG=
201904030000 METAR LRBS 030000Z 05002KT CAVOK 03/M05 Q1023 NOSIG=
201904030030 METAR LRBS 030030Z VRB02KT 9999 NCD 03/M04 Q1023 NOSIG=
201904030100 METAR LRBS 030100Z 36003KT 320V040 CAVOK 02/M04 Q1023 NOSIG=
201904030130 METAR LRBS 030130Z 05002KT CAVOK 01/M05 Q1022 NOSIG=
201904030200 METAR LRBS 030200Z 04002KT CAVOK 01/M05 Q1022 NOSIG=
201904030230 METAR LRBS 030230Z 04002KT CAVOK 01/M05 Q1022 NOSIG=
201904030300 METAR LRBS 030300Z 05001KT CAVOK 01/M04 Q1022 NOSIG=
201904030330 METAR LRBS 030330Z 07002KT CAVOK 02/M04 Q1022 NOSIG=
201904030400 METAR LRBS 030400Z 05002KT CAVOK 03/M04 Q1022 NOSIG=
201904030430 METAR LRBS 030430Z 06001KT CAVOK 03/M04 Q1022 NOSIG=
201904030500 METAR LRBS 030500Z VRB02KT CAVOK 04/M04 Q1022 NOSIG=
201904030530 METAR LRBS 030530Z 06005KT CAVOK 04/M05 Q1023 NOSIG=
201904030600 METAR LRBS 030600Z 06005KT 040V100 CAVOK 05/M07 Q1023 NOSIG=
201904030630 METAR LRBS 030630Z 06006KT CAVOK 06/M07 Q1023 NOSIG=
201904030700 METAR LRBS 030700Z 07006KT CAVOK 07/M07 Q1023 NOSIG=
201904030730 METAR LRBS 030730Z 06006KT 020V100 CAVOK 08/M07 Q1023 NOSIG=
201904030800 METAR LRBS 030800Z 06006KT 020V110 CAVOK 09/M08 Q1023 NOSIG=
201904030830 METAR LRBS 030830Z 07008KT 040V100 CAVOK 09/M08 Q1023 NOSIG=
201904030900 METAR LRBS 030900Z 07008KT 040V110 CAVOK 10/M08 Q1022 NOSIG=
201904030930 METAR LRBS 030930Z 09008KT 030V140 CAVOK 11/M09 Q1022 NOSIG=
201904031000 METAR LRBS 031000Z VRB08KT CAVOK 12/M11 Q1022 NOSIG=
201904031030 METAR LRBS 031030Z 07011KT 030V110 CAVOK 12/M10 Q1021 NOSIG=
201904031100 METAR LRBS 031100Z 07010KT 040V110 CAVOK 13/M11 Q1021 NOSIG=
201904031130 METAR LRBS 031130Z 07011KT 010V100 CAVOK 13/M11 Q1020 NOSIG=
201904031200 METAR LRBS 031200Z 08010KT 040V140 CAVOK 13/M10 Q1020 NOSIG=
201904031230 METAR LRBS 031230Z 07007KT 020V130 CAVOK 13/M11 Q1020 NOSIG=
201904031300 METAR LRBS 031300Z 08008KT 050V130 CAVOK 13/M10 Q1019 NOSIG=
201904031330 METAR LRBS 031330Z VRB06KT CAVOK 13/M09 Q1019 NOSIG=
201904031400 METAR LRBS 031400Z 08007KT 040V120 CAVOK 13/M09 Q1019 NOSIG=
201904031430 METAR LRBS 031430Z 09009KT 040V150 CAVOK 13/M10 Q1019 NOSIG=
201904031500 METAR LRBS 031500Z 10007KT 070V130 CAVOK 13/M09 Q1018 NOSIG=
201904031530 METAR LRBS 031530Z 08009KT CAVOK 13/M08 Q1018 NOSIG=
201904031600 METAR LRBS 031600Z 09007KT 060V130 CAVOK 12/M08 Q1018 NOSIG=
201904031630 METAR LRBS 031630Z 07006KT CAVOK 11/M08 Q1018 NOSIG=
201904031700 METAR LRBS 031700Z 07006KT CAVOK 11/M07 Q1018 NOSIG=
201904031730 METAR LRBS 031730Z 09012KT 060V120 CAVOK 11/M07 Q1018 NOSIG=
201904031800 METAR LRBS 031800Z 09014KT 070V130 CAVOK 10/M06 Q1019 NOSIG=
201904031830 METAR COR LRBS 031830Z 10011KT 070V130 CAVOK 10/M05 Q1019
                        NOSIG=
201904031900 METAR LRBS 031900Z 11014KT 080V140 CAVOK 09/M04 Q1019 NOSIG=
201904031930 METAR LRBS 031930Z 11013KT CAVOK 08/M03 Q1019 NOSIG=
201904032000 METAR LRBS 032000Z 11010KT 090V150 CAVOK 08/M03 Q1019 NOSIG=
201904032030 METAR LRBS 032030Z 12010KT 070V150 CAVOK 08/M04 Q1019 NOSIG=
201904032100 METAR LRBS 032100Z 12008KT 090V150 CAVOK 07/M04 Q1020 NOSIG=
201904032130 METAR LRBS 032130Z 11006KT CAVOK 07/M04 Q1020 NOSIG=
201904032200 METAR LRBS 032200Z 10006KT 070V130 CAVOK 06/M03 Q1020 NOSIG=
201904032230 METAR LRBS 032230Z 07005KT CAVOK 04/M03 Q1020 NOSIG=
201904032300 METAR LRBS 032300Z 01004KT CAVOK 05/M03 Q1020 NOSIG=
201904032330 METAR LRBS 032330Z 03003KT CAVOK 03/M02 Q1020 NOSIG=
201904040000 METAR LRBS 040000Z 03004KT 360V070 CAVOK 04/M01 Q1019 NOSIG=
201904040030 METAR LRBS 040030Z 02005KT 350V060 CAVOK 04/M01 Q1019 NOSIG=
201904040100 METAR LRBS 040100Z 02004KT CAVOK 02/M02 Q1019 NOSIG=
201904040130 METAR LRBS 040130Z 03004KT 360V060 CAVOK 02/M02 Q1018 NOSIG=
201904040200 METAR LRBS 040200Z 03004KT CAVOK 02/M02 Q1018 NOSIG=
201904040230 METAR LRBS 040230Z 05005KT 010V070 CAVOK 02/M02 Q1018 NOSIG=
201904040300 METAR LRBS 040300Z 06006KT CAVOK 01/M03 Q1018 NOSIG=
201904040330 METAR LRBS 040330Z 06005KT CAVOK 01/M03 Q1018 NOSIG=
201904040400 METAR LRBS 040400Z 06005KT CAVOK M00/M04 Q1019 NOSIG=
201904040430 METAR COR LRBS 040430Z 07005KT CAVOK 01/M03 Q1018 NOSIG=
201904040500 METAR LRBS 040500Z 06005KT CAVOK 02/M03 Q1018 NOSIG=
201904040530 METAR LRBS 040530Z 06006KT CAVOK 03/M02 Q1019 NOSIG=
201904040600 METAR LRBS 040600Z 06007KT CAVOK 04/M02 Q1018 NOSIG=
201904040630 METAR LRBS 040630Z 07008KT CAVOK 06/M02 Q1019 NOSIG=
201904040700 METAR LRBS 040700Z 09008KT 060V120 CAVOK 07/M02 Q1019 NOSIG=
201904040730 METAR LRBS 040730Z 08011KT 060V130 CAVOK 08/M02 Q1018 NOSIG=
201904040800 METAR LRBS 040800Z 08011KT 050V120 CAVOK 10/M02 Q1018 NOSIG=
201904040830 METAR COR LRBS 040830Z 07011KT 020V100 CAVOK 10/M03 Q1018
                        NOSIG=
201904040900 METAR LRBS 040900Z 09009KT 060V130 CAVOK 10/M03 Q1018 NOSIG=
201904040930 METAR LRBS 040930Z 09009KT 050V130 CAVOK 11/M04 Q1018 NOSIG=
201904041000 METAR LRBS 041000Z 08010KT 040V120 CAVOK 11/M03 Q1018 NOSIG=
201904041030 METAR LRBS 041030Z 09008KT 040V160 CAVOK 12/M04 Q1018 NOSIG=
201904041100 METAR LRBS 041100Z 07008KT 020V110 CAVOK 13/M05 Q1017 NOSIG=
201904041130 METAR COR LRBS 041130Z 09008KT 050V130 CAVOK 12/M02 Q1017
                        NOSIG=
201904041200 METAR LRBS 041200Z 06009KT 020V100 CAVOK 13/M02 Q1017 NOSIG=
201904041230 METAR LRBS 041230Z 07010KT 010V150 CAVOK 14/M04 Q1016 NOSIG=
201904041300 METAR LRBS 041300Z 06008KT 020V100 CAVOK 14/M04 Q1016 NOSIG=
201904041330 METAR LRBS 041330Z 07010KT 040V110 CAVOK 14/M04 Q1016 NOSIG=
201904041400 METAR LRBS 041400Z 09009KT 060V120 CAVOK 14/M04 Q1015 NOSIG=
201904041430 METAR LRBS 041430Z 09008KT 060V130 CAVOK 14/M04 Q1015 NOSIG=
201904041500 METAR LRBS 041500Z 07008KT 040V100 CAVOK 14/M04 Q1014 NOSIG=
201904041530 METAR LRBS 041530Z 05008KT 360V090 CAVOK 14/M04 Q1014 NOSIG=
201904041600 METAR LRBS 041600Z 06006KT CAVOK 13/M03 Q1014 NOSIG=
201904041630 METAR LRBS 041630Z 05006KT CAVOK 12/M03 Q1014 NOSIG=
201904041700 METAR LRBS 041700Z 04004KT CAVOK 11/M03 Q1014 NOSIG=
201904041730 METAR LRBS 041730Z 05006KT CAVOK 09/M02 Q1015 NOSIG=
201904041800 METAR LRBS 041800Z 08007KT CAVOK 09/M02 Q1015 NOSIG=
201904041830 METAR LRBS 041830Z 10010KT 070V130 CAVOK 10/M01 Q1015 NOSIG=
201904041900 METAR LRBS 041900Z 11010KT CAVOK 09/M00 Q1015 NOSIG=
201904041930 METAR LRBS 041930Z 10009KT CAVOK 08/M00 Q1015 NOSIG=
201904042000 METAR LRBS 042000Z 11010KT CAVOK 08/M01 Q1015 NOSIG=
201904042030 METAR LRBS 042030Z 10010KT 070V140 CAVOK 07/M00 Q1016 NOSIG=
201904042100 METAR LRBS 042100Z 09008KT CAVOK 07/M00 Q1016 NOSIG=
201904042130 METAR LRBS 042130Z 09008KT CAVOK 06/M00 Q1016 NOSIG=
201904042200 METAR LRBS 042200Z 08007KT CAVOK 05/M00 Q1016 NOSIG=
201904042230 METAR LRBS 042230Z 07006KT CAVOK 03/M01 Q1016 NOSIG=
201904042300 METAR LRBS 042300Z 05006KT 020V080 CAVOK 04/M00 Q1016 NOSIG=
201904042330 METAR LRBS 042330Z 03005KT CAVOK 04/M00 Q1016 NOSIG=
201904050000 METAR LRBS 050000Z 04006KT 010V070 CAVOK 04/00 Q1016 NOSIG=
201904050030 METAR LRBS 050030Z 04007KT 010V070 CAVOK 04/00 Q1015 NOSIG=
201904050100 METAR LRBS 050100Z 04007KT CAVOK 03/00 Q1015 NOSIG=
201904050130 METAR COR LRBS 050130Z 04008KT 9000 NSC 03/00 Q1015 NOSIG=
201904050200 METAR LRBS 050200Z 04006KT CAVOK 03/00 Q1015 NOSIG=
201904050230 METAR LRBS 050230Z 03007KT 360V060 CAVOK 03/00 Q1015 NOSIG=
201904050300 METAR LRBS 050300Z 04008KT CAVOK 03/00 Q1015 NOSIG=
201904050330 METAR LRBS 050330Z 04008KT 010V070 CAVOK 03/00 Q1015 NOSIG=
201904050400 METAR LRBS 050400Z 04007KT 360V080 CAVOK 03/M00 Q1015 NOSIG=
201904050430 METAR LRBS 050430Z 04008KT 010V070 CAVOK 03/M00 Q1015 NOSIG=
201904050500 METAR LRBS 050500Z 05008KT 020V080 CAVOK 03/00 Q1016 NOSIG=
201904050530 METAR LRBS 050530Z 06010KT 020V090 CAVOK 04/01 Q1016 NOSIG=
201904050600 METAR LRBS 050600Z 06010KT 040V080 CAVOK 05/01 Q1015 NOSIG=
201904050630 METAR LRBS 050630Z 07011KT CAVOK 06/02 Q1015 NOSIG=
201904050700 METAR LRBS 050700Z 06011KT 010V090 CAVOK 08/02 Q1015 NOSIG=
201904050730 METAR LRBS 050730Z 06009KT 020V090 9999 FEW020 09/02 Q1016
                        NOSIG=
201904050800 METAR LRBS 050800Z 06010KT 030V090 9999 FEW020 10/03 Q1016
                        NOSIG=
201904050830 METAR COR LRBS 050830Z 08012KT 040V110 9999 FEW020 11/04
                        Q1015 NOSIG=
201904050900 METAR COR LRBS 050900Z 08014KT 9999 FEW020 12/04 Q1015 NOSIG=
201904050930 METAR COR LRBS 050930Z 07012KT 020V130 CAVOK 14/05 Q1015
                        NOSIG=
201904051000 METAR LRBS 051000Z 08012KT 050V110 CAVOK 14/04 Q1015 NOSIG=
201904051030 METAR LRBS 051030Z 07011KT 030V120 CAVOK 15/04 Q1015 NOSIG=
201904051100 METAR LRBS 051100Z 08012KT 050V110 CAVOK 16/04 Q1014 NOSIG=
201904051130 METAR LRBS 051130Z 07013KT 040V100 CAVOK 16/05 Q1014 NOSIG=
201904051200 METAR LRBS 051200Z 08012KT 050V110 CAVOK 17/04 Q1013 NOSIG=
201904051230 METAR LRBS 051230Z 08014KT 050V110 CAVOK 18/05 Q1013 NOSIG=
201904051300 METAR LRBS 051300Z 08011KT 050V140 CAVOK 18/04 Q1013 NOSIG=
201904051330 METAR LRBS 051330Z 10012KT 060V130 CAVOK 18/04 Q1012 NOSIG=
201904051400 METAR LRBS 051400Z 08012KT 050V110 CAVOK 18/04 Q1012 NOSIG=
201904051430 METAR LRBS 051430Z 08013KT 060V110 CAVOK 17/04 Q1012 NOSIG=
201904051500 METAR LRBS 051500Z 08015KT 050V110 CAVOK 17/04 Q1012 NOSIG=
201904051530 METAR LRBS 051530Z 07016KT CAVOK 16/05 Q1012 NOSIG=
201904051600 METAR LRBS 051600Z 08016KT CAVOK 15/04 Q1012 NOSIG=
201904051630 METAR COR LRBS 051630Z 07013KT CAVOK 13/04 Q1012 NOSIG=
201904051700 METAR LRBS 051700Z 08014KT CAVOK 12/04 Q1012 NOSIG=
201904051730 METAR LRBS 051730Z 08014KT CAVOK 12/04 Q1013 NOSIG=
201904051800 METAR COR LRBS 051800Z 08014KT CAVOK 11/04 Q1013 NOSIG=
201904051830 METAR COR LRBS 051830Z 08013KT CAVOK 10/04 Q1013 NOSIG=
201904051900 METAR COR LRBS 051900Z 08012KT CAVOK 09/04 Q1013 NOSIG=
201904051930 METAR LRBS 051930Z 07011KT CAVOK 08/04 Q1014 NOSIG=
201904052000 METAR LRBS 052000Z 06010KT CAVOK 07/03 Q1014 NOSIG=
201904052030 METAR LRBS 052030Z 07012KT CAVOK 07/04 Q1014 NOSIG=
201904052100 METAR LRBS 052100Z 06012KT CAVOK 06/04 Q1014 NOSIG=
201904052130 METAR COR LRBS 052130Z 06010KT 9999 FEW017 06/03 Q1014 NOSIG=
201904052200 METAR LRBS 052200Z 06009KT 9999 BKN017 07/04 Q1014 NOSIG=
201904052230 METAR LRBS 052230Z 05009KT 020V090 9999 BKN017 07/04 Q1015
                        NOSIG=
201904052300 METAR COR LRBS 052300Z 06011KT 020V080 9999 OVC017 07/04
                        Q1014 NOSIG=
201904052330 METAR LRBS 052330Z 06011KT 020V080 9999 OVC017 07/04 Q1014
                        NOSIG=
201904060000 METAR LRBS 060000Z 06010KT 9999 OVC018 07/04 Q1015 NOSIG=
201904060030 METAR LRBS 060030Z 05010KT 9999 OVC017 07/04 Q1014 NOSIG=
201904060100 METAR COR LRBS 060100Z 05009KT 9999 OVC018 07/04 Q1014 NOSIG=
201904060130 METAR LRBS 060130Z 05009KT 9999 OVC018 07/04 Q1014 NOSIG=
201904060200 METAR COR LRBS 060200Z 06011KT 9999 OVC019 07/04 Q1014 NOSIG=
201904060230 METAR COR LRBS 060230Z 06010KT 9999 OVC019 07/04 Q1014 NOSIG=
201904060300 METAR LRBS 060300Z 05010KT 9999 OVC019 07/04 Q1014 NOSIG=
201904060330 METAR LRBS 060330Z 06012KT 020V090 9999 OVC019 07/03 Q1014
                        NOSIG=
201904060400 METAR LRBS 060400Z 06012KT 9999 BKN020 07/03 Q1014 NOSIG=
201904060430 METAR COR LRBS 060430Z 06012KT 9999 OVC020 07/03 Q1014 NOSIG=
201904060500 METAR LRBS 060500Z 06014KT 9999 BKN020 08/03 Q1014 NOSIG=
201904060530 METAR LRBS 060530Z 06013KT 9999 OVC021 08/03 Q1014 NOSIG=
201904060600 METAR LRBS 060600Z 06015KT 030V090 9999 OVC021 08/03 Q1014
                        NOSIG=
201904060630 METAR LRBS 060630Z 07014KT 9999 OVC022 08/03 Q1014 NOSIG=
201904060700 METAR LRBS 060700Z 07016KT 9999 OVC022 09/03 Q1015 NOSIG=
201904060730 METAR LRBS 060730Z 07015KT 9999 OVC023 09/03 Q1015 NOSIG=
201904060800 METAR LRBS 060800Z 08015KT 050V110 9999 OVC023 09/03 Q1015
                        NOSIG=
201904060830 METAR LRBS 060830Z 07015KT 9999 OVC024 09/03 Q1015 NOSIG=
201904060900 METAR LRBS 060900Z 07014KT 9999 BKN025 10/04 Q1015 NOSIG=
201904060930 METAR LRBS 060930Z 07014KT 050V110 9999 BKN025 10/03 Q1015
                        NOSIG=
201904061000 METAR LRBS 061000Z 07015KT 9999 BKN027 11/03 Q1015 NOSIG=
201904061030 METAR LRBS 061030Z 06015KT 040V100 9999 BKN027 11/04 Q1015
                        NOSIG=
201904061100 METAR LRBS 061100Z 07017KT 040V100 9999 BKN029 13/04 Q1015
                        NOSIG=
201904061130 METAR LRBS 061130Z 06016KT 010V100 9999 SCT030 13/04 Q1014
                        NOSIG=
201904061200 METAR LRBS 061200Z 07015KT 9999 SCT031 13/04 Q1014 NOSIG=
201904061230 METAR LRBS 061230Z 07014KT 050V110 9999 FEW032 13/04 Q1014
                        NOSIG=
201904061300 METAR LRBS 061300Z 06014KT 020V090 9999 FEW035 14/05 Q1013
                        NOSIG=
201904061330 METAR LRBS 061330Z 06014KT 020V080 9999 FEW035 13/04 Q1013
                        NOSIG=
201904061400 METAR LRBS 061400Z 07014KT 040V100 CAVOK 14/04 Q1013 NOSIG=
201904061430 METAR LRBS 061430Z 06013KT 040V100 CAVOK 14/04 Q1013 NOSIG=
201904061500 METAR LRBS 061500Z 07012KT CAVOK 14/04 Q1013 NOSIG=
201904061530 METAR LRBS 061530Z 07012KT CAVOK 13/04 Q1013 NOSIG=
201904061600 METAR LRBS 061600Z 06008KT CAVOK 13/04 Q1013 NOSIG=
201904061630 METAR LRBS 061630Z 06008KT CAVOK 12/05 Q1013 NOSIG=
201904061700 METAR LRBS 061700Z 06006KT CAVOK 11/04 Q1013 NOSIG=
201904061730 METAR LRBS 061730Z 06006KT CAVOK 09/03 Q1013 NOSIG=
201904061800 METAR LRBS 061800Z 07007KT CAVOK 08/04 Q1013 NOSIG=
201904061830 METAR LRBS 061830Z 07007KT CAVOK 09/04 Q1013 NOSIG=
201904061900 METAR LRBS 061900Z 07007KT CAVOK 09/04 Q1013 NOSIG=
201904061930 METAR LRBS 061930Z 08007KT CAVOK 09/04 Q1013 NOSIG=
201904062000 METAR LRBS 062000Z 07006KT CAVOK 07/04 Q1013 NOSIG=
201904062030 METAR LRBS 062030Z 06006KT CAVOK 07/03 Q1013 NOSIG=
201904062100 METAR LRBS 062100Z 06006KT CAVOK 07/03 Q1013 NOSIG=
201904062130 METAR LRBS 062130Z 06006KT CAVOK 06/03 Q1013 NOSIG=
201904062200 METAR LRBS 062200Z 06005KT CAVOK 06/03 Q1013 NOSIG=
201904062230 METAR LRBS 062230Z 05005KT CAVOK 06/03 Q1013=
201904062300 METAR LRBS 062300Z 03004KT CAVOK 06/03 Q1013 NOSIG=
201904062330 METAR LRBS 062330Z 03005KT CAVOK 06/02 Q1013 NOSIG=
201904070000 METAR LRBS 070000Z AUTO 02004KT 9999 OVC170/// 05/02 Q1012
                        NOSIG=
201904070030 METAR COR LRBS 070030Z 04004KT CAVOK 05/02 Q1012 NOSIG=
201904070100 METAR COR LRBS 070100Z 03004KT CAVOK 05/02 Q1012 NOSIG=
201904070130 METAR LRBS 070130Z 03004KT CAVOK 05/02 Q1012 NOSIG=
201904070200 METAR LRBS 070200Z 04004KT CAVOK 04/02 Q1012 NOSIG=
201904070230 METAR LRBS 070230Z 04003KT CAVOK 04/02 Q1012 NOSIG=
201904070300 METAR LRBS 070300Z 05003KT 020V080 CAVOK 05/03 Q1012 NOSIG=
201904070330 METAR LRBS 070330Z 04005KT 010V070 CAVOK 06/02 Q1011 NOSIG=
201904070400 METAR LRBS 070400Z 04006KT 010V080 9999 FEW045CB 06/02 Q1011
                        NOSIG=
201904070430 METAR LRBS 070430Z 06006KT 9999 FEW045CB 06/02 Q1011 NOSIG=
201904070500 METAR LRBS 070500Z 07005KT 9999 FEW045CB 07/02 Q1012 NOSIG=
201904070530 METAR LRBS 070530Z 08005KT CAVOK 07/02 Q1012 NOSIG=
201904070600 METAR LRBS 070600Z 07006KT CAVOK 08/02 Q1012 NOSIG=
201904070630 METAR LRBS 070630Z 08008KT CAVOK 08/02 Q1012 NOSIG=
201904070700 METAR LRBS 070700Z 07007KT CAVOK 09/03 Q1012 NOSIG=
201904070730 METAR LRBS 070730Z 06005KT 010V100 CAVOK 10/03 Q1012 NOSIG=
201904070800 METAR LRBS 070800Z 08006KT 040V110 CAVOK 11/03 Q1012 NOSIG=
201904070830 METAR LRBS 070830Z 06006KT 010V100 CAVOK 11/03 Q1012 NOSIG=
201904070900 METAR LRBS 070900Z 07008KT 030V100 9999 -SHRA FEW045CB 11/03
                        Q1012 NOSIG=
201904070930 METAR LRBS 070930Z 05008KT 9999 FEW041 12/03 Q1012 NOSIG=
201904071000 METAR LRBS 071000Z 04007KT 360V080 CAVOK 13/03 Q1011 NOSIG=
201904071030 METAR LRBS 071030Z 04006KT 360V090 CAVOK 13/03 Q1011 NOSIG=
201904071100 METAR LRBS 071100Z 07006KT 030V110 CAVOK 14/03 Q1011 NOSIG=
201904071130 METAR LRBS 071130Z 03006KT 340V060 CAVOK 14/03 Q1011 NOSIG=
201904071200 METAR LRBS 071200Z 04006KT 360V070 9999 FEW045 15/03 Q1010
                        NOSIG=
201904071230 METAR LRBS 071230Z 06007KT 020V090 CAVOK 15/03 Q1010 NOSIG=
201904071300 METAR LRBS 071300Z 05007KT 010V090 CAVOK 15/04 Q1010 NOSIG=
201904071330 METAR LRBS 071330Z 06007KT 030V090 CAVOK 15/03 Q1010 NOSIG=
201904071400 METAR LRBS 071400Z 07009KT 020V090 CAVOK 16/02 Q1010 NOSIG=
201904071430 METAR LRBS 071430Z 08006KT 050V110 9999 FEW047 16/03 Q1009
                        NOSIG=
201904071500 METAR LRBS 071500Z 08005KT CAVOK 16/03 Q1009 NOSIG=
201904071530 METAR LRBS 071530Z 07005KT CAVOK 15/03 Q1009 NOSIG=
201904071600 METAR LRBS 071600Z 05004KT CAVOK 15/03 Q1009 NOSIG=
201904071630 METAR LRBS 071630Z 00000KT CAVOK 15/03 Q1009 NOSIG=
201904071700 METAR LRBS 071700Z 00000KT CAVOK 15/03 Q1009 NOSIG=
201904071730 METAR LRBS 071730Z 00000KT CAVOK 15/04 Q1009 NOSIG=
201904071800 METAR LRBS 071800Z 00000KT CAVOK 14/04 Q1009 NOSIG=
201904071830 METAR LRBS 071830Z 29003KT CAVOK 14/05 Q1009 NOSIG=
201904071900 METAR LRBS 071900Z 27002KT CAVOK 13/05 Q1009 NOSIG=
201904071930 METAR LRBS 071930Z 26002KT CAVOK 13/05 Q1009 NOSIG=
201904072000 METAR LRBS 072000Z 28002KT CAVOK 12/05 Q1009 NOSIG=
201904072030 METAR LRBS 072030Z 25002KT CAVOK 12/06 Q1009 NOSIG=
201904072100 METAR LRBS 072100Z 00000KT CAVOK 12/05 Q1009 NOSIG=
201904072130 METAR LRBS 072130Z 00000KT CAVOK 11/05 Q1008 NOSIG=
201904072200 METAR COR LRBS 072200Z 00000KT CAVOK 10/05 Q1008 NOSIG=
201904072230 METAR LRBS 072230Z 00000KT CAVOK 11/06 Q1008 NOSIG=
201904072300 METAR LRBS 072300Z 03001KT CAVOK 10/06 Q1008 NOSIG=
201904072330 METAR LRBS 072330Z 05003KT 020V080 CAVOK 10/06 Q1008 NOSIG=
201904080000 METAR LRBS 080000Z 06003KT CAVOK 10/05 Q1007 NOSIG=
201904080030 METAR LRBS 080030Z 06004KT CAVOK 10/06 Q1007 NOSIG=
201904080100 METAR LRBS 080100Z AUTO 07004KT 9999 SCT048/// BKN097///
                        09/06 Q1007 NOSIG=
201904080130 METAR LRBS 080130Z 05003KT 9999 SCT040 09/06 Q1007 NOSIG=
201904080200 METAR LRBS 080200Z 05003KT 9999 -RA SCT039 09/07 Q1007 NOSIG=
201904080230 METAR LRBS 080230Z 04004KT 9999 -RA NSC 09/07 Q1007 NOSIG=
201904080300 METAR LRBS 080300Z 05003KT 9999 BKN047 09/07 Q1007 NOSIG=
201904080330 METAR LRBS 080330Z 04003KT 360V060 9999 -RA BKN046 09/07
                        Q1007 NOSIG=
201904080400 METAR LRBS 080400Z 04004KT 9999 -RA BKN047 09/07 Q1007 NOSIG=
201904080430 METAR LRBS 080430Z 04004KT 010V070 8000 BR BKN040 09/08 Q1007
                        NOSIG=
201904080500 METAR COR LRBS 080500Z 06006KT 030V090 8000 -RA BKN038 09/08
                        Q1007 R07/29//95 NOSIG=
201904080530 METAR LRBS 080530Z 05006KT 010V090 7000 -RA BKN025 09/08
                        Q1007 R07/29//95 NOSIG=
201904080600 METAR COR LRBS 080600Z 03006KT 8000 -RA SCT023 10/08 Q1007
                        R07/29//95 NOSIG=
201904080630 METAR COR LRBS 080630Z 04006KT 360V070 8000 FEW023 OVC040
                        10/08 Q1007 R07/29//95 NOSIG=
201904080700 METAR LRBS 080700Z 05010KT 020V090 8000 -RA FEW008 BKN020
                        10/08 Q1007 R07/29//95 NOSIG=
201904080730 METAR LRBS 080730Z 05009KT 020V080 8000 -RA BKN018 10/08
                        Q1007 R07/29//95 NOSIG=
201904080800 METAR LRBS 080800Z 05010KT 010V070 8000 BKN018 10/08 Q1007
                        R07/29//95 NOSIG=
201904080830 METAR COR LRBS 080830Z 05009KT 350V080 9999 BKN009 BKN017
                        11/09 Q1007 R07/19//95 NOSIG=
201904080900 METAR LRBS 080900Z 05010KT 010V070 9999 BKN009 11/09 Q1007
                        R07/19//95 NOSIG=
201904080930 METAR LRBS 080930Z 04010KT 010V090 9999 BKN009 11/09 Q1007
                        R07/19//95 NOSIG=
201904081000 METAR COR LRBS 081000Z 05010KT 010V080 3000 DZ BR OVC009
                        10/08 Q1007 R07/19//95 NOSIG=
201904081030 METAR LRBS 081030Z 03008KT 360V070 3000 -DZRA BR BKN005 10/09
                        Q1007 R07/19//95 NOSIG=
201904081100 METAR LRBS 081100Z 03008KT 350V070 4000 -DZ BR BKN005 10/09
                        Q1007 R07/19//95 NOSIG=
201904081130 METAR COR LRBS 081130Z 03008KT 360V060 1500 DZ BR OVC004
                        10/10 Q1006 R07/19//95 NOSIG=
201904081200 METAR COR LRBS 081200Z 03007KT 360V060 1500 DZ BR OVC004
                        10/10 Q1006 R07/29//95 NOSIG=
201904081230 METAR LRBS 081230Z 03007KT 350V060 2000 -DZ BR OVC004 11/10
                        Q1006 R07/29//95 NOSIG=
201904081300 METAR COR LRBS 081300Z 03010KT 360V070 2000 BR OVC003 11/10
                        Q1005 R07/29//95 NOSIG=
201904081330 METAR LRBS 081330Z 02010KT 360V060 2000 BR BKN003 11/11 Q1005
                        R07/29//95 NOSIG=
201904081400 METAR COR LRBS 081400Z 03009KT 350V060 3000 BR OVC004 12/11
                        Q1005 R07/29//95 NOSIG=
201904081430 METAR LRBS 081430Z 03009KT 350V060 3000 BR OVC004 12/11 Q1005
                        R07/29//95 NOSIG=
201904081500 METAR LRBS 081500Z 03008KT 360V060 3000 BR OVC005 12/11 Q1005
                        R07/29//95 NOSIG=
201904081530 METAR LRBS 081530Z 04007KT 360V060 4000 BR OVC005 12/11 Q1005
                        R07/29//95 NOSIG=
201904081600 METAR LRBS 081600Z 03009KT 360V070 4000 BR OVC005 12/11 Q1005
                        R07/29//95 NOSIG=
201904081630 METAR LRBS 081630Z 03010KT 360V070 4000 BR OVC005 12/11 Q1005
                        R07/29//95 NOSIG=
201904081700 METAR LRBS 081700Z 04009KT 360V060 4000 BR BKN005 OVC036
                        12/11 Q1005 R07/29//95 NOSIG=
201904081730 METAR LRBS 081730Z 03010KT 360V070 3500 BR BKN005 OVC036
                        12/11 Q1005 R07/29//95 NOSIG=
201904081800 METAR LRBS 081800Z 04011KT 010V070 4000 BR OVC005 11/11 Q1005
                        R07/29//95 NOSIG=
201904081830 METAR LRBS 081830Z 04012KT 010V070 4000 BR OVC004 11/11 Q1005
                        RMK WS R07 R07/29//95 NOSIG=
201904081900 METAR LRBS 081900Z 04011KT 010V070 3500 BR OVC004 11/11 Q1005
                        WS R07 R07/29//95 NOSIG=
201904081930 METAR LRBS 081930Z 04010KT 010V080 3500 BR OVC004 11/11 Q1005
                        WS R07 R07/19//95 NOSIG=
201904082000 METAR LRBS 082000Z 05010KT 020V090 3500 BR OVC005 11/11 Q1005
                        WS R07 R07/19//95 NOSIG=
201904082030 METAR LRBS 082030Z 05010KT 020V080 3500 BR OVC005 11/11 Q1005
                        WS R07 R07/19//95 NOSIG=
201904082100 METAR LRBS 082100Z 05010KT 3500 BR BKN005 OVC007 11/10 Q1005
                        R07/19//95 NOSIG=
201904082130 METAR LRBS 082130Z 05010KT 020V090 3500 BR OVC006 11/10 Q1005
                        R07/19//95 NOSIG=
201904082200 METAR LRBS 082200Z 06010KT 3500 BR OVC006 11/10 Q1005 R07/19//95
                        NOSIG=
201904082230 METAR LRBS 082230Z 06010KT 020V090 4000 BR OVC006 11/09 Q1005
                        R07/19//95 NOSIG=
201904082300 METAR LRBS 082300Z 06011KT 030V090 2700 BR BKN003 OVC006
                        10/09 Q1005 R07/19//95 NOSIG=
201904082330 METAR LRBS 082330Z 05010KT 030V090 2000 BR OVC002 10/09 Q1005
                        R07/19//95 NOSIG=
201904090000 METAR LRBS 090000Z 06009KT 030V090 2500 BR OVC002 10/09 Q1005
                        R07/19//95 TEMPO 1500 BR=
201904090030 METAR LRBS 090030Z 05010KT 020V090 2500 BR OVC002 10/09 Q1004
                        R07/19//95 TEMPO 5000 BKN005=
201904090100 METAR LRBS 090100Z 06009KT 2700 BR FEW002 OVC003 10/09 Q1004
                        R07/19//95 TEMPO 5000=
201904090130 METAR LRBS 090130Z 05008KT 020V080 5000 BR FEW003 OVC008
                        10/09 Q1004 R07/19//95 NOSIG=
201904090200 METAR LRBS 090200Z 05009KT 4000 BR BKN005 OVC014 10/09 Q1004
                        R07/19//95 NOSIG=
201904090230 METAR LRBS 090230Z 03008KT 350V080 4000 BR FEW003 BKN005
                        OVC017 10/09 Q1004 R07/19//95 NOSIG=
201904090300 METAR COR LRBS 090300Z 03006KT 360V070 5000 BR FEW005 BKN017
                        09/09 Q1004 R07/19//95 BECMG 7000
                        NSW=
201904090330 METAR LRBS 090330Z 04005KT 020V080 6000 FEW018 09/08 Q1004
                        R07/19//95 NOSIG=
201904090400 METAR LRBS 090400Z 05008KT 360V070 7000 NSC 09/08 Q1004 R07/19//95
                        NOSIG=
201904090430 METAR LRBS 090430Z 05008KT 9000 NSC 09/08 Q1004 R07/19//95
                        NOSIG=
201904090500 METAR LRBS 090500Z 05011KT 010V080 CAVOK 09/07 Q1004 R07/19//95
                        NOSIG=
201904090530 METAR LRBS 090530Z 05011KT 9999 FEW035 10/07 Q1004 R07/19//95
                        NOSIG=
201904090600 METAR LRBS 090600Z 05011KT 020V090 9999 SCT032 10/06 Q1004
                        R07/19//95 NOSIG=
201904090630 METAR LRBS 090630Z 05013KT 010V080 9999 SCT032 11/06 Q1004
                        R07/19//95 NOSIG=
201904090700 METAR LRBS 090700Z 05013KT 020V090 9999 FEW035 11/06 Q1004
                        R07/19//95 NOSIG=
201904090730 METAR LRBS 090730Z 05015KT 020V090 9999 -SHRA FEW048CB 11/07
                        Q1004 R07/19//95 NOSIG=
201904090800 METAR LRBS 090800Z 04012KT 010V070 9999 FEW044 11/08 Q1004
                        R07/19//95 NOSIG=
201904090830 METAR LRBS 090830Z 05012KT 010V070 CAVOK 12/07 Q1004 R07/19//95
                        NOSIG=
201904090900 METAR LRBS 090900Z 04011KT 010V070 CAVOK 12/08 Q1004 R07/19//95
                        NOSIG=
201904090930 METAR LRBS 090930Z 04010KT 010V070 CAVOK 14/07 Q1004 R07/19//95
                        NOSIG=
201904091000 METAR LRBS 091000Z 05013KT 010V090 CAVOK 15/08 Q1004 R07/19//95
                        NOSIG=
201904091030 METAR LRBS 091030Z 05014KT 010V090 CAVOK 16/08 Q1004 R07/19//95
                        NOSIG=
201904091100 METAR LRBS 091100Z 05014KT 020V080 CAVOK 16/08 Q1004 R07/CLRD//
                        NOSIG=
201904091130 METAR LRBS 091130Z 05014KT 020V080 9999 FEW040CB 16/07 Q1003
                        NOSIG=
201904091200 METAR LRBS 091200Z 05012KT 010V080 9999 FEW040CB 16/08 Q1003
                        TEMPO 5000 -SHRA=
201904091230 METAR LRBS 091230Z 05013KT 010V090 9999 -SHRA FEW040CB 16/08
                        Q1003 TEMPO 5000 -SHRA=
201904091300 METAR LRBS 091300Z 05011KT 020V080 9999 -SHRA SCT050CB 15/08
                        Q1003 TEMPO 5000 -SHRA=
201904091330 METAR LRBS 091330Z 05010KT 9999 -SHRA SCT050CB 14/08 Q1004
                        R07/29//95 TEMPO 5000 -SHRA=
201904091400 METAR LRBS 091400Z 04010KT 350V080 9999 -SHRA SCT050CB 13/09
                        Q1003 R07/29//95 TEMPO 5000 -SHRA=
201904091430 METAR LRBS 091430Z 02009KT 350V050 9999 -RA NSC 13/09 Q1003
                        R07/29//95 NOSIG=
201904091500 METAR LRBS 091500Z 01007KT 340V070 9999 -RA NSC 13/09 Q1003
                        R07/29//95 NOSIG=
201904091530 METAR LRBS 091530Z 01004KT 320V060 9999 -RA NSC 13/09 Q1003
                        R07/29//95 NOSIG=
201904091600 METAR LRBS 091600Z 03003KT 350V090 CAVOK 13/09 Q1003 R07/29//95
                        NOSIG=
201904091630 METAR LRBS 091630Z 03006KT 360V070 CAVOK 14/08 Q1003 R07/29//95
                        NOSIG=
201904091700 METAR LRBS 091700Z 03006KT 360V060 CAVOK 14/08 Q1004 R07/29//95
                        NOSIG=
201904091730 METAR LRBS 091730Z 03004KT 360V060 CAVOK 14/08 Q1004 R07/29//95
                        NOSIG=
201904091800 METAR LRBS 091800Z 02004KT 350V050 CAVOK 14/07 Q1004 R07/29//95
                        NOSIG=
201904091830 METAR LRBS 091830Z 01006KT 340V040 CAVOK 14/07 Q1004 R07/29//95
                        NOSIG=
201904091900 METAR LRBS 091900Z 01005KT 340V040 CAVOK 13/07 Q1004 R07/29//95
                        NOSIG=
201904091930 METAR LRBS 091930Z 01004KT 340V060 CAVOK 14/07 Q1004 R07/29//95
                        NOSIG=
201904092000 METAR LRBS 092000Z 03004KT CAVOK 14/07 Q1004 R07/29//95 NOSIG=
201904092030 METAR LRBS 092030Z 03004KT 360V060 CAVOK 13/07 Q1004 R07/29//95=
201904092100 METAR LRBS 092100Z 03005KT 010V070 CAVOK 13/06 Q1004 R07/19//95
                        NOSIG=
201904092130 METAR LRBS 092130Z 03005KT 360V060 CAVOK 13/06 Q1004 R07/19//95
                        NOSIG=
201904092200 METAR LRBS 092200Z 09004KT 070V130 CAVOK 11/07 Q1005 R07/19//95
                        NOSIG=
201904092230 METAR LRBS 092230Z 08004KT CAVOK 11/07 Q1005 R07/19//95 NOSIG=
201904092300 METAR LRBS 092300Z 06004KT CAVOK 09/06 Q1004 R07/19//95 NOSIG=
201904092330 METAR LRBS 092330Z 05004KT CAVOK 09/06 Q1004 R07/19//95 NOSIG=
201904100000 METAR LRBS 100000Z 04004KT CAVOK 10/07 Q1004 R07/19//95 NOSIG=
201904100030 METAR LRBS 100030Z 01003KT CAVOK 09/07 Q1004 R07/19//95 NOSIG=
201904100100 METAR LRBS 100100Z 36003KT 320V040 CAVOK 09/07 Q1004 R07/19//95
                        NOSIG=
201904100130 METAR LRBS 100130Z 36003KT 320V040 CAVOK 09/07 Q1004 R07/19//95
                        NOSIG=
201904100200 METAR LRBS 100200Z 01002KT 320V060 CAVOK 08/06 Q1004 R07/19//95
                        NOSIG=
201904100230 METAR LRBS 100230Z 01002KT 320V060 CAVOK 08/06 Q1004 R07/19//95
                        NOSIG=
201904100300 METAR LRBS 100300Z 00000KT CAVOK 08/07 Q1004 R07/19//95 NOSIG=
201904100330 METAR LRBS 100330Z 05002KT CAVOK 08/07 Q1004 R07/19//95 NOSIG=
201904100400 METAR LRBS 100400Z 06002KT 9999 MIFG NSC 08/07 Q1004 R07/19//95
                        NOSIG=
201904100430 METAR LRBS 100430Z 05001KT 9999 MIFG NSC 08/07 Q1005 R07/19//95
                        NOSIG=
201904100500 METAR LRBS 100500Z 00000KT 9999 MIFG NSC 08/07 Q1005 R07/19//95
                        NOSIG=
201904100530 METAR LRBS 100530Z VRB01KT CAVOK 10/07 Q1005 R07/19//95 NOSIG=
201904100600 METAR LRBS 100600Z 10001KT CAVOK 10/08 Q1005 R07/19//95 NOSIG=
201904100630 METAR LRBS 100630Z 07002KT 040V100 CAVOK 10/08 Q1006 R07/19//95
                        NOSIG=
201904100700 METAR LRBS 100700Z 10002KT 060V150 CAVOK 12/08 Q1006 R07/19//95
                        NOSIG=
201904100730 METAR LRBS 100730Z VRB04KT CAVOK 12/08 Q1006 R07/19//95 NOSIG=
201904100800 METAR LRBS 100800Z 10004KT 070V140 CAVOK 13/08 Q1006 R07/19//95
                        NOSIG=
201904100830 METAR LRBS 100830Z 09004KT 040V130 9999 -RA NSC 13/08 Q1006
                        R07/19//95 NOSIG=
201904100900 METAR LRBS 100900Z 09006KT 050V140 CAVOK 15/09 Q1006 R07/19//95
                        NOSIG=
201904100930 METAR COR LRBS 100930Z 10006KT 050V140 9999 FEW027 15/09
                        Q1006 R07/19//95 NOSIG=
201904101000 METAR LRBS 101000Z 11004KT 060V140 CAVOK 15/09 Q1006 R07/19//95
                        NOSIG=
201904101030 METAR LRBS 101030Z 11003KT 060V180 CAVOK 15/08 Q1006 R07/19//95
                        NOSIG=
201904101100 METAR LRBS 101100Z 12003KT 090V170 CAVOK 15/09 Q1006 R07/19//95
                        NOSIG=
201904101130 METAR LRBS 101130Z VRB02KT CAVOK 17/09 Q1006 R07/19//95 NOSIG=
201904101200 METAR LRBS 101200Z VRB03KT CAVOK 17/09 Q1006 R07/19//95 NOSIG=
201904101230 METAR LRBS 101230Z 13003KT 060V180 9999 FEW038 17/09 Q1006
                        R07/19//95 NOSIG=
201904101300 METAR LRBS 101300Z 14007KT 100V180 9999 FEW037 17/09 Q1006
                        R07/19//95 NOSIG=
201904101330 METAR LRBS 101330Z 14006KT 110V190 9999 -SHRA FEW050CB 16/09
                        Q1005 R07/19//95 TEMPO 5000 SHRA=
201904101400 METAR LRBS 101400Z VRB01KT 9999 -SHRA FEW050CB 16/10 Q1006
                        R07/19//95 TEMPO 5000 SHRA=
201904101430 METAR LRBS 101430Z 00000KT 9999 FEW050CB 16/10 Q1006 R07/19//95
                        NOSIG=
201904101500 METAR LRBS 101500Z 00000KT 9999 FEW050CB 15/10 Q1006 R07/19//95
                        NOSIG=
201904101530 METAR COR LRBS 101530Z 06001KT 9999 -SHRA FEW050CB 15/11
                        Q1006 R07/29//95 NOSIG=
201904101600 METAR LRBS 101600Z VRB01KT 9999 -RA NSC 14/11 Q1006 R07/29//95
                        NOSIG=
201904101630 METAR LRBS 101630Z 32003KT CAVOK 14/11 Q1006 R07/29//95 NOSIG=
201904101700 METAR LRBS 101700Z 35003KT 320V020 9999 FEW049 14/09 Q1006
                        R07/29//95 NOSIG=
201904101730 METAR LRBS 101730Z 03002KT 9999 -RA FEW049 13/09 Q1007 R07/29//95
                        NOSIG=
201904101800 METAR LRBS 101800Z 35003KT 320V020 9999 -RA NSC 13/09 Q1006
                        R07/29//95 NOSIG=
201904101830 METAR COR LRBS 101830Z 07004KT 030V090 CAVOK 11/09 Q1007
                        R07/29//95 NOSIG=
201904101900 METAR LRBS 101900Z 11003KT CAVOK 10/09 Q1007 R07/29//95 NOSIG=
201904101930 METAR LRBS 101930Z 03002KT 350V090 CAVOK 12/09 Q1007 R07/29//95
                        NOSIG=
201904102000 METAR COR LRBS 102000Z 00000KT 7000 R25/1300U MIFG NSC 11/10
                        Q1007 R07/29//95 NOSIG=
201904102030 METAR LRBS 102030Z 00000KT 7000 MIFG NSC 10/09 Q1007 R07/29//95
                        NOSIG=
201904102100 METAR LRBS 102100Z 00000KT 6000 MIFG NSC 10/10 Q1007 R07/29//95
                        NOSIG=
201904102130 METAR LRBS 102130Z 00000KT 5000 BR NSC 09/09 Q1007 R07/29//95
                        NOSIG=
201904102200 METAR LRBS 102200Z 00000KT 4000 BR FEW042 10/09 Q1007 R07/29//95
                        NOSIG=
201904102230 METAR LRBS 102230Z 00000KT 4100 BR SCT040 10/09 Q1007 R07/29//95
                        NOSIG=
201904102300 METAR COR LRBS 102300Z 05001KT 5000 BR BKN037 11/09 Q1007
                        R07/29//95 NOSIG=
201904102330 METAR LRBS 102330Z 06001KT 6000 BKN038 10/09 Q1007 R07/29//95
                        NOSIG=
201904110000 METAR LRBS 110000Z 02004KT 6000 BKN034 11/09 Q1007 R07/29//95
                        NOSIG=
201904110030 METAR LRBS 110030Z 03003KT 6000 -RA BKN037 10/09 Q1007 R07/29//95
                        NOSIG=
201904110100 METAR LRBS 110100Z 09002KT 6000 -RA BR FEW043 10/10 Q1007
                        R07/29//95 NOSIG=
201904110130 METAR LRBS 110130Z 08002KT 3500 -RA BR OVC049 10/10 Q1006
                        R07/29//95 TEMPO 1500 -RA BR=
201904110200 METAR LRBS 110200Z 07003KT 3500 -RA BR NSC 10/10 Q1006 R07/29//95
                        TEMPO 1500 -RA BR=
201904110230 METAR LRBS 110230Z 03002KT 360V060 2600 -RA BR SCT003 10/10
                        Q1006 R07/29//95 TEMPO 1500 -RA BR=
201904110300 METAR COR LRBS 110300Z 01002KT 2000 -RA BR OVC003 11/11 Q1006
                        R07/29//95 TEMPO 1500 -RA BR=
201904110330 METAR LRBS 110330Z 03003KT 360V060 2200 -RA BR BKN003 11/11
                        Q1006 R07/29//95 TEMPO 5000=
201904110400 METAR LRBS 110400Z 04004KT 010V070 1300 R07/P2000 R25/1800N
                        -RA BR FEW001 BKN002 11/11 Q1006
                        R07/29//95 TEMPO 5000=
201904110430 METAR LRBS 110430Z 05004KT 020V090 2800 -RA BR BKN002 BKN014
                        11/10 Q1006 R07/29//95 BECMG 5000=
201904110500 METAR LRBS 110500Z 06004KT 3500 -RA BR BKN002 BKN019 OVC037
                        11/10 Q1007 R07/29//95 BECMG 5000
                        BKN005 BKN020=
201904110530 METAR LRBS 110530Z 06004KT 3000 -RADZ BR BKN002 OVC019 11/10
                        Q1007 R07/29//95 BECMG 5000 BKN005
                        BKN020=
201904110600 METAR LRBS 110600Z 05003KT 020V080 3000 -RA BR BKN003 BKN014
                        11/11 Q1007 R07/29//95 BECMG 5000
                        BKN010 BKN030=
201904110630 METAR LRBS 110630Z 04003KT 360V070 3500 -RA BR BKN003 BKN012
                        11/11 Q1007 R07/29//95 BECMG 5000
                        BKN010 BKN030=
201904110700 METAR LRBS 110700Z 06004KT 020V090 4000 -RA BR OVC003 11/11
                        Q1007 R07/29//95 BECMG 5000 BKN010
                        BKN030=
201904110730 METAR LRBS 110730Z 06005KT 020V080 4500 -RA BR BKN005 BKN019
                        12/11 Q1007 R07/29//95 BECMG 5000
                        BKN010 BKN030=
201904110800 METAR LRBS 110800Z 06006KT 020V090 5000 -RA BR FEW005 BKN008
                        OVC021 11/11 Q1007 R07/29//95 BECMG
                        7000 NSW BKN030=
201904110830 METAR LRBS 110830Z 05005KT 360V070 3200 RA BR BKN005 OVC019
                        11/11 Q1007 R07/29//95 NOSIG=
201904110900 METAR LRBS 110900Z 05008KT 4500 -RA BR SCT005 SCT010 BKN020
                        11/11 Q1007 R07/29//95 NOSIG=
201904110930 METAR LRBS 110930Z 05008KT 010V090 6000 -RA BKN005 BKN014
                        OVC025 12/11 Q1007 R07/29//95 NOSIG=
201904111000 METAR LRBS 111000Z 06009KT 7000 -RA BKN005 OVC022 11/11 Q1007
                        R07/29//95 NOSIG=
201904111030 METAR LRBS 111030Z 05009KT 010V080 8000 -RA OVC005 11/10
                        Q1007 R07/29//95 NOSIG=
201904111100 METAR LRBS 111100Z 06011KT 7000 -RA BKN005 BKN014 OVC025
                        11/10 Q1007 R07/29//95 NOSIG=
201904111130 METAR LRBS 111130Z 06011KT 020V080 8000 -RA BKN006 OVC017
                        12/10 Q1007 R07/29//95 BECMG SCT015
                        SCT030CB BKN040=
201904111200 METAR LRBS 111200Z 07010KT 9000 BKN008 BKN014 12/10 Q1007
                        R07/29//95 BECMG SCT015 SCT030CB
                        BKN040=
201904111230 METAR LRBS 111230Z 07010KT 040V100 9999 BKN009 BKN017 13/11
                        Q1007 R07/29//95 BECMG SCT015 SCT030CB
                        BKN040=
201904111300 METAR LRBS 111300Z 07009KT 9999 -SHRA BKN008 FEW030CB 13/10
                        Q1007 R07/29//95 BECMG SCT015 SCT030CB
                        BKN040=
201904111330 METAR LRBS 111330Z 06009KT 020V090 6000 -SHRA BKN010 SCT030CB
                        OVC040 12/11 Q1007 R07/29//95 NOSIG=
201904111400 METAR LRBS 111400Z 06008KT 030V090 7000 -SHRA BKN007 FEW030CB
                        OVC042 12/11 Q1007 RESHRA R07/29//95
                        NOSIG=
201904111430 METAR LRBS 111430Z 05009KT 010V070 7000 -SHRA FEW009 SCT014
                        FEW030CB OVC042 12/11 Q1007 R07/29//95
                        NOSIG=
201904111500 METAR LRBS 111500Z 05007KT 020V090 7000 -SHRA SCT010 SCT030CB
                        OVC043 12/11 Q1007 R07/29//95 NOSIG=
201904111530 METAR LRBS 111530Z 07005KT 5000 -SHRA BR FEW009 SCT018 SCT030CB
                        OVC043 12/11 Q1008 RESHRA R07/29//95
                        NOSIG=
201904111600 METAR LRBS 111600Z 05004KT 7000 -SHRA FEW007 BKN037 FEW045CB
                        12/11 Q1008 R07/29//95 NOSIG=
201904111630 METAR LRBS 111630Z 03005KT 360V060 5000 -SHRA BR BKN036 SCT045CB
                        11/11 Q1008 R07/29//95 NOSIG=
201904111700 METAR LRBS 111700Z 03003KT 360V070 5000 -SHRA BR BKN047 SCT050CB
                        11/10 Q1008 R07/29//95 NOSIG=
201904111730 METAR LRBS 111730Z 04002KT 010V070 5000 SHRA BR SCT007 SCT040CB
                        BKN047 11/10 Q1009 R07/29//95 NOSIG=
201904111800 METAR LRBS 111800Z 07001KT 7000 -SHRA SCT005 BKN048 FEW050CB
                        11/10 Q1009 RESHRA R07/29//95 NOSIG=
201904111830 METAR LRBS 111830Z 36004KT 340V050 8000 FEW004 SCT048 FEW050CB
                        11/10 Q1010 R07/29//95 NOSIG=
201904111900 METAR LRBS 111900Z 01004KT 9000 -RA FEW048 10/10 Q1010 R07/29//95
                        NOSIG=
201904111930 METAR LRBS 111930Z 02004KT 350V070 9999 FEW019 BKN049 10/10
                        Q1010 R07/29//95 NOSIG=
201904112000 METAR LRBS 112000Z 01004KT 340V050 9000 -RA FEW018 BKN044
                        10/10 Q1010 R07/29//95 NOSIG=
201904112030 METAR LRBS 112030Z 01003KT 340V050 9999 FEW014 BKN043 10/09
                        Q1010 R07/29//95 NOSIG=
201904112100 METAR LRBS 112100Z 04003KT 360V070 9999 FEW020 BKN046 10/09
                        Q1010 R07/29//95 NOSIG=
201904112130 METAR LRBS 112130Z 05005KT 9999 FEW010 BKN040 10/10 Q1010
                        R07/29//95 NOSIG=
201904112200 METAR LRBS 112200Z 06006KT 9999 FEW014 BKN020 10/10 Q1010
                        R07/29//95 NOSIG=
201904112230 METAR LRBS 112230Z 06008KT 9999 FEW010 BKN033 10/09 Q1010
                        R07/29//95 NOSIG=
201904112300 METAR LRBS 112300Z 06006KT 9999 BKN026 BKN037 10/09 Q1010
                        R07/29//95 NOSIG=
201904112330 METAR LRBS 112330Z 07006KT 9999 SCT023 BKN029 10/09 Q1010
                        R07/29//95 NOSIG=
201904120000 METAR LRBS 120000Z 09005KT 9999 OVC028 10/09 Q1011 R07/29//95
                        NOSIG=
201904120030 METAR LRBS 120030Z 09006KT 9999 OVC022 10/09 Q1011 R07/29//95
                        NOSIG=
201904120100 METAR LRBS 120100Z 08006KT 9999 OVC019 10/09 Q1011 R07/29//95
                        NOSIG=
201904120130 METAR LRBS 120130Z 08004KT 9999 OVC017 10/09 Q1011 R07/29//95
                        NOSIG=
201904120200 METAR LRBS 120200Z 07004KT 9999 OVC015 10/09 Q1011 R07/29//95
                        NOSIG=
201904120230 METAR LRBS 120230Z 10003KT 9999 OVC015 10/09 Q1011 R07/29//95
                        NOSIG=
201904120300 METAR LRBS 120300Z 08006KT 9999 OVC015 10/09 Q1011 R07/29//95
                        NOSIG=
201904120330 METAR COR LRBS 120330Z 08008KT 050V110 9000 -RA OVC017 10/08
                        Q1011 R07/29//95 NOSIG=
201904120400 METAR LRBS 120400Z 07007KT 7000 -RA OVC018 09/08 Q1011 R07/19//95
                        NOSIG=
201904120430 METAR LRBS 120430Z 07005KT 9000 OVC017 10/09 Q1012 R07/29//95
                        NOSIG=
201904120500 METAR LRBS 120500Z 08006KT 9999 OVC019 10/08 Q1012 R07/29//95
                        NOSIG=
201904120530 METAR LRBS 120530Z 07007KT 040V110 9000 OVC017 10/08 Q1012
                        R07/29//95 NOSIG=
201904120600 METAR LRBS 120600Z 06007KT 030V090 9999 OVC017 10/08 Q1012
                        R07/29//95 NOSIG=
201904120630 METAR LRBS 120630Z 06008KT 020V090 9999 OVC016 10/09 Q1012
                        R07/29//95 NOSIG=
201904120700 METAR LRBS 120700Z 06009KT 020V090 9999 OVC014 10/08 Q1012
                        R07/29//95 NOSIG=
201904120730 METAR COR LRBS 120730Z 07009KT 040V100 9999 OVC013 11/09
                        Q1013 R07/29//95 NOSIG=
201904120800 METAR LRBS 120800Z 07009KT 030V100 9999 OVC013 11/09 Q1013
                        R07/29//95 NOSIG=
201904120830 METAR LRBS 120830Z 06010KT 010V090 9999 OVC013 11/09 Q1013
                        R07/29//95 NOSIG=
201904120900 METAR LRBS 120900Z 09008KT 9999 OVC013 11/09 Q1013 R07/29//95
                        NOSIG=
201904120930 METAR LRBS 120930Z 07008KT 040V100 9999 OVC012 12/10 Q1013
                        R07/29//95 NOSIG=
201904121000 METAR LRBS 121000Z 07009KT 050V100 9999 BKN012 12/09 Q1013
                        R07/19//95 NOSIG=
201904121030 METAR LRBS 121030Z 09006KT 060V120 9999 OVC012 12/10 Q1013
                        R07/19//95 NOSIG=
201904121100 METAR LRBS 121100Z 09006KT 050V120 9999 SCT013 BKN017 12/09
                        Q1013 R07/19//95 NOSIG=
201904121130 METAR COR LRBS 121130Z 07009KT 020V100 9999 SCT014 BKN034
                        14/10 Q1012 R07/19//95 NOSIG=
201904121200 METAR LRBS 121200Z 07009KT 020V110 9999 BKN017 BKN040 13/10
                        Q1012 R07/19//95 NOSIG=
201904121230 METAR LRBS 121230Z 08010KT 9999 SCT017 BKN037 13/09 Q1012
                        R07/19//95 NOSIG=
201904121300 METAR LRBS 121300Z 08013KT 9999 BKN018 BKN037 13/10 Q1012
                        R07/19//95 NOSIG=
201904121330 METAR LRBS 121330Z 08011KT 9999 BKN013 BKN035 13/10 Q1012
                        R07/19//95 NOSIG=
201904121400 METAR COR LRBS 121400Z 07012KT 050V120 9999 SCT014 SCT018
                        14/10 Q1012 R07/CLRD// NOSIG=
201904121430 METAR LRBS 121430Z 08011KT 050V110 9999 FEW019 SCT025 BKN032
                        13/09 Q1012 R07/CLRD// NOSIG=
201904121500 METAR LRBS 121500Z 07012KT 9999 FEW015 SCT026 BKN033 13/10
                        Q1012 NOSIG=
201904121530 METAR LRBS 121530Z 06011KT 020V090 9999 FEW016 BKN027 13/09
                        Q1012 NOSIG=
201904121600 METAR LRBS 121600Z 06011KT 010V090 9999 FEW016 BKN032 12/09
                        Q1012 NOSIG=
201904121630 METAR LRBS 121630Z 05009KT 010V090 9999 FEW014 11/09 Q1012
                        NOSIG=
201904121700 METAR LRBS 121700Z 05009KT 010V090 9999 FEW013 10/08 Q1012
                        NOSIG=
201904121730 METAR LRBS 121730Z 05010KT 020V080 9999 FEW019 10/08 Q1013
                        NOSIG=
201904121800 METAR LRBS 121800Z 06010KT 020V090 9999 FEW011 BKN014 10/08
                        Q1013 NOSIG=
201904121830 METAR LRBS 121830Z 06011KT 030V090 9999 FEW013 BKN018 10/08
                        Q1013 BECMG 5000 -SHRA BKN015 SCT030CB=
201904121900 METAR LRBS 121900Z 05013KT 020V090 9000 SCT018 FEW040CB 10/07
                        Q1013 BECMG 5000 -SHRA BKN015 SCT030CB=
201904121930 METAR LRBS 121930Z 05013KT 010V090 9999 SCT018 FEW040CB 10/07
                        Q1013 BECMG 5000 -SHRA BKN015 SCT035CB=
201904122000 METAR LRBS 122000Z 05013KT 020V080 9999 OVC017 10/07 Q1013
                        BECMG 5000 -SHRA OVC015 SCT035CB=
201904122030 METAR LRBS 122030Z 05014KT 010V080 9999 OVC017 10/06 Q1013
                        TEMPO 5000 -SHRA OVC015 SCT035CB=
201904122100 METAR LRBS 122100Z 05013KT 020V090 9999 BKN017 FEW040CB 09/06
                        Q1013 TEMPO 5000 -SHRA OVC015 SCT035CB=
201904122130 METAR LRBS 122130Z 05012KT 010V070 9999 OVC017 09/06 Q1013
                        TEMPO 5000 -SHRA OVC015 SCT035CB=
201904122200 METAR LRBS 122200Z 05012KT 010V070 9999 BKN018 FEW040CB 09/06
                        Q1013 TEMPO 5000 -SHRA OVC015 SCT035CB=
201904122230 METAR LRBS 122230Z 05012KT 360V080 9999 BKN018 FEW040CB 09/06
                        Q1013 TEMPO 5000 -SHRA OVC015 SCT035CB=
201904122300 METAR LRBS 122300Z 05011KT 010V100 9999 BKN018 FEW040CB 09/06
                        Q1013 TEMPO 5000 -SHRA OVC015 SCT035CB=
201904122330 METAR LRBS 122330Z 05014KT 010V070 9000 -SHRA BKN018 FEW040CB
                        09/06 Q1013 TEMPO 5000 -SHRA OVC015
                        SCT035CB=
201904130000 METAR LRBS 130000Z 05012KT 010V100 9999 BKN019 FEW035CB 09/06
                        Q1013 TEMPO 5000 -SHRA OVC015 SCT035CB=
201904130030 METAR LRBS 130030Z 06011KT 030V090 5000 -SHRA BR BKN016 FEW035CB
                        08/06 Q1013 NOSIG=
201904130100 METAR LRBS 130100Z 05011KT 020V090 4000 SHRA BR BKN018 SCT035CB
                        07/06 Q1013 R07/29//95 NOSIG=
201904130130 METAR LRBS 130130Z 05010KT 020V080 6000 -SHRA BKN019 SCT035CB
                        07/06 Q1013 RESHRA R07/29//95 NOSIG=
201904130200 METAR COR LRBS 130200Z 05010KT 010V080 8000 -SHRA BKN019
                        FEW035CB 07/06 Q1013 R07/29//95 NOSIG=
201904130230 METAR LRBS 130230Z 05011KT 020V090 6000 SHRA BKN020 SCT035CB
                        07/06 Q1013 R07/29//95 NOSIG=
201904130300 METAR LRBS 130300Z 05012KT 010V080 6000 SHRA BKN020 SCT035CB
                        07/06 Q1013 R07/29//95 NOSIG=
201904130330 METAR LRBS 130330Z 04009KT 360V070 6000 SHRA BKN020 SCT035CB
                        07/06 Q1013 R07/29//95 NOSIG=
201904130400 METAR LRBS 130400Z 05009KT 4000 SHRA BKN020 SCT035CB 07/06
                        Q1013 R07/29//95 NOSIG=
201904130430 METAR LRBS 130430Z 05010KT 020V080 4000 SHRA BKN021 SCT040CB
                        07/06 Q1013 R07/29//95 NOSIG=
201904130500 METAR LRBS 130500Z 04010KT 010V070 5000 SHRA BKN024 SCT043CB
                        07/06 Q1013 R07/29//95 NOSIG=
201904130530 METAR LRBS 130530Z 04009KT 360V070 5000 RA BKN024 OVC040
                        07/06 Q1013 R07/29//95 NOSIG=
201904130600 METAR LRBS 130600Z 03010KT 010V070 5000 RA SCT024 BKN043
                        07/06 Q1013 R07/29//95 NOSIG=
201904130630 METAR LRBS 130630Z 03010KT 360V080 6000 RA BKN022 OVC040
                        07/06 Q1013 R07/29//95 NOSIG=
201904130700 METAR LRBS 130700Z 04011KT 010V070 7000 -RA OVC023 07/06
                        Q1013 RERA R07/29//95 NOSIG=
201904130730 METAR COR LRBS 130730Z 04010KT 7000 -RA OVC022 07/06 Q1014
                        R07/29//95 NOSIG=
201904130800 METAR LRBS 130800Z 04010KT 010V070 5000 RA FEW009 OVC021
                        07/07 Q1014 R07/29//95 NOSIG=
201904130830 METAR LRBS 130830Z 04010KT 360V070 6000 RA BKN009 08/07 Q1014
                        R07/29//95 NOSIG=
201904130900 METAR LRBS 130900Z 04012KT 010V080 6000 RA BKN009 08/07 Q1014
                        R07/29//95 NOSIG=
201904130930 METAR LRBS 130930Z 04011KT 360V070 7000 RA FEW006 BKN009
                        SCT046 08/07 Q1014 R07/29//95=
201904131000 METAR LRBS 131000Z 04010KT 010V080 7000 RA SCT007 BKN025
                        08/08 Q1014 R07/29//95 NOSIG=
201904131030 METAR LRBS 131030Z 04010KT 360V070 7000 RA SCT009 BKN022
                        08/08 Q1014 R07/29//95 NOSIG=
201904131100 METAR LRBS 131100Z 03011KT 360V070 8000 RA FEW006 SCT022
                        BKN047 08/08 Q1014 R07/29//95 NOSIG=
201904131130 METAR LRBS 131130Z 04010KT 360V090 9000 -RA FEW007 OVC049
                        09/07 Q1014 RERA R07/29//95 NOSIG=
201904131200 METAR LRBS 131200Z 04011KT 360V080 9999 -RA SCT008 OVC044
                        09/08 Q1014 R07/29//95 NOSIG=
201904131230 METAR LRBS 131230Z 04012KT 010V070 9000 -RA SCT009 BKN047
                        09/08 Q1014 R07/29//95 NOSIG=
201904131300 METAR LRBS 131300Z 04011KT 010V070 9999 -RA SCT010 OVC045
                        09/08 Q1014 R07/29//95 NOSIG=
201904131330 METAR LRBS 131330Z 04010KT 360V070 9999 -RA SCT008 OVC049
                        09/08 Q1014 R07/29//95 NOSIG=
201904131400 METAR LRBS 131400Z 05011KT 010V070 9999 -RA SCT009 BKN048
                        09/08 Q1014 R07/29//95 NOSIG=
201904131430 METAR LRBS 131430Z 05011KT 020V080 9999 -RA BKN008 OVC032
                        09/08 Q1014 R07/29//95 NOSIG=
201904131500 METAR LRBS 131500Z 04010KT 010V070 9999 -RA BKN009 OVC030
                        09/08 Q1014 R07/29//95 NOSIG=
201904131530 METAR LRBS 131530Z 05009KT 360V070 9999 -RA SCT010 OVC028
                        09/08 Q1014 R07/29//95 NOSIG=
201904131600 METAR LRBS 131600Z 05009KT 020V080 9999 -RA FEW011 OVC028
                        09/08 Q1014 R07/29//95 NOSIG=
201904131630 METAR LRBS 131630Z 05007KT 9999 -RA FEW011 OVC028 09/07 Q1014
                        R07/29//95 NOSIG=
201904131700 METAR LRBS 131700Z 05007KT 020V090 9999 -RA FEW012 OVC027
                        09/07 Q1014 R07/29//95 NOSIG=
201904131730 METAR LRBS 131730Z 05008KT 9999 -RA BKN029 OVC040 09/07 Q1015
                        R07/29//95 NOSIG=
201904131800 METAR LRBS 131800Z 05007KT 010V080 9999 -RA OVC029 08/07
                        Q1015 R07/29//95 NOSIG=
201904131830 METAR LRBS 131830Z 06007KT 9999 -RA BKN029 OVC042 08/07 Q1015
                        R07/29//95 NOSIG=
201904131900 METAR LRBS 131900Z 06007KT 9999 -RA OVC042 08/07 Q1015 R07/29//95
                        NOSIG=
201904131930 METAR LRBS 131930Z 06008KT 9999 BKN030 08/07 Q1015 R07/29//95
                        NOSIG=
201904132000 METAR LRBS 132000Z 05008KT 020V080 9999 BKN030 OVC040 08/07
                        Q1015 R07/29//95 NOSIG=
201904132030 METAR LRBS 132030Z 05007KT 010V070 9999 OVC034 08/06 Q1015
                        R07/29//95 NOSIG=
201904132100 METAR LRBS 132100Z 04007KT 020V080 9999 OVC027 08/06 Q1015
                        R07/29//95 NOSIG=
201904132130 METAR LRBS 132130Z 05006KT 9999 OVC028 08/06 Q1015 R07/29//95
                        NOSIG=
201904132200 METAR LRBS 132200Z 06008KT 020V100 9999 -RA OVC028 08/06
                        Q1015 R07/29//95 NOSIG=
201904132230 METAR COR LRBS 132230Z 05006KT 9999 OVC030 08/06 Q1015 R07/29//95
                        NOSIG=
201904132300 METAR LRBS 132300Z 06007KT 020V090 9999 -RA OVC031 08/06
                        Q1015 R07/29//95 NOSIG=
201904132330 METAR LRBS 132330Z 05005KT 020V080 9999 -RA OVC033 08/06
                        Q1014 R07/29//95 NOSIG=
201904140000 METAR LRBS 140000Z 05005KT 9999 -RA OVC033 07/06 Q1014 R07/29//95
                        NOSIG=
201904140030 METAR LRBS 140030Z 05004KT 9999 -RA OVC033 07/06 Q1014 R07/29//95
                        NOSIG=
201904140100 METAR LRBS 140100Z 05003KT 020V090 9999 -RA BKN024 OVC031
                        07/06 Q1014 R07/29//95 NOSIG=
201904140130 METAR LRBS 140130Z 05005KT 9999 OVC025 07/06 Q1014 R07/29//95
                        NOSIG=
201904140200 METAR LRBS 140200Z 05006KT 360V080 9999 OVC025 07/06 Q1014
                        R07/29//95 NOSIG=
201904140230 METAR LRBS 140230Z 04005KT 360V070 9999 OVC026 07/06 Q1013
                        R07/29//95 NOSIG=
201904140300 METAR LRBS 140300Z 04007KT 010V090 9999 OVC033 08/06 Q1013
                        R07/29//95 NOSIG=
201904140330 METAR LRBS 140330Z 04007KT 9999 OVC036 08/06 Q1013 R07/29//95
                        NOSIG=
201904140400 METAR LRBS 140400Z 05007KT 010V070 9999 OVC037 08/06 Q1013
                        R07/29//95 NOSIG=
201904140430 METAR LRBS 140430Z 04005KT 010V070 9999 OVC038 08/05 Q1013
                        R07/29//95 NOSIG=
201904140500 METAR LRBS 140500Z 04006KT 010V070 9999 BKN038 08/06 Q1014
                        R07/29//95 NOSIG=
201904140530 METAR LRBS 140530Z 04006KT 360V060 9999 -RA BKN037 08/06
                        Q1014 R07/29//95 NOSIG=
201904140600 METAR LRBS 140600Z 03006KT 350V060 9999 BKN046 08/06 Q1014
                        R07/29//95 NOSIG=
201904140630 METAR LRBS 140630Z 02005KT 350V070 9999 BKN048 09/06 Q1014
                        R07/29//95 NOSIG=
201904140700 METAR LRBS 140700Z 02006KT 340V050 9999 -DZ SCT048 09/06
                        Q1014 R07/29//95 NOSIG=
201904140730 METAR LRBS 140730Z 03005KT 350V060 9999 SCT013 BKN049 10/07
                        Q1014 R07/29//95 NOSIG=
201904140800 METAR LRBS 140800Z 03003KT 320V080 9999 SCT013 10/06 Q1014
                        R07/29//95 NOSIG=
201904140830 METAR LRBS 140830Z 01002KT 320V070 9999 BKN014 BKN047 10/07
                        Q1014 R07/29//95 NOSIG=
201904140900 METAR LRBS 140900Z VRB01KT 9999 SCT017 BKN049 10/07 Q1014
                        R07/29//95 NOSIG=
201904140930 METAR LRBS 140930Z 00000KT 9999 BKN017 BKN049 10/07 Q1014
                        R07/29//95 TEMPO 5000 -RA BKN010
                        OVC045=
201904141000 METAR LRBS 141000Z 13002KT 090V230 9999 BKN013 BKN034 11/07
                        Q1014 R07/29//95 TEMPO 5000 -RA BKN010
                        OVC045=
201904141030 METAR LRBS 141030Z VRB02KT 9999 BKN017 BKN028 11/07 Q1014
                        R07/29//95 TEMPO 5000 -RA BKN010
                        OVC045=
201904141100 METAR LRBS 141100Z 05004KT 340V090 9999 BKN022 BKN045 11/06
                        Q1014 R07/29//95 TEMPO 5000 -RA BKN010
                        OVC045=
201904141130 METAR LRBS 141130Z VRB02KT 9999 SCT024 BKN030 11/06 Q1014
                        R07/29//95 TEMPO 5000 -RA BKN010
                        OVC045=
201904141200 METAR LRBS 141200Z 14002KT 070V240 9999 BKN029 BKN037 11/06
                        Q1014 R07/29//95 TEMPO 5000 -RA BKN010
                        OVC045=
201904141230 METAR LRBS 141230Z 12005KT 090V150 9999 SCT024 BKN030 11/07
                        Q1014 R07/29//95 TEMPO 5000 -RA BKN010
                        OVC045=
201904141300 METAR LRBS 141300Z 12003KT 090V150 9999 BKN022 BKN030 11/07
                        Q1014 R07/29//95 TEMPO 5000 -RA BKN010
                        OVC045=
201904141330 METAR LRBS 141330Z 11003KT 080V150 9999 BKN023 11/07 Q1014
                        R07/29//95 NOSIG=
201904141400 METAR LRBS 141400Z 07006KT 9999 BKN023 BKN030 11/07 Q1014
                        R07/CLRD// NOSIG=
201904141430 METAR LRBS 141430Z 07004KT 9999 BKN028 11/07 Q1014 NOSIG=
201904141500 METAR LRBS 141500Z 07009KT 9999 -RA SCT022 BKN030 10/07 Q1014
                        NOSIG=
201904141530 METAR LRBS 141530Z 06010KT 040V100 9999 SCT020 BKN030 10/06
                        Q1015 NOSIG=
201904141600 METAR LRBS 141600Z 06010KT 9999 -RA SCT030 BKN043 10/06 Q1015
                        NOSIG=
201904141630 METAR LRBS 141630Z 08008KT 9999 OVC045 09/05 Q1015 NOSIG=
201904141700 METAR LRBS 141700Z 07007KT 9999 OVC040 09/05 Q1015 NOSIG=
201904141730 METAR LRBS 141730Z 06009KT 9999 OVC043 09/05 Q1015 NOSIG=
201904141800 METAR LRBS 141800Z 05008KT 020V090 9999 OVC040 09/04 Q1015
                        NOSIG=
201904141830 METAR LRBS 141830Z 05007KT 9999 OVC040 09/04 Q1016 NOSIG=
201904141900 METAR LRBS 141900Z 04006KT 010V070 9999 BKN041 09/04 Q1016
                        NOSIG=
201904141930 METAR LRBS 141930Z 05006KT 9999 OVC042 09/04 Q1016 NOSIG=
201904142000 METAR LRBS 142000Z 05006KT 020V080 9999 BKN048 09/03 Q1016
                        NOSIG=
201904142030 METAR LRBS 142030Z 03004KT 360V060 9999 OVC049 09/03 Q1016
                        NOSIG=
201904142100 METAR LRBS 142100Z 34002KT 300V020 CAVOK 09/04 Q1016 NOSIG=
201904142130 METAR LRBS 142130Z 01003KT 340V040 9999 FEW027 09/04 Q1017
                        NOSIG=
201904142200 METAR LRBS 142200Z VRB01KT 9999 SCT026 09/04 Q1017 NOSIG=
201904142230 METAR LRBS 142230Z 36002KT 320V040 9999 BKN028 08/05 Q1017
                        NOSIG=
201904142300 METAR LRBS 142300Z 36002KT 340V040 9999 FEW033 SCT042 08/05
                        Q1017 NOSIG=
201904142330 METAR LRBS 142330Z 05002KT 9999 FEW030 07/05 Q1017 NOSIG=
201904150000 METAR LRBS 150000Z 08002KT CAVOK 07/05 Q1017 NOSIG=
201904150030 METAR LRBS 150030Z 06002KT 9999 FEW012 07/06 Q1017 NOSIG=
201904150100 METAR LRBS 150100Z 04004KT 9999 FEW012 08/04 Q1017 NOSIG=
201904150130 METAR LRBS 150130Z 05004KT 020V090 9999 BKN045 08/03 Q1017
                        NOSIG=
201904150200 METAR LRBS 150200Z 05001KT 9999 OVC042 07/04 Q1017 NOSIG=
201904150230 METAR LRBS 150230Z 07003KT 9999 OVC044 07/04 Q1017 NOSIG=
201904150300 METAR LRBS 150300Z 07003KT 9999 OVC046 07/04 Q1017 NOSIG=
201904150330 METAR LRBS 150330Z 10002KT 070V130 9999 BKN049 07/03 Q1017
                        NOSIG=
201904150400 METAR LRBS 150400Z 07001KT CAVOK 07/03 Q1017 NOSIG=
201904150430 METAR LRBS 150430Z 07003KT CAVOK 07/04 Q1017 NOSIG=
201904150500 METAR COR LRBS 150500Z 06006KT 020V090 CAVOK 07/02 Q1017
                        NOSIG=
201904150530 METAR LRBS 150530Z 05006KT 020V090 CAVOK 07/02 Q1018 NOSIG=
201904150600 METAR LRBS 150600Z 06008KT 020V090 CAVOK 08/00 Q1018 NOSIG=
201904150630 METAR LRBS 150630Z 05008KT 010V090 CAVOK 08/00 Q1018 NOSIG=
201904150700 METAR LRBS 150700Z 05010KT 010V080 CAVOK 08/M00 Q1018 NOSIG=
201904150730 METAR LRBS 150730Z 05010KT 010V100 9999 FEW010 08/00 Q1018
                        NOSIG=
201904150800 METAR LRBS 150800Z 05008KT 020V090 9999 OVC049 09/M00 Q1019
                        NOSIG=
201904150830 METAR LRBS 150830Z 05008KT 020V090 9999 OVC047 09/00 Q1019
                        NOSIG=
201904150900 METAR LRBS 150900Z 05007KT 010V080 9999 OVC046 09/01 Q1019
                        NOSIG=
201904150930 METAR LRBS 150930Z VRB04KT 9999 BKN046 11/01 Q1018 NOSIG=
201904151000 METAR LRBS 151000Z 04004KT 350V110 9999 FEW043 11/01 Q1018
                        NOSIG=
201904151030 METAR LRBS 151030Z VRB05KT 9999 FEW042 11/01 Q1018 NOSIG=
201904151100 METAR LRBS 151100Z VRB04KT 9999 SCT047 11/02 Q1018 NOSIG=
201904151130 METAR LRBS 151130Z 26007KT 180V310 9999 SCT046 11/01 Q1018
                        NOSIG=
201904151200 METAR LRBS 151200Z VRB03KT 9999 FEW043 13/03 Q1018 NOSIG=
201904151230 METAR LRBS 151230Z 25007KT 220V310 9999 SCT043 12/03 Q1018
                        NOSIG=
201904151300 METAR LRBS 151300Z 26006KT 220V340 9999 FEW033 SCT043 12/04
                        Q1018 NOSIG=
201904151330 METAR LRBS 151330Z 27005KT 220V320 9999 FEW033 BKN043 12/04
                        Q1018 NOSIG=
201904151400 METAR COR LRBS 151400Z 27004KT 210V310 9999 SCT031 SCT039
                        FEW045CB 12/04 Q1018 TEMPO 5000 -SHRA=
201904151430 METAR LRBS 151430Z VRB02KT 9999 FEW030 BKN034 FEW045CB 11/04
                        Q1018 TEMPO 5000 -SHRA=
201904151500 METAR LRBS 151500Z 00000KT 9999 BKN031 BKN040 FEW045CB 11/04
                        Q1018 TEMPO 5000 -SHRA=
201904151530 METAR LRBS 151530Z VRB02KT 9999 BKN032 FEW045CB 11/04 Q1018
                        TEMPO 5000 -SHRA=
201904151600 METAR LRBS 151600Z 07002KT 9999 BKN031 FEW045CB 10/04 Q1018
                        TEMPO 5000 -SHRA=
201904151630 METAR LRBS 151630Z 10002KT 9999 BKN032 FEW040CB 11/04 Q1018
                        TEMPO 5000 -SHRA=
201904151700 METAR LRBS 151700Z VRB02KT 9999 BKN032 FEW040CB 10/02 Q1018
                        TEMPO 5000 -SHRA=
201904151730 METAR LRBS 151730Z 14002KT 9999 SCT031 BKN039 FEW040CB 10/01
                        Q1019 TEMPO 5000 -SHRA=
201904151800 METAR LRBS 151800Z 14003KT 070V190 9999 BKN038 10/05 Q1019
                        TEMPO 5000 -SHRA=
201904151830 METAR LRBS 151830Z VRB02KT 9999 FEW026 BKN047 10/05 Q1019
                        TEMPO 5000 -SHRA=
201904151900 METAR LRBS 151900Z VRB02KT 9999 FEW025 10/05 Q1019 NOSIG=
201904151930 METAR LRBS 151930Z VRB02KT CAVOK 09/05 Q1019 NOSIG=
201904152000 METAR LRBS 152000Z 00000KT CAVOK 09/05 Q1020 NOSIG=
201904152030 METAR LRBS 152030Z VRB01KT CAVOK 09/06 Q1020 NOSIG=
201904152100 METAR LRBS 152100Z VRB01KT 9999 FEW031 10/03 Q1019 NOSIG=
201904152130 METAR LRBS 152130Z 00000KT CAVOK 09/04 Q1020 NOSIG=
201904152200 METAR LRBS 152200Z 34001KT CAVOK 07/05 Q1019 NOSIG=
201904152230 METAR COR LRBS 152230Z 33001KT CAVOK 07/05 Q1020 NOSIG=
201904152300 METAR LRBS 152300Z 00000KT 9999 FEW047 07/05 Q1019 NOSIG=
201904152330 METAR LRBS 152330Z 00000KT CAVOK 07/05 Q1019 NOSIG=
201904160000 METAR LRBS 160000Z 30001KT CAVOK 07/05 Q1019 NOSIG=
201904160030 METAR LRBS 160030Z VRB01KT CAVOK 08/05 Q1019 NOSIG=
201904160100 METAR LRBS 160100Z VRB01KT 9999 OVC045 07/05 Q1019 NOSIG=
201904160130 METAR LRBS 160130Z 26002KT 9999 OVC043 07/05 Q1019 NOSIG=
201904160200 METAR COR LRBS 160200Z 00000KT 9000 SCT042 08/05 Q1019 NOSIG=
201904160230 METAR LRBS 160230Z 00000KT 9999 BKN038 08/06 Q1019 NOSIG=
201904160300 METAR LRBS 160300Z 00000KT 9999 OVC036 07/05 Q1018 NOSIG=
201904160330 METAR LRBS 160330Z VRB01KT 9999 BKN034 08/05 Q1018 NOSIG=
201904160400 METAR LRBS 160400Z 26002KT 9999 OVC033 08/05 Q1018 NOSIG=
201904160430 METAR LRBS 160430Z 25002KT 9999 BKN033 08/05 Q1019 NOSIG=
201904160500 METAR LRBS 160500Z 24004KT 9999 BKN036 08/05 Q1018 NOSIG=
201904160530 METAR LRBS 160530Z 27005KT 240V300 9999 BKN033 09/05 Q1018
                        NOSIG=
201904160600 METAR LRBS 160600Z 27006KT 250V310 9999 BKN035 09/05 Q1018
                        NOSIG=
201904160630 METAR LRBS 160630Z 27006KT 240V310 9999 BKN034 10/04 Q1018
                        NOSIG=
201904160700 METAR LRBS 160700Z VRB04KT 9999 BKN033 11/04 Q1018 NOSIG=
201904160730 METAR LRBS 160730Z 29007KT 230V340 9999 BKN033 11/03 Q1018
                        NOSIG=
201904160800 METAR LRBS 160800Z 26011KT 230V300 9999 BKN037 11/04 Q1018
                        NOSIG=
201904160830 METAR LRBS 160830Z 27010KT 230V330 9999 SCT037 12/04 Q1017
                        NOSIG=
201904160900 METAR LRBS 160900Z 27010KT 230V340 9999 BKN034 12/04 Q1017
                        NOSIG=
201904160930 METAR COR LRBS 160930Z 27008KT 230V330 9999 SCT035 13/04
                        Q1017 NOSIG=
201904161000 METAR LRBS 161000Z VRB08KT 9999 SCT038 14/05 Q1017 NOSIG=
201904161030 METAR LRBS 161030Z 28007KT 230V010 9999 SCT037 14/04 Q1016
                        NOSIG=
201904161100 METAR LRBS 161100Z 27010KT 220V310 9999 SCT041 14/04 Q1016
                        NOSIG=
201904161130 METAR LRBS 161130Z 26010KT 210V320 9999 SCT040 15/04 Q1016
                        NOSIG=
201904161200 METAR LRBS 161200Z 25009KT 220V300 9999 SCT049 16/04 Q1015
                        NOSIG=
201904161230 METAR LRBS 161230Z 26008KT 210V320 9999 SCT047 16/04 Q1015
                        NOSIG=
201904161300 METAR LRBS 161300Z 25009KT 230V300 CAVOK 16/04 Q1015 NOSIG=
201904161330 METAR LRBS 161330Z 25006KT 210V300 CAVOK 16/04 Q1014 NOSIG=
201904161400 METAR LRBS 161400Z 25009KT 210V310 CAVOK 17/04 Q1014 NOSIG=
201904161430 METAR LRBS 161430Z 25008KT 220V300 CAVOK 17/05 Q1014 NOSIG=
201904161500 METAR LRBS 161500Z 24006KT 190V290 9999 FEW050CB 16/04 Q1014
                        NOSIG=
201904161530 METAR LRBS 161530Z VRB04KT 9999 FEW050CB 17/04 Q1014 BECMG
                        09010KT=
201904161600 METAR LRBS 161600Z VRB01KT 9999 FEW050CB 16/04 Q1014 BECMG
                        08010KT=
201904161630 METAR LRBS 161630Z 07013KT 9999 SCT045CB 11/03 Q1015 TEMPO
                        5000 -SHRA=
201904161700 METAR LRBS 161700Z 07014KT 9999 -SHRA SCT045CB 11/03 Q1015
                        TEMPO 5000 -SHRA=
201904161730 METAR LRBS 161730Z 06016KT 020V090 9999 -SHRA SCT045CB 10/03
                        Q1016 TEMPO 5000 -SHRA=
201904161800 METAR LRBS 161800Z 09018KT 9999 -SHRA SCT042CB 08/03 Q1016
                        R07/29//95 TEMPO 5000 -SHRA=
201904161830 METAR LRBS 161830Z 07012KT 9999 FEW045CB 08/04 Q1016 R07/29//95
                        NOSIG=
201904161900 METAR LRBS 161900Z 08011KT 9999 FEW045CB 07/04 Q1016 R07/29//95
                        NOSIG=
201904161930 METAR LRBS 161930Z 07010KT 9999 FEW045CB 07/03 Q1017 R07/29//95
                        NOSIG=
201904162000 METAR LRBS 162000Z 09012KT 070V130 9999 FEW045CB 07/03 Q1017
                        R07/29//95 NOSIG=
201904162030 METAR LRBS 162030Z 09009KT 060V110 CAVOK 06/03 Q1017 R07/29//95
                        NOSIG=
201904162100 METAR LRBS 162100Z 09006KT 060V120 9999 FEW018 06/03 Q1017
                        R07/29//95 NOSIG=
201904162130 METAR LRBS 162130Z 09010KT CAVOK 06/03 Q1017 R07/29//95 NOSIG=
201904162200 METAR LRBS 162200Z 09009KT CAVOK 05/03 Q1017 R07/29//95 NOSIG=
201904162230 METAR LRBS 162230Z 09007KT CAVOK 05/03 Q1017 R07/29//95 NOSIG=
201904162300 METAR LRBS 162300Z 09007KT 070V130 CAVOK 05/02 Q1017 R07/29//95
                        NOSIG=
201904162330 METAR LRBS 162330Z 11006KT 080V140 CAVOK 05/02 Q1017 R07/CLRD//
                        NOSIG=
201904170000 METAR LRBS 170000Z 10005KT 070V130 CAVOK 04/02 Q1017 NOSIG=
201904170030 METAR LRBS 170030Z 07005KT CAVOK 04/02 Q1017 NOSIG=
201904170100 METAR LRBS 170100Z 04002KT CAVOK 04/02 Q1017 NOSIG=
201904170130 METAR LRBS 170130Z 03003KT 8000 NSC 03/01 Q1016 NOSIG=
201904170200 METAR LRBS 170200Z 02004KT 8000 MIFG NSC 02/01 Q1016 NOSIG=
201904170230 METAR LRBS 170230Z 00000KT 8000 MIFG NSC 02/01 Q1016 NOSIG=
201904170300 METAR LRBS 170300Z 00000KT 8000 NSC 02/02 Q1016 NOSIG=
201904170330 METAR LRBS 170330Z 01002KT 8000 MIFG NSC 03/02 Q1016 NOSIG=
201904170400 METAR LRBS 170400Z 33001KT 8000 MIFG NSC 03/02 Q1017 NOSIG=
201904170430 METAR LRBS 170430Z 35001KT CAVOK 04/03 Q1017 NOSIG=
201904170500 METAR LRBS 170500Z 05001KT CAVOK 05/03 Q1017 NOSIG=
201904170530 METAR LRBS 170530Z 06002KT CAVOK 05/03 Q1017 NOSIG=
201904170600 METAR LRBS 170600Z 07003KT 030V110 CAVOK 05/03 Q1017 NOSIG=
201904170630 METAR LRBS 170630Z VRB02KT CAVOK 06/03 Q1017 NOSIG=
201904170700 METAR LRBS 170700Z 07003KT 030V110 CAVOK 06/03 Q1018 NOSIG=
201904170730 METAR LRBS 170730Z VRB01KT CAVOK 06/03 Q1018 NOSIG=
201904170800 METAR LRBS 170800Z 10002KT 030V170 CAVOK 07/03 Q1018 NOSIG=
201904170830 METAR LRBS 170830Z 09002KT 350V150 CAVOK 09/04 Q1018 NOSIG=
201904170900 METAR LRBS 170900Z VRB03KT CAVOK 10/04 Q1018 NOSIG=
201904170930 METAR LRBS 170930Z VRB03KT CAVOK 11/04 Q1018 NOSIG=
201904171000 METAR LRBS 171000Z VRB03KT CAVOK 12/04 Q1018 NOSIG=
201904171030 METAR LRBS 171030Z VRB05KT CAVOK 13/03 Q1018 NOSIG=
201904171100 METAR LRBS 171100Z VRB02KT 9999 FEW030 13/04 Q1018 NOSIG=
201904171130 METAR LRBS 171130Z VRB03KT 9999 SCT045 14/03 Q1018 NOSIG=
201904171200 METAR LRBS 171200Z 36005KT 330V050 9999 SCT046 15/05 Q1018
                        NOSIG=
201904171230 METAR LRBS 171230Z 36002KT 290V080 9999 SCT048 14/03 Q1018
                        NOSIG=
201904171300 METAR LRBS 171300Z VRB03KT 9999 SCT049 15/03 Q1018 NOSIG=
201904171330 METAR LRBS 171330Z 07006KT 040V100 9999 SCT045 14/03 Q1018
                        NOSIG=
201904171400 METAR LRBS 171400Z 02009KT 350V060 9999 SCT046 13/04 Q1018
                        NOSIG=
201904171430 METAR COR LRBS 171430Z 02010KT 9999 SCT044CB 13/04 Q1019
                        NOSIG=
201904171500 METAR LRBS 171500Z 04009KT 9999 SCT048CB 12/05 Q1019 NOSIG=
201904171530 METAR LRBS 171530Z 04011KT 9999 FEW047CB 12/05 Q1019 NOSIG=
201904171600 METAR LRBS 171600Z 06011KT 9999 FEW046CB 11/05 Q1020 NOSIG=
201904171630 METAR LRBS 171630Z 06010KT CAVOK 11/05 Q1020 NOSIG=
201904171700 METAR LRBS 171700Z 06011KT CAVOK 10/05 Q1020 NOSIG=
201904171730 METAR COR LRBS 171730Z 06011KT CAVOK 10/05 Q1021 NOSIG=
201904171800 METAR LRBS 171800Z 06011KT CAVOK 09/05 Q1021 NOSIG=
201904171830 METAR LRBS 171830Z 05011KT CAVOK 09/05 Q1022 NOSIG=
201904171900 METAR LRBS 171900Z 06008KT CAVOK 09/05 Q1022 NOSIG=
201904171930 METAR LRBS 171930Z 06008KT 9999 FEW012 09/06 Q1022 NOSIG=
201904172000 METAR LRBS 172000Z 07007KT 9999 SCT030 09/06 Q1022 NOSIG=
201904172030 METAR LRBS 172030Z 06007KT 9999 BKN028 09/06 Q1022 NOSIG=
201904172100 METAR LRBS 172100Z 05007KT 9999 FEW020 09/06 Q1022 NOSIG=
201904172130 METAR LRBS 172130Z 06006KT 020V080 9999 SCT026 09/06 Q1023
                        NOSIG=
201904172200 METAR LRBS 172200Z 06006KT 9999 SCT023 SCT033 09/06 Q1023
                        NOSIG=
201904172230 METAR LRBS 172230Z 06006KT 9999 FEW024 BKN028 09/06 Q1023
                        NOSIG=
201904172300 METAR LRBS 172300Z 06004KT 9999 BKN028 09/06 Q1023 NOSIG=
201904172330 METAR LRBS 172330Z 05004KT 010V090 9999 BKN027 09/06 Q1023
                        NOSIG=
201904180000 METAR LRBS 180000Z 04003KT 9999 FEW029 09/06 Q1023 NOSIG=
201904180030 METAR LRBS 180030Z 04003KT CAVOK 08/06 Q1023 NOSIG=
201904180100 METAR LRBS 180100Z 05002KT CAVOK 08/06 Q1023 NOSIG=
201904180130 METAR LRBS 180130Z 00000KT CAVOK 08/06 Q1023 NOSIG=
201904180200 METAR LRBS 180200Z 00000KT CAVOK 08/06 Q1023 NOSIG=
201904180230 METAR LRBS 180230Z AUTO 03001KT 9999 OVC057/// 08/06 Q1023
                        NOSIG=
201904180300 METAR LRBS 180300Z 35002KT 310V030 9999 FEW037 09/05 Q1023
                        NOSIG=
201904180330 METAR COR LRBS 180330Z 27003KT 240V300 9999 FEW038 08/06
                        Q1023 NOSIG=
201904180400 METAR LRBS 180400Z 28003KT CAVOK 08/06 Q1023 NOSIG=
201904180430 METAR LRBS 180430Z 30004KT 270V330 9999 FEW022 08/06 Q1023
                        NOSIG=
201904180500 METAR COR LRBS 180500Z 28002KT 9999 FEW019 08/06 Q1024 BECMG
                        06010KT=
201904180530 METAR LRBS 180530Z 30003KT 260V320 9999 BKN020 SCT046 09/06
                        Q1024 BECMG 06010KT=
201904180600 METAR LRBS 180600Z 30004KT 9999 -RA BKN020 09/06 Q1024 BECMG
                        06010KT=
201904180630 METAR COR LRBS 180630Z 30004KT 9999 -RA OVC019 08/07 Q1025
                        RERA R07/29//95 BECMG 06010KT=
201904180700 METAR LRBS 180700Z 30005KT 5000 -RA BR OVC015 09/07 Q1025
                        R07/29//95 BECMG 06010KT=
201904180730 METAR LRBS 180730Z 31005KT 3000 -RA BR BKN010 SCT013 09/08
                        Q1025 R07/29//95 BECMG 06010KT=
201904180800 METAR LRBS 180800Z 32004KT 290V350 5000 -RA BR FEW010 OVC013
                        09/08 Q1025 R07/29//95 BECMG 06010KT=
201904180830 METAR LRBS 180830Z 01005KT 340V040 5000 -RA BR OVC007 09/08
                        Q1026 R07/29//95 BECMG 06010KT=
201904180900 METAR LRBS 180900Z 02008KT 350V050 8000 -RA SCT005 OVC016
                        09/08 Q1026 R07/29//95 NOSIG=
201904180930 METAR LRBS 180930Z 04012KT 7000 -RA BKN008 OVC016 09/08 Q1026
                        R07/29//95 NOSIG=
201904181000 METAR LRBS 181000Z 04011KT 8000 -RA OVC007 09/08 Q1026 R07/29//95
                        NOSIG=
201904181030 METAR LRBS 181030Z 04009KT 010V070 9999 -RA FEW007 SCT009
                        10/08 Q1026 R07/29//95 NOSIG=
201904181100 METAR LRBS 181100Z 04012KT 9999 -RA BKN008 BKN012 10/08 Q1026
                        R07/29//95 NOSIG=
201904181130 METAR LRBS 181130Z 04012KT 010V080 9999 -RA BKN013 BKN027
                        09/07 Q1027 R07/29//95 NOSIG=
201904181200 METAR COR LRBS 181200Z 04009KT 9999 BKN013 OVC040 10/08 Q1027
                        R07/29//95 NOSIG=
201904181230 METAR LRBS 181230Z 06013KT 9999 FEW022 BKN046 11/07 Q1027
                        R07/29//95 NOSIG=
201904181300 METAR LRBS 181300Z 05012KT 9999 -RA SCT021 SCT040 11/06 Q1027
                        R07/29//95 NOSIG=
201904181330 METAR LRBS 181330Z 04009KT 9999 SCT020 SCT040 11/07 Q1026
                        R07/29//95 NOSIG=
201904181400 METAR COR LRBS 181400Z 06011KT 9999 FEW018 11/06 Q1026 R07/29//95
                        NOSIG=
201904181430 METAR COR LRBS 181430Z 05008KT 9999 FEW025 11/06 Q1026 R07/19//95
                        NOSIG=
201904181500 METAR LRBS 181500Z 06008KT 9999 FEW028 12/06 Q1026 R07/19//95
                        NOSIG=
201904181530 METAR LRBS 181530Z 05006KT CAVOK 11/06 Q1026 R07/19//95 NOSIG=
201904181600 METAR LRBS 181600Z 07006KT CAVOK 11/06 Q1026 R07/19//95 NOSIG=
201904181630 METAR LRBS 181630Z 07003KT CAVOK 11/06 Q1026 R07/19//95 NOSIG=
201904181700 METAR LRBS 181700Z 00000KT CAVOK 11/06 Q1026 R07/19//95 NOSIG=
201904181730 METAR LRBS 181730Z 28003KT CAVOK 11/06 Q1026 R07/19//95 NOSIG=
201904181800 METAR LRBS 181800Z 26004KT CAVOK 10/06 Q1027 R07/19//95 NOSIG=
201904181830 METAR LRBS 181830Z VRB02KT CAVOK 10/06 Q1027 R07/19//95 NOSIG=
201904181900 METAR LRBS 181900Z 30003KT 270V330 CAVOK 09/07 Q1027 R07/19//95
                        NOSIG=
201904181930 METAR LRBS 181930Z 30003KT 250V340 CAVOK 09/06 Q1027 R07/19//95
                        NOSIG=
201904182000 METAR LRBS 182000Z 31005KT 270V350 CAVOK 10/06 Q1027 R07/19//95
                        NOSIG=
201904182030 METAR LRBS 182030Z 32003KT 260V360 CAVOK 10/06 Q1027 R07/19//95
                        NOSIG=
201904182100 METAR LRBS 182100Z 31004KT 250V360 CAVOK 10/06 Q1027 R07/19//95
                        NOSIG=
201904182130 METAR LRBS 182130Z 30005KT 270V340 CAVOK 10/06 Q1027 R07/19//95
                        NOSIG=
201904182200 METAR LRBS 182200Z 30003KT 270V340 CAVOK 09/06 Q1026 R07/19//95
                        NOSIG=
201904182230 METAR LRBS 182230Z 31003KT 270V350 CAVOK 08/06 Q1026 R07/19//95
                        NOSIG=
201904182300 METAR LRBS 182300Z 31003KT 270V340 CAVOK 08/06 Q1026 R07/19//95
                        NOSIG=
201904182330 METAR LRBS 182330Z 27003KT 240V310 CAVOK 08/06 Q1026 R07/19//95
                        NOSIG=
201904190000 METAR LRBS 190000Z 27003KT 240V300 CAVOK 08/06 Q1026 R07/19//95
                        NOSIG=
201904190030 METAR LRBS 190030Z VRB01KT CAVOK 08/06 Q1026 R07/19//95 NOSIG=
201904190100 METAR LRBS 190100Z VRB01KT CAVOK 08/06 Q1025 R07/19//95 NOSIG=
201904190130 METAR LRBS 190130Z 28002KT CAVOK 07/06 Q1025 R07/19//95 NOSIG=
201904190200 METAR LRBS 190200Z 00000KT 8000 NSC 06/05 Q1025 R07/19//95
                        TEMPO 5000 BR=
201904190230 METAR LRBS 190230Z 28001KT 8000 NSC 06/05 Q1025 R07/19//95
                        TEMPO 5000 BR=
201904190300 METAR LRBS 190300Z 00000KT 8000 MIFG NSC 06/05 Q1024 R07/19//95
                        TEMPO 5000 BR=
201904190330 METAR LRBS 190330Z 28002KT 6000 MIFG NSC 06/05 Q1024 R07/19//95
                        TEMPO 5000 BR=
201904190400 METAR LRBS 190400Z 27003KT 9999 MIFG NSC 07/06 Q1024 R07/19//95
                        NOSIG=
201904190430 METAR LRBS 190430Z 27002KT 8000 MIFG NSC 07/06 Q1024 R07/19//95
                        NOSIG=
201904190500 METAR LRBS 190500Z 27002KT 9000 NSC 07/06 Q1024 R07/19//95
                        NOSIG=
201904190530 METAR LRBS 190530Z VRB02KT CAVOK 08/06 Q1024 R07/CLRD// NOSIG=
201904190600 METAR LRBS 190600Z 28005KT 260V330 CAVOK 10/05 Q1023 NOSIG=
201904190630 METAR LRBS 190630Z 30004KT 270V350 CAVOK 12/05 Q1023 NOSIG=
201904190700 METAR LRBS 190700Z 30005KT 260V340 CAVOK 12/05 Q1023 NOSIG=
201904190730 METAR LRBS 190730Z 29007KT 250V340 9999 FEW050TCU 14/03 Q1023
                        TEMPO SCT045CB=
201904190800 METAR LRBS 190800Z 32004KT 260V010 CAVOK 15/04 Q1023 TEMPO
                        SCT045CB=
201904190830 METAR LRBS 190830Z 29008KT 260V350 9999 FEW045CB 16/03 Q1023
                        TEMPO SCT045CB=
201904190900 METAR LRBS 190900Z 31006KT 260V350 9999 FEW016 FEW040CB 16/03
                        Q1022 NOSIG=
201904190930 METAR LRBS 190930Z 35007KT 300V040 9999 FEW045CB 18/04 Q1022
                        TEMPO VRB15G25KT 5000 -SHRA BKN015
                        SCT045CB=
201904191000 METAR LRBS 191000Z 33006KT 270V020 9999 VCTS SCT045CB 17/03
                        Q1021 TEMPO VRB15G25KT 5000 -TSRA
                        BKN015 SCT045CB=
201904191030 METAR COR LRBS 191030Z 04019KT 9999 -TSRA FEW011 SCT040CB
                        13/04 Q1022 TEMPO VRB20G30KT 5000
                        TSRA BKN010 SCT040CB=
201904191100 METAR LRBS 191100Z 04020KT 010V070 9000 -SHRA VCTS FEW014
                        SCT040CB 12/07 Q1023 RETS TEMPO VRB20G30KT
                        5000 TSRA BKN010 SCT040CB=
201904191130 METAR LRBS 191130Z 04011KT 9999 FEW015 FEW045CB 12/07 Q1024
                        TEMPO VRB25G25KT 5000 -SHRA BR SCT015
                        SCT040CB=
201904191200 METAR LRBS 191200Z 36007KT 290V050 9999 -SHRA FEW033 SCT042CB
                        12/06 Q1024 TEMPO VRB15G25KT 5000
                        -SHRA BR SCT015 SCT040CB=
201904191230 METAR LRBS 191230Z 33005KT 290V010 9999 FEW045CB 13/06 Q1023
                        NOSIG=
201904191300 METAR LRBS 191300Z 36005KT 320V040 9999 FEW045CB 13/06 Q1023
                        NOSIG=
201904191330 METAR LRBS 191330Z 04009KT 010V080 9999 FEW045CB 14/05 Q1023
                        NOSIG=
201904191400 METAR LRBS 191400Z 06009KT 9999 FEW032 FEW040CB 12/07 Q1023
                        NOSIG=
201904191430 METAR LRBS 191430Z 04008KT 010V070 9999 FEW045CB 12/05 Q1024
                        NOSIG=
201904191500 METAR LRBS 191500Z 05011KT 9999 VCSH FEW045CB 13/05 Q1024
                        NOSIG=
201904191530 METAR LRBS 191530Z 06009KT 9999 FEW030 FEW045CB 12/06 Q1024
                        NOSIG=
201904191600 METAR LRBS 191600Z 04011KT 9999 FEW042CB SCT045 12/05 Q1025
                        TEMPO VRB15G25KT 5000 -SHRA=
201904191630 METAR LRBS 191630Z 05015KT 9999 FEW029 FEW048CB 10/05 Q1025
                        TEMPO VRB15G25KT 5000 -SHRA=
201904191700 METAR LRBS 191700Z 04010KT 360V070 9999 -SHRA FEW050CB 10/05
                        Q1026 TEMPO 5000 -SHRA=
201904191730 METAR LRBS 191730Z 04011KT 9999 FEW050CB 08/05 Q1026 TEMPO
                        5000 -SHRA=
201904191800 METAR LRBS 191800Z 04011KT CAVOK 08/06 Q1026 NOSIG=
201904191830 METAR LRBS 191830Z 03007KT CAVOK 07/05 Q1027 NOSIG=
201904191900 METAR COR LRBS 191900Z 01003KT 9999 FEW040 07/05 Q1027 NOSIG=
201904191930 METAR LRBS 191930Z 03004KT 9999 SCT038 07/05 Q1027 NOSIG=
201904192000 METAR LRBS 192000Z 05004KT 9999 FEW037 06/04 Q1027 NOSIG=
201904192030 METAR LRBS 192030Z 07003KT CAVOK 06/04 Q1027 NOSIG=
201904192100 METAR LRBS 192100Z 00000KT 9999 FEW034 06/05 Q1027 NOSIG=
201904192130 METAR LRBS 192130Z 06001KT 9999 FEW033 06/05 Q1027 NOSIG=
201904192200 METAR LRBS 192200Z AUTO 00000KT 9999 BKN130/// 07/05 Q1027
                        NOSIG=
201904192230 METAR LRBS 192230Z AUTO 00000KT 9999 OVC120/// 07/05 Q1027
                        NOSIG=
201904192300 METAR LRBS 192300Z 00000KT CAVOK 06/05 Q1027 NOSIG=
201904192330 METAR LRBS 192330Z 30002KT CAVOK 06/05 Q1027 NOSIG=
201904200000 METAR COR LRBS 200000Z 34001KT CAVOK 06/05 Q1027 NOSIG=
201904200030 METAR LRBS 200030Z AUTO 32004KT 9999 R07/P2000 R25/1600VP2000U
                        BR FEW092/// SCT140/// 05/04 Q1026
                        NOSIG=
201904200100 METAR COR LRBS 200100Z 32003KT CAVOK 05/04 Q1026 NOSIG=
201904200130 METAR LRBS 200130Z 31004KT CAVOK 06/04 Q1026 TEMPO 5000 -RA
                        BR=
201904200200 METAR LRBS 200200Z VRB01KT CAVOK 06/04 Q1026 TEMPO 5000 -RA
                        BR=
201904200230 METAR LRBS 200230Z 31003KT CAVOK 06/04 Q1026 TEMPO 5000 -RA
                        BR=
201904200300 METAR LRBS 200300Z 30004KT CAVOK 05/04 Q1026 TEMPO 5000 -RA
                        BR=
201904200330 METAR LRBS 200330Z 29003KT CAVOK 05/04 Q1027 TEMPO 5000 -RA
                        BR=
201904200400 METAR LRBS 200400Z 32004KT 9999 -RA NSC 06/04 Q1027 NOSIG=
201904200430 METAR COR LRBS 200430Z 31005KT 270V360 9999 FEW040CB 07/04
                        Q1027 NOSIG=
201904200500 METAR LRBS 200500Z 32003KT CAVOK 08/05 Q1027 NOSIG=
201904200530 METAR LRBS 200530Z 33004KT 290V360 CAVOK 09/03 Q1027 NOSIG=
201904200600 METAR LRBS 200600Z 01007KT 340V050 CAVOK 10/03 Q1027 NOSIG=
201904200630 METAR LRBS 200630Z 02008KT 360V060 CAVOK 11/02 Q1027 NOSIG=
201904200700 METAR LRBS 200700Z 02009KT CAVOK 12/01 Q1027 NOSIG=
201904200730 METAR LRBS 200730Z 02008KT 340V050 CAVOK 12/M00 Q1028 NOSIG=
201904200800 METAR LRBS 200800Z 02007KT 350V050 CAVOK 13/M03 Q1028 NOSIG=
201904200830 METAR LRBS 200830Z 01009KT CAVOK 11/M01 Q1028 NOSIG=
201904200900 METAR LRBS 200900Z 05011KT 010V080 CAVOK 14/M03 Q1028 NOSIG=
201904200930 METAR LRBS 200930Z 06013KT 020V080 CAVOK 13/M02 Q1028 NOSIG=
201904201000 METAR LRBS 201000Z 05012KT 010V070 CAVOK 14/M01 Q1027 NOSIG=
201904201030 METAR COR LRBS 201030Z 36008KT 330V040 CAVOK 13/M01 Q1028
                        NOSIG=
201904201100 METAR LRBS 201100Z 36006KT CAVOK 15/M00 Q1027 NOSIG=
201904201130 METAR LRBS 201130Z 01008KT 350V050 CAVOK 14/M00 Q1028 NOSIG=
201904201200 METAR LRBS 201200Z 03009KT CAVOK 14/M01 Q1027 NOSIG=
201904201230 METAR LRBS 201230Z 02007KT 340V080 CAVOK 14/M02 Q1027 NOSIG=
201904201300 METAR LRBS 201300Z 34006KT CAVOK 14/M02 Q1027 NOSIG=
201904201330 METAR LRBS 201330Z 02006KT 350V050 CAVOK 14/M01 Q1027 NOSIG=
201904201400 METAR LRBS 201400Z 36004KT 300V060 CAVOK 14/M02 Q1027 NOSIG=
201904201430 METAR LRBS 201430Z VRB02KT CAVOK 14/M01 Q1027 NOSIG=
201904201500 METAR LRBS 201500Z 02004KT 350V050 CAVOK 14/M02 Q1027 NOSIG=
201904201530 METAR LRBS 201530Z 03005KT 360V070 CAVOK 14/M01 Q1027=
201904201600 METAR LRBS 201600Z 06005KT CAVOK 13/01 Q1027 NOSIG=
201904201630 METAR LRBS 201630Z 06004KT CAVOK 12/01 Q1027 NOSIG=
201904201700 METAR LRBS 201700Z 05001KT CAVOK 12/M00 Q1027 NOSIG=
201904201730 METAR LRBS 201730Z 05002KT CAVOK 11/00 Q1027 NOSIG=
201904201800 METAR LRBS 201800Z 00000KT CAVOK 10/01 Q1027 NOSIG=
201904201830 METAR LRBS 201830Z 08002KT CAVOK 07/01 Q1027 NOSIG=
201904201900 METAR LRBS 201900Z 27002KT CAVOK 09/02 Q1027 NOSIG=
201904201930 METAR LRBS 201930Z 28001KT CAVOK 08/01 Q1027 NOSIG=
201904202000 METAR LRBS 202000Z 29001KT CAVOK 06/02 Q1027 NOSIG=
201904202030 METAR LRBS 202030Z 00000KT 9000 NSC 06/02 Q1027 NOSIG=
201904202100 METAR LRBS 202100Z 29001KT CAVOK 05/01 Q1027 NOSIG=
201904202130 METAR LRBS 202130Z 30001KT CAVOK 05/01 Q1027 NOSIG=
201904202200 METAR LRBS 202200Z 00000KT CAVOK 05/01 Q1027 NOSIG=
201904202230 METAR LRBS 202230Z 27003KT CAVOK 05/02 Q1027 NOSIG=
201904202300 METAR LRBS 202300Z 25002KT 8000 NSC 05/02 Q1026 NOSIG=
201904202330 METAR LRBS 202330Z 27002KT 8000 NSC 05/02 Q1026 NOSIG=
201904210000 METAR LRBS 210000Z 25004KT 8000 NSC 05/02 Q1026 NOSIG=
201904210030 METAR LRBS 210030Z 26004KT 8000 NSC 06/01 Q1026 NOSIG=
201904210100 METAR LRBS 210100Z 24004KT 9000 NSC 07/01 Q1025 NOSIG=
201904210130 METAR LRBS 210130Z 24004KT 9000 NSC 06/01 Q1025 NOSIG=
201904210200 METAR LRBS 210200Z 24003KT 9000 NSC 06/01 Q1025 NOSIG=
201904210230 METAR LRBS 210230Z 26003KT CAVOK 06/01 Q1025 NOSIG=
201904210300 METAR LRBS 210300Z 25005KT CAVOK 06/01 Q1025 NOSIG=
201904210330 METAR LRBS 210330Z 28003KT 240V300 CAVOK 06/01 Q1024 NOSIG=
201904210400 METAR LRBS 210400Z 29002KT CAVOK 06/02 Q1024 NOSIG=
201904210430 METAR LRBS 210430Z 28003KT CAVOK 07/02 Q1024 NOSIG=
201904210500 METAR LRBS 210500Z 28003KT CAVOK 08/02 Q1024 NOSIG=
201904210530 METAR LRBS 210530Z 27005KT CAVOK 09/02 Q1024 NOSIG=
201904210600 METAR LRBS 210600Z 26006KT CAVOK 11/03 Q1024 NOSIG=
201904210630 METAR LRBS 210630Z 27008KT 230V310 CAVOK 12/03 Q1024 NOSIG=
201904210700 METAR LRBS 210700Z 27009KT 240V300 CAVOK 13/03 Q1024 NOSIG=
201904210730 METAR LRBS 210730Z 28010KT 260V320 CAVOK 14/02 Q1024 NOSIG=
201904210800 METAR LRBS 210800Z 28009KT 230V320 CAVOK 14/03 Q1023 NOSIG=
201904210830 METAR LRBS 210830Z 27012KT 240V300 CAVOK 15/01 Q1023 NOSIG=
201904210900 METAR LRBS 210900Z 28012KT 260V320 CAVOK 16/02 Q1023 NOSIG=
201904210930 METAR LRBS 210930Z 27010KT 240V300 CAVOK 16/02 Q1023 NOSIG=
201904211000 METAR LRBS 211000Z 26013KT 230V300 CAVOK 17/03 Q1022 NOSIG=
201904211030 METAR LRBS 211030Z 27010KT 240V310 CAVOK 17/02 Q1022 NOSIG=
201904211100 METAR LRBS 211100Z 26010KT 220V320 CAVOK 17/03 Q1022 NOSIG=
201904211130 METAR LRBS 211130Z 23009KT 200V260 9999 FEW040 17/04 Q1021
                        NOSIG=
201904211200 METAR LRBS 211200Z 26010KT 9999 SCT040 17/03 Q1021 NOSIG=
201904211230 METAR LRBS 211230Z 32005KT 270V360 9999 -SHRA SCT048CB 15/05
                        Q1022 NOSIG=
201904211300 METAR LRBS 211300Z 31003KT 270V020 9999 FEW043CB 18/04 Q1021
                        NOSIG=
201904211330 METAR LRBS 211330Z 24006KT CAVOK 18/04 Q1021 NOSIG=
201904211400 METAR LRBS 211400Z 23006KT 170V270 CAVOK 18/03 Q1021 NOSIG=
201904211430 METAR LRBS 211430Z 26005KT CAVOK 18/03 Q1020 NOSIG=
201904211500 METAR LRBS 211500Z 23004KT 180V260 CAVOK 18/02 Q1020 NOSIG=
201904211530 METAR LRBS 211530Z VRB01KT CAVOK 17/03 Q1020 NOSIG=
201904211600 METAR LRBS 211600Z VRB03KT 8000 -SHRA BKN060CB 14/05 Q1021
                        NOSIG=
201904211630 METAR LRBS 211630Z VRB02KT 9999 FEW060CB 14/05 Q1020 NOSIG=
201904211700 METAR LRBS 211700Z 21002KT CAVOK 14/06 Q1020 NOSIG=
201904211730 METAR LRBS 211730Z 18002KT CAVOK 14/06 Q1020 NOSIG=
201904211800 METAR LRBS 211800Z 09003KT CAVOK 12/07 Q1020 NOSIG=
201904211830 METAR LRBS 211830Z 09002KT CAVOK 10/06 Q1020 NOSIG=
201904211900 METAR COR LRBS 211900Z 05001KT CAVOK 11/06 Q1020 NOSIG=
201904211930 METAR LRBS 211930Z 00000KT CAVOK 10/07 Q1020 NOSIG=
201904212000 METAR LRBS 212000Z 07003KT CAVOK 08/06 Q1021 NOSIG=
201904212030 METAR LRBS 212030Z 08004KT CAVOK 08/06 Q1021 NOSIG=
201904212100 METAR LRBS 212100Z 10005KT CAVOK 08/06 Q1021 NOSIG=
201904212130 METAR LRBS 212130Z 09004KT CAVOK 09/06 Q1021 NOSIG=
201904212200 METAR COR LRBS 212200Z 08003KT CAVOK 08/06 Q1021 TEMPO 5000
                        -SHRA SCT050CB=
201904212230 METAR LRBS 212230Z 08003KT CAVOK 08/06 Q1021 TEMPO 5000 -SHRA
                        SCT050CB=
201904212300 METAR LRBS 212300Z 07003KT CAVOK 09/06 Q1021 TEMPO 5000 -SHRA
                        SCT050CB=
201904212330 METAR COR LRBS 212330Z 06005KT CAVOK 08/06 Q1021 TEMPO FEW050CB=
201904220000 METAR COR LRBS 220000Z 05005KT 010V070 CAVOK 08/06 Q1021
                        TEMPO FEW050CB=
201904220030 METAR COR LRBS 220030Z 05005KT 010V070 9999 -SHRA FEW050CB
                        08/06 Q1021 NOSIG=
201904220100 METAR LRBS 220100Z 08007KT 9999 -SHRA FEW050CB 07/05 Q1021
                        NOSIG=
201904220130 METAR COR LRBS 220130Z 09006KT 9999 FEW050CB 07/05 Q1021
                        NOSIG=
201904220200 METAR LRBS 220200Z 11005KT CAVOK 07/05 Q1021 NOSIG=
201904220230 METAR LRBS 220230Z 10003KT 070V130 CAVOK 07/05 Q1020 NOSIG=
201904220300 METAR LRBS 220300Z 11003KT CAVOK 07/05 Q1020 NOSIG=
201904220330 METAR LRBS 220330Z VRB02KT CAVOK 07/05 Q1021 NOSIG=
201904220400 METAR LRBS 220400Z 03003KT 350V060 CAVOK 07/05 Q1021 NOSIG=
201904220430 METAR LRBS 220430Z 02003KT CAVOK 08/06 Q1021 NOSIG=
201904220500 METAR LRBS 220500Z 04005KT CAVOK 08/06 Q1021 NOSIG=
201904220530 METAR LRBS 220530Z 05007KT CAVOK 08/06 Q1022 NOSIG=
201904220600 METAR LRBS 220600Z 06009KT 030V100 CAVOK 09/05 Q1022 NOSIG=
201904220630 METAR LRBS 220630Z 07010KT CAVOK 10/06 Q1022 NOSIG=
201904220700 METAR LRBS 220700Z 07011KT CAVOK 12/05 Q1022 NOSIG=
201904220730 METAR LRBS 220730Z 08011KT CAVOK 12/03 Q1022 NOSIG=
201904220800 METAR LRBS 220800Z 08012KT CAVOK 13/03 Q1022 NOSIG=
201904220830 METAR LRBS 220830Z 08010KT 050V110 CAVOK 14/05 Q1023 NOSIG=
201904220900 METAR LRBS 220900Z 09010KT 060V120 CAVOK 14/02 Q1023 NOSIG=
201904220930 METAR LRBS 220930Z 09012KT CAVOK 15/03 Q1022 NOSIG=
201904221000 METAR LRBS 221000Z 05012KT CAVOK 15/05 Q1022 NOSIG=
201904221030 METAR LRBS 221030Z 08010KT CAVOK 14/04 Q1022 NOSIG=
201904221100 METAR LRBS 221100Z 08012KT CAVOK 15/03 Q1022 NOSIG=
201904221130 METAR LRBS 221130Z 11012KT CAVOK 16/03 Q1022 NOSIG=
201904221200 METAR LRBS 221200Z 08012KT CAVOK 16/02 Q1022 NOSIG=
201904221230 METAR LRBS 221230Z 08011G21KT 020V110 CAVOK 16/01 Q1022 NOSIG=
201904221300 METAR LRBS 221300Z 06014KT CAVOK 15/02 Q1022 NOSIG=
201904221330 METAR COR LRBS 221330Z 09011KT CAVOK 15/02 Q1022 NOSIG=
201904221400 METAR LRBS 221400Z 10011KT 070V130 CAVOK 15/03 Q1022 NOSIG=
201904221430 METAR LRBS 221430Z 09011KT 070V130 CAVOK 15/02 Q1022 NOSIG=
201904221500 METAR LRBS 221500Z 10011KT CAVOK 15/02 Q1022 NOSIG=
201904221530 METAR LRBS 221530Z 09013KT CAVOK 15/01 Q1022 NOSIG=
201904221600 METAR LRBS 221600Z 08011KT CAVOK 15/01 Q1022 NOSIG=
201904221630 METAR LRBS 221630Z 08010KT CAVOK 14/01 Q1022 NOSIG=
201904221700 METAR LRBS 221700Z 08010KT CAVOK 13/00 Q1022 NOSIG=
201904221730 METAR LRBS 221730Z 09012KT CAVOK 13/01 Q1022 NOSIG=
201904221800 METAR LRBS 221800Z 09011KT CAVOK 12/01 Q1023 NOSIG=
201904221830 METAR LRBS 221830Z 08012KT CAVOK 11/00 Q1023 NOSIG=
201904221900 METAR LRBS 221900Z 09010KT CAVOK 11/00 Q1024 NOSIG=
201904221930 METAR LRBS 221930Z AUTO 08010KT 9999 SCT120/// 10/00 Q1024
                        NOSIG=
201904222000 METAR LRBS 222000Z 09009KT CAVOK 10/M00 Q1024 NOSIG=
201904222030 METAR LRBS 222030Z AUTO 10007KT 9999 OVC130/// 09/M01 Q1025
                        NOSIG=
201904222100 METAR COR LRBS 222100Z 08007KT CAVOK 08/M01 Q1025 NOSIG=
201904222130 METAR COR LRBS 222130Z 06006KT CAVOK 06/M01 Q1025 NOSIG=
201904222200 METAR LRBS 222200Z 06006KT CAVOK 06/M01 Q1025 NOSIG=
201904222230 METAR LRBS 222230Z 07007KT CAVOK 05/M00 Q1025 NOSIG=
201904222300 METAR COR LRBS 222300Z 07004KT CAVOK 05/M01 Q1025 NOSIG=
201904222330 METAR LRBS 222330Z 07005KT CAVOK 05/M01 Q1025 NOSIG=
201904230000 METAR COR LRBS 230000Z 06004KT CAVOK 04/M01 Q1025 NOSIG=
201904230030 METAR LRBS 230030Z 06004KT CAVOK 05/M01 Q1025 NOSIG=
201904230100 METAR LRBS 230100Z 03004KT CAVOK 04/M00 Q1025 NOSIG=
201904230130 METAR LRBS 230130Z 06003KT CAVOK 04/M00 Q1025 NOSIG=
201904230200 METAR LRBS 230200Z 06005KT CAVOK 03/00 Q1025 NOSIG=
201904230230 METAR LRBS 230230Z 06007KT CAVOK 04/00 Q1025 NOSIG=
201904230300 METAR LRBS 230300Z 06006KT CAVOK 04/00 Q1025 NOSIG=
201904230330 METAR LRBS 230330Z 08006KT CAVOK 04/00 Q1025 NOSIG=
201904230400 METAR LRBS 230400Z 05007KT CAVOK 04/01 Q1025 NOSIG=
201904230430 METAR LRBS 230430Z 05008KT CAVOK 05/01 Q1026 NOSIG=
201904230500 METAR LRBS 230500Z 05007KT CAVOK 06/02 Q1026 NOSIG=
201904230530 METAR LRBS 230530Z 05008KT CAVOK 07/03 Q1026 NOSIG=
201904230600 METAR LRBS 230600Z 06010KT CAVOK 08/04 Q1026 NOSIG=
201904230630 METAR LRBS 230630Z 07011KT CAVOK 09/03 Q1026 NOSIG=
201904230700 METAR LRBS 230700Z 07011KT CAVOK 10/04 Q1026 NOSIG=
201904230730 METAR LRBS 230730Z 07012KT CAVOK 11/04 Q1027 NOSIG=
201904230800 METAR LRBS 230800Z 08011KT CAVOK 12/02 Q1027 NOSIG=
201904230830 METAR LRBS 230830Z 09013KT CAVOK 12/02 Q1027 NOSIG=
201904230900 METAR LRBS 230900Z 08014KT CAVOK 13/02 Q1027 NOSIG=
201904230930 METAR LRBS 230930Z 08014KT 060V120 CAVOK 13/02 Q1027 NOSIG=
201904231000 METAR LRBS 231000Z 09013KT CAVOK 14/02 Q1027 NOSIG=
201904231030 METAR LRBS 231030Z 09016KT CAVOK 14/01 Q1026 NOSIG=
201904231100 METAR LRBS 231100Z 09015KT CAVOK 14/02 Q1026 NOSIG=
201904231130 METAR LRBS 231130Z 09013KT CAVOK 15/02 Q1026 NOSIG=
201904231200 METAR LRBS 231200Z 09015KT CAVOK 15/00 Q1026 NOSIG=
201904231230 METAR LRBS 231230Z 09013KT CAVOK 15/01 Q1026 NOSIG=
201904231300 METAR LRBS 231300Z 09013KT 060V120 CAVOK 15/01 Q1026 NOSIG=
201904231330 METAR LRBS 231330Z 09014KT CAVOK 15/02 Q1025 NOSIG=
201904231400 METAR LRBS 231400Z 09013KT CAVOK 15/02 Q1025 NOSIG=
201904231430 METAR LRBS 231430Z 09013KT CAVOK 15/03 Q1025 NOSIG=
201904231500 METAR LRBS 231500Z 08012KT CAVOK 15/03 Q1025 NOSIG=
201904231530 METAR LRBS 231530Z 08011KT CAVOK 15/03 Q1024 NOSIG=
201904231600 METAR LRBS 231600Z 08012KT CAVOK 15/02 Q1024=
201904231630 METAR COR LRBS 231630Z 07012KT 9999 FEW050CB 14/02 Q1024
                        TEMPO 5000 SHRA SCT030CB=
201904231700 METAR LRBS 231700Z 08010KT 9999 FEW045CB 14/03 Q1024 TEMPO
                        5000 SHRA=
201904231730 METAR LRBS 231730Z 07011KT 9999 FEW050CB 14/03 Q1024 TEMPO
                        5000 SHRA=
201904231800 METAR LRBS 231800Z 08013KT 9999 FEW050CB 13/03 Q1024 TEMPO
                        5000 SHRA=
201904231830 METAR LRBS 231830Z 09012KT CAVOK 13/02 Q1025 NOSIG=
201904231900 METAR LRBS 231900Z 08010KT 9999 FEW050CB 13/03 Q1025 TEMPO
                        5000 -SHRA=
201904231930 METAR LRBS 231930Z 09010KT 9999 -SHRA FEW050CB 12/03 Q1025
                        TEMPO 5000 SHRA=
201904232000 METAR LRBS 232000Z 08010KT 9999 FEW050CB 12/03 Q1024 TEMPO
                        5000 SHRA=
201904232030 METAR LRBS 232030Z 09010KT 9999 FEW050CB 11/03 Q1025 TEMPO
                        5000 SHRA=
201904232100 METAR LRBS 232100Z 09009KT 9999 FEW050CB 11/03 Q1024 NOSIG=
201904232130 METAR LRBS 232130Z 08009KT 9999 FEW050CB 11/03 Q1024 NOSIG=
201904232200 METAR LRBS 232200Z 07007KT 9999 -SHRA FEW050CB 10/03 Q1024
                        NOSIG=
201904232230 METAR LRBS 232230Z 07007KT 8000 -SHRA FEW050CB 09/05 Q1024
                        NOSIG=
201904232300 METAR LRBS 232300Z 05005KT 9999 -SHRA FEW050CB 08/06 Q1025
                        NOSIG=
201904232330 METAR LRBS 232330Z 05006KT 9999 -SHRA FEW050CB 08/05 Q1024
                        NOSIG=
201904240000 METAR LRBS 240000Z 06006KT 9999 FEW050CB 08/06 Q1024 NOSIG=
201904240030 METAR LRBS 240030Z 05007KT CAVOK 08/06 Q1024 NOSIG=
201904240100 METAR LRBS 240100Z 05007KT 9999 BKN048 08/06 Q1024 NOSIG=
201904240130 METAR LRBS 240130Z 05009KT CAVOK 08/06 Q1024 NOSIG=
201904240200 METAR LRBS 240200Z 06009KT CAVOK 08/06 Q1024 NOSIG=
201904240230 METAR LRBS 240230Z 05008KT CAVOK 08/06 Q1024 NOSIG=
201904240300 METAR LRBS 240300Z 05007KT CAVOK 08/06 Q1024 NOSIG=
201904240330 METAR LRBS 240330Z 04008KT 360V060 9999 FEW050CB 08/06 Q1025
                        NOSIG=
201904240400 METAR LRBS 240400Z 05008KT 9999 -SHRA FEW050CB 08/06 Q1025
                        NOSIG=
201904240430 METAR LRBS 240430Z 05007KT 9999 -SHRA FEW050CB 08/07 Q1025
                        NOSIG=
201904240500 METAR LRBS 240500Z 05007KT CAVOK 08/07 Q1026 NOSIG=
201904240530 METAR LRBS 240530Z 04007KT CAVOK 09/07 Q1026 NOSIG=
201904240600 METAR LRBS 240600Z 04009KT 010V070 CAVOK 09/07 Q1026 NOSIG=
201904240630 METAR COR LRBS 240630Z 04009KT CAVOK 11/07 Q1026 NOSIG=
201904240700 METAR LRBS 240700Z 04010KT 9999 FEW013 11/07 Q1026 NOSIG=
201904240730 METAR LRBS 240730Z 05011KT 020V090 9999 SCT013 11/07 Q1026
                        NOSIG=
201904240800 METAR LRBS 240800Z 05011KT 020V090 9999 BKN017 12/07 Q1026
                        NOSIG=
201904240830 METAR LRBS 240830Z 06011KT 9999 BKN018 13/08 Q1027 NOSIG=
201904240900 METAR LRBS 240900Z 04010KT 010V070 9999 BKN021 13/08 Q1027
                        NOSIG=
201904240930 METAR LRBS 240930Z 06010KT 010V080 9999 SCT023 14/06 Q1027=
201904241000 METAR LRBS 241000Z 05010KT 020V100 9999 SCT026 15/07 Q1026
                        NOSIG=
201904241030 METAR LRBS 241030Z 05010KT CAVOK 15/07 Q1026 NOSIG=
201904241100 METAR LRBS 241100Z 06009KT 030V090 CAVOK 16/06 Q1026 NOSIG=
201904241130 METAR LRBS 241130Z 03010KT CAVOK 16/08 Q1026 NOSIG=
201904241200 METAR LRBS 241200Z 06009KT CAVOK 17/08 Q1026 NOSIG=
201904241230 METAR LRBS 241230Z 05009KT CAVOK 17/07 Q1025 NOSIG=
201904241300 METAR LRBS 241300Z 05010KT 010V070 CAVOK 18/07 Q1025 NOSIG=
201904241330 METAR LRBS 241330Z 05009KT 010V090 CAVOK 18/08 Q1025=
201904241400 METAR LRBS 241400Z 05008KT 360V080 CAVOK 18/07 Q1024 NOSIG=
201904241430 METAR LRBS 241430Z 05009KT CAVOK 18/07 Q1025 NOSIG=
201904241500 METAR LRBS 241500Z 06010KT CAVOK 18/07 Q1024 NOSIG=
201904241530 METAR COR LRBS 241530Z 06010KT CAVOK 18/07 Q1024 NOSIG=
201904241600 METAR LRBS 241600Z 06007KT CAVOK 18/07 Q1024 NOSIG=
201904241630 METAR LRBS 241630Z 04007KT CAVOK 17/07 Q1024 NOSIG=
201904241700 METAR LRBS 241700Z 04007KT CAVOK 16/07 Q1024 NOSIG=
201904241730 METAR LRBS 241730Z 06008KT CAVOK 15/07 Q1024 NOSIG=
201904241800 METAR LRBS 241800Z 06010KT CAVOK 14/06 Q1025 NOSIG=
201904241830 METAR LRBS 241830Z 06010KT CAVOK 13/06 Q1025 NOSIG=
201904241900 METAR LRBS 241900Z 06010KT CAVOK 12/05 Q1025 NOSIG=
201904241930 METAR LRBS 241930Z 06009KT CAVOK 11/05 Q1025 NOSIG=
201904242000 METAR LRBS 242000Z 06008KT CAVOK 10/05 Q1025 NOSIG=
201904242030 METAR LRBS 242030Z 06008KT CAVOK 10/05 Q1025 NOSIG=
201904242100 METAR LRBS 242100Z 06007KT CAVOK 09/05 Q1025 NOSIG=
201904242130 METAR LRBS 242130Z 06008KT CAVOK 09/05 Q1025 NOSIG=
201904242200 METAR LRBS 242200Z 04007KT CAVOK 09/05 Q1025 NOSIG=
201904242230 METAR LRBS 242230Z 05007KT CAVOK 08/04 Q1025 NOSIG=
201904242300 METAR LRBS 242300Z 04008KT CAVOK 08/04 Q1025 NOSIG=
201904242330 METAR LRBS 242330Z 03006KT CAVOK 08/04 Q1025 NOSIG=
201904250000 METAR LRBS 250000Z 03006KT 360V060 CAVOK 07/04 Q1025 NOSIG=
201904250030 METAR LRBS 250030Z 03006KT CAVOK 07/04 Q1025 NOSIG=
201904250100 METAR LRBS 250100Z 05007KT CAVOK 07/05 Q1024 NOSIG=
201904250130 METAR LRBS 250130Z 04007KT CAVOK 07/05 Q1025 NOSIG=
201904250200 METAR LRBS 250200Z 04008KT CAVOK 07/05 Q1025 NOSIG=
201904250230 METAR LRBS 250230Z 03006KT CAVOK 07/05 Q1025 NOSIG=
201904250300 METAR COR LRBS 250300Z 04008KT CAVOK 07/06 Q1025 NOSIG=
201904250330 METAR LRBS 250330Z 05009KT 8000 NSC 07/06 Q1025 NOSIG=
201904250400 METAR LRBS 250400Z 05009KT 9000 NSC 07/06 Q1025 NOSIG=
201904250430 METAR LRBS 250430Z 04009KT CAVOK 08/06 Q1025 NOSIG=
201904250500 METAR LRBS 250500Z 04009KT CAVOK 08/06 Q1025 NOSIG=
201904250530 METAR LRBS 250530Z 05007KT 010V070 CAVOK 09/06 Q1025 NOSIG=
201904250600 METAR LRBS 250600Z 06009KT CAVOK 10/07 Q1025 NOSIG=
201904250630 METAR LRBS 250630Z 05008KT 020V080 CAVOK 10/07 Q1025 NOSIG=
201904250700 METAR LRBS 250700Z 07008KT 040V100 CAVOK 12/08 Q1025 NOSIG=
201904250730 METAR LRBS 250730Z 04007KT 010V070 CAVOK 12/08 Q1025 NOSIG=
201904250800 METAR LRBS 250800Z 07008KT 040V100 CAVOK 13/08 Q1025 NOSIG=
201904250830 METAR LRBS 250830Z 07007KT 020V100 CAVOK 14/09 Q1025 NOSIG=
201904250900 METAR LRBS 250900Z 05007KT 360V100 CAVOK 15/09 Q1025 NOSIG=
201904250930 METAR LRBS 250930Z 05010KT 350V070 CAVOK 16/10 Q1025 NOSIG=
201904251000 METAR LRBS 251000Z 08006KT 050V110 CAVOK 17/10 Q1024 NOSIG=
201904251030 METAR LRBS 251030Z 06006KT 020V100 CAVOK 18/10 Q1024 NOSIG=
201904251100 METAR LRBS 251100Z 09006KT CAVOK 19/10 Q1024 NOSIG=
201904251130 METAR COR LRBS 251130Z 06007KT 020V090 CAVOK 20/10 Q1023
                        NOSIG=
201904251200 METAR LRBS 251200Z 06004KT 360V140 CAVOK 21/10 Q1023 NOSIG=
201904251230 METAR LRBS 251230Z 07005KT 020V130 CAVOK 21/11 Q1023 NOSIG=
201904251300 METAR LRBS 251300Z 10004KT 040V130 CAVOK 22/10 Q1022 NOSIG=
201904251330 METAR LRBS 251330Z 04005KT 010V080 CAVOK 22/10 Q1022 NOSIG=
201904251400 METAR LRBS 251400Z 07003KT 040V140 CAVOK 22/10 Q1022 NOSIG=
201904251430 METAR LRBS 251430Z 05004KT 360V090 CAVOK 22/11 Q1021 NOSIG=
201904251500 METAR LRBS 251500Z 08003KT 050V120 CAVOK 22/10 Q1021 NOSIG=
201904251530 METAR LRBS 251530Z 06005KT 010V070 CAVOK 22/11 Q1021 NOSIG=
201904251600 METAR LRBS 251600Z 06003KT CAVOK 21/11 Q1021 NOSIG=
201904251630 METAR COR LRBS 251630Z 03003KT CAVOK 20/11 Q1021 NOSIG=
201904251700 METAR LRBS 251700Z 02004KT 020V100 CAVOK 19/11 Q1021 NOSIG=
201904251730 METAR LRBS 251730Z 09009KT CAVOK 18/10 Q1021 NOSIG=
201904251800 METAR LRBS 251800Z 06007KT CAVOK 15/10 Q1021 NOSIG=
201904251830 METAR LRBS 251830Z 07007KT CAVOK 15/09 Q1021=
201904251900 METAR LRBS 251900Z 06007KT CAVOK 14/08 Q1021 NOSIG=
201904251930 METAR LRBS 251930Z 07005KT CAVOK 13/08 Q1021 NOSIG=
201904252000 METAR LRBS 252000Z 07005KT CAVOK 12/08 Q1021 NOSIG=
201904252030 METAR LRBS 252030Z 07004KT 020V090 CAVOK 11/08 Q1021 NOSIG=
201904252100 METAR LRBS 252100Z 36005KT CAVOK 12/08 Q1021 NOSIG=
201904252130 METAR LRBS 252130Z 02004KT CAVOK 12/08 Q1021 NOSIG=
201904252200 METAR LRBS 252200Z 05004KT CAVOK 10/07 Q1021 NOSIG=
201904252230 METAR LRBS 252230Z AUTO 01005KT 9999 NCD 11/07 Q1021 NOSIG=
201904252300 METAR LRBS 252300Z 02004KT CAVOK 10/06 Q1021 NOSIG=
201904252330 METAR COR LRBS 252330Z 04005KT CAVOK 10/06 Q1021 NOSIG=
201904260000 METAR LRBS 260000Z 02004KT 350V060 CAVOK 09/05 Q1021 NOSIG=
201904260030 METAR LRBS 260030Z 05004KT CAVOK 09/05 Q1021 NOSIG=
201904260100 METAR COR LRBS 260100Z 05004KT CAVOK 08/05 Q1021 NOSIG=
201904260130 METAR LRBS 260130Z 07004KT CAVOK 07/05 Q1021 NOSIG=
201904260200 METAR LRBS 260200Z 06004KT CAVOK 07/05 Q1020 NOSIG=
201904260230 METAR LRBS 260230Z 02001KT CAVOK 07/05 Q1020 NOSIG=
201904260300 METAR LRBS 260300Z 01003KT CAVOK 07/06 Q1020 NOSIG=
201904260330 METAR LRBS 260330Z 01003KT CAVOK 07/06 Q1020 NOSIG=
201904260400 METAR LRBS 260400Z 03002KT CAVOK 07/06 Q1020 NOSIG=
201904260430 METAR LRBS 260430Z 04003KT CAVOK 08/07 Q1020 NOSIG=
201904260500 METAR LRBS 260500Z 04004KT CAVOK 09/07 Q1021 NOSIG=
201904260530 METAR LRBS 260530Z VRB02KT CAVOK 11/07 Q1021 NOSIG=
201904260600 METAR LRBS 260600Z VRB02KT CAVOK 13/07 Q1021 NOSIG=
201904260630 METAR LRBS 260630Z VRB02KT CAVOK 14/05 Q1021 NOSIG=
201904260700 METAR LRBS 260700Z 03004KT 350V090 CAVOK 15/06 Q1021 NOSIG=
201904260730 METAR LRBS 260730Z 08003KT 360V150 CAVOK 16/07 Q1021 NOSIG=
201904260800 METAR LRBS 260800Z VRB02KT CAVOK 17/08 Q1021 NOSIG=
201904260830 METAR COR LRBS 260830Z 10003KT 050V150 CAVOK 18/08 Q1021
                        NOSIG=
201904260900 METAR LRBS 260900Z VRB02KT CAVOK 20/09 Q1020 NOSIG=
201904260930 METAR LRBS 260930Z VRB02KT CAVOK 21/10 Q1020 NOSIG=
201904261000 METAR LRBS 261000Z VRB02KT CAVOK 22/10 Q1020 NOSIG=
201904261030 METAR LRBS 261030Z VRB02KT CAVOK 22/10 Q1019 NOSIG=
201904261100 METAR LRBS 261100Z 04003KT 350V080 CAVOK 23/10 Q1019 NOSIG=
201904261130 METAR LRBS 261130Z 05004KT 320V130 CAVOK 23/10 Q1019 NOSIG=
201904261200 METAR LRBS 261200Z 36003KT 290V050 CAVOK 24/10 Q1019 NOSIG=
201904261230 METAR LRBS 261230Z VRB03KT CAVOK 24/10 Q1018 NOSIG=
201904261300 METAR LRBS 261300Z VRB03KT CAVOK 24/11 Q1018 NOSIG=
201904261330 METAR LRBS 261330Z 11003KT 040V170 CAVOK 25/10 Q1018 NOSIG=
201904261400 METAR LRBS 261400Z VRB03KT CAVOK 24/11 Q1017 NOSIG=
201904261430 METAR LRBS 261430Z 06004KT 030V090 CAVOK 25/12 Q1017 NOSIG=
201904261500 METAR LRBS 261500Z 07004KT 030V100 CAVOK 25/12 Q1017 NOSIG=
201904261530 METAR LRBS 261530Z VRB02KT CAVOK 24/11 Q1017 NOSIG=
201904261600 METAR LRBS 261600Z 11005KT CAVOK 23/11 Q1017 NOSIG=
201904261630 METAR LRBS 261630Z 11003KT CAVOK 22/11 Q1017 NOSIG=
201904261700 METAR LRBS 261700Z 10003KT CAVOK 20/11 Q1017 NOSIG=
201904261730 METAR LRBS 261730Z 10002KT CAVOK 19/11 Q1017 NOSIG=
201904261800 METAR LRBS 261800Z 05003KT CAVOK 18/11 Q1017 NOSIG=
201904261830 METAR LRBS 261830Z 04003KT CAVOK 18/11 Q1017 NOSIG=
201904261900 METAR LRBS 261900Z 06003KT CAVOK 16/11 Q1017 NOSIG=
201904261930 METAR LRBS 261930Z 08002KT CAVOK 17/12 Q1017 NOSIG=
201904262000 METAR COR LRBS 262000Z 10004KT CAVOK 14/10 Q1017 NOSIG=
201904262030 METAR LRBS 262030Z 07004KT CAVOK 14/10 Q1017 NOSIG=
201904262100 METAR LRBS 262100Z 07004KT CAVOK 14/10 Q1017 NOSIG=
201904262130 METAR LRBS 262130Z 07005KT CAVOK 14/10 Q1017 NOSIG=
201904262200 METAR LRBS 262200Z 09004KT CAVOK 13/09 Q1017 NOSIG=
201904262230 METAR COR LRBS 262230Z 06004KT CAVOK 12/09 Q1017 NOSIG=
201904262300 METAR LRBS 262300Z 36004KT CAVOK 13/10 Q1016 NOSIG=
201904262330 METAR LRBS 262330Z AUTO 01002KT 9999 NCD 12/09 Q1016 NOSIG=
201904270000 METAR LRBS 270000Z 05004KT CAVOK 10/08 Q1016 NOSIG=
201904270030 METAR LRBS 270030Z 05003KT CAVOK 11/08 Q1015 NOSIG=
201904270100 METAR COR LRBS 270100Z 03003KT CAVOK 10/07 Q1015 NOSIG=
201904270130 METAR LRBS 270130Z AUTO 06002KT 9999 NCD 10/07 Q1015 NOSIG=
201904270200 METAR LRBS 270200Z 04001KT CAVOK 09/07 Q1015 NOSIG=
201904270230 METAR LRBS 270230Z 05002KT CAVOK 09/06 Q1015 NOSIG=
201904270300 METAR LRBS 270300Z 07001KT CAVOK 09/06 Q1015 NOSIG=
201904270330 METAR LRBS 270330Z 04002KT CAVOK 09/05 Q1015 NOSIG=
201904270400 METAR LRBS 270400Z 05002KT CAVOK 09/06 Q1015 NOSIG=
201904270430 METAR LRBS 270430Z 05001KT CAVOK 10/07 Q1015 NOSIG=
201904270500 METAR LRBS 270500Z 05003KT CAVOK 11/06 Q1015 NOSIG=
201904270530 METAR LRBS 270530Z 04003KT CAVOK 13/06 Q1015 NOSIG=
201904270600 METAR LRBS 270600Z 06003KT 020V080 CAVOK 14/07 Q1015 NOSIG=
201904270630 METAR LRBS 270630Z 08004KT 050V110 CAVOK 15/08 Q1014 NOSIG=
201904270700 METAR LRBS 270700Z 08004KT CAVOK 16/09 Q1014 NOSIG=
201904270730 METAR LRBS 270730Z 06004KT 020V090 CAVOK 17/09 Q1014 NOSIG=
201904270800 METAR LRBS 270800Z 06005KT CAVOK 19/11 Q1014 NOSIG=
201904270830 METAR LRBS 270830Z 08006KT 030V130 CAVOK 20/10 Q1014 NOSIG=
201904270900 METAR LRBS 270900Z 07006KT 040V100 CAVOK 20/11 Q1013 NOSIG=
201904270930 METAR LRBS 270930Z 09005KT 050V160 CAVOK 22/11 Q1013 NOSIG=
201904271000 METAR LRBS 271000Z 08005KT 050V110 CAVOK 23/12 Q1013 NOSIG=
201904271030 METAR LRBS 271030Z 08004KT 020V120 CAVOK 24/12 Q1012 NOSIG=
201904271100 METAR LRBS 271100Z 10005KT 060V150 CAVOK 24/13 Q1012 NOSIG=
201904271130 METAR LRBS 271130Z 10005KT 040V180 CAVOK 25/13 Q1012 NOSIG=
201904271200 METAR LRBS 271200Z 11005KT CAVOK 25/13 Q1012 NOSIG=
201904271230 METAR LRBS 271230Z 10006KT CAVOK 25/11 Q1011 NOSIG=
201904271300 METAR LRBS 271300Z 10005KT 030V160 CAVOK 26/12 Q1010 NOSIG=
201904271330 METAR LRBS 271330Z 11006KT CAVOK 26/10 Q1010 NOSIG=
201904271400 METAR LRBS 271400Z 07006KT 040V100 CAVOK 26/12 Q1009 NOSIG=
201904271430 METAR LRBS 271430Z 11004KT 060V170 CAVOK 25/12 Q1009 NOSIG=
201904271500 METAR LRBS 271500Z 11006KT 080V140 CAVOK 25/11 Q1009 NOSIG=
201904271530 METAR LRBS 271530Z 09005KT CAVOK 25/11 Q1009 NOSIG=
201904271600 METAR LRBS 271600Z 10007KT 070V130 CAVOK 24/12 Q1008 NOSIG=
201904271630 METAR LRBS 271630Z 12007KT CAVOK 24/11 Q1009 NOSIG=
201904271700 METAR LRBS 271700Z 11005KT CAVOK 24/11 Q1009 NOSIG=
201904271730 METAR LRBS 271730Z 12004KT CAVOK 23/12 Q1009 NOSIG=
201904271800 METAR LRBS 271800Z 12004KT CAVOK 22/12 Q1009 NOSIG=
201904271830 METAR COR LRBS 271830Z 21010KT 9999 FEW047 21/12 Q1010 TEMPO
                        VRB15G25KT 5000 SHRA SCT030CB=
201904271900 METAR LRBS 271900Z 28012KT 250V320 9999 FEW047 20/11 Q1010
                        TEMPO VRB15G25KT 5000 SHRA SCT030CB=
201904271930 METAR LRBS 271930Z 29010KT 260V330 CAVOK 19/10 Q1011 TEMPO
                        VRB15G25KT 5000 SHRA SCT030CB=
201904272000 METAR LRBS 272000Z 28010KT 250V320 CAVOK 19/11 Q1011 NOSIG=
201904272030 METAR LRBS 272030Z 28010KT 250V310 CAVOK 18/11 Q1011 NOSIG=
201904272100 METAR COR LRBS 272100Z 29006KT 260V320 9999 FEW050CB 18/11
                        Q1011 TEMPO VRB15G25KT 5000 -SHRA
                        SCT025CB=
201904272130 METAR LRBS 272130Z 28006KT 260V340 9999 FEW040CB 17/11 Q1010
                        TEMPO VRB15G25KT 5000 -SHRA SCT025CB=
201904272200 METAR LRBS 272200Z 29004KT 260V320 9999 TS FEW050CB 17/12
                        Q1010 TEMPO VRB15G25KT 5000 TSRA
                        SCT025CB=
201904272230 METAR LRBS 272230Z 28005KT 260V320 9999 FEW050CB 16/12 Q1010
                        RETS NOSIG=
201904272300 METAR LRBS 272300Z 26005KT CAVOK 16/13 Q1010 NOSIG=
201904272330 METAR LRBS 272330Z 26008KT CAVOK 15/13 Q1010 NOSIG=
201904280000 METAR LRBS 280000Z 25007KT CAVOK 15/13 Q1010 NOSIG=
201904280030 METAR LRBS 280030Z 26006KT CAVOK 15/13 Q1010 NOSIG=
201904280100 METAR LRBS 280100Z 25010KT CAVOK 15/13 Q1010 NOSIG=
201904280130 METAR LRBS 280130Z 25008KT CAVOK 14/13 Q1010 NOSIG=
201904280200 METAR LRBS 280200Z 24010KT 9999 FEW008 14/13 Q1010 NOSIG=
201904280230 METAR LRBS 280230Z 25009KT 9999 FEW006 14/13 Q1010 NOSIG=
201904280300 METAR LRBS 280300Z 24008KT CAVOK 14/12 Q1010 NOSIG=
201904280330 METAR LRBS 280330Z 24009KT CAVOK 13/12 Q1010 NOSIG=
201904280400 METAR LRBS 280400Z 24009KT CAVOK 13/11 Q1010 NOSIG=
201904280430 METAR LRBS 280430Z 26012KT CAVOK 13/11 Q1010 NOSIG=
201904280500 METAR LRBS 280500Z 26012KT 9999 FEW012 13/10 Q1011 NOSIG=
201904280530 METAR LRBS 280530Z 25013KT 9999 FEW011 13/10 Q1011 NOSIG=
201904280600 METAR LRBS 280600Z 26013KT 220V280 9999 FEW014 14/10 Q1011
                        NOSIG=
201904280630 METAR LRBS 280630Z 25015KT 9999 FEW015 14/10 Q1011 NOSIG=
201904280700 METAR LRBS 280700Z 27014KT 9999 FEW016 15/10 Q1011 NOSIG=
201904280730 METAR LRBS 280730Z 26015KT 230V300 9999 FEW018 16/10 Q1011
                        NOSIG=
201904280800 METAR LRBS 280800Z 25014KT 9999 FEW021 17/10 Q1011 NOSIG=
201904280830 METAR LRBS 280830Z 24014KT 9999 FEW023 17/09 Q1011 NOSIG=
201904280900 METAR LRBS 280900Z 25016KT 9999 FEW027 18/09 Q1011 NOSIG=
201904280930 METAR LRBS 280930Z 25016KT 9999 BKN031 18/10 Q1011 NOSIG=
201904281000 METAR LRBS 281000Z 24016KT 9999 BKN032 19/10 Q1011 NOSIG=
201904281030 METAR LRBS 281030Z 26017KT 220V300 9999 BKN032 19/10 Q1011
                        NOSIG=
201904281100 METAR LRBS 281100Z 24017KT 9999 SCT034 19/10 Q1011 NOSIG=
201904281130 METAR LRBS 281130Z 26015KT 230V310 9999 FEW038 20/09 Q1010
                        NOSIG=
201904281200 METAR LRBS 281200Z 25017KT 9999 FEW045 21/09 Q1010 NOSIG=
201904281230 METAR LRBS 281230Z 24017KT 9999 SCT047 21/08 Q1010 NOSIG=
201904281300 METAR LRBS 281300Z 25017KT CAVOK 20/08 Q1010 NOSIG=
201904281330 METAR LRBS 281330Z 24016KT CAVOK 21/07 Q1010 NOSIG=
201904281400 METAR LRBS 281400Z 25016KT CAVOK 21/08 Q1010 NOSIG=
201904281430 METAR LRBS 281430Z 26016KT CAVOK 21/07 Q1010 NOSIG=
201904281500 METAR LRBS 281500Z 25015KT CAVOK 21/06 Q1010 NOSIG=
201904281530 METAR LRBS 281530Z 26014KT CAVOK 21/06 Q1010 NOSIG=
201904281600 METAR LRBS 281600Z 26014KT 240V300 CAVOK 20/06 Q1010 NOSIG=
201904281630 METAR LRBS 281630Z 27013KT CAVOK 19/05 Q1010 NOSIG=
201904281700 METAR LRBS 281700Z 26009KT CAVOK 18/06 Q1010 NOSIG=
201904281730 METAR LRBS 281730Z 26006KT CAVOK 18/06 Q1010 NOSIG=
201904281800 METAR LRBS 281800Z 25005KT CAVOK 16/06 Q1010 NOSIG=
201904281830 METAR LRBS 281830Z 27006KT CAVOK 16/06 Q1011 NOSIG=
201904281900 METAR LRBS 281900Z 27006KT CAVOK 16/06 Q1011 NOSIG=
201904281930 METAR LRBS 281930Z 27005KT CAVOK 15/06 Q1011 NOSIG=
201904282000 METAR LRBS 282000Z 27006KT CAVOK 15/07 Q1011 NOSIG=
201904282030 METAR LRBS 282030Z 27007KT 240V300 CAVOK 14/07 Q1011 NOSIG=
201904282100 METAR LRBS 282100Z 27005KT CAVOK 14/07 Q1011 NOSIG=
201904282130 METAR LRBS 282130Z 29004KT CAVOK 13/07 Q1011 NOSIG=
201904282200 METAR LRBS 282200Z 28004KT CAVOK 12/06 Q1011 NOSIG=
201904282230 METAR LRBS 282230Z VRB02KT CAVOK 12/07 Q1011 NOSIG=
201904282300 METAR LRBS 282300Z 25005KT CAVOK 12/07 Q1012 NOSIG=
201904282330 METAR LRBS 282330Z 26004KT 230V290 CAVOK 11/07 Q1011 NOSIG=
201904290000 METAR LRBS 290000Z 27005KT CAVOK 11/07 Q1011 NOSIG=
201904290030 METAR LRBS 290030Z 28004KT CAVOK 10/07 Q1011 NOSIG=
201904290100 METAR COR LRBS 290100Z 28004KT 240V310 CAVOK 10/06 Q1012
                        NOSIG=
201904290130 METAR LRBS 290130Z 28004KT CAVOK 09/06 Q1011 NOSIG=
201904290200 METAR LRBS 290200Z 29004KT CAVOK 09/06 Q1011 NOSIG=
201904290230 METAR LRBS 290230Z 28004KT CAVOK 08/06 Q1011 NOSIG=
201904290300 METAR LRBS 290300Z 27004KT CAVOK 08/06 Q1012 NOSIG=
201904290330 METAR LRBS 290330Z 27003KT CAVOK 08/06 Q1012 NOSIG=
201904290400 METAR LRBS 290400Z 27004KT CAVOK 09/06 Q1012 NOSIG=
201904290430 METAR LRBS 290430Z 26003KT CAVOK 10/07 Q1012 NOSIG=
201904290500 METAR LRBS 290500Z 26006KT CAVOK 11/07 Q1012 NOSIG=
201904290530 METAR LRBS 290530Z 27005KT 240V300 CAVOK 12/07 Q1012 NOSIG=
201904290600 METAR LRBS 290600Z 27004KT 240V310 CAVOK 12/08 Q1012 NOSIG=
201904290630 METAR COR LRBS 290630Z 26004KT 230V300 CAVOK 13/08 Q1012
                        NOSIG=
201904290700 METAR LRBS 290700Z 26006KT CAVOK 14/08 Q1012 NOSIG=
201904290730 METAR LRBS 290730Z 25006KT 220V280 CAVOK 15/09 Q1012 NOSIG=
201904290800 METAR LRBS 290800Z 26006KT 230V290 CAVOK 17/07 Q1012 NOSIG=
201904290830 METAR LRBS 290830Z 27004KT 220V320 CAVOK 18/07 Q1012 NOSIG=
201904290900 METAR LRBS 290900Z 29003KT 240V020 CAVOK 18/07 Q1012 NOSIG=
201904290930 METAR LRBS 290930Z 21004KT 130V270 CAVOK 19/07 Q1012 NOSIG=
201904291000 METAR LRBS 291000Z 23007KT CAVOK 20/06 Q1011 NOSIG=
201904291030 METAR LRBS 291030Z 25006KT 200V280 CAVOK 20/06 Q1011 NOSIG=
201904291100 METAR LRBS 291100Z 23005KT 180V280 CAVOK 21/08 Q1011 NOSIG=
201904291130 METAR LRBS 291130Z 25007KT 210V290 CAVOK 21/06 Q1011 NOSIG=
201904291200 METAR COR LRBS 291200Z 23006KT CAVOK 21/07 Q1010 NOSIG=
201904291230 METAR LRBS 291230Z 26008KT 220V310 CAVOK 21/07 Q1010 NOSIG=
201904291300 METAR LRBS 291300Z 27007KT 240V310 CAVOK 21/07 Q1010 NOSIG=
201904291330 METAR LRBS 291330Z 25006KT 190V300 CAVOK 21/08 Q1009 NOSIG=
201904291400 METAR LRBS 291400Z 21005KT 190V250 CAVOK 21/09 Q1009 NOSIG=
201904291430 METAR COR LRBS 291430Z 24004KT 110V280 CAVOK 22/07 Q1009
                        NOSIG=
201904291500 METAR LRBS 291500Z 21003KT 170V260 CAVOK 22/08 Q1009 NOSIG=
201904291530 METAR LRBS 291530Z VRB02KT CAVOK 21/08 Q1009 NOSIG=
201904291600 METAR LRBS 291600Z 26002KT CAVOK 21/07 Q1009 NOSIG=
201904291630 METAR LRBS 291630Z VRB01KT CAVOK 20/09 Q1009=
201904291700 METAR LRBS 291700Z VRB01KT CAVOK 20/09 Q1009 NOSIG=
201904291730 METAR LRBS 291730Z 11003KT 050V130 CAVOK 17/10 Q1009 NOSIG=
201904291800 METAR LRBS 291800Z 07001KT CAVOK 16/10 Q1009=
201904291830 METAR LRBS 291830Z 00000KT CAVOK 16/10 Q1009 NOSIG=
201904291900 METAR COR LRBS 291900Z 03001KT CAVOK 16/09 Q1009 NOSIG=
201904291930 METAR LRBS 291930Z 00000KT CAVOK 15/10 Q1009 NOSIG=
201904292000 METAR LRBS 292000Z 00000KT CAVOK 16/09 Q1009 NOSIG=
201904292030 METAR LRBS 292030Z 00000KT CAVOK 15/09 Q1009 NOSIG=
201904292100 METAR LRBS 292100Z 00000KT 9999 FEW050CB 14/09 Q1009 NOSIG=
201904292130 METAR LRBS 292130Z 05002KT 9999 FEW050CB 14/10 Q1009 NOSIG=
201904292200 METAR LRBS 292200Z 05002KT 9999 FEW050CB 15/10 Q1009 NOSIG=
201904292230 METAR COR LRBS 292230Z VRB01KT CAVOK 15/10 Q1009 NOSIG=
201904292300 METAR LRBS 292300Z 05004KT CAVOK 15/10 Q1008 NOSIG=
201904292330 METAR LRBS 292330Z 08004KT CAVOK 14/10 Q1008 NOSIG=
201904300000 METAR COR LRBS 300000Z 01002KT CAVOK 14/10 Q1008 NOSIG=
201904300030 METAR COR LRBS 300030Z 08003KT 9999 FEW050CB 14/10 Q1007
                        NOSIG=
201904300100 METAR LRBS 300100Z 09002KT CAVOK 13/10 Q1007 NOSIG=
201904300130 METAR LRBS 300130Z 35003KT 320V030 CAVOK 14/10 Q1007 NOSIG=
201904300200 METAR LRBS 300200Z VRB02KT CAVOK 13/10 Q1007 NOSIG=
201904300230 METAR LRBS 300230Z 00000KT CAVOK 12/10 Q1008 NOSIG=
201904300300 METAR LRBS 300300Z VRB01KT CAVOK 11/10 Q1007 NOSIG=
201904300330 METAR LRBS 300330Z VRB01KT CAVOK 11/10 Q1007 NOSIG=
201904300400 METAR LRBS 300400Z 00000KT CAVOK 12/10 Q1007 NOSIG=
201904300430 METAR LRBS 300430Z VRB01KT CAVOK 12/10 Q1007 NOSIG=
201904300500 METAR LRBS 300500Z VRB02KT CAVOK 13/11 Q1007 NOSIG=
201904300530 METAR LRBS 300530Z 04004KT 360V070 CAVOK 15/11 Q1008 NOSIG=
201904300600 METAR LRBS 300600Z 02004KT 330V040 CAVOK 16/12 Q1007 NOSIG=
201904300630 METAR LRBS 300630Z 05005KT 010V080 CAVOK 17/11 Q1007 NOSIG=
201904300700 METAR LRBS 300700Z 06009KT 020V090 CAVOK 18/11 Q1007 NOSIG=
201904300730 METAR LRBS 300730Z 05008KT 020V090 CAVOK 19/12 Q1007 NOSIG=
201904300800 METAR LRBS 300800Z 07007KT CAVOK 18/12 Q1007 NOSIG=
201904300830 METAR LRBS 300830Z 06009KT 020V100 CAVOK 20/12 Q1007 NOSIG=
201904300900 METAR LRBS 300900Z 07010KT 9999 FEW028 19/12 Q1007 NOSIG=
201904300930 METAR LRBS 300930Z 07009KT 9999 FEW029 20/13 Q1007 NOSIG=
201904301000 METAR LRBS 301000Z 05008KT 010V070 9999 FEW030 20/13 Q1006
                        NOSIG=
201904301030 METAR LRBS 301030Z 05007KT 9999 SCT030 21/13 Q1006 TEMPO
                        5000 TSRA SCT030CB=
201904301100 METAR LRBS 301100Z 11006KT 9999 SCT030 FEW040CB 21/13 Q1005
                        TEMPO VRB15G25KT 5000 TSRA SCT030CB=
201904301130 METAR LRBS 301130Z 12008KT 9999 BKN030 FEW045CB 21/13 Q1005
                        TEMPO VRB15G25KT 5000 TSRA SCT030CB=
201904301200 METAR LRBS 301200Z 13009KT 090V170 9999 BKN035 FEW050CB 21/13
                        Q1004 TEMPO VRB15G25KT 5000 TSRA
                        SCT030CB=
201904301230 METAR LRBS 301230Z 14008KT 110V180 9999 VCTS BKN030 FEW050CB
                        21/13 Q1004 TEMPO VRB15G25KT 3000
                        TSRA SCT030CB=
201904301300 METAR LRBS 301300Z 28016KT 9999 TSRAGR FEW012 BKN036 SCT040CB
                        17/13 Q1005 TEMPO VRB25G35KT 1500
                        +TSRAGR BKN005 BKN030CB=
201904301330 METAR LRBS 301330Z 27017KT 9999 -SHRA VCTS SCT022 FEW050CB
                        13/12 Q1006 RETSRA R07/29//95 NOSIG=
201904301400 METAR LRBS 301400Z 30011KT 270V010 9999 FEW050CB 14/11 Q1006
                        R07/29//95 NOSIG=
201904301430 METAR LRBS 301430Z 31006KT 260V360 9999 FEW050CB 14/10 Q1006
                        R07/29//95 NOSIG=
201904301500 METAR LRBS 301500Z 31005KT 260V020 9999 FEW050CB 15/11 Q1006
                        R07/29//95 NOSIG=
201904301530 METAR LRBS 301530Z 30006KT 250V340 CAVOK 16/10 Q1005 R07/29//95
                        NOSIG=
201904301600 METAR LRBS 301600Z 31005KT 260V010 CAVOK 17/10 Q1005 R07/29//95
                        NOSIG=
201904301630 METAR LRBS 301630Z 29005KT 260V320 CAVOK 16/08 Q1005 R07/29//95
                        NOSIG=
201904301700 METAR LRBS 301700Z 28004KT CAVOK 15/08 Q1006 R07/29//95=
201904301730 METAR LRBS 301730Z 27003KT CAVOK 14/08 Q1006 R07/29//95 NOSIG=
201904301800 METAR LRBS 301800Z 28003KT CAVOK 13/08 Q1006 R07/29//95 NOSIG=
201904301830 METAR LRBS 301830Z 27003KT CAVOK 13/08 Q1006 R07/29//95 NOSIG=
201904301900 METAR LRBS 301900Z 26004KT CAVOK 13/07 Q1006 R07/29//95=
201904301930 METAR LRBS 301930Z 25005KT CAVOK 13/07 Q1007 R07/29//95 NOSIG=
201904302000 METAR LRBS 302000Z 25008KT CAVOK 13/07 Q1007 R07/29//95 NOSIG=
201904302030 METAR LRBS 302030Z 24008KT CAVOK 13/07 Q1007 R07/CLRD// NOSIG=
201904302100 METAR LRBS 302100Z 24009KT CAVOK 12/07 Q1007 NOSIG=
201904302130 METAR LRBS 302130Z 24009KT CAVOK 12/07 Q1007 NOSIG=
201904302200 METAR LRBS 302200Z 26011KT CAVOK 11/07 Q1007 NOSIG=
201904302230 METAR LRBS 302230Z 26011KT CAVOK 11/07 Q1007 NOSIG=
201904302300 METAR LRBS 302300Z 25013KT CAVOK 10/07 Q1007 NOSIG=
201904302330 METAR LRBS 302330Z 26012KT CAVOK 10/07 Q1007 NOSIG=