201905010500 TAF LRBS 010500Z 0106/0206 25016KT CAVOK
                      TEMPO 0106/0108 5000 -RA
                      TEMPO 0106/0114 25020G30KT
                      BECMG 0117/0119 25006KT
                      PROB30 TEMPO 0121/0203 5000 -TSRA SCT015
                       SCT040CB=
201905011100 TAF LRBS 011100Z 0112/0212 26016KT CAVOK
                      TEMPO 0112/0114 26020G30KT
                      BECMG 0117/0119 26006KT
                      PROB30 TEMPO 0121/0202 5000 -TSRA SCT015
                       SCT040CB
                      TEMPO 0202/0206 5000 BR
                      TEMPO 0210/0212 SCT040CB=
201905011700 TAF LRBS 011700Z 0118/0218 26010KT 9999 SCT040
                      BECMG 0118/0120 VRB04KT
                      PROB40 TEMPO 0121/0202 5000 -SHRA SCT015
                       SCT040CB
                      TEMPO 0202/0205 5000 BR
                      BECMG 0209/0211 26010KT
                      TEMPO 0212/0217 SCT040CB=
201905012300 TAF LRBS 012300Z 0200/0224 26008KT 9999 SCT045
                      TEMPO 0200/0202 5000 -SHRA SCT040CB
                      TEMPO 0202/0205 5000 BR
                      TEMPO 0212/0217 SCT040CB=
201905020500 TAF LRBS 020500Z 0206/0306 26006KT CAVOK
                      TEMPO 0212/0218 SCT040CB
                      PROB30 TEMPO 0213/0217 VRB15G25KT 5000 TSRA=
201905021100 TAF LRBS 021100Z 0212/0312 26008KT CAVOK
                      TEMPO 0212/0217 SCT050CB=
201905021700 TAF LRBS 021700Z 0218/0318 VRB04KT CAVOK
                      PROB30 TEMPO 0222/0304 5000 BR
                      BECMG 0311/0313 27010KT=
201905022300 TAF LRBS 022300Z 0300/0324 VRB04KT CAVOK
                      PROB30 TEMPO 0301/0304 5000 BR
                      BECMG 0310/0312 27010KT
                      BECMG 0319/0321 VRB04KT=
201905030500 TAF LRBS 030500Z 0306/0406 VRB04KT CAVOK
                      BECMG 0307/0309 26010KT
                      BECMG 0315/0317 VRB04KT=
201905031100 TAF LRBS 031100Z 0312/0412 24010KT CAVOK
                      BECMG 0315/0317 VRB04KT=
201905031700 TAF LRBS 031700Z 0318/0418 23010KT CAVOK
                      BECMG 0318/0320 VRB04KT
                      BECMG 0410/0412 16010KT
                      PROB40 TEMPO 0414/0417 FEW040CB=
201905032300 TAF LRBS 032300Z 0400/0424 VRB04KT CAVOK
                      BECMG 0410/0412 15010KT
                      PROB40 TEMPO 0414/0417 FEW040CB=
201905040500 TAF LRBS 040500Z 0406/0506 VRB04KT CAVOK
                      BECMG 0410/0412 15010KT
                      PROB40 TEMPO 0414/0417 SCT040CB=
201905041100 TAF LRBS 041100Z 0412/0512 15010KT CAVOK
                      PROB40 TEMPO 0414/0417 SCT040CB
                      PROB30 TEMPO 0509/0512 5000 -SHRA SCT040CB=
201905041513 TAF AMD LRBS 041513Z 0415/0512 15010KT CAVOK
                      TEMPO 0415/0418 VRB20G30KT 3000 TSRA SCT040CB
                       PROB30
                      TEMPO 0509/0512 5000 -SHRA SCT040CB=
201905041700 TAF LRBS 041700Z 0418/0518 VRB04KT CAVOK
                      BECMG 0421/0423 12010KT
                      PROB30 TEMPO 0512/0516 16020KT 5000 -SHRA
                       SCT045CB=
201905042300 TAF LRBS 042300Z 0500/0524 13010KT CAVOK
                      PROB30 TEMPO 0512/0516 16020KT 5000 -SHRA
                       SCT045CB
                      BECMG 0518/0520 VRB04KT
                      PROB30 TEMPO 0521/0524 5000 -TSRA SCT040CB=
201905050500 TAF LRBS 050500Z 0506/0606 09010KT CAVOK
                      TEMPO 0509/0513 VRB04KT
                      PROB40 TEMPO 0513/0517 VRB20KT 5000 -SHRA
                       SCT045CB
                      BECMG 0518/0520 15010KT
                      TEMPO 0520/0601 5000 -SHRA SCT040CB
                      PROB30 TEMPO 0520/0523 VRB18G28KT -TSRA
                      BECMG 0522/0524 22008KT=
201905051100 TAF LRBS 051100Z 0512/0612 08007KT CAVOK
                      PROB40 TEMPO 0513/0517 VRB18KT 5000 -SHRA
                       SCT045CB
                      BECMG 0517/0519 15012KT
                      TEMPO 0520/0601 5000 -SHRA SCT040CB
                      PROB30 TEMPO 0520/0523 VRB20KT -TSRA
                      BECMG 0521/0523 21008KT
                      TEMPO 0609/0612 5000 -TSRA SCT040CB=
201905051649 TAF AMD LRBS 051649Z 0516/0612 14008KT CAVOK
                      TEMPO 0516/0521 VRB15G25KT 3000 TSRA BKN015
                       BKN035CB
                      BECMG 0600/0602 21010KT
                      PROB40 TEMPO 0609/0612 5000 SHRA SCT040CB=
201905051700 TAF LRBS 051700Z 0518/0618 16012KT CAVOK
                      TEMPO 0518/0522 VRB15G25KT 3000 TSRA BKN015
                       BKN035CB
                      BECMG 0600/0602 22008KT
                      PROB40 TEMPO 0608/0611 5000 SHRA SCT040CB
                       BECMG 0611/0613 5000 SHRA
                      PROB40 TEMPO 0612/0616 3000 +TSRA BKN015
                       BKN030CB
                      BECMG 0614/0616 30012KT=
201905051826 TAF AMD LRBS 051826Z 0518/0618 16012KT CAVOK
                      TEMPO 0518/0522 VRB15G25KT 3000 TSRA BKN015
                       BKN035CB
                      BECMG 0600/0602 22008KT
                      PROB40 TEMPO 0608/0610 5000 SHRA SCT040CB
                       BECMG 0610/0612 5000 SHRA SCT035CB BKN040
                       PROB40
                      TEMPO 0612/0616 3000 +TSRA BKN015 BKN030CB
                       BECMG 0614/0616 30012KT=
201905052300 TAF LRBS 052300Z 0600/0624 25008KT 9999 BKN035
                      PROB40 TEMPO 0608/0610 5000 SHRA SCT040CB
                       BECMG 0610/0612 5000 SHRA SCT035CB BKN040
                       PROB40
                      TEMPO 0612/0616 3000 TSRA BKN015 BKN030CB
                       BECMG 0619/0621 9999 -RA BKN010 OVC040=
201905060500 TAF LRBS 060500Z 0606/0706 25010KT CAVOK
                      BECMG 0609/0611 SCT035CB BKN040
                      TEMPO 0612/0618 VRB15G25KT 3000 TSRA SCT015
                       BKN030CB
                      PROB30 0614/0618 VRB25G40KT 1500 +TSRAGR
                       BECMG 0619/0621 5000 -RA BKN010 OVC040=
201905060813 TAF AMD LRBS 060813Z 0608/0706 23008KT 9999 BKN010
                      BECMG 0609/0611 SCT035CB BKN040
                      TEMPO 0612/0618 VRB15G25KT 3000 TSRA SCT015
                       BKN030CB
                      PROB30 0614/0618 VRB25G40KT 1500 +TSRAGR
                       BECMG 0619/0621 5000 -RA BKN010 OVC040=
201905061100 TAF LRBS 061100Z 0612/0712 VRB04KT 9999 SCT045CB
                      TEMPO 0612/0618 VRB15G25KT 3000 TSRA SCT015
                       BKN035CB
                      PROB30 0613/0617 VRB25G40KT 1500 +TSRAGR
                       BECMG 0619/0621 5000 -RA BKN015 OVC040
                      BECMG 0704/0706 26012KT
                      TEMPO 0706/0712 3000 SHRA BKN010 SCT035CB
                       OVC040=
201905061700 TAF LRBS 061700Z 0618/0718 26010KT 9999 BKN040
                      TEMPO 0618/0621 5000 SHRA SCT015 BKN040CB
                       OVC045
                      TEMPO 0621/0707 5000 RA BKN015 OVC040
                      BECMG 0623/0701 VRB04KT
                      TEMPO 0707/0710 26010KT
                      PROB40 TEMPO 0710/0715 5000 SHRA BKN010 SCT035CB
                       OVC040=
201905062300 TAF LRBS 062300Z 0700/0724 VRB04KT 9999 BKN040
                      TEMPO 0700/0708 5000 RA BKN015 OVC040
                      TEMPO 0707/0710 26010KT
                      TEMPO 0712/0717 5000 SHRA BKN010 SCT035CB
                       OVC040
                      BECMG 0718/0720 5000 BR
                      TEMPO 0722/0724 1500 BR BKN005=
201905070500 TAF LRBS 070500Z 0706/0806 VRB04KT 9999 BKN015 BKN040
                      PROB40 TEMPO 0706/0708 5000 -RADZ BKN005
                       OVC035
                      BECMG 0708/0710 BKN025 BKN045
                      PROB30 TEMPO 0713/0718 5000 -SHRA SCT035CB
                       OVC040
                      BECMG 0718/0720 5000 BR
                      PROB40 TEMPO 0723/0803 1500 BR BKN005
                      BECMG 0804/0806 9999 NSW=
201905071100 TAF LRBS 071100Z 0712/0812 VRB04KT 9999 -RA BKN010 BKN020
                      TEMPO 0712/0715 3000 RADZ BKN005 BKN015 OVC025
                       PROB30
                      TEMPO 0716/0718 9999 BKN020
                      BECMG 0718/0720 5000 BR BKN015
                      PROB40 TEMPO 0723/0803 1500 BR BKN005
                      BECMG 0804/0806 9999 NSW=
201905071345 TAF AMD LRBS 071345Z 0713/0812 VRB04KT 9999 BKN040
                      PROB40 TEMPO 0714/0716 5000 -SHRA SCT035CB
                       BKN040
                      BECMG 0718/0720 5000 BR BKN015
                      PROB40 TEMPO 0723/0803 1500 BR BKN005
                      BECMG 0804/0806 9999 NSW SCT045=
201905071700 TAF LRBS 071700Z 0718/0818 VRB04KT 9999 BKN045
                      PROB40 TEMPO 0722/0805 3000 BR BKN010 SCT045=
201905072300 TAF LRBS 072300Z 0800/0824 VRB04KT CAVOK
                      PROB40 TEMPO 0800/0805 3000 BR BKN010=
201905080500 TAF LRBS 080500Z 0806/0906 VRB04KT CAVOK=
201905081100 TAF LRBS 081100Z 0812/0912 VRB04KT CAVOK
                      BECMG 0821/0823 5000 BR
                      TEMPO 0900/0904 3000 BR
                      BECMG 0905/0907 9999 NSW=
201905081700 TAF LRBS 081700Z 0818/0918 11005KT 9999 SCT045=
201905082300 TAF LRBS 082300Z 0900/0924 11005KT 9999 SCT045=
201905090500 TAF LRBS 090500Z 0906/1006 11005KT CAVOK
                      BECMG 0919/0921 5000 -RA BR BKN015 BKN040
                       TEMPO 1000/1005 3000 RA BKN010 OVC030=
201905091100 TAF LRBS 091100Z 0912/1012 13005KT CAVOK
                      BECMG 0919/0921 5000 -RA BR BKN015 BKN040
                       TEMPO 1002/1007 3000 RA BKN005 OVC025
                      BECMG 1009/1011 9999 NSW BKN040=
201905091700 TAF LRBS 091700Z 0918/1018 13005KT 9999 SCT045
                      TEMPO 0918/0922 25010KT 5000 -SHRA BKN015
                       SCT030CB BKN040
                      BECMG 0922/0924 5000 -RA BKN010 OVC025
                      TEMPO 1010/1015 3000 SHRA BKN005 SCT025CB
                       BECMG 1015/1017 9999 NSW BKN040=
201905092300 TAF LRBS 092300Z 1000/1024 13005KT 9999 -RA SCT045
                      TEMPO 1000/1006 5000 RA BKN010 OVC025
                      TEMPO 1010/1015 3000 SHRA BKN005 SCT025CB
                       BECMG 1015/1017 NSW BKN040=
201905100500 TAF LRBS 100500Z 1006/1106 13005KT 9999 BKN010 BKN030
                      TEMPO 1006/1009 5000 -RA BR BKN005 OVC020
                       TEMPO 1010/1014 5000 -SHRA SCT005 SCT025CB
                       BECMG 1014/1016 CAVOK
                      BECMG 1022/1024 5000 BR
                      TEMPO 1100/1106 1500 BR
                      PROB30 TEMPO 1101/1104 0800 FG BKN002=
201905101100 TAF LRBS 101100Z 1012/1112 26006KT 9999 SCT035
                      TEMPO 1012/1014 5000 -SHRA SCT015 SCT025CB
                       BKN040
                      BECMG 1022/1024 5000 BR
                      TEMPO 1100/1106 1500 BR BKN005
                      PROB30 TEMPO 1101/1104 0800 FG BKN002
                      BECMG 1105/1107 9999 NSW=
201905101700 TAF LRBS 101700Z 1018/1118 VRB04KT CAVOK
                      TEMPO 1018/1020 5000 -SHRA SCT035CB BKN045
                       BECMG 1021/1023 5000 BR
                      TEMPO 1023/1105 1500 BR BKN005
                      PROB30 TEMPO 1100/1104 0600 FG BKN002
                      BECMG 1105/1107 CAVOK
                      TEMPO 1113/1118 SCT040CB
                      PROB40 1114/1118 5000 -TSRA=
201905102300 TAF LRBS 102300Z 1100/1124 VRB04KT 1500 BR NSC
                      TEMPO 1100/1104 0600 FG BKN002
                      BECMG 1104/1106 5000
                      BECMG 1106/1108 CAVOK
                      TEMPO 1113/1118 SCT040CB
                      PROB40 1114/1118 5000 -TSRA=
201905110500 TAF LRBS 110500Z 1106/1206 VRB04KT CAVOK
                      TEMPO 1106/1108 5000 -RA
                      TEMPO 1113/1118 SCT040CB
                      PROB40 TEMPO 1114/1118 5000 -TSRA
                      BECMG 1120/1122 3000 BR
                      BECMG 1122/1124 0800 FG
                      TEMPO 1200/1203 0150 FG VV001
                      BECMG 1203/1205 3000 BR=
201905111100 TAF LRBS 111100Z 1112/1212 VRB04KT CAVOK
                      TEMPO 1112/1118 SCT040CB
                      PROB40 TEMPO 1114/1117 5000 -TSRA
                      BECMG 1120/1122 3000 BR
                      BECMG 1122/1124 0800 FG
                      TEMPO 1200/1203 0350 FG VV001
                      BECMG 1203/1205 3000 BR BKN005
                      BECMG 1205/1207 CAVOK=
201905111700 TAF LRBS 111700Z 1118/1218 09006KT CAVOK
                      TEMPO 1118/1119 5000 -TSRA SCT040CB
                      BECMG 1120/1122 3000 BR
                      BECMG 1122/1124 0800 FG
                      TEMPO 1200/1203 0350 FG VV001
                      BECMG 1203/1205 3000 BR BKN005
                      BECMG 1205/1207 9999 NSW=
201905112236 TAF AMD LRBS 112236Z 1122/1218 VRB04KT CAVOK
                      BECMG 1122/1124 5000 BR
                      TEMPO 1200/1205 1500 BR
                      PROB40 TEMPO 1201/1204 0350 FG BKN001
                      BECMG 1205/1207 09010KT 9999 NSW=
201905112300 TAF LRBS 112300Z 1200/1224 VRB04KT CAVOK
                      TEMPO 1202/1206 3000 BR
                      BECMG 1205/1207 09010KT=
201905120500 TAF LRBS 120500Z 1206/1306 09012KT CAVOK
                      BECMG 1216/1218 VRB04KT=
201905121100 TAF LRBS 121100Z 1212/1312 08012KT CAVOK
                      BECMG 1216/1218 VRB04KT
                      BECMG 1306/1308 09012KT=
201905121700 TAF LRBS 121700Z 1218/1318 08008KT CAVOK=
201905122300 TAF LRBS 122300Z 1300/1324 09008KT CAVOK=
201905130500 TAF LRBS 130500Z 1306/1406 09012KT 3000 BR BKN002
                      BECMG 1306/1308 9999 NSW SCT005
                      BECMG 1404/1406 5000 -SHRA SCT015 SCT030CB
                       BKN040=
201905131100 TAF LRBS 131100Z 1312/1412 09012KT 9999 SCT030
                      BECMG 1404/1406 5000 -RA SCT015 BKN040
                      TEMPO 1408/1412 3000 SHRA BKN015 SCT030CB
                       BKN040=
201905131700 TAF LRBS 131700Z 1318/1418 11010KT CAVOK
                      BECMG 1408/1410 5000 -RA SCT015 BKN040
                      TEMPO 1411/1417 3000 SHRA BKN010 SCT030CB
                       BKN040=
201905132300 TAF LRBS 132300Z 1400/1424 11010KT CAVOK
                      PROB30 TEMPO 1400/1403 5000 SHRA SCT040CB
                       BECMG 1408/1410 5000 -RA SCT015 BKN040
                      TEMPO 1411/1417 3000 SHRA BKN010 SCT030CB
                       BKN040=
201905140500 TAF LRBS 140500Z 1406/1506 07010KT CAVOK
                      TEMPO 1407/1415 5000 -SHRA SCT045CB
                      PROB30 TEMPO 1412/1415 VRB15G25KT 3000 TSRA=
201905141100 TAF LRBS 141100Z 1412/1512 09012KT 5000 -SHRA BKN010 SCT040CB
                      BECMG 1413/1415 9999 NSW SCT040
                      PROB30 TEMPO 1416/1419 5000 -SHRA SCT040CB
                       TEMPO 1500/1505 5000 BR=
201905141700 TAF LRBS 141700Z 1418/1518 07014KT 7000 BKN010 BKN040
                      BECMG 1419/1421 SCT040
                      BECMG 1512/1514 07015G25KT 5000 -TSRA SCT015
                       SCT035CB
                      PROB40 TEMPO 1514/1518 07025G35KT 3000 SQ
                       TSRA BKN015 BKN030CB=
201905142300 TAF LRBS 142300Z 1500/1524 07014KT 9999 BKN040
                      TEMPO 1500/1505 5000 -SHRA BKN010 SCT035CB
                       BECMG 1512/1514 SCT015 SCT035CB
                      TEMPO 1514/1520 07015G25KT 5000 -TSRA
                      PROB30 TEMPO 1514/1518 07025G35KT 3000 SQ
                       TSRA
                      BECMG 1520/1522 05006KT SCT040=
201905150500 TAF LRBS 150500Z 1506/1606 06012KT 9999 OVC005
                      BECMG 1507/1509 BKN020
                      PROB30 TEMPO 1516/1520 5000 -TSRA SCT030CB
                       BECMG 1516/1518 VRB04KT
                      TEMPO 1603/1606 5000 -SHRA BKN010 SCT030CB
                       OVC040=
201905151100 TAF LRBS 151100Z 1512/1612 11010KT 9999 BKN020
                      PROB30 TEMPO 1516/1520 5000 -TSRA SCT030CB
                       BECMG 1516/1518 VRB04KT
                      BECMG 1603/1605 06010KT
                      TEMPO 1603/1609 5000 -SHRA BKN010 SCT030CB
                       OVC040=
201905151700 TAF LRBS 151700Z 1518/1618 32006KT CAVOK
                      TEMPO 1518/1520 SCT045CB
                      PROB30 TEMPO 1601/1605 5000 SHRA SCT035CB
                       BECMG 1605/1607 09010KT
                      PROB40 TEMPO 1613/1617 VRB15G25KT 3000 TSRA
                       BKN030CB=
201905151726 TAF COR LRBS 151726Z 1518/1618 08010KT 9999 SCT030
                      TEMPO 1519/1522 5000 -SHRA SCT010 SCT030
                       SCT045CB
                      TEMPO 1602/1609 5000 -RA BR BKN010 FEW035CB
                       BKN045
                      PROB40 TEMPO 1606/1609 3000 RA BKN005 FEW035CB
                       OVC040
                      TEMPO 1612/1618 5000 SHRA SCT010 SCT035CB=
201905152300 TAF LRBS 152300Z 1600/1624 07010KT 9999 BKN020
                      TEMPO 1602/1609 5000 -RA BR BKN010 FEW035CB
                       BKN040
                      PROB40 TEMPO 1606/1609 12015G25KT 3000 SHRA
                       BKN005 FEW035CB OVC040
                      TEMPO 1614/1621 5000 SHRA SCT010 SCT035CB
                       PROB40
                      TEMPO 1617/1621 3000 TSRA=
201905152303 TAF LRBS 1512/1612 25008KT CAVOK
                      TEMPO 1513/1518 SCT045CB
                      BECMG 1515/1517 01010KT
                      PROB30 TEMPO 1523/1605 5000 SHRA SCT035CB
                       BECMG 1603/1605 07010KT=
201905152306 TAF LRBS 1512/1612 25008KT CAVOK
                      TEMPO 1513/1518 SCT045CB
                      BECMG 1515/1517 01010KT
                      PROB30 TEMPO 1523/1605 5000 SHRA SCT035CB
                       BECMG 1603/1605 07010KT=
201905160500 TAF LRBS 160500Z 1606/1706 08010KT 9999 BKN025
                      TEMPO 1606/1609 5000 -SHRA BKN010 SCT035CB
                       OVC040
                      TEMPO 1613/1622 5000 -SHRA BKN010 SCT035CB
                       PROB40
                      TEMPO 1614/1619 3000 TSRA BKN005 BKN030CB
                       BECMG 1622/1624 VRB04KT 5000 BR BKN010
                      TEMPO 1700/1706 1500 BR BKN005=
201905161100 TAF LRBS 161100Z 1612/1712 08010KT 9999 BKN025
                      TEMPO 1613/1622 5000 -SHRA BKN010 SCT035CB
                       PROB40
                      TEMPO 1614/1619 VRB15G25KT 3000 TSRA BKN005
                       BKN030CB
                      BECMG 1622/1624 VRB04KT 5000 BR BKN010
                      TEMPO 1700/1705 1500 BR BKN005
                      BECMG 1706/1708 9999 NSW SCT035=
201905161700 TAF LRBS 161700Z 1618/1718 07006KT 9999 -TSRA SCT040CB
                      BECMG 1618/1620 CAVOK
                      TEMPO 1623/1704 3000 BR
                      TEMPO 1712/1717 5000 -SHRA SCT040CB=
201905162300 TAF LRBS 162300Z 1700/1724 VRB04KT 9999 SCT040
                      TEMPO 1700/1704 3000 BR BKN005
                      TEMPO 1712/1717 5000 -SHRA SCT040CB=
201905170500 TAF LRBS 170500Z 1706/1806 VRB04KT 9999 SCT045
                      BECMG 1709/1711 SCT045CB
                      TEMPO 1711/1717 VRB15G25KT 3000 TSRA BKN010
                       BKN040CB
                      BECMG 1717/1719 SCT040=
201905171100 TAF LRBS 171100Z 1712/1812 VRB04KT 9999 SCT035CB
                      TEMPO 1712/1717 VRB15G25KT 3000 TSRA BKN010
                       BKN030CB
                      BECMG 1717/1719 SCT040
                      BECMG 1808/1810 SCT035CB
                      TEMPO 1810/1812 VRB15G25KT 3000 TSRA BKN010
                       BKN040CB=
201905171700 TAF LRBS 171700Z 1718/1818 VRB04KT CAVOK
                      TEMPO 1718/1724 FEW040CB
                      TEMPO 1800/1806 5000 -SHRA BKN010 SCT040CB
                       BECMG 1809/1811 SCT035CB
                      TEMPO 1811/1816 VRB15G25KT 3000 TSRA BKN010
                       BKN040CB=
201905172300 TAF LRBS 172300Z 1800/1824 VRB04KT 9999 SCT045
                      TEMPO 1800/1806 5000 -SHRA BKN010 SCT040CB
                       BECMG 1809/1811 SCT040CB
                      TEMPO 1811/1816 VRB15G25KT 3000 TSRA BKN010
                       BKN035CB
                      BECMG 1816/1818 SCT045=
201905180500 TAF LRBS 180500Z 1806/1906 VRB04KT 9999 SCT045
                      TEMPO 1806/1809 5000 -TSRA BKN010 SCT040CB
                       TEMPO 1811/1816 VRB20G30KT 3000 TSRA BKN010
                       BKN035CB
                      PROB30 TEMPO 1902/1906 5000 -SHRA SCT030CB=
201905181100 TAF LRBS 181100Z 1812/1912 VRB04KT CAVOK
                      PROB30 TEMPO 1812/1816 5000 -TSRA BKN010
                       BKN035CB=
201905181700 TAF LRBS 181700Z 1818/1918 25006KT CAVOK
                      BECMG 1820/1823 5000 BR
                      PROB30 TEMPO 1823/1904 1500 BR
                      PROB30 TEMPO 1914/1917 FEW035CB=
201905182300 TAF LRBS 182300Z 1900/1924 25006KT 5000 BR NSC
                      TEMPO 1900/1904 1500 BR
                      BECMG 1904/1906 9999 NSW
                      PROB30 TEMPO 1914/1917 FEW035CB=
201905190500 TAF LRBS 190500Z 1906/2006 VRB04KT CAVOK
                      BECMG 1916/1918 09010KT=
201905191100 TAF LRBS 191100Z 1912/2012 11010KT CAVOK
                      BECMG 2008/2010 17012KT=
201905191700 TAF LRBS 191700Z 1918/2018 10007KT CAVOK
                      BECMG 2008/2010 16010KT
                      BECMG 2015/2017 26018KT 5000 TSRA SCT040CB
                       PROB30
                      TEMPO 2017/2018 26020G38KT 1500 +TSRA SCT010
                       BKN030CB=
201905192300 TAF LRBS 192300Z 2000/2024 08007KT CAVOK
                      TEMPO 2001/2004 3000 BR
                      BECMG 2008/2010 16010KT
                      BECMG 2015/2017 26018KT 5000 TSRA SCT040CB
                       PROB30
                      TEMPO 2017/2019 26020G38KT 1500 +TSRA SCT010
                       BKN030CB
                      BECMG 2019/2021 26008KT 9999 NSW SCT040CB=
201905200500 TAF LRBS 200500Z 2006/2106 14008KT CAVOK
                      BECMG 2013/2015 26018KT SCT040CB
                      TEMPO 2015/2020 5000 TSRA BKN010 BKN030CB
                       PROB30
                      TEMPO 2017/2019 26025G35KT 1500 +TSRA
                      BECMG 2020/2022 26008KT 9999 NSW SCT040=
201905201100 TAF LRBS 201100Z 2012/2112 16010KT CAVOK
                      TEMPO 2015/2020 5000 TSRA BKN010 BKN030CB
                       PROB30
                      TEMPO 2017/2019 26025G35KT 1500 +TSRA=
201905201700 TAF LRBS 201700Z 2018/2118 27022KT 9999 SCT030CB
                      TEMPO 2018/2020 5000 SHRA
                      BECMG 2020/2022 25012KT NSC
                      TEMPO 2113/2117 SCT040CB
                      BECMG 2115/2117 VRB04KT=
201905201905 TAF AMD LRBS 201905Z 2019/2118 28008KT 9999 FEW050CB
                      BECMG 2019/2021 NSC
                      TEMPO 2113/2117 SCT040CB=
201905202300 TAF LRBS 202300Z 2100/2124 25008KT CAVOK
                      TEMPO 2113/2117 SCT040CB=
201905210500 TAF LRBS 210500Z 2106/2206 26010KT CAVOK
                      TEMPO 2112/2116 SCT040CB
                      BECMG 2115/2117 VRB04KT
                      PROB30 TEMPO 2201/2204 5000 BR=
201905211100 TAF LRBS 211100Z 2112/2212 24010KT 9999 SCT045
                      PROB40 TEMPO 2112/2116 SCT040CB
                      BECMG 2115/2117 VRB04KT
                      PROB30 TEMPO 2201/2204 5000 BR=
201905211700 TAF LRBS 211700Z 2118/2218 24006KT CAVOK
                      TEMPO 2201/2204 3000 BR
                      BECMG 2209/2211 27010KT
                      TEMPO 2212/2214 27020G30KT SCT035CB=
201905212300 TAF LRBS 212300Z 2200/2224 24006KT CAVOK
                      TEMPO 2201/2204 3000 BR
                      BECMG 2209/2211 27010KT
                      TEMPO 2212/2216 27020G30KT SCT035CB=
201905220500 TAF LRBS 220500Z 2206/2306 25012KT CAVOK=
201905221100 TAF LRBS 221100Z 2212/2312 25012KT CAVOK=
201905221700 TAF LRBS 221700Z 2218/2318 VRB04KT CAVOK
                      BECMG 2222/2224 25010KT=
201905222300 TAF LRBS 222300Z 2300/2324 24010KT CAVOK=
201905230500 TAF LRBS 230500Z 2306/2406 26008KT CAVOK=
201905231100 TAF LRBS 231100Z 2312/2412 27012KT CAVOK
                      BECMG 2317/2319 VRB04KT=
201905231700 TAF LRBS 231700Z 2318/2418 24010KT CAVOK
                      BECMG 2318/2320 VRB04KT
                      BECMG 2409/2411 SCT045CB
                      TEMPO 2411/2417 VRB15G25KT 5000 TSRA=
201905232300 TAF LRBS 232300Z 2400/2424 VRB04KT CAVOK
                      BECMG 2409/2411 SCT045CB
                      TEMPO 2412/2418 VRB15G25KT 5000 TSRA
                      BECMG 2420/2422 SCT015 BKN030=
201905240500 TAF LRBS 240500Z 2406/2506 VRB04KT 9999 SCT045
                      BECMG 2409/2411 SCT045CB
                      TEMPO 2411/2417 VRB20G30KT 3000 TSRA BKN010
                       BKN040CB
                      PROB40 TEMPO 2411/2415 1500 +TSRA
                      BECMG 2420/2422 SCT015 BKN030=
201905241100 TAF LRBS 241100Z 2412/2512 VRB04KT 9999 SCT040CB
                      TEMPO 2412/2417 VRB20G30KT 3000 TSRA BKN010
                       BKN040CB
                      PROB40 TEMPO 2412/2416 1500 +TSGR
                      BECMG 2417/2419 SCT015 BKN030
                      PROB30 TEMPO 2421/2505 5000 -TSRA SCT045CB=
201905241700 TAF LRBS 241700Z 2418/2518 26006KT CAVOK
                      TEMPO 2418/2424 SCT050CB
                      PROB30 TEMPO 2500/2504 3000 BR
                      PROB40 TEMPO 2509/2514 SCT040CB=
201905242300 TAF LRBS 242300Z 2500/2524 VRB04KT CAVOK
                      PROB30 TEMPO 2500/2504 3000 BR
                      PROB40 TEMPO 2509/2514 SCT040CB=
201905250500 TAF LRBS 250500Z 2506/2606 26008KT 9999 SCT040
                      TEMPO 2510/2517 SCT040CB
                      PROB40 2512/2516 5000 -TSRA
                      BECMG 2521/2523 5000 BR
                      TEMPO 2523/2605 1500 BR BKN005
                      PROB40 2600/2604 0600 FG BKN002=
201905251100 TAF LRBS 251100Z 2512/2612 26007KT 9999 SCT040
                      TEMPO 2512/2517 5000 -TSRA SCT040CB
                      BECMG 2520/2522 5000 BR
                      BECMG 2522/2524 1500 BR BKN005
                      TEMPO 2600/2604 0600 FG BKN002
                      BECMG 2604/2606 5000 BKN010
                      BECMG 2606/2608 9999 NSW SCT025=
201905251700 TAF LRBS 251700Z 2518/2618 30006KT 9999 SCT040
                      BECMG 2520/2522 5000 BR
                      BECMG 2522/2524 1500 BR BKN005
                      PROB30 TEMPO 2600/2604 0600 FG BKN002
                      BECMG 2604/2606 5000 BKN010
                      BECMG 2606/2608 9999 NSW SCT025=
201905252300 TAF LRBS 252300Z 2600/2624 VRB04KT CAVOK
                      BECMG 2600/2602 5000 BR
                      PROB30 TEMPO 2602/2605 1500 BR BKN005
                      BECMG 2605/2607 9999 NSW=
201905260500 TAF LRBS 260500Z 2606/2706 VRB04KT CAVOK
                      PROB30 TEMPO 2702/2705 5000 BR=
201905261100 TAF LRBS 261100Z 2612/2712 VRB04KT CAVOK
                      PROB30 TEMPO 2702/2705 5000 BR
                      BECMG 2707/2709 10010KT=
201905261700 TAF LRBS 261700Z 2618/2718 VRB04KT CAVOK
                      PROB30 TEMPO 2702/2705 5000 BR
                      BECMG 2708/2710 09010KT
                      BECMG 2714/2716 15012KT=
201905262300 TAF LRBS 262300Z 2700/2724 VRB04KT CAVOK
                      PROB30 TEMPO 2702/2705 5000 BR
                      BECMG 2708/2710 09010KT
                      BECMG 2714/2716 15012KT=
201905270500 TAF LRBS 270500Z 2706/2806 VRB04KT CAVOK
                      BECMG 2708/2710 09010KT
                      BECMG 2714/2716 15012KT
                      BECMG 2804/2806 09010KT=
201905271100 TAF LRBS 271100Z 2712/2812 11012KT CAVOK
                      TEMPO 2809/2811 SCT045CB=
201905271700 TAF LRBS 271700Z 2718/2818 10008KT CAVOK
                      TEMPO 2816/2818 FEW045CB=
201905272300 TAF LRBS 272300Z 2800/2824 09010KT CAVOK
                      TEMPO 2818/2821 FEW045CB
                      TEMPO 2822/2824 5000 BR BKN010=
201905280500 TAF LRBS 280500Z 2806/2906 09010KT CAVOK
                      PROB40 TEMPO 2806/2810 SCT040CB
                      TEMPO 2817/2824 SCT040CB
                      PROB40 TEMPO 2819/2824 VRB15G25KT 3000 TSRA
                       BKN035CB
                      TEMPO 2900/2904 5000 BR BKN010=
201905281100 TAF LRBS 281100Z 2812/2912 10012KT CAVOK
                      TEMPO 2817/2824 SCT040CB
                      PROB40 TEMPO 2819/2824 VRB15G25KT 3000 TSRA
                       BKN035CB
                      TEMPO 2900/2904 5000 BR BKN010
                      BECMG 2906/2908 VRB04KT=
201905281700 TAF LRBS 281700Z 2818/2918 09010KT CAVOK
                      BECMG 2821/2823 VRB04KT
                      TEMPO 2823/2902 SCT045CB
                      BECMG 2903/2905 05010KT
                      BECMG 2907/2909 31009KT=
201905282300 TAF AMD LRBS 290112Z 2901/2924 02005KT 8000 BKN005
                      TEMPO 2901/2903 5000 BR
                      BECMG 2903/2905 NSC
                      BECMG 2907/2909 29010KT
                      BECMG 2917/2919 VRB04KT=
201905290112 TAF AMD LRBS 290112Z 2901/2924 02005KT 8000 BKN005
                      TEMPO 2901/2903 5000 BR
                      BECMG 2903/2905 NSC
                      BECMG 2907/2909 29010KT
                      BECMG 2917/2919 VRB04KT=
201905290500 TAF LRBS 290500Z 2906/3006 VRB04KT 5000 BR BKN005
                      BECMG 2906/2908 28010KT 9999 NSW SCT010
                      TEMPO 2912/2918 SCT040CB
                      PROB30 TEMPO 2913/2917 VRB20KT 5000 -TSRA
                       BECMG 2917/2919 VRB04KT
                      BECMG 3004/3006 27010KT=
201905291100 TAF LRBS 291100Z 2912/3012 26008KT 9999 SCT040
                      TEMPO 2912/2918 SCT040CB
                      PROB30 TEMPO 2913/2918 VRB20KT 5000 -TSRA=
201905291700 TAF LRBS 291700Z 2918/3018 26006KT CAVOK
                      PROB30 TEMPO 3000/3003 5000 -SHRA SCT040CB=
201905292055 TAF AMD LRBS 292055Z 2920/3018 26006KT 9999 SCT045
                      TEMPO 2920/2924 VRB15G25KT 5000 TSRA SCT035CB
                       PROB30
                      TEMPO 3000/3004 5000 -SHRA SCT040CB=
201905292300 TAF LRBS 292300Z 3000/3024 28008KT 9999 SCT045
                      TEMPO 3000/3004 VRB15G25KT 3000 TSRA BKN010
                       BKN035CB=
201905300500 TAF LRBS 300500Z 3006/3106 29007KT CAVOK
                      TEMPO 3010/3015 VRB20KT 5000 TSRA SCT010
                       SCT040CB
                      PROB40 TEMPO 3100/3106 VRB15KT 5000 TSRA
                       SCT010 SCT040CB=
201905301100 TAF LRBS 301100Z 3012/3112 VRB04KT CAVOK
                      TEMPO 3013/3017 FEW040CB
                      PROB40 TEMPO 3100/3106 VRB15KT 5000 TSRA
                       SCT010 SCT040CB
                      BECMG 3110/3112 SCT040CB=
201905301724 TAF COR LRBS 301724Z 3018/3118 26006KT CAVOK
                      PROB30 TEMPO 3100/3106 VRB15KT 5000 TSRA
                       SCT010 SCT040CB
                      BECMG 3109/3111 SCT015 SCT040CB
                      TEMPO 3112/3118 VRB15G25KT 5000 TSRA
                      PROB40 TEMPO 3115/3118 VRB25G35KT 1500 SQ
                       +TSRAGR BKN015 BKN030CB=
201905302300 TAF LRBS 302300Z 3100/3124 VRB04KT CAVOK
                      PROB30 TEMPO 3100/3106 5000 TSRA SCT010 SCT040CB
                       BECMG 3109/3111 SCT015 SCT040CB
                      TEMPO 3112/3122 VRB15G25KT 5000 TSRA
                      PROB40 TEMPO 3115/3122 VRB25G35KT 1500 SQ
                       +TSRAGR BKN015 BKN030CB
                      BECMG 3122/3124 BKN040=
201905310500 TAF LRBS 310500Z 3106/0106 VRB04KT CAVOK
                      TEMPO 3107/3112 5000 SHRA SCT010 SCT035CB
                       PROB30
                      TEMPO 3108/3112 VRB15G25KT 3000 TSRA SCT010
                       BKN030CB
                      BECMG 3115/3117 SCT030CB
                      TEMPO 3117/3124 VRB15G25KT 3000 TSRA SCT010
                       BKN030CB
                      TEMPO 0100/0106 5000 SHRA BKN010 SCT030CB=
201905311100 TAF LRBS 311100Z 3112/0112 VRB04KT 9999 SCT035
                      BECMG 3114/3116 SCT030CB
                      TEMPO 3116/3124 VRB15G25KT 3000 TSRA SCT010
                       BKN030CB
                      TEMPO 0100/0107 5000 SHRA BKN010 SCT030CB
                       BECMG 0107/0109 NSC=
201905311700 TAF LRBS 311700Z 3118/0118 33007KT 9999 SCT035CB
                      TEMPO 3118/3122 3000 TSRA SCT010 BKN030CB
                       TEMPO 3122/0103 5000 SHRA BKN015 SCT030CB
                       BECMG 0104/0106 SCT035=
201905312300 TAF AMD LRBS 010304Z 0103/0124 VRB04KT 9999 BKN015 OVC035
                      TEMPO 0103/0106 BKN010 FEW030CB OVC035
                      BECMG 0106/0108 BKN035=
