201905010000 METAR LRBS 010000Z 26011KT CAVOK 10/07 Q1006 NOSIG=
201905010030 METAR LRBS 010030Z 25010KT CAVOK 09/07 Q1006 NOSIG=
201905010100 METAR LRBS 010100Z 26010KT CAVOK 09/07 Q1006 NOSIG=
201905010130 METAR LRBS 010130Z 25008KT CAVOK 09/07 Q1006 NOSIG=
201905010200 METAR LRBS 010200Z 25011KT CAVOK 09/07 Q1006 NOSIG=
201905010230 METAR LRBS 010230Z 25009KT CAVOK 09/06 Q1005 NOSIG=
201905010300 METAR LRBS 010300Z 25009KT CAVOK 09/06 Q1005 NOSIG=
201905010330 METAR LRBS 010330Z 25012KT 9999 FEW040 09/06 Q1005 NOSIG=
201905010400 METAR LRBS 010400Z 25012KT 9999 SCT049 10/06 Q1005 NOSIG=
201905010430 METAR LRBS 010430Z 25013KT 9999 BKN047 10/06 Q1005 NOSIG=
201905010500 METAR LRBS 010500Z 25014KT 9999 FEW036 11/07 Q1005 TEMPO
                        25020G30KT 5000 -SHRA SCT015 BKN035CB=
201905010530 METAR LRBS 010530Z 24015KT 9999 BKN032 11/07 Q1005 TEMPO
                        25020G30KT 5000 -RA=
201905010600 METAR COR LRBS 010600Z 25018KT 9999 FEW016 BKN048 12/07 Q1005
                        TEMPO 25020G30KT 5000 -RA=
201905010630 METAR LRBS 010630Z 25017KT 9999 BKN032 13/08 Q1005 TEMPO
                        25020G30KT 5000 -RA=
201905010700 METAR LRBS 010700Z 26019KT 240V310 9999 BKN027 14/07 Q1005=
201905010730 METAR COR LRBS 010730Z 26019KT 9999 BKN028 13/07 Q1005 TEMPO
                        25020G30KT 5000 -RA=
201905010800 METAR LRBS 010800Z 26018KT 9999 BKN029 14/08 Q1005 TEMPO
                        25020G30KT 5000 -RA=
201905010830 METAR LRBS 010830Z 27014KT 240V300 9999 BKN029 14/08 Q1005
                        TEMPO 25020G30KT 5000 -RA=
201905010900 METAR COR LRBS 010900Z 27018KT 240V300 9999 BKN033 15/08
                        Q1005 TEMPO 25020G30KT 5000 -RA=
201905010930 METAR LRBS 010930Z 27016KT 240V310 9999 BKN032 15/08 Q1005
                        TEMPO 25020G30KT 5000 -RA=
201905011000 METAR LRBS 011000Z 27016KT 240V300 9999 BKN032 16/08 Q1005=
201905011030 METAR LRBS 011030Z 27018KT 9999 BKN032 16/09 Q1005 TEMPO
                        25020G30KT 5000 -RA=
201905011100 METAR LRBS 011100Z 28014KT 250V310 9999 BKN034 17/09 Q1005
                        TEMPO 28020G30KT=
201905011130 METAR LRBS 011130Z 27015KT 240V300 9999 SCT032 17/09 Q1005
                        TEMPO 28020G30KT=
201905011200 METAR LRBS 011200Z 27015KT 250V310 9999 BKN037 18/09 Q1004
                        TEMPO 28020G30KT=
201905011230 METAR LRBS 011230Z 28011KT 9999 BKN037 18/09 Q1004 TEMPO
                        28020G30KT=
201905011300 METAR COR LRBS 011300Z 28011KT 9999 BKN037 18/09 Q1004 TEMPO
                        28020G30KT=
201905011330 METAR LRBS 011330Z 28013KT 9999 SCT037 18/09 Q1004 TEMPO
                        28020G30KT=
201905011400 METAR LRBS 011400Z 27014KT 9999 SCT038 18/09 Q1004 NOSIG=
201905011430 METAR LRBS 011430Z 27014KT 9999 FEW038 18/09 Q1004 NOSIG=
201905011500 METAR LRBS 011500Z 27012KT 250V310 9999 BKN041 18/09 Q1004
                        NOSIG=
201905011530 METAR LRBS 011530Z 27013KT 9999 FEW039 18/09 Q1004 NOSIG=
201905011600 METAR LRBS 011600Z 26012KT 9999 FEW040 18/09 Q1004 NOSIG=
201905011630 METAR LRBS 011630Z 27009KT 240V300 9999 FEW041 18/10 Q1005
                        NOSIG=
201905011700 METAR LRBS 011700Z 27007KT 240V300 9999 FEW039 17/10 Q1005
                        NOSIG=
201905011730 METAR LRBS 011730Z 26006KT CAVOK 16/10 Q1005 NOSIG=
201905011800 METAR LRBS 011800Z 27006KT CAVOK 16/10 Q1006 NOSIG=
201905011830 METAR LRBS 011830Z 27007KT CAVOK 15/10 Q1006 NOSIG=
201905011900 METAR LRBS 011900Z 28005KT CAVOK 15/10 Q1006 NOSIG=
201905011930 METAR LRBS 011930Z 27005KT CAVOK 15/09 Q1006 NOSIG=
201905012000 METAR LRBS 012000Z 27004KT 240V310 CAVOK 14/09 Q1006 NOSIG=
201905012030 METAR LRBS 012030Z 29003KT CAVOK 14/09 Q1006 NOSIG=
201905012100 METAR COR LRBS 012100Z VRB02KT CAVOK 14/10 Q1007 TEMPO 5000
                        -SHRA SCT040CB=
201905012130 METAR LRBS 012130Z 27003KT 240V300 9999 FEW040CB 14/10 Q1007
                        TEMPO 5000 -SHRA SCT040CB=
201905012200 METAR LRBS 012200Z 28003KT 9999 -SHRA FEW045CB 13/10 Q1007
                        NOSIG=
201905012230 METAR LRBS 012230Z 27004KT 9999 -SHRA FEW040CB 13/10 Q1007
                        NOSIG=
201905012300 METAR LRBS 012300Z 28005KT 9999 -SHRA FEW050CB 12/11 Q1007
                        NOSIG=
201905012330 METAR LRBS 012330Z VRB01KT 9999 -SHRA FEW050CB 12/11 Q1007
                        BECMG NSW SCT040=
201905020000 METAR LRBS 020000Z 00000KT 9999 -SHRA FEW050CB 12/11 Q1007
                        NOSIG=
201905020030 METAR LRBS 020030Z 28003KT 240V320 9999 -SHRA FEW050CB 12/11
                        Q1007 NOSIG=
201905020100 METAR LRBS 020100Z 26002KT 9999 -SHRA FEW050CB 12/11 Q1007
                        R07/29//95 NOSIG=
201905020130 METAR LRBS 020130Z 29003KT CAVOK 11/11 Q1007 R07/29//95 NOSIG=
201905020200 METAR LRBS 020200Z VRB02KT CAVOK 11/11 Q1007 R07/29//95 NOSIG=
201905020230 METAR LRBS 020230Z 27002KT 8000 -RA NSC 12/11 Q1007 R07/29//95
                        NOSIG=
201905020300 METAR LRBS 020300Z 30003KT 270V340 8000 NSC 11/10 Q1007 R07/29//95
                        NOSIG=
201905020330 METAR LRBS 020330Z 27002KT CAVOK 11/10 Q1007 R07/29//95 TEMPO
                        3000 BR=
201905020400 METAR LRBS 020400Z VRB01KT 8000 NSC 11/11 Q1007 R07/29//95
                        NOSIG=
201905020430 METAR LRBS 020430Z 30002KT 8000 NSC 12/11 Q1008 R07/29//95
                        NOSIG=
201905020500 METAR LRBS 020500Z 24003KT CAVOK 13/11 Q1008 R07/29//95 NOSIG=
201905020530 METAR LRBS 020530Z 24003KT 210V280 CAVOK 14/11 Q1008 R07/29//95
                        NOSIG=
201905020600 METAR COR LRBS 020600Z 20005KT 150V240 CAVOK 15/11 Q1008
                        R07/29//95 NOSIG=
201905020630 METAR LRBS 020630Z 21005KT 180V240 CAVOK 16/10 Q1008 R07/29//95
                        NOSIG=
201905020700 METAR LRBS 020700Z 26006KT CAVOK 17/10 Q1009 R07/29//95 NOSIG=
201905020730 METAR LRBS 020730Z 24006KT 210V280 CAVOK 17/10 Q1009 R07/29//95
                        NOSIG=
201905020800 METAR LRBS 020800Z 24005KT 190V270 CAVOK 18/10 Q1009 R07/29//95
                        NOSIG=
201905020830 METAR LRBS 020830Z 26008KT 9999 FEW047 18/10 Q1009 R07/29//95
                        NOSIG=
201905020900 METAR LRBS 020900Z 24008KT 210V270 9999 SCT039 18/08 Q1009
                        R07/29//95 NOSIG=
201905020930 METAR LRBS 020930Z 23007KT 9999 FEW049 19/07 Q1009 R07/29//95
                        NOSIG=
201905021000 METAR LRBS 021000Z 26009KT 230V290 CAVOK 20/08 Q1008 R07/29//95
                        NOSIG=
201905021030 METAR COR LRBS 021030Z 24007KT 190V320 9999 SCT049 20/08
                        Q1008 R07/29//95 BECMG SCT045CB=
201905021100 METAR LRBS 021100Z 24009KT CAVOK 20/06 Q1008 R07/29//95 BECMG
                        SCT045CB=
201905021130 METAR LRBS 021130Z 24008KT CAVOK 21/08 Q1008 R07/29//95 TEMPO
                        FEW050CB=
201905021200 METAR LRBS 021200Z 25009KT CAVOK 21/07 Q1007 R07/29//95 TEMPO
                        FEW050CB=
201905021230 METAR LRBS 021230Z 26008KT 230V300 9999 FEW050CB 21/08 Q1007
                        R07/29//95 TEMPO VRB15G25KT BKN045CB=
201905021300 METAR LRBS 021300Z 28012KT 9999 FEW050CB 19/06 Q1007 R07/29//95
                        NOSIG=
201905021330 METAR LRBS 021330Z 28007KT 9999 FEW050CB 20/06 Q1007 R07/29//95
                        NOSIG=
201905021400 METAR LRBS 021400Z 27009KT 250V310 9999 FEW050CB 21/05 Q1007
                        R07/29//95 NOSIG=
201905021430 METAR LRBS 021430Z 26008KT CAVOK 21/06 Q1007 R07/29//95 NOSIG=
201905021500 METAR LRBS 021500Z 28005KT 220V300 CAVOK 21/05 Q1007 R07/29//95
                        NOSIG=
201905021530 METAR LRBS 021530Z 28006KT 250V310 CAVOK 21/05 Q1007 R07/29//95
                        NOSIG=
201905021600 METAR COR LRBS 021600Z 28003KT 240V320 CAVOK 21/06 Q1007
                        R07/29//95 NOSIG=
201905021630 METAR LRBS 021630Z 27003KT 9999 FEW009 21/06 Q1007 R07/29//95
                        NOSIG=
201905021700 METAR LRBS 021700Z 26002KT CAVOK 20/06 Q1007 R07/29//95 NOSIG=
201905021730 METAR LRBS 021730Z 03002KT CAVOK 19/07 Q1007 R07/29//95 NOSIG=
201905021800 METAR LRBS 021800Z 00000KT CAVOK 16/08 Q1008 R07/29//95 NOSIG=
201905021830 METAR LRBS 021830Z VRB01KT CAVOK 16/08 Q1008 R07/29//95 NOSIG=
201905021900 METAR LRBS 021900Z VRB01KT CAVOK 16/08 Q1008 R07/29//95 NOSIG=
201905021930 METAR LRBS 021930Z VRB01KT CAVOK 14/08 Q1008 R07/29//95 NOSIG=
201905022000 METAR LRBS 022000Z 08001KT CAVOK 14/08 Q1008 R07/29//95 NOSIG=
201905022030 METAR LRBS 022030Z 00000KT CAVOK 13/09 Q1008 R07/29//95 NOSIG=
201905022100 METAR LRBS 022100Z 00000KT CAVOK 14/09 Q1008 R07/29//95 NOSIG=
201905022130 METAR LRBS 022130Z VRB02KT CAVOK 12/09 Q1009 R07/29//95 NOSIG=
201905022200 METAR LRBS 022200Z VRB01KT CAVOK 12/09 Q1009 R07/29//95 NOSIG=
201905022230 METAR LRBS 022230Z 28003KT 250V320 CAVOK 12/09 Q1009 R07/29//95
                        NOSIG=
201905022300 METAR LRBS 022300Z VRB01KT CAVOK 11/09 Q1009 R07/29//95 NOSIG=
201905022330 METAR LRBS 022330Z 00000KT CAVOK 11/08 Q1009 R07/29//95 NOSIG=
201905030000 METAR LRBS 030000Z VRB02KT 8000 NSC 09/08 Q1009 R07/29//95
                        NOSIG=
201905030030 METAR LRBS 030030Z VRB01KT CAVOK 10/08 Q1009 R07/29//95 NOSIG=
201905030100 METAR LRBS 030100Z VRB02KT CAVOK 10/08 Q1009 R07/29//95 NOSIG=
201905030130 METAR LRBS 030130Z VRB01KT CAVOK 10/08 Q1009 R07/29//95 NOSIG=
201905030200 METAR LRBS 030200Z VRB01KT CAVOK 09/08 Q1009 R07/29//95 NOSIG=
201905030230 METAR LRBS 030230Z VRB01KT CAVOK 10/09 Q1009 R07/29//95 NOSIG=
201905030300 METAR LRBS 030300Z 33001KT 9999 MIFG NSC 09/08 Q1009 R07/29//95
                        NOSIG=
201905030330 METAR LRBS 030330Z 30004KT 9999 MIFG NSC 09/08 Q1010 R07/29//95
                        NOSIG=
201905030400 METAR LRBS 030400Z VRB01KT CAVOK 10/08 Q1010 R07/29//95 NOSIG=
201905030430 METAR LRBS 030430Z VRB02KT CAVOK 11/08 Q1010 R07/29//95 NOSIG=
201905030500 METAR LRBS 030500Z 26003KT CAVOK 13/08 Q1010 R07/29//95 NOSIG=
201905030530 METAR LRBS 030530Z 00000KT CAVOK 13/09 Q1011 R07/29//95 NOSIG=
201905030600 METAR LRBS 030600Z VRB02KT CAVOK 15/09 Q1011 R07/29//95 NOSIG=
201905030630 METAR LRBS 030630Z VRB01KT CAVOK 17/09 Q1011 R07/29//95 NOSIG=
201905030700 METAR LRBS 030700Z 28003KT 200V350 CAVOK 18/10 Q1011 R07/29//95
                        NOSIG=
201905030730 METAR LRBS 030730Z 25003KT 190V280 CAVOK 18/10 Q1011 R07/29//95
                        NOSIG=
201905030800 METAR LRBS 030800Z 27004KT 210V330 CAVOK 20/09 Q1011 R07/29//95
                        NOSIG=
201905030830 METAR LRBS 030830Z 25006KT 220V300 CAVOK 21/09 Q1011 R07/29//95
                        NOSIG=
201905030900 METAR LRBS 030900Z 27006KT 240V300 CAVOK 22/09 Q1011 R07/29//95
                        NOSIG=
201905030930 METAR LRBS 030930Z 26007KT 230V330 CAVOK 22/08 Q1011 R07/29//95
                        NOSIG=
201905031000 METAR LRBS 031000Z 28006KT 260V340 CAVOK 23/06 Q1010 NOSIG=
201905031030 METAR LRBS 031030Z 27007KT 240V300 CAVOK 23/07 Q1010 NOSIG=
201905031100 METAR LRBS 031100Z 26004KT 210V310 CAVOK 23/08 Q1010 NOSIG=
201905031130 METAR LRBS 031130Z 24007KT 210V290 CAVOK 24/07 Q1009 NOSIG=
201905031200 METAR LRBS 031200Z 25004KT 160V320 CAVOK 24/07 Q1009 NOSIG=
201905031230 METAR LRBS 031230Z 26006KT 220V020 CAVOK 24/08 Q1009 NOSIG=
201905031300 METAR LRBS 031300Z 22008KT 170V280 CAVOK 24/07 Q1008 NOSIG=
201905031330 METAR LRBS 031330Z 23008KT 190V250 CAVOK 24/07 Q1008 NOSIG=
201905031400 METAR LRBS 031400Z 24010KT 210V290 CAVOK 24/07 Q1008 NOSIG=
201905031430 METAR LRBS 031430Z 25010KT 220V290 CAVOK 24/07 Q1008 NOSIG=
201905031500 METAR LRBS 031500Z 25009KT 220V290 CAVOK 24/05 Q1008 NOSIG=
201905031530 METAR LRBS 031530Z 24010KT 220V280 CAVOK 23/05 Q1008 NOSIG=
201905031600 METAR LRBS 031600Z 25008KT CAVOK 23/06 Q1008 NOSIG=
201905031630 METAR LRBS 031630Z 24006KT CAVOK 22/07 Q1008 NOSIG=
201905031700 METAR LRBS 031700Z 22004KT CAVOK 21/07 Q1008 NOSIG=
201905031730 METAR LRBS 031730Z 22003KT CAVOK 21/07 Q1008 NOSIG=
201905031800 METAR LRBS 031800Z AUTO 00000KT 9999 BKN230/// 20/07 Q1008
                        NOSIG=
201905031830 METAR LRBS 031830Z VRB01KT CAVOK 20/08 Q1008 NOSIG=
201905031900 METAR LRBS 031900Z 28001KT CAVOK 19/08 Q1009 NOSIG=
201905031930 METAR LRBS 031930Z 00000KT CAVOK 19/08 Q1009 NOSIG=
201905032000 METAR LRBS 032000Z VRB01KT CAVOK 18/08 Q1009 NOSIG=
201905032030 METAR LRBS 032030Z VRB02KT CAVOK 16/08 Q1009 NOSIG=
201905032100 METAR LRBS 032100Z 00000KT CAVOK 15/08 Q1009 NOSIG=
201905032130 METAR LRBS 032130Z 00000KT CAVOK 15/08 Q1009 NOSIG=
201905032200 METAR LRBS 032200Z 00000KT CAVOK 14/09 Q1009 NOSIG=
201905032230 METAR COR LRBS 032230Z 00000KT CAVOK 12/09 Q1009 NOSIG=
201905032300 METAR LRBS 032300Z 00000KT CAVOK 12/09 Q1009 NOSIG=
201905032330 METAR LRBS 032330Z 00000KT CAVOK 12/09 Q1009 NOSIG=
201905040000 METAR LRBS 040000Z 19005KT CAVOK 13/10 Q1009 NOSIG=
201905040030 METAR LRBS 040030Z 29001KT CAVOK 13/10 Q1009 NOSIG=
201905040100 METAR LRBS 040100Z 29001KT CAVOK 13/10 Q1009 NOSIG=
201905040130 METAR LRBS 040130Z 32001KT CAVOK 12/09 Q1009 NOSIG=
201905040200 METAR LRBS 040200Z 31001KT CAVOK 11/09 Q1009 NOSIG=
201905040230 METAR LRBS 040230Z 25001KT CAVOK 11/09 Q1009 NOSIG=
201905040300 METAR COR LRBS 040300Z 00000KT CAVOK 11/09 Q1009 NOSIG=
201905040330 METAR LRBS 040330Z 31003KT 280V340 CAVOK 11/08 Q1009 NOSIG=
201905040400 METAR LRBS 040400Z VRB02KT CAVOK 12/09 Q1009 NOSIG=
201905040430 METAR LRBS 040430Z 25003KT CAVOK 12/09 Q1010 NOSIG=
201905040500 METAR LRBS 040500Z VRB02KT CAVOK 14/10 Q1009 NOSIG=
201905040530 METAR LRBS 040530Z VRB02KT 9999 FEW045CB 15/10 Q1009 NOSIG=
201905040600 METAR LRBS 040600Z 36003KT 310V020 CAVOK 16/10 Q1009 NOSIG=
201905040630 METAR LRBS 040630Z 03003KT 350V050 9999 FEW045CB 18/10 Q1009
                        NOSIG=
201905040700 METAR LRBS 040700Z 03003KT 360V070 CAVOK 18/09 Q1009 NOSIG=
201905040730 METAR LRBS 040730Z 34004KT 280V050 CAVOK 19/11 Q1009 NOSIG=
201905040800 METAR LRBS 040800Z 02003KT 310V070 CAVOK 21/10 Q1009 NOSIG=
201905040830 METAR LRBS 040830Z VRB02KT CAVOK 22/11 Q1009 NOSIG=
201905040900 METAR LRBS 040900Z 03003KT 340V130 CAVOK 23/09 Q1008 NOSIG=
201905040930 METAR LRBS 040930Z VRB03KT CAVOK 23/09 Q1008 NOSIG=
201905041000 METAR LRBS 041000Z 11007KT CAVOK 24/08 Q1008 NOSIG=
201905041030 METAR LRBS 041030Z 14010KT CAVOK 24/08 Q1008 NOSIG=
201905041100 METAR LRBS 041100Z 15007KT 110V170 CAVOK 23/08 Q1008 NOSIG=
201905041130 METAR LRBS 041130Z 15005KT 110V200 9999 FEW030 23/09 Q1007
                        NOSIG=
201905041200 METAR LRBS 041200Z 12006KT 070V140 9999 FEW030 23/10 Q1007
                        NOSIG=
201905041230 METAR COR LRBS 041230Z 14006KT 100V210 CAVOK 23/09 Q1007
                        NOSIG=
201905041300 METAR LRBS 041300Z 09008KT 060V130 CAVOK 25/10 Q1006 NOSIG=
201905041330 METAR LRBS 041330Z 11008KT 080V140 CAVOK 24/10 Q1006 NOSIG=
201905041400 METAR LRBS 041400Z 11005KT 9999 FEW050CB 24/10 Q1005 NOSIG=
201905041430 METAR LRBS 041430Z 10007KT 070V130 9999 FEW050CB 24/09 Q1005
                        NOSIG=
201905041500 METAR LRBS 041500Z 09007KT 050V110 9999 FEW050CB 24/10 Q1005
                        TEMPO 5000 SHRA SCT040CB=
201905041530 METAR LRBS 041530Z 18011KT 160V220 9999 -SHRA FEW050CB 19/12
                        Q1005 RETS NOSIG=
201905041600 METAR LRBS 041600Z VRB02KT 9999 -SHRA VCTS FEW050CB 20/12
                        Q1005 NOSIG=
201905041630 METAR LRBS 041630Z 06003KT 9999 VCSH FEW050CB 19/10 Q1005
                        BECMG NSC=
201905041700 METAR LRBS 041700Z 03004KT 9999 FEW050CB 19/11 Q1005 BECMG
                        NSC=
201905041730 METAR LRBS 041730Z 06003KT 9999 FEW050CB 18/12 Q1004 BECMG
                        NSC=
201905041800 METAR LRBS 041800Z 07003KT 9999 FEW050CB 18/12 Q1005 BECMG
                        NSC=
201905041830 METAR LRBS 041830Z 10003KT CAVOK 17/11 Q1005 NOSIG=
201905041900 METAR LRBS 041900Z 13004KT CAVOK 19/09 Q1005 NOSIG=
201905041930 METAR LRBS 041930Z 17007KT CAVOK 19/10 Q1005 NOSIG=
201905042000 METAR LRBS 042000Z 17009KT CAVOK 19/09 Q1005 NOSIG=
201905042030 METAR LRBS 042030Z 16006KT 130V190 CAVOK 18/10 Q1005 NOSIG=
201905042100 METAR LRBS 042100Z 15007KT 130V190 CAVOK 18/09 Q1005 NOSIG=
201905042130 METAR LRBS 042130Z 15007KT 110V170 CAVOK 17/08 Q1005 NOSIG=
201905042200 METAR LRBS 042200Z 14007KT 110V170 CAVOK 17/07 Q1005 NOSIG=
201905042230 METAR LRBS 042230Z 15007KT CAVOK 16/07 Q1005 NOSIG=
201905042300 METAR LRBS 042300Z 13007KT CAVOK 16/07 Q1005 NOSIG=
201905042330 METAR LRBS 042330Z 12006KT 090V150 CAVOK 15/06 Q1005 NOSIG=
201905050000 METAR LRBS 050000Z 12006KT CAVOK 15/06 Q1004 NOSIG=
201905050030 METAR LRBS 050030Z AUTO 11005KT 9999 NCD 14/07 Q1004 NOSIG=
201905050100 METAR LRBS 050100Z 10005KT CAVOK 14/07 Q1004 NOSIG=
201905050130 METAR LRBS 050130Z 09005KT CAVOK 12/07 Q1004 NOSIG=
201905050200 METAR LRBS 050200Z 06005KT CAVOK 10/07 Q1004 NOSIG=
201905050230 METAR LRBS 050230Z 06005KT CAVOK 11/07 Q1004 NOSIG=
201905050300 METAR LRBS 050300Z 06004KT CAVOK 10/07 Q1004 NOSIG=
201905050330 METAR LRBS 050330Z 05005KT CAVOK 10/08 Q1004 NOSIG=
201905050400 METAR LRBS 050400Z 06004KT CAVOK 11/08 Q1004 NOSIG=
201905050430 METAR LRBS 050430Z 06005KT CAVOK 12/09 Q1004 NOSIG=
201905050500 METAR LRBS 050500Z 09006KT CAVOK 13/09 Q1004 NOSIG=
201905050530 METAR LRBS 050530Z 08007KT CAVOK 15/09 Q1004 NOSIG=
201905050600 METAR LRBS 050600Z 09007KT CAVOK 16/10 Q1004 NOSIG=
201905050630 METAR LRBS 050630Z 11006KT 070V130 CAVOK 16/10 Q1005 NOSIG=
201905050700 METAR LRBS 050700Z 10005KT 060V120 CAVOK 17/10 Q1005 NOSIG=
201905050730 METAR LRBS 050730Z 10006KT 040V140 CAVOK 18/10 Q1005 NOSIG=
201905050800 METAR LRBS 050800Z 11008KT 060V130 CAVOK 18/10 Q1005 NOSIG=
201905050830 METAR LRBS 050830Z 12008KT 9999 FEW033 19/11 Q1005 NOSIG=
201905050900 METAR LRBS 050900Z 12007KT 9999 FEW034 20/10 Q1005 NOSIG=
201905050930 METAR LRBS 050930Z 08005KT 030V140 9999 FEW037 19/10 Q1005
                        TEMPO FEW035CB SCT040=
201905051000 METAR LRBS 051000Z 08005KT 9999 FEW030 20/10 Q1004 NOSIG=
201905051030 METAR LRBS 051030Z 09005KT 050V110 9999 FEW046 20/11 Q1005
                        NOSIG=
201905051100 METAR LRBS 051100Z 06006KT 020V110 9999 FEW033 21/11 Q1004
                        NOSIG=
201905051130 METAR LRBS 051130Z 09005KT 050V140 9999 FEW047 22/11 Q1004
                        NOSIG=
201905051200 METAR LRBS 051200Z 10005KT 070V150 9999 FEW048 22/11 Q1004
                        NOSIG=
201905051230 METAR LRBS 051230Z 09007KT 9999 FEW048CB 23/12 Q1003 NOSIG=
201905051300 METAR LRBS 051300Z 09009KT 9999 FEW048CB 23/12 Q1003 NOSIG=
201905051330 METAR LRBS 051330Z 06007KT 9999 FEW040 23/11 Q1003 NOSIG=
201905051400 METAR LRBS 051400Z 11007KT CAVOK 23/12 Q1002 NOSIG=
201905051430 METAR LRBS 051430Z 15005KT 100V180 CAVOK 23/12 Q1002 NOSIG=
201905051500 METAR LRBS 051500Z 14009KT 110V170 CAVOK 23/12 Q1003 NOSIG=
201905051530 METAR LRBS 051530Z 15006KT 120V190 CAVOK 22/11 Q1002 NOSIG=
201905051600 METAR LRBS 051600Z 16004KT 110V190 CAVOK 22/11 Q1002 TEMPO
                        VRB15G25KT 3000 TSRA BKN030CB=
201905051630 METAR LRBS 051630Z 14005KT 9999 FEW040CB 22/11 Q1002 TEMPO
                        VRB15G25KT 3000 TSRA BKN030CB=
201905051700 METAR LRBS 051700Z 12003KT 090V150 9999 -TSRA SCT040CB 21/13
                        Q1002 TEMPO VRB15G25KT 3000 TSRA
                        BKN030CB=
201905051730 METAR LRBS 051730Z VRB04KT 9999 TS SCT040CB 20/15 Q1002 TEMPO
                        VRB15G25KT 3000 TSRA BKN030CB=
201905051800 METAR LRBS 051800Z 31003KT 260V050 9999 SCT040CB 21/12 Q1002
                        NOSIG=
201905051830 METAR LRBS 051830Z 15005KT 060V180 9999 SCT040CB 21/12 Q1003
                        NOSIG=
201905051900 METAR LRBS 051900Z 17008KT 9999 FEW040CB 21/11 Q1003 NOSIG=
201905051930 METAR LRBS 051930Z 18009KT 140V230 9999 FEW040CB 21/10 Q1003
                        NOSIG=
201905052000 METAR LRBS 052000Z 19006KT 9999 FEW050CB 20/10 Q1003 NOSIG=
201905052030 METAR LRBS 052030Z 19009KT 160V220 9999 FEW050CB 20/10 Q1003
                        NOSIG=
201905052100 METAR LRBS 052100Z 18007KT 160V220 9999 FEW050CB 19/10 Q1003
                        NOSIG=
201905052130 METAR LRBS 052130Z 18006KT 9999 FEW050CB 19/11 Q1003 NOSIG=
201905052200 METAR LRBS 052200Z 18004KT CAVOK 19/11 Q1003 NOSIG=
201905052230 METAR LRBS 052230Z 20007KT CAVOK 19/10 Q1003 NOSIG=
201905052300 METAR LRBS 052300Z 17004KT CAVOK 18/11 Q1003 NOSIG=
201905052330 METAR LRBS 052330Z 18006KT CAVOK 17/11 Q1002 NOSIG=
201905060000 METAR LRBS 060000Z 16004KT CAVOK 17/10 Q1002 NOSIG=
201905060030 METAR LRBS 060030Z 18006KT 150V210 CAVOK 17/10 Q1003 NOSIG=
201905060100 METAR LRBS 060100Z 17007KT CAVOK 17/10 Q1002 NOSIG=
201905060130 METAR LRBS 060130Z 18006KT 150V210 CAVOK 16/10 Q1002 NOSIG=
201905060200 METAR LRBS 060200Z 19005KT 170V230 CAVOK 16/10 Q1002 NOSIG=
201905060230 METAR LRBS 060230Z 19006KT 160V220 CAVOK 15/10 Q1002 NOSIG=
201905060300 METAR LRBS 060300Z 19005KT 150V210 CAVOK 15/10 Q1002 NOSIG=
201905060330 METAR LRBS 060330Z 21006KT CAVOK 15/11 Q1003 NOSIG=
201905060400 METAR LRBS 060400Z 21005KT 9999 FEW008 15/12 Q1003 NOSIG=
201905060430 METAR LRBS 060430Z 24005KT 9999 FEW007 15/13 Q1003 NOSIG=
201905060500 METAR LRBS 060500Z 24005KT CAVOK 15/13 Q1003 NOSIG=
201905060530 METAR LRBS 060530Z 27006KT 240V300 CAVOK 15/13 Q1003 NOSIG=
201905060600 METAR LRBS 060600Z 27006KT 9999 FEW006 15/13 Q1003 NOSIG=
201905060630 METAR LRBS 060630Z 26003KT 210V290 9999 FEW005 16/14 Q1004
                        NOSIG=
201905060700 METAR LRBS 060700Z 28004KT 250V340 9999 FEW007 16/14 Q1004
                        NOSIG=
201905060730 METAR LRBS 060730Z 27006KT 240V300 9999 BKN008 16/14 Q1004
                        BECMG NSC=
201905060800 METAR LRBS 060800Z 27005KT 240V300 9999 BKN008 17/14 Q1004
                        BECMG NSC=
201905060830 METAR LRBS 060830Z 28004KT 240V340 9999 BKN009 17/14 Q1004
                        BECMG SCT015 FEW040CB=
201905060900 METAR LRBS 060900Z 27006KT 240V320 9999 SCT010 BKN013 18/14
                        Q1004 BECMG SCT015 FEW040CB=
201905060930 METAR LRBS 060930Z 27005KT 9999 -SHRA BKN012 FEW050CB 18/14
                        Q1004 BECMG SCT015 FEW040CB=
201905061000 METAR COR LRBS 061000Z 26005KT 9999 -SHRA SCT014 BKN018 FEW050CB
                        18/16 Q1003 NOSIG=
201905061030 METAR LRBS 061030Z 29002KT 9999 -SHRA BR FEW013 FEW050CB
                        18/16 Q1003 NOSIG=
201905061100 METAR LRBS 061100Z 28003KT 220V340 9999 FEW016 FEW050CB 19/14
                        Q1003 NOSIG=
201905061130 METAR LRBS 061130Z 26004KT 9999 FEW019 FEW050CB 18/16 Q1003
                        NOSIG=
201905061200 METAR LRBS 061200Z VRB02KT 9999 -SHRA BKN045 FEW050CB 18/16
                        Q1002 NOSIG=
201905061230 METAR LRBS 061230Z VRB03KT 9999 FEW026 FEW035CB 19/15 Q1001
                        NOSIG=
201905061300 METAR LRBS 061300Z 28005KT 250V320 9999 FEW013 SCT040CB 18/15
                        Q1001 BECMG VRB15G25KT 5000 TSRA
                        BKN040CB=
201905061330 METAR LRBS 061330Z 28005KT 9999 -SHRA FEW012 SCT040CB 17/16
                        Q1002 BECMG VRB15G25KT 5000 TSRA
                        BKN040CB=
201905061400 METAR COR LRBS 061400Z 28004KT 9999 -TSRA BKN040CB 17/14
                        Q1002 TEMPO VRB15G25KT 5000 TSRA=
201905061430 METAR LRBS 061430Z 25004KT 220V290 9999 -TSRA BKN040CB 16/15
                        Q1001 BECMG NSW=
201905061500 METAR LRBS 061500Z 28003KT 250V310 9999 -TSRA SCT040CB 16/14
                        Q1001 BECMG NSW=
201905061530 METAR LRBS 061530Z 27007KT 9999 -TSRA FEW027 BKN040CB 15/13
                        Q1002 NOSIG=
201905061600 METAR LRBS 061600Z 26011KT 9999 -TSRA FEW027 BKN035CB 14/13
                        Q1002 NOSIG=
201905061630 METAR LRBS 061630Z 24011KT 8000 SHRA FEW023 OVC041CB 13/12
                        Q1003 TEMPO 5000 SHRA=
201905061700 METAR LRBS 061700Z 27009KT 240V300 8000 SHRA FEW025 BKN048CB
                        13/12 Q1003 TEMPO 5000 SHRA=
201905061730 METAR LRBS 061730Z 27006KT 240V300 9999 -SHRA FEW020 SCT043CB
                        13/12 Q1002 RESHRA R07/29//95 TEMPO
                        5000 SHRA=
201905061800 METAR LRBS 061800Z 26011KT 9999 -SHRA FEW015 SCT041CB 12/12
                        Q1003 RESHRA R07/29//95 NOSIG=
201905061830 METAR LRBS 061830Z 25010KT 9000 -SHRA FEW016 BKN041CB 12/12
                        Q1003 R07/29//95 NOSIG=
201905061900 METAR LRBS 061900Z 24011KT 9999 -RA FEW004 SCT012 FEW040CB
                        12/12 Q1003 R07/29//95 TEMPO BKN005
                        BKN040=
201905061930 METAR LRBS 061930Z 25010KT 9999 FEW006 12/12 Q1003 R07/29//95
                        NOSIG=
201905062000 METAR LRBS 062000Z 26008KT 9999 FEW007 12/11 Q1003 R07/29//95
                        NOSIG=
201905062030 METAR LRBS 062030Z 24010KT 9999 -RA SCT009 12/11 Q1003 R07/29//95
                        NOSIG=
201905062100 METAR LRBS 062100Z 26011KT 9999 FEW008 12/10 Q1003 R07/29//95
                        NOSIG=
201905062130 METAR LRBS 062130Z 25010KT 9999 FEW010 11/10 Q1003 R07/29//95
                        NOSIG=
201905062200 METAR LRBS 062200Z 25010KT 9999 FEW011 10/09 Q1003 R07/29//95
                        NOSIG=
201905062230 METAR LRBS 062230Z 26009KT 9999 FEW010 10/09 Q1003 R07/29//95
                        NOSIG=
201905062300 METAR LRBS 062300Z 25010KT 9999 FEW008 10/08 Q1003 R07/29//95
                        NOSIG=
201905062330 METAR LRBS 062330Z 25008KT 9999 FEW009 BKN015 10/08 Q1003
                        R07/29//95 NOSIG=
201905070000 METAR LRBS 070000Z 25009KT 9999 FEW009 BKN014 10/08 Q1003
                        R07/29//95 NOSIG=
201905070030 METAR LRBS 070030Z 25008KT 9999 BKN014 09/08 Q1003 R07/29//95
                        NOSIG=
201905070100 METAR LRBS 070100Z 25006KT 9999 SCT009 BKN012 09/08 Q1003
                        R07/29//95 NOSIG=
201905070130 METAR LRBS 070130Z 25008KT 9999 SCT008 BKN014 09/08 Q1004
                        R07/29//95 NOSIG=
201905070200 METAR LRBS 070200Z 25008KT 8000 -RA BKN006 09/08 Q1004 R07/29//95
                        NOSIG=
201905070230 METAR LRBS 070230Z 27005KT 9999 -RA BKN006 OVC020 09/08 Q1004
                        R07/29//95 NOSIG=
201905070300 METAR COR LRBS 070300Z 24004KT 9999 SCT006 OVC020 09/09 Q1004
                        R07/29//95 NOSIG=
201905070330 METAR LRBS 070330Z 23003KT 9000 -RA FEW007 BKN011 09/09 Q1004
                        R07/29//95 NOSIG=
201905070400 METAR LRBS 070400Z 26004KT 5000 -RA BR FEW003 BKN012 OVC030
                        09/09 Q1005 R07/29//95 NOSIG=
201905070430 METAR LRBS 070430Z 29003KT 5000 -RA BR FEW004 SCT013 OVC028
                        09/09 Q1005 R07/29//95 NOSIG=
201905070500 METAR LRBS 070500Z 27002KT 7000 -RA FEW003 SCT009 OVC039
                        10/09 Q1005 R07/29//95 NOSIG=
201905070530 METAR LRBS 070530Z VRB01KT 8000 -RA BKN005 OVC038 10/10 Q1005
                        R07/29//95 NOSIG=
201905070600 METAR LRBS 070600Z VRB02KT 9999 -RA SCT004 OVC047 11/10 Q1005
                        R07/29//95 NOSIG=
201905070630 METAR LRBS 070630Z 04003KT 020V090 9999 -RA SCT006 OVC049
                        11/10 Q1006 R07/29//95 NOSIG=
201905070700 METAR LRBS 070700Z 09003KT 050V110 8000 -RA SCT007 BKN046
                        11/09 Q1006 R07/29//95 NOSIG=
201905070730 METAR LRBS 070730Z 10004KT 9999 -RA FEW008 SCT018 BKN049
                        11/10 Q1006 R07/29//95 NOSIG=
201905070800 METAR LRBS 070800Z 11005KT 9999 OVC018 11/09 Q1006 R07/29//95
                        NOSIG=
201905070830 METAR LRBS 070830Z 11004KT 070V130 9999 FEW010 BKN022 11/09
                        Q1007 R07/29//95 NOSIG=
201905070900 METAR LRBS 070900Z 10003KT 050V140 9999 -RA FEW007 11/09
                        Q1007 R07/29//95=
201905070930 METAR LRBS 070930Z VRB02KT 4000 -RA BR FEW004 SCT009 OVC029
                        11/10 Q1007 R07/29//95 NOSIG=
201905071000 METAR COR LRBS 071000Z 24003KT 5000 -RA BR FEW004 SCT006
                        11/11 Q1007 R07/29//95 NOSIG=
201905071030 METAR LRBS 071030Z 27005KT 230V310 4000 -RA BR FEW004 OVC029
                        11/11 Q1007 R07/29//95 NOSIG=
201905071100 METAR LRBS 071100Z 24006KT 8000 -RA OVC007 12/11 Q1007 R07/29//95
                        NOSIG=
201905071130 METAR LRBS 071130Z 24006KT 9999 -RA BKN010 OVC042 12/11 Q1007
                        R07/29//95 NOSIG=
201905071200 METAR LRBS 071200Z 28006KT 9999 -RA OVC017 12/10 Q1008 R07/29//95
                        NOSIG=
201905071230 METAR LRBS 071230Z 30004KT 250V010 9999 -RA SCT010 OVC029
                        13/10 Q1008 R07/29//95 NOSIG=
201905071300 METAR LRBS 071300Z 01006KT 330V060 8000 -RA BKN017 OVC029
                        10/07 Q1008 R07/29//95 NOSIG=
201905071330 METAR LRBS 071330Z 01003KT 340V050 7000 RA OVC021 09/08 Q1009
                        R07/29//95 NOSIG=
201905071400 METAR LRBS 071400Z 05003KT 350V100 9999 -RA FEW007 SCT026
                        OVC044 10/09 Q1009 R07/29//95 NOSIG=
201905071430 METAR LRBS 071430Z 03007KT 360V070 9999 -RA SCT008 OVC029
                        10/08 Q1009 R07/29//95 NOSIG=
201905071500 METAR LRBS 071500Z 04004KT 010V090 9999 -RA OVC016 10/08
                        Q1009 R07/29//95 NOSIG=
201905071530 METAR LRBS 071530Z 04003KT 360V100 9999 -RA SCT015 BKN039
                        10/07 Q1010 R07/29//95 NOSIG=
201905071600 METAR LRBS 071600Z VRB02KT 9999 -RA FEW015 OVC028 10/08 Q1010
                        R07/29//95 NOSIG=
201905071630 METAR LRBS 071630Z VRB02KT 9999 -RA BKN029 09/07 Q1010 R07/29//95
                        NOSIG=
201905071700 METAR LRBS 071700Z VRB01KT 9999 SCT034 BKN043 09/08 Q1011
                        R07/29//95 NOSIG=
201905071730 METAR LRBS 071730Z 00000KT 9999 BKN040 09/08 Q1011 R07/29//95
                        NOSIG=
201905071800 METAR LRBS 071800Z 00000KT 9999 -RA SCT043 09/08 Q1012 R07/29//95
                        NOSIG=
201905071830 METAR LRBS 071830Z 00000KT 9999 FEW042 09/08 Q1012 R07/29//95
                        NOSIG=
201905071900 METAR LRBS 071900Z 12002KT 9999 FEW048 09/08 Q1012 R07/29//95
                        NOSIG=
201905071930 METAR LRBS 071930Z 14002KT CAVOK 09/08 Q1013 R07/29//95 NOSIG=
201905072000 METAR LRBS 072000Z 14001KT CAVOK 09/07 Q1013 R07/29//95 NOSIG=
201905072030 METAR LRBS 072030Z 14003KT CAVOK 09/07 Q1013 R07/29//95 NOSIG=
201905072100 METAR LRBS 072100Z 20004KT 160V220 9999 FEW008 09/08 Q1013
                        R07/29//95 NOSIG=
201905072130 METAR LRBS 072130Z 19003KT CAVOK 09/08 Q1013 R07/29//95 NOSIG=
201905072200 METAR LRBS 072200Z 20004KT CAVOK 09/08 Q1013 R07/29//95 NOSIG=
201905072230 METAR LRBS 072230Z 18005KT CAVOK 09/07 Q1013 R07/29//95 NOSIG=
201905072300 METAR LRBS 072300Z 17004KT 140V200 CAVOK 09/07 Q1013 R07/29//95
                        NOSIG=
201905072330 METAR LRBS 072330Z 19002KT CAVOK 08/07 Q1014 R07/29//95 NOSIG=
201905080000 METAR LRBS 080000Z VRB02KT CAVOK 08/06 Q1014 R07/29//95 NOSIG=
201905080030 METAR LRBS 080030Z 21003KT CAVOK 08/07 Q1014 R07/29//95 NOSIG=
201905080100 METAR LRBS 080100Z 18001KT CAVOK 07/06 Q1014 R07/29//95 NOSIG=
201905080130 METAR LRBS 080130Z 00000KT CAVOK 08/07 Q1014 R07/29//95 NOSIG=
201905080200 METAR LRBS 080200Z 30001KT CAVOK 07/07 Q1014 R07/29//95 NOSIG=
201905080230 METAR LRBS 080230Z 00000KT CAVOK 07/07 Q1014 R07/29//95 NOSIG=
201905080300 METAR LRBS 080300Z 00000KT CAVOK 08/07 Q1014 R07/29//95 NOSIG=
201905080330 METAR LRBS 080330Z 31002KT 9999 FEW004 08/07 Q1014 R07/29//95
                        NOSIG=
201905080400 METAR LRBS 080400Z 32001KT CAVOK 08/07 Q1014 R07/29//95 NOSIG=
201905080430 METAR LRBS 080430Z VRB01KT CAVOK 08/07 Q1015 R07/29//95 NOSIG=
201905080500 METAR LRBS 080500Z VRB02KT CAVOK 09/07 Q1015 R07/29//95 NOSIG=
201905080530 METAR LRBS 080530Z VRB02KT CAVOK 11/08 Q1015 R07/29//95 NOSIG=
201905080600 METAR LRBS 080600Z 28003KT 230V320 CAVOK 11/07 Q1015 R07/CLRD//
                        NOSIG=
201905080630 METAR LRBS 080630Z 26003KT 220V310 CAVOK 12/05 Q1015 NOSIG=
201905080700 METAR LRBS 080700Z 29003KT 250V320 CAVOK 12/05 Q1015 NOSIG=
201905080730 METAR LRBS 080730Z 31005KT 9999 FEW025 13/05 Q1015 NOSIG=
201905080800 METAR LRBS 080800Z 30004KT 230V030 9999 FEW028 13/05 Q1015
                        NOSIG=
201905080830 METAR LRBS 080830Z 27005KT 230V320 9999 SCT036 13/04 Q1016
                        NOSIG=
201905080900 METAR LRBS 080900Z 28005KT 210V330 9999 SCT041 14/02 Q1016
                        NOSIG=
201905080930 METAR LRBS 080930Z VRB03KT 9999 SCT046 14/04 Q1016 NOSIG=
201905081000 METAR LRBS 081000Z 30007KT 240V340 9999 SCT048 14/04 Q1016
                        NOSIG=
201905081030 METAR LRBS 081030Z VRB04KT 9999 FEW048 15/04 Q1015 NOSIG=
201905081100 METAR LRBS 081100Z 29006KT 220V360 CAVOK 15/04 Q1015 NOSIG=
201905081130 METAR LRBS 081130Z 33006KT 300V010 9999 SCT049 15/04 Q1015
                        NOSIG=
201905081200 METAR LRBS 081200Z 35004KT 310V050 CAVOK 15/04 Q1015 NOSIG=
201905081230 METAR LRBS 081230Z 30005KT 260V350 CAVOK 14/04 Q1015 NOSIG=
201905081300 METAR LRBS 081300Z 31004KT 280V350 CAVOK 14/04 Q1015 NOSIG=
201905081330 METAR LRBS 081330Z 33003KT CAVOK 15/05 Q1015 NOSIG=
201905081400 METAR LRBS 081400Z 07004KT 020V110 CAVOK 15/06 Q1015 NOSIG=
201905081430 METAR LRBS 081430Z VRB02KT CAVOK 14/05 Q1015 NOSIG=
201905081500 METAR LRBS 081500Z VRB02KT CAVOK 14/05 Q1015 NOSIG=
201905081530 METAR LRBS 081530Z 04002KT CAVOK 14/06 Q1015 NOSIG=
201905081600 METAR LRBS 081600Z 09005KT CAVOK 13/05 Q1015 NOSIG=
201905081630 METAR LRBS 081630Z 11005KT CAVOK 13/05 Q1015 NOSIG=
201905081700 METAR LRBS 081700Z 10004KT CAVOK 13/05 Q1015 NOSIG=
201905081730 METAR COR LRBS 081730Z 11003KT CAVOK 13/05 Q1015 NOSIG=
201905081800 METAR LRBS 081800Z 10004KT CAVOK 13/06 Q1015 NOSIG=
201905081830 METAR LRBS 081830Z 11004KT CAVOK 12/06 Q1015 NOSIG=
201905081900 METAR LRBS 081900Z 11004KT CAVOK 13/06 Q1016 NOSIG=
201905081930 METAR LRBS 081930Z 12004KT CAVOK 13/05 Q1015 NOSIG=
201905082000 METAR LRBS 082000Z 11003KT CAVOK 12/05 Q1016 NOSIG=
201905082030 METAR LRBS 082030Z 11003KT CAVOK 12/05 Q1015 NOSIG=
201905082100 METAR LRBS 082100Z 11002KT CAVOK 12/05 Q1015 NOSIG=
201905082130 METAR LRBS 082130Z 11001KT CAVOK 12/04 Q1015 NOSIG=
201905082200 METAR LRBS 082200Z 17003KT CAVOK 12/05 Q1015 NOSIG=
201905082230 METAR LRBS 082230Z 06004KT CAVOK 10/07 Q1015 NOSIG=
201905082300 METAR LRBS 082300Z VRB02KT CAVOK 11/06 Q1015 NOSIG=
201905082330 METAR LRBS 082330Z VRB01KT CAVOK 12/05 Q1014 NOSIG=
201905090000 METAR LRBS 090000Z 09004KT CAVOK 11/06 Q1014 NOSIG=
201905090030 METAR LRBS 090030Z VRB02KT CAVOK 09/06 Q1014 NOSIG=
201905090100 METAR LRBS 090100Z 14003KT CAVOK 09/06 Q1014 NOSIG=
201905090130 METAR LRBS 090130Z 11004KT CAVOK 07/05 Q1014 NOSIG=
201905090200 METAR LRBS 090200Z 06003KT 020V130 CAVOK 08/05 Q1014 NOSIG=
201905090230 METAR LRBS 090230Z VRB02KT CAVOK 08/06 Q1014 NOSIG=
201905090300 METAR LRBS 090300Z 09002KT CAVOK 08/06 Q1014 NOSIG=
201905090330 METAR LRBS 090330Z 07003KT 020V090 CAVOK 08/07 Q1014 NOSIG=
201905090400 METAR LRBS 090400Z 06002KT CAVOK 09/08 Q1014 NOSIG=
201905090430 METAR LRBS 090430Z 03003KT CAVOK 10/08 Q1014 NOSIG=
201905090500 METAR LRBS 090500Z 07004KT CAVOK 11/08 Q1014 NOSIG=
201905090530 METAR LRBS 090530Z 12005KT 090V150 CAVOK 12/06 Q1013 NOSIG=
201905090600 METAR LRBS 090600Z 14006KT CAVOK 13/06 Q1013 NOSIG=
201905090630 METAR LRBS 090630Z 13007KT 090V160 CAVOK 14/05 Q1013 NOSIG=
201905090700 METAR LRBS 090700Z 13007KT CAVOK 15/05 Q1013 NOSIG=
201905090730 METAR LRBS 090730Z 17006KT 140V210 9999 FEW040 15/05 Q1013
                        NOSIG=
201905090800 METAR LRBS 090800Z 12007KT 9999 FEW040 15/06 Q1013 NOSIG=
201905090830 METAR LRBS 090830Z 13005KT 070V210 9999 SCT042 17/05 Q1012
                        NOSIG=
201905090900 METAR LRBS 090900Z VRB03KT 9999 SCT048 17/05 Q1012 NOSIG=
201905090930 METAR LRBS 090930Z 15004KT 050V210 9999 BKN046 16/05 Q1011
                        NOSIG=
201905091000 METAR LRBS 091000Z 11005KT 070V130 9999 BKN048 16/06 Q1011
                        NOSIG=
201905091030 METAR LRBS 091030Z 13003KT 080V190 9999 FEW047 16/05 Q1011
                        NOSIG=
201905091100 METAR LRBS 091100Z 10005KT 060V150 CAVOK 17/05 Q1011 NOSIG=
201905091130 METAR LRBS 091130Z 07003KT CAVOK 17/04 Q1010 NOSIG=
201905091200 METAR LRBS 091200Z VRB03KT CAVOK 17/05 Q1010 NOSIG=
201905091230 METAR LRBS 091230Z 12004KT 030V170 CAVOK 17/05 Q1010 NOSIG=
201905091300 METAR LRBS 091300Z 10004KT 060V130 CAVOK 17/05 Q1009 NOSIG=
201905091330 METAR LRBS 091330Z VRB03KT CAVOK 18/04 Q1009 NOSIG=
201905091400 METAR LRBS 091400Z 14004KT 110V180 CAVOK 17/04 Q1009 NOSIG=
201905091430 METAR LRBS 091430Z 12003KT 080V160 CAVOK 18/04 Q1008 NOSIG=
201905091500 METAR LRBS 091500Z 13004KT CAVOK 18/05 Q1008 NOSIG=
201905091530 METAR LRBS 091530Z 13003KT 080V170 CAVOK 17/04 Q1008 NOSIG=
201905091600 METAR LRBS 091600Z 13003KT 080V170 CAVOK 17/04 Q1008 NOSIG=
201905091630 METAR LRBS 091630Z 10004KT CAVOK 17/05 Q1007 NOSIG=
201905091700 METAR LRBS 091700Z 10001KT CAVOK 17/05 Q1007 NOSIG=
201905091730 METAR LRBS 091730Z 04001KT CAVOK 16/06 Q1007 TEMPO 5000 -SHRA
                        BKN015 SCT030CB=
201905091800 METAR LRBS 091800Z VRB02KT CAVOK 16/07 Q1007 TEMPO 5000 -SHRA
                        BKN015 SCT030CB=
201905091830 METAR LRBS 091830Z 31002KT CAVOK 15/07 Q1007 TEMPO 5000 -SHRA
                        BKN015 SCT030CB=
201905091900 METAR LRBS 091900Z VRB02KT 9999 -RA NSC 15/07 Q1007 TEMPO
                        5000 -SHRA BKN015 SCT030CB=
201905091930 METAR LRBS 091930Z 00000KT 9999 -RA NSC 14/08 Q1007 NOSIG=
201905092000 METAR LRBS 092000Z 26003KT 9999 -RA NSC 14/09 Q1007 NOSIG=
201905092030 METAR LRBS 092030Z 29007KT 260V320 9999 -RA NSC 13/09 Q1007
                        NOSIG=
201905092100 METAR LRBS 092100Z AUTO 31003KT 250V340 9999 -RA OVC061///
                        12/10 Q1007 NOSIG=
201905092130 METAR LRBS 092130Z VRB02KT 9999 -RA NSC 11/10 Q1007 NOSIG=
201905092200 METAR LRBS 092200Z VRB02KT 9999 -RA BKN048 11/10 Q1007 R07/29//95
                        NOSIG=
201905092230 METAR LRBS 092230Z 00000KT 9999 -RA NSC 11/10 Q1007 R07/29//95
                        NOSIG=
201905092300 METAR COR LRBS 092300Z 00000KT 9000 -RA NSC 11/10 Q1007 R07/29//95
                        NOSIG=
201905092330 METAR LRBS 092330Z 00000KT 9000 -RA FEW034 SCT046 11/10 Q1007
                        R07/29//95 NOSIG=
201905100000 METAR LRBS 100000Z 00000KT 8000 -RA FEW006 BKN028 11/10 Q1007
                        R07/29//95 NOSIG=
201905100030 METAR LRBS 100030Z 00000KT 6000 -RA FEW005 SCT026 11/10 Q1007
                        R07/29//95 NOSIG=
201905100100 METAR LRBS 100100Z VRB01KT 6000 -RA FEW004 SCT005 11/10 Q1006
                        R07/29//95 NOSIG=
201905100130 METAR LRBS 100130Z 00000KT 5000 -RA BR SCT005 OVC025 11/10
                        Q1006 R07/29//95=
201905100200 METAR LRBS 100200Z 00000KT 6000 -RA FEW005 BKN023 11/10 Q1006
                        R07/29//95 NOSIG=
201905100230 METAR LRBS 100230Z 10001KT 9999 -RA FEW006 OVC020 11/10 Q1006
                        R07/29//95 NOSIG=
201905100300 METAR LRBS 100300Z 00000KT 9000 -RA FEW008 OVC021 11/10 Q1006
                        R07/29//95 NOSIG=
201905100330 METAR LRBS 100330Z 00000KT 9999 -RA FEW008 BKN012 OVC030
                        11/10 Q1006 R07/29//95 NOSIG=
201905100400 METAR LRBS 100400Z 00000KT 9000 -RA FEW006 OVC019 11/10 Q1006
                        R07/29//95 NOSIG=
201905100430 METAR LRBS 100430Z 00000KT 8000 FEW006 BKN009 11/11 Q1007
                        R07/29//95 NOSIG=
201905100500 METAR LRBS 100500Z 00000KT 9999 SCT006 BKN021 11/10 Q1007
                        R07/29//95 NOSIG=
201905100530 METAR LRBS 100530Z 26001KT 9999 BKN007 12/10 Q1007 R07/29//95
                        NOSIG=
201905100600 METAR LRBS 100600Z 24002KT 9999 BKN011 12/10 Q1007 R07/29//95
                        NOSIG=
201905100630 METAR LRBS 100630Z 25002KT 9999 BKN012 12/10 Q1007 R07/29//95
                        NOSIG=
201905100700 METAR LRBS 100700Z VRB02KT 9999 BKN008 12/10 Q1007 R07/29//95
                        NOSIG=
201905100730 METAR COR LRBS 100730Z 25003KT 220V280 8000 -RA BKN007 BKN017
                        13/11 Q1007 R07/29//95 NOSIG=
201905100800 METAR LRBS 100800Z 25003KT 220V300 8000 -RA BKN008 BKN012
                        13/11 Q1007 R07/29//95 NOSIG=
201905100830 METAR COR LRBS 100830Z 24003KT 200V290 9999 BKN010 BKN030
                        13/11 Q1007 R07/29//95 NOSIG=
201905100900 METAR LRBS 100900Z 27004KT 230V320 9999 FEW010 BKN039 14/11
                        Q1007 R07/29//95 NOSIG=
201905100930 METAR LRBS 100930Z VRB04KT 9999 SCT013 BKN042 FEW050CB 15/12
                        Q1007 R07/29//95 NOSIG=
201905101000 METAR LRBS 101000Z 36004KT 310V030 9999 BKN018 FEW050CB 16/11
                        Q1007 R07/29//95 NOSIG=
201905101030 METAR LRBS 101030Z 29007KT 230V320 9999 BKN019 16/11 Q1007
                        R07/29//95 NOSIG=
201905101100 METAR LRBS 101100Z 28005KT 220V340 9999 FEW022 SCT030 17/10
                        Q1007 R07/29//95 NOSIG=
201905101130 METAR LRBS 101130Z 30006KT 270V360 9999 BKN031 FEW050CB 17/10
                        Q1007 R07/29//95 NOSIG=
201905101200 METAR LRBS 101200Z 29006KT 260V340 9999 SCT028 FEW050CB 18/10
                        Q1007 R07/29//95 NOSIG=
201905101230 METAR LRBS 101230Z 28004KT 250V010 9999 BKN032 FEW050CB 17/10
                        Q1007 R07/29//95 NOSIG=
201905101300 METAR LRBS 101300Z 28006KT 250V320 9999 SCT030 FEW050CB 16/10
                        Q1008 R07/29//95 NOSIG=
201905101330 METAR LRBS 101330Z 27003KT 240V300 9999 FEW014 SCT049CB 15/13
                        Q1008 R07/29//95 TEMPO 5000 SHRA=
201905101400 METAR LRBS 101400Z VRB02KT 9999 FEW039 SCT050CB 16/12 Q1007
                        R07/29//95 TEMPO 5000 SHRA=
201905101430 METAR LRBS 101430Z 05004KT 360V080 9999 -SHRA SCT021 SCT040CB
                        15/12 Q1008 R07/29//95 TEMPO 5000
                        SHRA=
201905101500 METAR LRBS 101500Z VRB02KT 9999 SCT020 SCT050CB 14/12 Q1008
                        R07/29//95 TEMPO 5000 SHRA=
201905101530 METAR LRBS 101530Z 00000KT 9999 TS SCT050CB 14/11 Q1008 R07/29//95
                        TEMPO 5000 SHRA=
201905101600 METAR LRBS 101600Z 05003KT 9999 SCT050CB 14/12 Q1008 R07/29//95
                        NOSIG=
201905101630 METAR LRBS 101630Z VRB01KT 9999 FEW012 FEW045CB 14/12 Q1008
                        R07/29//95 NOSIG=
201905101700 METAR LRBS 101700Z VRB01KT 9999 FEW045CB 14/12 Q1008 R07/29//95
                        NOSIG=
201905101730 METAR LRBS 101730Z VRB01KT 9000 FEW045CB 13/12 Q1009 R07/29//95
                        NOSIG=
201905101800 METAR LRBS 101800Z 05001KT 9000 FEW045CB 13/12 Q1009 R07/29//95
                        NOSIG=
201905101830 METAR LRBS 101830Z 04003KT 8000 NSC 12/12 Q1009 R07/29//95
                        NOSIG=
201905101900 METAR LRBS 101900Z 24001KT 7000 NSC 13/12 Q1010 R07/29//95
                        BECMG 5000 BR=
201905101930 METAR LRBS 101930Z 24004KT 7000 FEW009 13/12 Q1010 R07/29//95
                        BECMG 5000 BR=
201905102000 METAR LRBS 102000Z 26002KT 7000 FEW006 12/11 Q1010 R07/29//95
                        BECMG 5000 BR=
201905102030 METAR LRBS 102030Z 28002KT 5000 BR NSC 12/11 Q1010 R07/29//95
                        BECMG 3000 BR=
201905102100 METAR LRBS 102100Z 26001KT 5000 BR FEW015 12/12 Q1010 R07/29//95
                        BECMG 3000 BR=
201905102130 METAR LRBS 102130Z 31002KT 3500 MIFG BR NSC 12/11 Q1010 R07/29//95
                        NOSIG=
201905102200 METAR LRBS 102200Z 01003KT 1500 R07/0400 R25/2000 PRFG BR
                        NSC 11/10 Q1010 R07/29//95 NOSIG=
201905102230 METAR LRBS 102230Z VRB01KT 0700 R07/1100 R25/0375N FG NSC
                        10/10 Q1010 R07/29//95 TEMPO 0800=
201905102300 METAR LRBS 102300Z VRB01KT 2500 R07/0325 R25/0275 BCFG BR
                        NSC 10/10 Q1010 R07/29//95 TEMPO
                        0600 FG=
201905102330 METAR LRBS 102330Z 28002KT 2500 BCFG BR NSC 10/10 Q1011 R07/29//95
                        TEMPO 1500 BR=
201905110000 METAR COR LRBS 110000Z 27003KT 1500 R07/1300 R25/P2000 BCFG
                        BR FEW001 10/10 Q1011 R07/19//95
                        TEMPO 0600 FG=
201905110030 METAR LRBS 110030Z VRB01KT 2000 BCFG BR NSC 10/09 Q1011 R07/19//95
                        TEMPO 0600 FG=
201905110100 METAR LRBS 110100Z 00000KT 2600 BCFG BR NSC 10/10 Q1011 R07/19//95
                        NOSIG=
201905110130 METAR LRBS 110130Z 00000KT 2700 BCFG BR NSC 10/10 Q1011 R07/19//95
                        NOSIG=
201905110200 METAR LRBS 110200Z 00000KT 5000 MIFG BR NSC 10/10 Q1011 R07/19//95
                        NOSIG=
201905110230 METAR LRBS 110230Z 00000KT 6000 MIFG NSC 10/10 Q1011 R07/19//95
                        NOSIG=
201905110300 METAR LRBS 110300Z 00000KT 5000 BCFG BR NSC 10/10 Q1011 R07/19//95
                        NOSIG=
201905110330 METAR LRBS 110330Z 00000KT 6000 MIFG NSC 10/10 Q1012 R07/19//95
                        NOSIG=
201905110400 METAR LRBS 110400Z 00000KT 7000 -RA NSC 11/10 Q1012 R07/19//95
                        NOSIG=
201905110430 METAR LRBS 110430Z 00000KT 7000 -RA NSC 11/11 Q1012 R07/19//95
                        NOSIG=
201905110500 METAR LRBS 110500Z 13002KT 9999 -RA NSC 12/11 Q1013 R07/19//95
                        NOSIG=
201905110530 METAR LRBS 110530Z 11003KT 070V130 9999 -RA NSC 13/11 Q1013
                        R07/19//95 NOSIG=
201905110600 METAR LRBS 110600Z 10004KT 9999 -RA NSC 13/11 Q1013 R07/19//95
                        NOSIG=
201905110630 METAR LRBS 110630Z 09003KT 070V130 CAVOK 13/11 Q1014 R07/19//95
                        NOSIG=
201905110700 METAR LRBS 110700Z VRB02KT 9999 FEW010 14/12 Q1014 R07/19//95
                        NOSIG=
201905110730 METAR LRBS 110730Z 12003KT 040V170 9999 FEW011 14/11 Q1014
                        R07/19//95 NOSIG=
201905110800 METAR LRBS 110800Z VRB02KT 9999 FEW013 15/12 Q1014 R07/19//95
                        NOSIG=
201905110830 METAR LRBS 110830Z VRB02KT 9999 FEW022 16/11 Q1014 R07/CLRD//
                        NOSIG=
201905110900 METAR LRBS 110900Z 20003KT 160V240 9999 FEW022 16/11 Q1014
                        NOSIG=
201905110930 METAR LRBS 110930Z 23003KT 170V290 9999 FEW022 18/10 Q1014
                        NOSIG=
201905111000 METAR LRBS 111000Z 17003KT 130V250 9999 SCT025 17/10 Q1014
                        NOSIG=
201905111030 METAR LRBS 111030Z VRB01KT 9999 SCT030 19/10 Q1014 NOSIG=
201905111100 METAR LRBS 111100Z 17003KT 090V220 9999 SCT031 19/11 Q1014
                        NOSIG=
201905111130 METAR LRBS 111130Z VRB02KT 9999 SCT042 19/11 Q1014 NOSIG=
201905111200 METAR LRBS 111200Z 30003KT 220V010 9999 SCT045 19/10 Q1014
                        NOSIG=
201905111230 METAR LRBS 111230Z VRB02KT 9999 SCT034 20/10 Q1014 NOSIG=
201905111300 METAR LRBS 111300Z VRB02KT 9999 FEW040CB SCT045 20/09 Q1014
                        NOSIG=
201905111330 METAR LRBS 111330Z 07003KT 360V110 9999 FEW040CB FEW049 20/09
                        Q1014 NOSIG=
201905111400 METAR LRBS 111400Z VRB02KT 9999 FEW045CB FEW049 20/09 Q1014
                        NOSIG=
201905111430 METAR LRBS 111430Z VRB03KT 9999 FEW040CB 21/08 Q1014 NOSIG=
201905111500 METAR LRBS 111500Z 08003KT 050V110 9999 FEW040CB 21/09 Q1014
                        NOSIG=
201905111530 METAR LRBS 111530Z 08007KT 9999 FEW040CB 19/11 Q1014 NOSIG=
201905111600 METAR LRBS 111600Z 10006KT 9999 FEW040CB 19/11 Q1014 NOSIG=
201905111630 METAR LRBS 111630Z 10006KT 9999 FEW040CB 18/11 Q1014 TEMPO
                        VRB15 5000 TSRA=
201905111700 METAR LRBS 111700Z 10004KT 9999 FEW040CB 18/11 Q1015 TEMPO
                        VRB15 5000 TSRA=
201905111730 METAR LRBS 111730Z 08006KT 9999 -SHRA FEW040CB 17/12 Q1015
                        NOSIG=
201905111800 METAR LRBS 111800Z 09003KT 9999 -SHRA FEW040CB 16/13 Q1016
                        NOSIG=
201905111830 METAR COR LRBS 111830Z 12003KT 9999 FEW040CB 16/12 Q1016
                        BECMG NSC=
201905111900 METAR LRBS 111900Z VRB02KT CAVOK 16/12 Q1016 NOSIG=
201905111930 METAR LRBS 111930Z 33003KT CAVOK 15/13 Q1016 NOSIG=
201905112000 METAR LRBS 112000Z VRB01KT CAVOK 14/12 Q1016 NOSIG=
201905112030 METAR LRBS 112030Z 07005KT CAVOK 13/12 Q1016 NOSIG=
201905112100 METAR LRBS 112100Z 07005KT CAVOK 13/12 Q1016 NOSIG=
201905112130 METAR LRBS 112130Z 05003KT CAVOK 13/12 Q1016 NOSIG=
201905112200 METAR LRBS 112200Z 00000KT CAVOK 13/12 Q1017 NOSIG=
201905112230 METAR LRBS 112230Z 00000KT CAVOK 14/12 Q1017 NOSIG=
201905112300 METAR COR LRBS 112300Z 01004KT CAVOK 13/12 Q1017 NOSIG=
201905112330 METAR COR LRBS 112330Z VRB01KT CAVOK 13/11 Q1016 NOSIG=
201905120000 METAR LRBS 120000Z 07001KT CAVOK 12/11 Q1017 NOSIG=
201905120030 METAR LRBS 120030Z 35003KT CAVOK 12/11 Q1017 NOSIG=
201905120100 METAR LRBS 120100Z 03003KT 9999 FEW074 11/10 Q1017 NOSIG=
201905120130 METAR LRBS 120130Z 05003KT CAVOK 11/11 Q1017 NOSIG=
201905120200 METAR LRBS 120200Z 05002KT CAVOK 11/11 Q1017 NOSIG=
201905120230 METAR LRBS 120230Z 05004KT CAVOK 10/10 Q1017 NOSIG=
201905120300 METAR LRBS 120300Z 04003KT CAVOK 10/09 Q1017 NOSIG=
201905120330 METAR LRBS 120330Z 03002KT CAVOK 11/10 Q1017 NOSIG=
201905120400 METAR LRBS 120400Z 06003KT CAVOK 12/11 Q1018 NOSIG=
201905120430 METAR LRBS 120430Z 06005KT CAVOK 13/12 Q1018 NOSIG=
201905120500 METAR LRBS 120500Z 06005KT CAVOK 13/11 Q1018 NOSIG=
201905120530 METAR LRBS 120530Z 06006KT 020V080 CAVOK 14/11 Q1018 NOSIG=
201905120600 METAR LRBS 120600Z 05007KT CAVOK 15/12 Q1018 NOSIG=
201905120630 METAR LRBS 120630Z 07008KT CAVOK 16/12 Q1018 NOSIG=
201905120700 METAR LRBS 120700Z 05008KT CAVOK 17/12 Q1018 NOSIG=
201905120730 METAR LRBS 120730Z 05008KT CAVOK 18/11 Q1018 NOSIG=
201905120800 METAR LRBS 120800Z 06009KT 020V090 CAVOK 19/11 Q1018 NOSIG=
201905120830 METAR LRBS 120830Z 07008KT 040V100 CAVOK 20/12 Q1018 NOSIG=
201905120900 METAR LRBS 120900Z 08009KT CAVOK 20/11 Q1018 NOSIG=
201905120930 METAR LRBS 120930Z 09009KT CAVOK 21/10 Q1018 NOSIG=
201905121000 METAR LRBS 121000Z 08010KT 050V110 9999 FEW044 21/10 Q1018
                        NOSIG=
201905121030 METAR LRBS 121030Z 07010KT 040V120 9999 FEW045 22/11 Q1018
                        NOSIG=
201905121100 METAR LRBS 121100Z 05007KT 020V090 9999 FEW048 22/10 Q1019
                        NOSIG=
201905121130 METAR LRBS 121130Z 09009KT CAVOK 22/10 Q1018 NOSIG=
201905121200 METAR LRBS 121200Z 07011KT CAVOK 22/10 Q1018 NOSIG=
201905121230 METAR COR LRBS 121230Z 06010KT CAVOK 23/12 Q1018 NOSIG=
201905121300 METAR LRBS 121300Z 07011KT CAVOK 22/11 Q1018 NOSIG=
201905121330 METAR LRBS 121330Z 06010KT 020V110 CAVOK 23/10 Q1018 NOSIG=
201905121400 METAR LRBS 121400Z 08011KT CAVOK 23/10 Q1018 NOSIG=
201905121430 METAR LRBS 121430Z 07011KT CAVOK 23/10 Q1018 NOSIG=
201905121500 METAR LRBS 121500Z 07010KT 050V110 CAVOK 23/10 Q1018 NOSIG=
201905121530 METAR LRBS 121530Z 07011KT CAVOK 22/09 Q1018 NOSIG=
201905121600 METAR LRBS 121600Z 08011KT CAVOK 22/09 Q1018 NOSIG=
201905121630 METAR LRBS 121630Z 09012KT CAVOK 21/09 Q1018 NOSIG=
201905121700 METAR LRBS 121700Z 08008KT CAVOK 20/10 Q1018 NOSIG=
201905121730 METAR LRBS 121730Z 08008KT CAVOK 19/10 Q1018 NOSIG=
201905121800 METAR LRBS 121800Z 09008KT CAVOK 19/11 Q1018 NOSIG=
201905121830 METAR LRBS 121830Z 09007KT CAVOK 18/11 Q1019 NOSIG=
201905121900 METAR LRBS 121900Z 08010KT CAVOK 18/12 Q1019 NOSIG=
201905121930 METAR LRBS 121930Z 09008KT CAVOK 17/11 Q1019 NOSIG=
201905122000 METAR LRBS 122000Z 09008KT CAVOK 16/11 Q1019 NOSIG=
201905122030 METAR COR LRBS 122030Z 08007KT CAVOK 14/11 Q1020 NOSIG=
201905122100 METAR LRBS 122100Z 09005KT CAVOK 14/11 Q1020 NOSIG=
201905122130 METAR LRBS 122130Z 07006KT CAVOK 13/10 Q1019 NOSIG=
201905122200 METAR LRBS 122200Z 06004KT CAVOK 12/10 Q1019 NOSIG=
201905122230 METAR LRBS 122230Z 05005KT CAVOK 12/10 Q1019 NOSIG=
201905122300 METAR LRBS 122300Z 06003KT 9999 NCD 11/10 Q1019 NOSIG=
201905122330 METAR LRBS 122330Z 02003KT CAVOK 11/10 Q1019 NOSIG=
201905130000 METAR LRBS 130000Z 03004KT CAVOK 11/10 Q1019 NOSIG=
201905130030 METAR LRBS 130030Z 04005KT 010V070 CAVOK 11/10 Q1019 NOSIG=
201905130100 METAR LRBS 130100Z 04006KT CAVOK 11/10 Q1019 NOSIG=
201905130130 METAR LRBS 130130Z 05007KT CAVOK 11/10 Q1019 NOSIG=
201905130200 METAR LRBS 130200Z 06007KT CAVOK 11/10 Q1019 NOSIG=
201905130230 METAR LRBS 130230Z 06008KT CAVOK 11/10 Q1019 TEMPO 5000 BR=
201905130300 METAR LRBS 130300Z 07008KT 8000 NSC 11/10 Q1020 TEMPO 5000
                        BR=
201905130330 METAR LRBS 130330Z 06007KT 6000 NSC 11/10 Q1020 TEMPO 5000
                        BR=
201905130400 METAR COR LRBS 130400Z 07007KT 3000 BR BKN003 11/11 Q1020
                        TEMPO 1500 BR BKN002=
201905130430 METAR LRBS 130430Z 06007KT 2500 BR BKN003 11/10 Q1020 TEMPO
                        1500 BR BKN002=
201905130500 METAR LRBS 130500Z 08009KT 3000 BR FEW002 BKN003 11/11 Q1021
                        TEMPO BKN002=
201905130530 METAR LRBS 130530Z 08009KT 6000 SCT003 BKN005 12/11 Q1021
                        BECMG SCT010=
201905130600 METAR LRBS 130600Z 07010KT 7000 SCT005 BKN007 13/12 Q1021
                        BECMG SCT010=
201905130630 METAR LRBS 130630Z 08013KT 8000 FEW007 BKN009 14/11 Q1021
                        BECMG SCT010=
201905130700 METAR LRBS 130700Z 07012KT 9000 BKN009 15/11 Q1021 BECMG
                        SCT010=
201905130730 METAR LRBS 130730Z 07013KT 9999 BKN011 15/12 Q1021 BECMG
                        SCT015=
201905130800 METAR LRBS 130800Z 07012KT 9999 BKN015 17/12 Q1021 BECMG
                        SCT015=
201905130830 METAR LRBS 130830Z 07013KT 9999 BKN019 17/12 Q1021 NOSIG=
201905130900 METAR LRBS 130900Z 08011KT 9999 SCT021 18/11 Q1021 NOSIG=
201905130930 METAR LRBS 130930Z 07012KT 040V100 9999 SCT026 19/11 Q1021
                        NOSIG=
201905131000 METAR LRBS 131000Z 06012KT 9999 FEW029 19/11 Q1021 NOSIG=
201905131030 METAR LRBS 131030Z 07013KT 9999 FEW031 19/11 Q1021 NOSIG=
201905131100 METAR LRBS 131100Z 08013KT 050V110 9999 FEW034 20/11 Q1021
                        NOSIG=
201905131130 METAR LRBS 131130Z 08013KT 040V110 9999 FEW038 21/11 Q1020
                        NOSIG=
201905131200 METAR LRBS 131200Z 08014KT 9999 SCT041 20/10 Q1020 NOSIG=
201905131230 METAR LRBS 131230Z 07013KT 9999 FEW042 21/11 Q1020 NOSIG=
201905131300 METAR LRBS 131300Z 09013KT 9999 FEW043 21/10 Q1020 NOSIG=
201905131330 METAR LRBS 131330Z 08015KT 9999 FEW044 21/10 Q1019 NOSIG=
201905131400 METAR LRBS 131400Z 08013KT 040V110 9999 SCT045 21/11 Q1019
                        NOSIG=
201905131430 METAR LRBS 131430Z 10012KT 9999 SCT044 20/10 Q1019 NOSIG=
201905131500 METAR LRBS 131500Z 09010KT 9999 FEW044 21/11 Q1019 NOSIG=
201905131530 METAR LRBS 131530Z 09010KT 9999 FEW046 21/11 Q1019 NOSIG=
201905131600 METAR LRBS 131600Z 10009KT 9999 FEW048 21/11 Q1019 NOSIG=
201905131630 METAR LRBS 131630Z 09010KT CAVOK 20/11 Q1019 NOSIG=
201905131700 METAR LRBS 131700Z 09008KT CAVOK 20/11 Q1019 NOSIG=
201905131730 METAR LRBS 131730Z 10007KT CAVOK 19/11 Q1019 NOSIG=
201905131800 METAR LRBS 131800Z 09007KT CAVOK 18/11 Q1019 NOSIG=
201905131830 METAR LRBS 131830Z 09007KT CAVOK 18/11 Q1019 NOSIG=
201905131900 METAR LRBS 131900Z 09006KT CAVOK 17/11 Q1019 NOSIG=
201905131930 METAR LRBS 131930Z 10005KT CAVOK 17/11 Q1019 NOSIG=
201905132000 METAR LRBS 132000Z 09005KT CAVOK 17/11 Q1019 NOSIG=
201905132030 METAR LRBS 132030Z 09004KT CAVOK 16/12 Q1019 NOSIG=
201905132100 METAR LRBS 132100Z 10003KT CAVOK 16/11 Q1019 NOSIG=
201905132130 METAR LRBS 132130Z 08004KT CAVOK 15/11 Q1019 NOSIG=
201905132200 METAR LRBS 132200Z 06004KT CAVOK 15/12 Q1019 NOSIG=
201905132230 METAR LRBS 132230Z AUTO 10004KT 9999 BKN130/// 15/11 Q1019
                        NOSIG=
201905132300 METAR LRBS 132300Z 08006KT CAVOK 15/12 Q1019 NOSIG=
201905132330 METAR COR LRBS 132330Z 07005KT CAVOK 14/12 Q1018 NOSIG=
201905140000 METAR LRBS 140000Z 08004KT CAVOK 14/11 Q1018 NOSIG=
201905140030 METAR LRBS 140030Z AUTO 05006KT 9999 BKN160/// 14/12 Q1018
                        TEMPO 5000 -SHRA SCT025CB=
201905140100 METAR LRBS 140100Z 05005KT CAVOK 14/12 Q1017 TEMPO 5000 -SHRA
                        SCT025CB=
201905140130 METAR LRBS 140130Z 06006KT CAVOK 14/12 Q1017 TEMPO 5000 -SHRA
                        SCT025CB=
201905140200 METAR LRBS 140200Z 05005KT CAVOK 14/12 Q1017 TEMPO 5000 -SHRA
                        SCT025CB=
201905140230 METAR LRBS 140230Z 05006KT CAVOK 14/12 Q1017 TEMPO 5000 -SHRA
                        SCT025CB=
201905140300 METAR LRBS 140300Z 05004KT CAVOK 14/12 Q1017 NOSIG=
201905140330 METAR LRBS 140330Z 06008KT CAVOK 14/11 Q1017 NOSIG=
201905140400 METAR LRBS 140400Z 06006KT CAVOK 14/11 Q1017 NOSIG=
201905140430 METAR COR LRBS 140430Z 07006KT CAVOK 14/12 Q1017 NOSIG=
201905140500 METAR LRBS 140500Z 06007KT CAVOK 14/12 Q1017 NOSIG=
201905140530 METAR LRBS 140530Z 07007KT CAVOK 14/12 Q1018 NOSIG=
201905140600 METAR LRBS 140600Z 06007KT 9999 FEW040 14/12 Q1018 NOSIG=
201905140630 METAR LRBS 140630Z 07009KT CAVOK 15/12 Q1018 NOSIG=
201905140700 METAR LRBS 140700Z 07010KT CAVOK 15/12 Q1018 NOSIG=
201905140730 METAR LRBS 140730Z 06012KT 9999 FEW032 FEW050CB 16/13 Q1017
                        TEMPO 5000 -SHRA SCT045CB=
201905140800 METAR LRBS 140800Z 05010KT 9999 SCT012 FEW050CB 15/13 Q1017
                        TEMPO 5000 -SHRA=
201905140830 METAR LRBS 140830Z 07010KT 8000 -SHRA SCT012 SCT050CB 15/13
                        Q1018 TEMPO 5000 SHRA=
201905140900 METAR LRBS 140900Z 07009KT 6000 -SHRA SCT013 SCT050CB 14/13
                        Q1018 TEMPO 4000 SHRA=
201905140930 METAR LRBS 140930Z 08007KT 4000 SHRA SCT014 SCT050CB 14/13
                        Q1018 TEMPO 3000 SHRA=
201905141000 METAR COR LRBS 141000Z 07009KT 3000 -SHRA BR SCT015 SCT050CB
                        14/13 Q1018 NOSIG=
201905141030 METAR LRBS 141030Z 07011KT 3000 -SHRA BR SCT006 SCT050CB
                        14/14 Q1017 NOSIG=
201905141100 METAR LRBS 141100Z 08009KT 3000 -SHRA BR BKN007 SCT050CB
                        14/14 Q1018 BECMG 5000=
201905141130 METAR LRBS 141130Z 08010KT 3000 -SHRA BR SCT006 SCT050CB
                        14/13 Q1017 BECMG 5000=
201905141200 METAR LRBS 141200Z 08012KT 5000 -SHRA BR SCT008 SCT050CB
                        13/11 Q1017 BECMG 9999 NSW=
201905141230 METAR LRBS 141230Z 07009KT 8000 -SHRA SCT050CB 13/12 Q1016
                        BECMG 9999 NSW=
201905141300 METAR COR LRBS 141300Z 04009KT 8000 -SHRA SCT050CB 14/13
                        Q1016 BECMG NSW SCT045=
201905141330 METAR LRBS 141330Z 05011KT 8000 SCT005 FEW050CB 15/14 Q1015
                        BECMG NSC=
201905141400 METAR LRBS 141400Z 06013KT 020V090 8000 BKN006 FEW050CB 16/14
                        Q1015 BECMG NSC=
201905141430 METAR LRBS 141430Z 06015KT 9999 SCT009 16/14 Q1015 BECMG
                        NSC=
201905141500 METAR LRBS 141500Z 05011KT 9999 SCT013 16/11 Q1014 NOSIG=
201905141530 METAR LRBS 141530Z 06012KT 9999 SCT013 16/14 Q1014 NOSIG=
201905141600 METAR LRBS 141600Z 06012KT 9000 SCT010 16/14 Q1014 NOSIG=
201905141630 METAR LRBS 141630Z 06012KT 9000 BKN010 15/14 Q1014 NOSIG=
201905141700 METAR LRBS 141700Z 06013KT 8000 BKN010 15/14 Q1014 NOSIG=
201905141730 METAR LRBS 141730Z 06012KT 7000 -SHRA BKN009 SCT015 FEW045CB
                        15/14 Q1014 NOSIG=
201905141800 METAR LRBS 141800Z 06011KT 6000 BKN007 BKN015 15/14 Q1014
                        NOSIG=
201905141830 METAR COR LRBS 141830Z 06011KT 7000 BKN008 15/14 Q1013 BECMG
                        SCT020=
201905141900 METAR COR LRBS 141900Z 06011KT 8000 SCT010 15/13 Q1014 NOSIG=
201905141930 METAR LRBS 141930Z 06010KT 7000 SCT008 14/13 Q1013 BECMG
                        5000 BR=
201905142000 METAR LRBS 142000Z 07010KT 7000 FEW009 14/13 Q1013 BECMG
                        5000 BR=
201905142030 METAR LRBS 142030Z 06011KT 040V100 8000 -SHRA SCT015 FEW045CB
                        14/13 Q1013 NOSIG=
201905142100 METAR LRBS 142100Z 07012KT 9000 -SHRA FEW014 BKN020 FEW040CB
                        14/12 Q1013 NOSIG=
201905142130 METAR LRBS 142130Z 06012KT 9999 FEW021 FEW040CB 13/12 Q1013
                        R07/29//95 NOSIG=
201905142200 METAR LRBS 142200Z 06013KT 9999 FEW018 14/12 Q1013 R07/29//95
                        NOSIG=
201905142230 METAR COR LRBS 142230Z 07012KT 9999 -RA FEW016 13/12 Q1013
                        R07/29//95 NOSIG=
201905142300 METAR LRBS 142300Z 06010KT 9999 -SHRA SCT011 FEW040CB 13/12
                        Q1012 R07/29//95 NOSIG=
201905142330 METAR LRBS 142330Z 06010KT 9000 SCT010 FEW040CB 13/12 Q1012
                        R07/29//95 NOSIG=
201905150000 METAR LRBS 150000Z 05009KT 9000 SCT008 13/12 Q1012 R07/29//95
                        NOSIG=
201905150030 METAR LRBS 150030Z 06010KT 9999 BKN008 13/12 Q1012 R07/29//95
                        NOSIG=
201905150100 METAR LRBS 150100Z 07011KT 8000 BKN007 13/12 Q1012 R07/29//95
                        NOSIG=
201905150130 METAR LRBS 150130Z 06011KT 7000 BKN006 13/12 Q1011 R07/29//95
                        NOSIG=
201905150200 METAR LRBS 150200Z 05010KT 7000 OVC006 13/12 Q1011 R07/29//95
                        NOSIG=
201905150230 METAR LRBS 150230Z 07010KT 7000 OVC005 13/12 Q1012 R07/29//95
                        NOSIG=
201905150300 METAR LRBS 150300Z 05009KT 020V090 6000 OVC005 13/12 Q1011
                        R07/29//95 BECMG 5000 BR=
201905150330 METAR LRBS 150330Z 07011KT 6000 OVC005 13/13 Q1012 R07/CLRD//
                        BECMG 5000 BR=
201905150400 METAR LRBS 150400Z 05008KT 6000 OVC005 13/13 Q1012 NOSIG=
201905150430 METAR LRBS 150430Z 05007KT 9999 BKN007 13/13 Q1012 BECMG
                        BKN010=
201905150500 METAR LRBS 150500Z 04007KT 010V070 9999 BKN006 14/13 Q1012
                        BECMG BKN010=
201905150530 METAR LRBS 150530Z 05008KT 9999 BKN006 14/13 Q1012 BECMG
                        BKN010=
201905150600 METAR LRBS 150600Z 04008KT 9999 BKN006 14/13 Q1012 BECMG
                        BKN010=
201905150630 METAR LRBS 150630Z 05006KT 9999 BKN007 14/13 Q1012 BECMG
                        BKN010=
201905150700 METAR LRBS 150700Z 06007KT 9999 BKN007 15/14 Q1012 BECMG
                        BKN010=
201905150730 METAR LRBS 150730Z 05006KT 010V070 9999 BKN008 15/14 Q1012
                        BECMG BKN010=
201905150800 METAR LRBS 150800Z 05006KT 9999 OVC009 16/14 Q1012 BECMG
                        BKN010=
201905150830 METAR LRBS 150830Z 06007KT 9999 BKN012 17/14 Q1012 BECMG
                        SCT015=
201905150900 METAR LRBS 150900Z 07008KT 9999 SCT012 SCT024 17/15 Q1012
                        NOSIG=
201905150930 METAR LRBS 150930Z 08009KT 040V100 9999 BKN014 BKN021 18/15
                        Q1012 BECMG SCT020=
201905151000 METAR COR LRBS 151000Z 06007KT 9999 BKN017 BKN026 19/15 Q1012
                        NOSIG=
201905151030 METAR LRBS 151030Z 09007KT 060V140 9999 BKN017 18/14 Q1013
                        NOSIG=
201905151100 METAR LRBS 151100Z 11008KT 9999 BKN019 18/15 Q1012 NOSIG=
201905151130 METAR LRBS 151130Z 09005KT 9999 SCT017 BKN034 18/15 Q1012
                        NOSIG=
201905151200 METAR LRBS 151200Z 11007KT 9999 SCT016 BKN021 18/14 Q1013
                        NOSIG=
201905151230 METAR LRBS 151230Z 10006KT 9999 FEW014 SCT041 17/15 Q1012
                        NOSIG=
201905151300 METAR LRBS 151300Z 10004KT 070V170 9999 FEW010 17/15 Q1012
                        NOSIG=
201905151330 METAR LRBS 151330Z 09005KT 9999 FEW021 18/15 Q1012 NOSIG=
201905151400 METAR LRBS 151400Z 09004KT 060V140 9999 FEW014 18/15 Q1011
                        NOSIG=
201905151430 METAR LRBS 151430Z 08005KT 040V100 9999 SCT012 SCT030 18/15
                        Q1012 NOSIG=
201905151500 METAR COR LRBS 151500Z 07005KT 9999 BKN010 18/16 Q1012 NOSIG=
201905151530 METAR COR LRBS 151530Z 06005KT 010V090 9999 BKN010 18/16
                        Q1011 NOSIG=
201905151600 METAR LRBS 151600Z 07011KT 9999 BKN013 18/15 Q1012 NOSIG=
201905151630 METAR LRBS 151630Z 06007KT 9999 FEW016 SCT027 18/15 Q1012
                        NOSIG=
201905151700 METAR LRBS 151700Z 06007KT 9999 FEW015 SCT031 17/15 Q1012
                        NOSIG=
201905151730 METAR LRBS 151730Z 04003KT 9999 FEW026 BKN034 16/14 Q1013
                        NOSIG=
201905151800 METAR LRBS 151800Z 06005KT 9999 FEW020 SCT027 BKN043 15/14
                        Q1013 NOSIG=
201905151830 METAR LRBS 151830Z 06002KT 9999 BKN018 16/14 Q1013 NOSIG=
201905151900 METAR LRBS 151900Z 06003KT 9999 BKN019 16/14 Q1013 NOSIG=
201905151930 METAR LRBS 151930Z 07004KT 9999 BKN019 16/14 Q1013 NOSIG=
201905152000 METAR LRBS 152000Z 06004KT 9999 BKN016 16/14 Q1013 NOSIG=
201905152030 METAR LRBS 152030Z 06007KT 9999 SCT015 15/14 Q1013 NOSIG=
201905152100 METAR LRBS 152100Z 04004KT CAVOK 15/13 Q1013 NOSIG=
201905152130 METAR LRBS 152130Z 05005KT CAVOK 14/13 Q1013 NOSIG=
201905152200 METAR LRBS 152200Z 04004KT CAVOK 14/13 Q1013 NOSIG=
201905152230 METAR LRBS 152230Z 01003KT 330V080 CAVOK 14/13 Q1013 NOSIG=
201905152300 METAR LRBS 152300Z 04006KT 9999 FEW017 BKN022 14/13 Q1013
                        NOSIG=
201905152330 METAR LRBS 152330Z 04004KT 010V070 9999 SCT008 SCT015 14/13
                        Q1013 NOSIG=
201905160000 METAR LRBS 160000Z 05006KT 010V070 9999 BKN009 14/13 Q1012
                        NOSIG=
201905160030 METAR LRBS 160030Z 05005KT 9999 BKN008 14/13 Q1012 NOSIG=
201905160100 METAR LRBS 160100Z 05006KT 010V070 9999 BKN009 14/13 Q1012
                        NOSIG=
201905160130 METAR LRBS 160130Z 05005KT 9999 BKN009 14/13 Q1012 NOSIG=
201905160200 METAR LRBS 160200Z 06006KT 9999 -RA BKN010 14/13 Q1012 BECMG
                        5000 RA=
201905160230 METAR LRBS 160230Z 05007KT 9999 -RA BKN010 14/13 Q1012 BECMG
                        5000 RA=
201905160300 METAR LRBS 160300Z 06006KT 9999 -RA BKN010 13/13 Q1012 BECMG
                        5000 RA=
201905160330 METAR LRBS 160330Z 07007KT 8000 -RA BKN014 13/13 Q1012 BECMG
                        5000 RA=
201905160400 METAR LRBS 160400Z 06007KT 9999 -RA OVC016 13/13 Q1012 NOSIG=
201905160430 METAR COR LRBS 160430Z 07007KT 9000 -RA OVC017 13/13 Q1012
                        R07/29//95 NOSIG=
201905160500 METAR LRBS 160500Z 07006KT 9000 -RA SCT019 13/13 Q1012 R07/29//95
                        NOSIG=
201905160530 METAR LRBS 160530Z 06007KT 9999 -RA FEW018 13/13 Q1012 R07/29//95
                        NOSIG=
201905160600 METAR LRBS 160600Z 07006KT 9999 -RA FEW019 14/13 Q1012 R07/29//95
                        NOSIG=
201905160630 METAR LRBS 160630Z 07010KT 9999 FEW007 FEW050CB 14/13 Q1012
                        R07/29//95 NOSIG=
201905160700 METAR LRBS 160700Z 07012KT 9999 FEW007 14/13 Q1012 R07/29//95
                        NOSIG=
201905160730 METAR LRBS 160730Z 06009KT 9999 BKN034 15/13 Q1012 R07/29//95
                        NOSIG=
201905160800 METAR LRBS 160800Z 07012KT 9999 FEW010 SCT030 16/13 Q1012
                        R07/29//95 NOSIG=
201905160830 METAR LRBS 160830Z 06012KT 9999 FEW012 SCT047 15/12 Q1012
                        R07/29//95 NOSIG=
201905160900 METAR LRBS 160900Z 06011KT 9999 BKN046 15/13 Q1012 R07/29//95
                        NOSIG=
201905160930 METAR LRBS 160930Z 06010KT 360V080 9999 SCT014 16/13 Q1012
                        R07/29//95 NOSIG=
201905161000 METAR LRBS 161000Z 06011KT 9999 SCT015 BKN028 18/13 Q1012
                        R07/29//95 NOSIG=
201905161030 METAR LRBS 161030Z 06008KT 010V100 9999 BKN018 BKN029 18/14
                        Q1012 R07/29//95 NOSIG=
201905161100 METAR LRBS 161100Z 06008KT 9999 SCT017 BKN022 18/14 Q1012
                        R07/29//95 NOSIG=
201905161130 METAR LRBS 161130Z 06007KT 9999 BKN022 18/14 Q1011 R07/29//95
                        NOSIG=
201905161200 METAR LRBS 161200Z 08006KT 060V120 9999 FEW022 BKN028 19/14
                        Q1011 R07/29//95 NOSIG=
201905161230 METAR LRBS 161230Z 06007KT 020V090 9999 BKN031 19/13 Q1011
                        R07/29//95 NOSIG=
201905161300 METAR LRBS 161300Z 06007KT 020V090 9999 BKN026 19/14 Q1011
                        R07/29//95 NOSIG=
201905161330 METAR LRBS 161330Z 05007KT 9999 FEW025 BKN032 20/14 Q1011
                        R07/CLRD// NOSIG=
201905161400 METAR COR LRBS 161400Z 08009KT 9999 SCT025 BKN032 19/14 Q1011
                        NOSIG=
201905161430 METAR LRBS 161430Z 06008KT 9999 SCT026 BKN028 20/15 Q1011
                        NOSIG=
201905161500 METAR LRBS 161500Z 06009KT 9999 BKN028 19/14 Q1011 NOSIG=
201905161530 METAR LRBS 161530Z 07008KT 9999 BKN036 19/14 Q1011 NOSIG=
201905161600 METAR LRBS 161600Z 05007KT 9999 SCT037 FEW045CB 18/14 Q1010
                        TEMPO 5000 -SHRA=
201905161630 METAR LRBS 161630Z 07004KT 9999 -TSRA FEW028 BKN039CB 18/14
                        Q1011 TEMPO 5000 -TSRA=
201905161700 METAR LRBS 161700Z 05007KT 8000 -TSRA FEW025 BKN043CB 17/16
                        Q1011 RESHRA R07/29//95 BECMG NSW=
201905161730 METAR LRBS 161730Z 07007KT 4000 SHRA OVC049CB 16/16 Q1011
                        RETS R07/29//95 NOSIG=
201905161800 METAR LRBS 161800Z 33003KT 290V010 9000 -SHRA SCT050CB 16/16
                        Q1011 RESHRA R07/29//95 BECMG NSC=
201905161830 METAR LRBS 161830Z VRB01KT 8000 -RA NSC 16/16 Q1012 R07/29//95
                        NOSIG=
201905161900 METAR LRBS 161900Z 33004KT 9000 -TSRA FEW050CB 16/15 Q1012
                        R07/29//95 NOSIG=
201905161930 METAR LRBS 161930Z VRB02KT 9000 -SHRA FEW050CB 15/15 Q1012
                        RETS R07/29//95 BECMG NSC=
201905162000 METAR LRBS 162000Z 05008KT 9000 -SHRA FEW050CB 15/15 Q1011
                        RETS R07/29//95 BECMG NSC=
201905162030 METAR LRBS 162030Z 03004KT 9000 NSC 15/15 Q1012 R07/29//95
                        NOSIG=
201905162100 METAR LRBS 162100Z 05004KT CAVOK 15/14 Q1011 R07/29//95 NOSIG=
201905162130 METAR LRBS 162130Z 00000KT 9999 FEW035 15/14 Q1012 R07/29//95
                        NOSIG=
201905162200 METAR LRBS 162200Z 00000KT 9000 BKN036 15/15 Q1012 R07/29//95
                        TEMPO 5000 BR=
201905162230 METAR LRBS 162230Z 27003KT 8000 SCT035 SCT044 15/14 Q1012
                        R07/29//95 TEMPO 5000 BR=
201905162300 METAR LRBS 162300Z 30004KT 280V340 9000 FEW048 15/14 Q1012
                        R07/29//95 TEMPO 5000 BR=
201905162330 METAR COR LRBS 162330Z 31003KT 9000 BR BKN059 14/14 Q1011
                        R07/29//95 TEMPO 5000 BR=
201905170000 METAR COR LRBS 170000Z 32003KT 9000 FEW049 14/13 Q1011 R07/29//95
                        TEMPO 5000 BR=
201905170030 METAR LRBS 170030Z VRB01KT 8000 NSC 13/13 Q1011 R07/29//95
                        TEMPO 5000 BR=
201905170100 METAR LRBS 170100Z 00000KT 9000 NSC 13/13 Q1011 R07/29//95
                        TEMPO 5000 BR=
201905170130 METAR LRBS 170130Z AUTO 07002KT 7000 BR FEW074/// 13/12 Q1011
                        TEMPO 5000 BR=
201905170200 METAR LRBS 170200Z 00000KT 6000 R07/0550U R25/1600VP2000D
                        MIFG NSC 13/12 Q1011 R07/29//95 TEMPO
                        5000 BR=
201905170230 METAR LRBS 170230Z VRB01KT 7000 MIFG NSC 13/12 Q1011 R07/29//95
                        TEMPO 3000 BR=
201905170300 METAR LRBS 170300Z 25003KT 6000 MIFG NSC 13/12 Q1011 R07/29//95
                        TEMPO 3000 BR=
201905170330 METAR LRBS 170330Z 24004KT 5000 MIFG BR NSC 13/12 Q1012 R07/29//95
                        NOSIG=
201905170400 METAR LRBS 170400Z 00000KT 7000 MIFG NSC 13/13 Q1012 R07/29//95
                        NOSIG=
201905170430 METAR LRBS 170430Z VRB01KT 7000 NSC 14/13 Q1012 R07/29//95
                        NOSIG=
201905170500 METAR LRBS 170500Z VRB02KT 9999 BKN027 15/14 Q1012 R07/29//95
                        NOSIG=
201905170530 METAR LRBS 170530Z VRB02KT 9999 FEW028 16/14 Q1012 R07/29//95
                        NOSIG=
201905170600 METAR COR LRBS 170600Z 04003KT 360V090 CAVOK 18/14 Q1012
                        R07/19//95 NOSIG=
201905170630 METAR LRBS 170630Z 06003KT 030V100 CAVOK 19/14 Q1012 R07/19//95
                        NOSIG=
201905170700 METAR LRBS 170700Z 04003KT 9999 FEW019 19/14 Q1012 R07/19//95
                        NOSIG=
201905170730 METAR LRBS 170730Z 01004KT 300V070 9999 SCT020 19/14 Q1012
                        R07/19//95 NOSIG=
201905170800 METAR LRBS 170800Z VRB04KT 9999 BKN020 20/14 Q1012 R07/19//95
                        NOSIG=
201905170830 METAR LRBS 170830Z VRB02KT 9999 BKN022 20/15 Q1012 R07/19//95
                        NOSIG=
201905170900 METAR LRBS 170900Z 10003KT 020V140 9999 BKN026 21/15 Q1012
                        R07/CLRD// NOSIG=
201905170930 METAR LRBS 170930Z 07006KT 9999 BKN026 21/15 Q1012 NOSIG=
201905171000 METAR LRBS 171000Z 07004KT 020V150 9999 BKN027 22/16 Q1012
                        NOSIG=
201905171030 METAR LRBS 171030Z VRB02KT 9999 BKN031 22/14 Q1012 TEMPO
                        VRB15G25KT 5000 -TSRA BKN030CB=
201905171100 METAR LRBS 171100Z 12005KT 080V150 9999 VCTS SCT030 SCT040CB
                        21/15 Q1012 TEMPO VRB15G25KT 5000
                        -TSRA SCT010 BKN035CB=
201905171130 METAR LRBS 171130Z 17014KT 3500 TSRA FEW010 SCT025 BKN030CB
                        18/16 Q1013 R07/29//95 NOSIG=
201905171200 METAR LRBS 171200Z 18005KT 140V210 7000 -SHRA VCTS SCT008
                        FEW035CB 18/16 Q1013 RETS R07/29//95
                        NOSIG=
201905171230 METAR LRBS 171230Z VRB01KT 7000 -SHRA FEW007 FEW035CB 17/16
                        Q1013 R07/29//95 NOSIG=
201905171300 METAR LRBS 171300Z VRB01KT 8000 -SHRA FEW035CB 18/17 Q1013
                        R07/29//95 NOSIG=
201905171330 METAR LRBS 171330Z 32004KT 290V360 7000 -SHRA FEW040CB 18/16
                        Q1012 R07/29//95 NOSIG=
201905171400 METAR LRBS 171400Z 03005KT 360V060 6000 -SHRA FEW040CB 18/17
                        Q1012 R07/29//95 NOSIG=
201905171430 METAR LRBS 171430Z 35007KT 320V020 7000 -SHRA FEW040CB 18/17
                        Q1011 R07/29//95 NOSIG=
201905171500 METAR LRBS 171500Z 04003KT 340V080 9999 FEW040CB 17/16 Q1011
                        R07/29//95 NOSIG=
201905171530 METAR LRBS 171530Z 07007KT 9999 FEW015 17/15 Q1011 R07/29//95
                        NOSIG=
201905171600 METAR LRBS 171600Z VRB01KT 9999 FEW045CB 17/15 Q1011 R07/29//95
                        NOSIG=
201905171630 METAR LRBS 171630Z 32003KT 290V020 9999 FEW050CB 17/15 Q1011
                        R07/29//95 NOSIG=
201905171700 METAR LRBS 171700Z VRB01KT CAVOK 17/15 Q1011 R07/29//95 NOSIG=
201905171730 METAR LRBS 171730Z 34002KT CAVOK 17/15 Q1011 R07/29//95 NOSIG=
201905171800 METAR LRBS 171800Z VRB01KT CAVOK 16/15 Q1011 R07/29//95 NOSIG=
201905171830 METAR LRBS 171830Z VRB02KT CAVOK 16/15 Q1011 R07/29//95 NOSIG=
201905171900 METAR LRBS 171900Z VRB02KT CAVOK 16/15 Q1011 R07/29//95 NOSIG=
201905171930 METAR LRBS 171930Z 26002KT CAVOK 16/14 Q1011 R07/29//95 NOSIG=
201905172000 METAR LRBS 172000Z 27004KT CAVOK 15/14 Q1011 R07/29//95 NOSIG=
201905172030 METAR LRBS 172030Z 27004KT CAVOK 15/14 Q1010 R07/29//95 NOSIG=
201905172100 METAR LRBS 172100Z 29004KT CAVOK 15/14 Q1010 R07/29//95 NOSIG=
201905172130 METAR LRBS 172130Z 25004KT 230V290 CAVOK 15/13 Q1010 R07/29//95
                        NOSIG=
201905172200 METAR LRBS 172200Z 29003KT 240V320 CAVOK 14/13 Q1010 R07/29//95
                        NOSIG=
201905172230 METAR LRBS 172230Z 26004KT CAVOK 14/13 Q1010 R07/29//95 NOSIG=
201905172300 METAR COR LRBS 172300Z 24004KT CAVOK 15/14 Q1010 R07/29//95
                        TEMPO 5000 -SHRA SCT040CB=
201905172330 METAR LRBS 172330Z 24004KT CAVOK 15/14 Q1010 R07/29//95 TEMPO
                        5000 -SHRA SCT040CB=
201905180000 METAR LRBS 180000Z 25004KT CAVOK 15/14 Q1010 R07/29//95 TEMPO
                        5000 -SHRA SCT040CB=
201905180030 METAR LRBS 180030Z 27007KT CAVOK 15/14 Q1010 R07/29//95 TEMPO
                        5000 -SHRA SCT040CB=
201905180100 METAR LRBS 180100Z 05002KT CAVOK 14/13 Q1010 R07/29//95 NOSIG=
201905180130 METAR LRBS 180130Z VRB01KT CAVOK 14/13 Q1009 R07/29//95 NOSIG=
201905180200 METAR LRBS 180200Z 26004KT CAVOK 14/13 Q1009 R07/29//95 NOSIG=
201905180230 METAR LRBS 180230Z 26005KT CAVOK 14/13 Q1009 R07/29//95 NOSIG=
201905180300 METAR LRBS 180300Z 27003KT CAVOK 14/13 Q1009 R07/29//95 NOSIG=
201905180330 METAR LRBS 180330Z 29003KT CAVOK 14/13 Q1009 R07/29//95 NOSIG=
201905180400 METAR LRBS 180400Z 24005KT CAVOK 15/13 Q1009 R07/29//95 TEMPO
                        5000 -SHRA SCT025CB=
201905180430 METAR COR LRBS 180430Z VRB02KT 9999 -SHRA FEW050CB 15/13
                        Q1009 R07/29//95 TEMPO 5000 -SHRA
                        SCT025CB=
201905180500 METAR LRBS 180500Z 25003KT 9999 FEW050CB 15/13 Q1009 R07/29//95
                        TEMPO 5000 -SHRA SCT025CB=
201905180530 METAR LRBS 180530Z AUTO 25004KT 220V280 9999 BKN110/// 17/14
                        Q1009 TEMPO 5000 -SHRA SCT025CB=
201905180600 METAR COR LRBS 180600Z VRB02KT 9999 FEW050CB 17/14 Q1010
                        R07/29//95 TEMPO 5000 -SHRA=
201905180630 METAR LRBS 180630Z VRB02KT 9999 FEW050CB 17/14 Q1010 R07/29//95
                        TEMPO 5000 -SHRA=
201905180700 METAR LRBS 180700Z VRB02KT 9999 FEW050CB 18/15 Q1010 R07/29//95
                        TEMPO 5000 -SHRA=
201905180730 METAR LRBS 180730Z VRB01KT 9999 FEW050CB 20/15 Q1010 R07/29//95
                        TEMPO 5000 -SHRA=
201905180800 METAR COR LRBS 180800Z 06008KT 010V090 9999 FEW050CB 18/15
                        Q1011 R07/29//95 NOSIG=
201905180830 METAR LRBS 180830Z 03004KT 330V100 9999 FEW015 FEW050CB 18/15
                        Q1010 R07/29//95 NOSIG=
201905180900 METAR LRBS 180900Z VRB01KT CAVOK 19/14 Q1010 R07/29//95 NOSIG=
201905180930 METAR LRBS 180930Z 29004KT 230V320 CAVOK 20/15 Q1009 R07/29//95
                        NOSIG=
201905181000 METAR LRBS 181000Z 29004KT 260V340 CAVOK 21/15 Q1009 R07/29//95
                        NOSIG=
201905181030 METAR LRBS 181030Z 33003KT CAVOK 21/15 Q1009 R07/29//95 NOSIG=
201905181100 METAR LRBS 181100Z 32005KT 270V010 CAVOK 23/16 Q1009 R07/29//95
                        NOSIG=
201905181130 METAR LRBS 181130Z 33005KT 300V360 CAVOK 23/15 Q1009 R07/29//95
                        NOSIG=
201905181200 METAR LRBS 181200Z 31004KT 260V360 CAVOK 24/16 Q1008 R07/29//95
                        NOSIG=
201905181230 METAR LRBS 181230Z 30005KT 230V010 CAVOK 25/15 Q1008 R07/29//95
                        NOSIG=
201905181300 METAR LRBS 181300Z 30005KT 260V340 CAVOK 25/14 Q1008 R07/29//95
                        NOSIG=
201905181330 METAR LRBS 181330Z 27005KT 220V320 CAVOK 25/15 Q1007 R07/29//95
                        NOSIG=
201905181400 METAR LRBS 181400Z 24007KT CAVOK 25/13 Q1007 R07/29//95 NOSIG=
201905181430 METAR LRBS 181430Z 27008KT CAVOK 25/15 Q1007 R07/29//95 NOSIG=
201905181500 METAR LRBS 181500Z 24007KT 9999 FEW045 25/15 Q1007 R07/29//95
                        NOSIG=
201905181530 METAR COR LRBS 181530Z 25007KT 9999 FEW046 25/15 Q1007 R07/CLRD//
                        NOSIG=
201905181600 METAR LRBS 181600Z 25007KT 9999 FEW046 25/15 Q1007 R07/CLRD//
                        NOSIG=
201905181630 METAR LRBS 181630Z 23007KT CAVOK 25/15 Q1007 NOSIG=
201905181700 METAR LRBS 181700Z 24006KT 210V270 CAVOK 24/15 Q1007 NOSIG=
201905181730 METAR LRBS 181730Z 23006KT CAVOK 23/16 Q1007 NOSIG=
201905181800 METAR LRBS 181800Z 23003KT CAVOK 22/16 Q1007 NOSIG=
201905181830 METAR LRBS 181830Z 24003KT CAVOK 21/16 Q1008 NOSIG=
201905181900 METAR LRBS 181900Z 25002KT CAVOK 20/16 Q1008 NOSIG=
201905181930 METAR LRBS 181930Z 24004KT CAVOK 20/16 Q1008 NOSIG=
201905182000 METAR LRBS 182000Z 23004KT CAVOK 19/16 Q1008 NOSIG=
201905182030 METAR LRBS 182030Z 23004KT CAVOK 19/16 Q1008 NOSIG=
201905182100 METAR LRBS 182100Z 23002KT CAVOK 19/15 Q1008 NOSIG=
201905182130 METAR LRBS 182130Z 23004KT CAVOK 18/15 Q1008 NOSIG=
201905182200 METAR LRBS 182200Z 25003KT 9000 MIFG NSC 18/15 Q1008 BECMG
                        5000 BR=
201905182230 METAR LRBS 182230Z 00000KT CAVOK 17/15 Q1008 NOSIG=
201905182300 METAR LRBS 182300Z 36003KT 320V020 9000 NSC 16/14 Q1008 NOSIG=
201905182330 METAR LRBS 182330Z VRB01KT 8000 NSC 16/14 Q1008 BECMG 5000
                        BR=
201905190000 METAR LRBS 190000Z VRB01KT 8000 MIFG NSC 14/13 Q1008 BECMG
                        5000 BR=
201905190030 METAR COR LRBS 190030Z 00000KT 8000 MIFG NSC 14/14 Q1008
                        BECMG 5000 BR=
201905190100 METAR LRBS 190100Z 22003KT 7000 MIFG NSC 15/14 Q1008 TEMPO
                        3000 BR=
201905190130 METAR LRBS 190130Z 25003KT 6000 MIFG NSC 15/14 Q1008 TEMPO
                        3000 BR=
201905190200 METAR LRBS 190200Z 06004KT 5000 BCFG BR NSC 13/13 Q1008 TEMPO
                        3000 BR=
201905190230 METAR COR LRBS 190230Z 00000KT 4000 0800E BCFG BR NSC 13/13
                        Q1008 TEMPO 3000 BR=
201905190300 METAR LRBS 190300Z 31001KT 4000 0700E BCFG BR NSC 13/13 Q1009
                        NOSIG=
201905190330 METAR LRBS 190330Z 31001KT 4000 BCFG BR NSC 14/13 Q1009 NOSIG=
201905190400 METAR LRBS 190400Z 00000KT 5000 MIFG BR NSC 15/14 Q1009 BECMG
                        9999 NSW=
201905190430 METAR COR LRBS 190430Z VRB01KT 8000 NSC 17/15 Q1009 NOSIG=
201905190500 METAR LRBS 190500Z VRB01KT CAVOK 18/16 Q1009 NOSIG=
201905190530 METAR LRBS 190530Z 07002KT CAVOK 19/16 Q1009 NOSIG=
201905190600 METAR LRBS 190600Z 12003KT 080V150 CAVOK 21/17 Q1010 NOSIG=
201905190630 METAR LRBS 190630Z 11004KT 080V140 CAVOK 22/16 Q1009 NOSIG=
201905190700 METAR LRBS 190700Z 14004KT 100V180 CAVOK 22/16 Q1010 NOSIG=
201905190730 METAR LRBS 190730Z 13005KT 090V180 CAVOK 23/16 Q1010 NOSIG=
201905190800 METAR LRBS 190800Z 11005KT 080V150 CAVOK 23/17 Q1010 NOSIG=
201905190830 METAR LRBS 190830Z 09005KT 050V130 CAVOK 24/17 Q1009 NOSIG=
201905190900 METAR LRBS 190900Z 11005KT 060V140 CAVOK 24/16 Q1009 NOSIG=
201905190930 METAR LRBS 190930Z 14004KT 050V210 CAVOK 25/16 Q1009 NOSIG=
201905191000 METAR LRBS 191000Z 11005KT 070V200 CAVOK 26/16 Q1009 NOSIG=
201905191030 METAR LRBS 191030Z VRB04KT CAVOK 26/17 Q1009 NOSIG=
201905191100 METAR LRBS 191100Z 08007KT 050V110 9999 FEW043 26/16 Q1009
                        NOSIG=
201905191130 METAR LRBS 191130Z 11005KT 060V150 9999 FEW040 26/16 Q1009
                        NOSIG=
201905191200 METAR LRBS 191200Z 11006KT 080V140 9999 FEW047 27/16 Q1009
                        NOSIG=
201905191230 METAR LRBS 191230Z 09007KT 050V130 CAVOK 27/17 Q1009 NOSIG=
201905191300 METAR COR LRBS 191300Z 11007KT 070V140 9999 FEW040 27/15
                        Q1009 NOSIG=
201905191330 METAR LRBS 191330Z 09007KT 050V140 CAVOK 27/15 Q1009 NOSIG=
201905191400 METAR LRBS 191400Z 10006KT CAVOK 27/15 Q1008 NOSIG=
201905191430 METAR LRBS 191430Z 10007KT 060V140 CAVOK 27/16 Q1008 NOSIG=
201905191500 METAR LRBS 191500Z 12006KT CAVOK 26/15 Q1008 NOSIG=
201905191530 METAR LRBS 191530Z 11006KT 090V150 CAVOK 26/16 Q1008 NOSIG=
201905191600 METAR LRBS 191600Z 10008KT 070V130 CAVOK 26/15 Q1008 NOSIG=
201905191630 METAR LRBS 191630Z 09006KT CAVOK 25/16 Q1008 NOSIG=
201905191700 METAR LRBS 191700Z 08005KT CAVOK 24/16 Q1008 NOSIG=
201905191730 METAR LRBS 191730Z 06006KT CAVOK 21/17 Q1007 NOSIG=
201905191800 METAR LRBS 191800Z 06006KT CAVOK 20/16 Q1007 NOSIG=
201905191830 METAR LRBS 191830Z 06005KT CAVOK 20/14 Q1007 NOSIG=
201905191900 METAR LRBS 191900Z 07003KT CAVOK 20/14 Q1008 NOSIG=
201905191930 METAR LRBS 191930Z 06004KT CAVOK 19/15 Q1008 NOSIG=
201905192000 METAR LRBS 192000Z 06005KT CAVOK 18/15 Q1008 NOSIG=
201905192030 METAR LRBS 192030Z 08006KT CAVOK 19/15 Q1007 NOSIG=
201905192100 METAR LRBS 192100Z 07006KT CAVOK 18/15 Q1007 NOSIG=
201905192130 METAR LRBS 192130Z 07006KT CAVOK 18/15 Q1007 NOSIG=
201905192200 METAR LRBS 192200Z 06004KT CAVOK 18/15 Q1007 NOSIG=
201905192230 METAR LRBS 192230Z 06003KT CAVOK 17/15 Q1007 NOSIG=
201905192300 METAR LRBS 192300Z 06006KT CAVOK 18/16 Q1007 TEMPO SCT045CB=
201905192330 METAR LRBS 192330Z 08007KT CAVOK 19/16 Q1006 NOSIG=
201905200000 METAR LRBS 200000Z 09008KT CAVOK 19/16 Q1006 NOSIG=
201905200030 METAR LRBS 200030Z 09003KT CAVOK 19/16 Q1006 NOSIG=
201905200100 METAR LRBS 200100Z VRB02KT CAVOK 18/15 Q1006 NOSIG=
201905200130 METAR LRBS 200130Z 08003KT CAVOK 17/14 Q1006 NOSIG=
201905200200 METAR LRBS 200200Z 06004KT CAVOK 16/15 Q1006 NOSIG=
201905200230 METAR LRBS 200230Z 04004KT CAVOK 16/14 Q1007 NOSIG=
201905200300 METAR LRBS 200300Z 06005KT CAVOK 15/14 Q1007 NOSIG=
201905200330 METAR COR LRBS 200330Z 05004KT CAVOK 15/14 Q1007 NOSIG=
201905200400 METAR LRBS 200400Z 08004KT CAVOK 17/15 Q1007 NOSIG=
201905200430 METAR LRBS 200430Z 11004KT CAVOK 21/13 Q1007 NOSIG=
201905200500 METAR LRBS 200500Z 12005KT 100V160 CAVOK 21/13 Q1007 NOSIG=
201905200530 METAR LRBS 200530Z 12006KT 080V150 CAVOK 22/13 Q1007 NOSIG=
201905200600 METAR LRBS 200600Z 10008KT CAVOK 23/13 Q1007 NOSIG=
201905200630 METAR LRBS 200630Z 12006KT 090V150 CAVOK 23/13 Q1007 NOSIG=
201905200700 METAR LRBS 200700Z 13006KT 090V150 CAVOK 23/12 Q1007 NOSIG=
201905200730 METAR LRBS 200730Z 11007KT CAVOK 24/13 Q1007 NOSIG=
201905200800 METAR LRBS 200800Z 14008KT 080V160 CAVOK 24/13 Q1007 NOSIG=
201905200830 METAR LRBS 200830Z 14008KT 090V180 CAVOK 25/14 Q1007 NOSIG=
201905200900 METAR LRBS 200900Z 15008KT 110V180 CAVOK 25/13 Q1007 NOSIG=
201905200930 METAR LRBS 200930Z 12006KT 060V160 CAVOK 25/14 Q1007 NOSIG=
201905201000 METAR LRBS 201000Z 12006KT 070V180 CAVOK 26/13 Q1007 NOSIG=
201905201030 METAR LRBS 201030Z 15007KT 110V180 CAVOK 26/15 Q1007 NOSIG=
201905201100 METAR LRBS 201100Z 12008KT 070V180 CAVOK 27/14 Q1007 NOSIG=
201905201130 METAR LRBS 201130Z 10010KT CAVOK 27/13 Q1007 NOSIG=
201905201200 METAR LRBS 201200Z 14009KT 110V170 9999 SCT061 26/12 Q1007
                        NOSIG=
201905201230 METAR LRBS 201230Z 18007KT 150V210 CAVOK 27/13 Q1006 NOSIG=
201905201300 METAR LRBS 201300Z 18006KT CAVOK 27/13 Q1006 NOSIG=
201905201330 METAR LRBS 201330Z 15007KT 110V200 CAVOK 26/14 Q1006 NOSIG=
201905201400 METAR LRBS 201400Z 16005KT 110V200 9999 FEW050CB 26/13 Q1005
                        NOSIG=
201905201430 METAR LRBS 201430Z 14005KT 100V180 9999 FEW045CB 25/12 Q1005
                        NOSIG=
201905201500 METAR LRBS 201500Z 17004KT 140V200 9999 SCT045CB 25/13 Q1005
                        TEMPO VRB20G30KT 5000 TSRA BKN035CB=
201905201530 METAR LRBS 201530Z VRB01KT 9999 SCT040CB 25/14 Q1005 TEMPO
                        VRB25G35KT 3000 TSRA SQ BKN035CB=
201905201600 METAR LRBS 201600Z 29004G29KT 9999 -TSRA FEW020 BKN040CB
                        21/15 Q1006 TEMPO VRB25G35KT 3000
                        TSRA SQ BKN035CB=
201905201630 METAR LRBS 201630Z 22014KT 180V260 5000 TSRA SCT015 OVC040CB
                        16/14 Q1008 TEMPO 3000 TSRA=
201905201700 METAR LRBS 201700Z 28011KT 240V320 9000 -TSRA FEW017 BKN050CB
                        15/14 Q1008 RESHRA R07/29//95 NOSIG=
201905201730 METAR LRBS 201730Z 30011G21KT 280V360 9999 TS BKN050CB 15/13
                        Q1008 R07/29//95 BECMG NSW=
201905201800 METAR COR LRBS 201800Z 28007KT 250V330 9999 FEW030 SCT050CB
                        15/14 Q1008 RETS R07/29//95 NOSIG=
201905201830 METAR LRBS 201830Z 29005KT 260V320 9999 SCT050CB 16/13 Q1008
                        R07/29//95 NOSIG=
201905201900 METAR LRBS 201900Z 28004KT 240V350 9999 FEW050CB 16/14 Q1008
                        R07/29//95 BECMG NSC=
201905201930 METAR LRBS 201930Z 26005KT CAVOK 16/14 Q1009 R07/29//95 NOSIG=
201905202000 METAR LRBS 202000Z 24003KT CAVOK 16/14 Q1009 R07/29//95 NOSIG=
201905202030 METAR LRBS 202030Z 23005KT CAVOK 16/14 Q1009 R07/29//95 NOSIG=
201905202100 METAR LRBS 202100Z 23007KT CAVOK 16/14 Q1009 R07/29//95 NOSIG=
201905202130 METAR LRBS 202130Z 23007KT CAVOK 15/14 Q1010 R07/29//95 NOSIG=
201905202200 METAR LRBS 202200Z 23007KT CAVOK 15/14 Q1010 R07/29//95 NOSIG=
201905202230 METAR LRBS 202230Z 24006KT CAVOK 15/14 Q1010 R07/29//95 NOSIG=
201905202300 METAR LRBS 202300Z AUTO 25006KT 9999 NCD 15/14 Q1010 NOSIG=
201905202330 METAR LRBS 202330Z 25006KT CAVOK 15/13 Q1010 R07/29//95 NOSIG=
201905210000 METAR LRBS 210000Z 27003KT CAVOK 14/13 Q1010 R07/29//95 NOSIG=
201905210030 METAR LRBS 210030Z 24005KT CAVOK 14/13 Q1010 R07/29//95 NOSIG=
201905210100 METAR LRBS 210100Z 24005KT CAVOK 14/13 Q1010 R07/29//95 NOSIG=
201905210130 METAR LRBS 210130Z 26004KT CAVOK 14/13 Q1010 R07/29//95 NOSIG=
201905210200 METAR LRBS 210200Z 24004KT CAVOK 14/13 Q1010 R07/29//95 NOSIG=
201905210230 METAR LRBS 210230Z 25006KT CAVOK 14/13 Q1010 R07/29//95 NOSIG=
201905210300 METAR LRBS 210300Z 25006KT CAVOK 14/13 Q1010 R07/29//95 NOSIG=
201905210330 METAR LRBS 210330Z 24005KT CAVOK 14/12 Q1010 R07/29//95 NOSIG=
201905210400 METAR LRBS 210400Z 27004KT CAVOK 15/12 Q1010 R07/29//95 NOSIG=
201905210430 METAR LRBS 210430Z 26008KT CAVOK 15/12 Q1011 R07/29//95 NOSIG=
201905210500 METAR LRBS 210500Z 27006KT CAVOK 16/12 Q1011 R07/29//95 NOSIG=
201905210530 METAR LRBS 210530Z 27006KT CAVOK 17/12 Q1011 R07/CLRD// NOSIG=
201905210600 METAR LRBS 210600Z 28006KT CAVOK 17/12 Q1011 NOSIG=
201905210630 METAR LRBS 210630Z 27006KT 240V310 CAVOK 18/12 Q1011 NOSIG=
201905210700 METAR LRBS 210700Z 26006KT 230V310 CAVOK 19/12 Q1011 NOSIG=
201905210730 METAR LRBS 210730Z 27007KT 240V310 9999 FEW025 19/13 Q1012
                        NOSIG=
201905210800 METAR LRBS 210800Z 27008KT 250V310 9999 FEW030 20/12 Q1012
                        NOSIG=
201905210830 METAR LRBS 210830Z 28007KT 260V320 9999 SCT033 20/11 Q1012
                        NOSIG=
201905210900 METAR LRBS 210900Z 24007KT 210V270 9999 FEW034 SCT039 21/11
                        Q1012 NOSIG=
201905210930 METAR LRBS 210930Z 25009KT 220V330 9999 SCT041 22/11 Q1012
                        NOSIG=
201905211000 METAR LRBS 211000Z 27009KT 9999 SCT045 21/10 Q1011 NOSIG=
201905211030 METAR LRBS 211030Z 26011KT 220V280 9999 SCT048 21/10 Q1012
                        NOSIG=
201905211100 METAR LRBS 211100Z 24011KT 210V270 9999 SCT048 22/10 Q1012
                        NOSIG=
201905211130 METAR LRBS 211130Z 23010KT 200V260 9999 SCT049 22/11 Q1012
                        NOSIG=
201905211200 METAR LRBS 211200Z 25011KT 9999 SCT049 22/10 Q1011 NOSIG=
201905211230 METAR LRBS 211230Z 26013KT 9999 SCT049 22/11 Q1011 NOSIG=
201905211300 METAR LRBS 211300Z 25010KT 220V290 CAVOK 23/10 Q1011 NOSIG=
201905211330 METAR LRBS 211330Z 26010KT CAVOK 23/11 Q1011 NOSIG=
201905211400 METAR LRBS 211400Z 27007KT 230V300 CAVOK 23/10 Q1011 NOSIG=
201905211430 METAR LRBS 211430Z 26010KT CAVOK 22/10 Q1011 NOSIG=
201905211500 METAR LRBS 211500Z 26009KT 240V300 CAVOK 23/09 Q1011 NOSIG=
201905211530 METAR LRBS 211530Z 30008KT 270V330 CAVOK 23/08 Q1010 NOSIG=
201905211600 METAR LRBS 211600Z 27008KT 240V320 CAVOK 23/08 Q1010 NOSIG=
201905211630 METAR LRBS 211630Z 27006KT CAVOK 23/09 Q1011 NOSIG=
201905211700 METAR LRBS 211700Z 26008KT CAVOK 22/08 Q1011 NOSIG=
201905211730 METAR COR LRBS 211730Z 27005KT CAVOK 21/09 Q1011 NOSIG=
201905211800 METAR LRBS 211800Z 26004KT CAVOK 20/09 Q1011 NOSIG=
201905211830 METAR LRBS 211830Z 25003KT CAVOK 20/10 Q1011 NOSIG=
201905211900 METAR LRBS 211900Z 26004KT CAVOK 19/10 Q1011 NOSIG=
201905211930 METAR LRBS 211930Z 26003KT CAVOK 19/10 Q1012 NOSIG=
201905212000 METAR LRBS 212000Z 26004KT CAVOK 19/10 Q1012 NOSIG=
201905212030 METAR LRBS 212030Z 27006KT CAVOK 18/10 Q1012 NOSIG=
201905212100 METAR LRBS 212100Z 27003KT CAVOK 17/10 Q1012 NOSIG=
201905212130 METAR COR LRBS 212130Z 27003KT CAVOK 16/11 Q1012 NOSIG=
201905212200 METAR COR LRBS 212200Z 27004KT CAVOK 16/11 Q1012 NOSIG=
201905212230 METAR LRBS 212230Z 28004KT CAVOK 15/11 Q1012 NOSIG=
201905212300 METAR LRBS 212300Z 29003KT CAVOK 15/11 Q1012 NOSIG=
201905212330 METAR LRBS 212330Z 28004KT CAVOK 14/11 Q1012 NOSIG=
201905220000 METAR LRBS 220000Z 28004KT 240V320 CAVOK 14/11 Q1012 NOSIG=
201905220030 METAR LRBS 220030Z 30004KT CAVOK 13/11 Q1012 NOSIG=
201905220100 METAR LRBS 220100Z 29003KT CAVOK 13/11 Q1012 NOSIG=
201905220130 METAR LRBS 220130Z 28003KT 260V320 CAVOK 13/11 Q1012 NOSIG=
201905220200 METAR LRBS 220200Z 29003KT 250V310 CAVOK 13/11 Q1012 NOSIG=
201905220230 METAR LRBS 220230Z VRB02KT CAVOK 13/11 Q1012 NOSIG=
201905220300 METAR LRBS 220300Z 00000KT CAVOK 12/11 Q1011 NOSIG=
201905220330 METAR LRBS 220330Z VRB02KT CAVOK 13/11 Q1012 NOSIG=
201905220400 METAR LRBS 220400Z 27002KT CAVOK 13/11 Q1012 NOSIG=
201905220430 METAR LRBS 220430Z 27004KT CAVOK 15/11 Q1012 NOSIG=
201905220500 METAR LRBS 220500Z 26007KT CAVOK 15/11 Q1012 NOSIG=
201905220530 METAR LRBS 220530Z 27006KT CAVOK 15/11 Q1013 NOSIG=
201905220600 METAR LRBS 220600Z 26006KT CAVOK 16/11 Q1012 NOSIG=
201905220630 METAR LRBS 220630Z 27005KT CAVOK 18/12 Q1012 NOSIG=
201905220700 METAR LRBS 220700Z 27006KT 230V320 CAVOK 19/12 Q1012 NOSIG=
201905220730 METAR LRBS 220730Z 27007KT 240V300 CAVOK 20/12 Q1012 NOSIG=
201905220800 METAR LRBS 220800Z 27009KT CAVOK 20/11 Q1012 NOSIG=
201905220830 METAR COR LRBS 220830Z 27008KT 240V320 CAVOK 21/12 Q1013
                        NOSIG=
201905220900 METAR COR LRBS 220900Z 27009KT 240V300 CAVOK 22/12 Q1012
                        NOSIG=
201905220930 METAR LRBS 220930Z 27011KT 240V310 CAVOK 22/11 Q1012 NOSIG=
201905221000 METAR LRBS 221000Z 28009KT 240V320 9999 SCT047 23/12 Q1012
                        NOSIG=
201905221030 METAR LRBS 221030Z 27011KT 240V300 9999 SCT047 23/12 Q1012
                        NOSIG=
201905221100 METAR COR LRBS 221100Z 26012KT 230V300 9999 FEW011 SCT048
                        23/12 Q1012 NOSIG=
201905221130 METAR LRBS 221130Z 26013KT 230V290 CAVOK 23/11 Q1012 NOSIG=
201905221200 METAR LRBS 221200Z 26012KT 220V290 CAVOK 23/11 Q1012 NOSIG=
201905221230 METAR LRBS 221230Z 26014KT CAVOK 23/10 Q1012 NOSIG=
201905221300 METAR LRBS 221300Z 26013KT CAVOK 24/11 Q1011 NOSIG=
201905221330 METAR LRBS 221330Z 27012KT 240V300 CAVOK 24/11 Q1011 NOSIG=
201905221400 METAR LRBS 221400Z 25013KT CAVOK 24/11 Q1011 NOSIG=
201905221430 METAR LRBS 221430Z 27012KT 250V310 CAVOK 24/11 Q1011 NOSIG=
201905221500 METAR LRBS 221500Z 26012KT 230V290 CAVOK 24/11 Q1011 NOSIG=
201905221530 METAR LRBS 221530Z 26010KT CAVOK 23/11 Q1011 NOSIG=
201905221600 METAR LRBS 221600Z 27008KT CAVOK 23/10 Q1011 NOSIG=
201905221630 METAR LRBS 221630Z 26011KT CAVOK 23/10 Q1010 NOSIG=
201905221700 METAR LRBS 221700Z 26008KT CAVOK 23/11 Q1010 NOSIG=
201905221730 METAR LRBS 221730Z 26007KT CAVOK 22/11 Q1011 NOSIG=
201905221800 METAR LRBS 221800Z 27004KT CAVOK 21/11 Q1011 NOSIG=
201905221830 METAR LRBS 221830Z 27004KT CAVOK 20/11 Q1011 NOSIG=
201905221900 METAR LRBS 221900Z 26005KT CAVOK 19/12 Q1011 NOSIG=
201905221930 METAR LRBS 221930Z 28003KT CAVOK 19/12 Q1011 NOSIG=
201905222000 METAR LRBS 222000Z 30003KT CAVOK 18/12 Q1011 NOSIG=
201905222030 METAR LRBS 222030Z 30003KT CAVOK 18/12 Q1011 NOSIG=
201905222100 METAR LRBS 222100Z 29004KT 250V320 CAVOK 18/11 Q1011 NOSIG=
201905222130 METAR LRBS 222130Z 29003KT 260V320 CAVOK 17/11 Q1011 NOSIG=
201905222200 METAR LRBS 222200Z 28003KT CAVOK 16/11 Q1011 NOSIG=
201905222230 METAR LRBS 222230Z 27005KT CAVOK 16/11 Q1011 NOSIG=
201905222300 METAR LRBS 222300Z 27004KT 230V300 CAVOK 16/11 Q1011 NOSIG=
201905222330 METAR LRBS 222330Z 29004KT CAVOK 15/11 Q1011 NOSIG=
201905230000 METAR LRBS 230000Z 28003KT CAVOK 15/11 Q1011 NOSIG=
201905230030 METAR LRBS 230030Z NIL=
201905230100 METAR LRBS 230100Z 28006KT CAVOK 15/11 Q1011 NOSIG=
201905230130 METAR LRBS 230130Z 28005KT CAVOK 14/11 Q1011 NOSIG=
201905230200 METAR LRBS 230200Z 27004KT CAVOK 14/11 Q1011 NOSIG=
201905230230 METAR LRBS 230230Z 28004KT CAVOK 14/11 Q1011 NOSIG=
201905230300 METAR LRBS 230300Z 26006KT CAVOK 14/12 Q1011 NOSIG=
201905230330 METAR LRBS 230330Z 27005KT CAVOK 14/12 Q1011 NOSIG=
201905230400 METAR LRBS 230400Z 27005KT 230V300 CAVOK 15/12 Q1011 NOSIG=
201905230430 METAR LRBS 230430Z 26007KT CAVOK 15/12 Q1011 NOSIG=
201905230500 METAR LRBS 230500Z 26009KT CAVOK 16/12 Q1011 NOSIG=
201905230530 METAR LRBS 230530Z 25008KT CAVOK 17/12 Q1011 NOSIG=
201905230600 METAR COR LRBS 230600Z 27009KT CAVOK 18/13 Q1011 NOSIG=
201905230630 METAR LRBS 230630Z 25009KT CAVOK 19/12 Q1011 NOSIG=
201905230700 METAR COR LRBS 230700Z 25010KT 220V280 CAVOK 20/13 Q1011
                        NOSIG=
201905230730 METAR LRBS 230730Z 26010KT 220V300 CAVOK 20/13 Q1011 NOSIG=
201905230800 METAR LRBS 230800Z 27011KT 240V300 CAVOK 21/13 Q1011 NOSIG=
201905230830 METAR LRBS 230830Z 26013KT CAVOK 21/13 Q1011 NOSIG=
201905230900 METAR LRBS 230900Z 26012KT 230V320 9999 FEW040 22/14 Q1011
                        NOSIG=
201905230930 METAR COR LRBS 230930Z 25012KT 220V280 9999 FEW035 23/14
                        Q1011 NOSIG=
201905231000 METAR LRBS 231000Z 26013KT 220V310 9999 FEW010 SCT036 22/13
                        Q1011 NOSIG=
201905231030 METAR LRBS 231030Z 26013KT 9999 SCT040 22/13 Q1011 NOSIG=
201905231100 METAR LRBS 231100Z 28010KT 240V330 9999 SCT041 23/12 Q1011
                        NOSIG=
201905231130 METAR LRBS 231130Z 27011KT 240V320 9999 SCT043 FEW048TCU
                        24/13 Q1010 NOSIG=
201905231200 METAR LRBS 231200Z 28009KT 240V360 9999 FEW040CB SCT047 24/14
                        Q1010 NOSIG=
201905231230 METAR LRBS 231230Z 27010KT 230V320 9999 SCT045 23/12 Q1010
                        NOSIG=
201905231300 METAR LRBS 231300Z 26013KT CAVOK 25/12 Q1009 NOSIG=
201905231330 METAR LRBS 231330Z 27008KT 240V300 CAVOK 24/12 Q1009 NOSIG=
201905231400 METAR LRBS 231400Z 25012KT 230V300 CAVOK 24/13 Q1009 NOSIG=
201905231430 METAR LRBS 231430Z 25010KT CAVOK 24/12 Q1009 NOSIG=
201905231500 METAR LRBS 231500Z 26010KT 230V330 CAVOK 24/12 Q1009 NOSIG=
201905231530 METAR LRBS 231530Z 25011KT CAVOK 24/12 Q1009 NOSIG=
201905231600 METAR LRBS 231600Z 24010KT CAVOK 24/12 Q1009 NOSIG=
201905231630 METAR LRBS 231630Z 25011KT CAVOK 23/12 Q1009 NOSIG=
201905231700 METAR LRBS 231700Z 25012KT CAVOK 22/12 Q1009 NOSIG=
201905231730 METAR COR LRBS 231730Z 25011KT CAVOK 21/12 Q1009 NOSIG=
201905231800 METAR LRBS 231800Z 26011KT CAVOK 20/12 Q1009 NOSIG=
201905231830 METAR LRBS 231830Z 26007KT CAVOK 20/12 Q1009 NOSIG=
201905231900 METAR LRBS 231900Z 27006KT CAVOK 19/12 Q1010 NOSIG=
201905231930 METAR LRBS 231930Z 27007KT CAVOK 18/12 Q1010 NOSIG=
201905232000 METAR COR LRBS 232000Z 27005KT CAVOK 18/12 Q1010 NOSIG=
201905232030 METAR LRBS 232030Z 28005KT CAVOK 17/12 Q1010 NOSIG=
201905232100 METAR COR LRBS 232100Z 28004KT CAVOK 17/12 Q1010 NOSIG=
201905232130 METAR LRBS 232130Z 27005KT CAVOK 16/12 Q1010 NOSIG=
201905232200 METAR LRBS 232200Z 27004KT 250V310 CAVOK 16/12 Q1010 NOSIG=
201905232230 METAR LRBS 232230Z 27006KT CAVOK 16/12 Q1010 NOSIG=
201905232300 METAR LRBS 232300Z 27006KT CAVOK 15/12 Q1009 NOSIG=
201905232330 METAR LRBS 232330Z 27005KT CAVOK 15/12 Q1009 NOSIG=
201905240000 METAR LRBS 240000Z 27005KT CAVOK 14/11 Q1009 NOSIG=
201905240030 METAR LRBS 240030Z 27005KT CAVOK 14/11 Q1009 NOSIG=
201905240100 METAR LRBS 240100Z 26004KT CAVOK 13/11 Q1009 NOSIG=
201905240130 METAR COR LRBS 240130Z 28004KT CAVOK 13/11 Q1009 NOSIG=
201905240200 METAR LRBS 240200Z 28004KT CAVOK 13/11 Q1009 NOSIG=
201905240230 METAR LRBS 240230Z 27004KT CAVOK 13/11 Q1009 NOSIG=
201905240300 METAR LRBS 240300Z 27004KT CAVOK 13/11 Q1009 NOSIG=
201905240330 METAR LRBS 240330Z 27005KT CAVOK 13/11 Q1009 NOSIG=
201905240400 METAR LRBS 240400Z 27005KT CAVOK 14/11 Q1009 NOSIG=
201905240430 METAR LRBS 240430Z 25003KT 220V280 CAVOK 14/11 Q1009 NOSIG=
201905240500 METAR LRBS 240500Z 26004KT CAVOK 15/12 Q1009 NOSIG=
201905240530 METAR LRBS 240530Z 30003KT 260V020 CAVOK 16/12 Q1009 NOSIG=
201905240600 METAR LRBS 240600Z VRB02KT CAVOK 18/13 Q1009 NOSIG=
201905240630 METAR LRBS 240630Z VRB02KT 9999 BKN048 19/12 Q1009 NOSIG=
201905240700 METAR LRBS 240700Z VRB02KT 9999 BKN048 19/13 Q1009 NOSIG=
201905240730 METAR LRBS 240730Z VRB01KT 9999 BKN048 20/14 Q1009 NOSIG=
201905240800 METAR LRBS 240800Z VRB02KT 9999 FEW035 BKN048 20/13 Q1009
                        NOSIG=
201905240830 METAR LRBS 240830Z VRB02KT 9999 BKN037 SCT047 21/12 Q1009
                        NOSIG=
201905240900 METAR LRBS 240900Z 07003KT 040V130 9999 BKN044 21/13 Q1009
                        NOSIG=
201905240930 METAR LRBS 240930Z VRB02KT 9999 FEW040TCU BKN045 22/13 Q1009
                        NOSIG=
201905241000 METAR LRBS 241000Z 12004KT 050V150 9999 FEW038TCU SCT045
                        22/13 Q1008 NOSIG=
201905241030 METAR LRBS 241030Z 11005KT 070V140 9999 FEW035CB BKN039 22/14
                        Q1008 TEMPO 5000 -TSRA=
201905241100 METAR LRBS 241100Z 09004KT 360V130 9999 FEW038CB BKN040 22/13
                        Q1008 TEMPO 5000 -TSRA=
201905241130 METAR COR LRBS 241130Z 18004KT 140V230 9999 FEW040CB BKN045
                        24/13 Q1007 TEMPO 5000 -TSRA=
201905241200 METAR LRBS 241200Z VRB03KT 9999 VCTS SCT042 SCT045CB 24/15
                        Q1007 TEMPO 5000 -TSRA=
201905241230 METAR LRBS 241230Z 25008KT 9999 TS BKN040CB 24/15 Q1007 TEMPO
                        5000 -TSRA=
201905241300 METAR LRBS 241300Z 28005KT 240V330 9000 TSRA FEW013 BKN037CB
                        20/13 Q1007 TEMPO VRB15G25KT 3000
                        TSRA BKN010 BKN035CB=
201905241330 METAR LRBS 241330Z 33003KT 270V360 3500 +TSRA FEW013 BKN048CB
                        14/14 Q1008 TEMPO VRB15G25KT 1500
                        +TSRA BKN010 BKN035CB=
201905241400 METAR LRBS 241400Z 14004KT 100V190 7000 -TSRA SCT026 BKN050CB
                        15/15 Q1008 RETSRA NOSIG=
201905241430 METAR LRBS 241430Z 15003KT 110V180 8000 -TSRA SCT052CB 15/15
                        Q1008 NOSIG=
201905241500 METAR LRBS 241500Z 00000KT 9000 -TSRA SCT055CB 15/15 Q1008
                        TEMPO 5000 TSRA=
201905241530 METAR COR LRBS 241530Z 06004KT 8000 SHRA VCST SCT055CB 15/14
                        Q1008 TEMPO 5000 SHRA=
201905241600 METAR LRBS 241600Z 07004KT 040V100 9000 -SHRA SCT060CB 15/14
                        Q1008 RESHRA TEMPO 5000 SHRA=
201905241630 METAR LRBS 241630Z VRB01KT 9999 FEW060CB 15/15 Q1007 R07/29//95
                        NOSIG=
201905241700 METAR LRBS 241700Z 25003KT 9999 FEW060CB 15/15 Q1008 R07/29//95
                        NOSIG=
201905241730 METAR LRBS 241730Z 26006KT 9999 FEW060CB 15/15 Q1008 R07/29//95
                        NOSIG=
201905241800 METAR LRBS 241800Z 29003KT 270V340 CAVOK 15/15 Q1008 R07/29//95
                        NOSIG=
201905241830 METAR LRBS 241830Z 30003KT 270V340 CAVOK 15/14 Q1008 R07/29//95
                        NOSIG=
201905241900 METAR COR LRBS 241900Z VRB01KT CAVOK 15/14 Q1008 R07/29//95
                        NOSIG=
201905241930 METAR LRBS 241930Z VRB02KT 9999 SCT048 15/14 Q1009 R07/29//95
                        NOSIG=
201905242000 METAR LRBS 242000Z VRB02KT 9999 FEW048 15/14 Q1009 R07/29//95
                        NOSIG=
201905242030 METAR LRBS 242030Z VRB01KT CAVOK 15/14 Q1009 R07/29//95 NOSIG=
201905242100 METAR LRBS 242100Z 00000KT CAVOK 15/14 Q1009 R07/29//95 NOSIG=
201905242130 METAR LRBS 242130Z 00000KT CAVOK 15/14 Q1009 R07/29//95 NOSIG=
201905242200 METAR LRBS 242200Z 22002KT CAVOK 15/14 Q1009 R07/29//95 NOSIG=
201905242230 METAR LRBS 242230Z 00000KT CAVOK 15/14 Q1009 R07/29//95 NOSIG=
201905242300 METAR LRBS 242300Z 00000KT CAVOK 15/14 Q1009 R07/29//95 NOSIG=
201905242330 METAR LRBS 242330Z 00000KT CAVOK 15/14 Q1009 R07/29//95 NOSIG=
201905250000 METAR LRBS 250000Z VRB01KT 7000 MIFG NSC 14/14 Q1009 R07/29//95
                        TEMPO 3000 BR=
201905250030 METAR LRBS 250030Z VRB01KT 7000 NSC 14/14 Q1009 R07/29//95
                        TEMPO 3000 BR=
201905250100 METAR LRBS 250100Z 25003KT 9000 NSC 14/14 Q1009 R07/29//95
                        NOSIG=
201905250130 METAR LRBS 250130Z 27003KT CAVOK 14/14 Q1009 R07/29//95 TEMPO
                        5000 -SHRA SCT050CB=
201905250200 METAR LRBS 250200Z VRB02KT CAVOK 14/14 Q1009 R07/29//95 TEMPO
                        5000 -SHRA SCT050CB=
201905250230 METAR LRBS 250230Z 28003KT 9000 -SHRA FEW055CB BKN069 14/14
                        Q1009 R07/29//95 TEMPO 5000 -SHRA
                        SCT050CB=
201905250300 METAR LRBS 250300Z 27003KT CAVOK 14/14 Q1009 R07/29//95 NOSIG=
201905250330 METAR LRBS 250330Z 23003KT CAVOK 14/14 Q1010 R07/29//95 NOSIG=
201905250400 METAR LRBS 250400Z 24003KT 9999 -RA NSC 14/14 Q1010 R07/29//95
                        NOSIG=
201905250430 METAR LRBS 250430Z 23004KT 8000 -SHRA FEW045CB 14/14 Q1010
                        R07/29//95 NOSIG=
201905250500 METAR LRBS 250500Z 25003KT 8000 -RA FEW004 15/14 Q1010 R07/29//95
                        NOSIG=
201905250530 METAR LRBS 250530Z 23003KT 9000 FEW004 15/14 Q1010 R07/29//95
                        NOSIG=
201905250600 METAR LRBS 250600Z 24003KT 9000 SCT005 16/15 Q1010 R07/29//95
                        NOSIG=
201905250630 METAR LRBS 250630Z 22005KT 9000 SCT007 16/15 Q1010 R07/29//95
                        NOSIG=
201905250700 METAR LRBS 250700Z 23004KT 9000 FEW007 17/14 Q1010 R07/29//95
                        NOSIG=
201905250730 METAR LRBS 250730Z 25005KT 9999 FEW010 18/14 Q1011 R07/29//95
                        NOSIG=
201905250800 METAR LRBS 250800Z 25003KT 210V270 9999 FEW012 19/15 Q1011
                        R07/29//95 NOSIG=
201905250830 METAR LRBS 250830Z 22003KT 130V280 CAVOK 19/14 Q1011 R07/29//95
                        NOSIG=
201905250900 METAR LRBS 250900Z 21004KT CAVOK 20/13 Q1011 R07/29//95 NOSIG=
201905250930 METAR LRBS 250930Z 23005KT 180V270 9999 FEW025 FEW050TCU
                        21/15 Q1011 R07/29//95 NOSIG=
201905251000 METAR LRBS 251000Z 23005KT 200V260 9999 FEW027 FEW045CB 21/15
                        Q1011 R07/29//95 TEMPO 5000 -TSRA=
201905251030 METAR LRBS 251030Z 23005KT 200V260 9999 FEW033 FEW045CB 22/14
                        Q1011 R07/CLRD// TEMPO 5000 -TSRA=
201905251100 METAR LRBS 251100Z 27004KT 9999 SCT036 FEW045CB 22/14 Q1011
                        TEMPO 5000 -TSRA=
201905251130 METAR LRBS 251130Z 31005KT 270V360 9999 FEW036 SCT040CB 22/14
                        Q1011 NOSIG=
201905251200 METAR LRBS 251200Z 27003KT 140V310 9999 FEW038 SCT040CB 22/14
                        Q1011 NOSIG=
201905251230 METAR LRBS 251230Z 28004KT 230V320 9999 SCT040CB 23/14 Q1011
                        NOSIG=
201905251300 METAR LRBS 251300Z 27008KT 9999 FEW041CB 22/14 Q1011 NOSIG=
201905251330 METAR LRBS 251330Z 28010KT 9999 FEW045CB 23/13 Q1011 NOSIG=
201905251400 METAR LRBS 251400Z 28007KT 240V310 9999 FEW045CB 23/13 Q1011
                        NOSIG=
201905251430 METAR LRBS 251430Z 28007KT 250V320 CAVOK 23/13 Q1011 NOSIG=
201905251500 METAR LRBS 251500Z 30005KT 250V360 CAVOK 23/14 Q1011 NOSIG=
201905251530 METAR LRBS 251530Z 29005KT 260V340 CAVOK 23/13 Q1010 NOSIG=
201905251600 METAR LRBS 251600Z 29006KT 260V320 CAVOK 23/13 Q1010 NOSIG=
201905251630 METAR LRBS 251630Z 29004KT 250V340 CAVOK 23/12 Q1011 NOSIG=
201905251700 METAR LRBS 251700Z 30003KT 270V330 CAVOK 22/13 Q1011 NOSIG=
201905251730 METAR LRBS 251730Z 30003KT 270V340 CAVOK 21/13 Q1011 NOSIG=
201905251800 METAR LRBS 251800Z 29002KT CAVOK 20/13 Q1012 NOSIG=
201905251830 METAR LRBS 251830Z VRB01KT CAVOK 19/14 Q1012 NOSIG=
201905251900 METAR LRBS 251900Z 00000KT CAVOK 19/14 Q1012 NOSIG=
201905251930 METAR LRBS 251930Z 00000KT CAVOK 18/14 Q1012 NOSIG=
201905252000 METAR LRBS 252000Z VRB01KT CAVOK 18/14 Q1012 NOSIG=
201905252030 METAR LRBS 252030Z VRB02KT CAVOK 18/15 Q1013 NOSIG=
201905252100 METAR LRBS 252100Z 00000KT CAVOK 18/14 Q1013 NOSIG=
201905252130 METAR LRBS 252130Z 00000KT CAVOK 17/14 Q1013 NOSIG=
201905252200 METAR LRBS 252200Z 35002KT CAVOK 18/14 Q1013 NOSIG=
201905252230 METAR LRBS 252230Z 02003KT CAVOK 18/14 Q1013 NOSIG=
201905252300 METAR LRBS 252300Z VRB01KT CAVOK 17/14 Q1013 NOSIG=
201905252330 METAR LRBS 252330Z 29002KT CAVOK 17/14 Q1013 NOSIG=
201905260000 METAR LRBS 260000Z 00000KT CAVOK 15/13 Q1013 NOSIG=
201905260030 METAR LRBS 260030Z VRB02KT CAVOK 15/14 Q1013 NOSIG=
201905260100 METAR LRBS 260100Z VRB02KT CAVOK 14/13 Q1014 NOSIG=
201905260130 METAR LRBS 260130Z 00000KT CAVOK 15/14 Q1014 NOSIG=
201905260200 METAR COR LRBS 260200Z 33001KT CAVOK 14/13 Q1014 NOSIG=
201905260230 METAR LRBS 260230Z 00000KT CAVOK 14/13 Q1014 NOSIG=
201905260300 METAR LRBS 260300Z 00000KT 9999 MIFG NSC 13/12 Q1014 TEMPO
                        5000 BR=
201905260330 METAR LRBS 260330Z 00000KT CAVOK 15/13 Q1015 TEMPO 5000 BR=
201905260400 METAR LRBS 260400Z VRB02KT CAVOK 16/14 Q1015 TEMPO 5000 BR=
201905260430 METAR LRBS 260430Z VRB01KT CAVOK 17/14 Q1015 NOSIG=
201905260500 METAR LRBS 260500Z VRB02KT CAVOK 18/14 Q1015 NOSIG=
201905260530 METAR LRBS 260530Z VRB01KT CAVOK 19/13 Q1016 NOSIG=
201905260600 METAR LRBS 260600Z VRB01KT CAVOK 20/14 Q1016 NOSIG=
201905260630 METAR LRBS 260630Z VRB01KT CAVOK 21/14 Q1016 NOSIG=
201905260700 METAR LRBS 260700Z 12003KT 060V210 CAVOK 22/15 Q1016 NOSIG=
201905260730 METAR LRBS 260730Z 14005KT 100V200 CAVOK 23/14 Q1016 NOSIG=
201905260800 METAR LRBS 260800Z 10005KT 050V170 CAVOK 23/13 Q1016 NOSIG=
201905260830 METAR LRBS 260830Z 10006KT 040V130 CAVOK 24/15 Q1016 NOSIG=
201905260900 METAR LRBS 260900Z 08006KT 050V110 CAVOK 24/14 Q1016 NOSIG=
201905260930 METAR LRBS 260930Z 08006KT 040V120 9999 SCT046 25/14 Q1016
                        NOSIG=
201905261000 METAR LRBS 261000Z 14006KT 110V170 9999 SCT046 24/13 Q1016
                        NOSIG=
201905261030 METAR LRBS 261030Z 17006KT 140V210 9999 SCT049 25/14 Q1016
                        NOSIG=
201905261100 METAR LRBS 261100Z VRB03KT CAVOK 25/14 Q1016 NOSIG=
201905261130 METAR LRBS 261130Z 17006KT 130V220 CAVOK 26/15 Q1016 NOSIG=
201905261200 METAR LRBS 261200Z 20007KT 160V220 CAVOK 26/14 Q1016 NOSIG=
201905261230 METAR LRBS 261230Z 20005KT 140V240 CAVOK 25/14 Q1015 NOSIG=
201905261300 METAR LRBS 261300Z 22007KT 190V260 9999 SCT049 25/14 Q1015
                        NOSIG=
201905261330 METAR LRBS 261330Z 23005KT 170V310 CAVOK 26/15 Q1015 NOSIG=
201905261400 METAR COR LRBS 261400Z 23006KT 200V260 CAVOK 26/14 Q1015
                        NOSIG=
201905261430 METAR LRBS 261430Z 21006KT 160V240 CAVOK 26/14 Q1015 NOSIG=
201905261500 METAR LRBS 261500Z 23006KT 170V270 CAVOK 26/14 Q1015 NOSIG=
201905261530 METAR LRBS 261530Z 24007KT 210V270 CAVOK 26/13 Q1015 NOSIG=
201905261600 METAR LRBS 261600Z 22005KT 190V260 CAVOK 26/13 Q1015 NOSIG=
201905261630 METAR LRBS 261630Z 22005KT CAVOK 25/14 Q1015 NOSIG=
201905261700 METAR LRBS 261700Z 22005KT CAVOK 25/13 Q1015 NOSIG=
201905261730 METAR LRBS 261730Z 23003KT CAVOK 24/14 Q1015 NOSIG=
201905261800 METAR LRBS 261800Z VRB01KT CAVOK 24/14 Q1015 NOSIG=
201905261830 METAR LRBS 261830Z 36001KT CAVOK 23/15 Q1015 NOSIG=
201905261900 METAR LRBS 261900Z 36002KT CAVOK 20/15 Q1016 NOSIG=
201905261930 METAR LRBS 261930Z 00000KT CAVOK 20/15 Q1016 NOSIG=
201905262000 METAR LRBS 262000Z 00000KT CAVOK 18/15 Q1016 NOSIG=
201905262030 METAR LRBS 262030Z 00000KT CAVOK 19/15 Q1016 NOSIG=
201905262100 METAR COR LRBS 262100Z 00000KT CAVOK 18/15 Q1016 NOSIG=
201905262130 METAR LRBS 262130Z 01001KT CAVOK 18/15 Q1016 NOSIG=
201905262200 METAR LRBS 262200Z 00000KT CAVOK 17/15 Q1016 NOSIG=
201905262230 METAR LRBS 262230Z 00000KT CAVOK 15/14 Q1016 NOSIG=
201905262300 METAR COR LRBS 262300Z 00000KT CAVOK 16/14 Q1016 NOSIG=
201905262330 METAR LRBS 262330Z 00000KT CAVOK 15/13 Q1016 NOSIG=
201905270000 METAR LRBS 270000Z VRB02KT CAVOK 14/13 Q1016 NOSIG=
201905270030 METAR LRBS 270030Z 00000KT CAVOK 15/14 Q1016 NOSIG=
201905270100 METAR LRBS 270100Z 00000KT 9000 NSC 15/14 Q1016 NOSIG=
201905270130 METAR LRBS 270130Z 00000KT 9000 MIFG NSC 15/14 Q1016 NOSIG=
201905270200 METAR LRBS 270200Z 00000KT 8000 MIFG NSC 15/14 Q1016 TEMPO
                        5000 BR=
201905270230 METAR LRBS 270230Z 00000KT 8000 MIFG NSC 14/13 Q1016 TEMPO
                        5000 BR=
201905270300 METAR LRBS 270300Z 00000KT 8000 0600E BCFG NSC 14/13 Q1015
                        TEMPO 1500 BR=
201905270330 METAR LRBS 270330Z 04002KT 9000 MIFG NSC 15/13 Q1015 NOSIG=
201905270400 METAR LRBS 270400Z VRB02KT CAVOK 16/15 Q1015 NOSIG=
201905270430 METAR LRBS 270430Z 04003KT CAVOK 18/15 Q1016 NOSIG=
201905270500 METAR LRBS 270500Z 04003KT CAVOK 19/16 Q1016 NOSIG=
201905270530 METAR LRBS 270530Z 04004KT 020V080 CAVOK 20/16 Q1016 NOSIG=
201905270600 METAR LRBS 270600Z 06005KT CAVOK 21/16 Q1016 NOSIG=
201905270630 METAR LRBS 270630Z 05005KT 010V100 CAVOK 22/17 Q1016 NOSIG=
201905270700 METAR LRBS 270700Z 06005KT 360V100 CAVOK 23/17 Q1016 NOSIG=
201905270730 METAR LRBS 270730Z 07005KT 020V110 CAVOK 24/17 Q1016 NOSIG=
201905270800 METAR LRBS 270800Z 08006KT 050V110 CAVOK 25/17 Q1016 NOSIG=
201905270830 METAR LRBS 270830Z 10006KT 060V150 CAVOK 25/17 Q1016 NOSIG=
201905270900 METAR LRBS 270900Z 12008KT CAVOK 25/15 Q1016 NOSIG=
201905270930 METAR LRBS 270930Z 10007KT CAVOK 26/16 Q1016 NOSIG=
201905271000 METAR LRBS 271000Z 12010KT CAVOK 27/14 Q1016 NOSIG=
201905271030 METAR LRBS 271030Z 13008KT 110V170 9999 FEW030 27/15 Q1016
                        NOSIG=
201905271100 METAR LRBS 271100Z 11006KT 080V150 9999 FEW040 27/14 Q1016
                        NOSIG=
201905271130 METAR LRBS 271130Z 12007KT 090V150 CAVOK 28/13 Q1015 NOSIG=
201905271200 METAR LRBS 271200Z 11007KT 090V160 CAVOK 28/13 Q1015 NOSIG=
201905271230 METAR LRBS 271230Z 12007KT 090V160 CAVOK 27/14 Q1015 NOSIG=
201905271300 METAR LRBS 271300Z 13007KT 090V170 CAVOK 27/13 Q1015 NOSIG=
201905271330 METAR LRBS 271330Z 13006KT 100V160 CAVOK 27/13 Q1015 NOSIG=
201905271400 METAR LRBS 271400Z 10008KT CAVOK 27/13 Q1014 NOSIG=
201905271430 METAR LRBS 271430Z 09007KT 060V120 CAVOK 27/14 Q1014 NOSIG=
201905271500 METAR LRBS 271500Z 11007KT CAVOK 27/13 Q1014 NOSIG=
201905271530 METAR LRBS 271530Z 11007KT CAVOK 27/15 Q1014 NOSIG=
201905271600 METAR LRBS 271600Z 13008KT CAVOK 26/14 Q1014 NOSIG=
201905271630 METAR LRBS 271630Z 14006KT 110V180 CAVOK 26/15 Q1014 NOSIG=
201905271700 METAR LRBS 271700Z 13006KT CAVOK 26/15 Q1014 NOSIG=
201905271730 METAR LRBS 271730Z 13007KT 090V150 CAVOK 25/15 Q1014 NOSIG=
201905271800 METAR LRBS 271800Z 13009KT CAVOK 24/14 Q1014 NOSIG=
201905271830 METAR LRBS 271830Z 11006KT CAVOK 23/14 Q1014 NOSIG=
201905271900 METAR LRBS 271900Z 12008KT CAVOK 22/14 Q1014 NOSIG=
201905271930 METAR LRBS 271930Z 13006KT CAVOK 22/13 Q1015 NOSIG=
201905272000 METAR LRBS 272000Z 10007KT CAVOK 21/14 Q1015 NOSIG=
201905272030 METAR LRBS 272030Z 10007KT CAVOK 21/14 Q1015 NOSIG=
201905272100 METAR LRBS 272100Z 11007KT CAVOK 19/13 Q1014 NOSIG=
201905272130 METAR LRBS 272130Z 09005KT CAVOK 18/13 Q1014 NOSIG=
201905272200 METAR LRBS 272200Z 09005KT CAVOK 17/12 Q1014 NOSIG=
201905272230 METAR LRBS 272230Z 08006KT CAVOK 15/12 Q1014 NOSIG=
201905272300 METAR LRBS 272300Z 06006KT CAVOK 15/12 Q1014 NOSIG=
201905272330 METAR COR LRBS 272330Z 06005KT CAVOK 14/12 Q1014 NOSIG=
201905280000 METAR LRBS 280000Z 06005KT CAVOK 14/12 Q1014 NOSIG=
201905280030 METAR COR LRBS 280030Z 04004KT CAVOK 14/12 Q1013 NOSIG=
201905280100 METAR LRBS 280100Z 04004KT CAVOK 14/12 Q1013 NOSIG=
201905280130 METAR LRBS 280130Z 05005KT CAVOK 13/12 Q1013 NOSIG=
201905280200 METAR LRBS 280200Z 06005KT CAVOK 13/12 Q1013 NOSIG=
201905280230 METAR LRBS 280230Z 05004KT CAVOK 13/12 Q1013 NOSIG=
201905280300 METAR LRBS 280300Z 05006KT CAVOK 13/12 Q1013 NOSIG=
201905280330 METAR LRBS 280330Z 05006KT CAVOK 14/13 Q1013 NOSIG=
201905280400 METAR LRBS 280400Z 05006KT CAVOK 14/13 Q1013 NOSIG=
201905280430 METAR LRBS 280430Z 06008KT CAVOK 15/13 Q1013 NOSIG=
201905280500 METAR LRBS 280500Z 06009KT CAVOK 16/14 Q1013 NOSIG=
201905280530 METAR LRBS 280530Z 07009KT 9999 -SHRA FEW050CB 17/14 Q1013
                        NOSIG=
201905280600 METAR LRBS 280600Z 06009KT CAVOK 17/14 Q1013 NOSIG=
201905280630 METAR LRBS 280630Z 06008KT CAVOK 19/15 Q1013 NOSIG=
201905280700 METAR COR LRBS 280700Z 06010KT CAVOK 20/15 Q1013 NOSIG=
201905280730 METAR LRBS 280730Z 06009KT CAVOK 21/15 Q1013 NOSIG=
201905280800 METAR LRBS 280800Z 08010KT 050V110 CAVOK 22/15 Q1012 NOSIG=
201905280830 METAR LRBS 280830Z 07011KT CAVOK 23/16 Q1012 NOSIG=
201905280900 METAR LRBS 280900Z 08012KT CAVOK 23/15 Q1011 NOSIG=
201905280930 METAR LRBS 280930Z 10012KT 060V130 CAVOK 23/15 Q1012 NOSIG=
201905281000 METAR LRBS 281000Z 08012KT CAVOK 24/15 Q1011 NOSIG=
201905281030 METAR LRBS 281030Z 08013KT CAVOK 25/15 Q1011 NOSIG=
201905281100 METAR LRBS 281100Z 08013KT 060V120 CAVOK 26/15 Q1010 NOSIG=
201905281130 METAR LRBS 281130Z 10012KT CAVOK 26/16 Q1010 NOSIG=
201905281200 METAR LRBS 281200Z 08012KT CAVOK 27/17 Q1009 NOSIG=
201905281230 METAR LRBS 281230Z 09009KT 060V120 CAVOK 28/16 Q1009 NOSIG=
201905281300 METAR LRBS 281300Z 09010KT 060V130 CAVOK 28/17 Q1009 NOSIG=
201905281330 METAR LRBS 281330Z 12011KT CAVOK 28/15 Q1008 NOSIG=
201905281400 METAR LRBS 281400Z 11011KT CAVOK 28/14 Q1008 NOSIG=
201905281430 METAR LRBS 281430Z 09010KT CAVOK 28/16 Q1008 NOSIG=
201905281500 METAR LRBS 281500Z 09010KT CAVOK 28/16 Q1008 NOSIG=
201905281530 METAR LRBS 281530Z 09009KT CAVOK 28/15 Q1007 NOSIG=
201905281600 METAR LRBS 281600Z 08010KT CAVOK 27/16 Q1007 NOSIG=
201905281630 METAR LRBS 281630Z 05007KT CAVOK 26/17 Q1007 NOSIG=
201905281700 METAR LRBS 281700Z 07009KT CAVOK 25/17 Q1006 NOSIG=
201905281730 METAR LRBS 281730Z 07006KT CAVOK 23/16 Q1007 NOSIG=
201905281800 METAR LRBS 281800Z 07006KT CAVOK 22/16 Q1006 NOSIG=
201905281830 METAR LRBS 281830Z 05006KT CAVOK 22/16 Q1007 NOSIG=
201905281900 METAR LRBS 281900Z 06007KT CAVOK 20/17 Q1007 NOSIG=
201905281930 METAR LRBS 281930Z 06007KT CAVOK 20/16 Q1007 NOSIG=
201905282000 METAR LRBS 282000Z 06006KT CAVOK 20/15 Q1007 NOSIG=
201905282030 METAR LRBS 282030Z 06006KT CAVOK 20/15 Q1007 NOSIG=
201905282100 METAR LRBS 282100Z 06006KT CAVOK 18/14 Q1007 NOSIG=
201905282130 METAR LRBS 282130Z 05006KT CAVOK 18/15 Q1007 NOSIG=
201905282200 METAR LRBS 282200Z 06006KT CAVOK 17/15 Q1007 NOSIG=
201905282230 METAR LRBS 282230Z 05005KT CAVOK 17/15 Q1007 NOSIG=
201905282300 METAR LRBS 282300Z 05005KT CAVOK 16/15 Q1007 NOSIG=
201905282330 METAR LRBS 282330Z AUTO 03006KT 9999 NCD 16/15 Q1007 NOSIG=
201905290000 METAR COR LRBS 290000Z 03004KT CAVOK 16/15 Q1007 NOSIG=
201905290030 METAR LRBS 290030Z 03005KT 8000 FEW005 16/15 Q1007 TEMPO
                        5000 BR BKN005=
201905290100 METAR LRBS 290100Z 01005KT 8000 BR BKN004 16/16 Q1008 TEMPO
                        5000 BR=
201905290130 METAR LRBS 290130Z 01006KT 340V040 8000 BKN004 16/16 Q1008
                        TEMPO 5000 BR=
201905290200 METAR LRBS 290200Z 03006KT 350V070 8000 BKN004 16/16 Q1008
                        TEMPO 5000 BR=
201905290230 METAR LRBS 290230Z 06004KT 030V090 7000 BKN004 16/16 Q1008
                        BECMG SCT005=
201905290300 METAR COR LRBS 290300Z 04005KT 350V080 7000 FEW005 16/15
                        Q1008 NOSIG=
201905290330 METAR LRBS 290330Z 03003KT 320V070 8000 FEW005 16/15 Q1009
                        NOSIG=
201905290400 METAR LRBS 290400Z 05003KT 6000 FEW005 17/16 Q1009 NOSIG=
201905290430 METAR LRBS 290430Z VRB02KT 7000 SCT006 18/16 Q1009 NOSIG=
201905290500 METAR LRBS 290500Z 05004KT 7000 BKN006 18/16 Q1010 NOSIG=
201905290530 METAR LRBS 290530Z 02003KT 330V050 6000 BKN007 18/16 Q1010
                        BECMG SCT010=
201905290600 METAR LRBS 290600Z VRB02KT 8000 OVC008 18/16 Q1010 BECMG
                        SCT010=
201905290630 METAR LRBS 290630Z VRB02KT 8000 BKN009 19/16 Q1011 BECMG
                        SCT010=
201905290700 METAR LRBS 290700Z 31005KT 270V340 8000 BKN011 20/16 Q1011
                        BECMG SCT015=
201905290730 METAR LRBS 290730Z VRB02KT 9000 SCT012 20/16 Q1011 NOSIG=
201905290800 METAR LRBS 290800Z 26004KT 210V310 9999 FEW016 22/17 Q1011
                        NOSIG=
201905290830 METAR LRBS 290830Z 23003KT 150V300 9999 FEW018 23/16 Q1011
                        NOSIG=
201905290900 METAR LRBS 290900Z 26003KT 9999 FEW020 24/18 Q1011 NOSIG=
201905290930 METAR LRBS 290930Z 26004KT 180V330 9999 FEW024 25/17 Q1011
                        NOSIG=
201905291000 METAR LRBS 291000Z 27006KT 230V300 9999 SCT032 25/16 Q1011
                        NOSIG=
201905291030 METAR LRBS 291030Z 29008KT 250V340 9999 FEW036 26/16 Q1011
                        NOSIG=
201905291100 METAR LRBS 291100Z 28006KT 180V320 9999 FEW038 26/16 Q1011
                        NOSIG=
201905291130 METAR LRBS 291130Z 28007KT 230V330 9999 FEW039 26/17 Q1011
                        NOSIG=
201905291200 METAR LRBS 291200Z 27008KT 250V340 9999 FEW040 27/16 Q1011
                        NOSIG=
201905291230 METAR LRBS 291230Z 29006KT 260V360 CAVOK 27/16 Q1010 NOSIG=
201905291300 METAR LRBS 291300Z 27006KT 220V320 CAVOK 28/16 Q1010 NOSIG=
201905291330 METAR LRBS 291330Z 27006KT CAVOK 28/16 Q1010 NOSIG=
201905291400 METAR LRBS 291400Z 31005KT 240V360 CAVOK 28/16 Q1010 NOSIG=
201905291430 METAR LRBS 291430Z 28005KT 250V010 CAVOK 28/16 Q1010 NOSIG=
201905291500 METAR LRBS 291500Z 30004KT 260V010 CAVOK 28/15 Q1010 NOSIG=
201905291530 METAR LRBS 291530Z 28004KT 240V340 CAVOK 28/15 Q1010 NOSIG=
201905291600 METAR LRBS 291600Z 28003KT 250V310 CAVOK 28/15 Q1010 NOSIG=
201905291630 METAR LRBS 291630Z 28003KT 260V350 CAVOK 27/14 Q1010 NOSIG=
201905291700 METAR LRBS 291700Z 29003KT CAVOK 26/15 Q1010 NOSIG=
201905291730 METAR LRBS 291730Z 28003KT CAVOK 26/15 Q1011 NOSIG=
201905291800 METAR LRBS 291800Z 00000KT CAVOK 25/16 Q1011 NOSIG=
201905291830 METAR LRBS 291830Z 01001KT CAVOK 24/15 Q1011 NOSIG=
201905291900 METAR LRBS 291900Z 35001KT CAVOK 22/16 Q1012 NOSIG=
201905291930 METAR LRBS 291930Z 00000KT CAVOK 22/16 Q1012 NOSIG=
201905292000 METAR COR LRBS 292000Z 04001KT CAVOK 21/17 Q1012 TEMPO 5000
                        -SHRA SCT040CB=
201905292030 METAR LRBS 292030Z 00000KT 9999 FEW050CB 22/17 Q1012 TEMPO
                        5000 -SHRA=
201905292100 METAR LRBS 292100Z 31009KT 270V350 9000 -SHRA SCT048CB 20/17
                        Q1013 R07/29//95 NOSIG=
201905292130 METAR LRBS 292130Z 36004KT 9999 SCT050CB 20/17 Q1013 R07/29//95
                        NOSIG=
201905292200 METAR COR LRBS 292200Z 01004KT 340V040 9999 SCT050CB 20/17
                        Q1012 R07/29//95 TEMPO 5000 TSRA=
201905292230 METAR LRBS 292230Z VRB02KT 9999 -TSRA BKN050CB 20/16 Q1013
                        R07/29//95 TEMPO 5000 TSRA=
201905292300 METAR LRBS 292300Z 27008KT 9999 -TSRA BKN050CB 19/17 Q1014
                        R07/29//95 TEMPO 5000 TSRA=
201905292330 METAR LRBS 292330Z 28008KT 250V320 9999 -TSRA BKN050CB 18/17
                        Q1014 R07/29//95 NOSIG=
201905300000 METAR LRBS 300000Z 27013KT 9000 -TSRA FEW016 BKN050CB 18/17
                        Q1015 R07/29//95 NOSIG=
201905300030 METAR LRBS 300030Z 25007KT 9000 -TSRA BKN050CB 18/17 Q1015
                        R07/29//95 NOSIG=
201905300100 METAR COR LRBS 300100Z 36005KT 280V020 9999 -TSRA SCT050CB
                        18/17 Q1014 R07/29//95 NOSIG=
201905300130 METAR LRBS 300130Z 31003KT 260V360 9999 -SHRA FEW050CB 18/17
                        Q1014 RETS R07/29//95 NOSIG=
201905300200 METAR LRBS 300200Z VRB02KT 9999 FEW055CB 18/17 Q1014 R07/29//95
                        NOSIG=
201905300230 METAR LRBS 300230Z 35003KT 310V020 9999 FEW055CB 18/17 Q1014
                        R07/29//95 NOSIG=
201905300300 METAR LRBS 300300Z VRB02KT 9999 FEW055CB 18/17 Q1014 R07/29//95
                        NOSIG=
201905300330 METAR LRBS 300330Z VRB01KT 9999 FEW055CB 18/17 Q1014 R07/29//95
                        NOSIG=
201905300400 METAR LRBS 300400Z 24003KT 110V280 9999 -SHRA FEW055CB 18/17
                        Q1015 R07/29//95 NOSIG=
201905300430 METAR LRBS 300430Z 27005KT CAVOK 18/17 Q1015 R07/29//95 NOSIG=
201905300500 METAR LRBS 300500Z 28005KT 240V310 CAVOK 19/18 Q1015 R07/29//95
                        NOSIG=
201905300530 METAR LRBS 300530Z 29003KT 270V340 CAVOK 19/18 Q1015 R07/29//95
                        NOSIG=
201905300600 METAR LRBS 300600Z 27004KT 240V310 CAVOK 20/18 Q1016 R07/29//95
                        NOSIG=
201905300630 METAR LRBS 300630Z 26005KT 230V310 CAVOK 21/18 Q1016 R07/29//95
                        NOSIG=
201905300700 METAR LRBS 300700Z VRB03KT 9999 FEW013 21/17 Q1016 R07/29//95
                        NOSIG=
201905300730 METAR LRBS 300730Z VRB02KT CAVOK 22/17 Q1016 R07/29//95 NOSIG=
201905300800 METAR COR LRBS 300800Z VRB02KT CAVOK 23/17 Q1016 R07/29//95
                        NOSIG=
201905300830 METAR LRBS 300830Z VRB04KT 9999 FEW029 24/17 Q1016 R07/29//95
                        NOSIG=
201905300900 METAR LRBS 300900Z VRB03KT 9999 FEW029 25/15 Q1016 R07/29//95
                        NOSIG=
201905300930 METAR LRBS 300930Z 29004KT 240V010 9999 FEW039 25/16 Q1016
                        R07/29//95 NOSIG=
201905301000 METAR LRBS 301000Z 23004KT 150V310 9999 SCT040 26/16 Q1017
                        R07/29//95 NOSIG=
201905301030 METAR LRBS 301030Z 28006KT 9999 SCT037 26/16 Q1016 R07/29//95
                        NOSIG=
201905301100 METAR LRBS 301100Z 28006KT 260V320 9999 SCT046 26/16 Q1016
                        R07/29//95 NOSIG=
201905301130 METAR LRBS 301130Z 31003KT 260V360 9999 SCT043 26/16 Q1016
                        R07/29//95 NOSIG=
201905301200 METAR LRBS 301200Z 28006KT 9999 SCT041 26/16 Q1016 R07/29//95
                        NOSIG=
201905301230 METAR LRBS 301230Z 29006KT 250V350 9999 SCT044 27/15 Q1016
                        R07/29//95 NOSIG=
201905301300 METAR LRBS 301300Z 31006KT 260V340 9999 FEW044 27/16 Q1016
                        R07/29//95 NOSIG=
201905301330 METAR LRBS 301330Z 28007KT 260V320 CAVOK 27/14 Q1016 R07/29//95
                        NOSIG=
201905301400 METAR LRBS 301400Z 29006KT 240V350 CAVOK 27/14 Q1016 R07/29//95
                        NOSIG=
201905301430 METAR LRBS 301430Z 30005KT 240V360 CAVOK 27/15 Q1016 R07/29//95
                        NOSIG=
201905301500 METAR LRBS 301500Z 28005KT 240V320 CAVOK 27/15 Q1016 R07/29//95
                        NOSIG=
201905301530 METAR LRBS 301530Z 28005KT 240V320 CAVOK 27/15 Q1016 R07/29//95
                        NOSIG=
201905301600 METAR LRBS 301600Z 27007KT CAVOK 27/15 Q1016 R07/29//95 NOSIG=
201905301630 METAR LRBS 301630Z 28006KT 240V310 CAVOK 26/14 Q1016 R07/CLRD//
                        NOSIG=
201905301700 METAR LRBS 301700Z 27004KT CAVOK 25/14 Q1016 NOSIG=
201905301730 METAR LRBS 301730Z 27004KT CAVOK 25/15 Q1016 NOSIG=
201905301800 METAR LRBS 301800Z 27004KT CAVOK 24/15 Q1016 NOSIG=
201905301830 METAR LRBS 301830Z 27004KT CAVOK 24/15 Q1016 NOSIG=
201905301900 METAR LRBS 301900Z 27004KT CAVOK 23/15 Q1016 NOSIG=
201905301930 METAR COR LRBS 301930Z 27003KT CAVOK 22/15 Q1017 NOSIG=
201905302000 METAR LRBS 302000Z 27005KT CAVOK 22/14 Q1017 NOSIG=
201905302030 METAR LRBS 302030Z 28004KT CAVOK 21/14 Q1017 NOSIG=
201905302100 METAR LRBS 302100Z 28005KT 250V310 CAVOK 21/15 Q1017 NOSIG=
201905302130 METAR LRBS 302130Z 29004KT CAVOK 20/15 Q1017 NOSIG=
201905302200 METAR LRBS 302200Z 28004KT CAVOK 20/15 Q1017 NOSIG=
201905302230 METAR LRBS 302230Z 28002KT CAVOK 19/15 Q1016 NOSIG=
201905302300 METAR COR LRBS 302300Z 27003KT CAVOK 19/15 Q1017 NOSIG=
201905302330 METAR LRBS 302330Z VRB01KT CAVOK 18/15 Q1017 NOSIG=
201905310000 METAR LRBS 310000Z 00000KT CAVOK 18/15 Q1017 NOSIG=
201905310030 METAR LRBS 310030Z 29001KT CAVOK 18/15 Q1017 NOSIG=
201905310100 METAR LRBS 310100Z 27004KT 240V300 CAVOK 18/15 Q1017 NOSIG=
201905310130 METAR LRBS 310130Z 28003KT 9999 FEW045CB 18/15 Q1017 NOSIG=
201905310200 METAR LRBS 310200Z 27003KT 9999 FEW040CB 18/15 Q1017 NOSIG=
201905310230 METAR LRBS 310230Z VRB02KT 9999 SCT024 FEW040CB 18/15 Q1017
                        NOSIG=
201905310300 METAR LRBS 310300Z 25001KT 9999 FEW018 18/15 Q1018 NOSIG=
201905310330 METAR LRBS 310330Z 00000KT 9999 FEW018 18/15 Q1018 NOSIG=
201905310400 METAR LRBS 310400Z 00000KT 9999 -SHRA FEW044CB 19/16 Q1018
                        NOSIG=
201905310430 METAR LRBS 310430Z 13004KT 9999 FEW045CB 20/17 Q1018 NOSIG=
201905310500 METAR LRBS 310500Z 14005KT 9999 FEW040 20/16 Q1018 NOSIG=
201905310530 METAR LRBS 310530Z 12007KT CAVOK 20/17 Q1018 NOSIG=
201905310600 METAR LRBS 310600Z 11006KT 090V160 9999 FEW020 21/17 Q1018
                        NOSIG=
201905310630 METAR LRBS 310630Z 11007KT 9999 FEW021 FEW040 20/16 Q1018
                        NOSIG=
201905310700 METAR LRBS 310700Z 10005KT 060V130 9999 FEW020 BKN042 21/16
                        Q1018 NOSIG=
201905310730 METAR LRBS 310730Z 09006KT 9999 FEW021 SCT042 21/16 Q1018
                        NOSIG=
201905310800 METAR LRBS 310800Z 12005KT 030V150 9999 FEW021 SCT040 21/17
                        Q1018 NOSIG=
201905310830 METAR LRBS 310830Z 12004KT 060V180 9999 FEW020 SCT038 22/16
                        Q1018 NOSIG=
201905310900 METAR LRBS 310900Z 09005KT 060V150 9999 SCT024 BKN045 22/18
                        Q1018 NOSIG=
201905310930 METAR LRBS 310930Z 11006KT 9999 FEW024 BKN037 22/17 Q1018
                        NOSIG=
201905311000 METAR LRBS 311000Z 09003KT 030V130 9999 BKN030 22/17 Q1018
                        TEMPO SCT025CB BKN030=
201905311030 METAR COR LRBS 311030Z 14004KT 120V180 9999 BKN024 22/17
                        Q1018 TEMPO SCT025CB BKN030=
201905311100 METAR LRBS 311100Z 19005KT 140V220 9999 FEW019 SCT024 SCT043
                        23/18 Q1018 NOSIG=
201905311130 METAR LRBS 311130Z 19005KT 140V240 9999 FEW020 SCT040 24/18
                        Q1017 NOSIG=
201905311200 METAR LRBS 311200Z 19006KT 140V220 9999 FEW026 SCT034 23/18
                        Q1017 NOSIG=
201905311230 METAR COR LRBS 311230Z 21003KT 150V260 9999 FEW026 BKN033
                        24/18 Q1017 NOSIG=
201905311300 METAR LRBS 311300Z VRB03KT 9999 SCT032 24/17 Q1016 NOSIG=
201905311330 METAR LRBS 311330Z VRB03KT 9999 SCT032 25/18 Q1016 TEMPO
                        SCT030CB=
201905311400 METAR LRBS 311400Z 20004KT 170V240 9999 FEW035TCU SCT040
                        25/17 Q1015 TEMPO SCT035CB=
201905311430 METAR LRBS 311430Z 22003KT 160V250 9999 SCT030CB BKN040 25/17
                        Q1015 TEMPO SCT035CB=
201905311500 METAR LRBS 311500Z 24008KT 9999 BKN032CB 24/18 Q1015 TEMPO
                        VRB15G25KT 5000 TSRA=
201905311530 METAR LRBS 311530Z 36005KT 310V050 9999 TS BKN027CB 20/17
                        Q1016 TEMPO VRB15G25KT 3000 TSRAGR=
201905311600 METAR LRBS 311600Z 34005KT 310V060 9999 TS BKN010 BKN021CB
                        19/17 Q1016 NOSIG=
201905311630 METAR LRBS 311630Z VRB03KT 9999 -TSRA BKN022 SCT040CB 18/17
                        Q1016 NOSIG=
201905311700 METAR LRBS 311700Z 35003KT 290V040 5000 TSRA FEW003 SCT022
                        BKN030CB 17/17 Q1016 NOSIG=
201905311730 METAR LRBS 311730Z 34003KT 300V050 5000 TSRA FEW020 BKN027
                        BKN044CB 17/17 Q1017 NOSIG=
201905311800 METAR LRBS 311800Z 36005KT 330V030 9999 -SHRA BKN022 BKN043CB
                        17/17 Q1017 NOSIG=
201905311830 METAR LRBS 311830Z 01004KT 330V060 9999 FEW004 SCT036CB 17/17
                        Q1016 NOSIG=
201905311900 METAR LRBS 311900Z 02003KT 340V060 9999 SCT040CB 17/17 Q1017
                        NOSIG=
201905311930 METAR LRBS 311930Z 35003KT 320V040 8000 -TSRA SCT040CB 17/17
                        Q1016 TEMPO 5000 TSRA=
201905312000 METAR LRBS 312000Z 18004KT 150V220 7000 -TSRA FEW004 SCT040CB
                        17/17 Q1017 TEMPO 5000 TSRA=
201905312030 METAR LRBS 312030Z 19006KT 6000 -TSRA SCT004 BKN038CB 17/17
                        Q1018 TEMPO 5000 TSRA=
201905312100 METAR LRBS 312100Z 22010KT 180V240 5000 -TSRA BKN005 BKN032CB
                        16/16 Q1018 TEMPO 5000 TSRA=
201905312130 METAR LRBS 312130Z 23004KT 5000 -TSRA FEW004 BKN021 BKN040CB
                        16/16 Q1018 TEMPO 3000 TSRA=
201905312200 METAR LRBS 312200Z 02006KT 5000 -TSRA FEW008 SCT050CB 16/16
                        Q1018 TEMPO 3000 TSRA=
201905312230 METAR LRBS 312230Z 00000KT 6000 -TSRA FEW008 SCT048CB 16/16
                        Q1017 BECMG 8000 -TSRA=
201905312300 METAR LRBS 312300Z 03006KT 7000 -TSRA FEW003 SCT050CB 16/16
                        Q1016 NOSIG=
201905312330 METAR COR LRBS 312330Z 06003KT 9999 -TSRA FEW004 SCT050CB
                        16/16 Q1016 NOSIG=
