201906010000 METAR LRBS 010000Z 00000KT 9999 FEW005 FEW050CB 16/16 Q1016
                        NOSIG=
201906010030 METAR LRBS 010030Z 00000KT 9999 FEW005 FEW050CB 16/16 Q1016
                        NOSIG=
201906010100 METAR LRBS 010100Z VRB02KT 9999 FEW007 FEW050CB 16/16 Q1016
                        NOSIG=
201906010130 METAR LRBS 010130Z VRB02KT 9999 FEW004 BKN031 16/16 Q1016
                        NOSIG=
201906010200 METAR LRBS 010200Z 00000KT 9999 SCT005 BKN033 16/16 Q1016
                        NOSIG=
201906010230 METAR LRBS 010230Z 00000KT 9999 FEW004 BKN014 16/16 Q1016
                        NOSIG=
201906010300 METAR LRBS 010300Z 01002KT 9999 -RA BKN009 17/16 Q1016 NOSIG=
201906010330 METAR COR LRBS 010330Z 01002KT 9999 -RA BKN009 17/16 Q1016
                        NOSIG=
201906010400 METAR LRBS 010400Z VRB01KT 9999 BKN007 17/16 Q1016 NOSIG=
201906010430 METAR LRBS 010430Z 22003KT 9999 OVC008 17/16 Q1016 NOSIG=
201906010500 METAR LRBS 010500Z 22002KT 9999 BKN005 OVC031 17/16 Q1017
                        NOSIG=
201906010530 METAR LRBS 010530Z 21003KT 170V250 9999 FEW005 BKN012 17/16
                        Q1017 NOSIG=
201906010600 METAR LRBS 010600Z 23005KT 9999 BKN007 17/16 Q1017 NOSIG=
201906010630 METAR LRBS 010630Z 23005KT 9999 BKN008 18/16 Q1017 NOSIG=
201906010700 METAR LRBS 010700Z 23005KT 180V260 9999 OVC008 18/16 Q1017
                        NOSIG=
201906010730 METAR LRBS 010730Z 23004KT 180V270 9999 SCT012 19/16 Q1017
                        BECMG SCT015 BKN040=
201906010800 METAR LRBS 010800Z 23004KT 180V280 9999 BKN014 20/17 Q1017
                        BECMG SCT015 BKN040=
201906010830 METAR LRBS 010830Z 28005KT 210V310 9999 BKN017 20/16 Q1017
                        BECMG SCT015 BKN040=
201906010900 METAR LRBS 010900Z VRB02KT 9999 BKN019 22/16 Q1017 BECMG
                        SCT015 BKN040=
201906010930 METAR LRBS 010930Z VRB01KT 9999 FEW023 BKN045 22/16 Q1017
                        BECMG SCT015 BKN040=
201906011000 METAR LRBS 011000Z VRB02KT 9999 SCT023 BKN046 22/16 Q1017
                        NOSIG=
201906011030 METAR LRBS 011030Z VRB01KT 9999 BKN024 22/16 Q1017 NOSIG=
201906011100 METAR LRBS 011100Z VRB02KT 9999 BKN025 22/17 Q1017 NOSIG=
201906011130 METAR LRBS 011130Z VRB02KT 9999 BKN029 22/16 Q1017 NOSIG=
201906011200 METAR LRBS 011200Z 23004KT 130V250 9999 FEW030 23/17 Q1017
                        NOSIG=
201906011230 METAR LRBS 011230Z 21003KT 9999 SCT027 24/16 Q1016 NOSIG=
201906011300 METAR LRBS 011300Z 24004KT 160V280 9999 BKN031 24/17 Q1016
                        NOSIG=
201906011330 METAR LRBS 011330Z 24006KT 200V260 9999 BKN032 24/16 Q1016
                        NOSIG=
201906011400 METAR LRBS 011400Z 25005KT 220V290 9999 BKN032 24/15 Q1016
                        NOSIG=
201906011430 METAR LRBS 011430Z 25005KT 220V290 9999 BKN032 24/16 Q1016
                        NOSIG=
201906011500 METAR LRBS 011500Z 24006KT 9999 BKN038 24/16 Q1015 NOSIG=
201906011530 METAR LRBS 011530Z 27006KT 240V300 9999 SCT047 24/17 Q1015
                        NOSIG=
201906011600 METAR LRBS 011600Z 25005KT 9999 FEW048 24/17 Q1015 NOSIG=
201906011630 METAR LRBS 011630Z 25005KT 9999 FEW048 24/16 Q1015 NOSIG=
201906011700 METAR LRBS 011700Z 28003KT 260V340 9999 FEW031 23/16 Q1015
                        NOSIG=
201906011730 METAR COR LRBS 011730Z 29003KT 270V330 9999 FEW034 22/16
                        Q1015 NOSIG=
201906011800 METAR LRBS 011800Z 30003KT 270V330 CAVOK 21/16 Q1016 NOSIG=
201906011830 METAR LRBS 011830Z 28003KT CAVOK 21/17 Q1016 NOSIG=
201906011900 METAR LRBS 011900Z 29002KT CAVOK 20/16 Q1016 NOSIG=
201906011930 METAR LRBS 011930Z VRB02KT CAVOK 19/16 Q1016 NOSIG=
201906012000 METAR LRBS 012000Z 00000KT CAVOK 19/16 Q1016 NOSIG=
201906012030 METAR LRBS 012030Z 00000KT CAVOK 18/16 Q1016 NOSIG=
201906012100 METAR LRBS 012100Z 00000KT CAVOK 18/16 Q1017 NOSIG=
201906012130 METAR LRBS 012130Z 00000KT 9999 SCT035 18/16 Q1017 NOSIG=
201906012200 METAR LRBS 012200Z 08003KT 9999 BKN030 17/16 Q1017 NOSIG=
201906012230 METAR LRBS 012230Z 07004KT CAVOK 17/16 Q1017 NOSIG=
201906012300 METAR LRBS 012300Z 07004KT 9999 FEW033 16/15 Q1016 NOSIG=
201906012330 METAR LRBS 012330Z AUTO 08002KT 9999 BKN240/// 17/15 Q1016
                        NOSIG=
201906020000 METAR LRBS 020000Z VRB01KT CAVOK 17/15 Q1016 NOSIG=
201906020030 METAR LRBS 020030Z 05002KT CAVOK 16/15 Q1016 NOSIG=
201906020100 METAR LRBS 020100Z VRB01KT 9999 SCT035 16/15 Q1016 NOSIG=
201906020130 METAR LRBS 020130Z 00000KT 9999 BKN036 17/15 Q1016 NOSIG=
201906020200 METAR LRBS 020200Z VRB01KT 9000 BKN038 17/15 Q1017 NOSIG=
201906020230 METAR LRBS 020230Z VRB02KT 9999 BKN039 17/15 Q1017 NOSIG=
201906020300 METAR LRBS 020300Z 03002KT 9999 SCT042 17/15 Q1017 NOSIG=
201906020330 METAR LRBS 020330Z VRB01KT CAVOK 17/15 Q1017 NOSIG=
201906020400 METAR LRBS 020400Z VRB02KT CAVOK 17/15 Q1017 NOSIG=
201906020430 METAR LRBS 020430Z 06002KT CAVOK 18/15 Q1017 NOSIG=
201906020500 METAR LRBS 020500Z 04002KT CAVOK 18/16 Q1017 NOSIG=
201906020530 METAR LRBS 020530Z 33004KT CAVOK 18/16 Q1017 NOSIG=
201906020600 METAR COR LRBS 020600Z VRB02KT 9999 FEW015 19/16 Q1017 NOSIG=
201906020630 METAR LRBS 020630Z 34003KT 290V040 9999 FEW011 20/17 Q1017
                        NOSIG=
201906020700 METAR LRBS 020700Z VRB01KT 9999 FEW013 21/16 Q1017 NOSIG=
201906020730 METAR LRBS 020730Z 02004KT 300V070 9999 FEW014 22/17 Q1017
                        NOSIG=
201906020800 METAR LRBS 020800Z 01005KT 310V050 9999 SCT019 23/17 Q1017
                        NOSIG=
201906020830 METAR LRBS 020830Z 32004KT 280V010 9999 BKN022 23/18 Q1017
                        NOSIG=
201906020900 METAR LRBS 020900Z 35003KT 300V040 9999 BKN023 23/17 Q1017
                        NOSIG=
201906020930 METAR LRBS 020930Z 04003KT 360V160 9999 BKN027 25/17 Q1017
                        NOSIG=
201906021000 METAR LRBS 021000Z 32004KT 280V360 9999 BKN028 25/17 Q1016
                        NOSIG=
201906021030 METAR LRBS 021030Z 02003KT 300V090 9999 BKN030 25/17 Q1016
                        NOSIG=
201906021100 METAR LRBS 021100Z 08003KT 020V120 9999 BKN037 FEW045TCU
                        25/15 Q1016 NOSIG=
201906021130 METAR LRBS 021130Z 01004KT 320V090 9999 SCT036 26/17 Q1016
                        NOSIG=
201906021200 METAR LRBS 021200Z 05004KT 010V100 9999 SCT039 26/17 Q1015
                        NOSIG=
201906021230 METAR LRBS 021230Z 07004KT 050V110 9999 FEW042 26/18 Q1015
                        NOSIG=
201906021300 METAR LRBS 021300Z 04005KT 010V070 9999 FEW045 25/18 Q1014
                        NOSIG=
201906021330 METAR LRBS 021330Z 06007KT 020V090 9999 FEW037 25/18 Q1014
                        NOSIG=
201906021400 METAR LRBS 021400Z 07006KT 9999 FEW040 25/17 Q1014 NOSIG=
201906021430 METAR LRBS 021430Z 07007KT CAVOK 24/17 Q1014 NOSIG=
201906021500 METAR LRBS 021500Z 07006KT CAVOK 24/17 Q1014 NOSIG=
201906021530 METAR COR LRBS 021530Z 05003KT 010V090 9999 FEW050CB 24/17
                        Q1014 NOSIG=
201906021600 METAR LRBS 021600Z 36002KT 9999 FEW045CB 24/17 Q1014 NOSIG=
201906021630 METAR LRBS 021630Z 36002KT 9999 FEW045CB 24/18 Q1014 NOSIG=
201906021700 METAR LRBS 021700Z 29003KT 9999 FEW050CB 23/18 Q1014 NOSIG=
201906021730 METAR LRBS 021730Z 00000KT 9999 -SHRA FEW050CB 23/18 Q1014
                        NOSIG=
201906021800 METAR LRBS 021800Z 30004KT 280V350 9999 -SHRA BKN050CB 22/18
                        Q1014 TEMPO 5000 SHRA=
201906021830 METAR LRBS 021830Z 27003KT 9999 SCT050CB 21/18 Q1013 TEMPO
                        5000 -TSRA=
201906021900 METAR LRBS 021900Z 18009KT 140V220 3000 +TSRA FEW035 BKN045CB
                        19/17 Q1014 R07/29//95 NOSIG=
201906021930 METAR LRBS 021930Z 01007KT 320V070 4000 +TSRA SCT025 BKN040CB
                        19/18 Q1014 R07/29//95 NOSIG=
201906022000 METAR LRBS 022000Z 35004KT 300V050 9999 -TSRA FEW033 SCT045CB
                        18/17 Q1014 R07/29//95 TEMPO 5000
                        TSRA=
201906022030 METAR COR LRBS 022030Z 35004KT 310V010 9999 SCT045CB 18/17
                        Q1014 R07/29//95 NOSIG=
201906022100 METAR LRBS 022100Z 36004KT 9999 SCT045CB 18/17 Q1013 R07/29//95
                        NOSIG=
201906022130 METAR LRBS 022130Z 05004KT 010V090 9999 SCT045CB 18/17 Q1014
                        R07/29//95 NOSIG=
201906022200 METAR LRBS 022200Z 04005KT 360V080 9999 SCT045CB 18/17 Q1014
                        R07/29//95 TEMPO 5000 SHRA=
201906022230 METAR LRBS 022230Z 05005KT 9999 SCT045CB 18/17 Q1014 R07/29//95
                        NOSIG=
201906022300 METAR LRBS 022300Z 04005KT 010V070 9999 FEW027 SCT045CB 18/17
                        Q1013 R07/29//95 NOSIG=
201906022330 METAR LRBS 022330Z 05005KT 010V090 9999 SCT045CB BKN046 18/17
                        Q1013 R07/29//95 NOSIG=
201906030000 METAR LRBS 030000Z 04006KT 9999 FEW045CB 18/17 Q1013 R07/29//95
                        NOSIG=
201906030030 METAR LRBS 030030Z 05008KT 030V090 9999 FEW045CB 18/16 Q1012
                        R07/29//95 NOSIG=
201906030100 METAR LRBS 030100Z 06007KT 010V100 9999 -SHRA SCT039 SCT045CB
                        18/16 Q1012 R07/29//95 NOSIG=
201906030130 METAR LRBS 030130Z 07007KT 040V100 9999 FEW040 SCT045CB 17/16
                        Q1011 R07/29//95 NOSIG=
201906030200 METAR LRBS 030200Z VRB03KT 9999 VCTS BKN037 SCT045CB 18/16
                        Q1012 R07/29//95 NOSIG=
201906030230 METAR LRBS 030230Z 25006KT 210V280 9999 -TSRA SCT017 SCT045CB
                        18/16 Q1013 R07/29//95 TEMPO 5000
                        TSRA=
201906030300 METAR LRBS 030300Z VRB02KT 9999 BKN020 SCT045CB 18/16 Q1013
                        R07/29//95 NOSIG=
201906030330 METAR LRBS 030330Z VRB02KT 9999 VCTS BKN035 SCT045CB 18/17
                        Q1012 R07/29//95 NOSIG=
201906030400 METAR LRBS 030400Z VRB02KT 9999 VCTS BKN026 BKN036 SCT045CB
                        18/16 Q1013 R07/29//95 NOSIG=
201906030430 METAR LRBS 030430Z VRB02KT 9999 BKN021 BKN038 FEW050CB 19/16
                        Q1013 R07/29//95 NOSIG=
201906030500 METAR LRBS 030500Z VRB02KT 9999 SCT019 BKN035 FEW045CB 18/17
                        Q1013 R07/29//95 NOSIG=
201906030530 METAR LRBS 030530Z 10005KT 070V130 9999 SCT018 BKN038 FEW045CB
                        19/17 Q1014 R07/29//95 NOSIG=
201906030600 METAR LRBS 030600Z 09006KT 9999 FEW013 BKN038 FEW050CB 19/17
                        Q1014 R07/29//95 NOSIG=
201906030630 METAR LRBS 030630Z 09006KT 9999 BKN040 FEW050CB 19/17 Q1014
                        R07/29//95 NOSIG=
201906030700 METAR LRBS 030700Z 08010KT 9999 FEW017 BKN043 FEW050CB 20/17
                        Q1014 R07/29//95 NOSIG=
201906030730 METAR LRBS 030730Z 08008KT 9999 FEW018 BKN045 FEW050CB 20/17
                        Q1014 R07/29//95 NOSIG=
201906030800 METAR LRBS 030800Z 08007KT 9999 SCT027 BKN046 20/17 Q1014
                        R07/29//95 NOSIG=
201906030830 METAR LRBS 030830Z 06004KT 020V090 9999 FEW018 SCT035 BKN044
                        20/17 Q1014 R07/29//95 NOSIG=
201906030900 METAR LRBS 030900Z 06004KT 020V120 9999 BKN018 BKN027 20/17
                        Q1014 NOSIG=
201906030930 METAR COR LRBS 030930Z 06005KT 030V090 9999 BKN020 FEW050CB
                        21/17 Q1014 NOSIG=
201906031000 METAR LRBS 031000Z 03004KT 360V070 9999 SCT017 BKN020 FEW050CB
                        21/17 Q1014 R07/29//95 NOSIG=
201906031030 METAR LRBS 031030Z VRB02KT 9999 -SHRA FEW015 BKN020 FEW040CB
                        20/18 Q1014 R07/29//95 NOSIG=
201906031100 METAR LRBS 031100Z VRB03KT 9999 SCT022 BKN037 FEW040CB 22/18
                        Q1014 R07/29//95 NOSIG=
201906031130 METAR LRBS 031130Z 36005KT 300V040 9999 SCT016 BKN021 22/18
                        Q1014 R07/29//95 NOSIG=
201906031200 METAR LRBS 031200Z 36004KT 310V060 9999 SCT018 BKN027 FEW045CB
                        22/19 Q1013 R07/29//95 NOSIG=
201906031230 METAR LRBS 031230Z 36004KT 310V040 9999 SCT019 23/19 Q1013
                        R07/29//95 NOSIG=
201906031300 METAR LRBS 031300Z 01005KT 320V060 9999 SCT019 24/18 Q1012
                        R07/29//95 NOSIG=
201906031330 METAR LRBS 031330Z 01005KT 330V030 9999 FEW023 24/18 Q1012
                        R07/29//95 NOSIG=
201906031400 METAR COR LRBS 031400Z 01006KT 320V050 9999 SCT025 25/19
                        Q1012 R07/CLRD// NOSIG=
201906031430 METAR LRBS 031430Z 04007KT 9999 SCT025 24/18 Q1012 NOSIG=
201906031500 METAR LRBS 031500Z 03006KT 9999 SCT025 FEW045CB 23/19 Q1012
                        NOSIG=
201906031530 METAR COR LRBS 031530Z 06005KT 030V090 9999 FEW035 FEW045CB
                        24/18 Q1011 NOSIG=
201906031600 METAR LRBS 031600Z 03005KT 350V050 9999 FEW027 FEW045CB 24/18
                        Q1012 NOSIG=
201906031630 METAR LRBS 031630Z 04004KT 9999 FEW030 FEW045CB 24/19 Q1012
                        NOSIG=
201906031700 METAR LRBS 031700Z 04011KT 9999 FEW027 FEW040CB 21/17 Q1012
                        TEMPO VRB15G25KT 5000 -TSRA=
201906031730 METAR LRBS 031730Z 04006KT 9999 FEW023 FEW040CB 20/17 Q1012
                        TEMPO VRB15G25KT 5000 -TSRA=
201906031800 METAR LRBS 031800Z 04004KT 9999 FEW040CB 19/17 Q1013 NOSIG=
201906031830 METAR LRBS 031830Z 07006KT 9999 VCTS FEW040CB 19/18 Q1013
                        TEMPO VRB15G25KT 5000 -TSRA=
201906031900 METAR LRBS 031900Z 09006KT 9999 -SHRA VCTS SCT040CB 20/18
                        Q1013 RETS TEMPO VRB15G25KT 5000
                        -TSRA=
201906031930 METAR LRBS 031930Z 08014KT 7000 -TSRA FEW018 SCT035CB 19/18
                        Q1013 TEMPO VRB15G25KT 5000 -TSRA=
201906032000 METAR LRBS 032000Z 06009KT 5000 SHRA SCT035CB 18/16 Q1013
                        BECMG 9999 -SHRA SCT035=
201906032030 METAR LRBS 032030Z 04005KT 360V060 9999 FEW040CB 17/16 Q1012
                        RESHRA NOSIG=
201906032100 METAR LRBS 032100Z 09006KT 9999 FEW040CB 16/16 Q1012 BECMG
                        FEW040=
201906032130 METAR LRBS 032130Z 13005KT 100V170 CAVOK 17/15 Q1012 NOSIG=
201906032200 METAR LRBS 032200Z 31005KT CAVOK 16/15 Q1013 NOSIG=
201906032230 METAR LRBS 032230Z 28004KT 9999 FEW030 16/15 Q1013 NOSIG=
201906032300 METAR LRBS 032300Z VRB02KT 9999 FEW012 BKN021 BKN032 16/15
                        Q1013 NOSIG=
201906032330 METAR LRBS 032330Z NIL=
201906040000 METAR LRBS 040000Z 00000KT 9999 BKN009 OVC029 17/16 Q1013
                        NOSIG=
201906040030 METAR LRBS 040030Z VRB01KT 9999 BKN008 OVC030 18/17 Q1012
                        NOSIG=
201906040100 METAR LRBS 040100Z 04003KT 7000 BKN007 17/17 Q1012 NOSIG=
201906040130 METAR LRBS 040130Z 05004KT 6000 BKN005 BKN037 17/17 Q1012
                        TEMPO 5000 BR=
201906040200 METAR LRBS 040200Z 05004KT 6000 BKN004 BKN011 18/17 Q1012
                        TEMPO 3000 BR=
201906040230 METAR LRBS 040230Z 05005KT 3000 BR BKN003 BKN010 17/17 Q1012
                        NOSIG=
201906040300 METAR LRBS 040300Z 06005KT 3000 BR OVC002 18/17 Q1012 NOSIG=
201906040330 METAR LRBS 040330Z 08007KT 2800 BR OVC003 18/17 Q1012 TEMPO
                        1500 BR=
201906040400 METAR LRBS 040400Z 07008KT 3000 BR BKN003 OVC010 18/18 Q1012
                        TEMPO 1500 BR=
201906040430 METAR LRBS 040430Z 07008KT 5000 BR BKN004 OVC010 18/18 Q1013
                        BECMG 9999 NSW BKN010=
201906040500 METAR LRBS 040500Z 07006KT 6000 BKN005 OVC012 18/18 Q1013
                        BECMG BKN010 OVC015=
201906040530 METAR LRBS 040530Z 07008KT 8000 BKN006 18/17 Q1013 BECMG
                        BKN010 OVC015=
201906040600 METAR LRBS 040600Z 06008KT 6000 OVC005 18/17 Q1013 R07/19//95
                        BECMG BKN010 OVC015=
201906040630 METAR LRBS 040630Z 07008KT 8000 BKN006 OVC016 19/17 Q1013
                        R07/19//95 BECMG SCT010 BKN020=
201906040700 METAR LRBS 040700Z 08009KT 9000 BKN008 BKN020 19/17 Q1013
                        R07/19//95 BECMG SCT010 BKN020=
201906040730 METAR LRBS 040730Z 08007KT 9999 BKN009 BKN023 20/17 Q1013
                        R07/19//95 BECMG SCT010 BKN025=
201906040800 METAR LRBS 040800Z 11007KT 9999 BKN014 BKN023 20/17 Q1013
                        R07/19//95 BECMG SCT015 BKN025=
201906040830 METAR LRBS 040830Z 14006KT 100V210 9999 SCT015 BKN023 21/16
                        Q1013 R07/19//95 BECMG SCT015 BKN025=
201906040900 METAR LRBS 040900Z VRB02KT 9999 SCT019 BKN030 21/17 Q1013
                        R07/19//95 NOSIG=
201906040930 METAR COR LRBS 040930Z 08007KT 9999 -SHRA SCT020 BKN030CB
                        21/17 Q1013 R07/19//95 NOSIG=
201906041000 METAR LRBS 041000Z 07006KT 9999 -SHRA FEW018 SCT030CB 20/18
                        Q1013 R07/29//95 NOSIG=
201906041030 METAR LRBS 041030Z 09007KT 050V110 9999 FEW016 SCT030CB 22/17
                        Q1013 R07/29//95 NOSIG=
201906041100 METAR LRBS 041100Z 05004KT 360V110 9999 FEW020 FEW030CB 23/17
                        Q1012 R07/29//95 NOSIG=
201906041130 METAR LRBS 041130Z 08008KT 050V110 9999 VCTS FEW028CB SCT030
                        22/17 Q1012 R07/29//95 TEMPO 3000
                        TSRA BKN030CB=
201906041200 METAR LRBS 041200Z 13007KT 9000 -TSRA BKN032CB 20/17 Q1012
                        R07/29//95 TEMPO 3000 TSRA=
201906041230 METAR COR LRBS 041230Z 19009KT 150V220 9000 -TSRA FEW024
                        SCT040CB 19/15 Q1013 R07/29//95 TEMPO
                        3000 TSRA=
201906041300 METAR LRBS 041300Z 21008KT 180V250 9999 TS VCSH FEW020 BKN040CB
                        19/14 Q1013 R07/29//95 BECMG NSW=
201906041330 METAR LRBS 041330Z 33005KT 310V010 9999 SCT040CB 18/14 Q1013
                        RETS R07/29//95 NOSIG=
201906041400 METAR LRBS 041400Z VRB01KT 9999 -SHRA FEW034 SCT040CB 19/14
                        Q1012 RETS R07/29//95 NOSIG=
201906041430 METAR LRBS 041430Z 30006KT 260V340 9999 FEW028 FEW040CB 18/14
                        Q1013 R07/29//95 NOSIG=
201906041500 METAR COR LRBS 041500Z 35004KT 300V030 CAVOK 18/14 Q1013
                        R07/CLRD// NOSIG=
201906041530 METAR LRBS 041530Z 36004KT 310V040 CAVOK 18/14 Q1013 NOSIG=
201906041600 METAR COR LRBS 041600Z 36003KT 320V040 CAVOK 19/14 Q1012
                        NOSIG=
201906041630 METAR LRBS 041630Z VRB02KT CAVOK 18/15 Q1012 NOSIG=
201906041700 METAR LRBS 041700Z 03002KT 9999 FEW050TCU 18/14 Q1012 NOSIG=
201906041730 METAR LRBS 041730Z 05002KT 9999 FEW050TCU 17/14 Q1012 NOSIG=
201906041800 METAR LRBS 041800Z VRB01KT 9999 FEW050CB 17/14 Q1012 NOSIG=
201906041830 METAR LRBS 041830Z 02003KT CAVOK 16/14 Q1012 NOSIG=
201906041900 METAR LRBS 041900Z 02003KT CAVOK 16/14 Q1013 NOSIG=
201906041930 METAR LRBS 041930Z 02002KT CAVOK 16/15 Q1013 NOSIG=
201906042000 METAR LRBS 042000Z 07002KT CAVOK 15/15 Q1013 NOSIG=
201906042030 METAR LRBS 042030Z 05002KT CAVOK 16/15 Q1013 NOSIG=
201906042100 METAR LRBS 042100Z 06004KT 9999 FEW037 15/14 Q1013 NOSIG=
201906042130 METAR LRBS 042130Z 06003KT 9999 VCTS SCT035 FEW040CB 15/14
                        Q1013 NOSIG=
201906042200 METAR LRBS 042200Z 07005KT 9999 SCT033 15/14 Q1013 NOSIG=
201906042230 METAR LRBS 042230Z 05003KT CAVOK 15/14 Q1013 NOSIG=
201906042300 METAR LRBS 042300Z 36004KT CAVOK 16/14 Q1013 NOSIG=
201906042330 METAR LRBS 042330Z 02003KT 330V050 CAVOK 15/14 Q1013 NOSIG=
201906050000 METAR LRBS 050000Z VRB02KT CAVOK 15/15 Q1013 NOSIG=
201906050030 METAR LRBS 050030Z VRB02KT CAVOK 15/15 Q1013 NOSIG=
201906050100 METAR LRBS 050100Z 03004KT 360V060 8000 BKN007 15/15 Q1013
                        NOSIG=
201906050130 METAR LRBS 050130Z 02003KT 350V050 8000 BKN007 15/15 Q1013
                        NOSIG=
201906050200 METAR LRBS 050200Z 03004KT 7000 BR BKN005 15/15 Q1013 TEMPO
                        3000 BR=
201906050230 METAR LRBS 050230Z 04004KT 8000 BKN004 16/15 Q1013 TEMPO
                        3000 BR=
201906050300 METAR LRBS 050300Z 04005KT 7000 OVC004 16/15 Q1013 TEMPO
                        5000 BR=
201906050330 METAR LRBS 050330Z 06005KT 5000 BR OVC004 16/15 Q1013 TEMPO
                        3000 BR=
201906050400 METAR LRBS 050400Z 05004KT 5000 BR OVC003 16/16 Q1013 TEMPO
                        3000 BR=
201906050430 METAR LRBS 050430Z 05005KT 5000 BR OVC003 17/16 Q1013 TEMPO
                        3000 BR=
201906050500 METAR LRBS 050500Z 06006KT 6000 BKN004 17/16 Q1013 BECMG
                        BKN015=
201906050530 METAR LRBS 050530Z 07006KT 030V090 8000 BKN005 18/16 Q1013
                        BECMG BKN015=
201906050600 METAR LRBS 050600Z 05007KT 9999 BKN007 18/16 Q1013 BECMG
                        BKN015=
201906050630 METAR LRBS 050630Z 06007KT 030V090 9999 BKN009 19/17 Q1014
                        BECMG BKN015=
201906050700 METAR LRBS 050700Z 06008KT 030V090 9999 SCT011 19/16 Q1014
                        BECMG BKN015=
201906050730 METAR LRBS 050730Z 06007KT 030V100 9999 BKN013 20/16 Q1014
                        NOSIG=
201906050800 METAR LRBS 050800Z 07007KT 020V100 9999 BKN018 21/16 Q1014
                        NOSIG=
201906050830 METAR LRBS 050830Z 06008KT 9999 BKN021 23/18 Q1014 NOSIG=
201906050900 METAR LRBS 050900Z 06008KT 9999 BKN024 22/16 Q1014 R07/29//95
                        NOSIG=
201906050930 METAR LRBS 050930Z 09008KT 040V140 9999 BKN029 24/15 Q1014
                        R07/29//95 NOSIG=
201906051000 METAR COR LRBS 051000Z 11008KT 080V150 9999 SCT038 24/16
                        Q1013 NOSIG=
201906051030 METAR LRBS 051030Z 10009KT 060V130 9999 VCTS SCT039 FEW050CB
                        25/16 Q1013 TEMPO 5000 TSRA=
201906051100 METAR LRBS 051100Z 12008KT 090V150 9999 SCT045 FEW050CB 25/16
                        Q1013 TEMPO 5000 TSRA=
201906051130 METAR LRBS 051130Z 11008KT 080V140 9999 SCT048 FEW050CB 26/15
                        Q1013 TEMPO 5000 TSRA=
201906051200 METAR LRBS 051200Z 11008KT 9999 BKN047 FEW050CB 24/15 Q1013
                        NOSIG=
201906051230 METAR LRBS 051230Z 08008KT 9999 SCT045 FEW050CB 24/16 Q1013
                        NOSIG=
201906051300 METAR LRBS 051300Z 05007KT 340V100 9999 BKN035 FEW050CB 23/16
                        Q1013 TEMPO VRB15G25KT 5000 TSRA=
201906051330 METAR LRBS 051330Z 33007KT 9999 VCTS SCT039 SCT050CB 23/17
                        Q1013 TEMPO VRB15G25KT 5000 TSRA=
201906051400 METAR LRBS 051400Z 31011KT 9999 BKN038 SCT050CB 22/17 Q1013
                        NOSIG=
201906051430 METAR LRBS 051430Z 32007KT 290V010 9999 VCTS SCT033 SCT050CB
                        22/16 Q1012 NOSIG=
201906051500 METAR LRBS 051500Z 36008KT 9999 FEW035 FEW050CB 22/17 Q1012
                        NOSIG=
201906051530 METAR LRBS 051530Z 36007KT 320V020 CAVOK 23/17 Q1012 NOSIG=
201906051600 METAR LRBS 051600Z 36006KT 320V020 CAVOK 23/17 Q1012 NOSIG=
201906051630 METAR LRBS 051630Z 01006KT CAVOK 22/17 Q1012 NOSIG=
201906051700 METAR LRBS 051700Z 01004KT 340V040 9999 FEW050TCU 22/17 Q1012
                        NOSIG=
201906051730 METAR LRBS 051730Z 01004KT 350V050 9999 FEW050TCU 21/17 Q1012
                        NOSIG=
201906051800 METAR LRBS 051800Z 01004KT 9999 FEW050TCU 21/18 Q1013 NOSIG=
201906051830 METAR COR LRBS 051830Z 01004KT 340V040 CAVOK 21/18 Q1013
                        NOSIG=
201906051900 METAR LRBS 051900Z 03005KT CAVOK 21/18 Q1013 NOSIG=
201906051930 METAR LRBS 051930Z 04002KT CAVOK 20/17 Q1013 NOSIG=
201906052000 METAR COR LRBS 052000Z 04004KT CAVOK 20/17 Q1013 NOSIG=
201906052030 METAR LRBS 052030Z VRB02KT CAVOK 20/18 Q1013 NOSIG=
201906052100 METAR LRBS 052100Z 06004KT CAVOK 19/17 Q1013 NOSIG=
201906052130 METAR LRBS 052130Z VRB01KT CAVOK 19/17 Q1013 NOSIG=
201906052200 METAR LRBS 052200Z 03002KT CAVOK 19/17 Q1013 NOSIG=
201906052230 METAR LRBS 052230Z 06003KT CAVOK 18/17 Q1013 NOSIG=
201906052300 METAR LRBS 052300Z AUTO 07004KT 9999 BR BKN120/// 18/17 Q1013
                        NOSIG=
201906052330 METAR LRBS 052330Z 07004KT CAVOK 17/17 Q1013 NOSIG=
201906060000 METAR LRBS 060000Z 08004KT CAVOK 17/16 Q1013 NOSIG=
201906060030 METAR LRBS 060030Z 05003KT CAVOK 17/16 Q1013 NOSIG=
201906060100 METAR LRBS 060100Z 05003KT 7000 NSC 17/16 Q1013 NOSIG=
201906060130 METAR LRBS 060130Z 04002KT 7000 NSC 17/16 Q1013 NOSIG=
201906060200 METAR LRBS 060200Z 03004KT 5000 BR NSC 16/16 Q1013 NOSIG=
201906060230 METAR LRBS 060230Z 05003KT 5000 BR NSC 15/15 Q1013 NOSIG=
201906060300 METAR LRBS 060300Z 04004KT 3700 BR NSC 16/15 Q1013 NOSIG=
201906060330 METAR LRBS 060330Z 05004KT 4000 BR FEW003 16/16 Q1014 NOSIG=
201906060400 METAR LRBS 060400Z 05002KT 4500 BR NSC 17/16 Q1014 BECMG
                        9999 NSW=
201906060430 METAR LRBS 060430Z 06002KT 6000 NSC 17/16 Q1014 NOSIG=
201906060500 METAR LRBS 060500Z 05003KT 6000 NSC 17/16 Q1014 NOSIG=
201906060530 METAR LRBS 060530Z 07003KT 7000 NSC 18/17 Q1015 NOSIG=
201906060600 METAR LRBS 060600Z 07005KT 8000 NSC 20/18 Q1015 NOSIG=
201906060630 METAR LRBS 060630Z 08006KT 9999 FEW015 21/17 Q1015 NOSIG=
201906060700 METAR LRBS 060700Z 09005KT 030V110 9999 FEW016 21/17 Q1015
                        NOSIG=
201906060730 METAR LRBS 060730Z 07004KT 010V140 9999 FEW018 22/18 Q1015
                        NOSIG=
201906060800 METAR LRBS 060800Z 08003KT 020V140 9999 SCT020 23/18 Q1015
                        NOSIG=
201906060830 METAR LRBS 060830Z 07004KT 010V130 9999 SCT023 24/18 Q1015
                        NOSIG=
201906060900 METAR LRBS 060900Z 11004KT 020V150 9999 SCT027 24/17 Q1015
                        NOSIG=
201906060930 METAR LRBS 060930Z 08006KT 010V110 9999 SCT030 25/18 Q1015
                        NOSIG=
201906061000 METAR LRBS 061000Z 06005KT 350V090 9999 SCT034 25/17 Q1015
                        NOSIG=
201906061030 METAR LRBS 061030Z 08007KT 050V110 9999 SCT038 FEW045TCU
                        25/17 Q1015 NOSIG=
201906061100 METAR LRBS 061100Z 07006KT 020V120 9999 SCT038 FEW045TCU
                        25/17 Q1015 TEMPO SCT040CB=
201906061130 METAR LRBS 061130Z 08006KT 050V110 8000 -SHRA SCT038 SCT045CB
                        25/17 Q1015 TEMPO VRB18KT 5000 -TSRA
                        SCT040CB=
201906061200 METAR LRBS 061200Z 08005KT 050V110 9000 -SHRA FEW037 SCT043CB
                        23/19 Q1015 NOSIG=
201906061230 METAR LRBS 061230Z 04004KT 9999 FEW029 FEW045CB 23/19 Q1014
                        NOSIG=
201906061300 METAR LRBS 061300Z 03005KT 9999 -SHRA FEW045CB 24/18 Q1014
                        NOSIG=
201906061330 METAR COR LRBS 061330Z 04003KT 9999 FEW036 FEW045CB 25/19
                        Q1014 R07/19//95 NOSIG=
201906061400 METAR LRBS 061400Z 02003KT 9999 FEW045CB 25/18 Q1014 R07/19//95
                        NOSIG=
201906061430 METAR LRBS 061430Z 02003KT 9999 FEW045CB 25/17 Q1014 R07/19//95
                        NOSIG=
201906061500 METAR LRBS 061500Z 36003KT 9999 FEW045CB 24/17 Q1014 R07/19//95
                        TEMPO 5000 -TSRA=
201906061530 METAR LRBS 061530Z 36003KT 9999 FEW045CB 24/18 Q1014 R07/19//95
                        TEMPO 5000 -TSRA=
201906061600 METAR LRBS 061600Z VRB01KT 9999 FEW050CB 25/18 Q1014 R07/19//95
                        NOSIG=
201906061630 METAR LRBS 061630Z 30005KT 9999 FEW050CB 24/19 Q1015 R07/19//95
                        NOSIG=
201906061700 METAR LRBS 061700Z 33006KT 290V350 9999 FEW050CB 22/18 Q1015
                        R07/19//95 NOSIG=
201906061730 METAR LRBS 061730Z 29004KT 9999 FEW050CB 21/19 Q1015 R07/19//95
                        NOSIG=
201906061800 METAR LRBS 061800Z VRB02KT 9999 FEW050CB 21/19 Q1015 R07/19//95
                        NOSIG=
201906061830 METAR LRBS 061830Z VRB02KT CAVOK 21/19 Q1015 R07/19//95 NOSIG=
201906061900 METAR LRBS 061900Z 23001KT CAVOK 21/18 Q1016 R07/19//95 NOSIG=
201906061930 METAR LRBS 061930Z 25001KT CAVOK 20/19 Q1016 R07/19//95 NOSIG=
201906062000 METAR LRBS 062000Z 30002KT CAVOK 20/18 Q1016 R07/19//95 NOSIG=
201906062030 METAR LRBS 062030Z 31003KT CAVOK 20/18 Q1016 R07/19//95 NOSIG=
201906062100 METAR LRBS 062100Z 33004KT CAVOK 20/18 Q1016 R07/19//95 NOSIG=
201906062130 METAR LRBS 062130Z VRB02KT CAVOK 20/18 Q1016 R07/19//95 NOSIG=
201906062200 METAR LRBS 062200Z 00000KT CAVOK 19/18 Q1016 R07/19//95 NOSIG=
201906062230 METAR LRBS 062230Z 28003KT CAVOK 19/18 Q1016 R07/19//95 NOSIG=
201906062300 METAR LRBS 062300Z 28003KT 8000 NSC 18/17 Q1016 R07/19//95
                        BECMG 5000 BR=
201906062330 METAR LRBS 062330Z 20001KT CAVOK 18/17 Q1016 R07/19//95 BECMG
                        5000 BR=
201906070000 METAR LRBS 070000Z VRB01KT CAVOK 18/17 Q1016 R07/19//95 BECMG
                        5000 BR=
201906070030 METAR LRBS 070030Z 00000KT 8000 NSC 17/16 Q1016 R07/19//95
                        BECMG 5000 BR=
201906070100 METAR LRBS 070100Z 28001KT 7000 MIFG NSC 17/17 Q1016 R07/19//95
                        BECMG 5000 BR=
201906070130 METAR LRBS 070130Z AUTO VRB02KT 9000 BR NCD 17/16 Q1015 NOSIG=
201906070200 METAR LRBS 070200Z 29002KT 9000 NSC 17/16 Q1016 R07/19//95
                        NOSIG=
201906070230 METAR LRBS 070230Z 26003KT 230V290 CAVOK 17/16 Q1016 R07/19//95
                        NOSIG=
201906070300 METAR LRBS 070300Z 28003KT 9999 MIFG NSC 17/16 Q1016 R07/19//95
                        NOSIG=
201906070330 METAR LRBS 070330Z 26003KT CAVOK 17/16 Q1016 R07/19//95 NOSIG=
201906070400 METAR LRBS 070400Z VRB02KT CAVOK 18/16 Q1016 R07/19//95 NOSIG=
201906070430 METAR LRBS 070430Z 29003KT CAVOK 19/16 Q1016 R07/19//95 NOSIG=
201906070500 METAR LRBS 070500Z 26003KT 230V300 CAVOK 19/17 Q1017 R07/19//95
                        NOSIG=
201906070530 METAR LRBS 070530Z 27003KT 240V310 CAVOK 21/18 Q1017 R07/19//95
                        NOSIG=
201906070600 METAR LRBS 070600Z 25005KT CAVOK 22/17 Q1017 R07/CLRD// NOSIG=
201906070630 METAR LRBS 070630Z 23005KT 210V270 CAVOK 23/18 Q1018 NOSIG=
201906070700 METAR LRBS 070700Z 24003KT 200V290 CAVOK 24/17 Q1018 NOSIG=
201906070730 METAR LRBS 070730Z 23004KT 180V310 CAVOK 24/17 Q1017 NOSIG=
201906070800 METAR LRBS 070800Z 25006KT 220V300 CAVOK 25/18 Q1018 NOSIG=
201906070830 METAR LRBS 070830Z 25006KT 220V290 9999 FEW035 26/18 Q1018
                        NOSIG=
201906070900 METAR LRBS 070900Z 23005KT 190V260 9999 FEW035 26/18 Q1018
                        NOSIG=
201906070930 METAR LRBS 070930Z VRB04KT 9999 SCT037 27/18 Q1018 NOSIG=
201906071000 METAR LRBS 071000Z 28006KT 240V310 9999 SCT037 27/18 Q1018
                        NOSIG=
201906071030 METAR LRBS 071030Z VRB05KT 9999 SCT039 27/17 Q1018 NOSIG=
201906071100 METAR COR LRBS 071100Z 27006KT 230V310 9999 SCT042 27/17
                        Q1017 NOSIG=
201906071130 METAR LRBS 071130Z 28004KT 240V320 9999 SCT044 27/17 Q1017
                        NOSIG=
201906071200 METAR LRBS 071200Z 27007KT 230V320 9999 SCT041 28/17 Q1017
                        NOSIG=
201906071230 METAR LRBS 071230Z 28007KT 9999 SCT043 29/18 Q1017 NOSIG=
201906071300 METAR LRBS 071300Z 29004KT 240V350 9999 SCT047 28/18 Q1017
                        NOSIG=
201906071330 METAR LRBS 071330Z 30006KT 250V340 9999 BKN044 28/18 Q1017
                        NOSIG=
201906071400 METAR LRBS 071400Z 27005KT 240V320 9999 SCT044 29/19 Q1017
                        NOSIG=
201906071430 METAR LRBS 071430Z 27006KT 9999 SCT045 28/19 Q1016 NOSIG=
201906071500 METAR LRBS 071500Z 28008KT 250V340 9999 FEW044 28/19 Q1017
                        NOSIG=
201906071530 METAR COR LRBS 071530Z 29006KT 260V340 9999 FEW043 28/18
                        Q1017 NOSIG=
201906071600 METAR LRBS 071600Z 28006KT 250V310 CAVOK 28/18 Q1017 NOSIG=
201906071630 METAR LRBS 071630Z 27005KT 250V310 CAVOK 27/18 Q1016 NOSIG=
201906071700 METAR LRBS 071700Z 28005KT CAVOK 27/19 Q1017 NOSIG=
201906071730 METAR LRBS 071730Z VRB02KT CAVOK 26/19 Q1017 NOSIG=
201906071800 METAR LRBS 071800Z 29002KT CAVOK 26/19 Q1017 NOSIG=
201906071830 METAR LRBS 071830Z 29003KT 260V350 CAVOK 25/19 Q1017 NOSIG=
201906071900 METAR LRBS 071900Z 00000KT CAVOK 25/19 Q1018 NOSIG=
201906071930 METAR LRBS 071930Z 30001KT 9000 NSC 23/20 Q1017 NOSIG=
201906072000 METAR LRBS 072000Z VRB01KT 9000 NSC 23/20 Q1018 NOSIG=
201906072030 METAR LRBS 072030Z 00000KT 9000 NSC 22/20 Q1018 NOSIG=
201906072100 METAR LRBS 072100Z 34001KT 8000 NSC 22/19 Q1018 TEMPO 5000
                        BR=
201906072130 METAR LRBS 072130Z 30002KT 8000 NSC 22/19 Q1018 TEMPO 5000
                        BR=
201906072200 METAR LRBS 072200Z 00000KT 8000 NSC 21/19 Q1018 TEMPO 5000
                        BR=
201906072230 METAR LRBS 072230Z 00000KT 8000 MIFG NSC 21/19 Q1018 TEMPO
                        5000 BR=
201906072300 METAR LRBS 072300Z 27001KT 8000 MIFG NSC 20/18 Q1018 TEMPO
                        5000 BR=
201906072330 METAR LRBS 072330Z VRB02KT 8000 NSC 20/18 Q1017 TEMPO 5000
                        BR=
201906080000 METAR LRBS 080000Z 00000KT 9000 NSC 19/18 Q1017 NOSIG=
201906080030 METAR LRBS 080030Z VRB01KT 8000 NSC 19/17 Q1017 NOSIG=
201906080100 METAR LRBS 080100Z 00000KT 8000 NSC 18/17 Q1017 NOSIG=
201906080130 METAR LRBS 080130Z 25001KT 8000 NSC 18/17 Q1017 NOSIG=
201906080200 METAR LRBS 080200Z 29002KT 8000 NSC 18/17 Q1017 NOSIG=
201906080230 METAR LRBS 080230Z VRB01KT 7000 MIFG NSC 17/17 Q1017 TEMPO
                        5000 BR=
201906080300 METAR LRBS 080300Z VRB01KT 7000 MIFG NSC 17/16 Q1017 TEMPO
                        5000 BR=
201906080330 METAR LRBS 080330Z 00000KT 7000 MIFG NSC 18/17 Q1017 NOSIG=
201906080400 METAR LRBS 080400Z 00000KT 8000 NSC 19/17 Q1018 NOSIG=
201906080430 METAR LRBS 080430Z 06002KT CAVOK 20/18 Q1018 NOSIG=
201906080500 METAR LRBS 080500Z 09004KT CAVOK 21/18 Q1018 NOSIG=
201906080530 METAR LRBS 080530Z 08004KT 050V110 CAVOK 22/18 Q1018 NOSIG=
201906080600 METAR LRBS 080600Z 09003KT CAVOK 22/18 Q1018 NOSIG=
201906080630 METAR COR LRBS 080630Z VRB02KT 9999 FEW046 24/18 Q1018 NOSIG=
201906080700 METAR LRBS 080700Z VRB02KT CAVOK 25/19 Q1018 NOSIG=
201906080730 METAR LRBS 080730Z VRB01KT CAVOK 26/18 Q1018 NOSIG=
201906080800 METAR LRBS 080800Z VRB01KT CAVOK 27/19 Q1018 NOSIG=
201906080830 METAR LRBS 080830Z 33003KT 280V020 CAVOK 27/18 Q1018 NOSIG=
201906080900 METAR LRBS 080900Z VRB04KT 9999 FEW037 28/20 Q1018 NOSIG=
201906080930 METAR LRBS 080930Z 27006KT 210V310 9999 FEW038 28/20 Q1018
                        NOSIG=
201906081000 METAR LRBS 081000Z 27006KT 250V310 9999 SCT037 28/19 Q1018
                        NOSIG=
201906081030 METAR LRBS 081030Z 27006KT 240V340 9999 FEW008 SCT040 28/19
                        Q1018 NOSIG=
201906081100 METAR LRBS 081100Z 28005KT 250V340 9999 SCT041 29/19 Q1017
                        NOSIG=
201906081130 METAR LRBS 081130Z 28004KT 260V320 9999 BKN040 28/19 Q1017
                        NOSIG=
201906081200 METAR LRBS 081200Z 30005KT 260V340 9999 BKN044 30/20 Q1017
                        NOSIG=
201906081230 METAR LRBS 081230Z 27007KT 240V310 9999 BKN045 29/19 Q1017
                        NOSIG=
201906081300 METAR LRBS 081300Z 32007KT 9999 BKN045 29/19 Q1017 NOSIG=
201906081330 METAR LRBS 081330Z 33006KT 280V030 9999 FEW040TCU 30/18 Q1016
                        NOSIG=
201906081400 METAR LRBS 081400Z 33005KT 260V010 9999 FEW040CB 30/17 Q1016
                        TEMPO 5000 -SHRA=
201906081430 METAR COR LRBS 081430Z 34005KT 280V020 9999 FEW040CB SCT045
                        30/19 Q1016 NOSIG=
201906081500 METAR LRBS 081500Z 05005KT 010V090 9999 FEW040CB SCT045 29/17
                        Q1016 NOSIG=
201906081530 METAR LRBS 081530Z 06006KT 010V070 9999 FEW045CB 28/19 Q1016
                        NOSIG=
201906081600 METAR LRBS 081600Z 10004KT 9999 FEW045CB 27/19 Q1016 NOSIG=
201906081630 METAR LRBS 081630Z 10004KT 9999 FEW045CB 26/18 Q1016 NOSIG=
201906081700 METAR LRBS 081700Z VRB01KT 9999 FEW045CB 25/19 Q1017 NOSIG=
201906081730 METAR LRBS 081730Z 09004KT 9999 FEW045CB 25/18 Q1017 NOSIG=
201906081800 METAR LRBS 081800Z VRB01KT 9999 FEW045CB 25/19 Q1017 BECMG
                        NSC=
201906081830 METAR COR LRBS 081830Z 03003KT CAVOK 25/19 Q1017 TEMPO -TSRA
                        SCT045CB=
201906081900 METAR LRBS 081900Z 32004KT 290V350 9999 FEW042CB 24/19 Q1018
                        TEMPO -TSRA=
201906081930 METAR COR LRBS 081930Z 01004KT 9999 FEW043CB 23/18 Q1018
                        BECMG NSC=
201906082000 METAR LRBS 082000Z VRB02KT CAVOK 23/18 Q1018 NOSIG=
201906082030 METAR LRBS 082030Z 02003KT 350V060 CAVOK 22/19 Q1018 NOSIG=
201906082100 METAR LRBS 082100Z VRB02KT CAVOK 22/19 Q1018 NOSIG=
201906082130 METAR LRBS 082130Z VRB02KT CAVOK 21/19 Q1018 NOSIG=
201906082200 METAR LRBS 082200Z 05003KT 020V090 CAVOK 21/18 Q1018 NOSIG=
201906082230 METAR COR LRBS 082230Z 07003KT CAVOK 20/17 Q1018 NOSIG=
201906082300 METAR LRBS 082300Z VRB02KT CAVOK 20/17 Q1018 NOSIG=
201906082330 METAR LRBS 082330Z 06004KT 040V100 9999 FEW042 19/17 Q1018
                        NOSIG=
201906090000 METAR LRBS 090000Z 05004KT 030V090 CAVOK 19/17 Q1019 NOSIG=
201906090030 METAR LRBS 090030Z 06003KT 040V100 9999 FEW046 19/17 Q1019
                        NOSIG=
201906090100 METAR COR LRBS 090100Z 05004KT 020V090 CAVOK 19/17 Q1019
                        NOSIG=
201906090130 METAR LRBS 090130Z 05003KT 020V090 CAVOK 19/17 Q1019 NOSIG=
201906090200 METAR LRBS 090200Z 05004KT 020V100 CAVOK 19/17 Q1019 NOSIG=
201906090230 METAR LRBS 090230Z 05003KT 030V090 CAVOK 19/17 Q1019 NOSIG=
201906090300 METAR LRBS 090300Z 04002KT CAVOK 19/17 Q1019 NOSIG=
201906090330 METAR LRBS 090330Z 06004KT CAVOK 19/17 Q1019 NOSIG=
201906090400 METAR LRBS 090400Z 04005KT CAVOK 21/17 Q1020 NOSIG=
201906090430 METAR LRBS 090430Z 05005KT CAVOK 22/17 Q1020 NOSIG=
201906090500 METAR LRBS 090500Z 05006KT CAVOK 23/17 Q1020 NOSIG=
201906090530 METAR LRBS 090530Z 05008KT CAVOK 23/17 Q1020 NOSIG=
201906090600 METAR LRBS 090600Z 06009KT CAVOK 23/17 Q1020 NOSIG=
201906090630 METAR LRBS 090630Z 04009KT CAVOK 24/18 Q1021 NOSIG=
201906090700 METAR LRBS 090700Z 05010KT CAVOK 24/18 Q1021 NOSIG=
201906090730 METAR LRBS 090730Z 04009KT CAVOK 25/18 Q1021 NOSIG=
201906090800 METAR LRBS 090800Z 05012KT 9999 FEW030 26/18 Q1021 NOSIG=
201906090830 METAR LRBS 090830Z 05011KT 010V070 CAVOK 26/18 Q1021 NOSIG=
201906090900 METAR LRBS 090900Z 04011KT CAVOK 27/17 Q1021 NOSIG=
201906090930 METAR LRBS 090930Z 08009KT CAVOK 27/18 Q1021 NOSIG=
201906091000 METAR LRBS 091000Z 07008KT 050V110 9999 FEW035 27/18 Q1020
                        NOSIG=
201906091030 METAR LRBS 091030Z 06009KT 020V080 9999 FEW036 27/18 Q1020
                        NOSIG=
201906091100 METAR LRBS 091100Z 04008KT 360V070 9999 FEW038 FEW045CB 27/18
                        Q1020 TEMPO 5000 TSRA=
201906091130 METAR LRBS 091130Z 03006KT 9999 SCT040 FEW045CB 28/18 Q1020
                        TEMPO VRB15G25KT 5000 TSRA=
201906091200 METAR LRBS 091200Z 01006KT 340V050 9999 FEW040 FEW045CB 28/18
                        Q1020 TEMPO VRB15G25KT 5000 TSRA=
201906091230 METAR LRBS 091230Z 03007KT 330V070 9999 FEW045CB 29/18 Q1019
                        TEMPO VRB15G25KT 5000 TSRA=
201906091300 METAR LRBS 091300Z 05010KT 010V070 9999 FEW045CB 29/17 Q1019
                        NOSIG=
201906091330 METAR LRBS 091330Z 04008KT 010V080 9999 FEW050CB 28/16 Q1019
                        NOSIG=
201906091400 METAR LRBS 091400Z 04008KT 010V070 9999 FEW050CB 28/16 Q1019
                        NOSIG=
201906091430 METAR LRBS 091430Z 05008KT 9999 FEW050CB 28/17 Q1019 NOSIG=
201906091500 METAR LRBS 091500Z 05007KT 9999 FEW050CB 29/16 Q1018 NOSIG=
201906091530 METAR COR LRBS 091530Z 05008KT 9999 FEW050CB 28/16 Q1018
                        NOSIG=
201906091600 METAR LRBS 091600Z 06006KT 9999 VCTS FEW050CB 28/17 Q1018
                        NOSIG=
201906091630 METAR LRBS 091630Z 05006KT 9999 FEW050CB 27/17 Q1018 NOSIG=
201906091700 METAR LRBS 091700Z AUTO 30007KT 9999 NCD 26/19 Q1019 NOSIG=
201906091730 METAR LRBS 091730Z 30007KT 9999 FEW050CB 25/20 Q1019 NOSIG=
201906091800 METAR LRBS 091800Z 31005KT 9999 FEW050CB 24/19 Q1018 NOSIG=
201906091830 METAR LRBS 091830Z 33004KT 9999 TS VCSH FEW045 BKN050CB 24/19
                        Q1019 TEMPO 5000 -TSRA=
201906091900 METAR LRBS 091900Z 01007KT 9999 -TSRA BKN044CB 23/18 Q1020
                        TEMPO 5000 -TSRA=
201906091930 METAR COR LRBS 091930Z 32004KT 9999 TS SCT048CB 21/19 Q1020
                        BECMG NSW=
201906092000 METAR LRBS 092000Z 34002KT CAVOK 21/18 Q1020 NOSIG=
201906092030 METAR LRBS 092030Z 36003KT 320V020 CAVOK 20/18 Q1020 NOSIG=
201906092100 METAR LRBS 092100Z 35003KT CAVOK 20/17 Q1020 NOSIG=
201906092130 METAR LRBS 092130Z 28001KT CAVOK 20/18 Q1019 NOSIG=
201906092200 METAR LRBS 092200Z VRB01KT CAVOK 20/17 Q1019 NOSIG=
201906092230 METAR LRBS 092230Z 27002KT CAVOK 19/17 Q1019 NOSIG=
201906092300 METAR LRBS 092300Z 00000KT CAVOK 19/17 Q1019 NOSIG=
201906092330 METAR LRBS 092330Z 29004KT CAVOK 18/16 Q1019 NOSIG=
201906100000 METAR LRBS 100000Z 27002KT CAVOK 18/16 Q1019 NOSIG=
201906100030 METAR LRBS 100030Z 27003KT CAVOK 18/17 Q1018 NOSIG=
201906100100 METAR LRBS 100100Z 27003KT CAVOK 18/17 Q1018 NOSIG=
201906100130 METAR LRBS 100130Z 29003KT CAVOK 18/17 Q1018 NOSIG=
201906100200 METAR LRBS 100200Z VRB02KT CAVOK 18/17 Q1018 NOSIG=
201906100230 METAR LRBS 100230Z 30005KT CAVOK 19/17 Q1018 NOSIG=
201906100300 METAR LRBS 100300Z 30005KT CAVOK 19/16 Q1018 NOSIG=
201906100330 METAR LRBS 100330Z 31003KT 280V340 CAVOK 19/17 Q1017 NOSIG=
201906100400 METAR LRBS 100400Z 34004KT CAVOK 20/16 Q1017 NOSIG=
201906100430 METAR LRBS 100430Z 33003KT CAVOK 21/16 Q1018 NOSIG=
201906100500 METAR LRBS 100500Z 34003KT CAVOK 22/17 Q1018 NOSIG=
201906100530 METAR LRBS 100530Z 01007KT 320V040 CAVOK 24/17 Q1018 NOSIG=
201906100600 METAR LRBS 100600Z 02009KT 350V050 CAVOK 25/17 Q1018 NOSIG=
201906100630 METAR LRBS 100630Z 02008KT 340V060 CAVOK 25/18 Q1017 NOSIG=
201906100700 METAR LRBS 100700Z 03010KT 360V060 CAVOK 26/18 Q1017 NOSIG=
201906100730 METAR LRBS 100730Z 03012KT CAVOK 27/18 Q1017 NOSIG=
201906100800 METAR LRBS 100800Z 03011KT 360V070 CAVOK 27/18 Q1017 NOSIG=
201906100830 METAR LRBS 100830Z 04010KT 360V070 9999 SCT036 28/18 Q1017
                        NOSIG=
201906100900 METAR LRBS 100900Z 03010KT 9999 SCT039 28/19 Q1017 NOSIG=
201906100930 METAR LRBS 100930Z 02011KT 350V050 9999 SCT044 27/17 Q1016
                        NOSIG=
201906101000 METAR LRBS 101000Z 03010KT 340V060 9999 BKN048 28/17 Q1016
                        NOSIG=
201906101030 METAR LRBS 101030Z 03011KT 360V060 CAVOK 28/17 Q1016 NOSIG=
201906101100 METAR LRBS 101100Z 05012KT CAVOK 29/18 Q1015 NOSIG=
201906101130 METAR LRBS 101130Z 04011KT 360V070 9999 BKN048 29/17 Q1015
                        NOSIG=
201906101200 METAR LRBS 101200Z 05013KT 010V070 9999 SCT049 29/18 Q1014
                        NOSIG=
201906101230 METAR LRBS 101230Z 05012KT 9999 SCT047 29/18 Q1014 NOSIG=
201906101300 METAR LRBS 101300Z 05013KT 020V090 9999 SCT043 29/19 Q1014
                        NOSIG=
201906101330 METAR LRBS 101330Z 03011KT 360V060 9999 SCT042 FEW045CB 28/18
                        Q1014 NOSIG=
201906101400 METAR LRBS 101400Z 05011KT 9999 -TSRA SCT037 SCT045CB 28/20
                        Q1013 R07/29//95 NOSIG=
201906101430 METAR COR LRBS 101430Z 03006G16KT 360V060 9999 TS SCT039
                        SCT045CB 26/20 Q1014 WS R07 R07/19//95
                        TEMPO 5000 TSRA=
201906101500 METAR LRBS 101500Z 01005KT 340V040 9999 SCT036 FEW045CB 25/19
                        Q1014 WS R07 R07/19//95 BECMG 04015G25KT
                        5000 TSRA=
201906101530 METAR LRBS 101530Z 02004KT 350V050 9999 VCTS SCT035 FEW045CB
                        25/20 Q1014 WS R07 R07/19//95 BECMG
                        04015G25KT 5000 TSRA=
201906101600 METAR LRBS 101600Z 05015KT 010V070 9999 -TSRA SCT040CB 24/17
                        Q1014 WS R07 R07/19//95 TEMPO 5000
                        TSRA=
201906101630 METAR LRBS 101630Z 02008KT 350V060 9999 -TSRA SCT040CB 21/17
                        Q1014 WS R07 R07/19//95 TEMPO VRB15G25KT
                        3000 TSRA=
201906101700 METAR LRBS 101700Z 04018G28KT 340V070 1500 +TSRA BKN050CB
                        19/17 Q1015 WS R07 R07/19//95 TEMPO
                        0800 +TSRAGR=
201906101730 METAR LRBS 101730Z 29005KT 9999 -SHRA VCTS SCT045CB 19/17
                        Q1014 R07/19//95 NOSIG=
201906101800 METAR LRBS 101800Z VRB01KT 9999 VCTS FEW050CB 19/17 Q1014
                        R07/19//95 NOSIG=
201906101830 METAR LRBS 101830Z 06002KT 9999 VCTS FEW050CB 20/18 Q1014
                        R07/19//95 NOSIG=
201906101900 METAR LRBS 101900Z 16002KT 9999 FEW050CB 20/19 Q1014 R07/19//95
                        NOSIG=
201906101930 METAR LRBS 101930Z 26002KT 9999 FEW050CB 20/19 Q1015 R07/19//95
                        NOSIG=
201906102000 METAR LRBS 102000Z 27005KT CAVOK 20/19 Q1014 R07/19//95 NOSIG=
201906102030 METAR LRBS 102030Z 28004KT CAVOK 20/18 Q1014 R07/19//95 NOSIG=
201906102100 METAR LRBS 102100Z 27005KT CAVOK 19/18 Q1014 R07/19//95 NOSIG=
201906102130 METAR LRBS 102130Z 28005KT CAVOK 19/18 Q1014 R07/19//95 NOSIG=
201906102200 METAR LRBS 102200Z 27005KT CAVOK 19/17 Q1013 R07/19//95 NOSIG=
201906102230 METAR LRBS 102230Z 28005KT CAVOK 19/17 Q1013 R07/19//95 NOSIG=
201906102300 METAR LRBS 102300Z VRB02KT 9999 -SHRA FEW050CB 19/17 Q1014
                        R07/19//95 NOSIG=
201906102330 METAR LRBS 102330Z 29005KT 9999 VCTS FEW050CB 19/18 Q1013
                        R07/19//95 NOSIG=
201906110000 METAR LRBS 110000Z 29003KT 230V320 CAVOK 19/18 Q1012 R07/19//95
                        NOSIG=
201906110030 METAR LRBS 110030Z 30005KT 9999 FEW050CB 19/17 Q1012 R07/19//95
                        TEMPO 5000 SHRA=
201906110100 METAR LRBS 110100Z 30005KT 9999 FEW050CB 19/17 Q1012 R07/19//95
                        TEMPO 5000 TSRA=
201906110130 METAR LRBS 110130Z 27003KT 9999 VCTS FEW050CB 19/18 Q1011
                        R07/19//95 TEMPO VRB15G25KT 3000
                        TSRA=
201906110200 METAR LRBS 110200Z VRB02KT 9999 -TSRA FEW045CB 19/18 Q1012
                        R07/19//95 TEMPO VRB15G25KT 3000
                        TSRA=
201906110230 METAR LRBS 110230Z 01003KT 330V060 9999 -TSRA FEW045CB 19/18
                        Q1012 R07/19//95 TEMPO 5000 TSRA=
201906110300 METAR LRBS 110300Z 01003KT 330V060 5000 TSRA SCT045CB 19/18
                        Q1012 R07/29//95 TEMPO 5000 TSRA=
201906110330 METAR LRBS 110330Z 01004KT 5000 -TSRA FEW034 SCT040CB 19/18
                        Q1012 R07/29//95 NOSIG=
201906110400 METAR LRBS 110400Z 36004KT 300V070 9999 -TSRA SCT040CB 19/18
                        Q1012 R07/29//95 NOSIG=
201906110430 METAR LRBS 110430Z 36005KT 320V030 9999 SCT040CB BKN049 19/18
                        Q1012 R07/29//95 NOSIG=
201906110500 METAR LRBS 110500Z 01007KT 9999 SCT038CB BKN048 20/18 Q1012
                        R07/29//95 NOSIG=
201906110530 METAR LRBS 110530Z 01006KT 340V040 9999 FEW045CB 20/18 Q1012
                        R07/29//95 NOSIG=
201906110600 METAR COR LRBS 110600Z 02006KT 350V060 9999 FEW050CB 22/19
                        Q1012 R07/29//95 BECMG NSC=
201906110630 METAR COR LRBS 110630Z 03007KT 360V070 9999 FEW027 FEW046CB
                        23/19 Q1012 R07/29//95 BECMG NSC=
201906110700 METAR COR LRBS 110700Z 03008KT 360V060 9999 BKN025 23/19
                        Q1012 R07/29//95 BECMG NSC=
201906110730 METAR LRBS 110730Z 05012KT 9999 BKN024 25/20 Q1012 R07/29//95
                        NOSIG=
201906110800 METAR LRBS 110800Z 05012KT 9999 BKN025 25/20 Q1012 R07/29//95
                        NOSIG=
201906110830 METAR LRBS 110830Z 06014KT 9999 FEW003 SCT026 25/20 Q1013
                        R07/29//95 NOSIG=
201906110900 METAR LRBS 110900Z 05012KT 9999 BKN027 25/20 Q1013 R07/29//95
                        NOSIG=
201906110930 METAR COR LRBS 110930Z 07011KT 030V090 9999 BKN027 26/20
                        Q1013 R07/29//95 NOSIG=
201906111000 METAR LRBS 111000Z 05010KT 9999 BKN027 26/20 Q1013 R07/29//95
                        TEMPO TS BKN025 SCT035CB=
201906111030 METAR LRBS 111030Z 04010KT 9999 -SHRA FEW024 FEW050CB 26/20
                        Q1013 R07/29//95 NOSIG=
201906111100 METAR LRBS 111100Z 03005KT 360V070 9999 FEW032 FEW050CB 25/20
                        Q1013 R07/29//95 BECMG NSC=
201906111130 METAR COR LRBS 111130Z 04009KT 9999 FEW050CB 27/21 Q1012
                        R07/29//95 NOSIG=
201906111200 METAR LRBS 111200Z 04009KT 360V070 9999 FEW050CB 26/20 Q1012
                        R07/29//95 NOSIG=
201906111230 METAR LRBS 111230Z 03006KT 360V090 9999 FEW050CB 26/20 Q1012
                        R07/29//95 NOSIG=
201906111300 METAR LRBS 111300Z 01003KT 9999 FEW050CB 25/20 Q1012 R07/29//95
                        NOSIG=
201906111330 METAR LRBS 111330Z VRB02KT 9999 FEW050CB 26/20 Q1012 R07/29//95
                        NOSIG=
201906111400 METAR LRBS 111400Z VRB02KT 9999 SCT050CB 25/21 Q1012 R07/29//95
                        NOSIG=
201906111430 METAR LRBS 111430Z 22010KT 9999 SCT050CB 23/19 Q1012 R07/29//95
                        NOSIG=
201906111500 METAR LRBS 111500Z 27008KT 240V310 9999 SCT050CB 22/19 Q1013
                        R07/29//95 NOSIG=
201906111530 METAR LRBS 111530Z 28005KT 240V330 9999 SCT050CB 21/17 Q1012
                        R07/29//95 NOSIG=
201906111600 METAR LRBS 111600Z 28004KT 250V310 9999 FEW050CB 20/17 Q1012
                        R07/29//95 NOSIG=
201906111630 METAR LRBS 111630Z 31004KT 260V010 CAVOK 20/17 Q1012 R07/29//95
                        NOSIG=
201906111700 METAR LRBS 111700Z 32004KT 280V020 CAVOK 20/17 Q1012 R07/29//95
                        NOSIG=
201906111730 METAR LRBS 111730Z 33005KT 270V010 CAVOK 21/18 Q1012 R07/CLRD//
                        NOSIG=
201906111800 METAR LRBS 111800Z 33004KT 270V020 CAVOK 20/18 Q1012 NOSIG=
201906111830 METAR LRBS 111830Z 32004KT 280V360 CAVOK 20/18 Q1013 NOSIG=
201906111900 METAR LRBS 111900Z VRB02KT CAVOK 20/18 Q1013 NOSIG=
201906111930 METAR LRBS 111930Z VRB02KT CAVOK 20/18 Q1013 NOSIG=
201906112000 METAR LRBS 112000Z VRB01KT CAVOK 20/18 Q1013 NOSIG=
201906112030 METAR LRBS 112030Z VRB02KT CAVOK 20/18 Q1013 NOSIG=
201906112100 METAR LRBS 112100Z 00000KT CAVOK 20/18 Q1012 NOSIG=
201906112130 METAR LRBS 112130Z VRB02KT CAVOK 20/18 Q1012 NOSIG=
201906112200 METAR LRBS 112200Z VRB02KT CAVOK 20/18 Q1012 NOSIG=
201906112230 METAR LRBS 112230Z 01004KT CAVOK 21/17 Q1012 NOSIG=
201906112300 METAR LRBS 112300Z 03005KT CAVOK 21/17 Q1012 NOSIG=
201906112330 METAR LRBS 112330Z 04003KT CAVOK 20/16 Q1012 NOSIG=
201906120000 METAR LRBS 120000Z 04006KT CAVOK 20/17 Q1012 NOSIG=
201906120030 METAR LRBS 120030Z 05005KT CAVOK 20/17 Q1012 NOSIG=
201906120100 METAR LRBS 120100Z AUTO 05004KT 9999 BKN170/// 20/17 Q1012
                        NOSIG=
201906120130 METAR LRBS 120130Z 08003KT CAVOK 19/17 Q1012 NOSIG=
201906120200 METAR LRBS 120200Z 08003KT CAVOK 19/17 Q1012 NOSIG=
201906120230 METAR LRBS 120230Z 36002KT CAVOK 20/17 Q1013 NOSIG=
201906120300 METAR LRBS 120300Z 03005KT CAVOK 21/17 Q1013 NOSIG=
201906120330 METAR LRBS 120330Z 00000KT CAVOK 20/17 Q1013 NOSIG=
201906120400 METAR LRBS 120400Z 32001KT CAVOK 21/17 Q1013 NOSIG=
201906120430 METAR LRBS 120430Z 27001KT CAVOK 21/18 Q1013 NOSIG=
201906120500 METAR LRBS 120500Z 26002KT CAVOK 21/18 Q1013 NOSIG=
201906120530 METAR LRBS 120530Z 27002KT CAVOK 21/18 Q1013 NOSIG=
201906120600 METAR LRBS 120600Z 00000KT CAVOK 22/18 Q1013 NOSIG=
201906120630 METAR LRBS 120630Z 00000KT CAVOK 22/19 Q1013 NOSIG=
201906120700 METAR LRBS 120700Z 26004KT CAVOK 23/19 Q1013 NOSIG=
201906120730 METAR LRBS 120730Z 25004KT CAVOK 24/19 Q1014 NOSIG=
201906120800 METAR LRBS 120800Z 26003KT 220V320 CAVOK 25/18 Q1014 NOSIG=
201906120830 METAR LRBS 120830Z 25003KT 190V280 CAVOK 26/19 Q1014 NOSIG=
201906120900 METAR LRBS 120900Z 36003KT CAVOK 27/16 Q1014 NOSIG=
201906120930 METAR LRBS 120930Z VRB02KT CAVOK 28/17 Q1014 NOSIG=
201906121000 METAR LRBS 121000Z 07004KT 360V130 CAVOK 30/17 Q1014 NOSIG=
201906121030 METAR LRBS 121030Z 04005KT 360V070 CAVOK 30/17 Q1014 NOSIG=
201906121100 METAR COR LRBS 121100Z 06005KT 030V090 CAVOK 30/17 Q1014
                        NOSIG=
201906121130 METAR COR LRBS 121130Z 06004KT 320V110 CAVOK 31/18 Q1013
                        NOSIG=
201906121200 METAR LRBS 121200Z 04005KT 360V090 9999 FEW040 30/18 Q1013
                        NOSIG=
201906121230 METAR COR LRBS 121230Z 02004KT 330V060 9999 FEW040 31/18
                        Q1013 NOSIG=
201906121300 METAR LRBS 121300Z 06008KT CAVOK 31/15 Q1013 NOSIG=
201906121330 METAR LRBS 121330Z 05009KT 010V080 CAVOK 31/13 Q1013 NOSIG=
201906121400 METAR LRBS 121400Z 06008KT CAVOK 31/16 Q1013 NOSIG=
201906121430 METAR LRBS 121430Z 03005KT CAVOK 29/16 Q1013 NOSIG=
201906121500 METAR LRBS 121500Z VRB02KT 9999 FEW050TCU 30/18 Q1013 NOSIG=
201906121530 METAR LRBS 121530Z 04005KT 9999 FEW050CB 29/17 Q1013 NOSIG=
201906121600 METAR LRBS 121600Z 01002KT 9999 FEW050CB 29/16 Q1013 NOSIG=
201906121630 METAR LRBS 121630Z 30007KT 9999 FEW050CB 26/18 Q1014 NOSIG=
201906121700 METAR LRBS 121700Z 30006KT 9999 FEW050CB 25/18 Q1014 NOSIG=
201906121730 METAR LRBS 121730Z 29005KT 9999 FEW050CB 25/18 Q1014 NOSIG=
201906121800 METAR LRBS 121800Z 29006KT CAVOK 24/18 Q1014 NOSIG=
201906121830 METAR LRBS 121830Z 30004KT CAVOK 24/18 Q1014 NOSIG=
201906121900 METAR COR LRBS 121900Z 31005KT CAVOK 23/18 Q1014 NOSIG=
201906121930 METAR LRBS 121930Z 31005KT CAVOK 23/18 Q1014 NOSIG=
201906122000 METAR LRBS 122000Z 32004KT CAVOK 23/18 Q1014 NOSIG=
201906122030 METAR COR LRBS 122030Z 31003KT 280V340 CAVOK 22/18 Q1014
                        NOSIG=
201906122100 METAR LRBS 122100Z 25002KT 190V290 CAVOK 21/18 Q1014 NOSIG=
201906122130 METAR LRBS 122130Z 30002KT CAVOK 21/18 Q1015 NOSIG=
201906122200 METAR LRBS 122200Z 25001KT CAVOK 21/18 Q1014 NOSIG=
201906122230 METAR LRBS 122230Z 28002KT 260V320 CAVOK 19/18 Q1014 NOSIG=
201906122300 METAR LRBS 122300Z 29001KT CAVOK 20/18 Q1014 NOSIG=
201906122330 METAR LRBS 122330Z 26003KT CAVOK 19/18 Q1015 NOSIG=
201906130000 METAR LRBS 130000Z 27002KT CAVOK 19/18 Q1014 NOSIG=
201906130030 METAR LRBS 130030Z 27002KT CAVOK 19/17 Q1014 NOSIG=
201906130100 METAR LRBS 130100Z 29003KT CAVOK 19/17 Q1014 NOSIG=
201906130130 METAR COR LRBS 130130Z 27003KT 230V300 CAVOK 18/16 Q1014
                        NOSIG=
201906130200 METAR LRBS 130200Z 26003KT 230V300 CAVOK 18/16 Q1014 NOSIG=
201906130230 METAR LRBS 130230Z 26003KT CAVOK 18/16 Q1014 NOSIG=
201906130300 METAR LRBS 130300Z 27003KT CAVOK 18/16 Q1015 NOSIG=
201906130330 METAR LRBS 130330Z 26004KT CAVOK 19/16 Q1015 NOSIG=
201906130400 METAR LRBS 130400Z 27003KT CAVOK 19/16 Q1015 NOSIG=
201906130430 METAR LRBS 130430Z 30004KT CAVOK 21/15 Q1015 NOSIG=
201906130500 METAR LRBS 130500Z 31003KT 280V350 CAVOK 22/16 Q1015 NOSIG=
201906130530 METAR LRBS 130530Z 30004KT 270V340 CAVOK 24/18 Q1015 NOSIG=
201906130600 METAR LRBS 130600Z 30004KT 260V320 CAVOK 26/15 Q1015 NOSIG=
201906130630 METAR LRBS 130630Z 29003KT 260V020 CAVOK 26/17 Q1016 NOSIG=
201906130700 METAR LRBS 130700Z 25004KT CAVOK 26/17 Q1016 NOSIG=
201906130730 METAR LRBS 130730Z VRB01KT CAVOK 29/18 Q1016 NOSIG=
201906130800 METAR LRBS 130800Z VRB01KT CAVOK 30/15 Q1016 NOSIG=
201906130830 METAR LRBS 130830Z VRB02KT CAVOK 30/16 Q1016 NOSIG=
201906130900 METAR LRBS 130900Z VRB02KT CAVOK 30/17 Q1016 NOSIG=
201906130930 METAR LRBS 130930Z 04002KT 310V110 CAVOK 31/15 Q1016 NOSIG=
201906131000 METAR LRBS 131000Z VRB02KT CAVOK 31/14 Q1016 NOSIG=
201906131030 METAR LRBS 131030Z VRB03KT CAVOK 31/16 Q1016 NOSIG=
201906131100 METAR LRBS 131100Z 04005KT 360V070 CAVOK 31/16 Q1016 NOSIG=
201906131130 METAR LRBS 131130Z 03004KT 360V090 9999 FEW050CB 32/14 Q1015
                        NOSIG=
201906131200 METAR LRBS 131200Z VRB03KT 9999 FEW050CB 32/16 Q1015 NOSIG=
201906131230 METAR LRBS 131230Z 01002KT 270V070 9999 FEW050CB 32/17 Q1015
                        NOSIG=
201906131300 METAR LRBS 131300Z 01003KT 290V090 9999 FEW050CB 32/15 Q1015
                        NOSIG=
201906131330 METAR LRBS 131330Z 04005KT 350V070 9999 FEW050CB 32/16 Q1015
                        NOSIG=
201906131400 METAR LRBS 131400Z 05004KT 360V100 9999 FEW050CB 32/15 Q1015
                        NOSIG=
201906131430 METAR LRBS 131430Z 02004KT 350V050 9999 FEW050CB 32/17 Q1015
                        NOSIG=
201906131500 METAR LRBS 131500Z 02007KT 9999 FEW050CB 29/18 Q1015 TEMPO
                        5000 TSRA=
201906131530 METAR LRBS 131530Z 36004KT 330V040 9999 FEW050CB 28/19 Q1015
                        TEMPO 5000 TSRA=
201906131600 METAR LRBS 131600Z VRB01KT 9999 -SHRA FEW050CB 27/17 Q1015
                        TEMPO 5000 TSRA=
201906131630 METAR LRBS 131630Z 05003KT 020V090 9999 FEW050CB 25/18 Q1015
                        BECMG NSC=
201906131700 METAR LRBS 131700Z VRB01KT 9999 FEW050CB 26/18 Q1015 BECMG
                        NSC=
201906131730 METAR LRBS 131730Z 01004KT 9999 FEW050CB 25/18 Q1015 BECMG
                        NSC=
201906131800 METAR LRBS 131800Z 01002KT 290V050 9999 FEW050CB 24/18 Q1015
                        BECMG NSC=
201906131830 METAR LRBS 131830Z 35004KT CAVOK 24/18 Q1015 BECMG NSC=
201906131900 METAR COR LRBS 131900Z VRB01KT CAVOK 24/18 Q1016 NOSIG=
201906131930 METAR LRBS 131930Z 34003KT CAVOK 24/19 Q1016 NOSIG=
201906132000 METAR LRBS 132000Z 33003KT CAVOK 23/19 Q1016 NOSIG=
201906132030 METAR LRBS 132030Z 35002KT 290V070 CAVOK 22/19 Q1016 NOSIG=
201906132100 METAR LRBS 132100Z 01003KT 340V060 CAVOK 21/18 Q1016 NOSIG=
201906132130 METAR LRBS 132130Z 00000KT CAVOK 21/19 Q1016 NOSIG=
201906132200 METAR LRBS 132200Z 33001KT 9999 NCD 21/19 Q1016 NOSIG=
201906132230 METAR LRBS 132230Z 00000KT CAVOK 20/18 Q1017=
201906132300 METAR LRBS 132300Z 34002KT 310V010 CAVOK 20/18 Q1016 NOSIG=
201906132330 METAR LRBS 132330Z VRB01KT CAVOK 20/18 Q1017 NOSIG=
201906140000 METAR LRBS 140000Z 00000KT CAVOK 20/18 Q1017 NOSIG=
201906140030 METAR LRBS 140030Z AUTO 04004KT 9999 NCD 20/18 Q1016 NOSIG=
201906140100 METAR LRBS 140100Z 05002KT CAVOK 19/17 Q1016 NOSIG=
201906140130 METAR LRBS 140130Z 01002KT CAVOK 20/17 Q1016 NOSIG=
201906140200 METAR LRBS 140200Z 36003KT CAVOK 19/17 Q1016 NOSIG=
201906140230 METAR LRBS 140230Z VRB01KT CAVOK 18/17 Q1017 NOSIG=
201906140300 METAR LRBS 140300Z 04002KT 350V080 CAVOK 19/17 Q1017 NOSIG=
201906140330 METAR LRBS 140330Z 02001KT CAVOK 20/17 Q1017 NOSIG=
201906140400 METAR LRBS 140400Z 36002KT 310V050 CAVOK 21/17 Q1017 NOSIG=
201906140430 METAR LRBS 140430Z 27002KT CAVOK 21/18 Q1017 NOSIG=
201906140500 METAR LRBS 140500Z 35002KT 250V040 CAVOK 22/18 Q1017 NOSIG=
201906140530 METAR LRBS 140530Z 03003KT 320V070 CAVOK 24/16 Q1017 NOSIG=
201906140600 METAR LRBS 140600Z 03004KT 340V070 CAVOK 25/17 Q1018 NOSIG=
201906140630 METAR LRBS 140630Z 05005KT 020V090 CAVOK 25/17 Q1018 NOSIG=
201906140700 METAR LRBS 140700Z 02005KT 320V080 CAVOK 26/16 Q1018 NOSIG=
201906140730 METAR LRBS 140730Z 03004KT 310V100 CAVOK 26/17 Q1018 NOSIG=
201906140800 METAR LRBS 140800Z 02003KT 310V070 CAVOK 28/18 Q1018 NOSIG=
201906140830 METAR LRBS 140830Z 04005KT 340V100 CAVOK 28/15 Q1018 NOSIG=
201906140900 METAR LRBS 140900Z 05005KT 360V120 CAVOK 29/17 Q1018 NOSIG=
201906140930 METAR LRBS 140930Z 05007KT 020V080 CAVOK 29/17 Q1018 NOSIG=
201906141000 METAR LRBS 141000Z 02006KT 350V070 CAVOK 29/16 Q1018 NOSIG=
201906141030 METAR LRBS 141030Z 01006KT 340V050 CAVOK 30/15 Q1018 NOSIG=
201906141100 METAR LRBS 141100Z 01006KT 330V050 CAVOK 30/16 Q1018 NOSIG=
201906141130 METAR LRBS 141130Z 01006KT 340V040 CAVOK 31/17 Q1017 NOSIG=
201906141200 METAR LRBS 141200Z 36006KT 320V030 CAVOK 30/17 Q1017 NOSIG=
201906141230 METAR LRBS 141230Z 01007KT 330V040 CAVOK 31/17 Q1017 NOSIG=
201906141300 METAR LRBS 141300Z 02006KT 340V070 CAVOK 31/16 Q1017 NOSIG=
201906141330 METAR LRBS 141330Z 02006KT CAVOK 31/17 Q1016 NOSIG=
201906141400 METAR LRBS 141400Z 36006KT 330V070 CAVOK 31/17 Q1016 NOSIG=
201906141430 METAR LRBS 141430Z 01005KT 330V050 CAVOK 31/17 Q1016 NOSIG=
201906141500 METAR LRBS 141500Z 05007KT 010V070 CAVOK 30/19 Q1016 NOSIG=
201906141530 METAR COR LRBS 141530Z 05009KT CAVOK 30/19 Q1016 BECMG SCT050CB=
201906141600 METAR LRBS 141600Z 05008KT CAVOK 30/19 Q1017 NOSIG=
201906141630 METAR LRBS 141630Z 04005KT CAVOK 28/19 Q1016 NOSIG=
201906141700 METAR LRBS 141700Z 03004KT CAVOK 28/18 Q1016 NOSIG=
201906141730 METAR LRBS 141730Z 03005KT 010V070 CAVOK 27/18 Q1017 NOSIG=
201906141800 METAR LRBS 141800Z 02003KT CAVOK 26/19 Q1016 NOSIG=
201906141830 METAR LRBS 141830Z 01005KT CAVOK 26/18 Q1017 NOSIG=
201906141900 METAR LRBS 141900Z 03004KT CAVOK 25/18 Q1017 NOSIG=
201906141930 METAR LRBS 141930Z 02004KT CAVOK 24/17 Q1017 NOSIG=
201906142000 METAR LRBS 142000Z 02005KT 360V060 CAVOK 24/15 Q1017 NOSIG=
201906142030 METAR LRBS 142030Z 01005KT 340V040 CAVOK 24/14 Q1017 NOSIG=
201906142100 METAR LRBS 142100Z 02003KT 350V060 CAVOK 24/16 Q1017 NOSIG=
201906142130 METAR LRBS 142130Z 26005KT CAVOK 22/16 Q1017 NOSIG=
201906142200 METAR LRBS 142200Z 33003KT CAVOK 22/17 Q1017 NOSIG=
201906142230 METAR LRBS 142230Z VRB01KT CAVOK 21/18 Q1017 NOSIG=
201906142300 METAR LRBS 142300Z 28003KT 240V310 CAVOK 21/18 Q1017 NOSIG=
201906142330 METAR LRBS 142330Z 29004KT CAVOK 21/18 Q1017 NOSIG=
201906150000 METAR LRBS 150000Z 30005KT CAVOK 21/18 Q1016 NOSIG=
201906150030 METAR LRBS 150030Z 29003KT CAVOK 20/18 Q1016 NOSIG=
201906150100 METAR LRBS 150100Z 30003KT 240V320 CAVOK 21/17 Q1016 NOSIG=
201906150130 METAR LRBS 150130Z 32002KT 280V360 CAVOK 21/17 Q1016 NOSIG=
201906150200 METAR LRBS 150200Z 33003KT CAVOK 21/16 Q1016 NOSIG=
201906150230 METAR LRBS 150230Z 33003KT CAVOK 21/17 Q1016 NOSIG=
201906150300 METAR LRBS 150300Z 31002KT 260V010 CAVOK 21/17 Q1016 NOSIG=
201906150330 METAR LRBS 150330Z 33004KT CAVOK 21/17 Q1016 NOSIG=
201906150400 METAR LRBS 150400Z 34002KT 310V010 CAVOK 21/17 Q1016 NOSIG=
201906150430 METAR LRBS 150430Z 36003KT 320V040 CAVOK 22/17 Q1017 NOSIG=
201906150500 METAR LRBS 150500Z 01003KT 350V060 CAVOK 22/17 Q1017 NOSIG=
201906150530 METAR LRBS 150530Z 02002KT 360V060 CAVOK 24/17 Q1017 NOSIG=
201906150600 METAR LRBS 150600Z 03002KT 350V050 CAVOK 24/17 Q1017 NOSIG=
201906150630 METAR LRBS 150630Z 05002KT 020V080 CAVOK 25/17 Q1017 NOSIG=
201906150700 METAR LRBS 150700Z 06003KT 040V110 CAVOK 26/17 Q1017 NOSIG=
201906150730 METAR LRBS 150730Z 06005KT 360V080 CAVOK 27/18 Q1017 NOSIG=
201906150800 METAR LRBS 150800Z 05007KT CAVOK 28/18 Q1017 NOSIG=
201906150830 METAR LRBS 150830Z 06009KT CAVOK 28/18 Q1017 NOSIG=
201906150900 METAR LRBS 150900Z 05007KT 020V090 CAVOK 29/18 Q1017 NOSIG=
201906150930 METAR LRBS 150930Z 07006KT CAVOK 29/19 Q1016 NOSIG=
201906151000 METAR LRBS 151000Z 08006KT 020V110 CAVOK 30/20 Q1016 NOSIG=
201906151030 METAR LRBS 151030Z 05006KT 010V090 CAVOK 30/19 Q1016 NOSIG=
201906151100 METAR LRBS 151100Z 07005KT CAVOK 30/19 Q1016 NOSIG=
201906151130 METAR LRBS 151130Z 05004KT 350V090 CAVOK 31/19 Q1015 NOSIG=
201906151200 METAR LRBS 151200Z 04004KT 360V150 CAVOK 31/19 Q1015 NOSIG=
201906151230 METAR LRBS 151230Z 03005KT 330V080 9999 VCTS FEW050CB 32/18
                        Q1015 NOSIG=
201906151300 METAR LRBS 151300Z 36004KT 310V020 9999 FEW050CB 31/18 Q1015
                        NOSIG=
201906151330 METAR LRBS 151330Z 35009KT 320V040 9999 FEW050CB 28/17 Q1015
                        NOSIG=
201906151400 METAR LRBS 151400Z 34008KT 310V010 9999 FEW050CB 28/18 Q1014
                        NOSIG=
201906151430 METAR LRBS 151430Z 34007KT 310V020 9999 VCTS FEW050CB 28/16
                        Q1014 NOSIG=
201906151500 METAR LRBS 151500Z 34006KT 9999 FEW050CB 27/17 Q1015 NOSIG=
201906151530 METAR LRBS 151530Z 29008KT 260V320 CAVOK 26/19 Q1014 NOSIG=
201906151600 METAR LRBS 151600Z 30009KT CAVOK 26/18 Q1014 NOSIG=
201906151630 METAR LRBS 151630Z 35004KT 320V040 CAVOK 26/17 Q1015 NOSIG=
201906151700 METAR LRBS 151700Z 07005KT 020V100 CAVOK 26/18 Q1015 NOSIG=
201906151730 METAR LRBS 151730Z 12004KT CAVOK 26/17 Q1015 NOSIG=
201906151800 METAR LRBS 151800Z 15004KT CAVOK 25/17 Q1015 NOSIG=
201906151830 METAR COR LRBS 151830Z 18004KT CAVOK 24/18 Q1015 NOSIG=
201906151900 METAR LRBS 151900Z VRB02KT CAVOK 24/17 Q1015 NOSIG=
201906151930 METAR LRBS 151930Z 22001KT CAVOK 24/17 Q1014 NOSIG=
201906152000 METAR LRBS 152000Z VRB01KT CAVOK 23/17 Q1015 NOSIG=
201906152030 METAR LRBS 152030Z 27004KT 240V300 CAVOK 23/17 Q1015 NOSIG=
201906152100 METAR LRBS 152100Z 30003KT 280V340 CAVOK 22/18 Q1015 NOSIG=
201906152130 METAR LRBS 152130Z 31003KT 270V350 CAVOK 22/18 Q1015 NOSIG=
201906152200 METAR LRBS 152200Z VRB02KT CAVOK 21/18 Q1015 NOSIG=
201906152230 METAR LRBS 152230Z VRB01KT CAVOK 21/18 Q1014 NOSIG=
201906152300 METAR LRBS 152300Z 28002KT CAVOK 21/18 Q1014 NOSIG=
201906152330 METAR LRBS 152330Z VRB02KT CAVOK 20/18 Q1014 NOSIG=
201906160000 METAR LRBS 160000Z VRB02KT CAVOK 20/18 Q1014 NOSIG=
201906160030 METAR LRBS 160030Z VRB01KT CAVOK 20/18 Q1014 NOSIG=
201906160100 METAR LRBS 160100Z VRB01KT CAVOK 20/18 Q1013 NOSIG=
201906160130 METAR LRBS 160130Z 27002KT CAVOK 20/18 Q1013 NOSIG=
201906160200 METAR LRBS 160200Z 29002KT CAVOK 20/18 Q1013 NOSIG=
201906160230 METAR LRBS 160230Z VRB01KT CAVOK 19/18 Q1013 NOSIG=
201906160300 METAR LRBS 160300Z 26002KT CAVOK 19/17 Q1013 NOSIG=
201906160330 METAR LRBS 160330Z VRB02KT CAVOK 19/17 Q1013 NOSIG=
201906160400 METAR LRBS 160400Z VRB01KT CAVOK 20/17 Q1013 NOSIG=
201906160430 METAR LRBS 160430Z VRB02KT CAVOK 21/17 Q1013 NOSIG=
201906160500 METAR LRBS 160500Z VRB02KT CAVOK 22/18 Q1014 NOSIG=
201906160530 METAR LRBS 160530Z VRB02KT CAVOK 24/18 Q1014 NOSIG=
201906160600 METAR COR LRBS 160600Z VRB01KT CAVOK 25/17 Q1014 NOSIG=
201906160630 METAR LRBS 160630Z VRB02KT CAVOK 27/18 Q1014 NOSIG=
201906160700 METAR LRBS 160700Z 04004KT 360V090 CAVOK 28/19 Q1014 NOSIG=
201906160730 METAR LRBS 160730Z 09005KT 060V120 CAVOK 28/18 Q1014 NOSIG=
201906160800 METAR LRBS 160800Z 10005KT 060V140 CAVOK 28/19 Q1014 NOSIG=
201906160830 METAR LRBS 160830Z 10004KT 050V150 CAVOK 29/19 Q1014 NOSIG=
201906160900 METAR LRBS 160900Z 07004KT 330V110 CAVOK 29/19 Q1014 NOSIG=
201906160930 METAR LRBS 160930Z 07004KT 010V100 9999 FEW050CB 30/19 Q1014
                        NOSIG=
201906161000 METAR LRBS 161000Z VRB02KT 9999 FEW040 FEW050CB 30/18 Q1014
                        NOSIG=
201906161030 METAR LRBS 161030Z VRB01KT 9999 FEW040 FEW050CB 30/17 Q1013
                        NOSIG=
201906161100 METAR LRBS 161100Z 01005KT 350V100 9999 SCT049 FEW050CB 31/18
                        Q1013 NOSIG=
201906161130 METAR LRBS 161130Z VRB02KT 9999 FEW050CB 31/19 Q1013 NOSIG=
201906161200 METAR COR LRBS 161200Z 06005KT 010V080 9999 FEW050CB 31/17
                        Q1012 NOSIG=
201906161230 METAR LRBS 161230Z 09005KT 030V140 9999 VCTS FEW050CB 31/19
                        Q1012 NOSIG=
201906161300 METAR LRBS 161300Z 04004KT 350V070 9999 VCTS SCT050CB 31/18
                        Q1012 NOSIG=
201906161330 METAR LRBS 161330Z 02004KT 300V080 9999 SCT050CB 31/19 Q1012
                        NOSIG=
201906161400 METAR LRBS 161400Z 26009KT 230V300 9999 SCT054CB 27/19 Q1012
                        NOSIG=
201906161430 METAR LRBS 161430Z 30006KT 280V340 9999 FEW054CB 27/19 Q1012
                        NOSIG=
201906161500 METAR LRBS 161500Z 29005KT 9999 FEW050CB 26/19 Q1012 NOSIG=
201906161530 METAR LRBS 161530Z 29005KT 260V320 9999 FEW050TCU 26/18 Q1012
                        NOSIG=
201906161600 METAR LRBS 161600Z 29005KT 9999 FEW050CB 26/18 Q1012 NOSIG=
201906161630 METAR LRBS 161630Z 33004KT 300V360 9999 FEW050CB 26/19 Q1012
                        NOSIG=
201906161700 METAR LRBS 161700Z 29004KT 260V320 9999 FEW050CB 26/19 Q1012
                        NOSIG=
201906161730 METAR LRBS 161730Z VRB02KT 9999 FEW050CB 26/19 Q1012 TEMPO
                        VRB15G25KT -TSRA=
201906161800 METAR LRBS 161800Z 32003KT 280V050 9999 FEW050CB 25/20 Q1012
                        NOSIG=
201906161830 METAR LRBS 161830Z VRB02KT 8000 FEW050CB 25/20 Q1013 NOSIG=
201906161900 METAR LRBS 161900Z VRB02KT 8000 FEW050CB 24/20 Q1013 NOSIG=
201906161930 METAR LRBS 161930Z 21001KT CAVOK 24/20 Q1013 NOSIG=
201906162000 METAR LRBS 162000Z 33004KT CAVOK 23/20 Q1013 NOSIG=
201906162030 METAR LRBS 162030Z VRB01KT CAVOK 23/20 Q1013 NOSIG=
201906162100 METAR LRBS 162100Z VRB02KT CAVOK 22/19 Q1013 NOSIG=
201906162130 METAR LRBS 162130Z 36002KT CAVOK 21/19 Q1012 NOSIG=
201906162200 METAR LRBS 162200Z VRB02KT CAVOK 21/19 Q1013 NOSIG=
201906162230 METAR LRBS 162230Z 33003KT 300V360 CAVOK 21/18 Q1012 NOSIG=
201906162300 METAR LRBS 162300Z VRB02KT CAVOK 20/18 Q1013 NOSIG=
201906162330 METAR LRBS 162330Z 01003KT 340V040 CAVOK 20/18 Q1014=
201906170000 METAR LRBS 170000Z 32003KT 280V340 CAVOK 20/18 Q1013=
201906170030 METAR LRBS 170030Z 34003KT 300V020 CAVOK 20/18 Q1013 NOSIG=
201906170100 METAR LRBS 170100Z VRB02KT CAVOK 20/18 Q1013 NOSIG=
201906170130 METAR LRBS 170130Z 04002KT CAVOK 20/18 Q1013 NOSIG=
201906170200 METAR LRBS 170200Z 00000KT CAVOK 19/18 Q1013 NOSIG=
201906170230 METAR LRBS 170230Z 02002KT CAVOK 19/18 Q1013 NOSIG=
201906170300 METAR LRBS 170300Z 32002KT CAVOK 19/18 Q1013 NOSIG=
201906170330 METAR COR LRBS 170330Z VRB02KT CAVOK 20/18 Q1014 NOSIG=
201906170400 METAR LRBS 170400Z 00000KT CAVOK 21/19 Q1014 NOSIG=
201906170430 METAR LRBS 170430Z 24002KT CAVOK 22/19 Q1014 NOSIG=
201906170500 METAR LRBS 170500Z VRB01KT CAVOK 23/19 Q1014 NOSIG=
201906170530 METAR LRBS 170530Z 26003KT 220V320 CAVOK 24/19 Q1014 NOSIG=
201906170600 METAR LRBS 170600Z VRB02KT CAVOK 25/19 Q1014 NOSIG=
201906170630 METAR LRBS 170630Z 25003KT 210V300 CAVOK 26/20 Q1014 NOSIG=
201906170700 METAR LRBS 170700Z 04004KT 360V110 CAVOK 28/20 Q1014 NOSIG=
201906170730 METAR LRBS 170730Z 03005KT 350V110 CAVOK 28/20 Q1014 NOSIG=
201906170800 METAR LRBS 170800Z 36003KT 320V100 CAVOK 29/19 Q1014 NOSIG=
201906170830 METAR LRBS 170830Z 04004KT 340V110 CAVOK 30/20 Q1014 NOSIG=
201906170900 METAR LRBS 170900Z 02004KT 320V080 CAVOK 30/20 Q1014 NOSIG=
201906170930 METAR LRBS 170930Z 05006KT 360V080 CAVOK 31/19 Q1014 NOSIG=
201906171000 METAR LRBS 171000Z 03004KT 9999 FEW048 31/20 Q1014 NOSIG=
201906171030 METAR LRBS 171030Z 03005KT 300V060 9999 FEW050CB 32/20 Q1014
                        NOSIG=
201906171100 METAR LRBS 171100Z 03007KT 350V060 9999 FEW050CB 32/18 Q1014
                        NOSIG=
201906171130 METAR LRBS 171130Z 03006KT 350V060 9999 FEW050CB 32/19 Q1013
                        NOSIG=
201906171200 METAR LRBS 171200Z 03007KT 360V060 9999 VCTS FEW050CB 33/16
                        Q1013 NOSIG=
201906171230 METAR LRBS 171230Z 02009KT 350V050 9999 FEW050CB 33/18 Q1013
                        NOSIG=
201906171300 METAR LRBS 171300Z 04009KT 9999 FEW050CB 32/18 Q1013 NOSIG=
201906171330 METAR LRBS 171330Z 06010KT 9999 TS FEW050CB 33/19 Q1013 TEMPO
                        5000 TSRA=
201906171400 METAR LRBS 171400Z 08008KT 9999 FEW050CB 30/19 Q1013 RETS
                        NOSIG=
201906171430 METAR LRBS 171430Z 08006KT 9999 FEW050CB 30/20 Q1013 NOSIG=
201906171500 METAR LRBS 171500Z 07004KT 040V100 9999 FEW050CB 30/20 Q1013
                        TEMPO VRB20G30KT 3000 TSRA=
201906171530 METAR LRBS 171530Z 06004KT 030V090 9999 FEW050CB 29/20 Q1013
                        NOSIG=
201906171600 METAR LRBS 171600Z 06005KT 040V100 9999 FEW050CB 29/21 Q1013
                        NOSIG=
201906171630 METAR LRBS 171630Z 36003KT 330V030 9999 FEW050CB 29/20 Q1013
                        NOSIG=
201906171700 METAR LRBS 171700Z VRB02KT CAVOK 28/21 Q1013 NOSIG=
201906171730 METAR LRBS 171730Z 29004KT 270V330 9999 FEW050CB 26/20 Q1013
                        NOSIG=
201906171800 METAR LRBS 171800Z 30005KT CAVOK 25/20 Q1013 NOSIG=
201906171830 METAR LRBS 171830Z 29005KT CAVOK 25/20 Q1014 NOSIG=
201906171900 METAR LRBS 171900Z 25003KT CAVOK 24/21 Q1014 NOSIG=
201906171930 METAR LRBS 171930Z 26003KT CAVOK 24/21 Q1014 NOSIG=
201906172000 METAR LRBS 172000Z VRB02KT CAVOK 24/21 Q1014 NOSIG=
201906172030 METAR LRBS 172030Z 01006KT CAVOK 25/20 Q1014 NOSIG=
201906172100 METAR LRBS 172100Z 01005KT CAVOK 24/20 Q1015 NOSIG=
201906172130 METAR LRBS 172130Z 03004KT CAVOK 24/20 Q1015 NOSIG=
201906172200 METAR LRBS 172200Z AUTO 04005KT 9999 NCD 23/20 Q1015 NOSIG=
201906172230 METAR LRBS 172230Z 04010KT CAVOK 23/19 Q1015 NOSIG=
201906172300 METAR COR LRBS 172300Z 05014KT CAVOK 23/18 Q1015 NOSIG=
201906172330 METAR LRBS 172330Z 05011KT CAVOK 23/18 Q1015 NOSIG=
201906180000 METAR LRBS 180000Z 04007KT CAVOK 22/18 Q1015 NOSIG=
201906180030 METAR LRBS 180030Z 04007KT CAVOK 22/18 Q1015 NOSIG=
201906180100 METAR LRBS 180100Z 04006KT CAVOK 22/18 Q1015 NOSIG=
201906180130 METAR LRBS 180130Z AUTO 05005KT 9999 NCD 21/17 Q1015 NOSIG=
201906180200 METAR COR LRBS 180200Z 04005KT CAVOK 22/17 Q1015 NOSIG=
201906180230 METAR LRBS 180230Z 03004KT CAVOK 22/17 Q1015 NOSIG=
201906180300 METAR LRBS 180300Z VRB02KT CAVOK 21/17 Q1015 NOSIG=
201906180330 METAR LRBS 180330Z VRB01KT CAVOK 22/17 Q1015 NOSIG=
201906180400 METAR LRBS 180400Z VRB02KT CAVOK 22/18 Q1016 NOSIG=
201906180430 METAR LRBS 180430Z 26003KT CAVOK 22/19 Q1016 NOSIG=
201906180500 METAR LRBS 180500Z 29003KT 260V340 CAVOK 23/19 Q1016 NOSIG=
201906180530 METAR LRBS 180530Z 01003KT CAVOK 24/18 Q1016 NOSIG=
201906180600 METAR LRBS 180600Z 04010KT CAVOK 24/18 Q1017 NOSIG=
201906180630 METAR LRBS 180630Z 05009KT 010V070 CAVOK 25/18 Q1017 NOSIG=
201906180700 METAR LRBS 180700Z 04007KT 360V090 CAVOK 25/18 Q1017 NOSIG=
201906180730 METAR LRBS 180730Z 05007KT 020V080 CAVOK 26/19 Q1017 NOSIG=
201906180800 METAR LRBS 180800Z 05010KT 020V080 CAVOK 26/18 Q1017 NOSIG=
201906180830 METAR LRBS 180830Z 06009KT CAVOK 26/17 Q1017 NOSIG=
201906180900 METAR LRBS 180900Z 05008KT CAVOK 26/18 Q1017 NOSIG=
201906180930 METAR LRBS 180930Z 06009KT CAVOK 27/18 Q1017 NOSIG=
201906181000 METAR LRBS 181000Z 04007KT 010V070 CAVOK 28/18 Q1017 NOSIG=
201906181030 METAR LRBS 181030Z 07010KT CAVOK 29/17 Q1016 NOSIG=
201906181100 METAR LRBS 181100Z 04007KT 010V080 CAVOK 29/17 Q1016 NOSIG=
201906181130 METAR LRBS 181130Z 03007KT 350V080 CAVOK 30/17 Q1016 NOSIG=
201906181200 METAR LRBS 181200Z 36007KT 340V040 CAVOK 30/18 Q1015 NOSIG=
201906181230 METAR LRBS 181230Z 05005KT 360V100 CAVOK 30/17 Q1015 BECMG
                        FEW045CB=
201906181300 METAR LRBS 181300Z 06006KT 020V100 9999 FEW050TCU 30/17 Q1015
                        BECMG FEW045CB=
201906181330 METAR LRBS 181330Z 02005KT 280V060 9999 FEW056TCU 30/17 Q1015
                        BECMG FEW045CB=
201906181400 METAR LRBS 181400Z 02005KT 340V050 CAVOK 30/17 Q1014 NOSIG=
201906181430 METAR LRBS 181430Z 33008KT 290V360 CAVOK 28/17 Q1014 TEMPO
                        FEW050CB=
201906181500 METAR LRBS 181500Z 33008KT CAVOK 28/17 Q1014 TEMPO FEW050CB=
201906181530 METAR LRBS 181530Z 30008KT 9999 FEW060TCU 28/18 Q1014 NOSIG=
201906181600 METAR LRBS 181600Z 33006KT 9999 FEW050TCU 28/18 Q1014 NOSIG=
201906181630 METAR LRBS 181630Z 36004KT 320V040 CAVOK 28/18 Q1014 NOSIG=
201906181700 METAR LRBS 181700Z 35005KT CAVOK 27/17 Q1014 NOSIG=
201906181730 METAR LRBS 181730Z 01004KT CAVOK 26/17 Q1014 NOSIG=
201906181800 METAR LRBS 181800Z 02003KT 340V050 9999 FEW050TCU 26/18 Q1014
                        NOSIG=
201906181830 METAR LRBS 181830Z 05002KT 9999 FEW050CB 24/18 Q1015 NOSIG=
201906181900 METAR LRBS 181900Z 03002KT 9999 FEW050CB 24/18 Q1015 NOSIG=
201906181930 METAR LRBS 181930Z 05004KT 9999 FEW050CB 24/18 Q1015 NOSIG=
201906182000 METAR LRBS 182000Z 06004KT 9999 FEW050CB 23/19 Q1015 NOSIG=
201906182030 METAR LRBS 182030Z 02004KT 9999 FEW050CB 23/18 Q1015 NOSIG=
201906182100 METAR LRBS 182100Z 02003KT 9999 FEW050CB 23/18 Q1015 NOSIG=
201906182130 METAR LRBS 182130Z 03003KT 9999 FEW050CB 22/17 Q1015 NOSIG=
201906182200 METAR LRBS 182200Z 02004KT 9999 FEW050CB 22/18 Q1015 NOSIG=
201906182230 METAR LRBS 182230Z 02004KT 9999 TS FEW050CB 22/18 Q1015 TEMPO
                        5000 -TSRA=
201906182300 METAR LRBS 182300Z 01004KT 9999 FEW050CB 22/17 Q1015 RETS
                        NOSIG=
201906182330 METAR COR LRBS 182330Z 01003KT 9999 FEW050CB 22/17 Q1015
                        NOSIG=
201906190000 METAR LRBS 190000Z 01003KT 9999 FEW050CB 22/17 Q1015 NOSIG=
201906190030 METAR LRBS 190030Z 03002KT CAVOK 21/17 Q1015 NOSIG=
201906190100 METAR LRBS 190100Z 02001KT CAVOK 20/17 Q1015 NOSIG=
201906190130 METAR LRBS 190130Z VRB02KT CAVOK 20/18 Q1015 NOSIG=
201906190200 METAR LRBS 190200Z 03002KT CAVOK 19/17 Q1015 NOSIG=
201906190230 METAR LRBS 190230Z 00000KT CAVOK 19/17 Q1015 NOSIG=
201906190300 METAR LRBS 190300Z 03003KT CAVOK 19/17 Q1015 NOSIG=
201906190330 METAR LRBS 190330Z 01002KT CAVOK 20/17 Q1015 NOSIG=
201906190400 METAR LRBS 190400Z 04003KT CAVOK 20/17 Q1015 NOSIG=
201906190430 METAR LRBS 190430Z 06006KT 040V100 CAVOK 21/18 Q1015 NOSIG=
201906190500 METAR LRBS 190500Z 04005KT 010V070 CAVOK 22/18 Q1015 NOSIG=
201906190530 METAR LRBS 190530Z 04006KT CAVOK 23/18 Q1015 NOSIG=
201906190600 METAR LRBS 190600Z 05008KT CAVOK 24/18 Q1015 NOSIG=
201906190630 METAR LRBS 190630Z 05007KT CAVOK 24/18 Q1015 NOSIG=
201906190700 METAR LRBS 190700Z 07009KT CAVOK 25/18 Q1015 NOSIG=
201906190730 METAR LRBS 190730Z 07009KT CAVOK 25/18 Q1015 NOSIG=
201906190800 METAR LRBS 190800Z 06007KT CAVOK 26/19 Q1015 NOSIG=
201906190830 METAR LRBS 190830Z 08009KT 9999 FEW031 27/18 Q1015 NOSIG=
201906190900 METAR LRBS 190900Z 09009KT CAVOK 28/18 Q1015 NOSIG=
201906190930 METAR LRBS 190930Z 06009KT 9999 FEW044 29/16 Q1015 NOSIG=
201906191000 METAR COR LRBS 191000Z 07008KT 040V130 CAVOK 29/14 Q1015
                        NOSIG=
201906191030 METAR LRBS 191030Z 08009KT 040V100 CAVOK 30/15 Q1014 NOSIG=
201906191100 METAR LRBS 191100Z 09010KT 060V120 CAVOK 30/13 Q1014 NOSIG=
201906191130 METAR LRBS 191130Z 08009KT 050V120 CAVOK 30/14 Q1014 NOSIG=
201906191200 METAR LRBS 191200Z 12006KT 080V170 CAVOK 30/13 Q1013 NOSIG=
201906191230 METAR LRBS 191230Z 09005KT 050V160 CAVOK 30/13 Q1013 NOSIG=
201906191300 METAR LRBS 191300Z 13007KT 100V170 CAVOK 30/12 Q1013 NOSIG=
201906191330 METAR LRBS 191330Z 08005KT 020V150 CAVOK 30/12 Q1012 NOSIG=
201906191400 METAR LRBS 191400Z 07006KT 040V120 CAVOK 30/12 Q1013 NOSIG=
201906191430 METAR LRBS 191430Z 07008KT CAVOK 30/13 Q1013 NOSIG=
201906191500 METAR LRBS 191500Z 06005KT 010V110 CAVOK 30/13 Q1012 NOSIG=
201906191530 METAR LRBS 191530Z 04004KT 350V070 CAVOK 30/14 Q1012 NOSIG=
201906191600 METAR LRBS 191600Z 06004KT CAVOK 29/15 Q1012 NOSIG=
201906191630 METAR LRBS 191630Z 06004KT CAVOK 28/15 Q1012 NOSIG=
201906191700 METAR LRBS 191700Z 04003KT CAVOK 28/16 Q1012 NOSIG=
201906191730 METAR LRBS 191730Z 05003KT CAVOK 27/17 Q1012 NOSIG=
201906191800 METAR LRBS 191800Z 04004KT CAVOK 26/17 Q1012 NOSIG=
201906191830 METAR LRBS 191830Z 04004KT CAVOK 24/17 Q1012 NOSIG=
201906191900 METAR LRBS 191900Z 05003KT 9000 NSC 23/18 Q1013 NOSIG=
201906191930 METAR LRBS 191930Z 05004KT 9000 NSC 23/18 Q1013 NOSIG=
201906192000 METAR LRBS 192000Z 05004KT 9000 NSC 23/18 Q1013 NOSIG=
201906192030 METAR LRBS 192030Z VRB02KT CAVOK 23/19 Q1013 NOSIG=
201906192100 METAR LRBS 192100Z VRB02KT CAVOK 24/19 Q1013 NOSIG=
201906192130 METAR LRBS 192130Z 01003KT 340V040 CAVOK 23/19 Q1013 NOSIG=
201906192200 METAR LRBS 192200Z 03003KT CAVOK 22/19 Q1013 NOSIG=
201906192230 METAR LRBS 192230Z VRB01KT CAVOK 22/19 Q1013 NOSIG=
201906192300 METAR LRBS 192300Z 00000KT 9000 NSC 21/18 Q1013 NOSIG=
201906192330 METAR LRBS 192330Z VRB01KT CAVOK 21/18 Q1013 NOSIG=
201906200000 METAR LRBS 200000Z 25002KT CAVOK 20/18 Q1013 NOSIG=
201906200030 METAR LRBS 200030Z VRB01KT CAVOK 20/18 Q1013 NOSIG=
201906200100 METAR LRBS 200100Z 00000KT CAVOK 20/17 Q1012 NOSIG=
201906200130 METAR LRBS 200130Z VRB02KT 9000 NSC 20/17 Q1012 NOSIG=
201906200200 METAR LRBS 200200Z VRB02KT CAVOK 20/17 Q1012 NOSIG=
201906200230 METAR LRBS 200230Z VRB01KT 9000 NSC 20/17 Q1013 NOSIG=
201906200300 METAR LRBS 200300Z 36002KT CAVOK 20/17 Q1013 NOSIG=
201906200330 METAR LRBS 200330Z 02003KT CAVOK 20/17 Q1013 NOSIG=
201906200400 METAR LRBS 200400Z 00000KT CAVOK 21/18 Q1013 NOSIG=
201906200430 METAR LRBS 200430Z VRB02KT CAVOK 23/18 Q1013 NOSIG=
201906200500 METAR LRBS 200500Z VRB02KT CAVOK 23/18 Q1013 NOSIG=
201906200530 METAR LRBS 200530Z VRB02KT CAVOK 24/19 Q1013 NOSIG=
201906200600 METAR LRBS 200600Z 03006KT 360V070 CAVOK 25/19 Q1013 NOSIG=
201906200630 METAR LRBS 200630Z 04005KT 360V070 CAVOK 26/19 Q1013 NOSIG=
201906200700 METAR LRBS 200700Z 06005KT 030V110 CAVOK 27/19 Q1013 NOSIG=
201906200730 METAR LRBS 200730Z 07003KT 020V110 CAVOK 27/19 Q1013 NOSIG=
201906200800 METAR LRBS 200800Z 04003KT 340V110 CAVOK 27/19 Q1013 NOSIG=
201906200830 METAR LRBS 200830Z 03003KT 300V070 CAVOK 28/18 Q1013 NOSIG=
201906200900 METAR LRBS 200900Z VRB03KT CAVOK 29/17 Q1013 NOSIG=
201906200930 METAR LRBS 200930Z VRB02KT 9999 FEW040 30/18 Q1013 NOSIG=
201906201000 METAR LRBS 201000Z VRB02KT 9999 FEW045 31/18 Q1012 NOSIG=
201906201030 METAR LRBS 201030Z VRB03KT 9999 FEW048 31/17 Q1012 NOSIG=
201906201100 METAR LRBS 201100Z 33003KT 280V360 CAVOK 31/16 Q1012 NOSIG=
201906201130 METAR LRBS 201130Z 34004KT 280V040 CAVOK 31/16 Q1011 NOSIG=
201906201200 METAR LRBS 201200Z 30006KT 260V330 9999 FEW050CB 31/16 Q1011
                        NOSIG=
201906201230 METAR LRBS 201230Z 02004KT 360V060 CAVOK 30/16 Q1011 NOSIG=
201906201300 METAR LRBS 201300Z 34003KT 270V020 9999 TS SCT050CB 29/18
                        Q1011 TEMPO VRB18G28KT 5000 TSRA=
201906201330 METAR LRBS 201330Z 28006KT 220V320 9999 VCTS SCT060CB 28/18
                        Q1011 TEMPO VRB18G28KT TS=
201906201400 METAR COR LRBS 201400Z 07014KT 9999 -SHRA VCTS SCT060CB 27/16
                        Q1012 TEMPO VRB18G28KT 5000 TSRA
                        BKN045CB=
201906201430 METAR LRBS 201430Z 09023G33KT 9000 TS BKN048CB 21/16 Q1013
                        TEMPO 3000 TSRA=
201906201500 METAR LRBS 201500Z 13010KT 090V170 9999 -TSRA BKN057CB 20/17
                        Q1014 TEMPO 5000 TSRA=
201906201530 METAR LRBS 201530Z 14005KT 110V180 9999 TS SCT051CB 21/17
                        Q1013 TEMPO 5000 TSRA=
201906201600 METAR COR LRBS 201600Z 09004KT 050V110 9999 -SHRA FEW054CB
                        21/18 Q1013 RETS R07/29//95 TEMPO
                        5000 TSRA=
201906201630 METAR LRBS 201630Z 00000KT 9999 -SHRA FEW050CB 20/18 Q1013
                        R07/29//95 NOSIG=
201906201700 METAR LRBS 201700Z 35005KT 9999 -SHRA FEW050CB 20/18 Q1013
                        R07/29//95 NOSIG=
201906201730 METAR LRBS 201730Z 24004KT 9999 FEW050CB 20/18 Q1013 R07/29//95
                        NOSIG=
201906201800 METAR COR LRBS 201800Z VRB02KT CAVOK 20/18 Q1013 R07/29//95
                        NOSIG=
201906201830 METAR LRBS 201830Z VRB01KT CAVOK 20/18 Q1013 R07/29//95 NOSIG=
201906201900 METAR LRBS 201900Z 30003KT CAVOK 20/18 Q1012 R07/29//95 NOSIG=
201906201930 METAR LRBS 201930Z 26002KT CAVOK 19/18 Q1013 R07/29//95 NOSIG=
201906202000 METAR LRBS 202000Z 27003KT 240V300 CAVOK 20/18 Q1013 R07/29//95
                        NOSIG=
201906202030 METAR LRBS 202030Z VRB01KT CAVOK 20/17 Q1013 R07/29//95 NOSIG=
201906202100 METAR LRBS 202100Z 28003KT 250V310 CAVOK 20/17 Q1013 R07/29//95
                        NOSIG=
201906202130 METAR LRBS 202130Z 26004KT CAVOK 20/18 Q1013 R07/29//95 NOSIG=
201906202200 METAR LRBS 202200Z VRB02KT CAVOK 20/18 Q1013 R07/29//95 NOSIG=
201906202230 METAR LRBS 202230Z 26003KT CAVOK 20/18 Q1013 R07/29//95 NOSIG=
201906202300 METAR LRBS 202300Z AUTO VRB01KT 9999 OVC100/// 20/18 Q1013
                        NOSIG=
201906202330 METAR LRBS 202330Z 26002KT CAVOK 20/18 Q1013 R07/29//95 NOSIG=
201906210000 METAR LRBS 210000Z 24004KT CAVOK 19/18 Q1013 R07/29//95 NOSIG=
201906210030 METAR LRBS 210030Z 21002KT 9999 FEW050CB 19/18 Q1013 R07/29//95
                        NOSIG=
201906210100 METAR LRBS 210100Z 28002KT 9999 FEW050CB 19/18 Q1013 R07/29//95
                        NOSIG=
201906210130 METAR COR LRBS 210130Z VRB01KT 8000 FEW050CB 19/18 Q1013
                        R07/29//95 NOSIG=
201906210200 METAR LRBS 210200Z 27003KT 9999 FEW050CB 19/18 Q1013 R07/29//95
                        NOSIG=
201906210230 METAR LRBS 210230Z 27002KT CAVOK 19/18 Q1014 R07/29//95 NOSIG=
201906210300 METAR COR LRBS 210300Z 27003KT CAVOK 18/17 Q1014 R07/CLRD//
                        NOSIG=
201906210330 METAR LRBS 210330Z VRB02KT CAVOK 19/17 Q1014 NOSIG=
201906210400 METAR LRBS 210400Z 27002KT CAVOK 19/18 Q1014 NOSIG=
201906210430 METAR LRBS 210430Z VRB01KT CAVOK 22/17 Q1014 NOSIG=
201906210500 METAR LRBS 210500Z 32003KT 270V360 CAVOK 22/17 Q1014 NOSIG=
201906210530 METAR LRBS 210530Z 30005KT CAVOK 22/18 Q1014 NOSIG=
201906210600 METAR LRBS 210600Z 30003KT 260V320 CAVOK 23/19 Q1014 NOSIG=
201906210630 METAR LRBS 210630Z VRB01KT CAVOK 25/20 Q1014 NOSIG=
201906210700 METAR LRBS 210700Z VRB02KT CAVOK 26/18 Q1014 NOSIG=
201906210730 METAR LRBS 210730Z VRB02KT CAVOK 27/18 Q1014 NOSIG=
201906210800 METAR LRBS 210800Z VRB02KT CAVOK 28/17 Q1014 NOSIG=
201906210830 METAR LRBS 210830Z VRB03KT CAVOK 28/17 Q1014 NOSIG=
201906210900 METAR LRBS 210900Z 05004KT 310V100 9999 FEW040 29/18 Q1014
                        NOSIG=
201906210930 METAR LRBS 210930Z VRB02KT 9999 FEW045 29/18 Q1014 NOSIG=
201906211000 METAR LRBS 211000Z 06004KT 010V130 9999 FEW047 30/18 Q1014
                        NOSIG=
201906211030 METAR LRBS 211030Z 06003KT 350V130 9999 FEW045TCU SCT049
                        29/17 Q1014 NOSIG=
201906211100 METAR LRBS 211100Z VRB03KT 9999 FEW045TCU SCT049 31/18 Q1014
                        NOSIG=
201906211130 METAR LRBS 211130Z VRB02KT 9999 FEW045CB BKN049 29/19 Q1014
                        NOSIG=
201906211200 METAR LRBS 211200Z VRB02KT 9999 VCTS FEW045CB 29/18 Q1014
                        TEMPO 5000 TSRA SCT030CB=
201906211230 METAR LRBS 211230Z 22006KT 190V260 9999 -SHRA SCT045CB 27/18
                        Q1013 RETS NOSIG=
201906211300 METAR LRBS 211300Z 24006KT 9999 FEW029 FEW045CB 30/18 Q1013
                        NOSIG=
201906211330 METAR LRBS 211330Z 04003KT 360V060 9999 FEW050CB 30/18 Q1013
                        NOSIG=
201906211400 METAR LRBS 211400Z VRB02KT 9999 FEW050CB 30/17 Q1013 NOSIG=
201906211430 METAR LRBS 211430Z 14007KT 100V170 9999 -TSRA SCT045CB 29/18
                        Q1013 NOSIG=
201906211500 METAR LRBS 211500Z 19008KT 9999 -TSRA SCT045CB 26/18 Q1013
                        RETSRA TEMPO 5000 TSRA=
201906211530 METAR LRBS 211530Z 21004KT 9999 TS VCSH FEW050CB 28/20 Q1013
                        TEMPO 5000 TSRA=
201906211600 METAR LRBS 211600Z 23003KT 9999 VCTS FEW050CB 30/16 Q1013
                        TEMPO 5000 TSRA=
201906211630 METAR LRBS 211630Z 36003KT 310V030 9999 FEW050CB 27/17 Q1013
                        TEMPO 5000 TSRA=
201906211700 METAR LRBS 211700Z 33004KT 290V360 9999 FEW050CB 27/17 Q1014
                        NOSIG=
201906211730 METAR LRBS 211730Z 36005KT 320V030 9999 VCTS FEW050CB 25/18
                        Q1014 NOSIG=
201906211800 METAR LRBS 211800Z VRB01KT 9999 FEW050CB 25/18 Q1014 NOSIG=
201906211830 METAR LRBS 211830Z VRB01KT 9999 VCTS FEW050CB 24/18 Q1014
                        NOSIG=
201906211900 METAR LRBS 211900Z VRB02KT CAVOK 23/18 Q1014 NOSIG=
201906211930 METAR LRBS 211930Z 04004KT CAVOK 22/18 Q1015 NOSIG=
201906212000 METAR LRBS 212000Z VRB02KT CAVOK 22/18 Q1015 NOSIG=
201906212030 METAR LRBS 212030Z VRB02KT CAVOK 21/18 Q1015 NOSIG=
201906212100 METAR LRBS 212100Z 25003KT 230V290 CAVOK 21/18 Q1015 NOSIG=
201906212130 METAR LRBS 212130Z AUTO 27003KT 9999 NCD 20/18 Q1015 NOSIG=
201906212200 METAR LRBS 212200Z 27001KT CAVOK 20/18 Q1015 NOSIG=
201906212230 METAR LRBS 212230Z 00000KT CAVOK 20/18 Q1015 NOSIG=
201906212300 METAR LRBS 212300Z 26003KT CAVOK 19/18 Q1015 NOSIG=
201906212330 METAR LRBS 212330Z AUTO VRB01KT 9999 NCD 19/18 Q1015 NOSIG=
201906220000 METAR LRBS 220000Z 27003KT 250V320 CAVOK 19/18 Q1015 NOSIG=
201906220030 METAR LRBS 220030Z 28003KT CAVOK 19/17 Q1015 NOSIG=
201906220100 METAR LRBS 220100Z VRB02KT CAVOK 19/17 Q1015 NOSIG=
201906220130 METAR LRBS 220130Z 27002KT CAVOK 19/17 Q1015 NOSIG=
201906220200 METAR LRBS 220200Z VRB02KT CAVOK 19/17 Q1015 NOSIG=
201906220230 METAR LRBS 220230Z 28001KT CAVOK 19/17 Q1015 NOSIG=
201906220300 METAR LRBS 220300Z 27002KT CAVOK 18/17 Q1015 NOSIG=
201906220330 METAR LRBS 220330Z 00000KT CAVOK 19/17 Q1015 NOSIG=
201906220400 METAR LRBS 220400Z 26002KT CAVOK 20/18 Q1016 NOSIG=
201906220430 METAR LRBS 220430Z VRB01KT CAVOK 21/18 Q1016 NOSIG=
201906220500 METAR LRBS 220500Z 00000KT CAVOK 22/18 Q1016 NOSIG=
201906220530 METAR LRBS 220530Z 00000KT CAVOK 24/18 Q1016 NOSIG=
201906220600 METAR LRBS 220600Z VRB01KT CAVOK 25/19 Q1016 NOSIG=
201906220630 METAR LRBS 220630Z 16003KT 050V210 CAVOK 26/19 Q1016 NOSIG=
201906220700 METAR LRBS 220700Z 22003KT 150V270 CAVOK 27/20 Q1016 NOSIG=
201906220730 METAR LRBS 220730Z VRB02KT CAVOK 27/19 Q1016 NOSIG=
201906220800 METAR LRBS 220800Z 20003KT 140V230 CAVOK 28/21 Q1016 NOSIG=
201906220830 METAR COR LRBS 220830Z VRB01KT CAVOK 28/19 Q1016 NOSIG=
201906220900 METAR COR LRBS 220900Z VRB02KT 9999 FEW040 29/19 Q1016 NOSIG=
201906220930 METAR LRBS 220930Z 09003KT 050V180 9999 FEW042 30/18 Q1016
                        NOSIG=
201906221000 METAR LRBS 221000Z VRB01KT 9999 SCT048 30/18 Q1016 NOSIG=
201906221030 METAR COR LRBS 221030Z VRB04KT CAVOK 30/19 Q1016 NOSIG=
201906221100 METAR LRBS 221100Z 13007KT 7000 -TSRA SCT040CB 27/21 Q1016
                        R07/29//95 NOSIG=
201906221130 METAR COR LRBS 221130Z 07003KT 360V130 9999 TS SCT034 FEW040CB
                        28/19 Q1016 R07/19//95 NOSIG=
201906221200 METAR COR LRBS 221200Z 08003KT 010V130 CAVOK 30/18 Q1015
                        R07/CLRD// NOSIG=
201906221230 METAR LRBS 221230Z 06003KT 350V110 CAVOK 31/18 Q1015 R07/CLRD//
                        NOSIG=
201906221300 METAR LRBS 221300Z VRB03KT CAVOK 30/17 Q1015 NOSIG=
201906221330 METAR LRBS 221330Z VRB02KT 9999 VCTS FEW050CB 30/18 Q1015
                        NOSIG=
201906221400 METAR LRBS 221400Z VRB01KT 9999 FEW050CB 30/17 Q1015 NOSIG=
201906221430 METAR LRBS 221430Z VRB03KT 9999 FEW050CB 30/19 Q1014 NOSIG=
201906221500 METAR LRBS 221500Z VRB03KT 9999 VCTS SCT050CB 30/18 Q1015
                        NOSIG=
201906221530 METAR LRBS 221530Z 23005KT 200V260 9999 FEW050CB 30/16 Q1014
                        NOSIG=
201906221600 METAR LRBS 221600Z 20003KT 160V250 9999 FEW050TCU 31/17 Q1014
                        NOSIG=
201906221630 METAR LRBS 221630Z VRB01KT 9999 FEW050TCU 29/18 Q1014 NOSIG=
201906221700 METAR LRBS 221700Z VRB01KT 9999 FEW050CB 28/19 Q1015 TEMPO
                        VRB15G25KT 5000 TSRA=
201906221730 METAR LRBS 221730Z 00000KT 9999 FEW050CB 27/19 Q1015 TEMPO
                        VRB15G25KT 5000 TSRA=
201906221800 METAR LRBS 221800Z VRB01KT 9999 FEW050TCU 24/20 Q1015 NOSIG=
201906221830 METAR LRBS 221830Z 11004KT CAVOK 26/19 Q1015 NOSIG=
201906221900 METAR LRBS 221900Z 00000KT 9000 NSC 26/19 Q1015 NOSIG=
201906221930 METAR LRBS 221930Z VRB02KT CAVOK 24/18 Q1015 NOSIG=
201906222000 METAR LRBS 222000Z 00000KT CAVOK 25/18 Q1015 NOSIG=
201906222030 METAR LRBS 222030Z VRB02KT CAVOK 24/19 Q1015 NOSIG=
201906222100 METAR LRBS 222100Z 01003KT CAVOK 23/18 Q1015 NOSIG=
201906222130 METAR LRBS 222130Z VRB01KT CAVOK 21/18 Q1015 NOSIG=
201906222200 METAR LRBS 222200Z VRB01KT CAVOK 22/18 Q1015 NOSIG=
201906222230 METAR LRBS 222230Z 00000KT CAVOK 21/18 Q1015 NOSIG=
201906222300 METAR LRBS 222300Z 03002KT CAVOK 21/18 Q1015 NOSIG=
201906222330 METAR LRBS 222330Z 05003KT CAVOK 20/18 Q1015 NOSIG=
201906230000 METAR LRBS 230000Z 06002KT CAVOK 20/18 Q1015 NOSIG=
201906230030 METAR LRBS 230030Z VRB01KT CAVOK 21/18 Q1016 NOSIG=
201906230100 METAR LRBS 230100Z 02002KT CAVOK 20/18 Q1016 NOSIG=
201906230130 METAR LRBS 230130Z 03002KT 9000 NSC 20/18 Q1016 NOSIG=
201906230200 METAR LRBS 230200Z VRB01KT 9000 NSC 19/18 Q1016 NOSIG=
201906230230 METAR LRBS 230230Z 07001KT CAVOK 19/18 Q1016 NOSIG=
201906230300 METAR LRBS 230300Z 07001KT CAVOK 19/18 Q1015 NOSIG=
201906230330 METAR LRBS 230330Z 07003KT CAVOK 20/18 Q1015 NOSIG=
201906230400 METAR LRBS 230400Z 00000KT CAVOK 21/18 Q1016 NOSIG=
201906230430 METAR LRBS 230430Z VRB01KT CAVOK 22/17 Q1016 NOSIG=
201906230500 METAR LRBS 230500Z VRB02KT CAVOK 23/17 Q1016 NOSIG=
201906230530 METAR LRBS 230530Z 07005KT CAVOK 23/17 Q1016 NOSIG=
201906230600 METAR LRBS 230600Z 08004KT 050V110 CAVOK 24/18 Q1016 NOSIG=
201906230630 METAR LRBS 230630Z 06005KT 030V090 CAVOK 25/18 Q1016 NOSIG=
201906230700 METAR LRBS 230700Z 08005KT 040V110 CAVOK 26/19 Q1016 NOSIG=
201906230730 METAR LRBS 230730Z 06004KT 020V100 CAVOK 27/19 Q1016 NOSIG=
201906230800 METAR COR LRBS 230800Z 08005KT 050V110 CAVOK 27/19 Q1015
                        NOSIG=
201906230830 METAR LRBS 230830Z VRB03KT CAVOK 28/18 Q1015 NOSIG=
201906230900 METAR LRBS 230900Z 05004KT 330V090 CAVOK 29/20 Q1015 NOSIG=
201906230930 METAR LRBS 230930Z 05003KT 360V110 CAVOK 30/19 Q1015 NOSIG=
201906231000 METAR LRBS 231000Z VRB03KT CAVOK 30/18 Q1015 NOSIG=
201906231030 METAR LRBS 231030Z VRB02KT CAVOK 30/19 Q1015 NOSIG=
201906231100 METAR LRBS 231100Z VRB01KT CAVOK 30/19 Q1015 NOSIG=
201906231130 METAR LRBS 231130Z VRB02KT CAVOK 31/20 Q1014 NOSIG=
201906231200 METAR LRBS 231200Z VRB03KT CAVOK 30/19 Q1014 NOSIG=
201906231230 METAR LRBS 231230Z 03003KT 340V110 CAVOK 31/18 Q1014 NOSIG=
201906231300 METAR LRBS 231300Z 06004KT 020V120 CAVOK 31/18 Q1014 NOSIG=
201906231330 METAR LRBS 231330Z VRB02KT CAVOK 31/17 Q1013 NOSIG=
201906231400 METAR LRBS 231400Z 02004KT 340V070 9999 FEW011 32/19 Q1013
                        NOSIG=
201906231430 METAR LRBS 231430Z 05005KT CAVOK 32/19 Q1013 NOSIG=
201906231500 METAR LRBS 231500Z VRB02KT CAVOK 32/19 Q1013 NOSIG=
201906231530 METAR LRBS 231530Z 09005KT 060V120 CAVOK 31/18 Q1013 NOSIG=
201906231600 METAR LRBS 231600Z 11006KT CAVOK 31/16 Q1013 NOSIG=
201906231630 METAR LRBS 231630Z 09006KT CAVOK 31/19 Q1013 NOSIG=
201906231700 METAR LRBS 231700Z 09005KT CAVOK 30/18 Q1013 NOSIG=
201906231730 METAR LRBS 231730Z 06005KT CAVOK 28/19 Q1013 NOSIG=
201906231800 METAR LRBS 231800Z 05004KT CAVOK 27/20 Q1012 NOSIG=
201906231830 METAR LRBS 231830Z 05003KT CAVOK 26/20 Q1012 NOSIG=
201906231900 METAR LRBS 231900Z 03005KT CAVOK 25/19 Q1013 NOSIG=
201906231930 METAR LRBS 231930Z 04004KT CAVOK 25/19 Q1013 NOSIG=
201906232000 METAR LRBS 232000Z 04005KT CAVOK 25/19 Q1013 NOSIG=
201906232030 METAR LRBS 232030Z 05003KT CAVOK 24/20 Q1013 NOSIG=
201906232100 METAR LRBS 232100Z 01001KT CAVOK 24/20 Q1013 NOSIG=
201906232130 METAR LRBS 232130Z 04002KT CAVOK 23/20 Q1013 NOSIG=
201906232200 METAR LRBS 232200Z AUTO 04004KT 9999 NCD 22/20 Q1013 NOSIG=
201906232230 METAR COR LRBS 232230Z 04005KT CAVOK 23/20 Q1014 NOSIG=
201906232300 METAR LRBS 232300Z 02004KT CAVOK 23/20 Q1014 NOSIG=
201906232330 METAR LRBS 232330Z 04004KT 9999 FEW050CB 22/20 Q1014 NOSIG=
201906240000 METAR LRBS 240000Z 01004KT 9999 FEW050CB 23/20 Q1014 NOSIG=
201906240030 METAR LRBS 240030Z 30012G23KT 9999 FEW015 SCT050CB 23/19
                        Q1015 TEMPO 5000 -TSRA=
201906240100 METAR LRBS 240100Z 34009KT 310V010 9999 BKN024 SCT040CB 22/16
                        Q1015 TEMPO 5000 -TSRA=
201906240130 METAR LRBS 240130Z 34008KT 310V010 9999 FEW033 FEW040CB 21/15
                        Q1015 NOSIG=
201906240200 METAR LRBS 240200Z 01008KT 340V050 9999 BKN035 FEW050CB 21/15
                        Q1015 NOSIG=
201906240230 METAR LRBS 240230Z 01008KT 340V050 9999 SCT045 21/15 Q1015
                        NOSIG=
201906240300 METAR LRBS 240300Z 36007KT 330V040 9999 FEW045 FEW050CB 21/15
                        Q1015 NOSIG=
201906240330 METAR LRBS 240330Z 02005KT 320V050 9999 FEW045 FEW050CB 21/15
                        Q1015 NOSIG=
201906240400 METAR LRBS 240400Z 29008KT 9999 FEW050CB 21/16 Q1016 TEMPO
                        5000 TSRA SCT050CB=
201906240430 METAR COR LRBS 240430Z 34005KT 300V030 9999 FEW050CB 22/16
                        Q1015 NOSIG=
201906240500 METAR LRBS 240500Z 27011KT 9999 FEW032 FEW050CB 21/16 Q1016
                        NOSIG=
201906240530 METAR LRBS 240530Z 28006KT 250V310 9999 FEW034 FEW050CB 22/16
                        Q1017 NOSIG=
201906240600 METAR LRBS 240600Z 29005KT 260V360 9999 FEW040 FEW050CB 22/16
                        Q1016 NOSIG=
201906240630 METAR LRBS 240630Z 32004KT 260V020 9999 FEW050CB 23/17 Q1016
                        NOSIG=
201906240700 METAR LRBS 240700Z 36007KT 340V040 9999 FEW050CB 24/18 Q1016
                        NOSIG=
201906240730 METAR LRBS 240730Z 04007KT 350V070 9999 VCTS FEW050CB 26/18
                        Q1016 NOSIG=
201906240800 METAR LRBS 240800Z 03008KT 360V060 9999 FEW050CB 27/19 Q1016
                        NOSIG=
201906240830 METAR LRBS 240830Z 03006KT 340V070 9999 FEW050CB 27/19 Q1016
                        NOSIG=
201906240900 METAR LRBS 240900Z 01003KT 340V040 9999 FEW050CB 26/19 Q1017
                        NOSIG=
201906240930 METAR LRBS 240930Z 34007KT 9999 SCT037 FEW050CB 24/20 Q1017
                        RESHRA NOSIG=
201906241000 METAR LRBS 241000Z 29006KT 9999 FEW039 FEW050CB 25/21 Q1017
                        NOSIG=
201906241030 METAR LRBS 241030Z 30007KT 270V330 9999 SCT039 FEW050CB 26/22
                        Q1017 NOSIG=
201906241100 METAR COR LRBS 241100Z 35006KT 310V020 9999 FEW041 28/21
                        Q1017 NOSIG=
201906241130 METAR LRBS 241130Z 36005KT 270V050 CAVOK 28/22 Q1016 NOSIG=
201906241200 METAR LRBS 241200Z 36005KT 300V060 9999 FEW046 28/21 Q1016
                        NOSIG=
201906241230 METAR LRBS 241230Z 06008KT 020V100 9999 SCT049 29/22 Q1016
                        NOSIG=
201906241300 METAR LRBS 241300Z 07008KT 030V100 9999 FEW048 30/19 Q1016
                        NOSIG=
201906241330 METAR LRBS 241330Z 03010KT 9999 SCT049 30/20 Q1015 NOSIG=
201906241400 METAR LRBS 241400Z 03008KT 9999 FEW050CB 30/20 Q1015 NOSIG=
201906241430 METAR LRBS 241430Z 05009KT 9999 FEW050CB 29/20 Q1015 NOSIG=
201906241500 METAR LRBS 241500Z 06009KT CAVOK 30/19 Q1015 NOSIG=
201906241530 METAR LRBS 241530Z 05011KT CAVOK 29/18 Q1015 NOSIG=
201906241600 METAR LRBS 241600Z 07009KT CAVOK 29/19 Q1016 NOSIG=
201906241630 METAR LRBS 241630Z 06010KT CAVOK 28/19 Q1017 NOSIG=
201906241700 METAR COR LRBS 241700Z 05007KT CAVOK 27/19 Q1017 TEMPO SCT040CB=
201906241730 METAR LRBS 241730Z 04007KT 9999 FEW050CB 27/20 Q1017 TEMPO
                        VRB20KT 5000 -TSRA=
201906241800 METAR LRBS 241800Z 05011KT 9999 SCT034 FEW050CB 27/20 Q1018
                        TEMPO VRB20KT 5000 -TSRA=
201906241830 METAR LRBS 241830Z 06009KT 9999 FEW050CB 24/16 Q1018=
201906241900 METAR LRBS 241900Z 07008KT 9999 FEW050CB 23/18 Q1019 BECMG
                        NSC=
201906241930 METAR LRBS 241930Z 04005KT 9999 FEW050CB 23/18 Q1019 NOSIG=
201906242000 METAR LRBS 242000Z VRB01KT 9999 FEW050CB 22/17 Q1019 NOSIG=
201906242030 METAR LRBS 242030Z 34004KT CAVOK 22/17 Q1019 NOSIG=
201906242100 METAR LRBS 242100Z 33003KT 280V360 CAVOK 22/17 Q1020 NOSIG=
201906242130 METAR LRBS 242130Z VRB02KT CAVOK 21/17 Q1020 NOSIG=
201906242200 METAR LRBS 242200Z 29003KT CAVOK 21/17 Q1020 NOSIG=
201906242230 METAR LRBS 242230Z 31004KT CAVOK 21/17 Q1020 NOSIG=
201906242300 METAR COR LRBS 242300Z 28003KT CAVOK 20/17 Q1019 NOSIG=
201906242330 METAR LRBS 242330Z VRB02KT CAVOK 20/17 Q1019 NOSIG=
201906250000 METAR LRBS 250000Z 30004KT CAVOK 21/17 Q1019 NOSIG=
201906250030 METAR LRBS 250030Z 30004KT CAVOK 21/17 Q1019 NOSIG=
201906250100 METAR LRBS 250100Z 30003KT CAVOK 21/18 Q1019 NOSIG=
201906250130 METAR LRBS 250130Z 29003KT CAVOK 21/18 Q1019 NOSIG=
201906250200 METAR LRBS 250200Z VRB02KT CAVOK 21/18 Q1019 TEMPO SCT040CB=
201906250230 METAR LRBS 250230Z 30003KT 9999 SCT050CB 21/18 Q1019 TEMPO
                        SCT040CB=
201906250300 METAR LRBS 250300Z 32003KT 260V040 8000 -SHRA SCT050CB 21/18
                        Q1019=
201906250330 METAR LRBS 250330Z VRB02KT 9999 FEW049CB 21/18 Q1020 NOSIG=
201906250400 METAR LRBS 250400Z 23003KT 9999 FEW050CB 21/19 Q1019 NOSIG=
201906250430 METAR LRBS 250430Z 29004KT 9999 FEW045CB 21/19 Q1020 NOSIG=
201906250500 METAR LRBS 250500Z 29003KT 260V320 9999 FEW045CB 21/19 Q1020
                        NOSIG=
201906250530 METAR LRBS 250530Z 29003KT 260V340 9999 FEW045CB 22/19 Q1020
                        NOSIG=
201906250600 METAR LRBS 250600Z 28003KT 9999 FEW045CB 22/20 Q1020 NOSIG=
201906250630 METAR LRBS 250630Z 27003KT 240V310 9999 FEW045CB 23/20 Q1020
                        NOSIG=
201906250700 METAR LRBS 250700Z 33005KT 290V360 CAVOK 26/20 Q1020 NOSIG=
201906250730 METAR LRBS 250730Z 01006KT CAVOK 27/19 Q1020 NOSIG=
201906250800 METAR LRBS 250800Z 02008KT 9999 FEW036 29/19 Q1020 NOSIG=
201906250830 METAR LRBS 250830Z 03008KT 360V060 9999 FEW036 29/20 Q1020
                        NOSIG=
201906250900 METAR LRBS 250900Z 04013KT 010V070 9999 SCT040 30/20 Q1020
                        NOSIG=
201906250930 METAR LRBS 250930Z 04010KT 360V070 9999 SCT044 31/20 Q1020
                        NOSIG=
201906251000 METAR LRBS 251000Z 04012KT 360V060 9999 FEW046 FEW050TCU
                        31/18 Q1020 NOSIG=
201906251030 METAR LRBS 251030Z 04014KT 9999 FEW050CB 32/18 Q1020 NOSIG=
201906251100 METAR LRBS 251100Z 03014KT 350V080 9999 FEW050CB 32/18 Q1019
                        NOSIG=
201906251130 METAR LRBS 251130Z 04015KT 360V080 9999 FEW050TCU 32/18 Q1019
                        NOSIG=
201906251200 METAR LRBS 251200Z 04014KT 010V080 CAVOK 32/18 Q1019 NOSIG=
201906251230 METAR LRBS 251230Z 03014KT 010V080 9999 FEW050TCU 32/17 Q1019
                        NOSIG=
201906251300 METAR LRBS 251300Z 04013KT CAVOK 32/17 Q1018 NOSIG=
201906251330 METAR LRBS 251330Z 05014KT 020V080 9999 FEW050TCU 32/17 Q1019
                        TEMPO 04018G28KT 5000 TSRA SCT040CB=
201906251400 METAR COR LRBS 251400Z 06033KT 4000 BLDU SQ TS SCT045CB 29/17
                        Q1020 TEMPO 1500 +TSRAGR BKN040CB=
201906251430 METAR LRBS 251430Z 08022KT 3000 +SHRA VCTS FEW026 BKN045CB
                        22/18 Q1021 R07/29//95 TEMPO TSRA=
201906251500 METAR LRBS 251500Z 12006KT 9999 FEW022 SCT050CB 22/18 Q1021
                        R07/29//95 TEMPO 5000 TSRA=
201906251530 METAR LRBS 251530Z 07004KT 9000 -TSRA SCT050CB 23/19 Q1021
                        R07/29//95 TEMPO VRB20G30KT 3000
                        TSRA BKN040CB=
201906251600 METAR LRBS 251600Z 02014G24KT 360V060 9999 -TSRA FEW018 BKN050CB
                        21/19 Q1022 RESHRA R07/29//95 NOSIG=
201906251630 METAR LRBS 251630Z 02009KT 340V050 9000 -TSRA BKN050CB 21/19
                        Q1022 R07/29//95 NOSIG=
201906251700 METAR LRBS 251700Z 01008KT 340V040 9999 -TSRA BKN050CB 20/19
                        Q1022 R07/29//95 BECMG NSW=
201906251730 METAR COR LRBS 251730Z 01009KT 9999 -SHRA SCT050CB 21/19
                        Q1022 RETS R07/29//95 BECMG NSC=
201906251800 METAR LRBS 251800Z 01007KT 9999 -SHRA SCT050CB 21/19 Q1023
                        R07/29//95 BECMG NSC=
201906251830 METAR LRBS 251830Z 36008KT 340V040 9999 -SHRA SCT050CB 20/18
                        Q1023 R07/29//95 BECMG NSC=
201906251900 METAR LRBS 251900Z 35006KT 9999 -SHRA FEW050CB 21/18 Q1022
                        R07/29//95 BECMG NSC=
201906251930 METAR LRBS 251930Z 36007KT 330V030 9999 FEW050CB 20/19 Q1023
                        R07/29//95 BECMG NSC=
201906252000 METAR LRBS 252000Z 01006KT 320V030 9999 FEW050CB 20/18 Q1023
                        R07/29//95 BECMG NSC=
201906252030 METAR LRBS 252030Z 01008KT 9999 FEW050CB 21/18 Q1023 R07/29//95
                        BECMG NSC=
201906252100 METAR LRBS 252100Z 02005KT 340V050 9999 FEW050CB 21/18 Q1022
                        R07/29//95 BECMG NSC=
201906252130 METAR LRBS 252130Z 01004KT 340V040 CAVOK 20/18 Q1022 R07/29//95
                        NOSIG=
201906252200 METAR LRBS 252200Z 36004KT CAVOK 21/19 Q1022 R07/29//95 NOSIG=
201906252230 METAR LRBS 252230Z 01004KT 340V050 CAVOK 21/19 Q1022 R07/29//95
                        NOSIG=
201906252300 METAR LRBS 252300Z AUTO 01004KT 9999 FEW120/// 21/19 Q1022
                        NOSIG=
201906252330 METAR LRBS 252330Z 01004KT 340V040 CAVOK 21/19 Q1022 R07/29//95
                        NOSIG=
201906260000 METAR LRBS 260000Z 35004KT 310V020 CAVOK 21/19 Q1022 R07/29//95
                        NOSIG=
201906260030 METAR LRBS 260030Z 35003KT CAVOK 21/18 Q1022 R07/29//95 NOSIG=
201906260100 METAR LRBS 260100Z 01004KT 320V050 CAVOK 21/18 Q1022 R07/29//95
                        NOSIG=
201906260130 METAR LRBS 260130Z 01005KT 340V060 CAVOK 21/18 Q1022 R07/29//95
                        NOSIG=
201906260200 METAR LRBS 260200Z 01006KT 340V040 CAVOK 21/17 Q1022 R07/29//95
                        NOSIG=
201906260230 METAR COR LRBS 260230Z 02008KT CAVOK 22/17 Q1023 R07/29//95
                        NOSIG=
201906260300 METAR LRBS 260300Z 02008KT CAVOK 22/17 Q1023 R07/29//95 NOSIG=
201906260330 METAR LRBS 260330Z 02009KT CAVOK 22/16 Q1023 R07/29//95 NOSIG=
201906260400 METAR LRBS 260400Z 03009KT CAVOK 23/16 Q1023 R07/CLRD// NOSIG=
201906260430 METAR LRBS 260430Z 03008KT 360V060 CAVOK 24/17 Q1023 R07/CLRD//
                        NOSIG=
201906260500 METAR LRBS 260500Z 03010KT 350V060 CAVOK 24/17 Q1023 NOSIG=
201906260530 METAR LRBS 260530Z 03010KT 360V060 CAVOK 25/17 Q1023 NOSIG=
201906260600 METAR LRBS 260600Z 03009KT 360V060 CAVOK 26/17 Q1024 NOSIG=
201906260630 METAR LRBS 260630Z 03011KT 340V060 CAVOK 26/16 Q1024 NOSIG=
201906260700 METAR COR LRBS 260700Z 03011KT 350V070 CAVOK 27/16 Q1024
                        NOSIG=
201906260730 METAR LRBS 260730Z 04012KT CAVOK 28/16 Q1024 NOSIG=
201906260800 METAR LRBS 260800Z 03012KT CAVOK 28/16 Q1024 NOSIG=
201906260830 METAR LRBS 260830Z 04013KT 360V090 CAVOK 28/16 Q1024 NOSIG=
201906260900 METAR LRBS 260900Z 05012KT CAVOK 29/15 Q1024 NOSIG=
201906260930 METAR LRBS 260930Z 06013KT CAVOK 29/16 Q1024 NOSIG=
201906261000 METAR LRBS 261000Z AUTO 05012KT 020V080 9999 NCD 29/16 Q1024
                        NOSIG=
201906261030 METAR LRBS 261030Z 04011KT 350V060 CAVOK 30/16 Q1024 NOSIG=
201906261100 METAR LRBS 261100Z 04011KT 350V070 CAVOK 29/16 Q1023 NOSIG=
201906261130 METAR LRBS 261130Z 04010KT 010V080 CAVOK 29/16 Q1023 NOSIG=
201906261200 METAR LRBS 261200Z 04009KT 360V070 CAVOK 30/18 Q1023 NOSIG=
201906261230 METAR LRBS 261230Z 05008KT CAVOK 30/16 Q1023 NOSIG=
201906261300 METAR LRBS 261300Z 06009KT 020V080 CAVOK 30/16 Q1022 NOSIG=
201906261330 METAR LRBS 261330Z 05008KT CAVOK 30/15 Q1022 NOSIG=
201906261400 METAR LRBS 261400Z 05009KT 020V080 CAVOK 30/17 Q1022 NOSIG=
201906261430 METAR LRBS 261430Z 03008KT CAVOK 30/16 Q1022 NOSIG=
201906261500 METAR LRBS 261500Z 03008KT CAVOK 30/16 Q1022 NOSIG=
201906261530 METAR LRBS 261530Z 03007KT CAVOK 30/14 Q1022 NOSIG=
201906261600 METAR LRBS 261600Z 05006KT 010V070 CAVOK 29/15 Q1022 NOSIG=
201906261630 METAR LRBS 261630Z 03005KT CAVOK 29/14 Q1022 NOSIG=
201906261700 METAR LRBS 261700Z 03004KT CAVOK 28/15 Q1022 NOSIG=
201906261730 METAR LRBS 261730Z 02002KT CAVOK 27/16 Q1022 NOSIG=
201906261800 METAR LRBS 261800Z 06003KT CAVOK 25/16 Q1021 NOSIG=
201906261830 METAR LRBS 261830Z 03001KT CAVOK 25/17 Q1021 NOSIG=
201906261900 METAR LRBS 261900Z 03001KT CAVOK 24/17 Q1022 NOSIG=
201906261930 METAR LRBS 261930Z 00000KT CAVOK 24/17 Q1021 NOSIG=
201906262000 METAR LRBS 262000Z VRB01KT CAVOK 23/17 Q1021 NOSIG=
201906262030 METAR LRBS 262030Z 31001KT CAVOK 22/17 Q1021 NOSIG=
201906262100 METAR LRBS 262100Z 31002KT CAVOK 22/17 Q1021 NOSIG=
201906262130 METAR LRBS 262130Z VRB02KT CAVOK 21/17 Q1021 NOSIG=
201906262200 METAR LRBS 262200Z 30002KT CAVOK 20/17 Q1021 NOSIG=
201906262230 METAR LRBS 262230Z 29003KT CAVOK 20/16 Q1021 NOSIG=
201906262300 METAR LRBS 262300Z 30002KT CAVOK 20/16 Q1021 NOSIG=
201906262330 METAR LRBS 262330Z 28001KT CAVOK 20/16 Q1020 NOSIG=
201906270000 METAR LRBS 270000Z 25001KT CAVOK 20/17 Q1020 NOSIG=
201906270030 METAR LRBS 270030Z 25003KT CAVOK 20/17 Q1020 NOSIG=
201906270100 METAR LRBS 270100Z 00000KT CAVOK 20/17 Q1020 NOSIG=
201906270130 METAR LRBS 270130Z 00000KT CAVOK 19/17 Q1020 NOSIG=
201906270200 METAR LRBS 270200Z 24002KT CAVOK 19/17 Q1020 NOSIG=
201906270230 METAR LRBS 270230Z 27002KT CAVOK 19/17 Q1020 NOSIG=
201906270300 METAR LRBS 270300Z VRB02KT CAVOK 19/17 Q1020 NOSIG=
201906270330 METAR LRBS 270330Z 23003KT CAVOK 20/18 Q1019 NOSIG=
201906270400 METAR LRBS 270400Z 25001KT CAVOK 21/18 Q1019 NOSIG=
201906270430 METAR LRBS 270430Z VRB01KT 9000 NSC 23/18 Q1019 NOSIG=
201906270500 METAR LRBS 270500Z VRB02KT CAVOK 24/17 Q1019 NOSIG=
201906270530 METAR LRBS 270530Z 24003KT CAVOK 25/18 Q1018 NOSIG=
201906270600 METAR LRBS 270600Z 25006KT CAVOK 26/18 Q1018 NOSIG=
201906270630 METAR LRBS 270630Z 27006KT 240V310 CAVOK 27/20 Q1018 NOSIG=
201906270700 METAR LRBS 270700Z 27006KT 240V310 CAVOK 28/20 Q1018 NOSIG=
201906270730 METAR LRBS 270730Z 27007KT 240V310 CAVOK 29/19 Q1017 NOSIG=
201906270800 METAR LRBS 270800Z 27008KT 250V310 CAVOK 30/18 Q1017 NOSIG=
201906270830 METAR LRBS 270830Z 27007KT 240V300 CAVOK 30/19 Q1017 NOSIG=
201906270900 METAR LRBS 270900Z 28007KT 240V330 CAVOK 30/18 Q1016 NOSIG=
201906270930 METAR LRBS 270930Z 27008KT 240V300 CAVOK 31/17 Q1016 NOSIG=
201906271000 METAR LRBS 271000Z 28008KT 250V320 CAVOK 32/18 Q1016 NOSIG=
201906271030 METAR LRBS 271030Z 29009KT 240V340 CAVOK 32/17 Q1015 NOSIG=
201906271100 METAR LRBS 271100Z 29008KT 230V330 CAVOK 33/16 Q1015 NOSIG=
201906271130 METAR LRBS 271130Z 29008KT 240V350 CAVOK 33/16 Q1014 NOSIG=
201906271200 METAR LRBS 271200Z 31007KT 270V350 CAVOK 33/14 Q1014 NOSIG=
201906271230 METAR LRBS 271230Z 30007KT 260V350 CAVOK 33/16 Q1014 NOSIG=
201906271300 METAR LRBS 271300Z 29007KT 260V010 CAVOK 33/16 Q1013 NOSIG=
201906271330 METAR LRBS 271330Z 28008KT 240V330 CAVOK 33/14 Q1013 NOSIG=
201906271400 METAR LRBS 271400Z 30007KT 260V030 CAVOK 33/16 Q1012 NOSIG=
201906271430 METAR LRBS 271430Z 28008KT 240V340 CAVOK 33/15 Q1012 NOSIG=
201906271500 METAR LRBS 271500Z 28009KT 240V300 CAVOK 33/16 Q1012 NOSIG=
201906271530 METAR LRBS 271530Z 28007KT 250V320 CAVOK 32/16 Q1011 NOSIG=
201906271600 METAR LRBS 271600Z 28007KT 250V350 CAVOK 32/16 Q1011 NOSIG=
201906271630 METAR LRBS 271630Z 27007KT 240V310 CAVOK 31/17 Q1011 NOSIG=
201906271700 METAR LRBS 271700Z 28005KT 260V320 CAVOK 31/18 Q1011 NOSIG=
201906271730 METAR LRBS 271730Z 29004KT 260V340 CAVOK 29/18 Q1011 NOSIG=
201906271800 METAR LRBS 271800Z 29003KT 260V320 CAVOK 29/18 Q1011 NOSIG=
201906271830 METAR LRBS 271830Z 29003KT CAVOK 28/19 Q1011 NOSIG=
201906271900 METAR LRBS 271900Z 29003KT CAVOK 27/19 Q1012 NOSIG=
201906271930 METAR LRBS 271930Z 31004KT 260V010 CAVOK 27/19 Q1012 NOSIG=
201906272000 METAR LRBS 272000Z 04008KT 360V070 CAVOK 27/17 Q1012 NOSIG=
201906272030 METAR LRBS 272030Z 04004KT CAVOK 25/18 Q1012 NOSIG=
201906272100 METAR LRBS 272100Z 11004KT CAVOK 25/17 Q1012 NOSIG=
201906272130 METAR LRBS 272130Z 15003KT CAVOK 25/17 Q1011 NOSIG=
201906272200 METAR LRBS 272200Z VRB01KT CAVOK 25/17 Q1011 NOSIG=
201906272230 METAR LRBS 272230Z VRB02KT CAVOK 24/17 Q1011 NOSIG=
201906272300 METAR LRBS 272300Z 06006KT CAVOK 22/18 Q1010 NOSIG=
201906272330 METAR LRBS 272330Z 03003KT 350V050 CAVOK 23/18 Q1011 NOSIG=
201906280000 METAR LRBS 280000Z 12001KT CAVOK 22/18 Q1011 NOSIG=
201906280030 METAR LRBS 280030Z 03001KT CAVOK 22/18 Q1011 NOSIG=
201906280100 METAR LRBS 280100Z 04002KT CAVOK 21/18 Q1010 NOSIG=
201906280130 METAR LRBS 280130Z 03004KT 360V060 CAVOK 20/18 Q1010 NOSIG=
201906280200 METAR LRBS 280200Z VRB02KT CAVOK 20/18 Q1011 NOSIG=
201906280230 METAR LRBS 280230Z 00000KT CAVOK 20/18 Q1011 NOSIG=
201906280300 METAR LRBS 280300Z 06003KT CAVOK 20/17 Q1011 NOSIG=
201906280330 METAR LRBS 280330Z 08003KT CAVOK 21/18 Q1011 NOSIG=
201906280400 METAR LRBS 280400Z VRB02KT CAVOK 22/18 Q1012 NOSIG=
201906280430 METAR LRBS 280430Z 08008KT CAVOK 22/16 Q1012 NOSIG=
201906280500 METAR LRBS 280500Z 06008KT CAVOK 23/15 Q1012 NOSIG=
201906280530 METAR LRBS 280530Z 06010KT CAVOK 23/15 Q1012 NOSIG=
201906280600 METAR LRBS 280600Z 05010KT 020V080 CAVOK 23/14 Q1012 NOSIG=
201906280630 METAR LRBS 280630Z 05011KT CAVOK 23/14 Q1012 NOSIG=
201906280700 METAR LRBS 280700Z 05011KT CAVOK 25/14 Q1012 NOSIG=
201906280730 METAR COR LRBS 280730Z 05011KT 020V080 CAVOK 24/14 Q1013
                        NOSIG=
201906280800 METAR LRBS 280800Z 05011KT 020V080 CAVOK 24/14 Q1013 NOSIG=
201906280830 METAR LRBS 280830Z 07011KT CAVOK 24/13 Q1013 NOSIG=
201906280900 METAR LRBS 280900Z 07009KT CAVOK 24/14 Q1013 NOSIG=
201906280930 METAR LRBS 280930Z 07009KT CAVOK 25/14 Q1013 NOSIG=
201906281000 METAR LRBS 281000Z 10010KT CAVOK 26/13 Q1012 NOSIG=
201906281030 METAR LRBS 281030Z 11009KT CAVOK 26/15 Q1012 NOSIG=
201906281100 METAR LRBS 281100Z 11009KT 070V140 CAVOK 27/14 Q1012 NOSIG=
201906281130 METAR LRBS 281130Z 11007KT 080V140 CAVOK 26/13 Q1012 NOSIG=
201906281200 METAR LRBS 281200Z 07007KT 9999 FEW050CB 25/13 Q1013 NOSIG=
201906281230 METAR LRBS 281230Z 04010KT 9999 FEW050CB 24/14 Q1012 NOSIG=
201906281300 METAR LRBS 281300Z 05012KT 9999 FEW050CB 24/14 Q1012 NOSIG=
201906281330 METAR LRBS 281330Z 04006KT 010V080 9999 FEW036 FEW050CB 23/15
                        Q1012 NOSIG=
201906281400 METAR LRBS 281400Z 07008KT 040V100 9999 FEW041 FEW050CB 25/15
                        Q1012 NOSIG=
201906281430 METAR LRBS 281430Z 08006KT 050V110 CAVOK 25/14 Q1012 NOSIG=
201906281500 METAR LRBS 281500Z 07005KT CAVOK 25/15 Q1013 NOSIG=
201906281530 METAR LRBS 281530Z 04006KT CAVOK 24/15 Q1013 NOSIG=
201906281600 METAR LRBS 281600Z 05005KT CAVOK 23/15 Q1013 NOSIG=
201906281630 METAR LRBS 281630Z 05005KT 9999 FEW050CB 24/15 Q1013 NOSIG=
201906281700 METAR LRBS 281700Z 05006KT 9999 FEW050CB 23/15 Q1013 NOSIG=
201906281730 METAR COR LRBS 281730Z 05013KT 030V090 9999 -SHRA FEW050CB
                        22/13 Q1014 NOSIG=
201906281800 METAR LRBS 281800Z 05011KT 030V090 9999 FEW050CB 21/13 Q1014
                        NOSIG=
201906281830 METAR LRBS 281830Z 06010KT 9999 FEW050CB 21/12 Q1014 NOSIG=
201906281900 METAR LRBS 281900Z 06007KT 9999 FEW050CB 20/12 Q1015 NOSIG=
201906281930 METAR COR LRBS 281930Z 04008KT 9999 -SHRA FEW050CB 20/12
                        Q1015 NOSIG=
201906282000 METAR LRBS 282000Z 05008KT 9999 -SHRA SCT048CB 19/12 Q1016
                        NOSIG=
201906282030 METAR LRBS 282030Z 06007KT 9999 FEW045CB 19/12 Q1016 NOSIG=
201906282100 METAR LRBS 282100Z 05007KT CAVOK 19/11 Q1016 NOSIG=
201906282130 METAR LRBS 282130Z 06008KT CAVOK 18/10 Q1016 NOSIG=
201906282200 METAR LRBS 282200Z 06006KT CAVOK 17/11 Q1016 NOSIG=
201906282230 METAR LRBS 282230Z 05006KT CAVOK 18/11 Q1016 NOSIG=
201906282300 METAR LRBS 282300Z 04009KT CAVOK 18/10 Q1017 NOSIG=
201906282330 METAR COR LRBS 282330Z 06008KT CAVOK 18/10 Q1017 NOSIG=
201906290000 METAR LRBS 290000Z 05006KT CAVOK 18/10 Q1017 NOSIG=
201906290030 METAR LRBS 290030Z 05007KT CAVOK 18/10 Q1017 NOSIG=
201906290100 METAR LRBS 290100Z 06006KT CAVOK 18/10 Q1017 NOSIG=
201906290130 METAR LRBS 290130Z 07005KT CAVOK 18/10 Q1017 NOSIG=
201906290200 METAR LRBS 290200Z 06006KT CAVOK 18/10 Q1017 NOSIG=
201906290230 METAR LRBS 290230Z 09004KT CAVOK 17/10 Q1017 NOSIG=
201906290300 METAR LRBS 290300Z 09003KT CAVOK 18/10 Q1017 NOSIG=
201906290330 METAR LRBS 290330Z VRB01KT CAVOK 18/10 Q1018 NOSIG=
201906290400 METAR LRBS 290400Z VRB02KT CAVOK 18/10 Q1018 NOSIG=
201906290430 METAR LRBS 290430Z VRB01KT CAVOK 18/11 Q1018 NOSIG=
201906290500 METAR LRBS 290500Z 31003KT CAVOK 18/11 Q1018 NOSIG=
201906290530 METAR LRBS 290530Z 32003KT CAVOK 19/12 Q1019 NOSIG=
201906290600 METAR LRBS 290600Z 31003KT 250V340 CAVOK 20/11 Q1019 NOSIG=
201906290630 METAR LRBS 290630Z 30003KT 260V360 CAVOK 21/11 Q1019 NOSIG=
201906290700 METAR LRBS 290700Z 31003KT 270V050 CAVOK 21/10 Q1019 NOSIG=
201906290730 METAR LRBS 290730Z 34003KT 310V060 CAVOK 22/10 Q1018 NOSIG=
201906290800 METAR LRBS 290800Z 36004KT 270V040 CAVOK 23/10 Q1019 NOSIG=
201906290830 METAR LRBS 290830Z 34005KT 280V040 CAVOK 23/09 Q1018 NOSIG=
201906290900 METAR LRBS 290900Z 27006KT 240V310 CAVOK 23/09 Q1018 NOSIG=
201906290930 METAR COR LRBS 290930Z 30006KT 260V010 CAVOK 23/11 Q1018
                        NOSIG=
201906291000 METAR LRBS 291000Z 27009KT CAVOK 24/12 Q1018 NOSIG=
201906291030 METAR LRBS 291030Z 28006KT 250V350 CAVOK 23/10 Q1018 NOSIG=
201906291100 METAR LRBS 291100Z 34003KT 270V040 CAVOK 24/10 Q1017 NOSIG=
201906291130 METAR LRBS 291130Z VRB04KT CAVOK 25/10 Q1017 NOSIG=
201906291200 METAR LRBS 291200Z 36003KT 310V050 CAVOK 24/10 Q1017 NOSIG=
201906291230 METAR LRBS 291230Z 30005KT 240V010 CAVOK 25/12 Q1017 NOSIG=
201906291300 METAR LRBS 291300Z 29006KT 230V340 CAVOK 25/10 Q1017 NOSIG=
201906291330 METAR LRBS 291330Z 31004KT 250V350 CAVOK 26/12 Q1017 NOSIG=
201906291400 METAR LRBS 291400Z 28006KT 240V320 CAVOK 26/11 Q1017 NOSIG=
201906291430 METAR LRBS 291430Z 31005KT 270V340 CAVOK 26/11 Q1017 NOSIG=
201906291500 METAR LRBS 291500Z 27009KT 240V310 CAVOK 25/10 Q1017 NOSIG=
201906291530 METAR LRBS 291530Z 29007KT 260V320 CAVOK 25/10 Q1017 NOSIG=
201906291600 METAR LRBS 291600Z 28003KT 240V320 CAVOK 26/10 Q1017 NOSIG=
201906291630 METAR LRBS 291630Z 29003KT 240V330 CAVOK 25/10 Q1017 NOSIG=
201906291700 METAR LRBS 291700Z 28003KT CAVOK 25/11 Q1017 NOSIG=
201906291730 METAR LRBS 291730Z 29002KT CAVOK 24/12 Q1017 NOSIG=
201906291800 METAR LRBS 291800Z 29002KT CAVOK 23/12 Q1017 NOSIG=
201906291830 METAR LRBS 291830Z 36001KT CAVOK 23/12 Q1017 NOSIG=
201906291900 METAR LRBS 291900Z VRB01KT CAVOK 21/13 Q1018 NOSIG=
201906291930 METAR LRBS 291930Z 02003KT CAVOK 20/13 Q1018 NOSIG=
201906292000 METAR LRBS 292000Z 07008KT CAVOK 20/13 Q1018 NOSIG=
201906292030 METAR LRBS 292030Z 08006KT 040V100 CAVOK 19/12 Q1019 NOSIG=
201906292100 METAR LRBS 292100Z 06003KT CAVOK 18/12 Q1019 NOSIG=
201906292130 METAR LRBS 292130Z VRB02KT CAVOK 18/12 Q1019 NOSIG=
201906292200 METAR LRBS 292200Z VRB02KT CAVOK 18/12 Q1019 NOSIG=
201906292230 METAR LRBS 292230Z VRB01KT CAVOK 18/12 Q1019 NOSIG=
201906292300 METAR LRBS 292300Z 06001KT CAVOK 18/12 Q1019 NOSIG=
201906292330 METAR LRBS 292330Z AUTO 28003KT 9999 SCT100/// SCT110///
                        17/13 Q1019 NOSIG=
201906300000 METAR COR LRBS 300000Z 25002KT 9999 SCT099 17/13 Q1019 NOSIG=
201906300030 METAR LRBS 300030Z 25002KT CAVOK 17/12 Q1019 NOSIG=
201906300100 METAR LRBS 300100Z 31002KT CAVOK 16/12 Q1019=
201906300130 METAR LRBS 300130Z VRB02KT CAVOK 16/12 Q1019 NOSIG=
201906300200 METAR COR LRBS 300200Z 25001KT CAVOK 16/12 Q1019 NOSIG=
201906300230 METAR LRBS 300230Z VRB02KT CAVOK 15/12 Q1019 NOSIG=
201906300300 METAR LRBS 300300Z 27004KT CAVOK 15/13 Q1020 NOSIG=
201906300330 METAR LRBS 300330Z 26003KT CAVOK 16/13 Q1020 NOSIG=
201906300400 METAR LRBS 300400Z VRB02KT CAVOK 17/12 Q1020 NOSIG=
201906300430 METAR LRBS 300430Z 25004KT CAVOK 19/12 Q1020 NOSIG=
201906300500 METAR LRBS 300500Z 26004KT CAVOK 20/12 Q1020 NOSIG=
201906300530 METAR LRBS 300530Z 27004KT 240V310 CAVOK 20/13 Q1020 NOSIG=
201906300600 METAR LRBS 300600Z 28006KT 250V310 CAVOK 22/13 Q1020 NOSIG=
201906300630 METAR LRBS 300630Z 27006KT 240V320 CAVOK 23/12 Q1020 NOSIG=
201906300700 METAR LRBS 300700Z 28006KT 240V340 CAVOK 24/13 Q1020 NOSIG=
201906300730 METAR LRBS 300730Z 28006KT 250V320 CAVOK 24/12 Q1020 NOSIG=
201906300800 METAR LRBS 300800Z 28006KT 240V320 CAVOK 25/11 Q1020 NOSIG=
201906300830 METAR LRBS 300830Z 30005KT 250V360 CAVOK 26/11 Q1020 NOSIG=
201906300900 METAR LRBS 300900Z 29006KT 260V340 CAVOK 26/11 Q1021 NOSIG=
201906300930 METAR LRBS 300930Z 30005KT 240V020 CAVOK 27/11 Q1021 NOSIG=
201906301000 METAR LRBS 301000Z 29006KT 260V340 CAVOK 27/12 Q1021 NOSIG=
201906301030 METAR LRBS 301030Z 29006KT 240V340 CAVOK 28/11 Q1020 NOSIG=
201906301100 METAR LRBS 301100Z 32004KT 240V030 CAVOK 28/12 Q1020 NOSIG=
201906301130 METAR LRBS 301130Z 31007KT 260V350 CAVOK 28/11 Q1020 NOSIG=
201906301200 METAR LRBS 301200Z 28008KT 260V330 CAVOK 29/11 Q1020 NOSIG=
201906301230 METAR LRBS 301230Z 32005KT 250V350 CAVOK 29/12 Q1020 NOSIG=
201906301300 METAR LRBS 301300Z 33005KT 260V050 CAVOK 29/12 Q1020 NOSIG=
201906301330 METAR LRBS 301330Z 31005KT 220V360 CAVOK 29/12 Q1020 NOSIG=
201906301400 METAR LRBS 301400Z 29006KT 230V340 CAVOK 29/12 Q1019 NOSIG=
201906301430 METAR LRBS 301430Z 32004KT 260V040 CAVOK 29/12 Q1019 NOSIG=
201906301500 METAR LRBS 301500Z 27008KT 240V310 CAVOK 29/12 Q1019 NOSIG=
201906301530 METAR LRBS 301530Z 28007KT 250V310 CAVOK 29/12 Q1019 NOSIG=
201906301600 METAR COR LRBS 301600Z 27007KT 240V300 CAVOK 29/12 Q1019
                        NOSIG=
201906301630 METAR LRBS 301630Z 29006KT 260V340 CAVOK 28/12 Q1019 NOSIG=
201906301700 METAR LRBS 301700Z 27008KT CAVOK 28/13 Q1019 NOSIG=
201906301730 METAR LRBS 301730Z 27008KT 240V300 CAVOK 26/13 Q1019 NOSIG=
201906301800 METAR LRBS 301800Z 27007KT CAVOK 26/13 Q1019 NOSIG=
201906301830 METAR LRBS 301830Z 27006KT CAVOK 25/13 Q1019 NOSIG=
201906301900 METAR LRBS 301900Z 27006KT CAVOK 24/13 Q1019 NOSIG=
201906301930 METAR LRBS 301930Z 27007KT CAVOK 24/13 Q1019 NOSIG=
201906302000 METAR LRBS 302000Z 28005KT CAVOK 23/14 Q1019 NOSIG=
201906302030 METAR LRBS 302030Z 28005KT CAVOK 22/14 Q1019 NOSIG=
201906302100 METAR LRBS 302100Z 28004KT CAVOK 22/14 Q1019 NOSIG=
201906302130 METAR LRBS 302130Z 28004KT CAVOK 22/14 Q1019 NOSIG=
201906302200 METAR LRBS 302200Z 28004KT CAVOK 21/15 Q1019 NOSIG=
201906302230 METAR LRBS 302230Z 28004KT CAVOK 21/15 Q1019 NOSIG=
201906302300 METAR LRBS 302300Z 28003KT CAVOK 20/15 Q1019 NOSIG=
201906302330 METAR LRBS 302330Z 27003KT CAVOK 20/15 Q1019 NOSIG=