201906010304 TAF AMD LRBS 010304Z 0103/0124 VRB04KT 9999 BKN015 OVC035
                      TEMPO 0103/0106 BKN010 FEW030CB OVC035
                      BECMG 0106/0108 BKN035=
201906010500 TAF LRBS 010500Z 0106/0206 VRB04KT 9999 BKN005 OVC030
                      BECMG 0106/0108 SCT015 BKN040
                      TEMPO 0115/0122 5000 -TSRA SCT015 SCT030CB
                       BKN040
                      TEMPO 0201/0205 3000 BR=
201906011100 TAF LRBS 011100Z 0112/0212 VRB04KT 9999 SCT035
                      PROB40 TEMPO 0115/0122 5000 -TSRA SCT015
                       SCT030CB
                      TEMPO 0201/0205 3000 BR=
201906011700 TAF LRBS 011700Z 0118/0218 VRB04KT CAVOK
                      TEMPO 0201/0204 5000 BR
                      BECMG 0206/0208 05010KT
                      TEMPO 0213/0217 SCT040CB=
201906012300 TAF LRBS 012300Z 0200/0224 VRB04KT CAVOK
                      TEMPO 0201/0204 5000 BR
                      BECMG 0206/0208 05010KT
                      TEMPO 0213/0217 SCT040CB=
201906020500 TAF LRBS 020500Z 0206/0306 07008KT CAVOK
                      PROB30 TEMPO 0213/0217 5000 -TSRA SCT010
                       SCT040CB
                      PROB40 TEMPO 0220/0306 VRB15G25KT 3000 TSRA
                       BKN010 BKN035CB=
201906021100 TAF LRBS 021100Z 0212/0312 VRB04KT 9999 SCT030
                      PROB30 TEMPO 0213/0217 5000 -TSRA SCT010
                       SCT030CB
                      BECMG 0220/0222 07010KT 5000 -SHRA SCT010
                       SCT030CB
                      PROB40 TEMPO 0222/0305 3000 TSRA BKN010 BKN035CB
                       BECMG 0305/0307 07015G25KT 9999 NSW SCT015
                       SCT035
                      TEMPO 0310/0312 SCT030CB=
201906021700 TAF LRBS 021700Z 0218/0318 VRB04KT 9999 SCT045CB
                      TEMPO 0218/0222 5000 -TSRA
                      BECMG 0220/0222 07010KT
                      TEMPO 0300/0307 5000 -SHRA
                      PROB40 TEMPO 0302/0307 3000 TSRA BKN010 BKN035CB
                       BECMG 0307/0309 9999 NSW BKN030
                      TEMPO 0311/0318 VRB20KT 5000 TSRA SCT015
                       SCT030CB=
201906022300 TAF LRBS 022300Z 0300/0324 04010KT 9999 SCT045CB
                      TEMPO 0300/0307 5000 -SHRA
                      PROB40 TEMPO 0302/0307 3000 TSRA BKN010 BKN035CB
                       BECMG 0307/0309 9999 NSW BKN030
                      TEMPO 0311/0318 VRB20KT 5000 TSRA SCT015
                       SCT030CB=
201906030500 TAF LRBS 030500Z 0306/0406 05008KT 9999 FEW040CB BKN045
                      TEMPO 0306/0308 5000 -SHRA
                      TEMPO 0308/0312 BKN045
                      TEMPO 0314/0321 VRB20KT 5000 TSRA BKN015
                       SCT040CB
                      TEMPO 0401/0405 5000 BR BKN005=
201906031100 TAF LRBS 031100Z 0312/0412 04006KT 9999 FEW035CB BKN045
                      TEMPO 0314/0321 VRB20KT 5000 TSRA BKN015
                       BKN030CB
                      TEMPO 0401/0405 5000 BR BKN005
                      TEMPO 0409/0412 FEW035CB=
201906031132 TAF COR LRBS 031132Z 0312/0412 04006KT 9999 SCT020 BKN045
                      TEMPO 0314/0321 VRB20KT 5000 TSRA BKN015
                       BKN030CB
                      TEMPO 0401/0405 5000 BR BKN005
                      TEMPO 0409/0412 FEW035CB=
201906031700 TAF LRBS 031700Z 0318/0418 04006KT 9999 SCT020 BKN045
                      TEMPO 0318/0323 VRB20G30KT 5000 TSRA BKN015
                       BKN030CB
                      PROB30 TEMPO 0401/0405 5000 BR BKN005
                      BECMG 0409/0411 SCT035CB
                      TEMPO 0411/0418 VRB20G30KT 3000 TSRA BKN010
                       BKN030CB=
201906032300 TAF AMD LRBS 040338Z 0403/0424 08008KT 3000 BR OVC002
                      BECMG 0403/0405 5000 BKN005
                      BECMG 0405/0407 9999 NSW SCT025
                      BECMG 0409/0411 SCT035CB
                      TEMPO 0411/0418 VRB20G30KT 3000 TSRA BKN010
                       BKN030CB
                      TEMPO 0420/0424 5000 BR=
201906040338 TAF AMD LRBS 040338Z 0403/0424 08008KT 3000 BR OVC002
                      BECMG 0403/0405 5000 BKN005
                      BECMG 0405/0407 9999 NSW SCT025
                      BECMG 0409/0411 SCT035CB
                      TEMPO 0411/0418 VRB20G30KT 3000 TSRA BKN010
                       BKN030CB
                      TEMPO 0420/0424 5000 BR=
201906040500 TAF LRBS 040500Z 0406/0506 09008KT 9999 BKN020
                      TEMPO 0406/0407 BKN010
                      TEMPO 0407/0410 SCT035CB
                      TEMPO 0412/0417 VRB20G30KT 3000 TSRA BKN010
                       BKN030CB
                      BECMG 0421/0423 5000 BR
                      TEMPO 0423/0504 1500 BR BKN005=
201906041100 TAF LRBS 041100Z 0412/0512 07008KT 9999 SCT040
                      TEMPO 0412/0417 VRB20G30KT 3000 TSRA BKN010
                       BKN030CB
                      BECMG 0421/0423 5000 BR
                      TEMPO 0423/0504 1500 BR BKN005
                      TEMPO 0510/0512 VRB15G25KT 3000 TSRA BKN010
                       BKN030CB=
201906041700 TAF LRBS 041700Z 0418/0518 07008KT CAVOK
                      BECMG 0421/0423 5000 BR BKN010
                      TEMPO 0423/0504 1500 BR BKN005
                      BECMG 0506/0507 CAVOK
                      TEMPO 0510/0517 VRB15G25KT 5000 TSRA BKN010
                       BKN030CB=
201906042300 TAF AMD LRBS 050340Z 0503/0524 06008KT 5000 BR BKN003
                      BECMG 0504/0506 CAVOK
                      TEMPO 0510/0517 VRB15G25KT 5000 TSRA BKN010
                       BKN030CB=
201906050340 TAF AMD LRBS 050340Z 0503/0524 06008KT 5000 BR BKN003
                      BECMG 0504/0506 CAVOK
                      TEMPO 0510/0517 VRB15G25KT 5000 TSRA BKN010
                       BKN030CB=
201906050500 TAF LRBS 050500Z 0506/0606 07010KT 5000 BR BKN005
                      BECMG 0506/0508 9999 BKN025
                      TEMPO 0510/0517 VRB15G25KT 5000 TSRA BKN010
                       BKN030CB
                      BECMG 0601/0603 5000 BR BKN010
                      PROB40 TEMPO 0603/0605 3000 BR BKN005=
201906051100 TAF LRBS 051100Z 0512/0612 07010KT 9999 BKN035
                      TEMPO 0512/0517 VRB15G25KT 5000 TSRA BKN010
                       BKN030CB
                      BECMG 0601/0603 5000 BR BKN010
                      PROB40 TEMPO 0603/0605 3000 BR BKN005=
201906051700 TAF LRBS 051700Z 0518/0618 04005KT CAVOK
                      BECMG 0600/0602 5000 BR BKN010
                      TEMPO 0602/0605 3000 BR BKN005
                      BECMG 0605/0607 CAVOK
                      TEMPO 0612/0616 SCT040CB=
201906052300 TAF LRBS 052300Z 0600/0624 04005KT CAVOK
                      BECMG 0600/0602 5000 BR BKN010
                      TEMPO 0602/0605 3000 BR BKN005
                      BECMG 0605/0607 CAVOK
                      TEMPO 0612/0616 SCT040CB=
201906060515 TAF COR LRBS 060515Z 0606/0706 VRB04KT CAVOK
                      TEMPO 0611/0616 SCT040CB
                      PROB40 0612/0615 5000 -TSRA
                      TEMPO 0701/0705 3000 BR=
201906061100 TAF LRBS 061100Z 0612/0712 VRB04KT 9999 SCT040
                      PROB40 0612/0615 VRB15G25KT 5000 -TSRA SCT040CB
                       BECMG 0623/0701 5000 BR
                      TEMPO 0701/0704 1500 BR BKN005
                      BECMG 0704/0706 9999 NSW=
201906061700 TAF LRBS 061700Z 0618/0718 VRB04KT 9999 SCT040
                      BECMG 0623/0701 5000 BR
                      PROB30 TEMPO 0701/0704 1500 BR BKN005
                      BECMG 0704/0706 9999 NSW
                      TEMPO 0712/0716 SCT040CB=
201906062300 TAF LRBS 062300Z 0700/0724 VRB04KT 5000 BR SCT040
                      PROB30 TEMPO 0701/0704 1500 BR BKN005
                      BECMG 0704/0706 9999 NSW
                      TEMPO 0712/0716 SCT040CB=
201906070500 TAF LRBS 070500Z 0706/0806 28005KT CAVOK
                      TEMPO 0714/0717 SCT040CB
                      PROB40 TEMPO 0723/0805 5000 BR=
201906071100 TAF LRBS 071100Z 0712/0812 28005KT 9999 SCT040
                      TEMPO 0714/0717 SCT040CB
                      PROB40 TEMPO 0723/0805 5000 BR
                      TEMPO 0810/0812 FEW040CB=
201906071700 TAF LRBS 071700Z 0718/0818 VRB04KT CAVOK
                      TEMPO 0801/0804 5000 BR
                      TEMPO 0812/0817 SCT040CB
                      PROB40 0813/0816 5000 -TSRA=
201906072300 TAF LRBS 072300Z 0800/0824 VRB04KT CAVOK
                      TEMPO 0800/0804 5000 BR
                      TEMPO 0812/0817 SCT040CB
                      PROB40 0813/0816 5000 -TSRA=
201906080500 TAF LRBS 080500Z 0806/0906 VRB04KT CAVOK
                      TEMPO 0812/0817 03010KT SCT040CB
                      PROB30 TEMPO 0813/0816 5000 -TSRA BKN045CB
                       TEMPO 0903/0906 05010KT=
201906081100 TAF LRBS 081100Z 0812/0912 VRB04KT CAVOK
                      TEMPO 0813/0817 SCT040CB
                      PROB30 TEMPO 0814/0816 5000 -TSRA BKN045CB
                       BECMG 0903/0904 04010KT
                      TEMPO 0910/0912 5000 -TSRA SCT040CB=
201906081700 TAF LRBS 081700Z 0818/0918 VRB04KT 9999 FEW050CB
                      BECMG 0818/0820 NSC
                      PROB30 TEMPO 0902/0906 5000 -SHRA BR SCT010
                       SCT040CB
                      BECMG 0907/0909 04010KT
                      TEMPO 0914/0918 5000 -TSRA SCT040CB=
201906082300 TAF LRBS 082300Z 0900/0924 VRB04KT CAVOK
                      PROB30 TEMPO 0902/0906 5000 -SHRA BR SCT010
                       SCT040CB
                      BECMG 0907/0909 07012KT
                      TEMPO 0912/0918 VRB20KT 5000 -TSRA SCT040CB=
201906090500 TAF LRBS 090500Z 0906/1006 08008KT CAVOK
                      TEMPO 0912/0918 VRB20G30KT 3000 TSRA BKN010
                       BKN030CB
                      TEMPO 1000/1006 5000 BR=
201906091100 TAF LRBS 091100Z 0912/1012 08008KT CAVOK
                      TEMPO 0912/0918 VRB20G30KT 3000 TSRA BKN010
                       BKN030CB
                      PROB30 TEMPO 1001/1006 VRB15G25KT 5000 -TSRA
                       SCT010 BKN035CB=
201906091700 TAF LRBS 091700Z 0918/1018 30007KT CAVOK
                      PROB40 TEMPO 0918/0920 VRB20G30KT 1500 +TSRA
                       BKN030CB
                      BECMG 0920/0921 04010KT
                      PROB30 TEMPO 1001/1004 VRB15G25KT 5000 -TSRA
                       SCT040CB
                      TEMPO 1005/1009 SCT040CB
                      TEMPO 1011/1016 VRB15G25KT 3000 TSRA BKN035CB=
201906092300 TAF LRBS 092300Z 1000/1024 30007KT CAVOK
                      BECMG 1002/1004 04010KT
                      TEMPO 1005/1009 SCT040CB
                      TEMPO 1011/1016 VRB15G25KT 3000 TSRA BKN035CB=
201906100500 TAF LRBS 100500Z 1006/1106 04010KT CAVOK
                      BECMG 1010/1012 SCT040CB
                      TEMPO 1013/1017 06020G30KT 3000 TSRA BKN035CB
                       BECMG 1019/1021 SCT040=
201906101100 TAF LRBS 101100Z 1012/1112 04012KT CAVOK
                      TEMPO 1012/1021 SCT040CB
                      PROB40 TEMPO 1014/1018 04020G30KT 3000 TSRA
                       BKN035CB
                      PROB40 TEMPO 1106/1110 SCT035CB=
201906101700 TAF LRBS 101700Z 1018/1118 04012KT CAVOK
                      TEMPO 1018/1019 SCT035CB
                      PROB30 TEMPO 1102/1107 5000 -TSRA BKN010
                       SCT035CB
                      TEMPO 1112/1117 04020G30KT SCT030CB=
201906102300 TAF LRBS 102300Z 1100/1124 04012KT CAVOK
                      PROB30 TEMPO 1102/1107 5000 -TSRA BKN010
                       SCT035CB
                      TEMPO 1112/1117 04020G30KT SCT030CB
                      BECMG 1119/1121 VRB04KT=
201906110500 TAF LRBS 110500Z 1106/1206 04012KT 9999 SCT040CB
                      BECMG 1106/1107 NSC
                      TEMPO 1109/1114 04015G25KT SCT030CB
                      PROB40 TEMPO 1109/1113 5000 TSRA=
201906111100 TAF LRBS 111100Z 1112/1212 04012KT 9999 SCT040
                      TEMPO 1112/1115 SCT030CB
                      PROB40 TEMPO 1112/1115 VRB20KT 5000 TSRA
                       TEMPO 1118/1203 VRB04KT=
201906111700 TAF LRBS 111700Z 1118/1218 03008KT CAVOK
                      TEMPO 1210/1217 SCT040CB=
201906112300 TAF LRBS 112300Z 1200/1224 05008KT CAVOK
                      TEMPO 1210/1217 SCT040CB=
201906120500 TAF LRBS 120500Z 1206/1306 VRB04KT CAVOK
                      PROB30 TEMPO 1215/1218 VRB18KT 3000 TSRA
                       BKN040CB=
201906121100 TAF LRBS 121100Z 1212/1312 VRB04KT CAVOK
                      PROB30 TEMPO 1215/1218 VRB18KT 3000 TSRA
                       BKN040CB=
201906121700 TAF LRBS 121700Z 1218/1318 30006KT CAVOK
                      TEMPO 1314/1318 FEW040CB
                      PROB30 TEMPO 1314/1318 VRB20KT -TSRA=
201906122300 TAF LRBS 122300Z 1300/1324 VRB04KT CAVOK
                      TEMPO 1314/1318 FEW040CB
                      PROB30 TEMPO 1314/1318 VRB20KT -TSRA=
201906130500 TAF LRBS 130500Z 1306/1406 VRB04KT CAVOK
                      TEMPO 1312/1317 SCT030CB=
201906131100 TAF LRBS 131100Z 1312/1412 VRB04KT CAVOK
                      TEMPO 1313/1317 SCT030CB=
201906131509 TAF AMD LRBS 131509Z 1315/1412 VRB04KT 9999 SCT035CB
                      PROB40 TEMPO 1315/1318 VRB15G25KT 3000 TSRA
                       BKN010 BKN030CB
                      BECMG 1318/1320 NSC=
201906131700 TAF LRBS 131700Z 1318/1418 VRB04KT CAVOK
                      TEMPO 1414/1418 SCT040CB=
201906132300 TAF LRBS 132300Z 1400/1424 VRB04KT CAVOK
                      TEMPO 1414/1418 SCT040CB=
201906140500 TAF LRBS 140500Z 1406/1506 VRB04KT CAVOK
                      TEMPO 1413/1418 SCT040CB
                      PROB40 1414/1417 VRB20KT 5000 -TSRA=
201906141100 TAF LRBS 141100Z 1412/1512 VRB04KT CAVOK
                      TEMPO 1413/1418 SCT040CB
                      PROB40 1414/1417 VRB20KT 5000 -TSRA=
201906141700 TAF LRBS 141700Z 1418/1518 VRB04KT CAVOK
                      TEMPO 1418/1420 SCT030CB
                      TEMPO 1512/1518 VRB20G30KT 3000 TSRA BKN010
                       BKN030CB=
201906142300 TAF LRBS 142300Z 1500/1524 VRB04KT CAVOK
                      TEMPO 1512/1517 VRB20G30KT 3000 TSRA BKN010
                       BKN030CB=
201906150500 TAF LRBS 150500Z 1506/1606 VRB04KT CAVOK
                      TEMPO 1514/1519 SCT050CB
                      PROB40 1514/1518 VRB20G30KT -TSRA=
201906151100 TAF LRBS 151100Z 1512/1612 VRB04KT CAVOK
                      TEMPO 1513/1519 SCT050CB
                      PROB40 1514/1518 VRB20G30KT -TSRA
                      TEMPO 1610/1612 VRB15G25KT -TSRA SCT045CB=
201906151700 TAF LRBS 151700Z 1518/1618 VRB04KT CAVOK
                      TEMPO 1518/1521 SCT050CB
                      PROB40 1518/1521 VRB20KT 5000 -TSRA
                      TEMPO 1614/1618 VRB15G25KT -TSRA SCT045CB=
201906152300 TAF LRBS 152300Z 1600/1624 VRB04KT CAVOK
                      TEMPO 1614/1618 VRB15G25KT 5000 -TSRA SCT045CB=
201906160500 TAF LRBS 160500Z 1606/1706 VRB04KT CAVOK
                      TEMPO 1613/1617 VRB15G25KT 5000 -TSRA SCT045CB=
201906161100 TAF LRBS 161100Z 1612/1712 VRB04KT CAVOK
                      TEMPO 1613/1617 VRB15G25KT 5000 -TSRA SCT045CB=
201906161700 TAF LRBS 161700Z 1618/1718 VRB04KT 9999 SCT050CB
                      TEMPO 1618/1620 VRB15G25KT -TSRA
                      BECMG 1620/1622 NSC
                      BECMG 1710/1712 SCT045CB
                      TEMPO 1713/1717 VRB20G30KT 5000 TSRA=
201906162300 TAF LRBS 162300Z 1700/1724 VRB04KT CAVOK
                      BECMG 1710/1712 SCT045CB
                      TEMPO 1713/1717 VRB20G30KT 5000 TSRA
                      BECMG 1718/1720 NSC=
201906170500 TAF LRBS 170500Z 1706/1806 05008KT CAVOK
                      BECMG 1710/1712 SCT045CB
                      TEMPO 1714/1718 VRB20G30KT 5000 TSRA
                      BECMG 1718/1720 NSC=
201906171100 TAF LRBS 171100Z 1712/1812 05008KT 9999 SCT050CB
                      TEMPO 1714/1718 VRB20G30KT 5000 TSRA
                      BECMG 1718/1720 NSC=
201906171700 TAF LRBS 171700Z 1718/1818 VRB04KT CAVOK
                      PROB30 TEMPO 1812/1816 5000 -TSRA BKN015
                       SCT030CB=
201906172300 TAF LRBS 172300Z 1800/1824 07015KT CAVOK
                      BECMG 1800/1802 VRB04KT
                      PROB30 TEMPO 1812/1816 5000 -TSRA BKN015
                       SCT030CB=
201906180500 TAF LRBS 180500Z 1806/1906 VRB04KT CAVOK
                      BECMG 1806/1808 06010KT
                      BECMG 1811/1813 SCT045CB
                      TEMPO 1813/1816 VRB20G30KT 3000 TSRA SCT010
                       BKN035CB
                      BECMG 1816/1818 VRB04KT NSC=
201906181100 TAF LRBS 181100Z 1812/1912 05007KT 9999 FEW045
                      BECMG 1812/1813 SCT045CB
                      TEMPO 1813/1816 VRB20G30KT 3000 TSRA SCT010
                       BKN035CB
                      BECMG 1816/1818 VRB04KT NSC
                      PROB30 TEMPO 1819/1822 5000 -TSRA SCT040CB
                       TEMPO 1910/1912 SCT045CB=
201906181700 TAF LRBS 181700Z 1818/1918 02008KT 9999 BKN045
                      PROB30 TEMPO 1818/1822 3000 TSRA SCT010 BKN035CB
                       BECMG 1910/1912 06010KT SCT045CB
                      TEMPO 1912/1918 VRB20G30KT 3000 TSRA BKN010
                       BKN035CB
                      PROB30 TEMPO 1912/1917 1500 +TSRA=
201906182300 TAF LRBS 182300Z 1900/1924 06008KT 9999 BKN045
                      TEMPO 1900/1903 SCT030CB OVC040
                      BECMG 1910/1912 SCT045CB
                      TEMPO 1912/1918 VRB20G30KT 3000 TSRA BKN010
                       BKN035CB
                      PROB30 TEMPO 1912/1917 1500 +TSRA=
201906190500 TAF LRBS 190500Z 1906/2006 06007KT CAVOK
                      PROB40 TEMPO 1912/1915 FEW040CB
                      PROB30 TEMPO 1918/1923 FEW040CB=
201906191100 TAF LRBS 191100Z 1912/2012 06007KT CAVOK
                      PROB40 TEMPO 1914/1920 FEW040CB
                      TEMPO 2009/2012 5000 TSRA SCT035CB=
201906191700 TAF LRBS 191700Z 1918/2018 VRB04KT CAVOK
                      BECMG 2009/2011 03010KT
                      TEMPO 2011/2016 VRB20KT 5000 -TSRA SCT040CB=
201906192300 TAF LRBS 192300Z 2000/2024 VRB04KT CAVOK
                      BECMG 2009/2011 03010KT
                      TEMPO 2011/2016 VRB20KT 5000 -TSRA SCT040CB
                       BECMG 2016/2018 VRB04KT=
201906200500 TAF LRBS 200500Z 2006/2106 VRB04KT CAVOK
                      TEMPO 2010/2016 SCT040CB
                      PROB40 TEMPO 2010/2015 VRB20G30KT 3000 TSRA
                       BKN030CB=
201906201100 TAF LRBS 201100Z 2012/2112 VRB04KT CAVOK
                      TEMPO 2012/2017 SCT040CB
                      PROB40 TEMPO 2012/2016 VRB20G30KT 3000 TSRA
                       BKN030CB=
201906201700 TAF LRBS 201700Z 2018/2118 VRB04KT 9999 FEW040CB
                      BECMG 2018/2020 NSC
                      PROB30 TEMPO 2113/2118 VRB20KT 5000 TSRA
                       SCT040CB=
201906202300 TAF LRBS 202300Z 2100/2124 VRB04KT CAVOK
                      PROB30 TEMPO 2113/2118 VRB20KT 5000 TSRA
                       SCT040CB=
201906210500 TAF LRBS 210500Z 2106/2206 VRB04KT CAVOK
                      PROB30 TEMPO 2113/2118 VRB20KT 5000 TSRA
                       SCT040CB=
201906211100 TAF LRBS 211100Z 2112/2212 VRB04KT CAVOK
                      TEMPO 2113/2116 SCT040CB=
201906211434 TAF AMD LRBS 211434Z 2114/2212 VRB04KT CAVOK
                      TEMPO 2114/2116 VRB20KT 5000 TSRA SCT040CB=
201906211700 TAF LRBS 211700Z 2118/2218 VRB04KT 9999 SCT045CB
                      PROB30 TEMPO 2118/2120 VRB16KT 5000 -TSRA
                       BECMG 2120/2122 NSC
                      TEMPO 2212/2217 SCT040CB
                      PROB30 TEMPO 2213/2217 VRB16G26KT 5000 -TSRA=
201906212300 TAF LRBS 212300Z 2200/2224 VRB04KT CAVOK
                      TEMPO 2212/2217 SCT040CB
                      PROB30 TEMPO 2213/2217 VRB16G26KT 5000 -TSRA=
201906220500 TAF LRBS 220500Z 2206/2306 VRB04KT CAVOK
                      TEMPO 2213/2218 SCT040CB
                      PROB30 TEMPO 2214/2218 VRB20G30KT 5000 -TSRA
                       BECMG 2304/2306 06010KT=
201906221100 TAF LRBS 221100Z 2212/2312 VRB04KT 9999 SCT045
                      TEMPO 2212/2218 VRB20G30KT 5000 -TSRA SCT040CB
                       BECMG 2304/2306 06010KT
                      BECMG 2310/2312 SCT035CB=
201906221700 TAF LRBS 221700Z 2218/2318 VRB04KT CAVOK
                      PROB30 TEMPO 2218/2222 VRB20G30KT 3000 TSRA
                       BKN010 BKN035CB
                      BECMG 2304/2306 06010KT
                      TEMPO 2312/2318 VRB20G30KT 3000 TSRA BKN010
                       BKN030CB
                      PROB30 2313/2318 1500 +TSRA=
201906222300 TAF LRBS 222300Z 2300/2324 VRB04KT CAVOK
                      TEMPO 2300/2305 3000 BR
                      BECMG 2305/2307 06010KT
                      TEMPO 2313/2319 VRB20G30KT 3000 TSRA BKN010
                       BKN030CB
                      PROB30 2313/2318 1500 +TSRA=
201906230500 TAF LRBS 230500Z 2306/2406 VRB04KT CAVOK
                      TEMPO 2313/2317 SCT015 SCT040CB
                      PROB30 TEMPO 2314/2316 VRB20KT 5000 -TSRA=
201906231100 TAF LRBS 231100Z 2312/2412 VRB04KT CAVOK
                      TEMPO 2313/2317 SCT045CB
                      PROB30 TEMPO 2314/2316 VRB20KT 5000 -TSRA
                       SCT010 BKN045CB
                      TEMPO 2407/2412 SCT035CB=
201906231700 TAF LRBS 231700Z 2318/2418 09008KT CAVOK
                      PROB40 TEMPO 2403/2407 5000 SHRA SCT045CB
                       BECMG 2412/2414 SCT045CB
                      TEMPO 2414/2418 VRB15G25KT 3000 TSRA BKN010
                       BKN040CB
                      PROB30 TEMPO 2415/2418 VRB25G35KT 0800 +TSRAGR
                       SQ=
201906232300 TAF LRBS 232300Z 2400/2424 05010KT CAVOK
                      PROB40 TEMPO 2402/2406 5000 -TSRA SCT045CB
                       BECMG 2412/2414 SCT045CB
                      TEMPO 2414/2421 VRB15G25KT 3000 TSRA BKN010
                       BKN040CB
                      PROB30 TEMPO 2415/2418 VRB25G35KT 0800 +TSRAGR
                       SQ
                      BECMG 2421/2423 VRB04KT NSC=
201906240500 TAF LRBS 240500Z 2406/2506 27010KT 9999 FEW045CB
                      PROB30 TEMPO 2406/2408 TS
                      BECMG 2408/2410 08010KT
                      PROB40 TEMPO 2412/2417 VRB20KT 3000 TSRA
                       BKN040CB
                      BECMG 2417/2419 VRB04KT NSC=
201906241038 TAF AMD LRBS 241038Z 2410/2506 31010KT 9999 FEW045CB
                      PROB40 TEMPO 2412/2417 VRB20KT 3000 TSRA
                       BKN040CB
                      BECMG 2417/2419 VRB04KT NSC=
201906241100 TAF LRBS 241100Z 2412/2512 33010KT CAVOK
                      PROB40 TEMPO 2412/2417 VRB20KT 3000 TSRA
                       BKN040CB
                      BECMG 2417/2419 VRB04KT=
201906241431 TAF AMD LRBS 241431Z 2414/2512 08010KT CAVOK
                      PROB40 TEMPO 2414/2417 VRB20KT 3000 TSRA
                       BKN040CB
                      BECMG 2417/2419 VRB04KT
                      BECMG 2505/2507 04010KT=
201906241700 TAF LRBS 241700Z 2418/2518 06008KT CAVOK
                      TEMPO 2418/2421 VRB20KT 5000 TSRA BKN010
                       SCT040CB
                      PROB40 TEMPO 2511/2517 VRB15G25KT 3000 -TSRA
                       SCT040CB=
201906242300 TAF LRBS 242300Z 2500/2524 VRB04KT CAVOK
                      BECMG 2507/2509 06012KT
                      TEMPO 2511/2519 SCT040CB
                      PROB40 TEMPO 2514/2518 VRB15G25KT 5000 -TSRA
                       BKN010 BKN030CB=
201906250500 TAF LRBS 250500Z 2506/2606 VRB04KT CAVOK
                      TEMPO 2506/2508 5000 SHRA SCT040CB
                      BECMG 2508/2510 06012KT
                      TEMPO 2512/2519 5000 -TSRA SCT040CB
                      PROB40 2513/2517 VRB30G40KT 1500 +TSRA SQ
                       BKN010 BKN030CB=
201906251100 TAF LRBS 251100Z 2512/2612 06014KT CAVOK
                      TEMPO 2512/2519 5000 -TSRA SCT040CB
                      PROB40 2513/2517 VRB30G40KT 1500 +TSRA SQ
                       BKN010 BKN030CB=
201906251700 TAF LRBS 251700Z 2518/2618 03010KT 9999 BKN050CB
                      BECMG 2518/2521 NSC
                      BECMG 2613/2615 VRB04KT=
201906252300 TAF LRBS 252300Z 2600/2624 VRB04KT CAVOK
                      BECMG 2605/2607 03010KT
                      BECMG 2613/2615 VRB04KT=
201906260500 TAF LRBS 260500Z 2606/2706 04012KT CAVOK
                      BECMG 2613/2615 VRB04KT=
201906261100 TAF LRBS 261100Z 2612/2712 06012KT CAVOK
                      BECMG 2614/2616 VRB04KT=
201906261700 TAF LRBS 261700Z 2618/2718 VRB04KT CAVOK
                      BECMG 2707/2709 26012KT
                      TEMPO 2709/2716 27020G30KT=
201906262300 TAF LRBS 262300Z 2700/2724 VRB04KT CAVOK
                      TEMPO 2700/2705 3000 BR
                      BECMG 2707/2709 26012KT
                      TEMPO 2709/2715 27015G25KT
                      BECMG 2716/2718 VRB04KT
                      TEMPO 2719/2724 06020G30KT 3000 TSRA BKN010
                       BKN030CB
                      PROB40 2719/2721 VRB30G40KT 1500 SQ +TSRA
                       BKN005 OVC025CB=
201906270500 TAF LRBS 270500Z 2706/2806 27008KT CAVOK
                      PROB40 TEMPO 2721/2724 06020G30KT 5000 TSRA
                       SCT010 SCT040CB
                      TEMPO 2800/2806 VRB15G25KT 3000 TSRA BKN010
                       OVC035CB=
201906271100 TAF LRBS 271100Z 2712/2812 27008KT CAVOK
                      PROB30 TEMPO 2721/2724 VRB15G25KT 5000 TSRA
                       SCT010 SCT040CB
                      TEMPO 2800/2805 VRB20G30KT 3000 TSRA BKN010
                       OVC035CB
                      TEMPO 2805/2809 5000 -TSRA SCT035CB
                      BECMG 2807/2809 07010KT=
201906271700 TAF LRBS 271700Z 2718/2818 27008KT CAVOK
                      TEMPO 2801/2806 5000 -TSRA SCT010 BKN035CB
                       BECMG 2806/2808 07010KT
                      TEMPO 2808/2814 07015G25KT 5000 -TSRA SCT035CB=
201906272300 TAF LRBS 272300Z 2800/2824 07010KT CAVOK
                      TEMPO 2801/2806 5000 -TSRA SCT010 BKN035CB
                       TEMPO 2808/2814 07015G25KT 5000 -TSRA SCT035CB=
201906280500 TAF LRBS 280500Z 2806/2906 09010KT CAVOK
                      PROB30 TEMPO 2815/2818 VRB15KT 5000 -TSRA
                       SCT040CB
                      BECMG 2818/2820 01008KT=
201906281100 TAF LRBS 281100Z 2812/2912 11010KT CAVOK
                      TEMPO 2812/2817 SCT040CB
                      PROB30 TEMPO 2814/2817 VRB15KT 5000 -TSRA
                       BECMG 2817/2819 01008KT=
201906281700 TAF LRBS 281700Z 2818/2918 01007KT 9999 FEW045CB
                      BECMG 2818/2819 NSC=
201906282300 TAF LRBS 282300Z 2900/2924 VRB04KT CAVOK=
201906290500 TAF LRBS 290500Z 2906/3006 32008KT CAVOK
                      PROB40 TEMPO 2912/2917 VRB15G25KT 3000 TSRA
                       BKN030CB
                      BECMG 2917/2919 07010KT=
201906291100 TAF LRBS 291100Z 2912/3012 30008KT CAVOK
                      PROB30 TEMPO 2913/2917 SCT030CB
                      BECMG 2917/2919 07010KT=
201906291700 TAF LRBS 291700Z 2918/3018 VRB04KT CAVOK
                      TEMPO 2919/2922 07010KT
                      BECMG 3009/3011 28010KT=
201906292300 TAF LRBS 292300Z 3000/3024 VRB04KT CAVOK
                      BECMG 3009/3011 28010KT=
201906300500 TAF LRBS 300500Z 3006/0106 26008KT CAVOK=
201906301100 TAF LRBS 301100Z 3012/0112 30006KT CAVOK=
201906301700 TAF LRBS 301700Z 3018/0118 26008KT CAVOK=
201906302300 TAF LRBS 302300Z 0100/0124 26008KT CAVOK=
