201907010000 METAR LRBS 010000Z 29003KT 260V320 CAVOK 20/15 Q1019 NOSIG=
201907010030 METAR LRBS 010030Z 28002KT CAVOK 19/15 Q1019 NOSIG=
201907010100 METAR LRBS 010100Z VRB02KT CAVOK 19/15 Q1019 NOSIG=
201907010130 METAR LRBS 010130Z VRB02KT CAVOK 19/15 Q1019 NOSIG=
201907010200 METAR LRBS 010200Z VRB01KT CAVOK 18/15 Q1019 NOSIG=
201907010230 METAR LRBS 010230Z 26003KT CAVOK 18/15 Q1019 NOSIG=
201907010300 METAR LRBS 010300Z 29003KT 260V320 CAVOK 18/15 Q1019 NOSIG=
201907010330 METAR LRBS 010330Z VRB01KT CAVOK 18/15 Q1019 NOSIG=
201907010400 METAR LRBS 010400Z 27002KT CAVOK 19/16 Q1019 NOSIG=
201907010430 METAR LRBS 010430Z 27003KT CAVOK 20/16 Q1019 NOSIG=
201907010500 METAR LRBS 010500Z VRB02KT CAVOK 21/16 Q1019 NOSIG=
201907010530 METAR LRBS 010530Z VRB01KT CAVOK 22/17 Q1019 NOSIG=
201907010600 METAR LRBS 010600Z VRB02KT CAVOK 25/16 Q1019 NOSIG=
201907010630 METAR LRBS 010630Z 24003KT 210V270 CAVOK 26/16 Q1019 NOSIG=
201907010700 METAR LRBS 010700Z VRB02KT CAVOK 28/16 Q1019 NOSIG=
201907010730 METAR LRBS 010730Z 25003KT 210V330 CAVOK 28/17 Q1019 NOSIG=
201907010800 METAR LRBS 010800Z 26004KT 230V310 CAVOK 29/17 Q1019 NOSIG=
201907010830 METAR COR LRBS 010830Z 24003KT 190V300 CAVOK 30/16 Q1019
                        NOSIG=
201907010900 METAR LRBS 010900Z 24003KT 150V300 CAVOK 30/16 Q1019 NOSIG=
201907010930 METAR LRBS 010930Z 28005KT 240V320 CAVOK 31/16 Q1019 NOSIG=
201907011000 METAR LRBS 011000Z 25006KT 220V300 CAVOK 31/15 Q1018 NOSIG=
201907011030 METAR LRBS 011030Z 28008KT CAVOK 32/14 Q1018 NOSIG=
201907011100 METAR LRBS 011100Z 28007KT 260V320 CAVOK 32/14 Q1018 NOSIG=
201907011130 METAR LRBS 011130Z 26007KT CAVOK 32/15 Q1018 NOSIG=
201907011200 METAR LRBS 011200Z 28009KT 240V310 CAVOK 32/16 Q1017 NOSIG=
201907011230 METAR LRBS 011230Z 26007KT 240V300 CAVOK 32/16 Q1017 NOSIG=
201907011300 METAR LRBS 011300Z 27007KT 230V310 CAVOK 33/16 Q1017 NOSIG=
201907011330 METAR LRBS 011330Z 28006KT 250V330 CAVOK 33/16 Q1017 NOSIG=
201907011400 METAR LRBS 011400Z 27005KT 220V300 CAVOK 33/15 Q1016 NOSIG=
201907011430 METAR LRBS 011430Z 26007KT 230V300 CAVOK 33/17 Q1016 NOSIG=
201907011500 METAR LRBS 011500Z 28006KT 250V310 CAVOK 33/16 Q1016 NOSIG=
201907011530 METAR LRBS 011530Z 28006KT 240V310 CAVOK 33/16 Q1016=
201907011600 METAR LRBS 011600Z 27007KT CAVOK 33/17 Q1016=
201907011630 METAR LRBS 011630Z 27006KT 250V310 CAVOK 32/16 Q1016=
201907011700 METAR LRBS 011700Z 26005KT CAVOK 31/16 Q1016=
201907011730 METAR LRBS 011730Z 27005KT CAVOK 31/17 Q1016=
201907011800 METAR LRBS 011800Z 27003KT CAVOK 30/17 Q1016=
201907011830 METAR LRBS 011830Z 27002KT CAVOK 29/18 Q1016=
201907011900 METAR LRBS 011900Z 27002KT CAVOK 28/18 Q1016=
201907011930 METAR LRBS 011930Z 28002KT CAVOK 27/17 Q1016=
201907012000 METAR LRBS 012000Z 28002KT CAVOK 27/17 Q1016=
201907012030 METAR LRBS 012030Z 27001KT CAVOK 26/17 Q1016=
201907012100 METAR LRBS 012100Z 29003KT 260V320 CAVOK 25/17 Q1016=
201907012130 METAR LRBS 012130Z 28003KT CAVOK 25/17 Q1016=
201907012200 METAR LRBS 012200Z 29002KT CAVOK 24/17 Q1016=
201907012230 METAR LRBS 012230Z 28003KT CAVOK 24/17 Q1015=
201907012300 METAR LRBS 012300Z 28003KT CAVOK 23/17 Q1015=
201907012330 METAR LRBS 012330Z 28004KT CAVOK 23/17 Q1015=
201907020000 METAR LRBS 020000Z 29004KT CAVOK 23/17 Q1015=
201907020030 METAR LRBS 020030Z 28003KT CAVOK 22/17 Q1015=
201907020100 METAR LRBS 020100Z 28004KT CAVOK 22/17 Q1015=
201907020130 METAR LRBS 020130Z 27003KT CAVOK 21/18 Q1014=
201907020200 METAR LRBS 020200Z 28002KT 260V320 CAVOK 21/18 Q1014=
201907020230 METAR LRBS 020230Z 27002KT CAVOK 21/18 Q1014=
201907020300 METAR LRBS 020300Z 29001KT CAVOK 21/18 Q1014=
201907020330 METAR LRBS 020330Z 30003KT CAVOK 21/18 Q1014=
201907020400 METAR LRBS 020400Z 28003KT CAVOK 22/19 Q1014=
201907020430 METAR COR LRBS 020430Z 27004KT CAVOK 23/19 Q1014=
201907020500 METAR LRBS 020500Z 28004KT CAVOK 24/20 Q1014=
201907020530 METAR LRBS 020530Z 27003KT CAVOK 25/20 Q1014=
201907020600 METAR LRBS 020600Z 26005KT CAVOK 27/20 Q1014=
201907020630 METAR LRBS 020630Z 25007KT CAVOK 28/20 Q1014=
201907020700 METAR LRBS 020700Z 26006KT 220V280 CAVOK 29/21 Q1014=
201907020730 METAR LRBS 020730Z 25006KT 220V320 CAVOK 30/21 Q1014=
201907020800 METAR LRBS 020800Z 25007KT 220V280 CAVOK 31/21 Q1013=
201907020830 METAR LRBS 020830Z 25007KT 210V280 CAVOK 31/20 Q1013=
201907020900 METAR LRBS 020900Z 27006KT 220V340 CAVOK 32/21 Q1013=
201907020930 METAR LRBS 020930Z 24005KT 190V300 CAVOK 32/20 Q1013=
201907021000 METAR LRBS 021000Z 24005KT 130V280 CAVOK 33/20 Q1013=
201907021030 METAR LRBS 021030Z 25006KT 190V280 CAVOK 33/20 Q1013=
201907021100 METAR LRBS 021100Z 23006KT 180V280 CAVOK 34/20 Q1012=
201907021130 METAR LRBS 021130Z 25005KT 210V310 CAVOK 34/19 Q1012=
201907021200 METAR LRBS 021200Z 26005KT 190V310 CAVOK 35/18 Q1012=
201907021230 METAR LRBS 021230Z 28006KT 250V310 CAVOK 35/19 Q1012=
201907021300 METAR LRBS 021300Z 27006KT 250V320 CAVOK 35/19 Q1012=
201907021330 METAR LRBS 021330Z 27007KT 220V320 CAVOK 36/19 Q1012=
201907021400 METAR LRBS 021400Z 29005KT 240V350 CAVOK 36/19 Q1012=
201907021430 METAR LRBS 021430Z 28006KT 240V310 CAVOK 35/19 Q1011=
201907021500 METAR LRBS 021500Z 29006KT 250V350 CAVOK 36/19 Q1011=
201907021530 METAR LRBS 021530Z 27005KT CAVOK 35/19 Q1011=
201907021600 METAR COR LRBS 021600Z 28005KT 240V320 CAVOK 35/20 Q1011
                        NOSIG=
201907021630 METAR LRBS 021630Z 29003KT 260V330 CAVOK 34/20 Q1011 NOSIG=
201907021700 METAR LRBS 021700Z 29003KT CAVOK 33/21 Q1011 NOSIG=
201907021730 METAR LRBS 021730Z 29003KT CAVOK 33/21 Q1011 NOSIG=
201907021800 METAR LRBS 021800Z 30002KT CAVOK 31/21 Q1011 NOSIG=
201907021830 METAR LRBS 021830Z 00000KT CAVOK 31/20 Q1011 NOSIG=
201907021900 METAR LRBS 021900Z 00000KT 9000 NSC 29/21 Q1012 NOSIG=
201907021930 METAR LRBS 021930Z 26002KT 9000 NSC 26/21 Q1012 NOSIG=
201907022000 METAR LRBS 022000Z 00000KT 8000 NSC 27/21 Q1012 NOSIG=
201907022030 METAR LRBS 022030Z VRB01KT 9000 NSC 27/21 Q1012 NOSIG=
201907022100 METAR LRBS 022100Z VRB02KT 9000 NSC 26/21 Q1012 NOSIG=
201907022130 METAR LRBS 022130Z VRB02KT CAVOK 25/21 Q1012 NOSIG=
201907022200 METAR LRBS 022200Z 00000KT CAVOK 24/20 Q1012 NOSIG=
201907022230 METAR LRBS 022230Z 31003KT 9000 NSC 24/21 Q1012 NOSIG=
201907022300 METAR LRBS 022300Z 05003KT 9000 NSC 22/20 Q1012 NOSIG=
201907022330 METAR LRBS 022330Z 07004KT CAVOK 23/20 Q1013 NOSIG=
201907030000 METAR LRBS 030000Z 08005KT CAVOK 23/20 Q1013 NOSIG=
201907030030 METAR LRBS 030030Z 07006KT CAVOK 23/19 Q1012 NOSIG=
201907030100 METAR LRBS 030100Z 07005KT CAVOK 22/19 Q1012 NOSIG=
201907030130 METAR LRBS 030130Z 06005KT CAVOK 23/18 Q1013 NOSIG=
201907030200 METAR LRBS 030200Z 08004KT CAVOK 22/18 Q1013 NOSIG=
201907030230 METAR LRBS 030230Z 07004KT CAVOK 22/17 Q1013 NOSIG=
201907030300 METAR LRBS 030300Z 07005KT CAVOK 21/17 Q1013 NOSIG=
201907030330 METAR LRBS 030330Z 07003KT CAVOK 22/17 Q1013 NOSIG=
201907030400 METAR LRBS 030400Z 03002KT CAVOK 23/18 Q1013 NOSIG=
201907030430 METAR LRBS 030430Z 07006KT CAVOK 23/18 Q1013 NOSIG=
201907030500 METAR LRBS 030500Z 06008KT CAVOK 24/18 Q1013 NOSIG=
201907030530 METAR LRBS 030530Z 05008KT CAVOK 25/17 Q1013 NOSIG=
201907030600 METAR LRBS 030600Z 06010KT CAVOK 26/17 Q1014 NOSIG=
201907030630 METAR COR LRBS 030630Z 06008KT CAVOK 27/17 Q1014 NOSIG=
201907030700 METAR LRBS 030700Z 06007KT 020V090 CAVOK 28/17 Q1014 NOSIG=
201907030730 METAR LRBS 030730Z 08008KT CAVOK 29/17 Q1013 NOSIG=
201907030800 METAR LRBS 030800Z 08010KT CAVOK 29/17 Q1013 NOSIG=
201907030830 METAR LRBS 030830Z 06007KT 010V090 CAVOK 30/18 Q1013 NOSIG=
201907030900 METAR LRBS 030900Z 09005KT 040V180 CAVOK 30/18 Q1013 NOSIG=
201907030930 METAR LRBS 030930Z 08006KT 040V100 CAVOK 31/19 Q1013 NOSIG=
201907031000 METAR LRBS 031000Z 08004KT 360V120 CAVOK 31/19 Q1013 NOSIG=
201907031030 METAR COR LRBS 031030Z VRB03KT CAVOK 32/19 Q1013 NOSIG=
201907031100 METAR LRBS 031100Z 05004KT 360V150 CAVOK 32/20 Q1013 NOSIG=
201907031130 METAR COR LRBS 031130Z 02005KT 340V080 CAVOK 33/20 Q1013
                        NOSIG=
201907031200 METAR LRBS 031200Z 03007KT 320V090 CAVOK 34/19 Q1013 NOSIG=
201907031230 METAR LRBS 031230Z 03006KT 360V060 CAVOK 33/20 Q1013 NOSIG=
201907031300 METAR LRBS 031300Z 03009KT 350V060 CAVOK 33/20 Q1013 NOSIG=
201907031330 METAR LRBS 031330Z 03010KT 360V060 9999 FEW050CB 31/19 Q1012
                        TEMPO VRB20G30KT 3000 TSRA=
201907031400 METAR LRBS 031400Z 03010KT 7000 -TSRA FEW050CB 26/22 Q1013
                        R07/29//95 TEMPO VRB25G35KT 3000
                        TSRA=
201907031430 METAR LRBS 031430Z 31011KT 280V050 9999 TS FEW013 SCT045CB
                        23/16 Q1015 R07/29//95 NOSIG=
201907031500 METAR LRBS 031500Z 04017KT 360V070 7000 TSRA SCT008 BKN045CB
                        21/17 Q1013 R07/29//95 TEMPO 3000
                        TSRAGR=
201907031530 METAR LRBS 031530Z 07007KT 9999 -TSRA FEW026 SCT045CB 19/18
                        Q1014 R07/29//95 NOSIG=
201907031600 METAR LRBS 031600Z 08007KT 9999 VCTS FEW050CB 20/18 Q1013
                        R07/29//95 NOSIG=
201907031630 METAR COR LRBS 031630Z 10003KT 9999 FEW050CB 22/18 Q1013
                        R07/29//95 NOSIG=
201907031700 METAR LRBS 031700Z 02003KT 350V050 CAVOK 22/18 Q1014 R07/29//95
                        NOSIG=
201907031730 METAR LRBS 031730Z 02004KT 340V050 CAVOK 21/18 Q1014 R07/29//95
                        NOSIG=
201907031800 METAR LRBS 031800Z 03002KT CAVOK 21/18 Q1014 R07/29//95 NOSIG=
201907031830 METAR LRBS 031830Z VRB02KT CAVOK 21/18 Q1015 R07/29//95 NOSIG=
201907031900 METAR LRBS 031900Z 06007KT CAVOK 21/17 Q1015 R07/29//95 NOSIG=
201907031930 METAR LRBS 031930Z 05010KT 9999 -SHRA FEW050CB 21/17 Q1016
                        R07/29//95 TEMPO VRB20KT 5000 TSRA=
201907032000 METAR LRBS 032000Z 05013KT 9999 -TSRA FEW018 BKN030CB 20/18
                        Q1017 R07/29//95 TEMPO 5000 TSRA=
201907032030 METAR LRBS 032030Z 05012KT 9999 -TSRA FEW015 SCT040CB 20/18
                        Q1017 R07/29//95 NOSIG=
201907032100 METAR LRBS 032100Z 06008KT 9999 -TSRA SCT050CB 20/18 Q1017
                        R07/29//95 BECMG NSW=
201907032130 METAR LRBS 032130Z 16005KT 110V190 9999 VCTS FEW050CB 21/18
                        Q1019 R07/29//95 NOSIG=
201907032200 METAR LRBS 032200Z VRB02KT 9999 FEW050CB 21/18 Q1019 R07/29//95
                        NOSIG=
201907032230 METAR LRBS 032230Z 04007KT 9999 FEW050CB 20/18 Q1017 R07/29//95
                        NOSIG=
201907032300 METAR LRBS 032300Z 01004KT 350V060 CAVOK 20/18 Q1018 R07/29//95
                        NOSIG=
201907032330 METAR LRBS 032330Z VRB01KT CAVOK 19/18 Q1018 R07/29//95 NOSIG=
201907040000 METAR LRBS 040000Z AUTO 02003KT 9999 FEW100/// 19/18 Q1018
                        NOSIG=
201907040030 METAR LRBS 040030Z VRB01KT CAVOK 19/17 Q1018 R07/29//95 NOSIG=
201907040100 METAR LRBS 040100Z 02003KT CAVOK 18/17 Q1017 R07/29//95 NOSIG=
201907040130 METAR LRBS 040130Z 01005KT CAVOK 19/17 Q1017 R07/29//95 NOSIG=
201907040200 METAR LRBS 040200Z 02004KT 330V050 CAVOK 19/17 Q1017 R07/29//95
                        NOSIG=
201907040230 METAR LRBS 040230Z 01005KT CAVOK 18/17 Q1017 R07/29//95 NOSIG=
201907040300 METAR LRBS 040300Z 01006KT CAVOK 19/16 Q1016 R07/29//95 NOSIG=
201907040330 METAR LRBS 040330Z 02007KT CAVOK 19/16 Q1016 R07/29//95 NOSIG=
201907040400 METAR LRBS 040400Z 03004KT 350V050 CAVOK 20/17 Q1017 R07/29//95
                        NOSIG=
201907040430 METAR COR LRBS 040430Z 05003KT 010V070 CAVOK 21/17 Q1018
                        R07/CLRD// NOSIG=
201907040500 METAR LRBS 040500Z 06004KT CAVOK 21/17 Q1018 R07/CLRD// NOSIG=
201907040530 METAR LRBS 040530Z 08005KT CAVOK 22/17 Q1018 NOSIG=
201907040600 METAR LRBS 040600Z 07009KT CAVOK 23/16 Q1018 NOSIG=
201907040630 METAR LRBS 040630Z 07009KT CAVOK 23/16 Q1019 NOSIG=
201907040700 METAR LRBS 040700Z 10008KT 070V130 CAVOK 23/16 Q1019 NOSIG=
201907040730 METAR COR LRBS 040730Z 07008KT CAVOK 24/16 Q1019 NOSIG=
201907040800 METAR LRBS 040800Z 06008KT CAVOK 24/17 Q1019 NOSIG=
201907040830 METAR LRBS 040830Z 08009KT CAVOK 25/16 Q1019 NOSIG=
201907040900 METAR LRBS 040900Z 11008KT CAVOK 26/16 Q1019 NOSIG=
201907040930 METAR LRBS 040930Z 10007KT 9999 FEW043 27/16 Q1019 NOSIG=
201907041000 METAR LRBS 041000Z 07008KT 040V100 9999 FEW044 27/14 Q1019
                        NOSIG=
201907041030 METAR LRBS 041030Z 08007KT 9999 FEW047 27/14 Q1019 NOSIG=
201907041100 METAR LRBS 041100Z 07007KT 020V130 CAVOK 28/15 Q1019 NOSIG=
201907041130 METAR LRBS 041130Z 07006KT 010V120 CAVOK 28/14 Q1018 NOSIG=
201907041200 METAR LRBS 041200Z 11006KT 070V160 CAVOK 28/13 Q1018 NOSIG=
201907041230 METAR LRBS 041230Z VRB04KT CAVOK 29/16 Q1018 NOSIG=
201907041300 METAR LRBS 041300Z VRB05KT CAVOK 29/13 Q1018 NOSIG=
201907041330 METAR LRBS 041330Z 04003KT 330V110 CAVOK 29/14 Q1017 NOSIG=
201907041400 METAR LRBS 041400Z 04005KT 010V070 CAVOK 29/14 Q1017 NOSIG=
201907041430 METAR LRBS 041430Z 04003KT 320V090 CAVOK 29/13 Q1017 NOSIG=
201907041500 METAR LRBS 041500Z 09003KT 360V150 CAVOK 29/15 Q1017 NOSIG=
201907041530 METAR LRBS 041530Z 07005KT 020V090 CAVOK 29/15 Q1016 NOSIG=
201907041600 METAR LRBS 041600Z 36004KT 320V040 CAVOK 29/15 Q1016 NOSIG=
201907041630 METAR LRBS 041630Z 01003KT CAVOK 28/14 Q1016 NOSIG=
201907041700 METAR LRBS 041700Z 01003KT CAVOK 28/15 Q1016 NOSIG=
201907041730 METAR LRBS 041730Z 01001KT CAVOK 28/14 Q1016 NOSIG=
201907041800 METAR LRBS 041800Z 36004KT CAVOK 26/16 Q1016 NOSIG=
201907041830 METAR LRBS 041830Z 35004KT CAVOK 26/17 Q1016 NOSIG=
201907041900 METAR LRBS 041900Z 34004KT CAVOK 24/17 Q1017 NOSIG=
201907041930 METAR LRBS 041930Z 33004KT CAVOK 23/17 Q1017 NOSIG=
201907042000 METAR LRBS 042000Z 32003KT CAVOK 23/18 Q1017 NOSIG=
201907042030 METAR LRBS 042030Z 35002KT CAVOK 23/18 Q1017 NOSIG=
201907042100 METAR LRBS 042100Z 02002KT CAVOK 22/17 Q1017 NOSIG=
201907042130 METAR LRBS 042130Z VRB01KT CAVOK 22/17 Q1017 NOSIG=
201907042200 METAR LRBS 042200Z 06002KT CAVOK 21/18 Q1017 NOSIG=
201907042230 METAR LRBS 042230Z 36001KT CAVOK 21/18 Q1017 NOSIG=
201907042300 METAR LRBS 042300Z 02002KT CAVOK 21/18 Q1017 NOSIG=
201907042330 METAR LRBS 042330Z 02002KT CAVOK 20/17 Q1017 NOSIG=
201907050000 METAR LRBS 050000Z 36002KT CAVOK 20/18 Q1017 NOSIG=
201907050030 METAR LRBS 050030Z 01002KT CAVOK 20/18 Q1017 NOSIG=
201907050100 METAR LRBS 050100Z 04002KT CAVOK 19/17 Q1017 NOSIG=
201907050130 METAR LRBS 050130Z 05001KT CAVOK 19/18 Q1017 NOSIG=
201907050200 METAR LRBS 050200Z 02002KT CAVOK 19/17 Q1016 NOSIG=
201907050230 METAR LRBS 050230Z 03003KT CAVOK 18/17 Q1016 NOSIG=
201907050300 METAR LRBS 050300Z 02002KT CAVOK 19/18 Q1016 NOSIG=
201907050330 METAR LRBS 050330Z 36002KT CAVOK 20/18 Q1016 NOSIG=
201907050400 METAR LRBS 050400Z 01001KT 9000 NSC 20/18 Q1016 NOSIG=
201907050430 METAR LRBS 050430Z VRB01KT 8000 NSC 21/19 Q1016 NOSIG=
201907050500 METAR LRBS 050500Z 35003KT 320V020 9000 NSC 21/18 Q1016 NOSIG=
201907050530 METAR LRBS 050530Z 03004KT CAVOK 21/19 Q1016 TEMPO VRB20KT
                        5000 TSRA SCT015 SCT030CB=
201907050600 METAR LRBS 050600Z 03004KT 360V070 9999 FEW050CB 22/19 Q1016
                        TEMPO VRB20KT 5000 TSRA=
201907050630 METAR LRBS 050630Z VRB02KT 9999 VCTS SCT050CB 22/19 Q1016
                        TEMPO VRB20KT 5000 TSRA=
201907050700 METAR LRBS 050700Z 32009KT 260V350 1500 +TSRA SCT010 BKN040CB
                        19/18 Q1017 R07/29//95 BECMG 3000
                        TSRA=
201907050730 METAR LRBS 050730Z 35008KT 310V030 2500 TSRA SCT023 SCT040CB
                        19/18 Q1017 RETSRA R07/29//95 TEMPO
                        1500 +TSRA=
201907050800 METAR LRBS 050800Z VRB02KT 2000 TSRA BR FEW008 BKN037CB 18/18
                        Q1017 RETSRA R07/29//95 BECMG 8000
                        -SHRA=
201907050830 METAR COR LRBS 050830Z 04006KT 360V090 8000 -SHRA FEW010
                        SCT035CB 20/19 Q1017 R07/29//95 BECMG
                        CAVOK=
201907050900 METAR LRBS 050900Z 36007KT 320V020 9000 FEW006 FEW035CB 20/19
                        Q1016 R07/29//95 BECMG NSC=
201907050930 METAR COR LRBS 050930Z 04007KT CAVOK 21/19 Q1016 R07/29//95
                        NOSIG=
201907051000 METAR LRBS 051000Z 04006KT 010V080 CAVOK 22/19 Q1016 R07/29//95
                        NOSIG=
201907051030 METAR LRBS 051030Z 05005KT 020V080 CAVOK 24/20 Q1016 R07/29//95
                        NOSIG=
201907051100 METAR LRBS 051100Z 05005KT 010V100 CAVOK 25/19 Q1015 R07/CLRD//
                        NOSIG=
201907051130 METAR LRBS 051130Z VRB03KT 9999 FEW030 26/18 Q1015 NOSIG=
201907051200 METAR LRBS 051200Z 13007KT 9999 FEW030 26/19 Q1015 NOSIG=
201907051230 METAR LRBS 051230Z 12006KT 070V170 9999 FEW034 26/19 Q1014
                        NOSIG=
201907051300 METAR LRBS 051300Z 21004KT 170V260 9999 FEW036 27/16 Q1014
                        NOSIG=
201907051330 METAR LRBS 051330Z 13005KT 100V180 9999 FEW040 27/17 Q1013
                        NOSIG=
201907051400 METAR LRBS 051400Z 24005KT 190V270 9999 FEW042 28/17 Q1013
                        NOSIG=
201907051430 METAR LRBS 051430Z 29004KT 260V340 9999 FEW047 28/17 Q1013
                        NOSIG=
201907051500 METAR LRBS 051500Z VRB02KT CAVOK 28/16 Q1013 NOSIG=
201907051530 METAR LRBS 051530Z VRB01KT CAVOK 28/17 Q1012 NOSIG=
201907051600 METAR LRBS 051600Z VRB01KT 9999 FEW050CB 28/18 Q1012 NOSIG=
201907051630 METAR LRBS 051630Z VRB02KT 9999 FEW050CB 27/18 Q1012 NOSIG=
201907051700 METAR LRBS 051700Z 04002KT 9999 FEW050CB 27/18 Q1011 TEMPO
                        5000 -TSRA=
201907051730 METAR LRBS 051730Z 06003KT CAVOK 26/19 Q1011 TEMPO 5000 -TSRA=
201907051800 METAR LRBS 051800Z 05002KT CAVOK 26/18 Q1012 TEMPO SCT045CB=
201907051830 METAR LRBS 051830Z 36004KT 9999 FEW049 25/19 Q1012 NOSIG=
201907051900 METAR LRBS 051900Z 36002KT 8000 FEW050CB 24/19 Q1012 NOSIG=
201907051930 METAR LRBS 051930Z 26003KT 240V300 CAVOK 23/20 Q1012 NOSIG=
201907052000 METAR LRBS 052000Z 27004KT CAVOK 22/20 Q1012 NOSIG=
201907052030 METAR LRBS 052030Z 30003KT 230V340 CAVOK 22/19 Q1012 NOSIG=
201907052100 METAR LRBS 052100Z 24001KT CAVOK 22/19 Q1012 NOSIG=
201907052130 METAR LRBS 052130Z 26003KT CAVOK 21/19 Q1012 NOSIG=
201907052200 METAR LRBS 052200Z 27001KT CAVOK 22/19 Q1012 NOSIG=
201907052230 METAR LRBS 052230Z 26003KT CAVOK 21/19 Q1012 NOSIG=
201907052300 METAR LRBS 052300Z 27003KT CAVOK 21/19 Q1012=
201907052330 METAR LRBS 052330Z 30002KT CAVOK 21/19 Q1012 NOSIG=
201907060000 METAR LRBS 060000Z 29001KT CAVOK 20/18 Q1012 NOSIG=
201907060030 METAR LRBS 060030Z 25001KT CAVOK 19/18 Q1012 NOSIG=
201907060100 METAR LRBS 060100Z 28002KT CAVOK 19/18 Q1012 NOSIG=
201907060130 METAR LRBS 060130Z VRB01KT CAVOK 19/18 Q1012 NOSIG=
201907060200 METAR LRBS 060200Z 00000KT CAVOK 19/17 Q1011 NOSIG=
201907060230 METAR LRBS 060230Z 25002KT CAVOK 19/17 Q1011 NOSIG=
201907060300 METAR LRBS 060300Z VRB01KT CAVOK 19/17 Q1012 NOSIG=
201907060330 METAR LRBS 060330Z 00000KT CAVOK 19/17 Q1012 NOSIG=
201907060400 METAR LRBS 060400Z VRB01KT CAVOK 18/17 Q1012 NOSIG=
201907060430 METAR LRBS 060430Z 27002KT CAVOK 20/18 Q1012 NOSIG=
201907060500 METAR LRBS 060500Z 05003KT 320V110 CAVOK 21/19 Q1012 NOSIG=
201907060530 METAR LRBS 060530Z 09007KT CAVOK 22/18 Q1012 NOSIG=
201907060600 METAR LRBS 060600Z 08007KT 040V100 CAVOK 23/16 Q1013 NOSIG=
201907060630 METAR LRBS 060630Z 09007KT 070V130 CAVOK 24/16 Q1013 NOSIG=
201907060700 METAR LRBS 060700Z 10005KT 040V130 CAVOK 24/15 Q1013 NOSIG=
201907060730 METAR LRBS 060730Z 10005KT 060V130 CAVOK 25/15 Q1013 NOSIG=
201907060800 METAR LRBS 060800Z 08004KT 010V140 CAVOK 26/16 Q1013 NOSIG=
201907060830 METAR LRBS 060830Z 14003KT 090V180 CAVOK 26/16 Q1013 NOSIG=
201907060900 METAR LRBS 060900Z VRB02KT CAVOK 27/14 Q1013 NOSIG=
201907060930 METAR LRBS 060930Z VRB02KT CAVOK 27/15 Q1013 NOSIG=
201907061000 METAR LRBS 061000Z VRB02KT CAVOK 28/15 Q1013 NOSIG=
201907061030 METAR LRBS 061030Z 24004KT 150V320 CAVOK 28/15 Q1012 NOSIG=
201907061100 METAR LRBS 061100Z VRB03KT CAVOK 29/15 Q1012 NOSIG=
201907061130 METAR LRBS 061130Z 21005KT 160V270 CAVOK 29/16 Q1012 NOSIG=
201907061200 METAR LRBS 061200Z 27005KT 230V310 CAVOK 30/14 Q1012 NOSIG=
201907061230 METAR LRBS 061230Z 26008KT 220V300 CAVOK 30/13 Q1012 NOSIG=
201907061300 METAR LRBS 061300Z 29004KT 200V010 CAVOK 30/13 Q1012 NOSIG=
201907061330 METAR LRBS 061330Z VRB03KT CAVOK 30/13 Q1011 NOSIG=
201907061400 METAR LRBS 061400Z 28005KT 230V340 CAVOK 31/14 Q1011 NOSIG=
201907061430 METAR LRBS 061430Z 29005KT 260V340 CAVOK 30/13 Q1011 NOSIG=
201907061500 METAR LRBS 061500Z 30002KT CAVOK 30/13 Q1011 NOSIG=
201907061530 METAR LRBS 061530Z 28005KT 230V310 CAVOK 30/13 Q1011 NOSIG=
201907061600 METAR LRBS 061600Z 28004KT 220V320 CAVOK 30/13 Q1011 NOSIG=
201907061630 METAR LRBS 061630Z 30003KT 260V350 CAVOK 30/13 Q1011 NOSIG=
201907061700 METAR LRBS 061700Z VRB02KT CAVOK 30/14 Q1011 NOSIG=
201907061730 METAR LRBS 061730Z 36001KT CAVOK 29/15 Q1011 NOSIG=
201907061800 METAR LRBS 061800Z 00000KT CAVOK 27/15 Q1011 NOSIG=
201907061830 METAR LRBS 061830Z 01002KT CAVOK 24/17 Q1011 NOSIG=
201907061900 METAR LRBS 061900Z 06002KT CAVOK 23/16 Q1011 NOSIG=
201907061930 METAR LRBS 061930Z 07002KT CAVOK 23/16 Q1011 NOSIG=
201907062000 METAR LRBS 062000Z 05003KT CAVOK 23/16 Q1012 NOSIG=
201907062030 METAR LRBS 062030Z 00000KT CAVOK 23/17 Q1012 NOSIG=
201907062100 METAR LRBS 062100Z 01002KT CAVOK 21/16 Q1012 NOSIG=
201907062130 METAR LRBS 062130Z 05003KT CAVOK 20/16 Q1012 NOSIG=
201907062200 METAR LRBS 062200Z 05001KT CAVOK 21/16 Q1012 NOSIG=
201907062230 METAR LRBS 062230Z 06003KT CAVOK 20/17 Q1012 NOSIG=
201907062300 METAR LRBS 062300Z 06003KT CAVOK 20/17 Q1011 NOSIG=
201907062330 METAR LRBS 062330Z 04003KT CAVOK 19/17 Q1011 NOSIG=
201907070000 METAR LRBS 070000Z 01003KT CAVOK 19/16 Q1011=
201907070030 METAR LRBS 070030Z 01003KT CAVOK 18/16 Q1011 NOSIG=
201907070100 METAR LRBS 070100Z 01002KT CAVOK 18/16 Q1011 NOSIG=
201907070130 METAR LRBS 070130Z VRB02KT CAVOK 17/16 Q1011 NOSIG=
201907070200 METAR LRBS 070200Z 01002KT CAVOK 18/16 Q1012 NOSIG=
201907070230 METAR LRBS 070230Z 01002KT CAVOK 18/16 Q1012 NOSIG=
201907070300 METAR LRBS 070300Z 01002KT CAVOK 18/16 Q1012 NOSIG=
201907070330 METAR LRBS 070330Z 06002KT CAVOK 18/16 Q1011 NOSIG=
201907070400 METAR LRBS 070400Z 00000KT CAVOK 19/16 Q1011 NOSIG=
201907070430 METAR LRBS 070430Z 07002KT CAVOK 20/16 Q1011 NOSIG=
201907070500 METAR LRBS 070500Z VRB02KT CAVOK 21/17 Q1011 NOSIG=
201907070530 METAR LRBS 070530Z VRB02KT CAVOK 22/18 Q1010 NOSIG=
201907070600 METAR LRBS 070600Z 10003KT CAVOK 24/18 Q1010 NOSIG=
201907070630 METAR LRBS 070630Z VRB01KT CAVOK 26/17 Q1010 NOSIG=
201907070700 METAR LRBS 070700Z VRB02KT CAVOK 27/18 Q1010 NOSIG=
201907070730 METAR LRBS 070730Z 20003KT 140V250 CAVOK 28/17 Q1010 NOSIG=
201907070800 METAR LRBS 070800Z 16003KT 060V210 CAVOK 29/16 Q1010 NOSIG=
201907070830 METAR LRBS 070830Z VRB04KT CAVOK 30/17 Q1010 NOSIG=
201907070900 METAR LRBS 070900Z 17008KT CAVOK 30/15 Q1010 NOSIG=
201907070930 METAR LRBS 070930Z 23007KT CAVOK 30/15 Q1009 NOSIG=
201907071000 METAR LRBS 071000Z 21006KT 170V230 CAVOK 31/15 Q1009 NOSIG=
201907071030 METAR LRBS 071030Z 22006KT 180V260 CAVOK 31/16 Q1009 NOSIG=
201907071100 METAR LRBS 071100Z 25007KT 210V280 CAVOK 32/17 Q1009 NOSIG=
201907071130 METAR LRBS 071130Z 27007KT 240V300 CAVOK 31/14 Q1008 NOSIG=
201907071200 METAR LRBS 071200Z 26006KT CAVOK 32/14 Q1008 NOSIG=
201907071230 METAR LRBS 071230Z 26009KT CAVOK 32/14 Q1007 NOSIG=
201907071300 METAR LRBS 071300Z 24009KT 220V300 CAVOK 32/15 Q1007 NOSIG=
201907071330 METAR LRBS 071330Z 28007KT 250V340 CAVOK 32/16 Q1007 NOSIG=
201907071400 METAR LRBS 071400Z 28006KT CAVOK 32/16 Q1007 NOSIG=
201907071430 METAR LRBS 071430Z 26006KT 240V300 CAVOK 32/15 Q1006 NOSIG=
201907071500 METAR LRBS 071500Z 28005KT 240V330 CAVOK 32/15 Q1006 NOSIG=
201907071530 METAR LRBS 071530Z NIL=
201907071600 METAR LRBS 071600Z 27006KT 240V330 CAVOK 32/16 Q1005 NOSIG=
201907071630 METAR LRBS 071630Z 27008KT 240V300 CAVOK 31/15 Q1005 NOSIG=
201907071700 METAR LRBS 071700Z 27007KT 250V310 CAVOK 31/16 Q1005 NOSIG=
201907071730 METAR LRBS 071730Z 28005KT CAVOK 30/16 Q1005=
201907071800 METAR LRBS 071800Z VRB02KT CAVOK 29/17 Q1005 NOSIG=
201907071830 METAR LRBS 071830Z 34001KT CAVOK 28/17 Q1005 NOSIG=
201907071900 METAR LRBS 071900Z 32001KT CAVOK 26/18 Q1005 NOSIG=
201907071930 METAR LRBS 071930Z 00000KT CAVOK 26/18 Q1005 NOSIG=
201907072000 METAR LRBS 072000Z 00000KT CAVOK 26/18 Q1005 NOSIG=
201907072030 METAR LRBS 072030Z 35001KT CAVOK 25/19 Q1005 NOSIG=
201907072100 METAR LRBS 072100Z 00000KT CAVOK 24/19 Q1005 NOSIG=
201907072130 METAR LRBS 072130Z 00000KT CAVOK 23/19 Q1005 NOSIG=
201907072200 METAR LRBS 072200Z 00000KT CAVOK 23/18 Q1005 NOSIG=
201907072230 METAR LRBS 072230Z 00000KT CAVOK 22/19 Q1005 NOSIG=
201907072300 METAR LRBS 072300Z 27020KT 9999 -TSRA BKN048CB 23/18 Q1007
                        TEMPO 3000 TSRA=
201907072330 METAR LRBS 072330Z 27010KT 250V310 9999 -TSRA FEW031 BKN050CB
                        20/19 Q1008 NOSIG=
201907080000 METAR LRBS 080000Z 01004KT 300V060 9999 -SHRA VCTS FEW015
                        SCT050CB 20/19 Q1006 NOSIG=
201907080030 METAR LRBS 080030Z VRB01KT 9999 VCTS FEW050CB 20/20 Q1006
                        NOSIG=
201907080100 METAR LRBS 080100Z 26004KT CAVOK 20/20 Q1006 NOSIG=
201907080130 METAR LRBS 080130Z 25005KT 230V320 9999 FEW010 20/20 Q1006
                        NOSIG=
201907080200 METAR LRBS 080200Z 27005KT 9999 FEW010 20/19 Q1006 NOSIG=
201907080230 METAR LRBS 080230Z 27004KT CAVOK 20/19 Q1006 NOSIG=
201907080300 METAR LRBS 080300Z 26008KT CAVOK 20/19 Q1006 NOSIG=
201907080330 METAR LRBS 080330Z 24009KT 9999 FEW006 20/19 Q1006 NOSIG=
201907080400 METAR LRBS 080400Z 25009KT 9999 BKN005 20/19 Q1006 NOSIG=
201907080430 METAR LRBS 080430Z 26009KT 9999 SCT007 20/18 Q1007 R07/19//95
                        NOSIG=
201907080500 METAR LRBS 080500Z 27012KT 9999 FEW007 20/19 Q1007 R07/19//95
                        NOSIG=
201907080530 METAR LRBS 080530Z 28008KT 9999 FEW007 21/18 Q1007 R07/19//95
                        NOSIG=
201907080600 METAR LRBS 080600Z 29007KT 250V350 9999 FEW011 22/19 Q1007
                        R07/CLRD// NOSIG=
201907080630 METAR LRBS 080630Z 31005KT 240V010 9999 FEW015 23/19 Q1007
                        NOSIG=
201907080700 METAR LRBS 080700Z 29004KT 260V340 9999 SCT019 24/19 Q1008
                        NOSIG=
201907080730 METAR LRBS 080730Z 27006KT 240V310 9999 BKN019 24/19 Q1009
                        NOSIG=
201907080800 METAR LRBS 080800Z 27005KT 230V300 9999 FEW019 SCT030 24/19
                        Q1009 NOSIG=
201907080830 METAR LRBS 080830Z 28006KT 230V330 9999 SCT025 FEW050TCU
                        25/19 Q1009 NOSIG=
201907080900 METAR LRBS 080900Z 27005KT 220V320 9999 FEW026 FEW050TCU
                        25/18 Q1009 NOSIG=
201907080930 METAR LRBS 080930Z 24003KT 9999 FEW030 FEW045TCU 26/17 Q1010
                        NOSIG=
201907081000 METAR LRBS 081000Z VRB03KT 9999 SCT034 FEW045CB 27/16 Q1010
                        NOSIG=
201907081030 METAR COR LRBS 081030Z 27003KT 190V330 9999 -SHRA FEW040
                        SCT045CB 27/17 Q1009 TEMPO 5000 -TSRA=
201907081100 METAR LRBS 081100Z 36003KT 320V030 8000 SHRA VCTS BKN040CB
                        24/20 Q1010 R07/29//95 TEMPO 5000
                        TSRA=
201907081130 METAR LRBS 081130Z VRB02KT 8000 TSRA FEW018 BKN040CB 24/20
                        Q1010 R07/29//95 NOSIG=
201907081200 METAR LRBS 081200Z 05008KT 9999 -SHRA VCTS SCT045CB 23/19
                        Q1010 R07/29//95 NOSIG=
201907081230 METAR LRBS 081230Z 05004KT 9999 FEW044CB 22/19 Q1010 R07/29//95
                        NOSIG=
201907081300 METAR LRBS 081300Z 04005KT 010V090 9999 FEW050TCU 26/19 Q1010
                        R07/19//95 NOSIG=
201907081330 METAR LRBS 081330Z 11009KT CAVOK 26/19 Q1010 R07/19//95 NOSIG=
201907081400 METAR LRBS 081400Z 09008KT CAVOK 26/18 Q1010 R07/CLRD// NOSIG=
201907081430 METAR LRBS 081430Z 12007KT 9999 FEW050TCU 26/19 Q1010 NOSIG=
201907081500 METAR LRBS 081500Z 12007KT 9999 VCSH FEW050CB 26/19 Q1009
                        TEMPO 5000 TSRA=
201907081530 METAR COR LRBS 081530Z 36012KT 280V040 9999 TS VCSH SCT040CB
                        25/17 Q1010 TEMPO VRB25KT 5000 TSRA=
201907081600 METAR LRBS 081600Z 35006KT 300V070 9999 TS VCSH FEW040CB
                        23/18 Q1011 BECMG NSW=
201907081630 METAR LRBS 081630Z 08008KT 9999 FEW045CB 23/18 Q1011 RETS
                        NOSIG=
201907081700 METAR LRBS 081700Z 09008KT 9999 FEW050CB 22/18 Q1011 NOSIG=
201907081730 METAR LRBS 081730Z 09006KT 9999 FEW050CB 21/18 Q1011 NOSIG=
201907081800 METAR LRBS 081800Z 10006KT 9999 FEW050CB 21/18 Q1011 NOSIG=
201907081830 METAR LRBS 081830Z 08005KT CAVOK 20/18 Q1012 NOSIG=
201907081900 METAR LRBS 081900Z 09004KT CAVOK 20/19 Q1012 NOSIG=
201907081930 METAR LRBS 081930Z 10004KT CAVOK 20/19 Q1012 NOSIG=
201907082000 METAR LRBS 082000Z 11002KT CAVOK 20/18 Q1012 NOSIG=
201907082030 METAR LRBS 082030Z 07002KT CAVOK 20/17 Q1012 NOSIG=
201907082100 METAR LRBS 082100Z 11002KT CAVOK 21/17 Q1012 NOSIG=
201907082130 METAR LRBS 082130Z 02003KT CAVOK 19/17 Q1013 NOSIG=
201907082200 METAR LRBS 082200Z 01004KT CAVOK 19/17 Q1013 NOSIG=
201907082230 METAR LRBS 082230Z 03003KT CAVOK 18/17 Q1013 NOSIG=
201907082300 METAR LRBS 082300Z 02004KT CAVOK 18/17 Q1013 NOSIG=
201907082330 METAR LRBS 082330Z 05005KT CAVOK 17/16 Q1013 NOSIG=
201907090000 METAR LRBS 090000Z 05006KT CAVOK 18/16 Q1013 NOSIG=
201907090030 METAR LRBS 090030Z 05006KT CAVOK 17/14 Q1013 NOSIG=
201907090100 METAR LRBS 090100Z 06008KT CAVOK 17/14 Q1013 NOSIG=
201907090130 METAR LRBS 090130Z AUTO 05005KT 9999 NCD 16/14 Q1013 NOSIG=
201907090200 METAR LRBS 090200Z 08005KT CAVOK 16/14 Q1013 NOSIG=
201907090230 METAR LRBS 090230Z 06004KT CAVOK 16/13 Q1013 NOSIG=
201907090300 METAR LRBS 090300Z 09004KT CAVOK 16/13 Q1014 NOSIG=
201907090330 METAR LRBS 090330Z 06005KT CAVOK 16/14 Q1014 NOSIG=
201907090400 METAR LRBS 090400Z 03004KT 350V070 CAVOK 17/13 Q1014 NOSIG=
201907090430 METAR LRBS 090430Z 06005KT CAVOK 18/14 Q1014 NOSIG=
201907090500 METAR LRBS 090500Z 08003KT CAVOK 18/13 Q1014 NOSIG=
201907090530 METAR LRBS 090530Z 06004KT 9999 -SHRA FEW050CB 18/14 Q1014
                        NOSIG=
201907090600 METAR LRBS 090600Z VRB02KT 9999 FEW038 FEW050CB 18/15 Q1014
                        NOSIG=
201907090630 METAR LRBS 090630Z 03004KT 9999 FEW050CB 18/15 Q1014 NOSIG=
201907090700 METAR LRBS 090700Z 03004KT 360V070 9999 FEW018 FEW050CB 19/15
                        Q1014 NOSIG=
201907090730 METAR LRBS 090730Z 02004KT 330V070 CAVOK 19/16 Q1014 NOSIG=
201907090800 METAR LRBS 090800Z 03004KT 360V070 CAVOK 20/16 Q1014 NOSIG=
201907090830 METAR LRBS 090830Z 03006KT 320V070 CAVOK 21/16 Q1013 NOSIG=
201907090900 METAR LRBS 090900Z 01004KT 310V050 CAVOK 22/17 Q1014 NOSIG=
201907090930 METAR LRBS 090930Z 02004KT 350V060 CAVOK 21/16 Q1014 NOSIG=
201907091000 METAR LRBS 091000Z 03004KT 360V070 9999 FEW037 22/17 Q1013
                        NOSIG=
201907091030 METAR LRBS 091030Z 06004KT 360V150 CAVOK 23/17 Q1013 NOSIG=
201907091100 METAR LRBS 091100Z 01003KT 290V100 9999 FEW022 23/17 Q1013
                        NOSIG=
201907091130 METAR LRBS 091130Z VRB02KT 9999 FEW024 23/18 Q1013 NOSIG=
201907091200 METAR LRBS 091200Z VRB02KT 9999 FEW025 23/17 Q1012 NOSIG=
201907091230 METAR LRBS 091230Z VRB01KT CAVOK 24/16 Q1012 NOSIG=
201907091300 METAR LRBS 091300Z VRB02KT CAVOK 24/16 Q1012 NOSIG=
201907091330 METAR LRBS 091330Z 29004KT 240V330 CAVOK 26/16 Q1012 NOSIG=
201907091400 METAR LRBS 091400Z 25006KT CAVOK 25/14 Q1012 NOSIG=
201907091430 METAR LRBS 091430Z 30005KT 260V320 9999 FEW045 25/15 Q1012
                        NOSIG=
201907091500 METAR LRBS 091500Z 29005KT CAVOK 24/15 Q1012 NOSIG=
201907091530 METAR LRBS 091530Z 28005KT CAVOK 24/15 Q1011 NOSIG=
201907091600 METAR LRBS 091600Z 29003KT 9999 FEW050TCU 24/15 Q1011 NOSIG=
201907091630 METAR LRBS 091630Z 01005KT 310V060 9999 SCT047 23/13 Q1011
                        NOSIG=
201907091700 METAR LRBS 091700Z 36005KT 320V030 9999 FEW050TCU 22/12 Q1012
                        NOSIG=
201907091730 METAR LRBS 091730Z 01005KT CAVOK 22/10 Q1012 NOSIG=
201907091800 METAR LRBS 091800Z 02002KT CAVOK 20/12 Q1012 NOSIG=
201907091830 METAR LRBS 091830Z VRB01KT CAVOK 21/12 Q1012 NOSIG=
201907091900 METAR LRBS 091900Z 01002KT CAVOK 20/11 Q1012 NOSIG=
201907091930 METAR LRBS 091930Z 01003KT CAVOK 19/12 Q1012 NOSIG=
201907092000 METAR LRBS 092000Z 01001KT CAVOK 19/12 Q1012 NOSIG=
201907092030 METAR LRBS 092030Z 00000KT CAVOK 19/12 Q1012 NOSIG=
201907092100 METAR LRBS 092100Z 26001KT CAVOK 18/13 Q1012 NOSIG=
201907092130 METAR LRBS 092130Z 29001KT CAVOK 18/13 Q1012 NOSIG=
201907092200 METAR LRBS 092200Z VRB02KT CAVOK 17/13 Q1012 NOSIG=
201907092230 METAR LRBS 092230Z 27003KT 210V300 CAVOK 17/13 Q1012 NOSIG=
201907092300 METAR LRBS 092300Z 29003KT CAVOK 17/13 Q1011 NOSIG=
201907092330 METAR LRBS 092330Z 31004KT 280V340 CAVOK 17/13 Q1011 NOSIG=
201907100000 METAR LRBS 100000Z VRB02KT CAVOK 17/12 Q1011 NOSIG=
201907100030 METAR LRBS 100030Z VRB01KT CAVOK 17/12 Q1011 NOSIG=
201907100100 METAR LRBS 100100Z 26002KT CAVOK 16/13 Q1011 NOSIG=
201907100130 METAR LRBS 100130Z 29002KT CAVOK 16/12 Q1011 NOSIG=
201907100200 METAR LRBS 100200Z 26003KT CAVOK 16/13 Q1011 NOSIG=
201907100230 METAR LRBS 100230Z 27002KT CAVOK 16/13 Q1011 NOSIG=
201907100300 METAR LRBS 100300Z 30002KT CAVOK 16/12 Q1011 NOSIG=
201907100330 METAR LRBS 100330Z 00000KT CAVOK 16/12 Q1011 NOSIG=
201907100400 METAR LRBS 100400Z VRB02KT CAVOK 16/12 Q1011 NOSIG=
201907100430 METAR LRBS 100430Z VRB02KT CAVOK 17/12 Q1011 NOSIG=
201907100500 METAR LRBS 100500Z 04003KT CAVOK 18/12 Q1011 NOSIG=
201907100530 METAR LRBS 100530Z 08006KT CAVOK 20/12 Q1011 NOSIG=
201907100600 METAR LRBS 100600Z 08007KT CAVOK 20/12 Q1011 NOSIG=
201907100630 METAR LRBS 100630Z 08005KT 040V110 CAVOK 21/13 Q1011 NOSIG=
201907100700 METAR LRBS 100700Z 11005KT 040V140 CAVOK 22/13 Q1011 NOSIG=
201907100730 METAR LRBS 100730Z 10003KT 040V150 CAVOK 22/12 Q1011 NOSIG=
201907100800 METAR LRBS 100800Z 07003KT 020V170 CAVOK 23/14 Q1011 NOSIG=
201907100830 METAR LRBS 100830Z VRB02KT 9999 FEW040 24/13 Q1011 NOSIG=
201907100900 METAR LRBS 100900Z 22003KT 140V310 9999 FEW040 24/13 Q1010
                        NOSIG=
201907100930 METAR LRBS 100930Z 23004KT 180V280 9999 FEW040TCU SCT045
                        24/12 Q1010 NOSIG=
201907101000 METAR LRBS 101000Z 27005KT 220V350 9999 FEW050CB 25/13 Q1010
                        NOSIG=
201907101030 METAR LRBS 101030Z 29005KT 240V350 9999 SCT050CB 24/10 Q1010
                        NOSIG=
201907101100 METAR LRBS 101100Z 29004KT 240V330 9999 -SHRA SCT040CB 23/11
                        Q1010 NOSIG=
201907101130 METAR LRBS 101130Z 29004KT 260V330 9999 SCT050CB 24/12 Q1009
                        NOSIG=
201907101200 METAR LRBS 101200Z 31005KT 270V360 9999 SCT050CB 24/09 Q1009
                        NOSIG=
201907101230 METAR LRBS 101230Z 29005KT 270V340 9999 VCSH SCT050CB 24/11
                        Q1009 NOSIG=
201907101300 METAR LRBS 101300Z 28010KT 260V320 9999 FEW050CB 22/14 Q1009
                        NOSIG=
201907101330 METAR LRBS 101330Z 27010KT 9999 FEW060CB 21/12 Q1009 NOSIG=
201907101400 METAR LRBS 101400Z 27008KT 240V310 9999 FEW060CB 22/13 Q1009
                        NOSIG=
201907101430 METAR LRBS 101430Z 26008KT CAVOK 22/13 Q1009 NOSIG=
201907101500 METAR LRBS 101500Z 27007KT 240V310 CAVOK 22/13 Q1009 NOSIG=
201907101530 METAR LRBS 101530Z 27009KT CAVOK 22/13 Q1009 NOSIG=
201907101600 METAR LRBS 101600Z 27009KT CAVOK 22/13 Q1009 NOSIG=
201907101630 METAR LRBS 101630Z 26008KT CAVOK 22/14 Q1009 NOSIG=
201907101700 METAR LRBS 101700Z 27006KT 240V300 CAVOK 21/13 Q1009 NOSIG=
201907101730 METAR LRBS 101730Z 27007KT CAVOK 21/13 Q1009 NOSIG=
201907101800 METAR LRBS 101800Z 28005KT 240V300 CAVOK 21/13 Q1009 NOSIG=
201907101830 METAR LRBS 101830Z 28005KT 260V320 CAVOK 20/13 Q1009 NOSIG=
201907101900 METAR COR LRBS 101900Z VRB02KT CAVOK 20/14 Q1010 NOSIG=
201907101930 METAR LRBS 101930Z VRB02KT CAVOK 19/14 Q1010 NOSIG=
201907102000 METAR LRBS 102000Z 03005KT 320V090 9999 SCT047CB 19/11 Q1010
                        NOSIG=
201907102030 METAR LRBS 102030Z 03006KT 9999 -SHRA SCT050CB 19/10 Q1010
                        NOSIG=
201907102100 METAR LRBS 102100Z 02005KT 330V040 9999 -SHRA SCT050CB 17/11
                        Q1011 BECMG NSC=
201907102130 METAR COR LRBS 102130Z 06007KT 9999 FEW050CB 16/14 Q1011
                        BECMG NSC=
201907102200 METAR LRBS 102200Z 07007KT CAVOK 16/14 Q1011 NOSIG=
201907102230 METAR LRBS 102230Z 07006KT CAVOK 15/13 Q1011 NOSIG=
201907102300 METAR LRBS 102300Z 07005KT CAVOK 14/12 Q1011 NOSIG=
201907102330 METAR LRBS 102330Z 08007KT CAVOK 15/12 Q1011 NOSIG=
201907110000 METAR LRBS 110000Z AUTO 06002KT 9999 BKN074/// 15/12 Q1011
                        NOSIG=
201907110030 METAR LRBS 110030Z 09003KT CAVOK 15/12 Q1011 NOSIG=
201907110100 METAR LRBS 110100Z 06001KT CAVOK 15/12 Q1011 NOSIG=
201907110130 METAR LRBS 110130Z 09002KT CAVOK 14/11 Q1011 NOSIG=
201907110200 METAR LRBS 110200Z 09002KT CAVOK 14/11 Q1011 NOSIG=
201907110230 METAR LRBS 110230Z 36002KT CAVOK 13/12 Q1011 NOSIG=
201907110300 METAR LRBS 110300Z 28002KT CAVOK 13/11 Q1011 NOSIG=
201907110330 METAR LRBS 110330Z 29002KT CAVOK 13/12 Q1011 NOSIG=
201907110400 METAR LRBS 110400Z 32003KT CAVOK 14/12 Q1011 NOSIG=
201907110430 METAR LRBS 110430Z 30003KT CAVOK 15/12 Q1012 NOSIG=
201907110500 METAR LRBS 110500Z VRB02KT CAVOK 17/12 Q1012 NOSIG=
201907110530 METAR LRBS 110530Z 27003KT 220V330 CAVOK 18/11 Q1012 NOSIG=
201907110600 METAR LRBS 110600Z 26003KT 220V310 CAVOK 18/11 Q1012 NOSIG=
201907110630 METAR LRBS 110630Z 26004KT CAVOK 19/12 Q1012 NOSIG=
201907110700 METAR LRBS 110700Z 24004KT 180V330 CAVOK 20/12 Q1012 NOSIG=
201907110730 METAR LRBS 110730Z VRB03KT 9999 FEW035 20/12 Q1012 NOSIG=
201907110800 METAR LRBS 110800Z VRB02KT 9999 FEW040 21/11 Q1012 NOSIG=
201907110830 METAR LRBS 110830Z VRB03KT 9999 SCT040 21/10 Q1012 NOSIG=
201907110900 METAR LRBS 110900Z 26006KT 230V300 9999 SCT048 22/10 Q1012
                        NOSIG=
201907110930 METAR LRBS 110930Z 31004KT 230V010 9999 SCT049 23/11 Q1011
                        NOSIG=
201907111000 METAR LRBS 111000Z 29004KT 220V020 9999 SCT049 23/11 Q1011
                        NOSIG=
201907111030 METAR LRBS 111030Z VRB05KT CAVOK 22/10 Q1011 NOSIG=
201907111100 METAR LRBS 111100Z 27009KT 240V300 CAVOK 22/11 Q1011 NOSIG=
201907111130 METAR LRBS 111130Z 28008KT 240V360 9999 FEW050TCU 25/11 Q1010
                        NOSIG=
201907111200 METAR LRBS 111200Z 29006KT 240V320 9999 FEW050CB 24/09 Q1010
                        NOSIG=
201907111230 METAR LRBS 111230Z 31006KT 260V350 9999 FEW050CB 24/09 Q1010
                        NOSIG=
201907111300 METAR LRBS 111300Z 28006KT 240V350 9999 FEW050CB 24/10 Q1010
                        NOSIG=
201907111330 METAR LRBS 111330Z 29006KT 250V350 9999 FEW050TCU 23/09 Q1010
                        NOSIG=
201907111400 METAR LRBS 111400Z 34006KT 290V020 9999 FEW050TCU 22/10 Q1010
                        NOSIG=
201907111430 METAR LRBS 111430Z 32005KT 260V360 9999 FEW050CB 22/10 Q1010
                        NOSIG=
201907111500 METAR LRBS 111500Z 29003KT 250V360 9999 FEW050CB 23/11 Q1010
                        NOSIG=
201907111530 METAR LRBS 111530Z 30004KT 260V350 9999 FEW050CB 22/11 Q1010
                        NOSIG=
201907111600 METAR LRBS 111600Z 29003KT 270V330 CAVOK 22/11 Q1010 NOSIG=
201907111630 METAR LRBS 111630Z 28003KT 240V340 CAVOK 22/11 Q1010 NOSIG=
201907111700 METAR COR LRBS 111700Z VRB01KT CAVOK 22/11 Q1010 NOSIG=
201907111730 METAR LRBS 111730Z 00000KT CAVOK 21/12 Q1010 NOSIG=
201907111800 METAR LRBS 111800Z 00000KT 9999 FEW060CB 20/13 Q1010 NOSIG=
201907111830 METAR LRBS 111830Z 00000KT 9999 FEW060CB 20/12 Q1010 NOSIG=
201907111900 METAR LRBS 111900Z VRB01KT 9999 VCTS FEW050CB 20/13 Q1010
                        TEMPO TS=
201907111930 METAR LRBS 111930Z 02003KT 360V060 9999 -SHRA VCTS SCT050CB
                        19/12 Q1010 NOSIG=
201907112000 METAR LRBS 112000Z VRB01KT 9999 TSRA SCT040CB 19/13 Q1011
                        NOSIG=
201907112030 METAR LRBS 112030Z 04012KT 350V070 9999 -TSRA SCT014 SCT040CB
                        16/13 Q1011 RETSRA BECMG NSW=
201907112100 METAR LRBS 112100Z 04008KT 010V090 9999 VCTS SCT050CB 16/13
                        Q1011 RETS R07/29//95 BECMG NSW=
201907112130 METAR LRBS 112130Z 05007KT 010V070 9999 VCTS FEW050CB 15/12
                        Q1012 R07/29//95 BECMG NSC=
201907112200 METAR COR LRBS 112200Z 03005KT 9999 VCTS FEW050CB 15/13 Q1012
                        R07/29//95 TEMPO TS=
201907112230 METAR LRBS 112230Z 29007KT 250V040 8000 TSRA SCT020 BKN035CB
                        OVC040 15/13 Q1012 R07/29//95 NOSIG=
201907112300 METAR LRBS 112300Z 05007KT 9999 TS SCT040CB BKN045 14/13
                        Q1011 RETSRA R07/29//95 NOSIG=
201907112330 METAR LRBS 112330Z 07003KT 010V110 9999 VCTS SCT050CB 14/13
                        Q1011 RETS R07/29//95 NOSIG=
201907120000 METAR LRBS 120000Z 11003KT 070V140 9999 FEW050CB 14/13 Q1011
                        R07/29//95 BECMG NSC=
201907120030 METAR LRBS 120030Z 11003KT 9999 FEW050CB 14/12 Q1010 R07/29//95
                        NOSIG=
201907120100 METAR LRBS 120100Z VRB01KT CAVOK 14/13 Q1011 R07/29//95 NOSIG=
201907120130 METAR LRBS 120130Z 33005KT CAVOK 13/13 Q1011 R07/29//95 NOSIG=
201907120200 METAR LRBS 120200Z 32003KT CAVOK 13/12 Q1011 R07/29//95 NOSIG=
201907120230 METAR LRBS 120230Z 21004KT CAVOK 13/12 Q1011 R07/29//95 NOSIG=
201907120300 METAR LRBS 120300Z 33004KT CAVOK 13/12 Q1012 R07/29//95 NOSIG=
201907120330 METAR LRBS 120330Z 24003KT CAVOK 13/12 Q1012 R07/29//95 NOSIG=
201907120400 METAR LRBS 120400Z 30003KT CAVOK 14/12 Q1012 R07/29//95 NOSIG=
201907120430 METAR LRBS 120430Z 28003KT 250V310 CAVOK 15/13 Q1012 R07/29//95
                        NOSIG=
201907120500 METAR LRBS 120500Z 31005KT CAVOK 16/13 Q1012 R07/29//95 NOSIG=
201907120530 METAR LRBS 120530Z 30005KT CAVOK 17/13 Q1013 R07/19//95 NOSIG=
201907120600 METAR LRBS 120600Z 30004KT 260V330 CAVOK 18/13 Q1013 R07/19//95
                        NOSIG=
201907120630 METAR LRBS 120630Z 34003KT 280V020 9999 FEW021 18/11 Q1013
                        R07/19//95 NOSIG=
201907120700 METAR LRBS 120700Z 03004KT 350V090 9999 FEW024 19/11 Q1013
                        R07/CLRD// NOSIG=
201907120730 METAR LRBS 120730Z 07004KT 350V160 9999 FEW025 19/11 Q1013
                        NOSIG=
201907120800 METAR LRBS 120800Z 02004KT 340V090 9999 FEW030 20/12 Q1013
                        NOSIG=
201907120830 METAR LRBS 120830Z VRB03KT 9999 SCT034 20/11 Q1013 NOSIG=
201907120900 METAR LRBS 120900Z VRB03KT 9999 SCT043 21/11 Q1013 NOSIG=
201907120930 METAR COR LRBS 120930Z VRB05KT 9999 SCT044 22/12 Q1013 NOSIG=
201907121000 METAR LRBS 121000Z 09005KT 050V130 9999 SCT045 21/11 Q1012
                        NOSIG=
201907121030 METAR LRBS 121030Z 13004KT 9999 SCT045 22/12 Q1012 NOSIG=
201907121100 METAR LRBS 121100Z VRB04KT 9999 SCT047 22/09 Q1012 NOSIG=
201907121130 METAR LRBS 121130Z VRB04KT 9999 SCT049 22/10 Q1012 NOSIG=
201907121200 METAR LRBS 121200Z 04004KT 010V080 CAVOK 23/10 Q1012 NOSIG=
201907121230 METAR LRBS 121230Z 26006KT 240V330 CAVOK 23/10 Q1012 NOSIG=
201907121300 METAR LRBS 121300Z 01003KT 340V050 CAVOK 24/11 Q1012 NOSIG=
201907121330 METAR LRBS 121330Z VRB05KT CAVOK 24/09 Q1012 NOSIG=
201907121400 METAR LRBS 121400Z 04005KT CAVOK 24/10 Q1012 NOSIG=
201907121430 METAR LRBS 121430Z 03003KT 320V130 CAVOK 24/11 Q1011 NOSIG=
201907121500 METAR LRBS 121500Z VRB02KT CAVOK 24/09 Q1011 NOSIG=
201907121530 METAR LRBS 121530Z 04004KT 360V100 CAVOK 24/10 Q1011 NOSIG=
201907121600 METAR LRBS 121600Z 01004KT 340V040 CAVOK 23/10 Q1011 NOSIG=
201907121630 METAR LRBS 121630Z 03003KT CAVOK 22/12 Q1011 NOSIG=
201907121700 METAR LRBS 121700Z 04003KT CAVOK 22/12 Q1011 NOSIG=
201907121730 METAR LRBS 121730Z 04001KT CAVOK 22/12 Q1012 NOSIG=
201907121800 METAR LRBS 121800Z 07001KT CAVOK 21/12 Q1012 NOSIG=
201907121830 METAR LRBS 121830Z 00000KT CAVOK 21/13 Q1012 NOSIG=
201907121900 METAR LRBS 121900Z 00000KT CAVOK 20/14 Q1012 NOSIG=
201907121930 METAR LRBS 121930Z 00000KT CAVOK 19/14 Q1012 NOSIG=
201907122000 METAR LRBS 122000Z 07003KT CAVOK 16/13 Q1012 NOSIG=
201907122030 METAR LRBS 122030Z 00000KT CAVOK 18/14 Q1012 NOSIG=
201907122100 METAR LRBS 122100Z 00000KT CAVOK 17/13 Q1012 NOSIG=
201907122130 METAR LRBS 122130Z 06002KT CAVOK 16/13 Q1012 NOSIG=
201907122200 METAR LRBS 122200Z 00000KT CAVOK 16/13 Q1012 NOSIG=
201907122230 METAR LRBS 122230Z VRB01KT CAVOK 16/13 Q1012 NOSIG=
201907122300 METAR LRBS 122300Z 32002KT CAVOK 16/13 Q1012 NOSIG=
201907122330 METAR LRBS 122330Z VRB02KT CAVOK 16/13 Q1012 NOSIG=
201907130000 METAR LRBS 130000Z 00000KT CAVOK 16/13 Q1012 NOSIG=
201907130030 METAR LRBS 130030Z VRB01KT CAVOK 15/13 Q1012 NOSIG=
201907130100 METAR LRBS 130100Z 00000KT CAVOK 15/13 Q1012 NOSIG=
201907130130 METAR LRBS 130130Z 29001KT CAVOK 15/13 Q1012 NOSIG=
201907130200 METAR LRBS 130200Z VRB02KT CAVOK 14/13 Q1012 NOSIG=
201907130230 METAR LRBS 130230Z VRB02KT CAVOK 14/13 Q1012 NOSIG=
201907130300 METAR LRBS 130300Z VRB01KT CAVOK 16/13 Q1012 NOSIG=
201907130330 METAR LRBS 130330Z 00000KT CAVOK 15/13 Q1012 NOSIG=
201907130400 METAR LRBS 130400Z 04002KT CAVOK 16/13 Q1012 NOSIG=
201907130430 METAR LRBS 130430Z 04002KT CAVOK 16/13 Q1012 NOSIG=
201907130500 METAR LRBS 130500Z 03002KT CAVOK 16/12 Q1012 NOSIG=
201907130530 METAR LRBS 130530Z VRB02KT CAVOK 17/13 Q1012 NOSIG=
201907130600 METAR LRBS 130600Z VRB02KT CAVOK 19/13 Q1012 NOSIG=
201907130630 METAR LRBS 130630Z 09003KT 060V120 CAVOK 21/13 Q1012 NOSIG=
201907130700 METAR LRBS 130700Z VRB01KT CAVOK 23/12 Q1012 NOSIG=
201907130730 METAR LRBS 130730Z VRB03KT CAVOK 23/12 Q1012 NOSIG=
201907130800 METAR LRBS 130800Z VRB02KT CAVOK 24/11 Q1011 NOSIG=
201907130830 METAR LRBS 130830Z VRB02KT CAVOK 25/12 Q1011 NOSIG=
201907130900 METAR LRBS 130900Z 15007KT CAVOK 25/11 Q1011 NOSIG=
201907130930 METAR LRBS 130930Z 14004KT 020V180 CAVOK 25/10 Q1011 NOSIG=
201907131000 METAR COR LRBS 131000Z 15004KT 100V230 CAVOK 25/10 Q1010
                        NOSIG=
201907131030 METAR LRBS 131030Z 23005KT 140V260 CAVOK 25/11 Q1010 NOSIG=
201907131100 METAR LRBS 131100Z 24003KT 180V310 CAVOK 25/10 Q1010 NOSIG=
201907131130 METAR LRBS 131130Z 19005KT 140V230 CAVOK 26/10 Q1010 NOSIG=
201907131200 METAR COR LRBS 131200Z 18005KT 140V220 CAVOK 25/11 Q1010
                        NOSIG=
201907131230 METAR LRBS 131230Z 20006KT 160V230 CAVOK 26/12 Q1009 NOSIG=
201907131300 METAR LRBS 131300Z 23006KT 190V270 CAVOK 26/10 Q1009 NOSIG=
201907131330 METAR LRBS 131330Z 24006KT 180V270 CAVOK 27/10 Q1009 NOSIG=
201907131400 METAR LRBS 131400Z VRB07KT CAVOK 26/10 Q1009 NOSIG=
201907131430 METAR LRBS 131430Z 20003KT 140V240 CAVOK 27/11 Q1009 NOSIG=
201907131500 METAR LRBS 131500Z VRB02KT CAVOK 27/09 Q1008 NOSIG=
201907131530 METAR LRBS 131530Z 08006KT CAVOK 27/10 Q1008 NOSIG=
201907131600 METAR LRBS 131600Z 06003KT 9999 FEW050TCU 26/11 Q1008 NOSIG=
201907131630 METAR LRBS 131630Z 08004KT 9999 FEW050TCU 24/13 Q1008 NOSIG=
201907131700 METAR LRBS 131700Z 02010KT 9999 FEW050CB 22/13 Q1009 NOSIG=
201907131730 METAR LRBS 131730Z 03008KT 360V060 9999 FEW050TCU 21/13 Q1009
                        NOSIG=
201907131800 METAR LRBS 131800Z 03007KT CAVOK 20/13 Q1009 NOSIG=
201907131830 METAR COR LRBS 131830Z 02005KT 350V050 CAVOK 19/13 Q1009
                        NOSIG=
201907131900 METAR LRBS 131900Z 03003KT 360V060 CAVOK 18/13 Q1009 NOSIG=
201907131930 METAR LRBS 131930Z 02004KT CAVOK 18/13 Q1009 NOSIG=
201907132000 METAR LRBS 132000Z 04002KT CAVOK 17/13 Q1009 NOSIG=
201907132030 METAR LRBS 132030Z 02003KT CAVOK 17/13 Q1008 NOSIG=
201907132100 METAR LRBS 132100Z 02003KT CAVOK 17/13 Q1008 NOSIG=
201907132130 METAR LRBS 132130Z 02003KT CAVOK 17/14 Q1008 NOSIG=
201907132200 METAR LRBS 132200Z 03003KT 360V060 CAVOK 17/14 Q1008 NOSIG=
201907132230 METAR LRBS 132230Z 03003KT CAVOK 17/14 Q1008 NOSIG=
201907132300 METAR LRBS 132300Z 01003KT 330V060 CAVOK 17/14 Q1008 NOSIG=
201907132330 METAR LRBS 132330Z 03004KT 360V060 CAVOK 17/14 Q1008 NOSIG=
201907140000 METAR LRBS 140000Z 01003KT 340V040 CAVOK 16/14 Q1007 NOSIG=
201907140030 METAR LRBS 140030Z 01004KT 340V050 CAVOK 16/14 Q1007 NOSIG=
201907140100 METAR LRBS 140100Z 01004KT CAVOK 16/14 Q1007 NOSIG=
201907140130 METAR LRBS 140130Z 02003KT CAVOK 16/14 Q1007 NOSIG=
201907140200 METAR LRBS 140200Z VRB02KT CAVOK 16/13 Q1007 NOSIG=
201907140230 METAR LRBS 140230Z VRB02KT CAVOK 16/13 Q1007 NOSIG=
201907140300 METAR LRBS 140300Z 31003KT 270V350 CAVOK 15/13 Q1007 NOSIG=
201907140330 METAR LRBS 140330Z 31004KT CAVOK 16/13 Q1007 NOSIG=
201907140400 METAR LRBS 140400Z 30004KT 270V350 9999 FEW045CB 16/13 Q1007
                        NOSIG=
201907140430 METAR LRBS 140430Z 28005KT 260V320 9999 VCSH SCT045CB 17/14
                        Q1007 NOSIG=
201907140500 METAR LRBS 140500Z 30004KT 9999 VCSH SCT045CB 17/13 Q1007
                        NOSIG=
201907140530 METAR LRBS 140530Z 31004KT 9999 VCSH SCT050CB 18/14 Q1007
                        NOSIG=
201907140600 METAR LRBS 140600Z 30003KT 270V340 9999 FEW050CB 18/14 Q1007
                        NOSIG=
201907140630 METAR LRBS 140630Z 28003KT 9999 SCT050CB 18/14 Q1007 NOSIG=
201907140700 METAR LRBS 140700Z 30003KT 9999 SCT050CB 19/14 Q1008 NOSIG=
201907140730 METAR LRBS 140730Z VRB02KT 9999 SCT050CB 20/15 Q1008 NOSIG=
201907140800 METAR LRBS 140800Z 32004KT 280V350 9999 SCT050CB 20/14 Q1008
                        NOSIG=
201907140830 METAR LRBS 140830Z 29004KT 240V330 9999 SCT050CB 20/14 Q1008
                        BECMG 08010KT=
201907140900 METAR LRBS 140900Z 27005KT 9999 SCT050CB 20/14 Q1008 BECMG
                        08010KT=
201907140930 METAR COR LRBS 140930Z 27005KT 9999 -SHRA SCT030CB SCT045
                        20/14 Q1008 BECMG 08010KT=
201907141000 METAR LRBS 141000Z 27005KT 230V300 9999 FEW025 FEW040CB 20/15
                        Q1007 BECMG 08010KT=
201907141030 METAR LRBS 141030Z 32003KT 270V070 9999 FEW023 FEW040CB 22/16
                        Q1007 BECMG 08010KT=
201907141100 METAR LRBS 141100Z 01005KT 320V080 9999 SCT025 FEW030CB BKN035
                        22/16 Q1007 BECMG 08010KT=
201907141130 METAR COR LRBS 141130Z 05006KT 010V090 9999 BKN025 FEW030CB
                        22/16 Q1007 NOSIG=
201907141200 METAR LRBS 141200Z 07007KT 040V110 9999 VCTS SCT023 SCT030CB
                        21/15 Q1007 NOSIG=
201907141230 METAR LRBS 141230Z 14010KT 9999 -TSRA SCT017 SCT025CB BKN039
                        19/16 Q1008 TEMPO 5000 TSRA BKN025CB=
201907141300 METAR LRBS 141300Z 20005KT 180V240 9999 -TSRA SCT027 SCT030CB
                        17/16 Q1008 TEMPO 5000 TSRA=
201907141330 METAR LRBS 141330Z VRB01KT 8000 -TSRA SCT015 SCT035CB 18/16
                        Q1008 R07/19//95 TEMPO 5000 TSRA=
201907141400 METAR LRBS 141400Z 28002KT 8000 -TSRA FEW015 BKN025CB 18/16
                        Q1008 RETSRA R07/29//95 TEMPO 5000
                        TSRA=
201907141430 METAR LRBS 141430Z 03007KT 360V060 8000 TSRA SCT015 BKN025CB
                        18/17 Q1008 R07/29//95 NOSIG=
201907141500 METAR LRBS 141500Z 02003KT 350V070 9999 -SHRA FEW015 SCT030CB
                        17/16 Q1008 RETSRA R07/29//95 NOSIG=
201907141530 METAR LRBS 141530Z VRB02KT 8000 -SHRA SCT035CB 17/16 Q1008
                        R07/29//95 NOSIG=
201907141600 METAR LRBS 141600Z 26002KT 8000 -SHRA SCT040CB 17/17 Q1008
                        R07/29//95 NOSIG=
201907141630 METAR LRBS 141630Z 29004KT 9999 -SHRA SCT040CB 17/17 Q1008
                        R07/29//95 BECMG CAVOK=
201907141700 METAR LRBS 141700Z 30003KT 9999 -SHRA SCT040CB 17/16 Q1008
                        R07/29//95 BECMG CAVOK=
201907141730 METAR LRBS 141730Z 35003KT 310V030 9999 FEW040CB 17/17 Q1008
                        R07/29//95 BECMG NSC=
201907141800 METAR LRBS 141800Z 03004KT 9999 SCT004 17/16 Q1008 R07/29//95
                        BECMG NSC=
201907141830 METAR LRBS 141830Z 02003KT 350V050 9999 FEW005 16/16 Q1008
                        R07/29//95 NOSIG=
201907141900 METAR LRBS 141900Z VRB01KT CAVOK 16/15 Q1008 R07/29//95 NOSIG=
201907141930 METAR LRBS 141930Z 09001KT CAVOK 16/15 Q1008 R07/29//95 NOSIG=
201907142000 METAR LRBS 142000Z 13001KT CAVOK 16/16 Q1008 R07/29//95 NOSIG=
201907142030 METAR LRBS 142030Z 00000KT CAVOK 16/16 Q1008 R07/29//95 NOSIG=
201907142100 METAR LRBS 142100Z 00000KT CAVOK 16/15 Q1008 R07/29//95 BECMG
                        3000 BR=
201907142130 METAR LRBS 142130Z 27002KT 6000 NSC 16/15 Q1009 R07/29//95
                        BECMG 3000 BR=
201907142200 METAR LRBS 142200Z 26001KT 6000 NSC 15/15 Q1009 R07/29//95
                        BECMG 3000 BR=
201907142230 METAR LRBS 142230Z 00000KT 4000 MIFG BR NSC 15/15 Q1008 R07/29//95
                        TEMPO 1500 BR=
201907142300 METAR COR LRBS 142300Z 00000KT 4000 MIFG BR NSC 15/15 Q1008
                        R07/29//95 TEMPO 1500 BR=
201907142330 METAR LRBS 142330Z 00000KT 4000 PRFG BR NSC 15/15 Q1008 R07/29//95
                        TEMPO 1500 BR=
201907150000 METAR COR LRBS 150000Z 30004KT CAVOK 15/14 Q1012 NOSIG=
201907150030 METAR LRBS 150030Z VRB01KT 0400 R07/1300D R25/P2000 FG VV001
                        14/14 Q1008 R07/29//95 NOSIG=
201907150100 METAR LRBS 150100Z 24001KT 3000 PRFG BR SCT001 14/14 Q1008
                        R07/29//95 NOSIG=
201907150130 METAR LRBS 150130Z 26001KT 0300 R07/0700N R25/1000U FG VV001
                        14/14 Q1008 R07/29//95 NOSIG=
201907150200 METAR LRBS 150200Z 25002KT 0800 R07/0600N R25/0550N FG SCT001
                        13/13 Q1008 R07/29//95 NOSIG=
201907150230 METAR LRBS 150230Z 00000KT 0200 R07/0550N R25/0550N FG NSC
                        13/13 Q1008 R07/29//95 NOSIG=
201907150300 METAR LRBS 150300Z 00000KT 1100 R07/0450N R25/0750N BR FEW001
                        14/13 Q1009 R07/29//95 NOSIG=
201907150330 METAR LRBS 150330Z 00000KT 0400 R07/0400D R25/0700D FG FEW001
                        14/14 Q1009 R07/29//95 BECMG 1500
                        BR=
201907150400 METAR LRBS 150400Z VRB01KT 0400 R07/0450 R25/0600 FG SCT001
                        14/14 Q1009 R07/29//95 BECMG 1500
                        BR=
201907150430 METAR LRBS 150430Z 00000KT 0500 R07/P2000 R25/1000 FG FEW001
                        15/14 Q1009 R07/29//95 BECMG 1500
                        BR=
201907150500 METAR LRBS 150500Z VRB02KT 5000 BR FEW001 16/15 Q1009 R07/29//95
                        BECMG 9999 NSW=
201907150530 METAR COR LRBS 150530Z 07003KT 9999 FEW003 16/15 Q1009 R07/29//95
                        NOSIG=
201907150600 METAR LRBS 150600Z VRB02KT 9999 FEW004 17/15 Q1009 R07/29//95
                        NOSIG=
201907150630 METAR LRBS 150630Z VRB01KT 9999 FEW010 18/15 Q1009 R07/29//95
                        NOSIG=
201907150700 METAR LRBS 150700Z 09004KT 060V120 9999 FEW012 19/16 Q1009
                        R07/29//95 NOSIG=
201907150730 METAR LRBS 150730Z 09005KT 060V130 9999 FEW017 19/14 Q1009
                        R07/29//95 NOSIG=
201907150800 METAR LRBS 150800Z 09003KT 9999 FEW021 20/15 Q1009 R07/29//95
                        NOSIG=
201907150830 METAR LRBS 150830Z VRB02KT 9999 FEW022 21/15 Q1009 R07/29//95
                        NOSIG=
201907150900 METAR LRBS 150900Z VRB02KT 9999 FEW025 22/15 Q1009 R07/29//95
                        NOSIG=
201907150930 METAR LRBS 150930Z 22005KT 170V260 9999 FEW025 SCT030 22/15
                        Q1009 NOSIG=
201907151000 METAR LRBS 151000Z 26004KT 220V310 9999 SCT028 22/15 Q1009
                        NOSIG=
201907151030 METAR LRBS 151030Z AUTO VRB02KT 9999 BKN029/// 23/16 Q1009
                        NOSIG=
201907151100 METAR LRBS 151100Z VRB04KT 9999 BKN030 24/16 Q1009 NOSIG=
201907151130 METAR LRBS 151130Z VRB04KT 9999 SCT032 24/16 Q1009 NOSIG=
201907151200 METAR LRBS 151200Z 20004KT 150V250 9999 FEW036 FEW045TCU
                        24/14 Q1009 NOSIG=
201907151230 METAR LRBS 151230Z 27004KT 240V310 9999 FEW050CB 24/15 Q1009
                        NOSIG=
201907151300 METAR LRBS 151300Z 28006KT 260V350 9999 FEW050CB 23/15 Q1009
                        NOSIG=
201907151330 METAR LRBS 151330Z 30004KT 250V010 9999 VCTS FEW050CB 24/14
                        Q1009 TEMPO VRB15G25KT 5000 TSRA=
201907151400 METAR LRBS 151400Z 01013KT 9999 VCTS FEW020 SCT045CB 19/15
                        Q1010 TEMPO VRB15G25KT 5000 TSRA=
201907151430 METAR LRBS 151430Z 03011KT 9999 FEW030 SCT050CB 18/13 Q1010
                        NOSIG=
201907151500 METAR LRBS 151500Z 04009KT 010V070 9999 FEW050CB 18/14 Q1010
                        NOSIG=
201907151530 METAR LRBS 151530Z 05006KT 010V080 9999 FEW050CB 18/13 Q1010
                        NOSIG=
201907151600 METAR LRBS 151600Z 02005KT 9999 FEW050CB 19/14 Q1010 NOSIG=
201907151630 METAR LRBS 151630Z 02006KT 340V050 9999 FEW060CB 19/14 Q1010
                        NOSIG=
201907151700 METAR LRBS 151700Z 01004KT CAVOK 18/14 Q1010 NOSIG=
201907151730 METAR LRBS 151730Z 05003KT CAVOK 17/14 Q1010 NOSIG=
201907151800 METAR LRBS 151800Z 08004KT CAVOK 17/14 Q1010 NOSIG=
201907151830 METAR LRBS 151830Z 03003KT CAVOK 16/15 Q1011 NOSIG=
201907151900 METAR LRBS 151900Z 05002KT CAVOK 16/14 Q1011 NOSIG=
201907151930 METAR LRBS 151930Z 08002KT CAVOK 16/14 Q1012 NOSIG=
201907152000 METAR LRBS 152000Z 00000KT CAVOK 16/14 Q1012 NOSIG=
201907152030 METAR LRBS 152030Z 00000KT CAVOK 16/14 Q1012 NOSIG=
201907152100 METAR LRBS 152100Z 00000KT 9999 FEW040 15/14 Q1012 NOSIG=
201907152130 METAR LRBS 152130Z 00000KT 9999 SCT040 15/14 Q1012 NOSIG=
201907152200 METAR LRBS 152200Z 26002KT 9999 SCT042 15/14 Q1012 NOSIG=
201907152230 METAR LRBS 152230Z 26003KT 9999 SCT043 15/14 Q1011 NOSIG=
201907152300 METAR LRBS 152300Z 28003KT 9999 FEW042 15/14 Q1012 NOSIG=
201907152330 METAR LRBS 152330Z AUTO 26003KT 9999 SCT095/// 15/14 Q1012
                        NOSIG=
201907160000 METAR LRBS 160000Z 30004KT CAVOK 15/14 Q1012 NOSIG=
201907160030 METAR LRBS 160030Z VRB02KT CAVOK 14/14 Q1011 NOSIG=
201907160100 METAR LRBS 160100Z 31005KT CAVOK 14/13 Q1011 NOSIG=
201907160130 METAR LRBS 160130Z 31003KT CAVOK 15/13 Q1011 NOSIG=
201907160200 METAR LRBS 160200Z 25002KT CAVOK 14/13 Q1011 NOSIG=
201907160230 METAR LRBS 160230Z VRB02KT CAVOK 14/13 Q1011 NOSIG=
201907160300 METAR LRBS 160300Z VRB01KT CAVOK 14/13 Q1011 NOSIG=
201907160330 METAR LRBS 160330Z 29003KT CAVOK 14/13 Q1011 NOSIG=
201907160400 METAR LRBS 160400Z 28003KT CAVOK 15/14 Q1011 NOSIG=
201907160430 METAR LRBS 160430Z 29003KT 250V320 CAVOK 16/14 Q1011 NOSIG=
201907160500 METAR LRBS 160500Z VRB02KT CAVOK 17/14 Q1012 NOSIG=
201907160530 METAR LRBS 160530Z 33003KT 300V040 CAVOK 18/14 Q1012 NOSIG=
201907160600 METAR LRBS 160600Z 33003KT CAVOK 19/14 Q1012 NOSIG=
201907160630 METAR LRBS 160630Z 32003KT 270V030 9999 SCT046 21/14 Q1012
                        NOSIG=
201907160700 METAR LRBS 160700Z 32003KT 290V010 9999 FEW035 SCT046 21/13
                        Q1012 NOSIG=
201907160730 METAR LRBS 160730Z VRB02KT 9999 FEW038 SCT049 22/13 Q1012
                        NOSIG=
201907160800 METAR LRBS 160800Z 01003KT 310V090 9999 FEW048 23/13 Q1012
                        NOSIG=
201907160830 METAR LRBS 160830Z 04005KT 340V090 9999 FEW044 23/13 Q1012
                        NOSIG=
201907160900 METAR LRBS 160900Z 06005KT 350V140 9999 SCT046 FEW050TCU
                        23/13 Q1012 NOSIG=
201907160930 METAR LRBS 160930Z VRB03KT 9999 SCT046 FEW050TCU 23/12 Q1011
                        NOSIG=
201907161000 METAR LRBS 161000Z 02006KT 350V050 9999 SCT045 FEW050TCU
                        23/13 Q1011 NOSIG=
201907161030 METAR LRBS 161030Z 06004KT 340V130 9999 SCT044 FEW050TCU
                        23/12 Q1011 NOSIG=
201907161100 METAR LRBS 161100Z VRB03KT 9999 SCT048 24/14 Q1011 NOSIG=
201907161130 METAR LRBS 161130Z 04005KT 360V090 CAVOK 25/14 Q1011 NOSIG=
201907161200 METAR LRBS 161200Z VRB03KT CAVOK 25/13 Q1011 NOSIG=
201907161230 METAR LRBS 161230Z 07004KT 010V110 9999 FEW050TCU 25/13 Q1010
                        NOSIG=
201907161300 METAR LRBS 161300Z 07004KT 020V130 9999 FEW050TCU 24/14 Q1011
                        NOSIG=
201907161330 METAR LRBS 161330Z 02004KT 280V070 9999 FEW050TCU 24/13 Q1010=
201907161400 METAR LRBS 161400Z 04004KT 360V060 9999 FEW050CB 25/14 Q1010
                        NOSIG=
201907161430 METAR LRBS 161430Z 36004KT 320V050 9999 FEW050CB 25/11 Q1010
                        NOSIG=
201907161500 METAR LRBS 161500Z 01005KT 9999 FEW050CB 25/12 Q1010 NOSIG=
201907161530 METAR LRBS 161530Z 02006KT 340V050 9999 FEW050CB 23/14 Q1010
                        NOSIG=
201907161600 METAR LRBS 161600Z 02005KT 350V050 9999 FEW050CB 23/13 Q1010
                        NOSIG=
201907161630 METAR LRBS 161630Z 01006KT 330V040 9999 FEW050CB 23/13 Q1010
                        NOSIG=
201907161700 METAR LRBS 161700Z 01003KT 9999 FEW050CB 22/13 Q1010 NOSIG=
201907161730 METAR LRBS 161730Z 03002KT CAVOK 20/14 Q1010 NOSIG=
201907161800 METAR LRBS 161800Z 34003KT 310V020 CAVOK 21/14 Q1011 NOSIG=
201907161830 METAR LRBS 161830Z 36002KT CAVOK 20/14 Q1011 NOSIG=
201907161900 METAR LRBS 161900Z 34002KT CAVOK 20/15 Q1011 NOSIG=
201907161930 METAR LRBS 161930Z VRB02KT CAVOK 20/15 Q1011 NOSIG=
201907162000 METAR LRBS 162000Z 36003KT CAVOK 20/15 Q1011 NOSIG=
201907162030 METAR LRBS 162030Z 01002KT CAVOK 20/15 Q1011 NOSIG=
201907162100 METAR LRBS 162100Z 29001KT CAVOK 19/15 Q1011 NOSIG=
201907162130 METAR LRBS 162130Z VRB01KT CAVOK 18/15 Q1011 NOSIG=
201907162200 METAR LRBS 162200Z 00000KT CAVOK 18/15 Q1011 NOSIG=
201907162230 METAR LRBS 162230Z 00000KT CAVOK 17/15 Q1011 NOSIG=
201907162300 METAR LRBS 162300Z VRB02KT CAVOK 17/15 Q1011 NOSIG=
201907162330 METAR LRBS 162330Z 30002KT CAVOK 16/15 Q1011 NOSIG=
201907170000 METAR LRBS 170000Z 30004KT CAVOK 15/14 Q1011 NOSIG=
201907170030 METAR LRBS 170030Z 27003KT CAVOK 15/13 Q1011=
201907170100 METAR LRBS 170100Z 30003KT CAVOK 15/13 Q1011 NOSIG=
201907170130 METAR LRBS 170130Z 27003KT 230V310 CAVOK 14/13 Q1011 NOSIG=
201907170200 METAR LRBS 170200Z 28003KT CAVOK 14/12 Q1011 NOSIG=
201907170230 METAR LRBS 170230Z 27002KT CAVOK 14/12 Q1011 NOSIG=
201907170300 METAR LRBS 170300Z 29003KT 250V320 CAVOK 14/12 Q1011 NOSIG=
201907170330 METAR LRBS 170330Z VRB02KT CAVOK 15/13 Q1011 NOSIG=
201907170400 METAR COR LRBS 170400Z VRB02KT CAVOK 16/13 Q1011 NOSIG=
201907170430 METAR LRBS 170430Z 30003KT CAVOK 16/13 Q1011 NOSIG=
201907170500 METAR LRBS 170500Z VRB02KT CAVOK 18/14 Q1011 NOSIG=
201907170530 METAR LRBS 170530Z 27003KT 240V310 CAVOK 19/13 Q1011 NOSIG=
201907170600 METAR LRBS 170600Z 30004KT 260V340 CAVOK 20/14 Q1011 NOSIG=
201907170630 METAR COR LRBS 170630Z 28004KT 250V310 CAVOK 22/14 Q1011
                        NOSIG=
201907170700 METAR LRBS 170700Z 29003KT 250V350 CAVOK 23/14 Q1011 NOSIG=
201907170730 METAR LRBS 170730Z 29004KT 220V010 CAVOK 23/13 Q1011 NOSIG=
201907170800 METAR LRBS 170800Z 30004KT 240V030 CAVOK 25/14 Q1010 NOSIG=
201907170830 METAR LRBS 170830Z 28005KT 250V350 CAVOK 25/14 Q1010 NOSIG=
201907170900 METAR LRBS 170900Z VRB03KT CAVOK 26/13 Q1010 NOSIG=
201907170930 METAR LRBS 170930Z VRB02KT CAVOK 26/12 Q1010 NOSIG=
201907171000 METAR LRBS 171000Z 26007KT 220V310 CAVOK 27/11 Q1010 NOSIG=
201907171030 METAR LRBS 171030Z 29004KT 210V020 CAVOK 27/11 Q1010 NOSIG=
201907171100 METAR LRBS 171100Z 31003KT 230V020 CAVOK 28/11 Q1009 NOSIG=
201907171130 METAR LRBS 171130Z 28007KT 240V320 CAVOK 27/11 Q1009 NOSIG=
201907171200 METAR LRBS 171200Z 26009KT 250V330 CAVOK 28/11 Q1009 NOSIG=
201907171230 METAR LRBS 171230Z 27008KT 230V320 CAVOK 28/10 Q1009 NOSIG=
201907171300 METAR LRBS 171300Z 29005KT 210V020 CAVOK 28/11 Q1009 NOSIG=
201907171330 METAR LRBS 171330Z 28005KT 260V320 CAVOK 28/10 Q1009 NOSIG=
201907171400 METAR LRBS 171400Z 26007KT 220V300 CAVOK 29/09 Q1008 NOSIG=
201907171430 METAR LRBS 171430Z 30004KT 250V360 CAVOK 28/10 Q1008 NOSIG=
201907171500 METAR LRBS 171500Z 28006KT 250V320 CAVOK 28/12 Q1008 NOSIG=
201907171530 METAR LRBS 171530Z 27007KT 240V310 CAVOK 28/12 Q1008 NOSIG=
201907171600 METAR LRBS 171600Z 28005KT 250V350 CAVOK 28/12 Q1008 NOSIG=
201907171630 METAR LRBS 171630Z 29005KT 260V010 CAVOK 28/12 Q1008 NOSIG=
201907171700 METAR LRBS 171700Z 28004KT CAVOK 27/12 Q1008 NOSIG=
201907171730 METAR LRBS 171730Z 28003KT CAVOK 26/12 Q1008 NOSIG=
201907171800 METAR LRBS 171800Z 29002KT CAVOK 25/13 Q1008 NOSIG=
201907171830 METAR LRBS 171830Z 28002KT CAVOK 24/13 Q1009 NOSIG=
201907171900 METAR LRBS 171900Z 29003KT 8000 NSC 24/13 Q1009 NOSIG=
201907171930 METAR LRBS 171930Z 29003KT 9000 NSC 23/13 Q1009 NOSIG=
201907172000 METAR LRBS 172000Z 29003KT CAVOK 23/13 Q1009 NOSIG=
201907172030 METAR LRBS 172030Z 29002KT 9000 NSC 22/14 Q1009 NOSIG=
201907172100 METAR LRBS 172100Z 29003KT CAVOK 22/14 Q1009 NOSIG=
201907172130 METAR LRBS 172130Z VRB02KT CAVOK 21/14 Q1009 NOSIG=
201907172200 METAR LRBS 172200Z VRB01KT 9000 NSC 20/14 Q1009 NOSIG=
201907172230 METAR LRBS 172230Z 27002KT 9000 NSC 20/14 Q1009 NOSIG=
201907172300 METAR LRBS 172300Z VRB01KT CAVOK 19/15 Q1010 NOSIG=
201907172330 METAR LRBS 172330Z VRB02KT 9000 NSC 19/15 Q1010 NOSIG=
201907180000 METAR LRBS 180000Z 00000KT CAVOK 18/15 Q1010 NOSIG=
201907180030 METAR LRBS 180030Z 09004KT 050V110 CAVOK 18/14 Q1010 NOSIG=
201907180100 METAR LRBS 180100Z 06003KT 020V090 CAVOK 18/14 Q1010 NOSIG=
201907180130 METAR LRBS 180130Z 08003KT CAVOK 17/13 Q1011 NOSIG=
201907180200 METAR LRBS 180200Z 07004KT CAVOK 16/14 Q1011 NOSIG=
201907180230 METAR LRBS 180230Z 08004KT CAVOK 16/14 Q1011 NOSIG=
201907180300 METAR LRBS 180300Z 07006KT CAVOK 16/14 Q1011 NOSIG=
201907180330 METAR LRBS 180330Z 06006KT 9000 NSC 17/14 Q1011 NOSIG=
201907180400 METAR LRBS 180400Z 07006KT CAVOK 18/15 Q1011 NOSIG=
201907180430 METAR LRBS 180430Z 07008KT CAVOK 19/14 Q1012 NOSIG=
201907180500 METAR LRBS 180500Z 06009KT CAVOK 19/13 Q1012 NOSIG=
201907180530 METAR LRBS 180530Z 07008KT CAVOK 21/13 Q1012 NOSIG=
201907180600 METAR LRBS 180600Z 07011KT CAVOK 21/13 Q1012 NOSIG=
201907180630 METAR LRBS 180630Z 06012KT CAVOK 22/13 Q1012 NOSIG=
201907180700 METAR LRBS 180700Z 06011KT 030V090 CAVOK 22/13 Q1013 NOSIG=
201907180730 METAR LRBS 180730Z 07013KT CAVOK 23/14 Q1013 NOSIG=
201907180800 METAR LRBS 180800Z 07010KT 030V100 CAVOK 24/13 Q1013 NOSIG=
201907180830 METAR LRBS 180830Z 07010KT CAVOK 24/13 Q1013 NOSIG=
201907180900 METAR LRBS 180900Z 09008KT 050V130 CAVOK 24/14 Q1013 NOSIG=
201907180930 METAR LRBS 180930Z 07007KT 040V100 CAVOK 25/14 Q1013 NOSIG=
201907181000 METAR LRBS 181000Z 08006KT 040V120 CAVOK 26/14 Q1013 NOSIG=
201907181030 METAR LRBS 181030Z 08005KT 020V130 CAVOK 26/13 Q1013 NOSIG=
201907181100 METAR LRBS 181100Z 06005KT 360V110 CAVOK 27/14 Q1013 NOSIG=
201907181130 METAR COR LRBS 181130Z 05005KT 010V090 CAVOK 27/14 Q1013
                        NOSIG=
201907181200 METAR LRBS 181200Z VRB03KT CAVOK 27/13 Q1013 NOSIG=
201907181230 METAR LRBS 181230Z VRB04KT CAVOK 27/13 Q1013 NOSIG=
201907181300 METAR LRBS 181300Z VRB04KT CAVOK 27/13 Q1013 NOSIG=
201907181330 METAR LRBS 181330Z 05004KT 350V110 CAVOK 28/13 Q1012 NOSIG=
201907181400 METAR LRBS 181400Z 06004KT 010V110 CAVOK 28/14 Q1013 NOSIG=
201907181430 METAR LRBS 181430Z 03004KT 320V110 CAVOK 28/14 Q1012 NOSIG=
201907181500 METAR LRBS 181500Z VRB02KT CAVOK 28/13 Q1012 NOSIG=
201907181530 METAR LRBS 181530Z VRB02KT CAVOK 28/12 Q1012 NOSIG=
201907181600 METAR LRBS 181600Z VRB02KT CAVOK 28/13 Q1012 NOSIG=
201907181630 METAR LRBS 181630Z 03003KT CAVOK 27/14 Q1012 NOSIG=
201907181700 METAR LRBS 181700Z 02003KT CAVOK 26/14 Q1012 NOSIG=
201907181730 METAR LRBS 181730Z 06004KT CAVOK 25/15 Q1013 NOSIG=
201907181800 METAR LRBS 181800Z 04004KT CAVOK 24/15 Q1013 NOSIG=
201907181830 METAR LRBS 181830Z 04002KT CAVOK 23/15 Q1013 NOSIG=
201907181900 METAR LRBS 181900Z 05002KT CAVOK 22/15 Q1013 NOSIG=
201907181930 METAR COR LRBS 181930Z 06001KT CAVOK 21/15 Q1014 NOSIG=
201907182000 METAR COR LRBS 182000Z 05002KT CAVOK 22/15 Q1014 NOSIG=
201907182030 METAR LRBS 182030Z 07002KT CAVOK 20/15 Q1014 NOSIG=
201907182100 METAR LRBS 182100Z 08001KT CAVOK 20/15 Q1014 NOSIG=
201907182130 METAR LRBS 182130Z 06002KT CAVOK 20/14 Q1014 NOSIG=
201907182200 METAR LRBS 182200Z 03002KT CAVOK 20/14 Q1014 NOSIG=
201907182230 METAR LRBS 182230Z 03002KT CAVOK 19/14 Q1015 NOSIG=
201907182300 METAR LRBS 182300Z 05002KT CAVOK 18/14 Q1015 NOSIG=
201907182330 METAR LRBS 182330Z 00000KT CAVOK 18/14 Q1015 NOSIG=
201907190000 METAR COR LRBS 190000Z VRB02KT CAVOK 18/14 Q1015 NOSIG=
201907190030 METAR LRBS 190030Z 32001KT CAVOK 18/14 Q1015 NOSIG=
201907190100 METAR COR LRBS 190100Z 00000KT CAVOK 17/15 Q1015 NOSIG=
201907190130 METAR LRBS 190130Z 00000KT CAVOK 17/14 Q1015 NOSIG=
201907190200 METAR LRBS 190200Z VRB02KT CAVOK 17/15 Q1015 NOSIG=
201907190230 METAR LRBS 190230Z 01002KT CAVOK 15/14 Q1015 NOSIG=
201907190300 METAR LRBS 190300Z VRB02KT CAVOK 16/15 Q1015 NOSIG=
201907190330 METAR LRBS 190330Z 03002KT CAVOK 16/14 Q1015 NOSIG=
201907190400 METAR LRBS 190400Z 01002KT CAVOK 17/15 Q1016 NOSIG=
201907190430 METAR LRBS 190430Z VRB01KT CAVOK 18/16 Q1016 NOSIG=
201907190500 METAR LRBS 190500Z VRB02KT CAVOK 19/16 Q1016 NOSIG=
201907190530 METAR LRBS 190530Z 03003KT 350V060 CAVOK 20/17 Q1016 NOSIG=
201907190600 METAR LRBS 190600Z 04003KT 360V080 CAVOK 21/17 Q1016 NOSIG=
201907190630 METAR LRBS 190630Z 04004KT 350V070 CAVOK 23/18 Q1016 NOSIG=
201907190700 METAR LRBS 190700Z 03004KT 350V070 CAVOK 24/17 Q1016 NOSIG=
201907190730 METAR LRBS 190730Z 01004KT 340V070 CAVOK 24/18 Q1016 NOSIG=
201907190800 METAR LRBS 190800Z 08004KT 010V120 CAVOK 26/19 Q1016 NOSIG=
201907190830 METAR LRBS 190830Z 06004KT CAVOK 26/18 Q1016 NOSIG=
201907190900 METAR LRBS NIL=
201907190930 METAR LRBS 190930Z VRB03KT CAVOK 28/16 Q1016 NOSIG=
201907191000 METAR LRBS 191000Z 01003KT 310V050 9999 FEW045 28/16 Q1016
                        NOSIG=
201907191030 METAR LRBS 191030Z 11003KT 030V150 9999 FEW050CB 28/16 Q1016
                        NOSIG=
201907191100 METAR LRBS 191100Z VRB03KT 9999 FEW050CB 29/18 Q1016 NOSIG=
201907191130 METAR LRBS 191130Z 16004KT 110V210 9999 FEW050CB 29/15 Q1016
                        NOSIG=
201907191200 METAR LRBS 191200Z VRB02KT 9999 FEW050CB 29/14 Q1015 NOSIG=
201907191230 METAR LRBS 191230Z 04004KT 350V100 9999 FEW050CB 30/15 Q1015
                        NOSIG=
201907191300 METAR LRBS 191300Z 06005KT 9999 FEW050CB 30/15 Q1015 NOSIG=
201907191330 METAR LRBS 191330Z 02005KT 330V090 9999 FEW050CB 31/15 Q1015
                        NOSIG=
201907191400 METAR LRBS 191400Z 36010KT 320V020 9999 FEW050CB 26/14 Q1016
                        TEMPO VRB20KT 5000 -TSRA=
201907191430 METAR LRBS 191430Z 01009KT 330V040 9999 FEW050CB 27/15 Q1016
                        TEMPO VRB20KT 5000 -TSRA=
201907191500 METAR LRBS 191500Z 02009KT 340V050 9999 FEW050CB 27/15 Q1016
                        TEMPO 5000 -TSRA=
201907191530 METAR LRBS 191530Z 02007KT 330V050 9999 FEW050CB 26/15 Q1016
                        TEMPO 5000 -TSRA=
201907191600 METAR LRBS 191600Z 36006KT 310V040 9999 FEW050CB 26/14 Q1016
                        TEMPO 5000 -SHRA=
201907191630 METAR LRBS 191630Z 36008KT 9999 FEW050CB 25/13 Q1016 TEMPO
                        5000 -SHRA=
201907191700 METAR COR LRBS 191700Z 33006KT 300V360 9999 FEW050CB 24/14
                        Q1016 BECMG NSC=
201907191730 METAR LRBS 191730Z 33005KT 9999 FEW050CB 23/14 Q1016 BECMG
                        NSC=
201907191800 METAR LRBS 191800Z VRB02KT CAVOK 23/14 Q1016 NOSIG=
201907191830 METAR LRBS 191830Z VRB02KT CAVOK 22/14 Q1017 NOSIG=
201907191900 METAR LRBS 191900Z 07002KT CAVOK 22/14 Q1017 NOSIG=
201907191930 METAR LRBS 191930Z 06003KT CAVOK 21/15 Q1017 NOSIG=
201907192000 METAR LRBS 192000Z 06002KT CAVOK 20/15 Q1017 NOSIG=
201907192030 METAR LRBS 192030Z 00000KT CAVOK 21/15 Q1017 NOSIG=
201907192100 METAR LRBS 192100Z VRB01KT CAVOK 21/15 Q1017 NOSIG=
201907192130 METAR LRBS 192130Z 30002KT CAVOK 20/16 Q1017 NOSIG=
201907192200 METAR LRBS 192200Z 33001KT CAVOK 20/15 Q1017 NOSIG=
201907192230 METAR LRBS 192230Z VRB01KT CAVOK 19/15 Q1017 NOSIG=
201907192300 METAR LRBS 192300Z VRB01KT CAVOK 19/15 Q1017 NOSIG=
201907192330 METAR LRBS 192330Z VRB02KT CAVOK 19/15 Q1018 NOSIG=
201907200000 METAR LRBS 200000Z VRB01KT CAVOK 19/16 Q1017 NOSIG=
201907200030 METAR LRBS 200030Z 34003KT CAVOK 19/16 Q1017 NOSIG=
201907200100 METAR LRBS 200100Z 35003KT 330V030 CAVOK 18/16 Q1017 NOSIG=
201907200130 METAR LRBS 200130Z VRB02KT CAVOK 18/15 Q1017 NOSIG=
201907200200 METAR COR LRBS 200200Z 00000KT CAVOK 18/16 Q1018 NOSIG=
201907200230 METAR LRBS 200230Z 01001KT CAVOK 17/15 Q1018 NOSIG=
201907200300 METAR LRBS 200300Z 00000KT CAVOK 17/15 Q1018 NOSIG=
201907200330 METAR LRBS 200330Z VRB01KT CAVOK 18/15 Q1018 NOSIG=
201907200400 METAR LRBS 200400Z VRB02KT CAVOK 18/15 Q1018 NOSIG=
201907200430 METAR LRBS 200430Z 36003KT CAVOK 19/15 Q1019 NOSIG=
201907200500 METAR LRBS 200500Z 01003KT 340V040 CAVOK 20/15 Q1019 NOSIG=
201907200530 METAR LRBS 200530Z 02003KT 340V050 CAVOK 21/15 Q1019 NOSIG=
201907200600 METAR COR LRBS 200600Z 02003KT 310V060 CAVOK 22/16 Q1019
                        NOSIG=
201907200630 METAR LRBS 200630Z VRB02KT CAVOK 24/16 Q1019 NOSIG=
201907200700 METAR LRBS 200700Z 08003KT 020V130 CAVOK 25/16 Q1019 NOSIG=
201907200730 METAR LRBS 200730Z 05003KT 350V130 CAVOK 25/16 Q1019 NOSIG=
201907200800 METAR LRBS 200800Z VRB02KT CAVOK 27/16 Q1019 NOSIG=
201907200830 METAR LRBS 200830Z VRB02KT CAVOK 27/16 Q1019 NOSIG=
201907200900 METAR LRBS 200900Z VRB02KT CAVOK 28/16 Q1019 NOSIG=
201907200930 METAR LRBS 200930Z 06003KT 310V110 CAVOK 28/14 Q1019 NOSIG=
201907201000 METAR LRBS 201000Z VRB02KT 9999 FEW045 29/16 Q1019 NOSIG=
201907201030 METAR LRBS 201030Z VRB02KT CAVOK 29/14 Q1019 NOSIG=
201907201100 METAR LRBS 201100Z 26004KT 190V300 CAVOK 30/15 Q1019 NOSIG=
201907201130 METAR LRBS 201130Z VRB02KT 9999 FEW050TCU 30/16 Q1018 NOSIG=
201907201200 METAR LRBS 201200Z 18003KT 130V260 9999 FEW050CB 31/15 Q1018
                        NOSIG=
201907201230 METAR LRBS 201230Z VRB05KT 9999 FEW050CB 31/14 Q1018 NOSIG=
201907201300 METAR LRBS 201300Z 12003KT 070V170 9999 FEW050TCU 30/14 Q1018
                        NOSIG=
201907201330 METAR LRBS 201330Z 12005KT 070V150 9999 FEW050TCU 31/15 Q1018
                        NOSIG=
201907201400 METAR COR LRBS 201400Z VRB02KT 9999 VCTS FEW050CB 31/15 Q1018
                        NOSIG=
201907201430 METAR LRBS 201430Z 25006KT 9999 VCSH FEW045CB 31/14 Q1017
                        NOSIG=
201907201500 METAR LRBS 201500Z 24005KT 210V280 9999 VCTS FEW045CB 31/15
                        Q1017 NOSIG=
201907201530 METAR LRBS 201530Z 15011KT 9999 TS VCSH SCT045CB 27/15 Q1018
                        TEMPO 5000 TSRA BKN040CB=
201907201600 METAR LRBS 201600Z 18008KT 9999 TS SCT045CB 27/16 Q1018 TEMPO
                        VRB20G30KT 1500 +TSRAGR BKN040CB=
201907201630 METAR LRBS 201630Z 06003KT 020V110 9999 TS VCSH FEW045CB
                        27/16 Q1018 NOSIG=
201907201700 METAR LRBS 201700Z 22004KT 150V270 9999 FEW045CB 27/15 Q1017
                        NOSIG=
201907201730 METAR LRBS 201730Z VRB02KT 9999 FEW045CB 27/15 Q1018 NOSIG=
201907201800 METAR LRBS 201800Z 25002KT 9999 FEW045CB 26/16 Q1018 NOSIG=
201907201830 METAR LRBS 201830Z VRB01KT 9999 FEW050CB 25/16 Q1018 NOSIG=
201907201900 METAR LRBS 201900Z 00000KT CAVOK 25/17 Q1018 NOSIG=
201907201930 METAR LRBS 201930Z 02001KT CAVOK 24/17 Q1018 NOSIG=
201907202000 METAR LRBS 202000Z VRB01KT CAVOK 24/17 Q1018 NOSIG=
201907202030 METAR LRBS 202030Z 00000KT CAVOK 23/17 Q1018 NOSIG=
201907202100 METAR LRBS 202100Z VRB01KT CAVOK 22/17 Q1019 NOSIG=
201907202130 METAR LRBS 202130Z VRB02KT CAVOK 20/17 Q1019 NOSIG=
201907202200 METAR LRBS 202200Z VRB01KT CAVOK 20/17 Q1019 NOSIG=
201907202230 METAR LRBS 202230Z VRB01KT CAVOK 21/17 Q1019 NOSIG=
201907202300 METAR LRBS 202300Z VRB02KT CAVOK 19/17 Q1019 NOSIG=
201907202330 METAR LRBS 202330Z 00000KT CAVOK 19/17 Q1019 NOSIG=
201907210000 METAR LRBS 210000Z 00000KT CAVOK 20/17 Q1019 NOSIG=
201907210030 METAR LRBS 210030Z VRB02KT CAVOK 19/17 Q1019 NOSIG=
201907210100 METAR LRBS 210100Z 30004KT CAVOK 19/17 Q1019 NOSIG=
201907210130 METAR LRBS 210130Z 34002KT CAVOK 19/16 Q1019 NOSIG=
201907210200 METAR LRBS 210200Z VRB01KT CAVOK 18/16 Q1019 NOSIG=
201907210230 METAR LRBS 210230Z VRB01KT CAVOK 18/16 Q1019 NOSIG=
201907210300 METAR LRBS 210300Z 00000KT CAVOK 18/16 Q1019 NOSIG=
201907210330 METAR LRBS 210330Z 00000KT CAVOK 18/16 Q1019 NOSIG=
201907210400 METAR LRBS 210400Z 00000KT CAVOK 19/16 Q1019 NOSIG=
201907210430 METAR LRBS 210430Z 00000KT CAVOK 20/17 Q1019 NOSIG=
201907210500 METAR LRBS 210500Z VRB01KT CAVOK 21/17 Q1019 NOSIG=
201907210530 METAR LRBS 210530Z VRB02KT CAVOK 22/17 Q1019 NOSIG=
201907210600 METAR LRBS 210600Z 05004KT 010V080 CAVOK 23/18 Q1019 NOSIG=
201907210630 METAR COR LRBS 210630Z 06003KT 030V090 CAVOK 24/17 Q1019
                        NOSIG=
201907210700 METAR LRBS 210700Z 08003KT 040V130 CAVOK 25/17 Q1019 NOSIG=
201907210730 METAR LRBS 210730Z VRB02KT CAVOK 27/18 Q1019 NOSIG=
201907210800 METAR LRBS 210800Z VRB02KT CAVOK 27/18 Q1019 NOSIG=
201907210830 METAR LRBS 210830Z VRB03KT CAVOK 28/18 Q1019 NOSIG=
201907210900 METAR LRBS 210900Z VRB02KT CAVOK 29/16 Q1019 NOSIG=
201907210930 METAR LRBS 210930Z 36002KT CAVOK 30/18 Q1019 NOSIG=
201907211000 METAR LRBS 211000Z VRB04KT CAVOK 30/17 Q1019 NOSIG=
201907211030 METAR LRBS 211030Z 11004KT 040V150 CAVOK 30/14 Q1019 NOSIG=
201907211100 METAR LRBS 211100Z VRB03KT CAVOK 31/15 Q1019 NOSIG=
201907211130 METAR LRBS 211130Z 04004KT 010V130 CAVOK 31/16 Q1019 NOSIG=
201907211200 METAR LRBS 211200Z 09003KT CAVOK 32/13 Q1018 NOSIG=
201907211230 METAR LRBS 211230Z 24003KT 150V310 CAVOK 32/14 Q1018 NOSIG=
201907211300 METAR COR LRBS 211300Z 30004KT 270V010 CAVOK 32/15 Q1018
                        NOSIG=
201907211330 METAR LRBS 211330Z VRB02KT CAVOK 32/13 Q1018 NOSIG=
201907211400 METAR LRBS 211400Z VRB03KT CAVOK 33/13 Q1018 NOSIG=
201907211430 METAR LRBS 211430Z VRB01KT CAVOK 32/14 Q1018 NOSIG=
201907211500 METAR LRBS 211500Z 32004KT 270V360 CAVOK 32/14 Q1017 NOSIG=
201907211530 METAR LRBS 211530Z 31003KT 280V340 CAVOK 33/13 Q1017 NOSIG=
201907211600 METAR LRBS 211600Z 30003KT 230V350 CAVOK 32/14 Q1017 NOSIG=
201907211630 METAR LRBS 211630Z 30003KT 280V340 CAVOK 31/14 Q1017 NOSIG=
201907211700 METAR LRBS 211700Z 29004KT CAVOK 31/14 Q1017 NOSIG=
201907211730 METAR LRBS 211730Z 29004KT CAVOK 29/16 Q1017 NOSIG=
201907211800 METAR LRBS 211800Z 27003KT CAVOK 28/15 Q1018 NOSIG=
201907211830 METAR LRBS 211830Z VRB01KT CAVOK 28/16 Q1018 NOSIG=
201907211900 METAR LRBS 211900Z 07002KT CAVOK 24/17 Q1018 NOSIG=
201907211930 METAR LRBS 211930Z 06003KT CAVOK 24/17 Q1018 NOSIG=
201907212000 METAR LRBS 212000Z 06001KT CAVOK 24/16 Q1018 NOSIG=
201907212030 METAR LRBS 212030Z 02001KT CAVOK 23/17 Q1018 NOSIG=
201907212100 METAR LRBS 212100Z 26003KT CAVOK 22/16 Q1018 NOSIG=
201907212130 METAR LRBS 212130Z 32002KT CAVOK 22/16 Q1018 NOSIG=
201907212200 METAR LRBS 212200Z 32004KT CAVOK 23/16 Q1019 NOSIG=
201907212230 METAR LRBS 212230Z VRB02KT CAVOK 23/16 Q1019 NOSIG=
201907212300 METAR LRBS 212300Z 32005KT CAVOK 23/16 Q1018 NOSIG=
201907212330 METAR LRBS 212330Z 00000KT CAVOK 22/17 Q1018 NOSIG=
201907220000 METAR LRBS 220000Z VRB02KT CAVOK 21/17 Q1018 NOSIG=
201907220030 METAR LRBS 220030Z 31002KT CAVOK 21/17 Q1018 NOSIG=
201907220100 METAR LRBS 220100Z 32003KT CAVOK 20/17 Q1018 NOSIG=
201907220130 METAR LRBS 220130Z VRB02KT CAVOK 20/17 Q1018 NOSIG=
201907220200 METAR LRBS 220200Z VRB02KT CAVOK 20/17 Q1018 NOSIG=
201907220230 METAR LRBS 220230Z VRB01KT 9000 NSC 19/17 Q1018 NOSIG=
201907220300 METAR LRBS 220300Z 00000KT CAVOK 19/17 Q1018 NOSIG=
201907220330 METAR LRBS 220330Z 00000KT CAVOK 20/17 Q1018 NOSIG=
201907220400 METAR LRBS 220400Z 00000KT CAVOK 20/17 Q1018 NOSIG=
201907220430 METAR LRBS 220430Z VRB02KT CAVOK 21/17 Q1018 NOSIG=
201907220500 METAR LRBS 220500Z VRB02KT CAVOK 23/18 Q1018 NOSIG=
201907220530 METAR LRBS 220530Z VRB02KT CAVOK 24/18 Q1018 NOSIG=
201907220600 METAR COR LRBS 220600Z VRB02KT CAVOK 26/17 Q1019 NOSIG=
201907220630 METAR LRBS 220630Z VRB02KT CAVOK 27/18 Q1018 NOSIG=
201907220700 METAR LRBS 220700Z 07003KT 030V110 CAVOK 28/18 Q1018 NOSIG=
201907220730 METAR LRBS 220730Z 06003KT 010V120 CAVOK 29/17 Q1018 NOSIG=
201907220800 METAR LRBS 220800Z 10004KT 050V130 CAVOK 29/18 Q1019 NOSIG=
201907220830 METAR LRBS 220830Z VRB01KT CAVOK 30/16 Q1018 NOSIG=
201907220900 METAR LRBS 220900Z VRB02KT CAVOK 30/17 Q1018 NOSIG=
201907220930 METAR LRBS 220930Z VRB01KT CAVOK 31/16 Q1018 NOSIG=
201907221000 METAR LRBS 221000Z VRB02KT CAVOK 32/17 Q1018 NOSIG=
201907221030 METAR LRBS 221030Z 02004KT 250V060 CAVOK 32/18 Q1018 NOSIG=
201907221100 METAR LRBS 221100Z 03005KT 320V060 CAVOK 32/17 Q1018 NOSIG=
201907221130 METAR LRBS 221130Z 02005KT 350V080 CAVOK 33/17 Q1017 NOSIG=
201907221200 METAR LRBS 221200Z 01004KT 310V100 CAVOK 33/15 Q1017 NOSIG=
201907221230 METAR LRBS 221230Z VRB04KT CAVOK 34/15 Q1017 NOSIG=
201907221300 METAR LRBS 221300Z VRB01KT 9999 FEW050CB 34/16 Q1016 NOSIG=
201907221330 METAR LRBS 221330Z 02007KT 9999 FEW050CB 33/16 Q1016 NOSIG=
201907221400 METAR LRBS 221400Z 02010KT 9999 FEW050CB 31/17 Q1016 TEMPO
                        5000 -TSRA=
201907221430 METAR LRBS 221430Z 03008KT 360V070 9999 VCTS FEW050 31/19
                        Q1017 NOSIG=
201907221500 METAR LRBS 221500Z 36008KT 9999 VCTS SCT050CB 29/17 Q1017
                        NOSIG=
201907221530 METAR LRBS 221530Z 01006KT 330V040 9999 SCT050CB 28/17 Q1017
                        NOSIG=
201907221600 METAR LRBS 221600Z 35007KT 320V020 9999 SCT050CB 26/18 Q1017
                        TEMPO -TSRA=
201907221630 METAR LRBS 221630Z 25011KT 9999 SCT050CB 25/18 Q1018 TEMPO
                        -TSRA=
201907221700 METAR LRBS 221700Z 30006KT 270V340 9999 -SHRA SCT050CB 25/18
                        Q1017 NOSIG=
201907221730 METAR LRBS 221730Z 34003KT 300V020 9999 SCT050CB 25/18 Q1016
                        NOSIG=
201907221800 METAR LRBS 221800Z VRB02KT 9999 FEW050CB 24/18 Q1017 NOSIG=
201907221830 METAR LRBS 221830Z 02004KT 9999 SCT050CB 24/18 Q1017=
201907221900 METAR LRBS 221900Z 03003KT 350V080 CAVOK 23/17 Q1017 NOSIG=
201907221930 METAR LRBS 221930Z 03001KT CAVOK 23/17 Q1017 NOSIG=
201907222000 METAR LRBS 222000Z VRB01KT CAVOK 22/17 Q1017 NOSIG=
201907222030 METAR LRBS 222030Z VRB02KT CAVOK 22/17 Q1017 NOSIG=
201907222100 METAR LRBS 222100Z VRB01KT CAVOK 21/17 Q1017 NOSIG=
201907222130 METAR LRBS 222130Z 00000KT CAVOK 21/17 Q1017 NOSIG=
201907222200 METAR LRBS 222200Z 36002KT CAVOK 21/17 Q1017 NOSIG=
201907222230 METAR LRBS 222230Z 02001KT CAVOK 21/17 Q1017 NOSIG=
201907222300 METAR LRBS 222300Z 02003KT CAVOK 21/17 Q1017 NOSIG=
201907222330 METAR LRBS 222330Z 04004KT CAVOK 21/17 Q1017 NOSIG=
201907230000 METAR LRBS 230000Z 05003KT 010V090 CAVOK 21/17 Q1017 NOSIG=
201907230030 METAR COR LRBS 230030Z VRB02KT CAVOK 21/17 Q1017 NOSIG=
201907230100 METAR LRBS 230100Z VRB02KT CAVOK 21/16 Q1017 NOSIG=
201907230130 METAR LRBS 230130Z VRB02KT CAVOK 21/17 Q1016 NOSIG=
201907230200 METAR LRBS 230200Z VRB01KT CAVOK 21/17 Q1016 NOSIG=
201907230230 METAR COR LRBS 230230Z 23009KT 180V260 5000 TSRA FEW024 SCT050CB
                        20/18 Q1017 NOSIG=
201907230300 METAR LRBS 230300Z 07005KT 030V100 9999 VCTS FEW017 SCT050CB
                        20/18 Q1017 RERA BECMG NSC=
201907230330 METAR LRBS 230330Z VRB02KT 9999 FEW050CB 20/18 Q1016 BECMG
                        NSC=
201907230400 METAR LRBS 230400Z 12002KT 9999 FEW050CB 21/18 Q1017 BECMG
                        NSC=
201907230430 METAR LRBS 230430Z 07003KT 9999 FEW050CB 21/19 Q1017 NOSIG=
201907230500 METAR LRBS 230500Z 08003KT 9999 FEW050CB 22/19 Q1017 NOSIG=
201907230530 METAR LRBS 230530Z VRB01KT 9999 FEW050CB 23/18 Q1017 NOSIG=
201907230600 METAR LRBS 230600Z 01004KT 320V060 9999 FEW050CB 23/17 Q1017
                        NOSIG=
201907230630 METAR LRBS 230630Z 04006KT 010V070 9999 FEW050CB 23/18 Q1017
                        NOSIG=
201907230700 METAR COR LRBS 230700Z 03005KT 330V070 9999 FEW050CB 23/18
                        Q1017 NOSIG=
201907230730 METAR LRBS 230730Z 05008KT CAVOK 24/18 Q1017 NOSIG=
201907230800 METAR COR LRBS 230800Z 04007KT 350V070 CAVOK 25/19 Q1017
                        NOSIG=
201907230830 METAR LRBS 230830Z 04007KT 360V090 CAVOK 25/18 Q1016 NOSIG=
201907230900 METAR LRBS 230900Z 06008KT 9999 FEW050CB 25/17 Q1016 NOSIG=
201907230930 METAR COR LRBS 230930Z 03007KT 350V060 9999 FEW050CB 26/18
                        Q1016 NOSIG=
201907231000 METAR LRBS 231000Z 01006KT 340V040 9999 FEW050CB 25/17 Q1016
                        NOSIG=
201907231030 METAR LRBS 231030Z 02004KT 340V060 9999 FEW050CB 25/18 Q1016
                        NOSIG=
201907231100 METAR LRBS 231100Z VRB03KT CAVOK 26/18 Q1016 NOSIG=
201907231130 METAR LRBS 231130Z 07003KT 020V120 CAVOK 27/17 Q1015 NOSIG=
201907231200 METAR LRBS 231200Z 04004KT 320V090 CAVOK 27/16 Q1015 NOSIG=
201907231230 METAR LRBS 231230Z 02003KT 330V060 9999 FEW050CB 26/16 Q1014
                        NOSIG=
201907231300 METAR LRBS 231300Z 01005KT 350V050 9999 FEW050CB 26/16 Q1015
                        TEMPO 5000 -SHRA=
201907231330 METAR LRBS 231330Z 02005KT 9999 FEW050CB 25/18 Q1015 TEMPO
                        5000 -SHRA=
201907231400 METAR LRBS 231400Z 01005KT 9999 -SHRA SCT050CB 24/18 Q1015
                        TEMPO 5000 SHRA=
201907231430 METAR LRBS 231430Z 03009KT 9999 -SHRA SCT050CB 20/19 Q1015
                        R07/29//95 NOSIG=
201907231500 METAR LRBS 231500Z 07007KT 9999 -SHRA SCT050CB 19/18 Q1015
                        R07/29//95 NOSIG=
201907231530 METAR LRBS 231530Z 07006KT 9999 FEW050CB 20/18 Q1015 R07/29//95
                        NOSIG=
201907231600 METAR LRBS 231600Z 04006KT 9999 FEW050CB 20/18 Q1015 R07/29//95
                        NOSIG=
201907231630 METAR LRBS 231630Z 07005KT 9999 FEW050CB 19/18 Q1015 R07/29//95
                        NOSIG=
201907231700 METAR LRBS 231700Z 07006KT 9999 FEW050CB 19/18 Q1015 R07/29//95
                        TEMPO 5000 SHRA BKN040CB=
201907231730 METAR LRBS 231730Z 07005KT 9999 FEW050CB 19/18 Q1015 R07/29//95
                        TEMPO 5000 SHRA BKN040CB=
201907231800 METAR LRBS 231800Z 07003KT 9999 FEW050CB 19/18 Q1015 R07/29//95
                        TEMPO 5000 SHRA BKN040CB=
201907231830 METAR LRBS 231830Z 05003KT 030V090 9999 SCT050CB 19/18 Q1015
                        R07/29//95 TEMPO 5000 SHRA BKN040CB=
201907231900 METAR LRBS 231900Z 03004KT 9999 -SHRA FEW050CB 19/18 Q1015
                        R07/29//95 TEMPO 5000 SHRA BKN040CB=
201907231930 METAR LRBS 231930Z 01004KT 9999 -SHRA FEW050CB 19/18 Q1015
                        R07/29//95 NOSIG=
201907232000 METAR LRBS 232000Z 02003KT 350V060 9999 -RA NSC 19/17 Q1015
                        R07/29//95 NOSIG=
201907232030 METAR COR LRBS 232030Z 02004KT 350V060 9999 -RA NSC 19/17
                        Q1015 R07/29//95 NOSIG=
201907232100 METAR LRBS 232100Z 33001KT CAVOK 19/17 Q1015 R07/29//95 NOSIG=
201907232130 METAR LRBS 232130Z VRB01KT CAVOK 19/17 Q1016 R07/29//95 NOSIG=
201907232200 METAR LRBS 232200Z VRB02KT 9999 -RA NSC 19/17 Q1016 R07/29//95
                        NOSIG=
201907232230 METAR LRBS 232230Z 28004KT 9999 -RA NSC 18/17 Q1016 R07/29//95
                        NOSIG=
201907232300 METAR LRBS 232300Z 30003KT 9999 -RA NSC 18/17 Q1016 R07/29//95
                        NOSIG=
201907232330 METAR LRBS 232330Z 27003KT 9999 -RA NSC 18/18 Q1016 R07/29//95
                        NOSIG=
201907240000 METAR LRBS 240000Z 29004KT 9999 -RA NSC 18/18 Q1015 R07/29//95
                        NOSIG=
201907240030 METAR LRBS 240030Z VRB02KT 9999 -RA NSC 18/18 Q1015 R07/29//95
                        NOSIG=
201907240100 METAR LRBS 240100Z 28002KT 9999 -RA NSC 18/18 Q1015 R07/29//95
                        NOSIG=
201907240130 METAR LRBS 240130Z 29003KT 260V320 9999 -RA NSC 18/18 Q1015
                        R07/29//95 NOSIG=
201907240200 METAR LRBS 240200Z 29004KT CAVOK 18/17 Q1015 R07/29//95 NOSIG=
201907240230 METAR LRBS 240230Z 31004KT CAVOK 18/17 Q1015 R07/29//95 NOSIG=
201907240300 METAR LRBS 240300Z 29003KT CAVOK 18/17 Q1015 R07/29//95 NOSIG=
201907240330 METAR LRBS 240330Z 28003KT CAVOK 18/17 Q1015 R07/29//95 NOSIG=
201907240400 METAR LRBS 240400Z 29004KT 260V340 CAVOK 18/17 Q1015 R07/29//95
                        NOSIG=
201907240430 METAR LRBS 240430Z 30004KT CAVOK 19/18 Q1015 R07/29//95 NOSIG=
201907240500 METAR LRBS 240500Z 30004KT 270V330 CAVOK 20/18 Q1015 R07/19//95
                        NOSIG=
201907240530 METAR LRBS 240530Z 30004KT 280V350 CAVOK 20/18 Q1015 R07/19//95
                        NOSIG=
201907240600 METAR LRBS 240600Z 32004KT CAVOK 22/17 Q1015 R07/19//95 NOSIG=
201907240630 METAR LRBS 240630Z 36004KT 300V040 CAVOK 22/16 Q1016 R07/19//95
                        NOSIG=
201907240700 METAR COR LRBS 240700Z 36003KT 300V060 CAVOK 23/16 Q1016
                        R07/CLRD// NOSIG=
201907240730 METAR LRBS 240730Z 33004KT 280V010 CAVOK 24/15 Q1016 NOSIG=
201907240800 METAR LRBS 240800Z 02008KT 360V060 9999 FEW037 25/15 Q1016
                        NOSIG=
201907240830 METAR LRBS 240830Z 02005KT 330V090 9999 FEW040 25/16 Q1016
                        NOSIG=
201907240900 METAR LRBS 240900Z 05006KT 010V080 9999 FEW043 25/15 Q1016
                        NOSIG=
201907240930 METAR LRBS 240930Z 07008KT 030V110 9999 SCT045 26/14 Q1016
                        NOSIG=
201907241000 METAR LRBS 241000Z 06008KT 020V090 CAVOK 26/13 Q1016 NOSIG=
201907241030 METAR LRBS 241030Z 07007KT 030V110 CAVOK 26/13 Q1016 NOSIG=
201907241100 METAR LRBS 241100Z 04007KT CAVOK 27/12 Q1016 NOSIG=
201907241130 METAR LRBS 241130Z 06007KT CAVOK 27/13 Q1016 NOSIG=
201907241200 METAR COR LRBS 241200Z 05004KT 010V080 CAVOK 27/11 Q1015
                        NOSIG=
201907241230 METAR LRBS 241230Z VRB04KT CAVOK 27/11 Q1015 NOSIG=
201907241300 METAR LRBS 241300Z 03006KT 320V090 CAVOK 27/12 Q1015 NOSIG=
201907241330 METAR LRBS 241330Z VRB02KT CAVOK 28/10 Q1015 NOSIG=
201907241400 METAR LRBS 241400Z VRB02KT CAVOK 28/10 Q1015 NOSIG=
201907241430 METAR COR LRBS 241430Z 02003KT 350V070 CAVOK 28/12 Q1015
                        NOSIG=
201907241500 METAR LRBS 241500Z VRB04KT 9999 FEW050CB 28/12 Q1015 NOSIG=
201907241530 METAR LRBS 241530Z VRB02KT 9999 FEW050CB 29/12 Q1015 NOSIG=
201907241600 METAR LRBS 241600Z 32004KT 220V010 9999 FEW050CB 28/12 Q1015
                        NOSIG=
201907241630 METAR LRBS 241630Z 31003KT 260V360 9999 SCT050CB 27/13 Q1015
                        NOSIG=
201907241700 METAR LRBS 241700Z 04007KT 010V070 9999 SCT050CB 26/14 Q1016
                        NOSIG=
201907241730 METAR LRBS 241730Z 07006KT 9999 FEW050CB 25/14 Q1016 NOSIG=
201907241800 METAR LRBS 241800Z 08005KT 9999 FEW050CB 24/14 Q1016 NOSIG=
201907241830 METAR LRBS 241830Z 07004KT CAVOK 23/15 Q1016 NOSIG=
201907241900 METAR LRBS 241900Z 09002KT 9000 NSC 23/15 Q1016 NOSIG=
201907241930 METAR LRBS 241930Z 06001KT CAVOK 22/15 Q1016 NOSIG=
201907242000 METAR COR LRBS 242000Z 05002KT CAVOK 21/15 Q1016 NOSIG=
201907242030 METAR LRBS 242030Z 00000KT CAVOK 22/16 Q1016 NOSIG=
201907242100 METAR COR LRBS 242100Z 00000KT 9999 BKN130 21/16 Q1017 NOSIG=
201907242130 METAR COR LRBS 242130Z 27003KT CAVOK 20/16 Q1017 NOSIG=
201907242200 METAR LRBS 242200Z 25003KT CAVOK 20/17 Q1017 NOSIG=
201907242230 METAR COR LRBS 242230Z 27004KT CAVOK 21/16 Q1017 NOSIG=
201907242300 METAR LRBS 242300Z VRB01KT 9000 NSC 20/16 Q1017 NOSIG=
201907242330 METAR LRBS 242330Z 04001KT 9000 NSC 19/16 Q1017 NOSIG=
201907250000 METAR LRBS 250000Z 02003KT 9000 NSC 19/16 Q1017 NOSIG=
201907250030 METAR LRBS 250030Z 06003KT 9000 NSC 18/16 Q1017 NOSIG=
201907250100 METAR LRBS 250100Z 06001KT CAVOK 18/16 Q1017 NOSIG=
201907250130 METAR LRBS 250130Z 00000KT 9000 NSC 18/16 Q1017 NOSIG=
201907250200 METAR LRBS 250200Z 02001KT 9000 NSC 18/16 Q1017 NOSIG=
201907250230 METAR LRBS 250230Z 04001KT CAVOK 18/16 Q1017 NOSIG=
201907250300 METAR LRBS 250300Z 00000KT CAVOK 19/16 Q1017 NOSIG=
201907250330 METAR LRBS 250330Z 06001KT CAVOK 19/16 Q1017 NOSIG=
201907250400 METAR LRBS 250400Z VRB01KT CAVOK 19/16 Q1017 NOSIG=
201907250430 METAR LRBS 250430Z 04002KT CAVOK 20/17 Q1017 NOSIG=
201907250500 METAR LRBS 250500Z 00000KT CAVOK 22/17 Q1017 NOSIG=
201907250530 METAR COR LRBS 250530Z VRB02KT CAVOK 23/16 Q1018 NOSIG=
201907250600 METAR LRBS 250600Z VRB02KT CAVOK 24/15 Q1018 NOSIG=
201907250630 METAR LRBS 250630Z 06004KT 020V100 CAVOK 25/15 Q1018 NOSIG=
201907250700 METAR LRBS 250700Z 11005KT 070V140 CAVOK 25/14 Q1018 NOSIG=
201907250730 METAR LRBS 250730Z 07007KT CAVOK 26/13 Q1018 NOSIG=
201907250800 METAR LRBS 250800Z 07006KT 040V100 CAVOK 27/14 Q1018 NOSIG=
201907250830 METAR LRBS 250830Z 15005KT 090V210 CAVOK 27/13 Q1018 NOSIG=
201907250900 METAR LRBS 250900Z AUTO 18004KT 120V250 9999 NCD 28/14 Q1017
                        NOSIG=
201907250930 METAR LRBS 250930Z 08005KT 060V120 CAVOK 28/14 Q1017 NOSIG=
201907251000 METAR LRBS 251000Z 16003KT 120V220 CAVOK 28/14 Q1017 NOSIG=
201907251030 METAR LRBS 251030Z VRB03KT CAVOK 29/15 Q1017 NOSIG=
201907251100 METAR LRBS 251100Z VRB03KT CAVOK 29/13 Q1017 NOSIG=
201907251130 METAR LRBS 251130Z VRB02KT CAVOK 28/14 Q1017 NOSIG=
201907251200 METAR LRBS 251200Z VRB03KT CAVOK 29/14 Q1017 NOSIG=
201907251230 METAR LRBS 251230Z 03003KT CAVOK 28/15 Q1017 NOSIG=
201907251300 METAR LRBS 251300Z 07004KT 020V110 CAVOK 28/15 Q1016=
201907251330 METAR LRBS 251330Z 36003KT 320V050 CAVOK 28/15 Q1016 NOSIG=
201907251400 METAR LRBS 251400Z VRB02KT CAVOK 29/14 Q1016 NOSIG=
201907251430 METAR LRBS 251430Z VRB02KT CAVOK 31/15 Q1016 NOSIG=
201907251500 METAR LRBS 251500Z 15004KT 080V190 CAVOK 29/14 Q1016 NOSIG=
201907251530 METAR LRBS 251530Z VRB01KT CAVOK 30/14 Q1016 NOSIG=
201907251600 METAR LRBS 251600Z 08003KT CAVOK 29/14 Q1016 NOSIG=
201907251630 METAR LRBS 251630Z VRB01KT CAVOK 28/15 Q1016 NOSIG=
201907251700 METAR LRBS 251700Z VRB02KT CAVOK 28/14 Q1016 NOSIG=
201907251730 METAR LRBS 251730Z VRB01KT CAVOK 27/15 Q1016 NOSIG=
201907251800 METAR LRBS 251800Z 07003KT CAVOK 25/16 Q1016 NOSIG=
201907251830 METAR LRBS 251830Z 08001KT 9000 NSC 26/16 Q1016 NOSIG=
201907251900 METAR LRBS 251900Z 00000KT 9000 NSC 25/16 Q1016 NOSIG=
201907251930 METAR LRBS 251930Z 08002KT CAVOK 22/17 Q1016 NOSIG=
201907252000 METAR LRBS 252000Z 06003KT CAVOK 21/17 Q1016 NOSIG=
201907252030 METAR LRBS 252030Z 04001KT CAVOK 22/17 Q1016 NOSIG=
201907252100 METAR LRBS 252100Z 02002KT CAVOK 21/17 Q1016 NOSIG=
201907252130 METAR LRBS 252130Z 03002KT CAVOK 21/16 Q1016 NOSIG=
201907252200 METAR LRBS 252200Z VRB01KT CAVOK 20/17 Q1016 NOSIG=
201907252230 METAR LRBS 252230Z 36001KT CAVOK 21/17 Q1016 NOSIG=
201907252300 METAR LRBS 252300Z 36001KT 9000 NSC 20/17 Q1016 NOSIG=
201907252330 METAR LRBS 252330Z 00000KT CAVOK 20/17 Q1016 NOSIG=
201907260000 METAR LRBS 260000Z 00000KT CAVOK 19/17 Q1015 NOSIG=
201907260030 METAR LRBS 260030Z 00000KT CAVOK 20/17 Q1015 NOSIG=
201907260100 METAR LRBS 260100Z 31003KT 9000 NSC 19/17 Q1015 NOSIG=
201907260130 METAR LRBS 260130Z VRB02KT 9000 NSC 19/17 Q1015 NOSIG=
201907260200 METAR LRBS 260200Z 08002KT CAVOK 18/16 Q1015 NOSIG=
201907260230 METAR LRBS 260230Z 03001KT CAVOK 18/16 Q1015 NOSIG=
201907260300 METAR LRBS 260300Z 00000KT 9000 NSC 18/16 Q1015 NOSIG=
201907260330 METAR LRBS 260330Z 01001KT 9000 NSC 19/17 Q1015 NOSIG=
201907260400 METAR LRBS 260400Z VRB01KT CAVOK 19/17 Q1014 NOSIG=
201907260430 METAR LRBS 260430Z 00000KT CAVOK 20/17 Q1014 NOSIG=
201907260500 METAR LRBS 260500Z 00000KT CAVOK 20/17 Q1014 NOSIG=
201907260530 METAR LRBS 260530Z 02001KT CAVOK 20/18 Q1014 NOSIG=
201907260600 METAR LRBS 260600Z 02002KT CAVOK 21/18 Q1014 NOSIG=
201907260630 METAR LRBS 260630Z VRB02KT CAVOK 24/18 Q1014 NOSIG=
201907260700 METAR LRBS 260700Z VRB02KT CAVOK 25/17 Q1014 NOSIG=
201907260730 METAR LRBS 260730Z VRB01KT CAVOK 26/17 Q1014 NOSIG=
201907260800 METAR LRBS 260800Z 13003KT 020V180 CAVOK 28/18 Q1014 NOSIG=
201907260830 METAR LRBS 260830Z 20003KT 140V280 CAVOK 29/16 Q1013 NOSIG=
201907260900 METAR LRBS 260900Z VRB06KT CAVOK 30/16 Q1013 NOSIG=
201907260930 METAR LRBS 260930Z 18006KT CAVOK 30/15 Q1013 NOSIG=
201907261000 METAR LRBS 261000Z VRB03KT CAVOK 30/16 Q1013 NOSIG=
201907261030 METAR LRBS 261030Z 15004KT 100V200 CAVOK 31/15 Q1012 NOSIG=
201907261100 METAR LRBS 261100Z 19005KT 130V270 CAVOK 31/16 Q1012 NOSIG=
201907261130 METAR LRBS 261130Z VRB04KT CAVOK 31/15 Q1012 NOSIG=
201907261200 METAR LRBS 261200Z 26006KT 220V320 CAVOK 31/15 Q1011 NOSIG=
201907261230 METAR LRBS 261230Z 24003KT 170V280 CAVOK 31/15 Q1011 NOSIG=
201907261300 METAR LRBS 261300Z 16005KT 130V220 CAVOK 31/15 Q1011 NOSIG=
201907261330 METAR LRBS 261330Z 20004KT 140V250 CAVOK 32/14 Q1010 NOSIG=
201907261400 METAR LRBS 261400Z 19006KT 150V220 CAVOK 32/15 Q1010 NOSIG=
201907261430 METAR LRBS 261430Z 17006KT 140V210 CAVOK 32/14 Q1010 NOSIG=
201907261500 METAR LRBS 261500Z 24006KT CAVOK 32/15 Q1009 NOSIG=
201907261530 METAR LRBS 261530Z 24006KT 210V270 CAVOK 32/15 Q1009 NOSIG=
201907261600 METAR LRBS 261600Z 25006KT 220V300 CAVOK 31/15 Q1009 NOSIG=
201907261630 METAR LRBS 261630Z 23005KT 190V260 CAVOK 31/15 Q1009 NOSIG=
201907261700 METAR LRBS 261700Z 25005KT 220V280 CAVOK 31/15 Q1009 NOSIG=
201907261730 METAR COR LRBS 261730Z VRB02KT CAVOK 30/15 Q1009 NOSIG=
201907261800 METAR LRBS 261800Z 19002KT CAVOK 29/15 Q1009 NOSIG=
201907261830 METAR LRBS 261830Z 00000KT CAVOK 29/15 Q1009 NOSIG=
201907261900 METAR LRBS 261900Z 01001KT CAVOK 27/16 Q1009 NOSIG=
201907261930 METAR LRBS 261930Z 00000KT CAVOK 25/17 Q1009 NOSIG=
201907262000 METAR LRBS 262000Z 00000KT CAVOK 24/17 Q1009 NOSIG=
201907262030 METAR COR LRBS 262030Z 07001KT CAVOK 24/17 Q1009 NOSIG=
201907262100 METAR COR LRBS 262100Z 04001KT CAVOK 24/17 Q1009 NOSIG=
201907262130 METAR LRBS 262130Z 00000KT CAVOK 23/17 Q1009=
201907262200 METAR LRBS 262200Z 09001KT CAVOK 22/17 Q1009 NOSIG=
201907262230 METAR LRBS 262230Z VRB01KT CAVOK 22/18 Q1009 NOSIG=
201907262300 METAR LRBS 262300Z 00000KT CAVOK 21/18 Q1009 NOSIG=
201907262330 METAR LRBS 262330Z 32001KT CAVOK 21/18 Q1008 NOSIG=
201907270000 METAR LRBS 270000Z 00000KT CAVOK 21/18 Q1008 NOSIG=
201907270030 METAR LRBS 270030Z 00000KT CAVOK 20/17 Q1008 NOSIG=
201907270100 METAR LRBS 270100Z 00000KT CAVOK 20/17 Q1008 NOSIG=
201907270130 METAR LRBS 270130Z 10001KT CAVOK 20/17 Q1008 NOSIG=
201907270200 METAR LRBS 270200Z 00000KT CAVOK 20/18 Q1008 NOSIG=
201907270230 METAR LRBS 270230Z 00000KT CAVOK 19/17 Q1008=
201907270300 METAR LRBS 270300Z 00000KT CAVOK 20/18 Q1008 NOSIG=
201907270330 METAR LRBS 270330Z 00000KT CAVOK 20/18 Q1008 NOSIG=
201907270400 METAR LRBS 270400Z 35002KT CAVOK 20/18 Q1008 NOSIG=
201907270430 METAR LRBS 270430Z VRB01KT CAVOK 21/19 Q1008 NOSIG=
201907270500 METAR LRBS 270500Z 04002KT CAVOK 22/19 Q1008 NOSIG=
201907270530 METAR LRBS 270530Z 04003KT 360V070 CAVOK 23/19 Q1009 NOSIG=
201907270600 METAR LRBS 270600Z 05003KT 010V090 CAVOK 24/19 Q1009 NOSIG=
201907270630 METAR LRBS 270630Z 07004KT 010V100 CAVOK 25/19 Q1009 NOSIG=
201907270700 METAR LRBS 270700Z 06005KT 040V100 CAVOK 26/18 Q1009 NOSIG=
201907270730 METAR LRBS 270730Z 07005KT 040V110 CAVOK 27/19 Q1009 NOSIG=
201907270800 METAR LRBS 270800Z 07006KT 010V130 CAVOK 28/17 Q1009 NOSIG=
201907270830 METAR LRBS 270830Z 07006KT CAVOK 29/18 Q1009 NOSIG=
201907270900 METAR LRBS 270900Z 06007KT CAVOK 30/18 Q1009 NOSIG=
201907270930 METAR LRBS 270930Z 12009KT CAVOK 30/18 Q1008 NOSIG=
201907271000 METAR LRBS 271000Z 12006KT 070V150 CAVOK 31/17 Q1008 NOSIG=
201907271030 METAR LRBS 271030Z 11007KT 080V150 CAVOK 31/15 Q1008 NOSIG=
201907271100 METAR LRBS 271100Z 13005KT 100V180 CAVOK 32/16 Q1008 NOSIG=
201907271130 METAR LRBS 271130Z VRB04KT CAVOK 32/15 Q1008 NOSIG=
201907271200 METAR LRBS 271200Z VRB04KT CAVOK 32/15 Q1008 NOSIG=
201907271230 METAR LRBS 271230Z VRB03KT CAVOK 34/15 Q1007 NOSIG=
201907271300 METAR LRBS 271300Z 11006KT 070V180 CAVOK 33/15 Q1007 NOSIG=
201907271330 METAR LRBS 271330Z 08004KT 360V170 CAVOK 33/14 Q1007 NOSIG=
201907271400 METAR LRBS 271400Z 10007KT 060V120 CAVOK 33/14 Q1007 NOSIG=
201907271430 METAR LRBS 271430Z 11005KT 080V140 CAVOK 32/15 Q1007 NOSIG=
201907271500 METAR LRBS 271500Z 06005KT 020V090 CAVOK 33/15 Q1006 NOSIG=
201907271530 METAR LRBS 271530Z 09006KT CAVOK 32/15 Q1006 NOSIG=
201907271600 METAR LRBS 271600Z 09005KT CAVOK 32/16 Q1006 NOSIG=
201907271630 METAR LRBS 271630Z 09006KT CAVOK 32/15 Q1006 NOSIG=
201907271700 METAR LRBS 271700Z 08004KT CAVOK 30/17 Q1006 NOSIG=
201907271730 METAR LRBS 271730Z 04003KT CAVOK 29/17 Q1006 NOSIG=
201907271800 METAR LRBS 271800Z 06003KT CAVOK 27/17 Q1007 NOSIG=
201907271830 METAR COR LRBS 271830Z 07004KT CAVOK 25/18 Q1007 NOSIG=
201907271900 METAR LRBS 271900Z 05004KT CAVOK 24/18 Q1007=
201907271930 METAR LRBS 271930Z 13007KT CAVOK 28/15 Q1007 NOSIG=
201907272000 METAR LRBS 272000Z 13007KT CAVOK 28/15 Q1008 NOSIG=
201907272030 METAR LRBS 272030Z 14006KT CAVOK 27/14 Q1008 NOSIG=
201907272100 METAR LRBS 272100Z 13007KT CAVOK 26/14 Q1008 NOSIG=
201907272130 METAR LRBS 272130Z 13005KT CAVOK 25/14 Q1008 NOSIG=
201907272200 METAR LRBS 272200Z 07004KT CAVOK 23/15 Q1008 NOSIG=
201907272230 METAR COR LRBS 272230Z 06004KT CAVOK 22/16 Q1008 NOSIG=
201907272300 METAR LRBS 272300Z 07005KT CAVOK 21/16 Q1008 NOSIG=
201907272330 METAR LRBS 272330Z 07005KT CAVOK 20/16 Q1008 NOSIG=
201907280000 METAR LRBS 280000Z 03004KT CAVOK 20/15 Q1008 NOSIG=
201907280030 METAR LRBS 280030Z 01004KT CAVOK 20/16 Q1008 NOSIG=
201907280100 METAR LRBS 280100Z 03004KT CAVOK 19/15 Q1008 NOSIG=
201907280130 METAR LRBS 280130Z 03003KT CAVOK 19/15 Q1008 NOSIG=
201907280200 METAR LRBS 280200Z 04004KT CAVOK 18/15 Q1008 NOSIG=
201907280230 METAR LRBS 280230Z 06005KT CAVOK 18/15 Q1008 NOSIG=
201907280300 METAR LRBS 280300Z 05005KT CAVOK 18/15 Q1008 NOSIG=
201907280330 METAR LRBS 280330Z 06005KT CAVOK 18/15 Q1009 NOSIG=
201907280400 METAR LRBS 280400Z 06006KT CAVOK 18/16 Q1009 NOSIG=
201907280430 METAR LRBS 280430Z 07007KT CAVOK 20/16 Q1009 NOSIG=
201907280500 METAR LRBS 280500Z 07006KT CAVOK 21/17 Q1009 NOSIG=
201907280530 METAR LRBS 280530Z 07006KT CAVOK 22/17 Q1009 NOSIG=
201907280600 METAR LRBS 280600Z 06006KT 020V090 CAVOK 23/17 Q1009 NOSIG=
201907280630 METAR LRBS 280630Z 07006KT CAVOK 24/16 Q1009 NOSIG=
201907280700 METAR LRBS 280700Z 07006KT 040V100 CAVOK 25/17 Q1009 NOSIG=
201907280730 METAR LRBS 280730Z 08007KT 050V120 CAVOK 27/15 Q1009 NOSIG=
201907280800 METAR LRBS 280800Z 09006KT CAVOK 28/15 Q1009 NOSIG=
201907280830 METAR LRBS 280830Z 09008KT 050V120 CAVOK 29/12 Q1009 NOSIG=
201907280900 METAR LRBS 280900Z 09010KT CAVOK 30/11 Q1009 NOSIG=
201907280930 METAR LRBS 280930Z 07010KT CAVOK 31/12 Q1008 NOSIG=
201907281000 METAR LRBS 281000Z 08008KT 050V120 CAVOK 31/12 Q1008 NOSIG=
201907281030 METAR LRBS 281030Z 12008KT 090V160 CAVOK 31/12 Q1008 NOSIG=
201907281100 METAR LRBS 281100Z 09009KT CAVOK 31/12 Q1008 NOSIG=
201907281130 METAR LRBS 281130Z 10008KT 050V140 CAVOK 32/12 Q1008 NOSIG=
201907281200 METAR LRBS 281200Z 09009KT 060V120 CAVOK 33/12 Q1007 NOSIG=
201907281230 METAR LRBS 281230Z 10009KT 060V130 CAVOK 32/11 Q1007 NOSIG=
201907281300 METAR LRBS 281300Z 10010KT 070V130 CAVOK 32/11 Q1007 NOSIG=
201907281330 METAR LRBS 281330Z 10009KT 060V140 CAVOK 33/10 Q1007 NOSIG=
201907281400 METAR LRBS 281400Z 10011KT CAVOK 33/11 Q1006 NOSIG=
201907281430 METAR LRBS 281430Z 10012KT 070V140 CAVOK 33/11 Q1006 NOSIG=
201907281500 METAR LRBS 281500Z 10012KT 070V130 CAVOK 33/11 Q1006 NOSIG=
201907281530 METAR LRBS 281530Z 10013KT CAVOK 32/11 Q1005 NOSIG=
201907281600 METAR LRBS 281600Z 11013KT CAVOK 32/11 Q1005 NOSIG=
201907281630 METAR LRBS 281630Z 11012KT CAVOK 31/11 Q1005 NOSIG=
201907281700 METAR LRBS 281700Z 11011KT CAVOK 30/11 Q1005 NOSIG=
201907281730 METAR LRBS 281730Z 11009KT CAVOK 29/12 Q1006 NOSIG=
201907281800 METAR LRBS 281800Z 11009KT CAVOK 29/12 Q1006 NOSIG=
201907281830 METAR LRBS 281830Z 12011KT CAVOK 28/13 Q1006 NOSIG=
201907281900 METAR LRBS 281900Z 12009KT CAVOK 27/13 Q1006 NOSIG=
201907281930 METAR LRBS 281930Z 12010KT CAVOK 27/14 Q1006 NOSIG=
201907282000 METAR LRBS 282000Z 12008KT CAVOK 26/14 Q1006 NOSIG=
201907282030 METAR LRBS 282030Z 10007KT CAVOK 25/14 Q1006 NOSIG=
201907282100 METAR LRBS 282100Z 11007KT CAVOK 25/14 Q1006 NOSIG=
201907282130 METAR LRBS 282130Z 09005KT CAVOK 23/14 Q1006 NOSIG=
201907282200 METAR LRBS 282200Z 08007KT CAVOK 22/14 Q1006 NOSIG=
201907282230 METAR LRBS 282230Z 08006KT CAVOK 21/14 Q1005 NOSIG=
201907282300 METAR LRBS 282300Z 08007KT CAVOK 21/14 Q1005 NOSIG=
201907282330 METAR LRBS 282330Z 09007KT CAVOK 22/13 Q1005 NOSIG=
201907290000 METAR LRBS 290000Z 08007KT CAVOK 21/14 Q1005 NOSIG=
201907290030 METAR LRBS 290030Z 06005KT CAVOK 21/14 Q1005 NOSIG=
201907290100 METAR LRBS 290100Z 07005KT CAVOK 20/15 Q1005 NOSIG=
201907290130 METAR LRBS 290130Z 06006KT CAVOK 20/15 Q1005 NOSIG=
201907290200 METAR LRBS 290200Z 06007KT CAVOK 19/15 Q1005 TEMPO 5000 SHRA
                        SCT030CB=
201907290230 METAR LRBS 290230Z 06006KT CAVOK 19/15 Q1005 TEMPO 5000 SHRA
                        SCT030CB=
201907290300 METAR LRBS 290300Z 06006KT 9999 FEW050CB 19/15 Q1004 TEMPO
                        5000 SHRA SCT030CB=
201907290330 METAR LRBS 290330Z 06005KT 9999 FEW050CB 19/16 Q1005 TEMPO
                        5000 SHRA SCT030CB=
201907290400 METAR LRBS 290400Z 06006KT 9999 FEW050CB 19/16 Q1004 TEMPO
                        5000 SHRA SCT030CB=
201907290430 METAR LRBS 290430Z 06006KT 9999 FEW050CB 19/17 Q1004 TEMPO
                        5000 SHRA SCT030CB=
201907290500 METAR LRBS 290500Z 06005KT 9999 FEW050CB 20/17 Q1005 TEMPO
                        5000 SHRA SCT030CB=
201907290530 METAR LRBS 290530Z 06003KT 030V090 9999 FEW050CB 21/18 Q1005
                        TEMPO 5000 SHRA SCT030CB=
201907290600 METAR LRBS 290600Z 09004KT 040V140 9999 TS SCT050CB 23/18
                        Q1005 TEMPO 5000 -TSRA=
201907290630 METAR COR LRBS 290630Z 18004KT 120V210 8000 TSRA BKN050CB
                        22/19 Q1005 TEMPO 5000 -TSRA=
201907290700 METAR LRBS 290700Z 22008KT 6000 -TSRA BKN017 BKN040CB 20/19
                        Q1006 NOSIG=
201907290730 METAR LRBS 290730Z 24003KT 210V340 8000 -TSRA FEW017 BKN040CB
                        19/18 Q1006 NOSIG=
201907290800 METAR LRBS 290800Z 05006KT 8000 -TSRA SCT040CB 20/19 Q1004
                        NOSIG=
201907290830 METAR LRBS 290830Z 08008KT 9999 -SHRA FEW021 SCT040CB 20/19
                        Q1005 NOSIG=
201907290900 METAR LRBS 290900Z 07008KT 040V100 9999 SCT050CB 21/19 Q1005
                        NOSIG=
201907290930 METAR LRBS 290930Z 12007KT 9999 FEW050CB 22/19 Q1006 NOSIG=
201907291000 METAR COR LRBS 291000Z 10007KT 9999 FEW014 FEW050CB 21/18
                        Q1006 NOSIG=
201907291030 METAR LRBS 291030Z 10006KT 9999 FEW050CB 22/18 Q1006 NOSIG=
201907291100 METAR LRBS 291100Z 12004KT 090V150 CAVOK 23/19 Q1006 NOSIG=
201907291130 METAR LRBS 291130Z 12009KT 9999 BKN022 23/19 Q1006 NOSIG=
201907291200 METAR LRBS 291200Z 12007KT 080V140 9999 BKN020 23/18 Q1006
                        NOSIG=
201907291230 METAR LRBS 291230Z 15005KT 100V190 9999 BKN029 24/17 Q1006
                        NOSIG=
201907291300 METAR LRBS 291300Z 11006KT 070V150 9999 SCT030 24/18 Q1006
                        NOSIG=
201907291330 METAR LRBS 291330Z VRB02KT 9999 FEW028 24/17 Q1006 NOSIG=
201907291400 METAR LRBS 291400Z VRB02KT 9999 FEW032 24/17 Q1005 NOSIG=
201907291430 METAR LRBS 291430Z VRB01KT 9999 SCT031 25/17 Q1005 NOSIG=
201907291500 METAR LRBS 291500Z 02004KT 9999 SCT030 24/17 Q1005 NOSIG=
201907291530 METAR LRBS 291530Z 05005KT 9999 SCT031 24/18 Q1005 NOSIG=
201907291600 METAR LRBS 291600Z 07005KT CAVOK 24/18 Q1005 NOSIG=
201907291630 METAR LRBS 291630Z 07005KT 9999 FEW040 24/17 Q1005 NOSIG=
201907291700 METAR LRBS 291700Z 06005KT CAVOK 23/17 Q1005 NOSIG=
201907291730 METAR LRBS 291730Z 05002KT CAVOK 22/17 Q1005 NOSIG=
201907291800 METAR LRBS 291800Z 06002KT CAVOK 22/17 Q1005 NOSIG=
201907291830 METAR LRBS 291830Z 03001KT CAVOK 22/17 Q1005 NOSIG=
201907291900 METAR LRBS 291900Z 34001KT CAVOK 22/18 Q1006 NOSIG=
201907291930 METAR LRBS 291930Z VRB01KT CAVOK 22/18 Q1006 NOSIG=
201907292000 METAR LRBS 292000Z 35002KT CAVOK 22/18 Q1006 NOSIG=
201907292030 METAR LRBS 292030Z VRB01KT CAVOK 21/17 Q1006 NOSIG=
201907292100 METAR LRBS 292100Z 01002KT CAVOK 20/17 Q1006 NOSIG=
201907292130 METAR LRBS 292130Z VRB01KT 9999 FEW044 20/18 Q1006 NOSIG=
201907292200 METAR LRBS 292200Z 00000KT 9999 FEW042 20/18 Q1006 NOSIG=
201907292230 METAR LRBS 292230Z 00000KT CAVOK 20/17 Q1006 NOSIG=
201907292300 METAR LRBS 292300Z 32003KT CAVOK 19/17 Q1006 NOSIG=
201907292330 METAR LRBS 292330Z VRB01KT CAVOK 19/17 Q1006 NOSIG=
201907300000 METAR LRBS 300000Z 30002KT 9000 FEW036 19/17 Q1006 NOSIG=
201907300030 METAR LRBS 300030Z 30002KT 9000 NSC 18/17 Q1006 NOSIG=
201907300100 METAR LRBS 300100Z 26002KT CAVOK 18/17 Q1006 NOSIG=
201907300130 METAR LRBS 300130Z 25001KT 9000 NSC 19/17 Q1006 NOSIG=
201907300200 METAR LRBS 300200Z 29001KT 8000 NSC 18/17 Q1006 NOSIG=
201907300230 METAR LRBS 300230Z 00000KT 8000 MIFG NSC 18/17 Q1006 NOSIG=
201907300300 METAR LRBS 300300Z 25002KT 8000 MIFG NSC 18/17 Q1006 NOSIG=
201907300330 METAR LRBS 300330Z VRB02KT 8000 MIFG NSC 18/17 Q1006=
201907300400 METAR LRBS 300400Z 25001KT CAVOK 19/17 Q1006 NOSIG=
201907300430 METAR LRBS 300430Z 27002KT CAVOK 19/17 Q1006 NOSIG=
201907300500 METAR LRBS 300500Z 27003KT CAVOK 21/18 Q1007 NOSIG=
201907300530 METAR LRBS 300530Z 25003KT 220V280 CAVOK 23/17 Q1007 NOSIG=
201907300600 METAR LRBS 300600Z 24005KT 200V280 CAVOK 24/17 Q1007 NOSIG=
201907300630 METAR LRBS 300630Z 23004KT 190V260 CAVOK 24/17 Q1007 NOSIG=
201907300700 METAR LRBS 300700Z 20004KT 160V230 CAVOK 25/16 Q1007 NOSIG=
201907300730 METAR LRBS 300730Z 21003KT 160V260 CAVOK 25/17 Q1007 NOSIG=
201907300800 METAR LRBS 300800Z 20004KT 150V250 CAVOK 26/18 Q1007 NOSIG=
201907300830 METAR LRBS 300830Z 24004KT 180V320 9999 FEW030 26/17 Q1007
                        NOSIG=
201907300900 METAR LRBS 300900Z 26004KT 230V310 9999 FEW030 27/16 Q1007
                        NOSIG=
201907300930 METAR LRBS 300930Z 31004KT 260V010 9999 FEW040 28/16 Q1007
                        NOSIG=
201907301000 METAR LRBS 301000Z 27005KT 240V340 9999 FEW040 28/15 Q1007
                        NOSIG=
201907301030 METAR COR LRBS 301030Z 29005KT 230V360 9999 FEW047 29/16
                        Q1007 NOSIG=
201907301100 METAR LRBS 301100Z VRB03KT 9999 SCT048 29/16 Q1007 NOSIG=
201907301130 METAR LRBS 301130Z VRB03KT CAVOK 30/17 Q1007 NOSIG=
201907301200 METAR LRBS 301200Z VRB04KT CAVOK 30/16 Q1007 NOSIG=
201907301230 METAR LRBS 301230Z 34003KT 240V020 CAVOK 30/16 Q1006 NOSIG=
201907301300 METAR LRBS 301300Z 33004KT 270V030 CAVOK 30/17 Q1006 NOSIG=
201907301330 METAR LRBS 301330Z 33004KT 270V040 CAVOK 30/16 Q1006 NOSIG=
201907301400 METAR LRBS 301400Z VRB02KT CAVOK 30/16 Q1006 NOSIG=
201907301430 METAR LRBS 301430Z 36003KT 270V050 CAVOK 31/17 Q1006 NOSIG=
201907301500 METAR LRBS 301500Z 34003KT 240V040 CAVOK 31/15 Q1006 NOSIG=
201907301530 METAR LRBS 301530Z VRB02KT CAVOK 30/15 Q1006 NOSIG=
201907301600 METAR LRBS 301600Z VRB02KT CAVOK 30/15 Q1006 NOSIG=
201907301630 METAR LRBS 301630Z 03003KT CAVOK 29/17 Q1006 NOSIG=
201907301700 METAR LRBS 301700Z 03002KT CAVOK 28/17 Q1006 NOSIG=
201907301730 METAR LRBS 301730Z 07001KT CAVOK 27/17 Q1006 NOSIG=
201907301800 METAR LRBS 301800Z 31001KT CAVOK 27/18 Q1006 NOSIG=
201907301830 METAR LRBS 301830Z 00000KT CAVOK 25/18 Q1007 NOSIG=
201907301900 METAR LRBS 301900Z VRB01KT CAVOK 25/18 Q1007 NOSIG=
201907301930 METAR LRBS 301930Z 32003KT 290V350 CAVOK 24/17 Q1007 NOSIG=
201907302000 METAR LRBS 302000Z 28002KT CAVOK 24/17 Q1007 NOSIG=
201907302030 METAR LRBS 302030Z 30001KT CAVOK 24/18 Q1007 NOSIG=
201907302100 METAR LRBS 302100Z 26001KT CAVOK 23/18 Q1007 NOSIG=
201907302130 METAR LRBS 302130Z 27004KT CAVOK 22/18 Q1008 NOSIG=
201907302200 METAR LRBS 302200Z 26003KT CAVOK 22/18 Q1008 NOSIG=
201907302230 METAR LRBS 302230Z 26003KT CAVOK 22/19 Q1008 NOSIG=
201907302300 METAR COR LRBS 302300Z 24003KT CAVOK 22/19 Q1008 NOSIG=
201907302330 METAR LRBS 302330Z 28003KT 250V310 CAVOK 21/19 Q1008 NOSIG=
201907310000 METAR COR LRBS 310000Z 27003KT CAVOK 21/18 Q1007 NOSIG=
201907310030 METAR LRBS 310030Z 25004KT CAVOK 21/18 Q1007 NOSIG=
201907310100 METAR LRBS 310100Z 27002KT CAVOK 21/18 Q1007 NOSIG=
201907310130 METAR LRBS 310130Z 27002KT CAVOK 20/18 Q1007 NOSIG=
201907310200 METAR COR LRBS 310200Z 26003KT 9999 NCD 20/18 Q1007 NOSIG=
201907310230 METAR COR LRBS 310230Z 28002KT CAVOK 20/18 Q1007 NOSIG=
201907310300 METAR LRBS 310300Z 28002KT CAVOK 20/18 Q1007 NOSIG=
201907310330 METAR COR LRBS 310330Z VRB02KT CAVOK 20/18 Q1008 NOSIG=
201907310400 METAR COR LRBS 310400Z 27003KT CAVOK 21/18 Q1008 NOSIG=
201907310430 METAR LRBS 310430Z 26002KT CAVOK 21/18 Q1008 NOSIG=
201907310500 METAR LRBS 310500Z 26003KT CAVOK 23/18 Q1008 NOSIG=
201907310530 METAR LRBS 310530Z 26002KT CAVOK 24/18 Q1008 NOSIG=
201907310600 METAR LRBS 310600Z 23004KT 200V260 CAVOK 25/19 Q1009 NOSIG=
201907310630 METAR LRBS 310630Z VRB01KT CAVOK 27/18 Q1009 NOSIG=
201907310700 METAR LRBS 310700Z VRB01KT CAVOK 29/19 Q1009 NOSIG=
201907310730 METAR LRBS 310730Z VRB02KT CAVOK 30/18 Q1009 NOSIG=
201907310800 METAR LRBS 310800Z VRB01KT CAVOK 30/18 Q1009 NOSIG=
201907310830 METAR LRBS 310830Z VRB02KT CAVOK 31/17 Q1009 NOSIG=
201907310900 METAR LRBS 310900Z VRB02KT CAVOK 32/17 Q1009 NOSIG=
201907310930 METAR COR LRBS 310930Z VRB02KT CAVOK 31/17 Q1009 NOSIG=
201907311000 METAR LRBS 311000Z VRB01KT CAVOK 32/17 Q1009 NOSIG=
201907311030 METAR LRBS 311030Z VRB03KT CAVOK 33/17 Q1009 NOSIG=
201907311100 METAR LRBS 311100Z VRB03KT CAVOK 33/15 Q1009 NOSIG=
201907311130 METAR LRBS 311130Z 25005KT 220V310 CAVOK 33/15 Q1009 NOSIG=
201907311200 METAR LRBS 311200Z VRB03KT CAVOK 33/16 Q1008 NOSIG=
201907311230 METAR LRBS 311230Z 29004KT 170V340 CAVOK 33/16 Q1008 NOSIG=
201907311300 METAR LRBS 311300Z VRB04KT CAVOK 34/16 Q1008 NOSIG=
201907311330 METAR LRBS 311330Z 34005KT 280V060 CAVOK 32/19 Q1008 NOSIG=
201907311400 METAR LRBS 311400Z 36006KT 310V050 CAVOK 33/19 Q1008 NOSIG=
201907311430 METAR LRBS 311430Z 33003KT 270V070 CAVOK 33/17 Q1008 NOSIG=
201907311500 METAR LRBS 311500Z 01006KT CAVOK 32/18 Q1008 NOSIG=
201907311530 METAR LRBS 311530Z 03005KT CAVOK 31/18 Q1008 NOSIG=
201907311600 METAR LRBS 311600Z 03003KT CAVOK 30/19 Q1008 NOSIG=
201907311630 METAR LRBS 311630Z 04002KT CAVOK 29/20 Q1009 NOSIG=
201907311700 METAR LRBS 311700Z 04003KT CAVOK 28/20 Q1009 NOSIG=
201907311730 METAR LRBS 311730Z 05003KT CAVOK 28/20 Q1009 NOSIG=
201907311800 METAR LRBS 311800Z 04011KT 9999 SCT050CB 28/20 Q1010 NOSIG=
201907311830 METAR LRBS 311830Z 05007KT 9999 SCT050CB 26/20 Q1010 NOSIG=
201907311900 METAR COR LRBS 311900Z 06005KT 9999 FEW050CB 26/20 Q1010
                        NOSIG=
201907311930 METAR COR LRBS 311930Z 06006KT CAVOK 25/20 Q1011 NOSIG=
201907312000 METAR LRBS 312000Z 06004KT CAVOK 25/20 Q1011 NOSIG=
201907312030 METAR LRBS 312030Z 03004KT CAVOK 25/20 Q1011 NOSIG=
201907312100 METAR LRBS 312100Z 02003KT 350V060 CAVOK 24/20 Q1011 NOSIG=
201907312130 METAR LRBS 312130Z 03004KT 9999 TS FEW050CB 24/20 Q1011 TEMPO
                        5000 TSRA=
201907312200 METAR COR LRBS 312200Z 07007KT 9999 FEW050CB 24/20 Q1011
                        RETS NOSIG=
201907312230 METAR LRBS 312230Z 05003KT 9999 FEW050CB 23/20 Q1011 NOSIG=
201907312300 METAR LRBS 312300Z 06004KT CAVOK 23/20 Q1011 NOSIG=
201907312330 METAR LRBS 312330Z 08003KT CAVOK 23/20 Q1011 NOSIG=
