201908010000 METAR LRBS 010000Z 04002KT CAVOK 23/20 Q1011 NOSIG=
201908010030 METAR LRBS 010030Z 07003KT 9999 FEW050CB 23/20 Q1011 NOSIG=
201908010100 METAR LRBS 010100Z 06004KT 9999 FEW050CB 22/20 Q1011 NOSIG=
201908010130 METAR LRBS 010130Z VRB02KT 9999 FEW050CB 23/20 Q1011 NOSIG=
201908010200 METAR LRBS 010200Z 35003KT 320V040 9000 -TSRA SCT050CB 22/20
                        Q1011 NOSIG=
201908010230 METAR LRBS 010230Z 05002KT 9999 -TSRA BKN050CB 22/20 Q1011
                        NOSIG=
201908010300 METAR LRBS 010300Z 06007KT 9999 VCTS FEW050CB 22/20 Q1012
                        NOSIG=
201908010330 METAR LRBS 010330Z VRB02KT 9999 SCT050CB 21/20 Q1012 0729//95
                        NOSIG=
201908010400 METAR LRBS 010400Z 33004KT 280V040 9000 -SHRA SCT045CB 22/20
                        Q1013 R07/29//95 NOSIG=
201908010430 METAR LRBS 010430Z 36004KT 340V040 9999 VCTS SCT045CB 22/20
                        Q1013 R07/29//95 NOSIG=
201908010500 METAR COR LRBS 010500Z 03006KT 6000 -SHRA VCTS BKN040CB 21/20
                        Q1013 RETSRA R07/29//95 NOSIG=
201908010530 METAR COR LRBS 010530Z 03006KT 360V060 5000 TSRA BKN040CB
                        21/20 Q1013 R07/29//95 TEMPO 3000
                        +TSRA=
201908010600 METAR LRBS 010600Z 07009KT 8000 -SHRA BKN036CB 21/20 Q1012
                        R07/29//95 TEMPO 5000 TSRA=
201908010630 METAR LRBS 010630Z 06007KT 9999 FEW030 SCT040CB 21/20 Q1012
                        R07/29//95 NOSIG=
201908010700 METAR LRBS 010700Z 05005KT 020V090 9999 FEW045CB 23/20 Q1013
                        R07/29//95 NOSIG=
201908010730 METAR LRBS 010730Z 06009KT 9999 FEW045CB 24/20 Q1013 R07/29//95
                        NOSIG=
201908010800 METAR LRBS 010800Z 06008KT 9999 FEW007 FEW045CB 25/20 Q1013
                        R07/19//95 NOSIG=
201908010830 METAR LRBS 010830Z 06006KT 9999 FEW024 FEW045CB 25/20 Q1013
                        R07/19//95 NOSIG=
201908010900 METAR LRBS 010900Z 36005KT 320V050 9999 FEW022 SCT045CB 24/20
                        Q1013 R07/19//95 TEMPO 5000 -TSRA=
201908010930 METAR COR LRBS 010930Z 36005KT 320V040 9999 -SHRA FEW026
                        SCT045CB 25/20 Q1014 R07/CLRD// TEMPO
                        5000 -TSRA=
201908011000 METAR LRBS 011000Z 32003KT 280V360 8000 -SHRA SCT026 BKN040CB
                        23/21 Q1014 RESHRA R07/29//95 TEMPO
                        5000 TSRA=
201908011030 METAR LRBS 011030Z 35004KT 310V030 8000 -SHRA SCT040CB 24/21
                        Q1014 R07/29//95 TEMPO 5000 TSRA=
201908011100 METAR LRBS 011100Z VRB02KT 9999 FEW010 FEW045CB 24/21 Q1013
                        R07/29//95 TEMPO 5000 TSRA=
201908011130 METAR LRBS 011130Z 11004KT 050V190 9999 FEW012 FEW045CB 26/21
                        Q1012 R07/19//95 NOSIG=
201908011200 METAR LRBS 011200Z VRB03KT 9999 FEW026 27/20 Q1012 R07/19//95
                        NOSIG=
201908011230 METAR LRBS 011230Z 36004KT 300V040 9999 SCT027 27/20 Q1012
                        R07/19//95 NOSIG=
201908011300 METAR LRBS 011300Z 03004KT 340V070 9999 SCT029 27/20 Q1012
                        R07/19//95 NOSIG=
201908011330 METAR LRBS 011330Z 02005KT 320V060 9999 SCT032 28/20 Q1012
                        R07/CLRD// NOSIG=
201908011400 METAR LRBS 011400Z 03006KT 340V070 9999 FEW035 27/20 Q1012
                        NOSIG=
201908011430 METAR LRBS 011430Z 02005KT 9999 FEW034 27/20 Q1012 NOSIG=
201908011500 METAR COR LRBS 011500Z 02003KT 350V050 9999 FEW036 FEW040CB
                        27/20 Q1012 NOSIG=
201908011530 METAR LRBS 011530Z 02005KT 9999 FEW040CB 26/20 Q1012 NOSIG=
201908011600 METAR LRBS 011600Z 03003KT 9999 SCT032 FEW040CB 26/21 Q1013
                        TEMPO 5000 SHRA SCT035CB=
201908011630 METAR COR LRBS 011630Z 04005KT 9999 FEW033 FEW040CB 25/21
                        Q1012 TEMPO 5000 SHRA SCT035CB=
201908011700 METAR LRBS 011700Z 06006KT 020V090 9999 FEW050CB 25/21 Q1012
                        TEMPO 5000 SHRA SCT035CB=
201908011730 METAR LRBS 011730Z 09006KT CAVOK 25/20 Q1012 NOSIG=
201908011800 METAR COR LRBS 011800Z 06004KT CAVOK 23/20 Q1012 NOSIG=
201908011830 METAR LRBS 011830Z 07004KT CAVOK 23/20 Q1012 NOSIG=
201908011900 METAR LRBS 011900Z 08003KT CAVOK 23/19 Q1013 NOSIG=
201908011930 METAR LRBS 011930Z 03004KT CAVOK 22/19 Q1013 NOSIG=
201908012000 METAR LRBS 012000Z 05005KT CAVOK 22/19 Q1013 NOSIG=
201908012030 METAR LRBS 012030Z 07005KT CAVOK 21/19 Q1013 NOSIG=
201908012100 METAR LRBS 012100Z 07004KT CAVOK 20/18 Q1013 NOSIG=
201908012130 METAR LRBS 012130Z 08002KT CAVOK 20/18 Q1013 NOSIG=
201908012200 METAR LRBS 012200Z 11003KT CAVOK 20/18 Q1013 NOSIG=
201908012230 METAR LRBS 012230Z 10003KT CAVOK 20/18 Q1013 NOSIG=
201908012300 METAR LRBS 012300Z VRB01KT CAVOK 19/18 Q1013 NOSIG=
201908012330 METAR LRBS 012330Z 36003KT CAVOK 20/18 Q1013 NOSIG=
201908020000 METAR LRBS 020000Z 01004KT CAVOK 19/18 Q1013 NOSIG=
201908020030 METAR LRBS 020030Z 01002KT 9999 SCT024 19/18 Q1013 NOSIG=
201908020100 METAR LRBS 020100Z 02002KT 9999 OVC025 19/18 Q1013 NOSIG=
201908020130 METAR LRBS 020130Z 00000KT 9999 SCT025 19/17 Q1013 NOSIG=
201908020200 METAR LRBS 020200Z 00000KT CAVOK 19/17 Q1013 NOSIG=
201908020230 METAR LRBS 020230Z 00000KT CAVOK 18/17 Q1013 NOSIG=
201908020300 METAR LRBS 020300Z 00000KT CAVOK 18/17 Q1013 NOSIG=
201908020330 METAR LRBS 020330Z 06001KT CAVOK 18/17 Q1013 NOSIG=
201908020400 METAR LRBS 020400Z 00000KT CAVOK 19/17 Q1013 NOSIG=
201908020430 METAR LRBS 020430Z 00000KT CAVOK 21/18 Q1012 NOSIG=
201908020500 METAR LRBS 020500Z 05002KT CAVOK 22/18 Q1013 NOSIG=
201908020530 METAR LRBS 020530Z VRB01KT 9999 BKN021 22/18 Q1013 NOSIG=
201908020600 METAR LRBS 020600Z VRB02KT 9999 FEW021 23/18 Q1013 NOSIG=
201908020630 METAR LRBS 020630Z VRB01KT CAVOK 24/19 Q1013 NOSIG=
201908020700 METAR LRBS 020700Z VRB01KT CAVOK 25/19 Q1013 NOSIG=
201908020730 METAR LRBS 020730Z 18003KT 090V240 CAVOK 26/19 Q1013 NOSIG=
201908020800 METAR LRBS 020800Z 26003KT 180V340 CAVOK 26/19 Q1013 NOSIG=
201908020830 METAR LRBS 020830Z 27004KT 230V320 9999 FEW026 27/19 Q1013
                        NOSIG=
201908020900 METAR LRBS 020900Z 23004KT 170V280 9999 FEW028 28/20 Q1012
                        NOSIG=
201908020930 METAR LRBS 020930Z 28004KT 190V340 9999 FEW032 28/19 Q1012
                        NOSIG=
201908021000 METAR LRBS 021000Z 25005KT 180V300 9999 FEW036 28/19 Q1012
                        NOSIG=
201908021030 METAR LRBS 021030Z 21003KT 140V270 9999 FEW040 30/18 Q1011
                        NOSIG=
201908021100 METAR LRBS 021100Z 26005KT 210V320 9999 FEW008 SCT040 30/19
                        Q1011 NOSIG=
201908021130 METAR LRBS 021130Z VRB02KT 9999 SCT050 29/17 Q1011 NOSIG=
201908021200 METAR LRBS 021200Z VRB02KT 9999 BKN049 29/17 Q1011 NOSIG=
201908021230 METAR LRBS 021230Z 24004KT 150V320 CAVOK 31/18 Q1011=
201908021300 METAR LRBS 021300Z 25005KT 220V310 CAVOK 30/18 Q1010 NOSIG=
201908021330 METAR LRBS 021330Z 30004KT 240V360 CAVOK 31/17 Q1010 NOSIG=
201908021400 METAR LRBS 021400Z 26004KT 230V310 CAVOK 32/17 Q1010 NOSIG=
201908021430 METAR LRBS 021430Z 28007KT CAVOK 32/16 Q1010 NOSIG=
201908021500 METAR LRBS 021500Z 27005KT 220V300 CAVOK 32/16 Q1009 NOSIG=
201908021530 METAR LRBS 021530Z 30004KT 260V350 9999 FEW050CB 31/15 Q1009
                        NOSIG=
201908021600 METAR LRBS 021600Z 33003KT 260V020 9999 FEW050CB 31/15 Q1009
                        NOSIG=
201908021630 METAR LRBS 021630Z 32007KT 280V020 9999 FEW045CB 26/18 Q1009
                        NOSIG=
201908021700 METAR LRBS 021700Z 01010KT 9999 VCSH SCT045CB 25/18 Q1010
                        TEMPO 5000 SHRA=
201908021730 METAR LRBS 021730Z 03007KT 360V060 9999 FEW045CB 25/18 Q1009
                        BECMG NSC=
201908021800 METAR LRBS 021800Z 07003KT 040V100 9999 FEW045CB 24/18 Q1009
                        NOSIG=
201908021830 METAR LRBS 021830Z 02003KT CAVOK 23/17 Q1009 NOSIG=
201908021900 METAR LRBS 021900Z 33003KT 300V010 CAVOK 24/18 Q1009 NOSIG=
201908021930 METAR LRBS 021930Z VRB02KT CAVOK 23/18 Q1009 NOSIG=
201908022000 METAR LRBS 022000Z 34003KT 240V020 CAVOK 23/18 Q1010 NOSIG=
201908022030 METAR LRBS 022030Z 04003KT CAVOK 22/18 Q1009 NOSIG=
201908022100 METAR LRBS 022100Z VRB02KT CAVOK 22/18 Q1009 NOSIG=
201908022130 METAR LRBS 022130Z 04003KT 010V080 CAVOK 22/18 Q1009 NOSIG=
201908022200 METAR LRBS 022200Z 06004KT CAVOK 22/18 Q1009 NOSIG=
201908022230 METAR LRBS 022230Z 07006KT CAVOK 22/18 Q1009 NOSIG=
201908022300 METAR LRBS 022300Z 06007KT 9999 FEW040CB 22/18 Q1008 NOSIG=
201908022330 METAR LRBS 022330Z 06005KT 020V100 9999 FEW040CB 22/18 Q1008
                        NOSIG=
201908030000 METAR LRBS 030000Z 05005KT 010V070 CAVOK 22/18 Q1008 NOSIG=
201908030030 METAR LRBS 030030Z 04004KT 010V070 CAVOK 21/18 Q1008 NOSIG=
201908030100 METAR LRBS 030100Z 05006KT 010V090 CAVOK 21/18 Q1008 NOSIG=
201908030130 METAR LRBS 030130Z 05007KT CAVOK 21/18 Q1007 NOSIG=
201908030200 METAR LRBS 030200Z 03004KT CAVOK 21/18 Q1007 NOSIG=
201908030230 METAR LRBS 030230Z 02005KT 340V050 CAVOK 21/17 Q1007 NOSIG=
201908030300 METAR LRBS 030300Z 06005KT 020V090 CAVOK 21/17 Q1007 NOSIG=
201908030330 METAR LRBS 030330Z 08003KT CAVOK 20/17 Q1007 NOSIG=
201908030400 METAR LRBS 030400Z 04003KT CAVOK 21/18 Q1007 NOSIG=
201908030430 METAR LRBS 030430Z VRB02KT CAVOK 21/18 Q1007 NOSIG=
201908030500 METAR LRBS 030500Z 06004KT 020V080 CAVOK 22/18 Q1007 NOSIG=
201908030530 METAR LRBS 030530Z 05006KT CAVOK 23/17 Q1007 NOSIG=
201908030600 METAR COR LRBS 030600Z 06008KT CAVOK 23/17 Q1007 NOSIG=
201908030630 METAR LRBS 030630Z 07007KT 030V100 CAVOK 24/18 Q1006 NOSIG=
201908030700 METAR LRBS 030700Z 08008KT CAVOK 24/17 Q1006 NOSIG=
201908030730 METAR LRBS 030730Z 08009KT CAVOK 24/17 Q1006 NOSIG=
201908030800 METAR LRBS 030800Z 07006KT 010V100 CAVOK 26/18 Q1006 NOSIG=
201908030830 METAR LRBS 030830Z 09005KT 040V150 CAVOK 26/18 Q1006 NOSIG=
201908030900 METAR LRBS 030900Z 07004KT 010V120 CAVOK 27/18 Q1005 BECMG
                        27010KT=
201908030930 METAR LRBS 030930Z 06003KT 010V110 CAVOK 28/19 Q1005 BECMG
                        27010KT=
201908031000 METAR LRBS 031000Z 21004KT 9999 FEW042 29/18 Q1004 BECMG
                        27010KT=
201908031030 METAR LRBS 031030Z VRB02KT 9999 SCT043 30/18 Q1004 BECMG
                        27010KT=
201908031100 METAR LRBS 031100Z VRB03KT 9999 SCT048 29/17 Q1003 BECMG
                        27010KT=
201908031130 METAR LRBS 031130Z 26008KT 230V310 9999 SCT048 30/18 Q1003
                        TEMPO SCT040CB=
201908031200 METAR LRBS 031200Z 24008KT 210V270 9999 BKN048 29/17 Q1002
                        TEMPO VRB18G28KT TS SCT045CB=
201908031230 METAR LRBS 031230Z 25012KT 220V280 9999 TS VCSH SCT040CB
                        BKN048 29/17 Q1002 TEMPO VRB16G26KT
                        5000 TSRA BKN040CB=
201908031300 METAR LRBS 031300Z 31011KT 250V010 9999 -TSRA SCT050CB 23/19
                        Q1003 NOSIG=
201908031330 METAR LRBS 031330Z 30004KT 260V350 9999 FEW030 FEW050CB 25/20
                        Q1003 RETS BECMG NSC=
201908031400 METAR LRBS 031400Z 27009KT 240V320 9999 FEW050CB 27/19 Q1003
                        BECMG NSC=
201908031430 METAR LRBS 031430Z 28010KT 240V310 9999 FEW050CB 28/16 Q1002
                        NOSIG=
201908031500 METAR LRBS 031500Z 27012KT 250V310 9999 FEW030 FEW050CB 28/16
                        Q1002 TEMPO VRB15G25KT TS=
201908031530 METAR LRBS 031530Z 27011KT 240V300 9999 FEW030 FEW050CB 27/17
                        Q1002 NOSIG=
201908031600 METAR LRBS 031600Z 32010KT 240V360 9999 TS VCSH SCT039 BKN049CB
                        25/18 Q1002 BECMG NSW=
201908031630 METAR LRBS 031630Z 35006KT 310V020 9999 FEW039 SCT050CB 22/19
                        Q1003 BECMG NSC=
201908031700 METAR LRBS 031700Z VRB02KT 9999 SCT048CB 22/19 Q1002 BECMG
                        NSC=
201908031730 METAR LRBS 031730Z VRB02KT 9999 FEW050CB 22/19 Q1003 BECMG
                        NSC=
201908031800 METAR LRBS 031800Z 06008KT 9999 SCT041 21/19 Q1004 NOSIG=
201908031830 METAR LRBS 031830Z 05005KT 020V090 9999 BKN033 20/19 Q1004
                        NOSIG=
201908031900 METAR LRBS 031900Z 04004KT 9999 -SHRA FEW010 SCT030CB 20/19
                        Q1005 NOSIG=
201908031930 METAR LRBS 031930Z 06006KT 9999 FEW010 FEW040CB 20/19 Q1005
                        NOSIG=
201908032000 METAR LRBS 032000Z 09006KT CAVOK 20/19 Q1005 NOSIG=
201908032030 METAR LRBS 032030Z 09005KT CAVOK 19/17 Q1005 NOSIG=
201908032100 METAR LRBS 032100Z 12004KT CAVOK 19/17 Q1005 NOSIG=
201908032130 METAR LRBS 032130Z 11005KT CAVOK 19/16 Q1006 NOSIG=
201908032200 METAR LRBS 032200Z 11005KT CAVOK 19/16 Q1006 NOSIG=
201908032230 METAR LRBS 032230Z 14002KT CAVOK 19/15 Q1006 NOSIG=
201908032300 METAR LRBS 032300Z VRB01KT CAVOK 19/15 Q1007 NOSIG=
201908032330 METAR LRBS 032330Z 10003KT 070V130 CAVOK 19/15 Q1007 NOSIG=
201908040000 METAR LRBS 040000Z 11004KT 9999 FEW040 19/15 Q1007 NOSIG=
201908040030 METAR LRBS 040030Z 11005KT 9999 FEW046CB 19/15 Q1006 NOSIG=
201908040100 METAR LRBS 040100Z 31007KT 220V330 6000 TSRA FEW014 SCT028
                        SCT041CB 17/16 Q1008 NOSIG=
201908040130 METAR LRBS 040130Z 15004KT 9999 TS FEW012 SCT049CB 17/16
                        Q1007 RERA NOSIG=
201908040200 METAR LRBS 040200Z VRB01KT 9999 FEW029 FEW050CB 17/17 Q1007
                        NOSIG=
201908040230 METAR LRBS 040230Z 18005KT 150V210 9999 -SHRA BKN005 FEW050CB
                        17/16 Q1008 NOSIG=
201908040300 METAR COR LRBS 040300Z 16003KT 130V210 9999 FEW005 FEW050CB
                        17/16 Q1008 NOSIG=
201908040330 METAR LRBS 040330Z 17003KT 140V200 9999 FEW032 FEW050CB 17/16
                        Q1008 NOSIG=
201908040400 METAR LRBS 040400Z 18004KT CAVOK 17/16 Q1009 NOSIG=
201908040430 METAR COR LRBS 040430Z 19003KT 160V220 CAVOK 17/16 Q1009
                        NOSIG=
201908040500 METAR LRBS 040500Z 18004KT CAVOK 18/16 Q1009 NOSIG=
201908040530 METAR LRBS 040530Z 19005KT 160V220 CAVOK 19/16 Q1010 NOSIG=
201908040600 METAR LRBS 040600Z 21005KT 180V240 CAVOK 19/16 Q1010 NOSIG=
201908040630 METAR LRBS 040630Z 18004KT 140V200 CAVOK 20/16 Q1010 NOSIG=
201908040700 METAR COR LRBS 040700Z 25003KT 200V290 CAVOK 21/16 Q1010
                        NOSIG=
201908040730 METAR LRBS 040730Z VRB02KT CAVOK 22/16 Q1010 NOSIG=
201908040800 METAR LRBS 040800Z VRB04KT 9999 SCT023 22/16 Q1010 NOSIG=
201908040830 METAR LRBS 040830Z VRB02KT 9999 SCT024 23/15 Q1010 NOSIG=
201908040900 METAR LRBS 040900Z 24004KT 180V300 9999 SCT030 24/14 Q1010
                        NOSIG=
201908040930 METAR LRBS 040930Z 28005KT 250V320 9999 SCT045 23/14 Q1011
                        NOSIG=
201908041000 METAR LRBS 041000Z 30006KT 270V340 9999 SCT045 23/15 Q1011
                        NOSIG=
201908041030 METAR LRBS 041030Z 30005KT 260V040 9999 TS FEW040CB 25/15
                        Q1010 TEMPO 5000 TSRA=
201908041100 METAR LRBS 041100Z 36004KT 290V040 9999 FEW040CB 26/15 Q1010
                        TEMPO 5000 TSRA=
201908041130 METAR LRBS 041130Z 06006KT 020V100 9999 -SHRA SCT040CB 24/14
                        Q1010 TEMPO 5000 TSRA=
201908041200 METAR LRBS 041200Z 04005KT 320V090 9000 TSRA FEW037 SCT045CB
                        20/16 Q1011 TEMPO VRB15G25KT 3000
                        TSRA=
201908041230 METAR LRBS 041230Z 31005KT 270V360 9999 -TSRA SCT028 SCT045CB
                        17/14 Q1011 R07/29//95 NOSIG=
201908041300 METAR LRBS 041300Z VRB01KT 9999 FEW045CB 20/16 Q1011 R07/29//95
                        NOSIG=
201908041330 METAR LRBS 041330Z 09003KT 060V140 9999 FEW045CB 22/17 Q1011
                        R07/29//95 NOSIG=
201908041400 METAR LRBS 041400Z VRB02KT CAVOK 23/14 Q1011 R07/29//95 NOSIG=
201908041430 METAR LRBS 041430Z VRB02KT CAVOK 24/12 Q1011 R07/29//95 NOSIG=
201908041500 METAR LRBS 041500Z VRB02KT CAVOK 24/14 Q1011 R07/29//95 NOSIG=
201908041530 METAR LRBS 041530Z 08006KT 040V130 CAVOK 23/15 Q1011 NOSIG=
201908041600 METAR LRBS 041600Z 08008KT CAVOK 23/14 Q1011 NOSIG=
201908041630 METAR LRBS 041630Z 09005KT CAVOK 22/13 Q1011 NOSIG=
201908041700 METAR LRBS 041700Z 11004KT CAVOK 22/13 Q1012 NOSIG=
201908041730 METAR LRBS 041730Z 09002KT CAVOK 21/14 Q1012 NOSIG=
201908041800 METAR LRBS 041800Z 06002KT CAVOK 20/14 Q1012 NOSIG=
201908041830 METAR LRBS 041830Z 00000KT CAVOK 20/15 Q1013 NOSIG=
201908041900 METAR LRBS 041900Z 00000KT CAVOK 20/15 Q1013 NOSIG=
201908041930 METAR LRBS 041930Z 00000KT CAVOK 18/16 Q1013 NOSIG=
201908042000 METAR LRBS 042000Z 05001KT CAVOK 17/15 Q1014 NOSIG=
201908042030 METAR LRBS 042030Z VRB01KT CAVOK 18/15 Q1014 NOSIG=
201908042100 METAR LRBS 042100Z 01003KT 330V040 CAVOK 18/15 Q1014 NOSIG=
201908042130 METAR LRBS 042130Z 00000KT CAVOK 17/14 Q1014 NOSIG=
201908042200 METAR LRBS 042200Z 25001KT CAVOK 17/15 Q1014 NOSIG=
201908042230 METAR LRBS 042230Z 32001KT CAVOK 17/15 Q1015 NOSIG=
201908042300 METAR LRBS 042300Z VRB02KT CAVOK 17/15 Q1014 NOSIG=
201908042330 METAR LRBS 042330Z 33002KT CAVOK 16/14 Q1014 NOSIG=
201908050000 METAR COR LRBS 050000Z 30001KT CAVOK 15/14 Q1014 NOSIG=
201908050030 METAR LRBS 050030Z VRB01KT CAVOK 15/14 Q1014 NOSIG=
201908050100 METAR LRBS 050100Z 00000KT CAVOK 15/14 Q1015 NOSIG=
201908050130 METAR LRBS 050130Z 32002KT CAVOK 15/14 Q1015 NOSIG=
201908050200 METAR LRBS 050200Z 28001KT CAVOK 15/13 Q1014 NOSIG=
201908050230 METAR LRBS 050230Z 33001KT CAVOK 14/13 Q1015 NOSIG=
201908050300 METAR LRBS 050300Z 00000KT CAVOK 14/13 Q1015 NOSIG=
201908050330 METAR LRBS 050330Z 00000KT CAVOK 15/13 Q1015 NOSIG=
201908050400 METAR LRBS 050400Z 03002KT CAVOK 15/13 Q1015 NOSIG=
201908050430 METAR LRBS 050430Z 00000KT CAVOK 17/14 Q1015 NOSIG=
201908050500 METAR LRBS 050500Z 00000KT CAVOK 18/14 Q1015 NOSIG=
201908050530 METAR LRBS 050530Z VRB01KT CAVOK 19/14 Q1015 NOSIG=
201908050600 METAR LRBS 050600Z VRB01KT CAVOK 19/14 Q1016 NOSIG=
201908050630 METAR LRBS 050630Z VRB01KT CAVOK 21/15 Q1016 NOSIG=
201908050700 METAR LRBS 050700Z VRB02KT CAVOK 22/14 Q1016 NOSIG=
201908050730 METAR LRBS 050730Z VRB02KT CAVOK 23/14 Q1016 NOSIG=
201908050800 METAR LRBS 050800Z 25004KT 210V330 CAVOK 24/13 Q1016 NOSIG=
201908050830 METAR LRBS 050830Z 27004KT 220V360 9999 FEW038 24/14 Q1016
                        NOSIG=
201908050900 METAR LRBS 050900Z 23007KT 9999 FEW040 25/14 Q1016 NOSIG=
201908050930 METAR COR LRBS 050930Z 27004KT 210V310 9999 FEW045 26/14
                        Q1015 NOSIG=
201908051000 METAR LRBS 051000Z 25008KT 9999 SCT047 26/12 Q1015 NOSIG=
201908051030 METAR LRBS 051030Z 30005KT 250V020 CAVOK 25/12 Q1015 NOSIG=
201908051100 METAR LRBS 051100Z 27006KT 230V330 CAVOK 26/11 Q1015 NOSIG=
201908051130 METAR LRBS 051130Z VRB03KT CAVOK 26/11 Q1015 NOSIG=
201908051200 METAR LRBS 051200Z 30004KT 240V010 CAVOK 26/10 Q1014 NOSIG=
201908051230 METAR LRBS 051230Z 27006KT 220V300 CAVOK 27/10 Q1014 NOSIG=
201908051300 METAR LRBS 051300Z 29003KT 230V350 CAVOK 28/10 Q1014 NOSIG=
201908051330 METAR LRBS 051330Z 26006KT CAVOK 28/11 Q1014 NOSIG=
201908051400 METAR LRBS 051400Z 32004KT 270V010 CAVOK 28/10 Q1013 NOSIG=
201908051430 METAR LRBS 051430Z VRB03KT CAVOK 28/10 Q1013 NOSIG=
201908051500 METAR LRBS 051500Z 32003KT 270V010 CAVOK 28/10 Q1013 NOSIG=
201908051530 METAR LRBS 051530Z 31004KT 260V360 CAVOK 28/10 Q1013 NOSIG=
201908051600 METAR LRBS 051600Z 36003KT 300V050 CAVOK 28/10 Q1013 NOSIG=
201908051630 METAR LRBS 051630Z VRB02KT CAVOK 27/10 Q1013 NOSIG=
201908051700 METAR LRBS 051700Z 04003KT 360V080 CAVOK 27/10 Q1014 NOSIG=
201908051730 METAR LRBS 051730Z 06003KT CAVOK 23/13 Q1014 NOSIG=
201908051800 METAR LRBS 051800Z 07002KT CAVOK 22/14 Q1014 NOSIG=
201908051830 METAR LRBS 051830Z 03002KT CAVOK 23/14 Q1014 NOSIG=
201908051900 METAR LRBS 051900Z 11004KT CAVOK 22/14 Q1015 NOSIG=
201908051930 METAR LRBS 051930Z 05003KT CAVOK 22/15 Q1015 NOSIG=
201908052000 METAR LRBS 052000Z 06007KT CAVOK 21/14 Q1015 NOSIG=
201908052030 METAR LRBS 052030Z 06005KT CAVOK 19/13 Q1015 NOSIG=
201908052100 METAR LRBS 052100Z 07005KT CAVOK 19/13 Q1015 NOSIG=
201908052130 METAR LRBS 052130Z 03003KT CAVOK 19/13 Q1015 NOSIG=
201908052200 METAR LRBS 052200Z 07003KT CAVOK 18/13 Q1015 NOSIG=
201908052230 METAR LRBS 052230Z 07002KT CAVOK 18/13 Q1015 NOSIG=
201908052300 METAR LRBS 052300Z 06001KT CAVOK 18/13 Q1015 NOSIG=
201908052330 METAR LRBS 052330Z AUTO 32001KT 9999 NCD 17/14 Q1015 NOSIG=
201908060000 METAR LRBS 060000Z VRB02KT CAVOK 17/14 Q1016 NOSIG=
201908060030 METAR LRBS 060030Z 00000KT CAVOK 16/14 Q1016 NOSIG=
201908060100 METAR LRBS 060100Z 30002KT CAVOK 16/14 Q1016 NOSIG=
201908060130 METAR LRBS 060130Z VRB01KT CAVOK 16/14 Q1016 NOSIG=
201908060200 METAR LRBS 060200Z 32003KT CAVOK 16/14 Q1016 NOSIG=
201908060230 METAR LRBS 060230Z VRB01KT CAVOK 15/14 Q1016 NOSIG=
201908060300 METAR LRBS 060300Z VRB01KT CAVOK 16/14 Q1016 NOSIG=
201908060330 METAR LRBS 060330Z VRB01KT CAVOK 16/13 Q1016 NOSIG=
201908060400 METAR LRBS 060400Z 00000KT CAVOK 16/13 Q1016 NOSIG=
201908060430 METAR LRBS 060430Z VRB01KT CAVOK 18/14 Q1016 NOSIG=
201908060500 METAR LRBS 060500Z VRB02KT CAVOK 20/14 Q1016 NOSIG=
201908060530 METAR LRBS 060530Z 00000KT CAVOK 21/14 Q1017 NOSIG=
201908060600 METAR LRBS 060600Z 00000KT CAVOK 23/14 Q1017 NOSIG=
201908060630 METAR LRBS 060630Z VRB01KT CAVOK 23/14 Q1017 NOSIG=
201908060700 METAR LRBS 060700Z VRB01KT CAVOK 24/13 Q1017 NOSIG=
201908060730 METAR LRBS 060730Z 06003KT CAVOK 25/14 Q1017 NOSIG=
201908060800 METAR LRBS 060800Z VRB01KT CAVOK 26/15 Q1017 NOSIG=
201908060830 METAR LRBS 060830Z VRB04KT CAVOK 26/12 Q1017 NOSIG=
201908060900 METAR LRBS 060900Z AUTO 16005KT 120V250 9000 NCD 27/13 Q1017
                        NOSIG=
201908060930 METAR LRBS 060930Z 18005KT 120V220 CAVOK 27/14 Q1017 NOSIG=
201908061000 METAR LRBS 061000Z 24007KT 210V280 CAVOK 28/12 Q1017 NOSIG=
201908061030 METAR LRBS 061030Z 27004KT CAVOK 28/14 Q1017 NOSIG=
201908061100 METAR LRBS 061100Z 26006KT 220V290 CAVOK 28/13 Q1016 NOSIG=
201908061130 METAR LRBS 061130Z 26007KT 190V310 CAVOK 29/12 Q1016 NOSIG=
201908061200 METAR LRBS 061200Z 27007KT 230V020 CAVOK 29/12 Q1016 NOSIG=
201908061230 METAR LRBS 061230Z 27004KT 240V320 CAVOK 30/12 Q1016 NOSIG=
201908061300 METAR LRBS 061300Z 27005KT 220V330 CAVOK 30/12 Q1016 NOSIG=
201908061330 METAR LRBS 061330Z 27005KT 240V310 CAVOK 29/12 Q1015 NOSIG=
201908061400 METAR LRBS 061400Z AUTO VRB02KT 9999 FEW077/// 30/11 Q1015
                        NOSIG=
201908061430 METAR COR LRBS 061430Z 31003KT 240V020 CAVOK 30/12 Q1015
                        NOSIG=
201908061500 METAR LRBS 061500Z 34004KT 270V010 CAVOK 30/12 Q1015 NOSIG=
201908061530 METAR COR LRBS 061530Z 28004KT 250V340 CAVOK 30/11 Q1015
                        NOSIG=
201908061600 METAR LRBS 061600Z 29002KT CAVOK 30/11 Q1015 NOSIG=
201908061630 METAR LRBS 061630Z VRB01KT CAVOK 29/12 Q1015 NOSIG=
201908061700 METAR LRBS 061700Z 01001KT CAVOK 29/13 Q1015 NOSIG=
201908061730 METAR LRBS 061730Z 01002KT CAVOK 25/14 Q1015 NOSIG=
201908061800 METAR LRBS 061800Z 00000KT 9000 NSC 24/15 Q1015 NOSIG=
201908061830 METAR LRBS 061830Z 07002KT 9000 NSC 23/15 Q1015 NOSIG=
201908061900 METAR LRBS 061900Z 07002KT 9000 NSC 22/15 Q1015 NOSIG=
201908061930 METAR LRBS 061930Z 07002KT CAVOK 22/15 Q1015 NOSIG=
201908062000 METAR LRBS 062000Z 07001KT CAVOK 22/15 Q1015 NOSIG=
201908062030 METAR LRBS 062030Z 00000KT CAVOK 21/16 Q1015 NOSIG=
201908062100 METAR LRBS 062100Z 00000KT CAVOK 21/16 Q1015 NOSIG=
201908062130 METAR LRBS 062130Z 00000KT 9000 NSC 20/16 Q1015 NOSIG=
201908062200 METAR LRBS 062200Z VRB01KT 9000 NSC 19/16 Q1016 NOSIG=
201908062230 METAR LRBS 062230Z 00000KT CAVOK 19/16 Q1016 NOSIG=
201908062300 METAR LRBS 062300Z 00000KT CAVOK 18/15 Q1016 NOSIG=
201908062330 METAR LRBS 062330Z 00000KT CAVOK 18/15 Q1016 NOSIG=
201908070000 METAR LRBS 070000Z 00000KT CAVOK 18/15 Q1015 NOSIG=
201908070030 METAR LRBS 070030Z 29001KT CAVOK 17/15 Q1015 NOSIG=
201908070100 METAR LRBS 070100Z 29001KT CAVOK 17/15 Q1015 NOSIG=
201908070130 METAR LRBS 070130Z 29001KT CAVOK 17/15 Q1015 NOSIG=
201908070200 METAR LRBS 070200Z VRB01KT 9000 NSC 16/15 Q1015 NOSIG=
201908070230 METAR LRBS 070230Z 00000KT 9000 NSC 16/15 Q1015 NOSIG=
201908070300 METAR LRBS 070300Z 28002KT CAVOK 16/14 Q1015 NOSIG=
201908070330 METAR LRBS 070330Z 25001KT 9000 MIFG NSC 16/14 Q1015 NOSIG=
201908070400 METAR LRBS 070400Z 25001KT CAVOK 17/14 Q1016 NOSIG=
201908070430 METAR LRBS 070430Z 00000KT CAVOK 18/15 Q1016 NOSIG=
201908070500 METAR LRBS 070500Z VRB01KT CAVOK 19/14 Q1016 NOSIG=
201908070530 METAR LRBS 070530Z VRB02KT CAVOK 21/16 Q1016 NOSIG=
201908070600 METAR LRBS 070600Z VRB01KT CAVOK 22/15 Q1016 NOSIG=
201908070630 METAR LRBS 070630Z 22004KT 190V260 CAVOK 24/15 Q1016 NOSIG=
201908070700 METAR LRBS 070700Z 22004KT 190V260 CAVOK 24/15 Q1016 NOSIG=
201908070730 METAR COR LRBS 070730Z 23004KT CAVOK 27/15 Q1017 NOSIG=
201908070800 METAR LRBS 070800Z 21004KT 170V280 CAVOK 29/14 Q1016 NOSIG=
201908070830 METAR LRBS 070830Z 27005KT 220V300 CAVOK 29/13 Q1016 NOSIG=
201908070900 METAR LRBS 070900Z 22005KT 170V280 CAVOK 30/12 Q1016 NOSIG=
201908070930 METAR LRBS 070930Z 22005KT CAVOK 30/11 Q1016 NOSIG=
201908071000 METAR LRBS 071000Z 25004KT 170V300 CAVOK 31/12 Q1016 NOSIG=
201908071030 METAR LRBS 071030Z 25004KT 210V280 CAVOK 31/11 Q1016 NOSIG=
201908071100 METAR LRBS 071100Z 21004KT 160V270 CAVOK 31/13 Q1015 NOSIG=
201908071130 METAR LRBS 071130Z 26006KT 240V300 CAVOK 32/12 Q1015 NOSIG=
201908071200 METAR LRBS 071200Z 27006KT 220V320 CAVOK 32/13 Q1015 NOSIG=
201908071230 METAR LRBS 071230Z 23005KT 190V260 CAVOK 32/12 Q1015 NOSIG=
201908071300 METAR LRBS 071300Z VRB01KT CAVOK 32/11 Q1014 NOSIG=
201908071330 METAR LRBS 071330Z 26007KT 230V300 CAVOK 33/13 Q1014 NOSIG=
201908071400 METAR COR LRBS 071400Z 20005KT 140V230 CAVOK 32/11 Q1014
                        NOSIG=
201908071430 METAR LRBS 071430Z 19004KT 150V220 CAVOK 33/11 Q1014 NOSIG=
201908071500 METAR LRBS 071500Z 27004KT 240V300 CAVOK 33/13 Q1013 NOSIG=
201908071530 METAR LRBS 071530Z 22005KT 120V260 CAVOK 32/12 Q1013 NOSIG=
201908071600 METAR LRBS 071600Z 24003KT CAVOK 32/11 Q1013 NOSIG=
201908071630 METAR LRBS 071630Z VRB02KT CAVOK 32/12 Q1013 NOSIG=
201908071700 METAR COR LRBS 071700Z 16003KT CAVOK 30/12 Q1013 NOSIG=
201908071730 METAR LRBS 071730Z 17002KT CAVOK 30/12 Q1013 NOSIG=
201908071800 METAR LRBS 071800Z 00000KT CAVOK 27/13 Q1013 NOSIG=
201908071830 METAR COR LRBS 071830Z 07002KT CAVOK 26/13 Q1013 NOSIG=
201908071900 METAR LRBS 071900Z 06003KT CAVOK 25/15 Q1013 NOSIG=
201908071930 METAR LRBS 071930Z 07002KT CAVOK 24/15 Q1013 NOSIG=
201908072000 METAR LRBS 072000Z 00000KT CAVOK 25/16 Q1013 NOSIG=
201908072030 METAR LRBS 072030Z 08002KT CAVOK 24/15 Q1013 NOSIG=
201908072100 METAR LRBS 072100Z 15003KT 120V180 CAVOK 25/13 Q1013 NOSIG=
201908072130 METAR LRBS 072130Z 15004KT CAVOK 25/14 Q1014 NOSIG=
201908072200 METAR LRBS 072200Z 16007KT CAVOK 25/14 Q1014 NOSIG=
201908072230 METAR LRBS 072230Z 17005KT CAVOK 25/14 Q1014 NOSIG=
201908072300 METAR LRBS 072300Z VRB02KT CAVOK 24/14 Q1013 NOSIG=
201908072330 METAR LRBS 072330Z 00000KT CAVOK 23/14 Q1013 NOSIG=
201908080000 METAR LRBS 080000Z VRB01KT CAVOK 22/15 Q1013 NOSIG=
201908080030 METAR LRBS 080030Z 00000KT CAVOK 20/15 Q1013 NOSIG=
201908080100 METAR LRBS 080100Z 31002KT CAVOK 19/15 Q1013 NOSIG=
201908080130 METAR LRBS 080130Z 32003KT CAVOK 19/15 Q1013 NOSIG=
201908080200 METAR LRBS 080200Z 00000KT CAVOK 19/15 Q1013 NOSIG=
201908080230 METAR LRBS 080230Z 07003KT CAVOK 17/15 Q1013 NOSIG=
201908080300 METAR LRBS 080300Z 10002KT CAVOK 18/15 Q1013 NOSIG=
201908080330 METAR LRBS 080330Z 08001KT CAVOK 18/15 Q1013 NOSIG=
201908080400 METAR LRBS 080400Z 07002KT CAVOK 19/15 Q1013 NOSIG=
201908080430 METAR LRBS 080430Z 10001KT CAVOK 21/17 Q1013 NOSIG=
201908080500 METAR LRBS 080500Z 00000KT CAVOK 23/16 Q1014 NOSIG=
201908080530 METAR LRBS 080530Z 19003KT 140V220 CAVOK 24/14 Q1014 NOSIG=
201908080600 METAR LRBS 080600Z 19004KT 150V230 CAVOK 25/14 Q1014 NOSIG=
201908080630 METAR LRBS 080630Z 19003KT 160V230 CAVOK 26/14 Q1013 NOSIG=
201908080700 METAR LRBS 080700Z 23003KT 210V270 CAVOK 27/14 Q1014 NOSIG=
201908080730 METAR LRBS 080730Z VRB02KT CAVOK 28/15 Q1014 NOSIG=
201908080800 METAR LRBS 080800Z VRB01KT CAVOK 30/15 Q1014 NOSIG=
201908080830 METAR LRBS 080830Z VRB01KT CAVOK 30/14 Q1014 NOSIG=
201908080900 METAR LRBS 080900Z 22003KT 190V280 CAVOK 31/15 Q1013 NOSIG=
201908080930 METAR COR LRBS 080930Z VRB03KT CAVOK 32/15 Q1013 NOSIG=
201908081000 METAR LRBS 081000Z 21004KT 100V250 CAVOK 32/15 Q1013 NOSIG=
201908081030 METAR LRBS 081030Z VRB02KT CAVOK 33/14 Q1013 NOSIG=
201908081100 METAR LRBS 081100Z VRB02KT CAVOK 33/14 Q1013 NOSIG=
201908081130 METAR LRBS 081130Z VRB03KT CAVOK 34/14 Q1012 NOSIG=
201908081200 METAR LRBS 081200Z VRB02KT CAVOK 34/14 Q1012 NOSIG=
201908081230 METAR LRBS 081230Z VRB02KT CAVOK 34/13 Q1012 NOSIG=
201908081300 METAR LRBS 081300Z VRB03KT CAVOK 35/14 Q1012 NOSIG=
201908081330 METAR LRBS 081330Z 28005KT 190V320 CAVOK 35/14 Q1011 NOSIG=
201908081400 METAR LRBS 081400Z VRB04KT CAVOK 35/14 Q1011 NOSIG=
201908081430 METAR LRBS 081430Z 30004KT 260V350 CAVOK 35/15 Q1011 NOSIG=
201908081500 METAR LRBS 081500Z VRB02KT CAVOK 35/14 Q1011 NOSIG=
201908081530 METAR LRBS 081530Z VRB02KT CAVOK 34/14 Q1011 NOSIG=
201908081600 METAR LRBS 081600Z 23003KT 170V290 CAVOK 35/15 Q1011 NOSIG=
201908081630 METAR LRBS 081630Z VRB02KT CAVOK 33/16 Q1011 NOSIG=
201908081700 METAR LRBS 081700Z 05003KT 010V070 CAVOK 30/18 Q1011 NOSIG=
201908081730 METAR LRBS 081730Z 06003KT CAVOK 29/18 Q1011 NOSIG=
201908081800 METAR LRBS 081800Z 10004KT CAVOK 30/16 Q1011 NOSIG=
201908081830 METAR LRBS 081830Z 08002KT CAVOK 27/17 Q1011 NOSIG=
201908081900 METAR LRBS 081900Z 07004KT CAVOK 26/18 Q1012 NOSIG=
201908081930 METAR LRBS 081930Z 06003KT CAVOK 26/17 Q1012 NOSIG=
201908082000 METAR LRBS 082000Z 04002KT CAVOK 26/17 Q1012 NOSIG=
201908082030 METAR LRBS 082030Z 05003KT CAVOK 25/17 Q1012 NOSIG=
201908082100 METAR LRBS 082100Z 04003KT CAVOK 24/17 Q1012 NOSIG=
201908082130 METAR LRBS 082130Z 00000KT CAVOK 24/18 Q1012 NOSIG=
201908082200 METAR LRBS 082200Z AUTO 08001KT 9999 NCD 22/18 Q1012 NOSIG=
201908082230 METAR LRBS 082230Z 03002KT CAVOK 23/18 Q1012 NOSIG=
201908082300 METAR LRBS 082300Z 32002KT CAVOK 22/17 Q1012 NOSIG=
201908082330 METAR LRBS 082330Z VRB01KT CAVOK 22/17 Q1012 NOSIG=
201908090000 METAR LRBS 090000Z 07001KT CAVOK 21/17 Q1012 NOSIG=
201908090030 METAR LRBS 090030Z 10002KT CAVOK 20/17 Q1012 NOSIG=
201908090100 METAR LRBS 090100Z 08001KT CAVOK 21/17 Q1012 NOSIG=
201908090130 METAR LRBS 090130Z 07002KT CAVOK 20/17 Q1012 NOSIG=
201908090200 METAR LRBS 090200Z VRB02KT CAVOK 20/17 Q1012 NOSIG=
201908090230 METAR LRBS 090230Z 36001KT CAVOK 20/17 Q1012 NOSIG=
201908090300 METAR LRBS 090300Z 02002KT CAVOK 19/17 Q1012 NOSIG=
201908090330 METAR LRBS 090330Z 00000KT CAVOK 19/17 Q1012 NOSIG=
201908090400 METAR LRBS 090400Z 06002KT CAVOK 19/17 Q1012 NOSIG=
201908090430 METAR LRBS 090430Z 03003KT CAVOK 21/18 Q1013 NOSIG=
201908090500 METAR LRBS 090500Z VRB01KT CAVOK 22/18 Q1013 NOSIG=
201908090530 METAR LRBS 090530Z 06005KT CAVOK 23/18 Q1013 NOSIG=
201908090600 METAR LRBS 090600Z 06004KT CAVOK 24/18 Q1013 NOSIG=
201908090630 METAR LRBS 090630Z 06006KT CAVOK 25/18 Q1013 NOSIG=
201908090700 METAR LRBS 090700Z 05006KT 010V080 CAVOK 26/19 Q1013 NOSIG=
201908090730 METAR LRBS 090730Z 33007KT CAVOK 26/19 Q1014 NOSIG=
201908090800 METAR LRBS 090800Z 01008KT 340V040 CAVOK 26/19 Q1014 NOSIG=
201908090830 METAR LRBS 090830Z 02008KT 350V060 CAVOK 27/20 Q1014 NOSIG=
201908090900 METAR LRBS 090900Z 02008KT CAVOK 28/19 Q1013 NOSIG=
201908090930 METAR LRBS 090930Z 05007KT CAVOK 29/19 Q1013 TEMPO VRB20KT
                        5000 -TSRA SCT050CB=
201908091000 METAR LRBS 091000Z 02004KT 340V070 9999 FEW050CB 30/19 Q1014
                        TEMPO VRB20KT 5000 -TSRA SCT050CB=
201908091030 METAR COR LRBS 091030Z 29007KT 230V340 9999 -SHRA SCT050CB
                        28/20 Q1015 R07/19//95 NOSIG=
201908091100 METAR LRBS 091100Z 26009KT 9999 -SHRA SCT050CB 24/20 Q1014
                        R07/29//95 NOSIG=
201908091130 METAR LRBS 091130Z 27005KT 230V340 9999 SCT050CB 25/20 Q1014
                        R07/29//95 BECMG NSC=
201908091200 METAR LRBS 091200Z VRB02KT 9999 FEW050CB 28/20 Q1013 R07/29//95
                        NOSIG=
201908091230 METAR LRBS 091230Z 06003KT 360V110 CAVOK 29/20 Q1013 R07/19//95
                        NOSIG=
201908091300 METAR LRBS 091300Z 07004KT 030V110 CAVOK 29/20 Q1012 R07/19//95
                        NOSIG=
201908091330 METAR LRBS 091330Z 04006KT 360V070 CAVOK 29/19 Q1012 R07/CLRD//
                        NOSIG=
201908091400 METAR LRBS 091400Z 05005KT 020V090 CAVOK 30/19 Q1012 NOSIG=
201908091430 METAR LRBS 091430Z 01004KT CAVOK 31/17 Q1012 NOSIG=
201908091500 METAR LRBS 091500Z VRB02KT CAVOK 31/17 Q1012 NOSIG=
201908091530 METAR LRBS 091530Z 00000KT CAVOK 31/18 Q1012 NOSIG=
201908091600 METAR LRBS 091600Z 03003KT 360V100 CAVOK 30/18 Q1012 NOSIG=
201908091630 METAR LRBS 091630Z 00000KT CAVOK 31/17 Q1012 NOSIG=
201908091700 METAR LRBS 091700Z 05002KT CAVOK 30/18 Q1012 NOSIG=
201908091730 METAR LRBS 091730Z 04001KT CAVOK 28/19 Q1012 NOSIG=
201908091800 METAR LRBS 091800Z 01002KT 9000 NSC 27/20 Q1012 NOSIG=
201908091830 METAR LRBS 091830Z 00000KT CAVOK 25/19 Q1013 NOSIG=
201908091900 METAR LRBS 091900Z 00000KT CAVOK 24/19 Q1013 NOSIG=
201908091930 METAR LRBS 091930Z 00000KT 9000 NSC 25/20 Q1013 NOSIG=
201908092000 METAR LRBS 092000Z 00000KT CAVOK 24/19 Q1013 NOSIG=
201908092030 METAR LRBS 092030Z 02002KT 9000 NSC 23/19 Q1013 NOSIG=
201908092100 METAR LRBS 092100Z 03002KT 9000 NSC 22/18 Q1013 NOSIG=
201908092130 METAR LRBS 092130Z 26001KT CAVOK 23/19 Q1013 NOSIG=
201908092200 METAR LRBS 092200Z VRB01KT CAVOK 22/19 Q1014 NOSIG=
201908092230 METAR LRBS 092230Z 01004KT CAVOK 23/19 Q1014 NOSIG=
201908092300 METAR LRBS 092300Z 00000KT CAVOK 22/19 Q1014 NOSIG=
201908092330 METAR LRBS 092330Z 05002KT CAVOK 22/18 Q1014 NOSIG=
201908100000 METAR LRBS 100000Z 00000KT CAVOK 22/18 Q1014 NOSIG=
201908100030 METAR LRBS 100030Z 00000KT CAVOK 22/18 Q1014 NOSIG=
201908100100 METAR LRBS 100100Z 08003KT CAVOK 20/18 Q1014 NOSIG=
201908100130 METAR LRBS 100130Z 08003KT CAVOK 21/18 Q1014 NOSIG=
201908100200 METAR LRBS 100200Z 06004KT CAVOK 21/17 Q1014 NOSIG=
201908100230 METAR LRBS 100230Z 07007KT CAVOK 21/18 Q1014 NOSIG=
201908100300 METAR LRBS 100300Z 07007KT CAVOK 21/18 Q1015 NOSIG=
201908100330 METAR LRBS 100330Z 06007KT CAVOK 21/17 Q1015 NOSIG=
201908100400 METAR LRBS 100400Z 07006KT CAVOK 21/17 Q1015 NOSIG=
201908100430 METAR LRBS 100430Z 06006KT CAVOK 22/18 Q1016 NOSIG=
201908100500 METAR LRBS 100500Z 06008KT CAVOK 23/18 Q1016 NOSIG=
201908100530 METAR LRBS 100530Z 07008KT CAVOK 23/18 Q1016 NOSIG=
201908100600 METAR LRBS 100600Z 07008KT CAVOK 24/18 Q1017 NOSIG=
201908100630 METAR LRBS 100630Z 06011KT CAVOK 25/18 Q1017 NOSIG=
201908100700 METAR LRBS 100700Z 07011KT CAVOK 27/19 Q1017 NOSIG=
201908100730 METAR LRBS 100730Z 07010KT CAVOK 28/18 Q1017 NOSIG=
201908100800 METAR LRBS 100800Z 07010KT 020V090 CAVOK 28/18 Q1017 NOSIG=
201908100830 METAR LRBS 100830Z 05009KT CAVOK 28/17 Q1017 NOSIG=
201908100900 METAR LRBS 100900Z 07007KT 040V110 CAVOK 29/17 Q1017 NOSIG=
201908100930 METAR LRBS 100930Z 08007KT CAVOK 30/17 Q1017 NOSIG=
201908101000 METAR LRBS 101000Z 05005KT 020V090 CAVOK 30/16 Q1017 NOSIG=
201908101030 METAR COR LRBS 101030Z 09006KT 050V120 CAVOK 31/16 Q1016
                        NOSIG=
201908101100 METAR LRBS 101100Z 09007KT CAVOK 31/15 Q1016 NOSIG=
201908101130 METAR LRBS 101130Z 09006KT 070V150 CAVOK 32/16 Q1016 NOSIG=
201908101200 METAR COR LRBS 101200Z 10006KT 060V140 9999 FEW010 32/16
                        Q1016 NOSIG=
201908101230 METAR LRBS 101230Z VRB02KT CAVOK 32/15 Q1015 NOSIG=
201908101300 METAR LRBS 101300Z VRB02KT CAVOK 32/16 Q1015 NOSIG=
201908101330 METAR LRBS 101330Z VRB03KT CAVOK 32/15 Q1015 NOSIG=
201908101400 METAR LRBS 101400Z 28003KT 220V020 9999 FEW010 32/16 Q1015
                        NOSIG=
201908101430 METAR LRBS 101430Z 01005KT 320V050 CAVOK 33/16 Q1015 NOSIG=
201908101500 METAR LRBS 101500Z 02003KT 340V060 CAVOK 32/15 Q1015 NOSIG=
201908101530 METAR COR LRBS 101530Z 04003KT 350V080 CAVOK 32/14 Q1015
                        NOSIG=
201908101600 METAR LRBS 101600Z VRB02KT CAVOK 32/15 Q1015 NOSIG=
201908101630 METAR LRBS 101630Z 02003KT CAVOK 31/15 Q1015 NOSIG=
201908101700 METAR LRBS 101700Z 03003KT CAVOK 30/16 Q1015 NOSIG=
201908101730 METAR LRBS 101730Z 02004KT CAVOK 29/17 Q1016 NOSIG=
201908101800 METAR LRBS 101800Z 02004KT CAVOK 28/16 Q1016 NOSIG=
201908101830 METAR LRBS 101830Z 04002KT CAVOK 25/18 Q1016 NOSIG=
201908101900 METAR LRBS 101900Z VRB02KT CAVOK 26/17 Q1017 NOSIG=
201908101930 METAR LRBS 101930Z 09001KT CAVOK 25/17 Q1016 NOSIG=
201908102000 METAR LRBS 102000Z 06002KT CAVOK 25/17 Q1016 NOSIG=
201908102030 METAR LRBS 102030Z 08004KT CAVOK 23/18 Q1017 NOSIG=
201908102100 METAR LRBS 102100Z 07003KT CAVOK 23/17 Q1017 NOSIG=
201908102130 METAR LRBS 102130Z 12005KT 090V160 CAVOK 25/17 Q1017 NOSIG=
201908102200 METAR LRBS 102200Z 15007KT CAVOK 26/16 Q1017 NOSIG=
201908102230 METAR LRBS 102230Z 14004KT CAVOK 25/16 Q1017 NOSIG=
201908102300 METAR LRBS 102300Z 12004KT CAVOK 24/16 Q1017 NOSIG=
201908102330 METAR LRBS 102330Z 11003KT CAVOK 23/16 Q1016 NOSIG=
201908110000 METAR LRBS 110000Z 07002KT CAVOK 22/15 Q1016 NOSIG=
201908110030 METAR LRBS 110030Z 07001KT CAVOK 22/15 Q1016 NOSIG=
201908110100 METAR LRBS 110100Z 00000KT CAVOK 21/16 Q1016 NOSIG=
201908110130 METAR LRBS 110130Z 32002KT CAVOK 21/16 Q1016 NOSIG=
201908110200 METAR LRBS 110200Z 00000KT CAVOK 20/16 Q1016 NOSIG=
201908110230 METAR LRBS 110230Z VRB02KT CAVOK 20/17 Q1017 NOSIG=
201908110300 METAR LRBS 110300Z VRB01KT 9000 NSC 19/16 Q1017 NOSIG=
201908110330 METAR LRBS 110330Z 00000KT CAVOK 19/16 Q1017 NOSIG=
201908110400 METAR LRBS 110400Z 05001KT CAVOK 19/16 Q1017 NOSIG=
201908110430 METAR LRBS 110430Z VRB01KT CAVOK 21/17 Q1017 NOSIG=
201908110500 METAR COR LRBS 110500Z 07002KT CAVOK 22/17 Q1018 NOSIG=
201908110530 METAR COR LRBS 110530Z 05003KT CAVOK 24/17 Q1018 NOSIG=
201908110600 METAR LRBS 110600Z 08003KT 050V120 CAVOK 25/16 Q1018 NOSIG=
201908110630 METAR LRBS 110630Z VRB02KT CAVOK 26/16 Q1018 NOSIG=
201908110700 METAR COR LRBS 110700Z VRB01KT CAVOK 28/15 Q1018 NOSIG=
201908110730 METAR LRBS 110730Z VRB01KT CAVOK 29/15 Q1018 NOSIG=
201908110800 METAR LRBS 110800Z VRB02KT CAVOK 30/13 Q1018 NOSIG=
201908110830 METAR LRBS 110830Z 14004KT 060V210 CAVOK 31/15 Q1018 NOSIG=
201908110900 METAR LRBS 110900Z 17004KT 130V210 CAVOK 31/14 Q1018 NOSIG=
201908110930 METAR LRBS 110930Z 17005KT 110V210 CAVOK 31/14 Q1018 NOSIG=
201908111000 METAR LRBS 111000Z 12005KT 060V220 CAVOK 32/13 Q1018 NOSIG=
201908111030 METAR LRBS 111030Z 12005KT 030V190 CAVOK 33/14 Q1018 NOSIG=
201908111100 METAR LRBS 111100Z VRB01KT CAVOK 33/13 Q1017 NOSIG=
201908111130 METAR LRBS 111130Z 16005KT 120V190 CAVOK 33/14 Q1017 NOSIG=
201908111200 METAR LRBS 111200Z VRB03KT CAVOK 33/13 Q1017 NOSIG=
201908111230 METAR LRBS 111230Z VRB03KT CAVOK 34/13 Q1017 NOSIG=
201908111300 METAR LRBS 111300Z 22004KT 140V280 CAVOK 34/14 Q1016 NOSIG=
201908111330 METAR LRBS 111330Z VRB02KT CAVOK 35/14 Q1016 NOSIG=
201908111400 METAR LRBS 111400Z 11004KT 040V170 CAVOK 35/13 Q1016 NOSIG=
201908111430 METAR LRBS 111430Z VRB01KT CAVOK 35/14 Q1016 NOSIG=
201908111500 METAR LRBS 111500Z 28003KT 220V030 CAVOK 34/13 Q1016 NOSIG=
201908111530 METAR LRBS 111530Z VRB02KT CAVOK 34/13 Q1015 NOSIG=
201908111600 METAR LRBS 111600Z 02003KT CAVOK 34/14 Q1015 NOSIG=
201908111630 METAR COR LRBS 111630Z 05003KT CAVOK 32/17 Q1016 NOSIG=
201908111700 METAR LRBS 111700Z 05003KT CAVOK 31/18 Q1016 NOSIG=
201908111730 METAR LRBS 111730Z 07003KT CAVOK 29/18 Q1016 NOSIG=
201908111800 METAR LRBS 111800Z 07002KT CAVOK 28/17 Q1016 NOSIG=
201908111830 METAR LRBS 111830Z 06002KT CAVOK 27/17 Q1016 NOSIG=
201908111900 METAR LRBS 111900Z 01001KT CAVOK 27/17 Q1016 NOSIG=
201908111930 METAR LRBS 111930Z 04002KT CAVOK 25/18 Q1016 NOSIG=
201908112000 METAR COR LRBS 112000Z 04002KT CAVOK 24/18 Q1016 NOSIG=
201908112030 METAR LRBS 112030Z 00000KT CAVOK 24/17 Q1016 NOSIG=
201908112100 METAR LRBS 112100Z 07004KT CAVOK 22/17 Q1017 NOSIG=
201908112130 METAR LRBS 112130Z 11003KT 080V140 CAVOK 23/16 Q1017 NOSIG=
201908112200 METAR LRBS 112200Z 11003KT 070V150 CAVOK 26/13 Q1017 NOSIG=
201908112230 METAR LRBS 112230Z 00000KT CAVOK 26/13 Q1017 NOSIG=
201908112300 METAR LRBS 112300Z 18004KT 130V210 CAVOK 25/12 Q1017 NOSIG=
201908112330 METAR LRBS 112330Z VRB01KT CAVOK 25/12 Q1017 NOSIG=
201908120000 METAR LRBS 120000Z VRB01KT CAVOK 24/11 Q1017 NOSIG=
201908120030 METAR LRBS 120030Z VRB02KT CAVOK 22/14 Q1017 NOSIG=
201908120100 METAR LRBS 120100Z 02001KT CAVOK 20/15 Q1017 NOSIG=
201908120130 METAR LRBS 120130Z 06001KT CAVOK 19/15 Q1017 NOSIG=
201908120200 METAR LRBS 120200Z 00000KT CAVOK 19/15 Q1017 NOSIG=
201908120230 METAR LRBS 120230Z 03001KT CAVOK 19/15 Q1017 NOSIG=
201908120300 METAR LRBS 120300Z 03002KT CAVOK 19/15 Q1017 NOSIG=
201908120330 METAR LRBS 120330Z 04002KT CAVOK 19/14 Q1017 NOSIG=
201908120400 METAR LRBS 120400Z 03001KT CAVOK 19/14 Q1017 NOSIG=
201908120430 METAR LRBS 120430Z 05001KT CAVOK 20/15 Q1018 NOSIG=
201908120500 METAR LRBS 120500Z VRB02KT CAVOK 22/15 Q1018 NOSIG=
201908120530 METAR LRBS 120530Z 08003KT CAVOK 23/15 Q1018 NOSIG=
201908120600 METAR LRBS 120600Z 07003KT CAVOK 25/15 Q1018 NOSIG=
201908120630 METAR LRBS 120630Z 06004KT 030V090 CAVOK 27/14 Q1018 NOSIG=
201908120700 METAR LRBS 120700Z 02004KT 340V070 CAVOK 28/13 Q1018 NOSIG=
201908120730 METAR LRBS 120730Z 05004KT 360V090 CAVOK 29/12 Q1018 NOSIG=
201908120800 METAR LRBS 120800Z 07003KT 020V110 CAVOK 30/12 Q1018 NOSIG=
201908120830 METAR LRBS 120830Z VRB02KT CAVOK 31/11 Q1018 NOSIG=
201908120900 METAR LRBS 120900Z 03002KT CAVOK 31/12 Q1018 NOSIG=
201908120930 METAR LRBS 120930Z 07004KT 040V130 CAVOK 32/13 Q1018 NOSIG=
201908121000 METAR LRBS 121000Z 07005KT 360V150 CAVOK 32/12 Q1018 NOSIG=
201908121030 METAR LRBS 121030Z 11005KT 040V190 CAVOK 33/14 Q1017 NOSIG=
201908121100 METAR LRBS 121100Z 04005KT 350V140 CAVOK 33/14 Q1017 NOSIG=
201908121130 METAR LRBS 121130Z 13005KT 060V210 CAVOK 34/14 Q1017 NOSIG=
201908121200 METAR LRBS 121200Z 04005KT 350V110 CAVOK 34/14 Q1017 NOSIG=
201908121230 METAR LRBS 121230Z 15007KT 110V180 CAVOK 34/14 Q1016 NOSIG=
201908121300 METAR LRBS 121300Z 11007KT 070V170 CAVOK 34/14 Q1016 NOSIG=
201908121330 METAR LRBS 121330Z 13006KT 060V190 CAVOK 34/14 Q1016 NOSIG=
201908121400 METAR LRBS 121400Z 14007KT 110V180 CAVOK 34/15 Q1016 NOSIG=
201908121430 METAR LRBS 121430Z 12008KT 070V140 CAVOK 34/14 Q1015 NOSIG=
201908121500 METAR LRBS 121500Z 09008KT 060V130 CAVOK 34/14 Q1015 NOSIG=
201908121530 METAR LRBS 121530Z 09007KT CAVOK 34/14 Q1015 NOSIG=
201908121600 METAR LRBS 121600Z 09007KT CAVOK 33/14 Q1015 NOSIG=
201908121630 METAR LRBS 121630Z 07006KT CAVOK 33/16 Q1015 NOSIG=
201908121700 METAR LRBS 121700Z 07005KT CAVOK 30/16 Q1015 NOSIG=
201908121730 METAR LRBS 121730Z 04003KT CAVOK 30/16 Q1015 NOSIG=
201908121800 METAR LRBS 121800Z 05004KT CAVOK 28/17 Q1015 NOSIG=
201908121830 METAR LRBS 121830Z 05003KT CAVOK 26/17 Q1015 NOSIG=
201908121900 METAR LRBS 121900Z 08004KT CAVOK 26/15 Q1016 NOSIG=
201908121930 METAR LRBS 121930Z 10005KT CAVOK 27/13 Q1016 NOSIG=
201908122000 METAR LRBS 122000Z 11007KT CAVOK 28/12 Q1016 NOSIG=
201908122030 METAR LRBS 122030Z 11006KT CAVOK 27/13 Q1016 NOSIG=
201908122100 METAR LRBS 122100Z 10004KT CAVOK 26/12 Q1016 NOSIG=
201908122130 METAR LRBS 122130Z 12004KT CAVOK 27/12 Q1016 NOSIG=
201908122200 METAR LRBS 122200Z 07004KT CAVOK 23/13 Q1016 NOSIG=
201908122230 METAR LRBS 122230Z 06003KT CAVOK 22/13 Q1016 NOSIG=
201908122300 METAR LRBS 122300Z 06003KT CAVOK 22/14 Q1016 NOSIG=
201908122330 METAR LRBS 122330Z 05003KT CAVOK 21/14 Q1016 NOSIG=
201908130000 METAR LRBS 130000Z 05003KT CAVOK 20/14 Q1016 NOSIG=
201908130030 METAR LRBS 130030Z 35003KT CAVOK 20/15 Q1016 NOSIG=
201908130100 METAR LRBS 130100Z 01003KT CAVOK 20/14 Q1016 NOSIG=
201908130130 METAR LRBS 130130Z 36001KT CAVOK 19/14 Q1016 NOSIG=
201908130200 METAR LRBS 130200Z 03002KT CAVOK 19/14 Q1016 NOSIG=
201908130230 METAR LRBS 130230Z 03001KT CAVOK 18/14 Q1016 NOSIG=
201908130300 METAR LRBS 130300Z 00000KT CAVOK 18/14 Q1016 NOSIG=
201908130330 METAR LRBS 130330Z 02002KT CAVOK 18/14 Q1016 NOSIG=
201908130400 METAR LRBS 130400Z 00000KT CAVOK 20/14 Q1016 NOSIG=
201908130430 METAR LRBS 130430Z 06002KT CAVOK 21/16 Q1016 NOSIG=
201908130500 METAR LRBS 130500Z VRB02KT CAVOK 22/15 Q1016 NOSIG=
201908130530 METAR LRBS 130530Z VRB02KT CAVOK 23/15 Q1016 NOSIG=
201908130600 METAR LRBS 130600Z 07003KT CAVOK 25/15 Q1016 NOSIG=
201908130630 METAR LRBS 130630Z 06004KT CAVOK 26/15 Q1016 NOSIG=
201908130700 METAR LRBS 130700Z 02003KT 340V070 CAVOK 27/14 Q1016 NOSIG=
201908130730 METAR LRBS 130730Z VRB02KT CAVOK 28/13 Q1016 NOSIG=
201908130800 METAR LRBS 130800Z 12005KT 070V150 CAVOK 30/14 Q1016 NOSIG=
201908130830 METAR LRBS 130830Z 12005KT 060V180 CAVOK 30/14 Q1016 NOSIG=
201908130900 METAR LRBS 130900Z 10006KT 040V140 CAVOK 30/14 Q1015 NOSIG=
201908130930 METAR LRBS 130930Z 09008KT CAVOK 31/15 Q1015 NOSIG=
201908131000 METAR LRBS 131000Z 10007KT 020V150 CAVOK 31/16 Q1015 NOSIG=
201908131030 METAR LRBS 131030Z 12006KT 080V150 CAVOK 32/14 Q1015 NOSIG=
201908131100 METAR LRBS 131100Z 11007KT 050V170 CAVOK 32/15 Q1014 NOSIG=
201908131130 METAR LRBS 131130Z 13005KT 050V170 CAVOK 32/15 Q1014 NOSIG=
201908131200 METAR LRBS 131200Z 13005KT 050V170 CAVOK 32/15 Q1014 NOSIG=
201908131230 METAR LRBS 131230Z 08006KT 020V110 CAVOK 33/16 Q1013 NOSIG=
201908131300 METAR LRBS 131300Z 07008KT 010V100 CAVOK 34/17 Q1013 NOSIG=
201908131330 METAR LRBS 131330Z 14004KT 040V210 CAVOK 33/17 Q1013 NOSIG=
201908131400 METAR LRBS 131400Z 10009KT CAVOK 34/15 Q1013 NOSIG=
201908131430 METAR LRBS 131430Z 08007KT 040V140 CAVOK 33/17 Q1012 NOSIG=
201908131500 METAR LRBS 131500Z 07007KT 040V110 CAVOK 33/16 Q1012 NOSIG=
201908131530 METAR LRBS 131530Z 08007KT 050V110 CAVOK 33/16 Q1012 NOSIG=
201908131600 METAR LRBS 131600Z 09009KT 070V130 CAVOK 33/16 Q1012 NOSIG=
201908131630 METAR LRBS 131630Z 12010KT CAVOK 32/14 Q1012 NOSIG=
201908131700 METAR LRBS 131700Z 11009KT CAVOK 31/14 Q1012 NOSIG=
201908131730 METAR LRBS 131730Z 11009KT CAVOK 30/13 Q1012 NOSIG=
201908131800 METAR LRBS 131800Z 11008KT CAVOK 29/13 Q1012 NOSIG=
201908131830 METAR LRBS 131830Z 11007KT CAVOK 29/14 Q1013 NOSIG=
201908131900 METAR LRBS 131900Z 11008KT CAVOK 28/13 Q1013 NOSIG=
201908131930 METAR LRBS 131930Z 12007KT CAVOK 27/13 Q1013 NOSIG=
201908132000 METAR LRBS 132000Z 12008KT CAVOK 27/13 Q1013 NOSIG=
201908132030 METAR LRBS 132030Z 12006KT 090V150 CAVOK 27/13 Q1013 NOSIG=
201908132100 METAR LRBS 132100Z 13008KT CAVOK 26/13 Q1013 NOSIG=
201908132130 METAR LRBS 132130Z 13006KT CAVOK 25/13 Q1013 NOSIG=
201908132200 METAR LRBS 132200Z 12005KT CAVOK 25/13 Q1013 NOSIG=
201908132230 METAR LRBS 132230Z 05002KT CAVOK 22/14 Q1013 NOSIG=
201908132300 METAR LRBS 132300Z 36004KT CAVOK 22/15 Q1013 NOSIG=
201908132330 METAR LRBS 132330Z VRB02KT CAVOK 21/14 Q1013 NOSIG=
201908140000 METAR LRBS 140000Z 03003KT CAVOK 19/14 Q1013 NOSIG=
201908140030 METAR LRBS 140030Z 02001KT CAVOK 19/14 Q1013 NOSIG=
201908140100 METAR LRBS 140100Z 02003KT CAVOK 19/14 Q1013 NOSIG=
201908140130 METAR LRBS 140130Z 04002KT CAVOK 19/15 Q1012 NOSIG=
201908140200 METAR LRBS 140200Z 00000KT CAVOK 18/14 Q1012 NOSIG=
201908140230 METAR LRBS 140230Z 05002KT CAVOK 18/15 Q1012 NOSIG=
201908140300 METAR LRBS 140300Z 07002KT CAVOK 18/14 Q1012 NOSIG=
201908140330 METAR LRBS 140330Z 07002KT CAVOK 18/14 Q1012 NOSIG=
201908140400 METAR LRBS 140400Z 06003KT CAVOK 18/15 Q1012 NOSIG=
201908140430 METAR LRBS 140430Z 07003KT CAVOK 19/15 Q1012 NOSIG=
201908140500 METAR LRBS 140500Z 08004KT CAVOK 21/15 Q1012 NOSIG=
201908140530 METAR LRBS 140530Z 06003KT CAVOK 23/16 Q1012 NOSIG=
201908140600 METAR LRBS 140600Z 07004KT 040V100 CAVOK 24/16 Q1012 NOSIG=
201908140630 METAR LRBS 140630Z 09005KT 050V120 CAVOK 25/15 Q1012 NOSIG=
201908140700 METAR LRBS 140700Z 08005KT 050V110 CAVOK 26/14 Q1012 NOSIG=
201908140730 METAR LRBS 140730Z VRB03KT CAVOK 27/14 Q1012 NOSIG=
201908140800 METAR LRBS 140800Z VRB02KT CAVOK 28/12 Q1011 NOSIG=
201908140830 METAR LRBS 140830Z VRB02KT CAVOK 29/12 Q1011 NOSIG=
201908140900 METAR LRBS 140900Z 08004KT 020V140 CAVOK 29/12 Q1011 NOSIG=
201908140930 METAR LRBS 140930Z 12005KT 070V220 CAVOK 30/14 Q1010 NOSIG=
201908141000 METAR LRBS 141000Z VRB03KT CAVOK 30/12 Q1010 NOSIG=
201908141030 METAR LRBS 141030Z VRB02KT CAVOK 31/13 Q1010 NOSIG=
201908141100 METAR LRBS 141100Z VRB02KT CAVOK 31/12 Q1009 NOSIG=
201908141130 METAR LRBS 141130Z VRB02KT CAVOK 31/12 Q1009 NOSIG=
201908141200 METAR LRBS 141200Z 09003KT 050V190 CAVOK 31/12 Q1009 NOSIG=
201908141230 METAR LRBS 141230Z VRB04KT CAVOK 32/13 Q1009 NOSIG=
201908141300 METAR LRBS 141300Z 22003KT 160V310 CAVOK 32/12 Q1008 NOSIG=
201908141330 METAR LRBS 141330Z 01004KT 320V080 CAVOK 32/12 Q1008 NOSIG=
201908141400 METAR LRBS 141400Z 35004KT 300V060 CAVOK 32/12 Q1008 NOSIG=
201908141430 METAR LRBS 141430Z VRB02KT CAVOK 33/12 Q1007 NOSIG=
201908141500 METAR LRBS 141500Z 02003KT 340V070 CAVOK 33/13 Q1007 NOSIG=
201908141530 METAR LRBS 141530Z VRB02KT CAVOK 33/11 Q1007 NOSIG=
201908141600 METAR LRBS 141600Z VRB01KT CAVOK 33/12 Q1007 NOSIG=
201908141630 METAR LRBS 141630Z 28003KT CAVOK 32/12 Q1007 NOSIG=
201908141700 METAR LRBS 141700Z 29003KT CAVOK 31/12 Q1007 NOSIG=
201908141730 METAR LRBS 141730Z 29004KT CAVOK 28/13 Q1007 NOSIG=
201908141800 METAR LRBS 141800Z 28004KT CAVOK 27/13 Q1007 NOSIG=
201908141830 METAR LRBS 141830Z 00000KT CAVOK 25/15 Q1008 NOSIG=
201908141900 METAR LRBS 141900Z 09001KT CAVOK 24/15 Q1008 NOSIG=
201908141930 METAR LRBS 141930Z 00000KT CAVOK 25/15 Q1008 NOSIG=
201908142000 METAR LRBS 142000Z 00000KT CAVOK 24/15 Q1007 NOSIG=
201908142030 METAR LRBS 142030Z 00000KT CAVOK 24/15 Q1008 NOSIG=
201908142100 METAR LRBS 142100Z 00000KT CAVOK 23/15 Q1008 NOSIG=
201908142130 METAR LRBS 142130Z 24002KT CAVOK 23/16 Q1008 NOSIG=
201908142200 METAR LRBS 142200Z 31005KT 280V340 CAVOK 22/15 Q1008 NOSIG=
201908142230 METAR LRBS 142230Z VRB01KT CAVOK 22/14 Q1008 NOSIG=
201908142300 METAR LRBS 142300Z VRB01KT CAVOK 21/15 Q1008 NOSIG=
201908142330 METAR LRBS 142330Z 25006KT CAVOK 23/14 Q1008 NOSIG=
201908150000 METAR LRBS 150000Z 26004KT CAVOK 22/14 Q1008 NOSIG=
201908150030 METAR LRBS 150030Z 25005KT CAVOK 22/15 Q1008 NOSIG=
201908150100 METAR LRBS 150100Z 26003KT CAVOK 21/15 Q1008 NOSIG=
201908150130 METAR LRBS 150130Z VRB02KT CAVOK 21/16 Q1008 NOSIG=
201908150200 METAR LRBS 150200Z VRB03KT CAVOK 21/16 Q1009 NOSIG=
201908150230 METAR LRBS 150230Z 08005KT 050V110 CAVOK 19/16 Q1009 NOSIG=
201908150300 METAR LRBS 150300Z 12008KT CAVOK 22/16 Q1010 NOSIG=
201908150330 METAR LRBS 150330Z 14007KT 100V170 CAVOK 22/16 Q1010 NOSIG=
201908150400 METAR LRBS 150400Z 11008KT CAVOK 21/16 Q1010 NOSIG=
201908150430 METAR LRBS 150430Z 12009KT CAVOK 21/15 Q1011 NOSIG=
201908150500 METAR LRBS 150500Z 13010KT CAVOK 21/15 Q1011 NOSIG=
201908150530 METAR LRBS 150530Z 11008KT CAVOK 22/15 Q1011 NOSIG=
201908150600 METAR LRBS 150600Z 11010KT CAVOK 22/15 Q1011 NOSIG=
201908150630 METAR LRBS 150630Z 09009KT 060V120 CAVOK 23/15 Q1012 NOSIG=
201908150700 METAR LRBS 150700Z 12011KT 9999 FEW031 23/15 Q1012 NOSIG=
201908150730 METAR LRBS 150730Z 08010KT CAVOK 24/15 Q1012 NOSIG=
201908150800 METAR LRBS 150800Z 10010KT 060V130 9999 FEW042 24/15 Q1012
                        NOSIG=
201908150830 METAR LRBS 150830Z 10008KT 060V130 9999 BKN038 24/14 Q1012
                        NOSIG=
201908150900 METAR LRBS 150900Z 11008KT 9999 BKN038 24/14 Q1012 NOSIG=
201908150930 METAR LRBS 150930Z 10009KT 070V130 9999 BKN040 OVC057 24/14
                        Q1012=
201908151000 METAR LRBS 151000Z 09006KT 060V120 9999 SCT041 25/14 Q1012
                        NOSIG=
201908151030 METAR LRBS 151030Z 08006KT 050V110 9999 SCT043 25/15 Q1012
                        NOSIG=
201908151100 METAR LRBS 151100Z 13006KT 080V170 9999 FEW048 26/15 Q1012
                        NOSIG=
201908151130 METAR LRBS 151130Z 17005KT 130V220 CAVOK 26/16 Q1011 NOSIG=
201908151200 METAR LRBS 151200Z 16005KT 110V220 9999 FEW045 26/15 Q1011
                        NOSIG=
201908151230 METAR LRBS 151230Z 10004KT 020V180 9999 FEW049 28/15 Q1011
                        NOSIG=
201908151300 METAR LRBS 151300Z 13004KT 050V210 CAVOK 27/15 Q1010 NOSIG=
201908151330 METAR LRBS 151330Z VRB03KT CAVOK 27/15 Q1010 NOSIG=
201908151400 METAR LRBS 151400Z 09003KT 020V150 CAVOK 27/15 Q1010 NOSIG=
201908151430 METAR LRBS 151430Z 13006KT 090V190 CAVOK 28/15 Q1010 NOSIG=
201908151500 METAR LRBS 151500Z 09008KT CAVOK 27/15 Q1010 NOSIG=
201908151530 METAR LRBS 151530Z 08007KT 050V110 CAVOK 27/15 Q1010 NOSIG=
201908151600 METAR LRBS 151600Z 08012KT 040V110 CAVOK 26/14 Q1011 NOSIG=
201908151630 METAR LRBS 151630Z 08012KT CAVOK 25/14 Q1011 NOSIG=
201908151700 METAR LRBS 151700Z 07013KT CAVOK 24/14 Q1011 NOSIG=
201908151730 METAR LRBS 151730Z 07012KT CAVOK 23/13 Q1011 NOSIG=
201908151800 METAR LRBS 151800Z 07010KT CAVOK 22/13 Q1012 NOSIG=
201908151830 METAR LRBS 151830Z 07013KT CAVOK 21/13 Q1012 NOSIG=
201908151900 METAR LRBS 151900Z 07013KT CAVOK 21/13 Q1013 NOSIG=
201908151930 METAR LRBS 151930Z 07012KT CAVOK 20/13 Q1013 NOSIG=
201908152000 METAR LRBS 152000Z 07013KT CAVOK 20/12 Q1013 NOSIG=
201908152030 METAR LRBS 152030Z 07011KT CAVOK 19/12 Q1014 NOSIG=
201908152100 METAR LRBS 152100Z 07009KT CAVOK 19/13 Q1014 NOSIG=
201908152130 METAR LRBS 152130Z 07010KT CAVOK 19/12 Q1014 NOSIG=
201908152200 METAR LRBS 152200Z 07011KT CAVOK 18/12 Q1014 NOSIG=
201908152230 METAR LRBS 152230Z 08007KT CAVOK 18/12 Q1014 NOSIG=
201908152300 METAR LRBS 152300Z 08007KT CAVOK 18/12 Q1014 NOSIG=
201908152330 METAR LRBS 152330Z 09008KT CAVOK 18/12 Q1014 NOSIG=
201908160000 METAR LRBS 160000Z 10007KT CAVOK 17/12 Q1014 NOSIG=
201908160030 METAR LRBS 160030Z 10008KT 070V130 CAVOK 18/12 Q1014 NOSIG=
201908160100 METAR COR LRBS 160100Z 09009KT CAVOK 18/12 Q1014 NOSIG=
201908160130 METAR LRBS 160130Z 09009KT CAVOK 18/12 Q1014 NOSIG=
201908160200 METAR LRBS 160200Z 09007KT CAVOK 17/12 Q1014 NOSIG=
201908160230 METAR LRBS 160230Z 09007KT CAVOK 17/12 Q1014 NOSIG=
201908160300 METAR LRBS 160300Z 10006KT CAVOK 18/12 Q1014 NOSIG=
201908160330 METAR COR LRBS 160330Z 10006KT CAVOK 18/12 Q1014 NOSIG=
201908160400 METAR LRBS 160400Z 11005KT CAVOK 18/12 Q1015 NOSIG=
201908160430 METAR LRBS 160430Z 11005KT 080V140 CAVOK 18/12 Q1015 NOSIG=
201908160500 METAR LRBS 160500Z 11005KT 070V130 CAVOK 18/11 Q1015 NOSIG=
201908160530 METAR LRBS 160530Z 10006KT CAVOK 19/11 Q1015 NOSIG=
201908160600 METAR LRBS 160600Z 10008KT 070V150 CAVOK 19/11 Q1015 NOSIG=
201908160630 METAR LRBS 160630Z 10007KT 060V140 CAVOK 20/12 Q1015 NOSIG=
201908160700 METAR LRBS 160700Z 11007KT 070V130 CAVOK 20/11 Q1015 NOSIG=
201908160730 METAR LRBS 160730Z AUTO 10007KT 070V140 9999 OVC068/// 21/11
                        Q1015 NOSIG=
201908160800 METAR LRBS 160800Z 08008KT 040V120 CAVOK 21/11 Q1015 NOSIG=
201908160830 METAR LRBS 160830Z 10008KT 050V150 CAVOK 22/11 Q1015 NOSIG=
201908160900 METAR LRBS 160900Z 11009KT 080V150 CAVOK 23/11 Q1015 NOSIG=
201908160930 METAR LRBS 160930Z 08009KT 040V130 CAVOK 24/12 Q1015 NOSIG=
201908161000 METAR LRBS 161000Z 08008KT 050V120 CAVOK 24/12 Q1014 NOSIG=
201908161030 METAR LRBS 161030Z 08007KT 050V110 CAVOK 24/11 Q1014 NOSIG=
201908161100 METAR LRBS 161100Z 09007KT CAVOK 24/11 Q1014 NOSIG=
201908161130 METAR COR LRBS 161130Z 08007KT CAVOK 24/12 Q1014 NOSIG=
201908161200 METAR COR LRBS 161200Z 06006KT CAVOK 25/11 Q1014 NOSIG=
201908161230 METAR LRBS 161230Z 14006KT 050V190 CAVOK 24/11 Q1014 NOSIG=
201908161300 METAR LRBS 161300Z 13004KT 060V190 CAVOK 24/12 Q1014 NOSIG=
201908161330 METAR LRBS 161330Z 11004KT 050V170 CAVOK 25/12 Q1014 NOSIG=
201908161400 METAR LRBS 161400Z 11004KT 070V230 CAVOK 26/11 Q1013 NOSIG=
201908161430 METAR LRBS 161430Z AUTO VRB02KT 9999 BKN064/// 25/11 Q1013
                        NOSIG=
201908161500 METAR LRBS 161500Z 05004KT 360V090 CAVOK 25/11 Q1013 NOSIG=
201908161530 METAR LRBS 161530Z 05004KT CAVOK 25/12 Q1013 NOSIG=
201908161600 METAR LRBS 161600Z 07005KT 020V110 CAVOK 25/12 Q1013 NOSIG=
201908161630 METAR LRBS 161630Z 13003KT CAVOK 25/11 Q1013 NOSIG=
201908161700 METAR LRBS 161700Z 08002KT CAVOK 24/12 Q1014 NOSIG=
201908161730 METAR LRBS 161730Z 04004KT CAVOK 22/13 Q1014 NOSIG=
201908161800 METAR LRBS 161800Z 03004KT CAVOK 21/13 Q1014 NOSIG=
201908161830 METAR LRBS 161830Z 02005KT CAVOK 21/12 Q1014 NOSIG=
201908161900 METAR LRBS 161900Z 02005KT 340V050 CAVOK 21/14 Q1015 NOSIG=
201908161930 METAR LRBS 161930Z 01003KT CAVOK 20/14 Q1015 NOSIG=
201908162000 METAR LRBS 162000Z 03003KT 360V060 CAVOK 19/14 Q1015 NOSIG=
201908162030 METAR LRBS 162030Z 01003KT CAVOK 19/14 Q1015 NOSIG=
201908162100 METAR LRBS 162100Z 04003KT CAVOK 18/13 Q1015 NOSIG=
201908162130 METAR LRBS 162130Z 02004KT CAVOK 19/14 Q1015 NOSIG=
201908162200 METAR LRBS 162200Z 04002KT CAVOK 18/14 Q1015 NOSIG=
201908162230 METAR LRBS 162230Z 03003KT CAVOK 18/14 Q1015 NOSIG=
201908162300 METAR LRBS 162300Z 01003KT CAVOK 18/14 Q1015 NOSIG=
201908162330 METAR LRBS 162330Z 02002KT CAVOK 17/14 Q1015 NOSIG=
201908170000 METAR LRBS 170000Z 33003KT 280V360 CAVOK 18/15 Q1015 NOSIG=
201908170030 METAR LRBS 170030Z 07002KT CAVOK 17/14 Q1015 NOSIG=
201908170100 METAR LRBS 170100Z AUTO 35001KT 9999 BKN063/// SCT079///
                        18/14 Q1015 NOSIG=
201908170130 METAR LRBS 170130Z 36003KT CAVOK 18/14 Q1015 NOSIG=
201908170200 METAR LRBS 170200Z VRB01KT CAVOK 18/15 Q1015 NOSIG=
201908170230 METAR LRBS 170230Z 03002KT CAVOK 18/15 Q1015 NOSIG=
201908170300 METAR LRBS 170300Z 04002KT CAVOK 17/15 Q1015 NOSIG=
201908170330 METAR LRBS 170330Z 00000KT CAVOK 17/15 Q1015 NOSIG=
201908170400 METAR LRBS 170400Z 32003KT CAVOK 18/15 Q1016 NOSIG=
201908170430 METAR LRBS 170430Z 00000KT CAVOK 18/15 Q1016=
201908170500 METAR LRBS 170500Z 26003KT CAVOK 18/15 Q1016=
201908170530 METAR LRBS 170530Z 27003KT CAVOK 19/15 Q1016=
201908170600 METAR LRBS 170600Z VRB01KT CAVOK 20/14 Q1017=
201908170630 METAR COR LRBS 170630Z VRB02KT CAVOK 22/13 Q1017=
201908170700 METAR LRBS 170700Z 07007KT CAVOK 22/12 Q1017=
201908170730 METAR LRBS 170730Z 09004KT 040V190 CAVOK 24/12 Q1017=
201908170800 METAR LRBS 170800Z VRB03KT CAVOK 24/11 Q1016=
201908170830 METAR LRBS 170830Z 36003KT 300V110 CAVOK 25/11 Q1016=
201908170900 METAR LRBS 170900Z 35004KT 310V060 CAVOK 25/11 Q1016=
201908170930 METAR LRBS 170930Z VRB02KT CAVOK 25/10 Q1016=
201908171000 METAR LRBS 171000Z 24004KT 210V320 CAVOK 26/11 Q1016=
201908171030 METAR LRBS 171030Z 27004KT 160V320 CAVOK 27/11 Q1016=
201908171100 METAR LRBS 171100Z 30004KT 240V350 CAVOK 26/10 Q1015=
201908171130 METAR LRBS 171130Z VRB04KT CAVOK 27/10 Q1015=
201908171200 METAR LRBS 171200Z 30005KT 250V340 CAVOK 28/11 Q1015=
201908171230 METAR LRBS 171230Z VRB02KT CAVOK 28/10 Q1015=
201908171300 METAR LRBS 171300Z 05005KT 010V090 CAVOK 27/10 Q1014=
201908171330 METAR LRBS 171330Z 06003KT 020V130 CAVOK 26/10 Q1014=
201908171400 METAR LRBS 171400Z 08003KT 020V130 CAVOK 26/11 Q1014=
201908171430 METAR LRBS 171430Z 08003KT 050V130 CAVOK 25/12 Q1014=
201908171500 METAR LRBS 171500Z VRB02KT CAVOK 26/11 Q1014=
201908171530 METAR LRBS 171530Z VRB01KT CAVOK 26/11 Q1014=
201908171600 METAR COR LRBS 171600Z 26003KT CAVOK 26/10 Q1014=
201908171630 METAR LRBS 171630Z 26001KT CAVOK 26/11 Q1014=
201908171700 METAR LRBS 171700Z 29002KT CAVOK 25/13 Q1014=
201908171730 METAR LRBS 171730Z 02001KT CAVOK 23/14 Q1015=
201908171800 METAR LRBS 171800Z VRB02KT CAVOK 22/13 Q1015=
201908171830 METAR LRBS 171830Z 35002KT CAVOK 20/13 Q1015=
201908171900 METAR LRBS 171900Z 02003KT CAVOK 20/13 Q1015=
201908171930 METAR LRBS 171930Z 02003KT CAVOK 22/12 Q1015=
201908172000 METAR LRBS 172000Z 03004KT CAVOK 21/12 Q1015=
201908172030 METAR LRBS 172030Z 03003KT CAVOK 21/12 Q1016=
201908172100 METAR LRBS 172100Z 03003KT CAVOK 19/12 Q1016=
201908172130 METAR LRBS 172130Z 03004KT CAVOK 18/11 Q1016=
201908172200 METAR LRBS 172200Z 03002KT CAVOK 18/12 Q1016=
201908172230 METAR LRBS 172230Z 03003KT CAVOK 17/11 Q1016=
201908172300 METAR LRBS 172300Z VRB01KT CAVOK 16/11 Q1016=
201908172330 METAR LRBS 172330Z 04003KT CAVOK 16/12 Q1017=
201908180000 METAR LRBS 180000Z VRB02KT CAVOK 16/11 Q1016=
201908180030 METAR LRBS 180030Z 03002KT CAVOK 16/10 Q1016=
201908180100 METAR LRBS 180100Z 00000KT CAVOK 15/11 Q1016=
201908180130 METAR LRBS 180130Z 00000KT CAVOK 15/11 Q1016=
201908180200 METAR LRBS 180200Z 24001KT CAVOK 15/11 Q1016=
201908180230 METAR LRBS 180230Z 00000KT CAVOK 14/11 Q1016=
201908180300 METAR LRBS 180300Z 00000KT CAVOK 14/11 Q1016=
201908180330 METAR LRBS 180330Z 00000KT CAVOK 14/11 Q1016=
201908180400 METAR LRBS 180400Z 00000KT CAVOK 15/11 Q1017=
201908180430 METAR LRBS 180430Z 06001KT CAVOK 16/12 Q1017=
201908180500 METAR LRBS 180500Z 00000KT CAVOK 18/12 Q1017=
201908180530 METAR LRBS 180530Z VRB02KT CAVOK 18/12 Q1017 NOSIG=
201908180600 METAR LRBS 180600Z VRB02KT CAVOK 20/12 Q1017 NOSIG=
201908180630 METAR LRBS 180630Z 32003KT 280V350 CAVOK 21/12 Q1017 NOSIG=
201908180700 METAR LRBS 180700Z VRB01KT CAVOK 23/11 Q1017 NOSIG=
201908180730 METAR LRBS 180730Z VRB01KT CAVOK 24/11 Q1017 NOSIG=
201908180800 METAR LRBS 180800Z 17002KT CAVOK 25/09 Q1017 NOSIG=
201908180830 METAR LRBS 180830Z 23003KT 160V300 CAVOK 27/10 Q1017 NOSIG=
201908180900 METAR LRBS 180900Z 32005KT 270V050 CAVOK 26/10 Q1017 NOSIG=
201908180930 METAR LRBS 180930Z 29003KT 220V340 CAVOK 27/10 Q1017 NOSIG=
201908181000 METAR LRBS 181000Z 26005KT 180V320 CAVOK 27/11 Q1017 NOSIG=
201908181030 METAR LRBS 181030Z VRB04KT CAVOK 28/10 Q1017 NOSIG=
201908181100 METAR LRBS 181100Z VRB03KT CAVOK 28/10 Q1016 NOSIG=
201908181130 METAR LRBS 181130Z 30006KT 250V360 CAVOK 28/10 Q1016 NOSIG=
201908181200 METAR LRBS 181200Z 33005KT 260V040 CAVOK 29/09 Q1016 NOSIG=
201908181230 METAR LRBS 181230Z VRB05KT CAVOK 30/10 Q1016 NOSIG=
201908181300 METAR LRBS 181300Z 25004KT 190V340 CAVOK 30/10 Q1016 NOSIG=
201908181330 METAR LRBS 181330Z 29004KT 240V030 CAVOK 30/10 Q1016 NOSIG=
201908181400 METAR LRBS 181400Z 34004KT 260V050 CAVOK 30/11 Q1016 NOSIG=
201908181430 METAR LRBS 181430Z 29003KT 250V360 CAVOK 30/10 Q1016 NOSIG=
201908181500 METAR LRBS 181500Z VRB03KT CAVOK 29/10 Q1016 NOSIG=
201908181530 METAR LRBS 181530Z 22003KT 170V270 CAVOK 30/10 Q1016 NOSIG=
201908181600 METAR LRBS 181600Z VRB01KT CAVOK 29/10 Q1015 NOSIG=
201908181630 METAR COR LRBS 181630Z VRB02KT CAVOK 29/11 Q1016 NOSIG=
201908181700 METAR LRBS 181700Z VRB01KT CAVOK 28/11 Q1016 NOSIG=
201908181730 METAR COR LRBS 181730Z VRB01KT CAVOK 25/13 Q1016 NOSIG=
201908181800 METAR LRBS 181800Z VRB01KT CAVOK 25/14 Q1016 NOSIG=
201908181830 METAR LRBS 181830Z 03001KT CAVOK 24/14 Q1016 NOSIG=
201908181900 METAR LRBS 181900Z 03001KT CAVOK 23/14 Q1016 NOSIG=
201908181930 METAR LRBS 181930Z VRB01KT CAVOK 22/13 Q1016 NOSIG=
201908182000 METAR LRBS 182000Z 36001KT CAVOK 21/14 Q1016 NOSIG=
201908182030 METAR LRBS 182030Z 33001KT CAVOK 21/14 Q1016 NOSIG=
201908182100 METAR LRBS 182100Z 00000KT CAVOK 21/14 Q1017 NOSIG=
201908182130 METAR LRBS 182130Z 28001KT CAVOK 20/14 Q1017 NOSIG=
201908182200 METAR LRBS 182200Z VRB01KT CAVOK 20/14 Q1017 NOSIG=
201908182230 METAR LRBS 182230Z VRB01KT CAVOK 20/13 Q1017 NOSIG=
201908182300 METAR LRBS 182300Z VRB01KT CAVOK 19/13 Q1017 NOSIG=
201908182330 METAR LRBS 182330Z 32003KT 290V350 CAVOK 19/13 Q1017 NOSIG=
201908190000 METAR LRBS 190000Z 32004KT CAVOK 20/14 Q1017 NOSIG=
201908190030 METAR LRBS 190030Z VRB02KT CAVOK 19/14 Q1017 NOSIG=
201908190100 METAR LRBS 190100Z 33004KT 310V010 CAVOK 19/14 Q1017 NOSIG=
201908190130 METAR LRBS 190130Z 34003KT 300V020 CAVOK 18/14 Q1017 NOSIG=
201908190200 METAR LRBS 190200Z 33002KT CAVOK 18/14 Q1017 NOSIG=
201908190230 METAR LRBS 190230Z 01002KT CAVOK 17/13 Q1017 NOSIG=
201908190300 METAR LRBS 190300Z 02003KT CAVOK 17/13 Q1018=
201908190330 METAR LRBS 190330Z 02003KT CAVOK 16/12 Q1018 NOSIG=
201908190400 METAR LRBS 190400Z 04002KT CAVOK 17/12 Q1018 NOSIG=
201908190430 METAR LRBS 190430Z 07001KT CAVOK 18/13 Q1018 NOSIG=
201908190500 METAR LRBS 190500Z 03003KT CAVOK 19/13 Q1018 NOSIG=
201908190530 METAR LRBS 190530Z 04004KT CAVOK 20/12 Q1018 NOSIG=
201908190600 METAR LRBS 190600Z 05004KT 010V090 CAVOK 21/13 Q1019 NOSIG=
201908190630 METAR COR LRBS 190630Z 07005KT CAVOK 24/12 Q1019 NOSIG=
201908190700 METAR LRBS 190700Z 07005KT 040V100 CAVOK 24/12 Q1019 NOSIG=
201908190730 METAR LRBS 190730Z 06005KT 020V090 CAVOK 25/13 Q1019 NOSIG=
201908190800 METAR LRBS 190800Z 05006KT 010V090 CAVOK 26/13 Q1019 NOSIG=
201908190830 METAR LRBS 190830Z 07006KT 040V100 CAVOK 28/12 Q1019 NOSIG=
201908190900 METAR LRBS 190900Z 06006KT 360V110 CAVOK 29/12 Q1019 NOSIG=
201908190930 METAR LRBS 190930Z 13006KT 050V180 CAVOK 29/11 Q1018 NOSIG=
201908191000 METAR LRBS 191000Z 09006KT CAVOK 30/11 Q1018 NOSIG=
201908191030 METAR LRBS 191030Z 01004KT 310V100 CAVOK 30/12 Q1018 NOSIG=
201908191100 METAR LRBS 191100Z 08006KT CAVOK 30/12 Q1018 NOSIG=
201908191130 METAR LRBS 191130Z VRB04KT CAVOK 31/11 Q1018 NOSIG=
201908191200 METAR LRBS 191200Z VRB03KT CAVOK 32/12 Q1018 NOSIG=
201908191230 METAR LRBS 191230Z VRB03KT CAVOK 31/11 Q1018 NOSIG=
201908191300 METAR LRBS 191300Z 02004KT 310V090 CAVOK 31/10 Q1018 NOSIG=
201908191330 METAR LRBS 191330Z 06005KT 330V130 CAVOK 31/10 Q1018 NOSIG=
201908191400 METAR LRBS 191400Z 10004KT 060V140 CAVOK 31/12 Q1018 NOSIG=
201908191430 METAR LRBS 191430Z 10004KT 070V130 CAVOK 31/11 Q1018 NOSIG=
201908191500 METAR LRBS 191500Z 02004KT 310V070 CAVOK 31/10 Q1018 NOSIG=
201908191530 METAR LRBS 191530Z VRB02KT CAVOK 31/10 Q1018 NOSIG=
201908191600 METAR LRBS 191600Z VRB02KT CAVOK 30/11 Q1018 NOSIG=
201908191630 METAR LRBS 191630Z 04003KT CAVOK 29/13 Q1018 NOSIG=
201908191700 METAR LRBS 191700Z 05003KT CAVOK 27/13 Q1018 NOSIG=
201908191730 METAR LRBS 191730Z 05003KT CAVOK 26/13 Q1018 NOSIG=
201908191800 METAR LRBS 191800Z 04003KT CAVOK 25/13 Q1018 NOSIG=
201908191830 METAR LRBS 191830Z 06002KT CAVOK 24/13 Q1019 NOSIG=
201908191900 METAR LRBS 191900Z 07002KT CAVOK 22/14 Q1019 NOSIG=
201908191930 METAR LRBS 191930Z 12008KT CAVOK 26/10 Q1019 NOSIG=
201908192000 METAR LRBS 192000Z 12007KT CAVOK 25/10 Q1019 NOSIG=
201908192030 METAR LRBS 192030Z 13006KT CAVOK 25/10 Q1019 NOSIG=
201908192100 METAR LRBS 192100Z 13005KT CAVOK 24/11 Q1019 NOSIG=
201908192130 METAR LRBS 192130Z 14005KT 110V170 CAVOK 24/11 Q1019 NOSIG=
201908192200 METAR LRBS 192200Z 15005KT CAVOK 24/11 Q1019 NOSIG=
201908192230 METAR LRBS 192230Z 14004KT 100V180 CAVOK 23/11 Q1019 NOSIG=
201908192300 METAR LRBS 192300Z VRB02KT CAVOK 22/11 Q1020 NOSIG=
201908192330 METAR LRBS 192330Z VRB01KT CAVOK 20/12 Q1020 NOSIG=
201908200000 METAR LRBS 200000Z 00000KT CAVOK 19/12 Q1020 NOSIG=
201908200030 METAR LRBS 200030Z 00000KT CAVOK 18/12 Q1020 NOSIG=
201908200100 METAR LRBS 200100Z VRB01KT CAVOK 17/12 Q1020 NOSIG=
201908200130 METAR LRBS 200130Z 00000KT CAVOK 17/11 Q1020 NOSIG=
201908200200 METAR LRBS 200200Z 00000KT CAVOK 17/11 Q1020 NOSIG=
201908200230 METAR LRBS 200230Z VRB01KT CAVOK 17/12 Q1020 NOSIG=
201908200300 METAR LRBS 200300Z 00000KT CAVOK 17/12 Q1020 NOSIG=
201908200330 METAR LRBS 200330Z 00000KT CAVOK 17/12 Q1020 NOSIG=
201908200400 METAR LRBS 200400Z 00000KT CAVOK 17/12 Q1021 NOSIG=
201908200430 METAR LRBS 200430Z 34001KT CAVOK 19/13 Q1021 NOSIG=
201908200500 METAR LRBS 200500Z 00000KT CAVOK 20/13 Q1021 NOSIG=
201908200530 METAR LRBS 200530Z VRB02KT CAVOK 22/13 Q1021 NOSIG=
201908200600 METAR LRBS 200600Z VRB01KT CAVOK 23/13 Q1021 NOSIG=
201908200630 METAR LRBS 200630Z VRB01KT CAVOK 25/14 Q1021 NOSIG=
201908200700 METAR LRBS 200700Z VRB02KT CAVOK 26/13 Q1021 NOSIG=
201908200730 METAR LRBS 200730Z VRB02KT CAVOK 28/12 Q1021 NOSIG=
201908200800 METAR LRBS 200800Z VRB02KT CAVOK 28/11 Q1021 NOSIG=
201908200830 METAR LRBS 200830Z VRB03KT CAVOK 29/11 Q1021 NOSIG=
201908200900 METAR LRBS 200900Z 07005KT 020V130 CAVOK 29/11 Q1021 NOSIG=
201908200930 METAR LRBS 200930Z VRB03KT CAVOK 30/12 Q1021 NOSIG=
201908201000 METAR LRBS 201000Z 10005KT 020V150 CAVOK 31/11 Q1021 NOSIG=
201908201030 METAR LRBS 201030Z VRB02KT CAVOK 30/10 Q1021 NOSIG=
201908201100 METAR LRBS 201100Z 05005KT 340V120 CAVOK 31/10 Q1021 NOSIG=
201908201130 METAR LRBS 201130Z VRB02KT CAVOK 31/10 Q1020 NOSIG=
201908201200 METAR LRBS 201200Z VRB04KT CAVOK 32/11 Q1020 NOSIG=
201908201230 METAR LRBS 201230Z VRB03KT CAVOK 32/11 Q1020 NOSIG=
201908201300 METAR LRBS 201300Z 06005KT 340V110 CAVOK 31/11 Q1020 NOSIG=
201908201330 METAR LRBS 201330Z 08004KT CAVOK 32/10 Q1019 NOSIG=
201908201400 METAR LRBS 201400Z 11005KT 060V150 CAVOK 32/10 Q1019 NOSIG=
201908201430 METAR LRBS 201430Z 05004KT 010V110 CAVOK 32/10 Q1019 NOSIG=
201908201500 METAR LRBS 201500Z 03005KT 340V080 CAVOK 32/10 Q1020 NOSIG=
201908201530 METAR LRBS 201530Z 05006KT 020V090 CAVOK 32/09 Q1020 NOSIG=
201908201600 METAR LRBS 201600Z 05004KT CAVOK 31/10 Q1020 NOSIG=
201908201630 METAR LRBS 201630Z 03003KT CAVOK 30/11 Q1020 NOSIG=
201908201700 METAR LRBS 201700Z 02004KT CAVOK 29/10 Q1020 NOSIG=
201908201730 METAR LRBS 201730Z 04002KT CAVOK 26/11 Q1020 NOSIG=
201908201800 METAR LRBS 201800Z VRB01KT CAVOK 25/12 Q1020 NOSIG=
201908201830 METAR LRBS 201830Z VRB01KT CAVOK 26/12 Q1020 NOSIG=
201908201900 METAR LRBS 201900Z 07003KT CAVOK 23/14 Q1020 NOSIG=
201908201930 METAR LRBS 201930Z 05001KT CAVOK 23/14 Q1020 NOSIG=
201908202000 METAR LRBS 202000Z 03002KT CAVOK 22/14 Q1020 NOSIG=
201908202030 METAR LRBS 202030Z 00000KT CAVOK 22/14 Q1020 NOSIG=
201908202100 METAR LRBS 202100Z 00000KT CAVOK 21/14 Q1020 NOSIG=
201908202130 METAR LRBS 202130Z 29002KT CAVOK 20/14 Q1020 NOSIG=
201908202200 METAR LRBS 202200Z VRB02KT CAVOK 20/14 Q1020 NOSIG=
201908202230 METAR LRBS 202230Z VRB01KT CAVOK 20/13 Q1020 NOSIG=
201908202300 METAR LRBS 202300Z 00000KT CAVOK 19/13 Q1020 NOSIG=
201908202330 METAR LRBS 202330Z 05004KT 360V090 CAVOK 18/13 Q1020 NOSIG=
201908210000 METAR LRBS 210000Z VRB02KT CAVOK 19/13 Q1020 NOSIG=
201908210030 METAR LRBS 210030Z 00000KT CAVOK 19/13 Q1020 NOSIG=
201908210100 METAR LRBS 210100Z 36002KT CAVOK 19/13 Q1020 NOSIG=
201908210130 METAR LRBS 210130Z 36002KT CAVOK 18/13 Q1020 NOSIG=
201908210200 METAR LRBS 210200Z 32002KT CAVOK 18/13 Q1020 NOSIG=
201908210230 METAR LRBS 210230Z 33003KT CAVOK 18/12 Q1020 NOSIG=
201908210300 METAR LRBS 210300Z VRB02KT CAVOK 17/12 Q1020 NOSIG=
201908210330 METAR COR LRBS 210330Z VRB02KT CAVOK 18/13 Q1020 NOSIG=
201908210400 METAR LRBS 210400Z 01001KT CAVOK 18/13 Q1020 NOSIG=
201908210430 METAR LRBS 210430Z VRB02KT CAVOK 20/13 Q1020 NOSIG=
201908210500 METAR LRBS 210500Z VRB02KT CAVOK 21/14 Q1020 NOSIG=
201908210530 METAR LRBS 210530Z 03003KT 360V060 CAVOK 22/14 Q1021 NOSIG=
201908210600 METAR LRBS 210600Z 03003KT 340V070 CAVOK 23/14 Q1021 NOSIG=
201908210630 METAR LRBS 210630Z 04003KT 350V080 CAVOK 25/14 Q1021 NOSIG=
201908210700 METAR LRBS 210700Z 07003KT 340V100 CAVOK 27/14 Q1021 NOSIG=
201908210730 METAR LRBS 210730Z 05004KT 360V130 CAVOK 28/14 Q1021 NOSIG=
201908210800 METAR LRBS 210800Z AUTO 08007KT 020V090 9999 NCD 29/14 Q1020
                        NOSIG=
201908210830 METAR LRBS 210830Z 07008KT 040V100 CAVOK 29/15 Q1020 NOSIG=
201908210900 METAR LRBS 210900Z 03006KT 350V070 CAVOK 30/14 Q1020 NOSIG=
201908210930 METAR LRBS 210930Z 04005KT 360V090 CAVOK 31/16 Q1020 NOSIG=
201908211000 METAR LRBS 211000Z 06006KT 010V110 CAVOK 31/14 Q1020 NOSIG=
201908211030 METAR LRBS 211030Z 06008KT 020V080 CAVOK 31/14 Q1019 NOSIG=
201908211100 METAR LRBS 211100Z 35005KT 280V040 CAVOK 32/14 Q1019 NOSIG=
201908211130 METAR COR LRBS 211130Z VRB03KT CAVOK 32/13 Q1019 NOSIG=
201908211200 METAR LRBS 211200Z 33005KT 260V040 CAVOK 32/14 Q1019 NOSIG=
201908211230 METAR LRBS 211230Z VRB03KT CAVOK 33/13 Q1019=
201908211300 METAR LRBS 211300Z VRB04KT CAVOK 33/13 Q1018 NOSIG=
201908211330 METAR LRBS 211330Z 12004KT 060V160 CAVOK 32/12 Q1018 NOSIG=
201908211400 METAR LRBS 211400Z 07004KT 030V110 CAVOK 33/13 Q1018 NOSIG=
201908211430 METAR LRBS 211430Z VRB02KT CAVOK 33/11 Q1018 NOSIG=
201908211500 METAR LRBS 211500Z VRB02KT CAVOK 33/12 Q1018 NOSIG=
201908211530 METAR LRBS 211530Z VRB02KT CAVOK 33/12 Q1018 NOSIG=
201908211600 METAR COR LRBS 211600Z 03002KT CAVOK 32/12 Q1018 NOSIG=
201908211630 METAR LRBS 211630Z 02001KT CAVOK 31/12 Q1017 NOSIG=
201908211700 METAR LRBS 211700Z 00000KT CAVOK 31/14 Q1018 NOSIG=
201908211730 METAR LRBS 211730Z 00000KT CAVOK 29/15 Q1018 NOSIG=
201908211800 METAR LRBS 211800Z 00000KT CAVOK 26/16 Q1018 NOSIG=
201908211830 METAR LRBS 211830Z 00000KT CAVOK 25/16 Q1018 NOSIG=
201908211900 METAR LRBS 211900Z 00000KT CAVOK 24/16 Q1018 NOSIG=
201908211930 METAR LRBS 211930Z 00000KT CAVOK 24/16 Q1019 NOSIG=
201908212000 METAR LRBS 212000Z 29001KT CAVOK 24/14 Q1019 NOSIG=
201908212030 METAR LRBS 212030Z 32002KT CAVOK 23/15 Q1019 NOSIG=
201908212100 METAR LRBS 212100Z 00000KT CAVOK 22/14 Q1019 NOSIG=
201908212130 METAR LRBS 212130Z 00000KT CAVOK 22/14 Q1019 NOSIG=
201908212200 METAR LRBS 212200Z VRB02KT CAVOK 22/15 Q1019 NOSIG=
201908212230 METAR LRBS 212230Z VRB02KT CAVOK 22/15 Q1019 NOSIG=
201908212300 METAR LRBS 212300Z 31003KT 280V340 CAVOK 22/15 Q1019 NOSIG=
201908212330 METAR LRBS 212330Z 30003KT CAVOK 21/15 Q1019 NOSIG=
201908220000 METAR LRBS 220000Z 30003KT 280V340 CAVOK 21/15 Q1019 NOSIG=
201908220030 METAR LRBS 220030Z 31004KT 280V340 CAVOK 21/14 Q1019 NOSIG=
201908220100 METAR LRBS 220100Z VRB02KT CAVOK 21/14 Q1019 NOSIG=
201908220130 METAR LRBS 220130Z 27003KT 250V310 CAVOK 20/14 Q1019 NOSIG=
201908220200 METAR LRBS 220200Z VRB01KT CAVOK 20/14 Q1019 NOSIG=
201908220230 METAR LRBS 220230Z 30003KT CAVOK 20/14 Q1019 NOSIG=
201908220300 METAR LRBS 220300Z 32003KT 280V360 CAVOK 21/13 Q1019 NOSIG=
201908220330 METAR LRBS 220330Z VRB02KT CAVOK 20/13 Q1019 NOSIG=
201908220400 METAR LRBS 220400Z VRB02KT CAVOK 21/13 Q1020 NOSIG=
201908220430 METAR LRBS 220430Z VRB02KT CAVOK 21/14 Q1020 NOSIG=
201908220500 METAR LRBS 220500Z VRB02KT CAVOK 22/14 Q1020 NOSIG=
201908220530 METAR LRBS 220530Z 01003KT 320V050 CAVOK 24/14 Q1020 NOSIG=
201908220600 METAR LRBS 220600Z 35003KT 310V050 CAVOK 26/14 Q1020 NOSIG=
201908220630 METAR LRBS 220630Z 03006KT 360V080 CAVOK 26/15 Q1021 NOSIG=
201908220700 METAR LRBS 220700Z 03008KT CAVOK 27/16 Q1021 NOSIG=
201908220730 METAR LRBS 220730Z 06011KT 020V090 CAVOK 29/16 Q1021 NOSIG=
201908220800 METAR LRBS 220800Z 07011KT 040V100 CAVOK 29/16 Q1021 NOSIG=
201908220830 METAR LRBS 220830Z 05009KT CAVOK 30/16 Q1021 NOSIG=
201908220900 METAR LRBS 220900Z 07009KT 040V100 CAVOK 31/17 Q1021 NOSIG=
201908220930 METAR LRBS 220930Z 07008KT 040V100 CAVOK 32/16 Q1021 NOSIG=
201908221000 METAR LRBS 221000Z 05009KT 030V090 CAVOK 32/16 Q1020 NOSIG=
201908221030 METAR LRBS 221030Z 08010KT 040V110 CAVOK 33/15 Q1020 NOSIG=
201908221100 METAR LRBS 221100Z 05008KT 010V090 CAVOK 32/15 Q1020 NOSIG=
201908221130 METAR LRBS 221130Z 08011KT 050V110 CAVOK 33/15 Q1020 NOSIG=
201908221200 METAR LRBS 221200Z 08011KT CAVOK 33/15 Q1020 NOSIG=
201908221230 METAR LRBS 221230Z 07007KT 040V100 CAVOK 33/14 Q1020 NOSIG=
201908221300 METAR LRBS 221300Z 08009KT CAVOK 33/14 Q1020 NOSIG=
201908221330 METAR LRBS 221330Z 11008KT CAVOK 33/13 Q1020 NOSIG=
201908221400 METAR LRBS 221400Z 09008KT 070V130 CAVOK 32/13 Q1020 NOSIG=
201908221430 METAR LRBS 221430Z 04009KT CAVOK 32/13 Q1020 NOSIG=
201908221500 METAR LRBS 221500Z 08010KT 040V100 CAVOK 32/13 Q1020 NOSIG=
201908221530 METAR LRBS 221530Z 07011KT CAVOK 32/13 Q1020 NOSIG=
201908221600 METAR LRBS 221600Z 08009KT CAVOK 31/13 Q1020 NOSIG=
201908221630 METAR LRBS 221630Z 06008KT CAVOK 30/13 Q1020 NOSIG=
201908221700 METAR LRBS 221700Z 07006KT CAVOK 27/13 Q1020 NOSIG=
201908221730 METAR LRBS 221730Z 06005KT CAVOK 26/13 Q1021 NOSIG=
201908221800 METAR LRBS 221800Z 08003KT CAVOK 26/13 Q1021 NOSIG=
201908221830 METAR LRBS 221830Z 07004KT CAVOK 25/13 Q1021 NOSIG=
201908221900 METAR LRBS 221900Z 07005KT CAVOK 24/13 Q1021 NOSIG=
201908221930 METAR LRBS 221930Z 06004KT CAVOK 23/14 Q1022 NOSIG=
201908222000 METAR LRBS 222000Z 06005KT CAVOK 22/15 Q1022 NOSIG=
201908222030 METAR LRBS 222030Z 06006KT CAVOK 22/15 Q1022 NOSIG=
201908222100 METAR LRBS 222100Z 06005KT CAVOK 21/16 Q1022 NOSIG=
201908222130 METAR LRBS 222130Z 06006KT CAVOK 21/16 Q1022 NOSIG=
201908222200 METAR LRBS 222200Z 06005KT CAVOK 20/16 Q1022 NOSIG=
201908222230 METAR LRBS 222230Z 07004KT CAVOK 20/16 Q1022 NOSIG=
201908222300 METAR LRBS 222300Z 06002KT CAVOK 20/16 Q1022 NOSIG=
201908222330 METAR LRBS 222330Z 05001KT CAVOK 20/16 Q1022 NOSIG=
201908230000 METAR LRBS 230000Z 01002KT CAVOK 20/16 Q1022 NOSIG=
201908230030 METAR LRBS 230030Z 36001KT CAVOK 20/16 Q1022 NOSIG=
201908230100 METAR LRBS 230100Z 36002KT CAVOK 19/16 Q1022 NOSIG=
201908230130 METAR LRBS 230130Z 27002KT CAVOK 19/16 Q1022 NOSIG=
201908230200 METAR LRBS 230200Z 00000KT CAVOK 19/16 Q1022 NOSIG=
201908230230 METAR LRBS 230230Z 01002KT CAVOK 19/15 Q1022 NOSIG=
201908230300 METAR LRBS 230300Z 28003KT CAVOK 18/16 Q1022 NOSIG=
201908230330 METAR LRBS 230330Z 30004KT CAVOK 18/15 Q1022 NOSIG=
201908230400 METAR LRBS 230400Z 26003KT CAVOK 18/15 Q1022 NOSIG=
201908230430 METAR LRBS 230430Z 25003KT CAVOK 19/15 Q1023 NOSIG=
201908230500 METAR LRBS 230500Z 00000KT CAVOK 21/15 Q1023 NOSIG=
201908230530 METAR COR LRBS 230530Z VRB01KT CAVOK 22/15 Q1023 NOSIG=
201908230600 METAR LRBS 230600Z VRB01KT CAVOK 24/15 Q1023 NOSIG=
201908230630 METAR LRBS 230630Z 04003KT 340V090 CAVOK 24/15 Q1023 NOSIG=
201908230700 METAR LRBS 230700Z VRB02KT CAVOK 26/15 Q1023 NOSIG=
201908230730 METAR LRBS 230730Z VRB02KT CAVOK 27/15 Q1023 NOSIG=
201908230800 METAR LRBS 230800Z VRB03KT CAVOK 28/15 Q1023 NOSIG=
201908230830 METAR COR LRBS 230830Z VRB04KT CAVOK 29/15 Q1023 NOSIG=
201908230900 METAR LRBS 230900Z 04005KT 340V110 CAVOK 29/15 Q1023 NOSIG=
201908230930 METAR LRBS 230930Z VRB04KT CAVOK 30/15 Q1022 NOSIG=
201908231000 METAR LRBS 231000Z 02006KT 340V060 CAVOK 31/16 Q1022 NOSIG=
201908231030 METAR LRBS 231030Z 30004KT 260V010 CAVOK 31/15 Q1022 NOSIG=
201908231100 METAR LRBS 231100Z VRB03KT CAVOK 32/16 Q1022 NOSIG=
201908231130 METAR LRBS 231130Z VRB02KT CAVOK 31/15 Q1021 NOSIG=
201908231200 METAR LRBS 231200Z 05006KT 340V090 CAVOK 32/14 Q1021 NOSIG=
201908231230 METAR LRBS 231230Z VRB03KT CAVOK 32/14 Q1021 NOSIG=
201908231300 METAR LRBS 231300Z 06006KT 320V100 CAVOK 33/13 Q1021 NOSIG=
201908231330 METAR LRBS 231330Z 05008KT 020V080 CAVOK 33/13 Q1021 NOSIG=
201908231400 METAR LRBS 231400Z 04007KT 010V070 CAVOK 33/12 Q1020 NOSIG=
201908231430 METAR LRBS 231430Z 06007KT 040V100 CAVOK 33/13 Q1020 NOSIG=
201908231500 METAR LRBS 231500Z 06009KT CAVOK 32/13 Q1020 NOSIG=
201908231530 METAR LRBS 231530Z 07008KT 040V100 CAVOK 32/12 Q1020 NOSIG=
201908231600 METAR LRBS 231600Z 06008KT CAVOK 31/12 Q1020 NOSIG=
201908231630 METAR LRBS 231630Z 07007KT CAVOK 30/13 Q1020 NOSIG=
201908231700 METAR LRBS 231700Z 06006KT CAVOK 28/13 Q1021 NOSIG=
201908231730 METAR LRBS 231730Z 05005KT CAVOK 28/14 Q1021 NOSIG=
201908231800 METAR LRBS 231800Z 03004KT CAVOK 27/14 Q1021 NOSIG=
201908231830 METAR LRBS 231830Z 02004KT CAVOK 27/14 Q1022=
201908231900 METAR LRBS 231900Z 04004KT CAVOK 26/15 Q1022 NOSIG=
201908231930 METAR LRBS 231930Z 04006KT CAVOK 26/15 Q1022 NOSIG=
201908232000 METAR LRBS 232000Z 04006KT 010V070 CAVOK 26/15 Q1022 NOSIG=
201908232030 METAR COR LRBS 232030Z 03006KT CAVOK 25/15 Q1022 NOSIG=
201908232100 METAR LRBS 232100Z 04006KT CAVOK 25/15 Q1022 NOSIG=
201908232130 METAR LRBS 232130Z 03007KT 360V060 CAVOK 25/15 Q1022 NOSIG=
201908232200 METAR LRBS 232200Z 03005KT CAVOK 24/15 Q1022 NOSIG=
201908232230 METAR LRBS 232230Z 02004KT CAVOK 23/15 Q1022 NOSIG=
201908232300 METAR COR LRBS 232300Z 03003KT CAVOK 22/15 Q1022 NOSIG=
201908232330 METAR LRBS 232330Z 02002KT CAVOK 21/15 Q1022 NOSIG=
201908240000 METAR LRBS 240000Z 36002KT CAVOK 21/15 Q1022 NOSIG=
201908240030 METAR LRBS 240030Z VRB01KT CAVOK 21/15 Q1021 NOSIG=
201908240100 METAR LRBS 240100Z 00000KT CAVOK 21/15 Q1021 NOSIG=
201908240130 METAR LRBS 240130Z 00000KT CAVOK 21/15 Q1022 NOSIG=
201908240200 METAR LRBS 240200Z VRB02KT CAVOK 20/15 Q1022 NOSIG=
201908240230 METAR LRBS 240230Z VRB02KT CAVOK 20/15 Q1022 NOSIG=
201908240300 METAR LRBS 240300Z 01002KT CAVOK 20/14 Q1022 NOSIG=
201908240330 METAR COR LRBS 240330Z 00000KT CAVOK 20/15 Q1022 NOSIG=
201908240400 METAR LRBS 240400Z 00000KT CAVOK 20/15 Q1022 NOSIG=
201908240430 METAR LRBS 240430Z 00000KT CAVOK 21/15 Q1022 NOSIG=
201908240500 METAR LRBS 240500Z VRB02KT CAVOK 22/15 Q1022 NOSIG=
201908240530 METAR LRBS 240530Z 04005KT 360V070 9999 FEW038 23/15 Q1022
                        NOSIG=
201908240600 METAR COR LRBS 240600Z 05008KT 010V080 CAVOK 25/15 Q1022
                        NOSIG=
201908240630 METAR LRBS 240630Z 05007KT 010V070 CAVOK 26/16 Q1022 NOSIG=
201908240700 METAR LRBS 240700Z 04010KT 360V070 CAVOK 27/16 Q1022 NOSIG=
201908240730 METAR LRBS 240730Z 06010KT CAVOK 28/16 Q1022 NOSIG=
201908240800 METAR LRBS 240800Z 06010KT 020V090 CAVOK 29/16 Q1022 NOSIG=
201908240830 METAR LRBS 240830Z 04009KT 010V090 CAVOK 30/16 Q1022 NOSIG=
201908240900 METAR LRBS 240900Z 06012KT 030V090 CAVOK 30/16 Q1022 NOSIG=
201908240930 METAR LRBS 240930Z 06010KT 010V100 CAVOK 31/16 Q1022 NOSIG=
201908241000 METAR LRBS 241000Z 06010KT 010V090 CAVOK 31/15 Q1022 NOSIG=
201908241030 METAR LRBS 241030Z 06010KT 030V090 CAVOK 31/16 Q1021 NOSIG=
201908241100 METAR LRBS 241100Z 07010KT CAVOK 32/16 Q1021 NOSIG=
201908241130 METAR LRBS 241130Z 03010KT CAVOK 32/15 Q1021 NOSIG=
201908241200 METAR LRBS 241200Z 07006KT 020V100 CAVOK 32/15 Q1021 NOSIG=
201908241230 METAR LRBS 241230Z 07007KT CAVOK 32/14 Q1021 NOSIG=
201908241300 METAR LRBS 241300Z 07008KT CAVOK 32/14 Q1021 NOSIG=
201908241330 METAR LRBS 241330Z 04008KT 360V070 CAVOK 32/14 Q1020 NOSIG=
201908241400 METAR LRBS 241400Z 05008KT CAVOK 32/14 Q1020 NOSIG=
201908241430 METAR LRBS 241430Z 05007KT 020V090 CAVOK 32/14 Q1020 NOSIG=
201908241500 METAR LRBS 241500Z 04007KT CAVOK 32/15 Q1020 NOSIG=
201908241530 METAR LRBS 241530Z 06007KT CAVOK 32/15 Q1020 NOSIG=
201908241600 METAR LRBS 241600Z 05006KT CAVOK 31/15 Q1020 NOSIG=
201908241630 METAR LRBS 241630Z 03005KT CAVOK 30/16 Q1020 NOSIG=
201908241700 METAR LRBS 241700Z 02004KT CAVOK 29/15 Q1020 NOSIG=
201908241730 METAR LRBS 241730Z 02004KT CAVOK 28/16 Q1020 NOSIG=
201908241800 METAR LRBS 241800Z 02005KT CAVOK 28/15 Q1020 NOSIG=
201908241830 METAR LRBS 241830Z 02005KT CAVOK 27/15 Q1020 NOSIG=
201908241900 METAR COR LRBS 241900Z 02005KT CAVOK 27/15 Q1020 NOSIG=
201908241930 METAR LRBS 241930Z 02005KT CAVOK 26/15 Q1020 NOSIG=
201908242000 METAR LRBS 242000Z 03005KT CAVOK 26/15 Q1020 NOSIG=
201908242030 METAR LRBS 242030Z 06006KT 020V100 CAVOK 24/15 Q1021 NOSIG=
201908242100 METAR LRBS 242100Z 08004KT CAVOK 23/15 Q1021 NOSIG=
201908242130 METAR LRBS 242130Z 06001KT CAVOK 23/15 Q1020 NOSIG=
201908242200 METAR LRBS 242200Z 07002KT CAVOK 23/15 Q1020 NOSIG=
201908242230 METAR LRBS 242230Z 03003KT CAVOK 23/15 Q1020 NOSIG=
201908242300 METAR LRBS 242300Z AUTO 36003KT 9999 NCD 23/15 Q1020 NOSIG=
201908242330 METAR LRBS 242330Z 00000KT CAVOK 22/15 Q1020 NOSIG=
201908250000 METAR LRBS 250000Z 26004KT CAVOK 21/15 Q1020 NOSIG=
201908250030 METAR LRBS 250030Z 30002KT CAVOK 21/15 Q1020 NOSIG=
201908250100 METAR LRBS 250100Z 30003KT CAVOK 20/15 Q1020 NOSIG=
201908250130 METAR LRBS 250130Z 31002KT CAVOK 20/15 Q1020 NOSIG=
201908250200 METAR LRBS 250200Z 27002KT CAVOK 20/15 Q1020 NOSIG=
201908250230 METAR LRBS 250230Z 28001KT CAVOK 20/15 Q1020 NOSIG=
201908250300 METAR LRBS 250300Z 30002KT CAVOK 20/15 Q1020 NOSIG=
201908250330 METAR LRBS 250330Z 28002KT CAVOK 19/15 Q1020 NOSIG=
201908250400 METAR LRBS 250400Z 30001KT CAVOK 19/15 Q1020 NOSIG=
201908250430 METAR LRBS 250430Z VRB02KT CAVOK 21/15 Q1020 NOSIG=
201908250500 METAR LRBS 250500Z 03003KT CAVOK 23/16 Q1020 NOSIG=
201908250530 METAR LRBS 250530Z 04005KT 010V070 CAVOK 24/15 Q1020 NOSIG=
201908250600 METAR LRBS 250600Z 03007KT 360V060 CAVOK 26/16 Q1020 NOSIG=
201908250630 METAR LRBS 250630Z 04009KT 360V060 CAVOK 28/16 Q1020 NOSIG=
201908250700 METAR LRBS 250700Z 04011KT 360V070 CAVOK 29/16 Q1020 NOSIG=
201908250730 METAR LRBS 250730Z 05011KT CAVOK 29/16 Q1020 NOSIG=
201908250800 METAR LRBS 250800Z 04011KT 350V070 CAVOK 30/16 Q1020 NOSIG=
201908250830 METAR LRBS 250830Z 05012KT CAVOK 31/16 Q1020 NOSIG=
201908250900 METAR LRBS 250900Z 04011KT 010V070 CAVOK 31/16 Q1020 NOSIG=
201908250930 METAR LRBS 250930Z 04012KT CAVOK 33/16 Q1020 NOSIG=
201908251000 METAR LRBS 251000Z 04011KT CAVOK 33/16 Q1019 NOSIG=
201908251030 METAR LRBS 251030Z 06012KT 020V090 CAVOK 33/15 Q1019 NOSIG=
201908251100 METAR LRBS 251100Z 06014KT CAVOK 34/16 Q1019 NOSIG=
201908251130 METAR LRBS 251130Z 06014KT CAVOK 34/16 Q1019 NOSIG=
201908251200 METAR LRBS 251200Z 06017KT CAVOK 34/16 Q1019 NOSIG=
201908251230 METAR LRBS 251230Z 05013KT 020V080 CAVOK 34/16 Q1018 NOSIG=
201908251300 METAR LRBS 251300Z 06013KT CAVOK 34/15 Q1018 NOSIG=
201908251330 METAR LRBS 251330Z 07010KT CAVOK 34/16 Q1018 NOSIG=
201908251400 METAR LRBS 251400Z 06011KT 9999 FEW055TCU 34/17 Q1018 NOSIG=
201908251430 METAR LRBS 251430Z 05013KT 020V080 9999 VCTS FEW050CB 33/16
                        Q1017 TEMPO 5000 -TSRA=
201908251500 METAR LRBS 251500Z 05014KT 9999 VCTS FEW050CB 31/17 Q1018
                        TEMPO 5000 -TSRA=
201908251530 METAR LRBS 251530Z 11024KT 6000 TSRA SCT004 BKN050CB 24/19
                        Q1019 R07/29//95 TEMPO 3000 TSRA=
201908251600 METAR LRBS 251600Z 35004KT 290V080 9999 -TSRA SCT031 BKN050CB
                        24/20 Q1019 R07/29//95 TEMPO 1500
                        +TSRA=
201908251630 METAR LRBS 251630Z 04004KT 360V070 9999 VCTS FEW050CB 25/20
                        Q1019 R07/29//95 NOSIG=
201908251700 METAR LRBS 251700Z 06007KT 9999 FEW050CB 25/21 Q1019 R07/29//95
                        NOSIG=
201908251730 METAR LRBS 251730Z 06006KT CAVOK 25/20 Q1019 R07/29//95 NOSIG=
201908251800 METAR LRBS 251800Z 06006KT CAVOK 25/19 Q1019 R07/29//95 NOSIG=
201908251830 METAR LRBS 251830Z 03006KT 350V050 CAVOK 25/18 Q1020 R07/29//95
                        NOSIG=
201908251900 METAR LRBS 251900Z 03006KT CAVOK 24/18 Q1020 R07/29//95 NOSIG=
201908251930 METAR LRBS 251930Z 04004KT CAVOK 23/18 Q1021 R07/29//95 NOSIG=
201908252000 METAR LRBS 252000Z 05004KT 030V120 CAVOK 23/17 Q1021 R07/29//95
                        NOSIG=
201908252030 METAR LRBS 252030Z 05004KT CAVOK 22/17 Q1021 R07/29//95 NOSIG=
201908252100 METAR LRBS 252100Z 06004KT CAVOK 22/17 Q1021 R07/29//95 NOSIG=
201908252130 METAR LRBS 252130Z 04005KT CAVOK 23/17 Q1021 R07/29//95 NOSIG=
201908252200 METAR LRBS 252200Z 05005KT CAVOK 22/17 Q1021 R07/29//95 NOSIG=
201908252230 METAR LRBS 252230Z 04005KT CAVOK 22/17 Q1021 R07/29//95 NOSIG=
201908252300 METAR LRBS 252300Z 05007KT CAVOK 22/17 Q1021 R07/29//95 NOSIG=
201908252330 METAR LRBS 252330Z 05007KT CAVOK 22/17 Q1021 R07/29//95 NOSIG=
201908260000 METAR LRBS 260000Z 04007KT CAVOK 21/16 Q1020 R07/29//95 NOSIG=
201908260030 METAR LRBS 260030Z 04007KT CAVOK 22/16 Q1021 R07/29//95 NOSIG=
201908260100 METAR LRBS 260100Z 04007KT CAVOK 21/16 Q1021 R07/29//95 NOSIG=
201908260130 METAR LRBS 260130Z 05006KT CAVOK 21/16 Q1021 R07/29//95 NOSIG=
201908260200 METAR LRBS 260200Z 05005KT CAVOK 21/16 Q1021 R07/29//95 NOSIG=
201908260230 METAR LRBS 260230Z 05005KT CAVOK 21/16 Q1021 R07/29//95 NOSIG=
201908260300 METAR LRBS 260300Z 04006KT CAVOK 21/16 Q1021 R07/29//95 NOSIG=
201908260330 METAR LRBS 260330Z 04006KT CAVOK 21/16 Q1021 R07/29//95 NOSIG=
201908260400 METAR LRBS 260400Z 05007KT 010V070 CAVOK 21/16 Q1021 R07/29//95
                        NOSIG=
201908260430 METAR LRBS 260430Z 04005KT CAVOK 22/16 Q1021 R07/29//95 NOSIG=
201908260500 METAR LRBS 260500Z 05006KT CAVOK 22/16 Q1021 R07/29//95 NOSIG=
201908260530 METAR LRBS 260530Z 05009KT 020V080 CAVOK 23/16 Q1021 R07/29//95
                        NOSIG=
201908260600 METAR LRBS 260600Z 05008KT CAVOK 24/17 Q1021 R07/29//95 NOSIG=
201908260630 METAR LRBS 260630Z 04011KT CAVOK 26/16 Q1021 R07/29//95 NOSIG=
201908260700 METAR LRBS 260700Z 06012KT CAVOK 27/16 Q1022 R07/29//95 NOSIG=
201908260730 METAR LRBS 260730Z 05011KT CAVOK 28/16 Q1022 R07/29//95 NOSIG=
201908260800 METAR LRBS 260800Z 06011KT CAVOK 29/17 Q1022 R07/29//95 NOSIG=
201908260830 METAR LRBS 260830Z 05009KT CAVOK 29/16 Q1022 R07/29//95 NOSIG=
201908260900 METAR LRBS 260900Z 04008KT CAVOK 30/16 Q1022 R07/29//95 NOSIG=
201908260930 METAR LRBS 260930Z 04009KT CAVOK 31/16 Q1021 R07/29//95 NOSIG=
201908261000 METAR LRBS 261000Z 04010KT 010V070 CAVOK 32/16 Q1021 R07/29//95=
201908261030 METAR COR LRBS 261030Z 06011KT 030V100 CAVOK 32/15 Q1021
                        R07/29//95 NOSIG=
201908261100 METAR LRBS 261100Z 05010KT 010V090 CAVOK 33/15 Q1021 R07/29//95
                        NOSIG=
201908261130 METAR LRBS 261130Z 05010KT 020V080 CAVOK 33/15 Q1020 R07/29//95
                        NOSIG=
201908261200 METAR LRBS 261200Z 05009KT CAVOK 33/14 Q1020 R07/29//95 NOSIG=
201908261230 METAR LRBS 261230Z 06010KT 010V090 CAVOK 34/15 Q1020 R07/29//95
                        NOSIG=
201908261300 METAR LRBS 261300Z 08007KT CAVOK 34/14 Q1019 R07/29//95 NOSIG=
201908261330 METAR LRBS 261330Z 06011KT CAVOK 33/14 Q1019 R07/29//95 NOSIG=
201908261400 METAR LRBS 261400Z 06010KT 030V100 CAVOK 33/14 Q1019 R07/29//95
                        NOSIG=
201908261430 METAR LRBS 261430Z 08010KT CAVOK 32/13 Q1019 R07/29//95 NOSIG=
201908261500 METAR LRBS 261500Z 08010KT 050V110 CAVOK 33/13 Q1019 R07/29//95
                        NOSIG=
201908261530 METAR LRBS 261530Z 06011KT CAVOK 33/12 Q1019 R07/29//95 NOSIG=
201908261600 METAR COR LRBS 261600Z 06009KT CAVOK 32/13 Q1019 R07/CLRD//
                        NOSIG=
201908261630 METAR LRBS 261630Z 06007KT CAVOK 30/13 Q1019 R07/CLRD// NOSIG=
201908261700 METAR COR LRBS 261700Z 06004KT CAVOK 29/14 Q1020 NOSIG=
201908261730 METAR LRBS 261730Z 09004KT CAVOK 27/13 Q1020 NOSIG=
201908261800 METAR LRBS 261800Z 07003KT CAVOK 27/13 Q1020 NOSIG=
201908261830 METAR LRBS 261830Z 07003KT CAVOK 26/13 Q1020 NOSIG=
201908261900 METAR LRBS 261900Z 02006KT CAVOK 26/13 Q1021 NOSIG=
201908261930 METAR LRBS 261930Z 07006KT 040V100 CAVOK 25/13 Q1021 NOSIG=
201908262000 METAR LRBS 262000Z 06004KT CAVOK 24/13 Q1021 NOSIG=
201908262030 METAR LRBS 262030Z 05003KT CAVOK 24/13 Q1021 NOSIG=
201908262100 METAR LRBS 262100Z 06002KT CAVOK 23/13 Q1021 NOSIG=
201908262130 METAR LRBS 262130Z 01002KT CAVOK 23/13 Q1021 NOSIG=
201908262200 METAR LRBS 262200Z VRB01KT CAVOK 22/14 Q1021 NOSIG=
201908262230 METAR LRBS 262230Z VRB01KT CAVOK 22/13 Q1021 NOSIG=
201908262300 METAR LRBS 262300Z 36002KT CAVOK 22/14 Q1021 NOSIG=
201908262330 METAR LRBS 262330Z 02003KT CAVOK 21/14 Q1021 NOSIG=
201908270000 METAR LRBS 270000Z 01004KT 320V040 CAVOK 22/14 Q1020 NOSIG=
201908270030 METAR LRBS 270030Z 01003KT CAVOK 20/14 Q1021 NOSIG=
201908270100 METAR LRBS 270100Z 02004KT CAVOK 20/14 Q1021 NOSIG=
201908270130 METAR LRBS 270130Z VRB01KT CAVOK 19/14 Q1021 NOSIG=
201908270200 METAR LRBS 270200Z VRB01KT CAVOK 19/14 Q1021 NOSIG=
201908270230 METAR LRBS 270230Z 03001KT CAVOK 19/14 Q1021 NOSIG=
201908270300 METAR LRBS 270300Z 04002KT CAVOK 18/14 Q1021 NOSIG=
201908270330 METAR LRBS 270330Z 00000KT CAVOK 19/14 Q1021 NOSIG=
201908270400 METAR LRBS 270400Z 33002KT CAVOK 20/15 Q1021 NOSIG=
201908270430 METAR LRBS 270430Z 33002KT CAVOK 20/15 Q1021 NOSIG=
201908270500 METAR LRBS 270500Z VRB01KT CAVOK 22/15 Q1021 NOSIG=
201908270530 METAR LRBS 270530Z VRB02KT CAVOK 23/15 Q1021 NOSIG=
201908270600 METAR LRBS 270600Z 05003KT 010V080 CAVOK 24/15 Q1022 NOSIG=
201908270630 METAR LRBS 270630Z 05006KT 020V080 CAVOK 26/14 Q1022 NOSIG=
201908270700 METAR LRBS 270700Z 06004KT 010V090 CAVOK 27/16 Q1022 NOSIG=
201908270730 METAR LRBS 270730Z 01004KT 350V060 CAVOK 27/15 Q1022 NOSIG=
201908270800 METAR LRBS 270800Z 03005KT 350V090 CAVOK 29/15 Q1021 NOSIG=
201908270830 METAR LRBS 270830Z 05005KT 350V110 CAVOK 30/15 Q1021 NOSIG=
201908270900 METAR LRBS 270900Z 06006KT 010V110 CAVOK 30/13 Q1021 NOSIG=
201908270930 METAR LRBS 270930Z 08003KT 360V140 CAVOK 31/14 Q1021 NOSIG=
201908271000 METAR LRBS 271000Z 11006KT 070V140 CAVOK 31/13 Q1021 NOSIG=
201908271030 METAR LRBS 271030Z 04006KT 340V080 CAVOK 32/12 Q1021 NOSIG=
201908271100 METAR LRBS 271100Z 08007KT 050V130 CAVOK 32/13 Q1021 NOSIG=
201908271130 METAR LRBS 271130Z 09005KT CAVOK 33/13 Q1021 NOSIG=
201908271200 METAR LRBS 271200Z 11006KT 070V150 CAVOK 33/12 Q1020 NOSIG=
201908271230 METAR LRBS 271230Z 02006KT 360V060 CAVOK 33/12 Q1020 NOSIG=
201908271300 METAR LRBS 271300Z 09008KT 040V110 CAVOK 32/12 Q1020 NOSIG=
201908271330 METAR LRBS 271330Z 08008KT 050V110 CAVOK 33/13 Q1019 NOSIG=
201908271400 METAR LRBS 271400Z 09003KT 350V130 CAVOK 33/12 Q1019 NOSIG=
201908271430 METAR LRBS 271430Z 03008KT CAVOK 33/13 Q1019 NOSIG=
201908271500 METAR LRBS 271500Z 04006KT CAVOK 32/12 Q1019 NOSIG=
201908271530 METAR LRBS 271530Z 03004KT CAVOK 33/12 Q1019 NOSIG=
201908271600 METAR LRBS 271600Z 01004KT 340V050 CAVOK 32/13 Q1019 NOSIG=
201908271630 METAR LRBS 271630Z 07009KT CAVOK 30/13 Q1019 NOSIG=
201908271700 METAR LRBS 271700Z 10004KT CAVOK 30/14 Q1019 NOSIG=
201908271730 METAR LRBS 271730Z 03004KT CAVOK 29/14 Q1019 NOSIG=
201908271800 METAR LRBS 271800Z 05002KT CAVOK 27/15 Q1020 NOSIG=
201908271830 METAR LRBS 271830Z 03004KT CAVOK 26/15 Q1020 NOSIG=
201908271900 METAR LRBS 271900Z 09003KT CAVOK 26/15 Q1020 NOSIG=
201908271930 METAR LRBS 271930Z 09005KT CAVOK 26/14 Q1020 NOSIG=
201908272000 METAR LRBS 272000Z 12006KT CAVOK 27/13 Q1020 NOSIG=
201908272030 METAR LRBS 272030Z 13005KT CAVOK 27/13 Q1021 NOSIG=
201908272100 METAR LRBS 272100Z 16004KT CAVOK 26/13 Q1021 NOSIG=
201908272130 METAR LRBS 272130Z VRB02KT CAVOK 26/13 Q1021 NOSIG=
201908272200 METAR LRBS 272200Z 06002KT CAVOK 24/13 Q1021 NOSIG=
201908272230 METAR LRBS 272230Z 35004KT CAVOK 22/14 Q1021 NOSIG=
201908272300 METAR LRBS 272300Z 03003KT CAVOK 20/14 Q1021 NOSIG=
201908272330 METAR LRBS 272330Z 01002KT CAVOK 20/14 Q1021 NOSIG=
201908280000 METAR LRBS 280000Z 04002KT CAVOK 20/14 Q1021 NOSIG=
201908280030 METAR LRBS 280030Z 03002KT CAVOK 20/14 Q1021 NOSIG=
201908280100 METAR LRBS 280100Z 02003KT CAVOK 20/14 Q1021 NOSIG=
201908280130 METAR LRBS 280130Z 01002KT CAVOK 20/13 Q1021 NOSIG=
201908280200 METAR LRBS 280200Z VRB01KT CAVOK 20/13 Q1021 NOSIG=
201908280230 METAR LRBS 280230Z 00000KT CAVOK 20/13 Q1021 NOSIG=
201908280300 METAR LRBS 280300Z VRB01KT CAVOK 20/13 Q1021 NOSIG=
201908280330 METAR LRBS 280330Z 32001KT CAVOK 19/13 Q1021 NOSIG=
201908280400 METAR LRBS 280400Z 00000KT CAVOK 19/13 Q1022 NOSIG=
201908280430 METAR LRBS 280430Z 33001KT CAVOK 20/14 Q1022 NOSIG=
201908280500 METAR LRBS 280500Z 00000KT CAVOK 21/13 Q1022 NOSIG=
201908280530 METAR LRBS 280530Z 05003KT 350V070 CAVOK 23/14 Q1022 NOSIG=
201908280600 METAR LRBS 280600Z 07005KT CAVOK 23/14 Q1022 NOSIG=
201908280630 METAR LRBS 280630Z 05006KT CAVOK 24/13 Q1022 NOSIG=
201908280700 METAR LRBS 280700Z 06006KT CAVOK 26/14 Q1022 NOSIG=
201908280730 METAR LRBS 280730Z 07005KT 040V100 CAVOK 27/14 Q1022 NOSIG=
201908280800 METAR LRBS 280800Z 08005KT 040V110 CAVOK 28/14 Q1022 NOSIG=
201908280830 METAR LRBS 280830Z 06004KT 350V120 CAVOK 29/13 Q1022 NOSIG=
201908280900 METAR LRBS 280900Z VRB04KT CAVOK 30/13 Q1022 NOSIG=
201908280930 METAR LRBS 280930Z VRB03KT CAVOK 31/12 Q1021 NOSIG=
201908281000 METAR LRBS 281000Z 36004KT 310V060 CAVOK 31/11 Q1021 NOSIG=
201908281030 METAR LRBS 281030Z VRB05KT CAVOK 32/12 Q1021 NOSIG=
201908281100 METAR LRBS 281100Z VRB05KT CAVOK 32/12 Q1021 NOSIG=
201908281130 METAR LRBS 281130Z VRB04KT CAVOK 32/11 Q1020 NOSIG=
201908281200 METAR LRBS 281200Z 03004KT 310V120 CAVOK 32/10 Q1020 NOSIG=
201908281230 METAR LRBS 281230Z 07007KT 030V100 CAVOK 32/10 Q1020 NOSIG=
201908281300 METAR LRBS 281300Z 08004KT 010V160 CAVOK 33/11 Q1019 NOSIG=
201908281330 METAR LRBS 281330Z 05007KT 020V110 CAVOK 33/11 Q1019 NOSIG=
201908281400 METAR LRBS 281400Z 04008KT 360V070 CAVOK 33/11 Q1019 NOSIG=
201908281430 METAR LRBS 281430Z 06004KT 040V100 CAVOK 33/10 Q1019 NOSIG=
201908281500 METAR LRBS 281500Z 05006KT CAVOK 32/10 Q1019 NOSIG=
201908281530 METAR LRBS 281530Z 03006KT 010V070 CAVOK 32/11 Q1019 NOSIG=
201908281600 METAR LRBS 281600Z 05005KT 010V070 CAVOK 31/11 Q1019 NOSIG=
201908281630 METAR COR LRBS 281630Z 03004KT CAVOK 30/11 Q1019 NOSIG=
201908281700 METAR LRBS 281700Z 02005KT CAVOK 29/11 Q1019 NOSIG=
201908281730 METAR LRBS 281730Z 03003KT CAVOK 26/12 Q1019 NOSIG=
201908281800 METAR LRBS 281800Z 05003KT CAVOK 25/13 Q1019 NOSIG=
201908281830 METAR LRBS 281830Z 08003KT CAVOK 25/13 Q1019 NOSIG=
201908281900 METAR LRBS 281900Z 05002KT CAVOK 24/12 Q1019 NOSIG=
201908281930 METAR LRBS 281930Z 09004KT CAVOK 24/12 Q1019 NOSIG=
201908282000 METAR LRBS 282000Z 09004KT CAVOK 23/11 Q1019 NOSIG=
201908282030 METAR LRBS 282030Z 11003KT CAVOK 25/11 Q1019 NOSIG=
201908282100 METAR LRBS 282100Z 07004KT CAVOK 24/12 Q1019 NOSIG=
201908282130 METAR LRBS 282130Z 06004KT CAVOK 21/12 Q1020 NOSIG=
201908282200 METAR LRBS 282200Z 35002KT CAVOK 21/13 Q1020 NOSIG=
201908282230 METAR LRBS 282230Z 36002KT CAVOK 20/13 Q1020 NOSIG=
201908282300 METAR LRBS 282300Z VRB02KT CAVOK 20/12 Q1020 NOSIG=
201908282330 METAR LRBS 282330Z 02003KT CAVOK 18/12 Q1020 NOSIG=
201908290000 METAR LRBS 290000Z 03002KT CAVOK 18/12 Q1020 NOSIG=
201908290030 METAR LRBS 290030Z 36001KT CAVOK 18/13 Q1020 NOSIG=
201908290100 METAR LRBS 290100Z 03002KT CAVOK 18/12 Q1020 NOSIG=
201908290130 METAR LRBS 290130Z 03001KT CAVOK 18/12 Q1020 NOSIG=
201908290200 METAR LRBS 290200Z 36002KT CAVOK 18/13 Q1020 NOSIG=
201908290230 METAR LRBS 290230Z 35001KT CAVOK 18/13 Q1020 NOSIG=
201908290300 METAR LRBS 290300Z 03002KT CAVOK 18/12 Q1020 NOSIG=
201908290330 METAR LRBS 290330Z 02001KT CAVOK 17/13 Q1020 NOSIG=
201908290400 METAR LRBS 290400Z 33001KT CAVOK 18/13 Q1020 NOSIG=
201908290430 METAR LRBS 290430Z 33002KT CAVOK 18/13 Q1020 NOSIG=
201908290500 METAR LRBS 290500Z 11003KT CAVOK 20/13 Q1020 NOSIG=
201908290530 METAR LRBS 290530Z 08003KT CAVOK 21/13 Q1020 NOSIG=
201908290600 METAR LRBS 290600Z 06004KT 040V100 CAVOK 22/14 Q1020 NOSIG=
201908290630 METAR LRBS 290630Z 07004KT CAVOK 23/13 Q1020 NOSIG=
201908290700 METAR LRBS 290700Z 08004KT 040V130 CAVOK 24/14 Q1020 NOSIG=
201908290730 METAR LRBS 290730Z 07004KT 360V110 CAVOK 26/14 Q1020 NOSIG=
201908290800 METAR LRBS 290800Z 07004KT 010V100 CAVOK 27/13 Q1020 NOSIG=
201908290830 METAR LRBS 290830Z 08005KT 010V110 CAVOK 28/12 Q1020 NOSIG=
201908290900 METAR LRBS 290900Z 07005KT 020V100 CAVOK 29/12 Q1020 NOSIG=
201908290930 METAR LRBS 290930Z 06004KT 010V090 CAVOK 30/12 Q1020 NOSIG=
201908291000 METAR LRBS 291000Z 10004KT 060V150 CAVOK 30/11 Q1019=
201908291030 METAR COR LRBS 291030Z 11004KT 070V160 CAVOK 31/11 Q1019
                        NOSIG=
201908291100 METAR LRBS 291100Z 01004KT 310V100 CAVOK 31/10 Q1019 NOSIG=
201908291130 METAR COR LRBS 291130Z 05005KT 360V100 CAVOK 32/10 Q1019
                        NOSIG=
201908291200 METAR LRBS 291200Z VRB05KT CAVOK 32/11 Q1019 NOSIG=
201908291230 METAR LRBS 291230Z 06012KT CAVOK 32/11 Q1018 NOSIG=
201908291300 METAR LRBS 291300Z 03005KT 340V080 CAVOK 32/11 Q1018 NOSIG=
201908291330 METAR LRBS 291330Z 06008KT 020V080 CAVOK 32/10 Q1018 NOSIG=
201908291400 METAR LRBS 291400Z 07006KT 020V110 CAVOK 32/10 Q1018 NOSIG=
201908291430 METAR LRBS 291430Z 05007KT CAVOK 32/10 Q1018 NOSIG=
201908291500 METAR LRBS 291500Z 07007KT CAVOK 32/11 Q1017 NOSIG=
201908291530 METAR LRBS 291530Z 04003KT 360V070 CAVOK 32/10 Q1017 NOSIG=
201908291600 METAR LRBS 291600Z 02003KT 360V060 CAVOK 31/11 Q1017 NOSIG=
201908291630 METAR LRBS 291630Z 06003KT CAVOK 30/12 Q1017 NOSIG=
201908291700 METAR LRBS 291700Z 04002KT CAVOK 28/12 Q1017 NOSIG=
201908291730 METAR LRBS 291730Z 05003KT CAVOK 26/14 Q1017 NOSIG=
201908291800 METAR LRBS 291800Z 11004KT CAVOK 24/14 Q1017 NOSIG=
201908291830 METAR LRBS 291830Z 07002KT CAVOK 24/13 Q1018 NOSIG=
201908291900 METAR LRBS 291900Z 05001KT CAVOK 25/13 Q1018 NOSIG=
201908291930 METAR LRBS 291930Z 00000KT CAVOK 24/15 Q1018 NOSIG=
201908292000 METAR LRBS 292000Z 00000KT CAVOK 24/15 Q1018 NOSIG=
201908292030 METAR LRBS 292030Z 00000KT CAVOK 23/15 Q1018 NOSIG=
201908292100 METAR LRBS 292100Z 00000KT CAVOK 22/15 Q1018 NOSIG=
201908292130 METAR LRBS 292130Z 09004KT CAVOK 22/14 Q1018 NOSIG=
201908292200 METAR LRBS 292200Z 13003KT 070V210 CAVOK 22/13 Q1018 NOSIG=
201908292230 METAR LRBS 292230Z 00000KT CAVOK 22/14 Q1018 NOSIG=
201908292300 METAR LRBS 292300Z 33002KT CAVOK 20/14 Q1018 NOSIG=
201908292330 METAR LRBS 292330Z VRB01KT CAVOK 19/14 Q1018 NOSIG=
201908300000 METAR LRBS 300000Z VRB02KT CAVOK 19/14 Q1018 NOSIG=
201908300030 METAR LRBS 300030Z 00000KT CAVOK 19/14 Q1018 NOSIG=
201908300100 METAR LRBS 300100Z VRB01KT CAVOK 19/14 Q1018 NOSIG=
201908300130 METAR LRBS 300130Z VRB01KT CAVOK 17/13 Q1018 NOSIG=
201908300200 METAR LRBS 300200Z VRB01KT CAVOK 17/13 Q1018 NOSIG=
201908300230 METAR LRBS 300230Z 02003KT CAVOK 17/13 Q1018 NOSIG=
201908300300 METAR LRBS 300300Z 01003KT 9999 BKN084 18/13 Q1018 NOSIG=
201908300330 METAR LRBS 300330Z 02003KT CAVOK 17/13 Q1019 NOSIG=
201908300400 METAR LRBS 300400Z 03003KT CAVOK 16/13 Q1019 NOSIG=
201908300430 METAR LRBS 300430Z 05002KT CAVOK 17/13 Q1019 NOSIG=
201908300500 METAR LRBS 300500Z VRB01KT CAVOK 19/14 Q1019 NOSIG=
201908300530 METAR LRBS 300530Z 04004KT CAVOK 21/14 Q1019 NOSIG=
201908300600 METAR LRBS 300600Z 05005KT 010V070 CAVOK 22/14 Q1019 NOSIG=
201908300630 METAR LRBS 300630Z 07005KT 030V090 CAVOK 23/15 Q1020 NOSIG=
201908300700 METAR LRBS 300700Z 06005KT 020V090 CAVOK 24/15 Q1020 NOSIG=
201908300730 METAR LRBS 300730Z 07006KT CAVOK 25/16 Q1020 NOSIG=
201908300800 METAR LRBS 300800Z 07006KT 030V100 CAVOK 27/16 Q1020 NOSIG=
201908300830 METAR LRBS 300830Z 07007KT 040V120 9999 FEW045 28/16 Q1020
                        NOSIG=
201908300900 METAR LRBS 300900Z 09005KT 030V140 CAVOK 28/16 Q1020 NOSIG=
201908300930 METAR LRBS 300930Z 07004KT 360V150 CAVOK 28/16 Q1020 NOSIG=
201908301000 METAR LRBS 301000Z 01004KT 300V100 9000 FU NSC 29/16 Q1020
                        NOSIG=
201908301030 METAR LRBS 301030Z 06007KT 9000 FU NSC 29/14 Q1019 NOSIG=
201908301100 METAR LRBS 301100Z 06006KT 030V100 9999 FEW047 30/13 Q1019
                        NOSIG=
201908301130 METAR LRBS 301130Z 08005KT 340V150 9999 FEW049 30/14 Q1019
                        NOSIG=
201908301200 METAR LRBS 301200Z 09006KT 040V130 CAVOK 31/13 Q1019 NOSIG=
201908301230 METAR LRBS 301230Z 08005KT 030V140 CAVOK 31/13 Q1018 NOSIG=
201908301300 METAR LRBS 301300Z 06008KT 030V100 CAVOK 31/12 Q1018 NOSIG=
201908301330 METAR LRBS 301330Z 05007KT 020V090 CAVOK 32/13 Q1018 NOSIG=
201908301400 METAR LRBS 301400Z 03005KT 350V070 CAVOK 31/13 Q1018 NOSIG=
201908301430 METAR LRBS 301430Z 05005KT 360V090 CAVOK 31/12 Q1018 NOSIG=
201908301500 METAR LRBS 301500Z 08008KT CAVOK 30/12 Q1018 NOSIG=
201908301530 METAR LRBS 301530Z 06005KT 030V090 CAVOK 30/13 Q1017 NOSIG=
201908301600 METAR LRBS 301600Z 06005KT CAVOK 29/13 Q1018 NOSIG=
201908301630 METAR LRBS 301630Z 06003KT CAVOK 28/13 Q1018 NOSIG=
201908301700 METAR LRBS 301700Z 06004KT CAVOK 27/14 Q1018 NOSIG=
201908301730 METAR LRBS 301730Z 06004KT CAVOK 26/14 Q1018 NOSIG=
201908301800 METAR LRBS 301800Z 05003KT CAVOK 25/14 Q1018 NOSIG=
201908301830 METAR LRBS 301830Z 07003KT CAVOK 25/14 Q1019 NOSIG=
201908301900 METAR LRBS 301900Z 10005KT CAVOK 25/12 Q1019 NOSIG=
201908301930 METAR LRBS 301930Z 10005KT 070V130 CAVOK 24/13 Q1019 NOSIG=
201908302000 METAR LRBS 302000Z 10006KT CAVOK 25/13 Q1019 NOSIG=
201908302030 METAR LRBS 302030Z 11006KT CAVOK 25/13 Q1019 NOSIG=
201908302100 METAR LRBS 302100Z 09005KT CAVOK 24/13 Q1019 NOSIG=
201908302130 METAR LRBS 302130Z 10006KT CAVOK 23/13 Q1019 NOSIG=
201908302200 METAR LRBS 302200Z 10006KT CAVOK 22/13 Q1019 NOSIG=
201908302230 METAR LRBS 302230Z 10004KT CAVOK 22/13 Q1019 NOSIG=
201908302300 METAR LRBS 302300Z 05004KT CAVOK 20/13 Q1019 NOSIG=
201908302330 METAR LRBS 302330Z 03004KT CAVOK 20/13 Q1019 NOSIG=
201908310000 METAR LRBS 310000Z 03004KT CAVOK 19/13 Q1020 NOSIG=
201908310030 METAR LRBS 310030Z 06002KT CAVOK 18/13 Q1019 NOSIG=
201908310100 METAR LRBS 310100Z 05002KT CAVOK 17/13 Q1019 NOSIG=
201908310130 METAR LRBS 310130Z 02002KT CAVOK 18/13 Q1019 NOSIG=
201908310200 METAR LRBS 310200Z 36001KT CAVOK 18/13 Q1019 NOSIG=
201908310230 METAR LRBS 310230Z 04001KT CAVOK 16/13 Q1019 NOSIG=
201908310300 METAR LRBS 310300Z 03001KT CAVOK 16/13 Q1019 NOSIG=
201908310330 METAR LRBS 310330Z 03001KT CAVOK 16/13 Q1019 NOSIG=
201908310400 METAR LRBS 310400Z 00000KT CAVOK 17/13 Q1019 NOSIG=
201908310430 METAR LRBS 310430Z 00000KT CAVOK 18/13 Q1019 NOSIG=
201908310500 METAR COR LRBS 310500Z 36001KT CAVOK 19/13 Q1019 NOSIG=
201908310530 METAR LRBS 310530Z 03002KT CAVOK 20/13 Q1020 NOSIG=
201908310600 METAR LRBS 310600Z VRB02KT CAVOK 21/13 Q1020 NOSIG=
201908310630 METAR LRBS 310630Z 05004KT 020V080 CAVOK 23/12 Q1020 NOSIG=
201908310700 METAR LRBS 310700Z 07004KT 020V110 CAVOK 24/11 Q1020 NOSIG=
201908310730 METAR LRBS 310730Z 07005KT 360V110 CAVOK 25/10 Q1020 NOSIG=
201908310800 METAR LRBS 310800Z 07006KT 030V110 CAVOK 26/10 Q1020 NOSIG=
201908310830 METAR LRBS 310830Z 05007KT CAVOK 27/08 Q1020 NOSIG=
201908310900 METAR LRBS 310900Z 07008KT 020V100 CAVOK 28/07 Q1020 NOSIG=
201908310930 METAR LRBS 310930Z 06010KT CAVOK 28/07 Q1019 NOSIG=
201908311000 METAR LRBS 311000Z 07010KT 020V100 CAVOK 29/08 Q1019 NOSIG=
201908311030 METAR LRBS 311030Z 07011KT CAVOK 29/08 Q1019 NOSIG=
201908311100 METAR LRBS 311100Z 07011KT CAVOK 30/07 Q1019 NOSIG=
201908311130 METAR LRBS 311130Z 03009KT 010V070 CAVOK 30/07 Q1018 NOSIG=
201908311200 METAR COR LRBS 311200Z 07010KT 040V100 CAVOK 30/07 Q1018
                        NOSIG=
201908311230 METAR LRBS 311230Z 07010KT 350V090 CAVOK 31/06 Q1018 NOSIG=
201908311300 METAR LRBS 311300Z 05010KT 360V090 CAVOK 31/06 Q1017 NOSIG=
201908311330 METAR LRBS 311330Z 07009KT CAVOK 31/05 Q1017 NOSIG=
201908311400 METAR LRBS 311400Z 07009KT CAVOK 30/04 Q1017 NOSIG=
201908311430 METAR LRBS 311430Z 06011KT 020V090 CAVOK 30/04 Q1017 NOSIG=
201908311500 METAR COR LRBS 311500Z 06009KT 020V090 CAVOK 30/03 Q1016
                        NOSIG=
201908311530 METAR LRBS 311530Z 07009KT CAVOK 29/03 Q1016 NOSIG=
201908311600 METAR LRBS 311600Z 07008KT CAVOK 28/05 Q1016 NOSIG=
201908311630 METAR LRBS 311630Z 06006KT CAVOK 26/05 Q1016 NOSIG=
201908311700 METAR LRBS 311700Z 06005KT CAVOK 25/05 Q1016 NOSIG=
201908311730 METAR LRBS 311730Z 05004KT CAVOK 24/06 Q1017 NOSIG=
201908311800 METAR LRBS 311800Z 06002KT CAVOK 22/07 Q1017 NOSIG=
201908311830 METAR LRBS 311830Z 03002KT CAVOK 22/07 Q1017 NOSIG=
201908311900 METAR LRBS 311900Z 02002KT CAVOK 22/08 Q1017 NOSIG=
201908311930 METAR LRBS 311930Z 07002KT CAVOK 21/07 Q1017 NOSIG=
201908312000 METAR LRBS 312000Z 04002KT CAVOK 22/07 Q1017 NOSIG=
201908312030 METAR LRBS 312030Z 34001KT CAVOK 20/09 Q1017 NOSIG=
201908312100 METAR LRBS 312100Z 03003KT CAVOK 18/09 Q1017 NOSIG=
201908312130 METAR LRBS 312130Z 03001KT CAVOK 18/09 Q1017 NOSIG=
201908312200 METAR LRBS 312200Z 00000KT CAVOK 18/10 Q1017 NOSIG=
201908312230 METAR LRBS 312230Z 33003KT CAVOK 18/09 Q1017 NOSIG=
201908312300 METAR LRBS 312300Z 00000KT CAVOK 17/09 Q1017 NOSIG=
201908312330 METAR LRBS 312330Z 00000KT CAVOK 16/09 Q1017 NOSIG=