201908010148 TAF AMD LRBS 010148Z 0101/0124 05006KT CAVOK
                      TEMPO 0101/0106 SCT040CB
                      PROB40 TEMPO 0102/0105 5000 -TSRA
                      TEMPO 0112/0117 SCT040CB=
201908010500 TAF LRBS 010500Z 0106/0206 04007KT 9999 SCT045
                      TEMPO 0106/0109 5000 TSRA SCT015 BKN040CB
                       TEMPO 0111/0117 5000 TSRA SCT015 BKN040CB=
201908011100 TAF LRBS 011100Z 0112/0212 VRB04KT 9999 SCT045
                      TEMPO 0112/0117 5000 TSRA SCT015 BKN040CB=
201908011700 TAF LRBS 011700Z 0118/0218 VRB04KT CAVOK
                      TEMPO 0118/0119 5000 SHRA SCT015 BKN040CB
                       BECMG 0206/0208 27010KT
                      TEMPO 0210/0217 SCT030CB=
201908012300 TAF LRBS 012300Z 0200/0224 VRB04KT CAVOK
                      BECMG 0206/0208 27010KT
                      TEMPO 0210/0217 SCT030CB=
201908020500 TAF LRBS 020500Z 0206/0306 VRB04KT CAVOK
                      BECMG 0206/0208 24010KT
                      PROB40 TEMPO 0211/0217 SCT035CB
                      BECMG 0216/0218 05006KT
                      PROB30 TEMPO 0303/0306 5000 -SHRA SCT030CB=
201908021100 TAF LRBS 021100Z 0212/0312 27006KT 9999 SCT045
                      PROB30 TEMPO 0213/0217 SCT045CB
                      BECMG 0216/0218 05010KT
                      PROB30 TEMPO 0303/0306 5000 -SHRA SCT030CB
                       BECMG 0307/0309 25012KT
                      TEMPO 0307/0312 VRB18KT 5000 TSRA BKN030
                       BKN035CB=
201908021700 TAF LRBS 021700Z 0218/0318 34006KT 9999 SCT045
                      TEMPO 0218/0220 VRB16KT 5000 -SHRA SCT045CB
                       BECMG 0300/0302 06010KT
                      BECMG 0304/0306 SCT040CB
                      TEMPO 0306/0311 VRB20KT 5000 TSRA BKN015
                       BKN035CB
                      PROB40 0307/0310 1500 +TSRA BKN010 BKN030CB
                       BECMG 0309/0311 25012KT
                      TEMPO 0313/0318 5000 TSRA BKN035CB=
201908022300 TAF LRBS 022300Z 0300/0324 06010KT 9999 SCT040
                      BECMG 0304/0306 SCT040CB
                      TEMPO 0306/0311 VRB20KT 5000 TSRA BKN015
                       BKN035CB
                      PROB40 0307/0310 1500 +TSRA BKN010 BKN030CB
                       BECMG 0309/0311 25012KT
                      TEMPO 0313/0320 VRB20KT 5000 TSRA BKN035CB
                       BECMG 0320/0322 07010KT NSC=
201908030500 TAF LRBS 030500Z 0306/0406 08006KT CAVOK
                      BECMG 0309/0311 27010KT SCT040CB
                      TEMPO 0311/0317 VRB18G28KT 5000 TSRA
                      PROB40 TEMPO 0311/0316 3000 TSRA BKN010 BKN030CB
                       BECMG 0317/0319 NSC
                      BECMG 0322/0324 03008KT=
201908031100 TAF LRBS 031100Z 0312/0412 28008KT CAVOK
                      TEMPO 0312/0317 VRB20G30KT 5000 TSRA SCT035CB
                       PROB40
                      TEMPO 0312/0316 1500 +TSRA SCT010 BKN030CB
                       BECMG 0322/0324 03010KT
                      BECMG 0404/0406 VRB04KT
                      TEMPO 0410/0412 SCT040CB=
201908031700 TAF LRBS 031700Z 0318/0418 VRB04KT CAVOK
                      PROB40 TEMPO 0323/0405 VRB16KT -TSRA SCT050CB
                       TEMPO 0414/0418 VRB15G25KT 5000 TSRA SCT045CB=
201908032300 TAF LRBS 032300Z 0400/0424 VRB04KT CAVOK
                      TEMPO 0400/0406 FEW050CB
                      TEMPO 0414/0418 VRB15G25KT 5000 TSRA SCT045CB=
201908040500 TAF LRBS 040500Z 0406/0506 VRB04KT CAVOK
                      TEMPO 0413/0418 VRB15G25KT 5000 TSRA SCT045CB
                       TEMPO 0501/0505 3000 BR BKN010=
201908041022 TAF AMD LRBS 041022Z 0410/0506 VRB04KT 9999 SCT040
                      TEMPO 0410/0416 VRB15G25KT 5000 TSRA BKN030CB
                       TEMPO 0501/0505 3000 BR BKN010=
201908041100 TAF LRBS 041100Z 0412/0512 VRB04KT 9999 SCT040
                      TEMPO 0412/0417 VRB15G25KT 5000 TSRA BKN030CB
                       TEMPO 0501/0505 3000 BR BKN010=
201908041700 TAF LRBS 041700Z 0418/0518 VRB04KT CAVOK
                      TEMPO 0501/0505 3000 BR=
201908042300 TAF LRBS 042300Z 0500/0524 VRB04KT CAVOK
                      PROB40 TEMPO 0501/0505 3000 BR=
201908050500 TAF LRBS 050500Z 0506/0606 VRB04KT CAVOK
                      PROB30 TEMPO 0512/0516 SCT040CB
                      TEMPO 0601/0605 5000 BR=
201908051100 TAF LRBS 051100Z 0512/0612 VRB04KT CAVOK
                      PROB30 TEMPO 0512/0516 -TSRA SCT040CB
                      TEMPO 0601/0605 5000 BR=
201908051700 TAF LRBS 051700Z 0518/0618 VRB04KT CAVOK
                      TEMPO 0601/0605 5000 BR=
201908052300 TAF LRBS 052300Z 0600/0624 VRB04KT CAVOK
                      TEMPO 0601/0605 5000 BR=
201908060500 TAF LRBS 060500Z 0606/0706 VRB04KT CAVOK=
201908061100 TAF LRBS 061100Z 0612/0712 VRB04KT CAVOK=
201908061700 TAF LRBS 061700Z 0618/0718 VRB04KT CAVOK=
201908062300 TAF LRBS 062300Z 0700/0724 VRB04KT CAVOK=
201908070500 TAF LRBS 070500Z 0706/0806 VRB04KT CAVOK=
201908071100 TAF LRBS 071100Z 0712/0812 VRB04KT CAVOK=
201908071700 TAF LRBS 071700Z 0718/0818 VRB04KT CAVOK=
201908072300 TAF LRBS 072300Z 0800/0824 VRB04KT CAVOK=
201908080500 TAF LRBS 080500Z 0806/0906 VRB04KT CAVOK=
201908081100 TAF LRBS 081100Z 0812/0912 VRB04KT CAVOK=
201908081700 TAF LRBS 081700Z 0818/0918 VRB04KT CAVOK=
201908082300 TAF LRBS 082300Z 0900/0924 VRB04KT CAVOK=
201908090500 TAF LRBS 090500Z 0906/1006 06008KT CAVOK
                      TEMPO 0907/0910 FEW040CB
                      PROB30 TEMPO 0912/0916 VRB18KT 5000 -TSRA
                       SCT045CB=
201908091100 TAF LRBS 091100Z 0912/1012 VRB04KT CAVOK
                      PROB30 TEMPO 0914/0917 VRB15KT FEW045CB=
201908091700 TAF LRBS 091700Z 0918/1018 VRB04KT CAVOK=
201908092300 TAF LRBS 092300Z 1000/1024 VRB04KT CAVOK=
201908100500 TAF LRBS 100500Z 1006/1106 06008KT CAVOK=
201908101100 TAF LRBS 101100Z 1012/1112 08008KT CAVOK=
201908101700 TAF LRBS 101700Z 1018/1118 VRB03KT CAVOK=
201908102300 TAF LRBS 102300Z 1100/1124 VRB03KT CAVOK=
201908110500 TAF LRBS 110500Z 1106/1206 VRB04KT CAVOK=
201908111100 TAF LRBS 111100Z 1112/1212 VRB04KT CAVOK=
201908111700 TAF LRBS 111700Z 1118/1218 VRB04KT CAVOK=
201908112300 TAF LRBS 112300Z 1200/1224 VRB04KT CAVOK=
201908120500 TAF LRBS 120500Z 1206/1306 07006KT CAVOK=
201908121100 TAF LRBS 121100Z 1212/1312 07006KT CAVOK=
201908121700 TAF LRBS 121700Z 1218/1318 VRB04KT CAVOK=
201908122300 TAF LRBS 122300Z 1300/1324 VRB04KT CAVOK
                      TEMPO 1310/1314 13010KT=
201908130500 TAF LRBS 130500Z 1306/1406 11005KT CAVOK=
201908131100 TAF LRBS 131100Z 1312/1412 13005KT CAVOK=
201908131700 TAF LRBS 131700Z 1318/1418 13005KT CAVOK=
201908132300 TAF LRBS 132300Z 1400/1424 VRB04KT CAVOK=
201908140500 TAF LRBS 140500Z 1406/1506 07006KT CAVOK=
201908141100 TAF LRBS 141100Z 1412/1512 VRB04KT CAVOK
                      BECMG 1506/1508 09010KT=
201908141700 TAF LRBS 141700Z 1418/1518 VRB04KT CAVOK
                      BECMG 1506/1508 09012KT
                      TEMPO 1508/1518 5000 -SHRA SCT040CB
                      PROB40 1511/1516 3000 TSRA BKN015 BKN035CB=
201908142300 TAF LRBS 142300Z 1500/1524 VRB04KT CAVOK
                      BECMG 1506/1508 09012KT
                      TEMPO 1509/1520 5000 -SHRA SCT040CB
                      PROB40 1512/1516 3000 TSRA BKN015 BKN035CB=
201908150500 TAF LRBS 150500Z 1506/1606 12010KT CAVOK
                      TEMPO 1511/1515 SCT045CB
                      PROB40 TEMPO 1515/1522 5000 -SHRA SCT040CB
                       PROB30
                      TEMPO 1517/1521 3000 TSRA SCT035CB=
201908151100 TAF LRBS 151100Z 1512/1612 12008KT CAVOK
                      PROB30 TEMPO 1519/1523 5000 -SHRA SCT040CB=
201908151700 TAF LRBS 151700Z 1518/1618 12008KT CAVOK
                      TEMPO 1614/1618 SCT050CB
                      BECMG 1615/1617 05012KT=
201908152300 TAF LRBS 152300Z 1600/1624 09008KT CAVOK
                      TEMPO 1614/1618 SCT050CB
                      BECMG 1615/1617 03010KT=
201908160500 TAF LRBS 160500Z 1606/1706 11006KT CAVOK
                      TEMPO 1613/1617 SCT030CB
                      BECMG 1617/1619 04010KT
                      PROB30 TEMPO 1620/1702 5000 TSRA BKN010 BKN030CB=
201908161100 TAF LRBS 161100Z 1612/1712 12006KT CAVOK
                      BECMG 1617/1619 05010KT
                      PROB30 TEMPO 1622/1702 5000 TSRA BKN010 BKN030CB
                       BECMG 1702/1704 VRB04KT=
201908161700 TAF LRBS 161700Z 1618/1718 04005KT CAVOK
                      PROB30 TEMPO 1700/1704 5000 -SHRA SCT045CB=
201908162300 TAF LRBS 162300Z 1700/1724 04005KT CAVOK
                      PROB30 TEMPO 1701/1705 5000 -SHRA SCT045CB=
201908170500 TAF LRBS 170500Z 1706/1806 VRB04KT CAVOK
                      TEMPO 1711/1716 SCT045CB
                      PROB30 TEMPO 1712/1715 5000 -SHRA
                      PROB30 TEMPO 1802/1805 5000 BR=
201908171100 TAF LRBS 171100Z 1712/1812 VRB04KT 9999 SCT045
                      TEMPO 1712/1716 5000 -TSRA SCT045CB
                      PROB30 TEMPO 1802/1805 5000 BR=
201908171700 TAF LRBS 171700Z 1718/1818 VRB04KT CAVOK
                      TEMPO 1800/1805 3000 BR=
201908172300 TAF LRBS 172300Z 1800/1824 VRB04KT CAVOK
                      TEMPO 1800/1805 3000 BR=
201908180500 TAF LRBS 180500Z 1806/1906 VRB04KT CAVOK=
201908181100 TAF LRBS 181100Z 1812/1912 VRB04KT CAVOK
                      BECMG 1907/1909 05010KT=
201908181700 TAF LRBS 181700Z 1818/1918 VRB04KT CAVOK
                      BECMG 1907/1909 05010KT=
201908182300 TAF LRBS 182300Z 1900/1924 VRB04KT CAVOK
                      BECMG 1907/1909 05010KT=
201908190500 TAF LRBS 190500Z 1906/2006 05006KT CAVOK=
201908191100 TAF LRBS 191100Z 1912/2012 VRB04KT CAVOK=
201908191700 TAF LRBS 191700Z 1918/2018 06005KT CAVOK=
201908192300 TAF LRBS 192300Z 2000/2024 VRB04KT CAVOK=
201908200500 TAF LRBS 200500Z 2006/2106 VRB04KT CAVOK=
201908201100 TAF LRBS 201100Z 2012/2112 VRB04KT CAVOK=
201908201700 TAF LRBS 201700Z 2018/2118 VRB04KT CAVOK=
201908202300 TAF LRBS 202300Z 2100/2124 VRB04KT CAVOK=
201908210500 TAF LRBS 210500Z 2106/2206 04006KT CAVOK=
201908211100 TAF LRBS 211100Z 2112/2212 VRB04KT CAVOK
                      BECMG 2210/2212 04010KT=
201908211700 TAF LRBS 211700Z 2118/2218 VRB04KT CAVOK
                      BECMG 2209/2211 05010KT=
201908212300 TAF LRBS 212300Z 2200/2224 VRB04KT CAVOK
                      BECMG 2209/2211 05012KT=
201908220500 TAF LRBS 220500Z 2206/2306 04009KT CAVOK=
201908221100 TAF LRBS 221100Z 2212/2312 05009KT CAVOK=
201908221700 TAF LRBS 221700Z 2218/2318 07010KT CAVOK=
201908222300 TAF LRBS 222300Z 2300/2324 05008KT CAVOK=
201908230500 TAF LRBS 230500Z 2306/2406 VRB04KT CAVOK
                      BECMG 2312/2314 05012KT=
201908231100 TAF LRBS 231100Z 2312/2412 VRB04KT CAVOK
                      BECMG 2312/2314 05012KT=
201908231700 TAF LRBS 231700Z 2318/2418 06009KT CAVOK=
201908232300 TAF LRBS 232300Z 2400/2424 VRB04KT CAVOK
                      BECMG 2401/2403 06010KT=
201908240500 TAF LRBS 240500Z 2406/2506 VRB04KT CAVOK
                      BECMG 2406/2408 04012KT=
201908241100 TAF LRBS 241100Z 2412/2512 06006KT CAVOK
                      BECMG 2509/2511 06016KT=
201908241700 TAF LRBS 241700Z 2418/2518 VRB04KT CAVOK
                      BECMG 2506/2508 05010KT
                      TEMPO 2508/2516 06015G25KT
                      PROB30 TEMPO 2513/2516 5000 -TSRA SCT040CB=
201908242300 TAF LRBS 242300Z 2500/2524 VRB04KT CAVOK
                      BECMG 2506/2508 05010KT
                      TEMPO 2508/2516 06015G25KT
                      PROB30 TEMPO 2513/2516 5000 -TSRA SCT040CB=
201908250500 TAF LRBS 250500Z 2506/2606 06012KT CAVOK
                      TEMPO 2509/2517 06015G25KT
                      PROB30 TEMPO 2513/2517 5000 -TSRA SCT040CB=
201908251100 TAF LRBS 251100Z 2512/2612 06014KT CAVOK
                      TEMPO 2512/2517 06017G27KT
                      PROB30 TEMPO 2513/2517 5000 -TSRA SCT040CB=
201908251546 TAF AMD LRBS 251546Z 2515/2612 06014KT 3000 TSRA SCT020 BKN035CB
                       TEMPO 2515/2517 06017G27KT 1500 +TSRA BKN010
                       BKN030CB
                      BECMG 2518/2520 9999 NSW SCT045=
201908251700 TAF LRBS 251700Z 2518/2618 06016KT 3000 TSRA SCT030
                      TEMPO 2613/2618 3000 TSRA BKN010 BKN030CB
                       PROB40 2614/2617 VRB20G30KT 0800 +TSRAGR=
201908251813 TAF AMD LRBS 251813Z 2518/2618 06010KT 9999 SCT030
                      TEMPO 2613/2618 3000 TSRA BKN010 BKN030CB
                       PROB40 2614/2617 VRB20G30KT 0800 +TSRAGR=
201908252300 TAF LRBS 252300Z 2600/2624 06010KT 9999 SCT030
                      TEMPO 2613/2618 3000 TSRA BKN010 BKN030CB
                       PROB40 2614/2617 VRB20G30KT 0800 +TSRAGR
                       BECMG 2618/2620 VRB04KT=
201908260500 TAF LRBS 260500Z 2606/2706 06010KT CAVOK
                      TEMPO 2613/2618 SCT045CB
                      PROB30 TEMPO 2614/2617 VRB20KT 3000 TSRA
                       BKN010 BKN030CB
                      BECMG 2618/2620 VRB04KT=
201908261100 TAF LRBS 261100Z 2612/2712 07012KT CAVOK
                      TEMPO 2613/2618 SCT045CB
                      PROB30 TEMPO 2614/2617 VRB20KT 5000 -TSRA
                       BKN010 BKN030CB
                      BECMG 2618/2620 VRB04KT
                      BECMG 2707/2709 06012KT=
201908261700 TAF LRBS 261700Z 2618/2718 05007KT CAVOK=
201908262300 TAF LRBS 262300Z 2700/2724 05007KT CAVOK=
201908270500 TAF LRBS 270500Z 2706/2806 05008KT CAVOK=
201908271100 TAF LRBS 271100Z 2712/2812 05008KT CAVOK=
201908271700 TAF LRBS 271700Z 2718/2818 12005KT CAVOK
                      BECMG 2807/2809 06010KT=
201908272300 TAF LRBS 272300Z 2800/2824 VRB04KT CAVOK
                      BECMG 2807/2809 06010KT
                      BECMG 2817/2819 VRB04KT=
201908280500 TAF LRBS 280500Z 2806/2906 07010KT CAVOK
                      BECMG 2816/2818 VRB04KT=
201908281100 TAF LRBS 281100Z 2812/2912 07010KT CAVOK
                      BECMG 2816/2818 VRB04KT=
201908281700 TAF LRBS 281700Z 2818/2918 VRB04KT CAVOK
                      TEMPO 2911/2914 33010KT=
201908282300 TAF LRBS 282300Z 2900/2924 VRB04KT CAVOK
                      BECMG 2912/2914 02010KT
                      BECMG 2922/2924 08004KT=
201908290500 TAF LRBS 290500Z 2906/3006 VRB04KT CAVOK
                      BECMG 2912/2914 02010KT
                      BECMG 2922/2924 08004KT=
201908291100 TAF LRBS 291100Z 2912/3012 02008KT CAVOK=
201908291700 TAF LRBS 291700Z 2918/3018 02008KT CAVOK=
201908292300 TAF LRBS 292300Z 3000/3024 VRB04KT CAVOK=
201908300500 TAF LRBS 300500Z 3006/3106 07008KT CAVOK=
201908301100 TAF LRBS 301100Z 3012/3112 07006KT CAVOK=
201908301700 TAF LRBS 301700Z 3018/3118 VRB04KT CAVOK
                      BECMG 3107/3109 06010KT=
201908302300 TAF LRBS 302300Z 3100/3124 VRB04KT CAVOK
                      BECMG 3107/3109 06010KT
                      BECMG 3120/3122 VRB04KT=
201908310500 TAF LRBS 310500Z 3106/0106 VRB04KT CAVOK
                      BECMG 3107/3109 06010KT
                      BECMG 3116/3118 VRB04KT=
201908311100 TAF LRBS 311100Z 3112/0112 07010KT CAVOK
                      BECMG 3116/3118 VRB04KT=
201908311700 TAF LRBS 311700Z 3118/0118 07005KT CAVOK=
201908312300 TAF LRBS 312300Z 0100/0124 05005KT CAVOK=