201909010000 METAR LRBS 010000Z 33001KT CAVOK 16/10 Q1017 NOSIG=
201909010030 METAR LRBS 010030Z 00000KT CAVOK 16/10 Q1017 NOSIG=
201909010100 METAR LRBS 010100Z 32002KT CAVOK 16/10 Q1016 NOSIG=
201909010130 METAR LRBS 010130Z 00000KT CAVOK 16/10 Q1016 NOSIG=
201909010200 METAR LRBS 010200Z 00000KT CAVOK 15/10 Q1016 NOSIG=
201909010230 METAR LRBS 010230Z 09001KT CAVOK 15/09 Q1016 NOSIG=
201909010300 METAR LRBS 010300Z 00000KT CAVOK 15/09 Q1016 NOSIG=
201909010330 METAR LRBS 010330Z 00000KT CAVOK 15/10 Q1016 NOSIG=
201909010400 METAR LRBS 010400Z 30001KT CAVOK 14/10 Q1016 NOSIG=
201909010430 METAR LRBS 010430Z 31001KT CAVOK 15/11 Q1016 NOSIG=
201909010500 METAR LRBS 010500Z 00000KT CAVOK 17/11 Q1016 NOSIG=
201909010530 METAR LRBS 010530Z VRB02KT CAVOK 19/12 Q1016 NOSIG=
201909010600 METAR LRBS 010600Z VRB02KT CAVOK 21/12 Q1016 NOSIG=
201909010630 METAR LRBS 010630Z VRB02KT CAVOK 23/12 Q1016 NOSIG=
201909010700 METAR LRBS 010700Z 05003KT 020V090 CAVOK 24/12 Q1016 NOSIG=
201909010730 METAR LRBS 010730Z 35003KT 310V090 CAVOK 25/12 Q1016 NOSIG=
201909010800 METAR LRBS 010800Z 35003KT 270V040 CAVOK 26/11 Q1016 NOSIG=
201909010830 METAR LRBS 010830Z 07003KT 010V170 CAVOK 27/10 Q1016 NOSIG=
201909010900 METAR LRBS 010900Z VRB02KT CAVOK 28/10 Q1016 NOSIG=
201909010930 METAR LRBS 010930Z 06004KT 020V110 CAVOK 28/08 Q1016 NOSIG=
201909011000 METAR LRBS 011000Z 07006KT 030V100 CAVOK 29/08 Q1015 NOSIG=
201909011030 METAR LRBS 011030Z 09005KT 040V140 CAVOK 30/08 Q1015 NOSIG=
201909011100 METAR LRBS 011100Z 09005KT 060V180 CAVOK 30/07 Q1015 NOSIG=
201909011130 METAR LRBS 011130Z VRB05KT CAVOK 30/07 Q1015 NOSIG=
201909011200 METAR LRBS 011200Z 06006KT 030V100 CAVOK 31/08 Q1014 NOSIG=
201909011230 METAR LRBS 011230Z 02005KT 310V120 CAVOK 31/07 Q1014 NOSIG=
201909011300 METAR LRBS 011300Z VRB06KT CAVOK 31/07 Q1014 NOSIG=
201909011330 METAR LRBS 011330Z 08005KT 050V130 CAVOK 32/07 Q1014 NOSIG=
201909011400 METAR LRBS 011400Z 09007KT CAVOK 31/08 Q1014 NOSIG=
201909011430 METAR LRBS 011430Z VRB02KT CAVOK 31/07 Q1013 NOSIG=
201909011500 METAR COR LRBS 011500Z VRB02KT CAVOK 31/07 Q1013 NOSIG=
201909011530 METAR LRBS 011530Z 05005KT 360V090 CAVOK 31/07 Q1013 NOSIG=
201909011600 METAR LRBS 011600Z 02003KT 350V050 CAVOK 30/08 Q1013 NOSIG=
201909011630 METAR LRBS 011630Z 02003KT CAVOK 28/09 Q1013 NOSIG=
201909011700 METAR LRBS 011700Z 03003KT CAVOK 26/10 Q1013 NOSIG=
201909011730 METAR LRBS 011730Z 06003KT CAVOK 24/11 Q1014 NOSIG=
201909011800 METAR LRBS 011800Z 10003KT CAVOK 22/12 Q1014 NOSIG=
201909011830 METAR LRBS 011830Z 09004KT 020V110 CAVOK 24/10 Q1014 NOSIG=
201909011900 METAR LRBS 011900Z 09003KT CAVOK 23/10 Q1014 NOSIG=
201909011930 METAR LRBS 011930Z 09003KT CAVOK 22/09 Q1014 NOSIG=
201909012000 METAR LRBS 012000Z 10004KT CAVOK 22/09 Q1015 NOSIG=
201909012030 METAR LRBS 012030Z 08003KT CAVOK 21/10 Q1015 NOSIG=
201909012100 METAR LRBS 012100Z 07003KT CAVOK 21/10 Q1015 NOSIG=
201909012130 METAR COR LRBS 012130Z 06002KT CAVOK 21/11 Q1015 NOSIG=
201909012200 METAR LRBS 012200Z 07002KT CAVOK 20/10 Q1015 NOSIG=
201909012230 METAR LRBS 012230Z AUTO VRB02KT 9999 NCD 19/11 Q1015 NOSIG=
201909012300 METAR LRBS 012300Z 32004KT CAVOK 19/11 Q1015 NOSIG=
201909012330 METAR LRBS 012330Z 00000KT CAVOK 18/11 Q1015 NOSIG=
201909020000 METAR LRBS 020000Z 00000KT CAVOK 18/11 Q1015 NOSIG=
201909020030 METAR LRBS 020030Z 00000KT CAVOK 17/10 Q1015 NOSIG=
201909020100 METAR LRBS 020100Z 00000KT CAVOK 17/11 Q1015 NOSIG=
201909020130 METAR LRBS 020130Z 00000KT CAVOK 16/11 Q1015 NOSIG=
201909020200 METAR LRBS 020200Z 00000KT CAVOK 16/11 Q1015 NOSIG=
201909020230 METAR LRBS 020230Z 00000KT CAVOK 15/11 Q1015 NOSIG=
201909020300 METAR LRBS 020300Z 00000KT CAVOK 16/11 Q1015 NOSIG=
201909020330 METAR LRBS 020330Z 00000KT CAVOK 15/11 Q1015 NOSIG=
201909020400 METAR LRBS 020400Z 00000KT CAVOK 16/11 Q1015 NOSIG=
201909020430 METAR LRBS 020430Z 00000KT CAVOK 17/12 Q1015 NOSIG=
201909020500 METAR LRBS 020500Z 08001KT CAVOK 17/12 Q1016 NOSIG=
201909020530 METAR LRBS 020530Z 08002KT CAVOK 19/12 Q1016 NOSIG=
201909020600 METAR LRBS 020600Z VRB02KT CAVOK 20/12 Q1016 NOSIG=
201909020630 METAR LRBS 020630Z VRB01KT CAVOK 22/12 Q1016 NOSIG=
201909020700 METAR LRBS 020700Z VRB01KT CAVOK 24/12 Q1016 NOSIG=
201909020730 METAR LRBS 020730Z VRB02KT CAVOK 26/12 Q1016 NOSIG=
201909020800 METAR LRBS 020800Z 11003KT 060V150 CAVOK 27/11 Q1016 NOSIG=
201909020830 METAR LRBS 020830Z 14003KT 090V230 CAVOK 28/10 Q1016 NOSIG=
201909020900 METAR LRBS 020900Z 14005KT 060V190 CAVOK 29/08 Q1016 NOSIG=
201909020930 METAR LRBS 020930Z VRB04KT CAVOK 29/08 Q1016 NOSIG=
201909021000 METAR LRBS 021000Z 15006KT 110V180 CAVOK 30/08 Q1015 NOSIG=
201909021030 METAR LRBS 021030Z VRB03KT CAVOK 31/09 Q1015 NOSIG=
201909021100 METAR LRBS 021100Z 11005KT 050V150 CAVOK 31/09 Q1015 NOSIG=
201909021130 METAR LRBS 021130Z VRB05KT CAVOK 31/08 Q1015 NOSIG=
201909021200 METAR LRBS 021200Z 12006KT 070V170 CAVOK 32/08 Q1015 NOSIG=
201909021230 METAR LRBS 021230Z VRB04KT CAVOK 32/07 Q1014 NOSIG=
201909021300 METAR LRBS 021300Z 14006KT 090V180 CAVOK 32/07 Q1014 NOSIG=
201909021330 METAR LRBS 021330Z 14004KT 090V190 CAVOK 32/07 Q1014 NOSIG=
201909021400 METAR LRBS 021400Z 11005KT 070V140 CAVOK 32/08 Q1014 NOSIG=
201909021430 METAR LRBS 021430Z 11005KT 060V140 CAVOK 31/07 Q1014 NOSIG=
201909021500 METAR LRBS 021500Z 14005KT 110V170 CAVOK 32/08 Q1014 NOSIG=
201909021530 METAR LRBS 021530Z 07005KT CAVOK 31/08 Q1014 NOSIG=
201909021600 METAR LRBS 021600Z 08005KT CAVOK 30/09 Q1014 NOSIG=
201909021630 METAR LRBS 021630Z 05003KT CAVOK 28/10 Q1014 NOSIG=
201909021700 METAR LRBS 021700Z 04004KT CAVOK 26/11 Q1014 NOSIG=
201909021730 METAR LRBS 021730Z 05004KT CAVOK 25/11 Q1014 NOSIG=
201909021800 METAR LRBS 021800Z 04003KT CAVOK 23/11 Q1014 NOSIG=
201909021830 METAR LRBS 021830Z 10004KT CAVOK 25/10 Q1014 NOSIG=
201909021900 METAR COR LRBS 021900Z 11006KT CAVOK 27/10 Q1014 NOSIG=
201909021930 METAR LRBS 021930Z 13006KT CAVOK 26/10 Q1015 NOSIG=
201909022000 METAR LRBS 022000Z 12006KT CAVOK 26/11 Q1015 NOSIG=
201909022030 METAR LRBS 022030Z 13006KT CAVOK 25/11 Q1015 NOSIG=
201909022100 METAR LRBS 022100Z 14005KT CAVOK 25/11 Q1015 NOSIG=
201909022130 METAR LRBS 022130Z 14003KT 100V170 CAVOK 24/11 Q1015 NOSIG=
201909022200 METAR LRBS 022200Z VRB02KT CAVOK 23/11 Q1015 NOSIG=
201909022230 METAR LRBS 022230Z 08001KT CAVOK 21/11 Q1015 NOSIG=
201909022300 METAR LRBS 022300Z VRB02KT CAVOK 20/12 Q1015 NOSIG=
201909022330 METAR LRBS 022330Z 36002KT CAVOK 19/12 Q1015 NOSIG=
201909030000 METAR LRBS 030000Z 36002KT CAVOK 18/11 Q1015 NOSIG=
201909030030 METAR LRBS 030030Z 05001KT CAVOK 17/11 Q1016 NOSIG=
201909030100 METAR LRBS 030100Z 02002KT CAVOK 17/11 Q1016 NOSIG=
201909030130 METAR LRBS 030130Z 02002KT CAVOK 17/11 Q1016 NOSIG=
201909030200 METAR LRBS 030200Z 04001KT CAVOK 16/11 Q1015 NOSIG=
201909030230 METAR COR LRBS 030230Z 05001KT CAVOK 16/11 Q1015 NOSIG=
201909030300 METAR LRBS 030300Z 03002KT CAVOK 17/11 Q1015 NOSIG=
201909030330 METAR LRBS 030330Z 05001KT CAVOK 17/11 Q1016 NOSIG=
201909030400 METAR LRBS 030400Z 06001KT CAVOK 16/11 Q1016 NOSIG=
201909030430 METAR LRBS 030430Z 00000KT CAVOK 18/12 Q1016 NOSIG=
201909030500 METAR LRBS 030500Z 00000KT CAVOK 20/12 Q1016 NOSIG=
201909030530 METAR LRBS 030530Z 00000KT CAVOK 22/13 Q1016 NOSIG=
201909030600 METAR LRBS 030600Z VRB01KT CAVOK 23/12 Q1016 NOSIG=
201909030630 METAR LRBS 030630Z VRB01KT CAVOK 24/12 Q1016 NOSIG=
201909030700 METAR LRBS 030700Z 09003KT 060V140 CAVOK 26/11 Q1016 NOSIG=
201909030730 METAR LRBS 030730Z VRB01KT CAVOK 27/10 Q1016 NOSIG=
201909030800 METAR COR LRBS 030800Z VRB02KT CAVOK 28/11 Q1016 NOSIG=
201909030830 METAR LRBS 030830Z VRB03KT CAVOK 29/09 Q1016 NOSIG=
201909030900 METAR LRBS 030900Z 14003KT 070V220 CAVOK 29/08 Q1016 NOSIG=
201909030930 METAR LRBS 030930Z 12003KT 040V190 CAVOK 30/09 Q1016 NOSIG=
201909031000 METAR LRBS 031000Z 09004KT 060V130 CAVOK 30/08 Q1016 NOSIG=
201909031030 METAR LRBS 031030Z 20003KT 150V280 CAVOK 31/09 Q1016 NOSIG=
201909031100 METAR LRBS 031100Z 08004KT 350V110 CAVOK 31/08 Q1015 NOSIG=
201909031130 METAR LRBS 031130Z VRB02KT CAVOK 32/08 Q1015 NOSIG=
201909031200 METAR LRBS 031200Z 11004KT 070V180 CAVOK 32/08 Q1015 NOSIG=
201909031230 METAR LRBS 031230Z 08004KT 010V140 CAVOK 32/08 Q1015 NOSIG=
201909031300 METAR LRBS 031300Z VRB04KT CAVOK 32/08 Q1014 NOSIG=
201909031330 METAR LRBS 031330Z 12006KT 060V150 CAVOK 32/08 Q1014 NOSIG=
201909031400 METAR LRBS 031400Z VRB03KT CAVOK 32/09 Q1014 NOSIG=
201909031430 METAR LRBS 031430Z VRB02KT CAVOK 32/08 Q1014 NOSIG=
201909031500 METAR LRBS 031500Z 11004KT CAVOK 32/07 Q1014 NOSIG=
201909031530 METAR LRBS 031530Z VRB01KT CAVOK 31/10 Q1014 NOSIG=
201909031600 METAR LRBS 031600Z VRB02KT CAVOK 30/09 Q1014 NOSIG=
201909031630 METAR LRBS 031630Z 04002KT CAVOK 29/10 Q1014 NOSIG=
201909031700 METAR LRBS 031700Z 05002KT CAVOK 27/11 Q1014 NOSIG=
201909031730 METAR LRBS 031730Z 36001KT CAVOK 26/13 Q1014 NOSIG=
201909031800 METAR LRBS 031800Z 02001KT CAVOK 23/13 Q1014 NOSIG=
201909031830 METAR LRBS 031830Z 02001KT CAVOK 22/13 Q1014 NOSIG=
201909031900 METAR LRBS 031900Z 00000KT CAVOK 23/14 Q1014 NOSIG=
201909031930 METAR LRBS 031930Z 00000KT 9000 NSC 22/12 Q1014 NOSIG=
201909032000 METAR LRBS 032000Z 00000KT CAVOK 21/13 Q1014 NOSIG=
201909032030 METAR LRBS 032030Z 00000KT CAVOK 21/13 Q1014 NOSIG=
201909032100 METAR LRBS 032100Z 00000KT CAVOK 21/13 Q1015 NOSIG=
201909032130 METAR LRBS 032130Z 06007KT CAVOK 21/12 Q1015 NOSIG=
201909032200 METAR LRBS 032200Z 06006KT CAVOK 20/12 Q1015 NOSIG=
201909032230 METAR LRBS 032230Z 06006KT CAVOK 20/12 Q1015 NOSIG=
201909032300 METAR LRBS 032300Z 05007KT CAVOK 21/13 Q1015 NOSIG=
201909032330 METAR LRBS 032330Z 05005KT CAVOK 21/13 Q1015 NOSIG=
201909040000 METAR LRBS 040000Z 05004KT CAVOK 20/14 Q1015 NOSIG=
201909040030 METAR LRBS 040030Z 07005KT CAVOK 19/14 Q1015 NOSIG=
201909040100 METAR LRBS 040100Z 07006KT CAVOK 19/15 Q1016 NOSIG=
201909040130 METAR LRBS 040130Z 09008KT 9000 NSC 20/16 Q1016 NOSIG=
201909040200 METAR LRBS 040200Z 08007KT 9000 NSC 20/15 Q1016 NOSIG=
201909040230 METAR LRBS 040230Z 08007KT 9000 NSC 19/15 Q1016 NOSIG=
201909040300 METAR LRBS 040300Z 09008KT CAVOK 19/15 Q1016 NOSIG=
201909040330 METAR LRBS 040330Z 09008KT CAVOK 19/14 Q1016 NOSIG=
201909040400 METAR LRBS 040400Z 09009KT CAVOK 19/14 Q1017 NOSIG=
201909040430 METAR LRBS 040430Z 08010KT CAVOK 19/14 Q1017 NOSIG=
201909040500 METAR LRBS 040500Z 08011KT CAVOK 19/14 Q1017 NOSIG=
201909040530 METAR LRBS 040530Z 09012KT CAVOK 20/14 Q1017=
201909040600 METAR LRBS 040600Z 08014KT CAVOK 20/14 Q1018 NOSIG=
201909040630 METAR LRBS 040630Z 08010KT CAVOK 21/14 Q1018 NOSIG=
201909040700 METAR LRBS 040700Z 07012KT 040V100 CAVOK 21/14 Q1018 NOSIG=
201909040730 METAR COR LRBS 040730Z 07013KT CAVOK 23/14 Q1018 NOSIG=
201909040800 METAR LRBS 040800Z 07011KT CAVOK 23/14 Q1018 NOSIG=
201909040830 METAR LRBS 040830Z 10010KT 070V130 CAVOK 23/14 Q1018 NOSIG=
201909040900 METAR LRBS 040900Z 08012KT CAVOK 25/14 Q1018 NOSIG=
201909040930 METAR LRBS 040930Z 05010KT 020V090 CAVOK 25/14 Q1018 NOSIG=
201909041000 METAR LRBS 041000Z 07011KT 030V100 CAVOK 25/14 Q1018 NOSIG=
201909041030 METAR LRBS 041030Z 08013KT CAVOK 25/14 Q1018 NOSIG=
201909041100 METAR LRBS 041100Z 06013KT CAVOK 25/14 Q1017 NOSIG=
201909041130 METAR LRBS 041130Z 06010KT 040V100 CAVOK 25/13 Q1017 NOSIG=
201909041200 METAR LRBS 041200Z 06011KT 020V090 CAVOK 26/13 Q1017 NOSIG=
201909041230 METAR LRBS 041230Z 06010KT 020V090 CAVOK 26/13 Q1017 NOSIG=
201909041300 METAR COR LRBS 041300Z 07012KT 040V110 CAVOK 26/13 Q1016
                        NOSIG=
201909041330 METAR LRBS 041330Z 08013KT CAVOK 26/13 Q1016 NOSIG=
201909041400 METAR LRBS 041400Z 07013KT 040V100 CAVOK 25/13 Q1016 NOSIG=
201909041430 METAR LRBS 041430Z 06013KT CAVOK 25/13 Q1016 NOSIG=
201909041500 METAR LRBS 041500Z 06013KT CAVOK 25/13 Q1016 NOSIG=
201909041530 METAR LRBS 041530Z 06012KT 020V090 CAVOK 24/12 Q1016 NOSIG=
201909041600 METAR LRBS 041600Z 06011KT CAVOK 23/12 Q1016 NOSIG=
201909041630 METAR LRBS 041630Z 05012KT CAVOK 21/12 Q1017 NOSIG=
201909041700 METAR LRBS 041700Z 06012KT CAVOK 21/12 Q1017 NOSIG=
201909041730 METAR LRBS 041730Z 06010KT CAVOK 20/12 Q1017 NOSIG=
201909041800 METAR LRBS 041800Z 06009KT CAVOK 20/12 Q1017 NOSIG=
201909041830 METAR LRBS 041830Z 05010KT CAVOK 20/12 Q1017 NOSIG=
201909041900 METAR LRBS 041900Z 04010KT CAVOK 20/12 Q1018 NOSIG=
201909041930 METAR LRBS 041930Z 06012KT CAVOK 19/12 Q1017 NOSIG=
201909042000 METAR LRBS 042000Z 06010KT CAVOK 19/12 Q1017 NOSIG=
201909042030 METAR LRBS 042030Z 06010KT CAVOK 19/12 Q1017 NOSIG=
201909042100 METAR LRBS 042100Z 05009KT CAVOK 19/12 Q1017 NOSIG=
201909042130 METAR LRBS 042130Z 06011KT CAVOK 18/12 Q1017 NOSIG=
201909042200 METAR LRBS 042200Z 05007KT CAVOK 18/12 Q1018 NOSIG=
201909042230 METAR LRBS 042230Z 05009KT 020V080 CAVOK 18/12 Q1017 NOSIG=
201909042300 METAR LRBS 042300Z 05006KT CAVOK 18/12 Q1017 NOSIG=
201909042330 METAR LRBS 042330Z 04008KT 9999 -RA NSC 17/13 Q1017 NOSIG=
201909050000 METAR LRBS 050000Z 05007KT 9999 -SHRA FEW050CB 16/13 Q1017
                        NOSIG=
201909050030 METAR LRBS 050030Z 05008KT 020V080 9999 FEW050CB 17/13 Q1017
                        NOSIG=
201909050100 METAR LRBS 050100Z 06009KT 9999 FEW040CB 17/13 Q1017 NOSIG=
201909050130 METAR LRBS 050130Z 05008KT 9999 -SHRA FEW040CB BKN042 17/13
                        Q1017 NOSIG=
201909050200 METAR COR LRBS 050200Z 01005KT 9999 -SHRA FEW040 OVC042 16/14
                        Q1017 0729//95 NOSIG=
201909050230 METAR LRBS 050230Z 02006KT 9999 -SHRA SCT040CB OVC044 15/14
                        Q1017 0729//95 NOSIG=
201909050300 METAR LRBS 050300Z 01004KT 320V040 8000 SHRA SCT040CB OVC042
                        15/14 Q1017 0729//95 NOSIG=
201909050330 METAR LRBS 050330Z 05006KT 9999 -RA BKN041 15/14 Q1017 0729//95
                        NOSIG=
201909050400 METAR COR LRBS 050400Z 04005KT 8000 -RA FEW008 BKN046 15/14
                        Q1018 R07/29//95 NOSIG=
201909050430 METAR LRBS 050430Z 06007KT 7000 -DZ FEW005 SCT027 BKN038
                        15/14 Q1018 R07/29//95 NOSIG=
201909050500 METAR LRBS 050500Z 06007KT 6000 -DZ FEW004 BKN032 15/14 Q1018
                        R07/29//95 NOSIG=
201909050530 METAR LRBS 050530Z 07008KT 8000 -RA SCT005 BKN027 15/14 Q1018
                        R07/29//95 NOSIG=
201909050600 METAR LRBS 050600Z 08006KT 9999 FEW007 BKN045 15/14 Q1018
                        R07/29//95 NOSIG=
201909050630 METAR LRBS 050630Z 09005KT 9999 BKN044 16/15 Q1018 R07/29//95
                        NOSIG=
201909050700 METAR LRBS 050700Z 11004KT 080V140 CAVOK 16/14 Q1018 R07/29//95
                        NOSIG=
201909050730 METAR LRBS 050730Z 10006KT 9999 FEW030 18/14 Q1018 R07/29//95
                        NOSIG=
201909050800 METAR LRBS 050800Z 09008KT 9999 FEW032 18/14 Q1018 R07/29//95
                        NOSIG=
201909050830 METAR LRBS 050830Z 08009KT 050V110 CAVOK 19/14 Q1017 R07/29//95
                        NOSIG=
201909050900 METAR LRBS 050900Z 07008KT 040V110 CAVOK 20/13 Q1017 R07/CLRD//
                        NOSIG=
201909050930 METAR LRBS 050930Z 06007KT 030V090 CAVOK 21/14 Q1017 NOSIG=
201909051000 METAR LRBS 051000Z 05006KT 010V090 CAVOK 21/14 Q1017 NOSIG=
201909051030 METAR LRBS 051030Z 09008KT CAVOK 22/12 Q1017 NOSIG=
201909051100 METAR LRBS 051100Z 10004KT 030V170 CAVOK 23/12 Q1016 NOSIG=
201909051130 METAR LRBS 051130Z VRB03KT CAVOK 23/14 Q1016 NOSIG=
201909051200 METAR LRBS 051200Z VRB03KT CAVOK 23/13 Q1016 NOSIG=
201909051230 METAR LRBS 051230Z 36006KT 9999 FEW012 24/13 Q1015 NOSIG=
201909051300 METAR LRBS 051300Z VRB04KT 9999 FEW043 23/13 Q1015 NOSIG=
201909051330 METAR LRBS 051330Z VRB04KT CAVOK 23/12 Q1015 NOSIG=
201909051400 METAR LRBS 051400Z 12004KT CAVOK 24/13 Q1015 NOSIG=
201909051430 METAR LRBS 051430Z 10003KT 030V140 CAVOK 24/12 Q1015 NOSIG=
201909051500 METAR LRBS 051500Z 09003KT 060V150 CAVOK 24/12 Q1015 NOSIG=
201909051530 METAR LRBS 051530Z 07002KT 330V110 CAVOK 24/12 Q1015 NOSIG=
201909051600 METAR LRBS 051600Z 05002KT CAVOK 23/13 Q1015 NOSIG=
201909051630 METAR LRBS 051630Z 04002KT CAVOK 23/12 Q1014 NOSIG=
201909051700 METAR LRBS 051700Z 05002KT CAVOK 20/14 Q1015 NOSIG=
201909051730 METAR LRBS 051730Z 06002KT CAVOK 20/13 Q1015 NOSIG=
201909051800 METAR LRBS 051800Z VRB01KT CAVOK 19/13 Q1015 NOSIG=
201909051830 METAR LRBS 051830Z 06003KT 040V100 CAVOK 18/14 Q1015 NOSIG=
201909051900 METAR LRBS 051900Z 06002KT CAVOK 18/14 Q1015 NOSIG=
201909051930 METAR LRBS 051930Z 00000KT CAVOK 18/14 Q1015 NOSIG=
201909052000 METAR LRBS 052000Z 03001KT CAVOK 18/14 Q1015 NOSIG=
201909052030 METAR LRBS 052030Z 03001KT CAVOK 17/14 Q1015 NOSIG=
201909052100 METAR LRBS 052100Z 00000KT CAVOK 16/14 Q1015 NOSIG=
201909052130 METAR LRBS 052130Z 00000KT CAVOK 17/14 Q1015 NOSIG=
201909052200 METAR LRBS 052200Z 32001KT CAVOK 16/14 Q1015 NOSIG=
201909052230 METAR LRBS 052230Z 00000KT CAVOK 16/14 Q1015 NOSIG=
201909052300 METAR LRBS 052300Z 29002KT CAVOK 15/14 Q1015 NOSIG=
201909052330 METAR LRBS 052330Z AUTO 00000KT 9999 NCD 15/13 Q1016 NOSIG=
201909060000 METAR LRBS 060000Z VRB01KT CAVOK 15/13 Q1016 NOSIG=
201909060030 METAR LRBS 060030Z 10001KT CAVOK 15/13 Q1016 NOSIG=
201909060100 METAR LRBS 060100Z 00000KT CAVOK 14/13 Q1016 NOSIG=
201909060130 METAR LRBS 060130Z 30001KT CAVOK 14/13 Q1016 NOSIG=
201909060200 METAR LRBS 060200Z 00000KT CAVOK 15/13 Q1016 NOSIG=
201909060230 METAR LRBS 060230Z 28001KT CAVOK 14/13 Q1016 NOSIG=
201909060300 METAR LRBS 060300Z 00000KT CAVOK 14/13 Q1016 NOSIG=
201909060330 METAR LRBS 060330Z 34002KT 300V360 CAVOK 14/13 Q1017 NOSIG=
201909060400 METAR LRBS 060400Z 01002KT 340V040 9000 NSC 13/12 Q1017 NOSIG=
201909060430 METAR LRBS 060430Z 03002KT 9000 NSC 14/13 Q1017 NOSIG=
201909060500 METAR LRBS 060500Z VRB01KT CAVOK 16/14 Q1017 NOSIG=
201909060530 METAR LRBS 060530Z VRB01KT CAVOK 17/13 Q1017 NOSIG=
201909060600 METAR LRBS 060600Z 07005KT CAVOK 18/12 Q1017 NOSIG=
201909060630 METAR LRBS 060630Z 07007KT CAVOK 20/12 Q1018 NOSIG=
201909060700 METAR LRBS 060700Z 07007KT CAVOK 21/12 Q1018 NOSIG=
201909060730 METAR LRBS 060730Z 06006KT 030V090 CAVOK 22/12 Q1018 NOSIG=
201909060800 METAR LRBS 060800Z 04006KT CAVOK 23/12 Q1018 NOSIG=
201909060830 METAR LRBS 060830Z 05005KT 350V100 CAVOK 23/12 Q1018 NOSIG=
201909060900 METAR LRBS 060900Z 08004KT 020V130 CAVOK 25/12 Q1018 NOSIG=
201909060930 METAR LRBS 060930Z 09004KT 360V150 CAVOK 25/12 Q1018 NOSIG=
201909061000 METAR LRBS 061000Z 11003KT 050V210 CAVOK 26/12 Q1018 NOSIG=
201909061030 METAR LRBS 061030Z VRB02KT CAVOK 26/12 Q1018 NOSIG=
201909061100 METAR LRBS 061100Z VRB03KT CAVOK 26/12 Q1018 NOSIG=
201909061130 METAR LRBS 061130Z VRB04KT CAVOK 27/12 Q1017 NOSIG=
201909061200 METAR LRBS 061200Z 03005KT 340V110 CAVOK 27/12 Q1017 NOSIG=
201909061230 METAR LRBS 061230Z VRB04KT CAVOK 28/12 Q1017 NOSIG=
201909061300 METAR LRBS 061300Z VRB03KT CAVOK 28/11 Q1017 NOSIG=
201909061330 METAR LRBS 061330Z 09006KT 040V110 CAVOK 27/11 Q1017 NOSIG=
201909061400 METAR LRBS 061400Z 05006KT 350V080 CAVOK 27/10 Q1017 NOSIG=
201909061430 METAR LRBS 061430Z 07006KT 010V090 CAVOK 27/09 Q1017 NOSIG=
201909061500 METAR LRBS 061500Z 05007KT 010V070 CAVOK 27/10 Q1017 NOSIG=
201909061530 METAR LRBS 061530Z 06008KT CAVOK 26/09 Q1017 NOSIG=
201909061600 METAR LRBS 061600Z 07007KT 040V100 CAVOK 26/09 Q1017 NOSIG=
201909061630 METAR LRBS 061630Z 06006KT CAVOK 24/10 Q1017 NOSIG=
201909061700 METAR LRBS 061700Z 06006KT CAVOK 22/09 Q1018 NOSIG=
201909061730 METAR COR LRBS 061730Z 07005KT CAVOK 20/10 Q1018 NOSIG=
201909061800 METAR LRBS 061800Z 05003KT CAVOK 21/09 Q1018 NOSIG=
201909061830 METAR LRBS 061830Z 04002KT CAVOK 21/09 Q1018 NOSIG=
201909061900 METAR LRBS 061900Z 05002KT CAVOK 19/09 Q1019 NOSIG=
201909061930 METAR LRBS 061930Z 08002KT CAVOK 19/09 Q1019 NOSIG=
201909062000 METAR LRBS 062000Z 07003KT 040V130 CAVOK 18/09 Q1019 NOSIG=
201909062030 METAR LRBS 062030Z 06002KT CAVOK 18/09 Q1019 NOSIG=
201909062100 METAR LRBS 062100Z 03001KT CAVOK 18/09 Q1019 NOSIG=
201909062130 METAR LRBS 062130Z 01003KT CAVOK 18/09 Q1019 NOSIG=
201909062200 METAR LRBS 062200Z 03002KT CAVOK 17/09 Q1019 NOSIG=
201909062230 METAR LRBS 062230Z 03002KT CAVOK 16/09 Q1019 NOSIG=
201909062300 METAR LRBS 062300Z 04001KT CAVOK 16/09 Q1019 NOSIG=
201909062330 METAR LRBS 062330Z VRB01KT CAVOK 16/10 Q1019 NOSIG=
201909070000 METAR LRBS 070000Z VRB02KT CAVOK 16/09 Q1019 NOSIG=
201909070030 METAR LRBS 070030Z VRB02KT CAVOK 16/10 Q1019 NOSIG=
201909070100 METAR LRBS 070100Z 30002KT CAVOK 15/10 Q1019 NOSIG=
201909070130 METAR LRBS 070130Z VRB01KT CAVOK 15/10 Q1019 NOSIG=
201909070200 METAR LRBS 070200Z VRB02KT CAVOK 15/10 Q1019 NOSIG=
201909070230 METAR LRBS 070230Z VRB01KT CAVOK 15/11 Q1019 NOSIG=
201909070300 METAR LRBS 070300Z 00000KT CAVOK 15/11 Q1019 NOSIG=
201909070330 METAR LRBS 070330Z VRB01KT CAVOK 15/10 Q1019 NOSIG=
201909070400 METAR LRBS 070400Z 00000KT CAVOK 15/10 Q1019 NOSIG=
201909070430 METAR LRBS 070430Z 00000KT CAVOK 16/10 Q1019 NOSIG=
201909070500 METAR LRBS 070500Z VRB02KT CAVOK 17/11 Q1019 NOSIG=
201909070530 METAR LRBS 070530Z 02003KT CAVOK 19/12 Q1019 NOSIG=
201909070600 METAR LRBS 070600Z 02003KT 340V060 CAVOK 20/11 Q1019 NOSIG=
201909070630 METAR LRBS 070630Z 02006KT 350V060 CAVOK 22/11 Q1019 NOSIG=
201909070700 METAR LRBS 070700Z 04008KT CAVOK 24/12 Q1019 NOSIG=
201909070730 METAR LRBS 070730Z 05009KT 010V080 CAVOK 24/12 Q1019 NOSIG=
201909070800 METAR LRBS 070800Z 06008KT 360V080 CAVOK 25/12 Q1019 NOSIG=
201909070830 METAR LRBS 070830Z 05005KT 010V090 CAVOK 26/12 Q1019 NOSIG=
201909070900 METAR LRBS 070900Z 06007KT 030V090 CAVOK 26/12 Q1019 NOSIG=
201909070930 METAR LRBS 070930Z 07009KT 040V100 CAVOK 27/12 Q1019 NOSIG=
201909071000 METAR LRBS 071000Z 07010KT 040V100 CAVOK 27/12 Q1019 NOSIG=
201909071030 METAR LRBS 071030Z 05008KT 360V070 CAVOK 28/12 Q1018 NOSIG=
201909071100 METAR LRBS 071100Z 10008KT 050V140 CAVOK 27/12 Q1018 NOSIG=
201909071130 METAR LRBS 071130Z 07008KT CAVOK 27/12 Q1018 NOSIG=
201909071200 METAR LRBS 071200Z 07010KT CAVOK 28/11 Q1017 NOSIG=
201909071230 METAR LRBS 071230Z 08009KT 050V110 CAVOK 29/12 Q1017 NOSIG=
201909071300 METAR LRBS 071300Z 06008KT 020V090 CAVOK 28/12 Q1017 NOSIG=
201909071330 METAR LRBS 071330Z 07008KT CAVOK 28/11 Q1017 NOSIG=
201909071400 METAR LRBS 071400Z 07006KT 020V110 CAVOK 28/11 Q1017 NOSIG=
201909071430 METAR LRBS 071430Z 10007KT CAVOK 28/11 Q1017 NOSIG=
201909071500 METAR LRBS 071500Z 08008KT 030V100 CAVOK 28/11 Q1017 NOSIG=
201909071530 METAR LRBS 071530Z 07005KT CAVOK 27/11 Q1017 NOSIG=
201909071600 METAR LRBS 071600Z 03004KT CAVOK 26/12 Q1017 NOSIG=
201909071630 METAR LRBS 071630Z 03004KT CAVOK 25/12 Q1017 NOSIG=
201909071700 METAR LRBS 071700Z 04003KT CAVOK 23/13 Q1017 NOSIG=
201909071730 METAR LRBS 071730Z 04003KT CAVOK 22/13 Q1017 NOSIG=
201909071800 METAR LRBS 071800Z 05003KT CAVOK 21/13 Q1017 NOSIG=
201909071830 METAR LRBS 071830Z 07001KT CAVOK 21/13 Q1018 NOSIG=
201909071900 METAR LRBS 071900Z 08005KT CAVOK 19/13 Q1018 NOSIG=
201909071930 METAR LRBS 071930Z 09005KT CAVOK 21/12 Q1018 NOSIG=
201909072000 METAR LRBS 072000Z 10005KT CAVOK 22/11 Q1018 NOSIG=
201909072030 METAR LRBS 072030Z 10004KT CAVOK 20/11 Q1018 NOSIG=
201909072100 METAR LRBS 072100Z 08003KT CAVOK 19/11 Q1018 NOSIG=
201909072130 METAR LRBS 072130Z 06004KT CAVOK 19/11 Q1018 NOSIG=
201909072200 METAR LRBS 072200Z 03003KT CAVOK 18/12 Q1018 NOSIG=
201909072230 METAR COR LRBS 072230Z 03003KT CAVOK 16/12 Q1018 NOSIG=
201909072300 METAR LRBS 072300Z 02004KT CAVOK 17/11 Q1018 NOSIG=
201909072330 METAR LRBS 072330Z 05003KT CAVOK 16/11 Q1018 NOSIG=
201909080000 METAR LRBS 080000Z 06003KT CAVOK 16/11 Q1018 NOSIG=
201909080030 METAR LRBS 080030Z 07002KT CAVOK 15/11 Q1018 NOSIG=
201909080100 METAR LRBS 080100Z 06002KT CAVOK 15/11 Q1018 NOSIG=
201909080130 METAR LRBS 080130Z 05003KT CAVOK 14/12 Q1018 NOSIG=
201909080200 METAR LRBS 080200Z 07004KT CAVOK 14/11 Q1019 NOSIG=
201909080230 METAR LRBS 080230Z 07004KT 8000 NSC 14/12 Q1019 NOSIG=
201909080300 METAR LRBS 080300Z 06003KT 7000 NSC 14/13 Q1019 NOSIG=
201909080330 METAR LRBS 080330Z 07002KT 7000 MIFG NSC 15/14 Q1019 TEMPO
                        5000 BR=
201909080400 METAR LRBS 080400Z 07001KT 6000 MIFG NSC 15/14 Q1019 NOSIG=
201909080430 METAR LRBS 080430Z 00000KT 7000 MIFG NSC 16/14 Q1020 NOSIG=
201909080500 METAR LRBS 080500Z VRB01KT 8000 BR FEW010 17/15 Q1020 NOSIG=
201909080530 METAR LRBS 080530Z 04003KT 9999 SCT008 BKN014 18/15 Q1020
                        NOSIG=
201909080600 METAR LRBS 080600Z 05004KT 9999 FEW007 SCT016 19/15 Q1020
                        NOSIG=
201909080630 METAR LRBS 080630Z 06005KT 020V080 9999 FEW006 SCT020 20/16
                        Q1020 NOSIG=
201909080700 METAR LRBS 080700Z 06007KT 020V080 9999 FEW020 22/15 Q1020
                        NOSIG=
201909080730 METAR LRBS 080730Z 07008KT 040V100 CAVOK 23/16 Q1020 NOSIG=
201909080800 METAR LRBS 080800Z 08011KT 9999 FEW024 24/16 Q1020 NOSIG=
201909080830 METAR LRBS 080830Z 06010KT 020V090 9999 FEW030 25/15 Q1020
                        NOSIG=
201909080900 METAR LRBS 080900Z 11011KT 9999 SCT037 26/16 Q1020 NOSIG=
201909080930 METAR LRBS 080930Z 08009KT 050V110 9999 BKN040 25/15 Q1020
                        NOSIG=
201909081000 METAR LRBS 081000Z 07008KT 9999 BKN045 26/15 Q1020 NOSIG=
201909081030 METAR LRBS 081030Z 08007KT 050V110 9999 BKN045 27/15 Q1019
                        NOSIG=
201909081100 METAR LRBS 081100Z 10007KT 9999 SCT049 28/15 Q1019 NOSIG=
201909081130 METAR LRBS 081130Z 10009KT 070V130 CAVOK 27/13 Q1019 NOSIG=
201909081200 METAR LRBS 081200Z 10007KT 070V130 CAVOK 28/14 Q1019 NOSIG=
201909081230 METAR LRBS 081230Z 05009KT 010V090 CAVOK 28/14 Q1018 NOSIG=
201909081300 METAR LRBS 081300Z 07005KT 020V180 CAVOK 28/14 Q1018 NOSIG=
201909081330 METAR LRBS 081330Z 09008KT CAVOK 29/13 Q1018 NOSIG=
201909081400 METAR LRBS 081400Z 02007KT 350V060 CAVOK 27/14 Q1018 NOSIG=
201909081430 METAR LRBS 081430Z 05006KT 010V080 CAVOK 28/13 Q1018 NOSIG=
201909081500 METAR LRBS 081500Z 08009KT CAVOK 28/11 Q1018=
201909081530 METAR LRBS 081530Z 07011KT CAVOK 28/11 Q1018 NOSIG=
201909081600 METAR LRBS 081600Z 07014KT CAVOK 27/12 Q1018 NOSIG=
201909081630 METAR LRBS 081630Z 08010KT CAVOK 26/12 Q1019 NOSIG=
201909081700 METAR LRBS 081700Z 08009KT CAVOK 25/12 Q1019 NOSIG=
201909081730 METAR LRBS 081730Z 08009KT CAVOK 24/12 Q1019 NOSIG=
201909081800 METAR LRBS 081800Z 08011KT CAVOK 24/12 Q1020 NOSIG=
201909081830 METAR LRBS 081830Z 09011KT CAVOK 23/13 Q1020 NOSIG=
201909081900 METAR LRBS 081900Z 09010KT CAVOK 22/13 Q1020 NOSIG=
201909081930 METAR LRBS 081930Z 09010KT CAVOK 22/13 Q1020 NOSIG=
201909082000 METAR LRBS 082000Z 09008KT CAVOK 21/13 Q1020 NOSIG=
201909082030 METAR LRBS 082030Z 09006KT CAVOK 20/13 Q1021 NOSIG=
201909082100 METAR LRBS 082100Z 09007KT CAVOK 19/13 Q1021 NOSIG=
201909082130 METAR LRBS 082130Z 07004KT CAVOK 18/13 Q1021 NOSIG=
201909082200 METAR LRBS 082200Z 06003KT CAVOK 17/13 Q1021 NOSIG=
201909082230 METAR LRBS 082230Z 03002KT CAVOK 18/13 Q1021 NOSIG=
201909082300 METAR LRBS 082300Z 02003KT CAVOK 16/13 Q1021 NOSIG=
201909082330 METAR LRBS 082330Z 01002KT CAVOK 16/13 Q1021 NOSIG=
201909090000 METAR LRBS 090000Z 36003KT CAVOK 15/12 Q1020 NOSIG=
201909090030 METAR LRBS 090030Z 04003KT CAVOK 14/11 Q1020 NOSIG=
201909090100 METAR LRBS 090100Z 03003KT CAVOK 14/11 Q1020 NOSIG=
201909090130 METAR LRBS 090130Z 05003KT CAVOK 14/11 Q1020 NOSIG=
201909090200 METAR LRBS 090200Z VRB01KT CAVOK 15/11 Q1020 NOSIG=
201909090230 METAR LRBS 090230Z 35002KT CAVOK 14/11 Q1019 NOSIG=
201909090300 METAR LRBS 090300Z 01002KT CAVOK 14/11 Q1019 NOSIG=
201909090330 METAR LRBS 090330Z 02002KT CAVOK 14/10 Q1020 NOSIG=
201909090400 METAR LRBS 090400Z 04003KT CAVOK 13/10 Q1020 NOSIG=
201909090430 METAR LRBS 090430Z 05002KT CAVOK 15/11 Q1020 NOSIG=
201909090500 METAR LRBS 090500Z 05003KT CAVOK 16/11 Q1019 NOSIG=
201909090530 METAR LRBS 090530Z 05006KT 020V090 CAVOK 17/11 Q1019 NOSIG=
201909090600 METAR LRBS 090600Z 05007KT CAVOK 19/11 Q1019 NOSIG=
201909090630 METAR LRBS 090630Z 04007KT CAVOK 20/12 Q1019 NOSIG=
201909090700 METAR LRBS 090700Z 05006KT 010V070 CAVOK 21/12 Q1020 NOSIG=
201909090730 METAR LRBS 090730Z 07007KT 030V100 CAVOK 22/12 Q1019 NOSIG=
201909090800 METAR LRBS 090800Z 06007KT 020V110 CAVOK 24/13 Q1019 NOSIG=
201909090830 METAR LRBS 090830Z 08009KT CAVOK 24/12 Q1019 NOSIG=
201909090900 METAR LRBS 090900Z 09009KT 040V110 CAVOK 25/12 Q1019 NOSIG=
201909090930 METAR LRBS 090930Z 07009KT 020V100 CAVOK 25/12 Q1018 NOSIG=
201909091000 METAR LRBS 091000Z 08009KT 020V120 CAVOK 26/12 Q1018 NOSIG=
201909091030 METAR LRBS 091030Z 08010KT CAVOK 27/12 Q1018 NOSIG=
201909091100 METAR LRBS 091100Z 08010KT 050V120 CAVOK 27/12 Q1017 NOSIG=
201909091130 METAR LRBS 091130Z 11011KT CAVOK 27/11 Q1017 NOSIG=
201909091200 METAR LRBS 091200Z 11009KT 060V140 CAVOK 28/11 Q1016 NOSIG=
201909091230 METAR LRBS 091230Z 12009KT 080V160 CAVOK 28/11 Q1016 NOSIG=
201909091300 METAR LRBS 091300Z 11011KT 070V140 CAVOK 28/10 Q1016 NOSIG=
201909091330 METAR LRBS 091330Z 12009KT CAVOK 28/11 Q1016 NOSIG=
201909091400 METAR LRBS 091400Z 08009KT CAVOK 27/11 Q1015 NOSIG=
201909091430 METAR LRBS 091430Z 11010KT 080V140 CAVOK 27/10 Q1015 NOSIG=
201909091500 METAR LRBS 091500Z 09012KT CAVOK 27/09 Q1015 NOSIG=
201909091530 METAR LRBS 091530Z 09012KT CAVOK 26/08 Q1015 NOSIG=
201909091600 METAR LRBS 091600Z 09010KT CAVOK 26/08 Q1016 NOSIG=
201909091630 METAR LRBS 091630Z 07010KT CAVOK 24/08 Q1016 NOSIG=
201909091700 METAR LRBS 091700Z 07008KT CAVOK 22/08 Q1016 NOSIG=
201909091730 METAR LRBS 091730Z 08008KT CAVOK 23/08 Q1016 NOSIG=
201909091800 METAR COR LRBS 091800Z 08010KT CAVOK 22/09 Q1016 NOSIG=
201909091830 METAR LRBS 091830Z 08008KT CAVOK 21/10 Q1017 NOSIG=
201909091900 METAR LRBS 091900Z 08008KT CAVOK 21/11 Q1017=
201909091930 METAR LRBS 091930Z 07007KT CAVOK 20/12 Q1017 NOSIG=
201909092000 METAR LRBS 092000Z 08009KT CAVOK 20/12 Q1017 NOSIG=
201909092030 METAR LRBS 092030Z 08008KT CAVOK 20/13 Q1017 NOSIG=
201909092100 METAR LRBS 092100Z 07005KT CAVOK 19/13 Q1017 NOSIG=
201909092130 METAR LRBS 092130Z 06004KT CAVOK 18/13 Q1017 NOSIG=
201909092200 METAR LRBS 092200Z 05004KT CAVOK 17/13 Q1017 NOSIG=
201909092230 METAR LRBS 092230Z 06004KT CAVOK 17/13 Q1017 NOSIG=
201909092300 METAR LRBS 092300Z 08002KT CAVOK 17/13 Q1017 NOSIG=
201909092330 METAR LRBS 092330Z 35003KT 320V030 CAVOK 17/13 Q1017 NOSIG=
201909100000 METAR LRBS 100000Z 02004KT CAVOK 16/12 Q1017 NOSIG=
201909100030 METAR LRBS 100030Z 05002KT CAVOK 15/12 Q1017 NOSIG=
201909100100 METAR LRBS 100100Z VRB02KT CAVOK 15/12 Q1017 NOSIG=
201909100130 METAR LRBS 100130Z 02003KT CAVOK 16/12 Q1017 NOSIG=
201909100200 METAR LRBS 100200Z 03003KT 350V050 CAVOK 16/12 Q1017 NOSIG=
201909100230 METAR LRBS 100230Z 04003KT CAVOK 15/12 Q1017 NOSIG=
201909100300 METAR LRBS 100300Z 05003KT 010V070 CAVOK 15/12 Q1017 NOSIG=
201909100330 METAR COR LRBS 100330Z 03002KT CAVOK 15/12 Q1017 NOSIG=
201909100400 METAR LRBS 100400Z 07002KT CAVOK 15/12 Q1018 NOSIG=
201909100430 METAR LRBS 100430Z 36003KT CAVOK 16/12 Q1018 NOSIG=
201909100500 METAR LRBS 100500Z VRB02KT CAVOK 16/12 Q1018 NOSIG=
201909100530 METAR LRBS 100530Z 04004KT CAVOK 16/12 Q1018 NOSIG=
201909100600 METAR LRBS 100600Z 03005KT CAVOK 17/13 Q1018 NOSIG=
201909100630 METAR LRBS 100630Z 05006KT 010V070 CAVOK 19/13 Q1019 NOSIG=
201909100700 METAR LRBS 100700Z 04008KT 010V070 CAVOK 20/13 Q1019 NOSIG=
201909100730 METAR LRBS 100730Z 04007KT 010V070 CAVOK 21/14 Q1019 NOSIG=
201909100800 METAR LRBS 100800Z 06009KT CAVOK 23/15 Q1019 NOSIG=
201909100830 METAR LRBS 100830Z 04009KT CAVOK 24/15 Q1019 NOSIG=
201909100900 METAR COR LRBS 100900Z 06010KT 020V100 9999 FEW040 25/15
                        Q1019 NOSIG=
201909100930 METAR LRBS 100930Z 04008KT 010V070 9999 FEW038 25/13 Q1019
                        NOSIG=
201909101000 METAR LRBS 101000Z 05009KT 020V080 9999 FEW040 26/12 Q1018
                        NOSIG=
201909101030 METAR LRBS 101030Z 07010KT 9999 FEW045 26/11 Q1018 NOSIG=
201909101100 METAR LRBS 101100Z 08012KT 9999 FEW048 27/11 Q1018 NOSIG=
201909101130 METAR LRBS 101130Z 04009KT 350V070 CAVOK 27/10 Q1018 NOSIG=
201909101200 METAR LRBS 101200Z 04007KT 360V070 CAVOK 27/10 Q1018 NOSIG=
201909101230 METAR LRBS 101230Z 07009KT 030V090 CAVOK 27/09 Q1018 NOSIG=
201909101300 METAR LRBS 101300Z 05006KT 020V080 CAVOK 27/09 Q1018 NOSIG=
201909101330 METAR LRBS 101330Z 03008KT 350V060 CAVOK 27/09 Q1018 NOSIG=
201909101400 METAR LRBS 101400Z 02008KT 340V050 CAVOK 27/08 Q1018 NOSIG=
201909101430 METAR LRBS 101430Z 03007KT 360V060 CAVOK 27/10 Q1018 NOSIG=
201909101500 METAR LRBS 101500Z 04008KT 350V070 CAVOK 27/11 Q1018 NOSIG=
201909101530 METAR LRBS 101530Z 07009KT CAVOK 26/10 Q1018 NOSIG=
201909101600 METAR LRBS 101600Z 07006KT CAVOK 25/10 Q1018 NOSIG=
201909101630 METAR LRBS 101630Z 06005KT CAVOK 24/11 Q1018 NOSIG=
201909101700 METAR LRBS 101700Z 03004KT CAVOK 23/11 Q1018 NOSIG=
201909101730 METAR LRBS 101730Z 03005KT CAVOK 23/11 Q1019 NOSIG=
201909101800 METAR LRBS 101800Z 03005KT CAVOK 23/11 Q1019 NOSIG=
201909101830 METAR LRBS 101830Z 04005KT CAVOK 22/11 Q1019 NOSIG=
201909101900 METAR LRBS 101900Z 07005KT CAVOK 20/11 Q1019 NOSIG=
201909101930 METAR LRBS 101930Z 05004KT 010V070 CAVOK 20/12 Q1020 NOSIG=
201909102000 METAR LRBS 102000Z 06003KT CAVOK 19/12 Q1020 NOSIG=
201909102030 METAR LRBS 102030Z 03003KT CAVOK 19/12 Q1020 NOSIG=
201909102100 METAR LRBS 102100Z 02003KT CAVOK 18/12 Q1020 NOSIG=
201909102130 METAR COR LRBS 102130Z 02002KT CAVOK 17/12 Q1020 NOSIG=
201909102200 METAR LRBS 102200Z 01002KT CAVOK 17/12 Q1020 NOSIG=
201909102230 METAR LRBS 102230Z 02003KT 350V060 CAVOK 16/11 Q1021 NOSIG=
201909102300 METAR LRBS 102300Z VRB02KT CAVOK 16/11 Q1021 NOSIG=
201909102330 METAR LRBS 102330Z VRB01KT CAVOK 16/10 Q1021 NOSIG=
201909110000 METAR LRBS 110000Z 01003KT CAVOK 16/10 Q1020 NOSIG=
201909110030 METAR LRBS 110030Z 01003KT CAVOK 16/10 Q1020 NOSIG=
201909110100 METAR LRBS 110100Z 02003KT CAVOK 16/10 Q1021 NOSIG=
201909110130 METAR LRBS 110130Z VRB01KT CAVOK 14/10 Q1021 NOSIG=
201909110200 METAR LRBS 110200Z VRB01KT CAVOK 14/10 Q1021 NOSIG=
201909110230 METAR LRBS 110230Z 01004KT CAVOK 15/10 Q1021 NOSIG=
201909110300 METAR LRBS 110300Z 02005KT 330V050 CAVOK 16/10 Q1020 NOSIG=
201909110330 METAR LRBS 110330Z 02005KT 330V050 CAVOK 16/10 Q1020 NOSIG=
201909110400 METAR LRBS 110400Z 02004KT 350V050 CAVOK 16/10 Q1021 NOSIG=
201909110430 METAR LRBS 110430Z 02005KT CAVOK 16/10 Q1021 NOSIG=
201909110500 METAR LRBS 110500Z 02006KT CAVOK 17/11 Q1021 NOSIG=
201909110530 METAR LRBS 110530Z 04004KT CAVOK 18/11 Q1022 NOSIG=
201909110600 METAR LRBS 110600Z 03006KT CAVOK 19/12 Q1022 NOSIG=
201909110630 METAR LRBS 110630Z 04007KT 010V070 9999 SCT021 19/13 Q1022
                        NOSIG=
201909110700 METAR LRBS 110700Z 05010KT 020V080 9999 BKN020 20/13 Q1023
                        NOSIG=
201909110730 METAR LRBS 110730Z 05008KT 9999 SCT022 BKN028 21/13 Q1023
                        NOSIG=
201909110800 METAR LRBS 110800Z 05009KT 360V070 9999 BKN021 22/14 Q1023
                        NOSIG=
201909110830 METAR LRBS 110830Z 06009KT 020V090 9999 SCT024 25/15 Q1023
                        NOSIG=
201909110900 METAR LRBS 110900Z 06011KT 9999 SCT035 24/15 Q1023 NOSIG=
201909110930 METAR LRBS 110930Z 07012KT 9999 SCT036 25/15 Q1022 NOSIG=
201909111000 METAR LRBS 111000Z 08011KT 9999 SCT038 26/15 Q1023 NOSIG=
201909111030 METAR LRBS 111030Z 06010KT 350V090 9999 SCT040 26/13 Q1022
                        NOSIG=
201909111100 METAR LRBS 111100Z 08010KT CAVOK 26/12 Q1023 NOSIG=
201909111130 METAR LRBS 111130Z 05010KT 360V080 CAVOK 26/12 Q1022 NOSIG=
201909111200 METAR LRBS 111200Z 05008KT 020V080 CAVOK 27/11 Q1022 NOSIG=
201909111230 METAR LRBS 111230Z 04011KT CAVOK 28/11 Q1022 NOSIG=
201909111300 METAR LRBS 111300Z 04007KT 360V080 CAVOK 27/11 Q1022 NOSIG=
201909111330 METAR LRBS 111330Z 02007KT 340V050 CAVOK 28/11 Q1021 NOSIG=
201909111400 METAR COR LRBS 111400Z 03009KT CAVOK 27/11 Q1021 NOSIG=
201909111430 METAR LRBS 111430Z 02005KT 320V050 CAVOK 27/11 Q1022 NOSIG=
201909111500 METAR LRBS 111500Z 05006KT CAVOK 27/11 Q1022 NOSIG=
201909111530 METAR LRBS 111530Z 03005KT CAVOK 26/11 Q1022 NOSIG=
201909111600 METAR LRBS 111600Z 02004KT CAVOK 26/11 Q1021 NOSIG=
201909111630 METAR LRBS 111630Z 02004KT CAVOK 25/11 Q1021 NOSIG=
201909111700 METAR LRBS 111700Z 03005KT CAVOK 24/11 Q1022 NOSIG=
201909111730 METAR LRBS 111730Z 04005KT CAVOK 24/11 Q1022 NOSIG=
201909111800 METAR LRBS 111800Z 07007KT CAVOK 22/11 Q1023 NOSIG=
201909111830 METAR LRBS 111830Z 07005KT CAVOK 21/11 Q1023 NOSIG=
201909111900 METAR LRBS 111900Z 05003KT CAVOK 20/10 Q1023 NOSIG=
201909111930 METAR LRBS 111930Z 05002KT CAVOK 19/11 Q1023 NOSIG=
201909112000 METAR LRBS 112000Z 04005KT CAVOK 20/10 Q1023 NOSIG=
201909112030 METAR LRBS 112030Z 04004KT CAVOK 18/09 Q1023 NOSIG=
201909112100 METAR LRBS 112100Z 03003KT CAVOK 17/08 Q1024 NOSIG=
201909112130 METAR LRBS 112130Z 01003KT CAVOK 18/08 Q1024 NOSIG=
201909112200 METAR LRBS 112200Z 36004KT CAVOK 18/08 Q1024 NOSIG=
201909112230 METAR LRBS 112230Z 36004KT CAVOK 18/08 Q1023 NOSIG=
201909112300 METAR LRBS 112300Z 35003KT 300V040 CAVOK 16/08 Q1023 NOSIG=
201909112330 METAR LRBS 112330Z VRB02KT CAVOK 15/08 Q1023 NOSIG=
201909120000 METAR LRBS 120000Z 25002KT CAVOK 15/08 Q1023 NOSIG=
201909120030 METAR LRBS 120030Z 00000KT CAVOK 15/08 Q1023 NOSIG=
201909120100 METAR LRBS 120100Z 33003KT 300V360 CAVOK 15/09 Q1023 NOSIG=
201909120130 METAR LRBS 120130Z 33004KT 310V010 CAVOK 15/09 Q1023 NOSIG=
201909120200 METAR LRBS 120200Z VRB01KT CAVOK 15/09 Q1023 NOSIG=
201909120230 METAR LRBS 120230Z 36003KT 330V040 CAVOK 16/08 Q1024 NOSIG=
201909120300 METAR COR LRBS 120300Z 01003KT CAVOK 16/08 Q1024 NOSIG=
201909120330 METAR LRBS 120330Z 01004KT 330V040 CAVOK 16/08 Q1024 NOSIG=
201909120400 METAR LRBS 120400Z 01004KT 340V040 CAVOK 16/08 Q1024 NOSIG=
201909120430 METAR LRBS 120430Z 01004KT CAVOK 16/08 Q1024 NOSIG=
201909120500 METAR LRBS 120500Z 01004KT 340V040 CAVOK 17/08 Q1024 NOSIG=
201909120530 METAR LRBS 120530Z 01004KT 350V050 CAVOK 18/08 Q1024 NOSIG=
201909120600 METAR LRBS 120600Z 01004KT 340V060 CAVOK 18/09 Q1024 NOSIG=
201909120630 METAR LRBS 120630Z 02005KT 340V050 CAVOK 20/10 Q1025 NOSIG=
201909120700 METAR LRBS 120700Z 03008KT 350V060 CAVOK 22/11 Q1025 NOSIG=
201909120730 METAR LRBS 120730Z 04010KT CAVOK 22/10 Q1025 NOSIG=
201909120800 METAR LRBS 120800Z 03009KT 360V060 CAVOK 23/11 Q1025 NOSIG=
201909120830 METAR LRBS 120830Z 04008KT 360V060 CAVOK 24/11 Q1025 NOSIG=
201909120900 METAR LRBS 120900Z 05010KT 010V070 CAVOK 24/11 Q1025 NOSIG=
201909120930 METAR LRBS 120930Z 03011KT 360V060 CAVOK 26/11 Q1025 NOSIG=
201909121000 METAR LRBS 121000Z 04010KT 360V090 CAVOK 26/10 Q1025 NOSIG=
201909121030 METAR COR LRBS 121030Z 05008KT 360V080 CAVOK 26/10 Q1025
                        NOSIG=
201909121100 METAR LRBS 121100Z 04010KT 350V060 CAVOK 26/10 Q1024 NOSIG=
201909121130 METAR LRBS 121130Z 03010KT 350V070 CAVOK 27/10 Q1024 NOSIG=
201909121200 METAR LRBS 121200Z 06009KT 030V100 CAVOK 27/11 Q1024 NOSIG=
201909121230 METAR LRBS 121230Z 05010KT CAVOK 27/10 Q1024 NOSIG=
201909121300 METAR LRBS 121300Z 06007KT 030V090 CAVOK 28/11 Q1024 NOSIG=
201909121330 METAR LRBS 121330Z 03007KT 340V060 CAVOK 27/11 Q1023 NOSIG=
201909121400 METAR LRBS 121400Z 01007KT 350V050 CAVOK 27/11 Q1023 NOSIG=
201909121430 METAR LRBS 121430Z 02008KT CAVOK 28/10 Q1023 NOSIG=
201909121500 METAR LRBS 121500Z 01007KT 330V040 CAVOK 27/09 Q1024 NOSIG=
201909121530 METAR LRBS 121530Z 02007KT 350V050 CAVOK 27/07 Q1024 NOSIG=
201909121600 METAR LRBS 121600Z 02006KT CAVOK 26/06 Q1024 NOSIG=
201909121630 METAR LRBS 121630Z 02004KT CAVOK 25/06 Q1024 NOSIG=
201909121700 METAR LRBS 121700Z 01005KT CAVOK 24/06 Q1024 NOSIG=
201909121730 METAR LRBS 121730Z 01004KT CAVOK 22/07 Q1024 NOSIG=
201909121800 METAR LRBS 121800Z 34003KT 290V010 CAVOK 21/08 Q1025 NOSIG=
201909121830 METAR LRBS 121830Z 34003KT 320V020 CAVOK 21/08 Q1025 NOSIG=
201909121900 METAR LRBS 121900Z VRB01KT CAVOK 20/08 Q1025 NOSIG=
201909121930 METAR LRBS 121930Z 01004KT 340V040 CAVOK 21/08 Q1025 NOSIG=
201909122000 METAR LRBS 122000Z 36004KT 320V020 CAVOK 21/07 Q1025 NOSIG=
201909122030 METAR LRBS 122030Z 02004KT CAVOK 19/07 Q1025 NOSIG=
201909122100 METAR LRBS 122100Z 03003KT CAVOK 18/07 Q1025 NOSIG=
201909122130 METAR LRBS 122130Z 02002KT CAVOK 17/07 Q1025 NOSIG=
201909122200 METAR LRBS 122200Z VRB01KT CAVOK 17/08 Q1025 NOSIG=
201909122230 METAR LRBS 122230Z VRB01KT CAVOK 17/07 Q1025 NOSIG=
201909122300 METAR LRBS 122300Z VRB01KT CAVOK 16/08 Q1025 NOSIG=
201909122330 METAR LRBS 122330Z 33001KT CAVOK 15/08 Q1025 NOSIG=
201909130000 METAR LRBS 130000Z 32003KT CAVOK 15/08 Q1025 NOSIG=
201909130030 METAR LRBS 130030Z VRB02KT CAVOK 15/08 Q1025 NOSIG=
201909130100 METAR LRBS 130100Z 32003KT 280V360 CAVOK 15/08 Q1025 NOSIG=
201909130130 METAR LRBS 130130Z VRB01KT CAVOK 15/08 Q1025 NOSIG=
201909130200 METAR LRBS 130200Z 32003KT CAVOK 16/08 Q1025 NOSIG=
201909130230 METAR LRBS 130230Z 32003KT 290V360 CAVOK 16/08 Q1025 NOSIG=
201909130300 METAR LRBS 130300Z 32004KT CAVOK 16/08 Q1025 NOSIG=
201909130330 METAR LRBS 130330Z 32004KT 290V360 CAVOK 16/07 Q1025 NOSIG=
201909130400 METAR LRBS 130400Z VRB02KT CAVOK 15/07 Q1026 NOSIG=
201909130430 METAR LRBS 130430Z 30002KT CAVOK 15/07 Q1026 NOSIG=
201909130500 METAR LRBS 130500Z 29002KT CAVOK 16/08 Q1026 NOSIG=
201909130530 METAR LRBS 130530Z VRB01KT CAVOK 17/08 Q1026 NOSIG=
201909130600 METAR LRBS 130600Z 33003KT 300V360 CAVOK 19/08 Q1026 NOSIG=
201909130630 METAR LRBS 130630Z 33003KT 280V350 CAVOK 21/08 Q1027 NOSIG=
201909130700 METAR LRBS 130700Z 35003KT 270V040 CAVOK 23/08 Q1027 NOSIG=
201909130730 METAR LRBS 130730Z 02006KT 350V060 CAVOK 25/08 Q1027 NOSIG=
201909130800 METAR LRBS 130800Z 04007KT 360V060 CAVOK 26/07 Q1027 NOSIG=
201909130830 METAR LRBS 130830Z 04007KT 360V060 CAVOK 27/07 Q1026 NOSIG=
201909130900 METAR LRBS 130900Z 04007KT 360V070 CAVOK 27/05 Q1026 NOSIG=
201909130930 METAR COR LRBS 130930Z 01004KT 310V070 CAVOK 27/05 Q1026
                        NOSIG=
201909131000 METAR LRBS 131000Z VRB03KT CAVOK 29/06 Q1026 NOSIG=
201909131030 METAR LRBS 131030Z 08005KT 050V120 CAVOK 29/05 Q1026 NOSIG=
201909131100 METAR LRBS 131100Z 05010KT 010V080 CAVOK 29/04 Q1025 NOSIG=
201909131130 METAR LRBS 131130Z VRB05KT CAVOK 29/04 Q1025 NOSIG=
201909131200 METAR LRBS 131200Z 36006KT 320V020 CAVOK 29/03 Q1025 NOSIG=
201909131230 METAR LRBS 131230Z 04009KT CAVOK 30/04 Q1024 NOSIG=
201909131300 METAR LRBS 131300Z 07006KT 320V110 CAVOK 29/04 Q1024 NOSIG=
201909131330 METAR LRBS 131330Z 03007KT 340V060 CAVOK 30/03 Q1024 NOSIG=
201909131400 METAR LRBS 131400Z 04007KT 010V090 CAVOK 29/02 Q1024 NOSIG=
201909131430 METAR LRBS 131430Z 02003KT 350V070 CAVOK 29/03 Q1024 NOSIG=
201909131500 METAR LRBS 131500Z 05005KT CAVOK 29/04 Q1024 NOSIG=
201909131530 METAR LRBS 131530Z 05004KT 030V090 CAVOK 28/05 Q1023 NOSIG=
201909131600 METAR LRBS 131600Z 08005KT CAVOK 26/06 Q1023 NOSIG=
201909131630 METAR LRBS 131630Z 06002KT CAVOK 25/05 Q1024 NOSIG=
201909131700 METAR LRBS 131700Z 03001KT CAVOK 24/06 Q1024 NOSIG=
201909131730 METAR COR LRBS 131730Z 00000KT CAVOK 22/07 Q1024 NOSIG=
201909131800 METAR LRBS 131800Z 03001KT CAVOK 21/07 Q1024 NOSIG=
201909131830 METAR LRBS 131830Z 36001KT CAVOK 19/09 Q1024 NOSIG=
201909131900 METAR LRBS 131900Z 00000KT CAVOK 19/09 Q1024 NOSIG=
201909131930 METAR LRBS 131930Z 31002KT CAVOK 18/08 Q1024 NOSIG=
201909132000 METAR LRBS 132000Z 30003KT CAVOK 18/08 Q1025 NOSIG=
201909132030 METAR LRBS 132030Z VRB02KT CAVOK 17/08 Q1025 NOSIG=
201909132100 METAR LRBS 132100Z VRB01KT CAVOK 17/07 Q1025 NOSIG=
201909132130 METAR LRBS 132130Z 29002KT CAVOK 17/07 Q1024 NOSIG=
201909132200 METAR LRBS 132200Z VRB02KT CAVOK 16/07 Q1025 NOSIG=
201909132230 METAR LRBS 132230Z 29003KT CAVOK 16/07 Q1024 NOSIG=
201909132300 METAR LRBS 132300Z VRB01KT CAVOK 15/07 Q1024 NOSIG=
201909132330 METAR LRBS 132330Z 27003KT 240V310 CAVOK 14/06 Q1024 NOSIG=
201909140000 METAR LRBS 140000Z 00000KT CAVOK 15/06 Q1024 NOSIG=
201909140030 METAR LRBS 140030Z 30001KT CAVOK 14/06 Q1024 NOSIG=
201909140100 METAR LRBS 140100Z VRB01KT CAVOK 14/06 Q1024 NOSIG=
201909140130 METAR LRBS 140130Z 30001KT CAVOK 13/06 Q1024 NOSIG=
201909140200 METAR LRBS 140200Z 00000KT CAVOK 13/06 Q1024 NOSIG=
201909140230 METAR LRBS 140230Z 29002KT CAVOK 13/07 Q1024 NOSIG=
201909140300 METAR LRBS 140300Z 26002KT CAVOK 13/07 Q1024 NOSIG=
201909140330 METAR LRBS 140330Z 25003KT CAVOK 13/07 Q1023 NOSIG=
201909140400 METAR LRBS 140400Z 30002KT 270V340 CAVOK 13/07 Q1024 NOSIG=
201909140430 METAR LRBS 140430Z 32002KT 280V030 CAVOK 14/07 Q1024 NOSIG=
201909140500 METAR LRBS 140500Z 09003KT CAVOK 14/08 Q1024 NOSIG=
201909140530 METAR LRBS 140530Z 00000KT CAVOK 16/09 Q1024 NOSIG=
201909140600 METAR LRBS 140600Z 07002KT 040V110 CAVOK 18/09 Q1025 NOSIG=
201909140630 METAR COR LRBS 140630Z 06002KT CAVOK 20/08 Q1025 NOSIG=
201909140700 METAR LRBS 140700Z VRB01KT CAVOK 21/08 Q1025 NOSIG=
201909140730 METAR LRBS 140730Z 06004KT 040V100 CAVOK 23/09 Q1025 NOSIG=
201909140800 METAR LRBS 140800Z 06007KT 010V090 CAVOK 25/09 Q1025 NOSIG=
201909140830 METAR LRBS 140830Z 03008KT 350V060 CAVOK 26/10 Q1024 NOSIG=
201909140900 METAR LRBS 140900Z 05008KT 010V080 CAVOK 26/10 Q1024 NOSIG=
201909140930 METAR LRBS 140930Z 07005KT 020V130 CAVOK 28/10 Q1024 NOSIG=
201909141000 METAR LRBS 141000Z 08008KT 040V110 CAVOK 28/10 Q1024 NOSIG=
201909141030 METAR LRBS 141030Z 07010KT CAVOK 28/09 Q1024 NOSIG=
201909141100 METAR LRBS 141100Z 07008KT 040V100 CAVOK 28/10 Q1024 NOSIG=
201909141130 METAR LRBS 141130Z 09008KT 050V120 CAVOK 29/09 Q1024 NOSIG=
201909141200 METAR LRBS 141200Z 06005KT CAVOK 29/10 Q1023 NOSIG=
201909141230 METAR LRBS 141230Z 07005KT 360V130 CAVOK 29/09 Q1023 NOSIG=
201909141300 METAR LRBS 141300Z 01004KT CAVOK 28/09 Q1023 NOSIG=
201909141330 METAR LRBS 141330Z 04005KT 010V070 CAVOK 28/10 Q1023 NOSIG=
201909141400 METAR LRBS 141400Z 05007KT 010V070 CAVOK 28/10 Q1023 NOSIG=
201909141430 METAR LRBS 141430Z 06006KT 020V090 CAVOK 28/10 Q1022 NOSIG=
201909141500 METAR LRBS 141500Z 08007KT CAVOK 27/11 Q1022 NOSIG=
201909141530 METAR LRBS 141530Z 06007KT CAVOK 26/11 Q1022 NOSIG=
201909141600 METAR LRBS 141600Z 06006KT CAVOK 26/11 Q1023 NOSIG=
201909141630 METAR LRBS 141630Z 05009KT CAVOK 25/11 Q1023 NOSIG=
201909141700 METAR LRBS 141700Z 06013KT 030V090 CAVOK 24/11 Q1023 NOSIG=
201909141730 METAR LRBS 141730Z 06014KT CAVOK 23/12 Q1024 NOSIG=
201909141800 METAR LRBS 141800Z 06011KT CAVOK 23/12 Q1024 NOSIG=
201909141830 METAR COR LRBS 141830Z 06014KT CAVOK 22/12 Q1025 NOSIG=
201909141900 METAR LRBS 141900Z 06013KT CAVOK 21/12 Q1025 NOSIG=
201909141930 METAR LRBS 141930Z 06013KT CAVOK 21/11 Q1025 NOSIG=
201909142000 METAR LRBS 142000Z 06014KT CAVOK 21/10 Q1026 NOSIG=
201909142030 METAR LRBS 142030Z 06011KT CAVOK 20/09 Q1026 NOSIG=
201909142100 METAR LRBS 142100Z 06013KT CAVOK 20/08 Q1026 NOSIG=
201909142130 METAR LRBS 142130Z 06014KT CAVOK 20/07 Q1026 NOSIG=
201909142200 METAR LRBS 142200Z 05014KT CAVOK 20/07 Q1026 NOSIG=
201909142230 METAR LRBS 142230Z 06012KT CAVOK 20/07 Q1027 NOSIG=
201909142300 METAR LRBS 142300Z 07014KT CAVOK 19/07 Q1027 NOSIG=
201909142330 METAR LRBS 142330Z 07013KT CAVOK 19/07 Q1027 NOSIG=
201909150000 METAR LRBS 150000Z 06013KT CAVOK 19/07 Q1027 NOSIG=
201909150030 METAR LRBS 150030Z 06013KT CAVOK 19/07 Q1027 NOSIG=
201909150100 METAR LRBS 150100Z 06012KT CAVOK 19/06 Q1027 NOSIG=
201909150130 METAR LRBS 150130Z 07009KT CAVOK 18/06 Q1027 NOSIG=
201909150200 METAR LRBS 150200Z 06008KT CAVOK 18/06 Q1027 NOSIG=
201909150230 METAR LRBS 150230Z 06009KT CAVOK 18/06 Q1027 NOSIG=
201909150300 METAR LRBS 150300Z 06008KT CAVOK 17/06 Q1027 NOSIG=
201909150330 METAR LRBS 150330Z 06007KT CAVOK 17/06 Q1027 NOSIG=
201909150400 METAR COR LRBS 150400Z 07004KT CAVOK 15/06 Q1028 NOSIG=
201909150430 METAR LRBS 150430Z 08003KT CAVOK 15/06 Q1027 NOSIG=
201909150500 METAR LRBS 150500Z 03002KT CAVOK 16/06 Q1028 NOSIG=
201909150530 METAR LRBS 150530Z 04005KT CAVOK 17/06 Q1028 NOSIG=
201909150600 METAR LRBS 150600Z 06007KT CAVOK 18/06 Q1028 NOSIG=
201909150630 METAR LRBS 150630Z 06008KT CAVOK 19/06 Q1028 NOSIG=
201909150700 METAR LRBS 150700Z 05011KT CAVOK 20/05 Q1028 NOSIG=
201909150730 METAR LRBS 150730Z 07012KT CAVOK 20/05 Q1028 NOSIG=
201909150800 METAR COR LRBS 150800Z 06008KT 010V110 CAVOK 21/04 Q1028
                        NOSIG=
201909150830 METAR LRBS 150830Z 08007KT 020V110 CAVOK 22/04 Q1028 NOSIG=
201909150900 METAR LRBS 150900Z 11008KT 070V130 CAVOK 22/04 Q1028 NOSIG=
201909150930 METAR LRBS 150930Z 04003KT CAVOK 23/05 Q1027 NOSIG=
201909151000 METAR LRBS 151000Z 07005KT 010V110 CAVOK 23/05 Q1027 NOSIG=
201909151030 METAR LRBS 151030Z 08005KT 040V120 CAVOK 24/07 Q1027 NOSIG=
201909151100 METAR LRBS 151100Z VRB03KT CAVOK 24/06 Q1026 NOSIG=
201909151130 METAR LRBS 151130Z VRB04KT CAVOK 24/07 Q1026 NOSIG=
201909151200 METAR LRBS 151200Z VRB03KT CAVOK 25/07 Q1025 NOSIG=
201909151230 METAR LRBS 151230Z 25004KT 140V300 CAVOK 25/07 Q1025 NOSIG=
201909151300 METAR LRBS 151300Z 24006KT CAVOK 26/08 Q1024 NOSIG=
201909151330 METAR COR LRBS 151330Z 25006KT 230V290 CAVOK 26/07 Q1024
                        NOSIG=
201909151400 METAR LRBS 151400Z 25004KT 210V320 CAVOK 25/08 Q1024 NOSIG=
201909151430 METAR LRBS 151430Z 27005KT 230V320 CAVOK 26/08 Q1023 NOSIG=
201909151500 METAR LRBS 151500Z 30004KT 260V340 CAVOK 26/08 Q1023 NOSIG=
201909151530 METAR LRBS 151530Z VRB02KT CAVOK 25/08 Q1023 NOSIG=
201909151600 METAR LRBS 151600Z VRB02KT CAVOK 25/08 Q1023 NOSIG=
201909151630 METAR LRBS 151630Z 00000KT CAVOK 23/08 Q1022 NOSIG=
201909151700 METAR LRBS 151700Z 00000KT CAVOK 22/09 Q1022 NOSIG=
201909151730 METAR LRBS 151730Z 00000KT CAVOK 19/10 Q1022 NOSIG=
201909151800 METAR LRBS 151800Z 00000KT CAVOK 17/10 Q1022 NOSIG=
201909151830 METAR LRBS 151830Z 00000KT CAVOK 19/10 Q1022 NOSIG=
201909151900 METAR LRBS 151900Z 00000KT CAVOK 18/10 Q1022 NOSIG=
201909151930 METAR LRBS 151930Z 00000KT CAVOK 18/10 Q1022 NOSIG=
201909152000 METAR LRBS 152000Z 00000KT CAVOK 17/11 Q1022 NOSIG=
201909152030 METAR LRBS 152030Z 00000KT CAVOK 17/11 Q1022 NOSIG=
201909152100 METAR LRBS 152100Z 00000KT CAVOK 17/11 Q1021 NOSIG=
201909152130 METAR LRBS 152130Z 30001KT CAVOK 16/11 Q1021 NOSIG=
201909152200 METAR COR LRBS 152200Z 00000KT CAVOK 16/10 Q1021 NOSIG=
201909152230 METAR LRBS 152230Z VRB02KT CAVOK 16/10 Q1021 NOSIG=
201909152300 METAR LRBS 152300Z 29003KT CAVOK 15/09 Q1021 NOSIG=
201909152330 METAR COR LRBS 152330Z 27001KT CAVOK 15/09 Q1021 NOSIG=
201909160000 METAR LRBS 160000Z 25002KT CAVOK 15/09 Q1020 NOSIG=
201909160030 METAR LRBS 160030Z 27001KT CAVOK 14/09 Q1020 NOSIG=
201909160100 METAR LRBS 160100Z 27001KT CAVOK 14/09 Q1020 NOSIG=
201909160130 METAR LRBS 160130Z 28003KT CAVOK 14/09 Q1020 NOSIG=
201909160200 METAR LRBS 160200Z 29002KT CAVOK 14/09 Q1019 NOSIG=
201909160230 METAR LRBS 160230Z 29004KT CAVOK 14/09 Q1019 NOSIG=
201909160300 METAR LRBS 160300Z 28003KT CAVOK 14/09 Q1019 NOSIG=
201909160330 METAR LRBS 160330Z 28004KT CAVOK 14/09 Q1019 NOSIG=
201909160400 METAR LRBS 160400Z 30004KT CAVOK 14/09 Q1019 NOSIG=
201909160430 METAR LRBS 160430Z 29003KT 260V330 CAVOK 13/09 Q1019 NOSIG=
201909160500 METAR LRBS 160500Z 27003KT 250V310 CAVOK 15/10 Q1019 NOSIG=
201909160530 METAR COR LRBS 160530Z 28005KT CAVOK 17/10 Q1018 NOSIG=
201909160600 METAR LRBS 160600Z 27005KT CAVOK 17/10 Q1019 NOSIG=
201909160630 METAR LRBS 160630Z 26004KT CAVOK 19/10 Q1019 NOSIG=
201909160700 METAR LRBS 160700Z 28005KT 250V340 CAVOK 20/10 Q1019 NOSIG=
201909160730 METAR LRBS 160730Z 28006KT 240V300 CAVOK 22/10 Q1018 NOSIG=
201909160800 METAR LRBS 160800Z 26006KT 220V320 CAVOK 24/11 Q1018 NOSIG=
201909160830 METAR LRBS 160830Z 27006KT 230V310 CAVOK 25/10 Q1018 NOSIG=
201909160900 METAR LRBS 160900Z 29007KT 240V320 CAVOK 26/09 Q1017 NOSIG=
201909160930 METAR LRBS 160930Z 28007KT 190V350 CAVOK 26/10 Q1017 NOSIG=
201909161000 METAR LRBS 161000Z 27007KT 210V310 CAVOK 27/10 Q1017 NOSIG=
201909161030 METAR LRBS 161030Z 29007KT 250V340 CAVOK 27/09 Q1016 NOSIG=
201909161100 METAR LRBS 161100Z 26007KT CAVOK 28/09 Q1016 NOSIG=
201909161130 METAR LRBS 161130Z 25008KT CAVOK 28/09 Q1016 NOSIG=
201909161200 METAR LRBS 161200Z 26009KT 230V310 CAVOK 29/09 Q1015 NOSIG=
201909161230 METAR LRBS 161230Z 26008KT 230V290 CAVOK 29/08 Q1015 NOSIG=
201909161300 METAR LRBS 161300Z 30004KT 240V010 CAVOK 29/08 Q1014 NOSIG=
201909161330 METAR LRBS 161330Z 28007KT 240V320 CAVOK 30/08 Q1014 NOSIG=
201909161400 METAR LRBS 161400Z 26008KT 240V300 CAVOK 29/08 Q1014 NOSIG=
201909161430 METAR LRBS 161430Z 27006KT 240V330 CAVOK 29/08 Q1014 NOSIG=
201909161500 METAR LRBS 161500Z 27005KT 240V310 CAVOK 29/08 Q1014 NOSIG=
201909161530 METAR LRBS 161530Z 27005KT CAVOK 28/08 Q1014 NOSIG=
201909161600 METAR LRBS 161600Z 27005KT CAVOK 28/09 Q1014 NOSIG=
201909161630 METAR LRBS 161630Z 26003KT CAVOK 26/09 Q1013 NOSIG=
201909161700 METAR LRBS 161700Z 28001KT CAVOK 25/10 Q1013 NOSIG=
201909161730 METAR LRBS 161730Z 00000KT CAVOK 24/09 Q1013 NOSIG=
201909161800 METAR LRBS 161800Z 00000KT CAVOK 23/09 Q1013 NOSIG=
201909161830 METAR LRBS 161830Z 32001KT CAVOK 22/10 Q1013 NOSIG=
201909161900 METAR LRBS 161900Z 00000KT CAVOK 21/10 Q1013 NOSIG=
201909161930 METAR LRBS 161930Z 00000KT CAVOK 20/10 Q1013 NOSIG=
201909162000 METAR LRBS 162000Z 00000KT CAVOK 20/10 Q1014 NOSIG=
201909162030 METAR LRBS 162030Z 35004KT 310V020 CAVOK 19/10 Q1014 NOSIG=
201909162100 METAR LRBS 162100Z VRB01KT CAVOK 19/10 Q1014 NOSIG=
201909162130 METAR LRBS 162130Z 00000KT CAVOK 18/10 Q1013 NOSIG=
201909162200 METAR LRBS 162200Z 00000KT CAVOK 17/10 Q1013 NOSIG=
201909162230 METAR LRBS 162230Z 00000KT CAVOK 16/10 Q1013 NOSIG=
201909162300 METAR LRBS 162300Z VRB01KT CAVOK 16/10 Q1013 NOSIG=
201909162330 METAR LRBS 162330Z 00000KT CAVOK 15/10 Q1013 NOSIG=
201909170000 METAR LRBS 170000Z 00000KT CAVOK 15/10 Q1013 NOSIG=
201909170030 METAR LRBS 170030Z VRB01KT CAVOK 14/10 Q1013 NOSIG=
201909170100 METAR LRBS 170100Z VRB02KT CAVOK 14/09 Q1013 NOSIG=
201909170130 METAR LRBS 170130Z 27001KT CAVOK 14/09 Q1012 NOSIG=
201909170200 METAR LRBS 170200Z 00000KT CAVOK 13/09 Q1012 NOSIG=
201909170230 METAR LRBS 170230Z 23001KT CAVOK 14/09 Q1012 NOSIG=
201909170300 METAR LRBS 170300Z 28002KT CAVOK 14/10 Q1012 NOSIG=
201909170330 METAR LRBS 170330Z VRB01KT CAVOK 14/10 Q1012 NOSIG=
201909170400 METAR LRBS 170400Z VRB01KT CAVOK 12/09 Q1012 NOSIG=
201909170430 METAR COR LRBS 170430Z 30003KT CAVOK 13/10 Q1013 NOSIG=
201909170500 METAR LRBS 170500Z VRB01KT CAVOK 15/10 Q1013 NOSIG=
201909170530 METAR LRBS 170530Z 00000KT CAVOK 17/10 Q1013 NOSIG=
201909170600 METAR LRBS 170600Z VRB02KT CAVOK 17/11 Q1013 NOSIG=
201909170630 METAR LRBS 170630Z 00000KT CAVOK 18/11 Q1013 NOSIG=
201909170700 METAR LRBS 170700Z VRB02KT CAVOK 20/10 Q1013 NOSIG=
201909170730 METAR LRBS 170730Z VRB02KT CAVOK 23/11 Q1013 NOSIG=
201909170800 METAR LRBS 170800Z VRB02KT CAVOK 24/11 Q1013 NOSIG=
201909170830 METAR LRBS 170830Z 36003KT 300V070 CAVOK 26/10 Q1013 NOSIG=
201909170900 METAR LRBS 170900Z 06003KT 330V110 CAVOK 27/10 Q1013 NOSIG=
201909170930 METAR LRBS 170930Z VRB04KT CAVOK 27/10 Q1013 NOSIG=
201909171000 METAR LRBS 171000Z VRB03KT CAVOK 28/11 Q1013 NOSIG=
201909171030 METAR LRBS 171030Z VRB03KT CAVOK 29/10 Q1013 NOSIG=
201909171100 METAR COR LRBS 171100Z VRB04KT CAVOK 28/09 Q1012 NOSIG=
201909171130 METAR LRBS 171130Z 29004KT 210V350 CAVOK 29/10 Q1012 NOSIG=
201909171200 METAR LRBS 171200Z 29006KT 260V340 CAVOK 30/08 Q1012 NOSIG=
201909171230 METAR LRBS 171230Z 30005KT 240V010 CAVOK 30/09 Q1011 NOSIG=
201909171300 METAR LRBS 171300Z 26010KT 220V280 CAVOK 30/09 Q1011 NOSIG=
201909171330 METAR LRBS 171330Z 28009KT 250V310 CAVOK 30/09 Q1011 NOSIG=
201909171400 METAR LRBS 171400Z 28005KT 240V360 CAVOK 31/10 Q1011 NOSIG=
201909171430 METAR LRBS 171430Z 29006KT 260V360 CAVOK 30/10 Q1010 NOSIG=
201909171500 METAR LRBS 171500Z 34005KT 300V010 CAVOK 30/09 Q1010 NOSIG=
201909171530 METAR LRBS 171530Z 35004KT CAVOK 29/09 Q1010 NOSIG=
201909171600 METAR LRBS 171600Z 33004KT 290V040 CAVOK 29/09 Q1011 NOSIG=
201909171630 METAR LRBS 171630Z VRB02KT CAVOK 27/09 Q1011 NOSIG=
201909171700 METAR LRBS 171700Z VRB02KT CAVOK 26/09 Q1011 NOSIG=
201909171730 METAR LRBS 171730Z 34001KT CAVOK 26/10 Q1011 NOSIG=
201909171800 METAR LRBS 171800Z VRB01KT CAVOK 25/10 Q1011 NOSIG=
201909171830 METAR LRBS 171830Z VRB02KT CAVOK 24/10 Q1011 NOSIG=
201909171900 METAR LRBS 171900Z 34002KT CAVOK 24/10 Q1011 NOSIG=
201909171930 METAR LRBS 171930Z 34002KT CAVOK 23/10 Q1011 NOSIG=
201909172000 METAR LRBS 172000Z VRB01KT CAVOK 22/10 Q1011 NOSIG=
201909172030 METAR LRBS 172030Z VRB02KT CAVOK 21/11 Q1011 NOSIG=
201909172100 METAR LRBS 172100Z 33002KT CAVOK 21/12 Q1011 NOSIG=
201909172130 METAR LRBS 172130Z 00000KT CAVOK 19/11 Q1011 NOSIG=
201909172200 METAR LRBS 172200Z VRB01KT CAVOK 19/12 Q1011 NOSIG=
201909172230 METAR LRBS 172230Z VRB01KT CAVOK 18/11 Q1011 NOSIG=
201909172300 METAR LRBS 172300Z 28002KT CAVOK 18/11 Q1011 NOSIG=
201909172330 METAR LRBS 172330Z VRB01KT CAVOK 18/11 Q1011 NOSIG=
201909180000 METAR LRBS 180000Z 25003KT CAVOK 18/11 Q1010 NOSIG=
201909180030 METAR LRBS 180030Z 28003KT CAVOK 18/10 Q1010 NOSIG=
201909180100 METAR LRBS 180100Z 29002KT CAVOK 17/11 Q1010 NOSIG=
201909180130 METAR LRBS 180130Z 28005KT 260V320 CAVOK 17/10 Q1010 NOSIG=
201909180200 METAR LRBS 180200Z 27002KT CAVOK 17/11 Q1010 NOSIG=
201909180230 METAR LRBS 180230Z VRB02KT CAVOK 17/11 Q1010 NOSIG=
201909180300 METAR LRBS 180300Z VRB02KT CAVOK 16/10 Q1010 NOSIG=
201909180330 METAR LRBS 180330Z VRB02KT CAVOK 16/10 Q1010 NOSIG=
201909180400 METAR LRBS 180400Z 26004KT CAVOK 16/10 Q1010 NOSIG=
201909180430 METAR LRBS 180430Z 27001KT CAVOK 16/11 Q1011 NOSIG=
201909180500 METAR LRBS 180500Z VRB02KT CAVOK 17/11 Q1011 NOSIG=
201909180530 METAR LRBS 180530Z 26003KT CAVOK 19/11 Q1011 NOSIG=
201909180600 METAR LRBS 180600Z 25005KT CAVOK 20/11 Q1011 NOSIG=
201909180630 METAR LRBS 180630Z 27005KT 240V300 CAVOK 22/12 Q1011 NOSIG=
201909180700 METAR LRBS 180700Z 29005KT 240V030 CAVOK 25/11 Q1011 NOSIG=
201909180730 METAR LRBS 180730Z 32005KT 270V360 CAVOK 26/11 Q1012 NOSIG=
201909180800 METAR LRBS 180800Z 31007KT 270V020 CAVOK 26/07 Q1012 NOSIG=
201909180830 METAR LRBS 180830Z 30008KT 260V020 CAVOK 27/06 Q1012 NOSIG=
201909180900 METAR LRBS 180900Z 31009KT 270V360 CAVOK 28/04 Q1012 NOSIG=
201909180930 METAR LRBS 180930Z 30010G20KT 270V350 CAVOK 27/01 Q1013 NOSIG=
201909181000 METAR LRBS 181000Z 31009G20KT 260V360 CAVOK 26/01 Q1013 NOSIG=
201909181030 METAR LRBS 181030Z 30009KT 220V350 CAVOK 26/01 Q1013 NOSIG=
201909181100 METAR LRBS 181100Z 33008KT 290V010 CAVOK 26/02 Q1014 NOSIG=
201909181130 METAR LRBS 181130Z 32006KT 270V020 CAVOK 24/02 Q1014 NOSIG=
201909181200 METAR LRBS 181200Z 32004KT 290V010 CAVOK 24/02 Q1014 NOSIG=
201909181230 METAR LRBS 181230Z 31005KT 230V010 CAVOK 23/02 Q1014 NOSIG=
201909181300 METAR LRBS 181300Z 29006KT 260V320 CAVOK 22/03 Q1014 NOSIG=
201909181330 METAR COR LRBS 181330Z 27007KT 250V310 CAVOK 22/03 Q1015
                        NOSIG=
201909181400 METAR LRBS 181400Z AUTO 27006KT 230V310 9999 OVC100/// 22/04
                        Q1015 NOSIG=
201909181430 METAR COR LRBS 181430Z 29005KT 240V350 CAVOK 22/04 Q1015
                        NOSIG=
201909181500 METAR LRBS 181500Z 30004KT 260V360 CAVOK 22/04 Q1015 NOSIG=
201909181530 METAR LRBS 181530Z VRB02KT CAVOK 23/05 Q1016 NOSIG=
201909181600 METAR LRBS 181600Z VRB01KT CAVOK 22/05 Q1016 NOSIG=
201909181630 METAR LRBS 181630Z 31002KT CAVOK 21/06 Q1016 BECMG 07010KT=
201909181700 METAR LRBS 181700Z 00000KT CAVOK 20/06 Q1017 BECMG 07010KT=
201909181730 METAR COR LRBS 181730Z 08005KT CAVOK 15/07 Q1017 NOSIG=
201909181800 METAR LRBS 181800Z 07007KT 030V100 CAVOK 16/07 Q1018 NOSIG=
201909181830 METAR LRBS 181830Z 06006KT CAVOK 15/07 Q1018 NOSIG=
201909181900 METAR LRBS 181900Z 07008KT CAVOK 15/08 Q1018 NOSIG=
201909181930 METAR LRBS 181930Z 08007KT CAVOK 16/08 Q1019 NOSIG=
201909182000 METAR LRBS 182000Z 09006KT CAVOK 16/07 Q1019 NOSIG=
201909182030 METAR LRBS 182030Z 09007KT CAVOK 16/07 Q1019 NOSIG=
201909182100 METAR LRBS 182100Z 06006KT CAVOK 16/08 Q1019 NOSIG=
201909182130 METAR LRBS 182130Z 07008KT CAVOK 16/07 Q1020 NOSIG=
201909182200 METAR LRBS 182200Z 06006KT CAVOK 15/07 Q1020 NOSIG=
201909182230 METAR LRBS 182230Z 06007KT CAVOK 16/07 Q1020 NOSIG=
201909182300 METAR LRBS 182300Z 05005KT CAVOK 15/07 Q1021 NOSIG=
201909182330 METAR LRBS 182330Z 04010KT 010V070 CAVOK 14/06 Q1021 NOSIG=
201909190000 METAR LRBS 190000Z 04011KT CAVOK 14/03 Q1021 NOSIG=
201909190030 METAR LRBS 190030Z 04011KT 010V070 CAVOK 14/02 Q1021 NOSIG=
201909190100 METAR LRBS 190100Z 05013KT CAVOK 14/02 Q1021=
201909190130 METAR LRBS 190130Z 06011KT 9999 -RA NSC 14/02 Q1021 NOSIG=
201909190200 METAR LRBS 190200Z 05013KT 9999 -RA NSC 13/03 Q1021 NOSIG=
201909190230 METAR LRBS 190230Z 06012KT CAVOK 13/03 Q1021 NOSIG=
201909190300 METAR LRBS 190300Z 06011KT CAVOK 13/02 Q1021 NOSIG=
201909190330 METAR LRBS 190330Z 06009KT CAVOK 13/02 Q1021 NOSIG=
201909190400 METAR LRBS 190400Z 06007KT CAVOK 13/03 Q1022 NOSIG=
201909190430 METAR LRBS 190430Z 06008KT CAVOK 13/02 Q1022 NOSIG=
201909190500 METAR LRBS 190500Z 07008KT 9999 SCT038 13/03 Q1022 NOSIG=
201909190530 METAR LRBS 190530Z 06009KT 9999 BKN038 13/02 Q1022 NOSIG=
201909190600 METAR LRBS 190600Z 05008KT 9999 BKN040 14/02 Q1022 NOSIG=
201909190630 METAR LRBS 190630Z 06011KT 9999 BKN038 14/02 Q1022 NOSIG=
201909190700 METAR LRBS 190700Z 05010KT 9999 SCT037 15/03 Q1022 NOSIG=
201909190730 METAR LRBS 190730Z 06012KT 020V080 CAVOK 16/02 Q1022 NOSIG=
201909190800 METAR LRBS 190800Z 08011KT 050V110 CAVOK 16/02 Q1022 NOSIG=
201909190830 METAR LRBS 190830Z 08010KT 050V110 CAVOK 18/03 Q1022 NOSIG=
201909190900 METAR LRBS 190900Z 09008KT CAVOK 18/04 Q1022 NOSIG=
201909190930 METAR LRBS 190930Z 14006KT 100V170 CAVOK 18/04 Q1021 NOSIG=
201909191000 METAR LRBS 191000Z 16006KT 100V220 CAVOK 18/04 Q1021 NOSIG=
201909191030 METAR LRBS 191030Z VRB02KT CAVOK 19/04 Q1021 NOSIG=
201909191100 METAR LRBS 191100Z VRB03KT CAVOK 20/05 Q1021 NOSIG=
201909191130 METAR LRBS 191130Z VRB02KT CAVOK 21/05 Q1020 NOSIG=
201909191200 METAR LRBS 191200Z VRB02KT CAVOK 20/05 Q1020 NOSIG=
201909191230 METAR LRBS 191230Z 30006KT CAVOK 21/05 Q1020 NOSIG=
201909191300 METAR LRBS 191300Z 08005KT 020V110 CAVOK 21/05 Q1019 NOSIG=
201909191330 METAR LRBS 191330Z VRB02KT CAVOK 21/05 Q1019 NOSIG=
201909191400 METAR COR LRBS 191400Z 01003KT 320V040 CAVOK 20/05 Q1019
                        NOSIG=
201909191430 METAR COR LRBS 191430Z 31003KT 270V350 CAVOK 20/05 Q1019
                        NOSIG=
201909191500 METAR LRBS 191500Z 31003KT 270V340 CAVOK 20/04 Q1019 NOSIG=
201909191530 METAR LRBS 191530Z 02002KT CAVOK 20/05 Q1019 NOSIG=
201909191600 METAR LRBS 191600Z 01004KT 320V030 CAVOK 19/06 Q1019 NOSIG=
201909191630 METAR LRBS 191630Z 02003KT CAVOK 18/06 Q1019 NOSIG=
201909191700 METAR LRBS 191700Z 36003KT CAVOK 18/06 Q1019 NOSIG=
201909191730 METAR LRBS 191730Z 02003KT CAVOK 18/06 Q1020 NOSIG=
201909191800 METAR LRBS 191800Z 07007KT CAVOK 17/08 Q1020 NOSIG=
201909191830 METAR LRBS 191830Z 05007KT CAVOK 17/08 Q1020 NOSIG=
201909191900 METAR LRBS 191900Z 07006KT CAVOK 16/09 Q1020 NOSIG=
201909191930 METAR LRBS 191930Z 08006KT CAVOK 16/09 Q1020 NOSIG=
201909192000 METAR LRBS 192000Z 06005KT 040V100 CAVOK 16/09 Q1020 NOSIG=
201909192030 METAR LRBS 192030Z 04004KT 010V070 CAVOK 15/09 Q1020 NOSIG=
201909192100 METAR LRBS 192100Z 03004KT 360V060 CAVOK 15/09 Q1020 NOSIG=
201909192130 METAR LRBS 192130Z 04005KT CAVOK 15/08 Q1020 NOSIG=
201909192200 METAR LRBS 192200Z 03005KT CAVOK 14/08 Q1020 NOSIG=
201909192230 METAR LRBS 192230Z VRB02KT CAVOK 14/08 Q1020 NOSIG=
201909192300 METAR LRBS 192300Z 02003KT CAVOK 14/08 Q1021 NOSIG=
201909192330 METAR LRBS 192330Z 03005KT CAVOK 14/08 Q1021 NOSIG=
201909200000 METAR LRBS 200000Z 04005KT 360V060 CAVOK 14/08 Q1020 NOSIG=
201909200030 METAR LRBS 200030Z 03006KT CAVOK 14/08 Q1020 NOSIG=
201909200100 METAR LRBS 200100Z 05007KT CAVOK 14/08 Q1020 NOSIG=
201909200130 METAR LRBS 200130Z 05008KT CAVOK 14/07 Q1020 NOSIG=
201909200200 METAR LRBS 200200Z 05007KT CAVOK 14/06 Q1021 NOSIG=
201909200230 METAR LRBS 200230Z 06008KT CAVOK 14/06 Q1021 NOSIG=
201909200300 METAR LRBS 200300Z 06008KT CAVOK 14/05 Q1021 NOSIG=
201909200330 METAR LRBS 200330Z 05007KT 020V090 CAVOK 14/04 Q1021 NOSIG=
201909200400 METAR LRBS 200400Z 05009KT CAVOK 13/03 Q1021 NOSIG=
201909200430 METAR LRBS 200430Z 05008KT CAVOK 13/03 Q1021 NOSIG=
201909200500 METAR LRBS 200500Z 05008KT CAVOK 13/03 Q1021 NOSIG=
201909200530 METAR LRBS 200530Z 06008KT 030V090 CAVOK 13/03 Q1021 NOSIG=
201909200600 METAR LRBS 200600Z 05010KT 360V070 CAVOK 14/03 Q1022 NOSIG=
201909200630 METAR LRBS 200630Z 06011KT CAVOK 14/03 Q1022 NOSIG=
201909200700 METAR LRBS 200700Z 05010KT CAVOK 14/03 Q1022 NOSIG=
201909200730 METAR LRBS 200730Z 05009KT CAVOK 15/03 Q1022 NOSIG=
201909200800 METAR LRBS 200800Z 04010KT 360V080 CAVOK 16/03 Q1022 NOSIG=
201909200830 METAR LRBS 200830Z 06010KT 360V090 CAVOK 17/03 Q1022 NOSIG=
201909200900 METAR LRBS 200900Z 07008KT 010V100 CAVOK 17/03 Q1022 NOSIG=
201909200930 METAR LRBS 200930Z 36006KT 320V040 9999 FEW045 16/02 Q1022
                        NOSIG=
201909201000 METAR LRBS 201000Z 35006KT 310V040 CAVOK 18/01 Q1022 NOSIG=
201909201030 METAR LRBS 201030Z 01005KT 310V050 CAVOK 18/02 Q1022 NOSIG=
201909201100 METAR LRBS 201100Z 02008KT 290V060 CAVOK 19/01 Q1022 NOSIG=
201909201130 METAR COR LRBS 201130Z VRB02KT CAVOK 19/01 Q1022 NOSIG=
201909201200 METAR LRBS 201200Z VRB03KT CAVOK 20/00 Q1021 NOSIG=
201909201230 METAR LRBS 201230Z 02004KT 310V110 CAVOK 20/01 Q1021 NOSIG=
201909201300 METAR LRBS 201300Z 36004KT 290V050 CAVOK 19/01 Q1021 NOSIG=
201909201330 METAR LRBS 201330Z 01004KT 330V050 CAVOK 18/01 Q1021 NOSIG=
201909201400 METAR LRBS 201400Z 04003KT 010V120 CAVOK 19/01 Q1021 NOSIG=
201909201430 METAR LRBS 201430Z 03003KT 350V060 CAVOK 18/01 Q1021 NOSIG=
201909201500 METAR LRBS 201500Z VRB01KT CAVOK 19/00 Q1021 NOSIG=
201909201530 METAR LRBS 201530Z 00000KT CAVOK 18/00 Q1022 NOSIG=
201909201600 METAR LRBS 201600Z 06002KT CAVOK 17/02 Q1022 NOSIG=
201909201630 METAR LRBS 201630Z 05002KT CAVOK 16/02 Q1022 NOSIG=
201909201700 METAR LRBS 201700Z 07002KT CAVOK 15/04 Q1022 NOSIG=
201909201730 METAR LRBS 201730Z 04004KT CAVOK 14/05 Q1023 NOSIG=
201909201800 METAR LRBS 201800Z 05006KT CAVOK 14/02 Q1023 NOSIG=
201909201830 METAR LRBS 201830Z 04004KT CAVOK 13/02 Q1024 NOSIG=
201909201900 METAR LRBS 201900Z 06008KT CAVOK 14/02 Q1024 NOSIG=
201909201930 METAR LRBS 201930Z 05005KT 020V080 CAVOK 13/02 Q1024 NOSIG=
201909202000 METAR LRBS 202000Z 07006KT CAVOK 12/03 Q1025 NOSIG=
201909202030 METAR LRBS 202030Z 07006KT CAVOK 12/03 Q1025 NOSIG=
201909202100 METAR LRBS 202100Z 07005KT CAVOK 10/03 Q1025 NOSIG=
201909202130 METAR LRBS 202130Z 07004KT CAVOK 10/03 Q1025 NOSIG=
201909202200 METAR LRBS 202200Z 06003KT CAVOK 09/03 Q1025 NOSIG=
201909202230 METAR LRBS 202230Z VRB01KT CAVOK 10/03 Q1025 NOSIG=
201909202300 METAR LRBS 202300Z 08003KT CAVOK 10/03 Q1026 NOSIG=
201909202330 METAR LRBS 202330Z 07002KT CAVOK 10/03 Q1026 NOSIG=
201909210000 METAR LRBS 210000Z 06002KT CAVOK 09/03 Q1026 NOSIG=
201909210030 METAR LRBS 210030Z 07002KT CAVOK 09/03 Q1026 NOSIG=
201909210100 METAR LRBS 210100Z 09001KT CAVOK 09/03 Q1026 NOSIG=
201909210130 METAR LRBS 210130Z 06002KT CAVOK 09/03 Q1026 NOSIG=
201909210200 METAR LRBS 210200Z VRB01KT CAVOK 09/03 Q1026 NOSIG=
201909210230 METAR LRBS 210230Z 08002KT CAVOK 08/03 Q1026 NOSIG=
201909210300 METAR LRBS 210300Z 08001KT CAVOK 08/03 Q1026 NOSIG=
201909210330 METAR LRBS 210330Z 00000KT CAVOK 08/03 Q1026 NOSIG=
201909210400 METAR LRBS 210400Z 31002KT CAVOK 07/03 Q1026 NOSIG=
201909210430 METAR COR LRBS 210430Z VRB01KT CAVOK 06/03 Q1027 NOSIG=
201909210500 METAR LRBS 210500Z 27001KT CAVOK 07/03 Q1027 NOSIG=
201909210530 METAR LRBS 210530Z VRB01KT CAVOK 09/04 Q1027 NOSIG=
201909210600 METAR LRBS 210600Z VRB01KT CAVOK 11/04 Q1028 NOSIG=
201909210630 METAR LRBS 210630Z VRB02KT CAVOK 12/03 Q1028 NOSIG=
201909210700 METAR LRBS 210700Z 11005KT 070V140 CAVOK 14/02 Q1028 NOSIG=
201909210730 METAR LRBS 210730Z 12004KT 080V150 CAVOK 15/01 Q1028 NOSIG=
201909210800 METAR LRBS 210800Z 16005KT 120V190 CAVOK 15/01 Q1028 NOSIG=
201909210830 METAR LRBS 210830Z VRB03KT CAVOK 16/00 Q1028 NOSIG=
201909210900 METAR LRBS 210900Z VRB03KT CAVOK 17/00 Q1028 NOSIG=
201909210930 METAR LRBS 210930Z VRB03KT CAVOK 17/M00 Q1028 NOSIG=
201909211000 METAR LRBS 211000Z 25003KT 160V330 CAVOK 17/M01 Q1027 NOSIG=
201909211030 METAR LRBS 211030Z 23006KT CAVOK 18/M00 Q1027 NOSIG=
201909211100 METAR LRBS 211100Z 25005KT 180V290 CAVOK 19/M00 Q1027 NOSIG=
201909211130 METAR LRBS 211130Z 24005KT 170V280 CAVOK 19/M00 Q1027 NOSIG=
201909211200 METAR LRBS 211200Z 29005KT 230V020 CAVOK 19/M00 Q1026 NOSIG=
201909211230 METAR LRBS 211230Z VRB04KT CAVOK 20/M01 Q1026 NOSIG=
201909211300 METAR LRBS 211300Z 30003KT 230V010 CAVOK 19/M01 Q1026 NOSIG=
201909211330 METAR LRBS 211330Z VRB02KT CAVOK 19/M01 Q1025 NOSIG=
201909211400 METAR LRBS 211400Z VRB03KT CAVOK 20/M01 Q1025 NOSIG=
201909211430 METAR COR LRBS 211430Z 24008KT 180V280 CAVOK 20/M01 Q1025
                        NOSIG=
201909211500 METAR LRBS 211500Z VRB01KT CAVOK 19/M01 Q1025 NOSIG=
201909211530 METAR LRBS 211530Z VRB01KT CAVOK 19/M01 Q1025 NOSIG=
201909211600 METAR LRBS 211600Z VRB01KT CAVOK 19/M00 Q1025 NOSIG=
201909211630 METAR LRBS 211630Z 00000KT CAVOK 17/00 Q1025 NOSIG=
201909211700 METAR LRBS 211700Z 01001KT CAVOK 16/02 Q1025 NOSIG=
201909211730 METAR COR LRBS 211730Z 00000KT CAVOK 14/02 Q1025 NOSIG=
201909211800 METAR LRBS 211800Z 00000KT CAVOK 14/03 Q1026 NOSIG=
201909211830 METAR LRBS 211830Z 00000KT CAVOK 14/03 Q1026 NOSIG=
201909211900 METAR LRBS 211900Z 36001KT CAVOK 14/03 Q1026 NOSIG=
201909211930 METAR LRBS 211930Z 00000KT CAVOK 13/02 Q1026 NOSIG=
201909212000 METAR LRBS 212000Z 36001KT CAVOK 12/03 Q1025 NOSIG=
201909212030 METAR LRBS 212030Z 00000KT CAVOK 11/03 Q1025 NOSIG=
201909212100 METAR LRBS 212100Z 00000KT CAVOK 11/03 Q1025 NOSIG=
201909212130 METAR LRBS 212130Z 00000KT CAVOK 11/03 Q1025 NOSIG=
201909212200 METAR LRBS 212200Z 35002KT CAVOK 11/03 Q1025 NOSIG=
201909212230 METAR LRBS 212230Z 01001KT CAVOK 10/03 Q1025 NOSIG=
201909212300 METAR LRBS 212300Z 00000KT CAVOK 08/03 Q1025 NOSIG=
201909212330 METAR LRBS 212330Z 00000KT CAVOK 08/03 Q1025 NOSIG=
201909220000 METAR LRBS 220000Z 00000KT CAVOK 08/03 Q1025 NOSIG=
201909220030 METAR LRBS 220030Z 00000KT CAVOK 07/03 Q1025 NOSIG=
201909220100 METAR LRBS 220100Z 00000KT CAVOK 07/02 Q1025 NOSIG=
201909220130 METAR LRBS 220130Z 30002KT CAVOK 08/02 Q1024 NOSIG=
201909220200 METAR LRBS 220200Z 28002KT CAVOK 07/02 Q1024 NOSIG=
201909220230 METAR LRBS 220230Z 27002KT CAVOK 07/02 Q1024 NOSIG=
201909220300 METAR LRBS 220300Z 00000KT CAVOK 07/02 Q1024 NOSIG=
201909220330 METAR LRBS 220330Z 00000KT CAVOK 07/02 Q1024 NOSIG=
201909220400 METAR LRBS 220400Z 27002KT CAVOK 07/02 Q1024 NOSIG=
201909220430 METAR LRBS 220430Z 26002KT CAVOK 07/03 Q1024 NOSIG=
201909220500 METAR LRBS 220500Z 28001KT CAVOK 09/05 Q1024 NOSIG=
201909220530 METAR LRBS 220530Z VRB01KT CAVOK 11/05 Q1024 NOSIG=
201909220600 METAR LRBS 220600Z VRB01KT CAVOK 13/03 Q1024 NOSIG=
201909220630 METAR LRBS 220630Z 26004KT 230V290 CAVOK 14/01 Q1024 NOSIG=
201909220700 METAR LRBS 220700Z 25005KT 220V290 CAVOK 15/01 Q1024 NOSIG=
201909220730 METAR LRBS 220730Z 27005KT 230V310 CAVOK 17/01 Q1024 NOSIG=
201909220800 METAR LRBS 220800Z 26004KT 230V320 CAVOK 18/02 Q1024 NOSIG=
201909220830 METAR LRBS 220830Z 26005KT 220V310 CAVOK 20/01 Q1023 NOSIG=
201909220900 METAR LRBS 220900Z 28004KT 210V340 CAVOK 20/01 Q1023 NOSIG=
201909220930 METAR LRBS 220930Z 25005KT 180V300 CAVOK 21/00 Q1023 NOSIG=
201909221000 METAR LRBS 221000Z VRB04KT CAVOK 21/01 Q1022 NOSIG=
201909221030 METAR LRBS 221030Z 25005KT 200V340 CAVOK 22/00 Q1022 NOSIG=
201909221100 METAR LRBS 221100Z 28004KT 230V040 CAVOK 22/00 Q1021 NOSIG=
201909221130 METAR LRBS 221130Z VRB04KT CAVOK 22/01 Q1021 NOSIG=
201909221200 METAR LRBS 221200Z 30003KT 240V050 CAVOK 22/01 Q1020 NOSIG=
201909221230 METAR LRBS 221230Z VRB03KT CAVOK 23/02 Q1020 NOSIG=
201909221300 METAR LRBS 221300Z VRB04KT CAVOK 23/01 Q1020 NOSIG=
201909221330 METAR LRBS 221330Z 20003KT 090V250 CAVOK 23/02 Q1019 NOSIG=
201909221400 METAR LRBS 221400Z 24004KT 170V280 CAVOK 23/01 Q1019 NOSIG=
201909221430 METAR LRBS 221430Z 23004KT 180V260 CAVOK 23/01 Q1019 NOSIG=
201909221500 METAR LRBS 221500Z 23003KT 170V320 CAVOK 23/01 Q1018 NOSIG=
201909221530 METAR LRBS 221530Z VRB02KT CAVOK 22/01 Q1018 NOSIG=
201909221600 METAR LRBS 221600Z 25002KT CAVOK 22/01 Q1018 NOSIG=
201909221630 METAR LRBS 221630Z VRB01KT CAVOK 20/02 Q1018 NOSIG=
201909221700 METAR LRBS 221700Z VRB01KT CAVOK 18/03 Q1018 NOSIG=
201909221730 METAR LRBS 221730Z 00000KT CAVOK 15/05 Q1018 NOSIG=
201909221800 METAR LRBS 221800Z VRB01KT CAVOK 15/05 Q1018 NOSIG=
201909221830 METAR LRBS 221830Z 00000KT CAVOK 13/05 Q1018 NOSIG=
201909221900 METAR LRBS 221900Z 36001KT CAVOK 14/05 Q1018 NOSIG=
201909221930 METAR LRBS 221930Z VRB01KT CAVOK 13/05 Q1018 NOSIG=
201909222000 METAR LRBS 222000Z 35001KT CAVOK 12/06 Q1018 NOSIG=
201909222030 METAR LRBS 222030Z 00000KT CAVOK 12/05 Q1018 NOSIG=
201909222100 METAR LRBS 222100Z 00000KT CAVOK 12/05 Q1018 NOSIG=
201909222130 METAR LRBS 222130Z 35001KT CAVOK 11/05 Q1017 NOSIG=
201909222200 METAR LRBS 222200Z VRB01KT CAVOK 11/05 Q1017 NOSIG=
201909222230 METAR LRBS 222230Z 13001KT CAVOK 11/04 Q1017 NOSIG=
201909222300 METAR LRBS 222300Z 09001KT CAVOK 09/04 Q1017 NOSIG=
201909222330 METAR LRBS 222330Z 01001KT CAVOK 10/05 Q1017 NOSIG=
201909230000 METAR LRBS 230000Z VRB01KT CAVOK 09/05 Q1017 NOSIG=
201909230030 METAR LRBS 230030Z 00000KT CAVOK 08/04 Q1017 NOSIG=
201909230100 METAR LRBS 230100Z 00000KT CAVOK 09/05 Q1016 NOSIG=
201909230130 METAR LRBS 230130Z 00000KT CAVOK 08/04 Q1016 NOSIG=
201909230200 METAR LRBS 230200Z 00000KT CAVOK 09/04 Q1016 NOSIG=
201909230230 METAR LRBS 230230Z 25002KT CAVOK 09/04 Q1016 NOSIG=
201909230300 METAR LRBS 230300Z 29001KT CAVOK 08/04 Q1016 NOSIG=
201909230330 METAR LRBS 230330Z 27001KT CAVOK 08/04 Q1016 NOSIG=
201909230400 METAR LRBS 230400Z 27002KT CAVOK 09/04 Q1016 NOSIG=
201909230430 METAR LRBS 230430Z 27002KT CAVOK 09/04 Q1016 NOSIG=
201909230500 METAR LRBS 230500Z VRB01KT CAVOK 09/04 Q1016 NOSIG=
201909230530 METAR LRBS 230530Z 24002KT CAVOK 11/05 Q1016 NOSIG=
201909230600 METAR LRBS 230600Z 00000KT CAVOK 12/05 Q1016 NOSIG=
201909230630 METAR LRBS 230630Z VRB01KT CAVOK 15/05 Q1016 NOSIG=
201909230700 METAR LRBS 230700Z VRB01KT CAVOK 16/05 Q1016 NOSIG=
201909230730 METAR LRBS 230730Z 25002KT CAVOK 17/05 Q1016 NOSIG=
201909230800 METAR LRBS 230800Z VRB02KT 9999 FEW050CB 18/04 Q1016 NOSIG=
201909230830 METAR LRBS 230830Z 21003KT CAVOK 19/04 Q1016 NOSIG=
201909230900 METAR LRBS 230900Z 19003KT 110V240 CAVOK 21/04 Q1015 NOSIG=
201909230930 METAR LRBS 230930Z 20003KT 150V240 CAVOK 22/03 Q1015 NOSIG=
201909231000 METAR LRBS 231000Z VRB03KT CAVOK 23/02 Q1015 NOSIG=
201909231030 METAR LRBS 231030Z VRB04KT CAVOK 24/02 Q1015 NOSIG=
201909231100 METAR LRBS 231100Z 32003KT 280V010 CAVOK 24/03 Q1014 NOSIG=
201909231130 METAR LRBS 231130Z 23004KT 190V260 CAVOK 24/03 Q1014 NOSIG=
201909231200 METAR COR LRBS 231200Z 17003KT 090V220 CAVOK 24/02 Q1014
                        NOSIG=
201909231230 METAR LRBS 231230Z VRB03KT CAVOK 25/02 Q1014 NOSIG=
201909231300 METAR LRBS 231300Z 15003KT 090V250 CAVOK 25/03 Q1013 NOSIG=
201909231330 METAR LRBS 231330Z 17003KT 080V230 CAVOK 25/02 Q1013 NOSIG=
201909231400 METAR LRBS 231400Z VRB01KT CAVOK 25/02 Q1013 NOSIG=
201909231430 METAR LRBS 231430Z VRB01KT CAVOK 24/02 Q1013 NOSIG=
201909231500 METAR LRBS 231500Z 25003KT CAVOK 24/04 Q1013 NOSIG=
201909231530 METAR LRBS 231530Z 23002KT CAVOK 24/03 Q1013 NOSIG=
201909231600 METAR COR LRBS 231600Z 03001KT CAVOK 22/06 Q1013 NOSIG=
201909231630 METAR LRBS 231630Z 02003KT 9000 NSC 21/08 Q1013 NOSIG=
201909231700 METAR LRBS 231700Z 05003KT 010V090 9000 NSC 19/07 Q1013 NOSIG=
201909231730 METAR LRBS 231730Z 05003KT 9000 NSC 19/07 Q1013 NOSIG=
201909231800 METAR LRBS 231800Z 06003KT CAVOK 19/07 Q1013 NOSIG=
201909231830 METAR LRBS 231830Z 08002KT CAVOK 19/06 Q1013 NOSIG=
201909231900 METAR LRBS 231900Z 07001KT 9000 NSC 19/05 Q1013 NOSIG=
201909231930 METAR LRBS 231930Z 05002KT CAVOK 19/06 Q1013 NOSIG=
201909232000 METAR LRBS 232000Z 03003KT CAVOK 19/05 Q1013 NOSIG=
201909232030 METAR LRBS 232030Z 01003KT CAVOK 19/05 Q1013 NOSIG=
201909232100 METAR LRBS 232100Z 02001KT CAVOK 18/06 Q1013 NOSIG=
201909232130 METAR LRBS 232130Z 04003KT CAVOK 17/07 Q1013 NOSIG=
201909232200 METAR LRBS 232200Z 01002KT CAVOK 18/08 Q1013 NOSIG=
201909232230 METAR LRBS 232230Z 36003KT CAVOK 17/07 Q1013 NOSIG=
201909232300 METAR LRBS 232300Z 02004KT CAVOK 17/08 Q1013 NOSIG=
201909232330 METAR LRBS 232330Z 02004KT 350V050 CAVOK 17/08 Q1013 NOSIG=
201909240000 METAR LRBS 240000Z 03004KT CAVOK 17/09 Q1013 NOSIG=
201909240030 METAR LRBS 240030Z 03004KT 360V060 CAVOK 17/10 Q1013 NOSIG=
201909240100 METAR LRBS 240100Z 04005KT CAVOK 17/10 Q1013 NOSIG=
201909240130 METAR LRBS 240130Z 06005KT 020V090 CAVOK 17/11 Q1013 NOSIG=
201909240200 METAR LRBS 240200Z 06004KT 020V080 9999 -SHRA FEW045CB 16/11
                        Q1013 NOSIG=
201909240230 METAR LRBS 240230Z 07003KT 9999 -SHRA FEW040CB 16/12 Q1013
                        NOSIG=
201909240300 METAR LRBS 240300Z 07002KT 9999 -RA NSC 15/13 Q1013 NOSIG=
201909240330 METAR LRBS 240330Z 12002KT 9999 -RA NSC 16/13 Q1013 R07/29//95
                        NOSIG=
201909240400 METAR LRBS 240400Z 03003KT 350V060 9999 -RA NSC 15/13 Q1013
                        R07/29//95 NOSIG=
201909240430 METAR LRBS 240430Z 06002KT 9999 -RA NSC 14/14 Q1013 R07/29//95
                        NOSIG=
201909240500 METAR LRBS 240500Z 01003KT 350V050 9999 -RA NSC 15/14 Q1013
                        R07/29//95 NOSIG=
201909240530 METAR LRBS 240530Z 03002KT 9999 -RA NSC 15/14 Q1013 R07/29//95
                        NOSIG=
201909240600 METAR LRBS 240600Z 03004KT 360V060 CAVOK 15/14 Q1014 R07/29//95
                        NOSIG=
201909240630 METAR COR LRBS 240630Z 03005KT CAVOK 15/14 Q1014 R07/29//95
                        NOSIG=
201909240700 METAR LRBS 240700Z 04005KT CAVOK 16/14 Q1014 R07/29//95 NOSIG=
201909240730 METAR LRBS 240730Z 06005KT CAVOK 16/14 Q1014 R07/29//95 NOSIG=
201909240800 METAR LRBS 240800Z 05006KT CAVOK 17/14 Q1014 R07/29//95 NOSIG=
201909240830 METAR LRBS 240830Z 05006KT 9999 OVC046 17/14 Q1014 R07/29//95
                        NOSIG=
201909240900 METAR COR LRBS 240900Z 04006KT 9999 -RA OVC045 17/14 Q1014
                        R07/19//95 NOSIG=
201909240930 METAR LRBS 240930Z 05005KT 9999 FEW030 OVC048 17/14 Q1014
                        R07/19//95=
201909241000 METAR LRBS 241000Z 04005KT 9999 OVC048 17/14 Q1014 R07/19//95=
201909241030 METAR LRBS 241030Z 05008KT 9999 BKN035 OVC045 17/14 Q1014
                        R07/19//95 NOSIG=
201909241100 METAR LRBS 241100Z 07009KT 9999 -RA OVC034 17/14 Q1014 R07/19//95
                        NOSIG=
201909241130 METAR LRBS 241130Z 06009KT 020V090 9999 BKN030 OVC048 17/14
                        Q1014 R07/19//95 NOSIG=
201909241200 METAR LRBS 241200Z 05007KT 9999 SCT030 OVC042 17/13 Q1013
                        R07/19//95 NOSIG=
201909241230 METAR LRBS 241230Z 07009KT 9999 OVC049 18/13 Q1013 R07/19//95
                        NOSIG=
201909241300 METAR COR LRBS 241300Z 06009KT CAVOK 19/13 Q1013 R07/CLRD//
                        NOSIG=
201909241330 METAR LRBS 241330Z 07010KT 030V090 9999 FEW015 18/13 Q1013
                        R07/CLRD// NOSIG=
201909241400 METAR LRBS 241400Z 06010KT 9999 SCT020 18/13 Q1013 NOSIG=
201909241430 METAR LRBS 241430Z 06007KT 9999 SCT022 18/14 Q1013 NOSIG=
201909241500 METAR LRBS 241500Z 05007KT 020V080 9999 FEW023 OVC046 18/14
                        Q1013 NOSIG=
201909241530 METAR LRBS 241530Z 04005KT 9999 SCT033 17/14 Q1013 NOSIG=
201909241600 METAR LRBS 241600Z 03005KT 350V070 9999 SCT040 17/14 Q1013
                        NOSIG=
201909241630 METAR LRBS 241630Z 02005KT 350V050 9999 FEW018 BKN041 17/14
                        Q1013 NOSIG=
201909241700 METAR LRBS 241700Z 04005KT 9999 OVC043 17/14 Q1013 NOSIG=
201909241730 METAR LRBS 241730Z 04006KT 9999 OVC046 17/14 Q1013 NOSIG=
201909241800 METAR LRBS 241800Z 04004KT 9999 OVC047 17/14 Q1013 NOSIG=
201909241830 METAR LRBS 241830Z 04005KT 9999 OVC048 17/14 Q1013 NOSIG=
201909241900 METAR LRBS 241900Z 03006KT 9999 FEW019 17/14 Q1013 NOSIG=
201909241930 METAR LRBS 241930Z 02005KT 350V050 9999 FEW024 17/14 Q1013
                        NOSIG=
201909242000 METAR LRBS 242000Z 03006KT CAVOK 16/14 Q1013 NOSIG=
201909242030 METAR LRBS 242030Z 03005KT CAVOK 16/14 Q1013 NOSIG=
201909242100 METAR LRBS 242100Z 03004KT 9999 FEW019 16/13 Q1013 NOSIG=
201909242130 METAR LRBS 242130Z 02004KT 9999 SCT020 16/13 Q1013 NOSIG=
201909242200 METAR LRBS 242200Z 02004KT 350V060 9999 SCT024 16/13 Q1013
                        NOSIG=
201909242230 METAR LRBS 242230Z 36004KT 330V040 9999 FEW026 16/13 Q1013
                        NOSIG=
201909242300 METAR LRBS 242300Z 02004KT 350V060 9999 BKN024 16/13 Q1013
                        NOSIG=
201909242330 METAR LRBS 242330Z 03004KT 9999 SCT024 15/13 Q1013 NOSIG=
201909250000 METAR LRBS 250000Z 02004KT 9999 FEW031 15/13 Q1013 NOSIG=
201909250030 METAR LRBS 250030Z 02005KT 350V050 9999 FEW031 15/13 Q1013
                        NOSIG=
201909250100 METAR LRBS 250100Z 02004KT 360V060 9999 FEW022 15/13 Q1013
                        NOSIG=
201909250130 METAR LRBS 250130Z 02004KT 9999 SCT021 15/13 Q1013 NOSIG=
201909250200 METAR LRBS 250200Z 02005KT 9999 SCT024 16/13 Q1013 NOSIG=
201909250230 METAR LRBS 250230Z 05004KT 9999 FEW023 15/13 Q1013 NOSIG=
201909250300 METAR LRBS 250300Z 04005KT 9999 SCT025 16/13 Q1013 NOSIG=
201909250330 METAR LRBS 250330Z 04006KT 9999 SCT025 15/13 Q1013 NOSIG=
201909250400 METAR LRBS 250400Z 01004KT 350V050 9999 BKN027 15/14 Q1013
                        NOSIG=
201909250430 METAR LRBS 250430Z 04006KT 360V060 9999 SCT032 15/14 Q1013
                        NOSIG=
201909250500 METAR LRBS 250500Z 03005KT 360V060 9999 SCT035 16/14 Q1013
                        NOSIG=
201909250530 METAR LRBS 250530Z 04006KT 360V060 9999 FEW040 16/14 Q1014
                        NOSIG=
201909250600 METAR LRBS 250600Z 04006KT 360V060 9999 FEW032 16/14 Q1014
                        NOSIG=
201909250630 METAR LRBS 250630Z 05008KT 9999 SCT013 18/14 Q1014 NOSIG=
201909250700 METAR LRBS 250700Z 04007KT 010V070 9999 SCT013 17/14 Q1014
                        NOSIG=
201909250730 METAR LRBS 250730Z 05008KT 9999 SCT014 18/14 Q1014 NOSIG=
201909250800 METAR LRBS 250800Z 05009KT 360V070 9999 SCT015 18/14 Q1014
                        NOSIG=
201909250830 METAR LRBS 250830Z 06008KT 9999 BKN016 19/14 Q1015 NOSIG=
201909250900 METAR LRBS 250900Z 06010KT 9999 BKN018 BKN021 19/14 Q1014
                        NOSIG=
201909250930 METAR LRBS 250930Z 07010KT 9999 FEW019 BKN021 19/13 Q1014
                        NOSIG=
201909251000 METAR LRBS 251000Z 07009KT 9999 SCT023 19/13 Q1014 NOSIG=
201909251030 METAR LRBS 251030Z 07009KT 040V100 9999 SCT030 20/13 Q1014
                        NOSIG=
201909251100 METAR LRBS 251100Z 06009KT CAVOK 20/13 Q1014 NOSIG=
201909251130 METAR LRBS 251130Z 05008KT 9999 SCT025 20/13 Q1014 NOSIG=
201909251200 METAR LRBS 251200Z 06007KT 020V100 9999 SCT025 20/14 Q1014
                        NOSIG=
201909251230 METAR LRBS 251230Z 05007KT 010V090 9999 SCT024 20/14 Q1013
                        NOSIG=
201909251300 METAR LRBS 251300Z 07007KT 9999 SCT027 20/13 Q1013 NOSIG=
201909251330 METAR LRBS 251330Z 07007KT 9999 SCT027 20/13 Q1013 NOSIG=
201909251400 METAR LRBS 251400Z 06007KT 020V090 9999 FEW030 20/13 Q1013
                        NOSIG=
201909251430 METAR LRBS 251430Z 07006KT 040V100 CAVOK 20/13 Q1013 NOSIG=
201909251500 METAR LRBS 251500Z 06006KT CAVOK 20/13 Q1013 NOSIG=
201909251530 METAR LRBS 251530Z 06007KT CAVOK 19/13 Q1013 NOSIG=
201909251600 METAR LRBS 251600Z 06005KT CAVOK 19/13 Q1013 NOSIG=
201909251630 METAR LRBS 251630Z 06005KT CAVOK 18/13 Q1013 NOSIG=
201909251700 METAR LRBS 251700Z 06004KT CAVOK 18/13 Q1013 NOSIG=
201909251730 METAR LRBS 251730Z 06005KT CAVOK 17/13 Q1013 NOSIG=
201909251800 METAR LRBS 251800Z 06005KT CAVOK 17/13 Q1014 NOSIG=
201909251830 METAR LRBS 251830Z 07004KT CAVOK 17/13 Q1014 NOSIG=
201909251900 METAR LRBS 251900Z 06004KT CAVOK 16/14 Q1013 NOSIG=
201909251930 METAR LRBS 251930Z 05003KT 9999 FEW045 17/14 Q1013 NOSIG=
201909252000 METAR LRBS 252000Z 06004KT 9999 SCT046 16/14 Q1013 NOSIG=
201909252030 METAR LRBS 252030Z 07004KT CAVOK 16/14 Q1013 NOSIG=
201909252100 METAR LRBS 252100Z 07003KT CAVOK 16/14 Q1013 NOSIG=
201909252130 METAR LRBS 252130Z 01002KT CAVOK 16/14 Q1013 NOSIG=
201909252200 METAR LRBS 252200Z 04002KT CAVOK 15/14 Q1013 NOSIG=
201909252230 METAR LRBS 252230Z 07003KT CAVOK 15/14 Q1012 NOSIG=
201909252300 METAR LRBS 252300Z 06004KT CAVOK 15/14 Q1012 NOSIG=
201909252330 METAR LRBS 252330Z 07003KT CAVOK 15/14 Q1012 NOSIG=
201909260000 METAR LRBS 260000Z 05002KT CAVOK 15/13 Q1012 NOSIG=
201909260030 METAR LRBS 260030Z 04002KT CAVOK 16/14 Q1012 NOSIG=
201909260100 METAR LRBS 260100Z 04003KT CAVOK 15/14 Q1012 NOSIG=
201909260130 METAR LRBS 260130Z 36003KT CAVOK 16/14 Q1012 NOSIG=
201909260200 METAR LRBS 260200Z 04003KT CAVOK 15/14 Q1012 NOSIG=
201909260230 METAR LRBS 260230Z 05003KT CAVOK 15/13 Q1012 NOSIG=
201909260300 METAR LRBS 260300Z 04002KT CAVOK 15/14 Q1012 NOSIG=
201909260330 METAR LRBS 260330Z VRB02KT CAVOK 15/14 Q1012 NOSIG=
201909260400 METAR LRBS 260400Z 04003KT CAVOK 14/13 Q1012 NOSIG=
201909260430 METAR LRBS 260430Z 05003KT 020V080 CAVOK 15/14 Q1012 NOSIG=
201909260500 METAR LRBS 260500Z 07004KT CAVOK 15/14 Q1012 NOSIG=
201909260530 METAR LRBS 260530Z 05003KT CAVOK 15/14 Q1012 NOSIG=
201909260600 METAR LRBS 260600Z 06003KT 9000 NSC 16/14 Q1013 NOSIG=
201909260630 METAR LRBS 260630Z 07004KT 030V110 9999 SCT006 17/14 Q1013
                        NOSIG=
201909260700 METAR LRBS 260700Z 09003KT 350V150 9999 FEW009 18/15 Q1013
                        NOSIG=
201909260730 METAR LRBS 260730Z 06004KT 010V170 9999 FEW015 20/15 Q1013
                        NOSIG=
201909260800 METAR LRBS 260800Z VRB02KT 9999 FEW017 20/15 Q1012 NOSIG=
201909260830 METAR LRBS 260830Z 10005KT 060V130 9999 FEW019 20/15 Q1012
                        NOSIG=
201909260900 METAR LRBS 260900Z 06004KT 360V150 9999 FEW022 21/15 Q1012
                        NOSIG=
201909260930 METAR LRBS 260930Z 04003KT 330V110 9999 FEW026 23/15 Q1012
                        NOSIG=
201909261000 METAR LRBS 261000Z VRB03KT 9999 SCT031 22/14 Q1012 NOSIG=
201909261030 METAR LRBS 261030Z VRB02KT 9999 SCT033 22/14 Q1012 NOSIG=
201909261100 METAR LRBS 261100Z VRB02KT 9999 SCT034 22/14 Q1011 NOSIG=
201909261130 METAR LRBS 261130Z VRB02KT 9999 FEW036 23/14 Q1011 NOSIG=
201909261200 METAR LRBS 261200Z VRB02KT 9999 SCT036 23/14 Q1011 NOSIG=
201909261230 METAR LRBS 261230Z VRB01KT 9999 SCT036 23/14 Q1011 NOSIG=
201909261300 METAR LRBS 261300Z VRB01KT 9999 -SHRA FEW040 FEW045CB 23/14
                        Q1011 TEMPO 5000 SHRA=
201909261330 METAR LRBS 261330Z 00000KT 8000 -SHRA FEW040CB 22/15 Q1011
                        TEMPO 5000 SHRA=
201909261400 METAR LRBS 261400Z 25002KT 9000 -SHRA FEW026 FEW039CB 21/16
                        Q1010 TEMPO 5000 SHRA=
201909261430 METAR LRBS 261430Z 26001KT CAVOK 21/15 Q1010 R07/29//95 NOSIG=
201909261500 METAR LRBS 261500Z 00000KT 9999 FEW032 21/16 Q1010 R07/29//95
                        NOSIG=
201909261530 METAR LRBS 261530Z 00000KT CAVOK 21/16 Q1010 R07/29//95 NOSIG=
201909261600 METAR LRBS 261600Z 00000KT CAVOK 20/17 Q1010 R07/29//95 NOSIG=
201909261630 METAR LRBS 261630Z 00000KT 9999 VCTS FEW060CB 20/16 Q1010
                        R07/29//95 TEMPO 5000 TSRA=
201909261700 METAR LRBS 261700Z 00000KT 9999 VCTS FEW050CB 19/17 Q1010
                        R07/29//95 TEMPO 5000 SHRA=
201909261730 METAR LRBS 261730Z 00000KT 9999 FEW040CB BKN043 19/17 Q1010
                        R07/29//95 NOSIG=
201909261800 METAR LRBS 261800Z VRB02KT 9999 SCT045 19/16 Q1010 R07/19//95
                        NOSIG=
201909261830 METAR COR LRBS 261830Z 29002KT CAVOK 18/16 Q1011 R07/19//95
                        NOSIG=
201909261900 METAR LRBS 261900Z 28003KT 9999 FEW035 18/16 Q1011 R07/19//95
                        NOSIG=
201909261930 METAR LRBS 261930Z VRB02KT 8000 SCT030 17/16 Q1011 R07/19//95
                        TEMPO 5000 BR=
201909262000 METAR LRBS 262000Z 28003KT 8000 SCT035 17/16 Q1011 R07/19//95
                        TEMPO 5000 BR=
201909262030 METAR LRBS 262030Z 28004KT 260V320 9999 SCT042 17/16 Q1011
                        R07/19//95 TEMPO 5000 BR=
201909262100 METAR LRBS 262100Z 27006KT 240V300 9999 SCT040 17/15 Q1011
                        R07/19//95 NOSIG=
201909262130 METAR LRBS 262130Z 27004KT 9999 SCT043 17/15 Q1011 R07/CLRD//
                        NOSIG=
201909262200 METAR LRBS 262200Z 27006KT 9999 FEW045 16/15 Q1011 R07/CLRD//
                        NOSIG=
201909262230 METAR LRBS 262230Z 27006KT CAVOK 16/14 Q1011 NOSIG=
201909262300 METAR LRBS 262300Z 27006KT CAVOK 16/14 Q1011 NOSIG=
201909262330 METAR LRBS 262330Z 27006KT CAVOK 16/14 Q1011 NOSIG=
201909270000 METAR LRBS 270000Z 28004KT 260V320 8000 NSC 15/14 Q1011 NOSIG=
201909270030 METAR COR LRBS 270030Z 27005KT 240V310 7000 FEW008 15/14
                        Q1011 TEMPO 5000 BR=
201909270100 METAR COR LRBS 270100Z 28004KT 230V320 6000 BKN006 14/13
                        Q1011 TEMPO 5000 BR=
201909270130 METAR COR LRBS 270130Z 28004KT 240V300 6000 SCT005 14/13
                        Q1011 TEMPO 5000 BR BKN005=
201909270200 METAR COR LRBS 270200Z 27004KT 6000 SCT004 13/13 Q1012 TEMPO
                        5000 BR BKN005=
201909270230 METAR LRBS 270230Z 26005KT 6000 FEW004 13/12 Q1012 NOSIG=
201909270300 METAR LRBS 270300Z 27004KT 8000 NSC 13/12 Q1012 NOSIG=
201909270330 METAR LRBS 270330Z 28003KT CAVOK 13/12 Q1012 NOSIG=
201909270400 METAR LRBS 270400Z VRB01KT 9999 FEW050CB 13/12 Q1012 NOSIG=
201909270430 METAR LRBS 270430Z VRB01KT CAVOK 13/12 Q1013 NOSIG=
201909270500 METAR LRBS 270500Z 27002KT CAVOK 13/12 Q1013 NOSIG=
201909270530 METAR LRBS 270530Z 26003KT CAVOK 13/12 Q1013 NOSIG=
201909270600 METAR LRBS 270600Z 26004KT CAVOK 14/12 Q1014 NOSIG=
201909270630 METAR LRBS 270630Z 27004KT 240V300 CAVOK 15/12 Q1014 NOSIG=
201909270700 METAR LRBS 270700Z 26003KT CAVOK 15/13 Q1015 NOSIG=
201909270730 METAR LRBS 270730Z 29003KT 250V320 CAVOK 16/13 Q1015 NOSIG=
201909270800 METAR LRBS 270800Z 26004KT 230V300 CAVOK 18/13 Q1015 NOSIG=
201909270830 METAR LRBS 270830Z VRB01KT CAVOK 19/13 Q1015 NOSIG=
201909270900 METAR LRBS 270900Z 01003KT 310V060 CAVOK 20/12 Q1015 NOSIG=
201909270930 METAR LRBS 270930Z 03004KT 310V100 CAVOK 22/12 Q1015 NOSIG=
201909271000 METAR LRBS 271000Z 03005KT 350V070 CAVOK 21/11 Q1016 NOSIG=
201909271030 METAR COR LRBS 271030Z 35006KT 310V020 CAVOK 22/11 Q1016
                        NOSIG=
201909271100 METAR LRBS 271100Z VRB04KT CAVOK 23/10 Q1015 NOSIG=
201909271130 METAR LRBS 271130Z VRB04KT CAVOK 23/10 Q1015 NOSIG=
201909271200 METAR LRBS 271200Z 03005KT 360V070 CAVOK 22/10 Q1016 NOSIG=
201909271230 METAR LRBS 271230Z 03004KT 340V050 CAVOK 22/10 Q1016 NOSIG=
201909271300 METAR LRBS 271300Z 04005KT CAVOK 21/10 Q1016 NOSIG=
201909271330 METAR LRBS 271330Z 04004KT CAVOK 22/11 Q1016 NOSIG=
201909271400 METAR LRBS 271400Z 05005KT 020V080 CAVOK 22/11 Q1016 NOSIG=
201909271430 METAR LRBS 271430Z 05004KT CAVOK 22/11 Q1016 NOSIG=
201909271500 METAR LRBS 271500Z 05004KT 360V080 CAVOK 22/11 Q1016 NOSIG=
201909271530 METAR LRBS 271530Z 05006KT 020V080 CAVOK 21/12 Q1016 NOSIG=
201909271600 METAR LRBS 271600Z 08007KT CAVOK 19/12 Q1017 NOSIG=
201909271630 METAR LRBS 271630Z 08004KT CAVOK 17/12 Q1017 NOSIG=
201909271700 METAR COR LRBS 271700Z 08003KT CAVOK 16/12 Q1017 NOSIG=
201909271730 METAR LRBS 271730Z 08004KT CAVOK 16/12 Q1018 NOSIG=
201909271800 METAR LRBS 271800Z 10004KT CAVOK 15/12 Q1018 NOSIG=
201909271830 METAR LRBS 271830Z 09004KT CAVOK 15/12 Q1018 NOSIG=
201909271900 METAR LRBS 271900Z 09004KT CAVOK 14/12 Q1019 NOSIG=
201909271930 METAR LRBS 271930Z 11003KT CAVOK 14/11 Q1019 NOSIG=
201909272000 METAR LRBS 272000Z 10002KT CAVOK 14/11 Q1019 NOSIG=
201909272030 METAR LRBS 272030Z 08002KT CAVOK 14/11 Q1019 NOSIG=
201909272100 METAR LRBS 272100Z 08002KT 9000 NSC 13/12 Q1019 NOSIG=
201909272130 METAR LRBS 272130Z VRB01KT 8000 NSC 14/12 Q1019 NOSIG=
201909272200 METAR LRBS 272200Z 04001KT 8000 MIFG NSC 14/11 Q1019 NOSIG=
201909272230 METAR LRBS 272230Z 26001KT 9000 NSC 14/12 Q1019 NOSIG=
201909272300 METAR LRBS 272300Z 29001KT CAVOK 14/12 Q1020 NOSIG=
201909272330 METAR LRBS 272330Z VRB01KT CAVOK 14/12 Q1019 NOSIG=
201909280000 METAR LRBS 280000Z 33001KT 8000 NSC 13/12 Q1019 NOSIG=
201909280030 METAR LRBS 280030Z VRB01KT 8000 NSC 13/11 Q1019 NOSIG=
201909280100 METAR LRBS 280100Z 00000KT 8000 MIFG NSC 12/11 Q1019 NOSIG=
201909280130 METAR LRBS 280130Z 05001KT 6000 BCFG NSC 11/11 Q1019 NOSIG=
201909280200 METAR LRBS 280200Z 00000KT 6000 BCFG NSC 11/11 Q1019 NOSIG=
201909280230 METAR LRBS 280230Z VRB01KT 6000 MIFG NSC 11/10 Q1019 NOSIG=
201909280300 METAR LRBS 280300Z 00000KT 5000 MIFG BR NSC 11/11 Q1019 NOSIG=
201909280330 METAR LRBS 280330Z VRB01KT 5000 BCFG BR NSC 11/11 Q1019 NOSIG=
201909280400 METAR LRBS 280400Z VRB01KT 6000 MIFG NSC 11/10 Q1019 NOSIG=
201909280430 METAR LRBS 280430Z 07001KT 8000 NSC 10/09 Q1019 NOSIG=
201909280500 METAR LRBS 280500Z 09001KT 8000 NSC 12/10 Q1019 NOSIG=
201909280530 METAR LRBS 280530Z VRB01KT CAVOK 13/11 Q1020 NOSIG=
201909280600 METAR LRBS 280600Z VRB01KT CAVOK 15/11 Q1020 NOSIG=
201909280630 METAR LRBS 280630Z VRB01KT CAVOK 16/11 Q1020 NOSIG=
201909280700 METAR LRBS 280700Z VRB02KT CAVOK 17/11 Q1020 NOSIG=
201909280730 METAR LRBS 280730Z VRB02KT CAVOK 19/11 Q1020 NOSIG=
201909280800 METAR COR LRBS 280800Z 17003KT 140V210 CAVOK 19/11 Q1020
                        NOSIG=
201909280830 METAR LRBS 280830Z 17004KT 090V220 CAVOK 20/11 Q1020 NOSIG=
201909280900 METAR LRBS 280900Z VRB02KT CAVOK 21/11 Q1019=
201909280930 METAR LRBS 280930Z 18004KT 110V240 CAVOK 22/11 Q1019 NOSIG=
201909281000 METAR LRBS 281000Z 24004KT 190V320 CAVOK 23/11 Q1019 NOSIG=
201909281030 METAR LRBS 281030Z 25005KT 220V290 CAVOK 24/11 Q1019 NOSIG=
201909281100 METAR LRBS 281100Z 23005KT 180V300 CAVOK 24/11 Q1018 NOSIG=
201909281130 METAR LRBS 281130Z 20005KT 110V240 CAVOK 25/10 Q1018=
201909281200 METAR LRBS 281200Z 20005KT 170V250 CAVOK 26/10 Q1018 NOSIG=
201909281230 METAR LRBS 281230Z VRB04KT CAVOK 25/09 Q1018 NOSIG=
201909281300 METAR LRBS 281300Z 24005KT 140V290 CAVOK 26/09 Q1017 NOSIG=
201909281330 METAR LRBS 281330Z 21005KT 150V260 CAVOK 26/09 Q1017 NOSIG=
201909281400 METAR LRBS 281400Z 23004KT 170V260 CAVOK 26/09 Q1017 NOSIG=
201909281430 METAR LRBS 281430Z 23005KT 200V270 CAVOK 26/08 Q1017 NOSIG=
201909281500 METAR LRBS 281500Z 23004KT CAVOK 26/09 Q1017 NOSIG=
201909281530 METAR LRBS 281530Z VRB02KT CAVOK 25/09 Q1017 NOSIG=
201909281600 METAR COR LRBS 281600Z VRB01KT CAVOK 24/09 Q1017 NOSIG=
201909281630 METAR LRBS 281630Z 01001KT CAVOK 22/10 Q1017 NOSIG=
201909281700 METAR LRBS 281700Z 00000KT CAVOK 19/10 Q1017 NOSIG=
201909281730 METAR LRBS 281730Z 00000KT CAVOK 17/11 Q1017 NOSIG=
201909281800 METAR LRBS 281800Z 00000KT CAVOK 18/11 Q1017 NOSIG=
201909281830 METAR LRBS 281830Z 00000KT CAVOK 18/11 Q1017 NOSIG=
201909281900 METAR LRBS 281900Z 36001KT CAVOK 17/11 Q1017 NOSIG=
201909281930 METAR LRBS 281930Z 00000KT CAVOK 16/11 Q1016 NOSIG=
201909282000 METAR LRBS 282000Z 00000KT CAVOK 16/11 Q1016 NOSIG=
201909282030 METAR LRBS 282030Z 36001KT CAVOK 17/12 Q1016 NOSIG=
201909282100 METAR LRBS 282100Z 00000KT CAVOK 16/11 Q1016 NOSIG=
201909282130 METAR LRBS 282130Z 32001KT CAVOK 16/10 Q1016 NOSIG=
201909282200 METAR LRBS 282200Z 00000KT CAVOK 16/10 Q1016 NOSIG=
201909282230 METAR LRBS 282230Z 00000KT CAVOK 15/10 Q1016 NOSIG=
201909282300 METAR LRBS 282300Z 26001KT CAVOK 14/10 Q1016 NOSIG=
201909282330 METAR LRBS 282330Z 29002KT CAVOK 14/10 Q1016 NOSIG=
201909290000 METAR LRBS 290000Z 30003KT 270V330 CAVOK 14/09 Q1016 NOSIG=
201909290030 METAR LRBS 290030Z VRB02KT CAVOK 13/09 Q1015 NOSIG=
201909290100 METAR LRBS 290100Z VRB02KT CAVOK 13/09 Q1015 NOSIG=
201909290130 METAR LRBS 290130Z 26003KT CAVOK 13/10 Q1015 NOSIG=
201909290200 METAR LRBS 290200Z 28003KT CAVOK 13/10 Q1015 NOSIG=
201909290230 METAR LRBS 290230Z VRB01KT CAVOK 12/10 Q1015 NOSIG=
201909290300 METAR LRBS 290300Z 27002KT CAVOK 12/10 Q1015 NOSIG=
201909290330 METAR LRBS 290330Z VRB02KT CAVOK 12/10 Q1015 NOSIG=
201909290400 METAR LRBS 290400Z VRB02KT CAVOK 12/10 Q1015 NOSIG=
201909290430 METAR LRBS 290430Z 28002KT CAVOK 12/10 Q1015 NOSIG=
201909290500 METAR LRBS 290500Z 26004KT CAVOK 13/10 Q1015 NOSIG=
201909290530 METAR LRBS 290530Z 27004KT CAVOK 15/10 Q1015 NOSIG=
201909290600 METAR LRBS 290600Z VRB02KT CAVOK 16/11 Q1015 NOSIG=
201909290630 METAR LRBS 290630Z 35003KT 270V040 CAVOK 17/11 Q1016 NOSIG=
201909290700 METAR LRBS 290700Z VRB02KT CAVOK 19/11 Q1016 NOSIG=
201909290730 METAR LRBS 290730Z 32003KT 260V360 CAVOK 21/11 Q1016 NOSIG=
201909290800 METAR LRBS 290800Z VRB02KT CAVOK 22/11 Q1016 NOSIG=
201909290830 METAR LRBS 290830Z VRB03KT CAVOK 24/11 Q1016 NOSIG=
201909290900 METAR LRBS 290900Z VRB03KT CAVOK 25/11 Q1016 NOSIG=
201909290930 METAR LRBS 290930Z VRB01KT CAVOK 25/11 Q1016 NOSIG=
201909291000 METAR LRBS 291000Z VRB03KT CAVOK 26/11 Q1016 NOSIG=
201909291030 METAR LRBS 291030Z VRB05KT CAVOK 26/11 Q1016 NOSIG=
201909291100 METAR LRBS 291100Z VRB04KT CAVOK 27/10 Q1015 NOSIG=
201909291130 METAR LRBS 291130Z VRB02KT CAVOK 27/10 Q1015 NOSIG=
201909291200 METAR LRBS 291200Z 14004KT 080V200 CAVOK 27/11 Q1014 NOSIG=
201909291230 METAR LRBS 291230Z VRB03KT CAVOK 28/10 Q1014 NOSIG=
201909291300 METAR LRBS 291300Z 21005KT 180V240 CAVOK 28/09 Q1014 NOSIG=
201909291330 METAR LRBS 291330Z VRB02KT CAVOK 28/10 Q1014 NOSIG=
201909291400 METAR LRBS 291400Z 23003KT 180V280 CAVOK 28/09 Q1014 NOSIG=
201909291430 METAR LRBS 291430Z VRB02KT CAVOK 28/09 Q1013 NOSIG=
201909291500 METAR LRBS 291500Z 02003KT 350V050 CAVOK 28/08 Q1013 NOSIG=
201909291530 METAR LRBS 291530Z 09001KT CAVOK 26/10 Q1013 NOSIG=
201909291600 METAR LRBS 291600Z 08002KT CAVOK 24/10 Q1013 NOSIG=
201909291630 METAR LRBS 291630Z 04001KT CAVOK 22/11 Q1013 NOSIG=
201909291700 METAR LRBS 291700Z 06001KT CAVOK 21/12 Q1013 NOSIG=
201909291730 METAR LRBS 291730Z 08002KT CAVOK 19/12 Q1013 NOSIG=
201909291800 METAR LRBS 291800Z VRB02KT CAVOK 21/11 Q1013 NOSIG=
201909291830 METAR LRBS 291830Z 05002KT CAVOK 19/11 Q1013 NOSIG=
201909291900 METAR LRBS 291900Z 04001KT CAVOK 19/11 Q1013 NOSIG=
201909291930 METAR LRBS 291930Z 04001KT CAVOK 19/11 Q1013 NOSIG=
201909292000 METAR LRBS 292000Z 00000KT CAVOK 18/12 Q1013 NOSIG=
201909292030 METAR LRBS 292030Z 30002KT CAVOK 18/11 Q1013 NOSIG=
201909292100 METAR LRBS 292100Z VRB02KT CAVOK 17/11 Q1013 NOSIG=
201909292130 METAR LRBS 292130Z 00000KT CAVOK 16/11 Q1012 NOSIG=
201909292200 METAR LRBS 292200Z 19001KT CAVOK 16/11 Q1012 NOSIG=
201909292230 METAR LRBS 292230Z 29003KT CAVOK 16/12 Q1012 NOSIG=
201909292300 METAR LRBS 292300Z VRB02KT CAVOK 15/11 Q1012 NOSIG=
201909292330 METAR LRBS 292330Z 27002KT CAVOK 15/11 Q1012 NOSIG=
201909300000 METAR LRBS 300000Z 28002KT CAVOK 15/10 Q1012 NOSIG=
201909300030 METAR LRBS 300030Z 25002KT CAVOK 14/10 Q1011 NOSIG=
201909300100 METAR LRBS 300100Z 27002KT CAVOK 14/10 Q1011 NOSIG=
201909300130 METAR LRBS 300130Z 28001KT CAVOK 13/10 Q1011 NOSIG=
201909300200 METAR LRBS 300200Z 24002KT CAVOK 13/11 Q1011 NOSIG=
201909300230 METAR LRBS 300230Z 25002KT CAVOK 13/10 Q1011 NOSIG=
201909300300 METAR LRBS 300300Z 29003KT CAVOK 12/10 Q1011 NOSIG=
201909300330 METAR LRBS 300330Z 26002KT CAVOK 12/10 Q1011 NOSIG=
201909300400 METAR LRBS 300400Z 26002KT CAVOK 12/10 Q1011 NOSIG=
201909300430 METAR LRBS 300430Z 23003KT 9000 NSC 12/10 Q1011 NOSIG=
201909300500 METAR LRBS 300500Z 00000KT 9000 NSC 13/10 Q1011 NOSIG=
201909300530 METAR LRBS 300530Z 24003KT CAVOK 15/11 Q1011 NOSIG=
201909300600 METAR LRBS 300600Z 26003KT CAVOK 16/11 Q1011 NOSIG=
201909300630 METAR LRBS 300630Z 26004KT CAVOK 18/11 Q1011 NOSIG=
201909300700 METAR LRBS 300700Z 26005KT 220V280 CAVOK 20/11 Q1011 NOSIG=
201909300730 METAR LRBS 300730Z 26006KT CAVOK 21/12 Q1011 NOSIG=
201909300800 METAR LRBS 300800Z 25006KT CAVOK 23/12 Q1011 NOSIG=
201909300830 METAR LRBS 300830Z 25007KT 230V330 CAVOK 24/12 Q1010 NOSIG=
201909300900 METAR LRBS 300900Z 25007KT 220V280 CAVOK 25/12 Q1010 NOSIG=
201909300930 METAR LRBS 300930Z 25008KT 220V290 CAVOK 26/11 Q1010 NOSIG=
201909301000 METAR LRBS 301000Z 26009KT 230V310 CAVOK 28/10 Q1010 NOSIG=
201909301030 METAR LRBS 301030Z 28009KT 260V340 CAVOK 28/10 Q1009 NOSIG=
201909301100 METAR LRBS 301100Z 25012KT CAVOK 28/11 Q1009 NOSIG=
201909301130 METAR LRBS 301130Z 25011KT CAVOK 29/11 Q1008 NOSIG=
201909301200 METAR LRBS 301200Z 28009KT 240V340 CAVOK 29/12 Q1008 NOSIG=
201909301230 METAR LRBS 301230Z 27010KT 240V310 CAVOK 29/12 Q1008 NOSIG=
201909301300 METAR LRBS 301300Z 26013KT 230V300 CAVOK 29/11 Q1008 NOSIG=
201909301330 METAR LRBS 301330Z 26013KT CAVOK 29/11 Q1007 NOSIG=
201909301400 METAR LRBS 301400Z 26012KT CAVOK 29/10 Q1007 NOSIG=
201909301430 METAR LRBS 301430Z 27011KT CAVOK 28/11 Q1007 NOSIG=
201909301500 METAR LRBS 301500Z 27010KT CAVOK 28/11 Q1007 NOSIG=
201909301530 METAR LRBS 301530Z 27008KT CAVOK 27/11 Q1007 NOSIG=
201909301600 METAR LRBS 301600Z 27006KT 240V300 CAVOK 26/11 Q1007 NOSIG=
201909301630 METAR LRBS 301630Z 27006KT CAVOK 25/11 Q1007 NOSIG=
201909301700 METAR LRBS 301700Z 27006KT CAVOK 24/11 Q1007 NOSIG=
201909301730 METAR LRBS 301730Z 27006KT CAVOK 24/11 Q1007 NOSIG=
201909301800 METAR LRBS 301800Z 27006KT CAVOK 23/11 Q1008 NOSIG=
201909301830 METAR LRBS 301830Z 28004KT CAVOK 22/10 Q1008 NOSIG=
201909301900 METAR LRBS 301900Z 29005KT 260V320 CAVOK 22/10 Q1008 NOSIG=
201909301930 METAR LRBS 301930Z 29004KT 270V330 CAVOK 22/10 Q1008 NOSIG=
201909302000 METAR LRBS 302000Z 28004KT CAVOK 21/10 Q1008 NOSIG=
201909302030 METAR LRBS 302030Z 29004KT CAVOK 20/10 Q1008 NOSIG=
201909302100 METAR LRBS 302100Z 28003KT 260V320 CAVOK 20/10 Q1009 NOSIG=
201909302130 METAR LRBS 302130Z 28003KT CAVOK 19/10 Q1009 NOSIG=
201909302200 METAR LRBS 302200Z 28004KT CAVOK 19/10 Q1009 NOSIG=
201909302230 METAR LRBS 302230Z 27003KT CAVOK 18/10 Q1009 NOSIG=
201909302300 METAR LRBS 302300Z 29003KT 260V330 CAVOK 18/10 Q1009 NOSIG=
201909302330 METAR LRBS 302330Z 27004KT CAVOK 17/10 Q1010 NOSIG=