201910010500 TAF LRBS 010500Z 0106/0206 VRB04KT CAVOK=
201910011100 TAF LRBS 011100Z 0112/0212 VRB04KT CAVOK=
201910011700 TAF LRBS 011700Z 0118/0218 VRB04KT CAVOK=
201910012300 TAF LRBS 012300Z 0200/0224 VRB04KT CAVOK
                      TEMPO 0217/0222 15010KT=
201910020500 TAF LRBS 020500Z 0206/0306 VRB04KT CAVOK=
201910021100 TAF LRBS 021100Z 0212/0312 VRB04KT CAVOK=
201910021700 TAF LRBS 021700Z 0218/0318 VRB04KT CAVOK
                      TEMPO 0220/0224 17010KT
                      BECMG 0314/0316 27016KT
                      TEMPO 0316/0318 FEW050CB=
201910022300 TAF LRBS 022300Z 0300/0324 VRB04KT CAVOK
                      BECMG 0314/0316 27015KT
                      TEMPO 0316/0322 VRB16G26KT -TSRA SCT050CB
                       BECMG 0322/0324 5000 -SHRA SCT015 SCT035CB=
201910030500 TAF LRBS 030500Z 0306/0406 VRB04KT CAVOK
                      BECMG 0314/0316 28015KT
                      TEMPO 0316/0322 28020G30KT 5000 TSRA SCT040CB
                       BECMG 0323/0401 VRB04KT 5000 RA BKN015 OVC035
                       TEMPO 0401/0404 3000 SHRA BKN010 BKN025CB
                       OVC030
                      BECMG 0404/0406 07014KT=
201910031100 TAF LRBS 031100Z 0312/0412 VRB04KT CAVOK
                      BECMG 0314/0316 28015KT
                      TEMPO 0316/0322 28020G30KT 5000 TSRA SCT040CB
                       BECMG 0323/0401 VRB04KT 5000 RA BKN015 OVC035
                       TEMPO 0401/0404 3000 SHRA BKN010 BKN025CB
                       OVC030
                      BECMG 0404/0406 07014KT=
201910031700 TAF LRBS 031700Z 0318/0418 29010KT 9999 BKN040
                      TEMPO 0318/0324 5000 RA SHRA BKN010 SCT035CB
                       BKN040
                      BECMG 0400/0402 08012KT 5000 RA BR BKN015
                       OVC035
                      TEMPO 0402/0406 3000 RA SHRA BKN010 SCT030CB
                       OVC035
                      TEMPO 0413/0418 3000 RA SHRA BKN010 SCT030CB
                       OVC035=
201910032300 TAF LRBS 032300Z 0400/0424 08010KT 7000 -RA BKN015 BKN040
                      TEMPO 0400/0406 3000 RA SHRA BKN010 SCT030CB
                       OVC035
                      BECMG 0412/0414 5000 -RA BR
                      TEMPO 0414/0420 3000 RA BKN010 OVC035
                      BECMG 0421/0423 9999 NSW BKN040=
201910040500 TAF LRBS 040500Z 0406/0506 10012KT 5000 -RA BR BKN005 OVC025
                      BECMG 0407/0409 7000 NSW SCT015 BKN035
                      BECMG 0412/0414 5000 -RA BR BKN015 BKN035
                       TEMPO 0414/0420 3000 RA BKN010 BKN035
                      BECMG 0421/0423 7000 NSW BKN040
                      TEMPO 0500/0506 3000 BR BKN010 BKN030=
201910041100 TAF LRBS 041100Z 0412/0512 07010KT 9999 BKN010 OVC025
                      TEMPO 0412/0418 3000 SHRA BKN005 OVC025
                      BECMG 0418/0420 VRB04KT 5000 BR BKN015 BKN040
                       TEMPO 0500/0506 3000 BR OVC010
                      BECMG 0506/0508 9999 NSW BKN040=
201910041700 TAF LRBS 041700Z 0418/0518 07008KT 9999 BKN010 OVC025
                      TEMPO 0418/0422 5000 RA BR BKN005 OVC020
                       BECMG 0422/0424 3000 BR OVC005
                      TEMPO 0500/0504 1500 BR OVC002
                      BECMG 0504/0506 9999 BKN025=
201910042300 TAF LRBS 042300Z 0500/0524 07008KT 5000 BR BKN010 OVC025
                      BECMG 0500/0502 3000 BR OVC005
                      TEMPO 0502/0504 1500 BR OVC002
                      BECMG 0504/0506 9999 BKN025
                      BECMG 0519/0521 5000 -RA BKN015 OVC030
                      TEMPO 0521/0524 3000 RA BKN010 OVC025=
201910050500 TAF LRBS 050500Z 0506/0606 25006KT 9999 BKN030
                      PROB30 TEMPO 0506/0509 BKN010 BKN025
                      TEMPO 0600/0606 5000 -RA BKN010 OVC025=
201910051100 TAF LRBS 051100Z 0512/0612 25006KT 9999 SCT015 BKN030
                      TEMPO 0600/0606 5000 -RA BR BKN010 OVC025
                       TEMPO 0609/0612 5000 -SHRA SCT015 SCT030CB
                       BKN040=
201910051700 TAF LRBS 051700Z 0518/0618 24006KT CAVOK
                      PROB40 TEMPO 0600/0606 3000 BR BKN010
                      TEMPO 0611/0618 5000 -SHRA SCT015 SCT030CB
                       BKN040=
201910052300 TAF LRBS 052300Z 0600/0624 26006KT 5000 BR SCT045
                      PROB40 TEMPO 0600/0606 3000 BR BKN010
                      BECMG 0606/0608 9999 NSW
                      TEMPO 0611/0618 5000 -SHRA SCT015 SCT030CB
                       BKN040
                      BECMG 0618/0620 09010KT 5000 BR BKN010 BKN030=
201910060500 TAF LRBS 060500Z 0606/0706 VRB04KT 5000 BR SCT045
                      TEMPO 0606/0608 3000 -RA BR
                      BECMG 0608/0609 25010KT 9999 NSW
                      TEMPO 0612/0617 5000 -SHRA SCT015 SCT030CB
                       BKN040
                      BECMG 0618/0620 VRB04KT 5000 BR
                      BECMG 0621/0623 09010KT BKN005 BKN025
                      TEMPO 0623/0703 1500 BR=
201910061100 TAF LRBS 061100Z 0612/0712 26010KT 9999 SCT045
                      TEMPO 0614/0617 5000 -SHRA SCT015 SCT030CB
                       BKN040
                      BECMG 0617/0619 VRB04KT 5000 BR
                      BECMG 0621/0623 09010KT BKN005 BKN025
                      PROB40 TEMPO 0623/0703 1500 BR
                      BECMG 0705/0706 9999 NSW SCT025=
201910061700 TAF LRBS 061700Z 0618/0718 VRB04KT 9999 BKN045
                      TEMPO 0618/0621 5000 BR
                      BECMG 0621/0623 07012KT
                      PROB40 TEMPO 0700/0706 BKN010 BKN040=
201910062300 TAF LRBS 062300Z 0700/0724 08012KT 9999 SCT015 BKN030
                      TEMPO 0700/0706 BKN010 BKN025=
201910070500 TAF LRBS 070500Z 0706/0806 08012KT 9999 SCT015 BKN030
                      TEMPO 0706/0709 5000 RA BKN010 OVC025
                      BECMG 0718/0720 VRB04KT=
201910071100 TAF LRBS 071100Z 0712/0812 08010KT 9999 BKN030
                      BECMG 0716/0718 VRB04KT
                      TEMPO 0800/0805 3000 BR BKN010=
201910071700 TAF LRBS 071700Z 0718/0818 05008KT 9999 SCT040
                      TEMPO 0802/0805 5000 BR=
201910072300 TAF LRBS 072300Z 0800/0824 06007KT 9999 SCT045=
201910080500 TAF LRBS 080500Z 0806/0906 05007KT 9999 SCT045
                      TEMPO 0823/0905 3000 BR=
201910081100 TAF LRBS 081100Z 0812/0912 VRB04KT 9999 SCT040
                      TEMPO 0823/0905 3000 BR
                      BECMG 0908/0910 25010KT=
201910081700 TAF LRBS 081700Z 0818/0918 VRB04KT CAVOK
                      TEMPO 0900/0904 3000 BR
                      BECMG 0907/0909 25010KT=
201910082300 TAF LRBS 082300Z 0900/0924 VRB04KT CAVOK
                      TEMPO 0900/0904 3000 BR
                      BECMG 0907/0909 25010KT=
201910090500 TAF LRBS 090500Z 0906/1006 VRB04KT CAVOK
                      TEMPO 1000/1005 3000 BR=
201910091100 TAF LRBS 091100Z 0912/1012 26008KT CAVOK
                      TEMPO 1000/1005 3000 BR=
201910091700 TAF LRBS 091700Z 0918/1018 VRB03KT CAVOK
                      TEMPO 1000/1005 3000 BR
                      BECMG 1005/1007 25010KT=
201910092300 TAF LRBS 092300Z 1000/1024 VRB03KT 5000 BR NSC
                      TEMPO 1000/1005 3000 BR
                      BECMG 1005/1007 25010KT 9999 NSW
                      TEMPO 1021/1024 5000 -RA -SHRA SCT010 SCT035CB
                       BKN040=
201910100500 TAF LRBS 100500Z 1006/1106 26008KT CAVOK
                      TEMPO 1022/1102 5000 -RA -SHRA BKN015 SCT035CB
                       OVC040=
201910101100 TAF LRBS 101100Z 1012/1112 26008KT CAVOK
                      TEMPO 1022/1102 5000 -RA -SHRA BKN015 SCT035CB
                       OVC040
                      PROB30 TEMPO 1102/1105 3000 BR BKN010 OVC030=
201910101700 TAF LRBS 101700Z 1018/1118 VRB04KT CAVOK
                      BECMG 1019/1021 5000 -RA BKN015 OVC040
                      TEMPO 1023/1101 3000 -SHRA BKN010 SCT035CB
                       OVC040
                      BECMG 1101/1103 1500 BR BKN005 OVC020
                      PROB30 TEMPO 1103/1105 0600 FG VV002
                      BECMG 1105/1107 5000 BKN015
                      BECMG 1107/1109 9999 NSW SCT020=
201910102300 TAF COR LRBS 110011Z 1100/1124 VRB04KT 5000 -RA BR SCT010 BKN040
                       BECMG 1100/1102 3000 BR BKN010
                      TEMPO 1102/1105 1500 BR BKN003
                      BECMG 1106/1108 CAVOK=
201910110011 TAF COR LRBS 110011Z 1100/1124 VRB04KT 5000 -RA BR SCT010 BKN040
                       BECMG 1100/1102 3000 BR BKN010
                      TEMPO 1102/1105 1500 BR BKN003
                      BECMG 1106/1108 CAVOK=
201910110500 TAF LRBS 110500Z 1106/1206 VRB04KT CAVOK
                      BECMG 1120/1122 3000 BR
                      BECMG 1123/1201 1500 BR BKN005
                      PROB40 TEMPO 1201/1205 0600 FG BKN002=
201910111100 TAF LRBS 111100Z 1112/1212 VRB04KT CAVOK
                      BECMG 1120/1122 3000 BR
                      BECMG 1123/1201 1500 BR BKN005
                      TEMPO 1201/1205 0600 FG BKN002
                      BECMG 1205/1207 CAVOK=
201910111700 TAF LRBS 111700Z 1118/1218 VRB04KT CAVOK
                      BECMG 1121/1123 5000 BR
                      TEMPO 1200/1205 1500 BR
                      BECMG 1205/1207 CAVOK=
201910112300 TAF LRBS 112300Z 1200/1224 VRB04KT CAVOK
                      TEMPO 1201/1205 3000 BR=
201910120500 TAF LRBS 120500Z 1206/1306 VRB04KT CAVOK
                      TEMPO 1211/1214 25010KT=
201910121100 TAF LRBS 121100Z 1212/1312 25006KT CAVOK=
201910121700 TAF LRBS 121700Z 1218/1318 VRB04KT CAVOK=
201910122300 TAF LRBS 122300Z 1300/1324 VRB04KT CAVOK=
201910130500 TAF LRBS 130500Z 1306/1406 VRB04KT CAVOK
                      TEMPO 1400/1405 3000 BR=
201910131100 TAF LRBS 131100Z 1312/1412 VRB04KT CAVOK
                      TEMPO 1400/1405 3000 BR=
201910131700 TAF LRBS 131700Z 1318/1418 VRB03KT CAVOK
                      TEMPO 1401/1405 3000 BR=
201910132300 TAF LRBS 132300Z 1400/1424 VRB03KT CAVOK
                      TEMPO 1401/1405 3000 BR=
201910140500 TAF LRBS 140500Z 1406/1506 VRB04KT CAVOK
                      BECMG 1422/1424 5000 BR
                      TEMPO 1501/1505 1500 BR BKN005
                      PROB30 TEMPO 1502/1505 0600 FG OVC002=
201910141100 TAF LRBS 141100Z 1412/1512 VRB04KT CAVOK
                      BECMG 1422/1424 5000 BR
                      TEMPO 1501/1506 1500 BR BKN005
                      PROB30 TEMPO 1502/1505 0600 FG OVC002
                      BECMG 1506/1508 9999 NSW=
201910141700 TAF LRBS 141700Z 1418/1518 VRB04KT CAVOK
                      BECMG 1421/1423 3000 BR
                      BECMG 1500/1502 0600 FG BKN002
                      TEMPO 1502/1505 0300 FG VV001
                      BECMG 1505/1507 1500 BR SCT005
                      BECMG 1507/1509 CAVOK=
201910142300 TAF AMD LRBS 150347Z 1503/1524 VRB04KT 0600 FG BKN002
                      TEMPO 1504/1506 0300 FG VV001
                      BECMG 1506/1507 3000 BR SCT005
                      BECMG 1507/1508 CAVOK
                      BECMG 1520/1522 3000 BR=
201910150347 TAF AMD LRBS 150347Z 1503/1524 VRB04KT 0600 FG BKN002
                      TEMPO 1504/1506 0300 FG VV001
                      BECMG 1506/1507 3000 BR SCT005
                      BECMG 1507/1508 CAVOK
                      BECMG 1520/1522 3000 BR=
201910150500 TAF LRBS 150500Z 1506/1606 VRB04KT 0600 FG BKN002
                      TEMPO 1506/1507 0150 FG VV001
                      BECMG 1507/1508 3000 BR SCT005
                      BECMG 1508/1509 CAVOK
                      BECMG 1520/1522 3000 BR
                      BECMG 1522/1524 1500 BR BKN005
                      TEMPO 1600/1605 0350 FG VV001=
201910150802 TAF AMD LRBS 150802Z 1508/1606 VRB04KT 0800 FG BKN002
                      BECMG 1508/1509 3000 BR SCT005
                      BECMG 1509/1511 CAVOK
                      BECMG 1520/1522 3000 BR
                      BECMG 1522/1524 1500 BR BKN005
                      TEMPO 1600/1605 0350 FG VV001=
201910151100 TAF LRBS 151100Z 1512/1612 08006KT CAVOK
                      BECMG 1519/1521 3000 BR SCT010
                      BECMG 1522/1524 0800 FG BKN005
                      TEMPO 1601/1605 0350 FG VV001
                      BECMG 1606/1608 3000 BR BKN005
                      BECMG 1608/1610 CAVOK=
201910151700 TAF LRBS 151700Z 1518/1618 05006KT CAVOK
                      BECMG 1519/1521 3000 BR
                      BECMG 1521/1523 0600 FG OVC002
                      TEMPO 1523/1607 0150 FG VV001
                      BECMG 1608/1609 3000 BR BKN005
                      BECMG 1609/1610 9999 NSW=
201910152300 TAF LRBS 152300Z 1600/1624 05006KT 5000 BR NSC
                      BECMG 1600/1601 3000 BR
                      BECMG 1601/1603 0600 FG OVC002
                      TEMPO 1603/1607 0150 FG VV001
                      BECMG 1608/1609 3000 BR BKN005
                      BECMG 1609/1610 9999 NSW
                      BECMG 1620/1622 3000 BR=
201910160500 TAF LRBS 160500Z 1606/1706 05006KT 0350 FG VV001
                      BECMG 1606/1608 0800 FG BKN002
                      BECMG 1608/1610 3000 BR BKN005
                      BECMG 1609/1611 CAVOK
                      BECMG 1620/1622 3000 BR
                      BECMG 1622/1624 0600 FG BKN002
                      TEMPO 1702/1706 0150 FG VV001=
201910160930 TAF COR LRBS 160930Z 1606/1706 05006KT 0350 FG VV001
                      BECMG 1606/1608 0800 FG BKN002
                      BECMG 1608/1609 3000 BR BKN005
                      BECMG 1609/1611 CAVOK
                      BECMG 1620/1622 3000 BR
                      BECMG 1622/1624 0600 FG BKN002
                      TEMPO 1702/1706 0150 FG VV001=
201910161100 TAF LRBS 161100Z 1612/1712 05006KT CAVOK
                      BECMG 1620/1622 3000 BR
                      BECMG 1622/1624 0600 FG BKN002
                      TEMPO 1702/1705 0150 FG VV001
                      BECMG 1705/1707 1500 BR BKN005
                      BECMG 1707/1709 5000 BKN010
                      BECMG 1709/1711 CAVOK=
201910161700 TAF LRBS 161700Z 1618/1718 05006KT CAVOK
                      BECMG 1620/1622 3000 BR
                      BECMG 1622/1624 0600 FG BKN002
                      TEMPO 1702/1705 0150 FG VV001
                      BECMG 1705/1707 1500 BR BKN005
                      BECMG 1707/1709 5000 BKN010
                      BECMG 1709/1711 CAVOK=
201910162300 TAF LRBS 162300Z 1700/1724 05006KT 3000 BR NSC
                      BECMG 1700/1702 0600 FG BKN002
                      TEMPO 1702/1706 0150 FG VV001
                      BECMG 1706/1708 1500 BR BKN005
                      BECMG 1707/1709 5000 BKN010
                      BECMG 1709/1711 CAVOK
                      BECMG 1722/1724 3000 BR=
201910170500 TAF LRBS 170500Z 1706/1806 VRB04KT 0350 FG OVC001
                      BECMG 1706/1707 1500 BR BKN002 OVC005
                      BECMG 1707/1709 9999 NSW BKN005
                      BECMG 1709/1710 NSC
                      BECMG 1720/1722 5000 BR
                      TEMPO 1722/1724 3000 BR=
201910170813 TAF AMD LRBS 170813Z 1708/1806 VRB04KT 0300 FG OVC002
                      BECMG 1708/1710 1500 BR BKN005
                      BECMG 1710/1712 CAVOK
                      BECMG 1720/1722 5000 BR
                      BECMG 1723/1801 3000 BR
                      BECMG 1802/1804 0800 FG BKN002
                      TEMPO 1804/1806 0350 FG OVC001=
201910171100 TAF LRBS 171100Z 1712/1812 VRB04KT CAVOK
                      BECMG 1720/1722 5000 BR
                      BECMG 1723/1801 1500 BR
                      BECMG 1801/1803 0600 FG BKN002
                      TEMPO 1804/1807 0350 FG OVC001
                      BECMG 1807/1809 3000 BR SCT002 BKN005
                      BECMG 1809/1810 9999 NSW=
201910171700 TAF LRBS 171700Z 1718/1818 VRB04KT CAVOK
                      BECMG 1718/1720 5000 BR
                      BECMG 1723/1801 1500 BR BKN005
                      TEMPO 1803/1807 0350 FG VV001
                      BECMG 1807/1809 3000 BR SCT002 BKN005
                      BECMG 1809/1810 9999 NSW=
201910172300 TAF LRBS 172300Z 1800/1824 VRB04KT 3000 BR BKN010
                      BECMG 1800/1802 0800 FG BKN002
                      TEMPO 1802/1807 0350 FG VV001
                      BECMG 1807/1809 5000 BR SCT002 BKN005
                      BECMG 1809/1810 9999 NSW=
201910180500 TAF LRBS 180500Z 1806/1906 VRB04KT 0200 FG OVC001
                      BECMG 1806/1808 0800 FG BKN002
                      BECMG 1808/1809 5000 BR SCT004
                      BECMG 1809/1810 CAVOK
                      BECMG 1817/1819 5000 BR
                      BECMG 1820/1822 1500 BR
                      BECMG 1822/1824 0800 FG BKN002
                      TEMPO 1901/1906 0300 FG OVC001=
201910181100 TAF LRBS 181100Z 1812/1912 VRB04KT CAVOK
                      BECMG 1817/1819 5000 BR
                      BECMG 1820/1822 1500 BR
                      BECMG 1822/1824 0800 FG BKN002
                      TEMPO 1901/1906 0300 FG OVC001
                      BECMG 1906/1908 5000 BR SCT005
                      BECMG 1908/1909 CAVOK=
201910181700 TAF LRBS 181700Z 1818/1918 VRB04KT CAVOK
                      BECMG 1818/1820 5000 BR
                      BECMG 1821/1823 3000 BR
                      BECMG 1823/1901 0800 FG BKN002
                      TEMPO 1901/1906 0300 FG OVC001
                      BECMG 1906/1908 5000 BR SCT005
                      BECMG 1908/1909 CAVOK=
201910182300 TAF AMD LRBS 190332Z 1903/1924 VRB04KT 3000 BR NSC
                      TEMPO 1904/1907 0300 BCFG BKN001
                      BECMG 1907/1909 9999 NSW
                      BECMG 1919/1921 5000 BR
                      BECMG 1922/1924 3000 BR=
201910190332 TAF AMD LRBS 190332Z 1903/1924 VRB04KT 3000 BR NSC
                      TEMPO 1904/1907 0300 BCFG BKN001
                      BECMG 1907/1909 9999 NSW
                      BECMG 1919/1921 5000 BR
                      BECMG 1922/1924 3000 BR=
201910190500 TAF LRBS 190500Z 1906/2006 VRB04KT 3000 BR NSC
                      TEMPO 1906/1908 0800 FG BKN002
                      BECMG 1908/1910 CAVOK
                      BECMG 1919/1921 3000 BR BKN010
                      BECMG 1923/2001 1500 BR BKN005
                      PROB30 TEMPO 2001/2006 0600 FG OVC002=
201910191100 TAF LRBS 191100Z 1912/2012 VRB04KT CAVOK
                      BECMG 1919/1921 3000 BR BKN010
                      BECMG 1923/2001 1500 BR BKN005
                      PROB30 TEMPO 2001/2006 0600 FG OVC002
                      BECMG 2008/2010 CAVOK=
201910191700 TAF LRBS 191700Z 1918/2018 07005KT CAVOK
                      BECMG 1919/1921 3000 BR
                      BECMG 1921/1923 1500 BR
                      BECMG 1923/2001 0600 FG BKN002
                      TEMPO 2001/2005 0150 FG OVC001
                      BECMG 2006/2008 5000 BR BKN005
                      BECMG 2008/2010 CAVOK=
201910192300 TAF AMD LRBS 200224Z 2002/2024 04005KT 0350 FG VV001
                      BECMG 2005/2007 0800 VV002
                      BECMG 2007/2009 3000 BR BKN010
                      BECMG 2009/2010 CAVOK
                      BECMG 2021/2023 3000 BR=
201910200224 TAF AMD LRBS 200224Z 2002/2024 04005KT 0350 FG VV001
                      BECMG 2005/2007 0800 VV002
                      BECMG 2007/2009 3000 BR BKN010
                      BECMG 2009/2010 CAVOK
                      BECMG 2021/2023 3000 BR=
201910200500 TAF LRBS 200500Z 2006/2106 VRB04KT 0250 FG VV001
                      BECMG 2006/2008 0800 VV002
                      BECMG 2008/2010 3000 BR BKN005
                      BECMG 2010/2011 CAVOK
                      BECMG 2021/2023 3000 BR
                      BECMG 2100/2102 0800 FG BKN002
                      TEMPO 2102/2106 0350 FG VV001=
201910201100 TAF LRBS 201100Z 2012/2112 VRB04KT CAVOK
                      BECMG 2021/2023 3000 BR
                      BECMG 2100/2102 0800 FG BKN002
                      TEMPO 2102/2107 0150 FG VV001
                      BECMG 2107/2109 3000 BR SCT005
                      BECMG 2109/2111 CAVOK=
201910201700 TAF LRBS 201700Z 2018/2118 VRB04KT 5000 BR SCT015
                      BECMG 2020/2022 1500 BR BKN005
                      BECMG 2022/2024 0600 FG BKN002
                      TEMPO 2101/2107 0150 FG VV001
                      BECMG 2107/2109 3000 BR SCT005
                      BECMG 2109/2111 CAVOK=
201910202300 TAF LRBS 202300Z 2100/2124 VRB04KT 3000 BR NSC
                      BECMG 2100/2102 0800 FG BKN002
                      TEMPO 2102/2107 0150 FG VV001
                      BECMG 2107/2109 3000 BR SCT010
                      BECMG 2109/2111 CAVOK
                      BECMG 2118/2120 5000 BR BKN015
                      BECMG 2122/2124 1500 BR BKN005=
201910210500 TAF LRBS 210500Z 2106/2206 VRB04KT 0600 FG BKN002
                      TEMPO 2106/2107 0150 FG VV001
                      BECMG 2107/2109 1500 BR SCT005
                      BECMG 2109/2111 9999 NSW
                      BECMG 2119/2121 5000 BR BKN015
                      BECMG 2202/2204 1500 BR BKN005
                      PROB40 TEMPO 2204/2206 0150 FG VV001=
201910211100 TAF LRBS 211100Z 2112/2212 VRB04KT CAVOK
                      BECMG 2120/2122 5000 BR BKN015
                      BECMG 2202/2204 1500 BR BKN005
                      TEMPO 2204/2206 0150 FG VV001
                      BECMG 2206/2208 3000 SCT010
                      BECMG 2208/2210 CAVOK=
201910211700 TAF LRBS 211700Z 2118/2218 VRB04KT CAVOK
                      BECMG 2121/2123 5000 BR
                      BECMG 2123/2201 1500 BR BKN005
                      BECMG 2201/2203 0600 FG BKN002
                      TEMPO 2203/2207 0150 FG VV001
                      BECMG 2207/2209 1500 BR BKN005
                      BECMG 2209/2210 CAVOK=
201910212300 TAF LRBS 212300Z 2200/2224 VRB04KT 1500 BR NSC
                      BECMG 2200/2202 0600 FG BKN002
                      TEMPO 2202/2207 0150 FG VV001
                      BECMG 2207/2209 3000 BR BKN005
                      BECMG 2209/2210 CAVOK
                      BECMG 2221/2223 5000 BR=
201910220500 TAF LRBS 220500Z 2206/2306 VRB04KT 0300 FG VV001
                      BECMG 2206/2208 0800 VV002
                      BECMG 2208/2209 3000 BR NSC
                      BECMG 2209/2210 CAVOK
                      BECMG 2221/2223 5000 BR
                      BECMG 2223/2301 1500 BR BKN005
                      TEMPO 2302/2306 0600 FG VV002=
201910220804 TAF AMD LRBS 220804Z 2208/2306 VRB04KT 0300 FG VV001
                      BECMG 2208/2209 0800 VV002
                      BECMG 2209/2210 3000 BR NSC
                      BECMG 2210/2211 CAVOK
                      BECMG 2221/2223 5000 BR
                      BECMG 2223/2301 1500 BR BKN005
                      TEMPO 2302/2306 0600 FG VV002=
201910221030 TAF AMD LRBS 221030Z 2210/2306 VRB04KT 5000 BR OVC003
                      BECMG 2210/2212 CAVOK
                      BECMG 2221/2223 5000 BR
                      BECMG 2223/2301 1500 BR BKN005
                      TEMPO 2302/2306 0600 FG VV002=
201910221100 TAF LRBS 221100Z 2212/2312 VRB04KT 9999 BKN010
                      BECMG 2212/2213 CAVOK
                      BECMG 2220/2222 5000 BR
                      BECMG 2222/2224 1500 BR BKN005
                      BECMG 2300/2302 0600 FG VV002
                      TEMPO 2302/2306 0300 FG VV001
                      BECMG 2306/2308 1500 BR BKN005
                      BECMG 2308/2310 5000 SCT015
                      BECMG 2310/2312 CAVOK=
201910221700 TAF LRBS 221700Z 2218/2318 VRB04KT 5000 BR NSC
                      BECMG 2222/2224 1500 BR
                      BECMG 2300/2302 0600 FG BKN002
                      TEMPO 2302/2306 0150 FG VV001
                      BECMG 2306/2308 1500 BR BKN005
                      BECMG 2308/2310 5000 SCT015
                      BECMG 2310/2312 CAVOK=
201910222300 TAF LRBS 222300Z 2300/2324 VRB04KT 0600 FG BKN002
                      TEMPO 2300/2306 0150 FG VV001
                      BECMG 2306/2308 1500 BR BKN005
                      BECMG 2308/2310 5000 SCT015
                      BECMG 2310/2312 CAVOK
                      BECMG 2318/2320 5000 BR
                      BECMG 2322/2324 1500 BR=
201910230500 TAF LRBS 230500Z 2306/2406 VRB04KT 0600 FG BKN002
                      TEMPO 2306/2308 0150 FG VV001
                      BECMG 2308/2310 3000 BR SCT010
                      BECMG 2310/2311 CAVOK
                      BECMG 2317/2319 5000 BR
                      BECMG 2321/2323 1500 BR
                      BECMG 2323/2401 0600 FG BKN002
                      TEMPO 2401/2406 0150 FG VV001=
201910231100 TAF LRBS 231100Z 2312/2412 VRB04KT CAVOK
                      BECMG 2317/2319 5000 BR
                      BECMG 2321/2323 1500 BR
                      BECMG 2323/2401 0600 FG BKN002
                      TEMPO 2401/2406 0150 FG VV001
                      BECMG 2407/2409 3000 BR BKN005
                      BECMG 2409/2411 CAVOK=
201910231700 TAF LRBS 231700Z 2318/2418 VRB04KT CAVOK
                      BECMG 2318/2320 5000 BR
                      BECMG 2321/2323 1500 BR BKN005
                      BECMG 2323/2401 0600 FG BKN002
                      TEMPO 2401/2406 0150 FG VV001
                      BECMG 2407/2409 3000 BR BKN005
                      BECMG 2409/2411 CAVOK=
201910232031 TAF AMD LRBS 232031Z 2320/2418 06006KT 0600 FG BKN001
                      TEMPO 2321/2406 0150 FG VV001
                      BECMG 2406/2408 1500 BR BKN005
                      BECMG 2408/2410 5000 NSC
                      BECMG 2410/2411 CAVOK=
201910232300 TAF LRBS 232300Z 2400/2424 04005KT 0600 FG OVC002
                      TEMPO 2400/2406 0150 FG VV001
                      BECMG 2406/2408 0800 BKN002
                      BECMG 2408/2410 3000 BR BKN010
                      BECMG 2410/2411 CAVOK
                      BECMG 2418/2420 5000 BR
                      BECMG 2421/2423 1500 BR BKN005=
201910240500 TAF LRBS 240500Z 2406/2506 06006KT 0350 FG BKN001
                      BECMG 2406/2408 0800 BKN002
                      BECMG 2408/2410 3000 BR BKN010
                      BECMG 2410/2411 CAVOK
                      BECMG 2418/2420 5000 BR
                      BECMG 2421/2423 1500 BR BKN005
                      TEMPO 2501/2505 0600 FG VV002=
201910241100 TAF LRBS 241100Z 2412/2512 06006KT CAVOK
                      BECMG 2418/2420 5000 BR
                      BECMG 2421/2423 1500 BR BKN005
                      TEMPO 2501/2505 0600 FG VV002
                      BECMG 2505/2507 5000 BR BKN010
                      BECMG 2507/2509 CAVOK=
201910241700 TAF LRBS 241700Z 2418/2518 05006KT 5000 BR NSC
                      BECMG 2418/2420 1500 BR BKN005
                      BECMG 2422/2424 0600 FG BKN002
                      TEMPO 2500/2506 0150 FG VV001
                      BECMG 2506/2508 1500 BR BKN005
                      BECMG 2508/2510 5000 BKN015
                      BECMG 2510/2511 CAVOK=
201910241924 TAF AMD LRBS 241924Z 2419/2518 VRB04KT 0150 FG VV001
                      PROB30 TEMPO 2419/2424 0600 OVC002
                      BECMG 2506/2508 0800 BKN002
                      BECMG 2508/2510 3000 BR BKN010
                      BECMG 2510/2511 CAVOK
                      BECMG 2516/2518 5000 BR=
201910242300 TAF LRBS 242300Z 2500/2524 VRB04KT 0150 FG VV001
                      BECMG 2506/2508 0800 BKN002
                      BECMG 2508/2510 3000 BR BKN010
                      BECMG 2510/2511 CAVOK
                      BECMG 2517/2519 3000 BR BKN005
                      BECMG 2519/2521 0800 FG BKN002
                      BECMG 2521/2523 0350 FG VV001=
201910250500 TAF LRBS 250500Z 2506/2606 VRB04KT 0800 FG OVC002
                      BECMG 2506/2508 1500 BR
                      BECMG 2508/2509 5000 SCT003 BKN005
                      BECMG 2509/2511 CAVOK
                      BECMG 2517/2519 3000 BR BKN005
                      BECMG 2519/2521 0800 FG OVC002
                      BECMG 2522/2524 0350 FG VV001=
201910251100 TAF LRBS 251100Z 2512/2612 04004KT 9999 SCT015
                      TEMPO 2512/2513 BKN010
                      BECMG 2517/2519 3000 BR BKN005
                      BECMG 2520/2522 0800 FG OVC002
                      BECMG 2522/2524 0350 FG VV001
                      BECMG 2605/2606 0800 OVC002
                      BECMG 2606/2608 3000 BR OVC005
                      BECMG 2608/2610 9999 NSW BKN010
                      BECMG 2610/2612 SCT015=
201910251700 TAF LRBS 251700Z 2518/2618 04004KT 5000 BR SCT015
                      BECMG 2518/2520 1500 BR BKN005
                      BECMG 2520/2522 0600 FG OVC002
                      TEMPO 2522/2605 0150 FG VV001
                      BECMG 2605/2606 1500 BR OVC002
                      BECMG 2606/2608 3000 BR OVC005
                      BECMG 2608/2610 9999 NSW BKN010
                      BECMG 2610/2612 SCT015=
201910252300 TAF AMD LRBS 260238Z 2602/2624 VRB04KT 1500 BR OVC005
                      TEMPO 2602/2606 0600 FG VV002
                      BECMG 2608/2610 3000 SCT010
                      BECMG 2610/2611 CAVOK
                      BECMG 2618/2620 3000 BR BKN010
                      BECMG 2620/2622 0800 FG BKN005
                      BECMG 2622/2624 0350 FG VV002=
201910260238 TAF AMD LRBS 260238Z 2602/2624 VRB04KT 1500 BR OVC005
                      TEMPO 2602/2606 0600 FG VV002
                      BECMG 2608/2610 3000 SCT010
                      BECMG 2610/2611 CAVOK
                      BECMG 2618/2620 3000 BR BKN010
                      BECMG 2620/2622 0800 FG BKN005
                      BECMG 2622/2624 0350 FG VV002=
201910260500 TAF LRBS 260500Z 2606/2706 VRB04KT 1500 BR OVC005
                      PROB40 TEMPO 2606/2608 0600 FG VV002
                      BECMG 2608/2609 3000 BKN010
                      BECMG 2609/2611 CAVOK
                      BECMG 2618/2620 3000 BR BKN010
                      BECMG 2620/2622 0800 FG BKN005
                      BECMG 2622/2624 0350 FG VV002=
201910260738 TAF AMD LRBS 260738Z 2607/2706 VRB04KT CAVOK
                      PROB30 TEMPO 2608/2610 BKN010
                      BECMG 2618/2620 3000 BR BKN010
                      BECMG 2620/2622 0800 FG BKN005
                      BECMG 2622/2624 0350 FG VV002=
201910261100 TAF LRBS 261100Z 2612/2712 VRB04KT CAVOK
                      BECMG 2618/2620 3000 BR BKN010
                      BECMG 2620/2622 0800 FG BKN005
                      BECMG 2622/2624 0350 FG VV002
                      BECMG 2706/2708 1000 BR BKN005
                      BECMG 2708/2709 5000 SCT010
                      BECMG 2709/2710 9999 NSW=
201910261700 TAF LRBS 261700Z 2618/2718 VRB04KT 5000 BR NSC
                      BECMG 2618/2620 3000 BR
                      BECMG 2620/2622 0800 FG BKN002
                      BECMG 2622/2624 0350 FG VV001
                      BECMG 2706/2708 1500 BR BKN003
                      BECMG 2708/2710 5000 SCT003 BKN007
                      BECMG 2710/2712 9999 NSW SCT010
                      BECMG 2716/2718 5000 BR=
201910262300 TAF LRBS 262300Z 2700/2724 24004KT 0350 FG BKN002
                      TEMPO 2700/2706 0150 FG VV001
                      BECMG 2706/2708 1500 BR SCT002 BKN005
                      BECMG 2708/2710 5000 SCT003 BKN010
                      BECMG 2710/2712 9999 NSW SCT010
                      BECMG 2716/2718 3000 BR
                      BECMG 2718/2720 1500 BR
                      BECMG 2721/2723 0350 FG BKN002=
201910270500 TAF LRBS 270500Z 2706/2806 VRB04KT 0100 FG VV001
                      BECMG 2706/2708 0800 OVC002
                      BECMG 2708/2710 5000 BR BKN010
                      BECMG 2710/2712 CAVOK
                      BECMG 2716/2718 3000 BR
                      BECMG 2718/2720 1500 BR BKN005
                      BECMG 2721/2723 0350 FG BKN002=
201910270838 TAF AMD LRBS 270838Z 2708/2806 VRB04KT 0350 FG VV002
                      BECMG 2709/2711 1500 BR BKN005
                      BECMG 2711/2712 5000 SCT010
                      TEMPO 2712/2715 CAVOK
                      BECMG 2716/2718 3000 BR
                      BECMG 2718/2720 1500 BR BKN005
                      BECMG 2721/2723 0350 FG BKN002=
201910271002 TAF AMD LRBS 271002Z 2710/2806 VRB04KT CAVOK
                      BECMG 2717/2719 3000 BR
                      BECMG 2720/2722 1500 BR BKN005
                      BECMG 2722/2724 0600 FG BKN002
                      TEMPO 2801/2806 0150 FG VV001=
201910271100 TAF LRBS 271100Z 2712/2812 VRB04KT CAVOK
                      BECMG 2717/2719 3000 BR
                      BECMG 2720/2722 1500 BR BKN005
                      BECMG 2722/2724 0600 FG BKN002
                      TEMPO 2801/2806 0150 FG VV001
                      BECMG 2807/2809 1500 BR BKN005
                      BECMG 2809/2811 CAVOK=
201910271700 TAF LRBS 271700Z 2718/2818 VRB04KT 5000 BR NSC
                      BECMG 2718/2720 3000 BR
                      BECMG 2720/2722 1500 BR BKN005
                      BECMG 2722/2724 0600 FG BKN002
                      TEMPO 2801/2806 0150 FG VV001
                      BECMG 2807/2809 1500 BR BKN005
                      BECMG 2809/2811 CAVOK=
201910272300 TAF LRBS 272300Z 2800/2824 VRB04KT 1500 BR NSC
                      BECMG 2800/2802 0800 FG BKN003
                      TEMPO 2802/2806 0150 FG VV001
                      BECMG 2807/2809 1500 BR BKN005
                      BECMG 2809/2811 CAVOK
                      BECMG 2819/2821 3000 BR
                      PROB40 TEMPO 2821/2824 0600 FG OVC002=
201910280500 TAF LRBS 280500Z 2806/2906 VRB04KT 1500 BR SCT002
                      TEMPO 2806/2807 0600 FG OVC001
                      BECMG 2807/2809 5000
                      BECMG 2809/2811 CAVOK
                      BECMG 2819/2821 3000 BR
                      BECMG 2821/2823 0800 FG BKN003
                      PROB30 TEMPO 2900/2906 0350 FG VV001=
201910281100 TAF LRBS 281100Z 2812/2912 VRB04KT CAVOK
                      BECMG 2817/2819 5000 BR
                      BECMG 2819/2821 1500 BR BKN005
                      BECMG 2821/2823 0600 FG BKN003
                      TEMPO 2900/2906 0300 FG VV001
                      BECMG 2907/2909 08010KT 3000 BR SCT010
                      BECMG 2909/2911 CAVOK=
201910281700 TAF LRBS 281700Z 2818/2918 06006KT 1500 BR NSC
                      BECMG 2819/2821 0600 FG BKN002
                      TEMPO 2900/2906 0300 FG VV001
                      BECMG 2906/2908 3000 BR BKN010
                      BECMG 2908/2910 CAVOK=
201910282300 TAF AMD LRBS 290413Z 2904/2924 06006KT 1500 BR BKN010
                      TEMPO 2904/2907 0600 FG BKN002
                      BECMG 2908/2910 9999 NSW BKN035
                      BECMG 2921/2923 BKN015 BKN040=
201910290413 TAF AMD LRBS 290413Z 2904/2924 06006KT 1500 BR BKN010
                      TEMPO 2904/2907 0600 FG BKN002
                      BECMG 2908/2910 9999 NSW BKN035
                      BECMG 2921/2923 BKN015 BKN040=
201910290500 TAF LRBS 290500Z 2906/3006 06004KT 1500 BR BKN015
                      TEMPO 2906/2908 0600 FG BKN002
                      BECMG 2908/2910 9999 NSW BKN035
                      BECMG 2921/2923 BKN015 BKN040
                      BECMG 2923/3001 06014KT 5000 -RA BR BKN010
                       OVC035
                      TEMPO 3001/3006 3000 RA BR BKN005 OVC030=
201910291100 TAF LRBS 291100Z 2912/3012 08006KT 9999 BKN015
                      PROB40 TEMPO 2912/2917 BKN025
                      BECMG 2923/3001 06016KT 5000 -RA BR BKN010
                       OVC035
                      TEMPO 3001/3006 3000 RA BR BKN005 OVC030
                       BECMG 3009/3011 7000 BKN025=
201910291700 TAF LRBS 291700Z 2918/3018 07008KT 7000 BKN020
                      BECMG 2923/3001 07018KT 5000 -RA BR BKN010
                       OVC035
                      TEMPO 3001/3008 3000 -RA BR BKN005 OVC020
                       BECMG 3009/3011 7000 NSW BKN025
                      BECMG 3016/3018 3000 RA BR BKN010 OVC020=
201910292300 TAF LRBS 292300Z 3000/3024 07015KT 9999 BKN015
                      BECMG 3000/3002 5000 -RA BR BKN010 OVC035
                       TEMPO 3002/3008 3000 -RA BR BKN005 OVC020
                       BECMG 3009/3011 7000 NSW BKN025
                      BECMG 3016/3018 3000 -RA BR BKN010 OVC025
                       TEMPO 3018/3024 1500 RA BR BKN005 OVC020=
201910300500 TAF LRBS 300500Z 3006/3106 07015KT 9999 SCT015 OVC030
                      PROB30 TEMPO 3006/3008 5000 -RA BR BKN010
                       OVC030
                      BECMG 3016/3018 5000 -RA BR BKN010 OVC025
                       TEMPO 3020/3104 3000 RA BR BKN005 OVC020=
201910301100 TAF LRBS 301100Z 3012/3112 07012KT 9999 SCT015 OVC040
                      BECMG 3015/3017 5000 -RA BR BKN010 OVC025
                       TEMPO 3020/3104 3000 RA BR BKN005 OVC020
                       TEMPO 3104/3107 1500 -RADZ BR OVC002
                      BECMG 3109/3111 9999 NSW BKN015 OVC030=
201910301700 TAF LRBS 301700Z 3018/3118 06012KT 8000 -RA SCT015 OVC040
                      BECMG 3019/3021 5000 -RA BR BKN010 OVC030
                       TEMPO 3023/3107 3000 RA BR BKN005 OVC030
                       PROB40
                      TEMPO 3103/3107 1500 -RADZ BR OVC002
                      BECMG 3109/3111 9999 NSW SCT015 OVC030=
201910302300 TAF LRBS 302300Z 3100/3124 06012KT 7000 -RA SCT010 OVC020
                      BECMG 3100/3102 5000 -DZ BKN010 OVC020
                      TEMPO 3102/3107 1500 -RADZ BR BKN002 OVC010
                       BECMG 3109/3111 9999 NSW SCT015 OVC030=
201910310500 TAF LRBS 310500Z 3106/0106 06012KT 9999 BKN010 OVC020
                      TEMPO 3106/3109 5000 -RA BKN003 OVC010
                      BECMG 3109/3111 SCT015 OVC030=
201910311100 TAF LRBS 311100Z 3112/0112 06012KT 9999 BKN015 BKN030
                      TEMPO 3112/3115 5000 -RA BKN010 OVC025
                      TEMPO 0100/0106 3000 BR OVC005=
201910311700 TAF LRBS 311700Z 3118/0118 07006KT 9999 OVC040
                      PROB40 TEMPO 0100/0106 3000 BR BKN010 OVC030=
201910312300 TAF LRBS 312300Z 0100/0124 07006KT 9999 OVC045
                      PROB30 TEMPO 0100/0106 5000 BR BKN015 OVC040=
