201911010000 METAR LRBS 010000Z 03002KT CAVOK 05/01 Q1026 NOSIG=
201911010030 METAR LRBS 010030Z 02001KT CAVOK 05/01 Q1026 NOSIG=
201911010100 METAR LRBS 010100Z 02002KT CAVOK 05/01 Q1026 NOSIG=
201911010130 METAR LRBS 010130Z 02003KT CAVOK 05/01 Q1026 NOSIG=
201911010200 METAR LRBS 010200Z 01003KT CAVOK 05/01 Q1026 NOSIG=
201911010230 METAR LRBS 010230Z 02003KT 350V050 CAVOK 05/01 Q1026 NOSIG=
201911010300 METAR COR LRBS 010300Z 04003KT CAVOK 05/01 Q1026 NOSIG=
201911010330 METAR LRBS 010330Z 04002KT CAVOK 05/01 Q1026 NOSIG=
201911010400 METAR LRBS 010400Z 01002KT CAVOK 04/01 Q1026 NOSIG=
201911010430 METAR LRBS 010430Z 01002KT CAVOK 04/01 Q1026 NOSIG=
201911010500 METAR LRBS 010500Z VRB01KT CAVOK 04/01 Q1026 NOSIG=
201911010530 METAR LRBS 010530Z 03002KT 350V060 CAVOK 04/01 Q1026 NOSIG=
201911010600 METAR LRBS 010600Z 04003KT CAVOK 04/00 Q1027 NOSIG=
201911010630 METAR LRBS 010630Z 06004KT CAVOK 05/M00 Q1027 NOSIG=
201911010700 METAR LRBS 010700Z 05004KT 020V080 CAVOK 05/M00 Q1027 NOSIG=
201911010730 METAR LRBS 010730Z 07004KT CAVOK 05/M01 Q1027 NOSIG=
201911010800 METAR LRBS 010800Z 08004KT 050V110 CAVOK 06/M01 Q1027 NOSIG=
201911010830 METAR LRBS 010830Z 05004KT 010V090 CAVOK 07/M02 Q1027 NOSIG=
201911010900 METAR LRBS 010900Z 07005KT 040V100 CAVOK 07/M02 Q1027 NOSIG=
201911010930 METAR LRBS 010930Z 03004KT 010V070 CAVOK 08/M02 Q1027 NOSIG=
201911011000 METAR LRBS 011000Z 05005KT CAVOK 08/M04 Q1027 NOSIG=
201911011030 METAR LRBS 011030Z 05005KT 350V110 CAVOK 09/M03 Q1026 NOSIG=
201911011100 METAR LRBS 011100Z 03005KT 350V060 CAVOK 08/M04 Q1026 NOSIG=
201911011130 METAR LRBS 011130Z 09004KT 040V150 CAVOK 09/M03 Q1026 NOSIG=
201911011200 METAR LRBS 011200Z 10003KT 030V140 CAVOK 09/M03 Q1026 NOSIG=
201911011230 METAR LRBS 011230Z 02003KT 320V060 CAVOK 09/M02 Q1026 NOSIG=
201911011300 METAR LRBS 011300Z 05003KT 360V090 CAVOK 09/M03 Q1025 NOSIG=
201911011330 METAR LRBS 011330Z 08004KT 030V100 CAVOK 09/M02 Q1025 NOSIG=
201911011400 METAR LRBS 011400Z 06003KT CAVOK 09/M02 Q1025 NOSIG=
201911011430 METAR LRBS 011430Z 06003KT CAVOK 08/M01 Q1025 NOSIG=
201911011500 METAR LRBS 011500Z 08003KT CAVOK 07/M01 Q1025 NOSIG=
201911011530 METAR LRBS 011530Z 07003KT CAVOK 06/M01 Q1025 NOSIG=
201911011600 METAR LRBS 011600Z 06003KT CAVOK 05/M01 Q1025 NOSIG=
201911011630 METAR LRBS 011630Z 07001KT CAVOK 04/M00 Q1026 NOSIG=
201911011700 METAR LRBS 011700Z 10001KT CAVOK 04/M00 Q1026 NOSIG=
201911011730 METAR LRBS 011730Z 07002KT CAVOK 04/M00 Q1026 NOSIG=
201911011800 METAR LRBS 011800Z 07002KT CAVOK 03/M01 Q1026 NOSIG=
201911011830 METAR LRBS 011830Z 06002KT CAVOK 02/M01 Q1026 NOSIG=
201911011900 METAR LRBS 011900Z 05002KT CAVOK 01/M01 Q1026 NOSIG=
201911011930 METAR LRBS 011930Z 00000KT CAVOK 01/M01 Q1026 NOSIG=
201911012000 METAR LRBS 012000Z 09003KT CAVOK 01/M01 Q1026 NOSIG=
201911012030 METAR LRBS 012030Z 07002KT CAVOK 02/M00 Q1025 NOSIG=
201911012100 METAR LRBS 012100Z 06003KT CAVOK 01/M01 Q1025 NOSIG=
201911012130 METAR LRBS 012130Z 02002KT 8000 MIFG NSC 01/M00 Q1025 TEMPO
                        3000 BR=
201911012200 METAR LRBS 012200Z 00000KT 9999 MIFG NSC 01/M01 Q1025 TEMPO
                        3000 BR=
201911012230 METAR LRBS 012230Z 00000KT 9999 MIFG NSC 00/M01 Q1025 TEMPO
                        3000 BR=
201911012300 METAR LRBS 012300Z 32002KT 9999 MIFG NSC 00/M01 Q1025 NOSIG=
201911012330 METAR LRBS 012330Z 00000KT 9999 MIFG NSC 01/M01 Q1025 NOSIG=
201911020000 METAR LRBS 020000Z 08002KT CAVOK 00/M01 Q1024 NOSIG=
201911020030 METAR LRBS 020030Z VRB01KT CAVOK 01/M00 Q1024 NOSIG=
201911020100 METAR LRBS 020100Z VRB01KT 9999 FEW026 01/00 Q1024 NOSIG=
201911020130 METAR LRBS 020130Z 01003KT 9999 SCT024 02/00 Q1023 NOSIG=
201911020200 METAR LRBS 020200Z VRB01KT 9999 BKN023 02/00 Q1023 NOSIG=
201911020230 METAR LRBS 020230Z VRB01KT 9999 SCT024 SCT048 02/M00 Q1023
                        NOSIG=
201911020300 METAR LRBS 020300Z 02002KT 360V060 9999 BKN020 OVC044 03/01
                        Q1023 NOSIG=
201911020330 METAR LRBS 020330Z 06002KT 9999 SCT019 OVC038 02/01 Q1022
                        NOSIG=
201911020400 METAR LRBS 020400Z 06003KT 9999 SCT014 OVC026 03/01 Q1022
                        NOSIG=
201911020430 METAR LRBS 020430Z 03002KT 9999 OVC014 03/01 Q1022 NOSIG=
201911020500 METAR LRBS 020500Z 04003KT 010V070 9999 BKN015 03/01 Q1022
                        NOSIG=
201911020530 METAR LRBS 020530Z 04004KT 9999 SCT015 BKN039 04/01 Q1021
                        NOSIG=
201911020600 METAR LRBS 020600Z 04003KT 010V070 9999 SCT016 04/01 Q1022
                        NOSIG=
201911020630 METAR LRBS 020630Z 03003KT 360V070 CAVOK 04/01 Q1021 NOSIG=
201911020700 METAR LRBS 020700Z 05003KT CAVOK 05/02 Q1021 NOSIG=
201911020730 METAR LRBS 020730Z 05004KT CAVOK 05/02 Q1021 NOSIG=
201911020800 METAR LRBS 020800Z 07003KT 030V110 CAVOK 06/03 Q1021 NOSIG=
201911020830 METAR LRBS 020830Z 06002KT 020V100 CAVOK 06/03 Q1020 NOSIG=
201911020900 METAR LRBS 020900Z 05003KT 010V080 CAVOK 07/04 Q1020 NOSIG=
201911020930 METAR LRBS 020930Z 06003KT CAVOK 08/04 Q1020 NOSIG=
201911021000 METAR LRBS 021000Z 04003KT 330V090 CAVOK 09/05 Q1019 NOSIG=
201911021030 METAR LRBS 021030Z 08003KT 020V150 CAVOK 10/06 Q1019 NOSIG=
201911021100 METAR LRBS 021100Z VRB02KT CAVOK 11/06 Q1019 NOSIG=
201911021130 METAR LRBS 021130Z 23002KT 190V260 CAVOK 12/07 Q1018 NOSIG=
201911021200 METAR LRBS 021200Z VRB01KT CAVOK 12/06 Q1018 NOSIG=
201911021230 METAR LRBS 021230Z 01003KT 340V050 CAVOK 12/07 Q1018 NOSIG=
201911021300 METAR LRBS 021300Z 01004KT 330V030 CAVOK 12/07 Q1017 NOSIG=
201911021330 METAR LRBS 021330Z 35003KT 320V020 CAVOK 12/07 Q1017 NOSIG=
201911021400 METAR LRBS 021400Z 01002KT 330V040 9999 BKN048 11/07 Q1017
                        NOSIG=
201911021430 METAR LRBS 021430Z 02002KT CAVOK 11/07 Q1017 NOSIG=
201911021500 METAR LRBS 021500Z 36002KT 9999 BKN046 11/07 Q1017 NOSIG=
201911021530 METAR LRBS 021530Z 01003KT 9999 SCT048 11/07 Q1017 NOSIG=
201911021600 METAR LRBS 021600Z 01004KT 340V040 CAVOK 10/06 Q1017 NOSIG=
201911021630 METAR LRBS 021630Z 02003KT CAVOK 10/06 Q1017 NOSIG=
201911021700 METAR LRBS 021700Z 02002KT CAVOK 09/06 Q1017 NOSIG=
201911021730 METAR LRBS 021730Z 03002KT CAVOK 09/06 Q1017 NOSIG=
201911021800 METAR LRBS 021800Z 04002KT 360V070 CAVOK 09/06 Q1016 NOSIG=
201911021830 METAR LRBS 021830Z 04002KT 360V060 CAVOK 09/06 Q1016 NOSIG=
201911021900 METAR LRBS 021900Z 05002KT 020V080 CAVOK 09/06 Q1016 NOSIG=
201911021930 METAR LRBS 021930Z VRB01KT CAVOK 09/06 Q1016 NOSIG=
201911022000 METAR LRBS 022000Z VRB01KT 9000 NSC 08/06 Q1016 NOSIG=
201911022030 METAR LRBS 022030Z 00000KT 9000 NSC 09/06 Q1016 NOSIG=
201911022100 METAR LRBS 022100Z 00000KT 9000 NSC 07/05 Q1016 NOSIG=
201911022130 METAR LRBS 022130Z 00000KT 8000 NSC 08/06 Q1015 NOSIG=
201911022200 METAR LRBS 022200Z 00000KT 8000 NSC 08/06 Q1015 NOSIG=
201911022230 METAR LRBS 022230Z 00000KT 7000 NSC 07/06 Q1015 BECMG 5000
                        BR=
201911022300 METAR LRBS 022300Z 00000KT 7000 NSC 07/06 Q1015 BECMG 5000
                        BR=
201911022330 METAR LRBS 022330Z 00000KT 6000 NSC 06/05 Q1015 BECMG 3000
                        BR=
201911030000 METAR LRBS 030000Z 00000KT 5000 MIFG BR NSC 06/05 Q1015 BECMG
                        3000 BR=
201911030030 METAR LRBS 030030Z 00000KT 6000 MIFG NSC 06/05 Q1014 BECMG
                        3000 BR=
201911030100 METAR LRBS 030100Z 00000KT 6000 NSC 07/06 Q1014 BECMG 3000
                        BR=
201911030130 METAR LRBS 030130Z 06002KT 010V070 5000 BR NSC 06/06 Q1014
                        BECMG 3000 BR=
201911030200 METAR LRBS 030200Z 00000KT 6000 NSC 07/06 Q1014 BECMG 3000
                        BR=
201911030230 METAR LRBS 030230Z 00000KT 6000 NSC 07/06 Q1014 NOSIG=
201911030300 METAR LRBS 030300Z 00000KT 6000 NSC 07/06 Q1013 NOSIG=
201911030330 METAR COR LRBS 030330Z 00000KT 5000 MIFG BR NSC 06/06 Q1013
                        BECMG 3000 BR=
201911030400 METAR LRBS 030400Z 08002KT 4500 BCFG BR NSC 05/05 Q1013 BECMG
                        0800 FG=
201911030430 METAR COR LRBS 030430Z 00000KT 5000 0800E BCFG BR NSC 06/05
                        Q1013 TEMPO 0800 FG=
201911030500 METAR LRBS 030500Z 00000KT 3500 0800E PRFG MIFG BR NSC 06/05
                        Q1013 TEMPO 0600 FG=
201911030530 METAR LRBS 030530Z VRB01KT 5000 1500E MIFG BR NSC 05/05 Q1013
                        TEMPO 0600 FG=
201911030600 METAR LRBS 030600Z 00000KT 4200 BR NSC 06/06 Q1013 BECMG
                        5000=
201911030630 METAR COR LRBS 030630Z 00000KT 5000 BR NSC 08/06 Q1013 BECMG
                        7000 NSW=
201911030700 METAR LRBS 030700Z 00000KT 7000 NSC 10/07 Q1013 NOSIG=
201911030730 METAR LRBS 030730Z 00000KT CAVOK 11/07 Q1013 NOSIG=
201911030800 METAR LRBS 030800Z VRB01KT CAVOK 12/07 Q1013 NOSIG=
201911030830 METAR LRBS 030830Z VRB01KT CAVOK 13/08 Q1012 NOSIG=
201911030900 METAR COR LRBS 030900Z VRB01KT CAVOK 14/07 Q1012 NOSIG=
201911030930 METAR LRBS 030930Z VRB01KT CAVOK 14/07 Q1012 NOSIG=
201911031000 METAR LRBS 031000Z 18002KT 130V290 CAVOK 15/07 Q1012 NOSIG=
201911031030 METAR LRBS 031030Z VRB01KT CAVOK 15/07 Q1012 NOSIG=
201911031100 METAR LRBS 031100Z VRB01KT CAVOK 17/08 Q1011 NOSIG=
201911031130 METAR LRBS 031130Z 00000KT CAVOK 17/07 Q1011 NOSIG=
201911031200 METAR LRBS 031200Z 21002KT 150V290 CAVOK 18/08 Q1011 NOSIG=
201911031230 METAR LRBS 031230Z VRB01KT CAVOK 17/07 Q1010 NOSIG=
201911031300 METAR LRBS 031300Z 00000KT CAVOK 17/08 Q1010 NOSIG=
201911031330 METAR LRBS 031330Z 00000KT CAVOK 17/08 Q1010 NOSIG=
201911031400 METAR LRBS 031400Z 00000KT CAVOK 17/08 Q1010 NOSIG=
201911031430 METAR LRBS 031430Z 00000KT CAVOK 16/08 Q1010 NOSIG=
201911031500 METAR LRBS 031500Z 03003KT CAVOK 13/08 Q1010 NOSIG=
201911031530 METAR LRBS 031530Z 07002KT CAVOK 13/08 Q1010 NOSIG=
201911031600 METAR LRBS 031600Z 07002KT CAVOK 11/08 Q1010 NOSIG=
201911031630 METAR LRBS 031630Z 04002KT CAVOK 12/08 Q1010 NOSIG=
201911031700 METAR LRBS 031700Z 06002KT CAVOK 11/08 Q1010 NOSIG=
201911031730 METAR LRBS 031730Z 06001KT CAVOK 10/08 Q1009 NOSIG=
201911031800 METAR LRBS 031800Z 00000KT CAVOK 11/09 Q1010 NOSIG=
201911031830 METAR LRBS 031830Z 00000KT CAVOK 11/08 Q1010 NOSIG=
201911031900 METAR LRBS 031900Z 02002KT CAVOK 09/08 Q1009 NOSIG=
201911031930 METAR LRBS 031930Z 00000KT CAVOK 10/08 Q1009 NOSIG=
201911032000 METAR LRBS 032000Z 00000KT CAVOK 09/08 Q1009 NOSIG=
201911032030 METAR LRBS 032030Z 00000KT 6000 NSC 08/08 Q1009 BECMG 5000
                        BR=
201911032100 METAR LRBS 032100Z 00000KT 6000 NSC 09/08 Q1009 BECMG 5000
                        BR=
201911032130 METAR LRBS 032130Z 00000KT 7000 NSC 10/08 Q1009 BECMG 5000
                        BR=
201911032200 METAR LRBS 032200Z 00000KT 7000 NSC 09/08 Q1008 BECMG 5000
                        BR=
201911032230 METAR LRBS 032230Z 00000KT 7000 NSC 09/08 Q1008 BECMG 5000
                        BR=
201911032300 METAR LRBS 032300Z 00000KT 7000 NSC 10/08 Q1008 BECMG 5000
                        BR=
201911032330 METAR COR LRBS 032330Z 00000KT 7000 NSC 09/08 Q1008 NOSIG=
201911040000 METAR LRBS 040000Z 00000KT 7000 NSC 09/08 Q1008 NOSIG=
201911040030 METAR COR LRBS 040030Z 00000KT 6000 NSC 08/07 Q1007 NOSIG=
201911040100 METAR LRBS 040100Z 00000KT 6000 NSC 08/07 Q1007 NOSIG=
201911040130 METAR LRBS 040130Z 00000KT 6000 NSC 08/08 Q1007 BECMG 3000
                        BR=
201911040200 METAR LRBS 040200Z 32002KT 6000 NSC 08/07 Q1007 BECMG 3000
                        BR=
201911040230 METAR LRBS 040230Z 00000KT 6000 NSC 08/07 Q1007 TEMPO 3000
                        BR=
201911040300 METAR LRBS 040300Z 00000KT 6000 NSC 08/07 Q1007 BECMG 3000
                        BR=
201911040330 METAR LRBS 040330Z 00000KT 6000 NSC 08/08 Q1007 BECMG 3000
                        BR=
201911040400 METAR LRBS 040400Z 00000KT 6000 NSC 08/07 Q1007 NOSIG=
201911040430 METAR LRBS 040430Z 00000KT 6000 NSC 07/07 Q1007 NOSIG=
201911040500 METAR COR LRBS 040500Z 00000KT 7000 NSC 08/07 Q1007 NOSIG=
201911040530 METAR LRBS 040530Z 00000KT 6000 NSC 09/08 Q1007 NOSIG=
201911040600 METAR LRBS 040600Z 00000KT 6000 NSC 10/08 Q1007 NOSIG=
201911040630 METAR LRBS 040630Z 00000KT 6000 NSC 10/08 Q1007 NOSIG=
201911040700 METAR LRBS 040700Z 00000KT 6000 NSC 10/09 Q1007 NOSIG=
201911040730 METAR LRBS 040730Z 00000KT CAVOK 13/10 Q1007 NOSIG=
201911040800 METAR LRBS 040800Z VRB01KT CAVOK 15/10 Q1007 NOSIG=
201911040830 METAR LRBS 040830Z 00000KT CAVOK 17/10 Q1007 NOSIG=
201911040900 METAR LRBS 040900Z VRB01KT CAVOK 17/11 Q1006 NOSIG=
201911040930 METAR LRBS 040930Z 00000KT CAVOK 18/11 Q1006 NOSIG=
201911041000 METAR LRBS 041000Z 00000KT CAVOK 19/12 Q1006 NOSIG=
201911041030 METAR LRBS 041030Z VRB01KT CAVOK 21/12 Q1005 NOSIG=
201911041100 METAR LRBS 041100Z 18008KT 140V220 CAVOK 24/12 Q1004 NOSIG=
201911041130 METAR LRBS 041130Z 19007KT 160V220 CAVOK 24/12 Q1004 NOSIG=
201911041200 METAR LRBS 041200Z 18007KT 150V210 CAVOK 24/12 Q1003 NOSIG=
201911041230 METAR LRBS 041230Z 21011KT CAVOK 24/12 Q1003 NOSIG=
201911041300 METAR LRBS 041300Z 21011KT 180V240 CAVOK 24/12 Q1003 NOSIG=
201911041330 METAR LRBS 041330Z 23009KT CAVOK 23/13 Q1003 NOSIG=
201911041400 METAR LRBS 041400Z 21007KT 160V240 CAVOK 23/13 Q1003 NOSIG=
201911041430 METAR LRBS 041430Z 22009KT CAVOK 22/13 Q1003 NOSIG=
201911041500 METAR LRBS 041500Z 21010KT CAVOK 21/13 Q1003 NOSIG=
201911041530 METAR LRBS 041530Z 21007KT 170V240 CAVOK 21/13 Q1002 NOSIG=
201911041600 METAR LRBS 041600Z 20004KT CAVOK 20/13 Q1003 NOSIG=
201911041630 METAR LRBS 041630Z 20004KT 170V240 CAVOK 20/13 Q1003 NOSIG=
201911041700 METAR LRBS 041700Z 20005KT CAVOK 20/13 Q1003 NOSIG=
201911041730 METAR LRBS 041730Z 21006KT 170V230 CAVOK 20/14 Q1003 NOSIG=
201911041800 METAR LRBS 041800Z 21008KT CAVOK 20/14 Q1003 NOSIG=
201911041830 METAR LRBS 041830Z 21009KT 170V230 CAVOK 20/14 Q1003 NOSIG=
201911041900 METAR LRBS 041900Z 23008KT CAVOK 20/14 Q1003=
201911041930 METAR COR LRBS 041930Z 23009KT 200V260 CAVOK 20/14 Q1003
                        NOSIG=
201911042000 METAR LRBS 042000Z 25010KT CAVOK 19/14 Q1004 NOSIG=
201911042030 METAR LRBS 042030Z 26009KT 9999 -RA FEW045 18/14 Q1004 NOSIG=
201911042100 METAR LRBS 042100Z 24004KT 9999 FEW045 17/14 Q1004 NOSIG=
201911042130 METAR LRBS 042130Z 26005KT CAVOK 17/13 Q1005 NOSIG=
201911042200 METAR LRBS 042200Z 25006KT CAVOK 16/13 Q1005 NOSIG=
201911042230 METAR LRBS 042230Z 27006KT CAVOK 16/12 Q1005 NOSIG=
201911042300 METAR LRBS 042300Z 26005KT CAVOK 15/12 Q1005 NOSIG=
201911042330 METAR LRBS 042330Z 24006KT CAVOK 15/12 Q1006 NOSIG=
201911050000 METAR LRBS 050000Z AUTO 26008KT 9999 NCD 15/11 Q1006 NOSIG=
201911050030 METAR LRBS 050030Z 27007KT CAVOK 14/11 Q1006 NOSIG=
201911050100 METAR LRBS 050100Z 25009KT CAVOK 14/11 Q1006 NOSIG=
201911050130 METAR LRBS 050130Z 26009KT CAVOK 13/11 Q1006 NOSIG=
201911050200 METAR LRBS 050200Z 27007KT CAVOK 13/11 Q1007 NOSIG=
201911050230 METAR LRBS 050230Z 27004KT CAVOK 12/10 Q1007 NOSIG=
201911050300 METAR LRBS 050300Z 28005KT 250V310 CAVOK 11/10 Q1008 NOSIG=
201911050330 METAR LRBS 050330Z 27005KT CAVOK 11/10 Q1008 NOSIG=
201911050400 METAR LRBS 050400Z 28005KT 250V310 CAVOK 11/10 Q1008 NOSIG=
201911050430 METAR LRBS 050430Z 27005KT 240V300 9000 NSC 11/10 Q1009 NOSIG=
201911050500 METAR LRBS 050500Z 27005KT 8000 NSC 11/10 Q1009 NOSIG=
201911050530 METAR LRBS 050530Z 27005KT 8000 NSC 11/09 Q1009 NOSIG=
201911050600 METAR LRBS 050600Z 26005KT 9000 NSC 11/10 Q1009 NOSIG=
201911050630 METAR LRBS 050630Z 25010KT CAVOK 13/10 Q1009 NOSIG=
201911050700 METAR LRBS 050700Z 25011KT CAVOK 13/10 Q1009 NOSIG=
201911050730 METAR LRBS 050730Z 26008KT CAVOK 15/10 Q1010 NOSIG=
201911050800 METAR LRBS 050800Z 25007KT CAVOK 16/11 Q1010 NOSIG=
201911050830 METAR LRBS 050830Z 25008KT CAVOK 17/10 Q1010 NOSIG=
201911050900 METAR LRBS 050900Z 24009KT CAVOK 18/10 Q1010 NOSIG=
201911050930 METAR LRBS 050930Z 25010KT CAVOK 19/10 Q1010 NOSIG=
201911051000 METAR COR LRBS 051000Z 25011KT CAVOK 20/10 Q1010 NOSIG=
201911051030 METAR LRBS 051030Z 25011KT CAVOK 21/09 Q1010 NOSIG=
201911051100 METAR LRBS 051100Z 26011KT CAVOK 21/08 Q1010 NOSIG=
201911051130 METAR LRBS 051130Z 25013KT CAVOK 21/08 Q1010 NOSIG=
201911051200 METAR LRBS 051200Z 24011KT CAVOK 22/07 Q1009 NOSIG=
201911051230 METAR LRBS 051230Z 25011KT CAVOK 22/07 Q1009 NOSIG=
201911051300 METAR LRBS 051300Z 23010KT CAVOK 21/06 Q1009 NOSIG=
201911051330 METAR LRBS 051330Z 25008KT CAVOK 22/07 Q1009 NOSIG=
201911051400 METAR LRBS 051400Z 24007KT CAVOK 21/07 Q1009 NOSIG=
201911051430 METAR LRBS 051430Z 25005KT CAVOK 21/07 Q1009 NOSIG=
201911051500 METAR LRBS 051500Z VRB01KT CAVOK 19/07 Q1009 NOSIG=
201911051530 METAR LRBS 051530Z 00000KT CAVOK 17/07 Q1009 NOSIG=
201911051600 METAR LRBS 051600Z VRB01KT CAVOK 15/07 Q1009 NOSIG=
201911051630 METAR LRBS 051630Z 06002KT CAVOK 14/07 Q1009 NOSIG=
201911051700 METAR LRBS 051700Z VRB01KT CAVOK 14/07 Q1009 NOSIG=
201911051730 METAR LRBS 051730Z VRB01KT CAVOK 12/08 Q1009 NOSIG=
201911051800 METAR LRBS 051800Z 36001KT CAVOK 12/07 Q1008 NOSIG=
201911051830 METAR LRBS 051830Z VRB01KT CAVOK 11/07 Q1008 NOSIG=
201911051900 METAR LRBS 051900Z 05002KT CAVOK 11/08 Q1008 NOSIG=
201911051930 METAR LRBS 051930Z 02002KT CAVOK 11/08 Q1008 NOSIG=
201911052000 METAR LRBS 052000Z VRB01KT CAVOK 10/07 Q1008 NOSIG=
201911052030 METAR LRBS 052030Z 32001KT CAVOK 10/07 Q1008 NOSIG=
201911052100 METAR LRBS 052100Z VRB01KT CAVOK 10/07 Q1008 NOSIG=
201911052130 METAR LRBS 052130Z 00000KT CAVOK 09/07 Q1008 NOSIG=
201911052200 METAR LRBS 052200Z 00000KT CAVOK 09/07 Q1007 NOSIG=
201911052230 METAR LRBS 052230Z VRB01KT CAVOK 09/07 Q1007 NOSIG=
201911052300 METAR LRBS 052300Z 29001KT CAVOK 08/07 Q1007 NOSIG=
201911052330 METAR LRBS 052330Z 00000KT CAVOK 08/07 Q1007 NOSIG=
201911060000 METAR LRBS 060000Z 00000KT CAVOK 08/06 Q1007 NOSIG=
201911060030 METAR LRBS 060030Z 28001KT CAVOK 07/06 Q1007 NOSIG=
201911060100 METAR LRBS 060100Z 00000KT CAVOK 08/06 Q1006 NOSIG=
201911060130 METAR LRBS 060130Z 00000KT CAVOK 07/06 Q1006 NOSIG=
201911060200 METAR LRBS 060200Z VRB01KT CAVOK 07/06 Q1006 NOSIG=
201911060230 METAR LRBS 060230Z 30001KT CAVOK 07/06 Q1006 NOSIG=
201911060300 METAR LRBS 060300Z 26002KT CAVOK 07/06 Q1007 NOSIG=
201911060330 METAR LRBS 060330Z 00000KT CAVOK 08/06 Q1006 NOSIG=
201911060400 METAR LRBS 060400Z 00000KT CAVOK 07/06 Q1006 NOSIG=
201911060430 METAR LRBS 060430Z 26001KT CAVOK 08/06 Q1006 NOSIG=
201911060500 METAR LRBS 060500Z 00000KT 8000 MIFG NSC 07/06 Q1006 NOSIG=
201911060530 METAR LRBS 060530Z 00000KT CAVOK 06/05 Q1006 NOSIG=
201911060600 METAR LRBS 060600Z 00000KT CAVOK 08/07 Q1007 NOSIG=
201911060630 METAR LRBS 060630Z 00000KT CAVOK 11/08 Q1007 NOSIG=
201911060700 METAR LRBS 060700Z VRB01KT CAVOK 13/09 Q1007 NOSIG=
201911060730 METAR LRBS 060730Z 23004KT CAVOK 15/09 Q1007 NOSIG=
201911060800 METAR LRBS 060800Z 24005KT CAVOK 17/09 Q1007 NOSIG=
201911060830 METAR LRBS 060830Z 25008KT CAVOK 18/09 Q1007 NOSIG=
201911060900 METAR LRBS 060900Z 26008KT CAVOK 20/09 Q1007 NOSIG=
201911060930 METAR COR LRBS 060930Z 25007KT 210V270 CAVOK 21/09 Q1006
                        NOSIG=
201911061000 METAR LRBS 061000Z 23007KT CAVOK 22/09 Q1006 NOSIG=
201911061030 METAR LRBS 061030Z 24008KT CAVOK 23/09 Q1006 NOSIG=
201911061100 METAR LRBS 061100Z 26009KT 230V300 CAVOK 24/09 Q1006 NOSIG=
201911061130 METAR LRBS 061130Z 26009KT CAVOK 24/09 Q1006 NOSIG=
201911061200 METAR LRBS 061200Z 25011KT CAVOK 24/09 Q1006 NOSIG=
201911061230 METAR LRBS 061230Z 26008KT CAVOK 24/09 Q1006 NOSIG=
201911061300 METAR LRBS 061300Z 28008KT 230V320 CAVOK 24/09 Q1006 NOSIG=
201911061330 METAR LRBS 061330Z 30005KT 270V340 CAVOK 23/09 Q1006 NOSIG=
201911061400 METAR LRBS 061400Z 27006KT CAVOK 22/09 Q1007 NOSIG=
201911061430 METAR LRBS 061430Z 27005KT CAVOK 22/09 Q1007 NOSIG=
201911061500 METAR LRBS 061500Z 27004KT 240V310 CAVOK 21/09 Q1007 NOSIG=
201911061530 METAR LRBS 061530Z 27003KT 230V300 CAVOK 20/10 Q1008 NOSIG=
201911061600 METAR LRBS 061600Z 26004KT CAVOK 19/10 Q1008 NOSIG=
201911061630 METAR LRBS 061630Z 28004KT CAVOK 19/10 Q1008 NOSIG=
201911061700 METAR LRBS 061700Z 26003KT 240V300 CAVOK 18/10 Q1009 NOSIG=
201911061730 METAR LRBS 061730Z 29003KT CAVOK 17/10 Q1009 NOSIG=
201911061800 METAR LRBS 061800Z 29003KT CAVOK 16/10 Q1009 NOSIG=
201911061830 METAR LRBS 061830Z 28003KT CAVOK 16/10 Q1009 NOSIG=
201911061900 METAR LRBS 061900Z 27004KT CAVOK 16/10 Q1008 NOSIG=
201911061930 METAR LRBS 061930Z 27004KT CAVOK 15/10 Q1009 NOSIG=
201911062000 METAR LRBS 062000Z 27003KT CAVOK 15/10 Q1009 NOSIG=
201911062030 METAR LRBS 062030Z 28002KT CAVOK 14/10 Q1009 NOSIG=
201911062100 METAR LRBS 062100Z 24003KT CAVOK 14/10 Q1009 NOSIG=
201911062130 METAR LRBS 062130Z 29003KT CAVOK 14/10 Q1009 NOSIG=
201911062200 METAR LRBS 062200Z 27005KT CAVOK 13/10 Q1009 NOSIG=
201911062230 METAR LRBS 062230Z 27005KT CAVOK 13/10 Q1009 NOSIG=
201911062300 METAR LRBS 062300Z 28004KT CAVOK 12/10 Q1009 NOSIG=
201911062330 METAR LRBS 062330Z 28003KT CAVOK 12/10 Q1009 NOSIG=
201911070000 METAR LRBS 070000Z 28002KT CAVOK 12/10 Q1009 NOSIG=
201911070030 METAR LRBS 070030Z 28002KT CAVOK 11/10 Q1009 NOSIG=
201911070100 METAR LRBS 070100Z 00000KT CAVOK 11/10 Q1008 NOSIG=
201911070130 METAR LRBS 070130Z 27002KT CAVOK 11/10 Q1008 NOSIG=
201911070200 METAR LRBS 070200Z 26001KT CAVOK 10/09 Q1008 NOSIG=
201911070230 METAR LRBS 070230Z 27002KT CAVOK 10/09 Q1008 TEMPO 5000 BR=
201911070300 METAR LRBS 070300Z 00000KT CAVOK 10/09 Q1008 TEMPO 5000 BR=
201911070330 METAR LRBS 070330Z 00000KT 9999 MIFG NSC 10/09 Q1008 TEMPO
                        3000 BR=
201911070400 METAR LRBS 070400Z 00000KT CAVOK 10/09 Q1008 TEMPO 3000 BR=
201911070430 METAR LRBS 070430Z 28002KT CAVOK 10/09 Q1008 TEMPO 3000 BR=
201911070500 METAR LRBS 070500Z 29001KT 9999 MIFG NSC 10/10 Q1008 TEMPO
                        3000 BR=
201911070530 METAR LRBS 070530Z 33001KT 9999 MIFG NSC 10/09 Q1008 NOSIG=
201911070600 METAR LRBS 070600Z 00000KT 7000 NSC 09/09 Q1008 NOSIG=
201911070630 METAR LRBS 070630Z 00000KT CAVOK 11/10 Q1008 NOSIG=
201911070700 METAR LRBS 070700Z 14001KT CAVOK 13/11 Q1008 NOSIG=
201911070730 METAR LRBS 070730Z 00000KT CAVOK 14/11 Q1009 NOSIG=
201911070800 METAR LRBS 070800Z VRB01KT CAVOK 15/11 Q1009 NOSIG=
201911070830 METAR LRBS 070830Z VRB01KT CAVOK 16/11 Q1009 NOSIG=
201911070900 METAR LRBS 070900Z VRB01KT CAVOK 17/12 Q1009 NOSIG=
201911070930 METAR LRBS 070930Z VRB01KT CAVOK 18/11 Q1009 NOSIG=
201911071000 METAR LRBS 071000Z 28003KT 230V340 CAVOK 18/11 Q1009 NOSIG=
201911071030 METAR LRBS 071030Z 28003KT 230V340 CAVOK 18/10 Q1009 NOSIG=
201911071100 METAR LRBS 071100Z 24004KT 210V270 CAVOK 19/11 Q1008 NOSIG=
201911071130 METAR LRBS 071130Z 22003KT 160V300 CAVOK 19/11 Q1008 NOSIG=
201911071200 METAR LRBS 071200Z 21004KT CAVOK 19/11 Q1008 NOSIG=
201911071230 METAR LRBS 071230Z 26003KT CAVOK 20/11 Q1008 NOSIG=
201911071300 METAR LRBS 071300Z 26003KT 220V310 CAVOK 20/12 Q1008 NOSIG=
201911071330 METAR LRBS 071330Z 26003KT CAVOK 20/12 Q1009 NOSIG=
201911071400 METAR LRBS 071400Z 24003KT 220V300 CAVOK 19/12 Q1009 NOSIG=
201911071430 METAR LRBS 071430Z 26002KT CAVOK 19/12 Q1009 NOSIG=
201911071500 METAR COR LRBS 071500Z 26002KT CAVOK 19/12 Q1009 NOSIG=
201911071530 METAR LRBS 071530Z 28001KT CAVOK 18/12 Q1009 NOSIG=
201911071600 METAR LRBS 071600Z 27003KT CAVOK 18/12 Q1010=
201911071630 METAR COR LRBS 071630Z 29002KT CAVOK 17/12 Q1010 NOSIG=
201911071700 METAR LRBS 071700Z 30002KT CAVOK 16/12 Q1010 NOSIG=
201911071730 METAR LRBS 071730Z 31003KT 250V360 CAVOK 16/11 Q1010 NOSIG=
201911071800 METAR LRBS 071800Z 28003KT CAVOK 16/11 Q1010 NOSIG=
201911071830 METAR LRBS 071830Z 29001KT CAVOK 16/11 Q1010 NOSIG=
201911071900 METAR LRBS 071900Z VRB01KT CAVOK 15/11 Q1010 NOSIG=
201911071930 METAR LRBS 071930Z VRB01KT CAVOK 16/11 Q1011 NOSIG=
201911072000 METAR LRBS 072000Z 00000KT CAVOK 15/11 Q1011 NOSIG=
201911072030 METAR LRBS 072030Z 22001KT CAVOK 15/11 Q1011 NOSIG=
201911072100 METAR LRBS 072100Z VRB01KT CAVOK 14/11 Q1011 NOSIG=
201911072130 METAR COR LRBS 072130Z 00000KT CAVOK 13/11 Q1011 NOSIG=
201911072200 METAR LRBS 072200Z 26001KT CAVOK 13/11 Q1011 NOSIG=
201911072230 METAR LRBS 072230Z 26002KT CAVOK 12/10 Q1011 NOSIG=
201911072300 METAR COR LRBS 072300Z 25002KT CAVOK 13/11 Q1012 NOSIG=
201911072330 METAR LRBS 072330Z 00000KT CAVOK 12/11 Q1012 NOSIG=
201911080000 METAR LRBS 080000Z 13002KT CAVOK 10/09 Q1012 NOSIG=
201911080030 METAR LRBS 080030Z 32001KT CAVOK 11/10 Q1011 NOSIG=
201911080100 METAR LRBS 080100Z 00000KT CAVOK 11/10 Q1011 NOSIG=
201911080130 METAR COR LRBS 080130Z 07002KT 8000 NSC 10/09 Q1011 NOSIG=
201911080200 METAR LRBS 080200Z 00000KT 7000 MIFG NSC 10/10 Q1011 NOSIG=
201911080230 METAR LRBS 080230Z 06002KT 7000 NSC 09/09 Q1011 NOSIG=
201911080300 METAR LRBS 080300Z 00000KT 7000 NSC 10/10 Q1012 NOSIG=
201911080330 METAR LRBS 080330Z 06001KT 7000 NSC 10/09 Q1012 NOSIG=
201911080400 METAR LRBS 080400Z 06004KT 8000 NSC 10/10 Q1012 NOSIG=
201911080430 METAR LRBS 080430Z 07004KT 8000 NSC 11/10 Q1012 NOSIG=
201911080500 METAR LRBS 080500Z 06006KT 6000 NSC 11/10 Q1012 NOSIG=
201911080530 METAR LRBS 080530Z 06005KT 6000 NSC 11/10 Q1012 NOSIG=
201911080600 METAR LRBS 080600Z 05005KT 6000 NSC 12/10 Q1013 NOSIG=
201911080630 METAR LRBS 080630Z 06006KT 8000 NSC 13/11 Q1013 NOSIG=
201911080700 METAR LRBS 080700Z 07007KT CAVOK 14/11 Q1013 NOSIG=
201911080730 METAR LRBS 080730Z 05010KT CAVOK 15/11 Q1013 NOSIG=
201911080800 METAR LRBS 080800Z 06010KT CAVOK 17/11 Q1013 NOSIG=
201911080830 METAR LRBS 080830Z 06013KT 020V090 CAVOK 17/11 Q1013 NOSIG=
201911080900 METAR LRBS 080900Z 04012KT CAVOK 18/11 Q1013 NOSIG=
201911080930 METAR LRBS 080930Z 05013KT CAVOK 18/11 Q1012 NOSIG=
201911081000 METAR LRBS 081000Z 06015KT CAVOK 19/11 Q1012 NOSIG=
201911081030 METAR LRBS 081030Z 06013KT 030V090 CAVOK 20/12 Q1012 NOSIG=
201911081100 METAR LRBS 081100Z 08013KT CAVOK 20/12 Q1012 NOSIG=
201911081130 METAR LRBS 081130Z 07010KT CAVOK 20/12 Q1011 NOSIG=
201911081200 METAR LRBS 081200Z 07012KT CAVOK 20/12 Q1012 NOSIG=
201911081230 METAR LRBS 081230Z 06010KT CAVOK 20/13 Q1012 NOSIG=
201911081300 METAR LRBS 081300Z 07010KT CAVOK 19/13 Q1012 NOSIG=
201911081330 METAR LRBS 081330Z 07009KT 9999 VCTS FEW050CB 19/13 Q1012
                        TEMPO 5000 -SHRA SCT040CB=
201911081400 METAR LRBS 081400Z 06007KT 9999 VCTS FEW050CB 19/13 Q1011
                        NOSIG=
201911081430 METAR LRBS 081430Z 06007KT 9999 FEW050CB 18/13 Q1011 NOSIG=
201911081500 METAR LRBS 081500Z 06009KT 9999 FEW050CB 18/13 Q1011 NOSIG=
201911081530 METAR LRBS 081530Z 06009KT 9999 FEW050CB 17/13 Q1011 NOSIG=
201911081600 METAR LRBS 081600Z 06009KT CAVOK 17/13 Q1011 NOSIG=
201911081630 METAR LRBS 081630Z 06009KT CAVOK 17/12 Q1011 NOSIG=
201911081700 METAR LRBS 081700Z 06005KT CAVOK 16/12 Q1012 NOSIG=
201911081730 METAR LRBS 081730Z 06004KT CAVOK 14/12 Q1012=
201911081800 METAR LRBS 081800Z 07005KT CAVOK 14/12 Q1012 NOSIG=
201911081830 METAR LRBS 081830Z 05003KT 030V090 CAVOK 14/12 Q1012 NOSIG=
201911081900 METAR LRBS 081900Z 07003KT CAVOK 15/12 Q1012 NOSIG=
201911081930 METAR LRBS 081930Z 07003KT CAVOK 14/12 Q1012 NOSIG=
201911082000 METAR LRBS 082000Z 06003KT CAVOK 14/12 Q1012 NOSIG=
201911082030 METAR LRBS 082030Z 09003KT CAVOK 13/11 Q1012 NOSIG=
201911082100 METAR LRBS 082100Z 07002KT 9000 NSC 12/12 Q1012 NOSIG=
201911082130 METAR LRBS 082130Z 06002KT 7000 MIFG NSC 12/11 Q1012 NOSIG=
201911082200 METAR LRBS 082200Z 05003KT 4000 MIFG BR NSC 11/11 Q1013 NOSIG=
201911082230 METAR LRBS 082230Z 07003KT 6000 MIFG NSC 11/10 Q1013 TEMPO
                        3000 BR=
201911082300 METAR LRBS 082300Z 04001KT 5000 MIFG BR NSC 11/11 Q1013 TEMPO
                        3000 BR=
201911082330 METAR LRBS 082330Z 00000KT 5000 MIFG BR NSC 11/11 Q1013=
201911090000 METAR LRBS 090000Z 32001KT 4600 MIFG BR NSC 11/10 Q1013 TEMPO
                        3000 BR=
201911090030 METAR LRBS 090030Z 00000KT 4500 R07/0450N R25/1500U MIFG
                        BR NSC 10/10 Q1013 TEMPO 3000 BR=
201911090100 METAR LRBS 090100Z 00000KT 4500 R07/0500N R25/P2000 MIFG
                        BR NSC 10/10 Q1013 TEMPO 3000 BR=
201911090130 METAR LRBS 090130Z 00000KT 5000 MIFG BR NSC 10/09 Q1013 TEMPO
                        3000 BR=
201911090200 METAR LRBS 090200Z 31001KT 5000 MIFG BR NSC 09/09 Q1014 NOSIG=
201911090230 METAR COR LRBS 090230Z 00000KT 6000 MIFG NSC 10/09 Q1014
                        NOSIG=
201911090300 METAR COR LRBS 090300Z 00000KT 6000 MIFG NSC 10/09 Q1014
                        NOSIG=
201911090330 METAR LRBS 090330Z 07001KT 3000 1000E PRFG BR NSC 08/08 Q1014
                        TEMPO 1500 BR=
201911090400 METAR LRBS 090400Z 00000KT 0800 R07/1000N R25/P2000 FG SCT001
                        09/08 Q1014 TEMPO 0600 FG=
201911090430 METAR LRBS 090430Z 00000KT 4800 MIFG BR NSC 09/08 Q1015 NOSIG=
201911090500 METAR LRBS 090500Z 24001KT 3000 MIFG BR NSC 09/09 Q1015 TEMPO
                        0800 FG=
201911090530 METAR LRBS 090530Z 00000KT 3000 MIFG BR NSC 09/09 Q1015 TEMPO
                        0800 FG=
201911090600 METAR LRBS 090600Z 00000KT 4000 MIFG BR NSC 10/09 Q1015 NOSIG=
201911090630 METAR LRBS 090630Z 00000KT 7000 NSC 11/10 Q1015 NOSIG=
201911090700 METAR LRBS 090700Z 26003KT CAVOK 13/11 Q1016 NOSIG=
201911090730 METAR LRBS 090730Z 27006KT CAVOK 12/10 Q1016 NOSIG=
201911090800 METAR LRBS 090800Z VRB02KT CAVOK 14/12 Q1016 NOSIG=
201911090830 METAR LRBS 090830Z VRB02KT CAVOK 15/12 Q1016 NOSIG=
201911090900 METAR LRBS 090900Z VRB01KT CAVOK 16/12 Q1016 NOSIG=
201911090930 METAR LRBS 090930Z VRB02KT CAVOK 17/12 Q1016 NOSIG=
201911091000 METAR LRBS 091000Z 23003KT 200V260 CAVOK 19/12 Q1015 NOSIG=
201911091030 METAR LRBS 091030Z VRB01KT CAVOK 19/12 Q1015 NOSIG=
201911091100 METAR LRBS 091100Z VRB02KT CAVOK 20/11 Q1015 NOSIG=
201911091130 METAR COR LRBS 091130Z VRB01KT CAVOK 21/10 Q1014 NOSIG=
201911091200 METAR LRBS 091200Z 00000KT CAVOK 22/10 Q1014 NOSIG=
201911091230 METAR LRBS 091230Z VRB01KT CAVOK 22/09 Q1014 NOSIG=
201911091300 METAR LRBS 091300Z VRB02KT CAVOK 22/08 Q1014 NOSIG=
201911091330 METAR LRBS 091330Z 24001KT CAVOK 22/08 Q1014 NOSIG=
201911091400 METAR LRBS 091400Z VRB01KT CAVOK 21/08 Q1014 NOSIG=
201911091430 METAR LRBS 091430Z 17001KT CAVOK 20/09 Q1014 NOSIG=
201911091500 METAR LRBS 091500Z 00000KT CAVOK 18/09 Q1014 NOSIG=
201911091530 METAR LRBS 091530Z 04003KT CAVOK 16/09 Q1014 NOSIG=
201911091600 METAR LRBS 091600Z 01001KT CAVOK 15/09 Q1014 NOSIG=
201911091630 METAR LRBS 091630Z 00000KT CAVOK 15/09 Q1014 NOSIG=
201911091700 METAR LRBS 091700Z 03001KT CAVOK 13/09 Q1014 NOSIG=
201911091730 METAR LRBS 091730Z 00000KT CAVOK 12/09 Q1014 NOSIG=
201911091800 METAR LRBS 091800Z 04001KT CAVOK 11/09 Q1014 NOSIG=
201911091830 METAR LRBS 091830Z 07001KT CAVOK 11/09 Q1014 NOSIG=
201911091900 METAR LRBS 091900Z 09001KT CAVOK 12/09 Q1014 NOSIG=
201911091930 METAR LRBS 091930Z 07003KT CAVOK 12/09 Q1014 NOSIG=
201911092000 METAR LRBS 092000Z 07003KT CAVOK 11/09 Q1014 NOSIG=
201911092030 METAR LRBS 092030Z 06003KT CAVOK 11/09 Q1014 NOSIG=
201911092100 METAR LRBS 092100Z 05002KT 9999 MIFG NSC 10/09 Q1013 BECMG
                        5000 BR=
201911092130 METAR LRBS 092130Z 03002KT 8000 NSC 09/08 Q1013 BECMG 5000
                        BR=
201911092200 METAR LRBS 092200Z 01002KT 8000 NSC 09/09 Q1013 BECMG 5000
                        BR=
201911092230 METAR LRBS 092230Z 01002KT 8000 NSC 09/08 Q1013 BECMG 5000
                        BR=
201911092300 METAR LRBS 092300Z 04001KT 8000 MIFG NSC 08/08 Q1013 BECMG
                        5000 BR=
201911092330 METAR LRBS 092330Z VRB01KT 3000 MIFG BR NSC 08/08 Q1013 BECMG
                        1500 BR=
201911100000 METAR LRBS 100000Z VRB01KT 3500 MIFG BR NSC 08/08 Q1013 BECMG
                        1500 BR=
201911100030 METAR LRBS 100030Z 08003KT 4000 MIFG BR NSC 07/07 Q1013 NOSIG=
201911100100 METAR LRBS 100100Z 08004KT 4000 MIFG BR NSC 07/07 Q1013 NOSIG=
201911100130 METAR LRBS 100130Z 06002KT 4000 BR NSC 08/07 Q1012 TEMPO
                        3000 BR=
201911100200 METAR LRBS 100200Z 07004KT 3000 MIFG BR NSC 07/07 Q1012 TEMPO
                        1500 BR=
201911100230 METAR LRBS 100230Z 08003KT 3000 MIFG BR NSC 07/06 Q1012 TEMPO
                        1500 BR=
201911100300 METAR LRBS 100300Z 05002KT 2500 MIFG BR NSC 07/07 Q1012 TEMPO
                        1500 BR=
201911100330 METAR LRBS 100330Z 04005KT 3000 MIFG BR NSC 07/07 Q1012 TEMPO
                        1500 BR=
201911100400 METAR LRBS 100400Z 05004KT 3000 MIFG BR NSC 07/07 Q1012 TEMPO
                        1500 BR=
201911100430 METAR LRBS 100430Z 05002KT 3000 MIFG BR NSC 07/07 Q1012 TEMPO
                        1500 BR=
201911100500 METAR LRBS 100500Z 03003KT 350V060 3000 MIFG BR NSC 07/07
                        Q1012 BECMG 5000=
201911100530 METAR LRBS 100530Z 06004KT 5000 BR NSC 07/07 Q1012 BECMG
                        9999 NSW=
201911100600 METAR LRBS 100600Z 04003KT 7000 NSC 09/09 Q1012 NOSIG=
201911100630 METAR LRBS 100630Z 05004KT 8000 NSC 10/09 Q1012 NOSIG=
201911100700 METAR LRBS 100700Z 07006KT CAVOK 11/10 Q1012 NOSIG=
201911100730 METAR LRBS 100730Z 07006KT CAVOK 13/11 Q1012 NOSIG=
201911100800 METAR LRBS 100800Z 07006KT CAVOK 14/11 Q1012 NOSIG=
201911100830 METAR LRBS 100830Z 07006KT 040V100 CAVOK 16/12 Q1012 NOSIG=
201911100900 METAR COR LRBS 100900Z 10006KT CAVOK 18/11 Q1012 NOSIG=
201911100930 METAR COR LRBS 100930Z 11006KT 060V140 CAVOK 19/12 Q1011
                        NOSIG=
201911101000 METAR LRBS 101000Z 13006KT 100V170 CAVOK 20/11 Q1011 NOSIG=
201911101030 METAR LRBS 101030Z 13006KT 100V180 CAVOK 20/10 Q1011 NOSIG=
201911101100 METAR LRBS 101100Z 15004KT 110V210 CAVOK 21/11 Q1011 NOSIG=
201911101130 METAR COR LRBS 101130Z 16005KT 110V220 CAVOK 21/11 Q1010
                        NOSIG=
201911101200 METAR LRBS 101200Z 19003KT 120V240 CAVOK 22/10 Q1010 NOSIG=
201911101230 METAR LRBS 101230Z VRB02KT CAVOK 22/10 Q1010 NOSIG=
201911101300 METAR LRBS 101300Z VRB03KT CAVOK 22/09 Q1010 NOSIG=
201911101330 METAR LRBS 101330Z 00000KT CAVOK 22/09 Q1010=
201911101400 METAR LRBS 101400Z 10002KT CAVOK 21/09 Q1010 NOSIG=
201911101430 METAR LRBS 101430Z 04002KT CAVOK 20/09 Q1010 NOSIG=
201911101500 METAR LRBS 101500Z 06002KT CAVOK 19/10 Q1010 NOSIG=
201911101530 METAR LRBS 101530Z VRB02KT 9999 BKN048 19/10 Q1011 NOSIG=
201911101600 METAR LRBS 101600Z VRB01KT CAVOK 18/10 Q1011 NOSIG=
201911101630 METAR COR LRBS 101630Z 00000KT CAVOK 19/10 Q1011 NOSIG=
201911101700 METAR LRBS 101700Z 29002KT CAVOK 19/10 Q1011 NOSIG=
201911101730 METAR LRBS 101730Z 00000KT CAVOK 18/10 Q1011 NOSIG=
201911101800 METAR LRBS 101800Z 29004KT CAVOK 17/10 Q1012 BECMG FEW045CB=
201911101830 METAR LRBS 101830Z VRB02KT CAVOK 16/10 Q1012 BECMG 29012KT
                        FEW045CB=
201911101900 METAR LRBS 101900Z 33003KT 280V040 9999 -RA NSC 17/11 Q1013
                        R07/19//95 BECMG 29010KT FEW045CB=
201911101930 METAR LRBS 101930Z 28004KT 230V300 9999 -RA NSC 16/12 Q1013
                        R07/29//95 BECMG 29010KT FEW045CB=
201911102000 METAR LRBS 102000Z 23003KT CAVOK 15/12 Q1014 R07/29//95 NOSIG=
201911102030 METAR LRBS 102030Z 26004KT 9999 -RA NSC 15/11 Q1014 R07/29//95
                        NOSIG=
201911102100 METAR LRBS 102100Z 28008KT 260V340 CAVOK 14/10 Q1014 R07/29//95
                        NOSIG=
201911102130 METAR LRBS 102130Z 28003KT 260V350 CAVOK 13/10 Q1014 R07/29//95
                        NOSIG=
201911102200 METAR LRBS 102200Z 26003KT CAVOK 13/10 Q1014 R07/29//95 NOSIG=
201911102230 METAR LRBS 102230Z 27003KT CAVOK 12/10 Q1015 R07/19//95 NOSIG=
201911102300 METAR LRBS 102300Z 26004KT CAVOK 12/10 Q1015 R07/19//95 NOSIG=
201911102330 METAR LRBS 102330Z 26003KT CAVOK 12/10 Q1015 R07/19//95 NOSIG=
201911110000 METAR LRBS 110000Z 25002KT CAVOK 12/09 Q1015 R07/19//95 NOSIG=
201911110030 METAR LRBS 110030Z VRB02KT CAVOK 11/09 Q1016 R07/19//95 NOSIG=
201911110100 METAR LRBS 110100Z 27004KT CAVOK 11/09 Q1016 R07/19//95 NOSIG=
201911110130 METAR LRBS 110130Z 25003KT CAVOK 10/09 Q1016 R07/19//95 NOSIG=
201911110200 METAR LRBS 110200Z 27004KT CAVOK 10/09 Q1016 R07/19//95 NOSIG=
201911110230 METAR LRBS 110230Z 27005KT CAVOK 10/09 Q1016 R07/19//95 NOSIG=
201911110300 METAR LRBS 110300Z 28005KT CAVOK 10/09 Q1016 R07/19//95 NOSIG=
201911110330 METAR LRBS 110330Z 26004KT CAVOK 09/08 Q1017 R07/19//95 NOSIG=
201911110400 METAR LRBS 110400Z 27006KT CAVOK 08/08 Q1017 R07/CLRD// NOSIG=
201911110430 METAR LRBS 110430Z 27005KT CAVOK 08/07 Q1017 NOSIG=
201911110500 METAR LRBS 110500Z 27005KT CAVOK 08/08 Q1017 NOSIG=
201911110530 METAR LRBS 110530Z AUTO 27004KT 9000 NCD 09/08 Q1018 NOSIG=
201911110600 METAR LRBS 110600Z 27005KT CAVOK 09/08 Q1018 NOSIG=
201911110630 METAR LRBS 110630Z 26005KT CAVOK 10/08 Q1019 NOSIG=
201911110700 METAR LRBS 110700Z 26006KT CAVOK 11/09 Q1018 NOSIG=
201911110730 METAR COR LRBS 110730Z 26007KT 240V300 CAVOK 12/10 Q1019
                        NOSIG=
201911110800 METAR LRBS 110800Z 25007KT CAVOK 12/10 Q1019 NOSIG=
201911110830 METAR LRBS 110830Z 26006KT CAVOK 11/09 Q1019 NOSIG=
201911110900 METAR LRBS 110900Z 25006KT CAVOK 13/10 Q1019 NOSIG=
201911110930 METAR LRBS 110930Z 24007KT CAVOK 15/10 Q1019 NOSIG=
201911111000 METAR LRBS 111000Z 25007KT CAVOK 16/09 Q1019 NOSIG=
201911111030 METAR LRBS 111030Z 25009KT CAVOK 16/09 Q1018 NOSIG=
201911111100 METAR LRBS 111100Z 25009KT CAVOK 18/09 Q1018 NOSIG=
201911111130 METAR LRBS 111130Z 24009KT CAVOK 18/09 Q1018 NOSIG=
201911111200 METAR LRBS 111200Z 25008KT 230V300 CAVOK 19/08 Q1018 NOSIG=
201911111230 METAR LRBS 111230Z 26006KT 230V290 CAVOK 19/08 Q1018 NOSIG=
201911111300 METAR LRBS 111300Z 24007KT CAVOK 19/07 Q1018 NOSIG=
201911111330 METAR LRBS 111330Z 24007KT CAVOK 18/07 Q1018 NOSIG=
201911111400 METAR LRBS 111400Z 26007KT CAVOK 18/07 Q1018 NOSIG=
201911111430 METAR LRBS 111430Z 25005KT CAVOK 18/07 Q1018 NOSIG=
201911111500 METAR LRBS 111500Z 23002KT CAVOK 16/07 Q1018 NOSIG=
201911111530 METAR LRBS 111530Z VRB02KT CAVOK 16/07 Q1018 NOSIG=
201911111600 METAR LRBS 111600Z 25001KT CAVOK 15/07 Q1019 NOSIG=
201911111630 METAR LRBS 111630Z 00000KT CAVOK 14/07 Q1019 NOSIG=
201911111700 METAR LRBS 111700Z 00000KT CAVOK 14/07 Q1019 NOSIG=
201911111730 METAR LRBS 111730Z 00000KT CAVOK 09/06 Q1019 NOSIG=
201911111800 METAR LRBS 111800Z 36002KT CAVOK 11/07 Q1019 NOSIG=
201911111830 METAR LRBS 111830Z VRB01KT CAVOK 10/06 Q1019=
201911111900 METAR LRBS 111900Z 00000KT CAVOK 10/07 Q1019 NOSIG=
201911111930 METAR LRBS 111930Z 08002KT CAVOK 07/05 Q1019=
201911112000 METAR LRBS 112000Z 00000KT CAVOK 09/06 Q1019 NOSIG=
201911112030 METAR LRBS 112030Z 09001KT CAVOK 07/06 Q1019 NOSIG=
201911112100 METAR LRBS 112100Z 00000KT CAVOK 08/06 Q1019 NOSIG=
201911112130 METAR LRBS 112130Z 00000KT CAVOK 07/06 Q1019 NOSIG=
201911112200 METAR LRBS 112200Z 00000KT CAVOK 07/06 Q1019 NOSIG=
201911112230 METAR LRBS 112230Z 02003KT CAVOK 07/06 Q1019 NOSIG=
201911112300 METAR LRBS 112300Z 07002KT CAVOK 07/06 Q1019 NOSIG=
201911112330 METAR LRBS 112330Z 05002KT CAVOK 07/05 Q1019 NOSIG=
201911120000 METAR LRBS 120000Z 07003KT CAVOK 07/06 Q1019 NOSIG=
201911120030 METAR LRBS 120030Z 02005KT CAVOK 09/06 Q1019 NOSIG=
201911120100 METAR LRBS 120100Z 04002KT 8000 BKN040 08/07 Q1019 NOSIG=
201911120130 METAR LRBS 120130Z 04003KT 8000 BKN035 08/06 Q1018 NOSIG=
201911120200 METAR LRBS 120200Z 05003KT 8000 NSC 07/06 Q1018 NOSIG=
201911120230 METAR LRBS 120230Z 04003KT 360V070 8000 NSC 07/06 Q1018 NOSIG=
201911120300 METAR LRBS 120300Z 04003KT 8000 NSC 07/06 Q1018 NOSIG=
201911120330 METAR LRBS 120330Z 04003KT 8000 NSC 07/06 Q1019 NOSIG=
201911120400 METAR LRBS 120400Z 05003KT 8000 NSC 07/06 Q1018 NOSIG=
201911120430 METAR LRBS 120430Z 05004KT 8000 NSC 07/06 Q1018 NOSIG=
201911120500 METAR LRBS 120500Z 05004KT 8000 NSC 07/06 Q1019 NOSIG=
201911120530 METAR LRBS 120530Z 05004KT 8000 NSC 07/06 Q1019 NOSIG=
201911120600 METAR LRBS 120600Z 05005KT CAVOK 08/07 Q1019 NOSIG=
201911120630 METAR LRBS 120630Z 05006KT CAVOK 09/08 Q1019 NOSIG=
201911120700 METAR LRBS 120700Z 05006KT CAVOK 10/08 Q1019 NOSIG=
201911120730 METAR LRBS 120730Z 05007KT CAVOK 11/09 Q1019 NOSIG=
201911120800 METAR LRBS 120800Z 05007KT 9999 BKN006 13/10 Q1019 NOSIG=
201911120830 METAR LRBS 120830Z 05006KT 9999 FEW006 14/11 Q1019 NOSIG=
201911120900 METAR LRBS 120900Z 03007KT 360V060 9999 FEW006 14/11 Q1019
                        NOSIG=
201911120930 METAR LRBS 120930Z 06008KT 9999 FEW006 15/12 Q1019 NOSIG=
201911121000 METAR LRBS 121000Z 05008KT 9999 FEW011 16/12 Q1018 NOSIG=
201911121030 METAR LRBS 121030Z 05010KT 9999 FEW011 16/13 Q1018 NOSIG=
201911121100 METAR LRBS 121100Z 05010KT 9999 FEW009 17/13 Q1017 NOSIG=
201911121130 METAR LRBS 121130Z 05009KT 9999 FEW011 17/14 Q1017 NOSIG=
201911121200 METAR LRBS 121200Z 05011KT CAVOK 18/14 Q1017 NOSIG=
201911121230 METAR LRBS 121230Z 04008KT 010V070 CAVOK 19/14 Q1016 NOSIG=
201911121300 METAR LRBS 121300Z 06010KT CAVOK 21/15 Q1016 NOSIG=
201911121330 METAR LRBS 121330Z 07012KT CAVOK 21/14 Q1016 NOSIG=
201911121400 METAR LRBS 121400Z 07008KT CAVOK 20/14 Q1016 NOSIG=
201911121430 METAR LRBS 121430Z 06005KT CAVOK 19/14 Q1016 NOSIG=
201911121500 METAR LRBS 121500Z 05004KT CAVOK 17/13 Q1016 NOSIG=
201911121530 METAR LRBS 121530Z 06007KT CAVOK 15/12 Q1016 NOSIG=
201911121600 METAR LRBS 121600Z 07008KT CAVOK 15/12 Q1016 NOSIG=
201911121630 METAR LRBS 121630Z 07009KT CAVOK 16/13 Q1016 NOSIG=
201911121700 METAR LRBS 121700Z 07010KT CAVOK 16/12 Q1016 NOSIG=
201911121730 METAR LRBS 121730Z 06009KT CAVOK 15/12 Q1016 NOSIG=
201911121800 METAR LRBS 121800Z 06009KT CAVOK 14/12 Q1016 NOSIG=
201911121830 METAR LRBS 121830Z 06009KT CAVOK 13/11 Q1016 NOSIG=
201911121900 METAR LRBS 121900Z 06010KT CAVOK 13/12 Q1017 NOSIG=
201911121930 METAR LRBS 121930Z 07008KT CAVOK 12/11 Q1017 NOSIG=
201911122000 METAR LRBS 122000Z 05010KT 8000 BKN006 13/12 Q1016 BECMG
                        5000 BR BKN005=
201911122030 METAR LRBS 122030Z 06009KT 5000 BR OVC005 13/12 Q1017 NOSIG=
201911122100 METAR LRBS 122100Z 04011KT 6000 OVC006 13/12 Q1016 NOSIG=
201911122130 METAR LRBS 122130Z 05010KT 8000 FEW007 BKN010 14/12 Q1016
                        NOSIG=
201911122200 METAR LRBS 122200Z 05011KT 8000 BKN010 14/12 Q1016 NOSIG=
201911122230 METAR LRBS 122230Z 05011KT 8000 FEW009 SCT012 14/12 Q1016
                        NOSIG=
201911122300 METAR LRBS 122300Z 06012KT 7000 BKN012 14/12 Q1015 NOSIG=
201911122330 METAR LRBS 122330Z 06012KT 8000 BKN012 14/12 Q1015 NOSIG=
201911130000 METAR LRBS 130000Z 06014KT 9000 BKN012 14/12 Q1015 NOSIG=
201911130030 METAR LRBS 130030Z AUTO 06012KT 9000 OVC012/// 14/12 Q1015
                        NOSIG=
201911130100 METAR LRBS 130100Z AUTO 06012KT 7000 BR FEW010/// OVC013///
                        14/12 Q1015 NOSIG=
201911130130 METAR LRBS 130130Z AUTO 05011KT 020V080 6000 BR BKN012///
                        13/12 Q1015 NOSIG=
201911130200 METAR LRBS 130200Z 06010KT 7000 OVC014 13/12 Q1015 NOSIG=
201911130230 METAR LRBS 130230Z 06012KT 8000 OVC010 13/12 Q1014 NOSIG=
201911130300 METAR LRBS 130300Z 06011KT 8000 BKN008 13/12 Q1014 NOSIG=
201911130330 METAR COR LRBS 130330Z 06011KT 7000 BKN009 13/12 Q1014 NOSIG=
201911130400 METAR LRBS 130400Z 06012KT 7000 OVC008 13/12 Q1014 NOSIG=
201911130430 METAR LRBS 130430Z 06013KT 7000 SCT007 BKN012 13/12 Q1014
                        NOSIG=
201911130500 METAR LRBS 130500Z 06012KT 6000 BKN007 OVC010 13/12 Q1013
                        NOSIG=
201911130530 METAR LRBS 130530Z 05011KT 6000 BKN007 OVC012 14/12 Q1013
                        NOSIG=
201911130600 METAR COR LRBS 130600Z 06012KT 6000 BKN007 OVC014 14/13 Q1013
                        NOSIG=
201911130630 METAR LRBS 130630Z 06011KT 7000 BKN007 BKN013 14/13 Q1014
                        NOSIG=
201911130700 METAR LRBS 130700Z 05013KT 7000 FEW007 BKN009 BKN015 14/13
                        Q1013 NOSIG=
201911130730 METAR LRBS 130730Z 06012KT 7000 BKN008 BKN015 15/13 Q1013
                        NOSIG=
201911130800 METAR LRBS 130800Z 06012KT 7000 BKN009 OVC015 15/13 Q1014
                        NOSIG=
201911130830 METAR LRBS 130830Z 06011KT 7000 OVC009 15/13 Q1014 NOSIG=
201911130900 METAR LRBS 130900Z 06011KT 7000 BKN010 OVC017 15/13 Q1013
                        NOSIG=
201911130930 METAR LRBS 130930Z 05011KT 7000 BKN010 OVC016 15/13 Q1014
                        BECMG BKN015 BKN020=
201911131000 METAR LRBS 131000Z 06012KT 8000 OVC010 15/13 Q1013 BECMG
                        BKN015 BKN020=
201911131030 METAR LRBS 131030Z 05012KT 9000 BKN010 16/13 Q1013 BECMG
                        BKN015=
201911131100 METAR LRBS 131100Z 07013KT 9000 SCT012 16/13 Q1012 NOSIG=
201911131130 METAR LRBS 131130Z 06013KT 9999 FEW012 18/14 Q1012 NOSIG=
201911131200 METAR LRBS 131200Z 06012KT 9999 FEW016 18/14 Q1012 NOSIG=
201911131230 METAR LRBS 131230Z 07012KT CAVOK 18/13 Q1012 NOSIG=
201911131300 METAR LRBS 131300Z 07009KT 040V100 9999 -SHRA FEW040CB 18/14
                        Q1012 NOSIG=
201911131330 METAR LRBS 131330Z 07008KT 9000 FEW040CB 17/14 Q1012 NOSIG=
201911131400 METAR COR LRBS 131400Z 07008KT 9000 -RA NSC 17/14 Q1012 NOSIG=
201911131430 METAR LRBS 131430Z 07010KT 9000 NSC 17/14 Q1012 NOSIG=
201911131500 METAR LRBS 131500Z 06010KT CAVOK 17/14 Q1012 NOSIG=
201911131530 METAR LRBS 131530Z 07009KT 9000 NSC 17/14 Q1012 NOSIG=
201911131600 METAR LRBS 131600Z 07009KT 9000 NSC 16/14 Q1012 NOSIG=
201911131630 METAR LRBS 131630Z 07008KT 8000 NSC 16/14 Q1012 NOSIG=
201911131700 METAR LRBS 131700Z 06008KT 8000 NSC 16/14 Q1012 NOSIG=
201911131730 METAR LRBS 131730Z 06006KT 8000 -RA NSC 16/14 Q1012 NOSIG=
201911131800 METAR LRBS 131800Z 06005KT 8000 NSC 15/14 Q1012 NOSIG=
201911131830 METAR LRBS 131830Z 07004KT 7000 -RA NSC 15/14 Q1012 NOSIG=
201911131900 METAR LRBS 131900Z 06003KT 010V090 7000 -RA NSC 15/14 Q1012
                        NOSIG=
201911131930 METAR LRBS 131930Z 06006KT 8000 NSC 15/14 Q1012 NOSIG=
201911132000 METAR LRBS 132000Z 07007KT 8000 -RA NSC 15/13 Q1012 NOSIG=
201911132030 METAR LRBS 132030Z 04005KT 8000 NSC 15/13 Q1012 NOSIG=
201911132100 METAR LRBS 132100Z 05005KT 8000 NSC 15/13 Q1012 NOSIG=
201911132130 METAR LRBS 132130Z 05006KT 8000 NSC 15/13 Q1012 NOSIG=
201911132200 METAR LRBS 132200Z 05006KT 8000 NSC 14/13 Q1012 NOSIG=
201911132230 METAR COR LRBS 132230Z 04005KT 7000 NSC 14/13 Q1012 BECMG
                        5000 BR=
201911132300 METAR LRBS 132300Z 04004KT 5000 BR NSC 14/13 Q1012 BECMG
                        3000 BR=
201911132330 METAR LRBS 132330Z 05005KT 3000 BR NSC 13/13 Q1011 TEMPO
                        1500 BR=
201911140000 METAR LRBS 140000Z 05006KT 3000 BR NSC 13/13 Q1011 TEMPO
                        1500 BR=
201911140030 METAR LRBS 140030Z 02005KT 350V050 3000 BR SCT004 13/13 Q1011
                        NOSIG=
201911140100 METAR LRBS 140100Z 36005KT 3000 BR BKN004 14/13 Q1012 NOSIG=
201911140130 METAR LRBS 140130Z 02007KT 3000 BR BKN004 14/13 Q1012 TEMPO
                        1500 BR=
201911140200 METAR LRBS 140200Z 03006KT 3000 BR BKN004 14/13 Q1012 TEMPO
                        1500 BR=
201911140230 METAR LRBS 140230Z 04009KT 3000 BR BKN004 14/13 Q1012 TEMPO
                        1500 BR=
201911140300 METAR LRBS 140300Z 04009KT 010V080 3000 BR BKN004 14/13 Q1012
                        TEMPO 1500 RA=
201911140330 METAR LRBS 140330Z 05010KT 3000 BR OVC004 14/13 Q1012 TEMPO
                        1500 RA=
201911140400 METAR LRBS 140400Z 06010KT 030V090 3000 BR OVC004 14/13 Q1012
                        NOSIG=
201911140430 METAR LRBS 140430Z 06011KT 5000 BR OVC005 14/13 Q1012 NOSIG=
201911140500 METAR LRBS 140500Z 06012KT 6000 OVC006 14/13 Q1012 NOSIG=
201911140530 METAR LRBS 140530Z 06009KT 020V090 2000 BR OVC005 14/13 Q1013
                        NOSIG=
201911140600 METAR LRBS 140600Z 05010KT 2000 BR OVC005 14/13 Q1013 NOSIG=
201911140630 METAR LRBS 140630Z 04012KT 3000 BR BKN006 OVC013 14/13 Q1012
                        NOSIG=
201911140700 METAR LRBS 140700Z 05011KT 5000 BR BKN007 OVC016 14/12 Q1013
                        BECMG 9999 NSW BKN010 OVC020=
201911140730 METAR COR LRBS 140730Z 05010KT 8000 SCT008 OVC019 14/12 Q1013
                        BECMG BKN010 OVC020=
201911140800 METAR LRBS 140800Z 05011KT 020V080 9999 BKN008 OVC021 14/12
                        Q1013 BECMG SCT015 BKN025=
201911140830 METAR LRBS 140830Z 06010KT 9999 BKN008 OVC021 14/12 Q1013
                        BECMG SCT015 BKN025=
201911140900 METAR LRBS 140900Z 04011KT 010V070 9999 BKN009 OVC023 14/12
                        Q1013 BECMG SCT015 BKN025=
201911140930 METAR LRBS 140930Z 05012KT 9999 SCT010 OVC022 14/12 Q1013
                        NOSIG=
201911141000 METAR LRBS 141000Z 05013KT 020V080 9999 SCT014 BKN023 15/11
                        Q1013 NOSIG=
201911141030 METAR LRBS 141030Z 06009KT 9999 SCT015 BKN022 15/11 Q1013
                        NOSIG=
201911141100 METAR LRBS 141100Z 05013KT 9999 SCT016 BKN027 15/11 Q1012
                        NOSIG=
201911141130 METAR LRBS 141130Z 05012KT 9999 SCT016 BKN022 15/11 Q1013
                        NOSIG=
201911141200 METAR LRBS 141200Z 04010KT 360V060 9999 BKN016 OVC026 14/11
                        Q1012 NOSIG=
201911141230 METAR LRBS 141230Z 04010KT 9999 BKN015 OVC030 14/11 Q1012
                        NOSIG=
201911141300 METAR LRBS 141300Z 04010KT 9999 SCT013 OVC029 14/11 Q1012
                        NOSIG=
201911141330 METAR LRBS 141330Z 05010KT 9999 SCT014 OVC030 14/11 Q1012
                        NOSIG=
201911141400 METAR LRBS 141400Z 04010KT 9999 SCT014 OVC030 14/11 Q1012
                        NOSIG=
201911141430 METAR LRBS 141430Z 03012KT 9999 SCT014 OVC030 14/11 Q1012
                        NOSIG=
201911141500 METAR LRBS 141500Z 04009KT 010V070 9999 FEW014 OVC032 14/11
                        Q1012 BECMG 5000 -RA BKN015 OVC030=
201911141530 METAR LRBS 141530Z 05010KT 020V090 9999 BKN023 OVC034 13/10
                        Q1012 BECMG 5000 -RA BKN015 OVC030=
201911141600 METAR LRBS 141600Z 04012KT 9999 BKN020 OVC029 13/10 Q1012
                        BECMG 5000 -RA BKN015 OVC030=
201911141630 METAR LRBS 141630Z 04011KT 9999 BKN019 OVC036 13/10 Q1012
                        NOSIG=
201911141700 METAR LRBS 141700Z 05013KT 9999 OVC019 13/10 Q1013 NOSIG=
201911141730 METAR LRBS 141730Z 04011KT 9000 -RA OVC020 13/10 Q1013 NOSIG=
201911141800 METAR LRBS 141800Z 05013KT 7000 -RA OVC019 12/10 Q1013 NOSIG=
201911141830 METAR LRBS 141830Z 04013KT 010V070 9000 OVC016 12/10 Q1013
                        NOSIG=
201911141900 METAR LRBS 141900Z 04011KT 7000 -RA OVC016 12/10 Q1013 NOSIG=
201911141930 METAR LRBS 141930Z 04011KT 6000 -RA OVC016 12/10 Q1013 NOSIG=
201911142000 METAR LRBS 142000Z 03012KT 6000 -RA SCT009 BKN015 OVC036
                        12/10 Q1013 NOSIG=
201911142030 METAR LRBS 142030Z 03012KT 5000 -RA BR BKN007 OVC015 11/10
                        Q1013 NOSIG=
201911142100 METAR LRBS 142100Z 03012KT 5000 -RA BR FEW005 BKN007 OVC014
                        11/10 Q1013 NOSIG=
201911142130 METAR LRBS 142130Z 04011KT 010V070 4000 -RA BR BKN006 OVC012
                        11/10 Q1013 NOSIG=
201911142200 METAR LRBS 142200Z 04012KT 3500 SHRA BR BKN006 BKN012 FEW030CB
                        11/10 Q1013 R07/29//95 NOSIG=
201911142230 METAR LRBS 142230Z 04012KT 4000 RA BR BKN006 OVC012 11/10
                        Q1013 R07/29//95 NOSIG=
201911142300 METAR LRBS 142300Z 04010KT 360V060 4500 -RA BR BKN005 OVC012
                        11/10 Q1012 RERA R07/29//95 BECMG
                        6000 NSW=
201911142330 METAR LRBS 142330Z 04011KT 3200 SHRA BR BKN005 FEW030CB 11/10
                        Q1013 R07/29//95 NOSIG=
201911150000 METAR LRBS 150000Z 05009KT 4500 -SHRA BR FEW004 BKN005 FEW030CB
                        11/10 Q1013 RESHRA R07/29//95 BECMG
                        6000 -RA=
201911150030 METAR LRBS 150030Z 04008KT 010V070 6000 BKN004 FEW030CB 11/10
                        Q1013 R07/29//95 NOSIG=
201911150100 METAR LRBS 150100Z 04010KT 6000 OVC005 11/10 Q1013 R07/29//95
                        NOSIG=
201911150130 METAR LRBS 150130Z 04011KT 7000 BKN005 OVC009 11/10 Q1013
                        R07/29//95 NOSIG=
201911150200 METAR LRBS 150200Z 04010KT 7000 OVC004 11/10 Q1013 R07/29//95
                        NOSIG=
201911150230 METAR LRBS 150230Z 04010KT 010V070 6000 -RA OVC004 10/10
                        Q1013 R07/29//95 NOSIG=
201911150300 METAR LRBS 150300Z 05009KT 6000 OVC004 10/10 Q1013 R07/29//95
                        NOSIG=
201911150330 METAR LRBS 150330Z 05009KT 6000 OVC004 10/10 Q1013 R07/29//95
                        NOSIG=
201911150400 METAR LRBS 150400Z 05005KT 020V080 5000 BR OVC003 11/10 Q1014
                        R07/29//95 NOSIG=
201911150430 METAR LRBS 150430Z 05006KT 5000 BR OVC003 11/10 Q1014 R07/29//95
                        NOSIG=
201911150500 METAR LRBS 150500Z 06006KT 5000 BR OVC003 11/10 Q1014 R07/29//95
                        NOSIG=
201911150530 METAR LRBS 150530Z 05005KT 020V080 4200 BR OVC003 11/10 Q1015
                        R07/29//95 NOSIG=
201911150600 METAR LRBS 150600Z 05003KT 4100 BR OVC003 11/10 Q1015 R07/29//95
                        NOSIG=
201911150630 METAR COR LRBS 150630Z 05005KT 3800 BR OVC003 11/10 Q1016
                        R07/29//95 NOSIG=
201911150700 METAR LRBS 150700Z 04004KT 3000 BR OVC003 11/10 Q1016 R07/29//95
                        NOSIG=
201911150730 METAR LRBS 150730Z 07005KT 3000 BR OVC003 11/10 Q1016 R07/29//95
                        NOSIG=
201911150800 METAR LRBS 150800Z 05005KT 2500 BR OVC002 11/10 Q1016 R07/29//95
                        NOSIG=
201911150830 METAR LRBS 150830Z 04004KT 010V070 2500 BR OVC002 11/11 Q1017
                        R07/29//95 NOSIG=
201911150900 METAR LRBS 150900Z 05004KT 3000 BR OVC002 11/11 Q1017 R07/29//95
                        NOSIG=
201911150930 METAR LRBS 150930Z 07004KT 2600 BR OVC002 11/11 Q1018 R07/29//95
                        NOSIG=
201911151000 METAR COR LRBS 151000Z 06003KT 3000 BR OVC002 11/11 Q1018
                        R07/29//95 NOSIG=
201911151030 METAR LRBS 151030Z 07003KT 040V100 4000 BR OVC002 11/11 Q1018
                        R07/29//95 BECMG 5000 OVC005=
201911151100 METAR LRBS 151100Z 08002KT 4300 BR OVC003 11/11 Q1018 R07/29//95
                        BECMG 5000 OVC005=
201911151130 METAR LRBS 151130Z 07003KT 5000 BR FEW003 BKN004 12/11 Q1018
                        R07/29//95 BECMG OVC005=
201911151200 METAR LRBS 151200Z 07003KT 020V100 5000 BR OVC004 12/11 Q1018
                        R07/29//95 NOSIG=
201911151230 METAR LRBS 151230Z VRB02KT 5000 BR OVC004 12/11 Q1018 R07/29//95
                        NOSIG=
201911151300 METAR LRBS 151300Z 07002KT 5000 BR OVC004 12/11 Q1018 R07/29//95
                        NOSIG=
201911151330 METAR LRBS 151330Z 06002KT 5000 BR BKN004 OVC017 12/11 Q1019
                        R07/29//95 NOSIG=
201911151400 METAR LRBS 151400Z 03002KT 5000 BR FEW006 OVC018 12/11 Q1019
                        R07/29//95 NOSIG=
201911151430 METAR COR LRBS 151430Z 03002KT 6000 BR BKN005 OVC017 12/11
                        Q1019 R07/29//95 NOSIG=
201911151500 METAR LRBS 151500Z 06003KT 6000 BR OVC005 12/11 Q1019 R07/29//95
                        NOSIG=
201911151530 METAR LRBS 151530Z 07003KT 6000 BR BKN005 12/11 Q1019 R07/29//95
                        NOSIG=
201911151600 METAR LRBS 151600Z 06003KT 5000 BR SCT006 OVC015 12/11 Q1020
                        R07/29//95 NOSIG=
201911151630 METAR LRBS 151630Z 06003KT 5000 BR SCT005 OVC017 12/11 Q1020
                        R07/29//95 NOSIG=
201911151700 METAR LRBS 151700Z 07003KT 5000 BR SCT006 OVC017 12/11 Q1020
                        R07/29//95 NOSIG=
201911151730 METAR LRBS 151730Z VRB01KT 5000 BR OVC018 12/11 Q1020 R07/29//95
                        NOSIG=
201911151800 METAR LRBS 151800Z 06003KT 3000 BR SCT005 OVC017 12/11 Q1021
                        R07/29//95 NOSIG=
201911151830 METAR LRBS 151830Z VRB01KT 2500 BR OVC017 12/11 Q1021 R07/29//95
                        NOSIG=
201911151900 METAR LRBS 151900Z 01004KT 3000 BR BKN016 12/11 Q1021 R07/29//95
                        NOSIG=
201911151930 METAR LRBS 151930Z 01004KT 1400 R07/1300 R25/2000 BR FEW016
                        10/10 Q1021 R07/29//95 BECMG BKN005=
201911152000 METAR LRBS 152000Z 02004KT 0400 R07/0350N R25/P2000 FG BKN001
                        10/10 Q1021 R07/29//95 TEMPO 1500
                        BR=
201911152030 METAR LRBS 152030Z 36003KT 0600 R07/0700N R25/0800U FG BKN001
                        11/10 Q1021 R07/29//95 TEMPO 1500
                        BR BKN002=
201911152100 METAR LRBS 152100Z 02001KT 0300 R07/0400N R25/0500 FG BKN001
                        10/10 Q1021 R07/29//95 NOSIG=
201911152130 METAR LRBS 152130Z 36001KT 0400 R07/0450N R25/0500N FG BKN001
                        10/10 Q1021 R07/29//95 NOSIG=
201911152200 METAR LRBS 152200Z 34002KT 0400 R07/0600N R25/1000U FG BKN001
                        10/10 Q1021 R07/29//95 NOSIG=
201911152230 METAR LRBS 152230Z 07001KT 0300 R07/0400N R25/0500N FG OVC001
                        09/09 Q1021 R07/29//95 NOSIG=
201911152300 METAR LRBS 152300Z 06003KT 0300 R07/0550N R25/0500N FG OVC001
                        09/08 Q1021 R07/29//95 NOSIG=
201911152330 METAR LRBS 152330Z 08003KT 0300 R07/0500N R25/0550N FG OVC001
                        08/08 Q1021 R07/29//95 TEMPO 0600
                        BKN002=
201911160000 METAR LRBS 160000Z 07003KT 0300 R07/0500N R25/0500N FG OVC001
                        08/08 Q1021 R07/29//95 TEMPO 0600
                        BKN002=
201911160030 METAR LRBS 160030Z 05002KT 0300 R07/0600N R25/0900N FG OVC001
                        08/08 Q1021 R07/29//95 NOSIG=
201911160100 METAR LRBS 160100Z 04003KT 0300 R07/0800N R25/0600N FG OVC002
                        08/08 Q1021 R07/29//95 NOSIG=
201911160130 METAR LRBS 160130Z 05004KT 0300 R07/0600N R25/0600N FG VV002
                        08/08 Q1021 R07/29//95 NOSIG=
201911160200 METAR LRBS 160200Z 05005KT 0300 R07/0750N R25/0600N FG VV002
                        08/08 Q1021 R07/29//95 NOSIG=
201911160230 METAR LRBS 160230Z 05003KT 0300 R07/0700N R25/0600N FG VV002
                        07/07 Q1021 R07/29//95 NOSIG=
201911160300 METAR LRBS 160300Z 05004KT 0300 R07/0650N R25/0650N FG VV002
                        08/08 Q1022 R07/29//95 NOSIG=
201911160330 METAR LRBS 160330Z 06004KT 0300 R07/0600N R25/0600N FG VV002
                        08/08 Q1022 R07/29//95 NOSIG=
201911160400 METAR LRBS 160400Z 06005KT 0300 R07/0700U R25/0650N FG VV002
                        07/07 Q1022 R07/29//95 NOSIG=
201911160430 METAR LRBS 160430Z VRB02KT 0300 R07/0600N R25/0500N FG VV002
                        08/08 Q1022 R07/29//95 NOSIG=
201911160500 METAR LRBS 160500Z 33002KT 0300 R07/0700U R25/0800N FG VV002
                        08/08 Q1022 R07/29//95 NOSIG=
201911160530 METAR LRBS 160530Z 36003KT 330V050 0300 R07/0750N R25/0700N
                        FG VV002 08/08 Q1023 R07/29//95 NOSIG=
201911160600 METAR LRBS 160600Z 03003KT 0300 R07/0750N R25/0800N FG VV002
                        08/08 Q1023 R07/29//95 NOSIG=
201911160630 METAR LRBS 160630Z VRB02KT 0300 R07/0750N R25/0750N FG VV002
                        09/09 Q1023 R07/29//95 BECMG 0800=
201911160700 METAR LRBS 160700Z VRB02KT 0300 R07/0650N R25/0650N FG VV002
                        09/09 Q1023 R07/29//95 BECMG 0600=
201911160730 METAR LRBS 160730Z 04004KT 360V070 0400 R07/0900U R25/0800N
                        FG VV002 09/09 Q1023 R07/29//95 BECMG
                        0600=
201911160800 METAR LRBS 160800Z 05003KT 010V110 0350 R07/0650N R25/0700N
                        FG VV002 09/09 Q1023 R07/29//95 BECMG
                        0600=
201911160830 METAR LRBS 160830Z 03003KT 330V070 0300 R07/0500N R25/0900N
                        FG VV002 10/10 Q1024 R07/29//95 BECMG
                        0600=
201911160900 METAR LRBS 160900Z 02003KT 350V070 0300 R07/0600N R25/0700N
                        FG VV002 10/10 Q1023 R07/29//95 BECMG
                        0600=
201911160930 METAR LRBS 160930Z 04003KT 350V080 0300 R07/0650N R25/0750N
                        FG VV002 10/10 Q1023 R07/29//95 BECMG
                        0600=
201911161000 METAR LRBS 161000Z 07003KT 040V100 0300 R07/0700N R25/0900U
                        FG VV002 10/10 Q1023 R07/29//95 BECMG
                        0600=
201911161030 METAR LRBS 161030Z 07002KT 010V100 0500 R07/1000U R25/1000N
                        FG OVC002 11/11 Q1023 R07/29//95
                        BECMG 0800=
201911161100 METAR LRBS 161100Z 10002KT 050V160 0450 R07/0700 R25/0600
                        FG OVC002 11/11 Q1022 R07/29//95
                        NOSIG=
201911161130 METAR LRBS 161130Z 06004KT 0700 R07/0800 R25/0800 FG OVC002
                        11/11 Q1022 R07/29//95 NOSIG=
201911161200 METAR LRBS 161200Z VRB01KT 0700 R07/0800 R25/1200U FG OVC002
                        11/11 Q1022 R07/29//95 NOSIG=
201911161230 METAR LRBS 161230Z VRB01KT 1000 R07/1200D R25/1400N BR OVC002
                        11/11 Q1022 R07/29//95 TEMPO 1500
                        BR BKN005=
201911161300 METAR LRBS 161300Z VRB01KT 1000 R07/1100N R25/1300 BR OVC002
                        11/11 Q1022 R07/29//95 TEMPO 1500
                        BR BKN005=
201911161330 METAR LRBS 161330Z VRB01KT 0800 R07/1200 R25/1300U FG OVC002
                        11/11 Q1022 R07/29//95 TEMPO 0600
                        FG=
201911161400 METAR LRBS 161400Z 02002KT 360V060 0300 R07/0800 R25/0375
                        FG OVC002 11/11 Q1022 R07/29//95
                        NOSIG=
201911161430 METAR LRBS 161430Z 05003KT 010V090 0300 R07/0700N R25/0650D
                        FG OVC002 11/11 Q1022 R07/29//95
                        NOSIG=
201911161500 METAR LRBS 161500Z 36003KT 320V020 0300 R07/0650N R25/0600N
                        FG VV001 11/11 Q1022 R07/29//95 NOSIG=
201911161530 METAR LRBS 161530Z 02003KT 350V050 0300 R07/0650N R25/0650N
                        FG VV001 11/11 Q1022 R07/29//95 NOSIG=
201911161600 METAR LRBS 161600Z 04004KT 360V060 0300 R07/0600N R25/0650N
                        FG VV001 10/10 Q1022 R07/29//95 NOSIG=
201911161630 METAR LRBS 161630Z 07005KT 0300 R07/0750N R25/0800N FG VV001
                        10/10 Q1022 R07/29//95 NOSIG=
201911161700 METAR LRBS 161700Z 05004KT 360V070 0300 R07/0800 R25/0700N
                        FG VV001 10/10 Q1023 R07/29//95 NOSIG=
201911161730 METAR LRBS 161730Z 03003KT 360V060 0400 R07/0800U R25/0800U
                        FG VV002 10/10 Q1023 R07/29//95 NOSIG=
201911161800 METAR LRBS 161800Z 02003KT 350V050 0400 R07/0800N R25/0650N
                        FG VV001 10/10 Q1023 R07/29//95 NOSIG=
201911161830 METAR LRBS 161830Z 02002KT 350V050 0400 R07/0800N R25/0750N
                        FG VV002 10/10 Q1023 R07/29//95 NOSIG=
201911161900 METAR LRBS 161900Z 36004KT 0400 R07/0700N R25/0700N FG VV001
                        10/10 Q1023 R07/29//95 NOSIG=
201911161930 METAR LRBS 161930Z AUTO 04004KT 0550 R07/0650N R25/0600N
                        FG VV002 10/10 Q1023 NOSIG=
201911162000 METAR LRBS 162000Z 04004KT 0300 R07/0600N R25/0650N FG VV001
                        10/10 Q1023 R07/29//95 NOSIG=
201911162030 METAR LRBS 162030Z 06004KT 0300 R07/0550N R25/0550N FG VV001
                        10/10 Q1023 R07/29//95 NOSIG=
201911162100 METAR COR LRBS 162100Z 06006KT 0400 R07/0700N R25/0650N FG
                        VV002 10/10 Q1023 R07/29//95 NOSIG=
201911162130 METAR LRBS 162130Z 05004KT 010V080 0300 R07/0700N R25/0600N
                        FG VV001 10/10 Q1023 R07/29//95 NOSIG=
201911162200 METAR LRBS 162200Z 05004KT 0400 R07/0700N R25/0700N FG VV001
                        10/10 Q1023 R07/29//95 NOSIG=
201911162230 METAR LRBS 162230Z 04005KT 010V070 0400 R07/0750N R25/0750N
                        FG VV001 10/10 Q1023 R07/29//95 NOSIG=
201911162300 METAR LRBS 162300Z 05005KT 0400 R07/0700N R25/0700N FG VV002
                        10/10 Q1023 R07/29//95 NOSIG=
201911162330 METAR LRBS 162330Z 05006KT 020V080 0400 R07/0700N R25/0650N
                        FG VV002 10/10 Q1023 R07/29//95 NOSIG=
201911170000 METAR LRBS 170000Z 06007KT 0400 R07/0800N R25/0800N FG VV002
                        10/10 Q1023 R07/29//95 NOSIG=
201911170030 METAR COR LRBS 170030Z 07007KT 0600 R07/0900N R25/0900D FG
                        VV002 10/10 Q1023 R07/29//95 NOSIG=
201911170100 METAR LRBS 170100Z 06006KT 0400 R07/0550D R25/0550N FG VV002
                        10/10 Q1023 R07/29//95 NOSIG=
201911170130 METAR LRBS 170130Z 06008KT 0400 R07/0550N R25/0500N FG VV001
                        10/10 Q1023 R07/29//95 NOSIG=
201911170200 METAR COR LRBS 170200Z 06007KT 0500 R07/0800N R25/0800U FG
                        VV002 11/11 Q1023 R07/29//95 NOSIG=
201911170230 METAR LRBS 170230Z 06007KT 0500 R07/0800U R25/1000U FG VV002
                        11/11 Q1023 R07/29//95 NOSIG=
201911170300 METAR LRBS 170300Z 06008KT 0800 R07/1700U R25/P2000 FG OVC001
                        11/11 Q1023 R07/29//95 NOSIG=
201911170330 METAR LRBS 170330Z 07011KT 1500 BR OVC001 11/11 Q1023 R07/29//95
                        NOSIG=
201911170400 METAR LRBS 170400Z 07010KT 2000 BR OVC001 11/11 Q1023 R07/29//95
                        NOSIG=
201911170430 METAR LRBS 170430Z 06011KT 2700 BR OVC002 11/11 Q1023 R07/29//95
                        NOSIG=
201911170500 METAR LRBS 170500Z 07010KT 3000 BR OVC002 11/11 Q1023 R07/29//95
                        BECMG BKN005=
201911170530 METAR LRBS 170530Z 06008KT 3500 BR OVC004 11/11 Q1024 R07/29//95
                        BECMG 5000 BKN010=
201911170600 METAR LRBS 170600Z 06005KT 4000 BR SCT006 OVC010 12/12 Q1024
                        R07/29//95 BECMG 5000 BKN015=
201911170630 METAR COR LRBS 170630Z 05005KT 3500 BR BKN004 OVC012 12/11
                        Q1024 R07/29//95 NOSIG=
201911170700 METAR LRBS 170700Z 04004KT 3800 BR SCT005 OVC014 12/12 Q1024
                        R07/29//95 BECMG 5000=
201911170730 METAR LRBS 170730Z 06007KT 4500 BR SCT004 SCT007 OVC015 12/12
                        Q1024 R07/29//95 NOSIG=
201911170800 METAR LRBS 170800Z 05005KT 5000 BR SCT005 OVC015 13/12 Q1024
                        R07/19//95 BECMG 7000 NSW SCT015
                        BKN020=
201911170830 METAR LRBS 170830Z 06008KT 6000 SCT007 SCT012 OVC015 13/12
                        Q1024 R07/19//95 BECMG SCT015 BKN020=
201911170900 METAR LRBS 170900Z 06008KT 6000 BKN007 OVC015 13/12 Q1024
                        R07/19//95 BECMG SCT010 BKN020=
201911170930 METAR COR LRBS 170930Z 05008KT 7000 FEW007 SCT012 OVC016
                        13/12 Q1024 R07/19//95 NOSIG=
201911171000 METAR LRBS 171000Z 07008KT 8000 FEW009 BKN012 OVC018 13/12
                        Q1023 R07/19//95 BECMG SCT010 BKN020=
201911171030 METAR LRBS 171030Z 05007KT 8000 FEW007 BKN012 OVC018 13/12
                        Q1023 R07/19//95 BECMG SCT010 BKN020=
201911171100 METAR LRBS 171100Z 04006KT 7000 BKN007 OVC015 13/12 Q1023
                        R07/19//95 NOSIG=
201911171130 METAR LRBS 171130Z 04007KT 7000 BKN007 OVC021 14/12 Q1022
                        R07/19//95 NOSIG=
201911171200 METAR LRBS 171200Z 04007KT 8000 SCT008 OVC021 14/12 Q1022
                        R07/19//95 NOSIG=
201911171230 METAR LRBS 171230Z 04008KT 360V060 9000 BKN009 OVC021 14/12
                        Q1022 R07/19//95 NOSIG=
201911171300 METAR LRBS 171300Z 04010KT 9000 BKN009 BKN015 OVC025 14/12
                        Q1022 R07/19//95 NOSIG=
201911171330 METAR LRBS 171330Z 05010KT 010V080 9000 SCT010 BKN015 OVC026
                        14/12 Q1022 R07/19//95 NOSIG=
201911171400 METAR LRBS 171400Z 04010KT 9000 BKN010 BKN015 OVC028 14/12
                        Q1022 R07/19//95 NOSIG=
201911171430 METAR LRBS 171430Z 05010KT 9000 BKN009 BKN015 OVC030 13/12
                        Q1022 R07/19//95 NOSIG=
201911171500 METAR LRBS 171500Z 04010KT 9000 FEW011 SCT019 OVC030 13/11
                        Q1022 R07/19//95 NOSIG=
201911171530 METAR LRBS 171530Z 05011KT 9000 FEW012 OVC027 13/11 Q1022
                        R07/19//95 NOSIG=
201911171600 METAR LRBS 171600Z 05011KT 9000 FEW010 BKN028 13/12 Q1022
                        R07/19//95 NOSIG=
201911171630 METAR LRBS 171630Z 05010KT 8000 FEW014 BKN027 13/12 Q1022
                        R07/19//95 NOSIG=
201911171700 METAR LRBS 171700Z 06010KT 9000 FEW007 OVC024 13/12 Q1022
                        R07/19//95 TEMPO 5000 BR BKN005=
201911171730 METAR LRBS 171730Z 05009KT 9999 OVC023 13/12 Q1022 R07/19//95
                        NOSIG=
201911171800 METAR LRBS 171800Z 06010KT 9999 OVC023 13/11 Q1022 R07/19//95
                        NOSIG=
201911171830 METAR LRBS 171830Z 06010KT 9999 OVC022 13/11 Q1022 R07/19//95
                        NOSIG=
201911171900 METAR LRBS 171900Z 06011KT 9999 OVC023 13/11 Q1022 R07/19//95
                        NOSIG=
201911171930 METAR LRBS 171930Z 06011KT 9999 OVC022 13/11 Q1022 R07/19//95
                        NOSIG=
201911172000 METAR LRBS 172000Z 06009KT 9999 FEW012 OVC024 13/11 Q1022
                        R07/19//95 NOSIG=
201911172030 METAR LRBS 172030Z 05008KT 9999 FEW012 OVC022 13/11 Q1022
                        R07/19//95 NOSIG=
201911172100 METAR COR LRBS 172100Z 06008KT 9999 FEW015 OVC023 12/11 Q1021
                        R07/CLRD// NOSIG=
201911172130 METAR LRBS 172130Z 05008KT 9999 FEW015 OVC022 12/10 Q1021
                        NOSIG=
201911172200 METAR LRBS 172200Z 06009KT 020V080 9999 FEW012 OVC022 12/10
                        Q1021 NOSIG=
201911172230 METAR LRBS 172230Z 06007KT 9999 SCT012 OVC020 12/10 Q1021
                        NOSIG=
201911172300 METAR LRBS 172300Z 06007KT 9999 BKN013 OVC022 12/10 Q1021
                        NOSIG=
201911172330 METAR LRBS 172330Z 05007KT 9999 SCT014 OVC022 12/10 Q1021
                        NOSIG=
201911180000 METAR LRBS 180000Z 05009KT 9999 FEW007 OVC024 12/11 Q1021
                        NOSIG=
201911180030 METAR LRBS 180030Z 05010KT 9999 SCT007 OVC025 12/10 Q1021
                        NOSIG=
201911180100 METAR COR LRBS 180100Z 05009KT 020V080 9999 SCT007 OVC024
                        12/10 Q1020 NOSIG=
201911180130 METAR LRBS 180130Z 05008KT 9999 SCT007 OVC026 12/10 Q1020
                        NOSIG=
201911180200 METAR LRBS 180200Z 05009KT 9999 FEW007 OVC028 12/10 Q1020
                        BECMG 5000 BR BKN010=
201911180230 METAR LRBS 180230Z 05008KT 9999 FEW007 OVC026 11/10 Q1020
                        BECMG 5000 BR BKN010=
201911180300 METAR LRBS 180300Z 05008KT 010V070 8000 BKN007 OVC028 11/10
                        Q1020 BECMG 5000 BR BKN005=
201911180330 METAR LRBS 180330Z 04007KT 7000 BKN006 OVC030 11/10 Q1020
                        BECMG 5000 BR BKN005=
201911180400 METAR LRBS 180400Z 04008KT 7000 BKN005 OVC030 11/10 Q1020
                        BECMG 5000 BR=
201911180430 METAR LRBS 180430Z 04009KT 6000 BKN005 OVC030 11/10 Q1020
                        TEMPO 5000 BR=
201911180500 METAR COR LRBS 180500Z 04009KT 010V070 5000 BR BKN005 OVC028
                        11/10 Q1020 BECMG 9999 NSW BKN010
                        BKN030=
201911180530 METAR LRBS 180530Z 05009KT 5000 BR BKN005 OVC026 11/10 Q1020
                        BECMG 9999 NSW BKN010 BKN030=
201911180600 METAR LRBS 180600Z 05006KT 9999 SCT005 BKN026 11/10 Q1020
                        NOSIG=
201911180630 METAR LRBS 180630Z 06009KT 9999 SCT007 BKN025 11/10 Q1020
                        NOSIG=
201911180700 METAR LRBS 180700Z 06008KT 9999 FEW006 OVC023 12/11 Q1020
                        NOSIG=
201911180730 METAR LRBS 180730Z 05009KT 9999 FEW006 BKN022 12/11 Q1020
                        NOSIG=
201911180800 METAR LRBS 180800Z 06009KT 9999 FEW007 BKN021 12/11 Q1020
                        NOSIG=
201911180830 METAR LRBS 180830Z 06008KT 9999 BKN020 13/11 Q1020 NOSIG=
201911180900 METAR LRBS 180900Z 06008KT 030V090 9999 FEW011 SCT020 14/12
                        Q1020 NOSIG=
201911180930 METAR LRBS 180930Z 05009KT 9999 SCT011 BKN021 14/12 Q1020
                        NOSIG=
201911181000 METAR LRBS 181000Z 05010KT 9999 BKN012 BKN020 14/12 Q1020
                        NOSIG=
201911181030 METAR LRBS 181030Z 06010KT 020V080 9999 SCT013 BKN017 15/12
                        Q1020 NOSIG=
201911181100 METAR LRBS 181100Z 05008KT 020V080 9999 BKN017 BKN024 15/12
                        Q1020 NOSIG=
201911181130 METAR LRBS 181130Z 05008KT 9999 BKN017 BKN022 16/12 Q1019
                        NOSIG=
201911181200 METAR LRBS 181200Z 04008KT 9999 BKN021 16/12 Q1019 NOSIG=
201911181230 METAR LRBS 181230Z 05009KT 9999 FEW020 SCT036 BKN043 16/12
                        Q1019 NOSIG=
201911181300 METAR LRBS 181300Z 05009KT 020V080 9999 FEW023 BKN037 16/13
                        Q1019 NOSIG=
201911181330 METAR LRBS 181330Z 04007KT 350V090 9999 FEW021 BKN040 16/12
                        Q1019 NOSIG=
201911181400 METAR LRBS 181400Z 03006KT 9999 BKN038 15/12 Q1020 NOSIG=
201911181430 METAR LRBS 181430Z 02006KT 360V060 9999 BKN040 15/12 Q1020
                        NOSIG=
201911181500 METAR LRBS 181500Z 03006KT 9999 BKN042 15/12 Q1020 NOSIG=
201911181530 METAR COR LRBS 181530Z 03005KT 9999 OVC038 14/12 Q1020 NOSIG=
201911181600 METAR LRBS 181600Z 02006KT 360V060 8000 BKN040 14/12 Q1020
                        NOSIG=
201911181630 METAR LRBS 181630Z 02005KT 350V050 8000 NSC 13/12 Q1021 NOSIG=
201911181700 METAR LRBS 181700Z 03004KT 7000 BKN042 13/12 Q1021 BECMG
                        5000 -RA BR=
201911181730 METAR LRBS 181730Z 02004KT 6000 BKN040 13/12 Q1021 BECMG
                        5000 -RA BR=
201911181800 METAR COR LRBS 181800Z 03003KT 360V070 6000 -RA BKN038 13/12
                        Q1021 BECMG 5000 -RA BR=
201911181830 METAR COR LRBS 181830Z 06003KT 5000 -RA BR FEW040 13/12 Q1021
                        R07/19//95 NOSIG=
201911181900 METAR LRBS 181900Z VRB02KT 4500 -RA BR NSC 13/12 Q1021 R07/29//95
                        BECMG 3000 BR=
201911181930 METAR LRBS 181930Z 01002KT 3500 -RA BR NSC 13/12 Q1021 R07/29//95
                        BECMG 3000 BR=
201911182000 METAR LRBS 182000Z 14002KT 3000 BR SCT005 13/12 Q1021 R07/29//95
                        BECMG 1500 BR BKN005=
201911182030 METAR LRBS 182030Z 02002KT 2500 BR FEW005 12/12 Q1022 R07/29//95
                        NOSIG=
201911182100 METAR LRBS 182100Z VRB02KT 2500 BR NSC 13/12 Q1022 R07/29//95
                        NOSIG=
201911182130 METAR LRBS 182130Z 31004KT 280V340 2200 BR FEW034 13/12 Q1022
                        R07/29//95 NOSIG=
201911182200 METAR LRBS 182200Z 00000KT 2200 -RA BR FEW002 12/12 Q1022
                        R07/29//95 BECMG 1500 BR BKN002=
201911182230 METAR LRBS 182230Z VRB01KT 1500 BR BKN002 12/12 Q1022 R07/29//95
                        NOSIG=
201911182300 METAR LRBS 182300Z 00000KT 1500 BR BKN002 OVC005 12/12 Q1022
                        R07/29//95 NOSIG=
201911182330 METAR LRBS 182330Z 00000KT 1200 R07/P2000 R25/P2000 BR SCT002
                        OVC005 12/12 Q1023 R07/29//95 NOSIG=
201911190000 METAR LRBS 190000Z 00000KT 1400 R07/P2000 R25/P2000 BR FEW002
                        BKN005 12/12 Q1023 R07/29//95 NOSIG=
201911190030 METAR LRBS 190030Z 00000KT 1200 R07/1500 R25/P2000 BR BKN002
                        OVC006 12/12 Q1023 R07/29//95 NOSIG=
201911190100 METAR LRBS 190100Z 30002KT 0900 R07/P2000 R25/P2000 FG SCT001
                        BKN002 OVC006 12/12 Q1023 R07/29//95
                        NOSIG=
201911190130 METAR LRBS 190130Z 30002KT 0700 R07/1900 R25/P2000 FG OVC001
                        12/12 Q1023 R07/29//95 BECMG 0350
                        FG=
201911190200 METAR LRBS 190200Z 30002KT 0600 R07/1600N R25/2000N FG OVC001
                        12/12 Q1023 R07/29//95 BECMG 0350
                        FG=
201911190230 METAR LRBS 190230Z 29002KT 0400 R07/1200N R25/P2000 FG OVC001
                        12/12 Q1023 R07/29//95 NOSIG=
201911190300 METAR LRBS 190300Z VRB02KT 0400 R07/0900 R25/1200N FG BKN001
                        OVC002 12/12 Q1023 R07/29//95 NOSIG=
201911190330 METAR LRBS 190330Z VRB02KT 0700 R07/1400D R25/1300 FG OVC001
                        12/12 Q1024 R07/29//95 NOSIG=
201911190400 METAR LRBS 190400Z 29002KT 1200 R07/P2000 R25/P2000 BR OVC001
                        12/12 Q1024 R07/29//95 NOSIG=
201911190430 METAR COR LRBS 190430Z 00000KT 2000 BR SCT002 OVC004 13/12
                        Q1024 R07/29//95 NOSIG=
201911190500 METAR LRBS 190500Z 26001KT 2000 BR SCT003 OVC005 13/12 Q1024
                        R07/29//95 NOSIG=
201911190530 METAR LRBS 190530Z 25002KT 1500 BR FEW002 OVC006 13/12 Q1024
                        R07/29//95 NOSIG=
201911190600 METAR COR LRBS 190600Z 26002KT 2200 BR OVC004 13/12 Q1025
                        R07/29//95 NOSIG=
201911190630 METAR LRBS 190630Z VRB02KT 2600 BR FEW004 OVC015 13/13 Q1025
                        R07/29//95 BECMG 5000=
201911190700 METAR LRBS 190700Z 00000KT 2500 BR SCT004 OVC017 13/13 Q1025
                        R07/29//95 BECMG 5000=
201911190730 METAR LRBS 190730Z 27002KT 3000 BR BKN004 BKN019 14/13 Q1025
                        R07/29//95 BECMG 5000=
201911190800 METAR LRBS 190800Z 27003KT 240V300 3000 BR BKN004 OVC020
                        14/13 Q1025 R07/29//95 BECMG 5000=
201911190830 METAR LRBS 190830Z 27003KT 240V300 3600 BR SCT005 OVC020
                        14/13 Q1025 R07/29//95 BECMG 5000=
201911190900 METAR LRBS 190900Z VRB01KT 5000 BR SCT006 BKN023 15/13 Q1025
                        R07/29//95 BECMG 9999 NSW=
201911190930 METAR LRBS 190930Z VRB02KT 6000 BKN007 BKN022 15/13 Q1025
                        R07/29//95 BECMG BKN010=
201911191000 METAR LRBS 191000Z VRB02KT 8000 BKN010 BKN020 16/12 Q1025
                        R07/29//95 NOSIG=
201911191030 METAR LRBS 191030Z 35003KT 320V020 7000 BKN010 BKN020 15/13
                        Q1025 R07/29//95 NOSIG=
201911191100 METAR LRBS 191100Z 03004KT 7000 SCT012 BKN020 15/13 Q1024
                        R07/29//95 NOSIG=
201911191130 METAR LRBS 191130Z 09004KT 060V120 9000 SCT012 OVC021 15/12
                        Q1024 R07/29//95 NOSIG=
201911191200 METAR LRBS 191200Z 08004KT 9000 OVC021 16/12 Q1024 R07/29//95
                        NOSIG=
201911191230 METAR LRBS 191230Z 03003KT 350V060 9999 OVC021 16/12 Q1024
                        R07/29//95 NOSIG=
201911191300 METAR LRBS 191300Z VRB01KT 9999 OVC020 16/11 Q1024 R07/29//95
                        NOSIG=
201911191330 METAR LRBS 191330Z 05005KT 020V090 9999 FEW008 OVC020 15/11
                        Q1024 R07/29//95 NOSIG=
201911191400 METAR LRBS 191400Z 03004KT 9999 OVC021 15/11 Q1024 R07/CLRD//
                        NOSIG=
201911191430 METAR LRBS 191430Z 03003KT 9999 OVC021 15/11 Q1024 NOSIG=
201911191500 METAR LRBS 191500Z 03003KT 010V120 9999 OVC021 14/11 Q1024
                        NOSIG=
201911191530 METAR LRBS 191530Z 11004KT 9000 OVC019 14/12 Q1024 NOSIG=
201911191600 METAR LRBS 191600Z 11005KT 7000 OVC018 14/12 Q1025 NOSIG=
201911191630 METAR LRBS 191630Z 10005KT 5000 BR FEW007 BKN018 13/12 Q1025
                        BECMG 3000 BR BKN010=
201911191700 METAR LRBS 191700Z 05003KT 4600 BR FEW006 BKN016 12/12 Q1025
                        BECMG 3000 BR BKN010=
201911191730 METAR COR LRBS 191730Z 08003KT 2500 MIFG BR FEW015 11/11
                        Q1025 BECMG 0800 FG=
201911191800 METAR LRBS 191800Z 09006KT 1500 BR BKN004 BKN016 12/12 Q1025
                        BECMG 0800 FG BKN002=
201911191830 METAR LRBS 191830Z 10004KT 1500 BR BKN002 12/11 Q1025 NOSIG=
201911191900 METAR LRBS 191900Z 09006KT 1500 BR OVC003 12/11 Q1025 NOSIG=
201911191930 METAR LRBS 191930Z 07003KT 030V090 1500 BR BKN004 OVC013
                        12/11 Q1025 NOSIG=
201911192000 METAR LRBS 192000Z 03001KT 1500 BR FEW003 BKN009 12/11 Q1025
                        NOSIG=
201911192030 METAR LRBS 192030Z 04002KT 0600 R07/P2000 R25/P2000 -DZ FG
                        OVC004 12/12 Q1025 BECMG OVC002=
201911192100 METAR COR LRBS 192100Z 04003KT 0600 R07/P2000 R25/P2000 -DZRA
                        FG OVC002 12/12 Q1024 NOSIG=
201911192130 METAR LRBS 192130Z 05003KT 0600 R07/P2000 R25/P2000 -DZ FG
                        BKN001 12/12 Q1024 NOSIG=
201911192200 METAR LRBS 192200Z 04004KT 0800 R07/P2000 R25/P2000 -DZ FG
                        BKN002 12/12 Q1024 NOSIG=
201911192230 METAR LRBS 192230Z 04004KT 020V080 0800 R07/P2000 R25/P2000
                        -DZ FG BKN002 12/12 Q1024 NOSIG=
201911192300 METAR LRBS 192300Z 05004KT 0800 R07/P2000 R25/P2000 FG BKN002
                        12/12 Q1024 NOSIG=
201911192330 METAR LRBS 192330Z 05005KT 0500 R07/P2000 R25/P2000 FG OVC001
                        12/12 Q1023 NOSIG=
201911200000 METAR LRBS 200000Z 05005KT 0400 R07/1900D R25/2000D FG OVC001
                        12/12 Q1023 NOSIG=
201911200030 METAR LRBS 200030Z 05005KT 0300 R07/1800U R25/P2000 FG OVC001
                        12/12 Q1023 NOSIG=
201911200100 METAR LRBS 200100Z 07004KT 0300 R07/1700VP2000D R25/P2000
                        FG BKN001 13/13 Q1023 NOSIG=
201911200130 METAR LRBS 200130Z 05004KT 0400 R07/P2000 R25/P2000 FG BKN001
                        13/13 Q1023 NOSIG=
201911200200 METAR LRBS 200200Z 06004KT 0400 R07/P2000 R25/P2000 FG BKN002
                        13/13 Q1023 NOSIG=
201911200230 METAR LRBS 200230Z 06005KT 0500 R07/P2000 R25/P2000 FG BKN002
                        13/13 Q1023 TEMPO 1500 BR=
201911200300 METAR LRBS 200300Z 07005KT 0600 R07/P2000 R25/2000 FG OVC002
                        13/13 Q1023 TEMPO 1500 BR=
201911200330 METAR LRBS 200330Z 07005KT 1100 R07/2000 R25/P2000 BR OVC003
                        13/13 Q1023 TEMPO 1500 BR=
201911200400 METAR LRBS 200400Z 08007KT 1500 BR SCT003 14/13 Q1022 TEMPO
                        1500 BR=
201911200430 METAR LRBS 200430Z 08008KT 3000 BR FEW004 SCT007 14/13 Q1022
                        NOSIG=
201911200500 METAR LRBS 200500Z 09008KT 3000 BR BKN006 OVC045 14/13 Q1022
                        NOSIG=
201911200530 METAR LRBS 200530Z 09008KT 3000 BR BKN006 BKN042 13/12 Q1022
                        NOSIG=
201911200600 METAR LRBS 200600Z 09007KT 3500 BR BKN006 BKN043 13/12 Q1022
                        NOSIG=
201911200630 METAR LRBS 200630Z 09007KT 3500 BR BKN006 OVC045 13/12 Q1023
                        NOSIG=
201911200700 METAR LRBS 200700Z 09008KT 5000 BR BKN007 OVC045 13/12 Q1023
                        BECMG 9999 NSW BKN010=
201911200730 METAR LRBS 200730Z 10009KT 6000 OVC009 13/12 Q1023 NOSIG=
201911200800 METAR LRBS 200800Z 10010KT 7000 BKN010 14/12 Q1023 NOSIG=
201911200830 METAR LRBS 200830Z 10011KT 070V130 9000 SCT010 15/12 Q1023
                        NOSIG=
201911200900 METAR LRBS 200900Z 10014KT 9999 BKN018 15/12 Q1022 NOSIG=
201911200930 METAR LRBS 200930Z 10014KT 060V120 9999 BKN022 15/11 Q1022
                        NOSIG=
201911201000 METAR LRBS 201000Z 09014KT 9999 BKN024 16/11 Q1022 NOSIG=
201911201030 METAR LRBS 201030Z 09014KT 9999 SCT018 BKN023 15/11 Q1022
                        NOSIG=
201911201100 METAR LRBS 201100Z 09016KT 9999 FEW017 BKN028 15/11 Q1021
                        NOSIG=
201911201130 METAR LRBS 201130Z 09014KT 9999 FEW019 BKN028 14/11 Q1021
                        NOSIG=
201911201200 METAR LRBS 201200Z 07015KT 9999 FEW016 BKN028 14/11 Q1021
                        NOSIG=
201911201230 METAR LRBS 201230Z 06015KT 9999 BKN015 OVC028 14/11 Q1021
                        NOSIG=
201911201300 METAR LRBS 201300Z 06016KT 9999 BKN012 OVC028 13/11 Q1020
                        NOSIG=
201911201330 METAR LRBS 201330Z 06015KT 8000 BKN012 OVC028 13/10 Q1020
                        NOSIG=
201911201400 METAR LRBS 201400Z 06016KT 8000 BKN012 OVC028 12/10 Q1020
                        NOSIG=
201911201430 METAR LRBS 201430Z 06014KT 8000 BKN010 OVC028 12/10 Q1020
                        NOSIG=
201911201500 METAR LRBS 201500Z 06015KT 8000 BKN010 OVC028 12/10 Q1020
                        NOSIG=
201911201530 METAR LRBS 201530Z 06014KT 6000 BKN007 OVC015 12/10 Q1020
                        BECMG 5000 BR=
201911201600 METAR LRBS 201600Z 06017KT 6000 BKN008 OVC015 12/10 Q1020
                        BECMG 5000 BR=
201911201630 METAR LRBS 201630Z 06016KT 6000 BKN008 OVC016 12/10 Q1020
                        BECMG 5000 BR=
201911201700 METAR LRBS 201700Z 06016KT 6000 OVC008 12/10 Q1021 NOSIG=
201911201730 METAR LRBS 201730Z 07015KT 5000 BR OVC007 12/10 Q1021 NOSIG=
201911201800 METAR LRBS 201800Z 06014KT 6000 OVC008 12/10 Q1021 NOSIG=
201911201830 METAR LRBS 201830Z 07013KT 6000 OVC008 12/10 Q1021 NOSIG=
201911201900 METAR LRBS 201900Z 06014KT 5000 -RA BR FEW007 SCT015 OVC030
                        11/10 Q1021 R07/19//95 NOSIG=
201911201930 METAR LRBS 201930Z 06012KT 4200 -RA BR SCT004 OVC012 11/10
                        Q1021 R07/19//95 BECMG 3000 RA BKN003
                        OVC020=
201911202000 METAR LRBS 202000Z 07013KT 4700 -RA BR SCT003 BKN012 11/10
                        Q1021 R07/19//95 BECMG 3000 RA BKN003
                        OVC020=
201911202030 METAR LRBS 202030Z 06013KT 4000 -RA BR BKN004 10/10 Q1021
                        R07/19//95 NOSIG=
201911202100 METAR LRBS 202100Z 05012KT 5000 -RA BR BKN004 10/10 Q1021
                        R07/19//95 NOSIG=
201911202130 METAR LRBS 202130Z 06012KT 030V090 6000 -RA OVC005 10/10
                        Q1021 R07/19//95 NOSIG=
201911202200 METAR LRBS 202200Z 07012KT 6000 -RA BKN006 10/10 Q1021 R07/19//95
                        NOSIG=
201911202230 METAR LRBS 202230Z 07010KT 5000 -RA BR OVC005 10/10 Q1021
                        R07/19//95 NOSIG=
201911202300 METAR LRBS 202300Z 06009KT 4700 -RA BR OVC005 10/10 Q1021
                        R07/19//95 NOSIG=
201911202330 METAR LRBS 202330Z 06009KT 4300 -RA BR OVC004 10/10 Q1021
                        R07/19//95 NOSIG=
201911210000 METAR LRBS 210000Z 06010KT 030V090 3400 -RA BR OVC004 10/10
                        Q1021 R07/19//95 NOSIG=
201911210030 METAR LRBS 210030Z 07009KT 3100 -RA BR OVC004 10/10 Q1021
                        R07/19//95 NOSIG=
201911210100 METAR LRBS 210100Z 07010KT 4100 -RA FG OVC004 10/10 Q1020
                        R07/19//95 NOSIG=
201911210130 METAR COR LRBS 210130Z 07008KT 040V100 4800 -RA BR OVC005
                        10/10 Q1020 R07/19//95 NOSIG=
201911210200 METAR LRBS 210200Z 07010KT 5000 OVC006 10/10 Q1020 R07/19//95
                        NOSIG=
201911210230 METAR LRBS 210230Z AUTO 07010KT 5000 FG FEW005/// SCT006///
                        10/10 Q1020 NOSIG=
201911210300 METAR LRBS 210300Z 06009KT 5000 BR BKN006 10/09 Q1020 R07/19//95
                        NOSIG=
201911210330 METAR LRBS 210330Z 07010KT 5000 BR OVC006 10/09 Q1020 R07/19//95
                        NOSIG=
201911210400 METAR LRBS 210400Z 06013KT 4500 -RA BR OVC005 10/09 Q1020
                        R07/19//95 NOSIG=
201911210430 METAR LRBS 210430Z 05014KT 3700 -RA BR OVC005 10/09 Q1020
                        R07/19//95 TEMPO 3000 -RA BR=
201911210500 METAR COR LRBS 210500Z 06014KT 3000 -RA BR OVC005 10/09 Q1021
                        R07/29//95 NOSIG=
201911210530 METAR LRBS 210530Z 06014KT 2000 -RADZ BR OVC004 10/09 Q1021
                        R07/29//95 TEMPO 1500 -RA BR OVC003=
201911210600 METAR LRBS 210600Z 05014KT 020V080 2000 -RA BR OVC004 10/09
                        Q1021 R07/29//95 BECMG 3000 BKN005=
201911210630 METAR LRBS 210630Z 05012KT 030V090 2500 -RADZ BR OVC004 10/09
                        Q1021 R07/29//95 BECMG 3000 BKN005=
201911210700 METAR LRBS 210700Z 06014KT 1200 R07/P2000 R25/P2000 RA BR
                        OVC003 09/09 Q1022 R07/29//95 BECMG
                        1500 BKN005=
201911210730 METAR LRBS 210730Z 05013KT 1800 RA BR OVC003 09/09 Q1022
                        R07/29//95 BECMG 3000 BKN010=
201911210800 METAR LRBS 210800Z 05012KT 2500 -RA BR OVC003 09/08 Q1022
                        RERA R07/29//95 BECMG 5000 BKN010=
201911210830 METAR LRBS 210830Z 05013KT 3300 -RA BR OVC003 09/08 Q1022
                        R07/29//95 BECMG 5000 BKN010=
201911210900 METAR LRBS 210900Z 05013KT 1600 -RADZ BR OVC003 09/08 Q1022
                        R07/29//95 BECMG 3000 BKN005=
201911210930 METAR LRBS 210930Z 04015KT 3200 -RA BR OVC003 08/08 Q1022
                        R07/29//95 BECMG 5000 BKN005=
201911211000 METAR LRBS 211000Z 04014KT 3000 -RA BR OVC003 08/08 Q1021
                        R07/29//95 BECMG 5000 BKN005=
201911211030 METAR LRBS 211030Z 04014KT 7000 -RA OVC004 08/08 Q1021 R07/29//95
                        BECMG BKN010=
201911211100 METAR LRBS 211100Z 04015KT 020V080 7000 -RA OVC004 08/07
                        Q1021 R07/29//95 BECMG BKN010=
201911211130 METAR LRBS 211130Z 04015KT 6000 -RADZ OVC003 08/07 Q1021
                        R07/29//95 BECMG BKN010=
201911211200 METAR COR LRBS 211200Z 04015G25KT 020V080 3000 -RADZ BR OVC003
                        08/07 Q1021 R07/29//95 TEMPO 5000
                        BKN005=
201911211230 METAR COR LRBS 211230Z 04014KT 4000 SHRA BR BKN004 FEW040CB
                        08/07 Q1021 R07/29//95 NOSIG=
201911211300 METAR LRBS 211300Z 04017KT 5000 SHRA BKN004 FEW035CB 08/07
                        Q1021 R07/29//95 NOSIG=
201911211330 METAR COR LRBS 211330Z 04016KT 010V070 5000 -SHRA BR BKN004
                        SCT035CB 08/07 Q1021 R07/29//95 NOSIG=
201911211400 METAR LRBS 211400Z 04015KT 360V060 6000 -SHRA BKN004 FEW035CB
                        08/07 Q1021 RESHRA R07/29//95 TEMPO
                        5000 -RA BR=
201911211430 METAR COR LRBS 211430Z 04016G26KT 010V070 5000 -SHRA BR BKN004
                        FEW035CB 08/07 Q1021 R07/29//95 TEMPO
                        3000 RA=
201911211500 METAR LRBS 211500Z 04017KT 020V090 8000 -RA OVC005 08/07
                        Q1021 R07/29//95 TEMPO 5000 RA=
201911211530 METAR LRBS 211530Z 04015KT 360V070 8000 -RA BKN005 OVC012
                        07/07 Q1022 R07/29//95 TEMPO 5000
                        RA=
201911211600 METAR LRBS 211600Z 04015KT 8000 -RA OVC004 07/07 Q1022 R07/29//95
                        NOSIG=
201911211630 METAR LRBS 211630Z 04017KT 9000 -RA BKN005 OVC014 07/06 Q1022
                        R07/29//95 NOSIG=
201911211700 METAR LRBS 211700Z 04017KT 7000 -RA BKN005 OVC014 07/06 Q1022
                        R07/29//95 NOSIG=
201911211730 METAR LRBS 211730Z 04017G27KT 7000 -RA OVC005 06/05 Q1022
                        R07/29//95 NOSIG=
201911211800 METAR LRBS 211800Z 04017KT 8000 -RA OVC006 06/05 Q1023 R07/29//95
                        NOSIG=
201911211830 METAR LRBS 211830Z 04017KT 360V060 9999 -RA OVC006 05/04
                        Q1023 R07/29//95 NOSIG=
201911211900 METAR LRBS 211900Z 04016KT 9999 -RA OVC006 05/04 Q1023 R07/29//95
                        NOSIG=
201911211930 METAR LRBS 211930Z 04019KT 9999 -RA OVC006 05/04 Q1023 R07/29//95
                        NOSIG=
201911212000 METAR LRBS 212000Z 04020G30KT 9999 -RA OVC006 05/04 Q1023
                        R07/29//95 NOSIG=
201911212030 METAR LRBS 212030Z 04019KT 9999 OVC006 04/03 Q1023 R07/29//95
                        NOSIG=
201911212100 METAR LRBS 212100Z 04017KT 9999 OVC006 04/03 Q1024 R07/29//95
                        NOSIG=
201911212130 METAR LRBS 212130Z 04018G28KT 9999 OVC006 04/03 Q1024 R07/29//95
                        NOSIG=
201911212200 METAR LRBS 212200Z 04016KT 9999 -RA OVC006 04/03 Q1024 R07/29//95
                        NOSIG=
201911212230 METAR LRBS 212230Z 04017KT 020V080 5000 -RA OVC005 03/03
                        Q1024 RERA R07/29//95 NOSIG=
201911212300 METAR LRBS 212300Z 04017G29KT 5000 RA OVC005 03/02 Q1024
                        R07/29//95 NOSIG=
201911212330 METAR LRBS 212330Z 04017KT 8000 -RA OVC005 03/02 Q1024 RERA
                        R07/29//95 NOSIG=
201911220000 METAR LRBS 220000Z 04018G29KT 6000 RA OVC005 03/02 Q1024
                        R07/29//95 NOSIG=
201911220030 METAR LRBS 220030Z 04017KT 8000 -RA OVC005 03/02 Q1024 RERA
                        R07/29//95 NOSIG=
201911220100 METAR LRBS 220100Z 05018KT 7000 -RA OVC005 02/02 Q1024 R07/29//95
                        NOSIG=
201911220130 METAR LRBS 220130Z 04018KT 8000 -RA OVC005 02/01 Q1024 R07/29//95
                        NOSIG=
201911220200 METAR LRBS 220200Z 04018G28KT 9999 -RA OVC005 02/01 Q1024
                        R07/29//95 NOSIG=
201911220230 METAR LRBS 220230Z 04015G25KT 9999 OVC006 02/01 Q1024 R07/29//95
                        NOSIG=
201911220300 METAR LRBS 220300Z 04017G27KT 9999 OVC006 02/01 Q1024 R07/29//95
                        NOSIG=
201911220330 METAR LRBS 220330Z 04017KT 9999 -RA OVC006 01/00 Q1024 R07/29//95
                        NOSIG=
201911220400 METAR COR LRBS 220400Z 04018KT 9999 -RA OVC007 01/00 Q1025
                        R07/29//95 NOSIG=
201911220430 METAR LRBS 220430Z 04018KT 9999 -RA OVC007 01/00 Q1025 R07/29//95
                        NOSIG=
201911220500 METAR LRBS 220500Z 04017KT 010V070 7000 -RA OVC006 01/M00
                        Q1025 R07/29//95 NOSIG=
201911220530 METAR LRBS 220530Z 04017KT 7000 -RA OVC006 01/M00 Q1025 R07/29//95
                        NOSIG=
201911220600 METAR LRBS 220600Z 04014G24KT 010V070 8000 OVC006 01/M00
                        Q1025 R07/29//95 NOSIG=
201911220630 METAR LRBS 220630Z 04016KT 010V070 9999 OVC006 01/M00 Q1025
                        R07/29//95 NOSIG=
201911220700 METAR LRBS 220700Z 04017KT 9999 OVC005 01/M00 Q1026 R07/29//95
                        NOSIG=
201911220730 METAR LRBS 220730Z 05014KT 9999 OVC005 01/M00 Q1026 R07/29//95
                        NOSIG=
201911220800 METAR LRBS 220800Z 05014KT 9999 OVC005 01/M00 Q1026 R07/29//95
                        NOSIG=
201911220830 METAR LRBS 220830Z 04014G24KT 010V080 9999 OVC005 01/M00
                        Q1026 R07/29//95 NOSIG=
201911220900 METAR LRBS 220900Z 04014KT 360V060 9999 OVC005 01/M00 Q1026
                        R07/29//95 NOSIG=
201911220930 METAR LRBS 220930Z 04015KT 010V070 9999 OVC006 01/M00 Q1026
                        R07/29//95 NOSIG=
201911221000 METAR LRBS 221000Z 04013KT 9999 OVC005 00/M00 Q1026 R07/29//95
                        NOSIG=
201911221030 METAR LRBS 221030Z 04012KT 9999 OVC005 00/M01 Q1026 R07/29//95
                        NOSIG=
201911221100 METAR LRBS 221100Z 05014KT 9999 OVC005 00/M00 Q1026 R07/29//95
                        NOSIG=
201911221130 METAR LRBS 221130Z 05017KT 360V070 9999 OVC005 00/M01 Q1025
                        R07/29//95 NOSIG=
201911221200 METAR LRBS 221200Z 05015KT 9999 OVC005 00/M01 Q1025 R07/29//95
                        NOSIG=
201911221230 METAR LRBS 221230Z 04015KT 8000 OVC005 M00/M01 Q1025 R07/29//95
                        TEMPO 5000 -FZDZ=
201911221300 METAR COR LRBS 221300Z 05016KT 7000 OVC005 M00/M01 Q1026
                        R07/29//95 TEMPO 5000 -FZDZ=
201911221330 METAR LRBS 221330Z 05016KT 7000 -FZDZ OVC004 M00/M01 Q1026
                        R07/29//95 TEMPO 5000 -FZDZ=
201911221400 METAR LRBS 221400Z 04016KT 8000 OVC005 M00/M01 Q1026 R07/29//95
                        TEMPO 5000 -FZDZ=
201911221430 METAR LRBS 221430Z 04014KT 8000 OVC005 M00/M01 Q1026 R07/29//95
                        TEMPO 5000 -FZDZ=
201911221500 METAR LRBS 221500Z 05015KT 9999 OVC005 M01/M01 Q1026 R07/29//95
                        TEMPO 5000 -FZDZ=
201911221530 METAR LRBS 221530Z 04014KT 9999 OVC006 M01/M02 Q1026 R07/29//95
                        NOSIG=
201911221600 METAR LRBS 221600Z 05016KT 9999 BKN007 OVC015 M01/M02 Q1026
                        R07/29//95 NOSIG=
201911221630 METAR LRBS 221630Z 05013KT 020V080 9999 OVC009 M01/M02 Q1026
                        R07/29//95 NOSIG=
201911221700 METAR LRBS 221700Z 05015KT 9999 BKN008 OVC014 M01/M02 Q1026
                        R07/29//95 NOSIG=
201911221730 METAR LRBS 221730Z 05013KT 9999 BKN008 OVC017 M01/M02 Q1026
                        R07/29//95 BECMG 5000 -SN=
201911221800 METAR LRBS 221800Z 05012KT 9999 OVC008 M01/M02 Q1027 R07/29//95
                        BECMG 5000 -SN=
201911221830 METAR LRBS 221830Z 05013KT 9999 OVC008 M01/M03 Q1027 R07/29//95
                        BECMG 5000 -SN=
201911221900 METAR LRBS 221900Z 05013KT 9000 -SN BKN008 OVC017 M01/M03
                        Q1027 R07/29//95 BECMG 5000 -SN=
201911221930 METAR LRBS 221930Z 05012KT 9999 BKN007 OVC017 M01/M02 Q1027
                        R07/19//95 BECMG 5000 -SN=
201911222000 METAR LRBS 222000Z 05011KT 9999 BKN007 OVC017 M01/M02 Q1027
                        R07/19//95 NOSIG=
201911222030 METAR LRBS 222030Z 05011KT 9999 BKN008 OVC019 M01/M02 Q1027
                        R07/19//95 NOSIG=
201911222100 METAR LRBS 222100Z 05011KT 9999 BKN008 OVC018 M01/M02 Q1026
                        R07/19//95 BECMG 5000 -SN=
201911222130 METAR LRBS 222130Z 05010KT 9999 BKN007 OVC019 M01/M02 Q1026
                        R07/19//95 BECMG 5000 -SN=
201911222200 METAR LRBS 222200Z 05011KT 9999 FEW007 SCT009 OVC019 M01/M03
                        Q1026 R07/19//95 NOSIG=
201911222230 METAR LRBS 222230Z 05009KT 9999 SCT008 OVC020 M01/M02 Q1026
                        R07/19//95 NOSIG=
201911222300 METAR LRBS 222300Z 05007KT 9999 FEW008 OVC020 M01/M02 Q1026
                        R07/19//95 BECMG 5000 -SN=
201911222330 METAR LRBS 222330Z 05010KT 9999 FEW008 OVC019 M01/M02 Q1026
                        R07/19//95 BECMG 5000 -SN=
201911230000 METAR LRBS 230000Z 05009KT 9999 FEW009 OVC018 M01/M02 Q1026
                        R07/19//95 BECMG 5000 -SN=
201911230030 METAR LRBS 230030Z 05010KT 9999 -SN OVC018 M00/M02 Q1026
                        R07/19//95 BECMG 5000 -SN=
201911230100 METAR LRBS 230100Z 05009KT 3500 -SN BR SCT008 OVC017 M01/M02
                        Q1026 R07/29//95 TEMPO 3000 -SN=
201911230130 METAR LRBS 230130Z 05005KT 3500 -SN BR FEW005 BKN008 OVC016
                        M01/M01 Q1026 R07/29//95 NOSIG=
201911230200 METAR COR LRBS 230200Z 04005KT 360V070 7000 -PL BKN007 OVC049
                        M00/M01 Q1026 R07/29//95 NOSIG=
201911230230 METAR LRBS 230230Z 04007KT 010V070 8000 -PL BKN008 BKN014
                        M00/M01 Q1026 R07/29//95 NOSIG=
201911230300 METAR COR LRBS 230300Z 04008KT 9999 -FZRA BKN007 OVC014 M00/M01
                        Q1026 R07/29//95 NOSIG=
201911230330 METAR LRBS 230330Z 06008KT 9000 -FZRA OVC005 M00/M01 Q1026
                        R07/29//95 NOSIG=
201911230400 METAR LRBS 230400Z 06008KT 9999 -FZRA OVC006 M00/M01 Q1026
                        R07/29//95 NOSIG=
201911230430 METAR COR LRBS 230430Z 06006KT 040V100 9999 OVC005 M00/M01
                        Q1026 REFZRA R07/29//95 NOSIG=
201911230500 METAR LRBS 230500Z 06007KT 9999 OVC006 M00/M01 Q1026 R07/29//95
                        NOSIG=
201911230530 METAR LRBS 230530Z 06007KT 9999 OVC007 M00/M01 Q1026 R07/29//95
                        NOSIG=
201911230600 METAR LRBS 230600Z 05007KT 9999 OVC006 M00/M01 Q1026 R07/29//95
                        NOSIG=
201911230630 METAR LRBS 230630Z 06007KT 9999 -FZRA OVC006 M00/M01 Q1026
                        R07/29//95 NOSIG=
201911230700 METAR LRBS 230700Z 05007KT 9999 OVC006 00/M01 Q1026 R07/29//95
                        NOSIG=
201911230730 METAR LRBS 230730Z 05007KT 9999 OVC006 00/M01 Q1026 R07/29//95
                        NOSIG=
201911230800 METAR LRBS 230800Z 06007KT 9999 OVC006 00/M01 Q1026 R07/29//95
                        NOSIG=
201911230830 METAR LRBS 230830Z 06007KT 9999 OVC005 00/M00 Q1026 R07/29//95
                        NOSIG=
201911230900 METAR LRBS 230900Z 04006KT 9999 OVC005 01/M00 Q1026 R07/29//95
                        NOSIG=
201911230930 METAR LRBS 230930Z 05007KT 9999 OVC005 01/M00 Q1026 R07/29//95
                        NOSIG=
201911231000 METAR LRBS 231000Z 04007KT 9999 OVC005 01/00 Q1025 R07/29//95
                        NOSIG=
201911231030 METAR LRBS 231030Z 04007KT 5000 BR OVC003 01/00 Q1025 R07/29//95
                        NOSIG=
201911231100 METAR LRBS 231100Z 04006KT 3000 BR OVC002 01/00 Q1025 R07/29//95
                        NOSIG=
201911231130 METAR LRBS 231130Z 05006KT 020V080 1500 BR OVC002 01/01 Q1025
                        R07/29//95 NOSIG=
201911231200 METAR COR LRBS 231200Z 04005KT 1500 BR OVC002 01/01 Q1025
                        R07/29//95 NOSIG=
201911231230 METAR LRBS 231230Z 05007KT 2000 -DZ BR OVC002 01/01 Q1025
                        R07/29//95 NOSIG=
201911231300 METAR LRBS 231300Z 04008KT 2400 -DZ BR OVC002 01/01 Q1024
                        R07/29//95 NOSIG=
201911231330 METAR COR LRBS 231330Z 03007KT 2300 -DZ FG OVC003 01/01 Q1024
                        R07/29//95 NOSIG=
201911231400 METAR LRBS 231400Z 05008KT 3000 -DZ BR OVC003 01/01 Q1024
                        R07/29//95 NOSIG=
201911231430 METAR LRBS 231430Z 04007KT 2500 -RA BR OVC003 01/01 Q1024
                        R07/29//95 NOSIG=
201911231500 METAR COR LRBS 231500Z 04006KT 020V080 3000 -RA BR OVC003
                        01/01 Q1024 R07/29//95 NOSIG=
201911231530 METAR LRBS 231530Z 05005KT 020V080 3500 -RA BR OVC003 01/01
                        Q1024 R07/29//95 NOSIG=
201911231600 METAR LRBS 231600Z 05007KT 3200 -RA BR OVC003 01/01 Q1025
                        R07/29//95 NOSIG=
201911231630 METAR LRBS 231630Z 04006KT 3400 -DZ BR OVC003 01/01 Q1025
                        R07/29//95 NOSIG=
201911231700 METAR LRBS 231700Z 04005KT 3000 -DZ BR OVC003 01/01 Q1025
                        R07/29//95 NOSIG=
201911231730 METAR LRBS 231730Z 04005KT 360V060 3000 -DZ BR OVC003 01/01
                        Q1025 R07/29//95 NOSIG=
201911231800 METAR LRBS 231800Z 04005KT 2000 -DZ BR OVC003 01/01 Q1025
                        R07/29//95 NOSIG=
201911231830 METAR LRBS 231830Z 05006KT 010V070 3000 -DZ BR OVC003 01/01
                        Q1025 R07/29//95 NOSIG=
201911231900 METAR COR LRBS 231900Z 05004KT 010V080 3000 -DZ BR OVC003
                        01/01 Q1025 R07/29//95 NOSIG=
201911231930 METAR LRBS 231930Z 05005KT 3000 -DZ BR OVC003 01/01 Q1025
                        R07/29//95 NOSIG=
201911232000 METAR LRBS 232000Z 04004KT 2000 BR OVC003 01/01 Q1025 R07/29//95
                        NOSIG=
201911232030 METAR LRBS 232030Z 05005KT 3000 -DZ BR OVC003 01/01 Q1025
                        R07/29//95 NOSIG=
201911232100 METAR LRBS 232100Z 04003KT 010V070 3000 -DZ BR OVC002 01/01
                        Q1024 R07/29//95 NOSIG=
201911232130 METAR LRBS 232130Z 05004KT 3000 -DZ BR OVC003 02/01 Q1024
                        R07/29//95 NOSIG=
201911232200 METAR LRBS 232200Z 05004KT 020V090 3000 -DZ BR OVC002 02/01
                        Q1024 R07/29//95 NOSIG=
201911232230 METAR LRBS 232230Z 04003KT 010V070 4000 -DZ BR OVC003 02/01
                        Q1024 R07/29//95 NOSIG=
201911232300 METAR LRBS 232300Z 05005KT 4000 -DZ BR OVC002 02/01 Q1024
                        R07/29//95 NOSIG=
201911232330 METAR LRBS 232330Z 03003KT 3000 -DZ BR OVC002 02/01 Q1024
                        R07/29//95 NOSIG=
201911240000 METAR LRBS 240000Z 04003KT 3000 -DZ BR OVC002 02/02 Q1024
                        R07/29//95 NOSIG=
201911240030 METAR LRBS 240030Z 05004KT 020V080 3000 BR OVC003 02/02 Q1024
                        R07/29//95 NOSIG=
201911240100 METAR LRBS 240100Z 04003KT 010V070 3000 BR OVC002 02/02 Q1024
                        R07/29//95 NOSIG=
201911240130 METAR LRBS 240130Z VRB02KT 4000 -DZ BR OVC003 02/02 Q1024
                        R07/29//95 NOSIG=
201911240200 METAR LRBS 240200Z 05004KT 5000 -DZ BR OVC003 02/02 Q1023
                        R07/29//95 NOSIG=
201911240230 METAR LRBS 240230Z 04005KT 3000 BR OVC003 02/02 Q1023 R07/29//95
                        NOSIG=
201911240300 METAR LRBS 240300Z 05004KT 3000 BR OVC002 02/02 Q1023 R07/29//95
                        NOSIG=
201911240330 METAR LRBS 240330Z 05004KT 3000 BR OVC002 02/02 Q1023 R07/29//95
                        NOSIG=
201911240400 METAR LRBS 240400Z 05003KT 2000 BR OVC002 02/02 Q1023 R07/29//95
                        NOSIG=
201911240430 METAR LRBS 240430Z 05005KT 1800 BR BKN002 OVC005 02/02 Q1023
                        R07/29//95 NOSIG=
201911240500 METAR LRBS 240500Z 06006KT 2000 -DZ BR BKN003 OVC018 02/02
                        Q1023 R07/29//95 NOSIG=
201911240530 METAR LRBS 240530Z 06006KT 2000 -DZ BR BKN002 OVC018 02/02
                        Q1023 R07/29//95 NOSIG=
201911240600 METAR COR LRBS 240600Z 06004KT 2500 -DZ BR BKN002 OVC013
                        02/02 Q1024 R07/29//95 NOSIG=
201911240630 METAR LRBS 240630Z 04004KT 2500 -DZ BR BKN002 OVC013 02/02
                        Q1024 R07/29//95 NOSIG=
201911240700 METAR LRBS 240700Z 06005KT 2500 -DZ BR BKN002 OVC014 02/02
                        Q1024 R07/29//95 NOSIG=
201911240730 METAR LRBS 240730Z 05005KT 2500 -DZ BR BKN002 OVC014 02/02
                        Q1024 R07/29//95 NOSIG=
201911240800 METAR LRBS 240800Z 05005KT 2500 -DZ BR BKN002 OVC013 03/02
                        Q1024 R07/29//95 NOSIG=
201911240830 METAR LRBS 240830Z 05005KT 2000 -DZ BR BKN002 OVC013 03/03
                        Q1024 R07/29//95 NOSIG=
201911240900 METAR LRBS 240900Z 04005KT 1800 -DZ BR OVC002 03/03 Q1024
                        R07/29//95 NOSIG=
201911240930 METAR LRBS 240930Z 05004KT 2500 -DZ BR OVC002 03/03 Q1024
                        R07/29//95 NOSIG=
201911241000 METAR LRBS 241000Z 05006KT 2500 -DZ BR OVC002 04/03 Q1023
                        R07/29//95 NOSIG=
201911241030 METAR LRBS 241030Z 05005KT 2500 BR OVC002 04/04 Q1023 R07/29//95
                        NOSIG=
201911241100 METAR LRBS 241100Z 05006KT 2500 BR OVC002 04/04 Q1023 R07/29//95
                        NOSIG=
201911241130 METAR LRBS 241130Z 05006KT 0800 R07/1300D R25/1400N -DZ FG
                        OVC002 04/04 Q1022 R07/29//95 TEMPO
                        0600 FG DZ=
201911241200 METAR LRBS 241200Z 05005KT 0800 R07/1300U R25/1600U -DZ FG
                        OVC002 04/04 Q1022 R07/29//95 BECMG
                        0600 FG=
201911241230 METAR LRBS 241230Z 05006KT 2000 BR OVC002 04/04 Q1022 R07/29//95
                        NOSIG=
201911241300 METAR LRBS 241300Z 05006KT 2000 BR OVC003 04/04 Q1022 R07/29//95
                        NOSIG=
201911241330 METAR LRBS 241330Z 05006KT 2500 BR OVC003 05/04 Q1022 R07/29//95
                        NOSIG=
201911241400 METAR LRBS 241400Z 04006KT 3000 BR OVC004 04/04 Q1022 R07/29//95
                        NOSIG=
201911241430 METAR LRBS 241430Z 05004KT 2000 -DZ BR OVC003 05/04 Q1022
                        R07/29//95 NOSIG=
201911241500 METAR LRBS 241500Z 04006KT 2000 BR OVC003 05/04 Q1022 R07/29//95
                        NOSIG=
201911241530 METAR LRBS 241530Z 04005KT 2500 -RA BR OVC003 05/04 Q1022
                        R07/29//95 NOSIG=
201911241600 METAR LRBS 241600Z 05005KT 3000 -RA BR OVC003 05/04 Q1022
                        R07/29//95 NOSIG=
201911241630 METAR LRBS 241630Z 05006KT 2500 -DZ BR OVC002 05/04 Q1022
                        R07/29//95 NOSIG=
201911241700 METAR LRBS 241700Z 05005KT 020V090 2500 -DZ BR OVC003 05/04
                        Q1022 R07/29//95 NOSIG=
201911241730 METAR LRBS 241730Z 05006KT 2000 BR OVC002 05/04 Q1022 R07/29//95
                        NOSIG=
201911241800 METAR COR LRBS 241800Z 05006KT 1500 -DZ BR OVC002 05/04 Q1021
                        R07/29//95 NOSIG=
201911241830 METAR LRBS 241830Z 04006KT 2200 -DZ BR OVC002 04/04 Q1021
                        R07/29//95 NOSIG=
201911241900 METAR LRBS 241900Z 04006KT 010V070 3000 BR OVC003 05/04 Q1021
                        R07/29//95 NOSIG=
201911241930 METAR LRBS 241930Z 05006KT 4000 BR OVC003 05/04 Q1021 R07/29//95
                        NOSIG=
201911242000 METAR LRBS 242000Z 05007KT 4000 -RA BR OVC004 05/04 Q1021
                        R07/29//95=
201911242030 METAR LRBS 242030Z 05007KT 4400 -RA BR OVC003 05/05 Q1020
                        R07/29//95 NOSIG=
201911242100 METAR LRBS 242100Z 05006KT 4000 -RA BR OVC003 05/05 Q1020
                        R07/29//95 NOSIG=
201911242130 METAR LRBS 242130Z 05005KT 020V080 4000 -RA BR OVC003 05/05
                        Q1020 R07/29//95 NOSIG=
201911242200 METAR LRBS 242200Z 05005KT 4000 -RA FG OVC003 05/05 Q1020
                        R07/29//95 NOSIG=
201911242230 METAR LRBS 242230Z 05006KT 4600 -RA BR OVC003 05/05 Q1020
                        R07/29//95 NOSIG=
201911242300 METAR LRBS 242300Z 05006KT 4600 -RA BR OVC003 05/05 Q1020
                        R07/29//95 NOSIG=
201911242330 METAR LRBS 242330Z 05005KT 4000 -RA BR OVC003 05/05 Q1019
                        R07/29//95 NOSIG=
201911250000 METAR LRBS 250000Z 04006KT 020V080 4000 BR OVC003 05/05 Q1019
                        R07/29//95 NOSIG=
201911250030 METAR LRBS 250030Z 05007KT 010V090 4200 BR OVC003 05/05 Q1019
                        R07/29//95 NOSIG=
201911250100 METAR LRBS 250100Z 04007KT 010V070 3400 BR OVC003 05/05 Q1019
                        R07/29//95 NOSIG=
201911250130 METAR LRBS 250130Z 05006KT 3000 -RA BR OVC002 05/05 Q1019
                        R07/29//95 NOSIG=
201911250200 METAR LRBS 250200Z 04005KT 010V070 3000 -RA BR OVC003 05/05
                        Q1018 R07/29//95 NOSIG=
201911250230 METAR LRBS 250230Z 05006KT 3500 -RA BR OVC003 05/05 Q1018
                        R07/29//95 NOSIG=
201911250300 METAR LRBS 250300Z 05007KT 3500 BR OVC002 05/05 Q1018 R07/29//95
                        NOSIG=
201911250330 METAR LRBS 250330Z 04007KT 3000 BR OVC002 05/05 Q1018 R07/29//95
                        NOSIG=
201911250400 METAR COR LRBS 250400Z 04008KT 3100 -RA BR OVC002 06/05 Q1018
                        R07/29//95 NOSIG=
201911250430 METAR LRBS 250430Z 05007KT 3000 -RA BR OVC002 06/05 Q1018
                        R07/29//95 NOSIG=
201911250500 METAR LRBS 250500Z 05008KT 3000 BR OVC002 06/05 Q1018 R07/29//95
                        NOSIG=
201911250530 METAR LRBS 250530Z 05007KT 2000 -RA BR OVC002 06/05 Q1018
                        R07/29//95 NOSIG=
201911250600 METAR LRBS 250600Z 05007KT 2800 -RA BR OVC002 06/05 Q1018
                        R07/29//95 NOSIG=
201911250630 METAR LRBS 250630Z 05008KT 3500 -RA BR OVC003 06/06 Q1018
                        R07/29//95 NOSIG=
201911250700 METAR LRBS 250700Z 05007KT 3500 -RA BR OVC003 06/06 Q1018
                        R07/29//95 NOSIG=
201911250730 METAR LRBS 250730Z 05008KT 3500 -RADZ BR FEW002 OVC003 06/06
                        Q1018 R07/29//95 NOSIG=
201911250800 METAR LRBS 250800Z 05008KT 2000 RA BR OVC003 06/06 Q1018
                        R07/29//95 NOSIG=
201911250830 METAR LRBS 250830Z 05008KT 2800 -RADZ BR OVC003 06/06 Q1018
                        R07/29//95 NOSIG=
201911250900 METAR LRBS 250900Z 05008KT 030V090 3500 -RA BR OVC002 06/06
                        Q1017 R07/29//95 NOSIG=
201911250930 METAR LRBS 250930Z 05007KT 2800 -RA BR OVC002 07/06 Q1017
                        R07/29//95 NOSIG=
201911251000 METAR LRBS 251000Z 05008KT 2500 BR OVC002 07/07 Q1017 R07/29//95
                        NOSIG=
201911251030 METAR LRBS 251030Z 05007KT 2500 BR OVC002 07/07 Q1016 R07/29//95
                        NOSIG=
201911251100 METAR LRBS 251100Z 04006KT 2800 BR OVC002 07/07 Q1016 R07/29//95
                        NOSIG=
201911251130 METAR LRBS 251130Z 05008KT 3000 BR OVC003 08/07 Q1016 R07/29//95
                        NOSIG=
201911251200 METAR LRBS 251200Z 04007KT 3000 BR OVC003 08/08 Q1016 R07/29//95
                        NOSIG=
201911251230 METAR LRBS 251230Z 04007KT 4000 BR OVC003 08/08 Q1015 R07/29//95
                        NOSIG=
201911251300 METAR LRBS 251300Z 03007KT 3700 BR OVC003 08/08 Q1015 R07/29//95
                        NOSIG=
201911251330 METAR LRBS 251330Z 03009KT 360V070 4500 BR OVC004 09/08 Q1015
                        R07/29//95 NOSIG=
201911251400 METAR LRBS 251400Z 04007KT 5000 BR OVC004 09/08 Q1015 R07/29//95
                        NOSIG=
201911251430 METAR LRBS 251430Z 04009KT 4500 BR OVC004 08/08 Q1015 R07/29//95
                        NOSIG=
201911251500 METAR LRBS 251500Z 04009KT 4000 BR OVC003 08/08 Q1015 R07/29//95
                        NOSIG=
201911251530 METAR LRBS 251530Z 04012KT 3500 BR OVC003 08/07 Q1015 R07/29//95
                        NOSIG=
201911251600 METAR LRBS 251600Z 04012KT 3500 BR OVC003 07/07 Q1016 R07/29//95
                        NOSIG=
201911251630 METAR LRBS 251630Z 04010KT 4000 BR BKN004 OVC012 07/07 Q1016
                        R07/29//95 NOSIG=
201911251700 METAR LRBS 251700Z 04010KT 4500 BR BKN004 OVC012 07/07 Q1016
                        R07/29//95 NOSIG=
201911251730 METAR LRBS 251730Z 04010KT 4000 BR OVC004 07/07 Q1016 R07/29//95
                        NOSIG=
201911251800 METAR LRBS 251800Z 05011KT 4000 BR OVC005 07/07 Q1016 R07/29//95
                        NOSIG=
201911251830 METAR LRBS 251830Z 04012KT 5000 BR BKN005 OVC040 07/06 Q1015
                        R07/29//95 NOSIG=
201911251900 METAR LRBS 251900Z 05010KT 5000 BR BKN004 OVC040 07/06 Q1016
                        R07/29//95 NOSIG=
201911251930 METAR LRBS 251930Z 05010KT 6000 BKN006 OVC040 07/06 Q1015
                        R07/29//95 NOSIG=
201911252000 METAR LRBS 252000Z 05010KT 8000 BKN006 OVC040 07/06 Q1015
                        R07/29//95 NOSIG=
201911252030 METAR LRBS 252030Z 04010KT 8000 BKN006 OVC040 07/06 Q1015
                        R07/29//95 NOSIG=
201911252100 METAR LRBS 252100Z 04010KT 9999 BKN006 OVC040 07/06 Q1015
                        R07/29//95 NOSIG=
201911252130 METAR LRBS 252130Z 05008KT 9999 BKN006 SCT032 OVC043 07/06
                        Q1015 R07/29//95 NOSIG=
201911252200 METAR LRBS 252200Z 05008KT 020V090 9999 BKN008 OVC034 07/06
                        Q1015 R07/29//95 NOSIG=
201911252230 METAR LRBS 252230Z 03011KT 9999 BKN005 OVC039 07/06 Q1015
                        R07/29//95 NOSIG=
201911252300 METAR LRBS 252300Z 04012KT 9999 BKN006 OVC038 06/05 Q1015
                        R07/29//95 NOSIG=
201911252330 METAR LRBS 252330Z 04009KT 010V070 9999 BKN005 OVC037 06/05
                        Q1014 R07/29//95 NOSIG=
201911260000 METAR LRBS 260000Z 04011KT 9999 SCT005 OVC038 07/05 Q1014
                        R07/29//95 NOSIG=
201911260030 METAR LRBS 260030Z 04009KT 360V060 9999 SCT004 OVC038 07/05
                        Q1014 R07/29//95 NOSIG=
201911260100 METAR LRBS 260100Z 03011KT 9999 SCT007 OVC033 06/05 Q1014
                        R07/29//95 NOSIG=
201911260130 METAR LRBS 260130Z 03011KT 9999 BKN004 OVC034 06/05 Q1014
                        R07/29//95 NOSIG=
201911260200 METAR LRBS 260200Z 03010KT 360V060 6000 BKN005 OVC034 06/05
                        Q1014 R07/29//95 NOSIG=
201911260230 METAR LRBS 260230Z 03009KT 6000 BKN005 OVC034 06/05 Q1014
                        R07/29//95 NOSIG=
201911260300 METAR LRBS 260300Z 03009KT 7000 BKN005 OVC032 06/05 Q1014
                        R07/29//95 NOSIG=
201911260330 METAR LRBS 260330Z 04008KT 360V060 9999 BKN006 OVC032 06/05
                        Q1014 R07/29//95 NOSIG=
201911260400 METAR LRBS 260400Z 03009KT 360V070 9999 BKN006 OVC029 06/05
                        Q1014 R07/29//95 NOSIG=
201911260430 METAR LRBS 260430Z 03010KT 9999 BKN005 OVC035 05/04 Q1014
                        R07/29//95 NOSIG=
201911260500 METAR LRBS 260500Z 04011KT 9999 SCT007 BKN034 05/04 Q1014
                        R07/29//95 NOSIG=
201911260530 METAR LRBS 260530Z 03010KT 9999 FEW005 SCT007 BKN030 05/04
                        Q1014 R07/29//95 NOSIG=
201911260600 METAR LRBS 260600Z 04011KT 9999 BKN006 OVC028 05/04 Q1014
                        R07/29//95 NOSIG=
201911260630 METAR LRBS 260630Z 04009KT 9999 BKN005 OVC023 05/04 Q1014
                        R07/29//95 NOSIG=
201911260700 METAR LRBS 260700Z 03009KT 010V070 9999 FEW005 SCT007 BKN023
                        05/04 Q1014 R07/29//95 NOSIG=
201911260730 METAR LRBS 260730Z 03009KT 360V060 9999 SCT007 BKN025 05/04
                        Q1014 R07/29//95 NOSIG=
201911260800 METAR LRBS 260800Z 04010KT 360V070 9999 SCT007 BKN027 05/04
                        Q1014 R07/29//95 NOSIG=
201911260830 METAR LRBS 260830Z 04009KT 9999 SCT007 BKN020 06/04 Q1014
                        R07/29//95 NOSIG=
201911260900 METAR LRBS 260900Z 03010KT 360V060 9999 BKN008 BKN019 06/04
                        Q1014 R07/29//95 NOSIG=
201911260930 METAR LRBS 260930Z 04009KT 9999 BKN007 OVC020 05/04 Q1014
                        R07/29//95 NOSIG=
201911261000 METAR LRBS 261000Z 03006KT 360V070 9999 BKN007 OVC019 05/04
                        Q1014 R07/29//95 NOSIG=
201911261030 METAR LRBS 261030Z 03007KT 9999 OVC007 05/03 Q1014 R07/29//95
                        NOSIG=
201911261100 METAR LRBS 261100Z 03007KT 9999 OVC007 05/04 Q1014 R07/29//95
                        NOSIG=
201911261130 METAR LRBS 261130Z 04007KT 9999 OVC007 05/04 Q1014 R07/29//95
                        NOSIG=
201911261200 METAR LRBS 261200Z 06008KT 020V080 9999 OVC006 05/04 Q1013
                        R07/29//95 NOSIG=
201911261230 METAR LRBS 261230Z 05005KT 9999 OVC006 05/03 Q1014 R07/29//95
                        NOSIG=
201911261300 METAR LRBS 261300Z 07006KT 020V090 9999 OVC006 05/04 Q1013
                        R07/29//95 NOSIG=
201911261330 METAR LRBS 261330Z 04005KT 010V070 9999 OVC006 05/03 Q1014
                        R07/29//95 NOSIG=
201911261400 METAR LRBS 261400Z 05006KT 9999 OVC006 04/03 Q1014 R07/29//95
                        NOSIG=
201911261430 METAR LRBS 261430Z 07004KT 9999 OVC006 04/03 Q1014 R07/29//95
                        NOSIG=
201911261500 METAR LRBS 261500Z 05005KT 360V070 9999 OVC005 04/03 Q1014
                        R07/29//95 NOSIG=
201911261530 METAR LRBS 261530Z 02004KT 350V050 9999 OVC005 04/03 Q1014
                        R07/29//95 NOSIG=
201911261600 METAR LRBS 261600Z 01004KT 9999 OVC005 04/02 Q1014 R07/29//95
                        BECMG 5000 BR=
201911261630 METAR COR LRBS 261630Z 04005KT 7000 OVC005 03/03 Q1015 R07/CLRD//
                        BECMG 5000 BR=
201911261700 METAR LRBS 261700Z 01004KT 340V040 8000 OVC004 03/02 Q1015
                        BECMG 5000 BR=
201911261730 METAR LRBS 261730Z 36003KT 320V020 6000 MIFG BKN003 OVC005
                        03/02 Q1015 BECMG 5000 BR=
201911261800 METAR LRBS 261800Z VRB02KT 3000 BR SCT002 OVC003 03/03 Q1015
                        NOSIG=
201911261830 METAR LRBS 261830Z 32003KT 3500 BR BKN003 OVC005 03/03 Q1015
                        NOSIG=
201911261900 METAR LRBS 261900Z 33003KT 300V360 4500 BR BKN003 OVC005
                        03/03 Q1015 NOSIG=
201911261930 METAR LRBS 261930Z 31003KT 7000 BKN004 OVC006 04/03 Q1015
                        NOSIG=
201911262000 METAR LRBS 262000Z 31003KT 7000 BKN003 OVC005 04/03 Q1015
                        NOSIG=
201911262030 METAR LRBS 262030Z 29003KT 7000 BKN004 OVC006 04/03 Q1015
                        NOSIG=
201911262100 METAR LRBS 262100Z 31003KT 7000 FEW004 OVC005 04/03 Q1015
                        NOSIG=
201911262130 METAR LRBS 262130Z 29003KT 8000 BKN004 OVC007 03/03 Q1015
                        NOSIG=
201911262200 METAR LRBS 262200Z VRB01KT 9000 OVC004 03/03 Q1015 BECMG
                        BKN010=
201911262230 METAR LRBS 262230Z 00000KT 9999 OVC005 03/02 Q1015 NOSIG=
201911262300 METAR LRBS 262300Z 00000KT 9000 OVC004 03/02 Q1015 NOSIG=
201911262330 METAR LRBS 262330Z VRB02KT 8000 OVC004 03/02 Q1014 NOSIG=
201911270000 METAR LRBS 270000Z 27005KT 7000 OVC003 03/02 Q1014 TEMPO
                        5000 BR=
201911270030 METAR LRBS 270030Z 24006KT 7000 OVC003 03/02 Q1014 TEMPO
                        5000 BR=
201911270100 METAR LRBS 270100Z 22004KT 5000 BR OVC003 03/02 Q1014 TEMPO
                        3000 BR=
201911270130 METAR LRBS 270130Z 22005KT 180V250 2500 -DZ BR OVC002 03/02
                        Q1014 TEMPO 1500 -DZ BR=
201911270200 METAR LRBS 270200Z 23004KT 1700 BR OVC002 03/02 Q1014 TEMPO
                        1500 -DZ BR=
201911270230 METAR LRBS 270230Z 20004KT 170V230 1700 BR OVC002 03/03 Q1014
                        NOSIG=
201911270300 METAR LRBS 270300Z 22004KT 2500 BR OVC002 03/03 Q1014 NOSIG=
201911270330 METAR LRBS 270330Z 20004KT 170V230 2500 BR OVC002 04/03 Q1014
                        NOSIG=
201911270400 METAR LRBS 270400Z 22003KT 3500 BR OVC002 04/03 Q1013 BECMG
                        5000 BKN005=
201911270430 METAR LRBS 270430Z 21005KT 3000 BR OVC002 04/04 Q1013 BECMG
                        5000 BKN005=
201911270500 METAR LRBS 270500Z 22004KT 1700 -DZ BR OVC002 04/04 Q1014
                        TEMPO 1500 -DZ BR=
201911270530 METAR LRBS 270530Z 20005KT 180V240 1800 BR OVC002 04/04 Q1014
                        TEMPO 1500 -DZ BR=
201911270600 METAR LRBS 270600Z 21005KT 180V240 2300 BR OVC002 04/04 Q1014
                        NOSIG=
201911270630 METAR LRBS 270630Z 22005KT 2000 BR OVC002 04/04 Q1014 NOSIG=
201911270700 METAR LRBS 270700Z 22006KT 2200 BR OVC002 05/04 Q1014 NOSIG=
201911270730 METAR LRBS 270730Z 22008KT 170V240 2500 BR OVC003 05/04 Q1014
                        BECMG 5000=
201911270800 METAR LRBS 270800Z 24008KT 5000 BR OVC004 05/04 Q1014 NOSIG=
201911270830 METAR LRBS 270830Z 23006KT 7000 OVC006 06/05 Q1014 NOSIG=
201911270900 METAR LRBS 270900Z 23007KT 7000 OVC007 06/05 Q1014 NOSIG=
201911270930 METAR LRBS 270930Z 24007KT 9000 OVC007 06/04 Q1014 NOSIG=
201911271000 METAR LRBS 271000Z 25005KT 210V280 9999 OVC008 06/05 Q1014
                        NOSIG=
201911271030 METAR LRBS 271030Z 24005KT 210V270 9999 OVC008 07/05 Q1014
                        NOSIG=
201911271100 METAR LRBS 271100Z 24005KT 200V270 9999 OVC010 07/05 Q1014
                        NOSIG=
201911271130 METAR LRBS 271130Z 24005KT 210V280 9999 OVC010 07/05 Q1013
                        NOSIG=
201911271200 METAR LRBS 271200Z 24005KT 200V270 9999 OVC010 07/04 Q1013
                        NOSIG=
201911271230 METAR LRBS 271230Z 25005KT 230V300 9999 OVC010 07/05 Q1013
                        NOSIG=
201911271300 METAR LRBS 271300Z 26004KT 240V300 9999 OVC010 07/05 Q1013
                        NOSIG=
201911271330 METAR LRBS 271330Z VRB01KT 9999 BKN011 07/05 Q1013 NOSIG=
201911271400 METAR LRBS 271400Z VRB01KT 9999 BKN011 07/05 Q1013 NOSIG=
201911271430 METAR LRBS 271430Z VRB02KT 9999 BKN011 07/04 Q1013 NOSIG=
201911271500 METAR COR LRBS 271500Z VRB01KT 9999 OVC011 07/05 Q1013 NOSIG=
201911271530 METAR LRBS 271530Z 22003KT 9999 OVC011 06/04 Q1013 NOSIG=
201911271600 METAR LRBS 271600Z 23003KT 170V270 9999 OVC010 06/04 Q1013
                        NOSIG=
201911271630 METAR LRBS 271630Z 16003KT 100V220 9999 OVC010 06/04 Q1013
                        NOSIG=
201911271700 METAR LRBS 271700Z 15003KT 9999 OVC009 06/04 Q1013 NOSIG=
201911271730 METAR LRBS 271730Z 18003KT 150V220 9999 OVC008 06/04 Q1013
                        BECMG 5000 BR OVC005=
201911271800 METAR LRBS 271800Z 20003KT 9000 OVC007 06/04 Q1013 BECMG
                        5000 BR OVC005=
201911271830 METAR LRBS 271830Z 22003KT 190V260 8000 OVC007 06/04 Q1013
                        BECMG 5000 BR OVC005=
201911271900 METAR LRBS 271900Z 24005KT 7000 OVC007 06/04 Q1014 BECMG
                        5000 BR OVC005=
201911271930 METAR LRBS 271930Z 26003KT 210V280 5000 BR OVC007 05/04 Q1013
                        BECMG 3000 BR OVC005=
201911272000 METAR LRBS 272000Z VRB01KT 5000 BR OVC006 05/04 Q1013 BECMG
                        3000 BR OVC005=
201911272030 METAR LRBS 272030Z 00000KT 5000 BR OVC006 05/04 Q1013 BECMG
                        3000 BR OVC005=
201911272100 METAR LRBS 272100Z 19003KT 170V230 5000 BR OVC006 05/04 Q1013
                        BECMG 3000 BR OVC005=
201911272130 METAR LRBS 272130Z 26004KT 230V290 5000 BR OVC006 05/04 Q1013
                        BECMG 3000 BR OVC005=
201911272200 METAR LRBS 272200Z 22004KT 190V250 5000 BR OVC006 05/04 Q1013
                        NOSIG=
201911272230 METAR LRBS 272230Z 25001KT 7000 OVC006 05/04 Q1013 NOSIG=
201911272300 METAR LRBS 272300Z 00000KT 7000 OVC006 05/04 Q1012 BECMG
                        OVC010=
201911272330 METAR LRBS 272330Z VRB01KT 7000 OVC007 05/04 Q1012 BECMG
                        OVC010=
201911280000 METAR LRBS 280000Z 23004KT 200V260 7000 OVC007 05/04 Q1012
                        NOSIG=
201911280030 METAR LRBS 280030Z 23003KT 200V270 8000 OVC007 05/04 Q1012
                        NOSIG=
201911280100 METAR COR LRBS 280100Z 21003KT 9000 OVC008 05/04 Q1012 NOSIG=
201911280130 METAR LRBS 280130Z 22004KT 190V250 9000 OVC008 05/04 Q1012
                        NOSIG=
201911280200 METAR LRBS 280200Z VRB02KT 9000 OVC010 05/04 Q1011 NOSIG=
201911280230 METAR LRBS 280230Z 15003KT 9000 OVC010 05/04 Q1011 NOSIG=
201911280300 METAR LRBS 280300Z 18002KT 9000 OVC010 06/04 Q1011 NOSIG=
201911280330 METAR LRBS 280330Z 21002KT 9000 OVC011 06/04 Q1011 NOSIG=
201911280400 METAR LRBS 280400Z 21004KT 8000 OVC010 06/04 Q1011 NOSIG=
201911280430 METAR LRBS 280430Z 22005KT 8000 OVC010 06/04 Q1011 NOSIG=
201911280500 METAR LRBS 280500Z 23005KT 9999 OVC010 06/04 Q1011 NOSIG=
201911280530 METAR LRBS 280530Z 24005KT 9999 OVC009 06/04 Q1011 NOSIG=
201911280600 METAR LRBS 280600Z 24005KT 8000 OVC009 06/04 Q1011 NOSIG=
201911280630 METAR LRBS 280630Z 26005KT 7000 OVC009 06/04 Q1011 NOSIG=
201911280700 METAR LRBS 280700Z 24004KT 7000 OVC009 06/04 Q1011 NOSIG=
201911280730 METAR LRBS 280730Z 25006KT 7000 OVC009 06/04 Q1011 NOSIG=
201911280800 METAR LRBS 280800Z 26006KT 7000 OVC008 07/05 Q1011 NOSIG=
201911280830 METAR LRBS 280830Z 25006KT 220V280 7000 OVC007 06/04 Q1011
                        NOSIG=
201911280900 METAR LRBS 280900Z 27004KT 240V310 7000 OVC008 07/05 Q1011
                        NOSIG=
201911280930 METAR LRBS 280930Z 26006KT 230V300 7000 OVC009 07/05 Q1011
                        NOSIG=
201911281000 METAR LRBS 281000Z 26004KT 220V280 7000 BKN009 08/05 Q1010
                        NOSIG=
201911281030 METAR LRBS 281030Z 27004KT 210V320 7000 SCT009 SCT046 08/05
                        Q1010 NOSIG=
201911281100 METAR LRBS 281100Z 25005KT 7000 FEW010 08/05 Q1010 NOSIG=
201911281130 METAR LRBS 281130Z 26004KT 210V300 7000 NSC 09/05 Q1010 NOSIG=
201911281200 METAR LRBS 281200Z 24004KT 210V280 8000 NSC 09/06 Q1009 NOSIG=
201911281230 METAR LRBS 281230Z 24003KT 200V270 8000 NSC 09/06 Q1009 NOSIG=
201911281300 METAR LRBS 281300Z 23004KT CAVOK 09/06 Q1009 NOSIG=
201911281330 METAR LRBS 281330Z 26005KT CAVOK 10/06 Q1009 NOSIG=
201911281400 METAR LRBS 281400Z 24002KT CAVOK 10/06 Q1009 NOSIG=
201911281430 METAR LRBS 281430Z 24002KT CAVOK 10/06 Q1009 NOSIG=
201911281500 METAR LRBS 281500Z 23002KT CAVOK 09/06 Q1008 NOSIG=
201911281530 METAR LRBS 281530Z 23003KT CAVOK 09/06 Q1008 NOSIG=
201911281600 METAR LRBS 281600Z 24001KT 8000 NSC 08/06 Q1008 NOSIG=
201911281630 METAR LRBS 281630Z 26001KT 7000 NSC 08/06 Q1008 NOSIG=
201911281700 METAR LRBS 281700Z 27001KT 5000 BR NSC 08/06 Q1008 NOSIG=
201911281730 METAR LRBS 281730Z 32001KT 4300 BR NSC 08/06 Q1008 TEMPO
                        3000 BR=
201911281800 METAR LRBS 281800Z 32003KT 4800 BR NSC 07/06 Q1008 TEMPO
                        3000 BR=
201911281830 METAR LRBS 281830Z VRB01KT 5000 BR NSC 07/05 Q1007 NOSIG=
201911281900 METAR LRBS 281900Z 09001KT 5000 BR NSC 05/05 Q1007 NOSIG=
201911281930 METAR LRBS 281930Z 11001KT 3000 BR NSC 06/05 Q1007 NOSIG=
201911282000 METAR LRBS 282000Z VRB02KT 3000 BR NSC 06/05 Q1007 NOSIG=
201911282030 METAR LRBS 282030Z 00000KT 3500 BR NSC 06/05 Q1006 NOSIG=
201911282100 METAR LRBS 282100Z 00000KT 3500 BR NSC 06/05 Q1006 NOSIG=
201911282130 METAR LRBS 282130Z VRB01KT 4000 BR NSC 06/06 Q1006 NOSIG=
201911282200 METAR LRBS 282200Z VRB01KT 4000 BR NSC 06/06 Q1006 NOSIG=
201911282230 METAR LRBS 282230Z VRB01KT 3400 -RA FG NSC 07/06 Q1005 NOSIG=
201911282300 METAR LRBS 282300Z 28002KT 3300 -RA BR NSC 07/06 Q1006 NOSIG=
201911282330 METAR LRBS 282330Z VRB02KT 4300 -RA BR NSC 07/06 Q1006 NOSIG=
201911290000 METAR COR LRBS 290000Z 24002KT 4100 -RA BR NSC 07/07 Q1006
                        NOSIG=
201911290030 METAR LRBS 290030Z 28003KT 240V320 3600 -RA BR NSC 07/07
                        Q1006 NOSIG=
201911290100 METAR LRBS 290100Z VRB01KT 3000 -RA BR NSC 07/07 Q1005 NOSIG=
201911290130 METAR LRBS 290130Z VRB01KT 3000 BR NSC 07/07 Q1004 NOSIG=
201911290200 METAR LRBS 290200Z VRB01KT 3700 BR NSC 07/07 Q1004 TEMPO
                        1500 BR=
201911290230 METAR LRBS 290230Z 30002KT 2000 BR NSC 07/07 Q1004 TEMPO
                        1500 BR=
201911290300 METAR LRBS 290300Z 27003KT 2000 BR FEW002 07/07 Q1004 TEMPO
                        0800 FG BKN002=
201911290330 METAR LRBS 290330Z 28005KT 2000 BR BKN002 07/07 Q1005 TEMPO
                        1500 BR=
201911290400 METAR LRBS 290400Z 25007KT 0800 R07/1600 R25/P2000 FG OVC001
                        07/07 Q1005 TEMPO 0600 FG=
201911290430 METAR LRBS 290430Z 23007KT 0800 R07/1100U R25/1100U FG OVC001
                        07/07 Q1005 R07/29//95 TEMPO 0600
                        FG=
201911290500 METAR LRBS 290500Z 24010KT 2500 BR OVC003 07/07 Q1005 R07/29//95
                        BECMG 3000 BKN003=
201911290530 METAR LRBS 290530Z 24010KT 2000 BR OVC002 08/07 Q1005 R07/29//95
                        TEMPO 3000=
201911290600 METAR LRBS 290600Z 23008KT 2500 BR OVC003 08/07 Q1004 R07/29//95
                        NOSIG=
201911290630 METAR LRBS 290630Z 23008KT 2200 BR BKN003 OVC013 08/07 Q1005
                        R07/29//95 NOSIG=
201911290700 METAR LRBS 290700Z 23011KT 2000 BR OVC003 08/08 Q1005 R07/29//95
                        NOSIG=
201911290730 METAR LRBS 290730Z 24010KT 1800 BR OVC002 08/08 Q1005 R07/29//95
                        NOSIG=
201911290800 METAR LRBS 290800Z 24009KT 3000 BR SCT003 BKN005 OVC011 09/08
                        Q1005 R07/29//95 NOSIG=
201911290830 METAR LRBS 290830Z 28008KT 250V320 5000 BR BKN005 OVC011
                        09/08 Q1005 R07/29//95 BECMG 7000
                        BKN010=
201911290900 METAR LRBS 290900Z 27011KT 6000 OVC007 09/08 Q1005 R07/29//95
                        BECMG BKN010=
201911290930 METAR LRBS 290930Z 27009KT 240V320 7000 OVC008 09/08 Q1005
                        R07/29//95 BECMG BKN010=
201911291000 METAR LRBS 291000Z 27011KT 8000 BKN009 10/08 Q1005 R07/29//95
                        BECMG BKN015=
201911291030 METAR LRBS 291030Z 27008KT 250V320 8000 OVC009 10/08 Q1005
                        R07/19//95 BECMG BKN015=
201911291100 METAR LRBS 291100Z 27008KT 250V310 9000 OVC009 10/08 Q1005
                        R07/19//95 BECMG BKN015=
201911291130 METAR LRBS 291130Z 27009KT 8000 OVC009 10/08 Q1005 R07/19//95
                        BECMG BKN015=
201911291200 METAR LRBS 291200Z 26011KT 9000 OVC010 10/08 Q1005 R07/19//95
                        BECMG BKN015=
201911291230 METAR LRBS 291230Z 28009KT 240V310 9999 BKN010 10/08 Q1005
                        R07/19//95 BECMG SCT015=
201911291300 METAR LRBS 291300Z 27011KT 240V300 9999 FEW011 11/08 Q1005
                        R07/19//95 NOSIG=
201911291330 METAR LRBS 291330Z 27007KT 9999 FEW012 11/08 Q1005 R07/19//95
                        NOSIG=
201911291400 METAR LRBS 291400Z 27004KT CAVOK 11/08 Q1006 R07/19//95 NOSIG=
201911291430 METAR LRBS 291430Z 25004KT CAVOK 11/08 Q1006 R07/19//95 NOSIG=
201911291500 METAR LRBS 291500Z 27004KT 230V310 CAVOK 11/08 Q1006 R07/19//95
                        NOSIG=
201911291530 METAR LRBS 291530Z 30003KT 260V350 CAVOK 11/08 Q1007 R07/19//95
                        NOSIG=
201911291600 METAR LRBS 291600Z 27004KT CAVOK 10/08 Q1007 R07/19//95 NOSIG=
201911291630 METAR LRBS 291630Z 28004KT CAVOK 11/09 Q1007 R07/19//95 NOSIG=
201911291700 METAR LRBS 291700Z 27006KT CAVOK 10/09 Q1007 R07/19//95 NOSIG=
201911291730 METAR LRBS 291730Z 27006KT CAVOK 10/09 Q1007 R07/19//95 NOSIG=
201911291800 METAR LRBS 291800Z 27004KT CAVOK 10/09 Q1007 R07/19//95 NOSIG=
201911291830 METAR LRBS 291830Z 27006KT 230V300 CAVOK 10/09 Q1007 R07/19//95
                        NOSIG=
201911291900 METAR LRBS 291900Z 28005KT 260V340 CAVOK 10/08 Q1007 R07/19//95
                        NOSIG=
201911291930 METAR LRBS 291930Z 28007KT 250V310 CAVOK 10/08 Q1008 R07/19//95
                        NOSIG=
201911292000 METAR LRBS 292000Z 28006KT CAVOK 09/08 Q1008 R07/19//95 NOSIG=
201911292030 METAR LRBS 292030Z 27005KT CAVOK 09/07 Q1008 R07/19//95 NOSIG=
201911292100 METAR LRBS 292100Z 28005KT 250V310 CAVOK 09/07 Q1008 R07/19//95
                        NOSIG=
201911292130 METAR LRBS 292130Z 27006KT CAVOK 08/07 Q1008 R07/19//95 NOSIG=
201911292200 METAR LRBS 292200Z 28005KT CAVOK 08/07 Q1009 R07/19//95 NOSIG=
201911292230 METAR LRBS 292230Z 27006KT CAVOK 08/07 Q1009 R07/19//95 NOSIG=
201911292300 METAR LRBS 292300Z 28005KT CAVOK 07/06 Q1009 R07/19//95 NOSIG=
201911292330 METAR LRBS 292330Z 27005KT 240V300 CAVOK 07/06 Q1010 R07/19//95
                        NOSIG=
201911300000 METAR LRBS 300000Z 28003KT CAVOK 06/06 Q1009 R07/19//95 NOSIG=
201911300030 METAR LRBS 300030Z 27003KT CAVOK 06/05 Q1010 R07/19//95 NOSIG=
201911300100 METAR LRBS 300100Z VRB02KT 8000 MIFG NSC 05/05 Q1010 R07/19//95
                        TEMPO 5000 BR=
201911300130 METAR LRBS 300130Z 25003KT 8000 MIFG NSC 05/05 Q1009 R07/19//95
                        TEMPO 5000 BR=
201911300200 METAR LRBS 300200Z 29005KT 8000 MIFG NSC 05/04 Q1010 R07/19//95
                        TEMPO 5000 BR=
201911300230 METAR LRBS 300230Z VRB02KT CAVOK 05/04 Q1010 R07/19//95 NOSIG=
201911300300 METAR LRBS 300300Z 24003KT CAVOK 05/04 Q1010 R07/19//95 NOSIG=
201911300330 METAR LRBS 300330Z 00000KT 9999 MIFG NSC 04/03 Q1010 R07/19//95
                        NOSIG=
201911300400 METAR LRBS 300400Z 00000KT 8000 MIFG NSC 03/03 Q1010 R07/CLRD//
                        NOSIG=
201911300430 METAR LRBS 300430Z 28001KT 4500 MIFG BR NSC 04/03 Q1010 TEMPO
                        3000 BR=
201911300500 METAR LRBS 300500Z VRB01KT 2500 MIFG BR NSC 04/03 Q1010 TEMPO
                        1500 BR=
201911300530 METAR LRBS 300530Z 00000KT 2000 MIFG BR NSC 04/04 Q1011 TEMPO
                        1500 BR=
201911300600 METAR LRBS 300600Z VRB01KT 2000 MIFG BR NSC 04/03 Q1011 TEMPO
                        1500 BR=
201911300630 METAR LRBS 300630Z 25003KT 2000 MIFG BR NSC 04/04 Q1011 TEMPO
                        1500 BR=
201911300700 METAR LRBS 300700Z 29002KT 3000 BR NSC 05/04 Q1011 BECMG
                        5000=
201911300730 METAR LRBS 300730Z 27002KT 7000 NSC 05/04 Q1011 NOSIG=
201911300800 METAR LRBS 300800Z 27003KT CAVOK 05/04 Q1011 NOSIG=
201911300830 METAR LRBS 300830Z 27003KT CAVOK 06/05 Q1012 NOSIG=
201911300900 METAR LRBS 300900Z 27002KT CAVOK 06/05 Q1012 NOSIG=
201911300930 METAR LRBS 300930Z 00000KT CAVOK 06/05 Q1011 NOSIG=
201911301000 METAR LRBS 301000Z 24004KT 220V300 9999 -RA FEW005 07/05
                        Q1012 NOSIG=
201911301030 METAR LRBS 301030Z 30004KT 270V340 9999 -RA NSC 07/05 Q1011
                        NOSIG=
201911301100 METAR LRBS 301100Z 33003KT 260V030 9999 -RA NSC 08/06 Q1011
                        NOSIG=
201911301130 METAR LRBS 301130Z 34004KT 310V020 9999 -RA NSC 08/06 Q1011
                        NOSIG=
201911301200 METAR LRBS 301200Z 28005KT 250V320 9999 -RA BKN046 08/07
                        Q1012 NOSIG=
201911301230 METAR LRBS 301230Z 27005KT 9999 -RA BKN048 08/07 Q1012 NOSIG=
201911301300 METAR LRBS 301300Z 27005KT 9000 -RA NSC 08/07 Q1012 NOSIG=
201911301330 METAR LRBS 301330Z 27005KT 8000 -RA FEW048 08/07 Q1012 NOSIG=
201911301400 METAR LRBS 301400Z 26003KT 8000 -RA NSC 08/07 Q1013 NOSIG=
201911301430 METAR LRBS 301430Z 27003KT 7000 -RA SCT043 08/07 Q1013 NOSIG=
201911301500 METAR LRBS 301500Z 07003KT 350V090 5000 -RA BR FEW025 BKN038
                        08/07 Q1014 BECMG BKN010 OVC035=
201911301530 METAR COR LRBS 301530Z 06003KT 010V110 3000 -RA BR BKN005
                        OVC028 08/07 Q1014 NOSIG=
201911301600 METAR COR LRBS 301600Z 08004KT 3000 -RA BR BKN004 OVC014
                        08/07 Q1014 R07/29//95 NOSIG=
201911301630 METAR LRBS 301630Z 08005KT 4000 -RA BR BKN004 OVC018 07/07
                        Q1015 R07/29//95 NOSIG=
201911301700 METAR COR LRBS 301700Z 08006KT 4500 RA FEW005 BKN007 OVC020
                        07/07 Q1015 R07/29//95 BECMG 5000
                        -RA BKN010 BKN040=
201911301730 METAR LRBS 301730Z 09006KT 5000 -RA BR BKN005 OVC012 07/06
                        Q1015 RERA R07/29//95 NOSIG=
201911301800 METAR LRBS 301800Z 07009KT 7000 -RA SCT005 BKN007 OVC012
                        06/06 Q1016 R07/29//95 NOSIG=
201911301830 METAR LRBS 301830Z 06009KT 7000 RA FEW007 BKN010 OVC026 06/05
                        Q1016 R07/29//95 NOSIG=
201911301900 METAR LRBS 301900Z 05011KT 6000 SHRA BKN008 BKN025 SCT030CB
                        05/05 Q1017 R07/29//95 NOSIG=
201911301930 METAR LRBS 301930Z 04010KT 7000 SHRA BKN007 BKN025 SCT030CB
                        05/04 Q1017 R07/29//95 NOSIG=
201911302000 METAR LRBS 302000Z 06010KT 9000 -SHRA FEW008 BKN023 FEW030CB
                        05/04 Q1018 R07/29//95 NOSIG=
201911302030 METAR LRBS 302030Z 07009KT 9000 -RA SCT024 OVC033 04/03 Q1018
                        R07/29//95 NOSIG=
201911302100 METAR LRBS 302100Z 06008KT 9999 -RA SCT026 OVC042 04/03 Q1018
                        R07/29//95 NOSIG=
201911302130 METAR LRBS 302130Z 06006KT 9999 -RA FEW031 OVC039 04/03 Q1019
                        R07/29//95 NOSIG=
201911302200 METAR LRBS 302200Z 08005KT 9999 -RA FEW025 04/03 Q1019 R07/29//95
                        NOSIG=
201911302230 METAR LRBS 302230Z 09006KT 9999 -RA FEW030 SCT047 04/03 Q1019
                        R07/29//95 NOSIG=
201911302300 METAR LRBS 302300Z 10005KT 9999 FEW040 04/03 Q1020 R07/29//95
                        NOSIG=
201911302330 METAR LRBS 302330Z 10005KT 9999 -RA NSC 04/03 Q1020 R07/29//95
                        NOSIG=