201912010000 METAR LRBS 010000Z 10006KT CAVOK 04/02 Q1020 R07/29//95 NOSIG=
201912010030 METAR LRBS 010030Z 12005KT CAVOK 04/02 Q1021 R07/29//95 NOSIG=
201912010100 METAR LRBS 010100Z 10005KT 9000 -RA SCT045 04/02 Q1021 R07/29//95
                        NOSIG=
201912010130 METAR LRBS 010130Z 12005KT 9999 -RA SCT015 SCT047 04/02 Q1022
                        R07/29//95 NOSIG=
201912010200 METAR LRBS 010200Z 10005KT 9999 -RA FEW013 SCT017 BKN040
                        04/02 Q1022 R07/29//95 NOSIG=
201912010230 METAR LRBS 010230Z 10005KT 060V130 9999 -RA FEW017 BKN027
                        BKN040 03/02 Q1022 R07/29//95 NOSIG=
201912010300 METAR LRBS 010300Z 10005KT 080V140 9999 -RA BKN036 03/00
                        Q1023 R07/29//95 NOSIG=
201912010330 METAR LRBS 010330Z 09007KT 9999 -RA OVC033 03/00 Q1023 R07/29//95
                        NOSIG=
201912010400 METAR LRBS 010400Z 08009KT 9999 FEW033 BKN042 03/M01 Q1023
                        R07/29//95 NOSIG=
201912010430 METAR LRBS 010430Z 09008KT 9999 FEW032 BKN045 03/M02 Q1024
                        R07/29//95 NOSIG=
201912010500 METAR LRBS 010500Z 08010KT 9999 -SN FEW023 BKN030 OVC047
                        03/M02 Q1024 R07/29//95 NOSIG=
201912010530 METAR LRBS 010530Z 08008KT 050V110 9999 BKN040 03/M03 Q1024
                        R07/29//95 NOSIG=
201912010600 METAR LRBS 010600Z 09006KT 9999 -SN BKN047 03/M02 Q1025 R07/29//95
                        NOSIG=
201912010630 METAR LRBS 010630Z 10006KT 9999 -SN OVC040 03/M02 Q1025 R07/29//95
                        NOSIG=
201912010700 METAR LRBS 010700Z 11005KT 9999 -SN OVC038 03/M02 Q1026 R07/29//95
                        NOSIG=
201912010730 METAR LRBS 010730Z 10005KT 9999 -SN OVC037 03/M02 Q1026 R07/29//95
                        NOSIG=
201912010800 METAR LRBS 010800Z 12006KT 9999 -SN OVC037 03/M02 Q1027 R07/29//95
                        NOSIG=
201912010830 METAR LRBS 010830Z 12006KT 9999 OVC038 03/M02 Q1027 R07/29//95
                        NOSIG=
201912010900 METAR LRBS 010900Z 11006KT 9999 BKN041 03/M02 Q1027 R07/29//95
                        NOSIG=
201912010930 METAR LRBS 010930Z 11004KT 9999 OVC043 03/M02 Q1027 R07/29//95
                        NOSIG=
201912011000 METAR LRBS 011000Z 10004KT 070V130 9999 OVC044 03/M03 Q1027
                        R07/29//95 NOSIG=
201912011030 METAR LRBS 011030Z 12005KT 100V160 9999 OVC044 04/M03 Q1027
                        R07/29//95 NOSIG=
201912011100 METAR LRBS 011100Z 12003KT 9999 OVC045 04/M03 Q1027 R07/29//95
                        NOSIG=
201912011130 METAR LRBS 011130Z 11003KT 070V140 9999 OVC045 04/M03 Q1027
                        R07/29//95 NOSIG=
201912011200 METAR LRBS 011200Z 12004KT 9999 OVC047 04/M03 Q1027 R07/29//95
                        NOSIG=
201912011230 METAR LRBS 011230Z 11003KT 080V150 9999 OVC048 04/M03 Q1027
                        R07/29//95 NOSIG=
201912011300 METAR LRBS 011300Z 11004KT 080V140 9999 OVC047 04/M03 Q1028
                        R07/29//95 NOSIG=
201912011330 METAR COR LRBS 011330Z 11005KT 9999 SCT048 04/M04 Q1028 R07/29//95
                        NOSIG=
201912011400 METAR LRBS 011400Z 10004KT CAVOK 04/M03 Q1028 R07/29//95
                        NOSIG=
201912011430 METAR LRBS 011430Z 07003KT CAVOK 02/M02 Q1028 R07/29//95
                        NOSIG=
201912011500 METAR LRBS 011500Z 11002KT CAVOK 02/M02 Q1028 R07/29//95
                        NOSIG=
201912011530 METAR LRBS 011530Z 04003KT 9999 FEW047 01/M03 Q1028 R07/29//95
                        NOSIG=
201912011600 METAR LRBS 011600Z 03002KT 9999 SCT048 01/M02 Q1029 R07/29//95
                        NOSIG=
201912011630 METAR LRBS 011630Z 01001KT CAVOK M00/M02 Q1028 R07/29//95
                        NOSIG=
201912011700 METAR LRBS 011700Z 35001KT CAVOK M01/M02 Q1029 R07/29//95
                        NOSIG=
201912011730 METAR LRBS 011730Z 00000KT CAVOK M01/M02 Q1029 R07/29//95
                        NOSIG=
201912011800 METAR LRBS 011800Z 00000KT CAVOK M01/M02 Q1029 R07/29//95
                        NOSIG=
201912011830 METAR LRBS 011830Z 02001KT CAVOK M02/M03 Q1029 R07/29//95
                        NOSIG=
201912011900 METAR LRBS 011900Z 03002KT CAVOK M02/M03 Q1029 R07/29//95
                        NOSIG=
201912011930 METAR LRBS 011930Z 07001KT CAVOK M02/M03 Q1029 R07/29//95
                        NOSIG=
201912012000 METAR LRBS 012000Z 06001KT 9000 NSC M02/M02 Q1029 R07/29//95
                        NOSIG=
201912012030 METAR LRBS 012030Z VRB01KT 7000 MIFG NSC M02/M02 Q1029 R07/29//95
                        NOSIG=
201912012100 METAR LRBS 012100Z 07001KT 7000 MIFG NSC M02/M02 Q1029 R07/29//95
                        BECMG 5000 BR=
201912012130 METAR LRBS 012130Z 05001KT 5000 MIFG BR NSC M02/M02 Q1029
                        R07/29//95 BECMG 3000 BR=
201912012200 METAR COR LRBS 012200Z 00000KT 3000 MIFG BR NSC M02/M03 Q1029
                        R07/29//95 BECMG 1500 BR=
201912012230 METAR LRBS 012230Z 00000KT 2500 R07/0500N R25/P2000 PRFG
                        BR NSC M02/M03 Q1029 R07/29//95 BECMG
                        1500 BR=
201912012300 METAR LRBS 012300Z 02001KT 2000 R07/0800 R25/P2000 PRFG BR
                        NSC M03/M03 Q1028 R07/29//95 BECMG
                        1500 BR=
201912012330 METAR LRBS 012330Z 02001KT 2000 R07/0750U R25/P2000 PRFG
                        BR NSC M03/M03 Q1028 R07/29//95 BECMG
                        1500 BR=
201912020000 METAR LRBS 020000Z 00000KT 1400 R07/0550N R25/P2000 BR NSC
                        M03/M03 Q1028 R07/29//95 BECMG 0800
                        FZFG=
201912020030 METAR LRBS 020030Z 00000KT 3000 MIFG BR NSC M03/M03 Q1028
                        R07/29//95 TEMPO 1500 BR=
201912020100 METAR LRBS 020100Z 03002KT 1800 MIFG BR NSC M04/M05 Q1028
                        R07/29//95 TEMPO 1500 BR=
201912020130 METAR LRBS 020130Z 08001KT 3000 MIFG BR NSC M04/M04 Q1028
                        R07/29//95 TEMPO 1500 BR=
201912020200 METAR LRBS 020200Z 05001KT 3000 MIFG BR NSC M03/M04 Q1027
                        R07/29//95 TEMPO 1500 BR=
201912020230 METAR LRBS 020230Z 00000KT 2000 MIFG BR NSC M03/M03 Q1027
                        R07/29//95 TEMPO 0800 FZFG=
201912020300 METAR LRBS 020300Z 03002KT 2000 MIFG BR NSC M05/M05 Q1027
                        R07/29//95 TEMPO 0800 FZFG=
201912020330 METAR LRBS 020330Z 08002KT 3000 MIFG BR NSC M04/M04 Q1026
                        R07/29//95 TEMPO 1500 BR=
201912020400 METAR LRBS 020400Z 07002KT 3000 BR NSC M03/M04 Q1026 R07/29//95
                        NOSIG=
201912020430 METAR LRBS 020430Z 05002KT 5000 BR NSC M03/M03 Q1026 R07/29//95
                        NOSIG=
201912020500 METAR LRBS 020500Z 03001KT 5000 BR NSC M03/M03 Q1026 R07/29//95
                        NOSIG=
201912020530 METAR LRBS 020530Z 03002KT 5000 BR NSC M02/M03 Q1026 R07/29//95
                        NOSIG=
201912020600 METAR LRBS 020600Z 08002KT 5000 BR NSC M02/M03 Q1026 R07/29//95
                        NOSIG=
201912020630 METAR LRBS 020630Z 07002KT 5000 BR NSC M02/M03 Q1025 R07/29//95
                        NOSIG=
201912020700 METAR LRBS 020700Z 06003KT 8000 NSC M01/M01 Q1025 R07/29//95
                        NOSIG=
201912020730 METAR LRBS 020730Z 10002KT 8000 NSC M00/M01 Q1025 R07/29//95
                        NOSIG=
201912020800 METAR LRBS 020800Z VRB02KT CAVOK 01/M01 Q1025 R07/29//95
                        NOSIG=
201912020830 METAR LRBS 020830Z VRB02KT CAVOK 02/M01 Q1024 R07/29//95
                        NOSIG=
201912020900 METAR LRBS 020900Z VRB02KT CAVOK 02/M01 Q1024 R07/29//95
                        NOSIG=
201912020930 METAR LRBS 020930Z VRB01KT CAVOK 03/M01 Q1023 R07/29//95
                        NOSIG=
201912021000 METAR LRBS 021000Z VRB02KT CAVOK 03/00 Q1022 R07/29//95 NOSIG=
201912021030 METAR LRBS 021030Z VRB01KT CAVOK 05/M01 Q1022 R07/29//95
                        NOSIG=
201912021100 METAR LRBS 021100Z 14001KT CAVOK 05/M01 Q1021 R07/29//95
                        NOSIG=
201912021130 METAR LRBS 021130Z VRB02KT CAVOK 05/M02 Q1021 R07/29//95
                        NOSIG=
201912021200 METAR LRBS 021200Z VRB02KT CAVOK 06/M01 Q1020 R07/29//95
                        NOSIG=
201912021230 METAR LRBS 021230Z 28003KT 240V310 CAVOK 06/M01 Q1020 R07/29//95
                        NOSIG=
201912021300 METAR LRBS 021300Z 27003KT CAVOK 06/M01 Q1020 R07/29//95
                        NOSIG=
201912021330 METAR LRBS 021330Z 27003KT CAVOK 05/M00 Q1019 R07/29//95
                        NOSIG=
201912021400 METAR LRBS 021400Z 25003KT CAVOK 05/M01 Q1019 R07/29//95
                        NOSIG=
201912021430 METAR LRBS 021430Z 27003KT CAVOK 05/M01 Q1019 R07/29//95
                        NOSIG=
201912021500 METAR LRBS 021500Z 27004KT CAVOK 04/M01 Q1018 R07/29//95
                        NOSIG=
201912021530 METAR LRBS 021530Z 26003KT CAVOK 04/M01 Q1018 R07/29//95
                        NOSIG=
201912021600 METAR LRBS 021600Z 27003KT CAVOK 04/M00 Q1017 R07/29//95
                        NOSIG=
201912021630 METAR LRBS 021630Z 29003KT 260V320 CAVOK 04/M00 Q1017 R07/29//95
                        NOSIG=
201912021700 METAR LRBS 021700Z 28003KT 260V320 CAVOK 04/M00 Q1017 R07/29//95
                        NOSIG=
201912021730 METAR LRBS 021730Z 27003KT CAVOK 04/M00 Q1017 R07/29//95
                        NOSIG=
201912021800 METAR LRBS 021800Z 27005KT CAVOK 04/M00 Q1017 R07/29//95
                        NOSIG=
201912021830 METAR LRBS 021830Z 27005KT CAVOK 04/M00 Q1017 R07/29//95
                        NOSIG=
201912021900 METAR LRBS 021900Z 27005KT 240V300 CAVOK 04/M00 Q1017 R07/29//95
                        NOSIG=
201912021930 METAR LRBS 021930Z 26006KT CAVOK 04/M00 Q1016 R07/29//95
                        NOSIG=
201912022000 METAR LRBS 022000Z 27006KT CAVOK 04/M00 Q1016 R07/29//95
                        NOSIG=
201912022030 METAR LRBS 022030Z 27006KT CAVOK 04/00 Q1017 R07/29//95 NOSIG=
201912022100 METAR LRBS 022100Z 27007KT CAVOK 04/00 Q1017 R07/29//95 NOSIG=
201912022130 METAR LRBS 022130Z AUTO 27007KT 9999 SCT100/// SCT130///
                        04/00 Q1017 NOSIG=
201912022200 METAR LRBS 022200Z 27007KT 250V320 CAVOK 04/00 Q1017 R07/29//95
                        NOSIG=
201912022230 METAR LRBS 022230Z 27008KT 240V300 CAVOK 04/00 Q1017 R07/29//95
                        NOSIG=
201912022300 METAR LRBS 022300Z 28006KT 250V310 CAVOK 04/00 Q1017 R07/29//95
                        NOSIG=
201912022330 METAR LRBS 022330Z 28005KT 260V320 CAVOK 04/00 Q1017 R07/29//95
                        NOSIG=
201912030000 METAR LRBS 030000Z 27005KT 220V300 CAVOK 03/00 Q1017 R07/29//95
                        NOSIG=
201912030030 METAR LRBS 030030Z 27005KT 240V310 CAVOK 03/00 Q1017 R07/29//95
                        NOSIG=
201912030100 METAR COR LRBS 030100Z 27007KT 240V300 CAVOK 03/00 Q1018
                        R07/29//95 NOSIG=
201912030130 METAR LRBS 030130Z 27006KT 240V300 CAVOK 03/00 Q1018 R07/29//95
                        NOSIG=
201912030200 METAR LRBS 030200Z 27003KT CAVOK 03/01 Q1018 R07/29//95 NOSIG=
201912030230 METAR LRBS 030230Z 25005KT 9999 OVC090 03/01 Q1018 R07/29//95
                        NOSIG=
201912030300 METAR LRBS 030300Z 25004KT CAVOK 03/01 Q1019 R07/29//95=
201912030330 METAR LRBS 030330Z 26005KT CAVOK 03/02 Q1019 R07/29//95 NOSIG=
201912030400 METAR LRBS 030400Z VRB01KT CAVOK 03/02 Q1019 R07/29//95 NOSIG=
201912030430 METAR LRBS 030430Z 13001KT CAVOK 03/02 Q1020 R07/29//95 NOSIG=
201912030500 METAR LRBS 030500Z 09003KT 8000 -RA FEW010 03/01 Q1020 R07/29//95
                        NOSIG=
201912030530 METAR LRBS 030530Z 08003KT 8000 -RA NSC 02/02 Q1021 R07/19//95
                        NOSIG=
201912030600 METAR LRBS 030600Z 11004KT 7000 NSC 03/02 Q1021 R07/19//95
                        NOSIG=
201912030630 METAR LRBS 030630Z VRB02KT 7000 FEW012 04/02 Q1022 R07/19//95
                        NOSIG=
201912030700 METAR COR LRBS 030700Z 06003KT 030V100 8000 -RA FEW040 SCT049
                        04/02 Q1022 R07/19//95 NOSIG=
201912030730 METAR LRBS 030730Z 12005KT 8000 FEW020 04/02 Q1022 R07/19//95
                        NOSIG=
201912030800 METAR LRBS 030800Z 12006KT 9000 FEW014 04/01 Q1022 R07/19//95
                        NOSIG=
201912030830 METAR LRBS 030830Z 11007KT 9999 FEW014 04/01 Q1023 R07/19//95
                        NOSIG=
201912030900 METAR LRBS 030900Z 10006KT 9999 FEW016 04/01 Q1023 R07/CLRD//
                        NOSIG=
201912030930 METAR LRBS 030930Z 11007KT CAVOK 04/01 Q1023 NOSIG=
201912031000 METAR LRBS 031000Z 11005KT CAVOK 04/00 Q1023 NOSIG=
201912031030 METAR LRBS 031030Z 09006KT 070V130 9999 FEW018 04/01 Q1023
                        NOSIG=
201912031100 METAR LRBS 031100Z 11005KT 080V140 9999 FEW017 SCT028 04/01
                        Q1023 NOSIG=
201912031130 METAR LRBS 031130Z 08005KT 9999 SCT015 BKN042 04/02 Q1023
                        NOSIG=
201912031200 METAR LRBS 031200Z 09005KT 060V130 9999 SCT014 OVC049 04/02
                        Q1023 NOSIG=
201912031230 METAR LRBS 031230Z 10005KT 060V120 9999 FEW010 SCT012 04/02
                        Q1023 NOSIG=
201912031300 METAR LRBS 031300Z 09004KT 9999 BKN010 04/01 Q1023 NOSIG=
201912031330 METAR LRBS 031330Z 11005KT 9999 SCT010 SCT015 04/01 Q1023
                        NOSIG=
201912031400 METAR LRBS 031400Z 11005KT 9999 SCT011 03/02 Q1024 NOSIG=
201912031430 METAR LRBS 031430Z 14005KT 9999 SCT007 03/01 Q1024 NOSIG=
201912031500 METAR LRBS 031500Z 13004KT 9999 FEW007 03/01 Q1024 NOSIG=
201912031530 METAR LRBS 031530Z 15003KT CAVOK 03/01 Q1024 NOSIG=
201912031600 METAR LRBS 031600Z 14003KT CAVOK 02/01 Q1025 NOSIG=
201912031630 METAR LRBS 031630Z VRB01KT CAVOK 02/00 Q1025 NOSIG=
201912031700 METAR LRBS 031700Z VRB01KT CAVOK 02/00 Q1026 NOSIG=
201912031730 METAR LRBS 031730Z VRB01KT 9999 MIFG NSC 00/M01 Q1026 NOSIG=
201912031800 METAR LRBS 031800Z 07001KT 5000 MIFG BR NSC M01/M02 Q1026
                        NOSIG=
201912031830 METAR LRBS 031830Z VRB01KT 9999 MIFG NSC M00/M01 Q1026 NOSIG=
201912031900 METAR LRBS 031900Z 00000KT 8000 MIFG NSC M00/M01 Q1026 NOSIG=
201912031930 METAR LRBS 031930Z 28002KT 8000 MIFG NSC M01/M01 Q1027 NOSIG=
201912032000 METAR LRBS 032000Z 30002KT 5000 MIFG BR NSC M01/M01 Q1027
                        BECMG 1500 BR BKN002=
201912032030 METAR LRBS 032030Z 32001KT 2000 BR FEW001 M01/M01 Q1027 BECMG
                        0800=
201912032100 METAR LRBS 032100Z 28002KT 0100 R07/0325N R25/P2000 FZFG
                        VV001 M02/M02 Q1027 NOSIG=
201912032130 METAR LRBS 032130Z 27002KT 0300 R07/0500N R25/0500 FZFG VV001
                        M02/M02 Q1028 NOSIG=
201912032200 METAR COR LRBS 032200Z 27003KT 0300 R07/0450N R25/0500N FZFG
                        VV001 M02/M03 Q1028 NOSIG=
201912032230 METAR LRBS 032230Z 26003KT 0300 R07/0500N R25/0600N FZFG
                        VV001 M02/M03 Q1028 NOSIG=
201912032300 METAR LRBS 032300Z 27004KT 0400 R07/1000N R25/1700 FZFG VV001
                        M03/M03 Q1028 NOSIG=
201912032330 METAR LRBS 032330Z 26002KT 0400 R07/0700N R25/0900U FZFG
                        VV001 M03/M03 Q1028 BECMG 0800 BKN002=
201912040000 METAR LRBS 040000Z 27003KT 0600 R07/0800 R25/0800 FZFG BKN001
                        M03/M04 Q1028 BECMG 1500 BR BKN005=
201912040030 METAR LRBS 040030Z 00000KT 1500 BR SCT001 M03/M04 Q1029 BECMG
                        3000=
201912040100 METAR LRBS 040100Z 00000KT 3000 MIFG BR NSC M04/M04 Q1029
                        NOSIG=
201912040130 METAR LRBS 040130Z 00000KT 8000 NSC M04/M04 Q1028 TEMPO 3000
                        BR=
201912040200 METAR LRBS 040200Z 30001KT CAVOK M04/M05 Q1029 NOSIG=
201912040230 METAR LRBS 040230Z 28001KT CAVOK M04/M04 Q1029 NOSIG=
201912040300 METAR LRBS 040300Z 00000KT CAVOK M04/M05 Q1029 NOSIG=
201912040330 METAR LRBS 040330Z AUTO 00000KT 9000 NCD M04/M04 Q1030 NOSIG=
201912040400 METAR LRBS 040400Z 11001KT CAVOK M03/M04 Q1030 NOSIG=
201912040430 METAR LRBS 040430Z 07001KT CAVOK M03/M04 Q1030 NOSIG=
201912040500 METAR LRBS 040500Z 07003KT CAVOK M04/M05 Q1030 NOSIG=
201912040530 METAR LRBS 040530Z 05003KT CAVOK M04/M04 Q1031 NOSIG=
201912040600 METAR LRBS 040600Z 07003KT CAVOK M04/M05 Q1031 NOSIG=
201912040630 METAR LRBS 040630Z 08002KT CAVOK M03/M04 Q1031 NOSIG=
201912040700 METAR LRBS 040700Z 07002KT CAVOK M02/M03 Q1031 NOSIG=
201912040730 METAR LRBS 040730Z VRB01KT CAVOK M00/M02 Q1032 NOSIG=
201912040800 METAR LRBS 040800Z 08004KT CAVOK 01/M02 Q1032 NOSIG=
201912040830 METAR LRBS 040830Z 08007KT CAVOK 01/M02 Q1032 NOSIG=
201912040900 METAR LRBS 040900Z 07005KT CAVOK 02/M02 Q1032 NOSIG=
201912040930 METAR LRBS 040930Z 06006KT 030V090 CAVOK 02/M03 Q1031 NOSIG=
201912041000 METAR LRBS 041000Z 08004KT 020V130 CAVOK 03/M03 Q1032 NOSIG=
201912041030 METAR LRBS 041030Z 12004KT 060V150 CAVOK 03/M04 Q1031 NOSIG=
201912041100 METAR LRBS 041100Z 06004KT 350V150 CAVOK 03/M04 Q1031 NOSIG=
201912041130 METAR LRBS 041130Z 06003KT 350V110 CAVOK 04/M03 Q1031 NOSIG=
201912041200 METAR LRBS 041200Z VRB01KT CAVOK 04/M03 Q1031 NOSIG=
201912041230 METAR LRBS 041230Z VRB01KT CAVOK 04/M04 Q1031 NOSIG=
201912041300 METAR LRBS 041300Z 26003KT 210V290 CAVOK 04/M04 Q1031 NOSIG=
201912041330 METAR LRBS 041330Z 24004KT 200V280 CAVOK 04/M03 Q1031 NOSIG=
201912041400 METAR LRBS 041400Z 24005KT CAVOK 04/M03 Q1031 NOSIG=
201912041430 METAR LRBS 041430Z 25004KT CAVOK 03/M03 Q1031 NOSIG=
201912041500 METAR LRBS 041500Z 25004KT CAVOK 02/M03 Q1031 NOSIG=
201912041530 METAR LRBS 041530Z 23004KT CAVOK 02/M03 Q1031 NOSIG=
201912041600 METAR LRBS 041600Z 23004KT CAVOK 02/M03 Q1032 NOSIG=
201912041630 METAR LRBS 041630Z 25002KT 8000 NSC 01/M03 Q1032 NOSIG=
201912041700 METAR LRBS 041700Z 22003KT 8000 NSC 01/M03 Q1032 BECMG 5000
                        BR=
201912041730 METAR COR LRBS 041730Z 23004KT 9000 NSC 01/M03 Q1032 BECMG
                        5000 BR=
201912041800 METAR LRBS 041800Z 24004KT 8000 NSC 00/M03 Q1032 BECMG 5000
                        BR=
201912041830 METAR LRBS 041830Z 23004KT 8000 NSC 00/M03 Q1032 NOSIG=
201912041900 METAR LRBS 041900Z 25003KT 8000 NSC 00/M03 Q1032 NOSIG=
201912041930 METAR LRBS 041930Z 24003KT 8000 NSC M00/M03 Q1032 NOSIG=
201912042000 METAR LRBS 042000Z 25003KT 7000 NSC M01/M03 Q1032 NOSIG=
201912042030 METAR LRBS 042030Z 25004KT 7000 NSC M01/M03 Q1032 NOSIG=
201912042100 METAR LRBS 042100Z 24003KT 7000 NSC M01/M03 Q1033 NOSIG=
201912042130 METAR LRBS 042130Z 24005KT 7000 NSC M01/M03 Q1032 NOSIG=
201912042200 METAR LRBS 042200Z 24004KT 8000 NSC M01/M03 Q1033 NOSIG=
201912042230 METAR LRBS 042230Z 25004KT 7000 NSC M02/M03 Q1033 NOSIG=
201912042300 METAR LRBS 042300Z 24004KT 7000 NSC M02/M03 Q1032 NOSIG=
201912042330 METAR LRBS 042330Z 24004KT 7000 NSC M02/M03 Q1032 NOSIG=
201912050000 METAR LRBS 050000Z 23004KT 6000 NSC M02/M03 Q1032 NOSIG=
201912050030 METAR LRBS 050030Z 23004KT 6000 NSC M02/M03 Q1032 NOSIG=
201912050100 METAR LRBS 050100Z 24004KT 6000 NSC M02/M04 Q1032 NOSIG=
201912050130 METAR LRBS 050130Z 23005KT 7000 NSC M02/M03 Q1032 NOSIG=
201912050200 METAR LRBS 050200Z 22006KT 7000 NSC M02/M03 Q1031 NOSIG=
201912050230 METAR LRBS 050230Z 23006KT 7000 NSC M02/M03 Q1031 NOSIG=
201912050300 METAR LRBS 050300Z 23006KT 7000 NSC M02/M03 Q1031 NOSIG=
201912050330 METAR LRBS 050330Z 24006KT 8000 NSC M02/M03 Q1031 NOSIG=
201912050400 METAR LRBS 050400Z 27005KT 8000 NSC M02/M03 Q1032 NOSIG=
201912050430 METAR LRBS 050430Z 27005KT 8000 NSC M01/M03 Q1032 NOSIG=
201912050500 METAR LRBS 050500Z 27005KT 8000 NSC M02/M03 Q1032 NOSIG=
201912050530 METAR LRBS 050530Z 27005KT 8000 NSC M01/M03 Q1032 NOSIG=
201912050600 METAR LRBS 050600Z 27003KT 9000 NSC M02/M03 Q1032 NOSIG=
201912050630 METAR LRBS 050630Z 28004KT CAVOK M01/M03 Q1032 NOSIG=
201912050700 METAR LRBS 050700Z 27004KT CAVOK M00/M03 Q1032 NOSIG=
201912050730 METAR LRBS 050730Z 26005KT CAVOK 00/M02 Q1032 NOSIG=
201912050800 METAR LRBS 050800Z 26007KT CAVOK 02/M01 Q1032 NOSIG=
201912050830 METAR LRBS 050830Z 26008KT 240V300 CAVOK 02/M01 Q1032 NOSIG=
201912050900 METAR LRBS 050900Z 26008KT CAVOK 03/M01 Q1032 NOSIG=
201912050930 METAR LRBS 050930Z 27007KT 240V320 CAVOK 04/M01 Q1031 NOSIG=
201912051000 METAR LRBS 051000Z 26007KT 230V300 CAVOK 05/M02 Q1031 NOSIG=
201912051030 METAR LRBS 051030Z 27006KT CAVOK 05/M02 Q1031 NOSIG=
201912051100 METAR LRBS 051100Z 25007KT 220V290 CAVOK 06/M01 Q1030 NOSIG=
201912051130 METAR LRBS 051130Z 25006KT 210V280 CAVOK 05/M01 Q1030 NOSIG=
201912051200 METAR LRBS 051200Z 25007KT CAVOK 06/M01 Q1030 NOSIG=
201912051230 METAR LRBS 051230Z 25008KT CAVOK 06/M02 Q1030 NOSIG=
201912051300 METAR LRBS 051300Z 25008KT CAVOK 05/M02 Q1029 NOSIG=
201912051330 METAR LRBS 051330Z 24008KT CAVOK 05/M02 Q1030 NOSIG=
201912051400 METAR LRBS 051400Z 24008KT CAVOK 05/M01 Q1029 NOSIG=
201912051430 METAR LRBS 051430Z 25006KT CAVOK 04/M01 Q1029 NOSIG=
201912051500 METAR LRBS 051500Z 23004KT CAVOK 03/M01 Q1029 NOSIG=
201912051530 METAR LRBS 051530Z 24003KT CAVOK 03/M01 Q1029 NOSIG=
201912051600 METAR LRBS 051600Z 26003KT CAVOK 03/M01 Q1029 NOSIG=
201912051630 METAR COR LRBS 051630Z 25002KT CAVOK 02/M01 Q1029 NOSIG=
201912051700 METAR LRBS 051700Z 26002KT CAVOK 02/M01 Q1029 NOSIG=
201912051730 METAR LRBS 051730Z 24002KT CAVOK 02/M01 Q1029 NOSIG=
201912051800 METAR LRBS 051800Z VRB01KT CAVOK 02/M02 Q1029 NOSIG=
201912051830 METAR LRBS 051830Z 27003KT CAVOK 01/M02 Q1029 NOSIG=
201912051900 METAR LRBS 051900Z 27004KT CAVOK 01/M02 Q1029 NOSIG=
201912051930 METAR LRBS 051930Z 26004KT CAVOK 01/M02 Q1029 NOSIG=
201912052000 METAR LRBS 052000Z 27002KT CAVOK 00/M02 Q1029 NOSIG=
201912052030 METAR LRBS 052030Z 28003KT 9000 NSC M00/M02 Q1029 NOSIG=
201912052100 METAR LRBS 052100Z 27004KT CAVOK M00/M02 Q1029 BECMG 5000
                        BR=
201912052130 METAR COR LRBS 052130Z 28003KT CAVOK M00/M03 Q1028 NOSIG=
201912052200 METAR LRBS 052200Z 27004KT CAVOK M00/M03 Q1028 NOSIG=
201912052230 METAR LRBS 052230Z 27004KT CAVOK M00/M03 Q1028 NOSIG=
201912052300 METAR LRBS 052300Z 27004KT CAVOK M01/M03 Q1028 NOSIG=
201912052330 METAR LRBS 052330Z 27003KT CAVOK M01/M03 Q1028 NOSIG=
201912060000 METAR LRBS 060000Z 27002KT CAVOK M01/M03 Q1027 NOSIG=
201912060030 METAR LRBS 060030Z 26006KT CAVOK M01/M03 Q1027 NOSIG=
201912060100 METAR LRBS 060100Z 27006KT CAVOK M01/M03 Q1027 NOSIG=
201912060130 METAR LRBS 060130Z 26006KT CAVOK M01/M03 Q1027 NOSIG=
201912060200 METAR LRBS 060200Z 26006KT CAVOK M01/M03 Q1027 NOSIG=
201912060230 METAR LRBS 060230Z 27005KT 8000 NSC M02/M04 Q1027 NOSIG=
201912060300 METAR LRBS 060300Z 27005KT 8000 NSC M02/M04 Q1027 NOSIG=
201912060330 METAR LRBS 060330Z 27005KT 7000 NSC M03/M04 Q1027 TEMPO 3000
                        BR=
201912060400 METAR LRBS 060400Z 27005KT 6000 NSC M03/M04 Q1026 TEMPO 3000
                        BR=
201912060430 METAR LRBS 060430Z 27005KT 7000 NSC M03/M05 Q1027 NOSIG=
201912060500 METAR LRBS 060500Z 26006KT 8000 NSC M03/M05 Q1027 NOSIG=
201912060530 METAR LRBS 060530Z 27004KT 6000 NSC M04/M05 Q1027 NOSIG=
201912060600 METAR LRBS 060600Z 27005KT 4000 BR FEW002 M04/M05 Q1027 NOSIG=
201912060630 METAR LRBS 060630Z 26005KT 3500 BR SCT002 M03/M04 Q1027 NOSIG=
201912060700 METAR LRBS 060700Z 26006KT 3500 BR SCT004 M03/M04 Q1027 NOSIG=
201912060730 METAR LRBS 060730Z 26006KT 6000 FEW003 M02/M04 Q1027 NOSIG=
201912060800 METAR LRBS 060800Z 26007KT CAVOK M02/M04 Q1027 NOSIG=
201912060830 METAR LRBS 060830Z 26008KT CAVOK M01/M04 Q1027 NOSIG=
201912060900 METAR LRBS 060900Z 26010KT CAVOK 00/M03 Q1027 NOSIG=
201912060930 METAR LRBS 060930Z 25011KT CAVOK 00/M04 Q1026 NOSIG=
201912061000 METAR LRBS 061000Z 26010KT CAVOK 01/M03 Q1026 NOSIG=
201912061030 METAR LRBS 061030Z 26010KT CAVOK 01/M03 Q1025 NOSIG=
201912061100 METAR LRBS 061100Z 25011KT CAVOK 02/M03 Q1025 NOSIG=
201912061130 METAR LRBS 061130Z 25010KT CAVOK 02/M02 Q1024 NOSIG=
201912061200 METAR LRBS 061200Z 25010KT CAVOK 02/M03 Q1024 NOSIG=
201912061230 METAR LRBS 061230Z 24010KT CAVOK 03/M02 Q1024 NOSIG=
201912061300 METAR LRBS 061300Z 23008KT CAVOK 02/M02 Q1024 NOSIG=
201912061330 METAR LRBS 061330Z 23007KT CAVOK 01/M02 Q1023 NOSIG=
201912061400 METAR LRBS 061400Z 24008KT 6000 NSC M00/M02 Q1023 BECMG 3000
                        BR=
201912061430 METAR LRBS 061430Z 23007KT 4500 BR FEW006 M01/M02 Q1023 BECMG
                        3000 BR=
201912061500 METAR LRBS 061500Z 24007KT 4500 BR SCT003 M01/M02 Q1023 BECMG
                        3000 BR=
201912061530 METAR LRBS 061530Z 25006KT 4000 BR BKN003 M02/M03 Q1023 BECMG
                        3000 BR=
201912061600 METAR LRBS 061600Z 24006KT 3000 BR BKN003 M02/M02 Q1023 NOSIG=
201912061630 METAR COR LRBS 061630Z 24007KT 3000 BR BKN002 M02/M02 Q1023
                        NOSIG=
201912061700 METAR LRBS 061700Z 25005KT 2500 BR BKN002 M02/M02 Q1023 BECMG
                        1500 BR=
201912061730 METAR LRBS 061730Z 24004KT 2000 BR OVC001 M02/M03 Q1023 BECMG
                        1500 BR=
201912061800 METAR COR LRBS 061800Z 22007KT 1500 BR OVC001 M02/M03 Q1023
                        BECMG 0800 FZFG=
201912061830 METAR COR LRBS 061830Z 24006KT 1500 BR BKN001 OVC003 M02/M03
                        Q1023 BECMG 0800 FZFG=
201912061900 METAR LRBS 061900Z 23007KT 1500 BR OVC001 M03/M03 Q1022 BECMG
                        0800=
201912061930 METAR LRBS 061930Z 24005KT 210V270 1400 BR OVC001 M02/M03
                        Q1022 BECMG 0800 FZFG=
201912062000 METAR LRBS 062000Z 24006KT 0800 R07/1500 R25/2000 FZFG OVC001
                        M03/M03 Q1022 TEMPO 0600 FZFG=
201912062030 METAR LRBS 062030Z 23007KT 0800 R07/1700 R25/1400 FZFG OVC001
                        M03/M03 Q1021 TEMPO 0600 FZFG=
201912062100 METAR LRBS 062100Z 24005KT 1200 R07/P2000 R25/1000U BR OVC002
                        M03/M03 Q1021 TEMPO 0600 FZFG=
201912062130 METAR COR LRBS 062130Z 24007KT 2000 BR FEW001 OVC002 M03/M03
                        Q1021 TEMPO 0600 FZFG=
201912062200 METAR COR LRBS 062200Z 25006KT 2600 BR OVC001 M03/M04 Q1021
                        TEMPO 0600 FZFG=
201912062230 METAR LRBS 062230Z 23007KT 2000 BR OVC001 M03/M04 Q1021 TEMPO
                        0600=
201912062300 METAR LRBS 062300Z 24005KT 1600 BR OVC002 M03/M04 Q1021 NOSIG=
201912062330 METAR LRBS 062330Z 23005KT 2000 BR OVC001 M03/M04 Q1020 NOSIG=
201912070000 METAR LRBS 070000Z 22006KT 3000 BR BKN002 M03/M04 Q1020 NOSIG=
201912070030 METAR LRBS 070030Z 23007KT 3000 BR OVC002 M03/M04 Q1020 NOSIG=
201912070100 METAR LRBS 070100Z 25006KT 1500 BR OVC001 M03/M04 Q1019 NOSIG=
201912070130 METAR LRBS 070130Z 24006KT 1800 BR SCT001 OVC002 M03/M04
                        Q1019 NOSIG=
201912070200 METAR COR LRBS 070200Z 24006KT 1600 BR OVC001 M03/M04 Q1018
                        NOSIG=
201912070230 METAR LRBS 070230Z 23006KT 1000 R07/1200 R25/1100D BR OVC001
                        M03/M04 Q1018 TEMPO 0600 FZFG=
201912070300 METAR COR LRBS 070300Z 23007KT 200V280 0900 R07/1200U R25/1200U=
201912070330 METAR COR LRBS 070330Z 22006KT 0800 R07/1100D R25/2000 FZFG
                        VV001 M03/M03 Q1018 TEMPO 0600 FZFG=
201912070400 METAR LRBS 070400Z 23006KT 0900 R07/1700N R25/1500U FZFG
                        OVC002 M03/M04 Q1018 NOSIG=
201912070430 METAR LRBS 070430Z 23007KT 0800 R07/1900U R25/1500D FZFG
                        OVC001 M03/M04 Q1018 NOSIG=
201912070500 METAR LRBS 070500Z 23006KT 0900 R07/1400D R25/1900U FZFG
                        OVC001 M03/M04 Q1018 NOSIG=
201912070530 METAR LRBS 070530Z 25006KT 0600 R07/1500 R25/P2000 FZFG OVC001
                        M03/M04 Q1018 NOSIG=
201912070600 METAR LRBS 070600Z 26005KT 0600 R07/1300 R25/1300 FZFG OVC001
                        M03/M03 Q1018 NOSIG=
201912070630 METAR LRBS 070630Z 25004KT 1000 R07/P2000 R25/P2000 BR OVC001
                        M03/M03 Q1018 BECMG 1500 OVC002=
201912070700 METAR LRBS 070700Z 23004KT 1000 R07/1500 R25/P2000 BR FEW001
                        OVC002 M03/M03 Q1018 BECMG 1500=
201912070730 METAR LRBS 070730Z 23005KT 1000 R07/1300 R25/1600 BR OVC001
                        M03/M03 Q1018 BECMG 1500 OVC002=
201912070800 METAR LRBS 070800Z 24006KT 1800 BR OVC002 M02/M03 Q1017 BECMG
                        3000=
201912070830 METAR LRBS 070830Z 25005KT 230V290 3200 BR FEW002 OVC003
                        M02/M02 Q1017 BECMG 5000 OVC005=
201912070900 METAR LRBS 070900Z 25005KT 4000 BR FEW003 BKN004 M01/M02
                        Q1017 BECMG 5000 BKN005=
201912070930 METAR LRBS 070930Z 26006KT 4000 BR SCT004 M01/M01 Q1017 BECMG
                        5000=
201912071000 METAR LRBS 071000Z 27006KT 5000 BR FEW005 M00/M01 Q1016 NOSIG=
201912071030 METAR LRBS 071030Z 26007KT 5000 BR FEW006 01/M00 Q1016 NOSIG=
201912071100 METAR LRBS 071100Z 27007KT 240V310 6000 FEW006 01/M00 Q1016
                        NOSIG=
201912071130 METAR LRBS 071130Z 26006KT 6000 NSC 02/00 Q1015 NOSIG=
201912071200 METAR LRBS 071200Z 25008KT 7000 NSC 02/M00 Q1015 NOSIG=
201912071230 METAR LRBS 071230Z 25005KT 7000 NSC 02/M01 Q1015 NOSIG=
201912071300 METAR LRBS 071300Z 26007KT 6000 NSC 03/M00 Q1015 BECMG 5000
                        BR=
201912071330 METAR LRBS 071330Z 26006KT 7000 NSC 03/00 Q1015 NOSIG=
201912071400 METAR LRBS 071400Z 29003KT 260V320 7000 NSC 03/00 Q1015 NOSIG=
201912071430 METAR LRBS 071430Z 27004KT 6000 NSC 03/00 Q1015 NOSIG=
201912071500 METAR LRBS 071500Z 26004KT 240V300 6000 NSC 02/00 Q1015 BECMG
                        5000 BR=
201912071530 METAR LRBS 071530Z 28003KT 6000 NSC 02/00 Q1015 BECMG 5000
                        BR=
201912071600 METAR LRBS 071600Z 24003KT 5000 BR NSC 02/00 Q1015 NOSIG=
201912071630 METAR LRBS 071630Z VRB01KT 5000 BR NSC 02/00 Q1015 NOSIG=
201912071700 METAR LRBS 071700Z 00000KT 4500 BR NSC 01/00 Q1016 NOSIG=
201912071730 METAR LRBS 071730Z VRB02KT 3500 BR NSC 01/00 Q1016 NOSIG=
201912071800 METAR LRBS 071800Z 25001KT 3500 BR NSC 01/00 Q1016 NOSIG=
201912071830 METAR LRBS 071830Z VRB01KT 3500 BR NSC 02/00 Q1016 NOSIG=
201912071900 METAR LRBS 071900Z VRB01KT 3000 BR NSC 02/00 Q1016 NOSIG=
201912071930 METAR LRBS 071930Z 28003KT 2500 BR NSC 01/00 Q1016 BECMG
                        1500 BR=
201912072000 METAR LRBS 072000Z VRB02KT 2500 BR NSC 01/00 Q1016 BECMG
                        1500 BR=
201912072030 METAR LRBS 072030Z 28003KT 2500 BR NSC 01/00 Q1016 BECMG
                        1500 BR=
201912072100 METAR LRBS 072100Z 30002KT 2000 BR NSC 01/00 Q1016 BECMG
                        1500 BR=
201912072130 METAR LRBS 072130Z 25003KT 1800 BR NSC 00/M00 Q1016 BECMG
                        0800 FG=
201912072200 METAR LRBS 072200Z 25003KT 2500 BR NSC 01/00 Q1016 NOSIG=
201912072230 METAR LRBS 072230Z 26005KT 2000 BR NSC 00/M00 Q1016 NOSIG=
201912072300 METAR LRBS 072300Z 24003KT 2000 BR NSC 00/00 Q1016 NOSIG=
201912072330 METAR LRBS 072330Z 00000KT 2000 BR NSC 00/M00 Q1016 NOSIG=
201912080000 METAR LRBS 080000Z 27004KT 2500 BR NSC 00/M00 Q1016 NOSIG=
201912080030 METAR LRBS 080030Z 22003KT 2500 BR NSC 00/M00 Q1016 NOSIG=
201912080100 METAR LRBS 080100Z VRB01KT 3000 BR NSC 01/00 Q1016 NOSIG=
201912080130 METAR LRBS 080130Z 24006KT 3000 BR NSC 01/00 Q1016 NOSIG=
201912080200 METAR LRBS 080200Z 23005KT 3000 BR NSC 01/M00 Q1016 TEMPO
                        1500 BR=
201912080230 METAR LRBS 080230Z 27003KT 230V300 3500 BR NSC 00/M01 Q1016
                        TEMPO 1500 BR=
201912080300 METAR LRBS 080300Z 23001KT 4500 BR NSC 00/M01 Q1016 NOSIG=
201912080330 METAR LRBS 080330Z 00000KT 4000 BR NSC M01/M01 Q1017 NOSIG=
201912080400 METAR LRBS 080400Z 27001KT 4000 BR NSC M00/M01 Q1017 NOSIG=
201912080430 METAR LRBS 080430Z 25003KT 4000 BR NSC M00/M01 Q1017 NOSIG=
201912080500 METAR LRBS 080500Z 00000KT 4000 BR NSC M00/M01 Q1017 NOSIG=
201912080530 METAR LRBS 080530Z 24002KT 5000 BR NSC 01/M01 Q1018 NOSIG=
201912080600 METAR LRBS 080600Z 25003KT 5000 BR NSC 01/M00 Q1018 NOSIG=
201912080630 METAR LRBS 080630Z 28003KT 3000 BR NSC 01/M00 Q1018 NOSIG=
201912080700 METAR LRBS 080700Z 26003KT 3000 BR NSC 01/M00 Q1019 NOSIG=
201912080730 METAR LRBS 080730Z 24004KT 5000 BR NSC 02/M00 Q1019 NOSIG=
201912080800 METAR LRBS 080800Z 27002KT 5000 BR NSC 02/00 Q1019 BECMG
                        7000 NSW=
201912080830 METAR COR LRBS 080830Z 26003KT 6000 NSC 03/01 Q1019 NOSIG=
201912080900 METAR LRBS 080900Z 25003KT 7000 NSC 05/01 Q1019 NOSIG=
201912080930 METAR LRBS 080930Z 26002KT 8000 NSC 06/02 Q1018 NOSIG=
201912081000 METAR LRBS 081000Z VRB02KT 8000 NSC 08/03 Q1018 NOSIG=
201912081030 METAR LRBS 081030Z 27003KT 240V310 CAVOK 10/04 Q1018 NOSIG=
201912081100 METAR LRBS 081100Z VRB02KT CAVOK 10/03 Q1018 NOSIG=
201912081130 METAR LRBS 081130Z 23003KT 210V270 CAVOK 10/03 Q1018 NOSIG=
201912081200 METAR LRBS 081200Z 24004KT CAVOK 10/03 Q1018 NOSIG=
201912081230 METAR LRBS 081230Z 22005KT CAVOK 10/04 Q1018 NOSIG=
201912081300 METAR LRBS 081300Z 20003KT 160V240 CAVOK 10/04 Q1018 NOSIG=
201912081330 METAR LRBS 081330Z 22005KT CAVOK 10/04 Q1018 NOSIG=
201912081400 METAR LRBS 081400Z 22004KT CAVOK 09/03 Q1018 NOSIG=
201912081430 METAR LRBS 081430Z 22003KT CAVOK 08/03 Q1018 NOSIG=
201912081500 METAR LRBS 081500Z 23004KT CAVOK 07/03 Q1019 NOSIG=
201912081530 METAR LRBS 081530Z 24002KT 8000 NSC 07/03 Q1019 BECMG 5000
                        BR=
201912081600 METAR LRBS 081600Z 23003KT 8000 NSC 06/03 Q1019 BECMG 5000
                        BR=
201912081630 METAR LRBS 081630Z 00000KT 7000 NSC 05/03 Q1019 BECMG 5000
                        BR=
201912081700 METAR LRBS 081700Z 00000KT 5000 BR NSC 03/01 Q1019 BECMG
                        3000 BR=
201912081730 METAR LRBS 081730Z 00000KT 5000 MIFG BR NSC 03/03 Q1019 BECMG
                        3000 BR=
201912081800 METAR LRBS 081800Z 00000KT 5000 MIFG BR NSC 04/03 Q1019 BECMG
                        3000 BR=
201912081830 METAR LRBS 081830Z 10001KT 0700 R07/0400 R25/1800 FG NSC
                        00/M00 Q1019 BECMG 0350 FZFG=
201912081900 METAR LRBS 081900Z 08002KT 0600 R07/0450N R25/0900 FZFG NSC
                        M00/M01 Q1019 NOSIG=
201912081930 METAR LRBS 081930Z 08002KT 0600 R07/0400N R25/P2000 FZFG
                        NSC M00/M01 Q1018 NOSIG=
201912082000 METAR LRBS 082000Z 00000KT 0800 R07/0325N R25/1800 FG NSC
                        02/02 Q1018 BECMG 0600 FG=
201912082030 METAR LRBS 082030Z 00000KT 0800 R07/0275N R25/P2000 FG NSC
                        01/01 Q1018 NOSIG=
201912082100 METAR LRBS 082100Z 00000KT 0800 R07/0325N R25/0500 FG NSC
                        01/01 Q1018 NOSIG=
201912082130 METAR LRBS 082130Z 23001KT 0900 R07/0450N R25/0275N FG NSC
                        01/01 Q1018 NOSIG=
201912082200 METAR LRBS 082200Z 22002KT 0900 R07/0250N R25/0250N FG NSC
                        02/02 Q1018 NOSIG=
201912082230 METAR LRBS 082230Z 19003KT 150V220 2000 MIFG BR NSC 02/02
                        Q1017 TEMPO 1500 BR=
201912082300 METAR LRBS 082300Z 21003KT 2000 MIFG BR NSC 03/03 Q1017 TEMPO
                        1500 BR=
201912082330 METAR LRBS 082330Z 25004KT 2500 MIFG BR SCT002 02/02 Q1017
                        TEMPO 1500 BR=
201912090000 METAR LRBS 090000Z 27004KT 0300 R07/0400N R25/0650D FG VV001
                        00/00 Q1017 TEMPO 0150 FZFG=
201912090030 METAR LRBS 090030Z 25003KT 0300 R07/0400N R25/0375N FG VV001
                        01/00 Q1017 TEMPO 0150 FZFG=
201912090100 METAR LRBS 090100Z 24004KT 0400 R07/0650U R25/0400N FZFG
                        VV002 M00/M00 Q1017 TEMPO 0150 FZFG=
201912090130 METAR LRBS 090130Z 24005KT 0400 R07/0650N R25/0600N FZFG
                        VV002 M01/M01 Q1016 TEMPO 0150 FZFG=
201912090200 METAR LRBS 090200Z 26003KT 230V290 0300 R07/1100D R25/0650N
                        FZFG VV002 M01/M01 Q1016 TEMPO 0150
                        FZFG=
201912090230 METAR LRBS 090230Z 25004KT 0700 R07/1100 R25/0800 FZFG VV002
                        M01/M02 Q1016 TEMPO 1500 BR=
201912090300 METAR LRBS 090300Z 26003KT 3000 BR FEW002 M01/M01 Q1016 NOSIG=
201912090330 METAR LRBS 090330Z 25004KT 4000 BR NSC M01/M01 Q1015 NOSIG=
201912090400 METAR LRBS 090400Z 25004KT 5000 BR NSC M01/M01 Q1015 NOSIG=
201912090430 METAR LRBS 090430Z 25003KT 5000 BR NSC M01/M01 Q1015 NOSIG=
201912090500 METAR LRBS 090500Z 24004KT 5000 BR NSC M00/M01 Q1015 NOSIG=
201912090530 METAR LRBS 090530Z 25003KT 7000 NSC M00/M01 Q1015 NOSIG=
201912090600 METAR LRBS 090600Z 24003KT 8000 NSC 00/M01 Q1015 NOSIG=
201912090630 METAR LRBS 090630Z 24003KT 9000 NSC 01/M00 Q1015 NOSIG=
201912090700 METAR LRBS 090700Z 25003KT 9000 NSC 01/00 Q1015 NOSIG=
201912090730 METAR LRBS 090730Z 24003KT 9000 NSC 02/01 Q1015 NOSIG=
201912090800 METAR LRBS 090800Z 24006KT 9000 NSC 04/01 Q1015 NOSIG=
201912090830 METAR LRBS 090830Z 23004KT CAVOK 06/02 Q1015 NOSIG=
201912090900 METAR COR LRBS 090900Z 26006KT CAVOK 07/03 Q1015 NOSIG=
201912090930 METAR LRBS 090930Z 23006KT CAVOK 08/03 Q1015 NOSIG=
201912091000 METAR LRBS 091000Z 25005KT 220V280 CAVOK 09/04 Q1014 NOSIG=
201912091030 METAR LRBS 091030Z 26007KT CAVOK 10/03 Q1014 NOSIG=
201912091100 METAR LRBS 091100Z 25006KT CAVOK 11/03 Q1013 NOSIG=
201912091130 METAR LRBS 091130Z 25006KT CAVOK 12/01 Q1013 NOSIG=
201912091200 METAR LRBS 091200Z 26005KT CAVOK 12/01 Q1012 NOSIG=
201912091230 METAR LRBS 091230Z 23004KT CAVOK 12/01 Q1012 NOSIG=
201912091300 METAR LRBS 091300Z 24005KT 220V280 CAVOK 12/01 Q1012 NOSIG=
201912091330 METAR LRBS 091330Z 24004KT CAVOK 12/00 Q1012 NOSIG=
201912091400 METAR LRBS 091400Z 23003KT 190V260 CAVOK 11/00 Q1012 NOSIG=
201912091430 METAR LRBS 091430Z 22001KT CAVOK 11/01 Q1012 NOSIG=
201912091500 METAR LRBS 091500Z 22002KT CAVOK 09/01 Q1012 NOSIG=
201912091530 METAR LRBS 091530Z VRB01KT CAVOK 09/02 Q1012 NOSIG=
201912091600 METAR LRBS 091600Z VRB02KT CAVOK 08/03 Q1012 NOSIG=
201912091630 METAR LRBS 091630Z 00000KT CAVOK 07/03 Q1012 NOSIG=
201912091700 METAR LRBS 091700Z 00000KT CAVOK 04/02 Q1011 NOSIG=
201912091730 METAR LRBS 091730Z 00000KT CAVOK 04/02 Q1012 NOSIG=
201912091800 METAR LRBS 091800Z 00000KT CAVOK 04/02 Q1012 NOSIG=
201912091830 METAR LRBS 091830Z VRB01KT CAVOK 03/01 Q1012 NOSIG=
201912091900 METAR LRBS 091900Z VRB01KT 8000 NSC 02/01 Q1012 NOSIG=
201912091930 METAR LRBS 091930Z 00000KT 8000 NSC 01/M00 Q1012 NOSIG=
201912092000 METAR COR LRBS 092000Z 00000KT 8000 NSC 02/00 Q1012 NOSIG=
201912092030 METAR LRBS 092030Z VRB01KT 8000 NSC 02/01 Q1012 NOSIG=
201912092100 METAR LRBS 092100Z VRB01KT 8000 NSC 02/01 Q1012 NOSIG=
201912092130 METAR LRBS 092130Z 11001KT 7000 MIFG NSC 01/01 Q1012 NOSIG=
201912092200 METAR LRBS 092200Z 11001KT 7000 NSC 01/01 Q1012 NOSIG=
201912092230 METAR LRBS 092230Z 33001KT 7000 NSC 01/00 Q1012 NOSIG=
201912092300 METAR LRBS 092300Z 00000KT 7000 NSC 00/M01 Q1012 TEMPO 3000
                        BR=
201912092330 METAR LRBS 092330Z 31001KT 5000 BR NSC M00/M01 Q1011 TEMPO
                        3000 BR=
201912100000 METAR LRBS 100000Z VRB01KT 5000 BR NSC M01/M01 Q1011 TEMPO
                        3000 BR=
201912100030 METAR LRBS 100030Z 07003KT 4000 BR NSC M01/M01 Q1011 TEMPO
                        3000 BR=
201912100100 METAR LRBS 100100Z 05002KT 3000 MIFG BR NSC M01/M01 Q1011
                        TEMPO 1500 BR=
201912100130 METAR LRBS 100130Z 00000KT 3000 MIFG BR NSC M01/M02 Q1011
                        TEMPO 1500 BR=
201912100200 METAR LRBS 100200Z VRB01KT 3000 BCFG BR NSC M01/M01 Q1011
                        NOSIG=
201912100230 METAR LRBS 100230Z 32002KT 3000 BR NSC M01/M01 Q1011 NOSIG=
201912100300 METAR COR LRBS 100300Z 06002KT 1500 MIFG BR NSC M03/M03 Q1011
                        TEMPO 0600 FZFG=
201912100330 METAR LRBS 100330Z VRB01KT 0400 R07/0600N R25/P2000 FZFG
                        NSC M02/M03 Q1011 BECMG 1500 BR=
201912100400 METAR LRBS 100400Z 06001KT 2000 BR NSC M02/M02 Q1011 NOSIG=
201912100430 METAR LRBS 100430Z 07003KT 2000 BR NSC M02/M03 Q1011 NOSIG=
201912100500 METAR LRBS 100500Z 00000KT 2000 MIFG NSC M02/M03 Q1012 NOSIG=
201912100530 METAR LRBS 100530Z 04002KT 0800 R07/0650N R25/P2000 FZFG
                        NSC M03/M03 Q1012 TEMPO 0600 FZFG
                        BKN002=
201912100600 METAR LRBS 100600Z 05002KT 0600 R07/0500 R25/P2000 FZFG NSC
                        M03/M03 Q1012 TEMPO 0350 FZFG BKN002=
201912100630 METAR LRBS 100630Z VRB01KT 2000 MIFG BR NSC M01/M01 Q1012
                        NOSIG=
201912100700 METAR LRBS 100700Z VRB01KT 2000 BR NSC M00/M00 Q1013 NOSIG=
201912100730 METAR LRBS 100730Z 06003KT 2000 BR NSC 00/M00 Q1013 NOSIG=
201912100800 METAR LRBS 100800Z 03003KT 350V060 8000 NSC 02/01 Q1013 NOSIG=
201912100830 METAR LRBS 100830Z 03004KT 350V060 CAVOK 03/01 Q1013 NOSIG=
201912100900 METAR LRBS 100900Z 01003KT 280V070 CAVOK 03/01 Q1013 NOSIG=
201912100930 METAR LRBS 100930Z 06004KT 020V090 CAVOK 05/02 Q1013 NOSIG=
201912101000 METAR COR LRBS 101000Z 04004KT 350V070 CAVOK 07/03 Q1013
                        NOSIG=
201912101030 METAR LRBS 101030Z 06004KT 360V090 CAVOK 08/03 Q1013 NOSIG=
201912101100 METAR LRBS 101100Z 06005KT 030V090 CAVOK 08/04 Q1012 NOSIG=
201912101130 METAR LRBS 101130Z 06005KT CAVOK 09/04 Q1012 NOSIG=
201912101200 METAR LRBS 101200Z 06005KT 020V090 CAVOK 09/04 Q1012 NOSIG=
201912101230 METAR LRBS 101230Z 07006KT CAVOK 09/04 Q1013 NOSIG=
201912101300 METAR LRBS 101300Z 07006KT CAVOK 09/05 Q1013 NOSIG=
201912101330 METAR LRBS 101330Z 07006KT CAVOK 08/05 Q1013 NOSIG=
201912101400 METAR LRBS 101400Z 07006KT CAVOK 07/04 Q1013 NOSIG=
201912101430 METAR LRBS 101430Z 05003KT CAVOK 05/04 Q1013 NOSIG=
201912101500 METAR LRBS 101500Z 04002KT 8000 NSC 05/03 Q1014 NOSIG=
201912101530 METAR LRBS 101530Z 02004KT 7000 NSC 05/03 Q1014 NOSIG=
201912101600 METAR LRBS 101600Z 04002KT 5000 BR NSC 04/03 Q1014 NOSIG=
201912101630 METAR COR LRBS 101630Z 04002KT 5000 MIFG BR NSC 04/03 Q1015
                        BECMG 3000 BR=
201912101700 METAR LRBS 101700Z 04003KT 5000 BR NSC 03/03 Q1015 BECMG
                        3000 BR=
201912101730 METAR LRBS 101730Z 04003KT 5000 BR NSC 03/02 Q1015 BECMG
                        3000 BR=
201912101800 METAR LRBS 101800Z 03002KT 4000 BR NSC 03/03 Q1016 BECMG
                        3000 BR=
201912101830 METAR LRBS 101830Z 05003KT 4000 BR NSC 03/02 Q1016 BECMG
                        3000 BR=
201912101900 METAR LRBS 101900Z 03002KT 4000 BR NSC 03/02 Q1016 BECMG
                        3000 BR=
201912101930 METAR COR LRBS 101930Z 06001KT 3000 BR NSC 03/02 Q1016 BECMG
                        1500 BR=
201912102000 METAR LRBS 102000Z 00000KT 3000 MIFG BR NSC 02/02 Q1017 BECMG
                        1500 BR=
201912102030 METAR LRBS 102030Z 06003KT 2000 R07/0500D R25/0800U MIFG
                        BR NSC 01/01 Q1017 BECMG 1500 BR=
201912102100 METAR LRBS 102100Z 04004KT 4000 MIFG BR FEW044 01/01 Q1017
                        NOSIG=
201912102130 METAR LRBS 102130Z 05004KT 4500 MIFG BR SCT042 02/02 Q1018
                        NOSIG=
201912102200 METAR LRBS 102200Z 05005KT 4000 BR FEW040 02/02 Q1018 NOSIG=
201912102230 METAR LRBS 102230Z 05006KT 5000 BR FEW035 03/01 Q1018 NOSIG=
201912102300 METAR LRBS 102300Z 05005KT 5000 BR NSC 02/01 Q1018 NOSIG=
201912102330 METAR LRBS 102330Z AUTO 07005KT 6000 BR BKN018/// 02/01 Q1018
                        NOSIG=
201912110000 METAR LRBS 110000Z 06005KT 9999 SCT017 SCT022 03/02 Q1018
                        NOSIG=
201912110030 METAR LRBS 110030Z 07004KT 9999 BKN019 03/02 Q1018 NOSIG=
201912110100 METAR LRBS 110100Z 06006KT 9999 OVC020 03/02 Q1019 NOSIG=
201912110130 METAR LRBS 110130Z 05006KT 9999 SCT020 BKN046 03/01 Q1018
                        NOSIG=
201912110200 METAR COR LRBS 110200Z 08003KT 9000 BKN045 02/01 Q1018 NOSIG=
201912110230 METAR LRBS 110230Z 08004KT 9999 FEW021 BKN046 02/01 Q1018
                        NOSIG=
201912110300 METAR LRBS 110300Z 05008KT 9999 BR BKN048 04/02 Q1018 NOSIG=
201912110330 METAR COR LRBS 110330Z 05006KT 9000 SCT022 04/02 Q1018 NOSIG=
201912110400 METAR LRBS 110400Z 06007KT 020V090 7000 BKN021 03/02 Q1019
                        NOSIG=
201912110430 METAR LRBS 110430Z 06008KT 6000 OVC022 04/03 Q1019 NOSIG=
201912110500 METAR LRBS 110500Z 05008KT 6000 OVC026 04/03 Q1019 NOSIG=
201912110530 METAR LRBS 110530Z 04007KT 6000 OVC021 05/03 Q1019 NOSIG=
201912110600 METAR LRBS 110600Z 06007KT 030V090 7000 FEW011 BKN020 OVC042
                        05/03 Q1019 NOSIG=
201912110630 METAR LRBS 110630Z 05010KT 8000 BKN020 BKN034 05/03 Q1019
                        NOSIG=
201912110700 METAR LRBS 110700Z 05010KT 8000 BKN019 BKN032 05/03 Q1019
                        NOSIG=
201912110730 METAR LRBS 110730Z 06009KT 9999 BKN020 05/03 Q1020 NOSIG=
201912110800 METAR LRBS 110800Z 05008KT 9999 -RA SCT022 BKN034 05/03 Q1020
                        NOSIG=
201912110830 METAR LRBS 110830Z 06010KT 8000 -RA SCT015 BKN025 05/03 Q1020
                        NOSIG=
201912110900 METAR LRBS 110900Z 05010KT 8000 -RA FEW015 SCT024 05/04 Q1020
                        R07/29//95 NOSIG=
201912110930 METAR LRBS 110930Z 06012KT 7000 -RA SCT011 SCT023 BKN036
                        05/04 Q1019 R07/29//95 NOSIG=
201912111000 METAR COR LRBS 111000Z 05010KT 010V070 7000 3000SE RA FEW008
                        SCT024 OVC042 05/04 Q1019 R07/29//95
                        TEMPO 5000 RA BR=
201912111030 METAR LRBS 111030Z 05007KT 8000 -RA BKN010 BKN017 OVC045
                        05/04 Q1019 R07/29//95 TEMPO 5000
                        RA BR=
201912111100 METAR COR LRBS 111100Z 06010KT 6000 RA BKN008 OVC015 05/04
                        Q1019 WS R07 R07/29//95 NOSIG=
201912111130 METAR COR LRBS 111130Z 05010KT 7000 BKN008 OVC015 05/04 Q1019
                        RERA WS R07 R07/29//95 NOSIG=
201912111200 METAR LRBS 111200Z 05009KT 8000 OVC009 05/04 Q1018 R07/29//95
                        NOSIG=
201912111230 METAR LRBS 111230Z 04012KT 9000 OVC009 06/04 Q1018 R07/29//95
                        NOSIG=
201912111300 METAR LRBS 111300Z 06013KT 8000 OVC009 05/04 Q1018 R07/29//95
                        NOSIG=
201912111330 METAR LRBS 111330Z 05009KT 8000 OVC010 05/04 Q1018 R07/29//95
                        NOSIG=
201912111400 METAR LRBS 111400Z 04012KT 9000 OVC010 05/03 Q1018 R07/29//95
                        NOSIG=
201912111430 METAR LRBS 111430Z 04012KT 9000 OVC010 05/03 Q1018 R07/29//95
                        TEMPO 5000 -RA=
201912111500 METAR LRBS 111500Z 05013KT 7000 -RA OVC009 05/03 Q1018 R07/29//95
                        TEMPO 5000 -RA BR=
201912111530 METAR LRBS 111530Z 05013KT 7000 -RA OVC008 04/03 Q1018 R07/29//95
                        TEMPO 5000 -RA BR=
201912111600 METAR LRBS 111600Z 05011KT 5000 -RA BR OVC007 04/03 Q1018
                        R07/29//95 NOSIG=
201912111630 METAR LRBS 111630Z 05010KT 010V070 7000 OVC006 04/03 Q1018
                        R07/29//95 NOSIG=
201912111700 METAR LRBS 111700Z 04011KT 7000 OVC006 04/03 Q1018 R07/29//95
                        NOSIG=
201912111730 METAR LRBS 111730Z 05011KT 020V080 6000 -RA OVC006 04/03
                        Q1018 R07/29//95 NOSIG=
201912111800 METAR LRBS 111800Z 05008KT 020V080 5000 BR OVC005 04/03 Q1017
                        R07/29//95 NOSIG=
201912111830 METAR LRBS 111830Z 05011KT 5000 BR OVC004 04/04 Q1017 R07/29//95
                        NOSIG=
201912111900 METAR LRBS 111900Z 05011KT 4000 BR OVC003 04/04 Q1017 R07/29//95
                        NOSIG=
201912111930 METAR LRBS 111930Z 04012KT 0900 R07/P2000 R25/P2000 FG OVC001
                        04/04 Q1017 R07/29//95 BECMG 0600
                        FG=
201912112000 METAR LRBS 112000Z 04010KT 0900 R07/P2000 R25/P2000 FG OVC002
                        04/04 Q1017 R07/29//95 BECMG 0600
                        FG=
201912112030 METAR LRBS 112030Z 05010KT 010V070 0800 R07/P2000 R25/P2000
                        FG VV001 04/04 Q1017 R07/29//95 BECMG
                        0600 FG=
201912112100 METAR LRBS 112100Z 04010KT 010V070 1100 R07/P2000 R25/P2000
                        BR VV001 04/04 Q1017 R07/29//95 BECMG
                        0600 FG=
201912112130 METAR LRBS 112130Z 04010KT 0900 R07/P2000 R25/P2000 FG VV001
                        04/04 Q1016 R07/29//95 NOSIG=
201912112200 METAR LRBS 112200Z 04011KT 010V070 1400 R07/P2000 R25/P2000
                        BR OVC002 04/04 Q1016 R07/29//95
                        NOSIG=
201912112230 METAR LRBS 112230Z 04010KT 0900 R07/P2000 R25/P2000 FG OVC002
                        04/04 Q1016 R07/29//95 NOSIG=
201912112300 METAR LRBS 112300Z 04010KT 2500 BR OVC002 04/04 Q1016 R07/29//95
                        NOSIG=
201912112330 METAR LRBS 112330Z 03012KT 4000 BR OVC004 05/04 Q1015 R07/29//95
                        NOSIG=
201912120000 METAR LRBS 120000Z 04010KT 5000 BR OVC005 05/04 Q1015 R07/29//95
                        NOSIG=
201912120030 METAR LRBS 120030Z 04012KT 6000 OVC005 05/04 Q1015 R07/29//95
                        NOSIG=
201912120100 METAR COR LRBS 120100Z 04011KT 6000 OVC005 05/04 Q1015 R07/29//95
                        NOSIG=
201912120130 METAR LRBS 120130Z 04011KT 6000 OVC006 05/04 Q1014 R07/29//95
                        NOSIG=
201912120200 METAR LRBS 120200Z 04011KT 6000 OVC006 05/04 Q1014 R07/29//95
                        NOSIG=
201912120230 METAR LRBS 120230Z 04011KT 010V080 6000 OVC006 05/04 Q1014
                        R07/29//95 NOSIG=
201912120300 METAR LRBS 120300Z 05013KT 5000 BR OVC004 05/04 Q1014 R07/29//95
                        NOSIG=
201912120330 METAR LRBS 120330Z 04012KT 5000 BR OVC005 05/04 Q1013 R07/29//95
                        NOSIG=
201912120400 METAR LRBS 120400Z 04012KT 5000 BR OVC005 05/04 Q1013 R07/CLRD//
                        NOSIG=
201912120430 METAR LRBS 120430Z 04010KT 5000 BR OVC005 05/04 Q1013 NOSIG=
201912120500 METAR LRBS 120500Z 05012KT 8000 OVC005 05/04 Q1013 NOSIG=
201912120530 METAR COR LRBS 120530Z 04011KT 6000 -DZ BKN004 05/04 Q1013
                        R07/29//95 TEMPO 3000 -RA BR OVC002=
201912120600 METAR LRBS 120600Z 05012KT 020V080 5000 -DZ BR OVC004 05/04
                        Q1013 R07/29//95 TEMPO 3000 -RA BR
                        OVC002=
201912120630 METAR LRBS 120630Z 04010KT 4000 -DZ BR OVC004 05/04 Q1013
                        R07/29//95 TEMPO 3000 -RA BR OVC002=
201912120700 METAR LRBS 120700Z 05010KT 020V080 4000 -DZ BR OVC004 05/04
                        Q1013 R07/29//95 NOSIG=
201912120730 METAR LRBS 120730Z 05012KT 4000 BR OVC004 05/04 Q1013 R07/29//95
                        NOSIG=
201912120800 METAR LRBS 120800Z 05013KT 4000 BR OVC004 05/04 Q1013 R07/29//95
                        NOSIG=
201912120830 METAR LRBS 120830Z 04011KT 4000 BR OVC004 05/04 Q1013 R07/29//95
                        NOSIG=
201912120900 METAR LRBS 120900Z 05012KT 010V070 4000 BR OVC004 05/04 Q1013
                        R07/29//95 NOSIG=
201912120930 METAR LRBS 120930Z 05011KT 020V080 3000 BR OVC004 05/04 Q1012
                        R07/29//95 NOSIG=
201912121000 METAR COR LRBS 121000Z 05011KT 3000 BR OVC004 05/04 Q1012
                        R07/29//95 NOSIG=
201912121030 METAR LRBS 121030Z 05011KT 020V080 3000 BR OVC004 05/04 Q1012
                        R07/29//95 NOSIG=
201912121100 METAR LRBS 121100Z 05012KT 3000 BR OVC004 05/05 Q1012 R07/29//95
                        NOSIG=
201912121130 METAR LRBS 121130Z 05011KT 3000 BR OVC003 05/05 Q1011 R07/29//95
                        NOSIG=
201912121200 METAR LRBS 121200Z 05011KT 4000 BR OVC003 05/05 Q1011 R07/29//95
                        NOSIG=
201912121230 METAR LRBS 121230Z 04010KT 010V080 3000 BR OVC003 05/04 Q1011
                        R07/29//95 NOSIG=
201912121300 METAR LRBS 121300Z 05011KT 3000 BR OVC003 05/04 Q1011 R07/29//95
                        NOSIG=
201912121330 METAR LRBS 121330Z 05011KT 020V080 3000 BR OVC003 05/04 Q1011
                        R07/29//95 NOSIG=
201912121400 METAR LRBS 121400Z 06011KT 2500 BR OVC003 05/04 Q1011 R07/29//95
                        BECMG 1500 BR OVC002=
201912121430 METAR COR LRBS 121430Z 04011KT 010V070 2000 BR OVC002 05/04
                        Q1011 R07/29//95 BECMG 1500 BR=
201912121500 METAR LRBS 121500Z 04011KT 1500 BR OVC002 04/04 Q1011 R07/29//95
                        NOSIG=
201912121530 METAR LRBS 121530Z 04013KT 1500 BR OVC002 04/04 Q1011 R07/29//95
                        NOSIG=
201912121600 METAR LRBS 121600Z 04011KT 010V070 0800 R07/P2000 R25/P2000
                        FG OVC002 04/04 Q1010 R07/29//95
                        NOSIG=
201912121630 METAR LRBS 121630Z 04012KT 0800 R07/P2000 R25/2000 FG OVC002
                        04/04 Q1010 R07/29//95 NOSIG=
201912121700 METAR LRBS 121700Z 04013KT 1100 R07/P2000 R25/2000 BR OVC002
                        04/04 Q1010 R07/29//95 NOSIG=
201912121730 METAR LRBS 121730Z 05010KT 1800 BR OVC002 04/04 Q1010 R07/29//95
                        NOSIG=
201912121800 METAR LRBS 121800Z 04013KT 1800 BR OVC002 04/04 Q1010 R07/29//95
                        TEMPO 3000=
201912121830 METAR LRBS 121830Z 04013KT 3500 BR BKN002 OVC003 04/04 Q1010
                        R07/29//95 TEMPO 5000=
201912121900 METAR LRBS 121900Z 04011KT 1300 R07/P2000 R25/2000 BR OVC001
                        04/04 Q1010 R07/29//95 NOSIG=
201912121930 METAR LRBS 121930Z 05010KT 1500 BR OVC001 04/04 Q1010 R07/29//95
                        NOSIG=
201912122000 METAR LRBS 122000Z 05010KT 1800 BR OVC001 04/03 Q1010 R07/29//95
                        NOSIG=
201912122030 METAR LRBS 122030Z 05010KT 1500 BR OVC001 04/04 Q1009 R07/19//95
                        NOSIG=
201912122100 METAR LRBS 122100Z 05010KT 1000 R07/P2000 R25/P2000 BR OVC001
                        04/04 Q1009 R07/19//95 NOSIG=
201912122130 METAR LRBS 122130Z 04010KT 0800 R07/P2000 R25/P2000 FG OVC001
                        04/03 Q1009 R07/19//95 NOSIG=
201912122200 METAR LRBS 122200Z 04009KT 010V080 0800 R07/P2000 R25/P2000
                        FG OVC001 04/03 Q1009 R07/19//95
                        NOSIG=
201912122230 METAR LRBS 122230Z 04010KT 0900 R07/P2000 R25/P2000 FG OVC001
                        03/03 Q1008 R07/19//95 NOSIG=
201912122300 METAR LRBS 122300Z 05009KT 0800 R07/P2000 R25/P2000 FG OVC001
                        03/03 Q1008 R07/19//95 NOSIG=
201912122330 METAR LRBS 122330Z 05010KT 0700 R07/1900 R25/1800 FG OVC001
                        03/03 Q1008 R07/19//95 NOSIG=
201912130000 METAR LRBS 130000Z 04008KT 010V070 0600 R07/1700D R25/1700U
                        FG OVC001 03/03 Q1008 R07/19//95
                        NOSIG=
201912130030 METAR LRBS 130030Z 05007KT 010V070 0600 R07/1700N R25/1500D
                        FG OVC001 03/03 Q1008 R07/19//95
                        NOSIG=
201912130100 METAR LRBS 130100Z 04008KT 0700 R07/1700U R25/1800U FG OVC001
                        03/03 Q1007 R07/19//95 NOSIG=
201912130130 METAR LRBS 130130Z 05008KT 0700 R07/1900N R25/2000N FG OVC001
                        03/03 Q1007 R07/19//95 NOSIG=
201912130200 METAR LRBS 130200Z 05008KT 0800 R07/P2000 R25/P2000 FG OVC001
                        03/03 Q1006 R07/19//95 NOSIG=
201912130230 METAR LRBS 130230Z 06009KT 0900 R07/P2000 R25/P2000 -RA FG
                        OVC001 03/03 Q1007 R07/19//95 NOSIG=
201912130300 METAR LRBS 130300Z 06010KT 0700 R07/1900U R25/1900U -RA FG
                        OVC001 03/03 Q1006 R07/29//95 NOSIG=
201912130330 METAR LRBS 130330Z 05009KT 0600 R07/1700D R25/1800D FG OVC001
                        03/03 Q1006 R07/29//95 NOSIG=
201912130400 METAR LRBS 130400Z 06010KT 0700 R07/1600U R25/2000U FG SCT001
                        OVC002 03/03 Q1006 R07/29//95 NOSIG=
201912130430 METAR LRBS 130430Z 06009KT 0700 R07/1700U R25/1800U FG OVC001
                        03/03 Q1006 R07/29//95 NOSIG=
201912130500 METAR LRBS 130500Z 06008KT 0700 R07/1900U R25/P2000 -RA FG
                        OVC001 03/03 Q1006 R07/29//95 NOSIG=
201912130530 METAR LRBS 130530Z 06008KT 1500 -RA BR OVC001 03/03 Q1006
                        R07/29//95 NOSIG=
201912130600 METAR LRBS 130600Z 06009KT 1500 -RA BR OVC002 03/03 Q1005
                        R07/29//95 NOSIG=
201912130630 METAR LRBS 130630Z 06009KT 1100 R07/2000 R25/P2000 -DZ BR
                        OVC001 03/03 Q1005 R07/29//95 NOSIG=
201912130700 METAR COR LRBS 130700Z 05009KT 0800 R07/1300U R25/1200N FG
                        OVC001 03/03 Q1005 R07/29//95 NOSIG=
201912130730 METAR LRBS 130730Z 06008KT 0800 R07/1700U R25/1700U FG OVC001
                        04/04 Q1005 R07/29//95 NOSIG=
201912130800 METAR LRBS 130800Z 05008KT 1000 R07/1800U R25/2000 BR OVC002
                        04/04 Q1005 R07/29//95 NOSIG=
201912130830 METAR LRBS 130830Z 06008KT 1200 R07/1900 R25/1900U BR OVC001
                        04/04 Q1005 R07/29//95 NOSIG=
201912130900 METAR LRBS 130900Z 06010KT 1200 R07/1900D R25/2000D BR OVC001
                        04/04 Q1004 R07/29//95 NOSIG=
201912130930 METAR LRBS 130930Z 06010KT 0700 R07/1200N R25/1300D FG OVC001
                        04/04 Q1004 R07/29//95 NOSIG=
201912131000 METAR LRBS 131000Z 06010KT 0400 R07/0800N R25/0800D FG OVC001
                        04/04 Q1004 R07/29//95 NOSIG=
201912131030 METAR LRBS 131030Z 06007KT 0300 R07/0800N R25/0900D FG VV002
                        04/04 Q1003 R07/29//95 NOSIG=
201912131100 METAR LRBS 131100Z 05008KT 0500 R07/1000U R25/1000U FG OVC001
                        04/04 Q1003 R07/29//95 NOSIG=
201912131130 METAR LRBS 131130Z 05007KT 0300 R07/0800U R25/0800U -RA FG
                        OVC001 04/04 Q1002 R07/29//95 NOSIG=
201912131200 METAR LRBS 131200Z 05008KT 0300 R07/0750N R25/0800D -RA FG
                        OVC001 05/05 Q1002 R07/29//95 NOSIG=
201912131230 METAR LRBS 131230Z 05008KT 0300 R07/0700N R25/0750N FG OVC001
                        05/05 Q1002 R07/29//95 NOSIG=
201912131300 METAR LRBS 131300Z 06008KT 0250 R07/1000N R25/1100N FG OVC001
                        05/05 Q1002 R07/29//95 NOSIG=
201912131330 METAR LRBS 131330Z 05007KT 0300 R07/0800D R25/0800N FG OVC001
                        05/05 Q1001 R07/29//95 NOSIG=
201912131400 METAR LRBS 131400Z 05006KT 0200 R07/0800N R25/0900N FG VV002
                        05/05 Q1001 R07/29//95 NOSIG=
201912131430 METAR LRBS 131430Z 05006KT 0200 R07/0800U R25/0800U FG VV002
                        05/05 Q1001 R07/29//95 NOSIG=
201912131500 METAR LRBS 131500Z 04006KT 0200 R07/1000N R25/1200N FG VV002
                        05/05 Q1001 R07/29//95 NOSIG=
201912131530 METAR LRBS 131530Z 05006KT 0300 R07/0900N R25/1000D FG VV002
                        05/05 Q1001 R07/29//95 NOSIG=
201912131600 METAR LRBS 131600Z 05006KT 0300 R07/1000N R25/1000N FG VV002
                        05/05 Q1001 R07/29//95 NOSIG=
201912131630 METAR COR LRBS 131630Z 05007KT 020V080 0400 R07/1100N R25/1200N
                        FG VV002 05/05 Q1001 R07/29//95 NOSIG=
201912131700 METAR LRBS 131700Z 05006KT 0300 R07/1100N R25/1100N FG VV002
                        05/05 Q1001 R07/29//95 NOSIG=
201912131730 METAR LRBS 131730Z 05005KT 0200 R07/1000D R25/1000N FG VV002
                        05/05 Q1000 R07/29//95 NOSIG=
201912131800 METAR LRBS 131800Z 06006KT 0100 R07/0750N R25/0800N FG VV001
                        05/05 Q1000 R07/29//95 NOSIG=
201912131830 METAR LRBS 131830Z 06006KT 0200 R07/0700N R25/0750N FG VV001
                        06/06 Q1000 R07/29//95 NOSIG=
201912131900 METAR LRBS 131900Z 05006KT 0100 R07/0650N R25/0700N FG VV001
                        06/06 Q1000 R07/29//95 NOSIG=
201912131930 METAR COR LRBS 131930Z 06005KT 0100 R07/0600N R25/0650N FG
                        VV001 06/06 Q1000 R07/29//95 NOSIG=
201912132000 METAR LRBS 132000Z 04005KT 0100 R07/0700N R25/0800N FG VV001
                        06/06 Q1000 R07/29//95 NOSIG=
201912132030 METAR LRBS 132030Z 05006KT 0100 R07/0700N R25/0700N FG VV001
                        06/06 Q0999 R07/29//95 NOSIG=
201912132100 METAR LRBS 132100Z 06005KT 0100 R07/0600N R25/0600N FG VV001
                        06/06 Q0999 R07/29//95 NOSIG=
201912132130 METAR LRBS 132130Z 06006KT 0100 R07/0600N R25/0600N FG VV001
                        06/06 Q0999 R07/29//95 NOSIG=
201912132200 METAR LRBS 132200Z 06006KT 0100 R07/0600N R25/0600N FG VV001
                        07/07 Q0999 R07/29//95 NOSIG=
201912132230 METAR LRBS 132230Z 05004KT 0100 R07/0550N R25/0550N FG VV001
                        07/07 Q0999 R07/29//95 NOSIG=
201912132300 METAR LRBS 132300Z 06006KT 0100 R07/0550N R25/0550N FG VV001
                        07/07 Q0999 R07/29//95 NOSIG=
201912132330 METAR LRBS 132330Z 06006KT 0100 R07/0550N R25/0550N FG VV001
                        07/07 Q0999 R07/29//95 NOSIG=
201912140000 METAR LRBS 140000Z 06006KT 0100 R07/0800U R25/0800U FG VV001
                        07/07 Q0999 R07/29//95 NOSIG=
201912140030 METAR LRBS 140030Z 06006KT 020V090 0100 R07/0900N R25/1000U
                        FG VV001 07/07 Q0999 R07/29//95 NOSIG=
201912140100 METAR LRBS 140100Z 06006KT 0100 R07/0800U R25/1000N FG VV001
                        07/07 Q0999 R07/29//95 NOSIG=
201912140130 METAR LRBS 140130Z 05005KT 0200 R07/1100N R25/1100D FG VV001
                        07/07 Q0999 R07/29//95 TEMPO 0350=
201912140200 METAR LRBS 140200Z 06005KT 0150 R07/0800D R25/0750N FG VV001
                        07/07 Q0998 R07/29//95 TEMPO 0350=
201912140230 METAR LRBS 140230Z 05005KT 0100 R07/0800N R25/0700N FG VV001
                        07/07 Q0998 R07/29//95 NOSIG=
201912140300 METAR LRBS 140300Z 05005KT 0100 R07/0700N R25/0750N FG VV001
                        07/07 Q0998 R07/29//95 NOSIG=
201912140330 METAR LRBS 140330Z 06007KT 0100 R07/0700N R25/0700N FG VV001
                        07/07 Q0998 R07/29//95 NOSIG=
201912140400 METAR LRBS 140400Z 06007KT 0100 R07/0650N R25/0600N FG VV001
                        07/07 Q0998 R07/29//95 NOSIG=
201912140430 METAR LRBS 140430Z 06007KT 0100 R07/0650N R25/0700N FG VV001
                        07/07 Q0998 R07/29//95 NOSIG=
201912140500 METAR LRBS 140500Z 06007KT 0250 R07/0650N R25/0650N FG VV001
                        07/07 Q0999 R07/29//95 NOSIG=
201912140530 METAR LRBS 140530Z 06006KT 0250 R07/0650N R25/0600N FG VV002
                        06/06 Q0999 R07/29//95 NOSIG=
201912140600 METAR LRBS 140600Z 06005KT 0200 R07/0500N R25/0500N FG VV001
                        06/06 Q0999 R07/29//95 NOSIG=
201912140630 METAR LRBS 140630Z 05006KT 0200 R07/0450N R25/0450N FG VV002
                        06/06 Q0999 R07/29//95 NOSIG=
201912140700 METAR LRBS 140700Z 05006KT 010V070 0200 R07/0400N R25/0375N
                        FG VV002 06/06 Q0999 R07/29//95 NOSIG=
201912140730 METAR LRBS 140730Z 05006KT 0150 R07/0400N R25/0375N FG VV002
                        06/06 Q1000 R07/29//95=
201912140800 METAR LRBS 140800Z 05006KT 0150 R07/0450N R25/0450N FG VV002
                        06/06 Q1000 R07/29//95 NOSIG=
201912140830 METAR LRBS 140830Z 04007KT 0200 R07/0600N R25/0600N FG VV002
                        06/06 Q1000 R07/29//95 NOSIG=
201912140900 METAR COR LRBS 140900Z 05005KT 360V070 0250 R07/0800N R25/1000
                        FG VV001 07/07 Q1000 R07/29//95 TEMPO
                        0600=
201912140930 METAR LRBS 140930Z 05006KT 1500 BR OVC002 08/08 Q1001 R07/29//95
                        BECMG 3000 BKN005=
201912141000 METAR COR LRBS 141000Z 04005KT 5000 BR OVC005 08/08 Q1000
                        R07/29//95 NOSIG=
201912141030 METAR LRBS 141030Z 02005KT 340V040 8000 BKN005 08/08 Q1000
                        R07/29//95 NOSIG=
201912141100 METAR LRBS 141100Z 01004KT 340V040 9999 BKN005 BKN010 09/08
                        Q1001 R07/29//95 BECMG SCT015=
201912141130 METAR LRBS 141130Z 02004KT 350V050 9999 BKN007 BKN011 09/08
                        Q1001 R07/29//95 BECMG SCT015=
201912141200 METAR LRBS 141200Z 03005KT 9999 BKN008 BKN011 10/08 Q1001
                        R07/29//95 NOSIG=
201912141230 METAR LRBS 141230Z 03005KT 9999 SCT009 10/08 Q1001 R07/29//95
                        NOSIG=
201912141300 METAR LRBS 141300Z 03005KT 350V050 9999 FEW010 10/08 Q1001
                        R07/29//95 NOSIG=
201912141330 METAR LRBS 141330Z 02004KT 350V050 CAVOK 10/08 Q1002 R07/29//95
                        NOSIG=
201912141400 METAR LRBS 141400Z 02004KT CAVOK 09/08 Q1002 R07/29//95 BECMG
                        5000 BR=
201912141430 METAR LRBS 141430Z 01003KT 8000 NSC 09/08 Q1003 R07/29//95
                        BECMG 5000 BR=
201912141500 METAR LRBS 141500Z 01003KT 5000 BR NSC 08/07 Q1003 R07/29//95
                        TEMPO 3000 BR=
201912141530 METAR COR LRBS 141530Z 01003KT 5000 BR NSC 08/07 Q1003 R07/29//95
                        TEMPO 3000 BR=
201912141600 METAR LRBS 141600Z VRB02KT 5000 BR NSC 08/07 Q1004 R07/29//95
                        TEMPO 3000 BR=
201912141630 METAR LRBS 141630Z VRB02KT 5000 MIFG BR NSC 08/07 Q1004 R07/29//95
                        TEMPO 3000 BR=
201912141700 METAR LRBS 141700Z 00000KT 3000 R07/0800 R25/0325 PRFG BR
                        NSC 07/07 Q1004 R07/29//95 TEMPO
                        1500 BR=
201912141730 METAR LRBS 141730Z 25002KT 3000 BR NSC 07/07 Q1005 R07/29//95
                        TEMPO 1500 BR=
201912141800 METAR LRBS 141800Z 27003KT 3000 BR NSC 07/06 Q1005 R07/29//95
                        TEMPO 1500 BR=
201912141830 METAR LRBS 141830Z 27005KT 3000 BR FEW018 07/07 Q1006 R07/29//95
                        NOSIG=
201912141900 METAR LRBS 141900Z 24005KT 3400 -RA BR FEW003 07/07 Q1006
                        R07/29//95 NOSIG=
201912141930 METAR LRBS 141930Z 24003KT 3500 BR NSC 07/07 Q1007 R07/29//95
                        NOSIG=
201912142000 METAR LRBS 142000Z 25005KT 3500 BR NSC 07/07 Q1007 R07/29//95
                        NOSIG=
201912142030 METAR LRBS 142030Z 23005KT 3500 BR NSC 07/07 Q1007 R07/29//95
                        NOSIG=
201912142100 METAR LRBS 142100Z 25006KT 3900 BR NSC 08/07 Q1008 R07/29//95
                        NOSIG=
201912142130 METAR COR LRBS 142130Z 24008KT 4000 BR NSC 08/07 Q1008 R07/29//95
                        NOSIG=
201912142200 METAR LRBS 142200Z 23009KT 5000 BR NSC 08/07 Q1009 R07/29//95
                        NOSIG=
201912142230 METAR LRBS 142230Z 24007KT 5000 BR FEW014 08/07 Q1009 R07/29//95
                        BECMG 9999 NSW=
201912142300 METAR LRBS 142300Z 23007KT 5000 BR NSC 08/07 Q1008 R07/29//95
                        BECMG 9999 NSW=
201912142330 METAR LRBS 142330Z 27005KT 240V300 6000 BR NSC 08/07 Q1009
                        R07/29//95 BECMG 9999 NSW=
201912150000 METAR LRBS 150000Z 26006KT 5000 BR NSC 08/07 Q1009 R07/29//95
                        NOSIG=
201912150030 METAR LRBS 150030Z 26007KT CAVOK 07/06 Q1010 R07/29//95 NOSIG=
201912150100 METAR LRBS 150100Z 25007KT 5000 BR NSC 07/06 Q1010 R07/29//95
                        NOSIG=
201912150130 METAR LRBS 150130Z 26010KT 4200 BR SCT005 07/06 Q1010 R07/29//95
                        TEMPO 3000 BR BKN005=
201912150200 METAR LRBS 150200Z 26008KT 4500 BR BKN005 07/06 Q1011 R07/29//95
                        TEMPO 3000 BR=
201912150230 METAR LRBS 150230Z 26007KT 4000 BR OVC005 07/06 Q1012 R07/29//95
                        TEMPO 3000 BR=
201912150300 METAR LRBS 150300Z 26009KT 4900 BR OVC006 06/06 Q1012 R07/29//95
                        NOSIG=
201912150330 METAR LRBS 150330Z 27008KT 230V290 4500 BR BKN005 06/05 Q1012
                        R07/29//95 NOSIG=
201912150400 METAR LRBS 150400Z 28006KT 4500 BR OVC004 06/05 Q1013 R07/29//95
                        NOSIG=
201912150430 METAR LRBS 150430Z 27005KT 250V310 4100 BR BKN003 06/05 Q1014
                        R07/29//95 BECMG BKN005=
201912150500 METAR LRBS 150500Z 25003KT 220V280 3000 BR OVC002 05/05 Q1014
                        R07/29//95 TEMPO 1500 BR=
201912150530 METAR LRBS 150530Z 23003KT 3500 0800NE R07/2000 R25/0350N
                        BCFG BR FEW001 05/04 Q1015 R07/29//95
                        NOSIG=
201912150600 METAR LRBS 150600Z 22006KT 3000 BCFG BR FEW003 04/04 Q1016
                        R07/29//95 NOSIG=
201912150630 METAR LRBS 150630Z 22005KT 4000 BR NSC 04/04 Q1016 R07/29//95
                        BECMG 5000=
201912150700 METAR COR LRBS 150700Z 27007KT 5000 BR NSC 05/04 Q1017 R07/29//95
                        BECMG 7000 NSW=
201912150730 METAR LRBS 150730Z 29004KT 260V320 8000 NSC 06/04 Q1016 R07/29//95
                        NOSIG=
201912150800 METAR LRBS 150800Z VRB02KT 9000 NSC 08/04 Q1017 R07/29//95
                        NOSIG=
201912150830 METAR LRBS 150830Z 21002KT CAVOK 08/05 Q1017 R07/29//95 NOSIG=
201912150900 METAR LRBS 150900Z 24006KT CAVOK 09/05 Q1017 R07/19//95 NOSIG=
201912150930 METAR LRBS 150930Z 24006KT 220V280 CAVOK 10/04 Q1018 R07/19//95
                        NOSIG=
201912151000 METAR LRBS 151000Z 25007KT CAVOK 11/04 Q1018 R07/19//95 NOSIG=
201912151030 METAR LRBS 151030Z 25004KT 190V300 CAVOK 12/04 Q1018 R07/19//95
                        NOSIG=
201912151100 METAR LRBS 151100Z 22004KT 180V240 CAVOK 11/04 Q1018 R07/19//95
                        NOSIG=
201912151130 METAR LRBS 151130Z 21007KT 170V240 CAVOK 12/04 Q1018 R07/19//95
                        NOSIG=
201912151200 METAR LRBS 151200Z 24006KT CAVOK 12/05 Q1018 R07/19//95 NOSIG=
201912151230 METAR LRBS 151230Z 22006KT 200V260 CAVOK 12/05 Q1019 R07/19//95
                        NOSIG=
201912151300 METAR LRBS 151300Z 22005KT CAVOK 12/04 Q1019 R07/CLRD// NOSIG=
201912151330 METAR LRBS 151330Z 22007KT CAVOK 11/05 Q1019 NOSIG=
201912151400 METAR LRBS 151400Z 23005KT CAVOK 11/05 Q1019 NOSIG=
201912151430 METAR LRBS 151430Z 22005KT 190V250 CAVOK 10/05 Q1020 NOSIG=
201912151500 METAR LRBS 151500Z 22004KT CAVOK 10/05 Q1020 NOSIG=
201912151530 METAR LRBS 151530Z 26003KT CAVOK 10/05 Q1020 NOSIG=
201912151600 METAR LRBS 151600Z 23004KT CAVOK 09/06 Q1020 NOSIG=
201912151630 METAR COR LRBS 151630Z 24005KT 210V270 CAVOK 09/06 Q1020
                        NOSIG=
201912151700 METAR LRBS 151700Z 27002KT CAVOK 08/06 Q1021 NOSIG=
201912151730 METAR LRBS 151730Z 27002KT CAVOK 08/06 Q1021 NOSIG=
201912151800 METAR LRBS 151800Z 24002KT 8000 NSC 07/05 Q1021 NOSIG=
201912151830 METAR LRBS 151830Z 27002KT 9000 NSC 07/05 Q1021 NOSIG=
201912151900 METAR LRBS 151900Z 27001KT 9999 MIFG NSC 07/05 Q1021 NOSIG=
201912151930 METAR LRBS 151930Z 00000KT 9999 MIFG NSC 07/04 Q1021 NOSIG=
201912152000 METAR LRBS 152000Z 25001KT 9999 MIFG NSC 06/04 Q1021 NOSIG=
201912152030 METAR LRBS 152030Z 00000KT 9999 MIFG NSC 06/03 Q1021 NOSIG=
201912152100 METAR LRBS 152100Z 29001KT 9999 MIFG NSC 06/03 Q1021 NOSIG=
201912152130 METAR LRBS 152130Z VRB01KT 9999 MIFG NSC 05/03 Q1021 NOSIG=
201912152200 METAR COR LRBS 152200Z 32002KT 9999 MIFG NSC 04/03 Q1021
                        NOSIG=
201912152230 METAR COR LRBS 152230Z 33002KT CAVOK 03/01 Q1022 NOSIG=
201912152300 METAR LRBS 152300Z 32003KT 290V360 CAVOK 03/02 Q1022 NOSIG=
201912152330 METAR LRBS 152330Z VRB02KT CAVOK 03/02 Q1022 NOSIG=
201912160000 METAR LRBS 160000Z 26003KT 9999 MIFG NSC 03/02 Q1022 NOSIG=
201912160030 METAR LRBS 160030Z 26004KT 9999 MIFG NSC 02/02 Q1022 NOSIG=
201912160100 METAR LRBS 160100Z 28002KT 8000 MIFG NSC 02/01 Q1022 NOSIG=
201912160130 METAR LRBS 160130Z 28003KT 7000 MIFG NSC 02/02 Q1022 NOSIG=
201912160200 METAR LRBS 160200Z 27003KT 8000 MIFG NSC 02/02 Q1022 NOSIG=
201912160230 METAR LRBS 160230Z 27004KT 8000 MIFG NSC 02/01 Q1022 NOSIG=
201912160300 METAR LRBS 160300Z 29002KT 8000 MIFG NSC 02/01 Q1022 NOSIG=
201912160330 METAR LRBS 160330Z 28001KT 8000 MIFG NSC 02/01 Q1022 TEMPO
                        5000 BR=
201912160400 METAR LRBS 160400Z 00000KT 6000 MIFG NSC 01/01 Q1022 TEMPO
                        5000 BR=
201912160430 METAR LRBS 160430Z 13001KT 4000 MIFG BR NSC M01/M01 Q1022
                        TEMPO 1500 BR=
201912160500 METAR LRBS 160500Z VRB01KT 5000 MIFG BR NSC 02/02 Q1022 TEMPO
                        1500 BR=
201912160530 METAR COR LRBS 160530Z 25004KT CAVOK 02/01 Q1022 NOSIG=
201912160600 METAR LRBS 160600Z 25006KT CAVOK 02/01 Q1023 NOSIG=
201912160630 METAR LRBS 160630Z 28006KT 260V320 CAVOK 03/01 Q1023 NOSIG=
201912160700 METAR LRBS 160700Z 28006KT CAVOK 04/01 Q1023 NOSIG=
201912160730 METAR LRBS 160730Z 27007KT CAVOK 05/01 Q1023 NOSIG=
201912160800 METAR LRBS 160800Z 28006KT 260V320 CAVOK 06/01 Q1023 NOSIG=
201912160830 METAR LRBS 160830Z 27007KT CAVOK 08/01 Q1023 NOSIG=
201912160900 METAR COR LRBS 160900Z 24005KT CAVOK 10/02 Q1024 NOSIG=
201912160930 METAR LRBS 160930Z 24004KT CAVOK 11/01 Q1023 NOSIG=
201912161000 METAR LRBS 161000Z 25006KT 220V280 CAVOK 12/01 Q1023 NOSIG=
201912161030 METAR LRBS 161030Z 24007KT CAVOK 12/02 Q1023 NOSIG=
201912161100 METAR LRBS 161100Z 26009KT CAVOK 13/02 Q1023 NOSIG=
201912161130 METAR LRBS 161130Z 25007KT CAVOK 13/03 Q1023 NOSIG=
201912161200 METAR LRBS 161200Z AUTO 25008KT 9999 NCD 13/03 Q1023 NOSIG=
201912161230 METAR LRBS 161230Z 25007KT CAVOK 13/03 Q1022 NOSIG=
201912161300 METAR LRBS 161300Z 25007KT CAVOK 13/03 Q1022 NOSIG=
201912161330 METAR LRBS 161330Z 25006KT CAVOK 13/03 Q1022 NOSIG=
201912161400 METAR LRBS 161400Z 24004KT CAVOK 13/04 Q1022 NOSIG=
201912161430 METAR LRBS 161430Z 23004KT CAVOK 12/04 Q1023 NOSIG=
201912161500 METAR LRBS 161500Z 25003KT CAVOK 11/04 Q1023 NOSIG=
201912161530 METAR LRBS 161530Z 25004KT CAVOK 10/05 Q1023 NOSIG=
201912161600 METAR LRBS 161600Z 00000KT CAVOK 10/05 Q1023 NOSIG=
201912161630 METAR LRBS 161630Z 29001KT CAVOK 09/05 Q1023 NOSIG=
201912161700 METAR LRBS 161700Z 28001KT CAVOK 09/06 Q1023 NOSIG=
201912161730 METAR LRBS 161730Z 29002KT CAVOK 08/05 Q1023 NOSIG=
201912161800 METAR LRBS 161800Z 27003KT CAVOK 08/05 Q1023 NOSIG=
201912161830 METAR LRBS 161830Z 28004KT CAVOK 07/05 Q1023 NOSIG=
201912161900 METAR LRBS 161900Z VRB02KT CAVOK 07/05 Q1023 NOSIG=
201912161930 METAR LRBS 161930Z 28005KT CAVOK 07/05 Q1023 NOSIG=
201912162000 METAR LRBS 162000Z 27004KT 8000 NSC 06/04 Q1023 NOSIG=
201912162030 METAR LRBS 162030Z 28003KT 8000 NSC 06/04 Q1023 NOSIG=
201912162100 METAR LRBS 162100Z 28004KT 250V310 8000 NSC 05/04 Q1023 NOSIG=
201912162130 METAR LRBS 162130Z VRB01KT 8000 NSC 05/04 Q1023 NOSIG=
201912162200 METAR LRBS 162200Z 28002KT 8000 NSC 05/03 Q1023 NOSIG=
201912162230 METAR COR LRBS 162230Z 28002KT 8000 NSC 04/03 Q1022 NOSIG=
201912162300 METAR LRBS 162300Z 28002KT 7000 NSC 04/03 Q1022 BECMG 5000
                        BR=
201912162330 METAR LRBS 162330Z 29001KT 6000 NSC 04/03 Q1022 NOSIG=
201912170000 METAR LRBS 170000Z 28001KT 5000 MIFG BR NSC 03/02 Q1022 NOSIG=
201912170030 METAR LRBS 170030Z 28003KT 5000 MIFG BR NSC 03/02 Q1022 NOSIG=
201912170100 METAR LRBS 170100Z 28003KT 5000 MIFG BR NSC 02/02 Q1022 NOSIG=
201912170130 METAR COR LRBS 170130Z 28003KT 6000 NSC 02/01 Q1022 NOSIG=
201912170200 METAR LRBS 170200Z 27003KT 7000 NSC 02/02 Q1022 NOSIG=
201912170230 METAR LRBS 170230Z 28003KT 7000 NSC 03/02 Q1022 NOSIG=
201912170300 METAR LRBS 170300Z 28004KT 6000 NSC 03/02 Q1022 NOSIG=
201912170330 METAR LRBS 170330Z 28004KT 260V320 8000 NSC 03/02 Q1022 NOSIG=
201912170400 METAR LRBS 170400Z 27003KT 9000 NSC 03/01 Q1022 NOSIG=
201912170430 METAR LRBS 170430Z 28003KT CAVOK 03/01 Q1022 NOSIG=
201912170500 METAR LRBS 170500Z 27003KT 9000 NSC 02/01 Q1022 NOSIG=
201912170530 METAR LRBS 170530Z 27003KT 9000 NSC 02/01 Q1022 NOSIG=
201912170600 METAR LRBS 170600Z 27004KT 7000 NSC 02/01 Q1022 NOSIG=
201912170630 METAR LRBS 170630Z 28004KT 8000 NSC 03/01 Q1023 NOSIG=
201912170700 METAR LRBS 170700Z 27004KT CAVOK 04/02 Q1023 NOSIG=
201912170730 METAR LRBS 170730Z 27005KT CAVOK 05/02 Q1023 NOSIG=
201912170800 METAR LRBS 170800Z 28004KT CAVOK 06/03 Q1023 NOSIG=
201912170830 METAR LRBS 170830Z 27006KT CAVOK 08/03 Q1023 NOSIG=
201912170900 METAR LRBS 170900Z 26006KT CAVOK 09/03 Q1023 NOSIG=
201912170930 METAR LRBS 170930Z 26007KT CAVOK 11/04 Q1023 NOSIG=
201912171000 METAR LRBS 171000Z 28004KT 250V330 CAVOK 13/04 Q1022 NOSIG=
201912171030 METAR LRBS 171030Z 27005KT 240V300 CAVOK 14/04 Q1022 NOSIG=
201912171100 METAR LRBS 171100Z 27007KT 240V300 CAVOK 15/04 Q1022 NOSIG=
201912171130 METAR LRBS 171130Z 27008KT CAVOK 16/05 Q1021 NOSIG=
201912171200 METAR COR LRBS 171200Z 27009KT 240V300 CAVOK 16/04 Q1021
                        NOSIG=
201912171230 METAR LRBS 171230Z 28006KT CAVOK 16/04 Q1021 NOSIG=
201912171300 METAR LRBS 171300Z 27007KT 240V300 CAVOK 17/04 Q1021 NOSIG=
201912171330 METAR LRBS 171330Z 25006KT CAVOK 16/05 Q1021 NOSIG=
201912171400 METAR LRBS 171400Z 25006KT CAVOK 15/06 Q1021 NOSIG=
201912171430 METAR LRBS 171430Z 22007KT CAVOK 13/06 Q1022 NOSIG=
201912171500 METAR LRBS 171500Z 25006KT CAVOK 12/06 Q1022 NOSIG=
201912171530 METAR COR LRBS 171530Z 25005KT CAVOK 11/07 Q1022 NOSIG=
201912171600 METAR LRBS 171600Z 24004KT CAVOK 11/07 Q1022 NOSIG=
201912171630 METAR LRBS 171630Z 25003KT CAVOK 10/07 Q1022 NOSIG=
201912171700 METAR LRBS 171700Z 24004KT CAVOK 09/06 Q1022 NOSIG=
201912171730 METAR COR LRBS 171730Z 24004KT CAVOK 09/06 Q1022 NOSIG=
201912171800 METAR LRBS 171800Z 21003KT CAVOK 09/06 Q1022 NOSIG=
201912171830 METAR LRBS 171830Z 25005KT CAVOK 08/06 Q1022 NOSIG=
201912171900 METAR LRBS 171900Z 27004KT CAVOK 08/06 Q1022 NOSIG=
201912171930 METAR LRBS 171930Z 27005KT CAVOK 08/05 Q1022 NOSIG=
201912172000 METAR LRBS 172000Z 27005KT CAVOK 07/05 Q1022 NOSIG=
201912172030 METAR LRBS 172030Z 27007KT CAVOK 07/04 Q1022 NOSIG=
201912172100 METAR LRBS 172100Z 27006KT CAVOK 07/04 Q1022 NOSIG=
201912172130 METAR LRBS 172130Z 27005KT CAVOK 06/04 Q1022 NOSIG=
201912172200 METAR LRBS 172200Z 27006KT CAVOK 07/04 Q1022 NOSIG=
201912172230 METAR LRBS 172230Z 28006KT 250V310 CAVOK 06/03 Q1022 NOSIG=
201912172300 METAR LRBS 172300Z 27006KT CAVOK 06/03 Q1022 NOSIG=
201912172330 METAR LRBS 172330Z 27005KT CAVOK 06/03 Q1022 NOSIG=
201912180000 METAR LRBS 180000Z 27005KT CAVOK 06/03 Q1022 NOSIG=
201912180030 METAR LRBS 180030Z 28006KT CAVOK 06/03 Q1022 NOSIG=
201912180100 METAR LRBS 180100Z 28005KT CAVOK 06/03 Q1022 NOSIG=
201912180130 METAR LRBS 180130Z 28005KT CAVOK 05/03 Q1022 NOSIG=
201912180200 METAR LRBS 180200Z 27005KT 240V300 CAVOK 05/03 Q1022 NOSIG=
201912180230 METAR LRBS 180230Z 27004KT CAVOK 05/03 Q1022 NOSIG=
201912180300 METAR LRBS 180300Z 27005KT CAVOK 05/03 Q1022 NOSIG=
201912180330 METAR LRBS 180330Z 27005KT 240V300 CAVOK 05/02 Q1022 NOSIG=
201912180400 METAR LRBS 180400Z 27006KT CAVOK 04/02 Q1022 NOSIG=
201912180430 METAR LRBS 180430Z 27006KT CAVOK 04/02 Q1022 NOSIG=
201912180500 METAR LRBS 180500Z 27005KT 8000 NSC 04/02 Q1022 NOSIG=
201912180530 METAR LRBS 180530Z 27006KT 8000 NSC 04/02 Q1022 NOSIG=
201912180600 METAR LRBS 180600Z 27006KT 240V310 8000 NSC 04/02 Q1022 NOSIG=
201912180630 METAR LRBS 180630Z 28005KT 8000 NSC 05/02 Q1023 NOSIG=
201912180700 METAR LRBS 180700Z 27006KT CAVOK 06/02 Q1023 NOSIG=
201912180730 METAR LRBS 180730Z 27006KT 250V310 CAVOK 07/03 Q1023 NOSIG=
201912180800 METAR LRBS 180800Z 27008KT 230V290 CAVOK 08/03 Q1023 NOSIG=
201912180830 METAR LRBS 180830Z 26009KT 240V300 CAVOK 09/03 Q1023 NOSIG=
201912180900 METAR LRBS 180900Z 26010KT CAVOK 10/03 Q1023 NOSIG=
201912180930 METAR LRBS 180930Z 26012KT CAVOK 11/04 Q1023 NOSIG=
201912181000 METAR LRBS 181000Z 25011KT CAVOK 12/04 Q1023 NOSIG=
201912181030 METAR LRBS 181030Z 25010KT CAVOK 14/05 Q1023 NOSIG=
201912181100 METAR LRBS 181100Z 25010KT CAVOK 14/05 Q1022 NOSIG=
201912181130 METAR LRBS 181130Z AUTO 25011KT 9999 NCD 15/06 Q1022 NOSIG=
201912181200 METAR LRBS 181200Z 26012KT CAVOK 15/06 Q1022 NOSIG=
201912181230 METAR LRBS 181230Z 25008KT CAVOK 15/06 Q1022 NOSIG=
201912181300 METAR LRBS 181300Z 25010KT CAVOK 15/06 Q1022 NOSIG=
201912181330 METAR LRBS 181330Z 26010KT CAVOK 14/06 Q1022 NOSIG=
201912181400 METAR LRBS 181400Z 25009KT CAVOK 14/06 Q1022 NOSIG=
201912181430 METAR LRBS 181430Z 25006KT CAVOK 13/06 Q1022 NOSIG=
201912181500 METAR LRBS 181500Z 25008KT CAVOK 12/06 Q1022 NOSIG=
201912181530 METAR LRBS 181530Z 27006KT CAVOK 11/06 Q1023 NOSIG=
201912181600 METAR LRBS 181600Z 26008KT CAVOK 10/06 Q1023 NOSIG=
201912181630 METAR LRBS 181630Z 27006KT CAVOK 09/06 Q1023 NOSIG=
201912181700 METAR LRBS 181700Z 27005KT CAVOK 09/06 Q1023 NOSIG=
201912181730 METAR LRBS 181730Z 27006KT CAVOK 09/06 Q1024 NOSIG=
201912181800 METAR LRBS 181800Z 27006KT CAVOK 08/05 Q1024 NOSIG=
201912181830 METAR LRBS 181830Z 27006KT CAVOK 08/06 Q1024 NOSIG=
201912181900 METAR LRBS 181900Z 28006KT CAVOK 08/05 Q1024 NOSIG=
201912181930 METAR LRBS 181930Z 28005KT CAVOK 08/05 Q1024 NOSIG=
201912182000 METAR LRBS 182000Z 27005KT 9000 NSC 07/05 Q1024 NOSIG=
201912182030 METAR LRBS 182030Z 28004KT 6000 NSC 07/05 Q1024 NOSIG=
201912182100 METAR LRBS 182100Z 27004KT 5000 BR NSC 07/05 Q1024 NOSIG=
201912182130 METAR LRBS 182130Z 27004KT 5000 BR NSC 07/05 Q1025 NOSIG=
201912182200 METAR LRBS 182200Z 27006KT 5000 BR NSC 07/05 Q1025 NOSIG=
201912182230 METAR LRBS 182230Z AUTO 27005KT 5000 BR NCD 06/05 Q1025 NOSIG=
201912182300 METAR LRBS 182300Z 27004KT 4200 BR NSC 05/04 Q1025 BECMG
                        3000=
201912182330 METAR COR LRBS 182330Z 27004KT 4300 BR NSC 05/04 Q1025 BECMG
                        3000 BR=
201912190000 METAR LRBS 190000Z 28002KT 4000 BR NSC 05/04 Q1025 NOSIG=
201912190030 METAR LRBS 190030Z 28003KT 4000 BR NSC 04/04 Q1025 NOSIG=
201912190100 METAR LRBS 190100Z AUTO 29003KT 3000 FG FEW250/// 04/03 Q1026
                        NOSIG=
201912190130 METAR LRBS 190130Z 26003KT 3000 BR NSC 04/03 Q1026 NOSIG=
201912190200 METAR LRBS 190200Z 29001KT 3000 BR NSC 03/03 Q1026 NOSIG=
201912190230 METAR LRBS 190230Z 27002KT 3400 BR NSC 03/03 Q1026 NOSIG=
201912190300 METAR LRBS 190300Z VRB01KT 3000 BR NSC 03/02 Q1026 NOSIG=
201912190330 METAR LRBS 190330Z 33002KT 3000 MIFG BR NSC 02/02 Q1026 NOSIG=
201912190400 METAR COR LRBS 190400Z 27001KT 3100 R07/P2000 R25/0375U MIFG
                        BR NSC 03/02 Q1026 NOSIG=
201912190430 METAR LRBS 190430Z VRB01KT 4000 R07/P2000 R25/0650N MIFG
                        BR NSC 02/02 Q1026 TEMPO 1500 BR=
201912190500 METAR LRBS 190500Z VRB01KT 4000 MIFG BR NSC 02/02 Q1026 TEMPO
                        1500 BR=
201912190530 METAR LRBS 190530Z 00000KT 3000 MIFG BR NSC 02/01 Q1027 TEMPO
                        1500 BR=
201912190600 METAR LRBS 190600Z 00000KT 3000 MIFG BR NSC 02/02 Q1027 TEMPO
                        1500 BR=
201912190630 METAR LRBS 190630Z 00000KT 3000 MIFG BR NSC 02/02 Q1027 TEMPO
                        1500 BR=
201912190700 METAR LRBS 190700Z 00000KT 5000 MIFG BR NSC 03/02 Q1028 NOSIG=
201912190730 METAR LRBS 190730Z 26003KT 5000 BR NSC 04/02 Q1028 NOSIG=
201912190800 METAR LRBS 190800Z 00000KT CAVOK 05/03 Q1028 NOSIG=
201912190830 METAR LRBS 190830Z VRB02KT CAVOK 06/03 Q1028 NOSIG=
201912190900 METAR LRBS 190900Z 32002KT CAVOK 08/04 Q1028 NOSIG=
201912190930 METAR LRBS 190930Z VRB02KT CAVOK 09/04 Q1028 NOSIG=
201912191000 METAR LRBS 191000Z 07003KT 020V090 CAVOK 11/05 Q1028 NOSIG=
201912191030 METAR COR LRBS 191030Z 05003KT 360V100 CAVOK 12/06 Q1027
                        NOSIG=
201912191100 METAR LRBS 191100Z 08004KT 010V110 CAVOK 13/06 Q1027 NOSIG=
201912191130 METAR LRBS 191130Z 08005KT CAVOK 13/06 Q1027 NOSIG=
201912191200 METAR LRBS 191200Z 06006KT CAVOK 14/05 Q1026 NOSIG=
201912191230 METAR LRBS 191230Z 06006KT 030V090 CAVOK 14/05 Q1026 NOSIG=
201912191300 METAR LRBS 191300Z 06005KT CAVOK 12/05 Q1026=
201912191330 METAR LRBS 191330Z 05004KT CAVOK 12/05 Q1026 NOSIG=
201912191400 METAR LRBS 191400Z 08003KT CAVOK 10/05 Q1026 NOSIG=
201912191430 METAR LRBS 191430Z 08004KT 060V120 CAVOK 09/05 Q1026 NOSIG=
201912191500 METAR LRBS 191500Z 05004KT 9000 NSC 09/05 Q1026 NOSIG=
201912191530 METAR LRBS 191530Z 06003KT 8000 NSC 07/05 Q1026 BECMG 5000
                        BR=
201912191600 METAR LRBS 191600Z 05003KT 8000 NSC 06/04 Q1026 BECMG 5000
                        BR=
201912191630 METAR LRBS 191630Z 08003KT 6000 NSC 05/04 Q1026 BECMG 5000
                        BR=
201912191700 METAR COR LRBS 191700Z 05003KT 5000 BR NSC 06/05 Q1026 BECMG
                        3000 BR=
201912191730 METAR LRBS 191730Z 05004KT 5000 BR NSC 06/05 Q1026 BECMG
                        3000 BR=
201912191800 METAR LRBS 191800Z 05003KT 4500 BR NSC 05/05 Q1026 BECMG
                        3000 BR=
201912191830 METAR LRBS 191830Z 06004KT 3000 BR NSC 05/04 Q1026 BECMG
                        1500 BR=
201912191900 METAR LRBS 191900Z 05004KT 3000 BR NSC 04/04 Q1026 BECMG
                        1500 BR=
201912191930 METAR LRBS 191930Z 05005KT 3000 BR NSC 05/04 Q1026 BECMG
                        1500 BR=
201912192000 METAR LRBS 192000Z 06006KT 2500 BR NSC 03/02 Q1026 BECMG
                        1500 BR=
201912192030 METAR LRBS 192030Z 05006KT 2000 BR NSC 04/03 Q1026 NOSIG=
201912192100 METAR LRBS 192100Z 04004KT 2000 BR NSC 04/03 Q1025 NOSIG=
201912192130 METAR LRBS 192130Z 06005KT 2000 BR NSC 03/02 Q1025 NOSIG=
201912192200 METAR LRBS 192200Z 05004KT 2000 BR NSC 02/02 Q1025 NOSIG=
201912192230 METAR LRBS 192230Z 04004KT 2000 BR NSC 03/03 Q1024 NOSIG=
201912192300 METAR LRBS 192300Z 03006KT 2500 BR NSC 05/04 Q1024 NOSIG=
201912192330 METAR LRBS 192330Z 04005KT 3000 BR NSC 05/04 Q1023 NOSIG=
201912200000 METAR LRBS 200000Z 04006KT 3500 BR NSC 05/04 Q1023 NOSIG=
201912200030 METAR LRBS 200030Z 06004KT 3500 BR NSC 04/03 Q1023 NOSIG=
201912200100 METAR LRBS 200100Z 04006KT 360V060 4500 BR NSC 05/04 Q1023
                        NOSIG=
201912200130 METAR LRBS 200130Z 04005KT 350V070 4000 BR NSC 05/04 Q1022
                        NOSIG=
201912200200 METAR LRBS 200200Z 05006KT 2500 BR NSC 05/04 Q1022 TEMPO
                        1500 BR=
201912200230 METAR LRBS 200230Z 05006KT 2500 BR SCT002 04/03 Q1022 TEMPO
                        1500 BR=
201912200300 METAR LRBS 200300Z 08005KT 1000 R07/P2000 R25/2000 BR BKN001
                        03/03 Q1022 TEMPO 0800 FG=
201912200330 METAR LRBS 200330Z 07007KT 0300 R07/0450N R25/0500N FG VV001
                        03/03 Q1022 NOSIG=
201912200400 METAR LRBS 200400Z 06005KT 0300 R07/0500N R25/0500N FG VV001
                        03/03 Q1022 NOSIG=
201912200430 METAR LRBS 200430Z 08007KT 0300 R07/0550N R25/0650U FG VV001
                        03/03 Q1021 NOSIG=
201912200500 METAR LRBS 200500Z 08007KT 0300 R07/0550N R25/0650U FG VV001
                        03/03 Q1021 NOSIG=
201912200530 METAR LRBS 200530Z 05004KT 0200 R07/0650N R25/0600N FG VV001
                        03/03 Q1021 NOSIG=
201912200600 METAR LRBS 200600Z 03004KT 0200 R07/0700D R25/0700N FG VV002
                        04/04 Q1021 NOSIG=
201912200630 METAR LRBS 200630Z 06004KT 030V100 0200 R07/0750N R25/0750N
                        FG VV001 04/04 Q1021 BECMG 0800 BKN003=
201912200700 METAR LRBS 200700Z VRB01KT 0200 R07/0800N R25/0800N FG VV001
                        04/04 Q1021 BECMG 0800 BKN003=
201912200730 METAR LRBS 200730Z 03003KT 0300 R07/0750N R25/0750N FG OVC001
                        04/04 Q1020 BECMG 0800 BKN003=
201912200800 METAR LRBS 200800Z 01003KT 340V040 0300 R07/0800U R25/0900N
                        FG OVC001 04/04 Q1021 BECMG 0800
                        BKN003=
201912200830 METAR LRBS 200830Z 03004KT 0300 R07/0800D R25/0900N FG OVC001
                        05/05 Q1020 BECMG 0800 BKN003=
201912200900 METAR LRBS 200900Z 03004KT 0300 R07/0800N R25/0900N FG OVC001
                        05/05 Q1020 BECMG 0800 BKN003=
201912200930 METAR LRBS 200930Z 05004KT 0600 R07/1200U R25/1200U FG OVC001
                        05/05 Q1019 BECMG 0800 BKN003=
201912201000 METAR LRBS 201000Z 05003KT 010V080 0800 R07/1300N R25/1300D
                        FG OVC001 05/05 Q1019 BECMG 1500
                        BR BKN003=
201912201030 METAR LRBS 201030Z VRB01KT 1100 R07/1400U R25/1500U BR OVC001
                        05/05 Q1019 BECMG 3000 BKN003=
201912201100 METAR LRBS 201100Z 00000KT 1500 BR OVC002 05/05 Q1018 BECMG
                        3000 BKN003=
201912201130 METAR COR LRBS 201130Z VRB01KT 1500 BR OVC003 05/05 Q1018
                        BECMG 3000 BKN005=
201912201200 METAR LRBS 201200Z 03003KT 360V060 2000 BR BKN003 05/05 Q1017
                        BECMG 3000 BKN005=
201912201230 METAR LRBS 201230Z VRB01KT 5000 BR OVC004 05/05 Q1017 BECMG
                        3000 BKN005=
201912201300 METAR LRBS 201300Z VRB01KT 7000 BKN006 06/05 Q1017 NOSIG=
201912201330 METAR LRBS 201330Z VRB01KT 8000 OVC005 06/05 Q1017 NOSIG=
201912201400 METAR LRBS 201400Z 00000KT 8000 OVC007 06/05 Q1016 NOSIG=
201912201430 METAR LRBS 201430Z VRB01KT 9999 OVC007 06/05 Q1016 NOSIG=
201912201500 METAR LRBS 201500Z 25003KT 190V260 8000 OVC006 06/05 Q1016
                        BECMG 5000 BR=
201912201530 METAR LRBS 201530Z 23004KT 5000 BR OVC003 05/05 Q1016 BECMG
                        3000 BR=
201912201600 METAR LRBS 201600Z 22004KT 3000 BR OVC002 05/05 Q1016 BECMG
                        1500 BR=
201912201630 METAR LRBS 201630Z 22004KT 200V260 1500 BR OVC001 05/05 Q1016
                        BECMG 0600 FG=
201912201700 METAR LRBS 201700Z 24003KT 1500 BR OVC001 05/05 Q1016 BECMG
                        0600 FG=
201912201730 METAR LRBS 201730Z 25005KT 1500 BR OVC003 05/05 Q1016 BECMG
                        0600 FG=
201912201800 METAR LRBS 201800Z 26005KT 1500 BR OVC002 05/05 Q1016 BECMG
                        0800 FG=
201912201830 METAR LRBS 201830Z 23005KT 200V260 0900 R07/1100N R25/1200D
                        FG VV002 05/05 Q1016 BECMG 0600 FG=
201912201900 METAR LRBS 201900Z 25005KT 0600 R07/1300D R25/1900U FG VV001
                        05/04 Q1015 NOSIG=
201912201930 METAR LRBS 201930Z 26006KT 0800 R07/1600 R25/1200 FG VV001
                        04/04 Q1015 NOSIG=
201912202000 METAR LRBS 202000Z 25007KT 0900 R07/1900 R25/1600 FG VV002
                        04/04 Q1015 NOSIG=
201912202030 METAR LRBS 202030Z 23005KT 0600 R07/1100D R25/1400D FG VV001
                        04/04 Q1014 NOSIG=
201912202100 METAR LRBS 202100Z 21004KT 0400 R07/0800U R25/0900 FG VV002
                        04/04 Q1014 NOSIG=
201912202130 METAR LRBS 202130Z 24004KT 210V280 0400 R07/0800 R25/0900
                        FG VV002 04/04 Q1014 NOSIG=
201912202200 METAR LRBS 202200Z 23005KT 0400 R07/0750N R25/0800 FG VV002
                        04/04 Q1014 NOSIG=
201912202230 METAR LRBS 202230Z 22004KT 180V260 0400 R07/0700D R25/0900N
                        FG VV002 04/04 Q1013 NOSIG=
201912202300 METAR LRBS 202300Z 22004KT 0400 R07/0800N R25/0800D FG VV002
                        04/03 Q1013 NOSIG=
201912202330 METAR LRBS 202330Z 24004KT 0350 R07/0600N R25/0650D FG VV001
                        03/03 Q1013 NOSIG=
201912210000 METAR LRBS 210000Z 23005KT 0400 R07/0600N R25/0600 FG VV002
                        03/03 Q1013 NOSIG=
201912210030 METAR LRBS 210030Z 23004KT 0350 R07/0650N R25/0750N FG VV002
                        03/03 Q1013 NOSIG=
201912210100 METAR LRBS 210100Z 24003KT 0400 R07/0700N R25/0650N FG VV002
                        03/03 Q1012 NOSIG=
201912210130 METAR LRBS 210130Z 25004KT 220V280 0400 R07/0700N R25/0700N
                        FG VV002 02/02 Q1012 NOSIG=
201912210200 METAR LRBS 210200Z 24005KT 0600 R07/1000D R25/0800N FG VV002
                        02/02 Q1012 NOSIG=
201912210230 METAR LRBS 210230Z 22005KT 0800 R07/1000N R25/1000U FG VV002
                        02/02 Q1012 NOSIG=
201912210300 METAR LRBS 210300Z 24004KT 0700 R07/0800N R25/0900D FG VV002
                        02/02 Q1012 NOSIG=
201912210330 METAR COR LRBS 210330Z 25004KT 0400 R07/0800 R25/0900N FG
                        VV001 02/02 Q1012 R07/19//95 NOSIG=
201912210400 METAR LRBS 210400Z 24003KT 0400 R07/0800 R25/0800N FG VV001
                        02/02 Q1011 R07/19//95 NOSIG=
201912210430 METAR LRBS 210430Z 24005KT 0800 R07/1200 R25/1400D FG VV001
                        01/01 Q1011 R07/19//95=
201912210500 METAR LRBS 210500Z 24004KT 1100 R07/P2000 R25/1400 BR BKN001
                        01/01 Q1011 R07/19//95 BECMG 1500
                        BR=
201912210530 METAR LRBS 210530Z 22004KT 0900 R07/1700D R25/2000 FG OVC001
                        01/01 Q1011 R07/19//95 BECMG 1500
                        BR=
201912210600 METAR LRBS 210600Z 23004KT 3000 BR SCT001 01/01 Q1011 R07/19//95
                        BECMG 5000=
201912210630 METAR COR LRBS 210630Z 23005KT 6000 FEW001 02/02 Q1011 R07/19//95
                        NOSIG=
201912210700 METAR LRBS 210700Z 24005KT 8000 FEW003 02/02 Q1011 R07/19//95
                        NOSIG=
201912210730 METAR LRBS 210730Z 24006KT 9000 NSC 02/02 Q1011 R07/19//95
                        NOSIG=
201912210800 METAR LRBS 210800Z 23006KT CAVOK 03/02 Q1011 R07/19//95 NOSIG=
201912210830 METAR LRBS 210830Z 24005KT CAVOK 04/03 Q1011 R07/19//95 NOSIG=
201912210900 METAR LRBS 210900Z 22004KT CAVOK 05/03 Q1010 R07/19//95 NOSIG=
201912210930 METAR LRBS 210930Z 23004KT CAVOK 05/04 Q1010 R07/19//95 NOSIG=
201912211000 METAR LRBS 211000Z 24004KT CAVOK 07/04 Q1009 R07/19//95 NOSIG=
201912211030 METAR LRBS 211030Z 22003KT CAVOK 08/04 Q1009 R07/19//95 NOSIG=
201912211100 METAR LRBS 211100Z 21002KT CAVOK 08/05 Q1008 R07/19//95 NOSIG=
201912211130 METAR LRBS 211130Z 22002KT CAVOK 09/05 Q1007 R07/19//95 NOSIG=
201912211200 METAR LRBS 211200Z 24004KT CAVOK 10/05 Q1007 R07/19//95 NOSIG=
201912211230 METAR LRBS 211230Z 24003KT CAVOK 10/06 Q1007 R07/19//95 NOSIG=
201912211300 METAR LRBS 211300Z 26002KT CAVOK 10/06 Q1007 R07/19//95 NOSIG=
201912211330 METAR COR LRBS 211330Z VRB01KT CAVOK 10/06 Q1007 R07/19//95
                        NOSIG=
201912211400 METAR LRBS 211400Z VRB02KT 8000 NSC 09/06 Q1007 R07/19//95
                        NOSIG=
201912211430 METAR LRBS 211430Z VRB01KT 9000 NSC 09/06 Q1006 R07/19//95
                        NOSIG=
201912211500 METAR LRBS 211500Z 06001KT 8000 NSC 06/04 Q1006 R07/19//95=
201912211530 METAR LRBS 211530Z 00000KT 8000 NSC 06/05 Q1006 R07/19//95
                        NOSIG=
201912211600 METAR LRBS 211600Z 00000KT 8000 NSC 08/06 Q1005 R07/19//95
                        NOSIG=
201912211630 METAR LRBS 211630Z 00000KT 6000 NSC 07/05 Q1005 R07/19//95
                        NOSIG=
201912211700 METAR LRBS 211700Z 00000KT 6000 BR NSC 06/05 Q1005 R07/19//95
                        BECMG 3000 BR=
201912211730 METAR LRBS 211730Z 06001KT 3000 MIFG BR NSC 05/05 Q1005 R07/19//95
                        TEMPO 1500 BR=
201912211800 METAR LRBS 211800Z 08002KT 3000 BR NSC 05/04 Q1005 R07/19//95
                        NOSIG=
201912211830 METAR LRBS 211830Z 05003KT 2500 BR NSC 05/04 Q1004 R07/19//95
                        NOSIG=
201912211900 METAR LRBS 211900Z 04002KT 2500 BR NSC 04/04 Q1004 R07/19//95
                        NOSIG=
201912211930 METAR LRBS 211930Z 08001KT 2000 MIFG BR NSC 05/04 Q1004 R07/19//95
                        NOSIG=
201912212000 METAR LRBS 212000Z VRB02KT 3000 BR NSC 05/05 Q1003 R07/19//95
                        NOSIG=
201912212030 METAR LRBS 212030Z 00000KT 3000 BR NSC 05/04 Q1003 R07/19//95
                        NOSIG=
201912212100 METAR LRBS 212100Z VRB01KT 3000 BR NSC 05/03 Q1003 R07/19//95
                        NOSIG=
201912212130 METAR LRBS 212130Z 00000KT 3000 BR NSC 05/04 Q1003 R07/19//95
                        NOSIG=
201912212200 METAR LRBS 212200Z 33001KT 3000 BR NSC 05/05 Q1002 R07/19//95
                        NOSIG=
201912212230 METAR LRBS 212230Z 29001KT 3000 BR NSC 05/04 Q1002 R07/19//95
                        NOSIG=
201912212300 METAR COR LRBS 212300Z 00000KT 3000 BR NSC 05/05 Q1002 R07/19//95
                        NOSIG=
201912212330 METAR LRBS 212330Z 00000KT 3000 BR NSC 05/05 Q1002 R07/19//95
                        NOSIG=
201912220000 METAR LRBS 220000Z VRB02KT 3000 -RA BR NSC 06/05 Q1002 R07/19//95
                        NOSIG=
201912220030 METAR LRBS 220030Z 12001KT 3000 -RA BR NSC 06/05 Q1001 R07/19//95
                        NOSIG=
201912220100 METAR LRBS 220100Z 18002KT 3000 BR NSC 07/06 Q1002 R07/19//95
                        NOSIG=
201912220130 METAR LRBS 220130Z VRB02KT 3000 BR NSC 07/06 Q1001 R07/19//95
                        NOSIG=
201912220200 METAR LRBS 220200Z 00000KT 3000 MIFG BR NSC 06/05 Q1001 R07/19//95
                        NOSIG=
201912220230 METAR LRBS 220230Z 00000KT 3000 MIFG BR NSC 06/06 Q1001 R07/19//95
                        NOSIG=
201912220300 METAR LRBS 220300Z VRB01KT 2000 MIFG BR NSC 05/05 Q1001 R07/19//95
                        NOSIG=
201912220330 METAR LRBS 220330Z 30001KT 2000 MIFG BR NSC 05/05 Q1000 R07/19//95
                        NOSIG=
201912220400 METAR LRBS 220400Z VRB01KT 1500 MIFG BR NSC 04/04 Q1000 R07/19//95
                        NOSIG=
201912220430 METAR LRBS 220430Z 00000KT 0600 R07/0450N R25/1100D FG NSC
                        04/04 Q1000 R07/19//95 NOSIG=
201912220500 METAR LRBS 220500Z 00000KT 1500 BR NSC 04/04 Q1000 R07/19//95
                        NOSIG=
201912220530 METAR LRBS 220530Z 00000KT 1500 -RA BR NSC 05/05 Q1000 R07/19//95
                        NOSIG=
201912220600 METAR LRBS 220600Z VRB01KT 2500 BR NSC 05/05 Q1000 R07/19//95
                        NOSIG=
201912220630 METAR LRBS 220630Z 25002KT 3000 BR NSC 06/05 Q1000 R07/19//95
                        NOSIG=
201912220700 METAR LRBS 220700Z VRB02KT 5000 MIFG BR NSC 07/06 Q1000 R07/19//95
                        NOSIG=
201912220730 METAR LRBS 220730Z VRB02KT 7000 NSC 08/07 Q1000 R07/19//95
                        NOSIG=
201912220800 METAR LRBS 220800Z VRB02KT CAVOK 11/07 Q0999 R07/19//95 NOSIG=
201912220830 METAR LRBS 220830Z 26003KT CAVOK 12/08 Q0999 R07/19//95 NOSIG=
201912220900 METAR LRBS 220900Z 22003KT 190V260 CAVOK 14/08 Q0999 R07/19//95
                        NOSIG=
201912220930 METAR LRBS 220930Z /////KT CAVOK 15/07 Q0999 R07/19//95 NOSIG=
201912221000 METAR LRBS 221000Z /////KT CAVOK 15/07 Q0999 R07/19//95 NOSIG=
201912221030 METAR COR LRBS 221030Z VRB02KT CAVOK 17/07 Q0999 R07/29//95
                        NOSIG=
201912221100 METAR LRBS 221100Z 21003KT 130V260 CAVOK 16/07 Q0998 R07/19//95
                        NOSIG=
201912221130 METAR LRBS 221130Z VRB03KT CAVOK 16/07 Q0998 R07/19//95 NOSIG=
201912221200 METAR LRBS 221200Z 22003KT CAVOK 16/07 Q0997 R07/19//95 BECMG
                        08010KT=
201912221230 METAR LRBS 221230Z VRB01KT CAVOK 15/07 Q0997 R07/19//95 BECMG
                        08010KT=
201912221300 METAR LRBS 221300Z 11004KT CAVOK 15/08 Q0996 R07/19//95 BECMG
                        08010KT=
201912221330 METAR LRBS 221330Z 08003KT CAVOK 14/08 Q0996 R07/19//95 NOSIG=
201912221400 METAR LRBS 221400Z 09004KT CAVOK 12/08 Q0996 R07/19//95 NOSIG=
201912221430 METAR LRBS 221430Z 11004KT CAVOK 12/08 Q0996 R07/19//95 NOSIG=
201912221500 METAR LRBS 221500Z 08004KT CAVOK 11/08 Q0995 R07/19//95 NOSIG=
201912221530 METAR LRBS 221530Z 07004KT 8000 NSC 10/08 Q0995 R07/19//95
                        NOSIG=
201912221600 METAR LRBS 221600Z 07006KT CAVOK 11/08 Q0995 R07/19//95 NOSIG=
201912221630 METAR LRBS 221630Z 08005KT CAVOK 11/08 Q0994 R07/19//95 NOSIG=
201912221700 METAR LRBS 221700Z 08002KT CAVOK 11/09 Q0994 R07/19//95 NOSIG=
201912221730 METAR LRBS 221730Z 08004KT 9000 NSC 11/09 Q0994 R07/19//95
                        NOSIG=
201912221800 METAR LRBS 221800Z 05004KT 9000 NSC 12/09 Q0994 R07/19//95
                        NOSIG=
201912221830 METAR LRBS 221830Z 09005KT CAVOK 12/09 Q0993 R07/19//95 NOSIG=
201912221900 METAR LRBS 221900Z 07005KT 8000 -RA NSC 12/09 Q0993 R07/19//95
                        NOSIG=
201912221930 METAR LRBS 221930Z 04005KT 9999 -RA NSC 13/09 Q0993 R07/19//95
                        NOSIG=
201912222000 METAR LRBS 222000Z 02004KT CAVOK 12/09 Q0992 R07/19//95 NOSIG=
201912222030 METAR LRBS 222030Z 05003KT CAVOK 10/08 Q0992 R07/19//95 NOSIG=
201912222100 METAR LRBS 222100Z 06003KT CAVOK 10/09 Q0992 R07/19//95 NOSIG=
201912222130 METAR LRBS 222130Z 06002KT CAVOK 10/09 Q0992 R07/19//95 NOSIG=
201912222200 METAR LRBS 222200Z 05002KT 9999 SCT047 10/09 Q0991 R07/19//95
                        NOSIG=
201912222230 METAR LRBS 222230Z VRB01KT 9999 -RA OVC044 10/09 Q0991 R07/19//95
                        NOSIG=
201912222300 METAR LRBS 222300Z 06001KT 7000 -RA FEW043 SCT049 10/09 Q0991
                        R07/19//95 NOSIG=
201912222330 METAR LRBS 222330Z 03003KT 9000 -RA NSC 09/09 Q0990 R07/19//95
                        NOSIG=
201912230000 METAR LRBS 230000Z 05003KT 7000 NSC 09/09 Q0990 R07/19//95
                        NOSIG=
201912230030 METAR LRBS 230030Z 08002KT 8000 BKN049 10/09 Q0990 R07/19//95
                        NOSIG=
201912230100 METAR LRBS 230100Z VRB01KT 7000 BKN041 10/09 Q0990 R07/19//95
                        NOSIG=
201912230130 METAR LRBS 230130Z 00000KT 7000 SCT039 10/10 Q0990 R07/19//95
                        NOSIG=
201912230200 METAR LRBS 230200Z 09003KT 060V130 9999 -RA SCT039 11/10
                        Q0989 R07/19//95 NOSIG=
201912230230 METAR LRBS 230230Z 06002KT 8000 FEW034 SCT043 10/10 Q0989
                        R07/19//95 NOSIG=
201912230300 METAR LRBS 230300Z VRB02KT 8000 NSC 10/09 Q0989 R07/19//95
                        NOSIG=
201912230330 METAR LRBS 230330Z 18004KT 150V220 CAVOK 12/11 Q0989 R07/19//95
                        NOSIG=
201912230400 METAR LRBS 230400Z 19004KT CAVOK 12/10 Q0989 R07/19//95 NOSIG=
201912230430 METAR LRBS 230430Z 21004KT CAVOK 12/10 Q0989 R07/19//95 NOSIG=
201912230500 METAR COR LRBS 230500Z 22007KT CAVOK 11/10 Q0989 R07/29//95
                        TEMPO 5000 -RA BR=
201912230530 METAR LRBS 230530Z 23007KT 9000 -RA NSC 11/10 Q0990 R07/29//95
                        TEMPO 5000 -RA BR=
201912230600 METAR LRBS 230600Z VRB02KT 7000 -RA FEW012 10/10 Q0990 R07/29//95
                        TEMPO 5000 -RA BR=
201912230630 METAR LRBS 230630Z 28003KT CAVOK 10/10 Q0990 R07/29//95 NOSIG=
201912230700 METAR LRBS 230700Z 26002KT CAVOK 10/10 Q0990 R07/29//95 NOSIG=
201912230730 METAR LRBS 230730Z 26002KT 9999 FEW014 11/10 Q0990 R07/29//95
                        NOSIG=
201912230800 METAR LRBS 230800Z 25003KT CAVOK 12/11 Q0990 R07/29//95 NOSIG=
201912230830 METAR LRBS 230830Z 23003KT 190V260 9999 FEW008 12/11 Q0991
                        R07/29//95 NOSIG=
201912230900 METAR LRBS 230900Z VRB01KT 9999 FEW008 12/10 Q0991 R07/29//95
                        NOSIG=
201912230930 METAR LRBS 230930Z 22004KT 9999 FEW008 13/10 Q0991 R07/29//95
                        NOSIG=
201912231000 METAR LRBS 231000Z 21006KT 9999 SCT006 SCT029 12/10 Q0991
                        R07/29//95 TEMPO 5000 -RA BKN010
                        BKN030=
201912231030 METAR LRBS 231030Z 23006KT 9999 -RA BKN003 BKN030 11/10 Q0991
                        R07/29//95 BECMG SCT005 BKN030=
201912231100 METAR LRBS 231100Z 22004KT 5000 SHRA FEW005 BKN030 FEW045CB
                        11/10 Q0991 R07/29//95 NOSIG=
201912231130 METAR LRBS 231130Z 28003KT 240V320 9000 -SHRA FEW008 SCT039
                        FEW050CB 11/10 Q0991 RESHRA R07/29//95
                        NOSIG=
201912231200 METAR LRBS 231200Z 21002KT 9999 FEW005 FEW050CB 11/10 Q0991
                        R07/29//95 BECMG NSC=
201912231230 METAR LRBS 231230Z 24004KT 9999 FEW005 11/11 Q0991 R07/29//95
                        NOSIG=
201912231300 METAR LRBS 231300Z 23003KT 9999 FEW018 12/10 Q0991 R07/29//95
                        NOSIG=
201912231330 METAR LRBS 231330Z 25007KT 9999 FEW010 SCT015 12/09 Q0992
                        R07/29//95 NOSIG=
201912231400 METAR LRBS 231400Z 26009KT 9999 FEW013 11/09 Q0992 R07/29//95
                        NOSIG=
201912231430 METAR LRBS 231430Z 25009KT CAVOK 10/08 Q0992 R07/29//95 NOSIG=
201912231500 METAR LRBS 231500Z 25009KT 9999 BKN010 10/08 Q0992 R07/29//95
                        NOSIG=
201912231530 METAR LRBS 231530Z 25010KT 9999 BKN012 09/07 Q0993 R07/29//95
                        NOSIG=
201912231600 METAR LRBS 231600Z 25010KT 9999 FEW015 08/06 Q0993 R07/29//95
                        NOSIG=
201912231630 METAR COR LRBS 231630Z 25010KT CAVOK 08/05 Q0994 R07/29//95
                        NOSIG=
201912231700 METAR LRBS 231700Z 24007KT CAVOK 08/05 Q0994 R07/29//95 NOSIG=
201912231730 METAR LRBS 231730Z 25009KT CAVOK 07/05 Q0994 R07/29//95 NOSIG=
201912231800 METAR COR LRBS 231800Z 25009KT CAVOK 07/05 Q0994 R07/29//95
                        NOSIG=
201912231830 METAR LRBS 231830Z 25010KT CAVOK 07/05 Q0994 R07/29//95 NOSIG=
201912231900 METAR LRBS 231900Z 24009KT CAVOK 07/05 Q0994 R07/29//95 NOSIG=
201912231930 METAR LRBS 231930Z 25008KT CAVOK 07/04 Q0994 R07/29//95 NOSIG=
201912232000 METAR LRBS 232000Z 26007KT CAVOK 06/04 Q0995 R07/29//95 NOSIG=
201912232030 METAR LRBS 232030Z 25005KT CAVOK 06/04 Q0995 R07/29//95 NOSIG=
201912232100 METAR LRBS 232100Z 25006KT CAVOK 06/04 Q0995 R07/29//95 NOSIG=
201912232130 METAR LRBS 232130Z 27006KT CAVOK 05/04 Q0995 R07/29//95 NOSIG=
201912232200 METAR LRBS 232200Z 26005KT CAVOK 05/03 Q0995 R07/29//95 NOSIG=
201912232230 METAR LRBS 232230Z 27005KT 240V310 CAVOK 05/03 Q0996 R07/29//95
                        NOSIG=
201912232300 METAR LRBS 232300Z 26005KT CAVOK 04/03 Q0996 R07/29//95 NOSIG=
201912232330 METAR LRBS 232330Z VRB02KT CAVOK 04/03 Q0996 R07/29//95 NOSIG=
201912240000 METAR COR LRBS 240000Z VRB02KT CAVOK 04/03 Q0996 R07/29//95
                        NOSIG=
201912240030 METAR LRBS 240030Z AUTO 28002KT 9999 NCD 03/02 Q0996 NOSIG=
201912240100 METAR LRBS 240100Z 26003KT CAVOK 03/02 Q0996 R07/29//95 NOSIG=
201912240130 METAR LRBS 240130Z 26003KT CAVOK 03/02 Q0996 R07/29//95 NOSIG=
201912240200 METAR LRBS 240200Z VRB01KT CAVOK 03/02 Q0997 R07/29//95 NOSIG=
201912240230 METAR LRBS 240230Z 26004KT CAVOK 03/02 Q0997 R07/29//95 NOSIG=
201912240300 METAR LRBS 240300Z VRB02KT CAVOK 03/02 Q0997 R07/29//95 NOSIG=
201912240330 METAR LRBS 240330Z 28004KT 9999 FEW030 02/02 Q0997 R07/29//95
                        NOSIG=
201912240400 METAR LRBS 240400Z 27003KT 9999 SCT028 02/02 Q0998 R07/19//95
                        NOSIG=
201912240430 METAR LRBS 240430Z VRB01KT 9999 FEW029 02/02 Q0998 R07/19//95
                        NOSIG=
201912240500 METAR LRBS 240500Z 26002KT 9999 FEW029 02/01 Q0999 R07/19//95
                        NOSIG=
201912240530 METAR LRBS 240530Z 27003KT 9999 FEW003 BKN029 02/01 Q0999
                        R07/19//95 NOSIG=
201912240600 METAR LRBS 240600Z 30002KT 8000 SCT003 BKN022 02/01 Q0999
                        R07/19//95 TEMPO 5000 BR BKN002 BKN020=
201912240630 METAR LRBS 240630Z 26003KT 6000 SCT003 BKN019 02/01 Q1000
                        R07/19//95 TEMPO 4000 BR BKN002 BKN020=
201912240700 METAR LRBS 240700Z 27003KT 3000 BR BKN002 02/02 Q1000 R07/19//95
                        TEMPO 1500 BR OVC002=
201912240730 METAR LRBS 240730Z 00000KT 0300 R07/0700N R25/1200D FG OVC001
                        02/02 Q1001 R07/19//95 BECMG 1000
                        BR OVC002=
201912240800 METAR COR LRBS 240800Z VRB01KT 1500 -RA BR BKN002 03/03 Q1001
                        R07/19//95 BECMG 4000=
201912240830 METAR LRBS 240830Z 00000KT 3000 BR OVC002 03/03 Q1002 R07/19//95
                        BECMG 5000 BKN005 BKN020=
201912240900 METAR LRBS 240900Z VRB01KT 3000 BR OVC002 04/03 Q1002 R07/19//95
                        BECMG 5000 BKN005 BKN020=
201912240930 METAR LRBS 240930Z 25002KT 3000 -RA BR BKN003 BKN012 04/04
                        Q1002 R07/19//95 BECMG 5000 BKN005
                        BKN020=
201912241000 METAR LRBS 241000Z VRB01KT 5000 BR FEW003 05/04 Q1002 R07/19//95
                        BECMG 8000 NSW=
201912241030 METAR LRBS 241030Z 27002KT 5000 BR SCT011 05/05 Q1002 R07/19//95
                        BECMG 8000 NSW=
201912241100 METAR LRBS 241100Z 28003KT 5000 -RA BR FEW011 BKN045 06/05
                        Q1002 R07/19//95 NOSIG=
201912241130 METAR LRBS 241130Z 27003KT 240V300 5000 BR BKN045 06/05 Q1003
                        R07/19//95 NOSIG=
201912241200 METAR LRBS 241200Z 25003KT 5000 BR BKN049 07/06 Q1003 R07/19//95
                        NOSIG=
201912241230 METAR LRBS 241230Z 26002KT 7000 -RA BKN049 07/06 Q1003 R07/19//95
                        NOSIG=
201912241300 METAR LRBS 241300Z VRB01KT 6000 -RA BKN044 07/06 Q1003 R07/19//95
                        NOSIG=
201912241330 METAR LRBS 241330Z 00000KT 6000 -RA BKN043 07/06 Q1004 R07/19//95
                        NOSIG=
201912241400 METAR LRBS 241400Z 25002KT 5000 -RA BR BKN048 07/06 Q1004
                        R07/19//95 TEMPO 3000 -RA BR=
201912241430 METAR LRBS 241430Z 24003KT 3000 -RA BR BKN044 07/06 Q1004
                        R07/19//95 NOSIG=
201912241500 METAR LRBS 241500Z 22004KT 3000 -RA BR NSC 07/07 Q1004 R07/19//95
                        NOSIG=
201912241530 METAR LRBS 241530Z 21004KT 3000 -RA BR BKN044 07/07 Q1005
                        R07/19//95 NOSIG=
201912241600 METAR LRBS 241600Z 22005KT 5000 -RA BR BKN048 07/06 Q1005
                        R07/19//95 NOSIG=
201912241630 METAR LRBS 241630Z 22005KT 7000 NSC 08/06 Q1005 R07/19//95
                        NOSIG=
201912241700 METAR LRBS 241700Z 22003KT 8000 NSC 08/06 Q1005 R07/19//95
                        NOSIG=
201912241730 METAR LRBS 241730Z 23003KT 220V280 8000 NSC 08/06 Q1005 R07/19//95
                        BECMG 5000 BR=
201912241800 METAR LRBS 241800Z 26003KT 7000 NSC 07/06 Q1005 R07/19//95
                        BECMG 5000 BR=
201912241830 METAR LRBS 241830Z 25002KT 6000 NSC 07/06 Q1006 R07/29//95
                        BECMG 3000 BR=
201912241900 METAR LRBS 241900Z 21002KT 5000 BR NSC 07/06 Q1005 R07/29//95
                        NOSIG=
201912241930 METAR LRBS 241930Z 22003KT 5000 BR NSC 07/06 Q1006 R07/29//95
                        NOSIG=
201912242000 METAR LRBS 242000Z 24001KT 6000 NSC 07/06 Q1006 R07/29//95
                        NOSIG=
201912242030 METAR LRBS 242030Z 00000KT 5000 MIFG BR NSC 07/06 Q1006 R07/29//95
                        BECMG 3000 BR=
201912242100 METAR LRBS 242100Z 00000KT 5000 MIFG BR NSC 07/06 Q1006 R07/29//95
                        BECMG 3000 BR=
201912242130 METAR LRBS 242130Z 00000KT 5000 MIFG BR NSC 06/06 Q1006 R07/29//95
                        BECMG 3000 BR=
201912242200 METAR LRBS 242200Z 25002KT 6000 MIFG NSC 06/06 Q1006 R07/29//95
                        NOSIG=
201912242230 METAR LRBS 242230Z 25003KT 7000 BKN049 06/06 Q1006 R07/29//95
                        NOSIG=
201912242300 METAR LRBS 242300Z 24003KT 7000 NSC 06/06 Q1006 R07/29//95
                        NOSIG=
201912242330 METAR LRBS 242330Z 25003KT 7000 NSC 06/05 Q1006 R07/29//95
                        NOSIG=
201912250000 METAR LRBS 250000Z 24003KT 7000 NSC 06/05 Q1006 R07/29//95
                        NOSIG=
201912250030 METAR LRBS 250030Z 25002KT 5000 BR NSC 05/04 Q1006 R07/29//95
                        BECMG 3000 BR=
201912250100 METAR LRBS 250100Z 25003KT 4500 MIFG BR NSC 05/04 Q1006 R07/29//95
                        BECMG 3000 BR=
201912250130 METAR LRBS 250130Z 28003KT 3500 MIFG BR NSC 04/04 Q1006 R07/29//95
                        NOSIG=
201912250200 METAR LRBS 250200Z 27002KT 5000 MIFG BR NSC 04/03 Q1006 R07/29//95
                        TEMPO 3000 BR=
201912250230 METAR LRBS 250230Z 27003KT 240V300 7000 NSC 03/02 Q1006 R07/29//95
                        TEMPO 5000 BR=
201912250300 METAR LRBS 250300Z VRB01KT 9000 NSC 03/02 Q1006 R07/29//95
                        TEMPO 5000 BR=
201912250330 METAR LRBS 250330Z 22001KT 9000 NSC 02/02 Q1005 R07/29//95
                        TEMPO 5000 BR=
201912250400 METAR LRBS 250400Z 24002KT 8000 MIFG NSC 02/01 Q1005 R07/29//95
                        TEMPO 5000 BR=
201912250430 METAR LRBS 250430Z 24003KT 8000 NSC 02/01 Q1006 R07/29//95
                        TEMPO 5000 BR=
201912250500 METAR LRBS 250500Z 24005KT 8000 NSC 02/01 Q1006 R07/29//95
                        NOSIG=
201912250530 METAR LRBS 250530Z 24004KT CAVOK 02/01 Q1006 R07/29//95 NOSIG=
201912250600 METAR LRBS 250600Z 24005KT CAVOK 01/00 Q1006 R07/29//95 NOSIG=
201912250630 METAR COR LRBS 250630Z 24005KT CAVOK 01/00 Q1007 R07/29//95
                        NOSIG=
201912250700 METAR COR LRBS 250700Z 24003KT CAVOK 02/01 Q1007 R07/29//95
                        NOSIG=
201912250730 METAR LRBS 250730Z 25001KT CAVOK 03/01 Q1007 R07/29//95 NOSIG=
201912250800 METAR LRBS 250800Z VRB01KT CAVOK 04/01 Q1007 R07/29//95 NOSIG=
201912250830 METAR LRBS 250830Z VRB01KT CAVOK 05/02 Q1008 R07/29//95 NOSIG=
201912250900 METAR LRBS 250900Z 23003KT CAVOK 06/02 Q1008 R07/29//95 NOSIG=
201912250930 METAR LRBS 250930Z 23004KT CAVOK 06/03 Q1007 R07/29//95 NOSIG=
201912251000 METAR LRBS 251000Z 26003KT CAVOK 06/03 Q1008 R07/29//95 NOSIG=
201912251030 METAR LRBS 251030Z 26003KT CAVOK 07/03 Q1007 R07/29//95 NOSIG=
201912251100 METAR LRBS 251100Z 24003KT CAVOK 07/03 Q1007 R07/29//95 NOSIG=
201912251130 METAR LRBS 251130Z 23003KT CAVOK 08/04 Q1007 R07/29//95 NOSIG=
201912251200 METAR LRBS 251200Z 24003KT 210V300 CAVOK 09/02 Q1007 R07/29//95
                        NOSIG=
201912251230 METAR LRBS 251230Z 24004KT CAVOK 09/03 Q1007 R07/29//95 NOSIG=
201912251300 METAR LRBS 251300Z VRB02KT CAVOK 09/03 Q1007 R07/29//95 NOSIG=
201912251330 METAR LRBS 251330Z VRB02KT CAVOK 09/04 Q1007 R07/29//95 NOSIG=
201912251400 METAR LRBS 251400Z 22005KT 180V240 CAVOK 08/04 Q1007 R07/29//95
                        NOSIG=
201912251430 METAR LRBS 251430Z 24005KT CAVOK 08/04 Q1008 R07/29//95 NOSIG=
201912251500 METAR LRBS 251500Z 24004KT CAVOK 08/04 Q1008 R07/29//95 NOSIG=
201912251530 METAR LRBS 251530Z 25004KT CAVOK 07/04 Q1008 R07/29//95 NOSIG=
201912251600 METAR LRBS 251600Z 25003KT CAVOK 07/04 Q1008 R07/29//95 NOSIG=
201912251630 METAR LRBS 251630Z 24002KT CAVOK 07/04 Q1008 R07/29//95 NOSIG=
201912251700 METAR LRBS 251700Z 24003KT CAVOK 07/04 Q1008 R07/29//95 NOSIG=
201912251730 METAR LRBS 251730Z 28003KT CAVOK 06/04 Q1009 R07/29//95 NOSIG=
201912251800 METAR LRBS 251800Z 30002KT CAVOK 06/04 Q1009 R07/29//95 NOSIG=
201912251830 METAR LRBS 251830Z VRB01KT CAVOK 06/03 Q1009 R07/29//95 NOSIG=
201912251900 METAR LRBS 251900Z 28001KT CAVOK 06/04 Q1009 R07/29//95 NOSIG=
201912251930 METAR LRBS 251930Z VRB01KT CAVOK 06/03 Q1009 R07/29//95 NOSIG=
201912252000 METAR LRBS 252000Z 00000KT CAVOK 06/03 Q1010 R07/29//95 NOSIG=
201912252030 METAR LRBS 252030Z 00000KT CAVOK 06/03 Q1010 R07/29//95 NOSIG=
201912252100 METAR LRBS 252100Z 00000KT CAVOK 06/02 Q1010 R07/29//95 NOSIG=
201912252130 METAR LRBS 252130Z 00000KT 9999 BKN047 06/02 Q1010 R07/29//95
                        NOSIG=
201912252200 METAR LRBS 252200Z 02002KT 9999 BKN044 06/01 Q1010 R07/29//95
                        NOSIG=
201912252230 METAR LRBS 252230Z 05003KT 9999 BKN046 06/01 Q1010 R07/29//95
                        NOSIG=
201912252300 METAR LRBS 252300Z 05003KT 9999 BKN047 06/01 Q1010 R07/29//95
                        NOSIG=
201912252330 METAR LRBS 252330Z 23001KT 9999 BKN044 06/01 Q1010 R07/29//95
                        NOSIG=
201912260000 METAR LRBS 260000Z 30002KT 9999 BKN043 05/02 Q1011 R07/29//95
                        NOSIG=
201912260030 METAR LRBS 260030Z 30002KT 9999 BKN044 05/02 Q1011 R07/29//95
                        NOSIG=
201912260100 METAR LRBS 260100Z 33003KT 9999 BKN045 05/02 Q1011 R07/29//95
                        NOSIG=
201912260130 METAR LRBS 260130Z 03002KT 9999 BKN047 05/02 Q1011 R07/29//95
                        NOSIG=
201912260200 METAR LRBS 260200Z 00000KT CAVOK 05/02 Q1011 R07/29//95 NOSIG=
201912260230 METAR LRBS 260230Z VRB01KT CAVOK 05/02 Q1011 R07/29//95 NOSIG=
201912260300 METAR LRBS 260300Z 00000KT CAVOK 05/02 Q1011 R07/29//95 NOSIG=
201912260330 METAR LRBS 260330Z 35001KT CAVOK 05/02 Q1011 R07/29//95 NOSIG=
201912260400 METAR LRBS 260400Z VRB01KT CAVOK 05/02 Q1012 R07/29//95 NOSIG=
201912260430 METAR LRBS 260430Z 00000KT 9999 BKN049 04/02 Q1012 R07/29//95
                        NOSIG=
201912260500 METAR LRBS 260500Z 00000KT CAVOK 04/02 Q1012 R07/29//95 NOSIG=
201912260530 METAR LRBS 260530Z 02002KT CAVOK 04/02 Q1012 R07/29//95 NOSIG=
201912260600 METAR LRBS 260600Z 00000KT CAVOK 04/02 Q1013 R07/29//95 NOSIG=
201912260630 METAR LRBS 260630Z 07001KT CAVOK 04/02 Q1013 R07/29//95 NOSIG=
201912260700 METAR LRBS 260700Z 06002KT CAVOK 04/03 Q1013 R07/29//95 NOSIG=
201912260730 METAR LRBS 260730Z 06002KT CAVOK 05/03 Q1014 R07/29//95 NOSIG=
201912260800 METAR LRBS 260800Z VRB01KT CAVOK 06/04 Q1014 R07/29//95 NOSIG=
201912260830 METAR LRBS 260830Z VRB01KT CAVOK 06/04 Q1014 R07/29//95 NOSIG=
201912260900 METAR LRBS 260900Z VRB02KT CAVOK 07/01 Q1014 R07/29//95 NOSIG=
201912260930 METAR LRBS 260930Z 02003KT 340V060 CAVOK 08/M01 Q1014 R07/29//95
                        NOSIG=
201912261000 METAR LRBS 261000Z 06004KT 020V090 CAVOK 08/M02 Q1014 R07/29//95
                        NOSIG=
201912261030 METAR LRBS 261030Z 36001KT CAVOK 08/M02 Q1014 R07/29//95
                        NOSIG=
201912261100 METAR COR LRBS 261100Z 00000KT CAVOK 08/M02 Q1014 R07/CLRD//
                        NOSIG=
201912261130 METAR LRBS 261130Z VRB01KT CAVOK 09/M02 Q1014 NOSIG=
201912261200 METAR LRBS 261200Z VRB02KT CAVOK 08/M02 Q1014 NOSIG=
201912261230 METAR LRBS 261230Z 21003KT 180V250 CAVOK 09/M01 Q1014 NOSIG=
201912261300 METAR COR LRBS 261300Z 24005KT 210V270 CAVOK 09/01 Q1014
                        NOSIG=
201912261330 METAR LRBS 261330Z 28004KT 230V340 9999 FEW032 09/01 Q1014
                        NOSIG=
201912261400 METAR LRBS 261400Z 28005KT 250V320 CAVOK 08/03 Q1014 NOSIG=
201912261430 METAR LRBS 261430Z 25008KT CAVOK 07/02 Q1015 NOSIG=
201912261500 METAR LRBS 261500Z 26008KT CAVOK 07/02 Q1015 NOSIG=
201912261530 METAR COR LRBS 261530Z 27005KT CAVOK 07/03 Q1015 NOSIG=
201912261600 METAR LRBS 261600Z 27004KT CAVOK 07/03 Q1015 NOSIG=
201912261630 METAR LRBS 261630Z 28003KT CAVOK 06/03 Q1015 NOSIG=
201912261700 METAR LRBS 261700Z 28004KT CAVOK 06/03 Q1015 NOSIG=
201912261730 METAR LRBS 261730Z 28003KT CAVOK 06/02 Q1016 NOSIG=
201912261800 METAR LRBS 261800Z 30003KT 270V340 CAVOK 06/02 Q1016 NOSIG=
201912261830 METAR LRBS 261830Z 33003KT 280V020 CAVOK 06/01 Q1016 NOSIG=
201912261900 METAR LRBS 261900Z 32004KT 280V350 CAVOK 06/M00 Q1016 NOSIG=
201912261930 METAR LRBS 261930Z VRB02KT CAVOK 06/M00 Q1016 NOSIG=
201912262000 METAR LRBS 262000Z VRB02KT CAVOK 05/M01 Q1016 NOSIG=
201912262030 METAR LRBS 262030Z 36002KT CAVOK 06/M02 Q1016 NOSIG=
201912262100 METAR LRBS 262100Z VRB02KT CAVOK 05/M02 Q1016 NOSIG=
201912262130 METAR LRBS 262130Z 00000KT CAVOK 05/M02 Q1016 NOSIG=
201912262200 METAR LRBS 262200Z 27001KT CAVOK 05/M02 Q1016 NOSIG=
201912262230 METAR LRBS 262230Z 29004KT CAVOK 05/M01 Q1016 NOSIG=
201912262300 METAR LRBS 262300Z 28003KT CAVOK 05/M01 Q1017 NOSIG=
201912262330 METAR LRBS 262330Z 28003KT CAVOK 04/M01 Q1017 NOSIG=
201912270000 METAR LRBS 270000Z 28002KT CAVOK 04/M02 Q1017 NOSIG=
201912270030 METAR LRBS 270030Z 27003KT CAVOK 03/M02 Q1017 NOSIG=
201912270100 METAR LRBS 270100Z 28002KT CAVOK 03/M02 Q1017 NOSIG=
201912270130 METAR LRBS 270130Z 29002KT CAVOK 02/M02 Q1017 NOSIG=
201912270200 METAR LRBS 270200Z 28002KT CAVOK 02/M02 Q1017 NOSIG=
201912270230 METAR LRBS 270230Z 27003KT CAVOK 02/M02 Q1017 NOSIG=
201912270300 METAR LRBS 270300Z 27005KT CAVOK 02/M02 Q1017 NOSIG=
201912270330 METAR LRBS 270330Z 27004KT CAVOK 02/M02 Q1017 NOSIG=
201912270400 METAR LRBS 270400Z 24004KT CAVOK 02/M02 Q1017 NOSIG=
201912270430 METAR COR LRBS 270430Z 24007KT CAVOK 02/M02 Q1017 NOSIG=
201912270500 METAR LRBS 270500Z 24005KT CAVOK 02/M02 Q1017 NOSIG=
201912270530 METAR LRBS 270530Z 28003KT 250V330 CAVOK 01/M01 Q1017 NOSIG=
201912270600 METAR LRBS 270600Z 28003KT 260V320 CAVOK 01/M02 Q1017 NOSIG=
201912270630 METAR LRBS 270630Z 27003KT CAVOK 01/M02 Q1017 NOSIG=
201912270700 METAR LRBS 270700Z 26002KT CAVOK 01/M02 Q1017 NOSIG=
201912270730 METAR LRBS 270730Z VRB01KT CAVOK 03/M01 Q1017 NOSIG=
201912270800 METAR LRBS 270800Z VRB02KT CAVOK 04/M02 Q1018 NOSIG=
201912270830 METAR LRBS 270830Z 28003KT 240V310 CAVOK 04/M01 Q1018 NOSIG=
201912270900 METAR LRBS 270900Z VRB02KT CAVOK 05/M01 Q1018 NOSIG=
201912270930 METAR LRBS 270930Z 28003KT 250V320 CAVOK 06/M01 Q1017 NOSIG=
201912271000 METAR LRBS 271000Z 25004KT CAVOK 06/M01 Q1017 NOSIG=
201912271030 METAR LRBS 271030Z 26003KT 230V310 CAVOK 06/M01 Q1017 NOSIG=
201912271100 METAR LRBS 271100Z 25004KT 9999 FEW030 06/M01 Q1017 NOSIG=
201912271130 METAR LRBS 271130Z 25005KT 220V300 9999 FEW032 06/M00 Q1017
                        NOSIG=
201912271200 METAR LRBS 271200Z 24004KT 200V270 CAVOK 07/00 Q1016 NOSIG=
201912271230 METAR LRBS 271230Z 22003KT 200V290 9999 FEW036 08/00 Q1016
                        NOSIG=
201912271300 METAR LRBS 271300Z 26003KT CAVOK 07/M00 Q1017 NOSIG=
201912271330 METAR LRBS 271330Z 25003KT CAVOK 08/M02 Q1017 NOSIG=
201912271400 METAR LRBS 271400Z 23002KT CAVOK 08/M02 Q1017 NOSIG=
201912271430 METAR LRBS 271430Z 20002KT CAVOK 07/M01 Q1017 NOSIG=
201912271500 METAR LRBS 271500Z 21001KT CAVOK 06/M01 Q1017 NOSIG=
201912271530 METAR LRBS 271530Z 00000KT CAVOK 06/M01 Q1017 NOSIG=
201912271600 METAR LRBS 271600Z VRB01KT CAVOK 05/M01 Q1017 NOSIG=
201912271630 METAR LRBS 271630Z 04001KT CAVOK 04/M01 Q1017 NOSIG=
201912271700 METAR LRBS 271700Z VRB01KT CAVOK 03/M02 Q1017 NOSIG=
201912271730 METAR LRBS 271730Z 03003KT CAVOK 03/M01 Q1017 NOSIG=
201912271800 METAR LRBS 271800Z 09001KT CAVOK 03/M01 Q1017 NOSIG=
201912271830 METAR LRBS 271830Z 36003KT 270V020 CAVOK 03/M01 Q1017 NOSIG=
201912271900 METAR LRBS 271900Z 00000KT CAVOK 04/00 Q1017 NOSIG=
201912271930 METAR LRBS 271930Z 34003KT 310V010 9999 -RA NSC 03/00 Q1018
                        NOSIG=
201912272000 METAR LRBS 272000Z VRB03KT 9999 FEW033 04/M00 Q1017 NOSIG=
201912272030 METAR LRBS 272030Z 35001KT CAVOK 03/M01 Q1018 NOSIG=
201912272100 METAR LRBS 272100Z 32003KT CAVOK 03/M01 Q1018 NOSIG=
201912272130 METAR LRBS 272130Z VRB01KT CAVOK 02/M01 Q1018 NOSIG=
201912272200 METAR COR LRBS 272200Z VRB01KT CAVOK 01/M02 Q1018 NOSIG=
201912272230 METAR LRBS 272230Z 31003KT CAVOK 02/M01 Q1018 NOSIG=
201912272300 METAR LRBS 272300Z VRB02KT CAVOK 02/M02 Q1018 NOSIG=
201912272330 METAR LRBS 272330Z 22001KT CAVOK 02/M02 Q1018 NOSIG=
201912280000 METAR LRBS 280000Z 00000KT CAVOK 02/M02 Q1018 NOSIG=
201912280030 METAR LRBS 280030Z 26004KT CAVOK 02/M01 Q1018 NOSIG=
201912280100 METAR LRBS 280100Z 27003KT CAVOK 02/M01 Q1018 NOSIG=
201912280130 METAR LRBS 280130Z 00000KT CAVOK 01/M01 Q1018 NOSIG=
201912280200 METAR LRBS 280200Z 00000KT CAVOK 02/M01 Q1018 NOSIG=
201912280230 METAR LRBS 280230Z 30001KT CAVOK 02/M02 Q1018 NOSIG=
201912280300 METAR LRBS 280300Z VRB01KT CAVOK 02/M02 Q1018 NOSIG=
201912280330 METAR LRBS 280330Z 24003KT CAVOK 02/M02 Q1018 NOSIG=
201912280400 METAR LRBS 280400Z VRB02KT CAVOK 02/M01 Q1018 NOSIG=
201912280430 METAR LRBS 280430Z 28001KT CAVOK 02/M01 Q1018 NOSIG=
201912280500 METAR LRBS 280500Z 00000KT CAVOK 01/M02 Q1018 NOSIG=
201912280530 METAR LRBS 280530Z VRB01KT CAVOK 01/M01 Q1018 NOSIG=
201912280600 METAR LRBS 280600Z 00000KT CAVOK 01/M01 Q1019 NOSIG=
201912280630 METAR LRBS 280630Z 07008KT CAVOK 01/M00 Q1019 NOSIG=
201912280700 METAR LRBS 280700Z 09008KT 9999 SCT008 01/M00 Q1020 NOSIG=
201912280730 METAR LRBS 280730Z 09008KT 9999 SCT009 02/M00 Q1020 NOSIG=
201912280800 METAR LRBS 280800Z 10006KT 9999 -SN SCT009 02/M00 Q1020 NOSIG=
201912280830 METAR LRBS 280830Z 11008KT 9999 BKN009 02/00 Q1020 NOSIG=
201912280900 METAR LRBS 280900Z 13006KT 9999 SCT009 SCT048 02/M00 Q1021
                        NOSIG=
201912280930 METAR LRBS 280930Z 11003KT 050V160 9999 BKN010 02/M00 Q1020
                        NOSIG=
201912281000 METAR LRBS 281000Z 09004KT 9999 BKN011 03/00 Q1020 NOSIG=
201912281030 METAR LRBS 281030Z 11004KT 9999 BKN011 03/00 Q1020 NOSIG=
201912281100 METAR LRBS 281100Z 10004KT 050V130 9999 BKN012 BKN016 03/M00
                        Q1020 NOSIG=
201912281130 METAR LRBS 281130Z 12003KT 050V220 9999 BKN013 03/00 Q1020
                        NOSIG=
201912281200 METAR LRBS 281200Z VRB02KT 9999 BKN015 04/M00 Q1020 NOSIG=
201912281230 METAR LRBS 281230Z 06004KT 030V090 9999 SCT019 05/00 Q1020
                        NOSIG=
201912281300 METAR LRBS 281300Z 10003KT 060V130 9999 BKN018 04/00 Q1020
                        NOSIG=
201912281330 METAR COR LRBS 281330Z 08002KT CAVOK 04/M00 Q1020 NOSIG=
201912281400 METAR LRBS 281400Z 08002KT CAVOK 04/M00 Q1020 NOSIG=
201912281430 METAR LRBS 281430Z 04001KT CAVOK 03/M00 Q1020 NOSIG=
201912281500 METAR LRBS 281500Z VRB01KT CAVOK 03/M00 Q1020 NOSIG=
201912281530 METAR LRBS 281530Z 28002KT CAVOK 03/M00 Q1021 NOSIG=
201912281600 METAR LRBS 281600Z 24003KT CAVOK 03/00 Q1021 NOSIG=
201912281630 METAR LRBS 281630Z 27003KT CAVOK 02/M00 Q1021 NOSIG=
201912281700 METAR LRBS 281700Z 28003KT CAVOK 02/00 Q1021 NOSIG=
201912281730 METAR LRBS 281730Z 29002KT 8000 NSC 02/00 Q1022 NOSIG=
201912281800 METAR LRBS 281800Z 00000KT 8000 NSC 02/00 Q1022 NOSIG=
201912281830 METAR LRBS 281830Z 24002KT 8000 NSC 02/00 Q1022 NOSIG=
201912281900 METAR LRBS 281900Z 26004KT 7000 NSC 02/M00 Q1022 NOSIG=
201912281930 METAR LRBS 281930Z 28003KT 240V300 7000 NSC 01/M00 Q1022
                        NOSIG=
201912282000 METAR LRBS 282000Z 27003KT 8000 NSC 02/M00 Q1022 NOSIG=
201912282030 METAR LRBS 282030Z 27004KT 8000 NSC 02/00 Q1023 NOSIG=
201912282100 METAR LRBS 282100Z 28005KT 230V330 9000 NSC 03/00 Q1023 NOSIG=
201912282130 METAR LRBS 282130Z VRB02KT 9000 NSC 02/00 Q1023 NOSIG=
201912282200 METAR LRBS 282200Z 36003KT 280V030 8000 NSC 01/M00 Q1023
                        NOSIG=
201912282230 METAR LRBS 282230Z 00000KT 7000 NSC 02/M00 Q1023 NOSIG=
201912282300 METAR LRBS 282300Z 12002KT 7000 NSC 01/M00 Q1023 NOSIG=
201912282330 METAR LRBS 282330Z 00000KT 6000 NSC 01/M00 Q1023 NOSIG=
201912290000 METAR LRBS 290000Z 00000KT 6000 NSC 01/M00 Q1023 NOSIG=
201912290030 METAR LRBS 290030Z 08001KT 6000 NSC 00/M01 Q1023 NOSIG=
201912290100 METAR LRBS 290100Z VRB01KT 6000 BKN042 01/00 Q1024 BECMG
                        5000 -SN=
201912290130 METAR LRBS 290130Z 00000KT 8000 BKN042 01/M00 Q1024 TEMPO
                        5000 -SN=
201912290200 METAR LRBS 290200Z 27001KT 9999 SCT048 02/M01 Q1024 NOSIG=
201912290230 METAR LRBS 290230Z VRB01KT CAVOK 02/M01 Q1024 NOSIG=
201912290300 METAR LRBS 290300Z 23003KT CAVOK 02/M01 Q1024 NOSIG=
201912290330 METAR LRBS 290330Z 23005KT CAVOK 02/M01 Q1024 NOSIG=
201912290400 METAR LRBS 290400Z 25004KT CAVOK 02/M01 Q1024 NOSIG=
201912290430 METAR LRBS 290430Z 24003KT CAVOK 02/M01 Q1024 NOSIG=
201912290500 METAR COR LRBS 290500Z 24004KT CAVOK 02/M01 Q1024 NOSIG=
201912290530 METAR LRBS 290530Z 26004KT CAVOK 01/M02 Q1024 NOSIG=
201912290600 METAR LRBS 290600Z 26001KT CAVOK 02/M02 Q1024 NOSIG=
201912290630 METAR LRBS 290630Z 29002KT 9999 FEW046 02/M02 Q1025 NOSIG=
201912290700 METAR LRBS 290700Z 00000KT CAVOK 02/M02 Q1025 NOSIG=
201912290730 METAR LRBS 290730Z 07003KT CAVOK 02/M01 Q1025 NOSIG=
201912290800 METAR LRBS 290800Z 07006KT CAVOK 02/M01 Q1026 NOSIG=
201912290830 METAR LRBS 290830Z 07005KT CAVOK 02/M01 Q1026 NOSIG=
201912290900 METAR LRBS 290900Z 07004KT 9999 SCT042 03/M01 Q1026 NOSIG=
201912290930 METAR LRBS 290930Z VRB02KT 9999 -DZ FEW031 SCT049 03/M03
                        Q1026 NOSIG=
201912291000 METAR LRBS 291000Z VRB02KT 9999 BKN043 03/M02 Q1026 NOSIG=
201912291030 METAR LRBS 291030Z VRB02KT CAVOK 03/M02 Q1026 NOSIG=
201912291100 METAR COR LRBS 291100Z 31005KT 270V340 9999 FEW023 SCT046
                        03/M02 Q1026 NOSIG=
201912291130 METAR LRBS 291130Z 27004KT 240V300 CAVOK 03/M02 Q1026 NOSIG=
201912291200 METAR LRBS 291200Z 30006KT 260V330 9999 FEW020 SCT033 03/M01
                        Q1026 NOSIG=
201912291230 METAR LRBS 291230Z 32004KT 270V030 9999 FEW019 SCT023 BKN038
                        03/M02 Q1026 NOSIG=
201912291300 METAR LRBS 291300Z 33003KT 300V360 9999 FEW019 SCT028 BKN037
                        03/M02 Q1026 NOSIG=
201912291330 METAR LRBS 291330Z 01004KT 320V060 9999 -SN BKN038 03/M03
                        Q1027 NOSIG=
201912291400 METAR LRBS 291400Z 08007KT 9999 FEW005 BKN035 02/M00 Q1027
                        NOSIG=
201912291430 METAR LRBS 291430Z 09006KT 9999 -RA SCT006 BKN030 01/00 Q1028
                        NOSIG=
201912291500 METAR LRBS 291500Z 08006KT 9999 -SN SCT005 BKN043 01/M00
                        Q1028 NOSIG=
201912291530 METAR LRBS 291530Z 08005KT 9999 -SN SCT005 BKN022 BKN047
                        01/M00 Q1028 R07/19//95 NOSIG=
201912291600 METAR LRBS 291600Z 09004KT 9999 -SN SCT007 BKN047 00/M00
                        Q1028 R07/19//95 NOSIG=
201912291630 METAR COR LRBS 291630Z 08005KT 9999 FEW005 SCT022 00/M00
                        Q1029 R07/19//95 NOSIG=
201912291700 METAR LRBS 291700Z VRB01KT 9999 FEW005 SCT019 00/M00 Q1029
                        R07/19//95 NOSIG=
201912291730 METAR LRBS 291730Z 08004KT CAVOK 00/M01 Q1029 R07/19//95
                        NOSIG=
201912291800 METAR LRBS 291800Z 09002KT 9999 BKN045 00/M02 Q1029 R07/19//95
                        NOSIG=
201912291830 METAR LRBS 291830Z 09002KT 9999 BKN046 00/M02 Q1030 R07/19//95
                        TEMPO 5000 -SN=
201912291900 METAR LRBS 291900Z 07004KT 9999 -SN BKN046 00/M02 Q1030 R07/19//95
                        TEMPO 5000 -SN=
201912291930 METAR LRBS 291930Z 07004KT 9999 OVC045 00/M02 Q1030 R07/19//95
                        TEMPO 5000 -SN=
201912292000 METAR LRBS 292000Z 03005KT 7000 -SN OVC043 00/M01 Q1031 R07/19//95
                        TEMPO 5000 -SN=
201912292030 METAR LRBS 292030Z 03002KT 9999 OVC041 00/M01 Q1031 R07/19//95
                        TEMPO 5000 -SN=
201912292100 METAR LRBS 292100Z 36004KT 320V020 9999 -SN OVC038 00/M01
                        Q1031 R07/19//95 TEMPO 5000 -SN=
201912292130 METAR LRBS 292130Z VRB02KT 9999 -SN OVC036 00/M01 Q1031 R07/19//95
                        TEMPO 5000 -SN=
201912292200 METAR LRBS 292200Z VRB02KT 9999 BKN032 00/M01 Q1031 R07/19//95
                        NOSIG=
201912292230 METAR LRBS 292230Z 00000KT 9999 OVC033 00/M02 Q1032 R07/19//95
                        NOSIG=
201912292300 METAR LRBS 292300Z VRB02KT 9999 -SN OVC035 00/M01 Q1032 R07/19//95
                        NOSIG=
201912292330 METAR LRBS 292330Z 32003KT 300V360 9999 BKN035 00/M02 Q1032
                        R07/19//95 NOSIG=
201912300000 METAR LRBS 300000Z 35003KT 320V040 CAVOK 01/M02 Q1032 R07/19//95
                        NOSIG=
201912300030 METAR LRBS 300030Z 36005KT 320V050 9999 SCT040 01/M02 Q1033
                        R07/19//95 NOSIG=
201912300100 METAR LRBS 300100Z 02006KT 9999 SCT040 01/M03 Q1033 R07/19//95
                        NOSIG=
201912300130 METAR LRBS 300130Z 03007KT CAVOK 00/M03 Q1033 R07/19//95
                        NOSIG=
201912300200 METAR LRBS 300200Z 03006KT 010V070 9999 FEW035 M00/M03 Q1032
                        R07/19//95 NOSIG=
201912300230 METAR LRBS 300230Z 01005KT 320V030 CAVOK M00/M04 Q1032 R07/19//95
                        NOSIG=
201912300300 METAR LRBS 300300Z 35003KT 310V020 CAVOK M00/M04 Q1032 R07/19//95
                        NOSIG=
201912300330 METAR LRBS 300330Z 36004KT 320V040 CAVOK M01/M04 Q1032 R07/19//95
                        NOSIG=
201912300400 METAR LRBS 300400Z 01003KT 340V040 CAVOK M01/M04 Q1033 R07/19//95
                        NOSIG=
201912300430 METAR LRBS 300430Z VRB02KT CAVOK M00/M04 Q1033 R07/19//95
                        NOSIG=
201912300500 METAR LRBS 300500Z 30003KT CAVOK M01/M03 Q1033 R07/19//95
                        NOSIG=
201912300530 METAR LRBS 300530Z 31001KT CAVOK M01/M04 Q1034 R07/19//95
                        NOSIG=
201912300600 METAR LRBS 300600Z 02001KT CAVOK M02/M04 Q1034 R07/19//95
                        NOSIG=
201912300630 METAR LRBS 300630Z 00000KT CAVOK M02/M04 Q1034 R07/19//95
                        NOSIG=
201912300700 METAR LRBS 300700Z 00000KT CAVOK 01/M03 Q1035 R07/19//95
                        NOSIG=
201912300730 METAR LRBS 300730Z VRB01KT CAVOK 00/M03 Q1035 R07/19//95
                        NOSIG=
201912300800 METAR LRBS 300800Z 26003KT 240V300 9999 SCT044 01/M02 Q1035
                        R07/19//95 NOSIG=
201912300830 METAR LRBS 300830Z VRB02KT 9999 SCT044 01/M02 Q1035 R07/19//95
                        NOSIG=
201912300900 METAR LRBS 300900Z VRB02KT 9999 FEW044 02/M03 Q1035 R07/19//95
                        NOSIG=
201912300930 METAR LRBS 300930Z VRB01KT CAVOK 02/M03 Q1035 R07/19//95
                        NOSIG=
201912301000 METAR LRBS 301000Z VRB01KT 9999 FEW022 03/M03 Q1035 R07/CLRD//
                        NOSIG=
201912301030 METAR LRBS 301030Z VRB02KT 9999 FEW022 03/M02 Q1034 NOSIG=
201912301100 METAR LRBS 301100Z 26004KT 230V330 9999 FEW025 04/M02 Q1034
                        NOSIG=
201912301130 METAR LRBS 301130Z 04004KT 360V080 9999 FEW025 04/M03 Q1033
                        NOSIG=
201912301200 METAR LRBS 301200Z 06004KT 340V110 9999 FEW029 04/M03 Q1033
                        NOSIG=
201912301230 METAR LRBS 301230Z 05003KT 350V100 9999 FEW029 04/M03 Q1033
                        NOSIG=
201912301300 METAR LRBS 301300Z 09003KT 040V140 9999 FEW034 04/M04 Q1033
                        NOSIG=
201912301330 METAR LRBS 301330Z VRB02KT 9999 FEW034 04/M03 Q1033 NOSIG=
201912301400 METAR LRBS 301400Z 13003KT 9999 FEW032 04/M04 Q1033 NOSIG=
201912301430 METAR LRBS 301430Z 12007KT 9999 FEW032 02/M02 Q1033 NOSIG=
201912301500 METAR LRBS 301500Z 11007KT 9999 SCT020 01/M02 Q1033 NOSIG=
201912301530 METAR LRBS 301530Z 11006KT 9999 BKN015 01/M01 Q1034 NOSIG=
201912301600 METAR LRBS 301600Z 11007KT 9999 BKN014 01/M02 Q1034 NOSIG=
201912301630 METAR LRBS 301630Z 10005KT 9999 BKN015 01/M02 Q1034 NOSIG=
201912301700 METAR LRBS 301700Z 12004KT 9999 OVC015 01/M02 Q1033 NOSIG=
201912301730 METAR LRBS 301730Z 14003KT 9999 BKN014 01/M02 Q1033 NOSIG=
201912301800 METAR LRBS 301800Z 14005KT 9999 BKN013 01/M02 Q1033 NOSIG=
201912301830 METAR LRBS 301830Z 17006KT 130V200 9999 BKN012 01/M02 Q1033
                        NOSIG=
201912301900 METAR LRBS 301900Z 16004KT 9999 BKN011 00/M02 Q1033 NOSIG=
201912301930 METAR LRBS 301930Z 17003KT 140V210 9999 BKN010 00/M02 Q1032
                        NOSIG=
201912302000 METAR LRBS 302000Z 19004KT 9999 BKN009 00/M02 Q1032 NOSIG=
201912302030 METAR LRBS 302030Z 19004KT 170V230 9999 BKN008 M00/M02 Q1032
                        NOSIG=
201912302100 METAR LRBS 302100Z 21003KT 190V260 9999 BKN007 M00/M02 Q1032
                        NOSIG=
201912302130 METAR LRBS 302130Z 25001KT 9999 BKN006 M01/M02 Q1032 NOSIG=
201912302200 METAR LRBS 302200Z VRB02KT 9999 OVC005 M01/M02 Q1031 NOSIG=
201912302230 METAR COR LRBS 302230Z 25003KT 7000 OVC004 M01/M02 Q1031
                        NOSIG=
201912302300 METAR LRBS 302300Z 27005KT 230V310 5000 MIFG BR OVC003 M02/M02
                        Q1030 NOSIG=
201912302330 METAR LRBS 302330Z 27005KT 3000 MIFG BR OVC002 M02/M02 Q1030
                        NOSIG=
201912310000 METAR LRBS 310000Z 25005KT 0900 R07/1200 R25/2000 FZFG OVC001
                        M02/M03 Q1030 NOSIG=
201912310030 METAR LRBS 310030Z 25004KT 0900 R07/1200 R25/1200 FZFG VV001
                        M02/M02 Q1030 NOSIG=
201912310100 METAR LRBS 310100Z 25005KT 0900 R07/P2000 R25/P2000 FZFG
                        VV001 M02/M03 Q1030 BECMG 1500 BR=
201912310130 METAR LRBS 310130Z 25006KT 0800 R07/1000D R25/1200 FZFG VV002
                        M02/M03 Q1030 TEMPO 0350 FZFG=
201912310200 METAR LRBS 310200Z 24007KT 0800 R07/1000U R25/1000D FZFG
                        VV002 M03/M03 Q1029 TEMPO 0350 FZFG=
201912310230 METAR LRBS 310230Z 25006KT 1000 R07/1000 R25/1000 FG VV001
                        M03/M03 Q1029 NOSIG=
201912310300 METAR COR LRBS 310300Z 24009KT 0900 R07/P2000 R25/P2000 FZFG
                        VV001 M03/M04 Q1029 BECMG 1500 BR
                        OVC002=
201912310330 METAR LRBS 310330Z 25007KT 2000 BR OVC002 M03/M04 Q1029 BECMG
                        3000=
201912310400 METAR LRBS 310400Z 25007KT 3000 BR OVC002 M03/M04 Q1028 BECMG
                        CAVOK=
201912310430 METAR LRBS 310430Z 25006KT 5000 BR BKN002 M03/M04 Q1028 BECMG
                        CAVOK=
201912310500 METAR LRBS 310500Z 24007KT 7000 FEW004 M04/M04 Q1028 BECMG
                        CAVOK=
201912310530 METAR LRBS 310530Z 23007KT 8000 NSC M04/M05 Q1027 NOSIG=
201912310600 METAR LRBS 310600Z 23007KT 8000 NSC M04/M05 Q1027 NOSIG=
201912310630 METAR LRBS 310630Z 24007KT 7000 NSC M04/M05 Q1027 NOSIG=
201912310700 METAR LRBS 310700Z 23008KT 7000 NSC M04/M05 Q1027 NOSIG=
201912310730 METAR LRBS 310730Z 26009KT 8000 NSC M03/M05 Q1027 NOSIG=
201912310800 METAR LRBS 310800Z 25010KT CAVOK M02/M05 Q1026 NOSIG=
201912310830 METAR LRBS 310830Z 25010KT CAVOK M01/M04 Q1026 NOSIG=
201912310900 METAR LRBS 310900Z 26010KT CAVOK M00/M04 Q1026 NOSIG=
201912310930 METAR LRBS 310930Z 26010KT 240V300 CAVOK 01/M03 Q1025 NOSIG=
201912311000 METAR LRBS 311000Z 25011KT CAVOK 01/M03 Q1025 NOSIG=
201912311030 METAR LRBS 311030Z 25011KT CAVOK 02/M03 Q1024 NOSIG=
201912311100 METAR LRBS 311100Z 26014KT CAVOK 03/M02 Q1023 NOSIG=
201912311130 METAR LRBS 311130Z 25014KT CAVOK 03/M02 Q1023 NOSIG=
201912311200 METAR LRBS 311200Z 25013KT CAVOK 03/M02 Q1022 NOSIG=
201912311230 METAR LRBS 311230Z 25013KT CAVOK 03/M02 Q1022 NOSIG=
201912311300 METAR LRBS 311300Z 25012KT CAVOK 03/M02 Q1022 NOSIG=
201912311330 METAR LRBS 311330Z 26012KT CAVOK 03/M02 Q1022 NOSIG=
201912311400 METAR LRBS 311400Z 25012KT CAVOK 03/M02 Q1022 NOSIG=
201912311430 METAR LRBS 311430Z 26012KT CAVOK 03/M02 Q1022 NOSIG=
201912311500 METAR LRBS 311500Z 26010KT 240V300 CAVOK 03/M02 Q1021 NOSIG=
201912311530 METAR LRBS 311530Z 26012KT CAVOK 03/M03 Q1021 NOSIG=
201912311600 METAR LRBS 311600Z 26013KT CAVOK 02/M03 Q1020 NOSIG=
201912311630 METAR LRBS 311630Z 27010KT 240V300 9999 -RA NSC 02/M02 Q1021
                        NOSIG=
201912311700 METAR LRBS 311700Z 27009KT 9999 -RA NSC 02/M02 Q1020 NOSIG=
201912311730 METAR LRBS 311730Z 26012KT 9999 -RA NSC 02/M02 Q1020 NOSIG=
201912311800 METAR LRBS 311800Z 27007KT CAVOK 02/M01 Q1020 NOSIG=
201912311830 METAR LRBS 311830Z 26007KT CAVOK 02/M02 Q1020 NOSIG=
201912311900 METAR LRBS 311900Z 27004KT 240V320 CAVOK 02/M02 Q1020 NOSIG=
201912311930 METAR LRBS 311930Z 25007KT CAVOK 02/M02 Q1020 NOSIG=
201912312000 METAR LRBS 312000Z 27005KT CAVOK 02/M02 Q1020 NOSIG=
201912312030 METAR LRBS 312030Z 27004KT CAVOK 01/M02 Q1020 NOSIG=
201912312100 METAR LRBS 312100Z 27004KT 230V290 CAVOK 01/M02 Q1020 NOSIG=
201912312130 METAR LRBS 312130Z 28003KT 250V320 CAVOK 01/M02 Q1020 NOSIG=
201912312200 METAR LRBS 312200Z VRB01KT CAVOK 01/M02 Q1021 NOSIG=
201912312230 METAR LRBS 312230Z 00000KT CAVOK 01/M02 Q1021 NOSIG=
201912312300 METAR LRBS 312300Z VRB01KT CAVOK M00/M03 Q1021 NOSIG=
201912312330 METAR LRBS 312330Z 00000KT CAVOK 00/M02 Q1021 NOSIG=