201904010500 TAF LROP 010500Z 0106/0206 VRB04KT CAVOK
                      BECMG 0109/0111 06012KT
                      TEMPO 0115/0206 06015G25KT=
201904011100 TAF LROP 011100Z 0112/0212 06014KT CAVOK
                      TEMPO 0116/0209 06015G25KT=
201904011700 TAF LROP 011700Z 0118/0218 06018KT CAVOK
                      PROB40 TEMPO 0206/0211 06020G30KT=
201904012300 TAF LROP 012300Z 0200/0224 06018KT CAVOK
                      PROB40 TEMPO 0205/0209 06020G30KT
                      BECMG 0216/0218 06008KT=
201904020500 TAF LROP 020500Z 0206/0306 06018KT CAVOK
                      TEMPO 0206/0215 07020G30KT
                      BECMG 0215/0217 07008KT=
201904021100 TAF LROP 021100Z 0212/0312 06018KT CAVOK
                      PROB30 TEMPO 0212/0216 07020G30KT
                      BECMG 0216/0218 07006KT
                      BECMG 0307/0309 06016KT=
201904021700 TAF LROP 021700Z 0218/0318 08006KT CAVOK
                      BECMG 0307/0309 06016KT=
201904022300 TAF LROP 022300Z 0300/0324 08006KT CAVOK
                      BECMG 0307/0309 06016KT=
201904030500 TAF LROP 030500Z 0306/0406 VRB04KT CAVOK
                      BECMG 0307/0309 10012KT=
201904031100 TAF LROP 031100Z 0312/0412 10012KT CAVOK=
201904031700 TAF LROP 031700Z 0318/0418 09008KT CAVOK=
201904032300 TAF LROP 032300Z 0400/0424 06008KT CAVOK=
201904040500 TAF LROP 040500Z 0406/0506 09010KT CAVOK=
201904041100 TAF LROP 041100Z 0412/0512 09010KT CAVOK
                      PROB30 TEMPO 0502/0507 BKN010=
201904041700 TAF LROP 041700Z 0418/0518 10010KT CAVOK
                      PROB30 TEMPO 0502/0507 BKN010=
201904042300 TAF LROP 042300Z 0500/0524 06010KT CAVOK
                      PROB30 TEMPO 0502/0507 BKN010=
201904050500 TAF LROP 050500Z 0506/0606 07014KT CAVOK=
201904051100 TAF LROP 051100Z 0512/0612 09014KT CAVOK
                      PROB40 TEMPO 0602/0606 BKN010=
201904051700 TAF LROP 051700Z 0518/0618 08014KT CAVOK
                      BECMG 0522/0524 BKN015
                      PROB30 TEMPO 0600/0606 BKN010
                      BECMG 0607/0609 NSC=
201904052300 TAF LROP 052300Z 0600/0624 08012KT CAVOK
                      TEMPO 0600/0606 BKN015=
201904060500 TAF LROP 060500Z 0606/0706 06014KT 9999 BKN025
                      TEMPO 0607/0614 07016G26KT=
201904061100 TAF LROP 061100Z 0612/0712 08015KT 9999 BKN030
                      PROB30 TEMPO 0612/0615 07015G25KT
                      BECMG 0618/0620 09006KT
                      BECMG 0708/0710 5000 -RA BKN015 OVC030
                      TEMPO 0710/0712 3000 SHRA BKN010 SCT020CB
                       OVC025=
201904061700 TAF LROP 061700Z 0618/0718 09008KT CAVOK
                      PROB40 TEMPO 0708/0713 5000 -RA BKN015 BKN030=
201904062300 TAF LROP 062300Z 0700/0724 06008KT CAVOK
                      PROB40 TEMPO 0708/0713 5000 -RA BKN015 BKN030
                       BECMG 0720/0722 BKN015 BKN030=
201904070500 TAF LROP 070500Z 0706/0806 05010KT CAVOK
                      TEMPO 0706/0714 5000 -SHRA FEW040CB BKN045
                       PROB40
                      TEMPO 0720/0723 5000 -SHRA SCT035CB=
201904071100 TAF LROP 071100Z 0712/0812 07008KT 9999 SCT045
                      TEMPO 0712/0715 5000 -RA
                      PROB30 TEMPO 0720/0723 5000 -SHRA SCT035CB
                       TEMPO 0807/0811 5000 -RA BKN015 BKN035=
201904071700 TAF LROP 071700Z 0718/0818 VRB04KT 9999 SCT035
                      PROB30 TEMPO 0718/0723 5000 -RA BKN015 OVC030
                       BECMG 0806/0808 07014KT
                      TEMPO 0809/0815 3000 RA BKN010 OVC025=
201904072300 TAF LROP 072300Z 0800/0824 VRB04KT 9999 SCT035
                      BECMG 0806/0808 07012KT
                      TEMPO 0809/0815 3000 RA BKN010 OVC025=
201904080500 TAF LROP 080500Z 0806/0906 06008KT 9999 BKN035
                      TEMPO 0806/0815 5000 -RA BKN015 FEW030CB
                       OVC035
                      PROB40 TEMPO 0815/0819 3000 -RA BR BKN010
                       OVC030=
201904081017 TAF AMD LROP 081017Z 0810/0906 06008KT 5000 BR BKN010 OVC035
                      BECMG 0811/0813 9999 NSW
                      PROB40 TEMPO 0814/0819 3000 -RA BR BKN005
                       OVC030
                      BECMG 0820/0822 BKN035=
201904081100 TAF LROP 081100Z 0812/0912 05010KT 5000 -RADZ BR BKN007 OVC035
                       TEMPO 0812/0819 3000 -RA BR BKN002 OVC030
                       BECMG 0821/0823 9999 NSW BKN035
                      BECMG 0910/0912 5000 -RA BR BKN010 OVC040=
201904081700 TAF LROP 081700Z 0818/0918 05012KT 5000 BR BKN005 OVC030
                      BECMG 0819/0822 9999 NSW SCT010 BKN035
                      TEMPO 0909/0915 5000 -SHRA SCT040CB=
201904082300 TAF AMD LROP 090335Z 0903/0924 05012KT 9999 BKN040
                      TEMPO 0903/0906 3000 BR BKN010 BKN030
                      TEMPO 0909/0915 5000 -SHRA SCT035CB BKN040
                       TEMPO 0920/0924 5000 -RA=
201904090335 TAF AMD LROP 090335Z 0903/0924 05012KT 9999 BKN040
                      TEMPO 0903/0906 3000 BR BKN010 BKN030
                      TEMPO 0909/0915 5000 -SHRA SCT035CB BKN040
                       TEMPO 0920/0924 5000 -RA=
201904090500 TAF LROP 090500Z 0906/1006 06016KT CAVOK
                      PROB30 TEMPO 0912/0917 5000 -SHRA SCT015
                       SCT030CB BKN045
                      BECMG 0918/0920 08006KT
                      TEMPO 1002/1006 5000 -RA BKN015 BKN045=
201904091100 TAF LROP 091100Z 0912/1012 06016KT CAVOK
                      PROB30 TEMPO 0912/0916 5000 -SHRA SCT015
                       SCT040CB BKN045
                      BECMG 0918/0920 08006KT
                      TEMPO 1002/1008 5000 -RA BKN015 BKN045=
201904091700 TAF LROP 091700Z 0918/1018 06008KT 9999 FEW050CB
                      BECMG 0918/0919 NSC
                      TEMPO 1000/1008 5000 -RA BR BKN010 FEW030CB
                       BKN045
                      TEMPO 1008/1014 5000 -SHRA SCT015 SCT035CB
                       BECMG 1016/1018 5000 -RA BKN010 FEW030CB
                       OVC045=
201904092300 TAF LROP 092300Z 1000/1024 04006KT CAVOK
                      TEMPO 1000/1008 5000 -RA BR BKN010 FEW030CB
                       BKN045
                      TEMPO 1008/1014 5000 -SHRA SCT015 SCT035CB
                       BECMG 1017/1019 5000 -RA BKN010 FEW030CB
                       OVC045=
201904100500 TAF LROP 100500Z 1006/1106 05006KT CAVOK
                      PROB40 TEMPO 1006/1010 5000 -RA BR BKN015
                       BKN045
                      BECMG 1018/1020 5000 -RA BR BKN015 BKN035
                       TEMPO 1023/1104 3000 SHRA BKN010 SCT025CB
                       OVC030=
201904101100 TAF LROP 101100Z 1012/1112 VRB04KT CAVOK
                      BECMG 1018/1020 5000 -RA BR BKN015 BKN035
                       TEMPO 1023/1104 3000 SHRA BKN010 SCT025CB
                       OVC030
                      TEMPO 1110/1112 3000 SHRA BKN010 SCT025CB
                       OVC030=
201904101700 TAF LROP 101700Z 1018/1118 05008KT CAVOK
                      PROB40 TEMPO 1018/1021 3000 SHRA SCT015 SCT035CB
                       BKN045
                      TEMPO 1022/1104 5000 -RA BKN015 OVC040
                      TEMPO 1112/1116 5000 -SHRA SCT035CB
                      PROB30 TEMPO 1112/1115 3000 TSRA SCT015 BKN030CB=
201904102300 TAF AMD LROP 110430Z 1104/1124 VRB04KT 3000 -RA BR BKN002 BKN010
                       BECMG 1106/1108 5000 BKN010 BKN030
                      BECMG 1108/1110 9999 NSW SCT040
                      TEMPO 1112/1116 5000 -SHRA SCT035CB
                      PROB30 TEMPO 1112/1115 3000 TSRA SCT015 BKN030CB=
201904110430 TAF AMD LROP 110430Z 1104/1124 VRB04KT 3000 -RA BR BKN002 BKN010
                       BECMG 1106/1108 5000 BKN010 BKN030
                      BECMG 1108/1110 9999 NSW SCT040
                      TEMPO 1112/1116 5000 -SHRA SCT035CB
                      PROB30 TEMPO 1112/1115 3000 TSRA SCT015 BKN030CB=
201904110500 TAF LROP 110500Z 1106/1206 06008KT 9999 BKN002 BKN020
                      BECMG 1106/1108 SCT010 BKN030
                      TEMPO 1111/1116 5000 -SHRA SCT035CB
                      PROB30 TEMPO 1112/1115 3000 TSRA SCT015 BKN030CB
                       BECMG 1120/1122 3000 BR BKN010
                      BECMG 1122/1124 1500 BR BKN005
                      BECMG 1200/1202 0600 FG BKN002
                      TEMPO 1202/1206 0150 FG VV001=
201904110922 TAF AMD LROP 110922Z 1109/1206 07008KT 5000 RA BKN005 BKN025
                      BECMG 1109/1111 9999 NSW SCT010 BKN030
                      TEMPO 1112/1116 5000 -SHRA BR SCT035CB
                      PROB30 TEMPO 1112/1115 3000 TSRA SCT015 BKN030CB
                       BECMG 1120/1122 3000 BR BKN010
                      BECMG 1122/1124 1500 BR BKN005
                      BECMG 1200/1202 0600 FG BKN002
                      TEMPO 1202/1206 0150 FG VV001=
201904111100 TAF LROP 111100Z 1112/1212 07008KT 9999 BKN010 BKN025
                      BECMG 1112/1114 SCT015 BKN040
                      TEMPO 1114/1118 5000 -SHRA SCT015 SCT030CB
                       BKN040
                      PROB30 1114/1117 TSRA
                      BECMG 1120/1122 3000 BR BKN010
                      BECMG 1122/1124 1500 BR BKN005
                      BECMG 1200/1202 0600 FG BKN002
                      TEMPO 1202/1206 0150 FG VV001
                      BECMG 1207/1209 1500 BR BKN005
                      BECMG 1209/1211 5000 SCT020=
201904111700 TAF LROP 111700Z 1118/1218 07008KT 5000 -RA BR BKN020 BKN035
                      TEMPO 1118/1121 3000 SHRA BR BKN010 SCT020CB
                       BKN030
                      BECMG 1121/1123 1500 BR BKN005 BKN030
                      TEMPO 1201/1205 0600 FG BKN002
                      BECMG 1205/1207 3000 BKN010 BKN035
                      BECMG 1209/1211 9999 NSW SCT040
                      TEMPO 1209/1215 5000 -RA BR BKN015 OVC030=
201904112118 TAF AMD LROP 112118Z 1121/1218 VRB04KT 9999 BKN035
                      BECMG 1122/1124 5000 BR
                      TEMPO 1201/1205 1500 BR BKN005
                      BECMG 1205/1207 9999 NSW
                      PROB40 TEMPO 1211/1217 5000 -SHRA BKN015
                       SCT030CB OVC035=
201904112300 TAF LROP 112300Z 1200/1224 07006KT 9999 BKN035
                      TEMPO 1200/1205 3000 BR BKN010
                      PROB40 TEMPO 1211/1217 5000 -SHRA BKN015
                       SCT030CB OVC035=
201904120500 TAF LROP 120500Z 1206/1306 08010KT 9999 BKN020
                      TEMPO 1206/1209 BKN015 FEW030CB
                      TEMPO 1209/1215 5000 -SHRA SCT020 SCT035CB
                       BECMG 1301/1303 5000 RA BKN015 OVC030=
201904121100 TAF LROP 121100Z 1212/1312 08012KT 9999 BKN035
                      TEMPO 1213/1217 SCT015 SCT035CB
                      BECMG 1301/1303 5000 RA BKN015 OVC030
                      TEMPO 1308/1312 3000 RA BKN010 FEW030CB OVC035=
201904121700 TAF LROP 121700Z 1218/1318 06014KT 9999 BKN035
                      BECMG 1219/1221 5000 -RA BR BKN015 OVC030
                       TEMPO 1308/1316 06018G28KT 3000 SHRA BKN010
                       SCT030CB OVC035=
201904122300 TAF LROP 122300Z 1300/1324 06015KT 7000 -RA BKN015 BKN035
                      TEMPO 1300/1318 3000 SHRA BKN010 SCT030CB
                       OVC035
                      TEMPO 1308/1316 06018G28KT=
201904130500 TAF LROP 130500Z 1306/1406 07012KT 5000 -RA OVC025
                      TEMPO 1306/1311 3000 SHRA BKN010 SCT025CB
                       OVC030
                      TEMPO 1311/1316 04015G25KT
                      PROB40 TEMPO 1313/1316 3000 SHRA BKN010 SCT030CB
                       OVC035
                      BECMG 1317/1319 9999 NSW=
201904131100 TAF LROP 131100Z 1312/1412 06012KT 5000 -RA SCT010 OVC020
                      PROB40 TEMPO 1313/1316 3000 SHRA BKN010 SCT030CB
                       OVC035
                      BECMG 1317/1319 9999 NSW=
201904131700 TAF LROP 131700Z 1318/1418 06010KT 9999 SCT015 BKN035
                      TEMPO 1320/1404 BKN010 OVC030=
201904132300 TAF LROP 132300Z 1400/1424 06012KT 9999 SCT015 BKN030
                      TEMPO 1400/1406 BKN010 OVC030=
201904140500 TAF LROP 140500Z 1406/1506 06012KT 9999 BKN040
                      TEMPO 1407/1415 -RA BKN010 OVC020
                      TEMPO 1412/1419 06015G25KT
                      TEMPO 1500/1505 3000 BR BKN010 BKN020=
201904141100 TAF LROP 141100Z 1412/1512 06012KT 9999 BKN040
                      PROB30 TEMPO 1412/1419 06015G25KT
                      TEMPO 1500/1505 3000 BR BKN010 BKN020=
201904141700 TAF LROP 141700Z 1418/1518 09008KT 9999 BKN040
                      TEMPO 1501/1505 3000 BR BKN010
                      PROB40 TEMPO 1514/1517 SCT040CB=
201904142300 TAF LROP 142300Z 1500/1524 VRB04KT CAVOK
                      TEMPO 1501/1505 3000 BR BKN010
                      TEMPO 1510/1514 27010KT
                      PROB40 TEMPO 1514/1517 SCT040CB=
201904150500 TAF LROP 150500Z 1506/1606 07008KT CAVOK
                      PROB40 TEMPO 1514/1519 5000 -SHRA SCT040CB
                       TEMPO 1600/1605 5000 BR BKN005=
201904151100 TAF LROP 151100Z 1512/1612 VRB04KT CAVOK
                      TEMPO 1513/1519 5000 -SHRA SCT040CB
                      TEMPO 1600/1605 5000 BR BKN005
                      BECMG 1607/1609 26010KT=
201904151700 TAF LROP 151700Z 1518/1618 VRB04KT 9999 BKN045
                      TEMPO 1600/1605 5000 -DZ BR BKN005 OVC020
                       BECMG 1607/1609 26010KT
                      PROB30 TEMPO 1611/1617 5000 -SHRA BKN010
                       SCT020CB=
201904152300 TAF LROP 152300Z 1600/1624 VRB04KT 9999 BKN045
                      TEMPO 1600/1605 5000 -DZ BR BKN005 OVC020
                       BECMG 1607/1609 26010KT
                      PROB40 TEMPO 1611/1617 5000 -SHRA BKN010
                       SCT020CB
                      BECMG 1620/1622 08006KT=
201904160500 TAF LROP 160500Z 1606/1706 26010KT 9999 SCT030
                      TEMPO 1614/1617 5000 -SHRA BKN010 SCT030CB
                       BECMG 1620/1622 08006KT=
201904161100 TAF LROP 161100Z 1612/1712 26010KT 9999 SCT040
                      PROB40 TEMPO 1614/1617 5000 -SHRA BKN010
                       SCT040CB
                      BECMG 1618/1620 08006KT
                      BECMG 1710/1712 FEW035CB=
201904161700 TAF LROP 161700Z 1618/1718 08015KT CAVOK
                      TEMPO 1618/1621 5000 -SHRA SCT040CB
                      BECMG 1623/1701 06005KT
                      TEMPO 1714/1718 5000 -SHRA SCT045CB=
201904162300 TAF LROP 162300Z 1700/1724 09006KT CAVOK
                      TEMPO 1714/1718 5000 -SHRA SCT045CB=
201904170500 TAF LROP 170500Z 1706/1806 VRB04KT CAVOK
                      PROB30 TEMPO 1715/1718 5000 -SHRA SCT045CB=
201904171100 TAF LROP 171100Z 1712/1812 VRB04KT CAVOK
                      PROB30 TEMPO 1715/1718 5000 -SHRA SCT040CB
                       BECMG 1806/1808 06015KT
                      TEMPO 1806/1812 5000 -RA BKN015 BKN035=
201904171700 TAF LROP 171700Z 1718/1818 06012KT CAVOK
                      TEMPO 1718/1719 FEW050CB
                      TEMPO 1806/1812 06016G26KT 5000 -RA BR BKN015
                       BKN035=
201904172300 TAF AMD LROP 180347Z 1803/1824 VRB04KT 9999 BKN025
                      BECMG 1807/1809 06012KT
                      TEMPO 1809/1814 06016G26KT 5000 -RA BR BKN010
                       OVC020
                      BECMG 1816/1818 VRB04KT=
201904180347 TAF AMD LROP 180347Z 1803/1824 VRB04KT 9999 BKN025
                      BECMG 1807/1809 06012KT
                      TEMPO 1809/1814 06016G26KT 5000 -RA BR BKN010
                       OVC020
                      BECMG 1816/1818 VRB04KT=
201904180500 TAF LROP 180500Z 1806/1906 VRB04KT 9999 BKN030
                      BECMG 1806/1808 06010KT
                      TEMPO 1809/1815 07015G25KT 5000 RA BKN010
                       OVC025=
201904180752 TAF AMD LROP 180752Z 1807/1906 05010KT 9999 BKN025
                      TEMPO 1807/1814 07015G25KT 3000 RA BKN010
                       OVC020
                      BECMG 1816/1818 VRB04KT=
201904181100 TAF LROP 181100Z 1812/1912 07015KT 9999 BKN035
                      TEMPO 1812/1816 5000 RA BKN010 OVC025
                      BECMG 1817/1819 VRB04KT
                      TEMPO 1909/1912 3000 SHRA BKN010 SCT025CB
                       OVC030=
201904181700 TAF LROP 181700Z 1818/1918 26008KT CAVOK
                      BECMG 1909/1911 SCT040CB
                      TEMPO 1911/1916 5000 -SHRA
                      PROB40 TEMPO 1911/1913 VRB18KT 3000 TSRA
                       SCT015 BKN035CB
                      BECMG 1916/1918 06012KT NSC=
201904182300 TAF LROP 182300Z 1900/1924 28008KT CAVOK
                      BECMG 1909/1911 SCT040CB
                      TEMPO 1911/1916 5000 -SHRA
                      PROB40 TEMPO 1911/1913 VRB18KT 3000 TSRA
                       SCT015 BKN035CB
                      BECMG 1916/1918 06012KT NSC
                      BECMG 1921/1923 VRB04KT=
201904190500 TAF LROP 190500Z 1906/2006 27007KT CAVOK
                      BECMG 1908/1910 33012KT SCT040CB
                      TEMPO 1910/1916 5000 -SHRA
                      PROB40 TEMPO 1911/1914 VRB20G30KT 3000 TSRA
                       SCT015 BKN035CB
                      BECMG 1916/1918 06012KT NSC
                      BECMG 1921/1923 VRB04KT=
201904191100 TAF LROP 191100Z 1912/2012 06012KT 9999 SCT040CB
                      TEMPO 1912/1916 VRB20G30KT 3000 TSRA SCT015
                       BKN035CB
                      BECMG 1916/1918 NSC
                      BECMG 1921/1923 VRB04KT
                      BECMG 2007/2009 03010KT
                      PROB30 TEMPO 2009/2012 5000 -SHRA SCT040CB=
201904191700 TAF LROP 191700Z 1918/2018 05014KT CAVOK
                      TEMPO 1918/1923 VRB15G25KT 3000 SHRA BKN010
                       BKN030CB
                      BECMG 1923/2001 VRB04KT
                      BECMG 2007/2009 06012KT
                      PROB30 TEMPO 2010/2015 5000 SHRA SCT025CB
                       BKN030=
201904192300 TAF LROP 192300Z 2000/2024 VRB04KT CAVOK
                      TEMPO 2000/2005 3000 BR
                      BECMG 2007/2009 06012KT
                      PROB30 TEMPO 2010/2015 5000 SHRA SCT025CB
                       BKN030
                      BECMG 2016/2018 VRB04KT=
201904200500 TAF LROP 200500Z 2006/2106 34006KT CAVOK
                      BECMG 2007/2009 04011KT
                      TEMPO 2008/2012 SCT040CB
                      BECMG 2015/2017 VRB04KT=
201904201100 TAF LROP 201100Z 2012/2112 04010KT 9999 SCT040
                      BECMG 2015/2017 VRB04KT=
201904201700 TAF LROP 201700Z 2018/2118 VRB04KT 9999 SCT045
                      PROB30 TEMPO 2100/2103 SCT045CB
                      PROB30 TEMPO 2112/2118 SCT045CB=
201904202300 TAF LROP 202300Z 2100/2124 VRB04KT 9999 SCT045
                      PROB30 TEMPO 2100/2103 SCT045CB
                      PROB30 TEMPO 2112/2118 SCT045CB=
201904210500 TAF LROP 210500Z 2106/2206 26010KT CAVOK
                      TEMPO 2112/2116 SCT040CB
                      BECMG 2114/2116 VRB04KT
                      TEMPO 2200/2206 5000 -RA -SHRA BKN015 SCT040CB
                       BKN045=
201904211100 TAF LROP 211100Z 2112/2212 25010KT CAVOK
                      BECMG 2113/2115 VRB04KT
                      TEMPO 2113/2116 SCT040CB
                      TEMPO 2200/2206 5000 -RA -SHRA BKN015 SCT040CB
                       BKN045
                      BECMG 2207/2209 08010KT=
201904211700 TAF LROP 211700Z 2118/2218 VRB04KT 9999 SCT040
                      PROB30 TEMPO 2120/2123 5000 -SHRA SCT040CB
                       BKN045
                      TEMPO 2201/2207 5000 -SHRA BKN015 FEW035CB
                       BKN040
                      BECMG 2205/2207 09012KT=
201904212300 TAF LROP 212300Z 2200/2224 VRB04KT 9999 FEW050CB
                      TEMPO 2200/2203 5000 -SHRA
                      BECMG 2203/2205 NSC
                      BECMG 2206/2208 09010KT=
201904220500 TAF LROP 220500Z 2206/2306 09012KT CAVOK=
201904221100 TAF LROP 221100Z 2212/2312 09014KT CAVOK=
201904221700 TAF LROP 221700Z 2218/2318 09014KT CAVOK=
201904222300 TAF LROP 222300Z 2300/2324 09006KT CAVOK
                      BECMG 2307/2309 09016KT
                      BECMG 2315/2317 12006KT=
201904230500 TAF LROP 230500Z 2306/2406 04010KT CAVOK
                      BECMG 2307/2309 10016KT
                      PROB40 TEMPO 2318/2321 SCT040CB
                      BECMG 2319/2321 11006KT
                      TEMPO 2323/2403 5000 -SHRA SCT035CB=
201904231100 TAF LROP 231100Z 2312/2412 10016KT CAVOK
                      BECMG 2319/2321 09006KT
                      PROB30 TEMPO 2321/2403 5000 -SHRA SCT035CB=
201904231700 TAF LROP 231700Z 2318/2418 08012KT CAVOK
                      TEMPO 2318/2322 5000 -SHRA SCT030CB BKN035=
201904232300 TAF LROP 232300Z 2400/2424 08012KT CAVOK
                      PROB40 TEMPO 2400/2404 5000 -SHRA SCT030CB
                       BKN035=
201904240500 TAF LROP 240500Z 2406/2506 07012KT CAVOK
                      TEMPO 2500/2504 3000 BR=
201904241100 TAF LROP 241100Z 2412/2512 07012KT CAVOK
                      TEMPO 2500/2504 3000 BR=
201904241700 TAF LROP 241700Z 2418/2518 06012KT CAVOK
                      PROB30 TEMPO 2500/2504 3000 BR BKN005=
201904242300 TAF LROP 242300Z 2500/2524 04012KT CAVOK
                      PROB30 TEMPO 2501/2504 3000 BR BKN005=
201904250500 TAF LROP 250500Z 2506/2606 07012KT CAVOK=
201904251100 TAF LROP 251100Z 2512/2612 07007KT CAVOK=
201904251700 TAF LROP 251700Z 2518/2618 09010KT CAVOK=
201904252300 TAF LROP 252300Z 2600/2624 06007KT CAVOK=
201904260500 TAF LROP 260500Z 2606/2706 06007KT CAVOK=
201904261100 TAF LROP 261100Z 2612/2712 06007KT CAVOK=
201904261700 TAF LROP 261700Z 2618/2718 08007KT CAVOK
                      BECMG 2715/2717 14012KT=
201904262300 TAF LROP 262300Z 2700/2724 08007KT CAVOK
                      BECMG 2715/2717 14012KT
                      BECMG 2717/2719 23012KT
                      TEMPO 2719/2721 SCT045CB
                      PROB40 TEMPO 2721/2724 VRB18KT 3000 TSRA
                       BKN010 BKN040CB=
201904270500 TAF LROP 270500Z 2706/2806 08006KT CAVOK
                      BECMG 2715/2717 15010KT
                      BECMG 2721/2723 25010KT
                      TEMPO 2722/2803 5000 SHRA SCT040CB
                      PROB30 TEMPO 2723/2802 VRB20KT 3000 TSRA
                       BKN010 BKN035CB=
201904271100 TAF LROP 271100Z 2712/2812 11008KT CAVOK
                      BECMG 2720/2722 25010KT
                      TEMPO 2722/2804 5000 SHRA SCT040CB
                      PROB30 TEMPO 2722/2802 VRB20KT 3000 TSRA
                       SCT010 BKN035CB
                      TEMPO 2809/2812 25015G25KT=
201904271700 TAF LROP 271700Z 2718/2818 13010KT CAVOK
                      TEMPO 2719/2802 3000 TSRA BKN010 BKN025CB
                       PROB30
                      TEMPO 2719/2724 VRB25G35KT 1500 +TSRA SQ
                       BECMG 2800/2802 27010KT
                      TEMPO 2809/2815 25015G25KT SCT030CB=
201904272300 TAF LROP 272300Z 2800/2824 28010KT CAVOK
                      PROB30 TEMPO 2800/2803 3000 SHRA SCT030CB
                       TEMPO 2809/2815 25015G25KT SCT030CB=
201904280500 TAF LROP 280500Z 2806/2906 25016KT CAVOK
                      BECMG 2817/2819 26006KT=
201904281100 TAF LROP 281100Z 2812/2912 25016KT 9999 SCT040
                      BECMG 2817/2819 26006KT=
201904281700 TAF LROP 281700Z 2818/2918 25010KT CAVOK
                      BECMG 2914/2916 VRB04KT=
201904282300 TAF LROP 282300Z 2900/2924 23008KT CAVOK=
201904290500 TAF LROP 290500Z 2906/3006 25007KT CAVOK
                      PROB40 TEMPO 2912/2917 SCT040CB
                      BECMG 3004/3006 5000 -RA BR BKN015 OVC035=
201904291100 TAF LROP 291100Z 2912/3012 25008KT CAVOK
                      BECMG 3004/3006 5000 -RA BR BKN015 OVC035
                       PROB30
                      TEMPO 3006/3012 3000 TSRA BKN010 SCT030CB=
201904291700 TAF LROP 291700Z 2918/3018 VRB04KT CAVOK
                      BECMG 3000/3002 32010KT
                      PROB40 TEMPO 3003/3007 5000 -SHRA BR SCT010
                       SCT040CB
                      BECMG 3007/3009 06008KT SCT040CB BKN045
                      TEMPO 3009/3018 5000 -SHRA BKN010 SCT030CB
                       BKN045
                      PROB40 TEMPO 3010/3016 3000 TSRA
                      BECMG 3016/3018 28014KT NSC=
201904292300 TAF LROP 292300Z 3000/3024 06008KT CAVOK
                      TEMPO 3000/3003 FEW050CB
                      PROB40 TEMPO 3003/3007 34010KT 5000 -SHRA
                       BR SCT010 SCT040CB
                      BECMG 3007/3009 SCT035CB BKN040
                      TEMPO 3009/3015 VRB20KT 3000 -TSRA BKN010
                       SCT030CB BKN045
                      TEMPO 3015/3017 5000 -SHRA
                      BECMG 3017/3019 28014KT NSC=
201904300500 TAF LROP 300500Z 3006/0106 07008KT CAVOK
                      TEMPO 3011/3016 VRB20G30KT 3000 TSRA BKN005
                       BKN030CB
                      PROB30 3011/3015 1500 +TSRA
                      BECMG 3017/3019 26014KT=
201904301100 TAF LROP 301100Z 3012/0112 08008KT CAVOK
                      TEMPO 3012/3017 VRB20G30KT 3000 TSRA BKN005
                       BKN025CB
                      PROB40 3012/3016 1500 +TSRA
                      BECMG 3017/3019 26014KT=
201904301259 TAF AMD LROP 301259Z 3012/0112 08008KT CAVOK
                      TEMPO 3012/3017 VRB25G35KT 3000 TSRA SQ BKN005
                       BKN025CB
                      PROB40 3012/3016 1500 +TSRAGR
                      BECMG 3017/3019 26014KT=
201904301700 TAF LROP 301700Z 3018/0118 26006KT CAVOK
                      BECMG 0102/0104 25016KT
                      PROB40 TEMPO 0104/0114 24020G30KT
                      BECMG 0116/0118 25006KT=
201904302300 TAF LROP 302300Z 0100/0124 26016KT CAVOK
                      PROB40 TEMPO 0104/0114 24020G30KT
                      BECMG 0117/0119 25006KT=
