201904010000 METAR LROP 010000Z 00000KT CAVOK 06/01 Q1015 R88/09//95 NOSIG=
201904010030 METAR LROP 010030Z 02004KT CAVOK 06/02 Q1014 R88/09//95 NOSIG=
201904010100 METAR LROP 010100Z VRB02KT CAVOK 05/02 Q1015 R88/09//95 NOSIG=
201904010130 METAR LROP 010130Z VRB01KT CAVOK 05/01 Q1015 R88/09//95 NOSIG=
201904010200 METAR LROP 010200Z VRB01KT 8000 NSC 04/01 Q1015 R88/09//95
                        NOSIG=
201904010230 METAR LROP 010230Z 00000KT 8000 NSC 04/02 Q1015 R88/09//95
                        NOSIG=
201904010300 METAR LROP 010300Z 33003KT 8000 NSC 03/01 Q1015 R88/09//95
                        NOSIG=
201904010330 METAR LROP 010330Z 00000KT CAVOK 04/02 Q1015 R88/09//95 NOSIG=
201904010400 METAR LROP 010400Z VRB01KT CAVOK 03/01 Q1015 R88/09//95 NOSIG=
201904010430 METAR LROP 010430Z 34003KT 320V030 CAVOK 04/01 Q1015 R88/09//95
                        NOSIG=
201904010500 METAR LROP 010500Z VRB02KT CAVOK 06/02 Q1016 R88/09//95 NOSIG=
201904010530 METAR LROP 010530Z 08003KT 030V110 CAVOK 09/03 Q1016 R88/09//95
                        NOSIG=
201904010600 METAR COR LROP 010600Z 07003KT 330V110 CAVOK 09/04 Q1016
                        R88/09//95 NOSIG=
201904010630 METAR LROP 010630Z VRB01KT CAVOK 11/03 Q1016 R88/09//95 NOSIG=
201904010700 METAR LROP 010700Z VRB01KT CAVOK 11/03 Q1016 R88/09//95 NOSIG=
201904010730 METAR LROP 010730Z 00000KT CAVOK 15/03 Q1016 R88/09//95 NOSIG=
201904010800 METAR LROP 010800Z VRB01KT CAVOK 16/02 Q1016 R88/09//95 NOSIG=
201904010830 METAR LROP 010830Z 05004KT 010V090 CAVOK 18/03 Q1016 R88/09//95
                        NOSIG=
201904010900 METAR LROP 010900Z 06006KT 040V100 CAVOK 19/02 Q1016 R88/09//95
                        NOSIG=
201904010930 METAR LROP 010930Z 06010KT 030V100 CAVOK 20/01 Q1016 R88/09//95
                        NOSIG=
201904011000 METAR LROP 011000Z 09011KT CAVOK 21/01 Q1016 R88/09//95 NOSIG=
201904011030 METAR LROP 011030Z 06011KT 030V090 CAVOK 22/M00 Q1015 R88/09//95
                        NOSIG=
201904011100 METAR LROP 011100Z 08015KT CAVOK 22/00 Q1015 R88/09//95 NOSIG=
201904011130 METAR LROP 011130Z 05018KT CAVOK 22/M02 Q1015 R88/09//95
                        NOSIG=
201904011200 METAR LROP 011200Z 05016G26KT CAVOK 22/M02 Q1015 R88/09//95
                        NOSIG=
201904011230 METAR LROP 011230Z 08020KT CAVOK 23/M03 Q1015 R88/09//95
                        NOSIG=
201904011300 METAR LROP 011300Z 07019KT CAVOK 22/M01 Q1014 R88/09//95
                        NOSIG=
201904011330 METAR LROP 011330Z 06018KT CAVOK 22/M02 Q1014 R88/09//95
                        NOSIG=
201904011400 METAR LROP 011400Z 07020KT CAVOK 21/M01 Q1014 R88/09//95
                        NOSIG=
201904011430 METAR LROP 011430Z 06020KT CAVOK 21/M00 Q1014 R88/09//95
                        NOSIG=
201904011500 METAR LROP 011500Z 06020KT CAVOK 20/M00 Q1015 R88/09//95
                        NOSIG=
201904011530 METAR LROP 011530Z 06020KT CAVOK 20/M00 Q1015 R88/09//95
                        NOSIG=
201904011600 METAR LROP 011600Z 06016KT CAVOK 19/M00 Q1015 R88/09//95
                        NOSIG=
201904011630 METAR LROP 011630Z 06019KT CAVOK 18/M00 Q1015 R88/09//95
                        NOSIG=
201904011700 METAR LROP 011700Z 05018KT CAVOK 17/00 Q1016 R88/09//95 NOSIG=
201904011730 METAR LROP 011730Z 06016KT CAVOK 17/00 Q1016 R88/09//95 NOSIG=
201904011800 METAR COR LROP 011800Z 06016KT CAVOK 16/01 Q1016 R88/09//95
                        NOSIG=
201904011830 METAR LROP 011830Z 06016KT CAVOK 15/01 Q1017 R88/09//95 NOSIG=
201904011900 METAR LROP 011900Z 05015KT CAVOK 15/01 Q1017 R88/09//95 NOSIG=
201904011930 METAR LROP 011930Z 05017KT CAVOK 14/01 Q1018 R88/09//95 NOSIG=
201904012000 METAR LROP 012000Z 05018KT CAVOK 13/00 Q1018 R88/09//95 NOSIG=
201904012030 METAR LROP 012030Z 05018KT CAVOK 13/00 Q1018 R88/09//95 NOSIG=
201904012100 METAR LROP 012100Z 05016KT CAVOK 13/00 Q1018 R88/09//95 NOSIG=
201904012130 METAR LROP 012130Z 05021KT CAVOK 12/M00 Q1019 R88/09//95
                        NOSIG=
201904012200 METAR LROP 012200Z 05020KT CAVOK 12/M03 Q1019 R88/09//95
                        NOSIG=
201904012230 METAR LROP 012230Z 05019KT CAVOK 11/M06 Q1019 R88/09//95
                        NOSIG=
201904012300 METAR LROP 012300Z 06018KT CAVOK 11/M07 Q1019 R88/09//95
                        NOSIG=
201904012330 METAR LROP 012330Z 06019KT CAVOK 11/M07 Q1020 R88/09//95
                        NOSIG=
201904020000 METAR LROP 020000Z 05017KT CAVOK 11/M08 Q1020 R88/09//95
                        NOSIG=
201904020030 METAR LROP 020030Z 06016KT CAVOK 11/M08 Q1020 R88/09//95
                        NOSIG=
201904020100 METAR LROP 020100Z 05017KT CAVOK 11/M08 Q1021 R88/09//95
                        NOSIG=
201904020130 METAR LROP 020130Z 06018KT CAVOK 11/M07 Q1021 R88/09//95
                        NOSIG=
201904020200 METAR LROP 020200Z 07017KT CAVOK 11/M07 Q1021 R88/09//95
                        NOSIG=
201904020230 METAR LROP 020230Z 07017KT CAVOK 10/M07 Q1022 R88/09//95
                        NOSIG=
201904020300 METAR LROP 020300Z 07020KT CAVOK 10/M07 Q1022 R88/09//95
                        NOSIG=
201904020330 METAR LROP 020330Z 07020KT CAVOK 10/M07 Q1022 R88/09//95
                        NOSIG=
201904020400 METAR LROP 020400Z 07020KT CAVOK 09/M08 Q1022 R88/09//95
                        NOSIG=
201904020430 METAR LROP 020430Z 07021KT CAVOK 09/M08 Q1022 R88/09//95
                        NOSIG=
201904020500 METAR LROP 020500Z 07020KT CAVOK 08/M10 Q1023 R88/09//95
                        NOSIG=
201904020530 METAR LROP 020530Z 07021KT CAVOK 09/M11 Q1023 R88/09//95
                        NOSIG=
201904020600 METAR LROP 020600Z 06020KT CAVOK 09/M11 Q1024 R88/09//95
                        NOSIG=
201904020630 METAR LROP 020630Z 07021KT CAVOK 09/M11 Q1024 R88/09//95
                        NOSIG=
201904020700 METAR LROP 020700Z 07020KT CAVOK 10/M10 Q1024 R88/09//95
                        NOSIG=
201904020730 METAR LROP 020730Z 07020KT CAVOK 09/M10 Q1024 R88/09//95
                        NOSIG=
201904020800 METAR LROP 020800Z 07019KT CAVOK 10/M10 Q1024 R88/09//95
                        NOSIG=
201904020830 METAR LROP 020830Z 07020KT CAVOK 10/M11 Q1025 R88/09//95
                        NOSIG=
201904020900 METAR LROP 020900Z 07020KT CAVOK 11/M10 Q1025 R88/09//95
                        NOSIG=
201904020930 METAR LROP 020930Z 06021KT CAVOK 11/M11 Q1024 R88/09//95
                        NOSIG=
201904021000 METAR LROP 021000Z 06021KT CAVOK 11/M10 Q1024 R88/09//95
                        NOSIG=
201904021030 METAR LROP 021030Z 06022KT CAVOK 11/M10 Q1024 R88/09//95
                        NOSIG=
201904021100 METAR LROP 021100Z 06018KT CAVOK 11/M10 Q1024 R88/09//95
                        NOSIG=
201904021130 METAR LROP 021130Z 06016KT CAVOK 11/M09 Q1024 R88/09//95
                        NOSIG=
201904021200 METAR LROP 021200Z 07015KT CAVOK 11/M08 Q1024 R88/09//95
                        NOSIG=
201904021230 METAR LROP 021230Z 06013KT CAVOK 10/M09 Q1024 R88/09//95
                        NOSIG=
201904021300 METAR LROP 021300Z 06014KT CAVOK 11/M08 Q1023 R88/09//95
                        NOSIG=
201904021330 METAR LROP 021330Z 09010KT CAVOK 11/M06 Q1023 R88/09//95
                        NOSIG=
201904021400 METAR LROP 021400Z 08010KT 050V110 CAVOK 12/M09 Q1023 R88/09//95
                        NOSIG=
201904021430 METAR LROP 021430Z 07011KT CAVOK 12/M08 Q1023 R88/09//95
                        NOSIG=
201904021500 METAR LROP 021500Z 08010KT CAVOK 12/M09 Q1022 R88/09//95
                        NOSIG=
201904021530 METAR LROP 021530Z 07010KT CAVOK 11/M10 Q1022 R88/09//95
                        NOSIG=
201904021600 METAR LROP 021600Z 08007KT CAVOK 10/M09 Q1022 R88/09//95
                        NOSIG=
201904021630 METAR LROP 021630Z 09007KT CAVOK 09/M09 Q1022 R88/09//95
                        NOSIG=
201904021700 METAR LROP 021700Z 07006KT CAVOK 08/M09 Q1022 R88/09//95
                        NOSIG=
201904021730 METAR LROP 021730Z 07007KT CAVOK 08/M10 Q1022 R88/09//95
                        NOSIG=
201904021800 METAR LROP 021800Z 07007KT CAVOK 08/M09 Q1023 R88/09//95
                        NOSIG=
201904021830 METAR LROP 021830Z 07006KT CAVOK 08/M09 Q1023 R88/09//95
                        NOSIG=
201904021900 METAR LROP 021900Z 06006KT CAVOK 08/M09 Q1023 R88/09//95
                        NOSIG=
201904021930 METAR LROP 021930Z 06008KT CAVOK 09/M09 Q1023 R88/09//95
                        NOSIG=
201904022000 METAR LROP 022000Z 07008KT CAVOK 08/M09 Q1023 R88/09//95
                        NOSIG=
201904022030 METAR LROP 022030Z 06007KT CAVOK 07/M09 Q1023 R88/09//95
                        NOSIG=
201904022100 METAR LROP 022100Z 10005KT CAVOK 07/M09 Q1023 R88/09//95
                        NOSIG=
201904022130 METAR LROP 022130Z 09007KT CAVOK 05/M08 Q1023 R88/09//95
                        NOSIG=
201904022200 METAR LROP 022200Z 07007KT CAVOK 03/M07 Q1023 R88/09//95
                        NOSIG=
201904022230 METAR LROP 022230Z 09004KT CAVOK 03/M07 Q1023 R88/09//95
                        NOSIG=
201904022300 METAR LROP 022300Z 06002KT CAVOK 03/M06 Q1023 R88/09//95
                        NOSIG=
201904022330 METAR LROP 022330Z 06002KT CAVOK 03/M06 Q1023 R88/09//95
                        NOSIG=
201904030000 METAR LROP 030000Z 05002KT CAVOK 03/M06 Q1023 R88/09//95
                        NOSIG=
201904030030 METAR LROP 030030Z 01004KT CAVOK 02/M06 Q1023 R88/09//95
                        NOSIG=
201904030100 METAR LROP 030100Z 03004KT CAVOK 02/M05 Q1023 R88/09//95
                        NOSIG=
201904030130 METAR LROP 030130Z 05003KT CAVOK 02/M05 Q1023 R88/09//95
                        NOSIG=
201904030200 METAR LROP 030200Z 04005KT CAVOK 01/M05 Q1022 R88/09//95
                        NOSIG=
201904030230 METAR LROP 030230Z 04003KT CAVOK 02/M05 Q1022 R88/09//95
                        NOSIG=
201904030300 METAR LROP 030300Z 04006KT CAVOK 02/M04 Q1022 R88/09//95
                        NOSIG=
201904030330 METAR LROP 030330Z 05005KT CAVOK 03/M05 Q1022 R88/09//95
                        NOSIG=
201904030400 METAR LROP 030400Z 04005KT CAVOK 03/M05 Q1022 R88/09//95
                        NOSIG=
201904030430 METAR LROP 030430Z 06005KT CAVOK 04/M06 Q1022 R88/09//95
                        NOSIG=
201904030500 METAR LROP 030500Z 05005KT CAVOK 04/M06 Q1023 R88/09//95
                        NOSIG=
201904030530 METAR LROP 030530Z 05006KT CAVOK 04/M07 Q1023 R88/09//95
                        NOSIG=
201904030600 METAR LROP 030600Z 07006KT CAVOK 05/M06 Q1023 R88/09//95
                        NOSIG=
201904030630 METAR LROP 030630Z 08008KT CAVOK 06/M07 Q1023 R88/09//95
                        NOSIG=
201904030700 METAR LROP 030700Z 07005KT 030V100 CAVOK 07/M06 Q1023 R88/09//95
                        NOSIG=
201904030730 METAR LROP 030730Z 08005KT 040V100 CAVOK 08/M06 Q1023 R88/09//95
                        NOSIG=
201904030800 METAR LROP 030800Z 08005KT 020V120 CAVOK 09/M07 Q1023 R88/09//95
                        NOSIG=
201904030830 METAR LROP 030830Z 09009KT CAVOK 09/M08 Q1023 R88/09//95
                        NOSIG=
201904030900 METAR LROP 030900Z 10009KT 070V130 CAVOK 10/M08 Q1022 R88/09//95
                        NOSIG=
201904030930 METAR LROP 030930Z 10011KT 060V120 CAVOK 11/M10 Q1022 R88/09//95
                        NOSIG=
201904031000 METAR LROP 031000Z 09011KT 050V120 CAVOK 12/M10 Q1022 R88/09//95
                        NOSIG=
201904031030 METAR LROP 031030Z 09012KT 060V130 CAVOK 12/M12 Q1021 R88/09//95
                        NOSIG=
201904031100 METAR LROP 031100Z 08011KT 050V110 CAVOK 13/M11 Q1021 R88/09//95
                        NOSIG=
201904031130 METAR LROP 031130Z 11011KT CAVOK 13/M12 Q1020 R88/09//95
                        NOSIG=
201904031200 METAR LROP 031200Z 09009KT CAVOK 13/M11 Q1020 R88/09//95
                        NOSIG=
201904031230 METAR LROP 031230Z 08009KT 060V120 CAVOK 14/M10 Q1020 R88/09//95
                        NOSIG=
201904031300 METAR LROP 031300Z 12009KT 080V150 CAVOK 14/M12 Q1019 R88/09//95
                        NOSIG=
201904031330 METAR LROP 031330Z 10011KT 050V110 CAVOK 14/M10 Q1019 R88/09//95
                        NOSIG=
201904031400 METAR LROP 031400Z 10011KT 070V130 CAVOK 14/M10 Q1019 R88/09//95
                        NOSIG=
201904031430 METAR LROP 031430Z 10008KT 070V130 CAVOK 14/M10 Q1019 R88/09//95
                        NOSIG=
201904031500 METAR LROP 031500Z 11010KT CAVOK 13/M11 Q1019 R88/09//95
                        NOSIG=
201904031530 METAR LROP 031530Z 09009KT CAVOK 13/M10 Q1018 R88/09//95
                        NOSIG=
201904031600 METAR LROP 031600Z 10007KT CAVOK 12/M08 Q1018 R88/09//95
                        NOSIG=
201904031630 METAR LROP 031630Z 10006KT CAVOK 11/M07 Q1018 R88/09//95
                        NOSIG=
201904031700 METAR LROP 031700Z 09007KT CAVOK 09/M06 Q1018 R88/09//95
                        NOSIG=
201904031730 METAR LROP 031730Z 10011KT CAVOK 10/M06 Q1018 R88/09//95
                        NOSIG=
201904031800 METAR LROP 031800Z 11014KT CAVOK 10/M05 Q1019 R88/09//95
                        NOSIG=
201904031830 METAR LROP 031830Z 11014KT CAVOK 10/M04 Q1019 R88/09//95
                        NOSIG=
201904031900 METAR LROP 031900Z 12013KT CAVOK 09/M03 Q1019 R88/09//95
                        NOSIG=
201904031930 METAR LROP 031930Z 12012KT CAVOK 09/M02 Q1019 R88/09//95
                        NOSIG=
201904032000 METAR LROP 032000Z 13011KT CAVOK 08/M02 Q1019 R88/09//95
                        NOSIG=
201904032030 METAR LROP 032030Z 13010KT CAVOK 07/M02 Q1019 R88/09//95
                        NOSIG=
201904032100 METAR LROP 032100Z 13008KT CAVOK 07/M02 Q1020 R88/09//95
                        NOSIG=
201904032130 METAR LROP 032130Z 11006KT CAVOK 07/M02 Q1020 R88/09//95
                        NOSIG=
201904032200 METAR LROP 032200Z 07006KT 040V100 CAVOK 05/M02 Q1020 R88/09//95
                        NOSIG=
201904032230 METAR LROP 032230Z 05008KT CAVOK 04/M01 Q1020 R88/09//95
                        NOSIG=
201904032300 METAR LROP 032300Z 04009KT CAVOK 04/M00 Q1020 R88/09//95
                        NOSIG=
201904032330 METAR LROP 032330Z 04008KT CAVOK 03/M00 Q1020 R88/09//95
                        NOSIG=
201904040000 METAR LROP 040000Z 03008KT CAVOK 04/M00 Q1019 R88/09//95
                        NOSIG=
201904040030 METAR COR LROP 040030Z 01007KT CAVOK 03/M01 Q1019 R88/09//95
                        NOSIG=
201904040100 METAR LROP 040100Z 02007KT CAVOK 03/M01 Q1019 R88/09//95
                        NOSIG=
201904040130 METAR LROP 040130Z 03008KT CAVOK 03/M01 Q1018 R88/09//95
                        NOSIG=
201904040200 METAR LROP 040200Z 04009KT CAVOK 02/M01 Q1018 R88/09//95
                        NOSIG=
201904040230 METAR LROP 040230Z 06005KT CAVOK 01/M02 Q1018 R88/09//95
                        NOSIG=
201904040300 METAR LROP 040300Z 08004KT CAVOK 01/M02 Q1018 R88/09//95
                        NOSIG=
201904040330 METAR LROP 040330Z 07005KT CAVOK 00/M02 Q1019 R88/09//95
                        NOSIG=
201904040400 METAR LROP 040400Z 07006KT CAVOK 00/M03 Q1019 R88/09//95
                        NOSIG=
201904040430 METAR LROP 040430Z 06006KT CAVOK 01/M03 Q1018 R88/09//95
                        NOSIG=
201904040500 METAR LROP 040500Z 06007KT CAVOK 02/M02 Q1019 R88/09//95
                        NOSIG=
201904040530 METAR LROP 040530Z 07008KT CAVOK 03/M02 Q1019 R88/09//95
                        NOSIG=
201904040600 METAR LROP 040600Z 09009KT CAVOK 05/M02 Q1019 R88/09//95
                        NOSIG=
201904040630 METAR LROP 040630Z 10010KT CAVOK 06/M02 Q1019 R88/09//95
                        NOSIG=
201904040700 METAR LROP 040700Z 10009KT CAVOK 07/M02 Q1019 R88/09//95
                        NOSIG=
201904040730 METAR LROP 040730Z 10012KT CAVOK 09/M02 Q1018 R88/09//95
                        NOSIG=
201904040800 METAR LROP 040800Z 10011KT CAVOK 09/M02 Q1018 R88/09//95
                        NOSIG=
201904040830 METAR LROP 040830Z 09012KT CAVOK 10/M02 Q1018 R88/09//95
                        NOSIG=
201904040900 METAR LROP 040900Z 10010KT CAVOK 10/M02 Q1018 R88/09//95
                        NOSIG=
201904040930 METAR LROP 040930Z 10011KT CAVOK 11/M03 Q1018 R88/09//95
                        NOSIG=
201904041000 METAR LROP 041000Z 09009KT 060V130 CAVOK 11/M03 Q1018 R88/09//95
                        NOSIG=
201904041030 METAR LROP 041030Z 12009KT 070V150 CAVOK 12/M05 Q1018 R88/09//95
                        NOSIG=
201904041100 METAR LROP 041100Z 11010KT CAVOK 12/M05 Q1018 R88/09//95
                        NOSIG=
201904041130 METAR LROP 041130Z 09010KT 070V130 CAVOK 13/M04 Q1017 R88/09//95
                        NOSIG=
201904041200 METAR LROP 041200Z 10009KT 060V140 CAVOK 13/M04 Q1017 R88/09//95
                        NOSIG=
201904041230 METAR LROP 041230Z 10009KT 060V130 CAVOK 13/M05 Q1016 R88/09//95
                        NOSIG=
201904041300 METAR LROP 041300Z 09009KT 070V140 CAVOK 14/M05 Q1016 R88/09//95
                        NOSIG=
201904041330 METAR LROP 041330Z 08010KT 050V120 CAVOK 14/M05 Q1016 R88/09//95
                        NOSIG=
201904041400 METAR LROP 041400Z 10010KT CAVOK 14/M04 Q1015 R88/09//95
                        NOSIG=
201904041430 METAR LROP 041430Z 11009KT CAVOK 14/M02 Q1015 R88/09//95
                        NOSIG=
201904041500 METAR LROP 041500Z 09009KT CAVOK 14/M04 Q1015 R88/09//95
                        NOSIG=
201904041530 METAR LROP 041530Z 09008KT CAVOK 14/M04 Q1015 R88/09//95
                        NOSIG=
201904041600 METAR LROP 041600Z 08007KT CAVOK 13/M03 Q1015 R88/09//95
                        NOSIG=
201904041630 METAR LROP 041630Z 07007KT CAVOK 11/M01 Q1015 R88/09//95
                        NOSIG=
201904041700 METAR LROP 041700Z 05006KT CAVOK 11/M03 Q1015 R88/09//95
                        NOSIG=
201904041730 METAR LROP 041730Z 08009KT CAVOK 10/M02 Q1015 R88/09//95
                        NOSIG=
201904041800 METAR LROP 041800Z 09009KT CAVOK 09/M01 Q1015 R88/09//95
                        NOSIG=
201904041830 METAR LROP 041830Z 10006KT CAVOK 08/M00 Q1015 R88/09//95
                        NOSIG=
201904041900 METAR LROP 041900Z 11008KT CAVOK 09/00 Q1015 R88/09//95 NOSIG=
201904041930 METAR LROP 041930Z 12008KT CAVOK 09/00 Q1015 R88/09//95 NOSIG=
201904042000 METAR LROP 042000Z 12008KT CAVOK 08/00 Q1015 R88/09//95 NOSIG=
201904042030 METAR LROP 042030Z 11009KT CAVOK 07/00 Q1016 R88/09//95 NOSIG=
201904042100 METAR LROP 042100Z 08008KT CAVOK 05/00 Q1016 R88/09//95 NOSIG=
201904042130 METAR LROP 042130Z 07008KT CAVOK 04/M00 Q1016 R88/09//95
                        NOSIG=
201904042200 METAR LROP 042200Z 07008KT CAVOK 03/00 Q1016 R88/09//95 NOSIG=
201904042230 METAR LROP 042230Z 05008KT CAVOK 04/01 Q1016 R88/09//95 NOSIG=
201904042300 METAR COR LROP 042300Z 04010KT CAVOK 04/01 Q1016 R88/09//95
                        NOSIG=
201904042330 METAR LROP 042330Z 05009KT CAVOK 04/01 Q1016 R88/09//95 NOSIG=
201904050000 METAR LROP 050000Z 04009KT CAVOK 03/01 Q1016 R88/09//95 NOSIG=
201904050030 METAR LROP 050030Z 05012KT CAVOK 03/00 Q1015 R88/09//95 NOSIG=
201904050100 METAR LROP 050100Z 04010KT CAVOK 03/00 Q1016 R88/09//95 NOSIG=
201904050130 METAR LROP 050130Z 04011KT CAVOK 03/01 Q1015 R88/09//95 NOSIG=
201904050200 METAR LROP 050200Z 04010KT CAVOK 02/00 Q1016 R88/09//95 NOSIG=
201904050230 METAR LROP 050230Z 03010KT CAVOK 03/01 Q1016 R88/09//95 NOSIG=
201904050300 METAR LROP 050300Z 04012KT CAVOK 02/00 Q1015 R88/09//95 NOSIG=
201904050330 METAR LROP 050330Z 04011KT CAVOK 02/00 Q1016 R88/09//95 NOSIG=
201904050400 METAR LROP 050400Z 04010KT CAVOK 02/00 Q1016 R88/09//95 NOSIG=
201904050430 METAR LROP 050430Z 05010KT CAVOK 02/01 Q1016 R88/09//95 NOSIG=
201904050500 METAR COR LROP 050500Z 06012KT CAVOK 04/01 Q1016 R88/09//95
                        NOSIG=
201904050530 METAR LROP 050530Z 06012KT CAVOK 04/02 Q1015 R88/09//95 NOSIG=
201904050600 METAR LROP 050600Z 07014KT CAVOK 06/02 Q1015 R88/09//95 NOSIG=
201904050630 METAR LROP 050630Z 07013KT CAVOK 07/03 Q1016 R88/09//95 NOSIG=
201904050700 METAR LROP 050700Z 08012KT CAVOK 08/03 Q1016 R88/09//95 NOSIG=
201904050730 METAR LROP 050730Z 08012KT CAVOK 09/03 Q1016 R88/09//95 NOSIG=
201904050800 METAR LROP 050800Z 08014KT 9999 FEW020 10/03 Q1016 R88/09//95
                        NOSIG=
201904050830 METAR LROP 050830Z 08014KT 9999 FEW024 12/03 Q1015 R88/09//95
                        NOSIG=
201904050900 METAR LROP 050900Z 09015KT 9999 FEW026 12/03 Q1015 R88/09//95
                        NOSIG=
201904050930 METAR LROP 050930Z 08014KT 9999 FEW031 13/03 Q1015 R88/09//95
                        NOSIG=
201904051000 METAR LROP 051000Z 08015KT 9999 FEW030 14/04 Q1015 R88/09//95
                        NOSIG=
201904051030 METAR LROP 051030Z 09013KT 9999 FEW035 15/04 Q1015 R88/09//95
                        NOSIG=
201904051100 METAR LROP 051100Z 10013KT 060V120 9999 FEW040 16/04 Q1014
                        R88/09//95 NOSIG=
201904051130 METAR LROP 051130Z 09014KT CAVOK 16/03 Q1014 R88/09//95 NOSIG=
201904051200 METAR LROP 051200Z 09013KT CAVOK 17/03 Q1013 R88/09//95 NOSIG=
201904051230 METAR LROP 051230Z 08013KT CAVOK 18/03 Q1013 R88/09//95 NOSIG=
201904051300 METAR LROP 051300Z 10014KT CAVOK 18/03 Q1013 R88/09//95 NOSIG=
201904051330 METAR LROP 051330Z 09015KT CAVOK 18/03 Q1012 R88/09//95 NOSIG=
201904051400 METAR LROP 051400Z 09014KT CAVOK 18/03 Q1012 R88/09//95 NOSIG=
201904051430 METAR LROP 051430Z 09015KT CAVOK 17/03 Q1012 R88/09//95 NOSIG=
201904051500 METAR LROP 051500Z 09014KT CAVOK 17/03 Q1012 R88/09//95 NOSIG=
201904051530 METAR LROP 051530Z 08016KT CAVOK 16/04 Q1012 R88/09//95 NOSIG=
201904051600 METAR LROP 051600Z 09014KT CAVOK 15/04 Q1012 R88/09//95 NOSIG=
201904051630 METAR LROP 051630Z 09014KT CAVOK 14/03 Q1012 R88/09//95 NOSIG=
201904051700 METAR LROP 051700Z 09014KT CAVOK 12/03 Q1012 R88/09//95 NOSIG=
201904051730 METAR LROP 051730Z 09014KT CAVOK 11/03 Q1013 R88/09//95 NOSIG=
201904051800 METAR LROP 051800Z 09012KT CAVOK 11/03 Q1013 R88/09//95 NOSIG=
201904051830 METAR LROP 051830Z 08013KT CAVOK 10/03 Q1014 R88/09//95 NOSIG=
201904051900 METAR LROP 051900Z 08013KT CAVOK 09/03 Q1013 R88/09//95 NOSIG=
201904051930 METAR LROP 051930Z 08013KT CAVOK 08/03 Q1014 R88/09//95 NOSIG=
201904052000 METAR LROP 052000Z 07012KT CAVOK 07/03 Q1014 R88/09//95 NOSIG=
201904052030 METAR LROP 052030Z 08012KT CAVOK 07/03 Q1014 R88/09//95 NOSIG=
201904052100 METAR LROP 052100Z 07013KT CAVOK 06/03 Q1014 R88/09//95 NOSIG=
201904052130 METAR LROP 052130Z 07014KT CAVOK 06/03 Q1014 R88/09//95 NOSIG=
201904052200 METAR LROP 052200Z 06012KT 9999 SCT017 06/03 Q1015 R88/09//95
                        NOSIG=
201904052230 METAR LROP 052230Z 07013KT 9999 OVC017 07/04 Q1015 R88/09//95
                        NOSIG=
201904052300 METAR LROP 052300Z 07014KT 9999 OVC017 07/04 Q1015 R88/09//95
                        NOSIG=
201904052330 METAR LROP 052330Z 06015KT 9999 OVC017 08/04 Q1015 R88/09//95
                        NOSIG=
201904060000 METAR LROP 060000Z 06013KT 9999 OVC017 08/04 Q1015 R88/09//95
                        NOSIG=
201904060030 METAR LROP 060030Z 06014KT 9999 OVC017 07/04 Q1014 R88/09//95
                        NOSIG=
201904060100 METAR LROP 060100Z 07013KT 9999 OVC017 07/04 Q1014 R88/09//95
                        NOSIG=
201904060130 METAR LROP 060130Z 07013KT 9999 OVC018 07/04 Q1014 R88/09//95
                        NOSIG=
201904060200 METAR LROP 060200Z 07013KT 9999 OVC019 07/04 Q1014 R88/09//95
                        NOSIG=
201904060230 METAR LROP 060230Z 07012KT 9999 OVC018 07/04 Q1014 R88/09//95
                        NOSIG=
201904060300 METAR LROP 060300Z 07013KT 9999 OVC019 07/03 Q1014 R88/09//95
                        NOSIG=
201904060330 METAR LROP 060330Z 07013KT 9999 OVC020 07/03 Q1014 R88/09//95
                        NOSIG=
201904060400 METAR LROP 060400Z 07014KT 9999 OVC020 07/03 Q1014 R88/09//95
                        NOSIG=
201904060430 METAR LROP 060430Z 07015KT 9999 OVC020 07/03 Q1014 R88/09//95
                        NOSIG=
201904060500 METAR LROP 060500Z 08015KT 9999 OVC021 08/03 Q1014 R88/09//95
                        NOSIG=
201904060530 METAR LROP 060530Z 07016KT 9999 OVC021 08/03 Q1015 R88/09//95
                        NOSIG=
201904060600 METAR LROP 060600Z 07017KT 9999 OVC022 08/03 Q1014 R88/09//95
                        NOSIG=
201904060630 METAR LROP 060630Z 08016KT 9999 OVC022 08/03 Q1015 R88/09//95
                        NOSIG=
201904060700 METAR LROP 060700Z 08016KT 9999 OVC023 09/03 Q1015 R88/09//95
                        NOSIG=
201904060730 METAR LROP 060730Z 08014KT 9999 OVC023 09/03 Q1015 R88/09//95
                        NOSIG=
201904060800 METAR LROP 060800Z 08014KT 9999 OVC024 09/03 Q1015 R88/09//95
                        NOSIG=
201904060830 METAR LROP 060830Z 09013KT 9999 OVC024 10/03 Q1015 R88/09//95
                        NOSIG=
201904060900 METAR LROP 060900Z 08015KT 9999 OVC025 10/03 Q1015 R88/09//95
                        NOSIG=
201904060930 METAR LROP 060930Z 08016KT 9999 OVC026 10/03 Q1015 R88/09//95
                        NOSIG=
201904061000 METAR LROP 061000Z 09015KT 050V110 9999 OVC027 11/03 Q1015
                        R88/09//95 NOSIG=
201904061030 METAR LROP 061030Z 08017KT 9999 BKN028 11/03 Q1015 R88/09//95
                        NOSIG=
201904061100 METAR LROP 061100Z 07017KT 9999 BKN028 11/03 Q1015 R88/09//95
                        NOSIG=
201904061130 METAR LROP 061130Z AUTO 08017KT 9999 SCT028/// 12/03 Q1014
                        NOSIG=
201904061200 METAR LROP 061200Z 06017KT 9999 SCT030 13/03 Q1014 R88/09//95
                        NOSIG=
201904061230 METAR LROP 061230Z 07016KT 9999 SCT032 13/03 Q1014 R88/09//95
                        NOSIG=
201904061300 METAR LROP 061300Z 08014KT 9999 SCT034 13/04 Q1014 R88/09//95
                        NOSIG=
201904061330 METAR LROP 061330Z 08015KT 050V110 9999 FEW034 14/03 Q1013
                        R88/09//95 NOSIG=
201904061400 METAR LROP 061400Z 08015KT CAVOK 14/03 Q1013 R88/09//95 NOSIG=
201904061430 METAR LROP 061430Z 08014KT CAVOK 14/03 Q1013 R88/09//95 NOSIG=
201904061500 METAR LROP 061500Z 08013KT CAVOK 14/03 Q1013 R88/09//95 NOSIG=
201904061530 METAR LROP 061530Z 08012KT CAVOK 14/03 Q1012 R88/09//95 NOSIG=
201904061600 METAR LROP 061600Z 08009KT CAVOK 13/03 Q1013 R88/09//95 NOSIG=
201904061630 METAR COR LROP 061630Z 07009KT CAVOK 12/04 Q1012 R88/09//95
                        NOSIG=
201904061700 METAR LROP 061700Z 08009KT CAVOK 11/04 Q1013 R88/09//95 NOSIG=
201904061730 METAR LROP 061730Z 07008KT CAVOK 10/03 Q1012 R88/09//95 NOSIG=
201904061800 METAR LROP 061800Z 08009KT CAVOK 09/03 Q1013 R88/09//95 NOSIG=
201904061830 METAR LROP 061830Z 09007KT CAVOK 09/04 Q1013 R88/09//95 NOSIG=
201904061900 METAR LROP 061900Z 09007KT CAVOK 08/04 Q1013 R88/09//95 NOSIG=
201904061930 METAR LROP 061930Z 08008KT CAVOK 08/04 Q1013 R88/09//95 NOSIG=
201904062000 METAR LROP 062000Z 09007KT CAVOK 08/03 Q1013 R88/09//95 NOSIG=
201904062030 METAR LROP 062030Z 09007KT CAVOK 07/03 Q1013 R88/09//95 NOSIG=
201904062100 METAR LROP 062100Z 09007KT CAVOK 07/03 Q1013 R88/09//95 NOSIG=
201904062130 METAR LROP 062130Z 08006KT CAVOK 06/03 Q1013 R88/09//95 NOSIG=
201904062200 METAR COR LROP 062200Z 05006KT CAVOK 05/02 Q1013 R88/09//95
                        NOSIG=
201904062230 METAR LROP 062230Z 05008KT CAVOK 06/02 Q1013 R88/09//95 NOSIG=
201904062300 METAR LROP 062300Z 04008KT CAVOK 06/02 Q1013 R88/09//95 NOSIG=
201904062330 METAR LROP 062330Z 03007KT CAVOK 05/02 Q1013 R88/09//95 NOSIG=
201904070000 METAR LROP 070000Z 03008KT CAVOK 05/01 Q1013 R88/09//95 NOSIG=
201904070030 METAR LROP 070030Z 03009KT CAVOK 05/01 Q1012 R88/09//95 NOSIG=
201904070100 METAR LROP 070100Z 03008KT CAVOK 05/02 Q1012 R88/09//95 NOSIG=
201904070130 METAR LROP 070130Z 04008KT CAVOK 05/02 Q1012 R88/09//95 NOSIG=
201904070200 METAR LROP 070200Z 04008KT CAVOK 05/01 Q1012 R88/09//95 NOSIG=
201904070230 METAR LROP 070230Z 06006KT CAVOK 03/01 Q1012 R88/09//95 NOSIG=
201904070300 METAR LROP 070300Z 06006KT CAVOK 05/02 Q1011 R88/09//95 NOSIG=
201904070330 METAR LROP 070330Z 05007KT CAVOK 05/02 Q1011 R88/09//95 NOSIG=
201904070400 METAR LROP 070400Z 04010KT CAVOK 06/02 Q1011 R88/09//95 NOSIG=
201904070430 METAR LROP 070430Z 08005KT 040V130 CAVOK 06/02 Q1011 R88/09//95
                        NOSIG=
201904070500 METAR LROP 070500Z 04007KT 9999 -RA NSC 06/02 Q1011 R88/09//95
                        NOSIG=
201904070530 METAR LROP 070530Z 09004KT CAVOK 07/02 Q1012 R88/CLRD// NOSIG=
201904070600 METAR LROP 070600Z 09006KT CAVOK 07/02 Q1012 R88/CLRD// NOSIG=
201904070630 METAR LROP 070630Z 07005KT CAVOK 08/02 Q1012 NOSIG=
201904070700 METAR LROP 070700Z 09007KT CAVOK 09/02 Q1012 NOSIG=
201904070730 METAR LROP 070730Z 08008KT CAVOK 09/02 Q1012 NOSIG=
201904070800 METAR LROP 070800Z 08006KT CAVOK 10/02 Q1012 NOSIG=
201904070830 METAR LROP 070830Z 10007KT CAVOK 11/03 Q1012 NOSIG=
201904070900 METAR LROP 070900Z 08007KT CAVOK 11/03 Q1012 NOSIG=
201904070930 METAR LROP 070930Z 09010KT 9999 -RA NSC 12/03 Q1012 NOSIG=
201904071000 METAR LROP 071000Z 06008KT CAVOK 12/02 Q1011 NOSIG=
201904071030 METAR LROP 071030Z 04007KT 010V080 CAVOK 13/02 Q1011 NOSIG=
201904071100 METAR LROP 071100Z 08008KT CAVOK 14/01 Q1011 NOSIG=
201904071130 METAR LROP 071130Z 03006KT 360V080 CAVOK 14/02 Q1010 NOSIG=
201904071200 METAR LROP 071200Z 05007KT 020V080 CAVOK 15/02 Q1010 NOSIG=
201904071230 METAR LROP 071230Z 07008KT CAVOK 15/01 Q1010 NOSIG=
201904071300 METAR LROP 071300Z 08008KT CAVOK 15/02 Q1010 NOSIG=
201904071330 METAR LROP 071330Z 07007KT CAVOK 16/02 Q1010 NOSIG=
201904071400 METAR LROP 071400Z 10010KT CAVOK 16/00 Q1010 NOSIG=
201904071430 METAR LROP 071430Z 10007KT CAVOK 16/01 Q1009 NOSIG=
201904071500 METAR LROP 071500Z 11006KT CAVOK 16/01 Q1009 NOSIG=
201904071530 METAR LROP 071530Z 09005KT CAVOK 16/01 Q1009 NOSIG=
201904071600 METAR LROP 071600Z 07006KT CAVOK 15/02 Q1009 NOSIG=
201904071630 METAR LROP 071630Z 05005KT CAVOK 15/02 Q1009 NOSIG=
201904071700 METAR LROP 071700Z 00000KT CAVOK 14/03 Q1009 NOSIG=
201904071730 METAR LROP 071730Z 00000KT CAVOK 13/04 Q1009 NOSIG=
201904071800 METAR LROP 071800Z 27003KT CAVOK 14/02 Q1009 NOSIG=
201904071830 METAR LROP 071830Z 25004KT CAVOK 13/04 Q1009 NOSIG=
201904071900 METAR LROP 071900Z 28005KT CAVOK 13/04 Q1009 NOSIG=
201904071930 METAR LROP 071930Z 26004KT CAVOK 12/04 Q1009 NOSIG=
201904072000 METAR LROP 072000Z 27006KT CAVOK 12/04 Q1009 NOSIG=
201904072030 METAR LROP 072030Z 27005KT CAVOK 11/05 Q1008 NOSIG=
201904072100 METAR LROP 072100Z VRB01KT CAVOK 11/04 Q1008 NOSIG=
201904072130 METAR LROP 072130Z 00000KT CAVOK 11/04 Q1008 NOSIG=
201904072200 METAR LROP 072200Z 00000KT CAVOK 10/05 Q1008 NOSIG=
201904072230 METAR LROP 072230Z VRB01KT 9999 SCT049 10/04 Q1008 NOSIG=
201904072300 METAR LROP 072300Z 05003KT 9999 OVC048 11/04 Q1008 NOSIG=
201904072330 METAR LROP 072330Z 07005KT CAVOK 10/04 Q1008 NOSIG=
201904080000 METAR LROP 080000Z 06004KT CAVOK 10/04 Q1007 NOSIG=
201904080030 METAR LROP 080030Z 08005KT 9999 BKN049 10/05 Q1007 NOSIG=
201904080100 METAR LROP 080100Z 09006KT 9999 BKN049 09/05 Q1007 NOSIG=
201904080130 METAR LROP 080130Z 08005KT 9999 FEW040 09/06 Q1007 NOSIG=
201904080200 METAR LROP 080200Z 05006KT 9999 SCT040 09/06 Q1007 NOSIG=
201904080230 METAR LROP 080230Z 06006KT CAVOK 09/06 Q1007 NOSIG=
201904080300 METAR LROP 080300Z 05006KT 9999 -RA SCT045 09/07 Q1007 R88/19//95
                        NOSIG=
201904080330 METAR LROP 080330Z 04005KT 9999 -RA BKN043 09/07 Q1007 R88/19//95
                        NOSIG=
201904080400 METAR LROP 080400Z 04006KT 9000 -RA OVC043 09/07 Q1007 R88/19//95
                        NOSIG=
201904080430 METAR COR LROP 080430Z 05007KT 8000 -RA BKN044 09/07 Q1007
                        R88/19//95 NOSIG=
201904080500 METAR LROP 080500Z 05009KT 9000 BKN040 09/08 Q1007 R88/19//95
                        NOSIG=
201904080530 METAR LROP 080530Z 06010KT 5000 -SHRA BKN034 FEW045CB 09/08
                        Q1007 R88/19//95 NOSIG=
201904080600 METAR LROP 080600Z 05009KT 4000 -SHRA BR BKN022 FEW045CB
                        09/08 Q1007 R88/29//95 NOSIG=
201904080630 METAR LROP 080630Z 05009KT 5000 -RA BKN023 FEW045CB 09/08
                        Q1007 R88/29//95 NOSIG=
201904080700 METAR LROP 080700Z 05010KT 7000 BKN022 OVC035 10/09 Q1007
                        R88/29//95 NOSIG=
201904080730 METAR LROP 080730Z 05012KT 9000 OVC019 10/09 Q1007 R88/29//95
                        NOSIG=
201904080800 METAR LROP 080800Z 05011KT 8000 OVC019 10/09 Q1007 R88/29//95
                        NOSIG=
201904080830 METAR LROP 080830Z 05012KT 8000 FEW008 OVC019 11/09 Q1007
                        NOSIG=
201904080900 METAR COR LROP 080900Z 06013KT 9000 OVC008 11/09 Q1007 R88/19//95
                        NOSIG=
201904080930 METAR LROP 080930Z 06012KT 9000 -DZ OVC008 11/09 Q1007 R88/19//95
                        NOSIG=
201904081000 METAR LROP 081000Z 05013KT 9000 OVC008 11/09 Q1007 R88/19//95
                        NOSIG=
201904081030 METAR LROP 081030Z 05012KT 3000 DZ FEW005 OVC007 10/09 Q1007
                        R88/19//95 NOSIG=
201904081100 METAR LROP 081100Z 04011KT 4000 -DZ BKN004 OVC005 10/09 Q1007
                        REDZ R88/19//95 NOSIG=
201904081130 METAR LROP 081130Z 04011KT 2800 -DZ BR BKN004 OVC005 10/09
                        Q1007 R88/19//95 NOSIG=
201904081200 METAR LROP 081200Z 04009KT 2800 -DZ BR OVC004 10/10 Q1006
                        R88/19//95 NOSIG=
201904081230 METAR LROP 081230Z 04010KT 3000 -DZ BR OVC004 11/10 Q1006
                        R88/19//95 NOSIG=
201904081300 METAR LROP 081300Z 04012KT 3000 -DZ BR OVC003 11/10 Q1006
                        R88/19//95 NOSIG=
201904081330 METAR LROP 081330Z 04014KT 3000 -DZ BR OVC003 11/10 Q1005
                        R88/19//95 NOSIG=
201904081400 METAR LROP 081400Z 03014KT 3000 -DZ BR OVC003 11/10 Q1005
                        R88/19//95 NOSIG=
201904081430 METAR LROP 081430Z 03012KT 3000 BR OVC004 11/11 Q1005 R88/19//95
                        NOSIG=
201904081500 METAR LROP 081500Z 04014KT 3500 BR OVC004 12/11 Q1005 R88/19//95
                        NOSIG=
201904081530 METAR LROP 081530Z 05012KT 3500 BR BKN005 OVC006 12/11 Q1005
                        R88/19//95 NOSIG=
201904081600 METAR LROP 081600Z 04013KT 4500 BR OVC006 12/11 Q1005 R88/19//95
                        NOSIG=
201904081630 METAR LROP 081630Z 04012KT 4500 BR OVC006 12/11 Q1005 R88/19//95
                        NOSIG=
201904081700 METAR LROP 081700Z 05013KT 4500 BR OVC006 12/11 Q1005 R88/19//95
                        NOSIG=
201904081730 METAR LROP 081730Z 05016KT 5000 BR OVC005 12/11 Q1005 R88/19//95
                        NOSIG=
201904081800 METAR LROP 081800Z 05013KT 5000 BR OVC005 11/10 Q1005 R88/19//95
                        NOSIG=
201904081830 METAR LROP 081830Z 05014KT 5000 BR BKN006 BKN024 11/10 Q1005
                        R88/19//95 NOSIG=
201904081900 METAR LROP 081900Z 05015KT 5000 BR OVC005 12/11 Q1005 R88/19//95
                        NOSIG=
201904081930 METAR LROP 081930Z 05014KT 5000 BR OVC005 12/11 Q1005 R88/19//95
                        NOSIG=
201904082000 METAR LROP 082000Z 05013KT 5000 BR BKN005 12/11 Q1005 R88/19//95
                        NOSIG=
201904082030 METAR LROP 082030Z 05012KT 5000 BR BKN007 BKN048 12/11 Q1005
                        R88/19//95 NOSIG=
201904082100 METAR LROP 082100Z 06014KT 4000 BR OVC007 12/11 Q1005 R88/19//95
                        NOSIG=
201904082130 METAR LROP 082130Z 06013KT 4000 BR OVC007 12/10 Q1005 R88/19//95
                        NOSIG=
201904082200 METAR LROP 082200Z 07012KT 4000 BR OVC007 11/10 Q1005 R88/19//95
                        NOSIG=
201904082230 METAR LROP 082230Z 07012KT 5000 BR OVC007 11/09 Q1005 R88/19//95
                        NOSIG=
201904082300 METAR LROP 082300Z 07014KT 5000 BR BKN008 10/09 Q1005 R88/19//95
                        NOSIG=
201904082330 METAR LROP 082330Z 08013KT 2500 BR OVC003 10/09 Q1005 R88/19//95
                        NOSIG=
201904090000 METAR LROP 090000Z 08011KT 3000 BR OVC002 10/09 Q1005 R88/19//95
                        TEMPO 3000=
201904090030 METAR LROP 090030Z 08008KT 4000 BR OVC004 10/09 Q1005 R88/19//95
                        TEMPO 5000 BKN007=
201904090100 METAR LROP 090100Z 07008KT 5000 BR OVC005 10/09 Q1004 R88/19//95
                        NOSIG=
201904090130 METAR LROP 090130Z 05009KT 5000 BR OVC005 10/09 Q1004 R88/19//95
                        NOSIG=
201904090200 METAR LROP 090200Z 07009KT 4000 BR BKN006 OVC015 10/09 Q1004
                        R88/19//95 NOSIG=
201904090230 METAR LROP 090230Z 05009KT 5000 BR SCT005 BKN016 10/09 Q1004
                        R88/19//95 NOSIG=
201904090300 METAR LROP 090300Z 05010KT 6000 FEW017 09/08 Q1004 R88/19//95
                        NOSIG=
201904090330 METAR LROP 090330Z 05009KT 5000 BR NSC 09/08 Q1004 R88/19//95
                        NOSIG=
201904090400 METAR LROP 090400Z 06008KT 5000 BR NSC 09/08 Q1004 R88/19//95
                        NOSIG=
201904090430 METAR LROP 090430Z 05010KT 7000 NSC 10/08 Q1004 R88/19//95
                        NOSIG=
201904090500 METAR LROP 090500Z 06013KT CAVOK 10/08 Q1004 R88/19//95 NOSIG=
201904090530 METAR LROP 090530Z 06013KT 9999 FEW032 10/07 Q1004 R88/19//95
                        NOSIG=
201904090600 METAR LROP 090600Z 06013KT 9999 BKN032 10/06 Q1004 R88/09//95
                        NOSIG=
201904090630 METAR LROP 090630Z 06014KT 9999 SCT033 11/05 Q1004 R88/09//95
                        NOSIG=
201904090700 METAR LROP 090700Z 06017KT 9999 FEW035 12/06 Q1004 R08R/09//95
                        NOSIG=
201904090730 METAR LROP 090730Z 06016KT 6000 -SHRA FEW050CB 12/07 Q1004
                        R08R/19//95 NOSIG=
201904090800 METAR LROP 090800Z 04017KT 9999 FEW050CB 11/08 Q1004 R88/29//95
                        NOSIG=
201904090830 METAR LROP 090830Z 06016KT 9999 FEW060CB 13/08 Q1004 R88/29//95
                        NOSIG=
201904090900 METAR LROP 090900Z 04015KT 9999 FEW060CB 13/08 Q1004 R88/29//95
                        NOSIG=
201904090930 METAR LROP 090930Z 05015KT 9999 -SHRA SCT050CB 14/07 Q1004
                        R88/29//95 NOSIG=
201904091000 METAR LROP 091000Z 06017KT 9999 VCSH SCT050CB 15/08 Q1004
                        R88/19//95 NOSIG=
201904091030 METAR LROP 091030Z 06017KT 9999 SCT050CB 18/07 Q1004 R88/19//95
                        NOSIG=
201904091100 METAR LROP 091100Z 06016KT 9999 SCT050CB 17/07 Q1004 R88/19//95
                        NOSIG=
201904091130 METAR LROP 091130Z 06017KT 9999 FEW050CB 17/07 Q1004 R88/09//95
                        NOSIG=
201904091200 METAR COR LROP 091200Z 06017KT 9999 SCT050CB 17/07 Q1004
                        R88/09//95 NOSIG=
201904091230 METAR LROP 091230Z 06018KT 9999 -SHRA SCT050CB 16/07 Q1004
                        R88/09//95 TEMPO 5000 -SHRA=
201904091300 METAR LROP 091300Z 06016KT 9999 SCT050CB 16/06 Q1004 R88/09//95
                        TEMPO 5000 -SHRA=
201904091330 METAR LROP 091330Z 06016KT 9999 SCT050CB 16/07 Q1004 R88/09//95
                        TEMPO 5000 -SHRA=
201904091400 METAR LROP 091400Z 07014KT 7000 SHRA BKN040CB 13/09 Q1004
                        R88/29//95=
201904091430 METAR LROP 091430Z 04012KT 8000 -SHRA BKN040CB 13/10 Q1004
                        RESHRA R88/29//95 NOSIG=
201904091500 METAR LROP 091500Z 01012KT 9999 -SHRA SCT050CB 13/09 Q1003
                        R88/29//95 NOSIG=
201904091530 METAR LROP 091530Z 03009KT 9999 -SHRA SCT050CB 14/09 Q1003
                        R88/29//95 BECMG NSC=
201904091600 METAR LROP 091600Z 05010KT 9999 FEW050CB 14/09 Q1003 R88/29//95
                        BECMG NSC=
201904091630 METAR LROP 091630Z 04011KT 9999 FEW050CB 14/08 Q1003 R88/29//95
                        BECMG NSC=
201904091700 METAR LROP 091700Z 04009KT 9999 FEW050CB 14/08 Q1003 R88/29//95
                        BECMG NSC=
201904091730 METAR LROP 091730Z 04007KT 9999 FEW050CB 13/08 Q1004 R88/29//95
                        NOSIG=
201904091800 METAR LROP 091800Z 04006KT 9999 FEW050CB 14/08 Q1004 R88/29//95
                        NOSIG=
201904091830 METAR LROP 091830Z 02007KT 9999 FEW050CB 14/07 Q1004 R88/29//95
                        NOSIG=
201904091900 METAR LROP 091900Z 01005KT 9999 FEW050CB 14/06 Q1004 R88/29//95
                        NOSIG=
201904091930 METAR LROP 091930Z 01005KT 9999 FEW050CB 14/07 Q1004 R88/29//95
                        NOSIG=
201904092000 METAR LROP 092000Z 03004KT CAVOK 13/07 Q1004 R88/29//95 NOSIG=
201904092030 METAR LROP 092030Z 05004KT CAVOK 12/07 Q1004 R88/29//95 NOSIG=
201904092100 METAR LROP 092100Z 04004KT CAVOK 12/07 Q1004 R88/29//95 NOSIG=
201904092130 METAR LROP 092130Z 04006KT CAVOK 13/07 Q1004 R88/29//95 NOSIG=
201904092200 METAR LROP 092200Z 05006KT CAVOK 12/07 Q1004 R88/29//95 NOSIG=
201904092230 METAR LROP 092230Z 10005KT CAVOK 11/07 Q1004 R88/29//95 NOSIG=
201904092300 METAR LROP 092300Z 09003KT CAVOK 10/07 Q1004 R88/29//95 NOSIG=
201904092330 METAR LROP 092330Z 08004KT CAVOK 09/06 Q1004 R88/29//95 NOSIG=
201904100000 METAR LROP 100000Z 04005KT CAVOK 09/06 Q1004 R88/29//95 NOSIG=
201904100030 METAR LROP 100030Z 01006KT CAVOK 10/06 Q1004 R88/29//95 NOSIG=
201904100100 METAR LROP 100100Z 01005KT CAVOK 09/06 Q1004 R88/29//95 NOSIG=
201904100130 METAR LROP 100130Z 36006KT CAVOK 08/06 Q1004 R88/29//95 NOSIG=
201904100200 METAR LROP 100200Z 36006KT CAVOK 08/06 Q1004 R88/29//95 NOSIG=
201904100230 METAR LROP 100230Z 36005KT CAVOK 08/06 Q1004 R88/29//95 NOSIG=
201904100300 METAR LROP 100300Z 02005KT CAVOK 10/07 Q1004 R88/29//95 NOSIG=
201904100330 METAR LROP 100330Z 05005KT CAVOK 09/06 Q1004 R88/29//95 NOSIG=
201904100400 METAR LROP 100400Z 05005KT CAVOK 09/07 Q1005 R08R/29//95
                        R08L/19//95 NOSIG=
201904100430 METAR LROP 100430Z 05004KT 9000 NSC 09/07 Q1005 R08R/29//95
                        R08L/19//95 NOSIG=
201904100500 METAR LROP 100500Z 01005KT 9000 NSC 09/07 Q1005 R08R/29//95
                        R08L/19//95 NOSIG=
201904100530 METAR LROP 100530Z 02003KT 9000 NSC 10/07 Q1005 R08R/19//95
                        R08L/19//95 NOSIG=
201904100600 METAR LROP 100600Z 03003KT 9000 NSC 11/08 Q1005 R08R/19//95
                        R08L/19//95 NOSIG=
201904100630 METAR LROP 100630Z VRB02KT 9000 NSC 11/08 Q1006 R08R/19//95
                        R08L/19//95 NOSIG=
201904100700 METAR COR LROP 100700Z 12003KT 9000 NSC 12/08 Q1006 R08L/CLRD//
                        NOSIG=
201904100730 METAR LROP 100730Z VRB02KT 9000 NSC 13/08 Q1006 R08L/CLRD//
                        NOSIG=
201904100800 METAR LROP 100800Z 12004KT 070V140 CAVOK 13/08 Q1006 R08L/CLRD//
                        NOSIG=
201904100830 METAR COR LROP 100830Z 11006KT 080V140 CAVOK 13/08 Q1006
                        R08L/CLRD// NOSIG=
201904100900 METAR LROP 100900Z 10007KT CAVOK 14/08 Q1006 R08R/19//95
                        NOSIG=
201904100930 METAR LROP 100930Z 09006KT CAVOK 15/09 Q1006 R08R/19//95
                        NOSIG=
201904101000 METAR LROP 101000Z 11005KT CAVOK 15/09 Q1006 R08R/19//95
                        NOSIG=
201904101030 METAR LROP 101030Z 16003KT 070V200 CAVOK 15/08 Q1006 R88/CLRD//
                        NOSIG=
201904101100 METAR LROP 101100Z 14003KT 100V180 CAVOK 16/09 Q1006 NOSIG=
201904101130 METAR LROP 101130Z VRB02KT CAVOK 16/09 Q1006 NOSIG=
201904101200 METAR LROP 101200Z 04003KT 320V090 CAVOK 17/09 Q1006 NOSIG=
201904101230 METAR LROP 101230Z 11005KT 090V150 9999 FEW037 17/09 Q1006
                        NOSIG=
201904101300 METAR LROP 101300Z 15008KT 9999 SCT036 17/09 Q1006 NOSIG=
201904101330 METAR LROP 101330Z 16006KT 9999 -SHRA FEW036 FEW050CB 17/09
                        Q1006 TEMPO 5000 SHRA=
201904101400 METAR LROP 101400Z 15005KT 9999 -SHRA FEW035CB 16/11 Q1006
                        R88/29//95 TEMPO 5000 SHRA=
201904101430 METAR LROP 101430Z 17003KT 9999 FEW050CB 16/10 Q1006 R88/29//95
                        NOSIG=
201904101500 METAR LROP 101500Z 17002KT 9999 FEW050CB 15/12 Q1006 R88/29//95
                        NOSIG=
201904101530 METAR LROP 101530Z 17001KT 8000 -RA NSC 15/11 Q1006 R88/19//95
                        NOSIG=
201904101600 METAR LROP 101600Z VRB02KT 9999 -RA NSC 13/10 Q1006 R88/29//95
                        NOSIG=
201904101630 METAR LROP 101630Z 02005KT CAVOK 13/09 Q1006 R88/29//95 NOSIG=
201904101700 METAR LROP 101700Z 01005KT CAVOK 13/10 Q1006 R88/29//95 NOSIG=
201904101730 METAR LROP 101730Z 04005KT 9999 -RA NSC 14/09 Q1007 R88/29//95
                        NOSIG=
201904101800 METAR LROP 101800Z 01004KT 350V050 9999 -RA NSC 13/08 Q1007
                        R88/29//95 NOSIG=
201904101830 METAR LROP 101830Z VRB02KT CAVOK 12/10 Q1007 R88/29//95 NOSIG=
201904101900 METAR LROP 101900Z 11005KT CAVOK 12/10 Q1007 R88/29//95 NOSIG=
201904101930 METAR LROP 101930Z 11003KT CAVOK 12/10 Q1007 R88/29//95 NOSIG=
201904102000 METAR LROP 102000Z 00000KT CAVOK 11/10 Q1007 R88/29//95 NOSIG=
201904102030 METAR LROP 102030Z 00000KT 8000 SCT046 11/09 Q1007 R88/29//95
                        NOSIG=
201904102100 METAR LROP 102100Z 00000KT 6000 BKN043 11/10 Q1007 R88/29//95
                        NOSIG=
201904102130 METAR LROP 102130Z 00000KT 5000 BR SCT044 10/09 Q1007 R88/29//95
                        NOSIG=
201904102200 METAR LROP 102200Z 00000KT 5000 BR BKN046 10/10 Q1007 R88/29//95
                        NOSIG=
201904102230 METAR LROP 102230Z 16002KT 6000 BKN038 10/10 Q1007 R88/29//95
                        NOSIG=
201904102300 METAR LROP 102300Z 00000KT 9999 SCT015 OVC037 11/09 Q1007
                        R88/29//95 NOSIG=
201904102330 METAR LROP 102330Z 01007KT 4600 -SHRA BR SCT017 BKN034 FEW050CB
                        11/10 Q1007 R88/29//95 NOSIG=
201904110000 METAR LROP 110000Z 04008KT 5000 -SHRA BR BKN024 SCT040CB
                        11/10 Q1007 R88/29//95 NOSIG=
201904110030 METAR LROP 110030Z 06006KT 4400 -SHRA BR FEW035CB OVC036
                        11/10 Q1007 R88/29//95 NOSIG=
201904110100 METAR COR LROP 110100Z 06006KT 3400 -SHRA BR FEW035CB BKN036
                        11/10 Q1007 R88/29//95 TEMPO 1500
                        -RA BR=
201904110130 METAR LROP 110130Z 11005KT 2000 -RA BR NSC 11/10 Q1006 R88/29//95
                        TEMPO 1500 -RA BR=
201904110200 METAR LROP 110200Z VRB01KT 2000 -RA BR NSC 10/10 Q1006 R88/29//95
                        TEMPO 1500 -RA BR=
201904110230 METAR LROP 110230Z 36004KT 3000 -RA BR SCT003 BKN015 11/10
                        Q1006 R88/29//95 TEMPO 1500 -RA BR=
201904110300 METAR LROP 110300Z 02004KT 2000 -RA BR BKN005 BKN008 11/11
                        Q1006 R88/29//95 TEMPO 1500 -RA BR=
201904110330 METAR LROP 110330Z 02005KT 2000 -RA BR FEW002 SCT010 11/11
                        Q1006 R88/29//95 TEMPO 5000=
201904110400 METAR LROP 110400Z 04006KT 3000 -RA BR SCT002 BKN010 11/10
                        Q1006 R88/29//95 TEMPO 5000=
201904110430 METAR LROP 110430Z 05005KT 4000 -RA BR OVC003 11/10 Q1006
                        R88/29//95 NOSIG=
201904110500 METAR LROP 110500Z 06005KT 8000 -RA OVC003 11/10 Q1006 R88/29//95
                        BECMG BKN010=
201904110530 METAR LROP 110530Z 06005KT 8000 -DZ OVC004 11/10 Q1007 R88/29//95
                        BECMG BKN010=
201904110600 METAR LROP 110600Z 05005KT 6000 -RA OVC004 11/10 Q1007 R88/29//95
                        BECMG BKN010=
201904110630 METAR LROP 110630Z 06005KT 4000 -RA BR BKN003 OVC018 11/11
                        Q1007 R88/29//95 BECMG 5000 BKN010
                        BKN030=
201904110700 METAR LROP 110700Z 08006KT 5000 -RA BR OVC003 11/11 Q1007
                        R88/29//95 BECMG BKN010 BKN030=
201904110730 METAR LROP 110730Z 07006KT 9999 -RA BKN005 OVC008 12/11 Q1007
                        R88/29//95 BECMG BKN010 BKN030=
201904110800 METAR LROP 110800Z 06008KT 9999 -RA BKN006 OVC015 12/11 Q1007
                        R88/29//95 BECMG BKN010 BKN030=
201904110830 METAR LROP 110830Z 07009KT 5000 RA BKN005 OVC026 12/11 Q1007
                        R88/29//95 NOSIG=
201904110900 METAR LROP 110900Z 07010KT 4000 RA BR OVC005 12/11 Q1007
                        R88/29//95 NOSIG=
201904110930 METAR LROP 110930Z 06011KT 5000 -RA BR BKN005 OVC009 11/11
                        Q1007 R88/29//95 NOSIG=
201904111000 METAR LROP 111000Z 05010KT 5000 -RA BR BKN005 OVC008 11/11
                        Q1007 R88/29//95 NOSIG=
201904111030 METAR LROP 111030Z 07013KT 6000 RA BKN005 OVC008 11/11 Q1007
                        R88/29//95 NOSIG=
201904111100 METAR LROP 111100Z 07013KT 8000 -RA BKN008 OVC010 12/11 Q1008
                        R88/29//95 NOSIG=
201904111130 METAR LROP 111130Z 07014KT 9000 -RA BKN007 OVC011 12/11 Q1007
                        R88/29//95 BECMG SCT015 SCT030CB
                        BKN040=
201904111200 METAR LROP 111200Z 07014KT 9999 -RA BKN009 BKN023 13/12 Q1007
                        R88/29//95 BECMG SCT015 SCT030CB
                        BKN040=
201904111230 METAR LROP 111230Z 08012KT 9999 -RA BKN010 OVC036 13/11 Q1007
                        R88/29//95 BECMG SCT015 SCT030CB
                        BKN040=
201904111300 METAR LROP 111300Z 06011KT 9999 -RA BKN010 BKN030 13/11 Q1007
                        R88/29//95 BECMG SCT015 SCT030CB
                        BKN040=
201904111330 METAR COR LROP 111330Z 05013KT 9999 -RA BKN009 OVC012 13/11
                        Q1007 R88/29//95 BECMG SCT015 SCT030CB
                        BKN040=
201904111400 METAR LROP 111400Z 05013KT 9000 -RA BKN009 OVC043 13/11 Q1007
                        R88/29//95 BECMG SCT015 SCT030CB
                        BKN040=
201904111430 METAR LROP 111430Z 06012KT 8000 -RA SCT010 OVC033 12/11 Q1007
                        R88/29//95 BECMG SCT015 SCT030CB
                        BKN040=
201904111500 METAR LROP 111500Z 05009KT 8000 -RA FEW010 SCT020 OVC037
                        12/11 Q1008 RERA R88/29//95 NOSIG=
201904111530 METAR LROP 111530Z 07007KT 5000 SHRA SCT018 SCT024CB 12/11
                        Q1008 R88/29//95 NOSIG=
201904111600 METAR LROP 111600Z 07008KT 4000 -SHRA BR SCT011 BKN020 SCT030CB
                        12/11 Q1008 RESHRA R88/29//95 NOSIG=
201904111630 METAR LROP 111630Z 07007KT 4500 -SHRA BR SCT011 BKN019 SCT030CB
                        11/11 Q1008 R88/29//95 NOSIG=
201904111700 METAR LROP 111700Z 10004KT 4500 SHRA BR FEW009 BKN018 SCT030CB
                        11/10 Q1008 R88/29//95 NOSIG=
201904111730 METAR LROP 111730Z 12006KT 4000 SHRA BR BKN015 SCT030CB 11/10
                        Q1009 R88/29//95 NOSIG=
201904111800 METAR LROP 111800Z VRB01KT 7000 -RA FEW020 OVC047 11/10 Q1009
                        RESHRA R88/29//95 NOSIG=
201904111830 METAR COR LROP 111830Z VRB01KT 7000 -RA NSC 11/10 Q1009 R88/29//95
                        NOSIG=
201904111900 METAR LROP 111900Z 03007KT 7000 -RA SCT048 11/10 Q1010 R88/29//95
                        NOSIG=
201904111930 METAR LROP 111930Z 03008KT 8000 -RA FEW013 OVC044 10/10 Q1010
                        R88/29//95 NOSIG=
201904112000 METAR LROP 112000Z 02005KT 9000 -RA FEW014 SCT033 10/09 Q1010
                        R88/29//95 NOSIG=
201904112030 METAR LROP 112030Z 03004KT 9999 BKN009 BKN015 10/09 Q1010
                        R88/29//95 NOSIG=
201904112100 METAR LROP 112100Z 07005KT 9999 FEW009 BKN023 10/10 Q1010
                        R88/29//95 NOSIG=
201904112130 METAR LROP 112130Z 06006KT 9000 BKN023 11/10 Q1010 R88/29//95
                        NOSIG=
201904112200 METAR LROP 112200Z 08006KT 8000 BKN024 11/10 Q1010 R88/29//95
                        NOSIG=
201904112230 METAR LROP 112230Z 10005KT 9000 FEW023 SCT027 10/10 Q1010
                        R88/29//95 NOSIG=
201904112300 METAR LROP 112300Z 09005KT 8000 BKN027 10/09 Q1010 R88/29//95
                        NOSIG=
201904112330 METAR LROP 112330Z 10006KT 7000 BKN023 BKN043 10/09 Q1010
                        R88/29//95 NOSIG=
201904120000 METAR LROP 120000Z 12005KT 6000 FEW024 10/09 Q1011 R88/29//95
                        NOSIG=
201904120030 METAR LROP 120030Z 13004KT 8000 OVC020 10/09 Q1011 R88/29//95
                        NOSIG=
201904120100 METAR LROP 120100Z 12005KT 8000 OVC019 10/09 Q1011 R88/29//95
                        NOSIG=
201904120130 METAR LROP 120130Z 11005KT 9000 OVC018 10/09 Q1011 R88/29//95
                        NOSIG=
201904120200 METAR LROP 120200Z 11006KT 9000 OVC019 10/09 Q1011 R88/29//95
                        NOSIG=
201904120230 METAR LROP 120230Z 12005KT 9999 OVC019 10/09 Q1011 R88/29//95
                        NOSIG=
201904120300 METAR LROP 120300Z 12005KT 9999 OVC018 10/09 Q1011 R88/29//95
                        NOSIG=
201904120330 METAR LROP 120330Z 10007KT 8000 -DZ OVC020 10/09 Q1011 R88/29//95
                        NOSIG=
201904120400 METAR LROP 120400Z 10008KT 7000 -RADZ OVC019 10/09 Q1011
                        R88/29//95 NOSIG=
201904120430 METAR LROP 120430Z 09006KT 6000 -DZ OVC019 09/09 Q1012 R88/29//95
                        NOSIG=
201904120500 METAR LROP 120500Z 08005KT 8000 OVC019 10/09 Q1012 R88/29//95
                        NOSIG=
201904120530 METAR LROP 120530Z 08009KT 9999 OVC020 10/08 Q1012 R88/29//95
                        NOSIG=
201904120600 METAR LROP 120600Z 09008KT 9999 SCT017 OVC019 10/08 Q1012
                        R88/29//95 NOSIG=
201904120630 METAR LROP 120630Z 07010KT 9999 OVC017 10/09 Q1012 R88/29//95
                        NOSIG=
201904120700 METAR LROP 120700Z 07011KT 9000 OVC018 11/09 Q1012 R88/29//95
                        NOSIG=
201904120730 METAR LROP 120730Z 08009KT 9000 OVC018 11/08 Q1013 R88/29//95
                        NOSIG=
201904120800 METAR LROP 120800Z 08010KT 9999 FEW011 OVC013 12/09 Q1013
                        R88/29//95 NOSIG=
201904120830 METAR LROP 120830Z 07009KT 9999 OVC013 11/09 Q1013 R88/29//95
                        NOSIG=
201904120900 METAR LROP 120900Z 07010KT 9999 OVC013 12/09 Q1013 R88/29//95
                        NOSIG=
201904120930 METAR LROP 120930Z 09009KT 9999 BKN013 OVC016 12/09 Q1013
                        R88/29//95 NOSIG=
201904121000 METAR LROP 121000Z 11009KT 9999 BKN015 OVC016 12/09 Q1013
                        R88/29//95 NOSIG=
201904121030 METAR LROP 121030Z 11008KT 9999 BKN013 OVC017 13/10 Q1013
                        R88/29//95 NOSIG=
201904121100 METAR LROP 121100Z 10009KT 9999 BKN014 OVC020 12/09 Q1013
                        R88/09//95 NOSIG=
201904121130 METAR LROP 121130Z 09009KT 9999 FEW015 BKN028 14/10 Q1012
                        R88/09//95 NOSIG=
201904121200 METAR LROP 121200Z 10011KT 9999 FEW012 SCT033 14/10 Q1012
                        R88/09//95 NOSIG=
201904121230 METAR LROP 121230Z 10011KT 9999 BKN013 BKN040 14/09 Q1012
                        R88/09//95 NOSIG=
201904121300 METAR LROP 121300Z 09015KT 9999 BKN015 BKN035 14/10 Q1012
                        R88/09//95 NOSIG=
201904121330 METAR LROP 121330Z 09013KT 9999 BKN013 BKN033 14/10 Q1012
                        R88/09//95 NOSIG=
201904121400 METAR LROP 121400Z 09014KT 9999 BKN015 BKN032 15/10 Q1012
                        R88/09//95 NOSIG=
201904121430 METAR LROP 121430Z 10012KT 9999 BKN016 BKN030 13/09 Q1012
                        R88/09//95 NOSIG=
201904121500 METAR LROP 121500Z 08014KT 9999 BKN016 BKN027 13/09 Q1012
                        R88/09//95 NOSIG=
201904121530 METAR LROP 121530Z 08014KT 9999 SCT016 OVC027 13/09 Q1012
                        R88/09//95 NOSIG=
201904121600 METAR LROP 121600Z 07014KT 9999 BKN029 12/09 Q1012 R88/09//95
                        NOSIG=
201904121630 METAR LROP 121630Z 07014KT 9999 FEW003 SCT029 11/08 Q1012
                        R88/09//95 NOSIG=
201904121700 METAR COR LROP 121700Z 06011KT CAVOK 11/08 Q1012 R88/09//95
                        NOSIG=
201904121730 METAR LROP 121730Z 07010KT 9999 FEW012 10/08 Q1013 R88/09//95
                        NOSIG=
201904121800 METAR LROP 121800Z 07013KT 9999 FEW018 10/08 Q1013 R88/09//95
                        NOSIG=
201904121830 METAR LROP 121830Z 07016KT 9999 BKN019 10/07 Q1013 R88/09//95
                        BECMG 5000 -SHRA BKN015 SCT030CB=
201904121900 METAR LROP 121900Z 07014KT 9999 SCT020 10/07 Q1013 R88/09//95
                        BECMG 5000 -SHRA BKN015 SCT030CB=
201904121930 METAR LROP 121930Z 07017KT 9999 SCT021 10/06 Q1013 R88/09//95
                        BECMG 5000 -SHRA BKN015 SCT035CB=
201904122000 METAR LROP 122000Z 07016KT 9999 BKN019 10/06 Q1013 R88/09//95
                        BECMG 5000 -SHRA BKN015 SCT035CB=
201904122030 METAR LROP 122030Z 07015KT 9999 OVC019 10/06 Q1013 R88/09//95
                        TEMPO 5000 -SHRA BKN015 SCT035CB=
201904122100 METAR LROP 122100Z 08013KT 9999 OVC019 09/06 Q1013 R88/09//95
                        TEMPO 5000 -SHRA BKN015 SCT035CB=
201904122130 METAR COR LROP 122130Z 06014KT 9999 OVC020 09/06 Q1013 R88/09//95
                        TEMPO 5000 -SHRA BKN015 SCT035CB=
201904122200 METAR LROP 122200Z 06014KT 9999 OVC020 09/05 Q1013 R88/09//95
                        TEMPO 5000 -SHRA BKN015 SCT035CB=
201904122230 METAR LROP 122230Z 07014KT 9999 OVC019 09/06 Q1013 R88/09//95
                        TEMPO 5000 -SHRA BKN015 SCT035CB=
201904122300 METAR LROP 122300Z 05017KT 9999 OVC019 09/06 Q1013 R88/09//95
                        TEMPO 5000 -SHRA BKN015 SCT035CB=
201904122330 METAR LROP 122330Z 06015KT 9999 OVC019 09/05 Q1013 R88/09//95
                        TEMPO 5000 -SHRA BKN015 SCT035CB=
201904130000 METAR LROP 130000Z 06015KT 9999 OVC020 09/05 Q1013 R88/09//95
                        TEMPO 5000 -SHRA BKN015 SCT035CB=
201904130030 METAR LROP 130030Z 06016KT 9999 OVC021 09/05 Q1013 R88/09//95
                        NOSIG=
201904130100 METAR LROP 130100Z 07012KT 9999 -RA OVC022 09/05 Q1013 R88/09//95
                        NOSIG=
201904130130 METAR LROP 130130Z 06011KT 9999 -RA OVC022 08/06 Q1013 R88/09//95
                        NOSIG=
201904130200 METAR COR LROP 130200Z 06012KT 9999 -RA OVC022 08/05 Q1013
                        R88/29//95 NOSIG=
201904130230 METAR LROP 130230Z 06015KT 9000 RA OVC022 08/06 Q1013 R88/29//95
                        NOSIG=
201904130300 METAR LROP 130300Z 06012KT 8000 RA OVC021 08/06 Q1013 R88/29//95
                        NOSIG=
201904130330 METAR LROP 130330Z 06013KT 6000 RA OVC022 07/06 Q1013 R88/29//95
                        NOSIG=
201904130400 METAR LROP 130400Z 06013KT 7000 -RA OVC021 07/06 Q1013 R88/29//95
                        NOSIG=
201904130430 METAR LROP 130430Z 07011KT 8000 -RA OVC024 07/06 Q1013 R88/29//95
                        NOSIG=
201904130500 METAR LROP 130500Z 07011KT 5000 RA OVC026 07/06 Q1013 R88/29//95
                        NOSIG=
201904130530 METAR LROP 130530Z 07010KT 6000 RA OVC026 07/06 Q1014 R88/29//95
                        NOSIG=
201904130600 METAR LROP 130600Z 06011KT 4500 RA OVC027 07/06 Q1013 R88/29//95
                        NOSIG=
201904130630 METAR LROP 130630Z 05009KT 6000 -RA OVC026 07/06 Q1013 R88/29//95
                        NOSIG=
201904130700 METAR LROP 130700Z 05011KT 6000 -RA OVC025 08/07 Q1014 R88/29//95
                        NOSIG=
201904130730 METAR LROP 130730Z 06012KT 5000 RA OVC024 08/07 Q1014 R88/29//95
                        NOSIG=
201904130800 METAR LROP 130800Z 06011KT 5000 -RA BR SCT010 OVC023 08/07
                        Q1014 R88/29//95 NOSIG=
201904130830 METAR LROP 130830Z 06011KT 5000 RA SCT009 OVC023 08/07 Q1014
                        R88/29//95 NOSIG=
201904130900 METAR LROP 130900Z 06012KT 7000 -RA SCT008 OVC022 08/07 Q1014
                        R88/29//95 NOSIG=
201904130930 METAR LROP 130930Z 06013KT 7000 -RA BKN008 OVC024 08/07 Q1014
                        R88/29//95 NOSIG=
201904131000 METAR LROP 131000Z 05013KT 8000 -RA FEW008 OVC027 09/07 Q1014
                        R88/29//95 NOSIG=
201904131030 METAR LROP 131030Z 05014KT 5000 RA SCT010 OVC021 09/08 Q1014
                        R88/29//95 NOSIG=
201904131100 METAR LROP 131100Z 07012KT 8000 -RA SCT009 OVC018 09/08 Q1014
                        R88/29//95 NOSIG=
201904131130 METAR LROP 131130Z 06013KT 8000 -RA BKN009 OVC015 09/08 Q1014
                        R88/29//95 NOSIG=
201904131200 METAR LROP 131200Z 05016KT 7000 -RA SCT008 OVC029 09/08 Q1014
                        R88/29//95 NOSIG=
201904131230 METAR LROP 131230Z 05014KT 8000 -RA FEW008 OVC030 09/08 Q1014
                        R88/29//95 NOSIG=
201904131300 METAR LROP 131300Z 05015KT 9000 -RA FEW009 OVC035 09/08 Q1014
                        R88/29//95 NOSIG=
201904131330 METAR LROP 131330Z 06015KT 9000 -RA FEW009 OVC028 09/08 Q1014
                        R88/29//95 NOSIG=
201904131400 METAR LROP 131400Z 06014KT 9999 -RA SCT010 OVC045 10/08 Q1014
                        R88/29//95 NOSIG=
201904131430 METAR LROP 131430Z 06015KT 9999 -RA FEW009 OVC038 10/08 Q1014
                        R88/29//95 NOSIG=
201904131500 METAR LROP 131500Z 06014KT 9999 -RA FEW010 OVC030 09/08 Q1014
                        R88/29//95 NOSIG=
201904131530 METAR LROP 131530Z 06013KT 9999 FEW008 OVC028 09/08 Q1014
                        R88/29//95 NOSIG=
201904131600 METAR COR LROP 131600Z 06011KT 9999 OVC029 09/07 Q1014 R88/29//95
                        NOSIG=
201904131630 METAR LROP 131630Z 06010KT 9999 OVC029 09/07 Q1014 R88/29//95
                        NOSIG=
201904131700 METAR LROP 131700Z 06010KT 9999 OVC029 09/07 Q1014 R88/29//95
                        NOSIG=
201904131730 METAR LROP 131730Z 07009KT 9999 OVC030 09/07 Q1015 R88/29//95
                        NOSIG=
201904131800 METAR LROP 131800Z 08008KT 9999 -DZ SCT014 OVC029 09/07 Q1015
                        R88/29//95 NOSIG=
201904131830 METAR LROP 131830Z 07009KT 9999 -DZ SCT014 OVC030 09/07 Q1015
                        R88/29//95 NOSIG=
201904131900 METAR LROP 131900Z 08007KT 9999 DZ BKN014 OVC032 08/07 Q1015
                        R88/29//95 NOSIG=
201904131930 METAR LROP 131930Z 08009KT 9999 FEW015 OVC032 08/07 Q1015
                        REDZ R88/29//95 NOSIG=
201904132000 METAR LROP 132000Z 07008KT 9999 OVC033 08/07 Q1015 R88/29//95
                        NOSIG=
201904132030 METAR LROP 132030Z 06009KT 9999 OVC034 08/06 Q1015 R88/29//95
                        NOSIG=
201904132100 METAR LROP 132100Z 06010KT 9999 OVC031 08/06 Q1015 R88/29//95
                        NOSIG=
201904132130 METAR LROP 132130Z 07008KT 9999 OVC031 08/06 Q1015 R88/29//95
                        NOSIG=
201904132200 METAR LROP 132200Z 06008KT 9999 -DZ SCT014 OVC032 08/06 Q1015
                        R88/29//95 NOSIG=
201904132230 METAR LROP 132230Z 06007KT 9999 -DZ SCT014 OVC032 08/06 Q1015
                        R88/29//95 NOSIG=
201904132300 METAR LROP 132300Z 08005KT 9999 OVC033 08/06 Q1015 R88/29//95
                        NOSIG=
201904132330 METAR LROP 132330Z 07005KT 9999 -DZ SCT014 OVC035 08/07 Q1014
                        R88/29//95 NOSIG=
201904140000 METAR LROP 140000Z 07007KT 9999 -RA OVC037 08/06 Q1014 R88/29//95
                        NOSIG=
201904140030 METAR LROP 140030Z 06006KT 9999 -RA OVC034 08/06 Q1014 R88/29//95
                        NOSIG=
201904140100 METAR LROP 140100Z 06006KT 9999 -RA OVC027 08/06 Q1014 R88/29//95
                        NOSIG=
201904140130 METAR LROP 140130Z 05007KT 9999 OVC026 08/06 Q1014 R88/29//95
                        NOSIG=
201904140200 METAR LROP 140200Z 07004KT 9999 OVC027 08/06 Q1014 R88/29//95
                        NOSIG=
201904140230 METAR LROP 140230Z 06006KT 9999 OVC032 08/06 Q1013 R88/29//95
                        NOSIG=
201904140300 METAR LROP 140300Z 05007KT 9999 OVC036 08/06 Q1013 R88/29//95
                        NOSIG=
201904140330 METAR LROP 140330Z 04008KT 9999 OVC038 08/06 Q1013 R88/29//95
                        NOSIG=
201904140400 METAR LROP 140400Z 05007KT 9999 OVC042 08/06 Q1013 R88/29//95
                        NOSIG=
201904140430 METAR LROP 140430Z 07008KT 9999 SCT038 OVC043 08/06 Q1013
                        R88/29//95 NOSIG=
201904140500 METAR LROP 140500Z 05006KT 9999 BKN040 08/06 Q1014 R88/29//95
                        NOSIG=
201904140530 METAR LROP 140530Z 05004KT 9999 -RA OVC036 08/06 Q1014 R88/29//95
                        NOSIG=
201904140600 METAR LROP 140600Z 05007KT 9999 -RA OVC047 08/06 Q1014 R88/29//95
                        NOSIG=
201904140630 METAR LROP 140630Z 04007KT 9999 -RA NSC 09/07 Q1014 R88/29//95
                        NOSIG=
201904140700 METAR LROP 140700Z 05006KT 9999 -RA FEW015 09/06 Q1014 R88/29//95
                        NOSIG=
201904140730 METAR LROP 140730Z 05006KT 010V070 9999 BKN012 09/06 Q1014
                        R88/29//95 NOSIG=
201904140800 METAR LROP 140800Z 04005KT 9999 SCT012 10/07 Q1014 R88/29//95
                        NOSIG=
201904140830 METAR LROP 140830Z 01004KT 340V050 9999 BKN013 10/07 Q1014
                        R88/29//95 NOSIG=
201904140900 METAR LROP 140900Z VRB02KT 9999 SCT012 11/07 Q1014 R88/29//95
                        NOSIG=
201904140930 METAR LROP 140930Z VRB02KT 9999 SCT014 BKN020 11/07 Q1014
                        R88/29//95 TEMPO 5000 -RA BKN010
                        OVC040=
201904141000 METAR LROP 141000Z VRB02KT 9999 SCT027 11/06 Q1014 R88/29//95
                        TEMPO 5000 -RA BKN010 OVC040=
201904141030 METAR LROP 141030Z VRB02KT 9999 SCT020 11/06 Q1014 R88/29//95
                        TEMPO 5000 -RA BKN010 OVC040=
201904141100 METAR LROP 141100Z VRB02KT 9999 FEW023 12/06 Q1014 R88/29//95
                        TEMPO 5000 -RA BKN010 OVC040=
201904141130 METAR LROP 141130Z 12004KT 030V160 9999 BKN032 12/06 Q1014
                        R88/29//95 TEMPO 5000 -RA BKN010
                        OVC040=
201904141200 METAR LROP 141200Z VRB02KT 9999 BKN026 BKN037 12/06 Q1014
                        R88/19//95 TEMPO 5000 -RA BKN010
                        OVC040=
201904141230 METAR LROP 141230Z 12005KT 9999 BKN024 BKN035 12/07 Q1014
                        R88/19//95 TEMPO 5000 -RA BKN010
                        OVC040=
201904141300 METAR LROP 141300Z 13005KT 9999 BKN024 OVC030 11/07 Q1014
                        R88/19//95 TEMPO 5000 -RA BKN010
                        OVC040=
201904141330 METAR LROP 141330Z 10004KT 9999 BKN024 OVC029 11/07 Q1014
                        R88/19//95 NOSIG=
201904141400 METAR LROP 141400Z 10005KT 9999 SCT025 OVC033 11/07 Q1014
                        R88/19//95 NOSIG=
201904141430 METAR LROP 141430Z 10005KT 9999 SCT025 OVC035 11/07 Q1014
                        R88/19//95 NOSIG=
201904141500 METAR LROP 141500Z 08011KT 9999 SCT026 OVC037 11/07 Q1014
                        R88/CLRD// NOSIG=
201904141530 METAR LROP 141530Z 08010KT 9999 FEW029 OVC039 10/06 Q1015
                        R88/CLRD// NOSIG=
201904141600 METAR LROP 141600Z 09009KT 9999 BKN042 10/06 Q1015 NOSIG=
201904141630 METAR LROP 141630Z 09007KT 9999 OVC040 10/06 Q1015 NOSIG=
201904141700 METAR LROP 141700Z 09006KT 9999 OVC040 10/05 Q1015 NOSIG=
201904141730 METAR COR LROP 141730Z 07006KT 9999 OVC033 09/05 Q1015 NOSIG=
201904141800 METAR LROP 141800Z 06010KT 9999 OVC032 09/05 Q1015 NOSIG=
201904141830 METAR LROP 141830Z 05007KT 9999 OVC036 09/04 Q1016 NOSIG=
201904141900 METAR LROP 141900Z 07007KT 9999 OVC047 09/05 Q1016 NOSIG=
201904141930 METAR LROP 141930Z 07007KT 9999 OVC047 09/04 Q1016 NOSIG=
201904142000 METAR LROP 142000Z 36004KT 330V040 9999 OVC046 09/05 Q1016
                        NOSIG=
201904142030 METAR COR LROP 142030Z 34004KT 9999 SCT018 OVC044 08/05 Q1016
                        NOSIG=
201904142100 METAR LROP 142100Z VRB02KT 9999 SCT017 09/05 Q1016 NOSIG=
201904142130 METAR LROP 142130Z 01003KT 9999 SCT017 SCT026 08/05 Q1016
                        NOSIG=
201904142200 METAR LROP 142200Z 01004KT 340V050 9999 BKN028 09/05 Q1017
                        NOSIG=
201904142230 METAR LROP 142230Z 36004KT 9999 BKN030 08/06 Q1017 NOSIG=
201904142300 METAR LROP 142300Z 33004KT 300V030 9999 OVC031 09/06 Q1017
                        NOSIG=
201904142330 METAR LROP 142330Z VRB01KT CAVOK 08/07 Q1017 NOSIG=
201904150000 METAR LROP 150000Z VRB01KT CAVOK 08/07 Q1017 NOSIG=
201904150030 METAR LROP 150030Z 11004KT 9999 FEW009 SCT021 08/06 Q1017
                        NOSIG=
201904150100 METAR LROP 150100Z 07007KT 9999 FEW010 BKN037 08/04 Q1017
                        NOSIG=
201904150130 METAR LROP 150130Z 05008KT 9999 OVC040 08/03 Q1017 NOSIG=
201904150200 METAR LROP 150200Z 04005KT 9999 OVC046 07/03 Q1017 NOSIG=
201904150230 METAR LROP 150230Z 04004KT 9999 OVC048 07/03 Q1017 NOSIG=
201904150300 METAR LROP 150300Z 07003KT CAVOK 07/03 Q1017 NOSIG=
201904150330 METAR LROP 150330Z 08004KT CAVOK 07/03 Q1017 NOSIG=
201904150400 METAR LROP 150400Z 08005KT CAVOK 07/02 Q1017 NOSIG=
201904150430 METAR LROP 150430Z 07005KT CAVOK 07/02 Q1017 NOSIG=
201904150500 METAR LROP 150500Z 08006KT CAVOK 07/02 Q1017 NOSIG=
201904150530 METAR LROP 150530Z 07007KT CAVOK 08/02 Q1018 NOSIG=
201904150600 METAR LROP 150600Z 07010KT CAVOK 08/00 Q1018 NOSIG=
201904150630 METAR LROP 150630Z 06010KT CAVOK 09/M01 Q1018 NOSIG=
201904150700 METAR LROP 150700Z 06012KT CAVOK 09/00 Q1018 NOSIG=
201904150730 METAR LROP 150730Z 06010KT 9999 OVC049 09/M01 Q1018 NOSIG=
201904150800 METAR LROP 150800Z 07010KT 9999 OVC048 09/M00 Q1018 NOSIG=
201904150830 METAR LROP 150830Z 07009KT 9999 OVC045 09/M01 Q1018 NOSIG=
201904150900 METAR LROP 150900Z 06007KT 9999 BKN046 10/00 Q1018 NOSIG=
201904150930 METAR LROP 150930Z 04003KT 300V070 CAVOK 11/01 Q1018 NOSIG=
201904151000 METAR LROP 151000Z VRB03KT CAVOK 11/00 Q1018 NOSIG=
201904151030 METAR LROP 151030Z 28007KT 250V310 CAVOK 12/02 Q1018 NOSIG=
201904151100 METAR LROP 151100Z 25008KT CAVOK 12/02 Q1018 NOSIG=
201904151130 METAR LROP 151130Z 24007KT 210V280 9999 BKN040 13/03 Q1018
                        NOSIG=
201904151200 METAR LROP 151200Z 24005KT 180V280 9999 SCT040 12/02 Q1018
                        NOSIG=
201904151230 METAR COR LROP 151230Z 27007KT 9999 BKN041 13/02 Q1018 NOSIG=
201904151300 METAR LROP 151300Z VRB06KT 9999 BKN039 13/04 Q1018 NOSIG=
201904151330 METAR LROP 151330Z 26008KT 210V290 9999 BKN032 13/05 Q1017
                        NOSIG=
201904151400 METAR LROP 151400Z 26007KT 240V300 9999 BKN029 11/04 Q1017
                        TEMPO SCT030CB=
201904151430 METAR LROP 151430Z 26006KT 230V290 9999 BKN030 11/05 Q1018
                        TEMPO SCT030CB=
201904151500 METAR LROP 151500Z 25004KT 170V300 9999 FEW028CB BKN035 11/05
                        Q1018 TEMPO 5000 -SHRA=
201904151530 METAR LROP 151530Z 22001KT 9999 -SHRA SCT030CB OVC040 11/04
                        Q1018 TEMPO 5000 -SHRA=
201904151600 METAR LROP 151600Z 20001KT 9999 -SHRA SCT028 FEW030CB BKN041
                        11/04 Q1018 TEMPO 5000 -SHRA=
201904151630 METAR LROP 151630Z 13005KT 9999 FEW040CB BKN042 10/04 Q1018
                        TEMPO 5000 -SHRA=
201904151700 METAR LROP 151700Z 12004KT 9999 FEW029 BKN040 10/02 Q1018
                        TEMPO 5000 -SHRA=
201904151730 METAR LROP 151730Z 16003KT 9999 FEW037 BKN041 10/05 Q1018
                        TEMPO 5000 -SHRA=
201904151800 METAR LROP 151800Z 13004KT 9999 BKN044 10/05 Q1019 TEMPO
                        5000 -SHRA=
201904151830 METAR LROP 151830Z 18004KT CAVOK 09/04 Q1019 TEMPO 5000 -SHRA=
201904151900 METAR LROP 151900Z 22003KT CAVOK 09/04 Q1019 NOSIG=
201904151930 METAR LROP 151930Z 23003KT CAVOK 07/05 Q1019 NOSIG=
201904152000 METAR LROP 152000Z 22002KT CAVOK 07/06 Q1019 NOSIG=
201904152030 METAR LROP 152030Z 21003KT CAVOK 08/06 Q1019 NOSIG=
201904152100 METAR LROP 152100Z 15005KT CAVOK 08/06 Q1019 NOSIG=
201904152130 METAR LROP 152130Z 22004KT 9999 SCT036 07/05 Q1019 NOSIG=
201904152200 METAR LROP 152200Z 21003KT 9999 FEW044 07/05 Q1019 NOSIG=
201904152230 METAR LROP 152230Z 24003KT 9000 FEW044 SCT048 06/05 Q1019
                        NOSIG=
201904152300 METAR LROP 152300Z 21002KT CAVOK 06/05 Q1019 NOSIG=
201904152330 METAR LROP 152330Z 21001KT CAVOK 07/06 Q1019 NOSIG=
201904160000 METAR LROP 160000Z 25003KT 8000 BKN046 07/05 Q1019 NOSIG=
201904160030 METAR LROP 160030Z 28004KT 8000 OVC046 07/06 Q1019 NOSIG=
201904160100 METAR LROP 160100Z 30003KT 270V330 9999 OVC044 07/06 Q1019
                        NOSIG=
201904160130 METAR LROP 160130Z 27003KT 8000 OVC042 07/06 Q1019 NOSIG=
201904160200 METAR LROP 160200Z 25004KT 8000 BKN039 07/06 Q1019 NOSIG=
201904160230 METAR LROP 160230Z 29003KT 8000 BKN037 07/06 Q1018 NOSIG=
201904160300 METAR LROP 160300Z 28003KT 250V310 9000 BKN033 07/06 Q1018
                        NOSIG=
201904160330 METAR LROP 160330Z 28003KT 9999 OVC033 07/06 Q1018 NOSIG=
201904160400 METAR LROP 160400Z 27002KT 9999 BKN035 OVC046 07/06 Q1018
                        NOSIG=
201904160430 METAR LROP 160430Z 25004KT 230V300 9999 BKN034 08/06 Q1018
                        NOSIG=
201904160500 METAR LROP 160500Z 25003KT 9999 BKN033 08/06 Q1018 NOSIG=
201904160530 METAR LROP 160530Z 26004KT 9999 BKN032 09/06 Q1018 NOSIG=
201904160600 METAR LROP 160600Z 29006KT 270V330 9999 BKN034 10/06 Q1018
                        NOSIG=
201904160630 METAR LROP 160630Z 31005KT 270V350 9999 SCT034 12/07 Q1018
                        NOSIG=
201904160700 METAR LROP 160700Z 32005KT 280V350 9999 SCT033 11/04 Q1018
                        NOSIG=
201904160730 METAR LROP 160730Z 26011KT 9999 SCT027 12/05 Q1018 NOSIG=
201904160800 METAR LROP 160800Z 27012KT 9999 FEW028 SCT035 13/04 Q1018
                        NOSIG=
201904160830 METAR LROP 160830Z 26009KT 9999 SCT032 13/04 Q1017 NOSIG=
201904160900 METAR LROP 160900Z 27011KT 9999 SCT032 14/05 Q1017 NOSIG=
201904160930 METAR LROP 160930Z 27011KT 9999 BKN033 15/05 Q1017 NOSIG=
201904161000 METAR LROP 161000Z 28008KT 240V330 9999 SCT036 14/05 Q1016
                        NOSIG=
201904161030 METAR LROP 161030Z 23011KT 9999 SCT038 15/05 Q1016 NOSIG=
201904161100 METAR COR LROP 161100Z 25009KT 220V280 9999 SCT040 16/05
                        Q1016 NOSIG=
201904161130 METAR LROP 161130Z 26010KT 230V300 9999 SCT042 15/05 Q1016
                        NOSIG=
201904161200 METAR LROP 161200Z 23009KT 9999 SCT047 17/04 Q1015 NOSIG=
201904161230 METAR LROP 161230Z 23009KT 9999 BKN047 17/04 Q1015 NOSIG=
201904161300 METAR LROP 161300Z 23007KT 9999 BKN048 17/03 Q1014 NOSIG=
201904161330 METAR LROP 161330Z 23007KT 9999 SCT049 17/04 Q1014 NOSIG=
201904161400 METAR LROP 161400Z 24008KT 220V280 9999 FEW048 17/04 Q1014
                        NOSIG=
201904161430 METAR LROP 161430Z 21008KT 9999 SCT048 18/06 Q1014 NOSIG=
201904161500 METAR COR LROP 161500Z 21006KT 180V240 9999 FEW050CB 16/04
                        Q1014 WS ALL RWY NOSIG=
201904161530 METAR LROP 161530Z 10008KT 9999 FEW050CB 15/04 Q1014 WS ALL
                        RWY NOSIG=
201904161600 METAR LROP 161600Z 06015KT 9999 FEW060CB 15/05 Q1014 WS ALL
                        RWY NOSIG=
201904161630 METAR LROP 161630Z 09016KT 9999 FEW060CB 11/03 Q1015 WS ALL
                        RWY TEMPO 5000 -SHRA=
201904161700 METAR LROP 161700Z 06015KT 030V110 9999 FEW055CB 11/04 Q1016
                        WS ALL RWY TEMPO 5000 -SHRA=
201904161730 METAR LROP 161730Z 10016KT 9999 -SHRA SCT050CB 10/03 Q1016
                        RMK WS ALL RWY R88/29//95 TEMPO 5000
                        -SHRA=
201904161800 METAR LROP 161800Z 09016KT 9999 -SHRA SCT055CB 08/04 Q1016
                        WS ALL RWY R88/29//95 TEMPO 5000
                        -SHRA=
201904161830 METAR LROP 161830Z 10014KT 9999 FEW060CB 08/04 Q1016 WS ALL
                        RWY R88/29//95 NOSIG=
201904161900 METAR LROP 161900Z 09012KT 9999 FEW060CB 07/04 Q1016 WS ALL
                        RWY R88/29//95 NOSIG=
201904161930 METAR LROP 161930Z 09010KT 9999 FEW055CB 07/04 Q1017 WS ALL
                        RWY R88/CLRD// NOSIG=
201904162000 METAR LROP 162000Z 09010KT 9999 -RA FEW024 07/03 Q1017 R88/CLRD//
                        NOSIG=
201904162030 METAR LROP 162030Z 09010KT CAVOK 06/04 Q1017 R88/CLRD// NOSIG=
201904162100 METAR LROP 162100Z 11010KT CAVOK 06/04 Q1017 NOSIG=
201904162130 METAR LROP 162130Z 10006KT CAVOK 06/04 Q1017 NOSIG=
201904162200 METAR LROP 162200Z 12005KT CAVOK 06/03 Q1017 NOSIG=
201904162230 METAR LROP 162230Z 11006KT CAVOK 06/03 Q1017 NOSIG=
201904162300 METAR LROP 162300Z 11006KT CAVOK 05/03 Q1017 NOSIG=
201904162330 METAR LROP 162330Z 13006KT CAVOK 05/03 Q1017 NOSIG=
201904170000 METAR LROP 170000Z 10006KT CAVOK 05/02 Q1017 NOSIG=
201904170030 METAR LROP 170030Z 10004KT CAVOK 04/02 Q1017 NOSIG=
201904170100 METAR COR LROP 170100Z 02004KT CAVOK 03/02 Q1017 NOSIG=
201904170130 METAR LROP 170130Z 03003KT CAVOK 03/02 Q1016 NOSIG=
201904170200 METAR LROP 170200Z 02005KT CAVOK 03/02 Q1016 NOSIG=
201904170230 METAR LROP 170230Z 01003KT CAVOK 03/02 Q1016 NOSIG=
201904170300 METAR LROP 170300Z 02003KT CAVOK 03/02 Q1016 NOSIG=
201904170330 METAR LROP 170330Z 36003KT 330V040 CAVOK 02/02 Q1016 NOSIG=
201904170400 METAR LROP 170400Z 26001KT 8000 NSC 03/02 Q1016 NOSIG=
201904170430 METAR LROP 170430Z 23001KT 8000 NSC 03/03 Q1017 NOSIG=
201904170500 METAR LROP 170500Z 00000KT CAVOK 04/03 Q1017 NOSIG=
201904170530 METAR LROP 170530Z 00000KT CAVOK 05/02 Q1017 NOSIG=
201904170600 METAR LROP 170600Z 06003KT 030V110 CAVOK 05/02 Q1017 NOSIG=
201904170630 METAR LROP 170630Z 10003KT CAVOK 06/03 Q1017 NOSIG=
201904170700 METAR LROP 170700Z VRB01KT CAVOK 06/03 Q1017 NOSIG=
201904170730 METAR LROP 170730Z 11002KT 060V200 CAVOK 07/03 Q1018 NOSIG=
201904170800 METAR LROP 170800Z 10002KT 050V140 CAVOK 07/03 Q1018 NOSIG=
201904170830 METAR LROP 170830Z VRB02KT CAVOK 09/05 Q1018 NOSIG=
201904170900 METAR LROP 170900Z VRB02KT CAVOK 10/03 Q1018 NOSIG=
201904170930 METAR LROP 170930Z VRB04KT CAVOK 11/04 Q1018 NOSIG=
201904171000 METAR LROP 171000Z VRB02KT CAVOK 12/04 Q1018 NOSIG=
201904171030 METAR LROP 171030Z VRB01KT 9999 FEW033 13/05 Q1018 NOSIG=
201904171100 METAR LROP 171100Z 10002KT 010V160 9999 SCT035 14/05 Q1018
                        NOSIG=
201904171130 METAR LROP 171130Z 07004KT 300V100 9999 FEW037 14/03 Q1018
                        NOSIG=
201904171200 METAR LROP 171200Z 19003KT 100V260 9999 SCT038 15/02 Q1018
                        NOSIG=
201904171230 METAR LROP 171230Z 10006KT 030V150 9999 BKN046 14/02 Q1018
                        NOSIG=
201904171300 METAR LROP 171300Z 07006KT 020V090 CAVOK 14/03 Q1018 NOSIG=
201904171330 METAR LROP 171330Z 03013KT CAVOK 14/04 Q1018 NOSIG=
201904171400 METAR LROP 171400Z 03011KT 9999 FEW050CB 13/04 Q1018 NOSIG=
201904171430 METAR LROP 171430Z 04012KT 9999 FEW050CB 12/04 Q1019 NOSIG=
201904171500 METAR LROP 171500Z 06013KT CAVOK 12/05 Q1019 NOSIG=
201904171530 METAR LROP 171530Z 07013KT 9999 FEW050CB 12/05 Q1019 NOSIG=
201904171600 METAR LROP 171600Z 07013KT 9999 FEW050CB 11/06 Q1020 NOSIG=
201904171630 METAR LROP 171630Z 08013KT 9999 FEW050CB 11/05 Q1020 NOSIG=
201904171700 METAR LROP 171700Z 08011KT 9999 FEW050CB 10/05 Q1020 NOSIG=
201904171730 METAR LROP 171730Z 07014KT CAVOK 10/05 Q1021 NOSIG=
201904171800 METAR LROP 171800Z 07013KT CAVOK 09/05 Q1021 NOSIG=
201904171830 METAR LROP 171830Z 07010KT CAVOK 09/06 Q1022 NOSIG=
201904171900 METAR LROP 171900Z 08008KT CAVOK 09/06 Q1022 NOSIG=
201904171930 METAR LROP 171930Z 08007KT CAVOK 09/06 Q1022 NOSIG=
201904172000 METAR LROP 172000Z 08007KT 9999 SCT030 09/06 Q1022 NOSIG=
201904172030 METAR LROP 172030Z 08007KT 9999 SCT030 09/06 Q1022 NOSIG=
201904172100 METAR COR LROP 172100Z 07009KT 9999 SCT023 09/06 Q1022 NOSIG=
201904172130 METAR COR LROP 172130Z 07008KT 9999 SCT025 09/06 Q1023 NOSIG=
201904172200 METAR LROP 172200Z 08007KT 9999 SCT028 09/06 Q1023 NOSIG=
201904172230 METAR LROP 172230Z 09005KT 9999 OVC028 09/06 Q1023 NOSIG=
201904172300 METAR LROP 172300Z 08003KT 9999 OVC029 09/06 Q1023 NOSIG=
201904172330 METAR LROP 172330Z 05005KT 9999 SCT035 09/06 Q1023 NOSIG=
201904180000 METAR LROP 180000Z 03004KT 9999 BKN046 08/06 Q1023 NOSIG=
201904180030 METAR LROP 180030Z 05004KT CAVOK 09/06 Q1023 NOSIG=
201904180100 METAR LROP 180100Z 06004KT CAVOK 08/06 Q1023 NOSIG=
201904180130 METAR LROP 180130Z AUTO 05004KT 9999 OVC058/// 09/06 Q1023
                        NOSIG=
201904180200 METAR LROP 180200Z 08002KT CAVOK 09/06 Q1023 NOSIG=
201904180230 METAR COR LROP 180230Z 33003KT CAVOK 08/06 Q1023 NOSIG=
201904180300 METAR LROP 180300Z 29003KT CAVOK 08/06 Q1023 NOSIG=
201904180330 METAR LROP 180330Z 27004KT CAVOK 07/06 Q1023 NOSIG=
201904180400 METAR LROP 180400Z 28004KT CAVOK 07/06 Q1023 NOSIG=
201904180430 METAR LROP 180430Z 26003KT 9999 FEW047 08/07 Q1023 NOSIG=
201904180500 METAR LROP 180500Z 29005KT 9999 FEW019 BKN048 08/06 Q1024
                        NOSIG=
201904180530 METAR LROP 180530Z 29005KT 260V320 9999 BKN019 BKN037 OVC042
                        09/06 Q1024 BECMG 06010KT=
201904180600 METAR LROP 180600Z 30005KT 9999 -RA BKN020 OVC033 09/07 Q1024
                        BECMG 06010KT=
201904180630 METAR LROP 180630Z 31005KT 9000 -RA BKN014 OVC016 08/07 Q1024
                        R88/29//95 BECMG 06010KT=
201904180700 METAR LROP 180700Z 30005KT 9000 BKN011 BKN015 08/07 Q1025
                        R88/29//95 BECMG 06010KT=
201904180730 METAR LROP 180730Z 31004KT 9999 -RA OVC015 09/08 Q1025 R88/29//95
                        BECMG 06010KT=
201904180800 METAR LROP 180800Z 36008KT 6000 -RA OVC008 09/08 Q1025 R88/29//95
                        BECMG 06010KT=
201904180830 METAR LROP 180830Z 03013KT 9999 -RA BKN006 BKN009 OVC020
                        09/08 Q1026 R88/29//95 BECMG 06010KT=
201904180900 METAR LROP 180900Z 05013KT 8000 -RA BKN007 BKN009 OVC017
                        09/08 Q1026 R88/29//95 NOSIG=
201904180930 METAR LROP 180930Z 04016KT 9000 -RA BKN007 BKN015 OVC019
                        09/08 Q1026 R88/29//95 NOSIG=
201904181000 METAR LROP 181000Z 05015KT 9000 -RA BKN009 BKN019 BKN036
                        09/09 Q1026 R88/29//95 NOSIG=
201904181030 METAR LROP 181030Z 05015KT 9999 -RA BKN009 OVC021 10/08 Q1026
                        R88/29//95 NOSIG=
201904181100 METAR LROP 181100Z 06018KT 9999 -RA BKN012 OVC023 10/09 Q1026
                        R88/29//95 NOSIG=
201904181130 METAR LROP 181130Z 05018KT 9999 -RA BKN014 OVC037 10/07 Q1027
                        R88/29//95 NOSIG=
201904181200 METAR LROP 181200Z 06016KT 9999 FEW016 BKN020 BKN049 12/08
                        Q1027 R88/29//95 NOSIG=
201904181230 METAR LROP 181230Z 07016KT 9999 BKN019 BKN031 11/07 Q1027
                        R88/29//95 NOSIG=
201904181300 METAR COR LROP 181300Z 06015KT 9999 -RA FEW020 SCT032 BKN040
                        11/06 Q1027 R88/19//95 NOSIG=
201904181330 METAR LROP 181330Z 07011KT 9999 FEW038 11/07 Q1026 R88/19//95
                        NOSIG=
201904181400 METAR LROP 181400Z 08011KT 9999 FEW022 11/07 Q1026 R88/19//95
                        NOSIG=
201904181430 METAR LROP 181430Z 07009KT 9999 FEW024 12/07 Q1026 R88/19//95
                        NOSIG=
201904181500 METAR LROP 181500Z 08007KT 9999 FEW028 12/06 Q1026 R88/19//95
                        NOSIG=
201904181530 METAR COR LROP 181530Z 09006KT 9999 FEW028 12/06 Q1026 R88/CLRD//
                        NOSIG=
201904181600 METAR LROP 181600Z 10005KT CAVOK 12/06 Q1026 NOSIG=
201904181630 METAR LROP 181630Z 11003KT CAVOK 11/06 Q1026 NOSIG=
201904181700 METAR LROP 181700Z 00000KT CAVOK 10/06 Q1026 NOSIG=
201904181730 METAR LROP 181730Z 00000KT CAVOK 10/06 Q1026 NOSIG=
201904181800 METAR LROP 181800Z 25003KT 200V280 CAVOK 09/07 Q1027 NOSIG=
201904181830 METAR LROP 181830Z 28006KT CAVOK 09/07 Q1027 NOSIG=
201904181900 METAR LROP 181900Z 28006KT CAVOK 09/07 Q1027 NOSIG=
201904181930 METAR LROP 181930Z 28008KT CAVOK 09/07 Q1027 NOSIG=
201904182000 METAR LROP 182000Z 28008KT CAVOK 09/07 Q1027 NOSIG=
201904182030 METAR LROP 182030Z 29008KT CAVOK 09/07 Q1027 NOSIG=
201904182100 METAR LROP 182100Z 28010KT CAVOK 09/07 Q1027 NOSIG=
201904182130 METAR LROP 182130Z 28008KT CAVOK 09/07 Q1026 NOSIG=
201904182200 METAR LROP 182200Z 29006KT CAVOK 08/07 Q1026 NOSIG=
201904182230 METAR LROP 182230Z 29005KT CAVOK 07/06 Q1026 NOSIG=
201904182300 METAR LROP 182300Z 27003KT 240V300 9000 NSC 07/06 Q1026 NOSIG=
201904182330 METAR LROP 182330Z 27004KT 8000 NSC 07/06 Q1026 NOSIG=
201904190000 METAR LROP 190000Z 27006KT 8000 NSC 07/06 Q1026 NOSIG=
201904190030 METAR LROP 190030Z 27003KT 8000 NSC 07/06 Q1025 NOSIG=
201904190100 METAR LROP 190100Z 27003KT 240V300 7000 NSC 07/06 Q1025 NOSIG=
201904190130 METAR LROP 190130Z 23004KT 180V250 6000 NSC 06/06 Q1025 NOSIG=
201904190200 METAR LROP 190200Z 25005KT 5000 BR NSC 06/06 Q1025 TEMPO
                        3000 BR=
201904190230 METAR LROP 190230Z 25004KT 6000 NSC 06/06 Q1024 TEMPO 5000
                        BR=
201904190300 METAR LROP 190300Z 25006KT 5000 BR NSC 05/05 Q1024 TEMPO
                        3000 BR=
201904190330 METAR LROP 190330Z 25006KT 8000 NSC 05/05 Q1024 NOSIG=
201904190400 METAR LROP 190400Z 00000KT 8000 NSC 06/06 Q1024 NOSIG=
201904190430 METAR LROP 190430Z 25005KT 9000 NSC 06/06 Q1024 NOSIG=
201904190500 METAR LROP 190500Z 26006KT CAVOK 07/06 Q1024 NOSIG=
201904190530 METAR LROP 190530Z 25005KT CAVOK 08/06 Q1024 NOSIG=
201904190600 METAR LROP 190600Z 25004KT 9999 FEW049 10/06 Q1023 NOSIG=
201904190630 METAR LROP 190630Z 27008KT CAVOK 13/05 Q1023 NOSIG=
201904190700 METAR LROP 190700Z 29010KT CAVOK 13/06 Q1023 NOSIG=
201904190730 METAR LROP 190730Z 28009KT CAVOK 15/06 Q1023 TEMPO SCT045CB=
201904190800 METAR LROP 190800Z 29010KT CAVOK 17/06 Q1023 TEMPO SCT045CB=
201904190830 METAR LROP 190830Z 28012KT 9999 FEW060CB 16/04 Q1022 NOSIG=
201904190900 METAR LROP 190900Z 30010KT CAVOK 17/05 Q1022 TEMPO SCT045CB=
201904190930 METAR LROP 190930Z 34010KT 300V360 9999 FEW060CB 18/03 Q1022
                        TEMPO VRB15G25KT 5000 -SHRA BKN015
                        SCT045CB=
201904191000 METAR LROP 191000Z 30010KT 9999 SCT060CB 17/04 Q1021 TEMPO
                        VRB15G25KT 5000 -TSRA BKN015 SCT045CB=
201904191030 METAR LROP 191030Z 05025KT 9999 SCT060CB 13/04 Q1022 TEMPO
                        5000 -TSRA BKN015 SCT045CB=
201904191100 METAR LROP 191100Z 04018G33KT 9999 -SHRA FEW015 SCT044CB
                        OVC046 11/06 Q1023 R88/29//95 TEMPO
                        5000 -TSRA BKN015 SCT045CB=
201904191130 METAR LROP 191130Z 03013KT 9999 -SHRA FEW014 SCT045CB BKN049
                        12/08 Q1024 R88/29//95 TEMPO VRB15G25KT
                        5000 -SHRA BR BKN015 SCT045CB=
201904191200 METAR LROP 191200Z 02008KT 9999 -SHRA SCT045CB BKN047 12/07
                        Q1024 R88/29//95 TEMPO VRB15G25KT
                        5000 -SHRA BR BKN015 SCT045CB=
201904191230 METAR LROP 191230Z 35007KT 9999 FEW050CB 12/06 Q1023 R88/19//95
                        NOSIG=
201904191300 METAR LROP 191300Z 01006KT 9999 FEW055CB 13/06 Q1023 R88/19//95
                        NOSIG=
201904191330 METAR LROP 191330Z 35008KT 330V040 9999 FEW040 FEW050CB 13/06
                        Q1023 R88/19//95 NOSIG=
201904191400 METAR LROP 191400Z 09010KT 9999 VCSH FEW031 FEW045CB BKN047
                        12/08 Q1024 R88/19//95 NOSIG=
201904191430 METAR LROP 191430Z 06012KT 9999 FEW050CB 13/05 Q1024 R88/19//95
                        NOSIG=
201904191500 METAR COR LROP 191500Z 06015KT 9999 FEW032 14/07 Q1024 R88/CLRD//
                        NOSIG=
201904191530 METAR LROP 191530Z 08012KT 9999 FEW050CB 13/06 Q1024 R88/CLRD//
                        NOSIG=
201904191600 METAR LROP 191600Z 05019KT 9999 SCT028 FEW050CB 11/05 Q1025
                        R88/CLRD// TEMPO 5000 -SHRA=
201904191630 METAR LROP 191630Z 05015KT 9999 FEW029 FEW050CB 10/05 Q1025
                        TEMPO VRB15G25KT 5000 -SHRA=
201904191700 METAR LROP 191700Z 05017KT 8000 -SHRA FEW050CB 10/05 Q1026
                        TEMPO 5000 -SHRA=
201904191730 METAR COR LROP 191730Z 06014KT 9999 -SHRA FEW050CB 08/06
                        Q1026 R88/19//95 NOSIG=
201904191800 METAR LROP 191800Z 06011KT CAVOK 08/06 Q1027 R88/19//95 NOSIG=
201904191830 METAR LROP 191830Z 04008KT CAVOK 07/05 Q1027 R88/19//95 NOSIG=
201904191900 METAR LROP 191900Z 03007KT CAVOK 08/06 Q1027 R88/19//95 NOSIG=
201904191930 METAR LROP 191930Z 05007KT CAVOK 07/06 Q1027 R88/CLRD// NOSIG=
201904192000 METAR LROP 192000Z 07005KT CAVOK 06/05 Q1027 NOSIG=
201904192030 METAR LROP 192030Z 08005KT 9999 FEW034 05/05 Q1027 NOSIG=
201904192100 METAR LROP 192100Z VRB01KT 9999 SCT037 05/05 Q1027 NOSIG=
201904192130 METAR LROP 192130Z 08002KT CAVOK 05/05 Q1027 NOSIG=
201904192200 METAR LROP 192200Z VRB01KT CAVOK 06/05 Q1027 NOSIG=
201904192230 METAR LROP 192230Z 26003KT CAVOK 05/05 Q1027 NOSIG=
201904192300 METAR LROP 192300Z 23002KT CAVOK 05/05 Q1027 NOSIG=
201904192330 METAR LROP 192330Z 27004KT CAVOK 05/05 Q1027 NOSIG=
201904200000 METAR LROP 200000Z 31003KT 7000 NSC 04/04 Q1027 NOSIG=
201904200030 METAR LROP 200030Z 32003KT CAVOK 04/04 Q1026 NOSIG=
201904200100 METAR LROP 200100Z 31003KT CAVOK 04/04 Q1026 NOSIG=
201904200130 METAR LROP 200130Z 31004KT CAVOK 04/04 Q1026 TEMPO 5000 -RA=
201904200200 METAR LROP 200200Z 32005KT CAVOK 05/04 Q1026 TEMPO 5000 -RA=
201904200230 METAR LROP 200230Z 31005KT CAVOK 04/04 Q1026 TEMPO 5000 -RA=
201904200300 METAR LROP 200300Z 30004KT CAVOK 04/04 Q1026 NOSIG=
201904200330 METAR LROP 200330Z 31004KT CAVOK 05/04 Q1026 NOSIG=
201904200400 METAR LROP 200400Z 29005KT 270V330 9999 FEW060CB 05/04 Q1027
                        NOSIG=
201904200430 METAR LROP 200430Z 30006KT 280V340 CAVOK 06/05 Q1027 NOSIG=
201904200500 METAR LROP 200500Z 34006KT 320V020 CAVOK 08/05 Q1027 NOSIG=
201904200530 METAR LROP 200530Z 01006KT 330V030 CAVOK 09/04 Q1027 NOSIG=
201904200600 METAR LROP 200600Z 03009KT CAVOK 11/03 Q1027 NOSIG=
201904200630 METAR LROP 200630Z 03011KT CAVOK 11/00 Q1027 NOSIG=
201904200700 METAR LROP 200700Z 05011KT CAVOK 12/M00 Q1027 NOSIG=
201904200730 METAR LROP 200730Z 04012KT 9999 FEW040 12/M02 Q1028 NOSIG=
201904200800 METAR LROP 200800Z 04009KT 9999 SCT042 13/M02 Q1028 NOSIG=
201904200830 METAR LROP 200830Z 06011KT 9999 SCT046 12/M04 Q1028 NOSIG=
201904200900 METAR LROP 200900Z 06015KT 9999 SCT048 14/M02 Q1028 NOSIG=
201904200930 METAR LROP 200930Z 06015KT 9999 SCT048 15/M01 Q1028 RMK WS
                        ALL RWY NOSIG=
201904201000 METAR COR LROP 201000Z 04013KT 9999 BKN048 13/M02 Q1028 WS
                        ALL RWY NOSIG=
201904201030 METAR LROP 201030Z 05010KT 9999 SCT049 13/M02 Q1027 WS ALL
                        RWY NOSIG=
201904201100 METAR LROP 201100Z 04009KT 9999 BKN049 14/M02 Q1027 WS ALL
                        RWY NOSIG=
201904201130 METAR COR LROP 201130Z 03009KT 360V060 9999 SCT047 15/M02
                        Q1027 WS ALL RWY NOSIG=
201904201200 METAR LROP 201200Z 01009KT CAVOK 15/M02 Q1027 WS ALL RWY
                        NOSIG=
201904201230 METAR LROP 201230Z 04010KT CAVOK 14/M02 Q1027 NOSIG=
201904201300 METAR LROP 201300Z 01009KT 350V050 CAVOK 14/M03 Q1027 NOSIG=
201904201330 METAR LROP 201330Z 36007KT CAVOK 14/M02 Q1027 NOSIG=
201904201400 METAR LROP 201400Z 03010KT CAVOK 14/M02 Q1027 NOSIG=
201904201430 METAR LROP 201430Z 03006KT 340V070 CAVOK 14/M03 Q1027 NOSIG=
201904201500 METAR LROP 201500Z 03007KT CAVOK 14/M02 Q1027 NOSIG=
201904201530 METAR LROP 201530Z 06007KT 030V090 CAVOK 14/M01 Q1027 NOSIG=
201904201600 METAR LROP 201600Z 06006KT CAVOK 13/00 Q1027 NOSIG=
201904201630 METAR LROP 201630Z 08005KT CAVOK 12/00 Q1027 NOSIG=
201904201700 METAR LROP 201700Z 10003KT CAVOK 11/02 Q1027 NOSIG=
201904201730 METAR LROP 201730Z 11003KT CAVOK 09/02 Q1027 NOSIG=
201904201800 METAR LROP 201800Z 13002KT CAVOK 08/01 Q1027 NOSIG=
201904201830 METAR LROP 201830Z 11003KT CAVOK 08/02 Q1027 NOSIG=
201904201900 METAR LROP 201900Z 26004KT CAVOK 07/02 Q1027 NOSIG=
201904201930 METAR LROP 201930Z 26006KT CAVOK 06/02 Q1027 NOSIG=
201904202000 METAR LROP 202000Z 25003KT CAVOK 07/02 Q1027 NOSIG=
201904202030 METAR LROP 202030Z 29003KT CAVOK 07/01 Q1027 NOSIG=
201904202100 METAR LROP 202100Z 00000KT CAVOK 07/00 Q1027 NOSIG=
201904202130 METAR LROP 202130Z 26002KT CAVOK 05/02 Q1027 NOSIG=
201904202200 METAR LROP 202200Z VRB01KT CAVOK 04/02 Q1027 NOSIG=
201904202230 METAR LROP 202230Z 27007KT CAVOK 04/01 Q1026 NOSIG=
201904202300 METAR LROP 202300Z 26005KT CAVOK 04/02 Q1026 NOSIG=
201904202330 METAR LROP 202330Z 27005KT CAVOK 03/02 Q1026 NOSIG=
201904210000 METAR LROP 210000Z 26006KT CAVOK 04/02 Q1025 NOSIG=
201904210030 METAR LROP 210030Z 26004KT CAVOK 04/01 Q1025 NOSIG=
201904210100 METAR LROP 210100Z 24003KT CAVOK 04/02 Q1025 NOSIG=
201904210130 METAR LROP 210130Z 24003KT CAVOK 04/01 Q1025 NOSIG=
201904210200 METAR LROP 210200Z 21004KT CAVOK 03/01 Q1025 NOSIG=
201904210230 METAR LROP 210230Z 25005KT CAVOK 05/02 Q1025 NOSIG=
201904210300 METAR LROP 210300Z 25005KT CAVOK 04/02 Q1024 NOSIG=
201904210330 METAR LROP 210330Z 25004KT CAVOK 02/01 Q1024 NOSIG=
201904210400 METAR LROP 210400Z 25004KT CAVOK 03/02 Q1024 NOSIG=
201904210430 METAR LROP 210430Z 25005KT CAVOK 06/03 Q1024 NOSIG=
201904210500 METAR LROP 210500Z 23005KT CAVOK 08/03 Q1024 NOSIG=
201904210530 METAR LROP 210530Z 23006KT CAVOK 09/04 Q1024 NOSIG=
201904210600 METAR LROP 210600Z 24007KT CAVOK 11/04 Q1024 NOSIG=
201904210630 METAR LROP 210630Z 24009KT CAVOK 12/04 Q1023 NOSIG=
201904210700 METAR LROP 210700Z 25011KT CAVOK 13/03 Q1023 NOSIG=
201904210730 METAR LROP 210730Z 26012KT CAVOK 14/04 Q1023 NOSIG=
201904210800 METAR LROP 210800Z 26013KT CAVOK 15/03 Q1023 NOSIG=
201904210830 METAR LROP 210830Z 25013KT CAVOK 17/03 Q1023 NOSIG=
201904210900 METAR LROP 210900Z 26014KT CAVOK 16/02 Q1023 NOSIG=
201904210930 METAR LROP 210930Z 27012KT CAVOK 16/03 Q1023 NOSIG=
201904211000 METAR LROP 211000Z 25010KT CAVOK 17/03 Q1022 NOSIG=
201904211030 METAR LROP 211030Z 25009KT CAVOK 17/03 Q1022 NOSIG=
201904211100 METAR LROP 211100Z 22008KT 9999 SCT030 18/03 Q1022 NOSIG=
201904211130 METAR LROP 211130Z 27007KT CAVOK 17/03 Q1021 NOSIG=
201904211200 METAR LROP 211200Z 27011KT 9999 -RA NSC 15/04 Q1021 NOSIG=
201904211230 METAR LROP 211230Z 27010KT 9999 -RA NSC 15/06 Q1021 R88/19//95
                        NOSIG=
201904211300 METAR LROP 211300Z 28009KT CAVOK 17/02 Q1021 R88/19//95 NOSIG=
201904211330 METAR LROP 211330Z 24007KT 210V270 CAVOK 18/04 Q1021 R88/CLRD//
                        NOSIG=
201904211400 METAR LROP 211400Z 25006KT 220V280 CAVOK 17/03 Q1020 R88/CLRD//
                        NOSIG=
201904211430 METAR LROP 211430Z 27005KT 220V310 CAVOK 18/02 Q1020 R88/CLRD//
                        NOSIG=
201904211500 METAR LROP 211500Z 33005KT 250V350 CAVOK 17/03 Q1020 R88/CLRD//
                        NOSIG=
201904211530 METAR LROP 211530Z 01004KT CAVOK 17/03 Q1020 R88/CLRD// NOSIG=
201904211600 METAR LROP 211600Z 25007KT 220V280 9999 -SHRA FEW060CB 15/04
                        Q1020 NOSIG=
201904211630 METAR LROP 211630Z 16004KT 140V210 9999 FEW060CB 14/05 Q1020
                        NOSIG=
201904211700 METAR LROP 211700Z 16004KT 120V190 CAVOK 13/06 Q1020 NOSIG=
201904211730 METAR LROP 211730Z 09005KT 060V140 CAVOK 12/06 Q1020 NOSIG=
201904211800 METAR LROP 211800Z 10005KT CAVOK 11/07 Q1020 NOSIG=
201904211830 METAR LROP 211830Z 12004KT CAVOK 10/07 Q1020 NOSIG=
201904211900 METAR LROP 211900Z VRB02KT CAVOK 09/06 Q1020 NOSIG=
201904211930 METAR LROP 211930Z 09001KT CAVOK 09/06 Q1020 NOSIG=
201904212000 METAR LROP 212000Z 09005KT CAVOK 09/06 Q1021 NOSIG=
201904212030 METAR LROP 212030Z 07006KT CAVOK 08/06 Q1021 NOSIG=
201904212100 METAR LROP 212100Z 09006KT CAVOK 08/06 Q1021 NOSIG=
201904212130 METAR LROP 212130Z 07007KT CAVOK 08/07 Q1021 NOSIG=
201904212200 METAR LROP 212200Z 07008KT 9999 -SHRA FEW055CB 09/06 Q1021
                        TEMPO 5000 -SHRA=
201904212230 METAR LROP 212230Z 05007KT 9999 -SHRA FEW050CB 09/06 Q1021
                        TEMPO 5000 -SHRA=
201904212300 METAR LROP 212300Z 04006KT 9999 FEW050CB 09/06 Q1021 TEMPO
                        5000 -SHRA=
201904212330 METAR LROP 212330Z 02008KT 9000 -SHRA FEW050CB 09/07 Q1021
                        R88/29//95 NOSIG=
201904220000 METAR LROP 220000Z 04009KT 9999 -SHRA FEW050CB 08/06 Q1021
                        R88/29//95 NOSIG=
201904220030 METAR LROP 220030Z 05010KT 9999 -SHRA FEW050CB 08/06 Q1021
                        R88/29//95 NOSIG=
201904220100 METAR LROP 220100Z 07011KT 9000 -SHRA FEW050CB 08/06 Q1021
                        R88/29//95 NOSIG=
201904220130 METAR LROP 220130Z 09008KT 9999 FEW045 07/06 Q1021 R88/29//95
                        NOSIG=
201904220200 METAR LROP 220200Z 09007KT 9999 SCT047 07/06 Q1020 R88/29//95
                        NOSIG=
201904220230 METAR LROP 220230Z 08005KT CAVOK 07/06 Q1020 R88/29//95 NOSIG=
201904220300 METAR LROP 220300Z 08005KT CAVOK 07/06 Q1020 R88/29//95 NOSIG=
201904220330 METAR COR LROP 220330Z 01007KT 7000 NSC 07/06 Q1021 R88/19//95
                        NOSIG=
201904220400 METAR LROP 220400Z 01006KT 7000 NSC 07/06 Q1021 R88/19//95
                        NOSIG=
201904220430 METAR LROP 220430Z 02008KT 7000 NSC 08/06 Q1021 R88/19//95
                        NOSIG=
201904220500 METAR LROP 220500Z 05008KT 7000 NSC 08/06 Q1021 R88/19//95
                        NOSIG=
201904220530 METAR LROP 220530Z 06010KT 8000 NSC 08/06 Q1022 R88/19//95
                        NOSIG=
201904220600 METAR LROP 220600Z 08011KT CAVOK 10/06 Q1022 R88/19//95 NOSIG=
201904220630 METAR LROP 220630Z 07013KT CAVOK 11/06 Q1022 R88/19//95 NOSIG=
201904220700 METAR LROP 220700Z 09012KT CAVOK 12/05 Q1022 R88/19//95 NOSIG=
201904220730 METAR LROP 220730Z 08012KT CAVOK 13/06 Q1022 R88/CLRD// NOSIG=
201904220800 METAR LROP 220800Z 07013KT CAVOK 13/06 Q1023 NOSIG=
201904220830 METAR LROP 220830Z 08012KT CAVOK 13/05 Q1023 NOSIG=
201904220900 METAR LROP 220900Z 09012KT CAVOK 14/04 Q1023 NOSIG=
201904220930 METAR LROP 220930Z 07012KT CAVOK 14/05 Q1023 NOSIG=
201904221000 METAR LROP 221000Z 08012KT CAVOK 14/04 Q1023 NOSIG=
201904221030 METAR LROP 221030Z 09013KT CAVOK 15/03 Q1023 NOSIG=
201904221100 METAR LROP 221100Z 09013KT CAVOK 16/04 Q1022 NOSIG=
201904221130 METAR LROP 221130Z 09013KT 050V110 CAVOK 16/04 Q1023 NOSIG=
201904221200 METAR LROP 221200Z 08014KT CAVOK 16/01 Q1022 NOSIG=
201904221230 METAR LROP 221230Z 10013KT CAVOK 16/01 Q1022 NOSIG=
201904221300 METAR LROP 221300Z 08013KT CAVOK 16/01 Q1022 NOSIG=
201904221330 METAR LROP 221330Z 08014KT CAVOK 16/02 Q1022 NOSIG=
201904221400 METAR LROP 221400Z 09013KT CAVOK 16/02 Q1022 NOSIG=
201904221430 METAR LROP 221430Z 09011KT CAVOK 16/03 Q1022 NOSIG=
201904221500 METAR LROP 221500Z 10011KT CAVOK 16/02 Q1022 NOSIG=
201904221530 METAR LROP 221530Z 09012KT CAVOK 15/02 Q1022 NOSIG=
201904221600 METAR LROP 221600Z 10012KT CAVOK 15/00 Q1022 NOSIG=
201904221630 METAR LROP 221630Z 09008KT CAVOK 14/01 Q1022 NOSIG=
201904221700 METAR LROP 221700Z 09009KT CAVOK 13/01 Q1022 NOSIG=
201904221730 METAR LROP 221730Z 08011KT CAVOK 12/02 Q1022 NOSIG=
201904221800 METAR LROP 221800Z 09009KT CAVOK 11/02 Q1023 NOSIG=
201904221830 METAR LROP 221830Z 09010KT CAVOK 10/01 Q1023 NOSIG=
201904221900 METAR LROP 221900Z 09008KT CAVOK 10/01 Q1024 NOSIG=
201904221930 METAR LROP 221930Z 09007KT CAVOK 09/01 Q1024 NOSIG=
201904222000 METAR LROP 222000Z 09008KT CAVOK 08/01 Q1024 NOSIG=
201904222030 METAR LROP 222030Z 09006KT CAVOK 07/01 Q1024 NOSIG=
201904222100 METAR LROP 222100Z 08006KT CAVOK 06/01 Q1025 NOSIG=
201904222130 METAR LROP 222130Z 07007KT CAVOK 05/01 Q1025 NOSIG=
201904222200 METAR LROP 222200Z 08006KT CAVOK 05/01 Q1025 NOSIG=
201904222230 METAR LROP 222230Z 10006KT CAVOK 05/01 Q1025 NOSIG=
201904222300 METAR LROP 222300Z 09007KT CAVOK 05/01 Q1025 NOSIG=
201904222330 METAR LROP 222330Z 09007KT CAVOK 04/01 Q1025 NOSIG=
201904230000 METAR LROP 230000Z 07006KT CAVOK 04/00 Q1025 NOSIG=
201904230030 METAR LROP 230030Z 04008KT CAVOK 05/00 Q1025 NOSIG=
201904230100 METAR LROP 230100Z 03008KT CAVOK 05/00 Q1025 NOSIG=
201904230130 METAR LROP 230130Z 04008KT CAVOK 05/00 Q1025 NOSIG=
201904230200 METAR LROP 230200Z 05007KT CAVOK 04/01 Q1025 NOSIG=
201904230230 METAR LROP 230230Z 06007KT CAVOK 04/01 Q1025 NOSIG=
201904230300 METAR LROP 230300Z 06006KT CAVOK 04/01 Q1025 NOSIG=
201904230330 METAR LROP 230330Z 08006KT CAVOK 03/01 Q1025 NOSIG=
201904230400 METAR LROP 230400Z 07008KT CAVOK 05/01 Q1025 NOSIG=
201904230430 METAR LROP 230430Z 06010KT CAVOK 06/01 Q1025 NOSIG=
201904230500 METAR LROP 230500Z 05010KT CAVOK 07/03 Q1026 NOSIG=
201904230530 METAR LROP 230530Z 07013KT CAVOK 08/04 Q1026 NOSIG=
201904230600 METAR LROP 230600Z 07012KT CAVOK 08/04 Q1026 NOSIG=
201904230630 METAR LROP 230630Z 07013KT CAVOK 09/04 Q1026 NOSIG=
201904230700 METAR LROP 230700Z 07013KT CAVOK 10/04 Q1027 NOSIG=
201904230730 METAR LROP 230730Z 08012KT CAVOK 11/04 Q1027 NOSIG=
201904230800 METAR LROP 230800Z 09012KT CAVOK 12/04 Q1027 NOSIG=
201904230830 METAR LROP 230830Z 09014KT CAVOK 12/04 Q1027 NOSIG=
201904230900 METAR LROP 230900Z 09014KT CAVOK 13/03 Q1027 NOSIG=
201904230930 METAR LROP 230930Z 09015KT CAVOK 14/01 Q1027 NOSIG=
201904231000 METAR LROP 231000Z 10016KT CAVOK 14/M00 Q1027 NOSIG=
201904231030 METAR LROP 231030Z 10014KT CAVOK 14/M00 Q1026 NOSIG=
201904231100 METAR LROP 231100Z 10015KT CAVOK 15/01 Q1026 NOSIG=
201904231130 METAR LROP 231130Z 10016KT CAVOK 15/00 Q1026 NOSIG=
201904231200 METAR LROP 231200Z 09015KT CAVOK 15/00 Q1026 NOSIG=
201904231230 METAR LROP 231230Z 10014KT CAVOK 15/M01 Q1026 NOSIG=
201904231300 METAR LROP 231300Z 09013KT CAVOK 15/01 Q1026 NOSIG=
201904231330 METAR LROP 231330Z 10013KT CAVOK 15/02 Q1025 NOSIG=
201904231400 METAR LROP 231400Z 09013KT CAVOK 15/02 Q1025 NOSIG=
201904231430 METAR LROP 231430Z 10014KT CAVOK 16/02 Q1025 NOSIG=
201904231500 METAR LROP 231500Z 10013KT CAVOK 15/02 Q1025 NOSIG=
201904231530 METAR LROP 231530Z 09012KT CAVOK 15/02 Q1024 NOSIG=
201904231600 METAR LROP 231600Z 09011KT CAVOK 15/02 Q1024 NOSIG=
201904231630 METAR LROP 231630Z 08011KT CAVOK 14/03 Q1024 TEMPO 5000 SHRA
                        SCT030CB=
201904231700 METAR LROP 231700Z 08009KT 9999 FEW050CB 13/03 Q1024 TEMPO
                        5000 SHRA=
201904231730 METAR LROP 231730Z 09008KT 9999 FEW050CB 13/03 Q1024 TEMPO
                        5000 SHRA=
201904231800 METAR LROP 231800Z 08011KT 9999 FEW050CB 13/03 Q1024 TEMPO
                        5000 SHRA=
201904231830 METAR LROP 231830Z 09011KT 9999 FEW050CB 12/03 Q1025 NOSIG=
201904231900 METAR LROP 231900Z 09009KT 9999 FEW050CB 12/04 Q1025 TEMPO
                        5000 -SHRA=
201904231930 METAR LROP 231930Z 09010KT 9999 -SHRA FEW050CB 12/03 Q1025
                        TEMPO 5000 SHRA=
201904232000 METAR LROP 232000Z 08011KT 9999 FEW050CB 11/04 Q1024 TEMPO
                        5000 SHRA=
201904232030 METAR LROP 232030Z 09009KT 9999 -SHRA FEW050CB 10/05 Q1025
                        TEMPO 5000 SHRA=
201904232100 METAR LROP 232100Z 08009KT CAVOK 10/05 Q1025 NOSIG=
201904232130 METAR LROP 232130Z 07009KT 9999 -SHRA FEW050CB 10/05 Q1024
                        NOSIG=
201904232200 METAR LROP 232200Z 06009KT 9999 -SHRA FEW050CB 10/05 Q1024
                        NOSIG=
201904232230 METAR LROP 232230Z 06007KT 9999 -SHRA FEW050CB 09/06 Q1024
                        NOSIG=
201904232300 METAR LROP 232300Z 06007KT 9999 -SHRA FEW050CB 09/06 Q1025
                        R88/29//95 NOSIG=
201904232330 METAR LROP 232330Z 06009KT 9999 -SHRA FEW050CB 09/07 Q1024
                        R88/29//95 NOSIG=
201904240000 METAR LROP 240000Z 06010KT 9999 SCT049 09/07 Q1024 R88/29//95
                        NOSIG=
201904240030 METAR LROP 240030Z 05010KT CAVOK 08/07 Q1024 R88/29//95 NOSIG=
201904240100 METAR LROP 240100Z 07009KT 9999 SCT049 08/07 Q1024 R88/29//95
                        NOSIG=
201904240130 METAR LROP 240130Z 05012KT CAVOK 08/07 Q1024 R88/29//95 NOSIG=
201904240200 METAR LROP 240200Z 06010KT CAVOK 08/07 Q1024 R88/29//95 NOSIG=
201904240230 METAR LROP 240230Z 06010KT CAVOK 08/07 Q1024 R88/29//95 NOSIG=
201904240300 METAR COR LROP 240300Z 05010KT CAVOK 08/07 Q1024 R88/19//95
                        NOSIG=
201904240330 METAR LROP 240330Z 05011KT CAVOK 08/07 Q1025 R88/19//95 NOSIG=
201904240400 METAR LROP 240400Z 06009KT 9999 -SHRA FEW055CB 08/07 Q1025
                        R88/19//95 NOSIG=
201904240430 METAR LROP 240430Z 06010KT 9999 -RA NSC 08/07 Q1025 R88/19//95
                        NOSIG=
201904240500 METAR LROP 240500Z 05010KT CAVOK 09/07 Q1025 R88/19//95 NOSIG=
201904240530 METAR LROP 240530Z 05010KT CAVOK 09/07 Q1026 R88/19//95 NOSIG=
201904240600 METAR LROP 240600Z 05011KT CAVOK 09/07 Q1026 R88/19//95 NOSIG=
201904240630 METAR LROP 240630Z 05013KT CAVOK 10/07 Q1026 R88/19//95 NOSIG=
201904240700 METAR LROP 240700Z 05009KT 350V090 9999 FEW012 SCT045 11/08
                        Q1026 R08L/CLRD// NOSIG=
201904240730 METAR LROP 240730Z 06010KT 030V090 9999 SCT040 12/07 Q1027
                        R08L/CLRD// NOSIG=
201904240800 METAR LROP 240800Z 07012KT 9999 SCT040 13/08 Q1027 R08L/CLRD//
                        NOSIG=
201904240830 METAR LROP 240830Z 07011KT 9999 BKN025 12/07 Q1027 R08L/CLRD//
                        NOSIG=
201904240900 METAR LROP 240900Z 08012KT 9999 BKN021 14/08 Q1027 R08L/CLRD//
                        NOSIG=
201904240930 METAR LROP 240930Z 07012KT 040V110 9999 BKN023 14/08 Q1027
                        R88/CLRD// NOSIG=
201904241000 METAR LROP 241000Z 06013KT 9999 SCT025 14/07 Q1026 R88/CLRD//
                        NOSIG=
201904241030 METAR LROP 241030Z AUTO 05014KT 9999 FEW027/// 15/07 Q1026
                        NOSIG=
201904241100 METAR LROP 241100Z 07012KT 030V090 9999 FEW028 16/07 Q1026
                        R88/CLRD// NOSIG=
201904241130 METAR LROP 241130Z 07011KT 9999 FEW035 16/08 Q1026 R88/CLRD//
                        NOSIG=
201904241200 METAR LROP 241200Z 08011KT 9999 FEW035 17/08 Q1026 R88/CLRD//
                        NOSIG=
201904241230 METAR COR LROP 241230Z 07011KT CAVOK 17/07 Q1025 NOSIG=
201904241300 METAR LROP 241300Z 08010KT 040V110 CAVOK 18/07 Q1025 NOSIG=
201904241330 METAR LROP 241330Z 09011KT CAVOK 18/07 Q1025 NOSIG=
201904241400 METAR LROP 241400Z 09009KT CAVOK 18/07 Q1025 NOSIG=
201904241430 METAR LROP 241430Z 08010KT CAVOK 18/06 Q1025 NOSIG=
201904241500 METAR LROP 241500Z 09010KT CAVOK 18/07 Q1024 NOSIG=
201904241530 METAR LROP 241530Z 08010KT CAVOK 18/06 Q1024 NOSIG=
201904241600 METAR LROP 241600Z 07010KT CAVOK 18/07 Q1024 NOSIG=
201904241630 METAR LROP 241630Z 06010KT CAVOK 17/06 Q1024 NOSIG=
201904241700 METAR LROP 241700Z 05010KT CAVOK 16/07 Q1024 NOSIG=
201904241730 METAR LROP 241730Z 08011KT CAVOK 15/07 Q1024 NOSIG=
201904241800 METAR LROP 241800Z 08012KT CAVOK 14/06 Q1025 NOSIG=
201904241830 METAR LROP 241830Z 08012KT CAVOK 13/05 Q1025 NOSIG=
201904241900 METAR LROP 241900Z 07011KT CAVOK 12/05 Q1025 NOSIG=
201904241930 METAR LROP 241930Z 07010KT CAVOK 11/05 Q1025 NOSIG=
201904242000 METAR LROP 242000Z 07008KT CAVOK 10/05 Q1025 NOSIG=
201904242030 METAR LROP 242030Z 07008KT CAVOK 09/05 Q1025 NOSIG=
201904242100 METAR LROP 242100Z 06008KT CAVOK 09/05 Q1025 NOSIG=
201904242130 METAR LROP 242130Z 05010KT CAVOK 09/04 Q1025 NOSIG=
201904242200 METAR COR LROP 242200Z 04011KT CAVOK 09/04 Q1025 NOSIG=
201904242230 METAR LROP 242230Z 04011KT CAVOK 08/04 Q1025 NOSIG=
201904242300 METAR LROP 242300Z 03011KT CAVOK 08/04 Q1025 NOSIG=
201904242330 METAR LROP 242330Z 03011KT CAVOK 08/04 Q1025 NOSIG=
201904250000 METAR LROP 250000Z 03010KT CAVOK 08/05 Q1025 NOSIG=
201904250030 METAR LROP 250030Z 04010KT CAVOK 07/05 Q1025 NOSIG=
201904250100 METAR LROP 250100Z 04010KT CAVOK 07/05 Q1025 NOSIG=
201904250130 METAR LROP 250130Z 04009KT CAVOK 07/05 Q1025 NOSIG=
201904250200 METAR LROP 250200Z 04009KT CAVOK 07/05 Q1025 NOSIG=
201904250230 METAR LROP 250230Z 04009KT CAVOK 07/05 Q1025 NOSIG=
201904250300 METAR LROP 250300Z 05010KT CAVOK 07/05 Q1025 NOSIG=
201904250330 METAR COR LROP 250330Z 05011KT CAVOK 07/05 Q1025 NOSIG=
201904250400 METAR LROP 250400Z 05010KT CAVOK 07/06 Q1025 NOSIG=
201904250430 METAR LROP 250430Z 05010KT CAVOK 08/06 Q1025 NOSIG=
201904250500 METAR LROP 250500Z 05011KT CAVOK 09/06 Q1025 NOSIG=
201904250530 METAR LROP 250530Z 05010KT CAVOK 09/06 Q1025 NOSIG=
201904250600 METAR LROP 250600Z 08011KT CAVOK 10/06 Q1025 NOSIG=
201904250630 METAR LROP 250630Z 07010KT CAVOK 11/07 Q1025 NOSIG=
201904250700 METAR LROP 250700Z 07010KT CAVOK 13/07 Q1025 NOSIG=
201904250730 METAR LROP 250730Z 08008KT 040V110 CAVOK 13/08 Q1025 NOSIG=
201904250800 METAR LROP 250800Z 08009KT 050V110 CAVOK 15/09 Q1025 NOSIG=
201904250830 METAR LROP 250830Z 09008KT 030V120 CAVOK 14/08 Q1025 NOSIG=
201904250900 METAR LROP 250900Z 09008KT CAVOK 15/09 Q1025 NOSIG=
201904250930 METAR LROP 250930Z 08007KT 030V120 CAVOK 16/10 Q1025 NOSIG=
201904251000 METAR LROP 251000Z 10008KT 060V120 CAVOK 18/10 Q1025 NOSIG=
201904251030 METAR LROP 251030Z 09008KT 060V140 CAVOK 19/11 Q1024 NOSIG=
201904251100 METAR LROP 251100Z 07006KT CAVOK 19/10 Q1024 NOSIG=
201904251130 METAR LROP 251130Z 08008KT CAVOK 19/10 Q1023 NOSIG=
201904251200 METAR LROP 251200Z 10009KT CAVOK 21/10 Q1023 NOSIG=
201904251230 METAR COR LROP 251230Z 07006KT 040V110 CAVOK 20/10 Q1023
                        NOSIG=
201904251300 METAR LROP 251300Z 09005KT 040V180 CAVOK 21/10 Q1022 NOSIG=
201904251330 METAR LROP 251330Z 07006KT 020V110 CAVOK 22/11 Q1022 NOSIG=
201904251400 METAR LROP 251400Z VRB03KT CAVOK 22/10 Q1022 NOSIG=
201904251430 METAR LROP 251430Z 07005KT CAVOK 22/11 Q1021 NOSIG=
201904251500 METAR LROP 251500Z 08004KT 060V120 CAVOK 22/11 Q1021 NOSIG=
201904251530 METAR LROP 251530Z 09005KT CAVOK 22/10 Q1021 NOSIG=
201904251600 METAR LROP 251600Z 09004KT CAVOK 21/10 Q1021 NOSIG=
201904251630 METAR LROP 251630Z 08004KT CAVOK 20/11 Q1021 NOSIG=
201904251700 METAR LROP 251700Z 07005KT CAVOK 19/11 Q1021 NOSIG=
201904251730 METAR LROP 251730Z 09009KT CAVOK 18/11 Q1021 NOSIG=
201904251800 METAR LROP 251800Z 09008KT CAVOK 16/10 Q1021 NOSIG=
201904251830 METAR LROP 251830Z 09008KT CAVOK 15/09 Q1021 NOSIG=
201904251900 METAR LROP 251900Z 06008KT CAVOK 14/09 Q1021 NOSIG=
201904251930 METAR LROP 251930Z 08007KT CAVOK 12/08 Q1021 NOSIG=
201904252000 METAR LROP 252000Z 06006KT CAVOK 12/08 Q1021 NOSIG=
201904252030 METAR LROP 252030Z 04007KT CAVOK 12/08 Q1021 NOSIG=
201904252100 METAR LROP 252100Z 03008KT CAVOK 12/08 Q1021 NOSIG=
201904252130 METAR LROP 252130Z 03009KT CAVOK 12/07 Q1021 NOSIG=
201904252200 METAR LROP 252200Z 04008KT CAVOK 11/07 Q1021 NOSIG=
201904252230 METAR LROP 252230Z 02008KT CAVOK 11/07 Q1021 NOSIG=
201904252300 METAR LROP 252300Z 03008KT CAVOK 10/06 Q1021 NOSIG=
201904252330 METAR LROP 252330Z 04008KT CAVOK 10/06 Q1021 NOSIG=
201904260000 METAR LROP 260000Z 03006KT CAVOK 09/06 Q1021 NOSIG=
201904260030 METAR LROP 260030Z 06006KT CAVOK 09/06 Q1021 NOSIG=
201904260100 METAR LROP 260100Z 07004KT CAVOK 08/06 Q1021 NOSIG=
201904260130 METAR LROP 260130Z 06004KT 030V100 CAVOK 08/05 Q1021 NOSIG=
201904260200 METAR LROP 260200Z 05005KT CAVOK 08/06 Q1020 NOSIG=
201904260230 METAR LROP 260230Z 02005KT CAVOK 08/06 Q1020 NOSIG=
201904260300 METAR LROP 260300Z 02005KT CAVOK 08/06 Q1020 NOSIG=
201904260330 METAR LROP 260330Z 03004KT CAVOK 08/06 Q1020 NOSIG=
201904260400 METAR LROP 260400Z 04006KT CAVOK 08/07 Q1020 NOSIG=
201904260430 METAR LROP 260430Z 04007KT CAVOK 08/07 Q1020 NOSIG=
201904260500 METAR LROP 260500Z 03005KT CAVOK 09/07 Q1020 NOSIG=
201904260530 METAR LROP 260530Z 06005KT CAVOK 11/07 Q1021 NOSIG=
201904260600 METAR LROP 260600Z 04005KT 010V080 CAVOK 12/07 Q1021 NOSIG=
201904260630 METAR LROP 260630Z 03004KT 360V070 CAVOK 13/06 Q1021 NOSIG=
201904260700 METAR LROP 260700Z 04004KT 350V090 CAVOK 15/07 Q1021 NOSIG=
201904260730 METAR LROP 260730Z 09004KT 050V140 CAVOK 16/08 Q1021 NOSIG=
201904260800 METAR LROP 260800Z 11004KT 060V190 CAVOK 17/08 Q1021 NOSIG=
201904260830 METAR LROP 260830Z VRB04KT CAVOK 18/09 Q1020 NOSIG=
201904260900 METAR LROP 260900Z 10005KT 030V160 CAVOK 19/10 Q1020 NOSIG=
201904260930 METAR LROP 260930Z 11005KT 060V160 CAVOK 20/09 Q1020 NOSIG=
201904261000 METAR LROP 261000Z 08004KT 360V130 CAVOK 21/11 Q1020 NOSIG=
201904261030 METAR LROP 261030Z 09005KT 020V140 CAVOK 22/12 Q1019 NOSIG=
201904261100 METAR LROP 261100Z 09004KT 020V170 CAVOK 22/11 Q1019 NOSIG=
201904261130 METAR LROP 261130Z 08005KT 030V130 CAVOK 23/10 Q1019 NOSIG=
201904261200 METAR LROP 261200Z 07005KT 040V130 CAVOK 24/10 Q1019 NOSIG=
201904261230 METAR LROP 261230Z 07005KT 040V100 CAVOK 24/11 Q1018 NOSIG=
201904261300 METAR LROP 261300Z 09005KT 060V170 CAVOK 24/11 Q1018 NOSIG=
201904261330 METAR LROP 261330Z 11006KT 070V140 CAVOK 24/11 Q1017 NOSIG=
201904261400 METAR LROP 261400Z 09005KT 060V130 CAVOK 24/13 Q1017 NOSIG=
201904261430 METAR LROP 261430Z 08006KT CAVOK 24/12 Q1017 NOSIG=
201904261500 METAR LROP 261500Z 08004KT 030V100 CAVOK 24/12 Q1017 NOSIG=
201904261530 METAR LROP 261530Z 08006KT CAVOK 24/12 Q1017 NOSIG=
201904261600 METAR LROP 261600Z 08005KT CAVOK 23/13 Q1017 NOSIG=
201904261630 METAR LROP 261630Z 08006KT CAVOK 21/13 Q1017 NOSIG=
201904261700 METAR LROP 261700Z 09005KT CAVOK 19/14 Q1017 NOSIG=
201904261730 METAR LROP 261730Z 11004KT CAVOK 18/13 Q1017 NOSIG=
201904261800 METAR LROP 261800Z 11002KT CAVOK 17/13 Q1017 NOSIG=
201904261830 METAR LROP 261830Z 09002KT CAVOK 17/13 Q1017 NOSIG=
201904261900 METAR LROP 261900Z 09003KT CAVOK 16/13 Q1017 NOSIG=
201904261930 METAR LROP 261930Z 12003KT 090V150 CAVOK 15/12 Q1017 NOSIG=
201904262000 METAR LROP 262000Z 09005KT CAVOK 14/11 Q1017 NOSIG=
201904262030 METAR LROP 262030Z 06004KT CAVOK 13/10 Q1017 NOSIG=
201904262100 METAR LROP 262100Z 05004KT CAVOK 13/10 Q1017 NOSIG=
201904262130 METAR LROP 262130Z 08005KT CAVOK 12/10 Q1017 NOSIG=
201904262200 METAR LROP 262200Z 07004KT CAVOK 12/10 Q1017 NOSIG=
201904262230 METAR LROP 262230Z 02006KT CAVOK 13/09 Q1017 NOSIG=
201904262300 METAR LROP 262300Z 03005KT CAVOK 13/09 Q1016 NOSIG=
201904262330 METAR LROP 262330Z 03004KT CAVOK 12/09 Q1016 NOSIG=
201904270000 METAR LROP 270000Z 06006KT CAVOK 11/08 Q1016 NOSIG=
201904270030 METAR LROP 270030Z 04004KT CAVOK 10/08 Q1016 NOSIG=
201904270100 METAR LROP 270100Z 04005KT CAVOK 10/07 Q1015 NOSIG=
201904270130 METAR LROP 270130Z 04006KT CAVOK 10/07 Q1015 NOSIG=
201904270200 METAR LROP 270200Z 07003KT CAVOK 10/07 Q1015 NOSIG=
201904270230 METAR LROP 270230Z 06003KT CAVOK 09/07 Q1015 NOSIG=
201904270300 METAR LROP 270300Z 02005KT CAVOK 09/06 Q1015 NOSIG=
201904270330 METAR LROP 270330Z 03005KT CAVOK 10/06 Q1015 NOSIG=
201904270400 METAR LROP 270400Z 04005KT CAVOK 10/06 Q1015 NOSIG=
201904270430 METAR LROP 270430Z 06006KT CAVOK 10/06 Q1015 NOSIG=
201904270500 METAR LROP 270500Z 05005KT CAVOK 11/06 Q1015 NOSIG=
201904270530 METAR LROP 270530Z 03005KT 010V070 CAVOK 12/07 Q1015 NOSIG=
201904270600 METAR LROP 270600Z 05004KT 020V080 CAVOK 13/07 Q1014 NOSIG=
201904270630 METAR LROP 270630Z 06004KT 030V090 CAVOK 15/08 Q1014 NOSIG=
201904270700 METAR LROP 270700Z 07005KT 030V100 CAVOK 17/09 Q1014 NOSIG=
201904270730 METAR LROP 270730Z 07004KT 030V110 CAVOK 17/09 Q1014 NOSIG=
201904270800 METAR LROP 270800Z 09008KT CAVOK 19/10 Q1014 NOSIG=
201904270830 METAR LROP 270830Z 10007KT 040V120 CAVOK 20/11 Q1014 NOSIG=
201904270900 METAR LROP 270900Z 10009KT CAVOK 21/11 Q1013 NOSIG=
201904270930 METAR LROP 270930Z 09007KT 060V120 CAVOK 22/12 Q1013 NOSIG=
201904271000 METAR LROP 271000Z 09007KT 060V120 CAVOK 22/12 Q1013 NOSIG=
201904271030 METAR LROP 271030Z 09006KT 050V140 CAVOK 23/13 Q1012 NOSIG=
201904271100 METAR LROP 271100Z 09006KT 060V140 CAVOK 24/14 Q1012 NOSIG=
201904271130 METAR LROP 271130Z 10006KT 070V140 CAVOK 25/13 Q1012 NOSIG=
201904271200 METAR LROP 271200Z 08007KT 040V100 CAVOK 26/12 Q1011 NOSIG=
201904271230 METAR LROP 271230Z 09007KT 050V130 CAVOK 25/11 Q1011 NOSIG=
201904271300 METAR LROP 271300Z 09007KT 060V130 CAVOK 26/12 Q1010 NOSIG=
201904271330 METAR LROP 271330Z 11005KT 070V150 CAVOK 26/09 Q1010 NOSIG=
201904271400 METAR LROP 271400Z 09007KT 070V130 CAVOK 26/11 Q1008 NOSIG=
201904271430 METAR LROP 271430Z 09005KT CAVOK 25/13 Q1009 NOSIG=
201904271500 METAR COR LROP 271500Z 08005KT CAVOK 25/13 Q1009 NOSIG=
201904271530 METAR LROP 271530Z 11004KT 070V130 CAVOK 25/13 Q1009 NOSIG=
201904271600 METAR LROP 271600Z 09005KT CAVOK 24/13 Q1008 NOSIG=
201904271630 METAR LROP 271630Z 13007KT CAVOK 22/13 Q1009 NOSIG=
201904271700 METAR LROP 271700Z 13007KT CAVOK 21/13 Q1009 NOSIG=
201904271730 METAR LROP 271730Z 14007KT CAVOK 21/12 Q1009 NOSIG=
201904271800 METAR LROP 271800Z 13006KT CAVOK 19/13 Q1009 NOSIG=
201904271830 METAR COR LROP 271830Z 14006KT CAVOK 19/13 Q1009 TEMPO 5000
                        SHRA SCT030CB=
201904271900 METAR COR LROP 271900Z 26015KT CAVOK 20/12 Q1010 TEMPO VRB15G25KT
                        5000 SHRA SCT030CB=
201904271930 METAR LROP 271930Z 28016KT CAVOK 19/10 Q1010 TEMPO VRB15G25KT
                        5000 SHRA SCT030CB=
201904272000 METAR LROP 272000Z 28014KT CAVOK 18/11 Q1010 NOSIG=
201904272030 METAR LROP 272030Z 25012KT CAVOK 17/11 Q1011 NOSIG=
201904272100 METAR LROP 272100Z 27012KT CAVOK 17/11 Q1010 TEMPO VRB15G25KT
                        5000 SHRA=
201904272130 METAR LROP 272130Z 26008KT 9999 FEW050CB 17/11 Q1010 TEMPO
                        VRB15G25KT 5000 SHRA SCT025CB=
201904272200 METAR LROP 272200Z 25007KT 9999 TS FEW050CB 17/12 Q1010 TEMPO
                        VRB15G25KT 5000 TSRA SCT025CB=
201904272230 METAR LROP 272230Z 24007KT 200V280 9999 FEW050CB 16/13 Q1009
                        RETS NOSIG=
201904272300 METAR LROP 272300Z 23006KT 9999 FEW050CB 15/12 Q1009 R88/19//95
                        NOSIG=
201904272330 METAR LROP 272330Z 24008KT CAVOK 15/13 Q1009 R88/19//95 NOSIG=
201904280000 METAR LROP 280000Z 23008KT CAVOK 14/13 Q1009 R88/19//95 NOSIG=
201904280030 METAR LROP 280030Z 23008KT CAVOK 14/13 Q1009 R88/19//95 NOSIG=
201904280100 METAR LROP 280100Z 23011KT CAVOK 14/13 Q1009 R88/19//95 NOSIG=
201904280130 METAR LROP 280130Z 23009KT CAVOK 14/13 Q1009 R88/19//95 NOSIG=
201904280200 METAR LROP 280200Z 22011KT CAVOK 14/13 Q1009 R88/19//95 NOSIG=
201904280230 METAR LROP 280230Z 22010KT CAVOK 14/13 Q1009 R88/CLRD// NOSIG=
201904280300 METAR LROP 280300Z 22010KT CAVOK 14/13 Q1009 NOSIG=
201904280330 METAR LROP 280330Z 22010KT CAVOK 13/12 Q1010 NOSIG=
201904280400 METAR LROP 280400Z 22010KT CAVOK 13/12 Q1010 NOSIG=
201904280430 METAR LROP 280430Z 23012KT CAVOK 13/11 Q1010 NOSIG=
201904280500 METAR LROP 280500Z 24013KT CAVOK 14/11 Q1010 NOSIG=
201904280530 METAR LROP 280530Z 23014KT 9999 FEW014 14/11 Q1011 NOSIG=
201904280600 METAR LROP 280600Z 24014KT 9999 FEW014 15/11 Q1011 NOSIG=
201904280630 METAR LROP 280630Z 24015KT 9999 SCT015 15/11 Q1011 NOSIG=
201904280700 METAR LROP 280700Z 24014KT 9999 FEW017 16/10 Q1011 NOSIG=
201904280730 METAR LROP 280730Z 24014KT 9999 FEW019 17/11 Q1011 NOSIG=
201904280800 METAR LROP 280800Z 24014KT 9999 FEW021 17/10 Q1011 NOSIG=
201904280830 METAR LROP 280830Z 23015KT 9999 FEW027 18/10 Q1011 NOSIG=
201904280900 METAR LROP 280900Z 24015KT 9999 FEW030 19/11 Q1011 NOSIG=
201904280930 METAR LROP 280930Z 23016KT 9999 FEW030 19/10 Q1011 NOSIG=
201904281000 METAR LROP 281000Z 23016KT 9999 FEW033 20/11 Q1011 NOSIG=
201904281030 METAR LROP 281030Z 23015KT 9999 SCT034 20/11 Q1011 NOSIG=
201904281100 METAR LROP 281100Z 23015KT 9999 SCT036 21/11 Q1010 NOSIG=
201904281130 METAR LROP 281130Z 24014KT 9999 SCT041 20/10 Q1010 NOSIG=
201904281200 METAR LROP 281200Z 22016KT 9999 BKN044 22/11 Q1010 NOSIG=
201904281230 METAR LROP 281230Z 23018KT 9999 SCT049 22/10 Q1010 NOSIG=
201904281300 METAR LROP 281300Z 23015KT 9999 SCT048 21/08 Q1010 NOSIG=
201904281330 METAR LROP 281330Z 23017KT CAVOK 22/09 Q1009 NOSIG=
201904281400 METAR LROP 281400Z 24015KT CAVOK 22/08 Q1009 NOSIG=
201904281430 METAR LROP 281430Z 24016KT CAVOK 21/07 Q1009 NOSIG=
201904281500 METAR LROP 281500Z 23015KT CAVOK 21/06 Q1009 NOSIG=
201904281530 METAR LROP 281530Z 24014KT CAVOK 21/06 Q1009 NOSIG=
201904281600 METAR LROP 281600Z 24014KT CAVOK 20/06 Q1009 NOSIG=
201904281630 METAR LROP 281630Z 24014KT CAVOK 19/06 Q1010 NOSIG=
201904281700 METAR LROP 281700Z 24008KT CAVOK 17/06 Q1010 NOSIG=
201904281730 METAR LROP 281730Z 23008KT CAVOK 15/07 Q1010 NOSIG=
201904281800 METAR LROP 281800Z 21006KT CAVOK 14/07 Q1010 NOSIG=
201904281830 METAR LROP 281830Z 22008KT CAVOK 13/07 Q1011 NOSIG=
201904281900 METAR LROP 281900Z 23008KT CAVOK 13/07 Q1011 NOSIG=
201904281930 METAR LROP 281930Z 22008KT CAVOK 13/07 Q1011 NOSIG=
201904282000 METAR LROP 282000Z 23008KT CAVOK 13/07 Q1011 NOSIG=
201904282030 METAR LROP 282030Z 24008KT CAVOK 12/07 Q1011 NOSIG=
201904282100 METAR LROP 282100Z 25007KT CAVOK 12/06 Q1011 NOSIG=
201904282130 METAR LROP 282130Z 21004KT CAVOK 11/07 Q1011 NOSIG=
201904282200 METAR LROP 282200Z 23004KT CAVOK 10/07 Q1011 NOSIG=
201904282230 METAR LROP 282230Z 23006KT CAVOK 09/07 Q1011 NOSIG=
201904282300 METAR LROP 282300Z 22006KT CAVOK 09/07 Q1011 NOSIG=
201904282330 METAR LROP 282330Z 21007KT CAVOK 10/07 Q1011 NOSIG=
201904290000 METAR LROP 290000Z 24006KT CAVOK 09/07 Q1011 NOSIG=
201904290030 METAR LROP 290030Z 25006KT CAVOK 08/07 Q1011 NOSIG=
201904290100 METAR LROP 290100Z 25006KT CAVOK 07/06 Q1011 NOSIG=
201904290130 METAR LROP 290130Z 27004KT CAVOK 07/06 Q1011 NOSIG=
201904290200 METAR LROP 290200Z 24005KT CAVOK 07/06 Q1011 NOSIG=
201904290230 METAR LROP 290230Z 24006KT CAVOK 07/06 Q1011 NOSIG=
201904290300 METAR LROP 290300Z 25005KT CAVOK 07/06 Q1011 NOSIG=
201904290330 METAR LROP 290330Z 23005KT CAVOK 07/06 Q1011 NOSIG=
201904290400 METAR LROP 290400Z 23005KT CAVOK 08/07 Q1012 NOSIG=
201904290430 METAR LROP 290430Z 26005KT CAVOK 10/07 Q1012 NOSIG=
201904290500 METAR LROP 290500Z 26005KT CAVOK 10/07 Q1012 NOSIG=
201904290530 METAR LROP 290530Z 23005KT CAVOK 12/07 Q1012 NOSIG=
201904290600 METAR LROP 290600Z 24005KT CAVOK 12/08 Q1012 NOSIG=
201904290630 METAR LROP 290630Z 26005KT CAVOK 13/09 Q1012 NOSIG=
201904290700 METAR LROP 290700Z 25006KT CAVOK 15/09 Q1012 NOSIG=
201904290730 METAR LROP 290730Z 22005KT 190V270 CAVOK 17/10 Q1012 NOSIG=
201904290800 METAR LROP 290800Z 26006KT 230V300 CAVOK 18/09 Q1012 NOSIG=
201904290830 METAR LROP 290830Z 25005KT 210V290 CAVOK 18/08 Q1012 NOSIG=
201904290900 METAR LROP 290900Z 23003KT 160V270 CAVOK 18/07 Q1012 NOSIG=
201904290930 METAR LROP 290930Z 19006KT CAVOK 19/07 Q1011 NOSIG=
201904291000 METAR LROP 291000Z 22005KT 180V260 9999 FEW060CB 20/07 Q1011
                        NOSIG=
201904291030 METAR LROP 291030Z 22007KT 190V260 9999 FEW060CB 22/06 Q1011
                        NOSIG=
201904291100 METAR LROP 291100Z 24007KT 200V260 9999 FEW060CB 22/06 Q1011
                        NOSIG=
201904291130 METAR LROP 291130Z 23008KT 190V250 CAVOK 22/07 Q1010 NOSIG=
201904291200 METAR LROP 291200Z 20007KT CAVOK 21/07 Q1010 NOSIG=
201904291230 METAR LROP 291230Z 20007KT 160V230 CAVOK 22/07 Q1010 NOSIG=
201904291300 METAR LROP 291300Z 21005KT 090V250 CAVOK 22/06 Q1010 NOSIG=
201904291330 METAR LROP 291330Z 22006KT 180V260 CAVOK 22/07 Q1009 NOSIG=
201904291400 METAR LROP 291400Z 22006KT CAVOK 22/08 Q1009 NOSIG=
201904291430 METAR LROP 291430Z 22003KT 180V250 CAVOK 22/07 Q1009 NOSIG=
201904291500 METAR LROP 291500Z 18003KT CAVOK 22/07 Q1009 NOSIG=
201904291530 METAR LROP 291530Z 22002KT CAVOK 21/08 Q1009 NOSIG=
201904291600 METAR LROP 291600Z 27001KT CAVOK 20/11 Q1008 NOSIG=
201904291630 METAR LROP 291630Z 27002KT CAVOK 19/08 Q1008 NOSIG=
201904291700 METAR LROP 291700Z 00000KT CAVOK 19/08 Q1008 NOSIG=
201904291730 METAR LROP 291730Z 33003KT 300V020 CAVOK 18/08 Q1009 NOSIG=
201904291800 METAR COR LROP 291800Z 11004KT CAVOK 16/10 Q1009 NOSIG=
201904291830 METAR LROP 291830Z 10003KT CAVOK 16/09 Q1009 NOSIG=
201904291900 METAR LROP 291900Z 09003KT CAVOK 15/09 Q1009 NOSIG=
201904291930 METAR LROP 291930Z 05003KT 020V080 CAVOK 15/09 Q1009 NOSIG=
201904292000 METAR LROP 292000Z 00000KT CAVOK 14/10 Q1009 NOSIG=
201904292030 METAR LROP 292030Z 01004KT CAVOK 15/09 Q1009 NOSIG=
201904292100 METAR LROP 292100Z 03003KT CAVOK 15/10 Q1009 NOSIG=
201904292130 METAR LROP 292130Z 07003KT CAVOK 15/10 Q1009 NOSIG=
201904292200 METAR LROP 292200Z 02004KT CAVOK 15/09 Q1009 NOSIG=
201904292230 METAR LROP 292230Z VRB01KT CAVOK 14/10 Q1009 NOSIG=
201904292300 METAR COR LROP 292300Z 08005KT 9999 -SHRA FEW050CB 14/10
                        Q1008 NOSIG=
201904292330 METAR LROP 292330Z 04004KT 010V070 9999 -SHRA FEW050CB 14/11
                        Q1008 NOSIG=
201904300000 METAR LROP 300000Z 01006KT 340V040 9999 FEW050CB 14/11 Q1008
                        NOSIG=
201904300030 METAR LROP 300030Z 07008KT CAVOK 13/11 Q1007 NOSIG=
201904300100 METAR LROP 300100Z 06004KT 030V090 CAVOK 13/11 Q1007 NOSIG=
201904300130 METAR LROP 300130Z 35005KT 320V030 CAVOK 13/11 Q1007 NOSIG=
201904300200 METAR LROP 300200Z 02004KT 350V050 CAVOK 13/10 Q1007 NOSIG=
201904300230 METAR LROP 300230Z VRB01KT CAVOK 12/10 Q1007 NOSIG=
201904300300 METAR LROP 300300Z 10005KT CAVOK 12/10 Q1007 NOSIG=
201904300330 METAR LROP 300330Z 07003KT CAVOK 11/10 Q1007 NOSIG=
201904300400 METAR LROP 300400Z 02003KT 350V050 CAVOK 13/10 Q1007 NOSIG=
201904300430 METAR LROP 300430Z 05004KT 020V080 CAVOK 13/10 Q1007 NOSIG=
201904300500 METAR LROP 300500Z 07004KT CAVOK 13/11 Q1007 NOSIG=
201904300530 METAR LROP 300530Z 02005KT 350V050 CAVOK 15/12 Q1008 NOSIG=
201904300600 METAR LROP 300600Z 03006KT CAVOK 16/11 Q1008 NOSIG=
201904300630 METAR LROP 300630Z 04007KT CAVOK 17/11 Q1007 NOSIG=
201904300700 METAR LROP 300700Z 05009KT 020V100 CAVOK 18/12 Q1008 NOSIG=
201904300730 METAR LROP 300730Z 05008KT 020V090 CAVOK 18/12 Q1007 NOSIG=
201904300800 METAR LROP 300800Z 08009KT 9999 FEW025 19/12 Q1007 NOSIG=
201904300830 METAR LROP 300830Z 06011KT 040V100 9999 FEW027 19/12 Q1007
                        NOSIG=
201904300900 METAR LROP 300900Z 12011KT 9999 FEW026 20/12 Q1007 NOSIG=
201904300930 METAR LROP 300930Z 10009KT 9999 FEW028 20/12 Q1007 NOSIG=
201904301000 METAR LROP 301000Z 07008KT 9999 SCT028 20/13 Q1006 NOSIG=
201904301030 METAR LROP 301030Z 11008KT 9999 BKN027 20/12 Q1006 TEMPO
                        5000 TSRA SCT030CB=
201904301100 METAR LROP 301100Z 09007KT 9999 BKN029 FEW033CB 20/13 Q1005
                        TEMPO VRB15G25KT 5000 TSRA SCT030CB=
201904301130 METAR LROP 301130Z 10007KT 9999 BKN032 SCT036CB 21/14 Q1005
                        RETS TEMPO VRB15G25KT 5000 TSRA SCT030CB=
201904301200 METAR LROP 301200Z 12010KT 9999 TS BKN033 SCT040CB 22/13
                        Q1004 TEMPO VRB15G25KT 5000 TSRA
                        SCT030CB=
201904301230 METAR LROP 301230Z 14011KT 9999 TS BKN035 SCT040CB 22/13
                        Q1004 TEMPO VRB15G25KT 3000 TSRA
                        SCT030CB=
201904301300 METAR COR LROP 301300Z 20020G30KT 160V270 9999 -TSRA SCT015
                        SCT025 BKN037CB 17/13 Q1004 TEMPO
                        1500 +TSRAGR BKN005 BKN025CB=
201904301330 METAR LROP 301330Z 27023G33KT 4000 TSRA BR SCT013 BKN023CB
                        14/13 Q1005 R88/29//95 NOSIG=
201904301400 METAR LROP 301400Z 28020KT 9999 FEW050CB 14/12 Q1006 R88/29//95
                        NOSIG=
201904301430 METAR LROP 301430Z 29013KT 9999 FEW050CB 14/12 Q1006 R88/29//95
                        NOSIG=
201904301500 METAR LROP 301500Z 30011KT CAVOK 15/11 Q1005 R88/29//95 NOSIG=
201904301530 METAR LROP 301530Z 29011KT CAVOK 16/11 Q1005 R88/19//95 NOSIG=
201904301600 METAR LROP 301600Z 28011KT CAVOK 16/10 Q1005 R88/19//95 NOSIG=
201904301630 METAR LROP 301630Z 28009KT CAVOK 15/10 Q1005 R88/19//95 NOSIG=
201904301700 METAR LROP 301700Z 27007KT CAVOK 13/10 Q1005 R88/19//95 NOSIG=
201904301730 METAR LROP 301730Z 24006KT CAVOK 12/10 Q1006 R88/19//95 NOSIG=
201904301800 METAR LROP 301800Z 24006KT CAVOK 11/10 Q1006 R88/19//95 NOSIG=
201904301830 METAR COR LROP 301830Z 22006KT CAVOK 11/10 Q1006 R88/19//95
                        NOSIG=
201904301900 METAR LROP 301900Z 23006KT CAVOK 11/10 Q1006 R88/19//95 NOSIG=
201904301930 METAR LROP 301930Z 22007KT CAVOK 11/09 Q1006 R88/19//95 NOSIG=
201904302000 METAR LROP 302000Z 22008KT CAVOK 11/08 Q1006 R88/19//95 NOSIG=
201904302030 METAR LROP 302030Z 22009KT CAVOK 11/08 Q1007 R88/19//95 NOSIG=
201904302100 METAR LROP 302100Z 22008KT CAVOK 10/08 Q1007 R88/19//95 NOSIG=
201904302130 METAR LROP 302130Z 22009KT CAVOK 10/08 Q1007 R88/19//95 NOSIG=
201904302200 METAR LROP 302200Z 23010KT CAVOK 10/07 Q1007 R88/19//95 NOSIG=
201904302230 METAR LROP 302230Z 23012KT CAVOK 09/08 Q1007 R88/19//95 NOSIG=
201904302300 METAR LROP 302300Z 23010KT CAVOK 09/07 Q1006 R88/19//95 NOSIG=
201904302330 METAR LROP 302330Z 24010KT CAVOK 09/07 Q1006 R88/19//95 NOSIG=
