201905010000 METAR LROP 010000Z 24011KT CAVOK 09/07 Q1006 R88/19//95 NOSIG=
201905010030 METAR LROP 010030Z 23010KT CAVOK 08/07 Q1006 R88/19//95 NOSIG=
201905010100 METAR LROP 010100Z 23012KT CAVOK 08/07 Q1006 R88/19//95 NOSIG=
201905010130 METAR LROP 010130Z 23011KT CAVOK 08/07 Q1006 R88/19//95 NOSIG=
201905010200 METAR LROP 010200Z 23011KT CAVOK 08/07 Q1005 R88/19//95 NOSIG=
201905010230 METAR COR LROP 010230Z 23010KT CAVOK 08/07 Q1005 R88/19//95
                        NOSIG=
201905010300 METAR COR LROP 010300Z 22010KT CAVOK 08/07 Q1005 R88/CLRD//
                        NOSIG=
201905010330 METAR LROP 010330Z 23010KT 9999 SCT039 09/07 Q1005 R88/CLRD//
                        NOSIG=
201905010400 METAR LROP 010400Z 23011KT CAVOK 09/07 Q1005 NOSIG=
201905010430 METAR LROP 010430Z 23013KT CAVOK 10/07 Q1005 WS ALL RWY NOSIG=
201905010500 METAR LROP 010500Z 23015KT CAVOK 10/07 Q1005 WS ALL RWY NOSIG=
201905010530 METAR LROP 010530Z 22014KT 9999 BKN032 11/08 Q1005 WS ALL
                        RWY TEMPO 25020G30KT 5000 -RA=
201905010600 METAR LROP 010600Z 23014KT 9999 SCT025 BKN037 12/08 Q1004
                        WS ALL RWY TEMPO 25020G30KT 5000
                        -RA=
201905010630 METAR LROP 010630Z 23017KT 9999 -RA BKN025 12/08 Q1004 WS
                        ALL RWY TEMPO 25020G30KT 5000 -RA=
201905010700 METAR LROP 010700Z 23018KT 9999 OVC027 13/08 Q1004 WS ALL
                        RWY TEMPO 25020G30KT 5000 -RA=
201905010730 METAR LROP 010730Z 24017KT 9999 OVC028 13/08 Q1004 WS ALL
                        RWY TEMPO 25020G30KT 5000 -RA=
201905010800 METAR LROP 010800Z 25019KT 9999 OVC028 14/09 Q1005 WS ALL
                        RWY TEMPO 25020G30KT 5000 -RA=
201905010830 METAR LROP 010830Z 26021KT 9999 OVC028 14/09 Q1005 TEMPO
                        25020G30KT 5000 -RA=
201905010900 METAR LROP 010900Z 25022KT 9999 OVC029 15/09 Q1005 TEMPO
                        25020G30KT 5000 -RA=
201905010930 METAR LROP 010930Z 25018KT 9999 BKN032 15/08 Q1005 TEMPO
                        25022G32KT 5000 -RA=
201905011000 METAR LROP 011000Z 25018KT 9999 BKN031 16/09 Q1005 TEMPO
                        25022G32KT 5000 -RA=
201905011030 METAR LROP 011030Z 26020KT 9999 BKN031 17/10 Q1005 TEMPO
                        25022G32KT 5000 -RA=
201905011100 METAR LROP 011100Z 27021KT 9999 BKN030 17/10 Q1005 TEMPO
                        27021G31KT=
201905011130 METAR LROP 011130Z 26019KT 9999 SCT030 17/10 Q1004 TEMPO
                        27021G31KT=
201905011200 METAR LROP 011200Z 26020KT 9999 BKN032 18/10 Q1004 TEMPO
                        27021G31KT=
201905011230 METAR LROP 011230Z 27020KT 9999 BKN034 18/10 Q1004 TEMPO
                        27021G31KT=
201905011300 METAR LROP 011300Z 26018KT 9999 BKN035 18/10 Q1004 TEMPO
                        27021G31KT=
201905011330 METAR LROP 011330Z AUTO 26018KT 9999 FEW036/// 18/09 Q1004
                        TEMPO 27021G31KT=
201905011400 METAR LROP 011400Z 25017KT 9999 SCT038 19/10 Q1004 NOSIG=
201905011430 METAR LROP 011430Z 25015KT 9999 SCT039 19/10 Q1004 NOSIG=
201905011500 METAR LROP 011500Z 25014KT 9999 BKN039 18/09 Q1004 NOSIG=
201905011530 METAR LROP 011530Z 25012KT 9999 BKN041 18/09 Q1004 NOSIG=
201905011600 METAR LROP 011600Z 25013KT 9999 SCT042 18/09 Q1004 NOSIG=
201905011630 METAR LROP 011630Z 26012KT 9999 FEW049 17/09 Q1004 NOSIG=
201905011700 METAR LROP 011700Z 25009KT CAVOK 16/09 Q1005 NOSIG=
201905011730 METAR LROP 011730Z 25007KT CAVOK 15/10 Q1005 NOSIG=
201905011800 METAR LROP 011800Z 24007KT CAVOK 15/10 Q1005 NOSIG=
201905011830 METAR LROP 011830Z 25008KT CAVOK 15/10 Q1006 NOSIG=
201905011900 METAR LROP 011900Z 26010KT CAVOK 15/10 Q1006 NOSIG=
201905011930 METAR LROP 011930Z 27009KT CAVOK 15/10 Q1006 NOSIG=
201905012000 METAR LROP 012000Z 26009KT CAVOK 14/10 Q1006 NOSIG=
201905012030 METAR LROP 012030Z 27007KT CAVOK 14/10 Q1006 NOSIG=
201905012100 METAR LROP 012100Z 25005KT 9999 -SHRA FEW050CB 13/11 Q1006
                        NOSIG=
201905012130 METAR LROP 012130Z 26004KT 9999 -SHRA FEW050CB 13/11 Q1006
                        R88/19//95 NOSIG=
201905012200 METAR LROP 012200Z 22005KT 9999 -SHRA FEW050CB 12/11 Q1006
                        R88/19//95 NOSIG=
201905012230 METAR LROP 012230Z 24004KT 9999 -SHRA FEW050CB 12/11 Q1007
                        R88/19//95 NOSIG=
201905012300 METAR LROP 012300Z 24005KT 9999 -SHRA FEW050CB 12/11 Q1007
                        R88/19//95 NOSIG=
201905012330 METAR LROP 012330Z 21004KT 9999 -SHRA FEW050CB 12/11 Q1007
                        R88/19//95 BECMG NSW SCT040=
201905020000 METAR LROP 020000Z 22004KT 9999 -SHRA FEW050CB 12/11 Q1006
                        R88/19//95 NOSIG=
201905020030 METAR LROP 020030Z 26006KT 9999 FEW050CB 11/11 Q1007 R88/19//95
                        NOSIG=
201905020100 METAR LROP 020100Z 21005KT 190V260 CAVOK 11/11 Q1006 R88/19//95
                        NOSIG=
201905020130 METAR LROP 020130Z 26002KT CAVOK 11/11 Q1007 R88/19//95 NOSIG=
201905020200 METAR LROP 020200Z 24004KT 8000 NSC 11/11 Q1007 R88/19//95
                        NOSIG=
201905020230 METAR LROP 020230Z 28004KT 7000 -SHRA FEW050CB 11/11 Q1007
                        R88/19//95 NOSIG=
201905020300 METAR LROP 020300Z 25004KT 7000 NSC 11/10 Q1007 R88/19//95
                        NOSIG=
201905020330 METAR LROP 020330Z 24004KT 5000 MIFG BR NSC 11/10 Q1007 R88/19//95
                        TEMPO 3000 BR=
201905020400 METAR LROP 020400Z 24003KT 8000 NSC 10/10 Q1007 R88/19//95
                        NOSIG=
201905020430 METAR LROP 020430Z 26002KT 5000 BR NSC 11/11 Q1008 R88/19//95
                        BECMG 9999 NSW=
201905020500 METAR LROP 020500Z 25004KT CAVOK 13/11 Q1008 R88/19//95 NOSIG=
201905020530 METAR LROP 020530Z 26004KT CAVOK 15/11 Q1008 R88/19//95 NOSIG=
201905020600 METAR LROP 020600Z 22005KT CAVOK 16/10 Q1008 R88/CLRD// NOSIG=
201905020630 METAR LROP 020630Z 24007KT CAVOK 17/11 Q1009 NOSIG=
201905020700 METAR LROP 020700Z 23007KT CAVOK 18/11 Q1009 NOSIG=
201905020730 METAR LROP 020730Z 24008KT CAVOK 18/11 Q1008 NOSIG=
201905020800 METAR LROP 020800Z 23007KT 190V260 9999 FEW032 19/10 Q1008
                        NOSIG=
201905020830 METAR LROP 020830Z 22008KT 190V250 9999 FEW037 20/09 Q1009
                        NOSIG=
201905020900 METAR LROP 020900Z 23009KT 200V260 9999 SCT043 19/09 Q1009
                        NOSIG=
201905020930 METAR LROP 020930Z 24009KT 200V270 9999 SCT048 21/09 Q1008
                        NOSIG=
201905021000 METAR LROP 021000Z 22010KT 9999 SCT044 21/09 Q1008 NOSIG=
201905021030 METAR LROP 021030Z 22007KT 190V250 9999 SCT046 21/08 Q1008
                        BECMG SCT040CB=
201905021100 METAR LROP 021100Z 24009KT CAVOK 21/08 Q1008 BECMG SCT040CB=
201905021130 METAR LROP 021130Z 25009KT 220V280 CAVOK 22/09 Q1007 TEMPO
                        FEW050CB=
201905021200 METAR COR LROP 021200Z 29009KT 260V320 9999 FEW047 FEW050CB
                        22/09 Q1007 NOSIG=
201905021230 METAR COR LROP 021230Z 27018KT 230V300 9999 SCT050CB 21/09
                        Q1007 TEMPO VRB20G30KT BKN045CB=
201905021300 METAR LROP 021300Z 26017KT 9999 SCT050CB 19/06 Q1007 NOSIG=
201905021330 METAR LROP 021330Z 26009KT 9999 FEW050CB 21/07 Q1007 NOSIG=
201905021400 METAR LROP 021400Z 26005KT 220V300 9999 FEW033 22/05 Q1007
                        NOSIG=
201905021430 METAR LROP 021430Z 26010KT CAVOK 21/06 Q1007 NOSIG=
201905021500 METAR LROP 021500Z 30007KT CAVOK 21/06 Q1007 NOSIG=
201905021530 METAR LROP 021530Z 33003KT 290V010 CAVOK 21/08 Q1007 NOSIG=
201905021600 METAR LROP 021600Z VRB01KT CAVOK 21/08 Q1007 NOSIG=
201905021630 METAR LROP 021630Z VRB01KT CAVOK 21/08 Q1007 NOSIG=
201905021700 METAR LROP 021700Z VRB01KT CAVOK 21/08 Q1007 NOSIG=
201905021730 METAR LROP 021730Z 11004KT CAVOK 16/09 Q1007 NOSIG=
201905021800 METAR LROP 021800Z 12003KT CAVOK 16/09 Q1007 NOSIG=
201905021830 METAR LROP 021830Z 13003KT CAVOK 15/09 Q1008 NOSIG=
201905021900 METAR LROP 021900Z 15002KT CAVOK 14/09 Q1008 NOSIG=
201905021930 METAR COR LROP 021930Z 00000KT CAVOK 14/09 Q1008 NOSIG=
201905022000 METAR LROP 022000Z 00000KT CAVOK 14/10 Q1008 NOSIG=
201905022030 METAR LROP 022030Z 00000KT CAVOK 13/09 Q1008 NOSIG=
201905022100 METAR LROP 022100Z 01005KT CAVOK 12/09 Q1008 NOSIG=
201905022130 METAR LROP 022130Z 02004KT CAVOK 11/10 Q1009 NOSIG=
201905022200 METAR LROP 022200Z 01005KT CAVOK 13/09 Q1009 NOSIG=
201905022230 METAR LROP 022230Z 02003KT 340V050 CAVOK 12/09 Q1009 NOSIG=
201905022300 METAR LROP 022300Z 27003KT CAVOK 10/09 Q1009 NOSIG=
201905022330 METAR LROP 022330Z 28003KT CAVOK 09/09 Q1009 NOSIG=
201905030000 METAR LROP 030000Z 28005KT CAVOK 09/08 Q1009 NOSIG=
201905030030 METAR LROP 030030Z VRB02KT CAVOK 09/08 Q1009 NOSIG=
201905030100 METAR LROP 030100Z VRB01KT CAVOK 10/09 Q1009 NOSIG=
201905030130 METAR LROP 030130Z VRB01KT 8000 NSC 09/09 Q1009 NOSIG=
201905030200 METAR LROP 030200Z 26004KT 7000 NSC 09/08 Q1009 NOSIG=
201905030230 METAR LROP 030230Z 23004KT 7000 NSC 08/08 Q1009 TEMPO 3000
                        BR=
201905030300 METAR LROP 030300Z 26004KT 8000 NSC 07/07 Q1009 NOSIG=
201905030330 METAR LROP 030330Z 26006KT CAVOK 08/07 Q1010 NOSIG=
201905030400 METAR LROP 030400Z 25006KT CAVOK 09/08 Q1010 NOSIG=
201905030430 METAR LROP 030430Z 22004KT CAVOK 11/08 Q1010 NOSIG=
201905030500 METAR LROP 030500Z 28004KT 220V310 CAVOK 11/09 Q1010 NOSIG=
201905030530 METAR LROP 030530Z VRB02KT CAVOK 13/09 Q1010 NOSIG=
201905030600 METAR LROP 030600Z 23003KT CAVOK 15/09 Q1010 NOSIG=
201905030630 METAR LROP 030630Z 28004KT 240V010 CAVOK 16/10 Q1011 NOSIG=
201905030700 METAR LROP 030700Z VRB02KT CAVOK 18/09 Q1011 NOSIG=
201905030730 METAR LROP 030730Z 21003KT 170V270 CAVOK 19/09 Q1011 NOSIG=
201905030800 METAR LROP 030800Z 19004KT 150V290 CAVOK 20/10 Q1011 NOSIG=
201905030830 METAR LROP 030830Z 24006KT CAVOK 21/11 Q1011 NOSIG=
201905030900 METAR LROP 030900Z 25007KT CAVOK 22/10 Q1011 NOSIG=
201905030930 METAR LROP 030930Z 26006KT 230V290 CAVOK 22/09 Q1010 NOSIG=
201905031000 METAR LROP 031000Z 25006KT 210V290 CAVOK 23/09 Q1010 NOSIG=
201905031030 METAR LROP 031030Z 23008KT 210V290 CAVOK 24/08 Q1010 NOSIG=
201905031100 METAR LROP 031100Z 24008KT 200V270 CAVOK 24/08 Q1009 NOSIG=
201905031130 METAR LROP 031130Z 22008KT 180V260 CAVOK 25/10 Q1009 NOSIG=
201905031200 METAR LROP 031200Z 26006KT 220V280 CAVOK 25/08 Q1009 NOSIG=
201905031230 METAR LROP 031230Z 24009KT 200V280 CAVOK 25/09 Q1009 NOSIG=
201905031300 METAR LROP 031300Z 23007KT 200V260 CAVOK 25/06 Q1008 NOSIG=
201905031330 METAR LROP 031330Z 22009KT CAVOK 25/07 Q1008 NOSIG=
201905031400 METAR LROP 031400Z 21009KT CAVOK 25/08 Q1008 NOSIG=
201905031430 METAR LROP 031430Z 22010KT 200V260 CAVOK 25/07 Q1008 NOSIG=
201905031500 METAR LROP 031500Z 23009KT CAVOK 25/06 Q1007 NOSIG=
201905031530 METAR LROP 031530Z 22010KT CAVOK 23/05 Q1008 NOSIG=
201905031600 METAR LROP 031600Z 22008KT CAVOK 22/07 Q1007 NOSIG=
201905031630 METAR LROP 031630Z 22007KT CAVOK 21/07 Q1007 NOSIG=
201905031700 METAR LROP 031700Z 20006KT CAVOK 19/08 Q1007 NOSIG=
201905031730 METAR LROP 031730Z 20005KT CAVOK 18/09 Q1008 NOSIG=
201905031800 METAR LROP 031800Z 20006KT CAVOK 17/09 Q1008 NOSIG=
201905031830 METAR LROP 031830Z 21006KT CAVOK 16/09 Q1008 NOSIG=
201905031900 METAR LROP 031900Z 21006KT CAVOK 16/09 Q1008 NOSIG=
201905031930 METAR LROP 031930Z 21006KT CAVOK 16/09 Q1008 NOSIG=
201905032000 METAR LROP 032000Z 32007KT CAVOK 16/09 Q1009 NOSIG=
201905032030 METAR LROP 032030Z 25004KT CAVOK 15/08 Q1009 NOSIG=
201905032100 METAR LROP 032100Z 35004KT 300V010 CAVOK 15/09 Q1009 NOSIG=
201905032130 METAR LROP 032130Z VRB02KT CAVOK 14/09 Q1009 NOSIG=
201905032200 METAR LROP 032200Z VRB02KT CAVOK 13/10 Q1009 NOSIG=
201905032230 METAR LROP 032230Z 00000KT CAVOK 12/09 Q1009 NOSIG=
201905032300 METAR LROP 032300Z VRB01KT CAVOK 12/09 Q1009 NOSIG=
201905032330 METAR LROP 032330Z 00000KT CAVOK 12/10 Q1009 NOSIG=
201905040000 METAR LROP 040000Z 00000KT CAVOK 12/10 Q1009 NOSIG=
201905040030 METAR LROP 040030Z 28004KT CAVOK 11/09 Q1009 NOSIG=
201905040100 METAR LROP 040100Z 31003KT CAVOK 11/09 Q1009 NOSIG=
201905040130 METAR LROP 040130Z 30002KT CAVOK 11/09 Q1009 NOSIG=
201905040200 METAR LROP 040200Z 31002KT CAVOK 11/09 Q1009 NOSIG=
201905040230 METAR LROP 040230Z VRB01KT CAVOK 10/09 Q1009 NOSIG=
201905040300 METAR LROP 040300Z 31003KT CAVOK 10/09 Q1009 NOSIG=
201905040330 METAR LROP 040330Z 33005KT CAVOK 10/09 Q1009 NOSIG=
201905040400 METAR LROP 040400Z 26004KT CAVOK 10/09 Q1009 NOSIG=
201905040430 METAR LROP 040430Z VRB05KT CAVOK 12/09 Q1010 NOSIG=
201905040500 METAR LROP 040500Z 29003KT 250V310 CAVOK 14/10 Q1009 NOSIG=
201905040530 METAR LROP 040530Z 01004KT 310V040 CAVOK 14/10 Q1009 NOSIG=
201905040600 METAR LROP 040600Z 03004KT 9999 FEW050CB 15/10 Q1009 NOSIG=
201905040630 METAR LROP 040630Z 04004KT 9999 FEW050CB 16/11 Q1009 NOSIG=
201905040700 METAR LROP 040700Z VRB03KT 9999 VCSH FEW050CB 18/11 Q1009
                        NOSIG=
201905040730 METAR LROP 040730Z 01003KT 300V070 CAVOK 19/09 Q1009 NOSIG=
201905040800 METAR LROP 040800Z 03004KT 320V090 CAVOK 21/10 Q1009 NOSIG=
201905040830 METAR LROP 040830Z VRB03KT CAVOK 22/09 Q1009 NOSIG=
201905040900 METAR LROP 040900Z VRB02KT CAVOK 23/07 Q1008 NOSIG=
201905040930 METAR LROP 040930Z VRB03KT CAVOK 23/07 Q1008 NOSIG=
201905041000 METAR LROP 041000Z 08005KT 360V150 CAVOK 24/09 Q1008 NOSIG=
201905041030 METAR LROP 041030Z 10006KT 060V120 CAVOK 24/09 Q1008 NOSIG=
201905041100 METAR LROP 041100Z 15009KT CAVOK 24/08 Q1007 NOSIG=
201905041130 METAR LROP 041130Z 14008KT 110V170 CAVOK 23/09 Q1006 NOSIG=
201905041200 METAR LROP 041200Z 12006KT 080V150 CAVOK 23/09 Q1007 NOSIG=
201905041230 METAR LROP 041230Z 16004KT 120V190 CAVOK 24/09 Q1007 NOSIG=
201905041300 METAR LROP 041300Z 13007KT 090V180 CAVOK 24/09 Q1006 NOSIG=
201905041330 METAR LROP 041330Z 16008KT 110V180 CAVOK 24/08 Q1006 NOSIG=
201905041400 METAR LROP 041400Z 11007KT CAVOK 25/09 Q1005 NOSIG=
201905041430 METAR LROP 041430Z 11009KT CAVOK 25/09 Q1005 NOSIG=
201905041500 METAR LROP 041500Z 11006KT 9999 FEW050CB 24/09 Q1004 TEMPO
                        5000 SHRA SCT040CB=
201905041530 METAR LROP 041530Z 19015KT 160V220 9999 -TSRA SCT050CB 21/11
                        Q1005 NOSIG=
201905041600 METAR LROP 041600Z 27006KT 230V290 9999 -TSRA BKN050CB 17/14
                        Q1005 R88/19//95 NOSIG=
201905041630 METAR LROP 041630Z 01004KT 320V050 9999 TS SCT050CB 18/15
                        Q1005 R88/19//95 BECMG NSW=
201905041700 METAR LROP 041700Z 04004KT 9999 VCSH SCT050CB 19/14 Q1004
                        RETS R88/19//95 BECMG NSC=
201905041730 METAR LROP 041730Z 09004KT 9999 -SHRA SCT050CB 18/15 Q1004
                        R88/19//95 BECMG NSC=
201905041800 METAR LROP 041800Z 06003KT 010V100 9999 SCT050CB 17/14 Q1005
                        R88/19//95 BECMG NSC=
201905041830 METAR LROP 041830Z 11005KT 9999 FEW050CB 16/14 Q1005 R88/19//95
                        BECMG NSC=
201905041900 METAR LROP 041900Z 10004KT CAVOK 15/14 Q1005 R88/19//95 NOSIG=
201905041930 METAR LROP 041930Z 14003KT CAVOK 14/13 Q1005 R88/19//95 NOSIG=
201905042000 METAR LROP 042000Z 18006KT CAVOK 15/11 Q1005 R88/19//95 NOSIG=
201905042030 METAR LROP 042030Z 17007KT CAVOK 16/11 Q1005 R88/19//95 NOSIG=
201905042100 METAR LROP 042100Z 16008KT CAVOK 16/11 Q1005 R88/19//95 NOSIG=
201905042130 METAR LROP 042130Z 17006KT CAVOK 16/09 Q1005 R88/19//95 NOSIG=
201905042200 METAR COR LROP 042200Z 15007KT CAVOK 15/08 Q1005 R88/19//95
                        NOSIG=
201905042230 METAR LROP 042230Z 15008KT CAVOK 15/08 Q1005 R88/19//95 NOSIG=
201905042300 METAR LROP 042300Z 15007KT CAVOK 14/08 Q1005 R88/19//95 NOSIG=
201905042330 METAR LROP 042330Z 12005KT 080V140 CAVOK 14/07 Q1005 R88/19//95
                        NOSIG=
201905050000 METAR LROP 050000Z 07005KT CAVOK 11/08 Q1004 R88/19//95 NOSIG=
201905050030 METAR LROP 050030Z 08004KT CAVOK 11/07 Q1004 R88/19//95 NOSIG=
201905050100 METAR LROP 050100Z 06005KT CAVOK 10/07 Q1004 R88/19//95 NOSIG=
201905050130 METAR LROP 050130Z 05004KT CAVOK 10/08 Q1004 R88/19//95 NOSIG=
201905050200 METAR LROP 050200Z 03006KT CAVOK 10/07 Q1004 R88/19//95 NOSIG=
201905050230 METAR LROP 050230Z 05007KT CAVOK 10/07 Q1004 R88/19//95 NOSIG=
201905050300 METAR LROP 050300Z 06006KT CAVOK 09/07 Q1004 R88/CLRD// NOSIG=
201905050330 METAR LROP 050330Z 06005KT CAVOK 09/08 Q1004 R88/CLRD// NOSIG=
201905050400 METAR LROP 050400Z 07007KT CAVOK 11/08 Q1004 R88/CLRD// NOSIG=
201905050430 METAR LROP 050430Z 08006KT CAVOK 12/09 Q1005 R88/CLRD// NOSIG=
201905050500 METAR LROP 050500Z 08006KT CAVOK 13/10 Q1004 NOSIG=
201905050530 METAR LROP 050530Z 08008KT CAVOK 15/11 Q1004 NOSIG=
201905050600 METAR LROP 050600Z 09007KT CAVOK 16/11 Q1004 NOSIG=
201905050630 METAR LROP 050630Z 09006KT 060V140 9999 FEW020 16/11 Q1005
                        NOSIG=
201905050700 METAR LROP 050700Z 09006KT 050V110 9999 FEW022 17/11 Q1005
                        NOSIG=
201905050730 METAR LROP 050730Z 08007KT 050V110 9999 FEW022 18/11 Q1005
                        NOSIG=
201905050800 METAR LROP 050800Z 06009KT 9999 FEW023 18/11 Q1005 NOSIG=
201905050830 METAR LROP 050830Z 08008KT 050V120 9999 SCT029 19/11 Q1005
                        NOSIG=
201905050900 METAR LROP 050900Z 10008KT 070V130 9999 SCT032 19/11 Q1005
                        NOSIG=
201905050930 METAR LROP 050930Z 09007KT 9999 FEW030CB SCT035 19/11 Q1005
                        NOSIG=
201905051000 METAR LROP 051000Z 09005KT 060V120 9999 FEW030CB SCT035 20/11
                        Q1004 NOSIG=
201905051030 METAR LROP 051030Z 08005KT 040V130 9999 FEW027CB SCT033 20/12
                        Q1005 BECMG SCT035=
201905051100 METAR LROP 051100Z 09007KT 040V140 9999 FEW034 21/11 Q1004
                        BECMG SCT035=
201905051130 METAR LROP 051130Z 09008KT 9999 FEW040 22/11 Q1004 NOSIG=
201905051200 METAR LROP 051200Z 09007KT 060V140 9999 FEW045 22/11 Q1004
                        NOSIG=
201905051230 METAR LROP 051230Z 09008KT 9999 FEW048 23/12 Q1003 NOSIG=
201905051300 METAR LROP 051300Z 09007KT 060V120 9999 FEW048 24/12 Q1003
                        NOSIG=
201905051330 METAR LROP 051330Z 09008KT CAVOK 23/12 Q1003 NOSIG=
201905051400 METAR LROP 051400Z 08009KT CAVOK 23/12 Q1002 NOSIG=
201905051430 METAR LROP 051430Z 14006KT 100V160 CAVOK 23/12 Q1002 NOSIG=
201905051500 METAR LROP 051500Z 14007KT CAVOK 22/11 Q1002 NOSIG=
201905051530 METAR LROP 051530Z 15008KT CAVOK 22/12 Q1002 NOSIG=
201905051600 METAR LROP 051600Z 17005KT 9999 FEW050CB 22/12 Q1002 TEMPO
                        VRB15G25KT 3000 TSRA BKN030CB=
201905051630 METAR LROP 051630Z 12004KT 9999 FEW050CB 21/13 Q1002 TEMPO
                        VRB15G25KT 3000 TSRA BKN030CB=
201905051700 METAR LROP 051700Z 19011KT 7000 TSRA SCT050CB 20/14 Q1002
                        TEMPO VRB15G25KT 3000 TSRA BKN030CB=
201905051730 METAR LROP 051730Z 29007KT 220V320 9999 TS VCSH SCT045CB
                        18/14 Q1002 RETSRA R88/29//95 TEMPO
                        VRB15G25KT 3000 TSRA BKN030CB=
201905051800 METAR LROP 051800Z 34004KT 9999 VCTS SCT050CB 16/15 Q1003
                        RETS R88/29//95 NOSIG=
201905051830 METAR LROP 051830Z 36005KT 9999 FEW050CB 17/15 Q1003 R88/29//95
                        NOSIG=
201905051900 METAR LROP 051900Z 10003KT 040V190 9999 FEW050CB 17/15 Q1003
                        R88/29//95 NOSIG=
201905051930 METAR LROP 051930Z 18009KT 9999 FEW050CB 18/13 Q1003 R88/29//95
                        NOSIG=
201905052000 METAR LROP 052000Z 21007KT 9999 FEW050CB 18/13 Q1003 R88/29//95
                        NOSIG=
201905052030 METAR LROP 052030Z 20007KT 9999 FEW050CB 16/13 Q1003 R88/19//95
                        NOSIG=
201905052100 METAR LROP 052100Z 19006KT 9999 FEW050CB 17/12 Q1003 R88/19//95
                        NOSIG=
201905052130 METAR LROP 052130Z 18006KT CAVOK 17/13 Q1003 R88/19//95 NOSIG=
201905052200 METAR LROP 052200Z 17005KT CAVOK 16/13 Q1003 R88/19//95 NOSIG=
201905052230 METAR LROP 052230Z VRB01KT 9999 FEW047 16/13 Q1003 R88/19//95
                        NOSIG=
201905052300 METAR LROP 052300Z 00000KT CAVOK 15/14 Q1002 R88/19//95 NOSIG=
201905052330 METAR LROP 052330Z VRB01KT CAVOK 15/14 Q1002 R88/CLRD// NOSIG=
201905060000 METAR LROP 060000Z 17005KT CAVOK 15/14 Q1002 NOSIG=
201905060030 METAR LROP 060030Z 19004KT CAVOK 14/13 Q1002 NOSIG=
201905060100 METAR LROP 060100Z 16006KT CAVOK 14/13 Q1002 NOSIG=
201905060130 METAR LROP 060130Z 19005KT CAVOK 15/12 Q1002 NOSIG=
201905060200 METAR LROP 060200Z 19006KT CAVOK 14/11 Q1002 NOSIG=
201905060230 METAR COR LROP 060230Z 22004KT CAVOK 14/11 Q1002 NOSIG=
201905060300 METAR LROP 060300Z 19004KT CAVOK 13/12 Q1002 NOSIG=
201905060330 METAR LROP 060330Z 21003KT CAVOK 14/12 Q1003 NOSIG=
201905060400 METAR LROP 060400Z 22005KT CAVOK 14/12 Q1003 NOSIG=
201905060430 METAR LROP 060430Z 22005KT CAVOK 15/13 Q1003 NOSIG=
201905060500 METAR LROP 060500Z 21005KT CAVOK 15/14 Q1003 NOSIG=
201905060530 METAR LROP 060530Z 24007KT CAVOK 15/14 Q1003 NOSIG=
201905060600 METAR LROP 060600Z 25007KT 9999 SCT004 15/14 Q1003 NOSIG=
201905060630 METAR LROP 060630Z 22006KT 9999 BKN006 16/14 Q1003 BECMG
                        NSC=
201905060700 METAR LROP 060700Z 23004KT 180V270 9999 SCT007 17/15 Q1004
                        NOSIG=
201905060730 METAR LROP 060730Z 25005KT 210V270 9999 SCT006 BKN008 17/15
                        Q1003 BECMG NSC=
201905060800 METAR LROP 060800Z 24006KT 9999 BKN009 17/15 Q1004 BECMG
                        NSC=
201905060830 METAR LROP 060830Z 26005KT 230V290 9999 FEW008 BKN010 18/15
                        Q1004 BECMG SCT015 FEW040CB=
201905060900 METAR LROP 060900Z 27006KT 240V310 9999 BKN011 18/15 Q1004
                        BECMG SCT015 FEW040CB=
201905060930 METAR COR LROP 060930Z 27007KT 9999 BKN013 FEW050CB 18/15
                        Q1004 BECMG SCT015 FEW040CB=
201905061000 METAR LROP 061000Z 26004KT 230V290 9999 -SHRA BKN013 FEW045CB
                        18/16 Q1003 BECMG SCT015 FEW040CB=
201905061030 METAR LROP 061030Z 26006KT 9999 -SHRA SCT016 SCT045CB 18/16
                        Q1003 R88/29//95 BECMG SCT015 FEW040CB=
201905061100 METAR LROP 061100Z 25005KT 9999 SCT012 FEW050CB 19/16 Q1003
                        R88/29//95 NOSIG=
201905061130 METAR LROP 061130Z 25004KT 220V280 9999 -SHRA FEW012 FEW050CB
                        19/16 Q1003 R88/29//95 NOSIG=
201905061200 METAR LROP 061200Z 27004KT 250V320 9999 -SHRA FEW017 SCT035
                        FEW050CB 18/16 Q1002 R88/29//95 NOSIG=
201905061230 METAR LROP 061230Z 36004KT 320V050 9999 FEW018 SCT043 FEW045CB
                        19/16 Q1001 R88/29//95 NOSIG=
201905061300 METAR LROP 061300Z 29006KT 250V350 9999 SCT040CB 18/15 Q1001
                        R88/29//95 BECMG VRB15G25KT 5000
                        TSRA BKN040CB=
201905061330 METAR LROP 061330Z 28008KT 9999 -SHRA SCT040CB 17/16 Q1001
                        R88/29//95 BECMG VRB15G25KT 5000
                        TSRA BKN040CB=
201905061400 METAR COR LROP 061400Z 26008KT 9999 -TSRA FEW012 SCT035CB
                        16/15 Q1001 R88/29//95 TEMPO VRB15G25KT
                        5000 TSRA=
201905061430 METAR LROP 061430Z 27007KT 9000 SHRA FEW015 BKN038CB 16/15
                        Q1001 RETS R88/29//95 NOSIG=
201905061500 METAR LROP 061500Z 27007KT 9999 -SHRA FEW013 SCT040CB 15/15
                        Q1001 RETS R88/29//95 NOSIG=
201905061530 METAR LROP 061530Z 28009KT 9999 TSRA FEW012 BKN038CB 15/14
                        Q1001 R88/29//95 NOSIG=
201905061600 METAR LROP 061600Z 24011KT 9999 SHRA SCT019 BKN038CB 14/13
                        Q1002 R88/29//95 NOSIG=
201905061630 METAR LROP 061630Z 21012KT 9999 SHRA SCT013 BKN038CB BKN049
                        13/13 Q1003 R88/29//95 TEMPO 5000
                        SHRA=
201905061700 METAR LROP 061700Z 26013KT 8000 +SHRA FEW013 BKN040CB OVC046
                        13/12 Q1002 R88/29//95 TEMPO 5000
                        SHRA=
201905061730 METAR LROP 061730Z 25010KT 9999 -SHRA FEW013 BKN043CB 13/12
                        Q1002 R88/29//95 TEMPO 5000 SHRA=
201905061800 METAR LROP 061800Z 24011KT 8000 -SHRA BKN043CB 13/12 Q1003
                        R88/29//95 NOSIG=
201905061830 METAR LROP 061830Z 24011KT 8000 -SHRA FEW011 BKN044CB 12/12
                        Q1002 R88/29//95 NOSIG=
201905061900 METAR LROP 061900Z 23010KT 8000 -SHRA SCT005 BKN045CB 12/12
                        Q1003 R88/29//95 TEMPO BKN005 BKN040=
201905061930 METAR LROP 061930Z 22010KT 9999 -SHRA BKN005 BKN044CB 12/12
                        Q1003 R88/29//95 BECMG SCT005 BKN040=
201905062000 METAR LROP 062000Z 23008KT 9999 FEW005 SCT044CB 12/12 Q1003
                        R88/29//95 NOSIG=
201905062030 METAR LROP 062030Z 23009KT 8000 BKN006 12/12 Q1003 R88/29//95
                        NOSIG=
201905062100 METAR LROP 062100Z 24012KT 7000 -RA BKN007 12/11 Q1003 R88/29//95
                        BECMG SCT010=
201905062130 METAR LROP 062130Z 23009KT 7000 FEW007 11/11 Q1003 R88/29//95
                        NOSIG=
201905062200 METAR LROP 062200Z 23008KT 8000 BKN009 11/10 Q1003 R88/29//95
                        NOSIG=
201905062230 METAR LROP 062230Z 23009KT 9999 FEW010 SCT014 10/09 Q1003
                        R88/29//95 NOSIG=
201905062300 METAR LROP 062300Z 23009KT 9999 BKN015 10/09 Q1003 R88/29//95
                        NOSIG=
201905062330 METAR LROP 062330Z 23009KT 9999 -RA OVC013 10/09 Q1003 R88/29//95
                        NOSIG=
201905070000 METAR LROP 070000Z 22009KT 9999 OVC013 09/09 Q1003 R88/29//95
                        NOSIG=
201905070030 METAR LROP 070030Z 23008KT 9999 OVC013 09/09 Q1003 R88/29//95
                        NOSIG=
201905070100 METAR LROP 070100Z 22007KT 9999 BKN013 OVC030 10/09 Q1003
                        R88/29//95 NOSIG=
201905070130 METAR LROP 070130Z 22008KT 9999 OVC011 09/09 Q1003 R88/29//95
                        NOSIG=
201905070200 METAR LROP 070200Z 22008KT 8000 +SHRA OVC011 09/09 Q1004
                        R88/29//95 NOSIG=
201905070230 METAR LROP 070230Z 24007KT 9999 -SHRA BKN011 OVC028 09/09
                        Q1004 R88/29//95 NOSIG=
201905070300 METAR LROP 070300Z 22004KT 9999 -DZ BKN012 OVC028 09/09 Q1004
                        R88/29//95 NOSIG=
201905070330 METAR LROP 070330Z 19004KT 3000 -RADZ BR FEW003 BKN006 OVC023
                        09/09 Q1004 R88/29//95 NOSIG=
201905070400 METAR LROP 070400Z 22004KT 3000 -RADZ BR FEW007 BKN010 OVC025
                        09/09 Q1004 R88/29//95 NOSIG=
201905070430 METAR LROP 070430Z 24003KT 3500 -RA BR FEW006 BKN009 OVC039
                        10/10 Q1005 R88/29//95 NOSIG=
201905070500 METAR LROP 070500Z VRB02KT 8000 -RA BKN005 BKN015 OVC040
                        10/10 Q1005 R88/29//95 NOSIG=
201905070530 METAR LROP 070530Z 04003KT 360V080 9999 -RA BKN006 10/10
                        Q1005 R88/29//95 NOSIG=
201905070600 METAR LROP 070600Z 07004KT 9999 -RA BKN007 11/10 Q1005 R88/29//95
                        NOSIG=
201905070630 METAR LROP 070630Z 09004KT 9999 -RA BKN007 BKN034 11/10 Q1006
                        R88/29//95 NOSIG=
201905070700 METAR LROP 070700Z 11004KT 9999 -RA SCT010 OVC015 11/10 Q1006
                        R88/29//95 NOSIG=
201905070730 METAR LROP 070730Z 13004KT 9999 BKN010 OVC046 11/10 Q1006
                        R88/29//95 NOSIG=
201905070800 METAR LROP 070800Z 12004KT 100V160 9999 BKN010 OVC025 12/10
                        Q1006 R88/29//95 NOSIG=
201905070830 METAR COR LROP 070830Z 13005KT 7000 -DZ BKN010 OVC020 12/11
                        Q1007 R88/29//95 NOSIG=
201905070900 METAR LROP 070900Z 16003KT 130V200 3000 RADZ BR SCT007 BKN014
                        OVC022 11/10 Q1007 R88/29//95 NOSIG=
201905070930 METAR LROP 070930Z VRB02KT 3000 RADZ BR SCT004 BKN015 OVC025
                        11/10 Q1007 R88/29//95=
201905071000 METAR LROP 071000Z VRB01KT 3000 RADZ BR SCT004 BKN010 OVC019
                        11/10 Q1007 R88/29//95 NOSIG=
201905071030 METAR LROP 071030Z VRB01KT 2500 RADZ BR BKN005 OVC010 11/10
                        Q1007 R88/29//95 NOSIG=
201905071100 METAR LROP 071100Z 32006KT 270V010 4000 RADZ BR BKN005 OVC012
                        12/11 Q1007 R88/29//95 NOSIG=
201905071130 METAR COR LROP 071130Z 36003KT 310V040 5000 RADZ BR BKN008
                        OVC010 11/10 Q1007 R88/29//95 NOSIG=
201905071200 METAR LROP 071200Z 28008KT 9999 -RA FEW005 BKN010 OVC018
                        12/11 Q1008 R88/29//95 NOSIG=
201905071230 METAR LROP 071230Z 01013KT 9999 -RA BKN007 OVC020 10/09 Q1008
                        R88/29//95 NOSIG=
201905071300 METAR LROP 071300Z 02007KT 9999 -RA FEW010 OVC023 10/08 Q1008
                        R88/29//95 NOSIG=
201905071330 METAR LROP 071330Z 01005KT 9999 -RA SCT030 OVC045 10/09 Q1009
                        R88/29//95 NOSIG=
201905071400 METAR LROP 071400Z 03006KT 9999 -RA FEW010 SCT015 OVC033
                        10/09 Q1009 R88/29//95 NOSIG=
201905071430 METAR LROP 071430Z 01009KT 9999 -RA SCT013 BKN028 OVC043
                        10/08 Q1009 R88/29//95 NOSIG=
201905071500 METAR LROP 071500Z 02007KT 9999 -RA SCT029 10/08 Q1009 R88/29//95
                        NOSIG=
201905071530 METAR LROP 071530Z 03007KT 9999 -RA NSC 10/08 Q1010 R88/29//95
                        NOSIG=
201905071600 METAR LROP 071600Z 02004KT 9999 -RA OVC030 09/08 Q1010 R88/29//95
                        NOSIG=
201905071630 METAR COR LROP 071630Z 04004KT 9999 -RA BKN036 OVC049 09/08
                        Q1010 R88/29//95 NOSIG=
201905071700 METAR LROP 071700Z VRB02KT 9999 -RA BKN036 OVC042 09/08 Q1011
                        R88/29//95 NOSIG=
201905071730 METAR LROP 071730Z VRB02KT 9999 -RA OVC047 09/09 Q1011 R88/29//95
                        NOSIG=
201905071800 METAR LROP 071800Z 24001KT 9999 -RA BKN044 09/09 Q1012 R88/29//95
                        NOSIG=
201905071830 METAR LROP 071830Z 20002KT 9999 -DZ SCT020 BKN041 09/09 Q1012
                        R88/29//95 NOSIG=
201905071900 METAR LROP 071900Z 16002KT 9999 FEW045 09/09 Q1012 R88/29//95
                        NOSIG=
201905071930 METAR LROP 071930Z 16003KT CAVOK 09/09 Q1012 R88/29//95 NOSIG=
201905072000 METAR LROP 072000Z 18003KT CAVOK 09/09 Q1013 R88/29//95 NOSIG=
201905072030 METAR LROP 072030Z 17003KT CAVOK 09/08 Q1013 R88/29//95 NOSIG=
201905072100 METAR LROP 072100Z 20003KT CAVOK 09/08 Q1013 R88/29//95 NOSIG=
201905072130 METAR LROP 072130Z 21004KT CAVOK 09/09 Q1013 R88/29//95 NOSIG=
201905072200 METAR LROP 072200Z 20004KT CAVOK 09/09 Q1013 R88/29//95 NOSIG=
201905072230 METAR LROP 072230Z 19005KT CAVOK 08/08 Q1013 R88/29//95 NOSIG=
201905072300 METAR LROP 072300Z VRB02KT CAVOK 08/07 Q1013 R88/29//95 NOSIG=
201905072330 METAR LROP 072330Z 23002KT CAVOK 07/07 Q1013 R88/29//95 NOSIG=
201905080000 METAR LROP 080000Z 27003KT 240V300 CAVOK 07/07 Q1014 R88/29//95
                        NOSIG=
201905080030 METAR LROP 080030Z VRB02KT CAVOK 06/06 Q1014 R88/29//95 NOSIG=
201905080100 METAR LROP 080100Z 00000KT CAVOK 07/07 Q1014 R88/29//95 NOSIG=
201905080130 METAR LROP 080130Z VRB02KT CAVOK 07/07 Q1014 R88/29//95 NOSIG=
201905080200 METAR LROP 080200Z VRB02KT CAVOK 07/07 Q1014 R88/29//95 NOSIG=
201905080230 METAR LROP 080230Z 26001KT CAVOK 07/07 Q1014 R88/29//95 NOSIG=
201905080300 METAR LROP 080300Z 00000KT CAVOK 07/07 Q1014 R88/29//95 NOSIG=
201905080330 METAR LROP 080330Z VRB01KT CAVOK 08/08 Q1014 R88/29//95 NOSIG=
201905080400 METAR LROP 080400Z 34003KT 300V030 CAVOK 08/08 Q1014 R88/29//95
                        NOSIG=
201905080430 METAR LROP 080430Z 32004KT 290V010 CAVOK 08/08 Q1015 R88/29//95
                        NOSIG=
201905080500 METAR LROP 080500Z 01003KT 340V040 CAVOK 09/08 Q1015 R88/29//95
                        NOSIG=
201905080530 METAR LROP 080530Z VRB02KT CAVOK 11/09 Q1015 R88/29//95 NOSIG=
201905080600 METAR LROP 080600Z VRB02KT CAVOK 11/08 Q1015 R88/19//95 NOSIG=
201905080630 METAR LROP 080630Z 27004KT 230V320 CAVOK 12/09 Q1015 R88/19//95
                        NOSIG=
201905080700 METAR LROP 080700Z 30004KT 250V330 CAVOK 13/07 Q1015 R88/CLRD//
                        NOSIG=
201905080730 METAR LROP 080730Z 32003KT 270V010 CAVOK 13/07 Q1015 R88/CLRD//
                        NOSIG=
201905080800 METAR LROP 080800Z 32004KT 260V010 CAVOK 14/06 Q1015 NOSIG=
201905080830 METAR LROP 080830Z 28005KT 240V010 CAVOK 14/07 Q1015 NOSIG=
201905080900 METAR LROP 080900Z 33004KT 280V060 9999 FEW042 14/05 Q1015
                        NOSIG=
201905080930 METAR LROP 080930Z 30008KT 9999 FEW042 14/06 Q1016 NOSIG=
201905081000 METAR LROP 081000Z 33004KT 290V030 CAVOK 14/05 Q1015 NOSIG=
201905081030 METAR LROP 081030Z VRB04KT CAVOK 15/05 Q1015 NOSIG=
201905081100 METAR LROP 081100Z 36008KT 330V030 CAVOK 14/05 Q1015 NOSIG=
201905081130 METAR LROP 081130Z 33006KT 280V020 9999 FEW049 14/04 Q1015
                        NOSIG=
201905081200 METAR LROP 081200Z 31005KT 250V350 CAVOK 15/05 Q1015 NOSIG=
201905081230 METAR LROP 081230Z 29006KT 260V340 9999 FEW046 14/06 Q1015
                        NOSIG=
201905081300 METAR LROP 081300Z 30004KT 9999 FEW045 14/05 Q1015 NOSIG=
201905081330 METAR LROP 081330Z 10006KT CAVOK 15/06 Q1015 NOSIG=
201905081400 METAR LROP 081400Z 08003KT 060V120 CAVOK 15/06 Q1015 NOSIG=
201905081430 METAR LROP 081430Z 09004KT CAVOK 14/04 Q1015 NOSIG=
201905081500 METAR LROP 081500Z 10005KT CAVOK 14/06 Q1015 NOSIG=
201905081530 METAR LROP 081530Z 10005KT CAVOK 14/06 Q1015 NOSIG=
201905081600 METAR LROP 081600Z 09005KT CAVOK 14/07 Q1015 NOSIG=
201905081630 METAR COR LROP 081630Z 11004KT CAVOK 13/10 Q1015 NOSIG=
201905081700 METAR LROP 081700Z 14005KT CAVOK 12/07 Q1015 NOSIG=
201905081730 METAR LROP 081730Z 11004KT CAVOK 12/07 Q1015 NOSIG=
201905081800 METAR LROP 081800Z 12004KT CAVOK 12/08 Q1015 NOSIG=
201905081830 METAR LROP 081830Z 12004KT CAVOK 11/08 Q1015 NOSIG=
201905081900 METAR LROP 081900Z 14004KT CAVOK 11/07 Q1016 NOSIG=
201905081930 METAR LROP 081930Z 15004KT CAVOK 11/08 Q1015 NOSIG=
201905082000 METAR LROP 082000Z 13004KT CAVOK 11/08 Q1015 NOSIG=
201905082030 METAR LROP 082030Z 16004KT CAVOK 10/08 Q1015 NOSIG=
201905082100 METAR LROP 082100Z 16005KT CAVOK 10/07 Q1015 NOSIG=
201905082130 METAR LROP 082130Z 17004KT CAVOK 11/06 Q1015 NOSIG=
201905082200 METAR LROP 082200Z 09004KT 070V140 9999 SCT047 11/08 Q1015
                        NOSIG=
201905082230 METAR LROP 082230Z 12003KT 9999 SCT049 10/09 Q1015 NOSIG=
201905082300 METAR LROP 082300Z 14003KT 9999 BKN049 10/08 Q1015 NOSIG=
201905082330 METAR LROP 082330Z 13002KT 9999 BKN049 10/08 Q1014 NOSIG=
201905090000 METAR LROP 090000Z 13004KT 9999 BKN049 09/08 Q1014 NOSIG=
201905090030 METAR LROP 090030Z 14002KT CAVOK 08/07 Q1014 NOSIG=
201905090100 METAR LROP 090100Z 14003KT CAVOK 08/07 Q1014 NOSIG=
201905090130 METAR LROP 090130Z 36003KT CAVOK 07/07 Q1014 NOSIG=
201905090200 METAR LROP 090200Z 36004KT 9999 SCT046 08/07 Q1014 NOSIG=
201905090230 METAR LROP 090230Z 03003KT 9999 SCT047 08/07 Q1014 NOSIG=
201905090300 METAR LROP 090300Z 10004KT 7000 SCT048 08/08 Q1014 NOSIG=
201905090330 METAR COR LROP 090330Z 06003KT 9999 FEW049 08/07 Q1013 NOSIG=
201905090400 METAR LROP 090400Z 06003KT 020V090 CAVOK 09/08 Q1014 NOSIG=
201905090430 METAR LROP 090430Z VRB02KT CAVOK 10/08 Q1014 NOSIG=
201905090500 METAR LROP 090500Z 10004KT CAVOK 10/08 Q1013 NOSIG=
201905090530 METAR LROP 090530Z 13004KT 100V160 CAVOK 11/08 Q1013 NOSIG=
201905090600 METAR LROP 090600Z 14005KT 110V170 CAVOK 13/07 Q1013 NOSIG=
201905090630 METAR LROP 090630Z 14007KT 110V170 CAVOK 14/06 Q1013 NOSIG=
201905090700 METAR LROP 090700Z 16008KT CAVOK 15/05 Q1013 NOSIG=
201905090730 METAR LROP 090730Z 13007KT 9999 FEW040 16/06 Q1013 NOSIG=
201905090800 METAR LROP 090800Z 18007KT 130V230 9999 FEW043 16/05 Q1012
                        NOSIG=
201905090830 METAR LROP 090830Z 18004KT 130V250 9999 SCT043 17/06 Q1012
                        NOSIG=
201905090900 METAR LROP 090900Z VRB03KT 9999 BKN045 17/05 Q1012 NOSIG=
201905090930 METAR LROP 090930Z 16004KT 120V210 9999 BKN047 16/04 Q1011
                        NOSIG=
201905091000 METAR LROP 091000Z 12005KT 080V180 9999 FEW048 17/06 Q1011
                        NOSIG=
201905091030 METAR LROP 091030Z 19004KT 140V240 9999 FEW048 17/06 Q1011
                        NOSIG=
201905091100 METAR LROP 091100Z 17005KT 140V210 CAVOK 17/06 Q1011 NOSIG=
201905091130 METAR LROP 091130Z 12005KT 090V150 CAVOK 17/05 Q1010 NOSIG=
201905091200 METAR LROP 091200Z 09004KT 040V120 CAVOK 18/06 Q1010 NOSIG=
201905091230 METAR LROP 091230Z 16004KT 110V200 CAVOK 18/04 Q1010 NOSIG=
201905091300 METAR LROP 091300Z 15005KT 090V220 CAVOK 18/04 Q1009 NOSIG=
201905091330 METAR LROP 091330Z 16005KT 080V200 CAVOK 19/05 Q1009 NOSIG=
201905091400 METAR LROP 091400Z VRB05KT CAVOK 19/05 Q1009 NOSIG=
201905091430 METAR LROP 091430Z 17004KT 110V220 CAVOK 18/04 Q1008 NOSIG=
201905091500 METAR LROP 091500Z 11004KT 080V170 CAVOK 18/05 Q1008 NOSIG=
201905091530 METAR LROP 091530Z 11004KT 090V150 CAVOK 18/05 Q1008 NOSIG=
201905091600 METAR LROP 091600Z 12003KT 090V150 CAVOK 17/05 Q1008 NOSIG=
201905091630 METAR LROP 091630Z 11004KT CAVOK 16/06 Q1007 NOSIG=
201905091700 METAR LROP 091700Z 14002KT CAVOK 15/06 Q1007 NOSIG=
201905091730 METAR LROP 091730Z 00000KT CAVOK 15/07 Q1007 TEMPO 5000 -SHRA
                        SCT030CB=
201905091800 METAR LROP 091800Z 28003KT 260V330 CAVOK 15/07 Q1007 TEMPO
                        5000 -SHRA SCT030CB=
201905091830 METAR LROP 091830Z 29003KT CAVOK 14/07 Q1007 TEMPO 5000 -SHRA
                        SCT030CB=
201905091900 METAR LROP 091900Z VRB02KT 9999 -RA FEW047 14/09 Q1007 TEMPO
                        5000 -SHRA SCT030CB=
201905091930 METAR LROP 091930Z 00000KT 9999 -RA NSC 14/09 Q1007 NOSIG=
201905092000 METAR LROP 092000Z 26005KT 9999 -RA NSC 14/09 Q1007 R88/19//95
                        NOSIG=
201905092030 METAR LROP 092030Z 26012KT 9999 -RA NSC 12/10 Q1007 R88/19//95
                        NOSIG=
201905092100 METAR LROP 092100Z 27008KT 9999 -RA NSC 12/11 Q1007 R88/29//95
                        NOSIG=
201905092130 METAR LROP 092130Z 32003KT 9999 -RA NSC 11/11 Q1007 R88/29//95
                        NOSIG=
201905092200 METAR LROP 092200Z 31004KT 9000 -RA NSC 11/11 Q1007 R88/29//95
                        NOSIG=
201905092230 METAR LROP 092230Z 29003KT 7000 -RA NSC 11/11 Q1007 R88/29//95
                        NOSIG=
201905092300 METAR LROP 092300Z 31003KT 8000 -RA NSC 11/11 Q1007 R88/29//95
                        NOSIG=
201905092330 METAR LROP 092330Z 00000KT 7000 -RA SCT033 11/11 Q1007 R88/29//95
                        NOSIG=
201905100000 METAR LROP 100000Z 29001KT 7000 -RA SCT031 11/11 Q1007 R88/29//95
                        NOSIG=
201905100030 METAR LROP 100030Z 00000KT 7000 -RA FEW003 BKN028 11/11 Q1006
                        R88/29//95 NOSIG=
201905100100 METAR LROP 100100Z 25002KT 7000 -RA FEW005 OVC023 11/11 Q1006
                        R88/29//95 NOSIG=
201905100130 METAR LROP 100130Z 00000KT 7000 -RA FEW003 SCT008 OVC020
                        11/11 Q1006 R88/29//95 NOSIG=
201905100200 METAR LROP 100200Z 00000KT 6000 -RA FEW003 SCT007 OVC021
                        11/11 Q1006 R88/29//95 NOSIG=
201905100230 METAR LROP 100230Z 08002KT 6000 -RA SCT004 OVC020 11/11 Q1006
                        R88/29//95 NOSIG=
201905100300 METAR COR LROP 100300Z 00000KT 5000 -DZ BR SCT005 OVC020
                        11/11 Q1006 R88/29//95 NOSIG=
201905100330 METAR LROP 100330Z VRB02KT 7000 BKN009 OVC018 11/11 Q1006
                        R88/29//95 NOSIG=
201905100400 METAR LROP 100400Z VRB02KT 7000 -RA BKN012 OVC015 11/11 Q1006
                        R88/29//95 NOSIG=
201905100430 METAR LROP 100430Z VRB02KT 8000 -RA BKN010 BKN019 11/11 Q1007
                        R88/29//95 NOSIG=
201905100500 METAR LROP 100500Z 25002KT 7000 -RA SCT004 BKN010 OVC018
                        11/11 Q1007 R88/29//95 NOSIG=
201905100530 METAR LROP 100530Z VRB01KT 7000 OVC005 12/11 Q1007 R88/29//95
                        NOSIG=
201905100600 METAR LROP 100600Z 25002KT 7000 -RA OVC005 12/11 Q1007 R88/29//95
                        NOSIG=
201905100630 METAR LROP 100630Z 25003KT 7000 -RA BKN005 OVC007 12/11 Q1007
                        R88/29//95 NOSIG=
201905100700 METAR LROP 100700Z 28002KT 5000 -RA BR OVC006 12/11 Q1007
                        R88/29//95 NOSIG=
201905100730 METAR LROP 100730Z VRB02KT 8000 -RA BR BKN006 OVC012 13/12
                        Q1007 R88/29//95 NOSIG=
201905100800 METAR LROP 100800Z 23004KT 200V260 9000 BKN008 OVC017 14/12
                        Q1007 R88/29//95 NOSIG=
201905100830 METAR LROP 100830Z 25005KT 9999 BKN009 OVC027 13/12 Q1007
                        R88/29//95 NOSIG=
201905100900 METAR LROP 100900Z 26004KT 230V290 9999 SCT016 BKN022 OVC038
                        14/12 Q1007 R88/29//95 NOSIG=
201905100930 METAR LROP 100930Z 29005KT 220V330 9999 -RA BKN018 BKN029
                        14/12 Q1007 R88/29//95 NOSIG=
201905101000 METAR LROP 101000Z 27004KT 9999 FEW014 BKN036 BKN045 15/12
                        Q1007 R08R/29//95 R08L/19//95 NOSIG=
201905101030 METAR LROP 101030Z 27003KT 220V330 9999 FEW015 BKN032 17/13
                        Q1007 R08R/29//95 R08L/19//95 NOSIG=
201905101100 METAR LROP 101100Z 28007KT 250V310 9999 SCT021 16/11 Q1007
                        R08R/29//95 R08L/19//95 NOSIG=
201905101130 METAR LROP 101130Z 31006KT 9999 FEW026 SCT047 17/11 Q1007
                        R08R/29//95 R08L/19//95 NOSIG=
201905101200 METAR LROP 101200Z 27009KT 240V300 9999 SCT029 BKN042 FEW045TCU
                        18/10 Q1007 R08R/29//95 R08L/19//95
                        NOSIG=
201905101230 METAR LROP 101230Z 29007KT 9999 SCT028 BKN039 FEW045TCU 16/11
                        Q1007 R08R/29//95 R08L/19//95 NOSIG=
201905101300 METAR COR LROP 101300Z 32009KT 9999 FEW028CB BKN047 15/11
                        Q1007 R08R/29//95 R08L/19//95 NOSIG=
201905101330 METAR LROP 101330Z 32004KT 290V350 9999 FEW028CB BKN040 16/12
                        Q1007 R88/09//95 TEMPO 5000 SHRA=
201905101400 METAR LROP 101400Z 33006KT 9000 -SHRA FEW028CB BKN042 14/12
                        Q1007 R88/29//95 TEMPO 5000 SHRA=
201905101430 METAR LROP 101430Z 32004KT 300V010 5000 SHRA FEW020 SCT028CB
                        OVC036 13/11 Q1008 R88/29//95 TEMPO
                        5000 SHRA=
201905101500 METAR LROP 101500Z 00000KT 9999 -SHRA FEW020 FEW035CB 15/12
                        Q1008 RESH R88/29//95 TEMPO 5000
                        SHRA=
201905101530 METAR LROP 101530Z 35003KT 300V060 9999 FEW025 FEW035CB 14/13
                        Q1008 RETS R88/29//95 TEMPO 5000
                        SHRA=
201905101600 METAR LROP 101600Z 04007KT 9999 FEW050CB 14/11 Q1008 R88/29//95
                        NOSIG=
201905101630 METAR LROP 101630Z 07005KT 040V110 9999 FEW050CB 14/12 Q1008
                        R88/29//95 NOSIG=
201905101700 METAR LROP 101700Z 08003KT 040V140 CAVOK 13/12 Q1008 R88/29//95
                        NOSIG=
201905101730 METAR LROP 101730Z 00000KT CAVOK 13/12 Q1009 R88/29//95 NOSIG=
201905101800 METAR LROP 101800Z 00000KT CAVOK 12/12 Q1009 R88/29//95 NOSIG=
201905101830 METAR LROP 101830Z 00000KT CAVOK 12/12 Q1009 R88/29//95 NOSIG=
201905101900 METAR LROP 101900Z 00000KT CAVOK 12/12 Q1010 R88/29//95 BECMG
                        5000 BR=
201905101930 METAR LROP 101930Z 26005KT 7000 NSC 11/11 Q1010 R88/29//95
                        BECMG 5000 BR=
201905102000 METAR LROP 102000Z 27004KT 250V340 6000 FEW007 11/11 Q1010
                        R88/29//95 BECMG 5000 BR=
201905102030 METAR LROP 102030Z 26004KT 5000 BR NSC 12/12 Q1010 R88/29//95
                        BECMG 3000 BR=
201905102100 METAR LROP 102100Z 26004KT 5000 BR NSC 12/12 Q1010 R88/29//95
                        BECMG 3000 BR=
201905102130 METAR LROP 102130Z VRB02KT 5000 BR NSC 11/11 Q1010 R88/29//95
                        BECMG 3000 BR=
201905102200 METAR LROP 102200Z 01004KT 4000 BR NSC 11/11 Q1010 R88/29//95
                        TEMPO 1500 BR=
201905102230 METAR LROP 102230Z 00000KT 2500 PRFG NSC 10/10 Q1010 R88/29//95
                        TEMPO 1500 BR=
201905102300 METAR LROP 102300Z VRB02KT 1500 MIFG BR NSC 10/10 Q1010 R88/29//95
                        TEMPO 0600 FG=
201905102330 METAR LROP 102330Z VRB01KT 1500 MIFG BR FEW003 10/10 Q1011
                        R88/29//95 TEMPO 0800 FG=
201905110000 METAR LROP 110000Z 28003KT 0800 R08R/1000N R26L/0800D R08L/P2000
                        R26R/0900 BCFG SCT003 09/09 Q1011
                        R88/29//95 TEMPO 0600 FG=
201905110030 METAR LROP 110030Z 24001KT 3000 MIFG BR NSC 09/09 Q1011 R88/29//95
                        TEMPO 0800 FG=
201905110100 METAR LROP 110100Z NIL=
201905110130 METAR LROP 110130Z VRB02KT 3000 R08R/P2000 R26L/0900 R08L/P2000
                        R26R/P2000 PRFG NSC 10/10 Q1011 R88/29//95
                        NOSIG=
201905110200 METAR LROP 110200Z 00000KT 4000 BR NSC 10/10 Q1011 R88/29//95
                        NOSIG=
201905110230 METAR LROP 110230Z 00000KT 5000 BR NSC 10/10 Q1011 R88/29//95
                        NOSIG=
201905110300 METAR COR LROP 110300Z 00000KT 5000 BR NSC 10/10 Q1011 R88/19//95
                        NOSIG=
201905110330 METAR LROP 110330Z 26001KT 6000 NSC 10/10 Q1012 R88/19//95
                        NOSIG=
201905110400 METAR LROP 110400Z 27003KT 5000 -RA BR NSC 10/10 Q1012 R88/19//95
                        NOSIG=
201905110430 METAR LROP 110430Z 07001KT 6000 -RA NSC 11/11 Q1012 R88/19//95
                        NOSIG=
201905110500 METAR LROP 110500Z VRB01KT 7000 -RA NSC 12/12 Q1013 R88/19//95
                        NOSIG=
201905110530 METAR LROP 110530Z 12002KT 8000 -RA NSC 12/12 Q1013 R88/29//95
                        NOSIG=
201905110600 METAR LROP 110600Z 12003KT 090V150 8000 -RA NSC 13/12 Q1013
                        R88/29//95 NOSIG=
201905110630 METAR LROP 110630Z 14003KT 100V170 8000 -RA NSC 13/12 Q1013
                        R88/29//95 NOSIG=
201905110700 METAR LROP 110700Z 13003KT 090V160 8000 SCT007 14/12 Q1014
                        R08L/29//95 NOSIG=
201905110730 METAR LROP 110730Z 10003KT 9999 SCT008 15/12 Q1014 R08L/29//95
                        NOSIG=
201905110800 METAR LROP 110800Z VRB01KT 9999 SCT012 15/12 Q1014 R08L/29//95
                        NOSIG=
201905110830 METAR LROP 110830Z VRB02KT 9999 SCT013 16/12 Q1014 R08L/19//95
                        NOSIG=
201905110900 METAR LROP 110900Z 10003KT 010V150 9999 SCT015 SCT018 17/12
                        Q1014 R88/19//95 NOSIG=
201905110930 METAR LROP 110930Z 23003KT 180V270 9999 SCT020 17/12 Q1014
                        R88/19//95 NOSIG=
201905111000 METAR LROP 111000Z 30003KT 250V340 9999 SCT020 17/11 Q1014
                        R88/19//95 NOSIG=
201905111030 METAR LROP 111030Z VRB03KT 9999 SCT008 19/13 Q1014 R88/19//95
                        NOSIG=
201905111100 METAR LROP 111100Z VRB03KT 9999 FEW030TCU SCT035 19/09 Q1014
                        R88/19//95 NOSIG=
201905111130 METAR LROP 111130Z 31003KT 280V360 9999 SCT030CB SCT035 19/08
                        Q1014 R88/19//95 NOSIG=
201905111200 METAR COR LROP 111200Z VRB04KT 9999 SCT030CB SCT040 19/11
                        Q1014 R88/CLRD// NOSIG=
201905111230 METAR LROP 111230Z VRB02KT 9999 SCT040CB SCT045 20/10 Q1014
                        R88/CLRD// NOSIG=
201905111300 METAR LROP 111300Z 12003KT 9999 SCT040CB 20/09 Q1014 NOSIG=
201905111330 METAR LROP 111330Z VRB03KT 9999 SCT050CB 20/08 Q1014 NOSIG=
201905111400 METAR LROP 111400Z 22004KT 150V260 9999 FEW050CB 21/10 Q1014
                        NOSIG=
201905111430 METAR COR LROP 111430Z VRB03KT 9999 FEW050CB 21/11 Q1014
                        NOSIG=
201905111500 METAR LROP 111500Z 11006KT 9999 FEW050CB 20/11 Q1014 NOSIG=
201905111530 METAR LROP 111530Z 10007KT 9999 FEW050CB 19/10 Q1014 NOSIG=
201905111600 METAR LROP 111600Z 09005KT 9999 FEW050CB 19/11 Q1014 NOSIG=
201905111630 METAR LROP 111630Z 11005KT 9999 VCSH FEW048CB 18/13 Q1014
                        TEMPO VRB15 5000 TSRA=
201905111700 METAR COR LROP 111700Z 12004KT 9999 -SHRA FEW046CB 16/13
                        Q1015 TEMPO VRB15 5000 TSRA=
201905111730 METAR LROP 111730Z 07005KT 9999 -SHRA FEW018 SCT038CB 16/14
                        Q1015 NOSIG=
201905111800 METAR LROP 111800Z 13003KT 9999 -SHRA FEW020 SCT038CB 15/14
                        Q1015 R88/29//95 NOSIG=
201905111830 METAR COR LROP 111830Z 13003KT 040V150 9999 FEW050CB 15/14
                        Q1016 R88/29//95 BECMG NSC=
201905111900 METAR LROP 111900Z 02006KT CAVOK 15/13 Q1016 R88/CLRD// NOSIG=
201905111930 METAR LROP 111930Z 36005KT CAVOK 15/13 Q1016 R88/CLRD// NOSIG=
201905112000 METAR LROP 112000Z 14002KT CAVOK 14/13 Q1016 NOSIG=
201905112030 METAR LROP 112030Z 09006KT CAVOK 14/13 Q1016 NOSIG=
201905112100 METAR LROP 112100Z 08003KT CAVOK 13/12 Q1016 NOSIG=
201905112130 METAR LROP 112130Z 10004KT CAVOK 13/12 Q1016 NOSIG=
201905112200 METAR LROP 112200Z VRB02KT CAVOK 13/12 Q1017 NOSIG=
201905112230 METAR LROP 112230Z 36003KT CAVOK 13/12 Q1017 NOSIG=
201905112300 METAR LROP 112300Z 36005KT CAVOK 13/12 Q1017 NOSIG=
201905112330 METAR LROP 112330Z 06004KT CAVOK 13/12 Q1016 NOSIG=
201905120000 METAR LROP 120000Z 04002KT CAVOK 12/11 Q1017 NOSIG=
201905120030 METAR LROP 120030Z 02004KT 350V050 CAVOK 12/11 Q1017 NOSIG=
201905120100 METAR LROP 120100Z 03004KT 8000 NSC 12/11 Q1017 TEMPO 5000
                        BR=
201905120130 METAR LROP 120130Z 05005KT 9000 NSC 12/11 Q1017 TEMPO 5000
                        BR=
201905120200 METAR LROP 120200Z 03004KT CAVOK 12/11 Q1017 NOSIG=
201905120230 METAR LROP 120230Z 02004KT CAVOK 11/11 Q1017 NOSIG=
201905120300 METAR LROP 120300Z 04005KT CAVOK 11/11 Q1017 NOSIG=
201905120330 METAR LROP 120330Z 05005KT CAVOK 11/10 Q1017 NOSIG=
201905120400 METAR LROP 120400Z 05007KT CAVOK 12/11 Q1018 NOSIG=
201905120430 METAR LROP 120430Z 06006KT CAVOK 13/11 Q1018 NOSIG=
201905120500 METAR LROP 120500Z 07007KT CAVOK 13/12 Q1018 NOSIG=
201905120530 METAR LROP 120530Z 06007KT CAVOK 15/12 Q1018 NOSIG=
201905120600 METAR LROP 120600Z 06008KT CAVOK 16/13 Q1018 NOSIG=
201905120630 METAR LROP 120630Z 07009KT CAVOK 17/12 Q1018 NOSIG=
201905120700 METAR LROP 120700Z 07009KT CAVOK 18/12 Q1018 NOSIG=
201905120730 METAR LROP 120730Z 08009KT CAVOK 19/13 Q1018 NOSIG=
201905120800 METAR LROP 120800Z 09010KT CAVOK 19/13 Q1018 NOSIG=
201905120830 METAR LROP 120830Z 08011KT CAVOK 20/13 Q1018 NOSIG=
201905120900 METAR LROP 120900Z 10010KT 040V120 9999 FEW027 20/12 Q1019
                        NOSIG=
201905120930 METAR LROP 120930Z 10010KT 9999 FEW027 21/12 Q1018 NOSIG=
201905121000 METAR LROP 121000Z 11011KT 9999 FEW027 22/12 Q1019 NOSIG=
201905121030 METAR LROP 121030Z 09010KT 9999 SCT040 22/10 Q1019 NOSIG=
201905121100 METAR LROP 121100Z 08010KT 9999 SCT040 22/11 Q1019 NOSIG=
201905121130 METAR LROP 121130Z 08010KT 040V100 9999 SCT040 22/11 Q1019
                        NOSIG=
201905121200 METAR LROP 121200Z 09010KT 9999 SCT040 23/10 Q1018 NOSIG=
201905121230 METAR LROP 121230Z 08011KT 9999 SCT048 23/12 Q1018 NOSIG=
201905121300 METAR LROP 121300Z 09011KT 9999 SCT049 23/10 Q1018 NOSIG=
201905121330 METAR LROP 121330Z 09010KT 9999 FEW049 23/11 Q1018 NOSIG=
201905121400 METAR LROP 121400Z 09012KT CAVOK 23/10 Q1018 NOSIG=
201905121430 METAR LROP 121430Z 09011KT CAVOK 23/11 Q1018 NOSIG=
201905121500 METAR LROP 121500Z 09010KT CAVOK 23/09 Q1018 NOSIG=
201905121530 METAR LROP 121530Z 09011KT CAVOK 22/10 Q1018 NOSIG=
201905121600 METAR LROP 121600Z 09010KT CAVOK 22/10 Q1018 NOSIG=
201905121630 METAR LROP 121630Z 09009KT CAVOK 21/11 Q1018 NOSIG=
201905121700 METAR LROP 121700Z 09007KT CAVOK 19/11 Q1018 NOSIG=
201905121730 METAR LROP 121730Z 09007KT CAVOK 18/12 Q1018 NOSIG=
201905121800 METAR LROP 121800Z 09005KT CAVOK 17/12 Q1018 NOSIG=
201905121830 METAR LROP 121830Z 09007KT CAVOK 16/12 Q1019 NOSIG=
201905121900 METAR LROP 121900Z 08008KT CAVOK 16/12 Q1019 NOSIG=
201905121930 METAR LROP 121930Z 10007KT CAVOK 15/12 Q1019 NOSIG=
201905122000 METAR LROP 122000Z 09006KT CAVOK 15/12 Q1019 NOSIG=
201905122030 METAR LROP 122030Z 10005KT CAVOK 15/12 Q1020 NOSIG=
201905122100 METAR LROP 122100Z 09006KT CAVOK 13/11 Q1020 NOSIG=
201905122130 METAR LROP 122130Z 09005KT CAVOK 12/11 Q1019 NOSIG=
201905122200 METAR LROP 122200Z 08006KT CAVOK 12/11 Q1019 NOSIG=
201905122230 METAR LROP 122230Z 07005KT CAVOK 11/10 Q1020 NOSIG=
201905122300 METAR LROP 122300Z 04005KT CAVOK 12/10 Q1019 NOSIG=
201905122330 METAR LROP 122330Z 04008KT CAVOK 12/10 Q1019 NOSIG=
201905130000 METAR LROP 130000Z 03008KT CAVOK 12/11 Q1019 NOSIG=
201905130030 METAR LROP 130030Z 04008KT CAVOK 11/11 Q1019 NOSIG=
201905130100 METAR LROP 130100Z 05007KT CAVOK 11/10 Q1019 NOSIG=
201905130130 METAR LROP 130130Z 06006KT CAVOK 11/10 Q1019 NOSIG=
201905130200 METAR LROP 130200Z 09004KT CAVOK 10/10 Q1019 TEMPO 5000 BR=
201905130230 METAR LROP 130230Z 08004KT 6000 NSC 10/10 Q1019 TEMPO 5000
                        BR=
201905130300 METAR LROP 130300Z 07005KT 4000 BR NSC 10/10 Q1019 TEMPO
                        3000 BR=
201905130330 METAR LROP 130330Z 09005KT 3500 BR NSC 11/10 Q1020 TEMPO
                        3000 BR=
201905130400 METAR LROP 130400Z 08007KT 3000 BR NSC 12/11 Q1020 TEMPO
                        1500 BR BKN005=
201905130430 METAR LROP 130430Z 09009KT 2000 BR FEW002 BKN004 11/11 Q1020
                        TEMPO 1500 BR BKN002=
201905130500 METAR LROP 130500Z 08010KT 3000 BR OVC003 12/12 Q1021 TEMPO
                        BKN002=
201905130530 METAR LROP 130530Z 09010KT 3000 BR BKN002 12/12 Q1021 BECMG
                        5000 BKN005=
201905130600 METAR LROP 130600Z 09011KT 8000 FEW003 BKN006 14/12 Q1021
                        BECMG SCT010=
201905130630 METAR LROP 130630Z 08014KT 9999 BKN007 15/12 Q1021 BECMG
                        SCT010=
201905130700 METAR LROP 130700Z 08013KT 9999 BKN009 15/12 Q1021 BECMG
                        SCT010=
201905130730 METAR LROP 130730Z 08011KT 9999 BKN012 16/12 Q1021 BECMG
                        SCT015=
201905130800 METAR LROP 130800Z 07011KT 040V110 9999 BKN014 16/12 Q1021
                        BECMG SCT015=
201905130830 METAR LROP 130830Z 09013KT 9999 FEW017 SCT020 18/12 Q1021
                        NOSIG=
201905130900 METAR LROP 130900Z 10013KT 9999 SCT022 18/12 Q1021 NOSIG=
201905130930 METAR LROP 130930Z 10012KT 9999 SCT027 19/12 Q1021 NOSIG=
201905131000 METAR LROP 131000Z 11013KT 070V130 9999 SCT029 20/12 Q1021
                        NOSIG=
201905131030 METAR LROP 131030Z 09012KT 9999 SCT032 20/12 Q1021 NOSIG=
201905131100 METAR LROP 131100Z 09012KT 9999 SCT036 20/10 Q1021 NOSIG=
201905131130 METAR LROP 131130Z 09014KT 9999 SCT036 21/10 Q1020 NOSIG=
201905131200 METAR LROP 131200Z 10013KT 9999 FEW042 21/08 Q1020 NOSIG=
201905131230 METAR LROP 131230Z 09013KT 9999 FEW043 21/11 Q1020 NOSIG=
201905131300 METAR LROP 131300Z 10014KT 9999 FEW043 21/11 Q1020 NOSIG=
201905131330 METAR LROP 131330Z 10013KT 9999 FEW045 22/11 Q1019 NOSIG=
201905131400 METAR LROP 131400Z 11015KT CAVOK 22/10 Q1019 NOSIG=
201905131430 METAR LROP 131430Z 09012KT 9999 FEW047 21/10 Q1019 NOSIG=
201905131500 METAR LROP 131500Z 10008KT CAVOK 21/11 Q1019 NOSIG=
201905131530 METAR LROP 131530Z 11010KT CAVOK 21/11 Q1019 NOSIG=
201905131600 METAR LROP 131600Z 11010KT CAVOK 21/10 Q1019 NOSIG=
201905131630 METAR LROP 131630Z 10009KT CAVOK 20/10 Q1019 NOSIG=
201905131700 METAR LROP 131700Z 11007KT CAVOK 19/11 Q1019 NOSIG=
201905131730 METAR LROP 131730Z 12006KT CAVOK 19/11 Q1019 NOSIG=
201905131800 METAR LROP 131800Z 11006KT CAVOK 18/11 Q1019 NOSIG=
201905131830 METAR LROP 131830Z 11005KT CAVOK 18/11 Q1019 NOSIG=
201905131900 METAR LROP 131900Z 09005KT CAVOK 15/12 Q1019 NOSIG=
201905131930 METAR LROP 131930Z 10005KT CAVOK 15/12 Q1019 NOSIG=
201905132000 METAR LROP 132000Z 09005KT CAVOK 15/12 Q1019 NOSIG=
201905132030 METAR LROP 132030Z 08005KT CAVOK 14/12 Q1019 NOSIG=
201905132100 METAR LROP 132100Z 08005KT CAVOK 14/12 Q1019 NOSIG=
201905132130 METAR LROP 132130Z 07004KT CAVOK 14/12 Q1019 NOSIG=
201905132200 METAR LROP 132200Z 08005KT CAVOK 14/12 Q1019 NOSIG=
201905132230 METAR LROP 132230Z 09003KT 9999 -SHRA FEW050CB 14/13 Q1019
                        NOSIG=
201905132300 METAR LROP 132300Z 09006KT 9999 FEW050CB 14/12 Q1019 NOSIG=
201905132330 METAR LROP 132330Z 09006KT 9999 FEW050CB 14/12 Q1019 NOSIG=
201905140000 METAR LROP 140000Z 07006KT CAVOK 14/12 Q1018 NOSIG=
201905140030 METAR LROP 140030Z 07006KT CAVOK 13/12 Q1018 TEMPO 5000 -SHRA
                        SCT025CB=
201905140100 METAR LROP 140100Z 05009KT CAVOK 14/12 Q1017 TEMPO 5000 -SHRA
                        SCT025CB=
201905140130 METAR LROP 140130Z 06008KT CAVOK 14/12 Q1017 TEMPO 5000 -SHRA
                        SCT025CB=
201905140200 METAR LROP 140200Z 06006KT CAVOK 14/12 Q1017 TEMPO 5000 -SHRA
                        SCT025CB=
201905140230 METAR LROP 140230Z 05006KT 9999 -RA NSC 14/12 Q1017 TEMPO
                        5000 -SHRA SCT025CB=
201905140300 METAR LROP 140300Z 05009KT CAVOK 14/12 Q1017 NOSIG=
201905140330 METAR LROP 140330Z 06008KT CAVOK 14/12 Q1017 NOSIG=
201905140400 METAR LROP 140400Z 05008KT CAVOK 14/12 Q1017 NOSIG=
201905140430 METAR LROP 140430Z 06009KT CAVOK 14/12 Q1017 NOSIG=
201905140500 METAR LROP 140500Z 07008KT CAVOK 14/12 Q1017 NOSIG=
201905140530 METAR LROP 140530Z 07010KT CAVOK 14/13 Q1018 NOSIG=
201905140600 METAR LROP 140600Z 09008KT 8000 -RA NSC 14/12 Q1018 NOSIG=
201905140630 METAR LROP 140630Z 08010KT 9000 NSC 15/13 Q1018 NOSIG=
201905140700 METAR LROP 140700Z 09009KT 9000 FEW010 15/13 Q1018 NOSIG=
201905140730 METAR LROP 140730Z 08012KT 9000 -RA FEW012 BKN029 FEW040CB
                        16/14 Q1017 TEMPO 5000 -SHRA SCT040CB=
201905140800 METAR COR LROP 140800Z 07014KT 9000 BKN012 BKN029 FEW040CB
                        15/13 Q1017 TEMPO 5000 -SHRA=
201905140830 METAR COR LROP 140830Z 07012KT 8000 -SHRA BKN013 BKN029 FEW030CB
                        15/13 Q1018 RESH R88/29//95 TEMPO
                        5000 SHRA=
201905140900 METAR LROP 140900Z 07009KT 4700 -SHRA BKN014 BKN029 SCT030CB
                        14/14 Q1018 R88/29//95 TEMPO 3000
                        SHRA=
201905140930 METAR LROP 140930Z 08010KT 3500 SHRA SCT015 SCT040CB 14/14
                        Q1018 R88/29//95 NOSIG=
201905141000 METAR LROP 141000Z 08009KT 3000 SHRA BR BKN011 BKN050CB 14/14
                        Q1018 R88/29//95 NOSIG=
201905141030 METAR LROP 141030Z 08012KT 1500 -SHRA BR BKN004 BKN020CB
                        14/14 Q1017 RESH R88/29//95 BECMG
                        5000 -SHRA SCT010 SCT035CB=
201905141100 METAR COR LROP 141100Z 08009KT 3000 -RA BR FEW005 BKN020
                        SCT025CB 15/14 Q1018 R88/29//95 BECMG
                        5000 -SHRA FEW030CB=
201905141130 METAR LROP 141130Z 09010KT 3000 SHRA BR BKN006 SCT025CB 15/14
                        Q1018 R88/29//95 BECMG 5000 FEW030CB=
201905141200 METAR LROP 141200Z 10013KT 7000 SHRA BKN007 BKN020CB 14/12
                        Q1017 R88/29//95 BECMG 9999 NSW SCT010
                        SCT040CB=
201905141230 METAR COR LROP 141230Z 08010KT 9000 SHRA FEW007 BKN020CB
                        13/12 Q1016 R88/29//95 NOSIG=
201905141300 METAR LROP 141300Z 08010KT 5000 -RA BR FEW008 FEW020CB 14/14
                        Q1016 RESH R88/29//95 BECMG 9999
                        NSW=
201905141330 METAR LROP 141330Z 06013KT 4200 BR SCT005 15/14 Q1016 R88/29//95
                        BECMG 9999 NSW=
201905141400 METAR COR LROP 141400Z 07015KT 6000 FEW005 SCT010 16/15 Q1015
                        R88/29//95 NOSIG=
201905141430 METAR LROP 141430Z 07018KT 8000 FEW006 FEW012 16/15 Q1015
                        R88/29//95 NOSIG=
201905141500 METAR LROP 141500Z 07014KT 9000 FEW008 16/14 Q1015 R88/29//95
                        NOSIG=
201905141530 METAR COR LROP 141530Z 06014KT 9000 FEW008 16/14 Q1014 R88/19//95
                        NOSIG=
201905141600 METAR LROP 141600Z 06014KT 6000 -RA BKN009 16/15 Q1014 R88/19//95
                        NOSIG=
201905141630 METAR LROP 141630Z 06013KT 7000 BKN009 16/14 Q1014 R88/19//95
                        NOSIG=
201905141700 METAR LROP 141700Z 07014KT 7000 BKN010 15/14 Q1014 R88/19//95
                        NOSIG=
201905141730 METAR LROP 141730Z 06014KT 6000 BKN009 15/14 Q1014 R88/19//95
                        NOSIG=
201905141800 METAR LROP 141800Z 07014KT 6000 BKN008 15/14 Q1014 R88/19//95
                        NOSIG=
201905141830 METAR LROP 141830Z 05013KT 7000 BKN009 14/14 Q1013 R88/19//95
                        BECMG SCT020=
201905141900 METAR LROP 141900Z 06012KT 6000 BKN009 14/14 Q1014 R88/19//95
                        BECMG SCT020=
201905141930 METAR LROP 141930Z 06012KT 5000 BR SCT008 14/13 Q1013 R88/19//95
                        NOSIG=
201905142000 METAR LROP 142000Z 07011KT 4000 BR BKN007 14/14 Q1013 R88/19//95
                        NOSIG=
201905142030 METAR LROP 142030Z 07011KT 4000 BR BKN007 BKN019 14/14 Q1013
                        R88/19//95 NOSIG=
201905142100 METAR COR LROP 142100Z 07012KT 5000 -RA BR SCT007 OVC016
                        14/13 Q1013 R88/29//95 NOSIG=
201905142130 METAR LROP 142130Z 07012KT 5000 -RA BR SCT016 14/13 Q1013
                        R88/29//95 NOSIG=
201905142200 METAR LROP 142200Z 07011KT 5000 BR SCT018 14/13 Q1013 R88/29//95
                        NOSIG=
201905142230 METAR LROP 142230Z 07012KT 6000 FEW017 FEW050CB 14/13 Q1013
                        R88/29//95 NOSIG=
201905142300 METAR LROP 142300Z 07012KT 6000 -RA SCT014 FEW050CB 13/13
                        Q1012 R88/29//95 NOSIG=
201905142330 METAR LROP 142330Z 06012KT 6000 -SHRA BKN013 SCT050CB 13/13
                        Q1012 R88/29//95 NOSIG=
201905150000 METAR LROP 150000Z 06012KT 7000 SCT013 FEW050CB 13/13 Q1012
                        R88/29//95 NOSIG=
201905150030 METAR LROP 150030Z 06012KT 5000 BR FEW008 13/13 Q1012 R88/29//95
                        TEMPO 3000 BR BKN010=
201905150100 METAR LROP 150100Z 07011KT 5000 BR BKN007 13/13 Q1012 R88/29//95
                        NOSIG=
201905150130 METAR LROP 150130Z 07013KT 6000 BKN007 FEW050CB 13/13 Q1012
                        R88/29//95 NOSIG=
201905150200 METAR LROP 150200Z 07012KT 6000 BKN007 13/13 Q1011 R88/29//95
                        NOSIG=
201905150230 METAR LROP 150230Z 07011KT 5000 BR BKN007 13/13 Q1012 R88/29//95
                        NOSIG=
201905150300 METAR LROP 150300Z 06011KT 5000 BR OVC006 13/13 Q1011 R88/29//95
                        NOSIG=
201905150330 METAR LROP 150330Z 06011KT 6000 OVC006 13/13 Q1012 R88/29//95
                        NOSIG=
201905150400 METAR LROP 150400Z 06011KT 6000 OVC006 14/13 Q1012 R88/29//95
                        NOSIG=
201905150430 METAR LROP 150430Z 05008KT 6000 OVC006 14/13 Q1012 R88/29//95
                        BECMG BKN010=
201905150500 METAR LROP 150500Z 06011KT 6000 -RA OVC006 14/13 Q1012 R88/29//95
                        BECMG BKN010=
201905150530 METAR LROP 150530Z 06011KT 7000 OVC006 14/13 Q1012 R88/29//95
                        BECMG BKN010=
201905150600 METAR LROP 150600Z 06012KT 8000 OVC007 14/13 Q1012 R88/29//95
                        BECMG BKN010=
201905150630 METAR LROP 150630Z 06010KT 9999 OVC007 15/14 Q1012 R88/29//95
                        BECMG BKN010=
201905150700 METAR LROP 150700Z 06010KT 9999 BKN007 OVC010 15/14 Q1012
                        R88/29//95 BECMG BKN015=
201905150730 METAR LROP 150730Z 06009KT 9999 SCT007 OVC010 16/14 Q1012
                        R88/19//95 BECMG BKN015=
201905150800 METAR LROP 150800Z 06009KT 9999 OVC010 17/15 Q1012 R88/19//95
                        BECMG BKN015=
201905150830 METAR LROP 150830Z 06008KT 9999 BKN010 OVC020 17/15 Q1012
                        R88/19//95 BECMG SCT015=
201905150900 METAR LROP 150900Z 07010KT 9999 BKN010 OVC020 18/15 Q1012
                        R88/19//95 BECMG SCT015=
201905150930 METAR COR LROP 150930Z 06010KT 9999 SCT014 BKN017 BKN020
                        17/15 Q1012 R88/09//95 NOSIG=
201905151000 METAR LROP 151000Z 09008KT 9999 OVC015 19/15 Q1012 R88/09//95
                        NOSIG=
201905151030 METAR LROP 151030Z 11009KT 9999 BKN017 FEW050CB 19/15 Q1012
                        R88/09//95 NOSIG=
201905151100 METAR LROP 151100Z 10011KT 9999 BKN019 FEW050CB 18/15 Q1012
                        R88/09//95 NOSIG=
201905151130 METAR LROP 151130Z 08008KT 9999 SCT011 BKN015 18/16 Q1012
                        R88/09//95 NOSIG=
201905151200 METAR LROP 151200Z 11008KT 9999 BKN013 FEW050CB 18/15 Q1013
                        R88/09//95 NOSIG=
201905151230 METAR LROP 151230Z 13007KT 9999 -SHRA BKN019 FEW050CB 18/16
                        Q1012 R88/29//95 NOSIG=
201905151300 METAR COR LROP 151300Z 12004KT 9999 -SHRA SCT032 FEW050CB
                        18/16 Q1012 R88/29//95 NOSIG=
201905151330 METAR LROP 151330Z 09003KT 050V130 9999 -SHRA BKN020 FEW050CB
                        18/16 Q1012 R88/19//95 NOSIG=
201905151400 METAR LROP 151400Z 11004KT 070V140 9999 BKN011 BKN019 FEW050CB
                        18/16 Q1012 R88/19//95 NOSIG=
201905151430 METAR COR LROP 151430Z 10005KT 9999 BKN011 BKN016 18/16 Q1012
                        R88/09//95 NOSIG=
201905151500 METAR LROP 151500Z 08006KT 9999 OVC010 19/17 Q1012 R88/09//95
                        NOSIG=
201905151530 METAR LROP 151530Z 08011KT 9999 OVC010 19/16 Q1011 R88/09//95
                        NOSIG=
201905151600 METAR LROP 151600Z 08011KT 9999 BKN015 OVC029 18/16 Q1012
                        NOSIG=
201905151630 METAR COR LROP 151630Z 07007KT 9999 FEW018 BKN029 18/15 Q1012
                        R88/09//95 NOSIG=
201905151700 METAR LROP 151700Z 06009KT 9999 -SHRA SCT032 FEW050CB 17/15
                        Q1012 R88/09//95 NOSIG=
201905151730 METAR LROP 151730Z 07006KT 9999 BKN035 16/15 Q1012 R88/09//95
                        NOSIG=
201905151800 METAR LROP 151800Z 05008KT 9999 SCT045 16/14 Q1013 R88/09//95
                        NOSIG=
201905151830 METAR LROP 151830Z 09005KT 9999 BKN022 16/14 Q1013 R88/09//95
                        NOSIG=
201905151900 METAR LROP 151900Z 07008KT 9999 FEW019 BKN020 16/14 Q1013
                        R88/09//95 NOSIG=
201905151930 METAR LROP 151930Z 08006KT 9999 OVC019 15/15 Q1013 R88/09//95
                        NOSIG=
201905152000 METAR LROP 152000Z 06007KT 9999 BKN017 OVC019 16/14 Q1013
                        R88/09//95 NOSIG=
201905152030 METAR LROP 152030Z 07009KT 9999 BKN015 15/14 Q1013 R88/09//95
                        NOSIG=
201905152100 METAR LROP 152100Z 05007KT 9999 FEW015 15/14 Q1013 R88/09//95
                        NOSIG=
201905152130 METAR LROP 152130Z 05007KT CAVOK 14/14 Q1013 R88/09//95 NOSIG=
201905152200 METAR LROP 152200Z 03007KT CAVOK 14/14 Q1013 R88/09//95 NOSIG=
201905152230 METAR LROP 152230Z 03006KT 9999 FEW017 14/13 Q1013 R88/09//95
                        NOSIG=
201905152300 METAR LROP 152300Z 05008KT 9999 BKN015 14/13 Q1013 R88/09//95
                        NOSIG=
201905152330 METAR LROP 152330Z 05008KT 9999 FEW010 BKN015 14/13 Q1013
                        R88/09//95 NOSIG=
201905160000 METAR LROP 160000Z 04008KT 9999 BKN009 OVC020 14/13 Q1012
                        R88/09//95 NOSIG=
201905160030 METAR LROP 160030Z 05007KT 9999 BKN009 OVC020 14/13 Q1012
                        R88/09//95 NOSIG=
201905160100 METAR LROP 160100Z 06007KT 9999 OVC011 14/13 Q1012 R88/09//95
                        NOSIG=
201905160130 METAR LROP 160130Z 07007KT 9999 OVC013 14/13 Q1012 R88/09//95
                        NOSIG=
201905160200 METAR LROP 160200Z 06007KT 9999 OVC014 14/13 Q1012 R88/09//95
                        BECMG 5000 RA=
201905160230 METAR LROP 160230Z 06009KT 9000 RA BKN017 OVC022 14/13 Q1012
                        R88/09//95 BECMG 5000 RA=
201905160300 METAR LROP 160300Z 06009KT 9000 -RA OVC016 14/13 Q1012 RERA
                        R88/29//95 BECMG 5000 RA=
201905160330 METAR LROP 160330Z 07009KT 7000 RA OVC017 13/13 Q1012 R88/29//95
                        BECMG 5000 RA=
201905160400 METAR LROP 160400Z 07009KT 8000 -RA OVC018 13/13 Q1012 RERA
                        R88/29//95 NOSIG=
201905160430 METAR LROP 160430Z 08008KT 9000 -RA BKN020 13/13 Q1012 R88/29//95
                        NOSIG=
201905160500 METAR LROP 160500Z 07009KT 8000 -RA FEW026 13/13 Q1012 R88/29//95
                        NOSIG=
201905160530 METAR LROP 160530Z 07008KT 8000 -RA FEW023 14/13 Q1012 R88/29//95
                        NOSIG=
201905160600 METAR LROP 160600Z 07010KT 9000 -RA FEW040 14/13 Q1012 R88/29//95
                        NOSIG=
201905160630 METAR LROP 160630Z 07012KT 9999 FEW037 14/13 Q1012 R88/29//95
                        NOSIG=
201905160700 METAR LROP 160700Z 08010KT 9999 FEW043 14/13 Q1012 R88/29//95
                        NOSIG=
201905160730 METAR LROP 160730Z 07012KT 9999 FEW015 SCT034 16/14 Q1012
                        R88/29//95 NOSIG=
201905160800 METAR LROP 160800Z 07014KT 9999 FEW011 SCT033 16/13 Q1012
                        R88/29//95 NOSIG=
201905160830 METAR LROP 160830Z 07013KT 9999 FEW012 SCT048 15/13 Q1012
                        R88/29//95 NOSIG=
201905160900 METAR LROP 160900Z 06012KT 9999 FEW013 SCT047 15/13 Q1012
                        R88/29//95 NOSIG=
201905160930 METAR LROP 160930Z 07012KT 9999 BKN013 17/14 Q1012 R88/19//95
                        NOSIG=
201905161000 METAR LROP 161000Z 07012KT 040V100 9999 SCT013 BKN030 17/14
                        Q1012 R88/CLRD// NOSIG=
201905161030 METAR LROP 161030Z 07010KT 040V110 9999 BKN014 BKN030 18/14
                        Q1012 R88/CLRD// NOSIG=
201905161100 METAR LROP 161100Z 07010KT 050V110 9999 BKN016 BKN030 18/15
                        Q1012 NOSIG=
201905161130 METAR LROP 161130Z 08008KT 9999 BKN020 BKN030 20/15 Q1011
                        NOSIG=
201905161200 METAR LROP 161200Z 10007KT 9999 SCT024 BKN030 19/14 Q1011
                        NOSIG=
201905161230 METAR LROP 161230Z 09008KT 9999 FEW023 BKN030 20/15 Q1011
                        NOSIG=
201905161300 METAR LROP 161300Z 07009KT 9999 SCT024 BKN030 19/14 Q1011
                        NOSIG=
201905161330 METAR LROP 161330Z 07008KT 040V100 9999 FEW026 BKN034 20/14
                        Q1011 NOSIG=
201905161400 METAR LROP 161400Z 06010KT 9999 SCT026 BKN034 20/14 Q1011
                        NOSIG=
201905161430 METAR LROP 161430Z 07009KT 9999 BKN035 20/14 Q1011 NOSIG=
201905161500 METAR LROP 161500Z 09010KT 9999 FEW025 BKN034 20/14 Q1011
                        NOSIG=
201905161530 METAR LROP 161530Z 09009KT 9999 BKN034 19/14 Q1011 NOSIG=
201905161600 METAR LROP 161600Z 07008KT 9999 FEW042 FEW050CB 18/15 Q1011
                        TEMPO 5000 TSRA SCT030CB=
201905161630 METAR COR LROP 161630Z 07006KT 9999 -TSRA SCT030CB BKN035
                        18/15 Q1011 R88/29//95 TEMPO 5000
                        -TSRA=
201905161700 METAR LROP 161700Z 08008KT 5000 -TSRA BR BKN040CB BKN042
                        17/16 Q1011 RETSRA R88/29//95 BECMG
                        9999 NSW=
201905161730 METAR LROP 161730Z 07008KT 5000 TSRA SCT015 BKN040CB 16/15
                        Q1011 R88/29//95 BECMG 9999 NSW=
201905161800 METAR LROP 161800Z 01006KT 7000 SHRA BKN045CB 16/15 Q1011
                        RETSRA R88/29//95 BECMG NSC=
201905161830 METAR LROP 161830Z 32004KT 260V360 8000 -SHRA SCT050CB 15/15
                        Q1012 RESHRA R88/29//95 BECMG NSC=
201905161900 METAR LROP 161900Z 30005KT 5000 TSRA BKN050CB 15/15 Q1012
                        R88/29//95 NOSIG=
201905161930 METAR LROP 161930Z 01004KT 350V050 7000 -TSRA SCT050CB 16/16
                        Q1012 RETSRA R88/29//95 BECMG NSW=
201905162000 METAR LROP 162000Z 06008KT 9999 -TSRA SCT050CB 16/16 Q1011
                        R88/29//95 BECMG NSW=
201905162030 METAR LROP 162030Z 05008KT 9999 -SHRA SCT015 SCT050CB 16/16
                        Q1011 RETSRA R88/29//95 BECMG NSC=
201905162100 METAR LROP 162100Z 05007KT 9999 VCTS FEW050CB 15/15 Q1011
                        R88/29//95 BECMG NSC=
201905162130 METAR LROP 162130Z 03004KT 9999 VCTS FEW040CB 15/15 Q1011
                        R88/29//95 NOSIG=
201905162200 METAR LROP 162200Z 03003KT 340V070 9999 VCTS FEW035CB BKN036
                        15/15 Q1012 R88/29//95 NOSIG=
201905162230 METAR LROP 162230Z 27005KT 7000 BKN041 14/14 Q1012 R88/29//95
                        TEMPO 5000 BR=
201905162300 METAR COR LROP 162300Z 30006KT 8000 BKN036 14/14 Q1012 R26L/29//95
                        NOSIG=
201905162330 METAR LROP 162330Z 30002KT 6000 SCT035 13/13 Q1011 R26L/29//95
                        TEMPO 5000 BR=
201905170000 METAR COR LROP 170000Z 33003KT 8000 FEW040 13/13 Q1011 R88/29//95
                        TEMPO 5000 BR=
201905170030 METAR LROP 170030Z 35001KT 7000 NSC 13/13 Q1011 R88/29//95
                        TEMPO 5000 BR=
201905170100 METAR LROP 170100Z 33002KT 8000 NSC 13/13 Q1011 R88/29//95
                        TEMPO 5000 BR=
201905170130 METAR LROP 170130Z 00000KT 8000 NSC 13/13 Q1011 R88/29//95
                        TEMPO 5000 BR=
201905170200 METAR LROP 170200Z 01003KT 8000 NSC 13/13 Q1011 R88/29//95
                        TEMPO 5000 BR=
201905170230 METAR COR LROP 170230Z VRB01KT 3000 R08R/P2000 R26L/0600D
                        R08L/1400D R26R/P2000 PRFG BR NSC
                        12/12 Q1011 R88/29//95 TEMPO 1500
                        BR=
201905170300 METAR LROP 170300Z 27005KT 3000 BR NSC 12/12 Q1011 R88/29//95
                        TEMPO 1500 BR=
201905170330 METAR LROP 170330Z 25005KT 3500 BR NSC 12/12 Q1011 R88/29//95
                        BECMG 5000=
201905170400 METAR LROP 170400Z VRB01KT 7000 NSC 12/12 Q1012 R88/29//95
                        NOSIG=
201905170430 METAR LROP 170430Z 00000KT 8000 NSC 14/14 Q1012 R88/29//95
                        NOSIG=
201905170500 METAR COR LROP 170500Z 03003KT 350V060 9000 BKN029 15/14
                        Q1012 R88/19//95 NOSIG=
201905170530 METAR LROP 170530Z 02004KT 350V060 9999 BKN029 16/14 Q1012
                        R88/19//95 NOSIG=
201905170600 METAR LROP 170600Z VRB02KT 9999 FEW029 18/14 Q1012 R88/19//95
                        NOSIG=
201905170630 METAR LROP 170630Z 06004KT 030V090 CAVOK 19/14 Q1012 R88/19//95
                        NOSIG=
201905170700 METAR LROP 170700Z 02004KT 320V120 9999 FEW020 20/15 Q1012
                        R88/19//95 NOSIG=
201905170730 METAR LROP 170730Z 03004KT 330V080 9999 SCT020 20/16 Q1012
                        R88/19//95 NOSIG=
201905170800 METAR LROP 170800Z 36004KT 260V070 9999 SCT022 20/15 Q1012
                        R88/19//95 NOSIG=
201905170830 METAR LROP 170830Z 04004KT 350V090 9999 SCT024 20/15 Q1012
                        R88/CLRD// NOSIG=
201905170900 METAR LROP 170900Z VRB01KT 9999 BKN026 21/15 Q1012 R88/CLRD//
                        NOSIG=
201905170930 METAR LROP 170930Z 08004KT 040V110 9999 BKN025 22/16 Q1012
                        NOSIG=
201905171000 METAR LROP 171000Z VRB02KT 9999 BKN026 22/17 Q1012 NOSIG=
201905171030 METAR LROP 171030Z 11006KT 080V140 9999 SCT029 22/15 Q1012
                        TEMPO VRB15G25KT 5000 -TSRA BKN030CB=
201905171100 METAR LROP 171100Z 14004KT 110V170 9999 FEW028CB SCT029 21/16
                        Q1012 TEMPO VRB15G25KT 5000 -TSRA
                        SCT010 BKN030CB=
201905171130 METAR LROP 171130Z 14007KT 8000 TSRA SCT030CB 19/17 Q1013
                        R88/29//95 TEMPO 14015G25KT 5000
                        TSRA BKN010 BKN030CB=
201905171200 METAR LROP 171200Z VRB01KT 9999 -TSRA FEW014 SCT059CB 17/17
                        Q1012 RERA R88/29//95 BECMG NSW=
201905171230 METAR LROP 171230Z 21005KT 7000 SHRA FEW050CB 18/17 Q1013
                        R88/29//95 NOSIG=
201905171300 METAR LROP 171300Z VRB01KT 9999 -RA NSC 18/17 Q1013 RERA
                        R88/29//95 NOSIG=
201905171330 METAR LROP 171330Z 31004KT 9000 NSC 18/18 Q1012 R88/29//95
                        NOSIG=
201905171400 METAR LROP 171400Z 02010KT 5000 -SHRA BR FEW006 FEW050CB
                        18/18 Q1012 R88/29//95 NOSIG=
201905171430 METAR LROP 171430Z 01007KT 330V040 9000 -SHRA FEW055CB 17/16
                        Q1011 R88/29//95 NOSIG=
201905171500 METAR LROP 171500Z 01008KT 9999 -RA FEW014 17/16 Q1011 R88/29//95
                        NOSIG=
201905171530 METAR LROP 171530Z 07009KT 9999 FEW060CB 17/16 Q1011 R88/29//95
                        NOSIG=
201905171600 METAR LROP 171600Z 02005KT 9999 FEW060CB 17/16 Q1011 R88/29//95
                        NOSIG=
201905171630 METAR LROP 171630Z 35006KT 310V020 CAVOK 17/16 Q1011 R88/29//95
                        NOSIG=
201905171700 METAR LROP 171700Z 33003KT 280V030 CAVOK 16/16 Q1011 R88/29//95
                        NOSIG=
201905171730 METAR LROP 171730Z 35005KT CAVOK 16/15 Q1011 R88/29//95 NOSIG=
201905171800 METAR LROP 171800Z 36005KT CAVOK 16/15 Q1011 R88/19//95 NOSIG=
201905171830 METAR LROP 171830Z 36004KT 320V030 CAVOK 16/15 Q1011 R88/19//95
                        NOSIG=
201905171900 METAR LROP 171900Z 35003KT 310V040 CAVOK 15/15 Q1011 R88/19//95
                        NOSIG=
201905171930 METAR LROP 171930Z 32004KT 290V360 CAVOK 14/14 Q1011 R88/19//95
                        NOSIG=
201905172000 METAR LROP 172000Z 28006KT CAVOK 14/14 Q1011 R88/19//95 NOSIG=
201905172030 METAR LROP 172030Z 28007KT CAVOK 14/14 Q1010 R88/19//95 NOSIG=
201905172100 METAR LROP 172100Z 31006KT CAVOK 14/14 Q1010 R88/19//95 NOSIG=
201905172130 METAR LROP 172130Z 30006KT CAVOK 14/14 Q1010 R88/19//95 NOSIG=
201905172200 METAR LROP 172200Z 30005KT CAVOK 14/14 Q1010 R88/19//95 NOSIG=
201905172230 METAR LROP 172230Z 25005KT CAVOK 14/14 Q1010 R88/19//95 NOSIG=
201905172300 METAR LROP 172300Z 24005KT 9999 FEW050CB 14/14 Q1010 R88/19//95
                        TEMPO 5000 -SHRA SCT040CB=
201905172330 METAR LROP 172330Z 23005KT 9999 -SHRA FEW050CB 14/14 Q1010
                        R88/19//95 TEMPO 5000 -SHRA=
201905180000 METAR LROP 180000Z 25006KT 8000 FEW050CB 14/14 Q1010 R88/19//95
                        TEMPO 5000 -SHRA=
201905180030 METAR LROP 180030Z 30007KT 9999 FEW050CB 14/14 Q1009 R88/19//95
                        TEMPO 5000 -SHRA=
201905180100 METAR LROP 180100Z 23004KT 9999 -RA NSC 14/14 Q1010 R88/19//95
                        NOSIG=
201905180130 METAR LROP 180130Z 25004KT CAVOK 14/14 Q1009 R88/19//95 NOSIG=
201905180200 METAR LROP 180200Z 27006KT CAVOK 14/14 Q1009 R88/19//95 NOSIG=
201905180230 METAR LROP 180230Z 26005KT CAVOK 14/14 Q1009 R88/19//95 NOSIG=
201905180300 METAR LROP 180300Z 27004KT CAVOK 14/14 Q1009 R88/19//95 NOSIG=
201905180330 METAR LROP 180330Z 25006KT 9999 -RA NSC 14/13 Q1009 R88/19//95
                        NOSIG=
201905180400 METAR LROP 180400Z 28003KT 9999 FEW020 FEW050CB 14/14 Q1009
                        R88/19//95 TEMPO 5000 -SHRA SCT025CB=
201905180430 METAR LROP 180430Z 27003KT 230V340 9999 FEW020 FEW050CB 14/14
                        Q1009 R88/19//95 TEMPO 5000 -SHRA
                        SCT025CB=
201905180500 METAR LROP 180500Z 26004KT 9999 -RA FEW020 15/14 Q1009 R88/19//95
                        TEMPO 5000 -SHRA SCT025CB=
201905180530 METAR LROP 180530Z 25004KT 9999 FEW039 16/15 Q1009 R88/19//95
                        TEMPO 5000 -SHRA SCT025CB=
201905180600 METAR LROP 180600Z 25008KT 9999 FEW039 FEW045CB 16/15 Q1009
                        R88/19//95 TEMPO 5000 -SHRA=
201905180630 METAR LROP 180630Z VRB01KT 9999 FEW045CB 17/15 Q1010 R88/19//95
                        TEMPO 5000 -SHRA=
201905180700 METAR LROP 180700Z 20003KT 9999 FEW040CB 18/16 Q1010 R88/19//95
                        TEMPO 5000 -SHRA=
201905180730 METAR LROP 180730Z VRB02KT 9999 SCT030 FEW040CB 18/15 Q1011
                        R88/19//95 TEMPO 5000 -SHRA=
201905180800 METAR LROP 180800Z 05005KT 350V080 9999 SCT032 FEW050CB 18/16
                        Q1010 R88/19//95 TEMPO 5000 -SHRA=
201905180830 METAR LROP 180830Z 02005KT 340V060 9999 SCT038 FEW050CB 18/15
                        Q1010 R88/19//95=
201905180900 METAR LROP 180900Z 30003KT 270V340 9999 SCT042 18/15 Q1010
                        R88/19//95 TEMPO 5000 -SHRA=
201905180930 METAR LROP 180930Z 30004KT 270V340 CAVOK 19/16 Q1009 R88/19//95
                        TEMPO 5000 -SHRA=
201905181000 METAR LROP 181000Z 29006KT 270V330 CAVOK 20/17 Q1009 R88/19//95
                        TEMPO 5000 -SHRA=
201905181030 METAR LROP 181030Z VRB04KT CAVOK 22/18 Q1009 R88/CLRD// NOSIG=
201905181100 METAR LROP 181100Z 34006KT 310V040 CAVOK 23/17 Q1009 R88/CLRD//
                        NOSIG=
201905181130 METAR LROP 181130Z 31005KT 280V350 CAVOK 23/17 Q1009 NOSIG=
201905181200 METAR LROP 181200Z 32005KT 240V020 CAVOK 23/16 Q1008 NOSIG=
201905181230 METAR LROP 181230Z 25005KT 220V290 CAVOK 24/16 Q1008 NOSIG=
201905181300 METAR LROP 181300Z 29006KT 260V360 CAVOK 25/18 Q1007 NOSIG=
201905181330 METAR LROP 181330Z 27006KT 240V320 CAVOK 25/15 Q1007 NOSIG=
201905181400 METAR LROP 181400Z 27007KT CAVOK 25/17 Q1007 NOSIG=
201905181430 METAR LROP 181430Z 28006KT CAVOK 25/16 Q1007 NOSIG=
201905181500 METAR LROP 181500Z 26006KT CAVOK 25/17 Q1007 NOSIG=
201905181530 METAR LROP 181530Z 25007KT 9999 FEW047 24/18 Q1007 NOSIG=
201905181600 METAR LROP 181600Z 23006KT 9999 FEW045 25/17 Q1007 NOSIG=
201905181630 METAR LROP 181630Z 24006KT 9999 FEW044 24/17 Q1007 NOSIG=
201905181700 METAR LROP 181700Z 25006KT CAVOK 23/17 Q1007 NOSIG=
201905181730 METAR LROP 181730Z 24005KT CAVOK 21/18 Q1007 NOSIG=
201905181800 METAR LROP 181800Z 22002KT CAVOK 19/17 Q1007 NOSIG=
201905181830 METAR LROP 181830Z 22002KT CAVOK 18/17 Q1008 NOSIG=
201905181900 METAR LROP 181900Z 22004KT CAVOK 17/16 Q1008 NOSIG=
201905181930 METAR LROP 181930Z 23005KT CAVOK 17/16 Q1008 NOSIG=
201905182000 METAR LROP 182000Z 23005KT CAVOK 17/16 Q1008 NOSIG=
201905182030 METAR LROP 182030Z 22004KT CAVOK 16/16 Q1008 NOSIG=
201905182100 METAR LROP 182100Z 21003KT CAVOK 16/16 Q1008 NOSIG=
201905182130 METAR LROP 182130Z 23004KT CAVOK 16/16 Q1008 NOSIG=
201905182200 METAR LROP 182200Z 24005KT CAVOK 15/15 Q1008 NOSIG=
201905182230 METAR LROP 182230Z VRB04KT 8000 NSC 14/14 Q1008 BECMG 5000
                        BR=
201905182300 METAR LROP 182300Z 04005KT 8000 NSC 16/15 Q1008 BECMG 5000
                        BR=
201905182330 METAR LROP 182330Z 00000KT 6000 NSC 15/15 Q1008 BECMG 5000
                        BR=
201905190000 METAR LROP 190000Z 00000KT 7000 NSC 15/15 Q1008 BECMG 5000
                        BR=
201905190030 METAR LROP 190030Z 22002KT 6000 NSC 15/15 Q1008 TEMPO 3000
                        BR=
201905190100 METAR LROP 190100Z 21002KT 5000 BR NSC 14/14 Q1008 TEMPO
                        3000 BR=
201905190130 METAR LROP 190130Z VRB01KT 4000 BR NSC 13/13 Q1008 TEMPO
                        3000 BR=
201905190200 METAR LROP 190200Z 02002KT 5000 BR NSC 14/14 Q1008 TEMPO
                        3000 BR=
201905190230 METAR LROP 190230Z 07003KT 3500 MIFG BR NSC 13/13 Q1008 TEMPO
                        3000 BR=
201905190300 METAR LROP 190300Z 00000KT 2000 R08R/P2000 R26L/0250N R08L/P2000
                        R26R/1500 BCFG NSC 13/13 Q1009 NOSIG=
201905190330 METAR LROP 190330Z 28003KT 2500 BR NSC 13/13 Q1009 BECMG
                        5000=
201905190400 METAR LROP 190400Z VRB02KT 5000 R08R/P2000 R26L/0800U R08L/P2000
                        R26R/0800N PRFG BR NSC 14/14 Q1009
                        BECMG 9999 NSW=
201905190430 METAR LROP 190430Z 02003KT 360V070 5000 BR NSC 16/15 Q1009
                        BECMG 9999 NSW=
201905190500 METAR LROP 190500Z 03001KT 7000 NSC 18/16 Q1009 NOSIG=
201905190530 METAR LROP 190530Z VRB01KT 9000 NSC 19/16 Q1009 NOSIG=
201905190600 METAR LROP 190600Z 11003KT 080V180 CAVOK 20/17 Q1010 NOSIG=
201905190630 METAR LROP 190630Z 15005KT 120V190 CAVOK 21/17 Q1009 NOSIG=
201905190700 METAR LROP 190700Z 14005KT 080V190 CAVOK 22/17 Q1009 NOSIG=
201905190730 METAR LROP 190730Z 13005KT 100V160 CAVOK 23/16 Q1010 NOSIG=
201905190800 METAR LROP 190800Z 16004KT 100V230 CAVOK 24/17 Q1009 NOSIG=
201905190830 METAR LROP 190830Z 13005KT 090V180 CAVOK 24/17 Q1009 NOSIG=
201905190900 METAR LROP 190900Z 17005KT 120V230 9999 FEW030 24/17 Q1009
                        NOSIG=
201905190930 METAR LROP 190930Z 15006KT 130V190 9999 FEW033 25/17 Q1009
                        NOSIG=
201905191000 METAR LROP 191000Z 18005KT 130V230 9999 FEW035 26/17 Q1009
                        NOSIG=
201905191030 METAR LROP 191030Z 12005KT 070V180 9999 FEW040 25/17 Q1009
                        NOSIG=
201905191100 METAR LROP 191100Z 13008KT 080V160 9999 SCT040 26/17 Q1009
                        NOSIG=
201905191130 METAR LROP 191130Z 13010KT 070V180 9999 SCT044 27/18 Q1009
                        NOSIG=
201905191200 METAR LROP 191200Z 11006KT 080V170 9999 SCT044 26/17 Q1009
                        NOSIG=
201905191230 METAR LROP 191230Z 13006KT 080V190 9999 FEW048 27/17 Q1009
                        NOSIG=
201905191300 METAR LROP 191300Z 11007KT 9999 FEW049 27/16 Q1009 NOSIG=
201905191330 METAR LROP 191330Z 11008KT CAVOK 27/16 Q1009 NOSIG=
201905191400 METAR LROP 191400Z 11007KT CAVOK 27/17 Q1008 NOSIG=
201905191430 METAR LROP 191430Z 12006KT CAVOK 27/15 Q1008 NOSIG=
201905191500 METAR LROP 191500Z 11007KT CAVOK 27/16 Q1008 NOSIG=
201905191530 METAR LROP 191530Z 10008KT CAVOK 27/17 Q1008 NOSIG=
201905191600 METAR LROP 191600Z 10009KT CAVOK 26/17 Q1008 NOSIG=
201905191630 METAR LROP 191630Z 11006KT CAVOK 25/17 Q1008 NOSIG=
201905191700 METAR LROP 191700Z 10005KT CAVOK 23/18 Q1008 NOSIG=
201905191730 METAR LROP 191730Z 08007KT CAVOK 22/18 Q1007 NOSIG=
201905191800 METAR LROP 191800Z 08006KT CAVOK 21/18 Q1007 NOSIG=
201905191830 METAR LROP 191830Z 08006KT CAVOK 20/16 Q1007 NOSIG=
201905191900 METAR LROP 191900Z 10005KT CAVOK 19/17 Q1008 NOSIG=
201905191930 METAR LROP 191930Z 09006KT CAVOK 19/16 Q1008 NOSIG=
201905192000 METAR LROP 192000Z 08006KT CAVOK 18/16 Q1008 NOSIG=
201905192030 METAR LROP 192030Z 09007KT CAVOK 18/16 Q1007 NOSIG=
201905192100 METAR LROP 192100Z 08007KT CAVOK 18/16 Q1007 NOSIG=
201905192130 METAR LROP 192130Z 09004KT CAVOK 18/16 Q1007 NOSIG=
201905192200 METAR LROP 192200Z 07006KT CAVOK 17/16 Q1007 NOSIG=
201905192230 METAR LROP 192230Z 09004KT CAVOK 18/16 Q1007 NOSIG=
201905192300 METAR LROP 192300Z 07009KT CAVOK 18/16 Q1007 TEMPO SCT045CB=
201905192330 METAR LROP 192330Z 09008KT CAVOK 18/16 Q1006 NOSIG=
201905200000 METAR LROP 200000Z 09008KT CAVOK 18/17 Q1006 NOSIG=
201905200030 METAR LROP 200030Z 07006KT CAVOK 17/16 Q1006 NOSIG=
201905200100 METAR LROP 200100Z 04005KT CAVOK 17/16 Q1006 NOSIG=
201905200130 METAR LROP 200130Z 04005KT CAVOK 17/16 Q1006 NOSIG=
201905200200 METAR LROP 200200Z 05006KT CAVOK 16/15 Q1006 NOSIG=
201905200230 METAR LROP 200230Z 08005KT CAVOK 16/15 Q1007 NOSIG=
201905200300 METAR COR LROP 200300Z 06005KT CAVOK 15/14 Q1007 NOSIG=
201905200330 METAR LROP 200330Z 05004KT 020V080 CAVOK 16/15 Q1007 NOSIG=
201905200400 METAR LROP 200400Z 07006KT CAVOK 17/15 Q1007 NOSIG=
201905200430 METAR LROP 200430Z 10004KT CAVOK 18/15 Q1007 NOSIG=
201905200500 METAR LROP 200500Z 08005KT CAVOK 20/15 Q1007 NOSIG=
201905200530 METAR LROP 200530Z 08006KT CAVOK 21/16 Q1007 NOSIG=
201905200600 METAR LROP 200600Z 08007KT CAVOK 22/16 Q1007 NOSIG=
201905200630 METAR LROP 200630Z 11007KT CAVOK 23/14 Q1007 NOSIG=
201905200700 METAR LROP 200700Z 13006KT CAVOK 23/14 Q1007 NOSIG=
201905200730 METAR LROP 200730Z 12006KT CAVOK 24/12 Q1007 NOSIG=
201905200800 METAR LROP 200800Z 14008KT 110V170 CAVOK 24/13 Q1007 NOSIG=
201905200830 METAR LROP 200830Z 15009KT CAVOK 25/13 Q1007 NOSIG=
201905200900 METAR LROP 200900Z 16009KT 110V180 CAVOK 25/12 Q1007 NOSIG=
201905200930 METAR LROP 200930Z 14007KT 100V180 CAVOK 25/15 Q1007 NOSIG=
201905201000 METAR LROP 201000Z 15008KT CAVOK 26/14 Q1007 NOSIG=
201905201030 METAR LROP 201030Z 17005KT 120V210 CAVOK 27/14 Q1007 NOSIG=
201905201100 METAR LROP 201100Z 16011KT CAVOK 27/14 Q1007 NOSIG=
201905201130 METAR LROP 201130Z 13010KT 110V170 CAVOK 27/13 Q1007 NOSIG=
201905201200 METAR LROP 201200Z 14008KT CAVOK 27/12 Q1007 NOSIG=
201905201230 METAR LROP 201230Z 14007KT 110V170 CAVOK 27/12 Q1006 NOSIG=
201905201300 METAR LROP 201300Z 13008KT CAVOK 27/12 Q1006 NOSIG=
201905201330 METAR LROP 201330Z 13007KT CAVOK 27/14 Q1006 NOSIG=
201905201400 METAR LROP 201400Z 15005KT CAVOK 26/14 Q1005 NOSIG=
201905201430 METAR COR LROP 201430Z 13007KT CAVOK 25/15 Q1005 NOSIG=
201905201500 METAR COR LROP 201500Z 13006KT 9999 FEW060CB 23/14 Q1005
                        TEMPO VRB20G30KT 5000 -TSRA BKN035CB=
201905201530 METAR LROP 201530Z 17001KT 9999 SCT050CB 23/14 Q1005 TEMPO
                        VRB25G35KT 3000 TSRA SQ BKN035CB=
201905201600 METAR LROP 201600Z 24002KT 9999 -TSRA SCT040CB 22/16 Q1005
                        TEMPO VRB25G35KT 3000 TSRA SQ BKN035CB=
201905201630 METAR LROP 201630Z 24025KT 7000 TSRA SCT012 BKN030CB 16/15
                        Q1007 WS ALL RWY R88/29//95 TEMPO
                        3000 TSRA=
201905201700 METAR COR LROP 201700Z 26022KT 8000 TSRA SCT010 BKN030CB
                        15/14 Q1008 RETSRA WS ALL RWY R88/29//95
                        TEMPO 5000 TSRA=
201905201730 METAR LROP 201730Z 27021KT 9999 -TSRA SCT012 SCT030CB 15/14
                        Q1008 RETSRA WS ALL RWY R88/29//95
                        BECMG NSW=
201905201800 METAR LROP 201800Z 29018KT 9999 -SHRA VCTS SCT015 SCT040CB
                        15/14 Q1008 RETSRA R88/29//95 BECMG
                        NSW=
201905201830 METAR LROP 201830Z 27009KT 9999 VCTS FEW015 SCT050CB 15/14
                        Q1008 R88/29//95 NOSIG=
201905201900 METAR LROP 201900Z 26008KT 9999 FEW050CB 15/15 Q1008 R88/29//95
                        BECMG NSC=
201905201930 METAR LROP 201930Z 23006KT CAVOK 15/15 Q1008 R26R/19//95
                        NOSIG=
201905202000 METAR COR LROP 202000Z 20006KT CAVOK 14/14 Q1008 R26R/19//95
                        NOSIG=
201905202030 METAR LROP 202030Z 21007KT CAVOK 15/15 Q1009 R26R/19//95
                        NOSIG=
201905202100 METAR LROP 202100Z 20008KT CAVOK 15/15 Q1009 R26R/19//95
                        NOSIG=
201905202130 METAR LROP 202130Z 21010KT CAVOK 15/15 Q1009 R26R/CLRD//
                        NOSIG=
201905202200 METAR LROP 202200Z 22008KT CAVOK 14/14 Q1010 R26R/CLRD//
                        NOSIG=
201905202230 METAR LROP 202230Z 21008KT CAVOK 14/14 Q1010 NOSIG=
201905202300 METAR LROP 202300Z 22008KT CAVOK 14/14 Q1010 NOSIG=
201905202330 METAR LROP 202330Z 22007KT CAVOK 13/13 Q1010 NOSIG=
201905210000 METAR LROP 210000Z 22007KT CAVOK 13/13 Q1010 NOSIG=
201905210030 METAR LROP 210030Z 22007KT CAVOK 13/13 Q1010 NOSIG=
201905210100 METAR LROP 210100Z 21006KT CAVOK 13/13 Q1010 NOSIG=
201905210130 METAR LROP 210130Z 22006KT CAVOK 13/13 Q1010 NOSIG=
201905210200 METAR LROP 210200Z 22005KT 8000 NSC 12/12 Q1010 NOSIG=
201905210230 METAR LROP 210230Z 23006KT 8000 NSC 12/12 Q1010 NOSIG=
201905210300 METAR LROP 210300Z 23006KT CAVOK 12/12 Q1010 NOSIG=
201905210330 METAR LROP 210330Z 23005KT CAVOK 13/13 Q1010 NOSIG=
201905210400 METAR LROP 210400Z 23006KT CAVOK 14/13 Q1010 NOSIG=
201905210430 METAR LROP 210430Z 25007KT CAVOK 15/13 Q1010 NOSIG=
201905210500 METAR LROP 210500Z 25008KT CAVOK 15/14 Q1011 NOSIG=
201905210530 METAR LROP 210530Z 26009KT CAVOK 16/13 Q1011 NOSIG=
201905210600 METAR LROP 210600Z 25008KT CAVOK 17/14 Q1011 NOSIG=
201905210630 METAR LROP 210630Z 23006KT CAVOK 18/15 Q1011 NOSIG=
201905210700 METAR LROP 210700Z 26007KT 230V290 9999 FEW020 19/14 Q1011
                        NOSIG=
201905210730 METAR LROP 210730Z 24009KT 9999 FEW021 19/14 Q1011 NOSIG=
201905210800 METAR LROP 210800Z 25009KT 210V280 9999 SCT026 21/13 Q1012
                        NOSIG=
201905210830 METAR LROP 210830Z 25008KT 230V290 9999 SCT031 21/13 Q1012
                        NOSIG=
201905210900 METAR LROP 210900Z 22007KT 190V270 9999 SCT036 21/14 Q1012
                        NOSIG=
201905210930 METAR LROP 210930Z 24009KT 200V280 9999 BKN045 21/12 Q1011
                        NOSIG=
201905211000 METAR LROP 211000Z 26010KT 9999 BKN047 21/14 Q1011 NOSIG=
201905211030 METAR LROP 211030Z 24009KT 210V270 9999 SCT048 22/12 Q1011
                        NOSIG=
201905211100 METAR LROP 211100Z 22010KT CAVOK 23/12 Q1011 NOSIG=
201905211130 METAR LROP 211130Z 21010KT CAVOK 23/12 Q1011 NOSIG=
201905211200 METAR LROP 211200Z 22011KT CAVOK 22/11 Q1011 NOSIG=
201905211230 METAR LROP 211230Z 23009KT CAVOK 22/11 Q1011 NOSIG=
201905211300 METAR LROP 211300Z 24010KT CAVOK 22/11 Q1011 NOSIG=
201905211330 METAR LROP 211330Z 26011KT 230V290 CAVOK 23/12 Q1011 NOSIG=
201905211400 METAR LROP 211400Z 25010KT CAVOK 23/09 Q1011 NOSIG=
201905211430 METAR LROP 211430Z 24010KT CAVOK 23/11 Q1011 NOSIG=
201905211500 METAR LROP 211500Z 25011KT CAVOK 22/09 Q1011 NOSIG=
201905211530 METAR COR LROP 211530Z 25011KT CAVOK 22/08 Q1010 NOSIG=
201905211600 METAR LROP 211600Z 25009KT CAVOK 23/08 Q1010 NOSIG=
201905211630 METAR LROP 211630Z 24007KT CAVOK 22/09 Q1011 NOSIG=
201905211700 METAR LROP 211700Z 24007KT CAVOK 20/12 Q1011 NOSIG=
201905211730 METAR LROP 211730Z 23006KT CAVOK 18/13 Q1011 NOSIG=
201905211800 METAR LROP 211800Z 21006KT CAVOK 17/13 Q1011 NOSIG=
201905211830 METAR LROP 211830Z 21005KT CAVOK 16/13 Q1011 NOSIG=
201905211900 METAR LROP 211900Z 22005KT CAVOK 16/11 Q1011 NOSIG=
201905211930 METAR LROP 211930Z 22006KT CAVOK 15/11 Q1012 NOSIG=
201905212000 METAR LROP 212000Z 22005KT CAVOK 16/11 Q1012 NOSIG=
201905212030 METAR LROP 212030Z 25007KT CAVOK 14/13 Q1012 NOSIG=
201905212100 METAR LROP 212100Z 23007KT CAVOK 14/12 Q1012 NOSIG=
201905212130 METAR LROP 212130Z 22006KT CAVOK 13/12 Q1012 NOSIG=
201905212200 METAR LROP 212200Z 22006KT CAVOK 13/12 Q1012 NOSIG=
201905212230 METAR LROP 212230Z 24005KT CAVOK 13/12 Q1012 NOSIG=
201905212300 METAR LROP 212300Z 24006KT CAVOK 12/11 Q1012 NOSIG=
201905212330 METAR LROP 212330Z 25005KT CAVOK 12/11 Q1012 NOSIG=
201905220000 METAR LROP 220000Z 26006KT CAVOK 11/11 Q1012 NOSIG=
201905220030 METAR LROP 220030Z 24006KT CAVOK 11/11 Q1012 NOSIG=
201905220100 METAR LROP 220100Z 27005KT CAVOK 11/10 Q1012 NOSIG=
201905220130 METAR LROP 220130Z 26003KT CAVOK 10/10 Q1012 NOSIG=
201905220200 METAR LROP 220200Z 21004KT CAVOK 11/10 Q1012 NOSIG=
201905220230 METAR LROP 220230Z 28003KT CAVOK 11/10 Q1011 NOSIG=
201905220300 METAR LROP 220300Z 00000KT CAVOK 11/10 Q1011 NOSIG=
201905220330 METAR LROP 220330Z VRB02KT CAVOK 11/11 Q1012 NOSIG=
201905220400 METAR LROP 220400Z 24003KT CAVOK 11/11 Q1012 NOSIG=
201905220430 METAR LROP 220430Z 25005KT CAVOK 13/12 Q1012 NOSIG=
201905220500 METAR LROP 220500Z 24005KT CAVOK 14/13 Q1012 NOSIG=
201905220530 METAR LROP 220530Z 24007KT CAVOK 15/12 Q1012 NOSIG=
201905220600 METAR LROP 220600Z 25007KT CAVOK 16/12 Q1012 NOSIG=
201905220630 METAR LROP 220630Z 24006KT CAVOK 18/13 Q1012 NOSIG=
201905220700 METAR LROP 220700Z 24006KT 220V280 CAVOK 19/13 Q1012 NOSIG=
201905220730 METAR LROP 220730Z 25008KT CAVOK 20/13 Q1012 NOSIG=
201905220800 METAR LROP 220800Z 26010KT CAVOK 21/13 Q1012 NOSIG=
201905220830 METAR LROP 220830Z 26011KT CAVOK 22/14 Q1012 NOSIG=
201905220900 METAR LROP 220900Z 26012KT CAVOK 22/12 Q1012 NOSIG=
201905220930 METAR LROP 220930Z 24010KT CAVOK 23/12 Q1012 NOSIG=
201905221000 METAR LROP 221000Z 26012KT 9999 SCT047 22/13 Q1012 NOSIG=
201905221030 METAR LROP 221030Z 26013KT 9999 SCT047 21/12 Q1012 NOSIG=
201905221100 METAR LROP 221100Z 24013KT 210V270 9999 SCT047 22/12 Q1012
                        NOSIG=
201905221130 METAR LROP 221130Z 24013KT CAVOK 24/12 Q1012 NOSIG=
201905221200 METAR LROP 221200Z 24014KT CAVOK 24/11 Q1012 NOSIG=
201905221230 METAR LROP 221230Z 24014KT CAVOK 23/11 Q1011 NOSIG=
201905221300 METAR LROP 221300Z 24013KT CAVOK 24/11 Q1011 NOSIG=
201905221330 METAR LROP 221330Z 24013KT CAVOK 24/11 Q1011 NOSIG=
201905221400 METAR LROP 221400Z 25014KT CAVOK 24/11 Q1011 NOSIG=
201905221430 METAR LROP 221430Z 24011KT CAVOK 24/12 Q1011 NOSIG=
201905221500 METAR LROP 221500Z 25013KT CAVOK 24/10 Q1011 NOSIG=
201905221530 METAR LROP 221530Z 25011KT 210V270 CAVOK 23/12 Q1010 NOSIG=
201905221600 METAR LROP 221600Z 24010KT CAVOK 23/11 Q1010 NOSIG=
201905221630 METAR LROP 221630Z 24008KT CAVOK 22/12 Q1010 NOSIG=
201905221700 METAR LROP 221700Z 24007KT CAVOK 21/12 Q1010 NOSIG=
201905221730 METAR COR LROP 221730Z 24007KT CAVOK 19/13 Q1010 NOSIG=
201905221800 METAR LROP 221800Z 23007KT CAVOK 18/14 Q1010 NOSIG=
201905221830 METAR LROP 221830Z 23006KT CAVOK 17/14 Q1011 NOSIG=
201905221900 METAR LROP 221900Z 23007KT CAVOK 16/13 Q1011 NOSIG=
201905221930 METAR LROP 221930Z 23008KT CAVOK 16/13 Q1011 NOSIG=
201905222000 METAR LROP 222000Z 24006KT CAVOK 15/13 Q1011 NOSIG=
201905222030 METAR LROP 222030Z 25007KT CAVOK 16/13 Q1011 NOSIG=
201905222100 METAR COR LROP 222100Z 25007KT CAVOK 14/12 Q1011 NOSIG=
201905222130 METAR COR LROP 222130Z 25006KT CAVOK 14/12 Q1011 NOSIG=
201905222200 METAR LROP 222200Z 24006KT CAVOK 14/12 Q1011 NOSIG=
201905222230 METAR LROP 222230Z 24007KT CAVOK 14/12 Q1011 NOSIG=
201905222300 METAR LROP 222300Z AUTO 24007KT 9999 FEW099/// 14/12 Q1011
                        NOSIG=
201905222330 METAR LROP 222330Z 25006KT CAVOK 13/11 Q1011 NOSIG=
201905230000 METAR LROP 230000Z 25007KT CAVOK 13/11 Q1011 NOSIG=
201905230030 METAR LROP 230030Z 25007KT CAVOK 13/11 Q1011 NOSIG=
201905230100 METAR LROP 230100Z 23007KT CAVOK 13/11 Q1011 NOSIG=
201905230130 METAR LROP 230130Z 25008KT CAVOK 13/11 Q1011 NOSIG=
201905230200 METAR LROP 230200Z 24007KT CAVOK 13/11 Q1011 NOSIG=
201905230230 METAR LROP 230230Z 23007KT CAVOK 12/12 Q1011 NOSIG=
201905230300 METAR LROP 230300Z 24007KT CAVOK 12/12 Q1011 NOSIG=
201905230330 METAR LROP 230330Z 23006KT CAVOK 13/12 Q1011 NOSIG=
201905230400 METAR LROP 230400Z 24008KT CAVOK 15/12 Q1010 NOSIG=
201905230430 METAR LROP 230430Z 23009KT CAVOK 15/13 Q1010 NOSIG=
201905230500 METAR LROP 230500Z 24008KT CAVOK 16/13 Q1010 NOSIG=
201905230530 METAR LROP 230530Z 24010KT CAVOK 17/13 Q1011 NOSIG=
201905230600 METAR LROP 230600Z 23009KT 210V270 CAVOK 18/13 Q1011 NOSIG=
201905230630 METAR LROP 230630Z 25009KT CAVOK 19/14 Q1011 NOSIG=
201905230700 METAR LROP 230700Z 24009KT CAVOK 20/13 Q1011 NOSIG=
201905230730 METAR LROP 230730Z 25011KT CAVOK 21/14 Q1011 NOSIG=
201905230800 METAR LROP 230800Z 25010KT CAVOK 22/15 Q1011 NOSIG=
201905230830 METAR LROP 230830Z 24011KT CAVOK 22/17 Q1011 NOSIG=
201905230900 METAR LROP 230900Z 23012KT CAVOK 23/14 Q1011 NOSIG=
201905230930 METAR LROP 230930Z 24012KT 210V270 9999 FEW035 23/14 Q1011
                        NOSIG=
201905231000 METAR LROP 231000Z 24013KT 9999 SCT035 24/16 Q1011 NOSIG=
201905231030 METAR LROP 231030Z 25013KT 9999 FEW035TCU SCT040 23/15 Q1011
                        NOSIG=
201905231100 METAR LROP 231100Z 24011KT 210V270 9999 FEW035TCU SCT047
                        24/14 Q1010 NOSIG=
201905231130 METAR LROP 231130Z 25012KT 9999 FEW040TCU SCT047 23/13 Q1010
                        NOSIG=
201905231200 METAR LROP 231200Z 25011KT 9999 FEW045TCU SCT049 24/12 Q1010
                        NOSIG=
201905231230 METAR LROP 231230Z 27011KT 9999 FEW050TCU 23/14 Q1010 NOSIG=
201905231300 METAR LROP 231300Z 24011KT 9999 FEW060TCU 25/14 Q1009 NOSIG=
201905231330 METAR LROP 231330Z 24010KT CAVOK 23/13 Q1009 NOSIG=
201905231400 METAR LROP 231400Z 23011KT CAVOK 25/15 Q1009 NOSIG=
201905231430 METAR LROP 231430Z 24009KT CAVOK 24/13 Q1009 NOSIG=
201905231500 METAR LROP 231500Z 23011KT CAVOK 25/12 Q1009 NOSIG=
201905231530 METAR LROP 231530Z 24010KT CAVOK 24/13 Q1009 NOSIG=
201905231600 METAR LROP 231600Z 24008KT CAVOK 23/12 Q1009 NOSIG=
201905231630 METAR LROP 231630Z 23010KT CAVOK 23/13 Q1009 NOSIG=
201905231700 METAR LROP 231700Z 22009KT CAVOK 21/13 Q1009 NOSIG=
201905231730 METAR LROP 231730Z 24011KT CAVOK 20/13 Q1009 NOSIG=
201905231800 METAR LROP 231800Z 23009KT CAVOK 19/13 Q1009 NOSIG=
201905231830 METAR LROP 231830Z 23008KT CAVOK 18/13 Q1009 NOSIG=
201905231900 METAR LROP 231900Z 24007KT CAVOK 17/13 Q1010 NOSIG=
201905231930 METAR LROP 231930Z 25008KT CAVOK 16/13 Q1010 NOSIG=
201905232000 METAR LROP 232000Z 24007KT CAVOK 16/13 Q1010 NOSIG=
201905232030 METAR LROP 232030Z 26007KT CAVOK 15/13 Q1010 NOSIG=
201905232100 METAR LROP 232100Z 25006KT CAVOK 15/13 Q1010 NOSIG=
201905232130 METAR LROP 232130Z 25007KT CAVOK 14/13 Q1010 NOSIG=
201905232200 METAR LROP 232200Z 24007KT CAVOK 14/13 Q1010 NOSIG=
201905232230 METAR LROP 232230Z 24004KT CAVOK 14/13 Q1009 NOSIG=
201905232300 METAR LROP 232300Z 25007KT CAVOK 14/12 Q1009 NOSIG=
201905232330 METAR LROP 232330Z 24005KT CAVOK 13/13 Q1009 NOSIG=
201905240000 METAR LROP 240000Z 24007KT CAVOK 13/12 Q1009 NOSIG=
201905240030 METAR LROP 240030Z 24006KT CAVOK 12/12 Q1009 NOSIG=
201905240100 METAR LROP 240100Z 23006KT CAVOK 12/12 Q1009 NOSIG=
201905240130 METAR LROP 240130Z 22005KT CAVOK 12/12 Q1009 NOSIG=
201905240200 METAR LROP 240200Z 23005KT CAVOK 12/12 Q1009 NOSIG=
201905240230 METAR LROP 240230Z 24005KT CAVOK 12/12 Q1009 NOSIG=
201905240300 METAR LROP 240300Z 24005KT CAVOK 12/11 Q1009 NOSIG=
201905240330 METAR LROP 240330Z 24006KT CAVOK 12/12 Q1009 NOSIG=
201905240400 METAR LROP 240400Z 25005KT CAVOK 13/12 Q1009 NOSIG=
201905240430 METAR LROP 240430Z 24005KT 9999 BKN049 14/12 Q1009 NOSIG=
201905240500 METAR LROP 240500Z 24004KT 200V270 9999 BKN049 15/13 Q1009
                        NOSIG=
201905240530 METAR LROP 240530Z 26004KT 200V290 9999 SCT048 17/13 Q1009
                        NOSIG=
201905240600 METAR LROP 240600Z VRB01KT 9999 BKN049 18/14 Q1009 NOSIG=
201905240630 METAR LROP 240630Z 04003KT 350V090 9999 BKN049 18/13 Q1009
                        NOSIG=
201905240700 METAR LROP 240700Z VRB03KT 9999 SCT049 20/15 Q1009 NOSIG=
201905240730 METAR LROP 240730Z VRB02KT 9999 FEW027 BKN048 21/13 Q1009
                        NOSIG=
201905240800 METAR LROP 240800Z VRB02KT 9999 FEW028 BKN048 21/13 Q1009
                        NOSIG=
201905240830 METAR LROP 240830Z VRB03KT 9999 SCT036 BKN047 21/13 Q1009
                        NOSIG=
201905240900 METAR LROP 240900Z 13005KT 090V170 9999 SCT034 FEW040TCU
                        21/13 Q1009 NOSIG=
201905240930 METAR LROP 240930Z VRB03KT 9999 SCT035 FEW042CB 22/15 Q1009
                        NOSIG=
201905241000 METAR LROP 241000Z VRB04KT 9999 SCT040 FEW045CB 24/15 Q1008
                        NOSIG=
201905241030 METAR LROP 241030Z 14005KT 050V180 9999 FEW035CB BKN038 23/15
                        Q1008 TEMPO 5000 -TSRA=
201905241100 METAR LROP 241100Z 34004KT 270V040 9999 SCT039 FEW040CB 23/15
                        Q1008 TEMPO 5000 -TSRA=
201905241130 METAR COR LROP 241130Z VRB03KT 9999 VCTS FEW039 FEW050CB
                        22/16 Q1007 TEMPO 5000 -TSRA=
201905241200 METAR LROP 241200Z 24007KT 9999 VCTS FEW050CB 23/15 Q1007
                        TEMPO 5000 -TSRA=
201905241230 METAR LROP 241230Z 36009KT 330V030 9999 TS FEW038 SCT042CB
                        21/13 Q1007 TEMPO 5000 -TSRA=
201905241300 METAR LROP 241300Z 31007KT 9999 -TSRA SCT032 BKN040CB 19/14
                        Q1007 TEMPO VRB15G25KT 3000 TSRA
                        BKN010 BKN035CB=
201905241330 METAR LROP 241330Z 10012KT 8000 TSRA SCT016 BKN045CB 16/15
                        Q1008 R88/29//95 TEMPO 3000 TSRA
                        BKN010 BKN035CB=
201905241400 METAR LROP 241400Z 12005KT 070V140 8000 TSRA BKN042CB 16/15
                        Q1008 R88/29//95 NOSIG=
201905241430 METAR LROP 241430Z 21005KT 9999 -TSRA BKN041CB 15/15 Q1008
                        RETSRA R88/29//95 NOSIG=
201905241500 METAR LROP 241500Z VRB02KT 8000 TSRA BKN046CB 16/16 Q1008
                        R88/29//95 TEMPO 5000 TSRA=
201905241530 METAR LROP 241530Z 10005KT 8000 SHRA BKN049CB 16/16 Q1008
                        RETS R88/29//95 TEMPO 5000 SHRA=
201905241600 METAR LROP 241600Z 11005KT 9999 -SHRA BKN050CB 15/15 Q1007
                        RESHRA R88/29//95 TEMPO 5000 SHRA=
201905241630 METAR LROP 241630Z VRB02KT 9999 -SHRA BKN050CB 15/15 Q1008
                        R88/29//95 NOSIG=
201905241700 METAR LROP 241700Z 25005KT 9999 SCT050CB 15/15 Q1008 R88/29//95
                        NOSIG=
201905241730 METAR LROP 241730Z 29007KT 240V310 9999 FEW010 FEW050CB 15/15
                        Q1008 R88/29//95 NOSIG=
201905241800 METAR COR LROP 241800Z 29007KT 240V310 9999 FEW010 FEW050CB
                        15/15 Q1008 R88/29//95 NOSIG=
201905241830 METAR LROP 241830Z 31005KT CAVOK 15/15 Q1008 R88/29//95 NOSIG=
201905241900 METAR LROP 241900Z 31005KT CAVOK 14/14 Q1008 R88/29//95 NOSIG=
201905241930 METAR LROP 241930Z 29004KT 270V330 CAVOK 15/15 Q1009 R88/29//95
                        NOSIG=
201905242000 METAR LROP 242000Z 28005KT CAVOK 15/15 Q1009 R88/19//95 NOSIG=
201905242030 METAR LROP 242030Z 22003KT 190V260 CAVOK 15/15 Q1008 R88/19//95
                        NOSIG=
201905242100 METAR LROP 242100Z 00000KT CAVOK 15/15 Q1008 R88/19//95 NOSIG=
201905242130 METAR COR LROP 242130Z 22003KT CAVOK 15/15 Q1009 R88/19//95
                        NOSIG=
201905242200 METAR LROP 242200Z 20004KT 8000 NSC 15/15 Q1008 R88/19//95
                        NOSIG=
201905242230 METAR LROP 242230Z 17003KT 7000 NSC 15/15 Q1009 R88/19//95
                        NOSIG=
201905242300 METAR LROP 242300Z 00000KT 7000 NSC 14/14 Q1009 R88/19//95
                        NOSIG=
201905242330 METAR LROP 242330Z 00000KT 7000 NSC 14/14 Q1009 R88/19//95
                        NOSIG=
201905250000 METAR LROP 250000Z 23003KT 5000 BR NSC 14/14 Q1009 R88/19//95
                        TEMPO 3000 BR=
201905250030 METAR LROP 250030Z 22002KT 5000 BR NSC 14/14 Q1009 R88/19//95
                        TEMPO 3000 BR=
201905250100 METAR LROP 250100Z 22006KT 5000 NSC 14/14 Q1009 R88/19//95
                        NOSIG=
201905250130 METAR COR LROP 250130Z 22004KT 5000 -SHRA BR SCT060CB 14/14
                        Q1009 R88/29//95 NOSIG=
201905250200 METAR LROP 250200Z VRB02KT 5000 -SHRA BR SCT060CB 14/14 Q1009
                        R88/29//95 NOSIG=
201905250230 METAR LROP 250230Z 24004KT 4000 -SHRA BR SCT060CB 14/14 Q1009
                        R88/29//95 TEMPO 3000 -SHRA=
201905250300 METAR LROP 250300Z 25003KT 4000 -SHRA BR SCT060CB 14/14 Q1009
                        R88/29//95 NOSIG=
201905250330 METAR LROP 250330Z 23004KT 5000 BR FEW060CB 14/14 Q1009 R88/29//95
                        NOSIG=
201905250400 METAR LROP 250400Z 25004KT 7000 NSC 14/14 Q1010 R88/29//95
                        NOSIG=
201905250430 METAR LROP 250430Z 25005KT 6000 NSC 14/14 Q1010 R88/29//95
                        NOSIG=
201905250500 METAR LROP 250500Z 24004KT 6000 OVC066 14/14 Q1010 R88/29//95
                        NOSIG=
201905250530 METAR LROP 250530Z 23003KT 8000 FEW004 15/15 Q1010 R88/29//95
                        NOSIG=
201905250600 METAR LROP 250600Z 24004KT 9000 FEW004 16/15 Q1010 R88/CLRD//
                        NOSIG=
201905250630 METAR LROP 250630Z 23005KT 9999 SCT004 17/16 Q1010 NOSIG=
201905250700 METAR LROP 250700Z 22006KT 180V250 9999 SCT005 18/16 Q1010
                        NOSIG=
201905250730 METAR LROP 250730Z 21005KT 190V250 9999 FEW005 18/15 Q1011
                        NOSIG=
201905250800 METAR LROP 250800Z 23005KT 9999 FEW009 19/16 Q1011 NOSIG=
201905250830 METAR LROP 250830Z 21006KT CAVOK 19/15 Q1011 NOSIG=
201905250900 METAR LROP 250900Z 21006KT 180V240 CAVOK 20/14 Q1011 NOSIG=
201905250930 METAR LROP 250930Z 23005KT 9999 FEW020 21/16 Q1011 NOSIG=
201905251000 METAR LROP 251000Z 20006KT 170V230 9999 FEW025 FEW030CB 22/15
                        Q1011 TEMPO 5000 -TSRA=
201905251030 METAR LROP 251030Z 20005KT 100V240 9999 FEW027 FEW030CB 22/15
                        Q1011 TEMPO 5000 -TSRA=
201905251100 METAR LROP 251100Z 28009KT 9999 SCT030 SCT035CB 23/18 Q1011
                        TEMPO 5000 -TSRA=
201905251130 METAR LROP 251130Z 27007KT 9999 SCT035 SCT040CB 22/14 Q1011
                        NOSIG=
201905251200 METAR LROP 251200Z 27005KT 230V290 9999 -SHRA FEW037 SCT040CB
                        22/15 Q1011 NOSIG=
201905251230 METAR LROP 251230Z 26005KT 9999 FEW040 SCT045CB 21/17 Q1011
                        NOSIG=
201905251300 METAR LROP 251300Z 24007KT 9999 FEW041 FEW045CB 23/15 Q1011
                        NOSIG=
201905251330 METAR LROP 251330Z 24011KT 9999 FEW037 FEW045CB 23/13 Q1011
                        NOSIG=
201905251400 METAR LROP 251400Z 25007KT 9999 FEW038 FEW045CB 24/15 Q1011
                        NOSIG=
201905251430 METAR LROP 251430Z 27008KT 240V310 9999 FEW040 FEW045CB 24/14
                        Q1011 NOSIG=
201905251500 METAR LROP 251500Z 29007KT 9999 FEW043 23/14 Q1010 NOSIG=
201905251530 METAR LROP 251530Z 30010KT CAVOK 23/14 Q1010 NOSIG=
201905251600 METAR LROP 251600Z 26009KT CAVOK 23/14 Q1010 NOSIG=
201905251630 METAR LROP 251630Z 27008KT CAVOK 22/14 Q1011 NOSIG=
201905251700 METAR LROP 251700Z 28009KT CAVOK 21/15 Q1011 NOSIG=
201905251730 METAR LROP 251730Z 29006KT CAVOK 19/15 Q1011 NOSIG=
201905251800 METAR LROP 251800Z 27005KT CAVOK 18/15 Q1012 NOSIG=
201905251830 METAR LROP 251830Z 27004KT CAVOK 16/15 Q1012 NOSIG=
201905251900 METAR LROP 251900Z 00000KT CAVOK 17/15 Q1012 NOSIG=
201905251930 METAR LROP 251930Z 26002KT CAVOK 17/15 Q1012 NOSIG=
201905252000 METAR LROP 252000Z 25003KT CAVOK 17/15 Q1012 NOSIG=
201905252030 METAR LROP 252030Z 26005KT CAVOK 17/15 Q1013 NOSIG=
201905252100 METAR LROP 252100Z 32003KT CAVOK 17/15 Q1013 NOSIG=
201905252130 METAR LROP 252130Z 27002KT CAVOK 16/15 Q1013 NOSIG=
201905252200 METAR LROP 252200Z 33001KT CAVOK 16/15 Q1013 NOSIG=
201905252230 METAR LROP 252230Z 34004KT CAVOK 18/12 Q1013 NOSIG=
201905252300 METAR LROP 252300Z 01004KT 270V040 CAVOK 17/12 Q1013 NOSIG=
201905252330 METAR LROP 252330Z 00000KT CAVOK 15/12 Q1013 NOSIG=
201905260000 METAR LROP 260000Z 27004KT CAVOK 15/12 Q1013 NOSIG=
201905260030 METAR LROP 260030Z VRB02KT CAVOK 14/13 Q1014 NOSIG=
201905260100 METAR LROP 260100Z 00000KT CAVOK 14/13 Q1014 NOSIG=
201905260130 METAR LROP 260130Z 00000KT CAVOK 13/12 Q1014 NOSIG=
201905260200 METAR LROP 260200Z 00000KT CAVOK 13/12 Q1014 NOSIG=
201905260230 METAR LROP 260230Z 00000KT CAVOK 12/12 Q1014 NOSIG=
201905260300 METAR LROP 260300Z VRB01KT CAVOK 12/12 Q1014 NOSIG=
201905260330 METAR LROP 260330Z 26003KT CAVOK 13/13 Q1014 NOSIG=
201905260400 METAR LROP 260400Z 00000KT CAVOK 15/14 Q1015 NOSIG=
201905260430 METAR LROP 260430Z 27004KT 250V320 CAVOK 16/14 Q1015 NOSIG=
201905260500 METAR LROP 260500Z VRB02KT CAVOK 18/15 Q1015 NOSIG=
201905260530 METAR LROP 260530Z VRB02KT CAVOK 20/15 Q1015 NOSIG=
201905260600 METAR LROP 260600Z VRB01KT CAVOK 21/14 Q1016 NOSIG=
201905260630 METAR LROP 260630Z VRB02KT CAVOK 22/13 Q1016 NOSIG=
201905260700 METAR LROP 260700Z 11003KT 070V190 CAVOK 22/14 Q1016 NOSIG=
201905260730 METAR LROP 260730Z 12003KT 060V190 CAVOK 23/14 Q1016 NOSIG=
201905260800 METAR LROP 260800Z 12005KT 070V160 CAVOK 23/15 Q1016 NOSIG=
201905260830 METAR LROP 260830Z 14005KT 100V200 9999 FEW041 24/13 Q1016
                        NOSIG=
201905260900 METAR LROP 260900Z 14005KT 090V230 9999 SCT044 24/14 Q1016
                        NOSIG=
201905260930 METAR LROP 260930Z 14005KT 090V240 CAVOK 25/13 Q1016 NOSIG=
201905261000 METAR COR LROP 261000Z 13004KT 090V190 CAVOK 24/14 Q1016
                        NOSIG=
201905261030 METAR LROP 261030Z 13004KT 090V190 CAVOK 24/14 Q1016 NOSIG=
201905261100 METAR LROP 261100Z 13006KT 100V180 CAVOK 26/15 Q1016 NOSIG=
201905261130 METAR LROP 261130Z VRB03KT CAVOK 25/13 Q1016 NOSIG=
201905261200 METAR LROP 261200Z VRB02KT CAVOK 26/13 Q1016 NOSIG=
201905261230 METAR LROP 261230Z 20003KT 170V260 CAVOK 26/15 Q1015 NOSIG=
201905261300 METAR LROP 261300Z 24008KT CAVOK 26/15 Q1015 NOSIG=
201905261330 METAR LROP 261330Z 22006KT 9999 FEW049 26/15 Q1015 NOSIG=
201905261400 METAR LROP 261400Z 23005KT CAVOK 26/17 Q1015 NOSIG=
201905261430 METAR LROP 261430Z 22005KT 200V260 CAVOK 26/14 Q1015 NOSIG=
201905261500 METAR LROP 261500Z 23007KT CAVOK 26/14 Q1015 NOSIG=
201905261530 METAR LROP 261530Z 23005KT CAVOK 26/14 Q1015 NOSIG=
201905261600 METAR LROP 261600Z 22005KT 190V250 CAVOK 26/15 Q1015 NOSIG=
201905261630 METAR LROP 261630Z 23005KT CAVOK 25/14 Q1015 NOSIG=
201905261700 METAR LROP 261700Z 23005KT CAVOK 24/15 Q1015 NOSIG=
201905261730 METAR LROP 261730Z 22004KT CAVOK 22/15 Q1015 NOSIG=
201905261800 METAR LROP 261800Z 21003KT CAVOK 21/15 Q1015 NOSIG=
201905261830 METAR LROP 261830Z 21003KT CAVOK 20/15 Q1015 NOSIG=
201905261900 METAR LROP 261900Z 00000KT CAVOK 20/16 Q1016 NOSIG=
201905261930 METAR LROP 261930Z VRB02KT CAVOK 19/16 Q1016 NOSIG=
201905262000 METAR LROP 262000Z 17001KT CAVOK 18/16 Q1016 NOSIG=
201905262030 METAR LROP 262030Z VRB02KT CAVOK 18/16 Q1016 NOSIG=
201905262100 METAR LROP 262100Z 00000KT CAVOK 17/16 Q1016 NOSIG=
201905262130 METAR LROP 262130Z 00000KT CAVOK 17/16 Q1016 NOSIG=
201905262200 METAR LROP 262200Z 00000KT CAVOK 17/16 Q1016 NOSIG=
201905262230 METAR LROP 262230Z 00000KT CAVOK 16/16 Q1016 NOSIG=
201905262300 METAR LROP 262300Z 00000KT CAVOK 16/15 Q1016 NOSIG=
201905262330 METAR LROP 262330Z 03004KT CAVOK 16/15 Q1016 NOSIG=
201905270000 METAR LROP 270000Z 07003KT CAVOK 16/15 Q1016 NOSIG=
201905270030 METAR LROP 270030Z VRB02KT CAVOK 15/15 Q1016 NOSIG=
201905270100 METAR LROP 270100Z 26002KT CAVOK 15/15 Q1016 NOSIG=
201905270130 METAR LROP 270130Z 29003KT CAVOK 14/14 Q1016 NOSIG=
201905270200 METAR LROP 270200Z 30002KT CAVOK 14/14 Q1016 NOSIG=
201905270230 METAR LROP 270230Z VRB01KT CAVOK 14/14 Q1016 NOSIG=
201905270300 METAR LROP 270300Z 01003KT 340V050 CAVOK 14/14 Q1015 NOSIG=
201905270330 METAR LROP 270330Z 04005KT CAVOK 16/14 Q1015 NOSIG=
201905270400 METAR LROP 270400Z 03004KT CAVOK 16/15 Q1015 NOSIG=
201905270430 METAR COR LROP 270430Z 06003KT 030V100 CAVOK 18/15 Q1015
                        NOSIG=
201905270500 METAR LROP 270500Z 08004KT 050V110 CAVOK 18/16 Q1016 NOSIG=
201905270530 METAR LROP 270530Z 05006KT CAVOK 20/17 Q1016 NOSIG=
201905270600 METAR LROP 270600Z 05006KT CAVOK 21/17 Q1016=
201905270630 METAR LROP 270630Z 07007KT CAVOK 22/18 Q1016 NOSIG=
201905270700 METAR LROP 270700Z 07006KT CAVOK 23/17 Q1016 NOSIG=
201905270730 METAR LROP 270730Z 08007KT 050V110 CAVOK 24/18 Q1016 NOSIG=
201905270800 METAR LROP 270800Z 10007KT CAVOK 25/17 Q1016 NOSIG=
201905270830 METAR LROP 270830Z 09006KT 050V110 CAVOK 25/17 Q1016 NOSIG=
201905270900 METAR LROP 270900Z 10008KT CAVOK 26/16 Q1016 NOSIG=
201905270930 METAR LROP 270930Z 12008KT 9999 FEW045 27/15 Q1016 NOSIG=
201905271000 METAR LROP 271000Z 13008KT 090V170 CAVOK 27/14 Q1016 NOSIG=
201905271030 METAR LROP 271030Z 14009KT CAVOK 27/14 Q1016 NOSIG=
201905271100 METAR LROP 271100Z 11009KT 090V150 CAVOK 27/16 Q1016 NOSIG=
201905271130 METAR LROP 271130Z 12008KT CAVOK 28/16 Q1015 NOSIG=
201905271200 METAR LROP 271200Z 13007KT 9999 FEW050TCU 27/16 Q1015 NOSIG=
201905271230 METAR LROP 271230Z 13008KT 100V160 CAVOK 27/15 Q1015 NOSIG=
201905271300 METAR LROP 271300Z 13007KT CAVOK 27/14 Q1015 NOSIG=
201905271330 METAR LROP 271330Z 11008KT CAVOK 27/14 Q1015 NOSIG=
201905271400 METAR LROP 271400Z 12007KT CAVOK 26/15 Q1014 NOSIG=
201905271430 METAR LROP 271430Z 11007KT CAVOK 27/16 Q1014 NOSIG=
201905271500 METAR LROP 271500Z 09006KT CAVOK 26/15 Q1014 NOSIG=
201905271530 METAR LROP 271530Z 10005KT CAVOK 26/17 Q1014 NOSIG=
201905271600 METAR LROP 271600Z 11005KT CAVOK 26/17 Q1014 NOSIG=
201905271630 METAR LROP 271630Z 14006KT CAVOK 25/16 Q1014 NOSIG=
201905271700 METAR LROP 271700Z 14006KT CAVOK 24/16 Q1014 NOSIG=
201905271730 METAR LROP 271730Z 12005KT CAVOK 23/17 Q1014 NOSIG=
201905271800 METAR LROP 271800Z 13007KT CAVOK 22/17 Q1014 NOSIG=
201905271830 METAR LROP 271830Z 14007KT CAVOK 22/16 Q1014 NOSIG=
201905271900 METAR LROP 271900Z 13006KT CAVOK 21/16 Q1014 NOSIG=
201905271930 METAR LROP 271930Z 14007KT CAVOK 21/15 Q1015 NOSIG=
201905272000 METAR LROP 272000Z 12007KT CAVOK 20/16 Q1014 NOSIG=
201905272030 METAR LROP 272030Z 12006KT CAVOK 20/14 Q1014 NOSIG=
201905272100 METAR LROP 272100Z 11006KT CAVOK 19/13 Q1014 NOSIG=
201905272130 METAR LROP 272130Z 08005KT CAVOK 16/14 Q1014 NOSIG=
201905272200 METAR LROP 272200Z 09005KT CAVOK 15/13 Q1014 NOSIG=
201905272230 METAR LROP 272230Z 08007KT CAVOK 15/13 Q1014 NOSIG=
201905272300 METAR LROP 272300Z 08008KT CAVOK 14/13 Q1014 NOSIG=
201905272330 METAR LROP 272330Z 08007KT CAVOK 14/13 Q1014 NOSIG=
201905280000 METAR LROP 280000Z 04005KT CAVOK 14/13 Q1014 NOSIG=
201905280030 METAR LROP 280030Z 05008KT CAVOK 14/13 Q1014 NOSIG=
201905280100 METAR LROP 280100Z 05008KT CAVOK 14/13 Q1013 NOSIG=
201905280130 METAR LROP 280130Z 05009KT CAVOK 14/13 Q1013 NOSIG=
201905280200 METAR LROP 280200Z 05008KT CAVOK 14/13 Q1013 NOSIG=
201905280230 METAR LROP 280230Z 05007KT CAVOK 13/13 Q1013 NOSIG=
201905280300 METAR LROP 280300Z 04007KT CAVOK 13/13 Q1013 NOSIG=
201905280330 METAR LROP 280330Z 05007KT CAVOK 14/13 Q1013 NOSIG=
201905280400 METAR LROP 280400Z 06008KT CAVOK 15/14 Q1013 NOSIG=
201905280430 METAR LROP 280430Z 07010KT CAVOK 16/14 Q1013 NOSIG=
201905280500 METAR LROP 280500Z 07010KT CAVOK 17/15 Q1013 NOSIG=
201905280530 METAR LROP 280530Z 07011KT CAVOK 17/15 Q1013 NOSIG=
201905280600 METAR LROP 280600Z 07011KT 9999 -SHRA FEW040CB 17/15 Q1013
                        NOSIG=
201905280630 METAR LROP 280630Z 07010KT 9999 FEW050CB 19/15 Q1013 NOSIG=
201905280700 METAR LROP 280700Z 08011KT CAVOK 21/16 Q1013 NOSIG=
201905280730 METAR LROP 280730Z 07012KT CAVOK 21/15 Q1013 NOSIG=
201905280800 METAR LROP 280800Z 08014KT CAVOK 23/16 Q1012 NOSIG=
201905280830 METAR LROP 280830Z 08013KT CAVOK 23/16 Q1012 NOSIG=
201905280900 METAR LROP 280900Z 07015KT CAVOK 24/16 Q1011 NOSIG=
201905280930 METAR LROP 280930Z 08016KT CAVOK 24/16 Q1012 NOSIG=
201905281000 METAR LROP 281000Z 10013KT CAVOK 25/16 Q1011 NOSIG=
201905281030 METAR LROP 281030Z 10014KT CAVOK 26/16 Q1011 NOSIG=
201905281100 METAR LROP 281100Z 10014KT CAVOK 26/16 Q1010 NOSIG=
201905281130 METAR LROP 281130Z 10012KT CAVOK 27/16 Q1010 NOSIG=
201905281200 METAR LROP 281200Z 09013KT CAVOK 28/17 Q1010 NOSIG=
201905281230 METAR LROP 281230Z 10012KT CAVOK 28/16 Q1009 NOSIG=
201905281300 METAR LROP 281300Z 09010KT CAVOK 28/18 Q1009 NOSIG=
201905281330 METAR LROP 281330Z 10010KT CAVOK 29/17 Q1008 NOSIG=
201905281400 METAR LROP 281400Z 11012KT CAVOK 29/14 Q1008 NOSIG=
201905281430 METAR LROP 281430Z 13009KT CAVOK 28/15 Q1008 NOSIG=
201905281500 METAR LROP 281500Z 12010KT CAVOK 28/15 Q1007 NOSIG=
201905281530 METAR LROP 281530Z 09010KT CAVOK 28/17 Q1007 NOSIG=
201905281600 METAR LROP 281600Z 09009KT CAVOK 27/16 Q1007 NOSIG=
201905281630 METAR LROP 281630Z 06010KT CAVOK 26/17 Q1007 NOSIG=
201905281700 METAR LROP 281700Z 08011KT CAVOK 25/17 Q1007 NOSIG=
201905281730 METAR LROP 281730Z 07008KT CAVOK 23/17 Q1007 NOSIG=
201905281800 METAR LROP 281800Z 08009KT CAVOK 22/19 Q1007 NOSIG=
201905281830 METAR LROP 281830Z 08007KT CAVOK 21/18 Q1007 NOSIG=
201905281900 METAR LROP 281900Z 09008KT CAVOK 21/18 Q1007 NOSIG=
201905281930 METAR LROP 281930Z 05009KT CAVOK 20/18 Q1007 NOSIG=
201905282000 METAR LROP 282000Z 05009KT CAVOK 20/17 Q1007 NOSIG=
201905282030 METAR LROP 282030Z 07009KT CAVOK 19/17 Q1007 NOSIG=
201905282100 METAR LROP 282100Z 06010KT CAVOK 19/17 Q1007 NOSIG=
201905282130 METAR LROP 282130Z 06010KT CAVOK 18/17 Q1007 NOSIG=
201905282200 METAR LROP 282200Z 07008KT CAVOK 18/16 Q1007 NOSIG=
201905282230 METAR LROP 282230Z 05008KT CAVOK 17/16 Q1007 NOSIG=
201905282300 METAR LROP 282300Z 05008KT CAVOK 17/16 Q1007 NOSIG=
201905282330 METAR LROP 282330Z 04010KT CAVOK 17/16 Q1007 NOSIG=
201905290000 METAR LROP 290000Z 04009KT 7000 NSC 16/16 Q1007 NOSIG=
201905290030 METAR LROP 290030Z 03009KT 6000 SCT005 16/16 Q1008 TEMPO
                        5000 BR BKN005=
201905290100 METAR LROP 290100Z 02009KT 6000 BKN005 16/16 Q1008 TEMPO
                        5000 BR=
201905290130 METAR LROP 290130Z 03009KT 6000 BKN005 16/16 Q1008 TEMPO
                        5000 BR=
201905290200 METAR LROP 290200Z 04007KT 5000 BR SCT005 16/16 Q1008 NOSIG=
201905290230 METAR LROP 290230Z 08005KT 4000 BR FEW005 16/16 Q1008 TEMPO
                        3000 BR=
201905290300 METAR LROP 290300Z 06006KT 4000 BR NSC 15/15 Q1008 TEMPO
                        3000 BR=
201905290330 METAR LROP 290330Z 00000KT 5000 BR NSC 16/16 Q1009 NOSIG=
201905290400 METAR LROP 290400Z VRB01KT 5000 BR NSC 17/16 Q1009 NOSIG=
201905290430 METAR COR LROP 290430Z 01004KT 340V050 8000 SCT005 18/16
                        Q1009 NOSIG=
201905290500 METAR LROP 290500Z 03005KT 350V060 6000 BKN006 17/16 Q1009
                        NOSIG=
201905290530 METAR LROP 290530Z 05004KT 010V070 6000 BKN006 18/17 Q1010
                        BECMG SCT010=
201905290600 METAR LROP 290600Z VRB02KT 8000 BKN005 18/16 Q1010 BECMG
                        SCT010=
201905290630 METAR LROP 290630Z VRB02KT 9999 BKN008 19/17 Q1011 BECMG
                        SCT010=
201905290700 METAR LROP 290700Z VRB04KT 9999 BKN012 20/17 Q1011 BECMG
                        SCT015=
201905290730 METAR LROP 290730Z VRB02KT 9999 BKN013 21/18 Q1011 BECMG
                        SCT015=
201905290800 METAR LROP 290800Z 29003KT 210V020 9999 FEW017 22/18 Q1011
                        NOSIG=
201905290830 METAR LROP 290830Z 26004KT 200V350 9999 FEW019 23/18 Q1011
                        NOSIG=
201905290900 METAR LROP 290900Z 20003KT 120V290 9999 FEW020 24/18 Q1011
                        NOSIG=
201905290930 METAR LROP 290930Z 23005KT 170V270 9999 SCT020 24/19 Q1011
                        NOSIG=
201905291000 METAR LROP 291000Z 24008KT 220V280 9999 SCT027 26/17 Q1011
                        NOSIG=
201905291030 METAR LROP 291030Z 25008KT 220V280 9999 SCT032 26/17 Q1011
                        NOSIG=
201905291100 METAR LROP 291100Z 25009KT 220V280 9999 SCT037 26/19 Q1011
                        NOSIG=
201905291130 METAR LROP 291130Z 24009KT 200V260 9999 SCT039 27/17 Q1011
                        NOSIG=
201905291200 METAR LROP 291200Z 27009KT 9999 FEW044 27/18 Q1010 NOSIG=
201905291230 METAR LROP 291230Z 27008KT 230V290 CAVOK 27/17 Q1010 NOSIG=
201905291300 METAR LROP 291300Z 24008KT 210V270 CAVOK 27/16 Q1010 NOSIG=
201905291330 METAR LROP 291330Z 26009KT CAVOK 27/16 Q1010 NOSIG=
201905291400 METAR LROP 291400Z 26006KT 220V300 CAVOK 28/18 Q1010 NOSIG=
201905291430 METAR LROP 291430Z 26007KT 220V300 CAVOK 28/16 Q1010 NOSIG=
201905291500 METAR LROP 291500Z 26004KT 220V310 CAVOK 28/17 Q1010 NOSIG=
201905291530 METAR LROP 291530Z 24004KT CAVOK 28/16 Q1010 NOSIG=
201905291600 METAR LROP 291600Z 25004KT CAVOK 28/15 Q1010 NOSIG=
201905291630 METAR LROP 291630Z 23003KT CAVOK 26/18 Q1010 NOSIG=
201905291700 METAR LROP 291700Z 24006KT CAVOK 25/18 Q1010 NOSIG=
201905291730 METAR LROP 291730Z 22004KT CAVOK 23/18 Q1011 NOSIG=
201905291800 METAR LROP 291800Z 20004KT CAVOK 22/16 Q1011 NOSIG=
201905291830 METAR LROP 291830Z 19003KT CAVOK 22/16 Q1011 NOSIG=
201905291900 METAR LROP 291900Z 00000KT CAVOK 22/16 Q1011 NOSIG=
201905291930 METAR LROP 291930Z 20004KT CAVOK 21/17 Q1012 NOSIG=
201905292000 METAR LROP 292000Z 11002KT 9999 FEW050CB 21/17 Q1012 TEMPO
                        5000 -SHRA=
201905292030 METAR LROP 292030Z 00000KT 9999 -SHRA FEW050CB 22/18 Q1012
                        TEMPO 5000 -SHRA=
201905292100 METAR LROP 292100Z 26014KT 8000 -SHRA FEW014 SCT036CB 19/18
                        Q1013 RESHRA R88/29//95 NOSIG=
201905292130 METAR LROP 292130Z 33005KT 9999 FEW012 SCT033CB 19/17 Q1012
                        R88/29//95 NOSIG=
201905292200 METAR LROP 292200Z 02004KT 340V060 9999 SCT050CB 19/17 Q1012
                        R88/29//95 TEMPO 5000 TSRA=
201905292230 METAR LROP 292230Z 30006KT 9999 TS SCT050CB 19/18 Q1012 R88/29//95
                        TEMPO 5000 TSRA=
201905292300 METAR LROP 292300Z 27007KT 230V290 7000 TSRA FEW015 BKN045CB
                        18/18 Q1014 R88/29//95 TEMPO 3000
                        TSRA BKN010 BKN040CB=
201905292330 METAR LROP 292330Z 25011KT 220V280 8000 TSRA BKN047CB 18/17
                        Q1014 R88/29//95 NOSIG=
201905300000 METAR LROP 300000Z 26014KT 7000 TSRA FEW013 BKN047CB 18/18
                        Q1015 RETSRA R88/29//95 NOSIG=
201905300030 METAR LROP 300030Z 25006KT 7000 TSRA FEW011 BKN045CB 18/18
                        Q1015 R88/29//95 NOSIG=
201905300100 METAR LROP 300100Z 27003KT 220V340 9999 -TSRA FEW007 SCT045CB
                        18/18 Q1014 RETSRA R88/29//95 NOSIG=
201905300130 METAR COR LROP 300130Z 31006KT 280V340 9999 -TSRA FEW050CB
                        18/18 Q1014 R88/29//95 NOSIG=
201905300200 METAR LROP 300200Z 33005KT 9999 FEW050CB 18/18 Q1014 R88/29//95
                        NOSIG=
201905300230 METAR LROP 300230Z 33005KT 9999 FEW050CB 18/17 Q1014 R88/29//95
                        NOSIG=
201905300300 METAR LROP 300300Z 35004KT 9999 FEW050CB 18/18 Q1014 R88/29//95
                        NOSIG=
201905300330 METAR LROP 300330Z 12004KT 9999 FEW050CB 18/18 Q1014 R88/29//95
                        NOSIG=
201905300400 METAR LROP 300400Z 24005KT 100V260 9999 -SHRA FEW050CB 18/18
                        Q1015 R88/29//95 NOSIG=
201905300430 METAR LROP 300430Z 26008KT 9999 FEW050CB 18/18 Q1015 R88/29//95
                        BECMG NSC=
201905300500 METAR LROP 300500Z 26007KT CAVOK 19/18 Q1015 R88/29//95 NOSIG=
201905300530 METAR LROP 300530Z 30004KT CAVOK 19/19 Q1015 R88/29//95 NOSIG=
201905300600 METAR LROP 300600Z 28005KT CAVOK 22/20 Q1016 R26L/29//95
                        R26R/CLRD// NOSIG=
201905300630 METAR COR LROP 300630Z 25004KT 220V290 9999 FEW010 22/19
                        Q1016 R26L/29//95 R26R/CLRD// NOSIG=
201905300700 METAR LROP 300700Z 25005KT 230V290 9999 FEW012 22/20 Q1016
                        R26L/29//95 R26R/CLRD// NOSIG=
201905300730 METAR COR LROP 300730Z 30003KT 250V350 9999 FEW016 23/19
                        Q1016 R26L/CLRD// NOSIG=
201905300800 METAR LROP 300800Z VRB01KT 9999 FEW020 23/18 Q1016 R26L/CLRD//
                        NOSIG=
201905300830 METAR LROP 300830Z 26003KT 220V300 9999 FEW030 24/15 Q1016
                        NOSIG=
201905300900 METAR LROP 300900Z VRB03KT 9999 SCT038 25/18 Q1016 NOSIG=
201905300930 METAR LROP 300930Z 23005KT 160V280 9999 SCT034 26/16 Q1016
                        NOSIG=
201905301000 METAR LROP 301000Z 25004KT 190V330 9999 SCT035 26/17 Q1016
                        NOSIG=
201905301030 METAR LROP 301030Z 25005KT 210V280 9999 SCT038 25/18 Q1016
                        NOSIG=
201905301100 METAR LROP 301100Z 29006KT 250V320 9999 SCT039 25/17 Q1016
                        NOSIG=
201905301130 METAR LROP 301130Z 25006KT 9999 FEW045 26/18 Q1016 NOSIG=
201905301200 METAR LROP 301200Z 24007KT 160V300 9999 SCT043 27/17 Q1016
                        NOSIG=
201905301230 METAR LROP 301230Z 25007KT 210V300 9999 SCT042 27/15 Q1016
                        NOSIG=
201905301300 METAR LROP 301300Z 28009KT 9999 FEW041 27/17 Q1016 NOSIG=
201905301330 METAR LROP 301330Z 26009KT 230V290 CAVOK 27/17 Q1016 NOSIG=
201905301400 METAR LROP 301400Z 26007KT 230V300 CAVOK 27/15 Q1016 NOSIG=
201905301430 METAR LROP 301430Z 26008KT CAVOK 27/16 Q1016 NOSIG=
201905301500 METAR LROP 301500Z 27009KT 240V300 CAVOK 27/15 Q1016 NOSIG=
201905301530 METAR LROP 301530Z 26006KT CAVOK 27/18 Q1016 NOSIG=
201905301600 METAR LROP 301600Z 24007KT CAVOK 26/17 Q1016 NOSIG=
201905301630 METAR LROP 301630Z 25007KT CAVOK 25/15 Q1016 NOSIG=
201905301700 METAR LROP 301700Z 25006KT CAVOK 25/18 Q1015 NOSIG=
201905301730 METAR LROP 301730Z 24005KT CAVOK 22/17 Q1016 NOSIG=
201905301800 METAR LROP 301800Z 22005KT CAVOK 22/18 Q1016 NOSIG=
201905301830 METAR LROP 301830Z 22005KT CAVOK 21/17 Q1016 NOSIG=
201905301900 METAR LROP 301900Z 23005KT CAVOK 20/17 Q1016 NOSIG=
201905301930 METAR LROP 301930Z 23005KT CAVOK 20/17 Q1016 NOSIG=
201905302000 METAR LROP 302000Z 24006KT CAVOK 19/16 Q1016 NOSIG=
201905302030 METAR LROP 302030Z 24006KT CAVOK 18/16 Q1016 NOSIG=
201905302100 METAR LROP 302100Z 25006KT CAVOK 18/16 Q1017 NOSIG=
201905302130 METAR LROP 302130Z 24007KT CAVOK 18/16 Q1017 NOSIG=
201905302200 METAR LROP 302200Z 25006KT CAVOK 19/16 Q1016 NOSIG=
201905302230 METAR LROP 302230Z 36003KT 330V040 CAVOK 18/16 Q1016 NOSIG=
201905302300 METAR LROP 302300Z 31004KT CAVOK 17/16 Q1016 NOSIG=
201905302330 METAR LROP 302330Z VRB01KT CAVOK 17/16 Q1017 NOSIG=
201905310000 METAR LROP 310000Z 00000KT CAVOK 17/16 Q1017 NOSIG=
201905310030 METAR LROP 310030Z 00000KT CAVOK 17/16 Q1017 NOSIG=
201905310100 METAR LROP 310100Z 25004KT CAVOK 16/16 Q1017 NOSIG=
201905310130 METAR LROP 310130Z 23005KT CAVOK 16/16 Q1017 NOSIG=
201905310200 METAR LROP 310200Z 24003KT CAVOK 17/16 Q1017 NOSIG=
201905310230 METAR LROP 310230Z VRB01KT 9999 SCT027 17/16 Q1017 NOSIG=
201905310300 METAR LROP 310300Z VRB01KT 9999 FEW028 17/16 Q1017 NOSIG=
201905310330 METAR LROP 310330Z 15003KT 9999 FEW028 17/16 Q1017 NOSIG=
201905310400 METAR LROP 310400Z 00000KT CAVOK 18/17 Q1018 TEMPO 5000 -SHRA
                        SCT040CB=
201905310430 METAR LROP 310430Z VRB02KT CAVOK 19/17 Q1018 NOSIG=
201905310500 METAR LROP 310500Z 14004KT CAVOK 20/17 Q1018 NOSIG=
201905310530 METAR LROP 310530Z 12006KT CAVOK 20/17 Q1018 NOSIG=
201905310600 METAR LROP 310600Z 11004KT 070V140 CAVOK 21/18 Q1018 NOSIG=
201905310630 METAR LROP 310630Z 12006KT 9999 SCT016 SCT042 21/17 Q1018
                        NOSIG=
201905310700 METAR LROP 310700Z 12006KT 9999 SCT017 BKN042 20/17 Q1018
                        NOSIG=
201905310730 METAR LROP 310730Z 12006KT 090V150 9999 SCT017 BKN043 21/17
                        Q1018 NOSIG=
201905310800 METAR LROP 310800Z 13005KT 090V160 9999 SCT018 BKN045 21/18
                        Q1018 NOSIG=
201905310830 METAR COR LROP 310830Z 16005KT 100V200 9999 SCT019 BKN045
                        22/17 Q1018 NOSIG=
201905310900 METAR LROP 310900Z 11003KT 050V150 9999 SCT022 BKN046 23/17
                        Q1018 NOSIG=
201905310930 METAR LROP 310930Z 13005KT 9999 FEW020TCU BKN022 BKN030 23/18
                        Q1018 NOSIG=
201905311000 METAR LROP 311000Z 12004KT 050V190 9999 SCT025TCU BKN027
                        23/17 Q1018 TEMPO SCT025CB BKN030=
201905311030 METAR LROP 311030Z 14006KT 9999 SCT025TCU BKN030 23/18 Q1018
                        TEMPO SCT025CB BKN030=
201905311100 METAR LROP 311100Z 17006KT 110V210 9999 SCT025TCU BKN036
                        23/18 Q1018 NOSIG=
201905311130 METAR LROP 311130Z 20005KT 140V230 9999 SCT025TCU BKN030
                        25/18 Q1017 NOSIG=
201905311200 METAR LROP 311200Z VRB03KT 9999 SCT025TCU BKN030 24/18 Q1017
                        NOSIG=
201905311230 METAR LROP 311230Z 18006KT 140V210 9999 SCT025TCU BKN029
                        25/18 Q1016 NOSIG=
201905311300 METAR LROP 311300Z VRB02KT 9999 VCTS SCT025CB SCT030 24/17
                        Q1016 NOSIG=
201905311330 METAR COR LROP 311330Z VRB01KT 9999 VCTS SCT025CB SCT040
                        24/19 Q1016 NOSIG=
201905311400 METAR LROP 311400Z 21005KT 180V250 9999 FEW030CB BKN035 25/18
                        Q1015 NOSIG=
201905311430 METAR LROP 311430Z 14002KT 9999 SCT030CB BKN039 25/18 Q1015
                        TEMPO TS=
201905311500 METAR LROP 311500Z 01011KT 9999 TS BKN024CB OVC030 21/17
                        Q1016 TEMPO VRB15G25KT 5000 TSRA=
201905311530 METAR LROP 311530Z 03008KT 350V060 1500 +TSRA OVC023CB 19/18
                        Q1016 R88/29//95 TEMPO 0800 +TSRAGR=
201905311600 METAR LROP 311600Z 01008KT 290V050 5000 1500NE R08R/P2000
                        R26L/0900 R08L/P2000 R26R/1400 +TSRA
                        BKN008 OVC023CB 18/18 Q1016 R88/29//95
                        NOSIG=
201905311630 METAR LROP 311630Z 02011KT 1500 +TSRA SCT006 OVC031CB 18/18
                        Q1016 R88/29//95 BECMG 3000 TSRA=
201905311700 METAR LROP 311700Z 35009KT 2300 +SHRA VCTS FEW006 FEW027
                        OVC035CB 17/17 Q1016 R88/29//95 BECMG
                        5000=
201905311730 METAR COR LROP 311730Z 01007KT 3000 +SHRA VCTS SCT014 BKN035CB
                        OVC046 18/17 Q1017 RESH R88/29//95
                        BECMG 5000=
201905311800 METAR LROP 311800Z 32004KT 300V360 7000 -SHRA VCTS FEW039
                        SCT041CB 17/17 Q1017 RESH R88/29//95
                        NOSIG=
201905311830 METAR LROP 311830Z 01007KT 9000 FEW050CB 18/17 Q1016 R88/29//95
                        NOSIG=
201905311900 METAR LROP 311900Z 03004KT 9000 SCT004 FEW050CB 17/17 Q1017
                        R88/29//95 NOSIG=
201905311930 METAR LROP 311930Z 03005KT 7000 SHRA SCT004 SCT049CB 18/17
                        Q1016 R88/29//95 TEMPO 5000 TSRA=
201905312000 METAR LROP 312000Z VRB03KT 8000 SHRA FEW007 SCT049CB 17/17
                        Q1017 R88/29//95 TEMPO 5000 TSRA=
201905312030 METAR LROP 312030Z 20006KT 6000 TSRA SCT005 SCT041CB 17/17
                        Q1017 R88/29//95 TEMPO 5000 TSRA=
201905312100 METAR LROP 312100Z 21006KT 6000 TSRA SCT007 SCT019 SCT045CB
                        17/17 Q1018 R88/29//95 TEMPO 5000
                        TSRA=
201905312130 METAR LROP 312130Z 21010KT 7000 +TSRA FEW003 BKN028 SCT045CB
                        16/16 Q1018 R88/29//95 TEMPO 5000
                        TSRA=
201905312200 METAR LROP 312200Z 17003KT 3000 +TSRA FEW015 SCT020 BKN040CB
                        16/16 Q1018 R88/29//95 TEMPO 1500
                        TSRA=
201905312230 METAR LROP 312230Z 02007KT 3000 +TSRA BKN005 BKN030CB 16/16
                        Q1017 R88/29//95 BECMG 5000 -TSRA=
201905312300 METAR LROP 312300Z 03005KT 360V080 3000 TSRA SCT003 BKN050CB
                        16/16 Q1016 RETS R88/29//95 BECMG
                        7000 -TSRA=
201905312330 METAR COR LROP 312330Z 01006KT 340V050 8000 RA SCT003 SCT030
                        16/16 Q1016 RETS R88/29//95 NOSIG=