201906010000 METAR LROP 010000Z 14004KT 9999 -RA FEW005 SCT035 16/16 Q1016
                        RERA R88/29//95 NOSIG=
201906010030 METAR COR LROP 010030Z 24003KT 9999 BKN004 BKN041 16/16 Q1016
                        R88/29//95 NOSIG=
201906010100 METAR LROP 010100Z 29004KT 250V320 8000 BKN004 16/16 Q1015
                        R88/29//95 NOSIG=
201906010130 METAR LROP 010130Z 26004KT 9999 BKN006 16/16 Q1016 R88/29//95
                        NOSIG=
201906010200 METAR LROP 010200Z 23004KT 9999 BKN008 OVC032 16/16 Q1016
                        R88/29//95 NOSIG=
201906010230 METAR LROP 010230Z 16001KT 9999 BKN015 OVC033 16/16 Q1016
                        R88/29//95 NOSIG=
201906010300 METAR LROP 010300Z 00000KT 9999 BKN015 BKN021 FEW050CB 16/16
                        Q1016 R88/29//95 NOSIG=
201906010330 METAR LROP 010330Z 09003KT 9999 FEW015 BKN021 FEW050CB 17/17
                        Q1016 R88/29//95 NOSIG=
201906010400 METAR LROP 010400Z 13002KT 9999 SCT010 OVC017 17/17 Q1016
                        R88/29//95 NOSIG=
201906010430 METAR LROP 010430Z 23004KT 9999 FEW003 BKN016 BKN040 17/17
                        Q1016 R88/29//95 NOSIG=
201906010500 METAR LROP 010500Z 20003KT 9999 FEW004 SCT013 OVC031 17/17
                        Q1016 R88/29//95 NOSIG=
201906010530 METAR LROP 010530Z 21003KT 9999 BKN005 BKN030 18/17 Q1017
                        R88/29//95 NOSIG=
201906010600 METAR LROP 010600Z 24005KT 9999 BKN006 BKN012 18/18 Q1017
                        R88/29//95 NOSIG=
201906010630 METAR LROP 010630Z 23007KT 9999 SCT006 BKN013 18/17 Q1017
                        R88/29//95 NOSIG=
201906010700 METAR LROP 010700Z 24006KT 210V270 9999 BKN009 BKN018 19/17
                        Q1017 R88/29//95 NOSIG=
201906010730 METAR LROP 010730Z 26005KT 210V310 9999 BKN010 BKN041 20/17
                        Q1017 R08L/CLRD// BECMG SCT015 BKN040=
201906010800 METAR LROP 010800Z 24006KT 210V270 9999 BKN012 BKN041 20/18
                        Q1017 BECMG SCT015 BKN040=
201906010830 METAR LROP 010830Z 27004KT 240V310 9999 BKN015 BKN026 21/17
                        Q1017 BECMG SCT015 BKN040=
201906010900 METAR LROP 010900Z 27004KT 220V320 9999 FEW018 BKN020 21/18
                        Q1017 BECMG SCT015 BKN040=
201906010930 METAR LROP 010930Z VRB02KT 9999 FEW019 SCT021 BKN032 22/18
                        Q1017 BECMG SCT015 BKN040=
201906011000 METAR LROP 011000Z VRB02KT 9999 SCT023 BKN032 22/17 Q1017
                        NOSIG=
201906011030 METAR LROP 011030Z VRB02KT 9999 SCT024 BKN032 22/17 Q1017
                        NOSIG=
201906011100 METAR LROP 011100Z VRB02KT 9999 SCT023 SCT031 22/16 Q1017
                        NOSIG=
201906011130 METAR LROP 011130Z VRB03KT 9999 FEW023 SCT036 24/18 Q1017
                        NOSIG=
201906011200 METAR LROP 011200Z VRB01KT 9999 BKN025 24/18 Q1016 NOSIG=
201906011230 METAR LROP 011230Z 09003KT 020V130 9999 BKN028 24/17 Q1016
                        NOSIG=
201906011300 METAR LROP 011300Z VRB01KT 9999 BKN030 25/17 Q1016 NOSIG=
201906011330 METAR LROP 011330Z 09004KT 9999 SCT032 25/17 Q1016 NOSIG=
201906011400 METAR LROP 011400Z VRB03KT 9999 SCT034 25/16 Q1016 NOSIG=
201906011430 METAR LROP 011430Z VRB02KT 9999 BKN032 25/17 Q1015 NOSIG=
201906011500 METAR LROP 011500Z 25005KT 190V280 9999 FEW033 BKN040 25/17
                        Q1015 NOSIG=
201906011530 METAR LROP 011530Z 24006KT 210V270 9999 FEW032 BKN041 24/18
                        Q1015 NOSIG=
201906011600 METAR LROP 011600Z 23006KT 9999 FEW030 SCT035 25/19 Q1015
                        NOSIG=
201906011630 METAR LROP 011630Z 25007KT 9999 FEW042 23/17 Q1015 NOSIG=
201906011700 METAR LROP 011700Z 25006KT 9999 SCT033 23/17 Q1015 NOSIG=
201906011730 METAR LROP 011730Z 25005KT 9999 FEW034 21/18 Q1015 NOSIG=
201906011800 METAR LROP 011800Z 25006KT 9999 FEW038 20/18 Q1015 NOSIG=
201906011830 METAR LROP 011830Z 25006KT CAVOK 19/18 Q1016 NOSIG=
201906011900 METAR LROP 011900Z 24004KT CAVOK 18/18 Q1016 NOSIG=
201906011930 METAR LROP 011930Z 26004KT CAVOK 18/17 Q1016 NOSIG=
201906012000 METAR LROP 012000Z 27004KT CAVOK 18/17 Q1016 NOSIG=
201906012030 METAR LROP 012030Z 29003KT CAVOK 18/17 Q1016 NOSIG=
201906012100 METAR LROP 012100Z 29003KT CAVOK 17/17 Q1016 NOSIG=
201906012130 METAR LROP 012130Z VRB02KT 9999 BKN031 18/17 Q1017 NOSIG=
201906012200 METAR LROP 012200Z 12003KT 9999 BKN031 18/17 Q1017 NOSIG=
201906012230 METAR LROP 012230Z 10003KT 070V140 9999 FEW031 17/17 Q1017
                        NOSIG=
201906012300 METAR LROP 012300Z 09003KT 9999 FEW031 17/16 Q1016 NOSIG=
201906012330 METAR LROP 012330Z 08004KT 9999 FEW034 17/16 Q1016 NOSIG=
201906020000 METAR LROP 020000Z 15001KT CAVOK 16/16 Q1016 NOSIG=
201906020030 METAR LROP 020030Z 00000KT CAVOK 16/16 Q1016 NOSIG=
201906020100 METAR LROP 020100Z 21003KT 170V260 9999 SCT035 16/16 Q1016
                        NOSIG=
201906020130 METAR LROP 020130Z 00000KT 9999 BKN035 16/16 Q1016 NOSIG=
201906020200 METAR LROP 020200Z 15001KT 9999 BKN041 16/16 Q1017 NOSIG=
201906020230 METAR LROP 020230Z 16002KT 9999 BKN040 16/16 Q1017 NOSIG=
201906020300 METAR LROP 020300Z 00000KT 9999 BKN041 16/16 Q1016 NOSIG=
201906020330 METAR LROP 020330Z 16002KT 9999 FEW039 17/16 Q1016 NOSIG=
201906020400 METAR LROP 020400Z 03003KT CAVOK 18/16 Q1017 NOSIG=
201906020430 METAR LROP 020430Z VRB02KT CAVOK 18/16 Q1017 NOSIG=
201906020500 METAR LROP 020500Z VRB02KT CAVOK 18/16 Q1017 NOSIG=
201906020530 METAR LROP 020530Z 29004KT 260V320 9999 FEW010 19/17 Q1017
                        NOSIG=
201906020600 METAR LROP 020600Z 32005KT 270V350 9999 FEW010 21/17 Q1017
                        NOSIG=
201906020630 METAR LROP 020630Z 32004KT 9999 FEW010 20/18 Q1017 NOSIG=
201906020700 METAR LROP 020700Z VRB02KT 9999 FEW014 22/17 Q1017 NOSIG=
201906020730 METAR LROP 020730Z VRB04KT 9999 SCT016 23/17 Q1017 NOSIG=
201906020800 METAR LROP 020800Z 36005KT 280V090 9999 SCT018 23/18 Q1017
                        NOSIG=
201906020830 METAR LROP 020830Z 01004KT 330V080 9999 SCT021 23/17 Q1017
                        NOSIG=
201906020900 METAR LROP 020900Z 08003KT 330V140 9999 SCT021 23/17 Q1017
                        NOSIG=
201906020930 METAR LROP 020930Z 04004KT 350V070 9999 BKN027 25/17 Q1017
                        NOSIG=
201906021000 METAR LROP 021000Z VRB03KT 9999 FEW030 BKN035 25/19 Q1016
                        NOSIG=
201906021030 METAR LROP 021030Z VRB02KT 9999 BKN031 25/17 Q1016 NOSIG=
201906021100 METAR LROP 021100Z VRB02KT 9999 BKN033 25/16 Q1016 NOSIG=
201906021130 METAR LROP 021130Z 09003KT 020V150 9999 BKN041 25/18 Q1016
                        NOSIG=
201906021200 METAR LROP 021200Z 11004KT 060V130 9999 BKN038 26/16 Q1015
                        NOSIG=
201906021230 METAR LROP 021230Z 11006KT 080V140 9999 BKN040 26/18 Q1015
                        NOSIG=
201906021300 METAR LROP 021300Z 10007KT CAVOK 26/18 Q1014 NOSIG=
201906021330 METAR LROP 021330Z 09007KT CAVOK 26/18 Q1014 NOSIG=
201906021400 METAR LROP 021400Z 08008KT CAVOK 25/17 Q1014 NOSIG=
201906021430 METAR LROP 021430Z 10007KT CAVOK 25/18 Q1014 NOSIG=
201906021500 METAR LROP 021500Z 09006KT CAVOK 25/17 Q1014 NOSIG=
201906021530 METAR LROP 021530Z 09003KT CAVOK 24/17 Q1014 NOSIG=
201906021600 METAR LROP 021600Z 11001KT 9999 FEW060CB 23/18 Q1014 NOSIG=
201906021630 METAR LROP 021630Z VRB01KT 9999 FEW060CB 23/18 Q1014 NOSIG=
201906021700 METAR LROP 021700Z 31003KT 290V060 9999 FEW060CB 22/20 Q1014
                        NOSIG=
201906021730 METAR LROP 021730Z 28003KT 9999 FEW050CB 22/19 Q1014 NOSIG=
201906021800 METAR LROP 021800Z 32005KT 300V010 9999 -SHRA FEW020 SCT035CB
                        21/19 Q1013 RESHRA R88/29//95 TEMPO
                        5000 SHRA=
201906021830 METAR LROP 021830Z 24004KT 9999 SCT045CB 20/19 Q1013 R88/29//95
                        TEMPO 5000 -TSRA=
201906021900 METAR LROP 021900Z 27005KT 9999 TS SCT050CB 20/19 Q1013 R88/29//95
                        TEMPO 5000 -TSRA=
201906021930 METAR LROP 021930Z 21007KT 4000 +TSRA FEW012 SCT036 BKN049CB
                        19/18 Q1014 R88/29//95 TEMPO 3000
                        +TSRA=
201906022000 METAR LROP 022000Z 32006KT 300V360 9999 -TSRA SCT038CB 19/18
                        Q1014 R88/29//95 TEMPO 5000 TSRA=
201906022030 METAR LROP 022030Z 32005KT 9999 -SHRA SCT050CB 18/18 Q1014
                        RETS R88/29//95 NOSIG=
201906022100 METAR LROP 022100Z 34007KT 9999 FEW050CB 18/17 Q1013 R88/29//95
                        NOSIG=
201906022130 METAR LROP 022130Z 35004KT 300V050 9999 FEW050CB 18/17 Q1014
                        R88/29//95 NOSIG=
201906022200 METAR LROP 022200Z 02008KT 9999 -SHRA SCT038CB 19/18 Q1014
                        RESHRA R88/29//95 TEMPO 5000 SHRA=
201906022230 METAR LROP 022230Z 04008KT 9999 -SHRA SCT050CB 19/18 Q1014
                        R88/29//95 NOSIG=
201906022300 METAR LROP 022300Z 04011KT 9999 -SHRA FEW022 SCT040CB 19/17
                        Q1013 R88/29//95 NOSIG=
201906022330 METAR LROP 022330Z 02008KT 9999 FEW048CB 18/17 Q1013 R88/29//95
                        NOSIG=
201906030000 METAR LROP 030000Z 01006KT 9999 FEW048CB 18/17 Q1013 R88/29//95
                        NOSIG=
201906030030 METAR LROP 030030Z 03005KT 9999 BKN042 FEW050CB 18/17 Q1012
                        R88/29//95 NOSIG=
201906030100 METAR LROP 030100Z 05012KT 9999 -SHRA SCT042 FEW050CB 18/17
                        Q1012 R88/29//95 NOSIG=
201906030130 METAR LROP 030130Z 05012KT 9999 FEW048 FEW050CB 18/16 Q1011
                        R88/29//95 NOSIG=
201906030200 METAR LROP 030200Z 06008KT 9999 FEW040CB 18/16 Q1012 R88/29//95
                        NOSIG=
201906030230 METAR LROP 030230Z 24004KT 200V270 9999 VCTS FEW018 SCT038CB
                        17/17 Q1013 R88/29//95 TEMPO 5000
                        TSRA=
201906030300 METAR LROP 030300Z 25004KT 210V300 9999 -SHRA FEW018 BKN034
                        FEW040CB 17/17 Q1013 RESHRA R08R/29//95
                        R08L/19//95 NOSIG=
201906030330 METAR LROP 030330Z VRB01KT 9999 FEW020 BKN037 FEW040CB 18/17
                        Q1012 R08R/29//95 R08L/19//95 NOSIG=
201906030400 METAR LROP 030400Z 05006KT 030V090 9999 VCSH FEW020 BKN037
                        FEW040CB 19/17 Q1013 R08R/29//95
                        R08L/19//95 NOSIG=
201906030430 METAR LROP 030430Z VRB02KT 9999 VCSH FEW021 BKN037 FEW040CB
                        18/17 Q1013 R08R/29//95 R08L/19//95
                        NOSIG=
201906030500 METAR LROP 030500Z 08004KT 9999 -SHRA FEW019 SCT035CB BKN039
                        19/17 Q1013 R08R/29//95 R08L/19//95
                        NOSIG=
201906030530 METAR LROP 030530Z 10004KT 9999 -SHRA FEW019 SCT039CB 19/17
                        Q1013 R08R/29//95 R08L/19//95 NOSIG=
201906030600 METAR LROP 030600Z 13005KT 9999 -SHRA SCT015 SCT035CB OVC040
                        18/18 Q1014 R88/29//95 NOSIG=
201906030630 METAR COR LROP 030630Z 10007KT 9999 FEW035CB OVC040 20/18
                        Q1014 R88/29//95 NOSIG=
201906030700 METAR LROP 030700Z 10008KT 9999 SCT014 FEW035CB BKN043 20/17
                        Q1014 R88/29//95 NOSIG=
201906030730 METAR LROP 030730Z 09006KT 9999 SCT014 FEW035CB BKN045 20/17
                        Q1014 R88/29//95 NOSIG=
201906030800 METAR LROP 030800Z 09006KT 9999 FEW015 FEW035CB SCT045 20/18
                        Q1014 R88/29//95 NOSIG=
201906030830 METAR LROP 030830Z 06006KT 030V100 9999 FEW014 SCT045 21/18
                        Q1014 R88/29//95 NOSIG=
201906030900 METAR LROP 030900Z 09006KT 050V110 9999 BKN015 FEW035CB OVC042
                        21/18 Q1014 R88/29//95 NOSIG=
201906030930 METAR COR LROP 030930Z 04006KT 9999 -SHRA BKN016 FEW030CB
                        OVC040 21/18 Q1014 R88/19//95 NOSIG=
201906031000 METAR LROP 031000Z 04005KT 9999 -SHRA FEW015 BKN025 FEW030CB
                        20/18 Q1014 R88/19//95 NOSIG=
201906031030 METAR LROP 031030Z 03005KT 350V080 9999 -SHRA FEW015 BKN026
                        FEW030CB 21/19 Q1014 R88/19//95 NOSIG=
201906031100 METAR LROP 031100Z 03005KT 350V050 9999 BKN016 FEW030CB 21/18
                        Q1014 R88/19//95 NOSIG=
201906031130 METAR LROP 031130Z 02007KT 9999 BKN016 22/18 Q1014 R88/19//95
                        NOSIG=
201906031200 METAR LROP 031200Z 02007KT 350V070 9999 BKN017 23/19 Q1013
                        R88/19//95 NOSIG=
201906031230 METAR LROP 031230Z 02005KT 340V070 9999 BKN017 23/18 Q1013
                        R88/19//95 NOSIG=
201906031300 METAR LROP 031300Z 03005KT 330V070 9999 SCT019 SCT035 24/19
                        Q1012 R88/CLRD// NOSIG=
201906031330 METAR LROP 031330Z 02006KT 330V080 9999 SCT020 SCT035 24/19
                        Q1012 R88/CLRD// NOSIG=
201906031400 METAR LROP 031400Z 02006KT 340V070 9999 FEW024 25/19 Q1012
                        R88/CLRD// NOSIG=
201906031430 METAR LROP 031430Z 05007KT 9999 BKN024 24/19 Q1012 NOSIG=
201906031500 METAR LROP 031500Z 08007KT 040V100 9999 FEW022 SCT025 24/19
                        Q1012 NOSIG=
201906031530 METAR LROP 031530Z 06005KT 020V100 9999 SCT027 24/19 Q1011
                        NOSIG=
201906031600 METAR LROP 031600Z 05009KT 9999 FEW027TCU SCT030 24/19 Q1012
                        NOSIG=
201906031630 METAR LROP 031630Z 06007KT 9999 SCT034CB 24/19 Q1012 NOSIG=
201906031700 METAR LROP 031700Z 07012KT 9999 SCT023CB BKN025 21/17 Q1012
                        TEMPO 5000 -TSRA=
201906031730 METAR LROP 031730Z 06007KT 9999 FEW025CB SCT027 20/17 Q1012
                        TEMPO 5000 -TSRA=
201906031800 METAR LROP 031800Z 07005KT 9999 FEW025CB 20/18 Q1013 NOSIG=
201906031830 METAR LROP 031830Z 08005KT 9999 FEW027CB 19/18 Q1013 TEMPO
                        VRB15G25KT 5000 -TSRA=
201906031900 METAR COR LROP 031900Z 09006KT 9999 SCT030CB 20/18 Q1013
                        R88/29//95 TEMPO VRB15G25KT 5000
                        -TSRA=
201906031930 METAR LROP 031930Z 10012KT 9999 TSRA BKN013 BKN027CB 20/19
                        Q1013 R88/29//95 TEMPO VRB15G25KT
                        5000 -TSRA=
201906032000 METAR LROP 032000Z 08010KT 9999 SHRA BKN034CB 18/18 Q1013
                        R88/29//95 NOSIG=
201906032030 METAR LROP 032030Z 08007KT 9999 -SHRA BKN035CB 17/17 Q1012
                        R88/29//95 NOSIG=
201906032100 METAR LROP 032100Z 10006KT 9999 FEW032CB 16/16 Q1012 R88/29//95
                        BECMG FEW030=
201906032130 METAR LROP 032130Z 08004KT CAVOK 16/15 Q1012 R88/29//95 NOSIG=
201906032200 METAR LROP 032200Z 23004KT CAVOK 15/15 Q1013 R88/29//95 NOSIG=
201906032230 METAR LROP 032230Z 26004KT 9999 FEW010 BKN024 16/16 Q1013
                        R88/29//95 NOSIG=
201906032300 METAR LROP 032300Z 24003KT 9999 SCT027 BKN036 16/16 Q1013
                        R88/29//95 NOSIG=
201906032330 METAR LROP 032330Z 23002KT 9999 SCT010 BKN034 16/16 Q1013
                        R88/29//95 NOSIG=
201906040000 METAR LROP 040000Z VRB01KT 9999 BKN010 OVC033 17/17 Q1013
                        R88/29//95 NOSIG=
201906040030 METAR LROP 040030Z 08003KT 9999 BKN009 OVC033 18/18 Q1012
                        R88/29//95 NOSIG=
201906040100 METAR LROP 040100Z 05004KT 9999 BKN008 BKN034 18/17 Q1012
                        R88/29//95 NOSIG=
201906040130 METAR LROP 040130Z 07005KT 8000 OVC007 18/18 Q1012 R88/29//95
                        TEMPO 5000 BR=
201906040200 METAR LROP 040200Z 08005KT 5000 BR OVC004 18/18 Q1012 R88/29//95
                        TEMPO 3000 BR=
201906040230 METAR LROP 040230Z 06008KT 4000 BR OVC004 18/18 Q1012 R88/29//95
                        TEMPO 3000 BR=
201906040300 METAR LROP 040300Z 08008KT 4000 BR OVC004 18/18 Q1012 R88/19//95
                        NOSIG=
201906040330 METAR LROP 040330Z 08009KT 3500 BR OVC003 18/18 Q1012 R88/19//95
                        NOSIG=
201906040400 METAR COR LROP 040400Z 07008KT 3500 BR OVC003 18/18 Q1012
                        R88/19//95 BECMG 5000 BKN005=
201906040430 METAR LROP 040430Z 09008KT 3500 BR BKN004 OVC007 18/18 Q1013
                        R88/19//95 BECMG 5000 BKN010=
201906040500 METAR LROP 040500Z 08008KT 4000 BR BKN005 OVC010 19/18 Q1013
                        R88/19//95 BECMG 9999 NSW BKN010=
201906040530 METAR LROP 040530Z 09009KT 4000 BR BKN005 18/18 Q1013 R88/19//95
                        BECMG 9999 NSW BKN010=
201906040600 METAR LROP 040600Z 08009KT 4500 BR BKN006 OVC016 19/18 Q1013
                        R88/19//95 BECMG 9999 NSW BKN010=
201906040630 METAR LROP 040630Z 08010KT 5000 BR BKN007 OVC014 19/18 Q1013
                        R88/19//95 BECMG 9999 NSW SCT010
                        BKN020=
201906040700 METAR LROP 040700Z 10010KT 6000 BKN007 OVC010 19/18 Q1013
                        R08R/19//95 BECMG 9999 NSW SCT010
                        BKN020=
201906040730 METAR COR LROP 040730Z 10008KT 8000 SCT008 BKN022 21/18 Q1013
                        NOSIG=
201906040800 METAR LROP 040800Z 11007KT 070V130 9999 SCT010 BKN015 21/18
                        Q1013 NOSIG=
201906040830 METAR LROP 040830Z 14007KT 120V180 9999 BKN017 21/18 Q1013
                        NOSIG=
201906040900 METAR LROP 040900Z 13004KT 090V180 9999 BKN017 21/17 Q1013
                        NOSIG=
201906040930 METAR LROP 040930Z 09008KT 9999 SCT019 21/18 Q1013 NOSIG=
201906041000 METAR LROP 041000Z 07007KT 9999 FEW019 22/18 Q1013 NOSIG=
201906041030 METAR LROP 041030Z 10007KT 9999 SCT016 FEW050CB 22/18 Q1013
                        NOSIG=
201906041100 METAR LROP 041100Z 08005KT 030V120 9999 FEW021 FEW050CB 23/18
                        Q1012 NOSIG=
201906041130 METAR LROP 041130Z 06008KT 030V090 9999 SCT024 FEW050CB 24/18
                        Q1012 TEMPO 3000 TSRA BKN040CB=
201906041200 METAR LROP 041200Z 08008KT 9999 VCTS FEW027 SCT034 SCT040CB
                        23/17 Q1012 TEMPO 3000 TSRA BKN040CB=
201906041230 METAR LROP 041230Z 15009KT 110V190 9999 TS FEW036 SCT040
                        SCT045CB 19/15 Q1013 TEMPO 3000 TSRA
                        BKN040CB=
201906041300 METAR COR LROP 041300Z 35007KT 300V060 9999 TS BKN030CB OVC031
                        18/13 Q1013 TEMPO 3000 TSRA=
201906041330 METAR LROP 041330Z 27007KT 250V310 9999 -TSRA FEW025 SCT030CB
                        18/15 Q1013 R88/29//95 BECMG NSW=
201906041400 METAR LROP 041400Z 32003KT 290V360 9999 FEW050CB 19/14 Q1012
                        RETS R88/19//95 NOSIG=
201906041430 METAR LROP 041430Z 31009KT 9999 FEW050CB 18/15 Q1012 R88/19//95
                        NOSIG=
201906041500 METAR LROP 041500Z 33007KT 300V010 CAVOK 18/15 Q1013 R88/CLRD//
                        NOSIG=
201906041530 METAR LROP 041530Z 36005KT 300V020 CAVOK 18/15 Q1012 NOSIG=
201906041600 METAR LROP 041600Z 30004KT 240V040 CAVOK 19/15 Q1012 NOSIG=
201906041630 METAR LROP 041630Z 04004KT CAVOK 18/14 Q1012 NOSIG=
201906041700 METAR LROP 041700Z 06004KT CAVOK 18/15 Q1012 NOSIG=
201906041730 METAR LROP 041730Z 09004KT CAVOK 18/15 Q1012 NOSIG=
201906041800 METAR LROP 041800Z 10002KT CAVOK 16/16 Q1012 NOSIG=
201906041830 METAR LROP 041830Z 05005KT CAVOK 17/15 Q1012 NOSIG=
201906041900 METAR LROP 041900Z 02005KT CAVOK 17/15 Q1013 NOSIG=
201906041930 METAR LROP 041930Z 03004KT CAVOK 16/15 Q1013 NOSIG=
201906042000 METAR LROP 042000Z 08004KT CAVOK 16/15 Q1013 NOSIG=
201906042030 METAR LROP 042030Z VRB01KT 9999 FEW039CB 15/15 Q1013 NOSIG=
201906042100 METAR LROP 042100Z 06004KT 9999 FEW037CB BKN040 16/15 Q1013
                        NOSIG=
201906042130 METAR LROP 042130Z 08004KT 9999 SCT037 FEW050CB 16/15 Q1013
                        NOSIG=
201906042200 METAR LROP 042200Z 07005KT 9999 SCT030 15/14 Q1013 NOSIG=
201906042230 METAR LROP 042230Z 03005KT 9999 FEW033 16/15 Q1013 NOSIG=
201906042300 METAR LROP 042300Z 01005KT 9999 4000NE FEW036 15/15 Q1013
                        NOSIG=
201906042330 METAR LROP 042330Z 01005KT 7000 NSC 16/15 Q1013 NOSIG=
201906050000 METAR LROP 050000Z 01006KT 6000 NSC 16/15 Q1013 NOSIG=
201906050030 METAR LROP 050030Z 02007KT 6000 NSC 16/15 Q1013 NOSIG=
201906050100 METAR LROP 050100Z 04007KT 6000 SCT009 16/15 Q1013 NOSIG=
201906050130 METAR LROP 050130Z 04005KT 6000 BKN008 16/15 Q1013 TEMPO
                        3000 BR BKN005=
201906050200 METAR LROP 050200Z 04005KT 6000 BKN007 16/15 Q1013 TEMPO
                        3000 BR BKN005=
201906050230 METAR COR LROP 050230Z 04006KT 6000 OVC007 16/16 Q1013 TEMPO
                        3000 BR BKN005=
201906050300 METAR LROP 050300Z 04006KT 5000 BR OVC007 16/16 Q1013 TEMPO
                        3000 BR BKN005=
201906050330 METAR LROP 050330Z 05008KT 5000 BR OVC005 16/16 Q1013 TEMPO
                        3000 BR=
201906050400 METAR LROP 050400Z 06008KT 6000 OVC005 17/16 Q1013 NOSIG=
201906050430 METAR LROP 050430Z 06007KT 5000 BR OVC004 17/16 Q1013 NOSIG=
201906050500 METAR LROP 050500Z 07010KT 6000 OVC004 17/17 Q1013 BECMG
                        BKN015=
201906050530 METAR LROP 050530Z 07009KT 8000 OVC006 18/17 Q1013 BECMG
                        BKN015=
201906050600 METAR LROP 050600Z 07009KT 9999 BKN009 19/17 Q1013 BECMG
                        BKN015=
201906050630 METAR LROP 050630Z 07007KT 030V100 9999 BKN009 20/17 Q1014
                        BECMG BKN015=
201906050700 METAR LROP 050700Z 07007KT 9999 BKN013 21/17 Q1014 BECMG
                        BKN015=
201906050730 METAR COR LROP 050730Z 08007KT 040V110 9999 SCT014 22/17
                        Q1014 NOSIG=
201906050800 METAR LROP 050800Z 08007KT 040V100 9999 SCT017 22/17 Q1014
                        NOSIG=
201906050830 METAR LROP 050830Z 09008KT 040V110 9999 SCT022 BKN035 23/17
                        Q1014 NOSIG=
201906050900 METAR LROP 050900Z 07008KT 9999 BKN024 23/17 Q1014 NOSIG=
201906050930 METAR LROP 050930Z 08007KT 9999 BKN030 24/16 Q1014 NOSIG=
201906051000 METAR LROP 051000Z 10007KT 9999 BKN037 24/15 Q1013 NOSIG=
201906051030 METAR LROP 051030Z 12008KT 080V160 9999 VCTS BKN037 FEW040CB
                        25/15 Q1013 TEMPO 5000 TSRA=
201906051100 METAR LROP 051100Z 13008KT 9999 VCTS BKN037 FEW040CB 25/17
                        Q1013 RETS TEMPO 5000 TSRA=
201906051130 METAR LROP 051130Z 13007KT 080V160 9999 BKN039 FEW050CB 26/16
                        Q1013 TEMPO 5000 TSRA=
201906051200 METAR LROP 051200Z 12009KT 9999 FEW037 BKN043 FEW050CB 24/16
                        Q1013 NOSIG=
201906051230 METAR LROP 051230Z 34008KT 9999 BKN039 FEW050CB 21/15 Q1013
                        NOSIG=
201906051300 METAR LROP 051300Z 34011KT 9999 VCTS SCT036 FEW050CB 21/15
                        Q1013 TEMPO VRB15G25KT 5000 TSRA=
201906051330 METAR LROP 051330Z 35009KT 9999 TS SCT036 SCT039CB 21/17
                        Q1013 TEMPO VRB15G25KT 5000 TSRA=
201906051400 METAR COR LROP 051400Z 34013KT 9999 -SHRA SCT034 FEW040CB
                        21/16 Q1013 RETS NOSIG=
201906051430 METAR COR LROP 051430Z 33009KT 9999 TS SCT036 FEW040CB 19/17
                        Q1012 RESHRA R88/19//95 TEMPO 5000
                        SHRA=
201906051500 METAR LROP 051500Z 36009KT 9999 FEW045 FEW050CB 22/19 Q1012
                        RETS R88/CLRD// NOSIG=
201906051530 METAR LROP 051530Z 36009KT 9999 FEW050TCU 22/18 Q1012 NOSIG=
201906051600 METAR LROP 051600Z 01008KT 9999 FEW050TCU 23/18 Q1012 NOSIG=
201906051630 METAR LROP 051630Z 36007KT 9999 FEW050TCU 22/18 Q1012 NOSIG=
201906051700 METAR LROP 051700Z 02006KT 9999 FEW050TCU 21/18 Q1012 NOSIG=
201906051730 METAR LROP 051730Z 01006KT 9999 FEW050TCU 21/18 Q1012 NOSIG=
201906051800 METAR LROP 051800Z 01007KT 9999 FEW050TCU 20/18 Q1013 NOSIG=
201906051830 METAR LROP 051830Z 02006KT CAVOK 21/18 Q1013 NOSIG=
201906051900 METAR LROP 051900Z 04007KT CAVOK 21/18 Q1013 NOSIG=
201906051930 METAR LROP 051930Z 04006KT CAVOK 20/18 Q1013 NOSIG=
201906052000 METAR LROP 052000Z 03007KT CAVOK 20/18 Q1013 NOSIG=
201906052030 METAR LROP 052030Z 05006KT CAVOK 19/18 Q1013 NOSIG=
201906052100 METAR LROP 052100Z 06006KT 9999 FEW050CB 19/18 Q1013 NOSIG=
201906052130 METAR LROP 052130Z 05004KT CAVOK 19/18 Q1013 NOSIG=
201906052200 METAR LROP 052200Z 04004KT 9999 -SHRA FEW050CB 19/18 Q1013
                        R88/29//95 NOSIG=
201906052230 METAR LROP 052230Z 06005KT CAVOK 19/18 Q1013 R88/29//95 NOSIG=
201906052300 METAR LROP 052300Z 07006KT CAVOK 18/18 Q1013 R88/29//95 NOSIG=
201906052330 METAR LROP 052330Z 08006KT 7000 NSC 18/17 Q1013 R88/29//95
                        NOSIG=
201906060000 METAR LROP 060000Z 06005KT 7000 NSC 17/17 Q1013 R88/29//95
                        NOSIG=
201906060030 METAR LROP 060030Z 06005KT 6000 NSC 17/17 Q1013 R88/29//95
                        NOSIG=
201906060100 METAR LROP 060100Z 05006KT 4000 BR NSC 17/17 Q1013 R88/29//95
                        NOSIG=
201906060130 METAR LROP 060130Z 06005KT 4000 BR NSC 16/16 Q1013 R88/29//95
                        NOSIG=
201906060200 METAR LROP 060200Z 05006KT 5000 BR NSC 16/16 Q1013 R88/29//95
                        NOSIG=
201906060230 METAR LROP 060230Z 06004KT 3500 BR NSC 16/16 Q1013 R88/29//95
                        NOSIG=
201906060300 METAR LROP 060300Z 06005KT 4000 BR NSC 16/16 Q1013 R88/CLRD//
                        NOSIG=
201906060330 METAR LROP 060330Z 07005KT 4000 BR NSC 17/16 Q1014 NOSIG=
201906060400 METAR LROP 060400Z 07005KT 3500 BR NSC 17/16 Q1014 BECMG
                        5000=
201906060430 METAR LROP 060430Z 07006KT 4000 BR NSC 17/17 Q1014 BECMG
                        5000=
201906060500 METAR LROP 060500Z 09004KT 4000 BR NSC 17/17 Q1014 BECMG
                        5000=
201906060530 METAR COR LROP 060530Z 09005KT 5000 BR NSC 19/18 Q1015 NOSIG=
201906060600 METAR LROP 060600Z 09005KT 6000 NSC 20/18 Q1015 NOSIG=
201906060630 METAR LROP 060630Z 07007KT 040V100 8000 FEW011 22/18 Q1015
                        NOSIG=
201906060700 METAR LROP 060700Z 09006KT 9999 FEW013 22/19 Q1015 NOSIG=
201906060730 METAR LROP 060730Z 09007KT 9999 FEW016 23/18 Q1015 NOSIG=
201906060800 METAR LROP 060800Z 07007KT 030V100 9999 SCT019 23/18 Q1015
                        NOSIG=
201906060830 METAR LROP 060830Z 08006KT 020V110 9999 FEW021 24/18 Q1015
                        NOSIG=
201906060900 METAR LROP 060900Z 07005KT 030V110 9999 SCT023 25/18 Q1015
                        NOSIG=
201906060930 METAR LROP 060930Z 08006KT 040V120 9999 SCT029 25/18 Q1015
                        NOSIG=
201906061000 METAR LROP 061000Z 09006KT 010V130 9999 SCT032 26/18 Q1015
                        NOSIG=
201906061030 METAR LROP 061030Z 10005KT 050V130 9999 SCT031 26/17 Q1015
                        NOSIG=
201906061100 METAR LROP 061100Z 10006KT 060V120 9999 BKN036 25/17 Q1015
                        TEMPO SCT040CB=
201906061130 METAR LROP 061130Z 10004KT 070V130 9999 FEW038 BKN042 25/18
                        Q1015 TEMPO VRB18KT 5000 -TSRA SCT040CB=
201906061200 METAR LROP 061200Z 09005KT 9999 FEW023TCU BKN026 BKN040 25/18
                        Q1015 TEMPO SCT035CB BKN040=
201906061230 METAR LROP 061230Z 10006KT 9999 -SHRA FEW027CB BKN034 24/18
                        Q1015 NOSIG=
201906061300 METAR LROP 061300Z 09004KT 060V120 9999 FEW021 FEW027CB SCT037
                        25/19 Q1014 NOSIG=
201906061330 METAR LROP 061330Z 11003KT 050V190 9999 FEW030CB SCT045 25/18
                        Q1014 NOSIG=
201906061400 METAR LROP 061400Z 10004KT 9999 FEW030CB FEW049 25/18 Q1014
                        NOSIG=
201906061430 METAR LROP 061430Z 09003KT 9999 FEW034CB 25/19 Q1014 NOSIG=
201906061500 METAR LROP 061500Z 08001KT 9999 SCT037CB 23/20 Q1014 TEMPO
                        5000 -TSRA=
201906061530 METAR LROP 061530Z 01004KT 330V040 9999 SCT037CB 23/20 Q1014
                        TEMPO 5000 -TSRA=
201906061600 METAR LROP 061600Z 31003KT 280V020 9999 FEW050CB 24/21 Q1014
                        NOSIG=
201906061630 METAR LROP 061630Z 33007KT 290V350 9999 -SHRA FEW040CB 22/19
                        Q1015 NOSIG=
201906061700 METAR LROP 061700Z 31005KT 280V350 CAVOK 22/20 Q1015 NOSIG=
201906061730 METAR LROP 061730Z 27004KT CAVOK 21/20 Q1015 NOSIG=
201906061800 METAR LROP 061800Z VRB02KT CAVOK 20/19 Q1015 NOSIG=
201906061830 METAR LROP 061830Z VRB02KT CAVOK 20/19 Q1015 NOSIG=
201906061900 METAR LROP 061900Z 20003KT CAVOK 20/19 Q1015 NOSIG=
201906061930 METAR LROP 061930Z 26003KT 220V290 CAVOK 19/19 Q1016 NOSIG=
201906062000 METAR LROP 062000Z 00000KT CAVOK 19/19 Q1016 NOSIG=
201906062030 METAR LROP 062030Z VRB01KT CAVOK 19/19 Q1016 NOSIG=
201906062100 METAR LROP 062100Z 36003KT 9000 NSC 19/19 Q1016 NOSIG=
201906062130 METAR LROP 062130Z 33003KT 9000 NSC 19/18 Q1016 NOSIG=
201906062200 METAR LROP 062200Z 29004KT 260V340 CAVOK 18/18 Q1016 NOSIG=
201906062230 METAR LROP 062230Z 26003KT 9000 NSC 18/18 Q1016 NOSIG=
201906062300 METAR LROP 062300Z 27004KT 8000 NSC 18/17 Q1016 BECMG 5000
                        BR=
201906062330 METAR LROP 062330Z 27004KT 7000 NSC 17/17 Q1016 BECMG 5000
                        BR=
201906070000 METAR LROP 070000Z 26004KT 6000 MIFG NSC 17/17 Q1016 BECMG
                        5000 BR=
201906070030 METAR LROP 070030Z VRB02KT 6000 MIFG NSC 17/17 Q1016 BECMG
                        5000 BR=
201906070100 METAR LROP 070100Z 28005KT 6000 MIFG NSC 16/16 Q1015 BECMG
                        5000 BR=
201906070130 METAR LROP 070130Z 30004KT 7000 NSC 16/16 Q1015 NOSIG=
201906070200 METAR LROP 070200Z 30004KT 7000 NSC 16/16 Q1016 NOSIG=
201906070230 METAR LROP 070230Z 27003KT 220V320 7000 NSC 16/16 Q1016 NOSIG=
201906070300 METAR LROP 070300Z 29003KT 270V340 8000 NSC 16/16 Q1016 NOSIG=
201906070330 METAR LROP 070330Z 29005KT 9000 NSC 17/16 Q1016 NOSIG=
201906070400 METAR LROP 070400Z 29005KT CAVOK 17/17 Q1016 NOSIG=
201906070430 METAR LROP 070430Z 28004KT CAVOK 19/17 Q1016 NOSIG=
201906070500 METAR LROP 070500Z 26004KT CAVOK 20/18 Q1017 NOSIG=
201906070530 METAR LROP 070530Z 27004KT 240V310 CAVOK 21/18 Q1017 NOSIG=
201906070600 METAR LROP 070600Z 25004KT 230V300 CAVOK 23/19 Q1017 NOSIG=
201906070630 METAR LROP 070630Z 24005KT 220V280 CAVOK 24/19 Q1017 NOSIG=
201906070700 METAR COR LROP 070700Z 23005KT 180V280 CAVOK 25/19 Q1017
                        NOSIG=
201906070730 METAR LROP 070730Z 27004KT 200V320 CAVOK 25/19 Q1017 NOSIG=
201906070800 METAR LROP 070800Z 25006KT 230V290 CAVOK 26/19 Q1018 NOSIG=
201906070830 METAR LROP 070830Z 25006KT 220V290 CAVOK 27/19 Q1018 NOSIG=
201906070900 METAR LROP 070900Z AUTO 25007KT 210V290 9999 FEW030/// 27/19
                        Q1018 NOSIG=
201906070930 METAR LROP 070930Z 22006KT 180V280 9999 FEW029 27/20 Q1018
                        NOSIG=
201906071000 METAR LROP 071000Z 24006KT 220V300 9999 FEW030TCU 27/18 Q1018
                        NOSIG=
201906071030 METAR LROP 071030Z 27007KT 9999 FEW040TCU 28/18 Q1017 NOSIG=
201906071100 METAR LROP 071100Z 26007KT 210V310 9999 FEW039TCU SCT046
                        28/19 Q1017 NOSIG=
201906071130 METAR LROP 071130Z 25008KT 220V280 9999 FEW040TCU SCT043
                        28/18 Q1017 NOSIG=
201906071200 METAR LROP 071200Z 25007KT 210V270 9999 FEW040TCU SCT043
                        28/19 Q1017 NOSIG=
201906071230 METAR LROP 071230Z 26008KT 9999 SCT043 28/18 Q1017 NOSIG=
201906071300 METAR LROP 071300Z 26007KT 230V310 9999 SCT045 29/20 Q1017
                        NOSIG=
201906071330 METAR LROP 071330Z 26008KT 9999 FEW040TCU FEW045 28/20 Q1017
                        NOSIG=
201906071400 METAR LROP 071400Z 25009KT 9999 FEW040TCU FEW045 28/19 Q1017
                        NOSIG=
201906071430 METAR LROP 071430Z 25008KT 220V290 CAVOK 29/20 Q1016 NOSIG=
201906071500 METAR LROP 071500Z 27010KT CAVOK 28/20 Q1017 NOSIG=
201906071530 METAR LROP 071530Z 25009KT CAVOK 28/20 Q1017 NOSIG=
201906071600 METAR LROP 071600Z 26007KT CAVOK 27/20 Q1016 NOSIG=
201906071630 METAR LROP 071630Z 24006KT CAVOK 26/22 Q1016 NOSIG=
201906071700 METAR LROP 071700Z 25005KT CAVOK 25/20 Q1017 NOSIG=
201906071730 METAR LROP 071730Z 25006KT CAVOK 24/21 Q1017 NOSIG=
201906071800 METAR LROP 071800Z 24006KT CAVOK 23/21 Q1017 NOSIG=
201906071830 METAR LROP 071830Z 26004KT 250V310 CAVOK 23/21 Q1017 NOSIG=
201906071900 METAR LROP 071900Z 27003KT CAVOK 23/21 Q1017 NOSIG=
201906071930 METAR LROP 071930Z 21003KT CAVOK 22/21 Q1017 NOSIG=
201906072000 METAR LROP 072000Z 00000KT CAVOK 21/21 Q1018 NOSIG=
201906072030 METAR LROP 072030Z 24003KT CAVOK 21/20 Q1018 NOSIG=
201906072100 METAR LROP 072100Z 27003KT CAVOK 21/20 Q1018 NOSIG=
201906072130 METAR LROP 072130Z 31004KT 280V340 8000 NSC 20/20 Q1018 NOSIG=
201906072200 METAR LROP 072200Z 33003KT 8000 NSC 20/19 Q1018 NOSIG=
201906072230 METAR LROP 072230Z 31003KT 280V340 8000 NSC 20/19 Q1018 TEMPO
                        5000 BR=
201906072300 METAR LROP 072300Z 31004KT 300V360 8000 NSC 19/19 Q1017 TEMPO
                        5000 BR=
201906072330 METAR LROP 072330Z 32005KT 8000 NSC 18/18 Q1017 TEMPO 5000
                        BR=
201906080000 METAR LROP 080000Z 31003KT 7000 NSC 18/18 Q1017 TEMPO 5000
                        BR=
201906080030 METAR LROP 080030Z 31005KT CAVOK 18/18 Q1017 NOSIG=
201906080100 METAR LROP 080100Z 00000KT CAVOK 18/17 Q1017 NOSIG=
201906080130 METAR LROP 080130Z 33004KT 8000 NSC 17/17 Q1017 NOSIG=
201906080200 METAR LROP 080200Z 28003KT 5000 BR NSC 17/17 Q1017 NOSIG=
201906080230 METAR LROP 080230Z 33002KT 6000 NSC 17/17 Q1017 TEMPO 5000
                        BR=
201906080300 METAR LROP 080300Z 01003KT 6000 NSC 17/17 Q1017 TEMPO 5000
                        BR=
201906080330 METAR LROP 080330Z 01002KT 6000 NSC 19/18 Q1017 NOSIG=
201906080400 METAR LROP 080400Z 00000KT CAVOK 20/18 Q1018 NOSIG=
201906080430 METAR LROP 080430Z 00000KT CAVOK 20/18 Q1018 NOSIG=
201906080500 METAR LROP 080500Z 05004KT CAVOK 21/18 Q1018 NOSIG=
201906080530 METAR LROP 080530Z 07006KT CAVOK 22/18 Q1018 NOSIG=
201906080600 METAR LROP 080600Z 09004KT CAVOK 23/19 Q1018 NOSIG=
201906080630 METAR LROP 080630Z 08003KT 010V130 CAVOK 24/19 Q1018 NOSIG=
201906080700 METAR LROP 080700Z 11004KT 060V170 CAVOK 24/19 Q1018 NOSIG=
201906080730 METAR LROP 080730Z VRB02KT CAVOK 26/19 Q1018 NOSIG=
201906080800 METAR LROP 080800Z VRB02KT CAVOK 26/19 Q1018 NOSIG=
201906080830 METAR LROP 080830Z VRB02KT CAVOK 27/20 Q1018 NOSIG=
201906080900 METAR LROP 080900Z 29005KT 260V330 CAVOK 27/21 Q1018 NOSIG=
201906080930 METAR LROP 080930Z 30004KT 270V350 CAVOK 29/22 Q1018 NOSIG=
201906081000 METAR LROP 081000Z 26006KT 230V290 9999 FEW032 29/22 Q1018
                        NOSIG=
201906081030 METAR LROP 081030Z 23006KT 190V260 9999 FEW038 29/21 Q1018
                        NOSIG=
201906081100 METAR LROP 081100Z 24006KT 200V290 9999 SCT043 29/20 Q1017
                        NOSIG=
201906081130 METAR LROP 081130Z 25007KT 210V270 9999 SCT043 30/21 Q1017
                        NOSIG=
201906081200 METAR LROP 081200Z 24006KT 200V290 9999 SCT044 29/21 Q1017
                        NOSIG=
201906081230 METAR LROP 081230Z 27006KT 220V310 9999 SCT043 29/21 Q1017
                        NOSIG=
201906081300 METAR LROP 081300Z 31007KT 270V330 9999 SCT045 29/21 Q1016
                        NOSIG=
201906081330 METAR LROP 081330Z 30007KT 260V340 9999 SCT049 30/21 Q1016
                        NOSIG=
201906081400 METAR LROP 081400Z 32006KT 290V350 9999 SCT046 FEW050CB 30/19
                        Q1016 TEMPO 5000 -SHRA=
201906081430 METAR COR LROP 081430Z 33005KT 300V360 9999 SCT048 30/19
                        Q1016 NOSIG=
201906081500 METAR LROP 081500Z 03009KT CAVOK 28/21 Q1016 NOSIG=
201906081530 METAR LROP 081530Z 03008KT 9999 FEW050CB 28/21 Q1016 NOSIG=
201906081600 METAR LROP 081600Z 06007KT 9999 FEW050CB 27/20 Q1016 NOSIG=
201906081630 METAR LROP 081630Z 09006KT 9999 FEW050CB 27/21 Q1016 NOSIG=
201906081700 METAR LROP 081700Z 10004KT 9999 SCT050CB 26/21 Q1017 NOSIG=
201906081730 METAR LROP 081730Z 12004KT 9999 SCT050CB 25/20 Q1017 NOSIG=
201906081800 METAR LROP 081800Z 13003KT 9999 FEW050CB 24/21 Q1017 BECMG
                        NSC=
201906081830 METAR COR LROP 081830Z 28005KT 240V320 9999 VCTS FEW050CB
                        23/21 Q1017 TEMPO -TSRA SCT045CB=
201906081900 METAR LROP 081900Z 29008KT 9999 VCTS FEW050CB 23/19 Q1018
                        TEMPO -TSRA=
201906081930 METAR COR LROP 081930Z 36006KT 340V040 CAVOK 23/19 Q1018
                        NOSIG=
201906082000 METAR LROP 082000Z 02005KT CAVOK 23/20 Q1018 NOSIG=
201906082030 METAR LROP 082030Z 02004KT CAVOK 23/20 Q1018 NOSIG=
201906082100 METAR LROP 082100Z 04004KT CAVOK 22/20 Q1018 NOSIG=
201906082130 METAR LROP 082130Z 05003KT CAVOK 22/19 Q1018 NOSIG=
201906082200 METAR LROP 082200Z 06003KT 030V090 CAVOK 21/18 Q1018 NOSIG=
201906082230 METAR LROP 082230Z 07003KT CAVOK 21/18 Q1018 NOSIG=
201906082300 METAR LROP 082300Z 08003KT 9999 SCT040 21/18 Q1018 NOSIG=
201906082330 METAR LROP 082330Z 04004KT CAVOK 20/18 Q1018 NOSIG=
201906090000 METAR LROP 090000Z 05004KT 9999 FEW048 20/17 Q1019 NOSIG=
201906090030 METAR LROP 090030Z 04005KT 9999 FEW047 20/18 Q1019 NOSIG=
201906090100 METAR LROP 090100Z 03005KT 9999 BKN047 20/18 Q1019 NOSIG=
201906090130 METAR COR LROP 090130Z 02007KT CAVOK 20/18 Q1019 NOSIG=
201906090200 METAR LROP 090200Z 04003KT CAVOK 19/18 Q1019 NOSIG=
201906090230 METAR LROP 090230Z 03003KT CAVOK 19/18 Q1019 NOSIG=
201906090300 METAR LROP 090300Z 04003KT CAVOK 20/18 Q1019 NOSIG=
201906090330 METAR LROP 090330Z 04004KT CAVOK 20/18 Q1019 NOSIG=
201906090400 METAR LROP 090400Z 05005KT CAVOK 21/18 Q1020 NOSIG=
201906090430 METAR LROP 090430Z 08005KT CAVOK 22/18 Q1020 NOSIG=
201906090500 METAR LROP 090500Z 09006KT CAVOK 23/18 Q1020 NOSIG=
201906090530 METAR LROP 090530Z 08009KT CAVOK 23/18 Q1020 NOSIG=
201906090600 METAR LROP 090600Z 08011KT CAVOK 23/18 Q1020 NOSIG=
201906090630 METAR LROP 090630Z 07008KT CAVOK 24/18 Q1020 NOSIG=
201906090700 METAR LROP 090700Z 07010KT 040V100 CAVOK 25/19 Q1021 NOSIG=
201906090730 METAR LROP 090730Z 06012KT CAVOK 26/18 Q1021 NOSIG=
201906090800 METAR LROP 090800Z 06014KT CAVOK 26/19 Q1021 NOSIG=
201906090830 METAR LROP 090830Z 05012KT 9999 FEW030 27/19 Q1021 NOSIG=
201906090900 METAR LROP 090900Z 06010KT 020V090 9999 FEW032 27/19 Q1021
                        NOSIG=
201906090930 METAR LROP 090930Z 06010KT 9999 FEW032 27/19 Q1021 NOSIG=
201906091000 METAR LROP 091000Z 08008KT 050V110 9999 SCT035 27/19 Q1020
                        NOSIG=
201906091030 METAR LROP 091030Z 07008KT 030V110 9999 SCT035 27/19 Q1020
                        NOSIG=
201906091100 METAR LROP 091100Z 07008KT 040V110 9999 BKN038 FEW043CB 28/18
                        Q1020 TEMPO 5000 TSRA=
201906091130 METAR LROP 091130Z 06008KT 020V110 9999 SCT040 FEW042CB 28/18
                        Q1020 TEMPO VRB15G25KT 5000 TSRA=
201906091200 METAR LROP 091200Z 05010KT 9999 SCT040 FEW045CB 28/17 Q1020
                        TEMPO VRB15G25KT 5000 TSRA=
201906091230 METAR LROP 091230Z 06007KT 030V090 9999 FEW050CB 29/18 Q1019
                        TEMPO VRB15G25KT 5000 TSRA=
201906091300 METAR LROP 091300Z 06011KT 9999 FEW050CB 28/18 Q1019 NOSIG=
201906091330 METAR LROP 091330Z 07012KT CAVOK 28/17 Q1019 NOSIG=
201906091400 METAR LROP 091400Z 06011KT CAVOK 29/17 Q1019 NOSIG=
201906091430 METAR LROP 091430Z 08009KT CAVOK 29/17 Q1019 NOSIG=
201906091500 METAR LROP 091500Z 07009KT CAVOK 28/17 Q1018 NOSIG=
201906091530 METAR LROP 091530Z 07008KT CAVOK 29/17 Q1018 NOSIG=
201906091600 METAR LROP 091600Z 07008KT CAVOK 28/17 Q1018 NOSIG=
201906091630 METAR LROP 091630Z 07007KT CAVOK 28/18 Q1018 NOSIG=
201906091700 METAR LROP 091700Z 30007KT 280V340 CAVOK 25/21 Q1019 NOSIG=
201906091730 METAR LROP 091730Z 31006KT 9999 FEW050CB 24/20 Q1018 NOSIG=
201906091800 METAR LROP 091800Z 31005KT 9999 VCTS FEW050CB 23/20 Q1018
                        NOSIG=
201906091830 METAR LROP 091830Z 36006KT 9999 TS SCT040CB 23/19 Q1019 TEMPO
                        5000 -TSRA BKN040CB=
201906091900 METAR LROP 091900Z 30010KT 280V010 8000 -TSRA BKN035CB BKN040
                        20/19 Q1020 RETSRA R88/29//95 TEMPO
                        5000 -TSRA=
201906091930 METAR COR LROP 091930Z 33004KT 280V360 9999 TS SCT040CB 20/19
                        Q1020 R88/29//95 BECMG NSW=
201906092000 METAR LROP 092000Z 01006KT 9999 VCTS SCT050CB 20/18 Q1020
                        RETS R88/29//95 NOSIG=
201906092030 METAR LROP 092030Z 36004KT 9999 FEW060CB 19/19 Q1020 R88/19//95
                        NOSIG=
201906092100 METAR LROP 092100Z 33001KT CAVOK 19/18 Q1019 R88/19//95 NOSIG=
201906092130 METAR LROP 092130Z 27002KT CAVOK 19/18 Q1019 R88/19//95 NOSIG=
201906092200 METAR LROP 092200Z 31003KT CAVOK 18/18 Q1019 R88/19//95 NOSIG=
201906092230 METAR LROP 092230Z 30003KT 280V350 CAVOK 18/18 Q1019 R88/19//95
                        NOSIG=
201906092300 METAR LROP 092300Z 24003KT CAVOK 18/18 Q1019 R88/19//95 NOSIG=
201906092330 METAR LROP 092330Z 29003KT CAVOK 17/17 Q1019 R88/19//95 NOSIG=
201906100000 METAR LROP 100000Z 29005KT CAVOK 17/17 Q1018 R88/19//95 NOSIG=
201906100030 METAR LROP 100030Z 27006KT CAVOK 17/17 Q1018 R88/19//95 NOSIG=
201906100100 METAR LROP 100100Z 29005KT CAVOK 18/17 Q1018 R88/19//95 NOSIG=
201906100130 METAR LROP 100130Z 30004KT CAVOK 17/17 Q1018 R88/19//95 NOSIG=
201906100200 METAR LROP 100200Z 31004KT 8000 NSC 17/17 Q1018 R88/19//95
                        NOSIG=
201906100230 METAR LROP 100230Z 31004KT 8000 NSC 18/17 Q1018 R88/19//95
                        NOSIG=
201906100300 METAR LROP 100300Z 32004KT CAVOK 18/17 Q1017 R88/CLRD// NOSIG=
201906100330 METAR LROP 100330Z 33004KT 310V020 CAVOK 19/17 Q1017 R88/CLRD//
                        NOSIG=
201906100400 METAR LROP 100400Z 34006KT CAVOK 20/17 Q1017 NOSIG=
201906100430 METAR LROP 100430Z 34005KT 300V020 CAVOK 21/17 Q1017 NOSIG=
201906100500 METAR LROP 100500Z 36006KT CAVOK 23/16 Q1018 NOSIG=
201906100530 METAR LROP 100530Z 02007KT CAVOK 24/17 Q1018 NOSIG=
201906100600 METAR LROP 100600Z 03009KT CAVOK 25/18 Q1018 NOSIG=
201906100630 METAR LROP 100630Z 03010KT CAVOK 25/19 Q1017 NOSIG=
201906100700 METAR LROP 100700Z 04011KT CAVOK 26/19 Q1017 NOSIG=
201906100730 METAR LROP 100730Z 04014KT 9999 FEW034 27/19 Q1017 NOSIG=
201906100800 METAR LROP 100800Z 06015KT 9999 FEW035 28/19 Q1017 NOSIG=
201906100830 METAR LROP 100830Z 05014KT 9999 FEW038 28/19 Q1017 NOSIG=
201906100900 METAR LROP 100900Z 04014KT 020V080 9999 FEW039 28/18 Q1017
                        NOSIG=
201906100930 METAR LROP 100930Z 04015KT 9999 FEW045 29/17 Q1016 NOSIG=
201906101000 METAR LROP 101000Z 03014KT 9999 FEW048 29/17 Q1016 NOSIG=
201906101030 METAR LROP 101030Z 04013KT 9999 FEW048 30/18 Q1016 NOSIG=
201906101100 METAR LROP 101100Z 03013KT 9999 SCT049 29/18 Q1015 NOSIG=
201906101130 METAR LROP 101130Z 05014KT CAVOK 28/18 Q1015 NOSIG=
201906101200 METAR LROP 101200Z 06016KT CAVOK 30/18 Q1014 NOSIG=
201906101230 METAR LROP 101230Z 06016KT CAVOK 30/19 Q1014 NOSIG=
201906101300 METAR LROP 101300Z 05016KT 020V080 9999 FEW043TCU SCT045
                        28/20 Q1014 NOSIG=
201906101330 METAR LROP 101330Z 07012KT 9999 FEW043CB 29/19 Q1014 NOSIG=
201906101400 METAR COR LROP 101400Z 05015KT 9999 TS SCT042CB 28/20 Q1013
                        TEMPO 5000 TSRA=
201906101430 METAR LROP 101430Z 06019KT 9999 -TSRA SCT038 BKN047CB 25/17
                        Q1014 R88/29//95 TEMPO 5000 TSRA=
201906101500 METAR COR LROP 101500Z 03007KT 9999 VCTS SCT047CB 25/21 Q1014
                        R88/19//95 BECMG 04017G27KT 5000
                        TSRA=
201906101530 METAR COR LROP 101530Z 02011KT 9999 SCT047CB 25/21 Q1014
                        R88/CLRD// BECMG 04017G27KT 5000
                        TSRA=
201906101600 METAR LROP 101600Z 08013KT 9999 -TSRA SCT040CB 23/18 Q1014
                        TEMPO 5000 TSRA=
201906101630 METAR LROP 101630Z 04013KT 9999 -TSRA SCT040CB 21/18 Q1014
                        R88/19//95 TEMPO 5000 TSRA=
201906101700 METAR COR LROP 101700Z 10024KT 5000 TSRA FEW002 BKN040CB
                        19/18 Q1015 RETSRA R88/29//95 TEMPO
                        VRB25G35KT 0800 +TSRAGR=
201906101730 METAR LROP 101730Z 29006KT 270V330 9999 -TSRA FEW030 SCT040CB
                        18/18 Q1014 R88/29//95 NOSIG=
201906101800 METAR LROP 101800Z 29004KT 260V350 9999 FEW050CB 19/19 Q1014
                        RETS R88/29//95 NOSIG=
201906101830 METAR LROP 101830Z 14003KT 020V150 9000 FEW050CB 19/19 Q1014
                        R88/29//95 NOSIG=
201906101900 METAR LROP 101900Z VRB01KT 9000 FEW050CB 19/19 Q1014 R88/29//95
                        NOSIG=
201906101930 METAR LROP 101930Z VRB02KT 9999 FEW050CB 19/19 Q1015 R88/29//95
                        NOSIG=
201906102000 METAR LROP 102000Z 27006KT CAVOK 19/19 Q1014 R88/29//95 NOSIG=
201906102030 METAR LROP 102030Z 27004KT CAVOK 19/19 Q1014 R88/29//95 NOSIG=
201906102100 METAR LROP 102100Z 27006KT CAVOK 19/19 Q1014 R88/29//95 NOSIG=
201906102130 METAR LROP 102130Z 27007KT CAVOK 19/19 Q1014 R88/29//95 NOSIG=
201906102200 METAR LROP 102200Z 28007KT CAVOK 18/18 Q1013 R88/29//95 NOSIG=
201906102230 METAR LROP 102230Z 29007KT CAVOK 18/18 Q1013 R88/29//95 NOSIG=
201906102300 METAR LROP 102300Z VRB03KT 9999 -SHRA FEW050CB 19/18 Q1014
                        R88/29//95 NOSIG=
201906102330 METAR LROP 102330Z 30004KT 9999 -SHRA FEW050CB 18/18 Q1013
                        R88/29//95 NOSIG=
201906110000 METAR LROP 110000Z 29007KT 9999 FEW050CB 18/18 Q1012 R88/29//95
                        NOSIG=
201906110030 METAR LROP 110030Z 31005KT 9999 FEW050CB 19/18 Q1012 R88/29//95
                        TEMPO 5000 SHRA=
201906110100 METAR LROP 110100Z 27005KT 9999 -SHRA FEW050CB 19/18 Q1012
                        R88/29//95 TEMPO 5000 TSRA=
201906110130 METAR LROP 110130Z 25004KT 210V270 9999 FEW050CB 19/19 Q1011
                        R88/29//95 TEMPO VRB15G25KT 3000
                        TSRA=
201906110200 METAR LROP 110200Z 28003KT 8000 TSRA SCT040CB 19/19 Q1012
                        R88/29//95 TEMPO VRB15G25KT 3000
                        TSRA=
201906110230 METAR LROP 110230Z 02009KT 350V050 7000 TSRA SCT040CB 20/18
                        Q1012 R88/29//95 TEMPO 5000 TSRA=
201906110300 METAR LROP 110300Z 09004KT 8000 TSRA FEW025 BKN040CB 19/19
                        Q1012 RETSRA R88/29//95 TEMPO 3000
                        +TSRA=
201906110330 METAR LROP 110330Z 00000KT 7000 TSRA SCT040CB 19/19 Q1012
                        R88/29//95 NOSIG=
201906110400 METAR COR LROP 110400Z VRB03KT 2000 +TSRA SCT019 OVC035CB
                        19/19 Q1012 R88/29//95 BECMG 5000
                        -TSRA=
201906110430 METAR COR LROP 110430Z 31004KT 210V020 9999 -TSRA SCT0020
                        BKN040CB 19/19 Q1012 RERA R88/29//95
                        BECMG NSW=
201906110500 METAR LROP 110500Z 02009KT 9999 FEW020 BKN040CB 21/19 Q1012
                        RETS R88/29//95 BECMG NSW=
201906110530 METAR COR LROP 110530Z 02008KT 9999 FEW045CB BKN048 22/19
                        Q1012 R88/29//95 BECMG NSC=
201906110600 METAR LROP 110600Z 03010KT 9999 SCT047 22/20 Q1012 R88/29//95
                        NOSIG=
201906110630 METAR LROP 110630Z 04011KT 9999 FEW047 24/20 Q1013 R88/29//95
                        NOSIG=
201906110700 METAR LROP 110700Z 05013KT 9999 FEW047 24/20 Q1012 R88/29//95
                        NOSIG=
201906110730 METAR LROP 110730Z 06014KT 9999 FEW024 26/21 Q1012 R88/29//95
                        NOSIG=
201906110800 METAR LROP 110800Z 07017KT 9999 FEW025TCU SCT030 26/20 Q1012
                        R88/29//95 NOSIG=
201906110830 METAR LROP 110830Z 07016KT 9999 BKN028 26/20 Q1012 R88/CLRD//
                        NOSIG=
201906110900 METAR LROP 110900Z 07014KT 9999 BKN029 26/21 Q1013 NOSIG=
201906110930 METAR COR LROP 110930Z 07013KT 9999 SCT028 FEW045CB 26/20
                        Q1013 NOSIG=
201906111000 METAR LROP 111000Z 07014KT 9999 SCT029 FEW045CB 27/21 Q1013
                        NOSIG=
201906111030 METAR LROP 111030Z 07013KT 9999 SCT031 FEW045CB 27/21 Q1013
                        NOSIG=
201906111100 METAR LROP 111100Z 06010KT 9999 SCT030 FEW045CB 26/21 Q1013
                        BECMG NSC=
201906111130 METAR LROP 111130Z 06012KT 9999 FEW045CB 27/21 Q1012 NOSIG=
201906111200 METAR LROP 111200Z 05012KT 9999 FEW045CB 27/20 Q1012 NOSIG=
201906111230 METAR LROP 111230Z 06008KT 9999 FEW045CB 26/20 Q1012 NOSIG=
201906111300 METAR LROP 111300Z 04005KT 9999 FEW045CB 26/21 Q1012 NOSIG=
201906111330 METAR LROP 111330Z 01005KT 9999 FEW045CB 26/21 Q1012 NOSIG=
201906111400 METAR LROP 111400Z 02003KT 9999 FEW045CB 25/22 Q1012 NOSIG=
201906111430 METAR LROP 111430Z VRB04KT 9999 FEW045CB 24/21 Q1013 NOSIG=
201906111500 METAR LROP 111500Z 28007KT 9999 FEW050CB 22/20 Q1012 NOSIG=
201906111530 METAR LROP 111530Z 24009KT 9999 FEW050CB 21/18 Q1012 NOSIG=
201906111600 METAR LROP 111600Z 27010KT 9999 FEW050CB 20/18 Q1012 NOSIG=
201906111630 METAR LROP 111630Z 30007KT 280V350 9999 FEW050CB 20/18 Q1012
                        NOSIG=
201906111700 METAR LROP 111700Z 30007KT CAVOK 20/19 Q1012 NOSIG=
201906111730 METAR LROP 111730Z 30010KT CAVOK 20/19 Q1012 NOSIG=
201906111800 METAR LROP 111800Z 30010KT CAVOK 20/18 Q1012 NOSIG=
201906111830 METAR LROP 111830Z 30007KT CAVOK 20/19 Q1013 NOSIG=
201906111900 METAR LROP 111900Z 31004KT 280V340 CAVOK 20/19 Q1013 NOSIG=
201906111930 METAR LROP 111930Z 29003KT CAVOK 20/19 Q1013 NOSIG=
201906112000 METAR LROP 112000Z 30004KT CAVOK 20/19 Q1013 NOSIG=
201906112030 METAR LROP 112030Z 32004KT CAVOK 19/19 Q1012 NOSIG=
201906112100 METAR LROP 112100Z 33004KT CAVOK 20/19 Q1012 NOSIG=
201906112130 METAR LROP 112130Z 36004KT 330V030 CAVOK 20/18 Q1012 NOSIG=
201906112200 METAR COR LROP 112200Z 36006KT CAVOK 21/18 Q1012 NOSIG=
201906112230 METAR LROP 112230Z 01006KT CAVOK 21/17 Q1012 NOSIG=
201906112300 METAR LROP 112300Z 01006KT CAVOK 21/17 Q1012 NOSIG=
201906112330 METAR LROP 112330Z 03004KT CAVOK 20/17 Q1012 NOSIG=
201906120000 METAR LROP 120000Z 07004KT CAVOK 19/17 Q1012 NOSIG=
201906120030 METAR LROP 120030Z 05007KT CAVOK 19/17 Q1012 NOSIG=
201906120100 METAR LROP 120100Z 05005KT CAVOK 19/17 Q1012 NOSIG=
201906120130 METAR LROP 120130Z 04003KT CAVOK 19/17 Q1012 NOSIG=
201906120200 METAR LROP 120200Z 05004KT CAVOK 19/17 Q1012 NOSIG=
201906120230 METAR LROP 120230Z 01003KT CAVOK 19/17 Q1013 NOSIG=
201906120300 METAR LROP 120300Z 36005KT CAVOK 19/17 Q1013 NOSIG=
201906120330 METAR LROP 120330Z 01004KT 340V040 CAVOK 19/18 Q1013 NOSIG=
201906120400 METAR LROP 120400Z VRB02KT CAVOK 19/18 Q1013 NOSIG=
201906120430 METAR LROP 120430Z 20002KT CAVOK 20/19 Q1013 NOSIG=
201906120500 METAR LROP 120500Z 27003KT CAVOK 21/19 Q1013 NOSIG=
201906120530 METAR LROP 120530Z 26003KT 210V300 9999 FEW050CB 21/20 Q1013
                        NOSIG=
201906120600 METAR LROP 120600Z VRB01KT 9999 SCT050CB 22/20 Q1013 NOSIG=
201906120630 METAR LROP 120630Z 19002KT 9999 FEW050CB 23/20 Q1013 NOSIG=
201906120700 METAR LROP 120700Z 27005KT CAVOK 24/21 Q1013 NOSIG=
201906120730 METAR LROP 120730Z VRB02KT CAVOK 25/20 Q1014 NOSIG=
201906120800 METAR LROP 120800Z 26004KT CAVOK 25/21 Q1014 NOSIG=
201906120830 METAR LROP 120830Z VRB02KT CAVOK 27/21 Q1014 NOSIG=
201906120900 METAR LROP 120900Z VRB02KT CAVOK 28/17 Q1014 NOSIG=
201906120930 METAR LROP 120930Z 04006KT 360V080 CAVOK 29/14 Q1014 NOSIG=
201906121000 METAR LROP 121000Z 06005KT 350V120 CAVOK 30/17 Q1014 NOSIG=
201906121030 METAR LROP 121030Z 35004KT 280V050 CAVOK 29/16 Q1014 NOSIG=
201906121100 METAR LROP 121100Z 08004KT 010V140 CAVOK 30/18 Q1014 NOSIG=
201906121130 METAR LROP 121130Z 08004KT 030V140 CAVOK 30/19 Q1013 NOSIG=
201906121200 METAR LROP 121200Z 08006KT 050V110 CAVOK 31/17 Q1013 NOSIG=
201906121230 METAR LROP 121230Z 07008KT 020V100 CAVOK 32/17 Q1013 NOSIG=
201906121300 METAR LROP 121300Z 08010KT 9999 FEW060TCU 32/16 Q1013 NOSIG=
201906121330 METAR LROP 121330Z 06010KT 9999 FEW060TCU 31/14 Q1013 NOSIG=
201906121400 METAR LROP 121400Z 07010KT 9999 FEW050CB 31/15 Q1013 NOSIG=
201906121430 METAR LROP 121430Z 08006KT 9999 FEW050CB 31/16 Q1013 NOSIG=
201906121500 METAR LROP 121500Z 06007KT 030V100 9999 FEW050CB 31/17 Q1013
                        NOSIG=
201906121530 METAR COR LROP 121530Z 06008KT 9999 FEW050CB 30/15 Q1013
                        NOSIG=
201906121600 METAR LROP 121600Z 31008KT 9999 FEW050CB 27/18 Q1013 NOSIG=
201906121630 METAR LROP 121630Z 32007KT 9999 FEW050CB 25/19 Q1014 NOSIG=
201906121700 METAR LROP 121700Z 30006KT CAVOK 25/20 Q1014 NOSIG=
201906121730 METAR LROP 121730Z 29007KT CAVOK 24/20 Q1014 NOSIG=
201906121800 METAR LROP 121800Z 29009KT CAVOK 23/20 Q1014 NOSIG=
201906121830 METAR LROP 121830Z 30008KT CAVOK 22/19 Q1014 NOSIG=
201906121900 METAR LROP 121900Z 31007KT CAVOK 22/19 Q1014 NOSIG=
201906121930 METAR LROP 121930Z 33005KT CAVOK 22/19 Q1014 NOSIG=
201906122000 METAR LROP 122000Z 34004KT 300V360 CAVOK 21/19 Q1014 NOSIG=
201906122030 METAR LROP 122030Z 28006KT CAVOK 20/19 Q1014 NOSIG=
201906122100 METAR LROP 122100Z 29004KT CAVOK 20/19 Q1014 NOSIG=
201906122130 METAR LROP 122130Z VRB01KT CAVOK 20/19 Q1014 NOSIG=
201906122200 METAR LROP 122200Z VRB02KT CAVOK 20/19 Q1014 NOSIG=
201906122230 METAR LROP 122230Z 00000KT CAVOK 20/19 Q1014 NOSIG=
201906122300 METAR LROP 122300Z 27002KT CAVOK 19/19 Q1014 NOSIG=
201906122330 METAR LROP 122330Z 28005KT CAVOK 19/18 Q1014 NOSIG=
201906130000 METAR LROP 130000Z 26004KT CAVOK 18/18 Q1014 NOSIG=
201906130030 METAR LROP 130030Z 28005KT CAVOK 18/18 Q1014 NOSIG=
201906130100 METAR LROP 130100Z 29006KT CAVOK 18/17 Q1014 NOSIG=
201906130130 METAR LROP 130130Z 27005KT CAVOK 17/17 Q1014 NOSIG=
201906130200 METAR LROP 130200Z 29004KT CAVOK 18/17 Q1014 NOSIG=
201906130230 METAR LROP 130230Z 28004KT CAVOK 17/16 Q1014 NOSIG=
201906130300 METAR LROP 130300Z 28006KT CAVOK 17/16 Q1014 NOSIG=
201906130330 METAR LROP 130330Z 28004KT 250V310 CAVOK 18/16 Q1015 NOSIG=
201906130400 METAR LROP 130400Z 28005KT CAVOK 19/17 Q1015 NOSIG=
201906130430 METAR LROP 130430Z 29005KT 270V340 CAVOK 21/17 Q1015 NOSIG=
201906130500 METAR LROP 130500Z 29004KT 260V320 CAVOK 23/18 Q1015 NOSIG=
201906130530 METAR LROP 130530Z 29006KT CAVOK 24/18 Q1015 NOSIG=
201906130600 METAR LROP 130600Z 28005KT 260V320 9999 NCD 25/18 Q1015 NOSIG=
201906130630 METAR LROP 130630Z 28004KT CAVOK 26/18 Q1016 NOSIG=
201906130700 METAR LROP 130700Z 26005KT 230V300 CAVOK 27/20 Q1016 NOSIG=
201906130730 METAR LROP 130730Z VRB02KT CAVOK 28/20 Q1016 NOSIG=
201906130800 METAR LROP 130800Z VRB02KT CAVOK 28/18 Q1016 NOSIG=
201906130830 METAR LROP 130830Z VRB02KT CAVOK 29/18 Q1016 NOSIG=
201906130900 METAR LROP 130900Z 10003KT 060V140 CAVOK 31/15 Q1016 NOSIG=
201906130930 METAR LROP 130930Z VRB01KT 9999 NCD 31/16 Q1016 NOSIG=
201906131000 METAR LROP 131000Z 10003KT 070V140 CAVOK 31/17 Q1016 NOSIG=
201906131030 METAR LROP 131030Z 27005KT 230V310 CAVOK 31/18 Q1016 NOSIG=
201906131100 METAR LROP 131100Z 27003KT 230V010 CAVOK 31/15 Q1016 NOSIG=
201906131130 METAR LROP 131130Z VRB01KT CAVOK 31/16 Q1015 NOSIG=
201906131200 METAR LROP 131200Z VRB03KT CAVOK 32/18 Q1015 NOSIG=
201906131230 METAR LROP 131230Z 28004KT 250V340 9999 FEW050CB 32/20 Q1015
                        NOSIG=
201906131300 METAR LROP 131300Z 25005KT 210V290 9999 FEW050CB 32/16 Q1015
                        NOSIG=
201906131330 METAR LROP 131330Z 30004KT 260V330 9999 FEW050CB 32/16 Q1015
                        NOSIG=
201906131400 METAR LROP 131400Z 01007KT 340V050 9999 FEW050CB 32/18 Q1015
                        NOSIG=
201906131430 METAR LROP 131430Z 03010KT 360V060 9999 FEW050CB 31/19 Q1015
                        NOSIG=
201906131500 METAR LROP 131500Z 03011KT 9999 VCSH SCT050CB 28/17 Q1015
                        TEMPO 5000 TSRA=
201906131530 METAR LROP 131530Z 34008KT 9999 SCT040CB 26/16 Q1015 TEMPO
                        5000 TSRA=
201906131600 METAR LROP 131600Z 34007KT 310V010 9999 -SHRA SCT040CB 25/18
                        Q1015 TEMPO 5000 TSRA=
201906131630 METAR LROP 131630Z 02005KT 9999 FEW050CB 26/17 Q1015 BECMG
                        NSC=
201906131700 METAR LROP 131700Z 02005KT 9999 FEW050CB 26/17 Q1015 BECMG
                        NSC=
201906131730 METAR LROP 131730Z 10001KT 9999 FEW050CB 25/19 Q1015 BECMG
                        NSC=
201906131800 METAR LROP 131800Z 36004KT 320V050 CAVOK 24/19 Q1015 NOSIG=
201906131830 METAR LROP 131830Z 03004KT CAVOK 23/20 Q1016 NOSIG=
201906131900 METAR LROP 131900Z 36006KT 340V050 CAVOK 24/19 Q1016 NOSIG=
201906131930 METAR LROP 131930Z 27004KT CAVOK 22/20 Q1016 NOSIG=
201906132000 METAR LROP 132000Z VRB01KT CAVOK 21/20 Q1016 NOSIG=
201906132030 METAR LROP 132030Z 34006KT 320V020 CAVOK 22/19 Q1016 NOSIG=
201906132100 METAR LROP 132100Z 09003KT 060V130 CAVOK 20/19 Q1016 NOSIG=
201906132130 METAR LROP 132130Z 29001KT CAVOK 20/19 Q1016 NOSIG=
201906132200 METAR LROP 132200Z 01004KT CAVOK 21/19 Q1016 NOSIG=
201906132230 METAR LROP 132230Z 35005KT CAVOK 21/19 Q1017 NOSIG=
201906132300 METAR LROP 132300Z 34003KT 270V040 CAVOK 20/19 Q1016 NOSIG=
201906132330 METAR LROP 132330Z 01005KT CAVOK 20/19 Q1016 NOSIG=
201906140000 METAR LROP 140000Z 01005KT CAVOK 20/19 Q1017 NOSIG=
201906140030 METAR LROP 140030Z 04006KT CAVOK 20/19 Q1017 NOSIG=
201906140100 METAR LROP 140100Z 03003KT 8000 NSC 20/19 Q1016 NOSIG=
201906140130 METAR LROP 140130Z 03003KT CAVOK 19/18 Q1016 NOSIG=
201906140200 METAR LROP 140200Z 03003KT CAVOK 19/18 Q1017 NOSIG=
201906140230 METAR LROP 140230Z 03004KT CAVOK 19/18 Q1017 NOSIG=
201906140300 METAR LROP 140300Z 03003KT 360V080 CAVOK 20/17 Q1017 NOSIG=
201906140330 METAR LROP 140330Z 02003KT CAVOK 20/18 Q1017 NOSIG=
201906140400 METAR LROP 140400Z VRB02KT CAVOK 20/18 Q1017 NOSIG=
201906140430 METAR LROP 140430Z 29003KT 170V340 CAVOK 21/19 Q1017 NOSIG=
201906140500 METAR LROP 140500Z VRB02KT CAVOK 22/19 Q1017 NOSIG=
201906140530 METAR LROP 140530Z VRB01KT CAVOK 24/20 Q1017 NOSIG=
201906140600 METAR LROP 140600Z 03005KT 350V070 CAVOK 25/17 Q1018 NOSIG=
201906140630 METAR LROP 140630Z 05006KT 020V080 CAVOK 25/18 Q1018 NOSIG=
201906140700 METAR LROP 140700Z 04006KT 360V060 CAVOK 26/17 Q1018 NOSIG=
201906140730 METAR LROP 140730Z 05005KT 360V090 CAVOK 27/18 Q1018 NOSIG=
201906140800 METAR LROP 140800Z 06006KT 010V100 CAVOK 28/16 Q1018 NOSIG=
201906140830 METAR LROP 140830Z 05007KT 030V100 CAVOK 29/15 Q1018 NOSIG=
201906140900 METAR LROP 140900Z 03006KT 360V070 CAVOK 29/16 Q1018 NOSIG=
201906140930 METAR LROP 140930Z 06006KT 020V090 CAVOK 29/15 Q1018 NOSIG=
201906141000 METAR LROP 141000Z 02010KT CAVOK 30/16 Q1018 NOSIG=
201906141030 METAR LROP 141030Z 02009KT CAVOK 30/15 Q1018 NOSIG=
201906141100 METAR LROP 141100Z 02007KT 360V060 CAVOK 30/15 Q1018 NOSIG=
201906141130 METAR LROP 141130Z 02009KT CAVOK 30/17 Q1017 NOSIG=
201906141200 METAR LROP 141200Z 04008KT CAVOK 31/17 Q1017 NOSIG=
201906141230 METAR LROP 141230Z 06008KT 010V090 CAVOK 31/16 Q1017 NOSIG=
201906141300 METAR LROP 141300Z 02009KT CAVOK 31/16 Q1016 NOSIG=
201906141330 METAR LROP 141330Z 04008KT CAVOK 32/17 Q1016 NOSIG=
201906141400 METAR LROP 141400Z 02008KT CAVOK 31/16 Q1016 NOSIG=
201906141430 METAR LROP 141430Z 02007KT CAVOK 31/17 Q1016 NOSIG=
201906141500 METAR LROP 141500Z 07009KT 9999 FEW050TCU 30/19 Q1016 NOSIG=
201906141530 METAR LROP 141530Z 07012KT CAVOK 30/19 Q1016 BECMG SCT050CB=
201906141600 METAR LROP 141600Z 07009KT CAVOK 29/18 Q1016 NOSIG=
201906141630 METAR LROP 141630Z 07007KT CAVOK 28/19 Q1016 NOSIG=
201906141700 METAR LROP 141700Z 06007KT CAVOK 28/18 Q1016 NOSIG=
201906141730 METAR LROP 141730Z 05009KT CAVOK 27/18 Q1017 NOSIG=
201906141800 METAR LROP 141800Z 03005KT CAVOK 26/19 Q1017 NOSIG=
201906141830 METAR LROP 141830Z 02008KT CAVOK 26/18 Q1017 NOSIG=
201906141900 METAR LROP 141900Z 05007KT CAVOK 24/17 Q1017 NOSIG=
201906141930 METAR LROP 141930Z 02009KT CAVOK 25/15 Q1017 NOSIG=
201906142000 METAR LROP 142000Z 01008KT CAVOK 24/15 Q1017 NOSIG=
201906142030 METAR LROP 142030Z 36006KT CAVOK 24/16 Q1017 NOSIG=
201906142100 METAR LROP 142100Z 36006KT CAVOK 23/16 Q1017 NOSIG=
201906142130 METAR LROP 142130Z 29006KT CAVOK 20/18 Q1017 NOSIG=
201906142200 METAR LROP 142200Z 35006KT CAVOK 21/18 Q1017 NOSIG=
201906142230 METAR LROP 142230Z 34006KT CAVOK 20/18 Q1017 NOSIG=
201906142300 METAR LROP 142300Z 29003KT 250V340 CAVOK 20/19 Q1017 NOSIG=
201906142330 METAR LROP 142330Z 31004KT 280V340 CAVOK 20/18 Q1016 NOSIG=
201906150000 METAR LROP 150000Z 30004KT CAVOK 19/18 Q1016 NOSIG=
201906150030 METAR LROP 150030Z 29004KT 280V340 CAVOK 20/18 Q1016 NOSIG=
201906150100 METAR LROP 150100Z 31004KT CAVOK 19/18 Q1016 NOSIG=
201906150130 METAR LROP 150130Z 33004KT CAVOK 19/17 Q1016 NOSIG=
201906150200 METAR LROP 150200Z 33005KT CAVOK 20/18 Q1016 NOSIG=
201906150230 METAR LROP 150230Z 32004KT 290V350 CAVOK 20/17 Q1016 NOSIG=
201906150300 METAR LROP 150300Z 33005KT 300V360 CAVOK 20/17 Q1016 NOSIG=
201906150330 METAR LROP 150330Z 35006KT CAVOK 21/17 Q1016 NOSIG=
201906150400 METAR LROP 150400Z 36006KT CAVOK 22/17 Q1016 NOSIG=
201906150430 METAR LROP 150430Z 01005KT 340V040 CAVOK 21/18 Q1016 NOSIG=
201906150500 METAR LROP 150500Z 01005KT CAVOK 23/17 Q1017 NOSIG=
201906150530 METAR LROP 150530Z 01004KT CAVOK 26/17 Q1017 NOSIG=
201906150600 METAR LROP 150600Z 36005KT 340V040 CAVOK 26/18 Q1017 NOSIG=
201906150630 METAR LROP 150630Z 01004KT 330V050 CAVOK 25/18 Q1017 NOSIG=
201906150700 METAR LROP 150700Z 03003KT 350V070 CAVOK 26/18 Q1017 NOSIG=
201906150730 METAR LROP 150730Z 07004KT 020V110 CAVOK 28/18 Q1017 NOSIG=
201906150800 METAR LROP 150800Z 07006KT 020V090 CAVOK 28/18 Q1016 NOSIG=
201906150830 METAR LROP 150830Z 08009KT CAVOK 29/19 Q1017 NOSIG=
201906150900 METAR LROP 150900Z 08007KT 050V110 CAVOK 29/18 Q1017 NOSIG=
201906150930 METAR LROP 150930Z 09007KT CAVOK 30/19 Q1016 NOSIG=
201906151000 METAR LROP 151000Z 06007KT 020V110 CAVOK 30/20 Q1016 NOSIG=
201906151030 METAR LROP 151030Z 07006KT 040V130 9999 FEW050TCU 30/20 Q1016
                        NOSIG=
201906151100 METAR LROP 151100Z 07005KT 360V140 9999 FEW050TCU 30/21 Q1016
                        NOSIG=
201906151130 METAR LROP 151130Z 10006KT 070V140 9999 FEW050TCU 31/18 Q1015
                        NOSIG=
201906151200 METAR LROP 151200Z VRB05KT 9999 FEW050CB 31/20 Q1015 NOSIG=
201906151230 METAR LROP 151230Z 02005KT 310V060 9999 FEW050CB 31/16 Q1015
                        NOSIG=
201906151300 METAR LROP 151300Z 03003KT 360V090 9999 SCT049CB 32/17 Q1015
                        NOSIG=
201906151330 METAR LROP 151330Z 36017KT 9999 SCT045CB 27/17 Q1015 NOSIG=
201906151400 METAR LROP 151400Z 36013KT 9999 FEW048CB 26/17 Q1014 NOSIG=
201906151430 METAR COR LROP 151430Z 34010KT 9999 VCTS FEW050CB 26/17 Q1014
                        RETS NOSIG=
201906151500 METAR LROP 151500Z 34011KT 9999 FEW050CB 26/17 Q1014 NOSIG=
201906151530 METAR LROP 151530Z 30006KT 280V350 9999 FEW050CB 26/19 Q1014
                        NOSIG=
201906151600 METAR LROP 151600Z 30009KT 9999 FEW050CB 26/19 Q1014 NOSIG=
201906151630 METAR LROP 151630Z 31007KT 9999 FEW050CB 25/17 Q1015 NOSIG=
201906151700 METAR LROP 151700Z 07005KT 030V100 9999 FEW050CB 25/19 Q1015
                        NOSIG=
201906151730 METAR LROP 151730Z 13005KT 9999 FEW050CB 24/19 Q1015 NOSIG=
201906151800 METAR LROP 151800Z 15006KT 9999 FEW050CB 23/19 Q1015 NOSIG=
201906151830 METAR LROP 151830Z 15005KT 9999 FEW050CB 22/19 Q1015 NOSIG=
201906151900 METAR LROP 151900Z 20004KT CAVOK 22/18 Q1015 NOSIG=
201906151930 METAR LROP 151930Z 22004KT 9999 FEW050CB 21/19 Q1014 NOSIG=
201906152000 METAR LROP 152000Z 26004KT CAVOK 21/19 Q1015 NOSIG=
201906152030 METAR LROP 152030Z 29004KT CAVOK 20/19 Q1015 NOSIG=
201906152100 METAR LROP 152100Z 26007KT CAVOK 21/19 Q1015 NOSIG=
201906152130 METAR LROP 152130Z 28003KT CAVOK 20/19 Q1015=
201906152200 METAR LROP 152200Z 32004KT CAVOK 20/19 Q1014 NOSIG=
201906152230 METAR LROP 152230Z 33003KT 290V360 CAVOK 20/19 Q1014 NOSIG=
201906152300 METAR LROP 152300Z 30004KT CAVOK 20/19 Q1014 NOSIG=
201906152330 METAR LROP 152330Z VRB01KT CAVOK 20/19 Q1014 NOSIG=
201906160000 METAR LROP 160000Z 29004KT CAVOK 20/19 Q1014=
201906160030 METAR LROP 160030Z 30005KT CAVOK 20/19 Q1014 NOSIG=
201906160100 METAR LROP 160100Z 32003KT CAVOK 20/19 Q1013 NOSIG=
201906160130 METAR COR LROP 160130Z 29005KT CAVOK 19/18 Q1013 NOSIG=
201906160200 METAR LROP 160200Z 30004KT CAVOK 19/18 Q1013 NOSIG=
201906160230 METAR LROP 160230Z 32004KT CAVOK 19/18 Q1013 NOSIG=
201906160300 METAR LROP 160300Z 31005KT CAVOK 19/18 Q1013 NOSIG=
201906160330 METAR LROP 160330Z 28004KT CAVOK 19/18 Q1013 NOSIG=
201906160400 METAR LROP 160400Z 30004KT CAVOK 20/18 Q1013 NOSIG=
201906160430 METAR LROP 160430Z VRB02KT CAVOK 21/19 Q1013 NOSIG=
201906160500 METAR LROP 160500Z 32003KT 290V360 CAVOK 23/19 Q1013 NOSIG=
201906160530 METAR LROP 160530Z 30004KT CAVOK 23/19 Q1014 NOSIG=
201906160600 METAR LROP 160600Z VRB02KT CAVOK 25/20 Q1014 NOSIG=
201906160630 METAR LROP 160630Z 02003KT 330V080 CAVOK 26/19 Q1014 NOSIG=
201906160700 METAR LROP 160700Z 05005KT 010V080 CAVOK 27/20 Q1014 NOSIG=
201906160730 METAR LROP 160730Z 08007KT 040V110 CAVOK 28/19 Q1014 NOSIG=
201906160800 METAR LROP 160800Z 09006KT 050V120 CAVOK 29/19 Q1014 NOSIG=
201906160830 METAR LROP 160830Z 12006KT 090V160 CAVOK 29/19 Q1014 NOSIG=
201906160900 METAR LROP 160900Z 10004KT 030V140 CAVOK 29/19 Q1014 NOSIG=
201906160930 METAR LROP 160930Z 06004KT 350V120 CAVOK 30/19 Q1014 NOSIG=
201906161000 METAR LROP 161000Z VRB04KT CAVOK 30/17 Q1013 NOSIG=
201906161030 METAR LROP 161030Z 12004KT 070V200 9999 FEW060CB 31/17 Q1013
                        NOSIG=
201906161100 METAR LROP 161100Z VRB03KT 9999 FEW050CB 31/18 Q1013 NOSIG=
201906161130 METAR LROP 161130Z 02005KT 350V050 9999 FEW050CB 30/19 Q1013
                        NOSIG=
201906161200 METAR LROP 161200Z VRB03KT 9999 VCTS SCT050CB 31/17 Q1012
                        NOSIG=
201906161230 METAR LROP 161230Z 02007KT 9999 VCTS SCT050CB 32/18 Q1012
                        NOSIG=
201906161300 METAR LROP 161300Z 03008KT 010V100 9999 VCTS SCT050CB 31/17
                        Q1012 NOSIG=
201906161330 METAR LROP 161330Z 35012KT 9999 VCTS SCT050CB 28/19 Q1012
                        NOSIG=
201906161400 METAR LROP 161400Z 34009KT 310V010 9999 VCTS FEW050CB 28/19
                        Q1012 NOSIG=
201906161430 METAR LROP 161430Z 36011KT 9999 FEW050CB 27/19 Q1012 NOSIG=
201906161500 METAR LROP 161500Z 34010KT 9999 FEW050CB 26/18 Q1012 NOSIG=
201906161530 METAR LROP 161530Z 26006KT 240V300 9999 FEW050TCU 25/20 Q1012
                        NOSIG=
201906161600 METAR LROP 161600Z 29004KT 260V320 9999 FEW050CB 26/21 Q1012
                        NOSIG=
201906161630 METAR LROP 161630Z 34007KT 310V020 9999 FEW050CB 26/21 Q1012
                        NOSIG=
201906161700 METAR LROP 161700Z 33005KT 290V010 9999 FEW050CB 26/20 Q1012
                        NOSIG=
201906161730 METAR LROP 161730Z 31003KT 260V010 9999 FEW050CB 24/21 Q1012
                        TEMPO VRB15G25KT -TSRA=
201906161800 METAR LROP 161800Z 35004KT 270V050 9999 FEW050CB 24/20 Q1012
                        NOSIG=
201906161830 METAR LROP 161830Z 36005KT 9999 FEW050CB 24/21 Q1013 NOSIG=
201906161900 METAR LROP 161900Z 02005KT 9999 FEW050CB 25/20 Q1013 NOSIG=
201906161930 METAR LROP 161930Z 01004KT 9999 FEW050CB 24/21 Q1013 NOSIG=
201906162000 METAR LROP 162000Z 01007KT CAVOK 24/20 Q1013 NOSIG=
201906162030 METAR LROP 162030Z 36006KT CAVOK 23/20 Q1013 NOSIG=
201906162100 METAR LROP 162100Z 08003KT 050V110 CAVOK 23/20 Q1013 NOSIG=
201906162130 METAR LROP 162130Z 04003KT CAVOK 22/19 Q1012 NOSIG=
201906162200 METAR LROP 162200Z 32003KT 280V350 CAVOK 21/19 Q1013 NOSIG=
201906162230 METAR LROP 162230Z 30003KT 250V340 CAVOK 20/19 Q1012 NOSIG=
201906162300 METAR LROP 162300Z 01005KT CAVOK 21/19 Q1013 NOSIG=
201906162330 METAR LROP 162330Z 36005KT CAVOK 21/19 Q1013 NOSIG=
201906170000 METAR LROP 170000Z 27003KT CAVOK 19/19 Q1013 NOSIG=
201906170030 METAR LROP 170030Z 35005KT CAVOK 19/19 Q1013 NOSIG=
201906170100 METAR LROP 170100Z 35006KT CAVOK 20/19 Q1013 NOSIG=
201906170130 METAR LROP 170130Z 01004KT CAVOK 20/19 Q1013 NOSIG=
201906170200 METAR LROP 170200Z 02003KT 8000 NSC 19/18 Q1013 NOSIG=
201906170230 METAR LROP 170230Z 35003KT 310V010 8000 NSC 19/18 Q1013 NOSIG=
201906170300 METAR LROP 170300Z 33004KT 310V010 CAVOK 19/18 Q1013 NOSIG=
201906170330 METAR LROP 170330Z 30003KT 250V020 CAVOK 20/19 Q1013 NOSIG=
201906170400 METAR LROP 170400Z 35005KT CAVOK 21/19 Q1013 NOSIG=
201906170430 METAR LROP 170430Z 32004KT 230V040 CAVOK 22/20 Q1014 NOSIG=
201906170500 METAR LROP 170500Z VRB01KT CAVOK 23/21 Q1014 NOSIG=
201906170530 METAR LROP 170530Z 25003KT 220V280 CAVOK 25/21 Q1014 NOSIG=
201906170600 METAR LROP 170600Z 25004KT CAVOK 25/20 Q1014 NOSIG=
201906170630 METAR LROP 170630Z 28003KT 240V020 CAVOK 27/20 Q1014 NOSIG=
201906170700 METAR LROP 170700Z 06007KT CAVOK 28/20 Q1014 NOSIG=
201906170730 METAR LROP 170730Z 08005KT 040V110 CAVOK 29/20 Q1014 NOSIG=
201906170800 METAR LROP 170800Z 05005KT 010V100 CAVOK 29/21 Q1014 NOSIG=
201906170830 METAR LROP 170830Z 01005KT 310V040 CAVOK 30/21 Q1014 NOSIG=
201906170900 METAR LROP 170900Z 06006KT 030V090 CAVOK 31/20 Q1014 NOSIG=
201906170930 METAR LROP 170930Z 04005KT 360V100 CAVOK 31/19 Q1014 NOSIG=
201906171000 METAR LROP 171000Z 09006KT 040V110 CAVOK 31/18 Q1014 NOSIG=
201906171030 METAR LROP 171030Z 09007KT 050V120 CAVOK 32/18 Q1014 NOSIG=
201906171100 METAR LROP 171100Z 03007KT 330V060 CAVOK 31/18 Q1014 NOSIG=
201906171130 METAR LROP 171130Z 04006KT 020V100 9999 FEW048 32/18 Q1014
                        NOSIG=
201906171200 METAR LROP 171200Z 04011KT 9999 FEW050CB 32/17 Q1013 NOSIG=
201906171230 METAR LROP 171230Z 06010KT 030V090 9999 FEW050CB 33/18 Q1013
                        NOSIG=
201906171300 METAR LROP 171300Z 06012KT 9999 FEW050CB 33/17 Q1013 NOSIG=
201906171330 METAR LROP 171330Z 07010KT 9999 TS FEW050CB 31/18 Q1013 TEMPO
                        5000 TSRA=
201906171400 METAR LROP 171400Z 08009KT 9999 FEW050CB 30/20 Q1013 RETS
                        NOSIG=
201906171430 METAR LROP 171430Z 09008KT 9999 FEW050CB 30/20 Q1013 NOSIG=
201906171500 METAR LROP 171500Z 11005KT 9999 FEW050CB 29/21 Q1013 TEMPO
                        VRB20G30KT 3000 TSRA=
201906171530 METAR LROP 171530Z 10003KT 9999 FEW050CB 28/23 Q1013 NOSIG=
201906171600 METAR LROP 171600Z 09004KT 9999 FEW050CB 28/23 Q1013 NOSIG=
201906171630 METAR LROP 171630Z 06004KT 020V090 CAVOK 29/19 Q1013 NOSIG=
201906171700 METAR LROP 171700Z 31004KT 280V020 CAVOK 27/20 Q1013 NOSIG=
201906171730 METAR LROP 171730Z 28007KT CAVOK 25/21 Q1013 NOSIG=
201906171800 METAR LROP 171800Z 30005KT CAVOK 24/21 Q1013 NOSIG=
201906171830 METAR LROP 171830Z 32005KT CAVOK 24/22 Q1014 NOSIG=
201906171900 METAR LROP 171900Z 34006KT CAVOK 25/21 Q1014 NOSIG=
201906171930 METAR LROP 171930Z 35007KT 340V040 9999 VCTS FEW050CB 25/21
                        Q1014 NOSIG=
201906172000 METAR LROP 172000Z 03006KT 9999 VCTS FEW050CB 26/22 Q1014
                        NOSIG=
201906172030 METAR LROP 172030Z 03008KT CAVOK 25/21 Q1015 NOSIG=
201906172100 METAR LROP 172100Z 03008KT CAVOK 25/21 Q1015 NOSIG=
201906172130 METAR LROP 172130Z 03009KT CAVOK 24/21 Q1015 NOSIG=
201906172200 METAR LROP 172200Z 04009KT CAVOK 24/21 Q1015 NOSIG=
201906172230 METAR LROP 172230Z 05013KT CAVOK 23/20 Q1015 NOSIG=
201906172300 METAR LROP 172300Z 07015KT CAVOK 23/19 Q1015 NOSIG=
201906172330 METAR LROP 172330Z 06012KT CAVOK 23/18 Q1015 NOSIG=
201906180000 METAR LROP 180000Z 06009KT CAVOK 23/18 Q1015 NOSIG=
201906180030 METAR LROP 180030Z 05009KT CAVOK 22/18 Q1015 NOSIG=
201906180100 METAR LROP 180100Z 06008KT CAVOK 22/18 Q1015 NOSIG=
201906180130 METAR LROP 180130Z 08005KT CAVOK 21/18 Q1015 NOSIG=
201906180200 METAR LROP 180200Z VRB02KT CAVOK 21/18 Q1015 NOSIG=
201906180230 METAR LROP 180230Z 03004KT CAVOK 21/18 Q1015 NOSIG=
201906180300 METAR LROP 180300Z 35006KT CAVOK 21/18 Q1015 NOSIG=
201906180330 METAR LROP 180330Z 34006KT CAVOK 21/19 Q1015 NOSIG=
201906180400 METAR LROP 180400Z VRB03KT CAVOK 21/19 Q1015 NOSIG=
201906180430 METAR LROP 180430Z 30005KT 270V350 CAVOK 23/20 Q1016 NOSIG=
201906180500 METAR LROP 180500Z 31004KT 280V350 CAVOK 23/20 Q1016 NOSIG=
201906180530 METAR LROP 180530Z 01005KT 330V050 CAVOK 25/19 Q1016 NOSIG=
201906180600 METAR LROP 180600Z 06011KT CAVOK 25/18 Q1017 NOSIG=
201906180630 METAR LROP 180630Z 05012KT CAVOK 24/18 Q1017 NOSIG=
201906180700 METAR LROP 180700Z 06009KT CAVOK 25/19 Q1017 NOSIG=
201906180730 METAR LROP 180730Z 06011KT CAVOK 26/19 Q1017 NOSIG=
201906180800 METAR LROP 180800Z 07012KT CAVOK 25/18 Q1017 NOSIG=
201906180830 METAR LROP 180830Z 06012KT CAVOK 27/19 Q1017 NOSIG=
201906180900 METAR LROP 180900Z 07010KT CAVOK 26/19 Q1017 NOSIG=
201906180930 METAR LROP 180930Z 06011KT CAVOK 26/19 Q1017 NOSIG=
201906181000 METAR LROP 181000Z 07006KT CAVOK 28/18 Q1017 NOSIG=
201906181030 METAR COR LROP 181030Z 09008KT 060V120 CAVOK 29/18 Q1016
                        NOSIG=
201906181100 METAR LROP 181100Z 06009KT CAVOK 30/18 Q1016 NOSIG=
201906181130 METAR LROP 181130Z 08009KT 050V110 CAVOK 30/19 Q1016 NOSIG=
201906181200 METAR LROP 181200Z 04007KT 010V080 CAVOK 30/17 Q1015 NOSIG=
201906181230 METAR LROP 181230Z 08006KT 030V120 9999 FEW050TCU 30/17 Q1015
                        BECMG FEW045CB=
201906181300 METAR LROP 181300Z 03007KT 350V070 9999 FEW050CB 30/15 Q1015
                        NOSIG=
201906181330 METAR LROP 181330Z 04007KT 350V080 9999 FEW050CB 30/18 Q1015
                        NOSIG=
201906181400 METAR LROP 181400Z 34014KT 9999 FEW050CB 28/17 Q1015 NOSIG=
201906181430 METAR LROP 181430Z 34015KT 9999 FEW050CB 27/18 Q1014 NOSIG=
201906181500 METAR LROP 181500Z 34012KT CAVOK 28/19 Q1014 TEMPO FEW050CB=
201906181530 METAR COR LROP 181530Z 32006KT 290V350 CAVOK 28/18 Q1014
                        NOSIG=
201906181600 METAR LROP 181600Z 36010KT CAVOK 28/18 Q1014 NOSIG=
201906181630 METAR LROP 181630Z 36010KT CAVOK 27/19 Q1014 NOSIG=
201906181700 METAR LROP 181700Z 35009KT CAVOK 26/19 Q1014 NOSIG=
201906181730 METAR LROP 181730Z 36007KT CAVOK 26/18 Q1014 NOSIG=
201906181800 METAR LROP 181800Z 36006KT CAVOK 25/18 Q1014 NOSIG=
201906181830 METAR LROP 181830Z 02005KT 9999 FEW050CB 25/19 Q1015 NOSIG=
201906181900 METAR LROP 181900Z 03007KT 9999 FEW050CB 25/20 Q1015 NOSIG=
201906181930 METAR LROP 181930Z 04006KT 9999 FEW050CB 24/20 Q1015 TEMPO
                        5000 -TSRA=
201906182000 METAR LROP 182000Z 04007KT 9999 FEW050CB 24/18 Q1015 NOSIG=
201906182030 METAR LROP 182030Z 04006KT 9999 FEW050CB 23/19 Q1015 NOSIG=
201906182100 METAR LROP 182100Z 05006KT 9999 FEW050CB 23/19 Q1015 NOSIG=
201906182130 METAR LROP 182130Z 06005KT 9999 FEW050CB 22/18 Q1015 NOSIG=
201906182200 METAR LROP 182200Z 03006KT 9999 FEW047CB 23/18 Q1015 NOSIG=
201906182230 METAR LROP 182230Z 04006KT 9999 TS FEW020 SCT047CB 23/18
                        Q1015 R88/19//95 TEMPO 5000 -TSRA=
201906182300 METAR LROP 182300Z 02005KT 350V050 9999 FEW050CB 22/19 Q1015
                        RETS R88/19//95 NOSIG=
201906182330 METAR LROP 182330Z VRB02KT 9999 FEW050CB 20/19 Q1015 R88/19//95
                        NOSIG=
201906190000 METAR LROP 190000Z 36004KT CAVOK 20/19 Q1015 R88/19//95 NOSIG=
201906190030 METAR LROP 190030Z 36003KT CAVOK 20/19 Q1015 R88/19//95 NOSIG=
201906190100 METAR LROP 190100Z 01005KT CAVOK 20/18 Q1014 R88/19//95 NOSIG=
201906190130 METAR LROP 190130Z 36005KT CAVOK 20/19 Q1015 R88/19//95 NOSIG=
201906190200 METAR LROP 190200Z 03004KT CAVOK 20/18 Q1015 R88/19//95 NOSIG=
201906190230 METAR LROP 190230Z 06005KT CAVOK 20/18 Q1014 R88/19//95 NOSIG=
201906190300 METAR LROP 190300Z 08005KT CAVOK 20/18 Q1015 R88/CLRD// NOSIG=
201906190330 METAR LROP 190330Z 06005KT CAVOK 21/18 Q1015 NOSIG=
201906190400 METAR LROP 190400Z 06007KT CAVOK 21/18 Q1015 NOSIG=
201906190430 METAR LROP 190430Z 06007KT CAVOK 22/18 Q1015 NOSIG=
201906190500 METAR LROP 190500Z 05006KT CAVOK 23/18 Q1015 NOSIG=
201906190530 METAR LROP 190530Z 05012KT CAVOK 23/18 Q1015 NOSIG=
201906190600 METAR LROP 190600Z 06011KT CAVOK 24/19 Q1015 NOSIG=
201906190630 METAR LROP 190630Z 06010KT CAVOK 25/19 Q1015 NOSIG=
201906190700 METAR LROP 190700Z 07012KT CAVOK 26/19 Q1015 NOSIG=
201906190730 METAR LROP 190730Z 07009KT CAVOK 26/20 Q1015 NOSIG=
201906190800 METAR LROP 190800Z 06009KT CAVOK 27/20 Q1015 NOSIG=
201906190830 METAR LROP 190830Z 10010KT 9999 FEW032 28/19 Q1015 NOSIG=
201906190900 METAR LROP 190900Z 08009KT 050V110 9999 FEW036 28/18 Q1015
                        NOSIG=
201906190930 METAR LROP 190930Z 09009KT 9999 FEW036 29/17 Q1015 NOSIG=
201906191000 METAR LROP 191000Z 10009KT 9999 FEW042 29/16 Q1015 NOSIG=
201906191030 METAR LROP 191030Z 10008KT 9999 FEW045 30/16 Q1014 NOSIG=
201906191100 METAR LROP 191100Z 08010KT 9999 FEW045 30/13 Q1014 NOSIG=
201906191130 METAR LROP 191130Z 14007KT 110V170 CAVOK 30/16 Q1014 NOSIG=
201906191200 METAR LROP 191200Z 09009KT 060V130 CAVOK 31/13 Q1013 NOSIG=
201906191230 METAR LROP 191230Z 10007KT CAVOK 31/12 Q1013 NOSIG=
201906191300 METAR LROP 191300Z 15007KT 120V180 CAVOK 30/14 Q1013 NOSIG=
201906191330 METAR LROP 191330Z 14005KT 110V180 CAVOK 30/13 Q1012 NOSIG=
201906191400 METAR LROP 191400Z VRB04KT CAVOK 30/11 Q1013 NOSIG=
201906191430 METAR LROP 191430Z 05006KT CAVOK 31/14 Q1013 NOSIG=
201906191500 METAR LROP 191500Z 06006KT 040V100 CAVOK 30/13 Q1012 NOSIG=
201906191530 METAR LROP 191530Z 05004KT 010V100 CAVOK 30/13 Q1012 NOSIG=
201906191600 METAR LROP 191600Z 08006KT CAVOK 29/16 Q1012 NOSIG=
201906191630 METAR LROP 191630Z 09004KT CAVOK 29/16 Q1012 NOSIG=
201906191700 METAR LROP 191700Z 09003KT CAVOK 27/17 Q1012 NOSIG=
201906191730 METAR LROP 191730Z 09003KT CAVOK 26/16 Q1012 NOSIG=
201906191800 METAR LROP 191800Z 09003KT CAVOK 25/16 Q1012 NOSIG=
201906191830 METAR LROP 191830Z 07005KT CAVOK 25/16 Q1012 NOSIG=
201906191900 METAR LROP 191900Z 05007KT CAVOK 25/20 Q1013 NOSIG=
201906191930 METAR LROP 191930Z 08006KT CAVOK 24/19 Q1013 NOSIG=
201906192000 METAR LROP 192000Z 06007KT CAVOK 23/20 Q1013 NOSIG=
201906192030 METAR LROP 192030Z 04008KT CAVOK 24/20 Q1013 NOSIG=
201906192100 METAR LROP 192100Z 31005KT 230V350 CAVOK 22/20 Q1013 NOSIG=
201906192130 METAR LROP 192130Z 01004KT CAVOK 22/20 Q1013 NOSIG=
201906192200 METAR LROP 192200Z 32004KT 280V360 CAVOK 21/20 Q1013 NOSIG=
201906192230 METAR LROP 192230Z AUTO 34004KT 9999 NCD 20/19 Q1013 NOSIG=
201906192300 METAR LROP 192300Z 36005KT CAVOK 21/18 Q1013 NOSIG=
201906192330 METAR LROP 192330Z VRB02KT CAVOK 20/18 Q1013 NOSIG=
201906200000 METAR COR LROP 200000Z 27003KT CAVOK 19/18 Q1012 NOSIG=
201906200030 METAR LROP 200030Z 27004KT CAVOK 19/18 Q1013 NOSIG=
201906200100 METAR LROP 200100Z 33003KT CAVOK 19/18 Q1012 NOSIG=
201906200130 METAR LROP 200130Z 36007KT CAVOK 20/18 Q1012 NOSIG=
201906200200 METAR COR LROP 200200Z 36007KT CAVOK 20/18 Q1012 NOSIG=
201906200230 METAR COR LROP 200230Z 36006KT CAVOK 20/18 Q1013 NOSIG=
201906200300 METAR LROP 200300Z 36005KT CAVOK 19/18 Q1013 NOSIG=
201906200330 METAR LROP 200330Z 31003KT 240V030 CAVOK 20/18 Q1013 NOSIG=
201906200400 METAR LROP 200400Z 02004KT 340V050 CAVOK 23/19 Q1013 NOSIG=
201906200430 METAR LROP 200430Z 35003KT 300V030 CAVOK 22/20 Q1013 NOSIG=
201906200500 METAR LROP 200500Z 01005KT CAVOK 24/20 Q1013 NOSIG=
201906200530 METAR LROP 200530Z 01004KT 330V040 CAVOK 25/19 Q1013 NOSIG=
201906200600 METAR LROP 200600Z 04005KT 360V070 CAVOK 26/19 Q1013 NOSIG=
201906200630 METAR LROP 200630Z 05007KT CAVOK 26/20 Q1013 NOSIG=
201906200700 METAR LROP 200700Z 06006KT 010V110 CAVOK 27/20 Q1013 NOSIG=
201906200730 METAR LROP 200730Z 09005KT 010V130 CAVOK 27/20 Q1013 NOSIG=
201906200800 METAR LROP 200800Z 08004KT 040V130 CAVOK 27/20 Q1013 NOSIG=
201906200830 METAR LROP 200830Z VRB04KT CAVOK 28/19 Q1013 NOSIG=
201906200900 METAR LROP 200900Z 05004KT 350V130 CAVOK 29/21 Q1013 NOSIG=
201906200930 METAR LROP 200930Z 35006KT 290V050 CAVOK 30/18 Q1012 NOSIG=
201906201000 METAR LROP 201000Z 06003KT 330V140 CAVOK 30/19 Q1012 NOSIG=
201906201030 METAR LROP 201030Z 04005KT 360V070 CAVOK 31/18 Q1012 NOSIG=
201906201100 METAR LROP 201100Z 31006KT 280V350 CAVOK 30/17 Q1012 NOSIG=
201906201130 METAR LROP 201130Z 36007KT CAVOK 31/17 Q1011 NOSIG=
201906201200 METAR LROP 201200Z 35008KT 320V030 CAVOK 31/16 Q1011 NOSIG=
201906201230 METAR LROP 201230Z 34005KT 290V010 9999 FEW050CB 30/16 Q1011
                        NOSIG=
201906201300 METAR LROP 201300Z 35006KT 320V020 9999 TS SCT050CB 29/17
                        Q1011 TEMPO VRB18G28KT 5000 TSRA=
201906201330 METAR LROP 201330Z VRB04KT 9999 TS SCT050CB 27/18 Q1011 WS
                        ALL RWY TEMPO VRB18G28KT=
201906201400 METAR LROP 201400Z 07014KT 9999 TS SCT050CB 26/16 Q1012 WS
                        ALL RWY TEMPO VRB18G28KT 5000 TSRA
                        BKN040CB=
201906201430 METAR LROP 201430Z 11021KT 9999 TS BKN050CB 23/17 Q1013 WS
                        ALL RWY TEMPO 5000 TSRA=
201906201500 METAR LROP 201500Z 15012KT 9999 -TSRA BKN050CB 20/17 Q1013
                        WS ALL RWY TEMPO 5000 TSRA=
201906201530 METAR LROP 201530Z 14011KT 9999 -TSRA BKN050CB 21/17 Q1013
                        WS ALL RWY TEMPO 5000 TSRA=
201906201600 METAR LROP 201600Z 12009KT 9999 -SHRA SCT042CB 21/18 Q1013
                        RETS R88/29//95 TEMPO 5000 TSRA=
201906201630 METAR LROP 201630Z VRB02KT 9999 -SHRA FEW042CB 20/19 Q1014
                        R88/29//95 NOSIG=
201906201700 METAR LROP 201700Z 36007KT 9999 -RA BKN048 20/18 Q1013 R88/29//95
                        NOSIG=
201906201730 METAR LROP 201730Z 30007KT 9999 -RA FEW048 20/19 Q1013 R88/29//95
                        NOSIG=
201906201800 METAR LROP 201800Z 29005KT CAVOK 19/19 Q1013 R88/29//95 NOSIG=
201906201830 METAR LROP 201830Z 31005KT 290V350 CAVOK 20/19 Q1013 R88/29//95
                        NOSIG=
201906201900 METAR LROP 201900Z 28003KT 250V320 CAVOK 19/19 Q1012 R88/29//95
                        NOSIG=
201906201930 METAR LROP 201930Z 31004KT 260V020 CAVOK 19/19 Q1013 R88/19//95
                        NOSIG=
201906202000 METAR LROP 202000Z 26004KT CAVOK 19/19 Q1013 R88/19//95 NOSIG=
201906202030 METAR LROP 202030Z VRB02KT CAVOK 19/18 Q1013 R88/19//95 NOSIG=
201906202100 METAR LROP 202100Z VRB02KT CAVOK 19/18 Q1013 R88/19//95 NOSIG=
201906202130 METAR LROP 202130Z 26005KT CAVOK 19/18 Q1013 R88/19//95 NOSIG=
201906202200 METAR LROP 202200Z 27005KT CAVOK 19/18 Q1013 R88/19//95 NOSIG=
201906202230 METAR LROP 202230Z 27003KT CAVOK 19/18 Q1013 R88/19//95 NOSIG=
201906202300 METAR LROP 202300Z VRB02KT CAVOK 19/18 Q1013 R88/19//95 NOSIG=
201906202330 METAR LROP 202330Z 27002KT CAVOK 19/18 Q1013 R88/19//95 NOSIG=
201906210000 METAR LROP 210000Z 24005KT CAVOK 18/18 Q1013 R88/19//95 NOSIG=
201906210030 METAR LROP 210030Z 22001KT CAVOK 18/17 Q1013 R88/19//95 NOSIG=
201906210100 METAR LROP 210100Z 23003KT CAVOK 18/18 Q1013 R88/19//95 NOSIG=
201906210130 METAR LROP 210130Z 24003KT CAVOK 18/18 Q1013 R88/19//95 NOSIG=
201906210200 METAR LROP 210200Z 26005KT CAVOK 17/17 Q1013 R88/19//95 NOSIG=
201906210230 METAR LROP 210230Z 28006KT CAVOK 17/17 Q1014 R88/19//95 NOSIG=
201906210300 METAR LROP 210300Z 27006KT CAVOK 17/17 Q1014 R88/19//95 NOSIG=
201906210330 METAR LROP 210330Z 27003KT 240V310 CAVOK 18/18 Q1014 R88/CLRD//
                        NOSIG=
201906210400 METAR LROP 210400Z 28004KT 250V330 CAVOK 18/18 Q1014 NOSIG=
201906210430 METAR LROP 210430Z 01004KT 340V040 CAVOK 22/18 Q1014 NOSIG=
201906210500 METAR LROP 210500Z 30004KT 270V340 CAVOK 23/19 Q1014 NOSIG=
201906210530 METAR LROP 210530Z 29003KT 220V340 CAVOK 22/19 Q1014 NOSIG=
201906210600 METAR LROP 210600Z VRB02KT CAVOK 25/20 Q1014 NOSIG=
201906210630 METAR LROP 210630Z 36003KT 300V080 CAVOK 26/21 Q1014 NOSIG=
201906210700 METAR LROP 210700Z 03003KT 360V070 CAVOK 26/19 Q1014 NOSIG=
201906210730 METAR LROP 210730Z VRB02KT CAVOK 28/20 Q1014 NOSIG=
201906210800 METAR LROP 210800Z 04003KT 330V090 CAVOK 28/18 Q1014 NOSIG=
201906210830 METAR COR LROP 210830Z 12004KT 070V200 CAVOK 29/18 Q1014
                        NOSIG=
201906210900 METAR LROP 210900Z VRB03KT 9999 FEW044 29/18 Q1014 NOSIG=
201906210930 METAR LROP 210930Z VRB03KT 9999 FEW047 30/18 Q1014 NOSIG=
201906211000 METAR LROP 211000Z VRB03KT 9999 SCT049 30/18 Q1014 NOSIG=
201906211030 METAR LROP 211030Z VRB03KT 9999 SCT049 29/20 Q1014 NOSIG=
201906211100 METAR COR LROP 211100Z VRB03KT 9999 FEW049 29/17 Q1014 NOSIG=
201906211130 METAR LROP 211130Z 05007KT 010V080 9999 FEW050TCU 29/19 Q1014
                        NOSIG=
201906211200 METAR LROP 211200Z 07003KT 360V140 9999 VCTS FEW050TCU 28/21
                        Q1013 TEMPO 5000 TSRA SCT030CB=
201906211230 METAR LROP 211230Z 24006KT 9999 FEW050CB 27/21 Q1013 RETS
                        NOSIG=
201906211300 METAR LROP 211300Z 23006KT 190V260 9999 FEW050CB 28/21 Q1013
                        NOSIG=
201906211330 METAR LROP 211330Z 26006KT 200V290 9999 FEW050CB 30/21 Q1013
                        NOSIG=
201906211400 METAR LROP 211400Z 25004KT 200V290 9999 FEW050CB 30/17 Q1013
                        NOSIG=
201906211430 METAR LROP 211430Z 16003KT 100V220 9999 TS FEW050CB 30/16
                        Q1013 NOSIG=
201906211500 METAR COR LROP 211500Z 17010KT 9999 -TSRA FEW050CB 29/19
                        Q1013 TEMPO 5000 TSRA=
201906211530 METAR LROP 211530Z 02003KT 330V100 9999 VCSH TS FEW045CB
                        28/22 Q1013 R88/19//95 TEMPO 5000
                        TSRA=
201906211600 METAR LROP 211600Z 30006KT 280V350 9999 TS SCT050CB 26/17
                        Q1014 R88/19//95 TEMPO 5000 TSRA=
201906211630 METAR LROP 211630Z 32006KT 9999 VCTS FEW050CB 27/16 Q1013
                        R88/19//95 TEMPO 5000 TSRA=
201906211700 METAR LROP 211700Z 36008KT 9999 FEW050CB 25/18 Q1014 R88/19//95
                        NOSIG=
201906211730 METAR LROP 211730Z 01006KT 9999 VCTS FEW050CB 25/19 Q1014
                        R88/19//95 TEMPO TS=
201906211800 METAR LROP 211800Z 36004KT 330V030 9999 VCTS FEW050CB 24/19
                        Q1014 R88/19//95 NOSIG=
201906211830 METAR LROP 211830Z VRB02KT 9999 FEW050CB 22/19 Q1014 R88/19//95
                        NOSIG=
201906211900 METAR LROP 211900Z 06003KT 020V100 9999 FEW050CB 23/19 Q1014
                        R88/19//95 NOSIG=
201906211930 METAR LROP 211930Z 07005KT CAVOK 22/19 Q1015 R88/19//95 NOSIG=
201906212000 METAR LROP 212000Z 33004KT 290V020 CAVOK 21/19 Q1015 R88/19//95
                        NOSIG=
201906212030 METAR LROP 212030Z 34004KT CAVOK 21/19 Q1015 R88/19//95 NOSIG=
201906212100 METAR LROP 212100Z 34003KT 300V010 CAVOK 20/19 Q1015 R88/19//95
                        NOSIG=
201906212130 METAR LROP 212130Z 28004KT CAVOK 19/19 Q1015 R88/19//95 NOSIG=
201906212200 METAR LROP 212200Z 35003KT 320V040 CAVOK 20/19 Q1015 R88/19//95
                        NOSIG=
201906212230 METAR LROP 212230Z 33003KT 280V010 CAVOK 19/19 Q1015 R88/19//95
                        NOSIG=
201906212300 METAR LROP 212300Z 30003KT 280V340 CAVOK 19/18 Q1015 R88/19//95
                        NOSIG=
201906212330 METAR LROP 212330Z VRB02KT CAVOK 19/18 Q1015 R88/19//95 NOSIG=
201906220000 METAR LROP 220000Z VRB02KT CAVOK 19/18 Q1015 R88/19//95 NOSIG=
201906220030 METAR LROP 220030Z VRB02KT CAVOK 18/18 Q1015 R88/19//95 NOSIG=
201906220100 METAR LROP 220100Z 35004KT CAVOK 18/18 Q1015 R88/19//95 NOSIG=
201906220130 METAR LROP 220130Z 33003KT CAVOK 18/18 Q1015 R88/19//95 NOSIG=
201906220200 METAR LROP 220200Z VRB02KT CAVOK 18/18 Q1015 R88/19//95 NOSIG=
201906220230 METAR LROP 220230Z 00000KT CAVOK 18/17 Q1015 R88/19//95 NOSIG=
201906220300 METAR LROP 220300Z 28003KT 240V330 9000 NSC 18/18 Q1015 R88/19//95
                        NOSIG=
201906220330 METAR LROP 220330Z VRB02KT 9000 NSC 19/18 Q1015 R88/19//95
                        NOSIG=
201906220400 METAR LROP 220400Z 27003KT CAVOK 20/18 Q1016 R88/19//95 NOSIG=
201906220430 METAR LROP 220430Z 35003KT 300V040 CAVOK 22/18 Q1016 R88/19//95
                        NOSIG=
201906220500 METAR LROP 220500Z 04003KT 360V080 CAVOK 24/19 Q1016 R88/19//95
                        NOSIG=
201906220530 METAR LROP 220530Z VRB01KT CAVOK 25/19 Q1016 R88/19//95 NOSIG=
201906220600 METAR LROP 220600Z VRB01KT CAVOK 26/20 Q1016 NOSIG=
201906220630 METAR LROP 220630Z 17003KT 140V220 CAVOK 27/20 Q1016 NOSIG=
201906220700 METAR LROP 220700Z VRB01KT CAVOK 27/20 Q1016 NOSIG=
201906220730 METAR LROP 220730Z VRB03KT CAVOK 28/20 Q1016 NOSIG=
201906220800 METAR LROP 220800Z VRB03KT CAVOK 28/20 Q1016 NOSIG=
201906220830 METAR LROP 220830Z VRB02KT CAVOK 28/22 Q1016 NOSIG=
201906220900 METAR LROP 220900Z 25003KT 190V320 CAVOK 29/21 Q1016 NOSIG=
201906220930 METAR LROP 220930Z VRB03KT 9999 FEW040 30/20 Q1016 NOSIG=
201906221000 METAR LROP 221000Z VRB01KT 9999 FEW047 29/21 Q1016 NOSIG=
201906221030 METAR LROP 221030Z 25004KT 9999 FEW048 29/22 Q1016 NOSIG=
201906221100 METAR LROP 221100Z 33004KT 250V040 9999 TS FEW053CB 28/20
                        Q1016 NOSIG=
201906221130 METAR LROP 221130Z 19006KT 170V240 9999 TS FEW053CB 28/21
                        Q1015 NOSIG=
201906221200 METAR LROP 221200Z VRB02KT CAVOK 31/20 Q1015 RETS NOSIG=
201906221230 METAR LROP 221230Z 17003KT 070V230 9999 FEW060CB 31/18 Q1015
                        NOSIG=
201906221300 METAR LROP 221300Z VRB02KT 9999 FEW060CB 32/20 Q1015 NOSIG=
201906221330 METAR LROP 221330Z VRB03KT 9999 FEW061CB 32/18 Q1015 NOSIG=
201906221400 METAR LROP 221400Z 29003KT 250V360 9999 FEW059CB 31/20 Q1014
                        NOSIG=
201906221430 METAR LROP 221430Z 30005KT 250V330 9999 FEW055CB 31/17 Q1014
                        NOSIG=
201906221500 METAR LROP 221500Z 28006KT 250V360 9999 VCTS FEW060CB 30/18
                        Q1014 NOSIG=
201906221530 METAR LROP 221530Z 21009KT 9999 FEW060CB 30/17 Q1014 NOSIG=
201906221600 METAR COR LROP 221600Z 25005KT 9999 FEW050CB 29/20 Q1014
                        RETS NOSIG=
201906221630 METAR LROP 221630Z 31003KT 260V350 9999 FEW050CB 27/20 Q1014
                        NOSIG=
201906221700 METAR LROP 221700Z VRB01KT 9999 FEW060CB 27/20 Q1015 TEMPO
                        VRB15G25KT 5000 TSRA=
201906221730 METAR LROP 221730Z 00000KT CAVOK 26/20 Q1015 TEMPO VRB15G25KT
                        5000 TSRA=
201906221800 METAR LROP 221800Z VRB01KT CAVOK 25/20 Q1015 NOSIG=
201906221830 METAR LROP 221830Z 09002KT CAVOK 25/20 Q1015 NOSIG=
201906221900 METAR LROP 221900Z 15003KT 130V190 CAVOK 24/21 Q1015 NOSIG=
201906221930 METAR LROP 221930Z 14005KT 100V200 CAVOK 24/20 Q1015 NOSIG=
201906222000 METAR LROP 222000Z 17003KT CAVOK 23/20 Q1015 NOSIG=
201906222030 METAR LROP 222030Z 02005KT CAVOK 23/19 Q1015 NOSIG=
201906222100 METAR LROP 222100Z VRB01KT CAVOK 23/20 Q1015 NOSIG=
201906222130 METAR LROP 222130Z 07004KT CAVOK 23/20 Q1015 NOSIG=
201906222200 METAR LROP 222200Z 04002KT CAVOK 22/19 Q1015 NOSIG=
201906222230 METAR LROP 222230Z 03003KT CAVOK 22/19 Q1015 NOSIG=
201906222300 METAR LROP 222300Z 03003KT CAVOK 21/19 Q1015 NOSIG=
201906222330 METAR LROP 222330Z 08005KT CAVOK 21/19 Q1015 NOSIG=
201906230000 METAR LROP 230000Z 08003KT CAVOK 20/19 Q1015 NOSIG=
201906230030 METAR LROP 230030Z 06003KT CAVOK 21/19 Q1016 NOSIG=
201906230100 METAR LROP 230100Z 02003KT CAVOK 20/19 Q1016 NOSIG=
201906230130 METAR COR LROP 230130Z 04004KT CAVOK 20/19 Q1016 NOSIG=
201906230200 METAR LROP 230200Z 04004KT CAVOK 20/18 Q1016 NOSIG=
201906230230 METAR LROP 230230Z 03003KT CAVOK 20/18 Q1015 NOSIG=
201906230300 METAR LROP 230300Z 04003KT 020V080 CAVOK 20/18 Q1015 NOSIG=
201906230330 METAR LROP 230330Z 08004KT CAVOK 21/18 Q1015 NOSIG=
201906230400 METAR LROP 230400Z 06003KT 020V100 CAVOK 22/18 Q1016 NOSIG=
201906230430 METAR LROP 230430Z 02004KT CAVOK 22/18 Q1016 NOSIG=
201906230500 METAR LROP 230500Z 36004KT 330V040 CAVOK 23/18 Q1016 NOSIG=
201906230530 METAR LROP 230530Z 06004KT 040V100 CAVOK 24/18 Q1016 NOSIG=
201906230600 METAR LROP 230600Z 07004KT 360V110 CAVOK 25/19 Q1016 NOSIG=
201906230630 METAR LROP 230630Z 06006KT 030V110 CAVOK 26/19 Q1016 NOSIG=
201906230700 METAR LROP 230700Z 08006KT CAVOK 27/19 Q1016 NOSIG=
201906230730 METAR LROP 230730Z 08005KT 040V110 CAVOK 27/19 Q1016 NOSIG=
201906230800 METAR LROP 230800Z 10005KT 060V150 CAVOK 28/19 Q1015 NOSIG=
201906230830 METAR LROP 230830Z 09003KT 030V160 CAVOK 29/20 Q1015 NOSIG=
201906230900 METAR LROP 230900Z VRB03KT CAVOK 29/20 Q1015 NOSIG=
201906230930 METAR LROP 230930Z VRB04KT CAVOK 29/19 Q1015 NOSIG=
201906231000 METAR LROP 231000Z 16005KT 060V220 CAVOK 30/19 Q1015 NOSIG=
201906231030 METAR LROP 231030Z 23003KT 200V280 9999 FEW046 30/19 Q1015
                        NOSIG=
201906231100 METAR LROP 231100Z 03006KT 360V070 9999 BKN048 31/19 Q1015
                        NOSIG=
201906231130 METAR LROP 231130Z 03007KT 9999 FEW040TCU SCT048 31/19 Q1014
                        NOSIG=
201906231200 METAR LROP 231200Z 03005KT 280V060 9999 FEW040TCU SCT049
                        30/18 Q1014 NOSIG=
201906231230 METAR LROP 231230Z 09004KT 010V160 9999 SCT049 31/18 Q1014
                        NOSIG=
201906231300 METAR LROP 231300Z 05004KT 360V100 9999 SCT048 32/17 Q1014
                        NOSIG=
201906231330 METAR LROP 231330Z 35006KT 320V030 9999 SCT048 31/19 Q1013
                        NOSIG=
201906231400 METAR LROP 231400Z 17008KT 9999 SCT048 31/21 Q1013 NOSIG=
201906231430 METAR LROP 231430Z 12003KT 050V200 9999 FEW045 30/21 Q1013
                        NOSIG=
201906231500 METAR LROP 231500Z 15003KT 9999 FEW047 30/21 Q1013 NOSIG=
201906231530 METAR LROP 231530Z 12006KT 090V160 CAVOK 31/17 Q1012 NOSIG=
201906231600 METAR LROP 231600Z 12006KT CAVOK 30/20 Q1013 NOSIG=
201906231630 METAR LROP 231630Z 10005KT 080V140 CAVOK 30/20 Q1013 NOSIG=
201906231700 METAR LROP 231700Z 10005KT CAVOK 29/20 Q1013 NOSIG=
201906231730 METAR LROP 231730Z 08007KT CAVOK 29/19 Q1013 NOSIG=
201906231800 METAR LROP 231800Z 08007KT CAVOK 28/19 Q1012 NOSIG=
201906231830 METAR LROP 231830Z 08005KT CAVOK 27/20 Q1012 NOSIG=
201906231900 METAR LROP 231900Z 06007KT CAVOK 26/20 Q1013 NOSIG=
201906231930 METAR LROP 231930Z 04011KT CAVOK 26/20 Q1013 NOSIG=
201906232000 METAR LROP 232000Z 05009KT CAVOK 25/21 Q1013 NOSIG=
201906232030 METAR LROP 232030Z 05006KT CAVOK 24/21 Q1013 NOSIG=
201906232100 METAR LROP 232100Z 03004KT CAVOK 24/21 Q1013 NOSIG=
201906232130 METAR LROP 232130Z 06005KT CAVOK 24/21 Q1013 NOSIG=
201906232200 METAR LROP 232200Z 03007KT CAVOK 23/21 Q1013 NOSIG=
201906232230 METAR LROP 232230Z 05011KT CAVOK 23/21 Q1013 NOSIG=
201906232300 METAR LROP 232300Z 02006KT CAVOK 23/21 Q1014 NOSIG=
201906232330 METAR LROP 232330Z 03006KT CAVOK 23/21 Q1014 NOSIG=
201906240000 METAR LROP 240000Z 01006KT 9999 FEW060CB 23/21 Q1014 NOSIG=
201906240030 METAR LROP 240030Z 32014G25KT 290V350 9999 FEW021 FEW050CB
                        23/17 Q1015 TEMPO 5000 -TSRA=
201906240100 METAR COR LROP 240100Z 33012KT 8000 -SHRA SCT031CB BKN038
                        21/17 Q1015 R88/19//95 TEMPO 5000
                        -TSRA=
201906240130 METAR LROP 240130Z 35013KT 9999 FEW023 FEW035CB BKN038 21/17
                        Q1015 R88/19//95 NOSIG=
201906240200 METAR LROP 240200Z 36012KT 9999 BKN041 21/16 Q1015 R88/19//95
                        NOSIG=
201906240230 METAR LROP 240230Z 01011KT 9999 SCT045 21/16 Q1015 R88/19//95
                        NOSIG=
201906240300 METAR COR LROP 240300Z 01010KT 9999 FEW050CB 21/16 Q1015
                        R88/19//95 NOSIG=
201906240330 METAR LROP 240330Z 02009KT 9999 FEW030 FEW050CB 21/16 Q1015
                        R88/CLRD// NOSIG=
201906240400 METAR LROP 240400Z 28010KT 9999 TS SCT050CB 21/17 Q1016 TEMPO
                        5000 TSRA SCT050CB=
201906240430 METAR LROP 240430Z 32008KT 9999 SCT050CB 22/16 Q1015 RETS
                        NOSIG=
201906240500 METAR LROP 240500Z 26007KT 220V350 9999 FEW045CB 21/17 Q1016
                        NOSIG=
201906240530 METAR LROP 240530Z 25008KT 9999 FEW046CB 21/18 Q1017 NOSIG=
201906240600 METAR LROP 240600Z 26007KT 9999 SCT045CB 21/18 Q1017 R88/19//95
                        NOSIG=
201906240630 METAR LROP 240630Z 30007KT 9999 FEW050CB 22/19 Q1016 R88/19//95
                        NOSIG=
201906240700 METAR LROP 240700Z 34008KT 9999 FEW050CB 23/19 Q1016 R88/19//95
                        NOSIG=
201906240730 METAR LROP 240730Z 01009KT 9999 VCTS FEW050CB 25/20 Q1016
                        R88/19//95 BECMG 07010KT=
201906240800 METAR LROP 240800Z 02010KT 9999 FEW050CB 26/20 Q1016 R88/19//95
                        BECMG 07010KT=
201906240830 METAR LROP 240830Z 02010KT 9999 FEW050CB 27/20 Q1016 R88/19//95
                        BECMG 07010KT=
201906240900 METAR LROP 240900Z 36007KT 320V040 9999 FEW033 FEW050CB 26/21
                        Q1017 R88/19//95 NOSIG=
201906240930 METAR LROP 240930Z 32004KT 280V350 7000 SHRA BKN035 SCT050CB
                        24/23 Q1017 R88/29//95 NOSIG=
201906241000 METAR LROP 241000Z 33008KT 9999 FEW031 FEW050CB 24/22 Q1017
                        RETSRA R88/29//95 NOSIG=
201906241030 METAR LROP 241030Z 31008KT 9999 FEW030 FEW050CB 25/23 Q1017
                        R88/29//95 NOSIG=
201906241100 METAR LROP 241100Z 32009KT CAVOK 26/23 Q1017 R88/29//95 NOSIG=
201906241130 METAR LROP 241130Z 32008KT 300V360 9999 FEW039 28/22 Q1016
                        R88/29//95 NOSIG=
201906241200 METAR LROP 241200Z 33008KT 9999 FEW050CB 29/22 Q1016 R88/29//95
                        NOSIG=
201906241230 METAR LROP 241230Z 05010KT 010V080 9999 SCT036 FEW050CB 30/22
                        Q1016 R88/29//95 NOSIG=
201906241300 METAR LROP 241300Z 02011KT 9999 FEW038 SCT043 29/21 Q1016
                        R88/29//95 NOSIG=
201906241330 METAR LROP 241330Z 03010KT 350V050 9999 FEW042 FEW050CB 30/21
                        Q1015 R88/29//95 NOSIG=
201906241400 METAR LROP 241400Z 05011KT 020V080 9999 FEW050CB 30/20 Q1015
                        R88/29//95 NOSIG=
201906241430 METAR LROP 241430Z 06011KT 9999 FEW050CB 30/20 Q1016 R88/29//95
                        NOSIG=
201906241500 METAR LROP 241500Z 06011KT CAVOK 30/20 Q1015 R88/29//95 NOSIG=
201906241530 METAR LROP 241530Z 07012KT CAVOK 29/19 Q1015 R88/29//95 NOSIG=
201906241600 METAR LROP 241600Z 07013KT CAVOK 29/21 Q1016 R88/29//95 NOSIG=
201906241630 METAR LROP 241630Z 09011KT CAVOK 28/20 Q1017 R88/29//95 NOSIG=
201906241700 METAR LROP 241700Z 06009KT CAVOK 27/20 Q1017 R88/29//95 TEMPO
                        SCT040CB=
201906241730 METAR LROP 241730Z 06011KT 9999 FEW050CB 27/20 Q1018 R88/29//95
                        TEMPO VRB20KT 5000 -TSRA=
201906241800 METAR COR LROP 241800Z 06014KT 9999 FEW047CB 27/20 Q1018
                        R88/09//95 TEMPO VRB20KT TSRA=
201906241830 METAR LROP 241830Z 07010KT 9999 FEW048CB 24/18 Q1018 R88/09//95
                        NOSIG=
201906241900 METAR LROP 241900Z 07012KT 9999 FEW048CB 23/18 Q1019 R88/09//95
                        BECMG NSC=
201906241930 METAR LROP 241930Z 06008KT CAVOK 22/17 Q1019 R88/09//95 NOSIG=
201906242000 METAR LROP 242000Z 04004KT CAVOK 22/18 Q1019 R88/09//95 NOSIG=
201906242030 METAR LROP 242030Z 35005KT CAVOK 21/18 Q1020 R88/09//95 NOSIG=
201906242100 METAR LROP 242100Z 35006KT CAVOK 21/18 Q1020 R88/09//95 NOSIG=
201906242130 METAR LROP 242130Z 35007KT CAVOK 20/18 Q1020 R88/09//95 NOSIG=
201906242200 METAR LROP 242200Z 26003KT 210V350 CAVOK 20/18 Q1020 R88/09//95
                        NOSIG=
201906242230 METAR LROP 242230Z 29004KT CAVOK 20/18 Q1019 R88/09//95 NOSIG=
201906242300 METAR LROP 242300Z 28004KT 250V320 CAVOK 20/18 Q1019 R88/09//95
                        NOSIG=
201906242330 METAR COR LROP 242330Z 27003KT CAVOK 20/18 Q1019 R88/09//95
                        NOSIG=
201906250000 METAR LROP 250000Z 29004KT CAVOK 20/19 Q1019 R88/09//95 NOSIG=
201906250030 METAR LROP 250030Z 32005KT CAVOK 21/19 Q1019 R88/09//95 NOSIG=
201906250100 METAR COR LROP 250100Z 28004KT CAVOK 20/19 Q1019 R88/09//95
                        NOSIG=
201906250130 METAR LROP 250130Z 27003KT CAVOK 20/19 Q1019 R88/09//95 NOSIG=
201906250200 METAR LROP 250200Z 27004KT CAVOK 20/19 Q1019 R88/09//95 TEMPO
                        SCT040CB=
201906250230 METAR LROP 250230Z 27005KT CAVOK 20/19 Q1019 R88/09//95 TEMPO
                        SCT040CB=
201906250300 METAR LROP 250300Z 22003KT 200V270 CAVOK 20/19 Q1019 R88/09//95
                        TEMPO SCT040CB=
201906250330 METAR LROP 250330Z VRB02KT 9999 FEW052CB 21/19 Q1020 R88/09//95
                        TEMPO VRB15KT 5000 -SHRA=
201906250400 METAR LROP 250400Z 29004KT 260V340 9999 FEW054CB 21/19 Q1019
                        R88/09//95 NOSIG=
201906250430 METAR LROP 250430Z 29006KT 280V340 CAVOK 21/20 Q1020 R88/09//95
                        NOSIG=
201906250500 METAR LROP 250500Z 31005KT 290V350 9999 -SHRA FEW050CB 22/19
                        Q1020 R88/09//95 NOSIG=
201906250530 METAR LROP 250530Z 31005KT 290V350 9999 FEW050CB 23/19 Q1020
                        R88/09//95 NOSIG=
201906250600 METAR LROP 250600Z 33007KT 9999 FEW050CB 23/20 Q1020 R88/09//95
                        NOSIG=
201906250630 METAR LROP 250630Z 33006KT CAVOK 24/20 Q1020 R88/09//95 NOSIG=
201906250700 METAR LROP 250700Z 35008KT CAVOK 26/20 Q1020 R88/09//95 NOSIG=
201906250730 METAR LROP 250730Z 01011KT CAVOK 28/19 Q1020 R88/09//95 NOSIG=
201906250800 METAR LROP 250800Z 03009KT 360V070 CAVOK 29/20 Q1020 R88/09//95
                        NOSIG=
201906250830 METAR LROP 250830Z 02009KT 9999 FEW045 29/20 Q1020 R88/09//95
                        NOSIG=
201906250900 METAR LROP 250900Z 36008KT 320V030 9999 SCT045 30/21 Q1020
                        R88/09//95 NOSIG=
201906250930 METAR LROP 250930Z 03014KT 9999 FEW043 32/19 Q1020 R88/09//95
                        NOSIG=
201906251000 METAR LROP 251000Z 04017KT CAVOK 31/18 Q1020 R88/09//95 NOSIG=
201906251030 METAR LROP 251030Z 05018KT CAVOK 32/17 Q1020 R88/09//95 NOSIG=
201906251100 METAR LROP 251100Z 05020KT CAVOK 32/18 Q1019 R88/09//95 NOSIG=
201906251130 METAR LROP 251130Z 06020KT CAVOK 32/17 Q1019 R88/09//95 NOSIG=
201906251200 METAR LROP 251200Z 04018KT CAVOK 32/17 Q1019 R88/09//95 NOSIG=
201906251230 METAR LROP 251230Z 04017KT CAVOK 33/17 Q1019 RMK WS ALL RWY
                        R88/09//95 NOSIG=
201906251300 METAR LROP 251300Z 05017KT CAVOK 32/16 Q1018 WS ALL RWY R88/09//95
                        NOSIG=
201906251330 METAR LROP 251330Z 05019KT CAVOK 32/17 Q1019 WS ALL RWY R88/09//95
                        TEMPO 04020G30KT 5000 TSRA SCT040CB=
201906251400 METAR LROP 251400Z 07040KT 7000 VCTS SQ SCT040CB 28/17 Q1020
                        WS ALL RWY R88/09//95 TEMPO 1500
                        +TSRAGR BKN040CB=
201906251430 METAR LROP 251430Z 09023G33KT 8000 -SHRA SCT040CB 24/17 Q1020
                        WS ALL RWY R88/09//95 TEMPO 5000
                        TSRA BKN040CB=
201906251500 METAR LROP 251500Z 12008KT 9999 SCT060CB 24/18 Q1021 WS ALL
                        RWY R88/09//95 R08L/09//95 TEMPO
                        5000 TSRA=
201906251530 METAR LROP 251530Z 09005KT 9999 TS SCT050CB 24/17 Q1021 R88/CLRD//
                        TEMPO VRB20G30KT 3000 TSRA BKN040CB=
201906251600 METAR LROP 251600Z 02020G30KT 5000 +TSRA FEW016 BKN040CB
                        21/20 Q1021 WS ALL RWY R88/29//95
                        NOSIG=
201906251630 METAR LROP 251630Z 03011KT 8000 TSRA BKN040CB 21/20 Q1022
                        RETSRA R88/29//95 NOSIG=
201906251700 METAR LROP 251700Z 03009KT 8000 -TSRA BKN040CB 21/20 Q1022
                        RETSRA WS ALL RWY R88/29//95 BECMG
                        NSW=
201906251730 METAR COR LROP 251730Z 02010KT 9999 -SHRA BKN045CB 21/19
                        Q1022 RETS WS ALL RWY R88/29//95
                        BECMG NSC=
201906251800 METAR LROP 251800Z 02010KT 9999 -SHRA BKN050CB 21/19 Q1023
                        WS ALL RWY R88/29//95 BECMG NSC=
201906251830 METAR LROP 251830Z 01008KT 9999 -TSRA BKN050CB 21/19 Q1023
                        WS ALL RWY R88/29//95 BECMG NSC=
201906251900 METAR LROP 251900Z 34008KT 9999 -SHRA SCT050CB 20/19 Q1022
                        RETS R88/29//95 BECMG NSC=
201906251930 METAR LROP 251930Z 01008KT 9999 -SHRA SCT050CB 20/19 Q1023
                        R88/29//95 BECMG NSC=
201906252000 METAR LROP 252000Z 02006KT 9999 SCT050CB 21/19 Q1023 R88/29//95
                        BECMG NSC=
201906252030 METAR LROP 252030Z 03011KT 9999 FEW050CB 21/19 Q1023 R88/29//95
                        BECMG NSC=
201906252100 METAR LROP 252100Z 02007KT 9999 FEW050CB 21/19 Q1022 R88/29//95
                        BECMG NSC=
201906252130 METAR LROP 252130Z 02007KT 9999 FEW050CB 21/19 Q1022 R88/29//95
                        BECMG NSC=
201906252200 METAR LROP 252200Z 02004KT 350V050 CAVOK 21/19 Q1022 R88/29//95
                        NOSIG=
201906252230 METAR LROP 252230Z 36005KT CAVOK 21/19 Q1022 R88/19//95 NOSIG=
201906252300 METAR LROP 252300Z 01004KT CAVOK 21/19 Q1022 R88/19//95 NOSIG=
201906252330 METAR LROP 252330Z 36005KT CAVOK 20/19 Q1022 R88/19//95 NOSIG=
201906260000 METAR LROP 260000Z 35007KT 310V010 CAVOK 21/19 Q1022 R88/19//95
                        NOSIG=
201906260030 METAR LROP 260030Z 36007KT CAVOK 21/19 Q1022 R88/19//95 NOSIG=
201906260100 METAR LROP 260100Z 36006KT CAVOK 21/18 Q1022 R88/19//95 NOSIG=
201906260130 METAR LROP 260130Z 02006KT CAVOK 21/18 Q1022 R88/19//95 NOSIG=
201906260200 METAR LROP 260200Z 03006KT CAVOK 21/18 Q1022 R88/19//95 NOSIG=
201906260230 METAR LROP 260230Z 03009KT CAVOK 22/18 Q1023 R88/19//95 NOSIG=
201906260300 METAR LROP 260300Z 03009KT CAVOK 22/18 Q1023 R88/CLRD// NOSIG=
201906260330 METAR LROP 260330Z 04009KT CAVOK 22/17 Q1023 NOSIG=
201906260400 METAR LROP 260400Z 03011KT CAVOK 23/17 Q1023 NOSIG=
201906260430 METAR LROP 260430Z 04010KT CAVOK 24/18 Q1023 NOSIG=
201906260500 METAR LROP 260500Z 04012KT CAVOK 25/17 Q1023 NOSIG=
201906260530 METAR LROP 260530Z 03012KT CAVOK 25/18 Q1023 NOSIG=
201906260600 METAR LROP 260600Z 03013KT CAVOK 26/17 Q1024 NOSIG=
201906260630 METAR LROP 260630Z 03013KT CAVOK 27/17 Q1024 NOSIG=
201906260700 METAR LROP 260700Z 03014KT CAVOK 28/17 Q1024 NOSIG=
201906260730 METAR LROP 260730Z 04013KT CAVOK 28/17 Q1024 NOSIG=
201906260800 METAR LROP 260800Z 05016KT CAVOK 28/16 Q1024 NOSIG=
201906260830 METAR LROP 260830Z 05016KT CAVOK 29/17 Q1024 NOSIG=
201906260900 METAR LROP 260900Z 05017KT CAVOK 29/15 Q1024 NOSIG=
201906260930 METAR LROP 260930Z 06015KT CAVOK 29/17 Q1024 NOSIG=
201906261000 METAR LROP 261000Z 07014KT CAVOK 30/16 Q1024 NOSIG=
201906261030 METAR LROP 261030Z 05015KT CAVOK 30/16 Q1024 NOSIG=
201906261100 METAR LROP 261100Z 05012KT CAVOK 30/16 Q1023 NOSIG=
201906261130 METAR LROP 261130Z 06012KT 030V100 CAVOK 30/17 Q1023 NOSIG=
201906261200 METAR LROP 261200Z 07011KT 040V100 CAVOK 30/17 Q1023 NOSIG=
201906261230 METAR LROP 261230Z 07009KT 040V100 CAVOK 30/14 Q1023 NOSIG=
201906261300 METAR LROP 261300Z 04010KT CAVOK 30/15 Q1022 NOSIG=
201906261330 METAR LROP 261330Z 05009KT CAVOK 30/15 Q1022 NOSIG=
201906261400 METAR LROP 261400Z 05010KT 020V080 CAVOK 30/15 Q1022 NOSIG=
201906261430 METAR LROP 261430Z 07012KT CAVOK 30/17 Q1022 NOSIG=
201906261500 METAR LROP 261500Z 07010KT CAVOK 30/17 Q1022 NOSIG=
201906261530 METAR LROP 261530Z 07010KT CAVOK 29/14 Q1022 NOSIG=
201906261600 METAR LROP 261600Z 07010KT CAVOK 29/12 Q1022 NOSIG=
201906261630 METAR LROP 261630Z 06009KT CAVOK 29/12 Q1022 NOSIG=
201906261700 METAR LROP 261700Z 07006KT CAVOK 28/15 Q1022 NOSIG=
201906261730 METAR LROP 261730Z 07005KT CAVOK 27/16 Q1021 NOSIG=
201906261800 METAR COR LROP 261800Z 08005KT CAVOK 25/18 Q1021 NOSIG=
201906261830 METAR LROP 261830Z 00000KT CAVOK 24/18 Q1021 NOSIG=
201906261900 METAR LROP 261900Z 00000KT CAVOK 23/16 Q1022 NOSIG=
201906261930 METAR LROP 261930Z 00000KT CAVOK 22/18 Q1021 NOSIG=
201906262000 METAR LROP 262000Z 00000KT CAVOK 21/18 Q1021 NOSIG=
201906262030 METAR LROP 262030Z 25003KT CAVOK 21/18 Q1021 NOSIG=
201906262100 METAR LROP 262100Z 27003KT CAVOK 21/18 Q1021 NOSIG=
201906262130 METAR LROP 262130Z 27003KT CAVOK 20/18 Q1021 NOSIG=
201906262200 METAR LROP 262200Z 30004KT CAVOK 20/18 Q1021 NOSIG=
201906262230 METAR LROP 262230Z 30003KT CAVOK 19/18 Q1021 NOSIG=
201906262300 METAR LROP 262300Z 29003KT 280V340 CAVOK 19/18 Q1021 NOSIG=
201906262330 METAR LROP 262330Z 30003KT CAVOK 19/18 Q1020 NOSIG=
201906270000 METAR LROP 270000Z 30003KT CAVOK 19/18 Q1020 NOSIG=
201906270030 METAR LROP 270030Z AUTO 27003KT 9999 NCD 19/18 Q1020 NOSIG=
201906270100 METAR COR LROP 270100Z 27003KT CAVOK 18/18 Q1020 NOSIG=
201906270130 METAR COR LROP 270130Z 26002KT CAVOK 18/18 Q1020 NOSIG=
201906270200 METAR LROP 270200Z 28002KT CAVOK 18/18 Q1020 NOSIG=
201906270230 METAR LROP 270230Z 25003KT CAVOK 17/17 Q1020 NOSIG=
201906270300 METAR LROP 270300Z 23002KT CAVOK 17/17 Q1019 NOSIG=
201906270330 METAR LROP 270330Z 24004KT CAVOK 19/18 Q1019 NOSIG=
201906270400 METAR LROP 270400Z 23001KT CAVOK 21/19 Q1019 NOSIG=
201906270430 METAR LROP 270430Z 25003KT 210V270 CAVOK 22/19 Q1019 NOSIG=
201906270500 METAR LROP 270500Z 25003KT CAVOK 24/20 Q1018 NOSIG=
201906270530 METAR LROP 270530Z 23005KT CAVOK 25/19 Q1018 NOSIG=
201906270600 METAR LROP 270600Z 25005KT CAVOK 27/20 Q1018 NOSIG=
201906270630 METAR LROP 270630Z 27007KT CAVOK 27/21 Q1018 NOSIG=
201906270700 METAR COR LROP 270700Z 26008KT 220V280 CAVOK 28/20 Q1017
                        NOSIG=
201906270730 METAR LROP 270730Z 23007KT CAVOK 29/21 Q1017 NOSIG=
201906270800 METAR LROP 270800Z AUTO 25008KT 220V280 9999 NCD 30/20 Q1017
                        NOSIG=
201906270830 METAR LROP 270830Z 26009KT CAVOK 30/19 Q1017 NOSIG=
201906270900 METAR LROP 270900Z 25009KT 220V280 CAVOK 31/20 Q1016 NOSIG=
201906270930 METAR LROP 270930Z 26010KT CAVOK 31/18 Q1016 NOSIG=
201906271000 METAR LROP 271000Z 27012KT CAVOK 31/19 Q1015 NOSIG=
201906271030 METAR LROP 271030Z 27011KT 230V310 CAVOK 32/19 Q1015 NOSIG=
201906271100 METAR LROP 271100Z 28010KT CAVOK 32/19 Q1015 NOSIG=
201906271130 METAR LROP 271130Z 28011KT CAVOK 32/17 Q1014 NOSIG=
201906271200 METAR LROP 271200Z 25012KT 220V280 CAVOK 33/17 Q1014 NOSIG=
201906271230 METAR LROP 271230Z 27012KT 230V300 CAVOK 32/16 Q1013 NOSIG=
201906271300 METAR LROP 271300Z 25010KT CAVOK 32/17 Q1013 NOSIG=
201906271330 METAR LROP 271330Z 27011KT CAVOK 32/18 Q1013 NOSIG=
201906271400 METAR LROP 271400Z 25012KT CAVOK 32/16 Q1012 NOSIG=
201906271430 METAR LROP 271430Z 25013KT CAVOK 32/18 Q1012 NOSIG=
201906271500 METAR LROP 271500Z 27014KT CAVOK 32/16 Q1012 NOSIG=
201906271530 METAR LROP 271530Z 26011KT CAVOK 32/17 Q1011 NOSIG=
201906271600 METAR LROP 271600Z 25011KT CAVOK 31/17 Q1011 NOSIG=
201906271630 METAR LROP 271630Z 25008KT CAVOK 30/18 Q1010 NOSIG=
201906271700 METAR LROP 271700Z 26010KT CAVOK 29/18 Q1011 NOSIG=
201906271730 METAR LROP 271730Z 26007KT CAVOK 27/19 Q1011 NOSIG=
201906271800 METAR LROP 271800Z 25006KT CAVOK 26/20 Q1011 NOSIG=
201906271830 METAR LROP 271830Z 25006KT CAVOK 25/21 Q1011 NOSIG=
201906271900 METAR LROP 271900Z 25005KT CAVOK 25/21 Q1012 NOSIG=
201906271930 METAR LROP 271930Z 32007KT 280V340 CAVOK 27/19 Q1012 NOSIG=
201906272000 METAR LROP 272000Z 03007KT CAVOK 27/17 Q1012 NOSIG=
201906272030 METAR LROP 272030Z 10003KT CAVOK 26/18 Q1012 NOSIG=
201906272100 METAR LROP 272100Z 11004KT CAVOK 23/19 Q1011 NOSIG=
201906272130 METAR LROP 272130Z 19005KT CAVOK 23/19 Q1011 NOSIG=
201906272200 METAR LROP 272200Z 22003KT 150V260 CAVOK 22/19 Q1010 NOSIG=
201906272230 METAR LROP 272230Z 00000KT CAVOK 23/19 Q1011 NOSIG=
201906272300 METAR LROP 272300Z 06006KT CAVOK 22/19 Q1011 NOSIG=
201906272330 METAR LROP 272330Z 06005KT CAVOK 23/19 Q1011 NOSIG=
201906280000 METAR LROP 280000Z VRB02KT CAVOK 21/19 Q1011 NOSIG=
201906280030 METAR LROP 280030Z 00000KT CAVOK 22/19 Q1011 NOSIG=
201906280100 METAR LROP 280100Z 05003KT CAVOK 21/19 Q1010 NOSIG=
201906280130 METAR LROP 280130Z 07004KT CAVOK 21/18 Q1010 NOSIG=
201906280200 METAR LROP 280200Z 05004KT CAVOK 21/18 Q1011 NOSIG=
201906280230 METAR LROP 280230Z 05005KT CAVOK 21/17 Q1011 NOSIG=
201906280300 METAR LROP 280300Z 07004KT CAVOK 21/17 Q1011 NOSIG=
201906280330 METAR LROP 280330Z 08005KT CAVOK 21/17 Q1011 NOSIG=
201906280400 METAR LROP 280400Z 11003KT CAVOK 21/18 Q1012 NOSIG=
201906280430 METAR LROP 280430Z 10006KT CAVOK 22/18 Q1012 NOSIG=
201906280500 METAR LROP 280500Z 09008KT CAVOK 22/17 Q1012 NOSIG=
201906280530 METAR LROP 280530Z 08011KT CAVOK 23/16 Q1012 NOSIG=
201906280600 METAR LROP 280600Z 07012KT CAVOK 23/15 Q1012 NOSIG=
201906280630 METAR LROP 280630Z 07012KT CAVOK 23/15 Q1012=
201906280700 METAR LROP 280700Z 06017KT CAVOK 24/14 Q1012 NOSIG=
201906280730 METAR LROP 280730Z 06015KT CAVOK 25/15 Q1012 NOSIG=
201906280800 METAR LROP 280800Z 07014KT CAVOK 24/15 Q1013 NOSIG=
201906280830 METAR LROP 280830Z 07012KT CAVOK 24/15 Q1013 NOSIG=
201906280900 METAR LROP 280900Z 07011KT 9999 FEW060TCU 24/15 Q1013 NOSIG=
201906280930 METAR LROP 280930Z 09011KT 9999 FEW060TCU 26/14 Q1013 NOSIG=
201906281000 METAR LROP 281000Z 09009KT 9999 FEW060CB 27/14 Q1012=
201906281030 METAR LROP 281030Z 12011KT 080V140 9999 FEW050CB 27/14 Q1012
                        NOSIG=
201906281100 METAR LROP 281100Z 12012KT 9999 SCT040CB 26/14 Q1012 NOSIG=
201906281130 METAR LROP 281130Z 10009KT 060V120 9999 VCSH SCT040CB 25/13
                        Q1012 NOSIG=
201906281200 METAR LROP 281200Z 08008KT 040V100 9999 VCSH SCT040CB 24/14
                        Q1013 NOSIG=
201906281230 METAR LROP 281230Z 06015KT 9999 -SHRA SCT040CB 22/15 Q1012
                        NOSIG=
201906281300 METAR COR LROP 281300Z 06011KT 9999 -SHRA SCT050CB 23/15
                        Q1013 NOSIG=
201906281330 METAR LROP 281330Z 09010KT 9999 SCT040CB 23/15 Q1012 NOSIG=
201906281400 METAR LROP 281400Z 08008KT 9999 SCT040CB 25/14 Q1012 NOSIG=
201906281430 METAR LROP 281430Z 09007KT 9999 SCT050CB 24/14 Q1012 NOSIG=
201906281500 METAR LROP 281500Z 07007KT 9999 FEW050CB 24/15 Q1013 NOSIG=
201906281530 METAR LROP 281530Z 03007KT 9999 FEW050CB 24/16 Q1013 NOSIG=
201906281600 METAR LROP 281600Z 04007KT CAVOK 24/16 Q1013 NOSIG=
201906281630 METAR LROP 281630Z 06007KT CAVOK 24/16 Q1013 NOSIG=
201906281700 METAR LROP 281700Z 06008KT 9999 FEW050CB 23/17 Q1013 NOSIG=
201906281730 METAR LROP 281730Z 07015KT 9999 FEW025 BKN062 22/14 Q1014
                        BECMG NSC=
201906281800 METAR LROP 281800Z 06013KT 9999 FEW045CB 21/14 Q1014 NOSIG=
201906281830 METAR LROP 281830Z 07011KT 9999 FEW050CB 20/13 Q1014 NOSIG=
201906281900 METAR LROP 281900Z 06010KT CAVOK 20/13 Q1015 NOSIG=
201906281930 METAR LROP 281930Z 05010KT 9999 FEW046 20/13 Q1015 NOSIG=
201906282000 METAR LROP 282000Z 05011KT 9999 FEW049 20/12 Q1015 NOSIG=
201906282030 METAR LROP 282030Z 06009KT CAVOK 19/12 Q1016 NOSIG=
201906282100 METAR COR LROP 282100Z 08006KT CAVOK 18/11 Q1016 NOSIG=
201906282130 METAR LROP 282130Z 08006KT CAVOK 18/11 Q1016 NOSIG=
201906282200 METAR LROP 282200Z 06008KT CAVOK 17/11 Q1016 NOSIG=
201906282230 METAR LROP 282230Z 05009KT CAVOK 18/11 Q1016 NOSIG=
201906282300 METAR LROP 282300Z 06010KT CAVOK 18/10 Q1017 NOSIG=
201906282330 METAR LROP 282330Z 07008KT CAVOK 17/10 Q1017 NOSIG=
201906290000 METAR LROP 290000Z 07007KT CAVOK 17/10 Q1017 NOSIG=
201906290030 METAR COR LROP 290030Z 07007KT CAVOK 17/11 Q1017 NOSIG=
201906290100 METAR LROP 290100Z 08005KT CAVOK 17/11 Q1017=
201906290130 METAR LROP 290130Z 08006KT CAVOK 17/11 Q1017 NOSIG=
201906290200 METAR LROP 290200Z 10004KT CAVOK 17/11 Q1017 NOSIG=
201906290230 METAR LROP 290230Z 09005KT CAVOK 17/11 Q1017 NOSIG=
201906290300 METAR LROP 290300Z 10001KT CAVOK 17/13 Q1017 NOSIG=
201906290330 METAR LROP 290330Z VRB02KT CAVOK 16/13 Q1018 NOSIG=
201906290400 METAR LROP 290400Z 00000KT CAVOK 17/12 Q1018 NOSIG=
201906290430 METAR LROP 290430Z 31004KT 280V340 CAVOK 17/13 Q1018 NOSIG=
201906290500 METAR LROP 290500Z 31004KT 280V340 CAVOK 17/13 Q1018 NOSIG=
201906290530 METAR LROP 290530Z 32003KT 280V050 CAVOK 19/13 Q1019 NOSIG=
201906290600 METAR LROP 290600Z 28005KT 250V310 CAVOK 20/14 Q1019 NOSIG=
201906290630 METAR LROP 290630Z 29005KT 260V320 CAVOK 21/15 Q1018 NOSIG=
201906290700 METAR LROP 290700Z VRB02KT CAVOK 21/14 Q1018 NOSIG=
201906290730 METAR LROP 290730Z VRB02KT CAVOK 22/12 Q1018 NOSIG=
201906290800 METAR LROP 290800Z VRB04KT CAVOK 23/11 Q1018 NOSIG=
201906290830 METAR LROP 290830Z VRB03KT CAVOK 23/12 Q1018 NOSIG=
201906290900 METAR LROP 290900Z 28009KT 260V320 9999 FEW049 24/13 Q1018
                        NOSIG=
201906290930 METAR LROP 290930Z 25010KT CAVOK 22/11 Q1018 NOSIG=
201906291000 METAR LROP 291000Z 32006KT 260V350 9999 SCT049 24/13 Q1018
                        NOSIG=
201906291030 METAR LROP 291030Z 02005KT 340V050 CAVOK 23/12 Q1018 NOSIG=
201906291100 METAR LROP 291100Z 34006KT 310V010 CAVOK 25/09 Q1017 NOSIG=
201906291130 METAR LROP 291130Z 30006KT 260V360 CAVOK 24/10 Q1017 NOSIG=
201906291200 METAR LROP 291200Z 29007KT 260V320 CAVOK 23/12 Q1017 NOSIG=
201906291230 METAR LROP 291230Z 31006KT 280V340 CAVOK 24/13 Q1017 NOSIG=
201906291300 METAR LROP 291300Z 30006KT CAVOK 23/12 Q1017 NOSIG=
201906291330 METAR LROP 291330Z 30004KT 260V330 CAVOK 26/12 Q1017 NOSIG=
201906291400 METAR LROP 291400Z 29009KT 260V330 CAVOK 26/11 Q1017 NOSIG=
201906291430 METAR LROP 291430Z 28013KT CAVOK 26/12 Q1016 NOSIG=
201906291500 METAR LROP 291500Z 28012KT CAVOK 26/12 Q1016 NOSIG=
201906291530 METAR LROP 291530Z 28009KT CAVOK 25/12 Q1016 NOSIG=
201906291600 METAR LROP 291600Z 29008KT CAVOK 25/13 Q1016 NOSIG=
201906291630 METAR LROP 291630Z 30006KT CAVOK 24/11 Q1017 NOSIG=
201906291700 METAR LROP 291700Z 28005KT 240V300 CAVOK 23/12 Q1017 NOSIG=
201906291730 METAR LROP 291730Z 24004KT CAVOK 21/13 Q1017 NOSIG=
201906291800 METAR COR LROP 291800Z 27003KT CAVOK 20/14 Q1017 NOSIG=
201906291830 METAR LROP 291830Z 27003KT CAVOK 21/13 Q1017 NOSIG=
201906291900 METAR COR LROP 291900Z VRB01KT CAVOK 19/15 Q1018 NOSIG=
201906291930 METAR LROP 291930Z 00000KT CAVOK 19/15 Q1018 NOSIG=
201906292000 METAR LROP 292000Z 03006KT 340V050 CAVOK 20/14 Q1019 NOSIG=
201906292030 METAR LROP 292030Z 05007KT CAVOK 19/13 Q1019 NOSIG=
201906292100 METAR LROP 292100Z 05007KT CAVOK 19/13 Q1019 NOSIG=
201906292130 METAR LROP 292130Z 05008KT CAVOK 19/13 Q1019 NOSIG=
201906292200 METAR LROP 292200Z 05008KT CAVOK 19/13 Q1019 NOSIG=
201906292230 METAR LROP 292230Z 06007KT CAVOK 19/13 Q1019 NOSIG=
201906292300 METAR LROP 292300Z 27004KT CAVOK 18/14 Q1019 NOSIG=
201906292330 METAR LROP 292330Z 29003KT CAVOK 16/13 Q1019 NOSIG=
201906300000 METAR LROP 300000Z 29004KT CAVOK 16/14 Q1019 NOSIG=
201906300030 METAR LROP 300030Z 27003KT CAVOK 15/14 Q1019 NOSIG=
201906300100 METAR LROP 300100Z 29004KT CAVOK 15/13 Q1019 NOSIG=
201906300130 METAR LROP 300130Z 29003KT CAVOK 15/13 Q1019 NOSIG=
201906300200 METAR LROP 300200Z 28003KT CAVOK 14/13 Q1019 NOSIG=
201906300230 METAR LROP 300230Z 00000KT CAVOK 15/13 Q1019 NOSIG=
201906300300 METAR LROP 300300Z 26004KT 220V290 CAVOK 15/13 Q1019 NOSIG=
201906300330 METAR LROP 300330Z 27005KT CAVOK 15/13 Q1020 NOSIG=
201906300400 METAR LROP 300400Z 24004KT CAVOK 17/14 Q1019 NOSIG=
201906300430 METAR LROP 300430Z 26006KT CAVOK 18/14 Q1020 NOSIG=
201906300500 METAR LROP 300500Z 24006KT CAVOK 19/14 Q1020 NOSIG=
201906300530 METAR LROP 300530Z 25005KT 220V280 CAVOK 21/14 Q1020 NOSIG=
201906300600 METAR LROP 300600Z 25006KT 210V280 CAVOK 22/14 Q1020 NOSIG=
201906300630 METAR LROP 300630Z 25009KT CAVOK 23/13 Q1020 NOSIG=
201906300700 METAR LROP 300700Z 27009KT CAVOK 24/13 Q1020 NOSIG=
201906300730 METAR LROP 300730Z 27008KT 250V310 CAVOK 25/13 Q1020 NOSIG=
201906300800 METAR LROP 300800Z 28008KT 220V310 CAVOK 26/14 Q1020 NOSIG=
201906300830 METAR LROP 300830Z 26007KT 230V310 CAVOK 26/11 Q1020 NOSIG=
201906300900 METAR LROP 300900Z VRB04KT CAVOK 26/13 Q1021 NOSIG=
201906300930 METAR LROP 300930Z 29007KT 250V330 CAVOK 27/13 Q1020 NOSIG=
201906301000 METAR LROP 301000Z 30008KT 270V340 CAVOK 27/12 Q1020 NOSIG=
201906301030 METAR LROP 301030Z 25006KT 170V310 CAVOK 28/12 Q1020 NOSIG=
201906301100 METAR LROP 301100Z 32007KT 290V350 CAVOK 27/11 Q1020 NOSIG=
201906301130 METAR LROP 301130Z 29005KT 250V350 CAVOK 28/13 Q1020 NOSIG=
201906301200 METAR LROP 301200Z 30005KT 250V330 CAVOK 28/14 Q1020 NOSIG=
201906301230 METAR LROP 301230Z 25006KT 210V280 CAVOK 29/12 Q1020 NOSIG=
201906301300 METAR LROP 301300Z 33005KT 300V060 CAVOK 28/13 Q1020 NOSIG=
201906301330 METAR LROP 301330Z 25006KT CAVOK 29/15 Q1019 NOSIG=
201906301400 METAR LROP 301400Z 29006KT 260V320 CAVOK 29/14 Q1019 NOSIG=
201906301430 METAR LROP 301430Z 28009KT CAVOK 29/13 Q1019 NOSIG=
201906301500 METAR LROP 301500Z 29008KT CAVOK 29/15 Q1019 NOSIG=
201906301530 METAR LROP 301530Z 27009KT CAVOK 28/12 Q1019 NOSIG=
201906301600 METAR LROP 301600Z 26010KT CAVOK 28/12 Q1019 NOSIG=
201906301630 METAR LROP 301630Z 25008KT CAVOK 27/12 Q1019 NOSIG=
201906301700 METAR LROP 301700Z 26008KT CAVOK 26/14 Q1019 NOSIG=
201906301730 METAR LROP 301730Z 24007KT CAVOK 25/15 Q1019 NOSIG=
201906301800 METAR LROP 301800Z 24007KT CAVOK 23/16 Q1019 NOSIG=
201906301830 METAR LROP 301830Z 24006KT CAVOK 22/16 Q1019 NOSIG=
201906301900 METAR LROP 301900Z 25006KT CAVOK 21/16 Q1019 NOSIG=
201906301930 METAR LROP 301930Z 26006KT CAVOK 21/15 Q1019 NOSIG=
201906302000 METAR LROP 302000Z 24006KT CAVOK 20/16 Q1019 NOSIG=
201906302030 METAR LROP 302030Z 25006KT CAVOK 20/16 Q1019 NOSIG=
201906302100 METAR LROP 302100Z 24006KT CAVOK 20/16 Q1019 NOSIG=
201906302130 METAR LROP 302130Z 25007KT CAVOK 20/15 Q1019 NOSIG=
201906302200 METAR LROP 302200Z 24007KT CAVOK 19/16 Q1019 NOSIG=
201906302230 METAR LROP 302230Z 26007KT CAVOK 19/15 Q1019 NOSIG=
201906302300 METAR LROP 302300Z 25007KT CAVOK 19/15 Q1019 NOSIG=
201906302330 METAR LROP 302330Z 24005KT CAVOK 18/16 Q1019 NOSIG=
