201907010000 METAR LROP 010000Z 26007KT CAVOK 17/15 Q1019 NOSIG=
201907010030 METAR LROP 010030Z 26007KT CAVOK 17/16 Q1019 NOSIG=
201907010100 METAR LROP 010100Z 26005KT CAVOK 17/16 Q1019 NOSIG=
201907010130 METAR LROP 010130Z 26004KT CAVOK 17/16 Q1019 NOSIG=
201907010200 METAR LROP 010200Z 25004KT CAVOK 17/16 Q1018 NOSIG=
201907010230 METAR LROP 010230Z 26005KT CAVOK 17/16 Q1018 NOSIG=
201907010300 METAR LROP 010300Z 25005KT CAVOK 16/16 Q1019 NOSIG=
201907010330 METAR LROP 010330Z 26004KT CAVOK 17/16 Q1019 NOSIG=
201907010400 METAR LROP 010400Z 26003KT CAVOK 19/17 Q1019 NOSIG=
201907010430 METAR LROP 010430Z 26003KT CAVOK 20/17 Q1019 NOSIG=
201907010500 METAR LROP 010500Z 27003KT CAVOK 22/18 Q1019 NOSIG=
201907010530 METAR LROP 010530Z 30003KT CAVOK 23/18 Q1019 NOSIG=
201907010600 METAR LROP 010600Z VRB02KT CAVOK 25/18 Q1019 NOSIG=
201907010630 METAR LROP 010630Z VRB02KT CAVOK 26/18 Q1019 NOSIG=
201907010700 METAR LROP 010700Z 28004KT 250V310 CAVOK 28/17 Q1019 NOSIG=
201907010730 METAR LROP 010730Z 26003KT 190V320 CAVOK 29/18 Q1019 NOSIG=
201907010800 METAR LROP 010800Z 23006KT 180V290 CAVOK 29/18 Q1019 NOSIG=
201907010830 METAR LROP 010830Z 25006KT 190V300 CAVOK 30/17 Q1019 NOSIG=
201907010900 METAR LROP 010900Z 25006KT 220V290 CAVOK 30/17 Q1019 NOSIG=
201907010930 METAR LROP 010930Z 24005KT 190V320 CAVOK 31/17 Q1018 NOSIG=
201907011000 METAR LROP 011000Z 26006KT 230V300 CAVOK 31/15 Q1018 NOSIG=
201907011030 METAR LROP 011030Z 27007KT CAVOK 31/16 Q1018 NOSIG=
201907011100 METAR LROP 011100Z 21007KT 160V230 CAVOK 32/19 Q1018 NOSIG=
201907011130 METAR LROP 011130Z 25009KT CAVOK 32/17 Q1018 NOSIG=
201907011200 METAR LROP 011200Z 23009KT CAVOK 32/16 Q1017 NOSIG=
201907011230 METAR LROP 011230Z 21007KT CAVOK 32/16 Q1017 NOSIG=
201907011300 METAR LROP 011300Z 25009KT CAVOK 32/18 Q1017 NOSIG=
201907011330 METAR LROP 011330Z 25008KT 170V280 CAVOK 32/17 Q1017 NOSIG=
201907011400 METAR LROP 011400Z 26009KT 220V290 CAVOK 32/15 Q1016 NOSIG=
201907011430 METAR LROP 011430Z 26008KT CAVOK 32/17 Q1016 NOSIG=
201907011500 METAR LROP 011500Z 25008KT CAVOK 32/17 Q1016 NOSIG=
201907011530 METAR LROP 011530Z 24009KT CAVOK 32/16 Q1016 NOSIG=
201907011600 METAR LROP 011600Z 25008KT CAVOK 31/18 Q1016 NOSIG=
201907011630 METAR LROP 011630Z 24007KT CAVOK 31/19 Q1016 NOSIG=
201907011700 METAR LROP 011700Z 23006KT CAVOK 29/20 Q1016 NOSIG=
201907011730 METAR LROP 011730Z 23004KT CAVOK 27/20 Q1015 NOSIG=
201907011800 METAR LROP 011800Z 22004KT CAVOK 26/20 Q1015 NOSIG=
201907011830 METAR LROP 011830Z 22005KT CAVOK 25/20 Q1016 NOSIG=
201907011900 METAR LROP 011900Z 22005KT CAVOK 24/20 Q1016 NOSIG=
201907011930 METAR LROP 011930Z 23005KT CAVOK 23/20 Q1016 NOSIG=
201907012000 METAR LROP 012000Z 25006KT CAVOK 23/20 Q1016 NOSIG=
201907012030 METAR LROP 012030Z 23006KT CAVOK 22/19 Q1016 NOSIG=
201907012100 METAR LROP 012100Z 25006KT CAVOK 21/19 Q1016 NOSIG=
201907012130 METAR COR LROP 012130Z 24005KT CAVOK 21/19 Q1016 NOSIG=
201907012200 METAR LROP 012200Z 25004KT CAVOK 21/19 Q1016 NOSIG=
201907012230 METAR LROP 012230Z 24004KT CAVOK 21/19 Q1015 NOSIG=
201907012300 METAR LROP 012300Z 23004KT CAVOK 21/19 Q1015 NOSIG=
201907012330 METAR LROP 012330Z 24005KT CAVOK 21/18 Q1015 NOSIG=
201907020000 METAR LROP 020000Z 24005KT CAVOK 20/18 Q1015 NOSIG=
201907020030 METAR LROP 020030Z 25004KT CAVOK 20/18 Q1015 NOSIG=
201907020100 METAR LROP 020100Z 24003KT CAVOK 19/18 Q1014 NOSIG=
201907020130 METAR LROP 020130Z 25004KT CAVOK 18/18 Q1014 NOSIG=
201907020200 METAR LROP 020200Z 21003KT CAVOK 19/18 Q1014 NOSIG=
201907020230 METAR LROP 020230Z 21004KT CAVOK 19/18 Q1014 NOSIG=
201907020300 METAR LROP 020300Z 27003KT CAVOK 18/18 Q1014 NOSIG=
201907020330 METAR LROP 020330Z 24004KT CAVOK 19/18 Q1014 NOSIG=
201907020400 METAR LROP 020400Z 26003KT CAVOK 21/19 Q1014 NOSIG=
201907020430 METAR COR LROP 020430Z 26005KT CAVOK 22/20 Q1014 NOSIG=
201907020500 METAR LROP 020500Z 24004KT 200V270 CAVOK 23/20 Q1014 NOSIG=
201907020530 METAR LROP 020530Z 24004KT 210V280 CAVOK 25/21 Q1014 NOSIG=
201907020600 METAR LROP 020600Z 21003KT 140V260 CAVOK 27/22 Q1014 NOSIG=
201907020630 METAR LROP 020630Z 24006KT 210V270 CAVOK 28/23 Q1014 NOSIG=
201907020700 METAR LROP 020700Z 25006KT 210V280 CAVOK 29/22 Q1014 NOSIG=
201907020730 METAR LROP 020730Z 24006KT CAVOK 30/24 Q1014 NOSIG=
201907020800 METAR LROP 020800Z 22008KT 190V250 CAVOK 30/23 Q1013 NOSIG=
201907020830 METAR LROP 020830Z 25008KT 220V290 CAVOK 32/24 Q1013 NOSIG=
201907020900 METAR LROP 020900Z 24007KT 210V280 CAVOK 32/22 Q1013 NOSIG=
201907020930 METAR LROP 020930Z 26006KT 220V300 CAVOK 33/21 Q1013 NOSIG=
201907021000 METAR LROP 021000Z 21008KT CAVOK 33/23 Q1013 NOSIG=
201907021030 METAR LROP 021030Z 22007KT 180V250 CAVOK 34/22 Q1012 NOSIG=
201907021100 METAR LROP 021100Z 21007KT 180V240 CAVOK 34/20 Q1012 NOSIG=
201907021130 METAR LROP 021130Z 22008KT 170V250 CAVOK 34/21 Q1012 NOSIG=
201907021200 METAR LROP 021200Z 21007KT 190V270 CAVOK 34/20 Q1012 NOSIG=
201907021230 METAR LROP 021230Z 25007KT 220V280 CAVOK 35/18 Q1012 NOSIG=
201907021300 METAR LROP 021300Z 26007KT 220V290 CAVOK 35/21 Q1012 NOSIG=
201907021330 METAR LROP 021330Z 25008KT CAVOK 35/21 Q1012 NOSIG=
201907021400 METAR LROP 021400Z 25010KT CAVOK 34/21 Q1011 NOSIG=
201907021430 METAR LROP 021430Z 24008KT CAVOK 34/22 Q1011 NOSIG=
201907021500 METAR LROP 021500Z 24007KT CAVOK 34/20 Q1011 NOSIG=
201907021530 METAR LROP 021530Z 25007KT CAVOK 34/23 Q1011 NOSIG=
201907021600 METAR LROP 021600Z 24007KT CAVOK 33/20 Q1011 NOSIG=
201907021630 METAR LROP 021630Z 25006KT CAVOK 33/21 Q1011 NOSIG=
201907021700 METAR LROP 021700Z 25005KT CAVOK 31/23 Q1011 NOSIG=
201907021730 METAR LROP 021730Z 25006KT CAVOK 29/23 Q1011 NOSIG=
201907021800 METAR LROP 021800Z 25005KT CAVOK 28/23 Q1011 NOSIG=
201907021830 METAR LROP 021830Z 22003KT CAVOK 26/23 Q1011 NOSIG=
201907021900 METAR LROP 021900Z 00000KT CAVOK 27/22 Q1012 NOSIG=
201907021930 METAR LROP 021930Z 21001KT CAVOK 26/22 Q1012 NOSIG=
201907022000 METAR LROP 022000Z 24003KT CAVOK 24/22 Q1012 NOSIG=
201907022030 METAR LROP 022030Z 23004KT CAVOK 24/22 Q1012 NOSIG=
201907022100 METAR LROP 022100Z 23004KT CAVOK 24/22 Q1012 NOSIG=
201907022130 METAR LROP 022130Z 22004KT CAVOK 23/22 Q1012 NOSIG=
201907022200 METAR LROP 022200Z 36005KT CAVOK 23/21 Q1012 NOSIG=
201907022230 METAR LROP 022230Z 29002KT CAVOK 23/21 Q1012 NOSIG=
201907022300 METAR LROP 022300Z 04004KT 010V080 CAVOK 24/22 Q1012 NOSIG=
201907022330 METAR LROP 022330Z 08006KT CAVOK 22/21 Q1013 NOSIG=
201907030000 METAR LROP 030000Z 10005KT CAVOK 23/21 Q1013 NOSIG=
201907030030 METAR LROP 030030Z 10006KT CAVOK 23/20 Q1012 NOSIG=
201907030100 METAR LROP 030100Z 10005KT CAVOK 23/20 Q1012 NOSIG=
201907030130 METAR LROP 030130Z 09004KT CAVOK 23/19 Q1013 NOSIG=
201907030200 METAR LROP 030200Z 08004KT CAVOK 23/19 Q1013 NOSIG=
201907030230 METAR COR LROP 030230Z 08006KT CAVOK 22/18 Q1013 NOSIG=
201907030300 METAR LROP 030300Z 09005KT CAVOK 22/18 Q1013 NOSIG=
201907030330 METAR LROP 030330Z 09004KT CAVOK 22/18 Q1013 NOSIG=
201907030400 METAR LROP 030400Z 08004KT CAVOK 23/18 Q1013 NOSIG=
201907030430 METAR LROP 030430Z 08007KT CAVOK 24/18 Q1013 NOSIG=
201907030500 METAR LROP 030500Z 07009KT CAVOK 24/19 Q1013 NOSIG=
201907030530 METAR LROP 030530Z 07008KT CAVOK 26/19 Q1013 NOSIG=
201907030600 METAR LROP 030600Z 06009KT CAVOK 27/18 Q1014 NOSIG=
201907030630 METAR LROP 030630Z 08010KT CAVOK 27/18 Q1014 NOSIG=
201907030700 METAR LROP 030700Z 09010KT CAVOK 28/18 Q1014 NOSIG=
201907030730 METAR LROP 030730Z 07008KT CAVOK 28/19 Q1013 NOSIG=
201907030800 METAR LROP 030800Z 08008KT CAVOK 29/19 Q1013 NOSIG=
201907030830 METAR LROP 030830Z 08007KT 010V110 CAVOK 30/18 Q1013 NOSIG=
201907030900 METAR LROP 030900Z 07006KT 010V110 CAVOK 31/19 Q1013 NOSIG=
201907030930 METAR LROP 030930Z 07007KT 040V100 CAVOK 31/20 Q1013 NOSIG=
201907031000 METAR LROP 031000Z 05006KT 350V090 CAVOK 31/20 Q1013 NOSIG=
201907031030 METAR LROP 031030Z 02006KT 350V080 CAVOK 32/20 Q1013 NOSIG=
201907031100 METAR LROP 031100Z 07008KT CAVOK 32/21 Q1013 NOSIG=
201907031130 METAR LROP 031130Z 01005KT 310V060 CAVOK 32/20 Q1013 NOSIG=
201907031200 METAR LROP 031200Z 05009KT 020V100 CAVOK 33/20 Q1013 NOSIG=
201907031230 METAR LROP 031230Z 06010KT CAVOK 33/20 Q1013 NOSIG=
201907031300 METAR LROP 031300Z 07011KT CAVOK 33/20 Q1013 NOSIG=
201907031330 METAR LROP 031330Z 07015KT 9999 TS FEW050CB 32/20 Q1012 NOSIG=
201907031400 METAR LROP 031400Z 05016G26KT 9999 TS SCT012 SCT050CB 31/19
                        Q1013 TEMPO VRB26G36KT 3000 TSRA=
201907031430 METAR LROP 031430Z 01025KT 9999 -TSRA SCT020 BKN038CB 23/16
                        Q1014 WS ALL RWY NOSIG=
201907031500 METAR LROP 031500Z 16010KT 8000 TSRA FEW013 BKN043CB 19/19
                        Q1014 WS ALL RWY R88/29//95 NOSIG=
201907031530 METAR LROP 031530Z 09007KT 060V160 9999 -TSRA FEW020 SCT045CB
                        19/19 Q1013 WS ALL RWY R88/29//95
                        NOSIG=
201907031600 METAR LROP 031600Z 13006KT 9999 SCT045CB 20/19 Q1013 RETS
                        R88/29//95 NOSIG=
201907031630 METAR LROP 031630Z 10003KT 070V150 9999 SCT050CB 20/20 Q1013
                        R88/29//95 NOSIG=
201907031700 METAR COR LROP 031700Z 01009KT 9999 SCT050CB 21/19 Q1014
                        R88/19//95 NOSIG=
201907031730 METAR LROP 031730Z 02005KT 350V050 9999 FEW050CB 22/18 Q1014
                        R88/19//95 NOSIG=
201907031800 METAR LROP 031800Z 06005KT 9999 FEW060CB 21/19 Q1014 R88/19//95
                        NOSIG=
201907031830 METAR LROP 031830Z 04006KT CAVOK 21/19 Q1015 R88/19//95 NOSIG=
201907031900 METAR LROP 031900Z 06010KT 9999 FEW050CB 21/18 Q1015 R88/19//95
                        NOSIG=
201907031930 METAR LROP 031930Z 05015KT 9999 VCTS SCT050CB 21/18 Q1015
                        TEMPO VRB20KT 5000 TSRA=
201907032000 METAR LROP 032000Z 07018KT 9999 -TSRA FEW013 BKN040CB 20/19
                        Q1016 R88/29//95 TEMPO 5000 TSRA=
201907032030 METAR LROP 032030Z 06010KT 9999 -SHRA SCT050CB 20/19 Q1017
                        RETS R88/29//95 NOSIG=
201907032100 METAR LROP 032100Z 05012KT 9999 FEW050CB 20/19 Q1017 R88/29//95
                        NOSIG=
201907032130 METAR LROP 032130Z 19008KT 9999 FEW050CB 20/19 Q1019 R88/29//95
                        NOSIG=
201907032200 METAR LROP 032200Z 27003KT 220V310 9999 FEW050CB 20/19 Q1019
                        R88/29//95 NOSIG=
201907032230 METAR LROP 032230Z 08008KT 9999 FEW050CB 20/19 Q1018 R88/29//95
                        NOSIG=
201907032300 METAR LROP 032300Z 03006KT CAVOK 20/19 Q1018 R88/29//95 NOSIG=
201907032330 METAR LROP 032330Z 03006KT CAVOK 20/18 Q1018 R88/29//95 NOSIG=
201907040000 METAR COR LROP 040000Z 03001KT CAVOK 19/18 Q1018 R88/29//95
                        NOSIG=
201907040030 METAR LROP 040030Z 04003KT CAVOK 19/18 Q1017 R88/29//95 NOSIG=
201907040100 METAR LROP 040100Z 03004KT CAVOK 19/18 Q1017 R88/29//95 NOSIG=
201907040130 METAR LROP 040130Z 36004KT CAVOK 18/17 Q1017 R88/29//95 NOSIG=
201907040200 METAR LROP 040200Z 03004KT CAVOK 18/17 Q1017 R88/29//95 NOSIG=
201907040230 METAR LROP 040230Z 01007KT CAVOK 18/17 Q1017 R88/29//95 NOSIG=
201907040300 METAR LROP 040300Z 02008KT CAVOK 18/17 Q1017 R88/19//95 NOSIG=
201907040330 METAR LROP 040330Z 02009KT CAVOK 19/17 Q1017 R88/19//95 NOSIG=
201907040400 METAR LROP 040400Z 04008KT CAVOK 20/17 Q1017 R88/19//95 NOSIG=
201907040430 METAR LROP 040430Z 05006KT CAVOK 21/17 Q1017 R88/19//95 NOSIG=
201907040500 METAR COR LROP 040500Z 07005KT CAVOK 22/18 Q1018 R88/CLRD//
                        NOSIG=
201907040530 METAR LROP 040530Z 09006KT CAVOK 22/17 Q1018 R88/CLRD// NOSIG=
201907040600 METAR LROP 040600Z 09007KT CAVOK 23/18 Q1018 R88/CLRD// NOSIG=
201907040630 METAR COR LROP 040630Z 10007KT CAVOK 23/17 Q1018 NOSIG=
201907040700 METAR LROP 040700Z 10008KT CAVOK 23/17 Q1019 NOSIG=
201907040730 METAR LROP 040730Z 09010KT CAVOK 24/17 Q1019 NOSIG=
201907040800 METAR COR LROP 040800Z 08010KT CAVOK 24/18 Q1019 NOSIG=
201907040830 METAR LROP 040830Z 09009KT CAVOK 26/17 Q1019 NOSIG=
201907040900 METAR LROP 040900Z 09009KT CAVOK 26/16 Q1019 NOSIG=
201907040930 METAR LROP 040930Z 09008KT 060V130 CAVOK 27/16 Q1019 NOSIG=
201907041000 METAR LROP 041000Z 12007KT 090V150 CAVOK 27/14 Q1019 NOSIG=
201907041030 METAR LROP 041030Z 12007KT CAVOK 27/15 Q1019 NOSIG=
201907041100 METAR LROP 041100Z 10007KT CAVOK 28/16 Q1019 NOSIG=
201907041130 METAR LROP 041130Z 14007KT 110V180 CAVOK 28/14 Q1018 NOSIG=
201907041200 METAR LROP 041200Z 13006KT 080V210 CAVOK 28/16 Q1018 NOSIG=
201907041230 METAR LROP 041230Z VRB02KT CAVOK 29/14 Q1018 NOSIG=
201907041300 METAR LROP 041300Z VRB03KT CAVOK 28/14 Q1018 NOSIG=
201907041330 METAR LROP 041330Z 02003KT 330V070 CAVOK 28/14 Q1017 NOSIG=
201907041400 METAR LROP 041400Z 09005KT 070V130 CAVOK 29/16 Q1017 NOSIG=
201907041430 METAR LROP 041430Z 14005KT 080V170 CAVOK 29/14 Q1017 NOSIG=
201907041500 METAR LROP 041500Z 13005KT 090V170 CAVOK 29/15 Q1017 NOSIG=
201907041530 METAR LROP 041530Z VRB02KT CAVOK 29/13 Q1016 NOSIG=
201907041600 METAR LROP 041600Z VRB01KT CAVOK 28/16 Q1016 NOSIG=
201907041630 METAR LROP 041630Z 00000KT CAVOK 27/16 Q1016 NOSIG=
201907041700 METAR LROP 041700Z 02006KT CAVOK 27/15 Q1016 NOSIG=
201907041730 METAR LROP 041730Z 01005KT 340V040 CAVOK 25/16 Q1016 NOSIG=
201907041800 METAR LROP 041800Z 02005KT CAVOK 25/16 Q1016 NOSIG=
201907041830 METAR LROP 041830Z 36007KT CAVOK 24/17 Q1017 NOSIG=
201907041900 METAR LROP 041900Z 33008KT 310V010 CAVOK 23/18 Q1017 NOSIG=
201907041930 METAR LROP 041930Z 34008KT CAVOK 23/18 Q1017 NOSIG=
201907042000 METAR LROP 042000Z 34007KT CAVOK 23/18 Q1017 NOSIG=
201907042030 METAR LROP 042030Z 35006KT 330V030 CAVOK 22/19 Q1017 NOSIG=
201907042100 METAR LROP 042100Z 04003KT 010V070 CAVOK 22/18 Q1017 NOSIG=
201907042130 METAR LROP 042130Z 02003KT 350V070 CAVOK 21/18 Q1017 NOSIG=
201907042200 METAR LROP 042200Z 10005KT CAVOK 21/19 Q1017 NOSIG=
201907042230 METAR LROP 042230Z 10002KT CAVOK 20/19 Q1017 NOSIG=
201907042300 METAR LROP 042300Z 08001KT CAVOK 20/19 Q1017 NOSIG=
201907042330 METAR LROP 042330Z 01002KT CAVOK 19/18 Q1017 NOSIG=
201907050000 METAR LROP 050000Z 34005KT CAVOK 20/18 Q1017 NOSIG=
201907050030 METAR LROP 050030Z 01004KT CAVOK 19/18 Q1017 NOSIG=
201907050100 METAR LROP 050100Z 03004KT CAVOK 19/18 Q1016 NOSIG=
201907050130 METAR LROP 050130Z 03003KT CAVOK 19/18 Q1017 NOSIG=
201907050200 METAR LROP 050200Z 06004KT CAVOK 19/18 Q1016 NOSIG=
201907050230 METAR LROP 050230Z 04003KT CAVOK 19/18 Q1016 NOSIG=
201907050300 METAR LROP 050300Z 02004KT CAVOK 19/18 Q1016 NOSIG=
201907050330 METAR LROP 050330Z 02003KT 9000 NSC 19/18 Q1016 NOSIG=
201907050400 METAR LROP 050400Z 02004KT CAVOK 20/18 Q1016 NOSIG=
201907050430 METAR LROP 050430Z 03004KT CAVOK 20/19 Q1016 NOSIG=
201907050500 METAR LROP 050500Z 02006KT CAVOK 20/19 Q1016 NOSIG=
201907050530 METAR LROP 050530Z 06008KT CAVOK 21/19 Q1016 TEMPO VRB20KT
                        5000 TSRA SCT015 SCT030CB=
201907050600 METAR LROP 050600Z 07005KT 9999 FEW050CB 22/19 Q1016 TEMPO
                        VRB20KT 5000 TSRA=
201907050630 METAR LROP 050630Z 02004KT 360V070 9999 TS SCT050CB 22/19
                        Q1016 TEMPO VRB20KT 5000 TSRA=
201907050700 METAR LROP 050700Z 31013KT 9000 -TSRA SCT014 BKN040CB 20/19
                        Q1017 R88/29//95 TEMPO 5000 TSRA=
201907050730 METAR LROP 050730Z 28007KT 260V320 4700 TSRA BR BKN015 BKN030CB
                        19/18 Q1017 R88/29//95 TEMPO 3000
                        TSRA=
201907050800 METAR LROP 050800Z VRB01KT 8000 TSRA SCT030CB 19/18 Q1017
                        R88/29//95 BECMG -SHRA=
201907050830 METAR LROP 050830Z 04008KT 9999 -RA BKN038 FEW050CB 20/19
                        Q1017 R88/29//95 BECMG NSC=
201907050900 METAR LROP 050900Z 03009KT 9999 -RA BKN044 20/19 Q1016 R88/29//95
                        NOSIG=
201907050930 METAR LROP 050930Z 04009KT 010V070 CAVOK 22/20 Q1016 R88/29//95
                        NOSIG=
201907051000 METAR LROP 051000Z 04007KT 020V080 CAVOK 24/19 Q1016 R88/19//95
                        NOSIG=
201907051030 METAR LROP 051030Z 07006KT 030V100 CAVOK 24/19 Q1015 R88/19//95
                        NOSIG=
201907051100 METAR LROP 051100Z 08005KT 030V120 CAVOK 26/20 Q1015 R88/19//95
                        NOSIG=
201907051130 METAR LROP 051130Z 11005KT 060V170 CAVOK 26/19 Q1015 R88/CLRD//
                        NOSIG=
201907051200 METAR LROP 051200Z 16006KT CAVOK 27/19 Q1014 R88/CLRD// NOSIG=
201907051230 METAR LROP 051230Z 15006KT 120V190 CAVOK 27/18 Q1014 NOSIG=
201907051300 METAR LROP 051300Z 14005KT 060V220 9999 FEW038 27/20 Q1014
                        NOSIG=
201907051330 METAR LROP 051330Z 15005KT 090V210 9999 FEW040 28/19 Q1013
                        NOSIG=
201907051400 METAR LROP 051400Z 12004KT 060V170 9999 FEW043 28/18 Q1013
                        NOSIG=
201907051430 METAR LROP 051430Z 21004KT 160V260 9999 FEW048 27/19 Q1013
                        NOSIG=
201907051500 METAR LROP 051500Z 14005KT 110V180 CAVOK 27/21 Q1013 NOSIG=
201907051530 METAR LROP 051530Z 22003KT 170V260 CAVOK 26/20 Q1012 NOSIG=
201907051600 METAR LROP 051600Z 23003KT CAVOK 25/20 Q1012 NOSIG=
201907051630 METAR LROP 051630Z 19003KT CAVOK 25/21 Q1012 BECMG SCT040CB=
201907051700 METAR LROP 051700Z 15006KT 9999 FEW060CB 27/21 Q1011 TEMPO
                        5000 -TSRA=
201907051730 METAR LROP 051730Z 36006KT 9999 SCT049 FEW050CB 26/20 Q1011
                        TEMPO 5000 -TSRA=
201907051800 METAR LROP 051800Z 01005KT 340V040 9999 FEW048 FEW050CB 25/20
                        Q1012 NOSIG=
201907051830 METAR LROP 051830Z 36005KT 9999 FEW050 23/20 Q1012 NOSIG=
201907051900 METAR LROP 051900Z 01005KT 9999 FEW050CB 23/20 Q1012 NOSIG=
201907051930 METAR LROP 051930Z 00000KT 9999 FEW050CB 22/20 Q1012 NOSIG=
201907052000 METAR LROP 052000Z 28005KT 9999 FEW049 21/20 Q1012 NOSIG=
201907052030 METAR LROP 052030Z 27003KT CAVOK 21/20 Q1012 NOSIG=
201907052100 METAR LROP 052100Z 25003KT CAVOK 21/19 Q1012 NOSIG=
201907052130 METAR LROP 052130Z 24005KT CAVOK 20/19 Q1012 NOSIG=
201907052200 METAR LROP 052200Z 24004KT CAVOK 20/19 Q1012 NOSIG=
201907052230 METAR LROP 052230Z 25004KT CAVOK 19/19 Q1012 NOSIG=
201907052300 METAR LROP 052300Z 32005KT CAVOK 19/18 Q1012 NOSIG=
201907052330 METAR LROP 052330Z 30003KT CAVOK 19/18 Q1012 NOSIG=
201907060000 METAR LROP 060000Z 32002KT CAVOK 18/18 Q1012 NOSIG=
201907060030 METAR LROP 060030Z 20001KT CAVOK 19/18 Q1012 NOSIG=
201907060100 METAR LROP 060100Z 00000KT CAVOK 18/18 Q1012 NOSIG=
201907060130 METAR LROP 060130Z 30002KT CAVOK 18/18 Q1012 NOSIG=
201907060200 METAR LROP 060200Z 26002KT CAVOK 18/18 Q1011 NOSIG=
201907060230 METAR LROP 060230Z 22003KT CAVOK 18/18 Q1011 NOSIG=
201907060300 METAR LROP 060300Z VRB01KT CAVOK 17/17 Q1011 NOSIG=
201907060330 METAR LROP 060330Z 31001KT CAVOK 18/18 Q1012 NOSIG=
201907060400 METAR LROP 060400Z VRB02KT CAVOK 20/19 Q1012 NOSIG=
201907060430 METAR LROP 060430Z 34003KT 300V360 CAVOK 20/19 Q1012 NOSIG=
201907060500 METAR LROP 060500Z 04006KT CAVOK 21/18 Q1012 NOSIG=
201907060530 METAR LROP 060530Z 07011KT CAVOK 23/17 Q1012 NOSIG=
201907060600 METAR LROP 060600Z 07009KT CAVOK 23/16 Q1012 NOSIG=
201907060630 METAR LROP 060630Z 09007KT CAVOK 24/17 Q1013 NOSIG=
201907060700 METAR LROP 060700Z 11005KT 070V140 CAVOK 25/17 Q1013 NOSIG=
201907060730 METAR LROP 060730Z VRB04KT CAVOK 25/19 Q1013 NOSIG=
201907060800 METAR LROP 060800Z VRB02KT CAVOK 26/16 Q1013 NOSIG=
201907060830 METAR LROP 060830Z VRB03KT CAVOK 26/18 Q1013 NOSIG=
201907060900 METAR LROP 060900Z 21003KT 140V270 CAVOK 27/16 Q1013 NOSIG=
201907060930 METAR LROP 060930Z 29003KT 230V330 CAVOK 27/14 Q1013 NOSIG=
201907061000 METAR LROP 061000Z 22004KT 110V270 CAVOK 27/14 Q1013 NOSIG=
201907061030 METAR LROP 061030Z 26005KT 200V300 CAVOK 29/15 Q1012 NOSIG=
201907061100 METAR LROP 061100Z VRB05KT CAVOK 29/14 Q1012 NOSIG=
201907061130 METAR LROP 061130Z 20006KT CAVOK 30/18 Q1012 NOSIG=
201907061200 METAR LROP 061200Z 24006KT 200V280 CAVOK 29/14 Q1012 NOSIG=
201907061230 METAR LROP 061230Z 25004KT 200V320 CAVOK 30/13 Q1011 NOSIG=
201907061300 METAR LROP 061300Z 23004KT 170V310 CAVOK 30/14 Q1011 NOSIG=
201907061330 METAR LROP 061330Z 31004KT 240V010 CAVOK 29/15 Q1011 NOSIG=
201907061400 METAR LROP 061400Z 29007KT 260V320 CAVOK 30/14 Q1011 NOSIG=
201907061430 METAR LROP 061430Z 30006KT 260V330 CAVOK 29/15 Q1011 NOSIG=
201907061500 METAR LROP 061500Z 29008KT CAVOK 29/15 Q1011 NOSIG=
201907061530 METAR LROP 061530Z 28007KT 260V320 CAVOK 30/15 Q1011 NOSIG=
201907061600 METAR LROP 061600Z 31004KT CAVOK 28/16 Q1011 NOSIG=
201907061630 METAR LROP 061630Z 30004KT CAVOK 28/16 Q1011 NOSIG=
201907061700 METAR LROP 061700Z 32003KT CAVOK 27/17 Q1011 NOSIG=
201907061730 METAR LROP 061730Z VRB02KT CAVOK 26/14 Q1011 NOSIG=
201907061800 METAR LROP 061800Z 05003KT 030V140 CAVOK 25/14 Q1011 NOSIG=
201907061830 METAR LROP 061830Z 08003KT CAVOK 24/16 Q1011 NOSIG=
201907061900 METAR LROP 061900Z 13003KT CAVOK 23/15 Q1011 NOSIG=
201907061930 METAR LROP 061930Z 09002KT CAVOK 22/17 Q1011 NOSIG=
201907062000 METAR LROP 062000Z 07003KT CAVOK 22/17 Q1012 NOSIG=
201907062030 METAR LROP 062030Z 03003KT CAVOK 22/17 Q1012 NOSIG=
201907062100 METAR LROP 062100Z 02005KT CAVOK 22/17 Q1012 NOSIG=
201907062130 METAR LROP 062130Z 05004KT 020V080 CAVOK 21/17 Q1012 NOSIG=
201907062200 METAR LROP 062200Z 07005KT CAVOK 21/18 Q1012 NOSIG=
201907062230 METAR LROP 062230Z 08003KT CAVOK 20/17 Q1012 NOSIG=
201907062300 METAR LROP 062300Z 04005KT CAVOK 20/17 Q1011 NOSIG=
201907062330 METAR LROP 062330Z 03005KT CAVOK 20/17 Q1011 NOSIG=
201907070000 METAR LROP 070000Z 03005KT CAVOK 19/17 Q1011 NOSIG=
201907070030 METAR LROP 070030Z 02005KT CAVOK 19/17 Q1011 NOSIG=
201907070100 METAR LROP 070100Z 01006KT CAVOK 19/17 Q1012 NOSIG=
201907070130 METAR LROP 070130Z 02005KT CAVOK 18/17 Q1011 NOSIG=
201907070200 METAR LROP 070200Z 02004KT CAVOK 19/17 Q1011 NOSIG=
201907070230 METAR LROP 070230Z 02004KT CAVOK 18/16 Q1012 NOSIG=
201907070300 METAR LROP 070300Z 01004KT CAVOK 17/16 Q1012 NOSIG=
201907070330 METAR LROP 070330Z 04003KT CAVOK 19/16 Q1011 NOSIG=
201907070400 METAR LROP 070400Z 10002KT CAVOK 20/16 Q1011 NOSIG=
201907070430 METAR LROP 070430Z 07005KT CAVOK 21/17 Q1011 NOSIG=
201907070500 METAR LROP 070500Z 10003KT CAVOK 21/17 Q1011 NOSIG=
201907070530 METAR LROP 070530Z 10004KT CAVOK 22/18 Q1010 NOSIG=
201907070600 METAR LROP 070600Z 10003KT CAVOK 24/18 Q1010 NOSIG=
201907070630 METAR LROP 070630Z 00000KT CAVOK 25/19 Q1010 NOSIG=
201907070700 METAR LROP 070700Z VRB02KT CAVOK 26/19 Q1010 NOSIG=
201907070730 METAR LROP 070730Z VRB03KT CAVOK 28/20 Q1010 NOSIG=
201907070800 METAR LROP 070800Z 25004KT 170V300 CAVOK 29/18 Q1010 NOSIG=
201907070830 METAR LROP 070830Z 21005KT 170V240 CAVOK 30/18 Q1010 NOSIG=
201907070900 METAR LROP 070900Z 21006KT 170V250 CAVOK 30/16 Q1009 NOSIG=
201907070930 METAR LROP 070930Z 22007KT 160V260 CAVOK 30/16 Q1009 NOSIG=
201907071000 METAR LROP 071000Z 24007KT CAVOK 31/18 Q1009 NOSIG=
201907071030 METAR LROP 071030Z 21007KT 160V240 CAVOK 31/15 Q1009 NOSIG=
201907071100 METAR LROP 071100Z 26009KT CAVOK 31/19 Q1009 NOSIG=
201907071130 METAR LROP 071130Z 24008KT 200V280 CAVOK 32/16 Q1008 NOSIG=
201907071200 METAR LROP 071200Z 22008KT 180V240 CAVOK 32/14 Q1008 NOSIG=
201907071230 METAR LROP 071230Z 23010KT 180V270 CAVOK 31/16 Q1007 NOSIG=
201907071300 METAR LROP 071300Z 23009KT CAVOK 32/17 Q1007 NOSIG=
201907071330 METAR LROP 071330Z 24008KT 180V270 CAVOK 31/16 Q1007 NOSIG=
201907071400 METAR LROP 071400Z 23009KT CAVOK 31/15 Q1006 NOSIG=
201907071430 METAR LROP 071430Z 26008KT CAVOK 32/17 Q1006 NOSIG=
201907071500 METAR LROP 071500Z 26010KT CAVOK 31/15 Q1006 NOSIG=
201907071530 METAR LROP 071530Z 25009KT CAVOK 31/17 Q1005 NOSIG=
201907071600 METAR LROP 071600Z 25009KT CAVOK 31/15 Q1005 NOSIG=
201907071630 METAR LROP 071630Z 24008KT CAVOK 30/16 Q1005 NOSIG=
201907071700 METAR LROP 071700Z 25007KT CAVOK 29/17 Q1005 NOSIG=
201907071730 METAR LROP 071730Z 26006KT CAVOK 28/18 Q1005 NOSIG=
201907071800 METAR LROP 071800Z 23005KT CAVOK 26/17 Q1005 NOSIG=
201907071830 METAR LROP 071830Z 27003KT 240V310 CAVOK 25/19 Q1005 NOSIG=
201907071900 METAR LROP 071900Z 28003KT CAVOK 25/18 Q1005 NOSIG=
201907071930 METAR LROP 071930Z 27003KT CAVOK 24/19 Q1005 NOSIG=
201907072000 METAR LROP 072000Z 20002KT CAVOK 23/20 Q1005 NOSIG=
201907072030 METAR LROP 072030Z 20002KT CAVOK 23/20 Q1005 NOSIG=
201907072100 METAR LROP 072100Z 26003KT CAVOK 22/19 Q1005 NOSIG=
201907072130 METAR LROP 072130Z 00000KT CAVOK 22/19 Q1005 NOSIG=
201907072200 METAR LROP 072200Z 00000KT CAVOK 22/20 Q1005 NOSIG=
201907072230 METAR LROP 072230Z 00000KT 9999 FEW050CB 22/20 Q1005 NOSIG=
201907072300 METAR LROP 072300Z 27024G35KT 9999 -TSRA BKN035CB 22/19 Q1007
                        WS ALL RWY R88/19//95 TEMPO 3000
                        TSRA=
201907072330 METAR LROP 072330Z 26015KT 9999 -TSRA FEW031 BKN040CB 21/20
                        Q1008 WS ALL RWY R88/29//95 NOSIG=
201907080000 METAR LROP 080000Z 36003KT 310V030 9999 -TSRA SCT050CB 21/20
                        Q1006 WS ALL RWY R88/29//95 NOSIG=
201907080030 METAR LROP 080030Z 00000KT 9999 -SHRA SCT050CB 20/20 Q1006
                        RETS R88/29//95 NOSIG=
201907080100 METAR COR LROP 080100Z 23005KT 9999 FEW050CB 20/20 Q1006
                        R88/29//95 NOSIG=
201907080130 METAR LROP 080130Z 21006KT CAVOK 20/20 Q1006 R88/29//95 NOSIG=
201907080200 METAR LROP 080200Z 26007KT 6000 NSC 20/20 Q1006 R88/29//95
                        TEMPO 5000 BR=
201907080230 METAR LROP 080230Z 25006KT 6000 NSC 19/19 Q1006 R88/29//95
                        TEMPO 5000 BR=
201907080300 METAR LROP 080300Z 24008KT 8000 NSC 19/19 Q1006 R88/29//95
                        NOSIG=
201907080330 METAR LROP 080330Z 23009KT CAVOK 19/19 Q1006 R88/29//95 NOSIG=
201907080400 METAR COR LROP 080400Z 23009KT 9999 FEW007 20/19 Q1006 R88/CLRD//
                        NOSIG=
201907080430 METAR LROP 080430Z 24010KT 9999 SCT007 20/19 Q1006 R88/CLRD//
                        NOSIG=
201907080500 METAR LROP 080500Z 25011KT 9999 SCT008 21/20 Q1007 NOSIG=
201907080530 METAR LROP 080530Z 27012KT 9999 SCT011 21/20 Q1007 NOSIG=
201907080600 METAR LROP 080600Z 27010KT 9999 BKN011 22/20 Q1007 NOSIG=
201907080630 METAR LROP 080630Z 29007KT 260V330 9999 FEW012 24/21 Q1007
                        NOSIG=
201907080700 METAR LROP 080700Z 30005KT 210V360 9999 FEW018 25/20 Q1008
                        NOSIG=
201907080730 METAR LROP 080730Z 27006KT 220V320 9999 BKN023 24/21 Q1009
                        NOSIG=
201907080800 METAR LROP 080800Z 24006KT 200V330 9999 SCT027 24/20 Q1009
                        NOSIG=
201907080830 METAR LROP 080830Z 24005KT 210V280 9999 SCT022 BKN027 BKN044
                        26/20 Q1009 NOSIG=
201907080900 METAR LROP 080900Z 25006KT 220V320 9999 FEW029TCU BKN033
                        26/21 Q1009 NOSIG=
201907080930 METAR LROP 080930Z 31005KT 280V350 9999 FEW030TCU SCT034
                        27/19 Q1009 NOSIG=
201907081000 METAR LROP 081000Z VRB03KT 9999 FEW033TCU BKN037 26/18 Q1010
                        NOSIG=
201907081030 METAR LROP 081030Z VRB01KT 9999 FEW040CB 25/20 Q1009 NOSIG=
201907081100 METAR LROP 081100Z 25006KT 220V290 9999 -TSRA SCT039CB 25/22
                        Q1010 TEMPO 5000 TSRA=
201907081130 METAR LROP 081130Z VRB02KT 9999 TS SCT035CB BKN036 23/22
                        Q1010 RERA R88/29//95 TEMPO 5000
                        TSRA=
201907081200 METAR LROP 081200Z 04012KT 9999 FEW030 SCT050CB 24/20 Q1010
                        RERA R88/29//95 NOSIG=
201907081230 METAR COR LROP 081230Z 06008KT 9999 FEW050CB 25/21 Q1010
                        R88/CLRD// NOSIG=
201907081300 METAR LROP 081300Z 06006KT 020V080 CAVOK 27/19 Q1010 NOSIG=
201907081330 METAR LROP 081330Z 11006KT 080V150 CAVOK 28/19 Q1010 NOSIG=
201907081400 METAR LROP 081400Z 13009KT CAVOK 27/21 Q1010 NOSIG=
201907081430 METAR LROP 081430Z 16007KT 9999 FEW060CB 27/21 Q1010 NOSIG=
201907081500 METAR LROP 081500Z 16010KT 120V180 9999 SCT060CB 26/20 Q1009
                        TEMPO 5000 TSRA=
201907081530 METAR LROP 081530Z 05020KT 8000 +SHRA SCT034CB 22/20 Q1010
                        TEMPO 5000 +TSRA=
201907081600 METAR LROP 081600Z 06011KT 9999 FEW020 SCT040CB 23/21 Q1010
                        RETS R88/29//95 NOSIG=
201907081630 METAR LROP 081630Z 10008KT 9999 FEW045CB 23/19 Q1011 R88/29//95
                        NOSIG=
201907081700 METAR LROP 081700Z 09006KT 9999 FEW020 FEW045CB 21/20 Q1011
                        R88/29//95 NOSIG=
201907081730 METAR LROP 081730Z 11006KT 9999 FEW045CB 21/20 Q1011 R88/19//95
                        NOSIG=
201907081800 METAR LROP 081800Z 11005KT CAVOK 20/20 Q1011 R88/19//95 NOSIG=
201907081830 METAR LROP 081830Z 11004KT CAVOK 20/20 Q1012 R88/19//95 NOSIG=
201907081900 METAR LROP 081900Z 15003KT CAVOK 19/19 Q1012 R88/19//95 NOSIG=
201907081930 METAR LROP 081930Z 13003KT CAVOK 19/19 Q1012 R88/19//95 NOSIG=
201907082000 METAR LROP 082000Z 00000KT CAVOK 19/19 Q1012 R88/09//95 NOSIG=
201907082030 METAR LROP 082030Z VRB01KT 8000 NSC 18/18 Q1012 R88/09//95
                        NOSIG=
201907082100 METAR LROP 082100Z VRB02KT CAVOK 18/18 Q1013 R88/09//95 NOSIG=
201907082130 METAR LROP 082130Z 01004KT 9000 NSC 18/18 Q1013 R88/09//95
                        NOSIG=
201907082200 METAR LROP 082200Z 01005KT CAVOK 18/18 Q1013 R88/09//95 NOSIG=
201907082230 METAR LROP 082230Z 03004KT CAVOK 18/18 Q1013 R88/09//95 NOSIG=
201907082300 METAR LROP 082300Z 05004KT CAVOK 18/17 Q1013 R88/09//95 NOSIG=
201907082330 METAR LROP 082330Z 06006KT CAVOK 18/17 Q1013 R88/09//95 NOSIG=
201907090000 METAR LROP 090000Z 06007KT CAVOK 17/16 Q1013 R88/09//95 NOSIG=
201907090030 METAR LROP 090030Z 07006KT CAVOK 17/16 Q1013 R88/09//95 NOSIG=
201907090100 METAR LROP 090100Z 09006KT CAVOK 16/15 Q1013 R88/09//95 NOSIG=
201907090130 METAR LROP 090130Z 07007KT CAVOK 16/14 Q1013 R88/09//95 NOSIG=
201907090200 METAR LROP 090200Z 08005KT CAVOK 15/14 Q1013 R88/09//95 NOSIG=
201907090230 METAR LROP 090230Z 07006KT CAVOK 16/14 Q1013 R88/09//95 NOSIG=
201907090300 METAR LROP 090300Z 08004KT CAVOK 15/14 Q1013 R88/09//95 NOSIG=
201907090330 METAR LROP 090330Z 07006KT CAVOK 16/14 Q1014 R88/09//95 NOSIG=
201907090400 METAR LROP 090400Z 03005KT 360V080 CAVOK 17/14 Q1014 R88/09//95
                        NOSIG=
201907090430 METAR LROP 090430Z 06005KT CAVOK 17/15 Q1014 R88/09//95 NOSIG=
201907090500 METAR LROP 090500Z 09003KT 060V120 CAVOK 18/15 Q1014 R88/09//95
                        NOSIG=
201907090530 METAR LROP 090530Z 06005KT CAVOK 18/15 Q1014 R88/09//95 TEMPO
                        FEW050CB=
201907090600 METAR LROP 090600Z 04005KT 9999 -SHRA FEW050CB 18/15 Q1014
                        R88/09//95 NOSIG=
201907090630 METAR LROP 090630Z 05007KT 9999 -SHRA FEW048CB 19/15 Q1014
                        R88/09//95 NOSIG=
201907090700 METAR LROP 090700Z 03006KT 9999 FEW031 20/16 Q1014 R88/09//95
                        NOSIG=
201907090730 METAR LROP 090730Z 02007KT 9999 FEW035 19/16 Q1014 R88/09//95
                        NOSIG=
201907090800 METAR LROP 090800Z 04006KT 010V070 9999 FEW032 20/16 Q1014
                        R88/09//95 NOSIG=
201907090830 METAR LROP 090830Z 04008KT 010V070 9999 FEW033 21/16 Q1014
                        R88/09//95 NOSIG=
201907090900 METAR LROP 090900Z 04005KT 340V070 CAVOK 21/16 Q1014 R88/09//95
                        NOSIG=
201907090930 METAR LROP 090930Z 05006KT 9999 FEW029TCU 21/17 Q1014 R88/09//95
                        NOSIG=
201907091000 METAR LROP 091000Z 06006KT CAVOK 23/17 Q1013 R88/09//95 NOSIG=
201907091030 METAR LROP 091030Z 08005KT 350V130 CAVOK 23/18 Q1013 R88/09//95
                        NOSIG=
201907091100 METAR LROP 091100Z 03005KT 350V070 CAVOK 22/17 Q1013 R88/09//95
                        NOSIG=
201907091130 METAR LROP 091130Z 07004KT 350V130 CAVOK 23/17 Q1013 R88/09//95
                        NOSIG=
201907091200 METAR LROP 091200Z VRB02KT 9999 FEW040 24/17 Q1012 R88/09//95
                        NOSIG=
201907091230 METAR LROP 091230Z VRB03KT 9999 FEW036 24/18 Q1012 R88/09//95
                        NOSIG=
201907091300 METAR LROP 091300Z VRB02KT 9999 FEW036 24/18 Q1012 R88/09//95
                        NOSIG=
201907091330 METAR LROP 091330Z 28004KT 180V340 9999 FEW041 24/17 Q1012
                        R88/09//95 NOSIG=
201907091400 METAR LROP 091400Z 29005KT 260V320 9999 SCT037 24/17 Q1012
                        R88/09//95 NOSIG=
201907091430 METAR LROP 091430Z 29005KT 260V320 9999 FEW041 24/18 Q1012
                        R88/09//95 NOSIG=
201907091500 METAR LROP 091500Z 31004KT 280V340 9999 FEW041 23/17 Q1012
                        R88/09//95 NOSIG=
201907091530 METAR LROP 091530Z 30004KT CAVOK 24/17 Q1011 R88/09//95 NOSIG=
201907091600 METAR LROP 091600Z 36008KT 9999 FEW045CB BKN049 23/15 Q1011
                        R88/09//95 NOSIG=
201907091630 METAR LROP 091630Z 03006KT 9999 FEW042CB BKN045 23/14 Q1011
                        R88/09//95 NOSIG=
201907091700 METAR LROP 091700Z 01007KT CAVOK 22/13 Q1012 R88/09//95 NOSIG=
201907091730 METAR LROP 091730Z 01006KT CAVOK 22/11 Q1012 R88/09//95 NOSIG=
201907091800 METAR LROP 091800Z 03004KT CAVOK 21/11 Q1012 R88/09//95 NOSIG=
201907091830 METAR LROP 091830Z 02004KT CAVOK 20/12 Q1012 R88/09//95 NOSIG=
201907091900 METAR LROP 091900Z 03004KT CAVOK 20/11 Q1012 R88/09//95 NOSIG=
201907091930 METAR LROP 091930Z VRB02KT CAVOK 19/12 Q1012 R88/09//95 NOSIG=
201907092000 METAR LROP 092000Z VRB01KT CAVOK 18/13 Q1012 R88/09//95 NOSIG=
201907092030 METAR LROP 092030Z VRB02KT CAVOK 18/12 Q1012 R88/09//95 NOSIG=
201907092100 METAR LROP 092100Z 25005KT CAVOK 17/14 Q1012 R88/09//95 NOSIG=
201907092130 METAR LROP 092130Z 29005KT 260V330 CAVOK 16/14 Q1012 R88/09//95
                        NOSIG=
201907092200 METAR LROP 092200Z 32004KT CAVOK 16/14 Q1012 R88/09//95 NOSIG=
201907092230 METAR LROP 092230Z 30004KT CAVOK 16/14 Q1012 R88/09//95 NOSIG=
201907092300 METAR LROP 092300Z 30003KT CAVOK 15/14 Q1011 R88/09//95 NOSIG=
201907092330 METAR LROP 092330Z 29002KT CAVOK 15/14 Q1011 R88/09//95 NOSIG=
201907100000 METAR LROP 100000Z 32003KT CAVOK 16/13 Q1011 R88/09//95 NOSIG=
201907100030 METAR LROP 100030Z 31002KT CAVOK 16/14 Q1011 R88/09//95 NOSIG=
201907100100 METAR LROP 100100Z VRB01KT CAVOK 15/13 Q1011 R88/09//95 NOSIG=
201907100130 METAR LROP 100130Z 30001KT CAVOK 15/13 Q1011 R88/09//95 NOSIG=
201907100200 METAR LROP 100200Z 00000KT CAVOK 15/13 Q1011 R88/09//95 NOSIG=
201907100230 METAR LROP 100230Z 28004KT CAVOK 15/13 Q1011 R88/09//95 NOSIG=
201907100300 METAR LROP 100300Z 26003KT CAVOK 15/13 Q1011 R88/09//95 NOSIG=
201907100330 METAR LROP 100330Z 31003KT 270V010 CAVOK 15/13 Q1011 R88/09//95
                        NOSIG=
201907100400 METAR LROP 100400Z 29003KT 260V350 CAVOK 15/13 Q1011 R88/09//95
                        NOSIG=
201907100430 METAR COR LROP 100430Z 03006KT CAVOK 16/13 Q1011 R88/09//95
                        NOSIG=
201907100500 METAR LROP 100500Z 04005KT CAVOK 18/13 Q1011 R88/09//95 NOSIG=
201907100530 METAR LROP 100530Z 04005KT CAVOK 18/13 Q1011 R88/09//95 NOSIG=
201907100600 METAR LROP 100600Z 07009KT CAVOK 20/14 Q1011 R88/09//95 NOSIG=
201907100630 METAR LROP 100630Z 10007KT CAVOK 21/14 Q1011 R88/09//95 NOSIG=
201907100700 METAR LROP 100700Z 10005KT 040V150 CAVOK 22/14 Q1011 R88/09//95
                        NOSIG=
201907100730 METAR LROP 100730Z 11005KT 080V150 CAVOK 23/13 Q1011 R88/09//95
                        NOSIG=
201907100800 METAR LROP 100800Z VRB03KT CAVOK 23/13 Q1011 R88/09//95 NOSIG=
201907100830 METAR LROP 100830Z VRB02KT CAVOK 24/14 Q1011 R88/09//95 NOSIG=
201907100900 METAR LROP 100900Z VRB04KT CAVOK 24/12 Q1010 R88/09//95 NOSIG=
201907100930 METAR LROP 100930Z 19003KT 150V270 CAVOK 24/12 Q1010 R88/09//95
                        NOSIG=
201907101000 METAR LROP 101000Z 17005KT 120V230 CAVOK 24/14 Q1010 R88/09//95
                        NOSIG=
201907101030 METAR LROP 101030Z 28008KT 250V310 9999 FEW050CB 23/12 Q1010
                        R88/09//95 NOSIG=
201907101100 METAR LROP 101100Z 26009KT 9999 SCT050CB 22/13 Q1010 R88/09//95
                        NOSIG=
201907101130 METAR LROP 101130Z 26009KT 9999 FEW050CB 24/13 Q1009 R88/09//95
                        NOSIG=
201907101200 METAR LROP 101200Z 30010KT 9999 FEW050CB 24/12 Q1009 R88/09//95
                        NOSIG=
201907101230 METAR LROP 101230Z 26009KT 9999 FEW050 23/13 Q1009 R88/09//95
                        NOSIG=
201907101300 METAR LROP 101300Z 26015KT 240V300 9999 FEW050CB 22/13 Q1009
                        R88/09//95 NOSIG=
201907101330 METAR LROP 101330Z 25013KT 9999 FEW050CB 21/13 Q1009 R88/09//95
                        NOSIG=
201907101400 METAR LROP 101400Z 24010KT CAVOK 22/14 Q1009 R88/09//95 NOSIG=
201907101430 METAR LROP 101430Z 24010KT CAVOK 22/14 Q1009 R88/09//95 NOSIG=
201907101500 METAR LROP 101500Z 24009KT CAVOK 22/14 Q1009 R88/CLRD// NOSIG=
201907101530 METAR LROP 101530Z 25010KT CAVOK 22/14 Q1009 NOSIG=
201907101600 METAR LROP 101600Z 25010KT CAVOK 22/14 Q1009 NOSIG=
201907101630 METAR LROP 101630Z 25009KT CAVOK 21/14 Q1009 NOSIG=
201907101700 METAR LROP 101700Z 25006KT CAVOK 21/14 Q1009 NOSIG=
201907101730 METAR LROP 101730Z 25006KT CAVOK 20/14 Q1009 NOSIG=
201907101800 METAR LROP 101800Z 26007KT CAVOK 20/14 Q1009 NOSIG=
201907101830 METAR LROP 101830Z 31005KT CAVOK 19/15 Q1009 NOSIG=
201907101900 METAR LROP 101900Z 31005KT 9999 -SHRA FEW050CB 19/15 Q1010
                        NOSIG=
201907101930 METAR LROP 101930Z 01006KT 9999 FEW050CB 20/13 Q1010 NOSIG=
201907102000 METAR LROP 102000Z 01010KT CAVOK 19/09 Q1010 NOSIG=
201907102030 METAR LROP 102030Z 04010KT 9999 -SHRA SCT048CB 18/12 Q1010
                        BECMG NSC=
201907102100 METAR LROP 102100Z 05010KT 9999 SHRA SCT050CB 17/13 Q1011
                        BECMG NSC=
201907102130 METAR LROP 102130Z 08009KT 9999 -SHRA FEW028 FEW050CB 16/14
                        Q1011 RERA BECMG NSC=
201907102200 METAR LROP 102200Z 09009KT CAVOK 16/14 Q1010 NOSIG=
201907102230 METAR LROP 102230Z 09006KT CAVOK 15/14 Q1011 NOSIG=
201907102300 METAR LROP 102300Z 09006KT CAVOK 15/14 Q1011 NOSIG=
201907102330 METAR LROP 102330Z 10006KT CAVOK 15/13 Q1011 NOSIG=
201907110000 METAR LROP 110000Z 09004KT CAVOK 15/13 Q1011 NOSIG=
201907110030 METAR LROP 110030Z 12003KT CAVOK 14/14 Q1011 NOSIG=
201907110100 METAR LROP 110100Z 10001KT CAVOK 14/13 Q1011 NOSIG=
201907110130 METAR LROP 110130Z 00000KT CAVOK 13/13 Q1011 NOSIG=
201907110200 METAR LROP 110200Z 00000KT CAVOK 13/13 Q1011 NOSIG=
201907110230 METAR LROP 110230Z VRB02KT CAVOK 13/12 Q1011 NOSIG=
201907110300 METAR LROP 110300Z 32002KT CAVOK 12/12 Q1011 NOSIG=
201907110330 METAR LROP 110330Z 30003KT CAVOK 13/12 Q1011 NOSIG=
201907110400 METAR LROP 110400Z 32005KT 300V360 CAVOK 14/13 Q1011 NOSIG=
201907110430 METAR LROP 110430Z 29005KT 270V340 CAVOK 16/14 Q1012 NOSIG=
201907110500 METAR LROP 110500Z 27006KT CAVOK 17/14 Q1012 NOSIG=
201907110530 METAR LROP 110530Z 28006KT CAVOK 18/15 Q1012 NOSIG=
201907110600 METAR LROP 110600Z 25006KT CAVOK 18/14 Q1012 NOSIG=
201907110630 METAR LROP 110630Z 24005KT 210V280 CAVOK 19/15 Q1012 NOSIG=
201907110700 METAR LROP 110700Z 24006KT 210V280 CAVOK 21/14 Q1012 NOSIG=
201907110730 METAR LROP 110730Z VRB04KT 9999 FEW034 21/13 Q1012 NOSIG=
201907110800 METAR COR LROP 110800Z VRB04KT 9999 FEW038 SCT049 21/13 Q1012
                        NOSIG=
201907110830 METAR LROP 110830Z 24007KT 9999 SCT040 21/11 Q1012 NOSIG=
201907110900 METAR LROP 110900Z 28006KT 240V340 9999 BKN045 20/13 Q1011
                        NOSIG=
201907110930 METAR LROP 110930Z 27005KT 240V320 9999 FEW047 22/13 Q1011
                        NOSIG=
201907111000 METAR LROP 111000Z 25008KT 210V280 CAVOK 23/12 Q1011 NOSIG=
201907111030 METAR LROP 111030Z 26009KT 230V290 CAVOK 22/11 Q1011 NOSIG=
201907111100 METAR LROP 111100Z 25010KT 220V280 CAVOK 23/10 Q1011 NOSIG=
201907111130 METAR LROP 111130Z 28012KT CAVOK 24/12 Q1010 NOSIG=
201907111200 METAR LROP 111200Z 25007KT 220V290 9999 FEW050CB 22/11 Q1010
                        NOSIG=
201907111230 METAR LROP 111230Z 27009KT 240V300 CAVOK 23/10 Q1010 NOSIG=
201907111300 METAR LROP 111300Z 29011KT CAVOK 23/12 Q1010 NOSIG=
201907111330 METAR LROP 111330Z 29011KT 9999 FEW050CB 22/11 Q1010 NOSIG=
201907111400 METAR LROP 111400Z 30015KT 9999 FEW043 FEW050CB 20/12 Q1010
                        NOSIG=
201907111430 METAR LROP 111430Z 29008KT 9999 FEW038 FEW050CB 23/10 Q1010
                        NOSIG=
201907111500 METAR LROP 111500Z 29010KT CAVOK 22/11 Q1010 NOSIG=
201907111530 METAR LROP 111530Z 30005KT CAVOK 21/14 Q1010 NOSIG=
201907111600 METAR LROP 111600Z 28007KT CAVOK 24/10 Q1010 NOSIG=
201907111630 METAR LROP 111630Z 26008KT CAVOK 22/11 Q1010 NOSIG=
201907111700 METAR LROP 111700Z 25005KT CAVOK 20/12 Q1010 NOSIG=
201907111730 METAR LROP 111730Z 24004KT CAVOK 20/11 Q1010 NOSIG=
201907111800 METAR LROP 111800Z 20003KT CAVOK 19/13 Q1010 NOSIG=
201907111830 METAR LROP 111830Z 14002KT CAVOK 19/12 Q1010 NOSIG=
201907111900 METAR LROP 111900Z 02008KT CAVOK 20/13 Q1010 TEMPO TS SCT050CB=
201907111930 METAR LROP 111930Z 06006KT 9999 FEW050CB 19/12 Q1010 NOSIG=
201907112000 METAR LROP 112000Z 35008KT 9999 TS BKN050CB 18/14 Q1012 NOSIG=
201907112030 METAR LROP 112030Z 03010KT 9999 -TSRA SCT023 SCT050CB 16/15
                        Q1011 RESHRA R88/29//95 BECMG NSW=
201907112100 METAR LROP 112100Z 03011KT 9999 FEW050CB 15/14 Q1011 RETS
                        R88/29//95 BECMG NSC=
201907112130 METAR COR LROP 112130Z 03008KT 9999 FEW050CB 15/14 Q1012
                        R88/29//95 BECMG NSC=
201907112200 METAR LROP 112200Z 02007KT 9999 FEW050CB 15/13 Q1012 R88/29//95
                        TEMPO TS=
201907112230 METAR LROP 112230Z VRB03KT 9999 -TSRA FEW037 BKN050CB 14/14
                        Q1012 R88/29//95 NOSIG=
201907112300 METAR COR LROP 112300Z 10008KT 9999 SCT050CB 14/14 Q1012
                        R88/29//95 BECMG NSC=
201907112330 METAR LROP 112330Z 09005KT 9000 -TSRA SCT050CB 14/14 Q1011
                        R88/29//95 BECMG NSC=
201907120000 METAR LROP 120000Z 12005KT 9999 FEW050CB 14/14 Q1010 R88/29//95
                        BECMG NSC=
201907120030 METAR LROP 120030Z 15003KT CAVOK 13/13 Q1010 R88/29//95 NOSIG=
201907120100 METAR LROP 120100Z 30005KT 260V360 CAVOK 13/13 Q1011 R88/29//95
                        NOSIG=
201907120130 METAR LROP 120130Z 31004KT CAVOK 13/13 Q1011 R88/29//95 NOSIG=
201907120200 METAR LROP 120200Z 24004KT 210V270 CAVOK 12/12 Q1011 R88/29//95
                        NOSIG=
201907120230 METAR LROP 120230Z 31003KT 270V330 CAVOK 12/12 Q1011 R88/29//95
                        NOSIG=
201907120300 METAR LROP 120300Z 25004KT CAVOK 12/12 Q1012 R88/29//95 NOSIG=
201907120330 METAR LROP 120330Z 26006KT CAVOK 12/12 Q1012 R88/29//95 NOSIG=
201907120400 METAR LROP 120400Z 28005KT CAVOK 13/13 Q1012 R88/29//95 NOSIG=
201907120430 METAR LROP 120430Z 31005KT CAVOK 13/13 Q1012 R88/29//95 NOSIG=
201907120500 METAR LROP 120500Z 29005KT CAVOK 14/14 Q1012 R88/29//95 NOSIG=
201907120530 METAR LROP 120530Z 33005KT 300V010 CAVOK 16/14 Q1012 R88/29//95
                        NOSIG=
201907120600 METAR LROP 120600Z 32004KT CAVOK 18/14 Q1013 R88/CLRD// NOSIG=
201907120630 METAR LROP 120630Z 03005KT 340V080 CAVOK 19/13 Q1013 R88/CLRD//
                        NOSIG=
201907120700 METAR LROP 120700Z 11004KT 060V160 CAVOK 19/12 Q1013 NOSIG=
201907120730 METAR LROP 120730Z 06006KT 040V110 9999 FEW023 20/12 Q1013
                        NOSIG=
201907120800 METAR LROP 120800Z 05006KT 030V090 9999 SCT032 20/13 Q1013
                        NOSIG=
201907120830 METAR LROP 120830Z 08004KT 9999 SCT033 21/13 Q1013 NOSIG=
201907120900 METAR LROP 120900Z 06005KT 010V120 9999 SCT036 21/13 Q1013
                        NOSIG=
201907120930 METAR LROP 120930Z 05006KT 350V120 9999 SCT038 21/11 Q1013
                        NOSIG=
201907121000 METAR LROP 121000Z 07006KT 030V100 9999 SCT040 22/11 Q1012
                        NOSIG=
201907121030 METAR LROP 121030Z VRB03KT 9999 SCT048 22/10 Q1012 NOSIG=
201907121100 METAR LROP 121100Z VRB04KT 9999 SCT049 23/10 Q1012 NOSIG=
201907121130 METAR LROP 121130Z VRB04KT CAVOK 23/11 Q1012 NOSIG=
201907121200 METAR LROP 121200Z 02005KT 330V080 CAVOK 23/10 Q1012 NOSIG=
201907121230 METAR LROP 121230Z 04004KT 360V100 CAVOK 24/10 Q1012 NOSIG=
201907121300 METAR LROP 121300Z 09005KT CAVOK 24/11 Q1012 NOSIG=
201907121330 METAR LROP 121330Z VRB01KT CAVOK 22/11 Q1012 NOSIG=
201907121400 METAR LROP 121400Z 16004KT 090V210 CAVOK 24/09 Q1012 NOSIG=
201907121430 METAR LROP 121430Z 14003KT 060V210 CAVOK 24/10 Q1011 NOSIG=
201907121500 METAR LROP 121500Z 15003KT 080V200 CAVOK 22/12 Q1011 NOSIG=
201907121530 METAR LROP 121530Z 09003KT 060V120 CAVOK 21/14 Q1011 NOSIG=
201907121600 METAR LROP 121600Z 17003KT 140V210 CAVOK 21/13 Q1011 NOSIG=
201907121630 METAR LROP 121630Z 00000KT CAVOK 20/11 Q1011 NOSIG=
201907121700 METAR LROP 121700Z VRB01KT CAVOK 20/11 Q1011 NOSIG=
201907121730 METAR LROP 121730Z 13002KT CAVOK 20/11 Q1011 NOSIG=
201907121800 METAR LROP 121800Z 18002KT CAVOK 19/12 Q1012 NOSIG=
201907121830 METAR LROP 121830Z 25003KT CAVOK 20/12 Q1012 NOSIG=
201907121900 METAR LROP 121900Z 26003KT CAVOK 18/12 Q1012 NOSIG=
201907121930 METAR LROP 121930Z 26003KT CAVOK 18/14 Q1012 NOSIG=
201907122000 METAR LROP 122000Z 11004KT CAVOK 17/15 Q1012 NOSIG=
201907122030 METAR LROP 122030Z 00000KT CAVOK 16/14 Q1012 NOSIG=
201907122100 METAR LROP 122100Z 00000KT CAVOK 17/15 Q1012 NOSIG=
201907122130 METAR LROP 122130Z 00000KT CAVOK 16/13 Q1012 NOSIG=
201907122200 METAR LROP 122200Z 00000KT CAVOK 16/14 Q1012 NOSIG=
201907122230 METAR LROP 122230Z VRB02KT CAVOK 15/14 Q1012 NOSIG=
201907122300 METAR LROP 122300Z VRB02KT CAVOK 16/14 Q1012 NOSIG=
201907122330 METAR LROP 122330Z VRB01KT CAVOK 16/14 Q1012 NOSIG=
201907130000 METAR LROP 130000Z VRB02KT CAVOK 15/14 Q1012 NOSIG=
201907130030 METAR LROP 130030Z 00000KT CAVOK 15/14 Q1012 NOSIG=
201907130100 METAR LROP 130100Z VRB02KT CAVOK 14/14 Q1012 NOSIG=
201907130130 METAR LROP 130130Z 24001KT CAVOK 14/14 Q1012 NOSIG=
201907130200 METAR LROP 130200Z 29003KT CAVOK 14/14 Q1012 NOSIG=
201907130230 METAR LROP 130230Z VRB01KT CAVOK 14/14 Q1012 NOSIG=
201907130300 METAR LROP 130300Z 01003KT 320V030 CAVOK 14/14 Q1012 NOSIG=
201907130330 METAR LROP 130330Z 03001KT CAVOK 15/13 Q1012 NOSIG=
201907130400 METAR LROP 130400Z 02003KT 350V050 CAVOK 17/13 Q1012 NOSIG=
201907130430 METAR LROP 130430Z 01004KT CAVOK 16/14 Q1012 NOSIG=
201907130500 METAR LROP 130500Z 35003KT 320V020 CAVOK 16/14 Q1012 NOSIG=
201907130530 METAR LROP 130530Z 02003KT 350V060 CAVOK 17/14 Q1012 NOSIG=
201907130600 METAR LROP 130600Z VRB02KT CAVOK 19/13 Q1012 NOSIG=
201907130630 METAR LROP 130630Z 08002KT CAVOK 21/14 Q1012 NOSIG=
201907130700 METAR LROP 130700Z VRB02KT CAVOK 22/14 Q1012 NOSIG=
201907130730 METAR LROP 130730Z VRB02KT CAVOK 24/12 Q1012 NOSIG=
201907130800 METAR LROP 130800Z 17004KT 110V280 CAVOK 25/11 Q1011 NOSIG=
201907130830 METAR LROP 130830Z VRB02KT CAVOK 25/11 Q1011 NOSIG=
201907130900 METAR LROP 130900Z VRB05KT CAVOK 26/12 Q1011 NOSIG=
201907130930 METAR LROP 130930Z 18005KT 150V220 CAVOK 26/12 Q1011 NOSIG=
201907131000 METAR LROP 131000Z 17005KT 100V220 CAVOK 26/11 Q1010 NOSIG=
201907131030 METAR LROP 131030Z 22007KT 200V260 CAVOK 26/10 Q1010 NOSIG=
201907131100 METAR LROP 131100Z 18006KT 140V250 CAVOK 26/09 Q1010 NOSIG=
201907131130 METAR LROP 131130Z 22008KT 190V250 CAVOK 27/12 Q1010 NOSIG=
201907131200 METAR LROP 131200Z 25006KT 200V270 CAVOK 25/11 Q1010 NOSIG=
201907131230 METAR LROP 131230Z 21006KT 190V260 CAVOK 27/12 Q1009 NOSIG=
201907131300 METAR LROP 131300Z 20006KT 170V240 CAVOK 26/13 Q1009 NOSIG=
201907131330 METAR LROP 131330Z 20005KT 150V240 CAVOK 26/11 Q1009 NOSIG=
201907131400 METAR LROP 131400Z 20005KT 170V250 CAVOK 27/10 Q1009 NOSIG=
201907131430 METAR LROP 131430Z 26003KT 190V320 CAVOK 26/11 Q1009 NOSIG=
201907131500 METAR LROP 131500Z 15003KT CAVOK 26/09 Q1008 NOSIG=
201907131530 METAR LROP 131530Z 00000KT CAVOK 25/15 Q1008 NOSIG=
201907131600 METAR LROP 131600Z 04005KT 010V080 CAVOK 26/09 Q1009 NOSIG=
201907131630 METAR LROP 131630Z 05008KT 9999 FEW060TCU 25/10 Q1009 NOSIG=
201907131700 METAR LROP 131700Z 04011KT 9999 FEW060CB 22/13 Q1009 NOSIG=
201907131730 METAR LROP 131730Z 04009KT CAVOK 21/14 Q1009 NOSIG=
201907131800 METAR LROP 131800Z 05010KT CAVOK 20/13 Q1009 NOSIG=
201907131830 METAR LROP 131830Z 04007KT CAVOK 19/13 Q1009 NOSIG=
201907131900 METAR LROP 131900Z 04007KT CAVOK 19/13 Q1009 NOSIG=
201907131930 METAR LROP 131930Z 04007KT CAVOK 19/13 Q1009 NOSIG=
201907132000 METAR LROP 132000Z 04005KT CAVOK 18/14 Q1008 NOSIG=
201907132030 METAR LROP 132030Z 02005KT 350V050 CAVOK 18/14 Q1009 NOSIG=
201907132100 METAR LROP 132100Z 01006KT CAVOK 17/14 Q1008 NOSIG=
201907132130 METAR LROP 132130Z 02005KT CAVOK 18/14 Q1008 NOSIG=
201907132200 METAR LROP 132200Z 03005KT CAVOK 18/14 Q1008 NOSIG=
201907132230 METAR LROP 132230Z 04005KT CAVOK 18/14 Q1008 NOSIG=
201907132300 METAR LROP 132300Z 01006KT CAVOK 18/14 Q1008 NOSIG=
201907132330 METAR LROP 132330Z 02006KT CAVOK 17/14 Q1008 NOSIG=
201907140000 METAR LROP 140000Z 02005KT CAVOK 17/14 Q1007 NOSIG=
201907140030 METAR LROP 140030Z 36006KT CAVOK 17/14 Q1007 NOSIG=
201907140100 METAR LROP 140100Z 36007KT CAVOK 17/14 Q1007 NOSIG=
201907140130 METAR LROP 140130Z 01005KT CAVOK 17/14 Q1007 NOSIG=
201907140200 METAR LROP 140200Z VRB04KT CAVOK 16/14 Q1007 NOSIG=
201907140230 METAR LROP 140230Z 31003KT 250V010 CAVOK 15/14 Q1007 NOSIG=
201907140300 METAR LROP 140300Z 32004KT 290V350 CAVOK 15/14 Q1007 NOSIG=
201907140330 METAR LROP 140330Z 34005KT 320V030 CAVOK 16/14 Q1007 NOSIG=
201907140400 METAR LROP 140400Z 33005KT 290V360 CAVOK 17/14 Q1007 NOSIG=
201907140430 METAR LROP 140430Z 33006KT 310V030 CAVOK 18/14 Q1007 NOSIG=
201907140500 METAR LROP 140500Z 33004KT 270V010 CAVOK 18/14 Q1007 NOSIG=
201907140530 METAR LROP 140530Z 30004KT 270V020 CAVOK 18/15 Q1007 TEMPO
                        SCT040CB=
201907140600 METAR LROP 140600Z 32004KT 290V360 9999 -RA NSC 17/16 Q1007
                        R88/19//95 TEMPO SCT040CB=
201907140630 METAR LROP 140630Z VRB01KT CAVOK 18/16 Q1007 R88/19//95 TEMPO
                        SCT040CB=
201907140700 METAR COR LROP 140700Z 27004KT 9999 FEW050CB 18/16 Q1007
                        R88/19//95 NOSIG=
201907140730 METAR LROP 140730Z 32003KT 280V360 9999 FEW050CB 19/15 Q1008
                        R88/19//95 NOSIG=
201907140800 METAR LROP 140800Z 30004KT 9999 FEW035 FEW050CB 19/16 Q1008
                        R88/19//95 NOSIG=
201907140830 METAR LROP 140830Z 31004KT 270V340 9999 FEW050CB 20/15 Q1008
                        R88/19//95 BECMG 08010KT=
201907140900 METAR LROP 140900Z 30003KT 270V350 9999 FEW050CB 20/16 Q1008
                        R88/19//95 BECMG 08010KT=
201907140930 METAR LROP 140930Z 28005KT 260V320 9999 FEW050CB 21/17 Q1008
                        R88/09//95 BECMG 08010KT=
201907141000 METAR LROP 141000Z 33005KT 280V360 9999 SCT023 SCT041 SCT050CB
                        21/16 Q1007 R88/09//95 BECMG 08010KT=
201907141030 METAR LROP 141030Z 36010KT 330V040 9999 SCT023 FEW050CB 21/17
                        Q1007 R88/09//95 BECMG 08010KT=
201907141100 METAR COR LROP 141100Z 06008KT 9999 BKN020 21/17 Q1007 R88/09//95
                        NOSIG=
201907141130 METAR LROP 141130Z 05009KT 9999 SCT024 SCT031 22/16 Q1007
                        R88/09//95 NOSIG=
201907141200 METAR LROP 141200Z 06010KT 9999 FEW050CB 23/17 Q1007 R88/09//95
                        NOSIG=
201907141230 METAR LROP 141230Z 06006KT 030V090 9999 VCTS FEW027 SCT050CB
                        22/16 Q1007 R88/09//95 TEMPO 5000
                        TSRA BKN035CB=
201907141300 METAR LROP 141300Z 18008KT 9999 TS SCT018 BKN028 SCT050CB
                        20/16 Q1007 R88/09//95 TEMPO 5000
                        TSRA BKN035CB=
201907141330 METAR LROP 141330Z 19005KT 9999 -TSRA BKN029 BKN035CB 18/17
                        Q1008 R88/29//95 TEMPO 5000 TSRA=
201907141400 METAR LROP 141400Z VRB02KT 9999 -SHRA VCTS SCT030 BKN040CB
                        17/16 Q1008 RETS R88/29//95 TEMPO
                        5000 TSRA=
201907141430 METAR LROP 141430Z 08010KT 9999 -SHRA VCTS FEW009 SCT037
                        BKN040CB 17/17 Q1008 R88/29//95 NOSIG=
201907141500 METAR LROP 141500Z 08006KT 9999 -SHRA SCT045CB 17/16 Q1008
                        R88/29//95 NOSIG=
201907141530 METAR LROP 141530Z 03006KT 330V050 9999 -SHRA SCT045CB 17/17
                        Q1008 R88/29//95 NOSIG=
201907141600 METAR LROP 141600Z 00000KT 9999 -SHRA BKN045CB 17/17 Q1008
                        R88/29//95 NOSIG=
201907141630 METAR LROP 141630Z 29003KT 8000 -SHRA SCT045CB 17/17 Q1008
                        R88/29//95 BECMG CAVOK=
201907141700 METAR LROP 141700Z 02004KT 360V060 8000 -SHRA SCT045CB 17/17
                        Q1008 R88/29//95 BECMG CAVOK=
201907141730 METAR LROP 141730Z AUTO 01006KT 9999 -RA FEW003/// BKN100///
                        17/17 Q1008 BECMG CAVOK=
201907141800 METAR LROP 141800Z 01006KT 9999 FEW043 17/16 Q1008 R88/29//95
                        BECMG CAVOK=
201907141830 METAR LROP 141830Z 36005KT 8000 NSC 16/16 Q1008 R88/29//95
                        NOSIG=
201907141900 METAR LROP 141900Z 01003KT 340V050 CAVOK 16/16 Q1008 R88/29//95
                        NOSIG=
201907141930 METAR LROP 141930Z 11002KT 9000 NSC 16/16 Q1008 R88/29//95
                        NOSIG=
201907142000 METAR LROP 142000Z 00000KT 4100 MIFG BR NSC 16/16 Q1008 R88/29//95
                        NOSIG=
201907142030 METAR LROP 142030Z 00000KT 5000 MIFG BR NSC 15/15 Q1008 R88/29//95
                        NOSIG=
201907142100 METAR LROP 142100Z 24002KT 1400 R08R/0700D R26L/0700N R08L/P2000
                        R26R/P2000 BCFG BR FEW003 15/15 Q1008
                        R88/29//95 BECMG 0800 FG BKN002=
201907142130 METAR LROP 142130Z 23003KT 1400 R08R/1100 R26L/0900 R08L/P2000
                        R26R/P2000 PRFG BR VV001 15/15 Q1008
                        R88/29//95 TEMPO 0800 FG=
201907142200 METAR LROP 142200Z 24003KT 1300 R08R/0900 R26L/P2000 R08L/P2000
                        R26R/P2000 PRFG BR VV001 15/15 Q1008
                        R88/29//95 TEMPO 0800 FG=
201907142230 METAR LROP 142230Z 22002KT 2800 MIFG BR FEW002 15/15 Q1008
                        R88/29//95 TEMPO 1500 BR=
201907142300 METAR LROP 142300Z 17001KT 3000 MIFG BR SCT002 14/14 Q1008
                        R88/29//95 TEMPO 1500 BR=
201907142330 METAR LROP 142330Z 32004KT 300V010 0900 R08R/1000 R26L/1000
                        R08L/0800 R26R/0700N FG VV002 14/14
                        Q1008 R88/29//95 TEMPO 1500 BR=
201907150000 METAR LROP 150000Z 28004KT 1500 MIFG BR SCT001 14/14 Q1008
                        R88/29//95 TEMPO 0600 FG BKN002=
201907150030 METAR LROP 150030Z VRB02KT 1000 R08R/1300 R26L/0800 R08L/1600V
                        R26R/0900 BCFG BKN003 14/14 Q1008
                        R88/29//95 NOSIG=
201907150100 METAR COR LROP 150100Z 26002KT 1400 R08R/1400 R26L/0550 R08L/1100VP2000U
                        R26R/0800 MIFG BKN002 13/13 Q1008
                        R88/29//95 NOSIG=
201907150130 METAR LROP 150130Z 26002KT 1300 R08R/1300 R26L/1200 R08L/0600U
                        R26R/P2000 MIFG BKN002 13/13 Q1008
                        R88/29//95 NOSIG=
201907150200 METAR LROP 150200Z 23002KT 1000 R08R/1000 R26L/P2000 R08L/0800V1100D
                        R26R/P2000 BCFG SCT001 BKN002 12/12
                        Q1008 R88/29//95 TEMPO 3000=
201907150230 METAR COR LROP 150230Z 24002KT 0600 R08R/0700U R26L/1000
                        R08L/0900 R26R/1400 FG BKN001 13/13
                        Q1008 R88/29//95 NOSIG=
201907150300 METAR COR LROP 150300Z 00000KT 1000 R08R/2000 R26L/0600N
                        R08L/0450N R26R/0500N BCFG BKN002
                        13/13 Q1008 R88/19//95 NOSIG=
201907150330 METAR LROP 150330Z 02002KT 0300 R08R/0400 R26L/0350N R08L/0250N
                        R26R/0450 FG VV002 13/13 Q1009 R88/19//95
                        BECMG 1500 BR SCT002=
201907150400 METAR LROP 150400Z VRB02KT 0200 R08R/0800U R26L/0600N R08L/0650N
                        R26R/0500N FG VV001 13/13 Q1009 R88/19//95
                        BECMG 1500 BR SCT002=
201907150430 METAR LROP 150430Z VRB01KT 3000 BR BKN001 15/14 Q1009 R88/19//95
                        BECMG 5000 SCT015=
201907150500 METAR LROP 150500Z 09004KT 7000 FEW001 16/16 Q1009 R88/19//95
                        NOSIG=
201907150530 METAR LROP 150530Z 10003KT 5000 BR FEW003 16/16 Q1009 R88/19//95
                        NOSIG=
201907150600 METAR LROP 150600Z 12003KT CAVOK 17/16 Q1009 R88/19//95 NOSIG=
201907150630 METAR LROP 150630Z 11005KT CAVOK 18/16 Q1009 R88/19//95 NOSIG=
201907150700 METAR LROP 150700Z 12006KT CAVOK 19/15 Q1009 R88/CLRD// NOSIG=
201907150730 METAR LROP 150730Z 12004KT 080V180 CAVOK 20/16 Q1009 NOSIG=
201907150800 METAR LROP 150800Z VRB03KT 9999 FEW017 20/16 Q1009 NOSIG=
201907150830 METAR LROP 150830Z VRB02KT 9999 FEW020 21/16 Q1009 NOSIG=
201907150900 METAR LROP 150900Z VRB02KT 9999 SCT027 22/16 Q1009 NOSIG=
201907150930 METAR LROP 150930Z 11003KT 060V160 9999 BKN029 22/16 Q1009
                        NOSIG=
201907151000 METAR LROP 151000Z 23003KT 190V280 9999 BKN028 BKN037 22/16
                        Q1009 NOSIG=
201907151030 METAR LROP 151030Z 23005KT 190V280 9999 SCT028 BKN035 22/16
                        Q1009 NOSIG=
201907151100 METAR LROP 151100Z VRB04KT 9999 SCT035 23/17 Q1009 NOSIG=
201907151130 METAR LROP 151130Z VRB03KT 9999 FEW035 24/17 Q1009 NOSIG=
201907151200 METAR LROP 151200Z 26004KT 230V310 9999 FEW036 FEW050TCU
                        24/15 Q1009 NOSIG=
201907151230 METAR LROP 151230Z 27003KT 230V330 9999 BKN038 FEW050CB 25/17
                        Q1009 NOSIG=
201907151300 METAR LROP 151300Z 28006KT 9999 SCT039 FEW050CB 25/16 Q1009
                        NOSIG=
201907151330 METAR LROP 151330Z 29007KT 230V310 9999 TS SCT040 SCT050CB
                        24/16 Q1009 TEMPO VRB15G25KT 5000
                        TSRA=
201907151400 METAR LROP 151400Z 04019KT 9999 TS FEW016 BKN027 BKN040CB
                        20/15 Q1010 TEMPO 5000 TSRA=
201907151430 METAR LROP 151430Z 04016KT 9999 FEW042 SCT050CB 19/14 Q1009
                        RETS NOSIG=
201907151500 METAR LROP 151500Z 06012KT 9999 FEW050CB 19/14 Q1010 NOSIG=
201907151530 METAR LROP 151530Z 05008KT 9999 FEW050CB 19/14 Q1010 NOSIG=
201907151600 METAR LROP 151600Z 06008KT CAVOK 19/14 Q1010 NOSIG=
201907151630 METAR LROP 151630Z 02008KT CAVOK 19/14 Q1010 NOSIG=
201907151700 METAR LROP 151700Z 02006KT CAVOK 19/15 Q1010 NOSIG=
201907151730 METAR LROP 151730Z 06005KT 030V100 CAVOK 18/15 Q1010 NOSIG=
201907151800 METAR LROP 151800Z 09005KT CAVOK 17/15 Q1010 NOSIG=
201907151830 METAR LROP 151830Z 08005KT CAVOK 16/15 Q1011 NOSIG=
201907151900 METAR LROP 151900Z 06005KT CAVOK 16/15 Q1011 NOSIG=
201907151930 METAR LROP 151930Z 11003KT CAVOK 15/15 Q1011 NOSIG=
201907152000 METAR LROP 152000Z 17002KT CAVOK 16/15 Q1011 NOSIG=
201907152030 METAR LROP 152030Z VRB01KT 9999 BKN045 15/15 Q1012 NOSIG=
201907152100 METAR LROP 152100Z 26004KT 9999 BKN046 15/15 Q1012 NOSIG=
201907152130 METAR LROP 152130Z 29003KT CAVOK 15/14 Q1011 NOSIG=
201907152200 METAR LROP 152200Z 27003KT CAVOK 14/14 Q1012 NOSIG=
201907152230 METAR LROP 152230Z 27004KT CAVOK 14/14 Q1011 NOSIG=
201907152300 METAR LROP 152300Z 27005KT CAVOK 14/14 Q1011 NOSIG=
201907152330 METAR LROP 152330Z 30004KT CAVOK 14/14 Q1011 NOSIG=
201907160000 METAR LROP 160000Z 29005KT CAVOK 14/14 Q1012 NOSIG=
201907160030 METAR LROP 160030Z 27004KT CAVOK 14/14 Q1011 NOSIG=
201907160100 METAR LROP 160100Z 29005KT CAVOK 13/13 Q1011 NOSIG=
201907160130 METAR LROP 160130Z 30003KT CAVOK 13/13 Q1011 NOSIG=
201907160200 METAR LROP 160200Z 30005KT CAVOK 13/13 Q1011 NOSIG=
201907160230 METAR LROP 160230Z 30004KT 270V340 CAVOK 13/13 Q1011 NOSIG=
201907160300 METAR LROP 160300Z 26003KT CAVOK 13/13 Q1011 NOSIG=
201907160330 METAR LROP 160330Z 29004KT 260V020 CAVOK 13/13 Q1011 NOSIG=
201907160400 METAR LROP 160400Z 29005KT 270V330 CAVOK 14/14 Q1011 NOSIG=
201907160430 METAR LROP 160430Z 25003KT 220V280 CAVOK 15/14 Q1011 NOSIG=
201907160500 METAR LROP 160500Z VRB02KT CAVOK 17/15 Q1011 NOSIG=
201907160530 METAR LROP 160530Z VRB01KT CAVOK 19/16 Q1012 NOSIG=
201907160600 METAR LROP 160600Z 36004KT 330V040 CAVOK 20/14 Q1012 NOSIG=
201907160630 METAR LROP 160630Z 01004KT CAVOK 22/14 Q1012 NOSIG=
201907160700 METAR LROP 160700Z 00000KT 9999 BKN049 20/15 Q1012 NOSIG=
201907160730 METAR LROP 160730Z VRB02KT CAVOK 22/15 Q1012 NOSIG=
201907160800 METAR LROP 160800Z 09005KT 020V170 CAVOK 23/12 Q1012 NOSIG=
201907160830 METAR LROP 160830Z 09005KT 040V120 CAVOK 24/12 Q1012 NOSIG=
201907160900 METAR LROP 160900Z 09007KT 070V130 CAVOK 24/12 Q1011 NOSIG=
201907160930 METAR LROP 160930Z 08004KT 340V130 9999 FEW044 24/12 Q1011
                        NOSIG=
201907161000 METAR LROP 161000Z 05007KT 010V090 9999 SCT044 24/12 Q1011
                        NOSIG=
201907161030 METAR LROP 161030Z 06005KT 020V110 9999 SCT048 25/12 Q1011
                        NOSIG=
201907161100 METAR LROP 161100Z 06005KT 350V120 9999 FEW048 25/12 Q1011
                        NOSIG=
201907161130 METAR LROP 161130Z VRB05KT CAVOK 25/12 Q1011 NOSIG=
201907161200 METAR LROP 161200Z VRB04KT CAVOK 25/12 Q1011 NOSIG=
201907161230 METAR LROP 161230Z 06005KT 010V130 CAVOK 26/12 Q1010 NOSIG=
201907161300 METAR LROP 161300Z 07005KT 040V110 CAVOK 25/12 Q1010 NOSIG=
201907161330 METAR LROP 161330Z 04005KT 350V090 9999 SCT049 25/12 Q1010
                        NOSIG=
201907161400 METAR LROP 161400Z 06005KT 350V120 9999 FEW050CB 25/12 Q1010
                        NOSIG=
201907161430 METAR LROP 161430Z 03005KT 360V080 9999 FEW056CB SCT250 25/12
                        Q1010 NOSIG=
201907161500 METAR LROP 161500Z 03006KT 9999 FEW056CB 24/12 Q1010 NOSIG=
201907161530 METAR LROP 161530Z 04008KT 9999 FEW056CB 24/13 Q1010 NOSIG=
201907161600 METAR LROP 161600Z 04008KT 9999 FEW050CB 24/11 Q1010 NOSIG=
201907161630 METAR LROP 161630Z 02007KT CAVOK 23/13 Q1010 NOSIG=
201907161700 METAR LROP 161700Z 02005KT CAVOK 22/13 Q1010 NOSIG=
201907161730 METAR LROP 161730Z 35005KT 310V030 CAVOK 21/15 Q1010 NOSIG=
201907161800 METAR LROP 161800Z 32003KT 270V350 CAVOK 20/15 Q1011 NOSIG=
201907161830 METAR LROP 161830Z 35005KT CAVOK 20/15 Q1011 NOSIG=
201907161900 METAR LROP 161900Z 36005KT CAVOK 20/15 Q1011 NOSIG=
201907161930 METAR LROP 161930Z 36005KT CAVOK 20/16 Q1011 NOSIG=
201907162000 METAR LROP 162000Z 01006KT CAVOK 20/15 Q1011 NOSIG=
201907162030 METAR LROP 162030Z 36005KT CAVOK 20/16 Q1011 NOSIG=
201907162100 METAR LROP 162100Z 28004KT 240V330 CAVOK 18/16 Q1011 NOSIG=
201907162130 METAR LROP 162130Z VRB02KT CAVOK 18/16 Q1011=
201907162200 METAR LROP 162200Z VRB02KT CAVOK 17/16 Q1011 NOSIG=
201907162230 METAR LROP 162230Z VRB02KT CAVOK 16/16 Q1011 NOSIG=
201907162300 METAR LROP 162300Z VRB02KT CAVOK 16/15 Q1011 NOSIG=
201907162330 METAR LROP 162330Z VRB02KT CAVOK 15/15 Q1011 NOSIG=
201907170000 METAR LROP 170000Z 28004KT CAVOK 15/14 Q1011 NOSIG=
201907170030 METAR LROP 170030Z 27005KT CAVOK 14/14 Q1011 NOSIG=
201907170100 METAR LROP 170100Z 26004KT CAVOK 14/13 Q1011 NOSIG=
201907170130 METAR COR LROP 170130Z 28003KT CAVOK 14/13 Q1010 NOSIG=
201907170200 METAR LROP 170200Z 29004KT CAVOK 13/13 Q1011 NOSIG=
201907170230 METAR LROP 170230Z 28003KT 230V320 CAVOK 14/13 Q1011 NOSIG=
201907170300 METAR LROP 170300Z 28005KT CAVOK 13/13 Q1011 NOSIG=
201907170330 METAR LROP 170330Z 28004KT CAVOK 14/13 Q1011 NOSIG=
201907170400 METAR LROP 170400Z 29005KT CAVOK 15/14 Q1011 NOSIG=
201907170430 METAR LROP 170430Z 28005KT 260V320 CAVOK 17/14 Q1011 NOSIG=
201907170500 METAR LROP 170500Z 28004KT CAVOK 18/15 Q1011 NOSIG=
201907170530 METAR LROP 170530Z 26004KT CAVOK 19/15 Q1011 NOSIG=
201907170600 METAR LROP 170600Z 25003KT 210V280 CAVOK 20/15 Q1011 NOSIG=
201907170630 METAR LROP 170630Z 26005KT 230V300 CAVOK 22/15 Q1011 NOSIG=
201907170700 METAR LROP 170700Z 27005KT 240V300 CAVOK 24/15 Q1011 NOSIG=
201907170730 METAR LROP 170730Z 27007KT 240V310 CAVOK 25/16 Q1010 NOSIG=
201907170800 METAR LROP 170800Z 26007KT 240V300 CAVOK 26/13 Q1010 NOSIG=
201907170830 METAR LROP 170830Z 31005KT 280V350 CAVOK 26/13 Q1010 NOSIG=
201907170900 METAR LROP 170900Z 28005KT 200V330 CAVOK 26/12 Q1010 NOSIG=
201907170930 METAR LROP 170930Z 26005KT 210V330 9999 FEW045 27/10 Q1010
                        NOSIG=
201907171000 METAR LROP 171000Z 27007KT 250V310 CAVOK 28/11 Q1010 NOSIG=
201907171030 METAR LROP 171030Z 28005KT 240V010 CAVOK 28/11 Q1010 NOSIG=
201907171100 METAR LROP 171100Z 27010KT CAVOK 28/12 Q1009 NOSIG=
201907171130 METAR LROP 171130Z 31005KT 260V030 CAVOK 29/11 Q1009 NOSIG=
201907171200 METAR LROP 171200Z 27006KT 240V310 CAVOK 28/11 Q1009 NOSIG=
201907171230 METAR LROP 171230Z 26010KT 220V290 CAVOK 29/11 Q1009 NOSIG=
201907171300 METAR LROP 171300Z 28006KT 220V320 CAVOK 29/12 Q1009 NOSIG=
201907171330 METAR LROP 171330Z 28009KT CAVOK 28/11 Q1008 NOSIG=
201907171400 METAR LROP 171400Z 26005KT 240V300 CAVOK 29/11 Q1008 NOSIG=
201907171430 METAR LROP 171430Z 30007KT 260V320 CAVOK 27/08 Q1008 NOSIG=
201907171500 METAR LROP 171500Z 29010KT CAVOK 27/12 Q1008 NOSIG=
201907171530 METAR LROP 171530Z 24007KT 210V270 CAVOK 27/12 Q1008 NOSIG=
201907171600 METAR LROP 171600Z 25007KT CAVOK 28/11 Q1008 NOSIG=
201907171630 METAR LROP 171630Z 25007KT CAVOK 27/11 Q1008 NOSIG=
201907171700 METAR LROP 171700Z 25006KT CAVOK 26/13 Q1008 NOSIG=
201907171730 METAR LROP 171730Z 25006KT CAVOK 23/14 Q1008 NOSIG=
201907171800 METAR LROP 171800Z 24006KT CAVOK 22/16 Q1008 NOSIG=
201907171830 METAR LROP 171830Z 24005KT CAVOK 21/15 Q1009 NOSIG=
201907171900 METAR LROP 171900Z 25004KT CAVOK 20/15 Q1009 NOSIG=
201907171930 METAR LROP 171930Z 23004KT CAVOK 19/16 Q1009 NOSIG=
201907172000 METAR LROP 172000Z 24004KT CAVOK 19/16 Q1009 NOSIG=
201907172030 METAR LROP 172030Z 25006KT CAVOK 19/16 Q1009 NOSIG=
201907172100 METAR LROP 172100Z 26005KT CAVOK 19/15 Q1009 NOSIG=
201907172130 METAR LROP 172130Z 33006KT CAVOK 19/15 Q1009 NOSIG=
201907172200 METAR LROP 172200Z 00000KT CAVOK 19/15 Q1009 NOSIG=
201907172230 METAR LROP 172230Z 32005KT CAVOK 19/16 Q1009 NOSIG=
201907172300 METAR LROP 172300Z 33005KT CAVOK 18/15 Q1009 NOSIG=
201907172330 METAR LROP 172330Z 31003KT CAVOK 18/15 Q1009 NOSIG=
201907180000 METAR LROP 180000Z 33003KT CAVOK 18/15 Q1010 NOSIG=
201907180030 METAR LROP 180030Z 05007KT CAVOK 18/15 Q1010 NOSIG=
201907180100 METAR LROP 180100Z 08004KT CAVOK 17/15 Q1010 NOSIG=
201907180130 METAR LROP 180130Z 07005KT CAVOK 17/14 Q1010 NOSIG=
201907180200 METAR LROP 180200Z 07007KT CAVOK 17/14 Q1010 NOSIG=
201907180230 METAR LROP 180230Z 07005KT CAVOK 17/14 Q1011 NOSIG=
201907180300 METAR LROP 180300Z 07007KT CAVOK 17/15 Q1011 NOSIG=
201907180330 METAR LROP 180330Z 08007KT CAVOK 18/15 Q1011 NOSIG=
201907180400 METAR LROP 180400Z 08008KT CAVOK 19/15 Q1011 NOSIG=
201907180430 METAR LROP 180430Z 07010KT CAVOK 19/15 Q1011 NOSIG=
201907180500 METAR LROP 180500Z 06012KT CAVOK 20/14 Q1012 NOSIG=
201907180530 METAR LROP 180530Z 07012KT CAVOK 20/13 Q1012 NOSIG=
201907180600 METAR LROP 180600Z 07012KT CAVOK 21/13 Q1012 NOSIG=
201907180630 METAR LROP 180630Z 07014KT CAVOK 23/14 Q1012 NOSIG=
201907180700 METAR LROP 180700Z 08011KT CAVOK 23/14 Q1013 NOSIG=
201907180730 METAR LROP 180730Z 07009KT CAVOK 23/14 Q1013 NOSIG=
201907180800 METAR LROP 180800Z 07009KT 040V100 CAVOK 24/13 Q1013 NOSIG=
201907180830 METAR LROP 180830Z 07008KT 030V100 CAVOK 25/13 Q1013 NOSIG=
201907180900 METAR LROP 180900Z 06009KT 040V100 CAVOK 25/13 Q1013 NOSIG=
201907180930 METAR LROP 180930Z 06008KT 040V110 CAVOK 25/13 Q1013 NOSIG=
201907181000 METAR LROP 181000Z 08007KT 040V130 CAVOK 26/13 Q1013 NOSIG=
201907181030 METAR LROP 181030Z 07008KT 040V130 CAVOK 27/13 Q1013 NOSIG=
201907181100 METAR LROP 181100Z 08005KT 040V130 CAVOK 27/12 Q1013 NOSIG=
201907181130 METAR LROP 181130Z 06006KT 360V090 CAVOK 26/12 Q1013 NOSIG=
201907181200 METAR LROP 181200Z 36007KT CAVOK 27/12 Q1013 NOSIG=
201907181230 METAR LROP 181230Z 10005KT 050V130 CAVOK 28/12 Q1013 NOSIG=
201907181300 METAR LROP 181300Z 08007KT CAVOK 28/13 Q1012 NOSIG=
201907181330 METAR LROP 181330Z VRB02KT CAVOK 28/12 Q1012 NOSIG=
201907181400 METAR LROP 181400Z VRB05KT CAVOK 28/12 Q1013 NOSIG=
201907181430 METAR LROP 181430Z 10003KT 040V180 CAVOK 28/12 Q1012 NOSIG=
201907181500 METAR LROP 181500Z 04004KT 320V110 CAVOK 28/14 Q1012 NOSIG=
201907181530 METAR LROP 181530Z 07003KT 340V130 CAVOK 28/12 Q1012 NOSIG=
201907181600 METAR LROP 181600Z 08005KT 050V110 CAVOK 27/14 Q1012 NOSIG=
201907181630 METAR LROP 181630Z 09004KT 070V140 CAVOK 27/14 Q1012 NOSIG=
201907181700 METAR LROP 181700Z 09004KT CAVOK 25/14 Q1012 NOSIG=
201907181730 METAR LROP 181730Z 07005KT CAVOK 25/14 Q1013 NOSIG=
201907181800 METAR LROP 181800Z 08003KT CAVOK 22/15 Q1013 NOSIG=
201907181830 METAR LROP 181830Z 11004KT CAVOK 22/15 Q1013 NOSIG=
201907181900 METAR LROP 181900Z 10004KT CAVOK 21/16 Q1013 NOSIG=
201907181930 METAR LROP 181930Z 09003KT CAVOK 21/16 Q1014 NOSIG=
201907182000 METAR LROP 182000Z 09003KT CAVOK 20/16 Q1014 NOSIG=
201907182030 METAR LROP 182030Z 08003KT CAVOK 20/16 Q1014 NOSIG=
201907182100 METAR LROP 182100Z 08003KT CAVOK 19/16 Q1014 NOSIG=
201907182130 METAR LROP 182130Z 06002KT CAVOK 19/16 Q1014 NOSIG=
201907182200 METAR LROP 182200Z 02003KT CAVOK 19/15 Q1014 NOSIG=
201907182230 METAR LROP 182230Z 05003KT CAVOK 19/15 Q1014 NOSIG=
201907182300 METAR LROP 182300Z 02005KT CAVOK 19/15 Q1015 NOSIG=
201907182330 METAR LROP 182330Z 34003KT CAVOK 17/15 Q1015 NOSIG=
201907190000 METAR LROP 190000Z 35004KT CAVOK 17/15 Q1015 NOSIG=
201907190030 METAR LROP 190030Z 35003KT CAVOK 17/15 Q1015 NOSIG=
201907190100 METAR LROP 190100Z 36003KT CAVOK 17/16 Q1015 NOSIG=
201907190130 METAR LROP 190130Z 36003KT CAVOK 17/15 Q1015 NOSIG=
201907190200 METAR LROP 190200Z 03003KT CAVOK 17/15 Q1015 NOSIG=
201907190230 METAR LROP 190230Z 04003KT CAVOK 16/15 Q1015 NOSIG=
201907190300 METAR LROP 190300Z 02003KT CAVOK 16/15 Q1015 NOSIG=
201907190330 METAR LROP 190330Z 03004KT CAVOK 17/15 Q1015 NOSIG=
201907190400 METAR LROP 190400Z 03004KT CAVOK 18/16 Q1016 NOSIG=
201907190430 METAR LROP 190430Z 02006KT 360V060 CAVOK 18/16 Q1016 NOSIG=
201907190500 METAR LROP 190500Z 04005KT CAVOK 19/17 Q1016 NOSIG=
201907190530 METAR LROP 190530Z 05005KT CAVOK 20/17 Q1016 NOSIG=
201907190600 METAR LROP 190600Z 06006KT CAVOK 21/18 Q1016 NOSIG=
201907190630 METAR LROP 190630Z 05007KT CAVOK 23/18 Q1016 NOSIG=
201907190700 METAR LROP 190700Z 05006KT 020V080 CAVOK 23/18 Q1016 NOSIG=
201907190730 METAR LROP 190730Z 07006KT 030V100 CAVOK 25/18 Q1016 NOSIG=
201907190800 METAR LROP 190800Z 05005KT 010V100 CAVOK 26/19 Q1016 NOSIG=
201907190830 METAR LROP 190830Z 06005KT 030V090 CAVOK 27/18 Q1016 NOSIG=
201907190900 METAR LROP NIL=
201907190930 METAR LROP 190930Z 04005KT 360V080 9999 FEW040 28/16 Q1016
                        NOSIG=
201907191000 METAR LROP 191000Z 11003KT 040V170 9999 SCT047 29/15 Q1016
                        NOSIG=
201907191030 METAR LROP 191030Z 13006KT 100V170 CAVOK 30/14 Q1016 NOSIG=
201907191100 METAR LROP 191100Z 14005KT 090V200 CAVOK 30/16 Q1016 NOSIG=
201907191130 METAR LROP 191130Z VRB02KT CAVOK 29/14 Q1016 NOSIG=
201907191200 METAR LROP 191200Z VRB03KT CAVOK 30/13 Q1015 NOSIG=
201907191230 METAR COR LROP 191230Z 19003KT 140V250 CAVOK 30/15 Q1015
                        NOSIG=
201907191300 METAR LROP 191300Z VRB03KT CAVOK 31/15 Q1015 NOSIG=
201907191330 METAR LROP 191330Z 01016KT 9999 FEW050TCU 27/15 Q1016 WS
                        ALL RWY NOSIG=
201907191400 METAR LROP 191400Z 02014KT 9999 FEW050CB 27/14 Q1015 WS ALL
                        RWY TEMPO 5000 -TSRA=
201907191430 METAR LROP 191430Z 02015KT 9999 FEW050CB 28/14 Q1016 WS ALL
                        RWY TEMPO 5000 -TSRA=
201907191500 METAR LROP 191500Z 01013KT 340V040 9999 FEW050CB 27/12 Q1016
                        WS ALL RWY TEMPO 5000 -TSRA=
201907191530 METAR COR LROP 191530Z 01013KT 9999 FEW060CB 27/14 Q1016
                        TEMPO 5000 -SHRA=
201907191600 METAR LROP 191600Z 35012KT 9999 FEW050CB 26/13 Q1016 TEMPO
                        5000 -SHRA=
201907191630 METAR LROP 191630Z 36010KT 9999 FEW050CB 24/13 Q1016 TEMPO
                        5000 -SHRA=
201907191700 METAR LROP 191700Z 34008KT 320V020 9999 FEW050CB 23/14 Q1016
                        BECMG NSC=
201907191730 METAR LROP 191730Z 32007KT 300V360 CAVOK 22/14 Q1016 NOSIG=
201907191800 METAR LROP 191800Z 33003KT 260V040 CAVOK 22/16 Q1016 NOSIG=
201907191830 METAR LROP 191830Z 34004KT 320V020 CAVOK 22/14 Q1016 NOSIG=
201907191900 METAR LROP 191900Z 08004KT CAVOK 22/15 Q1017 NOSIG=
201907191930 METAR LROP 191930Z 08004KT CAVOK 22/15 Q1017 NOSIG=
201907192000 METAR LROP 192000Z 10004KT CAVOK 21/16 Q1017 NOSIG=
201907192030 METAR LROP 192030Z 09002KT CAVOK 20/17 Q1017 NOSIG=
201907192100 METAR LROP 192100Z VRB01KT CAVOK 20/16 Q1017 NOSIG=
201907192130 METAR LROP 192130Z 28004KT CAVOK 20/16 Q1017 NOSIG=
201907192200 METAR LROP 192200Z 35004KT 290V050 CAVOK 19/16 Q1017 NOSIG=
201907192230 METAR LROP 192230Z 01004KT CAVOK 19/16 Q1017 NOSIG=
201907192300 METAR LROP 192300Z 34004KT CAVOK 19/16 Q1017 NOSIG=
201907192330 METAR LROP 192330Z VRB02KT CAVOK 18/17 Q1018 NOSIG=
201907200000 METAR LROP 200000Z 36004KT CAVOK 18/17 Q1017 NOSIG=
201907200030 METAR LROP 200030Z 35003KT 320V020 CAVOK 18/16 Q1017 NOSIG=
201907200100 METAR LROP 200100Z 35005KT CAVOK 17/16 Q1017 NOSIG=
201907200130 METAR LROP 200130Z 35006KT CAVOK 17/16 Q1017 NOSIG=
201907200200 METAR LROP 200200Z 35003KT 300V020 CAVOK 17/16 Q1018 NOSIG=
201907200230 METAR LROP 200230Z 34003KT 290V020 CAVOK 16/16 Q1018 NOSIG=
201907200300 METAR LROP 200300Z 35006KT CAVOK 17/16 Q1018 NOSIG=
201907200330 METAR LROP 200330Z 03003KT 360V080 CAVOK 18/16 Q1018 NOSIG=
201907200400 METAR LROP 200400Z VRB02KT CAVOK 18/16 Q1018 NOSIG=
201907200430 METAR LROP 200430Z 01003KT 340V040 CAVOK 19/17 Q1018 NOSIG=
201907200500 METAR LROP 200500Z 02005KT CAVOK 20/15 Q1019 NOSIG=
201907200530 METAR LROP 200530Z 03006KT CAVOK 21/16 Q1019 NOSIG=
201907200600 METAR LROP 200600Z 04005KT CAVOK 23/17 Q1019 NOSIG=
201907200630 METAR LROP 200630Z 06005KT 020V080 CAVOK 24/17 Q1019 NOSIG=
201907200700 METAR LROP 200700Z 06004KT 010V100 CAVOK 25/16 Q1019 NOSIG=
201907200730 METAR LROP 200730Z 06004KT 360V110 CAVOK 26/16 Q1019 NOSIG=
201907200800 METAR LROP 200800Z 06004KT 020V090 CAVOK 27/15 Q1019 NOSIG=
201907200830 METAR LROP 200830Z 05004KT 350V090 CAVOK 28/15 Q1019 NOSIG=
201907200900 METAR LROP 200900Z VRB03KT CAVOK 28/16 Q1019 NOSIG=
201907200930 METAR LROP 200930Z 04004KT 340V090 CAVOK 29/16 Q1019 NOSIG=
201907201000 METAR LROP 201000Z VRB02KT CAVOK 29/15 Q1019 NOSIG=
201907201030 METAR LROP 201030Z VRB04KT CAVOK 30/15 Q1019 NOSIG=
201907201100 METAR LROP 201100Z 29004KT 190V360 CAVOK 29/16 Q1019 NOSIG=
201907201130 METAR LROP 201130Z VRB03KT CAVOK 30/15 Q1018 NOSIG=
201907201200 METAR LROP 201200Z 26004KT 220V310 9999 FEW060TCU 30/14 Q1018
                        NOSIG=
201907201230 METAR LROP 201230Z 22004KT 120V270 9999 FEW060TCU 31/14 Q1018
                        NOSIG=
201907201300 METAR LROP 201300Z 28007KT CAVOK 31/16 Q1018 NOSIG=
201907201330 METAR LROP 201330Z VRB05KT CAVOK 31/13 Q1018 NOSIG=
201907201400 METAR LROP 201400Z 31005KT 270V350 CAVOK 31/15 Q1017 NOSIG=
201907201430 METAR LROP 201430Z 27008KT 9999 FEW060CB 31/14 Q1017 NOSIG=
201907201500 METAR LROP 201500Z 28006KT 9999 FEW060CB 31/17 Q1017 NOSIG=
201907201530 METAR LROP 201530Z 17009KT 9999 SCT060CB 29/15 Q1017 NOSIG=
201907201600 METAR COR LROP 201600Z 12019G30KT 080V150 9999 TS SCT040CB
                        27/15 Q1018 WS ALL RWY TEMPO VRB20G30KT
                        3000 +TSRAGR=
201907201630 METAR LROP 201630Z 16007KT 140V200 9999 TS FEW036CB 27/15
                        Q1018 WS ALL RWY NOSIG=
201907201700 METAR LROP 201700Z 19006KT 9999 TS FEW050CB 25/17 Q1018 WS
                        ALL RWY NOSIG=
201907201730 METAR COR LROP 201730Z 18004KT 9999 -SHRA FEW050CB 25/16
                        Q1018 NOSIG=
201907201800 METAR LROP 201800Z VRB01KT 9999 FEW060CB 24/18 Q1018 NOSIG=
201907201830 METAR LROP 201830Z 00000KT CAVOK 23/18 Q1018 NOSIG=
201907201900 METAR LROP 201900Z VRB02KT CAVOK 23/18 Q1018 NOSIG=
201907201930 METAR LROP 201930Z 00000KT CAVOK 22/18 Q1018 NOSIG=
201907202000 METAR LROP 202000Z 00000KT CAVOK 22/18 Q1018 NOSIG=
201907202030 METAR LROP 202030Z 00000KT CAVOK 21/18 Q1018 NOSIG=
201907202100 METAR LROP 202100Z 00000KT CAVOK 21/18 Q1019 NOSIG=
201907202130 METAR LROP 202130Z VRB01KT CAVOK 20/18 Q1019 NOSIG=
201907202200 METAR LROP 202200Z 00000KT CAVOK 19/18 Q1019 NOSIG=
201907202230 METAR LROP 202230Z 31002KT CAVOK 20/18 Q1019 NOSIG=
201907202300 METAR LROP 202300Z 25003KT 170V310 CAVOK 20/17 Q1019 NOSIG=
201907202330 METAR LROP 202330Z 27002KT CAVOK 18/18 Q1019 NOSIG=
201907210000 METAR LROP 210000Z 00000KT CAVOK 19/17 Q1019 NOSIG=
201907210030 METAR LROP 210030Z 31001KT CAVOK 18/17 Q1019 NOSIG=
201907210100 METAR LROP 210100Z 33004KT CAVOK 19/17 Q1019 NOSIG=
201907210130 METAR LROP 210130Z VRB02KT CAVOK 18/17 Q1019 NOSIG=
201907210200 METAR LROP 210200Z VRB02KT CAVOK 17/16 Q1019 NOSIG=
201907210230 METAR LROP 210230Z 34003KT 280V030 CAVOK 17/17 Q1019 NOSIG=
201907210300 METAR LROP 210300Z 02003KT CAVOK 17/16 Q1019 NOSIG=
201907210330 METAR LROP 210330Z 02004KT CAVOK 18/17 Q1019 NOSIG=
201907210400 METAR LROP 210400Z 03004KT CAVOK 19/17 Q1019 NOSIG=
201907210430 METAR LROP 210430Z 06004KT CAVOK 21/17 Q1019 NOSIG=
201907210500 METAR LROP 210500Z 07004KT CAVOK 22/18 Q1019 NOSIG=
201907210530 METAR LROP 210530Z 05004KT 020V090 CAVOK 23/18 Q1019 NOSIG=
201907210600 METAR LROP 210600Z 08005KT 050V110 CAVOK 24/18 Q1019 NOSIG=
201907210630 METAR LROP 210630Z 07004KT 050V120 CAVOK 25/18 Q1019 NOSIG=
201907210700 METAR LROP 210700Z 08005KT 050V110 CAVOK 26/19 Q1019 NOSIG=
201907210730 METAR LROP 210730Z 04004KT 340V070 CAVOK 27/19 Q1019 NOSIG=
201907210800 METAR LROP 210800Z VRB03KT CAVOK 28/18 Q1019 NOSIG=
201907210830 METAR LROP 210830Z 02004KT 330V040 CAVOK 29/16 Q1019 NOSIG=
201907210900 METAR LROP 210900Z VRB03KT CAVOK 30/17 Q1019 NOSIG=
201907210930 METAR LROP 210930Z 12003KT 050V180 CAVOK 30/14 Q1019 NOSIG=
201907211000 METAR LROP 211000Z VRB04KT CAVOK 31/14 Q1019 NOSIG=
201907211030 METAR LROP 211030Z 07004KT 020V140 CAVOK 31/14 Q1019 NOSIG=
201907211100 METAR LROP 211100Z VRB03KT CAVOK 31/13 Q1019 NOSIG=
201907211130 METAR LROP 211130Z VRB02KT CAVOK 32/14 Q1018 NOSIG=
201907211200 METAR LROP 211200Z 27006KT 230V310 CAVOK 32/12 Q1018 NOSIG=
201907211230 METAR LROP 211230Z 12004KT 080V160 CAVOK 32/12 Q1018 NOSIG=
201907211300 METAR LROP 211300Z 28005KT 250V340 CAVOK 33/13 Q1018 NOSIG=
201907211330 METAR LROP 211330Z 28002KT CAVOK 33/13 Q1018 NOSIG=
201907211400 METAR LROP 211400Z VRB03KT CAVOK 33/14 Q1018 NOSIG=
201907211430 METAR LROP 211430Z 32005KT 230V360 CAVOK 33/13 Q1018 NOSIG=
201907211500 METAR LROP 211500Z 24006KT 200V280 CAVOK 32/12 Q1017 NOSIG=
201907211530 METAR LROP 211530Z 29005KT 240V330 CAVOK 32/13 Q1017 NOSIG=
201907211600 METAR LROP 211600Z 23004KT 200V270 CAVOK 30/15 Q1017 NOSIG=
201907211630 METAR LROP 211630Z 27004KT CAVOK 30/17 Q1017 NOSIG=
201907211700 METAR LROP 211700Z 29005KT CAVOK 28/17 Q1017 NOSIG=
201907211730 METAR LROP 211730Z 29005KT CAVOK 27/16 Q1017 NOSIG=
201907211800 METAR LROP 211800Z 28003KT CAVOK 27/16 Q1017 NOSIG=
201907211830 METAR LROP 211830Z 22003KT 120V260 CAVOK 26/16 Q1018 NOSIG=
201907211900 METAR LROP 211900Z 10002KT CAVOK 24/17 Q1018 NOSIG=
201907211930 METAR LROP 211930Z 15003KT CAVOK 24/17 Q1018 NOSIG=
201907212000 METAR LROP 212000Z 13002KT CAVOK 23/17 Q1018 NOSIG=
201907212030 METAR LROP 212030Z VRB01KT CAVOK 23/17 Q1018 NOSIG=
201907212100 METAR LROP 212100Z 26005KT CAVOK 22/17 Q1018 NOSIG=
201907212130 METAR LROP 212130Z 27004KT CAVOK 22/17 Q1018 NOSIG=
201907212200 METAR LROP 212200Z 30004KT CAVOK 21/17 Q1019 NOSIG=
201907212230 METAR LROP 212230Z 31003KT 280V020 CAVOK 22/17 Q1019 NOSIG=
201907212300 METAR LROP 212300Z 28002KT CAVOK 21/18 Q1018 NOSIG=
201907212330 METAR LROP 212330Z 27002KT CAVOK 21/18 Q1018 NOSIG=
201907220000 METAR LROP 220000Z VRB01KT CAVOK 20/18 Q1018 NOSIG=
201907220030 METAR LROP 220030Z 29003KT CAVOK 19/18 Q1018 NOSIG=
201907220100 METAR LROP 220100Z 00000KT CAVOK 19/18 Q1018 NOSIG=
201907220130 METAR COR LROP 220130Z VRB02KT CAVOK 19/18 Q1018 NOSIG=
201907220200 METAR LROP 220200Z 32003KT CAVOK 18/18 Q1018 NOSIG=
201907220230 METAR LROP 220230Z 29004KT CAVOK 18/17 Q1018 NOSIG=
201907220300 METAR LROP 220300Z 00000KT CAVOK 18/17 Q1018 NOSIG=
201907220330 METAR LROP 220330Z VRB02KT CAVOK 19/17 Q1018 NOSIG=
201907220400 METAR LROP 220400Z VRB02KT CAVOK 20/17 Q1018 NOSIG=
201907220430 METAR LROP 220430Z 34004KT CAVOK 22/18 Q1018 NOSIG=
201907220500 METAR LROP 220500Z 34003KT 320V020 CAVOK 24/19 Q1018 NOSIG=
201907220530 METAR LROP 220530Z 34004KT CAVOK 25/19 Q1018 NOSIG=
201907220600 METAR LROP 220600Z VRB01KT CAVOK 27/18 Q1018 NOSIG=
201907220630 METAR LROP 220630Z 02003KT 340V070 CAVOK 28/18 Q1018 NOSIG=
201907220700 METAR LROP 220700Z 08004KT 050V130 CAVOK 29/18 Q1018 NOSIG=
201907220730 METAR LROP 220730Z 06005KT 020V100 CAVOK 29/17 Q1018 NOSIG=
201907220800 METAR LROP 220800Z 08004KT 010V120 CAVOK 29/17 Q1019 NOSIG=
201907220830 METAR LROP 220830Z 04004KT 340V100 CAVOK 30/17 Q1018 NOSIG=
201907220900 METAR LROP 220900Z 05005KT 010V090 CAVOK 30/15 Q1018 NOSIG=
201907220930 METAR LROP 220930Z 06003KT 360V120 CAVOK 32/16 Q1018 NOSIG=
201907221000 METAR LROP 221000Z VRB02KT CAVOK 32/15 Q1018 NOSIG=
201907221030 METAR LROP 221030Z 28005KT 220V340 CAVOK 33/16 Q1018 NOSIG=
201907221100 METAR LROP 221100Z VRB04KT CAVOK 33/15 Q1018 NOSIG=
201907221130 METAR LROP 221130Z VRB03KT CAVOK 33/16 Q1017 NOSIG=
201907221200 METAR LROP 221200Z 11006KT 070V140 CAVOK 34/16 Q1017 NOSIG=
201907221230 METAR LROP 221230Z VRB04KT CAVOK 32/16 Q1017 NOSIG=
201907221300 METAR LROP 221300Z 16004KT 100V200 CAVOK 32/18 Q1016 NOSIG=
201907221330 METAR LROP 221330Z 03010KT 9999 FEW050CB 31/17 Q1016 NOSIG=
201907221400 METAR LROP 221400Z 04012KT 9999 TS VCSH SCT050CB 30/18 Q1016
                        R88/19//95 TEMPO 5000 -TSRA=
201907221430 METAR LROP 221430Z 02011KT 9999 -TSRA FEW030 SCT049CB 31/17
                        Q1017 R88/19//95 NOSIG=
201907221500 METAR LROP 221500Z 35011KT 9999 VCTS SCT045CB 29/18 Q1016
                        RETS R88/19//95 NOSIG=
201907221530 METAR LROP 221530Z 01011KT 9999 SCT050CB 27/18 Q1017 R88/19//95
                        NOSIG=
201907221600 METAR LROP 221600Z 36011KT 9999 SCT050CB 24/20 Q1017 R88/19//95
                        TEMPO -TSRA=
201907221630 METAR LROP 221630Z 25007KT 9999 TS SCT045CB 24/18 Q1017 R88/19//95
                        TEMPO -TSRA=
201907221700 METAR LROP 221700Z 26009KT 9999 -SHRA FEW045CB 24/19 Q1017
                        R88/19//95 NOSIG=
201907221730 METAR LROP 221730Z 29005KT CAVOK 24/20 Q1016 R88/19//95 NOSIG=
201907221800 METAR LROP 221800Z 02003KT 320V060 CAVOK 23/18 Q1017 R88/CLRD//
                        NOSIG=
201907221830 METAR LROP 221830Z 34003KT CAVOK 23/18 Q1017 R88/CLRD// NOSIG=
201907221900 METAR LROP 221900Z 34006KT CAVOK 22/18 Q1017 NOSIG=
201907221930 METAR LROP 221930Z 00000KT CAVOK 22/18 Q1017 NOSIG=
201907222000 METAR LROP 222000Z 35006KT CAVOK 22/18 Q1017 NOSIG=
201907222030 METAR LROP 222030Z 36007KT CAVOK 22/17 Q1017 NOSIG=
201907222100 METAR LROP 222100Z 02004KT CAVOK 22/17 Q1017 NOSIG=
201907222130 METAR LROP 222130Z 01004KT CAVOK 21/18 Q1017 NOSIG=
201907222200 METAR LROP 222200Z 03001KT CAVOK 20/18 Q1017 NOSIG=
201907222230 METAR LROP 222230Z 02003KT CAVOK 20/18 Q1017 NOSIG=
201907222300 METAR LROP 222300Z 04004KT CAVOK 21/18 Q1017 NOSIG=
201907222330 METAR LROP 222330Z 05005KT CAVOK 21/18 Q1017 NOSIG=
201907230000 METAR LROP 230000Z 02004KT CAVOK 22/18 Q1017 NOSIG=
201907230030 METAR LROP 230030Z 03004KT CAVOK 21/18 Q1017 NOSIG=
201907230100 METAR LROP 230100Z 01004KT CAVOK 21/17 Q1017 NOSIG=
201907230130 METAR LROP 230130Z 36003KT CAVOK 21/18 Q1016 NOSIG=
201907230200 METAR LROP 230200Z 29003KT 270V340 CAVOK 20/18 Q1016 NOSIG=
201907230230 METAR LROP 230230Z 23003KT 190V260 8000 -TSRA SCT045CB 19/19
                        Q1016 RERA R88/19//95 BECMG NSW=
201907230300 METAR LROP 230300Z VRB01KT 9999 TS VCSH FEW030 FEW050CB 19/19
                        Q1016 R88/29//95 BECMG NSW=
201907230330 METAR LROP 230330Z 00000KT 9999 FEW050CB 19/19 Q1016 R88/29//95
                        BECMG NSC=
201907230400 METAR LROP 230400Z 24004KT 9999 FEW050CB 20/19 Q1017 R88/29//95
                        BECMG NSC=
201907230430 METAR LROP 230430Z 25001KT 9999 FEW050CB 20/20 Q1017 R88/29//95
                        NOSIG=
201907230500 METAR LROP 230500Z 28004KT 260V340 9999 FEW050CB 21/20 Q1017
                        R88/19//95 NOSIG=
201907230530 METAR LROP 230530Z 30004KT 240V020 9999 FEW050CB 23/20 Q1017
                        R88/19//95 NOSIG=
201907230600 METAR LROP 230600Z 02007KT 360V080 9999 FEW050CB 23/19 Q1017
                        R88/19//95 NOSIG=
201907230630 METAR LROP 230630Z 02007KT 9999 FEW050CB 23/19 Q1017 R88/19//95
                        NOSIG=
201907230700 METAR LROP 230700Z 05008KT 9999 FEW050CB 24/19 Q1017 R88/19//95
                        NOSIG=
201907230730 METAR LROP 230730Z 06010KT 9999 FEW048 FEW050CB 25/18 Q1017
                        R88/CLRD// NOSIG=
201907230800 METAR LROP 230800Z 07008KT 9999 FEW050CB 24/19 Q1017 NOSIG=
201907230830 METAR LROP 230830Z 07008KT 9999 FEW050CB 26/18 Q1016 NOSIG=
201907230900 METAR LROP 230900Z 02009KT 9999 FEW050CB 25/18 Q1016 NOSIG=
201907230930 METAR LROP 230930Z 03005KT 330V070 9999 FEW050CB 24/19 Q1017
                        NOSIG=
201907231000 METAR LROP 231000Z 02005KT 340V070 9999 -RA SCT045 FEW050CB
                        24/19 Q1017 NOSIG=
201907231030 METAR LROP 231030Z 07008KT 9999 SCT039 26/18 Q1017=
201907231100 METAR LROP 231100Z 08004KT 360V110 CAVOK 25/16 Q1016 NOSIG=
201907231130 METAR LROP 231130Z VRB04KT CAVOK 26/17 Q1015 NOSIG=
201907231200 METAR LROP 231200Z VRB03KT CAVOK 27/16 Q1015 NOSIG=
201907231230 METAR LROP 231230Z VRB04KT 9999 FEW050CB 26/16 Q1015 NOSIG=
201907231300 METAR LROP 231300Z 01004KT 320V080 9999 FEW050CB 25/18 Q1015
                        TEMPO 5000 -SHRA=
201907231330 METAR LROP 231330Z 04004KT 360V070 9999 SCT050CB 25/18 Q1015
                        TEMPO 5000 -SHRA=
201907231400 METAR LROP 231400Z 36006KT 330V030 7000 SHRA SCT045CB 22/20
                        Q1015 R88/29//95 TEMPO 5000 SHRA=
201907231430 METAR LROP 231430Z 07007KT 030V090 9999 -SHRA SCT045CB 20/19
                        Q1015 RESHRA R88/29//95 NOSIG=
201907231500 METAR LROP 231500Z 07005KT 030V090 9999 -SHRA SCT045CB 20/18
                        Q1015 R88/29//95 NOSIG=
201907231530 METAR COR LROP 231530Z 07005KT 030V100 9999 FEW050CB 20/18
                        Q1015 R88/29//95 NOSIG=
201907231600 METAR LROP 231600Z 05005KT 020V090 9999 -SHRA FEW050CB 20/19
                        Q1015 R88/29//95 NOSIG=
201907231630 METAR COR LROP 231630Z 09005KT 9999 -SHRA FEW050CB 20/18
                        Q1015 R88/29//95 NOSIG=
201907231700 METAR LROP 231700Z 10005KT 070V130 9999 -SHRA SCT050CB 20/18
                        Q1015 R88/29//95 TEMPO 5000 SHRA
                        BKN040CB=
201907231730 METAR LROP 231730Z VRB02KT 9999 SCT050CB 20/19 Q1015 R88/29//95
                        TEMPO 5000 SHRA BKN040CB=
201907231800 METAR LROP 231800Z 04004KT 340V090 9999 -SHRA SCT050CB 20/18
                        Q1015 R88/29//95 TEMPO 5000 SHRA
                        BKN040CB=
201907231830 METAR LROP 231830Z 01003KT 340V040 9999 SCT050CB 20/18 Q1015
                        R88/29//95 TEMPO 5000 SHRA BKN040CB=
201907231900 METAR COR LROP 231900Z 36004KT 9999 -SHRA SCT050CB 20/18
                        Q1015 R88/29//95 TEMPO 5000 SHRA
                        BKN040CB=
201907231930 METAR LROP 231930Z 35003KT 330V030 8000 SHRA SCT040CB 19/18
                        Q1015 R88/29//95 NOSIG=
201907232000 METAR LROP 232000Z 04003KT 350V080 9999 -SHRA SCT040CB 19/18
                        Q1015 RESHRA R88/29//95 NOSIG=
201907232030 METAR LROP 232030Z 36003KT 330V040 9999 -SHRA SCT040CB 19/18
                        Q1015 R88/29//95 NOSIG=
201907232100 METAR LROP 232100Z 01003KT 340V040 9999 FEW050CB 19/18 Q1015
                        R88/29//95 NOSIG=
201907232130 METAR LROP 232130Z 35002KT 9999 -SHRA FEW050CB 19/18 Q1015
                        R88/29//95 NOSIG=
201907232200 METAR LROP 232200Z 31003KT 290V360 9999 FEW050CB 18/18 Q1016
                        R88/29//95 NOSIG=
201907232230 METAR LROP 232230Z 30005KT 9999 -SHRA SCT045CB 18/18 Q1016
                        R88/29//95 NOSIG=
201907232300 METAR LROP 232300Z 30003KT 9999 -SHRA SCT050CB 18/18 Q1016
                        R88/29//95 NOSIG=
201907232330 METAR LROP 232330Z 28003KT 9999 -SHRA SCT050CB 18/18 Q1016
                        R88/29//95 NOSIG=
201907240000 METAR LROP 240000Z 31003KT 9999 -SHRA SCT050CB 18/18 Q1015
                        R88/29//95 NOSIG=
201907240030 METAR LROP 240030Z 27004KT 9999 -SHRA SCT050CB 18/18 Q1015
                        R88/29//95 NOSIG=
201907240100 METAR LROP 240100Z 28003KT 9999 -SHRA FEW050CB 18/18 Q1015
                        R88/29//95 NOSIG=
201907240130 METAR LROP 240130Z 30003KT 270V340 CAVOK 18/18 Q1015 R88/29//95
                        NOSIG=
201907240200 METAR LROP 240200Z 29003KT CAVOK 18/18 Q1015 R88/29//95 NOSIG=
201907240230 METAR LROP 240230Z 28003KT CAVOK 18/17 Q1015 R88/29//95 NOSIG=
201907240300 METAR LROP 240300Z 29002KT CAVOK 17/17 Q1015 R88/29//95 NOSIG=
201907240330 METAR LROP 240330Z 29003KT CAVOK 18/18 Q1015 R88/29//95 NOSIG=
201907240400 METAR LROP 240400Z 31004KT CAVOK 18/18 Q1015 R88/29//95 NOSIG=
201907240430 METAR LROP 240430Z 31004KT 280V340 CAVOK 20/19 Q1015 R88/29//95
                        NOSIG=
201907240500 METAR LROP 240500Z 33003KT 310V020 CAVOK 19/18 Q1015 R88/29//95
                        NOSIG=
201907240530 METAR COR LROP 240530Z 33003KT 290V360 CAVOK 21/18 Q1015
                        R88/CLRD// NOSIG=
201907240600 METAR LROP 240600Z 33003KT 300V020 CAVOK 22/18 Q1015 NOSIG=
201907240630 METAR LROP 240630Z 36003KT 300V060 CAVOK 22/17 Q1016 NOSIG=
201907240700 METAR LROP 240700Z 01005KT 320V070 CAVOK 23/16 Q1016 NOSIG=
201907240730 METAR LROP 240730Z 36005KT 300V060 CAVOK 24/17 Q1016 NOSIG=
201907240800 METAR LROP 240800Z 03006KT 360V120 CAVOK 24/15 Q1016 NOSIG=
201907240830 METAR LROP 240830Z VRB05KT 9999 FEW040 25/14 Q1016 NOSIG=
201907240900 METAR LROP 240900Z 08008KT 9999 FEW047 26/13 Q1016 NOSIG=
201907240930 METAR LROP 240930Z 03007KT 010V070 9999 SCT048 26/12 Q1016
                        NOSIG=
201907241000 METAR LROP 241000Z 04009KT 350V060 CAVOK 27/12 Q1016 NOSIG=
201907241030 METAR LROP 241030Z 09008KT 050V120 CAVOK 26/12 Q1016 NOSIG=
201907241100 METAR LROP 241100Z 09008KT CAVOK 27/11 Q1016 NOSIG=
201907241130 METAR LROP 241130Z VRB04KT CAVOK 27/12 Q1016 NOSIG=
201907241200 METAR LROP 241200Z 07007KT CAVOK 28/10 Q1015 NOSIG=
201907241230 METAR LROP 241230Z VRB03KT CAVOK 28/10 Q1015 NOSIG=
201907241300 METAR LROP 241300Z 07004KT 020V110 CAVOK 28/11 Q1015 NOSIG=
201907241330 METAR LROP 241330Z VRB01KT CAVOK 27/13 Q1015 NOSIG=
201907241400 METAR LROP 241400Z VRB02KT CAVOK 27/13 Q1015 NOSIG=
201907241430 METAR LROP 241430Z 27003KT 200V320 9999 FEW060CB 26/13 Q1015
                        NOSIG=
201907241500 METAR LROP 241500Z 29003KT 260V320 9999 FEW060CB 27/11 Q1015
                        NOSIG=
201907241530 METAR LROP 241530Z 26004KT 220V290 9999 FEW060CB 28/12 Q1015
                        NOSIG=
201907241600 METAR LROP 241600Z 29006KT 9999 FEW060CB 25/15 Q1015 NOSIG=
201907241630 METAR LROP 241630Z 04009KT 9999 FEW060CB 26/15 Q1015 NOSIG=
201907241700 METAR LROP 241700Z 06007KT 9999 FEW060CB 26/13 Q1015 NOSIG=
201907241730 METAR LROP 241730Z 05004KT 9999 FEW060CB 25/14 Q1016 NOSIG=
201907241800 METAR LROP 241800Z 08005KT CAVOK 23/14 Q1016 NOSIG=
201907241830 METAR LROP 241830Z 08003KT 030V110 CAVOK 22/17 Q1016 NOSIG=
201907241900 METAR LROP 241900Z 08002KT CAVOK 21/16 Q1016 NOSIG=
201907241930 METAR LROP 241930Z 00000KT CAVOK 21/16 Q1016 NOSIG=
201907242000 METAR LROP 242000Z 00000KT CAVOK 20/17 Q1016 NOSIG=
201907242030 METAR LROP 242030Z 00000KT CAVOK 20/16 Q1016 NOSIG=
201907242100 METAR LROP 242100Z 00000KT CAVOK 20/17 Q1016 NOSIG=
201907242130 METAR LROP 242130Z VRB01KT CAVOK 20/17 Q1017 NOSIG=
201907242200 METAR LROP 242200Z 26004KT CAVOK 19/17 Q1017 NOSIG=
201907242230 METAR LROP 242230Z VRB03KT CAVOK 19/17 Q1017 NOSIG=
201907242300 METAR LROP 242300Z 05003KT 010V080 CAVOK 19/17 Q1017 NOSIG=
201907242330 METAR LROP 242330Z 04002KT CAVOK 19/17 Q1017 NOSIG=
201907250000 METAR LROP 250000Z 01003KT CAVOK 19/16 Q1017 NOSIG=
201907250030 METAR LROP 250030Z VRB02KT CAVOK 19/17 Q1017 NOSIG=
201907250100 METAR LROP 250100Z VRB02KT CAVOK 18/16 Q1017 NOSIG=
201907250130 METAR LROP 250130Z 35002KT CAVOK 18/16 Q1017 NOSIG=
201907250200 METAR LROP 250200Z VRB02KT CAVOK 19/17 Q1017 NOSIG=
201907250230 METAR LROP 250230Z 35002KT CAVOK 19/17 Q1017 NOSIG=
201907250300 METAR LROP 250300Z 35002KT CAVOK 19/17 Q1017 NOSIG=
201907250330 METAR LROP 250330Z 00000KT CAVOK 19/17 Q1017 NOSIG=
201907250400 METAR LROP 250400Z 01002KT CAVOK 19/18 Q1017 NOSIG=
201907250430 METAR LROP 250430Z VRB02KT CAVOK 21/16 Q1017 NOSIG=
201907250500 METAR LROP 250500Z 03003KT CAVOK 22/18 Q1017 NOSIG=
201907250530 METAR LROP 250530Z VRB02KT CAVOK 24/17 Q1018 NOSIG=
201907250600 METAR LROP 250600Z VRB02KT CAVOK 24/16 Q1018 NOSIG=
201907250630 METAR LROP 250630Z 08003KT 040V130 CAVOK 25/16 Q1018 NOSIG=
201907250700 METAR LROP 250700Z 12005KT 090V160 CAVOK 27/16 Q1018 NOSIG=
201907250730 METAR LROP 250730Z 13006KT 080V160 CAVOK 27/16 Q1018 NOSIG=
201907250800 METAR LROP 250800Z 12005KT 060V190 CAVOK 27/14 Q1018 NOSIG=
201907250830 METAR LROP 250830Z 14005KT 090V200 CAVOK 28/14 Q1017 NOSIG=
201907250900 METAR LROP 250900Z 14004KT 090V180 CAVOK 28/13 Q1017 NOSIG=
201907250930 METAR LROP 250930Z 11006KT 070V150 CAVOK 29/14 Q1017 NOSIG=
201907251000 METAR LROP 251000Z 09004KT 360V170 9999 FEW048 29/13 Q1017
                        NOSIG=
201907251030 METAR LROP 251030Z VRB04KT 9999 FEW048 29/13 Q1017 NOSIG=
201907251100 METAR LROP 251100Z 17005KT 140V210 CAVOK 27/16 Q1017 NOSIG=
201907251130 METAR LROP 251130Z VRB02KT CAVOK 27/14 Q1017 NOSIG=
201907251200 METAR LROP 251200Z 18004KT 140V220 CAVOK 27/17 Q1017 NOSIG=
201907251230 METAR LROP 251230Z VRB01KT CAVOK 26/16 Q1017 NOSIG=
201907251300 METAR LROP 251300Z VRB01KT CAVOK 27/19 Q1016 NOSIG=
201907251330 METAR LROP 251330Z VRB03KT CAVOK 28/17 Q1016 NOSIG=
201907251400 METAR LROP 251400Z 22002KT CAVOK 29/16 Q1016 NOSIG=
201907251430 METAR LROP 251430Z 16005KT 130V210 CAVOK 29/17 Q1016 NOSIG=
201907251500 METAR LROP 251500Z VRB03KT CAVOK 28/16 Q1016 NOSIG=
201907251530 METAR LROP 251530Z VRB02KT CAVOK 30/16 Q1016 NOSIG=
201907251600 METAR LROP 251600Z VRB01KT CAVOK 29/14 Q1016 NOSIG=
201907251630 METAR LROP 251630Z 11003KT 060V160 CAVOK 27/14 Q1016 NOSIG=
201907251700 METAR LROP 251700Z VRB02KT CAVOK 26/15 Q1016 NOSIG=
201907251730 METAR LROP 251730Z 13003KT 080V160 CAVOK 26/15 Q1016 NOSIG=
201907251800 METAR LROP 251800Z VRB01KT CAVOK 25/15 Q1016 NOSIG=
201907251830 METAR LROP 251830Z 03003KT CAVOK 24/16 Q1016 NOSIG=
201907251900 METAR LROP 251900Z 08002KT CAVOK 24/17 Q1016 NOSIG=
201907251930 METAR LROP 251930Z 11004KT CAVOK 23/17 Q1016 NOSIG=
201907252000 METAR LROP 252000Z 10002KT CAVOK 22/18 Q1016 NOSIG=
201907252030 METAR LROP 252030Z VRB02KT CAVOK 22/17 Q1016 NOSIG=
201907252100 METAR LROP 252100Z 02002KT CAVOK 21/17 Q1016 NOSIG=
201907252130 METAR LROP 252130Z VRB01KT CAVOK 21/18 Q1016 NOSIG=
201907252200 METAR LROP 252200Z 01003KT CAVOK 20/17 Q1016 NOSIG=
201907252230 METAR LROP 252230Z VRB01KT CAVOK 20/18 Q1016 NOSIG=
201907252300 METAR LROP 252300Z VRB02KT CAVOK 19/18 Q1016 NOSIG=
201907252330 METAR LROP 252330Z VRB01KT CAVOK 19/17 Q1016 NOSIG=
201907260000 METAR LROP 260000Z 35001KT CAVOK 19/17 Q1015 NOSIG=
201907260030 METAR LROP 260030Z 31002KT CAVOK 19/18 Q1015 NOSIG=
201907260100 METAR LROP 260100Z 31004KT CAVOK 19/18 Q1015 NOSIG=
201907260130 METAR LROP 260130Z 33003KT 300V010 CAVOK 18/17 Q1015 NOSIG=
201907260200 METAR LROP 260200Z VRB02KT CAVOK 19/17 Q1015 NOSIG=
201907260230 METAR LROP 260230Z VRB01KT CAVOK 19/17 Q1014 NOSIG=
201907260300 METAR LROP 260300Z VRB02KT CAVOK 18/18 Q1015 NOSIG=
201907260330 METAR LROP 260330Z VRB02KT CAVOK 19/18 Q1014 NOSIG=
201907260400 METAR LROP 260400Z VRB02KT CAVOK 19/18 Q1014 NOSIG=
201907260430 METAR LROP 260430Z 04003KT 020V080 CAVOK 20/18 Q1014 NOSIG=
201907260500 METAR LROP 260500Z 01002KT CAVOK 20/18 Q1014 NOSIG=
201907260530 METAR LROP 260530Z 02004KT CAVOK 21/18 Q1014 NOSIG=
201907260600 METAR LROP 260600Z 05004KT 020V080 CAVOK 22/18 Q1014 NOSIG=
201907260630 METAR LROP 260630Z 07003KT 030V100 CAVOK 23/18 Q1014 NOSIG=
201907260700 METAR LROP 260700Z 11003KT CAVOK 25/18 Q1014 NOSIG=
201907260730 METAR LROP 260730Z VRB02KT CAVOK 27/17 Q1014 NOSIG=
201907260800 METAR LROP 260800Z VRB02KT CAVOK 28/19 Q1014 NOSIG=
201907260830 METAR LROP 260830Z 17005KT 130V220 CAVOK 29/17 Q1013 NOSIG=
201907260900 METAR LROP 260900Z 18005KT 130V250 CAVOK 30/17 Q1013 NOSIG=
201907260930 METAR COR LROP 260930Z 16007KT 130V190 CAVOK 30/18 Q1013
                        NOSIG=
201907261000 METAR LROP 261000Z 17006KT 140V210 CAVOK 30/16 Q1012 NOSIG=
201907261030 METAR LROP 261030Z 21007KT 180V260 CAVOK 31/15 Q1012 NOSIG=
201907261100 METAR LROP 261100Z 21006KT 130V280 CAVOK 31/16 Q1012 NOSIG=
201907261130 METAR LROP 261130Z 25006KT 190V300 CAVOK 29/18 Q1012 NOSIG=
201907261200 METAR LROP 261200Z 25006KT 190V320 CAVOK 31/16 Q1011 NOSIG=
201907261230 METAR LROP 261230Z 25006KT 210V300 CAVOK 32/14 Q1011 NOSIG=
201907261300 METAR LROP 261300Z 20007KT 170V240 CAVOK 32/15 Q1011 NOSIG=
201907261330 METAR LROP 261330Z 22006KT 180V250 CAVOK 32/17 Q1010 NOSIG=
201907261400 METAR LROP 261400Z 23008KT 210V290 CAVOK 32/16 Q1010 NOSIG=
201907261430 METAR LROP 261430Z 21007KT CAVOK 32/15 Q1010 NOSIG=
201907261500 METAR LROP 261500Z 22005KT 150V280 CAVOK 32/15 Q1009 NOSIG=
201907261530 METAR LROP 261530Z 23007KT CAVOK 31/16 Q1009 NOSIG=
201907261600 METAR LROP 261600Z 26008KT CAVOK 31/15 Q1009 NOSIG=
201907261630 METAR LROP 261630Z 27006KT CAVOK 29/17 Q1009 NOSIG=
201907261700 METAR LROP 261700Z 26005KT CAVOK 28/17 Q1009 NOSIG=
201907261730 METAR LROP 261730Z 24003KT CAVOK 27/17 Q1009 NOSIG=
201907261800 METAR LROP 261800Z 22002KT CAVOK 26/16 Q1009 NOSIG=
201907261830 METAR LROP 261830Z 15003KT CAVOK 25/17 Q1009 NOSIG=
201907261900 METAR LROP 261900Z 00000KT CAVOK 25/19 Q1009 NOSIG=
201907261930 METAR LROP 261930Z 14002KT CAVOK 24/19 Q1009 NOSIG=
201907262000 METAR LROP 262000Z VRB02KT CAVOK 24/18 Q1009 NOSIG=
201907262030 METAR LROP 262030Z 01003KT CAVOK 23/19 Q1009 NOSIG=
201907262100 METAR LROP 262100Z VRB02KT CAVOK 23/19 Q1009 NOSIG=
201907262130 METAR LROP 262130Z 35003KT CAVOK 23/19 Q1009 NOSIG=
201907262200 METAR LROP 262200Z 35002KT CAVOK 22/19 Q1009 NOSIG=
201907262230 METAR LROP 262230Z 02003KT CAVOK 22/19 Q1009 NOSIG=
201907262300 METAR LROP 262300Z VRB01KT CAVOK 21/19 Q1008 NOSIG=
201907262330 METAR LROP 262330Z VRB01KT CAVOK 20/19 Q1008 NOSIG=
201907270000 METAR LROP 270000Z 35001KT CAVOK 19/19 Q1008 NOSIG=
201907270030 METAR LROP 270030Z VRB01KT CAVOK 20/19 Q1008 NOSIG=
201907270100 METAR LROP 270100Z 35002KT CAVOK 20/19 Q1008 NOSIG=
201907270130 METAR LROP 270130Z VRB02KT CAVOK 19/18 Q1008 NOSIG=
201907270200 METAR LROP 270200Z VRB01KT 8000 NSC 19/19 Q1008 NOSIG=
201907270230 METAR LROP 270230Z VRB01KT 8000 NSC 19/19 Q1008 NOSIG=
201907270300 METAR LROP 270300Z 08003KT 020V120 CAVOK 18/18 Q1008 NOSIG=
201907270330 METAR LROP 270330Z VRB02KT CAVOK 19/18 Q1008 NOSIG=
201907270400 METAR LROP 270400Z 03003KT 9000 NSC 20/19 Q1008 NOSIG=
201907270430 METAR LROP 270430Z 02005KT 350V060 CAVOK 21/19 Q1008 NOSIG=
201907270500 METAR LROP 270500Z 02005KT CAVOK 22/19 Q1008 NOSIG=
201907270530 METAR LROP 270530Z 05007KT CAVOK 23/19 Q1009 NOSIG=
201907270600 METAR LROP 270600Z 05006KT CAVOK 24/20 Q1009 NOSIG=
201907270630 METAR LROP 270630Z 07006KT CAVOK 25/19 Q1009 NOSIG=
201907270700 METAR LROP 270700Z 06007KT CAVOK 26/19 Q1009 NOSIG=
201907270730 METAR LROP 270730Z 06008KT CAVOK 27/19 Q1009 NOSIG=
201907270800 METAR LROP 270800Z 06008KT 010V090 CAVOK 28/19 Q1009 NOSIG=
201907270830 METAR LROP 270830Z 06008KT CAVOK 29/19 Q1009 NOSIG=
201907270900 METAR LROP 270900Z 06007KT CAVOK 30/19 Q1009 NOSIG=
201907270930 METAR LROP 270930Z 11007KT 060V160 CAVOK 31/18 Q1008 NOSIG=
201907271000 METAR LROP 271000Z 12007KT 070V160 CAVOK 31/17 Q1008 NOSIG=
201907271030 METAR LROP 271030Z 14006KT 090V160 CAVOK 32/15 Q1008 NOSIG=
201907271100 METAR LROP 271100Z 13007KT 060V230 CAVOK 32/15 Q1008 NOSIG=
201907271130 METAR LROP 271130Z 16004KT 050V210 CAVOK 33/14 Q1008 NOSIG=
201907271200 METAR LROP 271200Z 13006KT 100V220 CAVOK 33/15 Q1008 NOSIG=
201907271230 METAR LROP 271230Z VRB04KT CAVOK 33/13 Q1007 NOSIG=
201907271300 METAR LROP 271300Z 10006KT 040V140 CAVOK 33/16 Q1007 NOSIG=
201907271330 METAR LROP 271330Z 13007KT 100V160 CAVOK 33/15 Q1007 NOSIG=
201907271400 METAR LROP 271400Z 13005KT 060V170 CAVOK 33/13 Q1007 NOSIG=
201907271430 METAR LROP 271430Z 13005KT 100V210 CAVOK 33/14 Q1007 NOSIG=
201907271500 METAR LROP 271500Z 13006KT 110V170 CAVOK 33/15 Q1006 NOSIG=
201907271530 METAR LROP 271530Z 12005KT 090V170 CAVOK 32/16 Q1006 NOSIG=
201907271600 METAR LROP 271600Z 12005KT CAVOK 31/16 Q1006 NOSIG=
201907271630 METAR LROP 271630Z 11005KT CAVOK 29/17 Q1006 NOSIG=
201907271700 METAR LROP 271700Z 11004KT CAVOK 29/18 Q1006 NOSIG=
201907271730 METAR LROP 271730Z 10003KT CAVOK 28/17 Q1007 NOSIG=
201907271800 METAR LROP 271800Z 09003KT CAVOK 27/18 Q1007 NOSIG=
201907271830 METAR LROP 271830Z 09005KT CAVOK 26/18 Q1007 NOSIG=
201907271900 METAR LROP 271900Z 07005KT CAVOK 25/18 Q1007 NOSIG=
201907271930 METAR LROP 271930Z 04005KT CAVOK 25/18 Q1007 NOSIG=
201907272000 METAR LROP 272000Z 15005KT CAVOK 25/16 Q1008 NOSIG=
201907272030 METAR LROP 272030Z VRB01KT CAVOK 25/15 Q1008 NOSIG=
201907272100 METAR LROP 272100Z 13004KT CAVOK 24/16 Q1008 NOSIG=
201907272130 METAR LROP 272130Z 10004KT CAVOK 22/16 Q1008 NOSIG=
201907272200 METAR LROP 272200Z 09003KT CAVOK 21/17 Q1008 NOSIG=
201907272230 METAR LROP 272230Z 09005KT CAVOK 21/17 Q1008 NOSIG=
201907272300 METAR LROP 272300Z 09005KT CAVOK 21/16 Q1008 NOSIG=
201907272330 METAR LROP 272330Z 06005KT CAVOK 20/16 Q1008 NOSIG=
201907280000 METAR LROP 280000Z 03006KT CAVOK 20/16 Q1008 NOSIG=
201907280030 METAR LROP 280030Z 03006KT CAVOK 20/16 Q1008 NOSIG=
201907280100 METAR LROP 280100Z 04006KT CAVOK 19/16 Q1008 NOSIG=
201907280130 METAR LROP 280130Z 02006KT CAVOK 19/16 Q1008 NOSIG=
201907280200 METAR LROP 280200Z 06007KT CAVOK 19/16 Q1008 NOSIG=
201907280230 METAR LROP 280230Z 06006KT CAVOK 18/16 Q1008 NOSIG=
201907280300 METAR LROP 280300Z 06006KT CAVOK 18/16 Q1009 NOSIG=
201907280330 METAR LROP 280330Z 06006KT CAVOK 18/16 Q1009 NOSIG=
201907280400 METAR LROP 280400Z 07007KT CAVOK 19/16 Q1009 NOSIG=
201907280430 METAR LROP 280430Z 07008KT CAVOK 20/17 Q1009 NOSIG=
201907280500 METAR LROP 280500Z 08008KT CAVOK 21/18 Q1009 NOSIG=
201907280530 METAR LROP 280530Z 08007KT CAVOK 22/18 Q1009 NOSIG=
201907280600 METAR LROP 280600Z 08008KT CAVOK 23/18 Q1009 NOSIG=
201907280630 METAR LROP 280630Z 07008KT CAVOK 24/18 Q1009 NOSIG=
201907280700 METAR LROP 280700Z 08007KT 040V100 CAVOK 26/17 Q1009 NOSIG=
201907280730 METAR LROP 280730Z 08008KT CAVOK 27/17 Q1009 NOSIG=
201907280800 METAR LROP 280800Z 09009KT CAVOK 28/14 Q1009 NOSIG=
201907280830 METAR LROP 280830Z 10007KT CAVOK 29/14 Q1009 NOSIG=
201907280900 METAR LROP 280900Z 09010KT CAVOK 30/12 Q1009 NOSIG=
201907280930 METAR LROP 280930Z 09010KT CAVOK 31/11 Q1008 NOSIG=
201907281000 METAR LROP 281000Z 11010KT 080V140 CAVOK 31/10 Q1008 NOSIG=
201907281030 METAR LROP 281030Z 10008KT 080V160 CAVOK 32/11 Q1008 NOSIG=
201907281100 METAR LROP 281100Z 14010KT 100V170 CAVOK 32/12 Q1008 NOSIG=
201907281130 METAR LROP 281130Z 13009KT CAVOK 32/10 Q1007 NOSIG=
201907281200 METAR LROP 281200Z 14010KT 110V170 CAVOK 33/10 Q1007 NOSIG=
201907281230 METAR LROP 281230Z 10009KT 070V130 CAVOK 33/11 Q1007 NOSIG=
201907281300 METAR LROP 281300Z 13010KT CAVOK 33/08 Q1007 NOSIG=
201907281330 METAR LROP 281330Z 13011KT CAVOK 33/09 Q1006 NOSIG=
201907281400 METAR LROP 281400Z 10011KT 080V160 CAVOK 34/09 Q1006 NOSIG=
201907281430 METAR LROP 281430Z 13011KT CAVOK 33/09 Q1006 NOSIG=
201907281500 METAR LROP 281500Z 12011KT 090V150 CAVOK 33/09 Q1006 NOSIG=
201907281530 METAR LROP 281530Z 12013KT CAVOK 32/10 Q1005 NOSIG=
201907281600 METAR LROP 281600Z 13011KT CAVOK 31/11 Q1005 NOSIG=
201907281630 METAR LROP 281630Z 12010KT CAVOK 30/11 Q1005 NOSIG=
201907281700 METAR LROP 281700Z 13010KT CAVOK 29/12 Q1005 NOSIG=
201907281730 METAR LROP 281730Z 13009KT CAVOK 28/12 Q1006 NOSIG=
201907281800 METAR LROP 281800Z 13010KT CAVOK 27/12 Q1006 NOSIG=
201907281830 METAR LROP 281830Z 13008KT CAVOK 26/13 Q1006 NOSIG=
201907281900 METAR LROP 281900Z 14008KT CAVOK 25/14 Q1006 NOSIG=
201907281930 METAR LROP 281930Z 13009KT CAVOK 25/14 Q1006 NOSIG=
201907282000 METAR LROP 282000Z 14007KT CAVOK 24/15 Q1006 NOSIG=
201907282030 METAR LROP 282030Z 12007KT CAVOK 23/15 Q1006 NOSIG=
201907282100 METAR LROP 282100Z 12005KT CAVOK 23/15 Q1006 NOSIG=
201907282130 METAR LROP 282130Z 09005KT CAVOK 20/15 Q1006 NOSIG=
201907282200 METAR LROP 282200Z 08006KT CAVOK 19/14 Q1006 NOSIG=
201907282230 METAR LROP 282230Z 09005KT CAVOK 19/15 Q1006 NOSIG=
201907282300 METAR LROP 282300Z 08008KT CAVOK 19/14 Q1005 NOSIG=
201907282330 METAR LROP 282330Z 09006KT CAVOK 20/15 Q1005 NOSIG=
201907290000 METAR LROP 290000Z 09006KT CAVOK 20/15 Q1005 NOSIG=
201907290030 METAR LROP 290030Z 09005KT CAVOK 20/15 Q1005 NOSIG=
201907290100 METAR LROP 290100Z 07005KT CAVOK 20/15 Q1005 NOSIG=
201907290130 METAR LROP 290130Z 07005KT CAVOK 19/15 Q1005 NOSIG=
201907290200 METAR LROP 290200Z 07006KT CAVOK 19/15 Q1005 TEMPO 5000 SHRA
                        SCT030CB=
201907290230 METAR LROP 290230Z 07005KT CAVOK 19/16 Q1005 TEMPO 5000 SHRA
                        SCT030CB=
201907290300 METAR LROP 290300Z 06007KT 9999 FEW050CB 19/16 Q1004 TEMPO
                        5000 SHRA SCT030CB=
201907290330 METAR LROP 290330Z 07007KT 9999 FEW050CB 19/17 Q1005 TEMPO
                        5000 SHRA SCT030CB=
201907290400 METAR LROP 290400Z 07009KT 9999 FEW050CB 20/18 Q1004 TEMPO
                        5000 SHRA SCT030CB=
201907290430 METAR LROP 290430Z 07008KT CAVOK 20/18 Q1004 TEMPO 5000 SHRA
                        SCT030CB=
201907290500 METAR LROP 290500Z 06007KT CAVOK 21/18 Q1005 TEMPO 5000 SHRA
                        SCT030CB=
201907290530 METAR LROP 290530Z 09005KT 9999 FEW050CB 22/19 Q1005 TEMPO
                        5000 SHRA SCT030CB=
201907290600 METAR LROP 290600Z 08005KT 050V120 9999 TS FEW040CB 23/19
                        Q1005 TEMPO 5000 -TSRA=
201907290630 METAR LROP 290630Z 15004KT 130V190 9999 -TSRA FEW010 FEW030CB
                        22/20 Q1006 TEMPO 5000 -TSRA=
201907290700 METAR LROP 290700Z 12004KT 8000 TSRA FEW010 SCT020 SCT025CB
                        20/20 Q1006 R88/29//95 TEMPO 3000
                        TSRA=
201907290730 METAR LROP 290730Z 23006KT 5000 TSRA BKN010 SCT020CB 20/20
                        Q1006 R88/29//95 TEMPO 3000 TSRA=
201907290800 METAR COR LROP 290800Z 04010KT 9000 -RA BKN048 20/20 Q1004
                        RETS R88/29//95 NOSIG=
201907290830 METAR LROP 290830Z 09008KT 8000 -RA FEW026 21/21 Q1005 R88/29//95
                        NOSIG=
201907290900 METAR LROP 290900Z 07009KT 9999 FEW007 22/21 Q1005 R88/29//95
                        NOSIG=
201907290930 METAR LROP 290930Z 13006KT 090V150 9999 SCT008 23/21 Q1006
                        R88/29//95 NOSIG=
201907291000 METAR LROP 291000Z 13007KT 9999 FEW011 21/19 Q1006 R88/19//95
                        NOSIG=
201907291030 METAR LROP 291030Z 12006KT CAVOK 22/20 Q1006 R88/19//95 NOSIG=
201907291100 METAR LROP 291100Z 14005KT 9999 FEW018 23/20 Q1006 R88/19//95
                        NOSIG=
201907291130 METAR LROP 291130Z 13003KT 060V190 9999 SCT018 BKN030 23/20
                        Q1006 R88/19//95 NOSIG=
201907291200 METAR LROP 291200Z 15009KT 9999 BKN022 23/21 Q1006 R88/19//95
                        NOSIG=
201907291230 METAR LROP 291230Z 15007KT 9999 BKN031 24/20 Q1005 R88/19//95
                        NOSIG=
201907291300 METAR LROP 291300Z 13004KT 060V210 9999 SCT036 24/19 Q1005
                        R88/19//95 NOSIG=
201907291330 METAR LROP 291330Z 12004KT 080V180 9999 SCT028 24/19 Q1006
                        R88/19//95 NOSIG=
201907291400 METAR LROP 291400Z VRB02KT 9999 SCT028 24/19 Q1005 R88/19//95
                        NOSIG=
201907291430 METAR LROP 291430Z VRB02KT 9999 FEW028 24/18 Q1005 R88/19//95
                        NOSIG=
201907291500 METAR COR LROP 291500Z 10003KT 060V160 9999 FEW032 24/19
                        Q1005 R88/09//95 NOSIG=
201907291530 METAR LROP 291530Z 08004KT 050V120 9999 FEW030 25/18 Q1005
                        R88/09//95 NOSIG=
201907291600 METAR LROP 291600Z 09007KT CAVOK 25/18 Q1005 R88/09//95 NOSIG=
201907291630 METAR LROP 291630Z 08005KT CAVOK 24/18 Q1005 R88/09//95 NOSIG=
201907291700 METAR LROP 291700Z 08006KT CAVOK 23/17 Q1005 R88/09//95 NOSIG=
201907291730 METAR LROP 291730Z 08005KT CAVOK 23/17 Q1005 R88/09//95 NOSIG=
201907291800 METAR LROP 291800Z 10003KT CAVOK 21/18 Q1005 R88/09//95 NOSIG=
201907291830 METAR LROP 291830Z 08002KT CAVOK 21/18 Q1005 R88/09//95 NOSIG=
201907291900 METAR LROP 291900Z 01004KT 330V040 CAVOK 21/18 Q1006 R88/09//95
                        NOSIG=
201907291930 METAR LROP 291930Z 36004KT CAVOK 21/18 Q1006 R88/09//95 NOSIG=
201907292000 METAR LROP 292000Z 01004KT CAVOK 21/18 Q1006 R88/09//95 NOSIG=
201907292030 METAR LROP 292030Z 36003KT CAVOK 20/18 Q1006 R88/09//95 NOSIG=
201907292100 METAR LROP 292100Z VRB02KT CAVOK 20/18 Q1006 R88/09//95 NOSIG=
201907292130 METAR LROP 292130Z 33001KT CAVOK 20/18 Q1006 R88/09//95 NOSIG=
201907292200 METAR LROP 292200Z 27003KT 210V290 CAVOK 19/18 Q1006 R88/09//95
                        NOSIG=
201907292230 METAR LROP 292230Z 28004KT CAVOK 19/18 Q1006 R88/09//95 NOSIG=
201907292300 METAR LROP 292300Z VRB02KT CAVOK 19/18 Q1006 R88/09//95 NOSIG=
201907292330 METAR LROP 292330Z 27003KT CAVOK 18/18 Q1006 R88/09//95 NOSIG=
201907300000 METAR LROP 300000Z VRB01KT 9999 FEW040 18/17 Q1006 R88/09//95
                        NOSIG=
201907300030 METAR LROP 300030Z 27003KT CAVOK 18/17 Q1006 R88/09//95 NOSIG=
201907300100 METAR LROP 300100Z 27002KT CAVOK 17/17 Q1006 R88/09//95 NOSIG=
201907300130 METAR LROP 300130Z VRB02KT CAVOK 17/17 Q1006 R88/09//95 NOSIG=
201907300200 METAR LROP 300200Z 22003KT 200V260 CAVOK 17/17 Q1006 R88/09//95
                        NOSIG=
201907300230 METAR LROP 300230Z 28003KT CAVOK 17/17 Q1006 R88/09//95 NOSIG=
201907300300 METAR LROP 300300Z 27003KT 8000 NSC 17/17 Q1006 R88/09//95
                        NOSIG=
201907300330 METAR LROP 300330Z 25003KT 8000 NSC 17/17 Q1006 R88/09//95
                        NOSIG=
201907300400 METAR LROP 300400Z 24004KT 5000 BR NSC 17/17 Q1006 R88/09//95
                        NOSIG=
201907300430 METAR LROP 300430Z 25003KT 5000 BR NSC 18/18 Q1006 R88/09//95
                        NOSIG=
201907300500 METAR LROP 300500Z 25004KT 8000 NSC 20/19 Q1007 R88/09//95
                        NOSIG=
201907300530 METAR LROP 300530Z 24003KT 8000 NSC 21/19 Q1007 R88/09//95
                        NOSIG=
201907300600 METAR LROP 300600Z 23004KT CAVOK 23/18 Q1007 R88/09//95 NOSIG=
201907300630 METAR LROP 300630Z 22004KT CAVOK 24/20 Q1007 R88/09//95 NOSIG=
201907300700 METAR COR LROP 300700Z 25003KT CAVOK 24/19 Q1007 R08R/09//95
                        NOSIG=
201907300730 METAR LROP 300730Z 22005KT CAVOK 26/18 Q1007 R08R/09//95
                        NOSIG=
201907300800 METAR LROP 300800Z 24005KT CAVOK 26/19 Q1007 R08R/09//95
                        NOSIG=
201907300830 METAR COR LROP 300830Z 25004KT 190V330 CAVOK 26/19 Q1007
                        R08R/09//95 NOSIG=
201907300900 METAR LROP 300900Z 26007KT 230V300 CAVOK 27/17 Q1007 R08R/09//95=
201907300930 METAR LROP 300930Z 32005KT 280V350 CAVOK 28/17 Q1007 R08R/09//95
                        NOSIG=
201907301000 METAR LROP 301000Z 29004KT 260V360 CAVOK 28/15 Q1007 R08R/09//95
                        NOSIG=
201907301030 METAR LROP 301030Z 28008KT 9999 FEW048 28/15 Q1007 R08R/09//95
                        NOSIG=
201907301100 METAR LROP 301100Z 33005KT 230V360 CAVOK 29/15 Q1007 R08R/09//95
                        NOSIG=
201907301130 METAR LROP 301130Z 30004KT 200V350 CAVOK 30/16 Q1007 R08R/09//95
                        NOSIG=
201907301200 METAR LROP 301200Z 32004KT CAVOK 29/17 Q1006 R08R/09//95
                        NOSIG=
201907301230 METAR LROP 301230Z 30005KT 260V010 9999 FEW042 30/15 Q1006
                        R08R/09//95 NOSIG=
201907301300 METAR LROP 301300Z VRB04KT 9999 FEW037 29/16 Q1006 R08R/09//95
                        NOSIG=
201907301330 METAR LROP 301330Z 33007KT 290V350 CAVOK 29/16 Q1006 R88/09//95
                        NOSIG=
201907301400 METAR LROP 301400Z 33005KT 280V360 CAVOK 30/16 Q1006 R88/09//95
                        NOSIG=
201907301430 METAR LROP 301430Z 30005KT 260V330 CAVOK 30/15 Q1006 R88/09//95
                        NOSIG=
201907301500 METAR COR LROP 301500Z 01004KT 280V070 CAVOK 30/15 Q1005
                        R88/09//95 NOSIG=
201907301530 METAR LROP 301530Z 04005KT CAVOK 30/15 Q1005 R26R/09//95
                        NOSIG=
201907301600 METAR LROP 301600Z 06005KT 010V090 CAVOK 30/16 Q1005 R26R/09//95
                        NOSIG=
201907301630 METAR LROP 301630Z VRB02KT CAVOK 30/16 Q1005 R08L/09//95
                        NOSIG=
201907301700 METAR LROP 301700Z VRB01KT CAVOK 27/16 Q1006 R08L/09//95
                        NOSIG=
201907301730 METAR LROP 301730Z VRB01KT CAVOK 26/17 Q1006 R08L/09//95
                        NOSIG=
201907301800 METAR LROP 301800Z 25002KT CAVOK 25/16 Q1006 R08L/09//95
                        NOSIG=
201907301830 METAR LROP 301830Z VRB02KT CAVOK 24/17 Q1007 R08L/09//95
                        NOSIG=
201907301900 METAR LROP 301900Z 27004KT CAVOK 23/19 Q1007 R08L/09//95
                        NOSIG=
201907301930 METAR LROP 301930Z 28004KT CAVOK 22/19 Q1007 R08L/09//95
                        NOSIG=
201907302000 METAR LROP 302000Z VRB02KT CAVOK 23/19 Q1007 R08L/09//95
                        NOSIG=
201907302030 METAR LROP 302030Z 26004KT CAVOK 22/19 Q1007 R08L/09//95
                        NOSIG=
201907302100 METAR LROP 302100Z 29003KT CAVOK 22/19 Q1007 R08L/09//95
                        NOSIG=
201907302130 METAR LROP 302130Z 26002KT CAVOK 22/19 Q1008 R08L/09//95
                        NOSIG=
201907302200 METAR LROP 302200Z 27004KT CAVOK 21/19 Q1008 R08L/09//95
                        NOSIG=
201907302230 METAR LROP 302230Z 31003KT 280V340 CAVOK 21/19 Q1008 R08L/09//95
                        NOSIG=
201907302300 METAR LROP 302300Z 28005KT CAVOK 20/19 Q1007 R08L/09//95
                        NOSIG=
201907302330 METAR LROP 302330Z 25003KT CAVOK 20/19 Q1008 R08L/09//95
                        NOSIG=
201907310000 METAR LROP 310000Z 28003KT CAVOK 20/19 Q1007 R08L/09//95
                        NOSIG=
201907310030 METAR LROP 310030Z VRB02KT CAVOK 19/19 Q1007 R08L/09//95
                        NOSIG=
201907310100 METAR LROP 310100Z 26003KT 230V290 CAVOK 20/19 Q1007 R08L/09//95
                        NOSIG=
201907310130 METAR LROP 310130Z 29004KT CAVOK 19/19 Q1007 R08L/09//95
                        NOSIG=
201907310200 METAR LROP 310200Z 26005KT CAVOK 19/18 Q1007 R08L/09//95
                        NOSIG=
201907310230 METAR LROP 310230Z VRB02KT CAVOK 19/18 Q1007 R08L/09//95
                        NOSIG=
201907310300 METAR LROP 310300Z 28003KT CAVOK 18/18 Q1007 R88/09//95 NOSIG=
201907310330 METAR LROP 310330Z 29003KT 260V330 CAVOK 18/18 Q1008 R88/09//95
                        NOSIG=
201907310400 METAR LROP 310400Z 27004KT CAVOK 19/18 Q1008 R88/09//95 NOSIG=
201907310430 METAR LROP 310430Z 30004KT 270V350 CAVOK 21/19 Q1008 R88/09//95
                        NOSIG=
201907310500 METAR LROP 310500Z 26004KT CAVOK 22/19 Q1008 R88/09//95 NOSIG=
201907310530 METAR LROP 310530Z 27003KT 230V290 CAVOK 24/20 Q1008 R88/09//95
                        NOSIG=
201907310600 METAR LROP 310600Z 26004KT CAVOK 26/21 Q1008 R88/09//95 NOSIG=
201907310630 METAR LROP 310630Z VRB02KT CAVOK 28/21 Q1009 R88/09//95 NOSIG=
201907310700 METAR LROP 310700Z VRB02KT CAVOK 30/20 Q1009 R88/09//95 NOSIG=
201907310730 METAR LROP 310730Z 06003KT 020V150 CAVOK 30/19 Q1009 R88/09//95
                        NOSIG=
201907310800 METAR LROP 310800Z 36004KT 310V060 CAVOK 31/17 Q1009 R88/09//95
                        NOSIG=
201907310830 METAR LROP 310830Z 06003KT 350V160 CAVOK 31/17 Q1009 R88/09//95
                        NOSIG=
201907310900 METAR LROP 310900Z VRB03KT CAVOK 32/18 Q1009 R88/09//95 NOSIG=
201907310930 METAR LROP 310930Z 05005KT 030V090 CAVOK 32/17 Q1009 R88/09//95
                        NOSIG=
201907311000 METAR LROP 311000Z 03004KT 330V080 CAVOK 33/17 Q1009 R88/09//95
                        NOSIG=
201907311030 METAR LROP 311030Z 19004KT 120V260 CAVOK 33/17 Q1009 R88/09//95
                        NOSIG=
201907311100 METAR LROP 311100Z 25005KT 190V340 CAVOK 34/17 Q1009 R88/09//95
                        NOSIG=
201907311130 METAR LROP 311130Z 24005KT 210V280 CAVOK 34/17 Q1008 R88/09//95
                        NOSIG=
201907311200 METAR LROP 311200Z 21006KT 170V260 CAVOK 33/16 Q1008 R88/09//95
                        NOSIG=
201907311230 METAR LROP 311230Z VRB02KT CAVOK 34/16 Q1008 R88/09//95 NOSIG=
201907311300 METAR LROP 311300Z 34009KT CAVOK 31/18 Q1008 R88/09//95 NOSIG=
201907311330 METAR LROP 311330Z 32007KT CAVOK 32/17 Q1008 R88/09//95 NOSIG=
201907311400 METAR LROP 311400Z 36007KT 330V030 CAVOK 33/17 Q1008 R88/09//95
                        NOSIG=
201907311430 METAR LROP 311430Z 35009KT CAVOK 32/17 Q1008 R88/09//95 NOSIG=
201907311500 METAR LROP 311500Z 01005KT 330V040 CAVOK 31/17 Q1008 R88/09//95
                        NOSIG=
201907311530 METAR LROP 311530Z 03004KT 360V060 CAVOK 31/17 Q1008 R88/09//95
                        NOSIG=
201907311600 METAR LROP 311600Z 04003KT 340V130 CAVOK 30/18 Q1008 R88/09//95
                        NOSIG=
201907311630 METAR LROP 311630Z 06006KT CAVOK 30/18 Q1009 R88/09//95 NOSIG=
201907311700 METAR LROP 311700Z 09005KT 9999 FEW050CB 29/20 Q1009 R88/09//95
                        NOSIG=
201907311730 METAR LROP 311730Z 06007KT 9999 FEW050CB 29/21 Q1009 R88/09//95
                        NOSIG=
201907311800 METAR LROP 311800Z 05010KT 9999 SCT050CB 28/20 Q1010 R88/09//95
                        NOSIG=
201907311830 METAR LROP 311830Z 04006KT 9999 FEW050CB 27/20 Q1010 R88/09//95
                        NOSIG=
201907311900 METAR LROP 311900Z 12004KT CAVOK 26/21 Q1010 R88/09//95 NOSIG=
201907311930 METAR LROP 311930Z 07008KT CAVOK 25/20 Q1011 R88/09//95 NOSIG=
201907312000 METAR LROP 312000Z 05007KT CAVOK 25/21 Q1011 R88/09//95 NOSIG=
201907312030 METAR LROP 312030Z 05008KT CAVOK 25/21 Q1011 R88/09//95 NOSIG=
201907312100 METAR LROP 312100Z 05007KT CAVOK 24/21 Q1011 R88/09//95 NOSIG=
201907312130 METAR COR LROP 312130Z 03007KT 9999 -TSRA SCT050CB 24/22
                        Q1011 R88/29//95 TEMPO 5000 TSRA=
201907312200 METAR COR LROP 312200Z 08009KT 9999 -TSRA FEW015 SCT050CB
                        23/21 Q1011 R88/29//95 TEMPO 5000
                        TSRA=
201907312230 METAR LROP 312230Z 09006KT 9999 VCTS FEW050CB 23/22 Q1011
                        RETS R88/29//95 NOSIG=
201907312300 METAR COR LROP 312300Z 07005KT 9999 -SHRA FEW050CB 23/21
                        Q1011 R88/29//95 NOSIG=
201907312330 METAR LROP 312330Z 07004KT 9999 -SHRA SCT040CB 23/21 Q1011
                        R88/29//95 NOSIG=
