201908010000 METAR LROP 010000Z 09003KT 9999 FEW045CB 22/21 Q1011 R88/29//95
                        NOSIG=
201908010030 METAR LROP 010030Z 06004KT 9999 FEW050CB 22/21 Q1011 R88/29//95
                        NOSIG=
201908010100 METAR LROP 010100Z 06002KT 9999 FEW050CB 22/21 Q1011 R88/29//95
                        NOSIG=
201908010130 METAR LROP 010130Z 03003KT 9999 FEW050CB 23/21 Q1011 R88/29//95
                        NOSIG=
201908010200 METAR LROP 010200Z 00000KT 9999 TS SCT040CB 22/21 Q1011 R88/29//95
                        NOSIG=
201908010230 METAR LROP 010230Z 08003KT 9999 TS SCT040CB 22/21 Q1011 R88/29//95
                        NOSIG=
201908010300 METAR LROP 010300Z 06005KT 9999 VCTS SCT040CB 22/21 Q1012
                        RETS R88/19//95 NOSIG=
201908010330 METAR LROP 010330Z 04006KT 9999 VCTS SCT040CB 23/20 Q1012
                        R88/19//95 NOSIG=
201908010400 METAR LROP 010400Z 02010KT 9999 SCT040CB 22/20 Q1013 R88/19//95
                        NOSIG=
201908010430 METAR COR LROP 010430Z 36009KT 9999 -SHRA VCTS BKN043CB 22/20
                        Q1013 R88/29//95 NOSIG=
201908010500 METAR LROP 010500Z 05009KT 5000 TSRA BKN043CB 21/20 Q1013
                        R88/29//95 NOSIG=
201908010530 METAR LROP 010530Z 02008KT 1500 +TSRA FEW006 SCT029 BKN045CB
                        21/20 Q1013 R88/29//95 NOSIG=
201908010600 METAR LROP 010600Z 08009KT 8000 -SHRA FEW015 BKN047CB 21/20
                        Q1012 R88/29//95 TEMPO 5000 -TSRA=
201908010630 METAR LROP 010630Z 06008KT 9999 FEW022 FEW050CB 22/21 Q1012
                        R88/29//95 NOSIG=
201908010700 METAR LROP 010700Z 07008KT 040V100 9999 FEW040CB 24/21 Q1013
                        R88/29//95 NOSIG=
201908010730 METAR LROP 010730Z 08009KT 9999 FEW050CB 24/21 Q1013 R88/29//95
                        NOSIG=
201908010800 METAR COR LROP 010800Z 06008KT 9999 VCTS FEW050CB 24/21 Q1013
                        R88/CLRD// NOSIG=
201908010830 METAR COR LROP 010830Z 06005KT 030V110 9999 FEW015 FEW050CB
                        25/21 Q1013 R88/CLRD// TEMPO 5000
                        -TSRA=
201908010900 METAR COR LROP 010900Z 02005KT 350V070 9999 SCT017 SCT050CB
                        25/21 Q1014 R88/19//95 TEMPO 5000
                        -TSRA=
201908010930 METAR LROP 010930Z 34008KT 7000 SHRA FEW021 SCT023 SCT050CB
                        23/21 Q1014 R88/19//95 TEMPO 5000
                        -TSRA=
201908011000 METAR LROP 011000Z 02004KT 9999 -SHRA SCT037 SCT050CB 24/21
                        Q1014 R88/19//95 TEMPO 5000 TSRA=
201908011030 METAR LROP 011030Z 30004KT 270V020 9999 -SHRA BKN033 SCT050CB
                        24/22 Q1013 R88/19//95 TEMPO 5000
                        TSRA=
201908011100 METAR LROP 011100Z VRB02KT 9999 FEW050CB 25/20 Q1013 R88/29//95
                        TEMPO 5000 TSRA=
201908011130 METAR COR LROP 011130Z 06004KT 340V120 9999 FEW018 26/22
                        Q1012 R88/19//95 NOSIG=
201908011200 METAR LROP 011200Z VRB04KT 9999 SCT025 27/21 Q1012 R88/19//95
                        NOSIG=
201908011230 METAR LROP 011230Z 03004KT 340V100 9999 SCT027 27/21 Q1012
                        R88/19//95 NOSIG=
201908011300 METAR LROP 011300Z 03006KT 010V080 9999 SCT031 28/21 Q1012
                        R88/19//95 NOSIG=
201908011330 METAR LROP 011330Z 04006KT 010V080 9999 SCT033 28/20 Q1012
                        R88/19//95 NOSIG=
201908011400 METAR LROP 011400Z 02008KT 9999 FEW033 27/20 Q1012 R88/19//95
                        NOSIG=
201908011430 METAR LROP 011430Z 03005KT 350V090 9999 FEW040 27/21 Q1012
                        R88/19//95 NOSIG=
201908011500 METAR COR LROP 011500Z VRB03KT 9999 FEW035 27/20 Q1012 R08L/CLRD//
                        NOSIG=
201908011530 METAR LROP 011530Z 02005KT 350V070 9999 FEW040 27/20 Q1012
                        R08L/CLRD// NOSIG=
201908011600 METAR LROP 011600Z 05004KT 340V090 9999 FEW030 26/21 Q1012
                        R08L/CLRD// TEMPO 5000 SHRA SCT030CB=
201908011630 METAR LROP 011630Z 05005KT 350V080 9999 FEW045CB 26/21 Q1012
                        R08L/CLRD// TEMPO 5000 SHRA SCT030CB=
201908011700 METAR LROP 011700Z 08005KT 040V100 CAVOK 26/21 Q1012 TEMPO
                        5000 SHRA SCT030CB=
201908011730 METAR LROP 011730Z 11007KT CAVOK 25/21 Q1012 NOSIG=
201908011800 METAR LROP 011800Z 07004KT CAVOK 24/21 Q1012 NOSIG=
201908011830 METAR LROP 011830Z 10004KT CAVOK 22/21 Q1012 NOSIG=
201908011900 METAR LROP 011900Z 05003KT 360V070 CAVOK 23/21 Q1013 NOSIG=
201908011930 METAR LROP 011930Z 06004KT CAVOK 23/20 Q1013 NOSIG=
201908012000 METAR LROP 012000Z 07005KT CAVOK 22/20 Q1013 NOSIG=
201908012030 METAR LROP 012030Z 09004KT CAVOK 21/19 Q1013 NOSIG=
201908012100 METAR LROP 012100Z 10004KT CAVOK 21/19 Q1013 NOSIG=
201908012130 METAR LROP 012130Z 09003KT CAVOK 20/19 Q1013 NOSIG=
201908012200 METAR LROP 012200Z 13003KT CAVOK 19/19 Q1013 NOSIG=
201908012230 METAR LROP 012230Z 14003KT CAVOK 19/19 Q1013 NOSIG=
201908012300 METAR LROP 012300Z VRB01KT CAVOK 19/19 Q1013 NOSIG=
201908012330 METAR LROP 012330Z 34001KT CAVOK 18/18 Q1013 NOSIG=
201908020000 METAR LROP 020000Z 01004KT 340V040 CAVOK 19/19 Q1013 NOSIG=
201908020030 METAR COR LROP 020030Z 01003KT 340V050 9999 FEW025 19/18
                        Q1013 NOSIG=
201908020100 METAR LROP 020100Z VRB01KT 9999 BKN025 19/18 Q1013 NOSIG=
201908020130 METAR LROP 020130Z 18003KT 130V230 9999 SCT025 BKN033 19/18
                        Q1013 NOSIG=
201908020200 METAR LROP 020200Z VRB01KT 9999 FEW033 18/18 Q1013 NOSIG=
201908020230 METAR LROP 020230Z VRB01KT CAVOK 18/18 Q1012 NOSIG=
201908020300 METAR LROP 020300Z 32001KT CAVOK 18/18 Q1012 NOSIG=
201908020330 METAR LROP 020330Z 00000KT 8000 MIFG NSC 18/18 Q1012 NOSIG=
201908020400 METAR LROP 020400Z 27003KT 8000 NSC 19/19 Q1013 NOSIG=
201908020430 METAR LROP 020430Z VRB01KT CAVOK 20/19 Q1013 NOSIG=
201908020500 METAR LROP 020500Z 02004KT 9999 FEW022 21/19 Q1013 NOSIG=
201908020530 METAR LROP 020530Z VRB02KT 9999 BKN022 22/19 Q1013 NOSIG=
201908020600 METAR LROP 020600Z VRB01KT 9999 FEW022 23/19 Q1013 NOSIG=
201908020630 METAR LROP 020630Z VRB02KT CAVOK 24/19 Q1013 NOSIG=
201908020700 METAR LROP 020700Z 27003KT 180V340 CAVOK 25/20 Q1013 NOSIG=
201908020730 METAR LROP 020730Z 25004KT 210V300 CAVOK 26/20 Q1013 NOSIG=
201908020800 METAR LROP 020800Z 24004KT 180V280 CAVOK 26/20 Q1012 NOSIG=
201908020830 METAR LROP 020830Z 26004KT 220V340 9999 FEW028 27/20 Q1012
                        NOSIG=
201908020900 METAR LROP 020900Z 28006KT 240V310 9999 FEW035 27/21 Q1012
                        NOSIG=
201908020930 METAR LROP 020930Z 26005KT 9999 FEW033 29/20 Q1012 NOSIG=
201908021000 METAR LROP 021000Z 28005KT 220V320 9999 FEW040 29/21 Q1012
                        NOSIG=
201908021030 METAR LROP 021030Z VRB03KT 9999 SCT041 29/22 Q1011 NOSIG=
201908021100 METAR LROP 021100Z 30005KT 250V340 9999 SCT045 29/20 Q1011
                        NOSIG=
201908021130 METAR LROP 021130Z VRB04KT 9999 SCT046 29/20 Q1011 NOSIG=
201908021200 METAR LROP 021200Z VRB03KT 9999 SCT049 31/19 Q1011 NOSIG=
201908021230 METAR LROP 021230Z 21006KT 160V290 CAVOK 31/18 Q1011 NOSIG=
201908021300 METAR LROP 021300Z 24008KT CAVOK 31/18 Q1010 NOSIG=
201908021330 METAR LROP 021330Z 24005KT 210V280 CAVOK 31/18 Q1010 NOSIG=
201908021400 METAR LROP 021400Z 24006KT 200V280 CAVOK 30/16 Q1010 NOSIG=
201908021430 METAR LROP 021430Z 26007KT CAVOK 31/16 Q1010 NOSIG=
201908021500 METAR LROP 021500Z 28006KT 240V310 9999 FEW050CB 31/17 Q1009
                        NOSIG=
201908021530 METAR LROP 021530Z 29008KT 9999 SCT050CB 31/17 Q1009 NOSIG=
201908021600 METAR LROP 021600Z 34005KT 9999 SCT060CB 30/17 Q1009 TEMPO
                        5000 SHRA=
201908021630 METAR LROP 021630Z 35013KT 9999 SCT060CB 25/18 Q1009 TEMPO
                        5000 SHRA=
201908021700 METAR LROP 021700Z 36011KT 9999 FEW055 SCT060CB 24/19 Q1010
                        TEMPO 5000 SHRA=
201908021730 METAR LROP 021730Z 03009KT 9999 FEW060CB 24/19 Q1009 BECMG
                        NSC=
201908021800 METAR LROP 021800Z 02006KT 9999 FEW060CB 24/18 Q1009 NOSIG=
201908021830 METAR LROP 021830Z VRB03KT CAVOK 23/18 Q1009 NOSIG=
201908021900 METAR LROP 021900Z 35006KT 300V020 CAVOK 22/18 Q1009 NOSIG=
201908021930 METAR LROP 021930Z 01006KT CAVOK 22/18 Q1009 NOSIG=
201908022000 METAR LROP 022000Z 34005KT 290V030 CAVOK 21/19 Q1010 NOSIG=
201908022030 METAR LROP 022030Z 03004KT CAVOK 22/19 Q1009 NOSIG=
201908022100 METAR LROP 022100Z 02005KT CAVOK 22/19 Q1009 NOSIG=
201908022130 METAR LROP 022130Z 05005KT CAVOK 21/19 Q1009 NOSIG=
201908022200 METAR LROP 022200Z 08004KT CAVOK 21/19 Q1009 NOSIG=
201908022230 METAR LROP 022230Z 08006KT CAVOK 22/19 Q1009 NOSIG=
201908022300 METAR LROP 022300Z 06007KT CAVOK 22/18 Q1008 NOSIG=
201908022330 METAR LROP 022330Z 06008KT CAVOK 22/18 Q1008 NOSIG=
201908030000 METAR LROP 030000Z 05010KT 9999 -RA NSC 22/18 Q1008 NOSIG=
201908030030 METAR LROP 030030Z 06007KT CAVOK 22/19 Q1008 NOSIG=
201908030100 METAR LROP 030100Z 06008KT CAVOK 22/18 Q1008 NOSIG=
201908030130 METAR LROP 030130Z 05007KT CAVOK 22/18 Q1007 NOSIG=
201908030200 METAR LROP 030200Z 03008KT CAVOK 22/18 Q1007 NOSIG=
201908030230 METAR LROP 030230Z 03007KT CAVOK 21/18 Q1007 NOSIG=
201908030300 METAR LROP 030300Z 05006KT CAVOK 21/18 Q1007 NOSIG=
201908030330 METAR LROP 030330Z 03005KT CAVOK 21/18 Q1007 NOSIG=
201908030400 METAR LROP 030400Z 11004KT 060V140 CAVOK 21/18 Q1007 NOSIG=
201908030430 METAR COR LROP 030430Z 09004KT CAVOK 22/18 Q1007 NOSIG=
201908030500 METAR LROP 030500Z 07005KT CAVOK 23/18 Q1007 NOSIG=
201908030530 METAR LROP 030530Z 07007KT CAVOK 24/18 Q1006 NOSIG=
201908030600 METAR LROP 030600Z 07007KT CAVOK 24/18 Q1006 NOSIG=
201908030630 METAR LROP 030630Z 09007KT CAVOK 25/18 Q1006 NOSIG=
201908030700 METAR LROP 030700Z 05009KT CAVOK 25/18 Q1006 NOSIG=
201908030730 METAR LROP 030730Z 09008KT CAVOK 24/18 Q1006 NOSIG=
201908030800 METAR LROP 030800Z 09006KT 050V120 CAVOK 26/19 Q1006 NOSIG=
201908030830 METAR LROP 030830Z 09005KT 060V140 CAVOK 27/19 Q1006 NOSIG=
201908030900 METAR LROP 030900Z 09005KT 050V140 CAVOK 27/19 Q1005 BECMG
                        27010KT=
201908030930 METAR LROP 030930Z 18004KT 110V260 CAVOK 28/19 Q1005 BECMG
                        27010KT=
201908031000 METAR LROP 031000Z VRB03KT 9999 FEW040 28/20 Q1004 BECMG
                        27010KT=
201908031030 METAR LROP 031030Z 03003KT 280V090 9999 SCT040 28/21 Q1004
                        BECMG 27010KT=
201908031100 METAR LROP 031100Z VRB03KT 9999 SCT040 30/21 Q1003 BECMG
                        27010KT=
201908031130 METAR COR LROP 031130Z 22005KT 180V250 9999 VCTS FEW040CB
                        BKN045 29/18 Q1003 NOSIG=
201908031200 METAR LROP 031200Z 28006KT 240V310 9999 VCTS SCT040CB BKN045
                        29/18 Q1002 TEMPO VRB18G28KT TS=
201908031230 METAR LROP 031230Z 30011KT 9999 TS VCSH BKN040CB OVC048 28/18
                        Q1002 TEMPO VRB18G28KT 5000 TSRA=
201908031300 METAR LROP 031300Z 29013KT 9999 -TSRA SCT040CB 22/20 Q1003
                        RETSRA R88/29//95 TEMPO 5000 TSRA=
201908031330 METAR COR LROP 031330Z 27006KT 240V310 9999 VCTS SCT040CB
                        SCT045 25/22 Q1003 RETS R88/19//95
                        BECMG NSC=
201908031400 METAR LROP 031400Z 32005KT 250V350 9999 VCTS SCT040CB 27/22
                        Q1002 R88/19//95 BECMG NSC=
201908031430 METAR LROP 031430Z 27013KT 9999 VCTS SCT050CB 27/20 Q1002
                        R88/19//95 NOSIG=
201908031500 METAR LROP 031500Z 27014KT 9999 VCTS SCT050CB 27/18 Q1002
                        R88/19//95 TEMPO VRB16G26KT TS=
201908031530 METAR LROP 031530Z 27015KT 9999 VCTS VCSH SCT050CB 26/18
                        Q1002 R88/19//95 TEMPO VRB16G26KT
                        TS=
201908031600 METAR LROP 031600Z 32018KT 9999 -TSRA SCT040CB 21/19 Q1002
                        R88/19//95 BECMG NSW=
201908031630 METAR LROP 031630Z 35007KT 9999 -SHRA SCT040CB BKN048 21/20
                        Q1003 RETS R88/19//95 BECMG CAVOK=
201908031700 METAR COR LROP 031700Z 01004KT 9999 FEW050CB 22/19 Q1002
                        R88/19//95 BECMG NSC=
201908031730 METAR LROP 031730Z 09005KT 9999 SCT045 21/20 Q1003 R88/202210219//95
                        NOSIG=
201908031800 METAR LROP 031800Z 07009KT 9999 FEW015 BKN047 21/20 Q1004
                        R88/19//95 NOSIG=
201908031830 METAR LROP 031830Z 08005KT 9999 FEW037 21/20 Q1004 R88/19//95
                        NOSIG=
201908031900 METAR LROP 031900Z 07008KT 9999 FEW036 21/19 Q1005 R88/19//95
                        NOSIG=
201908031930 METAR LROP 031930Z 10006KT CAVOK 20/19 Q1005 R88/19//95 NOSIG=
201908032000 METAR LROP 032000Z 10006KT CAVOK 20/18 Q1005 R88/19//95 NOSIG=
201908032030 METAR LROP 032030Z 10006KT CAVOK 20/18 Q1005 R88/CLRD// NOSIG=
201908032100 METAR COR LROP 032100Z 12004KT CAVOK 19/18 Q1005 NOSIG=
201908032130 METAR LROP 032130Z 13004KT CAVOK 18/18 Q1006 NOSIG=
201908032200 METAR LROP 032200Z 15004KT CAVOK 19/18 Q1006 NOSIG=
201908032230 METAR LROP 032230Z 16003KT CAVOK 19/17 Q1006 NOSIG=
201908032300 METAR LROP 032300Z 21003KT CAVOK 18/17 Q1006 NOSIG=
201908032330 METAR LROP 032330Z 17003KT CAVOK 19/17 Q1007 NOSIG=
201908040000 METAR LROP 040000Z 15005KT CAVOK 18/17 Q1006 NOSIG=
201908040030 METAR LROP 040030Z 13004KT 9999 BKN040 FEW045CB 18/16 Q1006
                        NOSIG=
201908040100 METAR COR LROP 040100Z 19005KT 160V220 9999 -SHRA VCTS SCT024
                        SCT039CB 17/17 Q1007 RETSRA R88/29//95
                        NOSIG=
201908040130 METAR LROP 040130Z 14004KT 9999 FEW050CB 17/17 Q1007 R88/29//95
                        NOSIG=
201908040200 METAR LROP 040200Z 14002KT 9999 -SHRA FEW025 SCT050CB 17/17
                        Q1007 R88/29//95 NOSIG=
201908040230 METAR LROP 040230Z 24002KT 9999 SCT007 FEW040CB 17/17 Q1008
                        R88/29//95 NOSIG=
201908040300 METAR LROP 040300Z 21004KT 170V250 9999 SCT005 BKN029 FEW040CB
                        17/17 Q1008 R88/29//95 NOSIG=
201908040330 METAR LROP 040330Z 20004KT 9999 FEW030 17/17 Q1008 R88/29//95
                        NOSIG=
201908040400 METAR LROP 040400Z 21003KT 9999 FEW020 16/16 Q1009 R88/29//95
                        NOSIG=
201908040430 METAR LROP 040430Z 21003KT 170V250 CAVOK 17/17 Q1009 R88/29//95
                        NOSIG=
201908040500 METAR LROP 040500Z 19004KT 160V230 9999 FEW006 18/17 Q1009
                        R88/29//95 NOSIG=
201908040530 METAR LROP 040530Z 21004KT 170V240 9999 FEW010 19/17 Q1010
                        R88/29//95 NOSIG=
201908040600 METAR LROP 040600Z 22005KT 9999 FEW010 20/18 Q1010 R88/19//95
                        NOSIG=
201908040630 METAR LROP 040630Z 21004KT 180V250 9999 FEW012 20/18 Q1010
                        R88/19//95 NOSIG=
201908040700 METAR LROP 040700Z 24005KT 220V280 9999 FEW013 21/18 Q1010
                        R88/19//95 NOSIG=
201908040730 METAR LROP 040730Z 25004KT 190V300 9999 FEW014 SCT030 21/18
                        Q1010 R88/19//95 NOSIG=
201908040800 METAR LROP 040800Z 26005KT 180V330 9999 SCT018 SCT028 22/17
                        Q1010 R88/09//95 NOSIG=
201908040830 METAR LROP 040830Z 25006KT 210V270 9999 FEW023 SCT032 23/17
                        Q1010 R88/09//95 NOSIG=
201908040900 METAR LROP 040900Z 28004KT 210V320 9999 BKN034 23/17 Q1010
                        R88/09//95 NOSIG=
201908040930 METAR LROP 040930Z 26008KT 9999 FEW032 SCT040 23/16 Q1011
                        R88/09//95 NOSIG=
201908041000 METAR LROP 041000Z 28008KT 9999 SCT043 FEW050TCU 23/17 Q1010
                        R88/09//95 NOSIG=
201908041030 METAR LROP 041030Z 30008KT 270V340 9999 FEW040 SCT046 FEW050TCU
                        25/18 Q1010 R88/09//95 NOSIG=
201908041100 METAR LROP 041100Z 35008KT 310V020 9999 SCT046 FEW050TCU
                        24/14 Q1010 R88/09//95 TEMPO 5000
                        TSRA SCT040CB=
201908041130 METAR LROP 041130Z 07006KT 040V100 9999 TS SCT048 FEW050CB
                        23/14 Q1010 R88/09//95 TEMPO 5000
                        TSRA=
201908041200 METAR LROP 041200Z 01008G21KT 310V080 9000 TSRA SCT040CB
                        18/16 Q1011 R88/29//95 TEMPO 3000
                        TSRA=
201908041230 METAR LROP 041230Z 25009KT 9999 -TSRA SCT040CB 18/17 Q1011
                        RETSRA R88/29//95 NOSIG=
201908041300 METAR LROP 041300Z 24004KT 9999 FEW050CB 22/18 Q1011 R88/29//95
                        NOSIG=
201908041330 METAR LROP 041330Z VRB02KT CAVOK 21/17 Q1011 R88/19//95 NOSIG=
201908041400 METAR LROP 041400Z VRB01KT CAVOK 24/15 Q1011 R88/19//95 NOSIG=
201908041430 METAR LROP 041430Z VRB01KT CAVOK 25/14 Q1011 R88/19//95 NOSIG=
201908041500 METAR LROP 041500Z 05005KT 020V100 9999 FEW060TCU 23/17 Q1011
                        R88/19//95 NOSIG=
201908041530 METAR LROP 041530Z 07012KT 9999 FEW050TCU 23/13 Q1011 R88/09//95
                        NOSIG=
201908041600 METAR LROP 041600Z 09009KT 9999 FEW050CB 23/12 Q1011 R88/09//95
                        NOSIG=
201908041630 METAR LROP 041630Z 09005KT CAVOK 23/14 Q1011 R88/09//95 NOSIG=
201908041700 METAR LROP 041700Z 09004KT CAVOK 21/17 Q1012 R88/09//95 NOSIG=
201908041730 METAR LROP 041730Z 16002KT CAVOK 19/15 Q1012 R88/09//95 NOSIG=
201908041800 METAR LROP 041800Z 15002KT CAVOK 19/15 Q1012 R88/09//95 NOSIG=
201908041830 METAR COR LROP 041830Z 17002KT CAVOK 19/15 Q1013 R88/09//95
                        NOSIG=
201908041900 METAR LROP 041900Z 21002KT CAVOK 18/16 Q1013 R88/09//95 NOSIG=
201908041930 METAR LROP 041930Z 30002KT CAVOK 18/16 Q1013 R88/09//95 NOSIG=
201908042000 METAR LROP 042000Z VRB02KT CAVOK 18/16 Q1014 R88/09//95 NOSIG=
201908042030 METAR LROP 042030Z 01009KT CAVOK 18/15 Q1014 R88/09//95 NOSIG=
201908042100 METAR LROP 042100Z 04005KT CAVOK 18/15 Q1014 R88/09//95 NOSIG=
201908042130 METAR LROP 042130Z VRB02KT CAVOK 17/15 Q1014 R88/09//95 NOSIG=
201908042200 METAR LROP 042200Z VRB01KT CAVOK 16/15 Q1014 R88/09//95 NOSIG=
201908042230 METAR LROP 042230Z 24003KT 200V290 CAVOK 16/15 Q1014 R88/09//95
                        NOSIG=
201908042300 METAR LROP 042300Z 26004KT CAVOK 15/15 Q1014 R88/09//95 NOSIG=
201908042330 METAR LROP 042330Z VRB01KT CAVOK 15/15 Q1014 R88/09//95 NOSIG=
201908050000 METAR LROP 050000Z VRB02KT CAVOK 15/15 Q1014 R88/09//95 NOSIG=
201908050030 METAR LROP 050030Z VRB02KT CAVOK 14/14 Q1014 R88/09//95 NOSIG=
201908050100 METAR COR LROP 050100Z VRB02KT CAVOK 15/14 Q1014 R88/09//95
                        NOSIG=
201908050130 METAR LROP 050130Z VRB02KT CAVOK 14/14 Q1014 R88/09//95 NOSIG=
201908050200 METAR COR LROP 050200Z 27003KT 250V320 CAVOK 14/14 Q1014
                        R88/09//95 NOSIG=
201908050230 METAR LROP 050230Z 28003KT 240V350 CAVOK 14/14 Q1014 R88/09//95
                        NOSIG=
201908050300 METAR LROP 050300Z VRB02KT CAVOK 14/14 Q1015 R88/09//95 NOSIG=
201908050330 METAR LROP 050330Z 28003KT 260V330 CAVOK 13/13 Q1015 R88/09//95
                        NOSIG=
201908050400 METAR LROP 050400Z VRB01KT CAVOK 14/14 Q1015 R88/09//95 NOSIG=
201908050430 METAR LROP 050430Z VRB02KT CAVOK 17/15 Q1015 R88/09//95 NOSIG=
201908050500 METAR LROP 050500Z VRB02KT CAVOK 17/15 Q1015 R88/09//95 NOSIG=
201908050530 METAR LROP 050530Z 29003KT 260V340 CAVOK 18/16 Q1015 R88/CLRD//
                        NOSIG=
201908050600 METAR LROP 050600Z 23003KT 200V260 CAVOK 20/15 Q1015 R88/CLRD//
                        NOSIG=
201908050630 METAR LROP 050630Z VRB01KT CAVOK 21/15 Q1015 NOSIG=
201908050700 METAR LROP 050700Z VRB02KT CAVOK 23/13 Q1016 NOSIG=
201908050730 METAR LROP 050730Z VRB01KT CAVOK 24/14 Q1016 NOSIG=
201908050800 METAR LROP 050800Z 28004KT 230V320 CAVOK 24/14 Q1016 NOSIG=
201908050830 METAR LROP 050830Z 25005KT 190V290 CAVOK 24/14 Q1016 NOSIG=
201908050900 METAR LROP 050900Z 24006KT 200V270 CAVOK 25/14 Q1016 NOSIG=
201908050930 METAR LROP 050930Z 29008KT 260V330 CAVOK 25/13 Q1015 NOSIG=
201908051000 METAR LROP 051000Z 29007KT 260V350 CAVOK 26/14 Q1015 NOSIG=
201908051030 METAR LROP 051030Z 29010KT 260V320 CAVOK 25/12 Q1015 NOSIG=
201908051100 METAR LROP 051100Z 32008KT 270V360 CAVOK 27/12 Q1015 NOSIG=
201908051130 METAR LROP 051130Z 27006KT 240V310 CAVOK 27/11 Q1014 NOSIG=
201908051200 METAR LROP 051200Z 30006KT 220V350 CAVOK 28/11 Q1014 NOSIG=
201908051230 METAR LROP 051230Z 32006KT 290V350 CAVOK 26/10 Q1014 NOSIG=
201908051300 METAR LROP 051300Z 33004KT 250V020 CAVOK 28/12 Q1014 NOSIG=
201908051330 METAR LROP 051330Z 30007KT 260V330 CAVOK 28/10 Q1014 NOSIG=
201908051400 METAR LROP 051400Z 25006KT CAVOK 28/11 Q1013 NOSIG=
201908051430 METAR LROP 051430Z 30004KT 240V340 CAVOK 28/12 Q1013 NOSIG=
201908051500 METAR LROP 051500Z 32008KT CAVOK 28/11 Q1013 NOSIG=
201908051530 METAR LROP 051530Z 29005KT 270V350 CAVOK 28/10 Q1013 NOSIG=
201908051600 METAR LROP 051600Z 02004KT CAVOK 26/13 Q1013 NOSIG=
201908051630 METAR LROP 051630Z 35003KT 310V050 CAVOK 26/11 Q1013 NOSIG=
201908051700 METAR LROP 051700Z 05006KT CAVOK 25/13 Q1014 NOSIG=
201908051730 METAR LROP 051730Z 07005KT 010V100 CAVOK 24/14 Q1014 NOSIG=
201908051800 METAR LROP 051800Z 11003KT CAVOK 22/15 Q1014 NOSIG=
201908051830 METAR LROP 051830Z 11003KT CAVOK 21/15 Q1014 NOSIG=
201908051900 METAR LROP 051900Z 07004KT CAVOK 23/14 Q1015 NOSIG=
201908051930 METAR LROP 051930Z 11004KT 070V130 CAVOK 21/16 Q1015 NOSIG=
201908052000 METAR LROP 052000Z 09009KT CAVOK 21/14 Q1015 NOSIG=
201908052030 METAR LROP 052030Z 08006KT CAVOK 20/15 Q1015 NOSIG=
201908052100 METAR LROP 052100Z 08005KT CAVOK 19/14 Q1015 NOSIG=
201908052130 METAR LROP 052130Z 06003KT CAVOK 19/14 Q1015 NOSIG=
201908052200 METAR LROP 052200Z 05004KT CAVOK 18/14 Q1015 NOSIG=
201908052230 METAR LROP 052230Z 06004KT CAVOK 18/14 Q1015 NOSIG=
201908052300 METAR LROP 052300Z 02006KT CAVOK 18/14 Q1015 NOSIG=
201908052330 METAR LROP 052330Z 36004KT CAVOK 17/14 Q1015 NOSIG=
201908060000 METAR LROP 060000Z VRB01KT CAVOK 16/15 Q1016 NOSIG=
201908060030 METAR LROP 060030Z VRB02KT CAVOK 15/14 Q1015 NOSIG=
201908060100 METAR LROP 060100Z VRB02KT CAVOK 15/14 Q1016 NOSIG=
201908060130 METAR LROP 060130Z VRB02KT CAVOK 15/14 Q1015 NOSIG=
201908060200 METAR LROP 060200Z VRB02KT CAVOK 15/14 Q1016 NOSIG=
201908060230 METAR LROP 060230Z 01004KT CAVOK 15/14 Q1016 NOSIG=
201908060300 METAR LROP 060300Z 01005KT CAVOK 16/14 Q1016 NOSIG=
201908060330 METAR LROP 060330Z 03003KT CAVOK 15/14 Q1016 NOSIG=
201908060400 METAR LROP 060400Z 01003KT CAVOK 16/14 Q1016 NOSIG=
201908060430 METAR LROP 060430Z 29003KT 250V330 CAVOK 17/15 Q1016 NOSIG=
201908060500 METAR LROP 060500Z VRB02KT CAVOK 19/16 Q1016 NOSIG=
201908060530 METAR LROP 060530Z 24003KT 210V310 CAVOK 20/16 Q1017 NOSIG=
201908060600 METAR LROP 060600Z VRB01KT CAVOK 22/17 Q1017 NOSIG=
201908060630 METAR LROP 060630Z VRB02KT CAVOK 24/15 Q1017 NOSIG=
201908060700 METAR LROP 060700Z VRB02KT CAVOK 24/14 Q1017 NOSIG=
201908060730 METAR LROP 060730Z 10003KT CAVOK 25/14 Q1017 NOSIG=
201908060800 METAR LROP 060800Z 16003KT 080V200 CAVOK 26/14 Q1017 NOSIG=
201908060830 METAR LROP 060830Z 20004KT 120V270 CAVOK 27/13 Q1017 NOSIG=
201908060900 METAR LROP 060900Z 15007KT CAVOK 27/14 Q1017 NOSIG=
201908060930 METAR LROP 060930Z 18005KT 120V210 CAVOK 28/14 Q1017 NOSIG=
201908061000 METAR LROP 061000Z 22007KT CAVOK 29/13 Q1017 NOSIG=
201908061030 METAR LROP 061030Z 21008KT 190V250 CAVOK 28/12 Q1016 NOSIG=
201908061100 METAR LROP 061100Z 27008KT CAVOK 28/13 Q1016 NOSIG=
201908061130 METAR LROP 061130Z 28005KT 230V330 CAVOK 29/11 Q1016 NOSIG=
201908061200 METAR LROP 061200Z 26008KT CAVOK 30/12 Q1016 NOSIG=
201908061230 METAR LROP 061230Z 25007KT 210V290 CAVOK 29/12 Q1016 NOSIG=
201908061300 METAR LROP 061300Z 31006KT 260V360 CAVOK 30/14 Q1016 NOSIG=
201908061330 METAR LROP 061330Z 30007KT 250V330 CAVOK 29/11 Q1015 NOSIG=
201908061400 METAR LROP 061400Z 29004KT 210V360 CAVOK 30/14 Q1015 NOSIG=
201908061430 METAR LROP 061430Z 27004KT 180V340 CAVOK 30/12 Q1015 NOSIG=
201908061500 METAR LROP 061500Z 27004KT 180V340 CAVOK 30/12 Q1015 NOSIG=
201908061530 METAR LROP 061530Z VRB02KT CAVOK 30/13 Q1015 NOSIG=
201908061600 METAR LROP 061600Z 25004KT CAVOK 29/10 Q1015 NOSIG=
201908061630 METAR LROP 061630Z 33003KT 300V360 CAVOK 27/14 Q1014 NOSIG=
201908061700 METAR LROP 061700Z 27003KT CAVOK 26/12 Q1015 NOSIG=
201908061730 METAR LROP 061730Z 17002KT CAVOK 25/12 Q1015 NOSIG=
201908061800 METAR LROP 061800Z 14002KT CAVOK 24/14 Q1015 NOSIG=
201908061830 METAR LROP 061830Z 14002KT CAVOK 22/17 Q1015 NOSIG=
201908061900 METAR LROP 061900Z 14002KT CAVOK 22/15 Q1015 NOSIG=
201908061930 METAR LROP 061930Z 16006KT CAVOK 21/15 Q1015 NOSIG=
201908062000 METAR LROP 062000Z 17002KT CAVOK 20/15 Q1015 NOSIG=
201908062030 METAR LROP 062030Z 00000KT CAVOK 20/16 Q1015 NOSIG=
201908062100 METAR LROP 062100Z VRB02KT CAVOK 20/15 Q1015 NOSIG=
201908062130 METAR LROP 062130Z 26003KT CAVOK 19/15 Q1015 NOSIG=
201908062200 METAR LROP 062200Z VRB02KT CAVOK 19/16 Q1015 NOSIG=
201908062230 METAR LROP 062230Z 30001KT CAVOK 18/16 Q1015 NOSIG=
201908062300 METAR LROP 062300Z VRB02KT CAVOK 18/16 Q1016 NOSIG=
201908062330 METAR LROP 062330Z VRB02KT CAVOK 17/16 Q1016 NOSIG=
201908070000 METAR LROP 070000Z 00000KT CAVOK 17/16 Q1015 NOSIG=
201908070030 METAR LROP 070030Z 28004KT CAVOK 16/16 Q1015 NOSIG=
201908070100 METAR LROP 070100Z 27003KT CAVOK 16/16 Q1015 NOSIG=
201908070130 METAR LROP 070130Z VRB02KT CAVOK 16/15 Q1015 NOSIG=
201908070200 METAR LROP 070200Z 27003KT CAVOK 16/15 Q1015 NOSIG=
201908070230 METAR LROP 070230Z 27003KT CAVOK 15/15 Q1015 NOSIG=
201908070300 METAR LROP 070300Z 34004KT CAVOK 15/15 Q1015 NOSIG=
201908070330 METAR LROP 070330Z 31002KT CAVOK 15/15 Q1015 NOSIG=
201908070400 METAR LROP 070400Z 30003KT CAVOK 16/15 Q1015 NOSIG=
201908070430 METAR LROP 070430Z 18001KT CAVOK 17/16 Q1016 NOSIG=
201908070500 METAR LROP 070500Z 27003KT CAVOK 19/16 Q1016 NOSIG=
201908070530 METAR LROP 070530Z 23003KT 200V260 CAVOK 21/16 Q1016 NOSIG=
201908070600 METAR LROP 070600Z VRB02KT CAVOK 22/18 Q1016 NOSIG=
201908070630 METAR LROP 070630Z 26004KT CAVOK 24/17 Q1016 NOSIG=
201908070700 METAR LROP 070700Z 25003KT 200V290 CAVOK 26/16 Q1016 NOSIG=
201908070730 METAR LROP 070730Z 25004KT 210V270 CAVOK 27/16 Q1016 NOSIG=
201908070800 METAR LROP 070800Z 22005KT 170V250 CAVOK 28/15 Q1016 NOSIG=
201908070830 METAR LROP 070830Z 22006KT 190V270 CAVOK 29/12 Q1016 NOSIG=
201908070900 METAR LROP 070900Z 25006KT 220V280 CAVOK 30/12 Q1016 NOSIG=
201908070930 METAR LROP 070930Z 23007KT 200V280 CAVOK 31/11 Q1016 NOSIG=
201908071000 METAR LROP 071000Z 23008KT 200V260 CAVOK 31/11 Q1016 NOSIG=
201908071030 METAR LROP 071030Z 23009KT CAVOK 32/13 Q1016 NOSIG=
201908071100 METAR LROP 071100Z 25006KT 170V300 CAVOK 31/11 Q1015 NOSIG=
201908071130 METAR COR LROP 071130Z 29008KT CAVOK 32/11 Q1015 NOSIG=
201908071200 METAR LROP 071200Z 23006KT 160V280 CAVOK 32/11 Q1015 NOSIG=
201908071230 METAR LROP 071230Z 25010KT CAVOK 32/12 Q1015 NOSIG=
201908071300 METAR LROP 071300Z 25006KT 210V340 CAVOK 32/13 Q1014 NOSIG=
201908071330 METAR LROP 071330Z 25005KT 210V330 CAVOK 32/11 Q1014 NOSIG=
201908071400 METAR LROP 071400Z 23007KT 180V260 CAVOK 33/14 Q1014 NOSIG=
201908071430 METAR LROP 071430Z 24005KT 160V290 CAVOK 32/13 Q1014 NOSIG=
201908071500 METAR LROP 071500Z 26006KT 190V300 CAVOK 32/12 Q1013 NOSIG=
201908071530 METAR LROP 071530Z 24003KT 190V290 CAVOK 31/13 Q1013 NOSIG=
201908071600 METAR LROP 071600Z 19005KT 170V230 CAVOK 30/11 Q1013 NOSIG=
201908071630 METAR LROP 071630Z 24004KT 200V260 CAVOK 29/13 Q1013 NOSIG=
201908071700 METAR LROP 071700Z 18004KT CAVOK 28/13 Q1013 NOSIG=
201908071730 METAR LROP 071730Z 18003KT CAVOK 27/15 Q1013 NOSIG=
201908071800 METAR LROP 071800Z 18004KT CAVOK 25/15 Q1013 NOSIG=
201908071830 METAR LROP 071830Z 16004KT CAVOK 24/15 Q1013 NOSIG=
201908071900 METAR LROP 071900Z 16004KT CAVOK 23/14 Q1013 NOSIG=
201908071930 METAR LROP 071930Z 16004KT CAVOK 23/14 Q1013 NOSIG=
201908072000 METAR LROP 072000Z 18002KT CAVOK 23/13 Q1013 NOSIG=
201908072030 METAR LROP 072030Z 19003KT CAVOK 22/15 Q1013 NOSIG=
201908072100 METAR LROP 072100Z 16004KT CAVOK 21/15 Q1013 NOSIG=
201908072130 METAR LROP 072130Z 15003KT CAVOK 21/15 Q1014 NOSIG=
201908072200 METAR LROP 072200Z 14002KT CAVOK 21/15 Q1014 NOSIG=
201908072230 METAR LROP 072230Z VRB01KT CAVOK 20/15 Q1014 NOSIG=
201908072300 METAR LROP 072300Z 00000KT CAVOK 20/15 Q1013 NOSIG=
201908072330 METAR LROP 072330Z VRB01KT CAVOK 19/16 Q1013 NOSIG=
201908080000 METAR COR LROP 080000Z 20002KT CAVOK 19/16 Q1013 NOSIG=
201908080030 METAR LROP 080030Z 00000KT CAVOK 18/16 Q1013 NOSIG=
201908080100 METAR LROP 080100Z 00000KT CAVOK 18/16 Q1013 NOSIG=
201908080130 METAR LROP 080130Z 30002KT CAVOK 18/16 Q1013 NOSIG=
201908080200 METAR LROP 080200Z VRB02KT CAVOK 18/16 Q1013 NOSIG=
201908080230 METAR LROP 080230Z 10004KT CAVOK 18/16 Q1013 NOSIG=
201908080300 METAR LROP 080300Z 10002KT CAVOK 18/16 Q1013 NOSIG=
201908080330 METAR LROP 080330Z 00000KT CAVOK 17/16 Q1013 NOSIG=
201908080400 METAR LROP 080400Z 16002KT CAVOK 18/16 Q1013 NOSIG=
201908080430 METAR LROP 080430Z 21002KT CAVOK 20/18 Q1013 NOSIG=
201908080500 METAR LROP 080500Z VRB02KT CAVOK 21/18 Q1013 NOSIG=
201908080530 METAR LROP 080530Z 18004KT CAVOK 24/17 Q1013 NOSIG=
201908080600 METAR LROP 080600Z 20004KT 170V230 CAVOK 26/17 Q1013 NOSIG=
201908080630 METAR COR LROP 080630Z 19005KT 160V220 CAVOK 26/15 Q1013
                        NOSIG=
201908080700 METAR LROP 080700Z 23004KT 190V270 CAVOK 27/14 Q1014 NOSIG=
201908080730 METAR LROP 080730Z 24003KT 200V290 CAVOK 29/16 Q1014 NOSIG=
201908080800 METAR LROP 080800Z VRB02KT CAVOK 30/15 Q1014 NOSIG=
201908080830 METAR LROP 080830Z VRB02KT CAVOK 30/14 Q1013 NOSIG=
201908080900 METAR LROP 080900Z VRB03KT CAVOK 31/14 Q1013 NOSIG=
201908080930 METAR LROP 080930Z 15003KT 090V240 CAVOK 32/17 Q1013 NOSIG=
201908081000 METAR LROP 081000Z 24004KT 130V280 CAVOK 33/15 Q1013 NOSIG=
201908081030 METAR LROP 081030Z 20003KT 150V320 CAVOK 32/17 Q1013 NOSIG=
201908081100 METAR LROP 081100Z VRB02KT CAVOK 33/17 Q1012 NOSIG=
201908081130 METAR LROP 081130Z 18004KT 130V240 CAVOK 33/14 Q1012 NOSIG=
201908081200 METAR LROP 081200Z 23004KT 170V280 CAVOK 34/13 Q1012 NOSIG=
201908081230 METAR LROP 081230Z 27005KT CAVOK 34/15 Q1012 NOSIG=
201908081300 METAR LROP 081300Z VRB04KT CAVOK 34/15 Q1012 NOSIG=
201908081330 METAR LROP 081330Z 24005KT 210V320 CAVOK 35/16 Q1011 NOSIG=
201908081400 METAR LROP 081400Z VRB02KT CAVOK 35/13 Q1011 NOSIG=
201908081430 METAR LROP 081430Z VRB02KT CAVOK 34/15 Q1011 NOSIG=
201908081500 METAR LROP 081500Z 23003KT 170V290 CAVOK 33/17 Q1011 NOSIG=
201908081530 METAR LROP 081530Z 26003KT 200V300 CAVOK 33/16 Q1011 NOSIG=
201908081600 METAR LROP 081600Z VRB02KT CAVOK 32/17 Q1011 NOSIG=
201908081630 METAR LROP 081630Z 13004KT CAVOK 31/18 Q1011 NOSIG=
201908081700 METAR LROP 081700Z 13004KT CAVOK 29/17 Q1011 NOSIG=
201908081730 METAR LROP 081730Z 13004KT CAVOK 27/19 Q1011 NOSIG=
201908081800 METAR LROP 081800Z 14005KT CAVOK 26/17 Q1011 NOSIG=
201908081830 METAR LROP 081830Z 15005KT CAVOK 26/17 Q1011 NOSIG=
201908081900 METAR LROP 081900Z 13001KT CAVOK 26/17 Q1012 NOSIG=
201908081930 METAR LROP 081930Z 14002KT CAVOK 25/17 Q1012 NOSIG=
201908082000 METAR LROP 082000Z 03003KT CAVOK 26/17 Q1012 NOSIG=
201908082030 METAR LROP 082030Z 04004KT CAVOK 25/17 Q1012 NOSIG=
201908082100 METAR LROP 082100Z VRB02KT CAVOK 24/18 Q1012 NOSIG=
201908082130 METAR LROP 082130Z 00000KT CAVOK 23/18 Q1012 NOSIG=
201908082200 METAR LROP 082200Z 08003KT CAVOK 23/18 Q1012 NOSIG=
201908082230 METAR LROP 082230Z 02005KT CAVOK 23/18 Q1012 NOSIG=
201908082300 METAR LROP 082300Z 36004KT CAVOK 23/18 Q1012 NOSIG=
201908082330 METAR LROP 082330Z VRB02KT CAVOK 23/18 Q1012 NOSIG=
201908090000 METAR LROP 090000Z 02002KT CAVOK 21/19 Q1012 NOSIG=
201908090030 METAR LROP 090030Z 09003KT CAVOK 21/18 Q1012 NOSIG=
201908090100 METAR LROP 090100Z 10002KT CAVOK 20/19 Q1012 NOSIG=
201908090130 METAR LROP 090130Z 06002KT CAVOK 20/18 Q1012 NOSIG=
201908090200 METAR LROP 090200Z VRB01KT CAVOK 20/18 Q1012 NOSIG=
201908090230 METAR LROP 090230Z 02003KT CAVOK 20/19 Q1012 NOSIG=
201908090300 METAR LROP 090300Z VRB02KT CAVOK 20/18 Q1012 NOSIG=
201908090330 METAR LROP 090330Z 03004KT CAVOK 21/19 Q1012 NOSIG=
201908090400 METAR LROP 090400Z 03005KT 010V070 CAVOK 21/19 Q1012 NOSIG=
201908090430 METAR LROP 090430Z 07005KT CAVOK 21/19 Q1013 NOSIG=
201908090500 METAR LROP 090500Z 08004KT CAVOK 22/19 Q1013 NOSIG=
201908090530 METAR LROP 090530Z 08005KT CAVOK 23/19 Q1013 NOSIG=
201908090600 METAR LROP 090600Z 08006KT CAVOK 24/19 Q1013 NOSIG=
201908090630 METAR LROP 090630Z 09008KT CAVOK 25/19 Q1013 NOSIG=
201908090700 METAR LROP 090700Z 07012KT CAVOK 26/19 Q1013 NOSIG=
201908090730 METAR LROP 090730Z 01011KT CAVOK 26/19 Q1014 NOSIG=
201908090800 METAR LROP 090800Z 36010KT 330V030 CAVOK 26/19 Q1014 NOSIG=
201908090830 METAR LROP 090830Z 06010KT CAVOK 28/20 Q1014 NOSIG=
201908090900 METAR LROP 090900Z 05009KT CAVOK 29/18 Q1013 NOSIG=
201908090930 METAR LROP 090930Z 05008KT 9999 FEW060CB 30/18 Q1013 TEMPO
                        VRB20KT 5000 -TSRA=
201908091000 METAR LROP 091000Z 36004KT 300V090 9999 FEW060CB 30/20 Q1014
                        TEMPO VRB20KT 5000 -TSRA=
201908091030 METAR LROP 091030Z 31010KT 9999 -SHRA FEW060CB 27/21 Q1014
                        NOSIG=
201908091100 METAR LROP 091100Z 28006KT 240V300 9999 -SHRA FEW048CB 24/22
                        Q1014 RERA R88/29//95 NOSIG=
201908091130 METAR LROP 091130Z 28006KT 9999 FEW027 24/22 Q1014 R88/29//95
                        NOSIG=
201908091200 METAR LROP 091200Z 30006KT 270V330 9999 FEW048 27/22 Q1013
                        R88/19//95 NOSIG=
201908091230 METAR LROP 091230Z VRB01KT CAVOK 28/21 Q1013 R88/19//95 NOSIG=
201908091300 METAR COR LROP 091300Z 10004KT CAVOK 29/20 Q1013 R88/CLRD//
                        NOSIG=
201908091330 METAR LROP 091330Z 07006KT 040V110 CAVOK 30/19 Q1012 NOSIG=
201908091400 METAR LROP 091400Z 07004KT 360V120 CAVOK 31/18 Q1012 NOSIG=
201908091430 METAR LROP 091430Z 09005KT 050V130 CAVOK 31/18 Q1012 NOSIG=
201908091500 METAR LROP 091500Z 09005KT 050V150 CAVOK 31/19 Q1012 NOSIG=
201908091530 METAR LROP 091530Z 10004KT 060V150 CAVOK 31/17 Q1012 NOSIG=
201908091600 METAR LROP 091600Z 14003KT 090V190 CAVOK 29/19 Q1012 NOSIG=
201908091630 METAR LROP 091630Z 15004KT CAVOK 28/19 Q1012 NOSIG=
201908091700 METAR LROP 091700Z 16002KT CAVOK 27/19 Q1012 NOSIG=
201908091730 METAR LROP 091730Z 15001KT CAVOK 26/19 Q1012 NOSIG=
201908091800 METAR LROP 091800Z 00000KT CAVOK 26/18 Q1012 NOSIG=
201908091830 METAR LROP 091830Z VRB01KT CAVOK 25/20 Q1013 NOSIG=
201908091900 METAR LROP 091900Z 18002KT CAVOK 24/21 Q1013 NOSIG=
201908091930 METAR LROP 091930Z VRB02KT CAVOK 24/21 Q1013 NOSIG=
201908092000 METAR LROP 092000Z 00000KT CAVOK 23/20 Q1013 NOSIG=
201908092030 METAR LROP 092030Z 00000KT CAVOK 24/20 Q1013 NOSIG=
201908092100 METAR LROP 092100Z 05003KT CAVOK 23/20 Q1013 NOSIG=
201908092130 METAR LROP 092130Z VRB02KT CAVOK 22/20 Q1013 NOSIG=
201908092200 METAR LROP 092200Z 01003KT 330V040 CAVOK 22/20 Q1014 NOSIG=
201908092230 METAR LROP 092230Z 00000KT CAVOK 23/20 Q1014 NOSIG=
201908092300 METAR LROP 092300Z VRB02KT CAVOK 22/19 Q1014 NOSIG=
201908092330 METAR LROP 092330Z 04003KT CAVOK 23/19 Q1014 NOSIG=
201908100000 METAR LROP 100000Z 00000KT CAVOK 21/19 Q1014 NOSIG=
201908100030 METAR COR LROP 100030Z 09003KT 9999 NCD 21/19 Q1014 NOSIG=
201908100100 METAR LROP 100100Z 07005KT CAVOK 21/19 Q1014 NOSIG=
201908100130 METAR LROP 100130Z 09002KT CAVOK 20/19 Q1014 NOSIG=
201908100200 METAR LROP 100200Z 10006KT CAVOK 21/18 Q1014 NOSIG=
201908100230 METAR LROP 100230Z 09006KT CAVOK 21/18 Q1014 NOSIG=
201908100300 METAR LROP 100300Z 08006KT CAVOK 21/18 Q1015 NOSIG=
201908100330 METAR LROP 100330Z 09006KT CAVOK 21/18 Q1015 NOSIG=
201908100400 METAR LROP 100400Z 09005KT CAVOK 21/18 Q1015 NOSIG=
201908100430 METAR LROP 100430Z 07008KT CAVOK 22/18 Q1016 NOSIG=
201908100500 METAR LROP 100500Z 08008KT CAVOK 23/19 Q1016 NOSIG=
201908100530 METAR LROP 100530Z 08007KT CAVOK 24/19 Q1016 NOSIG=
201908100600 METAR LROP 100600Z 08010KT CAVOK 25/19 Q1016 NOSIG=
201908100630 METAR LROP 100630Z 08009KT CAVOK 25/19 Q1017 NOSIG=
201908100700 METAR LROP 100700Z 06012KT CAVOK 26/18 Q1017 NOSIG=
201908100730 METAR LROP 100730Z 08011KT CAVOK 27/18 Q1017 NOSIG=
201908100800 METAR LROP 100800Z 08009KT CAVOK 28/19 Q1017 NOSIG=
201908100830 METAR LROP 100830Z 08008KT CAVOK 29/18 Q1017 NOSIG=
201908100900 METAR LROP 100900Z 06008KT 020V110 CAVOK 30/17 Q1017 NOSIG=
201908100930 METAR LROP 100930Z 08008KT 050V120 CAVOK 30/17 Q1017 NOSIG=
201908101000 METAR LROP 101000Z 09007KT 060V120 CAVOK 31/15 Q1017 NOSIG=
201908101030 METAR LROP 101030Z 10006KT 050V150 CAVOK 31/14 Q1016 NOSIG=
201908101100 METAR LROP 101100Z VRB03KT CAVOK 32/14 Q1016 NOSIG=
201908101130 METAR LROP 101130Z 02005KT 340V060 CAVOK 32/14 Q1016 NOSIG=
201908101200 METAR LROP 101200Z VRB03KT CAVOK 32/14 Q1016 NOSIG=
201908101230 METAR LROP 101230Z VRB02KT CAVOK 32/16 Q1015 NOSIG=
201908101300 METAR LROP 101300Z 23003KT 180V280 CAVOK 32/15 Q1015 NOSIG=
201908101330 METAR LROP 101330Z VRB03KT CAVOK 33/15 Q1015 NOSIG=
201908101400 METAR LROP 101400Z 10006KT 060V120 CAVOK 32/16 Q1015 NOSIG=
201908101430 METAR LROP 101430Z VRB03KT CAVOK 33/16 Q1015 NOSIG=
201908101500 METAR LROP 101500Z VRB02KT CAVOK 32/16 Q1015 NOSIG=
201908101530 METAR LROP 101530Z VRB02KT CAVOK 31/15 Q1015 NOSIG=
201908101600 METAR LROP 101600Z VRB02KT CAVOK 31/16 Q1015 NOSIG=
201908101630 METAR LROP 101630Z 00000KT CAVOK 30/16 Q1015 NOSIG=
201908101700 METAR LROP 101700Z VRB03KT CAVOK 29/16 Q1015 NOSIG=
201908101730 METAR LROP 101730Z 06006KT CAVOK 29/16 Q1016 NOSIG=
201908101800 METAR LROP 101800Z 05004KT 020V090 CAVOK 27/17 Q1016 NOSIG=
201908101830 METAR LROP 101830Z 05003KT 020V080 CAVOK 26/17 Q1016 NOSIG=
201908101900 METAR LROP 101900Z 11003KT CAVOK 25/17 Q1016 NOSIG=
201908101930 METAR LROP 101930Z 11003KT CAVOK 24/17 Q1016 NOSIG=
201908102000 METAR LROP 102000Z 05003KT CAVOK 24/18 Q1016 NOSIG=
201908102030 METAR LROP 102030Z 06003KT CAVOK 24/18 Q1016 NOSIG=
201908102100 METAR LROP 102100Z 07004KT CAVOK 23/18 Q1016 NOSIG=
201908102130 METAR LROP 102130Z 13006KT CAVOK 22/18 Q1017 NOSIG=
201908102200 METAR LROP 102200Z 16006KT CAVOK 23/18 Q1017 NOSIG=
201908102230 METAR LROP 102230Z 17005KT CAVOK 23/17 Q1017 NOSIG=
201908102300 METAR LROP 102300Z 10003KT 060V140 CAVOK 23/17 Q1016 NOSIG=
201908102330 METAR LROP 102330Z 14003KT CAVOK 22/17 Q1016 NOSIG=
201908110000 METAR LROP 110000Z 10001KT CAVOK 21/16 Q1016 NOSIG=
201908110030 METAR LROP 110030Z 10002KT CAVOK 21/17 Q1016 NOSIG=
201908110100 METAR LROP 110100Z 36002KT CAVOK 19/18 Q1016 NOSIG=
201908110130 METAR LROP 110130Z VRB01KT CAVOK 20/17 Q1016 NOSIG=
201908110200 METAR LROP 110200Z VRB02KT CAVOK 19/17 Q1016 NOSIG=
201908110230 METAR LROP 110230Z 34004KT CAVOK 19/17 Q1017 NOSIG=
201908110300 METAR LROP 110300Z 03003KT CAVOK 19/17 Q1017 NOSIG=
201908110330 METAR LROP 110330Z 03004KT CAVOK 19/17 Q1017 NOSIG=
201908110400 METAR LROP 110400Z 03004KT CAVOK 20/18 Q1017 NOSIG=
201908110430 METAR LROP 110430Z 10003KT CAVOK 21/18 Q1017 NOSIG=
201908110500 METAR LROP 110500Z 10003KT CAVOK 21/18 Q1017 NOSIG=
201908110530 METAR LROP 110530Z 08005KT CAVOK 24/18 Q1018 NOSIG=
201908110600 METAR LROP 110600Z 09004KT 060V120 CAVOK 26/18 Q1018 NOSIG=
201908110630 METAR LROP 110630Z 06004KT 030V090 CAVOK 27/17 Q1018 NOSIG=
201908110700 METAR LROP 110700Z VRB02KT CAVOK 28/15 Q1018 NOSIG=
201908110730 METAR LROP 110730Z VRB03KT CAVOK 29/15 Q1018 NOSIG=
201908110800 METAR LROP 110800Z VRB01KT CAVOK 30/15 Q1018 NOSIG=
201908110830 METAR LROP 110830Z VRB03KT CAVOK 31/15 Q1018 NOSIG=
201908110900 METAR LROP 110900Z 18004KT 100V270 CAVOK 32/15 Q1018 NOSIG=
201908110930 METAR LROP 110930Z VRB05KT CAVOK 32/13 Q1018 NOSIG=
201908111000 METAR LROP 111000Z VRB04KT CAVOK 33/13 Q1018 NOSIG=
201908111030 METAR LROP 111030Z VRB04KT CAVOK 33/15 Q1018 NOSIG=
201908111100 METAR LROP 111100Z 05004KT 360V130 CAVOK 33/13 Q1017 NOSIG=
201908111130 METAR LROP 111130Z VRB03KT CAVOK 33/13 Q1017 NOSIG=
201908111200 METAR LROP 111200Z 16003KT 100V200 CAVOK 34/13 Q1017 NOSIG=
201908111230 METAR LROP 111230Z VRB03KT CAVOK 34/12 Q1017 NOSIG=
201908111300 METAR LROP 111300Z 24005KT 180V270 CAVOK 34/14 Q1016 NOSIG=
201908111330 METAR LROP 111330Z 12003KT 050V190 CAVOK 35/13 Q1016 NOSIG=
201908111400 METAR LROP 111400Z 12005KT 080V160 CAVOK 34/14 Q1016 NOSIG=
201908111430 METAR LROP 111430Z 13004KT CAVOK 34/13 Q1016 NOSIG=
201908111500 METAR LROP 111500Z 19003KT 120V260 CAVOK 34/12 Q1016 NOSIG=
201908111530 METAR LROP 111530Z 28003KT 230V330 CAVOK 34/14 Q1015 NOSIG=
201908111600 METAR LROP 111600Z 06003KT 020V080 CAVOK 32/15 Q1015 NOSIG=
201908111630 METAR LROP 111630Z VRB02KT CAVOK 32/15 Q1016 NOSIG=
201908111700 METAR LROP 111700Z VRB01KT CAVOK 29/14 Q1016 NOSIG=
201908111730 METAR LROP 111730Z 11003KT CAVOK 28/14 Q1016 NOSIG=
201908111800 METAR LROP 111800Z 13002KT CAVOK 28/17 Q1016 NOSIG=
201908111830 METAR LROP 111830Z 00000KT CAVOK 26/16 Q1016 NOSIG=
201908111900 METAR LROP 111900Z 00000KT CAVOK 26/17 Q1016 NOSIG=
201908111930 METAR LROP 111930Z VRB02KT CAVOK 26/17 Q1016 NOSIG=
201908112000 METAR LROP 112000Z 03003KT CAVOK 25/18 Q1016 NOSIG=
201908112030 METAR LROP 112030Z 07001KT CAVOK 24/18 Q1016 NOSIG=
201908112100 METAR LROP 112100Z 10005KT CAVOK 23/18 Q1017 NOSIG=
201908112130 METAR LROP 112130Z 15004KT CAVOK 22/18 Q1017 NOSIG=
201908112200 METAR LROP 112200Z 16003KT CAVOK 22/17 Q1017 NOSIG=
201908112230 METAR LROP 112230Z VRB01KT CAVOK 23/15 Q1017 NOSIG=
201908112300 METAR LROP 112300Z 27003KT CAVOK 22/16 Q1017 NOSIG=
201908112330 METAR LROP 112330Z 29001KT CAVOK 22/15 Q1017 NOSIG=
201908120000 METAR LROP 120000Z 03003KT CAVOK 22/17 Q1017 NOSIG=
201908120030 METAR LROP 120030Z VRB02KT CAVOK 22/17 Q1017 NOSIG=
201908120100 METAR LROP 120100Z 06003KT CAVOK 21/16 Q1017 NOSIG=
201908120130 METAR LROP 120130Z 06003KT CAVOK 20/15 Q1017 NOSIG=
201908120200 METAR LROP 120200Z 04002KT CAVOK 20/15 Q1017 NOSIG=
201908120230 METAR LROP 120230Z 07003KT CAVOK 20/15 Q1017 NOSIG=
201908120300 METAR LROP 120300Z 06002KT CAVOK 20/15 Q1017=
201908120330 METAR LROP 120330Z 07003KT CAVOK 20/15 Q1017 NOSIG=
201908120400 METAR LROP 120400Z 04003KT CAVOK 21/15 Q1017 NOSIG=
201908120430 METAR LROP 120430Z 05004KT 020V080 CAVOK 21/16 Q1017 NOSIG=
201908120500 METAR LROP 120500Z 07004KT CAVOK 22/15 Q1018 NOSIG=
201908120530 METAR LROP 120530Z 08004KT CAVOK 24/15 Q1018 NOSIG=
201908120600 METAR LROP 120600Z 06004KT 030V090 CAVOK 25/14 Q1018 NOSIG=
201908120630 METAR LROP 120630Z 06004KT 020V080 CAVOK 27/13 Q1018 NOSIG=
201908120700 METAR LROP 120700Z 06005KT 010V080 CAVOK 28/13 Q1018 NOSIG=
201908120730 METAR LROP 120730Z 06005KT CAVOK 30/13 Q1018 NOSIG=
201908120800 METAR LROP 120800Z 06004KT 030V090 CAVOK 30/12 Q1018 NOSIG=
201908120830 METAR LROP 120830Z 02003KT 300V070 CAVOK 31/13 Q1018 NOSIG=
201908120900 METAR LROP 120900Z 11005KT 020V180 CAVOK 32/12 Q1018 NOSIG=
201908120930 METAR LROP 120930Z 12005KT 070V200 CAVOK 33/13 Q1018 NOSIG=
201908121000 METAR LROP 121000Z VRB04KT CAVOK 33/13 Q1017 NOSIG=
201908121030 METAR LROP 121030Z 15006KT 090V200 CAVOK 33/12 Q1017 NOSIG=
201908121100 METAR LROP 121100Z 14006KT 100V180 CAVOK 34/12 Q1017 NOSIG=
201908121130 METAR LROP 121130Z 13007KT 110V170 CAVOK 34/12 Q1017 NOSIG=
201908121200 METAR LROP 121200Z 11007KT 070V130 CAVOK 34/12 Q1017 NOSIG=
201908121230 METAR LROP 121230Z 13005KT 090V170 CAVOK 34/13 Q1016 NOSIG=
201908121300 METAR LROP 121300Z 13004KT 080V200 CAVOK 34/13 Q1016 NOSIG=
201908121330 METAR LROP 121330Z 11009KT CAVOK 35/13 Q1016 NOSIG=
201908121400 METAR LROP 121400Z 11006KT 080V140 CAVOK 35/13 Q1016 NOSIG=
201908121430 METAR LROP 121430Z 15007KT CAVOK 34/15 Q1015 NOSIG=
201908121500 METAR LROP 121500Z 14008KT 9999 NCD 33/14 Q1015 NOSIG=
201908121530 METAR LROP 121530Z 12009KT CAVOK 33/15 Q1015 NOSIG=
201908121600 METAR LROP 121600Z 12008KT CAVOK 32/16 Q1015 NOSIG=
201908121630 METAR LROP 121630Z 11007KT CAVOK 30/17 Q1015 NOSIG=
201908121700 METAR LROP 121700Z 11006KT CAVOK 28/17 Q1015 NOSIG=
201908121730 METAR LROP 121730Z 07003KT CAVOK 27/17 Q1015 NOSIG=
201908121800 METAR LROP 121800Z 07004KT 040V100 CAVOK 26/16 Q1015 NOSIG=
201908121830 METAR LROP 121830Z 10006KT CAVOK 25/18 Q1015 NOSIG=
201908121900 METAR LROP 121900Z 12007KT CAVOK 25/15 Q1016 NOSIG=
201908121930 METAR LROP 121930Z 12007KT CAVOK 25/14 Q1016 NOSIG=
201908122000 METAR LROP 122000Z 12006KT CAVOK 24/13 Q1016 NOSIG=
201908122030 METAR LROP 122030Z 13005KT CAVOK 24/13 Q1016 NOSIG=
201908122100 METAR LROP 122100Z 13005KT CAVOK 23/14 Q1016 NOSIG=
201908122130 METAR LROP 122130Z 13005KT CAVOK 23/13 Q1016 NOSIG=
201908122200 METAR LROP 122200Z 12004KT CAVOK 22/15 Q1016 NOSIG=
201908122230 METAR LROP 122230Z VRB02KT CAVOK 21/14 Q1016 NOSIG=
201908122300 METAR LROP 122300Z 07003KT CAVOK 21/14 Q1016 NOSIG=
201908122330 METAR LROP 122330Z 03002KT CAVOK 21/13 Q1016 NOSIG=
201908130000 METAR LROP 130000Z 01006KT CAVOK 21/14 Q1016 NOSIG=
201908130030 METAR LROP 130030Z 36005KT CAVOK 21/14 Q1016 NOSIG=
201908130100 METAR LROP 130100Z 01004KT CAVOK 20/14 Q1016 NOSIG=
201908130130 METAR LROP 130130Z 02003KT 350V100 CAVOK 20/14 Q1016 NOSIG=
201908130200 METAR LROP 130200Z VRB02KT CAVOK 19/15 Q1016 NOSIG=
201908130230 METAR LROP 130230Z 01003KT 340V050 CAVOK 19/15 Q1016 NOSIG=
201908130300 METAR LROP 130300Z VRB02KT CAVOK 19/15 Q1016 NOSIG=
201908130330 METAR LROP 130330Z VRB02KT CAVOK 18/15 Q1016 NOSIG=
201908130400 METAR LROP 130400Z 36003KT CAVOK 19/15 Q1016 NOSIG=
201908130430 METAR LROP 130430Z VRB02KT CAVOK 22/17 Q1016 NOSIG=
201908130500 METAR LROP 130500Z VRB02KT CAVOK 23/16 Q1016 NOSIG=
201908130530 METAR LROP 130530Z 05004KT 020V090 CAVOK 24/16 Q1016 NOSIG=
201908130600 METAR LROP 130600Z 07004KT CAVOK 26/16 Q1016 NOSIG=
201908130630 METAR LROP 130630Z 06004KT 030V090 CAVOK 27/14 Q1016 NOSIG=
201908130700 METAR LROP 130700Z 06004KT 020V110 CAVOK 29/14 Q1016 NOSIG=
201908130730 METAR LROP 130730Z 10004KT 060V180 CAVOK 29/13 Q1016 NOSIG=
201908130800 METAR LROP 130800Z 16006KT 130V190 CAVOK 30/14 Q1016 NOSIG=
201908130830 METAR LROP 130830Z 11007KT 080V150 CAVOK 31/14 Q1016 NOSIG=
201908130900 METAR LROP 130900Z 15005KT 100V200 CAVOK 31/14 Q1015 NOSIG=
201908130930 METAR LROP 130930Z 14005KT 090V210 CAVOK 31/14 Q1015 NOSIG=
201908131000 METAR LROP 131000Z 15008KT 110V190 CAVOK 31/14 Q1015 NOSIG=
201908131030 METAR LROP 131030Z 19005KT 150V210 CAVOK 32/14 Q1015 NOSIG=
201908131100 METAR LROP 131100Z 16005KT 100V190 CAVOK 32/15 Q1014 NOSIG=
201908131130 METAR LROP 131130Z 16005KT 130V250 CAVOK 32/15 Q1014 NOSIG=
201908131200 METAR LROP 131200Z VRB04KT CAVOK 33/15 Q1014 NOSIG=
201908131230 METAR LROP 131230Z 09007KT 060V170 CAVOK 33/14 Q1013 NOSIG=
201908131300 METAR LROP 131300Z 12006KT 080V150 CAVOK 33/14 Q1013 NOSIG=
201908131330 METAR LROP 131330Z 10007KT 050V150 CAVOK 34/15 Q1013 NOSIG=
201908131400 METAR LROP 131400Z 09007KT 060V120 CAVOK 34/14 Q1013 NOSIG=
201908131430 METAR LROP 131430Z 11008KT 060V170 CAVOK 34/15 Q1012 NOSIG=
201908131500 METAR LROP 131500Z 12008KT CAVOK 33/15 Q1012 NOSIG=
201908131530 METAR LROP 131530Z 11007KT 090V150 CAVOK 33/16 Q1012 NOSIG=
201908131600 METAR COR LROP 131600Z 11010KT CAVOK 32/16 Q1012 NOSIG=
201908131630 METAR LROP 131630Z 11010KT CAVOK 30/16 Q1012 NOSIG=
201908131700 METAR LROP 131700Z 12010KT CAVOK 29/16 Q1012 NOSIG=
201908131730 METAR LROP 131730Z 13006KT CAVOK 27/15 Q1012 NOSIG=
201908131800 METAR LROP 131800Z 13007KT CAVOK 27/14 Q1012 NOSIG=
201908131830 METAR LROP 131830Z 13007KT CAVOK 26/13 Q1013 NOSIG=
201908131900 METAR LROP 131900Z 13007KT CAVOK 25/14 Q1013 NOSIG=
201908131930 METAR LROP 131930Z 13007KT CAVOK 25/14 Q1013 NOSIG=
201908132000 METAR LROP 132000Z 13008KT CAVOK 25/13 Q1013 NOSIG=
201908132030 METAR LROP 132030Z 13005KT 110V170 CAVOK 24/14 Q1013 NOSIG=
201908132100 METAR LROP 132100Z 13006KT CAVOK 23/14 Q1013 NOSIG=
201908132130 METAR LROP 132130Z 13004KT CAVOK 22/15 Q1013 NOSIG=
201908132200 METAR LROP 132200Z VRB02KT CAVOK 22/14 Q1013 NOSIG=
201908132230 METAR LROP 132230Z 36004KT CAVOK 21/14 Q1013 NOSIG=
201908132300 METAR LROP 132300Z 36004KT CAVOK 21/14 Q1013 NOSIG=
201908132330 METAR LROP 132330Z 01005KT CAVOK 20/15 Q1013 NOSIG=
201908140000 METAR LROP 140000Z 01004KT CAVOK 20/15 Q1013 NOSIG=
201908140030 METAR COR LROP 140030Z 01003KT CAVOK 20/15 Q1013 NOSIG=
201908140100 METAR LROP 140100Z VRB02KT CAVOK 19/15 Q1013 NOSIG=
201908140130 METAR LROP 140130Z VRB01KT CAVOK 19/15 Q1012 NOSIG=
201908140200 METAR LROP 140200Z 05003KT 360V080 CAVOK 18/15 Q1012 NOSIG=
201908140230 METAR LROP 140230Z VRB02KT CAVOK 19/15 Q1012 NOSIG=
201908140300 METAR LROP 140300Z VRB02KT CAVOK 18/15 Q1012 NOSIG=
201908140330 METAR LROP 140330Z 04003KT CAVOK 18/15 Q1012 NOSIG=
201908140400 METAR LROP 140400Z 06004KT CAVOK 19/15 Q1012 NOSIG=
201908140430 METAR LROP 140430Z 04005KT CAVOK 20/16 Q1012 NOSIG=
201908140500 METAR LROP 140500Z 08004KT CAVOK 21/16 Q1012 NOSIG=
201908140530 METAR LROP 140530Z 09004KT 060V120 CAVOK 23/16 Q1012 NOSIG=
201908140600 METAR LROP 140600Z 09004KT 040V190 CAVOK 24/17 Q1012 NOSIG=
201908140630 METAR LROP 140630Z 08006KT CAVOK 25/15 Q1012 NOSIG=
201908140700 METAR LROP 140700Z 08004KT 020V110 CAVOK 26/14 Q1012 NOSIG=
201908140730 METAR LROP 140730Z 06005KT 020V130 CAVOK 27/14 Q1012 NOSIG=
201908140800 METAR LROP 140800Z 03004KT 280V070 CAVOK 28/12 Q1011 NOSIG=
201908140830 METAR COR LROP 140830Z 01004KT 280V080 CAVOK 28/10 Q1011
                        NOSIG=
201908140900 METAR LROP 140900Z VRB04KT CAVOK 29/10 Q1011 NOSIG=
201908140930 METAR LROP 140930Z 12005KT 070V170 CAVOK 30/11 Q1010 NOSIG=
201908141000 METAR LROP 141000Z VRB02KT CAVOK 30/12 Q1010 NOSIG=
201908141030 METAR LROP 141030Z 34006KT 320V020 CAVOK 30/11 Q1010 NOSIG=
201908141100 METAR LROP 141100Z VRB02KT CAVOK 31/10 Q1010 NOSIG=
201908141130 METAR LROP 141130Z VRB03KT CAVOK 32/10 Q1009 NOSIG=
201908141200 METAR LROP 141200Z 01005KT 340V090 CAVOK 32/12 Q1009 NOSIG=
201908141230 METAR LROP 141230Z 28004KT 200V320 CAVOK 32/10 Q1009 NOSIG=
201908141300 METAR LROP 141300Z 14004KT 110V270 CAVOK 33/11 Q1008 NOSIG=
201908141330 METAR LROP 141330Z VRB02KT CAVOK 32/13 Q1008 NOSIG=
201908141400 METAR LROP 141400Z 16003KT 130V230 CAVOK 33/11 Q1007 NOSIG=
201908141430 METAR LROP 141430Z 29004KT 270V330 CAVOK 33/11 Q1007 NOSIG=
201908141500 METAR LROP 141500Z VRB04KT CAVOK 32/13 Q1007 NOSIG=
201908141530 METAR LROP 141530Z 29004KT 250V360 CAVOK 32/10 Q1007 NOSIG=
201908141600 METAR LROP 141600Z 29005KT CAVOK 30/14 Q1007 NOSIG=
201908141630 METAR LROP 141630Z 26004KT CAVOK 29/13 Q1007 NOSIG=
201908141700 METAR LROP 141700Z VRB02KT CAVOK 28/12 Q1007 NOSIG=
201908141730 METAR LROP 141730Z 34002KT CAVOK 26/13 Q1007 NOSIG=
201908141800 METAR LROP 141800Z 32002KT CAVOK 25/13 Q1007 NOSIG=
201908141830 METAR LROP 141830Z VRB01KT CAVOK 25/13 Q1008 NOSIG=
201908141900 METAR LROP 141900Z 10003KT CAVOK 24/14 Q1008 NOSIG=
201908141930 METAR LROP 141930Z VRB01KT CAVOK 24/14 Q1008 NOSIG=
201908142000 METAR LROP 142000Z 00000KT CAVOK 24/13 Q1007 NOSIG=
201908142030 METAR LROP 142030Z VRB01KT CAVOK 23/15 Q1007 NOSIG=
201908142100 METAR LROP 142100Z 26003KT CAVOK 22/15 Q1007 NOSIG=
201908142130 METAR LROP 142130Z VRB01KT CAVOK 21/15 Q1008 NOSIG=
201908142200 METAR LROP 142200Z VRB02KT CAVOK 21/15 Q1008 NOSIG=
201908142230 METAR LROP 142230Z 28003KT CAVOK 21/15 Q1008 NOSIG=
201908142300 METAR LROP 142300Z 25004KT CAVOK 19/15 Q1008 NOSIG=
201908142330 METAR LROP 142330Z 26006KT CAVOK 20/16 Q1008 NOSIG=
201908150000 METAR LROP 150000Z 28004KT 260V320 CAVOK 20/16 Q1008 NOSIG=
201908150030 METAR LROP 150030Z VRB02KT CAVOK 20/16 Q1008 NOSIG=
201908150100 METAR LROP 150100Z 28004KT CAVOK 20/16 Q1008 NOSIG=
201908150130 METAR LROP 150130Z VRB02KT CAVOK 19/16 Q1008 NOSIG=
201908150200 METAR LROP 150200Z 12004KT 040V200 CAVOK 20/17 Q1009 NOSIG=
201908150230 METAR LROP 150230Z 13006KT CAVOK 21/17 Q1009 NOSIG=
201908150300 METAR LROP 150300Z 16006KT CAVOK 20/17 Q1010 NOSIG=
201908150330 METAR LROP 150330Z 16007KT CAVOK 20/16 Q1010 NOSIG=
201908150400 METAR LROP 150400Z 13009KT CAVOK 21/16 Q1010 NOSIG=
201908150430 METAR LROP 150430Z 13009KT CAVOK 21/17 Q1010 NOSIG=
201908150500 METAR LROP 150500Z 14009KT CAVOK 22/16 Q1011 NOSIG=
201908150530 METAR LROP 150530Z 13009KT CAVOK 22/16 Q1011 NOSIG=
201908150600 METAR LROP 150600Z 12009KT CAVOK 23/16 Q1011 NOSIG=
201908150630 METAR LROP 150630Z 10009KT CAVOK 23/16 Q1011 NOSIG=
201908150700 METAR LROP 150700Z 13010KT CAVOK 23/15 Q1012 NOSIG=
201908150730 METAR LROP 150730Z 12009KT CAVOK 23/15 Q1012 NOSIG=
201908150800 METAR LROP 150800Z 13008KT 100V160 9999 FEW043 25/15 Q1012
                        NOSIG=
201908150830 METAR LROP 150830Z 12010KT 9999 BKN046 25/15 Q1012 NOSIG=
201908150900 METAR LROP 150900Z 12007KT 090V150 9999 OVC039 25/16 Q1012
                        NOSIG=
201908150930 METAR LROP 150930Z 13008KT 9999 BKN041 25/16 Q1012 NOSIG=
201908151000 METAR LROP 151000Z 12009KT 9999 SCT042 25/15 Q1012 NOSIG=
201908151030 METAR LROP 151030Z 10005KT 030V170 CAVOK 26/15 Q1011 NOSIG=
201908151100 METAR LROP 151100Z 15004KT 090V250 CAVOK 26/15 Q1011 NOSIG=
201908151130 METAR LROP 151130Z 15007KT 120V190 CAVOK 27/15 Q1011 NOSIG=
201908151200 METAR LROP 151200Z VRB05KT 9999 FEW048 28/15 Q1011 NOSIG=
201908151230 METAR LROP 151230Z 16005KT 080V220 9999 FEW048 27/15 Q1011
                        NOSIG=
201908151300 METAR LROP 151300Z 08005KT 040V110 CAVOK 27/15 Q1010 NOSIG=
201908151330 METAR LROP 151330Z 12006KT 070V160 CAVOK 28/15 Q1010 NOSIG=
201908151400 METAR LROP 151400Z 10005KT 080V140 CAVOK 27/15 Q1010 NOSIG=
201908151430 METAR LROP 151430Z 10006KT 070V160 CAVOK 28/15 Q1010 NOSIG=
201908151500 METAR LROP 151500Z 11010KT CAVOK 27/14 Q1010 NOSIG=
201908151530 METAR LROP 151530Z 10006KT CAVOK 27/15 Q1010 NOSIG=
201908151600 METAR LROP 151600Z 09015KT CAVOK 26/14 Q1011 NOSIG=
201908151630 METAR LROP 151630Z 09013KT CAVOK 25/13 Q1011 NOSIG=
201908151700 METAR LROP 151700Z 08014KT CAVOK 24/13 Q1011 NOSIG=
201908151730 METAR LROP 151730Z 08012KT CAVOK 23/13 Q1011 NOSIG=
201908151800 METAR LROP 151800Z 08012KT CAVOK 22/13 Q1012 NOSIG=
201908151830 METAR LROP 151830Z 08012KT CAVOK 21/13 Q1012 NOSIG=
201908151900 METAR LROP 151900Z 08014KT CAVOK 21/13 Q1013 NOSIG=
201908151930 METAR LROP 151930Z 08013KT CAVOK 20/13 Q1013 NOSIG=
201908152000 METAR LROP 152000Z 09010KT CAVOK 20/13 Q1013 NOSIG=
201908152030 METAR LROP 152030Z 09011KT CAVOK 20/12 Q1014 NOSIG=
201908152100 METAR LROP 152100Z 08012KT CAVOK 19/12 Q1014 NOSIG=
201908152130 METAR LROP 152130Z 09009KT CAVOK 19/12 Q1014 NOSIG=
201908152200 METAR LROP 152200Z 10007KT CAVOK 19/12 Q1014 NOSIG=
201908152230 METAR LROP 152230Z 09006KT CAVOK 18/12 Q1014 NOSIG=
201908152300 METAR LROP 152300Z 09006KT CAVOK 18/12 Q1014 NOSIG=
201908152330 METAR LROP 152330Z 10006KT CAVOK 18/13 Q1014 NOSIG=
201908160000 METAR LROP 160000Z 12007KT CAVOK 18/13 Q1014 NOSIG=
201908160030 METAR LROP 160030Z 11007KT CAVOK 18/13 Q1014 NOSIG=
201908160100 METAR LROP 160100Z 11009KT CAVOK 18/12 Q1014 NOSIG=
201908160130 METAR LROP 160130Z 10010KT CAVOK 18/12 Q1014 NOSIG=
201908160200 METAR LROP 160200Z 11007KT CAVOK 18/12 Q1014 NOSIG=
201908160230 METAR LROP 160230Z 11006KT CAVOK 18/12 Q1014 NOSIG=
201908160300 METAR LROP 160300Z 14005KT CAVOK 17/13 Q1014 NOSIG=
201908160330 METAR LROP 160330Z 13004KT CAVOK 17/13 Q1014 NOSIG=
201908160400 METAR LROP 160400Z 14004KT CAVOK 17/13 Q1015 NOSIG=
201908160430 METAR LROP 160430Z 13004KT CAVOK 17/14 Q1015 NOSIG=
201908160500 METAR LROP 160500Z 14005KT CAVOK 18/13 Q1015 NOSIG=
201908160530 METAR LROP 160530Z 12005KT 070V160 CAVOK 19/13 Q1015 NOSIG=
201908160600 METAR LROP 160600Z 11006KT 080V140 CAVOK 19/12 Q1015 NOSIG=
201908160630 METAR LROP 160630Z 09007KT CAVOK 21/12 Q1015 NOSIG=
201908160700 METAR LROP 160700Z 12006KT CAVOK 21/12 Q1015 NOSIG=
201908160730 METAR LROP 160730Z 11009KT CAVOK 21/12 Q1015 NOSIG=
201908160800 METAR LROP 160800Z 13008KT CAVOK 22/11 Q1015 NOSIG=
201908160830 METAR LROP 160830Z 11006KT 060V140 9999 FEW047 23/12 Q1015
                        NOSIG=
201908160900 METAR LROP 160900Z 08008KT CAVOK 23/11 Q1014 NOSIG=
201908160930 METAR LROP 160930Z 08006KT 050V110 9999 FEW043 23/11 Q1014
                        NOSIG=
201908161000 METAR LROP 161000Z 07009KT 9999 FEW049 24/12 Q1014 NOSIG=
201908161030 METAR LROP 161030Z 13006KT 060V190 CAVOK 24/12 Q1014 NOSIG=
201908161100 METAR LROP 161100Z 11005KT CAVOK 25/12 Q1014 NOSIG=
201908161130 METAR LROP 161130Z 14005KT 080V200 CAVOK 25/11 Q1014 NOSIG=
201908161200 METAR LROP 161200Z VRB02KT CAVOK 25/11 Q1014 NOSIG=
201908161230 METAR LROP 161230Z 15006KT CAVOK 25/13 Q1014 NOSIG=
201908161300 METAR LROP 161300Z 15006KT CAVOK 25/13 Q1014 NOSIG=
201908161330 METAR LROP 161330Z VRB02KT CAVOK 26/11 Q1013 NOSIG=
201908161400 METAR LROP 161400Z 14005KT CAVOK 25/12 Q1013 NOSIG=
201908161430 METAR LROP 161430Z 28003KT 200V310 CAVOK 25/12 Q1013 NOSIG=
201908161500 METAR LROP 161500Z 13003KT 100V180 CAVOK 25/13 Q1013 NOSIG=
201908161530 METAR LROP 161530Z 16003KT 120V200 CAVOK 25/12 Q1013 NOSIG=
201908161600 METAR LROP 161600Z 11003KT 070V140 CAVOK 25/13 Q1013 NOSIG=
201908161630 METAR LROP 161630Z 14003KT CAVOK 23/12 Q1013 NOSIG=
201908161700 METAR LROP 161700Z 11003KT CAVOK 22/13 Q1014 NOSIG=
201908161730 METAR LROP 161730Z 11002KT CAVOK 22/13 Q1014 NOSIG=
201908161800 METAR LROP 161800Z 02003KT 360V060 CAVOK 22/12 Q1014 NOSIG=
201908161830 METAR LROP 161830Z 03008KT CAVOK 22/14 Q1015 NOSIG=
201908161900 METAR LROP 161900Z 03008KT CAVOK 21/14 Q1015 NOSIG=
201908161930 METAR LROP 161930Z 03008KT CAVOK 20/15 Q1015 NOSIG=
201908162000 METAR LROP 162000Z 04004KT CAVOK 19/14 Q1015 NOSIG=
201908162030 METAR LROP 162030Z 03005KT CAVOK 19/14 Q1015 NOSIG=
201908162100 METAR LROP 162100Z 03006KT CAVOK 19/14 Q1015 NOSIG=
201908162130 METAR LROP 162130Z 04005KT CAVOK 19/15 Q1015 NOSIG=
201908162200 METAR COR LROP 162200Z 02006KT CAVOK 19/15 Q1015 NOSIG=
201908162230 METAR LROP 162230Z 01005KT CAVOK 19/15 Q1015 NOSIG=
201908162300 METAR LROP 162300Z 01006KT CAVOK 18/15 Q1015 NOSIG=
201908162330 METAR LROP 162330Z 02004KT CAVOK 18/15 Q1015 NOSIG=
201908170000 METAR LROP 170000Z 02004KT CAVOK 18/15 Q1015 NOSIG=
201908170030 METAR LROP 170030Z 02004KT CAVOK 18/15 Q1015 NOSIG=
201908170100 METAR LROP 170100Z 02002KT CAVOK 17/16 Q1015 NOSIG=
201908170130 METAR LROP 170130Z 36003KT 9999 -RA FEW048 17/16 Q1015 NOSIG=
201908170200 METAR LROP 170200Z 02005KT CAVOK 18/16 Q1015 NOSIG=
201908170230 METAR LROP 170230Z 03002KT CAVOK 18/16 Q1015 NOSIG=
201908170300 METAR LROP 170300Z VRB02KT CAVOK 18/16 Q1015 NOSIG=
201908170330 METAR LROP 170330Z 01004KT CAVOK 18/16 Q1015 NOSIG=
201908170400 METAR LROP 170400Z VRB02KT CAVOK 17/16 Q1016 NOSIG=
201908170430 METAR LROP 170430Z 02004KT 340V050 CAVOK 19/15 Q1016 NOSIG=
201908170500 METAR LROP 170500Z VRB02KT CAVOK 18/17 Q1016 NOSIG=
201908170530 METAR LROP 170530Z 29003KT 250V360 CAVOK 20/16 Q1016 NOSIG=
201908170600 METAR LROP 170600Z VRB02KT CAVOK 22/15 Q1016 NOSIG=
201908170630 METAR LROP 170630Z VRB04KT CAVOK 22/14 Q1016 NOSIG=
201908170700 METAR LROP 170700Z 10006KT 060V130 CAVOK 23/11 Q1017 NOSIG=
201908170730 METAR LROP 170730Z 12005KT 060V160 CAVOK 24/12 Q1016 NOSIG=
201908170800 METAR LROP 170800Z 14005KT 070V180 CAVOK 24/10 Q1016 NOSIG=
201908170830 METAR LROP 170830Z VRB04KT CAVOK 25/10 Q1016 NOSIG=
201908170900 METAR LROP 170900Z VRB03KT CAVOK 25/10 Q1016 NOSIG=
201908170930 METAR LROP 170930Z VRB04KT CAVOK 25/10 Q1016 NOSIG=
201908171000 METAR LROP 171000Z 30005KT 250V350 CAVOK 25/10 Q1016 NOSIG=
201908171030 METAR LROP 171030Z VRB04KT CAVOK 26/10 Q1016 NOSIG=
201908171100 METAR LROP 171100Z VRB03KT CAVOK 25/10 Q1015 NOSIG=
201908171130 METAR LROP 171130Z VRB03KT CAVOK 25/11 Q1015 NOSIG=
201908171200 METAR LROP 171200Z 27006KT 220V290 CAVOK 28/09 Q1015 NOSIG=
201908171230 METAR LROP 171230Z 34003KT CAVOK 26/12 Q1015 NOSIG=
201908171300 METAR LROP 171300Z 09003KT 040V150 CAVOK 26/09 Q1014 NOSIG=
201908171330 METAR LROP 171330Z 05005KT 010V070 CAVOK 26/09 Q1014 NOSIG=
201908171400 METAR LROP 171400Z VRB04KT CAVOK 26/10 Q1014 NOSIG=
201908171430 METAR LROP 171430Z 35003KT 290V100 CAVOK 25/14 Q1014 NOSIG=
201908171500 METAR LROP 171500Z VRB04KT CAVOK 27/10 Q1014 NOSIG=
201908171530 METAR LROP 171530Z 35004KT 300V010 CAVOK 26/09 Q1014 NOSIG=
201908171600 METAR LROP 171600Z 31003KT CAVOK 24/11 Q1014 NOSIG=
201908171630 METAR LROP 171630Z 25004KT CAVOK 23/11 Q1014 NOSIG=
201908171700 METAR LROP 171700Z 27003KT CAVOK 22/12 Q1014 NOSIG=
201908171730 METAR LROP 171730Z 36002KT CAVOK 22/12 Q1015 NOSIG=
201908171800 METAR LROP 171800Z 00000KT CAVOK 21/13 Q1015 NOSIG=
201908171830 METAR LROP 171830Z VRB02KT CAVOK 21/12 Q1015 NOSIG=
201908171900 METAR LROP 171900Z 36005KT CAVOK 20/13 Q1015 NOSIG=
201908171930 METAR LROP 171930Z 36005KT CAVOK 20/13 Q1015 NOSIG=
201908172000 METAR LROP 172000Z 01005KT CAVOK 20/12 Q1015 NOSIG=
201908172030 METAR LROP 172030Z 02003KT CAVOK 18/13 Q1016 NOSIG=
201908172100 METAR LROP 172100Z 02004KT CAVOK 18/14 Q1016 NOSIG=
201908172130 METAR LROP 172130Z 01005KT CAVOK 18/12 Q1016 NOSIG=
201908172200 METAR LROP 172200Z 36005KT CAVOK 18/12 Q1016 NOSIG=
201908172230 METAR LROP 172230Z 05003KT CAVOK 17/12 Q1016 NOSIG=
201908172300 METAR LROP 172300Z 08002KT CAVOK 16/13 Q1016 NOSIG=
201908172330 METAR LROP 172330Z 04003KT CAVOK 17/12 Q1016 NOSIG=
201908180000 METAR LROP 180000Z 03003KT CAVOK 15/12 Q1017 NOSIG=
201908180030 METAR LROP 180030Z 02004KT CAVOK 16/12 Q1016 NOSIG=
201908180100 METAR LROP 180100Z 36003KT CAVOK 15/12 Q1016 NOSIG=
201908180130 METAR LROP 180130Z 36003KT CAVOK 15/12 Q1016 NOSIG=
201908180200 METAR LROP 180200Z VRB01KT CAVOK 14/12 Q1016 NOSIG=
201908180230 METAR LROP 180230Z 30003KT 270V330 CAVOK 13/12 Q1016 NOSIG=
201908180300 METAR LROP 180300Z 28003KT CAVOK 13/12 Q1016 NOSIG=
201908180330 METAR LROP 180330Z 35003KT 320V050 CAVOK 13/12 Q1016 NOSIG=
201908180400 METAR LROP 180400Z 02003KT 350V050 CAVOK 14/12 Q1016 NOSIG=
201908180430 METAR LROP 180430Z 04004KT CAVOK 16/13 Q1016 NOSIG=
201908180500 METAR LROP 180500Z 28003KT 250V360 CAVOK 17/14 Q1017 NOSIG=
201908180530 METAR LROP 180530Z 30003KT 260V330 CAVOK 19/14 Q1017 NOSIG=
201908180600 METAR LROP 180600Z 30004KT 270V330 CAVOK 20/14 Q1017 NOSIG=
201908180630 METAR LROP 180630Z 35003KT 300V020 CAVOK 22/13 Q1017 NOSIG=
201908180700 METAR LROP 180700Z VRB02KT CAVOK 24/11 Q1017 NOSIG=
201908180730 METAR LROP 180730Z VRB02KT CAVOK 25/09 Q1017 NOSIG=
201908180800 METAR LROP 180800Z 22004KT 150V260 CAVOK 26/09 Q1017 NOSIG=
201908180830 METAR LROP 180830Z 29006KT 250V360 CAVOK 26/09 Q1017 NOSIG=
201908180900 METAR LROP 180900Z 29006KT 240V350 CAVOK 27/09 Q1017 NOSIG=
201908180930 METAR LROP 180930Z 25006KT 210V310 CAVOK 28/10 Q1017 NOSIG=
201908181000 METAR LROP 181000Z 31011KT CAVOK 27/09 Q1017 NOSIG=
201908181030 METAR LROP 181030Z 32007KT 270V020 CAVOK 28/11 Q1017 NOSIG=
201908181100 METAR LROP 181100Z 28009KT CAVOK 29/12 Q1016 NOSIG=
201908181130 METAR LROP 181130Z 28006KT 230V360 CAVOK 28/11 Q1016 NOSIG=
201908181200 METAR LROP 181200Z 30005KT 250V350 CAVOK 29/10 Q1016 NOSIG=
201908181230 METAR LROP 181230Z 34007KT 280V030 CAVOK 29/09 Q1016 NOSIG=
201908181300 METAR LROP 181300Z 30007KT 250V340 CAVOK 29/10 Q1016 NOSIG=
201908181330 METAR LROP 181330Z 26008KT CAVOK 30/11 Q1016 NOSIG=
201908181400 METAR LROP 181400Z 25006KT 220V310 CAVOK 28/12 Q1015 NOSIG=
201908181430 METAR LROP 181430Z 30006KT 270V360 CAVOK 29/10 Q1015 NOSIG=
201908181500 METAR LROP 181500Z 30003KT 230V340 CAVOK 30/11 Q1016 NOSIG=
201908181530 METAR LROP 181530Z VRB02KT CAVOK 29/11 Q1015 NOSIG=
201908181600 METAR LROP 181600Z 25005KT 220V280 CAVOK 28/11 Q1015 NOSIG=
201908181630 METAR LROP 181630Z 29005KT CAVOK 26/11 Q1016 NOSIG=
201908181700 METAR LROP 181700Z VRB02KT CAVOK 25/10 Q1016 NOSIG=
201908181730 METAR LROP 181730Z VRB02KT CAVOK 25/10 Q1016 NOSIG=
201908181800 METAR LROP 181800Z 06003KT CAVOK 24/13 Q1016 NOSIG=
201908181830 METAR LROP 181830Z 12002KT CAVOK 23/12 Q1016 NOSIG=
201908181900 METAR LROP 181900Z 00000KT CAVOK 23/11 Q1016 NOSIG=
201908181930 METAR LROP 181930Z 09002KT CAVOK 22/12 Q1016 NOSIG=
201908182000 METAR LROP 182000Z 13003KT CAVOK 21/13 Q1016 NOSIG=
201908182030 METAR LROP 182030Z 05002KT CAVOK 21/12 Q1016 NOSIG=
201908182100 METAR LROP 182100Z VRB01KT CAVOK 22/11 Q1017 NOSIG=
201908182130 METAR LROP 182130Z 27002KT CAVOK 21/13 Q1017 NOSIG=
201908182200 METAR LROP 182200Z 35003KT 290V020 CAVOK 20/13 Q1017 NOSIG=
201908182230 METAR LROP 182230Z 35007KT CAVOK 20/14 Q1017 NOSIG=
201908182300 METAR LROP 182300Z 34007KT CAVOK 19/14 Q1017 NOSIG=
201908182330 METAR LROP 182330Z 30003KT 260V330 CAVOK 19/15 Q1017 NOSIG=
201908190000 METAR LROP 190000Z 32003KT 280V340 CAVOK 18/15 Q1017 NOSIG=
201908190030 METAR LROP 190030Z 28003KT CAVOK 18/15 Q1017 NOSIG=
201908190100 METAR LROP 190100Z VRB02KT CAVOK 18/15 Q1017 NOSIG=
201908190130 METAR LROP 190130Z 35005KT CAVOK 17/15 Q1017 NOSIG=
201908190200 METAR LROP 190200Z 35005KT CAVOK 17/14 Q1017 NOSIG=
201908190230 METAR LROP 190230Z 36005KT CAVOK 17/14 Q1017 NOSIG=
201908190300 METAR LROP 190300Z 02004KT CAVOK 17/14 Q1017 NOSIG=
201908190330 METAR LROP 190330Z 04004KT CAVOK 17/14 Q1018 NOSIG=
201908190400 METAR LROP 190400Z 04004KT CAVOK 17/13 Q1018 NOSIG=
201908190430 METAR LROP 190430Z 05006KT CAVOK 19/13 Q1018 NOSIG=
201908190500 METAR LROP 190500Z 04005KT CAVOK 19/13 Q1018 NOSIG=
201908190530 METAR LROP 190530Z 06006KT CAVOK 21/13 Q1018 NOSIG=
201908190600 METAR COR LROP 190600Z 06006KT 020V090 CAVOK 22/13 Q1018
                        NOSIG=
201908190630 METAR LROP 190630Z 06006KT CAVOK 23/12 Q1019 NOSIG=
201908190700 METAR LROP 190700Z 06006KT CAVOK 24/12 Q1019 NOSIG=
201908190730 METAR LROP 190730Z 06005KT 030V090 CAVOK 26/12 Q1019 NOSIG=
201908190800 METAR LROP 190800Z 09005KT 060V140 CAVOK 27/12 Q1019 NOSIG=
201908190830 METAR LROP 190830Z 13006KT 090V190 CAVOK 28/10 Q1019 NOSIG=
201908190900 METAR LROP 190900Z 13007KT CAVOK 29/09 Q1018 NOSIG=
201908190930 METAR LROP 190930Z 14005KT 110V170 CAVOK 30/12 Q1018 NOSIG=
201908191000 METAR LROP 191000Z 12006KT 070V190 CAVOK 30/10 Q1018 NOSIG=
201908191030 METAR LROP 191030Z VRB04KT CAVOK 30/12 Q1018 NOSIG=
201908191100 METAR LROP 191100Z 18006KT 150V220 CAVOK 30/10 Q1018 NOSIG=
201908191130 METAR LROP 191130Z 12006KT 080V160 CAVOK 31/12 Q1018 NOSIG=
201908191200 METAR LROP 191200Z 12006KT 060V160 CAVOK 30/09 Q1018 NOSIG=
201908191230 METAR LROP 191230Z VRB03KT CAVOK 31/11 Q1018 NOSIG=
201908191300 METAR LROP 191300Z 06008KT 010V110 CAVOK 32/10 Q1018 NOSIG=
201908191330 METAR LROP 191330Z 06007KT 010V130 CAVOK 31/10 Q1018 NOSIG=
201908191400 METAR LROP 191400Z VRB02KT CAVOK 31/09 Q1018 NOSIG=
201908191430 METAR LROP 191430Z 08007KT CAVOK 31/09 Q1018 NOSIG=
201908191500 METAR LROP 191500Z 08006KT 050V110 CAVOK 31/09 Q1018 NOSIG=
201908191530 METAR LROP 191530Z VRB04KT CAVOK 31/11 Q1018 NOSIG=
201908191600 METAR LROP 191600Z 08005KT 040V190 CAVOK 30/10 Q1018 NOSIG=
201908191630 METAR LROP 191630Z 07004KT CAVOK 29/12 Q1018 NOSIG=
201908191700 METAR LROP 191700Z 08005KT CAVOK 28/11 Q1018 NOSIG=
201908191730 METAR LROP 191730Z 09005KT CAVOK 25/12 Q1018 NOSIG=
201908191800 METAR LROP 191800Z 09002KT CAVOK 24/12 Q1018 NOSIG=
201908191830 METAR LROP 191830Z 07001KT CAVOK 24/12 Q1018 NOSIG=
201908191900 METAR LROP 191900Z 08005KT CAVOK 23/13 Q1019 NOSIG=
201908191930 METAR COR LROP 191930Z 12007KT CAVOK 22/11 Q1019 NOSIG=
201908192000 METAR LROP 192000Z 14006KT CAVOK 21/11 Q1019 NOSIG=
201908192030 METAR LROP 192030Z 13005KT CAVOK 21/11 Q1019 NOSIG=
201908192100 METAR LROP 192100Z 11004KT CAVOK 20/11 Q1019 NOSIG=
201908192130 METAR LROP 192130Z 11004KT CAVOK 20/11 Q1019 NOSIG=
201908192200 METAR LROP 192200Z 12003KT CAVOK 20/12 Q1019 NOSIG=
201908192230 METAR LROP 192230Z 10003KT CAVOK 19/12 Q1019 NOSIG=
201908192300 METAR LROP 192300Z 03004KT CAVOK 19/11 Q1020 NOSIG=
201908192330 METAR LROP 192330Z 35002KT CAVOK 18/11 Q1020 NOSIG=
201908200000 METAR LROP 200000Z 36004KT CAVOK 18/12 Q1020 NOSIG=
201908200030 METAR LROP 200030Z 35002KT CAVOK 18/12 Q1020 NOSIG=
201908200100 METAR LROP 200100Z 36003KT CAVOK 17/13 Q1020 NOSIG=
201908200130 METAR LROP 200130Z 35002KT CAVOK 17/12 Q1020 NOSIG=
201908200200 METAR LROP 200200Z VRB01KT CAVOK 17/12 Q1020 NOSIG=
201908200230 METAR LROP 200230Z 32002KT CAVOK 15/13 Q1020 NOSIG=
201908200300 METAR LROP 200300Z 34002KT CAVOK 15/13 Q1020 NOSIG=
201908200330 METAR LROP 200330Z 35002KT CAVOK 16/13 Q1020 NOSIG=
201908200400 METAR LROP 200400Z 34003KT 310V010 CAVOK 17/13 Q1021 NOSIG=
201908200430 METAR LROP 200430Z 02003KT 350V050 CAVOK 18/14 Q1021 NOSIG=
201908200500 METAR LROP 200500Z 36005KT CAVOK 20/14 Q1021 NOSIG=
201908200530 METAR LROP 200530Z 01004KT CAVOK 22/14 Q1021 NOSIG=
201908200600 METAR LROP 200600Z 35004KT 320V030 CAVOK 24/14 Q1021 NOSIG=
201908200630 METAR LROP 200630Z 01003KT 340V080 CAVOK 25/14 Q1021 NOSIG=
201908200700 METAR LROP 200700Z 01003KT 330V040 CAVOK 26/11 Q1021 NOSIG=
201908200730 METAR LROP 200730Z VRB02KT CAVOK 28/10 Q1021 NOSIG=
201908200800 METAR LROP 200800Z 10003KT 050V130 CAVOK 29/10 Q1021 NOSIG=
201908200830 METAR LROP 200830Z VRB03KT CAVOK 29/10 Q1021 NOSIG=
201908200900 METAR LROP 200900Z VRB04KT CAVOK 29/09 Q1021 NOSIG=
201908200930 METAR LROP 200930Z 13004KT 040V190 CAVOK 30/10 Q1021 NOSIG=
201908201000 METAR LROP 201000Z VRB03KT CAVOK 30/09 Q1021 NOSIG=
201908201030 METAR LROP 201030Z VRB03KT CAVOK 31/08 Q1021 NOSIG=
201908201100 METAR LROP 201100Z 27004KT 210V340 CAVOK 31/08 Q1021 NOSIG=
201908201130 METAR LROP 201130Z 11006KT 040V210 CAVOK 31/09 Q1020 NOSIG=
201908201200 METAR LROP 201200Z 04005KT 340V110 CAVOK 32/10 Q1020 NOSIG=
201908201230 METAR LROP 201230Z 16006KT 080V250 CAVOK 32/12 Q1020 NOSIG=
201908201300 METAR LROP 201300Z VRB03KT CAVOK 32/11 Q1019 NOSIG=
201908201330 METAR LROP 201330Z VRB04KT CAVOK 32/09 Q1019 NOSIG=
201908201400 METAR LROP 201400Z 10004KT 060V200 CAVOK 33/10 Q1019 NOSIG=
201908201430 METAR LROP 201430Z 05005KT 020V080 CAVOK 32/10 Q1020 NOSIG=
201908201500 METAR LROP 201500Z 08005KT 030V130 CAVOK 31/09 Q1020 NOSIG=
201908201530 METAR LROP 201530Z 11007KT CAVOK 31/11 Q1020 NOSIG=
201908201600 METAR LROP 201600Z 08005KT CAVOK 31/09 Q1020 NOSIG=
201908201630 METAR LROP 201630Z 08004KT CAVOK 30/09 Q1020 NOSIG=
201908201700 METAR LROP 201700Z 07003KT CAVOK 27/10 Q1020 NOSIG=
201908201730 METAR LROP 201730Z 36002KT CAVOK 25/10 Q1020 NOSIG=
201908201800 METAR LROP 201800Z VRB01KT CAVOK 25/10 Q1020 NOSIG=
201908201830 METAR LROP 201830Z 02002KT CAVOK 24/10 Q1020 NOSIG=
201908201900 METAR LROP 201900Z 14005KT 110V170 CAVOK 23/13 Q1020 NOSIG=
201908201930 METAR LROP 201930Z 11003KT 060V130 CAVOK 22/13 Q1020 NOSIG=
201908202000 METAR LROP 202000Z VRB01KT CAVOK 22/14 Q1020 NOSIG=
201908202030 METAR LROP 202030Z VRB02KT CAVOK 21/14 Q1020 NOSIG=
201908202100 METAR LROP 202100Z 32002KT CAVOK 21/13 Q1020 NOSIG=
201908202130 METAR LROP 202130Z 32004KT CAVOK 19/14 Q1020 NOSIG=
201908202200 METAR LROP 202200Z 33004KT CAVOK 19/14 Q1020 NOSIG=
201908202230 METAR LROP 202230Z 32003KT CAVOK 18/14 Q1020 NOSIG=
201908202300 METAR LROP 202300Z 02003KT 330V120 CAVOK 17/14 Q1020 NOSIG=
201908202330 METAR LROP 202330Z 34003KT CAVOK 19/15 Q1020 NOSIG=
201908210000 METAR LROP 210000Z VRB02KT CAVOK 19/14 Q1020 NOSIG=
201908210030 METAR LROP 210030Z 01003KT CAVOK 18/15 Q1020 NOSIG=
201908210100 METAR LROP 210100Z VRB02KT CAVOK 19/14 Q1020 NOSIG=
201908210130 METAR LROP 210130Z 02004KT CAVOK 19/13 Q1020 NOSIG=
201908210200 METAR LROP 210200Z 36004KT CAVOK 18/13 Q1020 NOSIG=
201908210230 METAR LROP 210230Z 35006KT CAVOK 17/13 Q1020 NOSIG=
201908210300 METAR LROP 210300Z 36004KT CAVOK 19/13 Q1020 NOSIG=
201908210330 METAR LROP 210330Z 34005KT CAVOK 18/14 Q1020 NOSIG=
201908210400 METAR LROP 210400Z 34004KT 320V040 CAVOK 19/14 Q1020 NOSIG=
201908210430 METAR LROP 210430Z 35005KT CAVOK 19/14 Q1020 NOSIG=
201908210500 METAR LROP 210500Z 36004KT 340V040 CAVOK 21/14 Q1020 NOSIG=
201908210530 METAR LROP 210530Z 03005KT 360V060 CAVOK 22/14 Q1021 NOSIG=
201908210600 METAR LROP 210600Z 03005KT 350V070 CAVOK 24/13 Q1021 NOSIG=
201908210630 METAR LROP 210630Z 07006KT CAVOK 26/13 Q1021 NOSIG=
201908210700 METAR LROP 210700Z 06004KT 020V090 CAVOK 27/13 Q1021 NOSIG=
201908210730 METAR LROP 210730Z 07007KT 040V110 CAVOK 29/12 Q1021 NOSIG=
201908210800 METAR LROP 210800Z 06007KT 030V100 CAVOK 29/13 Q1020 NOSIG=
201908210830 METAR LROP 210830Z 06007KT 020V110 CAVOK 30/13 Q1020 NOSIG=
201908210900 METAR LROP 210900Z 05007KT 010V090 CAVOK 30/14 Q1020 NOSIG=
201908210930 METAR LROP 210930Z 10005KT 050V140 CAVOK 31/15 Q1020 NOSIG=
201908211000 METAR LROP 211000Z VRB05KT CAVOK 31/14 Q1020 NOSIG=
201908211030 METAR LROP 211030Z VRB04KT CAVOK 31/13 Q1019 NOSIG=
201908211100 METAR LROP 211100Z 08005KT 010V150 CAVOK 33/13 Q1019 NOSIG=
201908211130 METAR LROP 211130Z 11004KT 020V190 CAVOK 32/12 Q1019 NOSIG=
201908211200 METAR LROP 211200Z 04005KT 330V120 CAVOK 32/12 Q1019 NOSIG=
201908211230 METAR LROP 211230Z 07005KT 350V150 CAVOK 33/12 Q1018 NOSIG=
201908211300 METAR LROP 211300Z 03006KT 290V090 CAVOK 33/11 Q1018 NOSIG=
201908211330 METAR LROP 211330Z 08005KT CAVOK 33/10 Q1018 NOSIG=
201908211400 METAR LROP 211400Z VRB04KT CAVOK 33/10 Q1018 NOSIG=
201908211430 METAR LROP 211430Z 35007KT CAVOK 33/10 Q1018 NOSIG=
201908211500 METAR LROP 211500Z 04004KT 330V100 CAVOK 33/11 Q1018 NOSIG=
201908211530 METAR LROP 211530Z VRB03KT CAVOK 33/10 Q1018 NOSIG=
201908211600 METAR LROP 211600Z 07004KT 020V100 CAVOK 32/09 Q1018 NOSIG=
201908211630 METAR LROP 211630Z VRB02KT CAVOK 30/12 Q1017 NOSIG=
201908211700 METAR LROP 211700Z 34001KT CAVOK 28/11 Q1018 NOSIG=
201908211730 METAR LROP 211730Z 30001KT CAVOK 27/12 Q1018 NOSIG=
201908211800 METAR LROP 211800Z 34001KT CAVOK 25/13 Q1018 NOSIG=
201908211830 METAR LROP 211830Z 01004KT CAVOK 25/14 Q1018 NOSIG=
201908211900 METAR LROP 211900Z 01003KT CAVOK 24/14 Q1018 NOSIG=
201908211930 METAR LROP 211930Z 34001KT CAVOK 24/14 Q1019 NOSIG=
201908212000 METAR LROP 212000Z 33003KT CAVOK 23/14 Q1019 NOSIG=
201908212030 METAR LROP 212030Z 35001KT CAVOK 23/14 Q1019 NOSIG=
201908212100 METAR LROP 212100Z 34002KT CAVOK 23/15 Q1019 NOSIG=
201908212130 METAR LROP 212130Z 35002KT CAVOK 23/15 Q1019 NOSIG=
201908212200 METAR LROP 212200Z 34002KT CAVOK 21/16 Q1019 NOSIG=
201908212230 METAR LROP 212230Z 34002KT CAVOK 21/15 Q1019 NOSIG=
201908212300 METAR LROP 212300Z 35003KT CAVOK 20/16 Q1019 NOSIG=
201908212330 METAR LROP 212330Z 33004KT CAVOK 19/16 Q1019 NOSIG=
201908220000 METAR LROP 220000Z 32005KT CAVOK 19/15 Q1019 NOSIG=
201908220030 METAR LROP 220030Z 32004KT CAVOK 18/15 Q1019 NOSIG=
201908220100 METAR LROP 220100Z 34003KT CAVOK 19/15 Q1019 NOSIG=
201908220130 METAR LROP 220130Z 34003KT CAVOK 19/15 Q1019 NOSIG=
201908220200 METAR LROP 220200Z 32003KT 290V360 CAVOK 18/15 Q1019 NOSIG=
201908220230 METAR LROP 220230Z 33003KT CAVOK 19/14 Q1019 NOSIG=
201908220300 METAR LROP 220300Z 34007KT CAVOK 20/14 Q1019 NOSIG=
201908220330 METAR LROP 220330Z 34006KT CAVOK 20/14 Q1019 NOSIG=
201908220400 METAR LROP 220400Z 35007KT 320V020 CAVOK 20/15 Q1020 NOSIG=
201908220430 METAR LROP 220430Z 34005KT 300V030 CAVOK 20/15 Q1020 NOSIG=
201908220500 METAR LROP 220500Z 34004KT 300V040 CAVOK 21/15 Q1020 NOSIG=
201908220530 METAR LROP 220530Z 36005KT 330V030 CAVOK 24/15 Q1020 NOSIG=
201908220600 METAR LROP 220600Z 01005KT 340V040 CAVOK 26/14 Q1020 NOSIG=
201908220630 METAR LROP 220630Z 04008KT 010V070 CAVOK 27/14 Q1021 NOSIG=
201908220700 METAR LROP 220700Z 05011KT CAVOK 28/15 Q1020 NOSIG=
201908220730 METAR LROP 220730Z 06013KT CAVOK 29/15 Q1020 NOSIG=
201908220800 METAR LROP 220800Z 08012KT CAVOK 30/16 Q1021 NOSIG=
201908220830 METAR LROP 220830Z 07009KT 040V100 CAVOK 31/15 Q1021 NOSIG=
201908220900 METAR LROP 220900Z 05009KT 020V080 CAVOK 32/15 Q1021 NOSIG=
201908220930 METAR LROP 220930Z 06009KT 020V100 CAVOK 31/15 Q1021 NOSIG=
201908221000 METAR LROP 221000Z 08007KT CAVOK 32/14 Q1020 NOSIG=
201908221030 METAR LROP 221030Z 05008KT 020V080 CAVOK 33/13 Q1020 NOSIG=
201908221100 METAR LROP 221100Z 09010KT CAVOK 33/14 Q1020 NOSIG=
201908221130 METAR LROP 221130Z 08009KT 050V120 CAVOK 34/14 Q1020 NOSIG=
201908221200 METAR LROP 221200Z 04008KT 320V080 CAVOK 33/13 Q1020 NOSIG=
201908221230 METAR LROP 221230Z 08010KT CAVOK 33/13 Q1020 NOSIG=
201908221300 METAR LROP 221300Z 07009KT 050V110 CAVOK 33/13 Q1020 NOSIG=
201908221330 METAR LROP 221330Z 11010KT CAVOK 33/12 Q1020 NOSIG=
201908221400 METAR LROP 221400Z 08010KT CAVOK 33/12 Q1020 NOSIG=
201908221430 METAR LROP 221430Z 08013KT CAVOK 33/12 Q1020 NOSIG=
201908221500 METAR LROP 221500Z 09009KT CAVOK 33/12 Q1020 NOSIG=
201908221530 METAR LROP 221530Z 08012KT CAVOK 32/11 Q1020 NOSIG=
201908221600 METAR LROP 221600Z 08010KT CAVOK 31/12 Q1020 NOSIG=
201908221630 METAR LROP 221630Z 08011KT CAVOK 30/12 Q1020 NOSIG=
201908221700 METAR LROP 221700Z 08009KT CAVOK 29/12 Q1020 NOSIG=
201908221730 METAR LROP 221730Z 08009KT CAVOK 28/11 Q1020 NOSIG=
201908221800 METAR LROP 221800Z 08008KT CAVOK 27/11 Q1021 NOSIG=
201908221830 METAR LROP 221830Z 09006KT CAVOK 26/11 Q1021 NOSIG=
201908221900 METAR LROP 221900Z 10004KT CAVOK 24/13 Q1021 NOSIG=
201908221930 METAR LROP 221930Z 09005KT CAVOK 25/13 Q1022 NOSIG=
201908222000 METAR LROP 222000Z 08004KT CAVOK 24/13 Q1022 NOSIG=
201908222030 METAR LROP 222030Z 08005KT CAVOK 23/14 Q1022 NOSIG=
201908222100 METAR LROP 222100Z 09005KT CAVOK 23/15 Q1022 NOSIG=
201908222130 METAR LROP 222130Z 09005KT CAVOK 21/16 Q1022 NOSIG=
201908222200 METAR LROP 222200Z 08005KT CAVOK 21/16 Q1022 NOSIG=
201908222230 METAR LROP 222230Z 07005KT CAVOK 21/16 Q1022 NOSIG=
201908222300 METAR LROP 222300Z 03003KT CAVOK 21/17 Q1022 NOSIG=
201908222330 METAR LROP 222330Z 03004KT CAVOK 21/17 Q1022 NOSIG=
201908230000 METAR LROP 230000Z 03004KT CAVOK 21/17 Q1022 NOSIG=
201908230030 METAR LROP 230030Z 36003KT CAVOK 19/17 Q1022 NOSIG=
201908230100 METAR LROP 230100Z 36003KT 300V020 CAVOK 18/16 Q1022 NOSIG=
201908230130 METAR COR LROP 230130Z 35003KT CAVOK 18/16 Q1022 NOSIG=
201908230200 METAR LROP 230200Z 36004KT CAVOK 19/16 Q1022 NOSIG=
201908230230 METAR LROP 230230Z VRB01KT CAVOK 18/16 Q1022 NOSIG=
201908230300 METAR LROP 230300Z 28004KT CAVOK 17/16 Q1022 NOSIG=
201908230330 METAR LROP 230330Z 29003KT 260V020 CAVOK 17/15 Q1022 NOSIG=
201908230400 METAR LROP 230400Z 27004KT CAVOK 17/15 Q1022 NOSIG=
201908230430 METAR LROP 230430Z 25004KT CAVOK 18/14 Q1023 NOSIG=
201908230500 METAR LROP 230500Z VRB02KT CAVOK 20/15 Q1023 NOSIG=
201908230530 METAR LROP 230530Z VRB02KT CAVOK 21/16 Q1023 NOSIG=
201908230600 METAR LROP 230600Z 27003KT 230V320 CAVOK 23/16 Q1023 NOSIG=
201908230630 METAR LROP 230630Z VRB02KT CAVOK 25/16 Q1023 NOSIG=
201908230700 METAR LROP 230700Z VRB02KT CAVOK 26/16 Q1023 NOSIG=
201908230730 METAR LROP 230730Z VRB02KT CAVOK 27/15 Q1023 NOSIG=
201908230800 METAR LROP 230800Z 01007KT 330V050 CAVOK 28/14 Q1023 NOSIG=
201908230830 METAR LROP 230830Z 08005KT 050V120 CAVOK 29/14 Q1023 NOSIG=
201908230900 METAR LROP 230900Z 04007KT 010V080 CAVOK 30/14 Q1023 NOSIG=
201908230930 METAR LROP 230930Z 09006KT 060V120 CAVOK 31/15 Q1022 NOSIG=
201908231000 METAR LROP 231000Z 08007KT CAVOK 30/14 Q1022 NOSIG=
201908231030 METAR LROP 231030Z VRB03KT CAVOK 31/14 Q1022 NOSIG=
201908231100 METAR LROP 231100Z 09005KT 040V160 CAVOK 32/12 Q1022 NOSIG=
201908231130 METAR LROP 231130Z VRB04KT CAVOK 32/12 Q1021 NOSIG=
201908231200 METAR LROP 231200Z VRB06KT CAVOK 32/12 Q1021 NOSIG=
201908231230 METAR LROP 231230Z 04005KT 360V110 CAVOK 32/13 Q1021 NOSIG=
201908231300 METAR LROP 231300Z 06007KT 030V100 CAVOK 33/12 Q1021 NOSIG=
201908231330 METAR LROP 231330Z 05009KT CAVOK 33/11 Q1020 NOSIG=
201908231400 METAR LROP 231400Z 08007KT 040V100 CAVOK 33/11 Q1020 NOSIG=
201908231430 METAR LROP 231430Z 04010KT CAVOK 32/11 Q1020 NOSIG=
201908231500 METAR LROP 231500Z 06007KT 350V090 CAVOK 33/11 Q1020 NOSIG=
201908231530 METAR LROP 231530Z 08010KT CAVOK 32/10 Q1020 NOSIG=
201908231600 METAR LROP 231600Z 07007KT 040V100 CAVOK 32/11 Q1020 NOSIG=
201908231630 METAR LROP 231630Z 07005KT CAVOK 31/11 Q1020 NOSIG=
201908231700 METAR LROP 231700Z 07006KT CAVOK 29/12 Q1021 NOSIG=
201908231730 METAR LROP 231730Z 07006KT CAVOK 28/13 Q1021 NOSIG=
201908231800 METAR LROP 231800Z 05004KT CAVOK 28/13 Q1021 NOSIG=
201908231830 METAR LROP 231830Z 04004KT 350V070 CAVOK 27/13 Q1022 NOSIG=
201908231900 METAR LROP 231900Z 03003KT 350V110 CAVOK 26/14 Q1022 NOSIG=
201908231930 METAR LROP 231930Z 05005KT 350V090 CAVOK 26/14 Q1022 NOSIG=
201908232000 METAR LROP 232000Z 04005KT 350V090 CAVOK 26/14 Q1022 NOSIG=
201908232030 METAR LROP 232030Z 04005KT 350V080 CAVOK 25/15 Q1022 NOSIG=
201908232100 METAR LROP 232100Z 03004KT 360V060 CAVOK 25/15 Q1022 NOSIG=
201908232130 METAR LROP 232130Z 02003KT 350V070 CAVOK 24/15 Q1022 NOSIG=
201908232200 METAR LROP 232200Z 01003KT CAVOK 24/15 Q1022 NOSIG=
201908232230 METAR LROP 232230Z 36002KT CAVOK 23/15 Q1022 NOSIG=
201908232300 METAR LROP 232300Z VRB02KT CAVOK 21/16 Q1022 NOSIG=
201908232330 METAR LROP 232330Z 35002KT CAVOK 22/16 Q1022 NOSIG=
201908240000 METAR LROP 240000Z 36002KT CAVOK 21/17 Q1022 NOSIG=
201908240030 METAR LROP 240030Z 35002KT CAVOK 21/16 Q1022 NOSIG=
201908240100 METAR LROP 240100Z 35003KT CAVOK 21/16 Q1021 NOSIG=
201908240130 METAR COR LROP 240130Z 35003KT 320V020 CAVOK 21/15 Q1021
                        NOSIG=
201908240200 METAR LROP 240200Z 35003KT CAVOK 21/15 Q1021 NOSIG=
201908240230 METAR LROP 240230Z 36003KT CAVOK 20/15 Q1022 NOSIG=
201908240300 METAR LROP 240300Z 02004KT CAVOK 20/14 Q1022 NOSIG=
201908240330 METAR LROP 240330Z 01004KT CAVOK 20/15 Q1022 NOSIG=
201908240400 METAR LROP 240400Z 01004KT CAVOK 20/15 Q1022 NOSIG=
201908240430 METAR LROP 240430Z 01006KT CAVOK 22/14 Q1022 NOSIG=
201908240500 METAR LROP 240500Z 01006KT CAVOK 23/15 Q1022 NOSIG=
201908240530 METAR LROP 240530Z 04006KT CAVOK 24/15 Q1022 NOSIG=
201908240600 METAR LROP 240600Z 05012KT CAVOK 26/14 Q1022 NOSIG=
201908240630 METAR LROP 240630Z 06010KT CAVOK 27/15 Q1022 NOSIG=
201908240700 METAR LROP 240700Z 06013KT CAVOK 28/15 Q1022 NOSIG=
201908240730 METAR LROP 240730Z 06012KT CAVOK 29/15 Q1022 NOSIG=
201908240800 METAR LROP 240800Z 07012KT CAVOK 29/15 Q1022 NOSIG=
201908240830 METAR LROP 240830Z 05010KT CAVOK 30/16 Q1022 NOSIG=
201908240900 METAR LROP 240900Z 09013KT CAVOK 31/16 Q1022 NOSIG=
201908240930 METAR LROP 240930Z 06011KT CAVOK 31/15 Q1022 NOSIG=
201908241000 METAR LROP 241000Z 08011KT CAVOK 31/15 Q1021 NOSIG=
201908241030 METAR LROP 241030Z 10009KT CAVOK 31/15 Q1021 NOSIG=
201908241100 METAR LROP 241100Z 06009KT 020V080 CAVOK 31/15 Q1021 NOSIG=
201908241130 METAR LROP 241130Z 05012KT CAVOK 32/14 Q1021 NOSIG=
201908241200 METAR LROP 241200Z 07011KT CAVOK 32/13 Q1021 NOSIG=
201908241230 METAR LROP 241230Z 05010KT CAVOK 33/13 Q1021 NOSIG=
201908241300 METAR LROP 241300Z 05013KT 020V120 CAVOK 33/13 Q1020 NOSIG=
201908241330 METAR LROP 241330Z 03009KT CAVOK 33/12 Q1020 NOSIG=
201908241400 METAR LROP 241400Z 04011KT 010V070 CAVOK 32/13 Q1020 NOSIG=
201908241430 METAR LROP 241430Z 07010KT CAVOK 32/13 Q1020 NOSIG=
201908241500 METAR LROP 241500Z 08010KT CAVOK 32/13 Q1020 NOSIG=
201908241530 METAR LROP 241530Z 05010KT CAVOK 32/13 Q1020 NOSIG=
201908241600 METAR LROP 241600Z 07010KT CAVOK 31/14 Q1020 NOSIG=
201908241630 METAR LROP 241630Z 06010KT CAVOK 31/14 Q1020 NOSIG=
201908241700 METAR LROP 241700Z 04008KT CAVOK 30/14 Q1020 NOSIG=
201908241730 METAR LROP 241730Z 04007KT CAVOK 29/14 Q1020 NOSIG=
201908241800 METAR LROP 241800Z 03006KT CAVOK 28/14 Q1020 NOSIG=
201908241830 METAR LROP 241830Z 03007KT CAVOK 27/14 Q1020 NOSIG=
201908241900 METAR LROP 241900Z 03007KT CAVOK 26/14 Q1020 NOSIG=
201908241930 METAR LROP 241930Z 03007KT CAVOK 26/14 Q1020 NOSIG=
201908242000 METAR LROP 242000Z 04007KT CAVOK 25/14 Q1020 NOSIG=
201908242030 METAR LROP 242030Z 05007KT CAVOK 25/14 Q1020 NOSIG=
201908242100 METAR LROP 242100Z 10006KT CAVOK 24/14 Q1021 NOSIG=
201908242130 METAR LROP 242130Z 10004KT CAVOK 23/15 Q1020 NOSIG=
201908242200 METAR LROP 242200Z 07005KT CAVOK 23/15 Q1020 NOSIG=
201908242230 METAR LROP 242230Z 01005KT CAVOK 23/15 Q1020 NOSIG=
201908242300 METAR LROP 242300Z 01004KT CAVOK 22/15 Q1020 NOSIG=
201908242330 METAR LROP 242330Z 35005KT CAVOK 22/15 Q1020 NOSIG=
201908250000 METAR LROP 250000Z 31003KT 280V350 CAVOK 20/15 Q1020 NOSIG=
201908250030 METAR LROP 250030Z 27004KT CAVOK 19/16 Q1020 NOSIG=
201908250100 METAR LROP 250100Z 29004KT CAVOK 19/16 Q1020 NOSIG=
201908250130 METAR LROP 250130Z 30004KT CAVOK 19/16 Q1020 NOSIG=
201908250200 METAR LROP 250200Z 27002KT CAVOK 19/16 Q1020 NOSIG=
201908250230 METAR LROP 250230Z VRB01KT CAVOK 19/16 Q1020 NOSIG=
201908250300 METAR LROP 250300Z 29003KT 260V020 CAVOK 18/16 Q1020 NOSIG=
201908250330 METAR LROP 250330Z VRB02KT CAVOK 18/16 Q1020 NOSIG=
201908250400 METAR LROP 250400Z 36003KT 340V040 CAVOK 19/16 Q1020 NOSIG=
201908250430 METAR LROP 250430Z 01005KT CAVOK 22/16 Q1020 NOSIG=
201908250500 METAR LROP 250500Z 02005KT CAVOK 23/16 Q1020 NOSIG=
201908250530 METAR LROP 250530Z 05005KT CAVOK 25/16 Q1020 NOSIG=
201908250600 METAR LROP 250600Z 05009KT CAVOK 27/15 Q1020 NOSIG=
201908250630 METAR LROP 250630Z 05013KT CAVOK 28/15 Q1020 NOSIG=
201908250700 METAR LROP 250700Z 06016KT CAVOK 29/15 Q1020 NOSIG=
201908250730 METAR LROP 250730Z 06015KT CAVOK 30/15 Q1020 NOSIG=
201908250800 METAR LROP 250800Z 06013KT CAVOK 31/15 Q1020 NOSIG=
201908250830 METAR LROP 250830Z 05013KT CAVOK 32/15 Q1020 NOSIG=
201908250900 METAR LROP 250900Z 04012KT 010V080 CAVOK 32/15 Q1020 NOSIG=
201908250930 METAR LROP 250930Z 06013KT CAVOK 33/15 Q1020 NOSIG=
201908251000 METAR LROP 251000Z 06015KT CAVOK 33/15 Q1019 NOSIG=
201908251030 METAR LROP 251030Z 07017KT CAVOK 34/14 Q1019 NOSIG=
201908251100 METAR LROP 251100Z 06017KT CAVOK 35/14 Q1019 NOSIG=
201908251130 METAR LROP 251130Z 06016KT CAVOK 34/14 Q1019 NOSIG=
201908251200 METAR LROP 251200Z 06017KT CAVOK 34/14 Q1019 NOSIG=
201908251230 METAR LROP 251230Z 06018KT CAVOK 34/14 Q1018 NOSIG=
201908251300 METAR LROP 251300Z 06015KT 030V110 CAVOK 35/14 Q1018 NOSIG=
201908251330 METAR LROP 251330Z 09012KT CAVOK 34/14 Q1018 NOSIG=
201908251400 METAR LROP 251400Z 07012KT 9999 FEW060CB 35/15 Q1018 NOSIG=
201908251430 METAR LROP 251430Z 07017KT 9999 FEW060CB 33/15 Q1017 TEMPO
                        5000 -TSRA=
201908251500 METAR LROP 251500Z 07019KT 9999 FEW060CB 33/15 Q1018 TEMPO
                        5000 -TSRA=
201908251530 METAR LROP 251530Z 08023KT 9999 TS SCT060CB 28/18 Q1018 TEMPO
                        5000 -TSRA=
201908251600 METAR LROP 251600Z 35026G37KT 310V040 1500 +TSRA FEW008 SCT015
                        BKN038CB 19/19 Q1018 R88/29//95 NOSIG=
201908251630 METAR LROP 251630Z 07011KT 9999 -TSRA FEW011 SCT050CB 25/22
                        Q1018 RETSRA R88/29//95 NOSIG=
201908251700 METAR LROP 251700Z 06009KT 9999 -SHRA BKN043 SCT050CB 26/22
                        Q1019 RETS R88/29//95 NOSIG=
201908251730 METAR LROP 251730Z 04008KT 9999 FEW050CB 25/22 Q1019 R88/29//95
                        NOSIG=
201908251800 METAR LROP 251800Z 06008KT CAVOK 25/21 Q1019 R88/29//95 NOSIG=
201908251830 METAR LROP 251830Z 04009KT CAVOK 25/20 Q1020 R88/29//95 NOSIG=
201908251900 METAR LROP 251900Z 04009KT CAVOK 24/19 Q1020 R88/29//95 NOSIG=
201908251930 METAR LROP 251930Z 04008KT CAVOK 24/19 Q1020 R88/09//95 NOSIG=
201908252000 METAR LROP 252000Z 05010KT CAVOK 24/18 Q1021 R88/09//95 NOSIG=
201908252030 METAR LROP 252030Z 06008KT CAVOK 23/18 Q1021 R88/09//95 NOSIG=
201908252100 METAR LROP 252100Z 06007KT CAVOK 23/18 Q1021 R88/09//95 NOSIG=
201908252130 METAR LROP 252130Z 04006KT CAVOK 22/18 Q1021 R88/09//95 NOSIG=
201908252200 METAR LROP 252200Z 07004KT CAVOK 22/18 Q1021 R88/09//95 NOSIG=
201908252230 METAR LROP 252230Z 06007KT CAVOK 21/18 Q1021 R88/09//95 NOSIG=
201908252300 METAR LROP 252300Z 07006KT CAVOK 21/18 Q1021 R88/09//95 NOSIG=
201908252330 METAR LROP 252330Z 08004KT CAVOK 21/18 Q1020 R88/09//95 NOSIG=
201908260000 METAR LROP 260000Z 10003KT 070V130 CAVOK 21/18 Q1020 R88/09//95
                        NOSIG=
201908260030 METAR LROP 260030Z 07005KT CAVOK 21/17 Q1021 R88/09//95 NOSIG=
201908260100 METAR LROP 260100Z 06005KT CAVOK 21/17 Q1021 R88/09//95 NOSIG=
201908260130 METAR LROP 260130Z 05007KT CAVOK 21/17 Q1021 R88/09//95 NOSIG=
201908260200 METAR LROP 260200Z 06007KT CAVOK 21/17 Q1021 R88/09//95 NOSIG=
201908260230 METAR LROP 260230Z 07006KT CAVOK 21/17 Q1021 R88/09//95 NOSIG=
201908260300 METAR LROP 260300Z 07005KT CAVOK 20/17 Q1021 R88/09//95 NOSIG=
201908260330 METAR LROP 260330Z 06004KT CAVOK 20/17 Q1021 R88/09//95 NOSIG=
201908260400 METAR LROP 260400Z 06005KT CAVOK 21/17 Q1021 R88/09//95 NOSIG=
201908260430 METAR LROP 260430Z 06006KT CAVOK 22/17 Q1021 R88/09//95 NOSIG=
201908260500 METAR LROP 260500Z 05006KT CAVOK 23/17 Q1021 R88/09//95 NOSIG=
201908260530 METAR COR LROP 260530Z 06009KT CAVOK 23/17 Q1021 R88/09//95
                        NOSIG=
201908260600 METAR LROP 260600Z 06008KT CAVOK 25/18 Q1022 R88/09//95 NOSIG=
201908260630 METAR LROP 260630Z 06011KT CAVOK 27/18 Q1022 R88/09//95 NOSIG=
201908260700 METAR LROP 260700Z 06014KT CAVOK 28/16 Q1022 R88/09//95 NOSIG=
201908260730 METAR LROP 260730Z 07012KT CAVOK 28/16 Q1022 R88/09//95 NOSIG=
201908260800 METAR LROP 260800Z 08011KT CAVOK 30/16 Q1022 R88/09//95 NOSIG=
201908260830 METAR COR LROP 260830Z 09010KT CAVOK 30/16 Q1022 R88/CLRD//
                        NOSIG=
201908260900 METAR LROP 260900Z 08010KT CAVOK 31/16 Q1022 NOSIG=
201908260930 METAR LROP 260930Z 06011KT 030V090 CAVOK 31/15 Q1021 NOSIG=
201908261000 METAR LROP 261000Z 07011KT CAVOK 31/15 Q1021 NOSIG=
201908261030 METAR LROP 261030Z 08011KT CAVOK 33/14 Q1021 NOSIG=
201908261100 METAR LROP 261100Z 07011KT CAVOK 33/15 Q1021 NOSIG=
201908261130 METAR LROP 261130Z 09012KT 060V120 CAVOK 33/13 Q1021 NOSIG=
201908261200 METAR LROP 261200Z 10009KT 070V130 CAVOK 34/13 Q1020 NOSIG=
201908261230 METAR LROP 261230Z 08011KT 040V110 CAVOK 34/12 Q1020 NOSIG=
201908261300 METAR LROP 261300Z 09011KT CAVOK 34/12 Q1019 NOSIG=
201908261330 METAR LROP 261330Z 08011KT CAVOK 34/13 Q1019 NOSIG=
201908261400 METAR LROP 261400Z 08012KT CAVOK 34/12 Q1019 NOSIG=
201908261430 METAR LROP 261430Z 09011KT CAVOK 34/12 Q1019 NOSIG=
201908261500 METAR LROP 261500Z 09012KT CAVOK 33/11 Q1019 NOSIG=
201908261530 METAR LROP 261530Z 09012KT CAVOK 33/11 Q1019 NOSIG=
201908261600 METAR LROP 261600Z 08009KT CAVOK 32/12 Q1019 NOSIG=
201908261630 METAR LROP 261630Z 07006KT CAVOK 30/12 Q1019 NOSIG=
201908261700 METAR LROP 261700Z 07005KT 020V090 CAVOK 29/13 Q1019 NOSIG=
201908261730 METAR LROP 261730Z 08003KT CAVOK 29/14 Q1020 NOSIG=
201908261800 METAR LROP 261800Z 10008KT CAVOK 28/13 Q1020 NOSIG=
201908261830 METAR LROP 261830Z 04005KT 010V090 CAVOK 25/14 Q1020 NOSIG=
201908261900 METAR LROP 261900Z 07008KT CAVOK 27/12 Q1021 NOSIG=
201908261930 METAR LROP 261930Z 08006KT CAVOK 25/13 Q1020 NOSIG=
201908262000 METAR LROP 262000Z 08003KT CAVOK 23/15 Q1021 NOSIG=
201908262030 METAR LROP 262030Z 02003KT CAVOK 23/13 Q1021 NOSIG=
201908262100 METAR LROP 262100Z 04003KT 360V070 CAVOK 23/14 Q1021 NOSIG=
201908262130 METAR LROP 262130Z VRB01KT CAVOK 22/13 Q1021 NOSIG=
201908262200 METAR LROP 262200Z 04003KT CAVOK 22/13 Q1021 NOSIG=
201908262230 METAR LROP 262230Z 35002KT CAVOK 22/14 Q1021 NOSIG=
201908262300 METAR LROP 262300Z 01004KT CAVOK 22/14 Q1021 NOSIG=
201908262330 METAR LROP 262330Z 02003KT CAVOK 22/13 Q1021 NOSIG=
201908270000 METAR LROP 270000Z 35003KT CAVOK 21/14 Q1020 NOSIG=
201908270030 METAR LROP 270030Z 35005KT CAVOK 20/15 Q1021 NOSIG=
201908270100 METAR LROP 270100Z 02004KT CAVOK 20/15 Q1021 NOSIG=
201908270130 METAR LROP 270130Z 04002KT CAVOK 20/15 Q1021 NOSIG=
201908270200 METAR LROP 270200Z 01003KT CAVOK 19/16 Q1021 NOSIG=
201908270230 METAR LROP 270230Z 03003KT 360V060 CAVOK 19/16 Q1021 NOSIG=
201908270300 METAR LROP 270300Z 03003KT CAVOK 19/16 Q1021 NOSIG=
201908270330 METAR LROP 270330Z 02004KT CAVOK 18/16 Q1021 NOSIG=
201908270400 METAR LROP 270400Z VRB02KT CAVOK 18/16 Q1021 NOSIG=
201908270430 METAR LROP 270430Z 36003KT 320V050 CAVOK 19/16 Q1021 NOSIG=
201908270500 METAR LROP 270500Z 01004KT CAVOK 21/17 Q1021 NOSIG=
201908270530 METAR LROP 270530Z 01003KT 340V050 CAVOK 24/15 Q1021 NOSIG=
201908270600 METAR LROP 270600Z 04004KT 360V080 CAVOK 25/15 Q1021 NOSIG=
201908270630 METAR LROP 270630Z 06006KT 020V100 CAVOK 26/14 Q1022 NOSIG=
201908270700 METAR LROP 270700Z 06006KT 030V090 CAVOK 27/14 Q1022 NOSIG=
201908270730 METAR LROP 270730Z 07006KT 040V110 CAVOK 29/14 Q1022 NOSIG=
201908270800 METAR LROP 270800Z 06007KT CAVOK 30/13 Q1021 NOSIG=
201908270830 METAR LROP 270830Z 08006KT 050V130 CAVOK 30/12 Q1021 NOSIG=
201908270900 METAR LROP 270900Z 09008KT 050V120 CAVOK 31/11 Q1021 NOSIG=
201908270930 METAR LROP 270930Z 08006KT 040V110 CAVOK 31/12 Q1021 NOSIG=
201908271000 METAR LROP 271000Z 10006KT 040V130 CAVOK 31/12 Q1021 NOSIG=
201908271030 METAR LROP 271030Z 10010KT CAVOK 31/12 Q1021 NOSIG=
201908271100 METAR LROP 271100Z 13009KT CAVOK 32/12 Q1021 NOSIG=
201908271130 METAR LROP 271130Z 03004KT 340V070 CAVOK 32/11 Q1021 NOSIG=
201908271200 METAR LROP 271200Z VRB06KT CAVOK 33/10 Q1020 NOSIG=
201908271230 METAR LROP 271230Z VRB04KT CAVOK 33/11 Q1020=
201908271300 METAR LROP 271300Z 09008KT 060V120 CAVOK 34/11 Q1020 NOSIG=
201908271330 METAR LROP 271330Z 07010KT 040V100 CAVOK 33/12 Q1019 NOSIG=
201908271400 METAR LROP 271400Z 04011KT CAVOK 34/11 Q1019=
201908271430 METAR LROP 271430Z 08005KT CAVOK 32/11 Q1019 NOSIG=
201908271500 METAR LROP 271500Z 09006KT 040V180 CAVOK 33/11 Q1019 NOSIG=
201908271530 METAR LROP 271530Z 06006KT CAVOK 33/10 Q1019 NOSIG=
201908271600 METAR LROP 271600Z 07010KT CAVOK 32/11 Q1019 NOSIG=
201908271630 METAR LROP 271630Z 06007KT CAVOK 31/11 Q1019 NOSIG=
201908271700 METAR LROP 271700Z 11004KT CAVOK 28/14 Q1019 NOSIG=
201908271730 METAR LROP 271730Z 08006KT CAVOK 28/14 Q1019 NOSIG=
201908271800 METAR LROP 271800Z 07005KT CAVOK 27/14 Q1020 NOSIG=
201908271830 METAR LROP 271830Z 11010KT 050V170 CAVOK 27/13 Q1020 NOSIG=
201908271900 METAR LROP 271900Z 08006KT CAVOK 26/14 Q1020 NOSIG=
201908271930 METAR LROP 271930Z 09005KT CAVOK 24/16 Q1020 NOSIG=
201908272000 METAR LROP 272000Z 13005KT CAVOK 23/14 Q1020 NOSIG=
201908272030 METAR LROP 272030Z 15004KT CAVOK 23/14 Q1021 NOSIG=
201908272100 METAR LROP 272100Z 17003KT CAVOK 23/13 Q1021 NOSIG=
201908272130 METAR LROP 272130Z 00000KT CAVOK 23/14 Q1021 NOSIG=
201908272200 METAR LROP 272200Z 02005KT CAVOK 22/14 Q1021 NOSIG=
201908272230 METAR LROP 272230Z 02005KT CAVOK 22/14 Q1021 NOSIG=
201908272300 METAR LROP 272300Z 03003KT CAVOK 22/14 Q1021 NOSIG=
201908272330 METAR LROP 272330Z 03004KT CAVOK 22/14 Q1021 NOSIG=
201908280000 METAR LROP 280000Z 04003KT CAVOK 21/14 Q1021 NOSIG=
201908280030 METAR LROP 280030Z 02003KT CAVOK 21/14 Q1021 NOSIG=
201908280100 METAR LROP 280100Z 02004KT CAVOK 21/14 Q1021 NOSIG=
201908280130 METAR LROP 280130Z 36004KT CAVOK 20/13 Q1021 NOSIG=
201908280200 METAR LROP 280200Z 35004KT CAVOK 20/14 Q1021 NOSIG=
201908280230 METAR LROP 280230Z 35004KT CAVOK 20/13 Q1021 R88/CLRD// NOSIG=
201908280300 METAR LROP 280300Z 01003KT CAVOK 20/13 Q1021 R88/CLRD// NOSIG=
201908280330 METAR LROP 280330Z 02004KT CAVOK 19/13 Q1021 NOSIG=
201908280400 METAR LROP 280400Z 35003KT 330V040 CAVOK 19/13 Q1022 NOSIG=
201908280430 METAR LROP 280430Z 36004KT CAVOK 21/13 Q1022 NOSIG=
201908280500 METAR LROP 280500Z 36004KT 340V040 CAVOK 21/14 Q1022 NOSIG=
201908280530 METAR LROP 280530Z 02005KT CAVOK 23/13 Q1022 NOSIG=
201908280600 METAR LROP 280600Z 06006KT 040V100 CAVOK 23/13 Q1022 NOSIG=
201908280630 METAR LROP 280630Z 08006KT 040V100 CAVOK 25/13 Q1022 NOSIG=
201908280700 METAR LROP 280700Z 07006KT 040V110 CAVOK 26/13 Q1022 NOSIG=
201908280730 METAR LROP 280730Z 08006KT 050V110 CAVOK 27/13 Q1022 NOSIG=
201908280800 METAR LROP 280800Z 07005KT 040V110 CAVOK 28/14 Q1022 NOSIG=
201908280830 METAR LROP 280830Z 07006KT 040V130 CAVOK 30/12 Q1022 NOSIG=
201908280900 METAR LROP 280900Z 07005KT 040V130 CAVOK 31/12 Q1022 NOSIG=
201908280930 METAR LROP 280930Z VRB04KT CAVOK 31/11 Q1021 NOSIG=
201908281000 METAR LROP 281000Z 04004KT 350V090 CAVOK 31/10 Q1021 NOSIG=
201908281030 METAR LROP 281030Z 06008KT CAVOK 32/10 Q1021 NOSIG=
201908281100 METAR LROP 281100Z 09007KT CAVOK 32/11 Q1020 NOSIG=
201908281130 METAR LROP 281130Z 07008KT 050V110 CAVOK 33/10 Q1020 NOSIG=
201908281200 METAR LROP 281200Z 14007KT CAVOK 33/10 Q1020 NOSIG=
201908281230 METAR LROP 281230Z 09006KT 040V130 CAVOK 33/09 Q1019 NOSIG=
201908281300 METAR LROP 281300Z 04006KT 360V080 CAVOK 33/10 Q1019 NOSIG=
201908281330 METAR LROP 281330Z 11006KT 060V160 CAVOK 33/09 Q1019 NOSIG=
201908281400 METAR LROP 281400Z 05005KT 020V090 CAVOK 32/08 Q1019 NOSIG=
201908281430 METAR LROP 281430Z 06009KT CAVOK 33/09 Q1019 NOSIG=
201908281500 METAR LROP 281500Z 09010KT CAVOK 32/10 Q1019 NOSIG=
201908281530 METAR LROP 281530Z 09010KT CAVOK 32/10 Q1019 NOSIG=
201908281600 METAR LROP 281600Z 08007KT CAVOK 31/09 Q1019 NOSIG=
201908281630 METAR LROP 281630Z 07004KT CAVOK 30/10 Q1019 NOSIG=
201908281700 METAR LROP 281700Z 06004KT CAVOK 28/13 Q1019 NOSIG=
201908281730 METAR LROP 281730Z 06004KT CAVOK 26/12 Q1019 NOSIG=
201908281800 METAR LROP 281800Z 06004KT CAVOK 24/12 Q1019 NOSIG=
201908281830 METAR LROP 281830Z 08004KT CAVOK 25/11 Q1019 NOSIG=
201908281900 METAR LROP 281900Z 08003KT CAVOK 23/11 Q1019 NOSIG=
201908281930 METAR LROP 281930Z 10005KT CAVOK 22/12 Q1019 NOSIG=
201908282000 METAR LROP 282000Z 13004KT CAVOK 21/13 Q1019 NOSIG=
201908282030 METAR LROP 282030Z 14004KT CAVOK 21/12 Q1019 NOSIG=
201908282100 METAR LROP 282100Z 05004KT CAVOK 21/12 Q1019 NOSIG=
201908282130 METAR LROP 282130Z 02004KT CAVOK 21/11 Q1020 NOSIG=
201908282200 METAR LROP 282200Z 35003KT CAVOK 20/12 Q1020 NOSIG=
201908282230 METAR LROP 282230Z 01006KT CAVOK 21/12 Q1020 NOSIG=
201908282300 METAR LROP 282300Z 01004KT CAVOK 20/12 Q1020 NOSIG=
201908282330 METAR LROP 282330Z 02003KT 340V060 CAVOK 19/13 Q1020 NOSIG=
201908290000 METAR LROP 290000Z VRB02KT CAVOK 19/13 Q1020 NOSIG=
201908290030 METAR LROP 290030Z 01003KT CAVOK 19/13 Q1020 NOSIG=
201908290100 METAR LROP 290100Z 36002KT CAVOK 19/13 Q1020 NOSIG=
201908290130 METAR LROP 290130Z VRB02KT CAVOK 19/13 Q1020 NOSIG=
201908290200 METAR LROP 290200Z VRB02KT CAVOK 18/14 Q1020 NOSIG=
201908290230 METAR LROP 290230Z 34001KT CAVOK 17/13 Q1020 NOSIG=
201908290300 METAR LROP 290300Z 03003KT CAVOK 18/13 Q1020 NOSIG=
201908290330 METAR LROP 290330Z 01004KT 330V040 CAVOK 17/14 Q1020 NOSIG=
201908290400 METAR LROP 290400Z 35005KT CAVOK 17/14 Q1020 NOSIG=
201908290430 METAR LROP 290430Z 36005KT 320V030 CAVOK 19/14 Q1020 NOSIG=
201908290500 METAR LROP 290500Z 01004KT CAVOK 20/14 Q1020 NOSIG=
201908290530 METAR LROP 290530Z 07003KT CAVOK 21/14 Q1020 NOSIG=
201908290600 METAR LROP 290600Z 09004KT CAVOK 22/14 Q1020 NOSIG=
201908290630 METAR LROP 290630Z 07003KT 040V110 CAVOK 23/14 Q1020 NOSIG=
201908290700 METAR LROP 290700Z 08005KT 050V110 CAVOK 25/14 Q1020 NOSIG=
201908290730 METAR LROP 290730Z 11005KT 080V140 CAVOK 26/14 Q1020 NOSIG=
201908290800 METAR LROP 290800Z 10005KT 070V140 CAVOK 27/12 Q1020 NOSIG=
201908290830 METAR LROP 290830Z 09004KT 050V190 CAVOK 28/12 Q1020 NOSIG=
201908290900 METAR LROP 290900Z 11005KT 050V180 CAVOK 29/11 Q1020 NOSIG=
201908290930 METAR LROP 290930Z VRB03KT CAVOK 30/11 Q1020 NOSIG=
201908291000 METAR LROP 291000Z VRB04KT CAVOK 31/10 Q1019 NOSIG=
201908291030 METAR LROP 291030Z 10006KT CAVOK 31/09 Q1019 NOSIG=
201908291100 METAR LROP 291100Z 04004KT 320V100 CAVOK 31/10 Q1019 NOSIG=
201908291130 METAR COR LROP 291130Z 06006KT 030V110 CAVOK 32/10 Q1019
                        NOSIG=
201908291200 METAR LROP 291200Z 15005KT 090V210 CAVOK 32/09 Q1019 NOSIG=
201908291230 METAR LROP 291230Z 08009KT CAVOK 33/10 Q1018 NOSIG=
201908291300 METAR LROP 291300Z 10009KT CAVOK 32/10 Q1018 NOSIG=
201908291330 METAR LROP 291330Z VRB09KT CAVOK 33/10 Q1018 NOSIG=
201908291400 METAR LROP 291400Z VRB04KT CAVOK 32/09 Q1018 NOSIG=
201908291430 METAR LROP 291430Z 08008KT 040V110 CAVOK 32/09 Q1018 NOSIG=
201908291500 METAR LROP 291500Z 06004KT 010V100 CAVOK 32/09 Q1017 NOSIG=
201908291530 METAR LROP 291530Z VRB03KT CAVOK 31/10 Q1017 NOSIG=
201908291600 METAR LROP 291600Z 11006KT CAVOK 30/10 Q1017 NOSIG=
201908291630 METAR LROP 291630Z 11005KT CAVOK 27/12 Q1017 NOSIG=
201908291700 METAR LROP 291700Z 08003KT CAVOK 27/11 Q1017 NOSIG=
201908291730 METAR LROP 291730Z 08004KT CAVOK 26/12 Q1017 NOSIG=
201908291800 METAR LROP 291800Z 10004KT CAVOK 24/14 Q1017 NOSIG=
201908291830 METAR LROP 291830Z 12006KT CAVOK 23/15 Q1017 NOSIG=
201908291900 METAR LROP 291900Z 17003KT 140V200 CAVOK 24/12 Q1018 NOSIG=
201908291930 METAR LROP 291930Z VRB02KT CAVOK 23/12 Q1018 NOSIG=
201908292000 METAR LROP 292000Z 35001KT CAVOK 23/13 Q1018 NOSIG=
201908292030 METAR LROP 292030Z 36003KT CAVOK 22/15 Q1018 NOSIG=
201908292100 METAR LROP 292100Z 33001KT CAVOK 21/14 Q1018 NOSIG=
201908292130 METAR LROP 292130Z 11006KT CAVOK 21/15 Q1018 NOSIG=
201908292200 METAR LROP 292200Z 03003KT 350V090 CAVOK 21/14 Q1018 NOSIG=
201908292230 METAR LROP 292230Z VRB02KT CAVOK 20/13 Q1018 NOSIG=
201908292300 METAR LROP 292300Z 01003KT 340V080 CAVOK 19/15 Q1018 NOSIG=
201908292330 METAR LROP 292330Z VRB02KT CAVOK 19/14 Q1018 NOSIG=
201908300000 METAR LROP 300000Z 35002KT CAVOK 19/14 Q1018 NOSIG=
201908300030 METAR LROP 300030Z VRB01KT CAVOK 20/14 Q1018 NOSIG=
201908300100 METAR LROP 300100Z 05003KT 360V090 CAVOK 19/14 Q1018 NOSIG=
201908300130 METAR LROP 300130Z 04005KT CAVOK 18/14 Q1018 NOSIG=
201908300200 METAR LROP 300200Z 04004KT CAVOK 18/13 Q1018 NOSIG=
201908300230 METAR LROP 300230Z 03004KT CAVOK 18/13 Q1018 NOSIG=
201908300300 METAR LROP 300300Z 03005KT CAVOK 18/13 Q1018 NOSIG=
201908300330 METAR LROP 300330Z 03005KT CAVOK 18/13 Q1019 NOSIG=
201908300400 METAR LROP 300400Z 05006KT CAVOK 18/13 Q1019 NOSIG=
201908300430 METAR LROP 300430Z 07006KT CAVOK 19/14 Q1019 NOSIG=
201908300500 METAR LROP 300500Z 04006KT CAVOK 20/14 Q1019 NOSIG=
201908300530 METAR LROP 300530Z 04006KT CAVOK 21/15 Q1019 NOSIG=
201908300600 METAR LROP 300600Z 06008KT CAVOK 22/15 Q1019 NOSIG=
201908300630 METAR LROP 300630Z 08006KT CAVOK 23/16 Q1020 NOSIG=
201908300700 METAR LROP 300700Z 07006KT CAVOK 24/17 Q1020 NOSIG=
201908300730 METAR LROP 300730Z 08007KT 050V110 CAVOK 26/17 Q1020 NOSIG=
201908300800 METAR LROP 300800Z 08009KT CAVOK 27/16 Q1020 NOSIG=
201908300830 METAR LROP 300830Z 08008KT 050V110 CAVOK 28/15 Q1020 NOSIG=
201908300900 METAR LROP 300900Z 06007KT 030V090 CAVOK 28/15 Q1020 NOSIG=
201908300930 METAR LROP 300930Z 07006KT 030V110 CAVOK 29/14 Q1020 NOSIG=
201908301000 METAR LROP 301000Z 09005KT 030V130 CAVOK 29/14 Q1020 NOSIG=
201908301030 METAR LROP 301030Z 08007KT 050V120 CAVOK 31/12 Q1019 NOSIG=
201908301100 METAR LROP 301100Z 16004KT 090V210 CAVOK 30/12 Q1019 NOSIG=
201908301130 METAR LROP 301130Z 04009KT CAVOK 31/13 Q1019 NOSIG=
201908301200 METAR LROP 301200Z 07008KT CAVOK 31/12 Q1019 NOSIG=
201908301230 METAR LROP 301230Z 09006KT 020V160 CAVOK 31/12 Q1018 NOSIG=
201908301300 METAR LROP 301300Z 10008KT CAVOK 31/12 Q1018 NOSIG=
201908301330 METAR LROP 301330Z 08008KT CAVOK 32/11 Q1018 NOSIG=
201908301400 METAR LROP 301400Z 08006KT 030V100 CAVOK 31/11 Q1018 NOSIG=
201908301430 METAR LROP 301430Z 08008KT 020V100 CAVOK 31/11 Q1017 NOSIG=
201908301500 METAR LROP 301500Z 05005KT 360V130 CAVOK 31/12 Q1018 NOSIG=
201908301530 METAR LROP 301530Z 08006KT CAVOK 30/12 Q1017 NOSIG=
201908301600 METAR LROP 301600Z 05004KT 360V080 CAVOK 29/16 Q1017 NOSIG=
201908301630 METAR LROP 301630Z 08004KT CAVOK 29/12 Q1018 NOSIG=
201908301700 METAR LROP 301700Z 08004KT CAVOK 28/14 Q1018 NOSIG=
201908301730 METAR LROP 301730Z 08004KT CAVOK 25/14 Q1018 NOSIG=
201908301800 METAR LROP 301800Z 08004KT CAVOK 24/14 Q1018 NOSIG=
201908301830 METAR LROP 301830Z 09004KT CAVOK 23/14 Q1018 NOSIG=
201908301900 METAR LROP 301900Z 11005KT CAVOK 22/15 Q1019 NOSIG=
201908301930 METAR LROP 301930Z 12005KT CAVOK 22/14 Q1019 NOSIG=
201908302000 METAR LROP 302000Z 12006KT CAVOK 23/14 Q1019 NOSIG=
201908302030 METAR LROP 302030Z 13005KT CAVOK 22/14 Q1019 NOSIG=
201908302100 METAR LROP 302100Z 11004KT CAVOK 21/14 Q1019 NOSIG=
201908302130 METAR LROP 302130Z 10003KT CAVOK 21/15 Q1019 NOSIG=
201908302200 METAR LROP 302200Z 10005KT CAVOK 20/15 Q1019 NOSIG=
201908302230 METAR LROP 302230Z 03004KT CAVOK 20/14 Q1019 NOSIG=
201908302300 METAR LROP 302300Z 04004KT CAVOK 20/14 Q1019 NOSIG=
201908302330 METAR LROP 302330Z 04004KT CAVOK 19/14 Q1019 NOSIG=
201908310000 METAR LROP 310000Z 05005KT CAVOK 19/14 Q1019 NOSIG=
201908310030 METAR LROP 310030Z 03003KT 340V080 CAVOK 18/14 Q1019 NOSIG=
201908310100 METAR LROP 310100Z 02003KT CAVOK 18/14 Q1019 NOSIG=
201908310130 METAR LROP 310130Z 36003KT CAVOK 18/13 Q1019 NOSIG=
201908310200 METAR LROP 310200Z 01003KT 330V030 CAVOK 18/13 Q1019 NOSIG=
201908310230 METAR LROP 310230Z 01003KT 340V040 CAVOK 18/13 Q1019 NOSIG=
201908310300 METAR LROP 310300Z 04003KT CAVOK 17/13 Q1019 NOSIG=
201908310330 METAR LROP 310330Z 07003KT CAVOK 17/13 Q1019 NOSIG=
201908310400 METAR LROP 310400Z 06003KT CAVOK 17/13 Q1019 NOSIG=
201908310430 METAR LROP 310430Z 03004KT 360V090 CAVOK 17/14 Q1019 NOSIG=
201908310500 METAR LROP 310500Z 02003KT 350V060 CAVOK 19/15 Q1019 NOSIG=
201908310530 METAR LROP 310530Z 03004KT CAVOK 21/14 Q1020 NOSIG=
201908310600 METAR LROP 310600Z 05004KT CAVOK 22/14 Q1020 NOSIG=
201908310630 METAR LROP 310630Z 03005KT CAVOK 24/12 Q1020 NOSIG=
201908310700 METAR LROP 310700Z 07005KT CAVOK 25/09 Q1020=
201908310730 METAR LROP 310730Z 09006KT 050V110 CAVOK 26/09 Q1020 NOSIG=
201908310800 METAR LROP 310800Z 08007KT 040V120 CAVOK 26/08 Q1020 NOSIG=
201908310830 METAR LROP 310830Z 06007KT 030V100 CAVOK 27/07 Q1020 NOSIG=
201908310900 METAR LROP 310900Z 09008KT 040V110 CAVOK 28/06 Q1019 NOSIG=
201908310930 METAR LROP 310930Z 06009KT 020V090 CAVOK 29/07 Q1019 NOSIG=
201908311000 METAR COR LROP 311000Z 09011KT CAVOK 29/07 Q1019 NOSIG=
201908311030 METAR LROP 311030Z 07011KT CAVOK 29/06 Q1019 NOSIG=
201908311100 METAR LROP 311100Z 06010KT 030V100 CAVOK 30/06 Q1019 NOSIG=
201908311130 METAR LROP 311130Z 07010KT CAVOK 30/06 Q1018 NOSIG=
201908311200 METAR LROP 311200Z 08010KT CAVOK 31/06 Q1018 NOSIG=
201908311230 METAR LROP 311230Z 06012KT CAVOK 30/05 Q1018 NOSIG=
201908311300 METAR LROP 311300Z 07014KT CAVOK 31/04 Q1017 NOSIG=
201908311330 METAR LROP 311330Z 06013KT CAVOK 30/03 Q1017 NOSIG=
201908311400 METAR LROP 311400Z 07013KT CAVOK 30/03 Q1017 NOSIG=
201908311430 METAR LROP 311430Z 08013KT CAVOK 30/02 Q1017 NOSIG=
201908311500 METAR LROP 311500Z 07011KT CAVOK 30/02 Q1017 NOSIG=
201908311530 METAR LROP 311530Z 09009KT CAVOK 30/02 Q1016 NOSIG=
201908311600 METAR LROP 311600Z 08009KT CAVOK 28/03 Q1016 NOSIG=
201908311630 METAR LROP 311630Z 09008KT CAVOK 27/03 Q1016 NOSIG=
201908311700 METAR COR LROP 311700Z 10004KT CAVOK 22/07 Q1017 NOSIG=
201908311730 METAR LROP 311730Z 10004KT CAVOK 22/07 Q1017 NOSIG=
201908311800 METAR LROP 311800Z 08003KT CAVOK 22/05 Q1017 NOSIG=
201908311830 METAR LROP 311830Z 06002KT CAVOK 22/05 Q1017 NOSIG=
201908311900 METAR LROP 311900Z 07003KT CAVOK 21/05 Q1017 NOSIG=
201908311930 METAR LROP 311930Z VRB02KT CAVOK 19/06 Q1017 NOSIG=
201908312000 METAR LROP 312000Z 01001KT CAVOK 19/06 Q1017 NOSIG=
201908312030 METAR LROP 312030Z 01003KT CAVOK 19/07 Q1017 NOSIG=
201908312100 METAR LROP 312100Z 06001KT CAVOK 19/08 Q1017 NOSIG=
201908312130 METAR LROP 312130Z 01003KT CAVOK 18/08 Q1017 NOSIG=
201908312200 METAR LROP 312200Z 36004KT CAVOK 18/08 Q1017 NOSIG=
201908312230 METAR LROP 312230Z 34003KT 310V010 CAVOK 17/10 Q1017 NOSIG=
201908312300 METAR LROP 312300Z VRB02KT CAVOK 17/09 Q1017 NOSIG=
201908312330 METAR LROP 312330Z VRB02KT CAVOK 16/10 Q1017 NOSIG=
