201910010000 METAR LROP 010000Z 25003KT CAVOK 14/11 Q1009 NOSIG=
201910010030 METAR LROP 010030Z 23007KT CAVOK 15/11 Q1010 NOSIG=
201910010100 METAR LROP 010100Z 27007KT CAVOK 15/11 Q1010 NOSIG=
201910010130 METAR LROP 010130Z 35007KT CAVOK 14/11 Q1010 NOSIG=
201910010200 METAR LROP 010200Z VRB01KT CAVOK 14/11 Q1011 NOSIG=
201910010230 METAR LROP 010230Z 30003KT 270V340 CAVOK 12/10 Q1011 NOSIG=
201910010300 METAR LROP 010300Z 31003KT 230V350 CAVOK 13/11 Q1011 NOSIG=
201910010330 METAR LROP 010330Z 35002KT CAVOK 13/11 Q1012 NOSIG=
201910010400 METAR LROP 010400Z VRB02KT CAVOK 13/11 Q1012 NOSIG=
201910010430 METAR LROP 010430Z 27004KT CAVOK 12/11 Q1012 NOSIG=
201910010500 METAR LROP 010500Z 28004KT CAVOK 14/11 Q1012 NOSIG=
201910010530 METAR LROP 010530Z 01004KT CAVOK 15/12 Q1013 NOSIG=
201910010600 METAR LROP 010600Z 32005KT 290V360 CAVOK 17/13 Q1013 NOSIG=
201910010630 METAR LROP 010630Z 33003KT 270V040 CAVOK 20/13 Q1013 NOSIG=
201910010700 METAR LROP 010700Z 36004KT 330V050 CAVOK 22/09 Q1014 NOSIG=
201910010730 METAR LROP 010730Z 03003KT 350V080 CAVOK 22/08 Q1014 NOSIG=
201910010800 METAR LROP 010800Z 10006KT 060V130 CAVOK 23/10 Q1014 NOSIG=
201910010830 METAR LROP 010830Z 08007KT 050V130 CAVOK 23/08 Q1015 NOSIG=
201910010900 METAR LROP 010900Z 09006KT 040V130 CAVOK 24/08 Q1015 NOSIG=
201910010930 METAR LROP 010930Z 14006KT 110V170 CAVOK 25/10 Q1014 NOSIG=
201910011000 METAR LROP 011000Z 12006KT 100V170 CAVOK 25/09 Q1014 NOSIG=
201910011030 METAR LROP 011030Z 17006KT 130V210 CAVOK 26/09 Q1014 NOSIG=
201910011100 METAR LROP 011100Z 11004KT 080V170 CAVOK 26/08 Q1014 NOSIG=
201910011130 METAR LROP 011130Z 18005KT 140V230 CAVOK 26/08 Q1014 NOSIG=
201910011200 METAR LROP 011200Z 21005KT 120V270 CAVOK 26/08 Q1013 NOSIG=
201910011230 METAR LROP 011230Z 18008KT CAVOK 27/08 Q1013 NOSIG=
201910011300 METAR LROP 011300Z 13005KT 090V160 CAVOK 27/07 Q1013 NOSIG=
201910011330 METAR LROP 011330Z 19004KT 140V240 CAVOK 27/07 Q1012 NOSIG=
201910011400 METAR LROP 011400Z 13004KT 090V160 CAVOK 27/07 Q1012 NOSIG=
201910011430 METAR LROP 011430Z 12007KT CAVOK 26/07 Q1012 NOSIG=
201910011500 METAR LROP 011500Z 12006KT CAVOK 25/07 Q1012 NOSIG=
201910011530 METAR LROP 011530Z 11007KT CAVOK 23/09 Q1012 NOSIG=
201910011600 METAR LROP 011600Z 11005KT CAVOK 21/09 Q1012 NOSIG=
201910011630 METAR LROP 011630Z 12005KT CAVOK 19/10 Q1012 NOSIG=
201910011700 METAR LROP 011700Z 13005KT 100V170 CAVOK 19/09 Q1012 NOSIG=
201910011730 METAR LROP 011730Z 13004KT CAVOK 17/10 Q1012 NOSIG=
201910011800 METAR LROP 011800Z 14005KT CAVOK 18/10 Q1012 NOSIG=
201910011830 METAR LROP 011830Z 14006KT CAVOK 18/09 Q1013 NOSIG=
201910011900 METAR LROP 011900Z 13005KT CAVOK 18/09 Q1013 NOSIG=
201910011930 METAR LROP 011930Z 13007KT CAVOK 18/12 Q1012 NOSIG=
201910012000 METAR LROP 012000Z 13006KT CAVOK 18/13 Q1012 NOSIG=
201910012030 METAR LROP 012030Z 14006KT CAVOK 18/13 Q1012 NOSIG=
201910012100 METAR LROP 012100Z 04003KT 360V090 CAVOK 16/12 Q1013 NOSIG=
201910012130 METAR LROP 012130Z 01005KT CAVOK 16/13 Q1013 NOSIG=
201910012200 METAR LROP 012200Z 04005KT CAVOK 15/12 Q1013 NOSIG=
201910012230 METAR LROP 012230Z 36004KT 330V030 CAVOK 15/12 Q1013 NOSIG=
201910012300 METAR LROP 012300Z 01004KT CAVOK 14/12 Q1013 NOSIG=
201910012330 METAR LROP 012330Z 03004KT 360V060 CAVOK 14/12 Q1013 NOSIG=
201910020000 METAR LROP 020000Z 03004KT 350V070 CAVOK 13/11 Q1012 NOSIG=
201910020030 METAR LROP 020030Z 04003KT 360V070 CAVOK 13/11 Q1012 NOSIG=
201910020100 METAR LROP 020100Z 04003KT 010V070 CAVOK 13/11 Q1012 NOSIG=
201910020130 METAR LROP 020130Z 05003KT 010V100 CAVOK 12/11 Q1012 NOSIG=
201910020200 METAR LROP 020200Z 02004KT CAVOK 13/11 Q1012 NOSIG=
201910020230 METAR LROP 020230Z 01004KT CAVOK 13/11 Q1012 NOSIG=
201910020300 METAR LROP 020300Z 04006KT CAVOK 12/11 Q1011 NOSIG=
201910020330 METAR LROP 020330Z 04006KT CAVOK 13/11 Q1011 NOSIG=
201910020400 METAR LROP 020400Z 02007KT CAVOK 13/11 Q1011 NOSIG=
201910020430 METAR LROP 020430Z 05006KT CAVOK 12/11 Q1011 NOSIG=
201910020500 METAR LROP 020500Z 03006KT CAVOK 12/11 Q1011 NOSIG=
201910020530 METAR LROP 020530Z 02006KT CAVOK 13/12 Q1011 NOSIG=
201910020600 METAR LROP 020600Z 05005KT CAVOK 14/12 Q1011 NOSIG=
201910020630 METAR LROP 020630Z 04006KT CAVOK 15/12 Q1011 NOSIG=
201910020700 METAR LROP 020700Z 06006KT CAVOK 16/13 Q1011 NOSIG=
201910020730 METAR LROP 020730Z 04005KT CAVOK 17/13 Q1011 NOSIG=
201910020800 METAR LROP 020800Z 06006KT CAVOK 19/14 Q1011 NOSIG=
201910020830 METAR LROP 020830Z 06006KT CAVOK 20/14 Q1011 NOSIG=
201910020900 METAR LROP 020900Z 08006KT 040V110 CAVOK 22/15 Q1010 NOSIG=
201910020930 METAR LROP 020930Z 08005KT 030V120 CAVOK 23/15 Q1010 NOSIG=
201910021000 METAR LROP 021000Z 05004KT 320V130 CAVOK 24/15 Q1010 NOSIG=
201910021030 METAR LROP 021030Z 14004KT 040V190 CAVOK 25/15 Q1009 NOSIG=
201910021100 METAR LROP 021100Z VRB04KT CAVOK 26/13 Q1009 NOSIG=
201910021130 METAR COR LROP 021130Z 17003KT 090V250 CAVOK 27/13 Q1009
                        NOSIG=
201910021200 METAR LROP 021200Z 21003KT 140V300 CAVOK 27/13 Q1008 NOSIG=
201910021230 METAR LROP 021230Z VRB02KT CAVOK 28/12 Q1008 NOSIG=
201910021300 METAR LROP 021300Z 14004KT 060V190 CAVOK 28/13 Q1008 NOSIG=
201910021330 METAR LROP 021330Z 21003KT 120V290 CAVOK 29/13 Q1007 NOSIG=
201910021400 METAR LROP 021400Z VRB01KT CAVOK 29/13 Q1007 NOSIG=
201910021430 METAR LROP 021430Z 36003KT 330V030 CAVOK 28/12 Q1007 NOSIG=
201910021500 METAR LROP 021500Z VRB02KT CAVOK 26/13 Q1007 NOSIG=
201910021530 METAR LROP 021530Z 01003KT CAVOK 26/12 Q1007 NOSIG=
201910021600 METAR LROP 021600Z 36004KT CAVOK 25/12 Q1007 NOSIG=
201910021630 METAR LROP 021630Z 36003KT CAVOK 25/13 Q1007 NOSIG=
201910021700 METAR LROP 021700Z 36003KT CAVOK 24/13 Q1007 NOSIG=
201910021730 METAR LROP 021730Z 36004KT CAVOK 23/13 Q1007 NOSIG=
201910021800 METAR LROP 021800Z 05003KT 010V070 CAVOK 22/13 Q1007 NOSIG=
201910021830 METAR LROP 021830Z 09003KT CAVOK 21/13 Q1006 NOSIG=
201910021900 METAR LROP 021900Z 02003KT 350V070 CAVOK 20/14 Q1007 NOSIG=
201910021930 METAR LROP 021930Z 15003KT CAVOK 19/14 Q1007 NOSIG=
201910022000 METAR LROP 022000Z 20003KT 150V220 CAVOK 18/14 Q1007 NOSIG=
201910022030 METAR LROP 022030Z 21004KT 160V240 CAVOK 18/14 Q1007 NOSIG=
201910022100 METAR LROP 022100Z 18003KT 130V240 CAVOK 17/14 Q1007 NOSIG=
201910022130 METAR LROP 022130Z 13005KT 110V180 CAVOK 17/13 Q1006 NOSIG=
201910022200 METAR LROP 022200Z VRB02KT CAVOK 18/12 Q1006 NOSIG=
201910022230 METAR LROP 022230Z 01005KT CAVOK 18/12 Q1006 NOSIG=
201910022300 METAR LROP 022300Z 04004KT CAVOK 17/12 Q1006 NOSIG=
201910022330 METAR LROP 022330Z 04003KT 340V080 CAVOK 17/12 Q1006 NOSIG=
201910030000 METAR LROP 030000Z 05004KT 020V090 CAVOK 16/12 Q1006 NOSIG=
201910030030 METAR LROP 030030Z 05005KT 360V070 CAVOK 15/12 Q1006 NOSIG=
201910030100 METAR LROP 030100Z 04004KT 360V070 CAVOK 15/12 Q1005 NOSIG=
201910030130 METAR LROP 030130Z 05004KT 350V070 CAVOK 14/12 Q1005 NOSIG=
201910030200 METAR LROP 030200Z 04005KT 020V080 CAVOK 14/12 Q1005 NOSIG=
201910030230 METAR LROP 030230Z 05005KT 350V100 CAVOK 14/12 Q1005 TEMPO
                        VRB15KT 5000 -SHRA SCT035CB=
201910030300 METAR LROP 030300Z 05003KT 320V090 CAVOK 14/12 Q1005 TEMPO
                        VRB15KT 5000 -SHRA SCT035CB=
201910030330 METAR LROP 030330Z 02004KT 9999 -RA SCT048 15/13 Q1006 WS
                        ALL RWY TEMPO VRB15KT 5000 -SHRA
                        SCT035CB=
201910030400 METAR LROP 030400Z 09007KT 010V130 9999 FEW024 FEW050CB 15/13
                        Q1005 WS ALL RWY R88/29//95 BECMG
                        NSW=
201910030430 METAR LROP 030430Z 02006KT 9999 FEW050CB 15/13 Q1005 WS ALL
                        RWY R88/29//95 BECMG NSW=
201910030500 METAR LROP 030500Z 04004KT 9999 FEW050CB 15/13 Q1005 WS ALL
                        RWY R88/29//95 BECMG NSW=
201910030530 METAR LROP 030530Z 01004KT 9999 FEW050CB 15/13 Q1006 R88/29//95
                        NOSIG=
201910030600 METAR LROP 030600Z 05006KT CAVOK 16/14 Q1006 R88/15//95 NOSIG=
201910030630 METAR LROP 030630Z 09003KT 050V110 CAVOK 17/14 Q1006 R88/15//95
                        NOSIG=
201910030700 METAR LROP 030700Z 07004KT CAVOK 17/14 Q1006 R88/15//95 NOSIG=
201910030730 METAR LROP 030730Z VRB01KT CAVOK 19/14 Q1006 R88/15//95 NOSIG=
201910030800 METAR LROP 030800Z 08003KT 020V150 CAVOK 21/15 Q1006 R88/15//95
                        NOSIG=
201910030830 METAR LROP 030830Z 11004KT 060V150 CAVOK 22/14 Q1006 R88/15//95
                        NOSIG=
201910030900 METAR LROP 030900Z 08006KT 050V120 CAVOK 23/15 Q1005 R88/CLRD//
                        NOSIG=
201910030930 METAR LROP 030930Z 11004KT 060V210 CAVOK 24/15 Q1006 NOSIG=
201910031000 METAR LROP 031000Z 18003KT 100V260 CAVOK 25/14 Q1006 NOSIG=
201910031030 METAR LROP 031030Z VRB02KT CAVOK 26/13 Q1005 NOSIG=
201910031100 METAR LROP 031100Z VRB02KT CAVOK 27/13 Q1005 NOSIG=
201910031130 METAR LROP 031130Z 16003KT 080V210 CAVOK 28/13 Q1005 NOSIG=
201910031200 METAR LROP 031200Z 16005KT 120V180 CAVOK 28/13 Q1005 NOSIG=
201910031230 METAR LROP 031230Z VRB03KT CAVOK 28/12 Q1005 NOSIG=
201910031300 METAR LROP 031300Z 18004KT 130V220 CAVOK 29/12 Q1004 NOSIG=
201910031330 METAR LROP 031330Z 22006KT 200V260 CAVOK 28/11 Q1004 NOSIG=
201910031400 METAR LROP 031400Z 27003KT 220V320 CAVOK 27/11 Q1004 NOSIG=
201910031430 METAR LROP 031430Z 28006KT CAVOK 27/13 Q1004 NOSIG=
201910031500 METAR LROP 031500Z 28004KT CAVOK 26/13 Q1004 NOSIG=
201910031530 METAR LROP 031530Z 31007KT 9999 FEW060CB 24/11 Q1004 TEMPO
                        VRB20G30KT 3000 TSRA BKN010 BKN030CB=
201910031600 METAR LROP 031600Z 32006KT 9999 FEW050CB 23/11 Q1004 TEMPO
                        VRB20G30KT 3000 TSRA BKN010 BKN030CB=
201910031630 METAR LROP 031630Z 29004KT 9999 FEW050CB 22/11 Q1004 TEMPO
                        5000 SHRA SCT040CB=
201910031700 METAR LROP 031700Z 29009KT 240V320 9999 SCT050CB 23/12 Q1005
                        TEMPO 5000 -SHRA=
201910031730 METAR LROP 031730Z 26007KT 9999 -SHRA SCT050CB 23/12 Q1005
                        TEMPO 5000 -SHRA=
201910031800 METAR LROP 031800Z 30008KT 9999 -RA SCT050CB 20/15 Q1005
                        TEMPO 5000 -SHRA=
201910031830 METAR LROP 031830Z 25005KT 9999 -RA FEW050CB 20/15 Q1006
                        NOSIG=
201910031900 METAR LROP 031900Z 26006KT CAVOK 20/14 Q1006 NOSIG=
201910031930 METAR LROP 031930Z 25005KT CAVOK 20/15 Q1006 NOSIG=
201910032000 METAR LROP 032000Z 25006KT CAVOK 19/14 Q1007 NOSIG=
201910032030 METAR LROP 032030Z 25012KT CAVOK 19/15 Q1007 NOSIG=
201910032100 METAR LROP 032100Z 28010KT 9999 -RA FEW050CB 19/16 Q1007
                        NOSIG=
201910032130 METAR LROP 032130Z 29010KT 9999 -RA NSC 18/16 Q1007 R26L/190195
                        NOSIG=
201910032200 METAR LROP 032200Z 27006KT 9999 -RA NSC 18/16 Q1007 R26L/190195
                        NOSIG=
201910032230 METAR LROP 032230Z 03005KT 340V070 9000 -RA SCT017 SCT048
                        FEW050CB 17/16 Q1008 R26L/190195
                        NOSIG=
201910032300 METAR LROP 032300Z 07012KT 7000 -RA BKN014 BKN038 FEW045CB
                        15/14 Q1009 R88/290095 TEMPO 5000
                        SHRA BKN010 SCT035CB OVC040=
201910032330 METAR LROP 032330Z 08011KT 6000 SHRA BKN015 SCT040CB OVC042
                        14/14 Q1009 R88/290095 NOSIG=
201910040000 METAR LROP 040000Z 09010KT 7000 -RA BKN015 FEW040CB OVC049
                        14/14 Q1008 RESHRA R88/290095 NOSIG=
201910040030 METAR LROP 040030Z 10010KT 9999 -RA FEW008 BKN018 FEW050CB
                        14/13 Q1009 R88/290095 NOSIG=
201910040100 METAR LROP 040100Z 10010KT 9999 -RA FEW007 BKN018 FEW050CB
                        13/13 Q1009 R88/290095 NOSIG=
201910040130 METAR LROP 040130Z 11010KT 9999 -RA FEW007 OVC018 13/13 Q1009
                        R88/290095 NOSIG=
201910040200 METAR LROP 040200Z 10010KT 9999 -RA BKN007 OVC023 13/12 Q1010
                        R88/290095 NOSIG=
201910040230 METAR LROP 040230Z 10012KT 7000 -RA BKN007 OVC023 12/12 Q1010
                        R88/290095 TEMPO 5000 -RA BR=
201910040300 METAR LROP 040300Z 10010KT 9999 -RA BKN007 OVC023 FEW050CB
                        12/11 Q1010 R88/290095 NOSIG=
201910040330 METAR LROP 040330Z 10011KT 8000 -RA SCT006 BKN007 BKN020
                        FEW050CB 11/11 Q1010 R88/290095 NOSIG=
201910040400 METAR LROP 040400Z 10013KT 7000 -RA SCT007 BKN008 BKN026
                        FEW050CB 11/11 Q1010 R88/29//95 NOSIG=
201910040430 METAR LROP 040430Z 11011KT 5000 -RA BR BKN005 BKN006 FEW050CB
                        11/11 Q1011 R88/29//95 NOSIG=
201910040500 METAR LROP 040500Z 11011KT 5000 -RA BR BKN005 BKN007 OVC027
                        FEW050CB 11/11 Q1011 R88/29//95 NOSIG=
201910040530 METAR LROP 040530Z 09012KT 5000 -RA BR BKN005 BKN037 FEW050CB
                        11/10 Q1011 R88/29//95 NOSIG=
201910040600 METAR LROP 040600Z 10014KT 4000 +RA BR SCT005 BKN006 OVC022
                        10/10 Q1012 R88/29//95 NOSIG=
201910040630 METAR LROP 040630Z 10013KT 7000 -RA BKN005 BKN018 OVC026
                        10/10 Q1011 R88/29//95 NOSIG=
201910040700 METAR LROP 040700Z 11013KT 9999 -SHRA BKN006 BKN026 FEW045CB
                        10/10 Q1012 R88/29//95 NOSIG=
201910040730 METAR LROP 040730Z 11010KT 9000 -RA BKN007 OVC023 FEW050CB
                        10/10 Q1012 RERA R88/29//95 NOSIG=
201910040800 METAR LROP 040800Z 10011KT 9999 -RA BKN007 BKN023 FEW050CB
                        11/10 Q1012 R88/29//95 NOSIG=
201910040830 METAR LROP 040830Z 10011KT 9999 -RA BKN008 OVC026 FEW050CB
                        11/10 Q1013 R88/29//95 NOSIG=
201910040900 METAR LROP 040900Z 09011KT 9999 -RA BKN009 OVC026 11/10 Q1013
                        R88/29//95 NOSIG=
201910040930 METAR LROP 040930Z 09008KT 8000 -RA FEW006 BKN009 OVC026
                        11/10 Q1013 R88/29//95 NOSIG=
201910041000 METAR LROP 041000Z 10009KT 7000 -RA SCT007 BKN018 OVC026
                        11/10 Q1013 R88/29//95 NOSIG=
201910041030 METAR LROP 041030Z 09009KT 9000 -RA BKN005 OVC026 11/11 Q1013
                        R88/29//95 NOSIG=
201910041100 METAR LROP 041100Z 08012KT 9999 BKN007 OVC026 11/10 Q1012
                        R88/29//95 BECMG SCT015 BKN030=
201910041130 METAR LROP 041130Z 08013KT 9999 -RA BKN010 OVC025 11/10 Q1012
                        R88/29//95 BECMG SCT015 BKN030=
201910041200 METAR LROP 041200Z 09011KT 9999 BKN012 OVC019 11/10 Q1012
                        R88/29//95 BECMG 5000 -SHRA BKN010
                        SCT025CB OVC030=
201910041230 METAR COR LROP 041230Z 09012KT 9999 -SHRA SCT011 BKN020 FEW025CB
                        11/10 Q1012 R88/29//95 TEMPO 5000
                        -SHRA=
201910041300 METAR LROP 041300Z 08010KT 9999 -SHRA BKN010 OVC020 SCT025CB
                        11/10 Q1012 R88/29//95 TEMPO 5000
                        -SHRA=
201910041330 METAR LROP 041330Z 08011KT 9999 -SHRA BKN012 BKN020 SCT025CB
                        11/10 Q1011 R88/29//95 TEMPO 5000
                        -SHRA=
201910041400 METAR LROP 041400Z 09011KT 9999 -RA SCT008 BKN022 BKN035
                        11/10 Q1011 R88/29//95 NOSIG=
201910041430 METAR LROP 041430Z 09011KT 9999 -SHRA FEW009 BKN026 FEW040CB
                        10/10 Q1011 R88/29//95 NOSIG=
201910041500 METAR LROP 041500Z 08012KT 9999 FEW008 BKN024 FEW050CB 10/09
                        Q1010 R88/29//95 NOSIG=
201910041530 METAR LROP 041530Z 09011KT 9999 FEW010 BKN020 10/10 Q1011
                        R88/29//95 NOSIG=
201910041600 METAR LROP 041600Z 07010KT 9999 -RA FEW011 OVC022 10/09 Q1011
                        R88/29//95 NOSIG=
201910041630 METAR LROP 041630Z 09007KT 9999 -RA FEW011 OVC023 10/09 Q1011
                        R88/29//95 NOSIG=
201910041700 METAR LROP 041700Z 08008KT 9999 -RA SCT012 OVC023 10/09 Q1011
                        R88/29//95 BECMG 5000 RA BKN005 OVC020=
201910041730 METAR LROP 041730Z 09006KT 9999 -RA BKN011 OVC023 10/09 Q1012
                        R88/29//95 BECMG 5000 RA BKN005 OVC020=
201910041800 METAR LROP 041800Z 08012KT 9999 -RA SCT010 BKN026 OVC032
                        09/08 Q1012 R88/29//95 BECMG 5000
                        RA BKN005 OVC020=
201910041830 METAR LROP 041830Z 08008KT 9999 -RA OVC025 09/09 Q1012 R88/29//95
                        NOSIG=
201910041900 METAR LROP 041900Z 07008KT 8000 RA SCT006 BKN025 BKN030 09/09
                        Q1012 R88/29//95 NOSIG=
201910041930 METAR LROP 041930Z 07010KT 9999 -RA FEW007 SCT017 09/08 Q1011
                        RERA R88/29//95 NOSIG=
201910042000 METAR LROP 042000Z 06007KT 9999 -RA FEW008 09/08 Q1011 R88/29//95
                        NOSIG=
201910042030 METAR LROP 042030Z 07008KT 9999 -RA SCT007 OVC029 09/08 Q1012
                        R88/29//95 NOSIG=
201910042100 METAR LROP 042100Z 06007KT 9999 -RA FEW007 OVC028 09/08 Q1012
                        R88/29//95 NOSIG=
201910042130 METAR LROP 042130Z 07008KT 9999 FEW007 OVC028 09/08 Q1012
                        R88/29//95 NOSIG=
201910042200 METAR LROP 042200Z 06008KT 9999 FEW007 OVC027 09/08 Q1011
                        R88/29//95 NOSIG=
201910042230 METAR LROP 042230Z 06007KT 9999 BKN027 OVC037 09/08 Q1011
                        R88/29//95 NOSIG=
201910042300 METAR LROP 042300Z 06007KT 9999 OVC039 09/08 Q1011 R88/29//95
                        NOSIG=
201910042330 METAR LROP 042330Z 07007KT 9999 OVC032 09/08 Q1011 R88/29//95
                        NOSIG=
201910050000 METAR LROP 050000Z 06005KT 9999 OVC029 09/08 Q1011 R88/29//95
                        NOSIG=
201910050030 METAR COR LROP 050030Z 05005KT 9999 BKN034 OVC049 09/08 Q1010
                        R88/29//95 NOSIG=
201910050100 METAR LROP 050100Z 08005KT 9999 OVC041 09/08 Q1010 R88/29//95
                        NOSIG=
201910050130 METAR LROP 050130Z 10003KT 9999 -RA OVC040 09/08 Q1010 R88/29//95
                        NOSIG=
201910050200 METAR LROP 050200Z VRB02KT 9999 OVC038 09/08 Q1010 R88/29//95
                        NOSIG=
201910050230 METAR LROP 050230Z VRB02KT 9999 OVC039 09/07 Q1010 R88/29//95
                        NOSIG=
201910050300 METAR LROP 050300Z 00000KT 9999 OVC038 09/08 Q1010 R88/19//95
                        NOSIG=
201910050330 METAR LROP 050330Z 25003KT 9999 BKN034 09/08 Q1010 R88/19//95
                        NOSIG=
201910050400 METAR LROP 050400Z 30003KT 9999 BKN031 08/08 Q1010 R88/19//95
                        NOSIG=
201910050430 METAR LROP 050430Z 26003KT 9999 SCT028 08/08 Q1010 R88/19//95
                        NOSIG=
201910050500 METAR LROP 050500Z 24003KT 9999 SCT029 09/08 Q1010 R88/19//95
                        NOSIG=
201910050530 METAR LROP 050530Z 23003KT 9999 BKN022 09/09 Q1011 R88/19//95
                        NOSIG=
201910050600 METAR LROP 050600Z 26005KT 9999 OVC022 09/09 Q1011 R88/19//95
                        NOSIG=
201910050630 METAR LROP 050630Z 26006KT 9999 OVC023 10/09 Q1011 R88/19//95
                        NOSIG=
201910050700 METAR LROP 050700Z 25004KT 9999 OVC023 10/08 Q1011 R88/19//95
                        NOSIG=
201910050730 METAR LROP 050730Z 26004KT 9999 FEW024 OVC039 11/09 Q1011
                        R88/19//95 NOSIG=
201910050800 METAR LROP 050800Z 24005KT 200V260 9999 OVC035 11/09 Q1011
                        R88/19//95 NOSIG=
201910050830 METAR LROP 050830Z 20005KT 170V250 9999 OVC024 11/09 Q1011
                        R88/19//95 TEMPO BKN010 BKN025=
201910050900 METAR COR LROP 050900Z 24005KT 9999 FEW014 OVC025 11/09 Q1011
                        R88/CLRD// TEMPO BKN010 BKN025=
201910050930 METAR LROP 050930Z 25006KT 9999 BKN015 OVC024 12/09 Q1011
                        R88/CLRD// TEMPO BKN010 BKN020=
201910051000 METAR LROP 051000Z 28005KT 230V310 9999 OVC014 12/09 Q1011
                        BECMG SCT015 BKN030=
201910051030 METAR LROP 051030Z 27008KT 240V300 9999 BKN014 OVC029 13/10
                        Q1010 BECMG SCT015 BKN030=
201910051100 METAR LROP 051100Z 26007KT 9999 FEW015 SCT018 OVC032 13/09
                        Q1010 NOSIG=
201910051130 METAR LROP 051130Z 27008KT 9999 BKN019 OVC030 14/09 Q1010
                        NOSIG=
201910051200 METAR LROP 051200Z 25010KT 9999 BKN023 OVC038 14/09 Q1010
                        NOSIG=
201910051230 METAR LROP 051230Z 25009KT 9999 SCT019 BKN038 14/10 Q1010
                        NOSIG=
201910051300 METAR LROP 051300Z 27009KT 9999 SCT018 BKN039 13/09 Q1010
                        NOSIG=
201910051330 METAR LROP 051330Z 26008KT 9999 BKN020 13/10 Q1010 NOSIG=
201910051400 METAR LROP 051400Z 26007KT 9999 SCT022 13/10 Q1010 NOSIG=
201910051430 METAR LROP 051430Z 24007KT 9999 SCT024 13/09 Q1010 NOSIG=
201910051500 METAR LROP 051500Z 22005KT 9999 BKN022 13/10 Q1010 NOSIG=
201910051530 METAR LROP 051530Z 23005KT 9999 BKN022 12/10 Q1010 NOSIG=
201910051600 METAR LROP 051600Z 25003KT 9999 SCT022 12/10 Q1010 NOSIG=
201910051630 METAR LROP 051630Z 25004KT CAVOK 11/10 Q1010 NOSIG=
201910051700 METAR LROP 051700Z 22004KT CAVOK 11/10 Q1010 NOSIG=
201910051730 METAR LROP 051730Z 24005KT 9999 FEW020 11/11 Q1010 NOSIG=
201910051800 METAR LROP 051800Z 23006KT CAVOK 11/10 Q1010 NOSIG=
201910051830 METAR LROP 051830Z 24005KT CAVOK 11/10 Q1010 NOSIG=
201910051900 METAR LROP 051900Z 25005KT CAVOK 11/10 Q1011 NOSIG=
201910051930 METAR LROP 051930Z 25005KT CAVOK 10/10 Q1011 NOSIG=
201910052000 METAR LROP 052000Z 25005KT CAVOK 10/10 Q1011 NOSIG=
201910052030 METAR LROP 052030Z 25004KT 8000 NSC 10/10 Q1010 NOSIG=
201910052100 METAR LROP 052100Z 25005KT 7000 NSC 10/10 Q1010 NOSIG=
201910052130 METAR LROP 052130Z 27005KT 7000 NSC 10/10 Q1010 TEMPO 5000
                        BR=
201910052200 METAR LROP 052200Z 28004KT 5000 BR NSC 09/09 Q1010 TEMPO
                        5000 BR=
201910052230 METAR LROP 052230Z 26004KT 5000 BR NSC 09/09 Q1010 NOSIG=
201910052300 METAR LROP 052300Z 26005KT 5000 BR NSC 09/09 Q1010 NOSIG=
201910052330 METAR LROP 052330Z 26005KT 5000 BR NSC 09/09 Q1010 TEMPO
                        3000 BR=
201910060000 METAR LROP 060000Z 27005KT 5000 BR NSC 09/09 Q1010 TEMPO
                        3000 BR=
201910060030 METAR LROP 060030Z 26005KT 5000 BR NSC 09/09 Q1010 NOSIG=
201910060100 METAR LROP 060100Z 26006KT 5000 BR NSC 09/09 Q1010 NOSIG=
201910060130 METAR LROP 060130Z 28004KT 5000 BR NSC 09/09 Q1010 NOSIG=
201910060200 METAR LROP 060200Z 28004KT 5000 BR NSC 09/09 Q1010 NOSIG=
201910060230 METAR LROP 060230Z 28005KT 4000 BR NSC 08/08 Q1010 BECMG
                        1500 BR=
201910060300 METAR LROP 060300Z 28005KT 3000 BR NSC 08/08 Q1009 TEMPO
                        1500 BR=
201910060330 METAR LROP 060330Z 31003KT 4000 0750NE PRFG BR NSC 07/07
                        Q1009 TEMPO 1500 BR=
201910060400 METAR LROP 060400Z 02003KT 350V060 1500 R08R/P2000 R26L/P2000
                        R08L/P2000 R26R/1000N PRFG BR NSC
                        08/08 Q1009 TEMPO 1500 BR=
201910060430 METAR LROP 060430Z 05003KT 2000 R08R/P2000 R26L/P2000 R08L/P2000
                        R26R/1000D PRFG BR NSC 08/08 Q1009
                        NOSIG=
201910060500 METAR LROP 060500Z 00000KT 3000 R08R/P2000 R26L/P2000 R08L/P2000
                        R26R/0900D PRFG BR NSC 08/08 Q1010
                        NOSIG=
201910060530 METAR LROP 060530Z 22003KT 5000 BR NSC 09/09 Q1010 NOSIG=
201910060600 METAR LROP 060600Z VRB01KT 6000 NSC 10/10 Q1010 NOSIG=
201910060630 METAR LROP 060630Z VRB01KT 8000 NSC 10/10 Q1010 NOSIG=
201910060700 METAR LROP 060700Z 02004KT CAVOK 10/09 Q1010 NOSIG=
201910060730 METAR LROP 060730Z VRB01KT 9999 SCT010 11/09 Q1011 NOSIG=
201910060800 METAR LROP 060800Z 12002KT 9999 -RA SCT010 11/10 Q1010 NOSIG=
201910060830 METAR LROP 060830Z 20003KT 170V250 9999 -RA FEW010 12/10
                        Q1011 R88/19//95 NOSIG=
201910060900 METAR LROP 060900Z 22004KT 7000 SCT008 13/11 Q1010 R88/19//95
                        NOSIG=
201910060930 METAR LROP 060930Z 25004KT 200V300 9999 FEW010 14/11 Q1010
                        R88/19//95 NOSIG=
201910061000 METAR LROP 061000Z 27005KT 240V300 9999 FEW015 15/11 Q1010
                        R88/19//95 NOSIG=
201910061030 METAR LROP 061030Z 26007KT 230V310 9999 BKN018 SCT024 14/11
                        Q1010 R88/19//95 NOSIG=
201910061100 METAR LROP 061100Z 26009KT 9999 BKN019 SCT025 16/10 Q1010
                        R88/CLRD// NOSIG=
201910061130 METAR LROP 061130Z 27007KT 9999 SCT028 SCT035 16/10 Q1010
                        NOSIG=
201910061200 METAR LROP 061200Z 29011KT 9999 SCT034 17/09 Q1010 NOSIG=
201910061230 METAR LROP 061230Z 27013KT 9999 BKN035 16/09 Q1010 NOSIG=
201910061300 METAR LROP 061300Z 26009KT 9999 FEW035 17/10 Q1010 NOSIG=
201910061330 METAR LROP 061330Z 30008KT 260V320 9999 SCT038CB SCT045 16/07
                        Q1010 NOSIG=
201910061400 METAR LROP 061400Z 36005KT 330V030 9999 VCSH SCT038CB BKN041
                        16/09 Q1010 R88/19//95 NOSIG=
201910061430 METAR COR LROP 061430Z 01009KT 9999 VCSH SCT040CB BKN048
                        14/10 Q1010 R08R/19//95 R08L/29//96
                        TEMPO 5000 SHRA=
201910061500 METAR LROP 061500Z 34002KT 6000 -SHRA SCT038CB BKN039 13/11
                        Q1011 RETS R08R/19//95 R08L/29//95
                        NOSIG=
201910061530 METAR LROP 061530Z 02004KT 9999 VCSH FEW040CB 13/11 Q1011
                        R08R/19//95 R08L/29//95 NOSIG=
201910061600 METAR LROP 061600Z 01004KT 9999 -SHRA FEW060CB 12/11 Q1011
                        R08R/19//95 R08L/29//95 NOSIG=
201910061630 METAR LROP 061630Z 00000KT 9999 -SHRA FEW055CB 11/11 Q1012
                        R08R/19//95 R08L/29//95 NOSIG=
201910061700 METAR LROP 061700Z VRB01KT 9999 FEW051CB 11/11 Q1012 R08R/19//95
                        R08L/29//95 BECMG NSC=
201910061730 METAR LROP 061730Z 16003KT CAVOK 11/11 Q1012 R08R/19//95
                        R08L/29//95 BECMG NSC=
201910061800 METAR COR LROP 061800Z 19001KT 9999 BKN047 11/11 Q1012 R08R/19//95
                        R08L/29//95 NOSIG=
201910061830 METAR LROP 061830Z 11003KT 080V140 9999 FEW020 OVC048 11/11
                        Q1013 R08R/19//95 R08L/29//95 NOSIG=
201910061900 METAR LROP 061900Z 12002KT 9999 FEW023 11/11 Q1013 R08R/19//95
                        R08L/29//95 NOSIG=
201910061930 METAR LROP 061930Z 09004KT CAVOK 11/11 Q1013 R08R/19//95
                        R08L/29//95 NOSIG=
201910062000 METAR LROP 062000Z 09005KT 9999 FEW028 11/11 Q1013 R08R/19//95
                        R08L/29//95 NOSIG=
201910062030 METAR COR LROP 062030Z 09005KT 9999 FEW026 SCT031 11/10 Q1013
                        R88/19//95 BECMG BKN010 SCT030=
201910062100 METAR LROP 062100Z 09007KT 9000 SCT010 BKN027 11/10 Q1014
                        R88/19//95 TEMPO BKN010 BKN025=
201910062130 METAR LROP 062130Z 08011KT 9999 FEW010 BKN027 10/09 Q1013
                        R88/19//95 TEMPO BKN010 BKN025=
201910062200 METAR LROP 062200Z 09009KT 9999 FEW011 SCT026 10/09 Q1013
                        R88/19//95 NOSIG=
201910062230 METAR LROP 062230Z 09010KT 9999 SCT011 09/08 Q1013 R88/19//95
                        NOSIG=
201910062300 METAR LROP 062300Z 09008KT 9999 FEW010 BKN027 09/08 Q1014
                        R88/19//95 NOSIG=
201910062330 METAR LROP 062330Z 09008KT 9999 OVC028 09/08 Q1014 R88/19//95
                        NOSIG=
201910070000 METAR LROP 070000Z 10008KT 9999 OVC028 09/08 Q1014 R88/19//95
                        NOSIG=
201910070030 METAR LROP 070030Z 09009KT 9999 OVC027 09/07 Q1014 R88/19//95
                        NOSIG=
201910070100 METAR LROP 070100Z 10008KT 9999 OVC026 09/07 Q1014 R88/19//95
                        NOSIG=
201910070130 METAR LROP 070130Z 09010KT 9999 -DZ OVC025 09/07 Q1014 R88/19//95
                        NOSIG=
201910070200 METAR LROP 070200Z 10008KT 9999 OVC029 08/07 Q1014 R88/19//95
                        NOSIG=
201910070230 METAR LROP 070230Z 09006KT 9999 OVC024 08/07 Q1014 R88/19//95
                        NOSIG=
201910070300 METAR LROP 070300Z 11007KT 9999 -RA OVC026 08/07 Q1015 R88/19//95
                        NOSIG=
201910070330 METAR LROP 070330Z 11008KT 9999 -RA OVC026 08/07 Q1014 R88/19//95
                        NOSIG=
201910070400 METAR LROP 070400Z 10008KT 9999 -RA OVC026 08/07 Q1015 R88/19//95
                        NOSIG=
201910070430 METAR LROP 070430Z 10007KT 9000 -RA OVC028 07/07 Q1014 R88/19//95
                        NOSIG=
201910070500 METAR LROP 070500Z 10008KT 9999 -RA OVC031 07/07 Q1015 R88/19//95
                        NOSIG=
201910070530 METAR LROP 070530Z 10008KT 9999 OVC036 07/06 Q1015 R88/19//95
                        NOSIG=
201910070600 METAR LROP 070600Z 08009KT 9999 OVC037 08/06 Q1015 R88/19//95
                        NOSIG=
201910070630 METAR LROP 070630Z 08009KT 9999 OVC038 08/06 Q1015 R88/19//95
                        NOSIG=
201910070700 METAR LROP 070700Z 08010KT 9999 OVC040 08/06 Q1016 R88/19//95
                        NOSIG=
201910070730 METAR LROP 070730Z 08010KT 9999 OVC042 09/06 Q1016 R88/19//95
                        NOSIG=
201910070800 METAR LROP 070800Z 07010KT 9999 FEW015 OVC041 09/07 Q1016
                        R88/19//95 NOSIG=
201910070830 METAR LROP 070830Z 09009KT 9999 FEW017 OVC041 10/06 Q1016
                        R88/19//95 NOSIG=
201910070900 METAR LROP 070900Z 07010KT 9999 FEW018 OVC041 10/06 Q1017
                        R88/19//95 NOSIG=
201910070930 METAR LROP 070930Z 07010KT 9999 FEW019 OVC041 10/06 Q1016
                        R88/19//95 NOSIG=
201910071000 METAR LROP 071000Z 06010KT 9999 FEW020 BKN041 11/06 Q1016
                        R88/19//95 NOSIG=
201910071030 METAR LROP 071030Z 08009KT 9999 FEW021 BKN042 11/06 Q1016
                        R88/19//95 NOSIG=
201910071100 METAR LROP 071100Z 09008KT 9999 BKN023 OVC042 11/06 Q1016
                        R88/19//95 NOSIG=
201910071130 METAR LROP 071130Z 07009KT 9999 BKN024 OVC044 11/06 Q1016
                        R88/CLRD// NOSIG=
201910071200 METAR LROP 071200Z 07009KT 9999 SCT024 OVC046 12/06 Q1016
                        R88/CLRD// NOSIG=
201910071230 METAR LROP 071230Z 08008KT 9999 SCT026 OVC048 12/06 Q1016
                        NOSIG=
201910071300 METAR LROP 071300Z 09009KT 9999 SCT027 11/05 Q1016 NOSIG=
201910071330 METAR LROP 071330Z 08008KT 9999 SCT029 11/06 Q1016 NOSIG=
201910071400 METAR LROP 071400Z 08007KT 9999 SCT030 11/06 Q1017 NOSIG=
201910071430 METAR LROP 071430Z 09006KT 9999 SCT030 11/06 Q1017 NOSIG=
201910071500 METAR LROP 071500Z 08005KT 9999 SCT030 11/06 Q1017 NOSIG=
201910071530 METAR LROP 071530Z 06004KT 020V080 9999 BKN030 11/06 Q1017
                        NOSIG=
201910071600 METAR LROP 071600Z 06005KT 010V090 9999 BKN029 BKN049 10/06
                        Q1018 NOSIG=
201910071630 METAR LROP 071630Z 06005KT 9999 SCT030 BKN049 10/06 Q1018
                        NOSIG=
201910071700 METAR LROP 071700Z 07004KT 040V110 9999 SCT042 10/06 Q1018
                        NOSIG=
201910071730 METAR LROP 071730Z 07005KT 9999 SCT043 09/06 Q1019 NOSIG=
201910071800 METAR LROP 071800Z 04003KT 010V070 CAVOK 10/06 Q1019 NOSIG=
201910071830 METAR LROP 071830Z 05003KT 020V080 CAVOK 09/06 Q1019 NOSIG=
201910071900 METAR LROP 071900Z 05003KT 010V090 CAVOK 09/06 Q1019 NOSIG=
201910071930 METAR LROP 071930Z VRB02KT CAVOK 08/05 Q1019 NOSIG=
201910072000 METAR LROP 072000Z 04003KT 010V080 CAVOK 08/06 Q1019 NOSIG=
201910072030 METAR LROP 072030Z 04005KT CAVOK 07/05 Q1019 NOSIG=
201910072100 METAR LROP 072100Z 06005KT 020V080 CAVOK 07/05 Q1020 NOSIG=
201910072130 METAR LROP 072130Z 08006KT CAVOK 07/05 Q1020 NOSIG=
201910072200 METAR LROP 072200Z 06005KT 010V090 CAVOK 07/05 Q1020 NOSIG=
201910072230 METAR LROP 072230Z 06005KT 030V090 CAVOK 07/05 Q1020 NOSIG=
201910072300 METAR LROP 072300Z 05005KT 010V080 CAVOK 08/05 Q1021 NOSIG=
201910072330 METAR LROP 072330Z 07005KT CAVOK 07/05 Q1021 NOSIG=
201910080000 METAR LROP 080000Z 08006KT CAVOK 07/05 Q1021 NOSIG=
201910080030 METAR LROP 080030Z 08006KT CAVOK 07/05 Q1021 NOSIG=
201910080100 METAR LROP 080100Z 06006KT CAVOK 07/05 Q1021 NOSIG=
201910080130 METAR LROP 080130Z 06008KT CAVOK 07/05 Q1022 NOSIG=
201910080200 METAR LROP 080200Z 06008KT CAVOK 07/04 Q1022 NOSIG=
201910080230 METAR LROP 080230Z 06009KT CAVOK 07/04 Q1022 NOSIG=
201910080300 METAR LROP 080300Z 06008KT CAVOK 07/04 Q1022 NOSIG=
201910080330 METAR LROP 080330Z 06009KT CAVOK 07/04 Q1022 NOSIG=
201910080400 METAR LROP 080400Z 07009KT CAVOK 07/04 Q1022 NOSIG=
201910080430 METAR LROP 080430Z 06008KT CAVOK 07/04 Q1023 NOSIG=
201910080500 METAR LROP 080500Z 05009KT CAVOK 07/03 Q1023 NOSIG=
201910080530 METAR LROP 080530Z 07008KT CAVOK 07/03 Q1023 NOSIG=
201910080600 METAR LROP 080600Z 06009KT CAVOK 07/03 Q1024 NOSIG=
201910080630 METAR LROP 080630Z 06009KT CAVOK 08/03 Q1024 NOSIG=
201910080700 METAR LROP 080700Z 05009KT CAVOK 08/03 Q1025 NOSIG=
201910080730 METAR LROP 080730Z 06009KT CAVOK 09/03 Q1025 NOSIG=
201910080800 METAR LROP 080800Z 05007KT CAVOK 09/03 Q1025 NOSIG=
201910080830 METAR LROP 080830Z 05005KT CAVOK 09/03 Q1025 NOSIG=
201910080900 METAR LROP 080900Z 03006KT CAVOK 11/04 Q1025 NOSIG=
201910080930 METAR LROP 080930Z 04005KT 360V080 CAVOK 12/04 Q1025 NOSIG=
201910081000 METAR LROP 081000Z VRB03KT CAVOK 12/03 Q1024 NOSIG=
201910081030 METAR LROP 081030Z VRB02KT CAVOK 12/02 Q1024 NOSIG=
201910081100 METAR LROP 081100Z 14003KT 060V190 CAVOK 13/02 Q1024 NOSIG=
201910081130 METAR LROP 081130Z VRB04KT CAVOK 14/03 Q1024 NOSIG=
201910081200 METAR LROP 081200Z VRB03KT CAVOK 14/02 Q1023 NOSIG=
201910081230 METAR LROP 081230Z 30005KT 230V360 CAVOK 14/02 Q1023 NOSIG=
201910081300 METAR LROP 081300Z 32005KT 290V360 CAVOK 15/02 Q1023 NOSIG=
201910081330 METAR LROP 081330Z 17004KT CAVOK 15/02 Q1023 NOSIG=
201910081400 METAR LROP 081400Z VRB02KT CAVOK 14/02 Q1023 NOSIG=
201910081430 METAR LROP 081430Z 31004KT CAVOK 14/02 Q1023 NOSIG=
201910081500 METAR LROP 081500Z VRB01KT CAVOK 13/03 Q1023 NOSIG=
201910081530 METAR LROP 081530Z 35003KT CAVOK 12/04 Q1024 NOSIG=
201910081600 METAR LROP 081600Z 03002KT CAVOK 10/04 Q1024 NOSIG=
201910081630 METAR LROP 081630Z VRB02KT CAVOK 09/05 Q1024 NOSIG=
201910081700 METAR LROP 081700Z 04001KT CAVOK 09/05 Q1024 NOSIG=
201910081730 METAR LROP 081730Z 00000KT CAVOK 09/05 Q1024 NOSIG=
201910081800 METAR LROP 081800Z 00000KT CAVOK 08/05 Q1024 NOSIG=
201910081830 METAR LROP 081830Z VRB01KT CAVOK 07/06 Q1025 NOSIG=
201910081900 METAR LROP 081900Z 00000KT CAVOK 07/06 Q1025 NOSIG=
201910081930 METAR LROP 081930Z VRB02KT CAVOK 07/06 Q1025 NOSIG=
201910082000 METAR LROP 082000Z VRB01KT CAVOK 07/05 Q1025 NOSIG=
201910082030 METAR LROP 082030Z 00000KT CAVOK 06/05 Q1025 NOSIG=
201910082100 METAR LROP 082100Z VRB01KT CAVOK 06/05 Q1025 NOSIG=
201910082130 METAR LROP 082130Z 33001KT CAVOK 05/05 Q1024 NOSIG=
201910082200 METAR LROP 082200Z 36003KT CAVOK 06/05 Q1024 NOSIG=
201910082230 METAR LROP 082230Z VRB02KT CAVOK 05/05 Q1024 NOSIG=
201910082300 METAR LROP 082300Z 32004KT CAVOK 05/04 Q1024 NOSIG=
201910082330 METAR LROP 082330Z VRB02KT CAVOK 05/04 Q1024 NOSIG=
201910090000 METAR LROP 090000Z 27003KT 8000 NSC 05/04 Q1023 NOSIG=
201910090030 METAR LROP 090030Z 29002KT 8000 NSC 05/04 Q1023 NOSIG=
201910090100 METAR LROP 090100Z 26003KT 7000 NSC 04/04 Q1023 NOSIG=
201910090130 METAR LROP 090130Z 26003KT 7000 NSC 04/03 Q1022 NOSIG=
201910090200 METAR LROP 090200Z 19002KT 7000 NSC 03/03 Q1022 NOSIG=
201910090230 METAR LROP 090230Z 26002KT 7000 MIFG NSC 04/04 Q1022 NOSIG=
201910090300 METAR LROP 090300Z 28002KT 7000 NSC 03/03 Q1022 NOSIG=
201910090330 METAR LROP 090330Z VRB01KT 7000 NSC 04/03 Q1022 NOSIG=
201910090400 METAR LROP 090400Z 23003KT 6000 NSC 03/03 Q1022 NOSIG=
201910090430 METAR LROP 090430Z 24003KT 5000 BR NSC 03/03 Q1022 NOSIG=
201910090500 METAR LROP 090500Z 22002KT 5000 BR NSC 04/04 Q1022 NOSIG=
201910090530 METAR LROP 090530Z 22003KT 6000 NSC 06/05 Q1022 NOSIG=
201910090600 METAR LROP 090600Z 26004KT 8000 NSC 08/06 Q1022 NOSIG=
201910090630 METAR LROP 090630Z 26004KT CAVOK 10/07 Q1022 NOSIG=
201910090700 METAR LROP 090700Z 26003KT CAVOK 12/06 Q1022 NOSIG=
201910090730 METAR LROP 090730Z 25004KT 210V280 CAVOK 14/05 Q1022 NOSIG=
201910090800 METAR LROP 090800Z 22005KT 190V250 CAVOK 15/05 Q1022 NOSIG=
201910090830 METAR LROP 090830Z 22006KT 190V250 CAVOK 16/05 Q1022 NOSIG=
201910090900 METAR LROP 090900Z 24006KT 210V290 CAVOK 16/05 Q1022 NOSIG=
201910090930 METAR LROP 090930Z 26007KT CAVOK 17/05 Q1022 NOSIG=
201910091000 METAR LROP 091000Z 25007KT 210V290 CAVOK 18/06 Q1021 NOSIG=
201910091030 METAR LROP 091030Z 27009KT CAVOK 19/07 Q1021 NOSIG=
201910091100 METAR COR LROP 091100Z 28011KT CAVOK 20/07 Q1020 NOSIG=
201910091130 METAR LROP 091130Z 26009KT 230V290 CAVOK 20/07 Q1020 NOSIG=
201910091200 METAR LROP 091200Z 26010KT CAVOK 20/08 Q1019 NOSIG=
201910091230 METAR LROP 091230Z 24010KT CAVOK 21/07 Q1019 NOSIG=
201910091300 METAR LROP 091300Z 26009KT CAVOK 21/07 Q1019 NOSIG=
201910091330 METAR LROP 091330Z 25008KT CAVOK 21/07 Q1018 NOSIG=
201910091400 METAR LROP 091400Z 27008KT CAVOK 20/07 Q1018 NOSIG=
201910091430 METAR LROP 091430Z 26008KT CAVOK 20/07 Q1018 NOSIG=
201910091500 METAR LROP 091500Z 26008KT CAVOK 18/08 Q1018 NOSIG=
201910091530 METAR LROP 091530Z 25004KT CAVOK 17/10 Q1018 NOSIG=
201910091600 METAR LROP 091600Z 23005KT CAVOK 15/10 Q1018 NOSIG=
201910091630 METAR LROP 091630Z 23005KT CAVOK 14/09 Q1018 NOSIG=
201910091700 METAR LROP 091700Z 24004KT CAVOK 13/09 Q1018 NOSIG=
201910091730 METAR LROP 091730Z 24003KT CAVOK 12/09 Q1018 NOSIG=
201910091800 METAR LROP 091800Z 25002KT CAVOK 12/09 Q1017 NOSIG=
201910091830 METAR LROP 091830Z 27002KT CAVOK 11/09 Q1017 NOSIG=
201910091900 METAR LROP 091900Z 27003KT CAVOK 11/09 Q1017 NOSIG=
201910091930 METAR LROP 091930Z 27004KT CAVOK 11/09 Q1017 NOSIG=
201910092000 METAR LROP 092000Z 26004KT CAVOK 10/09 Q1017 NOSIG=
201910092030 METAR LROP 092030Z 29003KT 260V320 CAVOK 10/09 Q1016 NOSIG=
201910092100 METAR LROP 092100Z 23003KT CAVOK 09/08 Q1016 NOSIG=
201910092130 METAR LROP 092130Z 19004KT 9000 NSC 09/08 Q1016 NOSIG=
201910092200 METAR LROP 092200Z 26004KT 9000 NSC 08/08 Q1016 TEMPO 5000
                        BR=
201910092230 METAR LROP 092230Z 25003KT 8000 NSC 08/07 Q1016 TEMPO 5000
                        BR=
201910092300 METAR LROP 092300Z 27004KT 7000 NSC 08/08 Q1016 TEMPO 5000
                        BR=
201910092330 METAR LROP 092330Z 29004KT 6000 NSC 08/07 Q1016 TEMPO 5000
                        BR=
201910100000 METAR LROP 100000Z 31003KT 7000 NSC 08/07 Q1015 TEMPO 5000
                        BR=
201910100030 METAR LROP 100030Z 28004KT 7000 NSC 08/07 Q1015 TEMPO 5000
                        BR=
201910100100 METAR LROP 100100Z 27005KT 7000 NSC 08/07 Q1015 TEMPO 5000
                        BR=
201910100130 METAR LROP 100130Z 25004KT 6000 NSC 08/07 Q1015 TEMPO 5000
                        BR=
201910100200 METAR LROP 100200Z 27004KT 7000 NSC 07/07 Q1015 TEMPO 5000
                        BR=
201910100230 METAR LROP 100230Z 26003KT 6000 NSC 07/06 Q1015 TEMPO 5000
                        BR=
201910100300 METAR LROP 100300Z 26005KT 6000 NSC 07/07 Q1015 TEMPO 5000
                        BR=
201910100330 METAR LROP 100330Z 25004KT 7000 NSC 07/07 Q1015 TEMPO 5000
                        BR=
201910100400 METAR LROP 100400Z 25004KT 7000 NSC 07/07 Q1014 TEMPO 5000
                        BR=
201910100430 METAR COR LROP 100430Z 26004KT 5000 BR NSC 07/07 Q1015 TEMPO
                        3000 BR=
201910100500 METAR LROP 100500Z 25005KT 7000 NSC 07/07 Q1015 NOSIG=
201910100530 METAR LROP 100530Z 25004KT 8000 NSC 09/08 Q1015 NOSIG=
201910100600 METAR LROP 100600Z 25006KT CAVOK 11/08 Q1015 NOSIG=
201910100630 METAR LROP 100630Z 26005KT CAVOK 13/09 Q1015 NOSIG=
201910100700 METAR LROP 100700Z 25006KT CAVOK 15/09 Q1016 NOSIG=
201910100730 METAR LROP 100730Z 26008KT CAVOK 17/09 Q1016 NOSIG=
201910100800 METAR LROP 100800Z 27011KT CAVOK 18/09 Q1016 NOSIG=
201910100830 METAR LROP 100830Z 26012KT CAVOK 19/07 Q1016 NOSIG=
201910100900 METAR LROP 100900Z 26011KT CAVOK 20/08 Q1016 NOSIG=
201910100930 METAR LROP 100930Z 28011KT CAVOK 21/08 Q1016 NOSIG=
201910101000 METAR LROP 101000Z 26009KT CAVOK 22/08 Q1015 NOSIG=
201910101030 METAR LROP 101030Z 28010KT 240V310 CAVOK 22/08 Q1015 NOSIG=
201910101100 METAR LROP 101100Z 27010KT CAVOK 23/08 Q1015 NOSIG=
201910101130 METAR LROP 101130Z 28009KT CAVOK 23/08 Q1014 NOSIG=
201910101200 METAR LROP 101200Z 28010KT CAVOK 24/07 Q1014 NOSIG=
201910101230 METAR LROP 101230Z 27009KT 240V300 CAVOK 25/08 Q1014 NOSIG=
201910101300 METAR LROP 101300Z 28008KT 260V320 CAVOK 25/06 Q1014 NOSIG=
201910101330 METAR LROP 101330Z 27008KT CAVOK 25/06 Q1013 NOSIG=
201910101400 METAR LROP 101400Z 27009KT CAVOK 25/07 Q1013 NOSIG=
201910101430 METAR LROP 101430Z 26010KT CAVOK 24/07 Q1013 NOSIG=
201910101500 METAR LROP 101500Z 27008KT CAVOK 23/08 Q1014 NOSIG=
201910101530 METAR LROP 101530Z 27006KT CAVOK 22/09 Q1014 NOSIG=
201910101600 METAR LROP 101600Z 27006KT CAVOK 20/08 Q1014 NOSIG=
201910101630 METAR LROP 101630Z 28005KT CAVOK 18/10 Q1014 NOSIG=
201910101700 METAR LROP 101700Z 29005KT CAVOK 18/10 Q1014 NOSIG=
201910101730 METAR COR LROP 101730Z 26006KT CAVOK 16/10 Q1014 NOSIG=
201910101800 METAR LROP 101800Z 25003KT CAVOK 16/11 Q1014 NOSIG=
201910101830 METAR LROP 101830Z 28004KT CAVOK 16/11 Q1014 NOSIG=
201910101900 METAR LROP 101900Z 27003KT CAVOK 16/10 Q1014 NOSIG=
201910101930 METAR LROP 101930Z 28004KT CAVOK 16/10 Q1015 NOSIG=
201910102000 METAR LROP 102000Z 26005KT CAVOK 16/10 Q1015 BECMG 32012KT
                        SCT035CB=
201910102030 METAR COR LROP 102030Z 32010KT 9999 -SHRA FEW060CB 17/11
                        Q1016 R08R/29//95 TEMPO 5000 SHRA=
201910102100 METAR LROP 102100Z 31010KT 6000 SHRA SCT060CB 16/14 Q1017
                        R08R/29//95 TEMPO 5000 SHRA=
201910102130 METAR LROP 102130Z 29005KT 260V340 9999 -SHRA SCT060CB 15/15
                        Q1017 RERA R88/29//95 NOSIG=
201910102200 METAR LROP 102200Z 27004KT 8000 SHRA SCT060CB 15/15 Q1017
                        RERA R88/29//95 NOSIG=
201910102230 METAR LROP 102230Z 23002KT 6000 SHRA SCT060CB 15/15 Q1017
                        R88/29//95 NOSIG=
201910102300 METAR LROP 102300Z 25004KT 7000 -SHRA FEW054CB 15/15 Q1017
                        RERA R88/29//95 NOSIG=
201910102330 METAR LROP 102330Z 27003KT 8000 -SHRA FEW055CB 15/15 Q1017
                        R88/29//95 NOSIG=
201910110000 METAR LROP 110000Z 29004KT 6000 -RA BKN008 14/14 Q1017 R88/29//95
                        NOSIG=
201910110030 METAR LROP 110030Z 30004KT 260V360 6000 SCT004 SCT042 14/14
                        Q1018 R88/29//95 NOSIG=
201910110100 METAR LROP 110100Z 25003KT 5000 -RA BR SCT006 BKN040 15/15
                        Q1018 R88/29//95 NOSIG=
201910110130 METAR LROP 110130Z 31001KT 5000 BR SCT042 14/14 Q1018 R88/29//95
                        NOSIG=
201910110200 METAR LROP 110200Z 28003KT 270V330 6000 FEW043 BKN047 14/14
                        Q1019 R88/29//95 NOSIG=
201910110230 METAR LROP 110230Z 22003KT 5000 BR OVC046 14/14 Q1019 R88/29//95
                        NOSIG=
201910110300 METAR LROP 110300Z 27003KT 5000 BR SCT045 14/14 Q1019 R88/29//95
                        TEMPO 3000 BR=
201910110330 METAR COR LROP 110330Z 27004KT 0400 R08R/0700N R26L/0650
                        R08L/1500 R26R/0700 FG BKN002 13/13
                        Q1020 R88/29//95 TEMPO 0800=
201910110400 METAR LROP 110400Z 29003KT 270V340 9999 MIFG FEW003 13/13
                        Q1020 R88/29//95 NOSIG=
201910110430 METAR LROP 110430Z 27004KT 240V300 CAVOK 13/13 Q1021 R88/29//95
                        NOSIG=
201910110500 METAR LROP 110500Z 28004KT CAVOK 12/12 Q1021 R88/29//95 NOSIG=
201910110530 METAR LROP 110530Z 30004KT 280V340 CAVOK 12/12 Q1022 R88/29//95
                        NOSIG=
201910110600 METAR LROP 110600Z 31003KT 280V350 CAVOK 13/13 Q1022 R08R/190095
                        R08L/290095 NOSIG=
201910110630 METAR LROP 110630Z 31003KT 280V360 CAVOK 14/13 Q1022 R08R/190095
                        R08L/290095 NOSIG=
201910110700 METAR LROP 110700Z VRB02KT CAVOK 16/13 Q1023 R08R/190095
                        NOSIG=
201910110730 METAR LROP 110730Z 36005KT 330V030 CAVOK 17/09 Q1023 R08R/190095
                        NOSIG=
201910110800 METAR LROP 110800Z 35003KT 270V030 CAVOK 18/08 Q1024 R88/CLRD//
                        NOSIG=
201910110830 METAR LROP 110830Z 35005KT 280V030 CAVOK 18/05 Q1024 R88/CLRD//
                        NOSIG=
201910110900 METAR LROP 110900Z 36005KT 320V030 CAVOK 19/06 Q1024 NOSIG=
201910110930 METAR LROP 110930Z VRB03KT CAVOK 20/06 Q1024 NOSIG=
201910111000 METAR LROP 111000Z 21003KT 160V280 CAVOK 20/06 Q1024 NOSIG=
201910111030 METAR LROP 111030Z VRB04KT CAVOK 21/06 Q1024 NOSIG=
201910111100 METAR LROP 111100Z 27005KT 220V310 CAVOK 20/05 Q1023 NOSIG=
201910111130 METAR LROP 111130Z 23006KT 190V250 CAVOK 21/06 Q1023 NOSIG=
201910111200 METAR LROP 111200Z 25008KT 210V270 CAVOK 21/06 Q1023 NOSIG=
201910111230 METAR LROP 111230Z 30006KT 250V320 CAVOK 21/07 Q1023 NOSIG=
201910111300 METAR LROP 111300Z 27007KT 240V310 CAVOK 21/06 Q1023 NOSIG=
201910111330 METAR LROP 111330Z 30005KT 250V350 CAVOK 21/07 Q1023 NOSIG=
201910111400 METAR LROP 111400Z 26005KT 240V300 CAVOK 21/06 Q1023 NOSIG=
201910111430 METAR LROP 111430Z 29006KT 260V320 CAVOK 20/05 Q1023 NOSIG=
201910111500 METAR LROP 111500Z 28004KT CAVOK 18/05 Q1023 NOSIG=
201910111530 METAR LROP 111530Z VRB02KT CAVOK 18/05 Q1024 NOSIG=
201910111600 METAR LROP 111600Z 12002KT CAVOK 17/07 Q1024 NOSIG=
201910111630 METAR LROP 111630Z 17002KT CAVOK 15/08 Q1024 NOSIG=
201910111700 METAR LROP 111700Z 19002KT CAVOK 14/10 Q1024 NOSIG=
201910111730 METAR LROP 111730Z 19002KT CAVOK 14/10 Q1024 NOSIG=
201910111800 METAR LROP 111800Z 07006KT CAVOK 15/08 Q1025 NOSIG=
201910111830 METAR LROP 111830Z 10005KT CAVOK 13/08 Q1025 NOSIG=
201910111900 METAR LROP 111900Z 12002KT CAVOK 11/07 Q1025 NOSIG=
201910111930 METAR LROP 111930Z 12003KT CAVOK 11/07 Q1025 NOSIG=
201910112000 METAR LROP 112000Z 08004KT CAVOK 12/07 Q1025 NOSIG=
201910112030 METAR LROP 112030Z 04003KT 020V080 CAVOK 12/07 Q1025 NOSIG=
201910112100 METAR LROP 112100Z 04004KT 010V070 CAVOK 12/06 Q1026 NOSIG=
201910112130 METAR LROP 112130Z 03004KT CAVOK 11/07 Q1026 NOSIG=
201910112200 METAR LROP 112200Z 01004KT CAVOK 10/07 Q1026 NOSIG=
201910112230 METAR LROP 112230Z VRB02KT CAVOK 10/07 Q1026 NOSIG=
201910112300 METAR LROP 112300Z 01004KT CAVOK 09/07 Q1026 NOSIG=
201910112330 METAR LROP 112330Z 36006KT CAVOK 09/07 Q1026 NOSIG=
201910120000 METAR LROP 120000Z 03004KT CAVOK 09/07 Q1026 NOSIG=
201910120030 METAR LROP 120030Z 01004KT CAVOK 08/06 Q1025 NOSIG=
201910120100 METAR LROP 120100Z 00000KT CAVOK 07/06 Q1025 NOSIG=
201910120130 METAR LROP 120130Z VRB01KT CAVOK 07/06 Q1026 NOSIG=
201910120200 METAR LROP 120200Z 00000KT CAVOK 07/06 Q1026 NOSIG=
201910120230 METAR LROP 120230Z VRB01KT CAVOK 06/06 Q1026 NOSIG=
201910120300 METAR LROP 120300Z 28003KT 240V300 CAVOK 06/06 Q1026 NOSIG=
201910120330 METAR LROP 120330Z 29004KT CAVOK 06/06 Q1026 NOSIG=
201910120400 METAR LROP 120400Z VRB02KT CAVOK 06/06 Q1026 NOSIG=
201910120430 METAR LROP 120430Z 21002KT CAVOK 05/05 Q1026 NOSIG=
201910120500 METAR LROP 120500Z 29003KT CAVOK 06/06 Q1026 NOSIG=
201910120530 METAR LROP 120530Z 25003KT CAVOK 08/06 Q1026 NOSIG=
201910120600 METAR LROP 120600Z 28003KT CAVOK 10/07 Q1026 NOSIG=
201910120630 METAR LROP 120630Z 26003KT CAVOK 11/07 Q1026 NOSIG=
201910120700 METAR LROP 120700Z VRB01KT CAVOK 13/08 Q1026 NOSIG=
201910120730 METAR LROP 120730Z 27003KT 220V320 CAVOK 15/08 Q1026 NOSIG=
201910120800 METAR LROP 120800Z 28007KT CAVOK 17/09 Q1026 NOSIG=
201910120830 METAR LROP 120830Z 28006KT 240V320 CAVOK 18/08 Q1026 NOSIG=
201910120900 METAR LROP 120900Z 26005KT 230V300 CAVOK 19/07 Q1026 NOSIG=
201910120930 METAR LROP 120930Z 26007KT CAVOK 20/08 Q1026 NOSIG=
201910121000 METAR LROP 121000Z 26007KT 220V300 CAVOK 21/06 Q1026 NOSIG=
201910121030 METAR LROP 121030Z 25005KT 190V290 CAVOK 22/08 Q1025 NOSIG=
201910121100 METAR LROP 121100Z 25005KT 180V290 CAVOK 22/05 Q1025 NOSIG=
201910121130 METAR LROP 121130Z 22005KT 170V280 CAVOK 22/05 Q1025 NOSIG=
201910121200 METAR LROP 121200Z 23006KT 200V280 CAVOK 23/05 Q1024 NOSIG=
201910121230 METAR LROP 121230Z 23007KT CAVOK 23/04 Q1024 NOSIG=
201910121300 METAR LROP 121300Z 27007KT 240V310 CAVOK 23/04 Q1024 NOSIG=
201910121330 METAR LROP 121330Z 25007KT 230V290 CAVOK 23/06 Q1024 NOSIG=
201910121400 METAR LROP 121400Z 26006KT 230V290 CAVOK 22/05 Q1024 NOSIG=
201910121430 METAR LROP 121430Z 25006KT CAVOK 22/06 Q1023 NOSIG=
201910121500 METAR LROP 121500Z 23006KT CAVOK 20/07 Q1023 NOSIG=
201910121530 METAR LROP 121530Z 23005KT CAVOK 18/07 Q1023 NOSIG=
201910121600 METAR LROP 121600Z 23004KT CAVOK 17/07 Q1023 NOSIG=
201910121630 METAR LROP 121630Z 23004KT CAVOK 16/06 Q1023 NOSIG=
201910121700 METAR LROP 121700Z 25003KT CAVOK 15/07 Q1024 NOSIG=
201910121730 METAR LROP 121730Z 25004KT CAVOK 14/07 Q1024 NOSIG=
201910121800 METAR LROP 121800Z 24004KT CAVOK 13/07 Q1024 NOSIG=
201910121830 METAR LROP 121830Z 26004KT CAVOK 12/09 Q1024 NOSIG=
201910121900 METAR LROP 121900Z 26004KT CAVOK 13/08 Q1024 NOSIG=
201910121930 METAR LROP 121930Z 27003KT CAVOK 13/08 Q1024 NOSIG=
201910122000 METAR LROP 122000Z 27003KT CAVOK 12/08 Q1024 NOSIG=
201910122030 METAR LROP 122030Z 35003KT CAVOK 11/08 Q1024 NOSIG=
201910122100 METAR LROP 122100Z VRB02KT CAVOK 11/08 Q1024 NOSIG=
201910122130 METAR LROP 122130Z 24002KT CAVOK 10/08 Q1024 NOSIG=
201910122200 METAR LROP 122200Z 27003KT CAVOK 10/08 Q1024 NOSIG=
201910122230 METAR LROP 122230Z 24002KT CAVOK 09/08 Q1024 NOSIG=
201910122300 METAR LROP 122300Z VRB02KT CAVOK 09/08 Q1024 NOSIG=
201910122330 METAR LROP 122330Z 00000KT CAVOK 09/08 Q1024 NOSIG=
201910130000 METAR LROP 130000Z 26004KT CAVOK 09/08 Q1023 NOSIG=
201910130030 METAR LROP 130030Z 25002KT CAVOK 08/07 Q1023 NOSIG=
201910130100 METAR LROP 130100Z 28004KT CAVOK 08/07 Q1023 NOSIG=
201910130130 METAR LROP 130130Z VRB02KT CAVOK 08/07 Q1023 NOSIG=
201910130200 METAR LROP 130200Z 23002KT CAVOK 08/07 Q1023 TEMPO 5000 BR=
201910130230 METAR LROP 130230Z 25003KT 8000 NSC 07/07 Q1023 TEMPO 5000
                        BR=
201910130300 METAR LROP 130300Z 26003KT 7000 MIFG NSC 07/07 Q1023 TEMPO
                        5000 BR=
201910130330 METAR LROP 130330Z 26004KT 7000 NSC 07/07 Q1023 TEMPO 5000
                        BR=
201910130400 METAR LROP 130400Z 28003KT 5000 BR NSC 06/06 Q1023 NOSIG=
201910130430 METAR LROP 130430Z 28003KT 5000 BR NSC 06/06 Q1023 NOSIG=
201910130500 METAR LROP 130500Z 25004KT 6000 NSC 07/07 Q1023 NOSIG=
201910130530 METAR LROP 130530Z VRB02KT 7000 NSC 08/07 Q1024 NOSIG=
201910130600 METAR LROP 130600Z 28005KT 9000 NSC 10/08 Q1024 NOSIG=
201910130630 METAR LROP 130630Z 28004KT CAVOK 13/09 Q1024 NOSIG=
201910130700 METAR LROP 130700Z 30003KT 270V330 CAVOK 15/09 Q1024 NOSIG=
201910130730 METAR LROP 130730Z 26005KT CAVOK 17/11 Q1024 NOSIG=
201910130800 METAR LROP 130800Z 28005KT CAVOK 19/10 Q1024 NOSIG=
201910130830 METAR LROP 130830Z 25006KT CAVOK 21/09 Q1024 NOSIG=
201910130900 METAR LROP 130900Z 26005KT 230V310 CAVOK 22/09 Q1024 NOSIG=
201910130930 METAR LROP 130930Z 25007KT CAVOK 23/09 Q1024 NOSIG=
201910131000 METAR LROP 131000Z 27007KT CAVOK 24/08 Q1023 NOSIG=
201910131030 METAR LROP 131030Z 24008KT 210V270 CAVOK 25/09 Q1023 NOSIG=
201910131100 METAR LROP 131100Z 27007KT 220V300 CAVOK 26/08 Q1023 NOSIG=
201910131130 METAR LROP 131130Z 25006KT 210V300 CAVOK 26/09 Q1022 NOSIG=
201910131200 METAR LROP 131200Z 24006KT 210V290 CAVOK 26/08 Q1022 NOSIG=
201910131230 METAR LROP 131230Z 25005KT 220V290 CAVOK 26/09 Q1022 NOSIG=
201910131300 METAR LROP 131300Z 22007KT 190V250 CAVOK 26/09 Q1022 NOSIG=
201910131330 METAR LROP 131330Z 24006KT 210V270 CAVOK 26/09 Q1022 NOSIG=
201910131400 METAR LROP 131400Z 24007KT 220V280 CAVOK 25/09 Q1022 NOSIG=
201910131430 METAR LROP 131430Z 25005KT 220V280 CAVOK 24/10 Q1022 NOSIG=
201910131500 METAR LROP 131500Z 24004KT CAVOK 22/10 Q1022 NOSIG=
201910131530 METAR LROP 131530Z 22003KT CAVOK 21/11 Q1022 NOSIG=
201910131600 METAR LROP 131600Z 23003KT CAVOK 19/11 Q1022 NOSIG=
201910131630 METAR LROP 131630Z 21002KT CAVOK 17/13 Q1022 NOSIG=
201910131700 METAR LROP 131700Z 21002KT CAVOK 17/12 Q1022 NOSIG=
201910131730 METAR LROP 131730Z 20002KT CAVOK 16/12 Q1023 NOSIG=
201910131800 METAR LROP 131800Z 00000KT CAVOK 15/12 Q1023 NOSIG=
201910131830 METAR LROP 131830Z 00000KT CAVOK 15/12 Q1023 NOSIG=
201910131900 METAR LROP 131900Z 21001KT CAVOK 15/12 Q1023 NOSIG=
201910131930 METAR LROP 131930Z 00000KT CAVOK 14/12 Q1023 NOSIG=
201910132000 METAR LROP 132000Z 33001KT CAVOK 14/11 Q1023 NOSIG=
201910132030 METAR LROP 132030Z 36005KT CAVOK 13/11 Q1023 NOSIG=
201910132100 METAR LROP 132100Z VRB01KT CAVOK 12/11 Q1023 NOSIG=
201910132130 METAR LROP 132130Z 00000KT CAVOK 12/11 Q1023 NOSIG=
201910132200 METAR LROP 132200Z VRB02KT CAVOK 12/11 Q1023 NOSIG=
201910132230 METAR LROP 132230Z 33003KT CAVOK 11/10 Q1023 NOSIG=
201910132300 METAR LROP 132300Z 33001KT CAVOK 11/10 Q1023 NOSIG=
201910132330 METAR LROP 132330Z 00000KT CAVOK 10/10 Q1023 NOSIG=
201910140000 METAR LROP 140000Z 30002KT CAVOK 10/09 Q1023 TEMPO 5000 BR=
201910140030 METAR LROP 140030Z 33003KT CAVOK 10/09 Q1022 TEMPO 5000 BR=
201910140100 METAR LROP 140100Z 29002KT CAVOK 09/09 Q1022 TEMPO 5000 BR=
201910140130 METAR LROP 140130Z 27003KT CAVOK 10/09 Q1022 TEMPO 5000 BR=
201910140200 METAR LROP 140200Z VRB01KT CAVOK 09/08 Q1023 TEMPO 5000 BR=
201910140230 METAR LROP 140230Z 36003KT CAVOK 09/09 Q1023 NOSIG=
201910140300 METAR LROP 140300Z 33004KT CAVOK 09/09 Q1023 NOSIG=
201910140330 METAR LROP 140330Z 33003KT CAVOK 08/08 Q1023 NOSIG=
201910140400 METAR LROP 140400Z 34003KT CAVOK 08/07 Q1023 NOSIG=
201910140430 METAR LROP 140430Z 27002KT CAVOK 08/08 Q1023 NOSIG=
201910140500 METAR LROP 140500Z 00000KT CAVOK 08/08 Q1023 NOSIG=
201910140530 METAR LROP 140530Z VRB02KT CAVOK 09/08 Q1023 NOSIG=
201910140600 METAR LROP 140600Z 01003KT 340V050 CAVOK 11/09 Q1023 NOSIG=
201910140630 METAR LROP 140630Z 35003KT CAVOK 13/10 Q1023 NOSIG=
201910140700 METAR LROP 140700Z 01003KT 320V060 CAVOK 14/10 Q1023 NOSIG=
201910140730 METAR LROP 140730Z 11003KT 060V170 CAVOK 16/10 Q1023 NOSIG=
201910140800 METAR LROP 140800Z VRB02KT CAVOK 17/11 Q1023 NOSIG=
201910140830 METAR LROP 140830Z VRB02KT CAVOK 20/11 Q1023 NOSIG=
201910140900 METAR LROP 140900Z 13004KT 100V170 CAVOK 21/11 Q1023 NOSIG=
201910140930 METAR LROP 140930Z 12003KT 080V210 CAVOK 22/10 Q1023 NOSIG=
201910141000 METAR LROP 141000Z VRB02KT CAVOK 23/10 Q1023 NOSIG=
201910141030 METAR LROP 141030Z VRB03KT CAVOK 24/10 Q1022 NOSIG=
201910141100 METAR LROP 141100Z 10003KT 360V170 CAVOK 25/10 Q1022 NOSIG=
201910141130 METAR LROP 141130Z 17004KT 120V290 CAVOK 25/09 Q1021 NOSIG=
201910141200 METAR LROP 141200Z VRB04KT CAVOK 26/09 Q1021 NOSIG=
201910141230 METAR LROP 141230Z 25003KT 220V280 CAVOK 27/08 Q1021 NOSIG=
201910141300 METAR LROP 141300Z 13004KT 100V210 CAVOK 26/08 Q1021 NOSIG=
201910141330 METAR LROP 141330Z 15005KT 110V190 CAVOK 26/08 Q1020 NOSIG=
201910141400 METAR LROP 141400Z 17004KT 140V210 CAVOK 25/08 Q1020 NOSIG=
201910141430 METAR LROP 141430Z 16004KT 120V180 CAVOK 24/08 Q1020 NOSIG=
201910141500 METAR LROP 141500Z 14003KT CAVOK 22/09 Q1020 NOSIG=
201910141530 METAR LROP 141530Z 13004KT CAVOK 21/10 Q1020 NOSIG=
201910141600 METAR LROP 141600Z 14004KT CAVOK 19/12 Q1020 NOSIG=
201910141630 METAR LROP 141630Z 11003KT CAVOK 17/12 Q1020 NOSIG=
201910141700 METAR LROP 141700Z VRB02KT CAVOK 16/12 Q1020 NOSIG=
201910141730 METAR LROP 141730Z 12002KT CAVOK 15/12 Q1020 NOSIG=
201910141800 METAR LROP 141800Z VRB01KT CAVOK 15/11 Q1020 NOSIG=
201910141830 METAR LROP 141830Z 08002KT CAVOK 14/11 Q1020 NOSIG=
201910141900 METAR LROP 141900Z 11003KT CAVOK 14/12 Q1020 NOSIG=
201910141930 METAR LROP 141930Z 09003KT CAVOK 14/12 Q1020 NOSIG=
201910142000 METAR LROP 142000Z 06002KT CAVOK 14/11 Q1020 NOSIG=
201910142030 METAR LROP 142030Z 36004KT CAVOK 12/11 Q1021 NOSIG=
201910142100 METAR LROP 142100Z 35004KT CAVOK 13/11 Q1020 NOSIG=
201910142130 METAR LROP 142130Z 00000KT CAVOK 12/10 Q1020 NOSIG=
201910142200 METAR LROP 142200Z 35003KT 340V060 CAVOK 12/10 Q1020 NOSIG=
201910142230 METAR LROP 142230Z 35003KT CAVOK 11/10 Q1020 NOSIG=
201910142300 METAR LROP 142300Z 01003KT CAVOK 12/09 Q1020 NOSIG=
201910142330 METAR LROP 142330Z 02004KT 9000 NSC 11/09 Q1020 NOSIG=
201910150000 METAR LROP 150000Z 01003KT 8000 NSC 11/09 Q1020 BECMG 5000
                        BR=
201910150030 METAR LROP 150030Z 02003KT 8000 NSC 10/09 Q1020 BECMG 5000
                        BR=
201910150100 METAR LROP 150100Z 01004KT 8000 NSC 10/09 Q1020 TEMPO 5000
                        BR=
201910150130 METAR LROP 150130Z 36004KT 8000 NSC 10/09 Q1020 TEMPO 5000
                        BR=
201910150200 METAR LROP 150200Z 01004KT 8000 NSC 10/10 Q1020 TEMPO 5000
                        BR=
201910150230 METAR LROP 150230Z 01004KT 7000 NSC 10/10 Q1020 TEMPO 3000
                        BR=
201910150300 METAR LROP 150300Z 02004KT 5000 BR FEW002 09/09 Q1020 TEMPO
                        3000 BR BKN002=
201910150330 METAR LROP 150330Z 02004KT 1400 R08R/P2000 R26L/0450N R08L/0800VP2000D
                        R26R/0350D BCFG FEW001 SCT002 09/09
                        Q1020 BECMG 0600 FG BKN002=
201910150400 METAR COR LROP 150400Z 02004KT 0500 R08R/0700N R26L/0350U
                        R08L/0800U R26R/0550N FG VV002 09/09
                        Q1020 TEMPO 0150 FG VV001=
201910150430 METAR LROP 150430Z 03004KT 0300 R08R/0375N R26L/0300D R08L/0500D
                        R26R/0400D FG VV001 09/09 Q1020 TEMPO
                        0150 FG VV001=
201910150500 METAR LROP 150500Z 03004KT 0200 R08R/0375N R26L/0400N R08L/0375N
                        R26R/0350N FG VV001 09/09 Q1020 TEMPO
                        0150 FG VV001=
201910150530 METAR LROP 150530Z 03004KT 0150 R08R/0275N R26L/0275N R08L/0300D
                        R26R/0300N FG VV001 09/09 Q1020 NOSIG=
201910150600 METAR LROP 150600Z 04005KT 0150 R08R/0350N R26L/0275N R08L/0275N
                        R26R/0325N FG VV001 10/10 Q1020 BECMG
                        0350 FG=
201910150630 METAR LROP 150630Z 05005KT 0150 R08R/0325N R26L/0300N R08L/0300N
                        R26R/0300N FG VV001 10/10 Q1021 BECMG
                        0350 FG=
201910150700 METAR LROP 150700Z 06005KT 0200 R08R/0325N R26L/0300N R08L/0400N
                        R26R/0350N FG VV001 11/11 Q1021 BECMG
                        0350 FG=
201910150730 METAR LROP 150730Z 07006KT 0200 R08R/0375N R26L/0350N R08L/0350N
                        R26R/0375N FG VV001 11/11 Q1021 BECMG
                        0350=
201910150800 METAR LROP 150800Z 06005KT 0300 R08R/0450U R26L/0550N R08L/0450N
                        R26R/0500N FG VV001 11/11 Q1021 BECMG
                        0600=
201910150830 METAR LROP 150830Z 07006KT 040V100 0700 R08R/1100N R26L/0900N
                        R08L/0900D R26R/1200U FG OVC001 12/11
                        Q1021 BECMG 1500 BR BKN002=
201910150900 METAR LROP 150900Z 07006KT 4000 BR OVC002 12/12 Q1021 BECMG
                        5000 SCT015=
201910150930 METAR LROP 150930Z 08007KT 9999 SCT004 14/13 Q1021 NOSIG=
201910151000 METAR LROP 151000Z 09006KT 020V120 9999 FEW005 16/13 Q1020
                        NOSIG=
201910151030 METAR LROP 151030Z 09006KT CAVOK 17/13 Q1020 NOSIG=
201910151100 METAR LROP 151100Z 09006KT 060V120 CAVOK 18/13 Q1020 NOSIG=
201910151130 METAR LROP 151130Z 09006KT 050V110 CAVOK 20/13 Q1019 NOSIG=
201910151200 METAR LROP 151200Z 09006KT 050V110 CAVOK 20/13 Q1019 NOSIG=
201910151230 METAR LROP 151230Z 09006KT CAVOK 21/13 Q1019 NOSIG=
201910151300 METAR LROP 151300Z 08006KT 360V100 CAVOK 21/13 Q1019 NOSIG=
201910151330 METAR LROP 151330Z 09008KT CAVOK 20/12 Q1018 NOSIG=
201910151400 METAR LROP 151400Z 09008KT CAVOK 20/12 Q1018 NOSIG=
201910151430 METAR COR LROP 151430Z 08007KT 8000 4000E NSC 20/12 Q1018
                        NOSIG=
201910151500 METAR LROP 151500Z 07004KT 7000 NSC 19/12 Q1018 NOSIG=
201910151530 METAR LROP 151530Z 04003KT 010V070 CAVOK 18/12 Q1018 NOSIG=
201910151600 METAR LROP 151600Z 04004KT 010V070 CAVOK 17/12 Q1018 NOSIG=
201910151630 METAR LROP 151630Z 02004KT CAVOK 16/12 Q1018 NOSIG=
201910151700 METAR LROP 151700Z 02005KT CAVOK 16/12 Q1018 NOSIG=
201910151730 METAR LROP 151730Z 02006KT CAVOK 15/12 Q1018 NOSIG=
201910151800 METAR LROP 151800Z 02005KT CAVOK 15/12 Q1018 NOSIG=
201910151830 METAR LROP 151830Z 04008KT CAVOK 14/12 Q1019 NOSIG=
201910151900 METAR LROP 151900Z 05006KT CAVOK 14/12 Q1019 NOSIG=
201910151930 METAR LROP 151930Z 05006KT CAVOK 13/12 Q1019 NOSIG=
201910152000 METAR LROP 152000Z 04007KT CAVOK 13/12 Q1019 NOSIG=
201910152030 METAR LROP 152030Z 04007KT CAVOK 13/12 Q1019 NOSIG=
201910152100 METAR LROP 152100Z 04007KT CAVOK 12/12 Q1019 NOSIG=
201910152130 METAR LROP 152130Z 03007KT CAVOK 12/12 Q1019 NOSIG=
201910152200 METAR LROP 152200Z 03006KT CAVOK 12/12 Q1019 BECMG 5000 BR=
201910152230 METAR LROP 152230Z 02006KT 8000 NSC 11/11 Q1019 BECMG 5000
                        BR=
201910152300 METAR LROP 152300Z 02006KT 7000 NSC 11/11 Q1019 BECMG 5000
                        BR=
201910152330 METAR LROP 152330Z 02006KT 6000 NSC 11/11 Q1019 BECMG 5000
                        BR=
201910160000 METAR LROP 160000Z 04007KT 6000 NSC 11/11 Q1018 NOSIG=
201910160030 METAR LROP 160030Z 03006KT 5000 BR NSC 11/11 Q1018 NOSIG=
201910160100 METAR LROP 160100Z 02006KT 4000 BR NSC 11/11 Q1018 NOSIG=
201910160130 METAR LROP 160130Z 04003KT 4000 BR BKN010 10/10 Q1018 NOSIG=
201910160200 METAR LROP 160200Z 03005KT 0800 R08R/0800D R26L/0800D FG
                        BKN001 10/10 Q1019 TEMPO 0350 FG=
201910160230 METAR LROP 160230Z 05005KT 0200 R08R/0300N R26L/0300N R08L/0350N
                        R26R/0350N FG OVC001 10/10 Q1019
                        NOSIG=
201910160300 METAR LROP 160300Z 06007KT 0200 R08R/0300N R26L/0300N R08L/0350N
                        R26R/0350N FG VV001 10/10 Q1019 NOSIG=
201910160330 METAR LROP 160330Z 06007KT 0200 R08R/0300N R26L/0300N R08L/0300N
                        R26R/0300N FG VV001 11/11 Q1018 NOSIG=
201910160400 METAR LROP 160400Z 05006KT 0200 R08R/0400D R26L/0500N R08L/0500N
                        R26R/0450N FG VV001 11/11 Q1019 NOSIG=
201910160430 METAR LROP 160430Z 05006KT 0200 R08R/0400N R26L/0450N R08L/0400N
                        R26R/0450N FG VV001 11/11 Q1018 NOSIG=
201910160500 METAR LROP 160500Z 06006KT 0200 R08R/0350N R26L/0450N R08L/0400N
                        R26R/0450N FG VV001 11/11 Q1019 NOSIG=
201910160530 METAR LROP 160530Z 05007KT 0200 R08R/0550D R26L/0500N R08L/0500N
                        R26R/0500N FG VV002 10/10 Q1019 NOSIG=
201910160600 METAR LROP 160600Z 06008KT 0200 R08R/0300N R26L/0350N R08L/0400N
                        R26R/0400N FG VV002 11/11 Q1019 NOSIG=
201910160630 METAR LROP 160630Z 07007KT 0200 R08R/0375N R26L/0375N R08L/0300N
                        R26R/0375N FG VV002 11/11 Q1019 NOSIG=
201910160700 METAR LROP 160700Z 06007KT 0300 R08R/0400N R26L/0450N R08L/0450N
                        R26R/0600N FG VV002 11/11 Q1020 NOSIG=
201910160730 METAR LROP 160730Z 05006KT 1200 R08R/1100U R26L/1200U R08L/0900
                        R26R/0800 BCFG BR OVC001 12/12 Q1020
                        TEMPO 1500=
201910160800 METAR LROP 160800Z 07006KT 5000 BR BKN002 OVC003 12/12 Q1020
                        BECMG 9999 BKN010=
201910160830 METAR LROP 160830Z 09007KT 9999 BKN002 OVC003 13/13 Q1020
                        BECMG BKN010=
201910160900 METAR LROP 160900Z 09008KT 9999 BKN008 OVC010 14/14 Q1020
                        BECMG SCT020=
201910160930 METAR LROP 160930Z 10006KT 9999 OVC010 14/12 Q1020 BECMG
                        SCT020=
201910161000 METAR LROP 161000Z 06005KT 020V090 9999 OVC011 15/12 Q1020
                        BECMG SCT020=
201910161030 METAR LROP 161030Z 04004KT 320V110 9999 BKN012 15/12 Q1019
                        BECMG SCT020=
201910161100 METAR LROP 161100Z 07005KT 360V110 CAVOK 17/12 Q1019 NOSIG=
201910161130 METAR LROP 161130Z 05005KT 360V090 CAVOK 18/13 Q1018 NOSIG=
201910161200 METAR LROP 161200Z VRB04KT CAVOK 18/13 Q1018 NOSIG=
201910161230 METAR LROP 161230Z VRB04KT CAVOK 19/13 Q1018 NOSIG=
201910161300 METAR LROP 161300Z 03004KT 340V080 CAVOK 19/13 Q1018 NOSIG=
201910161330 METAR LROP 161330Z 05003KT 350V120 CAVOK 19/13 Q1018 NOSIG=
201910161400 METAR LROP 161400Z 07004KT 010V110 CAVOK 20/13 Q1018 NOSIG=
201910161430 METAR LROP 161430Z 07004KT 360V110 CAVOK 19/13 Q1018 NOSIG=
201910161500 METAR LROP 161500Z 08003KT CAVOK 18/13 Q1018 NOSIG=
201910161530 METAR LROP 161530Z 06003KT CAVOK 17/12 Q1018 NOSIG=
201910161600 METAR LROP 161600Z 05004KT CAVOK 16/12 Q1018 NOSIG=
201910161630 METAR LROP 161630Z 04003KT CAVOK 16/12 Q1018 NOSIG=
201910161700 METAR LROP 161700Z 36004KT CAVOK 15/12 Q1018 NOSIG=
201910161730 METAR LROP 161730Z 01005KT CAVOK 14/12 Q1018 NOSIG=
201910161800 METAR LROP 161800Z 01004KT CAVOK 14/12 Q1018 NOSIG=
201910161830 METAR LROP 161830Z 36005KT CAVOK 14/12 Q1018 NOSIG=
201910161900 METAR LROP 161900Z 36005KT 340V040 CAVOK 14/12 Q1018 NOSIG=
201910161930 METAR LROP 161930Z 02005KT CAVOK 13/12 Q1019 NOSIG=
201910162000 METAR LROP 162000Z 05003KT 020V090 7000 NSC 12/11 Q1019 NOSIG=
201910162030 METAR LROP 162030Z 01003KT 6000 NSC 12/11 Q1019 NOSIG=
201910162100 METAR LROP 162100Z 36003KT 6000 NSC 13/11 Q1019 NOSIG=
201910162130 METAR LROP 162130Z 03003KT 5000 BR NSC 11/11 Q1019 BECMG
                        3000 BR=
201910162200 METAR LROP 162200Z 01003KT 4500 BR NSC 11/11 Q1019 BECMG
                        1500 BR=
201910162230 METAR LROP 162230Z 36004KT 4000 BR NSC 11/11 Q1019 BECMG
                        1500 BR=
201910162300 METAR LROP 162300Z 02004KT 4000 BR NSC 11/11 Q1019 BECMG
                        1500 BR BKN005=
201910162330 METAR LROP 162330Z 36004KT 4000 BR NSC 11/10 Q1019 BECMG
                        1500 BR BKN005=
201910170000 METAR LROP 170000Z 34004KT 310V020 4000 BR NSC 10/10 Q1018
                        BECMG 1500 BR BKN005=
201910170030 METAR LROP 170030Z 35006KT 4000 BR NSC 10/10 Q1019 BECMG
                        1500 BR BKN005=
201910170100 METAR LROP 170100Z 35005KT 4000 BR NSC 10/10 Q1019 NOSIG=
201910170130 METAR LROP 170130Z 36003KT 3500 MIFG BR NSC 10/10 Q1019 NOSIG=
201910170200 METAR LROP 170200Z 36001KT 3000 R08R/P2000 R26L/0700D PRFG
                        BR NSC 10/10 Q1018 BECMG 1500 BR
                        BKN005=
201910170230 METAR LROP 170230Z 03001KT 2000 R08R/1600D R26L/0550D R08L/1000U
                        R26R/0375N PRFG BR FEW003 09/09 Q1019
                        BECMG 0800 FG OVC002=
201910170300 METAR LROP 170300Z 04002KT 2500 R08R/P2000 R26L/0400N R08L/1100D
                        R26R/0550N PRFG BR FEW003 09/09 Q1018
                        BECMG 0800 FG OVC002=
201910170330 METAR LROP 170330Z 03002KT 2500 R08R/P2000 R26L/1000U R08L/1400D
                        R26R/0600N PRFG BR SCT002 09/09 Q1018
                        BECMG 0800 FG OVC002=
201910170400 METAR LROP 170400Z 04002KT 3000 R08R/P2000 R26L/0550D R08L/0800
                        R26R/0500D PRFG BR BKN003 09/09 Q1018
                        BECMG 0600 FG OVC001=
201910170430 METAR LROP 170430Z 03003KT 0400 R08R/0450 R26L/0250 R08L/0250
                        R26R/0400N FG SCT003 09/09 Q1018
                        TEMPO 0350 FG OVC001=
201910170500 METAR LROP 170500Z 35003KT 340V050 0400 R08R/0650 R26L/0275N
                        R08L/0600N R26R/0325N FG BKN002 09/09
                        Q1019 TEMPO 0150 FG OVC001=
201910170530 METAR COR LROP 170530Z 24002KT 1400 R08R/2000 R26L/0500N
                        R08L/0700 R26R/0400N BCFG BKN002
                        09/09 Q1019 BECMG 3000 BR=
201910170600 METAR LROP 170600Z VRB01KT 1400 R08R/P2000 R26L/0750 R08L/0550D
                        R26R/0650N BCFG SCT002 10/10 Q1019
                        BECMG 3000 BR=
201910170630 METAR LROP 170630Z VRB01KT 1200 R08R/P2000 R26L/0350N R08L/0550N
                        R26R/0250N BCFG FEW001 SCT002 11/10
                        Q1019 BECMG 3000 BR=
201910170700 METAR LROP 170700Z VRB01KT 0450 R08R/0600 R26L/0275N R08L/0250N
                        R26R/0275N FG BKN001 11/11 Q1019
                        NOSIG=
201910170730 METAR LROP 170730Z VRB02KT 0150 R08R/0300N R26L/0275N R08L/0250N
                        R26R/0250N FG VV001 11/11 Q1020 BECMG
                        0800=
201910170800 METAR LROP 170800Z VRB02KT 0200 R08R/0350N R26L/0325N R08L/0300N
                        R26R/0375N FG VV001 12/12 Q1020 BECMG
                        0800=
201910170830 METAR LROP 170830Z VRB02KT 0350 R08R/0600N R26L/1100U R08L/0550N
                        R26R/0800 FG VV001 12/12 Q1020 BECMG
                        1500 BR BKN002=
201910170900 METAR LROP 170900Z 08003KT 040V120 4000 BR BKN002 14/13 Q1020
                        BECMG 8000 NSW SCT003=
201910170930 METAR LROP 170930Z 05004KT 9000 FEW003 14/13 Q1020 NOSIG=
201910171000 METAR LROP 171000Z 10004KT 070V130 9999 FEW004 15/13 Q1020
                        NOSIG=
201910171030 METAR LROP 171030Z 07003KT 040V120 CAVOK 16/14 Q1019 NOSIG=
201910171100 METAR LROP 171100Z 07004KT 030V110 CAVOK 17/14 Q1019 NOSIG=
201910171130 METAR LROP 171130Z 07004KT 360V120 CAVOK 18/14 Q1019 NOSIG=
201910171200 METAR LROP 171200Z 10003KT 020V140 CAVOK 19/14 Q1019 NOSIG=
201910171230 METAR LROP 171230Z 12003KT 040V180 CAVOK 19/14 Q1019 NOSIG=
201910171300 METAR LROP 171300Z 14003KT 080V190 CAVOK 20/14 Q1019 NOSIG=
201910171330 METAR LROP 171330Z 12003KT 080V140 CAVOK 20/14 Q1019 NOSIG=
201910171400 METAR LROP 171400Z VRB02KT CAVOK 20/14 Q1018 NOSIG=
201910171430 METAR LROP 171430Z 05003KT CAVOK 19/14 Q1018 NOSIG=
201910171500 METAR LROP 171500Z 05003KT 320V110 CAVOK 18/13 Q1019 NOSIG=
201910171530 METAR LROP 171530Z 06003KT CAVOK 17/13 Q1019 NOSIG=
201910171600 METAR LROP 171600Z 06004KT CAVOK 15/13 Q1019 NOSIG=
201910171630 METAR LROP 171630Z 06004KT CAVOK 15/13 Q1019 NOSIG=
201910171700 METAR LROP 171700Z 04002KT CAVOK 14/13 Q1019 BECMG 5000 BR=
201910171730 METAR LROP 171730Z 05004KT 6000 NSC 14/13 Q1019 BECMG 5000
                        BR=
201910171800 METAR LROP 171800Z VRB02KT 6000 NSC 13/13 Q1019 BECMG 5000
                        BR=
201910171830 METAR LROP 171830Z 07003KT 5000 BR NSC 13/12 Q1019 TEMPO
                        3000 BR=
201910171900 METAR LROP 171900Z 01003KT 350V050 5000 BR NSC 12/12 Q1019
                        BECMG 3000 BR=
201910171930 METAR LROP 171930Z 01003KT 5000 MIFG BR NSC 12/12 Q1019 BECMG
                        3000 BR=
201910172000 METAR LROP 172000Z 06004KT 5000 MIFG BR NSC 12/12 Q1019 BECMG
                        3000 BR=
201910172030 METAR LROP 172030Z 08003KT 4500 BR NSC 11/11 Q1019 BECMG
                        3000 BR=
201910172100 METAR LROP 172100Z 04003KT 4000 MIFG BR NSC 11/11 Q1019 BECMG
                        3000 BR=
201910172130 METAR LROP 172130Z 03003KT 3500 BR NSC 11/11 Q1019 TEMPO
                        1500 BR=
201910172200 METAR LROP 172200Z 03002KT 2500 R08R/P2000 R26L/0400N R08L/1000D
                        R26R/0350D PRFG BR NSC 11/11 Q1019
                        BECMG 1500 BR=
201910172230 METAR LROP 172230Z 02004KT 2500 R08R/P2000 R26L/0300N R08L/2000
                        R26R/0200 PRFG BR VV004 12/12 Q1019
                        NOSIG=
201910172300 METAR LROP 172300Z VRB01KT 2700 R08R/P2000 R26L/0350 R08L/0600N
                        R26R/0400N PRFG BR VV004 10/10 Q1019=
201910172330 METAR COR LROP 172330Z 01004KT 2500 R08R/P2000 R26L/0250
                        R08L/P2000 R26R/0350U PRFG BR FEW003
                        10/10 Q1019 TEMPO 1500 BR=
201910180000 METAR LROP 180000Z VRB01KT 1800 R08R/1400 R26L/0350N R08L/0650N
                        R26R/0375N MIFG PRFG SCT005 09/09
                        Q1019 TEMPO 0800 FG=
201910180030 METAR COR LROP 180030Z 04001KT 0800 R08R/0700N R26L/0400N
                        R08L/0450N R26R/0275 BCFG SCT002
                        10/10 Q1019 BECMG 0150 FG=
201910180100 METAR LROP 180100Z 02003KT 1800 R08R/1200 R26L/0300N R08L/0400N
                        R26R/0350N PRFG VV002 09/09 Q1019
                        BECMG 0150 FG=
201910180130 METAR LROP 180130Z 04002KT 0550 R08R/0400N R26L/0325N R08L/0400N
                        R26R/0375N FG SCT002 09/09 Q1019
                        BECMG 0150 FG=
201910180200 METAR LROP 180200Z 00000KT 0200 R08R/0300N R26L/0450N R08L/0350N
                        R26R/0400N FG VV002 08/08 Q1019 NOSIG=
201910180230 METAR LROP 180230Z 01002KT 0300 R08R/0300N R26L/0600N R08L/0450N
                        R26R/0550N FG VV001 07/07 Q1019 NOSIG=
201910180300 METAR LROP 180300Z VRB01KT 0700 R08R/0700 R26L/0400N R08L/0600D
                        R26R/0375N FG VV001 07/07 Q1019 NOSIG=
201910180330 METAR LROP 180330Z VRB01KT 0900 R08R/1300U R26L/0600N R08L/0350
                        R26R/0500 FG VV001 07/07 Q1019 TEMPO
                        1500 BR BKN002=
201910180400 METAR LROP 180400Z VRB02KT 0800 R08R/1200N R26L/0400N R08L/0400D
                        R26R/0400D FG BKN001 07/07 Q1019
                        NOSIG=
201910180430 METAR LROP 180430Z VRB01KT 0300 R08R/0350D R26L/0350N R08L/0350N
                        R26R/0275N FG OVC001 07/07 Q1019
                        NOSIG=
201910180500 METAR LROP 180500Z 03002KT 0200 R08R/0300N R26L/0300N R08L/0250N
                        R26R/0300N FG OVC001 08/08 Q1019
                        NOSIG=
201910180530 METAR LROP 180530Z 03002KT 0200 R08R/0250N R26L/0200N R08L/0200N
                        R26R/0175N FG OVC001 08/08 Q1020
                        NOSIG=
201910180600 METAR LROP 180600Z 04002KT 0200 R08R/0200N R26L/0175N R08L/0300N
                        R26R/0175N FG OVC001 09/09 Q1020
                        NOSIG=
201910180630 METAR COR LROP 180630Z 03002KT 0300 R08R/0350U R26L/0225N
                        R08L/0300N R26R/0350N FG OVC001 10/10
                        Q1020 BECMG 0600 BKN002=
201910180700 METAR LROP 180700Z VRB01KT 1500 0300E R08R/1300U R26L/0325N
                        R08L/1300U R26R/0325N PRFG BR BKN001
                        11/11 Q1020 BECMG 3000 BKN002=
201910180730 METAR COR LROP 180730Z VRB01KT 2000 BR SCT001 13/13 Q1020
                        BECMG 5000 SCT005=
201910180800 METAR LROP 180800Z VRB02KT 5000 BR FEW002 15/13 Q1020 BECMG
                        CAVOK=
201910180830 METAR LROP 180830Z 13003KT 080V170 8000 NSC 16/13 Q1020 NOSIG=
201910180900 METAR LROP 180900Z VRB02KT CAVOK 18/13 Q1020 NOSIG=
201910180930 METAR LROP 180930Z VRB02KT CAVOK 18/13 Q1020 NOSIG=
201910181000 METAR LROP 181000Z VRB01KT CAVOK 19/12 Q1019 NOSIG=
201910181030 METAR LROP 181030Z 07002KT CAVOK 20/13 Q1019 NOSIG=
201910181100 METAR LROP 181100Z 14003KT 050V210 CAVOK 21/13 Q1018 NOSIG=
201910181130 METAR LROP 181130Z 14003KT 100V200 CAVOK 21/12 Q1018 NOSIG=
201910181200 METAR LROP 181200Z 13003KT 080V210 CAVOK 22/12 Q1018 NOSIG=
201910181230 METAR LROP 181230Z 11004KT 060V170 CAVOK 22/12 Q1018 NOSIG=
201910181300 METAR LROP 181300Z 13003KT 080V250 CAVOK 22/11 Q1018 NOSIG=
201910181330 METAR LROP 181330Z VRB02KT CAVOK 21/10 Q1017 NOSIG=
201910181400 METAR LROP 181400Z 11003KT 080V140 CAVOK 21/11 Q1017 NOSIG=
201910181430 METAR LROP 181430Z 11004KT CAVOK 20/11 Q1017 NOSIG=
201910181500 METAR LROP 181500Z 11003KT CAVOK 18/11 Q1017 NOSIG=
201910181530 METAR LROP 181530Z 10003KT CAVOK 17/12 Q1017 NOSIG=
201910181600 METAR LROP 181600Z 11003KT CAVOK 16/12 Q1018 NOSIG=
201910181630 METAR LROP 181630Z 11003KT CAVOK 15/12 Q1018 NOSIG=
201910181700 METAR LROP 181700Z 11003KT CAVOK 13/11 Q1018 NOSIG=
201910181730 METAR LROP 181730Z 12002KT CAVOK 13/12 Q1018 NOSIG=
201910181800 METAR LROP 181800Z 12001KT 9000 NSC 12/11 Q1018 NOSIG=
201910181830 METAR LROP 181830Z 00000KT 8000 NSC 13/11 Q1018 NOSIG=
201910181900 METAR LROP 181900Z 00000KT 8000 NSC 12/11 Q1018 NOSIG=
201910181930 METAR LROP 181930Z 00000KT 7000 NSC 12/11 Q1018 NOSIG=
201910182000 METAR LROP 182000Z 01002KT 7000 NSC 11/11 Q1018 NOSIG=
201910182030 METAR LROP 182030Z 01002KT 7000 NSC 11/10 Q1018 BECMG 5000
                        BR=
201910182100 METAR LROP 182100Z 00000KT 6000 NSC 11/10 Q1018 BECMG 5000
                        BR=
201910182130 METAR LROP 182130Z 04002KT 6000 NSC 10/10 Q1018 BECMG 5000
                        BR=
201910182200 METAR LROP 182200Z VRB01KT 6000 NSC 10/10 Q1018 BECMG 5000
                        BR=
201910182230 METAR COR LROP 182230Z VRB01KT 6000 NSC 10/10 Q1018 BECMG
                        3000 BR=
201910182300 METAR LROP 182300Z VRB01KT 4000 BR NSC 10/09 Q1018 BECMG
                        3000 BR=
201910182330 METAR LROP 182330Z VRB01KT 3500 MIFG BR NSC 09/09 Q1018 BECMG
                        1500 BR=
201910190000 METAR LROP 190000Z 00000KT 5000 BR NSC 09/09 Q1018 NOSIG=
201910190030 METAR LROP 190030Z 26002KT 5000 BR NSC 09/09 Q1018 NOSIG=
201910190100 METAR LROP 190100Z VRB01KT 5000 BR NSC 09/09 Q1018 NOSIG=
201910190130 METAR LROP 190130Z VRB01KT 5000 BR NSC 08/09 Q1018 NOSIG=
201910190200 METAR LROP 190200Z 00000KT 4000 BR NSC 09/09 Q1018 BECMG
                        1500 BR=
201910190230 METAR LROP 190230Z VRB01KT 3000 MIFG NSC 08/08 Q1018 BECMG
                        0800 FG BKN002=
201910190300 METAR LROP 190300Z 00000KT 2500 MIFG NSC 08/08 Q1019 BECMG
                        0800 FG BKN002=
201910190330 METAR LROP 190330Z 00000KT 3000 MIFG NSC 08/08 Q1019 BECMG
                        0800 FG BKN002=
201910190400 METAR LROP 190400Z 02001KT 3000 MIFG BR NSC 08/08 Q1019 TEMPO
                        1500 BR=
201910190430 METAR COR LROP 190430Z 00000KT 3000 R08R/P2000 R26L/0800D
                        R08L/P2000 R26R/P2000 MIFG BR NSC
                        08/08 Q1019 TEMPO 0600 FG=
201910190500 METAR LROP 190500Z 00000KT 3000 R08R/P2000 R26L/0550N R08L/P2000
                        R26R/P2000 MIFG BR NSC 08/08 Q1019
                        TEMPO 0600 FG=
201910190530 METAR LROP 190530Z VRB01KT 4000 R08R/P2000 R26L/1000U R08L/P2000
                        R26R/1100U MIFG BR NSC 09/09 Q1019
                        TEMPO 0600 FG=
201910190600 METAR LROP 190600Z 35004KT 5000 BR NSC 10/10 Q1020 BECMG
                        9999 NSW=
201910190630 METAR LROP 190630Z 02002KT 7000 NSC 12/10 Q1020 NOSIG=
201910190700 METAR LROP 190700Z 06003KT 8000 NSC 13/11 Q1020 NOSIG=
201910190730 METAR LROP 190730Z 07003KT 030V110 8000 NSC 15/11 Q1020 NOSIG=
201910190800 METAR LROP 190800Z VRB02KT 8000 NSC 16/12 Q1020 NOSIG=
201910190830 METAR LROP 190830Z 07003KT 040V130 CAVOK 18/12 Q1020 NOSIG=
201910190900 METAR LROP 190900Z VRB02KT CAVOK 19/12 Q1020 NOSIG=
201910190930 METAR LROP 190930Z VRB02KT CAVOK 20/11 Q1020 NOSIG=
201910191000 METAR LROP 191000Z VRB02KT CAVOK 21/10 Q1019 NOSIG=
201910191030 METAR LROP 191030Z VRB01KT CAVOK 22/10 Q1019 NOSIG=
201910191100 METAR LROP 191100Z VRB02KT CAVOK 22/10 Q1019 NOSIG=
201910191130 METAR LROP 191130Z VRB02KT CAVOK 23/09 Q1019 NOSIG=
201910191200 METAR LROP 191200Z VRB02KT CAVOK 23/10 Q1019 NOSIG=
201910191230 METAR LROP 191230Z VRB02KT CAVOK 23/10 Q1018 NOSIG=
201910191300 METAR LROP 191300Z VRB02KT CAVOK 24/10 Q1018 NOSIG=
201910191330 METAR LROP 191330Z VRB02KT CAVOK 23/10 Q1018 NOSIG=
201910191400 METAR LROP 191400Z 16001KT CAVOK 23/11 Q1018 NOSIG=
201910191430 METAR LROP 191430Z 13003KT CAVOK 21/11 Q1018 NOSIG=
201910191500 METAR LROP 191500Z 12003KT CAVOK 20/12 Q1018 NOSIG=
201910191530 METAR LROP 191530Z 12003KT CAVOK 19/12 Q1019 NOSIG=
201910191600 METAR LROP 191600Z 11004KT CAVOK 18/12 Q1019 NOSIG=
201910191630 METAR LROP 191630Z 10004KT CAVOK 16/12 Q1019 NOSIG=
201910191700 METAR LROP 191700Z 10002KT CAVOK 15/12 Q1019 NOSIG=
201910191730 METAR LROP 191730Z 08004KT CAVOK 16/12 Q1019 NOSIG=
201910191800 METAR LROP 191800Z 07004KT CAVOK 15/11 Q1019 NOSIG=
201910191830 METAR LROP 191830Z 08004KT CAVOK 14/12 Q1019 NOSIG=
201910191900 METAR LROP 191900Z 09003KT CAVOK 14/11 Q1020 NOSIG=
201910191930 METAR LROP 191930Z 06004KT 7000 NSC 14/11 Q1020 NOSIG=
201910192000 METAR LROP 192000Z 07003KT 6000 NSC 13/11 Q1020 BECMG 4000
                        BR=
201910192030 METAR COR LROP 192030Z 02003KT 6000 NSC 13/11 Q1020 BECMG
                        4000 BR=
201910192100 METAR LROP 192100Z 36005KT 6000 NSC 13/12 Q1020 NOSIG=
201910192130 METAR LROP 192130Z 36006KT 6000 NSC 13/11 Q1020 NOSIG=
201910192200 METAR LROP 192200Z 01006KT 6000 NSC 13/12 Q1020 NOSIG=
201910192230 METAR COR LROP 192230Z 02004KT 5000 BR NSC 12/11 Q1021 BECMG
                        3000 BR=
201910192300 METAR LROP 192300Z 01005KT 5000 BR NSC 13/12 Q1021 BECMG
                        3000 BR=
201910192330 METAR LROP 192330Z 01006KT 5000 BR NSC 12/12 Q1021 NOSIG=
201910200000 METAR COR LROP 200000Z 02004KT 5000 BR NSC 12/11 Q1020 NOSIG=
201910200030 METAR LROP 200030Z 01004KT 4000 BR NSC 12/12 Q1020 NOSIG=
201910200100 METAR LROP 200100Z 01004KT 3000 0500E R08R/P2000 R26L/0500D
                        R08L/P2000 R26R/0350N PRFG BR FEW009
                        11/11 Q1020 NOSIG=
201910200130 METAR LROP 200130Z 03003KT 2000 0500E R08R/P2000 R26L/0275N
                        R08L/P2000 R26R/0350N PRFG BR FEW010
                        11/11 Q1020 NOSIG=
201910200200 METAR COR LROP 200200Z 05002KT 1500 0500E R08R/1500D R26L/0500N
                        R08L/P2000 R26R/0600U PRFG BR SCT003
                        10/10 Q1020 TEMPO 0600 FG VV002=
201910200230 METAR LROP 200230Z 07003KT 0300 R08R/0350N R26L/0350N R08L/0800U
                        R26R/0350N FG SCT001 BKN002 10/10
                        Q1021 NOSIG=
201910200300 METAR LROP 200300Z 06003KT 0200 R08R/0275N R26L/0300N R08L/0300N
                        R26R/0300N FG OVC001 11/11 Q1021
                        NOSIG=
201910200330 METAR LROP 200330Z 05004KT 0200 R08R/0300N R26L/0300N R08L/0300N
                        R26R/0300N FG OVC001 11/11 Q1021
                        NOSIG=
201910200400 METAR LROP 200400Z 06004KT 0100 R08R/0300N R26L/0375N R08L/0350N
                        R26R/0400N FG VV001 11/11 Q1021 NOSIG=
201910200430 METAR LROP 200430Z 06004KT 0100 R08R/0300 R26L/0400N R08L/0300N
                        R26R/0375N FG VV001 11/11 Q1021 NOSIG=
201910200500 METAR LROP 200500Z 02004KT 0100 R08R/0325N R26L/0275N R08L/0275N
                        R26R/0275N FG VV001 11/11 Q1021 NOSIG=
201910200530 METAR LROP 200530Z 02004KT 0100 R08R/0275N R26L/0300N R08L/0300N
                        R26R/0300N FG VV001 11/11 Q1021 NOSIG=
201910200600 METAR COR LROP 200600Z 02004KT 0150 R08R/0300N R26L/0450N
                        R08L/0375N R26R/0550N FG VV001 11/11
                        Q1022 NOSIG=
201910200630 METAR COR LROP 200630Z 05004KT 0150 R08R/0350N R26L/0375N
                        R08L/0375N R26R/0350 FG VV001 12/12
                        Q1022 NOSIG=
201910200700 METAR LROP 200700Z 04003KT 010V080 0300 R08R/0800 R26L/0325N
                        R08L/0550 R26R/1000N FG VV001 12/12
                        Q1022 BECMG 0600 BKN002=
201910200730 METAR LROP 200730Z 08004KT 0900 R08R/0900U R26L/0375N R08L/P2000
                        R26R/0600D BCFG BKN002 13/13 Q1022
                        BECMG 3000 BR BKN005=
201910200800 METAR LROP 200800Z 09004KT 0200 R08R/0550N R26L/0375N R08L/0900D
                        R26R/0600U FG SCT001 13/13 Q1022
                        BECMG 0800=
201910200830 METAR LROP 200830Z 10005KT 060V120 1600 0700NW R08R/1300D
                        R26L/0800U R08L/0800U R26R/0800U
                        PRFG OVC001 13/13 Q1022 BECMG 3000
                        SCT005=
201910200900 METAR LROP 200900Z 09005KT 060V120 5000 BR SCT002 15/15 Q1022
                        NOSIG=
201910200930 METAR LROP 200930Z 10006KT 9000 NSC 16/14 Q1022 NOSIG=
201910201000 METAR LROP 201000Z 09005KT 9000 NSC 17/14 Q1022 NOSIG=
201910201030 METAR LROP 201030Z 10005KT 080V140 9000 NSC 19/15 Q1022 NOSIG=
201910201100 METAR LROP 201100Z 09004KT 030V140 CAVOK 20/15 Q1021 NOSIG=
201910201130 METAR LROP 201130Z 10005KT 060V140 CAVOK 21/15 Q1021 NOSIG=
201910201200 METAR LROP 201200Z 10005KT CAVOK 22/15 Q1021 NOSIG=
201910201230 METAR LROP 201230Z 11004KT 070V140 CAVOK 23/15 Q1021 NOSIG=
201910201300 METAR LROP 201300Z 12004KT 080V140 CAVOK 23/14 Q1021 NOSIG=
201910201330 METAR LROP 201330Z 12005KT CAVOK 22/14 Q1021 NOSIG=
201910201400 METAR LROP 201400Z 13005KT CAVOK 22/14 Q1021 NOSIG=
201910201430 METAR LROP 201430Z 12003KT CAVOK 21/15 Q1021 NOSIG=
201910201500 METAR LROP 201500Z 11002KT CAVOK 20/15 Q1021 NOSIG=
201910201530 METAR LROP 201530Z 09001KT CAVOK 19/14 Q1021 NOSIG=
201910201600 METAR LROP 201600Z VRB02KT CAVOK 19/14 Q1021 NOSIG=
201910201630 METAR LROP 201630Z 36003KT CAVOK 18/15 Q1021 NOSIG=
201910201700 METAR LROP 201700Z VRB01KT CAVOK 16/14 Q1021 NOSIG=
201910201730 METAR LROP 201730Z 05001KT 8000 NSC 16/14 Q1021 NOSIG=
201910201800 METAR LROP 201800Z 02003KT 7000 NSC 16/14 Q1021 NOSIG=
201910201830 METAR LROP 201830Z 04002KT 6000 NSC 16/14 Q1022 BECMG 5000
                        BR=
201910201900 METAR LROP 201900Z 04004KT 6000 NSC 15/14 Q1022 BECMG 3000
                        BR=
201910201930 METAR LROP 201930Z 03003KT 6000 NSC 15/14 Q1022 BECMG 3000
                        BR=
201910202000 METAR LROP 202000Z 04003KT 6000 NSC 15/13 Q1022 BECMG 3000
                        BR=
201910202030 METAR LROP 202030Z 02004KT 6000 NSC 14/13 Q1022 BECMG 3000
                        BR=
201910202100 METAR LROP 202100Z 01004KT 6000 NSC 15/13 Q1022 NOSIG=
201910202130 METAR LROP 202130Z 01005KT 6000 NSC 15/13 Q1022 NOSIG=
201910202200 METAR LROP 202200Z 01004KT 350V060 5000 BR NSC 14/13 Q1022
                        NOSIG=
201910202230 METAR LROP 202230Z 02004KT 5000 BR NSC 13/12 Q1022 BECMG
                        3000 BR=
201910202300 METAR LROP 202300Z 01004KT 4000 BR NSC 13/12 Q1022 BECMG
                        3000 BR=
201910202330 METAR LROP 202330Z 35005KT 4000 BR NSC 13/12 Q1022 BECMG
                        3000 BR=
201910210000 METAR LROP 210000Z 36005KT 4000 BR NSC 12/12 Q1022 BECMG
                        3000 BR=
201910210030 METAR LROP 210030Z 36004KT 4000 BR NSC 12/11 Q1022 BECMG
                        3000 BR=
201910210100 METAR LROP 210100Z 01005KT 3000 MIFG BR NSC 12/12 Q1022 BECMG
                        1500 BR BKN005=
201910210130 METAR LROP 210130Z 01004KT 3000 MIFG BR NSC 11/11 Q1022 BECMG
                        1500 BR BKN005=
201910210200 METAR LROP 210200Z 02003KT 3000 R08R/P2000 R26L/0275N R08L/2000
                        R26R/0400N PRFG BR NSC 11/11 Q1022
                        BECMG 0800 FG BKN002=
201910210230 METAR LROP 210230Z 02004KT 3000 R08R/P2000 R26L/0350N R08L/P2000
                        R26R/0350N PRFG BR NSC 11/11 Q1022
                        BECMG 0600 FG OVC002=
201910210300 METAR LROP 210300Z 02003KT 2500 R08R/P2000 R26L/0300N R08L/2000
                        R26R/0300N PRFG BR BKN002 11/11 Q1022
                        BECMG 0600 FG OVC002=
201910210330 METAR LROP 210330Z 04003KT 2500 R08R/P2000 R26L/0275N R08L/P2000
                        R26R/0275N PRFG BR BKN002 10/10 Q1023
                        BECMG 0350 FG VV001=
201910210400 METAR LROP 210400Z 02004KT 1600 R08R/P2000 R26L/0250N R08L/1300
                        R26R/0250N PRFG BR BKN005 11/11 Q1023
                        BECMG 0350 FG VV001=
201910210430 METAR LROP 210430Z 02004KT 0300 R08R/0450N R26L/0325N R08L/0275N
                        R26R/0250N FG BKN001 10/10 Q1023
                        TEMPO 0150 FG=
201910210500 METAR LROP 210500Z 03003KT 0200 R08R/0350N R26L/0250N R08L/0250N
                        R26R/0250N FG VV002 10/10 Q1023 NOSIG=
201910210530 METAR LROP 210530Z 02003KT 0200 R08R/0275N R26L/0250N R08L/0300N
                        R26R/0300N FG VV002 10/10 Q1023 BECMG
                        0600=
201910210600 METAR LROP 210600Z 05003KT 010V080 0250 R08R/0325N R26L/0300N
                        R08L/0275N R26R/0275N FG VV002 10/10
                        Q1023 BECMG 0600 BKN005=
201910210630 METAR LROP 210630Z 04003KT 0300 R08R/0400 R26L/0500N R08L/0350N
                        R26R/0400 FG VV002 11/11 Q1024 BECMG
                        0600 BKN005=
201910210700 METAR LROP 210700Z 03003KT 330V040 0300 R08R/0500N R26L/0400N
                        R08L/0325N R26R/0375N FG VV002 11/11
                        Q1024 BECMG 0600 BKN005=
201910210730 METAR LROP 210730Z 03003KT 360V060 0400 R08R/0450N R26L/0550U
                        R08L/0600N R26R/0550 FG OVC001 12/12
                        Q1024 BECMG 0600 BKN005=
201910210800 METAR LROP 210800Z 06003KT 020V090 1200 R08R/1400 R26L/0900
                        R08L/1000 R26R/1000U BR OVC001 13/13
                        Q1024 BECMG 1500 BR SCT005=
201910210830 METAR LROP 210830Z 08005KT 2500 BR BKN002 13/13 Q1024 BECMG
                        CAVOK=
201910210900 METAR LROP 210900Z 07005KT 5000 BR FEW003 14/14 Q1024 BECMG
                        CAVOK=
201910210930 METAR LROP 210930Z 07005KT 7000 NSC 16/14 Q1024 NOSIG=
201910211000 METAR LROP 211000Z 11005KT 070V130 CAVOK 18/14 Q1024 NOSIG=
201910211030 METAR LROP 211030Z 11005KT CAVOK 19/15 Q1024 NOSIG=
201910211100 METAR LROP 211100Z 11004KT 070V150 CAVOK 21/14 Q1024 NOSIG=
201910211130 METAR LROP 211130Z 09004KT 060V130 CAVOK 21/14 Q1023 NOSIG=
201910211200 METAR LROP 211200Z 11004KT 070V160 CAVOK 22/14 Q1023 NOSIG=
201910211230 METAR LROP 211230Z 12005KT CAVOK 23/14 Q1023 NOSIG=
201910211300 METAR LROP 211300Z 10005KT 060V130 CAVOK 23/14 Q1023 NOSIG=
201910211330 METAR LROP 211330Z 13005KT 100V160 CAVOK 22/14 Q1022 NOSIG=
201910211400 METAR LROP 211400Z 13004KT CAVOK 22/14 Q1022 NOSIG=
201910211430 METAR LROP 211430Z 11005KT CAVOK 21/14 Q1022 NOSIG=
201910211500 METAR LROP 211500Z 11004KT CAVOK 19/15 Q1022 NOSIG=
201910211530 METAR LROP 211530Z 08003KT CAVOK 18/14 Q1022 NOSIG=
201910211600 METAR LROP 211600Z 06004KT CAVOK 17/14 Q1022 NOSIG=
201910211630 METAR LROP 211630Z 06003KT CAVOK 17/14 Q1023 NOSIG=
201910211700 METAR LROP 211700Z 07004KT 8000 NSC 16/14 Q1023 NOSIG=
201910211730 METAR LROP 211730Z VRB01KT 6000 NSC 15/13 Q1023 NOSIG=
201910211800 METAR LROP 211800Z 08001KT 6000 NSC 14/13 Q1023 NOSIG=
201910211830 METAR LROP 211830Z 04003KT 5000 BR NSC 14/13 Q1023 NOSIG=
201910211900 METAR LROP 211900Z 04004KT 5000 BR NSC 14/13 Q1023 NOSIG=
201910211930 METAR LROP 211930Z 03003KT 5000 BR NSC 14/14 Q1023 NOSIG=
201910212000 METAR LROP 212000Z 07003KT 4400 BR NSC 13/13 Q1023 BECMG
                        3000 BR=
201910212030 METAR LROP 212030Z 05003KT 5000 BR NSC 13/13 Q1023 BECMG
                        3000 BR=
201910212100 METAR LROP 212100Z 02004KT 5000 BR NSC 13/13 Q1023 NOSIG=
201910212130 METAR LROP 212130Z 36004KT 4800 BR NSC 13/12 Q1023 TEMPO
                        3000 BR=
201910212200 METAR LROP 212200Z 36005KT 4500 BR NSC 12/12 Q1023 TEMPO
                        3000 BR=
201910212230 METAR LROP 212230Z 01003KT 3500 R08R/P2000 R26L/1200U R08L/2000
                        R26R/0900U BCFG NSC 12/12 Q1023 BECMG
                        1500 BR=
201910212300 METAR LROP 212300Z 36003KT 3800 R08R/P2000 R26L/1000D R08L/P2000
                        R26R/0325N BCFG NSC 12/12 Q1023 BECMG
                        1500 BR=
201910212330 METAR LROP 212330Z 01004KT 4000 R08R/P2000 R26L/0900U R08L/P2000
                        R26R/0250N BCFG NSC 12/12 Q1023 TEMPO
                        3000 BR=
201910220000 METAR LROP 220000Z 36004KT 3800 R08R/P2000 R26L/0250N R08L/P2000
                        R26R/0400N PRFG BR BKN014 12/12 Q1023
                        BECMG 1500 BR=
201910220030 METAR COR LROP 220030Z 01004KT 3000 R08R/2000 R26L/0325N
                        R08L/1200U R26R/0225N MIFG PRFG FEW001
                        SCT010 12/12 Q1023 BECMG 1500 BR=
201910220100 METAR LROP 220100Z 01004KT 0500 R08R/0400D R26L/0200N R08L/0450N
                        R26R/0200N FG BKN001 SCT017 11/11
                        Q1023 BECMG 0350 FG=
201910220130 METAR LROP 220130Z 02003KT 340V060 0100 R08R/0275N R26L/0275N
                        R08L/0200N R26R/0225N FG VV001 11/11
                        Q1023 NOSIG=
201910220200 METAR LROP 220200Z 01003KT 0250 R08R/0300U R26L/0225N R08L/0325N
                        R26R/0250N FG VV001 10/10 Q1023 NOSIG=
201910220230 METAR LROP 220230Z 01005KT 0200 R08R/0350N R26L/0350N R08L/0400N
                        R26R/0375N FG VV001 10/10 Q1023 NOSIG=
201910220300 METAR COR LROP 220300Z 04003KT 0100 R08R/0350N R26L/0325N
                        R08L/0400N R26R/0375N FG VV001 10/10
                        Q1024 R88/19//95 NOSIG=
201910220330 METAR LROP 220330Z 04004KT 0100 R08R/0300N R26L/0400N R08L/0350N
                        R26R/0450N FG VV001 10/10 Q1024 R88/19//95
                        NOSIG=
201910220400 METAR LROP 220400Z 04004KT 0300 R08R/0300N R26L/0300N R08L/0300N
                        R26R/0300N FG OVC001 10/10 Q1024
                        R88/19//95 NOSIG=
201910220430 METAR LROP 220430Z 04003KT 0300 R08R/0350N R26L/0350N R08L/0375N
                        R26R/0350N FG OVC001 11/11 Q1024
                        R88/19//95 NOSIG=
201910220500 METAR LROP 220500Z 02004KT 0150 R08R/0300N R26L/0300N R08L/0300N
                        R26R/0325N FG OVC001 11/11 Q1024
                        R88/19//95 NOSIG=
201910220530 METAR LROP 220530Z 06007KT 0200 R08R/0300N R26L/0350N R08L/0300N
                        R26R/0300N FG OVC001 11/11 Q1024
                        R88/19//95 BECMG 0600 BKN002=
201910220600 METAR LROP 220600Z 04006KT 0200 R08R/0300N R26L/0250N R08L/0275N
                        R26R/0300N FG OVC001 10/10 Q1025
                        R88/19//95 NOSIG=
201910220630 METAR LROP 220630Z 05006KT 0300 R08R/0400N R26L/0400N R08L/0350N
                        R26R/0400N FG BKN001 OVC002 11/11
                        Q1025 R88/19//95 BECMG 0600 BKN002=
201910220700 METAR LROP 220700Z 06005KT 020V080 0350 R08R/0400N R26L/0400N
                        R08L/0450N R26R/0375N FG BKN001 OVC002
                        11/11 Q1025 R88/19//95 BECMG 0600
                        BKN002=
201910220730 METAR LROP 220730Z 06005KT 0300 R08R/0350N R26L/0400N R08L/0350N
                        R26R/0400N FG BKN001 OVC002 12/12
                        Q1025 R88/19//95 BECMG 0600 BKN002=
201910220800 METAR LROP 220800Z 05005KT 020V080 0350 R08R/0450U R26L/0450N
                        R08L/0600N R26R/0550N FG BKN001 OVC002
                        12/12 Q1025 R88/19//95=
201910220830 METAR LROP 220830Z 05006KT 020V080 0400 R08R/0500N R26L/0500N
                        R08L/0500N R26R/0500N FG BKN001 OVC002
                        13/13 Q1025 R88/CLRD// BECMG 0800
                        BKN002=
201910220900 METAR COR LROP 220900Z 05005KT 010V080 0600 R08R/0600D R26L/0800U
                        R08L/0800D R26R/0800D FG OVC001 13/13
                        Q1025 R88/CLRD// BECMG 1500 BR BKN003=
201910220930 METAR COR LROP 220930Z 04004KT 020V080 0800 R08R/1100U R26L/1200U
                        R08L/1000U R26R/1200U FG BKN001 OVC002
                        13/13 Q1025 BECMG 3000 BR BKN005=
201910221000 METAR LROP 221000Z 07004KT 020V130 1500 BR OVC002 13/13 Q1025
                        BECMG 3000 BR BKN005=
201910221030 METAR LROP 221030Z 11005KT 070V130 5000 BR OVC003 14/13 Q1025
                        BECMG 7000 NSW BKN005=
201910221100 METAR LROP 221100Z 09005KT 7000 OVC004 14/14 Q1025 BECMG
                        SCT010=
201910221130 METAR LROP 221130Z 07005KT 030V120 8000 OVC005 15/14 Q1025
                        BECMG NSC=
201910221200 METAR COR LROP 221200Z 11004KT 060V160 9999 FEW006 15/14
                        Q1024 NOSIG=
201910221230 METAR LROP 221230Z 07004KT 020V120 CAVOK 16/14 Q1024 NOSIG=
201910221300 METAR LROP 221300Z 07004KT CAVOK 17/14 Q1024 NOSIG=
201910221330 METAR LROP 221330Z VRB02KT CAVOK 17/14 Q1024 NOSIG=
201910221400 METAR LROP 221400Z 06003KT 040V130 CAVOK 18/14 Q1024 NOSIG=
201910221430 METAR LROP 221430Z 05004KT CAVOK 17/14 Q1024 NOSIG=
201910221500 METAR LROP 221500Z 06004KT CAVOK 16/14 Q1024 NOSIG=
201910221530 METAR LROP 221530Z 05002KT CAVOK 15/14 Q1024 NOSIG=
201910221600 METAR LROP 221600Z 03004KT CAVOK 15/13 Q1024 NOSIG=
201910221630 METAR LROP 221630Z 01004KT 7000 NSC 14/14 Q1024 BECMG 5000
                        BR=
201910221700 METAR COR LROP 221700Z 01003KT 5000 BR NSC 14/13 Q1024 BECMG
                        3000 BR=
201910221730 METAR LROP 221730Z 36003KT 5000 BR NSC 13/13 Q1024 BECMG
                        3000 BR=
201910221800 METAR LROP 221800Z VRB02KT 5000 BR NSC 13/13 Q1024 BECMG
                        1500 BR=
201910221830 METAR LROP 221830Z VRB02KT 5000 BR NSC 13/13 Q1024 BECMG
                        3000 BR=
201910221900 METAR LROP 221900Z 03003KT 5000 BR NSC 12/12 Q1025 BECMG
                        3000 BR=
201910221930 METAR COR LROP 221930Z 07002KT 3000 MIFG BR NSC 12/12 Q1024
                        BECMG 1500 BR=
201910222000 METAR LROP 222000Z 05002KT 3000 MIFG BR NSC 11/11 Q1025 BECMG
                        1500 BR=
201910222030 METAR LROP 222030Z 05002KT 3000 R08R/P2000 R26L/0800 R08L/1900
                        R26R/0600N PRFG BR NSC 11/11 Q1025
                        BECMG 1500 BR=
201910222100 METAR LROP 222100Z VRB02KT 2500 R08R/P2000 R26L/0800D R08L/1700
                        R26R/0650 PRFG BR NSC 11/11 Q1024
                        BECMG 1500 BR=
201910222130 METAR LROP 222130Z 36004KT 3000 R08R/P2000 R26L/0450N R08L/2000
                        R26R/1100 PRFG BR FEW008 11/11 Q1024
                        BECMG 1500 BR=
201910222200 METAR LROP 222200Z 01004KT 4000 BR NSC 12/12 Q1024 BECMG
                        1500 BR BKN005=
201910222230 METAR LROP 222230Z 03004KT 3000 BR NSC 11/11 Q1024 BECMG
                        1500 BR BKN005=
201910222300 METAR LROP 222300Z 02004KT 2500 R08R/P2000 R26L/0275N R08L/P2000
                        R26R/0325N PRFG BR BKN002 11/11 Q1024
                        BECMG 1500 BR=
201910222330 METAR LROP 222330Z 36004KT 0300 R08R/0500U R26L/0250N R08L/0450N
                        R26R/0200N FG VV002 10/10 Q1024 NOSIG=
201910230000 METAR LROP 230000Z 03003KT 0200 R08R/0350N R26L/0200N R08L/0375N
                        R26R/0225N FG VV001 10/10 Q1024 NOSIG=
201910230030 METAR LROP 230030Z 02003KT 0200 R08R/0350N R26L/0225N R08L/0400N
                        R26R/0250N FG VV001 10/10 Q1024 NOSIG=
201910230100 METAR LROP 230100Z 02004KT 0200 R08R/0375N R26L/0275N R08L/0450N
                        R26R/0325N FG VV001 10/10 Q1024 NOSIG=
201910230130 METAR LROP 230130Z 02003KT 0300 R08R/0600N R26L/0325N R08L/0375
                        R26R/0350N FG VV001 09/09 Q1024 NOSIG=
201910230200 METAR LROP 230200Z 01003KT 0300 R08R/0450N R26L/0325N R08L/0500N
                        R26R/0300N FG VV001 09/09 Q1024 NOSIG=
201910230230 METAR LROP 230230Z 01003KT 0500 R08R/0750 R26L/0325N R08L/0500N
                        R26R/0300N FG VV002 09/09 Q1024 NOSIG=
201910230300 METAR LROP 230300Z 03003KT 0300 R08R/0500N R26L/0300N R08L/0500N
                        R26R/0325N FG VV002 08/08 Q1024 NOSIG=
201910230330 METAR LROP 230330Z 00000KT 0300 R08R/0450N R26L/0550N R08L/0400N
                        R26R/0450N FG VV001 08/08 Q1024 NOSIG=
201910230400 METAR LROP 230400Z 00000KT 0300 R08R/0550N R26L/0700N R08L/0700U
                        R26R/0400N FG VV001 08/08 Q1023 NOSIG=
201910230430 METAR LROP 230430Z 03003KT 0800 R08R/1600U R26L/0750U R08L/0550N
                        R26R/0400N FG OVC002 08/08 Q1024
                        BECMG 1500 BR BKN005=
201910230500 METAR LROP 230500Z 04003KT 0300 R08R/0450D R26L/0450N R08L/0225N
                        R26R/0350N FG OVC001 08/08 Q1024
                        NOSIG=
201910230530 METAR LROP 230530Z 04002KT 0200 R08R/0300N R26L/0300N R08L/0350N
                        R26R/0325N FG VV002 09/09 Q1024 NOSIG=
201910230600 METAR LROP 230600Z VRB02KT 0200 R08R/0350N R26L/0250N R08L/0300N
                        R26R/0250N FG VV002 09/09 Q1024 NOSIG=
201910230630 METAR LROP 230630Z VRB02KT 0300 R08R/0350N R26L/0350N R08L/0325N
                        R26R/0325N FG OVC001 10/10 Q1024
                        NOSIG=
201910230700 METAR LROP 230700Z VRB01KT 0250 R08R/0350N R26L/0350N R08L/0300N
                        R26R/0300N FG VV002 10/10 Q1024 BECMG
                        0600 BKN002=
201910230730 METAR LROP 230730Z 04002KT 0400 R08R/0550D R26L/0350N R08L/0300N
                        R26R/0350N FG OVC001 11/11 Q1024
                        BECMG 0800 BKN002=
201910230800 METAR LROP 230800Z VRB02KT 0400 R08R/0650N R26L/0600N R08L/0500U
                        R26R/0600N FG OVC001 11/11 Q1024
                        BECMG 0800 BKN002=
201910230830 METAR LROP 230830Z VRB01KT 1300 R08R/1900U R26L/1300U R08L/0800U
                        R26R/1700U BR BKN001 12/12 Q1024
                        BECMG 5000 BKN005=
201910230900 METAR LROP 230900Z VRB01KT 6000 FEW003 13/13 Q1024 NOSIG=
201910230930 METAR LROP 230930Z VRB02KT 9000 NSC 16/13 Q1023 NOSIG=
201910231000 METAR LROP 231000Z 11003KT 060V210 9000 NSC 18/13 Q1023 NOSIG=
201910231030 METAR LROP 231030Z 14004KT 070V220 CAVOK 20/13 Q1023 NOSIG=
201910231100 METAR LROP 231100Z 13004KT 100V220 CAVOK 20/14 Q1022 NOSIG=
201910231130 METAR LROP 231130Z 15004KT 080V220 CAVOK 22/13 Q1022 NOSIG=
201910231200 METAR LROP 231200Z 19004KT 150V220 CAVOK 22/13 Q1022 NOSIG=
201910231230 METAR LROP 231230Z 12003KT 010V170 8000 NSC 23/13 Q1022 NOSIG=
201910231300 METAR LROP 231300Z 13004KT 110V170 8000 NSC 23/12 Q1021 NOSIG=
201910231330 METAR LROP 231330Z 11005KT 8000 NSC 23/13 Q1021 NOSIG=
201910231400 METAR LROP 231400Z 12005KT 9000 NSC 22/14 Q1021 NOSIG=
201910231430 METAR LROP 231430Z 11006KT 9000 NSC 20/14 Q1021 NOSIG=
201910231500 METAR LROP 231500Z 10005KT 9000 NSC 20/13 Q1021 NOSIG=
201910231530 METAR LROP 231530Z 10006KT 8000 NSC 17/14 Q1021 NOSIG=
201910231600 METAR LROP 231600Z 07005KT 8000 NSC 16/13 Q1021 NOSIG=
201910231630 METAR LROP 231630Z 07005KT CAVOK 16/13 Q1022 NOSIG=
201910231700 METAR LROP 231700Z 04003KT 010V080 8000 NSC 15/13 Q1022 NOSIG=
201910231730 METAR COR LROP 231730Z 06007KT 6000 NSC 14/13 Q1022 BECMG
                        5000 BR=
201910231800 METAR LROP 231800Z 05008KT 6000 NSC 14/13 Q1022 NOSIG=
201910231830 METAR LROP 231830Z 05008KT 6000 NSC 14/13 Q1022 BECMG 5000
                        BR=
201910231900 METAR COR LROP 231900Z 05008KT 5000 BR NSC 13/13 Q1022 BECMG
                        3000 BR=
201910231930 METAR LROP 231930Z 05007KT 4000 BR NSC 13/13 Q1023 BECMG
                        3000 BR=
201910232000 METAR COR LROP 232000Z 06008KT 3000 BR SCT002 12/12 Q1023
                        BECMG 1500 BR BKN002=
201910232030 METAR LROP 232030Z 05008KT 0800 R08R/2000 R26L/1800U R08L/1500D
                        R26R/1100D FG BKN001 12/12 Q1022
                        BECMG 0600 FG=
201910232100 METAR LROP 232100Z 07008KT 0500 R08R/1100D R26L/0750N R08L/0800U
                        R26R/0800N FG OVC001 12/12 Q1022
                        BECMG 0150 FG=
201910232130 METAR LROP 232130Z 05007KT 0300 R08R/0800U R26L/0800D R08L/0800N
                        R26R/0800U FG OVC001 12/12 Q1022
                        BECMG 0150 FG=
201910232200 METAR LROP 232200Z 05007KT 0500 R08R/0800D R26L/0800U R08L/0800U
                        R26R/0800N FG OVC001 12/12 Q1022
                        NOSIG=
201910232230 METAR LROP 232230Z 06006KT 0300 R08R/0800U R26L/0800D R08L/0800U
                        R26R/0800N FG OVC001 12/12 Q1022
                        NOSIG=
201910232300 METAR LROP 232300Z 06008KT 0300 R08R/0800D R26L/0800D R08L/0800D
                        R26R/0800U FG OVC001 12/12 Q1022
                        NOSIG=
201910232330 METAR LROP 232330Z 07008KT 0400 R08R/0800D R26L/0800U R08L/0800D
                        R26R/0800D FG VV001 12/12 Q1022 NOSIG=
201910240000 METAR LROP 240000Z 07006KT 0200 R08R/0800N R26L/0800D R08L/0800D
                        R26R/0800N FG VV001 12/12 Q1022 NOSIG=
201910240030 METAR LROP 240030Z 04005KT 0200 R08R/0800N R26L/0800N R08L/0800U
                        R26R/0800N FG VV001 12/12 Q1022 NOSIG=
201910240100 METAR LROP 240100Z 04006KT 0200 R08R/0800N R26L/0800N R08L/0800U
                        R26R/0750D FG VV001 12/12 Q1022 NOSIG=
201910240130 METAR LROP 240130Z 06007KT 0200 R08R/0800D R26L/0800N R08L/0800U
                        R26R/0800N FG VV001 12/12 Q1022 NOSIG=
201910240200 METAR LROP 240200Z 04006KT 0300 R08R/0800N R26L/0800N R08L/0800N
                        R26R/0800N FG VV001 12/12 Q1022 NOSIG=
201910240230 METAR COR LROP 240230Z 05005KT 0200 R08R/0700N R26L/0800D
                        R08L/0800U R26R/0800U FG VV001 12/12
                        Q1022 NOSIG=
201910240300 METAR LROP 240300Z 04005KT 0300 R08R/0800U R26L/0750D R08L/0800N
                        R26R/0800U FG VV001 12/12 Q1022 R88/19//95
                        NOSIG=
201910240330 METAR LROP 240330Z 06006KT 0200 R08R/0800N R26L/0800N R08L/0800D
                        R26R/0800N FG VV001 12/12 Q1022 R88/19//95
                        NOSIG=
201910240400 METAR LROP 240400Z 07005KT 0200 R08R/0600N R26L/0800N R08L/0650N
                        R26R/0800N FG VV001 12/12 Q1021 R88/19//95
                        NOSIG=
201910240430 METAR LROP 240430Z 07004KT 0300 R08R/0650N R26L/0800D R08L/0700U
                        R26R/0800U FG VV001 12/12 Q1021 R88/19//95
                        NOSIG=
201910240500 METAR LROP 240500Z 06005KT 0250 R08R/0600U R26L/0600N R08L/0550N
                        R26R/0650N FG VV001 11/11 Q1021 R88/19//95
                        NOSIG=
201910240530 METAR LROP 240530Z 08006KT 0200 R08R/0500N R26L/0650N R08L/0500N
                        R26R/0700N FG VV001 11/11 Q1022 R88/19//95
                        NOSIG=
201910240600 METAR LROP 240600Z 08006KT 0250 R08R/0500N R26L/0700N R08L/0550U
                        R26R/0650N FG VV001 11/11 Q1022 R88/19//95
                        NOSIG=
201910240630 METAR LROP 240630Z 07006KT 0300 R08R/0650N R26L/0700N R08L/0650N
                        R26R/0650N FG VV002 11/11 Q1022 R88/19//95
                        BECMG 0600=
201910240700 METAR LROP 240700Z 08006KT 0750 R08R/1000D R26L/1000U R08L/0800N
                        R26R/1000U FG VV002 11/11 Q1022 R88/19//95
                        BECMG 1500 BR BKN002=
201910240730 METAR COR LROP 240730Z 09006KT 0750 R08R/1200U R26L/1200U
                        R08L/1000U R26R/1200D FG OVC001 11/11
                        Q1022 R88/19//95 BECMG BKN002=
201910240800 METAR LROP 240800Z 09005KT 0800 R08R/1500U R26L/1500N R08L/1200D
                        R26R/1700U FG OVC002 12/12 Q1022
                        R88/19//95 BECMG 1500 BR BKN003=
201910240830 METAR LROP 240830Z 08006KT 1500 BR OVC002 12/12 Q1022 R88/19//95
                        BECMG 3000 BKN003=
201910240900 METAR LROP 240900Z 06005KT 030V090 3500 BR OVC002 12/12 Q1022
                        R88/19//95 BECMG 5000 BKN003=
201910240930 METAR LROP 240930Z 07004KT 030V100 4000 BR OVC003 12/12 Q1022
                        R88/19//95 BECMG 5000 BKN005=
201910241000 METAR LROP 241000Z 07004KT 030V120 5000 BR OVC003 13/13 Q1022
                        R88/19//95 BECMG 9999 NSW BKN005=
201910241030 METAR LROP 241030Z 05004KT 010V080 8000 OVC004 13/13 Q1022
                        R88/19//95 BECMG BKN010=
201910241100 METAR LROP 241100Z 07005KT 050V120 9000 BKN005 OVC007 14/12
                        Q1021 R88/19//95 BECMG SCT010=
201910241130 METAR LROP 241130Z 06006KT 9000 BKN007 14/13 Q1021 R88/19//95
                        BECMG SCT010=
201910241200 METAR LROP 241200Z 09007KT 050V110 9000 SCT007 14/13 Q1021
                        R88/19//95 NOSIG=
201910241230 METAR LROP 241230Z 07006KT 040V100 9000 FEW009 15/13 Q1020
                        R08L/CLRD// NOSIG=
201910241300 METAR LROP 241300Z 10005KT 020V120 CAVOK 16/13 Q1020 NOSIG=
201910241330 METAR LROP 241330Z 06004KT 010V100 CAVOK 16/13 Q1019 NOSIG=
201910241400 METAR LROP 241400Z 05003KT 350V090 CAVOK 16/13 Q1019 NOSIG=
201910241430 METAR LROP 241430Z 04003KT 350V080 CAVOK 15/13 Q1019 NOSIG=
201910241500 METAR LROP 241500Z 05003KT 010V090 8000 NSC 14/13 Q1019=
201910241530 METAR LROP 241530Z 07004KT 6000 NSC 13/12 Q1019 NOSIG=
201910241600 METAR LROP 241600Z 07004KT 6000 NSC 12/12 Q1020 NOSIG=
201910241630 METAR LROP 241630Z 05003KT 6000 NSC 12/12 Q1020 BECMG 5000
                        BR=
201910241700 METAR LROP 241700Z 04003KT 010V070 5000 BR NSC 12/11 Q1020
                        BECMG 3000 BR=
201910241730 METAR LROP 241730Z 03003KT 360V060 5000 BR NSC 12/12 Q1020
                        BECMG 3000 BR=
201910241800 METAR LROP 241800Z 04004KT 360V070 5000 BR NSC 11/11 Q1020
                        BECMG 3000 BR=
201910241830 METAR LROP 241830Z 04003KT 340V060 4000 BR FEW004 11/11 Q1020
                        BECMG 3000 BR=
201910241900 METAR LROP 241900Z 04003KT 340V070 0800 R08L/1500D R26R/0350N
                        FG BKN002 11/11 Q1020 BECMG 0350
                        FG VV001=
201910241930 METAR LROP 241930Z 05004KT 310V080 0200 R08L/0200N R26R/0150N
                        FG VV002 11/11 Q1020 NOSIG=
201910242000 METAR LROP 242000Z 05008KT 0200 R08R/0550N R26L/0550N R08L/0175N
                        R26R/0175N FG VV002 11/11 Q1020 NOSIG=
201910242030 METAR LROP 242030Z 05008KT 0200 R08R/0600N R26L/0550N R08L/0600N
                        R26R/0600N FG VV002 12/12 Q1020 NOSIG=
201910242100 METAR LROP 242100Z 05007KT 0200 R08R/0600N R26L/0600N R08L/0600N
                        R26R/0600N FG VV002 12/12 Q1020 NOSIG=
201910242130 METAR LROP 242130Z 04007KT 0200 R08R/0650N R26L/0550N R08L/0700N
                        R26R/0650N FG VV002 12/12 Q1020 NOSIG=
201910242200 METAR LROP 242200Z 05008KT 0200 R08R/0750N R26L/0600N R08L/0700N
                        R26R/0700N FG VV002 12/12 Q1020 NOSIG=
201910242230 METAR LROP 242230Z 05009KT 0300 R08R/0800U R26L/0800N R08L/0800N
                        R26R/0800N FG VV002 12/12 Q1020 NOSIG=
201910242300 METAR LROP 242300Z 04009KT 0400 R08R/1000D R26L/0800N R08L/1100U
                        R26R/0900N FG OVC002 12/12 Q1020
                        NOSIG=
201910242330 METAR LROP 242330Z 05008KT 0400 R08R/1100N R26L/1000N R08L/0900N
                        R26R/1000N FG VV002 12/12 Q1020 NOSIG=
201910250000 METAR LROP 250000Z 05008KT 0400 R08R/1100N R26L/1000U R08L/0900N
                        R26R/1000D FG VV002 12/12 Q1020 NOSIG=
201910250030 METAR LROP 250030Z 05008KT 0400 R08R/1000D R26L/1000U R08L/0900N
                        R26R/0900D FG VV002 12/12 Q1020 NOSIG=
201910250100 METAR LROP 250100Z 06008KT 0400 R08R/1000N R26L/0900N R08L/0900N
                        R26R/1000N FG VV002 12/12 Q1020 NOSIG=
201910250130 METAR LROP 250130Z 04007KT 0300 R08R/1000N R26L/0900N R08L/1100D
                        R26R/0900N FG VV002 12/12 Q1020 NOSIG=
201910250200 METAR LROP 250200Z 03006KT 0300 R08R/0800N R26L/0800N R08L/0900N
                        R26R/0800D FG VV002 12/12 Q1020 NOSIG=
201910250230 METAR LROP 250230Z 06006KT 0300 R08R/0900N R26L/0900N R08L/0900N
                        R26R/1000N FG VV002 12/12 Q1020 NOSIG=
201910250300 METAR LROP 250300Z 07008KT 0300 R08R/1000U R26L/0800D R08L/0900D
                        R26R/0800N FG VV002 12/12 Q1020 NOSIG=
201910250330 METAR LROP 250330Z 03007KT 0300 R08R/0800D R26L/0800D R08L/1000U
                        R26R/1000U FG VV002 12/12 Q1020 NOSIG=
201910250400 METAR LROP 250400Z 04006KT 0500 R08R/0900 R26L/1000N R08L/1100D
                        R26R/0800 -DZ FG VV002 12/12 Q1020
                        NOSIG=
201910250430 METAR LROP 250430Z 05006KT 020V080 0500 R08R/1100N R26L/1200
                        R08L/1200N R26R/1200U -DZ FG VV002
                        12/12 Q1020 NOSIG=
201910250500 METAR LROP 250500Z 07006KT 0800 R08R/1100 R26L/1000 R08L/1500
                        R26R/1400 FG VV001 12/12 Q1020 NOSIG=
201910250530 METAR LROP 250530Z 05007KT 1100 R08R/1300 R26L/1200 R08L/1200
                        R26R/1400D BR OVC001 12/12 Q1020
                        BECMG 1500 OVC002=
201910250600 METAR LROP 250600Z 08006KT 0800 R08R/1700U R26L/P2000 R08L/2000
                        R26R/P2000 FG OVC002 12/12 Q1021
                        BECMG 1500 OVC002=
201910250630 METAR COR LROP 250630Z 03006KT 1500 BR OVC002 12/12 Q1021
                        BECMG 3000=
201910250700 METAR LROP 250700Z 07005KT 2500 BR OVC002 12/12 Q1021 BECMG
                        3000=
201910250730 METAR LROP 250730Z 05005KT 020V080 3000 BR OVC002 12/12 Q1021
                        BECMG 5000=
201910250800 METAR LROP 250800Z 10005KT 4000 BR OVC003 12/12 Q1021 BECMG
                        5000=
201910250830 METAR LROP 250830Z 04005KT 360V070 5000 BR OVC004 13/13 Q1021
                        BECMG 9999 NSW=
201910250900 METAR LROP 250900Z 02003KT 310V110 5000 BR OVC004 13/13 Q1021
                        BECMG 8000 NSW BKN007=
201910250930 METAR LROP 250930Z 36004KT 310V030 6000 OVC005 14/13 Q1021
                        BECMG 8000 NSW BKN007=
201910251000 METAR LROP 251000Z 04004KT 360V070 8000 OVC007 14/13 Q1021
                        NOSIG=
201910251030 METAR LROP 251030Z VRB01KT 9000 BKN008 15/13 Q1021 NOSIG=
201910251100 METAR LROP 251100Z VRB02KT 9000 BKN010 16/13 Q1021 NOSIG=
201910251130 METAR LROP 251130Z VRB01KT CAVOK 16/13 Q1020 NOSIG=
201910251200 METAR LROP 251200Z 13003KT 080V180 CAVOK 18/13 Q1020 NOSIG=
201910251230 METAR LROP 251230Z VRB01KT CAVOK 18/13 Q1020 NOSIG=
201910251300 METAR COR LROP 251300Z VRB01KT CAVOK 18/13 Q1020 NOSIG=
201910251330 METAR LROP 251330Z VRB01KT CAVOK 19/13 Q1020 NOSIG=
201910251400 METAR LROP 251400Z 00000KT CAVOK 18/13 Q1020 NOSIG=
201910251430 METAR LROP 251430Z 00000KT CAVOK 17/13 Q1020 NOSIG=
201910251500 METAR LROP 251500Z 09004KT CAVOK 16/14 Q1020 NOSIG=
201910251530 METAR LROP 251530Z 11003KT CAVOK 15/13 Q1020 NOSIG=
201910251600 METAR LROP 251600Z 12004KT 8000 NSC 13/13 Q1021 BECMG 5000
                        BR=
201910251630 METAR LROP 251630Z 05003KT 8000 NSC 13/12 Q1021 BECMG 5000
                        BR=
201910251700 METAR LROP 251700Z 06003KT 6000 NSC 14/13 Q1021 BECMG 5000
                        BR=
201910251730 METAR COR LROP 251730Z 01004KT 5000 BR NSC 13/12 Q1021 BECMG
                        3000 BR=
201910251800 METAR LROP 251800Z VRB02KT 5000 BR NSC 13/12 Q1021 BECMG
                        3000 BR=
201910251830 METAR LROP 251830Z 35003KT 6000 NSC 13/12 Q1022 BECMG 3000
                        BR=
201910251900 METAR LROP 251900Z 01004KT 5000 BR NSC 12/12 Q1022 BECMG
                        1500 BR=
201910251930 METAR LROP 251930Z 02005KT 5000 BR NSC 12/12 Q1022 BECMG
                        1500 BR=
201910252000 METAR LROP 252000Z 01005KT 4000 BR NSC 12/12 Q1022 BECMG
                        1500 BR=
201910252030 METAR LROP 252030Z 03004KT 3000 R08R/P2000 R26L/0800U R08L/1500D
                        R26R/0300N BR FG NSC 11/11 Q1022
                        BECMG 0800 FG=
201910252100 METAR LROP 252100Z 01006KT 2000 R08R/P2000 R26L/0350N R08L/0550N
                        R26R/0300N BR NSC 11/11 Q1023 BECMG
                        0800 FG BKN002=
201910252130 METAR LROP 252130Z 02005KT 1900 R08R/2000 R26L/0300N R08L/0700N
                        R26R/0300N BR VV009 11/11 Q1023 BECMG
                        0800 FG=
201910252200 METAR LROP 252200Z 02005KT 1100 R08R/1400U R26L/0275N R08L/0400N
                        R26R/0500D PRFG VV001 10/10 Q1023
                        BECMG 0600 FG=
201910252230 METAR LROP 252230Z 03005KT 1100 R08R/0900D R26L/0350N R08L/0650U
                        R26R/0375N FG OVC001 10/10 Q1023
                        BECMG 0350 FG=
201910252300 METAR LROP 252300Z 04005KT 0350 R08R/0400N R26L/0325N R08L/0400N
                        R26R/0375N FG VV001 10/10 Q1023 BECMG
                        0150 FG=
201910252330 METAR LROP 252330Z 09002KT 0300 R08R/0300U R26L/0550N R08L/0800U
                        R26R/P2000 FG VV002 10/10 Q1023 TEMPO
                        0150 FG=
201910260000 METAR LROP 260000Z 05001KT 0500 R08R/0650U R26L/0300N R08L/0900D
                        R26R/0600D BCFG SCT013 09/09 Q1023
                        TEMPO 0150 FG=
201910260030 METAR LROP 260030Z 03002KT 2000 R08R/P2000 R26L/0400N R08L/P2000
                        R26R/1000U PRFG BKN013 09/09 Q1023
                        TEMPO 0800 FG BKN005=
201910260100 METAR LROP 260100Z 04002KT 2000 BR BKN013 10/10 Q1023 TEMPO
                        1500 BR BKN010=
201910260130 METAR LROP 260130Z 03002KT 2000 R08R/P2000 R26L/0650N R08L/P2000
                        R26R/P2000 MIFG PRFG OVC013 10/10
                        Q1023 TEMPO 1500 BR BKN010=
201910260200 METAR LROP 260200Z 03002KT 2000 R08R/2000 R26L/0600N R08L/P2000
                        R26R/2000 MIFG PRFG BKN013 10/10
                        Q1023 TEMPO 1500 MIFG BR BKN010=
201910260230 METAR LROP 260230Z 02003KT 2900 R08R/P2000 R26L/0700D R08L/P2000
                        R26R/P2000 PRFG BKN005 OVC013 10/10
                        Q1023 TEMPO 1500 MIFG BR=
201910260300 METAR LROP 260300Z 02003KT 2500 BR BKN004 OVC011 12/12 Q1024
                        TEMPO 1500 BR=
201910260330 METAR LROP 260330Z 03004KT 3000 BR OVC005 12/12 Q1024 TEMPO
                        1500 BR=
201910260400 METAR LROP 260400Z 04003KT 3500 BR OVC005 12/12 Q1024 NOSIG=
201910260430 METAR LROP 260430Z 03003KT 3000 BR BKN006 OVC013 12/12 Q1024
                        NOSIG=
201910260500 METAR LROP 260500Z 05002KT 1200 R08R/1200D R26L/0800N R08L/1500D
                        R26R/0300N PRFG BR SCT006 BKN012
                        11/11 Q1024 NOSIG=
201910260530 METAR COR LROP 260530Z 10003KT 0800 R08R/0800D R26L/0150N
                        R08L/0800D R26R/0300N FG SCT007 SCT013
                        11/11 Q1025 TEMPO 0350 FG=
201910260600 METAR COR LROP 260600Z 00000KT 1500 0800E R08R/0800U R26L/0225N
                        R08L/1200D R26R/0800U PRFG BR SCT007
                        12/12 Q1025 BECMG 3000=
201910260630 METAR LROP 260630Z VRB01KT 2000 BR NSC 14/13 Q1025 BECMG
                        5000=
201910260700 METAR LROP 260700Z 00000KT 3500 BR NSC 14/13 Q1025 BECMG
                        5000=
201910260730 METAR LROP 260730Z VRB02KT 5000 BR SCT010 16/13 Q1025 BECMG
                        9999 NSW=
201910260800 METAR LROP 260800Z 12003KT 080V160 6000 SCT012 16/13 Q1025
                        NOSIG=
201910260830 METAR LROP 260830Z VRB02KT 6000 SCT013 16/13 Q1025 NOSIG=
201910260900 METAR LROP 260900Z VRB02KT 7000 FEW015 17/13 Q1025 NOSIG=
201910260930 METAR LROP 260930Z 15003KT 100V200 8000 NSC 17/12 Q1025 NOSIG=
201910261000 METAR LROP 261000Z VRB02KT CAVOK 19/13 Q1025 NOSIG=
201910261030 METAR LROP 261030Z 26004KT 210V320 CAVOK 19/13 Q1024 NOSIG=
201910261100 METAR LROP 261100Z VRB02KT CAVOK 20/13 Q1024 NOSIG=
201910261130 METAR LROP 261130Z 18004KT 110V270 CAVOK 20/12 Q1024 NOSIG=
201910261200 METAR LROP 261200Z VRB02KT CAVOK 20/13 Q1024 NOSIG=
201910261230 METAR LROP 261230Z 21004KT 160V260 CAVOK 20/12 Q1024 NOSIG=
201910261300 METAR LROP 261300Z 26004KT 220V290 CAVOK 20/13 Q1024 NOSIG=
201910261330 METAR LROP 261330Z 16006KT 130V210 7000 NSC 19/14 Q1024 NOSIG=
201910261400 METAR LROP 261400Z 14007KT 6000 NSC 18/14 Q1023 NOSIG=
201910261430 METAR LROP 261430Z 17007KT 7000 NSC 17/14 Q1024 NOSIG=
201910261500 METAR LROP 261500Z 17005KT 7000 NSC 16/13 Q1024 NOSIG=
201910261530 METAR LROP 261530Z 19005KT 7000 NSC 14/13 Q1024 NOSIG=
201910261600 METAR LROP 261600Z 21004KT 6000 NSC 14/13 Q1024 NOSIG=
201910261630 METAR COR LROP 261630Z 23004KT 5000 BR NSC 13/12 Q1024 BECMG
                        3000 BR=
201910261700 METAR LROP 261700Z 24004KT 5000 BR NSC 12/12 Q1024 BECMG
                        3000 BR=
201910261730 METAR LROP 261730Z 25004KT 5000 BR NSC 11/11 Q1024 BECMG
                        3000 BR=
201910261800 METAR LROP 261800Z 26005KT 4000 BR NSC 11/11 Q1023 BECMG
                        3000 BR=
201910261830 METAR LROP 261830Z 25004KT 3500 BR NSC 11/11 Q1023 NOSIG=
201910261900 METAR LROP 261900Z 24003KT 3000 MIFG BR NSC 10/10 Q1023 NOSIG=
201910261930 METAR LROP 261930Z 24003KT 3000 MIFG BR NSC 10/10 Q1023 NOSIG=
201910262000 METAR LROP 262000Z 25004KT 2500 MIFG BR FEW016 10/10 Q1023
                        BECMG 0800 FG=
201910262030 METAR LROP 262030Z 25004KT 0500 R08R/0700 R26L/0800 R08L/1100
                        R26R/1000 FG VV003 09/09 Q1023 TEMPO
                        0350 FG VV001=
201910262100 METAR LROP 262100Z 26005KT 0300 R08R/0325 R26L/1400 R08L/0800N
                        R26R/0275N FG VV002 09/09 Q1023 NOSIG=
201910262130 METAR LROP 262130Z 25002KT 0300 R08R/0375N R26L/0250N R08L/P2000
                        R26R/0275N FG BKN009 09/09 Q1023
                        NOSIG=
201910262200 METAR LROP 262200Z 26004KT 0400 R08R/1400 R26L/0250N R08L/1200
                        R26R/0400 FG BKN002 08/08 Q1023 NOSIG=
201910262230 METAR LROP 262230Z 24002KT 0300 R08R/0350D R26L/0250N R08L/0350N
                        R26R/0350N FG BKN003 08/08 Q1023
                        NOSIG=
201910262300 METAR LROP 262300Z 24002KT 0300 R08R/0500U R26L/0250 R08L/0300
                        R26R/0650N FG BKN004 07/07 Q1023
                        NOSIG=
201910262330 METAR LROP 262330Z 24003KT 0300 R08R/0450N R26L/1000 R08L/0450N
                        R26R/0400N FG BKN001 07/07 Q1023
                        NOSIG=
201910270000 METAR LROP 270000Z 25004KT 0300 R08R/0325N R26L/0400N R08L/0375N
                        R26R/0450N FG VV001 07/07 Q1023 NOSIG=
201910270030 METAR LROP 270030Z 26004KT 0250 R08R/0300N R26L/0375N R08L/0550
                        R26R/0400 FG VV001 06/06 Q1022 NOSIG=
201910270100 METAR LROP 270100Z 00000KT 0300 R08R/0350N R26L/0350N R08L/0500
                        R26R/0450N FG VV001 06/06 Q1022 NOSIG=
201910270130 METAR LROP 270130Z 24002KT 0300 R08R/0500N R26L/0550 R08L/0900
                        R26R/0550N FG VV004 07/07 Q1022 NOSIG=
201910270200 METAR LROP 270200Z 28003KT 0300 R08R/0600U R26L/0400 R08L/P2000
                        R26R/0600N FG VV001 06/06 Q1022 NOSIG=
201910270230 METAR LROP 270230Z 27002KT 0400 R08R/0600N R26L/1100 R08L/0500N
                        R26R/0500N FG VV001 05/05 Q1022 NOSIG=
201910270300 METAR LROP 270300Z 00000KT 0400 R08R/0600 R26L/0325 R08L/0350
                        R26R/0375N FG VV001 06/06 Q1022 NOSIG=
201910270330 METAR LROP 270330Z VRB01KT 0400 R08R/0600 R26L/0550N R08L/0600
                        R26R/0800 FG VV005 06/06 Q1022 NOSIG=
201910270400 METAR LROP 270400Z 11002KT 0350 R08R/0400N R26L/0325N R08L/0400
                        R26R/0400 FG VV001 05/05 Q1022 NOSIG=
201910270430 METAR LROP 270430Z VRB02KT 0250 R08R/0400 R26L/0325N R08L/0325N
                        R26R/0225N FG VV001 05/05 Q1022 NOSIG=
201910270500 METAR LROP 270500Z 01001KT 0200 R08R/0700D R26L/0275N R08L/0325N
                        R26R/0300N FG BKN002 05/05 Q1022
                        NOSIG=
201910270530 METAR LROP 270530Z 00000KT 0700 R08R/0550D R26L/0200N R08L/0400N
                        R26R/0250N FG BKN002 05/05 Q1022
                        NOSIG=
201910270600 METAR LROP 270600Z 04002KT 0200 R08R/0250N R26L/0200N R08L/0250N
                        R26R/0225N FG VV001 06/06 Q1022 NOSIG=
201910270630 METAR LROP 270630Z 06003KT 360V080 0300 R08R/0350N R26L/0250N
                        R08L/0300N R26R/0275N FG VV002 06/06
                        Q1022 BECMG 0600 BKN005=
201910270700 METAR LROP 270700Z VRB02KT 0200 R08R/0250N R26L/0250N R08L/0250N
                        R26R/0225N FG OVC001 07/07 Q1022
                        BECMG 0350 BKN002=
201910270730 METAR LROP 270730Z VRB01KT 0200 R08R/0250N R26L/0275N R08L/0250N
                        R26R/0225N FG VV001 08/08 Q1022 BECMG
                        0350 BKN002=
201910270800 METAR LROP 270800Z VRB02KT 0200 R08R/0275N R26L/0325N R08L/0350N
                        R26R/0275N FG VV001 08/08 Q1022 NOSIG=
201910270830 METAR LROP 270830Z 08003KT 040V140 0350 R08R/0450N R26L/0700U
                        R08L/0375N R26R/0375N FG VV002 09/09
                        Q1022 BECMG 0600 BKN002=
201910270900 METAR LROP 270900Z VRB02KT 0600 R08R/1000U R26L/0900D R08L/0500D
                        R26R/0400N FG OVC001 10/10 Q1021
                        BECMG 1500 BR BKN005=
201910270930 METAR LROP 270930Z VRB01KT 3500 BR SCT002 12/12 Q1021 BECMG
                        CAVOK=
201910271000 METAR LROP 271000Z VRB01KT 5000 BR FEW005 14/12 Q1021 NOSIG=
201910271030 METAR LROP 271030Z VRB02KT 6000 FEW010 17/12 Q1020 NOSIG=
201910271100 METAR LROP 271100Z 21004KT 160V240 7000 NSC 19/12 Q1020 NOSIG=
201910271130 METAR LROP 271130Z VRB03KT 8000 NSC 19/11 Q1019 NOSIG=
201910271200 METAR LROP 271200Z 23005KT 190V260 8000 NSC 20/10 Q1019 NOSIG=
201910271230 METAR LROP 271230Z 21004KT 160V240 CAVOK 20/10 Q1019 NOSIG=
201910271300 METAR LROP 271300Z 21003KT 170V230 CAVOK 19/10 Q1018 NOSIG=
201910271330 METAR LROP 271330Z 17005KT 140V200 CAVOK 19/10 Q1018 NOSIG=
201910271400 METAR LROP 271400Z 20004KT CAVOK 18/10 Q1018 NOSIG=
201910271430 METAR LROP 271430Z 20003KT CAVOK 17/11 Q1018 NOSIG=
201910271500 METAR LROP 271500Z 19003KT CAVOK 15/11 Q1018 NOSIG=
201910271530 METAR LROP 271530Z 18002KT CAVOK 14/11 Q1018 BECMG 5000 BR=
201910271600 METAR LROP 271600Z 20002KT 8000 NSC 13/11 Q1018 BECMG 5000
                        BR=
201910271630 METAR LROP 271630Z 17001KT 8000 NSC 11/10 Q1018 BECMG 5000
                        BR=
201910271700 METAR LROP 271700Z 18001KT 6000 NSC 11/11 Q1018 BECMG 5000
                        BR=
201910271730 METAR LROP 271730Z 26001KT 6000 NSC 11/10 Q1017 BECMG 5000
                        BR=
201910271800 METAR LROP 271800Z 00000KT 6000 NSC 10/10 Q1017 BECMG 5000
                        BR=
201910271830 METAR LROP 271830Z 26002KT 5000 BR NSC 10/10 Q1017 BECMG
                        3000 BR=
201910271900 METAR LROP 271900Z 27002KT 4000 BR NSC 10/10 Q1017 BECMG
                        3000 BR=
201910271930 METAR LROP 271930Z VRB02KT 4000 BR NSC 09/09 Q1017 BECMG
                        3000 BR=
201910272000 METAR COR LROP 272000Z 00000KT 2000 MIFG BR NSC 09/09 Q1017
                        BECMG 1500 BR=
201910272030 METAR LROP 272030Z 00000KT 2500 MIFG BR NSC 08/08 Q1017 BECMG
                        1500 BR=
201910272100 METAR LROP 272100Z 31001KT 3000 MIFG BR NSC 08/08 Q1017 NOSIG=
201910272130 METAR LROP 272130Z VRB02KT 2000 R08R/2000 R26L/0800U R08L/P2000
                        R26R/1800D PRFG BR FEW008 09/09 Q1017
                        BECMG 1500 BR=
201910272200 METAR COR LROP 272200Z VRB01KT 2000 R08R/P2000D R26L/1500D
                        R08L/0800N R26R/0250D PRFG BR NSC
                        09/08 Q1017 BECMG 1500 BR=
201910272230 METAR LROP 272230Z 23002KT 2500 R08R/P2000 R26L/0800U R08L/2000
                        R26R/0225U PRFG BR NSC 07/07 Q1017
                        BECMG 1500 BR=
201910272300 METAR LROP 272300Z VRB01KT 1500 R08R/2000 R26L/0650D R08L/P2000
                        R26R/0300N PRFG BR SCT005 07/07 Q1016
                        BECMG 0800 FG BKN002=
201910272330 METAR LROP 272330Z 27002KT 0300 R08R/0400D R26L/0350N R08L/P2000
                        R26R/0375N FG BKN001 06/06 Q1016
                        BECMG 0150 FG VV001=
201910280000 METAR LROP 280000Z 29004KT 0400 R08R/0400U R26L/0450N R08L/P2000
                        R26R/0325N FG BKN001 06/06 Q1016
                        NOSIG=
201910280030 METAR LROP 280030Z VRB01KT 2000 R08R/2000 R26L/0325N R08L/1100D
                        R26R/0450N PRFG BR BKN001 BKN005
                        06/06 Q1016 NOSIG=
201910280100 METAR LROP 280100Z 27003KT 0800 R08R/0800U R26L/0275N R08L/0800U
                        R26R/0250N FG BKN001 OVC005 06/06
                        Q1016 NOSIG=
201910280130 METAR LROP 280130Z 29003KT 1500 R08R/1800D R26L/0550U R08L/P2000
                        R26R/0350N PRFG BR BKN001 BKN003
                        BKN008 05/05 Q1016 NOSIG=
201910280200 METAR COR LROP 280200Z VRB01KT 1500 R08R/P2000 R26L/0800U
                        R08L/1300D R26R/0300N PRFG BR OVC015
                        05/05 Q1015 NOSIG=
201910280230 METAR LROP 280230Z 27001KT 2000 R08R/P2000D R26L/0325N R08L/1700U
                        R26R/0550U PRFG BR SCT001 05/05 Q1015
                        NOSIG=
201910280300 METAR LROP 280300Z 28003KT 1500 R08R/1700N R26L/0300N R08L/0550U
                        R26R/0800U PRFG BR SCT001 BKN005
                        05/05 Q1015 NOSIG=
201910280330 METAR LROP 280330Z 00000KT 2000 R08R/P2000 R26L/0400N R08L/P2000
                        R26R/P2000 PRFG BR SCT005 SCT010
                        04/04 Q1015 NOSIG=
201910280400 METAR LROP 280400Z 27004KT 0200 R08R/0400N R26L/0500N R08L/P2000
                        R26R/0700N FG OVC001 03/03 Q1015
                        NOSIG=
201910280430 METAR LROP 280430Z 29002KT 1500 R08R/P2000 R26L/P2000 R08L/0800D
                        R26R/0300N PRFG BR SCT001 SCT010
                        04/04 Q1015 NOSIG=
201910280500 METAR LROP 280500Z 04003KT 0800 R08R/1200U R26L/0350N R08L/0250N
                        R26R/0325N FG BKN004 BKN012 04/04
                        Q1015 NOSIG=
201910280530 METAR LROP 280530Z 04002KT 0450 R08R/0500D R26L/0175N R08L/0200N
                        R26R/0250N FG VV001 04/04 Q1015 BECMG
                        0800 BKN002=
201910280600 METAR LROP 280600Z 06002KT 0200 R08R/0225N R26L/0225N R08L/0200N
                        R26R/0225N FG VV001 04/04 Q1016 BECMG
                        0600 BKN002=
201910280630 METAR LROP 280630Z 04003KT 0200 R08R/0350N R26L/0275N R08L/0275N
                        R26R/0250N FG VV001 05/05 Q1016 BECMG
                        0600 BKN002=
201910280700 METAR LROP 280700Z 03003KT 0150 R08R/0275N R26L/0275N R08L/0300N
                        R26R/0275N FG VV001 06/06 Q1016 NOSIG=
201910280730 METAR LROP 280730Z 02003KT 350V070 0150 R08R/0250N R26L/0325N
                        R08L/0275N R26R/0275N FG VV001 07/07
                        Q1016 BECMG 0600 BKN002=
201910280800 METAR LROP 280800Z 03002KT 0200 R08R/0375N R26L/0325N R08L/0275N
                        R26R/0325N FG VV001 08/08 Q1016 BECMG
                        0600 BKN002=
201910280830 METAR LROP 280830Z VRB01KT 0400 R08R/0600N R26L/0600N R08L/0300N
                        R26R/0450N FG VV001 08/08 Q1016 BECMG
                        0800 BKN002=
201910280900 METAR LROP 280900Z VRB02KT 0800 R08R/1000D R26L/0900U R08L/0800U
                        R26R/0800U FG VV002 09/09 Q1016 BECMG
                        1500 BR BKN005=
201910280930 METAR LROP 280930Z VRB02KT 2500 BR FEW003 11/11 Q1016 BECMG
                        5000=
201910281000 METAR LROP 281000Z 11003KT 020V160 4000 BR FEW005 14/11 Q1015
                        BECMG 5000=
201910281030 METAR LROP 281030Z VRB02KT 4500 BR NSC 14/11 Q1015 NOSIG=
201910281100 METAR LROP 281100Z VRB02KT 5000 BR NSC 15/11 Q1015 NOSIG=
201910281130 METAR LROP 281130Z 11003KT 050V160 5000 BR NSC 17/11 Q1014
                        NOSIG=
201910281200 METAR LROP 281200Z 09003KT 010V170 5000 BR NSC 17/11 Q1014
                        NOSIG=
201910281230 METAR LROP 281230Z 10003KT 050V150 5000 BR NSC 18/12 Q1014
                        NOSIG=
201910281300 METAR LROP 281300Z 09004KT 4900 BR NSC 18/11 Q1014 NOSIG=
201910281330 METAR LROP 281330Z 12004KT 4800 BR NSC 18/12 Q1014 NOSIG=
201910281400 METAR LROP 281400Z 08003KT 4500 BR NSC 17/12 Q1014 NOSIG=
201910281430 METAR LROP 281430Z 11004KT 4700 BR NSC 16/12 Q1014 NOSIG=
201910281500 METAR LROP 281500Z 10005KT 4500 NSC 14/12 Q1014 NOSIG=
201910281530 METAR LROP 281530Z 05003KT 4000 BR NSC 13/10 Q1014 NOSIG=
201910281600 METAR COR LROP 281600Z 07003KT 4000 BR NSC 13/11 Q1014 NOSIG=
201910281630 METAR LROP 281630Z 07003KT 4000 BR NSC 12/10 Q1015 BECMG
                        3000 BR=
201910281700 METAR LROP 281700Z 06003KT 4000 BR NSC 11/10 Q1015 BECMG
                        3000 BR=
201910281730 METAR LROP 281730Z 04003KT 4000 BR NSC 10/10 Q1015 BECMG
                        3000 BR=
201910281800 METAR LROP 281800Z VRB02KT 3000 BR NSC 10/09 Q1015 BECMG
                        1500 BR=
201910281830 METAR LROP 281830Z 06003KT 2000 MIFG BR NSC 10/09 Q1015 BECMG
                        1500 BR=
201910281900 METAR LROP 281900Z 05005KT 3000 BR NSC 09/09 Q1016 BECMG
                        1500 BR=
201910281930 METAR LROP 281930Z 05005KT 3000 BR NSC 09/09 Q1016 BECMG
                        1500 BR=
201910282000 METAR LROP 282000Z 04005KT 2500 BR NSC 09/09 Q1016 BECMG
                        0800 FG=
201910282030 METAR LROP 282030Z 05003KT 1500 R08R/P2000 R26L/0275D R08L/1000D
                        R26R/0225N PRFG BR FEW002 09/09 Q1016
                        BECMG 0800 FG=
201910282100 METAR LROP 282100Z 07005KT 0100 R08R/0200N R26L/0250N R08L/0200N
                        R26R/0200N FG SCT001 08/08 Q1016
                        NOSIG=
201910282130 METAR LROP 282130Z 08004KT 0200 R08R/0300N R26L/0325N R08L/0200N
                        R26R/0350N FG VV002 08/08 Q1016 NOSIG=
201910282200 METAR LROP 282200Z 10003KT 0400 R08R/0300N R26L/0200N R08L/1000U
                        R26R/1800U FG FEW004 07/07 Q1016
                        NOSIG=
201910282230 METAR LROP 282230Z 10004KT 0800 R08R/0550N R26L/0800U R08L/1600U
                        R26R/0450N FG FEW013 07/07 Q1016
                        NOSIG=
201910282300 METAR LROP 282300Z 06002KT 0600 R08R/0350N R26L/0200N R08L/0550U
                        R26R/0325N FG SCT005 07/07 Q1017
                        NOSIG=
201910282330 METAR LROP 282330Z 08001KT 0200 R08R/0225N R26L/0400N R08L/0800U
                        R26R/0375N FG SCT001 07/07 Q1017
                        NOSIG=
201910290000 METAR LROP 290000Z 04003KT 0200 R08R/0550N R26L/0500N R08L/0600N
                        R26R/0400N FG VV001 08/08 Q1016 NOSIG=
201910290030 METAR LROP 290030Z 04004KT 0200 R08R/0450N R26L/0350N R08L/0450N
                        R26R/0400N FG VV001 09/09 Q1016 NOSIG=
201910290100 METAR LROP 290100Z 06005KT 0200 R08R/0450N R26L/0400N R08L/0400N
                        R26R/0450N FG VV001 09/09 Q1016 NOSIG=
201910290130 METAR LROP 290130Z 04006KT 0200 R08R/0650U R26L/0500N R08L/0800N
                        R26R/0700N FG VV002 09/09 Q1017 NOSIG=
201910290200 METAR LROP 290200Z 06006KT 0200 R08R/0600N R26L/0550N R08L/0500N
                        R26R/0800N FG VV002 09/09 Q1016 NOSIG=
201910290230 METAR LROP 290230Z 06007KT 0800 R08R/0800U R26L/0700U R08L/0550N
                        R26R/0800D FG OVC001 09/09 Q1017
                        NOSIG=
201910290300 METAR LROP 290300Z 04006KT 1400 R08R/1700U R26L/0750N R08L/1800D
                        R26R/1200U PRFG BR OVC001 09/09 Q1017
                        TEMPO 1500 BR OVC002=
201910290330 METAR LROP 290330Z 03004KT 2500 BR BKN001 09/09 Q1017 BECMG
                        3000 BR OVC002=
201910290400 METAR LROP 290400Z 03004KT 3000 BR SCT002 OVC015 09/09 Q1017
                        NOSIG=
201910290430 METAR LROP 290430Z 01005KT 3000 BR FEW004 BKN015 08/08 Q1017
                        TEMPO 1500 BR=
201910290500 METAR LROP 290500Z 01005KT 1700 BR BKN015 09/09 Q1017 NOSIG=
201910290530 METAR LROP 290530Z 02004KT 2000 BR BKN015 09/09 Q1017 NOSIG=
201910290600 METAR LROP 290600Z 02002KT 2000 BR FEW003 SCT015 10/09 Q1018
                        BECMG 3000=
201910290630 METAR LROP 290630Z 03003KT 360V060 2000 BR SCT006 BKN016
                        10/10 Q1018 BECMG 3000=
201910290700 METAR LROP 290700Z 04005KT 2500 BR BKN005 OVC007 10/10 Q1018
                        BECMG 3000=
201910290730 METAR LROP 290730Z 06007KT 4000 BR OVC006 11/10 Q1018 BECMG
                        5000 BKN010=
201910290800 METAR LROP 290800Z 06007KT 4000 BR OVC006 11/10 Q1018 BECMG
                        5000 BKN015=
201910290830 METAR LROP 290830Z 07006KT 4000 BR OVC007 11/11 Q1018 BECMG
                        5000 BKN015=
201910290900 METAR LROP 290900Z 09007KT 5000 BR OVC007 12/11 Q1018 BECMG
                        7000 NSW BKN015=
201910290930 METAR COR LROP 290930Z 09007KT 6000 OVC008 12/11 Q1018 BECMG
                        BKN015=
201910291000 METAR LROP 291000Z 09007KT 7000 OVC009 13/11 Q1018 BECMG
                        BKN015=
201910291030 METAR LROP 291030Z 09007KT 060V120 7000 OVC011 13/11 Q1018
                        BECMG BKN015=
201910291100 METAR LROP 291100Z 08006KT 8000 OVC012 13/11 Q1018 NOSIG=
201910291130 METAR LROP 291130Z 11008KT 9000 OVC013 14/11 Q1017 NOSIG=
201910291200 METAR LROP 291200Z 08006KT 9000 OVC015 14/11 Q1017 NOSIG=
201910291230 METAR LROP 291230Z 09006KT 9999 OVC017 14/11 Q1017 NOSIG=
201910291300 METAR LROP 291300Z 10008KT 9999 OVC019 15/11 Q1017 NOSIG=
201910291330 METAR LROP 291330Z 10007KT 060V120 9999 OVC020 14/11 Q1017
                        NOSIG=
201910291400 METAR LROP 291400Z 10008KT 9999 BKN020 15/10 Q1017 NOSIG=
201910291430 METAR LROP 291430Z 08008KT 9999 BKN020 14/10 Q1017 NOSIG=
201910291500 METAR COR LROP 291500Z 09007KT 9000 OVC021 14/10 Q1017 NOSIG=
201910291530 METAR LROP 291530Z 07006KT 8000 OVC020 13/10 Q1017 NOSIG=
201910291600 METAR LROP 291600Z 07005KT 030V110 8000 BKN020 13/10 Q1017
                        NOSIG=
201910291630 METAR LROP 291630Z 06005KT 030V090 9000 SCT020 13/10 Q1018
                        NOSIG=
201910291700 METAR COR LROP 291700Z 06008KT 8000 FEW020 12/10 Q1018 NOSIG=
201910291730 METAR LROP 291730Z 05008KT 8000 FEW018 12/10 Q1018 NOSIG=
201910291800 METAR LROP 291800Z 06009KT 7000 SCT016 11/10 Q1018 NOSIG=
201910291830 METAR LROP 291830Z 05008KT 8000 BKN016 12/10 Q1018 NOSIG=
201910291900 METAR LROP 291900Z 06008KT 8000 OVC016 12/10 Q1018 NOSIG=
201910291930 METAR LROP 291930Z 06008KT 9000 OVC016 12/10 Q1019 NOSIG=
201910292000 METAR LROP 292000Z 06009KT 9999 OVC015 11/10 Q1019 NOSIG=
201910292030 METAR LROP 292030Z 06008KT 9999 OVC015 11/10 Q1019 NOSIG=
201910292100 METAR LROP 292100Z 06009KT 9999 OVC014 11/10 Q1019 NOSIG=
201910292130 METAR LROP 292130Z 06008KT 9999 OVC014 11/10 Q1019 NOSIG=
201910292200 METAR LROP 292200Z 05008KT 9000 OVC014 11/10 Q1019 NOSIG=
201910292230 METAR LROP 292230Z 05010KT 9999 OVC014 11/10 Q1019 NOSIG=
201910292300 METAR LROP 292300Z 05008KT 9999 OVC009 11/10 Q1019 NOSIG=
201910292330 METAR LROP 292330Z 06010KT 9000 OVC007 11/10 Q1020 NOSIG=
201910300000 METAR LROP 300000Z 05013KT 9999 BKN007 OVC017 10/09 Q1020
                        NOSIG=
201910300030 METAR LROP 300030Z 06011KT 9999 BKN010 OVC015 10/08 Q1020
                        NOSIG=
201910300100 METAR LROP 300100Z 06010KT 9999 FEW010 OVC014 10/08 Q1020
                        NOSIG=
201910300130 METAR LROP 300130Z 07010KT 9999 -RA OVC018 09/09 Q1020 R88/19//95
                        NOSIG=
201910300200 METAR LROP 300200Z 07012KT 9999 -RA BKN009 OVC013 09/09 Q1021
                        R88/19//95 NOSIG=
201910300230 METAR LROP 300230Z 06012KT 9999 BKN009 OVC023 09/08 Q1021
                        R88/19//95 NOSIG=
201910300300 METAR LROP 300300Z 07013KT 9999 BKN009 OVC023 09/08 Q1021
                        R88/19//95 NOSIG=
201910300330 METAR LROP 300330Z 07014KT 9999 BKN010 OVC028 09/08 Q1021
                        R88/19//95 NOSIG=
201910300400 METAR LROP 300400Z 08011KT 9999 BKN010 OVC030 09/08 Q1022
                        R88/19//95 NOSIG=
201910300430 METAR LROP 300430Z 08012KT 9999 -RA SCT011 OVC032 09/08 Q1022
                        R88/19//95 NOSIG=
201910300500 METAR LROP 300500Z 07014KT 9999 OVC033 09/08 Q1022 R88/19//95
                        NOSIG=
201910300530 METAR LROP 300530Z 08013KT 9999 -RA OVC035 08/07 Q1023 R88/19//95
                        NOSIG=
201910300600 METAR LROP 300600Z 08012KT 9999 -RA OVC035 08/07 Q1023 R88/19//95
                        NOSIG=
201910300630 METAR LROP 300630Z 08012KT 9999 -RA OVC035 08/07 Q1023 R88/19//95
                        NOSIG=
201910300700 METAR LROP 300700Z 08013KT 9999 OVC037 09/06 Q1024 R88/19//95
                        NOSIG=
201910300730 METAR LROP 300730Z 08011KT 9999 OVC036 09/06 Q1024 R88/19//95
                        NOSIG=
201910300800 METAR LROP 300800Z 08012KT 9999 OVC040 09/06 Q1024 R88/19//95
                        NOSIG=
201910300830 METAR LROP 300830Z 07012KT 9999 OVC041 09/06 Q1024 R88/CLRD//
                        NOSIG=
201910300900 METAR LROP 300900Z 07012KT 9999 OVC041 10/06 Q1025 R88/CLRD//
                        NOSIG=
201910300930 METAR LROP 300930Z 08011KT 9999 OVC043 10/06 Q1025 NOSIG=
201910301000 METAR LROP 301000Z 08011KT 9999 OVC045 10/05 Q1025 NOSIG=
201910301030 METAR LROP 301030Z 08013KT 9999 OVC045 10/05 Q1025 NOSIG=
201910301100 METAR LROP 301100Z 07013KT 9999 OVC046 10/05 Q1025 NOSIG=
201910301130 METAR LROP 301130Z 08014KT 9999 OVC047 10/05 Q1024 NOSIG=
201910301200 METAR LROP 301200Z 07014KT 9999 OVC047 10/05 Q1024 NOSIG=
201910301230 METAR LROP 301230Z 07012KT 9999 OVC046 10/05 Q1024 NOSIG=
201910301300 METAR LROP 301300Z 08011KT 9999 -RA SCT045 10/06 Q1024 NOSIG=
201910301330 METAR LROP 301330Z 07011KT 9999 -RA OVC043 10/06 Q1024 NOSIG=
201910301400 METAR LROP 301400Z 07012KT 9999 OVC043 10/06 Q1024 NOSIG=
201910301430 METAR LROP 301430Z 08008KT 9999 OVC044 09/06 Q1024 NOSIG=
201910301500 METAR LROP 301500Z 07010KT 9999 -RA OVC041 09/07 Q1024 NOSIG=
201910301530 METAR LROP 301530Z 07008KT 9999 -RA OVC040 09/07 Q1024 R88/29//95
                        NOSIG=
201910301600 METAR LROP 301600Z 05010KT 9999 -RA OVC041 08/07 Q1024 R88/29//95
                        NOSIG=
201910301630 METAR LROP 301630Z 05011KT 9999 -RA OVC041 08/07 Q1025 R88/29//95
                        BECMG 5000 -RA=
201910301700 METAR LROP 301700Z 05011KT 9999 -RA OVC042 08/07 Q1025 R88/29//95
                        BECMG 5000 -RA=
201910301730 METAR LROP 301730Z 06010KT 8000 -RA OVC042 08/07 Q1025 R88/29//95
                        BECMG 5000 -RA=
201910301800 METAR LROP 301800Z 06010KT 8000 -RA OVC041 07/07 Q1025 R88/29//95
                        BECMG 5000 -RA=
201910301830 METAR LROP 301830Z 05009KT 9000 -RA OVC041 07/07 Q1025 R88/29//95
                        BECMG 5000 -RA=
201910301900 METAR LROP 301900Z 06010KT 8000 -RA OVC037 07/07 Q1025 R88/29//95
                        BECMG 5000 -RA=
201910301930 METAR LROP 301930Z 06010KT 8000 -RA OVC023 07/07 Q1025 R88/29//95
                        BECMG 5000 -RA BKN015=
201910302000 METAR LROP 302000Z 06008KT 7000 -RA OVC023 07/07 Q1025 R88/29//95
                        BECMG 5000 -RA BKN015=
201910302030 METAR LROP 302030Z 06009KT 7000 -RA OVC021 07/07 Q1024 R88/29//95
                        TEMPO 5000 -RA BKN015=
201910302100 METAR LROP 302100Z 05009KT 7000 RA OVC020 07/07 Q1024 R88/29//95
                        BECMG 5000 -RA BKN015=
201910302130 METAR LROP 302130Z 04010KT 7000 RA OVC020 07/07 Q1024 R88/29//95
                        BECMG 5000 -RA BKN015=
201910302200 METAR LROP 302200Z 05012KT 9999 -RA OVC022 07/06 Q1024 R88/29//95
                        BECMG 5000 -RA BKN015=
201910302230 METAR LROP 302230Z 04012KT 9999 -RA OVC022 07/06 Q1024 R88/29//95
                        BECMG 5000 -RA BKN015=
201910302300 METAR LROP 302300Z 04014KT 9999 -RA FEW010 OVC021 06/06 Q1025
                        R88/29//95 BECMG 5000 -RA BKN015=
201910302330 METAR LROP 302330Z 03016KT 8000 -RA BKN007 OVC022 06/06 Q1025
                        R88/29//95 BECMG 5000 -RA BKN005
                        OVC010=
201910310000 METAR LROP 310000Z 04016KT 9999 -RA OVC007 06/06 Q1025 R88/29//95
                        BECMG 5000 -RA OVC005=
201910310030 METAR LROP 310030Z 05015KT 9000 -RA BKN008 OVC035 06/06 Q1025
                        R88/29//95 BECMG 5000 -RA OVC005=
201910310100 METAR LROP 310100Z 04016KT 9999 -RA BKN008 OVC038 06/05 Q1025
                        R88/29//95 NOSIG=
201910310130 METAR LROP 310130Z 05016KT 9999 -RA BKN008 OVC038 05/05 Q1025
                        R88/29//95 NOSIG=
201910310200 METAR LROP 310200Z 05015KT 9999 -RA BKN009 OVC043 05/05 Q1025
                        R88/29//95 NOSIG=
201910310230 METAR LROP 310230Z 05014KT 9999 -RA OVC008 05/05 Q1025 R88/29//95
                        NOSIG=
201910310300 METAR LROP 310300Z 06015KT 7000 -RA BKN008 OVC045 05/05 Q1025
                        R88/29//95 NOSIG=
201910310330 METAR LROP 310330Z 05013KT 8000 -RA BKN007 OVC045 05/04 Q1025
                        R88/29//95 NOSIG=
201910310400 METAR LROP 310400Z 05013KT 9999 -RA OVC008 04/04 Q1025 R88/29//95
                        NOSIG=
201910310430 METAR LROP 310430Z 06014KT 9999 -RA BKN008 OVC034 04/04 Q1026
                        R88/29//95 NOSIG=
201910310500 METAR LROP 310500Z 05012KT 9999 -RA BKN007 OVC030 04/04 Q1026
                        R88/29//95 NOSIG=
201910310530 METAR LROP 310530Z 05010KT 9000 -RA BKN005 OVC030 04/04 Q1026
                        R88/29//95 NOSIG=
201910310600 METAR LROP 310600Z 06011KT 9999 -RA BKN005 OVC026 04/04 Q1026
                        R88/29//95 NOSIG=
201910310630 METAR LROP 310630Z 06013KT 9999 -RA BKN008 OVC020 04/04 Q1027
                        R88/29//95 NOSIG=
201910310700 METAR LROP 310700Z 06014KT 8000 -RA BKN009 OVC026 04/04 Q1027
                        R88/29//95 NOSIG=
201910310730 METAR LROP 310730Z 06012KT 8000 -RA BKN007 OVC019 04/04 Q1027
                        R88/29//95 NOSIG=
201910310800 METAR LROP 310800Z 06014KT 9000 -RA BKN009 OVC030 04/04 Q1027
                        R88/29//95 NOSIG=
201910310830 METAR LROP 310830Z 06013KT 9999 -RA BKN009 OVC037 05/04 Q1027
                        R88/29//95 NOSIG=
201910310900 METAR LROP 310900Z 06013KT 9999 -RA BKN010 OVC037 05/04 Q1027
                        R88/29//95 NOSIG=
201910310930 METAR LROP 310930Z 06012KT 9999 -RA BKN012 OVC037 05/05 Q1027
                        R88/29//95 NOSIG=
201910311000 METAR LROP 311000Z 06012KT 9999 -RA SCT012 OVC039 06/04 Q1027
                        R88/29//95 NOSIG=
201910311030 METAR LROP 311030Z 07012KT 9999 SCT013 OVC049 06/05 Q1027
                        R88/29//95 NOSIG=
201910311100 METAR LROP 311100Z 07012KT 9999 SCT014 BKN047 06/04 Q1027
                        R88/29//95 NOSIG=
201910311130 METAR LROP 311130Z 06011KT 9999 SCT014 BKN042 07/05 Q1026
                        R88/29//95 NOSIG=
201910311200 METAR LROP 311200Z 06013KT 9999 FEW018 OVC043 07/04 Q1026
                        R88/29//95 NOSIG=
201910311230 METAR LROP 311230Z 07011KT 9999 BKN047 07/04 Q1026 R88/29//95
                        NOSIG=
201910311300 METAR LROP 311300Z 06011KT 9999 FEW020 07/04 Q1026 R88/29//95
                        NOSIG=
201910311330 METAR LROP 311330Z 06010KT 9999 SCT043 07/04 Q1026 R88/19//95
                        NOSIG=
201910311400 METAR LROP 311400Z 06009KT 9999 SCT043 07/04 Q1026 R88/19//95
                        NOSIG=
201910311430 METAR LROP 311430Z 06008KT CAVOK 07/03 Q1026 R88/19//95 NOSIG=
201910311500 METAR LROP 311500Z 07007KT CAVOK 07/04 Q1026 R88/19//95 NOSIG=
201910311530 METAR LROP 311530Z 07007KT 9999 OVC049 06/04 Q1026 R88/19//95
                        NOSIG=
201910311600 METAR LROP 311600Z 06005KT 9999 OVC048 06/04 Q1026 R88/19//95
                        NOSIG=
201910311630 METAR LROP 311630Z 07006KT 9999 OVC045 06/03 Q1026 R88/CLRD//
                        NOSIG=
201910311700 METAR LROP 311700Z 06007KT 9999 OVC043 06/03 Q1026 NOSIG=
201910311730 METAR LROP 311730Z 06006KT 9999 OVC044 06/03 Q1026 NOSIG=
201910311800 METAR COR LROP 311800Z 05006KT 9999 -RA OVC044 06/03 Q1026
                        NOSIG=
201910311830 METAR LROP 311830Z 05006KT 9999 -RA OVC043 06/03 Q1026 NOSIG=
201910311900 METAR LROP 311900Z 04007KT 9999 OVC043 06/03 Q1026 NOSIG=
201910311930 METAR LROP 311930Z 04006KT 9999 OVC044 06/03 Q1026 R08R/19//95
                        R08L/CLRD// NOSIG=
201910312000 METAR LROP 312000Z 04006KT 9999 OVC045 06/02 Q1026 R08R/19//95
                        R08L/CLRD// NOSIG=
201910312030 METAR LROP 312030Z 05006KT 9999 OVC049 06/02 Q1026 R88/CLRD//
                        NOSIG=
201910312100 METAR LROP 312100Z 05007KT CAVOK 06/02 Q1026 NOSIG=
201910312130 METAR LROP 312130Z 05007KT CAVOK 06/02 Q1026 NOSIG=
201910312200 METAR LROP 312200Z 05007KT CAVOK 06/02 Q1026 NOSIG=
201910312230 METAR LROP 312230Z 05006KT CAVOK 06/02 Q1026 NOSIG=
201910312300 METAR LROP 312300Z 04006KT 9999 OVC048 06/02 Q1026 NOSIG=
201910312330 METAR LROP 312330Z 04005KT CAVOK 06/02 Q1026 NOSIG=
