201912010000 METAR LROP 010000Z 12007KT CAVOK 04/03 Q1020 R88/29//95 NOSIG=
201912010030 METAR LROP 010030Z 11007KT 9999 -RA OVC049 04/03 Q1021 R88/29//95
                        NOSIG=
201912010100 METAR LROP 010100Z 11007KT 9999 -RA NSC 04/03 Q1021 R88/29//95
                        NOSIG=
201912010130 METAR LROP 010130Z 12005KT 9999 -RA FEW015 04/03 Q1022 R88/29//95
                        NOSIG=
201912010200 METAR COR LROP 010200Z 10005KT 070V130 9999 -RA SCT013 BKN040
                        04/03 Q1022 R88/29//95 NOSIG=
201912010230 METAR LROP 010230Z 11007KT 9999 -RA SCT036 04/02 Q1022 R88/29//95
                        NOSIG=
201912010300 METAR LROP 010300Z 11007KT 9999 -RA BKN034 03/02 Q1023 R88/29//95
                        NOSIG=
201912010330 METAR LROP 010330Z 10007KT 9999 -RA OVC034 03/02 Q1023 R88/29//95
                        NOSIG=
201912010400 METAR LROP 010400Z 09007KT 9999 -RA OVC046 03/M00 Q1023 R88/29//95
                        NOSIG=
201912010430 METAR LROP 010430Z 06010KT 9999 -SN OVC045 03/M00 Q1024 R88/29//95
                        NOSIG=
201912010500 METAR LROP 010500Z 10007KT 9999 -SN OVC040 03/M01 Q1024 R88/29//95
                        NOSIG=
201912010530 METAR LROP 010530Z 10007KT 9999 -SN OVC037 03/M01 Q1024 R88/29//95
                        NOSIG=
201912010600 METAR LROP 010600Z 11006KT 9999 -SN OVC036 03/M00 Q1025 R88/29//95
                        NOSIG=
201912010630 METAR LROP 010630Z 15005KT 9999 -SN OVC032 03/00 Q1025 R88/29//95
                        NOSIG=
201912010700 METAR LROP 010700Z 14004KT 9999 OVC029 03/M00 Q1026 R88/29//95
                        NOSIG=
201912010730 METAR LROP 010730Z 14005KT 9999 -SN BKN031 OVC041 03/M01
                        Q1026 R88/29//95 NOSIG=
201912010800 METAR LROP 010800Z 13006KT 9999 -SN BKN031 OVC040 03/M00
                        Q1027 R88/29//95 NOSIG=
201912010830 METAR LROP 010830Z 12009KT 9999 -SN OVC032 03/00 Q1027 R88/29//95
                        NOSIG=
201912010900 METAR LROP 010900Z 12007KT 9999 -SN BKN034 OVC044 03/M01
                        Q1027 R88/29//95 NOSIG=
201912010930 METAR LROP 010930Z 12006KT 9999 OVC040 03/M01 Q1027 R88/29//95
                        NOSIG=
201912011000 METAR LROP 011000Z 13005KT 060V160 9999 OVC037 03/M00 Q1027
                        R88/29//95 NOSIG=
201912011030 METAR LROP 011030Z 13004KT 100V160 9999 OVC038 04/M02 Q1027
                        R88/29//95 NOSIG=
201912011100 METAR LROP 011100Z 14003KT 110V170 9999 OVC040 04/M02 Q1027
                        R88/29//95 NOSIG=
201912011130 METAR LROP 011130Z 13004KT 9999 -SHGS OVC040 04/M02 Q1027
                        R88/29//95 NOSIG=
201912011200 METAR LROP 011200Z 12004KT 9999 OVC045 04/M03 Q1027 R88/29//95
                        NOSIG=
201912011230 METAR LROP 011230Z 15004KT 9999 OVC045 04/M03 Q1027 R88/29//95
                        NOSIG=
201912011300 METAR LROP 011300Z 13003KT 9999 OVC045 04/M03 Q1027 R88/29//95
                        NOSIG=
201912011330 METAR LROP 011330Z 10004KT 070V130 9999 BKN048 04/M03 Q1028
                        R88/29//95 NOSIG=
201912011400 METAR LROP 011400Z 14004KT 9999 BKN046 03/M02 Q1028 R88/29//95
                        NOSIG=
201912011430 METAR LROP 011430Z 12002KT 9999 SCT046 02/M02 Q1028 R88/29//95
                        NOSIG=
201912011500 METAR LROP 011500Z 10002KT 9999 SCT045 02/M02 Q1028 R88/29//95
                        NOSIG=
201912011530 METAR LROP 011530Z 09002KT 9999 SCT045 01/M01 Q1028 R88/29//95
                        NOSIG=
201912011600 METAR LROP 011600Z 04003KT CAVOK 01/M02 Q1028 R88/29//95
                        NOSIG=
201912011630 METAR LROP 011630Z 00000KT CAVOK M00/M02 Q1028 R88/29//95
                        NOSIG=
201912011700 METAR COR LROP 011700Z 36004KT CAVOK M00/M01 Q1029 R88/19//95
                        NOSIG=
201912011730 METAR LROP 011730Z 36004KT CAVOK M00/M01 Q1029 R88/19//95
                        NOSIG=
201912011800 METAR LROP 011800Z 04002KT CAVOK 00/M00 Q1029 R88/19//95
                        NOSIG=
201912011830 METAR LROP 011830Z VRB01KT 8000 NSC M00/M00 Q1029 R88/19//95
                        NOSIG=
201912011900 METAR LROP 011900Z VRB02KT 7000 NSC M01/M01 Q1029 R88/19//95
                        NOSIG=
201912011930 METAR LROP 011930Z 08002KT 6000 NSC M01/M01 Q1029 R88/19//95
                        NOSIG=
201912012000 METAR LROP 012000Z 07003KT 5000 BR NSC M01/M01 Q1029 R88/19//95
                        NOSIG=
201912012030 METAR LROP 012030Z 09002KT 5000 BR NSC M01/M01 Q1029 R88/09//95
                        NOSIG=
201912012100 METAR LROP 012100Z 09002KT 5000 MIFG BR NSC M01/M01 Q1029
                        R88/09//95 NOSIG=
201912012130 METAR LROP 012130Z 07001KT 3000 MIFG BR NSC M01/M01 Q1029
                        R88/09//95 BECMG 1500 BR=
201912012200 METAR LROP 012200Z 00000KT 2500 MIFG BR NSC M02/M02 Q1029
                        R88/09//95 BECMG 1500 BR=
201912012230 METAR LROP 012230Z 00000KT 2500 MIFG BR NSC M02/M02 Q1029
                        R88/09//95 BECMG 1500 BR=
201912012300 METAR LROP 012300Z 00000KT 3000 MIFG BR NSC M02/M02 Q1028
                        R88/09//95 BECMG 1500 BR=
201912012330 METAR LROP 012330Z 00000KT 0400 R08R/0500N R26L/0700N R08L/P2000
                        R26R/0800 FZFG FEW004 M02/M02 Q1028
                        R88/09//95 NOSIG=
201912020000 METAR LROP 020000Z 00000KT 0900 R08R/1100N R26L/0650D R08L/1100
                        R26R/0900 FZFG NSC M04/M04 Q1028
                        R88/09//95 TEMPO 0350 FZFG=
201912020030 METAR LROP 020030Z 00000KT 2500 MIFG BR NSC M03/M03 Q1028
                        REFZFG R88/09//95 TEMPO 0350 FZFG=
201912020100 METAR LROP 020100Z 00000KT 3000 BR NSC M03/M03 Q1028 R88/09//95
                        TEMPO 1500 BR=
201912020130 METAR LROP 020130Z 00000KT 2000 MIFG BR NSC M03/M03 Q1027
                        R88/09//95 TEMPO 1500 BR=
201912020200 METAR LROP 020200Z 00000KT 2000 MIFG BR NSC M03/M03 Q1027
                        R88/09//95 TEMPO 1500 BR=
201912020230 METAR LROP 020230Z 00000KT 3000 BR NSC M03/M03 Q1027 R88/09//95
                        TEMPO 1500 BR=
201912020300 METAR COR LROP 020300Z 03003KT 3000 NSC M03/M03 Q1027 R88/09//95
                        TEMPO 1500 BR=
201912020330 METAR COR LROP 020330Z 06004KT 3000 BR NSC M03/M03 Q1026
                        R88/09//95 TEMPO 1500 BR=
201912020400 METAR LROP 020400Z 07003KT 3500 BR NSC M03/M03 Q1026 R88/09//95
                        NOSIG=
201912020430 METAR LROP 020430Z 07004KT 5000 BR NSC M02/M02 Q1026 R88/09//95
                        NOSIG=
201912020500 METAR LROP 020500Z 03003KT 010V090 7000 NSC M02/M02 Q1026
                        R88/09//95 NOSIG=
201912020530 METAR LROP 020530Z 04005KT 5000 BR NSC M01/M01 Q1026 R88/09//95
                        TEMPO 3000 BR=
201912020600 METAR COR LROP 020600Z 07004KT 3000 BR NSC M02/M02 Q1025
                        R88/09//95 NOSIG=
201912020630 METAR LROP 020630Z 05003KT 4000 BR NSC M02/M02 Q1025 R88/09//95
                        NOSIG=
201912020700 METAR LROP 020700Z 07004KT 4000 BR NSC M01/M01 Q1025 R88/09//95
                        NOSIG=
201912020730 METAR LROP 020730Z 06003KT 020V080 6000 NSC M00/M01 Q1025
                        R88/09//95 NOSIG=
201912020800 METAR LROP 020800Z VRB02KT 9000 NSC 00/M00 Q1025 R88/09//95
                        NOSIG=
201912020830 METAR LROP 020830Z VRB02KT 9000 NSC 01/M00 Q1024 R88/09//95
                        NOSIG=
201912020900 METAR LROP 020900Z 01003KT 340V070 CAVOK 02/00 Q1024 R88/09//95
                        NOSIG=
201912020930 METAR LROP 020930Z VRB01KT CAVOK 02/00 Q1023 R88/09//95 NOSIG=
201912021000 METAR LROP 021000Z VRB02KT CAVOK 03/M01 Q1022 R88/09//95
                        NOSIG=
201912021030 METAR LROP 021030Z VRB02KT CAVOK 04/M01 Q1022 R88/09//95
                        NOSIG=
201912021100 METAR LROP 021100Z 26003KT 210V290 CAVOK 04/M01 Q1021 R88/09//95
                        NOSIG=
201912021130 METAR LROP 021130Z 24003KT 190V270 CAVOK 04/M01 Q1021 R88/09//95
                        NOSIG=
201912021200 METAR LROP 021200Z 25003KT CAVOK 05/M01 Q1020 R88/09//95
                        NOSIG=
201912021230 METAR LROP 021230Z 25004KT 200V290 CAVOK 05/M01 Q1020 R88/09//95
                        NOSIG=
201912021300 METAR LROP 021300Z 29005KT CAVOK 05/M00 Q1020 R88/09//95
                        NOSIG=
201912021330 METAR LROP 021330Z 28005KT CAVOK 04/00 Q1019 R88/09//95 NOSIG=
201912021400 METAR LROP 021400Z 27004KT CAVOK 04/01 Q1019 R88/09//95 NOSIG=
201912021430 METAR COR LROP 021430Z 28005KT CAVOK 03/01 Q1018 R88/09//95
                        NOSIG=
201912021500 METAR LROP 021500Z 27004KT CAVOK 03/01 Q1018 R88/09//95 NOSIG=
201912021530 METAR LROP 021530Z 25004KT CAVOK 03/01 Q1018 R88/09//95 NOSIG=
201912021600 METAR LROP 021600Z 27003KT CAVOK 03/01 Q1017 R88/09//95 NOSIG=
201912021630 METAR LROP 021630Z 28005KT CAVOK 03/01 Q1017 R88/09//95 NOSIG=
201912021700 METAR LROP 021700Z 29006KT CAVOK 03/02 Q1017 R88/09//95 NOSIG=
201912021730 METAR LROP 021730Z 27006KT CAVOK 03/01 Q1017 R88/09//95 NOSIG=
201912021800 METAR LROP 021800Z 27007KT CAVOK 04/01 Q1017 R88/09//95 NOSIG=
201912021830 METAR LROP 021830Z 26007KT CAVOK 04/01 Q1017 R88/09//95 NOSIG=
201912021900 METAR LROP 021900Z 26006KT CAVOK 03/01 Q1017 R88/09//95 NOSIG=
201912021930 METAR LROP 021930Z 25008KT CAVOK 03/01 Q1016 R88/09//95 NOSIG=
201912022000 METAR LROP 022000Z 27008KT CAVOK 03/01 Q1016 R88/09//95 NOSIG=
201912022030 METAR LROP 022030Z 27009KT CAVOK 03/01 Q1016 R88/09//95 NOSIG=
201912022100 METAR LROP 022100Z 27008KT 9999 -SHRA FEW050CB 03/01 Q1017
                        R88/19//95 NOSIG=
201912022130 METAR LROP 022130Z 27009KT CAVOK 03/01 Q1017 R88/19//95 NOSIG=
201912022200 METAR LROP 022200Z 27009KT CAVOK 03/01 Q1016 R88/19//95 NOSIG=
201912022230 METAR LROP 022230Z 28008KT CAVOK 03/01 Q1017 R88/19//95 NOSIG=
201912022300 METAR LROP 022300Z 29009KT CAVOK 04/01 Q1017 R88/19//95 NOSIG=
201912022330 METAR LROP 022330Z 27008KT CAVOK 03/01 Q1017 R88/19//95 NOSIG=
201912030000 METAR LROP 030000Z 27008KT CAVOK 03/01 Q1017 R88/19//95 NOSIG=
201912030030 METAR LROP 030030Z 28006KT CAVOK 03/01 Q1017 R88/19//95 NOSIG=
201912030100 METAR LROP 030100Z 27008KT CAVOK 03/01 Q1017 R88/19//95 NOSIG=
201912030130 METAR LROP 030130Z 27006KT CAVOK 03/01 Q1018 R88/19//95 NOSIG=
201912030200 METAR LROP 030200Z 27005KT CAVOK 03/02 Q1018 R88/19//95 NOSIG=
201912030230 METAR LROP 030230Z 26006KT CAVOK 03/02 Q1018 R88/19//95 NOSIG=
201912030300 METAR LROP 030300Z 24005KT CAVOK 03/02 Q1019 R88/19//95 NOSIG=
201912030330 METAR LROP 030330Z 26004KT 9999 -RA NSC 03/02 Q1019 R88/19//95
                        NOSIG=
201912030400 METAR LROP 030400Z 08003KT 340V110 9999 -RA OVC074 03/02
                        Q1019 R88/19//95 NOSIG=
201912030430 METAR LROP 030430Z 09003KT 9000 -RA NSC 03/02 Q1020 R88/19//95
                        NOSIG=
201912030500 METAR LROP 030500Z 10003KT 7000 -RASN NSC 03/03 Q1020 R88/19//95
                        NOSIG=
201912030530 METAR LROP 030530Z 11004KT 6000 -RASN NSC 03/03 Q1020 R88/29//95
                        NOSIG=
201912030600 METAR LROP 030600Z 14003KT 7000 NSC 03/03 Q1021 R88/29//95
                        NOSIG=
201912030630 METAR LROP 030630Z 11002KT 8000 NSC 03/03 Q1022 R88/29//95
                        NOSIG=
201912030700 METAR LROP 030700Z 09003KT 7000 SCT045 03/03 Q1022 R08R/19//95
                        R08L/29//95 NOSIG=
201912030730 METAR LROP 030730Z 08003KT 6000 FEW040 04/03 Q1022 R08R/19//95
                        R08L/29//95 NOSIG=
201912030800 METAR COR LROP 030800Z 12005KT 8000 FEW015 04/03 Q1022 R08R/19//95
                        NOSIG=
201912030830 METAR LROP 030830Z 13006KT 9999 FEW007 04/02 Q1023 R08R/19//95
                        NOSIG=
201912030900 METAR LROP 030900Z 11007KT 9999 FEW009 04/02 Q1023 R08R/19//95
                        NOSIG=
201912030930 METAR LROP 030930Z 12007KT 9999 FEW009 05/02 Q1023 R08R/19//95
                        NOSIG=
201912031000 METAR COR LROP 031000Z 11006KT 9999 FEW008 05/01 Q1023 R88/CLRD//
                        NOSIG=
201912031030 METAR LROP 031030Z 09006KT 9999 FEW009 04/01 Q1023 R88/CLRD//
                        NOSIG=
201912031100 METAR LROP 031100Z 08006KT 9999 SCT008 BKN041 04/01 Q1023
                        R88/CLRD// NOSIG=
201912031130 METAR LROP 031130Z 07005KT 9999 SCT009 OVC042 04/01 Q1023
                        NOSIG=
201912031200 METAR LROP 031200Z 08005KT 9999 FEW009 SCT017 BKN047 04/02
                        Q1023 NOSIG=
201912031230 METAR LROP 031230Z 13005KT 9999 FEW007 SCT014 04/02 Q1023
                        NOSIG=
201912031300 METAR LROP 031300Z 12005KT 9999 FEW007 SCT039 04/02 Q1023
                        NOSIG=
201912031330 METAR LROP 031330Z 14004KT 9999 FEW011 SCT039 04/02 Q1023
                        NOSIG=
201912031400 METAR LROP 031400Z 15004KT 9999 FEW012 03/02 Q1023 NOSIG=
201912031430 METAR LROP 031430Z 13003KT 080V150 CAVOK 02/02 Q1024 NOSIG=
201912031500 METAR LROP 031500Z 14004KT 040V170 CAVOK 02/02 Q1024 NOSIG=
201912031530 METAR LROP 031530Z 17002KT CAVOK 02/02 Q1024 NOSIG=
201912031600 METAR LROP 031600Z 00000KT CAVOK 01/01 Q1025 NOSIG=
201912031630 METAR LROP 031630Z VRB01KT 8000 NSC 01/01 Q1025 NOSIG=
201912031700 METAR LROP 031700Z VRB03KT 8000 NSC 00/00 Q1026 NOSIG=
201912031730 METAR LROP 031730Z 02002KT 8000 MIFG NSC M00/M00 Q1026 NOSIG=
201912031800 METAR LROP 031800Z 00000KT 6000 MIFG NSC M01/M01 Q1026 NOSIG=
201912031830 METAR LROP 031830Z 20003KT 6000 MIFG NSC M00/M00 Q1026 NOSIG=
201912031900 METAR LROP 031900Z 27003KT 6000 MIFG NSC M01/M01 Q1026 NOSIG=
201912031930 METAR COR LROP 031930Z 26004KT 0800 R08R/2000 R26L/P2000
                        R08L/1700D R26R/P2000 FZFG BKN002
                        M01/M01 Q1026 NOSIG=
201912032000 METAR LROP 032000Z 28005KT 0300 R08R/0350N R26L/P2000 R08L/P2000
                        R26R/P2000 FZFG BKN001 M02/M02 Q1027
                        TEMPO 0800 FZFG=
201912032030 METAR LROP 032030Z 27004KT 0600 R08R/0600U R26L/1800N R08L/1500U
                        R26R/0800N FZFG BKN001 M02/M02 Q1027
                        TEMPO 0800 FZFG=
201912032100 METAR LROP 032100Z 28005KT 0800 R08R/0700N R26L/0450N R08L/P2000
                        R26R/0550N FZFG BKN001 M03/M03 Q1027
                        NOSIG=
201912032130 METAR LROP 032130Z 26004KT 3000 BR SCT002 M03/M03 Q1027 NOSIG=
201912032200 METAR LROP 032200Z 28005KT 3000 BR FEW003 M03/M03 Q1028 NOSIG=
201912032230 METAR LROP 032230Z 27005KT 4000 BR FEW001 M03/M03 Q1028 NOSIG=
201912032300 METAR LROP 032300Z 25003KT 1500 R08R/0800D R26L/P2000 R08L/P2000
                        R26R/P2000 BR SCT003 M04/M04 Q1028
                        NOSIG=
201912032330 METAR LROP 032330Z 25003KT 2000 BR SCT002 M04/M04 Q1028 NOSIG=
201912040000 METAR LROP 040000Z 25003KT 220V290 2000 BR SCT002 M04/M04
                        Q1028 NOSIG=
201912040030 METAR LROP 040030Z 28001KT 3500 BR NSC M05/M05 Q1028 NOSIG=
201912040100 METAR LROP 040100Z VRB01KT 3000 MIFG BR NSC M04/M04 Q1028
                        NOSIG=
201912040130 METAR LROP 040130Z 28002KT 5000 MIFG BR NSC M04/M04 Q1028
                        TEMPO 1500 BR=
201912040200 METAR LROP 040200Z 32001KT 5000 MIFG BR NSC M04/M05 Q1028
                        TEMPO 1500 BR=
201912040230 METAR LROP 040230Z VRB01KT 8000 NSC M04/M04 Q1029 NOSIG=
201912040300 METAR LROP 040300Z 03003KT 8000 NSC M04/M04 Q1029 NOSIG=
201912040330 METAR LROP 040330Z 07003KT CAVOK M03/M03 Q1029 NOSIG=
201912040400 METAR LROP 040400Z 11003KT CAVOK M04/M04 Q1030 NOSIG=
201912040430 METAR LROP 040430Z 12003KT CAVOK M04/M04 Q1030 NOSIG=
201912040500 METAR LROP 040500Z 10002KT CAVOK M04/M04 Q1030 NOSIG=
201912040530 METAR LROP 040530Z 09004KT CAVOK M04/M04 Q1030 NOSIG=
201912040600 METAR LROP 040600Z 07004KT CAVOK M03/M03 Q1031 NOSIG=
201912040630 METAR LROP 040630Z 07005KT CAVOK M02/M02 Q1031 NOSIG=
201912040700 METAR LROP 040700Z 07005KT CAVOK M01/M02 Q1031 R08R/19//95
                        R08L/CLRD// NOSIG=
201912040730 METAR LROP 040730Z 06004KT CAVOK M00/M02 Q1032 R08R/19//95
                        R08L/CLRD// NOSIG=
201912040800 METAR LROP 040800Z 03003KT 350V060 CAVOK 00/M02 Q1032 NOSIG=
201912040830 METAR LROP 040830Z 08004KT 040V100 CAVOK 01/M02 Q1032 NOSIG=
201912040900 METAR LROP 040900Z 10006KT 060V120 CAVOK 02/M02 Q1032 NOSIG=
201912040930 METAR LROP 040930Z 09006KT 050V110 CAVOK 02/M02 Q1031 NOSIG=
201912041000 METAR LROP 041000Z 09005KT 010V110 CAVOK 03/M02 Q1031 NOSIG=
201912041030 METAR LROP 041030Z 09005KT 060V120 CAVOK 03/M02 Q1031 R08R/19//95
                        NOSIG=
201912041100 METAR LROP 041100Z 14003KT 090V210 9999 FEW023 03/M04 Q1031
                        R08R/19//95 NOSIG=
201912041130 METAR LROP 041130Z AUTO VRB02KT 9999 NCD 03/M03 Q1031 NOSIG=
201912041200 METAR LROP 041200Z VRB02KT 9999 FEW030 03/M03 Q1031 R08R/19//95
                        NOSIG=
201912041230 METAR LROP 041230Z VRB03KT CAVOK 04/M03 Q1031 R08R/19//95
                        NOSIG=
201912041300 METAR LROP 041300Z 24004KT 210V280 CAVOK 04/M03 Q1031 R08R/19//95
                        NOSIG=
201912041330 METAR COR LROP 041330Z 22003KT 180V270 CAVOK 04/M03 Q1031
                        R88/CLRD// NOSIG=
201912041400 METAR LROP 041400Z 23005KT CAVOK 03/M02 Q1031 R88/CLRD//=
201912041430 METAR LROP 041430Z 24005KT CAVOK 02/M02 Q1031 NOSIG=
201912041500 METAR LROP 041500Z 24004KT CAVOK 00/M02 Q1031 NOSIG=
201912041530 METAR LROP 041530Z 24004KT CAVOK 01/M02 Q1031 NOSIG=
201912041600 METAR LROP 041600Z 22004KT CAVOK M01/M02 Q1031 NOSIG=
201912041630 METAR LROP 041630Z 24004KT CAVOK M01/M02 Q1032 NOSIG=
201912041700 METAR LROP 041700Z 22004KT CAVOK M01/M02 Q1032 NOSIG=
201912041730 METAR LROP 041730Z 22005KT 8000 NSC M01/M02 Q1032 NOSIG=
201912041800 METAR LROP 041800Z 23006KT 6000 NSC M01/M02 Q1032 BECMG 5000
                        BR=
201912041830 METAR LROP 041830Z 22005KT 7000 NSC M01/M02 Q1032 BECMG 5000
                        BR=
201912041900 METAR LROP 041900Z 24005KT 8000 NSC M02/M02 Q1032 NOSIG=
201912041930 METAR LROP 041930Z 24004KT 8000 NSC M02/M03 Q1032 NOSIG=
201912042000 METAR LROP 042000Z 24005KT 7000 NSC M02/M02 Q1032 NOSIG=
201912042030 METAR LROP 042030Z 23005KT 7000 NSC M02/M02 Q1032 NOSIG=
201912042100 METAR LROP 042100Z 26006KT 7000 NSC M02/M03 Q1032 NOSIG=
201912042130 METAR LROP 042130Z 25005KT 6000 NSC M03/M03 Q1032 NOSIG=
201912042200 METAR LROP 042200Z 27006KT 6000 NSC M03/M03 Q1032 NOSIG=
201912042230 METAR LROP 042230Z 26006KT 6000 NSC M02/M03 Q1032 NOSIG=
201912042300 METAR LROP 042300Z 25006KT 6000 NSC M03/M03 Q1032 BECMG 5000
                        BR=
201912042330 METAR LROP 042330Z 25006KT 6000 NSC M03/M03 Q1032 BECMG 5000
                        BR=
201912050000 METAR LROP 050000Z 25005KT 6000 NSC M03/M03 Q1032 NOSIG=
201912050030 METAR LROP 050030Z 25006KT 6000 NSC M03/M03 Q1032 NOSIG=
201912050100 METAR LROP 050100Z 25007KT 6000 NSC M03/M03 Q1032 NOSIG=
201912050130 METAR LROP 050130Z 26007KT 6000 NSC M03/M03 Q1031 NOSIG=
201912050200 METAR LROP 050200Z 26007KT 7000 NSC M03/M03 Q1031 NOSIG=
201912050230 METAR LROP 050230Z 26006KT 5000 BR NSC M03/M03 Q1031 NOSIG=
201912050300 METAR LROP 050300Z 26006KT 5000 BR NSC M03/M03 Q1031 NOSIG=
201912050330 METAR LROP 050330Z 26008KT 6000 NSC M03/M03 Q1031 NOSIG=
201912050400 METAR LROP 050400Z 26008KT 7000 NSC M03/M03 Q1031 NOSIG=
201912050430 METAR LROP 050430Z 26009KT 7000 NSC M02/M03 Q1031 NOSIG=
201912050500 METAR LROP 050500Z 27008KT 9000 NSC M03/M03 Q1031 NOSIG=
201912050530 METAR LROP 050530Z 26007KT 8000 NSC M03/M03 Q1032 NOSIG=
201912050600 METAR LROP 050600Z 26007KT 7000 NSC M03/M03 Q1031 NOSIG=
201912050630 METAR LROP 050630Z 27006KT 6000 NSC M02/M03 Q1032 NOSIG=
201912050700 METAR LROP 050700Z 27006KT 5000 BR NSC M01/M02 Q1032 NOSIG=
201912050730 METAR LROP 050730Z 26006KT 8000 NSC M00/M01 Q1032 NOSIG=
201912050800 METAR LROP 050800Z 26007KT 8000 NSC 01/M01 Q1032 NOSIG=
201912050830 METAR LROP 050830Z 26008KT 8000 NSC 02/M00 Q1032 NOSIG=
201912050900 METAR LROP 050900Z 27008KT CAVOK 03/M00 Q1031 NOSIG=
201912050930 METAR LROP 050930Z 27008KT CAVOK 04/M00 Q1031 NOSIG=
201912051000 METAR LROP 051000Z 28008KT CAVOK 05/M01 Q1031 NOSIG=
201912051030 METAR LROP 051030Z 25008KT CAVOK 05/M00 Q1030 NOSIG=
201912051100 METAR LROP 051100Z 25007KT CAVOK 06/M02 Q1030 NOSIG=
201912051130 METAR LROP 051130Z 25008KT CAVOK 06/M01 Q1030 NOSIG=
201912051200 METAR LROP 051200Z 25009KT CAVOK 06/M01 Q1030 NOSIG=
201912051230 METAR LROP 051230Z 26010KT CAVOK 06/M00 Q1029 NOSIG=
201912051300 METAR LROP 051300Z 25009KT CAVOK 05/M00 Q1029 NOSIG=
201912051330 METAR LROP 051330Z 25008KT CAVOK 05/M00 Q1029 NOSIG=
201912051400 METAR LROP 051400Z 24007KT CAVOK 04/M00 Q1029=
201912051430 METAR LROP 051430Z 24007KT CAVOK 03/M00 Q1029 NOSIG=
201912051500 METAR LROP 051500Z 23005KT CAVOK 01/M01 Q1029 NOSIG=
201912051530 METAR LROP 051530Z 23006KT CAVOK 01/M00 Q1029 NOSIG=
201912051600 METAR LROP 051600Z 24006KT CAVOK 00/M01 Q1029 NOSIG=
201912051630 METAR LROP 051630Z 24005KT CAVOK M00/M01 Q1029 NOSIG=
201912051700 METAR LROP 051700Z 23005KT 8000 NSC M00/M01 Q1029 NOSIG=
201912051730 METAR LROP 051730Z 24005KT 7000 NSC M01/M01 Q1029 NOSIG=
201912051800 METAR LROP 051800Z 25005KT 8000 NSC M01/M01 Q1029 NOSIG=
201912051830 METAR LROP 051830Z 26006KT 7000 NSC M01/M01 Q1029 NOSIG=
201912051900 METAR LROP 051900Z 25006KT 7000 NSC M00/M01 Q1029 NOSIG=
201912051930 METAR LROP 051930Z 25004KT 8000 NSC M01/M02 Q1029 NOSIG=
201912052000 METAR LROP 052000Z 24004KT 8000 NSC M02/M02 Q1029 NOSIG=
201912052030 METAR LROP 052030Z 25006KT 7000 NSC M01/M02 Q1029 NOSIG=
201912052100 METAR LROP 052100Z 25006KT 6000 NSC M02/M02 Q1028 BECMG 5000
                        BR=
201912052130 METAR LROP 052130Z 26007KT 6000 NSC M02/M02 Q1028 BECMG 5000
                        BR=
201912052200 METAR LROP 052200Z 26007KT 7000 NSC M02/M02 Q1028 NOSIG=
201912052230 METAR LROP 052230Z 25007KT 8000 NSC M02/M03 Q1028 NOSIG=
201912052300 METAR LROP 052300Z 25006KT 7000 NSC M02/M03 Q1028 NOSIG=
201912052330 METAR LROP 052330Z 25006KT 8000 NSC M02/M03 Q1027 NOSIG=
201912060000 METAR LROP 060000Z 24007KT 8000 NSC M02/M03 Q1027 NOSIG=
201912060030 METAR LROP 060030Z 25006KT 8000 NSC M03/M03 Q1027 NOSIG=
201912060100 METAR LROP 060100Z 26007KT 7000 NSC M02/M03 Q1027 NOSIG=
201912060130 METAR LROP 060130Z 25007KT 8000 NSC M02/M03 Q1027 NOSIG=
201912060200 METAR LROP 060200Z 25006KT 8000 NSC M02/M03 Q1027 NOSIG=
201912060230 METAR LROP 060230Z 26005KT 6000 NSC M03/M03 Q1027 NOSIG=
201912060300 METAR LROP 060300Z 26008KT 6000 NSC M03/M03 Q1027 NOSIG=
201912060330 METAR LROP 060330Z 25008KT 5000 BR NSC M03/M04 Q1026 NOSIG=
201912060400 METAR LROP 060400Z 25006KT 5000 BR NSC M03/M04 Q1026 NOSIG=
201912060430 METAR LROP 060430Z 26006KT 6000 NSC M04/M04 Q1026 NOSIG=
201912060500 METAR LROP 060500Z 24007KT 6000 NSC M04/M04 Q1026 NOSIG=
201912060530 METAR LROP 060530Z 25007KT 5000 BR NSC M04/M04 Q1026 NOSIG=
201912060600 METAR LROP 060600Z 25008KT 5000 BR NSC M04/M04 Q1026 NOSIG=
201912060630 METAR LROP 060630Z 25009KT 3500 BR FEW001 M04/M04 Q1026 NOSIG=
201912060700 METAR LROP 060700Z 25008KT 3000 BR SCT002 M04/M04 Q1026 NOSIG=
201912060730 METAR LROP 060730Z 25009KT 4000 BR SCT002 M03/M03 Q1027 NOSIG=
201912060800 METAR LROP 060800Z 25010KT 7000 FEW002 M02/M03 Q1027 NOSIG=
201912060830 METAR LROP 060830Z 25010KT 8000 NSC M01/M02 Q1026 NOSIG=
201912060900 METAR LROP 060900Z 25011KT CAVOK 00/M02 Q1026 NOSIG=
201912060930 METAR LROP 060930Z 25011KT CAVOK 00/M02 Q1026 NOSIG=
201912061000 METAR LROP 061000Z 25011KT CAVOK 01/M02 Q1025 NOSIG=
201912061030 METAR LROP 061030Z 25011KT CAVOK 02/M01 Q1025=
201912061100 METAR LROP 061100Z 25010KT CAVOK 03/M01 Q1025 NOSIG=
201912061130 METAR LROP 061130Z 25011KT CAVOK 03/M02 Q1024 NOSIG=
201912061200 METAR LROP 061200Z 25012KT CAVOK 03/M02 Q1024 NOSIG=
201912061230 METAR LROP 061230Z 24011KT CAVOK 03/M01 Q1023 NOSIG=
201912061300 METAR LROP 061300Z 24011KT CAVOK 01/M01 Q1023 NOSIG=
201912061330 METAR LROP 061330Z 25010KT 9000 NSC 01/M01 Q1023 NOSIG=
201912061400 METAR LROP 061400Z 25011KT 7000 NSC M00/M01 Q1023 BECMG 5000
                        BR=
201912061430 METAR COR LROP 061430Z 25007KT 6000 SCT003 M01/M02 Q1023
                        BECMG 3000 BR=
201912061500 METAR LROP 061500Z 25008KT 3500 BR SCT001 M02/M02 Q1023 BECMG
                        3000 BR=
201912061530 METAR LROP 061530Z 24009KT 3000 BR SCT002 M02/M02 Q1023 NOSIG=
201912061600 METAR LROP 061600Z 23007KT 2500 BR SCT002 M02/M02 Q1023 BECMG
                        1500 BR=
201912061630 METAR LROP 061630Z 25008KT 2300 BR SCT001 M02/M02 Q1023 BECMG
                        1500 BR=
201912061700 METAR LROP 061700Z 25008KT 1500 0800NW R08R/P2000 R26L/P2000
                        R08L/1400D R26R/2000 PRFG BR BKN001
                        M02/M02 Q1023 BECMG 0800 FZFG=
201912061730 METAR COR LROP 061730Z 22006KT 1500 R08R/1600D R26L/P2000
                        R08L/1600D R26R/2000 PRFG BR OVC001
                        M02/M02 Q1023 BECMG 0800 FZFG=
201912061800 METAR LROP 061800Z 23008KT 1500 0800NW R08R/1800D R26L/P2000
                        R08L/P2000 R26R/1300D PRFG BR OVC001
                        M03/M03 Q1023 BECMG 0800 FZFG=
201912061830 METAR LROP 061830Z 23008KT 1000 R08R/P2000 R26L/P2000 R08L/1500D
                        R26R/1300U PRFG BR OVC001 M03/M03
                        Q1022 BECMG 0800 FZFG=
201912061900 METAR LROP 061900Z 23008KT 1000 R08R/1700U R26L/1500D R08L/1500U
                        R26R/1600D PRFG BR OVC001 M03/M03
                        Q1022 BECMG 0800 FZFG=
201912061930 METAR LROP 061930Z 25006KT 1200 R08R/1600 R26L/2000D R08L/1500U
                        R26R/1300N PRFG BR OVC001 M03/M03
                        Q1022 BECMG 0800 FZFG=
201912062000 METAR LROP 062000Z 24006KT 1200 0600N R08R/1600U R26L/1600D
                        R08L/1100U R26R/2000U PRFG BR VV001
                        M03/M03 Q1022 BECMG 0800 FZFG=
201912062030 METAR LROP 062030Z 24007KT 0800 R08R/1300D R26L/1100D R08L/1200N
                        R26R/1300U FZFG OVC001 M03/M03 Q1021
                        BECMG 0350 FZFG=
201912062100 METAR LROP 062100Z 24007KT 0600 R08R/1400D R26L/1700D R08L/1300U
                        R26R/1300U FZFG OVC001 M03/M03 Q1021
                        BECMG 0350 FZFG=
201912062130 METAR LROP 062130Z 24008KT 0600 R08R/1500U R26L/P2000D R08L/P2000D
                        R26R/1600U FZFG OVC001 M03/M03 Q1021
                        BECMG 0350 FZFG=
201912062200 METAR LROP 062200Z 23007KT 1000 R08R/1600U R26L/1300U R08L/2000N
                        R26R/P2000D PRFG BR OVC001 M03/M03
                        Q1021 NOSIG=
201912062230 METAR LROP 062230Z 25006KT 1500 R08R/P2000U R26L/P2000U R08L/P2000D
                        R26R/1500U BR OVC001 M03/M03 Q1021
                        NOSIG=
201912062300 METAR LROP 062300Z 24008KT 2000 BR OVC001 M03/M03 Q1020 NOSIG=
201912062330 METAR LROP 062330Z 24007KT 2500 BR OVC001 M03/M03 Q1020 NOSIG=
201912070000 METAR LROP 070000Z 23007KT 1500 R08R/1700U R26L/1800D R08L/P2000U
                        R26R/1600D BR OVC001 M03/M03 Q1020
                        NOSIG=
201912070030 METAR LROP 070030Z 24007KT 1500 R08R/P2000U R26L/1800U R08L/P2000U
                        R26R/1600U BR OVC001 M03/M03 Q1020
                        NOSIG=
201912070100 METAR LROP 070100Z 25007KT 1500 R08R/1800D R26L/1600N R08L/1600U
                        R26R/1500N PRFG BR OVC001 M03/M03
                        Q1019 NOSIG=
201912070130 METAR LROP 070130Z 26008KT 1500 BR OVC001 M03/M03 Q1019 NOSIG=
201912070200 METAR LROP 070200Z 26009KT 1500 BR OVC001 M03/M03 Q1018 NOSIG=
201912070230 METAR LROP 070230Z 24007KT 0800 R08R/0800N R26L/1500N R08L/1000N
                        R26R/0800U FZFG OVC001 M03/M03 Q1018
                        TEMPO 0350 FZFG=
201912070300 METAR LROP 070300Z 25007KT 1200 0800E R08R/1200D R26L/0800D
                        R08L/1000D R26R/0800N PRFG BR OVC001
                        M03/M03 Q1018 TEMPO 0600 FZFG=
201912070330 METAR COR LROP 070330Z 24007KT 0800 R08R/0800N R26L/0800D
                        R08L/0800N R26R/0800D FZFG OVC001
                        M03/M03 Q1018 TEMPO 0600 FZFG=
201912070400 METAR LROP 070400Z 25008KT 0800 R08R/0800D R26L/0800N R08L/0800N
                        R26R/0800N FZFG OVC001 M03/M03 Q1018
                        TEMPO 0600 FZFG=
201912070430 METAR LROP 070430Z 24008KT 0800 R08R/0800D R26L/0800D R08L/1200N
                        R26R/1200N FZFG OVC001 M03/M03 Q1018
                        NOSIG=
201912070500 METAR COR LROP 070500Z 24005KT 0900 R08R/P2000 R26L/1200
                        R08L/1400U R26R/1400 FZFG OVC001
                        M03/M03 Q1018 TEMPO 0600 FZFG=
201912070530 METAR LROP 070530Z 24005KT 0700 R08R/P2000 R26L/2000N R08L/1700U
                        R26R/1300D FZFG OVC001 M03/M03 Q1018
                        NOSIG=
201912070600 METAR LROP 070600Z 26007KT 0600 R08R/1300 R26L/1200 R08L/1200
                        R26R/1500U FZFG OVC001 M03/M03 Q1017
                        NOSIG=
201912070630 METAR COR LROP 070630Z 25005KT 0700 R08R/P2000 R26L/1700D
                        R08L/1100 R26R/1000 FZFG OVC001 M03/M03
                        Q1017 BECMG 1500 BR OVC002=
201912070700 METAR LROP 070700Z 23007KT 0800 R08R/1700D R26L/P2000 R08L/1500D
                        R26R/P2000 FZFG OVC001 M03/M03 Q1017
                        BECMG 1500 BR OVC002=
201912070730 METAR LROP 070730Z 24008KT 0800 R08R/1400 R26L/1400D R08L/1400D
                        R26R/1800D FZFG OVC001 M03/M03 Q1017
                        BECMG 1500 BR OVC002=
201912070800 METAR LROP 070800Z 25008KT 0900 R08R/1500U R26L/1700N R08L/1500D
                        R26R/2000U FZFG OVC001 M02/M02 Q1017
                        BECMG 1500 BR OVC002=
201912070830 METAR LROP 070830Z 26008KT 2500 BR OVC002 M02/M02 Q1017 BECMG
                        5000 OVC005=
201912070900 METAR LROP 070900Z 25007KT 3500 BR BKN003 M01/M01 Q1017 BECMG
                        5000 BKN005=
201912070930 METAR LROP 070930Z 28007KT 4000 BR BKN004 M01/M01 Q1017 BECMG
                        5000 SCT005=
201912071000 METAR LROP 071000Z 26007KT 5000 BR FEW004 M00/M00 Q1016 NOSIG=
201912071030 METAR LROP 071030Z 27007KT 6000 NSC 00/00 Q1016 NOSIG=
201912071100 METAR LROP 071100Z 27008KT 6000 NSC 01/01 Q1016 NOSIG=
201912071130 METAR LROP 071130Z 26006KT 6000 NSC 01/01 Q1015 NOSIG=
201912071200 METAR LROP 071200Z 27007KT 7000 NSC 02/01 Q1015 NOSIG=
201912071230 METAR LROP 071230Z 25006KT 6000 NSC 02/01 Q1015 NOSIG=
201912071300 METAR LROP 071300Z 27006KT 6000 NSC 02/01 Q1015 BECMG 5000
                        BR=
201912071330 METAR LROP 071330Z 28006KT 7000 NSC 02/01 Q1015 NOSIG=
201912071400 METAR LROP 071400Z 28004KT 6000 NSC 02/01 Q1015 NOSIG=
201912071430 METAR LROP 071430Z 28005KT 6000 NSC 02/01 Q1015 NOSIG=
201912071500 METAR LROP 071500Z 27005KT 6000 NSC 01/01 Q1015 BECMG 5000
                        BR=
201912071530 METAR LROP 071530Z 28005KT 5000 BR NSC 01/01 Q1015 NOSIG=
201912071600 METAR LROP 071600Z 26003KT 5000 BR NSC 00/00 Q1015 NOSIG=
201912071630 METAR LROP 071630Z 00000KT 5000 BR NSC M00/M00 Q1015 NOSIG=
201912071700 METAR LROP 071700Z 26002KT 5000 BR NSC 00/00 Q1015 NOSIG=
201912071730 METAR LROP 071730Z 28003KT 4500 BR NSC M00/M00 Q1016 BECMG
                        1500 BR=
201912071800 METAR LROP 071800Z 24003KT 210V270 3500 MIFG BR NSC M00/M00
                        Q1015 BECMG 1500 BR=
201912071830 METAR LROP 071830Z 24003KT 210V280 3000 BR NSC 00/00 Q1015
                        BECMG 1500 BR=
201912071900 METAR LROP 071900Z 23003KT 3000 BR NSC 00/00 Q1016 BECMG
                        1500 BR=
201912071930 METAR LROP 071930Z 23005KT 3000 BR NSC 00/00 Q1016 BECMG
                        1500 BR=
201912072000 METAR LROP 072000Z 23005KT 3000 BR NSC 00/00 Q1015 NOSIG=
201912072030 METAR LROP 072030Z 23005KT 3000 BR NSC 00/00 Q1016 NOSIG=
201912072100 METAR LROP 072100Z 23003KT 3000 BR NSC M00/M00 Q1016 NOSIG=
201912072130 METAR LROP 072130Z 24004KT 2000 BR NSC M00/M00 Q1016 BECMG
                        1500 BR=
201912072200 METAR LROP 072200Z 24003KT 210V270 2000 BR NSC M01/M01 Q1016
                        NOSIG=
201912072230 METAR LROP 072230Z 26007KT 2500 BR NSC M01/M01 Q1016 NOSIG=
201912072300 METAR LROP 072300Z 22003KT 2500 BR NSC M01/M01 Q1016 NOSIG=
201912072330 METAR COR LROP 072330Z 28002KT 3000 BR NSC M00/M00 Q1016
                        NOSIG=
201912080000 METAR LROP 080000Z 25005KT 2500 BR NSC M00/M00 Q1016 NOSIG=
201912080030 METAR LROP 080030Z 28005KT 2500 BR NSC M01/M01 Q1016 NOSIG=
201912080100 METAR LROP 080100Z 24004KT 3500 BR NSC 00/00 Q1016 NOSIG=
201912080130 METAR LROP 080130Z 28003KT 250V330 3500 BR NSC M00/M00 Q1016
                        NOSIG=
201912080200 METAR LROP 080200Z 23004KT 210V270 3000 BR NSC M01/M01 Q1016
                        TEMPO 1500 BR=
201912080230 METAR LROP 080230Z 23005KT 3000 BR NSC M01/M01 Q1016 TEMPO
                        1500 BR=
201912080300 METAR LROP 080300Z VRB02KT 3400 BR NSC M01/M01 Q1016 NOSIG=
201912080330 METAR LROP 080330Z 00000KT 3500 BR NSC M01/M01 Q1016 NOSIG=
201912080400 METAR LROP 080400Z 30003KT 4000 BR NSC M01/M01 Q1017 NOSIG=
201912080430 METAR LROP 080430Z 30003KT 280V010 3500 BR NSC M01/M01 Q1017
                        NOSIG=
201912080500 METAR LROP 080500Z 26003KT 3000 BR NSC M01/M01 Q1017 NOSIG=
201912080530 METAR LROP 080530Z VRB02KT 3000 BR NSC M01/M01 Q1017 NOSIG=
201912080600 METAR LROP 080600Z 21004KT 2500 BR NSC M00/M00 Q1018 NOSIG=
201912080630 METAR LROP 080630Z 25004KT 2500 BR NSC 00/00 Q1018 NOSIG=
201912080700 METAR LROP 080700Z 26006KT 2500 BR NSC 00/00 Q1019 NOSIG=
201912080730 METAR LROP 080730Z 24004KT 210V270 3000 BR NSC 01/01 Q1019
                        BECMG 5000=
201912080800 METAR LROP 080800Z 26005KT 4000 BR NSC 02/01 Q1019 BECMG
                        7000 NSW=
201912080830 METAR LROP 080830Z 26004KT 5000 BR NSC 03/02 Q1019 BECMG
                        7000 NSW=
201912080900 METAR LROP 080900Z 25005KT 7000 NSC 04/03 Q1019 NOSIG=
201912080930 METAR LROP 080930Z 28005KT 8000 NSC 06/03 Q1018 NOSIG=
201912081000 METAR LROP 081000Z 29003KT 8000 NSC 07/04 Q1018 NOSIG=
201912081030 METAR LROP 081030Z 27005KT CAVOK 08/05 Q1018 NOSIG=
201912081100 METAR LROP 081100Z 24003KT 200V280 CAVOK 10/04 Q1018 NOSIG=
201912081130 METAR LROP 081130Z 23004KT CAVOK 10/05 Q1018 NOSIG=
201912081200 METAR LROP 081200Z 23004KT 210V280 CAVOK 11/05 Q1018 NOSIG=
201912081230 METAR LROP 081230Z 23005KT CAVOK 10/04 Q1018 NOSIG=
201912081300 METAR LROP 081300Z 23005KT CAVOK 10/04 Q1018 NOSIG=
201912081330 METAR LROP 081330Z 23004KT CAVOK 10/05 Q1018 NOSIG=
201912081400 METAR LROP 081400Z 21004KT 8000 NSC 09/05 Q1018 NOSIG=
201912081430 METAR LROP 081430Z 21003KT 8000 NSC 07/05 Q1018 NOSIG=
201912081500 METAR LROP 081500Z 23005KT 7000 NSC 06/04 Q1018 NOSIG=
201912081530 METAR LROP 081530Z 24002KT 8000 NSC 05/04 Q1019 BECMG 5000
                        BR=
201912081600 METAR LROP 081600Z 21003KT 6000 NSC 04/03 Q1019 BECMG 4000
                        BR=
201912081630 METAR LROP 081630Z 19002KT 5000 BR NSC 03/03 Q1018 NOSIG=
201912081700 METAR LROP 081700Z 22004KT 5000 BR NSC 02/02 Q1019 BECMG
                        3000 BR=
201912081730 METAR LROP 081730Z 19002KT 5000 BR NSC 03/03 Q1019 BECMG
                        3000 BR=
201912081800 METAR LROP 081800Z 00000KT 3500 MIFG BR NSC 02/02 Q1018 BECMG
                        1500 BR=
201912081830 METAR LROP 081830Z 00000KT 0800 R08R/0700 R26L/1800U R08L/P2000
                        R26R/1000 BCFG NSC 02/02 Q1018 BECMG
                        0600 FG=
201912081900 METAR LROP 081900Z 06003KT 0900 R08R/0600U R26L/1500U R08L/P2000
                        R26R/1500D BCFG NSC 02/02 Q1018 NOSIG=
201912081930 METAR LROP 081930Z 09001KT 1100 R08R/1100 R26L/0325N R08L/0400
                        R26R/0250 MIFG BCFG NSC 01/01 Q1018
                        BECMG 0800 FZFG=
201912082000 METAR LROP 082000Z 08001KT 0600 R08R/0300 R26L/0325 R08L/1100
                        R26R/0400N FG NSC 01/01 Q1018 NOSIG=
201912082030 METAR COR LROP 082030Z 20001KT 0800 R08R/0250D R26L/1000
                        R08L/1400V R26R/0400N FG NSC 01/01
                        Q1018 NOSIG=
201912082100 METAR LROP 082100Z 19003KT 1000 R08R/1200U R26L/0800 R08L/0800
                        R26R/1400U BCFG VV002 M00/M00 Q1018
                        NOSIG=
201912082130 METAR LROP 082130Z 20004KT 0800 R08R/0900N R26L/0650D R08L/P2000
                        R26R/0200 BCFG VV001 01/01 Q1017
                        NOSIG=
201912082200 METAR COR LROP 082200Z 20004KT 0200 R08R/0300N R26L/0350N
                        R08L/0500U R26R/0300 FZFG VV001 M01/M01
                        Q1017 NOSIG=
201912082230 METAR LROP 082230Z 26005KT 0100 R08R/0250 R26L/0200N R08L/0200N
                        R26R/0300N FZFG VV001 M02/M02 Q1017
                        NOSIG=
201912082300 METAR LROP 082300Z 27005KT 0100 R08R/0300 R26L/0300 R08L/0300
                        R26R/0200 FZFG VV001 M01/M01 Q1017
                        NOSIG=
201912082330 METAR LROP 082330Z 26005KT 0100 R08R/0300N R26L/0300N R08L/0300N
                        R26R/0300 FZFG VV001 M00/M00 Q1017
                        NOSIG=
201912090000 METAR LROP 090000Z 24004KT 0100 R08R/0250 R26L/0300N R08L/0250N
                        R26R/0300N FZFG VV001 M00/M00 Q1017
                        NOSIG=
201912090030 METAR LROP 090030Z 25005KT 0150 R08R/0300U R26L/0300N R08L/0300U
                        R26R/0300N FZFG VV001 M00/M00 Q1017
                        NOSIG=
201912090100 METAR LROP 090100Z 24005KT 0200 R08R/0400N R26L/0400N R08L/0600N
                        R26R/0400N FZFG VV001 M01/M01 Q1016
                        NOSIG=
201912090130 METAR LROP 090130Z 24004KT 0400 R08R/0650N R26L/0650N R08L/0600N
                        R26R/0650N FZFG VV001 M01/M01 Q1016
                        NOSIG=
201912090200 METAR LROP 090200Z 25004KT 0500 R08R/0800U R26L/0650D R08L/0550N
                        R26R/0550N FZFG VV001 M02/M02 Q1016
                        NOSIG=
201912090230 METAR LROP 090230Z 25005KT 2000 BR BKN002 M02/M02 Q1016 NOSIG=
201912090300 METAR LROP 090300Z 24004KT 3000 BR FEW004 M02/M02 Q1015 NOSIG=
201912090330 METAR COR LROP 090330Z 23004KT 4000 BR NSC M02/M02 Q1015
                        R88/19//95 NOSIG=
201912090400 METAR LROP 090400Z 24005KT 4000 BR NSC M02/M02 Q1015 R88/19//95
                        NOSIG=
201912090430 METAR LROP 090430Z 24004KT 5000 BR NSC M02/M02 Q1015 R88/19//95
                        NOSIG=
201912090500 METAR LROP 090500Z 25004KT 5000 BR NSC M02/M02 Q1015 R88/19//95
                        NOSIG=
201912090530 METAR LROP 090530Z 25004KT 6000 NSC M01/M01 Q1015 R88/19//95
                        NOSIG=
201912090600 METAR LROP 090600Z 24004KT 5000 BR NSC M01/M01 Q1015 R88/19//95
                        NOSIG=
201912090630 METAR LROP 090630Z 24004KT 6000 NSC M01/M01 Q1015 R88/19//95
                        NOSIG=
201912090700 METAR LROP 090700Z 24004KT 5000 BR NSC M00/M00 Q1015 R88/19//95
                        NOSIG=
201912090730 METAR LROP 090730Z 25005KT 6000 NSC 01/01 Q1015 R88/19//95
                        NOSIG=
201912090800 METAR LROP 090800Z 23005KT 6000 NSC 02/02 Q1015 R88/19//95
                        NOSIG=
201912090830 METAR LROP 090830Z 24006KT 8000 NSC 04/04 Q1015 R88/19//95
                        NOSIG=
201912090900 METAR LROP 090900Z 24007KT CAVOK 07/04 Q1015 R88/19//95 NOSIG=
201912090930 METAR LROP 090930Z 24008KT CAVOK 08/05 Q1014 R88/19//95 NOSIG=
201912091000 METAR LROP 091000Z 25009KT CAVOK 10/05 Q1014 R88/19//95 NOSIG=
201912091030 METAR LROP 091030Z 25008KT CAVOK 10/05 Q1013 R88/CLRD// NOSIG=
201912091100 METAR LROP 091100Z 26008KT CAVOK 11/04 Q1013 R88/CLRD// NOSIG=
201912091130 METAR LROP 091130Z 26008KT CAVOK 12/04 Q1013 NOSIG=
201912091200 METAR LROP 091200Z 25008KT CAVOK 12/03 Q1012 NOSIG=
201912091230 METAR LROP 091230Z 26007KT CAVOK 12/02 Q1012 NOSIG=
201912091300 METAR LROP 091300Z 26007KT CAVOK 12/02 Q1012 NOSIG=
201912091330 METAR LROP 091330Z 24007KT CAVOK 12/02 Q1012 NOSIG=
201912091400 METAR LROP 091400Z 24005KT CAVOK 11/02 Q1011 NOSIG=
201912091430 METAR LROP 091430Z 22006KT CAVOK 09/02 Q1011 NOSIG=
201912091500 METAR LROP 091500Z 22005KT CAVOK 08/01 Q1011 NOSIG=
201912091530 METAR LROP 091530Z 21003KT CAVOK 07/01 Q1011 NOSIG=
201912091600 METAR LROP 091600Z 21004KT CAVOK 06/02 Q1011 NOSIG=
201912091630 METAR LROP 091630Z 26006KT CAVOK 05/02 Q1011 NOSIG=
201912091700 METAR LROP 091700Z 23004KT CAVOK 04/03 Q1011 NOSIG=
201912091730 METAR LROP 091730Z 24004KT 7000 NSC 03/02 Q1011 NOSIG=
201912091800 METAR LROP 091800Z VRB01KT 7000 NSC 03/03 Q1012 NOSIG=
201912091830 METAR LROP 091830Z 05004KT 010V080 7000 NSC 03/02 Q1012 NOSIG=
201912091900 METAR LROP 091900Z 04002KT 8000 NSC 02/02 Q1012 NOSIG=
201912091930 METAR LROP 091930Z 36003KT 9000 NSC 02/02 Q1012 NOSIG=
201912092000 METAR LROP 092000Z 11003KT 050V120 7000 NSC 02/01 Q1012 NOSIG=
201912092030 METAR LROP 092030Z 08001KT 9000 NSC 01/01 Q1011 NOSIG=
201912092100 METAR LROP 092100Z 00000KT 8000 NSC 03/03 Q1011 NOSIG=
201912092130 METAR LROP 092130Z VRB02KT 5000 BR NSC 01/01 Q1012 NOSIG=
201912092200 METAR LROP 092200Z VRB02KT 5000 BR NSC M00/M00 Q1012 NOSIG=
201912092230 METAR LROP 092230Z 00000KT 5000 MIFG BR NSC 00/00 Q1011 NOSIG=
201912092300 METAR LROP 092300Z VRB02KT 5000 BR NSC 00/M00 Q1011 TEMPO
                        3000 BR=
201912092330 METAR LROP 092330Z 31002KT 5000 BR NSC M00/M00 Q1011 TEMPO
                        3000 BR=
201912100000 METAR LROP 100000Z VRB01KT 5000 MIFG BR NSC M01/M01 Q1011
                        TEMPO 3000 BR=
201912100030 METAR LROP 100030Z 11003KT 070V140 4000 MIFG BR NSC M00/M00
                        Q1011 TEMPO 1500 BR=
201912100100 METAR LROP 100100Z 08003KT 3000 BR NSC M01/M01 Q1011 TEMPO
                        1500 BR=
201912100130 METAR LROP 100130Z 02002KT 3000 BR NSC M01/M01 Q1011 TEMPO
                        1500 BR=
201912100200 METAR LROP 100200Z 01002KT 4000 MIFG BR NSC M01/M01 Q1011
                        NOSIG=
201912100230 METAR LROP 100230Z 36003KT 4000 MIFG BR NSC M01/M01 Q1011
                        NOSIG=
201912100300 METAR LROP 100300Z 02003KT 3000 MIFG BR NSC M01/M01 Q1011
                        TEMPO 1500 BR=
201912100330 METAR LROP 100330Z 03003KT 2000 MIFG BR NSC M01/M01 Q1011
                        TEMPO 0600 FZFG=
201912100400 METAR LROP 100400Z 35004KT 4000 BR NSC M01/M01 Q1011 NOSIG=
201912100430 METAR LROP 100430Z 03004KT 5000 BR NSC M01/M01 Q1011 NOSIG=
201912100500 METAR LROP 100500Z 03005KT 5000 BR NSC M01/M01 Q1012 NOSIG=
201912100530 METAR LROP 100530Z 04004KT 4000 BR NSC M02/M02 Q1012 TEMPO
                        3000 BR=
201912100600 METAR COR LROP 100600Z 07003KT 2000 BR FEW001 M02/M02 Q1012
                        TEMPO 1500 BR=
201912100630 METAR LROP 100630Z 03003KT 0800 R08R/1100D R26L/0275N R08L/0800U
                        R26R/0275N FZFG FEW002 M01/M01 Q1012
                        TEMPO 0600 FZFG VV001=
201912100700 METAR LROP 100700Z 06004KT 0200 R08R/0275D R26L/0250N R08L/0275D
                        R26R/0300N FZFG BKN001 M01/M01 Q1013
                        NOSIG=
201912100730 METAR LROP 100730Z 05004KT 0300 R08R/0400N R26L/0325N R08L/0400N
                        R26R/0400N FZFG OVC001 M01/M01 Q1013
                        NOSIG=
201912100800 METAR LROP 100800Z 04005KT 1200 R08R/0800U R26L/0800U R08L/0800N
                        R26R/0800N BR BKN001 00/00 Q1013
                        BECMG 1500 BR BKN002=
201912100830 METAR LROP 100830Z 02004KT 4000 BR SCT001 02/02 Q1013 BECMG
                        5000 BR=
201912100900 METAR LROP 100900Z 04006KT 8000 NSC 04/03 Q1013 NOSIG=
201912100930 METAR LROP 100930Z 06007KT CAVOK 05/04 Q1013 NOSIG=
201912101000 METAR LROP 101000Z 05005KT 020V080 CAVOK 06/04 Q1013 NOSIG=
201912101030 METAR LROP 101030Z 04005KT 010V080 CAVOK 07/04 Q1013 NOSIG=
201912101100 METAR LROP 101100Z 06008KT CAVOK 08/04 Q1012 NOSIG=
201912101130 METAR LROP 101130Z 06007KT CAVOK 09/04 Q1012 NOSIG=
201912101200 METAR LROP 101200Z 06006KT CAVOK 09/05 Q1012 NOSIG=
201912101230 METAR LROP 101230Z 07005KT CAVOK 09/05 Q1012 NOSIG=
201912101300 METAR LROP 101300Z 08006KT CAVOK 09/06 Q1013 NOSIG=
201912101330 METAR LROP 101330Z 09006KT CAVOK 08/06 Q1013 NOSIG=
201912101400 METAR LROP 101400Z 10006KT CAVOK 07/06 Q1013 NOSIG=
201912101430 METAR LROP 101430Z 09006KT 8000 NSC 06/05 Q1013 NOSIG=
201912101500 METAR LROP 101500Z 07003KT 7000 NSC 05/04 Q1014 NOSIG=
201912101530 METAR LROP 101530Z 05004KT 6000 NSC 04/04 Q1014 NOSIG=
201912101600 METAR LROP 101600Z 04005KT 6000 NSC 04/04 Q1014 NOSIG=
201912101630 METAR COR LROP 101630Z 05005KT 6000 NSC 04/04 Q1014 BECMG
                        5000 BR=
201912101700 METAR COR LROP 101700Z 04006KT 5000 BR NSC 04/03 Q1015 BECMG
                        3000 BR=
201912101730 METAR LROP 101730Z 04004KT 4000 BR NSC 03/03 Q1015 BECMG
                        3000 BR=
201912101800 METAR LROP 101800Z 03005KT 4000 BR NSC 04/03 Q1016 BECMG
                        3000 BR=
201912101830 METAR LROP 101830Z 04005KT 4000 BR NSC 03/03 Q1016 BECMG
                        3000 BR=
201912101900 METAR LROP 101900Z 03004KT 3000 BR NSC 03/03 Q1016 BECMG
                        1500 BR=
201912101930 METAR LROP 101930Z 03004KT 3000 BR NSC 03/03 Q1016 BECMG
                        1500 BR=
201912102000 METAR LROP 102000Z 04004KT 4000 BR NSC 03/03 Q1017 TEMPO
                        1500 BR=
201912102030 METAR LROP 102030Z 04005KT 3000 BR NSC 02/02 Q1017 TEMPO
                        1500 BR=
201912102100 METAR LROP 102100Z 03006KT 3000 BR BKN037 03/03 Q1017 TEMPO
                        1500 BR=
201912102130 METAR LROP 102130Z 04006KT 3000 BR SCT038 03/03 Q1017 NOSIG=
201912102200 METAR LROP 102200Z 05005KT 3000 BR FEW036 02/02 Q1018 NOSIG=
201912102230 METAR LROP 102230Z 05007KT 3500 BR NSC 02/02 Q1018 NOSIG=
201912102300 METAR LROP 102300Z 07005KT 4000 BR SCT037 02/02 Q1018 NOSIG=
201912102330 METAR LROP 102330Z 08003KT 4000 BR BKN022 02/02 Q1018 NOSIG=
201912110000 METAR LROP 110000Z 06010KT 9999 OVC019 04/03 Q1018 NOSIG=
201912110030 METAR LROP 110030Z 07004KT 9999 OVC021 04/03 Q1018 NOSIG=
201912110100 METAR LROP 110100Z 09006KT 9999 SCT022 BKN043 02/02 Q1018
                        NOSIG=
201912110130 METAR LROP 110130Z 07006KT 9999 FEW022 BKN044 02/01 Q1018
                        NOSIG=
201912110200 METAR LROP 110200Z 04003KT 9999 FEW043 02/01 Q1018 NOSIG=
201912110230 METAR LROP 110230Z 05003KT 9999 BKN046 02/02 Q1018 NOSIG=
201912110300 METAR LROP 110300Z VRB02KT 6000 SCT048 02/02 Q1018 NOSIG=
201912110330 METAR LROP 110330Z 10003KT 6000 FEW024 02/02 Q1018 NOSIG=
201912110400 METAR LROP 110400Z 09003KT 030V110 5000 BR FEW023 02/02 Q1018
                        NOSIG=
201912110430 METAR LROP 110430Z 08006KT 4000 BR BKN023 03/03 Q1019 NOSIG=
201912110500 METAR LROP 110500Z 09006KT 5000 BR BKN025 OVC047 03/03 Q1019
                        BECMG 9999 NSW=
201912110530 METAR LROP 110530Z 09005KT 5000 BR BKN027 04/04 Q1019 BECMG
                        7000 NSW=
201912110600 METAR LROP 110600Z 07010KT 5000 BR BKN021 04/04 Q1019 BECMG
                        7000 NSW=
201912110630 METAR COR LROP 110630Z 06010KT 8000 SCT021 05/04 Q1019 NOSIG=
201912110700 METAR LROP 110700Z 07012KT 9999 SCT021 05/04 Q1019 NOSIG=
201912110730 METAR LROP 110730Z 07010KT 9999 SCT021 05/04 Q1020 NOSIG=
201912110800 METAR COR LROP 110800Z 08009KT 9999 SCT022 05/04 Q1020 R08R/19//95
                        NOSIG=
201912110830 METAR LROP 110830Z 07012KT 9999 -RA FEW025 BKN045 05/05 Q1020
                        R08R/19//95 NOSIG=
201912110900 METAR LROP 110900Z 06010KT 9999 -RA FEW016 BKN022 OVC046
                        05/05 Q1020 R08R/19//95=
201912110930 METAR LROP 110930Z 07013KT 8000 -RA OVC022 06/05 Q1019 R08R/19//95
                        TEMPO 5000 -RA=
201912111000 METAR LROP 111000Z 07012KT 8000 -RA FEW011 OVC019 05/05 Q1019
                        R08R/19//95 TEMPO 5000 -RA=
201912111030 METAR LROP 111030Z 06013KT 8000 -RA OVC011 05/05 Q1019 R08R/19//95
                        TEMPO 5000 RA BR=
201912111100 METAR LROP 111100Z 06011KT 8000 -RA OVC010 05/05 Q1019 R08R/19//95
                        TEMPO 5000 RA BR=
201912111130 METAR LROP 111130Z 07013KT 8000 -RA OVC009 05/05 Q1019 R08R/19//95
                        NOSIG=
201912111200 METAR LROP 111200Z 07013KT 9999 OVC009 06/05 Q1018 R08R/19//95
                        NOSIG=
201912111230 METAR LROP 111230Z 06016KT 9999 OVC010 06/05 Q1018 R08R/19//95
                        NOSIG=
201912111300 METAR COR LROP 111300Z 06015KT 9999 OVC010 06/05 Q1018 R88/19//95
                        NOSIG=
201912111330 METAR LROP 111330Z 06012KT 9999 OVC010 06/05 Q1018 R88/19//95
                        NOSIG=
201912111400 METAR LROP 111400Z 06013KT 9999 OVC013 06/05 Q1018 R88/19//95
                        NOSIG=
201912111430 METAR LROP 111430Z 06015KT 9999 OVC013 05/04 Q1018 R88/19//95
                        TEMPO 5000 -RA=
201912111500 METAR LROP 111500Z 07013KT 9000 OVC010 05/04 Q1018 R88/19//95
                        TEMPO 5000 -RA=
201912111530 METAR LROP 111530Z 06016KT 9999 OVC010 05/04 Q1018 R88/19//95
                        TEMPO 5000 -RA=
201912111600 METAR LROP 111600Z 06014KT 9000 OVC009 05/04 Q1018 R88/19//95
                        TEMPO 5000 -RA=
201912111630 METAR LROP 111630Z 06011KT 5000 -RA OVC008 04/04 Q1018 R88/19//95
                        NOSIG=
201912111700 METAR LROP 111700Z 06012KT 6000 -RA OVC007 05/04 Q1018 R88/19//95
                        NOSIG=
201912111730 METAR LROP 111730Z 06013KT 6000 OVC007 05/04 Q1017 R88/19//95
                        NOSIG=
201912111800 METAR LROP 111800Z 07013KT 6000 OVC006 05/05 Q1017 R88/19//95
                        NOSIG=
201912111830 METAR LROP 111830Z 06015KT 5000 BR OVC004 05/05 Q1017 R88/19//95
                        NOSIG=
201912111900 METAR LROP 111900Z 06015KT 4000 BR OVC003 04/04 Q1017 R88/19//95
                        NOSIG=
201912111930 METAR LROP 111930Z 05015KT 3000 BR OVC003 04/04 Q1017 R88/19//95
                        BECMG 1500 BR OVC002=
201912112000 METAR LROP 112000Z 05016KT 2500 BR OVC002 04/04 Q1016 R88/19//95
                        BECMG 1500 BR OVC001=
201912112030 METAR LROP 112030Z 05014KT 2000 BR OVC002 04/04 Q1017 R88/19//95
                        BECMG 0800 FG OVC001=
201912112100 METAR LROP 112100Z 05013KT 2000 BR OVC002 04/04 Q1017 R88/19//95
                        BECMG 0800 FG OVC001=
201912112130 METAR LROP 112130Z 05014KT 3000 BR OVC002 05/05 Q1016 R88/19//95
                        NOSIG=
201912112200 METAR LROP 112200Z 05014KT 3000 BR OVC002 05/04 Q1016 R88/19//95
                        NOSIG=
201912112230 METAR LROP 112230Z 05013KT 3000 BR OVC002 05/05 Q1016 R88/19//95
                        NOSIG=
201912112300 METAR LROP 112300Z 05013KT 4500 BR OVC003 05/05 Q1016 R88/19//95
                        NOSIG=
201912112330 METAR LROP 112330Z 05013KT 6000 OVC004 05/05 Q1015 R88/19//95
                        NOSIG=
201912120000 METAR LROP 120000Z 05014KT 6000 OVC005 05/05 Q1015 R88/19//95
                        NOSIG=
201912120030 METAR LROP 120030Z 05014KT 6000 OVC006 05/05 Q1015 R88/19//95
                        NOSIG=
201912120100 METAR LROP 120100Z 05013KT 7000 BKN006 OVC023 05/05 Q1015
                        R88/19//95 NOSIG=
201912120130 METAR LROP 120130Z 05013KT 7000 OVC007 05/05 Q1014 R88/19//95
                        NOSIG=
201912120200 METAR LROP 120200Z 05012KT 7000 OVC007 05/05 Q1014 R88/19//95
                        NOSIG=
201912120230 METAR LROP 120230Z 05014KT 7000 OVC007 05/05 Q1014 R88/19//95
                        NOSIG=
201912120300 METAR LROP 120300Z 05015KT 6000 OVC006 05/05 Q1014 R88/19//95
                        NOSIG=
201912120330 METAR LROP 120330Z 05013KT 7000 OVC006 05/05 Q1013 R88/19//95
                        NOSIG=
201912120400 METAR LROP 120400Z 05013KT 7000 OVC006 05/05 Q1013 R88/19//95
                        NOSIG=
201912120430 METAR LROP 120430Z 05016KT 7000 -RA OVC006 05/05 Q1013 R88/19//95
                        NOSIG=
201912120500 METAR LROP 120500Z 05014KT 6000 -DZ OVC006 05/05 Q1013 R88/19//95
                        NOSIG=
201912120530 METAR COR LROP 120530Z 06013KT 5000 -RA BR OVC005 05/05 Q1013
                        R88/29//95 TEMPO 3000 -RA BR OVC002=
201912120600 METAR LROP 120600Z 05014KT 4000 -RA BR OVC004 05/05 Q1013
                        R88/29//95 TEMPO 3000 -RA BR=
201912120630 METAR LROP 120630Z 05014KT 4000 -RA BR OVC004 05/05 Q1013
                        R88/29//95 TEMPO 3000 -RA BR=
201912120700 METAR LROP 120700Z 05015KT 4000 -DZ BR OVC004 05/05 Q1013
                        R88/29//95 NOSIG=
201912120730 METAR LROP 120730Z 06014KT 4000 BR OVC004 05/05 Q1013 R88/29//95
                        NOSIG=
201912120800 METAR LROP 120800Z 05013KT 5000 BR OVC004 05/05 Q1013 R88/29//95
                        NOSIG=
201912120830 METAR LROP 120830Z 05013KT 5000 BR OVC004 05/05 Q1013 R88/29//95
                        NOSIG=
201912120900 METAR LROP 120900Z 06015KT 4500 BR OVC004 05/05 Q1012 R88/29//95
                        NOSIG=
201912120930 METAR LROP 120930Z 06013KT 4500 BR OVC004 05/05 Q1012 R88/29//95
                        NOSIG=
201912121000 METAR LROP 121000Z 06014KT 4500 BR OVC004 05/05 Q1012 R88/29//95
                        NOSIG=
201912121030 METAR LROP 121030Z 06016KT 4500 BR OVC004 05/05 Q1012 R88/29//95
                        NOSIG=
201912121100 METAR LROP 121100Z 06016KT 4000 BR OVC004 05/05 Q1012 R08R/19//95
                        R08L/29//95 NOSIG=
201912121130 METAR LROP 121130Z 06016KT 5000 BR OVC003 05/05 Q1011 R08R/19//95
                        R08L/29//95 NOSIG=
201912121200 METAR LROP 121200Z 06014KT 5000 BR OVC004 05/05 Q1011 R08R/19//95
                        R08L/29//95 NOSIG=
201912121230 METAR LROP 121230Z 06014KT 4000 BR OVC004 05/05 Q1011 R08R/19//95
                        R08L/29//95 NOSIG=
201912121300 METAR LROP 121300Z 06014KT 4000 BR OVC003 05/05 Q1011 R08R/19//95
                        R08L/29//95 NOSIG=
201912121330 METAR LROP 121330Z 06015KT 4000 BR OVC003 05/05 Q1011 R08R/19//95
                        R08L/29//95 NOSIG=
201912121400 METAR LROP 121400Z 06014KT 3000 BR OVC003 05/05 Q1011 R88/19//95
                        BECMG OVC002=
201912121430 METAR LROP 121430Z 06013KT 2500 BR OVC003 05/05 Q1011 R88/19//95
                        BECMG OVC002=
201912121500 METAR LROP 121500Z AUTO 06014KT 4000 BR OVC002/// 05/05 Q1011
                        BECMG 1500 BR=
201912121530 METAR LROP 121530Z 05014KT 2500 BR OVC002 04/04 Q1011 R88/19//95
                        BECMG 1500 BR=
201912121600 METAR LROP 121600Z 05015KT 2500 BR OVC002 04/04 Q1010 R88/19//95
                        BECMG 1500 BR=
201912121630 METAR LROP 121630Z 05016KT 2000 BR OVC002 04/04 Q1011 R88/19//95=
201912121700 METAR LROP 121700Z 05015KT 2500 BR OVC002 04/04 Q1010 R88/19//95
                        BECMG 1500 BR=
201912121730 METAR LROP 121730Z 06014KT 4000 BR OVC003 04/04 Q1010 R88/19//95
                        BECMG 3000 BR=
201912121800 METAR LROP 121800Z 05015KT 2500 BR BKN001 OVC002 04/04 Q1010
                        R88/19//95 TEMPO 1500 BR=
201912121830 METAR LROP 121830Z 05015KT 3000 BR BKN001 OVC002 04/04 Q1010
                        R88/19//95 NOSIG=
201912121900 METAR LROP 121900Z 06013KT 3000 BR OVC002 04/04 Q1010 R88/19//95
                        NOSIG=
201912121930 METAR LROP 121930Z 06014KT 3500 BR OVC002 04/04 Q1010 R88/19//95
                        NOSIG=
201912122000 METAR LROP 122000Z 06013KT 3500 BR OVC002 04/04 Q1009 R88/19//95
                        NOSIG=
201912122030 METAR LROP 122030Z 06013KT 3500 BR OVC002 04/04 Q1009 R88/19//95
                        NOSIG=
201912122100 METAR LROP 122100Z 05013KT 3000 BR BKN001 OVC002 04/04 Q1009
                        R88/19//95 BECMG 1500 BR=
201912122130 METAR LROP 122130Z 06012KT 3000 BR BKN001 OVC002 04/04 Q1009
                        R88/19//95 BECMG 1500 BR=
201912122200 METAR LROP 122200Z 05013KT 2500 BR BKN001 OVC002 04/04 Q1009
                        R88/19//95 BECMG 1500 BR=
201912122230 METAR LROP 122230Z 05012KT 2500 BR BKN001 OVC002 04/04 Q1008
                        R88/19//95 NOSIG=
201912122300 METAR LROP 122300Z 05013KT 2500 BR BKN001 OVC002 04/04 Q1008
                        R88/19//95 NOSIG=
201912122330 METAR LROP 122330Z 06011KT 2000 BR BKN001 OVC002 04/04 Q1008
                        R88/19//95 NOSIG=
201912130000 METAR LROP 130000Z 06010KT 1500 BR BKN001 OVC002 03/03 Q1008
                        R88/19//95 TEMPO 0800 FG=
201912130030 METAR LROP 130030Z 06010KT 1000 R08R/P2000 R26L/P2000 R08L/1900
                        R26R/P2000 BR OVC001 03/03 Q1008
                        R88/19//95 NOSIG=
201912130100 METAR LROP 130100Z 05010KT 1500 BR OVC001 03/03 Q1007 R88/19//95
                        NOSIG=
201912130130 METAR LROP 130130Z 05011KT 1500 BR OVC001 03/03 Q1007 R88/19//95
                        NOSIG=
201912130200 METAR LROP 130200Z 06011KT 2000 OVC001 03/03 Q1006 R88/19//95
                        NOSIG=
201912130230 METAR LROP 130230Z 06010KT 1500 BR OVC001 03/03 Q1006 R88/19//95
                        NOSIG=
201912130300 METAR LROP 130300Z 07012KT 1500 -RA BR OVC001 03/03 Q1006
                        R88/19//95 NOSIG=
201912130330 METAR LROP 130330Z 06011KT 1500 -RA BR OVC001 03/03 Q1006
                        R88/19//95 NOSIG=
201912130400 METAR LROP 130400Z 07011KT 0700 R08R/1200U R26L/1300N R08L/1300U
                        R26R/1600D FG VV001 03/03 Q1006 R88/29//95
                        NOSIG=
201912130430 METAR LROP 130430Z 06012KT 1000 R08R/1800U R26L/1300N R08L/1500
                        R26R/1700N BR OVC001 03/03 Q1006
                        R88/29//95 NOSIG=
201912130500 METAR LROP 130500Z 06009KT 1000 R08R/1500U R26L/1700N R08L/1500N
                        R26R/1900U -RA BR OVC001 03/03 Q1006
                        R88/29//95 NOSIG=
201912130530 METAR LROP 130530Z 06011KT 1500 -RA BR BKN001 OVC002 03/03
                        Q1006 R88/29//95 NOSIG=
201912130600 METAR LROP 130600Z 06011KT 1500 -RADZ BR BKN001 OVC002 03/03
                        Q1005 R88/29//95 NOSIG=
201912130630 METAR LROP 130630Z 06011KT 1500 -RADZ BR OVC002 03/03 Q1005
                        R88/29//95 NOSIG=
201912130700 METAR LROP 130700Z 06011KT 1500 BR BKN001 OVC002 04/04 Q1005
                        R88/29//95 NOSIG=
201912130730 METAR LROP 130730Z 06010KT 1500 BR BKN001 OVC002 04/04 Q1005
                        R88/29//95 NOSIG=
201912130800 METAR LROP 130800Z 06010KT 1500 BR BKN001 OVC002 04/04 Q1005
                        R88/29//95 NOSIG=
201912130830 METAR LROP 130830Z 06010KT 1300 R08R/1400D R26L/1400N R08L/1400N
                        R26R/1500N BR BKN001 OVC002 04/04
                        Q1005 R88/29//95 NOSIG=
201912130900 METAR LROP 130900Z 07010KT 1300 R08R/1500U R26L/1300D R08L/1200D
                        R26R/1400N BR OVC001 04/04 Q1004
                        R88/29//95 NOSIG=
201912130930 METAR COR LROP 130930Z 07011KT 0800 R08R/1200D R26L/1100N
                        R08L/1100D R26R/1300D FG OVC001 04/04
                        Q1004 R88/29//95 NOSIG=
201912131000 METAR LROP 131000Z 07011KT 0400 R08R/0800D R26L/0800D R08L/0800D
                        R26R/0800D FG OVC001 04/04 Q1004
                        R88/29//95 NOSIG=
201912131030 METAR LROP 131030Z 06011KT 0400 R08R/0800U R26L/0800U R08L/0800U
                        R26R/0800U -DZ FG OVC001 04/04 Q1003
                        R88/29//95 NOSIG=
201912131100 METAR LROP 131100Z 07011KT 0500 R08R/0800N R26L/0800U R08L/0800N
                        R26R/0800D -RADZ FG OVC001 05/05
                        Q1003 R88/29//95 NOSIG=
201912131130 METAR LROP 131130Z 07011KT 0500 R08R/1200D R26L/1100D R08L/1500N
                        R26R/1200D -DZ FG OVC001 05/05 Q1002
                        R88/29//95 NOSIG=
201912131200 METAR LROP 131200Z 07011KT 0500 R08R/1200N R26L/1000N R08L/1300U
                        R26R/1200N -DZ FG OVC001 05/05 Q1002
                        R88/29//95 NOSIG=
201912131230 METAR LROP 131230Z 06011KT 0600 R08R/1100U R26L/1000D R08L/1100D
                        R26R/1100U -RA FG OVC001 05/05 Q1002
                        R88/29//95 NOSIG=
201912131300 METAR LROP 131300Z 07010KT 0400 R08R/1100N R26L/1000N R08L/1200D
                        R26R/1100N FG OVC001 05/05 Q1002
                        R88/29//95 NOSIG=
201912131330 METAR LROP 131330Z 06010KT 0600 R08R/0800D R26L/0800D R08L/0800N
                        R26R/0800D FG OVC001 05/05 Q1001
                        R88/29//95 NOSIG=
201912131400 METAR LROP 131400Z 06010KT 0300 R08R/0800N R26L/0800N R08L/0800N
                        R26R/0800N FG OVC001 05/05 Q1001
                        R88/29//95 NOSIG=
201912131430 METAR LROP 131430Z 05009KT 0300 R08R/0800U R26L/0800U R08L/0800U
                        R26R/0800U FG OVC001 05/05 Q1001
                        R88/29//95 NOSIG=
201912131500 METAR LROP 131500Z 05009KT 0500 R08R/1200U R26L/1000D R08L/1200N
                        R26R/1100D FG OVC001 05/05 Q1001
                        R88/29//95 NOSIG=
201912131530 METAR LROP 131530Z 06009KT 0300 R08R/0800D R26L/0800N R08L/1000N
                        R26R/1000N FG OVC001 05/05 Q1001
                        R88/29//95 NOSIG=
201912131600 METAR LROP 131600Z 05008KT 0400 R08R/1000N R26L/1000N R08L/1100N
                        R26R/1100N FG OVC001 05/05 Q1001
                        R88/29//95 NOSIG=
201912131630 METAR LROP 131630Z 06009KT 0400 R08R/1000N R26L/1000N R08L/1100N
                        R26R/1100N FG OVC001 05/05 Q1001
                        R88/29//95 NOSIG=
201912131700 METAR LROP 131700Z 05008KT 0500 R08R/1000N R26L/1000N R08L/1000N
                        R26R/1000D FG VV002 05/05 Q1001 R88/29//95
                        NOSIG=
201912131730 METAR LROP 131730Z 06008KT 0600 R08R/0900N R26L/0900N R08L/1000N
                        R26R/1000N FG VV001 05/05 Q1000 R88/29//95
                        NOSIG=
201912131800 METAR LROP 131800Z 07007KT 0300 R08R/0750N R26L/0800N R08L/0800N
                        R26R/0800N FG VV002 05/05 Q1000 R88/29//95
                        NOSIG=
201912131830 METAR LROP 131830Z 07009KT 0300 R08R/0750N R26L/0700N R08L/0750N
                        R26R/0800N FG VV002 06/06 Q1000 R88/29//95
                        NOSIG=
201912131900 METAR LROP 131900Z 07007KT 0300 R08R/0600N R26L/0600N R08L/0650N
                        R26R/0650N FG VV002 06/06 Q1000 R88/29//95
                        NOSIG=
201912131930 METAR LROP 131930Z 07007KT 0300 R08R/0600N R26L/0600N R08L/0650N
                        R26R/0650N FG VV002 06/06 Q1000 R88/29//95
                        NOSIG=
201912132000 METAR LROP 132000Z 06008KT 0250 R08R/0650N R26L/0600N R08L/0650N
                        R26R/0700N FG VV002 06/06 Q1000 R88/29//95
                        NOSIG=
201912132030 METAR LROP 132030Z 07009KT 0300 R08R/0600 R26L/0600N R08L/0650N
                        R26R/0650N FG VV002 06/06 Q0999 R88/29//95
                        NOSIG=
201912132100 METAR LROP 132100Z 07007KT 0200 R08R/0550N R26L/0600N R08L/0600N
                        R26R/0650N FG VV002 06/06 Q0999 R88/29//95
                        NOSIG=
201912132130 METAR LROP 132130Z 07009KT 0200 R08R/0550N R26L/0550N R08L/0550N
                        R26R/0600N FG VV002 07/07 Q0999 R88/29//95
                        NOSIG=
201912132200 METAR LROP 132200Z 06009KT 0200 R08R/0600N R26L/0600N R08L/0650N
                        R26R/0650N FG VV002 07/07 Q0999 R88/29//95
                        NOSIG=
201912132230 METAR LROP 132230Z 06008KT 0200 R08R/0500N R26L/0500N R08L/0550N
                        R26R/0650N FG VV002 07/07 Q0999 R88/29//95
                        NOSIG=
201912132300 METAR LROP 132300Z 07009KT 0200 R08R/0700N R26L/0650N R08L/0700N
                        R26R/0800N FG VV002 07/07 Q0999 R88/29//95
                        NOSIG=
201912132330 METAR LROP 132330Z 06008KT 0300 R08R/0750N R26L/0800N R08L/0750N
                        R26R/0800N FG VV002 07/07 Q0999 R88/29//95
                        NOSIG=
201912140000 METAR LROP 140000Z 06007KT 0300 R08R/0900D R26L/0900N R08L/0900N
                        R26R/1000U FG VV002 07/07 Q0999 R88/29//95
                        NOSIG=
201912140030 METAR LROP 140030Z 06008KT 0400 R08R/1000N R26L/0900N R08L/1100N
                        R26R/1600U FG VV002 07/07 Q0999 R88/29//95
                        NOSIG=
201912140100 METAR LROP 140100Z 07009KT 0400 R08R/0800D R26L/0800N R08L/1700N
                        R26R/1800U FG VV002 07/07 Q0999 R88/29//95
                        NOSIG=
201912140130 METAR LROP 140130Z 06008KT 0600 R08R/1400U R26L/1000D R08L/1900D
                        R26R/2000 FG OVC001 07/07 Q0999 R88/29//95
                        NOSIG=
201912140200 METAR LROP 140200Z 06007KT 0400 R08R/1000D R26L/0800N R08L/1200N
                        R26R/1000N FG OVC001 07/07 Q0998
                        R88/29//95 NOSIG=
201912140230 METAR LROP 140230Z 06007KT 0400 R08R/1000N R26L/0900N R08L/1000D
                        R26R/1100N FG VV002 07/07 Q0998 R88/29//95
                        NOSIG=
201912140300 METAR LROP 140300Z 06006KT 0400 R08R/1100U R26L/1000U R08L/1000U
                        R26R/1500 FG VV002 08/08 Q0998 R88/29//95
                        NOSIG=
201912140330 METAR LROP 140330Z 06008KT 0600 R08R/1600U R26L/2000U R08L/1500U
                        R26R/P2000 FG OVC001 08/08 Q0998
                        R88/29//95 NOSIG=
201912140400 METAR LROP 140400Z 07010KT 0400 R08R/0900D R26L/1000N R08L/1500D
                        R26R/1600N FG OVC001 08/08 Q0998
                        R88/29//95 NOSIG=
201912140430 METAR LROP 140430Z 08010KT 0300 R08R/1000D R26L/1000N R08L/0900D
                        R26R/1000D FG OVC001 07/07 Q0998
                        R88/29//95 NOSIG=
201912140500 METAR LROP 140500Z 07010KT 0300 R08R/0550N R26L/0700N R08L/0700N
                        R26R/0750N FG OVC002 07/07 Q0999
                        R88/29//95 NOSIG=
201912140530 METAR LROP 140530Z 08008KT 0300 R08R/0700N R26L/0750N R08L/0800N
                        R26R/0800N FG VV002 07/07 Q0999 R88/29//95
                        NOSIG=
201912140600 METAR LROP 140600Z 08009KT 0300 R08R/0550N R26L/0500N R08L/0550N
                        R26R/0800D FG VV002 07/07 Q0999 R88/29//95
                        NOSIG=
201912140630 METAR LROP 140630Z 08010KT 0300 R08R/0500N R26L/0500N R08L/0600N
                        R26R/0550N FG VV002 07/07 Q0999 R88/29//95
                        NOSIG=
201912140700 METAR LROP 140700Z 07010KT 0300 R08R/0550N R26L/0550N R08L/0550N
                        R26R/0550N FG VV002 07/07 Q0999 R88/29//95
                        NOSIG=
201912140730 METAR LROP 140730Z 07010KT 0300 R08R/0400N R26L/0350N R08L/0450N
                        R26R/0400N FG VV002 07/07 Q1000 R88/29//95
                        NOSIG=
201912140800 METAR LROP 140800Z 06009KT 0300 R08R/0400N R26L/0400N R08L/0450N
                        R26R/0550N FG VV002 07/07 Q1000 R88/29//95
                        NOSIG=
201912140830 METAR LROP 140830Z 06009KT 0500 R08R/0800N R26L/0800U R08L/0550N
                        R26R/0700N FG OVC001 07/07 Q1000
                        R88/29//95 NOSIG=
201912140900 METAR COR LROP 140900Z 05008KT 0500 R08R/0900U R26L/1000N
                        R08L/0900D R26R/1000N FG OVC001 07/07
                        Q1000 R88/29//95 TEMPO 0800=
201912140930 METAR LROP 140930Z 05006KT 0800 R08R/1200U R26L/1400U R08L/1200U
                        R26R/1000U FG OVC001 07/07 Q1001
                        R88/29//95 BECMG 1500 BR BKN005=
201912141000 METAR LROP 141000Z 04007KT 2000 BR BKN002 OVC005 08/08 Q1000
                        R88/29//95 BECMG 3000 BR BKN005=
201912141030 METAR COR LROP 141030Z 05007KT 4000 BR BKN003 OVC006 08/08
                        Q1000 R88/29//95 BECMG 5000 BR=
201912141100 METAR LROP 141100Z 04006KT 7000 BKN004 BKN010 08/08 Q1001
                        R88/29//95 BECMG SCT015=
201912141130 METAR LROP 141130Z 04006KT 7000 BKN007 BKN012 09/09 Q1001
                        R88/29//95 BECMG SCT015=
201912141200 METAR LROP 141200Z 04005KT 9999 BKN012 10/09 Q1001 R88/29//95
                        NOSIG=
201912141230 METAR LROP 141230Z 04006KT 9999 SCT011 BKN013 10/09 Q1001
                        R88/19//95 NOSIG=
201912141300 METAR LROP 141300Z 03007KT 8000 BKN013 10/09 Q1001 R88/19//95
                        NOSIG=
201912141330 METAR LROP 141330Z 03007KT 7000 FEW013 10/09 Q1002 R88/19//95
                        NOSIG=
201912141400 METAR LROP 141400Z 03005KT 7000 FEW015 09/09 Q1002 R88/19//95
                        BECMG 5000 BR=
201912141430 METAR LROP 141430Z 02005KT 6000 NSC 09/09 Q1003 R88/19//95
                        BECMG 5000 BR=
201912141500 METAR LROP 141500Z 02004KT 5000 BR NSC 08/08 Q1003 R88/19//95
                        TEMPO 3000 BR=
201912141530 METAR LROP 141530Z 36005KT 5000 BR NSC 08/08 Q1003 R88/19//95
                        TEMPO 3000 BR=
201912141600 METAR LROP 141600Z 34005KT 330V040 5000 BR NSC 08/08 Q1003
                        R88/19//95 TEMPO 3000 BR=
201912141630 METAR LROP 141630Z 36004KT 5000 BR NSC 07/07 Q1004 R88/19//95
                        TEMPO 3000 BR=
201912141700 METAR LROP 141700Z 00000KT 2000 R08R/2000D R26L/0600N R08L/0450N
                        R26R/0500N PRFG BR FEW003 07/07 Q1004
                        R88/19//95 BECMG 1500 BR=
201912141730 METAR LROP 141730Z 28004KT 3000 BR NSC 06/06 Q1005 R88/19//95
                        NOSIG=
201912141800 METAR LROP 141800Z 26004KT 2500 BR NSC 06/06 Q1005 R88/19//95
                        NOSIG=
201912141830 METAR LROP 141830Z 26006KT 2500 BR NSC 06/06 Q1006 R88/19//95
                        NOSIG=
201912141900 METAR LROP 141900Z 28006KT 3000 BR NSC 06/06 Q1006 R88/19//95
                        NOSIG=
201912141930 METAR LROP 141930Z 26005KT 3500 BR NSC 06/06 Q1006 R88/19//95
                        NOSIG=
201912142000 METAR LROP 142000Z 26007KT 3600 BR NSC 07/07 Q1007 R88/19//95
                        NOSIG=
201912142030 METAR LROP 142030Z 26006KT 3000 BR NSC 07/07 Q1007 R88/19//95
                        NOSIG=
201912142100 METAR LROP 142100Z 26007KT 4000 BR NSC 07/07 Q1008 R88/19//95
                        NOSIG=
201912142130 METAR LROP 142130Z 26010KT 4000 -RA BR NSC 08/08 Q1008 R88/29//95
                        NOSIG=
201912142200 METAR LROP 142200Z 26009KT 4000 BR NSC 08/08 Q1008 R88/29//95
                        NOSIG=
201912142230 METAR LROP 142230Z 26008KT 5000 BR NSC 08/08 Q1008 R88/29//95
                        NOSIG=
201912142300 METAR LROP 142300Z 26008KT 5000 BR NSC 08/08 Q1008 R88/29//95
                        BECMG 9999 NSW=
201912142330 METAR LROP 142330Z 26009KT 4000 BR NSC 07/07 Q1008 R88/29//95
                        BECMG 9999 NSW=
201912150000 METAR LROP 150000Z 26009KT 4000 BR NSC 07/07 Q1009 R88/29//95
                        BECMG 9999 NSW=
201912150030 METAR LROP 150030Z 26009KT 4000 BR NSC 06/06 Q1010 R88/29//95
                        BECMG 9999 NSW=
201912150100 METAR COR LROP 150100Z 26009KT 3000 BR BKN005 OVC006 06/06
                        Q1010 R88/29//95 NOSIG=
201912150130 METAR LROP 150130Z 26008KT 3000 BR BKN005 OVC007 06/06 Q1010
                        R88/29//95 NOSIG=
201912150200 METAR LROP 150200Z 27009KT 3000 BR BKN005 OVC007 07/07 Q1011
                        R88/29//95 NOSIG=
201912150230 METAR LROP 150230Z 26011KT 3500 BR BKN005 OVC006 07/07 Q1011
                        R88/29//95 NOSIG=
201912150300 METAR LROP 150300Z 27011KT 3500 BR BKN005 OVC006 06/06 Q1012
                        R88/29//95 NOSIG=
201912150330 METAR LROP 150330Z 28010KT 3000 BR BKN002 OVC003 06/06 Q1012
                        R88/29//95 NOSIG=
201912150400 METAR LROP 150400Z 26009KT 3000 BR BKN002 OVC003 06/06 Q1013
                        R88/29//95 NOSIG=
201912150430 METAR LROP 150430Z 24006KT 3000 BR SCT002 BKN003 05/05 Q1014
                        R88/29//95 BECMG BKN005=
201912150500 METAR LROP 150500Z 22004KT 0400 R08R/0550D R26L/2000 R08L/2000
                        R26R/1000U FG SCT002 04/04 Q1014
                        R88/29//95 TEMPO 0150 FG=
201912150530 METAR LROP 150530Z 23003KT 0500 R08R/0550D R26L/0450N R08L/0275N
                        R26R/0325N FG SCT001 SCT003 04/04
                        Q1015 R88/29//95 NOSIG=
201912150600 METAR LROP 150600Z 20004KT 0800 R08R/0800 R26L/0300 R08L/0300
                        R26R/0175 FG FEW002 03/03 Q1015 R88/29//95
                        BECMG 1500 BR=
201912150630 METAR COR LROP 150630Z 23007KT 2200 BR NSC 04/04 Q1016 R26L/19//95
                        R26R/19//95 BECMG 3000=
201912150700 METAR LROP 150700Z 27008KT 3000 BR NSC 04/04 Q1016 R26L/19//95
                        R26R/19//95 BECMG 5000=
201912150730 METAR LROP 150730Z 29012KT 4000 BR NSC 05/05 Q1016 R26L/19//95
                        R26R/19//95 BECMG 7000 NSW=
201912150800 METAR LROP 150800Z 19003KT 150V230 7000 NSC 07/06 Q1016 R26L/19//95
                        R26R/19//95 NOSIG=
201912150830 METAR LROP 150830Z 21003KT 8000 NSC 08/06 Q1017 R26L/19//95
                        R26R/19//95 NOSIG=
201912150900 METAR LROP 150900Z 23006KT CAVOK 10/06 Q1017 R26L/19//95
                        R26R/19//95 NOSIG=
201912150930 METAR LROP 150930Z 26007KT CAVOK 11/05 Q1017 R26L/19//95
                        R26R/19//95 NOSIG=
201912151000 METAR LROP 151000Z 26007KT CAVOK 11/05 Q1017 R26L/19//95
                        R26R/19//95 NOSIG=
201912151030 METAR LROP 151030Z 24003KT 210V310 CAVOK 12/04 Q1018 R26L/19//95
                        R26R/19//95 NOSIG=
201912151100 METAR LROP 151100Z 20005KT 180V250 CAVOK 13/05 Q1018 R26L/19//95
                        R26R/19//95 NOSIG=
201912151130 METAR LROP 151130Z 21008KT CAVOK 12/06 Q1018 R26L/CLRD//
                        R26R/CLRD// NOSIG=
201912151200 METAR LROP 151200Z 22009KT CAVOK 11/05 Q1018 NOSIG=
201912151230 METAR LROP 151230Z 23008KT CAVOK 12/05 Q1018 NOSIG=
201912151300 METAR LROP 151300Z 23007KT CAVOK 12/05 Q1019 NOSIG=
201912151330 METAR LROP 151330Z 22006KT CAVOK 12/05 Q1019 NOSIG=
201912151400 METAR LROP 151400Z 21006KT CAVOK 10/05 Q1019 NOSIG=
201912151430 METAR LROP 151430Z 22006KT CAVOK 09/05 Q1019 NOSIG=
201912151500 METAR LROP 151500Z 22006KT CAVOK 08/06 Q1019 NOSIG=
201912151530 METAR LROP 151530Z 23007KT CAVOK 08/06 Q1020 NOSIG=
201912151600 METAR LROP 151600Z 23009KT CAVOK 08/06 Q1020 NOSIG=
201912151630 METAR LROP 151630Z 24008KT CAVOK 08/06 Q1020 NOSIG=
201912151700 METAR LROP 151700Z 26008KT CAVOK 06/06 Q1021 NOSIG=
201912151730 METAR LROP 151730Z 27006KT CAVOK 05/05 Q1021 NOSIG=
201912151800 METAR LROP 151800Z 25005KT CAVOK 05/05 Q1021 NOSIG=
201912151830 METAR LROP 151830Z 25006KT CAVOK 05/05 Q1021 NOSIG=
201912151900 METAR LROP 151900Z 23003KT CAVOK 05/05 Q1021 NOSIG=
201912151930 METAR LROP 151930Z 23004KT CAVOK 05/05 Q1021 NOSIG=
201912152000 METAR LROP 152000Z 23004KT CAVOK 05/04 Q1021 NOSIG=
201912152030 METAR LROP 152030Z 22002KT CAVOK 05/04 Q1021 NOSIG=
201912152100 METAR LROP 152100Z VRB02KT 7000 NSC 02/02 Q1021 NOSIG=
201912152130 METAR LROP 152130Z 29005KT 7000 NSC 02/02 Q1021 NOSIG=
201912152200 METAR LROP 152200Z 33006KT 9000 NSC 03/03 Q1021 NOSIG=
201912152230 METAR LROP 152230Z 32005KT 9000 NSC 03/03 Q1021 NOSIG=
201912152300 METAR LROP 152300Z 32008KT 5000 BR NSC 03/03 Q1022 NOSIG=
201912152330 METAR LROP 152330Z 32009KT 6000 NSC 03/03 Q1022 NOSIG=
201912160000 METAR LROP 160000Z 30004KT 6000 NSC 03/03 Q1022 NOSIG=
201912160030 METAR LROP 160030Z 24004KT 5000 MIFG BR NSC 02/02 Q1022 TEMPO
                        3000 BR=
201912160100 METAR LROP 160100Z 27005KT 3500 MIFG BR NSC 01/01 Q1022 NOSIG=
201912160130 METAR LROP 160130Z 28005KT 4000 BR NSC 01/01 Q1021 NOSIG=
201912160200 METAR LROP 160200Z 29003KT 3800 BR NSC 01/01 Q1021 NOSIG=
201912160230 METAR LROP 160230Z 26001KT 5000 BR NSC 00/00 Q1021 NOSIG=
201912160300 METAR LROP 160300Z 00000KT 5000 MIFG BR NSC 00/00 Q1021 NOSIG=
201912160330 METAR LROP 160330Z 21002KT 4500 MIFG BR NSC 00/00 Q1022 TEMPO
                        1500 BR=
201912160400 METAR LROP 160400Z 15003KT 4300 MIFG BR NSC 00/00 Q1022 TEMPO
                        1500 BR=
201912160430 METAR LROP 160430Z 17003KT 4500 MIFG BR NSC M00/M00 Q1022
                        TEMPO 1500 BR=
201912160500 METAR LROP 160500Z 19004KT 5000 BR NSC 01/01 Q1022 TEMPO
                        1500 BR=
201912160530 METAR LROP 160530Z 23006KT 5000 BR NSC 01/01 Q1022 TEMPO
                        3000 BR=
201912160600 METAR LROP 160600Z 27008KT 5000 BR NSC 01/01 Q1023 NOSIG=
201912160630 METAR LROP 160630Z 28009KT 5000 BR NSC 01/01 Q1023 NOSIG=
201912160700 METAR LROP 160700Z 27008KT 8000 NSC 01/01 Q1023 NOSIG=
201912160730 METAR LROP 160730Z 27009KT CAVOK 04/02 Q1023 NOSIG=
201912160800 METAR LROP 160800Z 28010KT CAVOK 05/03 Q1023 NOSIG=
201912160830 METAR LROP 160830Z 28010KT CAVOK 08/04 Q1023 NOSIG=
201912160900 METAR LROP 160900Z 22004KT 170V250 CAVOK 10/02 Q1023 NOSIG=
201912160930 METAR LROP 160930Z 24003KT 200V280 CAVOK 12/02 Q1023 NOSIG=
201912161000 METAR LROP 161000Z 23008KT CAVOK 13/02 Q1023 NOSIG=
201912161030 METAR LROP 161030Z 24007KT CAVOK 13/03 Q1023 NOSIG=
201912161100 METAR LROP 161100Z 26009KT CAVOK 13/03 Q1023 NOSIG=
201912161130 METAR LROP 161130Z 26009KT CAVOK 13/03 Q1022 NOSIG=
201912161200 METAR LROP 161200Z 26009KT CAVOK 14/02 Q1022 NOSIG=
201912161230 METAR LROP 161230Z 26009KT CAVOK 14/02 Q1022 NOSIG=
201912161300 METAR LROP 161300Z 26009KT CAVOK 14/03 Q1022 NOSIG=
201912161330 METAR LROP 161330Z 26008KT CAVOK 14/04 Q1022 NOSIG=
201912161400 METAR LROP 161400Z 26006KT CAVOK 13/04 Q1022 NOSIG=
201912161430 METAR LROP 161430Z 24005KT CAVOK 11/04 Q1022 NOSIG=
201912161500 METAR LROP 161500Z 23006KT CAVOK 09/04 Q1022 NOSIG=
201912161530 METAR LROP 161530Z 24005KT CAVOK 08/05 Q1022 NOSIG=
201912161600 METAR LROP 161600Z 24003KT CAVOK 08/06 Q1023 NOSIG=
201912161630 METAR LROP 161630Z 24005KT CAVOK 07/06 Q1023 NOSIG=
201912161700 METAR LROP 161700Z 25004KT CAVOK 06/06 Q1023 NOSIG=
201912161730 METAR LROP 161730Z 25004KT 8000 NSC 06/06 Q1023 NOSIG=
201912161800 METAR LROP 161800Z 25006KT 6000 NSC 05/05 Q1023 NOSIG=
201912161830 METAR LROP 161830Z 25006KT 6000 NSC 06/06 Q1023 NOSIG=
201912161900 METAR LROP 161900Z 26007KT 6000 NSC 06/06 Q1023 NOSIG=
201912161930 METAR LROP 161930Z 26006KT 6000 NSC 05/05 Q1023 NOSIG=
201912162000 METAR LROP 162000Z 27006KT 5000 BR NSC 04/04 Q1023 NOSIG=
201912162030 METAR LROP 162030Z 26006KT 5000 BR NSC 05/05 Q1022 NOSIG=
201912162100 METAR LROP 162100Z 28005KT 5000 BR NSC 04/04 Q1022 NOSIG=
201912162130 METAR LROP 162130Z 28004KT 5000 BR NSC 03/03 Q1022 NOSIG=
201912162200 METAR LROP 162200Z 27005KT 5000 BR NSC 03/03 Q1022 NOSIG=
201912162230 METAR LROP 162230Z 28004KT 5000 BR NSC 03/03 Q1022 NOSIG=
201912162300 METAR LROP 162300Z 27004KT 5000 BR NSC 02/02 Q1022 NOSIG=
201912162330 METAR LROP 162330Z 28004KT 5000 BR NSC 01/01 Q1022 NOSIG=
201912170000 METAR LROP 170000Z 24004KT 5000 BR NSC 02/02 Q1022 NOSIG=
201912170030 METAR LROP 170030Z 28003KT 4000 BR NSC 01/01 Q1022 NOSIG=
201912170100 METAR LROP 170100Z 28005KT 3500 BR NSC 01/01 Q1022 TEMPO
                        3000 BR=
201912170130 METAR LROP 170130Z 29004KT 3500 BR NSC 01/01 Q1022 NOSIG=
201912170200 METAR LROP 170200Z 25003KT 3500 MIFG BR NSC 00/00 Q1021 NOSIG=
201912170230 METAR LROP 170230Z 25005KT 5000 BR NSC 01/01 Q1022 NOSIG=
201912170300 METAR LROP 170300Z 26005KT 5000 BR NSC 01/01 Q1022 NOSIG=
201912170330 METAR LROP 170330Z 28005KT 4000 BR NSC 01/01 Q1022 NOSIG=
201912170400 METAR LROP 170400Z 25005KT 5000 BR NSC 00/00 Q1022 NOSIG=
201912170430 METAR LROP 170430Z 28005KT 5000 BR NSC 01/01 Q1022 NOSIG=
201912170500 METAR LROP 170500Z 28004KT 5000 BR NSC 00/00 Q1022 NOSIG=
201912170530 METAR LROP 170530Z 27005KT 5000 BR NSC 00/00 Q1022 NOSIG=
201912170600 METAR LROP 170600Z 26004KT 8000 NSC 01/01 Q1022 NOSIG=
201912170630 METAR LROP 170630Z 28004KT 6000 NSC 01/01 Q1022 NOSIG=
201912170700 METAR COR LROP 170700Z 28004KT 6000 NSC 02/02 Q1023 NOSIG=
201912170730 METAR LROP 170730Z 26006KT 8000 NSC 04/03 Q1023 NOSIG=
201912170800 METAR LROP 170800Z 29006KT 8000 NSC 05/03 Q1023 NOSIG=
201912170830 METAR LROP 170830Z 28005KT CAVOK 06/04 Q1023 NOSIG=
201912170900 METAR LROP 170900Z 27006KT CAVOK 09/05 Q1023 NOSIG=
201912170930 METAR LROP 170930Z 27008KT CAVOK 11/05 Q1023 NOSIG=
201912171000 METAR LROP 171000Z 27009KT CAVOK 12/05 Q1022 NOSIG=
201912171030 METAR LROP 171030Z 27010KT CAVOK 14/06 Q1022 NOSIG=
201912171100 METAR LROP 171100Z 28010KT CAVOK 16/06 Q1022 NOSIG=
201912171130 METAR LROP 171130Z 28009KT CAVOK 16/05 Q1021 NOSIG=
201912171200 METAR LROP 171200Z 27010KT CAVOK 17/05 Q1021 NOSIG=
201912171230 METAR LROP 171230Z 27009KT CAVOK 16/05 Q1021 NOSIG=
201912171300 METAR LROP 171300Z 27008KT CAVOK 16/05 Q1021 NOSIG=
201912171330 METAR LROP 171330Z 27007KT CAVOK 16/06 Q1021 NOSIG=
201912171400 METAR LROP 171400Z 26009KT CAVOK 15/05 Q1021 NOSIG=
201912171430 METAR LROP 171430Z 24009KT CAVOK 13/05 Q1021 NOSIG=
201912171500 METAR LROP 171500Z 24008KT CAVOK 12/07 Q1021 NOSIG=
201912171530 METAR LROP 171530Z 25009KT CAVOK 11/07 Q1021 NOSIG=
201912171600 METAR LROP 171600Z 25007KT CAVOK 09/07 Q1022 NOSIG=
201912171630 METAR LROP 171630Z 26007KT CAVOK 09/07 Q1022=
201912171700 METAR LROP 171700Z 25007KT 7000 NSC 08/07 Q1022 NOSIG=
201912171730 METAR LROP 171730Z 24007KT 6000 NSC 08/07 Q1022 NOSIG=
201912171800 METAR LROP 171800Z 22005KT 6000 NSC 07/06 Q1022 NOSIG=
201912171830 METAR LROP 171830Z 23005KT 6000 NSC 07/07 Q1022 NOSIG=
201912171900 METAR LROP 171900Z 25008KT 5000 BR NSC 07/06 Q1022 NOSIG=
201912171930 METAR LROP 171930Z 25009KT 5000 BR NSC 06/06 Q1022 NOSIG=
201912172000 METAR LROP 172000Z 25008KT 5000 BR NSC 06/05 Q1022 NOSIG=
201912172030 METAR LROP 172030Z 25008KT 6000 NSC 06/05 Q1022 NOSIG=
201912172100 METAR LROP 172100Z 26010KT 6000 NSC 06/05 Q1022 NOSIG=
201912172130 METAR LROP 172130Z 27010KT 6000 NSC 06/05 Q1022 NOSIG=
201912172200 METAR LROP 172200Z 26009KT 6000 NSC 06/05 Q1022 NOSIG=
201912172230 METAR LROP 172230Z 26010KT 7000 NSC 06/04 Q1022 NOSIG=
201912172300 METAR LROP 172300Z 27008KT 8000 NSC 06/04 Q1021 NOSIG=
201912172330 METAR LROP 172330Z 25008KT 7000 NSC 05/04 Q1021 NOSIG=
201912180000 METAR LROP 180000Z 25008KT 6000 NSC 05/04 Q1021 NOSIG=
201912180030 METAR LROP 180030Z 26009KT 6000 NSC 05/04 Q1022 NOSIG=
201912180100 METAR LROP 180100Z 26009KT 6000 NSC 05/04 Q1022 NOSIG=
201912180130 METAR LROP 180130Z 26010KT 6000 NSC 05/04 Q1021 NOSIG=
201912180200 METAR LROP 180200Z 26009KT 6000 NSC 04/04 Q1021 NOSIG=
201912180230 METAR LROP 180230Z 25008KT 6000 NSC 04/03 Q1021 NOSIG=
201912180300 METAR LROP 180300Z 25006KT 6000 NSC 04/03 Q1021 NOSIG=
201912180330 METAR LROP 180330Z 24006KT 6000 NSC 04/03 Q1021 NOSIG=
201912180400 METAR COR LROP 180400Z 24007KT 6000 NSC 04/03 Q1021 NOSIG=
201912180430 METAR COR LROP 180430Z 25007KT 6000 NSC 04/03 Q1022 NOSIG=
201912180500 METAR LROP 180500Z 26008KT 6000 NSC 04/03 Q1022 NOSIG=
201912180530 METAR LROP 180530Z 26009KT 6000 NSC 03/03 Q1022 NOSIG=
201912180600 METAR LROP 180600Z 26008KT 7000 NSC 03/03 Q1022 NOSIG=
201912180630 METAR LROP 180630Z 25009KT 7000 NSC 04/03 Q1022 NOSIG=
201912180700 METAR LROP 180700Z 25009KT 7000 NSC 04/03 Q1022 NOSIG=
201912180730 METAR LROP 180730Z 23011KT 8000 NSC 06/04 Q1023 NOSIG=
201912180800 METAR LROP 180800Z 23012KT 9000 NSC 08/04 Q1023 NOSIG=
201912180830 METAR LROP 180830Z 23015KT CAVOK 09/05 Q1023 NOSIG=
201912180900 METAR LROP 180900Z 26011KT CAVOK 11/05 Q1023 NOSIG=
201912180930 METAR LROP 180930Z 26013KT CAVOK 12/05 Q1023 NOSIG=
201912181000 METAR COR LROP 181000Z 25010KT CAVOK 13/06 Q1022 NOSIG=
201912181030 METAR LROP 181030Z 26013KT CAVOK 14/06 Q1022 NOSIG=
201912181100 METAR LROP 181100Z 26013KT CAVOK 14/07 Q1022 NOSIG=
201912181130 METAR LROP 181130Z 26013KT CAVOK 15/07 Q1022 NOSIG=
201912181200 METAR LROP 181200Z 26012KT CAVOK 15/07 Q1022 NOSIG=
201912181230 METAR LROP 181230Z 25010KT CAVOK 15/07 Q1022 NOSIG=
201912181300 METAR LROP 181300Z 25012KT CAVOK 15/07 Q1022 NOSIG=
201912181330 METAR LROP 181330Z 25009KT CAVOK 15/07 Q1022 NOSIG=
201912181400 METAR LROP 181400Z 25009KT CAVOK 13/07 Q1022 NOSIG=
201912181430 METAR LROP 181430Z 24009KT CAVOK 12/07 Q1022 NOSIG=
201912181500 METAR LROP 181500Z 25008KT CAVOK 11/07 Q1022 NOSIG=
201912181530 METAR LROP 181530Z 25011KT 8000 NSC 10/07 Q1022 NOSIG=
201912181600 METAR LROP 181600Z 26007KT 7000 NSC 09/07 Q1022 NOSIG=
201912181630 METAR LROP 181630Z 26007KT 7000 NSC 08/07 Q1023 NOSIG=
201912181700 METAR LROP 181700Z 25007KT 6000 NSC 08/07 Q1023 NOSIG=
201912181730 METAR LROP 181730Z 25007KT 6000 NSC 08/06 Q1023 NOSIG=
201912181800 METAR LROP 181800Z 25005KT 6000 NSC 07/06 Q1024 NOSIG=
201912181830 METAR LROP 181830Z 26007KT 6000 NSC 07/06 Q1024 NOSIG=
201912181900 METAR LROP 181900Z 28006KT 6000 NSC 07/06 Q1024 NOSIG=
201912181930 METAR LROP 181930Z 27007KT 6000 NSC 06/06 Q1024 NOSIG=
201912182000 METAR LROP 182000Z 27005KT 5000 BR NSC 06/05 Q1024 NOSIG=
201912182030 METAR LROP 182030Z 26005KT 5000 BR NSC 06/05 Q1024 NOSIG=
201912182100 METAR LROP 182100Z 25007KT 5000 BR NSC 06/06 Q1024 NOSIG=
201912182130 METAR LROP 182130Z 26005KT 4000 BR NSC 05/05 Q1024 NOSIG=
201912182200 METAR LROP 182200Z 27007KT 4000 BR NSC 05/05 Q1024 NOSIG=
201912182230 METAR LROP 182230Z 27006KT 3000 BR NSC 03/03 Q1025 NOSIG=
201912182300 METAR LROP 182300Z 27006KT 3000 BR NSC 03/03 Q1025 NOSIG=
201912182330 METAR LROP 182330Z 25005KT 4000 BR NSC 03/03 Q1024 NOSIG=
201912190000 METAR LROP 190000Z 25005KT 4000 BR FEW040 03/03 Q1025 NOSIG=
201912190030 METAR LROP 190030Z 26006KT 3000 BR NSC 03/03 Q1025 NOSIG=
201912190100 METAR LROP 190100Z 28005KT 3000 BR NSC 02/02 Q1025 NOSIG=
201912190130 METAR LROP 190130Z 28005KT 2500 BR NSC 02/02 Q1025 NOSIG=
201912190200 METAR LROP 190200Z 27006KT 5000 BR NSC 03/03 Q1025 NOSIG=
201912190230 METAR LROP 190230Z 28005KT 5000 BR NSC 02/02 Q1025 NOSIG=
201912190300 METAR LROP 190300Z 30002KT 5000 BR NSC 01/01 Q1026 NOSIG=
201912190330 METAR LROP 190330Z 28002KT 5000 BR NSC 01/01 Q1026 NOSIG=
201912190400 METAR LROP 190400Z 26002KT 3000 BR NSC 01/01 Q1026 NOSIG=
201912190430 METAR LROP 190430Z 25003KT 3000 MIFG BR NSC 01/01 Q1026 TEMPO
                        1500 BR=
201912190500 METAR LROP 190500Z 26002KT 1500 R08R/P2000 R26L/0275N R08L/P2000
                        R26R/P2000 MIFG PRFG SCT004 00/00
                        Q1027 TEMPO 0800 FG=
201912190530 METAR LROP 190530Z 27003KT 2000 BR NSC 00/00 Q1027 TEMPO
                        0800 FG=
201912190600 METAR LROP 190600Z 23002KT 1500 R08R/P2000 R26L/0375U R08L/P2000
                        R26R/2000 MIFG PRFG NSC M00/M00 Q1027
                        TEMPO 0800 FG=
201912190630 METAR LROP 190630Z VRB02KT 3000 BR NSC 00/00 Q1027 TEMPO
                        0800 FG=
201912190700 METAR LROP 190700Z VRB02KT 5000 BR NSC 02/02 Q1027 NOSIG=
201912190730 METAR LROP 190730Z 34003KT 280V040 5000 BR NSC 02/02 Q1028
                        NOSIG=
201912190800 METAR LROP 190800Z 02003KT 5000 BR NSC 05/04 Q1028 NOSIG=
201912190830 METAR LROP 190830Z 02004KT 350V050 5000 BR NSC 07/05 Q1028
                        NOSIG=
201912190900 METAR LROP 190900Z 02003KT 5000 BR NSC 08/06 Q1028 NOSIG=
201912190930 METAR LROP 190930Z 06003KT 020V090 5000 BR NSC 09/07 Q1028
                        NOSIG=
201912191000 METAR LROP 191000Z 05006KT 6000 NSC 10/06 Q1027 NOSIG=
201912191030 METAR LROP 191030Z AUTO 05006KT 9000 NCD 12/06 Q1027 NOSIG=
201912191100 METAR LROP 191100Z 08005KT CAVOK 12/06 Q1027 NOSIG=
201912191130 METAR LROP 191130Z 10005KT CAVOK 13/07 Q1026 NOSIG=
201912191200 METAR LROP 191200Z 09006KT CAVOK 13/06 Q1026 NOSIG=
201912191230 METAR LROP 191230Z 10005KT CAVOK 13/07 Q1026 NOSIG=
201912191300 METAR LROP 191300Z 08005KT CAVOK 13/07 Q1026 NOSIG=
201912191330 METAR LROP 191330Z 10005KT CAVOK 11/07 Q1026 NOSIG=
201912191400 METAR LROP 191400Z 10005KT CAVOK 10/06 Q1026 NOSIG=
201912191430 METAR LROP 191430Z 10005KT 7000 NSC 09/06 Q1026 NOSIG=
201912191500 METAR LROP 191500Z 10005KT 7000 NSC 08/06 Q1026 NOSIG=
201912191530 METAR LROP 191530Z 07006KT 6000 NSC 07/06 Q1026 BECMG 5000
                        BR=
201912191600 METAR LROP 191600Z 09004KT 5000 BR NSC 06/05 Q1026 NOSIG=
201912191630 METAR LROP 191630Z 07005KT 5000 BR NSC 06/05 Q1026 BECMG
                        3000 BR=
201912191700 METAR LROP 191700Z 07004KT 4500 BR NSC 06/05 Q1026 BECMG
                        3000 BR=
201912191730 METAR LROP 191730Z 06006KT 5000 BR NSC 06/05 Q1026 BECMG
                        3000 BR=
201912191800 METAR LROP 191800Z 06005KT 4500 BR NSC 05/05 Q1026 BECMG
                        3000 BR=
201912191830 METAR LROP 191830Z 05007KT 4500 BR NSC 05/05 Q1026 BECMG
                        1500 BR=
201912191900 METAR LROP 191900Z 06006KT 4000 BR NCD 05/05 Q1026 BECMG
                        1500 BR=
201912191930 METAR LROP 191930Z 05007KT 4000 BR NSC 04/04 Q1026 BECMG
                        1500 BR=
201912192000 METAR LROP 192000Z 07006KT 3000 BR NSC 04/04 Q1026 BECMG
                        1500 BR=
201912192030 METAR LROP 192030Z 05007KT 3000 BR NSC 04/04 Q1026 NOSIG=
201912192100 METAR LROP 192100Z 06005KT 2500 BR NSC 03/03 Q1025 NOSIG=
201912192130 METAR LROP 192130Z 04005KT 2500 BR NSC 03/03 Q1025 NOSIG=
201912192200 METAR LROP 192200Z 05004KT 2400 BR NSC 03/03 Q1025 NOSIG=
201912192230 METAR LROP 192230Z 04006KT 2000 R08R/P2000 R26L/0325N R08L/2000N
                        R26R/2000 PRFG BR NSC 03/03 Q1024
                        BECMG 0800 FG=
201912192300 METAR LROP 192300Z 04011KT 3500 BR NSC 05/05 Q1024 NOSIG=
201912192330 METAR LROP 192330Z 04010KT 3500 BR NSC 04/04 Q1023 NOSIG=
201912200000 METAR LROP 200000Z 04009KT 3500 BR NSC 04/04 Q1023 NOSIG=
201912200030 METAR LROP 200030Z 04008KT 3500 BR NSC 04/04 Q1023 NOSIG=
201912200100 METAR LROP 200100Z 04008KT 4000 BR NSC 04/04 Q1023 NOSIG=
201912200130 METAR LROP 200130Z 05010KT 4000 BR NSC 04/04 Q1022 NOSIG=
201912200200 METAR LROP 200200Z 05009KT 3500 BR NSC 04/04 Q1022 TEMPO
                        1500 BR=
201912200230 METAR LROP 200230Z 05007KT 3000 BR NSC 04/04 Q1022 TEMPO
                        1500 BR=
201912200300 METAR LROP 200300Z 06007KT 1800 BR NSC 03/03 Q1022 TEMPO
                        1500 BR=
201912200330 METAR LROP 200330Z 08009KT 0500 R08R/0600D R26L/0600N R08L/1200U
                        R26R/0400N FG SCT001 03/03 Q1022
                        NOSIG=
201912200400 METAR LROP 200400Z 09008KT 0300 R08R/0400N R26L/0450N R08L/0375N
                        R26R/0450N FG VV001 03/03 Q1021 NOSIG=
201912200430 METAR LROP 200430Z 08010KT 0300 R08R/0500N R26L/0600N R08L/0450N
                        R26R/0450N FG VV001 03/03 Q1021 NOSIG=
201912200500 METAR LROP 200500Z 07007KT 0250 R08R/0550U R26L/0550N R08L/0450N
                        R26R/0400N FG VV001 03/03 Q1021 NOSIG=
201912200530 METAR LROP 200530Z 05007KT 0250 R08R/0600U R26L/0500N R08L/0500N
                        R26R/0550N FG VV001 04/04 Q1021 NOSIG=
201912200600 METAR LROP 200600Z 05006KT 0200 R08R/0550D R26L/0450N R08L/0600N
                        R26R/0600N FG VV001 04/04 Q1021 NOSIG=
201912200630 METAR LROP 200630Z 04009KT 0300 R08R/0700N R26L/0650N R08L/0700N
                        R26R/0700N FG VV002 04/04 Q1020 BECMG
                        0800 BKN003=
201912200700 METAR LROP 200700Z 03006KT 0350 R08R/0800N R26L/0700N R08L/0800N
                        R26R/0700N FG VV001 04/04 Q1021 R88/19//95
                        BECMG 0800 BKN003=
201912200730 METAR LROP 200730Z 04005KT 0350 R08R/0800N R26L/0800 R08L/0900N
                        R26R/0800N -DZ FG OVC001 04/04 Q1021
                        R88/19//95 BECMG 0800 BKN003=
201912200800 METAR LROP 200800Z 03006KT 0400 R08R/0800 R26L/0750N R08L/0800
                        R26R/0800N -DZ FG OVC001 04/04 Q1020
                        R88/19//95 BECMG 0800 BKN003=
201912200830 METAR LROP 200830Z 04006KT 0450 R08R/0800U R26L/0750N R08L/0900N
                        R26R/0750N FG OVC001 05/05 Q1020
                        R88/19//95 BECMG 0800 BKN003=
201912200900 METAR LROP 200900Z 05006KT 0400 R08R/1000U R26L/0900N R08L/0800
                        R26R/0700 FG OVC001 05/05 Q1020 R88/19//95
                        BECMG 0800 BKN003=
201912200930 METAR LROP 200930Z 05008KT 0500 R08R/1000 R26L/0900 R08L/1000U
                        R26R/1000U FG OVC001 05/05 Q1019
                        R88/19//95 BECMG 0800 BKN003=
201912201000 METAR LROP 201000Z 07004KT 0700 R08R/1200N R26L/1400N R08L/1200N
                        R26R/1300U FG OVC002 05/05 Q1019
                        R88/19//95 BECMG 1000 BR BKN003=
201912201030 METAR LROP 201030Z 09003KT 0900 R08R/1400N R26L/1200 R08L/1400U
                        R26R/1200 FG OVC002 05/05 Q1019 R88/29//95
                        BECMG 1000 BR BKN003=
201912201100 METAR LROP 201100Z VRB02KT 0900 R08R/1400 R26L/1700 R08L/P2000
                        R26R/P2000 -DZ FG OVC002 05/05 Q1018
                        R88/29//95 BECMG 1500 BR BKN003=
201912201130 METAR LROP 201130Z VRB01KT 1200 R08R/1500 R26L/1500 R08L/1400
                        R26R/1400 -DZ BR OVC002 05/05 Q1018
                        R88/29//95 BECMG 3000 BKN005=
201912201200 METAR LROP 201200Z 04004KT 1700 BR OVC002 05/05 Q1017 R88/29//95
                        BECMG 3000 BKN005=
201912201230 METAR LROP 201230Z VRB02KT 2500 BR BKN002 OVC004 06/06 Q1017
                        R88/29//95 BECMG 3000 BKN005=
201912201300 METAR LROP 201300Z 21003KT 4000 BR SCT004 OVC005 06/06 Q1017
                        R88/29//95 BECMG 7000 NSW=
201912201330 METAR LROP 201330Z 27003KT 240V300 4000 BR BKN004 OVC005
                        06/06 Q1017 R88/29//95 BECMG 7000
                        NSW=
201912201400 METAR LROP 201400Z VRB01KT 5000 BR BKN004 OVC005 06/06 Q1016
                        R88/29//95 BECMG 7000 NSW=
201912201430 METAR LROP 201430Z VRB02KT 5000 BR OVC005 06/06 Q1016 R88/29//95
                        NOSIG=
201912201500 METAR LROP 201500Z 24004KT 5000 BR OVC005 06/05 Q1016 R88/29//95
                        NOSIG=
201912201530 METAR LROP 201530Z 22004KT 4000 BR OVC005 05/05 Q1016 R88/29//95
                        BECMG 3000 BR=
201912201600 METAR LROP 201600Z 23005KT 4000 BR OVC004 05/05 Q1016 R88/29//95
                        BECMG 3000 BR=
201912201630 METAR COR LROP 201630Z 24005KT 3500 BR OVC003 05/05 Q1016
                        R88/19//95 NOSIG=
201912201700 METAR LROP 201700Z 25005KT 220V290 4000 BR OVC003 05/05 Q1016
                        R88/19//95 NOSIG=
201912201730 METAR LROP 201730Z 24006KT 4000 BR OVC003 05/05 Q1016 R88/19//95
                        BECMG 3000 BR=
201912201800 METAR LROP 201800Z 25008KT 3000 BR OVC002 05/05 Q1016 R88/19//95
                        NOSIG=
201912201830 METAR LROP 201830Z 26007KT 3000 BR OVC002 05/05 Q1015 R88/19//95
                        BECMG 1500 BR=
201912201900 METAR LROP 201900Z 23006KT 2000 BR OVC001 05/05 Q1015 R88/19//95
                        BECMG 0800 FG=
201912201930 METAR LROP 201930Z 23006KT 0800 R08R/1300D R26L/1600D R08L/1600U
                        R26R/1500D FG OVC001 05/05 Q1015
                        R88/19//95 NOSIG=
201912202000 METAR LROP 202000Z 24006KT 0600 R08R/1300N R26L/0900D R08L/1600
                        R26R/1400D FG OVC001 05/05 Q1015
                        R88/19//95 NOSIG=
201912202030 METAR LROP 202030Z 23006KT 0600 R08R/1100D R26L/1100U R08L/0900
                        R26R/1000 FG VV001 04/04 Q1014 R88/19//95
                        NOSIG=
201912202100 METAR LROP 202100Z 22006KT 0350 R08R/0700U R26L/0750D R08L/0700
                        R26R/0700N FG VV001 04/04 Q1014 R88/19//95
                        NOSIG=
201912202130 METAR LROP 202130Z 23006KT 0400 R08R/0800N R26L/0650D R08L/0800U
                        R26R/0800 FG VV001 04/04 Q1014 R88/19//95
                        NOSIG=
201912202200 METAR LROP 202200Z 24006KT 210V270 0200 R08R/0800 R26L/0900N
                        R08L/0650N R26R/0700 FG VV001 04/04
                        Q1014 R88/19//95 NOSIG=
201912202230 METAR LROP 202230Z 24005KT 0250 R08R/0750N R26L/0600N R08L/0700
                        R26R/0800N FG VV001 04/04 Q1013 R88/19//95
                        NOSIG=
201912202300 METAR LROP 202300Z 24005KT 0200 R08R/0600N R26L/0650N R08L/0700N
                        R26R/0500D FG VV001 04/04 Q1013 R88/19//95
                        NOSIG=
201912202330 METAR LROP 202330Z 23006KT 0150 R08R/0500N R26L/0600N R08L/0550N
                        R26R/0700N FG VV001 04/04 Q1013 R88/19//95
                        NOSIG=
201912210000 METAR LROP 210000Z 25006KT 220V280 0200 R08R/0500N R26L/0600N
                        R08L/0600N R26R/0600N FG VV001 03/03
                        Q1013 R88/19//95 NOSIG=
201912210030 METAR LROP 210030Z 24005KT 0200 R08R/0600N R26L/0700 R08L/0650N
                        R26R/0700N FG VV001 03/03 Q1013 R88/19//95
                        NOSIG=
201912210100 METAR LROP 210100Z 22005KT 0300 R08R/0650N R26L/0750N R08L/0650N
                        R26R/0700N FG VV001 03/03 Q1012 R88/19//95
                        NOSIG=
201912210130 METAR LROP 210130Z 24006KT 0300 R08R/0550N R26L/0800N R08L/0500N
                        R26R/0750D FG VV001 03/02 Q1012 R88/19//95
                        NOSIG=
201912210200 METAR LROP 210200Z 23006KT 0250 R08R/0500N R26L/0600N R08L/0500N
                        R26R/0600N FG VV001 02/02 Q1012 R88/19//95
                        NOSIG=
201912210230 METAR LROP 210230Z 23006KT 0300 R08R/0550N R26L/0750N R08L/0550N
                        R26R/0600D FG VV001 02/02 Q1012 R88/19//95
                        NOSIG=
201912210300 METAR LROP 210300Z 23005KT 0250 R08R/0550N R26L/0700U R08L/0550N
                        R26R/0650D FG VV001 02/02 Q1012 R88/19//95
                        NOSIG=
201912210330 METAR LROP 210330Z 23006KT 0250 R08R/550D R26L/0750N R08L/0550N
                        R26R/0600N FG VV001 02/02 Q1011 R88/19//95
                        NOSIG=
201912210400 METAR LROP 210400Z 25006KT 0500 R08R/0800N R26L/1000D R08L/0750N
                        R26R/0700N FG VV001 02/02 Q1011 R88/19//95
                        TEMPO 0350 FG=
201912210430 METAR LROP 210430Z 25006KT 0500 R08R/1000U R26L/1000N R08L/0700D
                        R26R/0900U FG VV001 01/01 Q1011 R88/19//95
                        BECMG 0800 OVC002=
201912210500 METAR LROP 210500Z 23006KT 0800 R08R/1500U R26L/1000 R08L/P2000
                        R26R/1000 FG VV001 01/01 Q1011 R88/19//95
                        BECMG 1500 BR=
201912210530 METAR LROP 210530Z 23005KT 0300 R08R/0800 R26L/1400 R08L/P2000
                        R26R/1600 FG VV001 01/01 Q1011 R88/19//95
                        TEMPO 0800=
201912210600 METAR LROP 210600Z 22004KT 0800 R08R/1500U R26L/1800 R08L/1700
                        R26R/1200U FG VV001 01/01 Q1011 R88/19//95
                        BECMG 1500 BR=
201912210630 METAR COR LROP 210630Z 23005KT 2000 BR BKN001 01/01 Q1011
                        R88/19//95 BECMG 5000=
201912210700 METAR LROP 210700Z 23006KT 8000 NSC 02/02 Q1011 R88/19//95
                        BECMG 5000=
201912210730 METAR LROP 210730Z 25006KT CAVOK 02/02 Q1011 R88/19//95 NOSIG=
201912210800 METAR LROP 210800Z 24006KT CAVOK 03/03 Q1011 R88/19//95 NOSIG=
201912210830 METAR LROP 210830Z 24006KT CAVOK 04/04 Q1010 R88/19//95 NOSIG=
201912210900 METAR LROP 210900Z 23006KT CAVOK 04/04 Q1010 R88/19//95 NOSIG=
201912210930 METAR LROP 210930Z 24006KT CAVOK 05/05 Q1010 R88/19//95 NOSIG=
201912211000 METAR LROP 211000Z 23005KT CAVOK 07/05 Q1009 R88/19//95 NOSIG=
201912211030 METAR LROP 211030Z 24005KT CAVOK 08/06 Q1009 R88/CLRD// NOSIG=
201912211100 METAR LROP 211100Z 24006KT CAVOK 09/06 Q1008 NOSIG=
201912211130 METAR LROP 211130Z 24005KT CAVOK 10/06 Q1007 NOSIG=
201912211200 METAR LROP 211200Z 24005KT CAVOK 10/06 Q1007 NOSIG=
201912211230 METAR LROP 211230Z 23004KT CAVOK 09/06 Q1007 NOSIG=
201912211300 METAR LROP 211300Z 28003KT 7000 NSC 10/07 Q1007 NOSIG=
201912211330 METAR LROP 211330Z 29003KT 7000 NSC 09/07 Q1006 NOSIG=
201912211400 METAR LROP 211400Z 26003KT 7000 NSC 08/07 Q1006 NOSIG=
201912211430 METAR LROP 211430Z 23003KT 5000 BR NSC 08/07 Q1006 NOSIG=
201912211500 METAR COR LROP 211500Z 00000KT 5000 BR NSC 07/06 Q1006 NOSIG=
201912211530 METAR LROP 211530Z 20001KT 5000 BR NSC 07/06 Q1006 NOSIG=
201912211600 METAR LROP 211600Z 26003KT 5000 BR NSC 07/07 Q1005 NOSIG=
201912211630 METAR COR LROP 211630Z VRB01KT 6000 NSC 07/06 Q1005 NOSIG=
201912211700 METAR LROP 211700Z 26001KT 3500 BR NSC 06/06 Q1005 NOSIG=
201912211730 METAR LROP 211730Z VRB01KT 3000 BR NSC 04/04 Q1005 NOSIG=
201912211800 METAR LROP 211800Z 12004KT 080V140 2500 BR NSC 05/05 Q1004
                        NOSIG=
201912211830 METAR LROP 211830Z 07004KT 2500 BR NSC 05/05 Q1004 NOSIG=
201912211900 METAR LROP 211900Z 06004KT 2500 BR NSC 05/05 Q1004 NOSIG=
201912211930 METAR COR LROP 211930Z 06003KT 010V080 2000 BR NSC 04/04
                        Q1004 NOSIG=
201912212000 METAR LROP 212000Z 35004KT 2000 BR NSC 05/05 Q1003 NOSIG=
201912212030 METAR LROP 212030Z VRB02KT 2000 BR NSC 04/04 Q1003 NOSIG=
201912212100 METAR LROP 212100Z VRB01KT 2000 BR NSC 04/04 Q1003 NOSIG=
201912212130 METAR COR LROP 212130Z 26002KT 2500 BR NSC 04/04 Q1002 NOSIG=
201912212200 METAR LROP 212200Z VRB02KT 2500 BR NSC 04/04 Q1002 NOSIG=
201912212230 METAR LROP 212230Z 27003KT 2500 BR NSC 05/05 Q1002 NOSIG=
201912212300 METAR LROP 212300Z VRB01KT 2500 BR NSC 05/05 Q1002 NOSIG=
201912212330 METAR COR LROP 212330Z 19001KT 2500 BR NSC 05/05 Q1001 NOSIG=
201912220000 METAR COR LROP 220000Z 26004KT 210V280 3000 -RA BR NSC 05/05
                        Q1001 NOSIG=
201912220030 METAR COR LROP 220030Z 17004KT 140V220 2700 -RA BR NSC 06/06
                        Q1001 R88/19//95 NOSIG=
201912220100 METAR COR LROP 220100Z 23003KT 2700 -RA BR NSC 06/06 Q1001
                        R88/29//95 NOSIG=
201912220130 METAR COR LROP 220130Z 24002KT 2500 BR NSC 06/06 Q1001 R88/29//95
                        NOSIG=
201912220200 METAR LROP 220200Z 26002KT 2000 BR NSC 05/05 Q1001 R88/29//95
                        NOSIG=
201912220230 METAR LROP 220230Z 24002KT 2000 BR NSC 05/05 Q1001 R88/29//95
                        NOSIG=
201912220300 METAR LROP 220300Z 00000KT 0750 R08R/0800U R26L/0800 R08L/P2000
                        R26R/1800 BCFG NSC 05/05 Q1000 R88/29//95
                        NOSIG=
201912220330 METAR LROP 220330Z 32002KT 0900 R08R/1200 R26L/1000 R08L/1500
                        R26R/2000N BCFG NSC 05/05 Q1000 R88/29//95
                        NOSIG=
201912220400 METAR LROP 220400Z 26001KT 0900 R08R/1400 R26L/1000 R08L/1600
                        R26R/1800 BCFG NSC 05/05 Q1000 R88/29//95
                        NOSIG=
201912220430 METAR LROP 220430Z 00000KT 0500 R08R/0600D R26L/0400N R08L/0900U
                        R26R/1400 FG NSC 04/04 Q1000 R88/29//95
                        NOSIG=
201912220500 METAR LROP 220500Z VRB02KT 3000 BR NSC 04/04 Q1000 R88/29//95
                        BECMG 1500 BR=
201912220530 METAR LROP 220530Z 25003KT 220V290 3500 BR NSC 05/05 Q1000
                        R88/29//95 NOSIG=
201912220600 METAR LROP 220600Z 22004KT 2000 BR NSC 05/05 Q1000 R88/29//95
                        NOSIG=
201912220630 METAR LROP 220630Z 23004KT 190V250 3500 BR NSC 06/06 Q0999
                        R88/29//95 NOSIG=
201912220700 METAR LROP 220700Z 28004KT 4000 BR NSC 06/06 Q1000 R88/19//95
                        NOSIG=
201912220730 METAR LROP 220730Z 23004KT 5000 BR NSC 08/08 Q0999 WS ALL
                        RWY R88/19//95 NOSIG=
201912220800 METAR LROP 220800Z 26004KT 9000 NSC 11/09 Q0999 WS ALL RWY
                        R88/19//95 NOSIG=
201912220830 METAR LROP 220830Z 25004KT 9000 NSC 12/08 Q0999 WS ALL RWY
                        R88/19//95 NOSIG=
201912220900 METAR LROP 220900Z 22004KT CAVOK 14/08 Q0999 WS ALL RWY R88/19//95
                        NOSIG=
201912220930 METAR LROP 220930Z 21005KT CAVOK 15/08 Q0999 R88/19//95 NOSIG=
201912221000 METAR LROP 221000Z 19005KT CAVOK 16/08 Q0999 R88/19//95 NOSIG=
201912221030 METAR LROP 221030Z 22004KT CAVOK 16/07 Q0998 R88/19//95 NOSIG=
201912221100 METAR LROP 221100Z 24004KT CAVOK 17/07 Q0998 R88/19//95 NOSIG=
201912221130 METAR LROP 221130Z 24004KT CAVOK 17/07 Q0998 R88/19//95 NOSIG=
201912221200 METAR LROP 221200Z 22005KT 180V250 CAVOK 16/07 Q0997 R88/19//95
                        BECMG 08010KT=
201912221230 METAR LROP 221230Z VRB02KT CAVOK 16/07 Q0997 R88/19//95 BECMG
                        08010KT=
201912221300 METAR LROP 221300Z 11003KT CAVOK 15/08 Q0996 R88/CLRD// BECMG
                        08010KT=
201912221330 METAR LROP 221330Z 08004KT CAVOK 14/09 Q0996 NOSIG=
201912221400 METAR LROP 221400Z 09005KT CAVOK 12/10 Q0996 NOSIG=
201912221430 METAR LROP 221430Z 13004KT CAVOK 12/09 Q0996 NOSIG=
201912221500 METAR LROP 221500Z 10005KT CAVOK 11/09 Q0995 NOSIG=
201912221530 METAR LROP 221530Z 07006KT CAVOK 11/09 Q0995 NOSIG=
201912221600 METAR LROP 221600Z 09006KT CAVOK 11/09 Q0994 NOSIG=
201912221630 METAR LROP 221630Z 09005KT CAVOK 11/09 Q0994 NOSIG=
201912221700 METAR LROP 221700Z 08005KT CAVOK 11/10 Q0994 NOSIG=
201912221730 METAR LROP 221730Z 08006KT CAVOK 11/10 Q0994 NOSIG=
201912221800 METAR LROP 221800Z 06004KT CAVOK 11/10 Q0994 NOSIG=
201912221830 METAR LROP 221830Z 06006KT CAVOK 11/10 Q0993 NOSIG=
201912221900 METAR LROP 221900Z 04007KT CAVOK 11/10 Q0993 NOSIG=
201912221930 METAR LROP 221930Z 04008KT CAVOK 11/10 Q0993 NOSIG=
201912222000 METAR LROP 222000Z 03007KT 9999 -RA NSC 11/10 Q0992 R88/19//95
                        NOSIG=
201912222030 METAR LROP 222030Z 03008KT CAVOK 10/10 Q0992 R88/19//95 NOSIG=
201912222100 METAR LROP 222100Z 03006KT CAVOK 10/10 Q0992 R88/19//95 NOSIG=
201912222130 METAR LROP 222130Z 04006KT CAVOK 10/10 Q0992 R88/19//95 NOSIG=
201912222200 METAR LROP 222200Z 03005KT 9999 -RA SCT045 10/10 Q0991 R88/29//95
                        NOSIG=
201912222230 METAR LROP 222230Z 05005KT 9999 -RA OVC040 10/10 Q0991 R88/29//95
                        NOSIG=
201912222300 METAR LROP 222300Z 05002KT 7000 -RA BKN041 10/10 Q0991 R88/29//95
                        NOSIG=
201912222330 METAR LROP 222330Z 07004KT 8000 -RA NSC 10/10 Q0990 R88/29//95
                        NOSIG=
201912230000 METAR LROP 230000Z 06004KT 8000 -RA NSC 10/10 Q0990 R88/29//95
                        NOSIG=
201912230030 METAR LROP 230030Z 08004KT 6000 NSC 09/09 Q0990 R88/29//95
                        TEMPO 5000 BR=
201912230100 METAR LROP 230100Z 08002KT 7000 -RA OVC042 09/09 Q0990 R88/29//95
                        NOSIG=
201912230130 METAR LROP 230130Z VRB02KT 9000 -RA OVC040 10/10 Q0989 R88/29//95
                        NOSIG=
201912230200 METAR LROP 230200Z 09004KT 6000 OVC042 09/09 Q0989 R88/29//95
                        NOSIG=
201912230230 METAR LROP 230230Z 11003KT 6000 NSC 09/09 Q0989 R88/29//95
                        NOSIG=
201912230300 METAR LROP 230300Z VRB02KT 9000 NSC 10/10 Q0989 R88/29//95
                        NOSIG=
201912230330 METAR LROP 230330Z 11002KT 6000 -RA NSC 09/09 Q0989 R88/29//95
                        NOSIG=
201912230400 METAR LROP 230400Z 22002KT 6000 NSC 09/09 Q0989 R88/29//95
                        NOSIG=
201912230430 METAR LROP 230430Z 22004KT CAVOK 10/10 Q0989 R88/29//95 NOSIG=
201912230500 METAR LROP 230500Z 24007KT 7000 NSC 10/10 Q0989 R88/29//95
                        TEMPO 5000 -RA BR=
201912230530 METAR LROP 230530Z 25007KT 7000 -RA NSC 10/10 Q0990 R88/29//95
                        TEMPO 5000 -RA BR=
201912230600 METAR LROP 230600Z 26008KT 5000 RA BR NSC 10/10 Q0990 R88/29//95
                        BECMG 7000 -RA=
201912230630 METAR LROP 230630Z 28005KT 4500 -RA BR NSC 10/10 Q0989 R88/29//95
                        BECMG 7000 -RA=
201912230700 METAR LROP 230700Z 23006KT 4500 BR FEW010 10/10 Q0990 R88/29//95
                        NOSIG=
201912230730 METAR LROP 230730Z 24005KT 6000 NSC 10/10 Q0990 R88/29//95
                        NOSIG=
201912230800 METAR LROP 230800Z 24007KT 7000 NSC 11/11 Q0990 R88/29//95
                        NOSIG=
201912230830 METAR LROP 230830Z 23006KT 8000 NSC 12/12 Q0990 R88/29//95
                        NOSIG=
201912230900 METAR LROP 230900Z 21006KT 180V240 CAVOK 13/12 Q0990 R88/29//95
                        NOSIG=
201912230930 METAR LROP 230930Z 21005KT CAVOK 13/12 Q0990 R88/29//95 NOSIG=
201912231000 METAR LROP 231000Z 25007KT 9999 FEW009 SCT034 12/12 Q0991
                        R88/29//95 NOSIG=
201912231030 METAR LROP 231030Z 25009KT 4500 -RA BR SCT035 11/11 Q0991
                        R88/29//95 NOSIG=
201912231100 METAR LROP 231100Z 26008KT 4000 RA BR BKN036 11/11 Q0991
                        R88/29//95 NOSIG=
201912231130 METAR LROP 231130Z 24006KT 4000 RA BR OVC047 11/11 Q0991
                        R88/29//95 BECMG 9999 NSW=
201912231200 METAR LROP 231200Z 23005KT 7000 SCT038 11/11 Q0991 RERA R88/29//95
                        NOSIG=
201912231230 METAR COR LROP 231230Z 22005KT 8000 FEW033 11/11 Q0991 R88/29//95
                        NOSIG=
201912231300 METAR LROP 231300Z 23005KT 8000 SCT021 12/12 Q0991 R88/29//95
                        NOSIG=
201912231330 METAR LROP 231330Z 27010KT 9999 FEW014 12/11 Q0991 R88/29//95
                        NOSIG=
201912231400 METAR LROP 231400Z 26009KT 9999 FEW013 11/10 Q0992 R88/29//95
                        NOSIG=
201912231430 METAR LROP 231430Z 26009KT 9999 SCT011 10/09 Q0992 R88/29//95
                        NOSIG=
201912231500 METAR LROP 231500Z 26011KT 9999 SCT011 09/09 Q0992 R88/29//95
                        NOSIG=
201912231530 METAR LROP 231530Z 25009KT 9999 BKN014 09/08 Q0993 R88/29//95
                        NOSIG=
201912231600 METAR LROP 231600Z 26010KT 9999 SCT013 08/07 Q0993 R88/29//95
                        NOSIG=
201912231630 METAR LROP 231630Z 24009KT CAVOK 07/06 Q0994 R88/29//95 NOSIG=
201912231700 METAR LROP 231700Z 24009KT CAVOK 07/06 Q0994 R88/29//95 NOSIG=
201912231730 METAR LROP 231730Z 25010KT CAVOK 07/06 Q0994 R88/29//95 NOSIG=
201912231800 METAR LROP 231800Z 24010KT CAVOK 06/06 Q0994 R88/29//95 NOSIG=
201912231830 METAR LROP 231830Z 25010KT CAVOK 06/06 Q0994 R88/19//95 NOSIG=
201912231900 METAR LROP 231900Z 24010KT CAVOK 06/05 Q0994 R88/19//95 NOSIG=
201912231930 METAR LROP 231930Z 24009KT CAVOK 05/05 Q0994 R88/19//95 NOSIG=
201912232000 METAR LROP 232000Z 25007KT CAVOK 05/05 Q0994 R88/19//95 NOSIG=
201912232030 METAR LROP 232030Z 25007KT CAVOK 05/04 Q0995 R88/19//95 NOSIG=
201912232100 METAR LROP 232100Z 24008KT CAVOK 05/04 Q0995 R88/19//95 NOSIG=
201912232130 METAR LROP 232130Z 25008KT CAVOK 04/04 Q0995 R88/19//95 NOSIG=
201912232200 METAR LROP 232200Z 25006KT CAVOK 04/04 Q0995 R88/19//95 NOSIG=
201912232230 METAR LROP 232230Z 25005KT CAVOK 03/03 Q0995 R88/19//95 NOSIG=
201912232300 METAR LROP 232300Z 27004KT CAVOK 03/03 Q0995 R88/19//95 NOSIG=
201912232330 METAR LROP 232330Z 25005KT CAVOK 02/02 Q0996 R88/19//95 NOSIG=
201912240000 METAR LROP 240000Z 25003KT CAVOK 02/02 Q0996 R88/19//95 NOSIG=
201912240030 METAR LROP 240030Z 25005KT 8000 NSC 02/02 Q0996 R88/19//95
                        NOSIG=
201912240100 METAR LROP 240100Z 24005KT CAVOK 02/02 Q0996 R88/19//95 NOSIG=
201912240130 METAR LROP 240130Z 23004KT CAVOK 02/01 Q0996 R88/19//95 NOSIG=
201912240200 METAR LROP 240200Z 22006KT CAVOK 02/02 Q0996 R88/19//95 NOSIG=
201912240230 METAR LROP 240230Z 25005KT CAVOK 02/02 Q0997 R88/19//95 NOSIG=
201912240300 METAR LROP 240300Z 24004KT CAVOK 01/01 Q0997 R88/19//95 NOSIG=
201912240330 METAR LROP 240330Z 29005KT 8000 NSC 01/01 Q0997 R88/19//95=
201912240400 METAR LROP 240400Z 27003KT 7000 NSC 01/01 Q0998 R88/19//95
                        NOSIG=
201912240430 METAR LROP 240430Z 24003KT 1500 0800NW PRFG BR FEW002 01/01
                        Q0998 R88/19//95 NOSIG=
201912240500 METAR LROP 240500Z 27004KT 1500 BR BKN001 OVC028 01/01 Q0998
                        R88/19//95 NOSIG=
201912240530 METAR COR LROP 240530Z 27004KT 1500 BR BKN001 BKN028 00/00
                        Q0999 R88/19//95 NOSIG=
201912240600 METAR LROP 240600Z 27003KT 1500 BR SCT001 BKN002 01/01 Q0999
                        R88/19//95 NOSIG=
201912240630 METAR LROP 240630Z VRB01KT 1500 BR BKN001 OVC002 01/01 Q1000
                        R88/19//95 TEMPO 0800 FG=
201912240700 METAR LROP 240700Z 27003KT 250V360 0300 R08R/0650 R26L/0800
                        R08L/0800 R26R/0700U FG SCT001 OVC002
                        01/01 Q1000 R88/19//95 BECMG 1000
                        BR=
201912240730 METAR LROP 240730Z VRB02KT 1500 BR OVC002 02/02 Q1001 R88/19//95
                        BECMG 3000=
201912240800 METAR LROP 240800Z VRB02KT 2500 -RA BR OVC002 03/03 Q1001
                        R88/29//95 BECMG 4000=
201912240830 METAR LROP 240830Z VRB02KT 3000 -RA BR OVC002 03/03 Q1001
                        R88/29//95 BECMG 5000 BKN005 BKN020=
201912240900 METAR LROP 240900Z VRB01KT 4000 BR BKN003 OVC011 04/04 Q1002
                        R88/29//95 BECMG 6000 NSW SCT005
                        BKN015=
201912240930 METAR LROP 240930Z VRB02KT 4000 BR SCT004 OVC009 04/04 Q1002
                        R88/29//95 BECMG 6000 NSW SCT005
                        BKN015=
201912241000 METAR LROP 241000Z VRB02KT 4500 BR SCT006 BKN008 05/05 Q1002
                        R88/29//95 BECMG 7000 NSW SCT010=
201912241030 METAR LROP 241030Z 29003KT 260V320 5000 BR FEW004 BKN006
                        06/06 Q1002 R88/29//95 BECMG 8000
                        NSW SCT010=
201912241100 METAR LROP 241100Z 28005KT 5000 BR FEW004 OVC046 06/06 Q1002
                        R88/29//95 NOSIG=
201912241130 METAR COR LROP 241130Z 27004KT 6000 -RA OVC047 07/07 Q1002
                        R88/29//95 NOSIG=
201912241200 METAR COR LROP 241200Z 27004KT 240V300 6000 -RA OVC048 07/07
                        Q1003 R88/29//95 NOSIG=
201912241230 METAR LROP 241230Z 24003KT 210V270 5000 -RA BR OVC049 07/07
                        Q1003 R88/29//95 NOSIG=
201912241300 METAR LROP 241300Z 23002KT 4000 -RA BR OVC045 07/07 Q1003
                        R88/29//95 NOSIG=
201912241330 METAR COR LROP 241330Z 24003KT 3000 -RA BR OVC046 07/07 Q1003
                        R88/29//95 NOSIG=
201912241400 METAR LROP 241400Z 23005KT 2500 -RA BR OVC047 07/07 Q1004
                        R88/29//95 NOSIG=
201912241430 METAR COR LROP 241430Z 25005KT 2500 -RA BR OVC048 07/07 Q1004
                        R88/29//95 NOSIG=
201912241500 METAR LROP 241500Z 24004KT 3000 -RA BR OVC047 07/07 Q1004
                        R88/29//95 NOSIG=
201912241530 METAR LROP 241530Z 22005KT 3500 -RA BR OVC048 07/07 Q1004
                        R88/29//95 NOSIG=
201912241600 METAR LROP 241600Z 21005KT 3500 BR BKN048 07/07 Q1004 R88/29//95
                        NOSIG=
201912241630 METAR LROP 241630Z 22004KT 3500 BR FEW048 07/07 Q1005 R88/29//95
                        NOSIG=
201912241700 METAR LROP 241700Z 23003KT 4000 BR NSC 07/07 Q1005 R88/29//95
                        NOSIG=
201912241730 METAR LROP 241730Z 24003KT 4000 BR NSC 07/07 Q1005 R88/29//95
                        BECMG 3000 BR=
201912241800 METAR LROP 241800Z 26002KT 4000 BR NSC 07/06 Q1005 R88/29//95
                        NOSIG=
201912241830 METAR LROP 241830Z 22003KT 3000 BR NSC 06/06 Q1005 R88/29//95
                        BECMG 1500 BR=
201912241900 METAR LROP 241900Z 22003KT 4000 BR NSC 06/06 Q1005 R88/29//95
                        NOSIG=
201912241930 METAR LROP 241930Z 24003KT 4000 BR NSC 06/06 Q1005 R88/29//95
                        NOSIG=
201912242000 METAR LROP 242000Z 27002KT 4000 BR NSC 06/06 Q1006 R88/29//95
                        NOSIG=
201912242030 METAR LROP 242030Z 24001KT 3000 BR MIFG NSC 06/06 Q1006 R88/29//95
                        BECMG 1500 BR=
201912242100 METAR LROP 242100Z 18001KT 1300 R08R/0750D R26L/1400D R08L/P2000
                        R26R/1900D PRFG BR FEW049 06/06 Q1005
                        R88/29//95 BECMG 0800 FG=
201912242130 METAR LROP 242130Z 20002KT 0900 R08R/0550 R26L/0900D R08L/P2000
                        R26R/1100D FG FEW049 06/06 Q1006
                        R88/29//95 NOSIG=
201912242200 METAR LROP 242200Z 24002KT 1200 R08R/1300U R26L/1100 R08L/2000
                        R26R/1000U PRFG BR FEW048 06/06 Q1006
                        R88/29//95 TEMPO 0800 FG=
201912242230 METAR LROP 242230Z 24002KT 3000 BR NSC 06/06 Q1006 R88/29//95
                        NOSIG=
201912242300 METAR LROP 242300Z 23003KT 3000 BR NSC 05/05 Q1005 R88/29//95
                        NOSIG=
201912242330 METAR LROP 242330Z 24003KT 3500 BR NSC 05/05 Q1005 R88/29//95
                        NOSIG=
201912250000 METAR LROP 250000Z 23004KT 3200 MIFG BR NSC 05/05 Q1005 R88/29//95
                        NOSIG=
201912250030 METAR LROP 250030Z 26004KT 0600 R08R/0750N R26L/1300U R08L/1000U
                        R26R/0700N FG SCT003 03/03 Q1006
                        R88/29//95 NOSIG=
201912250100 METAR LROP 250100Z 29005KT 0700 R08R/0800N R26L/0550U R08L/1800D
                        R26R/0700N FG BKN003 03/03 Q1006
                        R88/29//95 NOSIG=
201912250130 METAR LROP 250130Z 27005KT 0800 R08R/0800U R26L/1000D R08L/P2000
                        R26R/0800U FG FEW003 02/02 Q1006
                        R88/29//95 TEMPO 1500 BR=
201912250200 METAR LROP 250200Z 32004KT 8000 NSC 02/02 Q1006 R88/29//95
                        TEMPO 5000 BR=
201912250230 METAR LROP 250230Z 32004KT 300V360 CAVOK 02/02 Q1005 R88/29//95
                        TEMPO 5000 BR=
201912250300 METAR LROP 250300Z 29003KT CAVOK 01/01 Q1005 R88/29//95 TEMPO
                        5000 BR=
201912250330 METAR LROP 250330Z 28002KT CAVOK 01/01 Q1005 R88/29//95 TEMPO
                        5000 BR=
201912250400 METAR LROP 250400Z 27003KT CAVOK 01/01 Q1005 R88/29//95 TEMPO
                        5000 BR=
201912250430 METAR LROP 250430Z 24005KT CAVOK 01/01 Q1005 R88/29//95 TEMPO
                        5000 BR=
201912250500 METAR LROP 250500Z 23004KT CAVOK 01/01 Q1006 R88/29//95 NOSIG=
201912250530 METAR LROP 250530Z 23006KT 8000 NSC 01/01 Q1006 R88/29//95
                        NOSIG=
201912250600 METAR COR LROP 250600Z 26005KT CAVOK 01/01 Q1006 R88/29//95
                        NOSIG=
201912250630 METAR LROP 250630Z 26004KT CAVOK 01/01 Q1007 R88/29//95 NOSIG=
201912250700 METAR LROP 250700Z 28003KT CAVOK 01/01 Q1007 R88/29//95 NOSIG=
201912250730 METAR LROP 250730Z 27003KT CAVOK 02/02 Q1007 R88/29//95 NOSIG=
201912250800 METAR LROP 250800Z 29002KT CAVOK 03/02 Q1007 R88/29//95 NOSIG=
201912250830 METAR LROP 250830Z VRB01KT CAVOK 04/04 Q1007 R88/29//95 NOSIG=
201912250900 METAR LROP 250900Z VRB02KT CAVOK 05/04 Q1007 R88/29//95 NOSIG=
201912250930 METAR LROP 250930Z 29005KT CAVOK 06/04 Q1007 R88/29//95 NOSIG=
201912251000 METAR LROP 251000Z 26004KT CAVOK 06/04 Q1007 R88/29//95 NOSIG=
201912251030 METAR LROP 251030Z 27005KT CAVOK 06/05 Q1007 R88/29//95 NOSIG=
201912251100 METAR LROP 251100Z 26003KT CAVOK 07/05 Q1007 R88/19//95 NOSIG=
201912251130 METAR LROP 251130Z 27003KT CAVOK 08/05 Q1007 R88/19//95 NOSIG=
201912251200 METAR LROP 251200Z 29004KT CAVOK 08/04 Q1007 R88/19//95 NOSIG=
201912251230 METAR LROP 251230Z 27004KT 250V310 CAVOK 08/05 Q1007 R88/19//95
                        NOSIG=
201912251300 METAR LROP 251300Z 27004KT CAVOK 08/04 Q1007 R88/19//95 NOSIG=
201912251330 METAR LROP 251330Z 27005KT CAVOK 09/06 Q1007 R88/CLRD// NOSIG=
201912251400 METAR LROP 251400Z 28006KT CAVOK 08/05 Q1007 NOSIG=
201912251430 METAR LROP 251430Z 28005KT CAVOK 07/06 Q1007 NOSIG=
201912251500 METAR LROP 251500Z 27005KT CAVOK 07/06 Q1008 NOSIG=
201912251530 METAR LROP 251530Z 28005KT CAVOK 06/05 Q1008=
201912251600 METAR LROP 251600Z 29005KT CAVOK 06/05 Q1008 NOSIG=
201912251630 METAR LROP 251630Z 28005KT CAVOK 06/05 Q1008 NOSIG=
201912251700 METAR LROP 251700Z 27004KT CAVOK 06/05 Q1008 NOSIG=
201912251730 METAR LROP 251730Z 25003KT CAVOK 06/05 Q1009 NOSIG=
201912251800 METAR LROP 251800Z 01004KT 320V050 CAVOK 06/05 Q1009 NOSIG=
201912251830 METAR LROP 251830Z 33002KT CAVOK 05/05 Q1009 NOSIG=
201912251900 METAR LROP 251900Z 00000KT CAVOK 05/05 Q1009 NOSIG=
201912251930 METAR COR LROP 251930Z 01004KT CAVOK 06/04 Q1009 NOSIG=
201912252000 METAR COR LROP 252000Z VRB01KT CAVOK 06/04 Q1010 NOSIG=
201912252030 METAR LROP 252030Z VRB02KT CAVOK 06/04 Q1010 NOSIG=
201912252100 METAR LROP 252100Z VRB01KT CAVOK 05/05 Q1010 NOSIG=
201912252130 METAR LROP 252130Z 00000KT CAVOK 05/03 Q1010 NOSIG=
201912252200 METAR COR LROP 252200Z VRB01KT CAVOK 06/03 Q1010 NOSIG=
201912252230 METAR LROP 252230Z 05002KT CAVOK 06/03 Q1010 NOSIG=
201912252300 METAR COR LROP 252300Z 01005KT 9999 OVC047 06/02 Q1010 NOSIG=
201912252330 METAR COR LROP 252330Z 34003KT 9999 OVC046 06/02 Q1010 NOSIG=
201912260000 METAR COR LROP 260000Z 29003KT 270V330 9999 OVC047 05/04
                        Q1011 NOSIG=
201912260030 METAR COR LROP 260030Z 31002KT 9999 -RA OVC048 05/04 Q1011
                        NOSIG=
201912260100 METAR COR LROP 260100Z 35002KT 9999 -RA FEW045 OVC057 05/04
                        Q1011 R88/29//95 NOSIG=
201912260130 METAR COR LROP 260130Z 35004KT 9999 -RA BKN049 05/03 Q1011
                        R88/29//95 NOSIG=
201912260200 METAR LROP 260200Z VRB01KT 9999 FEW048 05/03 Q1011 R88/29//95
                        NOSIG=
201912260230 METAR LROP 260230Z VRB02KT CAVOK 04/04 Q1011 R88/29//95 NOSIG=
201912260300 METAR LROP 260300Z 05002KT CAVOK 04/04 Q1011 R88/29//95 NOSIG=
201912260330 METAR LROP 260330Z VRB02KT CAVOK 04/03 Q1011 R88/29//95 NOSIG=
201912260400 METAR COR LROP 260400Z 03002KT CAVOK 04/03 Q1011 R88/29//95
                        NOSIG=
201912260430 METAR LROP 260430Z 00000KT CAVOK 04/03 Q1012 R88/19//95 NOSIG=
201912260500 METAR LROP 260500Z 23001KT CAVOK 04/03 Q1012 R88/19//95 NOSIG=
201912260530 METAR LROP 260530Z 02003KT CAVOK 04/03 Q1012 R88/19//95 NOSIG=
201912260600 METAR LROP 260600Z 01004KT CAVOK 04/03 Q1013 R88/19//95 NOSIG=
201912260630 METAR LROP 260630Z 09001KT CAVOK 04/03 Q1013 R88/19//95 NOSIG=
201912260700 METAR LROP 260700Z 10002KT CAVOK 05/03 Q1013 R88/CLRD// NOSIG=
201912260730 METAR LROP 260730Z VRB01KT CAVOK 05/04 Q1014 NOSIG=
201912260800 METAR LROP 260800Z VRB01KT CAVOK 06/04 Q1014 NOSIG=
201912260830 METAR LROP 260830Z VRB01KT CAVOK 06/05 Q1014 NOSIG=
201912260900 METAR LROP 260900Z VRB02KT CAVOK 07/00 Q1014 NOSIG=
201912260930 METAR COR LROP 260930Z 07004KT 360V100 CAVOK 08/M01 Q1014
                        NOSIG=
201912261000 METAR LROP 261000Z VRB01KT CAVOK 07/M02 Q1014 NOSIG=
201912261030 METAR LROP 261030Z VRB01KT CAVOK 08/M02 Q1014 NOSIG=
201912261100 METAR LROP 261100Z 09001KT CAVOK 08/M02 Q1014 NOSIG=
201912261130 METAR LROP 261130Z VRB01KT CAVOK 09/M01 Q1014 NOSIG=
201912261200 METAR LROP 261200Z 23003KT 190V260 CAVOK 09/M02 Q1014 NOSIG=
201912261230 METAR LROP 261230Z 24006KT CAVOK 09/00 Q1014 NOSIG=
201912261300 METAR LROP 261300Z 24006KT CAVOK 09/01 Q1014 NOSIG=
201912261330 METAR LROP 261330Z 27005KT CAVOK 09/01 Q1014 NOSIG=
201912261400 METAR LROP 261400Z 28006KT CAVOK 08/01 Q1014 NOSIG=
201912261430 METAR LROP 261430Z 28005KT CAVOK 08/03 Q1014 NOSIG=
201912261500 METAR LROP 261500Z 25007KT CAVOK 07/03 Q1015 NOSIG=
201912261530 METAR LROP 261530Z 26006KT CAVOK 06/03 Q1015 NOSIG=
201912261600 METAR LROP 261600Z 27004KT CAVOK 06/04 Q1015 NOSIG=
201912261630 METAR LROP 261630Z 27005KT CAVOK 06/04 Q1015 NOSIG=
201912261700 METAR LROP 261700Z 28005KT CAVOK 05/04 Q1015 NOSIG=
201912261730 METAR LROP 261730Z 28007KT CAVOK 04/04 Q1016 NOSIG=
201912261800 METAR LROP 261800Z 30005KT CAVOK 05/04 Q1016 NOSIG=
201912261830 METAR LROP 261830Z 33007KT CAVOK 05/02 Q1016 NOSIG=
201912261900 METAR LROP 261900Z 31008KT CAVOK 05/01 Q1016 NOSIG=
201912261930 METAR LROP 261930Z 07004KT 310V110 CAVOK 04/01 Q1016 NOSIG=
201912262000 METAR LROP 262000Z VRB02KT CAVOK 05/01 Q1016 NOSIG=
201912262030 METAR LROP 262030Z 34004KT CAVOK 05/M01 Q1016 NOSIG=
201912262100 METAR LROP 262100Z 33004KT CAVOK 05/M01 Q1016 NOSIG=
201912262130 METAR LROP 262130Z 25002KT CAVOK 04/00 Q1016 NOSIG=
201912262200 METAR LROP 262200Z 24002KT CAVOK 04/01 Q1016 NOSIG=
201912262230 METAR LROP 262230Z 25004KT CAVOK 04/M00 Q1016 NOSIG=
201912262300 METAR LROP 262300Z 26005KT CAVOK 04/00 Q1016 NOSIG=
201912262330 METAR LROP 262330Z 26006KT CAVOK 03/01 Q1017 NOSIG=
201912270000 METAR LROP 270000Z 26005KT CAVOK 02/01 Q1017 NOSIG=
201912270030 METAR LROP 270030Z 26005KT CAVOK 02/M00 Q1017 NOSIG=
201912270100 METAR LROP 270100Z VRB02KT CAVOK 02/M00 Q1017 NOSIG=
201912270130 METAR LROP 270130Z 27003KT 240V300 CAVOK 01/M01 Q1017 NOSIG=
201912270200 METAR LROP 270200Z 25003KT CAVOK 01/00 Q1017 NOSIG=
201912270230 METAR LROP 270230Z 25005KT CAVOK 02/M00 Q1017 NOSIG=
201912270300 METAR LROP 270300Z 24006KT CAVOK 02/M01 Q1017 NOSIG=
201912270330 METAR LROP 270330Z 25006KT CAVOK 02/M01 Q1017 NOSIG=
201912270400 METAR LROP 270400Z 22005KT CAVOK 02/M00 Q1017 NOSIG=
201912270430 METAR LROP 270430Z 24007KT CAVOK 01/M00 Q1017 NOSIG=
201912270500 METAR LROP 270500Z 26006KT CAVOK 00/M01 Q1017 NOSIG=
201912270530 METAR LROP 270530Z 26005KT CAVOK 00/M01 Q1017 NOSIG=
201912270600 METAR COR LROP 270600Z 26005KT CAVOK M00/M01 Q1017 NOSIG=
201912270630 METAR LROP 270630Z 30003KT CAVOK M01/M01 Q1017 NOSIG=
201912270700 METAR LROP 270700Z 29005KT CAVOK 01/M01 Q1017 NOSIG=
201912270730 METAR LROP 270730Z VRB02KT CAVOK 02/00 Q1017 NOSIG=
201912270800 METAR LROP 270800Z 31004KT CAVOK 04/00 Q1017 NOSIG=
201912270830 METAR LROP 270830Z 29003KT 260V320 CAVOK 04/01 Q1018 NOSIG=
201912270900 METAR LROP 270900Z 26004KT CAVOK 04/00 Q1017 NOSIG=
201912270930 METAR LROP 270930Z 24003KT CAVOK 05/M00 Q1017 NOSIG=
201912271000 METAR LROP 271000Z 26004KT CAVOK 05/00 Q1017 NOSIG=
201912271030 METAR LROP 271030Z 25003KT 220V280 CAVOK 06/01 Q1017 NOSIG=
201912271100 METAR LROP 271100Z 25003KT 200V300 9999 FEW050CB 07/01 Q1016
                        NOSIG=
201912271130 METAR LROP 271130Z 21005KT CAVOK 08/00 Q1016 NOSIG=
201912271200 METAR LROP 271200Z 19005KT 160V220 9999 FEW050TCU 08/01 Q1016
                        NOSIG=
201912271230 METAR LROP 271230Z 20003KT 150V230 9999 FEW050 09/01 Q1016
                        NOSIG=
201912271300 METAR LROP 271300Z 20006KT 180V240 9999 FEW048 08/01 Q1016
                        NOSIG=
201912271330 METAR LROP 271330Z 21005KT CAVOK 08/M01 Q1016 NOSIG=
201912271400 METAR LROP 271400Z 19004KT CAVOK 07/00 Q1016 NOSIG=
201912271430 METAR LROP 271430Z 18003KT CAVOK 06/M01 Q1016 NOSIG=
201912271500 METAR LROP 271500Z 19003KT CAVOK 04/M01 Q1016 NOSIG=
201912271530 METAR LROP 271530Z VRB02KT CAVOK 03/M01 Q1016 NOSIG=
201912271600 METAR LROP 271600Z 10003KT 060V150 CAVOK 03/M01 Q1017 NOSIG=
201912271630 METAR LROP 271630Z VRB01KT CAVOK 03/M00 Q1017 NOSIG=
201912271700 METAR LROP 271700Z 08005KT CAVOK 02/M01 Q1017 NOSIG=
201912271730 METAR LROP 271730Z 09003KT CAVOK 02/00 Q1017 NOSIG=
201912271800 METAR LROP 271800Z 08003KT CAVOK 02/01 Q1017 NOSIG=
201912271830 METAR LROP 271830Z 00000KT 9000 NSC 03/01 Q1017 NOSIG=
201912271900 METAR LROP 271900Z 34004KT 300V020 CAVOK 03/02 Q1018 NOSIG=
201912271930 METAR LROP 271930Z VRB02KT 9999 SCT037 03/01 Q1017 NOSIG=
201912272000 METAR LROP 272000Z VRB02KT CAVOK 03/01 Q1017 NOSIG=
201912272030 METAR LROP 272030Z VRB02KT CAVOK 02/01 Q1017 NOSIG=
201912272100 METAR LROP 272100Z 27002KT CAVOK 01/00 Q1018 NOSIG=
201912272130 METAR LROP 272130Z 28004KT CAVOK 01/M00 Q1018 NOSIG=
201912272200 METAR LROP 272200Z 06002KT CAVOK 01/00 Q1018 NOSIG=
201912272230 METAR LROP 272230Z VRB02KT CAVOK 02/M00 Q1018 NOSIG=
201912272300 METAR LROP 272300Z 28004KT CAVOK 01/M01 Q1018 NOSIG=
201912272330 METAR LROP 272330Z 29003KT CAVOK 02/M01 Q1018 NOSIG=
201912280000 METAR LROP 280000Z 29003KT CAVOK 01/M00 Q1018 NOSIG=
201912280030 METAR LROP 280030Z 31004KT CAVOK 02/M00 Q1018 NOSIG=
201912280100 METAR LROP 280100Z 33005KT CAVOK 02/M01 Q1018 NOSIG=
201912280130 METAR LROP 280130Z 31004KT 270V350 CAVOK 02/M01 Q1018 NOSIG=
201912280200 METAR LROP 280200Z VRB02KT CAVOK 02/M01 Q1018 NOSIG=
201912280230 METAR LROP 280230Z 01003KT 9999 FEW030 02/00 Q1018 NOSIG=
201912280300 METAR LROP 280300Z 22003KT CAVOK 02/M00 Q1018 NOSIG=
201912280330 METAR LROP 280330Z VRB01KT CAVOK 01/M00 Q1018 NOSIG=
201912280400 METAR LROP 280400Z VRB01KT CAVOK 01/M00 Q1018 NOSIG=
201912280430 METAR LROP 280430Z 25003KT CAVOK 01/M00 Q1018 NOSIG=
201912280500 METAR LROP 280500Z 21002KT CAVOK 01/M00 Q1018 NOSIG=
201912280530 METAR LROP 280530Z 16002KT CAVOK 01/M00 Q1018 NOSIG=
201912280600 METAR LROP 280600Z 07004KT 9999 FEW015 01/00 Q1019 NOSIG=
201912280630 METAR LROP 280630Z 09007KT CAVOK 01/01 Q1019 NOSIG=
201912280700 METAR LROP 280700Z 11007KT 9999 FEW016 02/01 Q1020 NOSIG=
201912280730 METAR LROP 280730Z 11007KT 9999 FEW024 02/01 Q1020 NOSIG=
201912280800 METAR LROP 280800Z 11009KT 9999 -RASN SCT009 02/01 Q1020
                        NOSIG=
201912280830 METAR LROP 280830Z 13008KT 9999 -RA SCT008 SCT041 02/02 Q1020
                        NOSIG=
201912280900 METAR LROP 280900Z 16004KT 110V200 9999 -RA SCT009 BKN040
                        03/02 Q1021 NOSIG=
201912280930 METAR LROP 280930Z 12004KT 090V170 9999 BKN010 OVC014 03/01
                        Q1020 NOSIG=
201912281000 METAR COR LROP 281000Z 12003KT 060V230 9999 OVC011 03/01
                        Q1020 R88/19//95 NOSIG=
201912281030 METAR LROP 281030Z 15006KT 120V180 9999 OVC011 03/01 Q1020
                        R88/19//95 NOSIG=
201912281100 METAR LROP 281100Z 13005KT 100V160 9999 OVC011 03/01 Q1020
                        R88/19//95 NOSIG=
201912281130 METAR LROP 281130Z 14003KT 100V180 9999 BKN013 04/01 Q1020
                        R88/19//95 NOSIG=
201912281200 METAR LROP 281200Z 19003KT 140V220 9999 BKN016 04/01 Q1020
                        R88/19//95 NOSIG=
201912281230 METAR LROP 281230Z 01004KT 320V050 9999 BKN017 04/01 Q1020
                        R88/19//95 NOSIG=
201912281300 METAR COR LROP 281300Z 03003KT 360V080 9999 SCT016 04/01
                        Q1020 R88/CLRD// NOSIG=
201912281330 METAR LROP 281330Z 00000KT 9999 FEW019 04/01 Q1020 R88/CLRD//
                        NOSIG=
201912281400 METAR COR LROP 281400Z VRB02KT CAVOK 04/01 Q1020 NOSIG=
201912281430 METAR LROP 281430Z 29002KT CAVOK 03/01 Q1020 NOSIG=
201912281500 METAR LROP 281500Z 26003KT 240V300 CAVOK 02/01 Q1020 NOSIG=
201912281530 METAR LROP 281530Z 26004KT CAVOK 02/01 Q1020 NOSIG=
201912281600 METAR LROP 281600Z 25004KT CAVOK 02/01 Q1021 NOSIG=
201912281630 METAR LROP 281630Z 25003KT CAVOK 01/01 Q1021 NOSIG=
201912281700 METAR LROP 281700Z 29003KT CAVOK 01/01 Q1021 NOSIG=
201912281730 METAR LROP 281730Z 28004KT 250V350 CAVOK 01/01 Q1021 NOSIG=
201912281800 METAR LROP 281800Z 22002KT 7000 NSC 01/01 Q1022 NOSIG=
201912281830 METAR LROP 281830Z 27005KT 8000 NSC 01/01 Q1022 NOSIG=
201912281900 METAR LROP 281900Z 26006KT 7000 NSC 01/01 Q1022 NOSIG=
201912281930 METAR LROP 281930Z 25003KT 6000 NSC 01/01 Q1022 NOSIG=
201912282000 METAR LROP 282000Z 26004KT 6000 NSC 01/01 Q1022 NOSIG=
201912282030 METAR LROP 282030Z 27005KT 6000 NSC 01/01 Q1023 NOSIG=
201912282100 METAR LROP 282100Z 27005KT 6000 NSC 01/01 Q1023 NOSIG=
201912282130 METAR LROP 282130Z VRB02KT 7000 NSC 01/01 Q1023 NOSIG=
201912282200 METAR LROP 282200Z VRB02KT 9000 NSC 01/01 Q1023 NOSIG=
201912282230 METAR LROP 282230Z VRB02KT 6000 NSC 01/01 Q1023 NOSIG=
201912282300 METAR LROP 282300Z 08003KT 6000 NSC 01/01 Q1023 NOSIG=
201912282330 METAR LROP 282330Z 14001KT 6000 NSC 01/01 Q1023 NOSIG=
201912290000 METAR LROP 290000Z 00000KT 6000 NSC 00/00 Q1023 NOSIG=
201912290030 METAR LROP 290030Z 14001KT 5000 BR NSC 01/01 Q1023 NOSIG=
201912290100 METAR LROP 290100Z VRB01KT 7000 SCT030 01/01 Q1024 BECMG
                        5000 -SN=
201912290130 METAR LROP 290130Z 25003KT 220V320 9999 OVC043 01/01 Q1024
                        TEMPO 5000 -SN=
201912290200 METAR LROP 290200Z 24003KT 9999 FEW045 02/M00 Q1024 NOSIG=
201912290230 METAR COR LROP 290230Z 22003KT 9999 FEW044 02/M00 Q1023 NOSIG=
201912290300 METAR LROP 290300Z 23005KT CAVOK 02/M00 Q1023 NOSIG=
201912290330 METAR LROP 290330Z 23005KT CAVOK 02/M00 Q1023 NOSIG=
201912290400 METAR LROP 290400Z 24004KT CAVOK 01/M00 Q1024 NOSIG=
201912290430 METAR LROP 290430Z 22004KT CAVOK 00/M00 Q1024 NOSIG=
201912290500 METAR LROP 290500Z 26003KT CAVOK 01/M01 Q1024 NOSIG=
201912290530 METAR LROP 290530Z 25004KT CAVOK 01/M01 Q1024 NOSIG=
201912290600 METAR LROP 290600Z 28005KT 9999 SCT043 01/M00 Q1024 NOSIG=
201912290630 METAR LROP 290630Z 02003KT 300V060 CAVOK 02/M01 Q1025 NOSIG=
201912290700 METAR LROP 290700Z 05003KT 020V080 CAVOK 02/M00 Q1025 NOSIG=
201912290730 METAR LROP 290730Z 08006KT CAVOK 02/M00 Q1025 NOSIG=
201912290800 METAR LROP 290800Z 10006KT CAVOK 03/M00 Q1025 NOSIG=
201912290830 METAR LROP 290830Z 10005KT CAVOK 03/M00 Q1026 NOSIG=
201912290900 METAR LROP 290900Z 10005KT 9999 OVC045 03/M01 Q1026 NOSIG=
201912290930 METAR LROP 290930Z VRB02KT CAVOK 03/00 Q1026 NOSIG=
201912291000 METAR LROP 291000Z 05003KT 330V090 CAVOK 03/M01 Q1026 NOSIG=
201912291030 METAR LROP 291030Z 34005KT 300V020 9999 FEW023 03/M01 Q1026
                        NOSIG=
201912291100 METAR LROP 291100Z 29005KT 9999 FEW023 03/M00 Q1026 NOSIG=
201912291130 METAR LROP 291130Z 33004KT CAVOK 03/M00 Q1026 NOSIG=
201912291200 METAR LROP 291200Z 31005KT 9999 SCT026 OVC036 03/M00 Q1026
                        NOSIG=
201912291230 METAR LROP 291230Z 32004KT 260V020 9999 -SN BKN027 03/M01
                        Q1026 NOSIG=
201912291300 METAR LROP 291300Z 32006KT 9999 OVC029 03/M02 Q1026 NOSIG=
201912291330 METAR LROP 291330Z 09008KT 9999 FEW005 SCT017 OVC042 02/01
                        Q1026 NOSIG=
201912291400 METAR LROP 291400Z 10007KT 9999 FEW005 SCT016 BKN028 02/01
                        Q1027 NOSIG=
201912291430 METAR LROP 291430Z 11007KT 9999 -SN FEW005 SCT021 02/01 Q1027
                        NOSIG=
201912291500 METAR LROP 291500Z 10007KT 9999 -SN SCT006 BKN031 01/01 Q1028
                        R88/19//95 NOSIG=
201912291530 METAR LROP 291530Z 09005KT 9999 -SN FEW007 OVC044 01/01 Q1028
                        R88/19//95 NOSIG=
201912291600 METAR LROP 291600Z 10005KT 9999 -SN FEW010 01/01 Q1028 R88/19//95
                        NOSIG=
201912291630 METAR LROP 291630Z 11007KT 9999 FEW005 01/01 Q1029 R88/19//95
                        NOSIG=
201912291700 METAR LROP 291700Z AUTO 12003KT 9999 OVC060/// 01/00 Q1029
                        NOSIG=
201912291730 METAR LROP 291730Z 13002KT 9999 SCT043 00/00 Q1029 R88/19//95
                        NOSIG=
201912291800 METAR LROP 291800Z 18002KT 9999 OVC048 00/M00 Q1029 R88/19//95
                        NOSIG=
201912291830 METAR LROP 291830Z 16002KT 9999 BKN047 01/M01 Q1030 R88/19//95
                        TEMPO 5000 -SN=
201912291900 METAR LROP 291900Z 12003KT 9999 -SN OVC049 01/M00 Q1030 R88/19//95
                        TEMPO 5000 -SN=
201912291930 METAR LROP 291930Z 10004KT 9999 OVC048 01/M01 Q1030 R88/CLRD//
                        TEMPO 5000 -SN=
201912292000 METAR LROP 292000Z 07005KT 9999 -SN OVC044 00/M00 Q1031 TEMPO
                        5000 -SN=
201912292030 METAR LROP 292030Z 03005KT 9999 -SN OVC042 01/M00 Q1031 TEMPO
                        5000 -SN=
201912292100 METAR LROP 292100Z 02003KT 9000 -SN OVC041 01/M00 Q1031 TEMPO
                        5000 -SN=
201912292130 METAR LROP 292130Z 36003KT 9000 -SN OVC037 00/M00 Q1031 TEMPO
                        5000 -SN=
201912292200 METAR COR LROP 292200Z 29003KT 9999 -SN OVC035 00/M00 Q1031
                        R88/19//95 NOSIG=
201912292230 METAR LROP 292230Z 29002KT 9999 OVC036 00/M00 Q1031 R88/CLRD//
                        NOSIG=
201912292300 METAR LROP 292300Z VRB01KT 9999 OVC037 00/M00 Q1032 NOSIG=
201912292330 METAR COR LROP 292330Z 31003KT 9999 -SN BKN038 M00/M01 Q1032
                        NOSIG=
201912300000 METAR LROP 300000Z 32002KT 9999 FEW048 M01/M01 Q1032 NOSIG=
201912300030 METAR LROP 300030Z 02003KT 9999 FEW041 M00/M00 Q1033 NOSIG=
201912300100 METAR COR LROP 300100Z 02005KT 9999 FEW041 00/M02 Q1033 NOSIG=
201912300130 METAR COR LROP 300130Z 04005KT 9999 FEW038 M01/M02 Q1032
                        NOSIG=
201912300200 METAR COR LROP 300200Z 04006KT 9999 SCT036 M01/M03 Q1032
                        NOSIG=
201912300230 METAR COR LROP 300230Z 01008KT 9999 FEW036 M00/M02 Q1032
                        NOSIG=
201912300300 METAR COR LROP 300300Z 03006KT CAVOK M01/M02 Q1032 NOSIG=
201912300330 METAR LROP 300330Z 01004KT CAVOK M01/M03 Q1032 NOSIG=
201912300400 METAR LROP 300400Z 35004KT CAVOK M01/M03 Q1033 NOSIG=
201912300430 METAR LROP 300430Z 29003KT 220V350 CAVOK M02/M03 Q1033 NOSIG=
201912300500 METAR LROP 300500Z 31003KT 280V020 CAVOK M02/M03 Q1033 NOSIG=
201912300530 METAR LROP 300530Z 00000KT CAVOK M03/M03 Q1034 NOSIG=
201912300600 METAR LROP 300600Z VRB01KT CAVOK M03/M03 Q1034 NOSIG=
201912300630 METAR LROP 300630Z 20002KT CAVOK M03/M03 Q1034 NOSIG=
201912300700 METAR LROP 300700Z 25003KT CAVOK M02/M02 Q1034 NOSIG=
201912300730 METAR LROP 300730Z 25003KT CAVOK M01/M01 Q1035 NOSIG=
201912300800 METAR LROP 300800Z 26005KT 9999 SCT046 M00/M01 Q1035 NOSIG=
201912300830 METAR LROP 300830Z 26005KT 9999 SCT045 00/M01 Q1035 NOSIG=
201912300900 METAR LROP 300900Z 23004KT 200V270 CAVOK 02/M01 Q1035 NOSIG=
201912300930 METAR LROP 300930Z VRB01KT CAVOK 02/M01 Q1035 NOSIG=
201912301000 METAR LROP 301000Z VRB02KT CAVOK 03/M01 Q1035 NOSIG=
201912301030 METAR LROP 301030Z VRB03KT CAVOK 03/M01 Q1034 NOSIG=
201912301100 METAR LROP 301100Z VRB03KT CAVOK 04/M01 Q1033 NOSIG=
201912301130 METAR LROP 301130Z VRB01KT 9999 FEW001 04/M02 Q1033 NOSIG=
201912301200 METAR LROP 301200Z 27003KT 200V310 9999 FEW001 04/M02 Q1033
                        NOSIG=
201912301230 METAR LROP 301230Z VRB02KT 9999 FEW020 04/M02 Q1033 NOSIG=
201912301300 METAR LROP 301300Z VRB01KT 9999 FEW023 04/M02 Q1033 NOSIG=
201912301330 METAR LROP 301330Z 19003KT 130V270 9999 FEW026 04/M02 Q1033
                        NOSIG=
201912301400 METAR LROP 301400Z 15005KT 9999 FEW022 03/M02 Q1033 NOSIG=
201912301430 METAR LROP 301430Z 15005KT CAVOK 02/M03 Q1033 NOSIG=
201912301500 METAR LROP 301500Z 13007KT CAVOK 01/M01 Q1033 NOSIG=
201912301530 METAR LROP 301530Z 12006KT 9999 FEW017 00/M01 Q1033 NOSIG=
201912301600 METAR LROP 301600Z 12006KT 9999 BKN015 01/M01 Q1033 NOSIG=
201912301630 METAR LROP 301630Z 12005KT 9999 BKN015 01/M01 Q1033 NOSIG=
201912301700 METAR LROP 301700Z 12005KT 9999 OVC015 01/M01 Q1033 NOSIG=
201912301730 METAR LROP 301730Z 13004KT 9999 OVC014 01/M01 Q1033 NOSIG=
201912301800 METAR LROP 301800Z 12004KT 9999 OVC013 00/M01 Q1033 NOSIG=
201912301830 METAR LROP 301830Z 12003KT 9999 OVC013 M00/M01 Q1033 NOSIG=
201912301900 METAR LROP 301900Z VRB02KT 9999 OVC012 00/M01 Q1032 NOSIG=
201912301930 METAR LROP 301930Z 12003KT 9999 OVC011 00/M01 Q1032 NOSIG=
201912302000 METAR LROP 302000Z 19003KT 150V240 9999 OVC010 00/M01 Q1032
                        NOSIG=
201912302030 METAR LROP 302030Z 24004KT 9999 OVC009 00/M01 Q1032 NOSIG=
201912302100 METAR LROP 302100Z VRB02KT 8000 OVC007 M00/M01 Q1032 NOSIG=
201912302130 METAR LROP 302130Z VRB02KT 7000 OVC007 M00/M01 Q1031 NOSIG=
201912302200 METAR LROP 302200Z VRB01KT 6000 OVC007 M01/M01 Q1031 NOSIG=
201912302230 METAR LROP 302230Z 25004KT 5000 BR OVC005 M01/M01 Q1031 NOSIG=
201912302300 METAR LROP 302300Z 28005KT 4000 BR OVC004 M01/M01 Q1030 NOSIG=
201912302330 METAR LROP 302330Z 27008KT 1500 BR OVC002 M02/M02 Q1030 NOSIG=
201912310000 METAR LROP 310000Z 27008KT 3000 BR OVC001 M02/M02 Q1030 NOSIG=
201912310030 METAR LROP 310030Z 25005KT 4000 BR SCT002 M02/M02 Q1030 NOSIG=
201912310100 METAR LROP 310100Z 27005KT 4000 BR NSC M02/M02 Q1030 NOSIG=
201912310130 METAR LROP 310130Z 26006KT 0800 R08R/1900N R26L/2000 R08L/P2000
                        R26R/P2000 FZFG FEW002 M03/M03 Q1029
                        TEMPO 0600 FZFG VV001=
201912310200 METAR COR LROP 310200Z 25008KT 0300 R08R/0800N R26L/0800N
                        R08L/0800D R26R/1100U FZFG OVC001
                        M03/M03 Q1029 NOSIG=
201912310230 METAR LROP 310230Z 26009KT 0600 R08R/1100U R26L/1100U R08L/1300D
                        R26R/0800N FZFG VV001 M03/M03 Q1029
                        NOSIG=
201912310300 METAR LROP 310300Z 25008KT 2000 BR OVC001 M03/M03 Q1029 NOSIG=
201912310330 METAR LROP 310330Z 26010KT 4000 BR OVC002 M03/M03 Q1028 NOSIG=
201912310400 METAR LROP 310400Z 28010KT 4000 BR OVC003 M03/M03 Q1028 BECMG
                        CAVOK=
201912310430 METAR LROP 310430Z 28006KT 4000 BR FEW003 M04/M04 Q1028 BECMG
                        9999 NSW=
201912310500 METAR LROP 310500Z 27006KT 5000 BR NSC M04/M04 Q1027 BECMG
                        9999 NSW=
201912310530 METAR LROP 310530Z 26006KT 6000 NSC M04/M04 Q1027 NOSIG=
201912310600 METAR LROP 310600Z 25008KT 7000 NSC M05/M05 Q1027 NOSIG=
201912310630 METAR LROP 310630Z 25009KT 7000 NSC M04/M04 Q1027 NOSIG=
201912310700 METAR LROP 310700Z 26010KT 6000 NSC M04/M04 Q1027 NOSIG=
201912310730 METAR LROP 310730Z 26010KT 6000 NSC M03/M04 Q1027 NOSIG=
201912310800 METAR LROP 310800Z 25010KT 7000 NSC M02/M03 Q1026 NOSIG=
201912310830 METAR LROP 310830Z 26012KT CAVOK M01/M03 Q1026 NOSIG=
201912310900 METAR LROP 310900Z 26012KT CAVOK 00/M03 Q1026 NOSIG=
201912310930 METAR LROP 310930Z 26012KT CAVOK 01/M02 Q1025 NOSIG=
201912311000 METAR LROP 311000Z 26013KT CAVOK 02/M02 Q1024 NOSIG=
201912311030 METAR LROP 311030Z 26012KT CAVOK 03/M01 Q1024 NOSIG=
201912311100 METAR LROP 311100Z 25012KT CAVOK 03/M01 Q1023 NOSIG=
201912311130 METAR LROP 311130Z 26014KT CAVOK 04/M01 Q1023 NOSIG=
201912311200 METAR LROP 311200Z 26013KT CAVOK 04/M01 Q1022 NOSIG=
201912311230 METAR LROP 311230Z 26013KT CAVOK 03/M01 Q1022 NOSIG=
201912311300 METAR LROP 311300Z 25011KT CAVOK 04/M01 Q1022 NOSIG=
201912311330 METAR LROP 311330Z 25010KT CAVOK 04/M01 Q1021 NOSIG=
201912311400 METAR LROP 311400Z 26012KT CAVOK 04/M01 Q1021 NOSIG=
201912311430 METAR LROP 311430Z 26011KT CAVOK 03/M01 Q1021 NOSIG=
201912311500 METAR LROP 311500Z 26012KT CAVOK 03/M01 Q1021 NOSIG=
201912311530 METAR LROP 311530Z 26012KT CAVOK 02/M01 Q1021 NOSIG=
201912311600 METAR LROP 311600Z 26016KT CAVOK 02/M02 Q1020 NOSIG=
201912311630 METAR LROP 311630Z 27012KT 9999 -RASN NSC 02/M01 Q1020 NOSIG=
201912311700 METAR LROP 311700Z 25013KT 9999 -RASN NSC 02/M01 Q1020 NOSIG=
201912311730 METAR LROP 311730Z 30008KT CAVOK 02/M00 Q1020 R26L/29//95
                        R26R/19//95 NOSIG=
201912311800 METAR LROP 311800Z 27010KT CAVOK 02/M01 Q1020 R26L/29//95
                        R26R/19//95 NOSIG=
201912311830 METAR LROP 311830Z 27009KT CAVOK 02/M01 Q1020 R26L/29//95
                        R26R/19//95 NOSIG=
201912311900 METAR LROP 311900Z 25006KT CAVOK 01/M01 Q1020 R26L/29//95
                        R26R/19//95 NOSIG=
201912311930 METAR LROP 311930Z 26004KT CAVOK 01/M01 Q1020 R26L/29//95
                        R26R/19//95 NOSIG=
201912312000 METAR LROP 312000Z 25005KT CAVOK 01/M01 Q1020 R26L/29//95
                        R26R/19//95 NOSIG=
201912312030 METAR LROP 312030Z 25005KT CAVOK 00/M01 Q1020 R26L/29//95
                        R26R/19//95 NOSIG=
201912312100 METAR COR LROP 312100Z 25005KT CAVOK 01/M01 Q1020 R26L/19//95
                        R26R/29//95 NOSIG=
201912312130 METAR LROP 312130Z 28002KT CAVOK 01/M01 Q1020 R26L/19//95
                        R26R/29//95 NOSIG=
201912312200 METAR LROP 312200Z VRB01KT CAVOK 01/M01 Q1020 R26L/19//95
                        R26R/29//95 NOSIG=
201912312230 METAR LROP 312230Z 00000KT CAVOK M01/M02 Q1021 R26L/19//95
                        R26R/29//95 NOSIG=
201912312300 METAR LROP 312300Z 00000KT CAVOK M01/M02 Q1021 R26L/19//95
                        R26R/29//95 NOSIG=
201912312330 METAR LROP 312330Z 00000KT 7000 NSC M02/M02 Q1021 R08R/19//95
                        R08L/29//95 NOSIG=