201901010000 METAR LRIA 010000Z 24003KT 2000 FEW002 BKN018 01/M00 Q1027
                        R14/29//95=
201901010030 METAR LRIA 010030Z 26003KT 3000 BR BKN017 SCT023 01/M00 Q1027
                        R14/29//95=
201901010100 METAR LRIA 010100Z 27003KT 5000 BR OVC020 02/M00 Q1027 R14/29//95=
201901010130 METAR LRIA 010130Z 27004KT 6000 BKN015 SCT022 02/M00 Q1027
                        R14/29//95=
201901010200 METAR COR LRIA 010200Z 26003KT 6000 OVC014 02/M00 Q1027 R14/29//95=
201901010230 METAR LRIA 010230Z 27002KT 240V320 9999 OVC014 02/M01 Q1027
                        R14/29//95=
201901010300 METAR LRIA 010300Z 25003KT 9999 BKN015 02/M01 Q1026 R14/29//95=
201901010330 METAR LRIA 010330Z 24003KT 8000 OVC016 02/M01 Q1026 R14/29//95=
201901010400 METAR LRIA 010400Z 00000KT 7000 SCT015 BKN019 01/M00 Q1026
                        R14/29//95=
201901010430 METAR LRIA 010430Z 24003KT 8000 SCT015 BKN072 01/M01 Q1026
                        R14/29//95=
201901010500 METAR LRIA 010500Z 00000KT 9999 SCT015 01/M01 Q1026 R14/29//95=
201901010530 METAR COR LRIA 010530Z 00000KT 9000 OVC040 01/M01 Q1026 R14/29//95=
201901010600 METAR LRIA 010600Z 23001KT 9999 SCT014 01/M01 Q1026 R14/29//95=
201901010630 METAR LRIA 010630Z 00000KT 9999 FEW015 01/M01 Q1026 R14/29//95=
201901010700 METAR LRIA 010700Z 22002KT 8000 FEW015 01/M01 Q1026 R14/29//95=
201901010730 METAR LRIA 010730Z 21001KT CAVOK 02/M01 Q1026 R14/29//95=
201901010800 METAR LRIA 010800Z 23001KT CAVOK 02/M00 Q1025 R14/29//95=
201901010830 METAR LRIA 010830Z 23004KT CAVOK 02/M00 Q1025 R14/29//95=
201901010900 METAR LRIA 010900Z 21004KT CAVOK 03/M00 Q1025 R14/29//95=
201901010930 METAR LRIA 010930Z 20005KT 170V240 CAVOK 03/M00 Q1024 R14/29//95=
201901011000 METAR LRIA 011000Z 19005KT 150V230 CAVOK 04/M01 Q1024 R14/29//95=
201901011030 METAR LRIA 011030Z 22005KT 150V260 9999 FEW018 05/M00 Q1023
                        R14/29//95=
201901011100 METAR LRIA 011100Z 19005KT 150V230 9999 FEW019 05/M01 Q1022
                        R14/19//95=
201901011130 METAR LRIA 011130Z 19007KT 170V240 9999 FEW020 05/M01 Q1021
                        R14/19//95=
201901011200 METAR LRIA 011200Z 18006KT 160V220 9999 FEW022 05/M01 Q1021
                        R14/19//95=
201901011230 METAR LRIA 011230Z 18006KT 150V210 9999 FEW022 06/M01 Q1020
                        R14/19//95=
201901011300 METAR LRIA 011300Z 17009KT 9999 FEW030 06/M02 Q1020 R14/19//95=
201901011330 METAR LRIA 011330Z 18008KT 160V220 CAVOK 05/M02 Q1019 R14/19//95=
201901011400 METAR LRIA 011400Z 19007KT CAVOK 05/M03 Q1019 R14/19//95=
201901011430 METAR LRIA 011430Z 18006KT CAVOK 04/M02 Q1018 R14/19//95=
201901011500 METAR LRIA 011500Z 18006KT CAVOK 04/M02 Q1018 R14/19//95=
201901011530 METAR LRIA 011530Z 18007KT CAVOK 03/M02 Q1017 R14/19//95=
201901011600 METAR LRIA 011600Z 18009KT CAVOK 03/M02 Q1017 R14/19//95=
201901011630 METAR LRIA 011630Z 19008KT CAVOK 03/M02 Q1016 R14/19//95=
201901011700 METAR LRIA 011700Z 20009KT CAVOK 03/M02 Q1016 R14/19//95=
201901011730 METAR LRIA 011730Z 21008KT CAVOK 02/M02 Q1016 R14/19//95=
201901011800 METAR LRIA 011800Z 21008KT 180V240 CAVOK 02/M02 Q1016 R14/19//95=
201901011830 METAR LRIA 011830Z 22007KT CAVOK 02/M03 Q1015 R14/19//95=
201901011900 METAR LRIA 011900Z 22006KT CAVOK 02/M03 Q1015 R14/19//95=
201901011930 METAR LRIA 011930Z 21005KT CAVOK 01/M03 Q1014 R14/19//95=
201901012000 METAR LRIA 012000Z 21005KT CAVOK 01/M03 Q1014 R14/19//95=
201901012030 METAR LRIA 012030Z 20006KT CAVOK 01/M03 Q1014 R14/19//95=
201901012100 METAR LRIA 012100Z 18004KT 150V210 CAVOK 01/M03 Q1013 R14/19//95=
201901012130 METAR LRIA 012130Z 16004KT CAVOK 00/M04 Q1013 R14/19//95=
201901012200 METAR LRIA 012200Z 13006KT CAVOK M01/M04 Q1012 R14/19//95=
201901012230 METAR LRIA 012230Z 12004KT CAVOK M01/M03 Q1012 R14/19//95=
201901012300 METAR LRIA 012300Z 11005KT CAVOK M01/M03 Q1011 R14/19//95=
201901012330 METAR LRIA 012330Z 11005KT CAVOK M02/M04 Q1011 R14/19//95=
201901020000 METAR LRIA 020000Z 11006KT CAVOK M01/M03 Q1011 R14/19//95=
201901020030 METAR LRIA 020030Z 10006KT CAVOK M02/M04 Q1011 R14/19//95=
201901020100 METAR LRIA 020100Z 10006KT CAVOK M02/M04 Q1010 R14/19//95=
201901020130 METAR LRIA 020130Z 11007KT CAVOK M02/M04 Q1010 R14/19//95=
201901020200 METAR LRIA 020200Z 10007KT 8000 NSC M02/M04 Q1009 R14/19//95=
201901020230 METAR LRIA 020230Z 11007KT 9999 SCT038 M02/M04 Q1009 R14/19//95=
201901020300 METAR LRIA 020300Z 09004KT 9000 FEW022 SCT036 M02/M03 Q1009
                        R14/19//95=
201901020330 METAR LRIA 020330Z 09007KT 7000 SCT017 BKN022 M02/M03 Q1009
                        R14/19//95=
201901020400 METAR LRIA 020400Z 10007KT 7000 -SN FEW017 BKN032 M01/M03
                        Q1008 R14/19//95=
201901020430 METAR LRIA 020430Z 10007KT 9000 FEW020 BKN039 M01/M03 Q1008
                        RESN R14/19//95=
201901020500 METAR LRIA 020500Z 10008KT 6000 OVC039 M01/M03 Q1008 R14/19//95=
201901020530 METAR LRIA 020530Z 11008KT 5000 -SN BR SCT031 BKN041 M01/M03
                        Q1008 R14/19//95=
201901020600 METAR LRIA 020600Z 11008KT 6000 SCT045 M01/M03 Q1008 R14/19//95=
201901020630 METAR LRIA 020630Z 10008KT 7000 SCT035 M01/M03 Q1008 R14/19//95=
201901020700 METAR LRIA 020700Z 10006KT 6000 -SN BKN035 M01/M03 Q1008
                        R14/19//95=
201901020730 METAR LRIA 020730Z 10007KT 5000 -SN BR BKN035 M01/M03 Q1008
                        R14/19//95=
201901020800 METAR LRIA 020800Z 11010KT 5000 BR BKN033 M01/M02 Q1007 R14/19//95=
201901020830 METAR LRIA 020830Z 10009KT 5000 BR FEW003 BKN040 M01/M02
                        Q1007 R14/19//95=
201901020900 METAR LRIA 020900Z 10009KT 5000 -SN BR OVC040 M01/M02 Q1007
                        R14/19//95=
201901020930 METAR LRIA 020930Z 09006KT 5000 -SN BR OVC035 M00/M02 Q1007
                        R14/19//95=
201901021000 METAR COR LRIA 021000Z 10007KT 2500 SN BR SCT013 BKN035 M00/M02
                        Q1007 R14/19//95=
201901021030 METAR LRIA 021030Z 09007KT 5000 BR SCT040 00/M02 Q1006 RESN
                        R14/19//95=
201901021100 METAR LRIA 021100Z 10007KT 5000 BR FEW004 00/M02 Q1006 R14/19//95=
201901021130 METAR LRIA 021130Z 10007KT 5000 BR NSC 00/M02 Q1006 R14/19//95=
201901021200 METAR LRIA 021200Z 11007KT 3000 -SN BR FEW045 00/M02 Q1006
                        R14/19//95=
201901021230 METAR LRIA 021230Z 09007KT 4000 BR NSC 00/M02 Q1006 R14/19//95=
201901021300 METAR LRIA 021300Z 10006KT 4000 BR NSC 00/M02 Q1007 R14/19//95=
201901021330 METAR LRIA 021330Z 08005KT 6000 NSC 00/M02 Q1007 R14/19//95=
201901021400 METAR LRIA 021400Z 03002KT 6000 NSC 00/M02 Q1007 R14/19//95=
201901021430 METAR LRIA 021430Z 00000KT 5000 -SN BR SCT015 00/M02 Q1007
                        R14/19//95=
201901021500 METAR LRIA 021500Z 14001KT 3000 -SN BR SCT010 SCT025 00/M02
                        Q1008 R14/19//95=
201901021530 METAR LRIA 021530Z 11003KT 4000 -SN BR SCT025 M00/M02 Q1008
                        RESN R14/19//95=
201901021600 METAR LRIA 021600Z 14004KT 1500 BR FEW003 M01/M02 Q1008 R14/19//95=
201901021630 METAR LRIA 021630Z 07004KT 2000 BR NSC M01/M03 Q1008 R14/19//95=
201901021700 METAR LRIA 021700Z VRB01KT 0800 R14/1500D R32/1800N FZFG
                        FEW002 M01/M02 Q1008 R14/19//95=
201901021730 METAR LRIA 021730Z 00000KT 0550 R14/0800N R32/0750N FZFG
                        NSC M01/M02 Q1008 R14/19//95=
201901021800 METAR LRIA 021800Z 00000KT 0150 R14/0650N R32/0275N FZFG
                        NSC M01/M02 Q1008 R14/19//95=
201901021830 METAR LRIA 021830Z 00000KT 1500 BR NSC M00/M02 Q1008 R14/19//95=
201901021900 METAR LRIA 021900Z 00000KT 2000 BR NSC M00/M02 Q1009 R14/19//95=
201901021930 METAR LRIA 021930Z 28002KT 1500 BR NSC M00/M02 Q1009 R14/19//95=
201901022000 METAR COR LRIA 022000Z 27003KT 230V330 2000 -SN BR SCT012
                        BKN024 OVC040 M00/M02 Q1009 R14/19//95=
201901022030 METAR LRIA 022030Z 00000KT 3000 -SN BR BKN024 OVC035 00/M01
                        Q1009 R14/590295=
201901022100 METAR LRIA 022100Z 24003KT 220V280 3000 -SN BR FEW010 BKN019
                        OVC030 00/M01 Q1009 R14/590295=
201901022130 METAR LRIA 022130Z 26005KT 230V290 3000 -SN BR SCT006 BKN011
                        BKN018 01/M01 Q1010 R14/590294=
201901022200 METAR LRIA 022200Z 31011KT 9999 -SN FEW007 SCT011 OVC030
                        01/M01 Q1010 R14/590294=
201901022230 METAR LRIA 022230Z 31010KT 9999 SCT030 SCT048 01/M02 Q1010
                        R14/590294=
201901022300 METAR LRIA 022300Z 32008KT CAVOK 01/M02 Q1010 R14/29//95=
201901022330 METAR LRIA 022330Z 32006KT CAVOK 00/M03 Q1011 R14/29//95=
201901030000 METAR LRIA 030000Z 32004KT CAVOK M00/M03 Q1011 R14/29//95=
201901030030 METAR LRIA 030030Z 34002KT CAVOK M00/M03 Q1011 R14/29//95=
201901030100 METAR LRIA 030100Z 26001KT CAVOK M01/M03 Q1011 R14/29//95=
201901030130 METAR LRIA 030130Z VRB01KT 9999 FEW025 M01/M04 Q1011 R14/29//95=
201901030200 METAR COR LRIA 030200Z VRB01KT 9999 FEW023 SCT031 M01/M03
                        Q1011 R14/29//95=
201901030230 METAR LRIA 030230Z 00000KT 9999 FEW022 SCT028 M00/M03 Q1011
                        R14/29//95=
201901030300 METAR LRIA 030300Z 00000KT 9999 SCT036 M00/M03 Q1012 R14/29//95=
201901030330 METAR LRIA 030330Z VRB01KT CAVOK M00/M04 Q1012 R14/29//95=
201901030400 METAR LRIA 030400Z 28003KT 230V320 9999 -SN NSC M00/M03 Q1012
                        R14/29//95=
201901030430 METAR LRIA 030430Z 28007KT 9999 -SN FEW017 SCT035 00/M03
                        Q1012 R14/29//95=
201901030500 METAR LRIA 030500Z 28006KT 9999 -SN SCT040 00/M04 Q1012 R14/29//95=
201901030530 METAR LRIA 030530Z 29007KT CAVOK 00/M04 Q1013 R14/29//95=
201901030600 METAR LRIA 030600Z 29007KT 9999 -SN NSC 00/M04 Q1013 R14/29//95=
201901030630 METAR LRIA 030630Z 30009KT CAVOK 00/M04 Q1013 R14/29//95=
201901030700 METAR LRIA 030700Z 29007KT CAVOK 00/M05 Q1014 R14/29//95=
201901030730 METAR LRIA 030730Z 29006KT CAVOK 00/M05 Q1014 R14/29//95=
201901030800 METAR LRIA 030800Z 29008KT CAVOK 01/M05 Q1014 R14/29//95=
201901030830 METAR LRIA 030830Z 29009KT 250V320 CAVOK 01/M05 Q1014 R14/29//95=
201901030900 METAR LRIA 030900Z 30009KT CAVOK 01/M05 Q1015 R14/29//95=
201901030930 METAR LRIA 030930Z 31011KT CAVOK 01/M05 Q1015 R14/29//95=
201901031000 METAR LRIA 031000Z 30008KT 9999 FEW025 01/M05 Q1015 R14/29//95=
201901031030 METAR LRIA 031030Z 30009KT 270V330 9999 FEW025 01/M05 Q1015
                        R14/29//95=
201901031100 METAR LRIA 031100Z 31010KT 9999 SCT026 BKN033 01/M05 Q1015
                        R14/29//95=
201901031130 METAR LRIA 031130Z 32009KT 9999 SCT026 BKN034 01/M05 Q1015
                        R14/29//95=
201901031200 METAR LRIA 031200Z 32009KT 9999 SCT027 01/M05 Q1015 R14/29//95=
201901031230 METAR LRIA 031230Z 33010KT 9999 SCT026 01/M06 Q1015 R14/29//95=
201901031300 METAR LRIA 031300Z 33011KT 9999 SCT028 01/M05 Q1016 R14/29//95=
201901031330 METAR LRIA 031330Z 34010KT 9999 FEW028 00/M05 Q1016 R14/29//95=
201901031400 METAR LRIA 031400Z 34008KT 9999 FEW030 00/M06 Q1016 R14/29//95=
201901031430 METAR LRIA 031430Z 33006KT 9999 FEW030 M01/M06 Q1017 R14/29//95=
201901031500 METAR LRIA 031500Z 32007KT 9999 FEW030 M01/M07 Q1017 R14/29//95=
201901031530 METAR LRIA 031530Z 32006KT 9999 FEW030 M02/M07 Q1017 R14/29//95=
201901031600 METAR COR LRIA 031600Z 30004KT 9999 FEW028 M02/M06 Q1018
                        R14/19//95=
201901031630 METAR LRIA 031630Z 31004KT 9999 FEW039 M02/M06 Q1018 R14/19//95=
201901031700 METAR LRIA 031700Z 32005KT 9999 SCT031 M02/M06 Q1018 R14/19//95=
201901031730 METAR LRIA 031730Z 32007KT 9999 FEW030 M02/M07 Q1018 R14/19//95=
201901031800 METAR LRIA 031800Z 30006KT CAVOK M02/M06 Q1019 R14/19//95=
201901031830 METAR LRIA 031830Z 31005KT CAVOK M02/M06 Q1019 R14/19//95=
201901031900 METAR LRIA 031900Z 31006KT CAVOK M03/M07 Q1019 R14/19//95=
201901031930 METAR LRIA 031930Z 32006KT CAVOK M03/M07 Q1019 R14/19//95=
201901032000 METAR LRIA 032000Z 32007KT CAVOK M04/M07 Q1019 R14/19//95=
201901032030 METAR LRIA 032030Z 32006KT CAVOK M04/M07 Q1020 R14/19//95=
201901032100 METAR LRIA 032100Z 31006KT CAVOK M04/M08 Q1020 R14/19//95=
201901032130 METAR LRIA 032130Z 32007KT CAVOK M04/M08 Q1019 R14/19//95=
201901032200 METAR LRIA 032200Z 31006KT CAVOK M05/M08 Q1019 R14/19//95=
201901032230 METAR LRIA 032230Z 32006KT CAVOK M05/M08 Q1019 R14/19//95=
201901032300 METAR LRIA 032300Z 31005KT CAVOK M05/M08 Q1019 R14/19//95=
201901032330 METAR LRIA 032330Z 31007KT CAVOK M05/M09 Q1019 R14/19//95=
201901040000 METAR LRIA 040000Z 32007KT 9999 SCT035 M05/M09 Q1019 R14/19//95=
201901040030 METAR LRIA 040030Z 29004KT 260V320 9999 SCT035 M05/M09 Q1020
                        R14/19//95=
201901040100 METAR LRIA 040100Z 28004KT 250V310 9999 FEW035 M05/M09 Q1020
                        R14/19//95=
201901040130 METAR LRIA 040130Z 32003KT CAVOK M05/M09 Q1020 R14/19//95=
201901040200 METAR LRIA 040200Z 33003KT 300V010 CAVOK M06/M09 Q1020 R14/19//95=
201901040230 METAR LRIA 040230Z 34004KT CAVOK M06/M09 Q1020 R14/19//95=
201901040300 METAR LRIA 040300Z 33006KT CAVOK M06/M10 Q1020 R14/19//95=
201901040330 METAR LRIA 040330Z 31008KT CAVOK M06/M10 Q1020 R14/19//95=
201901040400 METAR LRIA 040400Z 32007KT CAVOK M06/M10 Q1020 R14/19//95=
201901040430 METAR LRIA 040430Z 31008KT 9999 SCT040 M05/M09 Q1020 R14/19//95=
201901040500 METAR LRIA 040500Z 33006KT 9999 -SN BKN040 M05/M09 Q1020
                        R14/19//95=
201901040530 METAR LRIA 040530Z 32007KT 9999 -SN OVC040 M05/M08 Q1020
                        R14/19//95=
201901040600 METAR LRIA 040600Z 32008KT 9999 -SN OVC045 M04/M08 Q1020
                        R14/19//95=
201901040630 METAR LRIA 040630Z 32008KT 9999 -SN OVC045 M04/M08 Q1020
                        R14/19//95=
201901040700 METAR LRIA 040700Z 32008KT 9999 -SN OVC040 M04/M07 Q1020
                        R14/19//95=
201901040730 METAR LRIA 040730Z 32009KT 9999 -SN BKN013 OVC038 M03/M07
                        Q1021 R14/19//95=
201901040800 METAR LRIA 040800Z 32010KT 9999 -SN BKN013 OVC038 M03/M07
                        Q1021 R14/19//95=
201901040830 METAR LRIA 040830Z 32010KT 9999 -SN FEW011 BKN013 OVC030
                        M03/M07 Q1021 R14/19//95=
201901040900 METAR LRIA 040900Z 32009KT 9999 -SN FEW011 BKN013 OVC030
                        M03/M06 Q1021 R14/19//95=
201901040930 METAR LRIA 040930Z 31010KT 9999 -SN SCT011 BKN014 OVC033
                        M03/M06 Q1021 R14/19//95=
201901041000 METAR COR LRIA 041000Z 31010KT 7000 -SN SCT011 BKN015 OVC040
                        M03/M06 Q1021 R14/49//95=
201901041030 METAR LRIA 041030Z 31010KT 7000 -SN SCT011 BKN016 OVC040
                        M02/M06 Q1021 R14/49//95=
201901041100 METAR LRIA 041100Z 31012KT 9000 -SN SCT013 BKN017 BKN028
                        M02/M06 Q1021 R14/49//95=
201901041130 METAR LRIA 041130Z 31010KT 9000 -SN SCT013 BKN017 BKN028
                        M02/M06 Q1021 R14/49//95=
201901041200 METAR LRIA 041200Z 30009KT 9999 -SN SCT013 BKN017 BKN028
                        M02/M06 Q1021 R14/49//95=
201901041230 METAR LRIA 041230Z 30011KT 9999 -SN SCT014 BKN018 OVC025
                        M02/M06 Q1021 R14/49//95=
201901041300 METAR LRIA 041300Z 30011KT 9999 -SN SCT012 BKN016 BKN023
                        M02/M06 Q1021 R14/49//95=
201901041330 METAR LRIA 041330Z 31011KT 9999 -SN SCT015 BKN019 OVC023
                        M02/M06 Q1022 R14/49//95=
201901041400 METAR LRIA 041400Z 31012KT 9999 -SN BKN019 OVC026 M02/M06
                        Q1022 R14/49//95=
201901041430 METAR LRIA 041430Z 31012KT 9999 -SN BKN024 BKN040 M02/M06
                        Q1022 R14/49//95=
201901041500 METAR LRIA 041500Z 31012KT 9999 -SN BKN024 BKN045 M02/M06
                        Q1022 R14/49//95=
201901041530 METAR LRIA 041530Z 31012KT 9999 -SN SCT026 BKN048 M02/M07
                        Q1022 R14/49//95=
201901041600 METAR LRIA 041600Z 31011KT 9999 -SN SCT027 BKN046 M02/M07
                        Q1023 R14/49//95=
201901041630 METAR LRIA 041630Z 31010KT 9999 -SN SCT026 BKN048 M02/M07
                        Q1023 R14/49//95=
201901041700 METAR LRIA 041700Z 30011KT 9999 -SN NSC M02/M07 Q1023 R14/49//95=
201901041730 METAR LRIA 041730Z 30009KT 9999 -SN SCT025 M02/M07 Q1023
                        R14/49//95=
201901041800 METAR LRIA 041800Z 30009KT 9999 -SN FEW023 M03/M07 Q1023
                        R14/49//95=
201901041830 METAR LRIA 041830Z 29008KT 9999 -SN FEW023 M03/M07 Q1023
                        R14/49//95=
201901041900 METAR LRIA 041900Z 30008KT 9999 -SN SCT025 M02/M06 Q1023
                        R14/49//95=
201901041930 METAR LRIA 041930Z 30008KT 9999 -SN BKN025 M02/M06 Q1023
                        R14/49//95=
201901042000 METAR LRIA 042000Z 29006KT 250V310 9999 -SN BKN027 M03/M06
                        Q1023 R14/49//95=
201901042030 METAR LRIA 042030Z 27003KT 220V310 9999 -SN OVC027 M03/M06
                        Q1023 R14/49//95=
201901042100 METAR LRIA 042100Z 30003KT 9999 -SN FEW018 BKN026 M03/M07
                        Q1023 R14/49//95=
201901042130 METAR LRIA 042130Z 30003KT 9999 -SN FEW018 BKN026 M04/M07
                        Q1022 R14/49//95=
201901042200 METAR LRIA 042200Z 30006KT 9999 FEW018 SCT026 M04/M08 Q1022
                        R14/49//95=
201901042230 METAR LRIA 042230Z 26003KT 9999 SCT026 M05/M08 Q1022 R14/49//95=
201901042300 METAR LRIA 042300Z 25003KT 230V290 CAVOK M05/M08 Q1022 R14/49//95=
201901042330 METAR LRIA 042330Z 27003KT 190V340 CAVOK M05/M08 Q1022 R14/49//95=
201901050000 METAR LRIA 050000Z 30004KT CAVOK M05/M08 Q1022 R14/49//95=
201901050030 METAR LRIA 050030Z 22002KT 150V290 CAVOK M06/M09 Q1022 R14/49//95=
201901050100 METAR LRIA 050100Z 19003KT CAVOK M06/M08 Q1021 R14/49//95=
201901050130 METAR LRIA 050130Z 23002KT 9999 FEW041 M06/M09 Q1021 R14/49//95=
201901050200 METAR LRIA 050200Z 19002KT 9999 BKN035 M06/M08 Q1020 R14/49//95=
201901050230 METAR LRIA 050230Z 22003KT 9999 OVC023 M06/M08 Q1020 R14/49//95=
201901050300 METAR LRIA 050300Z 18004KT 9999 SCT020 M06/M09 Q1020 R14/49//95=
201901050330 METAR LRIA 050330Z 19004KT 9999 FEW020 BKN034 M07/M09 Q1019
                        R14/49//95=
201901050400 METAR LRIA 050400Z 21003KT 9999 SCT034 M07/M09 Q1019 R14/49//95=
201901050430 METAR LRIA 050430Z 22003KT 9999 FEW026 M07/M09 Q1019 R14/49//95=
201901050500 METAR LRIA 050500Z 22003KT CAVOK M07/M10 Q1018 R14/49//95=
201901050530 METAR LRIA 050530Z 21003KT CAVOK M07/M10 Q1018 R14/49//95=
201901050600 METAR LRIA 050600Z 21003KT CAVOK M07/M11 Q1018 R14/49//95=
201901050630 METAR LRIA 050630Z VRB02KT CAVOK M06/M11 Q1018 R14/49//95=
201901050700 METAR LRIA 050700Z 20004KT CAVOK M05/M10 Q1018 R14/19//95=
201901050730 METAR LRIA 050730Z 20003KT 160V240 CAVOK M04/M10 Q1017 R14/19//95=
201901050800 METAR LRIA 050800Z 20004KT 170V230 CAVOK M03/M10 Q1017 R14/19//95=
201901050830 METAR LRIA 050830Z 19005KT 160V220 CAVOK M03/M11 Q1016 R14/19//95=
201901050900 METAR LRIA 050900Z 20006KT 170V230 CAVOK M03/M11 Q1016 R14/19//95=
201901050930 METAR LRIA 050930Z 20006KT 160V260 CAVOK M02/M11 Q1015 R14/19//95=
201901051000 METAR LRIA 051000Z 20006KT 160V260 CAVOK M02/M11 Q1015 R14/19//95=
201901051030 METAR LRIA 051030Z 20006KT 150V250 CAVOK M01/M10 Q1014 R14/19//95=
201901051100 METAR LRIA 051100Z 22005KT 170V250 CAVOK M01/M10 Q1013 R14/19//95=
201901051130 METAR LRIA 051130Z 18006KT CAVOK M00/M10 Q1013 R14/19//95=
201901051200 METAR LRIA 051200Z 20006KT 170V230 CAVOK M00/M10 Q1012 R14/19//95=
201901051230 METAR LRIA 051230Z 17008KT CAVOK M00/M10 Q1012 R14/19//95=
201901051300 METAR LRIA 051300Z 21005KT 170V230 CAVOK 00/M10 Q1011 R14/19//95=
201901051330 METAR LRIA 051330Z 19006KT 150V220 CAVOK 00/M10 Q1011 R14/19//95=
201901051400 METAR LRIA 051400Z 20006KT 170V230 CAVOK M00/M10 Q1011 R14/19//95=
201901051430 METAR LRIA 051430Z 20004KT CAVOK M01/M11 Q1010 R14/19//95=
201901051500 METAR LRIA 051500Z 18003KT CAVOK M01/M11 Q1010 R14/19//95=
201901051530 METAR LRIA 051530Z 15004KT CAVOK M02/M10 Q1010 R14/19//95=
201901051600 METAR LRIA 051600Z 11004KT 070V140 CAVOK M02/M10 Q1010 R14/19//95=
201901051630 METAR LRIA 051630Z 13004KT CAVOK M02/M09 Q1010 R14/19//95=
201901051700 METAR LRIA 051700Z 13004KT CAVOK M03/M09 Q1010 R14/19//95=
201901051730 METAR LRIA 051730Z 17003KT CAVOK M03/M10 Q1010 R14/19//95=
201901051800 METAR LRIA 051800Z 21003KT 160V250 CAVOK M02/M10 Q1009 R14/19//95=
201901051830 METAR LRIA 051830Z 21003KT 180V260 CAVOK M03/M10 Q1009 R14/19//95=
201901051900 METAR LRIA 051900Z 20005KT CAVOK M03/M10 Q1009 R14/19//95=
201901051930 METAR LRIA 051930Z 19004KT CAVOK M03/M10 Q1009 R14/19//95=
201901052000 METAR LRIA 052000Z 20003KT CAVOK M03/M10 Q1009 R14/19//95=
201901052030 METAR LRIA 052030Z VRB01KT CAVOK M03/M10 Q1009 R14/19//95=
201901052100 METAR LRIA 052100Z 20002KT 9999 SCT040 M03/M10 Q1009 R14/19//95=
201901052130 METAR LRIA 052130Z 00000KT 9999 -SN SCT033 M03/M09 Q1009
                        R14/19//95=
201901052200 METAR LRIA 052200Z 25002KT 220V280 6000 -SN SCT022 SCT037
                        M03/M07 Q1009 R14/19//95=
201901052230 METAR LRIA 052230Z 26003KT 4000 -SN BKN015 BKN023 M03/M06
                        Q1008 R14/19//95=
201901052300 METAR LRIA 052300Z 00000KT 3000 -SN SCT008 BKN015 BKN022
                        M03/M06 Q1008 R14/490294=
201901052330 METAR LRIA 052330Z 00000KT 2500 -SN SCT008 BKN010 BKN022
                        M03/M05 Q1008 R14/490294=
201901060000 METAR LRIA 060000Z 23002KT 3000 -SN SCT003 BKN012 BKN022
                        M03/M05 Q1008 R14/490294=
201901060030 METAR LRIA 060030Z 23003KT 3000 -SN SCT003 BKN011 BKN022
                        M03/M05 Q1008 R14/490294=
201901060100 METAR LRIA 060100Z 26003KT 2500 -SN SCT003 BKN011 BKN030
                        M03/M04 Q1008 R14/490393=
201901060130 METAR LRIA 060130Z 28002KT 230V320 2500 -SN SCT003 BKN011
                        BKN022 M03/M04 Q1008 R14/490393=
201901060200 METAR LRIA 060200Z 28004KT 250V310 3000 -SN SCT002 BKN009
                        BKN021 M02/M04 Q1007 R14/490393=
201901060230 METAR LRIA 060230Z 27004KT 240V300 2500 -SN SCT005 BKN010
                        BKN021 M02/M04 Q1007 R14/490393=
201901060300 METAR LRIA 060300Z 29005KT 2800 -SN SCT004 BKN007 BKN015
                        M02/M04 Q1007 R14/490393=
201901060330 METAR LRIA 060330Z 30007KT 1800 -SN BKN004 BKN009 M02/M04
                        Q1007 R14/490393=
201901060400 METAR LRIA 060400Z 32008KT 3500 -SN BKN004 BKN008 BKN015
                        M02/M03 Q1007 R14/490393=
201901060430 METAR LRIA 060430Z 32008KT 3500 -SN BR SCT005 BKN015 BKN023
                        M02/M04 Q1007 R14/490393=
201901060500 METAR LRIA 060500Z 32009KT 7000 -SN SCT008 BKN020 M02/M04
                        Q1008 R14/490393=
201901060530 METAR LRIA 060530Z 32008KT 8000 -SN BKN010 BKN020 M01/M04
                        Q1008 R14/490294=
201901060600 METAR LRIA 060600Z 32009KT 9000 -SN SCT009 BKN020 M01/M04
                        Q1008 R14/490294=
201901060630 METAR LRIA 060630Z 33008KT 8000 -SN FEW008 SCT011 BKN034
                        M01/M04 Q1009 R14/490294=
201901060700 METAR LRIA 060700Z 33008KT 9000 -SN FEW008 SCT022 BKN038
                        M01/M04 Q1009 R14/590294=
201901060730 METAR LRIA 060730Z 34010KT 9999 -SN FEW009 SCT038 M02/M04
                        Q1009 R14/590294=
201901060800 METAR LRIA 060800Z 33008KT 9999 -SN FEW010 SCT013 M01/M05
                        Q1010 R14/590294=
201901060830 METAR LRIA 060830Z 32010KT 9999 FEW013 SCT018 M02/M05 Q1010
                        R14/590294=
201901060900 METAR LRIA 060900Z 32012KT 9999 -SN FEW015 SCT033 M02/M05
                        Q1010 R14/29//95=
201901060930 METAR LRIA 060930Z 32013KT 9999 FEW022 M02/M06 Q1010 R14/29//95=
201901061000 METAR LRIA 061000Z 32014KT 9999 -SN FEW018 M02/M07 Q1010
                        R14/29//95=
201901061030 METAR LRIA 061030Z 32014KT 9999 -SN FEW018 BKN041 M03/M07
                        Q1011 R14/29//95=
201901061100 METAR LRIA 061100Z 32012KT 9999 FEW018 OVC047 M03/M07 Q1011
                        R14/29//95=
201901061130 METAR LRIA 061130Z 33012KT 9999 FEW020 M03/M08 Q1011 R14/29//95=
201901061200 METAR LRIA 061200Z 33015KT 9999 FEW019 M03/M08 Q1011 R14/29//95=
201901061230 METAR LRIA 061230Z 31015KT 9999 -SN SCT019 M04/M07 Q1012
                        R14/29//95=
201901061300 METAR LRIA 061300Z 31013KT 9999 -SN SCT016 BKN021 M04/M08
                        Q1012 R14/29//95=
201901061330 METAR LRIA 061330Z 32015KT 9999 -SN FEW013 OVC017 M04/M08
                        Q1012 R14/29//95=
201901061400 METAR LRIA 061400Z 31013KT 9999 -SN FEW014 BKN019 M04/M08
                        Q1013 R14/29//95=
201901061430 METAR LRIA 061430Z 32012KT 9999 -SN FEW013 SCT018 BKN040
                        M04/M08 Q1013 R14/19//95=
201901061500 METAR LRIA 061500Z 32014KT 9999 -SN FEW013 SCT018 BKN031
                        M04/M08 Q1013 R14/19//95=
201901061530 METAR LRIA 061530Z 32012KT 9999 -SN FEW013 SCT025 M04/M08
                        Q1014 R14/19//95=
201901061600 METAR LRIA 061600Z 31010KT 9999 -SN FEW015 M04/M08 Q1014
                        R14/19//95=
201901061630 METAR LRIA 061630Z 31010KT 9999 -SN BKN017 M04/M08 Q1015
                        R14/590294=
201901061700 METAR LRIA 061700Z 31010KT 9999 -SN SCT010 BKN031 M04/M07
                        Q1015 R14/590294=
201901061730 METAR LRIA 061730Z 31008KT 9999 -SN FEW009 BKN012 M04/M07
                        Q1015 R14/590294=
201901061800 METAR LRIA 061800Z 31008KT 270V330 9999 -SN OVC012 M04/M07
                        Q1015 R14/590294=
201901061830 METAR LRIA 061830Z 30009KT 9999 -SN BKN012 OVC030 M04/M07
                        Q1016 R14/590294=
201901061900 METAR LRIA 061900Z 31010KT 9999 -SN SCT012 OVC030 M04/M07
                        Q1016 R14/590294=
201901061930 METAR LRIA 061930Z 32010KT 9999 -SN SCT011 OVC027 M04/M07
                        Q1016 R14/590294=
201901062000 METAR LRIA 062000Z 32009KT 9999 -SN BKN011 OVC027 M04/M07
                        Q1016 R14/590294=
201901062030 METAR LRIA 062030Z 32008KT 6000 -SN SCT010 BKN045 M04/M07
                        Q1016 R14/590294=
201901062100 METAR LRIA 062100Z 32008KT 4000 SN FEW010 BKN030 M04/M07
                        Q1017 R14/590294=
201901062130 METAR LRIA 062130Z 33009KT 9999 -SN BKN018 M04/M07 Q1017
                        RESN R14/590294=
201901062200 METAR LRIA 062200Z 34011KT 9999 -SN OVC015 M04/M07 Q1017
                        R14/590294=
201901062230 METAR LRIA 062230Z 33008KT 9999 -SN OVC015 M04/M07 Q1017
                        R14/590294=
201901062300 METAR LRIA 062300Z 34009KT 9999 -SN BKN017 M04/M07 Q1017
                        R14/590294=
201901062330 METAR COR LRIA 062330Z 34010KT 8000 -SN SCT015 M04/M07 Q1018
                        R14/590294=
201901070000 METAR LRIA 070000Z 34011KT 9999 -SN SCT015 M04/M07 Q1018
                        R14/590294=
201901070030 METAR LRIA 070030Z 35011KT 9999 -SN SCT030 M04/M07 Q1018
                        R14/590294=
201901070100 METAR LRIA 070100Z 36009KT 4000 SN BKN017 M04/M07 Q1019 R14/590294=
201901070130 METAR LRIA 070130Z 36009KT 8000 -SN BKN023 M05/M07 Q1019
                        RESN R14/590294=
201901070200 METAR LRIA 070200Z 36010KT 9999 -SN BKN040 M05/M07 Q1019
                        R14/590294=
201901070230 METAR LRIA 070230Z 36011KT 9999 -SN FEW045 M05/M08 Q1020
                        R14/590294=
201901070300 METAR LRIA 070300Z 01011KT CAVOK M05/M08 Q1020 R14/590294=
201901070330 METAR LRIA 070330Z 35010KT CAVOK M05/M08 Q1020 R14/590294=
201901070400 METAR COR LRIA 070400Z 35011KT CAVOK M05/M09 Q1020 R14/490293=
201901070430 METAR LRIA 070430Z 35012KT CAVOK M05/M10 Q1021 R14/490293=
201901070500 METAR LRIA 070500Z 34013KT 9999 SCT040 M06/M10 Q1021 R14/490293=
201901070530 METAR LRIA 070530Z 34012KT 9999 -SN FEW017 SCT033 M06/M10
                        Q1021 R14/490293=
201901070600 METAR LRIA 070600Z 33009KT 9999 -SN FEW016 BKN041 M06/M10
                        Q1022 R14/490293=
201901070630 METAR LRIA 070630Z 34011KT 9000 -SN FEW016 BKN045 M06/M09
                        Q1022 R14/490293=
201901070700 METAR LRIA 070700Z 33010KT 3000 SN SCT020 BKN040 M06/M09
                        Q1022 R14/490293=
201901070730 METAR LRIA 070730Z 33011KT 3000 SN SCT022 OVC040 M06/M08
                        Q1023 R14/490293=
201901070800 METAR LRIA 070800Z 33010KT 3000 SN OVC036 M05/M08 Q1023 R14/490293=
201901070830 METAR LRIA 070830Z 33013KT 1800 SN SCT020 OVC030 M05/M08
                        Q1023 R14/490293=
201901070900 METAR LRIA 070900Z 33011KT 1200 R14/1600N R32/1400N +SN OVC020
                        M05/M08 Q1024 R14/490293=
201901070930 METAR LRIA 070930Z 33009KT 1500 +SN OVC025 M05/M07 Q1024
                        R14/490293=
201901071000 METAR LRIA 071000Z 33010KT 2000 SN OVC036 M05/M07 Q1024 RESN
                        R14/490293=
201901071030 METAR LRIA 071030Z 33010KT 1200 R14/2000 R32/1500D +SN SCT006
                        OVC029 M04/M07 Q1024 R14/490293=
201901071100 METAR LRIA 071100Z 33011KT 1000 R14/1700D R32/1700U +SN SCT004
                        OVC023 M04/M07 Q1024 R14/490293=
201901071130 METAR LRIA 071130Z 33010KT 1200 R14/1800U R32/2000U SN SCT005
                        OVC022 M04/M07 Q1024 RESN R14/490293=
201901071200 METAR LRIA 071200Z 33011KT 1500 SN SCT005 OVC035 M04/M07
                        Q1024 RESN R14/490293=
201901071230 METAR LRIA 071230Z 33010KT 1500 SN SCT007 OVC045 M04/M06
                        Q1024 R14/490293=
201901071300 METAR LRIA 071300Z 33009KT 2000 SN SCT006 BKN043 M04/M06
                        Q1024 R14/490293=
201901071330 METAR LRIA 071330Z 33010KT 2500 SN SCT007 BKN048 M04/M07
                        Q1025 R14/490293=
201901071400 METAR LRIA 071400Z 33009KT 7000 -SN FEW008 SCT044 M05/M07
                        Q1025 R14/490293=
201901071430 METAR LRIA 071430Z 32008KT 8000 -SN FEW008 SCT020 BKN048
                        M05/M07 Q1025 R14/490293=
201901071500 METAR LRIA 071500Z 33010KT 6000 -SN SCT020 SCT045 M05/M07
                        Q1025 R14/590194=
201901071530 METAR LRIA 071530Z 34011KT 6000 -SN SCT012 BKN044 M05/M07
                        Q1025 R14/590194=
201901071600 METAR LRIA 071600Z 33008KT 7000 -SN SCT014 BKN030 M05/M08
                        Q1026 R14/590194=
201901071630 METAR LRIA 071630Z 33008KT 7000 -SN FEW006 SCT025 BKN046
                        M06/M08 Q1026 R14/590194=
201901071700 METAR LRIA 071700Z 33007KT 8000 -SN SCT027 BKN035 M06/M08
                        Q1026 R14/590194=
201901071730 METAR LRIA 071730Z 33008KT 9999 BKN036 M07/M09 Q1026 R14/590194=
201901071800 METAR LRIA 071800Z 34009KT 9999 BKN041 M06/M08 Q1026 R14/490194=
201901071830 METAR LRIA 071830Z 33007KT 9999 BKN030 M06/M09 Q1026 R14/490194=
201901071900 METAR LRIA 071900Z 33006KT 9999 -SN BKN028 M06/M09 Q1026
                        R14/490194=
201901071930 METAR LRIA 071930Z 33006KT 8000 -SN BKN026 OVC042 M06/M09
                        Q1026 R14/490194=
201901072000 METAR LRIA 072000Z 31009KT 8000 -SN SCT036 BKN049 M07/M09
                        Q1026 R14/490194=
201901072030 METAR LRIA 072030Z 31007KT 9000 -SN BKN036 M07/M09 Q1026
                        R14/490194=
201901072100 METAR LRIA 072100Z 32007KT 9999 -SN OVC031 M07/M09 Q1026
                        R14/490194=
201901072130 METAR LRIA 072130Z 32007KT 9999 -SN OVC036 M07/M09 Q1025
                        R14/490194=
201901072200 METAR LRIA 072200Z 33007KT 9999 FEW025 OVC034 M08/M11 Q1025
                        R14/490194=
201901072230 METAR LRIA 072230Z 31007KT 9999 FEW021 OVC034 M09/M11 Q1025
                        R14/490194=
201901072300 METAR LRIA 072300Z 30007KT 9999 BKN034 M09/M11 Q1025 R14/490194=
201901072330 METAR LRIA 072330Z 31008KT 9999 SCT028 M10/M12 Q1025 R14/490194=
201901080000 METAR LRIA 080000Z 31008KT CAVOK M10/M13 Q1024 R14/490194=
201901080030 METAR LRIA 080030Z 30006KT CAVOK M11/M13 Q1024 R14/490194=
201901080100 METAR LRIA 080100Z 32008KT CAVOK M11/M14 Q1024 R14/490194=
201901080130 METAR LRIA 080130Z 31008KT CAVOK M12/M14 Q1023 R14/490194=
201901080200 METAR LRIA 080200Z 29006KT CAVOK M12/M14 Q1023 R14/490194=
201901080230 METAR LRIA 080230Z 22002KT 150V270 CAVOK M13/M15 Q1023 R14/490194=
201901080300 METAR LRIA 080300Z 24003KT 210V280 CAVOK M13/M15 Q1022 R14/490194=
201901080330 METAR LRIA 080330Z 26005KT CAVOK M12/M14 Q1022 R14/490194=
201901080400 METAR LRIA 080400Z 26004KT CAVOK M12/M14 Q1022 R14/490194=
201901080430 METAR LRIA 080430Z 25003KT CAVOK M12/M14 Q1021 R14/490194=
201901080500 METAR LRIA 080500Z 25003KT CAVOK M13/M15 Q1021 R14/490194=
201901080530 METAR LRIA 080530Z 25003KT 8000 NSC M12/M14 Q1021 R14/490194=
201901080600 METAR LRIA 080600Z 25003KT 7000 NSC M12/M14 Q1021 R14/490194=
201901080630 METAR LRIA 080630Z 25003KT 6000 NSC M12/M14 Q1020 R14/490194=
201901080700 METAR LRIA 080700Z 26003KT 6000 NSC M11/M13 Q1020 R14/490194=
201901080730 METAR LRIA 080730Z 25002KT 6000 NSC M10/M13 Q1020 R14/490194=
201901080800 METAR LRIA 080800Z 22003KT 6000 NSC M10/M12 Q1019 R14/490194=
201901080830 METAR LRIA 080830Z 24001KT 7000 NSC M09/M12 Q1019 R14/490194=
201901080900 METAR LRIA 080900Z 00000KT 7000 NSC M08/M11 Q1018 R14/490194=
201901080930 METAR LRIA 080930Z 23003KT 190V250 8000 FEW020 M07/M11 Q1018
                        R14/490194=
201901081000 METAR LRIA 081000Z 00000KT 8000 FEW020 M07/M11 Q1017 R14/490194=
201901081030 METAR LRIA 081030Z 00000KT 8000 FEW025 M06/M11 Q1016 R14/490194=
201901081100 METAR LRIA 081100Z 09003KT 8000 FEW025 M07/M11 Q1016 R14/490194=
201901081130 METAR LRIA 081130Z 09004KT 8000 FEW025 M07/M11 Q1015 R14/29//95=
201901081200 METAR LRIA 081200Z 11005KT 8000 FEW030 M08/M12 Q1015 R14/29//95=
201901081230 METAR LRIA 081230Z 12005KT 8000 NSC M08/M12 Q1014 R14/29//95=
201901081300 METAR LRIA 081300Z 10004KT 9000 NSC M08/M12 Q1014 R14/29//95=
201901081330 METAR LRIA 081330Z 09006KT CAVOK M08/M12 Q1013 R14/29//95=
201901081400 METAR LRIA 081400Z 10007KT CAVOK M08/M12 Q1013 R14/29//95=
201901081430 METAR LRIA 081430Z 10008KT CAVOK M08/M12 Q1013 R14/29//95=
201901081500 METAR LRIA 081500Z 11008KT CAVOK M09/M13 Q1013 R14/19//95=
201901081530 METAR LRIA 081530Z 11007KT CAVOK M10/M14 Q1012 R14/19//95=
201901081600 METAR LRIA 081600Z 10006KT CAVOK M10/M14 Q1012 R14/19//95=
201901081630 METAR LRIA 081630Z 10005KT CAVOK M09/M14 Q1012 R14/19//95=
201901081700 METAR LRIA 081700Z 10007KT CAVOK M10/M14 Q1012 R14/19//95=
201901081730 METAR LRIA 081730Z 10007KT CAVOK M10/M13 Q1011 R14/19//95=
201901081800 METAR LRIA 081800Z 10008KT CAVOK M11/M14 Q1011 R14/19//95=
201901081830 METAR LRIA 081830Z 10008KT CAVOK M11/M14 Q1011 R14/19//95=
201901081900 METAR LRIA 081900Z 10009KT CAVOK M11/M14 Q1010 R14/19//95=
201901081930 METAR LRIA 081930Z 10009KT CAVOK M11/M13 Q1010 R14/19//95=
201901082000 METAR LRIA 082000Z 11008KT CAVOK M11/M14 Q1009 R14/19//95=
201901082030 METAR LRIA 082030Z 11009KT CAVOK M11/M14 Q1009 R14/19//95=
201901082100 METAR LRIA 082100Z 11008KT CAVOK M12/M14 Q1009 R14/19//95=
201901082130 METAR LRIA 082130Z 11009KT CAVOK M11/M13 Q1009 R14/19//95=
201901082200 METAR LRIA 082200Z 12008KT CAVOK M10/M13 Q1008 R14/19//95=
201901082230 METAR LRIA 082230Z 12006KT 9999 FEW008 M10/M12 Q1008 R14/19//95=
201901082300 METAR LRIA 082300Z 11006KT 8000 FEW008 M10/M12 Q1008 R14/19//95=
201901082330 METAR LRIA 082330Z 12006KT 7000 FEW008 M10/M12 Q1008 R14/19//95=
201901090000 METAR LRIA 090000Z 12009KT 7000 SCT008 M09/M11 Q1007 R14/19//95=
201901090030 METAR LRIA 090030Z 12010KT 6000 SCT004 BKN008 M09/M11 Q1008
                        R14/19//95=
201901090100 METAR LRIA 090100Z 12010KT 6000 SCT005 BKN008 M08/M10 Q1007
                        R14/19//95=
201901090130 METAR LRIA 090130Z 13007KT 5000 BR SCT004 BNKN007 M08/M10
                        Q1007 R14/19//95=
201901090200 METAR LRIA 090200Z 11013KT 5000 BR SCT004 BKN007 M08/M10
                        Q1007 R14/19//95=
201901090230 METAR LRIA 090230Z 12013KT 5000 BR SCT004 BKN006 M08/M10
                        Q1006 R14/19//95=
201901090300 METAR LRIA 090300Z 12012KT 6000 SCT004 BKN006 M09/M11 Q1006
                        R14/19//95=
201901090330 METAR LRIA 090330Z 12010KT 6000 FEW004 SCT006 M09/M11 Q1006
                        R14/19//95=
201901090400 METAR LRIA 090400Z 12011KT 7000 FEW007 M09/M11 Q1006 R14/19//95=
201901090430 METAR LRIA 090430Z 12009KT 7000 NSC M09/M11 Q1006 R14/19//95=
201901090500 METAR LRIA 090500Z 12009KT 5000 -SN BR SCT048 M09/M11 Q1007
                        R14/19//95=
201901090530 METAR LRIA 090530Z 12010KT 3000 -SN BR SCT017 OVC040 M09/M11
                        Q1007 R14/490294=
201901090600 METAR LRIA 090600Z 12011KT 2500 -SN BR SCT028 M08/M11 Q1007
                        R14/490294=
201901090630 METAR LRIA 090630Z 11011KT 3000 -SN BR SCT018 M08/M11 Q1007
                        R14/490294=
201901090700 METAR LRIA 090700Z 11012KT 4000 BR SCT033 M09/M11 Q1006 R14/490294=
201901090730 METAR COR LRIA 090730Z 11011KT 5000 BR BKN030 M08/M10 Q1007
                        R14/490294=
201901090800 METAR LRIA 090800Z 11011KT 5000 BR SCT045 M08/M10 Q1007 R14/490294=
201901090830 METAR LRIA 090830Z 11011KT 5000 BR SCT040 M08/M10 Q1007 R14/490294=
201901090900 METAR LRIA 090900Z 11012KT 6000 FEW047 M08/M11 Q1007 R14/490294=
201901090930 METAR LRIA 090930Z 11011KT 7000 NSC M08/M11 Q1007 R14/490294=
201901091000 METAR LRIA 091000Z 11011KT 8000 NSC M07/M10 Q1007 R14/490294=
201901091030 METAR LRIA 091030Z 11011KT 8000 NSC M07/M10 Q1007 R14/490294=
201901091100 METAR COR LRIA 091100Z 11011KT 8000 FEW019 M07/M10 Q1006
                        R14/19//95=
201901091130 METAR LRIA 091130Z 11011KT 9000 NSC M06/M10 Q1007 R14/19//95=
201901091200 METAR LRIA 091200Z 11013KT 9000 NSC M06/M10 Q1006 R14/19//95=
201901091230 METAR LRIA 091230Z 11013KT CAVOK M07/M10 Q1007 R14/19//95=
201901091300 METAR LRIA 091300Z 11010KT CAVOK M07/M10 Q1007 R14/19//95=
201901091330 METAR LRIA 091330Z 10010KT CAVOK M07/M10 Q1007 R14/19//95=
201901091400 METAR LRIA 091400Z 11010KT CAVOK M06/M10 Q1007 R14/19//95=
201901091430 METAR LRIA 091430Z 11010KT CAVOK M07/M10 Q1007 R14/19//95=
201901091500 METAR LRIA 091500Z 11008KT CAVOK M07/M10 Q1008 R14/19//95=
201901091530 METAR LRIA 091530Z 12009KT CAVOK M07/M10 Q1008 R14/19//95=
201901091600 METAR LRIA 091600Z 11009KT CAVOK M06/M09 Q1008 R14/19//95=
201901091630 METAR LRIA 091630Z 11008KT CAVOK M06/M09 Q1009 R14/19//95=
201901091700 METAR LRIA 091700Z 10007KT CAVOK M06/M09 Q1009 R14/19//95=
201901091730 METAR LRIA 091730Z 09008KT CAVOK M06/M09 Q1009 R14/19//95=
201901091800 METAR LRIA 091800Z 10007KT CAVOK M06/M09 Q1009 R14/19//95=
201901091830 METAR LRIA 091830Z 10006KT CAVOK M07/M10 Q1009 R14/19//95=
201901091900 METAR LRIA 091900Z 10006KT 9999 FEW016 M06/M09 Q1010 R14/19//95=
201901091930 METAR LRIA 091930Z 09005KT 9999 SCT015 M06/M09 Q1010 R14/19//95=
201901092000 METAR LRIA 092000Z 09006KT 9999 BKN015 M06/M09 Q1010 R14/19//95=
201901092030 METAR LRIA 092030Z 07006KT 9999 SCT015 M06/M09 Q1010 R14/19//95=
201901092100 METAR LRIA 092100Z 07006KT 9999 FEW015 M06/M09 Q1010 R14/19//95=
201901092130 METAR LRIA 092130Z 09007KT 9999 FEW015 M06/M09 Q1010 R14/19//95=
201901092200 METAR LRIA 092200Z 09005KT 9999 FEW015 M08/M10 Q1010 R14/19//95=
201901092230 METAR LRIA 092230Z 07005KT 9999 FEW015 M08/M11 Q1010 R14/19//95=
201901092300 METAR LRIA 092300Z 00000KT 9999 FEW015 M09/M11 Q1010 R14/19//95=
201901092330 METAR LRIA 092330Z AUTO VRB01KT 9000 FEW190/// M09/M12 Q1010=
201901100000 METAR LRIA 100000Z 29001KT 7000 FEW013 M10/M12 Q1010 R14/19//95=
201901100030 METAR LRIA 100030Z 26002KT 5000 BR SCT015 M10/M12 Q1011 R14/19//95=
201901100100 METAR LRIA 100100Z 25003KT 6000 SCT016 M09/M11 Q1011 R14/19//95=
201901100130 METAR LRIA 100130Z 28001KT 6000 BKN013 SCT017 M08/M10 Q1011
                        R14/19//95=
201901100200 METAR LRIA 100200Z 29003KT 270V330 6000 BKN014 M08/M10 Q1011
                        R14/19//95=
201901100230 METAR LRIA 100230Z 30004KT 6000 BKN016 M08/M10 Q1011 R14/19//95=
201901100300 METAR LRIA 100300Z 27004KT 6000 BKN016 M08/M10 Q1011 R14/19//95=
201901100330 METAR LRIA 100330Z 29003KT 4200 -SN BR BKN015 M07/M10 Q1011
                        R14/19//95=
201901100400 METAR LRIA 100400Z 29004KT 4400 -SN BR BKN015 BKN036 M07/M09
                        Q1011 R14/490295=
201901100430 METAR LRIA 100430Z 31004KT 4200 -SN BR BKN015 BKN036 M07/M09
                        Q1011 R14/490295=
201901100500 METAR LRIA 100500Z VRB02KT 3000 -SN BR BKN015 BKN035 M07/M09
                        Q1011 R14/490295=
201901100530 METAR LRIA 100530Z 28003KT 240V320 3300 -SN BR SCT013 OVC035
                        M07/M09 Q1011 R14/490295=
201901100600 METAR LRIA 100600Z 27003KT 3000 -SN BR BKN014 OVC035 M07/M09
                        Q1011 R14/490295=
201901100630 METAR COR LRIA 100630Z 29005KT 1700 SN BR BKN007 OVC016 M06/M08
                        Q1011 R14/490393=
201901100700 METAR LRIA 100700Z 31004KT 2600 -SN BR SCT011 OVC022 M06/M08
                        Q1011 R14/490393=
201901100730 METAR LRIA 100730Z 30005KT 2000 -SN BR SCT007 OVC014 M06/M08
                        Q1011 R14/490294=
201901100800 METAR LRIA 100800Z 29006KT 1700 -SN BR SCT007 OVC013 M05/M07
                        Q1011 R14/490294=
201901100830 METAR LRIA 100830Z 30005KT 0500 R14/1300D R32/1000N SN BR
                        BKN009 OVC014 M05/M07 Q1011 R14/490294=
201901100900 METAR LRIA 100900Z 28003KT 250V310 0800 R14/1400N R32/1200N
                        SN BR VV001 M05/M07 Q1012 R14/490294=
201901100930 METAR LRIA 100930Z 32004KT 290V350 1200 R14/1900N R32/1500N
                        -SN BR SCT006 OVC019 M04/M07 Q1011
                        RESN R14/490294=
201901101000 METAR LRIA 101000Z 32006KT 2000 -SN BR SCT005 OVC018 M04/M06
                        Q1011 R14/490294=
201901101030 METAR LRIA 101030Z 31006KT 2200 -SN BR SCT004 OVC018 M04/M06
                        Q1011 R14/490294=
201901101100 METAR LRIA 101100Z 32005KT 1800 -SN BR SCT005 OVC020 M04/M06
                        Q1011 R14/490294=
201901101130 METAR LRIA 101130Z 32008KT 1800 -SN BR SCT005 OVC019 M03/M06
                        Q1011 R14/490294=
201901101200 METAR LRIA 101200Z 32007KT 1800 -SN BR SCT005 OVC016 M03/M05
                        Q1011 R14/490294=
201901101230 METAR LRIA 101230Z 31006KT 2000 -SN BR SCT004 OVC017 M03/M05
                        Q1011 R14/490294=
201901101300 METAR LRIA 101300Z 32006KT 2300 -SN BR SCT004 OVC017 M03/M05
                        Q1011 R14/490294=
201901101330 METAR LRIA 101330Z 32007KT 1800 -SN BR SCT004 BKN011 OVC017
                        M03/M05 Q1011 R14/490294=
201901101400 METAR LRIA 101400Z 31007KT 1700 -SN BR SCT004 OVC014 M03/M05
                        Q1011 R14/490294=
201901101430 METAR LRIA 101430Z 32007KT 1800 -SN BR BKN004 OVC016 M03/M05
                        Q1011 R14/490294=
201901101500 METAR LRIA 101500Z 31006KT 280V340 1800 -SN BR SCT004 OVC015
                        M03/M05 Q1012 R14/490294=
201901101530 METAR LRIA 101530Z 30009KT 1700 -SN BR SCT004 OVC016 M04/M05
                        Q1012 R14/490294=
201901101600 METAR LRIA 101600Z 31008KT 1700 -SN BR BKN005 OVC015 M04/M05
                        Q1012 R14/490294=
201901101630 METAR LRIA 101630Z 30007KT 1600 -SN BR BKN004 OVC016 M04/M05
                        Q1012 R14/490294=
201901101700 METAR LRIA 101700Z 30008KT 1600 -SN BR BKN004 OVC019 M04/M06
                        Q1012 R14/490294=
201901101730 METAR LRIA 101730Z 30009KT 1800 -SN BR BKN005 OVC020 M04/M06
                        Q1012 R14/490294=
201901101800 METAR LRIA 101800Z 32009KT 1800 -SN BR BKN006 OVC023 M04/M06
                        Q1012 R14/490294=
201901101830 METAR COR LRIA 101830Z 31009KT 1500 -SN BR SCT005 SCT015
                        OVC020 M04/M05 Q1012 R14/490294=
201901101900 METAR LRIA 101900Z 31008KT 1500 SN BR BKN006 OVC020 M03/M05
                        Q1012 R14/490294=
201901101930 METAR LRIA 101930Z 32009KT 2000 -SN BR OVC005 M03/M05 Q1012
                        RESN R14/490294=
201901102000 METAR LRIA 102000Z 32009KT 1800 SN BR OVC005 M03/M05 Q1012
                        R14/490294=
201901102030 METAR LRIA 102030Z 31009KT 2000 -SN BR OVC005 M03/M05 Q1012
                        RESN R14/490294=
201901102100 METAR LRIA 102100Z 32010KT 2500 -SN BR SCT005 OVC010 M03/M05
                        Q1012 R14/490294=
201901102130 METAR LRIA 102130Z 31009KT 1500 SN BR SCT004 OVC013 M03/M05
                        Q1012 R14/490294=
201901102200 METAR LRIA 102200Z 31009KT 1500 SN BR SCT005 OVC012 M03/M05
                        Q1012 R14/490294=
201901102230 METAR LRIA 102230Z 32011KT 1500 SN BR SCT006 OVC010 M04/M05
                        Q1012 R14/490294=
201901102300 METAR LRIA 102300Z 32011KT 1500 SN BR SCT006 OVC015 M04/M05
                        Q1012 R14/490294=
201901102330 METAR LRIA 102330Z 33011KT 1500 SN BR SCT006 OVC015 M04/M05
                        Q1012 R14/490294=
201901110000 METAR LRIA 110000Z 33011KT 1500 SN BR SCT006 OVC015 M04/M06
                        Q1012 R14/490294=
201901110030 METAR LRIA 110030Z 33012KT 1500 SN DRSN BR SCT004 OVC012
                        M04/M06 Q1012 R14/490294=
201901110100 METAR LRIA 110100Z 34015KT 1000 R14/2000N R32/P2000N SN DRSN
                        BR VV007 M04/M06 Q1012 R14/890293=
201901110130 METAR LRIA 110130Z 34017KT 1000 R14/P2000 R32/2000N SN DRSN
                        BR VV005 M04/M06 Q1011 R14/890293=
201901110200 METAR LRIA 110200Z 34017KT 0800 R14/1800D R32/2000D SN BLSN
                        VV004 M04/M06 Q1011 R14/890293=
201901110230 METAR LRIA 110230Z 34018KT 0800 R14/1800N R32/2000N SN BLSN
                        VV005 M04/M06 Q1011 R14/890293=
201901110300 METAR LRIA 110300Z 34017KT 0700 R14/1800N R32/1800N SN BLSN
                        VV005 M04/M06 Q1011 R14/890293=
201901110330 METAR LRIA 110330Z 34017KT 0700 R14/1900N R32/1700D SN BLSN
                        VV005 M04/M06 Q1011 R14/890293=
201901110400 METAR LRIA 110400Z 35018KT 0500 R14/1500D R32/1400D +SN BLSN
                        VV003 M04/M06 Q1011 R14/890293=
201901110430 METAR LRIA 110430Z 35015KT 0800 R14/1900N R32/1800N +SN DRSN
                        VV005 M04/M06 Q1011 REBLSN R14/890293=
201901110500 METAR LRIA 110500Z 35015KT 0700 R14/1800N R32/1500D +SN DRSN
                        VV004 M04/M06 Q1011 R14/890293=
201901110530 METAR LRIA 110530Z 35018KT 0500 R14/1700D R32/1500D +SN DRSN
                        VV003 M04/M06 Q1012 R14/890293=
201901110600 METAR LRIA 110600Z 35017KT 0500 R14/1500N R32/1300N +SN DRSN
                        VV003 M05/M07 Q1012 R14/890293=
201901110630 METAR LRIA 110630Z 35018KT 0500 R14/1100N R32/1000N +SN DRSN
                        VV003 M05/M07 Q1012 R14/890293=
201901110700 METAR LRIA 110700Z 35018KT 0500 R14/1300D R32/1000D +SN DRSN
                        VV003 M05/M07 Q1012 R14/890293=
201901110730 METAR LRIA 110730Z 35020KT 0650 R14/0900N R32/0900N +SN DRSN
                        VV004 M06/M08 Q1012 R14/890293=
201901110800 METAR LRIA 110800Z 35019KT 0600 R14/1000D R32/0900N +SN BLSN
                        VV004 M06/M08 Q1013 R14/890293=
201901110830 METAR LRIA 110830Z 35017KT 0700 R14/1200D R32/1000N +SN BLSN
                        VV004 M06/M08 Q1013 R14/890293=
201901110900 METAR COR LRIA 110900Z 34018KT 0800 R14/1300U R32/1100U SN
                        BLSN VV006 M06/M08 Q1013 RESN R14/890293=
201901110930 METAR LRIA 110930Z 34017KT 0800 R14/1300N R32/1100N SN BLSN
                        VV006 M06/M08 Q1013 R14/890293=
201901111000 METAR LRIA 111000Z 34017KT 1200 R14/1700N R32/1500U SN DRSN
                        BKN012 BKN020 M06/M08 Q1013 REBLSN
                        R14/890293=
201901111030 METAR LRIA 111030Z 34017KT 1500 SN DRSN SCT007 BKN010 BKN026
                        M06/M08 Q1014 R14/890293=
201901111100 METAR LRIA 111100Z 34016KT 1300 R14/1600U R32/1600D SN DRSN
                        SCT007 BKN010 BKN026 M06/M08 Q1014
                        R14/890293=
201901111130 METAR LRIA 111130Z 34018KT 1000 R14/1600D R32/1700N SN DRSN
                        SCT006 BKN009 OVC030 M06/M09 Q1014
                        R14/890394=
201901111200 METAR LRIA 111200Z 34017G27KT 1300 R14/1600N R32/1700N SN
                        DRSN SCT005 BKN009 BKN030 M06/M09
                        Q1014 R14/890394=
201901111230 METAR LRIA 111230Z 34019KT 1300 R14/1700U R32/1700N SN DRSN
                        FEW004 SCT009 BKN024 M06/M09 Q1014
                        WS R32 R14/890394=
201901111300 METAR LRIA 111300Z 34017KT 1500 SN DRSN FEW004 SCT007 OVC033
                        M06/M09 Q1014 WS R32 R14/890394=
201901111330 METAR COR LRIA 111330Z 33010G21KT 3000 -SN DRSN SCT008 BKN039
                        M06/M09 Q1014 RESN WS R32 R14/890394=
201901111400 METAR LRIA 111400Z 33012KT 5000 -SN DRSN BR SCT008 BKN036
                        M06/M09 Q1015 WS R32 R14/890394=
201901111430 METAR LRIA 111430Z 32007KT 280V360 5000 -SN BR SCT008 BKN033
                        OVC042 M06/M09 Q1015 WS R32 R14/890394=
201901111500 METAR LRIA 111500Z 33009KT 9000 -SN SCT008 OVC033 M06/M09
                        Q1015 WS R32 R14/890394=
201901111530 METAR LRIA 111530Z 33012KT 9999 SCT011 OVC033 M06/M09 Q1016
                        WS R32 R14/890394=
201901111600 METAR LRIA 111600Z 32006KT 280V350 9999 FEW011 OVC039 M06/M10
                        Q1016 WS R32 R14/890394=
201901111630 METAR LRIA 111630Z 32006KT 290V360 9999 SCT017 BKN045 M06/M10
                        Q1016 R14/890394=
201901111700 METAR LRIA 111700Z 32005KT 280V340 9999 -SN SCT018 BKN046
                        M06/M10 Q1016 R14/890394=
201901111730 METAR LRIA 111730Z 33006KT CAVOK M07/M10 Q1015 R14/890394=
201901111800 METAR LRIA 111800Z 32004KT CAVOK M07/M10 Q1015 R14/890394=
201901111830 METAR LRIA 111830Z 29004KT 250V330 CAVOK M07/M10 Q1015 R14/890394=
201901111900 METAR LRIA 111900Z 32002KT 260V010 CAVOK M07/M10 Q1015 R14/890394=
201901111930 METAR LRIA 111930Z 26002KT 200V360 CAVOK M07/M10 Q1015 R14/890394=
201901112000 METAR LRIA 112000Z 28002KT 220V320 CAVOK M07/M10 Q1015 R14/890394=
201901112030 METAR LRIA 112030Z 27003KT 230V310 9000 NSC M07/M10 Q1015
                        R14/890394=
201901112100 METAR LRIA 112100Z 30002KT 270V330 9000 NSC M07/M10 Q1015
                        R14/950394=
201901112130 METAR LRIA 112130Z 30003KT 9000 NSC M07/M10 Q1015 R14/950394=
201901112200 METAR LRIA 112200Z 28003KT 8000 NSC M07/M10 Q1014 R14/950394=
201901112230 METAR LRIA 112230Z VRB01KT 7000 NSC M08/M11 Q1014 R14/950394=
201901112300 METAR LRIA 112300Z 17003KT 6000 NSC M08/M10 Q1014 R14/950394=
201901112330 METAR LRIA 112330Z 22002KT 4900 BR NSC M09/M11 Q1014 R14/950394=
201901120000 METAR LRIA 120000Z 23003KT 5000 BR NSC M09/M10 Q1014 R14/950394=
201901120030 METAR LRIA 120030Z 23002KT 5000 BR NSC M09/M11 Q1013 R14/950394=
201901120100 METAR LRIA 120100Z 22001KT 5000 BR NSC M08/M10 Q1013 R14/950394=
201901120130 METAR LRIA 120130Z VRB01KT 5000 BR NSC M09/M11 Q1013 R14/950394=
201901120200 METAR LRIA 120200Z VRB01KT 4900 BR NSC M09/M11 Q1012 R14/950394=
201901120230 METAR LRIA 120230Z 14004KT 2700 BR NSC M11/M13 Q1011 R14/950394=
201901120300 METAR LRIA 120300Z 10005KT 3500 BR NSC M11/M13 Q1011 R14/950394=
201901120330 METAR LRIA 120330Z 11006KT 5000 BR NSC M11/M14 Q1011 R14/950394=
201901120400 METAR LRIA 120400Z 11009KT 6000 NSC M12/M14 Q1010 R14/950394=
201901120430 METAR LRIA 120430Z 11007KT 6000 NSC M12/M14 Q1011 R14/950394=
201901120500 METAR LRIA 120500Z 12007KT 6000 -SN NSC M12/M14 Q1010 R14/950394=
201901120530 METAR LRIA 120530Z 11006KT 6000 -SN NSC M11/M13 Q1010 R14/950394=
201901120600 METAR LRIA 120600Z 13006KT 9000 NSC M10/M12 Q1010 R14/950394=
201901120630 METAR LRIA 120630Z 12005KT 9000 NSC M10/M12 Q1010 R14/950394=
201901120700 METAR LRIA 120700Z 14004KT 9000 NSC M09/M11 Q1010 R14/950394=
201901120730 METAR LRIA 120730Z 13003KT 9000 NSC M08/M10 Q1010 R14/950394=
201901120800 METAR LRIA 120800Z 14003KT 110V180 9000 NSC M07/M09 Q1010
                        R14/950394=
201901120830 METAR LRIA 120830Z 00000KT 9000 NSC M06/M08 Q1010 R14/950394=
201901120900 METAR LRIA 120900Z VRB01KT 9000 NSC M05/M07 Q1010 R14/950394=
201901120930 METAR LRIA 120930Z VRB02KT 9000 NSC M05/M06 Q1010 R14/950394=
201901121000 METAR LRIA 121000Z 26003KT 210V310 9000 SCT041 M04/M07 Q1010
                        R14/950394=
201901121030 METAR LRIA 121030Z VRB01KT 8000 -SN OVC043 M03/M07 Q1010
                        R14/950394=
201901121100 METAR LRIA 121100Z 31004KT 1500 -SN BR FEW015 OVC033 M03/M06
                        Q1010 R14/950394=
201901121130 METAR LRIA 121130Z VRB02KT 3000 -SN BR SCT021 OVC040 M03/M06
                        Q1009 R14/950394=
201901121200 METAR LRIA 121200Z VRB01KT 8000 -SN SCT021 OVC042 M03/M06
                        Q1010 R14/950394=
201901121230 METAR LRIA 121230Z 23003KT 7000 -SN FEW020 OVC040 M02/M06
                        Q1010 R14/950394=
201901121300 METAR LRIA 121300Z VRB02KT 7000 -SN FEW018 OVC036 M02/M06
                        Q1010 R14/950394=
201901121330 METAR LRIA 121330Z 27004KT 230V290 9000 FEW020 OVC040 M02/M06
                        Q1010 R14/950394=
201901121400 METAR LRIA 121400Z 29005KT 250V330 9999 FEW018 OVC038 M01/M06
                        Q1010 R14/950394=
201901121430 METAR LRIA 121430Z VRB02KT 9999 BKN037 M01/M07 Q1010 R14/950394=
201901121500 METAR LRIA 121500Z 36005KT 9999 BKN037 OVC049 M01/M07 Q1010
                        R14/950394=
201901121530 METAR LRIA 121530Z 30005KT 9999 BKN041 M00/M07 Q1010 R14/950394=
201901121600 METAR LRIA 121600Z 30006KT 260V330 9999 BKN038 OVC049 M00/M07
                        Q1010 R14/950394=
201901121630 METAR LRIA 121630Z 28004KT 230V320 9999 SCT035 OVC048 M01/M07
                        Q1010 R14/950394=
201901121700 METAR LRIA 121700Z 30005KT 9999 OVC042 M00/M07 Q1010 R14/950394=
201901121730 METAR LRIA 121730Z 29006KT 9999 OVC049 M00/M07 Q1010 R14/950394=
201901121800 METAR LRIA 121800Z 28004KT 9999 OVC049 M00/M07 Q1010 R14/950394=
201901121830 METAR LRIA 121830Z 28006KT 260V320 9999 OVC048 M01/M07 Q1010
                        R14/950394=
201901121900 METAR LRIA 121900Z 30006KT 250V330 9999 OVC048 M01/M08 Q1011
                        R14/950394=
201901121930 METAR LRIA 121930Z 30006KT 270V330 9999 OVC045 M01/M08 Q1011
                        R14/950394=
201901122000 METAR LRIA 122000Z 31006KT 9999 OVC044 M01/M08 Q1010 R14/950394=
201901122030 METAR LRIA 122030Z 29005KT 250V320 9999 OVC044 M01/M08 Q1010
                        R14/950394=
201901122100 METAR LRIA 122100Z 28006KT 250V310 9999 OVC044 M01/M08 Q1011
                        R14/950394=
201901122130 METAR COR LRIA 122130Z 30005KT 260V340 9999 OVC044 M01/M09
                        Q1010 R14/950394=
201901122200 METAR LRIA 122200Z 28004KT 240V310 9999 OVC046 M02/M09 Q1010
                        R14/950394=
201901122230 METAR LRIA 122230Z 31004KT 9999 OVC046 M02/M09 Q1010 R14/950394=
201901122300 METAR LRIA 122300Z 29005KT 250V320 9999 OVC046 M02/M09 Q1010
                        R14/950394=
201901122330 METAR LRIA 122330Z 29004KT 250V330 9999 OVC045 M02/M09 Q1010
                        R14/950394=
201901130000 METAR LRIA 130000Z 29002KT 230V340 9999 OVC045 M02/M09 Q1009
                        R14/950394=
201901130030 METAR LRIA 130030Z 28004KT 9999 OVC045 M02/M09 Q1009 R14/950394=
201901130100 METAR LRIA 130100Z 32004KT 290V350 9999 OVC044 M03/M09 Q1009
                        R14/950394=
201901130130 METAR LRIA 130130Z 25005KT 9999 BKN043 M03/M10 Q1009 R14/950394=
201901130200 METAR LRIA 130200Z 27004KT 240V300 CAVOK M04/M10 Q1009 R14/950394=
201901130230 METAR COR LRIA 130230Z 26003KT CAVOK M03/M10 Q1009 R14/950394=
201901130300 METAR LRIA 130300Z 24003KT CAVOK M04/M10 Q1009 R14/950394=
201901130330 METAR LRIA 130330Z 20004KT 180V240 9999 BKN045 M04/M10 Q1009
                        R14/950394=
201901130400 METAR COR LRIA 130400Z 20005KT 180V250 9999 BKN045 M03/M10
                        Q1008 R14/920395=
201901130430 METAR COR LRIA 130430Z 23003KT 200V270 9999 SCT044 M04/M11
                        Q1008 R14/920395=
201901130500 METAR LRIA 130500Z 22002KT 120V270 CAVOK M04/M10 Q1008 R14/920395=
201901130530 METAR LRIA 130530Z 22006KT 190V250 CAVOK M04/M11 Q1008 R14/920395=
201901130600 METAR LRIA 130600Z 22004KT 180V270 CAVOK M04/M11 Q1008 R14/920395=
201901130630 METAR LRIA 130630Z 22006KT 200V260 CAVOK M03/M11 Q1008 R14/920395=
201901130700 METAR LRIA 130700Z VRB02KT CAVOK M04/M11 Q1008 R14/920395=
201901130730 METAR LRIA 130730Z 16003KT 110V220 CAVOK M05/M11 Q1008 R14/920395=
201901130800 METAR LRIA 130800Z 14003KT CAVOK M05/M11 Q1008 R14/920395=
201901130830 METAR LRIA 130830Z 10006KT CAVOK M06/M11 Q1007 R14/920395=
201901130900 METAR LRIA 130900Z 09006KT CAVOK M06/M11 Q1007 R14/920395=
201901130930 METAR LRIA 130930Z 10007KT CAVOK M06/M11 Q1007 R14/920395=
201901131000 METAR LRIA 131000Z 09005KT CAVOK M05/M11 Q1006 R14/920395=
201901131030 METAR LRIA 131030Z 09007KT CAVOK M05/M10 Q1006 R14/920395=
201901131100 METAR LRIA 131100Z 10007KT CAVOK M04/M10 Q1006 R14/19//95=
201901131130 METAR LRIA 131130Z 10006KT CAVOK M04/M09 Q1005 R14/19//95=
201901131200 METAR LRIA 131200Z 10008KT CAVOK M04/M09 Q1005 R14/19//95=
201901131230 METAR LRIA 131230Z 09008KT CAVOK M04/M09 Q1004 R14/19//95=
201901131300 METAR LRIA 131300Z 10007KT CAVOK M04/M08 Q1004 R14/19//95=
201901131330 METAR LRIA 131330Z 09007KT CAVOK M04/M09 Q1004 R14/19//95=
201901131400 METAR LRIA 131400Z 09007KT CAVOK M05/M09 Q1003 R14/19//95=
201901131430 METAR LRIA 131430Z 09009KT CAVOK M05/M09 Q1003 R14/19//95=
201901131500 METAR LRIA 131500Z 10009KT CAVOK M06/M09 Q1003 R14/19//95=
201901131530 METAR LRIA 131530Z 10010KT CAVOK M06/M10 Q1003 R14/19//95=
201901131600 METAR LRIA 131600Z 10010KT CAVOK M06/M10 Q1002 R14/19//95=
201901131630 METAR LRIA 131630Z 11010KT CAVOK M06/M10 Q1002 R14/19//95=
201901131700 METAR LRIA 131700Z 11010KT CAVOK M06/M10 Q1002 R14/19//95=
201901131730 METAR LRIA 131730Z 10009KT CAVOK M07/M10 Q1002 R14/19//95=
201901131800 METAR LRIA 131800Z 10009KT 7000 NSC M07/M10 Q1001 R14/19//95=
201901131830 METAR LRIA 131830Z 10010KT 7000 NSC M07/M10 Q1001 R14/19//95=
201901131900 METAR LRIA 131900Z 10010KT 7000 NSC M07/M10 Q1001 R14/19//95=
201901131930 METAR LRIA 131930Z 10009KT 8000 NSC M07/M09 Q1001 R14/19//95=
201901132000 METAR LRIA 132000Z 10009KT 8000 NSC M07/M10 Q1000 R14/19//95=
201901132030 METAR LRIA 132030Z 10009KT 8000 NSC M08/M11 Q1000 R14/19//95=
201901132100 METAR LRIA 132100Z 10010KT 7000 NSC M08/M10 Q0999 R14/19//95=
201901132130 METAR LRIA 132130Z 10010KT 6000 NSC M07/M10 Q0999 R14/19//95=
201901132200 METAR LRIA 132200Z 10010KT 6000 NSC M08/M10 Q0998 R14/19//95=
201901132230 METAR LRIA 132230Z 10010KT 6000 NSC M08/M10 Q0998 R14/19//95=
201901132300 METAR LRIA 132300Z AUTO 10011KT 6000 NCD M08/M10 Q0997=
201901132330 METAR LRIA 132330Z 10011KT 6000 NSC M08/M10 Q0996 R14/19//95=
201901140000 METAR LRIA 140000Z 10010KT 6000 NSC M08/M10 Q0996 R14/19//95=
201901140030 METAR LRIA 140030Z 11010KT 6000 NSC M08/M10 Q0996 R14/19//95=
201901140100 METAR LRIA 140100Z 10009KT 6000 NSC M08/M10 Q0995 R14/19//95=
201901140130 METAR LRIA 140130Z 10010KT 6000 NSC M08/M10 Q0995 R14/19//95=
201901140200 METAR LRIA 140200Z 11010KT 6000 NSC M09/M11 Q0994 R14/19//95=
201901140230 METAR LRIA 140230Z 11011KT 5000 BR NSC M08/M10 Q0994 R14/19//95=
201901140300 METAR LRIA 140300Z 10010KT 6000 NSC M09/M11 Q0994 R14/19//95=
201901140330 METAR LRIA 140330Z 10009KT 7000 NSC M09/M11 Q0993 R14/19//95=
201901140400 METAR LRIA 140400Z 10010KT 7000 NSC M08/M10 Q0993 R14/19//95=
201901140430 METAR LRIA 140430Z 10011KT 7000 NSC M08/M10 Q0992 R14/19//95=
201901140500 METAR LRIA 140500Z 10011KT 7000 NSC M09/M11 Q0992 R14/19//95=
201901140530 METAR LRIA 140530Z 11011KT CAVOK M08/M10 Q0992 R14/19//95=
201901140600 METAR LRIA 140600Z 11012KT 9000 NSC M08/M10 Q0992 R14/19//95=
201901140630 METAR LRIA 140630Z 10012KT 9000 NSC M08/M10 Q0991 R14/19//95=
201901140700 METAR LRIA 140700Z 11012KT 9000 NSC M08/M10 Q0991 R14/19//95=
201901140730 METAR LRIA 140730Z 11011KT 9000 NSC M08/M10 Q0991 R14/19//95=
201901140800 METAR LRIA 140800Z 10010KT 9000 NSC M07/M09 Q0991 R14/19//95=
201901140830 METAR LRIA 140830Z 10010KT 9000 NSC M06/M09 Q0991 R14/19//95=
201901140900 METAR LRIA 140900Z 10009KT 9000 -SN FEW033 M06/M08 Q0991
                        R14/19//95=
201901140930 METAR LRIA 140930Z 09008KT 9000 NSC M05/M08 Q0991 R14/19//95=
201901141000 METAR LRIA 141000Z 10007KT 9000 -SN NSC M04/M07 Q0991 R14/19//95=
201901141030 METAR LRIA 141030Z 09008KT 8000 NSC M04/M07 Q0990 R14/19//95=
201901141100 METAR LRIA 141100Z 09009KT 8000 NSC M04/M07 Q0990 R14/19//95=
201901141130 METAR LRIA 141130Z 10011KT 8000 NSC M04/M07 Q0990 R14/19//95=
201901141200 METAR LRIA 141200Z 10010KT 8000 NSC M04/M07 Q0990 R14/19//95=
201901141230 METAR LRIA 141230Z 10011KT 9000 NSC M04/M07 Q0990 R14/19//95=
201901141300 METAR LRIA 141300Z 10010KT 7000 NSC M04/M07 Q0990 R14/19//95=
201901141330 METAR LRIA 141330Z 10011KT 8000 NSC M04/M07 Q0991 R14/19//95=
201901141400 METAR LRIA 141400Z 10010KT 8000 NSC M04/M07 Q0991 R14/19//95=
201901141430 METAR LRIA 141430Z 09009KT 8000 NSC M04/M07 Q0991 R14/19//95=
201901141500 METAR LRIA 141500Z 10009KT 7000 NSC M04/M06 Q0991 R14/19//95=
201901141530 METAR LRIA 141530Z 09009KT 7000 NSC M03/M06 Q0992 R14/19//95=
201901141600 METAR LRIA 141600Z 09009KT 7000 NSC M03/M06 Q0992 R14/19//95=
201901141630 METAR LRIA 141630Z 09010KT 7000 NSC M03/M06 Q0993 R14/19//95=
201901141700 METAR LRIA 141700Z 09010KT 8000 NSC M03/M06 Q0993 R14/19//95=
201901141730 METAR LRIA 141730Z 10008KT 9000 NSC M03/M06 Q0994 R14/19//95=
201901141800 METAR LRIA 141800Z 08006KT CAVOK M03/M06 Q0994 R14/19//95=
201901141830 METAR COR LRIA 141830Z 04003KT 320V070 6000 -FZRA SCT017
                        BKN026 M02/M05 Q0995 R14/29//95=
201901141900 METAR LRIA 141900Z 18004KT 160V220 8000 BKN043 M02/M05 Q0996
                        R14/29//95=
201901141930 METAR LRIA 141930Z 21003KT 8000 SCT028 BKN048 M02/M04 Q0996
                        R14/29//95=
201901142000 METAR LRIA 142000Z 25004KT 7000 -SN NSC M01/M04 Q0997 R14/29//95=
201901142030 METAR LRIA 142030Z 25003KT 9000 NSC M00/M04 Q0997 R14/29//95=
201901142100 METAR LRIA 142100Z 24004KT 9000 -SN SCT024 00/M03 Q0998 R14/29//95=
201901142130 METAR LRIA 142130Z 30004KT 9999 -SN SCT022 BKN033 02/M03
                        Q0998 R14/29//95=
201901142200 METAR LRIA 142200Z 29009KT 9999 SCT030 02/M03 Q0998 R14/29//95=
201901142230 METAR LRIA 142230Z 32012KT CAVOK 02/M05 Q0998 R14/29//95=
201901142300 METAR LRIA 142300Z 33006KT CAVOK 01/M06 Q0999 R14/29//95=
201901142330 METAR LRIA 142330Z 31005KT CAVOK 01/M05 Q0999 R14/29//95=
201901150000 METAR LRIA 150000Z 00000KT CAVOK 00/M05 Q1000 R14/29//95=
201901150030 METAR LRIA 150030Z 31007KT CAVOK 01/M05 Q1000 R14/29//95=
201901150100 METAR LRIA 150100Z 31008KT CAVOK M00/M05 Q1001 R14/29//95=
201901150130 METAR LRIA 150130Z 33009KT CAVOK 00/M06 Q1001 R14/29//95=
201901150200 METAR LRIA 150200Z 32009KT CAVOK M00/M06 Q1001 R14/29//95=
201901150230 METAR LRIA 150230Z 32008KT CAVOK M01/M06 Q1002 R14/29//95=
201901150300 METAR LRIA 150300Z 33012KT CAVOK M01/M06 Q1002 R14/29//95=
201901150330 METAR LRIA 150330Z 32010KT CAVOK M01/M07 Q1002 R14/29//95=
201901150400 METAR LRIA 150400Z 33007KT CAVOK M02/M07 Q1003 R14/29//95=
201901150430 METAR LRIA 150430Z 33007KT CAVOK M02/M07 Q1003 R14/29//95=
201901150500 METAR LRIA 150500Z 33008KT CAVOK M02/M07 Q1004 R14/29//95=
201901150530 METAR LRIA 150530Z 33007KT CAVOK M02/M08 Q1004 R14/29//95=
201901150600 METAR LRIA 150600Z 31006KT CAVOK M02/M08 Q1004 R14/29//95=
201901150630 METAR LRIA 150630Z 30005KT CAVOK M03/M08 Q1005 R14/29//95=
201901150700 METAR COR LRIA 150700Z 31006KT CAVOK M03/M08 Q1005 R14/19//95=
201901150730 METAR LRIA 150730Z 31006KT CAVOK M02/M09 Q1006 R14/19//95=
201901150800 METAR LRIA 150800Z 32006KT CAVOK M02/M09 Q1006 R14/19//95=
201901150830 METAR LRIA 150830Z 32004KT CAVOK M02/M09 Q1007 R14/19//95=
201901150900 METAR LRIA 150900Z 26003KT 230V310 CAVOK M01/M09 Q1007 R14/19//95=
201901150930 METAR LRIA 150930Z 26004KT 230V290 CAVOK M01/M09 Q1007 R14/19//95=
201901151000 METAR LRIA 151000Z 26005KT 9999 BKN047 M01/M09 Q1006 R14/19//95=
201901151030 METAR LRIA 151030Z 25004KT 210V290 9999 SCT048 M00/M09 Q1006
                        R14/19//95=
201901151100 METAR LRIA 151100Z 25005KT 220V280 CAVOK M00/M09 Q1006 R14/19//95=
201901151130 METAR LRIA 151130Z 25006KT 230V300 CAVOK M00/M10 Q1006 R14/19//95=
201901151200 METAR LRIA 151200Z 26008KT 220V280 CAVOK 00/M10 Q1006 R14/19//95=
201901151230 METAR LRIA 151230Z 27006KT 220V300 CAVOK 01/M10 Q1006 R14/19//95=
201901151300 METAR COR LRIA 151300Z 26007KT CAVOK 01/M11 Q1006 R14/19//95=
201901151330 METAR LRIA 151330Z 26006KT CAVOK 01/M10 Q1006 R14/19//95=
201901151400 METAR LRIA 151400Z 26004KT CAVOK 01/M11 Q1006 R14/19//95=
201901151430 METAR LRIA 151430Z 26004KT 230V300 CAVOK M00/M11 Q1006 R14/19//95=
201901151500 METAR LRIA 151500Z 25003KT 220V280 CAVOK M01/M11 Q1006 R14/19//95=
201901151530 METAR LRIA 151530Z 27002KT 230V290 CAVOK M02/M11 Q1006 R14/19//95=
201901151600 METAR LRIA 151600Z 22002KT 180V270 CAVOK M03/M11 Q1007 R14/19//95=
201901151630 METAR LRIA 151630Z 26004KT CAVOK M02/M11 Q1007 R14/19//95=
201901151700 METAR LRIA 151700Z 26005KT CAVOK M02/M11 Q1007 R14/19//95=
201901151730 METAR LRIA 151730Z 27004KT CAVOK M02/M11 Q1007 R14/19//95=
201901151800 METAR LRIA 151800Z 28005KT CAVOK M02/M11 Q1007 R14/19//95=
201901151830 METAR LRIA 151830Z 28005KT CAVOK M02/M10 Q1007 R14/19//95=
201901151900 METAR LRIA 151900Z 27006KT CAVOK M02/M11 Q1008 R14/19//95=
201901151930 METAR LRIA 151930Z 25004KT CAVOK M03/M10 Q1008 R14/19//95=
201901152000 METAR LRIA 152000Z 24004KT CAVOK M04/M11 Q1008 R14/19//95=
201901152030 METAR LRIA 152030Z 24005KT CAVOK M04/M11 Q1007 R14/19//95=
201901152100 METAR LRIA 152100Z 26005KT CAVOK M04/M11 Q1007 R14/19//95=
201901152130 METAR LRIA 152130Z 26004KT CAVOK M05/M12 Q1007 R14/19//95=
201901152200 METAR LRIA 152200Z 25005KT CAVOK M04/M12 Q1007 R14/19//95=
201901152230 METAR LRIA 152230Z 23005KT CAVOK M04/M12 Q1007 R14/19//95=
201901152300 METAR LRIA 152300Z 24004KT 200V260 CAVOK M04/M12 Q1007 R14/19//95=
201901152330 METAR LRIA 152330Z 19004KT CAVOK M05/M12 Q1006 R14/19//95=
201901160000 METAR LRIA 160000Z 22004KT CAVOK M04/M12 Q1006 R14/19//95=
201901160030 METAR LRIA 160030Z 22005KT CAVOK M03/M12 Q1006 R14/19//95=
201901160100 METAR LRIA 160100Z 22005KT 190V260 CAVOK M03/M12 Q1006 R14/19//95=
201901160130 METAR LRIA 160130Z 22005KT CAVOK M03/M12 Q1005 R14/19//95=
201901160200 METAR LRIA 160200Z 22005KT CAVOK M03/M11 Q1005 R14/19//95=
201901160230 METAR LRIA 160230Z 22005KT CAVOK M02/M11 Q1004 R14/19//95=
201901160300 METAR LRIA 160300Z 22005KT CAVOK M02/M10 Q1004 R14/19//95=
201901160330 METAR LRIA 160330Z 22005KT CAVOK M01/M10 Q1004 R14/19//95=
201901160400 METAR LRIA 160400Z 21006KT 160V230 CAVOK M01/M09 Q1003 R14/19//95=
201901160430 METAR LRIA 160430Z 20005KT 9999 FEW049 M01/M09 Q1003 R14/19//95=
201901160500 METAR LRIA 160500Z 20005KT 180V240 9999 FEW024 SCT035 M01/M09
                        Q1003 R14/19//95=
201901160530 METAR LRIA 160530Z 21010KT 180V240 9999 FEW026 SCT040 M01/M09
                        Q1003 R14/19//95=
201901160600 METAR LRIA 160600Z 21007KT 180V240 9999 -SN SCT015 BKN045
                        M01/M09 Q1002 R14/19//95=
201901160630 METAR LRIA 160630Z 22009KT 190V250 9999 BKN021 BKN049 M00/M08
                        Q1002 R14/19//95=
201901160700 METAR LRIA 160700Z 22008KT 9999 SCT021 00/M08 Q1002 R14/19//95=
201901160730 METAR LRIA 160730Z 23010KT 9999 SCT021 BKN048 01/M07 Q1002
                        R14/19//95=
201901160800 METAR LRIA 160800Z 24005KT 9999 FEW021 BKN047 02/M06 Q1002
                        R14/19//95=
201901160830 METAR LRIA 160830Z AUTO 28008KT 9999 BKN043/// 04/M06 Q1003=
201901160900 METAR LRIA 160900Z 29017KT 260V320 9999 -RA FEW007 SCT020
                        BKN045 03/M03 Q1003 R14/19//95=
201901160930 METAR LRIA 160930Z 32009KT 9999 -RA FEW009 SCT021 BKN041
                        02/M02 Q1003 R14/19//95=
201901161000 METAR LRIA 161000Z 31013KT 9999 -SHRASN FEW019 FEW030CB BKN042
                        02/M01 Q1004 R14/19//95=
201901161030 METAR LRIA 161030Z 29016KT 9999 FEW020 SCT041 04/M01 Q1003
                        R14/19//95=
201901161100 METAR COR LRIA 161100Z 30017G28KT 9999 FEW021 05/M02 Q1003
                        R14/19//95=
201901161130 METAR LRIA 161130Z 32020KT 9999 SCT027 04/M02 Q1004 R14/19//95=
201901161200 METAR LRIA 161200Z 32019G32KT 9999 FEW025 03/M03 Q1005 R14/19//95=
201901161230 METAR LRIA 161230Z 32020KT 9999 FEW025 03/M03 Q1006 R14/19//95=
201901161300 METAR LRIA 161300Z 32017KT 9999 FEW025 03/M04 Q1007 R14/19//95=
201901161330 METAR LRIA 161330Z 33012KT 9999 FEW025 03/M04 Q1008 R14/19//95=
201901161400 METAR LRIA 161400Z 32012KT 9999 FEW025 02/M05 Q1008 R14/19//95=
201901161430 METAR LRIA 161430Z 34010KT 9999 FEW025 01/M04 Q1009 R14/19//95=
201901161500 METAR LRIA 161500Z 31004KT 9999 FEW025 01/M04 Q1010 R14/19//95=
201901161530 METAR LRIA 161530Z 34007KT 9999 FEW025 SCT042 00/M05 Q1011
                        R14/19//95=
201901161600 METAR LRIA 161600Z 29004KT 230V320 9999 FEW028 SCT037 BKN047
                        01/M05 Q1011 R14/19//95=
201901161630 METAR LRIA 161630Z 32004KT 9999 FEW028 SCT037 BKN047 00/M05
                        Q1011 R14/19//95=
201901161700 METAR LRIA 161700Z 35006KT 9999 FEW027 BKN045 M00/M05 Q1012
                        R14/19//95=
201901161730 METAR LRIA 161730Z 01007KT 9999 FEW044 M02/M06 Q1012 R14/19//95=
201901161800 METAR LRIA 161800Z 31004KT 9999 FEW039 M01/M05 Q1012 R14/19//95=
201901161830 METAR LRIA 161830Z 28004KT 9999 BKN044 M01/M05 Q1012 R14/19//95=
201901161900 METAR LRIA 161900Z 22003KT 9999 BKN031 BKN040 M01/M05 Q1013
                        R14/19//95=
201901161930 METAR LRIA 161930Z 26002KT 9999 -SN SCT031 BKN041 M00/M05
                        Q1013 R14/19//95=
201901162000 METAR COR LRIA 162000Z 22003KT 9999 FEW031 OVC041 M00/M05
                        Q1014 R14/19//95=
201901162030 METAR LRIA 162030Z 25003KT 210V270 9999 FEW031 OVC039 M00/M04
                        Q1014 R14/19//95=
201901162100 METAR LRIA 162100Z 00000KT 9999 OVC039 M00/M05 Q1014 R14/19//95=
201901162130 METAR LRIA 162130Z 22003KT 9999 OVC035 M00/M04 Q1014 R14/19//95=
201901162200 METAR LRIA 162200Z 21004KT 9999 OVC030 M00/M04 Q1014 R14/19//95=
201901162230 METAR LRIA 162230Z 22003KT 9999 OVC028 M00/M04 Q1014 R14/19//95=
201901162300 METAR LRIA 162300Z 20004KT 9999 -SN BKN021 BKN027 M00/M04
                        Q1014 R14/19//95=
201901162330 METAR COR LRIA 162330Z 19004KT 9999 FEW021 BKN034 M00/M04
                        Q1014 R14/19//95=
201901170000 METAR LRIA 170000Z AUTO 20004KT 9999 -SHSN SCT024/// BKN031///
                        M00/M03 Q1014=
201901170030 METAR COR LRIA 170030Z 20004KT 9999 BKN022 BKN028 M00/M03
                        Q1015 RESN R14/19//95=
201901170100 METAR LRIA 170100Z 21004KT 9999 BKN022 BKN028 00/M03 Q1015
                        R14/19//95=
201901170130 METAR COR LRIA 170130Z 16004KT 9999 FEW022 OVC036 00/M03
                        Q1015 R14/19//95=
201901170200 METAR COR LRIA 170200Z 13005KT CAVOK M01/M04 Q1014 R14/19//95=
201901170230 METAR COR LRIA 170230Z 11009KT 9999 SCT036 BKN061 M01/M04
                        Q1014 R14/19//95=
201901170300 METAR LRIA 170300Z AUTO 12008KT 9999 FEW040/// OVC061///
                        M02/M04 Q1014=
201901170330 METAR LRIA 170330Z 11009KT 9999 OVC061 M02/M04 Q1014 R14/19//95=
201901170400 METAR LRIA 170400Z 11007KT CAVOK M01/M04 Q1014 R14/19//95=
201901170430 METAR COR LRIA 170430Z 11006KT CAVOK M02/M05 Q1013 R14/19//95=
201901170500 METAR LRIA 170500Z 11007KT CAVOK M02/M05 Q1013 R14/19//95=
201901170530 METAR LRIA 170530Z 11010KT CAVOK M02/M06 Q1013 R14/19//95=
201901170600 METAR LRIA 170600Z 11010KT CAVOK M03/M06 Q1013 R14/19//95=
201901170630 METAR LRIA 170630Z 11010KT CAVOK M02/M06 Q1013 R14/19//95=
201901170700 METAR LRIA 170700Z 12009KT CAVOK M02/M06 Q1013 R14/19//95=
201901170730 METAR LRIA 170730Z 11009KT CAVOK M02/M06 Q1013 R14/19//95=
201901170800 METAR LRIA 170800Z 11007KT CAVOK M01/M05 Q1013 R14/19//95=
201901170830 METAR LRIA 170830Z 11008KT CAVOK M01/M05 Q1013 R14/19//95=
201901170900 METAR LRIA 170900Z 11010KT CAVOK M00/M04 Q1013 R14/19//95=
201901170930 METAR LRIA 170930Z 11010KT CAVOK 00/M04 Q1013 R14/19//95=
201901171000 METAR LRIA 171000Z 11011KT CAVOK 00/M04 Q1012 R14/19//95=
201901171030 METAR LRIA 171030Z 11011KT CAVOK 00/M04 Q1012 R14/19//95=
201901171100 METAR LRIA 171100Z 10012KT CAVOK 01/M04 Q1011 R14/19//95=
201901171130 METAR LRIA 171130Z 11011KT CAVOK 01/M03 Q1011 R14/19//95=
201901171200 METAR LRIA 171200Z 11010KT CAVOK 01/M03 Q1011 R14/19//95=
201901171230 METAR LRIA 171230Z 11010KT CAVOK 01/M03 Q1011 R14/19//95=
201901171300 METAR LRIA 171300Z 10010KT CAVOK 01/M03 Q1011 R14/19//95=
201901171330 METAR LRIA 171330Z 11010KT CAVOK 01/M03 Q1011 R14/19//95=
201901171400 METAR LRIA 171400Z 10010KT CAVOK 01/M03 Q1011 R14/19//95=
201901171430 METAR LRIA 171430Z 10011KT CAVOK 00/M03 Q1011 R14/19//95=
201901171500 METAR LRIA 171500Z 10011KT CAVOK M00/M03 Q1011 R14/19//95=
201901171530 METAR LRIA 171530Z 10011KT CAVOK M00/M03 Q1011 R14/19//95=
201901171600 METAR LRIA 171600Z 11012KT CAVOK M01/M03 Q1011 R14/19//95=
201901171630 METAR LRIA 171630Z 11010KT CAVOK M01/M03 Q1011 R14/19//95=
201901171700 METAR LRIA 171700Z 10010KT CAVOK M01/M03 Q1011 R14/19//95=
201901171730 METAR LRIA 171730Z 10007KT CAVOK M01/M04 Q1011 R14/19//95=
201901171800 METAR LRIA 171800Z 10008KT CAVOK M02/M04 Q1011 R14/19//95=
201901171830 METAR LRIA 171830Z 10008KT CAVOK M02/M04 Q1011 R14/19//95=
201901171900 METAR LRIA 171900Z 10010KT CAVOK M02/M04 Q1011 R14/19//95=
201901171930 METAR LRIA 171930Z 10010KT CAVOK M02/M05 Q1011 R14/19//95=
201901172000 METAR LRIA 172000Z 10009KT CAVOK M03/M05 Q1011 R14/19//95=
201901172030 METAR LRIA 172030Z 10010KT CAVOK M03/M05 Q1011 R14/19//95=
201901172100 METAR LRIA 172100Z 10010KT CAVOK M03/M05 Q1011 R14/19//95=
201901172130 METAR LRIA 172130Z 10009KT 8000 NSC M03/M05 Q1011 R14/19//95=
201901172200 METAR LRIA 172200Z 10010KT 7000 NSC M03/M05 Q1011 R14/19//95=
201901172230 METAR LRIA 172230Z 10009KT 7000 NSC M03/M05 Q1011 R14/19//95=
201901172300 METAR LRIA 172300Z 08007KT 9000 NSC M03/M05 Q1011 R14/19//95=
201901172330 METAR LRIA 172330Z 09007KT 8000 NSC M03/M05 Q1011 R14/19//95=
201901180000 METAR LRIA 180000Z 08008KT 8000 NSC M03/M05 Q1011 R14/19//95=
201901180030 METAR LRIA 180030Z 09008KT 8000 NSC M03/M05 Q1011 R14/19//95=
201901180100 METAR LRIA 180100Z 08008KT 6000 NSC M04/M06 Q1011 R14/19//95=
201901180130 METAR LRIA 180130Z 08008KT 7000 NSC M04/M06 Q1011 R14/19//95=
201901180200 METAR LRIA 180200Z 08008KT 7000 NSC M03/M05 Q1011 R14/19//95=
201901180230 METAR LRIA 180230Z 09008KT 7000 NSC M04/M06 Q1011 R14/19//95=
201901180300 METAR LRIA 180300Z 09008KT 7000 NSC M03/M05 Q1011 R14/19//95=
201901180330 METAR LRIA 180330Z 09008KT 7000 NSC M04/M06 Q1011 R14/19//95=
201901180400 METAR LRIA 180400Z 08008KT 7000 NSC M04/M06 Q1011 R14/19//95=
201901180430 METAR LRIA 180430Z 08008KT 7000 NSC M04/M06 Q1011 R14/19//95=
201901180500 METAR LRIA 180500Z 10009KT 6000 NSC M04/M06 Q1011 R14/19//95=
201901180530 METAR LRIA 180530Z 09009KT 9000 NSC M04/M06 Q1011 R14/19//95=
201901180600 METAR LRIA 180600Z 08009KT CAVOK M04/M06 Q1011 R14/19//95=
201901180630 METAR LRIA 180630Z 09010KT 9000 NSC M04/M06 Q1011 R14/19//95=
201901180700 METAR LRIA 180700Z 09010KT 7000 NSC M04/M06 Q1011 R14/19//95=
201901180730 METAR LRIA 180730Z 09010KT 6000 NSC M04/M06 Q1011 R14/19//95=
201901180800 METAR LRIA 180800Z 09009KT 7000 NSC M03/M06 Q1011 R14/19//95=
201901180830 METAR LRIA 180830Z 09008KT 9000 NSC M02/M05 Q1011 R14/19//95=
201901180900 METAR LRIA 180900Z 10008KT CAVOK M01/M05 Q1011 R14/19//95=
201901180930 METAR LRIA 180930Z 10009KT CAVOK M00/M04 Q1011 R14/19//95=
201901181000 METAR LRIA 181000Z 10009KT CAVOK 01/M04 Q1011 R14/19//95=
201901181030 METAR LRIA 181030Z 10010KT CAVOK 01/M03 Q1011 R14/19//95=
201901181100 METAR LRIA 181100Z 09008KT CAVOK 01/M03 Q1011 R14/19//95=
201901181130 METAR LRIA 181130Z 10010KT CAVOK 01/M03 Q1010 R14/19//95=
201901181200 METAR LRIA 181200Z 09009KT CAVOK 02/M03 Q1010 R14/19//95=
201901181230 METAR LRIA 181230Z 09009KT CAVOK 02/M03 Q1010 R14/19//95=
201901181300 METAR LRIA 181300Z 08009KT CAVOK 02/M03 Q1010 R14/19//95=
201901181330 METAR LRIA 181330Z 09011KT CAVOK 02/M03 Q1010 R14/19//95=
201901181400 METAR LRIA 181400Z 09010KT CAVOK 02/M03 Q1010 R14/19//95=
201901181430 METAR LRIA 181430Z 08008KT CAVOK 01/M03 Q1011 R14/19//95=
201901181500 METAR LRIA 181500Z 10010KT CAVOK 01/M04 Q1011 R14/19//95=
201901181530 METAR LRIA 181530Z 09010KT CAVOK 01/M03 Q1011 R14/19//95=
201901181600 METAR LRIA 181600Z 08008KT CAVOK 01/M03 Q1011 R14/19//95=
201901181630 METAR LRIA 181630Z 09011KT CAVOK 01/M03 Q1011 R14/19//95=
201901181700 METAR LRIA 181700Z 01007KT 340V040 CAVOK 01/M03 Q1012 R14/19//95=
201901181730 METAR LRIA 181730Z 09002KT 020V160 CAVOK 01/M03 Q1012 R14/19//95=
201901181800 METAR LRIA 181800Z 28005KT CAVOK 02/M03 Q1012 R14/19//95=
201901181830 METAR LRIA 181830Z 29005KT CAVOK 01/M03 Q1013 R14/19//95=
201901181900 METAR LRIA 181900Z 28006KT CAVOK 01/M03 Q1013 R14/19//95=
201901181930 METAR LRIA 181930Z 30006KT 9999 SCT032 01/M02 Q1014 R14/19//95=
201901182000 METAR LRIA 182000Z 30007KT 9999 BKN032 01/M02 Q1014 R14/19//95=
201901182030 METAR LRIA 182030Z 32011KT 9999 BKN022 OVC033 02/M01 Q1014
                        R14/19//95=
201901182100 METAR LRIA 182100Z 32011KT 9999 BKN019 OVC024 02/M01 Q1015
                        R14/19//95=
201901182130 METAR LRIA 182130Z 33011KT 9999 -RA FEW006 BKN008 OVC024
                        02/M01 Q1016 R14/19//95=
201901182200 METAR LRIA 182200Z 32011KT 6000 -RA SCT005 BKN007 BKN013
                        01/M01 Q1016 R14/19//95=
201901182230 METAR LRIA 182230Z 33012KT 9000 -RASN FEW004 BKN005 BKN010
                        01/M01 Q1016 R14/19//95=
201901182300 METAR LRIA 182300Z 32009KT 9999 -RASN FEW004 BKN006 BKN013
                        01/M01 Q1017 R14/29//95=
201901182330 METAR LRIA 182330Z 31009KT 9999 SCT006 BKN012 OVC040 01/M01
                        Q1017 R14/29//95=
201901190000 METAR LRIA 190000Z 32011KT 9999 SCT006 BKN009 OVC040 01/M01
                        Q1017 R14/29//95=
201901190030 METAR LRIA 190030Z 32011KT 9999 SCT007 BKN009 OVC042 01/M01
                        Q1018 R14/29//95=
201901190100 METAR LRIA 190100Z 32009KT 9999 SCT007 BKN009 BKN928 01/M01
                        Q1018 R14/29//95=
201901190130 METAR LRIA 190130Z 32009KT 9999 BKN007 01/M01 Q1018 R14/29//95=
201901190200 METAR LRIA 190200Z 31010KT 9999 SCT008 01/M02 Q1019 R14/29//95=
201901190230 METAR LRIA 190230Z 31008KT 9999 FEW010 01/M02 Q1019 R14/29//95=
201901190300 METAR LRIA 190300Z 32009KT CAVOK 01/M02 Q1019 R14/29//95=
201901190330 METAR LRIA 190330Z 32011KT CAVOK 01/M02 Q1020 R14/29//95=
201901190400 METAR LRIA 190400Z 32007KT 9999 FEW014 SCT033 00/M02 Q1020
                        R14/19//95=
201901190430 METAR LRIA 190430Z 31007KT 9999 FEW035 00/M02 Q1020 R14/19//95=
201901190500 METAR LRIA 190500Z 32008KT CAVOK M00/M03 Q1021 R14/19//95=
201901190530 METAR LRIA 190530Z 32007KT 9999 FEW012 M01/M03 Q1021 R14/19//95=
201901190600 METAR LRIA 190600Z 34008KT 9999 FEW010 M01/M04 Q1022 R14/19//95=
201901190630 METAR LRIA 190630Z 31005KT CAVOK M01/M04 Q1022 R14/19//95=
201901190700 METAR LRIA 190700Z 32004KT CAVOK M02/M04 Q1022 R14/19//95=
201901190730 METAR LRIA 190730Z 34007KT CAVOK M02/M04 Q1023 R14/19//95=
201901190800 METAR LRIA 190800Z 33006KT CAVOK M01/M04 Q1023 R14/19//95=
201901190830 METAR LRIA 190830Z 33006KT CAVOK M01/M04 Q1023 R14/19//95=
201901190900 METAR LRIA 190900Z 34009KT 9999 FEW012 M00/M04 Q1024 R14/19//95=
201901190930 METAR LRIA 190930Z 32005KT 9999 FEW012 00/M04 Q1024 R14/19//95=
201901191000 METAR LRIA 191000Z 32005KT 9999 FEW016 00/M04 Q1024 R14/19//95=
201901191030 METAR LRIA 191030Z 33005KT 9999 FEW017 01/M05 Q1024 R14/19//95=
201901191100 METAR LRIA 191100Z 36004KT 9999 FEW017 01/M05 Q1024 R14/19//95=
201901191130 METAR LRIA 191130Z 02004KT 9999 FEW020 01/M05 Q1023 R14/19//95=
201901191200 METAR LRIA 191200Z 33004KT 9999 FEW021 01/M05 Q1023 R14/19//95=
201901191230 METAR LRIA 191230Z 35005KT 9999 FEW021 01/M05 Q1024 R14/19//95=
201901191300 METAR LRIA 191300Z 36004KT 9999 FEW022 01/M05 Q1024 R14/19//95=
201901191330 METAR LRIA 191330Z 32003KT 9999 FEW022 01/M06 Q1024 R14/19//95=
201901191400 METAR LRIA 191400Z 31003KT 9999 FEW023 00/M06 Q1024 R14/19//95=
201901191430 METAR LRIA 191430Z 29003KT CAVOK M00/M06 Q1024 R14/19//95=
201901191500 METAR LRIA 191500Z 33003KT CAVOK M01/M06 Q1024 R14/19//95=
201901191530 METAR LRIA 191530Z 00000KT CAVOK M02/M06 Q1024 R14/19//95=
201901191600 METAR LRIA 191600Z 00000KT CAVOK M02/M06 Q1024 R14/19//95=
201901191630 METAR LRIA 191630Z 00000KT CAVOK M02/M06 Q1024 R14/19//95=
201901191700 METAR LRIA 191700Z 11003KT CAVOK M02/M06 Q1024 R14/19//95=
201901191730 METAR LRIA 191730Z 10003KT CAVOK M03/M07 Q1024 R14/19//95=
201901191800 METAR LRIA 191800Z 10003KT CAVOK M02/M06 Q1024 R14/19//95=
201901191830 METAR LRIA 191830Z 09005KT CAVOK M03/M07 Q1024 R14/19//95=
201901191900 METAR LRIA 191900Z 07005KT CAVOK M03/M06 Q1024 R14/19//95=
201901191930 METAR LRIA 191930Z 09006KT CAVOK M03/M06 Q1024 R14/19//95=
201901192000 METAR LRIA 192000Z 10006KT CAVOK M02/M06 Q1024 R14/19//95=
201901192030 METAR LRIA 192030Z 10006KT CAVOK M03/M06 Q1024 R14/19//95=
201901192100 METAR LRIA 192100Z 12005KT CAVOK M04/M07 Q1024 R14/19//95=
201901192130 METAR LRIA 192130Z 11006KT CAVOK M03/M06 Q1024 R14/19//95=
201901192200 METAR LRIA 192200Z 12008KT 9999 BKN043 M04/M07 Q1024 R14/19//95=
201901192230 METAR LRIA 192230Z 13006KT 9999 FEW039 M03/M07 Q1024 R14/19//95=
201901192300 METAR LRIA 192300Z 12008KT 9999 FEW044 M02/M07 Q1023 R14/19//95=
201901192330 METAR LRIA 192330Z 10006KT 9999 BKN043 M02/M08 Q1023 R14/19//95=
201901200000 METAR LRIA 200000Z 08004KT 9999 BKN043 M03/M07 Q1023 R14/19//95=
201901200030 METAR LRIA 200030Z 09006KT 9999 FEW048 M03/M08 Q1023 R14/19//95=
201901200100 METAR LRIA 200100Z 10008KT 9999 FEW048 M03/M08 Q1023 R14/19//95=
201901200130 METAR LRIA 200130Z 08009KT CAVOK M03/M08 Q1022 R14/19//95=
201901200200 METAR LRIA 200200Z 10010KT CAVOK M03/M08 Q1022 R14/19//95=
201901200230 METAR LRIA 200230Z 11010KT CAVOK M03/M08 Q1021 R14/19//95=
201901200300 METAR LRIA 200300Z 11010KT 9999 BKN035 M03/M08 Q1021 R14/19//95=
201901200330 METAR LRIA 200330Z 11013KT 9999 BKN033 M03/M08 Q1021 R14/19//95=
201901200400 METAR LRIA 200400Z 12012KT 9999 OVC029 M03/M08 Q1021 R14/19//95=
201901200430 METAR LRIA 200430Z 11011KT 9999 BKN022 M03/M07 Q1020 R14/19//95=
201901200500 METAR LRIA 200500Z 12011KT 9000 -SN FEW022 OVC029 M03/M07
                        Q1020 R14/19//95=
201901200530 METAR LRIA 200530Z 11012KT 9999 -SN FEW022 OVC029 M03/M06
                        Q1020 R14/19//95=
201901200600 METAR LRIA 200600Z 11014KT 9999 FEW019 OVC025 M03/M06 Q1020
                        RESN R14/19//95=
201901200630 METAR LRIA 200630Z 11013KT 9999 -SN BKN016 BKN021 M03/M06
                        Q1020 R14/19//95=
201901200700 METAR LRIA 200700Z 11012KT 9999 -SN OVC015 M03/M05 Q1019
                        R14/19//95=
201901200730 METAR LRIA 200730Z 11013KT 9999 -SN OVC013 M03/M05 Q1019
                        R14/19//95=
201901200800 METAR LRIA 200800Z 11012KT 9999 -SN BKN011 M03/M05 Q1019
                        R14/19//95=
201901200830 METAR LRIA 200830Z 11012KT 9999 OVC011 M02/M05 Q1019 RESN
                        R14/19//95=
201901200900 METAR LRIA 200900Z 11011KT 9999 OVC010 M02/M04 Q1019 R14/19//95=
201901200930 METAR LRIA 200930Z 10011KT 9999 OVC010 M02/M04 Q1019 R14/19//95=
201901201000 METAR LRIA 201000Z 11011KT 9999 -SN OVC009 M01/M04 Q1018
                        R14/19//95=
201901201030 METAR LRIA 201030Z 11010KT 9999 -SN OVC008 M01/M03 Q1018
                        R14/19//95=
201901201100 METAR LRIA 201100Z 11011KT 9999 -SN OVC008 M01/M03 Q1017
                        R14/19//95=
201901201130 METAR LRIA 201130Z 11013KT 9999 OVC008 M01/M03 Q1017 R14/19//95=
201901201200 METAR LRIA 201200Z 11013KT 8000 OVC007 M01/M02 Q1016 R14/19//95=
201901201230 METAR LRIA 201230Z 11014KT 5000 BR SCT007 OVC009 M01/M02
                        Q1016 R14/19//95=
201901201300 METAR COR LRIA 201300Z 10013KT 3000 BR VV002 M00/M02 Q1015
                        R14/19//95=
201901201330 METAR LRIA 201330Z 11012KT 1500 BR VV001 M00/M02 Q1015 R14/19//95=
201901201400 METAR LRIA 201400Z 11013KT 0800 R14/0900N R32/0800N FZFG
                        VV001 M00/M01 Q1015 R14/19//95=
201901201430 METAR LRIA 201430Z 11011KT 0150 R14/0750N R32/0700N FG VV001
                        00/M01 Q1015 R14/19//95=
201901201500 METAR LRIA 201500Z 11010KT 0300 R14/0900N R32/0600N FG VV001
                        00/M01 Q1014 R14/19//95=
201901201530 METAR LRIA 201530Z 11010KT 0250 R14/0900N R32/0700N -RA FG
                        VV001 00/M01 Q1014 R14/19//95=
201901201600 METAR COR LRIA 201600Z 11010KT 0200 R14/0650N R32/0650N FG
                        VV001 00/M01 Q1014 R14/29//95=
201901201630 METAR COR LRIA 201630Z 11008KT 0150 R14/0550N R32/0550N FG
                        VV001 00/M01 Q1014 R14/29//95=
201901201700 METAR LRIA 201700Z 11007KT 0150 R14/0550N R32/0500N FG VV001
                        00/M01 Q1014 R14/29//95=
201901201730 METAR LRIA 201730Z 11007KT 0150 R14/0450N R32/0500N -RA FG
                        VV001 01/M01 Q1014 R14/29//95=
201901201800 METAR LRIA 201800Z 11006KT 0200 R14/0550N R32/0450N -RA FG
                        VV001 01/M01 Q1014 R14/29//95=
201901201830 METAR LRIA 201830Z 10005KT 0250 R14/0550N R32/0450N -RA FG
                        VV001 01/M01 Q1014 R14/29//95=
201901201900 METAR LRIA 201900Z 09003KT 0450 R14/0800N R32/0550N -RA FG
                        VV001 01/M01 Q1014 R14/29//95=
201901201930 METAR LRIA 201930Z 00000KT 0800 R14/1000N R32/0750N -RA FG
                        VV001 01/M01 Q1014 R14/29//95=
201901202000 METAR COR LRIA 202000Z 32006KT 1800 -SNRA BR BKN003 OVC009
                        00/M01 Q1014 R14/29//95=
201901202030 METAR LRIA 202030Z 33006KT 2300 -SN BR BKN004 OVC009 M00/M01
                        Q1014 R14/29//95=
201901202100 METAR LRIA 202100Z 32008KT 2900 -SN BR BKN001 OVC002 M00/M01
                        Q1014 R14/29//95=
201901202130 METAR LRIA 202130Z 32010KT 3400 -SN BR BKN001 OVC002 M01/M02
                        Q1014 R14/29//95=
201901202200 METAR LRIA 202200Z 31010KT 2900 -SN BR BKN001 OVC004 M01/M02
                        Q1014 R14/29//95=
201901202230 METAR LRIA 202230Z 31011KT 2700 -SN BR BKN003 OVC004 M01/M02
                        Q1014 R14/29//95=
201901202300 METAR LRIA 202300Z 31011KT 3400 -SN BR OVC003 M01/M03 Q1014
                        R14/29//95=
201901202330 METAR LRIA 202330Z 32011KT 3100 -SN BR OVC003 M02/M03 Q1014
                        R14/29//95=
201901210000 METAR LRIA 210000Z 32010KT 3000 -SN BR OVC003 M02/M03 Q1015
                        R14/29//95=
201901210030 METAR LRIA 210030Z 32012KT 3000 -SN BR OVC005 M02/M03 Q1015
                        R14/29//95=
201901210100 METAR LRIA 210100Z 32011KT 3200 R14/2000 R32/P2000-SN BR
                        OVC005 M02/M03 Q1015 R14/29//95=
201901210130 METAR LRIA 210130Z 32011KT 3300 -SN BR OVC004 M02/M04 Q1016
                        R14/29//95=
201901210200 METAR LRIA 210200Z 32011KT 3400 -SN BR OVC004 M02/M04 Q1016
                        R14/29//95=
201901210230 METAR LRIA 210230Z 32010KT 4200 -SN BR BKN005 OVC009 M02/M04
                        Q1016 R14/29//95=
201901210300 METAR LRIA 210300Z 32011KT 5000 -SN BR BKN005 BKN010 OVC026
                        M02/M04 Q1016 R14/29//95=
201901210330 METAR LRIA 210330Z 32010KT 5000 -SN BR BKN005 OVC009 M03/M05
                        Q1017 R14/29//95=
201901210400 METAR LRIA 210400Z 32010KT 3400 -SN BR OVC007 M03/M05 Q1017
                        R14/29//95=
201901210430 METAR COR LRIA 210430Z 33010KT 3500 -SN BR BKN007 OVC024
                        M03/M05 Q1018 R14/890294=
201901210500 METAR LRIA 210500Z 32009KT 2600 -SN BR OVC006 M03/M04 Q1018
                        R14/890294=
201901210530 METAR LRIA 210530Z 32009KT 3100 -SN BR OVC006 M03/M04 Q1018
                        R14/890294=
201901210600 METAR LRIA 210600Z 32010KT 8000 -SN SCT007 OVC016 M02/M05
                        Q1019 R14/890294=
201901210630 METAR LRIA 210630Z 33010KT 9999 OVC019 M02/M06 Q1019 R14/890294=
201901210700 METAR COR LRIA 210700Z 32010KT 9999 OVC019 M02/M06 Q1020
                        R14/89//95=
201901210730 METAR LRIA 210730Z 33010KT 9999 OVC017 M02/M06 Q1020 R14/89//95=
201901210800 METAR LRIA 210800Z 33011KT 9999 -SN SCT017 OVC022 M02/M05
                        Q1020 R14/89//95=
201901210830 METAR LRIA 210830Z 33011KT 8000 -SN FEW010 OVC023 M02/M05
                        Q1021 R14/89//95=
201901210900 METAR LRIA 210900Z 34011KT 9999 OVC020 M02/M05 Q1021 R14/89//95=
201901210930 METAR LRIA 210930Z 32010KT 9999 SCT016 OVC020 M02/M06 Q1021
                        R14/89//95=
201901211000 METAR LRIA 211000Z 32010KT 9999 OVC019 M02/M06 Q1021 R14/89//95=
201901211030 METAR LRIA 211030Z 33010KT 9999 OVC019 M02/M07 Q1021 R14/89//95=
201901211100 METAR LRIA 211100Z 33009KT 9999 OVC020 M02/M07 Q1022 R14/89//95=
201901211130 METAR LRIA 211130Z 34009KT 9999 OVC018 M02/M07 Q1022 R14/89//95=
201901211200 METAR LRIA 211200Z 34011KT 9999 OVC018 M02/M08 Q1022 R14/89//95=
201901211230 METAR LRIA 211230Z 34013KT 9999 OVC021 M02/M08 Q1022 R14/89//95=
201901211300 METAR LRIA 211300Z 34010KT 9999 OVC021 M03/M07 Q1022 R14/89//95=
201901211330 METAR LRIA 211330Z 33007KT 9999 OVC023 M02/M07 Q1022 R14/89//95=
201901211400 METAR LRIA 211400Z 33007KT 9999 OVC025 M03/M07 Q1022 R14/89//95=
201901211430 METAR LRIA 211430Z 31005KT 9999 BKN025 M03/M07 Q1022 R14/89//95=
201901211500 METAR LRIA 211500Z 31005KT 9999 BKN024 M03/M07 Q1022 R14/89//95=
201901211530 METAR COR LRIA 211530Z 30006KT 9999 BKN024 M03/M07 Q1023
                        R14/19//95=
201901211600 METAR LRIA 211600Z 32005KT 9999 OVC027 M03/M07 Q1023 R14/19//95=
201901211630 METAR LRIA 211630Z 30006KT 9999 OVC028 M03/M08 Q1023 R14/19//95=
201901211700 METAR LRIA 211700Z 30004KT 9999 OVC027 M03/M07 Q1023 R14/19//95=
201901211730 METAR LRIA 211730Z 32005KT 9999 OVC026 M03/M07 Q1023 R14/19//95=
201901211800 METAR LRIA 211800Z 33004KT 9999 OVC025 M03/M07 Q1023 R14/19//95=
201901211830 METAR LRIA 211830Z 32003KT 9999 OVC024 M03/M07 Q1023 R14/19//95=
201901211900 METAR LRIA 211900Z 32003KT 280V340 9999 OVC023 M03/M07 Q1023
                        R14/19//95=
201901211930 METAR LRIA 211930Z 35004KT 300V020 9999 OVC022 M03/M08 Q1023
                        R14/19//95=
201901212000 METAR LRIA 212000Z 35002KT 9999 OVC022 M03/M08 Q1023 R14/19//95=
201901212030 METAR LRIA 212030Z 34003KT 300V010 9999 OVC022 M03/M08 Q1024
                        R14/19//95=
201901212100 METAR LRIA 212100Z 34003KT 320V040 9999 OVC022 M03/M08 Q1024
                        R14/19//95=
201901212130 METAR LRIA 212130Z 00000KT 9999 OVC023 M03/M08 Q1024 R14/19//95=
201901212200 METAR LRIA 212200Z 00000KT 9999 OVC023 M03/M08 Q1024 R14/19//95=
201901212230 METAR LRIA 212230Z 35002KT 330V040 9999 OVC023 M03/M09 Q1024
                        R14/19//95=
201901212300 METAR LRIA 212300Z VRB01KT 9999 OVC023 M03/M09 Q1023 R14/19//95=
201901212330 METAR COR LRIA 212330Z 00000KT 9999 OVC024 M03/M09 Q1023
                        R14/19//95=
201901220000 METAR LRIA 220000Z 00000KT 9999 OVC023 M03/M08 Q1023 R14/19//95=
201901220030 METAR COR LRIA 220030Z 00000KT CAVOK M03/M09 Q1023 R14/19//95=
201901220100 METAR LRIA 220100Z 00000KT 9999 OVC024 M03/M09 Q1023 R14/19//95=
201901220130 METAR LRIA 220130Z AUTO 12002KT 9999 OVC024/// M03/M08 Q1022=
201901220200 METAR COR LRIA 220200Z 13003KT 9999 OVC024 M04/M08 Q1022
                        R14/19//95=
201901220230 METAR LRIA 220230Z AUTO 14004KT 9999 OVC023/// M04/M07 Q1022=
201901220300 METAR LRIA 220300Z 14003KT 9999 OVC023 M04/M07 Q1022 R14/19//95=
201901220330 METAR LRIA 220330Z 13004KT 9999 OVC023 M04/M07 Q1022 R14/19//95=
201901220400 METAR LRIA 220400Z 13004KT 9999 OVC023 M04/M08 Q1022 R14/19//95=
201901220430 METAR COR LRIA 220430Z 13004KT 9999 OVC021 M04/M08 Q1022
                        R14/19//95=
201901220500 METAR LRIA 220500Z 13005KT 9999 OVC022 M04/M07 Q1022 R14/19//95=
201901220530 METAR LRIA 220530Z 12005KT 9999 OVC025 M04/M08 Q1021 R14/19//95=
201901220600 METAR LRIA 220600Z 12006KT 9999 BKN024 M04/M08 Q1021 R14/19//95=
201901220630 METAR LRIA 220630Z 12006KT 9999 OVC024 M04/M08 Q1021 R14/19//95=
201901220700 METAR LRIA 220700Z 12006KT 9999 OVC023 M04/M08 Q1021 R14/19//95=
201901220730 METAR LRIA 220730Z 13008KT 9999 OVC023 M04/M08 Q1021 R14/19//95=
201901220800 METAR LRIA 220800Z 11008KT 9999 OVC023 M04/M07 Q1021 R14/19//95=
201901220830 METAR LRIA 220830Z 11010KT 9999 OVC021 M04/M07 Q1021 R14/19//95=
201901220900 METAR LRIA 220900Z 13007KT 9999 FEW015 BKN024 M03/M07 Q1021
                        R14/19//95=
201901220930 METAR LRIA 220930Z 15010KT 9999 FEW018 BKN024 M03/M08 Q1020
                        R14/19//95=
201901221000 METAR LRIA 221000Z 14014KT 9999 FEW018 BKN030 M03/M08 Q1020
                        R14/19//95=
201901221030 METAR COR LRIA 221030Z 13013KT 9999 -SN FEW018 SCT025 OVC035
                        M03/M08 Q1020 R14/19//95=
201901221100 METAR LRIA 221100Z 12013KT 2500 -SN BR FEW009 SCT018 OVC025
                        M04/M07 Q1019 R14/19//95=
201901221130 METAR LRIA 221130Z 11014KT 4300 -SN BR FEW010 SCT017 OVC030
                        M04/M07 Q1019 R14/19//95=
201901221200 METAR LRIA 221200Z 11016KT 5000 -SN DRSN BR FEW018 BKN024
                        OVC037 M04/M07 Q1018 R14/19//95=
201901221230 METAR COR LRIA 221230Z 12017KT 5000 -SN DRSN BR FEW014 SCT040
                        M04/M07 Q1018 R14/19//95=
201901221300 METAR LRIA 221300Z 11016KT 4000 -SN DRSN BR FEW019 SCT025
                        OVC031 M04/M07 Q1018 R14/19//95=
201901221330 METAR LRIA 221330Z 12015KT 3900 -SN DRSN BR FEW017 SCT022
                        OVC035 M04/M06 Q1017 R14/19//95=
201901221400 METAR LRIA 221400Z 11015KT 2800 -SN DRSN BR SCT018 OVC030
                        M04/M06 Q1017 R14/590394=
201901221430 METAR LRIA 221430Z 11013KT 3000 -SN DRSN BR FEW007 SCT025
                        OVC035 M04/M06 Q1017 R14/590394=
201901221500 METAR COR LRIA 221500Z 11011KT 5000 -SN DRSN BR FEW006 BKN026
                        OVC038 M04/M06 Q1016 R14/590394=
201901221530 METAR LRIA 221530Z 11011KT 2000 -SN DRSN BR FEW005 SCT021
                        OVC033 M04/M06 Q1016 R14/590394=
201901221600 METAR LRIA 221600Z 10011KT 2000 SN DRSN BR BKN006 OVC026
                        M04/M06 Q1016 R14/590394=
201901221630 METAR LRIA 221630Z 11011KT 1600 -SN DRSN BR BKN006 OVC028
                        M04/M06 Q1016 R14/590394=
201901221700 METAR LRIA 221700Z 10010KT 1500 -SN DRSN BR BKN005 OVC028
                        M04/M06 Q1015 R14/590394=
201901221730 METAR COR LRIA 221730Z 11013KT 1800 -SN DRSN BR BKN009 OVC025
                        M04/M06 Q1015 R14/890593=
201901221800 METAR LRIA 221800Z 11012KT 1800 SN DRSN BR BKN007 OVC025
                        M04/M06 Q1014 R14/890593=
201901221830 METAR LRIA 221830Z 11013KT 2500 SN DRSN BR BKN006 OVC020
                        M04/M06 Q1014 R14/890593=
201901221900 METAR LRIA 221900Z 11014KT 2000 SN DRSN BR BKN006 OVC027
                        M04/M06 Q1014 R14/890593=
201901221930 METAR LRIA 221930Z 11014KT 2500 SN DRSN BR BKN005 OVC027
                        M04/M06 Q1013 R14/890593=
201901222000 METAR LRIA 222000Z 11013KT 3000 SN DRSN BR BKN004 OVC027
                        M04/M05 Q1013 R14/890593=
201901222030 METAR LRIA 222030Z 11014KT 2000 SN DRSN BR BKN004 OVC027
                        M04/M05 Q1012 R14/890593=
201901222100 METAR LRIA 222100Z 11013KT 2500 SN DRSN BR BKN004 OVC027
                        M03/M05 Q1012 R14/890593=
201901222130 METAR LRIA 222130Z 11013KT 2500 SN DRSN BR BKN003 OVC025
                        M03/M05 Q1011 R14/890593=
201901222200 METAR LRIA 222200Z 11013KT 2500 SN DRSN BR SCT003 SCT012
                        OVC020 M03/M05 Q1011 R14/890593=
201901222230 METAR LRIA 222230Z 11013KT 2500 SN DRSN BR SCT003 OVC020
                        M03/M04 Q1010 R14/890593=
201901222300 METAR LRIA 222300Z 11014KT 2000 SN DRSN BR SCT003 OVC020
                        M03/M04 Q1010 R14/890593=
201901222330 METAR LRIA 222330Z 11013KT 2000 SN DRSN BR OVC015 M02/M04
                        Q1009 R14/890593=
201901230000 METAR LRIA 230000Z 11013KT 2000 SN DRSN BR OVC017 M02/M04
                        Q1009 R14/890593=
201901230030 METAR LRIA 230030Z 11013KT 1800 SN DRSN BR SCT002 OVC015
                        M02/M03 Q1008 R14/890593=
201901230100 METAR LRIA 230100Z 11014KT 1800 SN DRSN BR SCT002 OVC015
                        M02/M03 Q1008 R14/890593=
201901230130 METAR LRIA 230130Z 11014KT 1800 SN DRSN BR VV002 M01/M03
                        Q1007 R14/890593=
201901230200 METAR LRIA 230200Z 11014KT 2000 SN DRSN BR VV002 M01/M02
                        Q1006 R14/890593=
201901230230 METAR LRIA 230230Z 11013KT 1800 SN DRSN BR VV002 M01/M02
                        Q1006 R14/890593=
201901230300 METAR LRIA 230300Z 11012KT 2500 -SN DRSN BR OVC012 M00/M02
                        Q1006 RESN R14/890593=
201901230330 METAR LRIA 230330Z 11012KT 2000 -SN BR OVC011 M00/M01 Q1005
                        R14/890593=
201901230400 METAR LRIA 230400Z 11011KT 4000 -SN BR SCT003 OVC012 00/M01
                        Q1005 R14/950393=
201901230430 METAR LRIA 230430Z 11010KT 5000 -SN BR FEW003 BKN009 00/M01
                        Q1005 R14/950393=
201901230500 METAR LRIA 230500Z 11009KT 4000 SN BR FEW002 BKN009 00/M01
                        Q1004 R14/950393=
201901230530 METAR LRIA 230530Z 12011KT 4000 -SNRA BR OVC009 00/M01 Q1004
                        RESN R14/950393=
201901230600 METAR LRIA 230600Z 11010KT 2000 -SNRA BR FEW006 OVC009 00/M01
                        Q1004 R14/950393=
201901230630 METAR LRIA 230630Z 13009KT 3000 0800NW R14/1300D R32/P2000
                        -SNRA BCFG FEW005 OVC006 01/M01 Q1004
                        R14/690393=
201901230700 METAR LRIA 230700Z 23005KT 160V260 0800 R14/1200U R32/1800D
                        SN BR VV001 M00/M02 Q1004 R14/690393=
201901230730 METAR LRIA 230730Z 26006KT 3000 -SN BR FEW001 OVC004 M02/M03
                        Q1004 R14/690393=
201901230800 METAR LRIA 230800Z 26005KT 3000 -SN BR FEW002 OVC004 M02/M03
                        Q1004 R14/690393=
201901230830 METAR LRIA 230830Z 25007KT 2500 -SN BR FEW001 OVC006 M02/M03
                        Q1004 R14/690395=
201901230900 METAR LRIA 230900Z 26008KT 2000 0800NW R14/1600D R32/1800D
                        -SG BR FEW001 OVC003 M02/M03 Q1004
                        R14/690395=
201901230930 METAR LRIA 230930Z 27005KT 240V300 1000 0700NW R14/1500N
                        R32/1300U -SG BR SCT001 OVC003 M02/M03
                        Q1004 R14/690395=
201901231000 METAR LRIA 231000Z 28006KT 1500 0800NW R14/1600N R32/1500N
                        -SN BR SCT001 OVC002 M02/M04 Q1004
                        R14/690395=
201901231030 METAR COR LRIA 231030Z 26007KT 1500 0800NW R14/1800N R32/1700U
                        -SN BR SCT001 OVC002 M03/M04 Q1003
                        R14/29//95=
201901231100 METAR LRIA 231100Z 27007KT 1500 0800NW R14/1700N R32/1800N
                        BR SCT001 OVC002 M02/M04 Q1003 R14/29//95=
201901231130 METAR LRIA 231130Z 29007KT 1500 0800NW R14/P2000 R32/1800N
                        BR SCT001 OVC003 M02/M04 Q1003 R14/29//95=
201901231200 METAR LRIA 231200Z 28007KT 260V320 2500 BR FEW001 OVC002
                        M03/M04 Q1003 R14/29//95=
201901231230 METAR LRIA 231230Z 29007KT 3000 BR FEW002 OVC003 M03/M04
                        Q1003 R14/29//95=
201901231300 METAR LRIA 231300Z 28008KT 6000 FEW004 OVC006 M03/M04 Q1004
                        R14/29//95=
201901231330 METAR LRIA 231330Z 30008KT 8000 OVC006 M03/M05 Q1003 R14/29//95=
201901231400 METAR LRIA 231400Z 30008KT 8000 OVC008 M03/M05 Q1004 R14/29//95=
201901231430 METAR LRIA 231430Z 30006KT 8000 OVC008 M03/M05 Q1004 R14/29//95=
201901231500 METAR LRIA 231500Z 29007KT 250V320 9999 SCT006 OVC009 M03/M05
                        Q1004 R14/29//95=
201901231530 METAR LRIA 231530Z 31008KT 9999 FEW007 OVC013 M03/M06 Q1004
                        R14/29//95=
201901231600 METAR LRIA 231600Z 30008KT 9999 FEW008 OVC014 M03/M06 Q1005
                        R14/29//95=
201901231630 METAR LRIA 231630Z 30006KT 9999 FEW011 OVC015 M04/M06 Q1005
                        R14/29//95=
201901231700 METAR LRIA 231700Z 31008KT 9999 OVC015 M04/M07 Q1005 R14/29//95=
201901231730 METAR LRIA 231730Z 31006KT 9999 OVC015 M04/M07 Q1005 R14/29//95=
201901231800 METAR LRIA 231800Z 30006KT 9999 OVC014 M04/M07 Q1006 R14/29//95=
201901231830 METAR LRIA 231830Z 28005KT 260V320 9999 OVC013 M05/M07 Q1005
                        R14/29//95=
201901231900 METAR LRIA 231900Z 29007KT 9999 SCT014 M06/M08 Q1006 R14/29//95=
201901231930 METAR LRIA 231930Z 26006KT 9999 FEW014 M06/M08 Q1006 R14/29//95=
201901232000 METAR LRIA 232000Z 28006KT 9999 FEW015 M06/M09 Q1006 R14/29//95=
201901232030 METAR LRIA 232030Z 28005KT 9999 FEW012 M06/M08 Q1006 R14/29//95=
201901232100 METAR LRIA 232100Z 31006KT 9999 BKN011 M06/M08 Q1006 R14/29//95=
201901232130 METAR LRIA 232130Z 31007KT 9999 BKN011 M06/M08 Q1007 R14/29//95=
201901232200 METAR LRIA 232200Z 28004KT 9000 OVC011 M06/M08 Q1007 R14/29//95=
201901232230 METAR LRIA 232230Z 30004KT 8000 OVC010 M06/M08 Q1007 R14/29//95=
201901232300 METAR LRIA 232300Z 30005KT 8000 OVC010 M06/M08 Q1007 R14/29//95=
201901232330 METAR COR LRIA 232330Z 29005KT 9999 FEW008 BKN009 M06/M08
                        Q1007 R14/29//95=
201901240000 METAR LRIA 240000Z 30005KT 9000 FEW006 SCT008 OVC012 M06/M09
                        Q1007 R14/29//95=
201901240030 METAR LRIA 240030Z 33007KT 9999 BKN006 OVC012 M07/M09 Q1007
                        R14/29//95=
201901240100 METAR LRIA 240100Z 27005KT 8000 OVC007 M07/M09 Q1008 R14/29//95=
201901240130 METAR LRIA 240130Z 29007KT 8000 OVC006 M07/M09 Q1008 R14/29//95=
201901240200 METAR LRIA 240200Z 29005KT 240V310 9000 FEW005 BKN009 M07/M09
                        Q1007 R14/29//95=
201901240230 METAR LRIA 240230Z 27005KT 8000 -SN FEW006 BKN009 M07/M10
                        Q1008 R14/29//95=
201901240300 METAR LRIA 240300Z 32009KT 8000 -SN FEW008 SCT009 M07/M10
                        Q1007 R14/29//95=
201901240330 METAR LRIA 240330Z 32009KT 7000 -SN BKN011 M07/M10 Q1008
                        R14/29//95=
201901240400 METAR COR LRIA 240400Z 32008KT 8000 -SN BKN011 M07/M10 Q1008
                        R14/490195=
201901240430 METAR LRIA 240430Z 32009KT 7000 -SN SCT011 BKN044 M07/M10
                        Q1008 R14/490195=
201901240500 METAR LRIA 240500Z 33006KT 4500 -SN BR FEW011 SCT015 M07/M09
                        Q1008 R14/490394=
201901240530 METAR LRIA 240530Z 33007KT 3500 -SN BR FEW009 SCT021 BKN034
                        M07/M09 Q1009 R14/490394=
201901240600 METAR LRIA 240600Z 32007KT 2000 -SG BR BKN010 OVC026 M07/M09
                        Q1009 R14/490394=
201901240630 METAR LRIA 240630Z 31008KT 2000 -SG BR BKN010 OVC024 M07/M09
                        Q1009 R14/490394=
201901240700 METAR LRIA 240700Z 32009KT 3000 -SG BR BKN013 OVC022 M07/M09
                        Q1009 R14/890394=
201901240730 METAR LRIA 240730Z 32009KT 1500 0800NW R14/1700D R32/1600D
                        SN BR SCT018 OVC024 M07/M09 Q1009
                        R14/890394=
201901240800 METAR COR LRIA 240800Z 32008KT 0800 R14/1300D R32/1100D +SN
                        BR VV010 M07/M09 Q1010 R14/890394=
201901240830 METAR LRIA 240830Z 33011KT 2000 SN BR OVC028 M07/M09 Q1010
                        R14/890394=
201901240900 METAR LRIA 240900Z 33010KT 2000 -SN BR OVC024 M07/M09 Q1010
                        RESN R14/890394=
201901240930 METAR LRIA 240930Z 34011KT 2000 -SN BR OVC024 M06/M09 Q1010
                        R14/890394=
201901241000 METAR LRIA 241000Z 34012KT 1500 R14/1800N R32/1700N SN BR
                        OVC024 M06/M09 Q1010 R14/890394=
201901241030 METAR LRIA 241030Z 33010KT 2000 -SN BR OVC022 M06/M09 Q1010
                        R14/890394=
201901241100 METAR LRIA 241100Z 33011KT 2000 -SN BR OVC021 M06/M08 Q1009
                        R14/890394=
201901241130 METAR LRIA 241130Z 33008KT 2500 -SN BR OVC020 M06/M08 Q1010
                        R14/890394=
201901241200 METAR LRIA 241200Z 33008KT 2100 -SN BR SCT005 OVC021 M06/M08
                        Q1010 R14/890394=
201901241230 METAR LRIA 241230Z 33009KT 2000 -SN BR SCT006 OVC022 M06/M08
                        Q1009 R14/890394=
201901241300 METAR LRIA 241300Z 33009KT 3000 -SN BR OVC021 M06/M08 Q1010
                        R14/890394=
201901241330 METAR LRIA 241330Z 33009KT 3000 -SN BR OVC021 M06/M08 Q1010
                        R14/890394=
201901241400 METAR LRIA 241400Z 33009KT 3500 -SN OVC021 M06/M08 Q1010
                        R14/890394=
201901241430 METAR LRIA 241430Z 33009KT 4000 -SN BR OVC019 M06/M08 Q1010
                        R14/890394=
201901241500 METAR LRIA 241500Z 34010KT 4000 -SN BR OVC020 M06/M08 Q1010
                        R14/890394=
201901241530 METAR LRIA 241530Z 33009KT 6000 -SN OVC020 M06/M08 Q1010
                        R14/890394=
201901241600 METAR LRIA 241600Z 33009KT 8000 -SN OVC019 M05/M08 Q1010
                        R14/890394=
201901241630 METAR LRIA 241630Z 33009KT 9999 -SN OVC019 M05/M08 Q1010
                        R14/890394=
201901241700 METAR LRIA 241700Z 34011KT 9999 -SN OVC021 M05/M08 Q1010
                        R14/890394=
201901241730 METAR LRIA 241730Z 34012KT 7000 -SN BKN020 BKN026 M05/M08
                        Q1010 R14/890394=
201901241800 METAR LRIA 241800Z 34011KT 6000 -SN BKN020 OVC026 M05/M08
                        Q1011 R14/890394=
201901241830 METAR LRIA 241830Z 34012KT 3500 -SN BR BKN019 OVC025 M05/M08
                        Q1011 R14/890394=
201901241900 METAR LRIA 241900Z 34010KT 5000 -SN BR BKN020 OVC026 M05/M08
                        Q1011 R14/890394=
201901241930 METAR LRIA 241930Z 34013KT 6000 -SN SCT018 OVC024 M05/M08
                        Q1011 R14/890394=
201901242000 METAR LRIA 242000Z 34012KT 6000 -SN SCT018 OVC025 M06/M08
                        Q1011 R14/890394=
201901242030 METAR LRIA 242030Z 34012KT 6000 -SN OVC021 M06/M08 Q1012
                        R14/890394=
201901242100 METAR LRIA 242100Z 33009KT 7000 -SN OVC019 M06/M08 Q1012
                        R14/890394=
201901242130 METAR LRIA 242130Z 32007KT 7000 -SN FEW007 OVC019 M06/M08
                        Q1012 R14/890394=
201901242200 METAR LRIA 242200Z 33009KT 6000 -SN BKN021 OVC027 M06/M08
                        Q1012 R14/890394=
201901242230 METAR LRIA 242230Z 35010KT 9000 -SN OVC024 M05/M08 Q1012
                        R14/890394=
201901242300 METAR LRIA 242300Z 36010KT 9000 -SN OVC023 M05/M08 Q1012
                        R14/890394=
201901242330 METAR LRIA 242330Z 01011KT 9999 -SN OVC023 M05/M08 Q1012
                        R14/890394=
201901250000 METAR LRIA 250000Z 36010KT 9999 -SN OVC021 M05/M08 Q1012
                        R14/890394=
201901250030 METAR LRIA 250030Z 36010KT 9999 OVC020 M05/M08 Q1013 R14/890394=
201901250100 METAR LRIA 250100Z 34007KT 9999 -SN OVC019 M06/M08 Q1013
                        R14/890394=
201901250130 METAR LRIA 250130Z 34009KT 9999 -SN OVC019 M06/M08 Q1013
                        R14/890394=
201901250200 METAR LRIA 250200Z 35008KT 9999 OVC019 M05/M08 Q1012 R14/890394=
201901250230 METAR LRIA 250230Z 36009KT 9999 OVC019 M06/M08 Q1012 R14/890394=
201901250300 METAR LRIA 250300Z 03010KT 9999 OVC018 M06/M09 Q1012 R14/890394=
201901250330 METAR LRIA 250330Z 04011KT 9999 OVC017 M06/M09 Q1012 R14/890394=
201901250400 METAR LRIA 250400Z 03009KT 9999 OVC018 M06/M09 Q1012 R14/890394=
201901250430 METAR LRIA 250430Z 04009KT 9999 -FZRA OVC017 M06/M09 Q1013
                        R14/890394=
201901250500 METAR LRIA 250500Z 04008KT 9999 -FZRA OVC017 M06/M09 Q1012
                        R14/890394=
201901250530 METAR LRIA 250530Z 04007KT 9999 -FZRA OVC017 M06/M09 Q1013
                        R14/890394=
201901250600 METAR COR LRIA 250600Z 04006KT 9999 OVC015 M06/M09 Q1013
                        REFZRA R14/950394=
201901250630 METAR LRIA 250630Z 03006KT 9999 OVC014 M06/M09 Q1013 R14/950394=
201901250700 METAR LRIA 250700Z 02004KT 9999 OVC014 M06/M09 Q1013 R14/950394=
201901250730 METAR COR LRIA 250730Z 03003KT 350V070 9000 -FZDZ OVC013
                        M06/M09 Q1013 R14/950394=
201901250800 METAR LRIA 250800Z 04005KT 8000 -FZDZ OVC010 M06/M09 Q1013
                        R14/950394=
201901250830 METAR LRIA 250830Z 05005KT 9999 OVC010 M06/M09 Q1014 REFZDZ
                        R14/950394=
201901250900 METAR LRIA 250900Z 06006KT 9000 OVC009 M06/M09 Q1014 R14/950394=
201901250930 METAR LRIA 250930Z 07006KT 6000 OVC006 M06/M08 Q1013 R14/950394=
201901251000 METAR LRIA 251000Z 07008KT 6000 OVC004 M06/M08 Q1013 R14/950394=
201901251030 METAR LRIA 251030Z 14003KT 100V170 5000 BR OVC004 M06/M08
                        Q1013 R14/950394=
201901251100 METAR LRIA 251100Z 10003KT 5000 BR OVC004 M06/M08 Q1013 R14/950394=
201901251130 METAR LRIA 251130Z 09005KT 5000 BR OVC004 M06/M07 Q1013 R14/950394=
201901251200 METAR LRIA 251200Z 09005KT 3000 BR OVC003 M06/M07 Q1013 R14/950394=
201901251230 METAR LRIA 251230Z 10005KT 1800 BR FEW002 OVC003 M05/M07
                        Q1012 R14/950394=
201901251300 METAR LRIA 251300Z 10005KT 1800 BR FEW002 OVC003 M05/M07
                        Q1012 R14/950394=
201901251330 METAR LRIA 251330Z 10004KT 1500 BR OVC002 M05/M07 Q1012 R14/950394=
201901251400 METAR LRIA 251400Z 08005KT 1300 R14/1500N R32/1500D BR OVC002
                        M05/M07 Q1012 R14/950394=
201901251430 METAR LRIA 251430Z 08004KT 1200 R14/1700N R32/P2000 BR OVC002
                        M05/M07 Q1012 R14/950394=
201901251500 METAR LRIA 251500Z 10004KT 0900 R14/1800U R32/P2000 FZFG
                        VV001 M05/M07 Q1013 R14/950394=
201901251530 METAR LRIA 251530Z 10005KT 1500 BR OVC002 M05/M07 Q1013 R14/950394=
201901251600 METAR LRIA 251600Z 10006KT 2000 BR BKN003 OVC010 M05/M07
                        Q1013 R14/950394=
201901251630 METAR LRIA 251630Z 11006KT 1200 R14/1900N R32/P2000 BR VV002
                        M05/M07 Q1013 R14/950394=
201901251700 METAR LRIA 251700Z 10006KT 0600 R14/1100D R32/1000D FZFG
                        VV002 M05/M07 Q1013 R14/950394=
201901251730 METAR LRIA 251730Z 10006KT 0450 R14/1200N R32/1100N FZFG
                        VV001 M05/M07 Q1013 R14/950394=
201901251800 METAR LRIA 251800Z 10007KT 1000 R14/P2000 R32/1300 BR VV001
                        M05/M07 Q1012 R14/950394=
201901251830 METAR LRIA 251830Z 12009KT 0550 R14/0650N R32/0700N FZFG
                        VV001 M05/M07 Q1012 R14/950394=
201901251900 METAR LRIA 251900Z 12008KT 0300 R14/0550 R32/0450N FZFG VV001
                        M05/M07 Q1012 R14/950394=
201901251930 METAR LRIA 251930Z 10007KT 0300 R14/0500N R32/0375N FZFG
                        VV001 M05/M07 Q1012 R14/950394=
201901252000 METAR LRIA 252000Z 11007KT 0200 R14/0500N R32/0400N FZFG
                        VV001 M05/M07 Q1012 R14/950394=
201901252030 METAR LRIA 252030Z 10006KT 0200 R14/0450N R32/0450N FZFG
                        VV001 M05/M07 Q1012 R14/950394=
201901252100 METAR COR LRIA 252100Z 09006KT 0300 R14/0600N R32/0400N FZFG
                        VV001 M05/M07 Q1012 R14/950394=
201901252130 METAR LRIA 252130Z 07005KT 0500 R14/0900U R32/0600U FZFG
                        VV001 M05/M07 Q1012 R14/950394=
201901252200 METAR LRIA 252200Z 05003KT 0700 R14/1600U R32/1500 FZFG VV001
                        M05/M07 Q1012 R14/950394=
201901252230 METAR LRIA 252230Z 01004KT 2000 BR BKN002 M05/M07 Q1012 R14/950394=
201901252300 METAR COR LRIA 252300Z 35005KT 3000 BR BKN002 M05/M07 Q1012
                        R14/950394=
201901252330 METAR LRIA 252330Z 32004KT 3300 BR BKN003 M05/M07 Q1012 R14/950394=
201901260000 METAR COR LRIA 260000Z 33004KT 2700 BR SCT002 M06/M07 Q1011
                        R14/950394=
201901260030 METAR COR LRIA 260030Z 32005KT 2500 BR FEW001 BKN002 M06/M08
                        Q1011 R14/950394=
201901260100 METAR COR LRIA 260100Z 31007KT 2400 BR FEW001 BKN002 M06/M08
                        Q1011 R14/950394=
201901260130 METAR LRIA 260130Z 31004KT 2600 BR FEW001 BKN002 M06/M08
                        Q1011 R14/950394=
201901260200 METAR COR LRIA 260200Z 32004KT 2900 BR SCT002 SCT003 M06/M08
                        Q1011 R14/950394=
201901260230 METAR LRIA 260230Z 33005KT 2900 BR BKN002 SCT003 M06/M08
                        Q1010 R14/950394=
201901260300 METAR COR LRIA 260300Z 32005KT 4300 BR SCT002 SCT003 M06/M08
                        Q1010 R14/950394=
201901260330 METAR COR LRIA 260330Z 31005KT 4300 BR FEW002 SCT003 M06/M08
                        Q1010 R14/950394=
201901260400 METAR LRIA 260400Z 31005KT 4300 BR FEW002 SCT003 M06/M08
                        Q1010 R14/950394=
201901260430 METAR COR LRIA 260430Z 31006KT 4300 BR FEW002 SCT004 M06/M08
                        Q1010 R14/950394=
201901260500 METAR LRIA 260500Z 31006KT 5000 BR FEW002 SCT005 M06/M08
                        Q1010 R14/950394=
201901260530 METAR LRIA 260530Z 30005KT 4800 BR SCT002 BKN004 M06/M08
                        Q1010 R14/950394=
201901260600 METAR LRIA 260600Z 30005KT 1800 BR SCT002 BKN004 M06/M08
                        Q1010 R14/950394=
201901260630 METAR LRIA 260630Z 30006KT 2600 BR FEW002 SCT004 BKN006 M06/M08
                        Q1010 R14/950394=
201901260700 METAR LRIA 260700Z 30005KT 4500 -SN BR SCT003 BKN005 M06/M08
                        Q1010 R14/29//94=
201901260730 METAR LRIA 260730Z 31005KT 5000 -SN BR SCT003 BKN005 M06/M08
                        Q1010 R14/29//94=
201901260800 METAR LRIA 260800Z 31003KT 280V340 7000 -SN OVC005 M06/M07
                        Q1010 R14/29//94=
201901260830 METAR LRIA 260830Z 32005KT 8000 SCT005 OVC017 M06/M08 Q1009
                        R14/29//94=
201901260900 METAR LRIA 260900Z 31004KT 8000 -SN SCT006 OVC018 M06/M07
                        Q1009 R14/29//95=
201901260930 METAR LRIA 260930Z 33004KT 8000 SCT005 OVC018 M05/M07 Q1009
                        R14/29//95=
201901261000 METAR LRIA 261000Z 28005KT 8000 SCT005 BKN009 M05/M07 Q1008
                        R14/29//95=
201901261030 METAR LRIA 261030Z 29004KT 250V320 8000 SCT007 OVC018 M05/M07
                        Q1008 R14/29//95=
201901261100 METAR LRIA 261100Z 30005KT 270V330 8000 SCT008 OVC018 M05/M07
                        Q1007 R14/29//95=
201901261130 METAR LRIA 261130Z 31004KT 270V340 8000 SCT009 OVC016 M05/M07
                        Q1007 R14/29//95=
201901261200 METAR LRIA 261200Z 33003KT 290V360 8000 SCT008 BKN016 M05/M07
                        Q1006 R14/29//95=
201901261230 METAR LRIA 261230Z 30003KT 250V340 8000 SCT009 OVC016 M05/M07
                        Q1006 R14/29//95=
201901261300 METAR LRIA 261300Z 32003KT 8000 -FZDZ BKN008 OVC016 M04/M06
                        Q1006 R14/29//95=
201901261330 METAR LRIA 261330Z 33003KT 8000 SCT009 OVC017 M05/M07 Q1006
                        REFZDZ R14/29//95=
201901261400 METAR LRIA 261400Z 32003KT 290V350 8000 SCT010 OVC019 M05/M07
                        Q1005 R14/29//95=
201901261430 METAR LRIA 261430Z 32002KT 8000 SCT011 OVC017 M05/M07 Q1005
                        R14/29//95=
201901261500 METAR LRIA 261500Z 32002KT 8000 SCT016 OVC022 M05/M07 Q1005
                        R14/29//95=
201901261530 METAR LRIA 261530Z 32002KT 7000 BKN016 M05/M07 Q1005 R14/29//95=
201901261600 METAR LRIA 261600Z 32003KT 6000 BKN017 M05/M07 Q1005 R14/29//95=
201901261630 METAR LRIA 261630Z 31004KT 6000 BKN018 M05/M07 Q1005 R14/29//95=
201901261700 METAR LRIA 261700Z 29004KT 6000 BKN018 M05/M07 Q1005 R14/29//95=
201901261730 METAR LRIA 261730Z 29004KT 6000 -FZRA SCT020 OVC045 M05/M07
                        Q1005 R14/29//95=
201901261800 METAR LRIA 261800Z 31005KT 5000 -FZRA BR BKN035 M05/M07 Q1005
                        R14/29//95=
201901261830 METAR LRIA 261830Z 29005KT 6000 -FZRA SCT045 M05/M07 Q1005
                        R14/29//95=
201901261900 METAR LRIA 261900Z 30005KT 3000 -SN BR OVC033 M05/M07 Q1005
                        REFZRA R14/29//95=
201901261930 METAR LRIA 261930Z 30006KT 1500 SN BR BKN008 OVC027 M05/M07
                        Q1005 R14/29//95=
201901262000 METAR LRIA 262000Z 30004KT 1800 SN BR SCT008 OVC027 M05/M07
                        Q1005 R14/590295=
201901262030 METAR LRIA 262030Z 28004KT 0800 R14/2000 R32/1800D +SN BR
                        VV004 M05/M07 Q1005 R14/590295=
201901262100 METAR LRIA 262100Z 28004KT 0800 R14/1800N R32/1900N +SN BR
                        VV005 M05/M07 Q1005 R14/590593=
201901262130 METAR LRIA 262130Z 29005KT 0600 R14/1700U R32/1600U +SN BR
                        VV005 M05/M07 Q1005 R14/590593=
201901262200 METAR LRIA 262200Z 28003KT 1000 R14/2000U R32/1800U SN BR
                        VV007 M05/M07 Q1006 RESN R14/590593=
201901262230 METAR LRIA 262230Z 28003KT 4000 -SN BR SCT007 OVC035 M05/M07
                        Q1005 RESN R14/590593=
201901262300 METAR LRIA 262300Z 29004KT 2000 SN BR SCT010 OVC030 M05/M07
                        Q1006 R14/590593=
201901262330 METAR LRIA 262330Z 29005KT 1500 SN BR VV005 M05/M07 Q1006
                        R14/590593=
201901270000 METAR LRIA 270000Z 29006KT 2000 -SN BR SCT008 OVC030 M05/M07
                        Q1006 RESN R14/590593=
201901270030 METAR LRIA 270030Z 29006KT 3000 -SN BR SCT015 OVC040 M05/M07
                        Q1006 R14/590593=
201901270100 METAR LRIA 270100Z 29007KT 6000 BKN045 M05/M07 Q1006 R14/590593=
201901270130 METAR LRIA 270130Z 28005KT 6000 FEW045 M06/M07 Q1006 R14/590593=
201901270200 METAR LRIA 270200Z 29007KT 5000 BR FEW004 M05/M07 Q1006 R14/590593=
201901270230 METAR LRIA 270230Z 29005KT 5000 BR FEW004 M05/M07 Q1006 R14/590593=
201901270300 METAR LRIA 270300Z 28005KT 5000 BR NSC M05/M07 Q1006 R14/590593=
201901270330 METAR COR LRIA 270330Z 30005KT 5000 BR FEW004 M05/M07 Q1007
                        R14/590593=
201901270400 METAR COR LRIA 270400Z 29004KT 5000 BR NSC M05/M07 Q1007
                        R14/590295=
201901270430 METAR LRIA 270430Z 28005KT 6000 NSC M05/M07 Q1007 R14/590295=
201901270500 METAR LRIA 270500Z 25003KT 5000 BR NSC M06/M08 Q1007 R14/590295=
201901270530 METAR LRIA 270530Z 26003KT 2000 BR NSC M06/M08 Q1007 R14/590295=
201901270600 METAR LRIA 270600Z 26004KT 2000 BR NSC M06/M08 Q1007 R14/590295=
201901270630 METAR LRIA 270630Z 25003KT 2000 BR NSC M06/M07 Q1007 R14/590295=
201901270700 METAR LRIA 270700Z VRB02KT 2000 BR NSC M05/M07 Q1007 R14/590295=
201901270730 METAR LRIA 270730Z 23003KT 2500 BR NSC M05/M07 Q1008 R14/590295=
201901270800 METAR LRIA 270800Z VRB01KT 3000 BR NSC M04/M06 Q1007 R14/590295=
201901270830 METAR LRIA 270830Z 24003KT 4000 BR NSC M03/M06 Q1007 R14/19//95=
201901270900 METAR LRIA 270900Z 27003KT 240V300 5000 BR NSC M03/M06 Q1007
                        R14/19//95=
201901270930 METAR LRIA 270930Z 00000KT 5000 BR NSC M03/M06 Q1007 R14/19//95=
201901271000 METAR LRIA 271000Z 33003KT 5000 BR NSC M02/M06 Q1007 R14/19//95=
201901271030 METAR LRIA 271030Z 03004KT 5000 BR NSC M03/M06 Q1006 R14/19//95=
201901271100 METAR LRIA 271100Z 29004KT 270V330 5000 BR NSC M02/M06 Q1007
                        R14/19//95=
201901271130 METAR LRIA 271130Z 09004KT 5000 BR NSC M03/M06 Q1006 R14/19//95=
201901271200 METAR LRIA 271200Z 10005KT 3000 BR NSC M02/M06 Q1006 R14/19//95=
201901271230 METAR LRIA 271230Z 11007KT 3000 BR NSC M04/M07 Q1006 R14/19//95=
201901271300 METAR LRIA 271300Z 08005KT 4500 BR NSC M03/M07 Q1006 R14/19//95=
201901271330 METAR LRIA 271330Z 10006KT 6000 NSC M03/M07 Q1007 R14/19//95=
201901271400 METAR LRIA 271400Z 10007KT 6000 NSC M04/M08 Q1007 R14/19//95=
201901271430 METAR LRIA 271430Z 09008KT 6000 NSC M05/M08 Q1007 R14/19//95=
201901271500 METAR LRIA 271500Z 10009KT 6000 NSC M05/M08 Q1007 R14/19//95=
201901271530 METAR LRIA 271530Z 11009KT 7000 NSC M06/M09 Q1007 R14/19//95=
201901271600 METAR LRIA 271600Z 10008KT 6000 NSC M06/M09 Q1007 R14/19//95=
201901271630 METAR LRIA 271630Z 10009KT 6000 NSC M06/M08 Q1007 R14/19//95=
201901271700 METAR LRIA 271700Z 10009KT 6000 NSC M06/M09 Q1007 R14/19//95=
201901271730 METAR LRIA 271730Z 10009KT 6000 NSC M06/M08 Q1007 R14/19//95=
201901271800 METAR LRIA 271800Z 10009KT 6000 NSC M06/M08 Q1007 R14/19//95=
201901271830 METAR LRIA 271830Z 10011KT 5000 BR NSC M06/M08 Q1007 R14/19//95=
201901271900 METAR LRIA 271900Z 10010KT 5000 BR NSC M06/M08 Q1007 R14/19//95=
201901271930 METAR LRIA 271930Z 11010KT 4000 BR NSC M06/M08 Q1007 R14/19//95=
201901272000 METAR LRIA 272000Z 11011KT 3200 BR NSC M06/M08 Q1007 R14/19//95=
201901272030 METAR LRIA 272030Z 11010KT 3100 BR NSC M06/M08 Q1007 R14/19//95=
201901272100 METAR LRIA 272100Z 11012KT 1800 BR NSC M06/M08 Q1006 R14/19//95=
201901272130 METAR LRIA 272130Z 11013KT 1700 BR SCT001 M06/M08 Q1006 R14/19//95=
201901272200 METAR LRIA 272200Z 11014KT 1000 R14/1200U R32/P2000 BR OVC001
                        M06/M07 Q1006 R14/19//95=
201901272230 METAR LRIA 272230Z 11011KT 1700 BR OVC001 M06/M08 Q1006 R14/19//95=
201901272300 METAR LRIA 272300Z 11010KT 2100 BR OVC001 M06/M08 Q1006 R14/19//95=
201901272330 METAR LRIA 272330Z 11009KT 1900 BR FEW002 SCT008 M06/M07
                        Q1006 R14/19//95=
201901280000 METAR LRIA 280000Z 10008KT 1900 BR FEW001 M06/M08 Q1006 R14/19//95=
201901280030 METAR LRIA 280030Z 11008KT 1900 BR FEW010 M06/M07 Q1006 R14/19//95=
201901280100 METAR LRIA 280100Z 15005KT 0800 R14/0900D R32/2000 FZFG FEW010
                        M05/M07 Q1006 R14/19//95=
201901280130 METAR LRIA 280130Z 13005KT 0500 R14/0600N R32/P2000 FZFG
                        SCT007 M05/M07 Q1006 R14/19//95=
201901280200 METAR LRIA 280200Z 13004KT 2600 BR FEW005 SCT008 M05/M06
                        Q1006 R14/19//95=
201901280230 METAR LRIA 280230Z 13006KT 5000 BR FEW006 BKN008 M04/M05
                        Q1006 R14/19//95=
201901280300 METAR LRIA 280300Z 12007KT 6000 FEW006 BKN008 M03/M05 Q1006
                        R14/19//95=
201901280330 METAR LRIA 280330Z 13008KT 7000 SCT006 BKN009 M03/M05 Q1005
                        R14/19//95=
201901280400 METAR LRIA 280400Z 14007KT 8000 BKN009 M03/M05 Q1005 R14/19//95=
201901280430 METAR LRIA 280430Z 13009KT 8000 BKN008 M03/M04 Q1005 R14/19//95=
201901280500 METAR LRIA 280500Z 12008KT 7000 FEW007 BKN009 M03/M05 Q1005
                        R14/19//95=
201901280530 METAR LRIA 280530Z 14007KT 7000 FEW007 BKN009 M03/M05 Q1005
                        R14/19//95=
201901280600 METAR LRIA 280600Z 12011KT 5000 BR SCT003 BKN009 M03/M04
                        Q1005 R14/19//95=
201901280630 METAR LRIA 280630Z 11012KT 3000 BR BKN011 M02/M04 Q1005 R14/19//95=
201901280700 METAR LRIA 280700Z 11012KT 2700 BR FEW001 BKN009 M02/M04
                        Q1005 R14/19//95=
201901280730 METAR LRIA 280730Z 12013KT 4900 BR BKN009 M02/M03 Q1005 R14/19//95=
201901280800 METAR LRIA 280800Z 13010KT 6000 FEW004 BKN009 M01/M03 Q1005
                        R14/19//95=
201901280830 METAR LRIA 280830Z 13011KT 9999 SCT007 M01/M02 Q1005 R14/19//95=
201901280900 METAR LRIA 280900Z 13011KT 8000 FEW007 SCT009 M00/M02 Q1005
                        R14/19//95=
201901280930 METAR LRIA 280930Z 13013KT 8000 SCT007 00/M01 Q1004 R14/19//95=
201901281000 METAR LRIA 281000Z 12010KT 8000 FEW009 BKN012 01/M01 Q1004
                        R14/19//95=
201901281030 METAR LRIA 281030Z 12011KT 9000 FEW008 SCT009 01/M01 Q1004
                        R14/19//95=
201901281100 METAR LRIA 281100Z 12012KT 7000 FEW008 BKN009 01/M01 Q1003
                        R14/19//95=
201901281130 METAR LRIA 281130Z 14012KT 110V170 9999 SCT008 BKN009 02/M00
                        Q1003 R14/19//95=
201901281200 METAR LRIA 281200Z 15016KT 9999 FEW008 BKN009 03/M00 Q1002
                        R14/19//95=
201901281230 METAR LRIA 281230Z 14013KT 9999 SCT010 SCT013 03/M00 Q1002
                        R14/19//95=
201901281300 METAR LRIA 281300Z 15013KT 9999 SCT011 BKN014 03/M00 Q1002
                        R14/19//95=
201901281330 METAR LRIA 281330Z 15012KT 9999 BKN010 03/M00 Q1002 R14/19//95=
201901281400 METAR LRIA 281400Z 14011KT 9999 BKN009 03/M00 Q1002 R14/19//95=
201901281430 METAR LRIA 281430Z 16010KT 9999 OVC009 03/M00 Q1002 R14/19//95=
201901281500 METAR LRIA 281500Z 15009KT 9999 BKN009 03/M00 Q1002 R14/19//95=
201901281530 METAR COR LRIA 281530Z 16009KT 9999 BKN009 03/00 Q1002 R14/19//95=
201901281600 METAR LRIA 281600Z 14007KT 110V180 9999 BKN009 03/00 Q1002
                        R14/19//95=
201901281630 METAR LRIA 281630Z 15010KT 9999 OVC009 03/M00 Q1002 R14/19//95=
201901281700 METAR LRIA 281700Z 13010KT 9999 OVC009 03/M00 Q1002 R14/19//95=
201901281730 METAR COR LRIA 281730Z 15010KT 9999 BKN010 03/00 Q1002 R14/19//95=
201901281800 METAR LRIA 281800Z 17007KT 9999 BKN010 03/00 Q1002 R14/19//95=
201901281830 METAR LRIA 281830Z 15010KT 9999 BKN013 03/00 Q1002 R14/19//95=
201901281900 METAR LRIA 281900Z 14012KT 9999 BKN013 03/01 Q1002 R14/19//95=
201901281930 METAR LRIA 281930Z 12013KT 8000 BKN014 02/M00 Q1001 R14/19//95=
201901282000 METAR LRIA 282000Z 11013KT 7000 BKN012 02/00 Q1001 R14/19//95=
201901282030 METAR LRIA 282030Z 11013KT 7000 BKN012 02/00 Q1001 R14/19//95=
201901282100 METAR LRIA 282100Z 11015KT 6000 BKN013 02/00 Q1001 R14/19//95=
201901282130 METAR LRIA 282130Z 12012KT 8000 FEW009 BKN012 02/01 Q1001
                        R14/19//95=
201901282200 METAR LRIA 282200Z 12009KT 8000 FEW010 BKN013 02/00 Q1001
                        R14/19//95=
201901282230 METAR LRIA 282230Z 11011KT 5000 BR FEW008 BKN010 02/00 Q1002
                        R14/19//95=
201901282300 METAR LRIA 282300Z 10011KT 5000 BR SCT010 BKN013 02/01 Q1001
                        R14/19//95=
201901282330 METAR LRIA 282330Z 12011KT 5000 BR SCT007 BKN010 02/01 Q1001
                        R14/19//95=
201901290000 METAR LRIA 290000Z 11010KT 5000 BR BKN008 02/00 Q1001 R14/19//95=
201901290030 METAR LRIA 290030Z 12007KT 5000 BR BKN007 02/00 Q1002 R14/19//95=
201901290100 METAR LRIA 290100Z 13007KT 5000 BR BKN009 02/01 Q1002 R14/19//95=
201901290130 METAR LRIA 290130Z 12007KT 0400 R14/0450N R32/1400U FG BKN009
                        SCT012 01/00 Q1002 R14/19//95=
201901290200 METAR LRIA 290200Z 11007KT 0350 R14/0400N R32/0400N FG BKN010
                        SCT013 02/00 Q1002 R14/19//95=
201901290230 METAR LRIA 290230Z 11007KT 0400 R14/0500N R32/0400N FG OVC009
                        02/00 Q1002 R14/19//95=
201901290300 METAR LRIA 290300Z 11006KT 0400 R14/0500N R32/1500U FG OVC007
                        02/00 Q1002 R14/19//95=
201901290330 METAR LRIA 290330Z 14003KT 3400 BR BKN006 02/01 Q1002 R14/19//95=
201901290400 METAR LRIA 290400Z 10004KT 1500 BR BKN007 01/00 Q1002 R14/19//95=
201901290430 METAR LRIA 290430Z 09004KT 040V110 2300 BR SCT004 01/00 Q1003
                        R14/19//95=
201901290500 METAR LRIA 290500Z 10006KT 1000 R14/1300U R32/P2000U BR FEW004
                        01/M00 Q1003 R14/19//95=
201901290530 METAR LRIA 290530Z VRB01KT 1000 R14/1000D R32/P2000D BR FEW003
                        01/M01 Q1003 R14/19//95=
201901290600 METAR LRIA 290600Z 11005KT 0100 R14/0250N R32/0375D FZFG
                        FEW002 M00/M02 Q1003 R14/19//95=
201901290630 METAR LRIA 290630Z VRB02KT 0200 R14/0250N R32/0200N FZFG
                        FEW007 M00/M01 Q1004 R14/19//95=
201901290700 METAR LRIA 290700Z 11004KT 3000 BR FEW003 01/M00 Q1004 R14/19//95=
201901290730 METAR LRIA 290730Z 10004KT 2500 BR NSC 01/M00 Q1004 R14/19//95=
201901290800 METAR LRIA 290800Z 10007KT 0150 R14/0275N R32/0200N FG BKN001
                        01/M00 Q1004 R14/19//95=
201901290830 METAR LRIA 290830Z 10009KT 0150 R14/0300N R32/0250N FG BKN001
                        01/M00 Q1005 R14/19//95=
201901290900 METAR LRIA 290900Z 11010KT 0250 R14/0325N R32/0700U FG BKN001
                        01/M00 Q1005 R14/19//95=
201901290930 METAR COR LRIA 290930Z 11011KT 0300 R14/0500U R32/1300D FG
                        BKN001 01/M00 Q1005 R14/19//95=
201901291000 METAR LRIA 291000Z 10011KT 0150 R14/0300N R32/0375N FG VV001
                        01/M00 Q1005 R14/19//95=
201901291030 METAR LRIA 291030Z 10011KT 0150 R14/0275N R32/0275N FG VV001
                        01/M00 Q1005 R14/19//95=
201901291100 METAR LRIA 291100Z 09011KT 0100 R14/0300N R32/0200N FG VV001
                        01/M00 Q1005 R14/19//95=
201901291130 METAR LRIA 291130Z 10011KT 0100 R14/0300N R32/0200N FG VV001
                        01/M00 Q1005 R14/19//95=
201901291200 METAR LRIA 291200Z 10010KT 0200 R14/0375N R32/0500N FG VV001
                        01/M00 Q1005 R14/19//95=
201901291230 METAR LRIA 291230Z 09011KT 0150 R14/0350N R32/0275N FG VV001
                        01/M00 Q1005 R14/19//95=
201901291300 METAR LRIA 291300Z 10013KT 0100 R14/0275N R32/0225N FG VV001
                        01/M01 Q1005 R14/19//95=
201901291330 METAR LRIA 291330Z 10012KT 0100 R14/0250N R32/0225N FG VV001
                        01/M01 Q1005 R14/19//95=
201901291400 METAR LRIA 291400Z 09011KT 0100 R14/0275N R32/0225N FG VV001
                        01/M01 Q1005 R14/19//95=
201901291430 METAR LRIA 291430Z 10009KT 0100 R14/0250N R32/0175N FG VV001
                        00/M01 Q1006 R14/19//95=
201901291500 METAR LRIA 291500Z 09011KT 0100 R14/0350N R32/0225N FG VV001
                        00/M01 Q1006 R14/19//95=
201901291530 METAR LRIA 291530Z 10008KT 0100 R14/0450N R32/0300N FG VV001
                        00/M01 Q1006 R14/19//95=
201901291600 METAR LRIA 291600Z 09006KT 0200 R14/0500N R32/0325N FG VV001
                        00/M01 Q1006 R14/19//95=
201901291630 METAR LRIA 291630Z 07008KT 0200 R14/0700U R32/0400N FG VV001
                        00/M01 Q1006 R14/19//95=
201901291700 METAR LRIA 291700Z 08006KT 0800 R14/1200U R32/0800U FG BKN001
                        00/M01 Q1007 R14/19//95=
201901291730 METAR LRIA 291730Z 05004KT 360V080 1000 R14/P2000 R32/0900U
                        BR BKN001 00/M01 Q1007 R14/19//95=
201901291800 METAR LRIA 291800Z 05006KT 5000 BR OVC002 01/M00 Q1007 R14/19//95=
201901291830 METAR COR LRIA 291830Z 05006KT 5000 BR OVC002 01/M00 Q1007
                        R14/19//95=
201901291900 METAR LRIA 291900Z 00000KT 0650 R14/0800N R32/0800 FG OVC001
                        00/M01 Q1007 R14/19//95=
201901291930 METAR LRIA 291930Z 30006KT 2000 BR OVC001 00/M01 Q1007 R14/19//95=
201901292000 METAR LRIA 292000Z 30002KT 260V330 3000 BR OVC001 01/M01
                        Q1007 R14/19//95=
201901292030 METAR LRIA 292030Z 21002KT 190V260 1500 R14/1700 R32/P2000
                        BR BKN001 00/M01 Q1007 R14/19//95=
201901292100 METAR LRIA 292100Z 23002KT 200V270 0800 R14/0900 R32/1700
                        FG BKN001 00/M01 Q1007 R14/19//95=
201901292130 METAR LRIA 292130Z 00000KT 0600 R14/0700N R32/0900D FG VV001
                        00/M01 Q1007 R14/19//95=
201901292200 METAR LRIA 292200Z 00000KT 0200 R14/0500N R32/0600N FG VV001
                        00/M01 Q1007 R14/19//95=
201901292230 METAR LRIA 292230Z 00000KT 0200 R14/0450N R32/0400N FG VV001
                        00/M01 Q1007 R14/19//95=
201901292300 METAR LRIA 292300Z 00000KT 0350 R14/0400N R32/0350N FG VV001
                        00/M01 Q1007 R14/19//95=
201901292330 METAR LRIA 292330Z 26003KT 0200 R14/0375N R32/0325N FG VV001
                        00/M01 Q1007 R14/19//95=
201901300000 METAR LRIA 300000Z 28004KT 0200 R14/0400N R32/0325N FG VV001
                        00/M01 Q1007 R14/19//95=
201901300030 METAR COR LRIA 300030Z 28003KT 0300 R14/0400N R32/0325N -DZ
                        FG VV001 00/M01 Q1007 R14/19//95=
201901300100 METAR LRIA 300100Z 00000KT 0350 R14/0450N R32/0325N -DZ FG
                        VV001 00/M01 Q1007 R14/19//95=
201901300130 METAR LRIA 300130Z 23003KT 0350 R14/0400N R32/0325N -DZ FG
                        VV001 00/M01 Q1007 R14/19//95=
201901300200 METAR COR LRIA 300200Z 30004KT 0400 R14/0500N R32/0375N -DZ
                        FG VV001 00/M01 Q1006 R14/19//95=
201901300230 METAR COR LRIA 300230Z VRB01KT 0700 R14/0800U R32/0650N -DZ
                        FG 00/M01 Q1006 R14/19//95=
201901300300 METAR LRIA 300300Z VRB01KT 0700 R14/0800U R32/0650N -DZ FG
                        VV001 00/M01 Q1006 R14/19//95=
201901300330 METAR LRIA 300330Z 27002KT 230V300 0650 R14/0800N R32/0600N
                        -DZFG VV001 00/M01 Q1006 R14/19//95=
201901300400 METAR LRIA 300400Z 21002KT 0500 R14/0600N R32/0600N -DZ FG
                        VV001 00/M01 Q1006 R14/29//95=
201901300430 METAR COR LRIA 300430Z 00000KT 0450 R14/0550N R32/0450N FG
                        VV001 00/M01 Q1006 R14/29//95=
201901300500 METAR LRIA 300500Z 23001KT 0450 R14/0550N R32/0450N FG VV001
                        00/M01 Q1006 R14/29//95=
201901300530 METAR LRIA 300530Z VRB01KT 0200 R14/0500N R32/0500N -DZ FG
                        VV001 00/M01 Q1006 R14/29//95=
201901300600 METAR LRIA 300600Z 16003KT 0350 R14/0450N R32/0375N FG VV001
                        00/M01 Q1006 R14/29//95=
201901300630 METAR LRIA 300630Z 00000KT 0350 R14/0375D R32/0275N FG VV001
                        00/M01 Q1006 R14/29//95=
201901300700 METAR LRIA 300700Z 00000KT 0300 R14/0350N R32/0325N FG VV001
                        01/M01 Q1006 R14/29//95=
201901300730 METAR LRIA 300730Z 00000KT 0300 R14/0400N R32/0325N FG VV001
                        01/M00 Q1006 R14/29//95=
201901300800 METAR LRIA 300800Z 00000KT 0250 R14/0350N R32/0275N FG VV001
                        01/M01 Q1006 R14/29//95=
201901300830 METAR LRIA 300830Z 00000KT 0250 R14/0375N R32/0225N FG VV001
                        01/M00 Q1005 R14/29//95=
201901300900 METAR LRIA 300900Z VRB01KT 0350 R14/0450N R32/0325N FG VV001
                        01/M00 Q1005 R14/29//95=
201901300930 METAR LRIA 300930Z 09001KT 0400 R14/0550N R32/0350N FG VV001
                        01/M00 Q1005 R14/29//95=
201901301000 METAR LRIA 301000Z 00000KT 0350 R14/0450N R32/0275N FG VV001
                        01/M00 Q1005 R14/29//95=
201901301030 METAR LRIA 301030Z 00000KT 0300 R14/0450N R32/0250N FG VV001
                        01/M00 Q1005 R14/29//95=
201901301100 METAR LRIA 301100Z 03003KT 0250 R14/0375N R32/0275N FG VV001
                        01/00 Q1004 R14/29//95=
201901301130 METAR LRIA 301130Z 08007KT 0200 R14/0275N R32/0200N FG VV001
                        01/00 Q1004 R14/29//95=
201901301200 METAR LRIA 301200Z 11009KT 0200 R14/0225N R32/0150N FG VV001
                        02/01 Q1004 R14/29//95=
201901301230 METAR LRIA 301230Z 12008KT 0150 R14/0200N R32/0150N FG VV001
                        02/01 Q1004 R14/29//95=
201901301300 METAR LRIA 301300Z 11007KT 0150 R14/0200N R32/0150N FG VV001
                        02/01 Q1004 R14/29//95=
201901301330 METAR LRIA 301330Z 13006KT 0150 R14/0200N R32/0175N FG VV001
                        02/01 Q1004 R14/29//95=
201901301400 METAR LRIA 301400Z 11011KT 4200 BR FEW001 03/02 Q1003 R14/29//95=
201901301430 METAR LRIA 301430Z 10012KT 5000 BR NSC 03/02 Q1003 R14/29//95=
201901301500 METAR LRIA 301500Z 10013KT 7000 NSC 03/02 Q1004 R14/29//95=
201901301530 METAR LRIA 301530Z 11013KT 7000 NSC 03/02 Q1004 R14/29//95=
201901301600 METAR LRIA 301600Z 11012KT 8000 NSC 03/02 Q1004 R14/29//95=
201901301630 METAR LRIA 301630Z 12011KT 6000 NSC 03/02 Q1004 R14/29//95=
201901301700 METAR LRIA 301700Z 11008KT 5000 BR NSC 03/02 Q1004 R14/29//95=
201901301730 METAR LRIA 301730Z 10008KT 5000 BR NSC 03/02 Q1004 R14/29//95=
201901301800 METAR LRIA 301800Z 10008KT 7000 NSC 04/03 Q1004 R14/29//95=
201901301830 METAR LRIA 301830Z 10008KT 1800 BR FEW002 03/02 Q1004 R14/29//95=
201901301900 METAR LRIA 301900Z 11010KT 0450 R14/1100N R32/0800N FG SCT002
                        03/02 Q1004 R14/29//95=
201901301930 METAR LRIA 301930Z 11012KT 0600 R14/1000U R32/0800N FG SCT002
                        04/02 Q1004 R14/29//95=
201901302000 METAR LRIA 302000Z 11014KT 0800 R14/2000 R32/1000U FG SCT001
                        04/02 Q1004 R14/29//95=
201901302030 METAR LRIA 302030Z 10013KT 1000 R14/2000 R32/1700D BR FEW002
                        03/02 Q1004 R14/29//95=
201901302100 METAR LRIA 302100Z 11016KT 1500 BR SCT002 03/02 Q1004 R14/29//95=
201901302130 METAR LRIA 302130Z 10015KT 0150 R14/0500N R32/0650N FG VV001
                        03/01 Q1004 R14/29//95=
201901302200 METAR LRIA 302200Z 11015KT 0100 R14/0400N R32/0375N FG VV001
                        03/01 Q1004 R14/29//95=
201901302230 METAR LRIA 302230Z 11014KT 0100 R14/0375N R32/0550D FG VV001
                        03/02 Q1004 R14/29//95=
201901302300 METAR LRIA 302300Z 11012KT 0100 R14/0400N R32/0300N FG VV001
                        03/01 Q1004 R14/29//95=
201901302330 METAR LRIA 302330Z 11014KT 0100 R14/0375N R32/0250N FG VV001
                        03/02 Q1003 R14/29//95=
201901310000 METAR LRIA 310000Z 11014KT 0100 R14/0375N R32/0250N FG VV001
                        03/01 Q1003 R14/29//95=
201901310030 METAR LRIA 310030Z 11011KT 0100 R14/0375N R32/0400D FG VV001
                        03/02 Q1004 R14/29//95=
201901310100 METAR LRIA 310100Z 12012KT 0200 R14/0550N R32/1300U FG VV001
                        03/01 Q1004 R14/29//95=
201901310130 METAR LRIA 310130Z 10010KT 0100 R14/0375N R32/0325N FG VV001
                        03/01 Q1004 R14/29//95=
201901310200 METAR LRIA 310200Z 11011KT 0100 R14/0375N R32/0300N FG VV001
                        02/01 Q1004 R14/29//95=
201901310230 METAR LRIA 310230Z 11011KT 0100 R14/0400N R32/0325N FG VV001
                        02/01 Q1004 R14/29//95=
201901310300 METAR LRIA 310300Z 11010KT 0100 R14/0400N R32/0325N FG VV001
                        02/01 Q1004 R14/29//95=
201901310330 METAR LRIA 310330Z 10009KT 0100 R14/0375N R32/0300N FG VV001
                        02/01 Q1004 R14/29//95=
201901310400 METAR LRIA 310400Z 10013KT 0100 R14/0450N R32/0275N FG VV001
                        03/01 Q1003 R14/29//95=
201901310430 METAR LRIA 310430Z 11012KT 0100 R14/0400N R32/0300N FG VV001
                        02/01 Q1003 R14/29//95=
201901310500 METAR LRIA 310500Z 11009KT 0100 R14/0400N R32/0450N FG VV001
                        02/01 Q1004 R14/29//95=
201901310530 METAR LRIA 310530Z 10009KT 0100 R14/0400N R32/0325D FG VV001
                        02/01 Q1003 R14/29//95=
201901310600 METAR LRIA 310600Z 12012KT 0100 R14/0375N R32/0300N FG VV001
                        02/01 Q1004 R14/29//95=
201901310630 METAR LRIA 310630Z 10009KT 0100 R14/0250N R32/0225N FG VV001
                        02/01 Q1004 R14/29//95=
201901310700 METAR LRIA 310700Z 11014KT 0100 R14/0275N R32/0200N FG VV001
                        02/01 Q1003 R14/29//95=
201901310730 METAR LRIA 310730Z 10013KT 0150 R14/0325N R32/0350N FG VV001
                        02/01 Q1003 R14/29//95=
201901310800 METAR LRIA 310800Z 11010KT 0150 R14/0275N R32/0500N FG VV001
                        02/00 Q1004 R14/29//95=
201901310830 METAR LRIA 310830Z 12012KT 2500 0800NW R14/1200U R32/P2000
                        PRFG BR OVC002 02/01 Q1004 R14/29//95=
201901310900 METAR LRIA 310900Z 10010KT 3000 0800NW R14/1300D R32/P2000
                        PRFG BR OVC001 02/01 Q1004 R14/29//95=
201901310930 METAR LRIA 310930Z 10011KT 0300 R14/0800D R32/0650N -RA FG
                        OVC001 02/00 Q1004 R14/29//95=
201901311000 METAR LRIA 311000Z 09012KT 1500 -RA BR OVC001 02/01 Q1003
                        R14/29//95=
201901311030 METAR LRIA 311030Z 12011KT 0500 R14/0900D R32/1100D FG OVC002
                        02/01 Q1003 R14/29//95=
201901311100 METAR LRIA 311100Z 11005KT 0300 R14/0800N R32/1900D BCFG
                        BR OVC001 02/01 Q1003 R14/29//95=
201901311130 METAR LRIA 311130Z 10008KT 0300 R14/0700N R32/0800D BCFG
                        BR OVC001 02/01 Q1003 R14/29//95=
201901311200 METAR LRIA 311200Z 10010KT 0100 R14/0300N R32/0275N FG VV001
                        02/01 Q1003 R14/29//95=
201901311230 METAR LRIA 311230Z 10007KT 0100 R14/0250N R32/0275N FG VV001
                        02/01 Q1003 R14/29//95=
201901311300 METAR LRIA 311300Z 11009KT 0100 R14/0275N R32/0200N FG VV001
                        02/01 Q1003 R14/29//95=
201901311330 METAR LRIA 311330Z 11010KT 0050 R14/0275N R32/0200N FG VV001
                        02/01 Q1003 R14/29//95=
201901311400 METAR LRIA 311400Z 10008KT 0050 R14/0275N R32/0200N FG VV001
                        02/01 Q1003 R14/29//95=
201901311430 METAR LRIA 311430Z 08007KT 0050 R14/0350N R32/0250N FG VV001
                        02/01 Q1003 R14/29//95=
201901311500 METAR LRIA 311500Z 10006KT 0050 R14/0400N R32/0250N -RA FG
                        VV001 02/01 Q1003 R14/29//95=
201901311530 METAR LRIA 311530Z 08006KT 0100 R14/0500N R32/0375N FG VV001
                        02/01 Q1003 R14/29//95=
201901311600 METAR LRIA 311600Z 08008KT 0100 R14/0450N R32/0350N FG VV001
                        02/01 Q1003 R14/29//95=
201901311630 METAR LRIA 311630Z 10006KT 0100 R14/0550N R32/0350N FG VV001
                        03/01 Q1003 R14/29//95=
201901311700 METAR LRIA 311700Z 10004KT 0100 R14/0500N R32/0375N -DZ FG
                        VV001 02/01 Q1004 R14/29//95=
201901311730 METAR LRIA 311730Z 09006KT 0100 R14/0550N R32/0375N FG VV001
                        02/01 Q1003 R14/29//95=
201901311800 METAR LRIA 311800Z 09005KT 0400 R14/0450N R32/0350N FG VV001
                        03/02 Q1004 R14/29//95=
201901311830 METAR LRIA 311830Z 09005KT 0400 R14/0450N R32/0325N FG VV001
                        02/01 Q1004 R14/29//95=
201901311900 METAR LRIA 311900Z 09004KT 0350 R14/0450N R32/0325N FG VV001
                        02/01 Q1004 R14/29//95=
201901311930 METAR COR LRIA 311930Z 10004KT 0350 R14/0450N R32/0275N FG
                        VV001 02/01 Q1004 R14/29//95=
201901312000 METAR LRIA 312000Z 11003KT 040V120 0300 R14/0325N R32/0275N
                        FG VV001 02/01 Q1004 R14/29//95=
201901312030 METAR LRIA 312030Z 13003KT 0300 R14/0400N R32/0275N FG VV001
                        02/00 Q1005 R14/29//95=
201901312100 METAR LRIA 312100Z 09004KT 0500 R14/0600N R32/0400N FG VV002
                        02/01 Q1005 R14/29//95=
201901312130 METAR LRIA 312130Z 00000KT 0500 R14/0600D R32/0500N FG VV002
                        02/01 Q1005 R14/29//95=
201901312200 METAR LRIA 312200Z 12002KT 0450 R14/0550N R32/0450N FG VV002
                        02/01 Q1006 R14/29//95=
201901312230 METAR LRIA 312230Z 00000KT 0500 R14/0650N R32/0600N FG OVC003
                        02/01 Q1006 R14/29//95=
201901312300 METAR LRIA 312300Z 08003KT 0450 R14/0550N R32/0450N FG OVC004
                        02/01 Q1006 R14/29//95=
201901312330 METAR LRIA 312330Z 00000KT 0400 R14/0500N R32/0375N FG SCT005
                        BKN009 02/01 Q1006 R14/29//95=
