201901010200 TAF LRIA 010200Z 0103/0112 VRB04KT 5000 BR OVC015
                      PROB30 TEMPO 0103/0106 1500 BR OVC005
                      BECMG 0107/0109 9999 NSW BKN020=
201901010500 TAF LRIA 010500Z 0106/0115 VRB04KT 9999 SCT020=
201901010800 TAF LRIA 010800Z 0109/0118 VRB04KT CAVOK=
201901011100 TAF LRIA 011100Z 0112/0121 20007KT CAVOK=
201901011400 TAF LRIA 011400Z 0115/0124 20007KT CAVOK=
201901011700 TAF LRIA 011700Z 0118/0203 20007KT 9999 BKN030
                      PROB40 TEMPO 0201/0203 5000 -SN BKN015 OVC025=
201901012000 TAF LRIA 012000Z 0121/0206 20006KT 9999 BKN035
                      PROB30 TEMPO 0201/0205 5000 -SN BKN010 OVC025=
201901012300 TAF LRIA 012300Z 0200/0209 13006KT 9999 BKN035
                      PROB40 TEMPO 0201/0205 5000 -SN BKN010 OVC025=
201901020200 TAF LRIA 020200Z 0203/0212 13008KT CAVOK
                      TEMPO 0203/0207 5000 -SN BR BKN010 OVC025=
201901020500 TAF LRIA 020500Z 0206/0215 VRB04KT 5000 -SN BKN035
                      TEMPO 0206/0208 10010KT 3000 SN BKN010 OVC025
                       BECMG 0208/0210 9999 NSW
                      PROB30 TEMPO 0212/0215 5000 -SN=
201901020800 TAF LRIA 020800Z 0209/0218 VRB04KT 5000 BR BKN035
                      TEMPO 0209/0211 11010KT 3000 -SN BR BKN010
                       BKN025 FEW030CB
                      TEMPO 0211/0214 9999 NSW
                      PROB40 TEMPO 0214/0218 3000 -SN BR SCT015
                       FEW025CB BKN030=
201901021100 TAF LRIA 021100Z 0212/0221 VRB04KT 5000 BR BKN040
                      PROB40 TEMPO 0212/0214 3000 -SN BR SCT005
                       FEW025CB BKN030=
201901021400 TAF LRIA 021400Z 0215/0224 VRB04KT 5000 BR BKN015 BKN040
                      PROB30 TEMPO 0215/0218 3000 -SN BR BKN010
                       BKN030=
201901021700 TAF LRIA 021700Z 0218/0303 VRB04KT 0600 FZFG BKN002
                      TEMPO 0218/0220 0350 FZFG BKN001
                      BECMG 0220/0222 1500 BR BKN010
                      BECMG 0222/0224 31010KT 5000 SCT025
                      PROB30 TEMPO 0300/0303 3000 -SN BR BKN015=
201901022000 TAF LRIA 022000Z 0221/0306 VRB03KT 5000 BR BKN025 BKN040
                      TEMPO 0221/0223 1500 -SN BR BKN010 BKN020
                       BECMG 0223/0301 31010KT
                      PROB30 TEMPO 0300/0303 3000 -SN BR BKN015=
201901022300 TAF LRIA 022300Z 0300/0309 31010KT 9999 SCT045
                      PROB30 TEMPO 0301/0304 5000 -SN BR BKN015=
201901030200 TAF LRIA 030200Z 0303/0312 VRB04KT 9999 SCT030
                      TEMPO 0303/0305 3000 BR BKN015
                      BECMG 0305/0307 31010KT=
201901030500 TAF LRIA 030500Z 0306/0315 32010KT 9999 SCT035
                      PROB30 TEMPO 0306/0308 5000 -SN=
201901030800 TAF LRIA 030800Z 0309/0318 32010KT 9999 SCT035=
201901031100 TAF LRIA 031100Z 0312/0321 32010KT 9999 SCT025=
201901031400 TAF LRIA 031400Z 0315/0324 32008KT 9999 SCT025=
201901031700 TAF LRIA 031700Z 0318/0403 31008KT 9999 SCT025=
201901032000 TAF LRIA 032000Z 0321/0406 31008KT CAVOK
                      BECMG 0403/0405 BKN015=
201901032300 TAF LRIA 032300Z 0400/0409 31008KT CAVOK
                      BECMG 0403/0405 BKN015
                      PROB30 TEMPO 0405/0408 BKN010=
201901040200 TAF LRIA 040200Z 0403/0412 32008KT CAVOK
                      BECMG 0403/0405 BKN015 OVC030=
201901040500 TAF LRIA 040500Z 0406/0415 32014KT 9999 BKN040
                      TEMPO 0406/0409 5000 -SN BKN015 OVC030=
201901040800 TAF LRIA 040800Z 0409/0418 32014KT 9999 BKN015 BKN040
                      TEMPO 0409/0412 5000 -SN BKN010 OVC030=
201901041100 TAF LRIA 041100Z 0412/0421 32012KT 9999 BKN020 BKN040
                      TEMPO 0412/0415 5000 -SN BKN010 OVC030
                      BECMG 0418/0420 VRB04KT=
201901041400 TAF LRIA 041400Z 0415/0424 32012KT 9999 BKN020 BKN030
                      TEMPO 0415/0418 5000 -SN BKN010 OVC025
                      BECMG 0418/0420 VRB04KT=
201901041700 TAF LRIA 041700Z 0418/0503 32008KT 9999 SCT020 BKN040
                      PROB30 TEMPO 0418/0420 5000 -SN BKN010 OVC025
                       BECMG 0422/0424 VRB04KT=
201901042000 TAF LRIA 042000Z 0421/0506 VRB04KT 9999 BKN025
                      PROB30 TEMPO 0421/0423 5000 -SN=
201901042300 TAF LRIA 042300Z 0500/0509 VRB04KT 9999 SCT025
                      PROB30 TEMPO 0502/0506 3000 BR=
201901050200 TAF LRIA 050200Z 0503/0512 VRB04KT 9999 SCT035
                      PROB30 TEMPO 0503/0506 3000 BR=
201901050500 TAF LRIA 050500Z 0506/0515 20005KT CAVOK=
201901050800 TAF LRIA 050800Z 0509/0518 20005KT CAVOK=
201901051100 TAF LRIA 051100Z 0512/0521 20006KT CAVOK=
201901051400 TAF LRIA 051400Z 0515/0524 20006KT CAVOK
                      BECMG 0520/0522 5000 -SN BR BKN015 OVC030=
201901051700 TAF LRIA 051700Z 0518/0603 VRB04KT CAVOK
                      BECMG 0519/0521 5000 -SN BR BKN015 BKN030
                       TEMPO 0600/0603 1500 SN BR BKN005 OVC020=
201901052000 TAF LRIA 052000Z 0521/0606 VRB04KT CAVOK
                      BECMG 0521/0523 5000 -SN BR BKN015 BKN030
                       TEMPO 0600/0604 1500 SN BR BKN005 OVC020=
201901052300 TAF LRIA 052300Z 0600/0609 VRB03KT 5000 -SN BKN015 BKN040
                      TEMPO 0600/0606 3000 SN BR BKN010 OVC025
                       BECMG 0606/0608 32014KT 9999 NSW=
201901060200 TAF LRIA 060200Z 0603/0612 VRB04KT 3000 -SN BKN010 OVC025
                      TEMPO 0603/0606 1500 SN BR BKN005 OVC020
                       BECMG 0606/0608 32012KT 9999 NSW BKN030=
201901060500 TAF LRIA 060500Z 0606/0615 32011KT 5000 -SN SCT010 BKN020
                      TEMPO 0606/0608 3000 SN BKN005 OVC015
                      PROB40 TEMPO 0610/0612 3000 SN
                      TEMPO 0612/0614 8000 NSW=
201901060800 TAF LRIA 060800Z 0609/0618 33011KT 9999 SCT010 BKN040
                      TEMPO 0609/0612 5000 -SN
                      TEMPO 0615/0618 5000 -SN=
201901061100 TAF LRIA 061100Z 0612/0621 33012KT 9999 SCT015 BKN045
                      PROB30 TEMPO 0612/0614 5000 -SN
                      BECMG 0618/0620 3000 -SN BKN015 OVC025
                      TEMPO 0620/0621 1500 SN BKN010 OVC020=
201901061400 TAF LRIA 061400Z 0615/0624 33012KT 9999 -SN SCT010 BKN020
                      PROB30 TEMPO 0615/0618 5000 -SN
                      BECMG 0618/0620 3000 -SN BKN010 OVC020
                      TEMPO 0621/0624 1500 SN BKN005 OVC015=
201901061700 TAF LRIA 061700Z 0618/0703 32010KT 9999 -SN SCT010 BKN030
                      BECMG 0619/0621 5000 -SN BKN010 OVC020
                      TEMPO 0700/0703 1500 SN BKN005 OVC015=
201901062000 TAF LRIA 062000Z 0621/0706 32010KT 8000 -SN SCT010 BKN025
                      TEMPO 0621/0703 3000 SN BKN010 OVC025=
201901062300 TAF LRIA 062300Z 0700/0709 32010KT 8000 -SN SCT010 BKN030
                      TEMPO 0700/0703 3000 SN BKN010 OVC025=
201901070200 TAF LRIA 070200Z 0703/0712 35010KT 9999 BKN040
                      TEMPO 0703/0705 5000 -SN BKN015 BKN030
                      TEMPO 0709/0712 5000 -SN BKN015 BKN030=
201901070500 TAF LRIA 070500Z 0706/0715 34012KT 9999 SCT040
                      BECMG 0706/0708 5000 -SN BKN015 BKN030=
201901070800 TAF LRIA 070800Z 0709/0718 34012KT 5000 -SN BKN035
                      TEMPO 0709/0712 3000 SN BKN015 BKN030
                      BECMG 0714/0716 9999 NSW=
201901071100 TAF LRIA 071100Z 0712/0721 33010KT 3000 SN SCT010 OVC025
                      TEMPO 0712/0714 1500 +SN BKN005 OVC020
                      BECMG 0714/0716 9999 NSW=
201901071400 TAF LRIA 071400Z 0715/0724 33010KT 9999 SCT010 BKN040
                      TEMPO 0715/0717 5000 -SN BKN010 OVC030=
201901071700 TAF LRIA 071700Z 0718/0803 33008KT 9999 SCT010 BKN030
                      PROB30 TEMPO 0718/0721 5000 -SN BKN010 BKN025=
201901072000 TAF LRIA 072000Z 0721/0806 31008KT 9999 BKN035
                      PROB30 TEMPO 0721/0723 5000 -SN BKN010 BKN035=
201901072300 TAF LRIA 072300Z 0800/0809 31006KT 9999 BKN035=
201901080200 TAF LRIA 080200Z 0803/0812 VRB04KT CAVOK
                      PROB30 TEMPO 0803/0806 5000 BR=
201901080500 TAF LRIA 080500Z 0806/0815 VRB04KT CAVOK=
201901080800 TAF LRIA 080800Z 0809/0818 VRB04KT 6000 BKN035
                      BECMG 0815/0817 3000 BR BKN010=
201901081100 TAF LRIA 081100Z 0812/0821 VRB04KT 9999 BKN025
                      BECMG 0815/0817 3000 BR BKN010=
201901081400 TAF LRIA 081400Z 0815/0824 10008KT 9999 BKN025
                      BECMG 0815/0817 3000 BR BKN010=
201901081700 TAF LRIA 081700Z 0818/0903 10006KT CAVOK
                      PROB30 TEMPO 0823/0903 BKN010 BKN025=
201901082000 TAF LRIA 082000Z 0821/0906 11008KT CAVOK
                      BECMG 0821/0823 3000 BR BKN002
                      PROB30 TEMPO 0823/0905 0600 FZFG VV001=
201901082300 TAF LRIA 082300Z 0900/0909 11008KT 5000 BR NSC
                      PROB30 TEMPO 0900/0905 3000 BR BKN010
                      TEMPO 0906/0909 1500 -SN BR BKN002 BKN040=
201901090200 TAF LRIA 090200Z 0903/0912 11010KT 5000 BR BKN010
                      TEMPO 0903/0906 3000 BR BKN005
                      BECMG 0907/0909 9999 NSW BKN020=
201901090500 TAF LRIA 090500Z 0906/0915 12010KT 7000 SCT045
                      TEMPO 0906/0909 3000 -SN BR BKN005 BKN020=
201901090800 TAF LRIA 090800Z 0909/0918 11010KT 5000 BR SCT045
                      BECMG 0909/0911 7000 NSW=
201901091100 TAF LRIA 091100Z 0912/0921 11010KT 8000 NSC
                      BECMG 0918/0920 5000 BR BKN015=
201901091400 TAF LRIA 091400Z 0915/0924 11010KT CAVOK
                      BECMG 0918/0920 5000 BR BKN015=
201901091700 TAF LRIA 091700Z 0918/1003 10006KT CAVOK
                      BECMG 0920/0922 5000 BR BKN010
                      TEMPO 1000/1003 1500 BR BKN005=
201901092000 TAF LRIA 092000Z 0921/1006 10006KT CAVOK
                      TEMPO 0923/1005 3000 BR BKN010=
201901092300 TAF LRIA 092300Z 1000/1009 VRB04KT CAVOK
                      TEMPO 1001/1005 3000 BR BKN010=
201901100200 TAF LRIA 100200Z 1003/1012 VRB04KT 5000 BR BKN020
                      TEMPO 1003/1005 3000 BR BKN010
                      BECMG 1005/1007 3000 -SN BKN010 OVC035
                      TEMPO 1007/1011 1500 -SN BR BKN005 OVC025=
201901100500 TAF LRIA 100500Z 1006/1015 VRB04KT 3000 -SN BR BKN015 BKN025
                      TEMPO 1006/1011 1500 -SN BR BKN010 OVC035
                       BECMG 1011/1013 34010KT=
201901100800 TAF LRIA 100800Z 1009/1018 32008KT 1500 -SN BR BKN010 BKN020
                      TEMPO 1009/1011 0800 SN FG BKN005 OVC015
                       BECMG 1011/1013 3000 SCT015 BKN025=
201901101100 TAF LRIA 101100Z 1012/1021 32008KT 3000 -SN BR BKN010 OVC020
                      TEMPO 1012/1014 1500 -SN BR BKN005 OVC015=
201901101400 TAF LRIA 101400Z 1015/1024 32008KT 5000 -SN BR BKN010 OVC020
                      TEMPO 1015/1017 3000 -SN BR BKN005 OVC015
                       TEMPO 1021/1024 1500 SN BR BKN005 OVC015=
201901101700 TAF LRIA 101700Z 1018/1103 32010KT 3000 -SN BR BKN005 OVC020
                      TEMPO 1018/1024 1500 SN BKN002 OVC010
                      BECMG 1101/1103 1500 SN OVC002=
201901102000 TAF LRIA 102000Z 1021/1106 32010KT 3000 -SN BR BKN005 OVC020
                      TEMPO 1021/1106 1500 SN OVC002=
201901102300 TAF LRIA 102300Z 1100/1109 34010KT 1500 SN BKN005 OVC015
                      TEMPO 1103/1108 34015G25KT 0800 +SN DRSN
                       OVC002=
201901110200 TAF LRIA 110200Z 1103/1112 34018KT 1500 SN OVC005
                      TEMPO 1103/1109 0600 +SN BLSN VV002=
201901110500 TAF LRIA 110500Z 1106/1115 33016KT 1500 SN BLSN OVC005
                      TEMPO 1106/1109 0600 +SN BLSN VV001
                      BECMG 1111/1113 3000 -SN BR BKN010 BKN020=
201901110800 TAF LRIA 110800Z 1109/1118 34018KT 1500 SN BLSN OVC005
                      TEMPO 1109/1112 0600 +SN BLSN VV002
                      BECMG 1113/1115 3000 -SN BLSN BKN010 OVC020
                       BECMG 1116/1118 33008KT 5000 -SN BR BKN015
                       BKN020=
201901111100 TAF LRIA 111100Z 1112/1121 34016KT 3000 -SN BLSN BKN010 BKN025
                       TEMPO 1112/1114 1500 SN BLSN BKN005 BKN025
                       BECMG 1115/1117 5000 SCT010 BKN025
                      BECMG 1118/1120 33006KT 9999 NSW=
201901111400 TAF LRIA 111400Z 1115/1124 31010KT 5000 -SN BR SCT010 BKN035
                      TEMPO 1115/1117 3000 -SN BR BKN010 BKN035
                       BECMG 1118/1120 9999 NSW
                      BECMG 1120/1122 VRB04KT=
201901111700 TAF LRIA 111700Z 1118/1203 32008KT 9999 BKN040
                      TEMPO 1118/1120 5000 -SN BR BKN015 OVC035=
201901112000 TAF LRIA 112000Z 1121/1206 VRB04KT 9999 SCT040
                      TEMPO 1200/1206 5000 BR=
201901112300 TAF LRIA 112300Z 1200/1209 VRB04KT 3000 BR SCT040
                      TEMPO 1200/1206 1500 BR
                      BECMG 1207/1209 9999 NSW=
201901120200 TAF LRIA 120200Z 1203/1212 VRB04KT 4000 BR NSC
                      TEMPO 1203/1206 1500 BR
                      BECMG 1207/1209 9999 NSW=
201901120500 TAF LRIA 120500Z 1206/1215 12008KT 9999 SCT040
                      TEMPO 1206/1210 5000 -SN=
201901120800 TAF LRIA 120800Z 1209/1218 VRB04KT CAVOK
                      TEMPO 1209/1213 5000 -SN=
201901121100 TAF LRIA 121100Z 1212/1221 30006KT 9999 OVC035
                      TEMPO 1212/1216 3000 -SN BR BKN010 BKN030=
201901121400 TAF LRIA 121400Z 1215/1224 VRB04KT 9999 OVC035
                      TEMPO 1215/1216 5000 -SN BKN010 BKN030=
201901121700 TAF LRIA 121700Z 1218/1303 29006KT 9999 OVC035
                      TEMPO 1300/1303 5000 BR=
201901122000 TAF LRIA 122000Z 1221/1306 30006KT 9999 OVC040
                      TEMPO 1300/1306 3000 BR=
201901122300 TAF LRIA 122300Z 1300/1309 VRB04KT 9999 BKN040
                      TEMPO 1303/1306 3000 BR=
201901130200 TAF LRIA 130200Z 1303/1312 VRB04KT CAVOK
                      TEMPO 1303/1306 3000 BR=
201901130500 TAF LRIA 130500Z 1306/1315 VRB04KT CAVOK=
201901130800 TAF LRIA 130800Z 1309/1318 VRB04KT CAVOK=
201901131100 TAF LRIA 131100Z 1312/1321 12007KT CAVOK=
201901131400 TAF LRIA 131400Z 1315/1324 12007KT CAVOK=
201901131700 TAF LRIA 131700Z 1318/1403 12010KT CAVOK=
201901132000 TAF LRIA 132000Z 1321/1406 12008KT CAVOK
                      TEMPO 1400/1406 3000 BR=
201901132300 TAF LRIA 132300Z 1400/1409 10008KT CAVOK
                      TEMPO 1400/1406 3000 BR=
201901140200 TAF LRIA 140200Z 1403/1412 10008KT 5000 BR NSC
                      TEMPO 1403/1406 3000 BR
                      BECMG 1406/1408 9999 NSW
                      TEMPO 1409/1412 5000 -SN BKN015 BKN040=
201901140500 TAF LRIA 140500Z 1406/1415 10008KT 7000 NSC
                      PROB30 TEMPO 1406/1408 5000 BR
                      BECMG 1409/1411 21012KT
                      TEMPO 1409/1414 5000 -FZRA BKN015 BKN040=
201901140800 TAF LRIA 140800Z 1409/1418 10012KT 9999 SCT040
                      TEMPO 1409/1412 5000 -FZRA BKN015 BKN040
                       BECMG 1415/1417 VRB04KT
                      PROB30 TEMPO 1416/1417 -FZRA=
201901141100 TAF LRIA 141100Z 1412/1421 10008KT 9999 SCT040
                      PROB30 TEMPO 1412/1414 -FZRA
                      BECMG 1415/1417 VRB04KT
                      PROB30 TEMPO 1416/1418 -FZRA
                      BECMG 1417/1419 31010KT
                      TEMPO 1418/1421 5000 -SNRA=
201901141400 TAF LRIA 141400Z 1415/1424 10010KT 7000 SCT040
                      BECMG 1415/1417 VRB04KT
                      PROB30 TEMPO 1416/1418 -FZRA
                      BECMG 1417/1419 31010KT
                      PROB40 TEMPO 1418/1421 5000 -SNRA
                      BECMG 1421/1423 3000 -SN BKN015 BKN040=
201901141700 TAF LRIA 141700Z 1418/1503 10010KT 8000 SCT040
                      BECMG 1418/1420 VRB04KT
                      PROB40 TEMPO 1418/1421 5000 -SN
                      BECMG 1422/1424 31012KT 5000 -SN BKN015 BKN040
                       TEMPO 1500/1503 3000 -SN BKN010 BKN035=
201901142000 TAF LRIA 142000Z 1421/1506 VRB04KT 7000 BKN040
                      BECMG 1421/1423 31012KT 5000 -SN BKN015 BKN040
                       TEMPO 1423/1503 3000 -SN BKN010 BKN035
                      BECMG 1504/1506 9999 NSW SCT025=
201901142300 TAF LRIA 142300Z 1500/1509 31012KT CAVOK
                      PROB40 TEMPO 1500/1503 5000 -SN BKN015 BKN035
                       BECMG 1506/1508 VRB04KT=
201901150200 TAF LRIA 150200Z 1503/1512 32010KT CAVOK
                      PROB30 TEMPO 1503/1505 5000 -SN BKN015 BKN035=
201901150500 TAF LRIA 150500Z 1506/1515 33008KT CAVOK=
201901150800 TAF LRIA 150800Z 1509/1518 32008KT CAVOK=
201901151100 TAF LRIA 151100Z 1512/1521 25005KT CAVOK=
201901151400 TAF LRIA 151400Z 1515/1524 25005KT CAVOK=
201901151700 TAF LRIA 151700Z 1518/1603 25006KT CAVOK=
201901152000 TAF LRIA 152000Z 1521/1606 25006KT CAVOK
                      TEMPO 1604/1606 5000 -SN=
201901152300 TAF LRIA 152300Z 1600/1609 25007KT CAVOK
                      TEMPO 1604/1606 5000 -SN
                      TEMPO 1606/1609 5000 -SHSN SCT015 SCT030CB=
201901160200 TAF LRIA 160200Z 1603/1612 25007KT CAVOK
                      TEMPO 1604/1607 5000 -SN
                      TEMPO 1607/1612 5000 -SHSN SCT015 SCT030CB
                       BECMG 1609/1611 32012KT=
201901160500 TAF LRIA 160500Z 1606/1615 23007KT 9999 BKN040
                      TEMPO 1606/1608 5000 -SN
                      PROB40 TEMPO 1608/1612 5000 -SHSNRA SCT015
                       SCT030CB
                      BECMG 1609/1611 32017KT=
201901160800 TAF LRIA 160800Z 1609/1618 29014KT 9999 BKN040
                      PROB40 TEMPO 1609/1612 5000 -SHRA SCT015
                       SCT030CB=
201901161100 TAF LRIA 161100Z 1612/1621 29014KT 9999 BKN040
                      PROB40 TEMPO 1612/1616 29020G30KT 5000 -SHRA
                       SCT015 SCT030CB
                      BECMG 1616/1618 VRB04KT=
201901161400 TAF LRIA 161400Z 1615/1624 32010KT CAVOK
                      BECMG 1616/1618 VRB04KT=
201901161700 TAF LRIA 161700Z 1618/1703 VRB04KT 9999 BKN045=
201901162000 TAF LRIA 162000Z 1621/1706 VRB04KT 9999 BKN045=
201901162300 TAF LRIA 162300Z 1700/1709 VRB04KT 9999 BKN025=
201901170200 TAF LRIA 170200Z 1703/1712 VRB04KT 9999 BKN040=
201901170500 TAF LRIA 170500Z 1706/1715 11008KT CAVOK=
201901170800 TAF LRIA 170800Z 1709/1718 11008KT CAVOK=
201901171100 TAF LRIA 171100Z 1712/1721 10012KT CAVOK
                      BECMG 1717/1719 3000 BR=
201901171400 TAF LRIA 171400Z 1715/1724 10010KT CAVOK
                      BECMG 1717/1719 VRB04KT 3000 BR
                      PROB40 TEMPO 1720/1724 0800 FZFG BKN002=
201901171700 TAF LRIA 171700Z 1718/1803 11010KT CAVOK
                      BECMG 1719/1721 3000 BR
                      PROB30 TEMPO 1722/1803 0800 FZFG BKN002=
201901172000 TAF LRIA 172000Z 1721/1806 11008KT CAVOK
                      TEMPO 1800/1805 3000 BR=
201901172300 TAF LRIA 172300Z 1800/1809 11008KT CAVOK
                      TEMPO 1801/1805 3000 BR=
201901180200 TAF LRIA 180200Z 1803/1812 11008KT 5000 BR NSC
                      TEMPO 1803/1806 3000 BR
                      BECMG 1806/1808 CAVOK=
201901180500 TAF LRIA 180500Z 1806/1815 11008KT CAVOK
                      TEMPO 1806/1807 5000 BR=
201901180800 TAF LRIA 180800Z 1809/1818 11010KT CAVOK
                      BECMG 1813/1815 VRB04KT=
201901181100 TAF LRIA 181100Z 1812/1821 11010KT CAVOK
                      BECMG 1813/1815 VRB04KT
                      BECMG 1819/1821 5000 -SNRA BR BKN010 OVC040=
201901181400 TAF LRIA 181400Z 1815/1824 11010KT CAVOK
                      BECMG 1815/1817 VRB04KT
                      BECMG 1819/1821 33010KT 5000 -SNRA BR BKN010
                       OVC040
                      BECMG 1821/1823 3000 -SN BR BKN005 OVC020=
201901181700 TAF LRIA 181700Z 1818/1903 33012KT CAVOK
                      BECMG 1819/1821 5000 -RASN BR BKN010 OVC040
                       BECMG 1821/1823 3000 -SN BR BKN005 OVC020=
201901182000 TAF LRIA 182000Z 1821/1906 31012KT 9999 BKN030
                      BECMG 1821/1823 5000 -SN BR BKN015 BKN030
                       TEMPO 1823/1902 3000 SN BR BKN010 OVC025
                       BECMG 1904/1906 9999 NSW BKN020 BKN035=
201901182300 TAF LRIA 182300Z 1900/1909 32012KT 7000 -RASN BKN015 BKN030
                      TEMPO 1900/1903 5000 -SN BR BKN005 OVC020
                       BECMG 1905/1907 9999 NSW SCT020 BKN045=
201901190200 TAF LRIA 190200Z 1903/1912 33010KT 9999 SCT025 BKN045
                      TEMPO 1903/1905 5000 -SN BR BKN010 BKN035=
201901190500 TAF LRIA 190500Z 1906/1915 35008KT 9999 SCT030=
201901190800 TAF LRIA 190800Z 1909/1918 35006KT CAVOK=
201901191100 TAF LRIA 191100Z 1912/1921 VRB04KT 9999 SCT020=
201901191400 TAF LRIA 191400Z 1915/1924 VRB04KT 9999 SCT020=
201901191700 TAF LRIA 191700Z 1918/2003 11006KT CAVOK=
201901192000 TAF LRIA 192000Z 1921/2006 12006KT CAVOK=
201901192300 TAF LRIA 192300Z 2000/2009 12006KT CAVOK=
201901200200 TAF LRIA 200200Z 2003/2012 11008KT CAVOK=
201901200500 TAF LRIA 200500Z 2006/2015 13010KT 9999 OVC030
                      TEMPO 2006/2010 5000 -SN
                      BECMG 2010/2012 5000 -SN BR BKN010 OVC030
                       TEMPO 2012/2015 -RASN=
201901200800 TAF LRIA 200800Z 2009/2018 11010KT 9999 BKN010
                      TEMPO 2009/2011 5000 -SN
                      BECMG 2014/2016 5000 -SN BR BKN005 OVC010
                       TEMPO 2016/2018 3000 SN=
201901201100 TAF LRIA 201100Z 2012/2021 11010KT 9999 -SN OVC010
                      BECMG 2014/2016 5000 -SN BR BKN005 OVC010
                       TEMPO 2017/2021 3000 SN=
201901201322 TAF AMD LRIA 201322Z 2013/2021 11010KT 1500 BR VV001
                      TEMPO 2013/2016 0600 FZFG
                      BECMG 2016/2018 VRB04KT -SN BR BKN002 OVC010
                       TEMPO 2018/2021 0600 SN FZFG=
201901201400 TAF LRIA 201400Z 2015/2024 11012KT 0350 FZFG VV001
                      TEMPO 2015/2018 0800 BKN002
                      BECMG 2018/2020 VRB04KT 0600 SN FZFG BKN002
                       OVC010
                      BECMG 2022/2024 32014KT 1500 -SN BR BKN005
                       OVC015=
201901201700 TAF LRIA 201700Z 2018/2103 11010KT 0350 FZFG VV001
                      BECMG 2018/2020 VRB04KT 0800 -SN FZFG BKN002
                       OVC010
                      BECMG 2022/2024 32014KT 1500 -SN BR BKN005
                       OVC015
                      BECMG 2101/2103 3000 BR=
201901202000 TAF LRIA 202000Z 2021/2106 33004KT 1500 -SNRA BR BKN002
                      BECMG 2021/2023 32014KT 3000 -SN BR BKN005
                       OVC015
                      BECMG 2102/2104 5000 BR BKN010
                      BECMG 2104/2106 9999 NSW BKN020=
201901202300 TAF LRIA 202300Z 2100/2109 32014KT 3000 -SN BR BKN002
                      BECMG 2102/2104 5000 BR BKN010
                      BECMG 2104/2106 9999 NSW BKN020=
201901210200 TAF LRIA 210200Z 2103/2112 32012KT 3000 -SN BR BKN005 OVC030
                      BECMG 2103/2105 5000 BKN010 BKN035
                      BECMG 2105/2107 9999 NSW BKN020=
201901210500 TAF LRIA 210500Z 2106/2115 32012KT 5000 -SN BR BKN015 OVC030
                      TEMPO 2106/2109 3000 -SN BR BKN005 BKN035
                       BECMG 2109/2111 7000 NSW BKN020=
201901210800 TAF LRIA 210800Z 2109/2118 33012KT 9999 -SN SCT015 OVC025=
201901211100 TAF LRIA 211100Z 2112/2121 33010KT 9999 OVC020
                      BECMG 2117/2119 VRB04KT 5000 BR OVC010=
201901211400 TAF LRIA 211400Z 2115/2124 33008KT 9999 OVC020
                      BECMG 2117/2119 5000 BR OVC010
                      BECMG 2122/2124 1500 BR OVC005=
201901211700 TAF LRIA 211700Z 2118/2203 33006KT 9999 OVC025
                      TEMPO 2122/2203 5000 BR OVC010=
201901212000 TAF LRIA 212000Z 2121/2206 VRB04KT 9999 OVC020
                      TEMPO 2123/2205 5000 BR OVC010=
201901212300 TAF LRIA 212300Z 2200/2209 VRB04KT 9999 OVC020
                      TEMPO 2200/2205 5000 BR OVC010
                      BECMG 2207/2209 13010KT=
201901220200 TAF LRIA 220200Z 2203/2212 VRB04KT 9999 OVC020
                      TEMPO 2203/2205 5000 BR OVC010
                      BECMG 2207/2209 13010KT=
201901220500 TAF LRIA 220500Z 2206/2215 VRB04KT 9999 OVC025
                      BECMG 2206/2208 13010KT
                      BECMG 2209/2211 5000 -SN BKN010 OVC025
                      BECMG 2212/2214 1500 SN BKN005 OVC015=
201901220800 TAF LRIA 220800Z 2209/2218 13010KT 9999 OVC025
                      BECMG 2209/2211 5000 -SN BKN010 OVC025
                      BECMG 2212/2214 1500 SN BKN005 OVC015=
201901221100 TAF LRIA 221100Z 2212/2221 11016KT 5000 -SN BR SCT010 OVC025
                      TEMPO 2212/2215 1500 SN BR BKN010 OVC025
                       BECMG 2215/2217 1500 SN BKN005 OVC015=
201901221400 TAF LRIA 221400Z 2215/2224 11016KT 3000 -SN BR SCT010 OVC030
                      BECMG 2215/2217 1500 SN BKN005 OVC015
                      BECMG 2221/2223 12006KT=
201901221700 TAF LRIA 221700Z 2218/2303 11010KT 3000 -SN BR BKN010 OVC025
                      TEMPO 2218/2303 1500 SN BR BKN005 OVC015
                       PROB40
                      TEMPO 2222/2303 0800 SN OVC002=
201901222000 TAF LRIA 222000Z 2221/2306 11012KT 3000 -SN DRSN BKN005 OVC025
                       TEMPO 2221/2306 1500 SN DRSN OVC002
                      PROB40 TEMPO 2223/2303 0800 SN=
201901222300 TAF LRIA 222300Z 2300/2309 13008KT 3000 -SN BR BKN005 OVC025
                      TEMPO 2300/2306 1500 SN BR OVC002
                      PROB40 TEMPO 2300/2303 0800 SN OVC001
                      BECMG 2304/2306 VRB04KT=
201901230200 TAF LRIA 230200Z 2303/2312 11012KT 3000 -SN DRSN BKN005 OVC025
                       TEMPO 2303/2306 1500 SN DRSN OVC002
                      BECMG 2309/2311 VRB04KT 5000 BR BKN010=
201901230500 TAF LRIA 230500Z 2306/2315 11008KT 5000 -SN BR BKN010 OVC025
                      TEMPO 2306/2310 3000 SN BKN005 OVC020
                      BECMG 2311/2313 9999 NSW BKN015=
201901230800 TAF LRIA 230800Z 2309/2318 27006KT 3000 -SN BR BKN005 OVC025
                      TEMPO 2309/2311 1500 SN BR BKN002 OVC020
                       BECMG 2311/2313 7000 NSW BKN015=
201901231100 TAF LRIA 231100Z 2312/2321 27006KT 1500 BR BKN002 OVC020
                      BECMG 2312/2314 5000 BKN010=
201901231400 TAF LRIA 231400Z 2315/2324 30008KT 9999 OVC010
                      BECMG 2316/2318 OVC005=
201901231700 TAF LRIA 231700Z 2318/2403 32008KT 9999 OVC015
                      BECMG 2401/2403 5000 -SN BKN010 OVC025=
201901232000 TAF LRIA 232000Z 2321/2406 30007KT 9999 SCT015
                      TEMPO 2321/2401 BKN010
                      BECMG 2401/2403 5000 -SN BKN010 OVC025
                      TEMPO 2404/2406 1500 SN BKN005 OVC020=
201901232300 TAF LRIA 232300Z 2400/2409 VRB04KT 9999 OVC010
                      BECMG 2401/2403 5000 SN BKN010 OVC025
                      BECMG 2404/2406 34010KT 1500 SN BKN005 OVC020=
201901240200 TAF LRIA 240200Z 2403/2412 VRB04KT 5000 -SN BR OVC010
                      BECMG 2404/2406 34010KT 3000 SN BKN005 OVC020=
201901240500 TAF LRIA 240500Z 2406/2415 33008KT 5000 -SN BR BKN010 OVC040
                      TEMPO 2407/2412 1500 SN BKN005 OVC030=
201901240800 TAF LRIA 240800Z 2409/2418 33010KT 3000 -SN BR SCT015 OVC030
                      TEMPO 2409/2414 1500 SN BR BKN010 OVC020
                       PROB40 2409/2412 0800 +SN BKN005 OVC030=
201901241100 TAF LRIA 241100Z 2412/2421 33010KT 3000 -SN BR SCT015 OVC030
                      TEMPO 2412/2415 1500 SN BR BKN010 OVC020
                       PROB40 2418/2421 0800 +SN BKN002 OVC030=
201901241400 TAF LRIA 241400Z 2415/2424 33008KT 3000 -SN BR OVC030
                      TEMPO 2415/2418 1500 SN BKN005 OVC020=
201901241700 TAF LRIA 241700Z 2418/2503 33008KT 5000 -SN OVC020
                      TEMPO 2418/2424 1500 SN BKN005 OVC015=
201901242000 TAF LRIA 242000Z 2421/2506 34012KT 5000 -SN SCT015 OVC025
                      TEMPO 2421/2503 1500 SN BKN005 OVC015=
201901242300 TAF LRIA 242300Z 2500/2509 36012KT 5000 -SN SCT015 OVC025
                      TEMPO 2500/2503 1500 SN BKN005 OVC015
                      TEMPO 2503/2509 3000 SN BKN010 OVC020=
201901250200 TAF LRIA 250200Z 2503/2512 34008KT 9999 OVC020
                      PROB40 TEMPO 2503/2509 3000 -SN BKN010 OVC020=
201901250500 TAF LRIA 250500Z 2506/2515 03008KT 9999 OVC020
                      PROB40 TEMPO 2506/2509 3000 -SN BKN010 OVC020=
201901250800 TAF LRIA 250800Z 2509/2518 03006KT 9999 OVC025
                      TEMPO 2509/2510 5000 -FZDZ BKN010 OVC020=
201901251100 TAF LRIA 251100Z 2512/2521 08006KT 5000 BR BKN002 BKN015
                      TEMPO 2512/2514 7000 NSW BKN010 OVC020=
201901251359 TAF AMD LRIA 251359Z 2513/2521 08006KT 1500 BR BKN002
                      PROB30 TEMPO 2513/2515 3000 BKN005=
201901251400 TAF LRIA 251400Z 2515/2524 VRB04KT 3000 BR BKN005
                      BECMG 2516/2518 1500 BR OVC002
                      TEMPO 2521/2524 0800 FZFG=
201901251700 TAF LRIA 251700Z 2518/2603 VRB04KT 0300 FZFG VV001
                      TEMPO 2518/2521 0800 OVC002=
201901251714 TAF AMD LRIA 251714Z 2517/2524 VRB04KT 0300 FZFG VV001
                      PROB30 TEMPO 2517/2521 0800 OVC002=
201901252000 TAF LRIA 252000Z 2521/2606 VRB04KT 0300 FZFG VV001
                      PROB40 TEMPO 2600/2605 0800 -SN FZFG BKN002
                       OVC005=
201901252233 TAF AMD LRIA 252233Z 2522/2606 VRB04KT 1500 BR BKN002 OVC010
                      TEMPO 2522/2524 0800 FZFG VV001
                      PROB30 TEMPO 2600/2605 -SN BR=
201901252300 TAF LRIA 252300Z 2600/2609 VRB04KT 3000 BR BKN003 OVC005
                      PROB40 TEMPO 2600/2605 0800 -SN FZFG BKN001
                       OVC003=
201901260200 TAF LRIA 260200Z 2603/2612 32008KT 3000 BR BKN002
                      BECMG 2606/2608 5000 BKN010 OVC020
                      TEMPO 2609/2612 3000 -SN BR BKN005 OVC010=
201901260500 TAF LRIA 260500Z 2606/2615 32008KT 5000 BR SCT010 OVC020
                      TEMPO 2606/2609 1500 BR BKN002
                      TEMPO 2609/2612 3000 -SN BR BKN005 OVC010=
201901260800 TAF LRIA 260800Z 2609/2618 32008KT 7000 -SN SCT005 OVC020
                      TEMPO 2609/2612 3000 -SN BR BKN002 OVC005=
201901261100 TAF LRIA 261100Z 2612/2621 31008KT 9999 SCT010 OVC020
                      TEMPO 2612/2614 5000 -SN BR BKN010 OVC015
                       TEMPO 2618/2621 3000 -SN BR BKN005 OVC015=
201901261400 TAF LRIA 261400Z 2615/2624 33006KT 9999 SCT010 OVC020
                      TEMPO 2618/2624 3000 -SN BR BKN005 OVC015=
201901261700 TAF LRIA 261700Z 2618/2703 33006KT 5000 -SN BKN015 OVC020
                      TEMPO 2618/2619 -FZRA
                      TEMPO 2619/2624 3000 -SN BR BKN005 OVC015=
201901262000 TAF LRIA 262000Z 2621/2706 30006KT 3000 -SN SCT010 OVC020
                      TEMPO 2621/2701 1500 SN BR BKN005 OVC015
                       TEMPO 2701/2706 1500 BR=
201901262142 TAF AMD LRIA 262142Z 2621/2706 30006KT 0600 SN BKN005 OVC015
                      BECMG 2621/2623 0800 -SN BKN010 OVC020
                      BECMG 2623/2701 1500 BR=
201901262300 TAF LRIA 262300Z 2700/2709 30006KT 1500 SN BR BKN005 BKN025
                      BECMG 2701/2703 3000 BR BKN010 BKN030
                      BECMG 2705/2707 5000 BKN015 BKN035=
201901270200 TAF LRIA 270200Z 2703/2712 28005KT 5000 BR NSC
                      PROB30 TEMPO 2703/2707 1500 BR BKN005 BKN015
                       BECMG 2708/2710 9999 NSW=
201901270500 TAF LRIA 270500Z 2706/2715 VRB04KT 5000 BR NSC
                      TEMPO 2706/2708 1500 BR BKN005
                      BECMG 2708/2710 9999 NSW=
201901270800 TAF LRIA 270800Z 2709/2718 VRB04KT 3000 BR NSC
                      BECMG 2710/2712 9999 NSW=
201901271100 TAF LRIA 271100Z 2712/2721 VRB04KT 5000 BR NSC
                      BECMG 2712/2714 9999 NSW
                      BECMG 2716/2718 3000 BR BKN010=
201901271400 TAF LRIA 271400Z 2715/2724 10006KT 7000 NSC
                      BECMG 2716/2718 3000 BR BKN010=
201901271700 TAF LRIA 271700Z 2718/2803 10008KT 5000 BR NSC
                      BECMG 2719/2721 3000 BR SCT010
                      PROB30 TEMPO 2722/2803 0800 FZFG BKN005=
201901272000 TAF LRIA 272000Z 2721/2806 10008KT 3000 BR NSC
                      BECMG 2722/2724 1500 BR BKN005
                      TEMPO 2802/2806 0600 FZFG OVC001
                      PROB30 2803/2805 0150=
201901272300 TAF LRIA 272300Z 2800/2809 10008KT 1500 BR OVC001
                      TEMPO 2801/2805 0600 FZFG
                      PROB30 2802/2805 0150 FZFG
                      BECMG 2806/2808 4000 BKN005=
201901280200 TAF LRIA 280200Z 2803/2812 10008KT 3000 BR SCT010
                      TEMPO 2803/2806 0600 FZFG BKN002
                      PROB30 2803/2805 0150 FZFG
                      BECMG 2806/2808 CAVOK=
201901280500 TAF LRIA 280500Z 2806/2815 10008KT 9999 BKN010
                      TEMPO 2806/2808 3000 BR BKN005
                      BECMG 2808/2810 BKN020=
201901280800 TAF LRIA 280800Z 2809/2818 10008KT 7000 BKN020
                      TEMPO 2809/2811 3000 BR BKN010=
201901281100 TAF LRIA 281100Z 2812/2821 10008KT 7000 BKN010
                      BECMG 2815/2817 3000 BR BKN005
                      TEMPO 2818/2821 1500 BR BKN002=
201901281400 TAF LRIA 281400Z 2815/2824 10008KT 7000 BKN010
                      BECMG 2815/2817 3000 BR BKN005
                      TEMPO 2818/2821 1500 BR BKN002=
201901281700 TAF LRIA 281700Z 2818/2903 10008KT 9999 BKN010
                      BECMG 2820/2822 3000 BR BKN005
                      TEMPO 2900/2903 1500 BR BKN002=
201901282000 TAF LRIA 282000Z 2821/2906 11008KT 7000 BKN010
                      BECMG 2821/2823 3000 BR BKN005
                      TEMPO 2900/2906 1500 BR BKN002
                      PROB40 TEMPO 2901/2906 0600 FZFG OVC001=
201901282300 TAF LRIA 282300Z 2900/2909 13008KT 3000 BR BKN010
                      TEMPO 2900/2906 1500 BR BKN005
                      PROB40 TEMPO 2901/2906 0600 FZFG OVC002
                      BECMG 2906/2908 9999 NSW SCT020=
201901290200 TAF LRIA 290200Z 2903/2912 13008KT 0600 FZFG BKN010
                      TEMPO 2903/2906 0150 FZFG BKN001
                      BECMG 2906/2908 1500 BR
                      BECMG 2908/2910 5000 SCT020=
201901290500 TAF LRIA 290500Z 2906/2915 11007KT 0600 FG BKN002
                      BECMG 2907/2909 1500 BR SCT005
                      BECMG 2909/2910 5000
                      BECMG 2910/2912 9999 NSW=
201901290800 TAF LRIA 290800Z 2909/2918 11008KT 0300 FG BKN001
                      BECMG 2909/2911 1500 BR SCT005
                      TEMPO 2911/2915 3000
                      BECMG 2915/2917 1500 BR=
201901291100 TAF LRIA 291100Z 2912/2921 11012KT 0150 FG VV001
                      BECMG 2913/2915 1500 BR SCT005
                      BECMG 2915/2917 3000 BKN005 OVC030
                      TEMPO 2918/2921 0800 -FZDZ FZFG BKN002 OVC010=
201901291400 TAF LRIA 291400Z 2915/2924 11012KT 0150 FG VV001
                      BECMG 2916/2918 0600 FZFG OVC002
                      TEMPO 2919/2924 1500 -FZDZ BR=
201901291700 TAF LRIA 291700Z 2918/3003 VRB04KT 0800 FZFG VV001
                      BECMG 2919/2921 1500 BR OVC002
                      BECMG 2922/2924 3000 RA RASN BKN005 OVC020
                       PROB30
                      TEMPO 3000/3003 FZRA=
201901292000 TAF LRIA 292000Z 2921/3006 VRB04KT 3000 BR VV001
                      BECMG 2922/2924 3000 RA RASN BKN005 OVC020
                       PROB30
                      TEMPO 3000/3003 FZRA=
201901292045 TAF AMD LRIA 292045Z 2921/3006 VRB04KT 0600 FG VV001
                      TEMPO 2921/2923 0350 FG
                      BECMG 2923/3001 1500 RA RASN BKN005 OVC020
                       PROB30
                      TEMPO 3000/3003 FZRA=
201901292300 TAF LRIA 292300Z 3000/3009 VRB04KT 0600 FG VV001
                      TEMPO 3000/3002 0350 FG
                      TEMPO 3002/3007 1500 RA BKN005 OVC025
                      PROB30 TEMPO 3004/3006 RASN FZRA=
201901300200 TAF LRIA 300200Z 3003/3012 VRB04KT 0600 -DZ FG VV001
                      TEMPO 3003/3006 0350 -FZDZ FZFG
                      BECMG 3006/3008 1500 -RA BR BKN005 OVC025
                       BECMG 3009/3011 5000 BKN010 BKN030=
201901300500 TAF LRIA 300500Z 3006/3015 VRB04KT 0350 FG VV001
                      BECMG 3007/3009 0800 OVC002
                      BECMG 3009/3011 1500 BR BKN005
                      PROB30 TEMPO 3011/3015 3000 BR BKN010=
201901300800 TAF LRIA 300800Z 3009/3018 VRB04KT 0300 FG VV001
                      BECMG 3009/3011 0600 OVC002
                      PROB40 TEMPO 3011/3015 1500 BR BKN005=
201901301100 TAF LRIA 301100Z 3012/3021 08008KT 0300 FG OVC001
                      BECMG 3013/3015 0600 OVC002
                      PROB40 TEMPO 3015/3018 1500 BR BKN005=
201901301400 TAF LRIA 301400Z 3015/3024 11008KT 5000 BR NSC
                      BECMG 3016/3018 1500 BR BKN005
                      TEMPO 3018/3024 0600 FG BKN002=
201901301700 TAF LRIA 301700Z 3018/3103 11008KT 5000 BR NSC
                      BECMG 3019/3021 1500 BR
                      TEMPO 3022/3103 0600 FG BKN002=
201901301903 TAF AMD LRIA 301903Z 3019/3103 11010KT 0600 FG SCT002
                      BECMG 3019/3021 0350 FG BKN001
                      TEMPO 3022/3103 1500 BR BKN002=
201901302000 TAF LRIA 302000Z 3021/3106 11012KT 1500 BR SCT002
                      TEMPO 3022/3104 0600 -DZ FG BKN002
                      BECMG 3023/3101 VRB04KT=
201901302215 TAF AMD LRIA 302215Z 3022/3106 11012KT 0150 FG SCT001
                      TEMPO 3022/3101 0600 -DZ FG BKN002
                      BECMG 3101/3103 VRB04KT 0600
                      BECMG 3104/3106 1500 BR BKN005=
201901302300 TAF LRIA 302300Z 3100/3109 11008KT 0150 FG VV001
                      TEMPO 3100/3105 0600 BKN002
                      BECMG 3105/3107 0800 BKN002
                      BECMG 3107/3109 3000 BR BKN010 BKN030=
201901310200 TAF LRIA 310200Z 3103/3112 11010KT 0150 FG VV001
                      TEMPO 3103/3105 0600 BKN002
                      BECMG 3105/3107 0800 BKN002
                      BECMG 3107/3109 3000 BR BKN005 OVC020
                      BECMG 3109/3111 5000 -RA BR BKN010 OVC030=
201901310500 TAF LRIA 310500Z 3106/3115 11010KT 0150 FG VV001
                      BECMG 3108/3110 0800 BKN002
                      BECMG 3110/3111 1500 -RA BR BKN005 OVC025=
201901310800 TAF LRIA 310800Z 3109/3118 11010KT 1500 BR BKN002
                      PROB30 TEMPO 3109/3111 0600 FG VV001
                      PROB40 TEMPO 3111/3114 3000 -RA BR BKN005
                       OVC025
                      BECMG 3115/3117 VRB03KT 0300 FG VV001=
201901311100 TAF LRIA 311100Z 3112/3121 11010KT 0600 FG BKN002
                      PROB40 TEMPO 3112/3115 3000 -RA BR BKN005
                       OVC025
                      BECMG 3115/3117 VRB03KT 0300 FG VV001=
201901311219 TAF AMD LRIA 311219Z 3112/3121 11010KT 0100 FG VV001
                      PROB30 TEMPO 3112/3115 0800 -RADZ BR BKN002
                       OVC015
                      BECMG 3115/3117 VRB03KT=
201901311400 TAF LRIA 311400Z 3115/3124 11010KT 0100 FG VV001
                      BECMG 3116/3118 VRB03KT=
201901311700 TAF LRIA 311700Z 3118/0103 VRB04KT 0100 FG OVC001
                      PROB30 TEMPO 3118/3122 0600 -RADZ FG BKN002
                       BKN025
                      PROB30 TEMPO 0100/0103 -FZDZ FZFG=
201901312000 TAF LRIA 312000Z 3121/0106 VRB04KT 0100 FG OVC001
                      PROB30 TEMPO 3121/3123 0600 -RADZ FG BKN002
                       BKN025
                      PROB40 TEMPO 0102/0106 -FZDZ FZFG=
201901312300 TAF LRIA 312300Z 0100/0109 VRB04KT 0350 FG OVC001
                      TEMPO 0100/0102 0800 BKN005
                      PROB40 TEMPO 0102/0106 -FZDZ FZFG
                      BECMG 0107/0109 0800 BKN003=
