201902010000 METAR LRIA 010000Z 00000KT 0650 R14/0750N R32/0400N FG FEW002
                        SCT005 BKN009 02/01 Q1006 R14/29//95=
201902010030 METAR LRIA 010030Z 00000KT 0600 R14/0700N R32/0500N FG FEW001
                        SCT004 BKN006 02/01 Q1006 R14/29//95=
201902010100 METAR LRIA 010100Z 00000KT 0450 R14/0550N R32/0450D FG FEW001
                        SCT005 BKN010 02/01 Q1007 R14/29//95=
201902010130 METAR LRIA 010130Z 00000KT 0400 R14/0500N R32/0550N FG SCT001
                        BKN005 01/00 Q1007 R14/29//95=
201902010200 METAR LRIA 010200Z 00000KT 0550 R14/0700N R32/0650N FG SCT002
                        BKN005 01/00 Q1007 R14/29//95=
201902010230 METAR LRIA 010230Z 00000KT 0450 R14/0550N R32/0600N FG FEW002
                        BKN006 01/M00 Q1007 R14/29//95=
201902010300 METAR LRIA 010300Z 00000KT 0550 R14/0700N R32/0500N FG SCT002
                        BKN008 01/M00 Q1008 R14/29//95=
201902010330 METAR LRIA 010330Z 00000KT 0500 R14/0600N R32/0700N FG SCT003
                        BKN008 01/M00 Q1008 R14/29//95=
201902010400 METAR LRIA 010400Z 27001KT 0550 R14/0700N R32/0800N FG OVC003
                        01/M00 Q1008 R14/29//95=
201902010430 METAR LRIA 010430Z 27003KT 230V290 0800 R14/1000N R32/0700D
                        FG FEW002 SCT005 BKN009 01/00 Q1008
                        R14/29//95=
201902010500 METAR LRIA 010500Z 27004KT 0650 R14/0800N R32/1000U FG FEW001
                        BKN009 01/00 Q1009 R14/29//95=
201902010530 METAR LRIA 010530Z 27004KT 0800 R14/1000N R32/2000U FG FEW002
                        SCT006 BKN009 01/00 Q1009 R14/29//95=
201902010600 METAR LRIA 010600Z 00000KT 0650 R14/0800D R32/0900N FG BKN002
                        OVC006 01/00 Q1009 R14/29//95=
201902010630 METAR LRIA 010630Z 00000KT 0450 R14/0450N R32/0500N FG BKN006
                        OVC008 01/00 Q1009 R14/29//95=
201902010700 METAR LRIA 010700Z 00000KT 0300 R14/0400N R32/0400N FG OVC004
                        01/00 Q1010 R14/29//95=
201902010730 METAR LRIA 010730Z 27004KT 0300 R14/0450N R32/0400N FG VV002
                        02/00 Q1010 R14/29//95=
201902010800 METAR LRIA 010800Z 26001KT 0500 R14/0700N R32/0350N FG VV001
                        02/01 Q1010 R14/29//95=
201902010830 METAR LRIA 010830Z 27004KT 0350 R14/0500N R32/0900N FG VV001
                        02/01 Q1011 R14/29//95=
201902010900 METAR LRIA 010900Z 24002KT 0600 R14/0900U R32/0650N FG VV002
                        02/01 Q1011 R14/29//95=
201902010930 METAR COR LRIA 010930Z 27003KT 240V310 1500 BR BKN001 OVC004
                        02/01 Q1012 R14/29//95=
201902011000 METAR COR LRIA 011000Z 28004KT 1000 R14/1100D R32/P2000 FG
                        BKN001 OVC004 02/01 Q1012 R14/29//95=
201902011030 METAR LRIA 011030Z 35003KT 320V020 3000 BR BKN001 OVC003
                        02/01 Q1012 R14/29//95=
201902011100 METAR LRIA 011100Z VRB02KT 4000 BR SCT001 OVC003 02/01 Q1012
                        R14/29//95=
201902011130 METAR LRIA 011130Z 30003KT 6000 FEW001 OVC005 02/01 Q1012
                        R14/29//95=
201902011200 METAR LRIA 011200Z 03003KT 7000 FEW003 OVC006 02/01 Q1012
                        R14/29//95=
201902011230 METAR LRIA 011230Z 05003KT 7000 OVC004 02/01 Q1012 R14/29//95=
201902011300 METAR LRIA 011300Z 11004KT 070V130 5000 BR OVC003 02/01 Q1012
                        R14/29//95=
201902011330 METAR LRIA 011330Z 12006KT 4000 BR OVC003 02/01 Q1012 R14/29//95=
201902011400 METAR LRIA 011400Z 11004KT 1800 BR OVC002 02/01 Q1012 R14/29//95=
201902011430 METAR LRIA 011430Z 09004KT 1500 BR OVC002 02/00 Q1012 R14/29//95=
201902011500 METAR LRIA 011500Z 10006KT 1500 BR OVC002 01/00 Q1012 R14/29//95=
201902011530 METAR LRIA 011530Z 10005KT 1500 BR OVC002 01/00 Q1013 R14/29//95=
201902011600 METAR LRIA 011600Z 10005KT 0500 R14/1200D R32/1500D FG OVC002
                        01/00 Q1013 R14/29//95=
201902011630 METAR LRIA 011630Z 10008KT 0200 R14/0650N R32/0800D FG VV001
                        01/M00 Q1013 R14/29//95=
201902011700 METAR LRIA 011700Z 10009KT 0200 R14/0700N R32/0650N FG VV001
                        01/M00 Q1013 R14/29//95=
201902011730 METAR LRIA 011730Z 11010KT 0150 R14/0500D R32/0650N FG VV001
                        01/M00 Q1013 R14/29//95=
201902011800 METAR LRIA 011800Z 11010KT 0150 R14/0450N R32/0400N FG VV001
                        01/M01 Q1013 R14/29//95=
201902011830 METAR LRIA 011830Z 12010KT 0150 R14/0450N R32/0550N FG VV001
                        00/M01 Q1013 R14/29//95=
201902011900 METAR LRIA 011900Z 13006KT 0200 R14/0500N R32/0550N FG VV001
                        00/M01 Q1014 R14/29//95=
201902011930 METAR LRIA 011930Z 12007KT 0200 R14/0500N R32/0375 FG VV001
                        00/M01 Q1014 R14/29//95=
201902012000 METAR LRIA 012000Z 11010KT 0250 R14/0650N R32/0800 FG VV001
                        00/M01 Q1013 R14/29//95=
201902012030 METAR LRIA 012030Z 11012KT 0200 R14/0500N R32/0600N FZFG
                        VV001 M00/M01 Q1013 R14/19//95=
201902012100 METAR LRIA 012100Z 10013KT 0150 R14/0450N R32/0375N FZFG
                        VV001 M00/M01 Q1013 R14/19//95=
201902012130 METAR LRIA 012130Z 11014KT 0150 R14/0500N R32/0450N FZFG
                        VV001 M00/M01 Q1013 R14/19//95=
201902012200 METAR LRIA 012200Z 11012KT 0150 R14/0500N R32/0450N FZFG
                        VV001 M00/M02 Q1014 R14/19//95=
201902012230 METAR LRIA 012230Z 11008KT 0300 R14/0650N R32/0700N FZFG
                        VV001 M00/M02 Q1014 R14/19//95=
201902012300 METAR LRIA 012300Z 11010KT 0250 R14/0550N R32/0550N FZFG
                        VV001 M00/M02 Q1013 R14/19//95=
201902012330 METAR LRIA 012330Z 11011KT 0200 R14/0550N R32/0450N FZFG
                        VV001 M00/M02 Q1013 R14/19//95=
201902020000 METAR LRIA 020000Z 12010KT 0300 R14/0700N R32/0800U FZFG
                        VV001 M00/M01 Q1013 R14/19//95=
201902020030 METAR LRIA 020030Z 12011KT 0500 R14/1100U R32/P2000 FZFG
                        VV001 M00/M01 Q1013 R14/19//95=
201902020100 METAR LRIA 020100Z 12010KT 3000 BR OVC002 M00/M01 Q1013 R14/19//95=
201902020130 METAR LRIA 020130Z 12010KT 5000 BR OVC002 M00/M01 Q1013 R14/19//95=
201902020200 METAR LRIA 020200Z 12009KT 7000 FEW002 SCT007 M00/M01 Q1013
                        R14/19//95=
201902020230 METAR LRIA 020230Z 12011KT 1000 R14/1100 R32/P2000 BR FEW001
                        BKN006 00/M01 Q1013 R14/19//95=
201902020300 METAR LRIA 020300Z 11014KT 1000 R14/0800 R32/P2000 BR BKN002
                        00/M01 Q1013 R14/19//95=
201902020330 METAR LRIA 020330Z 12012KT 3000 FEW003 SCT005 00/M01 Q1013
                        R14/19//95=
201902020400 METAR LRIA 020400Z AUTO 13008KT 4900 FEW001/// SCT004///
                        01/M00 Q1013=
201902020430 METAR COR LRIA 020430Z 12012KT 2300 BR BKN002 01/M01 Q1013
                        R14/19//95=
201902020500 METAR LRIA 020500Z 11014KT 0200 R14/0500N R32/0800 FG FEW003
                        01/M01 Q1012 R14/19//95=
201902020530 METAR LRIA 020530Z 11012KT 0200 R14/0450 R32/0700D FG VV002
                        01/M01 Q1013 R14/19//95=
201902020600 METAR LRIA 020600Z 12011KT 0150 R14/0375N R32/0750D FG VV001
                        01/M01 Q1013 R14/19//95=
201902020630 METAR LRIA 020630Z 12012KT 0150 R14/0325N R32/0500N FG VV001
                        01/M00 Q1013 R14/19//95=
201902020700 METAR LRIA 020700Z 11013KT 0150 R14/0300N R32/0550N FG VV001
                        01/M00 Q1013 R14/19//95=
201902020730 METAR LRIA 020730Z 11013KT 0150 R14/0300N R32/0650U FG VV001
                        01/M00 Q1013 R14/19//95=
201902020800 METAR LRIA 020800Z 11014KT 0350 R14/0450N R32/1700N FG BKN001
                        01/M00 Q1014 R14/19//95=
201902020830 METAR LRIA 020830Z 11016KT 0800 R14/1200N R32/P2000 FG SCT001
                        01/M00 Q1013 R14/19//95=
201902020900 METAR LRIA 020900Z 12015KT 0900 R14/1400N R32/P2000 FG SCT001
                        01/M00 Q1014 R14/19//95=
201902020930 METAR LRIA 020930Z 11014KT 5000 BR FEW001 01/00 Q1014 R14/19//95=
201902021000 METAR LRIA 021000Z 12013KT 9999 FEW002 02/00 Q1014 R14/19//95=
201902021030 METAR LRIA 021030Z 12015KT CAVOK 02/01 Q1013 R14/19//95=
201902021100 METAR LRIA 021100Z 11016KT CAVOK 02/01 Q1013 R14/19//95=
201902021130 METAR LRIA 021130Z 12014KT CAVOK 02/01 Q1013 R14/19//95=
201902021200 METAR LRIA 021200Z 11013KT CAVOK 02/00 Q1013 R14/19//95=
201902021230 METAR LRIA 021230Z 11015KT CAVOK 02/00 Q1013 R14/19//95=
201902021300 METAR LRIA 021300Z 11016KT CAVOK 02/00 Q1012 R14/19//95=
201902021330 METAR LRIA 021330Z 11014KT CAVOK 03/01 Q1012 R14/19//95=
201902021400 METAR LRIA 021400Z 11015KT 9999 FEW009 03/01 Q1013 R14/19//95=
201902021430 METAR LRIA 021430Z 11015KT 9999 FEW009 02/01 Q1012 R14/19//95=
201902021500 METAR LRIA 021500Z 11012KT 9999 FEW009 02/01 Q1013 R14/19//95=
201902021530 METAR LRIA 021530Z 11013KT 9999 SCT013 02/01 Q1013 R14/19//95=
201902021600 METAR LRIA 021600Z 11010KT 9999 BKN013 02/01 Q1013 R14/19//95=
201902021630 METAR LRIA 021630Z 11011KT 8000 BKN010 03/01 Q1013 R14/19//95=
201902021700 METAR LRIA 021700Z 11012KT 9999 BKN009 03/01 Q1013 R14/19//95=
201902021730 METAR LRIA 021730Z 11011KT 9999 BKN009 03/01 Q1013 R14/19//95=
201902021800 METAR LRIA 021800Z 11011KT 6000 BKN008 03/01 Q1013 R14/19//95=
201902021830 METAR LRIA 021830Z 11013KT 2000 BR SCT006 BKN008 03/01 Q1013
                        R14/19//95=
201902021900 METAR LRIA 021900Z 11012KT 0800 R14/1700D R32/2000 FG SCT007
                        OVC009 03/02 Q1013 R14/19//95=
201902021930 METAR LRIA 021930Z 11012KT 0200 R14/0700N R32/0800D FG SCT001
                        BKN005 OVC009 03/02 Q1013 R14/19//95=
201902022000 METAR LRIA 022000Z 11014KT 0400 R14/0800N R32/1100N FG FEW001
                        BKN005 OVC009 03/02 Q1013 R14/19//95=
201902022030 METAR LRIA 022030Z 11014KT 0400 R14/1000N R32/1200D FG SCT001
                        BKN005 OVC009 03/02 Q1013 R14/19//95=
201902022100 METAR LRIA 022100Z 12013KT 0100 R14/0400N R32/0450N FG BKN001
                        OVC006 03/02 Q1013 R14/19//95=
201902022130 METAR LRIA 022130Z 10010KT 0100 R14/0400N R32/0550N FG BKN001
                        OVC003 03/02 Q1013 R14/19//95=
201902022200 METAR LRIA 022200Z 11012KT 0100 R14/0400N R32/0550N FG BKN001
                        OVC003 03/02 Q1013 R14/19//95=
201902022230 METAR LRIA 022230Z 11012KT 0100 R14/0375N R32/0300N FG VV001
                        03/02 Q1013 R14/19//95=
201902022300 METAR LRIA 022300Z 11013KT 0100 R14/0350N R32/0275N FG VV001
                        03/02 Q1013 R14/19//95=
201902022330 METAR LRIA 022330Z 11012KT 0100 R14/0325N R32/0275N FG VV001
                        03/02 Q1013 R14/19//95=
201902030000 METAR LRIA 030000Z 12010KT 0100 R14/0325N R32/0275N FG VV001
                        03/02 Q1013 R14/19//95=
201902030030 METAR LRIA 030030Z 11010KT 0100 R14/0400N R32/0500N FG VV001
                        03/02 Q1013 R14/19//95=
201902030100 METAR LRIA 030100Z 12010KT 0250 R14/0550U R32/1400U FG BKN001
                        OVC008 03/02 Q1013 R14/19//95=
201902030130 METAR LRIA 030130Z 11010KT 0100 R14/0300N R32/0300D FG BKN001
                        OVC007 03/02 Q1013 R14/19//95=
201902030200 METAR LRIA 030200Z 11009KT 0100 R14/0350N R32/0275N FG VV001
                        03/02 Q1012 R14/19//95=
201902030230 METAR LRIA 030230Z 11009KT 0300 R14/0400N R32/0400N FG VV001
                        03/02 Q1012 R14/19//95=
201902030300 METAR LRIA 030300Z 11009KT 0100 R14/0375N R32/0350N FG VV001
                        03/02 Q1012 R14/19//95=
201902030330 METAR LRIA 030330Z 11009KT 0100 R14/0375N R32/0325N FG VV001
                        03/02 Q1012 R14/19//95=
201902030400 METAR LRIA 030400Z 13008KT 0100 R14/0350N R32/0375N FG VV001
                        03/02 Q1012 R14/19//95=
201902030430 METAR LRIA 030430Z 11010KT 0100 R14/0350N R32/0375N FG VV001
                        03/02 Q1012 R14/19//95=
201902030500 METAR LRIA 030500Z 11011KT 0100 R14/0400N R32/0400N FG VV001
                        03/02 Q1012 R14/19//95=
201902030530 METAR LRIA 030530Z 14005KT 110V200 0100 R14/0400N R32/0550N
                        FG VV001 03/02 Q1013 R14/19//95=
201902030600 METAR LRIA 030600Z 08003KT 080V190 0100 R14/0400N R32/0450N
                        FG VV001 03/02 Q1013 R14/19//95=
201902030630 METAR LRIA 030630Z 11005KT 0150 R14/0350N R32/0325N FG VV001
                        03/02 Q1013 R14/19//95=
201902030700 METAR LRIA 030700Z 11006KT 0100 R14/0175N R32/0175N FG VV002
                        03/01 Q1014 R14/19//95=
201902030730 METAR LRIA 030730Z 11009KT 0100 R14/0250N R32/0225N FG VV001
                        03/02 Q1014 R14/19//95=
201902030800 METAR LRIA 030800Z 11012KT 0100 R14/0275N R32/0325N FG VV001
                        03/02 Q1014 R14/19//95=
201902030830 METAR LRIA 030830Z 11011KT 0200 R14/0300N R32/0700U FG VV001
                        03/02 Q1014 R14/19//95=
201902030900 METAR LRIA 030900Z 12011KT 0150 R14/0275N R32/0325N FG VV001
                        04/02 Q1014 R14/19//95=
201902030930 METAR LRIA 030930Z 12012KT 0300 R14/0350N R32/0800U FG VV001
                        04/02 Q1014 R14/19//95=
201902031000 METAR LRIA 031000Z 11014KT 0200 R14/0350N R32/0800 FG VV001
                        04/03 Q1013 R14/19//95=
201902031030 METAR LRIA 031030Z 12012KT 5000 BR OVC003 04/03 Q1013 R14/19//95=
201902031100 METAR LRIA 031100Z 12012KT 5000 BR OVC002 05/03 Q1013 R14/19//95=
201902031130 METAR LRIA 031130Z 11011KT 6000 SCT002 BKB008 05/04 Q1013
                        R14/19//95=
201902031200 METAR LRIA 031200Z 11010KT 6000 BKN002 05/04 Q1013 R14/19//95=
201902031230 METAR LRIA 031230Z 12013KT 9000 BKN010 06/04 Q1013 R14/19//95=
201902031300 METAR LRIA 031300Z 12013KT 9999 SCT015 06/04 Q1013 R14/19//95=
201902031330 METAR LRIA 031330Z 12010KT 9999 FEW018 05/04 Q1013 R14/19//95=
201902031400 METAR LRIA 031400Z 12008KT CAVOK 05/04 Q1013 R14/19//95=
201902031430 METAR LRIA 031430Z 12009KT CAVOK 06/04 Q1014 R14/19//95=
201902031500 METAR LRIA 031500Z 12008KT 6000 NSC 05/04 Q1013 R14/19//95=
201902031530 METAR LRIA 031530Z 11010KT 5000 BR NSC 05/04 Q1014 R14/19//95=
201902031600 METAR COR LRIA 031600Z 11009KT 5000 BR NSC 05/04 Q1014 R14/19//95=
201902031630 METAR COR LRIA 031630Z 10011KT 5000 BR NSC 05/04 Q1014 R14/19//95=
201902031700 METAR LRIA 031700Z 11010KT 2000 BR NSC 05/04 Q1014 R14/19//95=
201902031730 METAR LRIA 031730Z 11009KT 0300 R14/0800D R32/0700D FG SCT001
                        05/03 Q1014 R14/19//95=
201902031800 METAR LRIA 031800Z 11009KT 1500 BR SCT001 05/04 Q1014 R14/19//95=
201902031830 METAR LRIA 031830Z 11010KT 5000 BR NSC 05/04 Q1014 R14/19//95=
201902031900 METAR LRIA 031900Z 11012KT 0250 R14/0700D R32/0700D FG SCT001
                        05/04 Q1014 R14/19//95=
201902031930 METAR LRIA 031930Z 11015KT 0150 R14/0500N R32/1800D FG BKN001
                        06/04 Q1013 R14/19//95=
201902032000 METAR LRIA 032000Z 10012KT 0150 R14/0500N R32/1800N BCFG
                        BKN001 06/05 Q1014 R14/19//95=
201902032030 METAR LRIA 032030Z 12009KT 0150 R14/0500D R32/2000D BCFG
                        BKN001 06/04 Q1014 R14/19//95=
201902032100 METAR LRIA 032100Z 12011KT 0100 R14/0325N R32/0300N FG VV001
                        06/04 Q1014 R14/19//95=
201902032130 METAR LRIA 032130Z 11011KT 0100 R14/0300N R32/0350N FG VV001
                        06/05 Q1014 R14/19//95=
201902032200 METAR LRIA 032200Z 11011KT 0150 R14/0450N R32/0800D FG VV001
                        06/05 Q1014 R14/19//95=
201902032230 METAR LRIA 032230Z 11011KT 0150 R14/0450N R32/0800D FG VV001
                        05/04 Q1014 R14/19//95=
201902032300 METAR LRIA 032300Z 12012KT 0150 R14/0375N R32/0400N FG VV001
                        05/04 Q1015 R14/19//95=
201902032330 METAR LRIA 032330Z 11012KT 0100 R14/0400N R32/0600N FG VV001
                        05/04 Q1015 R14/19//95=
201902040000 METAR LRIA 040000Z 12011KT 0100 R14/0325N R32/0400N FG VV001
                        05/04 Q1015 R14/19//95=
201902040030 METAR LRIA 040030Z 12010KT 0150 R14/0450N R32/0550N FG VV001
                        05/04 Q1015 R14/19//95=
201902040100 METAR LRIA 040100Z 11008KT 0100 R14/0325N R32/0350N FG VV001
                        05/04 Q1016 R14/19//95=
201902040130 METAR LRIA 040130Z 11010KT 0100 R14/0325N R32/0300N FG VV001
                        05/04 Q1016 R14/19//95=
201902040200 METAR LRIA 040200Z 10009KT 0100 R14/0325N R32/0300N FG VV001
                        05/04 Q1016 R14/19//95=
201902040230 METAR LRIA 040230Z 10009KT 0100 R14/0375N R32/0300N FG VV001
                        05/04 Q1017 R14/19//95=
201902040300 METAR LRIA 040300Z 11009KT 0100 R14/0375N R32/0300N FG VV001
                        05/03 Q1017 R14/19//95=
201902040330 METAR LRIA 040330Z 11008KT 0100 R14/0375N R32/0300N FG VV001
                        04/03 Q1017 R14/19//95=
201902040400 METAR LRIA 040400Z 11007KT 0100 R14/0375N R32/0300N FG VV001
                        04/03 Q1017 R14/19//95=
201902040430 METAR LRIA 040430Z 11007KT 0100 R14/0400N R32/0300N FG VV001
                        04/03 Q1017 R14/19//95=
201902040500 METAR LRIA 040500Z 11007KT 0100 R14/0400N R32/0300N FG VV001
                        04/03 Q1018 R14/19//95=
201902040530 METAR LRIA 040530Z 10008KT 0150 R14/0400N R32/0325N FG VV001
                        04/03 Q1018 R14/19//95=
201902040600 METAR LRIA 040600Z 10007KT 0100 R14/0300N R32/0225N FG VV001
                        04/03 Q1019 R14/19//95=
201902040630 METAR LRIA 040630Z 10008KT 0150 R14/0350N R32/0275N FG VV001
                        04/03 Q1019 R14/19//95=
201902040700 METAR LRIA 040700Z 11007KT 0100 R14/0350N R32/0275N FG VV001
                        04/03 Q1020 R14/19//95=
201902040730 METAR LRIA 040730Z 10007KT 0100 R14/0250N R32/0200N FG VV001
                        04/03 Q1020 R14/19//95=
201902040800 METAR LRIA 040800Z 11005KT 0100 R14/0250N R32/0175N FG VV001
                        04/03 Q1020 R14/19//95=
201902040830 METAR LRIA 040830Z 11004KT 0100 R14/0250N R32/0200N FG VV001
                        05/04 Q1021 R14/19//95=
201902040900 METAR LRIA 040900Z 11005KT 0100 R14/0275N R32/0175N FG VV001
                        05/03 Q1021 R14/19//95=
201902040930 METAR LRIA 040930Z 08002KT 050V120 0100 R14/0275N R32/0225N
                        FG VV001 05/04 Q1022 R14/19//95=
201902041000 METAR LRIA 041000Z 09003KT 050V110 0200 R14/0400N R32/0250N
                        FG VV001 05/04 Q1022 R14/19//95=
201902041030 METAR LRIA 041030Z 12002KT 0200 R14/0450N R32/0300N FG VV001
                        06/04 Q1022 R14/19//95=
201902041100 METAR LRIA 041100Z VRB01KT 0200 R14/0450N R32/0550N FG VV001
                        06/05 Q1022 R14/19//95=
201902041130 METAR LRIA 041130Z 29003KT 250V330 0450 R14/0800U R32/0450N
                        FG VV001 06/05 Q1022 R14/19//95=
201902041200 METAR LRIA 041200Z 29003KT 250V320 0650 R14/0800U R32/1200U
                        FG VV001 06/05 Q1023 R14/19//95=
201902041230 METAR LRIA 041230Z 30007KT 280V340 5000 BR SCT001 BKN004
                        06/05 Q1024 R14/19//95=
201902041300 METAR LRIA 041300Z 32006KT 1500 0600NW 14/1000D R32/P2000
                        PRFG BR BKN001 BKN003 05/04 Q1024
                        R14/19//95=
201902041330 METAR LRIA 041330Z 31009KT 1500 BR BKN001 05/04 Q1024 R14/19//95=
201902041400 METAR LRIA 041400Z 29006KT 1500 BR OVC001 05/04 Q1025 R14/19//95=
201902041430 METAR LRIA 041430Z 30007KT 6000 SCT001 OVC004 05/04 Q1025
                        R14/19//95=
201902041500 METAR LRIA 041500Z 30006KT 7000 SCT004 OVC006 05/04 Q1025
                        R14/19//95=
201902041530 METAR LRIA 041530Z 29006KT 8000 SCT005 OVC008 05/04 Q1026
                        R14/19//95=
201902041600 METAR LRIA 041600Z 28006KT 9000 SCT008 OVC013 05/04 Q1026
                        R14/19//95=
201902041630 METAR LRIA 041630Z 29006KT 9000 SCT012 OVC016 04/03 Q1026
                        R14/19//95=
201902041700 METAR LRIA 041700Z 29008KT 9000 BKN016 03/01 Q1027 R14/19//95=
201902041730 METAR LRIA 041730Z 30012KT 9999 SCT015 03/01 Q1027 R14/19//95=
201902041800 METAR LRIA 041800Z 29012KT 9999 SCT015 03/00 Q1028 R14/19//95=
201902041830 METAR LRIA 041830Z 30010KT 9999 FEW016 02/M00 Q1028 R14/19//95=
201902041900 METAR LRIA 041900Z 31011KT 9999 OVC016 03/M00 Q1028 R14/19//95=
201902041930 METAR LRIA 041930Z 31012KT 9999 BKN019 03/M01 Q1028 R14/19//95=
201902042000 METAR LRIA 042000Z 32011KT 9999 BKN019 02/M01 Q1029 R14/19//95=
201902042030 METAR LRIA 042030Z 32011KT 9999 BKN019 02/M01 Q1029 R14/19//95=
201902042100 METAR COR LRIA 042100Z 32011KT CAVOK 02/M01 Q1029 R14/19//95=
201902042130 METAR COR LRIA 042130Z 32011KT CAVOK 02/M01 Q1029 R14/19//95=
201902042200 METAR LRIA 042200Z 32011KT CAVOK 02/M01 Q1030 R14/19//95=
201902042230 METAR LRIA 042230Z 32010KT CAVOK 02/M01 Q1030 R14/19//95=
201902042300 METAR LRIA 042300Z 32008KT CAVOK 01/M01 Q1030 R14/19//95=
201902042330 METAR LRIA 042330Z 32008KT CAVOK 01/M01 Q1030 R14/19//95=
201902050000 METAR COR LRIA 050000Z 31007KT CAVOK 01/M01 Q1030 R14/19//95=
201902050030 METAR LRIA 050030Z 31009KT CAVOK 01/M01 Q1030 R14/19//95=
201902050100 METAR LRIA 050100Z 32007KT CAVOK 01/M00 Q1030 R14/19//95=
201902050130 METAR LRIA 050130Z 32008KT 9999 FEW017 01/M00 Q1030 R14/19//95=
201902050200 METAR LRIA 050200Z AUTO 32007KT 9999 BKN016/// 01/M46 Q1030=
201902050230 METAR COR LRIA 050230Z 31007KT 9999 BKN015 01/M46 Q1030 R14/19//95=
201902050300 METAR LRIA 050300Z 31007KT 9999 BKN016 01/M00 Q1030 R14/19//95=
201902050330 METAR COR LRIA 050330Z 32007KT 9999 OVC016 01/M11 Q1030 R14/19//95=
201902050400 METAR LRIA 050400Z 31006KT 9999 OVC016 01/M00 Q1030 R14/19//95=
201902050430 METAR COR LRIA 050430Z 32007KT 9999 BKN016 01/M00 Q1030 R14/19//95=
201902050500 METAR COR LRIA 050500Z 33006KT 9999 SCT016 01/M00 Q1030 R14/19//95=
201902050530 METAR LRIA 050530Z 33005KT 9999 BKN016 01/M02 Q1030 R14/19//95=
201902050600 METAR LRIA 050600Z 33005KT 9999 SCT017 01/M02 Q1030 R14/19//95=
201902050630 METAR LRIA 050630Z 34007KT 9999 FEW017 01/M02 Q1030 R14/19//95=
201902050700 METAR LRIA 050700Z 33005KT CAVOK 01/M01 Q1030 R14/19//95=
201902050730 METAR LRIA 050730Z 34007KT CAVOK 01/M01 Q1030 R14/19//95=
201902050800 METAR LRIA 050800Z 34008KT CAVOK 02/M01 Q1030 R14/19//95=
201902050830 METAR LRIA 050830Z 33006KT CAVOK 02/M01 Q1030 R14/19//95=
201902050900 METAR LRIA 050900Z 33008KT 9999 FEW017 02/M01 Q1030 R14/19//95=
201902050930 METAR LRIA 050930Z 34008KT 9999 SCT012 03/M01 Q1030 R14/19//95=
201902051000 METAR LRIA 051000Z 35007KT 9999 BKN015 03/M01 Q1030 R14/19//95=
201902051030 METAR LRIA 051030Z 34007KT 9999 BKN013 03/M01 Q1029 R14/19//95=
201902051100 METAR LRIA 051100Z 34006KT 9999 BKN013 03/M01 Q1029 R14/CLRD//=
201902051130 METAR LRIA 051130Z 32005KT 290V350 9999 BKN014 04/M00 Q1029=
201902051200 METAR LRIA 051200Z 01004KT 300V050 9999 BKN015 04/M01 Q1028=
201902051230 METAR LRIA 051230Z 02004KT 9999 BKN015 04/M00 Q1028=
201902051300 METAR LRIA 051300Z 36004KT 340V040 9999 SCT015 04/M00 Q1028=
201902051330 METAR LRIA 051330Z 32004KT 290V360 9999 SCT015 04/M00 Q1028=
201902051400 METAR LRIA 051400Z 34005KT 9999 SCT015 04/M00 Q1027=
201902051430 METAR LRIA 051430Z 32005KT 9999 SCT015 04/M00 Q1027=
201902051500 METAR LRIA 051500Z 32004KT 9999 BKN015 04/M00 Q1027=
201902051530 METAR LRIA 051530Z 33003KT 9999 BKN015 03/M00 Q1027=
201902051600 METAR LRIA 051600Z 30003KT 9999 BKN015 03/M00 Q1027=
201902051630 METAR LRIA 051630Z 28002KT 9999 BKN015 03/M00 Q1027=
201902051700 METAR LRIA 051700Z 26002KT 9999 BKN015 03/M00 Q1027=
201902051730 METAR LRIA 051730Z 00000KT 9999 BKN015 03/M00 Q1027=
201902051800 METAR LRIA 051800Z 23002KT 9999 BKN017 02/M00 Q1026=
201902051830 METAR LRIA 051830Z 00000KT 9999 BKN010 02/M00 Q1026=
201902051900 METAR LRIA 051900Z 24002KT 9999 OVC009 02/M00 Q1026=
201902051930 METAR LRIA 051930Z 25003KT 9999 BKN011 OVC015 02/M00 Q1026=
201902052000 METAR LRIA 052000Z 00000KT 8000 SCT007 OVC012 02/M00 Q1026=
201902052030 METAR LRIA 052030Z 00000KT 7000 FEW004 BKN007 OVC013 02/M00
                        Q1026=
201902052100 METAR LRIA 052100Z 00000KT 7000 SCT004 BKN008 OVC013 02/M00
                        Q1026=
201902052130 METAR LRIA 052130Z 00000KT 7000 BKN003 OVC007 02/M00 Q1025=
201902052200 METAR LRIA 052200Z 00000KT 7000 BKN004 OVC007 02/M00 Q1025=
201902052230 METAR LRIA 052230Z 00000KT 6000 BKN004 OVC006 02/M00 Q1025=
201902052300 METAR LRIA 052300Z 27001KT 4500 BR BKN003 OVC007 02/M00 Q1025=
201902052330 METAR LRIA 052330Z 29002KT 1900 -DZ BR BKN002 OVC006 02/00
                        Q1025=
201902060000 METAR LRIA 060000Z 00000KT 1000 R14/1800 R32/2000 -DZ BR
                        BKN001 OVC003 02/00 Q1025=
201902060030 METAR LRIA 060030Z 26003KT 220V280 0800 R14/2000 R32/2000
                        -DZ FG BKN001 OVC003 02/00 Q1025=
201902060100 METAR LRIA 060100Z 24002KT 0600 R14/1400N R32/2000D -DZ FG
                        OVC001 01/00 Q1025 R14/29//95=
201902060130 METAR LRIA 060130Z 22004KT 0400 R14/1000D R32/1900D -DZ FG
                        OVC001 01/M00 Q1025 R14/29//95=
201902060200 METAR LRIA 060200Z 25004KT 0300 R14/1000D R32/P2000 -DZ FG
                        OVC001 01/M00 Q1024 R14/29//95=
201902060230 METAR LRIA 060230Z 29004KT 0200 R14/0800N R32/1000N -DZ FG
                        OVC001 01/M00 Q1024 R14/29//95=
201902060300 METAR LRIA 060300Z 30004KT 0250 R14/0750N R32/0800D -DZ FG
                        OVC001 02/00 Q1024 R14/29//95=
201902060330 METAR LRIA 060330Z 32007KT 0200 R14/0700N R32/0750N -DZ FG
                        VV001 02/01 Q1024 R14/29//95=
201902060400 METAR LRIA 060400Z 33007KT 0250 R14/0700N R32/0800N -DZ FG
                        VV001 02/01 Q1023 R14/29//95=
201902060430 METAR LRIA 060430Z 34009KT 0350 R14/1000D R32/1500D -DZ FG
                        VV001 02/01 Q1024 R14/29//95=
201902060500 METAR LRIA 060500Z 32007KT 1500 -DZ BR BKN001 OVC003 02/00
                        Q1024 R14/29//95=
201902060530 METAR LRIA 060530Z 33008KT 1500 -DZ BR BKN001 OVC003 02/00
                        Q1025 R14/29//95=
201902060600 METAR LRIA 060600Z 33007KT 5000 -DZ BR SCT004 BKN009 02/00
                        Q1025 R14/29//95=
201902060630 METAR LRIA 060630Z 33008KT 8000 FEW007 BKN009 02/00 Q1025
                        R14/29//95=
201902060700 METAR LRIA 060700Z 33006KT 9000 FEW009 BKN012 02/00 Q1025
                        R14/29//95=
201902060730 METAR LRIA 060730Z 31007KT 7000 FEW005 BKN009 02/00 Q1025
                        R14/29//95=
201902060800 METAR LRIA 060800Z 31007KT 6000 FEW005 BKN007 02/00 Q1025
                        R14/29//95=
201902060830 METAR LRIA 060830Z 33010KT 290V350 6000 -DZ FEW005 BKN006
                        02/00 Q1025 R14/29//95=
201902060900 METAR LRIA 060900Z 33009KT 6000 -DZ FEW006 BKN007 02/00 Q1026
                        R14/29//95=
201902060930 METAR LRIA 060930Z 33011KT 7000 -DZ FEW006 BKN008 02/00 Q1026
                        R14/29//95=
201902061000 METAR LRIA 061000Z 33011KT 8000 SCT006 BKN009 02/00 Q1026
                        R14/29//95=
201902061030 METAR LRIA 061030Z 32010KT 8000 FEW007 BKN009 03/M00 Q1026
                        R14/29//95=
201902061100 METAR LRIA 061100Z 32010KT 8000 SCT011 BKN014 03/M01 Q1026
                        R14/29//95=
201902061130 METAR LRIA 061130Z 32011KT 9999 OVC013 02/M01 Q1026 R14/19//95=
201902061200 METAR LRIA 061200Z 32011KT 9999 OVC015 02/M02 Q1026 R14/19//95=
201902061230 METAR LRIA 061230Z 32011KT 9999 BKN015 SCT019 03/M02 Q1025
                        R14/19//95=
201902061300 METAR LRIA 061300Z 32012KT 9999 FEW019 BKN046 03/M02 Q1025
                        R14/19//95=
201902061330 METAR LRIA 061330Z 33013KT 9999 FEW023 SCT042 04/M02 Q1025
                        R14/19//95=
201902061400 METAR LRIA 061400Z 33012KT 9999 BKN027 03/M02 Q1025 R14/CLRD//=
201902061430 METAR LRIA 061430Z 33009KT 9999 OVC027 03/M02 Q1025 R14/CLRD//=
201902061500 METAR LRIA 061500Z 33010KT 9999 OVC028 03/M03 Q1025=
201902061530 METAR LRIA 061530Z 32008KT 9999 OVC026 03/M02 Q1025=
201902061600 METAR LRIA 061600Z 32009KT 9999 FEW019 OVC028 02/M02 Q1025=
201902061630 METAR LRIA 061630Z 33008KT 9999 FEW021 BKN027 02/M02 Q1026=
201902061700 METAR COR LRIA 061700Z 32008KT 9999 BKN027 02/M02 Q1026=
201902061730 METAR LRIA 061730Z 32008KT 9999 BKN033 02/M02 Q1026=
201902061800 METAR LRIA 061800Z 32007KT 9999 OVC033 02/M02 Q1026=
201902061830 METAR LRIA 061830Z 33007KT 9999 OVC033 02/M03 Q1026=
201902061900 METAR LRIA 061900Z 32005KT 9999 BKN033 02/M03 Q1027=
201902061930 METAR LRIA 061930Z 27004KT 9999 BKN035 02/M03 Q1027=
201902062000 METAR LRIA 062000Z 30007KT 9999 BKN040 01/M03 Q1027=
201902062030 METAR LRIA 062030Z 30007KT 9999 BKN040 01/M03 Q1028=
201902062100 METAR LRIA 062100Z 31009KT 9999 BKN045 01/M03 Q1027=
201902062130 METAR LRIA 062130Z 32007KT 9999 SCT045 00/M04 Q1027=
201902062200 METAR LRIA 062200Z 32008KT 9999 SCT047 00/M04 Q1027=
201902062230 METAR LRIA 062230Z 31008KT 9999 FEW047 M01/M04 Q1027=
201902062300 METAR LRIA 062300Z 31007KT CAVOK M01/M04 Q1027=
201902062330 METAR LRIA 062330Z 30008KT CAVOK M01/M04 Q1027=
201902070000 METAR LRIA 070000Z 31007KT CAVOK M01/M05 Q1027=
201902070030 METAR LRIA 070030Z 31007KT CAVOK M01/M05 Q1027=
201902070100 METAR LRIA 070100Z 30006KT CAVOK M01/M05 Q1027=
201902070130 METAR LRIA 070130Z 21003KT 170V250 CAVOK M02/M05 Q1027=
201902070200 METAR LRIA 070200Z 27003KT CAVOK M02/M05 Q1027=
201902070230 METAR LRIA 070230Z 21004KT CAVOK M02/M05 Q1027=
201902070300 METAR LRIA 070300Z 26004KT 9999 SCT017 M02/M05 Q1027=
201902070330 METAR LRIA 070330Z 25003KT 9999 SCT015 M02/M05 Q1027=
201902070400 METAR LRIA 070400Z 25002KT 9999 FEW015 M02/M05 Q1027=
201902070430 METAR LRIA 070430Z 27003KT CAVOK M02/M05 Q1027=
201902070500 METAR LRIA 070500Z 29003KT 9999 SCT015 M02/M05 Q1027=
201902070530 METAR LRIA 070530Z 28003KT 9999 BKN013 M03/M05 Q1027=
201902070600 METAR LRIA 070600Z 30004KT 9999 BKN013 M03/M05 Q1027=
201902070630 METAR LRIA 070630Z 29003KT 9999 SCT013 M03/M05 Q1027=
201902070700 METAR LRIA 070700Z 28004KT 9999 FEW012 M02/M05 Q1027=
201902070730 METAR LRIA 070730Z 28003KT 230V320 9999 FEW013 M01/M05 Q1027=
201902070800 METAR LRIA 070800Z 30003KT 260V340 CAVOK 00/M04 Q1027=
201902070830 METAR LRIA 070830Z 31003KT 270V350 CAVOK 01/M03 Q1027=
201902070900 METAR LRIA 070900Z 32003KT 270V010 CAVOK 01/M03 Q1027=
201902070930 METAR LRIA 070930Z 07002KT CAVOK 02/M03 Q1027=
201902071000 METAR LRIA 071000Z 12004KT 090V170 9999 FEW010 03/M03 Q1026=
201902071030 METAR LRIA 071030Z 13005KT 9999 FEW012 03/M04 Q1026=
201902071100 METAR LRIA 071100Z 10005KT 040V140 9999 FEW020 03/M04 Q1026=
201902071130 METAR LRIA 071130Z 07003KT 010V130 9999 FEW017 04/M04 Q1025=
201902071200 METAR LRIA 071200Z 08003KT 360V170 9999 FEW017 04/M04 Q1025=
201902071230 METAR LRIA 071230Z 02005KT 360V080 9999 FEW028 04/M03 Q1025=
201902071300 METAR LRIA 071300Z 07002KT 9999 FEW028 03/M05 Q1024=
201902071330 METAR LRIA 071330Z 04003KT 350V110 9999 FEW030 04/M05 Q1024=
201902071400 METAR LRIA 071400Z 04004KT 010V080 9999 FEW033 04/M06 Q1024=
201902071430 METAR LRIA 071430Z 06003KT 020V080 9999 FEW040 04/M05 Q1024=
201902071500 METAR LRIA 071500Z 09002KT 9999 FEW045 03/M05 Q1024=
201902071530 METAR LRIA 071530Z 08004KT CAVOK 02/M04 Q1024=
201902071600 METAR LRIA 071600Z 05004KT CAVOK 01/M04 Q1024=
201902071630 METAR LRIA 071630Z 05004KT CAVOK 01/M04 Q1024=
201902071700 METAR LRIA 071700Z 05004KT CAVOK 01/M05 Q1024=
201902071730 METAR LRIA 071730Z 07004KT CAVOK 01/M04 Q1024=
201902071800 METAR LRIA 071800Z 09005KT CAVOK 00/M04 Q1024=
201902071830 METAR LRIA 071830Z 09007KT CAVOK 00/M04 Q1024=
201902071900 METAR LRIA 071900Z 10007KT CAVOK M00/M04 Q1024=
201902071930 METAR LRIA 071930Z 11006KT 9999 BKN030 M01/M05 Q1024=
201902072000 METAR LRIA 072000Z 11006KT 9999 SCT030 M01/M05 Q1024=
201902072030 METAR LRIA 072030Z 12006KT 9999 SCT030 M01/M05 Q1023=
201902072100 METAR LRIA 072100Z AUTO 11005KT 9999 NCD M02/M05 Q1023=
201902072130 METAR LRIA 072130Z 10008KT CAVOK M01/M05 Q1023=
201902072200 METAR LRIA 072200Z 10008KT CAVOK M01/M05 Q1023=
201902072230 METAR COR LRIA 072230Z 10007KT CAVOK M02/M05 Q1023=
201902072300 METAR LRIA 072300Z 11006KT CAVOK M02/M05 Q1023=
201902072330 METAR LRIA 072330Z 11007KT CAVOK M02/M05 Q1023=
201902080000 METAR LRIA 080000Z 11006KT CAVOK M02/M05 Q1023=
201902080030 METAR LRIA 080030Z 12005KT CAVOK M02/M05 Q1023=
201902080100 METAR LRIA 080100Z 11006KT CAVOK M03/M05 Q1023=
201902080130 METAR LRIA 080130Z 11006KT CAVOK M03/M05 Q1022=
201902080200 METAR LRIA 080200Z 11006KT CAVOK M03/M05 Q1022=
201902080230 METAR COR LRIA 080230Z 12009KT CAVOK M03/M05 Q1022=
201902080300 METAR LRIA 080300Z 10009KT CAVOK M03/M05 Q1022=
201902080330 METAR COR LRIA 080330Z 11007KT CAVOK M03/M05 Q1022=
201902080400 METAR LRIA 080400Z 10006KT CAVOK M03/M05 Q1022 R14/19//95=
201902080430 METAR COR LRIA 080430Z 11005KT CAVOK M03/M05 Q1022 R14/19//95=
201902080500 METAR LRIA 080500Z 10007KT 9000 FEW018 M03/M05 Q1022 R14/19//95=
201902080530 METAR LRIA 080530Z 10007KT 9999 FEW017 M03/M05 Q1022 R14/19//95=
201902080600 METAR LRIA 080600Z 11007KT CAVOK M03/M05 Q1022 R14/19//95=
201902080630 METAR LRIA 080630Z 11006KT CAVOK M02/M05 Q1023 R14/19//95=
201902080700 METAR LRIA 080700Z 10006KT CAVOK M01/M04 Q1023 R14/19//95=
201902080730 METAR LRIA 080730Z 11007KT CAVOK M01/M04 Q1023 R14/19//95=
201902080800 METAR LRIA 080800Z 11008KT CAVOK M00/M04 Q1023 R14/19//95=
201902080830 METAR LRIA 080830Z 11008KT 9999 SCT020 M00/M03 Q1023 R14/19//95=
201902080900 METAR LRIA 080900Z 11009KT 9999 BKN020 01/M04 Q1023 R14/19//95=
201902080930 METAR LRIA 080930Z 11011KT 9999 BKN022 01/M04 Q1023 R14/19//95=
201902081000 METAR LRIA 081000Z 11010KT 9999 BKN023 01/M04 Q1023 R14/CLRD//=
201902081030 METAR LRIA 081030Z 12009KT 9999 BKN023 01/M04 Q1023=
201902081100 METAR LRIA 081100Z 12009KT 9999 BKN025 01/M05 Q1023=
201902081130 METAR LRIA 081130Z 11009KT 9999 BKN025 01/M04 Q1023=
201902081200 METAR LRIA 081200Z 11009KT 9999 BKN025 01/M05 Q1023=
201902081230 METAR LRIA 081230Z 12008KT 9999 BKN025 01/M05 Q1023=
201902081300 METAR LRIA 081300Z 12009KT 9999 BKN025 01/M05 Q1023=
201902081330 METAR LRIA 081330Z 12008KT 9999 BKN025 01/M05 Q1023=
201902081400 METAR LRIA 081400Z 12009KT 9999 BKN027 01/M05 Q1023=
201902081430 METAR LRIA 081430Z 12007KT 9999 BKN027 01/M05 Q1023=
201902081500 METAR LRIA 081500Z 11007KT 9999 BKN027 00/M05 Q1022=
201902081530 METAR LRIA 081530Z 11007KT 9999 BKN027 00/M05 Q1023=
201902081600 METAR LRIA 081600Z 12008KT 9999 BKN027 M00/M05 Q1023=
201902081630 METAR LRIA 081630Z 12007KT 9999 BKN027 M00/M05 Q1023=
201902081700 METAR LRIA 081700Z 10005KT 9999 OVC027 M00/M05 Q1023=
201902081730 METAR LRIA 081730Z 11005KT 9999 OVC027 M00/M05 Q1023=
201902081800 METAR LRIA 081800Z 13005KT 9999 OVC027 M00/M05 Q1023=
201902081830 METAR LRIA 081830Z 13006KT 9999 OVC027 M00/M06 Q1023=
201902081900 METAR LRIA 081900Z 13005KT 9999 OVC027 M00/M06 Q1023=
201902081930 METAR LRIA 081930Z 13004KT 9999 OVC027 M01/M06 Q1023=
201902082000 METAR LRIA 082000Z 13004KT 9999 OVC027 M00/M06 Q1023=
201902082030 METAR LRIA 082030Z 14005KT 9999 OVC027 M01/M06 Q1023=
201902082100 METAR LRIA 082100Z 13006KT 9999 OVC027 M01/M06 Q1023=
201902082130 METAR LRIA 082130Z 14006KT 9999 OVC027 M01/M06 Q1023=
201902082200 METAR LRIA 082200Z 16004KT 9999 OVC026 M01/M07 Q1023=
201902082230 METAR LRIA 082230Z 14006KT 9999 OVC026 M01/M07 Q1023=
201902082300 METAR LRIA 082300Z 13004KT 9999 OVC026 M01/M07 Q1023=
201902082330 METAR LRIA 082330Z 15005KT 9999 OVC026 M01/M07 Q1023=
201902090000 METAR LRIA 090000Z 14004KT 9999 OVC026 M01/M07 Q1023=
201902090030 METAR LRIA 090030Z 13006KT 9999 OVC026 M01/M07 Q1023=
201902090100 METAR LRIA 090100Z 13006KT 9999 OVC026 M01/M07 Q1022=
201902090130 METAR LRIA 090130Z 13006KT 9999 OVC026 M01/M07 Q1022=
201902090200 METAR LRIA 090200Z 13006KT 9999 OVC025 M01/M07 Q1022=
201902090230 METAR LRIA 090230Z 10006KT 9999 OVC025 M01/M08 Q1022=
201902090300 METAR LRIA 090300Z 13006KT 9999 OVC025 M01/M07 Q1022=
201902090330 METAR LRIA 090330Z 14006KT 9999 OVC025 M02/M07 Q1022=
201902090400 METAR LRIA 090400Z 12006KT 9999 OVC025 M01/M07 Q1022=
201902090430 METAR LRIA 090430Z 12005KT 9999 OVC025 M02/M07 Q1022=
201902090500 METAR LRIA 090500Z 12005KT 9999 OVC025 M02/M07 Q1022=
201902090530 METAR LRIA 090530Z 10006KT 9999 OVC025 M02/M07 Q1022=
201902090600 METAR LRIA 090600Z 11007KT 9999 OVC025 M01/M06 Q1022=
201902090630 METAR LRIA 090630Z 11006KT 9999 OVC025 M01/M06 Q1022=
201902090700 METAR COR LRIA 090700Z 12008KT 9999 OVC024 M01/M06 Q1022=
201902090730 METAR COR LRIA 090730Z 12009KT 9999 OVC024 M01/M06 Q1022=
201902090800 METAR LRIA 090800Z 12009KT 9999 OVC025 M01/M07 Q1022=
201902090830 METAR LRIA 090830Z 11009KT 9999 OVC024 M01/M07 Q1022=
201902090900 METAR LRIA 090900Z 13009KT 9999 OVC023 M00/M07 Q1021=
201902090930 METAR LRIA 090930Z 13008KT 110V180 9999 OVC024 00/M07 Q1021=
201902091000 METAR LRIA 091000Z 11009KT 9999 OVC024 M00/M06 Q1021=
201902091030 METAR LRIA 091030Z 11009KT 9999 OVC024 M00/M07 Q1021=
201902091100 METAR LRIA 091100Z 11011KT 9999 OVC025 M00/M06 Q1021=
201902091130 METAR LRIA 091130Z 11011KT 9999 OVC024 00/M06 Q1020=
201902091200 METAR LRIA 091200Z 11011KT 9999 SCT024 01/M06 Q1020=
201902091230 METAR LRIA 091230Z 11010KT 9999 SCT025 01/M06 Q1020=
201902091300 METAR LRIA 091300Z 10012KT 9999 SCT030 01/M06 Q1020=
201902091330 METAR LRIA 091330Z 11012KT 9999 FEW024 01/M05 Q1020=
201902091400 METAR LRIA 091400Z 11013KT CAVOK 00/M05 Q1019=
201902091430 METAR LRIA 091430Z 11013KT CAVOK M00/M06 Q1020=
201902091500 METAR LRIA 091500Z 11012KT CAVOK M01/M05 Q1020=
201902091530 METAR COR LRIA 091530Z 12012KT CAVOK M01/M06 Q1020=
201902091600 METAR LRIA 091600Z 12011KT CAVOK M02/M06 Q1020=
201902091630 METAR LRIA 091630Z 12010KT CAVOK M02/M06 Q1020=
201902091700 METAR LRIA 091700Z 12008KT CAVOK M02/M06 Q1020=
201902091730 METAR LRIA 091730Z 11009KT CAVOK M02/M06 Q1020=
201902091800 METAR LRIA 091800Z 11009KT CAVOK M03/M06 Q1020=
201902091830 METAR LRIA 091830Z 11010KT CAVOK M03/M06 Q1020=
201902091900 METAR LRIA 091900Z 11011KT CAVOK M03/M06 Q1020=
201902091930 METAR LRIA 091930Z 12011KT 9999 SCT015 M03/M06 Q1020=
201902092000 METAR LRIA 092000Z 11008KT 9999 BKN015 M03/M06 Q1020=
201902092030 METAR LRIA 092030Z 11009KT 9999 BKN015 M03/M06 Q1020=
201902092100 METAR LRIA 092100Z 11009KT 9999 BKN015 M02/M05 Q1020=
201902092130 METAR LRIA 092130Z 11008KT 9999 BKN015 M02/M05 Q1020=
201902092200 METAR LRIA 092200Z 11008KT 9999 OVC015 M02/M05 Q1020=
201902092230 METAR LRIA 092230Z 11008KT 9999 OVC015 M02/M05 Q1020=
201902092300 METAR LRIA 092300Z 10007KT 9999 OVC016 M02/M05 Q1020=
201902092330 METAR LRIA 092330Z 11008KT 9999 OVC016 M02/M05 Q1020=
201902100000 METAR LRIA 100000Z 11008KT 9999 BKN017 M02/M05 Q1020=
201902100030 METAR LRIA 100030Z 10008KT 9999 SCT017 M03/M05 Q1020=
201902100100 METAR LRIA 100100Z 10007KT 9999 SCT018 M03/M05 Q1020=
201902100130 METAR LRIA 100130Z 09004KT 9999 SCT020 M03/M05 Q1020=
201902100200 METAR LRIA 100200Z 07004KT 9999 BKN017 M03/M05 Q1020=
201902100230 METAR LRIA 100230Z 10006KT 9999 BKN017 M03/M05 Q1020=
201902100300 METAR LRIA 100300Z 11004KT 9999 BKN015 M04/M06 Q1020=
201902100330 METAR LRIA 100330Z 09005KT 9999 OVC015 M04/M06 Q1020=
201902100400 METAR LRIA 100400Z 08005KT 9999 SCT015 M04/M06 Q1020=
201902100430 METAR LRIA 100430Z VRB02KT 9999 BKN015 M04/M06 Q1020=
201902100500 METAR LRIA 100500Z 05004KT 9999 SCT015 M04/M06 Q1021=
201902100530 METAR LRIA 100530Z VRB02KT 9999 SCT015 M04/M06 Q1021=
201902100600 METAR LRIA 100600Z 08004KT 9000 FEW015 M04/M06 Q1021=
201902100630 METAR LRIA 100630Z 09003KT 8000 FEW015 M03/M06 Q1021 R14/19//95=
201902100700 METAR LRIA 100700Z 09003KT 9000 NSC M03/M05 Q1021 R14/19//95=
201902100730 METAR LRIA 100730Z 11004KT 9000 NSC M02/M05 Q1021 R14/19//95=
201902100800 METAR LRIA 100800Z 12004KT 9000 NSC M01/M05 Q1021 R14/19//95=
201902100830 METAR LRIA 100830Z 12003KT 9000 NSC M00/M04 Q1021 R14/19//95=
201902100900 METAR LRIA 100900Z 13004KT 100V160 9000 NSC 00/M04 Q1020
                        R14/CLRD//=
201902100930 METAR LRIA 100930Z 13005KT 9000 NSC 01/M04 Q1020=
201902101000 METAR LRIA 101000Z 14004KT 100V180 CAVOK 02/M04 Q1020=
201902101030 METAR LRIA 101030Z 10006KT 070V130 CAVOK 02/M03 Q1020=
201902101100 METAR LRIA 101100Z 10005KT 080V140 CAVOK 02/M03 Q1020=
201902101130 METAR LRIA 101130Z 11006KT CAVOK 03/M03 Q1019=
201902101200 METAR LRIA 101200Z 11008KT CAVOK 03/M03 Q1019=
201902101230 METAR LRIA 101230Z 11009KT CAVOK 03/M02 Q1019=
201902101300 METAR LRIA 101300Z 11009KT CAVOK 03/M02 Q1018=
201902101330 METAR LRIA 101330Z 10010KT CAVOK 03/M02 Q1018=
201902101400 METAR LRIA 101400Z 11011KT CAVOK 03/M02 Q1018=
201902101430 METAR LRIA 101430Z 10010KT CAVOK 02/M02 Q1018=
201902101500 METAR LRIA 101500Z 10011KT CAVOK 01/M03 Q1018=
201902101530 METAR LRIA 101530Z 10011KT CAVOK 01/M03 Q1017=
201902101600 METAR LRIA 101600Z 11011KT CAVOK 00/M03 Q1017=
201902101630 METAR LRIA 101630Z 11011KT CAVOK 00/M03 Q1017=
201902101700 METAR LRIA 101700Z 10010KT CAVOK M00/M03 Q1017=
201902101730 METAR LRIA 101730Z 10012KT CAVOK M00/M03 Q1016=
201902101800 METAR LRIA 101800Z 11010KT 6000 NSC M01/M03 Q1016=
201902101830 METAR LRIA 101830Z 11010KT 6000 NSC M01/M03 Q1016=
201902101900 METAR LRIA 101900Z 11011KT 6000 NSC M01/M03 Q1015=
201902101930 METAR LRIA 101930Z 11010KT 6000 NSC M01/M03 Q1015=
201902102000 METAR LRIA 102000Z 11010KT 6000 NSC M01/M03 Q1015=
201902102030 METAR LRIA 102030Z 11010KT 6000 NSC M01/M03 Q1014=
201902102100 METAR LRIA 102100Z 11010KT 7000 NSC M01/M03 Q1014=
201902102130 METAR LRIA 102130Z 11013KT 8000 NSC M00/M03 Q1013=
201902102200 METAR LRIA 102200Z 10011KT 9000 NSC M00/M03 Q1013=
201902102230 METAR LRIA 102230Z 13007KT 7000 NSC M01/M03 Q1013=
201902102300 METAR LRIA 102300Z 11012KT 8000 NSC M01/M03 Q1012=
201902102330 METAR LRIA 102330Z 11014KT 7000 NSC M01/M03 Q1012=
201902110000 METAR LRIA 110000Z 11012KT 7000 NSC M01/M03 Q1012=
201902110030 METAR LRIA 110030Z 10014KT 6000 NSC M00/M03 Q1011=
201902110100 METAR COR LRIA 110100Z 11011KT 6000 NSC M00/M03 Q1011=
201902110130 METAR COR LRIA 110130Z 10015KT 6000 NSC M00/M03 Q1010=
201902110200 METAR COR LRIA 110200Z 12011KT 6000 NSC M00/M02 Q1010=
201902110230 METAR LRIA 110230Z 10008KT 6000 NSC M00/M02 Q1010=
201902110300 METAR COR LRIA 110300Z 11006KT 090V150 CAVOK 01/M02 Q1010=
201902110330 METAR LRIA 110330Z 17009KT 130V190 CAVOK 03/M02 Q1009=
201902110400 METAR LRIA 110400Z VRB02KT CAVOK 02/M02 Q1009=
201902110430 METAR COR LRIA 110430Z 11009KT CAVOK 01/M02 Q1009=
201902110500 METAR LRIA 110500Z 12009KT CAVOK 01/M02 Q1008=
201902110530 METAR LRIA 110530Z 13008KT 090V150 CAVOK 01/M02 Q1008=
201902110600 METAR LRIA 110600Z 12010KT CAVOK 01/M02 Q1008=
201902110630 METAR LRIA 110630Z 12008KT CAVOK 01/M02 Q1009=
201902110700 METAR LRIA 110700Z 11009KT CAVOK 02/M02 Q1008=
201902110730 METAR LRIA 110730Z 11014KT CAVOK 02/M02 Q1007=
201902110800 METAR LRIA 110800Z 11015KT CAVOK 03/M01 Q1007=
201902110830 METAR LRIA 110830Z 12010KT CAVOK 04/M00 Q1008=
201902110900 METAR LRIA 110900Z 15009KT CAVOK 06/M02 Q1007=
201902110930 METAR LRIA 110930Z 12013KT CAVOK 06/M01 Q1007=
201902111000 METAR LRIA 111000Z 12015KT CAVOK 07/M00 Q1006=
201902111030 METAR LRIA 111030Z 13015KT CAVOK 08/M01 Q1006=
201902111100 METAR LRIA 111100Z 13013KT CAVOK 08/M00 Q1006=
201902111130 METAR LRIA 111130Z 15008KT 110V190 CAVOK 09/M01 Q1005=
201902111200 METAR LRIA 111200Z 12011KT CAVOK 09/00 Q1005=
201902111230 METAR LRIA 111230Z 13010KT CAVOK 10/01 Q1005=
201902111300 METAR LRIA 111300Z 13012KT CAVOK 08/01 Q1005=
201902111330 METAR LRIA 111330Z 12012KT CAVOK 08/01 Q1005=
201902111400 METAR LRIA 111400Z 12011KT CAVOK 08/01 Q1005=
201902111430 METAR LRIA 111430Z 12011KT CAVOK 07/02 Q1005=
201902111500 METAR LRIA 111500Z 15005KT CAVOK 07/01 Q1005=
201902111530 METAR LRIA 111530Z 11008KT CAVOK 06/01 Q1005=
201902111600 METAR LRIA 111600Z 11007KT CAVOK 06/02 Q1005=
201902111630 METAR LRIA 111630Z 10005KT CAVOK 06/02 Q1005=
201902111700 METAR LRIA 111700Z 11006KT CAVOK 07/01 Q1005=
201902111730 METAR LRIA 111730Z 10005KT CAVOK 06/02 Q1006=
201902111800 METAR LRIA 111800Z 10006KT CAVOK 06/02 Q1006=
201902111830 METAR LRIA 111830Z 10007KT CAVOK 06/02 Q1005=
201902111900 METAR LRIA 111900Z 11009KT 9999 -RA NSC 06/02 Q1005=
201902111930 METAR LRIA 111930Z 11009KT 9999 -RA NSC 06/03 Q1005=
201902112000 METAR LRIA 112000Z 11009KT CAVOK 05/03 Q1005=
201902112030 METAR LRIA 112030Z 11008KT 9999 -RA NSC 05/03 Q1005=
201902112100 METAR LRIA 112100Z 10009KT 8000 -RA SCT048 05/03 Q1005 R14/29//95=
201902112130 METAR LRIA 112130Z 10011KT 8000 -RA SCT048 05/03 Q1005 R14/29//95=
201902112200 METAR LRIA 112200Z 09007KT 6000 -RA SCT048 05/03 Q1006 R14/29//95=
201902112230 METAR LRIA 112230Z 08004KT 360V110 5000 -RA BR SCT043 05/03
                        Q1006 R14/29//95=
201902112300 METAR LRIA 112300Z 32005KT 3000 -RA BR FEW023 BKN038 04/03
                        Q1006 R14/29//95=
201902112330 METAR LRIA 112330Z 33006KT 3000 -RA BR FEW014 BKN022 04/03
                        Q1006 R14/29//95=
201902120000 METAR LRIA 120000Z 31008KT 2200 BR SCT003 OVC021 04/02 Q1007
                        R14/29//95=
201902120030 METAR LRIA 120030Z 32007KT 2200 -RA BR SCT003 BKN005 OVC008
                        03/02 Q1007 R14/29//95=
201902120100 METAR LRIA 120100Z 32008KT 2000 -RA BR BKN003 OVC013 03/02
                        Q1007 R14/29//95=
201902120130 METAR LRIA 120130Z 32008KT 2200 -RA BR FEW002 BKN005 OVC009
                        003 03/02 Q1006 R14/29//95=
201902120200 METAR LRIA 120200Z 31008KT 1500 -RA BR BKN003 OVC009 03/02
                        Q1006 R14/29//95=
201902120230 METAR LRIA 120230Z 32010KT 2800 -RA BR BKN003 OVC008 03/02
                        Q1006 R14/29//95=
201902120300 METAR LRIA 120300Z 32009KT 3000 -RA BR SCT003 OVC005 03/02
                        Q1007 R14/29//95=
201902120330 METAR LRIA 120330Z 32008KT 3000 -RA BR SCT003 OVC005 03/01
                        Q1007 R14/29//95=
201902120400 METAR LRIA 120400Z 32009KT 4500 -RA BR SCT003 OVC005 03/01
                        Q1007 R14/29//95=
201902120430 METAR LRIA 120430Z 32011KT 6000 -RA BKN005 OVC007 03/01 Q1007
                        R14/29//95=
201902120500 METAR LRIA 120500Z 33012KT 6000 -RA SCT005 BKN007 BKN017
                        02/00 Q1007 R14/29//95=
201902120530 METAR LRIA 120530Z 32012KT 6000 -RA BKN005 OVC028 02/M00
                        Q1007 R14/29//95=
201902120600 METAR LRIA 120600Z 33012KT 7000 -RA SCT005 BKN028 01/M00
                        Q1007 R14/29//95=
201902120630 METAR LRIA 120630Z 32011KT 6000 -SNRA FEW003 SCT005 OVC025
                        01/M00 Q1008 R14/29//95=
201902120700 METAR LRIA 120700Z 32011KT 6000 RASN FEW004 SCT006 OVC028
                        01/M00 Q1008 R14/29//95=
201902120730 METAR LRIA 120730Z 33013KT 7000 -RASN SCT004 OVC028 02/M00
                        Q1008 R14/29//95=
201902120800 METAR LRIA 120800Z 33012KT 9000 -RA SCT005 OVC028 02/M00
                        Q1008 R14/29//95=
201902120830 METAR COR LRIA 120830Z 32012KT 9000 -RA FEW004 SCT005 OVC025
                        02/00 Q1008 R14/29//95=
201902120900 METAR LRIA 120900Z 33012KT 6000 -RASN FEW005 SCT006 OVC025
                        02/M00 Q1008 R14/29//95=
201902120930 METAR LRIA 120930Z 32013KT 6000 -RASN FEW005 SCT007 OVC025
                        02/00 Q1008 R14/29//95=
201902121000 METAR LRIA 121000Z 32013KT 6000 -RASN FEW005 SCT009 OVC025
                        02/M00 Q1008 R14/29//95=
201902121030 METAR LRIA 121030Z 32012KT 7000 RA FEW005 SCT006 OVC028 02/M00
                        Q1008 R14/29//95=
201902121100 METAR LRIA 121100Z 32010KT 7000 -RA FEW005 SCT007 OVC028
                        02/00 Q1008 R14/29//95=
201902121130 METAR LRIA 121130Z 31011KT 5000 RA BR FEW004 SCT005 OVC025
                        01/M00 Q1008 R14/29//95=
201902121200 METAR LRIA 121200Z 32009KT 4000 SNRA BR FEW004 SCT005 OVC025
                        01/M01 Q1008 R14/29//95=
201902121230 METAR LRIA 121230Z 32009KT 5000 -SNRA SCT004 OVC025 01/M00
                        Q1009 R14/29//95=
201902121300 METAR LRIA 121300Z 33009KT 3400 -SN BR SCT003 OVC025 01/M01
                        Q1009 R14/29//95=
201902121330 METAR LRIA 121330Z 32008KT 3900 -SN BR FEW002 OVC025 01/M01
                        Q1010 R14/29//95=
201902121400 METAR LRIA 121400Z 32009KT 5000 RASN BR SCT005 OVC025 01/M00
                        Q1010 R14/29//95=
201902121430 METAR COR LRIA 121430Z 31011KT 6000 -RASN FEW003 SCT005 OVC025
                        01/M00 Q1010 R14/29//95=
201902121500 METAR LRIA 121500Z 31014KT 9000 -RA FEW004 SCT005 OVC028
                        02/M00 Q1011 R14/29//95=
201902121530 METAR LRIA 121530Z 31014KT 9000 -RA FEW004 SCT009 OVC025
                        02/M00 Q1011 R14/29//95=
201902121600 METAR LRIA 121600Z 32016KT 4200 -SN BR SCT003 OVC025 01/M01
                        Q1012 R14/29//95=
201902121630 METAR LRIA 121630Z 32018KT 5000 -SN BR FEW004 SCT012 OVC025
                        01/M01 Q1013 R14/29//95=
201902121700 METAR LRIA 121700Z 32018G29KT 5000 -SN BR FEW005 SCT009 OVC025
                        00/M01 Q1014 R14/29//95=
201902121730 METAR LRIA 121730Z 32018G28KT 5000 -SN BR SCT007 OVC025 00/M01
                        Q1014 R14/29//95=
201902121800 METAR LRIA 121800Z 31016KT 8000 -SN SCT009 OVC033 01/M01
                        Q1015 R14/29//95=
201902121830 METAR LRIA 121830Z 31017KT 9999 FEW009 SCT040 01/M02 Q1015
                        R14/29//95=
201902121900 METAR LRIA 121900Z 31015G25KT 9999 SCT045 01/M03 Q1015 R14/29//95=
201902121930 METAR LRIA 121930Z 32014KT 9999 FEW047 01/M03 Q1016 R14/29//95=
201902122000 METAR LRIA 122000Z 32014KT CAVOK 01/M03 Q1017 R14/29//95=
201902122030 METAR LRIA 122030Z 29010KT CAVOK 01/M03 Q1018 R14/29//95=
201902122100 METAR LRIA 122100Z 30011KT 9999 SCT030 00/M03 Q1018 R14/29//95=
201902122130 METAR LRIA 122130Z 31014KT 9999 FEW030 00/M03 Q1018 R14/29//95=
201902122200 METAR LRIA 122200Z 31013KT 9999 SCT027 00/M04 Q1019 R14/29//95=
201902122230 METAR LRIA 122230Z 31014KT 9999 SCT027 00/M04 Q1019 R14/29//95=
201902122300 METAR LRIA 122300Z 30013KT 9999 SCT030 00/M04 Q1020 R14/29//95=
201902122330 METAR LRIA 122330Z 30010KT 9999 BKN033 00/M03 Q1021 R14/29//95=
201902130000 METAR LRIA 130000Z 30010KT 9999 BKN035 00/M03 Q1021 R14/29//95=
201902130030 METAR LRIA 130030Z 30009KT 9999 BKN035 00/M04 Q1021 R14/29//95=
201902130100 METAR LRIA 130100Z 30007KT 9999 SCT035 M00/M04 Q1022 R14/29//95=
201902130130 METAR LRIA 130130Z 30007KT CAVOK 00/M04 Q1022 R14/29//95=
201902130200 METAR COR LRIA 130200Z 31009KT CAVOK 00/M04 Q1022 R14/29//95=
201902130230 METAR LRIA 130230Z 30010KT CAVOK 01/M03 Q1023 R14/29//95=
201902130300 METAR LRIA 130300Z 30010KT CAVOK 00/M04 Q1023 R14/29//95=
201902130330 METAR LRIA 130330Z 31007KT 9999 BKN027 00/M03 Q1024 R14/29//95=
201902130400 METAR LRIA 130400Z 30009KT 9999 BKN025 01/M03 Q1024 R14/29//95=
201902130430 METAR LRIA 130430Z 30009KT 9999 BKN025 01/M03 Q1025 R14/29//95=
201902130500 METAR LRIA 130500Z 31009KT 9999 SCT027 01/M03 Q1025 R14/29//95=
201902130530 METAR LRIA 130530Z 31008KT 9999 FEW027 01/M03 Q1026 R14/19//95=
201902130600 METAR LRIA 130600Z 31008KT 9999 FEW027 01/M03 Q1026 R14/19//95=
201902130630 METAR LRIA 130630Z 31008KT 9999 FEW027 01/M03 Q1027 R14/19//95=
201902130700 METAR LRIA 130700Z 32012KT 9999 BKN047 01/M03 Q1027 R14/19//95=
201902130730 METAR LRIA 130730Z 31011KT 9999 BKN045 01/M04 Q1027 R14/19//95=
201902130800 METAR LRIA 130800Z 31011KT 9999 BKN040 01/M05 Q1028 R14/19//95=
201902130830 METAR LRIA 130830Z 30009KT 9999 FEW026 BKN033 01/M04 Q1028
                        R14/19//95=
201902130900 METAR LRIA 130900Z 31012KT 9999 FEW030 OVC040 02/M05 Q1028
                        R14/19//95=
201902130930 METAR LRIA 130930Z 32012KT 9999 FEW026 BKN035 01/M06 Q1028
                        R14/19//95=
201902131000 METAR LRIA 131000Z 31013KT 9999 BKN030 01/M06 Q1029 R14/19//95=
201902131030 METAR LRIA 131030Z 30013KT 9999 BKN032 01/M06 Q1029 R14/19//95=
201902131100 METAR LRIA 131100Z 31012KT 9999 BKN030 02/M06 Q1029 R14/19//95=
201902131130 METAR LRIA 131130Z 31014KT 9999 FEW030 02/M05 Q1029 R14/19//95=
201902131200 METAR LRIA 131200Z 31013KT 280V340 9999 FEW030 03/M04 Q1029
                        R14/19//95=
201902131230 METAR LRIA 131230Z 30012KT 260V320 9999 FEW030 03/M05 Q1029
                        R14/19//95=
201902131300 METAR LRIA 131300Z 29012KT 260V320 9999 FEW033 03/M05 Q1028
                        R14/19//95=
201902131330 METAR LRIA 131330Z 30011KT 9999 FEW033 03/M05 Q1028 R14/19//95=
201902131400 METAR LRIA 131400Z 30008KT CAVOK 03/M05 Q1028 R14/19//95=
201902131430 METAR LRIA 131430Z 29005KT CAVOK 03/M05 Q1028 R14/19//95=
201902131500 METAR LRIA 131500Z 29003KT 240V320 CAVOK 02/M05 Q1028 R14/19//95=
201902131530 METAR LRIA 131530Z 27001KT CAVOK 02/M05 Q1028 R14/19//95=
201902131600 METAR LRIA 131600Z 22003KT CAVOK 02/M05 Q1028 R14/19//95=
201902131630 METAR LRIA 131630Z 19003KT CAVOK 02/M05 Q1027 R14/19//95=
201902131700 METAR LRIA 131700Z 21004KT CAVOK 01/M05 Q1027 R14/19//95=
201902131730 METAR LRIA 131730Z 21002KT CAVOK 01/M05 Q1027 R14/19//95=
201902131800 METAR LRIA 131800Z 20004KT CAVOK 00/M06 Q1027 R14/19//95=
201902131830 METAR LRIA 131830Z 19003KT CAVOK 00/M06 Q1027 R14/19//95=
201902131900 METAR LRIA 131900Z 20004KT CAVOK 00/M06 Q1027 R14/19//95=
201902131930 METAR LRIA 131930Z 22005KT CAVOK 01/M06 Q1027 R14/19//95=
201902132000 METAR LRIA 132000Z 22005KT 190V260 CAVOK 01/M06 Q1027 R14/19//95=
201902132030 METAR LRIA 132030Z 23003KT 9999 SCT035 BKN045 01/M06 Q1028
                        R14/19//95=
201902132100 METAR LRIA 132100Z 21003KT 9999 -SN OVC036 02/M06 Q1028 R14/19//95=
201902132130 METAR LRIA 132130Z 23004KT 9999 -SN OVC039 02/M05 Q1028 R14/19//95=
201902132200 METAR LRIA 132200Z 21004KT 9999 BKN032 02/M05 Q1028 RESN
                        R14/19//95=
201902132230 METAR LRIA 132230Z 22004KT 9999 OVC035 02/M04 Q1027 R14/19//95=
201902132300 METAR LRIA 132300Z 21003KT 180V250 9999 BKN038 02/M04 Q1027
                        R14/19//95=
201902132330 METAR LRIA 132330Z AUTO 22004KT 9999 OVC038/// 02/M04 Q1027=
201902140000 METAR LRIA 140000Z 28003KT 240V340 9999 OVC037 02/M04 Q1027
                        R14/19//95=
201902140030 METAR LRIA 140030Z 24004KT 180V290 9999 BKN039 SCT049 02/M04
                        Q1027 R14/19//95=
201902140100 METAR LRIA 140100Z 25004KT 200V280 9999 OVC037 02/M04 Q1027
                        R14/19//95=
201902140130 METAR LRIA 140130Z 26006KT 240V300 9999 -RA OVC034 03/M04
                        Q1026 R14/19//95=
201902140200 METAR COR LRIA 140200Z 28006KT 250V310 9999 OVC035 03/M04
                        Q1026 R14/19//95=
201902140230 METAR LRIA 140230Z 27008KT 9999 OVC034 03/M03 Q1026 R14/19//95=
201902140300 METAR COR LRIA 140300Z 27010KT 9999 -RA SCT034 BKN045 03/M03
                        Q1026 R14/19//95=
201902140330 METAR COR LRIA 140330Z 27008KT 9999 -RA BKN030 03/M03 Q1026
                        R14/19//95=
201902140400 METAR LRIA 140400Z 27008KT 240V300 9999 BKN028 03/M03 Q1026
                        RERA R14/19//95=
201902140430 METAR LRIA 140430Z AUTO 26008KT 220V290 9999 -SHRA OVC028///
                        03/M02 Q1026=
201902140500 METAR LRIA 140500Z 27009KT 9999 -RA OVC025 03/M02 Q1026 R14/19//95=
201902140530 METAR LRIA 140530Z 26010KT 240V300 9999 -RA FEW016 BKN021
                        02/M01 Q1026 R14/29//95=
201902140600 METAR LRIA 140600Z 26009KT 9999 -RA BKN015 OVC025 02/M00
                        Q1026 R14/29//95=
201902140630 METAR COR LRIA 140630Z 27009KT 9999 -RA BKN013 OVC023 02/M00
                        Q1026 R14/29//95=
201902140700 METAR LRIA 140700Z 27008KT 230V300 9999 -RA BKN012 OVC023
                        02/M00 Q1026 R14/29//95=
201902140730 METAR LRIA 140730Z 27007KT 240V310 9999 -RA SCT007 BKN010
                        OVC022 02/00 Q1026 R14/29//95=
201902140800 METAR LRIA 140800Z 28007KT 240V310 9999 -RA BKN009 OVC020
                        03/01 Q1026 R14/29//95=
201902140830 METAR LRIA 140830Z 29008KT 9999 -RA BKN010 OVC020 03/01 Q1026
                        R14/29//95=
201902140900 METAR LRIA 140900Z 31009KT 9999 -RA BKN009 OVC020 04/02 Q1026
                        R14/29//95=
201902140930 METAR LRIA 140930Z 33010KT 9999 -RA BKN009 04/02 Q1026 R14/29//95=
201902141000 METAR LRIA 141000Z 33013KT 9999 -RA BKN010 OVC027 04/02 Q1025
                        R14/29//95=
201902141030 METAR LRIA 141030Z 34015KT 9999 -RA BKN010 OVC030 04/02 Q1025
                        R14/29//95=
201902141100 METAR LRIA 141100Z 34014KT 9999 -RA BKN012 OVC040 04/02 Q1026
                        R14/29//95=
201902141130 METAR LRIA 141130Z 34013KT 9999 -RA BKN010 OVC030 04/02 Q1026
                        R14/29//95=
201902141200 METAR LRIA 141200Z 33011KT 9999 -RA BKN010 OVC030 04/02 Q1025
                        R14/29//95=
201902141230 METAR LRIA 141230Z 33010KT 9999 BKN010 04/02 Q1025 R14/29//95=
201902141300 METAR LRIA 141300Z 32010KT 9999 SCT012 SCT040 05/02 Q1025
                        R14/29//95=
201902141330 METAR LRIA 141330Z 34015KT 9999 -SHRA SCT010 FEW030CB 04/01
                        Q1026 R14/29//95=
201902141400 METAR LRIA 141400Z 35012KT 9999 SCT015 BKN033 04/01 Q1026
                        R14/29//95=
201902141430 METAR LRIA 141430Z 35014KT 9999 -RA FEW013 FEW025CB BKN045
                        03/00 Q1026 R14/29//95=
201902141500 METAR LRIA 141500Z 34009KT 9999 -RA FEW023CB BKN035 04/01
                        Q1026 R14/29//95=
201902141530 METAR LRIA 141530Z 35011KT 9999 -RA SCT013 BKN035 03/01 Q1026
                        R14/29//95=
201902141600 METAR LRIA 141600Z 33007KT 9999 FEW015 BKN040 03/01 Q1027
                        R14/29//95=
201902141630 METAR LRIA 141630Z 34011KT 9999 FEW015 SCT040 03/01 Q1027
                        R14/29//95=
201902141700 METAR LRIA 141700Z 34011KT 9999 SCT020 BKN040 03/01 Q1027
                        R14/29//95=
201902141730 METAR LRIA 141730Z 34009KT 9999 SCT017 BKN047 03/01 Q1028
                        R14/29//95=
201902141800 METAR LRIA 141800Z 34011KT 9999 SCT017 SCT045 03/01 Q1028
                        R14/29//95=
201902141830 METAR LRIA 141830Z 34012KT 9999 FEW015 BKN020 02/01 Q1028
                        R14/29//95=
201902141900 METAR LRIA 141900Z 34011KT 9999 FEW015 BKN020 BKN033 02/01
                        Q1028 R14/29//95=
201902141930 METAR LRIA 141930Z 34010KT 9999 SCT009 BKN022 BKN045 02/01
                        Q1028 R14/29//95=
201902142000 METAR LRIA 142000Z 34008KT 9999 FEW008 BKN016 OVC037 02/00
                        Q1028 R14/29//95=
201902142030 METAR LRIA 142030Z 34009KT 9999 -RA SCT012 BKN020 BKN037
                        02/01 Q1028 R14/29//95=
201902142100 METAR LRIA 142100Z 35010KT 9999 -RA BKN009 BKN018 02/00 Q1028
                        R14/29//95=
201902142130 METAR LRIA 142130Z 34010KT 9999 SCT010 BKN020 02/00 Q1028
                        R14/29//95=
201902142200 METAR LRIA 142200Z 35009KT 9999 BKN009 BKN020 02/01 Q1029
                        R14/29//95=
201902142230 METAR LRIA 142230Z 34010KT 9999 SCT009 BKN017 02/00 Q1029
                        R14/29//95=
201902142300 METAR LRIA 142300Z 35010KT 9999 -RA BKN013 BKN018 02/00 Q1029
                        R14/29//95=
201902142330 METAR LRIA 142330Z 35011KT 9999 -RA SCT008 BKN018 02/00 Q1029
                        R14/29//95=
201902150000 METAR LRIA 150000Z 35013KT 9999 BKN015 02/00 Q1029 R14/29//95=
201902150030 METAR LRIA 150030Z 35008KT 9999 BKN008 BKN017 02/00 Q1029
                        R14/29//95=
201902150100 METAR LRIA 150100Z 32003KT 270V010 9999 FEW005 BKN009 BKN020
                        02/00 Q1029 R14/29//95=
201902150130 METAR LRIA 150130Z 33005KT 9999 BKN006 BKN016 02/00 Q1030
                        R14/29//95=
201902150200 METAR LRIA 150200Z 34007KT 9999 BKN006 BKN013 02/00 Q1030
                        R14/29//95=
201902150230 METAR LRIA 150230Z 35007KT 9999 BKN004 BKN008 02/00 Q1030
                        R14/29//95=
201902150300 METAR LRIA 150300Z 33005KT 9999 SCT004 BKN014 BKN025 02/00
                        Q1030 R14/29//95=
201902150330 METAR LRIA 150330Z 32005KT 9999 FEW003 BKN008 BKN016 02/00
                        Q1030 R14/29//95=
201902150400 METAR LRIA 150400Z 34006KT 9999 SCT007 BKN016 OVC033 02/00
                        Q1030 R14/29//95=
201902150430 METAR LRIA 150430Z 34006KT 9999 SCT007 BKN016 OVC030 02/00
                        Q1030 R14/29//95=
201902150500 METAR LRIA 150500Z 34008KT 9999 FEW008 OVC015 02/M00 Q1031
                        R14/29//95=
201902150530 METAR LRIA 150530Z 35006KT 9999 OVC015 02/M00 Q1031 R14/29//95=
201902150600 METAR LRIA 150600Z 33004KT 9999 BKN014 02/M00 Q1032 R14/29//95=
201902150630 METAR LRIA 150630Z 34006KT 9999 OVC015 02/00 Q1032 R14/29//95=
201902150700 METAR LRIA 150700Z 35006KT 9999 OVC013 02/00 Q1032 R14/29//95=
201902150730 METAR COR LRIA 150730Z 32005KT 9999 FEW006 BKN013 02/00 Q1032
                        R14/29//95=
201902150800 METAR LRIA 150800Z 34006KT 9999 FEW004 OVC013 03/00 Q1032
                        R14/29//95=
201902150830 METAR LRIA 150830Z 35008KT 9999 FEW007 BKN012 03/00 Q1033
                        R14/29//95=
201902150900 METAR LRIA 150900Z 36006KT 9999 BKN011 SCT014 03/M00 Q1033
                        R14/29//95=
201902150930 METAR LRIA 150930Z 36006KT 9999 FEW010 BKN013 03/M00 Q1033
                        R14/29//95=
201902151000 METAR LRIA 151000Z 36006KT 9999 SCT011 BKN014 03/M00 Q1033
                        R14/29//95=
201902151030 METAR LRIA 151030Z 34008KT 9999 SCT015 BKN019 04/M00 Q1032
                        R14/29//95=
201902151100 METAR LRIA 151100Z 34007KT 9999 FEW014 BKN018 04/M01 Q1032
                        R14/29//95=
201902151130 METAR LRIA 151130Z 35008KT 9999 FEW015 BKN024 04/M01 Q1032
                        R14/29//95=
201902151200 METAR LRIA 151200Z 33007KT 9999 FEW019 BKN031 04/M01 Q1032
                        R14/29//95=
201902151230 METAR LRIA 151230Z 34006KT 310V010 9999 FEW019 SCT031 04/M01
                        Q1032 R14/29//95=
201902151300 METAR LRIA 151300Z 30007KT 270V340 9999 FEW019 SCT031 05/M01
                        Q1032 R14/29//95=
201902151330 METAR LRIA 151330Z 02005KT 350V050 9999 FEW019 BKN038 05/M00
                        Q1031 R14/29//95=
201902151400 METAR LRIA 151400Z 34006KT 9999 SCT027 BKN035 04/M01 Q1031
                        R14/29//95=
201902151430 METAR LRIA 151430Z 32003KT 9999 FEW024 SCT031 BKN039 04/M00
                        Q1031 R14/29//95=
201902151500 METAR LRIA 151500Z 32003KT 280V340 9999 OVC037 04/M00 Q1031
                        R14/19//95=
201902151530 METAR LRIA 151530Z 31007KT 9999 OVC029 04/M02 Q1031 R14/19//95=
201902151600 METAR COR LRIA 151600Z 32005KT 9999 OVC033 04/M03 Q1031 R14/19//95=
201902151630 METAR LRIA 151630Z 34004KT 9999 OVC034 04/M02 Q1031 R14/19//95=
201902151700 METAR COR LRIA 151700Z 34004KT 9999 OVC034 04/M02 Q1031 R14/19//95=
201902151730 METAR LRIA 151730Z 29005KT 9999 BKN035 04/M03 Q1031 R14/19//95=
201902151800 METAR LRIA 151800Z 31004KT 9999 BKN035 04/M02 Q1031 R14/19//95=
201902151830 METAR LRIA 151830Z 31004KT 280V340 9999 BKN033 04/M02 Q1031
                        R14/19//95=
201902151900 METAR LRIA 151900Z 29005KT 260V330 9999 BKN033 03/M02 Q1031
                        R14/19//95=
201902151930 METAR LRIA 151930Z 31004KT 9999 BKN033 03/M01 Q1031 R14/19//95=
201902152000 METAR LRIA 152000Z 33004KT 9999 FEW033 03/M02 Q1031 R14/19//95=
201902152030 METAR LRIA 152030Z 28003KT CAVOK 02/M02 Q1031 R14/19//95=
201902152100 METAR LRIA 152100Z 31004KT CAVOK 03/M02 Q1030 R14/19//95=
201902152130 METAR LRIA 152130Z 31006KT CAVOK 02/M02 Q1030 R14/19//95=
201902152200 METAR LRIA 152200Z 31005KT CAVOK 01/M02 Q1030 R14/19//95=
201902152230 METAR LRIA 152230Z 32006KT 9999 SCT023 00/M02 Q1030 R14/19//95=
201902152300 METAR LRIA 152300Z 32005KT 9999 BKN020 00/M02 Q1030 R14/19//95=
201902152330 METAR LRIA 152330Z 32005KT 9999 BKN020 01/M02 Q1030 R14/19//95=
201902160000 METAR LRIA 160000Z 27004KT 9999 BKN023 01/M02 Q1030 R14/19//95=
201902160030 METAR LRIA 160030Z 28005KT 9999 BKN025 01/M02 Q1030 R14/19//95=
201902160100 METAR LRIA 160100Z 31006KT 9999 BKN025 01/M02 Q1030 R14/19//95=
201902160130 METAR LRIA 160130Z 29005KT 9999 BKN027 01/M02 Q1030 R14/19//95=
201902160200 METAR LRIA 160200Z 28005KT 9999 OVC030 01/M02 Q1029 R14/19//95=
201902160230 METAR LRIA 160230Z 25004KT 220V300 9999 OVC030 01/M02 Q1029
                        R14/19//95=
201902160300 METAR LRIA 160300Z 26006KT 9999 OVC030 01/M01 Q1029 R14/19//95=
201902160330 METAR LRIA 160330Z 28004KT 9999 OVC030 01/M01 Q1029 R14/19//95=
201902160400 METAR LRIA 160400Z VRB02KT 9999 OVC028 02/M02 Q1029 R14/19//95=
201902160430 METAR LRIA 160430Z 26003KT 220V310 9999 OVC027 02/M01 Q1029
                        R14/19//95=
201902160500 METAR LRIA 160500Z VRB01KT 9999 OVC027 02/M01 Q1029 R14/19//95=
201902160530 METAR LRIA 160530Z 00000KT 9999 OVC027 02/M01 Q1029 R14/19//95=
201902160600 METAR LRIA 160600Z VRB02KT 9999 OVC027 02/M01 Q1029 R14/19//95=
201902160630 METAR LRIA 160630Z 33003KT 310V010 9999 OVC027 03/M01 Q1029
                        R14/19//95=
201902160700 METAR LRIA 160700Z 31004KT 9999 OVC027 03/M01 Q1029 R14/19//95=
201902160730 METAR LRIA 160730Z 30006KT 9999 OVC026 03/M01 Q1029 R14/19//95=
201902160800 METAR LRIA 160800Z 31007KT 9999 OVC025 04/M01 Q1029 R14/19//95=
201902160830 METAR LRIA 160830Z 30007KT 9999 OVC024 04/M00 Q1029 R14/19//95=
201902160900 METAR LRIA 160900Z 31005KT 280V340 9999 OVC026 05/00 Q1029
                        R14/19//95=
201902160930 METAR LRIA 160930Z 29005KT 250V340 9999 OVC026 05/00 Q1029
                        R14/19//95=
201902161000 METAR LRIA 161000Z 31006KT 9999 OVC027 06/01 Q1029 R14/19//95=
201902161030 METAR LRIA 161030Z 31008KT 280V340 9999 OVC028 06/01 Q1028
                        R14/19//95=
201902161100 METAR LRIA 161100Z 30010KT 9999 BKN027 07/01 Q1028 R14/CLRD//=
201902161130 METAR LRIA 161130Z 30010KT 9999 BKN022 08/01 Q1028=
201902161200 METAR LRIA 161200Z 31009KT 9999 BKN022 08/02 Q1028=
201902161230 METAR LRIA 161230Z 33010KT 9999 BKN023 08/02 Q1027=
201902161300 METAR LRIA 161300Z 33009KT 9999 BKN024 09/02 Q1027=
201902161330 METAR LRIA 161330Z 34010KT 9999 SCT025 09/02 Q1027=
201902161400 METAR LRIA 161400Z 33009KT 9999 SCT034 09/02 Q1027=
201902161430 METAR LRIA 161430Z 32008KT CAVOK 09/02 Q1027=
201902161500 METAR LRIA 161500Z 30007KT CAVOK 09/03 Q1027=
201902161530 METAR LRIA 161530Z 31005KT CAVOK 08/03 Q1027=
201902161600 METAR LRIA 161600Z 29005KT CAVOK 07/03 Q1027=
201902161630 METAR LRIA 161630Z 30005KT CAVOK 07/02 Q1027=
201902161700 METAR LRIA 161700Z 31007KT CAVOK 07/03 Q1027=
201902161730 METAR LRIA 161730Z 29005KT CAVOK 06/02 Q1027=
201902161800 METAR LRIA 161800Z 31005KT 280V340 CAVOK 06/02 Q1027=
201902161830 METAR LRIA 161830Z 29003KT 250V310 CAVOK 05/01 Q1027 R14/19//95=
201902161900 METAR LRIA 161900Z 29003KT 260V320 CAVOK 05/02 Q1027 R14/19//95=
201902161930 METAR LRIA 161930Z 26002KT 6000 NSC 05/02 Q1027 R14/19//95=
201902162000 METAR LRIA 162000Z 27002KT 230V300 5000 BR NSC 04/02 Q1027
                        R14/19//95=
201902162030 METAR LRIA 162030Z 25003KT 5000 BR NSC 04/01 Q1027 R14/19//95=
201902162100 METAR LRIA 162100Z 26004KT 5000 BR NSC 04/01 Q1027 R14/19//95=
201902162130 METAR LRIA 162130Z 26004KT 5000 BR NSC 03/01 Q1027 R14/19//95=
201902162200 METAR LRIA 162200Z 26005KT 6000 NSC 04/01 Q1027 R14/19//95=
201902162230 METAR LRIA 162230Z 26005KT 7000 NSC 03/00 Q1027 R14/19//95=
201902162300 METAR LRIA 162300Z 25004KT 6000 NSC 03/00 Q1026 R14/19//95=
201902162330 METAR LRIA 162330Z 26004KT 7000 NSC 03/M00 Q1026 R14/19//95=
201902170000 METAR COR LRIA 170000Z 25003KT 6000 NSC 02/M00 Q1026 R14/19//95=
201902170030 METAR LRIA 170030Z 25004KT 5000 BR NSC 02/M00 Q1026 R14/19//95=
201902170100 METAR LRIA 170100Z 27003KT 7000 NSC 02/M00 Q1026 R14/19//95=
201902170130 METAR COR LRIA 170130Z 27003KT 7000 NSC 02/M01 Q1025 R14/19//95=
201902170200 METAR COR LRIA 170200Z 27004KT 8000 NXC 02/M01 Q1025 R14/19//95=
201902170230 METAR COR LRIA 170230Z 00000KT 6000 NSC 01/M01 Q1025 R14/19//95=
201902170300 METAR LRIA 170300Z 25003KT 6000 NSC 02/M01 Q1025 R14/19//95=
201902170330 METAR COR LRIA 170330Z 26003KT 8000 NSC 01/M01 Q1025 R14/19//95=
201902170400 METAR LRIA 170400Z 23002KT 5000 BR NSC 01/M02 Q1025 R14/19//95=
201902170430 METAR COR LRIA 170430Z 24002KT 6000 NSC 01/M01 Q1024 R14/19//95=
201902170500 METAR LRIA 170500Z 25002KT 220V280 6000 FEW015 00/M01 Q1025
                        R14/19//95=
201902170530 METAR LRIA 170530Z 00000KT 8000 FEW018 01/M01 Q1025 R14/19//95=
201902170600 METAR LRIA 170600Z 26003KT CAVOK 02/M01 Q1025 R14/19//95=
201902170630 METAR LRIA 170630Z 26004KT CAVOK 03/M01 Q1025 R14/19//95=
201902170700 METAR LRIA 170700Z 25004KT CAVOK 04/M00 Q1025 R14/19//95=
201902170730 METAR LRIA 170730Z 24005KT CAVOK 05/M00 Q1025 R14/19//95=
201902170800 METAR LRIA 170800Z 24004KT 210V270 CAVOK 07/01 Q1025 R14/19//95=
201902170830 METAR LRIA 170830Z 25010KT CAVOK 08/00 Q1025 R14/19//95=
201902170900 METAR LRIA 170900Z 26005KT 230V310 CAVOK 09/01 Q1025 R14/CLRD//=
201902170930 METAR LRIA 170930Z 27005KT 210V300 CAVOK 10/01 Q1025=
201902171000 METAR LRIA 171000Z 25004KT 170V300 CAVOK 12/01 Q1024=
201902171030 METAR LRIA 171030Z 26007KT 210V290 CAVOK 13/01 Q1024=
201902171100 METAR LRIA 171100Z 26007KT 220V290 CAVOK 14/01 Q1023=
201902171130 METAR LRIA 171130Z 27008KT 250V310 CAVOK 15/00 Q1023=
201902171200 METAR LRIA 171200Z 29010KT 250V320 CAVOK 15/M01 Q1022=
201902171230 METAR LRIA 171230Z 28010KT CAVOK 15/00 Q1022=
201902171300 METAR LRIA 171300Z 28008KT 250V310 CAVOK 15/M00 Q1022=
201902171330 METAR LRIA 171330Z 27008KT CAVOK 15/00 Q1021=
201902171400 METAR LRIA 171400Z 27008KT CAVOK 15/00 Q1021=
201902171430 METAR LRIA 171430Z 28007KT CAVOK 15/M01 Q1021=
201902171500 METAR LRIA 171500Z 27005KT CAVOK 15/M02 Q1021=
201902171530 METAR LRIA 171530Z 28004KT CAVOK 13/M01 Q1021=
201902171600 METAR LRIA 171600Z 31006KT CAVOK 11/M00 Q1021=
201902171630 METAR LRIA 171630Z 29007KT CAVOK 11/M00 Q1021=
201902171700 METAR LRIA 171700Z 28005KT CAVOK 11/M01 Q1022=
201902171730 METAR LRIA 171730Z 31005KT 270V330 CAVOK 09/M02 Q1022=
201902171800 METAR LRIA 171800Z 28003KT 240V320 CAVOK 08/M01 Q1022=
201902171830 METAR LRIA 171830Z 28004KT CAVOK 08/M01 Q1022=
201902171900 METAR LRIA 171900Z 26003KT CAVOK 08/M01 Q1022=
201902171930 METAR LRIA 171930Z 25004KT CAVOK 07/M01 Q1022=
201902172000 METAR LRIA 172000Z 27002KT 250V340 CAVOK 07/M01 Q1022=
201902172030 METAR LRIA 172030Z 24003KT 210V290 CAVOK 06/M01 Q1022=
201902172100 METAR LRIA 172100Z 00000KT CAVOK 05/M00 Q1022=
201902172130 METAR LRIA 172130Z 26003KT CAVOK 05/M01 Q1022=
201902172200 METAR LRIA 172200Z 26003KT CAVOK 05/M01 Q1022=
201902172230 METAR LRIA 172230Z 25003KT CAVOK 05/M01 Q1023=
201902172300 METAR LRIA 172300Z 27004KT CAVOK 05/M01 Q1023=
201902172330 METAR LRIA 172330Z 29003KT CAVOK 05/M01 Q1023=
201902180000 METAR LRIA 180000Z 27004KT CAVOK 05/M01 Q1023=
201902180030 METAR LRIA 180030Z 30005KT CAVOK 06/M02 Q1023=
201902180100 METAR LRIA 180100Z 29005KT CAVOK 05/M02 Q1023=
201902180130 METAR LRIA 180130Z 29005KT CAVOK 05/M02 Q1023=
201902180200 METAR LRIA 180200Z 27006KT CAVOK 04/M02 Q1023=
201902180230 METAR LRIA 180230Z 28006KT CAVOK 04/M01 Q1023=
201902180300 METAR LRIA 180300Z 29007KT CAVOK 03/M01 Q1023=
201902180330 METAR LRIA 180330Z 29008KT CAVOK 03/M01 Q1024=
201902180400 METAR LRIA 180400Z 29006KT CAVOK 03/M01 Q1024=
201902180430 METAR LRIA 180430Z 29008KT CAVOK 03/M01 Q1024=
201902180500 METAR LRIA 180500Z 30007KT CAVOK 02/M01 Q1024=
201902180530 METAR LRIA 180530Z 30007KT CAVOK 02/M01 Q1024=
201902180600 METAR LRIA 180600Z 30007KT CAVOK 03/M01 Q1024=
201902180630 METAR LRIA 180630Z 31008KT CAVOK 04/M00 Q1025=
201902180700 METAR LRIA 180700Z 31009KT CAVOK 04/M00 Q1025=
201902180730 METAR LRIA 180730Z 30008KT CAVOK 05/00 Q1025=
201902180800 METAR LRIA 180800Z 30008KT CAVOK 06/00 Q1025=
201902180830 METAR LRIA 180830Z 33008KT CAVOK 07/01 Q1025=
201902180900 METAR LRIA 180900Z 33009KT CAVOK 07/01 Q1025=
201902180930 METAR LRIA 180930Z 35010KT CAVOK 08/01 Q1025=
201902181000 METAR LRIA 181000Z 35009KT CAVOK 08/01 Q1025=
201902181030 METAR LRIA 181030Z 34008KT 9999 SCT027 09/01 Q1025=
201902181100 METAR LRIA 181100Z 36007KT 320V040 9999 SCT024 09/01 Q1024=
201902181130 METAR LRIA 181130Z 33006KT 280V360 9999 SCT030 09/01 Q1024=
201902181200 METAR LRIA 181200Z 34008KT 310V020 9999 SCT030 10/M00 Q1024=
201902181230 METAR LRIA 181230Z 32007KT 290V020 9999 SCT035 10/M00 Q1024=
201902181300 METAR LRIA 181300Z 32006KT 280V340 CAVOK 10/00 Q1023=
201902181330 METAR LRIA 181330Z 34007KT 280V360 9999 FEW037 10/00 Q1023=
201902181400 METAR LRIA 181400Z 31006KT 270V350 CAVOK 10/00 Q1023=
201902181430 METAR LRIA 181430Z 33006KT 300V360 CAVOK 10/00 Q1023=
201902181500 METAR LRIA 181500Z 01005KT 340V050 CAVOK 09/01 Q1023=
201902181530 METAR COR LRIA 181530Z 04006KT CAVOK 08/01 Q1023=
201902181600 METAR LRIA 181600Z AUTO 04007KT 9999 NCD 07/00 Q1023=
201902181630 METAR LRIA 181630Z 05007KT CAVOK 06/00 Q1024=
201902181700 METAR LRIA 181700Z 06005KT CAVOK 05/M00 Q1024=
201902181730 METAR LRIA 181730Z 07004KT CAVOK 05/M00 Q1024=
201902181800 METAR LRIA 181800Z 08004KT CAVOK 06/M00 Q1024=
201902181830 METAR LRIA 181830Z 08004KT CAVOK 05/00 Q1024=
201902181900 METAR LRIA 181900Z 09003KT CAVOK 06/M00 Q1024=
201902181930 METAR LRIA 181930Z 11003KT CAVOK 05/M02 Q1024=
201902182000 METAR LRIA 182000Z 21001KT CAVOK 04/M00 Q1024=
201902182030 METAR LRIA 182030Z 00000KT 9999 SCT035 05/00 Q1024=
201902182100 METAR LRIA 182100Z 00000KT 9999 FEW035 04/00 Q1024=
201902182130 METAR LRIA 182130Z 07004KT 9999 SCT035 05/00 Q1024=
201902182200 METAR LRIA 182200Z 08005KT 9999 SCT035 04/M00 Q1024=
201902182230 METAR LRIA 182230Z 19002KT 9999 SCT035 02/M01 Q1024=
201902182300 METAR LRIA 182300Z 09003KT 9999 FEW040 03/00 Q1024=
201902182330 METAR LRIA 182330Z 09005KT CAVOK 03/M01 Q1024=
201902190000 METAR LRIA 190000Z 08005KT CAVOK 03/M00 Q1024=
201902190030 METAR LRIA 190030Z 10004KT CAVOK 03/M00 Q1024=
201902190100 METAR LRIA 190100Z 07004KT CAVOK 02/M01 Q1024=
201902190130 METAR LRIA 190130Z 07005KT CAVOK 01/M02 Q1023=
201902190200 METAR LRIA 190200Z 08006KT CAVOK 02/M01 Q1023=
201902190230 METAR LRIA 190230Z 10009KT CAVOK 01/M01 Q1023=
201902190300 METAR LRIA 190300Z 11007KT 9999 SCT035 02/M01 Q1023=
201902190330 METAR LRIA 190330Z 09008KT 9999 BKN035 01/M01 Q1023=
201902190400 METAR LRIA 190400Z 10008KT 9999 SCT035 02/M01 Q1023=
201902190430 METAR LRIA 190430Z 09009KT 9999 FEW035 02/M01 Q1023=
201902190500 METAR LRIA 190500Z 10009KT CAVOK 02/M01 Q1023=
201902190530 METAR LRIA 190530Z 10008KT CAVOK 01/M01 Q1023=
201902190600 METAR LRIA 190600Z 10009KT CAVOK 01/M01 Q1023=
201902190630 METAR LRIA 190630Z 11011KT CAVOK 02/M01 Q1023=
201902190700 METAR LRIA 190700Z 10010KT CAVOK 02/M01 Q1023=
201902190730 METAR LRIA 190730Z 11013KT CAVOK 04/00 Q1023=
201902190800 METAR LRIA 190800Z 11014KT CAVOK 04/00 Q1023=
201902190830 METAR LRIA 190830Z 11014KT CAVOK 05/00 Q1023=
201902190900 METAR LRIA 190900Z 12013KT CAVOK 06/01 Q1022=
201902190930 METAR LRIA 190930Z 11013KT CAVOK 06/01 Q1022=
201902191000 METAR LRIA 191000Z 12013KT CAVOK 08/01 Q1022=
201902191030 METAR LRIA 191030Z 15012KT CAVOK 11/01 Q1022=
201902191100 METAR LRIA 191100Z 16011KT CAVOK 11/01 Q1021=
201902191130 METAR LRIA 191130Z 17010KT CAVOK 11/01 Q1021=
201902191200 METAR LRIA 191200Z 19010KT CAVOK 11/01 Q1021=
201902191230 METAR LRIA 191230Z 16012KT CAVOK 12/02 Q1020=
201902191300 METAR LRIA 191300Z 16012KT CAVOK 12/02 Q1020=
201902191330 METAR LRIA 191330Z 17009KT 150V210 CAVOK 12/01 Q1020=
201902191400 METAR LRIA 191400Z 16010KT CAVOK 11/01 Q1019=
201902191430 METAR LRIA 191430Z 16010KT CAVOK 11/01 Q1019=
201902191500 METAR LRIA 191500Z 15010KT CAVOK 11/02 Q1019=
201902191530 METAR LRIA 191530Z 15007KT CAVOK 09/01 Q1019=
201902191600 METAR LRIA 191600Z 13009KT CAVOK 08/01 Q1019=
201902191630 METAR LRIA 191630Z 13009KT CAVOK 07/01 Q1018=
201902191700 METAR LRIA 191700Z 11008KT CAVOK 06/01 Q1018=
201902191730 METAR LRIA 191730Z 12007KT CAVOK 07/01 Q1018=
201902191800 METAR LRIA 191800Z 12009KT CAVOK 06/01 Q1018=
201902191830 METAR LRIA 191830Z 12009KT CAVOK 05/01 Q1018=
201902191900 METAR LRIA 191900Z 11010KT CAVOK 04/00 Q1018=
201902191930 METAR LRIA 191930Z 11010KT CAVOK 04/00 Q1018=
201902192000 METAR LRIA 192000Z 11009KT CAVOK 03/00 Q1017=
201902192030 METAR LRIA 192030Z 11009KT CAVOK 03/00 Q1017=
201902192100 METAR LRIA 192100Z 11009KT CAVOK 03/00 Q1017=
201902192130 METAR LRIA 192130Z 11009KT CAVOK 02/00 Q1017=
201902192200 METAR LRIA 192200Z 10008KT CAVOK 02/M00 Q1016=
201902192230 METAR LRIA 192230Z 10008KT CAVOK 02/M00 Q1016=
201902192300 METAR LRIA 192300Z 10008KT CAVOK 01/M00 Q1016=
201902192330 METAR LRIA 192330Z 10008KT CAVOK 01/M00 Q1016=
201902200000 METAR COR LRIA 200000Z 09008KT 5000 BR NSC 01/M01 Q1016=
201902200030 METAR LRIA 200030Z 09007KT 4800 BR NSC 01/M01 Q1016=
201902200100 METAR COR LRIA 200100Z 09007KT 4200 BR NSC 00/M01 Q1016=
201902200130 METAR LRIA 200130Z 09005KT 2500 BR NSC M00/M02 Q1015=
201902200200 METAR LRIA 200200Z 08006KT 0750 R14/0900U R32/2000U FZFG
                        NSC M00/M02 Q1015=
201902200230 METAR LRIA 200230Z 08006KT 0350 R14/0400N R32/0450N FZFG
                        NSC M00/M02 Q1015=
201902200300 METAR LRIA 200300Z 07005KT 0200 R14/0275N R32/0250N FZFG
                        NSC M00/M02 Q1015=
201902200330 METAR LRIA 200330Z AUTO 07006KT 0250 R14/0275N R32/0225N
                        FZFG NCD M00/M01 Q1015=
201902200400 METAR COR LRIA 200400Z 06005KT 0050 R14/0250N R32/0200N FZFG
                        NSC M00/M01 Q1015=
201902200430 METAR LRIA 200430Z 08003KT 050V120 0100 R14/0275N R32/0200N
                        FZFG NSC M00/M01 Q1015=
201902200500 METAR LRIA 200500Z 00000KT 0100 R14/0225N R32/0225N FZFG
                        NSC M00/M02 Q1015=
201902200530 METAR LRIA 200530Z 00000KT 0100 R14/0225N R32/0150N FZFG
                        VV001 M01/M03 Q1016 R14/19//95=
201902200600 METAR LRIA 200600Z 00000KT 0450 R14/0650N R32/0200N FZFG
                        SCT001 M01/M02 Q1016 R14/19//95=
201902200630 METAR LRIA 200630Z 00000KT 0350 R14/0450N R32/0325N FZFG
                        BKN001 M01/M02 Q1016 R14/19//95=
201902200700 METAR LRIA 200700Z 00000KT 0750 R14/1800N R32/0450D FG BKN001
                        00/M01 Q1016 R14/19//95=
201902200730 METAR LRIA 200730Z 00000KT 2000 BR SCT001 01/M00 Q1016 R14/19//95=
201902200800 METAR LRIA 200800Z 00000KT 8000 FEW002 03/02 Q1016 R14/19//95=
201902200830 METAR LRIA 200830Z 29002KT 9000 FEW003 05/03 Q1017 R14/19//95=
201902200900 METAR LRIA 200900Z 28004KT 240V320 CAVOK 06/01 Q1017 R14/19//95=
201902200930 METAR LRIA 200930Z 30005KT 250V330 CAVOK 07/01 Q1017 R14/19//95=
201902201000 METAR LRIA 201000Z 33010KT CAVOK 09/01 Q1017 R14/19//95=
201902201030 METAR LRIA 201030Z 33009KT CAVOK 09/01 Q1017 R14/19//95=
201902201100 METAR LRIA 201100Z 34013KT CAVOK 09/02 Q1017 R14/CLRD//=
201902201130 METAR LRIA 201130Z 32011KT 290V350 9999 FEW025 09/01 Q1017=
201902201200 METAR LRIA 201200Z 34011KT 9999 FEW030 09/01 Q1017=
201902201230 METAR LRIA 201230Z 35013KT 9999 FEW035 09/01 Q1017=
201902201300 METAR LRIA 201300Z 34009KT 9999 SCT035 09/01 Q1017=
201902201330 METAR LRIA 201330Z 32010KT 9999 FEW035 10/01 Q1017=
201902201400 METAR LRIA 201400Z 33010KT 9999 FEW035 09/00 Q1017=
201902201430 METAR LRIA 201430Z 32007KT CAVOK 08/01 Q1017=
201902201500 METAR LRIA 201500Z 33008KT CAVOK 08/01 Q1017=
201902201530 METAR LRIA 201530Z 32006KT 9999 SCT045 08/01 Q1018=
201902201600 METAR LRIA 201600Z 30005KT 9999 FEW045 07/01 Q1018=
201902201630 METAR LRIA 201630Z 31006KT 9999 SCT040 06/M00 Q1018=
201902201700 METAR LRIA 201700Z 35004KT 9999 SCT035 07/M00 Q1019=
201902201730 METAR LRIA 201730Z 34004KT CAVOK 07/M00 Q1019=
201902201800 METAR LRIA 201800Z 28002KT 250V330 CAVOK 06/M01 Q1019=
201902201830 METAR LRIA 201830Z VRB02KT CAVOK 05/M00 Q1019=
201902201900 METAR LRIA 201900Z 25003KT 180V300 CAVOK 05/M00 Q1020=
201902201930 METAR LRIA 201930Z 29004KT 240V330 CAVOK 05/M00 Q1020=
201902202000 METAR LRIA 202000Z 29004KT CAVOK 05/M01 Q1020=
201902202030 METAR LRIA 202030Z 27003KT 210V330 CAVOK 05/M01 Q1020=
201902202100 METAR LRIA 202100Z 29004KT 230V320 CAVOK 04/M01 Q1020=
201902202130 METAR LRIA 202130Z 00000KT CAVOK 04/M01 Q1020=
201902202200 METAR LRIA 202200Z 00000KT CAVOK 04/M01 Q1020=
201902202230 METAR LRIA 202230Z 33003KT 280V020 CAVOK 03/M01 Q1020=
201902202300 METAR LRIA 202300Z 00000KT CAVOK 03/M01 Q1020=
201902202330 METAR LRIA 202330Z VRB01KT CAVOK 03/M03 Q1020=
201902210000 METAR LRIA 210000Z 13002KT 110V170 CAVOK 02/M01 Q1020=
201902210030 METAR LRIA 210030Z VRB01KT CAVOK 02/M02 Q1020=
201902210100 METAR LRIA 210100Z 00000KT CAVOK 03/M02 Q1020=
201902210130 METAR LRIA 210130Z 31003KT 260V350 CAVOK 03/M02 Q1020=
201902210200 METAR LRIA 210200Z AUTO 29003KT 230V340 9999 OVC071/// 04/M02
                        Q1020=
201902210230 METAR LRIA 210230Z 28004KT 240V310 CAVOK 04/M02 Q1020=
201902210300 METAR LRIA 210300Z 28006KT 9999 FEW036 05/M02 Q1020=
201902210330 METAR LRIA 210330Z 29010KT CAVOK 05/M02 Q1021=
201902210400 METAR LRIA 210400Z 28007KT CAVOK 05/M02 Q1021=
201902210430 METAR LRIA 210430Z 29008KT CAVOK 05/M02 Q1021=
201902210500 METAR LRIA 210500Z 28008KT CAVOK 05/M02 Q1021=
201902210530 METAR LRIA 210530Z 29009KT CAVOK 05/M02 Q1021=
201902210600 METAR LRIA 210600Z 29009KT CAVOK 05/M02 Q1022=
201902210630 METAR LRIA 210630Z 29008KT CAVOK 06/M02 Q1022=
201902210700 METAR LRIA 210700Z 28009KT CAVOK 07/M02 Q1022=
201902210730 METAR LRIA 210730Z 29011KT 250V330 CAVOK 08/M01 Q1022=
201902210800 METAR LRIA 210800Z 30013KT 270V330 CAVOK 08/M01 Q1022=
201902210830 METAR LRIA 210830Z 30018KT CAVOK 08/M02 Q1022=
201902210900 METAR LRIA 210900Z 31017KT CAVOK 09/M02 Q1022=
201902210930 METAR LRIA 210930Z 31017KT CAVOK 09/M03 Q1022=
201902211000 METAR LRIA 211000Z 31016KT CAVOK 08/M03 Q1022=
201902211030 METAR LRIA 211030Z 31017KT CAVOK 08/M04 Q1022=
201902211100 METAR LRIA 211100Z 31017KT CAVOK 09/M05 Q1021=
201902211130 METAR LRIA 211130Z AUTO 30013KT 9999 OVC054/// 09/M05 Q1021=
201902211200 METAR LRIA 211200Z 31012KT CAVOK 09/M04 Q1021=
201902211230 METAR LRIA 211230Z 31010KT CAVOK 09/M04 Q1021=
201902211300 METAR LRIA 211300Z 30010KT CAVOK 09/M03 Q1021=
201902211330 METAR LRIA 211330Z 29011KT CAVOK 10/M04 Q1021=
201902211400 METAR COR LRIA 211400Z 29009KT CAVOK 10/M04 Q1020=
201902211430 METAR LRIA 211430Z 28008KT CAVOK 10/M05 Q1020=
201902211500 METAR LRIA 211500Z 26007KT CAVOK 09/M04 Q1020=
201902211530 METAR LRIA 211530Z 26007KT CAVOK 09/M04 Q1020=
201902211600 METAR LRIA 211600Z 26007KT CAVOK 08/M04 Q1020=
201902211630 METAR LRIA 211630Z 26007KT CAVOK 08/M04 Q1020=
201902211700 METAR LRIA 211700Z 26006KT CAVOK 08/M04 Q1020=
201902211730 METAR LRIA 211730Z 27005KT 240V300 CAVOK 08/M04 Q1020=
201902211800 METAR LRIA 211800Z 27005KT CAVOK 07/M03 Q1020=
201902211830 METAR LRIA 211830Z 30007KT CAVOK 08/M03 Q1020=
201902211900 METAR LRIA 211900Z 33005KT CAVOK 07/M03 Q1020=
201902211930 METAR LRIA 211930Z 26006KT CAVOK 07/M03 Q1020=
201902212000 METAR LRIA 212000Z 28004KT 230V300 CAVOK 07/M03 Q1020=
201902212030 METAR LRIA 212030Z VRB01KT CAVOK 06/M03 Q1019=
201902212100 METAR LRIA 212100Z 26003KT 210V290 CAVOK 06/M03 Q1019=
201902212130 METAR LRIA 212130Z 28004KT 250V310 CAVOK 06/M03 Q1019=
201902212200 METAR LRIA 212200Z 27006KT 220V300 9999 BKN047 07/M03 Q1019=
201902212230 METAR LRIA 212230Z 28007KT 9999 BKN047 07/M03 Q1019=
201902212300 METAR LRIA 212300Z 28004KT 250V320 9999 -RA OVC045 06/M03
                        Q1019=
201902212330 METAR LRIA 212330Z 26004KT 230V290 9999 -RA OVC045 06/M02
                        Q1018=
201902220000 METAR LRIA 220000Z 27004KT 9999 -RA OVC040 06/M02 Q1018=
201902220030 METAR LRIA 220030Z 26005KT 220V290 9999 -RA OVC035 06/M01
                        Q1018=
201902220100 METAR LRIA 220100Z 26007KT 230V290 9999 -RA OVC030 05/00
                        Q1018=
201902220130 METAR LRIA 220130Z 25007KT 9999 -RA SCT020 OVC027 05/01 Q1017=
201902220200 METAR LRIA 220200Z 26006KT 220V290 9999 -RA OVC027 04/01
                        Q1017=
201902220230 METAR LRIA 220230Z 25007KT 9999 -RA BKN030 04/02 Q1017=
201902220300 METAR LRIA 220300Z 25007KT 9999 -RA FEW020 BKN027 04/02 Q1016
                        R14/29//95=
201902220330 METAR LRIA 220330Z 25005KT 9999 -RA FEW022 BKN040 04/02 Q1016
                        R14/29//95=
201902220400 METAR LRIA 220400Z 24005KT 210V270 9999 -RA SCT020 BKN027
                        04/02 Q1016 R14/29//95=
201902220430 METAR LRIA 220430Z 26005KT 230V300 9999 -RA BKN023 04/02
                        Q1015 R14/29//95=
201902220500 METAR LRIA 220500Z 25006KT 9999 -RA BKN023 04/02 Q1015 R14/29//95=
201902220530 METAR LRIA 220530Z 26005KT 9999 -RA BKN020 04/02 Q1015 R14/29//95=
201902220600 METAR LRIA 220600Z 25004KT 220V280 9000 -RA OVC017 04/02
                        Q1015 R14/29//95=
201902220630 METAR LRIA 220630Z 27004KT 9999 -RA OVC016 04/02 Q1015 R14/29//95=
201902220700 METAR LRIA 220700Z 28005KT 240V300 8000 -RA BKN015 OVC020
                        04/02 Q1015 R14/29//95=
201902220730 METAR LRIA 220730Z 30005KT 8000 -RA FEW006 BKN012 OVC020
                        04/02 Q1015 R14/29//95=
201902220800 METAR LRIA 220800Z 34011KT 8000 -RA FEW005 BKN012 OVC019
                        03/01 Q1015 R14/29//95=
201902220830 METAR COR LRIA 220830Z 03018KT 3400 RASN FEW003 BKN011 0VC018
                        01/M01 Q1016 R14/29//95=
201902220900 METAR LRIA 220900Z 03019KT 6000 -SN FEW005 SCT009 OVC012
                        M00/M03 Q1016 R14/29//95=
201902220930 METAR LRIA 220930Z 03018KT 9000 -SN FEW006 SCT016 OVC025
                        M01/M04 Q1017 R14/29//95=
201902221000 METAR LRIA 221000Z 03017KT 4500 -SN BR FEW010 SCT016 OVC031
                        M01/M04 Q1018 R14/29//95=
201902221030 METAR LRIA 221030Z 02017KT 6000 -SN FEW010 SCT013 OVC034
                        M01/M04 Q1019 R14/29//95=
201902221100 METAR LRIA 221100Z 01017KT 6000 -SN FEW008 SCT017 OVC034
                        M02/M05 Q1019 R14/29//95=
201902221130 METAR LRIA 221130Z 01017KT 4000 -SN BR FEW008 SCT017 OVC034
                        M02/M05 Q1020=
201902221200 METAR LRIA 221200Z 36016KT 4200 -SN BR FEW008 SCT020 OVC034
                        M02/M05 Q1021=
201902221230 METAR LRIA 221230Z 35013KT 1600 SN BR FEW009 BKN015 OVC030
                        M03/M05 Q1021 R14/29//95=
201902221300 METAR LRIA 221300Z 36017KT 2400 SN BR FEW008 BKN016 OVC030
                        M03/M06 Q1021 R14/29//95=
201902221330 METAR LRIA 221330Z 36015KT 8000 -SN FEW010 BKN016 OVC030
                        M03/M07 Q1022 R14/29//95=
201902221400 METAR LRIA 221400Z 35014KT 9999 FEW010 SCT023 BKN038 M02/M07
                        Q1022 R14/29//95=
201902221430 METAR LRIA 221430Z 01014KT 9999 FEW028 BKN038 M02/M09 Q1022
                        R14/29//95=
201902221500 METAR LRIA 221500Z 35017KT 9999 SCT028 BKN043 M02/M10 Q1022
                        R14/29//95=
201902221530 METAR LRIA 221530Z 35017KT 9999 BKN044 M03/M12 Q1023 R14/29//95=
201902221600 METAR LRIA 221600Z 35014KT 9999 BKN046 M03/M11 Q1024 R14/29//95=
201902221630 METAR LRIA 221630Z 36015KT 9999 BKN047 M03/M13 Q1025 R14/29//95=
201902221700 METAR LRIA 221700Z 35016KT CAVOK M03/M12 Q1025 R14/29//95=
201902221730 METAR LRIA 221730Z 35016KT CAVOK M04/M13 Q1026 R14/29//95=
201902221800 METAR LRIA 221800Z 34014KT CAVOK M04/M12 Q1027 R14/19//95=
201902221830 METAR LRIA 221830Z 34013KT CAVOK M04/M11 Q1027 R14/19//95=
201902221900 METAR LRIA 221900Z 34010KT CAVOK M04/M12 Q1028 R14/19//95=
201902221930 METAR COR LRIA 221930Z 34009KT CAVOK M05/M12 Q1029 R14/19//95=
201902222000 METAR COR LRIA 222000Z 36011KT CAVOK M04/M12 Q1029 R14/19//95=
201902222030 METAR LRIA 222030Z 01010KT CAVOK M04/M12 Q1029 R14/19//95=
201902222100 METAR LRIA 222100Z 36011KT CAVOK M05/M12 Q1029 R14/19//95=
201902222130 METAR LRIA 222130Z 36009KT CAVOK M05/M13 Q1030 R14/19//95=
201902222200 METAR LRIA 222200Z 36009KT CAVOK M06/M13 Q1030 R14/19//95=
201902222230 METAR LRIA 222230Z 35010KT CAVOK M06/M14 Q1030 R14/19//95=
201902222300 METAR LRIA 222300Z 35012KT CAVOK M06/M13 Q1031 R14/19//95=
201902222330 METAR LRIA 222330Z 36014KT CAVOK M06/M14 Q1031 R14/19//95=
201902230000 METAR LRIA 230000Z 36013KT CAVOK M06/M14 Q1031 R14/19//95=
201902230030 METAR LRIA 230030Z 36013KT CAVOK M07/M14 Q1031 R14/19//95=
201902230100 METAR LRIA 230100Z 35012KT CAVOK M07/M13 Q1032 R14/19//95=
201902230130 METAR LRIA 230130Z 34010KT CAVOK M07/M13 Q1032 R14/19//95=
201902230200 METAR COR LRIA 230200Z 34009KT CAVOK M08/M13 Q1033 R14/19//95=
201902230230 METAR COR LRIA 230230Z 35011KT 9999 FEW024 SCT046 M07/M12
                        Q1033 R14/19//95=
201902230300 METAR COR LRIA 230300Z 34010KT 9999 FEW026 M07/M12 Q1034
                        R14/19//95=
201902230330 METAR COR LRIA 230330Z 34012KT 9999 -SN FEW029 M07/M11 Q1034
                        R14/19//95=
201902230400 METAR LRIA 230400Z 34009KT 9999 -SN FEW026 SCT035 M07/M11
                        Q1034 R14/19//95=
201902230430 METAR LRIA 230430Z 34009KT 9999 SCT027 M06/M11 Q1034 R14/19//95=
201902230500 METAR LRIA 230500Z 34011KT 9999 FEW030 M06/M11 Q1035 R14/19//95=
201902230530 METAR LRIA 230530Z 34012KT CAVOK M06/M10 Q1035 R14/19//95=
201902230600 METAR LRIA 230600Z 34013KT 9999 -SN SCT027 M05/M10 Q1036
                        R14/19//95=
201902230630 METAR LRIA 230630Z 34013KT 9999 -SN BKN033 M05/M10 Q1036
                        R14/19//95=
201902230700 METAR LRIA 230700Z 34016KT 9999 -SN SCT035 M05/M10 Q1036
                        R14/19//95=
201902230730 METAR LRIA 230730Z 34014KT 9999 -SN SCT027 M05/M10 Q1036
                        R14/29//95=
201902230800 METAR LRIA 230800Z 34014KT 9999 -SN FEW027 M05/M10 Q1036
                        R14/29//95=
201902230830 METAR LRIA 230830Z 34016KT 9999 -SN FEW025 M05/M10 Q1037
                        R14/29//95=
201902230900 METAR LRIA 230900Z 33013KT 9999 -SN FEW017 BKN040 M05/M10
                        Q1037 R14/29//95=
201902230930 METAR LRIA 230930Z 33013KT 9999 -SN SCT017 BKN040 M05/M10
                        Q1037 R14/29//95=
201902231000 METAR LRIA 231000Z 33014KT 9999 -SN BKN020 BKN040 M05/M09
                        Q1038 R14/29//95=
201902231030 METAR LRIA 231030Z 34015KT 9999 -SN SCT020 OVC035 M05/M10
                        Q1037 R14/29//95=
201902231100 METAR LRIA 231100Z 34016KT 8000 -SN BKN020 OVC033 M05/M10
                        Q1037 R14/29//95=
201902231130 METAR LRIA 231130Z 34016KT 8000 -SN DRSN SCT020 OVC035 M05/M10
                        Q1037 R14/29//95=
201902231200 METAR LRIA 231200Z 34015KT 6000 -SN DRSN SCT016 OVC033 M05/M09
                        Q1038 R14/29//95=
201902231230 METAR LRIA 231230Z 34016KT 9999 -SN DRSN SCT020 OVC040 M04/M10
                        Q1037 R14/29//95=
201902231300 METAR LRIA 231300Z 34015KT 9999 -SN SCT022 BKN045 M04/M10
                        Q1038 R14/29//95=
201902231330 METAR LRIA 231330Z 34014KT 9999 -SN FEW022 BKN035 M04/M10
                        Q1038 R14/29//95=
201902231400 METAR LRIA 231400Z 34015KT 9999 BKN033 M04/M11 Q1038 R14/29//95=
201902231430 METAR LRIA 231430Z 35015KT 9999 FEW025 BKN045 M04/M10 Q1038
                        R14/29//95=
201902231500 METAR LRIA 231500Z 35013KT 9999 -SN FEW025 OVC035 M04/M10
                        Q1038 R14/29//95=
201902231530 METAR LRIA 231530Z 34013KT 9999 BKN040 M04/M10 Q1038 R14/29//95=
201902231600 METAR LRIA 231600Z 35012KT 9999 SCT047 M04/M11 Q1039 R14/29//95=
201902231630 METAR LRIA 231630Z 33011KT 9999 -SN BKN047 M04/M10 Q1039
                        R14/29//95=
201902231700 METAR LRIA 231700Z 31008KT 9999 -SN BKN045 M04/M10 Q1039
                        R14/29//95=
201902231730 METAR LRIA 231730Z 31007KT 9999 -SN SCT045 M04/M09 Q1039
                        R14/CLRD//=
201902231800 METAR LRIA 231800Z 32008KT 9999 SCT045 M04/M09 Q1039=
201902231830 METAR LRIA 231830Z 31009KT 9999 -SN SCT045 M04/M09 Q1039=
201902231900 METAR LRIA 231900Z 32010KT 9999 -SN FEW048 M04/M09 Q1039=
201902231930 METAR LRIA 231930Z 32010KT CAVOK M04/M10 Q1039=
201902232000 METAR LRIA 232000Z 32010KT CAVOK M04/M10 Q1039=
201902232030 METAR LRIA 232030Z 32010KT CAVOK M04/M10 Q1039=
201902232100 METAR LRIA 232100Z 32010KT CAVOK M05/M10 Q1039=
201902232130 METAR LRIA 232130Z 32012KT CAVOK M05/M10 Q1039=
201902232200 METAR LRIA 232200Z 31011KT CAVOK M06/M11 Q1039=
201902232230 METAR LRIA 232230Z 31010KT CAVOK M06/M11 Q1039=
201902232300 METAR LRIA 232300Z 31009KT CAVOK M06/M11 Q1039=
201902232330 METAR LRIA 232330Z 31010KT CAVOK M07/M11 Q1039=
201902240000 METAR LRIA 240000Z 31009KT CAVOK M07/M11 Q1038=
201902240030 METAR LRIA 240030Z 31010KT CAVOK M07/M11 Q1038=
201902240100 METAR LRIA 240100Z AUTO 32009KT 9999 NCD M07/M11 Q1038=
201902240130 METAR LRIA 240130Z 33008KT CAVOK M07/M11 Q1038=
201902240200 METAR LRIA 240200Z 31008KT CAVOK M07/M11 Q1038=
201902240230 METAR LRIA 240230Z 32008KT CAVOK M07/M11 Q1037=
201902240300 METAR LRIA 240300Z 31007KT CAVOK M07/M11 Q1037=
201902240330 METAR LRIA 240330Z 22003KT 190V250 CAVOK M08/M11 Q1037=
201902240400 METAR LRIA 240400Z 20004KT 170V230 CAVOK M07/M11 Q1037=
201902240430 METAR LRIA 240430Z 25003KT CAVOK M07/M11 Q1037=
201902240500 METAR LRIA 240500Z 25003KT 220V280 CAVOK M07/M10 Q1037=
201902240530 METAR LRIA 240530Z 26004KT 230V290 CAVOK M06/M10 Q1037=
201902240600 METAR LRIA 240600Z 26004KT 240V300 CAVOK M06/M10 Q1037=
201902240630 METAR LRIA 240630Z 21002KT 180V240 CAVOK M05/M10 Q1038=
201902240700 METAR LRIA 240700Z 00000KT CAVOK M04/M09 Q1038=
201902240730 METAR LRIA 240730Z 31007KT CAVOK M04/M09 Q1038=
201902240800 METAR LRIA 240800Z 32007KT CAVOK M03/M09 Q1038=
201902240830 METAR LRIA 240830Z 31009KT CAVOK M03/M09 Q1037=
201902240900 METAR LRIA 240900Z 31008KT CAVOK M02/M08 Q1037=
201902240930 METAR LRIA 240930Z 32011KT CAVOK M02/M08 Q1038=
201902241000 METAR LRIA 241000Z 33010KT CAVOK M02/M07 Q1038=
201902241030 METAR LRIA 241030Z 33009KT 9999 FEW014 M02/M07 Q1037=
201902241100 METAR LRIA 241100Z 32008KT 290V350 9999 FEW017 SCT049 M02/M07
                        Q1037=
201902241130 METAR LRIA 241130Z 30008KT 270V330 9999 SCT016 M02/M07 Q1037=
201902241200 METAR LRIA 241200Z 32007KT 9999 FEW018 SCT022 M02/M07 Q1037=
201902241230 METAR LRIA 241230Z 30008KT 9999 FEW016 BKN022 M02/M07 Q1036=
201902241300 METAR LRIA 241300Z 30009KT 9999 BKN022 M02/M07 Q1036=
201902241330 METAR LRIA 241330Z 31008KT 9999 BKN022 M02/M07 Q1036=
201902241400 METAR LRIA 241400Z 31005KT 270V350 9999 BKN024 M02/M06 Q1036=
201902241430 METAR LRIA 241430Z 28007KT 9999 SCT027 M01/M07 Q1035=
201902241500 METAR LRIA 241500Z 29006KT 260V320 9999 SCT026 M01/M07 Q1035=
201902241530 METAR LRIA 241530Z 29005KT 260V320 9999 FEW018 M02/M07 Q1035=
201902241600 METAR LRIA 241600Z 29003KT CAVOK M02/M07 Q1035=
201902241630 METAR LRIA 241630Z 29003KT CAVOK M03/M07 Q1035=
201902241700 METAR LRIA 241700Z 00000KT CAVOK M03/M07 Q1035=
201902241730 METAR LRIA 241730Z 00000KT CAVOK M03/M07 Q1035=
201902241800 METAR LRIA 241800Z 20004KT CAVOK M03/M07 Q1035=
201902241830 METAR LRIA 241830Z 21004KT CAVOK M03/M07 Q1035=
201902241900 METAR LRIA 241900Z 22003KT CAVOK M04/M07 Q1035=
201902241930 METAR LRIA 241930Z 21004KT CAVOK M04/M07 Q1035=
201902242000 METAR LRIA 242000Z 22003KT 9999 SCT045 M04/M07 Q1035=
201902242030 METAR LRIA 242030Z 20003KT 9999 FEW047 M04/M08 Q1035=
201902242100 METAR LRIA 242100Z 22003KT CAVOK M04/M08 Q1035=
201902242130 METAR LRIA 242130Z 22003KT CAVOK M04/M08 Q1035=
201902242200 METAR LRIA 242200Z 22003KT CAVOK M04/M08 Q1035=
201902242230 METAR LRIA 242230Z 21004KT CAVOK M04/M08 Q1035=
201902242300 METAR LRIA 242300Z 22004KT CAVOK M05/M08 Q1035=
201902242330 METAR LRIA 242330Z 22004KT CAVOK M05/M09 Q1035=
201902250000 METAR LRIA 250000Z 23003KT 190V340 CAVOK M04/M09 Q1035=
201902250030 METAR LRIA 250030Z 22003KT CAVOK M05/M09 Q1034=
201902250100 METAR LRIA 250100Z 25004KT CAVOK M04/M08 Q1034=
201902250130 METAR LRIA 250130Z 23004KT CAVOK M04/M09 Q1034=
201902250200 METAR LRIA 250200Z 27005KT CAVOK M04/M09 Q1033=
201902250230 METAR LRIA 250230Z 28005KT CAVOK M04/M09 Q1033=
201902250300 METAR LRIA 250300Z 25004KT CAVOK M05/M09 Q1033=
201902250330 METAR LRIA 250330Z 23004KT CAVOK M05/M09 Q1033=
201902250400 METAR LRIA 250400Z 24003KT CAVOK M04/M08 Q1033=
201902250430 METAR LRIA 250430Z VRB01KT 9999 BKN035 M05/M08 Q1032=
201902250500 METAR LRIA 250500Z VRB01KT 9999 BKN033 M04/M08 Q1032=
201902250530 METAR LRIA 250530Z 24004KT 9999 SCT033 M04/M08 Q1032=
201902250600 METAR LRIA 250600Z 23004KT 9999 FEW035 M03/M08 Q1032=
201902250630 METAR LRIA 250630Z 24004KT CAVOK M03/M07 Q1032=
201902250700 METAR LRIA 250700Z 12003KT 080V140 9999 SCT030 M02/M07 Q1031=
201902250730 METAR LRIA 250730Z 20004KT 170V250 9999 FEW030 00/M06 Q1031=
201902250800 METAR LRIA 250800Z 23004KT 170V280 CAVOK 01/M07 Q1030=
201902250830 METAR LRIA 250830Z 23005KT 140V270 CAVOK 03/M07 Q1030=
201902250900 METAR LRIA 250900Z 24007KT 220V280 CAVOK 04/M06 Q1029=
201902250930 METAR LRIA 250930Z 27009KT CAVOK 05/M05 Q1030=
201902251000 METAR LRIA 251000Z 27009KT 210V290 CAVOK 05/M04 Q1029=
201902251030 METAR LRIA 251030Z 27007KT 240V300 CAVOK 06/M04 Q1029=
201902251100 METAR LRIA 251100Z 25008KT 220V280 CAVOK 06/M04 Q1028=
201902251130 METAR LRIA 251130Z 27010KT 230V300 CAVOK 07/M03 Q1028=
201902251200 METAR LRIA 251200Z 26008KT 230V290 CAVOK 07/M03 Q1027=
201902251230 METAR LRIA 251230Z 26010KT 220V290 CAVOK 07/M02 Q1027=
201902251300 METAR LRIA 251300Z 26010KT 220V290 CAVOK 08/M02 Q1026=
201902251330 METAR LRIA 251330Z 27010KT CAVOK 08/M02 Q1025=
201902251400 METAR LRIA 251400Z 26008KT 230V300 CAVOK 09/M02 Q1025=
201902251430 METAR LRIA 251430Z 27008KT CAVOK 09/M02 Q1025=
201902251500 METAR LRIA 251500Z 27006KT 240V300 CAVOK 08/M01 Q1024=
201902251530 METAR LRIA 251530Z 27006KT 240V300 9999 SCT046 08/M01 Q1024=
201902251600 METAR LRIA 251600Z 29006KT 9999 SCT047 07/M02 Q1024=
201902251630 METAR LRIA 251630Z 31009KT 9999 FEW047 07/M03 Q1024=
201902251700 METAR LRIA 251700Z 32007KT CAVOK 06/M03 Q1024=
201902251730 METAR LRIA 251730Z 33005KT CAVOK 05/M03 Q1024=
201902251800 METAR LRIA 251800Z 31006KT CAVOK 05/M03 Q1024=
201902251830 METAR LRIA 251830Z 32006KT CAVOK 05/M03 Q1024=
201902251900 METAR LRIA 251900Z 30004KT 260V350 CAVOK 05/M02 Q1024=
201902251930 METAR LRIA 251930Z 30006KT CAVOK 04/M02 Q1024=
201902252000 METAR LRIA 252000Z 29005KT CAVOK 04/M02 Q1024=
201902252030 METAR LRIA 252030Z 31010KT CAVOK 04/M01 Q1024=
201902252100 METAR LRIA 252100Z 34006KT CAVOK 03/M02 Q1024=
201902252130 METAR LRIA 252130Z 33007KT CAVOK 02/M02 Q1024=
201902252200 METAR LRIA 252200Z 31007KT CAVOK 03/M02 Q1023=
201902252230 METAR LRIA 252230Z 31007KT CAVOK 03/M03 Q1023=
201902252300 METAR LRIA 252300Z 32006KT CAVOK 02/M03 Q1023=
201902252330 METAR LRIA 252330Z 32005KT 290V350 CAVOK 03/M03 Q1023=
201902260000 METAR LRIA 260000Z 31005KT CAVOK 03/M03 Q1023=
201902260030 METAR LRIA 260030Z 28003KT 240V300 CAVOK 03/M03 Q1022=
201902260100 METAR LRIA 260100Z 30003KT 230V020 CAVOK 03/M03 Q1021=
201902260130 METAR LRIA 260130Z 29003KT 250V340 CAVOK 02/M03 Q1021=
201902260200 METAR LRIA 260200Z 31005KT CAVOK 02/M03 Q1021=
201902260230 METAR LRIA 260230Z 29004KT 260V320 CAVOK 02/M03 Q1020=
201902260300 METAR LRIA 260300Z 32004KT 290V350 CAVOK 02/M03 Q1020=
201902260330 METAR LRIA 260330Z 29002KT 250V320 CAVOK 02/M03 Q1019=
201902260400 METAR LRIA 260400Z 28005KT 250V310 CAVOK 02/M03 Q1019=
201902260430 METAR LRIA 260430Z 29005KT 250V310 CAVOK 03/M03 Q1018=
201902260500 METAR LRIA 260500Z 30006KT CAVOK 03/M03 Q1018=
201902260530 METAR LRIA 260530Z 31006KT CAVOK 02/M03 Q1018=
201902260600 METAR LRIA 260600Z 27004KT 220V310 CAVOK 03/M02 Q1018=
201902260630 METAR LRIA 260630Z 28007KT CAVOK 04/M03 Q1017=
201902260700 METAR LRIA 260700Z 28008KT CAVOK 04/M04 Q1017=
201902260730 METAR LRIA 260730Z 28007KT CAVOK 04/M05 Q1016=
201902260800 METAR LRIA 260800Z 30011KT CAVOK 04/M04 Q1016=
201902260830 METAR LRIA 260830Z 30012G23KT CAVOK 05/M03 Q1015=
201902260900 METAR LRIA 260900Z 30011KT CAVOK 05/M02 Q1015=
201902260930 METAR LRIA 260930Z 30015KT CAVOK 06/M02 Q1015=
201902261000 METAR LRIA 261000Z 31019KT CAVOK 06/M02 Q1014=
201902261030 METAR LRIA 261030Z 32019KT CAVOK 06/M01 Q1013 WS R32=
201902261100 METAR LRIA 261100Z 32020KT 9999 FEW025 08/M01 Q1013 WS R32=
201902261130 METAR LRIA 261130Z 32019KT 9999 FEW030 08/M01 Q1013 WS R32=
201902261200 METAR LRIA 261200Z 33020G31KT 9999 SCT040 08/M01 Q1013 WS
                        R32=
201902261230 METAR LRIA 261230Z 32018KT 9999 SCT040 08/M01 Q1012 WS R32=
201902261300 METAR LRIA 261300Z 32019KT 9999 BKN040 08/M02 Q1012 WS R32=
201902261330 METAR LRIA 261330Z 31018KT 9999 -RA BKN040 08/M02 Q1012 WS
                        R32=
201902261400 METAR LRIA 261400Z 33018KT 9999 -RA OVC040 07/M01 Q1012 WS
                        R32=
201902261430 METAR LRIA 261430Z 33019KT 9999 -RA SCT025 OVC033 06/M00
                        Q1012 WS R32=
201902261500 METAR LRIA 261500Z 34017G28KT 9999 -RA SCT022 OVC035 05/M00
                        Q1012 WS R32 R14/29//95=
201902261530 METAR LRIA 261530Z 34019KT 8000 -RA BKN015 OVC030 05/01 Q1013
                        WS R32 R14/29//95=
201902261600 METAR LRIA 261600Z 35019KT 9000 -RA SCT017 OVC045 04/00 Q1013
                        WS R32 R14/29//95=
201902261630 METAR LRIA 261630Z 34018KT 9999 -RA SCT020 BKN045 04/00 Q1013
                        WS R32 R14/29//95=
201902261700 METAR LRIA 261700Z 33011KT 9999 -RA FEW020 OVC045 04/01 Q1014
                        WS R32 R14/29//95=
201902261730 METAR LRIA 261730Z 33011KT 9999 -RA SCT045 04/00 Q1014 WS
                        R32 R14/29//95=
201902261800 METAR LRIA 261800Z 33011KT 9999 -RA BKN017 OVC028 04/00 Q1014
                        WS R32 R14/29//95=
201902261830 METAR LRIA 261830Z 33011KT 9999 SCT018 SCT040 04/00 Q1014
                        WS R32 R14/29//95=
201902261900 METAR LRIA 261900Z 33012KT CAVOK 04/00 Q1014 R14/29//95=
201902261930 METAR LRIA 261930Z 34013KT CAVOK 04/M00 Q1015 R14/29//95=
201902262000 METAR LRIA 262000Z 34012KT CAVOK 03/M00 Q1015 R14/29//95=
201902262030 METAR LRIA 262030Z 34014KT CAVOK 03/M00 Q1015 R14/29//95=
201902262100 METAR LRIA 262100Z 34011KT 9999 SCT032 03/M00 Q1015 R14/29//95=
201902262130 METAR LRIA 262130Z 34012KT 9999 FEW028 03/M00 Q1015 R14/29//95=
201902262200 METAR LRIA 262200Z 34011KT 9999 FEW027 03/M00 Q1016 R14/29//95=
201902262230 METAR LRIA 262230Z 34013KT 9999 FEW025 SCT040 03/M01 Q1016
                        R14/29//95=
201902262300 METAR LRIA 262300Z 34011KT 9999 SCT024 BKN039 03/M01 Q1016
                        R14/29//95=
201902262330 METAR LRIA 262330Z 33008KT 9999 FEW022 BKN045 03/M01 Q1017
                        R14/29//95=
201902270000 METAR LRIA 270000Z 33007KT 9999 FEW025 02/M01 Q1017 R14/29//95=
201902270030 METAR LRIA 270030Z 33008KT 9999 FEW030 BKN044 03/M01 Q1017
                        R14/29//95=
201902270100 METAR LRIA 270100Z 33008KT 9999 BKN023 03/M01 Q1017 R14/29//95=
201902270130 METAR LRIA 270130Z 34012KT 9999 SCT021 SCT027 02/M01 Q1017
                        R14/29//95=
201902270200 METAR LRIA 270200Z 33010KT 9999 SCT027 02/M02 Q1017 R14/29//95=
201902270230 METAR LRIA 270230Z 33012KT 9999 SCT037 02/M02 Q1017 R14/29//95=
201902270300 METAR LRIA 270300Z 33010KT 9999 SCT033 02/M02 Q1017 R14/29//95=
201902270330 METAR LRIA 270330Z 33010KT 9999 BKN038 02/M02 Q1018 R14/29//95=
201902270400 METAR LRIA 270400Z 33011KT 9999 OVC040 02/M02 Q1018 R14/29//95=
201902270430 METAR LRIA 270430Z 33012KT 9999 OVC035 03/M02 Q1018 R14/29//95=
201902270500 METAR LRIA 270500Z 33010KT 9999 OVC033 02/M02 Q1018 R14/29//95=
201902270530 METAR LRIA 270530Z 33009KT 9999 FEW019 SCT024 OVC031 02/M02
                        Q1019 R14/19//95=
201902270600 METAR LRIA 270600Z 34011KT 9999 FEW016 SCT024 OVC031 02/M01
                        Q1019 R14/19//95=
201902270630 METAR LRIA 270630Z 33009KT 9999 SCT019 OVC032 02/M01 Q1019
                        R14/19//95=
201902270700 METAR LRIA 270700Z 32010KT 9999 FEW025 BKN032 02/M01 Q1019
                        R14/19//95=
201902270730 METAR LRIA 270730Z 33009KT 9999 FEW024 BKN043 03/M02 Q1019
                        R14/19//95=
201902270800 METAR LRIA 270800Z 33010KT 9999 OVC042 03/M02 Q1020 R14/19//95=
201902270830 METAR LRIA 270830Z 33012KT 9999 OVC043 03/M02 Q1020 R14/19//95=
201902270900 METAR LRIA 270900Z 33012KT 9999 FEW022 BKN044 03/M02 Q1020
                        R14/19//95=
201902270930 METAR LRIA 270930Z 33012KT 9999 FEW024 BKN047 04/M02 Q1020
                        R14/19//95=
201902271000 METAR LRIA 271000Z 33013KT 9999 FEW024 BKN044 04/M02 Q1019
                        R14/19//95=
201902271030 METAR LRIA 271030Z 33013KT 9999 FEW020 BKN033 03/M02 Q1019
                        R14/19//95=
201902271100 METAR LRIA 271100Z 32012KT 9999 FEW035 BKN045 04/M02 Q1019
                        R14/19//95=
201902271130 METAR LRIA 271130Z 32013KT 9999 FEW019 BKN027 03/M02 Q1019
                        R14/19//95=
201902271200 METAR LRIA 271200Z 33013KT 9999 SCT037 BKN047 04/M02 Q1019
                        R14/19//95=
201902271230 METAR LRIA 271230Z 33012KT 9999 FEW028 BKN038 04/M02 Q1019
                        R14/19//95=
201902271300 METAR LRIA 271300Z 33010KT 9999 FEW026 BKN042 04/M02 Q1019
                        R14/19//95=
201902271330 METAR LRIA 271330Z 33009KT 9999 FEW025 BKN042 04/M02 Q1019
                        R14/19//95=
201902271400 METAR LRIA 271400Z 32011KT 9999 SCT025 OVC041 04/M03 Q1019
                        R14/19//95=
201902271430 METAR LRIA 271430Z 32010KT 9999 FEW027 BKN042 04/M03 Q1019
                        R14/19//95=
201902271500 METAR LRIA 271500Z 31011KT 9999 SCT027 BKN045 04/M02 Q1019
                        R14/19//95=
201902271530 METAR LRIA 271530Z 32010KT 9999 FEW027 BKN043 03/M03 Q1019
                        R14/19//95=
201902271600 METAR LRIA 271600Z 32009KT 9999 FEW027 OVC047 03/M03 Q1019
                        R14/19//95=
201902271630 METAR LRIA 271630Z 32010KT 9999 OVC045 03/M03 Q1019 R14/19//95=
201902271700 METAR LRIA 271700Z 32010KT 9999 OVC042 03/M03 Q1019 R14/19//95=
201902271730 METAR LRIA 271730Z 33010KT 9999 OVC037 03/M03 Q1019 R14/19//95=
201902271800 METAR LRIA 271800Z 35012KT 9999 BKN040 03/M03 Q1018 R14/19//95=
201902271830 METAR LRIA 271830Z 31006KT 9999 BKN045 02/M02 Q1018 R14/19//95=
201902271900 METAR LRIA 271900Z 31005KT 9999 BKN047 02/M02 Q1018 R14/19//95=
201902271930 METAR LRIA 271930Z 32003KT 260V360 9999 BKN035 02/M02 Q1018
                        R14/19//95=
201902272000 METAR LRIA 272000Z 30005KT 9999 BKN030 02/M02 Q1018 R14/19//95=
201902272030 METAR LRIA 272030Z 30004KT 9999 BKN040 02/M02 Q1017 R14/19//95=
201902272100 METAR LRIA 272100Z 27004KT 9999 OVC040 02/M03 Q1017 R14/19//95=
201902272130 METAR LRIA 272130Z 24003KT 9999 OVC045 02/M03 Q1016 R14/19//95=
201902272200 METAR LRIA 272200Z 25004KT 210V290 9999 OVC045 02/M02 Q1016
                        R14/19//95=
201902272230 METAR LRIA 272230Z 23003KT 9999 BKN040 02/M02 Q1015 R14/19//95=
201902272300 METAR LRIA 272300Z 23004KT 9999 BKN030 02/M02 Q1015 R14/19//95=
201902272330 METAR LRIA 272330Z 21003KT 9999 BKN030 02/M02 Q1014 R14/19//95=
201902280000 METAR LRIA 280000Z 23003KT 9999 SCT045 02/M02 Q1014 R14/19//95=
201902280030 METAR LRIA 280030Z 22004KT 9999 FEW047 02/M02 Q1013 R14/19//95=
201902280100 METAR LRIA 280100Z 23005KT CAVOK 02/M02 Q1013 R14/19//95=
201902280130 METAR LRIA 280130Z 23003KT CAVOK 02/M02 Q1012 R14/19//95=
201902280200 METAR LRIA 280200Z 23004KT CAVOK 02/M02 Q1012 R14/19//95=
201902280230 METAR LRIA 280230Z 23004KT CAVOK 02/M02 Q1011 R14/19//95=
201902280300 METAR LRIA 280300Z 21003KT 180V250 CAVOK 02/M02 Q1011 R14/19//95=
201902280330 METAR LRIA 280330Z VRB01KT CAVOK 02/M03 Q1011 R14/19//95=
201902280400 METAR LRIA 280400Z 22004KT CAVOK 02/M03 Q1010 R14/19//95=
201902280430 METAR LRIA 280430Z VRB01KT CAVOK 02/M03 Q1009 R14/19//95=
201902280500 METAR LRIA 280500Z VRB02KT CAVOK 02/M03 Q1009 R14/19//95=
201902280530 METAR LRIA 280530Z 22003KT CAVOK 02/M03 Q1009 R14/19//95=
201902280600 METAR LRIA 280600Z VRB02KT CAVOK 03/M03 Q1009 R14/19//95=
201902280630 METAR LRIA 280630Z 24006KT CAVOK 04/M03 Q1008 R14/19//95=
201902280700 METAR LRIA 280700Z 22004KT CAVOK 05/M03 Q1008 R14/19//95=
201902280730 METAR LRIA 280730Z 24005KT 210V280 CAVOK 08/M04 Q1007 R14/19//95=
201902280800 METAR LRIA 280800Z 25008KT CAVOK 09/M04 Q1007 R14/19//95=
201902280830 METAR LRIA 280830Z 25012KT CAVOK 10/M04 Q1006 R14/19//95=
201902280900 METAR LRIA 280900Z 26012KT CAVOK 11/M04 Q1006 R14/19//95=
201902280930 METAR LRIA 280930Z 26012KT CAVOK 12/M03 Q1005 R14/CLRD//=
201902281000 METAR LRIA 281000Z 27012KT 230V290 CAVOK 13/M03 Q1004=
201902281030 METAR LRIA 281030Z 27011KT 220V300 CAVOK 13/M02 Q1004=
201902281100 METAR LRIA 281100Z 26011KT 230V300 CAVOK 15/M02 Q1003=
201902281130 METAR LRIA 281130Z 25011KT CAVOK 15/M02 Q1002=
201902281200 METAR LRIA 281200Z 25011KT 210V280 CAVOK 15/M02 Q1001=
201902281230 METAR LRIA 281230Z 25010KT 220V280 CAVOK 16/M04 Q1001=
201902281300 METAR LRIA 281300Z 26012KT 220V300 CAVOK 16/M04 Q1000=
201902281330 METAR LRIA 281330Z 25013KT CAVOK 16/M04 Q0999=
201902281400 METAR LRIA 281400Z 24011KT 210V270 CAVOK 16/M04 Q0999=
201902281430 METAR LRIA 281430Z 24010KT CAVOK 15/M04 Q0998=
201902281500 METAR LRIA 281500Z 24008KT CAVOK 14/M04 Q0998=
201902281530 METAR LRIA 281530Z 25011KT CAVOK 14/M04 Q0998=
201902281600 METAR LRIA 281600Z 26012KT 220V280 CAVOK 13/M03 Q0998=
201902281630 METAR LRIA 281630Z 26012KT CAVOK 12/M03 Q0999=
201902281700 METAR LRIA 281700Z 28018KT CAVOK 12/M04 Q0999=
201902281730 METAR LRIA 281730Z 28017KT CAVOK 12/M03 Q0999=
201902281800 METAR LRIA 281800Z 27015KT CAVOK 11/M03 Q0999=
201902281830 METAR LRIA 281830Z 28017KT CAVOK 11/M03 Q0999=
201902281900 METAR LRIA 281900Z 27016KT CAVOK 11/M03 Q0999=
201902281930 METAR LRIA 281930Z 27015KT CAVOK 11/M03 Q0999=
201902282000 METAR LRIA 282000Z 28012KT CAVOK 11/M02 Q0999=
201902282030 METAR LRIA 282030Z 28013KT CAVOK 10/M02 Q0999=
201902282100 METAR LRIA 282100Z 29012KT CAVOK 09/M02 Q0999=
201902282130 METAR LRIA 282130Z 29010KT CAVOK 09/M02 Q0999=
201902282200 METAR LRIA 282200Z 29009KT CAVOK 09/M02 Q0999=
201902282230 METAR LRIA 282230Z 29009KT CAVOK 10/M01 Q0999=
201902282300 METAR LRIA 282300Z 33012KT CAVOK 10/M01 Q1000=
201902282330 METAR LRIA 282330Z 33013KT CAVOK 09/M01 Q1000=