201903010000 METAR LRIA 010000Z 33011KT CAVOK 09/M01 Q1001=
201903010030 METAR LRIA 010030Z 33012KT CAVOK 08/M01 Q1001=
201903010100 METAR LRIA 010100Z 32009KT CAVOK 08/M01 Q1001=
201903010130 METAR LRIA 010130Z 33010KT CAVOK 07/M02 Q1001=
201903010200 METAR LRIA 010200Z 33009KT CAVOK 07/M02 Q1002=
201903010230 METAR LRIA 010230Z 32008KT CAVOK 07/M01 Q1002=
201903010300 METAR LRIA 010300Z 33011KT CAVOK 06/M01 Q1002=
201903010330 METAR LRIA 010330Z 32008KT CAVOK 05/M01 Q1002=
201903010400 METAR LRIA 010400Z 31011KT CAVOK 06/M02 Q1003=
201903010430 METAR LRIA 010430Z 31012KT CAVOK 06/M03 Q1003=
201903010500 METAR LRIA 010500Z 30010KT CAVOK 05/M03 Q1003=
201903010530 METAR LRIA 010530Z 31014KT CAVOK 05/M02 Q1003=
201903010600 METAR LRIA 010600Z 32012KT CAVOK 05/M02 Q1004=
201903010630 METAR LRIA 010630Z 32019KT 9999 FEW025 06/M02 Q1004=
201903010700 METAR LRIA 010700Z 32020KT 9999 FEW025 06/M02 Q1004=
201903010730 METAR LRIA 010730Z 32017KT 9999 FEW027 07/M04 Q1004=
201903010800 METAR LRIA 010800Z 32020G31KT 9999 FEW030 08/M08 Q1005=
201903010830 METAR LRIA 010830Z 32020G30KT 9999 FEW030 08/M08 Q1005=
201903010900 METAR LRIA 010900Z 33017G27KT 9999 FEW035 08/M08 Q1004=
201903010930 METAR LRIA 010930Z 33019G29KT 9999 FEW040 09/M08 Q1005=
201903011000 METAR LRIA 011000Z 30024KT 9999 FEW040 09/M09 Q1005=
201903011030 METAR LRIA 011030Z 31022KT 9999 SCT045 09/M09 Q1004=
201903011100 METAR LRIA 011100Z 31025KT 9999 FEW040 09/M08 Q1004=
201903011130 METAR LRIA 011130Z 31019KT 9999 FEW040 09/M08 Q1004=
201903011200 METAR LRIA 011200Z 31019G29KT 9999 FEW040 10/M08 Q1004=
201903011230 METAR LRIA 011230Z 33019KT 9999 FEW047 10/M09 Q1003=
201903011300 METAR LRIA 011300Z 33019KT CAVOK 10/M08 Q1004=
201903011330 METAR LRIA 011330Z 33017KT CAVOK 10/M08 Q1004=
201903011400 METAR LRIA 011400Z 33016KT CAVOK 09/M07 Q1004=
201903011430 METAR LRIA 011430Z 34010KT CAVOK 09/M07 Q1004=
201903011500 METAR LRIA 011500Z 35014KT CAVOK 08/M07 Q1004=
201903011530 METAR LRIA 011530Z 33011KT CAVOK 07/M07 Q1004=
201903011600 METAR LRIA 011600Z 34009KT CAVOK 06/M07 Q1005=
201903011630 METAR LRIA 011630Z 34009KT CAVOK 06/M06 Q1005=
201903011700 METAR LRIA 011700Z 35009KT CAVOK 05/M06 Q1005=
201903011730 METAR LRIA 011730Z 36005KT CAVOK 04/M07 Q1005=
201903011800 METAR LRIA 011800Z 35005KT CAVOK 05/M07 Q1005=
201903011830 METAR LRIA 011830Z 31002KT CAVOK 05/M07 Q1005=
201903011900 METAR LRIA 011900Z 31003KT 290V350 CAVOK 05/M07 Q1006=
201903011930 METAR LRIA 011930Z 31003KT CAVOK 04/M06 Q1006=
201903012000 METAR LRIA 012000Z 34005KT CAVOK 04/M07 Q1006=
201903012030 METAR LRIA 012030Z 31003KT CAVOK 03/M07 Q1006=
201903012100 METAR LRIA 012100Z 34004KT CAVOK 04/M06 Q1006=
201903012130 METAR LRIA 012130Z 35006KT CAVOK 03/M06 Q1006=
201903012200 METAR LRIA 012200Z 34005KT CAVOK 02/M06 Q1006=
201903012230 METAR LRIA 012230Z 32003KT CAVOK 02/M06 Q1007=
201903012300 METAR LRIA 012300Z 35007KT 9999 FEW023 03/M05 Q1007=
201903012330 METAR LRIA 012330Z 33004KT 9999 BKN040 03/M05 Q1007=
201903020000 METAR LRIA 020000Z 29002KT 9999 -SN OVC040 03/M05 Q1007=
201903020030 METAR LRIA 020030Z 31003KT 9999 OVC044 02/M05 Q1008=
201903020100 METAR LRIA 020100Z 32004KT 290V350 9999 SCT044 03/M04 Q1008=
201903020130 METAR LRIA 020130Z 01007KT 9999 BKN044 02/M04 Q1008=
201903020200 METAR LRIA 020200Z 01007KT 9999 BKN044 02/M04 Q1008=
201903020230 METAR LRIA 020230Z 35006KT 9999 SCT039 OVC049 02/M05 Q1008=
201903020300 METAR COR LRIA 020300Z 01010KT 9999 FEW033 01/M06 Q1009=
201903020330 METAR LRIA 020330Z 35007KT CAVOK 01/M06 Q1009=
201903020400 METAR LRIA 020400Z 35007KT CAVOK 00/M06 Q1009=
201903020430 METAR LRIA 020430Z 34006KT CAVOK 00/M07 Q1010=
201903020500 METAR LRIA 020500Z 34004KT 9999 BKN039 M00/M06 Q1010=
201903020530 METAR LRIA 020530Z 32006KT 9999 BKN040 00/M06 Q1010=
201903020600 METAR LRIA 020600Z 32008KT 9999 SCT032 BKN042 00/M06 Q1011=
201903020630 METAR LRIA 020630Z 33011KT 9999 SCT032 BKN042 01/M07 Q1011=
201903020700 METAR LRIA 020700Z 32012KT 9999 BKN049 01/M09 Q1012=
201903020730 METAR LRIA 020730Z 33016KT CAVOK 01/M10 Q1012=
201903020800 METAR LRIA 020800Z 34020KT CAVOK 02/M12 Q1012=
201903020830 METAR LRIA 020830Z 34018KT CAVOK 02/M11 Q1013=
201903020900 METAR LRIA 020900Z 32014KT 9999 BKN047 02/M11 Q1013=
201903020930 METAR LRIA 020930Z 34018KT 9999 BKN048 01/M12 Q1013=
201903021000 METAR LRIA 021000Z 32016KT 9999 BKN047 02/M11 Q1013=
201903021030 METAR LRIA 021030Z 33013KT 300V360 9999 BKN045 02/M09 Q1013=
201903021100 METAR LRIA 021100Z 33013KT 9999 BKN047 02/M11 Q1013=
201903021130 METAR LRIA 021130Z 35015KT 9999 SCT049 02/M10 Q1013=
201903021200 METAR LRIA 021200Z 34014KT 9999 SCT042 02/M10 Q1013=
201903021230 METAR LRIA 021230Z 35016KT 9999 FEW042 02/M10 Q1013=
201903021300 METAR LRIA 021300Z 36017KT 9999 FEW045 03/M09 Q1013=
201903021330 METAR LRIA 021330Z 35015KT CAVOK 02/M10 Q1014=
201903021400 METAR LRIA 021400Z 35015KT CAVOK 02/M09 Q1014=
201903021430 METAR LRIA 021430Z 35015KT CAVOK 02/M10 Q1014=
201903021500 METAR LRIA 021500Z 35014KT CAVOK 02/M10 Q1014=
201903021530 METAR LRIA 021530Z 35011KT CAVOK 01/M10 Q1015=
201903021600 METAR LRIA 021600Z 34007KT CAVOK M00/M10 Q1015=
201903021630 METAR LRIA 021630Z 36007KT CAVOK M01/M10 Q1015=
201903021700 METAR LRIA 021700Z 01007KT CAVOK M01/M10 Q1016=
201903021730 METAR LRIA 021730Z 26003KT CAVOK M02/M10 Q1016=
201903021800 METAR LRIA 021800Z 30003KT 230V320 CAVOK M01/M11 Q1016=
201903021830 METAR LRIA 021830Z 29003KT CAVOK M02/M11 Q1016=
201903021900 METAR LRIA 021900Z 32004KT CAVOK M01/M11 Q1017=
201903021930 METAR LRIA 021930Z 28004KT CAVOK M04/M11 Q1017=
201903022000 METAR LRIA 022000Z 32004KT CAVOK M02/M11 Q1017=
201903022030 METAR LRIA 022030Z VRB02KT CAVOK M04/M11 Q1017=
201903022100 METAR LRIA 022100Z 27003KT 240V300 CAVOK M04/M10 Q1018=
201903022130 METAR LRIA 022130Z 24004KT CAVOK M04/M10 Q1018=
201903022200 METAR LRIA 022200Z 27003KT CAVOK M03/M10 Q1018=
201903022230 METAR LRIA 022230Z 27003KT CAVOK M04/M10 Q1018=
201903022300 METAR LRIA 022300Z 21002KT CAVOK M06/M10 Q1018=
201903022330 METAR LRIA 022330Z 00000KT CAVOK M06/M10 Q1018=
201903030000 METAR LRIA 030000Z 23003KT CAVOK M04/M09 Q1019=
201903030030 METAR LRIA 030030Z 28002KT CAVOK M05/M10 Q1019=
201903030100 METAR LRIA 030100Z 00000KT CAVOK M05/M09 Q1019=
201903030130 METAR LRIA 030130Z 24002KT CAVOK M05/M09 Q1018=
201903030200 METAR LRIA 030200Z 00000KT CAVOK M05/M10 Q1018=
201903030230 METAR LRIA 030230Z 00000KT CAVOK M05/M10 Q1019=
201903030300 METAR LRIA 030300Z 00000KT CAVOK M07/M11 Q1019=
201903030330 METAR LRIA 030330Z 00000KT CAVOK M06/M10 Q1018=
201903030400 METAR LRIA 030400Z 00000KT CAVOK M07/M10 Q1018=
201903030430 METAR LRIA 030430Z 00000KT 9999 FEW040 M08/M11 Q1019=
201903030500 METAR LRIA 030500Z 18003KT 140V200 9999 FEW040 M06/M09 Q1019=
201903030530 METAR LRIA 030530Z 00000KT 9999 SCT040 M06/M09 Q1019=
201903030600 METAR LRIA 030600Z 00000KT 9999 SCT040 M05/M09 Q1019=
201903030630 METAR LRIA 030630Z 00000KT 9999 SCT040 M04/M09 Q1019=
201903030700 METAR LRIA 030700Z 17003KT 9999 FEW040 M02/M08 Q1019=
201903030730 METAR LRIA 030730Z 21002KT CAVOK M00/M08 Q1019=
201903030800 METAR LRIA 030800Z 19004KT 150V230 CAVOK 01/M09 Q1019=
201903030830 METAR LRIA 030830Z 19005KT 150V230 CAVOK 02/M09 Q1019=
201903030900 METAR LRIA 030900Z 19005KT 130V250 CAVOK 03/M08 Q1019=
201903030930 METAR LRIA 030930Z 20007KT CAVOK 04/M08 Q1019=
201903031000 METAR LRIA 031000Z 21007KT 160V250 CAVOK 05/M08 Q1018=
201903031030 METAR LRIA 031030Z 20007KT 170V240 CAVOK 05/M08 Q1018=
201903031100 METAR LRIA 031100Z 26006KT 210V290 CAVOK 06/M09 Q1017=
201903031130 METAR LRIA 031130Z 24007KT 180V290 CAVOK 06/M10 Q1017=
201903031200 METAR LRIA 031200Z 25007KT 210V320 CAVOK 07/M11 Q1017=
201903031230 METAR LRIA 031230Z 24008KT 200V260 CAVOK 08/M10 Q1016=
201903031300 METAR LRIA 031300Z 25006KT 200V300 CAVOK 07/M10 Q1016=
201903031330 METAR LRIA 031330Z VRB03KT CAVOK 08/M09 Q1016=
201903031400 METAR LRIA 031400Z 27005KT 240V320 CAVOK 08/M09 Q1016=
201903031430 METAR LRIA 031430Z 27005KT 240V320 CAVOK 08/M09 Q1016=
201903031500 METAR LRIA 031500Z 24002KT CAVOK 08/M09 Q1015=
201903031530 METAR LRIA 031530Z 16004KT CAVOK 06/M10 Q1015=
201903031600 METAR LRIA 031600Z 14004KT CAVOK 06/M09 Q1014=
201903031630 METAR LRIA 031630Z 12007KT CAVOK 03/M09 Q1015=
201903031700 METAR LRIA 031700Z 13005KT CAVOK 03/M10 Q1015=
201903031730 METAR LRIA 031730Z 13007KT CAVOK 03/M09 Q1014=
201903031800 METAR LRIA 031800Z 14007KT CAVOK 03/M09 Q1014=
201903031830 METAR LRIA 031830Z 14004KT CAVOK 04/M09 Q1014=
201903031900 METAR LRIA 031900Z 18006KT CAVOK 04/M09 Q1013=
201903031930 METAR LRIA 031930Z 22005KT CAVOK 04/M08 Q1013=
201903032000 METAR LRIA 032000Z 22007KT 200V260 CAVOK 04/M07 Q1013=
201903032030 METAR LRIA 032030Z 22005KT 180V250 CAVOK 04/M07 Q1013=
201903032100 METAR LRIA 032100Z 22003KT 190V250 CAVOK 03/M07 Q1013=
201903032130 METAR LRIA 032130Z 21005KT CAVOK 03/M07 Q1013=
201903032200 METAR LRIA 032200Z VRB01KT CAVOK 02/M07 Q1013=
201903032230 METAR LRIA 032230Z 23002KT 210V270 CAVOK 02/M07 Q1013=
201903032300 METAR LRIA 032300Z 22003KT CAVOK 03/M07 Q1013=
201903032330 METAR LRIA 032330Z 00000KT CAVOK 02/M07 Q1012=
201903040000 METAR LRIA 040000Z 00000KT CAVOK 02/M07 Q1012=
201903040030 METAR LRIA 040030Z 00000KT CAVOK 01/M07 Q1012=
201903040100 METAR LRIA 040100Z VRB01KT CAVOK 02/M07 Q1012=
201903040130 METAR LRIA 040130Z 16002KT CAVOK 02/M07 Q1011=
201903040200 METAR LRIA 040200Z 14002KT CAVOK 02/M07 Q1011=
201903040230 METAR LRIA 040230Z 10005KT CAVOK M01/M07 Q1011=
201903040300 METAR LRIA 040300Z 09006KT CAVOK M01/M06 Q1011=
201903040330 METAR LRIA 040330Z 08006KT CAVOK M02/M06 Q1011=
201903040400 METAR LRIA 040400Z 08006KT CAVOK M01/M06 Q1011=
201903040430 METAR LRIA 040430Z 09006KT CAVOK M01/M06 Q1011=
201903040500 METAR LRIA 040500Z 09008KT CAVOK M02/M06 Q1010=
201903040530 METAR LRIA 040530Z 09007KT CAVOK M01/M05 Q1010=
201903040600 METAR LRIA 040600Z 09006KT CAVOK M01/M04 Q1010=
201903040630 METAR LRIA 040630Z 09006KT CAVOK 01/M04 Q1010=
201903040700 METAR LRIA 040700Z 11006KT CAVOK 03/M03 Q1010=
201903040730 METAR LRIA 040730Z 11005KT CAVOK 05/M02 Q1010=
201903040800 METAR LRIA 040800Z 12006KT CAVOK 07/M02 Q1010=
201903040830 METAR LRIA 040830Z 14007KT CAVOK 08/M02 Q1009=
201903040900 METAR LRIA 040900Z 13005KT 110V170 CAVOK 10/M01 Q1009=
201903040930 METAR LRIA 040930Z 17008KT 140V210 CAVOK 12/M02 Q1009=
201903041000 METAR LRIA 041000Z 20008KT CAVOK 14/M02 Q1009=
201903041030 METAR LRIA 041030Z 21008KT 170V230 CAVOK 14/M01 Q1008=
201903041100 METAR LRIA 041100Z 18006KT 160V220 CAVOK 15/M01 Q1008=
201903041130 METAR LRIA 041130Z 20007KT 170V250 CAVOK 16/M01 Q1007=
201903041200 METAR LRIA 041200Z 21008KT 160V230 CAVOK 16/M01 Q1007=
201903041230 METAR LRIA 041230Z 19007KT 150V230 CAVOK 17/M01 Q1006=
201903041300 METAR LRIA 041300Z 21009KT 160V260 CAVOK 17/M01 Q1006=
201903041330 METAR LRIA 041330Z 21006KT 180V240 CAVOK 17/M00 Q1005=
201903041400 METAR LRIA 041400Z 19010KT CAVOK 17/M01 Q1005=
201903041430 METAR LRIA 041430Z 18008KT CAVOK 16/M00 Q1005=
201903041500 METAR LRIA 041500Z 20009KT 170V240 CAVOK 16/M00 Q1005=
201903041530 METAR LRIA 041530Z 20007KT CAVOK 15/M00 Q1005=
201903041600 METAR LRIA 041600Z 20006KT CAVOK 15/M00 Q1004=
201903041630 METAR LRIA 041630Z 19006KT CAVOK 14/M00 Q1004=
201903041700 METAR LRIA 041700Z 21005KT CAVOK 13/M00 Q1004=
201903041730 METAR LRIA 041730Z 20005KT CAVOK 13/M00 Q1004=
201903041800 METAR LRIA 041800Z 20005KT CAVOK 12/M00 Q1004=
201903041830 METAR LRIA 041830Z 23004KT CAVOK 12/M01 Q1004=
201903041900 METAR LRIA 041900Z 22004KT CAVOK 11/M01 Q1004=
201903041930 METAR LRIA 041930Z 23006KT CAVOK 11/M01 Q1004=
201903042000 METAR LRIA 042000Z 24004KT 200V270 CAVOK 11/M02 Q1004=
201903042030 METAR LRIA 042030Z 22006KT CAVOK 11/M01 Q1003=
201903042100 METAR LRIA 042100Z 22006KT CAVOK 11/M02 Q1003=
201903042130 METAR LRIA 042130Z 21007KT CAVOK 11/M01 Q1003=
201903042200 METAR LRIA 042200Z 21006KT CAVOK 11/M01 Q1003=
201903042230 METAR LRIA 042230Z 18004KT CAVOK 10/M01 Q1003=
201903042300 METAR LRIA 042300Z 18004KT 140V200 CAVOK 10/M02 Q1002=
201903042330 METAR LRIA 042330Z 09006KT CAVOK 06/M02 Q1002=
201903050000 METAR LRIA 050000Z AUTO 09008KT 9999 OVC100/// 06/M01 Q1002=
201903050030 METAR LRIA 050030Z 09009KT CAVOK 06/M01 Q1002=
201903050100 METAR LRIA 050100Z 10010KT CAVOK 05/M01 Q1001=
201903050130 METAR LRIA 050130Z 09008KT CAVOK 04/M02 Q1001=
201903050200 METAR LRIA 050200Z 08008KT CAVOK 04/M01 Q1001=
201903050230 METAR LRIA 050230Z 09008KT CAVOK 04/M01 Q1000=
201903050300 METAR LRIA 050300Z 09007KT CAVOK 04/M01 Q1000=
201903050330 METAR LRIA 050330Z 09007KT CAVOK 04/M01 Q1001=
201903050400 METAR LRIA 050400Z 09005KT CAVOK 04/M01 Q1000=
201903050430 METAR LRIA 050430Z 10005KT CAVOK 04/M01 Q1000=
201903050500 METAR LRIA 050500Z 09007KT CAVOK 04/M01 Q1000=
201903050530 METAR LRIA 050530Z 09007KT CAVOK 04/M01 Q1000=
201903050600 METAR LRIA 050600Z 08005KT CAVOK 04/M01 Q1000=
201903050630 METAR LRIA 050630Z 09005KT CAVOK 06/M00 Q1000=
201903050700 METAR LRIA 050700Z VRB02KT CAVOK 09/M00 Q1000=
201903050730 METAR LRIA 050730Z 22006KT CAVOK 12/M01 Q1001=
201903050800 METAR LRIA 050800Z 24008KT 200V280 CAVOK 15/M01 Q1001=
201903050830 METAR LRIA 050830Z 27012KT CAVOK 14/M01 Q1002=
201903050900 METAR LRIA 050900Z 27014KT CAVOK 13/M00 Q1002=
201903050930 METAR LRIA 050930Z 30022KT 280V340 CAVOK 15/00 Q1003=
201903051000 METAR LRIA 051000Z 34015KT CAVOK 12/02 Q1004=
201903051030 METAR LRIA 051030Z 33015KT CAVOK 12/02 Q1004=
201903051100 METAR LRIA 051100Z 34013KT CAVOK 13/02 Q1004=
201903051130 METAR LRIA 051130Z 34011KT CAVOK 13/01 Q1004=
201903051200 METAR LRIA 051200Z 34009KT CAVOK 13/00 Q1004=
201903051230 METAR LRIA 051230Z 32006KT CAVOK 13/00 Q1005=
201903051300 METAR LRIA 051300Z 29004KT 240V340 CAVOK 14/01 Q1005=
201903051330 METAR LRIA 051330Z 30002KT 250V010 CAVOK 13/00 Q1005=
201903051400 METAR LRIA 051400Z 36012KT CAVOK 13/M00 Q1005=
201903051430 METAR LRIA 051430Z 36010KT CAVOK 13/01 Q1006=
201903051500 METAR LRIA 051500Z 34010KT CAVOK 12/02 Q1006=
201903051530 METAR LRIA 051530Z 33007KT CAVOK 12/02 Q1006=
201903051600 METAR LRIA 051600Z 31006KT CAVOK 11/01 Q1006=
201903051630 METAR LRIA 051630Z 27005KT CAVOK 10/01 Q1007=
201903051700 METAR LRIA 051700Z 27005KT 230V290 CAVOK 10/00 Q1007=
201903051730 METAR LRIA 051730Z 29009KT 270V330 CAVOK 11/M03 Q1008=
201903051800 METAR LRIA 051800Z 28005KT 240V310 CAVOK 10/M05 Q1008=
201903051830 METAR LRIA 051830Z 26003KT 240V310 CAVOK 09/M03 Q1009=
201903051900 METAR LRIA 051900Z 28003KT 250V320 CAVOK 08/M04 Q1009=
201903051930 METAR LRIA 051930Z 30003KT 270V340 CAVOK 08/M05 Q1009=
201903052000 METAR LRIA 052000Z VRB02KT CAVOK 07/M04 Q1009=
201903052030 METAR LRIA 052030Z 26005KT 230V290 CAVOK 07/M05 Q1010=
201903052100 METAR LRIA 052100Z 27006KT 250V310 CAVOK 08/M05 Q1010=
201903052130 METAR LRIA 052130Z 27005KT CAVOK 07/M05 Q1010=
201903052200 METAR LRIA 052200Z 28003KT 250V320 CAVOK 07/M04 Q1010=
201903052230 METAR LRIA 052230Z 31006KT CAVOK 06/M04 Q1011=
201903052300 METAR LRIA 052300Z 32003KT 260V010 CAVOK 05/M04 Q1011=
201903052330 METAR LRIA 052330Z 32004KT CAVOK 06/M04 Q1011=
201903060000 METAR LRIA 060000Z 27003KT CAVOK 05/M04 Q1012=
201903060030 METAR LRIA 060030Z 24004KT CAVOK 05/M04 Q1012=
201903060100 METAR LRIA 060100Z 23003KT CAVOK 05/M04 Q1011=
201903060130 METAR LRIA 060130Z 25003KT CAVOK 04/M04 Q1011=
201903060200 METAR LRIA 060200Z 25002KT CAVOK 05/M04 Q1011=
201903060230 METAR LRIA 060230Z 27003KT 240V300 CAVOK 05/M04 Q1011=
201903060300 METAR LRIA 060300Z VRB01KT CAVOK 04/M04 Q1011=
201903060330 METAR LRIA 060330Z VRB02KT CAVOK 04/M04 Q1011=
201903060400 METAR LRIA 060400Z VRB02KT CAVOK 03/M04 Q1011=
201903060430 METAR LRIA 060430Z VRB01KT CAVOK 03/M05 Q1011=
201903060500 METAR LRIA 060500Z 23003KT 180V260 CAVOK 04/M05 Q1011=
201903060530 METAR LRIA 060530Z VRB01KT CAVOK 02/M04 Q1012=
201903060600 METAR LRIA 060600Z VRB02KT CAVOK 04/M05 Q1012=
201903060630 METAR LRIA 060630Z 28003KT 250V310 CAVOK 04/M04 Q1013=
201903060700 METAR LRIA 060700Z 33005KT 290V020 9999 -RA SCT030 04/M03
                        Q1014=
201903060730 METAR LRIA 060730Z 35005KT 9999 FEW040CB SCT048 06/M01 Q1014=
201903060800 METAR LRIA 060800Z 35011KT 9999 -RA BKN036 FEW040CB 06/M00
                        Q1014=
201903060830 METAR LRIA 060830Z 34011KT 9999 -RA SCT025 BKN030 FEW040CB
                        06/02 Q1015=
201903060900 METAR LRIA 060900Z 33011KT 9999 -RA FEW030 BKN037 05/02 Q1015=
201903060930 METAR COR LRIA 060930Z 34016KT 9999 -RA SCT024 FEW033CB BKN044
                        04/01 Q1016 R14/29//95=
201903061000 METAR LRIA 061000Z 34012KT 9999 -RA FEW007 SCT011 BKN025
                        04/02 Q1016 R14/29//95=
201903061030 METAR LRIA 061030Z 34009KT 9999 -RA SCT007 SCT045 05/03 Q1016
                        R14/29//95=
201903061100 METAR LRIA 061100Z 34008KT 9999 FEW011 SCT017 06/02 Q1017
                        R14/29//95=
201903061130 METAR LRIA 061130Z 33009KT 9999 FEW013 SCT017 BKN025 06/02
                        Q1017 R14/29//95=
201903061200 METAR LRIA 061200Z 34009KT 9999 FEW020 SCT034 07/02 Q1017
                        R14/29//95=
201903061230 METAR LRIA 061230Z 36010KT 9999 FEW020 SCT038 08/02 Q1017
                        R14/29//95=
201903061300 METAR LRIA 061300Z 36009KT 9999 FEW023 SCT033 08/02 Q1017
                        R14/29//95=
201903061330 METAR LRIA 061330Z 36009KT 9999 FEW026 FEW033CB 08/02 Q1017
                        R14/29//95=
201903061400 METAR LRIA 061400Z 36012KT 9999 FEW028 08/00 Q1017 R14/29//95=
201903061430 METAR LRIA 061430Z 36016KT 9999 FEW033 09/M01 Q1017 R14/29//95=
201903061500 METAR LRIA 061500Z 36012KT 9999 FEW045 08/M00 Q1018 R14/29//95=
201903061530 METAR LRIA 061530Z 36010KT CAVOK 08/M00 Q1018 R14/29//95=
201903061600 METAR LRIA 061600Z 01007KT CAVOK 06/M01 Q1019 R14/29//95=
201903061630 METAR LRIA 061630Z 36008KT CAVOK 06/M01 Q1019 R14/19//95=
201903061700 METAR LRIA 061700Z 01007KT CAVOK 04/M02 Q1020 R14/19//95=
201903061730 METAR LRIA 061730Z 27003KT 240V350 CAVOK 04/M01 Q1020 R14/19//95=
201903061800 METAR LRIA 061800Z 26003KT CAVOK 06/M01 Q1020 R14/19//95=
201903061830 METAR LRIA 061830Z 28003KT CAVOK 05/M01 Q1021 R14/19//95=
201903061900 METAR LRIA 061900Z 29002KT CAVOK 04/M01 Q1021 R14/19//95=
201903061930 METAR LRIA 061930Z 32002KT CAVOK 04/M02 Q1021 R14/19//95=
201903062000 METAR LRIA 062000Z 27003KT CAVOK 03/M01 Q1021 R14/19//95=
201903062030 METAR LRIA 062030Z 27002KT CAVOK 03/M02 Q1022 R14/19//95=
201903062100 METAR LRIA 062100Z 27002KT 230V330 CAVOK 03/M02 Q1021 R14/19//95=
201903062130 METAR LRIA 062130Z 26002KT 220V300 CAVOK 03/M01 Q1021 R14/19//95=
201903062200 METAR LRIA 062200Z 26001KT CAVOK 02/M01 Q1022 R14/19//95=
201903062230 METAR LRIA 062230Z 25003KT CAVOK 03/M02 Q1022 R14/19//95=
201903062300 METAR LRIA 062300Z 26002KT CAVOK 03/M02 Q1022 R14/19//95=
201903062330 METAR LRIA 062330Z 24003KT CAVOK 03/M02 Q1022 R14/19//95=
201903070000 METAR LRIA 070000Z 24003KT CAVOK 02/M02 Q1022 R14/19//95=
201903070030 METAR LRIA 070030Z VRB01KT CAVOK 01/M02 Q1022 R14/19//95=
201903070100 METAR LRIA 070100Z 12003KT CAVOK 01/M03 Q1022 R14/19//95=
201903070130 METAR LRIA 070130Z 10006KT CAVOK M01/M03 Q1022 R14/19//95=
201903070200 METAR LRIA 070200Z 09007KT CAVOK M01/M03 Q1022 R14/19//95=
201903070230 METAR LRIA 070230Z 10007KT CAVOK M01/M03 Q1022 R14/19//95=
201903070300 METAR LRIA 070300Z 10007KT CAVOK M01/M03 Q1022 R14/19//95=
201903070330 METAR LRIA 070330Z 10007KT CAVOK M01/M03 Q1022 R14/19//95=
201903070400 METAR LRIA 070400Z 11007KT CAVOK M01/M04 Q1022 R14/19//95=
201903070430 METAR LRIA 070430Z 11009KT CAVOK M01/M04 Q1021 R14/19//95=
201903070500 METAR LRIA 070500Z 11008KT CAVOK M01/M03 Q1021 R14/19//95=
201903070530 METAR LRIA 070530Z 12009KT CAVOK M00/M03 Q1021 R14/19//95=
201903070600 METAR LRIA 070600Z 10009KT CAVOK 01/M02 Q1021 R14/19//95=
201903070630 METAR LRIA 070630Z 13010KT CAVOK 02/M02 Q1021 R14/19//95=
201903070700 METAR LRIA 070700Z 12010KT CAVOK 04/M00 Q1021 R14/19//95=
201903070730 METAR LRIA 070730Z 13012KT CAVOK 04/M00 Q1021 WS R32 R14/19//95=
201903070800 METAR LRIA 070800Z 17013KT 150V250 CAVOK 08/M02 Q1021 WS
                        R32 R14/19//95=
201903070830 METAR LRIA 070830Z 18014KT 150V210 CAVOK 09/M02 Q1020 WS
                        R32 R14/19//95=
201903070900 METAR LRIA 070900Z 18015KT CAVOK 11/M02 Q1020 WS R32 R14/19//95=
201903070930 METAR LRIA 070930Z 16014KT 130V190 CAVOK 11/M02 Q1020 WS
                        R32 R14/CLRD//=
201903071000 METAR LRIA 071000Z 16016KT CAVOK 12/M03 Q1020 WS R14=
201903071030 METAR LRIA 071030Z 17016KT CAVOK 12/M02 Q1019 WS R14=
201903071100 METAR LRIA 071100Z 18015KT 150V210 CAVOK 13/M03 Q1018 WS
                        R14=
201903071130 METAR LRIA 071130Z 18015KT CAVOK 13/M03 Q1018 WS R14=
201903071200 METAR LRIA 071200Z 18015KT 160V230 CAVOK 14/M02 Q1017 WS
                        R14=
201903071230 METAR LRIA 071230Z 18014G24KT 150V210 CAVOK 14/M03 Q1017
                        WS R14=
201903071300 METAR LRIA 071300Z 18015KT CAVOK 14/M03 Q1017 WS R14=
201903071330 METAR LRIA 071330Z 18015KT CAVOK 13/M03 Q1016 WS R14=
201903071400 METAR LRIA 071400Z 17016KT CAVOK 14/M03 Q1016 WS R14=
201903071430 METAR LRIA 071430Z 17016KT 140V200 CAVOK 13/M04 Q1016 WS
                        R14=
201903071500 METAR LRIA 071500Z 17014KT CAVOK 13/M03 Q1015 WS R14=
201903071530 METAR LRIA 071530Z 18011KT CAVOK 13/M03 Q1015=
201903071600 METAR LRIA 071600Z 16009KT CAVOK 13/M04 Q1015=
201903071630 METAR LRIA 071630Z 14008KT 110V170 CAVOK 12/M04 Q1015=
201903071700 METAR LRIA 071700Z 14012KT CAVOK 12/M04 Q1015=
201903071730 METAR LRIA 071730Z 15011KT 130V210 CAVOK 12/M03 Q1015=
201903071800 METAR LRIA 071800Z 16011KT 140V200 CAVOK 12/M03 Q1015=
201903071830 METAR LRIA 071830Z 15011KT CAVOK 11/M03 Q1015=
201903071900 METAR LRIA 071900Z 16011KT CAVOK 11/M03 Q1015=
201903071930 METAR LRIA 071930Z 16012KT CAVOK 11/M02 Q1015=
201903072000 METAR LRIA 072000Z 17009KT 140V200 CAVOK 11/M02 Q1014=
201903072030 METAR LRIA 072030Z 15007KT 090V190 CAVOK 10/M02 Q1014=
201903072100 METAR LRIA 072100Z 12007KT CAVOK 09/M01 Q1014=
201903072130 METAR LRIA 072130Z 09005KT 070V150 CAVOK 08/M01 Q1014=
201903072200 METAR LRIA 072200Z 10009KT CAVOK 08/M01 Q1014=
201903072230 METAR LRIA 072230Z 11008KT CAVOK 07/M01 Q1014=
201903072300 METAR LRIA 072300Z 11009KT CAVOK 07/M00 Q1014=
201903072330 METAR LRIA 072330Z AUTO 11010KT 9999 FEW220/// 06/M00 Q1014=
201903080000 METAR LRIA 080000Z 11010KT CAVOK 06/M00 Q1014=
201903080030 METAR LRIA 080030Z 11010KT CAVOK 06/M00 Q1014=
201903080100 METAR LRIA 080100Z 11009KT CAVOK 05/M00 Q1014=
201903080130 METAR LRIA 080130Z 10010KT CAVOK 05/M00 Q1014=
201903080200 METAR LRIA 080200Z 10010KT CAVOK 05/M00 Q1014=
201903080230 METAR LRIA 080230Z 11011KT CAVOK 05/M00 Q1014=
201903080300 METAR LRIA 080300Z 10012KT CAVOK 05/M00 Q1014=
201903080330 METAR LRIA 080330Z 10011KT CAVOK 05/00 Q1014=
201903080400 METAR LRIA 080400Z 10010KT CAVOK 05/00 Q1014=
201903080430 METAR LRIA 080430Z 11011KT CAVOK 05/00 Q1014=
201903080500 METAR LRIA 080500Z 10010KT CAVOK 05/00 Q1014=
201903080530 METAR LRIA 080530Z 10008KT CAVOK 05/00 Q1015=
201903080600 METAR LRIA 080600Z 10007KT CAVOK 06/01 Q1015=
201903080630 METAR LRIA 080630Z 11009KT CAVOK 07/01 Q1015=
201903080700 METAR LRIA 080700Z 10008KT CAVOK 07/01 Q1015=
201903080730 METAR LRIA 080730Z 10007KT CAVOK 08/01 Q1015=
201903080800 METAR LRIA 080800Z 10007KT CAVOK 10/01 Q1015=
201903080830 METAR LRIA 080830Z 11007KT CAVOK 11/02 Q1014=
201903080900 METAR LRIA 080900Z 10004KT CAVOK 12/02 Q1014=
201903080930 METAR LRIA 080930Z 12005KT CAVOK 14/02 Q1014=
201903081000 METAR LRIA 081000Z 19006KT CAVOK 17/01 Q1014=
201903081030 METAR LRIA 081030Z 19005KT 130V240 CAVOK 18/00 Q1014=
201903081100 METAR LRIA 081100Z 21007KT 170V230 CAVOK 19/00 Q1014=
201903081130 METAR LRIA 081130Z 24005KT 190V270 CAVOK 19/01 Q1014=
201903081200 METAR LRIA 081200Z 20003KT 140V250 CAVOK 20/00 Q1013=
201903081230 METAR LRIA 081230Z 19005KT 150V240 CAVOK 21/00 Q1013=
201903081300 METAR LRIA 081300Z AUTO 17006KT 160V220 9999 NCD 21/M00 Q1013=
201903081330 METAR LRIA 081330Z 18005KT CAVOK 21/M00 Q1013=
201903081400 METAR LRIA 081400Z 15005KT CAVOK 21/01 Q1012=
201903081430 METAR LRIA 081430Z 17007KT 140V200 CAVOK 21/00 Q1012=
201903081500 METAR LRIA 081500Z 19007KT CAVOK 20/01 Q1013=
201903081530 METAR LRIA 081530Z 18007KT CAVOK 19/01 Q1012=
201903081600 METAR LRIA 081600Z 19006KT CAVOK 19/00 Q1012=
201903081630 METAR LRIA 081630Z 20008KT CAVOK 19/00 Q1013=
201903081700 METAR LRIA 081700Z 22007KT CAVOK 18/00 Q1013=
201903081730 METAR LRIA 081730Z 22007KT CAVOK 17/01 Q1013=
201903081800 METAR LRIA 081800Z 27007KT 230V290 CAVOK 17/01 Q1014=
201903081830 METAR LRIA 081830Z 32009KT CAVOK 15/02 Q1014=
201903081900 METAR LRIA 081900Z 33009KT CAVOK 14/02 Q1014=
201903081930 METAR LRIA 081930Z 31007KT 260V340 CAVOK 13/03 Q1015=
201903082000 METAR LRIA 082000Z 24004KT CAVOK 13/02 Q1015=
201903082030 METAR LRIA 082030Z 25002KT CAVOK 13/02 Q1015=
201903082100 METAR LRIA 082100Z 00000KT CAVOK 12/02 Q1016=
201903082130 METAR LRIA 082130Z 00000KT CAVOK 12/02 Q1016=
201903082200 METAR LRIA 082200Z 22002KT CAVOK 12/02 Q1016=
201903082230 METAR LRIA 082230Z 27003KT 240V320 CAVOK 12/03 Q1016=
201903082300 METAR LRIA 082300Z VRB01KT CAVOK 12/02 Q1016=
201903082330 METAR LRIA 082330Z 28002KT CAVOK 12/03 Q1016=
201903090000 METAR LRIA 090000Z 23003KT 190V250 CAVOK 12/03 Q1016=
201903090030 METAR LRIA 090030Z 33006KT 270V360 CAVOK 12/03 Q1016=
201903090100 METAR LRIA 090100Z 32004KT CAVOK 11/03 Q1017=
201903090130 METAR LRIA 090130Z 03002KT CAVOK 10/03 Q1017=
201903090200 METAR LRIA 090200Z 23002KT CAVOK 10/02 Q1018=
201903090230 METAR LRIA 090230Z 22002KT CAVOK 10/03 Q1018=
201903090300 METAR LRIA 090300Z 29002KT CAVOK 11/02 Q1018=
201903090330 METAR LRIA 090330Z 25002KT CAVOK 10/02 Q1018=
201903090400 METAR LRIA 090400Z 28005KT CAVOK 10/02 Q1018=
201903090430 METAR LRIA 090430Z 32004KT 300V360 CAVOK 10/02 Q1018=
201903090500 METAR LRIA 090500Z VRB02KT CAVOK 09/02 Q1018=
201903090530 METAR LRIA 090530Z 19003KT CAVOK 10/03 Q1018=
201903090600 METAR LRIA 090600Z VRB01KT CAVOK 10/03 Q1018=
201903090630 METAR LRIA 090630Z 26003KT CAVOK 11/03 Q1019=
201903090700 METAR LRIA 090700Z 26003KT 220V280 CAVOK 12/03 Q1019=
201903090730 METAR LRIA 090730Z 24003KT CAVOK 13/03 Q1019=
201903090800 METAR LRIA 090800Z 21003KT 160V230 CAVOK 14/02 Q1019=
201903090830 METAR LRIA 090830Z 22003KT 170V260 CAVOK 14/02 Q1018=
201903090900 METAR LRIA 090900Z 22003KT 140V280 CAVOK 15/01 Q1018=
201903090930 METAR LRIA 090930Z 22003KT 160V290 CAVOK 15/01 Q1018=
201903091000 METAR LRIA 091000Z 22004KT 170V320 CAVOK 16/00 Q1018=
201903091030 METAR LRIA 091030Z 22005KT 170V270 CAVOK 16/00 Q1017=
201903091100 METAR LRIA 091100Z VRB03KT CAVOK 17/M01 Q1017=
201903091130 METAR LRIA 091130Z 20007KT CAVOK 17/M01 Q1016=
201903091200 METAR LRIA 091200Z 20007KT 170V250 CAVOK 18/M00 Q1015=
201903091230 METAR LRIA 091230Z 21007KT 180V240 CAVOK 18/M01 Q1015=
201903091300 METAR LRIA 091300Z 19009KT 170V230 CAVOK 18/M00 Q1014=
201903091330 METAR LRIA 091330Z 18007KT 120V230 CAVOK 17/M00 Q1014=
201903091400 METAR LRIA 091400Z 18006KT 150V210 CAVOK 17/M00 Q1013=
201903091430 METAR LRIA 091430Z 19005KT 160V220 CAVOK 17/M00 Q1013=
201903091500 METAR LRIA 091500Z VRB02KT CAVOK 17/M00 Q1012=
201903091530 METAR LRIA 091530Z 25006KT 9999 FEW047CB 17/M01 Q1012=
201903091600 METAR LRIA 091600Z 27009KT 9999 FEW047CB 17/M01 Q1012=
201903091630 METAR LRIA 091630Z 26009KT 9999 FEW050CB 16/M02 Q1013=
201903091700 METAR LRIA 091700Z 28010KT 9999 FEW050CB 15/M00 Q1013=
201903091730 METAR LRIA 091730Z 28012KT 9999 FEW050CB 14/01 Q1013=
201903091800 METAR LRIA 091800Z 27008KT CAVOK 13/01 Q1013=
201903091830 METAR LRIA 091830Z 26007KT 230V290 CAVOK 12/01 Q1013=
201903091900 METAR LRIA 091900Z 26004KT CAVOK 12/01 Q1013=
201903091930 METAR LRIA 091930Z 25005KT 220V280 CAVOK 11/01 Q1013=
201903092000 METAR LRIA 092000Z 24004KT 210V270 CAVOK 11/02 Q1013=
201903092030 METAR LRIA 092030Z 24004KT CAVOK 10/01 Q1013=
201903092100 METAR LRIA 092100Z 25005KT CAVOK 10/01 Q1012=
201903092130 METAR COR LRIA 092130Z 26005KT CAVOK 10/01 Q1012=
201903092200 METAR LRIA 092200Z 22004KT CAVOK 10/01 Q1012=
201903092230 METAR LRIA 092230Z 22003KT CAVOK 09/01 Q1012=
201903092300 METAR LRIA 092300Z 20004KT CAVOK 09/01 Q1011=
201903092330 METAR LRIA 092330Z 22005KT 190V250 CAVOK 09/00 Q1012=
201903100000 METAR LRIA 100000Z 21005KT CAVOK 10/00 Q1011=
201903100030 METAR LRIA 100030Z 17002KT CAVOK 09/M00 Q1011=
201903100100 METAR LRIA 100100Z 20003KT 170V240 CAVOK 09/M00 Q1010=
201903100130 METAR LRIA 100130Z 21005KT CAVOK 10/M00 Q1010=
201903100200 METAR LRIA 100200Z 22006KT CAVOK 10/M00 Q1009=
201903100230 METAR LRIA 100230Z 21005KT CAVOK 10/M00 Q1009=
201903100300 METAR LRIA 100300Z AUTO 21006KT 180V240 9999 FEW220/// 10/M00
                        Q1009=
201903100330 METAR COR LRIA 100330Z 21007KT CAVOK 10/00 Q1008=
201903100400 METAR LRIA 100400Z 20007KT CAVOK 10/00 Q1008=
201903100430 METAR COR LRIA 100430Z 21008KT CAVOK 10/00 Q1008=
201903100500 METAR COR LRIA 100500Z 21006KT CAVOK 10/01 Q1007=
201903100530 METAR LRIA 100530Z 23009KT 210V290 9999 -RA SCT045 11/01
                        Q1008=
201903100600 METAR LRIA 100600Z 25008KT 230V290 9999 -RA FEW020 BKN045
                        10/03 Q1008 R14/19//95=
201903100630 METAR LRIA 100630Z 23006KT 9999 FEW045 10/03 Q1008 R14/29//95=
201903100700 METAR LRIA 100700Z 23009KT 200V260 9999 FEW047 12/04 Q1008
                        R14/29//95=
201903100730 METAR LRIA 100730Z 25011KT 230V290 9999 -RA FEW030CB SCT045
                        11/03 Q1008 R14/29//95=
201903100800 METAR LRIA 100800Z 32019KT 9999 -SHRA SCT027CB SCT040 06/02
                        Q1010 R14/29//95=
201903100830 METAR LRIA 100830Z 31017KT 9999 FEW040CB 07/03 Q1010 R14/29//95=
201903100900 METAR LRIA 100900Z 30011KT 9999 FEW045 09/04 Q1010 R14/29//95=
201903100930 METAR LRIA 100930Z 29016KT 260V320 9999 FEW045 11/01 Q1010
                        R14/29//95=
201903101000 METAR LRIA 101000Z 31019G29KT 9999 FEW047 13/M01 Q1009 R14/29//95=
201903101030 METAR LRIA 101030Z 28020G38KT 9999 FEW020 FEW047CB 13/M06
                        Q1009 R14/19//95=
201903101100 METAR LRIA 101100Z 30019KT 9999 FEW048 13/M06 Q1010 R14/19//95=
201903101130 METAR LRIA 101130Z 29018G28KT CAVOK 14/M07 Q1009 R14/19//95=
201903101200 METAR LRIA 101200Z 28021G33KT CAVOK 14/M08 Q1009 R14/19//95=
201903101230 METAR LRIA 101230Z 28016G26KT 250V310 CAVOK 15/M07 Q1009
                        R14/CLRD//=
201903101300 METAR LRIA 101300Z 30019KT CAVOK 15/M08 Q1009=
201903101330 METAR LRIA 101330Z 29019KT CAVOK 15/M09 Q1009=
201903101400 METAR LRIA 101400Z 30014KT 270V330 CAVOK 14/M08 Q1009=
201903101430 METAR LRIA 101430Z 29015KT CAVOK 14/M08 Q1009=
201903101500 METAR LRIA 101500Z 29010KT CAVOK 15/M07 Q1009=
201903101530 METAR LRIA 101530Z 28008KT CAVOK 14/M07 Q1009=
201903101600 METAR LRIA 101600Z 29006KT CAVOK 12/M07 Q1008=
201903101630 METAR LRIA 101630Z 28006KT CAVOK 12/M07 Q1008=
201903101700 METAR LRIA 101700Z 29006KT CAVOK 11/M07 Q1008=
201903101730 METAR LRIA 101730Z 27002KT CAVOK 11/M07 Q1008=
201903101800 METAR LRIA 101800Z 16004KT CAVOK 09/M06 Q1008=
201903101830 METAR LRIA 101830Z 15002KT CAVOK 09/M06 Q1007=
201903101900 METAR LRIA 101900Z 16004KT CAVOK 10/M06 Q1007=
201903101930 METAR LRIA 101930Z 22002KT CAVOK 09/M06 Q1006=
201903102000 METAR LRIA 102000Z 12004KT 080V150 CAVOK 09/M05 Q1006=
201903102030 METAR LRIA 102030Z 17005KT CAVOK 09/M04 Q1005=
201903102100 METAR LRIA 102100Z 13004KT 100V160 CAVOK 08/M04 Q1005=
201903102130 METAR LRIA 102130Z 16002KT 130V190 CAVOK 10/M03 Q1005=
201903102200 METAR LRIA 102200Z 18002KT CAVOK 10/M03 Q1004=
201903102230 METAR LRIA 102230Z 20005KT 160V230 CAVOK 10/M03 Q1003=
201903102300 METAR LRIA 102300Z 21007KT CAVOK 11/M02 Q1003=
201903102330 METAR LRIA 102330Z 20006KT CAVOK 12/M03 Q1003=
201903110000 METAR LRIA 110000Z 22007KT CAVOK 12/M03 Q1002=
201903110030 METAR LRIA 110030Z 21008KT 180V240 CAVOK 11/M03 Q1002=
201903110100 METAR LRIA 110100Z 23006KT CAVOK 11/M02 Q1002=
201903110130 METAR LRIA 110130Z 22007KT CAVOK 11/M01 Q1001=
201903110200 METAR LRIA 110200Z 23006KT CAVOK 11/M01 Q1001=
201903110230 METAR LRIA 110230Z 23007KT CAVOK 11/00 Q1001=
201903110300 METAR LRIA 110300Z 25005KT CAVOK 11/01 Q1001=
201903110330 METAR LRIA 110330Z 25006KT CAVOK 12/01 Q1002=
201903110400 METAR LRIA 110400Z 25006KT CAVOK 11/01 Q1002=
201903110430 METAR LRIA 110430Z 25005KT CAVOK 11/01 Q1002=
201903110500 METAR LRIA 110500Z 23004KT 200V270 CAVOK 10/01 Q1002=
201903110530 METAR LRIA 110530Z 23003KT CAVOK 11/01 Q1002=
201903110600 METAR LRIA 110600Z 21003KT 180V250 CAVOK 12/01 Q1002=
201903110630 METAR LRIA 110630Z 24006KT 210V270 9999 FEW045 13/00 Q1002=
201903110700 METAR LRIA 110700Z 26007KT 230V300 9999 FEW045 14/M00 Q1002=
201903110730 METAR LRIA 110730Z 26011KT 220V300 9999 FEW049 16/M01 Q1003=
201903110800 METAR LRIA 110800Z 28023G33KT CAVOK 16/M03 Q1003=
201903110830 METAR LRIA 110830Z 30020G32KT CAVOK 15/M05 Q1003=
201903110900 METAR LRIA 110900Z 28023G34KT 250V310 CAVOK 16/M05 Q1004=
201903110930 METAR LRIA 110930Z 31025KT CAVOK 13/M03 Q1005=
201903111000 METAR LRIA 111000Z 33024KT CAVOK 14/M04 Q1005=
201903111030 METAR LRIA 111030Z 32021KT CAVOK 13/M03 Q1006 WS R32=
201903111100 METAR LRIA 111100Z 34023G37KT CAVOK 13/M04 Q1006 WS R32=
201903111130 METAR LRIA 111130Z 33022G33KT CAVOK 12/M05 Q1006=
201903111200 METAR LRIA 111200Z 34022G36KT CAVOK 12/M05 Q1007=
201903111230 METAR LRIA 111230Z 34021G31KT CAVOK 12/M05 Q1007=
201903111300 METAR LRIA 111300Z 33019G30KT CAVOK 12/M05 Q1007=
201903111330 METAR LRIA 111330Z 33017KT CAVOK 11/M06 Q1008=
201903111400 METAR LRIA 111400Z 33014KT CAVOK 11/M06 Q1008=
201903111430 METAR LRIA 111430Z 34014KT CAVOK 10/M05 Q1008=
201903111500 METAR LRIA 111500Z 33011KT CAVOK 10/M06 Q1009=
201903111530 METAR LRIA 111530Z 33011KT CAVOK 10/M07 Q1009=
201903111600 METAR LRIA 111600Z 36010KT CAVOK 09/M07 Q1009=
201903111630 METAR LRIA 111630Z 36011KT CAVOK 09/M07 Q1010=
201903111700 METAR LRIA 111700Z 36008KT CAVOK 09/M07 Q1010=
201903111730 METAR LRIA 111730Z 36007KT CAVOK 08/M07 Q1010=
201903111800 METAR LRIA 111800Z 04004KT CAVOK 07/M06 Q1011=
201903111830 METAR LRIA 111830Z VRB01KT CAVOK 07/M06 Q1011=
201903111900 METAR LRIA 111900Z 03007KT CAVOK 05/M07 Q1011=
201903111930 METAR LRIA 111930Z 03006KT CAVOK 05/M06 Q1011=
201903112000 METAR LRIA 112000Z 05004KT CAVOK 06/M06 Q1012=
201903112030 METAR LRIA 112030Z 04005KT CAVOK 05/M05 Q1012=
201903112100 METAR LRIA 112100Z 01005KT CAVOK 05/M05 Q1012=
201903112130 METAR LRIA 112130Z 33003KT 300V360 CAVOK 05/M05 Q1012=
201903112200 METAR LRIA 112200Z AUTO 34003KT 9999 FEW150/// 05/M06 Q1012=
201903112230 METAR LRIA 112230Z VRB01KT CAVOK 05/M06 Q1013=
201903112300 METAR LRIA 112300Z 00000KT CAVOK 05/M06 Q1013=
201903112330 METAR LRIA 112330Z 00000KT CAVOK 04/M06 Q1012=
201903120000 METAR LRIA 120000Z 19003KT CAVOK 05/M05 Q1012=
201903120030 METAR LRIA 120030Z 22001KT CAVOK 04/M05 Q1012=
201903120100 METAR LRIA 120100Z 28003KT CAVOK 04/M05 Q1012=
201903120130 METAR LRIA 120130Z 28002KT CAVOK 04/M05 Q1013=
201903120200 METAR LRIA 120200Z 28003KT CAVOK 04/M05 Q1013=
201903120230 METAR LRIA 120230Z 27002KT CAVOK 03/M04 Q1013=
201903120300 METAR LRIA 120300Z 22003KT CAVOK 03/M04 Q1013=
201903120330 METAR LRIA 120330Z 28001KT CAVOK 03/M05 Q1013=
201903120400 METAR LRIA 120400Z 00000KT CAVOK 04/M05 Q1013=
201903120430 METAR LRIA 120430Z 00000KT CAVOK 03/M04 Q1013=
201903120500 METAR LRIA 120500Z 28003KT CAVOK 03/M04 Q1014=
201903120530 METAR LRIA 120530Z 00000KT CAVOK 03/M04 Q1014=
201903120600 METAR LRIA 120600Z 30003KT CAVOK 04/M04 Q1014=
201903120630 METAR LRIA 120630Z 26002KT CAVOK 05/M04 Q1014=
201903120700 METAR LRIA 120700Z 21003KT 160V250 CAVOK 05/M03 Q1014=
201903120730 METAR LRIA 120730Z 25003KT 170V320 CAVOK 06/M02 Q1014=
201903120800 METAR LRIA 120800Z 26002KT 180V320 CAVOK 07/M03 Q1014=
201903120830 METAR LRIA 120830Z VRB05KT CAVOK 07/M02 Q1015=
201903120900 METAR LRIA 120900Z 28009KT 9999 SCT027 07/M01 Q1015=
201903120930 METAR LRIA 120930Z 28011KT 9999 SCT025 SCT044 07/M01 Q1015=
201903121000 METAR LRIA 121000Z 31011KT 9999 FEW029 SCT037 07/M02 Q1015=
201903121030 METAR LRIA 121030Z 32010KT 9999 SCT031 08/M02 Q1015=
201903121100 METAR LRIA 121100Z 30012KT 9999 FEW034 SCT043 07/M03 Q1015=
201903121130 METAR LRIA 121130Z 31010KT 280V340 9999 SCT034 SCT043 07/M03
                        Q1015=
201903121200 METAR LRIA 121200Z 31014KT 9999 FEW035 SCT044 07/M02 Q1016=
201903121230 METAR LRIA 121230Z 32013KT 9999 FEW029 BKN043 07/M02 Q1016=
201903121300 METAR COR LRIA 121300Z 32013KT 9999 FEW029 BKN043 07/M02
                        Q1016=
201903121330 METAR LRIA 121330Z 35012KT 9999 SCT034 07/M03 Q1016=
201903121400 METAR COR LRIA 121400Z 34012KT 9999 SCT040 08/M04 Q1016=
201903121430 METAR LRIA 121430Z 35013KT CAVOK 08/M04 Q1016=
201903121500 METAR LRIA 121500Z 34009KT CAVOK 06/M04 Q1016=
201903121530 METAR LRIA 121530Z 33008KT CAVOK 07/M06 Q1016=
201903121600 METAR LRIA 121600Z 32008KT CAVOK 06/M06 Q1017=
201903121630 METAR LRIA 121630Z 34009KT CAVOK 04/M05 Q1017=
201903121700 METAR LRIA 121700Z 34006KT CAVOK 03/M05 Q1017=
201903121730 METAR LRIA 121730Z 34007KT CAVOK 02/M05 Q1018=
201903121800 METAR LRIA 121800Z 34009KT 9999 FEW045 03/M04 Q1018=
201903121830 METAR LRIA 121830Z 33006KT 9999 FEW046 03/M03 Q1019=
201903121900 METAR LRIA 121900Z 34009KT CAVOK 03/M03 Q1019=
201903121930 METAR LRIA 121930Z 33007KT CAVOK 03/M03 Q1019=
201903122000 METAR LRIA 122000Z 33007KT CAVOK 03/M03 Q1019=
201903122030 METAR LRIA 122030Z 33006KT CAVOK 03/M03 Q1020=
201903122100 METAR LRIA 122100Z 33004KT CAVOK 02/M03 Q1020=
201903122130 METAR LRIA 122130Z 33007KT CAVOK 01/M03 Q1020=
201903122200 METAR LRIA 122200Z 33006KT CAVOK 01/M04 Q1020=
201903122230 METAR LRIA 122230Z 33007KT CAVOK 01/M04 Q1020=
201903122300 METAR LRIA 122300Z 33006KT CAVOK 00/M05 Q1020=
201903122330 METAR LRIA 122330Z 32005KT CAVOK 00/M05 Q1020=
201903130000 METAR LRIA 130000Z 31006KT CAVOK 00/M04 Q1020=
201903130030 METAR LRIA 130030Z 30004KT CAVOK 00/M04 Q1020=
201903130100 METAR LRIA 130100Z 30004KT CAVOK M00/M04 Q1020=
201903130130 METAR LRIA 130130Z 29003KT CAVOK M01/M04 Q1019=
201903130200 METAR LRIA 130200Z 00000KT CAVOK M01/M04 Q1019=
201903130230 METAR LRIA 130230Z VRB03KT CAVOK M01/M05 Q1020=
201903130300 METAR LRIA 130300Z VRB01KT CAVOK M01/M05 Q1019=
201903130330 METAR LRIA 130330Z 23003KT CAVOK M01/M05 Q1019=
201903130400 METAR LRIA 130400Z 23003KT CAVOK M01/M05 Q1019=
201903130430 METAR LRIA 130430Z 24003KT CAVOK M01/M05 Q1019=
201903130500 METAR LRIA 130500Z 21001KT CAVOK M00/M05 Q1019=
201903130530 METAR LRIA 130530Z 22002KT CAVOK M00/M05 Q1019=
201903130600 METAR LRIA 130600Z 19003KT 150V210 CAVOK 01/M05 Q1019=
201903130630 METAR LRIA 130630Z 16003KT 120V210 CAVOK 03/M04 Q1019=
201903130700 METAR LRIA 130700Z 20005KT 170V230 CAVOK 03/M04 Q1019=
201903130730 METAR LRIA 130730Z 19005KT 160V220 CAVOK 04/M06 Q1019=
201903130800 METAR LRIA 130800Z 22005KT 160V270 CAVOK 05/M07 Q1019=
201903130830 METAR LRIA 130830Z VRB02KT CAVOK 06/M09 Q1019=
201903130900 METAR LRIA 130900Z VRB03KT CAVOK 07/M09 Q1018=
201903130930 METAR LRIA 130930Z 19005KT 130V230 CAVOK 07/M08 Q1018=
201903131000 METAR LRIA 131000Z 19008KT 140V260 CAVOK 08/M08 Q1018=
201903131030 METAR LRIA 131030Z 22006KT 150V270 CAVOK 08/M08 Q1018=
201903131100 METAR LRIA 131100Z VRB05KT CAVOK 08/M09 Q1017=
201903131130 METAR LRIA 131130Z 16007KT CAVOK 08/M10 Q1017=
201903131200 METAR LRIA 131200Z 17006KT 120V200 CAVOK 09/M10 Q1017=
201903131230 METAR LRIA 131230Z 24007KT 210V280 CAVOK 09/M10 Q1016=
201903131300 METAR LRIA 131300Z VRB05KT CAVOK 10/M11 Q1016=
201903131330 METAR LRIA 131330Z VRB04KT CAVOK 10/M12 Q1016=
201903131400 METAR LRIA 131400Z 17005KT 110V250 CAVOK 10/M12 Q1015=
201903131430 METAR LRIA 131430Z 15006KT CAVOK 10/M11 Q1015=
201903131500 METAR LRIA 131500Z 17006KT 130V190 CAVOK 10/M11 Q1015=
201903131530 METAR LRIA 131530Z 16007KT CAVOK 09/M10 Q1015=
201903131600 METAR LRIA 131600Z 14008KT CAVOK 07/M08 Q1015=
201903131630 METAR LRIA 131630Z 14008KT CAVOK 06/M08 Q1015=
201903131700 METAR LRIA 131700Z 13008KT CAVOK 06/M08 Q1015=
201903131730 METAR LRIA 131730Z 13008KT CAVOK 06/M08 Q1015=
201903131800 METAR LRIA 131800Z 13008KT CAVOK 06/M08 Q1015=
201903131830 METAR LRIA 131830Z 13005KT 100V160 CAVOK 06/M08 Q1015=
201903131900 METAR LRIA 131900Z 12007KT CAVOK 05/M08 Q1015=
201903131930 METAR LRIA 131930Z 14006KT CAVOK 06/M07 Q1015=
201903132000 METAR LRIA 132000Z 16006KT 130V190 CAVOK 06/M05 Q1015=
201903132030 METAR LRIA 132030Z 17007KT CAVOK 06/M05 Q1015=
201903132100 METAR LRIA 132100Z 15007KT CAVOK 06/M04 Q1015=
201903132130 METAR COR LRIA 132130Z 16009KT CAVOK 06/M05 Q1014=
201903132200 METAR LRIA 132200Z 15008KT CAVOK 06/M05 Q1014=
201903132230 METAR COR LRIA 132230Z 12008KT CAVOK 04/M05 Q1014=
201903132300 METAR COR LRIA 132300Z 11010KT CAVOK 04/M05 Q1014=
201903132330 METAR COR LRIA 132330Z 11012KT CAVOK 03/M05 Q1014=
201903140000 METAR LRIA 140000Z 11011KT CAVOK 03/M05 Q1014=
201903140030 METAR COR LRIA 140030Z 11009KT CAVOK 02/M04 Q1014=
201903140100 METAR COR LRIA 140100Z 13009KT CAVOK 02/M04 Q1014=
201903140130 METAR COR LRIA 140130Z 12006KT CAVOK 02/M04 Q1013=
201903140200 METAR LRIA 140200Z 14005KT CAVOK 02/M04 Q1013=
201903140230 METAR LRIA 140230Z 16008KT CAVOK 03/M04 Q1013=
201903140300 METAR COR LRIA 140300Z 12005KT 100V160 CAVOK 02/M04 Q1013=
201903140330 METAR COR LRIA 140330Z 12005KT 100V160 CAVOK 02/M04 Q1013=
201903140400 METAR LRIA 140400Z 14006KT 110V170 CAVOK 02/M03 Q1013=
201903140430 METAR LRIA 140430Z 13007KT CAVOK 02/M03 Q1013=
201903140500 METAR LRIA 140500Z 11006KT 090V150 CAVOK 03/M02 Q1013=
201903140530 METAR LRIA 140530Z 11010KT CAVOK 03/M02 Q1013=
201903140600 METAR LRIA 140600Z 11010KT CAVOK 03/M02 Q1013=
201903140630 METAR LRIA 140630Z 12010KT CAVOK 03/M02 Q1013=
201903140700 METAR LRIA 140700Z 14008KT 9999 FEW015 05/M02 Q1013=
201903140730 METAR LRIA 140730Z 14011KT 9999 FEW017 06/M02 Q1013=
201903140800 METAR LRIA 140800Z 19010KT 150V220 9999 SCT030 06/M02 Q1013=
201903140830 METAR LRIA 140830Z 16011KT 9999 SCT033 07/M02 Q1012=
201903140900 METAR LRIA 140900Z 16011KT 9999 BKN035 07/M02 Q1012=
201903140930 METAR LRIA 140930Z 18009KT 9999 BKN040 08/M03 Q1011=
201903141000 METAR LRIA 141000Z 17011KT 9999 BKN047 09/M04 Q1011=
201903141030 METAR LRIA 141030Z 21010KT CAVOK 10/M04 Q1011=
201903141100 METAR LRIA 141100Z 20010KT 160V240 CAVOK 10/M05 Q1010=
201903141130 METAR LRIA 141130Z 22013KT 190V250 CAVOK 11/M05 Q1010=
201903141200 METAR LRIA 141200Z 20008KT CAVOK 11/M05 Q1010=
201903141230 METAR LRIA 141230Z 20009KT CAVOK 11/M07 Q1009=
201903141300 METAR LRIA 141300Z 19006KT 130V270 CAVOK 11/M06 Q1009=
201903141330 METAR LRIA 141330Z 19010KT 160V240 CAVOK 11/M06 Q1009=
201903141400 METAR LRIA 141400Z 16010KT CAVOK 11/M06 Q1009=
201903141430 METAR LRIA 141430Z 16009KT 130V200 CAVOK 11/M05 Q1009=
201903141500 METAR LRIA 141500Z 16010KT CAVOK 10/M05 Q1009=
201903141530 METAR LRIA 141530Z 15012KT CAVOK 09/M04 Q1008=
201903141600 METAR LRIA 141600Z 15011KT CAVOK 09/M04 Q1009=
201903141630 METAR LRIA 141630Z 15010KT CAVOK 08/M04 Q1009=
201903141700 METAR LRIA 141700Z 11008KT CAVOK 07/M03 Q1009=
201903141730 METAR LRIA 141730Z 11009KT CAVOK 07/M03 Q1009=
201903141800 METAR LRIA 141800Z 13007KT CAVOK 07/M03 Q1009=
201903141830 METAR LRIA 141830Z 13007KT CAVOK 07/M03 Q1009=
201903141900 METAR LRIA 141900Z 14006KT CAVOK 07/M03 Q1009=
201903141930 METAR LRIA 141930Z 15007KT CAVOK 06/M03 Q1008=
201903142000 METAR LRIA 142000Z 17008KT CAVOK 06/M03 Q1008=
201903142030 METAR LRIA 142030Z 16007KT CAVOK 06/M03 Q1008=
201903142100 METAR LRIA 142100Z 14007KT CAVOK 05/M03 Q1008=
201903142130 METAR LRIA 142130Z 11005KT 070V160 CAVOK 05/M04 Q1008=
201903142200 METAR LRIA 142200Z 11008KT 100V160 CAVOK 05/M04 Q1008=
201903142230 METAR LRIA 142230Z 11008KT CAVOK 04/M03 Q1007=
201903142300 METAR LRIA 142300Z 11009KT CAVOK 04/M03 Q1007=
201903142330 METAR LRIA 142330Z 11009KT CAVOK 04/M03 Q1007=
201903150000 METAR LRIA 150000Z 11009KT CAVOK 04/M03 Q1007=
201903150030 METAR LRIA 150030Z 11006KT CAVOK 03/M03 Q1007=
201903150100 METAR LRIA 150100Z 11005KT CAVOK 03/M02 Q1007=
201903150130 METAR LRIA 150130Z 10005KT CAVOK 03/M02 Q1007=
201903150200 METAR LRIA 150200Z 11006KT CAVOK 02/M02 Q1007=
201903150230 METAR LRIA 150230Z 11009KT CAVOK 02/M02 Q1007=
201903150300 METAR LRIA 150300Z 11007KT CAVOK 02/M02 Q1007=
201903150330 METAR LRIA 150330Z 11008KT CAVOK 02/M03 Q1007=
201903150400 METAR LRIA 150400Z 10007KT CAVOK 01/M03 Q1007=
201903150430 METAR LRIA 150430Z 10005KT CAVOK 01/M04 Q1007=
201903150500 METAR LRIA 150500Z 10006KT CAVOK 00/M04 Q1007=
201903150530 METAR LRIA 150530Z 11004KT CAVOK 01/M03 Q1007=
201903150600 METAR LRIA 150600Z 11004KT CAVOK 03/M02 Q1007=
201903150630 METAR LRIA 150630Z 11005KT CAVOK 04/M02 Q1007=
201903150700 METAR LRIA 150700Z 12003KT 100V160 CAVOK 06/M02 Q1007=
201903150730 METAR LRIA 150730Z 20003KT 150V280 CAVOK 07/M02 Q1007=
201903150800 METAR LRIA 150800Z 17005KT 140V210 CAVOK 08/M02 Q1007=
201903150830 METAR LRIA 150830Z 17004KT 100V230 CAVOK 09/M02 Q1007=
201903150900 METAR LRIA 150900Z VRB03KT CAVOK 11/M03 Q1007=
201903150930 METAR LRIA 150930Z 24006KT CAVOK 11/M04 Q1006=
201903151000 METAR LRIA 151000Z 19008KT 9999 FEW040 12/M04 Q1006=
201903151030 METAR LRIA 151030Z 20006KT 150V230 9999 SCT045 13/M04 Q1006=
201903151100 METAR LRIA 151100Z 20006KT 130V250 9999 SCT049 13/M05 Q1006=
201903151130 METAR LRIA 151130Z 22009KT CAVOK 13/M05 Q1006=
201903151200 METAR LRIA 151200Z 16007KT 110V260 CAVOK 13/M05 Q1005=
201903151230 METAR LRIA 151230Z 17007KT 130V210 CAVOK 12/M06 Q1005=
201903151300 METAR LRIA 151300Z 12006KT 090V150 CAVOK 13/M06 Q1005=
201903151330 METAR LRIA 151330Z VRB02KT CAVOK 13/M07 Q1005=
201903151400 METAR LRIA 151400Z 14010KT CAVOK 12/M04 Q1005=
201903151430 METAR LRIA 151430Z 13010KT CAVOK 12/M04 Q1005=
201903151500 METAR LRIA 151500Z 12009KT CAVOK 11/M03 Q1005=
201903151530 METAR LRIA 151530Z 12009KT CAVOK 11/M03 Q1005=
201903151600 METAR LRIA 151600Z 11008KT CAVOK 10/M03 Q1005=
201903151630 METAR LRIA 151630Z 11008KT CAVOK 09/M03 Q1005=
201903151700 METAR LRIA 151700Z 10005KT CAVOK 08/M03 Q1006=
201903151730 METAR LRIA 151730Z 08003KT 040V100 CAVOK 08/M03 Q1006=
201903151800 METAR LRIA 151800Z 10003KT 060V200 CAVOK 08/M04 Q1006=
201903151830 METAR LRIA 151830Z 21003KT 190V260 CAVOK 10/M06 Q1006=
201903151900 METAR LRIA 151900Z 16003KT CAVOK 10/M06 Q1006=
201903151930 METAR LRIA 151930Z VRB02KT CAVOK 09/M06 Q1006=
201903152000 METAR LRIA 152000Z 24002KT CAVOK 09/M06 Q1007=
201903152030 METAR LRIA 152030Z VRB01KT CAVOK 09/M06 Q1007=
201903152100 METAR LRIA 152100Z 00000KT CAVOK 08/M05 Q1006=
201903152130 METAR LRIA 152130Z 13003KT CAVOK 07/M04 Q1006=
201903152200 METAR LRIA 152200Z 19002KT CAVOK 08/M05 Q1006=
201903152230 METAR LRIA 152230Z 18003KT CAVOK 07/M04 Q1006=
201903152300 METAR LRIA 152300Z 21003KT CAVOK 07/M04 Q1006=
201903152330 METAR LRIA 152330Z 20003KT CAVOK 06/M04 Q1006=
201903160000 METAR LRIA 160000Z 18003KT CAVOK 06/M04 Q1006=
201903160030 METAR LRIA 160030Z 00000KT CAVOK 05/M04 Q1006=
201903160100 METAR LRIA 160100Z 00000KT CAVOK 05/M04 Q1006=
201903160130 METAR LRIA 160130Z 20003KT CAVOK 05/M03 Q1005=
201903160200 METAR LRIA 160200Z VRB01KT CAVOK 05/M03 Q1005=
201903160230 METAR LRIA 160230Z 16004KT CAVOK 05/M03 Q1004=
201903160300 METAR LRIA 160300Z 12003KT CAVOK 04/M04 Q1004=
201903160330 METAR LRIA 160330Z 13004KT 100V160 CAVOK 03/M03 Q1004=
201903160400 METAR LRIA 160400Z 20006KT CAVOK 05/M03 Q1004=
201903160430 METAR LRIA 160430Z 18004KT CAVOK 04/M03 Q1003=
201903160500 METAR LRIA 160500Z 19004KT CAVOK 05/M03 Q1003=
201903160530 METAR LRIA 160530Z 19005KT 160V230 CAVOK 06/M03 Q1003=
201903160600 METAR LRIA 160600Z 20005KT 180V240 CAVOK 07/M02 Q1002=
201903160630 METAR LRIA 160630Z 20009KT CAVOK 08/M02 Q1002=
201903160700 METAR LRIA 160700Z 21009KT 170V230 CAVOK 08/M02 Q1003=
201903160730 METAR LRIA 160730Z 21010KT 180V240 9999 -RA FEW044 07/M01
                        Q1002=
201903160800 METAR COR LRIA 160800Z 21007KT 9999 SHRA FEW040CB BKN045
                        06/02 Q1002 R14/29//95=
201903160830 METAR LRIA 160830Z 19007KT 9999 FEW040CB SCT045 07/02 Q1001
                        RERA R14/29//95=
201903160900 METAR LRIA 160900Z 20008KT 9999 FEW045CB SCT048 08/02 Q1001
                        R14/29//95=
201903160930 METAR LRIA 160930Z 20011KT 9999 FEW044CB SCT048 09/01 Q1000
                        R14/29//95=
201903161000 METAR LRIA 161000Z 22006KT 180V240 9999 BKN048 09/01 Q1000
                        R14/29//95=
201903161030 METAR LRIA 161030Z 28009KT 9999 -RA BKN043 09/02 Q1001 R14/29//95=
201903161100 METAR LRIA 161100Z 31011KT 9999 -RASN BKN029 07/02 Q1002
                        R14/29//95=
201903161130 METAR COR LRIA 161130Z 30011KT 270V330 9999 -SHRA FEW030CB
                        07/02 Q1002 R14/29//95=
201903161200 METAR LRIA 161200Z 31016G29KT 9999 SHRA SCT020 FEW026CB 06/02
                        Q1003 R14/29//95=
201903161230 METAR LRIA 161230Z 30013KT 9999 SCT021 FEW030CB 07/03 Q1003
                        RERA R14/29//95=
201903161300 METAR LRIA 161300Z 32011KT CAVOK 09/01 Q1002 R14/29//95=
201903161330 METAR LRIA 161330Z 30012KT CAVOK 10/01 Q1003 R14/29//95=
201903161400 METAR LRIA 161400Z 30011KT 9999 FEW050CB 09/01 Q1003 R14/29//95=
201903161430 METAR LRIA 161430Z 29012KT 9999 FEW050CB 08/00 Q1004 R14/29//95=
201903161500 METAR LRIA 161500Z 30012KT 9999 VCSH FEW044CB 08/01 Q1004
                        R14/29//95=
201903161530 METAR LRIA 161530Z 30010KT 9999 FEW050CB 08/00 Q1005 R14/29//95=
201903161600 METAR COR LRIA 161600Z 30008KT 9999 FEW050CB 08/00 Q1006
                        R14/29//95=
201903161630 METAR LRIA 161630Z 30009KT 9999 FEW056CB 07/M00 Q1006 R14/19//95=
201903161700 METAR LRIA 161700Z 30009KT CAVOK 07/M00 Q1006 R14/19//95=
201903161730 METAR LRIA 161730Z 29009KT CAVOK 07/M01 Q1007 R14/19//95=
201903161800 METAR LRIA 161800Z 28009KT CAVOK 07/M01 Q1007 R14/19//95=
201903161830 METAR LRIA 161830Z 29008KT CAVOK 07/M01 Q1008 R14/19//95=
201903161900 METAR LRIA 161900Z 28008KT CAVOK 07/M01 Q1008 R14/19//95=
201903161930 METAR LRIA 161930Z 29005KT CAVOK 06/M01 Q1008 R14/19//95=
201903162000 METAR LRIA 162000Z 26005KT 230V290 CAVOK 06/M01 Q1009 R14/19//95=
201903162030 METAR LRIA 162030Z 27006KT 240V310 CAVOK 06/M01 Q1009 R14/19//95=
201903162100 METAR LRIA 162100Z 26005KT 220V290 CAVOK 05/M01 Q1009 R14/19//95=
201903162130 METAR LRIA 162130Z 26006KT 230V300 CAVOK 05/M01 Q1010 R14/19//95=
201903162200 METAR LRIA 162200Z 28006KT CAVOK 06/M02 Q1010 R14/19//95=
201903162230 METAR LRIA 162230Z 29006KT 260V320 CAVOK 06/M02 Q1010 R14/19//95=
201903162300 METAR LRIA 162300Z 28005KT CAVOK 06/M02 Q1011 R14/19//95=
201903162330 METAR LRIA 162330Z 28006KT CAVOK 06/M02 Q1011 R14/19//95=
201903170000 METAR LRIA 170000Z 28005KT 250V310 CAVOK 05/M02 Q1011 R14/19//95=
201903170030 METAR LRIA 170030Z VRB02KT CAVOK 05/M02 Q1011 R14/19//95=
201903170100 METAR LRIA 170100Z 29004KT 250V320 CAVOK 05/M03 Q1011 R14/19//95=
201903170130 METAR LRIA 170130Z 28004KT CAVOK 05/M03 Q1011 R14/19//95=
201903170200 METAR LRIA 170200Z 25004KT CAVOK 04/M03 Q1011 R14/19//95=
201903170230 METAR LRIA 170230Z 25005KT 220V300 CAVOK 04/M02 Q1011 R14/19//95=
201903170300 METAR LRIA 170300Z 26005KT 230V310 CAVOK 04/M03 Q1012 R14/19//95=
201903170330 METAR LRIA 170330Z 27005KT CAVOK 04/M03 Q1012 R14/19//95=
201903170400 METAR LRIA 170400Z 26004KT CAVOK 04/M03 Q1012 R14/19//95=
201903170430 METAR LRIA 170430Z 28004KT CAVOK 04/M03 Q1012 R14/19//95=
201903170500 METAR LRIA 170500Z 26004KT CAVOK 04/M03 Q1013 R14/19//95=
201903170530 METAR LRIA 170530Z VRB02KT CAVOK 04/M03 Q1013 R14/19//95=
201903170600 METAR LRIA 170600Z 18004KT 130V220 CAVOK 05/M02 Q1013 R14/19//95=
201903170630 METAR LRIA 170630Z 13002KT CAVOK 06/M01 Q1013 R14/19//95=
201903170700 METAR LRIA 170700Z 12005KT CAVOK 06/M01 Q1014 R14/19//95=
201903170730 METAR LRIA 170730Z 11004KT CAVOK 07/00 Q1014 R14/19//95=
201903170800 METAR LRIA 170800Z 11002KT CAVOK 08/00 Q1014 R14/19//95=
201903170830 METAR LRIA 170830Z 17003KT 130V200 CAVOK 09/00 Q1014 R14/19//95=
201903170900 METAR LRIA 170900Z 19005KT 160V230 CAVOK 10/M00 Q1014 R14/CLRD//=
201903170930 METAR LRIA 170930Z 20004KT 160V240 CAVOK 11/M00 Q1014 R14/CLRD//=
201903171000 METAR LRIA 171000Z 19008KT 160V220 CAVOK 12/M02 Q1014=
201903171030 METAR LRIA 171030Z 21008KT 180V240 CAVOK 12/M01 Q1014=
201903171100 METAR LRIA 171100Z 21006KT 140V260 CAVOK 14/00 Q1013=
201903171130 METAR LRIA 171130Z 20005KT 170V270 CAVOK 14/00 Q1013=
201903171200 METAR LRIA 171200Z 26005KT 200V330 CAVOK 15/01 Q1012=
201903171230 METAR LRIA 171230Z 24005KT 170V320 CAVOK 16/01 Q1012=
201903171300 METAR LRIA 171300Z 21006KT 170V240 CAVOK 16/01 Q1012=
201903171330 METAR LRIA 171330Z 26005KT 150V320 CAVOK 16/01 Q1012=
201903171400 METAR LRIA 171400Z 17007KT CAVOK 16/01 Q1011=
201903171430 METAR LRIA 171430Z 15005KT 130V200 CAVOK 17/01 Q1011=
201903171500 METAR LRIA 171500Z 12007KT CAVOK 16/02 Q1011=
201903171530 METAR LRIA 171530Z 11010KT CAVOK 15/02 Q1011=
201903171600 METAR LRIA 171600Z 10008KT CAVOK 14/02 Q1011=
201903171630 METAR LRIA 171630Z 10008KT CAVOK 13/02 Q1011=
201903171700 METAR LRIA 171700Z 12008KT CAVOK 11/02 Q1011=
201903171730 METAR LRIA 171730Z 10007KT CAVOK 12/02 Q1011=
201903171800 METAR LRIA 171800Z 10007KT CAVOK 11/02 Q1012=
201903171830 METAR LRIA 171830Z 09008KT CAVOK 10/02 Q1012=
201903171900 METAR COR LRIA 171900Z 09007KT CAVOK 09/02 Q1012=
201903171930 METAR LRIA 171930Z 09008KT CAVOK 09/02 Q1012=
201903172000 METAR LRIA 172000Z 09007KT CAVOK 09/02 Q1012=
201903172030 METAR LRIA 172030Z 09008KT CAVOK 08/02 Q1012=
201903172100 METAR LRIA 172100Z 10007KT CAVOK 08/02 Q1012=
201903172130 METAR LRIA 172130Z 09008KT CAVOK 08/01 Q1012=
201903172200 METAR LRIA 172200Z 09009KT CAVOK 07/01 Q1012=
201903172230 METAR LRIA 172230Z 10009KT CAVOK 07/01 Q1012=
201903172300 METAR LRIA 172300Z 10008KT CAVOK 07/01 Q1012=
201903172330 METAR LRIA 172330Z AUTO 10009KT 9999 NCD 06/01 Q1012=
201903180000 METAR LRIA 180000Z 09008KT CAVOK 06/01 Q1012=
201903180030 METAR LRIA 180030Z 09008KT CAVOK 06/01 Q1012=
201903180100 METAR LRIA 180100Z 09009KT CAVOK 06/01 Q1012=
201903180130 METAR LRIA 180130Z 10010KT CAVOK 06/01 Q1011=
201903180200 METAR COR LRIA 180200Z 10010KT CAVOK 06/01 Q1011=
201903180230 METAR LRIA 180230Z 09010KT CAVOK 06/01 Q1011=
201903180300 METAR COR LRIA 180300Z 10011KT CAVOK 05/01 Q1012=
201903180330 METAR LRIA 180330Z 10011KT CAVOK 05/01 Q1012=
201903180400 METAR LRIA 180400Z 10011KT CAVOK 05/01 Q1012=
201903180430 METAR LRIA 180430Z 10011KT CAVOK 05/01 Q1012=
201903180500 METAR LRIA 180500Z 10011KT CAVOK 05/01 Q1012=
201903180530 METAR LRIA 180530Z 10014KT CAVOK 06/02 Q1012=
201903180600 METAR LRIA 180600Z 11013KT CAVOK 07/02 Q1012=
201903180630 METAR LRIA 180630Z 11014KT CAVOK 08/03 Q1012=
201903180700 METAR LRIA 180700Z 12012KT CAVOK 10/04 Q1012=
201903180730 METAR LRIA 180730Z 11010KT CAVOK 12/04 Q1012=
201903180800 METAR LRIA 180800Z 11010KT CAVOK 14/04 Q1012=
201903180830 METAR LRIA 180830Z 12012KT CAVOK 15/04 Q1012=
201903180900 METAR LRIA 180900Z 12014KT CAVOK 17/05 Q1012=
201903180930 METAR LRIA 180930Z 18011KT 160V220 CAVOK 19/03 Q1012=
201903181000 METAR LRIA 181000Z 16012KT CAVOK 20/04 Q1012=
201903181030 METAR LRIA 181030Z 18013KT 150V210 CAVOK 20/04 Q1012=
201903181100 METAR LRIA 181100Z 17012KT 140V200 CAVOK 22/03 Q1012=
201903181130 METAR LRIA 181130Z 20014KT 170V230 CAVOK 23/01 Q1011=
201903181200 METAR LRIA 181200Z 18013KT 150V210 CAVOK 23/01 Q1011=
201903181230 METAR LRIA 181230Z 19012KT 170V230 CAVOK 23/01 Q1011=
201903181300 METAR LRIA 181300Z 16014KT CAVOK 24/02 Q1011=
201903181330 METAR LRIA 181330Z 17015KT CAVOK 23/01 Q1010=
201903181400 METAR LRIA 181400Z 16016KT CAVOK 23/02 Q1010=
201903181430 METAR LRIA 181430Z 16017KT CAVOK 23/02 Q1010=
201903181500 METAR LRIA 181500Z 16014KT CAVOK 22/03 Q1010=
201903181530 METAR LRIA 181530Z 14015KT CAVOK 20/03 Q1011=
201903181600 METAR LRIA 181600Z 10011KT CAVOK 19/04 Q1011=
201903181630 METAR LRIA 181630Z 11013KT CAVOK 17/04 Q1011=
201903181700 METAR LRIA 181700Z 11014KT CAVOK 16/04 Q1012=
201903181730 METAR LRIA 181730Z 10015KT CAVOK 15/04 Q1012=
201903181800 METAR LRIA 181800Z 10016KT CAVOK 14/04 Q1013=
201903181830 METAR LRIA 181830Z 11015KT CAVOK 13/03 Q1013=
201903181900 METAR LRIA 181900Z 10016KT CAVOK 12/03 Q1013=
201903181930 METAR LRIA 181930Z 10017KT CAVOK 11/03 Q1014=
201903182000 METAR LRIA 182000Z 12007KT 100V160 CAVOK 11/02 Q1015=
201903182030 METAR LRIA 182030Z 13008KT CAVOK 10/02 Q1015=
201903182200 METAR LRIA 182200Z 11010KT CAVOK 08/02 Q1016=
201903182230 METAR LRIA 182230Z 13008KT CAVOK 08/02 Q1016=
201903182300 METAR LRIA 182300Z 11005KT CAVOK 07/01 Q1016=
201903182330 METAR LRIA 182330Z 14006KT CAVOK 07/02 Q1017=
201903190000 METAR LRIA 190000Z 19006KT CAVOK 08/02 Q1017=
201903190030 METAR LRIA 190030Z 23004KT CAVOK 08/03 Q1017=
201903190100 METAR LRIA 190100Z 21004KT CAVOK 08/02 Q1017=
201903190130 METAR LRIA 190130Z 21003KT 160V250 9999 FEW023 07/02 Q1017=
201903190200 METAR LRIA 190200Z 31006KT 9999 BKN018 08/03 Q1018=
201903190230 METAR LRIA 190230Z 34006KT 9999 OVC019 07/03 Q1018=
201903190300 METAR LRIA 190300Z 28003KT 250V310 9999 OVC020 07/03 Q1018=
201903190330 METAR LRIA 190330Z 27004KT 9999 SCT022 07/03 Q1018=
201903190400 METAR LRIA 190400Z 28006KT 9999 SCT034 07/03 Q1018=
201903190430 METAR LRIA 190430Z 30007KT CAVOK 07/03 Q1019=
201903190500 METAR LRIA 190500Z 30004KT 270V340 CAVOK 06/03 Q1019=
201903190530 METAR LRIA 190530Z 31005KT 9999 FEW015 BKN023 07/03 Q1020=
201903190600 METAR LRIA 190600Z 28007KT 9999 BKN021 07/03 Q1020=
201903190630 METAR COR LRIA 190630Z 29010KT 9999 -RA BKN021 07/03 Q1020
                        R14/14//95=
201903190700 METAR LRIA 190700Z 30011KT 9999 FEW028 07/02 Q1020 R14/14//95=
201903190730 METAR LRIA 190730Z 30011KT 9999 FEW035 08/03 Q1020 R14/14//95=
201903190800 METAR COR LRIA 190800Z 30011KT CAVOK 10/03 Q1020 R14/CLRD//=
201903190830 METAR LRIA 190830Z 30011KT 280V340 CAVOK 10/03 Q1021=
201903190900 METAR LRIA 190900Z 30010KT 9999 FEW021 10/03 Q1021=
201903190930 METAR LRIA 190930Z 31010KT 9999 SCT021 11/03 Q1021=
201903191000 METAR LRIA 191000Z 32009KT 260V350 9999 FEW022 12/04 Q1021=
201903191030 METAR LRIA 191030Z 34011KT 9999 FEW022 12/04 Q1021=
201903191100 METAR LRIA 191100Z 32009KT 9999 FEW025 11/03 Q1021=
201903191130 METAR LRIA 191130Z 31010KT 9999 FEW025 12/04 Q1021=
201903191200 METAR LRIA 191200Z 31012KT 9999 BKN025 10/04 Q1021=
201903191230 METAR LRIA 191230Z 32013KT 9999 BKN025 10/04 Q1021=
201903191300 METAR LRIA 191300Z 31011KT 9999 BKN028 10/04 Q1021=
201903191330 METAR LRIA 191330Z 30012KT 9999 SCT030 10/04 Q1021=
201903191400 METAR LRIA 191400Z 32010KT 9999 FEW030 11/04 Q1021=
201903191430 METAR LRIA 191430Z 31012KT 9999 FEW017 SCT030 11/04 Q1021=
201903191500 METAR LRIA 191500Z 33010KT 9999 FEW017 BKN032 10/04 Q1021=
201903191530 METAR LRIA 191530Z 33010KT 9999 BKN032 10/04 Q1022=
201903191600 METAR LRIA 191600Z 33008KT 9999 BKN030 09/04 Q1022=
201903191630 METAR LRIA 191630Z 33007KT 9999 OVC030 09/04 Q1022=
201903191700 METAR LRIA 191700Z 32007KT 9999 OVC030 09/04 Q1022=
201903191730 METAR LRIA 191730Z 32008KT 9999 OVC031 09/04 Q1023=
201903191800 METAR LRIA 191800Z 31007KT 9999 OVC033 09/04 Q1023=
201903191830 METAR LRIA 191830Z 31008KT 9999 SCT017 BKN033 09/04 Q1023=
201903191900 METAR LRIA 191900Z 30008KT 9999 FEW017 OVC033 08/03 Q1024=
201903191930 METAR LRIA 191930Z 30008KT 9999 SCT025 OVC033 08/03 Q1024=
201903192000 METAR LRIA 192000Z 30007KT 9999 SCT020 OVC030 08/03 Q1024=
201903192030 METAR LRIA 192030Z 30009KT 9999 SCT020 OVC030 07/03 Q1024=
201903192100 METAR LRIA 192100Z 29008KT 9999 FEW020 OVC030 07/04 Q1024=
201903192130 METAR LRIA 192130Z 30008KT 9999 OVC030 07/04 Q1024=
201903192200 METAR LRIA 192200Z 30009KT 9999 SCT008 BKN017 07/04 Q1024=
201903192230 METAR LRIA 192230Z 31010KT 9999 -RA SCT006 BKN017 06/04 Q1024=
201903192300 METAR LRIA 192300Z 32011KT 9000 -RA BKN006 BKN017 06/04 Q1024
                        R14/29//95=
201903192330 METAR LRIA 192330Z 32011KT 9999 -RA BKN006 BKN015 06/04 Q1025
                        R14/29//95=
201903200000 METAR LRIA 200000Z 33011KT 8000 -RA BKN006 BKN015 06/04 Q1025
                        R14/29//95=
201903200030 METAR LRIA 200030Z 33013KT 9999 -RA BKN007 OVC027 06/04 Q1025
                        R14/29//95=
201903200100 METAR LRIA 200100Z 33012KT 9999 -RA BKN007 OVC030 06/04 Q1025
                        R14/29//95=
201903200130 METAR LRIA 200130Z 33012KT 9999 -RA BKN009 OVC017 06/04 Q1025
                        R14/29//95=
201903200200 METAR LRIA 200200Z 32009KT 9999 -RA BKN008 OVC017 06/04 Q1025
                        R14/29//95=
201903200230 METAR LRIA 200230Z 32008KT 9999 BKN007 BKN017 06/04 Q1025
                        R14/29//95=
201903200300 METAR LRIA 200300Z 31008KT 8000 BKN008 BKN017 05/04 Q1026
                        R14/29//95=
201903200330 METAR LRIA 200330Z 32009KT 9000 SCT008 BKN020 05/03 Q1026
                        R14/29//95=
201903200400 METAR LRIA 200400Z 33008KT 9999 SCT007 OVC018 06/03 Q1026
                        R14/29//95=
201903200430 METAR LRIA 200430Z 33010KT 9999 FEW007 OVC020 06/03 Q1026
                        R14/29//95=
201903200500 METAR LRIA 200500Z 33009KT 9999 FEW007 BKN020 06/03 Q1027
                        R14/29//95=
201903200530 METAR LRIA 200530Z 32010KT 9999 BKN023 06/03 Q1027 R14/29//95=
201903200600 METAR LRIA 200600Z 33010KT 9999 FEW007 BKN021 OVC045 06/03
                        Q1027 R14/29//95=
201903200630 METAR COR LRIA 200630Z 33009KT 9999 FEW007 BKN024 06/03 Q1028
                        R14/19//95=
201903200700 METAR LRIA 200700Z 32009KT 9999 FEW007 OVC025 06/03 Q1028
                        R14/19//95=
201903200730 METAR LRIA 200730Z 33009KT 9999 FEW007 OVC026 07/04 Q1028
                        R14/19//95=
201903200800 METAR LRIA 200800Z 32010KT 9999 FEW011 OVC027 07/04 Q1028
                        R14/19//95=
201903200830 METAR LRIA 200830Z 32010KT 9999 SCT010 OVC036 08/04 Q1029
                        R14/19//95=
201903200900 METAR LRIA 200900Z 33011KT 9999 SCT014 OVC036 08/03 Q1029
                        R14/19//95=
201903200930 METAR LRIA 200930Z 33011KT 9999 SCT014 BKN046 08/03 Q1029
                        R14/19//95=
201903201000 METAR LRIA 201000Z 33011KT 9999 SCT015 BKN048 09/04 Q1029
                        R14/19//95=
201903201030 METAR LRIA 201030Z 34013KT 9999 SCT018 BKN049 09/03 Q1029
                        R14/19//95=
201903201100 METAR LRIA 201100Z 35014KT 9999 SCT025 10/03 Q1029 R14/19//95=
201903201130 METAR LRIA 201130Z 34014KT 9999 FEW024 BKN031 09/03 Q1029
                        R14/19//95=
201903201200 METAR LRIA 201200Z 34011KT 9999 SCT025 BKN030 09/02 Q1029
                        R14/19//95=
201903201230 METAR LRIA 201230Z 34008KT 9999 FEW025 SCT039 10/03 Q1029
                        R14/19//95=
201903201300 METAR LRIA 201300Z 32007KT 9999 FEW025 BKN035 09/02 Q1029
                        R14/CLRD//=
201903201330 METAR LRIA 201330Z 32009KT 9999 FEW033 BKN042 09/02 Q1029=
201903201400 METAR LRIA 201400Z 33009KT 9999 FEW025 OVC035 09/02 Q1029=
201903201430 METAR LRIA 201430Z 33009KT 9999 OVC041 09/02 Q1030=
201903201500 METAR LRIA 201500Z 33007KT 9999 OVC039 09/01 Q1030=
201903201530 METAR LRIA 201530Z 32009KT 9999 OVC045 09/02 Q1030=
201903201600 METAR LRIA 201600Z 32005KT 9999 BKN045 09/02 Q1030=
201903201630 METAR LRIA 201630Z 32005KT 9999 BKN049 08/01 Q1030=
201903201700 METAR LRIA 201700Z 32006KT CAVOK 08/01 Q1031=
201903201730 METAR LRIA 201730Z 31005KT CAVOK 08/00 Q1031=
201903201800 METAR LRIA 201800Z 31006KT CAVOK 08/00 Q1031=
201903201830 METAR LRIA 201830Z 32006KT CAVOK 07/00 Q1031=
201903201900 METAR LRIA 201900Z 33008KT CAVOK 07/00 Q1032=
201903201930 METAR LRIA 201930Z 33010KT CAVOK 07/01 Q1032=
201903202000 METAR LRIA 202000Z 32010KT CAVOK 06/01 Q1032=
201903202030 METAR LRIA 202030Z 33009KT CAVOK 06/01 Q1032=
201903202100 METAR LRIA 202100Z 32010KT CAVOK 06/01 Q1032=
201903202130 METAR LRIA 202130Z 31010KT CAVOK 06/01 Q1032=
201903202200 METAR LRIA 202200Z 31010KT CAVOK 06/01 Q1033=
201903202230 METAR LRIA 202230Z 31010KT CAVOK 05/00 Q1033=
201903202300 METAR LRIA 202300Z 32010KT CAVOK 05/00 Q1033=
201903202330 METAR LRIA 202330Z 32010KT CAVOK 05/00 Q1033=
201903210000 METAR LRIA 210000Z 31008KT CAVOK 05/00 Q1033=
201903210030 METAR LRIA 210030Z VRB02KT CAVOK 04/M00 Q1033=
201903210100 METAR LRIA 210100Z 22004KT CAVOK 04/M00 Q1032=
201903210130 METAR LRIA 210130Z 28003KT CAVOK 04/M00 Q1032=
201903210200 METAR LRIA 210200Z 26002KT CAVOK 03/M00 Q1032=
201903210230 METAR LRIA 210230Z 19002KT CAVOK 03/M00 Q1032=
201903210300 METAR LRIA 210300Z 23003KT CAVOK 02/M00 Q1032=
201903210330 METAR LRIA 210330Z 28003KT CAVOK 02/M01 Q1033=
201903210400 METAR LRIA 210400Z 24003KT CAVOK 01/M01 Q1033=
201903210430 METAR LRIA 210430Z 22003KT CAVOK 02/M01 Q1033=
201903210500 METAR LRIA 210500Z 23003KT CAVOK 02/M01 Q1033=
201903210530 METAR LRIA 210530Z VRB02KT CAVOK 02/M00 Q1033=
201903210600 METAR LRIA 210600Z 22003KT 180V250 CAVOK 04/M00 Q1033=
201903210630 METAR LRIA 210630Z 25005KT 220V280 CAVOK 05/M00 Q1034=
201903210700 METAR LRIA 210700Z 24005KT CAVOK 05/M01 Q1033=
201903210730 METAR LRIA 210730Z 25005KT 210V310 CAVOK 07/M00 Q1033=
201903210800 METAR LRIA 210800Z 27006KT 230V310 CAVOK 08/M01 Q1033=
201903210830 METAR LRIA 210830Z 30006KT 240V340 CAVOK 09/M01 Q1033=
201903210900 METAR LRIA 210900Z 33009KT CAVOK 10/M02 Q1033=
201903210930 METAR LRIA 210930Z 29010KT 9999 FEW040 10/M06 Q1033=
201903211000 METAR LRIA 211000Z 33010KT 300V360 CAVOK 10/M04 Q1032=
201903211030 METAR LRIA 211030Z 33009KT CAVOK 11/M04 Q1032=
201903211100 METAR LRIA 211100Z 29013KT 270V330 CAVOK 11/M05 Q1032=
201903211130 METAR LRIA 211130Z 34013KT CAVOK 11/M06 Q1031=
201903211200 METAR LRIA 211200Z 32011KT 290V350 CAVOK 12/M06 Q1031=
201903211230 METAR LRIA 211230Z 29009KT CAVOK 12/M06 Q1030=
201903211300 METAR LRIA 211300Z 30010KT 250V320 CAVOK 12/M05 Q1030=
201903211330 METAR LRIA 211330Z 31011KT 270V340 CAVOK 12/M06 Q1030=
201903211400 METAR LRIA 211400Z 33011KT CAVOK 12/M06 Q1030=
201903211430 METAR LRIA 211430Z 31011KT CAVOK 12/M06 Q1029=
201903211500 METAR LRIA 211500Z 30010KT CAVOK 12/M05 Q1029=
201903211530 METAR LRIA 211530Z 31008KT 270V330 CAVOK 11/M05 Q1029=
201903211600 METAR LRIA 211600Z 30007KT 270V330 CAVOK 11/M05 Q1029=
201903211630 METAR LRIA 211630Z 31007KT CAVOK 11/M04 Q1029=
201903211700 METAR LRIA 211700Z 29005KT CAVOK 10/M04 Q1029=
201903211730 METAR LRIA 211730Z 31006KT CAVOK 10/M04 Q1029=
201903211800 METAR LRIA 211800Z 32006KT CAVOK 08/M04 Q1029=
201903211830 METAR LRIA 211830Z 31005KT CAVOK 09/M04 Q1030=
201903211900 METAR LRIA 211900Z 31006KT 9999 SCT046 09/M03 Q1030=
201903211930 METAR LRIA 211930Z 31006KT 9999 SCT045 09/M02 Q1030=
201903212000 METAR LRIA 212000Z 33006KT 9999 SCT047 09/M02 Q1030=
201903212030 METAR LRIA 212030Z 32006KT 9999 SCT039 08/M02 Q1030=
201903212100 METAR LRIA 212100Z 32006KT CAVOK 08/M01 Q1030=
201903212130 METAR LRIA 212130Z 33006KT CAVOK 08/M01 Q1030=
201903212200 METAR LRIA 212200Z 31006KT CAVOK 08/M00 Q1030=
201903212230 METAR LRIA 212230Z 33005KT CAVOK 08/M00 Q1030=
201903212300 METAR LRIA 212300Z 33006KT CAVOK 08/00 Q1030=
201903212330 METAR LRIA 212330Z 32006KT CAVOK 08/01 Q1030=
201903220000 METAR LRIA 220000Z 32007KT CAVOK 07/01 Q1030=
201903220030 METAR LRIA 220030Z 31006KT CAVOK 06/01 Q1030=
201903220100 METAR LRIA 220100Z 33007KT CAVOK 06/01 Q1030=
201903220130 METAR LRIA 220130Z 30006KT CAVOK 06/01 Q1030=
201903220200 METAR COR LRIA 220200Z 32006KT CAVOK 06/01 Q1030=
201903220230 METAR COR LRIA 220230Z 31009KT 9999 BKN052 07/01 Q1029=
201903220300 METAR LRIA 220300Z 31008KT CAVOK 07/01 Q1029=
201903220330 METAR COR LRIA 220330Z 32007KT CAVOK 07/01 Q1029=
201903220400 METAR LRIA 220400Z 33006KT 9999 BKN047 07/01 Q1029=
201903220430 METAR LRIA 220430Z 32006KT 9999 BKN049 06/01 Q1029=
201903220500 METAR LRIA 220500Z 33005KT 9999 BKN049 07/01 Q1029=
201903220530 METAR LRIA 220530Z 32005KT 290V350 CAVOK 08/02 Q1029=
201903220600 METAR LRIA 220600Z 31010KT CAVOK 08/02 Q1030=
201903220630 METAR LRIA 220630Z 31008KT CAVOK 09/02 Q1030=
201903220700 METAR LRIA 220700Z 32010KT CAVOK 10/02 Q1029=
201903220730 METAR LRIA 220730Z 30012KT CAVOK 11/02 Q1029=
201903220800 METAR LRIA 220800Z 31012KT 280V340 9999 FEW027 11/02 Q1029=
201903220830 METAR LRIA 220830Z 31012KT 9999 FEW033 12/01 Q1029=
201903220900 METAR LRIA 220900Z 30015KT 270V330 9999 FEW040 12/M00 Q1029=
201903220930 METAR LRIA 220930Z 30013KT 270V330 CAVOK 13/00 Q1028=
201903221000 METAR LRIA 221000Z 30013KT CAVOK 14/01 Q1028=
201903221030 METAR LRIA 221030Z 31016KT 270V340 9999 SCT045 14/02 Q1028=
201903221100 METAR LRIA 221100Z 33013KT 9999 FEW047 14/03 Q1027=
201903221130 METAR LRIA 221130Z 31014KT 9999 SCT047 15/03 Q1026=
201903221200 METAR LRIA 221200Z 32017KT 9999 SCT047 15/03 Q1026=
201903221230 METAR LRIA 221230Z 32015KT CAVOK 15/03 Q1026=
201903221300 METAR LRIA 221300Z 31015KT 9999 SCT045 14/03 Q1026=
201903221330 METAR LRIA 221330Z 31015KT 9999 FEW045 15/03 Q1025=
201903221400 METAR LRIA 221400Z 31016KT 9999 SCT045 15/03 Q1025=
201903221430 METAR LRIA 221430Z 31016KT 9999 BKN040 15/04 Q1025=
201903221500 METAR LRIA 221500Z 32016KT 9999 BKN040 14/04 Q1025=
201903221530 METAR LRIA 221530Z 32017KT 9999 BKN045 14/04 Q1025=
201903221600 METAR LRIA 221600Z 32017KT 9999 BKN040 13/04 Q1025=
201903221630 METAR LRIA 221630Z 32017KT 9999 BKN040 13/04 Q1025=
201903221700 METAR LRIA 221700Z 31015KT 9999 OVC040 13/04 Q1025=
201903221730 METAR LRIA 221730Z 31016KT 9999 OVC045 13/04 Q1025=
201903221800 METAR LRIA 221800Z 31013KT CAVOK 13/04 Q1025=
201903221830 METAR LRIA 221830Z 32012KT 9999 FEW035 BKN044 13/04 Q1026=
201903221900 METAR LRIA 221900Z 31009KT 9999 FEW030 BKN046 12/04 Q1026=
201903221930 METAR LRIA 221930Z 31009KT 9999 FEW046 11/04 Q1026=
201903222000 METAR LRIA 222000Z 30009KT 9999 FEW044 11/04 Q1026=
201903222030 METAR LRIA 222030Z 31011KT 9999 FEW040 11/04 Q1026=
201903222100 METAR LRIA 222100Z 30010KT 9999 FEW046 10/04 Q1026=
201903222130 METAR LRIA 222130Z 30012KT 9999 SCT039 11/04 Q1026=
201903222200 METAR LRIA 222200Z 32010KT 9999 FEW040 10/03 Q1026=
201903222230 METAR LRIA 222230Z 34009KT 9999 FEW043 09/03 Q1026=
201903222300 METAR LRIA 222300Z 33007KT CAVOK 08/03 Q1026=
201903222330 METAR LRIA 222330Z 33010KT 9999 FEW036 09/03 Q1026=
201903230000 METAR LRIA 230000Z 34011KT 9999 FEW040 08/03 Q1026=
201903230030 METAR LRIA 230030Z 34010KT 9999 FEW043 07/03 Q1026=
201903230100 METAR LRIA 230100Z 33007KT CAVOK 06/02 Q1025=
201903230130 METAR LRIA 230130Z 30007KT CAVOK 06/01 Q1025=
201903230200 METAR LRIA 230200Z 33008KT CAVOK 06/M00 Q1025=
201903230230 METAR LRIA 230230Z 33011KT CAVOK 05/M00 Q1025=
201903230300 METAR LRIA 230300Z 33010KT CAVOK 05/M02 Q1026=
201903230330 METAR LRIA 230330Z 34011KT CAVOK 03/M04 Q1026=
201903230400 METAR LRIA 230400Z 33009KT CAVOK 03/M05 Q1026=
201903230430 METAR LRIA 230430Z 34010KT CAVOK 03/M05 Q1026=
201903230500 METAR LRIA 230500Z 33009KT CAVOK 04/M05 Q1026=
201903230530 METAR LRIA 230530Z 33008KT CAVOK 04/M05 Q1026=
201903230600 METAR LRIA 230600Z 33012KT CAVOK 05/M06 Q1026=
201903230630 METAR LRIA 230630Z 32012KT CAVOK 06/M07 Q1026=
201903230700 METAR LRIA 230700Z 34018KT CAVOK 07/M08 Q1027=
201903230730 METAR LRIA 230730Z 34017KT CAVOK 07/M08 Q1026=
201903230800 METAR LRIA 230800Z 33016KT CAVOK 08/M08 Q1026=
201903230830 METAR LRIA 230830Z 33017KT CAVOK 08/M09 Q1026=
201903230900 METAR LRIA 230900Z 33016KT CAVOK 09/M09 Q1026=
201903230930 METAR LRIA 230930Z 33015KT CAVOK 09/M09 Q1026=
201903231000 METAR LRIA 231000Z 34016KT CAVOK 10/M09 Q1025=
201903231030 METAR LRIA 231030Z 33014KT CAVOK 10/M09 Q1025=
201903231100 METAR LRIA 231100Z 30016KT CAVOK 10/M10 Q1025=
201903231130 METAR LRIA 231130Z 34018KT 310V010 CAVOK 11/M11 Q1025=
201903231200 METAR LRIA 231200Z 35019KT 310V010 CAVOK 11/M11 Q1024=
201903231230 METAR LRIA 231230Z 34018G28KT CAVOK 12/M10 Q1024=
201903231300 METAR LRIA 231300Z 35018KT CAVOK 12/M11 Q1024=
201903231330 METAR LRIA 231330Z 34016G26KT CAVOK 12/M11 Q1024=
201903231400 METAR LRIA 231400Z 34018KT CAVOK 12/M11 Q1023=
201903231430 METAR LRIA 231430Z 35018KT CAVOK 12/M11 Q1023=
201903231500 METAR LRIA 231500Z 34016KT CAVOK 12/M11 Q1023=
201903231530 METAR LRIA 231530Z 34015KT CAVOK 11/M11 Q1023=
201903231600 METAR LRIA 231600Z 34012KT CAVOK 10/M10 Q1024=
201903231630 METAR LRIA 231630Z 34010KT CAVOK 09/M11 Q1024=
201903231700 METAR LRIA 231700Z 34008KT CAVOK 08/M10 Q1024=
201903231730 METAR LRIA 231730Z 34008KT CAVOK 08/M10 Q1024=
201903231800 METAR LRIA 231800Z 33007KT CAVOK 06/M10 Q1024=
201903231830 METAR LRIA 231830Z 34008KT CAVOK 05/M10 Q1024=
201903231900 METAR LRIA 231900Z 35006KT CAVOK 05/M09 Q1024=
201903231930 METAR LRIA 231930Z 34006KT CAVOK 05/M10 Q1025=
201903232000 METAR LRIA 232000Z 35005KT CAVOK 05/M09 Q1025=
201903232030 METAR LRIA 232030Z 34006KT CAVOK 06/M10 Q1025=
201903232100 METAR LRIA 232100Z 29005KT CAVOK 04/M10 Q1025=
201903232130 METAR LRIA 232130Z 25004KT CAVOK 02/M08 Q1025=
201903232200 METAR LRIA 232200Z 24003KT CAVOK 02/M09 Q1024=
201903232230 METAR LRIA 232230Z 23003KT CAVOK 02/M10 Q1024=
201903232300 METAR LRIA 232300Z 22004KT CAVOK 02/M09 Q1024=
201903232330 METAR LRIA 232330Z 24004KT CAVOK 02/M10 Q1024=
201903240000 METAR LRIA 240000Z 24004KT CAVOK 02/M10 Q1024=
201903240030 METAR LRIA 240030Z 22003KT CAVOK 01/M10 Q1024=
201903240100 METAR LRIA 240100Z 25004KT CAVOK 02/M10 Q1023=
201903240130 METAR LRIA 240130Z 28001KT CAVOK 01/M10 Q1023=
201903240200 METAR LRIA 240200Z 00000KT CAVOK 01/M10 Q1023=
201903240230 METAR LRIA 240230Z 27002KT CAVOK 00/M10 Q1023=
201903240300 METAR LRIA 240300Z 24002KT CAVOK 01/M10 Q1023=
201903240330 METAR LRIA 240330Z 28003KT CAVOK 01/M10 Q1022=
201903240400 METAR LRIA 240400Z 27002KT CAVOK 01/M10 Q1022=
201903240430 METAR LRIA 240430Z VRB01KT CAVOK M00/M10 Q1022=
201903240500 METAR LRIA 240500Z 27002KT CAVOK 01/M08 Q1022=
201903240530 METAR LRIA 240530Z 00000KT CAVOK 03/M07 Q1022=
201903240600 METAR LRIA 240600Z 20002KT CAVOK 04/M07 Q1022=
201903240630 METAR LRIA 240630Z 24003KT 210V270 CAVOK 05/M07 Q1022=
201903240700 METAR LRIA 240700Z 22004KT 190V260 CAVOK 07/M08 Q1022=
201903240730 METAR LRIA 240730Z 26005KT 200V330 CAVOK 08/M10 Q1021=
201903240800 METAR COR LRIA 240800Z 24004KT 200V280 CAVOK 10/M10 Q1021=
201903240830 METAR LRIA 240830Z 25005KT 220V300 CAVOK 11/M09 Q1021=
201903240900 METAR LRIA 240900Z 25006KT 210V300 CAVOK 12/M10 Q1020=
201903240930 METAR COR LRIA 240930Z 26006KT 220V300 CAVOK 12/M11 Q1020=
201903241000 METAR LRIA 241000Z VRB03KT CAVOK 14/M10 Q1020=
201903241030 METAR LRIA 241030Z 31005KT 230V030 CAVOK 15/M10 Q1019=
201903241100 METAR LRIA 241100Z 22006KT 180V250 CAVOK 15/M11 Q1019=
201903241130 METAR LRIA 241130Z 31009KT CAVOK 16/M11 Q1018=
201903241200 METAR LRIA 241200Z 31009KT 270V350 CAVOK 17/M09 Q1018=
201903241230 METAR LRIA 241230Z 32007KT 290V010 CAVOK 17/M07 Q1018=
201903241300 METAR COR LRIA 241300Z 32007KT 290V350 CAVOK 17/M07 Q1017=
201903241330 METAR LRIA 241330Z 31009KT CAVOK 16/M06 Q1017=
201903241400 METAR LRIA 241400Z 30008KT CAVOK 14/01 Q1017=
201903241430 METAR LRIA 241430Z 30008KT CAVOK 14/01 Q1017=
201903241500 METAR LRIA 241500Z 30010KT CAVOK 14/02 Q1017=
201903241530 METAR COR LRIA 241530Z 29008KT CAVOK 13/04 Q1016=
201903241600 METAR COR LRIA 241600Z 29006KT 260V320 CAVOK 13/04 Q1016=
201903241630 METAR LRIA 241630Z 30005KT CAVOK 12/03 Q1017=
201903241700 METAR LRIA 241700Z 32005KT CAVOK 12/03 Q1017=
201903241730 METAR LRIA 241730Z 30006KT CAVOK 11/02 Q1017=
201903241800 METAR LRIA 241800Z 31006KT CAVOK 11/02 Q1017=
201903241830 METAR LRIA 241830Z 29006KT CAVOK 11/02 Q1017=
201903241900 METAR LRIA 241900Z 31006KT CAVOK 10/01 Q1017=
201903241930 METAR LRIA 241930Z 31007KT CAVOK 10/01 Q1017=
201903242000 METAR LRIA 242000Z 32006KT CAVOK 09/01 Q1017=
201903242030 METAR LRIA 242030Z 31008KT CAVOK 09/00 Q1017=
201903242100 METAR LRIA 242100Z 31007KT CAVOK 09/00 Q1017=
201903242130 METAR LRIA 242130Z 30005KT CAVOK 08/00 Q1017=
201903242200 METAR LRIA 242200Z 26003KT 200V310 CAVOK 06/00 Q1017=
201903242230 METAR LRIA 242230Z 26003KT 220V290 CAVOK 07/M00 Q1016=
201903242300 METAR LRIA 242300Z 22003KT CAVOK 06/M00 Q1016=
201903242330 METAR LRIA 242330Z 25002KT CAVOK 07/00 Q1016=
201903250000 METAR LRIA 250000Z 27002KT CAVOK 07/00 Q1016=
201903250030 METAR LRIA 250030Z 26002KT CAVOK 06/00 Q1015=
201903250100 METAR LRIA 250100Z VRB02KT CAVOK 07/00 Q1015=
201903250130 METAR LRIA 250130Z VRB02KT CAVOK 06/M01 Q1014=
201903250200 METAR LRIA 250200Z 25002KT CAVOK 05/00 Q1014=
201903250230 METAR LRIA 250230Z 22002KT CAVOK 06/00 Q1013=
201903250300 METAR LRIA 250300Z 31003KT CAVOK 06/00 Q1013=
201903250330 METAR LRIA 250330Z VRB02KT CAVOK 06/01 Q1013=
201903250400 METAR LRIA 250400Z VRB02KT CAVOK 06/01 Q1013=
201903250430 METAR LRIA 250430Z 11006KT CAVOK 04/00 Q1012=
201903250500 METAR COR LRIA 250500Z 00000KT 8000 NSC 05/01 Q1012=
201903250530 METAR LRIA 250530Z 03004KT 010V070 8000 NSC 07/01 Q1012=
201903250600 METAR LRIA 250600Z 12004KT 9000 NSC 07/01 Q1011=
201903250630 METAR LRIA 250630Z 11006KT 9000 NSC 05/01 Q1011=
201903250700 METAR LRIA 250700Z 10005KT CAVOK 06/01 Q1011=
201903250730 METAR LRIA 250730Z 11008KT CAVOK 06/01 Q1010=
201903250800 METAR LRIA 250800Z 10010KT CAVOK 08/01 Q1010=
201903250830 METAR LRIA 250830Z 10009KT CAVOK 09/02 Q1009=
201903250900 METAR LRIA 250900Z 09007KT CAVOK 10/02 Q1009=
201903250930 METAR LRIA 250930Z 09005KT CAVOK 12/03 Q1009=
201903251000 METAR LRIA 251000Z VRB01KT CAVOK 15/02 Q1008=
201903251030 METAR LRIA 251030Z 12005KT 9999 FEW050CB 15/02 Q1007=
201903251100 METAR LRIA 251100Z 12004KT 080V180 9999 FEW025 16/02 Q1007=
201903251130 METAR LRIA 251130Z 17006KT 140V200 CAVOK 18/02 Q1006=
201903251200 METAR LRIA 251200Z 25007KT 220V310 CAVOK 19/02 Q1006=
201903251230 METAR LRIA 251230Z 29010KT CAVOK 19/01 Q1006=
201903251300 METAR LRIA 251300Z 32011KT CAVOK 19/00 Q1005=
201903251330 METAR LRIA 251330Z 34014KT CAVOK 18/02 Q1006=
201903251400 METAR LRIA 251400Z 34017KT CAVOK 16/04 Q1006=
201903251430 METAR LRIA 251430Z 33016KT CAVOK 13/05 Q1006=
201903251500 METAR LRIA 251500Z 33017KT CAVOK 12/04 Q1007=
201903251530 METAR LRIA 251530Z 33014KT CAVOK 11/04 Q1008=
201903251600 METAR LRIA 251600Z 33012KT CAVOK 10/04 Q1008=
201903251630 METAR LRIA 251630Z 33012KT CAVOK 09/03 Q1009=
201903251700 METAR LRIA 251700Z 33010KT CAVOK 09/03 Q1009=
201903251730 METAR LRIA 251730Z 33011KT CAVOK 08/02 Q1009=
201903251800 METAR LRIA 251800Z 32008KT CAVOK 07/02 Q1010=
201903251830 METAR LRIA 251830Z 33006KT CAVOK 06/02 Q1011=
201903251900 METAR LRIA 251900Z 32006KT CAVOK 06/02 Q1011=
201903251930 METAR LRIA 251930Z 29003KT CAVOK 05/02 Q1011=
201903252000 METAR LRIA 252000Z VRB01KT CAVOK 04/01 Q1011=
201903252030 METAR LRIA 252030Z 30005KT CAVOK 04/01 Q1011=
201903252100 METAR LRIA 252100Z 29003KT CAVOK 04/01 Q1011=
201903252130 METAR LRIA 252130Z 31006KT CAVOK 03/01 Q1011=
201903252200 METAR LRIA 252200Z 33005KT CAVOK 03/01 Q1011=
201903252230 METAR LRIA 252230Z 30005KT CAVOK 04/01 Q1011=
201903252300 METAR LRIA 252300Z 24003KT 190V290 CAVOK 02/00 Q1011=
201903252330 METAR COR LRIA 252330Z 11001KT 9999 FEW013 BKN017 03/01 Q1012=
201903260000 METAR LRIA 260000Z 00000KT 9999 OVC016 03/01 Q1012=
201903260030 METAR LRIA 260030Z 30003KT 9999 FEW013 OVC017 04/01 Q1012=
201903260100 METAR COR LRIA 260100Z 32003KT 9000 OVC013 03/01 Q1012=
201903260130 METAR LRIA 260130Z AUTO 23002KT 140V270 7000 FEW066/// 03/01
                        Q1012=
201903260200 METAR LRIA 260200Z 29005KT 7000 SCT044 02/01 Q1013=
201903260230 METAR LRIA 260230Z AUTO 32005KT 7000 OVC063/// 03/01 Q1013=
201903260300 METAR COR LRIA 260300Z 28003KT 230V300 6000 NSC 02/00 Q1013=
201903260330 METAR LRIA 260330Z 23003KT 6000 NSC 03/01 Q1013=
201903260400 METAR LRIA 260400Z 23003KT 6000 NSC 03/01 Q1013=
201903260430 METAR LRIA 260430Z 28003KT 7000 BKN017 03/01 Q1014=
201903260500 METAR LRIA 260500Z 26004KT 9000 SCT015 03/01 Q1015=
201903260530 METAR LRIA 260530Z 29007KT 9999 FEW017 SCT035 04/02 Q1015=
201903260600 METAR LRIA 260600Z 31008KT 9000 -RA SCT029 BKN037 05/02 Q1015=
201903260630 METAR COR LRIA 260630Z 31008KT 8000 -RA SCT012 BKN035 05/02
                        Q1015 R14/19//95=
201903260700 METAR LRIA 260700Z 32009KT 8000 -RA BKN010 BKN021 05/02 Q1015
                        R14/19//95=
201903260730 METAR LRIA 260730Z 32010KT 7000 -RA BKN008 BKN018 06/03 Q1016
                        R14/19//95=
201903260800 METAR LRIA 260800Z 33008KT 8000 -RA BKN008 BKN016 06/03 Q1016
                        R14/19//95=
201903260830 METAR LRIA 260830Z 33010KT 9000 -DZ BKN008 BKN018 06/02 Q1016
                        R14/19//95=
201903260900 METAR LRIA 260900Z 33009KT 9000 -RA FEW013 SCT017 OVC035
                        06/02 Q1017 R14/19//95=
201903260930 METAR LRIA 260930Z 32010KT 9999 -RA SCT015 OVC031 07/02 Q1017
                        R14/19//95=
201903261000 METAR LRIA 261000Z 34013KT 9999 -RA FEW018 SCT029 08/02 Q1017
                        R14/19//95=
201903261030 METAR LRIA 261030Z 32011KT 9999 -RA FEW017 SCT023 07/02 Q1017
                        R14/19//95=
201903261100 METAR LRIA 261100Z 32011KT 9999 -RA SCT016 SCT023 07/01 Q1017
                        R14/19//95=
201903261130 METAR LRIA 261130Z 32011KT 9999 SCT023 BKN035 08/01 Q1017
                        R14/19//95=
201903261200 METAR LRIA 261200Z 32011KT 9999 SCT025 BKN035 08/M00 Q1017
                        R14/CLRD//=
201903261230 METAR LRIA 261230Z 33011KT 9999 SCT032 BKN046 08/M01 Q1017=
201903261300 METAR LRIA 261300Z 33012KT 9999 SCT046 08/M01 Q1017=
201903261330 METAR LRIA 261330Z 32012KT 9999 FEW048 07/M02 Q1017=
201903261400 METAR LRIA 261400Z 30009KT 270V330 9999 FEW048 09/M02 Q1017=
201903261430 METAR LRIA 261430Z 32013KT 9999 FEW040 08/M02 Q1017=
201903261500 METAR LRIA 261500Z 33011KT 9999 FEW040 08/M03 Q1017=
201903261530 METAR LRIA 261530Z 32011KT CAVOK 08/M04 Q1017=
201903261600 METAR LRIA 261600Z 34012KT CAVOK 07/M04 Q1017=
201903261630 METAR LRIA 261630Z 34009KT CAVOK 05/M05 Q1018=
201903261700 METAR LRIA 261700Z 34006KT CAVOK 05/M05 Q1018=
201903261730 METAR LRIA 261730Z 33005KT CAVOK 05/M05 Q1018=
201903261800 METAR LRIA 261800Z 32004KT CAVOK 05/M05 Q1018=
201903261830 METAR LRIA 261830Z 28003KT CAVOK 03/M05 Q1018=
201903261900 METAR LRIA 261900Z 27003KT CAVOK 03/M05 Q1018=
201903261930 METAR LRIA 261930Z 22002KT CAVOK 03/M05 Q1018=
201903262000 METAR LRIA 262000Z 22004KT CAVOK 03/M04 Q1018=
201903262030 METAR LRIA 262030Z 23004KT CAVOK 02/M04 Q1018=
201903262100 METAR LRIA 262100Z 24004KT CAVOK 02/M04 Q1018=
201903262130 METAR LRIA 262130Z 29001KT CAVOK 03/M04 Q1018=
201903262200 METAR LRIA 262200Z 22003KT CAVOK 03/M04 Q1018=
201903262230 METAR LRIA 262230Z 19004KT 160V230 CAVOK 01/M04 Q1017=
201903262300 METAR LRIA 262300Z 22004KT 170V250 CAVOK 01/M04 Q1017=
201903262330 METAR LRIA 262330Z 21005KT CAVOK 02/M04 Q1017=
201903270000 METAR LRIA 270000Z 22004KT CAVOK 02/M04 Q1017=
201903270030 METAR LRIA 270030Z 23004KT CAVOK 02/M05 Q1017=
201903270100 METAR LRIA 270100Z 33011KT 9999 SCT047 01/M04 Q1017=
201903270130 METAR LRIA 270130Z 29009KT 260V320 9999 BKN045 04/M02 Q1017=
201903270200 METAR LRIA 270200Z 33009KT 9999 FEW027 BKN045 04/M02 Q1017=
201903270230 METAR LRIA 270230Z 31008KT 9999 -RA SCT025 BKN040 03/M01
                        Q1018=
201903270300 METAR LRIA 270300Z 33015KT 7000 -SN BKN004 OVC030 01/M01
                        Q1018 RESN=
201903270330 METAR LRIA 270330Z 29008KT 9999 FEW003 BKN047 01/M01 Q1019
                        R14/29//95=
201903270400 METAR LRIA 270400Z 29008KT 9999 FEW003 SCT047 01/M02 Q1019
                        R14/29//95=
201903270430 METAR LRIA 270430Z 28008KT 9999 FEW005 01/M02 Q1019 R14/29//95=
201903270500 METAR LRIA 270500Z 28007KT 250V310 CAVOK 01/M03 Q1019 R14/29//95=
201903270530 METAR LRIA 270530Z 28008KT CAVOK 01/M03 Q1020 R14/29//95=
201903270600 METAR LRIA 270600Z 29010G21KT CAVOK 03/M03 Q1020 R14/29//95=
201903270630 METAR LRIA 270630Z 31014KT CAVOK 03/M04 Q1020 R14/29//95=
201903270700 METAR LRIA 270700Z 30017G27KT 270V330 CAVOK 04/M06 Q1020
                        WS R32 R14/29//95=
201903270730 METAR LRIA 270730Z 30016KT 270V330 9999 SCT043 04/M05 Q1020
                        WS R32 R14/29//95=
201903270800 METAR LRIA 270800Z 31023G33KT 9999 SCT040 05/M05 Q1020 WS
                        R32 R14/29//95=
201903270830 METAR LRIA 270830Z 31023G34KT 9999 BKN039 06/M04 Q1020 WS
                        R32 R14/29//95=
201903270900 METAR LRIA 270900Z 31021KT 9999 BKN037 05/M05 Q1021 WS R32
                        R14/29//95=
201903270930 METAR COR LRIA 270930Z 31019KT 9999 BKN037 07/M04 Q1021 WS
                        R32 R14/CLRD//=
201903271000 METAR LRIA 271000Z 30022G32KT 9999 BKN033 04/M05 Q1022=
201903271030 METAR LRIA 271030Z 30020KT 9999 BKN031 04/M05 Q1022=
201903271100 METAR LRIA 271100Z 31021KT 9999 BKN033 05/M05 Q1023=
201903271130 METAR LRIA 271130Z 31022KT 9999 BKN034 04/M05 Q1023=
201903271200 METAR LRIA 271200Z 32022KT 9999 BKN031 05/M04 Q1023 WS R32=
201903271230 METAR LRIA 271230Z 32021G32KT 9999 SCT031 05/M05 Q1023 WS
                        R32=
201903271300 METAR LRIA 271300Z 31021KT 9999 BKN036 06/M05 Q1023=
201903271330 METAR LRIA 271330Z 31022KT 9999 BKN037 06/M05 Q1024=
201903271400 METAR LRIA 271400Z 31018G28KT 9999 BKN038 06/M05 Q1024=
201903271430 METAR LRIA 271430Z 33017KT 9999 BKN041 06/M05 Q1024=
201903271500 METAR LRIA 271500Z 34020G33KT 9999 SCT043 06/M06 Q1024=
201903271530 METAR LRIA 271530Z 32017KT 9999 SCT044 06/M06 Q1024=
201903271600 METAR LRIA 271600Z 33014G25KT 9999 FEW044 05/M07 Q1024=
201903271630 METAR LRIA 271630Z 34014KT 9999 FEW044 05/M07 Q1025=
201903271700 METAR LRIA 271700Z 34011KT 9999 FEW044 04/M07 Q1025=
201903271730 METAR LRIA 271730Z 34009KT CAVOK 03/M07 Q1026=
201903271800 METAR LRIA 271800Z 33006KT CAVOK 02/M07 Q1026=
201903271830 METAR LRIA 271830Z 30004KT CAVOK 03/M07 Q1026=
201903271900 METAR LRIA 271900Z 33007KT CAVOK 01/M07 Q1027=
201903271930 METAR LRIA 271930Z 27005KT CAVOK 01/M07 Q1027=
201903272000 METAR LRIA 272000Z 31007KT CAVOK 01/M07 Q1027=
201903272030 METAR LRIA 272030Z 32006KT CAVOK 02/M08 Q1028=
201903272100 METAR LRIA 272100Z 31005KT CAVOK 02/M08 Q1028=
201903272130 METAR LRIA 272130Z 28004KT CAVOK 01/M08 Q1028=
201903272200 METAR LRIA 272200Z 32006KT CAVOK 01/M08 Q1028=
201903272230 METAR LRIA 272230Z 32006KT CAVOK 01/M08 Q1028=
201903272300 METAR LRIA 272300Z 30005KT CAVOK 00/M08 Q1028=
201903272330 METAR LRIA 272330Z 30005KT CAVOK 00/M08 Q1028=
201903280000 METAR LRIA 280000Z 30005KT CAVOK 00/M08 Q1028=
201903280030 METAR LRIA 280030Z 27004KT CAVOK M00/M08 Q1028=
201903280100 METAR LRIA 280100Z 27005KT CAVOK M00/M08 Q1028=
201903280130 METAR LRIA 280130Z 29005KT CAVOK M00/M08 Q1028=
201903280200 METAR LRIA 280200Z 26004KT CAVOK M01/M08 Q1028=
201903280230 METAR LRIA 280230Z 27003KT CAVOK M01/M08 Q1028=
201903280300 METAR LRIA 280300Z 29005KT CAVOK M01/M08 Q1028=
201903280330 METAR LRIA 280330Z 28005KT CAVOK M01/M08 Q1028=
201903280400 METAR LRIA 280400Z 27005KT CAVOK M01/M08 Q1029=
201903280430 METAR LRIA 280430Z 27003KT CAVOK M02/M09 Q1029=
201903280500 METAR LRIA 280500Z 00000KT CAVOK M01/M07 Q1029=
201903280530 METAR LRIA 280530Z 00000KT CAVOK M01/M07 Q1029=
201903280600 METAR LRIA 280600Z 00000KT CAVOK 00/M07 Q1029=
201903280630 METAR LRIA 280630Z 23003KT 200V270 CAVOK 02/M06 Q1029=
201903280700 METAR LRIA 280700Z 24003KT 170V280 CAVOK 04/M06 Q1029=
201903280730 METAR LRIA 280730Z VRB02KT CAVOK 05/M06 Q1029=
201903280800 METAR LRIA 280800Z 23004KT 180V260 CAVOK 07/M06 Q1029=
201903280830 METAR LRIA 280830Z 27005KT 200V310 CAVOK 07/M06 Q1028=
201903280900 METAR LRIA 280900Z VRB03KT CAVOK 08/M06 Q1028=
201903280930 METAR LRIA 280930Z 30006KT 240V030 CAVOK 09/M06 Q1028=
201903281000 METAR LRIA 281000Z 31005KT 240V020 CAVOK 09/M07 Q1028=
201903281030 METAR LRIA 281030Z 33007KT 270V030 CAVOK 09/M07 Q1027=
201903281100 METAR LRIA 281100Z 34007KT 290V030 CAVOK 09/M06 Q1027=
201903281130 METAR LRIA 281130Z 33007KT 260V360 CAVOK 10/M06 Q1027=
201903281200 METAR LRIA 281200Z 32005KT 260V040 CAVOK 10/M07 Q1027=
201903281230 METAR LRIA 281230Z 31005KT 270V340 CAVOK 10/M06 Q1027=
201903281300 METAR LRIA 281300Z 30008KT 9999 SCT040 10/M05 Q1027=
201903281330 METAR LRIA 281330Z 30011KT 260V330 9999 -RA FEW030CB BKN048
                        08/M02 Q1027=
201903281400 METAR LRIA 281400Z 32005KT 9999 -RA BKN047 07/M00 Q1027 R14/19//95=
201903281430 METAR LRIA 281430Z 02007KT 9999 -RA OVC047 06/01 Q1027 R14/19//95=
201903281500 METAR LRIA 281500Z 02008KT 8000 -RA SCT020 OVC040 06/02 Q1027
                        R14/19//95=
201903281530 METAR LRIA 281530Z 06004KT 9999 -RA FEW018 OVC027 05/02 Q1027
                        R14/19//95=
201903281600 METAR LRIA 281600Z 34002KT 9999 BKN022 OVC040 05/02 Q1027
                        R14/19//95=
201903281630 METAR LRIA 281630Z 33004KT 9999 BKN027 05/03 Q1027 R14/19//95=
201903281700 METAR LRIA 281700Z 32004KT 9999 FEW018 BKN027 05/03 Q1028
                        R14/19//95=
201903281730 METAR LRIA 281730Z 33004KT 9999 SCT027 05/03 Q1028 R14/19//95=
201903281800 METAR LRIA 281800Z 33004KT 300V010 9999 FEW027 OVC049 05/03
                        Q1029 R14/19//95=
201903281830 METAR LRIA 281830Z 02006KT 9999 OVC048 05/02 Q1029 R14/19//95=
201903281900 METAR LRIA 281900Z 36007KT 9999 SCT023 OVC049 05/01 Q1029
                        R14/19//95=
201903281930 METAR LRIA 281930Z 02009KT 9999 FEW023 BKN049 04/01 Q1029
                        R14/19//95=
201903282000 METAR LRIA 282000Z 02006KT 9999 BKN048 04/00 Q1029 R14/19//95=
201903282030 METAR LRIA 282030Z 04009KT 9999 OVC047 04/00 Q1029 R14/19//95=
201903282100 METAR LRIA 282100Z 02007KT 9999 FEW040 BKN049 03/M00 Q1030
                        R14/19//95=
201903282130 METAR LRIA 282130Z 36006KT 9999 SCT013 BKN049 03/00 Q1030
                        R14/19//95=
201903282200 METAR LRIA 282200Z 35004KT 9999 FEW013 OVC042 03/00 Q1030
                        R14/19//95=
201903282230 METAR LRIA 282230Z 34003KT 9999 OVC043 03/00 Q1030 R14/19//95=
201903282300 METAR LRIA 282300Z 28004KT 9999 SCT044 03/00 Q1030 R14/19//95=
201903282330 METAR LRIA 282330Z 30004KT 9999 FEW044 03/M00 Q1030 R14/19//95=
201903290000 METAR LRIA 290000Z 33004KT 9999 FEW035 02/M00 Q1030 R14/19//95=
201903290030 METAR LRIA 290030Z 33005KT CAVOK 02/M01 Q1030 R14/19//95=
201903290100 METAR LRIA 290100Z 33007KT CAVOK 02/M01 Q1030 R14/19//95=
201903290130 METAR LRIA 290130Z 33006KT CAVOK 02/M01 Q1030 R14/19//95=
201903290200 METAR LRIA 290200Z 34009KT 9999 OVC049 02/M00 Q1030 R14/19//95=
201903290230 METAR LRIA 290230Z 03008KT 9999 BKN049 02/M01 Q1030 R14/19//95=
201903290300 METAR LRIA 290300Z 01009KT 9999 FEW049 02/M01 Q1031 R14/19//95=
201903290330 METAR LRIA 290330Z 01008KT CAVOK 01/M02 Q1031 R14/19//95=
201903290400 METAR LRIA 290400Z 01007KT CAVOK 01/M02 Q1031 R14/19//95=
201903290430 METAR LRIA 290430Z 01007KT CAVOK 01/M02 Q1031 R14/19//95=
201903290500 METAR LRIA 290500Z 28003KT CAVOK 01/M02 Q1031 R14/19//95=
201903290530 METAR LRIA 290530Z 27005KT CAVOK 02/M01 Q1031 R14/19//95=
201903290600 METAR LRIA 290600Z 32005KT CAVOK 03/M01 Q1031 R14/19//95=
201903290630 METAR LRIA 290630Z 30003KT 240V350 CAVOK 04/M01 Q1031 R14/CLRD//=
201903290700 METAR LRIA 290700Z VRB01KT CAVOK 05/M01 Q1031=
201903290730 METAR LRIA 290730Z VRB02KT CAVOK 05/M02 Q1031=
201903290800 METAR LRIA 290800Z 33006KT 9999 BKN049 06/M02 Q1031=
201903290830 METAR LRIA 290830Z 31006KT 280V340 9999 BKN049 06/M03 Q1031=
201903290900 METAR LRIA 290900Z 33007KT 300V010 9999 BKN049 07/M03 Q1031=
201903290930 METAR LRIA 290930Z 33006KT 9999 SCT049 07/M03 Q1030=
201903291000 METAR LRIA 291000Z 36006KT 310V060 9999 FEW042 08/M04 Q1030=
201903291030 METAR LRIA 291030Z VRB07KT 9999 BKN044 09/M04 Q1030=
201903291100 METAR LRIA 291100Z 34007KT 310V040 9999 BKN044 08/M04 Q1029=
201903291130 METAR LRIA 291130Z 33009KT 9999 BKN043 09/M03 Q1029=
201903291200 METAR LRIA 291200Z VRB03KT 9999 BKN043 09/M03 Q1029=
201903291230 METAR LRIA 291230Z 35004KT 300V060 9999 BKN044 09/M03 Q1028=
201903291300 METAR LRIA 291300Z 36007KT 9999 BKN044 10/M03 Q1028=
201903291330 METAR LRIA 291330Z 36005KT 310V040 9999 BKN046 10/M03 Q1028=
201903291400 METAR LRIA 291400Z 34005KT 250V020 9999 FEW049 10/M03 Q1027=
201903291430 METAR LRIA 291430Z 36007KT 9999 FEW049 10/M03 Q1026=
201903291500 METAR LRIA 291500Z 29009KT 9999 FEW049 11/M02 Q1026=
201903291530 METAR LRIA 291530Z 31007KT 280V340 9999 FEW048 11/M02 Q1026=
201903291600 METAR LRIA 291600Z 31008KT 9999 FEW048 10/M02 Q1025=
201903291630 METAR LRIA 291630Z 32007KT CAVOK 10/M02 Q1025=
201903291700 METAR LRIA 291700Z 34006KT CAVOK 09/M01 Q1025=
201903291730 METAR LRIA 291730Z 31003KT 270V330 CAVOK 09/M02 Q1025=
201903291800 METAR LRIA 291800Z 25002KT 9999 SCT085 BKN100 09/M02 Q1025=
201903291830 METAR COR LRIA 291830Z 27002KT CAVOK 09/M02 Q1025=
201903291900 METAR LRIA 291900Z 24004KT CAVOK 09/M02 Q1025=
201903291930 METAR LRIA 291930Z 24003KT 210V270 CAVOK 08/M02 Q1025=
201903292000 METAR LRIA 292000Z 24003KT CAVOK 07/M01 Q1025=
201903292030 METAR LRIA 292030Z 28004KT CAVOK 07/M01 Q1026=
201903292100 METAR LRIA 292100Z 28005KT CAVOK 07/M01 Q1026=
201903292130 METAR LRIA 292130Z 27005KT CAVOK 07/M01 Q1026=
201903292200 METAR LRIA 292200Z 30007KT CAVOK 07/M00 Q1025=
201903292230 METAR LRIA 292230Z AUTO 30007KT 9999 BKN046/// 07/M00 Q1025=
201903292300 METAR LRIA 292300Z 32006KT CAVOK 07/00 Q1025=
201903292330 METAR LRIA 292330Z 31007KT CAVOK 07/00 Q1025=
201903300000 METAR LRIA 300000Z 32008KT 9999 OVC039 08/01 Q1025=
201903300030 METAR LRIA 300030Z AUTO 30008KT 9999 OVC041/// 07/01 Q1025=
201903300100 METAR LRIA 300100Z AUTO 30007KT 9999 OVC039/// 07/01 Q1025=
201903300130 METAR LRIA 300130Z AUTO 30006KT 9999 OVC040/// 07/01 Q1025=
201903300200 METAR COR LRIA 300200Z 30007KT 9999 OVC042 07/01 Q1025=
201903300230 METAR COR LRIA 300230Z 31008KT 9999 OVC045 07/01 Q1025=
201903300300 METAR COR LRIA 300300Z 31007KT 9999 FEW035 OVC044 07/01 Q1025=
201903300330 METAR LRIA 300330Z 30007KT 9999 OVC043 08/01 Q1025=
201903300400 METAR LRIA 300400Z 30007KT 9999 OVC040 07/01 Q1025=
201903300430 METAR LRIA 300430Z 31007KT 9999 SCT028 BKN036 08/02 Q1025=
201903300500 METAR LRIA 300500Z 29006KT 9999 FEW026 BKN043 08/02 Q1025=
201903300530 METAR LRIA 300530Z 30007KT 9999 BKN026 BKN044 08/02 Q1025=
201903300600 METAR LRIA 300600Z 31008KT 9999 BKN026 BKN037 09/02 Q1025=
201903300630 METAR LRIA 300630Z 32007KT 9999 BKN026 BKN043 09/02 Q1025=
201903300700 METAR LRIA 300700Z 32008KT 9999 SCT025 OVC045 10/02 Q1026=
201903300730 METAR LRIA 300730Z 33010KT 9999 FEW025 OVC045 10/03 Q1026=
201903300800 METAR LRIA 300800Z 32010KT 9999 BKN044 11/03 Q1025=
201903300830 METAR LRIA 300830Z 32010KT 300V360 9999 BKN047 12/03 Q1025=
201903300900 METAR LRIA 300900Z 33010KT 9999 BKN047 12/03 Q1025=
201903300930 METAR LRIA 300930Z 32012KT 9999 FEW031 SCT043 14/04 Q1025=
201903301000 METAR LRIA 301000Z 33010KT 300V360 9999 BKN033 13/03 Q1024=
201903301030 METAR LRIA 301030Z 32011KT 9999 BKN038 15/02 Q1024=
201903301100 METAR LRIA 301100Z 34013KT 9999 SCT041 14/01 Q1024=
201903301130 METAR LRIA 301130Z 32012KT 270V350 9999 SCT043 14/01 Q1024=
201903301200 METAR LRIA 301200Z 33010KT 290V360 9999 FEW044 15/02 Q1024=
201903301230 METAR LRIA 301230Z 34011KT 9999 FEW046 15/02 Q1023=
201903301300 METAR LRIA 301300Z 34012KT CAVOK 15/02 Q1023=
201903301330 METAR LRIA 301330Z 32011KT CAVOK 15/02 Q1023=
201903301400 METAR LRIA 301400Z 30010KT CAVOK 15/02 Q1022=
201903301430 METAR LRIA 301430Z 32009KT CAVOK 15/02 Q1022=
201903301500 METAR LRIA 301500Z 32009KT CAVOK 15/02 Q1022=
201903301530 METAR LRIA 301530Z 32008KT CAVOK 14/02 Q1022=
201903301600 METAR LRIA 301600Z 35008KT CAVOK 14/02 Q1022=
201903301630 METAR LRIA 301630Z 33005KT CAVOK 13/02 Q1022=
201903301700 METAR LRIA 301700Z 34004KT 300V010 CAVOK 12/01 Q1022=
201903301730 METAR LRIA 301730Z 33003KT CAVOK 12/02 Q1022=
201903301800 METAR LRIA 301800Z 32002KT CAVOK 11/02 Q1022=
201903301830 METAR LRIA 301830Z 29003KT CAVOK 10/01 Q1022=
201903301900 METAR LRIA 301900Z 29003KT 260V320 CAVOK 10/01 Q1022=
201903301930 METAR LRIA 301930Z 23002KT CAVOK 08/01 Q1022=
201903302000 METAR LRIA 302000Z 23004KT CAVOK 09/02 Q1022=
201903302030 METAR LRIA 302030Z 26002KT CAVOK 08/02 Q1022=
201903302100 METAR LRIA 302100Z 26002KT CAVOK 08/02 Q1022=
201903302130 METAR LRIA 302130Z 25002KT CAVOK 07/01 Q1022=
201903302200 METAR LRIA 302200Z 26003KT CAVOK 06/01 Q1022=
201903302230 METAR LRIA 302230Z AUTO 26003KT 9999 NCD 06/01 Q1022=
201903302300 METAR LRIA 302300Z 27003KT CAVOK 06/01 Q1022=
201903302330 METAR LRIA 302330Z 25004KT CAVOK 04/01 Q1021=
201903310000 METAR LRIA 310000Z 29003KT CAVOK 06/01 Q1021=
201903310030 METAR LRIA 310030Z 23002KT CAVOK 03/00 Q1021=
201903310100 METAR LRIA 310100Z 00000KT CAVOK 04/01 Q1021=
201903310130 METAR LRIA 310130Z 00000KT CAVOK 04/00 Q1021=
201903310200 METAR LRIA 310200Z 00000KT CAVOK 04/00 Q1020=
201903310230 METAR LRIA 310230Z VRB01KT CAVOK 04/00 Q1020=
201903310300 METAR LRIA 310300Z 27003KT CAVOK 05/00 Q1020=
201903310330 METAR LRIA 310330Z 26002KT CAVOK 04/01 Q1020=
201903310400 METAR LRIA 310400Z 00000KT 8000 VCFG NSC 02/M01 Q1020=
201903310430 METAR LRIA 310430Z 28002KT CAVOK 03/00 Q1020=
201903310500 METAR LRIA 310500Z 26002KT CAVOK 04/01 Q1020=
201903310530 METAR LRIA 310530Z 29003KT CAVOK 06/02 Q1020=
201903310600 METAR LRIA 310600Z 22002KT 180V250 CAVOK 08/02 Q1020=
201903310630 METAR LRIA 310630Z 22003KT 190V270 CAVOK 09/02 Q1020=
201903310700 METAR LRIA 310700Z 27004KT 240V310 CAVOK 10/02 Q1020=
201903310730 METAR LRIA 310730Z 24003KT 190V290 CAVOK 12/02 Q1020=
201903310800 METAR LRIA 310800Z VRB02KT CAVOK 14/03 Q1020=
201903310830 METAR LRIA 310830Z VRB03KT CAVOK 14/02 Q1019=
201903310900 METAR COR LRIA 310900Z 07002KT 020V100 CAVOK 15/03 Q1019=
201903310930 METAR LRIA 310930Z VRB03KT CAVOK 16/02 Q1019=
201903311000 METAR COR LRIA 311000Z 07004KT 020V150 CAVOK 16/02 Q1018=
201903311030 METAR LRIA 311030Z 16004KT 110V230 CAVOK 17/02 Q1018=
201903311100 METAR LRIA 311100Z 14004KT 080V250 CAVOK 18/03 Q1018=
201903311130 METAR LRIA 311130Z VRB04KT CAVOK 18/02 Q1017=
201903311200 METAR LRIA 311200Z VRB03KT CAVOK 19/01 Q1017=
201903311230 METAR LRIA 311230Z 16004KT 080V200 CAVOK 19/01 Q1017=
201903311300 METAR LRIA 311300Z VRB02KT CAVOK 20/01 Q1016=
201903311330 METAR LRIA 311330Z VRB03KT CAVOK 20/00 Q1015=
201903311400 METAR LRIA 311400Z VRB02KT CAVOK 20/01 Q1015=
201903311430 METAR LRIA 311430Z 05003KT 320V110 CAVOK 20/02 Q1015=
201903311500 METAR LRIA 311500Z 06002KT 030V120 CAVOK 20/02 Q1015=
201903311530 METAR LRIA 311530Z 02002KT CAVOK 20/02 Q1015=
201903311600 METAR LRIA 311600Z 03004KT CAVOK 19/02 Q1015=
201903311630 METAR LRIA 311630Z 03005KT CAVOK 17/00 Q1015=
201903311700 METAR LRIA 311700Z 04005KT CAVOK 16/00 Q1015=
201903311730 METAR LRIA 311730Z 05005KT CAVOK 16/M00 Q1015=
201903311800 METAR LRIA 311800Z 04004KT CAVOK 14/M01 Q1015=
201903311830 METAR LRIA 311830Z 03004KT 010V070 CAVOK 13/M01 Q1015=
201903311900 METAR LRIA 311900Z VRB02KT CAVOK 14/M00 Q1015=
201903311930 METAR LRIA 311930Z 29003KT CAVOK 12/M00 Q1015=
201903312000 METAR LRIA 312000Z 29003KT CAVOK 12/00 Q1015=
201903312030 METAR LRIA 312030Z 32002KT CAVOK 14/00 Q1016=
201903312100 METAR LRIA 312100Z 28003KT CAVOK 10/M00 Q1016=
201903312130 METAR LRIA 312130Z 27003KT CAVOK 09/00 Q1016=
201903312200 METAR LRIA 312200Z 28003KT CAVOK 10/00 Q1015=
201903312230 METAR LRIA 312230Z 21002KT CAVOK 08/00 Q1016=
201903312300 METAR LRIA 312300Z 27004KT CAVOK 09/00 Q1015=
201903312330 METAR LRIA 312330Z 27004KT CAVOK 09/00 Q1015=