201904010200 TAF LRIA 010200Z 0103/0112 VRB04KT CAVOK
                      BECMG 0104/0106 34010KT
                      TEMPO 0108/0112 35015G25KT
                      PROB40 TEMPO 0109/0112 FEW035CB=
201904010500 TAF LRIA 010500Z 0106/0115 24006KT CAVOK
                      BECMG 0106/0108 33010KT
                      TEMPO 0111/0115 35015G25KT=
201904010800 TAF LRIA 010800Z 0109/0118 34012KT CAVOK
                      TEMPO 0111/0116 35015G25KT=
201904011100 TAF LRIA 011100Z 0112/0121 33016KT CAVOK
                      TEMPO 0112/0116 34016G26KT=
201904011400 TAF LRIA 011400Z 0115/0124 34018KT CAVOK
                      TEMPO 0115/0117 34020G30KT
                      BECMG 0119/0121 04012KT=
201904011700 TAF LRIA 011700Z 0118/0203 31012KT CAVOK
                      BECMG 0119/0121 03012KT=
201904012000 TAF LRIA 012000Z 0121/0206 01012KT CAVOK=
201904012300 TAF LRIA 012300Z 0200/0209 02010KT CAVOK=
201904020200 TAF LRIA 020200Z 0203/0212 02010KT CAVOK=
201904020500 TAF LRIA 020500Z 0206/0215 33007KT CAVOK
                      BECMG 0206/0208 03010KT=
201904020800 TAF LRIA 020800Z 0209/0218 04012KT CAVOK
                      TEMPO 0209/0212 04015G25KT=
201904021100 TAF LRIA 021100Z 0212/0221 04012KT CAVOK=
201904021400 TAF LRIA 021400Z 0215/0224 06010KT CAVOK=
201904021700 TAF LRIA 021700Z 0218/0303 03008KT CAVOK=
201904022000 TAF LRIA 022000Z 0221/0306 04006KT CAVOK=
201904022300 TAF LRIA 022300Z 0300/0309 08005KT CAVOK=
201904030200 TAF LRIA 030200Z 0303/0312 08006KT CAVOK=
201904030500 TAF LRIA 030500Z 0306/0315 09006KT CAVOK=
201904030800 TAF LRIA 030800Z 0309/0318 12012KT CAVOK=
201904031100 TAF LRIA 031100Z 0312/0321 12010KT CAVOK
                      BECMG 0317/0319 VRB04KT=
201904031400 TAF LRIA 031400Z 0315/0324 11010KT CAVOK
                      BECMG 0317/0319 VRB04KT=
201904031700 TAF LRIA 031700Z 0318/0403 11010KT CAVOK
                      BECMG 0318/0320 VRB04KT=
201904032000 TAF LRIA 032000Z 0321/0406 11006KT CAVOK
                      BECMG 0403/0405 12016KT=
201904032300 TAF LRIA 032300Z 0400/0409 16008KT CAVOK
                      BECMG 0407/0409 16018KT=
201904040200 TAF LRIA 040200Z 0403/0412 12006KT CAVOK
                      BECMG 0406/0408 14018KT=
201904040500 TAF LRIA 040500Z 0406/0415 13012KT CAVOK=
201904040800 TAF LRIA 040800Z 0409/0418 13012KT CAVOK=
201904041100 TAF LRIA 041100Z 0412/0421 13016KT CAVOK
                      BECMG 0418/0420 13006KT=
201904041400 TAF LRIA 041400Z 0415/0424 16010KT CAVOK=
201904041700 TAF LRIA 041700Z 0418/0503 15010KT CAVOK=
201904042000 TAF LRIA 042000Z 0421/0506 15010KT CAVOK=
201904042300 TAF LRIA 042300Z 0500/0509 13010KT CAVOK=
201904050200 TAF LRIA 050200Z 0503/0512 14010KT CAVOK
                      TEMPO 0509/0512 14015G25KT=
201904050500 TAF LRIA 050500Z 0506/0515 12015KT CAVOK=
201904050800 TAF LRIA 050800Z 0509/0518 17015KT CAVOK=
201904051100 TAF LRIA 051100Z 0512/0521 14016KT CAVOK=
201904051400 TAF LRIA 051400Z 0515/0524 14016KT CAVOK
                      BECMG 0520/0522 12006KT=
201904051700 TAF LRIA 051700Z 0518/0603 16012KT CAVOK=
201904052000 TAF LRIA 052000Z 0521/0606 13012KT CAVOK=
201904052300 TAF LRIA 052300Z 0600/0609 11010KT CAVOK=
201904060200 TAF LRIA 060200Z 0603/0612 12010KT 9999 OVC020=
201904060500 TAF LRIA 060500Z 0606/0615 12012KT 9999 BKN025=
201904060800 TAF LRIA 060800Z 0609/0618 12016KT 9999 SCT030=
201904061100 TAF LRIA 061100Z 0612/0621 14012KT CAVOK
                      TEMPO 0612/0615 14015G25KT=
201904061400 TAF LRIA 061400Z 0615/0624 14016KT CAVOK
                      BECMG 0618/0620 14006KT=
201904061700 TAF LRIA 061700Z 0618/0703 13010KT CAVOK=
201904062000 TAF LRIA 062000Z 0621/0706 13008KT CAVOK=
201904062300 TAF LRIA 062300Z 0700/0709 13008KT CAVOK=
201904070200 TAF LRIA 070200Z 0703/0712 10008KT CAVOK=
201904070500 TAF LRIA 070500Z 0706/0715 13012KT CAVOK=
201904070800 TAF LRIA 070800Z 0709/0718 12012KT CAVOK=
201904071100 TAF LRIA 071100Z 0712/0721 17012KT CAVOK
                      BECMG 0719/0721 VRB04KT=
201904071400 TAF LRIA 071400Z 0715/0724 17012KT CAVOK
                      BECMG 0719/0721 VRB04KT=
201904071700 TAF LRIA 071700Z 0718/0803 16010KT CAVOK
                      BECMG 0718/0720 VRB04KT=
201904072000 TAF LRIA 072000Z 0721/0806 14010KT CAVOK
                      BECMG 0801/0803 5000 -RA BR BKN015 BKN030
                       TEMPO 0803/0806 3000 RA BR BKN010 OVC025=
201904072300 TAF LRIA 072300Z 0800/0809 14010KT CAVOK
                      BECMG 0802/0804 5000 -RA BR BKN015 BKN030
                       TEMPO 0805/0809 3000 RA BR BKN010 OVC025=
201904080200 TAF LRIA 080200Z 0803/0812 12010KT CAVOK
                      BECMG 0803/0805 5000 -RA BR BKN015 BKN030
                       TEMPO 0807/0812 3000 RA BR BKN010 OVC025=
201904080500 TAF LRIA 080500Z 0806/0815 11008KT 9999 -RA BKN040
                      BECMG 0806/0808 5000 RA BR BKN015 BKN035
                       TEMPO 0808/0812 3000 RA BR BKN010 OVC030=
201904080800 TAF LRIA 080800Z 0809/0818 11010KT 9999 BKN010 BKN040
                      TEMPO 0809/0815 5000 RA BR BKN005 OVC030=
201904081100 TAF LRIA 081100Z 0812/0821 11012KT 9999 SCT010 BKN025
                      TEMPO 0812/0816 5000 RA BKN010 OVC025
                      BECMG 0818/0820 VRB04KT=
201904081400 TAF LRIA 081400Z 0815/0824 11012KT 5000 BR BKN005 OVC025
                      TEMPO 0815/0818 1500 -DZRA BR BKN002 OVC015
                       BECMG 0819/0821 VRB04KT 3000 BR SCT005 OVC030=
201904081700 TAF LRIA 081700Z 0818/0903 11008KT 9999 BKN010
                      BECMG 0819/0821 3000 BR SCT015
                      TEMPO 0821/0903 0800 FG VV002=
201904082000 TAF LRIA 082000Z 0821/0906 VRB04KT 5000 BR BKN020
                      PROB40 TEMPO 0821/0823 1500 BR BKN015
                      TEMPO 0823/0905 0600 FG VV002=
201904082300 TAF LRIA 082300Z 0900/0909 VRB04KT 3000 BR BKN005
                      TEMPO 0900/0905 0800 FG BKN002
                      BECMG 0907/0909 CAVOK=
201904090200 TAF LRIA 090200Z 0903/0912 VRB04KT 9999 SCT045
                      TEMPO 0903/0906 3000 BR BKN010=
201904090500 TAF LRIA 090500Z 0906/0915 VRB04KT CAVOK=
201904090800 TAF LRIA 090800Z 0909/0918 VRB04KT CAVOK
                      PROB30 TEMPO 0910/0914 5000 -SHRA SCT040CB=
201904091100 TAF LRIA 091100Z 0912/0921 09006KT CAVOK
                      PROB30 TEMPO 0912/0914 5000 -SHRA SCT040CB=
201904091400 TAF LRIA 091400Z 0915/0924 11006KT CAVOK=
201904091700 TAF LRIA 091700Z 0918/1003 VRB04KT CAVOK=
201904092000 TAF LRIA 092000Z 0921/1006 VRB04KT CAVOK=
201904092300 TAF LRIA 092300Z 1000/1009 VRB04KT CAVOK=
201904100200 TAF LRIA 100200Z 1003/1012 VRB04KT CAVOK=
201904100500 TAF LRIA 100500Z 1006/1015 27005KT CAVOK
                      BECMG 1009/1011 34010KT=
201904100800 TAF LRIA 100800Z 1009/1018 34010KT CAVOK=
201904101100 TAF LRIA 101100Z 1012/1021 34010KT CAVOK=
201904101400 TAF LRIA 101400Z 1015/1024 04010KT CAVOK
                      PROB40 TEMPO 1015/1017 SCT045CB
                      PROB40 TEMPO 1021/1024 SCT045CB=
201904101700 TAF LRIA 101700Z 1018/1103 36006KT CAVOK
                      BECMG 1019/1021 13010KT
                      BECMG 1022/1024 VRB04KT 5000 -SHRA SCT040CB
                       BKN045
                      TEMPO 1100/1103 3000 SHRA BKN010 BKN030CB=
201904102000 TAF LRIA 102000Z 1021/1106 13010KT CAVOK
                      BECMG 1022/1024 VRB04KT 5000 -SHRA SCT040CB
                       BKN045
                      TEMPO 1100/1106 3000 SHRA BKN010 BKN030CB=
201904102300 TAF LRIA 102300Z 1100/1109 VRB04KT 9999 BKN040
                      TEMPO 1100/1105 3000 SHRA BKN010 BKN030CB
                       TEMPO 1105/1108 5000 -RA=
201904110200 TAF LRIA 110200Z 1103/1112 10006KT 5000 -RA BR SCT010 BKN030
                      TEMPO 1103/1105 3000 -RA BR BKN010 BKN025
                       BECMG 1106/1108 9999 NSW=
201904110500 TAF LRIA 110500Z 1106/1115 VRB04KT 8000 SCT035
                      TEMPO 1110/1115 5000 -SHRA SCT030CB=
201904110800 TAF LRIA 110800Z 1109/1118 VRB04KT 9999 BKN015 BKN040
                      BECMG 1109/1110 SCT015 SCT040
                      TEMPO 1110/1116 5000 -SHRA SCT010 SCT030CB
                       PROB40
                      TEMPO 1111/1115 3000 TSRA BKN010 BKN030CB=
201904111100 TAF LRIA 111100Z 1112/1121 31010KT 9999 SCT015 BKN040
                      TEMPO 1112/1118 5000 -SHRA BKN010 SCT030CB
                       PROB30
                      TEMPO 1112/1116 3000 TSRA
                      BECMG 1118/1120 VRB04KT 3000 BR BKN010=
201904111400 TAF LRIA 111400Z 1115/1124 31012KT 7000 BKN010
                      PROB30 TEMPO 1115/1118 5000 -SHRA BKN005
                       SCT025CB
                      BECMG 1118/1120 VRB04KT 5000 BR
                      TEMPO 1121/1124 1500 BR BKN005=
201904111700 TAF LRIA 111700Z 1118/1203 32008KT 9999 OVC010
                      TEMPO 1118/1120 5000 -RA BKN005 OVC025
                      BECMG 1200/1202 3000 RA BKN005 OVC020=
201904112000 TAF LRIA 112000Z 1121/1206 30010KT 5000 BR BKN010
                      BECMG 1202/1204 3000 RA BKN005 OVC025=
201904112300 TAF AMD LRIA 120144Z 1201/1209 30008KT 3000 BR OVC002
                      TEMPO 1201/1204 1500 BR OVC001
                      BECMG 1204/1206 5000 RA BKN005 OVC025=
201904120144 TAF AMD LRIA 120144Z 1201/1209 30008KT 3000 BR OVC002
                      TEMPO 1201/1204 1500 BR OVC001
                      BECMG 1204/1206 5000 RA BKN005 OVC025=
201904120200 TAF LRIA 120200Z 1203/1212 32008KT 3000 BR BKN005
                      TEMPO 1203/1205 1500 BR OVC001
                      BECMG 1205/1207 5000 RA BKN010 OVC030=
201904120500 TAF LRIA 120500Z 1206/1215 32012KT 3000 BR OVC005
                      TEMPO 1206/1208 1500 -RADZ BR OVC002
                      BECMG 1208/1210 5000 BKN010 BKN025
                      BECMG 1210/1212 9999 NSW SCT015 BKN030=
201904120800 TAF LRIA 120800Z 1209/1218 32012KT 3000 BR OVC005
                      TEMPO 1209/1211 1500 -RADZ BR OVC002
                      BECMG 1211/1213 5000 BKN010 BKN025
                      TEMPO 1213/1216 9999 NSW SCT015 FEW025CB
                       BKN030=
201904121100 TAF LRIA 121100Z 1212/1221 32012KT 8000 BKN010 OVC020
                      TEMPO 1212/1213 OVC005
                      TEMPO 1213/1216 SCT010 FEW025CB BKN030
                      BECMG 1219/1221 5000 -DZ BR BKN005 OVC015=
201904121400 TAF LRIA 121400Z 1215/1224 32012KT 9999 BKN010 OVC020
                      PROB30 TEMPO 1215/1217 SCT015 FEW025CB BKN030
                       BECMG 1220/1222 5000 -DZ BR=
201904121700 TAF LRIA 121700Z 1218/1303 32010KT 9999 OVC010
                      BECMG 1219/1221 5000 BR
                      TEMPO 1222/1303 3000 -DZ BR OVC005=
201904122000 TAF LRIA 122000Z 1221/1306 32008KT 9999 BKN010 OVC025
                      BECMG 1222/1224 5000 BR
                      PROB30 TEMPO 1300/1303 3000 -DZ BR OVC005=
201904122300 TAF LRIA 122300Z 1300/1309 33007KT 5000 BR BKN010 OVC025
                      PROB30 TEMPO 1300/1303 3000 -DZ BR OVC005
                       BECMG 1306/1308 9999 NSW BKN020=
201904130200 TAF LRIA 130200Z 1303/1312 33006KT 5000 BR OVC005
                      BECMG 1306/1308 9999 NSW BKN020=
201904130500 TAF LRIA 130500Z 1306/1315 34010KT 9999 OVC005
                      BECMG 1306/1308 BKN010
                      BECMG 1308/1310 BKN025=
201904130800 TAF LRIA 130800Z 1309/1318 34010KT 9999 BKN010 BKN020
                      BECMG 1309/1311 BKN025=
201904131100 TAF LRIA 131100Z 1312/1321 35010KT 9999 BKN015 BKN020
                      PROB40 TEMPO 1312/1315 5000 -SHRA BKN020
                       SCT030CB BKN035
                      BECMG 1315/1317 BKN025=
201904131400 TAF LRIA 131400Z 1315/1324 35008KT 9999 BKN010 BKN020
                      TEMPO 1315/1319 BKN020
                      BECMG 1322/1324 BKN005=
201904131700 TAF LRIA 131700Z 1318/1403 34010KT 8000 -RA BKN015 OVC030
                      TEMPO 1322/1403 5000 -RA BR BKN010 OVC020=
201904132000 TAF LRIA 132000Z 1321/1406 35010KT 7000 -RA BKN015 OVC030
                      TEMPO 1322/1404 4000 -RA BR BKN010 OVC020=
201904132300 TAF LRIA 132300Z 1400/1409 35010KT 5000 -RA BR SCT005 BKN010 BKN025
                       TEMPO 1400/1405 3000 -RA BR BKN005 OVC015
                       BECMG 1406/1408 9000 -RA SCT015 BKN025=
201904140200 TAF LRIA 140200Z 1403/1412 34010KT 3000 BR BKN005 OVC010
                      PROB40 TEMPO 1403/1406 1500 -RA BR OVC002
                       BECMG 1406/1408 5000 BKN010 BKN025
                      BECMG 1408/1410 9999 NSW SCT015 BKN025=
201904140500 TAF LRIA 140500Z 1406/1415 34010KT 3000 BR BKN015 OVC035
                      TEMPO 1406/1411 1500 -RA BR BKN005 OVC030
                       BECMG 1413/1415 5000 BR BKN025=
201904140800 TAF LRIA 140800Z 1409/1418 34010KT 5000 BR BKN015 OVC035
                      TEMPO 1409/1411 1500 -RA BR BKN005 OVC030
                       BECMG 1412/1414 9999 BKN025=
201904141100 TAF LRIA 141100Z 1412/1421 34010KT 9999 BKN015 OVC035
                      TEMPO 1412/1415 5000 -RA BKN010 OVC030=
201904141400 TAF LRIA 141400Z 1415/1424 34010KT 9999 BKN035=
201904141700 TAF LRIA 141700Z 1418/1503 02010KT 9999 SCT045=
201904142000 TAF LRIA 142000Z 1421/1506 01006KT CAVOK=
201904142300 TAF LRIA 142300Z 1500/1509 01010KT CAVOK=
201904150200 TAF LRIA 150200Z 1503/1512 36012KT CAVOK
                      TEMPO 1509/1512 36015G25KT=
201904150500 TAF LRIA 150500Z 1506/1515 35012KT CAVOK
                      TEMPO 1509/1515 35015G25KT=
201904150800 TAF LRIA 150800Z 1509/1518 35014KT 9999 SCT030
                      TEMPO 1509/1515 35015G25KT=
201904151100 TAF LRIA 151100Z 1512/1521 34015KT 9999 SCT040
                      TEMPO 1512/1515 34016G26KT=
201904151400 TAF LRIA 151400Z 1515/1524 36015KT CAVOK
                      TEMPO 1515/1517 36016G26KT=
201904151700 TAF LRIA 151700Z 1518/1603 34008KT CAVOK
                      BECMG 1601/1603 32018KT=
201904152000 TAF LRIA 152000Z 1521/1606 32006KT 9999 BKN035
                      BECMG 1601/1603 34018KT
                      TEMPO 1604/1606 3000 RA BKN010 OVC025=
201904152300 TAF LRIA 152300Z 1600/1609 32008KT CAVOK
                      BECMG 1600/1602 34018KT
                      BECMG 1603/1605 3000 RA BKN010 OVC025=
201904160200 TAF LRIA 160200Z 1603/1612 34012KT CAVOK
                      BECMG 1603/1605 3000 RA BKN010 OVC025=
201904160500 TAF LRIA 160500Z 1606/1615 32012KT 9999 BKN030
                      TEMPO 1606/1609 5000 RASN BKN015 OVC030
                      BECMG 1609/1611 5000 RA BKN010 OVC025=
201904160800 TAF LRIA 160800Z 1609/1618 32016G26KT 9999 -RA SCT015 OVC025
                      TEMPO 1609/1612 5000 SHRA BKN010 SCT020CB
                       OVC025
                      BECMG 1612/1614 BKN010 OVC020
                      BECMG 1616/1618 31012KT 5000 -RA BR BKN005
                       OVC010=
201904161100 TAF LRIA 161100Z 1612/1621 31014KT 8000 -RA BKN010 OVC020
                      TEMPO 1612/1615 32015G25KT BKN010
                      BECMG 1616/1618 5000 -RA BR BKN005 OVC010
                       TEMPO 1618/1621 3000 -RADZ BR=
201904161400 TAF LRIA 161400Z 1615/1624 31014KT 9999 -RA BKN010 OVC020
                      BECMG 1616/1618 5000 -RA BR BKN005 OVC010
                       TEMPO 1621/1624 3000 -RADZ BR=
201904161700 TAF LRIA 161700Z 1618/1703 31014KT 9999 BKN010 OVC020
                      BECMG 1618/1620 5000 -RA BR
                      TEMPO 1621/1703 3000 -RADZ BR BKN005 BKN015
                       BECMG 1701/1703 04006KT=
201904162000 TAF LRIA 162000Z 1621/1706 31012KT 5000 BR BKN010 OVC020
                      TEMPO 1621/1706 3000 -RADZ BR BKN005 BKN015
                       BECMG 1701/1703 02006KT=
201904162300 TAF LRIA 162300Z 1700/1709 02006KT 5000 -RA BR BKN010 OVC020
                      TEMPO 1700/1706 3000 -RADZ BR BKN005 BKN015=
201904170200 TAF LRIA 170200Z 1703/1712 33009KT 9999 BKN010 OVC020
                      TEMPO 1703/1706 3000 -RADZ BR BKN005 BKN015
                       BECMG 1709/1711 9999 NSW BKN030=
201904170500 TAF LRIA 170500Z 1706/1715 02008KT 9999 BKN025
                      TEMPO 1706/1709 5000 RA BKN010 OVC025
                      TEMPO 1712/1715 5000 -RA=
201904170800 TAF LRIA 170800Z 1709/1718 04008KT 9999 BKN025
                      TEMPO 1709/1712 BKN010
                      TEMPO 1712/1715 5000 -RA=
201904171100 TAF LRIA 171100Z 1712/1721 03008KT 9999 BKN035
                      PROB40 TEMPO 1712/1715 5000 -RA
                      BECMG 1718/1720 5000 -RA BR BKN010 BKN035=
201904171400 TAF LRIA 171400Z 1715/1724 03006KT 9999 BKN040
                      BECMG 1719/1721 5000 -RA BR BKN010 BKN035
                       TEMPO 1721/1724 3000 RA BKN005 OVC030=
201904171700 TAF LRIA 171700Z 1718/1803 32005KT 9999 BKN030
                      BECMG 1719/1721 5000 -RA BR BKN010 BKN020
                       TEMPO 1721/1802 3000 -RADZ BR BKN005 OVC015
                       BECMG 1723/1801 02010KT=
201904172000 TAF LRIA 172000Z 1721/1806 32005KT 9999 SCT015 BKN030
                      BECMG 1721/1722 5000 -RA BR BKN010 BKN020
                       TEMPO 1722/1801 1500 -RADZ BR BKN005 OVC015
                       BECMG 1723/1801 03010KT
                      BECMG 1803/1805 9999 NSW BKN015 BKN030=
201904172300 TAF LRIA 172300Z 1800/1809 02008KT 5000 -RA BR BKN010 BKN020
                      PROB30 TEMPO 1800/1802 1500 -RADZ BR BKN005
                       OVC015
                      BECMG 1803/1805 9999 NSW SCT015 BKN030=
201904180200 TAF LRIA 180200Z 1803/1812 06010KT 9999 SCT015 BKN040
                      TEMPO 1803/1805 5000 -RA BR BKN010 OVC035
                       BECMG 1808/1810 34012KT=
201904180500 TAF LRIA 180500Z 1806/1815 04008KT 9999 SCT015 BKN040
                      TEMPO 1806/1809 5000 -RA BR BKN010 OVC035
                       BECMG 1809/1811 34012KT
                      PROB40 TEMPO 1812/1815 5000 -RA BR BKN010
                       OVC030=
201904180800 TAF LRIA 180800Z 1809/1818 01008KT 9999 SCT015 BKN040
                      TEMPO 1811/1814 5000 -RA BR BKN010 OVC030=
201904181100 TAF LRIA 181100Z 1812/1821 34008KT 9999 BKN030
                      TEMPO 1812/1815 5000 -RA BR BKN010 OVC025=
201904181400 TAF LRIA 181400Z 1815/1824 03010KT CAVOK
                      BECMG 1816/1818 VRB04KT=
201904181700 TAF LRIA 181700Z 1818/1903 02008KT CAVOK=
201904182000 TAF LRIA 182000Z 1821/1906 02006KT CAVOK=
201904182300 TAF LRIA 182300Z 1900/1909 VRB04KT CAVOK
                      PROB40 TEMPO 1906/1909 5000 -SHRA SCT030CB=
201904190200 TAF LRIA 190200Z 1903/1912 VRB04KT CAVOK
                      PROB30 TEMPO 1903/1906 5000 -SHRA SCT030CB
                       BECMG 1905/1907 34010KT
                      TEMPO 1909/1912 5000 SHRA SCT030CB=
201904190500 TAF LRIA 190500Z 1906/1915 30008KT CAVOK
                      PROB30 TEMPO 1906/1908 5000 -SHRA SCT030CB
                       BECMG 1909/1911 05014KT SCT035CB BKN045
                       TEMPO 1911/1915 5000 -SHRA
                      PROB40 1912/1915 VRB17G27KT 3000 TSRA BKN010
                       BKN030CB BKN045=
201904190800 TAF LRIA 190800Z 1909/1918 VRB04KT CAVOK
                      BECMG 1909/1911 05014KT SCT035CB BKN045
                      TEMPO 1911/1918 5000 -SHRA
                      PROB40 1911/1915 VRB17G27KT 3000 TSRA BKN010
                       BKN030CB BKN045=
201904191100 TAF LRIA 191100Z 1912/1921 05010KT 9999 SCT035CB BKN050
                      TEMPO 1912/1915 VRB15G25KT 3000 TSRA BKN010
                       BKN030CB BKN045
                      TEMPO 1915/1918 5000 -SHRA
                      BECMG 1918/1920 NSC=
201904191400 TAF LRIA 191400Z 1915/1924 09010KT CAVOK
                      TEMPO 1915/1918 5000 -SHRA SCT040CB
                      BECMG 1918/1920 02006KT=
201904191700 TAF LRIA 191700Z 1918/2003 02006KT 9999 SCT045
                      TEMPO 1918/1921 5000 -SHRA SCT040CB
                      PROB30 TEMPO 1918/1920 VRB15G25KT -TSRA=
201904192000 TAF LRIA 192000Z 1921/2006 VRB04KT CAVOK=
201904192300 TAF AMD LRIA 200144Z 2001/2009 VRB04KT 0150 FG VV001
                      BECMG 2001/2003 0600 FG BKN005
                      BECMG 2003/2005 3000 BR BKN010
                      BECMG 2005/2007 CAVOK=
201904200144 TAF AMD LRIA 200144Z 2001/2009 VRB04KT 0150 FG VV001
                      BECMG 2001/2003 0600 FG BKN005
                      BECMG 2003/2005 3000 BR BKN010
                      BECMG 2005/2007 CAVOK=
201904200200 TAF LRIA 200200Z 2003/2012 VRB04KT 0350 FG VV001
                      BECMG 2003/2005 1500 BR BKN005
                      BECMG 2005/2007 9999 NSW SCT015=
201904200500 TAF LRIA 200500Z 2006/2015 VRB04KT 0500 FG BKN001
                      BECMG 2006/2008 4000 BR SCT005
                      BECMG 2008/2010 35010KT CAVOK=
201904200800 TAF LRIA 200800Z 2009/2018 35008KT CAVOK=
201904201100 TAF LRIA 201100Z 2012/2021 01008KT CAVOK=
201904201400 TAF LRIA 201400Z 2015/2024 31008KT CAVOK=
201904201700 TAF LRIA 201700Z 2018/2103 VRB03KT CAVOK=
201904202000 TAF LRIA 202000Z 2021/2106 VRB03KT CAVOK=
201904202300 TAF LRIA 202300Z 2100/2109 VRB03KT CAVOK=
201904210200 TAF LRIA 210200Z 2103/2112 VRB03KT CAVOK
                      BECMG 2110/2112 16010KT=
201904210500 TAF LRIA 210500Z 2106/2115 09004KT CAVOK=
201904210800 TAF LRIA 210800Z 2109/2118 12004KT CAVOK=
201904211100 TAF LRIA 211100Z 2112/2121 11008KT CAVOK=
201904211400 TAF LRIA 211400Z 2115/2124 11010KT CAVOK=
201904211700 TAF LRIA 211700Z 2118/2203 12008KT CAVOK
                      PROB30 TEMPO 2119/2123 FEW040CB=
201904212000 TAF LRIA 212000Z 2121/2206 11006KT CAVOK=
201904212300 TAF LRIA 212300Z 2200/2209 12008KT CAVOK=
201904220200 TAF LRIA 220200Z 2203/2212 12008KT CAVOK=
201904220500 TAF LRIA 220500Z 2206/2215 11010KT CAVOK=
201904220800 TAF LRIA 220800Z 2209/2218 11008KT CAVOK=
201904221100 TAF LRIA 221100Z 2212/2221 13014KT CAVOK
                      BECMG 2215/2217 10004KT=
201904221400 TAF LRIA 221400Z 2215/2224 12006KT CAVOK=
201904221700 TAF LRIA 221700Z 2218/2303 VRB04KT CAVOK=
201904222000 TAF LRIA 222000Z 2221/2306 VRB04KT CAVOK=
201904222300 TAF LRIA 222300Z 2300/2309 VRB04KT CAVOK
                      BECMG 2307/2309 12010KT=
201904230200 TAF LRIA 230200Z 2303/2312 VRB04KT CAVOK
                      BECMG 2307/2309 12010KT=
201904230500 TAF LRIA 230500Z 2306/2315 VRB04KT CAVOK
                      BECMG 2307/2309 13010KT=
201904230800 TAF LRIA 230800Z 2309/2318 12010KT CAVOK=
201904231100 TAF LRIA 231100Z 2312/2321 13015KT CAVOK=
201904231400 TAF LRIA 231400Z 2315/2324 14015KT CAVOK
                      BECMG 2322/2324 14005KT=
201904231700 TAF LRIA 231700Z 2318/2403 14008KT CAVOK=
201904232000 TAF LRIA 232000Z 2321/2406 14010KT CAVOK=
201904232300 TAF LRIA 232300Z 2400/2409 12008KT CAVOK=
201904240200 TAF LRIA 240200Z 2403/2412 12008KT CAVOK=
201904240500 TAF LRIA 240500Z 2406/2415 12012KT CAVOK=
201904240800 TAF LRIA 240800Z 2409/2418 13015KT CAVOK
                      BECMG 2416/2418 17005KT=
201904241100 TAF LRIA 241100Z 2412/2421 13015KT CAVOK
                      BECMG 2416/2418 17005KT=
201904241400 TAF LRIA 241400Z 2415/2424 13016KT CAVOK
                      BECMG 2416/2418 16005KT=
201904241700 TAF LRIA 241700Z 2418/2503 15007KT CAVOK=
201904242000 TAF LRIA 242000Z 2421/2506 14007KT CAVOK=
201904242300 TAF LRIA 242300Z 2500/2509 16008KT CAVOK=
201904250200 TAF LRIA 250200Z 2503/2512 11008KT CAVOK
                      TEMPO 2508/2512 11015G25KT=
201904250500 TAF LRIA 250500Z 2506/2515 11010KT CAVOK
                      TEMPO 2508/2513 14015G25KT=
201904250800 TAF LRIA 250800Z 2509/2518 16016KT CAVOK
                      BECMG 2516/2518 15006KT=
201904251100 TAF LRIA 251100Z 2512/2521 16015KT CAVOK
                      BECMG 2517/2519 15005KT=
201904251400 TAF LRIA 251400Z 2515/2524 16013KT CAVOK
                      BECMG 2517/2519 VRB03KT=
201904251700 TAF LRIA 251700Z 2518/2603 15008KT CAVOK
                      PROB40 TEMPO 2519/2523 FEW045CB=
201904252000 TAF LRIA 252000Z 2521/2606 15008KT CAVOK=
201904252300 TAF LRIA 252300Z 2600/2609 14008KT CAVOK=
201904260200 TAF LRIA 260200Z 2603/2612 12010KT CAVOK=
201904260500 TAF LRIA 260500Z 2606/2615 12014KT CAVOK=
201904260800 TAF LRIA 260800Z 2609/2618 12014KT CAVOK
                      TEMPO 2611/2615 SCT030CB=
201904261100 TAF LRIA 261100Z 2612/2621 14012KT CAVOK
                      TEMPO 2612/2616 SCT030CB=
201904261400 TAF LRIA 261400Z 2615/2624 17010KT CAVOK
                      TEMPO 2615/2617 SCT030CB=
201904261700 TAF LRIA 261700Z 2618/2703 17006KT CAVOK=
201904262000 TAF LRIA 262000Z 2621/2706 12006KT CAVOK=
201904262300 TAF LRIA 262300Z 2700/2709 12006KT CAVOK=
201904270200 TAF LRIA 270200Z 2703/2712 12009KT CAVOK
                      BECMG 2704/2706 19010KT=
201904270500 TAF LRIA 270500Z 2706/2715 12010KT CAVOK
                      BECMG 2707/2709 19014KT=
201904270800 TAF LRIA 270800Z 2709/2718 16010KT CAVOK=
201904271100 TAF LRIA 271100Z 2712/2721 17008KT CAVOK=
201904271400 TAF LRIA 271400Z 2715/2724 17010KT CAVOK=
201904271700 TAF LRIA 271700Z 2718/2803 16010KT CAVOK=
201904272000 TAF LRIA 272000Z 2721/2806 12008KT CAVOK=
201904272300 TAF LRIA 272300Z 2800/2809 12008KT CAVOK=
201904280200 TAF LRIA 280200Z 2803/2812 12008KT CAVOK=
201904280500 TAF LRIA 280500Z 2806/2815 10006KT CAVOK
                      BECMG 2812/2814 20010KT
                      TEMPO 2814/2815 SCT040CB=
201904280800 TAF LRIA 280800Z 2809/2818 10006KT CAVOK
                      TEMPO 2811/2816 20010KT
                      TEMPO 2814/2818 SCT040CB=
201904281100 TAF LRIA 281100Z 2812/2821 20008KT CAVOK
                      TEMPO 2814/2818 SCT040CB
                      PROB40 TEMPO 2815/2818 VRB20G30KT 5000 TSRA=
201904281400 TAF LRIA 281400Z 2815/2824 26008KT CAVOK
                      TEMPO 2815/2819 SCT045CB
                      PROB40 TEMPO 2816/2819 VRB20G30KT 5000 TSRA=
201904281700 TAF LRIA 281700Z 2818/2903 26008KT CAVOK
                      TEMPO 2818/2820 SCT040CB
                      TEMPO 2900/2903 3000 BR=
201904282000 TAF LRIA 282000Z 2821/2906 VRB04KT CAVOK
                      TEMPO 2900/2906 3000 BR=
201904282300 TAF LRIA 282300Z 2900/2909 VRB04KT CAVOK
                      TEMPO 2901/2906 3000 BR=
201904290200 TAF LRIA 290200Z 2903/2912 VRB04KT CAVOK=
201904290500 TAF LRIA 290500Z 2906/2915 VRB04KT CAVOK=
201904290800 TAF LRIA 290800Z 2909/2918 VRB04KT CAVOK=
201904291100 TAF LRIA 291100Z 2912/2921 VRB04KT CAVOK=
201904291400 TAF LRIA 291400Z 2915/2924 VRB04KT CAVOK=
201904291700 TAF LRIA 291700Z 2918/3003 VRB04KT CAVOK=
201904292000 TAF LRIA 292000Z 2921/3006 VRB04KT CAVOK=
201904292300 TAF LRIA 292300Z 3000/3009 VRB04KT CAVOK=
201904300200 TAF LRIA 300200Z 3003/3012 VRB04KT CAVOK=
201904300500 TAF LRIA 300500Z 3006/3015 VRB04KT CAVOK
                      TEMPO 3012/3015 SCT035CB=
201904300800 TAF LRIA 300800Z 3009/3018 VRB04KT CAVOK
                      TEMPO 3012/3015 SCT035CB
                      TEMPO 3015/3018 VRB15G25KT 5000 TSRA SCT010
                       BKN030CB=
201904301100 TAF LRIA 301100Z 3012/3021 VRB04KT CAVOK
                      TEMPO 3012/3016 5000 SHRA SCT035CB
                      TEMPO 3016/3020 VRB15G25KT 5000 TSRA SCT010
                       BKN030CB=
201904301400 TAF LRIA 301400Z 3015/3024 VRB04KT CAVOK
                      PROB40 TEMPO 3015/3018 5000 SHRA SCT035CB
                       TEMPO 3018/3022 VRB15G25KT 5000 TSRA SCT010
                       BKN030CB=
201904301700 TAF LRIA 301700Z 3018/0103 09010KT 9999 SCT050CB
                      TEMPO 3018/3020 3000 TSRA
                      TEMPO 3020/3023 5000 -SHRA
                      BECMG 3023/0101 24008KT NSC=
201904302000 TAF LRIA 302000Z 3021/0106 VRB04KT CAVOK=
201904302300 TAF LRIA 302300Z 0100/0109 23008KT 9999 SCT025=
