201904010000 METAR LRIA 010000Z 26003KT CAVOK 05/M00 Q1015=
201904010030 METAR LRIA 010030Z 28003KT CAVOK 05/M01 Q1015=
201904010100 METAR LRIA 010100Z 25003KT CAVOK 05/M00 Q1015=
201904010130 METAR LRIA 010130Z 22005KT CAVOK 05/M00 Q1016=
201904010200 METAR LRIA 010200Z 25005KT CAVOK 06/M00 Q1016=
201904010230 METAR LRIA 010230Z 25005KT CAVOK 06/M00 Q1016=
201904010300 METAR LRIA 010300Z 27004KT CAVOK 06/M00 Q1016=
201904010330 METAR LRIA 010330Z 27005KT CAVOK 05/M01 Q1016=
201904010400 METAR LRIA 010400Z 27004KT CAVOK 03/M01 Q1017=
201904010430 METAR LRIA 010430Z 27005KT CAVOK 05/M01 Q1017=
201904010500 METAR LRIA 010500Z 24004KT CAVOK 05/M00 Q1018=
201904010530 METAR LRIA 010530Z 24004KT CAVOK 06/00 Q1018=
201904010600 METAR LRIA 010600Z 29005KT CAVOK 09/01 Q1018=
201904010630 METAR LRIA 010630Z 29005KT 250V320 CAVOK 10/01 Q1018=
201904010700 METAR LRIA 010700Z 31004KT 260V010 CAVOK 12/01 Q1019=
201904010730 METAR LRIA 010730Z 32010KT CAVOK 13/02 Q1019=
201904010800 METAR LRIA 010800Z 33011KT CAVOK 14/03 Q1019=
201904010830 METAR LRIA 010830Z 33012KT CAVOK 15/02 Q1019=
201904010900 METAR LRIA 010900Z 32011KT CAVOK 16/02 Q1019=
201904010930 METAR LRIA 010930Z 34014KT CAVOK 16/02 Q1019=
201904011000 METAR LRIA 011000Z 33015KT CAVOK 17/03 Q1019=
201904011030 METAR LRIA 011030Z 32015KT CAVOK 17/03 Q1019=
201904011100 METAR LRIA 011100Z 33017KT CAVOK 17/03 Q1018=
201904011130 METAR LRIA 011130Z 33017G27KT CAVOK 17/03 Q1018=
201904011200 METAR LRIA 011200Z 32018KT CAVOK 17/02 Q1018=
201904011230 METAR LRIA 011230Z 33020G30KT CAVOK 15/M01 Q1019=
201904011300 METAR LRIA 011300Z 33020KT CAVOK 14/M01 Q1019=
201904011330 METAR LRIA 011330Z 34022KT CAVOK 14/M02 Q1019=
201904011400 METAR LRIA 011400Z 35021KT CAVOK 14/M01 Q1019=
201904011430 METAR LRIA 011430Z 34018KT CAVOK 14/M01 Q1019=
201904011500 METAR LRIA 011500Z 34018G28KT CAVOK 13/M03 Q1020=
201904011530 METAR LRIA 011530Z 34015KT CAVOK 13/M05 Q1020=
201904011600 METAR LRIA 011600Z 33013KT CAVOK 11/M05 Q1020=
201904011630 METAR LRIA 011630Z 34013KT CAVOK 11/M05 Q1020=
201904011700 METAR LRIA 011700Z 32008KT CAVOK 11/M03 Q1021=
201904011730 METAR COR LRIA 011730Z 32009KT CAVOK 10/M03 Q1021=
201904011800 METAR LRIA 011800Z 31009KT CAVOK 10/M03 Q1022=
201904011830 METAR LRIA 011830Z 32009KT CAVOK 10/M03 Q1022=
201904011900 METAR LRIA 011900Z 33007KT CAVOK 10/M03 Q1022=
201904011930 METAR LRIA 011930Z 33006KT CAVOK 09/M04 Q1022=
201904012000 METAR LRIA 012000Z 35009KT CAVOK 10/M06 Q1023=
201904012030 METAR LRIA 012030Z 35010KT CAVOK 09/M07 Q1023=
201904012100 METAR LRIA 012100Z 36011KT CAVOK 08/M08 Q1023=
201904012130 METAR LRIA 012130Z 01012KT CAVOK 08/M08 Q1023=
201904012200 METAR COR LRIA 012200Z 01011KT CAVOK 07/M08 Q1023=
201904012230 METAR LRIA 012230Z 01010KT CAVOK 06/M08 Q1023=
201904012300 METAR LRIA 012300Z 01010KT CAVOK 06/M08 Q1024=
201904012330 METAR LRIA 012330Z 02011KT CAVOK 06/M09 Q1024=
201904020000 METAR LRIA 020000Z 02011KT CAVOK 06/M09 Q1024=
201904020030 METAR LRIA 020030Z 02010KT CAVOK 05/M10 Q1024=
201904020100 METAR LRIA 020100Z AUTO 03008KT 9999 NCD 05/M10 Q1025=
201904020130 METAR COR LRIA 020130Z 02009KT CAVOK 04/M10 Q1025=
201904020200 METAR LRIA 020200Z 01008KT CAVOK 04/M10 Q1025=
201904020230 METAR COR LRIA 020230Z 02009KT CAVOK 03/M10 Q1025=
201904020300 METAR LRIA 020300Z AUTO 36007KT 9999 NCD 02/M10 Q1026=
201904020330 METAR LRIA 020330Z 36006KT CAVOK 02/M10 Q1026=
201904020400 METAR LRIA 020400Z 36006KT CAVOK 02/M10 Q1026=
201904020430 METAR LRIA 020430Z 33006KT CAVOK 01/M09 Q1027=
201904020500 METAR LRIA 020500Z 32005KT CAVOK 03/M09 Q1027=
201904020530 METAR LRIA 020530Z 33005KT 290V030 CAVOK 04/M09 Q1027=
201904020600 METAR LRIA 020600Z 02009KT CAVOK 05/M09 Q1027=
201904020630 METAR LRIA 020630Z 03010KT CAVOK 06/M09 Q1027=
201904020700 METAR LRIA 020700Z 03013KT CAVOK 07/M10 Q1027=
201904020730 METAR LRIA 020730Z 05016KT CAVOK 08/M11 Q1027=
201904020800 METAR LRIA 020800Z 02012KT 350V060 CAVOK 08/M10 Q1027=
201904020830 METAR LRIA 020830Z 03015KT CAVOK 09/M12 Q1027=
201904020900 METAR LRIA 020900Z 01010KT 320V040 CAVOK 09/M12 Q1026=
201904020930 METAR LRIA 020930Z 01010KT CAVOK 10/M10 Q1026=
201904021000 METAR LRIA 021000Z 06010KT 010V140 CAVOK 10/M10 Q1026=
201904021030 METAR LRIA 021030Z 02010KT 350V060 CAVOK 10/M10 Q1025=
201904021100 METAR LRIA 021100Z 04011KT CAVOK 10/M11 Q1025=
201904021130 METAR LRIA 021130Z 01010KT CAVOK 11/M12 Q1025=
201904021200 METAR LRIA 021200Z 01011KT 340V040 CAVOK 12/M11 Q1024=
201904021230 METAR LRIA 021230Z 07007KT 040V100 CAVOK 11/M12 Q1024=
201904021300 METAR LRIA 021300Z 05010KT CAVOK 12/M12 Q1024=
201904021330 METAR LRIA 021330Z 36008KT CAVOK 12/M11 Q1024=
201904021400 METAR LRIA 021400Z 07010KT 020V090 CAVOK 12/M12 Q1024=
201904021430 METAR LRIA 021430Z 02010KT CAVOK 12/M13 Q1024=
201904021500 METAR LRIA 021500Z 05009KT CAVOK 12/M13 Q1023=
201904021530 METAR LRIA 021530Z 04009KT CAVOK 11/M12 Q1023=
201904021600 METAR LRIA 021600Z 02006KT CAVOK 11/M12 Q1023=
201904021630 METAR LRIA 021630Z 04007KT CAVOK 09/M12 Q1024=
201904021700 METAR LRIA 021700Z 03008KT CAVOK 08/M12 Q1024=
201904021730 METAR LRIA 021730Z 03008KT CAVOK 07/M12 Q1024=
201904021800 METAR LRIA 021800Z 04007KT CAVOK 06/M12 Q1024=
201904021830 METAR LRIA 021830Z 04007KT CAVOK 05/M12 Q1024=
201904021900 METAR LRIA 021900Z 07004KT 050V120 CAVOK 05/M12 Q1025=
201904021930 METAR LRIA 021930Z 09005KT CAVOK 06/M12 Q1025=
201904022000 METAR LRIA 022000Z 07004KT CAVOK 06/M13 Q1025=
201904022030 METAR LRIA 022030Z 09004KT CAVOK 05/M12 Q1025=
201904022100 METAR LRIA 022100Z 09006KT CAVOK 05/M13 Q1025=
201904022130 METAR LRIA 022130Z 08006KT CAVOK 04/M13 Q1025=
201904022200 METAR LRIA 022200Z 07007KT CAVOK 04/M13 Q1024=
201904022230 METAR LRIA 022230Z 08007KT CAVOK 04/M13 Q1024=
201904022300 METAR LRIA 022300Z 08006KT CAVOK 04/M13 Q1024=
201904022330 METAR LRIA 022330Z 08006KT CAVOK 03/M13 Q1024=
201904030000 METAR LRIA 030000Z 08005KT 9999 NCD 03/M13 Q1024=
201904030030 METAR LRIA 030030Z 08005KT CAVOK 03/M13 Q1024=
201904030100 METAR LRIA 030100Z 08005KT CAVOK 02/M13 Q1024=
201904030130 METAR LRIA 030130Z 08005KT CAVOK 02/M13 Q1023=
201904030200 METAR LRIA 030200Z 08005KT CAVOK 02/M13 Q1023=
201904030230 METAR LRIA 030230Z 08005KT CAVOK 01/M13 Q1023=
201904030300 METAR LRIA 030300Z 09006KT CAVOK 02/M13 Q1023=
201904030330 METAR LRIA 030330Z 09006KT CAVOK 01/M13 Q1023=
201904030400 METAR LRIA 030400Z 11003KT 080V160 CAVOK 01/M13 Q1024=
201904030430 METAR LRIA 030430Z 08002KT CAVOK 01/M13 Q1024=
201904030500 METAR LRIA 030500Z 09004KT CAVOK 02/M11 Q1024=
201904030530 METAR LRIA 030530Z 09005KT CAVOK 03/M11 Q1024=
201904030600 METAR LRIA 030600Z 10007KT CAVOK 05/M11 Q1024=
201904030630 METAR LRIA 030630Z 10009KT CAVOK 06/M10 Q1024=
201904030700 METAR LRIA 030700Z 11009KT CAVOK 07/M09 Q1024=
201904030730 METAR LRIA 030730Z 11011KT CAVOK 08/M09 Q1024=
201904030800 METAR LRIA 030800Z 12014KT CAVOK 10/M10 Q1024=
201904030830 METAR LRIA 030830Z 12015KT CAVOK 10/M11 Q1023=
201904030900 METAR LRIA 030900Z 16008KT CAVOK 10/M12 Q1023=
201904030930 METAR LRIA 030930Z 16008KT 080V210 CAVOK 11/M10 Q1023=
201904031000 METAR LRIA 031000Z 15012KT 120V180 CAVOK 11/M10 Q1023=
201904031030 METAR COR LRIA 031030Z 12012KT 090V150 CAVOK 11/M11 Q1022=
201904031100 METAR LRIA 031100Z 12009KT CAVOK 12/M11 Q1022=
201904031130 METAR LRIA 031130Z 11010KT CAVOK 11/M12 Q1022=
201904031200 METAR LRIA 031200Z 10013KT 080V170 CAVOK 12/M12 Q1021=
201904031230 METAR LRIA 031230Z 11013KT CAVOK 12/M12 Q1021=
201904031300 METAR LRIA 031300Z 13008KT 110V170 CAVOK 12/M12 Q1020=
201904031330 METAR LRIA 031330Z 10012KT 080V140 CAVOK 12/M11 Q1020=
201904031400 METAR LRIA 031400Z 11013KT CAVOK 12/M11 Q1020=
201904031430 METAR LRIA 031430Z 12012KT CAVOK 12/M11 Q1020=
201904031500 METAR LRIA 031500Z 11012KT CAVOK 12/M12 Q1020=
201904031530 METAR LRIA 031530Z 12011KT CAVOK 12/M11 Q1020=
201904031600 METAR LRIA 031600Z 12011KT CAVOK 11/M12 Q1019=
201904031630 METAR LRIA 031630Z 12008KT CAVOK 09/M11 Q1019=
201904031700 METAR LRIA 031700Z 12008KT CAVOK 08/M11 Q1019=
201904031730 METAR LRIA 031730Z 12007KT CAVOK 07/M10 Q1020=
201904031800 METAR LRIA 031800Z 12008KT CAVOK 07/M11 Q1020=
201904031830 METAR LRIA 031830Z 11008KT CAVOK 05/M11 Q1020=
201904031900 METAR LRIA 031900Z 09008KT CAVOK 06/M11 Q1020=
201904031930 METAR LRIA 031930Z 09009KT CAVOK 05/M11 Q1020=
201904032000 METAR LRIA 032000Z 11010KT CAVOK 06/M11 Q1020=
201904032030 METAR LRIA 032030Z 18006KT 140V210 CAVOK 06/M09 Q1020=
201904032100 METAR LRIA 032100Z 18004KT 150V210 CAVOK 06/M09 Q1020=
201904032130 METAR LRIA 032130Z 15005KT 100V190 CAVOK 05/M09 Q1020=
201904032200 METAR LRIA 032200Z 17006KT CAVOK 05/M09 Q1020=
201904032230 METAR LRIA 032230Z 18007KT CAVOK 05/M10 Q1020=
201904032300 METAR LRIA 032300Z 16008KT CAVOK 05/M10 Q1020=
201904032330 METAR LRIA 032330Z 16006KT CAVOK 03/M09 Q1019=
201904040000 METAR LRIA 040000Z 15005KT CAVOK 03/M08 Q1019=
201904040030 METAR LRIA 040030Z 15006KT CAVOK 03/M08 Q1019=
201904040100 METAR LRIA 040100Z 11005KT CAVOK 03/M09 Q1019=
201904040130 METAR LRIA 040130Z 11007KT CAVOK 02/M09 Q1019=
201904040200 METAR LRIA 040200Z 11006KT CAVOK 01/M09 Q1019=
201904040230 METAR LRIA 040230Z 11007KT CAVOK 01/M10 Q1019=
201904040300 METAR LRIA 040300Z 11007KT CAVOK 01/M10 Q1019=
201904040330 METAR LRIA 040330Z 11008KT CAVOK 01/M09 Q1019=
201904040400 METAR LRIA 040400Z 11008KT CAVOK 01/M09 Q1019=
201904040430 METAR LRIA 040430Z 12010KT 090V150 CAVOK 02/M09 Q1019=
201904040500 METAR LRIA 040500Z 11011KT CAVOK 02/M08 Q1019=
201904040530 METAR LRIA 040530Z 11010KT CAVOK 03/M08 Q1019=
201904040600 METAR LRIA 040600Z 11011KT CAVOK 05/M07 Q1019=
201904040630 METAR LRIA 040630Z 11010KT CAVOK 06/M06 Q1019=
201904040700 METAR LRIA 040700Z 12010KT CAVOK 08/M06 Q1019=
201904040730 METAR LRIA 040730Z 14013KT CAVOK 10/M09 Q1019=
201904040800 METAR COR LRIA 040800Z 15016KT 120V180 CAVOK 10/M09 Q1019=
201904040830 METAR LRIA 040830Z 15016KT CAVOK 11/M10 Q1019=
201904040900 METAR LRIA 040900Z 13019KT CAVOK 11/M11 Q1018=
201904040930 METAR LRIA 040930Z 15017KT CAVOK 12/M11 Q1018=
201904041000 METAR LRIA 041000Z 15018KT CAVOK 12/M13 Q1018=
201904041030 METAR LRIA 041030Z 14016KT CAVOK 12/M12 Q1018=
201904041100 METAR LRIA 041100Z 15014KT CAVOK 12/M12 Q1017=
201904041130 METAR LRIA 041130Z 15014KT CAVOK 13/M10 Q1017=
201904041200 METAR LRIA 041200Z 15014KT CAVOK 14/M08 Q1017=
201904041230 METAR LRIA 041230Z 17011G22KT 150V240 CAVOK 14/M08 Q1016=
201904041300 METAR LRIA 041300Z 16014KT CAVOK 14/M09 Q1016=
201904041330 METAR LRIA 041330Z 14016KT CAVOK 14/M07 Q1016=
201904041400 METAR LRIA 041400Z 17012KT CAVOK 13/M07 Q1015=
201904041430 METAR LRIA 041430Z 16012KT 130V200 CAVOK 13/M08 Q1015=
201904041500 METAR LRIA 041500Z 16013KT CAVOK 13/M08 Q1015=
201904041530 METAR LRIA 041530Z 16011KT CAVOK 13/M07 Q1015=
201904041600 METAR LRIA 041600Z 14013KT CAVOK 12/M06 Q1015=
201904041630 METAR LRIA 041630Z 14013KT CAVOK 11/M06 Q1015=
201904041700 METAR LRIA 041700Z 13009KT CAVOK 09/M06 Q1015=
201904041730 METAR LRIA 041730Z 13009KT CAVOK 09/M05 Q1015=
201904041800 METAR LRIA 041800Z 13010KT CAVOK 08/M05 Q1015=
201904041830 METAR LRIA 041830Z 13011KT CAVOK 08/M05 Q1016=
201904041900 METAR COR LRIA 041900Z 14011KT CAVOK 08/M05 Q1016=
201904041930 METAR LRIA 041930Z 13011KT CAVOK 08/M05 Q1016=
201904042000 METAR COR LRIA 042000Z 13012KT CAVOK 07/M04 Q1016=
201904042030 METAR LRIA 042030Z 12011KT CAVOK 06/M04 Q1016=
201904042100 METAR LRIA 042100Z 11011KT CAVOK 05/M04 Q1016=
201904042130 METAR LRIA 042130Z 11011KT CAVOK 04/M04 Q1017=
201904042200 METAR LRIA 042200Z 11011KT CAVOK 04/M04 Q1017=
201904042230 METAR LRIA 042230Z 12010KT CAVOK 05/M04 Q1017=
201904042300 METAR LRIA 042300Z 12010KT CAVOK 05/M04 Q1017=
201904042330 METAR COR LRIA 042330Z 15009KT CAVOK 05/M03 Q1017=
201904050000 METAR LRIA 050000Z AUTO 14009KT 9999 NCD 05/M03 Q1016=
201904050030 METAR LRIA 050030Z AUTO 19006KT 150V220 9999 NCD 05/M02 Q1016=
201904050100 METAR LRIA 050100Z 12008KT 9999 NCD 05/M02 Q1016=
201904050130 METAR COR LRIA 050130Z 14008KT 9999 NCD 04/M02 Q1016=
201904050200 METAR COR LRIA 050200Z 11008KT CAVOK 02/M03 Q1016=
201904050230 METAR LRIA 050230Z AUTO 11008KT 9999 NCD 02/M03 Q1016=
201904050300 METAR COR LRIA 050300Z 11010KT CAVOK 02/M03 Q1016=
201904050330 METAR LRIA 050330Z 11009KT CAVOK 02/M03 Q1016=
201904050400 METAR LRIA 050400Z 11010KT CAVOK 02/M02 Q1016=
201904050430 METAR LRIA 050430Z 12011KT CAVOK 02/M02 Q1017=
201904050500 METAR LRIA 050500Z 12012KT CAVOK 03/M01 Q1017=
201904050530 METAR LRIA 050530Z 12011KT CAVOK 04/M01 Q1017=
201904050600 METAR LRIA 050600Z 11011KT 9999 FEW020 06/M01 Q1017=
201904050630 METAR LRIA 050630Z 15010KT 120V200 9999 FEW025 08/00 Q1017=
201904050700 METAR LRIA 050700Z 17009KT 150V210 9999 FEW030 08/M00 Q1017=
201904050730 METAR LRIA 050730Z 17011KT 120V200 9999 FEW030 10/00 Q1017=
201904050800 METAR LRIA 050800Z 18013KT 150V210 9999 FEW030 10/M01 Q1017=
201904050830 METAR LRIA 050830Z 17012KT 9999 FEW045 11/M01 Q1017=
201904050900 METAR LRIA 050900Z 17013KT 140V200 CAVOK 12/M01 Q1017=
201904050930 METAR LRIA 050930Z 16014G24KT CAVOK 12/M01 Q1017=
201904051000 METAR LRIA 051000Z 15016KT CAVOK 13/M00 Q1016=
201904051030 METAR LRIA 051030Z 15017KT CAVOK 13/M01 Q1016=
201904051100 METAR LRIA 051100Z 15014G24KT 130V190 CAVOK 14/M00 Q1016=
201904051130 METAR LRIA 051130Z 15016KT CAVOK 14/M00 Q1016=
201904051200 METAR LRIA 051200Z 17015KT CAVOK 14/M00 Q1015=
201904051230 METAR LRIA 051230Z 15018KT CAVOK 14/M00 Q1015=
201904051300 METAR LRIA 051300Z 16015KT 130V190 CAVOK 15/M01 Q1015=
201904051330 METAR LRIA 051330Z 16016KT CAVOK 15/M00 Q1015=
201904051400 METAR LRIA 051400Z 16017KT 140V200 CAVOK 15/M00 Q1014=
201904051430 METAR LRIA 051430Z 16014KT CAVOK 14/M00 Q1014=
201904051500 METAR LRIA 051500Z 16016KT CAVOK 14/M00 Q1014=
201904051530 METAR LRIA 051530Z 17013KT CAVOK 14/M00 Q1014=
201904051600 METAR LRIA 051600Z 16014KT CAVOK 13/M00 Q1014=
201904051630 METAR LRIA 051630Z 15013KT CAVOK 12/M00 Q1014=
201904051700 METAR LRIA 051700Z 15013KT CAVOK 12/M00 Q1015=
201904051730 METAR LRIA 051730Z 15012KT CAVOK 10/M00 Q1015=
201904051800 METAR LRIA 051800Z 13013KT CAVOK 10/M00 Q1015=
201904051830 METAR LRIA 051830Z 13012KT CAVOK 09/M01 Q1015=
201904051900 METAR LRIA 051900Z 13013KT CAVOK 08/M00 Q1016=
201904051930 METAR LRIA 051930Z 12014KT CAVOK 08/M00 Q1016=
201904052000 METAR LRIA 052000Z 12014KT CAVOK 07/00 Q1016=
201904052030 METAR LRIA 052030Z 13014KT CAVOK 07/M00 Q1016=
201904052100 METAR LRIA 052100Z 13013KT CAVOK 06/M00 Q1016=
201904052130 METAR LRIA 052130Z 12013KT CAVOK 06/M00 Q1016=
201904052200 METAR LRIA 052200Z 08009KT 060V130 CAVOK 04/M01 Q1016=
201904052230 METAR LRIA 052230Z 09011KT CAVOK 04/M01 Q1016=
201904052300 METAR LRIA 052300Z 11011KT CAVOK 04/M01 Q1016=
201904052330 METAR LRIA 052330Z 12010KT 9999 SCT017 04/M00 Q1016=
201904060000 METAR LRIA 060000Z 12008KT 9999 BKN019 05/M00 Q1017=
201904060030 METAR LRIA 060030Z 12011KT 9999 OVC019 05/M00 Q1016=
201904060100 METAR LRIA 060100Z 11012KT 9999 OVC020 05/00 Q1016=
201904060130 METAR LRIA 060130Z 11012KT 9999 OVC020 05/00 Q1016=
201904060200 METAR LRIA 060200Z 12011KT 9999 OVC020 04/01 Q1016=
201904060230 METAR LRIA 060230Z 12011KT 9999 OVC020 05/01 Q1016=
201904060300 METAR LRIA 060300Z 13012KT 9999 OVC020 05/01 Q1016=
201904060330 METAR LRIA 060330Z 12010KT 9999 OVC021 05/01 Q1016=
201904060400 METAR LRIA 060400Z 11010KT 9999 BKN022 06/02 Q1016=
201904060430 METAR LRIA 060430Z 11010KT 9999 BKN022 06/02 Q1016=
201904060500 METAR LRIA 060500Z 12010KT 9999 OVC020 06/02 Q1016=
201904060530 METAR LRIA 060530Z 14010KT 9999 BKN019 07/02 Q1016=
201904060600 METAR LRIA 060600Z 14010KT 9999 BKN017 SCT022 09/02 Q1016=
201904060630 METAR COR LRIA 060630Z 17011KT 140V210 9999 SCT023 08/01
                        Q1017=
201904060700 METAR LRIA 060700Z 14013KT 9999 SCT026 10/01 Q1017=
201904060730 METAR LRIA 060730Z 12014KT 9999 BKN028 10/02 Q1017=
201904060800 METAR LRIA 060800Z 11014KT 9999 SCT030 11/02 Q1017=
201904060830 METAR LRIA 060830Z 13016KT 9999 SCT032 12/01 Q1016=
201904060900 METAR LRIA 060900Z 13018KT CAVOK 12/M00 Q1016=
201904060930 METAR LRIA 060930Z 16017KT CAVOK 13/00 Q1016=
201904061000 METAR LRIA 061000Z 14018KT CAVOK 14/M00 Q1016=
201904061030 METAR LRIA 061030Z 15014KT CAVOK 14/M01 Q1016=
201904061100 METAR LRIA 061100Z 14014KT 120V180 CAVOK 15/M01 Q1015=
201904061130 METAR LRIA 061130Z 15013KT CAVOK 16/M01 Q1015=
201904061200 METAR LRIA 061200Z 15016KT CAVOK 16/M02 Q1015=
201904061230 METAR LRIA 061230Z 15016KT CAVOK 17/M03 Q1014=
201904061300 METAR LRIA 061300Z 15016KT CAVOK 17/M03 Q1014=
201904061330 METAR LRIA 061330Z 15017KT CAVOK 17/M03 Q1014=
201904061400 METAR LRIA 061400Z 14017KT CAVOK 17/M03 Q1014=
201904061430 METAR LRIA 061430Z 14016KT CAVOK 17/M03 Q1013=
201904061500 METAR LRIA 061500Z 15015KT CAVOK 16/M04 Q1013=
201904061530 METAR COR LRIA 061530Z 14015KT CAVOK 16/M05 Q1013=
201904061600 METAR LRIA 061600Z 14013KT CAVOK 15/M05 Q1013=
201904061630 METAR LRIA 061630Z 14013KT CAVOK 14/M05 Q1014=
201904061700 METAR LRIA 061700Z 13012KT CAVOK 13/M04 Q1014=
201904061730 METAR LRIA 061730Z 13012KT CAVOK 13/M03 Q1014=
201904061800 METAR LRIA 061800Z 13012KT CAVOK 12/M03 Q1014=
201904061830 METAR LRIA 061830Z 14010KT CAVOK 11/M03 Q1014=
201904061900 METAR LRIA 061900Z 15012KT CAVOK 11/M02 Q1014=
201904061930 METAR LRIA 061930Z 15013KT CAVOK 11/M01 Q1014=
201904062000 METAR LRIA 062000Z 13009KT CAVOK 09/M01 Q1014=
201904062030 METAR LRIA 062030Z 12008KT CAVOK 08/M01 Q1014=
201904062100 METAR LRIA 062100Z 12006KT CAVOK 08/M02 Q1014=
201904062130 METAR LRIA 062130Z 11009KT CAVOK 08/M01 Q1014=
201904062200 METAR LRIA 062200Z 13009KT CAVOK 07/M01 Q1014=
201904062230 METAR LRIA 062230Z 12011KT CAVOK 07/M01 Q1013=
201904062300 METAR LRIA 062300Z 12009KT CAVOK 07/M01 Q1013=
201904062330 METAR LRIA 062330Z 09007KT CAVOK 06/M01 Q1013=
201904070000 METAR LRIA 070000Z 08009KT CAVOK 06/M01 Q1013=
201904070030 METAR LRIA 070030Z 11010KT CAVOK 06/M01 Q1012=
201904070100 METAR LRIA 070100Z 13008KT CAVOK 04/M01 Q1012=
201904070130 METAR LRIA 070130Z 13007KT CAVOK 05/M01 Q1012=
201904070200 METAR LRIA 070200Z 10007KT CAVOK 04/M01 Q1012=
201904070230 METAR LRIA 070230Z 09007KT CAVOK 05/M01 Q1012=
201904070300 METAR LRIA 070300Z 12006KT CAVOK 05/M01 Q1012=
201904070330 METAR LRIA 070330Z 10009KT CAVOK 05/M01 Q1012=
201904070400 METAR LRIA 070400Z 10009KT CAVOK 05/M00 Q1012=
201904070430 METAR LRIA 070430Z 10009KT CAVOK 05/M00 Q1012=
201904070500 METAR LRIA 070500Z 11010KT CAVOK 05/00 Q1011=
201904070530 METAR LRIA 070530Z 10009KT CAVOK 06/00 Q1012=
201904070600 METAR LRIA 070600Z 10010KT CAVOK 07/01 Q1012=
201904070630 METAR LRIA 070630Z 11011KT CAVOK 08/01 Q1012=
201904070700 METAR LRIA 070700Z 12010KT CAVOK 10/01 Q1012=
201904070730 METAR LRIA 070730Z 12012KT CAVOK 11/01 Q1011=
201904070800 METAR LRIA 070800Z 12013KT CAVOK 13/01 Q1011=
201904070830 METAR LRIA 070830Z 12014KT CAVOK 15/02 Q1011=
201904070900 METAR LRIA 070900Z 14011KT 110V170 CAVOK 17/01 Q1011=
201904070930 METAR LRIA 070930Z 17009KT 140V210 CAVOK 17/00 Q1011=
201904071000 METAR LRIA 071000Z 17010KT 140V200 CAVOK 18/01 Q1010=
201904071030 METAR LRIA 071030Z 17010KT CAVOK 19/01 Q1010=
201904071100 METAR LRIA 071100Z 18012KT CAVOK 19/00 Q1010=
201904071130 METAR LRIA 071130Z 16010KT 140V200 CAVOK 20/01 Q1010=
201904071200 METAR LRIA 071200Z 16010KT CAVOK 21/01 Q1010=
201904071230 METAR LRIA 071230Z 18011KT CAVOK 21/00 Q1010=
201904071300 METAR LRIA 071300Z 15013KT CAVOK 21/00 Q1009=
201904071330 METAR LRIA 071330Z 17011KT 140V200 CAVOK 22/00 Q1009=
201904071400 METAR LRIA 071400Z 16012KT CAVOK 21/M00 Q1009=
201904071430 METAR LRIA 071430Z 17012KT CAVOK 21/M00 Q1009=
201904071500 METAR LRIA 071500Z 16012KT CAVOK 21/M00 Q1009=
201904071530 METAR LRIA 071530Z 17011KT CAVOK 20/M01 Q1009=
201904071600 METAR LRIA 071600Z 16010KT CAVOK 20/M01 Q1009=
201904071630 METAR LRIA 071630Z 16009KT CAVOK 19/M01 Q1009=
201904071700 METAR LRIA 071700Z 16010KT CAVOK 19/M00 Q1009=
201904071730 METAR LRIA 071730Z 17012KT CAVOK 18/M01 Q1009=
201904071800 METAR LRIA 071800Z 15012KT CAVOK 17/M03 Q1010=
201904071830 METAR LRIA 071830Z 15010KT CAVOK 16/M03 Q1010=
201904071900 METAR LRIA 071900Z 15009KT CAVOK 15/M02 Q1010=
201904071930 METAR LRIA 071930Z 16008KT CAVOK 15/M02 Q1010=
201904072000 METAR LRIA 072000Z 14011KT CAVOK 15/M03 Q1010=
201904072030 METAR LRIA 072030Z 12008KT CAVOK 14/M02 Q1010=
201904072100 METAR LRIA 072100Z 11005KT CAVOK 13/M03 Q1010=
201904072130 METAR LRIA 072130Z 10010KT CAVOK 12/M03 Q1010=
201904072200 METAR COR LRIA 072200Z 10010KT CAVOK 12/M03 Q1010=
201904072230 METAR COR LRIA 072230Z 10009KT CAVOK 12/M02 Q1009=
201904072300 METAR LRIA 072300Z 09008KT CAVOK 11/M03 Q1009=
201904072330 METAR LRIA 072330Z 11009KT CAVOK 12/M02 Q1009=
201904080000 METAR LRIA 080000Z VRB01KT CAVOK 11/M02 Q1009=
201904080030 METAR LRIA 080030Z 09006KT CAVOK 11/M02 Q1008=
201904080100 METAR LRIA 080100Z 07007KT CAVOK 11/M02 Q1008=
201904080130 METAR LRIA 080130Z 09009KT CAVOK 11/M02 Q1008=
201904080200 METAR LRIA 080200Z 10009KT CAVOK 11/M01 Q1008=
201904080230 METAR COR LRIA 080230Z 11009KT 9999 -RA NSC 11/M01 Q1008=
201904080300 METAR COR LRIA 080300Z 10008KT 9999 -RA NSC 09/02 Q1008 R14/29//95=
201904080330 METAR LRIA 080330Z 10005KT 9999 -RA NSC 08/04 Q1008 R14/29//95=
201904080400 METAR LRIA 080400Z 10006KT 9999 -RA NSC 09/04 Q1009 R14/29//95=
201904080430 METAR LRIA 080430Z 10007KT 9999 -RA NSC 08/05 Q1009 R14/29//95=
201904080500 METAR LRIA 080500Z 11007KT 9999 -RA NSC 08/05 Q1009 R14/29//95=
201904080530 METAR LRIA 080530Z 11008KT 9999 -RA FEW015 08/06 Q1009 R14/29//95=
201904080600 METAR LRIA 080600Z 11007KT 9999 -RA FEW015 09/06 Q1009 R14/29//95=
201904080630 METAR LRIA 080630Z 11008KT 9999 -RA BKN013 09/06 Q1009 R14/29//95=
201904080700 METAR LRIA 080700Z 12010KT 9999 BKN010 09/06 Q1009 R14/29//95=
201904080730 METAR LRIA 080730Z 12010KT 9999 BKN009 10/07 Q1009 R14/29//95=
201904080800 METAR LRIA 080800Z 12010KT 9999 OVC009 10/07 Q1009 R14/29//95=
201904080830 METAR LRIA 080830Z 12010KT 9999 -RA OVC009 10/07 Q1009 R14/29//95=
201904080900 METAR LRIA 080900Z 12010KT 9999 SCT008 OVC010 10/08 Q1009
                        R14/29//95=
201904080930 METAR LRIA 080930Z 11010KT 9999 FEW006 OVC012 10/08 Q1009
                        R14/29//95=
201904081000 METAR LRIA 081000Z 11012KT 9999 SCT006 OVC015 11/08 Q1009
                        R14/29//95=
201904081030 METAR LRIA 081030Z 11011KT 9999 -RA FEW007 BKN017 11/08 Q1009
                        R14/29//95=
201904081100 METAR LRIA 081100Z 11011KT 9999 FEW009 SCT020 BKN027 12/09
                        Q1009 R14/29//95=
201904081130 METAR LRIA 081130Z 12011KT 9999 -RA FEW009 BKN017 11/08 Q1009
                        R14/29//95=
201904081200 METAR LRIA 081200Z 12011KT 9999 -RA SCT010 BKN020 12/09 Q1009
                        R14/29//95=
201904081230 METAR LRIA 081230Z 12009KT 8000 -RA SCT006 BKN015 OVC030
                        11/09 Q1009 R14/29//95=
201904081300 METAR LRIA 081300Z 12008KT 8000 -RA SCT004 BKN013 OVC027
                        11/09 Q1008 R14/29//95=
201904081330 METAR LRIA 081330Z 11009KT 3000 -RA BR SCT003 BKN015 OVC040
                        11/09 Q1008 R14/29//95=
201904081400 METAR LRIA 081400Z 11010KT 5000 -DZ BR BKN003 BKN018 11/10
                        Q1008 R14/29//95=
201904081430 METAR LRIA 081430Z 11010KT 9999 BKN004 BKN015 11/10 Q1008
                        R14/29//95=
201904081500 METAR LRIA 081500Z 11008KT 9999 SCT004 OVC012 11/09 Q1008
                        R14/29//95=
201904081530 METAR LRIA 081530Z 12007KT 9999 -RA FEW007 OVC010 11/09 Q1008
                        R14/29//95=
201904081600 METAR LRIA 081600Z 12006KT 9999 -RA BKN013 11/10 Q1008 R14/29//95=
201904081630 METAR LRIA 081630Z 11005KT 9999 FEW005 OVC012 11/09 Q1008
                        R14/29//95=
201904081700 METAR LRIA 081700Z 11005KT 9999 FEW008 OVC010 11/09 Q1008
                        R14/29//95=
201904081730 METAR LRIA 081730Z 09003KT 9999 SCT007 OVC016 11/09 Q1008
                        R14/29//95=
201904081800 METAR LRIA 081800Z 07002KT 6000 SCT007 SCT010 OVC016 11/09
                        Q1008 R14/29//95=
201904081830 METAR LRIA 081830Z 10002KT 8000 BKN007 OVC013 11/09 Q1008
                        R14/29//95=
201904081900 METAR LRIA 081900Z 10003KT 9000 BKN010 OVC018 11/09 Q1008
                        R14/29//95=
201904081930 METAR LRIA 081930Z 09002KT 8000 SCT010 OVC022 11/09 Q1008
                        R14/29//95=
201904082000 METAR LRIA 082000Z 04002KT 8000 OVC023 11/09 Q1008 R14/29//95=
201904082030 METAR LRIA 082030Z 03004KT 3000 BR SCT023 BKN035 11/09 Q1007
                        R14/29//95=
201904082100 METAR COR LRIA 082100Z 25001KT 4000 0800NW R14/1000 R32/P2000
                        PRFG BR SCT024 BKN031 11/09 Q1008
                        R14/29//95=
201904082130 METAR LRIA 082130Z 08002KT 3000 -RA BR FEW020 SCT035 11/09
                        Q1007 R14/29//95=
201904082200 METAR LRIA 082200Z VRB01KT 3000 BR FEW028 SCT040 10/09 Q1007
                        R14/29//95=
201904082230 METAR LRIA 082230Z 07004KT 5000 BR OVC044 11/09 Q1007 R14/29//95=
201904082300 METAR LRIA 082300Z 09004KT 4000 BR SCT046 11/09 Q1007 R14/29//95=
201904082330 METAR LRIA 082330Z 08003KT 050V130 2400 -RA BR SCT047 11/09
                        Q1007 R14/29//95=
201904090000 METAR LRIA 090000Z 07006KT 9000 SCT045 11/08 Q1007 R14/29//95=
201904090030 METAR LRIA 090030Z 07004KT 7000 FEW045 10/08 Q1007 R14/29//95=
201904090100 METAR LRIA 090100Z 06005KT 6000 NSC 09/07 Q1007 R14/29//95=
201904090130 METAR LRIA 090130Z 08003KT 7000 NSC 09/07 Q1006 R14/29//95=
201904090200 METAR LRIA 090200Z 06002KT 9000 NSC 09/07 Q1006 R14/29//95=
201904090230 METAR LRIA 090230Z 05003KT CAVOK 09/06 Q1006 R14/29//95=
201904090300 METAR LRIA 090300Z 35003KT 320V020 CAVOK 09/07 Q1006 R14/29//95=
201904090330 METAR LRIA 090330Z 01004KT 350V140 CAVOK 08/05 Q1007 R14/29//95=
201904090400 METAR LRIA 090400Z 03003KT 320V100 CAVOK 09/07 Q1007 R14/29//95=
201904090430 METAR LRIA 090430Z 35002KT CAVOK 09/07 Q1007 R14/29//95=
201904090500 METAR LRIA 090500Z 29002KT 270V330 CAVOK 09/07 Q1007 R14/29//95=
201904090530 METAR LRIA 090530Z VRB01KT CAVOK 10/08 Q1007 R14/29//95=
201904090600 METAR LRIA 090600Z 27002KT 8000 NSC 10/08 Q1007 R14/29//95=
201904090630 METAR LRIA 090630Z 27003KT 9000 NSC 11/09 Q1007 R14/29//95=
201904090700 METAR LRIA 090700Z VRB01KT 9999 FEW004 13/09 Q1007 R14/29//95=
201904090730 METAR LRIA 090730Z 29002KT 240V340 9999 FEW005 13/09 Q1007
                        R14/29//95=
201904090800 METAR LRIA 090800Z VRB01KT CAVOK 15/09 Q1007 R14/29//95=
201904090830 METAR LRIA 090830Z 10003KT CAVOK 15/08 Q1007 R14/29//95=
201904090900 METAR LRIA 090900Z VRB04KT CAVOK 16/08 Q1007 R14/29//95=
201904090930 METAR LRIA 090930Z VRB02KT CAVOK 17/08 Q1006 R14/CLRD//=
201904091000 METAR LRIA 091000Z 08005KT 040V130 CAVOK 18/08 Q1006=
201904091030 METAR LRIA 091030Z 12005KT 070V140 CAVOK 17/07 Q1006=
201904091100 METAR LRIA 091100Z 09007KT 060V130 CAVOK 18/05 Q1006=
201904091130 METAR LRIA 091130Z 11009KT CAVOK 18/04 Q1006=
201904091200 METAR LRIA 091200Z 11007KT 070V150 CAVOK 18/05 Q1006=
201904091230 METAR LRIA 091230Z 13008KT CAVOK 19/04 Q1006=
201904091300 METAR LRIA 091300Z 12008KT CAVOK 19/02 Q1006=
201904091330 METAR LRIA 091330Z 12006KT CAVOK 19/04 Q1006=
201904091400 METAR LRIA 091400Z 11007KT 090V150 CAVOK 19/04 Q1005=
201904091430 METAR COR LRIA 091430Z 13005KT 090V160 CAVOK 19/04 Q1006=
201904091500 METAR LRIA 091500Z 12005KT CAVOK 19/04 Q1005=
201904091530 METAR LRIA 091530Z 11002KT 080V150 CAVOK 18/05 Q1006=
201904091600 METAR LRIA 091600Z 12004KT CAVOK 17/06 Q1006=
201904091630 METAR LRIA 091630Z 11005KT CAVOK 17/06 Q1006=
201904091700 METAR LRIA 091700Z 12006KT CAVOK 16/06 Q1006=
201904091730 METAR LRIA 091730Z 11005KT CAVOK 16/07 Q1006=
201904091800 METAR LRIA 091800Z 11003KT CAVOK 16/07 Q1006=
201904091830 METAR LRIA 091830Z VRB01KT CAVOK 16/06 Q1006=
201904091900 METAR LRIA 091900Z 31003KT CAVOK 15/06 Q1006=
201904091930 METAR LRIA 091930Z 34003KT CAVOK 14/07 Q1006=
201904092000 METAR LRIA 092000Z 32004KT CAVOK 13/06 Q1006=
201904092030 METAR LRIA 092030Z 30004KT CAVOK 13/06 Q1006=
201904092100 METAR LRIA 092100Z 31005KT CAVOK 13/07 Q1006=
201904092130 METAR LRIA 092130Z 25002KT CAVOK 11/07 Q1006=
201904092200 METAR LRIA 092200Z 26004KT CAVOK 12/07 Q1006=
201904092230 METAR LRIA 092230Z 27003KT CAVOK 12/06 Q1006=
201904092300 METAR LRIA 092300Z 25002KT CAVOK 12/06 Q1006=
201904092330 METAR LRIA 092330Z 23002KT CAVOK 11/06 Q1006=
201904100000 METAR LRIA 100000Z 27004KT CAVOK 11/06 Q1006=
201904100030 METAR LRIA 100030Z 27003KT CAVOK 11/06 Q1006=
201904100100 METAR LRIA 100100Z 26003KT CAVOK 10/06 Q1006=
201904100130 METAR LRIA 100130Z 26003KT CAVOK 10/06 Q1006=
201904100200 METAR LRIA 100200Z 25004KT CAVOK 10/06 Q1006=
201904100230 METAR LRIA 100230Z 27004KT CAVOK 09/06 Q1006=
201904100300 METAR LRIA 100300Z 27005KT CAVOK 10/06 Q1006=
201904100330 METAR LRIA 100330Z 27005KT CAVOK 10/06 Q1006=
201904100400 METAR LRIA 100400Z 24004KT CAVOK 09/06 Q1007=
201904100430 METAR LRIA 100430Z 25003KT CAVOK 10/07 Q1007=
201904100500 METAR LRIA 100500Z 27005KT CAVOK 10/07 Q1007=
201904100530 METAR LRIA 100530Z 29006KT CAVOK 12/07 Q1007=
201904100600 METAR LRIA 100600Z 30006KT 260V320 CAVOK 12/07 Q1007=
201904100630 METAR LRIA 100630Z 30008KT CAVOK 13/07 Q1007=
201904100700 METAR LRIA 100700Z 31006KT 280V340 CAVOK 14/08 Q1007=
201904100730 METAR LRIA 100730Z 32007KT CAVOK 15/08 Q1007=
201904100800 METAR LRIA 100800Z 32007KT CAVOK 16/08 Q1008=
201904100830 METAR LRIA 100830Z 33009KT CAVOK 16/07 Q1007=
201904100900 METAR LRIA 100900Z 32009KT CAVOK 17/07 Q1007=
201904100930 METAR LRIA 100930Z 33011KT CAVOK 17/07 Q1007=
201904101000 METAR LRIA 101000Z 32010KT 290V350 CAVOK 19/08 Q1007=
201904101030 METAR LRIA 101030Z 33010KT CAVOK 20/07 Q1007=
201904101100 METAR LRIA 101100Z 34010KT CAVOK 20/06 Q1007=
201904101130 METAR LRIA 101130Z 33008KT 300V360 CAVOK 21/06 Q1006=
201904101200 METAR LRIA 101200Z 03008KT CAVOK 22/05 Q1006=
201904101230 METAR LRIA 101230Z 02009KT CAVOK 22/05 Q1006=
201904101300 METAR LRIA 101300Z 01009KT CAVOK 22/04 Q1006=
201904101330 METAR LRIA 101330Z 36009KT CAVOK 22/03 Q1005=
201904101400 METAR LRIA 101400Z 04012KT 020V090 CAVOK 22/03 Q1005=
201904101430 METAR LRIA 101430Z 03011KT CAVOK 22/03 Q1005=
201904101500 METAR LRIA 101500Z 05009KT CAVOK 22/02 Q1005=
201904101530 METAR LRIA 101530Z 05010KT CAVOK 21/03 Q1005=
201904101600 METAR LRIA 101600Z 05009KT CAVOK 21/03 Q1005=
201904101630 METAR LRIA 101630Z 04007KT CAVOK 20/04 Q1005=
201904101700 METAR LRIA 101700Z 36006KT CAVOK 19/05 Q1005=
201904101730 METAR LRIA 101730Z 09009KT CAVOK 18/05 Q1006=
201904101800 METAR LRIA 101800Z 34006KT CAVOK 17/05 Q1006=
201904101830 METAR LRIA 101830Z 34010KT CAVOK 16/06 Q1006=
201904101900 METAR LRIA 101900Z 01006KT CAVOK 16/06 Q1006=
201904101930 METAR LRIA 101930Z 09010KT CAVOK 15/08 Q1006=
201904102000 METAR LRIA 102000Z 11008KT CAVOK 15/08 Q1007=
201904102030 METAR LRIA 102030Z 11009KT CAVOK 15/08 Q1007=
201904102100 METAR LRIA 102100Z 11009KT 9999 -RA NSC 14/09 Q1007=
201904102130 METAR LRIA 102130Z 12007KT 8000 RA BKN045 13/10 Q1008 R14/29//95=
201904102200 METAR LRIA 102200Z 09002KT 9000 -RA BKN045 13/10 Q1008 R14/29//95=
201904102230 METAR LRIA 102230Z 36002KT 8000 -RA BKN049 12/10 Q1008 R14/29//95=
201904102300 METAR LRIA 102300Z 33004KT 6000 -RA SCT033 12/10 Q1008 R14/29//95=
201904102330 METAR LRIA 102330Z 32005KT 5000 RA BKN028 12/10 Q1007 R14/29//95=
201904110000 METAR COR LRIA 110000Z 34009KT 5000 -RA SCT016 BKN021 12/10
                        Q1007 R14/29//95=
201904110030 METAR LRIA 110030Z 03007KT 6000 RA FEW004 SCT012 BKN025 12/10
                        Q1007 R14/29//95=
201904110100 METAR LRIA 110100Z 03008KT 6000 RA FEW004 SCT012 12/10 Q1007
                        R14/29//95=
201904110130 METAR LRIA 110130Z 07009KT 8000 R14/29//95 -RA FEW006 SCT017
                        12/10 Q1008 R14/29//95=
201904110200 METAR COR LRIA 110200Z 10007KT 8000 -RA FEW005 SCT009 12/10
                        Q1008 R14/29//95=
201904110230 METAR LRIA 110230Z 10005KT 8000 -RA FEW005 BKN012 12/10 Q1008
                        R14/29//95=
201904110300 METAR LRIA 110300Z 12005KT 7000 RA FEW008 BKN038 11/09 Q1008
                        R14/29//95=
201904110330 METAR COR LRIA 110330Z 09002KT 350V130 7000 -RA FEW010 BKN038
                        11/09 Q1008 R14/29//95=
201904110400 METAR LRIA 110400Z 09004KT 6000 FEW010 BKN023 11/09 Q1008
                        RERA R14/29//95=
201904110430 METAR LRIA 110430Z 07003KT 8000 SCT010 SCT030 11/09 Q1008
                        R14/29//95=
201904110500 METAR LRIA 110500Z 07003KT 7000 FEW009 SCT030 11/10 Q1008
                        R14/29//95=
201904110530 METAR LRIA 110530Z 09006KT 7000 BKN009 BKN030 12/10 Q1009
                        R14/29//95=
201904110600 METAR LRIA 110600Z 10005KT 8000 SCT005 SCT045 12/10 Q1009
                        R14/29//95=
201904110630 METAR LRIA 110630Z 11006KT 9000 SCT008 SCT035 12/10 Q1009
                        R14/29//95=
201904110700 METAR LRIA 110700Z 11004KT 9999 SCT009 SCT035 12/10 Q1009
                        R14/29//95=
201904110730 METAR LRIA 110730Z 11004KT 9999 SCT008 BKN013 13/09 Q1009
                        R14/29//95=
201904110800 METAR LRIA 110800Z 12003KT 060V170 9999 FEW009 BKN017 13/10
                        Q1009 R14/29//95=
201904110830 METAR LRIA 110830Z VRB02KT 9999 FEW010 BKN015 13/09 Q1009
                        R14/29//95=
201904110900 METAR LRIA 110900Z VRB02KT 9999 BKN016 13/09 Q1009 R14/29//95=
201904110930 METAR LRIA 110930Z 32004KT 290V350 9999 BKN017 13/10 Q1009
                        R14/29//95=
201904111000 METAR LRIA 111000Z 29007KT 9999 SCT012 BKN027 14/10 Q1009
                        R14/19//95=
201904111030 METAR LRIA 111030Z 30009KT 9999 -RA BKN010 BKN040 13/10 Q1009
                        R14/19//95=
201904111100 METAR LRIA 111100Z 31011KT 7000 -RA BKN010 BKN040 12/09 Q1009
                        R14/29//95=
201904111130 METAR LRIA 111130Z 31010KT 4500 -RA BKN008 OVC040 12/10 Q1010
                        R14/29//95=
201904111200 METAR LRIA 111200Z 31009KT 6000 -RA SCT005 BKN008 12/10 Q1010
                        RESHRA R14/29//95=
201904111230 METAR LRIA 111230Z 30010KT 6000 -RA BKN006 12/10 Q1010 R14/29//95=
201904111300 METAR LRIA 111300Z 31012KT 5000 -RA BKN006 11/09 Q1010 R14/29//95=
201904111330 METAR LRIA 111330Z 32012KT 6000 -RA OVC007 11/09 Q1010 R14/29//95=
201904111400 METAR LRIA 111400Z 32012KT 7000 OVC007 11/09 Q1010 R14/29//95=
201904111430 METAR LRIA 111430Z 31011KT 8000 OVC007 11/09 Q1010 R14/29//95=
201904111500 METAR LRIA 111500Z 32011KT 8000 OVC007 11/08 Q1010 R14/29//95=
201904111530 METAR LRIA 111530Z 32009KT 8000 OVC007 10/08 Q1010 R14/29//95=
201904111600 METAR LRIA 111600Z 31011KT 8000 OVC007 10/08 Q1010 R14/29//95=
201904111630 METAR LRIA 111630Z 31010KT 8000 OVC007 10/08 Q1010 R14/29//95=
201904111700 METAR LRIA 111700Z 30010KT 8000 OVC007 10/07 Q1011 R14/29//95=
201904111730 METAR LRIA 111730Z 30009KT 8000 OVC007 09/07 Q1011 R14/29//95=
201904111800 METAR LRIA 111800Z 30008KT 8000 -RA BKN008 OVC013 09/07 Q1012
                        R14/29//95=
201904111830 METAR LRIA 111830Z 31011KT 7000 -RA SCT007 BKN013 BKN020
                        09/07 Q1012 R14/29//95=
201904111900 METAR LRIA 111900Z 31012KT 7000 SCT007 BKN013 OVC023 09/07
                        Q1012 R14/29//95=
201904111930 METAR LRIA 111930Z 31012KT 7000 BKN007 OVC010 09/07 Q1012
                        R14/29//95=
201904112000 METAR LRIA 112000Z 31011KT 7000 OVC006 09/07 Q1012 R14/29//95=
201904112030 METAR LRIA 112030Z 31010KT 7000 OVC005 09/07 Q1012 R14/29//95=
201904112100 METAR LRIA 112100Z 29007KT 260V330 7000 SCT004 OVC005 08/07
                        Q1012 R14/29//95=
201904112130 METAR LRIA 112130Z 29009KT 5000 BR SCT004 OVC005 08/06 Q1012
                        R14/29//95=
201904112200 METAR LRIA 112200Z 26005KT 200V290 5000 BR SCT003 OVC005
                        08/06 Q1012 R14/29//95=
201904112230 METAR LRIA 112230Z 30009KT 5000 -RA BR SCT003 OVC005 08/06
                        Q1012 R14/29//95=
201904112300 METAR LRIA 112300Z 31012KT 5000 BR OVC003 08/06 Q1012 R14/29//95=
201904112330 METAR LRIA 112330Z 31011KT 3500 BR OVC003 08/07 Q1011 R14/29//95=
201904120000 METAR LRIA 120000Z 31011KT 2700 BR OVC002 08/06 Q1012 R14/29//95=
201904120030 METAR LRIA 120030Z 31011KT 2400 BR OVC002 08/06 Q1012 R14/29//95=
201904120100 METAR LRIA 120100Z 30009KT 2000 BR OVC002 08/06 Q1012 R14/29//95=
201904120130 METAR LRIA 120130Z 30007KT 2400 BR OVC001 08/06 Q1012 R14/29//95=
201904120200 METAR LRIA 120200Z 32007KT 3000 BR OVC001 08/07 Q1012 R14/29//95=
201904120230 METAR LRIA 120230Z 31008KT 4000 BR OVC002 08/07 Q1012 R14/29//95=
201904120300 METAR LRIA 120300Z 30005KT 270V340 5000 BR OVC003 08/07 Q1012
                        R14/29//95=
201904120330 METAR LRIA 120330Z 30006KT 3500 BR OVC003 08/07 Q1012 R14/29//95=
201904120400 METAR LRIA 120400Z 30007KT 3500 BR OVC003 08/07 Q1012 R14/29//95=
201904120430 METAR LRIA 120430Z 29008KT 5000 OVC003 08/07 Q1013 R14/29//95=
201904120500 METAR LRIA 120500Z 30009KT 2000 -DZ BR OVC003 08/07 Q1013
                        R14/19//95=
201904120530 METAR LRIA 120530Z 31011KT 1500 -RADZ BR OVC002 08/07 Q1013
                        R14/19//95=
201904120600 METAR LRIA 120600Z 31011KT 1500 -RADZ BR OVC002 08/06 Q1013
                        R14/29//95=
201904120630 METAR LRIA 120630Z 32012KT 1500 -RADZ BR OVC002 07/06 Q1013
                        R14/29//95=
201904120700 METAR LRIA 120700Z 31010KT 1500 -RADZ BR OVC002 07/06 Q1013
                        R14/29//95=
201904120730 METAR LRIA 120730Z 31010KT 1800 -RADZ BR FEW001 OVC002 07/06
                        Q1013 R14/29//95=
201904120800 METAR LRIA 120800Z 31010KT 1800 -DZRA BR OVC002 08/06 Q1014
                        R14/29//95=
201904120830 METAR LRIA 120830Z 31012KT 2000 -DZRA BR FEW001 OVC003 07/06
                        Q1014 R14/29//95=
201904120900 METAR LRIA 120900Z 31012KT 3000 -DZ BR FEW001 OVC003 08/06
                        Q1014 R14/29//95=
201904120930 METAR LRIA 120930Z 31011KT 3000 -DZ BR OVC002 07/06 Q1014
                        R14/29//95=
201904121000 METAR LRIA 121000Z 32011KT 4000 -DZ BR OVC002 07/06 Q1014
                        R14/29//95=
201904121030 METAR LRIA 121030Z 32012KT 5000 -DZ BR OVC004 07/06 Q1014
                        R14/29//95=
201904121100 METAR LRIA 121100Z 32010KT 8000 OVC005 07/05 Q1015 R14/29//95=
201904121130 METAR LRIA 121130Z 31010KT 8000 OVC005 07/05 Q1015 R14/29//95=
201904121200 METAR LRIA 121200Z 31011KT 8000 -DZ OVC006 07/05 Q1015 R14/29//95=
201904121230 METAR LRIA 121230Z 32013KT 9000 OVC007 08/05 Q1014 R14/29//95=
201904121300 METAR LRIA 121300Z 32013KT 9000 OVC008 08/05 Q1014 R14/29//95=
201904121330 METAR LRIA 121330Z 31014KT 9000 OVC008 08/05 Q1014 R14/29//95=
201904121400 METAR LRIA 121400Z 31014KT 9000 OVC010 08/05 Q1014 R14/29//95=
201904121430 METAR LRIA 121430Z 31012KT 9000 OVC011 08/04 Q1014 R14/29//95=
201904121500 METAR LRIA 121500Z 32012KT 9000 OVC012 07/04 Q1014 R14/29//95=
201904121530 METAR LRIA 121530Z 31012KT 9999 OVC013 07/04 Q1014 R14/29//95=
201904121600 METAR LRIA 121600Z 31011KT 9999 OVC013 07/04 Q1014 R14/19//95=
201904121630 METAR LRIA 121630Z 32010KT 9999 OVC012 07/04 Q1015 R14/19//95=
201904121700 METAR LRIA 121700Z 31010KT 9999 OVC010 07/04 Q1015 R14/19//95=
201904121730 METAR LRIA 121730Z 31010KT 9999 BKN010 OVC020 06/04 Q1016
                        R14/19//95=
201904121800 METAR LRIA 121800Z 31010KT 9999 SCT009 OVC025 06/04 Q1016
                        R14/19//95=
201904121830 METAR LRIA 121830Z 32010KT 9999 BKN010 OVC022 06/04 Q1016
                        R14/19//95=
201904121900 METAR LRIA 121900Z 32008KT 9999 BKN009 OVC022 06/04 Q1016
                        R14/19//95=
201904121930 METAR LRIA 121930Z 32007KT 9999 BKN009 06/04 Q1016 R14/19//95=
201904122000 METAR LRIA 122000Z 31008KT 9999 BKN012 06/04 Q1017 R14/19//95=
201904122030 METAR LRIA 122030Z 32007KT 9999 OVC012 06/04 Q1016 R14/19//95=
201904122100 METAR LRIA 122100Z 31007KT 9999 OVC012 06/04 Q1016 R14/19//95=
201904122130 METAR LRIA 122130Z 29005KT 9999 OVC009 06/04 Q1016 R14/19//95=
201904122200 METAR LRIA 122200Z 32006KT 9999 OVC009 07/04 Q1016 R14/19//95=
201904122230 METAR LRIA 122230Z 33006KT 9999 OVC009 07/04 Q1016 R14/19//95=
201904122300 METAR LRIA 122300Z 33007KT 9999 OVC007 07/04 Q1016 R14/19//95=
201904122330 METAR LRIA 122330Z 32006KT 9999 OVC006 07/04 Q1016 R14/19//95=
201904130000 METAR LRIA 130000Z 32006KT 9999 OVC006 07/04 Q1016 R14/19//95=
201904130030 METAR LRIA 130030Z 32005KT 9999 OVC006 07/05 Q1016 R14/19//95=
201904130100 METAR LRIA 130100Z 32005KT 8000 OVC006 07/05 Q1016 R14/19//95=
201904130130 METAR LRIA 130130Z 33005KT 300V360 5000 BR OVC005 07/05 Q1016
                        R14/19//95=
201904130200 METAR LRIA 130200Z 32006KT 5000 BR OVC005 07/05 Q1015 R14/19//95=
201904130230 METAR LRIA 130230Z 33006KT 6000 OVC004 07/05 Q1016 R14/19//95=
201904130300 METAR LRIA 130300Z 31005KT 280V340 7000 OVC003 07/05 Q1016
                        R14/19//95=
201904130330 METAR LRIA 130330Z 33007KT 5000 BR OVC004 07/05 Q1016 R14/19//95=
201904130400 METAR LRIA 130400Z 34007KT 6000 OVC004 07/05 Q1016 R14/19//95=
201904130430 METAR LRIA 130430Z 34009KT 7000 OVC005 07/05 Q1016 R14/19//95=
201904130500 METAR LRIA 130500Z 34007KT 7000 OVC005 07/05 Q1016 R14/19//95=
201904130530 METAR LRIA 130530Z 33006KT 5000 BR SCT005 OVC010 07/05 Q1016
                        R14/19//95=
201904130600 METAR COR LRIA 130600Z 32005KT 8000 SCT005 OVC015 07/05 Q1016
                        R14/19//95=
201904130630 METAR LRIA 130630Z 34006KT 8000 SCT005 BKN013 OVC017 07/05
                        Q1016 R14/19//95=
201904130700 METAR LRIA 130700Z 35008KT 9000 SCT006 BKN009 OVC013 07/05
                        Q1016 R14/19//95=
201904130730 METAR LRIA 130730Z 36009KT 320V020 9999 FEW007 BKN012 BKN017
                        08/05 Q1016 R14/19//95=
201904130800 METAR LRIA 130800Z 36008KT 9999 FEW009 BKN012 BKN020 08/05
                        Q1016 R14/19//95=
201904130830 METAR LRIA 130830Z 35009KT 9999 FEW010 BKN013 BKN020 08/05
                        Q1016 R14/19//95=
201904130900 METAR LRIA 130900Z 35008KT 9999 BKN010 BKN017 08/04 Q1016
                        R14/19//95=
201904130930 METAR COR LRIA 130930Z 34009KT 9999 BKN012 BKN018 08/04 Q1016
                        R14/CLRD//=
201904131000 METAR LRIA 131000Z 36009KT 9999 FEW011 BKN014 BKN020 08/04
                        Q1016=
201904131030 METAR LRIA 131030Z 01009KT 9999 BKN013 BKN020 08/04 Q1016=
201904131100 METAR LRIA 131100Z 35008KT 9999 FEW012 BKN015 BKN020 08/04
                        Q1017=
201904131130 METAR LRIA 131130Z 34008KT 9999 OVC013 08/04 Q1016=
201904131200 METAR LRIA 131200Z 36007KT 9999 OVC013 08/05 Q1017=
201904131230 METAR LRIA 131230Z 35009KT 9999 -RA OVC011 08/05 Q1017=
201904131300 METAR LRIA 131300Z 36007KT 9999 -RA BKN012 OVC017 08/05 Q1016
                        R14/19//95=
201904131330 METAR LRIA 131330Z 35007KT 8000 -RA BKN012 OVC016 08/05 Q1016
                        R14/29//95=
201904131400 METAR LRIA 131400Z 35007KT 9000 -RA BKN010 OVC020 08/06 Q1016
                        R14/29//95=
201904131430 METAR LRIA 131430Z 35008KT 7000 -RA SCT007 BKN010 OVC020
                        08/05 Q1016 R14/29//95=
201904131500 METAR LRIA 131500Z 34009KT 6000 RA SCT008 BKN017 OVC032 08/06
                        Q1016 R14/29//95=
201904131530 METAR LRIA 131530Z 34009KT 6000 -RA SCT008 BKN017 BKN032
                        07/05 Q1016 RERA R14/29//95=
201904131600 METAR LRIA 131600Z 34008KT 6000 -RA BKN020 OVC033 07/05 Q1016
                        R14/29//95=
201904131630 METAR LRIA 131630Z 34011KT 6000 -RA FEW007 BKN033 OVC048
                        07/05 Q1016 R14/29//95=
201904131700 METAR COR LRIA 131700Z 34011KT 5000 -RA OVC037 07/05 Q1017
                        R14/29//95=
201904131730 METAR LRIA 131730Z 34010KT 5000 -RA OVC038 07/05 Q1017 R14/29//95=
201904131800 METAR LRIA 131800Z 34010KT 5000 -RA FEW003 OVC040 07/05 Q1017
                        R14/29//95=
201904131830 METAR LRIA 131830Z 34010KT 5000 -RA FEW005 SCT017 OVC034
                        07/05 Q1017 R14/29//95=
201904131900 METAR LRIA 131900Z 34010KT 5000 -RA FEW006 SCT015 BKN029
                        07/05 Q1017 R14/29//95=
201904131930 METAR LRIA 131930Z 35009KT 6000 -RA FEW009 SCT013 BKN017
                        07/05 Q1017 R14/29//95=
201904132000 METAR LRIA 132000Z 35008KT 6000 -RA BKN013 OVC030 07/05 Q1017
                        R14/29//95=
201904132030 METAR LRIA 132030Z 34007KT 5000 RA FEW006 BKN012 BKN025 06/05
                        Q1017 R14/29//95=
201904132100 METAR LRIA 132100Z 35008KT 6000 -RA OVC012 06/04 Q1017 R14/29//95=
201904132130 METAR LRIA 132130Z 34006KT 5000 RA FEW005 BKN012 06/04 Q1017
                        R14/29//95=
201904132200 METAR LRIA 132200Z 34007KT 4700 RA FEW005 SCT009 BKN012 06/04
                        Q1017 R14/29//95=
201904132230 METAR COR LRIA 132230Z 34007KT 4600 RA FEW004 SCT006 BKN025
                        06/04 Q1017 R14/29//95=
201904132300 METAR LRIA 132300Z AUTO 34006KT 4500 FEW004/// BKN009///
                        06/04 Q1017 RERA=
201904132330 METAR COR LRIA 132330Z 33006KT 4800 BR FEW004 OVC010 06/04
                        Q1016 R14/29//95=
201904140000 METAR LRIA 140000Z AUTO 34007KT 4800 BR FEW003/// BKN010///
                        06/04 Q1016=
201904140030 METAR LRIA 140030Z AUTO 33006KT 5000 BR FEW003/// BKN009///
                        06/04 Q1016=
201904140100 METAR COR LRIA 140100Z 33007KT 5000 BR FEW003 BKN009 06/04
                        Q1016 R14/29//95=
201904140130 METAR COR LRIA 140130Z 34006KT 4900 BR FEW003 SCT007 06/04
                        Q1016 R14/29//95=
201904140200 METAR LRIA 140200Z AUTO 34006KT 4700 BR FEW003/// SCT007///
                        06/04 Q1016=
201904140230 METAR COR LRIA 140230Z 34007KT 4200 FEW003 SCT006 06/04 Q1016
                        R14/29//95=
201904140300 METAR LRIA 140300Z 34006KT 3600 -RA BR FEW003 OVC007 06/04
                        Q1016 R14/29//95=
201904140330 METAR LRIA 140330Z 34006KT 2000 -RA BR FEW003 OVC010 06/05
                        Q1016 R14/29//95=
201904140400 METAR LRIA 140400Z 35007KT 3200 -RA FEW003 OVC010 06/04 Q1016
                        R14/29//95=
201904140430 METAR LRIA 140430Z 34006KT 3000 -RA BR FEW003 OVC010 06/04
                        Q1016 R14/29//95=
201904140500 METAR LRIA 140500Z 34007KT 2200 -RA FEW003 OVC007 06/04 Q1016
                        R14/29//95=
201904140530 METAR LRIA 140530Z 35009KT 2200 -RA BR FEW003 OVC006 06/04
                        Q1016 R14/29//95=
201904140600 METAR LRIA 140600Z 34009KT 2200 -RA BR FEW003 OVC006 06/04
                        Q1016 R14/29//95=
201904140630 METAR LRIA 140630Z 36010KT 2500 -RA BR FEW004 OVC007 06/04
                        Q1016 R14/29//95=
201904140700 METAR LRIA 140700Z 36010KT 5000 -RA BR FEW005 OVC009 06/04
                        Q1016 R14/29//95=
201904140730 METAR COR LRIA 140730Z 01010KT 7000 -RA SCT006 OVC009 06/04
                        Q1016 R14/29//95=
201904140800 METAR LRIA 140800Z 01011KT 8000 -RA SCT010 OVC013 06/04 Q1016
                        R14/29//95=
201904140830 METAR LRIA 140830Z 36009KT 7000 -RA OVC008 06/04 Q1016 R14/29//95=
201904140900 METAR LRIA 140900Z 35009KT 3000 -RA BR SCT006 OVC010 06/04
                        Q1016 R14/29//95=
201904140930 METAR LRIA 140930Z 34009KT 5000 -RA BR SCT007 OVC013 06/04
                        Q1016 R14/29//95=
201904141000 METAR LRIA 141000Z 33005KT 7000 -RA SCT007 OVC012 07/04 Q1017
                        R14/29//95=
201904141030 METAR LRIA 141030Z 34006KT 9000 -RA SCT010 OVC013 07/04 Q1017
                        R14/29//95=
201904141100 METAR LRIA 141100Z 35008KT 9000 BKN014 OVC018 08/04 Q1016
                        R14/29//95=
201904141130 METAR LRIA 141130Z 35008KT 9999 SCT015 BKN021 09/05 Q1016
                        R14/29//95=
201904141200 METAR LRIA 141200Z 01012KT 9999 SCT018 OVC029 09/04 Q1016
                        R14/29//95=
201904141230 METAR LRIA 141230Z 36011KT 9999 FEW018 BKN025 09/04 Q1016
                        R14/29//95=
201904141300 METAR LRIA 141300Z 01012KT 9999 FEW019 BKN033 10/03 Q1016
                        R14/29//95=
201904141330 METAR COR LRIA 141330Z 01011KT 9999 FEW019 BKN031 09/03 Q1016
                        R14/19//95=
201904141400 METAR LRIA 141400Z 02011KT 9999 FEW032 SCT041 10/03 Q1016
                        R14/19//95=
201904141430 METAR LRIA 141430Z 02012KT 9999 SCT038 10/02 Q1016 R14/19//95=
201904141500 METAR LRIA 141500Z 03012KT 9999 SCT033 10/02 Q1016 R14/19//95=
201904141530 METAR LRIA 141530Z 03011KT 9999 SCT041 09/03 Q1016 R14/19//95=
201904141600 METAR LRIA 141600Z 03010KT 9999 SCT047 09/03 Q1017 R14/19//95=
201904141630 METAR LRIA 141630Z 04009KT 9999 SCT048 08/03 Q1017 R14/19//95=
201904141700 METAR LRIA 141700Z 03007KT CAVOK 08/03 Q1017 R14/CLRD//=
201904141730 METAR LRIA 141730Z 03006KT CAVOK 07/03 Q1017=
201904141800 METAR LRIA 141800Z 02004KT CAVOK 07/03 Q1017=
201904141830 METAR LRIA 141830Z 04004KT CAVOK 07/03 Q1018=
201904141900 METAR LRIA 141900Z 04005KT CAVOK 07/03 Q1018=
201904141930 METAR LRIA 141930Z 01007KT CAVOK 07/02 Q1018=
201904142000 METAR LRIA 142000Z 01006KT 9999 BKN046 07/02 Q1018=
201904142030 METAR LRIA 142030Z 01007KT 340V040 9999 SCT048 07/02 Q1018=
201904142100 METAR LRIA 142100Z 36006KT CAVOK 07/02 Q1018=
201904142130 METAR LRIA 142130Z 35006KT CAVOK 06/02 Q1018=
201904142200 METAR LRIA 142200Z 34007KT CAVOK 06/02 Q1019=
201904142230 METAR LRIA 142230Z 36008KT CAVOK 05/00 Q1019=
201904142300 METAR LRIA 142300Z 01009KT CAVOK 05/M01 Q1019=
201904142330 METAR LRIA 142330Z 36008KT CAVOK 05/M01 Q1019=
201904150000 METAR LRIA 150000Z 01011KT CAVOK 05/M01 Q1019=
201904150030 METAR LRIA 150030Z 36012KT CAVOK 05/M02 Q1019=
201904150100 METAR LRIA 150100Z 35008KT CAVOK 04/M02 Q1019=
201904150130 METAR LRIA 150130Z 36010KT CAVOK 04/M02 Q1019=
201904150200 METAR LRIA 150200Z 36011KT CAVOK 04/M03 Q1019=
201904150230 METAR LRIA 150230Z 36010KT CAVOK 03/M03 Q1019=
201904150300 METAR LRIA 150300Z 35009KT CAVOK 03/M03 Q1019=
201904150330 METAR LRIA 150330Z 35008KT CAVOK 02/M03 Q1019=
201904150400 METAR LRIA 150400Z 35008KT CAVOK 02/M03 Q1020=
201904150430 METAR LRIA 150430Z 34010KT CAVOK 03/M03 Q1020=
201904150500 METAR LRIA 150500Z 35009KT CAVOK 04/M03 Q1020=
201904150530 METAR LRIA 150530Z 35010KT CAVOK 05/M03 Q1020=
201904150600 METAR LRIA 150600Z 36014KT CAVOK 05/M04 Q1020=
201904150630 METAR COR LRIA 150630Z 01016KT 9999 FEW034 06/M03 Q1020=
201904150700 METAR LRIA 150700Z 02016KT 9999 FEW038 06/M02 Q1020=
201904150730 METAR LRIA 150730Z 36014KT 9999 SCT029 07/M01 Q1020=
201904150800 METAR LRIA 150800Z 36015KT 9999 SCT031 08/M01 Q1020=
201904150830 METAR COR LRIA 150830Z 36016KT 9999 SCT038 SCT048 07/M02
                        Q1020=
201904150900 METAR LRIA 150900Z 36016KT 9999 SCT037 07/M02 Q1019=
201904150930 METAR LRIA 150930Z 35017KT 9999 BKN046 08/M03 Q1019=
201904151000 METAR LRIA 151000Z 35017KT 9999 BKN045 09/M04 Q1019=
201904151030 METAR LRIA 151030Z 35015KT 9999 BKN049 08/M04 Q1019=
201904151100 METAR LRIA 151100Z 34016KT 9999 BKN048 09/M03 Q1019=
201904151130 METAR COR LRIA 151130Z 35015KT CAVOK 10/M03 Q1018=
201904151200 METAR LRIA 151200Z 33016KT 300V020 CAVOK 11/M04 Q1018=
201904151230 METAR LRIA 151230Z 36018G30KT CAVOK 11/M04 Q1018=
201904151300 METAR LRIA 151300Z 34019KT CAVOK 11/M04 Q1018=
201904151330 METAR LRIA 151330Z 34017KT CAVOK 11/M04 Q1017=
201904151400 METAR LRIA 151400Z 36015KT CAVOK 11/M03 Q1018=
201904151430 METAR LRIA 151430Z 36017KT CAVOK 11/M04 Q1018=
201904151500 METAR LRIA 151500Z 35016KT CAVOK 11/M04 Q1018=
201904151530 METAR LRIA 151530Z 35013KT CAVOK 11/M04 Q1018=
201904151600 METAR LRIA 151600Z 35014KT CAVOK 10/M04 Q1018=
201904151630 METAR LRIA 151630Z 34010KT CAVOK 10/M03 Q1018=
201904151700 METAR LRIA 151700Z 34008KT CAVOK 09/M03 Q1018=
201904151730 METAR LRIA 151730Z 34009KT CAVOK 08/M04 Q1018=
201904151800 METAR LRIA 151800Z 34010KT CAVOK 07/M04 Q1018=
201904151830 METAR LRIA 151830Z 34009KT CAVOK 07/M04 Q1019=
201904151900 METAR LRIA 151900Z 33008KT CAVOK 06/M04 Q1018=
201904151930 METAR LRIA 151930Z 33007KT CAVOK 05/M04 Q1019=
201904152000 METAR LRIA 152000Z 33006KT CAVOK 04/M04 Q1019=
201904152030 METAR LRIA 152030Z 33006KT CAVOK 04/M04 Q1019=
201904152100 METAR LRIA 152100Z 32008KT CAVOK 04/M04 Q1019=
201904152130 METAR LRIA 152130Z 32007KT CAVOK 03/M03 Q1019=
201904152200 METAR LRIA 152200Z 31007KT CAVOK 03/M03 Q1019=
201904152230 METAR LRIA 152230Z 29006KT CAVOK 03/M03 Q1019=
201904152300 METAR LRIA 152300Z 31006KT CAVOK 02/M04 Q1018=
201904152330 METAR LRIA 152330Z 32007KT CAVOK 02/M03 Q1018=
201904160000 METAR LRIA 160000Z 32007KT CAVOK 02/M04 Q1018=
201904160030 METAR LRIA 160030Z 29006KT CAVOK 02/M03 Q1018=
201904160100 METAR LRIA 160100Z 29006KT CAVOK 01/M04 Q1018=
201904160130 METAR LRIA 160130Z 30008KT CAVOK 02/M04 Q1018=
201904160200 METAR LRIA 160200Z 32009KT CAVOK 02/M04 Q1018=
201904160230 METAR LRIA 160230Z 32007KT CAVOK 02/M04 Q1017=
201904160300 METAR LRIA 160300Z 32010KT CAVOK 02/M04 Q1017=
201904160330 METAR LRIA 160330Z 33010KT CAVOK 02/M04 Q1017=
201904160400 METAR LRIA 160400Z 32010KT CAVOK 02/M04 Q1017=
201904160430 METAR LRIA 160430Z 32010KT CAVOK 02/M04 Q1017=
201904160500 METAR LRIA 160500Z 31010KT 9999 OVC045 03/M03 Q1017=
201904160530 METAR LRIA 160530Z 31011KT 9999 OVC038 03/M03 Q1017=
201904160600 METAR LRIA 160600Z 32012KT 9999 OVC026 04/M03 Q1017=
201904160630 METAR LRIA 160630Z 31013KT 9999 OVC026 04/M03 Q1017=
201904160700 METAR LRIA 160700Z 33017G29KT 9999 OVC023 04/M03 Q1017=
201904160730 METAR LRIA 160730Z 32016G26KT 9999 OVC024 04/M02 Q1017=
201904160800 METAR LRIA 160800Z 32017G27KT 9999 -RA FEW017 OVC023 03/M02
                        Q1017=
201904160830 METAR LRIA 160830Z 32016KT 9999 -RA FEW017 OVC024 04/M02
                        Q1017=
201904160900 METAR LRIA 160900Z 32018KT 9999 -RA FEW017 OVC022 04/M01
                        Q1017=
201904160930 METAR LRIA 160930Z 32016G27KT 9999 -RA FEW014 OVC022 04/M00
                        Q1017=
201904161000 METAR LRIA 161000Z 31014KT 9999 -RA BKN010 OVC017 03/00 Q1017=
201904161030 METAR LRIA 161030Z 31016KT 9999 -RA BKN011 OVC014 04/00 Q1017=
201904161100 METAR COR LRIA 161100Z 31015KT 9999 -RA BKN012 OVC018 04/01
                        Q1017 R14/29//95=
201904161130 METAR LRIA 161130Z 32016KT 7000 -RA BKN012 OVC016 04/01 Q1017
                        R14/29//95=
201904161200 METAR LRIA 161200Z 32016G26KT 5000 -RA BKN012 OVC016 04/01
                        Q1017 R14/29//95=
201904161230 METAR LRIA 161230Z 32015G25KT 7000 -RA BKN012 OVC016 04/01
                        Q1017 R14/29//95=
201904161300 METAR LRIA 161300Z 31020KT 9000 -RA BKN012 OVC017 04/01 Q1017
                        R14/29//95=
201904161330 METAR LRIA 161330Z 31016KT 9999 -RA SCT008 BKN012 BKN017
                        03/01 Q1017 R14/29//95=
201904161400 METAR LRIA 161400Z 31016KT 9999 -RA BKN008 BKN013 03/01 Q1017
                        R14/29//95=
201904161430 METAR LRIA 161430Z 31016KT 9999 -RA BKN008 BKN014 03/01 Q1017
                        R14/29//95=
201904161500 METAR LRIA 161500Z 31014KT 9999 -RA BKN008 BKN014 OVC023
                        03/01 Q1017 R14/29//95=
201904161530 METAR LRIA 161530Z 31016KT 9999 -RA BKN008 BKN014 OVC025
                        03/01 Q1017 R14/29//95=
201904161600 METAR LRIA 161600Z 31013G23KT 9999 -RA BKN007 BKN012 OVC025
                        03/01 Q1017 R14/29//95=
201904161630 METAR LRIA 161630Z 30012KT 9999 -RA SCT006 OVC008 03/01 Q1017
                        R14/29//95=
201904161700 METAR LRIA 161700Z 31013KT 9999 FEW006 OVC008 03/01 Q1017
                        R14/29//95=
201904161730 METAR LRIA 161730Z 30014KT 9999 FEW007 BKN009 03/01 Q1017
                        R14/29//95=
201904161800 METAR LRIA 161800Z 31013KT 9999 FEW008 BKN009 04/01 Q1017
                        R14/29//95=
201904161830 METAR LRIA 161830Z 30012KT 8000 SCT006 SCT008 04/01 Q1017
                        R14/29//95=
201904161900 METAR LRIA 161900Z 31014KT 9999 FEW005 SCT006 04/02 Q1017
                        R14/29//95=
201904161930 METAR LRIA 161930Z 30012KT 9999 FEW005 BKN006 04/02 Q1017
                        R14/29//95=
201904162000 METAR LRIA 162000Z 30012KT 9999 FEW005 BKN006 04/02 Q1017
                        R14/29//95=
201904162030 METAR COR LRIA 162030Z 30010KT 5000 BR FEW003 BKN005 04/02
                        Q1017 R14/29//95=
201904162100 METAR LRIA 162100Z 30012KT 4200 -RA BR FEW002 BKN005 04/02
                        Q1016 R14/29//95=
201904162130 METAR COR LRIA 162130Z 30012KT 4200 -RA BR FEW002 BKN005
                        04/02 Q1016 R14/29//95=
201904162200 METAR LRIA 162200Z 31012KT 9999 DZ OVC005 04/02 Q1016 R14/29//95=
201904162230 METAR LRIA 162230Z 31012KT 9999 -DZ FEW004 BKN005 04/02 Q1016
                        R14/29//95=
201904162300 METAR LRIA 162300Z 31011KT 9999 RA BKN005 04/02 Q1015 R14/29//95=
201904162330 METAR LRIA 162330Z 30013KT 9999 -RA FEW004 BKN005 04/02 Q1015
                        R14/29//95=
201904170000 METAR LRIA 170000Z 31013KT 8000 -RA BKN005 04/02 Q1015 R14/29//95=
201904170030 METAR LRIA 170030Z 31011KT 9000 -RA FEW003 BKN005 04/03 Q1015
                        R14/29//95=
201904170100 METAR LRIA 170100Z 32011KT 9999 -RA BKN005 04/03 Q1014 R14/29//95=
201904170130 METAR LRIA 170130Z 32009KT 9999 FEW003 BKN004 05/03 Q1014
                        R14/29//95=
201904170200 METAR COR LRIA 170200Z 32009KT 9999 FEW003 BKN004 05/03 Q1014
                        R14/29//95=
201904170230 METAR COR LRIA 170230Z 34008KT 4700 FEW005 SCT007 05/04 Q1015
                        R14/29//95=
201904170300 METAR LRIA 170300Z 36008KT 5000 BR FEW004 SCT0087 05/04 Q1015
                        R14/29//95=
201904170330 METAR COR LRIA 170330Z 02010KT 3000 RA BR FEW003 BKN005 05/04
                        Q1015 R14/29//95=
201904170400 METAR LRIA 170400Z 02009KT 4000 RA BR FEW005 BKN009 06/04
                        Q1015 R14/29//95=
201904170430 METAR LRIA 170430Z 02008KT 5000 RA BR FEW005 BKN012 06/04
                        Q1016 R14/29//95=
201904170500 METAR LRIA 170500Z 02008KT 6000 -RA FEW006 SCT014 BKN020
                        06/04 Q1016 R14/29//95=
201904170530 METAR LRIA 170530Z 01007KT 7000 -RA FEW015 SCT019 BKN025
                        06/04 Q1016 R14/29//95=
201904170600 METAR LRIA 170600Z 01007KT 8000 FEW017 SCT026 BKN034 07/04
                        Q1017 R14/29//95=
201904170630 METAR LRIA 170630Z 02007KT 9000 FEW007 SCT012 BKN030 07/04
                        Q1017 R14/29//95=
201904170700 METAR LRIA 170700Z 03006KT 9999 FEW009 SCT012 BKN025 07/05
                        Q1017 R14/29//95=
201904170730 METAR LRIA 170730Z 03008KT 9999 FEW007 SCT012 BKN020 07/05
                        Q1018 R14/29//95=
201904170800 METAR LRIA 170800Z 04008KT 9999 FEW008 SCT012 BKN020 07/05
                        Q1018 R14/29//95=
201904170830 METAR LRIA 170830Z 04007KT 9999 FEW007 SCT009 BKN012 07/05
                        Q1018 R14/29//95=
201904170900 METAR LRIA 170900Z 04008KT 9999 SCT010 BKN014 07/05 Q1019
                        R14/29//95=
201904170930 METAR LRIA 170930Z 04008KT 9999 FEW008 SCT015 BKN035 08/05
                        Q1019 R14/29//95=
201904171000 METAR LRIA 171000Z 04007KT 9999 FEW009 SCT016 BKN038 08/05
                        Q1019 R14/29//95=
201904171030 METAR LRIA 171030Z 02007KT 9999 FEW008 BKN037 09/05 Q1019
                        R14/29//95=
201904171100 METAR LRIA 171100Z 03007KT 010V070 9999 FEW016 BKN037 09/04
                        Q1020 R14/29//95=
201904171130 METAR LRIA 171130Z 03011KT 9999 FEW016 SCT027 BKN045 09/05
                        Q1020 R14/29//95=
201904171200 METAR COR LRIA 171200Z 02009KT 9999 FEW018 SCT023 BKN037
                        10/05 Q1020 R14/19//95=
201904171230 METAR LRIA 171230Z 03009KT 9999 FEW020 10/04 Q1020 R14/19//95=
201904171300 METAR LRIA 171300Z 03008KT 350V050 9999 FEW019 SCT034 11/04
                        Q1020 R14/19//95=
201904171330 METAR LRIA 171330Z 05006KT 9999 FEW022 SCT029 11/04 Q1020
                        R14/19//95=
201904171400 METAR LRIA 171400Z 04006KT 9999 SCT024 BKN048 11/03 Q1021
                        R14/19//95=
201904171430 METAR LRIA 171430Z 01005KT 9999 FEW026 BKN036 11/04 Q1021
                        R14/CLRD//=
201904171500 METAR LRIA 171500Z 01004KT 340V040 9999 FEW026 BKN046 11/04
                        Q1021=
201904171530 METAR LRIA 171530Z 35004KT 9999 FEW039 11/04 Q1021=
201904171600 METAR LRIA 171600Z 35004KT 9999 FEW041 10/04 Q1021=
201904171630 METAR LRIA 171630Z 31002KT 9999 SCT039 11/05 Q1022=
201904171700 METAR LRIA 171700Z 32004KT 9999 BKN033 10/05 Q1022=
201904171730 METAR LRIA 171730Z 31004KT 260V320 9999 BKN031 10/05 Q1022=
201904171800 METAR LRIA 171800Z 33004KT 9999 BKN034 10/05 Q1023=
201904171830 METAR LRIA 171830Z 33005KT 9999 SCT023 OVC035 10/05 Q1023=
201904171900 METAR LRIA 171900Z 33006KT 9999 -RA BKN020 OVC035 10/06 Q1023=
201904171930 METAR LRIA 171930Z 32006KT 9999 SCT017 BKN030 OVC045 09/06
                        Q1023 R14/29//95=
201904172000 METAR LRIA 172000Z 32006KT 9999 SCT017 BKN030 OVC045 09/06
                        Q1023 R14/29//95=
201904172030 METAR LRIA 172030Z 33006KT 9999 SCT016 BKN032 OVC043 09/06
                        Q1023 R14/29//95=
201904172100 METAR LRIA 172100Z 34005KT 9999 FEW008 BKN018 BKN023 09/07
                        Q1024 R14/29//95=
201904172130 METAR LRIA 172130Z 34006KT 8000 -RA SCT008 BKN015 BKN028
                        09/07 Q1024 R14/29//95=
201904172200 METAR LRIA 172200Z 01006KT 9000 -RA FEW008 BKN016 BKN028
                        10/08 Q1024 R14/29//95=
201904172230 METAR LRIA 172230Z 02007KT 9000 -RA FEW006 BKN017 BKN030
                        10/08 Q1024 R14/29//95=
201904172300 METAR LRIA 172300Z 04010KT 9999 FEW006 BKN015 BKN030 10/08
                        Q1024 R14/29//95=
201904172330 METAR LRIA 172330Z 06011KT 9999 SCT006 BKN009 BKN018 09/07
                        Q1024 R14/29//95=
201904180000 METAR LRIA 180000Z 05008KT 9999 FEW006 BKN018 09/07 Q1024
                        R14/29//95=
201904180030 METAR LRIA 180030Z 04008KT 7000 -RA SCT006 BKN016 OVC021
                        09/07 Q1024 R14/29//95=
201904180100 METAR LRIA 180100Z 05009KT 9999 -RA BKN015 BKN033 09/07 Q1024
                        R14/29//95=
201904180130 METAR LRIA 180130Z 05007KT 9999 -RA SCT013 BKN017 BKN035
                        09/06 Q1025 R14/29//95=
201904180200 METAR LRIA 180200Z 06011KT 9999 SCT014 BKN046 09/06 Q1025
                        R14/29//95=
201904180230 METAR LRIA 180230Z 07005KT 9999 BKN014 BKN039 08/06 Q1025
                        R14/29//95=
201904180300 METAR LRIA 180300Z 07008KT 9999 BKN016 BKN039 08/05 Q1025
                        R14/29//95=
201904180330 METAR LRIA 180330Z 07009KT 9999 SCT017 SCT048 08/05 Q1026
                        R14/29//95=
201904180400 METAR LRIA 180400Z 06007KT 350V060 9999 SCT016 SCT048 08/05
                        Q1026 R14/29//95=
201904180430 METAR LRIA 180430Z 04006KT 9999 -RA SCT014 08/05 Q1026 R14/29//95=
201904180500 METAR LRIA 180500Z 04009KT 9000 -RA FEW015 08/05 Q1027 R14/29//95=
201904180530 METAR LRIA 180530Z 03006KT 9000 -RA FEW015 SCT035 08/06 Q1027
                        R14/29//95=
201904180600 METAR LRIA 180600Z 05008KT 9000 FEW009 SCT038 09/06 Q1027
                        R14/29//95=
201904180630 METAR LRIA 180630Z 04008KT 9999 FEW009 SCT033 10/06 Q1028
                        R14/29//95=
201904180700 METAR LRIA 180700Z 07007KT 030V100 9999 FEW011 BKN033 10/06
                        Q1028 R14/29//95=
201904180730 METAR LRIA 180730Z 01007KT 9999 FEW013 SCT039 10/06 Q1028
                        R14/29//95=
201904180800 METAR LRIA 180800Z 36008KT 9999 FEW014 FEW033TCU SCT040 11/05
                        Q1028 R14/29//95=
201904180830 METAR LRIA 180830Z 36008KT 9999 FEW017 SCT032 12/06 Q1028
                        R14/29//95=
201904180900 METAR LRIA 180900Z 34007KT 310V020 9999 FEW018 SCT026 11/05
                        Q1028 R14/29//95=
201904180930 METAR LRIA 180930Z 34007KT 9999 BKN022 12/06 Q1028 R14/19//95=
201904181000 METAR LRIA 181000Z 35008KT 310V030 9999 BKN021 13/05 Q1028
                        R14/19//95=
201904181030 METAR LRIA 181030Z 34008KT 9999 SCT028 12/05 Q1028 R14/19//95=
201904181100 METAR LRIA 181100Z 33008KT 9999 BKN044 12/06 Q1027 R14/19//95=
201904181130 METAR LRIA 181130Z 04009KT 9999 SCT031 13/05 Q1027 R14/CLRD//=
201904181200 METAR LRIA 181200Z 03008KT 9999 SCT040 13/04 Q1027=
201904181230 METAR COR LRIA 181230Z 01011KT 9999 SCT040 13/04 Q1027=
201904181300 METAR LRIA 181300Z 01009KT CAVOK 13/04 Q1027=
201904181330 METAR LRIA 181330Z 04008KT CAVOK 13/04 Q1026=
201904181400 METAR LRIA 181400Z 04011KT CAVOK 14/04 Q1026=
201904181430 METAR COR LRIA 181430Z 03012KT 350V050 9999 FEW041 14/03
                        Q1026=
201904181500 METAR LRIA 181500Z 01007KT 9999 FEW041 14/03 Q1026=
201904181530 METAR LRIA 181530Z 01010KT 9999 FEW044 13/02 Q1026=
201904181600 METAR LRIA 181600Z 01007KT CAVOK 13/03 Q1026=
201904181630 METAR LRIA 181630Z 02007KT CAVOK 12/03 Q1026=
201904181700 METAR LRIA 181700Z 03006KT CAVOK 11/03 Q1026=
201904181730 METAR LRIA 181730Z 02006KT CAVOK 10/02 Q1027=
201904181800 METAR LRIA 181800Z 04007KT CAVOK 09/02 Q1027=
201904181830 METAR LRIA 181830Z 05006KT CAVOK 09/02 Q1027=
201904181900 METAR LRIA 181900Z 05004KT CAVOK 08/02 Q1027=
201904181930 METAR LRIA 181930Z 04004KT CAVOK 08/01 Q1027=
201904182000 METAR LRIA 182000Z 01003KT CAVOK 09/01 Q1026=
201904182030 METAR LRIA 182030Z 35002KT CAVOK 08/01 Q1026=
201904182100 METAR LRIA 182100Z 27003KT CAVOK 07/02 Q1026=
201904182130 METAR LRIA 182130Z 25003KT CAVOK 06/02 Q1026=
201904182200 METAR LRIA 182200Z 26002KT CAVOK 06/03 Q1026=
201904182230 METAR LRIA 182230Z 23002KT CAVOK 05/02 Q1026=
201904182300 METAR LRIA 182300Z 22003KT CAVOK 05/03 Q1025=
201904182330 METAR LRIA 182330Z 21004KT CAVOK 05/02 Q1025=
201904190000 METAR LRIA 190000Z 23004KT 9999 FEW085 SCT100 06/03 Q1024=
201904190030 METAR LRIA 190030Z 25003KT 220V280 CAVOK 07/02 Q1024=
201904190100 METAR LRIA 190100Z 22004KT CAVOK 06/02 Q1024=
201904190130 METAR LRIA 190130Z 21003KT CAVOK 06/02 Q1023=
201904190200 METAR LRIA 190200Z 22004KT CAVOK 06/01 Q1023=
201904190230 METAR LRIA 190230Z 17003KT CAVOK 06/01 Q1022=
201904190300 METAR LRIA 190300Z 11004KT CAVOK 04/02 Q1022=
201904190330 METAR LRIA 190330Z VRB01KT CAVOK 05/02 Q1022=
201904190400 METAR LRIA 190400Z 26004KT CAVOK 05/02 Q1022=
201904190430 METAR LRIA 190430Z 29005KT CAVOK 06/02 Q1022=
201904190500 METAR LRIA 190500Z 24003KT 200V280 CAVOK 07/03 Q1022=
201904190530 METAR LRIA 190530Z 34006KT 310V020 CAVOK 08/03 Q1023=
201904190600 METAR LRIA 190600Z 05006KT CAVOK 08/03 Q1023=
201904190630 METAR LRIA 190630Z 34007KT 310V010 CAVOK 09/04 Q1023=
201904190700 METAR LRIA 190700Z 12010KT 090V160 CAVOK 09/03 Q1023=
201904190730 METAR LRIA 190730Z VRB04KT CAVOK 10/03 Q1024=
201904190800 METAR LRIA 190800Z 06004KT 350V110 CAVOK 11/03 Q1024=
201904190830 METAR LRIA 190830Z 33003KT 260V030 9999 FEW022 11/04 Q1024=
201904190900 METAR LRIA 190900Z 06004KT 350V150 9999 FEW023 12/03 Q1025=
201904190930 METAR LRIA 190930Z 33005KT 300V020 9999 FEW029 13/05 Q1025=
201904191000 METAR LRIA 191000Z 02008KT 340V070 9999 FEW033 13/03 Q1025=
201904191030 METAR LRIA 191030Z 35007KT 9999 -RA BKN032 FEW035CB 12/03
                        Q1024=
201904191100 METAR LRIA 191100Z 05009KT 020V090 9999 TS SCT032 SCT035CB
                        12/02 Q1025=
201904191130 METAR LRIA 191130Z 03015G25KT 9999 -TSRA FEW015 BKN025 BKN030CB
                        08/04 Q1026 R14/29//95=
201904191200 METAR LRIA 191200Z VRB04KT 9999 -RA SCT030CB BKN045 07/05
                        Q1025 R14/29//95=
201904191230 METAR LRIA 191230Z 05005KT 030V090 9999 -RA FEW033CB BKN039
                        09/05 Q1026 R14/29//95=
201904191300 METAR LRIA 191300Z 08011KT 9999 FEW023 BKN028 FEW033CB 09/05
                        Q1026 RESHRA R14/29//95=
201904191330 METAR LRIA 191330Z 11012KT CAVOK 10/05 Q1026 R14/29//95=
201904191400 METAR LRIA 191400Z 13007KT CAVOK 10/03 Q1026 R14/29//95=
201904191430 METAR LRIA 191430Z 19002KT CAVOK 11/03 Q1026 R14/29//95=
201904191500 METAR LRIA 191500Z 35003KT 320V090 CAVOK 11/03 Q1027 R14/29//95=
201904191530 METAR LRIA 191530Z 30003KT 250V010 9999 FEW045CB 11/04 Q1027
                        R14/29//95=
201904191600 METAR LRIA 191600Z 32005KT 290V350 9999 FEW045CB 11/04 Q1027
                        R14/19//95=
201904191630 METAR LRIA 191630Z 26003KT 9999 FEW045CB 10/04 Q1027 R14/19//95=
201904191700 METAR LRIA 191700Z 02006KT 9999 -SHRA FEW029CB 10/05 Q1027
                        R14/29//95=
201904191730 METAR LRIA 191730Z VRB03KT 9999 -SHRA FEW027CB 08/03 Q1028
                        R14/29//95=
201904191800 METAR COR LRIA 191800Z 32005KT 9999 FEW050CB 06/02 Q1028
                        R14/29//95=
201904191830 METAR LRIA 191830Z 26003KT 230V300 CAVOK 06/03 Q1028 RERA
                        R14/29//95=
201904191900 METAR LRIA 191900Z 23002KT 160V260 CAVOK 06/04 Q1028 R14/29//95=
201904191930 METAR LRIA 191930Z 27003KT CAVOK 06/04 Q1028 R14/29//95=
201904192000 METAR LRIA 192000Z 30003KT CAVOK 06/04 Q1028 R14/29//95=
201904192030 METAR LRIA 192030Z AUTO 30006KT 9999 SCT084/// SCT100///
                        06/04 Q1028=
201904192100 METAR LRIA 192100Z 31006KT CAVOK 06/04 Q1028 R14/29//95=
201904192130 METAR LRIA 192130Z 26003KT CAVOK 05/03 Q1028 R14/29//95=
201904192200 METAR LRIA 192200Z AUTO 27003KT 5000 BR OVC098/// 05/03 Q1028=
201904192230 METAR LRIA 192230Z 24003KT CAVOK 05/04 Q1028 R14/29//95=
201904192300 METAR LRIA 192300Z 28004KT CAVOK 05/03 Q1028 R14/29//95=
201904192330 METAR COR LRIA 192330Z 25004KT CAVOK 05/03 Q1028 R14/29//95=
201904200000 METAR COR LRIA 200000Z 26003KT 5000 BR NSC 05/03 Q1028 R14/29//95=
201904200030 METAR LRIA 200030Z AUTO 24003KT 0900 R14/0800V1400U R32/P2000
                        FG FEW100/// 04/03 Q1028=
201904200100 METAR LRIA 200100Z AUTO 26003KT 0550 R14/0500V1000D R32/0400V0500N
                        FG NCD 04/03 Q1028=
201904200130 METAR COR LRIA 200130Z 23003KT 0200 R14/0250N R32/0325N FG
                        NSC 03/02 Q1028 R14/29//95=
201904200200 METAR LRIA 200200Z 25001KT 0300 R14/0375N R32/0325N FG NSC
                        02/01 Q1028 R14/29//95=
201904200230 METAR LRIA 200230Z 27002KT 0300 R14/0375N R32/0275N FG NSC
                        02/00 Q1028 R14/29//95=
201904200300 METAR LRIA 200300Z 24003KT 0200 R14/0225N R32/0300N FG NSC
                        02/01 Q1028 R14/29//95=
201904200330 METAR LRIA 200330Z 26003KT 0200 R14/0225N R32/0250N FG NSC
                        02/01 Q1028 R14/29//95=
201904200400 METAR LRIA 200400Z 25003KT 0250 R14/0325N R32/0225N FG NSC
                        02/00 Q1028 R14/29//95=
201904200430 METAR COR LRIA 200430Z 25004KT 0200 R14/0275N R32/0225N FG
                        NSC 02/01 Q1028 R14/29//95=
201904200500 METAR LRIA 200500Z 25004KT 0200 R14/0250N R32/0225N FG NSC
                        03/02 Q1028 R14/29//95=
201904200530 METAR LRIA 200530Z 25004KT 0250 R14/0325N R32/0325N FG BKN001
                        04/02 Q1028 R14/29//95=
201904200600 METAR LRIA 200600Z 26003KT 2800 BR NSC 05/04 Q1029 R14/29//95=
201904200630 METAR LRIA 200630Z 29005KT 270V330 8000 FEW001 07/05 Q1029
                        R14/29//95=
201904200700 METAR LRIA 200700Z 31005KT 9999 FEW001 09/05 Q1029 R14/19//95=
201904200730 METAR LRIA 200730Z 30006KT CAVOK 10/05 Q1029 R14/19//95=
201904200800 METAR COR LRIA 200800Z 34006KT CAVOK 11/02 Q1029 R14/CLRD//=
201904200830 METAR LRIA 200830Z 33006KT 280V020 CAVOK 12/02 Q1029=
201904200900 METAR LRIA 200900Z 01008KT 320V050 9999 FEW048 12/M02 Q1029=
201904200930 METAR LRIA 200930Z 36010KT 320V040 9999 SCT048 13/M02 Q1028=
201904201000 METAR LRIA 201000Z 01010KT CAVOK 12/M02 Q1028=
201904201030 METAR LRIA 201030Z 03008KT CAVOK 12/M03 Q1028=
201904201100 METAR LRIA 201100Z 04009KT CAVOK 13/M03 Q1028=
201904201130 METAR LRIA 201130Z 03006KT 010V070 CAVOK 13/M03 Q1028=
201904201200 METAR LRIA 201200Z 01009KT CAVOK 13/M03 Q1028=
201904201230 METAR LRIA 201230Z 01009KT CAVOK 14/M05 Q1027=
201904201300 METAR LRIA 201300Z 05008KT CAVOK 13/M03 Q1027=
201904201330 METAR LRIA 201330Z 34006KT 300V360 CAVOK 13/M01 Q1027=
201904201400 METAR LRIA 201400Z 30007KT 240V340 CAVOK 14/M02 Q1027=
201904201430 METAR LRIA 201430Z 34005KT 310V020 CAVOK 13/M03 Q1027=
201904201500 METAR LRIA 201500Z 34004KT CAVOK 13/M01 Q1027=
201904201530 METAR LRIA 201530Z 32003KT 260V330 CAVOK 14/M03 Q1026=
201904201600 METAR LRIA 201600Z 27002KT CAVOK 13/M02 Q1026=
201904201630 METAR LRIA 201630Z 31003KT CAVOK 13/M03 Q1026=
201904201700 METAR LRIA 201700Z 32003KT CAVOK 13/M04 Q1026=
201904201730 METAR LRIA 201730Z 00000KT CAVOK 12/M04 Q1026=
201904201800 METAR LRIA 201800Z 25002KT CAVOK 11/M03 Q1026=
201904201830 METAR LRIA 201830Z 22004KT CAVOK 11/M02 Q1026=
201904201900 METAR LRIA 201900Z 20003KT CAVOK 10/M01 Q1026=
201904201930 METAR LRIA 201930Z 21004KT CAVOK 09/M01 Q1026=
201904202000 METAR LRIA 202000Z 20003KT CAVOK 09/M01 Q1026=
201904202030 METAR LRIA 202030Z 22004KT CAVOK 08/M02 Q1025=
201904202100 METAR LRIA 202100Z 25002KT 210V280 CAVOK 08/M02 Q1025=
201904202130 METAR LRIA 202130Z 20002KT CAVOK 07/M01 Q1025=
201904202200 METAR LRIA 202200Z 22004KT CAVOK 07/M02 Q1025=
201904202230 METAR LRIA 202230Z 27002KT CAVOK 08/M02 Q1025=
201904202300 METAR LRIA 202300Z 24003KT 200V280 CAVOK 08/M02 Q1024=
201904202330 METAR LRIA 202330Z 23003KT CAVOK 08/M02 Q1024=
201904210000 METAR LRIA 210000Z 23003KT CAVOK 07/M02 Q1024=
201904210030 METAR LRIA 210030Z 23004KT CAVOK 07/M03 Q1024=
201904210100 METAR LRIA 210100Z 20002KT CAVOK 07/M03 Q1024=
201904210130 METAR LRIA 210130Z 17003KT 140V220 CAVOK 05/M03 Q1024=
201904210200 METAR LRIA 210200Z 10004KT CAVOK 04/M02 Q1023=
201904210230 METAR LRIA 210230Z 11004KT CAVOK 05/M02 Q1023=
201904210300 METAR LRIA 210300Z 10005KT CAVOK 04/M01 Q1023=
201904210330 METAR LRIA 210330Z 09006KT CAVOK 04/M02 Q1023=
201904210400 METAR LRIA 210400Z 03002KT CAVOK 05/M01 Q1023=
201904210430 METAR LRIA 210430Z 07005KT CAVOK 05/M00 Q1023=
201904210500 METAR LRIA 210500Z 08004KT CAVOK 06/00 Q1023=
201904210530 METAR LRIA 210530Z 07002KT CAVOK 08/01 Q1023=
201904210600 METAR LRIA 210600Z 10003KT CAVOK 08/00 Q1023=
201904210630 METAR LRIA 210630Z 11004KT CAVOK 09/02 Q1023=
201904210700 METAR LRIA 210700Z 12003KT 090V150 CAVOK 11/02 Q1023=
201904210730 METAR LRIA 210730Z 12003KT 090V150 CAVOK 13/02 Q1023=
201904210800 METAR LRIA 210800Z 12004KT CAVOK 14/02 Q1023=
201904210830 METAR LRIA 210830Z 11004KT 060V160 CAVOK 15/M00 Q1023=
201904210900 METAR LRIA 210900Z 19006KT 160V220 CAVOK 16/M03 Q1022=
201904210930 METAR LRIA 210930Z 21006KT 170V250 CAVOK 16/M03 Q1022=
201904211000 METAR LRIA 211000Z 12009KT CAVOK 16/M03 Q1022=
201904211030 METAR LRIA 211030Z 12010KT CAVOK 17/M02 Q1022=
201904211100 METAR LRIA 211100Z 11010KT CAVOK 17/M03 Q1021=
201904211130 METAR LRIA 211130Z 13009KT 100V160 CAVOK 17/M02 Q1021=
201904211200 METAR LRIA 211200Z 13009KT 100V160 CAVOK 16/M03 Q1021=
201904211230 METAR LRIA 211230Z 10011KT CAVOK 17/M02 Q1021=
201904211300 METAR LRIA 211300Z 11011KT CAVOK 17/M02 Q1021=
201904211330 METAR LRIA 211330Z 11012KT CAVOK 17/M02 Q1020=
201904211400 METAR LRIA 211400Z 11013KT CAVOK 16/M02 Q1020=
201904211430 METAR LRIA 211430Z 11012KT CAVOK 17/M01 Q1020=
201904211500 METAR LRIA 211500Z 12011KT CAVOK 16/M01 Q1020=
201904211530 METAR LRIA 211530Z 11011KT CAVOK 15/M02 Q1020=
201904211600 METAR LRIA 211600Z 12010KT CAVOK 15/M02 Q1020=
201904211630 METAR LRIA 211630Z 12009KT CAVOK 14/M01 Q1020=
201904211700 METAR LRIA 211700Z 12007KT CAVOK 13/M01 Q1021=
201904211730 METAR LRIA 211730Z 12005KT CAVOK 13/M01 Q1021=
201904211800 METAR LRIA 211800Z 11005KT CAVOK 13/M02 Q1021=
201904211830 METAR LRIA 211830Z 11005KT CAVOK 12/M01 Q1021=
201904211900 METAR LRIA 211900Z 10005KT CAVOK 12/M01 Q1021=
201904211930 METAR LRIA 211930Z 07004KT 010V090 CAVOK 12/M00 Q1021=
201904212000 METAR LRIA 212000Z 10010KT CAVOK 12/M00 Q1021=
201904212030 METAR LRIA 212030Z 11009KT CAVOK 11/01 Q1021=
201904212100 METAR LRIA 212100Z 17003KT 110V240 CAVOK 11/M01 Q1021=
201904212130 METAR LRIA 212130Z 19009KT CAVOK 11/M02 Q1021=
201904212200 METAR LRIA 212200Z 19009KT 150V220 CAVOK 11/M02 Q1021=
201904212230 METAR LRIA 212230Z 13005KT 100V170 CAVOK 10/M02 Q1021=
201904212300 METAR LRIA 212300Z 11007KT CAVOK 10/M01 Q1021=
201904212330 METAR LRIA 212330Z 13007KT 110V180 CAVOK 09/M02 Q1022=
201904220000 METAR LRIA 220000Z 15009KT CAVOK 09/M02 Q1021=
201904220030 METAR LRIA 220030Z 12007KT CAVOK 08/M02 Q1022=
201904220100 METAR LRIA 220100Z 11008KT CAVOK 07/M02 Q1022=
201904220130 METAR LRIA 220130Z 11007KT CAVOK 07/M02 Q1022=
201904220200 METAR LRIA 220200Z 13004KT CAVOK 06/M02 Q1022=
201904220230 METAR LRIA 220230Z 16005KT CAVOK 06/M02 Q1022=
201904220300 METAR LRIA 220300Z 13006KT 100V160 CAVOK 07/M02 Q1022=
201904220330 METAR LRIA 220330Z 10008KT CAVOK 06/M02 Q1022=
201904220400 METAR LRIA 220400Z 11007KT CAVOK 06/M01 Q1023=
201904220430 METAR LRIA 220430Z 10008KT CAVOK 07/M02 Q1023=
201904220500 METAR LRIA 220500Z 11011KT CAVOK 08/M02 Q1023=
201904220530 METAR LRIA 220530Z 10009KT CAVOK 08/M01 Q1023=
201904220600 METAR LRIA 220600Z 10009KT CAVOK 10/M01 Q1023=
201904220630 METAR LRIA 220630Z 10011KT CAVOK 11/M00 Q1023=
201904220700 METAR LRIA 220700Z 11013KT CAVOK 12/M01 Q1024=
201904220730 METAR LRIA 220730Z 12012KT CAVOK 13/M02 Q1024=
201904220800 METAR LRIA 220800Z 13009KT CAVOK 13/M03 Q1024=
201904220830 METAR LRIA 220830Z 14012KT CAVOK 15/M03 Q1024=
201904220900 METAR LRIA 220900Z 14013KT CAVOK 14/M05 Q1024=
201904220930 METAR LRIA 220930Z 11016KT CAVOK 15/M04 Q1024=
201904221000 METAR LRIA 221000Z 13016KT CAVOK 14/M05 Q1024=
201904221030 METAR LRIA 221030Z 12013KT CAVOK 15/M04 Q1024=
201904221100 METAR LRIA 221100Z 13013KT 100V170 CAVOK 15/M04 Q1024=
201904221130 METAR LRIA 221130Z 15010KT CAVOK 15/M04 Q1024=
201904221200 METAR LRIA 221200Z 17010KT 140V200 CAVOK 15/M04 Q1024=
201904221230 METAR LRIA 221230Z 17008KT 150V220 CAVOK 15/M04 Q1024=
201904221300 METAR LRIA 221300Z 14010KT 110V170 CAVOK 16/M04 Q1024=
201904221330 METAR LRIA 221330Z 14009KT CAVOK 15/M04 Q1024=
201904221400 METAR LRIA 221400Z 14009KT CAVOK 15/M03 Q1024=
201904221430 METAR LRIA 221430Z 14010KT CAVOK 15/M04 Q1024=
201904221500 METAR LRIA 221500Z 14008KT CAVOK 15/M03 Q1024=
201904221530 METAR LRIA 221530Z 16008KT 140V200 CAVOK 15/M04 Q1024=
201904221600 METAR LRIA 221600Z 21007KT 180V240 CAVOK 14/M03 Q1024=
201904221630 METAR LRIA 221630Z 25005KT CAVOK 13/M03 Q1024=
201904221700 METAR LRIA 221700Z 28002KT 240V320 CAVOK 13/M03 Q1025=
201904221730 METAR LRIA 221730Z 28002KT 220V290 CAVOK 13/M04 Q1025=
201904221800 METAR LRIA 221800Z 31003KT 270V330 CAVOK 10/M02 Q1025=
201904221830 METAR LRIA 221830Z 31004KT 220V340 CAVOK 08/M00 Q1025=
201904221900 METAR LRIA 221900Z 35007KT CAVOK 08/00 Q1025=
201904221930 METAR LRIA 221930Z 35005KT CAVOK 08/M00 Q1026=
201904222000 METAR LRIA 222000Z 28005KT 240V320 CAVOK 07/00 Q1026=
201904222030 METAR LRIA 222030Z 30006KT CAVOK 07/M00 Q1026=
201904222100 METAR LRIA 222100Z 30005KT CAVOK 08/M01 Q1026=
201904222130 METAR LRIA 222130Z 29003KT CAVOK 06/M00 Q1026=
201904222200 METAR LRIA 222200Z 27003KT CAVOK 04/M00 Q1026=
201904222230 METAR LRIA 222230Z VRB01KT CAVOK 05/00 Q1026=
201904222300 METAR LRIA 222300Z 29003KT CAVOK 05/M00 Q1027=
201904222330 METAR LRIA 222330Z 00000KT CAVOK 06/M00 Q1027=
201904230000 METAR LRIA 230000Z 00000KT CAVOK 05/M00 Q1026=
201904230030 METAR LRIA 230030Z 09003KT CAVOK 05/M01 Q1027=
201904230100 METAR LRIA 230100Z 06003KT 010V090 CAVOK 04/M01 Q1027=
201904230130 METAR LRIA 230130Z AUTO 10004KT 9999 NCD 06/M00 Q1027=
201904230200 METAR LRIA 230200Z 11004KT CAVOK 05/M01 Q1027=
201904230230 METAR LRIA 230230Z 12003KT CAVOK 05/M01 Q1027=
201904230300 METAR LRIA 230300Z 11004KT CAVOK 05/M01 Q1027=
201904230330 METAR LRIA 230330Z 12003KT 090V150 CAVOK 04/M01 Q1027=
201904230400 METAR LRIA 230400Z 10003KT 070V140 CAVOK 04/M00 Q1027=
201904230430 METAR LRIA 230430Z 12003KT 090V170 CAVOK 05/01 Q1027=
201904230500 METAR LRIA 230500Z 10003KT CAVOK 07/01 Q1027=
201904230530 METAR LRIA 230530Z 10003KT CAVOK 08/01 Q1028=
201904230600 METAR LRIA 230600Z 09005KT CAVOK 09/02 Q1027=
201904230630 METAR LRIA 230630Z 13006KT CAVOK 11/02 Q1028=
201904230700 METAR LRIA 230700Z 11008KT CAVOK 12/M01 Q1028=
201904230730 METAR LRIA 230730Z 10010KT CAVOK 14/M02 Q1028=
201904230800 METAR LRIA 230800Z 11010KT CAVOK 15/M03 Q1028=
201904230830 METAR LRIA 230830Z 12013KT CAVOK 16/M03 Q1028=
201904230900 METAR LRIA 230900Z 11012KT CAVOK 16/M04 Q1028=
201904230930 METAR LRIA 230930Z 12014KT CAVOK 17/M03 Q1028=
201904231000 METAR LRIA 231000Z 13013KT 100V160 CAVOK 18/M03 Q1027=
201904231030 METAR LRIA 231030Z 13016KT 100V160 CAVOK 17/M04 Q1027=
201904231100 METAR LRIA 231100Z 14013KT CAVOK 18/M03 Q1027=
201904231130 METAR LRIA 231130Z 13015KT CAVOK 18/M03 Q1027=
201904231200 METAR LRIA 231200Z 12015KT CAVOK 18/M03 Q1027=
201904231230 METAR LRIA 231230Z 12013KT 090V160 CAVOK 19/M04 Q1026=
201904231300 METAR LRIA 231300Z 13014KT CAVOK 18/M04 Q1026=
201904231330 METAR LRIA 231330Z 15013KT CAVOK 18/M04 Q1026=
201904231400 METAR LRIA 231400Z 14014KT CAVOK 18/M03 Q1026=
201904231430 METAR LRIA 231430Z 16014KT CAVOK 18/M03 Q1026=
201904231500 METAR LRIA 231500Z 15013KT CAVOK 17/M02 Q1025=
201904231530 METAR LRIA 231530Z 15014KT CAVOK 17/M03 Q1025=
201904231600 METAR LRIA 231600Z 14011KT CAVOK 16/M01 Q1025=
201904231630 METAR LRIA 231630Z 14012KT CAVOK 16/M02 Q1025=
201904231700 METAR LRIA 231700Z 14009KT CAVOK 14/M02 Q1025=
201904231730 METAR LRIA 231730Z 14010KT CAVOK 14/M02 Q1026=
201904231800 METAR LRIA 231800Z 16013KT CAVOK 14/M01 Q1026=
201904231830 METAR LRIA 231830Z 15014KT CAVOK 13/M01 Q1026=
201904231900 METAR LRIA 231900Z 15012KT CAVOK 13/M01 Q1027=
201904231930 METAR LRIA 231930Z 15012KT CAVOK 13/M02 Q1027=
201904232000 METAR LRIA 232000Z 17010KT CAVOK 13/M02 Q1027=
201904232030 METAR LRIA 232030Z 16009KT CAVOK 12/M02 Q1027=
201904232100 METAR LRIA 232100Z 15009KT CAVOK 12/M01 Q1027=
201904232130 METAR LRIA 232130Z 11006KT CAVOK 11/M01 Q1027=
201904232200 METAR LRIA 232200Z 14008KT CAVOK 11/M00 Q1027=
201904232230 METAR LRIA 232230Z 13007KT CAVOK 10/00 Q1026=
201904232300 METAR LRIA 232300Z 12006KT CAVOK 10/M01 Q1026=
201904232330 METAR LRIA 232330Z 09006KT CAVOK 09/M00 Q1026=
201904240000 METAR LRIA 240000Z 09006KT CAVOK 09/M00 Q1026=
201904240030 METAR LRIA 240030Z 11008KT CAVOK 08/M00 Q1026=
201904240100 METAR LRIA 240100Z 12008KT CAVOK 08/M00 Q1026=
201904240130 METAR LRIA 240130Z 11010KT CAVOK 08/M00 Q1026=
201904240200 METAR LRIA 240200Z 11010KT CAVOK 08/M00 Q1026=
201904240230 METAR LRIA 240230Z 12009KT CAVOK 08/00 Q1026=
201904240300 METAR LRIA 240300Z 12010KT CAVOK 08/00 Q1026=
201904240330 METAR LRIA 240330Z 12010KT CAVOK 08/00 Q1026=
201904240400 METAR LRIA 240400Z 12009KT CAVOK 08/01 Q1027=
201904240430 METAR LRIA 240430Z 12009KT CAVOK 08/01 Q1027=
201904240500 METAR LRIA 240500Z 11010KT CAVOK 09/01 Q1027=
201904240530 METAR LRIA 240530Z 11010KT CAVOK 09/01 Q1027=
201904240600 METAR LRIA 240600Z 12009KT CAVOK 10/02 Q1028=
201904240630 METAR LRIA 240630Z 12009KT CAVOK 11/03 Q1028=
201904240700 METAR LRIA 240700Z 15008KT CAVOK 12/01 Q1028=
201904240730 METAR LRIA 240730Z 15009KT CAVOK 13/02 Q1028=
201904240800 METAR LRIA 240800Z 15012KT CAVOK 13/01 Q1028=
201904240830 METAR LRIA 240830Z 14012KT CAVOK 13/01 Q1028=
201904240900 METAR LRIA 240900Z 12012KT CAVOK 13/03 Q1028=
201904240930 METAR LRIA 240930Z 16011KT CAVOK 14/02 Q1029=
201904241000 METAR LRIA 241000Z 14011KT CAVOK 14/02 Q1028=
201904241030 METAR LRIA 241030Z 13013KT CAVOK 15/03 Q1028=
201904241100 METAR LRIA 241100Z 14015KT CAVOK 15/02 Q1028=
201904241130 METAR LRIA 241130Z 15015KT CAVOK 16/01 Q1028=
201904241200 METAR LRIA 241200Z 14016KT CAVOK 16/02 Q1027=
201904241230 METAR LRIA 241230Z 15013KT CAVOK 16/01 Q1027=
201904241300 METAR LRIA 241300Z 17013KT CAVOK 16/01 Q1027=
201904241330 METAR LRIA 241330Z 14013KT CAVOK 17/01 Q1027=
201904241400 METAR LRIA 241400Z 13016KT CAVOK 16/01 Q1026=
201904241430 METAR LRIA 241430Z 13016KT CAVOK 16/01 Q1026=
201904241500 METAR LRIA 241500Z 13016KT CAVOK 16/02 Q1026=
201904241530 METAR LRIA 241530Z 14014KT CAVOK 16/02 Q1026=
201904241600 METAR LRIA 241600Z 15012KT CAVOK 15/03 Q1026=
201904241630 METAR LRIA 241630Z 15010KT CAVOK 14/03 Q1026=
201904241700 METAR LRIA 241700Z 14008KT CAVOK 14/03 Q1026=
201904241730 METAR LRIA 241730Z 14008KT CAVOK 12/03 Q1026=
201904241800 METAR LRIA 241800Z 12008KT CAVOK 12/03 Q1026=
201904241830 METAR LRIA 241830Z 12008KT CAVOK 11/03 Q1026=
201904241900 METAR LRIA 241900Z 12009KT CAVOK 11/03 Q1026=
201904241930 METAR LRIA 241930Z 11008KT CAVOK 11/02 Q1026=
201904242000 METAR LRIA 242000Z 11008KT CAVOK 10/02 Q1026=
201904242030 METAR LRIA 242030Z 10008KT CAVOK 10/02 Q1026=
201904242100 METAR LRIA 242100Z 11007KT CAVOK 09/02 Q1026=
201904242130 METAR LRIA 242130Z 12008KT CAVOK 11/02 Q1026=
201904242200 METAR LRIA 242200Z 15008KT CAVOK 10/02 Q1026=
201904242230 METAR LRIA 242230Z 15007KT CAVOK 10/02 Q1026=
201904242300 METAR LRIA 242300Z 16008KT CAVOK 11/01 Q1026=
201904242330 METAR LRIA 242330Z 12006KT 100V170 CAVOK 09/01 Q1026=
201904250000 METAR LRIA 250000Z 12007KT CAVOK 08/01 Q1026=
201904250030 METAR LRIA 250030Z 11006KT CAVOK 08/01 Q1025=
201904250100 METAR LRIA 250100Z 12007KT CAVOK 07/02 Q1026=
201904250130 METAR LRIA 250130Z 11009KT CAVOK 07/02 Q1026=
201904250200 METAR COR LRIA 250200Z 11008KT CAVOK 07/01 Q1025=
201904250230 METAR LRIA 250230Z 11008KT CAVOK 06/01 Q1025=
201904250300 METAR LRIA 250300Z 11007KT CAVOK 06/01 Q1025=
201904250330 METAR LRIA 250330Z 11010KT CAVOK 06/01 Q1025=
201904250400 METAR LRIA 250400Z 11010KT CAVOK 07/01 Q1025=
201904250430 METAR LRIA 250430Z 11009KT CAVOK 08/02 Q1025=
201904250500 METAR LRIA 250500Z 11010KT CAVOK 09/02 Q1026=
201904250530 METAR LRIA 250530Z 10011KT CAVOK 10/02 Q1026=
201904250600 METAR LRIA 250600Z 11011KT CAVOK 11/03 Q1026=
201904250630 METAR LRIA 250630Z 11013KT CAVOK 12/03 Q1026=
201904250700 METAR LRIA 250700Z 12012KT CAVOK 14/03 Q1026=
201904250730 METAR LRIA 250730Z 12014KT CAVOK 15/02 Q1025=
201904250800 METAR LRIA 250800Z 13016KT CAVOK 16/01 Q1025=
201904250830 METAR LRIA 250830Z 15015KT CAVOK 17/01 Q1025=
201904250900 METAR LRIA 250900Z 14015KT CAVOK 18/02 Q1025=
201904250930 METAR LRIA 250930Z 16014KT CAVOK 18/02 Q1025=
201904251000 METAR LRIA 251000Z 17011KT CAVOK 19/03 Q1024=
201904251030 METAR LRIA 251030Z 17013KT 140V200 CAVOK 19/03 Q1024=
201904251100 METAR LRIA 251100Z 16014KT CAVOK 20/04 Q1024=
201904251130 METAR LRIA 251130Z 15015KT CAVOK 20/04 Q1023=
201904251200 METAR LRIA 251200Z 15014KT CAVOK 20/04 Q1023=
201904251230 METAR LRIA 251230Z 17011KT CAVOK 20/04 Q1023=
201904251300 METAR LRIA 251300Z 15014KT CAVOK 21/04 Q1023=
201904251330 METAR LRIA 251330Z 16013KT CAVOK 21/05 Q1022=
201904251400 METAR LRIA 251400Z 16012KT 130V210 CAVOK 21/05 Q1022=
201904251430 METAR LRIA 251430Z 14014KT CAVOK 21/04 Q1022=
201904251500 METAR LRIA 251500Z 14014KT CAVOK 20/05 Q1021=
201904251530 METAR LRIA 251530Z 15010KT CAVOK 20/06 Q1021=
201904251600 METAR LRIA 251600Z 16009KT CAVOK 20/05 Q1021=
201904251630 METAR LRIA 251630Z 15007KT CAVOK 18/06 Q1021=
201904251700 METAR COR LRIA 251700Z 13009KT CAVOK 18/05 Q1021=
201904251730 METAR LRIA 251730Z 14009KT CAVOK 17/05 Q1022=
201904251800 METAR LRIA 251800Z 13010KT CAVOK 16/05 Q1022=
201904251830 METAR LRIA 251830Z 14009KT CAVOK 15/05 Q1022=
201904251900 METAR LRIA 251900Z 15007KT 110V170 CAVOK 14/04 Q1022=
201904251930 METAR LRIA 251930Z 14007KT CAVOK 14/04 Q1022=
201904252000 METAR LRIA 252000Z 14007KT CAVOK 14/03 Q1021=
201904252030 METAR LRIA 252030Z 12010KT CAVOK 13/03 Q1021=
201904252100 METAR LRIA 252100Z 13009KT CAVOK 13/02 Q1021=
201904252130 METAR LRIA 252130Z 13008KT CAVOK 12/02 Q1021=
201904252200 METAR LRIA 252200Z 13010KT CAVOK 12/03 Q1021=
201904252230 METAR COR LRIA 252230Z 12009KT CAVOK 11/03 Q1021=
201904252300 METAR LRIA 252300Z 11009KT CAVOK 10/03 Q1021=
201904252330 METAR LRIA 252330Z AUTO 11009KT 9999 NCD 10/03 Q1021=
201904260000 METAR LRIA 260000Z AUTO 11010KT 9999 NCD 09/03 Q1021=
201904260030 METAR LRIA 260030Z AUTO 11008KT 9999 FEW140/// 09/03 Q1021=
201904260100 METAR COR LRIA 260100Z 11009KT CAVOK 08/03 Q1021=
201904260130 METAR LRIA 260130Z 11010KT CAVOK 08/03 Q1020=
201904260200 METAR LRIA 260200Z AUTO 12010KT 9999 OVC110/// 08/03 Q1020=
201904260230 METAR COR LRIA 260230Z 11010KT CAVOK 08/03 Q1020=
201904260300 METAR LRIA 260300Z 11009KT CAVOK 08/03 Q1020=
201904260330 METAR LRIA 260330Z 10009KT CAVOK 08/03 Q1020=
201904260400 METAR LRIA 260400Z 11009KT CAVOK 08/03 Q1020=
201904260430 METAR LRIA 260430Z 11008KT CAVOK 09/04 Q1020=
201904260500 METAR LRIA 260500Z 11010KT CAVOK 09/04 Q1020=
201904260530 METAR LRIA 260530Z 12012KT CAVOK 10/04 Q1020=
201904260600 METAR LRIA 260600Z 12012KT CAVOK 11/04 Q1020=
201904260630 METAR LRIA 260630Z 11010KT CAVOK 13/05 Q1020=
201904260700 METAR LRIA 260700Z 12009KT CAVOK 14/05 Q1020=
201904260730 METAR LRIA 260730Z 12010KT CAVOK 15/06 Q1020=
201904260800 METAR LRIA 260800Z 11009KT CAVOK 17/07 Q1020=
201904260830 METAR LRIA 260830Z 11011KT CAVOK 18/06 Q1020=
201904260900 METAR LRIA 260900Z 17006KT 120V210 CAVOK 19/06 Q1019=
201904260930 METAR LRIA 260930Z 19007KT 160V220 CAVOK 20/06 Q1019=
201904261000 METAR LRIA 261000Z 19008KT 160V220 CAVOK 21/06 Q1019=
201904261030 METAR LRIA 261030Z 14008KT CAVOK 21/07 Q1019=
201904261100 METAR LRIA 261100Z 19008KT 150V230 CAVOK 22/07 Q1018=
201904261130 METAR LRIA 261130Z 15007KT CAVOK 23/08 Q1018=
201904261200 METAR LRIA 261200Z 16008KT 130V200 CAVOK 23/08 Q1018=
201904261230 METAR LRIA 261230Z 17007KT 130V210 CAVOK 24/07 Q1018=
201904261300 METAR LRIA 261300Z 15009KT 120V180 CAVOK 24/07 Q1017=
201904261330 METAR LRIA 261330Z 15008KT CAVOK 24/07 Q1017=
201904261400 METAR LRIA 261400Z 19008KT 160V220 CAVOK 24/07 Q1016=
201904261430 METAR LRIA 261430Z 16009KT CAVOK 24/07 Q1016=
201904261500 METAR LRIA 261500Z 15010KT CAVOK 24/07 Q1016=
201904261530 METAR LRIA 261530Z 18009KT CAVOK 23/06 Q1016=
201904261600 METAR LRIA 261600Z 17008KT CAVOK 23/06 Q1016=
201904261630 METAR LRIA 261630Z 17007KT CAVOK 22/06 Q1016=
201904261700 METAR LRIA 261700Z 15006KT 120V180 CAVOK 21/07 Q1016=
201904261730 METAR LRIA 261730Z 14007KT CAVOK 19/07 Q1016=
201904261800 METAR LRIA 261800Z 15007KT CAVOK 19/07 Q1016=
201904261830 METAR LRIA 261830Z 15008KT CAVOK 19/06 Q1017=
201904261900 METAR LRIA 261900Z 12007KT CAVOK 17/06 Q1017=
201904261930 METAR LRIA 261930Z 11008KT 100V160 CAVOK 16/05 Q1017=
201904262000 METAR LRIA 262000Z 11006KT CAVOK 15/05 Q1017=
201904262030 METAR LRIA 262030Z 13006KT CAVOK 14/05 Q1017=
201904262100 METAR LRIA 262100Z 11008KT CAVOK 14/05 Q1016=
201904262130 METAR LRIA 262130Z 12011KT CAVOK 13/04 Q1016=
201904262200 METAR LRIA 262200Z 12010KT CAVOK 13/04 Q1016=
201904262230 METAR LRIA 262230Z 12009KT CAVOK 12/04 Q1016=
201904262300 METAR LRIA 262300Z 12006KT CAVOK 11/04 Q1016=
201904262330 METAR LRIA 262330Z 12008KT CAVOK 11/04 Q1016=
201904270000 METAR LRIA 270000Z 12011KT CAVOK 12/03 Q1015=
201904270030 METAR LRIA 270030Z 11010KT CAVOK 11/03 Q1015=
201904270100 METAR LRIA 270100Z 11010KT CAVOK 10/03 Q1015=
201904270130 METAR LRIA 270130Z 11009KT CAVOK 10/03 Q1014=
201904270200 METAR LRIA 270200Z 12009KT CAVOK 10/03 Q1014=
201904270230 METAR LRIA 270230Z 12010KT CAVOK 10/03 Q1014=
201904270300 METAR LRIA 270300Z 12009KT CAVOK 09/03 Q1014=
201904270330 METAR LRIA 270330Z 11010KT CAVOK 09/03 Q1014=
201904270400 METAR LRIA 270400Z 12010KT CAVOK 10/03 Q1014=
201904270430 METAR LRIA 270430Z 12009KT CAVOK 10/03 Q1014=
201904270500 METAR LRIA 270500Z 12010KT CAVOK 12/03 Q1013=
201904270530 METAR LRIA 270530Z 12008KT CAVOK 14/04 Q1014=
201904270600 METAR LRIA 270600Z 12009KT CAVOK 15/04 Q1014=
201904270630 METAR LRIA 270630Z 13006KT CAVOK 16/04 Q1013=
201904270700 METAR LRIA 270700Z 14006KT CAVOK 18/06 Q1013=
201904270730 METAR LRIA 270730Z 13006KT CAVOK 19/07 Q1013=
201904270800 METAR LRIA 270800Z 15006KT 120V180 CAVOK 19/06 Q1013=
201904270830 METAR LRIA 270830Z 17005KT 090V210 CAVOK 21/07 Q1013=
201904270900 METAR COR LRIA 270900Z 20007KT 110V240 CAVOK 22/07 Q1013=
201904270930 METAR LRIA 270930Z 19008KT 140V220 CAVOK 22/07 Q1013=
201904271000 METAR LRIA 271000Z 16008KT 120V180 CAVOK 23/07 Q1012=
201904271030 METAR LRIA 271030Z 17008KT CAVOK 23/07 Q1012=
201904271100 METAR LRIA 271100Z 17008KT 140V210 CAVOK 24/07 Q1011=
201904271130 METAR LRIA 271130Z 15010KT CAVOK 24/08 Q1011=
201904271200 METAR COR LRIA 271200Z 20008KT 170V230 CAVOK 25/08 Q1011=
201904271230 METAR COR LRIA 271230Z 18008KT 150V220 CAVOK 26/08 Q1011=
201904271300 METAR LRIA 271300Z 19009KT 150V230 CAVOK 26/08 Q1010=
201904271330 METAR LRIA 271330Z 19008KT 150V210 CAVOK 26/08 Q1010=
201904271400 METAR LRIA 271400Z 17010KT CAVOK 26/08 Q1010=
201904271430 METAR LRIA 271430Z 19008KT CAVOK 25/08 Q1010=
201904271500 METAR LRIA 271500Z 15007KT CAVOK 25/08 Q1009=
201904271530 METAR COR LRIA 271530Z 18010KT CAVOK 25/07 Q1009=
201904271600 METAR LRIA 271600Z 19008KT 160V220 CAVOK 24/08 Q1009=
201904271630 METAR LRIA 271630Z 18007KT CAVOK 23/08 Q1009=
201904271700 METAR LRIA 271700Z 17006KT CAVOK 22/08 Q1009=
201904271730 METAR LRIA 271730Z 14006KT CAVOK 20/08 Q1009=
201904271800 METAR LRIA 271800Z 12008KT CAVOK 19/07 Q1009=
201904271830 METAR LRIA 271830Z 16007KT CAVOK 19/07 Q1009=
201904271900 METAR LRIA 271900Z 15006KT CAVOK 18/06 Q1009=
201904271930 METAR LRIA 271930Z 11007KT 070V160 CAVOK 17/05 Q1009=
201904272000 METAR LRIA 272000Z 11007KT CAVOK 16/04 Q1009=
201904272030 METAR LRIA 272030Z 11008KT CAVOK 16/04 Q1009=
201904272100 METAR LRIA 272100Z 11007KT CAVOK 15/04 Q1009=
201904272130 METAR LRIA 272130Z 11009KT CAVOK 15/04 Q1009=
201904272200 METAR LRIA 272200Z 13006KT CAVOK 14/04 Q1009=
201904272230 METAR LRIA 272230Z 12005KT CAVOK 14/04 Q1009=
201904272300 METAR LRIA 272300Z 11007KT CAVOK 13/03 Q1008=
201904272330 METAR LRIA 272330Z 12006KT CAVOK 13/03 Q1009=
201904280000 METAR LRIA 280000Z 11006KT CAVOK 12/03 Q1009=
201904280030 METAR LRIA 280030Z 11006KT CAVOK 11/03 Q1009=
201904280100 METAR LRIA 280100Z 11007KT CAVOK 11/03 Q1008=
201904280130 METAR LRIA 280130Z 09009KT CAVOK 11/03 Q1008=
201904280200 METAR LRIA 280200Z 10009KT CAVOK 10/03 Q1008=
201904280230 METAR LRIA 280230Z 10007KT CAVOK 10/03 Q1008=
201904280300 METAR LRIA 280300Z 10008KT CAVOK 09/03 Q1007=
201904280330 METAR LRIA 280330Z 09006KT CAVOK 09/03 Q1007=
201904280400 METAR LRIA 280400Z 08005KT CAVOK 09/04 Q1008=
201904280430 METAR LRIA 280430Z 09006KT CAVOK 10/04 Q1008=
201904280500 METAR LRIA 280500Z 09005KT CAVOK 10/04 Q1008=
201904280530 METAR LRIA 280530Z 12007KT CAVOK 11/05 Q1008=
201904280600 METAR LRIA 280600Z 10006KT CAVOK 12/05 Q1008=
201904280630 METAR LRIA 280630Z 10006KT CAVOK 14/05 Q1008=
201904280700 METAR LRIA 280700Z 11006KT 080V140 CAVOK 15/05 Q1008=
201904280730 METAR LRIA 280730Z 13005KT 080V150 CAVOK 16/06 Q1008=
201904280800 METAR LRIA 280800Z 11006KT 080V150 CAVOK 17/06 Q1008=
201904280830 METAR LRIA 280830Z 11010KT 080V140 CAVOK 18/07 Q1008=
201904280900 METAR LRIA 280900Z 14006KT 100V170 CAVOK 18/07 Q1008=
201904280930 METAR LRIA 280930Z 13007KT CAVOK 19/07 Q1008=
201904281000 METAR LRIA 281000Z 12009KT 080V150 CAVOK 19/07 Q1008=
201904281030 METAR LRIA 281030Z 17007KT 140V230 CAVOK 21/08 Q1008=
201904281100 METAR LRIA 281100Z 19008KT 170V230 CAVOK 21/07 Q1008=
201904281130 METAR LRIA 281130Z 15007KT 120V230 CAVOK 20/08 Q1007=
201904281200 METAR LRIA 281200Z 14005KT 110V240 CAVOK 21/09 Q1007=
201904281230 METAR LRIA 281230Z VRB04KT 9999 SCT047 21/09 Q1007=
201904281300 METAR LRIA 281300Z VRB05KT CAVOK 22/09 Q1007=
201904281330 METAR LRIA 281330Z 26007KT 230V300 9999 FEW047TCU 23/10 Q1007=
201904281400 METAR LRIA 281400Z 24006KT 190V290 9999 FEW047TCU 22/09 Q1007=
201904281430 METAR LRIA 281430Z 25008KT 220V290 9999 FEW047TCU 22/08 Q1007=
201904281500 METAR LRIA 281500Z 25007KT 210V280 CAVOK 22/08 Q1007=
201904281530 METAR LRIA 281530Z 25007KT 220V290 9999 FEW047TCU 22/08 Q1007=
201904281600 METAR LRIA 281600Z 27006KT 9999 FEW047TCU 21/08 Q1007=
201904281630 METAR LRIA 281630Z 29005KT CAVOK 21/08 Q1007=
201904281700 METAR COR LRIA 281700Z 29004KT CAVOK 20/07 Q1007=
201904281730 METAR LRIA 281730Z 30004KT CAVOK 19/06 Q1007=
201904281800 METAR LRIA 281800Z 31003KT CAVOK 18/06 Q1008=
201904281830 METAR LRIA 281830Z 32006KT CAVOK 17/06 Q1008=
201904281900 METAR LRIA 281900Z 33006KT CAVOK 16/07 Q1008=
201904281930 METAR LRIA 281930Z 30006KT 260V320 CAVOK 15/08 Q1008=
201904282000 METAR LRIA 282000Z 30004KT CAVOK 16/07 Q1009=
201904282030 METAR LRIA 282030Z 31009KT 9999 -RA SCT021 16/08 Q1009=
201904282100 METAR LRIA 282100Z 33009KT 9999 FEW025 14/09 Q1009=
201904282130 METAR LRIA 282130Z 32008KT CAVOK 14/09 Q1009=
201904282200 METAR LRIA 282200Z 29005KT CAVOK 13/09 Q1010=
201904282230 METAR LRIA 282230Z 29004KT CAVOK 13/09 Q1010=
201904282300 METAR LRIA 282300Z 26003KT CAVOK 13/09 Q1010=
201904282330 METAR LRIA 282330Z 27004KT 240V310 CAVOK 12/08 Q1010=
201904290000 METAR LRIA 290000Z 26003KT 230V290 CAVOK 12/08 Q1010=
201904290030 METAR LRIA 290030Z 27004KT CAVOK 11/08 Q1010=
201904290100 METAR LRIA 290100Z 27004KT CAVOK 11/07 Q1010=
201904290130 METAR LRIA 290130Z 29005KT CAVOK 10/07 Q1010=
201904290200 METAR LRIA 290200Z 28003KT CAVOK 10/07 Q1010=
201904290230 METAR COR LRIA 290230Z VRB01KT CAVOK 10/07 Q1010=
201904290300 METAR LRIA 290300Z 24002KT CAVOK 10/07 Q1010=
201904290330 METAR LRIA 290330Z VRB01KT CAVOK 09/07 Q1010=
201904290400 METAR LRIA 290400Z 27002KT CAVOK 11/07 Q1010=
201904290430 METAR LRIA 290430Z 21002KT CAVOK 11/08 Q1011=
201904290500 METAR LRIA 290500Z 27003KT 230V310 CAVOK 13/08 Q1011=
201904290530 METAR LRIA 290530Z 29006KT CAVOK 13/08 Q1011=
201904290600 METAR LRIA 290600Z 29005KT 270V340 CAVOK 14/08 Q1011=
201904290630 METAR LRIA 290630Z 30006KT 270V330 CAVOK 15/08 Q1011=
201904290700 METAR LRIA 290700Z 28006KT 250V320 9999 FEW026 16/08 Q1011=
201904290730 METAR LRIA 290730Z 32006KT 290V350 9999 FEW030 16/08 Q1011=
201904290800 METAR LRIA 290800Z VRB05KT 9999 FEW034 17/07 Q1011=
201904290830 METAR LRIA 290830Z 30005KT 240V360 9999 FEW038 18/07 Q1011=
201904290900 METAR LRIA 290900Z 30005KT 250V330 9999 FEW040 18/07 Q1010=
201904290930 METAR LRIA 290930Z 30003KT 270V340 9999 FEW042 19/07 Q1010=
201904291000 METAR LRIA 291000Z VRB04KT 9999 SCT040 FEW042TCU 19/06 Q1010=
201904291030 METAR LRIA 291030Z VRB04KT 9999 SCT046 FEW046TCU 21/07 Q1010=
201904291100 METAR LRIA 291100Z VRB03KT 9999 FEW051TCU 20/06 Q1009=
201904291130 METAR LRIA 291130Z VRB04KT 9999 FEW051TCU 20/06 Q1009=
201904291200 METAR LRIA 291200Z 17006KT 130V210 9999 FEW054TCU 20/06 Q1009=
201904291230 METAR LRIA 291230Z 17007KT CAVOK 20/06 Q1009=
201904291300 METAR LRIA 291300Z 20005KT 150V270 9999 FEW055TCU 20/07 Q1009=
201904291330 METAR LRIA 291330Z 24005KT 210V290 CAVOK 21/06 Q1009=
201904291400 METAR LRIA 291400Z 14004KT 110V180 9999 FEW055TCU 21/06 Q1008=
201904291430 METAR LRIA 291430Z 19004KT 110V210 CAVOK 20/05 Q1008=
201904291500 METAR LRIA 291500Z 14004KT 080V180 CAVOK 21/05 Q1008=
201904291530 METAR LRIA 291530Z 18004KT 150V220 CAVOK 21/04 Q1008=
201904291600 METAR LRIA 291600Z 13003KT 080V160 CAVOK 21/04 Q1008=
201904291630 METAR LRIA 291630Z 12004KT CAVOK 20/05 Q1008=
201904291700 METAR LRIA 291700Z 10004KT CAVOK 19/04 Q1008=
201904291730 METAR LRIA 291730Z 08005KT CAVOK 18/04 Q1008=
201904291800 METAR LRIA 291800Z 06005KT CAVOK 17/04 Q1008=
201904291830 METAR LRIA 291830Z 10004KT CAVOK 17/04 Q1009=
201904291900 METAR LRIA 291900Z 15004KT 110V220 CAVOK 15/04 Q1009=
201904291930 METAR LRIA 291930Z 00000KT CAVOK 16/04 Q1009=
201904292000 METAR LRIA 292000Z 00000KT CAVOK 16/04 Q1009=
201904292030 METAR LRIA 292030Z 00000KT CAVOK 15/04 Q1009=
201904292100 METAR LRIA 292100Z 00000KT CAVOK 15/04 Q1009=
201904292130 METAR LRIA 292130Z 00000KT CAVOK 12/04 Q1009=
201904292200 METAR LRIA 292200Z 28004KT CAVOK 12/04 Q1009=
201904292230 METAR LRIA 292230Z 31004KT CAVOK 12/05 Q1009=
201904292300 METAR LRIA 292300Z 25002KT CAVOK 09/05 Q1009=
201904292330 METAR LRIA 292330Z 23003KT CAVOK 10/05 Q1009=
201904300000 METAR LRIA 300000Z 28004KT CAVOK 11/06 Q1009=
201904300030 METAR LRIA 300030Z 26003KT CAVOK 11/06 Q1009=
201904300100 METAR LRIA 300100Z 25003KT CAVOK 10/06 Q1009=
201904300130 METAR LRIA 300130Z 26004KT CAVOK 10/06 Q1009=
201904300200 METAR LRIA 300200Z 26003KT CAVOK 10/06 Q1009=
201904300230 METAR LRIA 300230Z 26002KT CAVOK 09/06 Q1009=
201904300300 METAR LRIA 300300Z 25003KT CAVOK 09/06 Q1009=
201904300330 METAR LRIA 300330Z 24004KT CAVOK 09/06 Q1009=
201904300400 METAR LRIA 300400Z 25004KT CAVOK 10/07 Q1009=
201904300430 METAR LRIA 300430Z 25004KT CAVOK 10/07 Q1009=
201904300500 METAR LRIA 300500Z 25004KT CAVOK 11/07 Q1009=
201904300530 METAR LRIA 300530Z 24004KT 210V270 CAVOK 11/08 Q1009=
201904300600 METAR LRIA 300600Z 28005KT 240V310 CAVOK 12/08 Q1009=
201904300630 METAR LRIA 300630Z 29004KT 260V330 CAVOK 13/08 Q1009=
201904300700 METAR LRIA 300700Z 28004KT 250V330 CAVOK 13/09 Q1009=
201904300730 METAR LRIA 300730Z 19003KT 140V240 CAVOK 14/08 Q1009=
201904300800 METAR LRIA 300800Z 25003KT CAVOK 15/09 Q1009=
201904300830 METAR LRIA 300830Z 26004KT 230V310 CAVOK 14/09 Q1009=
201904300900 METAR LRIA 300900Z 27004KT 240V310 CAVOK 14/09 Q1009=
201904300930 METAR LRIA 300930Z 25004KT 210V280 9999 -RA NSC 14/09 Q1009=
201904301000 METAR LRIA 301000Z 27004KT CAVOK 15/10 Q1009=
201904301030 METAR LRIA 301030Z 28003KT CAVOK 15/10 Q1009=
201904301100 METAR LRIA 301100Z 27003KT 220V310 9999 -RA NSC 15/10 Q1008=
201904301130 METAR LRIA 301130Z 30002KT CAVOK 15/10 Q1008=
201904301200 METAR LRIA 301200Z 29003KT 250V340 CAVOK 16/10 Q1007=
201904301230 METAR LRIA 301230Z 29003KT 240V350 CAVOK 18/10 Q1007=
201904301300 METAR LRIA 301300Z 01003KT 320V040 CAVOK 18/09 Q1006=
201904301330 METAR LRIA 301330Z 06003KT 330V120 CAVOK 18/09 Q1006=
201904301400 METAR LRIA 301400Z 11003KT 080V160 CAVOK 19/09 Q1005=
201904301430 METAR LRIA 301430Z 09002KT CAVOK 18/09 Q1005=
201904301500 METAR LRIA 301500Z 01004KT 330V040 CAVOK 18/09 Q1005=
201904301530 METAR LRIA 301530Z 02003KT 9999 BKN046 18/09 Q1004=
201904301600 METAR LRIA 301600Z 02005KT 9999 BKN046 18/09 Q1004=
201904301630 METAR LRIA 301630Z 02006KT 9999 BKN042 18/09 Q1004=
201904301700 METAR LRIA 301700Z 08007KT 9999 BKN038 FEW050CB 18/09 Q1003=
201904301730 METAR LRIA 301730Z 09013KT 9999 SCT037 FEW045CB 18/09 Q1003=
201904301800 METAR LRIA 301800Z 10010KT 9999 FEW044CB BKN048 17/10 Q1003=
201904301830 METAR LRIA 301830Z 12010KT 9999 -SHRA FEW044CB 16/11 Q1004=
201904301900 METAR LRIA 301900Z 14009KT 9999 -SHRA FEW042CB 15/10 Q1004
                        R14/29//95=
201904301930 METAR LRIA 301930Z 21004KT 160V260 9999 -RA FEW012 SCT032CB
                        14/11 Q1004 R14/29//95=
201904302000 METAR LRIA 302000Z 23004KT 200V300 9999 -RA FEW006 SCT023
                        FEW032CB 13/11 Q1004 R14/29//95=
201904302030 METAR LRIA 302030Z 31007KT 9999 -RA FEW014 SCT023 FEW032CB
                        12/10 Q1003 R14/29//95=
201904302100 METAR LRIA 302100Z 33007KT 9999 -RA FEW014 SCT018 12/10 Q1003
                        R14/29//95=
201904302130 METAR LRIA 302130Z 33008KT 9999 SCT017 BKN023 12/10 Q1002
                        R14/29//95=
201904302200 METAR LRIA 302200Z 34006KT 9999 BKN026 12/10 Q1002 R14/29//95=
201904302230 METAR LRIA 302230Z 26004KT 220V300 9999 FEW003 SCT013 12/10
                        Q1002 R14/29//95=
201904302300 METAR LRIA 302300Z 25004KT 210V320 9999 FEW003 SCT012 BKN034
                        12/10 Q1002 R14/29//95=
201904302330 METAR LRIA 302330Z 24004KT 9999 FEW002 BKN012 12/10 Q1002
                        R14/29//95=