201905010000 METAR LRIA 010000Z 25003KT 9999 FEW002 SCT024 12/10 Q1001
                        R14/29//95=
201905010030 METAR LRIA 010030Z 27002KT 200V340 9999 FEW018 BKN023 11/10
                        Q1001 R14/29//95=
201905010100 METAR LRIA 010100Z 22003KT 3600 BR NFEW005 SCT024 11/09 Q1000
                        R14/29//95=
201905010130 METAR LRIA 010130Z 20004KT 150V230 7000 FEW003 SCT023 11/09
                        Q1000 R14/29//95=
201905010200 METAR LRIA 010200Z 19005KT 9999 FEW002 SCT021 10/09 Q1000
                        R14/29//95=
201905010230 METAR LRIA 010230Z 19004KT 9999 FEW002 SCT017 10/08 Q1000
                        R14/29//95=
201905010300 METAR LRIA 010300Z 18002KT 150V210 9999 FEW002 BKN016 10/09
                        Q1000 R14/19//95=
201905010330 METAR LRIA 010330Z 12004KT 9999 FEW013 BKN017 11/09 Q1000
                        R14/19//95=
201905010400 METAR LRIA 010400Z 13005KT 9999 SCT015 11/09 Q1000 R14/19//95=
201905010430 METAR LRIA 010430Z 12007KT 9999 SCT015 11/09 Q1000 R14/19//95=
201905010500 METAR LRIA 010500Z 13007KT 9999 SCT012 11/09 Q1000 R14/19//95=
201905010530 METAR LRIA 010530Z 16006KT 140V200 9999 BKN012 SCT038 12/09
                        Q1000 R14/19//95=
201905010600 METAR LRIA 010600Z 16007KT 9999 SCT010 SCT039 13/09 Q1000
                        R14/19//95=
201905010630 METAR LRIA 010630Z 19008KT 150V210 9999 SCT012 SCT039 13/08
                        Q1000 R14/19//95=
201905010700 METAR LRIA 010700Z 20006KT 160V260 9999 FEW016 FEW020TCU
                        13/07 Q1000 R14/19//95=
201905010730 METAR LRIA 010730Z 17008KT 9999 FEW016 FEW020TCU SCT024 14/07
                        Q1000 R14/19//95=
201905010800 METAR LRIA 010800Z 21007KT 170V270 9999 FEW020TCU BKN025
                        15/08 Q1000 R14/CLRD//=
201905010830 METAR LRIA 010830Z 19009KT 150V230 9999 FEW020TCU SCT028
                        15/06 Q0999=
201905010900 METAR LRIA 010900Z 19009KT 160V230 9999 FEW027CB SCT035 14/06
                        Q0999=
201905010930 METAR LRIA 010930Z 20006KT 140V240 9999 FEW027 FEW030CB 15/07
                        Q0999 WS R14=
201905011000 METAR LRIA 011000Z 21009KT 170V240 9999 FEW027 FEW030CB 15/05
                        Q0999 WS R14=
201905011030 METAR LRIA 011030Z 24008KT 200V270 9999 -SHRA SCT030 SCT040CB
                        12/06 Q1000 WS R14 R14/29//95=
201905011100 METAR LRIA 011100Z 18006KT 9999 TS SCT040 SCT047CB 11/08
                        Q0999 WS R14 R14/29//95=
201905011130 METAR LRIA 011130Z 23006KT 170V270 6000 TSRA FEW015 BKN030CB
                        11/08 Q1000 WS R14 R14/29//95=
201905011200 METAR LRIA 011200Z 23007KT 6000 +TSRA SCT011 BKN027CB 10/08
                        Q1000 WS R14 R14/29//95=
201905011230 METAR LRIA 011230Z 26004KT 230V290 9999 SCT017 BKN040 11/09
                        Q1000 RETSRA WS R14 R14/29//95=
201905011300 METAR LRIA 011300Z 28013KT 9999 SCT025 12/07 Q1000 WS R14
                        R14/29//95=
201905011330 METAR LRIA 011330Z 29013KT 9999 FEW025 SCT040 13/08 Q1000
                        WS R14 R14/29//95=
201905011400 METAR LRIA 011400Z 28014KT 250V310 9999 FEW028 SCT035 13/07
                        Q1001 WS R14 R14/29//95=
201905011430 METAR LRIA 011430Z 29011KT 9999 FEW028 BKN038 13/07 Q1001
                        R14/29//95=
201905011500 METAR LRIA 011500Z 29012KT 9999 SCT018 BKN031 12/07 Q1001
                        R14/19//95=
201905011530 METAR LRIA 011530Z 28010KT 7000 -RA SCT015 BKN024 12/08 Q1002
                        R14/19//95=
201905011600 METAR LRIA 011600Z 28012KT 9999 -RA SCT016 BKN021 12/08 Q1002
                        R14/19//95=
201905011630 METAR LRIA 011630Z 30013G24KT 9999 FEW010 BKN027 11/08 Q1002
                        R14/29//95=
201905011700 METAR LRIA 011700Z 30012KT 9999 FEW010 BKN022 11/08 Q1002
                        R14/29//95=
201905011730 METAR LRIA 011730Z 30014KT 270V330 9999 SCT022 BKN035 11/07
                        Q1003 R14/29//95=
201905011800 METAR LRIA 011800Z 30013KT 9999 FEW017 BKN035 11/07 Q1003
                        R14/29//95=
201905011830 METAR LRIA 011830Z 30011KT 9999 FEW017 SCT030 11/07 Q1004
                        R14/29//95=
201905011900 METAR LRIA 011900Z 30014KT 9999 FEW015 BKN022 11/07 Q1004
                        R14/19//95=
201905011930 METAR LRIA 011930Z 29009KT 250V310 9999 FEW014 SCT025 BKN048
                        11/07 Q1004 R14/19//95=
201905012000 METAR LRIA 012000Z 29008KT 9999 FEW017 BKN028 11/07 Q1004
                        R14/19//95=
201905012030 METAR LRIA 012030Z 29007KT 260V320 9999 SCT018 BKN023 BKN030
                        10/07 Q1005 R14/19//95=
201905012100 METAR LRIA 012100Z 27008KT 9999 SCT029 10/07 Q1005 R14/19//95=
201905012130 METAR LRIA 012130Z 26004KT 230V310 9999 BKN025 10/07 Q1005
                        R14/19//95=
201905012200 METAR LRIA 012200Z 26003KT 220V300 9999 SCT025 09/06 Q1005
                        R14/19//95=
201905012230 METAR LRIA 012230Z 34002KT 9999 FEW030 09/06 Q1005 R14/19//95=
201905012300 METAR LRIA 012300Z VRB01KT CAVOK 09/06 Q1005 R14/19//95=
201905012330 METAR LRIA 012330Z VRB01KT CAVOK 09/06 Q1005 R14/19//95=
201905020000 METAR LRIA 020000Z 06002KT CAVOK 08/05 Q1005 R14/19//95=
201905020030 METAR LRIA 020030Z 16002KT CAVOK 08/05 Q1005 R14/19//95=
201905020100 METAR LRIA 020100Z 14003KT 120V180 9999 FEW046 08/05 Q1005
                        R14/19//95=
201905020130 METAR LRIA 020130Z 15003KT 110V190 CAVOK 08/05 Q1005 R14/19//95=
201905020200 METAR LRIA 020200Z VRB01KT CAVOK 08/04 Q1004 R14/19//95=
201905020230 METAR LRIA 020230Z 31005KT CAVOK 08/04 Q1004 R14/CLRD//=
201905020300 METAR LRIA 020300Z 32004KT 290V360 CAVOK 09/04 Q1005=
201905020330 METAR LRIA 020330Z 35004KT 310V020 CAVOK 09/04 Q1005=
201905020400 METAR LRIA 020400Z 31004KT 260V340 CAVOK 09/05 Q1005=
201905020430 METAR LRIA 020430Z 28004KT 230V330 CAVOK 10/05 Q1005=
201905020500 METAR LRIA 020500Z 27005KT 250V310 CAVOK 11/05 Q1005=
201905020530 METAR LRIA 020530Z 27004KT 200V330 CAVOK 12/05 Q1005=
201905020600 METAR LRIA 020600Z 27006KT 240V300 CAVOK 13/06 Q1006=
201905020630 METAR LRIA 020630Z 27007KT 240V300 CAVOK 14/05 Q1006=
201905020700 METAR LRIA 020700Z 27007KT 240V300 9999 FEW030 15/06 Q1006=
201905020730 METAR LRIA 020730Z 26009KT 230V290 9999 FEW030 15/06 Q1006=
201905020800 METAR LRIA 020800Z 28010KT 250V310 9999 SCT040 16/05 Q1006=
201905020830 METAR LRIA 020830Z 31011KT 9999 SCT045 16/05 Q1006=
201905020900 METAR LRIA 020900Z 31010KT 270V340 9999 SCT047 17/03 Q1006=
201905020930 METAR LRIA 020930Z 32010KT CAVOK 18/05 Q1006=
201905021000 METAR LRIA 021000Z 26008KT CAVOK 18/04 Q1006=
201905021030 METAR LRIA 021030Z 29007KT 250V330 CAVOK 18/03 Q1006=
201905021100 METAR LRIA 021100Z 28010KT 250V320 CAVOK 18/04 Q1006=
201905021130 METAR LRIA 021130Z 29010KT 250V320 CAVOK 19/02 Q1006=
201905021200 METAR LRIA 021200Z 26009KT 230V300 CAVOK 18/03 Q1006=
201905021230 METAR LRIA 021230Z 27010KT CAVOK 18/03 Q1005=
201905021300 METAR LRIA 021300Z 27012KT CAVOK 19/04 Q1005=
201905021330 METAR LRIA 021330Z 28011KT 230V310 CAVOK 19/04 Q1005=
201905021400 METAR LRIA 021400Z 27010KT CAVOK 19/03 Q1005=
201905021430 METAR LRIA 021430Z 29011KT CAVOK 19/04 Q1005=
201905021500 METAR LRIA 021500Z 29008KT CAVOK 19/04 Q1005=
201905021530 METAR LRIA 021530Z 29007KT CAVOK 19/04 Q1005=
201905021600 METAR LRIA 021600Z 28004KT CAVOK 19/05 Q1005=
201905021630 METAR LRIA 021630Z 27004KT CAVOK 17/05 Q1005=
201905021700 METAR LRIA 021700Z 28003KT CAVOK 17/04 Q1005=
201905021730 METAR LRIA 021730Z 23003KT 200V280 CAVOK 16/05 Q1005=
201905021800 METAR LRIA 021800Z 24004KT 210V280 CAVOK 16/05 Q1006=
201905021830 METAR LRIA 021830Z 21002KT 190V250 CAVOK 15/05 Q1006=
201905021900 METAR LRIA 021900Z VRB01KT CAVOK 15/05 Q1006=
201905021930 METAR LRIA 021930Z VRB01KT CAVOK 14/05 Q1006=
201905022000 METAR LRIA 022000Z 27002KT 240V300 CAVOK 14/05 Q1007=
201905022030 METAR LRIA 022030Z 28002KT 230V320 CAVOK 13/05 Q1007=
201905022100 METAR COR LRIA 022100Z 21003KT CAVOK 12/05 Q1007=
201905022130 METAR LRIA 022130Z 25003KT 220V290 CAVOK 13/05 Q1007=
201905022200 METAR LRIA 022200Z 21003KT CAVOK 12/05 Q1007=
201905022230 METAR LRIA 022230Z AUTO 20002KT 160V220 9999 NCD 11/04 Q1007=
201905022300 METAR LRIA 022300Z 20003KT CAVOK 12/04 Q1007=
201905022330 METAR LRIA 022330Z AUTO 00000KT 9999 NCD 11/04 Q1007=
201905030000 METAR LRIA 030000Z VRB01KT CAVOK 12/04 Q1007=
201905030030 METAR COR LRIA 030030Z 24003KT CAVOK 12/04 Q1007=
201905030100 METAR COR LRIA 030100Z 24003KT 200V270 CAVOK 11/04 Q1007=
201905030130 METAR LRIA 030130Z 24003KT 200V270 CAVOK 11/04 Q1007=
201905030200 METAR LRIA 030200Z 24003KT CAVOK 11/04 Q1007=
201905030230 METAR COR LRIA 030230Z 24004KT CAVOK 11/05 Q1007=
201905030300 METAR LRIA 030300Z 23005KT CAVOK 11/04 Q1007=
201905030330 METAR LRIA 030330Z 22002KT 190V250 CAVOK 11/05 Q1008=
201905030400 METAR LRIA 030400Z 23003KT CAVOK 11/05 Q1008=
201905030430 METAR LRIA 030430Z 13002KT 090V210 CAVOK 12/06 Q1008=
201905030500 METAR LRIA 030500Z 10003KT CAVOK 12/07 Q1008=
201905030530 METAR LRIA 030530Z 14002KT CAVOK 14/07 Q1008=
201905030600 METAR LRIA 030600Z 17002KT CAVOK 16/08 Q1008=
201905030630 METAR LRIA 030630Z 22005KT CAVOK 17/07 Q1008=
201905030700 METAR LRIA 030700Z 19004KT 140V250 CAVOK 18/07 Q1008=
201905030730 METAR LRIA 030730Z VRB04KT CAVOK 19/07 Q1008=
201905030800 METAR LRIA 030800Z 22005KT 180V280 CAVOK 20/08 Q1008=
201905030830 METAR LRIA 030830Z 20005KT 120V250 CAVOK 21/07 Q1008=
201905030900 METAR LRIA 030900Z 19006KT 150V230 CAVOK 21/05 Q1008=
201905030930 METAR LRIA 030930Z 20005KT 170V230 CAVOK 22/05 Q1008=
201905031000 METAR LRIA 031000Z 22006KT 180V270 CAVOK 22/05 Q1008=
201905031030 METAR LRIA 031030Z 21006KT 160V270 CAVOK 23/07 Q1007=
201905031100 METAR LRIA 031100Z 18008KT 150V250 CAVOK 23/06 Q1007=
201905031130 METAR LRIA 031130Z 20008KT 160V240 CAVOK 24/06 Q1007=
201905031200 METAR LRIA 031200Z 26006KT 210V310 CAVOK 24/04 Q1006=
201905031230 METAR LRIA 031230Z 21008KT 180V260 CAVOK 24/05 Q1006=
201905031300 METAR LRIA 031300Z 18008KT 150V220 9999 FEW055CB 24/05 Q1006=
201905031330 METAR LRIA 031330Z 18006KT 120V240 9999 FEW054CB 24/05 Q1005=
201905031400 METAR LRIA 031400Z 22006KT 170V260 9999 FEW055CB 23/06 Q1005=
201905031430 METAR LRIA 031430Z 17007KT 150V220 9999 FEW050CB 24/07 Q1005=
201905031500 METAR LRIA 031500Z 18009KT 9999 VCTS FEW046CB 23/06 Q1005=
201905031530 METAR LRIA 031530Z 20008KT 180V240 9999 FEW045CB 22/06 Q1005=
201905031600 METAR LRIA 031600Z 17008KT 140V210 9999 FEW045CB 21/05 Q1005=
201905031630 METAR LRIA 031630Z 18008G19KT 150V210 9999 FEW045CB 21/06
                        Q1005=
201905031700 METAR LRIA 031700Z 17005KT 140V200 9999 TS FEW050CB 20/05
                        Q1005=
201905031730 METAR LRIA 031730Z 17006KT 140V210 9999 FEW050CB 19/05 Q1005=
201905031800 METAR LRIA 031800Z 29011KT 250V310 9999 FEW045 19/06 Q1006=
201905031830 METAR LRIA 031830Z 26005KT 210V290 9999 FEW047 19/06 Q1006=
201905031900 METAR LRIA 031900Z 28004KT CAVOK 18/06 Q1007=
201905031930 METAR LRIA 031930Z 31006KT CAVOK 16/07 Q1007=
201905032000 METAR LRIA 032000Z 28003KT CAVOK 16/08 Q1007=
201905032030 METAR LRIA 032030Z 27004KT CAVOK 17/06 Q1007=
201905032100 METAR LRIA 032100Z 25003KT CAVOK 16/06 Q1007=
201905032130 METAR LRIA 032130Z 24003KT CAVOK 16/06 Q1008=
201905032200 METAR LRIA 032200Z 22002KT CAVOK 16/06 Q1008=
201905032230 METAR LRIA 032230Z 29003KT 250V340 CAVOK 16/07 Q1008=
201905032300 METAR LRIA 032300Z 33010KT CAVOK 15/08 Q1008=
201905032330 METAR LRIA 032330Z 32007KT CAVOK 14/08 Q1008=
201905040000 METAR LRIA 040000Z 34007KT CAVOK 12/08 Q1008=
201905040030 METAR LRIA 040030Z 32006KT CAVOK 12/08 Q1008=
201905040100 METAR LRIA 040100Z 25005KT CAVOK 12/08 Q1008=
201905040130 METAR LRIA 040130Z 28004KT CAVOK 11/07 Q1008=
201905040200 METAR LRIA 040200Z 27003KT CAVOK 11/08 Q1009=
201905040230 METAR LRIA 040230Z 24002KT CAVOK 11/07 Q1009=
201905040300 METAR LRIA 040300Z 23003KT CAVOK 10/08 Q1009=
201905040330 METAR LRIA 040330Z 27002KT CAVOK 11/08 Q1009=
201905040400 METAR LRIA 040400Z 27002KT CAVOK 11/08 Q1009=
201905040430 METAR LRIA 040430Z 24003KT 180V270 CAVOK 13/09 Q1009=
201905040500 METAR LRIA 040500Z VRB02KT CAVOK 13/09 Q1009=
201905040530 METAR LRIA 040530Z VRB01KT CAVOK 15/09 Q1009=
201905040600 METAR LRIA 040600Z 14002KT CAVOK 15/08 Q1009=
201905040630 METAR LRIA 040630Z 09003KT CAVOK 15/09 Q1009=
201905040700 METAR LRIA 040700Z 12004KT 090V150 CAVOK 16/09 Q1009=
201905040730 METAR LRIA 040730Z 13006KT 9999 FEW028 18/09 Q1009=
201905040800 METAR LRIA 040800Z 15005KT 100V190 9999 FEW036 19/09 Q1009=
201905040830 METAR LRIA 040830Z 19005KT 120V240 9999 FEW040 20/07 Q1009=
201905040900 METAR LRIA 040900Z VRB03KT 9999 FEW047 20/07 Q1009=
201905040930 METAR LRIA 040930Z 23005KT 190V270 CAVOK 21/06 Q1009=
201905041000 METAR LRIA 041000Z 19004KT CAVOK 21/07 Q1008=
201905041030 METAR LRIA 041030Z 17005KT 140V220 CAVOK 22/06 Q1008=
201905041100 METAR LRIA 041100Z VRB03KT CAVOK 22/07 Q1008=
201905041130 METAR LRIA 041130Z VRB05KT CAVOK 22/06 Q1008=
201905041200 METAR LRIA 041200Z 15007KT 090V200 9999 FEW050TCU 21/07 Q1007=
201905041230 METAR LRIA 041230Z 13007KT 100V160 9999 FEW050TCU 22/07 Q1007=
201905041300 METAR LRIA 041300Z 13008KT 9999 FEW050CB 22/07 Q1006=
201905041330 METAR LRIA 041330Z 18008KT 9999 FEW050CB 22/05 Q1006=
201905041400 METAR LRIA 041400Z 28011KT 250V310 9999 SCT050CB 17/07 Q1007
                        RETS=
201905041430 METAR LRIA 041430Z 33006KT 9999 FEW050CB 17/08 Q1007=
201905041500 METAR LRIA 041500Z 34006KT 9999 FEW050CB 17/08 Q1006=
201905041530 METAR LRIA 041530Z 20005KT 160V240 9999 -SHRA SCT050CB 16/10
                        Q1007 RESHRA R14/29//95=
201905041600 METAR LRIA 041600Z 10002KT 9999 SCT030 17/09 Q1006 R14/29//95=
201905041630 METAR LRIA 041630Z 14005KT 090V180 9999 FEW030 18/09 Q1006
                        R14/29//95=
201905041700 METAR LRIA 041700Z 13006KT CAVOK 17/09 Q1006 R14/29//95=
201905041730 METAR LRIA 041730Z 14008KT 110V170 CAVOK 17/08 Q1006 R14/29//95=
201905041800 METAR LRIA 041800Z 12011KT CAVOK 17/08 Q1007 R14/29//95=
201905041830 METAR LRIA 041830Z 10010KT CAVOK 17/07 Q1006 R14/29//95=
201905041900 METAR LRIA 041900Z 09009KT CAVOK 17/07 Q1006 R14/29//95=
201905041930 METAR LRIA 041930Z 11008KT CAVOK 16/08 Q1006 R14/CLRD//=
201905042000 METAR LRIA 042000Z 12007KT CAVOK 16/07 Q1006=
201905042030 METAR LRIA 042030Z 11008KT CAVOK 16/07 Q1006=
201905042100 METAR LRIA 042100Z 24002KT CAVOK 16/07 Q1006=
201905042130 METAR LRIA 042130Z 22003KT 170V250 CAVOK 16/07 Q1006=
201905042200 METAR LRIA 042200Z 04004KT 010V070 CAVOK 14/07 Q1006=
201905042230 METAR LRIA 042230Z VRB05KT CAVOK 14/07 Q1006=
201905042300 METAR LRIA 042300Z 09008KT CAVOK 14/08 Q1006=
201905042330 METAR LRIA 042330Z 11011KT CAVOK 14/08 Q1005=
201905050000 METAR LRIA 050000Z 11014KT CAVOK 14/08 Q1005=
201905050030 METAR LRIA 050030Z 11013KT CAVOK 13/08 Q1005=
201905050100 METAR LRIA 050100Z 11011KT CAVOK 13/08 Q1006=
201905050130 METAR LRIA 050130Z 11010KT CAVOK 12/08 Q1005=
201905050200 METAR LRIA 050200Z 11011KT CAVOK 12/08 Q1005=
201905050230 METAR LRIA 050230Z 11012KT CAVOK 12/08 Q1005=
201905050300 METAR LRIA 050300Z 11010KT CAVOK 12/08 Q1006=
201905050330 METAR LRIA 050330Z 11010KT CAVOK 12/08 Q1006=
201905050400 METAR LRIA 050400Z 11011KT CAVOK 12/08 Q1006=
201905050430 METAR LRIA 050430Z 11011KT CAVOK 12/08 Q1006=
201905050500 METAR LRIA 050500Z 12012KT CAVOK 14/09 Q1006=
201905050530 METAR LRIA 050530Z 12011KT CAVOK 16/09 Q1006=
201905050600 METAR LRIA 050600Z 13011KT CAVOK 17/10 Q1007=
201905050630 METAR LRIA 050630Z 12013KT CAVOK 18/09 Q1007=
201905050700 METAR LRIA 050700Z 15016KT 130V190 CAVOK 18/07 Q1007=
201905050730 METAR LRIA 050730Z 15014KT CAVOK 17/07 Q1007=
201905050800 METAR LRIA 050800Z 11015KT CAVOK 16/09 Q1007=
201905050830 METAR COR LRIA 050830Z 11016KT CAVOK 16/10 Q1007=
201905050900 METAR LRIA 050900Z 11018KT CAVOK 16/10 Q1007=
201905050930 METAR LRIA 050930Z 11018KT CAVOK 16/09 Q1007=
201905051000 METAR LRIA 051000Z 11018KT CAVOK 16/09 Q1007=
201905051030 METAR LRIA 051030Z AUTO 12020KT 9999 FEW061/// 18/10 Q1006=
201905051100 METAR LRIA 051100Z 13016KT 100V160 9999 BKN035 18/10 Q1006=
201905051130 METAR COR LRIA 051130Z 14017KT 9999 SCT033 BKN042 18/10 Q1006=
201905051200 METAR LRIA 051200Z 14016KT 9999 SCT029 SCT042 18/10 Q1006=
201905051230 METAR LRIA 051230Z 13015KT 9999 SCT034 18/10 Q1006=
201905051300 METAR LRIA 051300Z 13014KT 9999 SCT036 SCT046 19/11 Q1005=
201905051330 METAR LRIA 051330Z 12014KT 9999 FEW038 BKN048 19/10 Q1005=
201905051400 METAR LRIA 051400Z 13012KT 9999 BKN045 19/10 Q1005=
201905051430 METAR LRIA 051430Z 13014KT 9999 SCT045 20/10 Q1005=
201905051500 METAR LRIA 051500Z 12015KT 9999 SCT046 20/10 Q1005=
201905051530 METAR LRIA 051530Z 12018KT 9999 SCT045 19/10 Q1004=
201905051600 METAR LRIA 051600Z 12017KT 9999 SCT046 19/10 Q1004=
201905051630 METAR LRIA 051630Z 13017KT 9999 SCT046 18/10 Q1004=
201905051700 METAR LRIA 051700Z 13018KT 9999 SCT045 18/10 Q1005=
201905051730 METAR LRIA 051730Z 13014KT 9999 FEW048 17/10 Q1005=
201905051800 METAR LRIA 051800Z 13012KT CAVOK 17/10 Q1005=
201905051830 METAR LRIA 051830Z 13013KT CAVOK 16/10 Q1005=
201905051900 METAR LRIA 051900Z 13012KT 9999 FEW046 16/10 Q1005=
201905051930 METAR LRIA 051930Z 12013KT 9999 SCT040 16/10 Q1005=
201905052000 METAR LRIA 052000Z 13012KT 9999 FEW035 SCT042 16/09 Q1005=
201905052030 METAR LRIA 052030Z 14015KT 9999 SCT035 16/09 Q1005=
201905052100 METAR LRIA 052100Z 14014KT 9999 SCT043 15/09 Q1005=
201905052130 METAR LRIA 052130Z 14014KT CAVOK 15/10 Q1005=
201905052200 METAR LRIA 052200Z 13011KT 9999 -RA NSC 14/11 Q1005=
201905052230 METAR LRIA 052230Z 12011KT 9999 FEW048 13/11 Q1005=
201905052300 METAR LRIA 052300Z 11010KT CAVOK 13/11 Q1004=
201905052330 METAR LRIA 052330Z 10011KT CAVOK 13/10 Q1004=
201905060000 METAR LRIA 060000Z 09009KT CAVOK 13/10 Q1004=
201905060030 METAR LRIA 060030Z 12010KT 9999 SCT015 13/10 Q1004=
201905060100 METAR LRIA 060100Z 11011KT 9999 SCT015 13/10 Q1004=
201905060130 METAR LRIA 060130Z 09010KT CAVOK 13/10 Q1003=
201905060200 METAR LRIA 060200Z 10009KT CAVOK 13/10 Q1003=
201905060230 METAR LRIA 060230Z 10007KT 9999 -RA FEW048 13/10 Q1003=
201905060300 METAR LRIA 060300Z 10005KT CAVOK 13/10 Q1004=
201905060330 METAR LRIA 060330Z 11008KT CAVOK 13/10 Q1004=
201905060400 METAR LRIA 060400Z 11006KT CAVOK 13/10 Q1004=
201905060430 METAR LRIA 060430Z 12009KT 9999 FEW022 13/10 Q1004=
201905060500 METAR LRIA 060500Z 12009KT 9999 FEW025 14/10 Q1004=
201905060530 METAR LRIA 060530Z 12011KT 9999 FEW020 15/11 Q1004=
201905060600 METAR LRIA 060600Z 12009KT 9999 FEW017 15/11 Q1003=
201905060630 METAR LRIA 060630Z 11007KT 9999 BKN020 15/11 Q1004=
201905060700 METAR LRIA 060700Z 12006KT 9999 SCT020 16/11 Q1003=
201905060730 METAR LRIA 060730Z 17005KT 130V210 9999 BKN020 17/11 Q1004=
201905060800 METAR LRIA 060800Z 17004KT 140V200 9999 BKN023 17/11 Q1004=
201905060830 METAR LRIA 060830Z 20005KT 170V240 9999 BKN027 17/11 Q1004=
201905060900 METAR LRIA 060900Z 27005KT 230V300 9999 BKN027 17/11 Q1004=
201905060930 METAR LRIA 060930Z 28007KT 240V310 9999 FEW025 BKN035 18/12
                        Q1004=
201905061000 METAR LRIA 061000Z 31008KT 9999 BKN035 16/12 Q1004=
201905061030 METAR LRIA 061030Z 32009KT 9999 -RA BKN035 16/12 Q1004=
201905061100 METAR LRIA 061100Z 34008KT 9999 SCT035 16/12 Q1004=
201905061130 METAR LRIA 061130Z 33006KT 9999 SCT045 17/12 Q1004=
201905061200 METAR LRIA 061200Z 33007KT 9999 FEW017 18/13 Q1003=
201905061230 METAR LRIA 061230Z 32009KT 9999 FEW018 18/13 Q1003=
201905061300 METAR LRIA 061300Z 31011KT 9999 FEW017 16/12 Q1003=
201905061330 METAR LRIA 061330Z 31009KT 280V340 9999 SCT020 16/12 Q1003=
201905061400 METAR LRIA 061400Z 31012KT 9999 FEW017 FEW030CB 15/11 Q1002=
201905061430 METAR LRIA 061430Z 31011KT 9999 -TSRA FEW017 SCT040CB 14/10
                        Q1002=
201905061500 METAR LRIA 061500Z 28009KT 6000 TSRA SCT015 BKN027CB 13/11
                        Q1003 R14/29//95=
201905061530 METAR COR LRIA 061530Z 31013KT 9000 -RA SCT006 FEW040CB 12/10
                        Q1002 RETSRA R14/29//95=
201905061600 METAR LRIA 061600Z 31013KT 270V330 9000 -SHRA VCTS SCT008
                        SCT027CB 12/10 Q1003 R14/29//95=
201905061630 METAR LRIA 061630Z 32015KT 9999 BKN008 FEW030CB 12/09 Q1003
                        R14/29//95=
201905061700 METAR LRIA 061700Z 31011KT 9999 -SHRA BKN005 FEW030CB 11/09
                        Q1003 R14/29//95=
201905061730 METAR LRIA 061730Z 34014KT 9999 -SHRA BKN006 BKN021 FEW030CB
                        11/09 Q1003 R14/29//95=
201905061800 METAR LRIA 061800Z 30011KT 9999 -RA SCT006 FEW030CB BKN035
                        10/08 Q1004 R14/29//95=
201905061830 METAR LRIA 061830Z 32009KT 7000 RA SCT006 FEW025CB BKN030
                        10/08 Q1004 R14/29//95=
201905061900 METAR LRIA 061900Z 32008KT 6000 +RA FEW003 BKN025 10/08 Q1004
                        R14/29//95=
201905061930 METAR LRIA 061930Z 31009KT 9000 RA FEW003 BKN035 09/08 Q1005
                        R14/29//95=
201905062000 METAR LRIA 062000Z 32011KT 9999 FEW004 SCT007 BKN030 09/07
                        Q1004 RERA R14/29//95=
201905062030 METAR LRIA 062030Z 32012KT 7000 -RA FEW006 SCT008 BKN030
                        09/07 Q1004 R14/29//95=
201905062100 METAR LRIA 062100Z 31014KT 8000 SHRA FEW005 SCT008 FEW025CB
                        BKN030 08/07 Q1004 R14/29//95=
201905062130 METAR LRIA 062130Z 28011KT 3700 SHRA FEW003 SCT005 FEW025CB
                        BKN030 08/06 Q1005 R14/29//95=
201905062200 METAR COR LRIA 062200Z 31013KT 9999 RA FEW005 BKN030 07/06
                        Q1004 R14/29//95=
201905062230 METAR LRIA 062230Z 31012KT 9999 -RA FEW005 BKN030 07/06 Q1004
                        R14/29//95=
201905062300 METAR LRIA 062300Z 31011KT 9999 -RA FEW005 BKN030 07/06 Q1003
                        R14/29//95=
201905062330 METAR COR LRIA 062330Z 29011KT 9999 FEW005 SCT009 SCT030
                        07/06 Q1003 R14/29//95=
201905070000 METAR COR LRIA 070000Z 30012KT 9999 FEW005 SCT009 BKN030
                        07/05 Q1004 R14/29//95=
201905070030 METAR COR LRIA 070030Z 30010KT 5000 -RA BR FEW005 SCT009
                        BKN030 07/06 Q1004 R14/29//95=
201905070100 METAR LRIA 070100Z AUTO 30011KT 5000 DZ FEW004/// SCT009///
                        07/05 Q1004=
201905070130 METAR LRIA 070130Z AUTO 30014KT 7000 -RA FEW004/// SCT009///
                        07/05 Q1004=
201905070200 METAR COR LRIA 070200Z 30015KT 9999 -RA FEW006 SCT007 BKN030
                        07/05 Q1004 R14/29//95=
201905070230 METAR LRIA 070230Z 31014KT 9999 -RA FEW006 SCT008 BKN030
                        07/05 Q1003 R14/29//95=
201905070300 METAR LRIA 070300Z 30010KT 270V330 9999 -RA FEW007 BKN009
                        BKN030 07/05 Q1004 R14/29//95=
201905070330 METAR LRIA 070330Z 30011KT 9999 -RA FEW006 BKN009 BKN030
                        06/04 Q1004 R14/29//95=
201905070400 METAR LRIA 070400Z 29009KT 9999 -RA FEW004 SCT008 OVC025
                        06/04 Q1004 R14/29//95=
201905070430 METAR LRIA 070430Z 29011KT 9000 -RA FEW004 SCT008 OVC025
                        06/04 Q1004 R14/29//95=
201905070500 METAR LRIA 070500Z 29010KT 9999 SCT006 BKN008 06/04 Q1004
                        R14/29//95=
201905070530 METAR LRIA 070530Z 29010KT 9999 -DZ SCT006 BKN008 06/04 Q1005
                        R14/29//95=
201905070600 METAR LRIA 070600Z 29010KT 9000 DZ SCT006 BKN009 06/04 Q1005
                        R14/29//95=
201905070630 METAR LRIA 070630Z 29009KT 7000 -DZ SCT005 BKN009 06/04 Q1005
                        R14/29//95=
201905070700 METAR LRIA 070700Z 29011KT 8000 -DZ FEW005 BKN009 06/05 Q1005
                        R14/29//95=
201905070730 METAR LRIA 070730Z 29010KT 260V320 9999 FEW008 BKN009 07/05
                        Q1005 R14/29//95=
201905070800 METAR LRIA 070800Z 30012KT 9999 SCT008 BKN011 07/04 Q1006
                        R14/29//95=
201905070830 METAR LRIA 070830Z 30010KT 9999 SCT009 BKN012 07/04 Q1006
                        R14/29//95=
201905070900 METAR LRIA 070900Z 30012KT 9999 SCT010 BKN015 07/04 Q1006
                        R14/29//95=
201905070930 METAR LRIA 070930Z 31010KT 9999 SCT011 BKN015 07/04 Q1006
                        R14/19//95=
201905071000 METAR LRIA 071000Z 30010KT 9999 SCT011 BKN016 07/04 Q1007
                        R14/19//95=
201905071030 METAR LRIA 071030Z 30009KT 9999 -RA OVC014 07/05 Q1007 R14/19//95=
201905071100 METAR LRIA 071100Z 29010KT 9999 FEW010 SCT013 BKN017 07/04
                        Q1007 R14/19//95=
201905071130 METAR LRIA 071130Z 29009KT 9999 OVC014 07/04 Q1007 R14/19//95=
201905071200 METAR LRIA 071200Z 29011KT 9999 SCT011 BKN013 07/04 Q1007
                        R14/19//95=
201905071230 METAR LRIA 071230Z 28012KT 9999 SCT013 BKN016 07/04 Q1007
                        R14/19//95=
201905071300 METAR LRIA 071300Z 29012KT 9999 SCT013 BKN016 07/04 Q1008
                        R14/19//95=
201905071330 METAR LRIA 071330Z 29013KT 9999 OVC017 07/04 Q1008 R14/19//95=
201905071400 METAR LRIA 071400Z 29015KT 270V330 9999 OVC017 07/04 Q1008
                        R14/19//95=
201905071430 METAR LRIA 071430Z 29015KT 9999 OVC015 07/04 Q1008 R14/19//95=
201905071500 METAR LRIA 071500Z 28014KT 9999 FEW009 BKN016 07/04 Q1008
                        R14/19//95=
201905071530 METAR LRIA 071530Z 28014KT 7000 -RA SCT007 BKN012 06/04 Q1008
                        R14/19//95=
201905071600 METAR LRIA 071600Z 29013KT 8000 DZ SCT007 BKN012 06/04 Q1009
                        R14/19//95=
201905071630 METAR LRIA 071630Z 30014KT 9999 -RA SCT009 OVC011 06/04 Q1009
                        WS R32 R14/19//95=
201905071700 METAR LRIA 071700Z 29016KT 9999 OVC011 06/04 Q1009 WS R32
                        R14/19//95=
201905071730 METAR LRIA 071730Z 29014KT 9999 OVC012 06/03 Q1009 WS R32
                        R14/19//95=
201905071800 METAR LRIA 071800Z 30016KT 9999 OVC011 06/03 Q1009 R14/19//95=
201905071830 METAR LRIA 071830Z 29015KT 6000 -RA OVC010 06/03 Q1010 R14/19//95=
201905071900 METAR COR LRIA 071900Z 29015KT 5000 -DZ SCT007 OVC010 05/03
                        Q1010 R14/29//95=
201905071930 METAR LRIA 071930Z 30014KT 4000 DZ SCT005 OVC008 05/04 Q1010
                        WS R32 R14/29//95=
201905072000 METAR LRIA 072000Z 30015KT 4000 DZ SCT005 OVC007 05/04 Q1010
                        WS R32 R14/29//95=
201905072030 METAR LRIA 072030Z 30014KT 4000 DZ OVC005 05/04 Q1010 WS
                        R32 R14/29//95=
201905072100 METAR LRIA 072100Z 30013KT 5000 -DZ OVC006 06/04 Q1010 REDZ
                        WS R32 R14/29//95=
201905072130 METAR LRIA 072130Z 30014KT 8000 -DZ OVC007 06/04 Q1010 WS
                        R32 R14/29//95=
201905072200 METAR LRIA 072200Z 31016KT 8000 -DZ OVC008 06/04 Q1010 WS
                        R32 R14/29//95=
201905072230 METAR LRIA 072230Z 31016KT 9000 -DZ OVC008 06/04 Q1010 WS
                        R32 R14/29//95=
201905072300 METAR LRIA 072300Z 31016KT 9999 -DZ OVC009 06/03 Q1010 WS
                        R32 R14/29//95=
201905072330 METAR LRIA 072330Z 31016KT 9999 -RA OVC009 06/03 Q1011 WS
                        R32 R14/29//95=
201905080000 METAR LRIA 080000Z 32015KT 9999 -RA OVC009 06/04 Q1011 WS
                        R32 R14/29//95=
201905080030 METAR LRIA 080030Z 32015KT 9999 -RA OVC010 06/04 Q1011 WS
                        R32 R14/29//95=
201905080100 METAR LRIA 080100Z 32014KT 9999 -RA OVC010 06/04 Q1011 WS
                        R32 R14/29//95=
201905080130 METAR LRIA 080130Z 32014KT 9999 -RA OVC010 06/04 Q1011 WS
                        R32 R14/29//95=
201905080200 METAR LRIA 080200Z 32015KT 9999 OVC012 06/04 Q1011 WS R32
                        R14/29//95=
201905080230 METAR COR LRIA 080230Z 33012KT 9999 -DZ OVC012 06/04 Q1011
                        WS R32 R14/29//95=
201905080300 METAR LRIA 080300Z 33012KT 9999 OVC015 06/04 Q1011 WS R32
                        R14/29//95=
201905080330 METAR LRIA 080330Z 32012KT 9999 OVC015 06/04 Q1012 WS R32
                        R14/29//95=
201905080400 METAR LRIA 080400Z 32012KT 9999 OVC017 07/04 Q1012 WS R32
                        R14/29//95=
201905080430 METAR LRIA 080430Z 33015KT 9999 BKN017 OVC022 07/03 Q1012
                        WS R32 R14/29//95=
201905080500 METAR LRIA 080500Z 33011KT 9999 SCT015 OVC022 07/04 Q1013
                        WS R32 R14/29//95=
201905080530 METAR LRIA 080530Z 33010KT 9999 BKN017 OVC022 07/04 Q1013
                        R14/29//95=
201905080600 METAR LRIA 080600Z 34014KT 9999 -DZ BKN017 OVC023 07/03 Q1013
                        R14/29//95=
201905080630 METAR LRIA 080630Z 33012KT 9999 -RA SCT017 OVC023 07/04 Q1013
                        R14/29//95=
201905080700 METAR LRIA 080700Z 33012KT 9999 -RA SCT017 BKN023 BKN033
                        08/04 Q1013 R14/29//95=
201905080730 METAR LRIA 080730Z 34013G23KT 9999 SCT017 BKN020 08/04 Q1013
                        R14/29//95=
201905080800 METAR LRIA 080800Z 34017KT 9999 FEW017 BKN020 BKN033 08/04
                        Q1014 R14/29//95=
201905080830 METAR LRIA 080830Z 34014KT 9999 BKN020 BKN028 09/04 Q1014
                        R14/29//95=
201905080900 METAR LRIA 080900Z 34014KT 9999 BKN022 BKN033 09/04 Q1014
                        R14/29//95=
201905080930 METAR LRIA 080930Z 35014KT 9999 OVC027 09/04 Q1014 R14/29//95=
201905081000 METAR LRIA 081000Z 35013KT 9999 OVC033 10/04 Q1014 R14/19//95=
201905081030 METAR LRIA 081030Z 35017KT 9999 BKN036 11/03 Q1014 R14/19//95=
201905081100 METAR LRIA 081100Z 34015KT 9999 BKN033 11/03 Q1015 R14/19//95=
201905081130 METAR LRIA 081130Z 34012KT 9999 SCT033 BKN042 11/03 Q1015
                        R14/19//95=
201905081200 METAR LRIA 081200Z 34014KT 9999 SCT035 BKN048 12/04 Q1015
                        R14/19//95=
201905081230 METAR LRIA 081230Z 35014KT 9999 SCT035 12/03 Q1015 R14/CLRD//=
201905081300 METAR LRIA 081300Z 34011KT 9999 SCT043 12/04 Q1014=
201905081330 METAR LRIA 081330Z 35010KT 9999 BKN040 11/04 Q1014=
201905081400 METAR LRIA 081400Z 35015KT 9999 BKN040 12/03 Q1014=
201905081430 METAR LRIA 081430Z 35011KT 9999 SCT048 12/03 Q1014=
201905081500 METAR LRIA 081500Z 34012KT CAVOK 12/03 Q1015=
201905081530 METAR LRIA 081530Z 34010KT CAVOK 12/03 Q1015=
201905081600 METAR LRIA 081600Z 35011KT CAVOK 11/03 Q1015=
201905081630 METAR LRIA 081630Z 34007KT CAVOK 11/04 Q1015=
201905081700 METAR LRIA 081700Z 34006KT CAVOK 11/04 Q1015=
201905081730 METAR LRIA 081730Z 35006KT CAVOK 11/04 Q1015=
201905081800 METAR LRIA 081800Z 35004KT CAVOK 10/04 Q1015=
201905081830 METAR LRIA 081830Z 35001KT CAVOK 10/04 Q1015=
201905081900 METAR LRIA 081900Z 32001KT CAVOK 10/04 Q1015=
201905081930 METAR LRIA 081930Z 35002KT 9999 OVC061 09/05 Q1015=
201905082000 METAR LRIA 082000Z 28003KT CAVOK 09/05 Q1015=
201905082030 METAR LRIA 082030Z 28003KT CAVOK 09/05 Q1015=
201905082100 METAR LRIA 082100Z 30002KT CAVOK 09/05 Q1015=
201905082130 METAR LRIA 082130Z 31003KT CAVOK 07/05 Q1015=
201905082200 METAR LRIA 082200Z 31002KT CAVOK 07/04 Q1015=
201905082230 METAR LRIA 082230Z 28004KT CAVOK 06/04 Q1015=
201905082300 METAR LRIA 082300Z 28003KT CAVOK 06/04 Q1014=
201905082330 METAR LRIA 082330Z 26003KT CAVOK 05/04 Q1014=
201905090000 METAR LRIA 090000Z VRB01KT CAVOK 05/04 Q1014=
201905090030 METAR LRIA 090030Z 23002KT CAVOK 04/03 Q1014=
201905090100 METAR LRIA 090100Z 24004KT 200V260 CAVOK 04/03 Q1014=
201905090130 METAR LRIA 090130Z 26003KT CAVOK 04/03 Q1014=
201905090200 METAR LRIA 090200Z 28003KT CAVOK 04/02 Q1014=
201905090230 METAR LRIA 090230Z 28003KT CAVOK 04/02 Q1013=
201905090300 METAR LRIA 090300Z 27004KT CAVOK 03/02 Q1014=
201905090330 METAR LRIA 090330Z 27003KT CAVOK 04/02 Q1014=
201905090400 METAR LRIA 090400Z 00000KT CAVOK 06/03 Q1014=
201905090430 METAR LRIA 090430Z 25003KT 220V280 CAVOK 05/03 Q1014=
201905090500 METAR LRIA 090500Z 28001KT CAVOK 07/04 Q1014=
201905090530 METAR LRIA 090530Z VRB01KT CAVOK 09/04 Q1013=
201905090600 METAR LRIA 090600Z 07002KT 030V150 CAVOK 10/05 Q1013=
201905090630 METAR LRIA 090630Z VRB03KT 9999 SCT013 11/05 Q1013=
201905090700 METAR LRIA 090700Z VRB03KT 9999 FEW012 11/05 Q1013=
201905090730 METAR LRIA 090730Z VRB02KT 9999 FEW016 SCT021 12/05 Q1012=
201905090800 METAR LRIA 090800Z VRB03KT 9999 SCT022 13/03 Q1012=
201905090830 METAR LRIA 090830Z 30005KT 250V340 9999 BKN034 12/03 Q1012=
201905090900 METAR LRIA 090900Z VRB02KT 9999 FEW034 BKN043 13/02 Q1012=
201905090930 METAR LRIA 090930Z 35004KT 240V030 9999 BKN041 13/02 Q1011=
201905091000 METAR COR LRIA 091000Z VRB04KT 9999 BKN037 13/03 Q1011=
201905091030 METAR LRIA 091030Z VRB05KT 9999 SCT037 14/04 Q1011=
201905091100 METAR LRIA 091100Z 05005KT 360V120 9999 BKN041 13/03 Q1011=
201905091130 METAR LRIA 091130Z 36005KT 320V080 9999 SCT042 14/03 Q1010=
201905091200 METAR LRIA 091200Z 08007KT 010V120 9999 BKN042 14/03 Q1010=
201905091230 METAR LRIA 091230Z 11005KT 070V150 9999 BKN044 14/04 Q1009=
201905091300 METAR LRIA 091300Z 10005KT 070V140 9999 SCT043 15/04 Q1009=
201905091330 METAR LRIA 091330Z 12008KT 9999 SCT045 15/05 Q1009=
201905091400 METAR LRIA 091400Z 11008KT CAVOK 15/05 Q1008=
201905091430 METAR LRIA 091430Z 11009KT CAVOK 16/05 Q1008=
201905091500 METAR LRIA 091500Z 10010KT CAVOK 16/05 Q1008=
201905091530 METAR LRIA 091530Z 11012KT CAVOK 16/05 Q1007=
201905091600 METAR LRIA 091600Z 11011KT CAVOK 15/05 Q1007=
201905091630 METAR LRIA 091630Z 13008KT CAVOK 15/06 Q1007=
201905091700 METAR LRIA 091700Z 14007KT CAVOK 13/04 Q1007=
201905091730 METAR LRIA 091730Z 13008KT CAVOK 12/04 Q1007=
201905091800 METAR LRIA 091800Z 13006KT CAVOK 12/05 Q1007=
201905091830 METAR LRIA 091830Z 12008KT CAVOK 12/05 Q1007=
201905091900 METAR LRIA 091900Z 12007KT CAVOK 12/05 Q1007=
201905091930 METAR LRIA 091930Z 10007KT CAVOK 10/05 Q1007=
201905092000 METAR LRIA 092000Z 11005KT CAVOK 11/05 Q1007=
201905092030 METAR LRIA 092030Z 13006KT 100V160 CAVOK 10/05 Q1006=
201905092100 METAR LRIA 092100Z 10007KT 080V140 CAVOK 10/05 Q1006=
201905092130 METAR LRIA 092130Z 11008KT CAVOK 09/05 Q1006=
201905092200 METAR LRIA 092200Z 10009KT CAVOK 09/04 Q1006=
201905092230 METAR LRIA 092230Z 12007KT CAVOK 10/04 Q1006=
201905092300 METAR LRIA 092300Z 12006KT 060V170 CAVOK 10/05 Q1006=
201905092330 METAR LRIA 092330Z 11005KT CAVOK 09/04 Q1006=
201905100000 METAR LRIA 100000Z 11007KT CAVOK 08/04 Q1006=
201905100030 METAR LRIA 100030Z 10011KT CAVOK 08/04 Q1006=
201905100100 METAR LRIA 100100Z AUTO 10010KT 9999 NCD 08/04 Q1006=
201905100130 METAR LRIA 100130Z 11010KT CAVOK 07/04 Q1006=
201905100200 METAR LRIA 100200Z 11009KT CAVOK 07/04 Q1006=
201905100230 METAR LRIA 100230Z 11010KT CAVOK 07/04 Q1006=
201905100300 METAR LRIA 100300Z 11009KT CAVOK 07/04 Q1006=
201905100330 METAR LRIA 100330Z 12008KT CAVOK 08/05 Q1006=
201905100400 METAR LRIA 100400Z 11010KT CAVOK 09/05 Q1007=
201905100430 METAR LRIA 100430Z 11012KT CAVOK 09/05 Q1007=
201905100500 METAR LRIA 100500Z 11010KT CAVOK 09/05 Q1007=
201905100530 METAR LRIA 100530Z 10011KT CAVOK 10/06 Q1007=
201905100600 METAR LRIA 100600Z 11012KT 9999 FEW042 10/06 Q1007=
201905100630 METAR LRIA 100630Z 11012KT 9999 FEW044 11/07 Q1008=
201905100700 METAR LRIA 100700Z 11011KT 9999 SCT043 12/07 Q1008=
201905100730 METAR LRIA 100730Z 12012KT 9999 FEW042 11/07 Q1008=
201905100800 METAR LRIA 100800Z 12010KT 9999 FEW042 11/07 Q1008=
201905100830 METAR LRIA 100830Z 11011KT 9999 BKN040 12/08 Q1008=
201905100900 METAR LRIA 100900Z 12012KT 9999 BKN044 12/08 Q1008=
201905100930 METAR LRIA 100930Z 11011KT 9999 BKN044 13/09 Q1008=
201905101000 METAR LRIA 101000Z 11012KT 9999 FEW011 BKN042 13/09 Q1008=
201905101030 METAR LRIA 101030Z 11010KT 9999 FEW011 BKN042 13/09 Q1008=
201905101100 METAR LRIA 101100Z 11011KT 9999 FEW011 BKN041 14/09 Q1008=
201905101130 METAR LRIA 101130Z 11008KT 9999 FEW010 BKN040 14/09 Q1008=
201905101200 METAR LRIA 101200Z 12006KT 090V150 9999 BKN039 15/09 Q1008=
201905101230 METAR LRIA 101230Z 09006KT 060V120 9999 FEW009 SCT039 15/09
                        Q1008=
201905101300 METAR LRIA 101300Z 08007KT 9999 FEW009 SCT045 16/09 Q1008=
201905101330 METAR LRIA 101330Z 10007KT 070V130 9999 FEW010 SCT049 15/08
                        Q1008=
201905101400 METAR LRIA 101400Z 11007KT 9999 BKN049 16/08 Q1009=
201905101430 METAR LRIA 101430Z 11007KT 9999 SCT049 16/08 Q1009=
201905101500 METAR LRIA 101500Z 15007KT 9999 SCT039 15/08 Q1009=
201905101530 METAR LRIA 101530Z 20005KT 160V250 9999 BKN035 15/08 Q1009=
201905101600 METAR LRIA 101600Z 18006KT 150V220 9999 FEW028 SCT035 14/08
                        Q1009=
201905101630 METAR LRIA 101630Z 18005KT 9999 -RA FEW030 SCT038 13/08 Q1009
                        R14/19//95=
201905101700 METAR LRIA 101700Z 18006KT 150V210 9999 -RA BKN045 12/09
                        Q1010 R14/19//95=
201905101730 METAR COR LRIA 101730Z 18004KT 9999 -RA OVC046 12/09 Q1010
                        R14/19//95=
201905101800 METAR LRIA 101800Z 17004KT 9999 BKN038 12/09 Q1010 R14/19//95=
201905101830 METAR LRIA 101830Z 15004KT 9999 -RA SCT039 BKN048 12/09 Q1010
                        R14/19//95=
201905101900 METAR LRIA 101900Z 19002KT 170V230 9999 -RA SCT037 OVC041
                        12/09 Q1010 R14/19//95=
201905101930 METAR LRIA 101930Z 16001KT 9999 BKN048 12/09 Q1010 R14/19//95=
201905102000 METAR LRIA 102000Z 00000KT 9999 SCT045 12/09 Q1010 R14/19//95=
201905102030 METAR COR LRIA 102030Z 00000KT 9999 SCT045 12/09 Q1010 R14/CLRD//=
201905102100 METAR LRIA 102100Z 09003KT CAVOK 11/09 Q1011=
201905102130 METAR LRIA 102130Z 08003KT CAVOK 11/09 Q1011=
201905102200 METAR LRIA 102200Z 14003KT CAVOK 11/09 Q1011=
201905102230 METAR LRIA 102230Z 13002KT CAVOK 11/09 Q1011=
201905102300 METAR COR LRIA 102300Z 06002KT 020V100 CAVOK 10/08 Q1011=
201905102330 METAR COR LRIA 102330Z 34003KT CAVOK 10/08 Q1011=
201905110000 METAR LRIA 110000Z 33002KT 300V360 6000 NSC 10/09 Q1011=
201905110030 METAR LRIA 110030Z AUTO 15002KT 110V190 6000 SCT072/// OVC092///
                        10/08 Q1011=
201905110100 METAR COR LRIA 110100Z 11002KT 080V150 8000 OVC091 10/09
                        Q1011=
201905110130 METAR COR LRIA 110130Z 00000KT 6000 FEW035 OVC090 10/08 Q1011=
201905110200 METAR LRIA 110200Z AUTO 07001KT 6000 BKN058/// BKN088///
                        10/08 Q1011=
201905110230 METAR COR LRIA 110230Z 12001KT 5000 BR NSC 10/09 Q1011=
201905110300 METAR LRIA 110300Z 00000KT 4500 BR NSC 10/09 Q1011=
201905110330 METAR LRIA 110330Z 11003KT 6000 NSC 10/09 Q1012=
201905110400 METAR LRIA 110400Z 13002KT 7000 NSC 11/09 Q1012=
201905110430 METAR LRIA 110430Z 22002KT 160V250 3000 BR NSC 11/09 Q1012=
201905110500 METAR LRIA 110500Z 20003KT 170V240 9000 NSC 11/09 Q1012=
201905110530 METAR LRIA 110530Z 22003KT 200V310 9999 FEW045 13/10 Q1012=
201905110600 METAR LRIA 110600Z 23004KT 180V260 9999 FEW045 14/09 Q1013=
201905110630 METAR LRIA 110630Z 17004KT 130V230 9999 FEW016 SCT045 14/09
                        Q1013=
201905110700 METAR LRIA 110700Z 19004KT 150V230 9999 FEW016 SCT045 15/09
                        Q1013=
201905110730 METAR LRIA 110730Z 22005KT 170V280 9999 SCT022 SCT043 16/08
                        Q1013=
201905110800 METAR LRIA 110800Z 27006KT 9999 SCT022 15/10 Q1013=
201905110830 METAR LRIA 110830Z 21005KT 150V280 9999 SCT024 16/07 Q1013=
201905110900 METAR LRIA 110900Z 22006KT 170V260 9999 FEW033 16/08 Q1013=
201905110930 METAR LRIA 110930Z 20006KT 130V250 9999 FEW040 17/07 Q1013=
201905111000 METAR LRIA 111000Z 22005KT 160V290 9999 FEW040TCU 18/07 Q1013=
201905111030 METAR LRIA 111030Z 16003KT 090V240 9999 FEW040CB 17/07 Q1013=
201905111100 METAR LRIA 111100Z 32007KT 270V350 9999 -SHRA FEW035CB SCT040
                        14/10 Q1014=
201905111130 METAR LRIA 111130Z 24004KT 190V300 9999 -RA FEW040CB SCT048
                        16/10 Q1014=
201905111200 METAR LRIA 111200Z 35002KT 9999 SCT040CB BKN048 17/08 Q1014=
201905111230 METAR LRIA 111230Z 33003KT 280V350 9999 FEW045CB SCT048 17/09
                        Q1014 R14/29//95=
201905111300 METAR LRIA 111300Z VRB03KT 9999 FEW030 18/09 Q1014 R14/29//95=
201905111330 METAR LRIA 111330Z 30003KT 200V360 9999 FEW045TCU 18/10 Q1014
                        R14/29//95=
201905111400 METAR LRIA 111400Z 25005KT 9999 FEW045CB 19/07 Q1013 R14/29//95=
201905111430 METAR LRIA 111430Z 20005KT 150V270 9999 FEW045CB 19/08 Q1013
                        R14/29//95=
201905111500 METAR LRIA 111500Z 25004KT 200V310 CAVOK 19/08 Q1014 R14/29//95=
201905111530 METAR COR LRIA 111530Z 28006KT CAVOK 19/07 Q1014 R14/CLRD//=
201905111600 METAR LRIA 111600Z 26006KT 230V290 CAVOK 19/07 Q1014=
201905111630 METAR LRIA 111630Z 27004KT CAVOK 18/07 Q1014=
201905111700 METAR LRIA 111700Z 29003KT CAVOK 17/08 Q1014=
201905111730 METAR LRIA 111730Z 31001KT CAVOK 17/08 Q1015=
201905111800 METAR LRIA 111800Z 24003KT 200V260 CAVOK 16/08 Q1015=
201905111830 METAR LRIA 111830Z 26001KT CAVOK 15/08 Q1015=
201905111900 METAR LRIA 111900Z 29001KT CAVOK 15/08 Q1016=
201905111930 METAR LRIA 111930Z 23002KT CAVOK 14/08 Q1016=
201905112000 METAR LRIA 112000Z 17001KT CAVOK 14/09 Q1016=
201905112030 METAR LRIA 112030Z 18001KT CAVOK 13/08 Q1016=
201905112100 METAR LRIA 112100Z 00000KT CAVOK 13/08 Q1016=
201905112130 METAR LRIA 112130Z 11004KT CAVOK 11/08 Q1017=
201905112200 METAR LRIA 112200Z 00000KT CAVOK 12/08 Q1017=
201905112230 METAR LRIA 112230Z 22003KT CAVOK 12/08 Q1017=
201905112300 METAR LRIA 112300Z 30001KT CAVOK 12/08 Q1017=
201905112330 METAR LRIA 112330Z 23002KT 8000 NSC 11/08 Q1017=
201905120000 METAR LRIA 120000Z VRB01KT CAVOK 11/08 Q1017=
201905120030 METAR LRIA 120030Z 00000KT CAVOK 10/08 Q1017=
201905120100 METAR LRIA 120100Z VRB01KT CAVOK 11/08 Q1017=
201905120130 METAR LRIA 120130Z 00000KT 8000 NSC 08/06 Q1017=
201905120200 METAR LRIA 120200Z 28004KT 7000 NSC 08/06 Q1017=
201905120230 METAR LRIA 120230Z 27002KT 7000 NSC 09/07 Q1018=
201905120300 METAR LRIA 120300Z 16002KT 150V260 8000 NSC 09/07 Q1018=
201905120330 METAR LRIA 120330Z 00000KT 6000 MIFG NSC 09/07 Q1018=
201905120400 METAR LRIA 120400Z 00000KT 7000 MIFG NSC 10/08 Q1018=
201905120430 METAR LRIA 120430Z 00000KT 8000 MIFG NSC 11/09 Q1019=
201905120500 METAR LRIA 120500Z 00000KT CAVOK 14/09 Q1019=
201905120530 METAR LRIA 120530Z VRB01KT CAVOK 15/10 Q1019=
201905120600 METAR COR LRIA 120600Z VRB01KT CAVOK 16/10 Q1019=
201905120630 METAR LRIA 120630Z 13003KT 030V170 CAVOK 16/11 Q1019=
201905120700 METAR LRIA 120700Z 13002KT 080V200 CAVOK 17/10 Q1020=
201905120730 METAR LRIA 120730Z 10005KT 060V130 CAVOK 17/09 Q1020=
201905120800 METAR LRIA 120800Z 11006KT 060V140 CAVOK 18/09 Q1020=
201905120830 METAR LRIA 120830Z 12005KT 080V150 CAVOK 19/09 Q1020=
201905120900 METAR LRIA 120900Z 11005KT 080V140 CAVOK 20/09 Q1020=
201905120930 METAR LRIA 120930Z 14005KT 090V190 CAVOK 20/08 Q1020=
201905121000 METAR LRIA 121000Z 11004KT 030V170 CAVOK 21/07 Q1020=
201905121030 METAR LRIA 121030Z VRB03KT CAVOK 21/08 Q1020=
201905121100 METAR LRIA 121100Z VRB05KT CAVOK 21/07 Q1020=
201905121130 METAR LRIA 121130Z 17004KT 130V230 CAVOK 21/08 Q1020=
201905121200 METAR LRIA 121200Z 15007KT CAVOK 22/08 Q1020=
201905121230 METAR LRIA 121230Z AUTO 14008KT 120V180 9999 FEW055/// 20/08
                        Q1020=
201905121300 METAR LRIA 121300Z 12005KT 050V190 9999 FEW055TCU 21/08 Q1020=
201905121330 METAR LRIA 121330Z 14004KT 100V190 CAVOK 21/08 Q1019=
201905121400 METAR LRIA 121400Z 11005KT 040V190 CAVOK 22/07 Q1020=
201905121430 METAR LRIA 121430Z 14007KT 120V190 CAVOK 21/08 Q1019=
201905121500 METAR LRIA 121500Z 14006KT CAVOK 21/08 Q1019=
201905121530 METAR LRIA 121530Z 14007KT CAVOK 21/09 Q1019=
201905121600 METAR LRIA 121600Z 14006KT CAVOK 20/09 Q1020=
201905121630 METAR LRIA 121630Z 13006KT CAVOK 20/08 Q1020=
201905121700 METAR LRIA 121700Z 12004KT CAVOK 19/09 Q1020=
201905121730 METAR LRIA 121730Z 13004KT CAVOK 18/09 Q1020=
201905121800 METAR LRIA 121800Z 15004KT CAVOK 18/08 Q1020=
201905121830 METAR LRIA 121830Z 17002KT CAVOK 17/08 Q1021=
201905121900 METAR LRIA 121900Z 14001KT CAVOK 17/08 Q1021=
201905121930 METAR LRIA 121930Z 00000KT CAVOK 16/08 Q1021=
201905122000 METAR LRIA 122000Z 00000KT CAVOK 16/08 Q1021=
201905122030 METAR LRIA 122030Z 00000KT CAVOK 15/08 Q1021=
201905122100 METAR LRIA 122100Z VRB01KT CAVOK 14/08 Q1021=
201905122130 METAR LRIA 122130Z 09002KT CAVOK 15/08 Q1021=
201905122200 METAR LRIA 122200Z 07002KT CAVOK 14/08 Q1021=
201905122230 METAR LRIA 122230Z AUTO 06004KT 9999 NCD 13/07 Q1021=
201905122300 METAR LRIA 122300Z 09002KT CAVOK 13/07 Q1021=
201905122330 METAR LRIA 122330Z 10005KT CAVOK 12/08 Q1021=
201905130000 METAR LRIA 130000Z 08008KT CAVOK 12/08 Q1021=
201905130030 METAR LRIA 130030Z 07007KT CAVOK 12/08 Q1021=
201905130100 METAR LRIA 130100Z 10003KT 070V190 CAVOK 12/08 Q1021=
201905130130 METAR LRIA 130130Z 09002KT CAVOK 11/08 Q1021=
201905130200 METAR LRIA 130200Z 00000KT CAVOK 10/08 Q1021=
201905130230 METAR LRIA 130230Z 00000KT CAVOK 10/08 Q1021=
201905130300 METAR LRIA 130300Z 00000KT CAVOK 10/07 Q1022=
201905130330 METAR LRIA 130330Z 00000KT CAVOK 10/07 Q1022=
201905130400 METAR LRIA 130400Z VRB01KT CAVOK 11/09 Q1022=
201905130430 METAR LRIA 130430Z 27002KT CAVOK 12/09 Q1022=
201905130500 METAR LRIA 130500Z 00000KT CAVOK 15/10 Q1022=
201905130530 METAR LRIA 130530Z 00000KT CAVOK 15/10 Q1022=
201905130600 METAR LRIA 130600Z 27003KT 230V310 CAVOK 15/10 Q1022=
201905130630 METAR LRIA 130630Z 26003KT 220V290 CAVOK 17/10 Q1023=
201905130700 METAR LRIA 130700Z 27003KT CAVOK 18/11 Q1022=
201905130730 METAR LRIA 130730Z 29002KT CAVOK 19/12 Q1022=
201905130800 METAR LRIA 130800Z 29003KT 230V040 9999 FEW035 20/11 Q1022=
201905130830 METAR LRIA 130830Z VRB02KT 9999 FEW035 21/10 Q1022=
201905130900 METAR LRIA 130900Z 35005KT 230V040 9999 FEW043 21/08 Q1022=
201905130930 METAR LRIA 130930Z VRB04KT 9999 FEW041 22/09 Q1022=
201905131000 METAR LRIA 131000Z 05007KT 350V070 CAVOK 22/08 Q1022=
201905131030 METAR LRIA 131030Z 10004KT 040V150 CAVOK 23/09 Q1022=
201905131100 METAR LRIA 131100Z 32007KT 9999 SCT049 22/10 Q1022=
201905131130 METAR LRIA 131130Z VRB03KT 9999 FEW049 23/08 Q1021=
201905131200 METAR LRIA 131200Z 04005KT 360V090 CAVOK 23/08 Q1021=
201905131230 METAR LRIA 131230Z 05004KT 350V110 CAVOK 22/06 Q1021=
201905131300 METAR LRIA 131300Z 24003KT CAVOK 23/08 Q1020=
201905131330 METAR LRIA 131330Z 36004KT 330V040 CAVOK 24/06 Q1020=
201905131400 METAR LRIA 131400Z 01002KT 300V080 CAVOK 24/07 Q1020=
201905131430 METAR LRIA 131430Z 33002KT CAVOK 24/07 Q1020=
201905131500 METAR LRIA 131500Z 00000KT CAVOK 24/06 Q1020=
201905131530 METAR LRIA 131530Z 05003KT 350V140 CAVOK 23/07 Q1020=
201905131600 METAR LRIA 131600Z 03004KT CAVOK 22/08 Q1020=
201905131630 METAR LRIA 131630Z 04006KT CAVOK 22/09 Q1020=
201905131700 METAR LRIA 131700Z 03006KT CAVOK 20/10 Q1020=
201905131730 METAR LRIA 131730Z AUTO 04006KT 9999 NCD 19/09 Q1020=
201905131800 METAR LRIA 131800Z 04008KT CAVOK 18/09 Q1020=
201905131830 METAR COR LRIA 131830Z 07006KT CAVOK 18/09 Q1020=
201905131900 METAR LRIA 131900Z 07005KT CAVOK 17/09 Q1020=
201905131930 METAR COR LRIA 131930Z 09004KT CAVOK 17/09 Q1020=
201905132000 METAR COR LRIA 132000Z 07004KT CAVOK 16/09 Q1020=
201905132030 METAR LRIA 132030Z 06005KT CAVOK 16/09 Q1020=
201905132100 METAR COR LRIA 132100Z 08004KT CAVOK 16/08 Q1020=
201905132130 METAR LRIA 132130Z 32005KT CAVOK 15/10 Q1020=
201905132200 METAR COR LRIA 132200Z 31007KT CAVOK 15/09 Q1020=
201905132230 METAR LRIA 132230Z AUTO 32009KT 9999 FEW095/// 15/10 Q1020=
201905132300 METAR LRIA 132300Z AUTO 32011KT 9999 NCD 14/10 Q1020=
201905132330 METAR LRIA 132330Z AUTO 27005KT 200V300 9999 FEW100/// 14/10
                        Q1021=
201905140000 METAR LRIA 140000Z 29007KT 260V320 CAVOK 13/10 Q1021=
201905140030 METAR LRIA 140030Z 27005KT 240V310 CAVOK 12/09 Q1021=
201905140100 METAR LRIA 140100Z AUTO 27006KT 230V290 8000 BKN058/// 12/09
                        Q1021=
201905140130 METAR LRIA 140130Z AUTO 28005KT 7000 FEW009/// SCT056///
                        12/09 Q1021=
201905140200 METAR LRIA 140200Z 28006KT 6000 FEW009 11/09 Q1021=
201905140230 METAR LRIA 140230Z 28006KT 6000 FEW008 11/09 Q1020=
201905140300 METAR COR LRIA 140300Z 29006KT 7000 BKN008 12/09 Q1020=
201905140330 METAR LRIA 140330Z 29004KT 250V320 8000 BKN008 12/09 Q1020=
201905140400 METAR LRIA 140400Z 30007KT 9999 BKN008 12/09 Q1020=
201905140430 METAR LRIA 140430Z 29006KT 270V330 9999 BKN009 12/09 Q1020=
201905140500 METAR LRIA 140500Z 31007KT 280V340 9999 BKN009 OVC013 13/10
                        Q1020=
201905140530 METAR LRIA 140530Z 29007KT 9999 OVC009 13/10 Q1020=
201905140600 METAR LRIA 140600Z 30007KT 9999 OVC010 14/10 Q1020=
201905140630 METAR LRIA 140630Z 31006KT 9999 OVC010 14/10 Q1020=
201905140700 METAR LRIA 140700Z 31006KT 270V340 9999 OVC012 14/10 Q1020=
201905140730 METAR LRIA 140730Z 32007KT 9999 OVC013 15/10 Q1020=
201905140800 METAR LRIA 140800Z 34007KT 9999 BKN014 16/11 Q1020=
201905140830 METAR LRIA 140830Z 33008KT 300V360 9999 BKN015 16/11 Q1019=
201905140900 METAR LRIA 140900Z 30005KT 250V330 9999 SCT015 BKN020 16/11
                        Q1020=
201905140930 METAR LRIA 140930Z 29008KT 270V330 9999 FEW015 SCT020 16/11
                        Q1020=
201905141000 METAR LRIA 141000Z 29006KT 260V320 9999 FEW015 BKN020 16/11
                        Q1019=
201905141030 METAR LRIA 141030Z 29007KT 250V320 9999 SCT020 17/11 Q1019=
201905141100 METAR LRIA 141100Z 29006KT 9999 FEW022 17/11 Q1019=
201905141130 METAR LRIA 141130Z 32005KT 280V350 9999 FEW028 18/12 Q1018=
201905141200 METAR LRIA 141200Z 28004KT 240V320 9999 SCT023 BKN030 18/12
                        Q1019=
201905141230 METAR LRIA 141230Z 29004KT 250V310 9999 FEW025 SCT032 18/12
                        Q1018=
201905141300 METAR LRIA 141300Z 28006KT 9999 SCT035 17/12 Q1018=
201905141330 METAR LRIA 141330Z 30006KT CAVOK 17/12 Q1018=
201905141400 METAR LRIA 141400Z 28005KT CAVOK 17/12 Q1017=
201905141430 METAR LRIA 141430Z 29004KT CAVOK 17/12 Q1017=
201905141500 METAR LRIA 141500Z 28006KT CAVOK 17/12 Q1017=
201905141530 METAR LRIA 141530Z 27004KT 240V310 9000 -RA BKN038 16/12
                        Q1017 R14/29//95=
201905141600 METAR LRIA 141600Z 23004KT 180V290 7000 -SHRA FEW017 SCT026
                        SCT030CB BKN036 15/12 Q1017 RESHRA
                        R14/29//95=
201905141630 METAR LRIA 141630Z 28004KT 8000 -RA SCT038 SCT045CB 14/12
                        Q1017 R14/29//95=
201905141700 METAR LRIA 141700Z 30003KT 6000 -RA FEW025 SCT038 SCT045CB
                        14/12 Q1017 R14/29//95=
201905141730 METAR LRIA 141730Z 24003KT 220V280 6000 -RA FEW029 SCT038
                        FEW045CB 14/12 Q1017 R14/29//95=
201905141800 METAR LRIA 141800Z 30005KT 5000 -RA BR FEW023 SCT038 FEW045CB
                        14/12 Q1017 R14/29//95=
201905141830 METAR LRIA 141830Z 33004KT 6000 -RA SCT038 14/12 Q1017 R14/29//95=
201905141900 METAR LRIA 141900Z 30004KT 250V330 5000 BR FEW022 14/12 Q1017
                        R14/29//95=
201905141930 METAR LRIA 141930Z 31002KT 4500 BR FEW025 14/12 Q1017 R14/29//95=
201905142000 METAR LRIA 142000Z 33002KT 5000 BR FEW003 BKN020 14/12 Q1017
                        R14/29//95=
201905142030 METAR LRIA 142030Z 22003KT 200V260 4100 BR FEW002 SCT007
                        BKN023 14/12 Q1017 R14/29//95=
201905142100 METAR LRIA 142100Z VRB01KT 3700 -RA BR FEW004 SCT007 BKN027
                        14/12 Q1017 R14/29//95=
201905142130 METAR LRIA 142130Z 29002KT 3800 BR FEW005 SCT007 BKN034 14/12
                        Q1017 R14/29//95=
201905142200 METAR LRIA 142200Z 31002KT 290V350 5000 BR FEW004 SCT013
                        BKN032 14/12 Q1016 R14/29//95=
201905142230 METAR LRIA 142230Z 28002KT 3500 BR FEW004 BKN015 13/12 Q1016
                        R14/29//95=
201905142300 METAR LRIA 142300Z 32003KT 4000 BR FEW006 SCT023 13/12 Q1016
                        R14/29//95=
201905142330 METAR LRIA 142330Z 21001KT 1000 R14/0750V R32/1700V BR FEW012
                        13/12 Q1016 R14/29//95=
201905150000 METAR LRIA 150000Z 35002KT 310V060 1100 R14/1000V R32/2000
                        -RA BR FEW010 SCT017 13/12 Q1015
                        R14/29//95=
201905150030 METAR LRIA 150030Z 24003KT 0900 R14/0800 R32/P2000 -RA FG
                        FEW002 SCT007 BKN020 13/12 Q1016
                        R14/29//95=
201905150100 METAR LRIA 150100Z 07005KT 3200 -RA BR FEW001 BKN004 FEW030CB
                        14/12 Q1015 R14/29//95=
201905150130 METAR LRIA 150130Z 13002KT 090V150 4200 BR FEW001 SCT002
                        FEW030CB 14/12 Q1015 R14/29//95=
201905150200 METAR LRIA 150200Z 13005KT 2600 -RA BR SCT002 0VC004 14/12
                        Q1015 R14/29//95=
201905150230 METAR LRIA 150230Z 10007KT 3100 -RA BR BKN001 FEW025CB 14/12
                        Q1014 R14/29//95=
201905150300 METAR LRIA 150300Z VRB02KT 2300 -RA BR FEW001 BKN004 14/12
                        Q1015 R14/29//95=
201905150330 METAR LRIA 150330Z 07005KT 3000 BR BKN002 14/12 Q1015 R14/29//95=
201905150400 METAR LRIA 150400Z 10005KT 3000 BR SCT002 14/12 Q1015 R14/29//95=
201905150430 METAR LRIA 150430Z 10008KT 2900 BR SCT001 14/12 Q1015 R14/29//95=
201905150500 METAR LRIA 150500Z 11007KT 7000 -RA SCT004 14/12 Q1015 R14/29//95=
201905150530 METAR LRIA 150530Z 11008KT 9999 FEW005 15/12 Q1015 R14/29//95=
201905150600 METAR LRIA 150600Z 11009KT 9999 FEW010 15/11 Q1015 R14/29//95=
201905150630 METAR LRIA 150630Z 09008KT CAVOK 15/11 Q1015 R14/29//95=
201905150700 METAR LRIA 150700Z 11008KT 9999 FEW015 15/11 Q1015 R14/29//95=
201905150730 METAR LRIA 150730Z 11009KT 9999 FEW015 16/11 Q1015 R14/29//95=
201905150800 METAR LRIA 150800Z 11012KT CAVOK 16/12 Q1015 R14/29//95=
201905150830 METAR LRIA 150830Z 10016KT CAVOK 16/12 Q1015 R14/29//95=
201905150900 METAR LRIA 150900Z 12018KT CAVOK 17/11 Q1015 R14/29//95=
201905150930 METAR LRIA 150930Z 12017KT CAVOK 18/12 Q1014 R14/29//95=
201905151000 METAR LRIA 151000Z 12018KT CAVOK 19/12 Q1014 R14/19//95=
201905151030 METAR LRIA 151030Z 12015KT 9999 -RA NSC 18/11 Q1015 R14/19//95=
201905151100 METAR LRIA 151100Z 12007KT 9999 -RA SCT028 18/13 Q1015 R14/19//95=
201905151130 METAR LRIA 151130Z 11008KT CAVOK 20/12 Q1014 RERA R14/19//95=
201905151200 METAR COR LRIA 151200Z 11017KT CAVOK 20/11 Q1013 R14/19//95=
201905151230 METAR COR LRIA 151230Z 13013KT 9999 FEW050CB 19/11 Q1014
                        R14/19//95=
201905151300 METAR LRIA 151300Z 13011KT 9999 FEW050 19/11 Q1014 R14/19//95=
201905151330 METAR LRIA 151330Z 14009KT 9999 -SHRA FEW050CB 18/12 Q1015
                        R14/19//95=
201905151400 METAR LRIA 151400Z 13008KT 9999 -SHRA FEW050CB 17/12 Q1015
                        R14/19//95=
201905151430 METAR LRIA 151430Z 12012KT 9999 -RA FEW050CB 17/12 Q1015
                        R14/19//95=
201905151500 METAR LRIA 151500Z 10011KT 9999 -RA FEW050CB 17/12 Q1014
                        R14/19//95=
201905151530 METAR LRIA 151530Z 13013KT 9999 -SHRA FEW050CB 16/11 Q1015
                        R14/19//95=
201905151600 METAR COR LRIA 151600Z 13008KT 9999 -SHRA FEW050CB 15/12
                        Q1015 R14/29//95=
201905151630 METAR LRIA 151630Z 11011KT 9999 -RA FEW048CB 15/12 Q1014
                        R14/29//95=
201905151700 METAR LRIA 151700Z 11014KT 9999 -RA FEW050CB 15/12 Q1014
                        R14/29//95=
201905151730 METAR LRIA 151730Z 12004KT 080V140 9999 -RA NSC 15/12 Q1014
                        R14/29//95=
201905151800 METAR LRIA 151800Z 11004KT 060V140 9999 -RA NSC 15/11 Q1014
                        R14/29//95=
201905151830 METAR LRIA 151830Z 11012KT CAVOK 15/10 Q1014 R14/29//95=
201905151900 METAR LRIA 151900Z 09006KT CAVOK 15/10 Q1014 R14/29//95=
201905151930 METAR LRIA 151930Z 13007KT CAVOK 15/10 Q1014 R14/29//95=
201905152000 METAR LRIA 152000Z 15008KT CAVOK 15/10 Q1015 R14/29//95=
201905152030 METAR LRIA 152030Z 20006KT 140V240 CAVOK 15/09 Q1015 R14/29//95=
201905152100 METAR LRIA 152100Z 18004KT 150V210 9999 -SHRA FEW045CB 16/09
                        Q1015 R14/29//95=
201905152130 METAR LRIA 152130Z 30003KT 9999 -RA FEW045CB 15/09 Q1015
                        R14/29//95=
201905152200 METAR LRIA 152200Z 27004KT 9999 -RA FEW045CB 13/10 Q1015
                        R14/29//95=
201905152230 METAR LRIA 152230Z VRB03KT 9999 -RA FEW045CB 14/10 Q1016
                        R14/29//95=
201905152300 METAR LRIA 152300Z VRB02KT 9999 -RA NSC 14/09 Q1015 R14/29//95=
201905152330 METAR LRIA 152330Z 06007KT 9999 -RA NSC 14/10 Q1015 R14/29//95=
201905160000 METAR LRIA 160000Z 05007KT CAVOK 14/10 Q1014 R14/29//95=
201905160030 METAR LRIA 160030Z 26005KT 9999 -RA NSC 13/11 Q1015 R14/29//95=
201905160100 METAR LRIA 160100Z 31005KT 9999 -RA NSC 13/11 Q1014 R14/29//95=
201905160130 METAR LRIA 160130Z 30005KT 9999 -RA SCT039 13/10 Q1014 R14/29//95=
201905160200 METAR LRIA 160200Z 32004KT CAVOK 13/10 Q1014 R14/29//95=
201905160230 METAR LRIA 160230Z 29003KT CAVOK 12/10 Q1013 R14/29//95=
201905160300 METAR LRIA 160300Z 30004KT 260V320 CAVOK 13/11 Q1013 R14/29//95=
201905160330 METAR LRIA 160330Z 26002KT CAVOK 13/11 Q1013 R14/29//95=
201905160400 METAR LRIA 160400Z 26004KT CAVOK 13/11 Q1013 R14/29//95=
201905160430 METAR LRIA 160430Z 19003KT CAVOK 13/11 Q1014 R14/29//95=
201905160500 METAR LRIA 160500Z 26003KT 230V290 9999 -RA NSC 13/11 Q1014
                        R14/29//95=
201905160530 METAR LRIA 160530Z 27004KT 9999 -RA FEW043CB 13/12 Q1014
                        R14/29//95=
201905160600 METAR LRIA 160600Z 25003KT 9999 FEW045CB 14/12 Q1014 R14/29//95=
201905160630 METAR LRIA 160630Z VRB02KT 9999 -RA FEW045CB 14/11 Q1014
                        R14/29//95=
201905160700 METAR LRIA 160700Z 30003KT 230V340 9999 -RA FEW045 15/13
                        Q1013 R14/29//95=
201905160730 METAR LRIA 160730Z 10002KT 9999 FEW045 16/13 Q1013 R14/29//95=
201905160800 METAR LRIA 160800Z 22003KT 190V250 9999 FEW004 15/13 Q1014
                        R14/29//95=
201905160830 METAR LRIA 160830Z 25003KT 200V270 9999 FEW005 16/13 Q1013
                        R14/29//95=
201905160900 METAR LRIA 160900Z 26004KT 9999 FEW005 16/13 Q1013 R14/29//95=
201905160930 METAR LRIA 160930Z 26005KT 220V290 9999 FEW006 16/13 Q1014
                        R14/29//95=
201905161000 METAR LRIA 161000Z 26003KT 220V280 9999 FEW008 17/13 Q1014
                        R14/29//95=
201905161030 METAR LRIA 161030Z 25004KT 220V280 9999 -RA FEW010 17/13
                        Q1014 R14/29//95=
201905161100 METAR LRIA 161100Z 26004KT 220V290 9999 -RA FEW010 SCT034
                        17/14 Q1014 R14/29//95=
201905161130 METAR LRIA 161130Z 24004KT 9999 -RA FEW015 SCT038 16/14 Q1014
                        R14/29//95=
201905161200 METAR LRIA 161200Z 27004KT 9000 -RA FEW015 SCT032 16/14 Q1014
                        R14/29//95=
201905161230 METAR LRIA 161230Z 26004KT 9000 -RA FEW023 16/14 Q1014 R14/29//95=
201905161300 METAR LRIA 161300Z 31004KT 9999 FEW024 17/15 Q1013 R14/29//95=
201905161330 METAR LRIA 161330Z 34004KT 300V360 9999 FEW030 17/14 Q1013
                        R14/29//95=
201905161400 METAR LRIA 161400Z 36005KT CAVOK 17/14 Q1013 R14/29//95=
201905161430 METAR LRIA 161430Z 02004KT CAVOK 18/14 Q1013 R14/29//95=
201905161500 METAR LRIA 161500Z 02005KT CAVOK 17/14 Q1012 R14/29//95=
201905161530 METAR LRIA 161530Z 04008KT CAVOK 17/14 Q1012 R14/29//95=
201905161600 METAR LRIA 161600Z 27004KT 220V020 9999 FEW009 18/14 Q1012
                        R14/29//95=
201905161630 METAR LRIA 161630Z 28003KT 9999 FEW009 SCT036 17/14 Q1012
                        R14/29//95=
201905161700 METAR LRIA 161700Z 29003KT 250V320 9999 FEW010 SCT040 17/14
                        Q1012 R14/29//95=
201905161730 METAR LRIA 161730Z 28003KT CAVOK 16/14 Q1012 R14/29//95=
201905161800 METAR LRIA 161800Z 30003KT CAVOK 16/14 Q1012 R14/29//95=
201905161830 METAR LRIA 161830Z 33003KT 6000 NSC 16/14 Q1012 R14/29//95=
201905161900 METAR LRIA 161900Z 32003KT 4900 BR NSC 15/13 Q1012 R14/29//95=
201905161930 METAR COR LRIA 161930Z 28003KT 3000 R14/0800 R32/P2000 BCFG
                        NSC 14/13 Q1012 R14/29//95=
201905162000 METAR LRIA 162000Z 25002KT 230V290 1100 R14/0900 R32/P2000
                        BCFG NSC 14/13 Q1012 R14/29//95=
201905162030 METAR LRIA 162030Z 25002KT 0450 R14/0500D R32/0700 FG NSC
                        13/12 Q1012 R14/29//95=
201905162100 METAR LRIA 162100Z 00000KT 0350 R14/0400N R32/0275N FG OVC001
                        13/12 Q1012 R14/29//95=
201905162130 METAR LRIA 162130Z 26004KT 0400 R14/0450N R32/0325N FG OVC001
                        14/13 Q1012 R14/29//95=
201905162200 METAR LRIA 162200Z 27003KT 240V300 0300 R14/0350N R32/0350N
                        FG VV001 14/13 Q1012 R14/29//95=
201905162230 METAR LRIA 162230Z 27004KT 240V300 0250 R14/0300N R32/0300N
                        FG VV001 14/13 Q1012 R14/29//95=
201905162300 METAR LRIA 162300Z 27003KT 0300 R14/0375N R32/0325N FG VV001
                        14/13 Q1012 R14/29//95=
201905162330 METAR LRIA 162330Z 25004KT 0300 R14/0375N R32/0350N FG VV002
                        14/13 Q1012 R14/29//95=
201905170000 METAR LRIA 170000Z 25004KT 0300 R14/0375N R32/0350N FG VV002
                        14/12 Q1012 R14/29//95=
201905170030 METAR COR LRIA 170030Z 26002KT 230V300 0250 R14/0300N R32/0350N
                        FG NSC 13/12 Q1012 R14/29//95=
201905170100 METAR COR LRIA 170100Z VRB01KT 0250 R14/0325N R32/0325N FG
                        VV002 13/12 Q1011 R14/29//95=
201905170130 METAR LRIA 170130Z 24002KT 210V270 0250 R14/0325N R32/0325N
                        FG VV002 13/12 Q1011 R14/29//95=
201905170200 METAR COR LRIA 170200Z VRB01KT 0300 R14/0375N R32/0350N FG
                        VV002 13/12 Q1011 R14/29//95=
201905170230 METAR COR LRIA 170230Z 26003KT 0300 R14/0375N R32/0350N FG
                        VV002 13/12 Q1011 R14/29//95=
201905170300 METAR COR LRIA 170300Z 30002KT 250V340 0250 R14/0350N R32/0325N
                        FG VV002 13/11 Q1011 R14/29//95=
201905170330 METAR LRIA 170330Z 27002KT 240V320 0200 R14/0275N R32/0325N
                        FG VV002 13/11 Q1012 R14/29//95=
201905170400 METAR LRIA 170400Z 27004KT 0300 R14/0375N R32/0400N FG VV002
                        13/11 Q1012 R14/29//95=
201905170430 METAR LRIA 170430Z 27003KT 0350 R14/0400N R32/0375N FG VV002
                        12/11 Q1012 R14/29//95=
201905170500 METAR LRIA 170500Z 27003KT 240V300 0150 R14/0350N R32/0300N
                        FG VV001 13/11 Q1013 R14/29//95=
201905170530 METAR LRIA 170530Z 25004KT 230V290 0200 R14/0375N R32/0325N
                        FG VV001 13/12 Q1013 R14/29//95=
201905170600 METAR LRIA 170600Z 29003KT 240V320 0200 R14/0450N R32/0450N
                        FG VV001 14/12 Q1013 R14/29//95=
201905170630 METAR LRIA 170630Z 32003KT 260V360 0250 R14/0450N R32/0475U
                        FG VV001 14/12 Q1013 R14/29//95=
201905170700 METAR COR LRIA 170700Z 32003KT 200V010 1000 R14/1500U R32/P2000
                        BR BKN001 OVC002 14/13 Q1013 R14/19//95=
201905170730 METAR LRIA 170730Z 32003KT 260V030 5000 BR BKN001 OVC003
                        15/13 Q1013 R14/19//95=
201905170800 METAR LRIA 170800Z 30004KT 250V010 7000 SCT003 BKN005 16/15
                        Q1013 R14/19//95=
201905170830 METAR LRIA 170830Z VRB02KT 9999 SCT006 18/15 Q1013 R14/19//95=
201905170900 METAR LRIA 170900Z 29003KT 9999 FEW007 19/15 Q1013 R14/CLRD//=
201905170930 METAR LRIA 170930Z 32004KT 240V360 9999 FEW015 20/14 Q1013=
201905171000 METAR LRIA 171000Z 34004KT 290V030 9999 FEW020 21/14 Q1012=
201905171030 METAR LRIA 171030Z VRB03KT 9999 FEW030 21/13 Q1012=
201905171100 METAR LRIA 171100Z 34004KT 280V030 CAVOK 22/15 Q1012=
201905171130 METAR LRIA 171130Z 35006KT 310V050 CAVOK 22/14 Q1012=
201905171200 METAR LRIA 171200Z 01005KT 330V050 CAVOK 23/15 Q1012=
201905171230 METAR LRIA 171230Z 32004KT 290V020 9999 FEW025 23/16 Q1012=
201905171300 METAR LRIA 171300Z 02004KT 350V050 9999 FEW025 24/15 Q1012=
201905171330 METAR LRIA 171330Z 36003KT 290V060 9999 FEW025 24/15 Q1012=
201905171400 METAR LRIA 171400Z 33005KT 300V360 9999 FEW040 24/15 Q1011=
201905171430 METAR LRIA 171430Z 33005KT CAVOK 24/15 Q1011=
201905171500 METAR LRIA 171500Z 33005KT 290V350 9999 FEW048 24/15 Q1011=
201905171530 METAR LRIA 171530Z 31006KT CAVOK 23/14 Q1011=
201905171600 METAR LRIA 171600Z 31006KT CAVOK 24/15 Q1010=
201905171630 METAR LRIA 171630Z 29005KT CAVOK 23/15 Q1010=
201905171700 METAR LRIA 171700Z 29005KT CAVOK 23/15 Q1011=
201905171730 METAR LRIA 171730Z 27003KT CAVOK 22/14 Q1011=
201905171800 METAR LRIA 171800Z 32005KT CAVOK 21/13 Q1011=
201905171830 METAR LRIA 171830Z 31004KT CAVOK 20/13 Q1011=
201905171900 METAR LRIA 171900Z 30004KT CAVOK 20/13 Q1011=
201905171930 METAR LRIA 171930Z 29003KT CAVOK 17/13 Q1011=
201905172000 METAR LRIA 172000Z 24003KT CAVOK 18/13 Q1011=
201905172030 METAR LRIA 172030Z 23003KT 180V260 CAVOK 18/13 Q1010=
201905172100 METAR LRIA 172100Z 23003KT CAVOK 17/13 Q1011=
201905172130 METAR LRIA 172130Z 30002KT CAVOK 17/13 Q1011=
201905172200 METAR LRIA 172200Z 27004KT CAVOK 16/13 Q1010=
201905172230 METAR LRIA 172230Z 27004KT CAVOK 16/13 Q1010=
201905172300 METAR LRIA 172300Z 26003KT CAVOK 16/13 Q1011=
201905172330 METAR LRIA 172330Z 27002KT CAVOK 16/13 Q1011=
201905180000 METAR LRIA 180000Z 28004KT CAVOK 15/13 Q1011=
201905180030 METAR LRIA 180030Z 26003KT CAVOK 15/13 Q1010=
201905180100 METAR LRIA 180100Z 25004KT CAVOK 14/13 Q1010=
201905180130 METAR LRIA 180130Z 29007KT 270V330 8000 -RA FEW050CB 15/13
                        Q1009=
201905180200 METAR LRIA 180200Z 27005KT 8000 FEW050CB 14/12 Q1010=
201905180230 METAR LRIA 180230Z 26005KT 9000 FEW050CB 14/12 Q1009=
201905180300 METAR LRIA 180300Z 27005KT 9000 NSC 15/13 Q1009=
201905180330 METAR LRIA 180330Z 24003KT CAVOK 15/13 Q1010=
201905180400 METAR LRIA 180400Z 25003KT CAVOK 15/13 Q1010=
201905180430 METAR LRIA 180430Z 24003KT CAVOK 16/13 Q1010=
201905180500 METAR LRIA 180500Z 24003KT 9999 -RA NSC 17/14 Q1010=
201905180530 METAR LRIA 180530Z 25004KT 220V280 CAVOK 17/14 Q1010=
201905180600 METAR LRIA 180600Z 24004KT 200V300 CAVOK 18/14 Q1010=
201905180630 METAR COR LRIA 180630Z 26004KT 230V290 9999 -RA NSC 18/14
                        Q1010=
201905180700 METAR COR LRIA 180700Z 25004KT 210V280 CAVOK 19/15 Q1010
                        RERA=
201905180730 METAR LRIA 180730Z 30004KT 260V340 CAVOK 20/16 Q1010=
201905180800 METAR LRIA 180800Z 36009KT 330V040 9999 TS FEW050CB 22/16
                        Q1009=
201905180830 METAR LRIA 180830Z 01009KT 9999 VCTS FEW050CB 21/15 Q1009=
201905180900 METAR LRIA 180900Z 35006KT 9000 TSRA FEW024 SCT050CB 19/17
                        Q1009 R14/29//95=
201905180930 METAR LRIA 180930Z 02002KT 320V100 9999 TS FEW024 SCT050CB
                        22/15 Q1009 RERA R14/29//95=
201905181000 METAR LRIA 181000Z 23004KT 190V270 9999 FEW050CB 23/17 Q1008
                        R14/29//95=
201905181030 METAR COR LRIA 181030Z 27003KT 200V330 9999 -RA FEW020 SCT050CB
                        24/17 Q1009 R14/29//95=
201905181100 METAR LRIA 181100Z 30005KT 220V330 9999 FEW026 FEW050CB 24/18
                        Q1008 RERA R14/29//95=
201905181130 METAR LRIA 181130Z 27012KT 9999 TS FEW018 SCT050CB 21/16
                        Q1008 R14/29//95=
201905181200 METAR LRIA 181200Z 27012KT 240V300 9999 VCTS FEW044CB 21/15
                        Q1008 R14/29//95=
201905181230 METAR LRIA 181230Z 31009KT 9999 TS FEW039CB 20/16 Q1009 R14/29//95=
201905181300 METAR LRIA 181300Z 31012KT 9999 VCTS SCT039CB 19/15 Q1008
                        R14/29//95=
201905181330 METAR LRIA 181330Z 30010KT 270V330 9999 TSRA FEW045CB 19/15
                        Q1008 R14/29//95=
201905181400 METAR LRIA 181400Z 31011KT 9999 -SHRA FEW007 SCT039CB 18/15
                        Q1009 R14/29//95=
201905181430 METAR LRIA 181430Z 32009KT 9999 FEW004 SCT040CB 17/15 Q1008
                        R14/29//95=
201905181500 METAR LRIA 181500Z 33007KT 9999 FEW010 FEW050CB 17/15 Q1008
                        R14/29//95=
201905181530 METAR LRIA 181530Z 31003KT 270V340 9999 FEW050CB 17/15 Q1008
                        R14/19//95=
201905181600 METAR LRIA 181600Z 29006KT 9999 -TSRA SCT040CB 17/15 Q1008
                        R14/19//95=
201905181630 METAR LRIA 181630Z 25006KT 9999 -RA SCT050CB 17/15 Q1008
                        R14/19//95=
201905181700 METAR LRIA 181700Z 30006KT 260V330 9999 -RA SCT045CB 17/15
                        Q1008 R14/19//95=
201905181730 METAR LRIA 181730Z 31005KT 9999 SCT045CB 17/15 Q1008 R14/19//95=
201905181800 METAR LRIA 181800Z 32004KT 9999 FEW008 FEW050CB 16/14 Q1008
                        R14/19//95=
201905181830 METAR LRIA 181830Z 32004KT 9999 FEW008 FEW050CB 16/14 Q1008
                        R14/19//95=
201905181900 METAR LRIA 181900Z 35003KT CAVOK 16/14 Q1009 R14/19//95=
201905181930 METAR LRIA 181930Z 32003KT CAVOK 16/14 Q1009 R14/19//95=
201905182000 METAR LRIA 182000Z 33004KT 9999 FEW050CB 16/14 Q1009 R14/19//95=
201905182030 METAR LRIA 182030Z 24005KT 210V290 9999 -TSRA SCT033CB 16/14
                        Q1009 R14/19//95=
201905182100 METAR LRIA 182100Z 36010KT 9999 TS FEW008 SCT033CB 16/14
                        Q1009 R14/19//95=
201905182130 METAR LRIA 182130Z 33007KT 9999 FEW008 FEW040CB 16/14 Q1009
                        R14/19//95=
201905182200 METAR LRIA 182200Z 29002KT 9999 FEW008 FEW045CB 16/14 Q1009
                        R14/19//95=
201905182230 METAR LRIA 182230Z 25003KT 7000 FEW008 15/13 Q1009 R14/19//95=
201905182300 METAR LRIA 182300Z 26003KT 5000 BR FEW001 FEW045CB 15/13
                        Q1009 R14/19//95=
201905182330 METAR LRIA 182330Z 31003KT 250V330 8000 FEW001 14/13 Q1009
                        R14/19//95=
201905190000 METAR LRIA 190000Z 30004KT 6000 FEW002 14/13 Q1009 R14/19//95=
201905190030 METAR LRIA 190030Z 28004KT 7000 0800NW R14/0800D R32/P2000
                        PRFG NSC 14/13 Q1009 R14/19//95=
201905190100 METAR LRIA 190100Z 27004KT 4000 0600NW R14/1100D R32/P2000
                        PRFG BR FEW002 14/13 Q1009 R14/19//95=
201905190130 METAR LRIA 190130Z 28004KT 250V310 4000 BR SCT001 14/13 Q1009
                        R14/19//95=
201905190200 METAR LRIA 190200Z 27002KT 3000 BR SCT001 14/13 Q1009 R14/19//95=
201905190230 METAR LRIA 190230Z 25003KT 0200 14/0500D R32/0800D FG BKN001
                        14/13 Q1009 R14/19//95=
201905190300 METAR LRIA 190300Z 25003KT 0200 R14/0450N R32/P2000 FG BKN001
                        14/13 Q1009 R14/19//95=
201905190330 METAR LRIA 190330Z 25002KT 0250 R14/0600D R32/P2000 FG BKN001
                        14/13 Q1009 R14/19//95=
201905190400 METAR LRIA 190400Z 28001KT 0200 R14/0375N R32/0600U FG BKN002
                        15/13 Q1009 R14/19//95=
201905190430 METAR LRIA 190430Z 26004KT 0800 R14/1500N R32/P2000U FG BKN002
                        15/14 Q1010 R14/19//95=
201905190500 METAR LRIA 190500Z 29004KT 5000 BR BKN002 16/14 Q1010 R14/19//95=
201905190530 METAR LRIA 190530Z 28005KT 7000 OVC002 16/14 Q1010 R14/19//95=
201905190600 METAR LRIA 190600Z 24003KT 210V270 7000 OVC002 16/14 Q1010
                        R14/19//95=
201905190630 METAR LRIA 190630Z 24003KT 200V270 9000 SCT002 BKN004 17/15
                        Q1010 R14/19//95=
201905190700 METAR LRIA 190700Z 23003KT 200V270 9999 SCT003 17/15 Q1011
                        R14/CLRD//=
201905190730 METAR LRIA 190730Z VRB02KT 9999 FEW004 18/15 Q1010=
201905190800 METAR LRIA 190800Z VRB04KT 9999 FEW008 SCT010 19/15 Q1010=
201905190830 METAR LRIA 190830Z 26004KT 210V320 9999 FEW006 SCT009 20/16
                        Q1010=
201905190900 METAR LRIA 190900Z 31004KT 230V030 9999 SCT015 21/16 Q1010=
201905190930 METAR LRIA 190930Z VRB05KT 9999 SCT017 SCT045 22/17 Q1010=
201905191000 METAR LRIA 191000Z 26004KT 200V330 9999 SCT020 22/17 Q1010=
201905191030 METAR LRIA 191030Z VRB04KT 9999 FEW025 24/17 Q1010=
201905191100 METAR LRIA 191100Z VRB03KT 9999 SCT025 24/17 Q1010=
201905191130 METAR LRIA 191130Z VRB02KT 9999 SCT025 25/17 Q1010=
201905191200 METAR LRIA 191200Z 07004KT 010V150 9999 SCT027 24/16 Q1009=
201905191230 METAR LRIA 191230Z 06005KT 360V090 9999 SCT027 25/16 Q1009=
201905191300 METAR LRIA 191300Z 10004KT 030V150 9999 FEW027TCU SCT030
                        25/16 Q1009=
201905191330 METAR LRIA 191330Z 13006KT 100V160 9999 FEW030 FEW033CB 25/17
                        Q1009=
201905191400 METAR LRIA 191400Z 13005KT 090V170 9999 FEW030 FEW040TCU
                        26/17 Q1009=
201905191430 METAR LRIA 191430Z 12008KT 9999 FEW030 FEW040TCU 25/17 Q1009=
201905191500 METAR LRIA 191500Z 12006KT 9999 FEW030 FEW040TCU 25/17 Q1009=
201905191530 METAR LRIA 191530Z 09004KT 060V140 9999 FEW040TCU 25/17 Q1009=
201905191600 METAR LRIA 191600Z 12004KT 070V160 9999 FEW033TCU 25/17 Q1009=
201905191630 METAR LRIA 191630Z 12004KT 9999 FEW033CB 25/17 Q1009=
201905191700 METAR LRIA 191700Z 09006KT 9999 FEW035CB 24/17 Q1009=
201905191730 METAR LRIA 191730Z 13026KT 9999 VCTS SCT034CB 22/12 Q1010=
201905191800 METAR LRIA 191800Z 09009KT 9999 SCT046CB 18/13 Q1010=
201905191830 METAR LRIA 191830Z 08006KT 9999 FEW045CB 18/13 Q1010=
201905191900 METAR LRIA 191900Z 09006KT 9999 FEW045CB 18/13 Q1009=
201905191930 METAR LRIA 191930Z 09006KT CAVOK 18/13 Q1010=
201905192000 METAR LRIA 192000Z 09005KT CAVOK 18/14 Q1010=
201905192030 METAR LRIA 192030Z 06004KT 030V090 CAVOK 18/14 Q1010=
201905192100 METAR LRIA 192100Z 08007KT CAVOK 18/14 Q1010=
201905192130 METAR LRIA 192130Z 10009KT CAVOK 18/14 Q1009=
201905192200 METAR LRIA 192200Z 11009KT CAVOK 18/14 Q1009=
201905192230 METAR LRIA 192230Z 11007KT CAVOK 18/15 Q1009=
201905192300 METAR LRIA 192300Z 10009KT CAVOK 17/14 Q1009=
201905192330 METAR LRIA 192330Z 10010KT CAVOK 18/15 Q1009=
201905200000 METAR LRIA 200000Z 10009KT CAVOK 18/15 Q1010=
201905200030 METAR LRIA 200030Z 11007KT CAVOK 17/15 Q1010=
201905200100 METAR LRIA 200100Z 10008KT CAVOK 17/15 Q1010=
201905200130 METAR LRIA 200130Z 10010KT CAVOK 17/15 Q1010=
201905200200 METAR LRIA 200200Z 08009KT CAVOK 17/15 Q1010=
201905200230 METAR LRIA 200230Z 10010KT CAVOK 17/15 Q1010=
201905200300 METAR LRIA 200300Z 10013KT CAVOK 17/15 Q1009=
201905200330 METAR LRIA 200330Z 10011KT CAVOK 17/15 Q1009=
201905200400 METAR LRIA 200400Z 11010KT CAVOK 17/15 Q1010=
201905200430 METAR LRIA 200430Z 11015KT CAVOK 17/15 Q1009=
201905200500 METAR LRIA 200500Z 12014KT 9999 FEW025 18/15 Q1010=
201905200530 METAR LRIA 200530Z 11013KT 9999 FEW030 18/15 Q1010=
201905200600 METAR LRIA 200600Z 13015KT 9999 FEW020 18/14 Q1010=
201905200630 METAR LRIA 200630Z 12016KT 9999 FEW020 19/15 Q1010=
201905200700 METAR LRIA 200700Z 13015KT 9999 FEW020 19/15 Q1010=
201905200730 METAR LRIA 200730Z 13014KT 9999 SCT014 20/15 Q1010=
201905200800 METAR LRIA 200800Z 13012KT 9999 SCT015 21/15 Q1011=
201905200830 METAR LRIA 200830Z 13013KT 9999 SCT016 SCT021 21/16 Q1011=
201905200900 METAR LRIA 200900Z 14014KT 9999 BKN014 21/16 Q1010=
201905200930 METAR LRIA 200930Z 12019KT 9999 SCT014 21/16 Q1010=
201905201000 METAR LRIA 201000Z 13020KT 9999 FEW014 22/16 Q1011=
201905201030 METAR LRIA 201030Z 12018KT 9999 FEW016 22/16 Q1010=
201905201100 METAR LRIA 201100Z 13017KT 9999 FEW016 22/16 Q1011=
201905201130 METAR LRIA 201130Z 12016KT 9999 FEW020 22/16 Q1010=
201905201200 METAR LRIA 201200Z 12017KT 9999 FEW026 23/16 Q1010=
201905201230 METAR LRIA 201230Z 13014KT 9999 SCT028 SCT040 23/16 Q1010=
201905201300 METAR LRIA 201300Z 11014KT 9999 FEW028 23/16 Q1010=
201905201330 METAR LRIA 201330Z 12014KT 9999 FEW028 23/16 Q1010=
201905201400 METAR LRIA 201400Z 12013KT 9999 FEW045TCU 23/16 Q1009=
201905201430 METAR LRIA 201430Z 11012KT 9999 FEW040 23/17 Q1009=
201905201500 METAR LRIA 201500Z 11014KT 9999 FEW048 23/17 Q1009=
201905201530 METAR LRIA 201530Z 12020KT 9999 FEW022 23/17 Q1008=
201905201600 METAR LRIA 201600Z 12016KT 9999 FEW020 22/16 Q1008=
201905201630 METAR LRIA 201630Z 12020KT 9999 FEW010 SCT018 21/16 Q1008=
201905201700 METAR LRIA 201700Z 12021KT 9999 SCT018 20/15 Q1007=
201905201730 METAR LRIA 201730Z 12021KT 9999 FEW017 20/15 Q1007=
201905201800 METAR LRIA 201800Z 12018KT 9999 FEW017 19/15 Q1007=
201905201830 METAR LRIA 201830Z 12017KT 9999 FEW045 19/14 Q1007=
201905201900 METAR LRIA 201900Z 13012KT 9999 FEW018 19/13 Q1008=
201905201930 METAR LRIA 201930Z 13013KT 9999 SCT025 19/13 Q1008=
201905202000 METAR LRIA 202000Z 12011KT 9999 SCT025 18/13 Q1008=
201905202030 METAR LRIA 202030Z 12011KT 9999 BKN017 17/14 Q1008=
201905202100 METAR LRIA 202100Z 13010KT 9999 BKN018 17/14 Q1008=
201905202130 METAR LRIA 202130Z 13013KT 9999 BKN018 17/13 Q1008=
201905202200 METAR LRIA 202200Z 13015KT 9999 SCT018 BKN030 17/13 Q1007=
201905202230 METAR LRIA 202230Z 12015KT 9999 FEW018 BKN025 17/14 Q1007=
201905202300 METAR LRIA 202300Z 13016KT 9999 SCT016 BKN022 17/14 Q1007=
201905202330 METAR LRIA 202330Z 12014KT 9999 BKN015 17/14 Q1007=
201905210000 METAR LRIA 210000Z 11012KT 9999 BKN014 17/14 Q1007=
201905210030 METAR LRIA 210030Z 11009KT 9999 BKN014 17/14 Q1007=
201905210100 METAR LRIA 210100Z 14008KT 9999 BKN015 17/14 Q1007=
201905210130 METAR LRIA 210130Z 13008KT 9999 BKN015 16/14 Q1007=
201905210200 METAR LRIA 210200Z 14007KT 9999 SCT015 BKN025 16/14 Q1007=
201905210230 METAR LRIA 210230Z 13006KT 9999 FEW015 SCT023 16/13 Q1007=
201905210300 METAR LRIA 210300Z 14008KT 9999 FEW015 15/13 Q1007=
201905210330 METAR LRIA 210330Z 13007KT 9999 FEW018 16/13 Q1007=
201905210400 METAR LRIA 210400Z 13006KT 9999 FEW015 17/13 Q1007=
201905210430 METAR LRIA 210430Z 13005KT 9999 SCT013 17/13 Q1007=
201905210500 METAR LRIA 210500Z 17005KT 9999 FEW014 17/12 Q1007=
201905210530 METAR LRIA 210530Z 18006KT 150V210 9999 FEW014 18/12 Q1007=
201905210600 METAR LRIA 210600Z 20007KT 170V250 9999 FEW019 SCT023 19/12
                        Q1008=
201905210630 METAR LRIA 210630Z 19008KT 160V230 9999 FEW021 19/12 Q1008=
201905210700 METAR LRIA 210700Z 23006KT 180V250 9999 FEW024 20/12 Q1008=
201905210730 METAR LRIA 210730Z 20008KT 160V300 9999 FEW027 20/11 Q1008=
201905210800 METAR COR LRIA 210800Z 20009KT 160V240 9999 SCT032 21/11
                        Q1008=
201905210830 METAR LRIA 210830Z 21008KT 170V260 9999 SCT034 22/11 Q1008=
201905210900 METAR LRIA 210900Z 20012KT 160V240 9999 BKN040 22/10 Q1008=
201905210930 METAR LRIA 210930Z 20011KT 160V240 9999 BKN043 21/09 Q1008=
201905211000 METAR LRIA 211000Z 21010KT 170V240 9999 BKN047 23/09 Q1008=
201905211030 METAR LRIA 211030Z 21010KT 170V240 9999 FEW040CB FEW050TCU
                        21/09 Q1009=
201905211100 METAR LRIA 211100Z 20011KT 9999 VCTS FEW040CB 21/08 Q1009=
201905211130 METAR LRIA 211130Z 17013KT 9999 FEW040CB FEW050TCU 20/08
                        Q1009=
201905211200 METAR LRIA 211200Z 19006KT 150V220 9999 -SHRA SCT040CB 18/06
                        Q1009=
201905211230 METAR LRIA 211230Z 14012KT 9999 FEW040CB 17/09 Q1010=
201905211300 METAR LRIA 211300Z 15006KT 070V200 9999 FEW040CB 19/08 Q1009=
201905211330 METAR LRIA 211330Z 20009KT 9999 FEW040CB 19/08 Q1009=
201905211400 METAR LRIA 211400Z 21007KT 180V240 9999 FEW045CB 20/08 Q1009=
201905211430 METAR LRIA 211430Z 20008KT 170V230 9999 FEW045CB 20/09 Q1009=
201905211500 METAR LRIA 211500Z 19011KT 160V230 9999 FEW045CB 20/07 Q1009=
201905211530 METAR LRIA 211530Z 21006KT 180V240 9999 FEW045CB 19/07 Q1009=
201905211600 METAR LRIA 211600Z 20006KT 180V250 9999 FEW045CB 20/08 Q1009=
201905211630 METAR LRIA 211630Z 21007KT 170V250 9999 FEW047 20/08 Q1009=
201905211700 METAR LRIA 211700Z 20006KT 170V230 9999 FEW045CB 19/09 Q1009=
201905211730 METAR LRIA 211730Z 21005KT 9999 FEW045CB 18/09 Q1009=
201905211800 METAR LRIA 211800Z 23004KT CAVOK 17/10 Q1010=
201905211830 METAR LRIA 211830Z 22004KT 200V260 CAVOK 16/10 Q1010=
201905211900 METAR LRIA 211900Z 22004KT CAVOK 16/10 Q1010=
201905211930 METAR LRIA 211930Z 23002KT CAVOK 15/10 Q1010=
201905212000 METAR LRIA 212000Z VRB01KT CAVOK 15/10 Q1010=
201905212030 METAR LRIA 212030Z 17004KT CAVOK 14/10 Q1011=
201905212100 METAR LRIA 212100Z 22003KT CAVOK 14/10 Q1011=
201905212130 METAR LRIA 212130Z 21004KT CAVOK 14/10 Q1011=
201905212200 METAR LRIA 212200Z AUTO 25002KT 230V290 9999 NCD 14/10 Q1011=
201905212230 METAR LRIA 212230Z 22003KT CAVOK 13/09 Q1010=
201905212300 METAR LRIA 212300Z VRB01KT CAVOK 13/09 Q1010=
201905212330 METAR LRIA 212330Z VRB01KT CAVOK 13/09 Q1010=
201905220000 METAR LRIA 220000Z VRB01KT CAVOK 13/09 Q1010=
201905220030 METAR LRIA 220030Z 18002KT CAVOK 12/09 Q1010=
201905220100 METAR LRIA 220100Z 18002KT CAVOK 12/09 Q1010=
201905220130 METAR LRIA 220130Z 00000KT CAVOK 11/08 Q1010=
201905220200 METAR LRIA 220200Z 25003KT CAVOK 11/08 Q1010=
201905220230 METAR LRIA 220230Z 20003KT 160V220 CAVOK 11/08 Q1010=
201905220300 METAR LRIA 220300Z 00000KT CAVOK 11/08 Q1010=
201905220330 METAR LRIA 220330Z 21002KT CAVOK 12/08 Q1010=
201905220400 METAR LRIA 220400Z 20003KT 170V230 CAVOK 13/08 Q1010=
201905220430 METAR LRIA 220430Z VRB02KT CAVOK 14/09 Q1010=
201905220500 METAR LRIA 220500Z 00000KT CAVOK 15/08 Q1010=
201905220530 METAR LRIA 220530Z 21003KT 180V250 CAVOK 16/08 Q1010=
201905220600 METAR LRIA 220600Z 23004KT 170V250 CAVOK 17/08 Q1010=
201905220630 METAR LRIA 220630Z 26005KT 220V290 CAVOK 19/08 Q1010=
201905220700 METAR LRIA 220700Z 27004KT 170V310 CAVOK 20/09 Q1010=
201905220730 METAR LRIA 220730Z 26006KT 220V280 CAVOK 20/09 Q1010=
201905220800 METAR LRIA 220800Z 23005KT 180V280 CAVOK 21/07 Q1010=
201905220830 METAR LRIA 220830Z 30005KT 240V340 CAVOK 22/08 Q1010=
201905220900 METAR LRIA 220900Z 28004KT 250V320 CAVOK 23/07 Q1010=
201905220930 METAR LRIA 220930Z VRB04KT CAVOK 23/08 Q1010=
201905221000 METAR LRIA 221000Z 29005KT 230V340 CAVOK 21/07 Q1010=
201905221030 METAR LRIA 221030Z 29007KT CAVOK 23/07 Q1009=
201905221100 METAR LRIA 221100Z 27003KT 230V340 CAVOK 23/07 Q1009=
201905221130 METAR LRIA 221130Z 20005KT 170V250 CAVOK 24/08 Q1009=
201905221200 METAR LRIA 221200Z 21005KT 170V240 CAVOK 22/08 Q1009=
201905221230 METAR LRIA 221230Z 25004KT 210V290 CAVOK 23/08 Q1009=
201905221300 METAR LRIA 221300Z 25006KT 220V290 CAVOK 22/08 Q1009=
201905221330 METAR LRIA 221330Z 23007KT 170V260 CAVOK 23/08 Q1009=
201905221400 METAR LRIA 221400Z 29005KT 230V320 CAVOK 24/08 Q1009=
201905221430 METAR LRIA 221430Z 26006KT 200V290 CAVOK 24/07 Q1009=
201905221500 METAR LRIA 221500Z 22006KT 170V260 CAVOK 23/06 Q1009=
201905221530 METAR LRIA 221530Z 23004KT 170V310 CAVOK 24/07 Q1008=
201905221600 METAR LRIA 221600Z VRB02KT CAVOK 23/08 Q1008=
201905221630 METAR LRIA 221630Z 21003KT 180V240 CAVOK 22/07 Q1008=
201905221700 METAR LRIA 221700Z 18004KT CAVOK 21/08 Q1008=
201905221730 METAR LRIA 221730Z 20003KT CAVOK 21/07 Q1008=
201905221800 METAR LRIA 221800Z 19002KT CAVOK 21/07 Q1009=
201905221830 METAR LRIA 221830Z 00000KT CAVOK 20/07 Q1009=
201905221900 METAR LRIA 221900Z 00000KT CAVOK 19/07 Q1009=
201905221930 METAR LRIA 221930Z 00000KT CAVOK 18/08 Q1009=
201905222000 METAR LRIA 222000Z 00000KT CAVOK 17/08 Q1009=
201905222030 METAR LRIA 222030Z 23003KT CAVOK 17/08 Q1009=
201905222100 METAR LRIA 222100Z 26003KT CAVOK 17/08 Q1009=
201905222130 METAR LRIA 222130Z 27003KT CAVOK 14/08 Q1009=
201905222200 METAR LRIA 222200Z 26003KT CAVOK 14/09 Q1009=
201905222230 METAR LRIA 222230Z 23003KT CAVOK 14/09 Q1009=
201905222300 METAR LRIA 222300Z 26002KT CAVOK 14/09 Q1009=
201905222330 METAR LRIA 222330Z 24003KT CAVOK 13/08 Q1009=
201905230000 METAR LRIA 230000Z 24004KT CAVOK 14/08 Q1009=
201905230030 METAR LRIA 230030Z 23003KT CAVOK 14/08 Q1009=
201905230100 METAR LRIA 230100Z 23004KT CAVOK 14/08 Q1009=
201905230130 METAR LRIA 230130Z 22002KT CAVOK 14/08 Q1009=
201905230200 METAR LRIA 230200Z 24002KT CAVOK 13/08 Q1008=
201905230230 METAR LRIA 230230Z 00000KT CAVOK 14/08 Q1008=
201905230300 METAR LRIA 230300Z 25004KT CAVOK 14/08 Q1009=
201905230330 METAR LRIA 230330Z 25004KT CAVOK 14/08 Q1009=
201905230400 METAR LRIA 230400Z 25003KT 220V280 CAVOK 14/09 Q1009=
201905230430 METAR LRIA 230430Z 23002KT CAVOK 16/09 Q1009=
201905230500 METAR LRIA 230500Z 23003KT 190V270 CAVOK 17/10 Q1009=
201905230530 METAR LRIA 230530Z 24004KT CAVOK 18/10 Q1009=
201905230600 METAR LRIA 230600Z 27004KT 230V310 CAVOK 19/10 Q1009=
201905230630 METAR LRIA 230630Z 26006KT 230V290 CAVOK 20/11 Q1009=
201905230700 METAR LRIA 230700Z 28006KT 250V340 CAVOK 20/10 Q1009=
201905230730 METAR LRIA 230730Z 34005KT 290V020 CAVOK 21/10 Q1009=
201905230800 METAR LRIA 230800Z 32005KT 250V010 CAVOK 21/10 Q1009=
201905230830 METAR LRIA 230830Z 36005KT 300V050 9999 FEW047 22/09 Q1009=
201905230900 METAR LRIA 230900Z 01005KT 320V050 9999 FEW043 22/09 Q1009=
201905230930 METAR LRIA 230930Z VRB01KT CAVOK 23/09 Q1009=
201905231000 METAR LRIA 231000Z VRB02KT CAVOK 24/10 Q1009=
201905231030 METAR LRIA 231030Z 21002KT CAVOK 23/09 Q1009=
201905231100 METAR LRIA 231100Z 25002KT CAVOK 24/09 Q1009=
201905231130 METAR LRIA 231130Z VRB02KT CAVOK 23/09 Q1009=
201905231200 METAR LRIA 231200Z 25004KT 150V320 CAVOK 23/09 Q1009=
201905231230 METAR LRIA 231230Z VRB01KT CAVOK 24/09 Q1009=
201905231300 METAR LRIA 231300Z 24004KT 190V340 CAVOK 24/09 Q1008=
201905231330 METAR LRIA 231330Z 22004KT 160V250 CAVOK 24/09 Q1008=
201905231400 METAR LRIA 231400Z 26004KT 220V290 CAVOK 23/10 Q1008=
201905231430 METAR LRIA 231430Z 27003KT 240V310 9999 FEW050CB 23/11 Q1008=
201905231500 METAR LRIA 231500Z 27004KT 240V300 9999 FEW050CB 23/10 Q1008=
201905231530 METAR LRIA 231530Z 30005KT 250V340 9999 FEW050CB 24/10 Q1008=
201905231600 METAR LRIA 231600Z 26004KT 220V290 9999 FEW050CB 24/10 Q1008=
201905231630 METAR LRIA 231630Z 29004KT 250V320 9999 FEW050CB 23/11 Q1008=
201905231700 METAR LRIA 231700Z 31007KT 9999 FEW045TCU 21/11 Q1008=
201905231730 METAR LRIA 231730Z 34005KT 9999 FEW047 20/11 Q1008=
201905231800 METAR LRIA 231800Z 32007KT CAVOK 18/11 Q1009=
201905231830 METAR LRIA 231830Z 33006KT CAVOK 18/11 Q1009=
201905231900 METAR LRIA 231900Z 33005KT CAVOK 18/11 Q1009=
201905231930 METAR LRIA 231930Z 24005KT CAVOK 17/12 Q1009=
201905232000 METAR LRIA 232000Z 24004KT CAVOK 17/11 Q1009=
201905232030 METAR LRIA 232030Z 24002KT CAVOK 16/12 Q1009=
201905232100 METAR LRIA 232100Z 24003KT CAVOK 16/11 Q1010=
201905232130 METAR LRIA 232130Z 25003KT CAVOK 16/11 Q1010=
201905232200 METAR LRIA 232200Z 26003KT CAVOK 15/11 Q1010=
201905232230 METAR LRIA 232230Z 25003KT CAVOK 15/11 Q1010=
201905232300 METAR LRIA 232300Z 28002KT CAVOK 15/11 Q1009=
201905232330 METAR LRIA 232330Z 25004KT CAVOK 15/11 Q1010=
201905240000 METAR LRIA 240000Z 28005KT CAVOK 15/11 Q1010=
201905240030 METAR LRIA 240030Z 27004KT CAVOK 15/11 Q1010=
201905240100 METAR LRIA 240100Z 27004KT 230V290 CAVOK 14/11 Q1009=
201905240130 METAR LRIA 240130Z 29005KT CAVOK 14/11 Q1009=
201905240200 METAR LRIA 240200Z 28003KT CAVOK 14/11 Q1009=
201905240230 METAR LRIA 240230Z 26004KT CAVOK 14/11 Q1009=
201905240300 METAR LRIA 240300Z 28006KT CAVOK 14/11 Q1009=
201905240330 METAR LRIA 240330Z 29004KT 240V310 CAVOK 15/12 Q1009=
201905240400 METAR LRIA 240400Z 27004KT 220V340 CAVOK 15/12 Q1009=
201905240430 METAR LRIA 240430Z 29006KT CAVOK 16/13 Q1009=
201905240500 METAR LRIA 240500Z 30006KT CAVOK 16/13 Q1009=
201905240530 METAR LRIA 240530Z 28006KT CAVOK 17/13 Q1009=
201905240600 METAR LRIA 240600Z 29007KT 260V320 CAVOK 17/13 Q1009=
201905240630 METAR LRIA 240630Z 30004KT 260V340 CAVOK 18/13 Q1010=
201905240700 METAR LRIA 240700Z 32007KT CAVOK 19/14 Q1009=
201905240730 METAR LRIA 240730Z 34007KT 300V010 9999 FEW017 20/13 Q1010=
201905240800 METAR LRIA 240800Z 33007KT 300V360 9999 FEW016 20/14 Q1010=
201905240830 METAR LRIA 240830Z 31006KT 270V340 9999 FEW017 20/13 Q1010=
201905240900 METAR LRIA 240900Z 33006KT 9999 FEW020 21/13 Q1009=
201905240930 METAR LRIA 240930Z 34007KT 290V010 CAVOK 22/13 Q1009=
201905241000 METAR LRIA 241000Z 34008KT 9999 FEW030 FEW050TCU 22/13 Q1009=
201905241030 METAR LRIA 241030Z 35007KT 310V020 9999 FEW030 FEW050TCU
                        23/13 Q1008=
201905241100 METAR LRIA 241100Z VRB05KT 9999 FEW034 FEW050TCU 24/12 Q1008=
201905241130 METAR LRIA 241130Z 33005KT 270V010 9999 FEW050CB 24/12 Q1007=
201905241200 METAR LRIA 241200Z 30006KT 9999 FEW045CB 24/13 Q1007=
201905241230 METAR LRIA 241230Z 31007KT 9999 VCTS FEW045CB 23/13 Q1007=
201905241300 METAR LRIA 241300Z 30007KT 280V350 9999 FEW017 FEW040CB 21/15
                        Q1007=
201905241330 METAR LRIA 241330Z 30005KT 9999 SHRA SCT044CB 22/15 Q1007
                        R14/29//95=
201905241400 METAR LRIA 241400Z 06016KT 8000 TSRA FEW027 BKN043CB 16/10
                        Q1008 R14/29//95=
201905241430 METAR LRIA 241430Z 24003KT 170V310 8000 -TSRA FEW037 BKN047CB
                        15/12 Q1009 R14/29//95=
201905241500 METAR LRIA 241500Z 03005KT 360V060 9000 -TSRA SCT047CB 15/12
                        Q1009 R14/29//95=
201905241530 METAR LRIA 241530Z VRB03KT 9000 -RA SCT034CB 15/12 Q1008
                        R14/29//95=
201905241600 METAR LRIA 241600Z 13006KT 9000 RA SCT032CB 15/13 Q1009 R14/29//95=
201905241630 METAR LRIA 241630Z 24003KT 200V270 9999 RA FEW032CB 14/12
                        Q1008 R14/29//95=
201905241700 METAR LRIA 241700Z 23005KT 200V280 9999 -RA FEW005 SCT033CB
                        15/13 Q1007 RERA R14/29//95=
201905241730 METAR LRIA 241730Z VRB01KT 9999 -RA FEW033CB 15/12 Q1007
                        R14/29//95=
201905241800 METAR LRIA 241800Z 34006KT 9999 FEW040CB 15/12 Q1008 R14/29//95=
201905241830 METAR LRIA 241830Z 31006KT 9999 FEW050CB 14/12 Q1008 R14/29//95=
201905241900 METAR LRIA 241900Z 32003KT 300V360 CAVOK 14/12 Q1009 R14/29//95=
201905241930 METAR LRIA 241930Z 33005KT CAVOK 14/12 Q1009 R14/29//95=
201905242000 METAR LRIA 242000Z 32005KT CAVOK 14/12 Q1008 R14/29//95=
201905242030 METAR LRIA 242030Z VRB01KT CAVOK 13/11 Q1009 R14/29//95=
201905242100 METAR LRIA 242100Z 00000KT CAVOK 13/11 Q1009 R14/29//95=
201905242130 METAR LRIA 242130Z 24003KT CAVOK 13/11 Q1008 R14/29//95=
201905242200 METAR LRIA 242200Z 25001KT CAVOK 13/11 Q1008 R14/29//95=
201905242230 METAR LRIA 242230Z 23003KT 7000 FEW001 13/11 Q1008 R14/29//95=
201905242300 METAR LRIA 242300Z 23003KT 6000 SCT001 13/11 Q1008 R14/29//95=
201905242330 METAR LRIA 242330Z 25003KT 6000 MIFG SCT001 12/11 Q1008 R14/29//95=
201905250000 METAR LRIA 250000Z 28005KT 9000 MIFG FEW001 13/11 Q1008 R14/29//95=
201905250030 METAR LRIA 250030Z 27004KT 8000 MIFG FEW001 12/11 Q1008 R14/29//95=
201905250100 METAR LRIA 250100Z 26006KT 7000 SCT001 13/11 Q1008 R14/29//95=
201905250130 METAR LRIA 250130Z 27004KT 240V300 8000 FEW001 13/11 Q1008
                        R14/29//95=
201905250200 METAR LRIA 250200Z 25005KT 8000 FEW001 13/11 Q1008 R14/29//95=
201905250230 METAR LRIA 250230Z 24004KT 7000 FEW001 13/11 Q1008 R14/29//95=
201905250300 METAR LRIA 250300Z 27006KT 9999 FEW007 BKN010 13/11 Q1008
                        R14/19//95=
201905250330 METAR LRIA 250330Z 24004KT 210V280 9999 FEW007 BKN009 13/12
                        Q1008 R14/19//95=
201905250400 METAR LRIA 250400Z 28006KT 9999 SCT009 13/12 Q1008 R14/19//95=
201905250430 METAR LRIA 250430Z 28006KT 9999 SCT009 14/13 Q1008 R14/19//95=
201905250500 METAR LRIA 250500Z 28006KT 9999 BKN008 15/13 Q1009 R14/19//95=
201905250530 METAR LRIA 250530Z 29009KT 9999 BKN008 16/13 Q1009 R14/19//95=
201905250600 METAR LRIA 250600Z 30010KT 9999 BKN009 16/13 Q1009 R14/19//95=
201905250630 METAR LRIA 250630Z 30011KT 9999 BKN010 17/13 Q1009 R14/19//95=
201905250700 METAR LRIA 250700Z 30011KT 9999 -RA BKN010 17/14 Q1009 R14/19//95=
201905250730 METAR LRIA 250730Z 30009KT 9999 BKN013 18/14 Q1009 R14/19//95=
201905250800 METAR LRIA 250800Z 31010KT 9999 FEW015 SCT020 18/14 Q1009
                        R14/19//95=
201905250830 METAR LRIA 250830Z 30007KT 270V330 9999 BKN020 18/14 Q1009
                        R14/CLRD//=
201905250900 METAR LRIA 250900Z 30008KT 9999 BKN020 20/15 Q1009=
201905250930 METAR LRIA 250930Z 31010KT 270V340 9999 SCT025 FEW027TCU
                        20/14 Q1009=
201905251000 METAR LRIA 251000Z 29012KT 9999 FEW025TCU SCT027 20/14 Q1009=
201905251030 METAR LRIA 251030Z 32010KT 290V350 9999 SCT027 22/14 Q1009=
201905251100 METAR LRIA 251100Z 32010KT 9999 FEW027TCU SCT030 22/14 Q1009=
201905251130 METAR LRIA 251130Z 31011KT 280V350 9999 FEW030TCU SCT033
                        22/14 Q1008=
201905251200 METAR LRIA 251200Z 31011KT 9999 FEW030TCU SCT033 22/13 Q1008=
201905251230 METAR LRIA 251230Z 31011KT 270V350 9999 FEW030TCU SCT033
                        23/13 Q1008=
201905251300 METAR LRIA 251300Z 30011KT 9999 FEW030TCU SCT035 23/13 Q1008=
201905251330 METAR LRIA 251330Z 32011KT 270V340 9999 FEW030CB SCT035 23/14
                        Q1008=
201905251400 METAR LRIA 251400Z 32014KT 9999 FEW030CB SCT035 22/13 Q1008=
201905251430 METAR LRIA 251430Z 31013KT 9999 FEW035 FEW040CB 22/12 Q1009=
201905251500 METAR LRIA 251500Z 31011KT 9999 FEW035 FEW040CB 22/13 Q1009=
201905251530 METAR LRIA 251530Z 31011KT 9999 FEW040CB 20/13 Q1009=
201905251600 METAR LRIA 251600Z 33007KT 9999 FEW040CB 19/13 Q1009=
201905251630 METAR LRIA 251630Z 32005KT 9999 FEW040CB 19/14 Q1010=
201905251700 METAR LRIA 251700Z 31004KT 9999 FEW040CB 19/14 Q1010=
201905251730 METAR LRIA 251730Z 32006KT 9999 FEW040CB 19/13 Q1010=
201905251800 METAR LRIA 251800Z 32006KT 9999 FEW040CB 18/13 Q1010=
201905251830 METAR LRIA 251830Z 32008KT 9999 FEW040CB 18/12 Q1011=
201905251900 METAR LRIA 251900Z 32006KT 9999 FEW040CB 17/12 Q1011=
201905251930 METAR LRIA 251930Z 30006KT 9999 FEW040CB 17/12 Q1011=
201905252000 METAR LRIA 252000Z 31006KT CAVOK 16/13 Q1011=
201905252030 METAR LRIA 252030Z 30008KT CAVOK 16/13 Q1012=
201905252100 METAR LRIA 252100Z 29007KT CAVOK 15/13 Q1012=
201905252130 METAR LRIA 252130Z 32006KT CAVOK 15/13 Q1012=
201905252200 METAR LRIA 252200Z 31006KT CAVOK 15/13 Q1012=
201905252230 METAR LRIA 252230Z 29004KT CAVOK 15/13 Q1012=
201905252300 METAR LRIA 252300Z 31006KT CAVOK 15/12 Q1012=
201905252330 METAR LRIA 252330Z 30007KT CAVOK 15/12 Q1012=
201905260000 METAR LRIA 260000Z 23003KT 210V270 CAVOK 14/12 Q1012=
201905260030 METAR LRIA 260030Z 26005KT 220V310 CAVOK 14/12 Q1013=
201905260100 METAR LRIA 260100Z 27005KT CAVOK 14/12 Q1013=
201905260130 METAR LRIA 260130Z 27003KT 210V300 CAVOK 14/12 Q1013=
201905260200 METAR LRIA 260200Z 27004KT CAVOK 13/11 Q1013=
201905260230 METAR LRIA 260230Z 26005KT CAVOK 13/11 Q1013=
201905260300 METAR LRIA 260300Z 26005KT CAVOK 13/12 Q1014=
201905260330 METAR LRIA 260330Z 26004KT CAVOK 14/12 Q1014=
201905260400 METAR LRIA 260400Z 29006KT CAVOK 15/12 Q1014=
201905260430 METAR LRIA 260430Z 26005KT CAVOK 16/12 Q1014=
201905260500 METAR LRIA 260500Z 30007KT CAVOK 17/12 Q1014=
201905260530 METAR LRIA 260530Z 30008KT CAVOK 18/12 Q1014=
201905260600 METAR LRIA 260600Z 31011KT CAVOK 18/12 Q1014=
201905260630 METAR LRIA 260630Z 30009KT CAVOK 19/12 Q1014=
201905260700 METAR LRIA 260700Z 31010KT CAVOK 20/13 Q1015=
201905260730 METAR LRIA 260730Z 33006KT 9999 FEW028 21/13 Q1015=
201905260800 METAR LRIA 260800Z 30008KT 260V330 9999 FEW030 22/12 Q1015=
201905260830 METAR LRIA 260830Z 29008KT 9999 FEW035 22/12 Q1015=
201905260900 METAR LRIA 260900Z 30008KT 270V340 9999 SCT043 23/12 Q1015=
201905260930 METAR LRIA 260930Z 30011KT 260V320 9999 SCT045 23/10 Q1015=
201905261000 METAR LRIA 261000Z 30010KT 260V320 9999 SCT048 23/10 Q1015=
201905261030 METAR LRIA 261030Z 29010KT 260V340 CAVOK 23/10 Q1015=
201905261100 METAR LRIA 261100Z 29008KT 250V320 CAVOK 24/10 Q1015=
201905261130 METAR LRIA 261130Z 31008KT 260V340 CAVOK 24/10 Q1015=
201905261200 METAR LRIA 261200Z 34008KT CAVOK 24/08 Q1015=
201905261230 METAR LRIA 261230Z 27005KT CAVOK 24/10 Q1015=
201905261300 METAR LRIA 261300Z 27006KT 230V320 CAVOK 25/10 Q1015=
201905261330 METAR LRIA 261330Z 28006KT 230V330 CAVOK 24/10 Q1014=
201905261400 METAR LRIA 261400Z 31005KT 270V360 CAVOK 25/09 Q1014=
201905261430 METAR LRIA 261430Z 30005KT 260V340 CAVOK 25/09 Q1014=
201905261500 METAR LRIA 261500Z 33005KT CAVOK 24/09 Q1014=
201905261530 METAR LRIA 261530Z 32004KT 290V350 CAVOK 24/10 Q1014=
201905261600 METAR LRIA 261600Z 27004KT 230V310 CAVOK 24/09 Q1014=
201905261630 METAR LRIA 261630Z 30003KT CAVOK 24/10 Q1014=
201905261700 METAR LRIA 261700Z 27003KT CAVOK 23/10 Q1014=
201905261730 METAR LRIA 261730Z 23003KT CAVOK 23/09 Q1015=
201905261800 METAR LRIA 261800Z 20003KT CAVOK 21/09 Q1015=
201905261830 METAR LRIA 261830Z 17001KT CAVOK 21/10 Q1015=
201905261900 METAR LRIA 261900Z 10003KT 070V130 CAVOK 20/10 Q1015=
201905261930 METAR LRIA 261930Z 00000KT CAVOK 19/10 Q1015=
201905262000 METAR LRIA 262000Z 00000KT CAVOK 19/10 Q1015=
201905262030 METAR LRIA 262030Z 00000KT CAVOK 18/10 Q1015=
201905262100 METAR LRIA 262100Z 10003KT CAVOK 19/09 Q1016=
201905262130 METAR LRIA 262130Z 19002KT CAVOK 18/10 Q1016=
201905262200 METAR LRIA 262200Z 09004KT CAVOK 17/09 Q1016=
201905262230 METAR LRIA 262230Z 10004KT CAVOK 17/09 Q1016=
201905262300 METAR LRIA 262300Z 08003KT CAVOK 17/09 Q1016=
201905262330 METAR LRIA 262330Z 08005KT CAVOK 16/09 Q1016=
201905270000 METAR LRIA 270000Z 09006KT CAVOK 16/10 Q1015=
201905270030 METAR LRIA 270030Z 08004KT 030V120 CAVOK 15/10 Q1015=
201905270100 METAR LRIA 270100Z 09005KT CAVOK 15/10 Q1015=
201905270130 METAR LRIA 270130Z 08005KT CAVOK 15/10 Q1015=
201905270200 METAR LRIA 270200Z 07005KT CAVOK 15/10 Q1015=
201905270230 METAR LRIA 270230Z 06004KT CAVOK 15/10 Q1015=
201905270300 METAR LRIA 270300Z 08006KT CAVOK 15/10 Q1015=
201905270330 METAR LRIA 270330Z 07004KT CAVOK 16/10 Q1016=
201905270400 METAR LRIA 270400Z 12004KT 080V140 CAVOK 16/11 Q1016=
201905270430 METAR LRIA 270430Z 10003KT 080V140 CAVOK 17/12 Q1016=
201905270500 METAR LRIA 270500Z 14003KT 100V170 CAVOK 19/13 Q1016=
201905270530 METAR LRIA 270530Z 15003KT 110V190 CAVOK 20/14 Q1016=
201905270600 METAR LRIA 270600Z 12004KT 080V160 CAVOK 21/14 Q1016=
201905270630 METAR LRIA 270630Z 12005KT CAVOK 22/15 Q1016=
201905270700 METAR LRIA 270700Z 13006KT CAVOK 22/15 Q1016=
201905270730 METAR LRIA 270730Z 13005KT CAVOK 23/15 Q1016=
201905270800 METAR LRIA 270800Z 12006KT CAVOK 23/15 Q1016=
201905270830 METAR LRIA 270830Z 19008KT 9999 FEW036 25/14 Q1016=
201905270900 METAR LRIA 270900Z 21010KT 9999 FEW039 26/14 Q1016=
201905270930 METAR LRIA 270930Z 19009KT 150V210 9999 FEW042 26/14 Q1016=
201905271000 METAR LRIA 271000Z 18010KT 9999 SCT042 26/14 Q1016=
201905271030 METAR LRIA 271030Z 18012KT 9999 FEW046 27/12 Q1015=
201905271100 METAR LRIA 271100Z 17011KT 140V210 CAVOK 27/12 Q1015=
201905271130 METAR LRIA 271130Z 17011KT CAVOK 27/12 Q1015=
201905271200 METAR LRIA 271200Z 18011KT 150V210 CAVOK 27/12 Q1015=
201905271230 METAR LRIA 271230Z 18010KT CAVOK 28/14 Q1015=
201905271300 METAR LRIA 271300Z 20010KT CAVOK 28/12 Q1015=
201905271330 METAR LRIA 271330Z 18011KT 150V210 CAVOK 27/12 Q1014=
201905271400 METAR LRIA 271400Z 18012KT CAVOK 27/12 Q1014=
201905271430 METAR LRIA 271430Z 16012KT CAVOK 27/13 Q1014=
201905271500 METAR LRIA 271500Z 18012KT CAVOK 27/12 Q1014=
201905271530 METAR LRIA 271530Z 17010KT CAVOK 27/12 Q1014=
201905271600 METAR LRIA 271600Z 17009KT 150V210 CAVOK 26/12 Q1014=
201905271630 METAR LRIA 271630Z 16008KT CAVOK 26/12 Q1014=
201905271700 METAR LRIA 271700Z 14007KT CAVOK 25/13 Q1014=
201905271730 METAR LRIA 271730Z 14008KT CAVOK 24/12 Q1014=
201905271800 METAR LRIA 271800Z 14007KT CAVOK 23/12 Q1014=
201905271830 METAR LRIA 271830Z 15007KT CAVOK 23/12 Q1014=
201905271900 METAR LRIA 271900Z 11007KT CAVOK 21/12 Q1014=
201905271930 METAR LRIA 271930Z 12009KT CAVOK 21/12 Q1014=
201905272000 METAR LRIA 272000Z 14008KT 120V180 CAVOK 22/12 Q1014=
201905272030 METAR LRIA 272030Z 15008KT 120V180 CAVOK 21/11 Q1014=
201905272100 METAR LRIA 272100Z 13008KT CAVOK 21/11 Q1014=
201905272130 METAR LRIA 272130Z 15009KT CAVOK 21/10 Q1014=
201905272200 METAR LRIA 272200Z 11006KT CAVOK 20/10 Q1014=
201905272230 METAR LRIA 272230Z 11007KT 070V130 CAVOK 20/09 Q1014=
201905272300 METAR LRIA 272300Z 14006KT 110V170 CAVOK 20/09 Q1014=
201905272330 METAR LRIA 272330Z 13008KT CAVOK 20/09 Q1014=
201905280000 METAR LRIA 280000Z 15008KT CAVOK 19/10 Q1014=
201905280030 METAR LRIA 280030Z 15008KT CAVOK 18/09 Q1014=
201905280100 METAR LRIA 280100Z 13008KT 100V170 CAVOK 18/09 Q1014=
201905280130 METAR LRIA 280130Z 13007KT CAVOK 17/10 Q1014=
201905280200 METAR LRIA 280200Z 17008KT CAVOK 18/09 Q1014=
201905280230 METAR LRIA 280230Z 15008KT CAVOK 17/09 Q1014=
201905280300 METAR LRIA 280300Z 15010KT 120V180 CAVOK 18/09 Q1014=
201905280330 METAR LRIA 280330Z 13012KT CAVOK 17/10 Q1014=
201905280400 METAR LRIA 280400Z 13012KT CAVOK 17/10 Q1014=
201905280430 METAR LRIA 280430Z 10010KT CAVOK 17/11 Q1014=
201905280500 METAR LRIA 280500Z 10010KT CAVOK 18/12 Q1014=
201905280530 METAR LRIA 280530Z 11011KT CAVOK 20/11 Q1014=
201905280600 METAR LRIA 280600Z 11013KT CAVOK 19/11 Q1014=
201905280630 METAR LRIA 280630Z 16013KT 120V180 CAVOK 22/11 Q1014=
201905280700 METAR LRIA 280700Z 15014KT CAVOK 21/12 Q1014=
201905280730 METAR LRIA 280730Z 14014KT CAVOK 22/12 Q1014=
201905280800 METAR LRIA 280800Z 15017KT CAVOK 22/13 Q1014=
201905280830 METAR LRIA 280830Z 15011G21KT 9999 FEW040 24/13 Q1014=
201905280900 METAR LRIA 280900Z 15017KT 9999 FEW045 24/13 Q1013=
201905280930 METAR LRIA 280930Z 16015G26KT 140V200 9999 FEW045 25/13 Q1013=
201905281000 METAR LRIA 281000Z 15019KT 9999 FEW047 25/13 Q1013=
201905281030 METAR LRIA 281030Z 17018KT 130V190 9999 FEW048 26/13 Q1013=
201905281100 METAR LRIA 281100Z 16019KT CAVOK 26/13 Q1012=
201905281130 METAR LRIA 281130Z 16018KT 130V190 CAVOK 26/13 Q1012=
201905281200 METAR LRIA 281200Z 15020KT CAVOK 26/12 Q1011=
201905281230 METAR LRIA 281230Z 16016KT CAVOK 26/12 Q1011=
201905281300 METAR LRIA 281300Z 16021KT CAVOK 27/11 Q1011=
201905281330 METAR LRIA 281330Z 16018KT CAVOK 27/12 Q1011=
201905281400 METAR LRIA 281400Z 14018G28KT CAVOK 27/12 Q1010=
201905281430 METAR LRIA 281430Z 14018KT CAVOK 26/11 Q1010=
201905281500 METAR LRIA 281500Z 13020KT CAVOK 26/11 Q1010=
201905281530 METAR LRIA 281530Z 13017KT CAVOK 25/11 Q1010=
201905281600 METAR LRIA 281600Z 14019KT CAVOK 24/11 Q1009=
201905281630 METAR LRIA 281630Z 13016KT CAVOK 24/11 Q1010=
201905281700 METAR LRIA 281700Z 13019KT CAVOK 23/11 Q1009=
201905281730 METAR LRIA 281730Z 12017KT CAVOK 23/11 Q1009=
201905281800 METAR LRIA 281800Z 12016KT CAVOK 22/11 Q1009=
201905281830 METAR LRIA 281830Z 12015KT CAVOK 22/12 Q1009=
201905281900 METAR LRIA 281900Z 12011KT CAVOK 21/13 Q1010=
201905281930 METAR LRIA 281930Z 11010KT CAVOK 20/13 Q1010=
201905282000 METAR LRIA 282000Z 12010KT CAVOK 19/13 Q1010=
201905282030 METAR LRIA 282030Z 11008KT CAVOK 19/13 Q1010=
201905282100 METAR LRIA 282100Z 10006KT CAVOK 18/13 Q1010=
201905282130 METAR LRIA 282130Z 11009KT CAVOK 18/13 Q1010=
201905282200 METAR LRIA 282200Z 14008KT CAVOK 17/13 Q1010=
201905282230 METAR LRIA 282230Z 13011KT CAVOK 17/13 Q1010=
201905282300 METAR LRIA 282300Z 12012KT CAVOK 17/13 Q1009=
201905282330 METAR LRIA 282330Z 11014KT CAVOK 16/13 Q1009=
201905290000 METAR LRIA 290000Z 13010KT CAVOK 16/13 Q1009=
201905290030 METAR LRIA 290030Z 12013KT CAVOK 16/13 Q1009=
201905290100 METAR LRIA 290100Z 12010KT CAVOK 16/13 Q1009=
201905290130 METAR LRIA 290130Z 12008KT CAVOK 16/13 Q1009=
201905290200 METAR LRIA 290200Z 11009KT 9999 FEW013 16/13 Q1009=
201905290230 METAR LRIA 290230Z 12007KT 9999 SCT012 BKN016 16/14 Q1010=
201905290300 METAR LRIA 290300Z 13005KT 9999 SCT012 BKN016 16/14 Q1010=
201905290330 METAR LRIA 290330Z 09005KT 9999 FEW012 BKN016 17/14 Q1010=
201905290400 METAR LRIA 290400Z 11009KT 9999 BKN015 17/14 Q1010=
201905290430 METAR LRIA 290430Z 11010KT 9999 SCT015 17/14 Q1010=
201905290500 METAR LRIA 290500Z 11011KT 9999 FEW015 18/14 Q1010=
201905290530 METAR LRIA 290530Z 12011KT 9999 FEW010 18/14 Q1010=
201905290600 METAR LRIA 290600Z 11012KT 9999 SCT014 18/14 Q1010=
201905290630 METAR LRIA 290630Z 12010KT 9999 FEW012 19/14 Q1010=
201905290700 METAR LRIA 290700Z 12008KT 9999 FEW012 SCT016 20/15 Q1010=
201905290730 METAR LRIA 290730Z 12006KT 080V150 9999 FEW014 20/15 Q1010=
201905290800 METAR LRIA 290800Z 13005KT 050V190 9999 FEW016 SCT020 21/15
                        Q1010=
201905290830 METAR LRIA 290830Z 24004KT 200V360 9999 SCT020 22/14 Q1010=
201905290900 METAR LRIA 290900Z VRB04KT 9999 FEW021 22/14 Q1011=
201905290930 METAR LRIA 290930Z 30002KT 9999 SCT025 22/14 Q1011=
201905291000 METAR COR LRIA 291000Z 30003KT 230V040 9999 SCT027 23/16
                        Q1011=
201905291030 METAR LRIA 291030Z 29003KT 230V350 9999 BKN032 23/15 Q1011=
201905291100 METAR LRIA 291100Z 33004KT 280V020 9999 FEW025 SCT032 24/16
                        Q1011=
201905291130 METAR LRIA 291130Z 24004KT 190V350 9999 SCT027 25/15 Q1011=
201905291200 METAR LRIA 291200Z 35007KT 9999 FEW030 24/15 Q1011=
201905291230 METAR LRIA 291230Z 33004KT 280V010 9999 FEW035 25/14 Q1011=
201905291300 METAR LRIA 291300Z 25004KT 200V320 9999 FEW040 26/15 Q1010=
201905291330 METAR LRIA 291330Z VRB02KT 9999 FEW045 26/15 Q1010=
201905291400 METAR LRIA 291400Z 29004KT 260V320 9999 FEW045 25/15 Q1010=
201905291430 METAR LRIA 291430Z 29004KT 250V330 9999 FEW045 25/15 Q1010=
201905291500 METAR LRIA 291500Z 32003KT 270V360 9999 FEW048 26/15 Q1010=
201905291530 METAR LRIA 291530Z 30005KT 9999 FEW048 24/15 Q1010=
201905291600 METAR LRIA 291600Z 29004KT 9999 FEW045 FEW050CB 23/15 Q1011=
201905291630 METAR LRIA 291630Z 30005KT 9999 FEW047 22/15 Q1011=
201905291700 METAR LRIA 291700Z 31006KT CAVOK 22/15 Q1011=
201905291730 METAR LRIA 291730Z 30004KT CAVOK 21/15 Q1011=
201905291800 METAR LRIA 291800Z 31005KT CAVOK 21/15 Q1011=
201905291830 METAR LRIA 291830Z 32005KT CAVOK 21/15 Q1012=
201905291900 METAR LRIA 291900Z 32006KT CAVOK 20/15 Q1012=
201905291930 METAR LRIA 291930Z 29005KT 250V330 CAVOK 19/15 Q1012=
201905292000 METAR LRIA 292000Z 25004KT CAVOK 19/15 Q1012=
201905292030 METAR LRIA 292030Z 27005KT CAVOK 19/15 Q1013=
201905292100 METAR LRIA 292100Z 28005KT CAVOK 19/15 Q1013=
201905292130 METAR LRIA 292130Z 28007KT CAVOK 18/15 Q1013=
201905292200 METAR LRIA 292200Z 26005KT CAVOK 18/15 Q1014=
201905292230 METAR LRIA 292230Z 25004KT CAVOK 17/15 Q1014=
201905292300 METAR LRIA 292300Z 27004KT 230V300 9999 SCT033 17/14 Q1014=
201905292330 METAR LRIA 292330Z 19002KT 9999 BKN040 17/15 Q1014=
201905300000 METAR LRIA 300000Z 24004KT 200V270 9999 BKN040 17/15 Q1014=
201905300030 METAR LRIA 300030Z 26005KT 9999 SCT040 17/15 Q1014=
201905300100 METAR LRIA 300100Z 26004KT 9999 FEW040 17/14 Q1014=
201905300130 METAR LRIA 300130Z 27004KT 250V310 CAVOK 17/14 Q1014=
201905300200 METAR LRIA 300200Z 26004KT CAVOK 16/14 Q1014=
201905300230 METAR LRIA 300230Z 23004KT 210V270 9999 FEW006 16/14 Q1015=
201905300300 METAR LRIA 300300Z 27005KT 9999 SCT008 16/14 Q1015=
201905300330 METAR LRIA 300330Z 26003KT 220V310 9999 BKN008 17/15 Q1015=
201905300400 METAR LRIA 300400Z 28004KT 9999 SCT008 17/15 Q1015=
201905300430 METAR LRIA 300430Z 28005KT 250V310 9999 FEW006 18/15 Q1016=
201905300500 METAR LRIA 300500Z 29006KT 260V320 9999 FEW006 BKN010 18/15
                        Q1016=
201905300530 METAR LRIA 300530Z 31005KT 290V350 9999 SCT008 18/15 Q1016=
201905300600 METAR LRIA 300600Z 33005KT 290V350 9999 SCT009 19/15 Q1016=
201905300630 METAR LRIA 300630Z 28005KT 240V310 9999 FEW009 19/15 Q1016=
201905300700 METAR LRIA 300700Z 28004KT 250V330 9999 FEW010 20/15 Q1016=
201905300730 METAR LRIA 300730Z 28005KT 240V320 9999 FEW011 20/16 Q1016=
201905300800 METAR LRIA 300800Z 27004KT 230V300 9999 FEW012 21/16 Q1016=
201905300830 METAR LRIA 300830Z 28003KT 220V030 9999 FEW015 SCT035 22/16
                        Q1017=
201905300900 METAR LRIA 300900Z VRB01KT 9999 FEW015 SCT035 22/17 Q1017=
201905300930 METAR LRIA 300930Z 29003KT 240V020 9999 FEW016 SCT022 22/17
                        Q1017=
201905301000 METAR LRIA 301000Z VRB03KT 9999 FEW018 23/17 Q1017=
201905301030 METAR LRIA 301030Z VRB02KT 9999 SCT023 24/17 Q1017=
201905301100 METAR LRIA 301100Z VRB03KT 9999 FEW024 24/17 Q1017=
201905301130 METAR LRIA 301130Z VRB02KT 9999 FEW026 26/17 Q1016=
201905301200 METAR LRIA 301200Z 30005KT 9999 FEW022 25/18 Q1016=
201905301230 METAR LRIA 301230Z VRB03KT 9999 FEW028 26/17 Q1016=
201905301300 METAR LRIA 301300Z 33004KT 290V360 9999 BKN028 25/17 Q1016=
201905301330 METAR LRIA 301330Z 28005KT 9999 BKN028 FEW050CB 26/17 Q1016=
201905301400 METAR LRIA 301400Z VRB01KT 9999 BKN031 FEW050CB 26/17 Q1016=
201905301430 METAR LRIA 301430Z 34007KT 9999 BKN030 FEW045CB 25/17 Q1016=
201905301500 METAR LRIA 301500Z 35014KT 9999 -TSRA BKN026 SCT042CB 21/17
                        Q1016 R14/29//95=
201905301530 METAR LRIA 301530Z 33005KT 3000 -TSRA FEW010 SCT026 SCT035CB
                        20/18 Q1017 R14/29//95=
201905301600 METAR LRIA 301600Z 36007KT 9000 VCTS FEW010 SCT024 FEW035CB
                        20/18 Q1017 R14/29//95=
201905301630 METAR LRIA 301630Z 05005KT 030V090 9999 VCTS FEW013 FEW045CB
                        20/17 Q1017 R14/29//95=
201905301700 METAR LRIA 301700Z 07005KT 9999 -RA FEW008 SCT034 SCT045CB
                        19/17 Q1017 R14/29//95=
201905301730 METAR LRIA 301730Z VRB01KT 9999 TS SCT033CB SCT048 19/17
                        Q1017 R14/29//95=
201905301800 METAR COR LRIA 301800Z 20002KT 9999 TS FEW030 BKN033CB 19/17
                        Q1017 R14/29//95=
201905301830 METAR LRIA 301830Z 28005KT 260V320 9999 -RA SCT011 SCT020
                        SCT033CB 19/17 Q1018 RETS R14/29//95=
201905301900 METAR LRIA 301900Z 32006KT 9999 FEW011 FEW033CB 19/16 Q1018
                        R14/29//95=
201905301930 METAR LRIA 301930Z 28004KT 9999 FEW040CB 18/16 Q1018 R14/29//95=
201905302000 METAR LRIA 302000Z 33007KT 9999 FEW008 18/16 Q1018 R14/29//95=
201905302030 METAR LRIA 302030Z 29004KT 9999 FEW005 SCT008 17/16 Q1018
                        R14/29//95=
201905302100 METAR LRIA 302100Z 31008KT 9999 FEW005 SCT008 17/15 Q1018
                        R14/29//95=
201905302130 METAR LRIA 302130Z 31010KT 9999 SCT010 17/15 Q1018 R14/29//95=
201905302200 METAR LRIA 302200Z 32010KT 9999 FEW010 17/15 Q1018 R14/29//95=
201905302230 METAR LRIA 302230Z 32010KT 9999 FEW010 17/15 Q1018 R14/29//95=
201905302300 METAR LRIA 302300Z 31009KT 9999 FEW016 17/15 Q1018 R14/29//95=
201905302330 METAR LRIA 302330Z 30006KT 9999 SCT008 SCT033 FEW040CB 17/15
                        Q1018 R14/29//95=
201905310000 METAR LRIA 310000Z 31005KT 9999 BKN008 FEW040CB 17/15 Q1018
                        R14/29//95=
201905310030 METAR LRIA 310030Z 25005KT 9999 BKN006 FEW040CB 17/15 Q1018
                        R14/29//95=
201905310100 METAR LRIA 310100Z 29007KT 9999 BKN008 FEW035CB 17/15 Q1018
                        R14/29//95=
201905310130 METAR LRIA 310130Z 30005KT 270V330 9999 -RA FEW009 BKN012
                        SCT035CB 17/15 Q1018 R14/29//95=
201905310200 METAR LRIA 310200Z VRB02KT 9999 FEW009 BKN025 FEW035CB 17/15
                        Q1018 R14/29//95=
201905310230 METAR LRIA 310230Z 31004KT 280V340 9999 FEW007 BKN028 FEW035CB
                        17/15 Q1018 R14/29//95=
201905310300 METAR LRIA 310300Z 29006KT 9999 -RA FEW006 FEW035CB BKN043
                        17/15 Q1019 R14/29//95=
201905310330 METAR LRIA 310330Z 30005KT 9999 VCTS FEW006 SCT022 FEW035CB
                        BKN040 17/15 Q1018 R14/29//95=
201905310400 METAR LRIA 310400Z 30005KT 9999 FEW004 SCT018 BKN029 FEW035CB
                        17/15 Q1019 R14/29//95=
201905310430 METAR LRIA 310430Z 33007KT 9999 FEW007 FEW025CB BKN030 17/14
                        Q1019 R14/29//95=
201905310500 METAR LRIA 310500Z 34008KT 9999 FEW007 BKN025 17/15 Q1019
                        R14/29//95=
201905310530 METAR LRIA 310530Z 34009KT 9999 FEW009 SCT025 18/15 Q1019
                        R14/29//95=
201905310600 METAR LRIA 310600Z 33008KT 9999 SCT010 BKN033 18/15 Q1019
                        R14/29//95=
201905310630 METAR LRIA 310630Z 34011KT 9999 FEW011 SCT033 19/15 Q1019
                        R14/29//95=
201905310700 METAR COR LRIA 310700Z 34011KT 9999 BKN008 BKN033 18/15 Q1019
                        R14/19//95=
201905310730 METAR LRIA 310730Z 33009KT 9999 BKN010 BKN040 20/16 Q1019
                        R14/19//95=
201905310800 METAR LRIA 310800Z 32010KT 9999 BKN013 19/15 Q1019 R14/19//95=
201905310830 METAR LRIA 310830Z 31009KT 9999 BKN019 20/15 Q1019 R14/CLRD//=
201905310900 METAR LRIA 310900Z 32010KT 9999 FEW014 BKN021 20/15 Q1019=
201905310930 METAR LRIA 310930Z 31010KT 270V340 9999 SCT015 BKN027 20/15
                        Q1019=
201905311000 METAR LRIA 311000Z 32010KT 9999 SCT017 BKN033 20/15 Q1019=
201905311030 METAR LRIA 311030Z 32011KT 9999 SCT020 SCT030 21/15 Q1019=
201905311100 METAR LRIA 311100Z 31010KT 9999 BKN020 21/16 Q1019=
201905311130 METAR LRIA 311130Z 30012KT 9999 BKN022 20/15 Q1019=
201905311200 METAR LRIA 311200Z 31011KT 9999 BKN022 21/15 Q1019=
201905311230 METAR LRIA 311230Z 32012KT 9999 SCT022 BKN035 21/15 Q1018=
201905311300 METAR LRIA 311300Z 32011KT 9999 SCT022 BKN035 21/15 Q1018=
201905311330 METAR LRIA 311330Z 32009KT 9999 BKN021 20/15 Q1018=
201905311400 METAR LRIA 311400Z 32008KT 9999 SCT022 BKN035 20/15 Q1018=
201905311430 METAR LRIA 311430Z 31011KT 9999 FEW022 SCT035 20/15 Q1018=
201905311500 METAR LRIA 311500Z 32011KT 9999 SCT022 BKN033 20/15 Q1018=
201905311530 METAR LRIA 311530Z 32009KT 9999 SCT020 BKN030 20/15 Q1017=
201905311600 METAR LRIA 311600Z 32011KT 9999 FEW020 BKN030 20/15 Q1017=
201905311630 METAR LRIA 311630Z 32011KT 9999 BKN030 20/15 Q1018=
201905311700 METAR LRIA 311700Z 32010KT 9999 SCT032 BKN041 20/15 Q1018=
201905311730 METAR LRIA 311730Z 32010KT 9999 SCT026 BKN040 20/15 Q1018=
201905311800 METAR LRIA 311800Z 31009KT 9999 SCT026 19/15 Q1018=
201905311830 METAR LRIA 311830Z 31009KT 9999 FEW025 19/15 Q1018=
201905311900 METAR LRIA 311900Z 32010KT 9999 FEW040 18/14 Q1017=
201905311930 METAR LRIA 311930Z 32011KT 9999 FEW037 18/14 Q1018=
201905312000 METAR LRIA 312000Z 32010KT 9999 FEW049 18/14 Q1018=
201905312030 METAR LRIA 312030Z 32009KT CAVOK 17/14 Q1018=
201905312100 METAR LRIA 312100Z 32009KT 9999 SCT046 17/14 Q1018=
201905312130 METAR LRIA 312130Z 33009KT 9999 FEW035 BKN046 17/14 Q1018=
201905312200 METAR LRIA 312200Z 33010KT 9999 SCT035 BKN047 17/14 Q1018=
201905312230 METAR LRIA 312230Z 32009KT 9999 SCT044 17/13 Q1018=
201905312300 METAR LRIA 312300Z 32009KT 9999 SCT039 BKN049 17/13 Q1018=
201905312330 METAR LRIA 312330Z 31010KT 9999 FEW048 16/13 Q1017=
