201906010200 TAF LRIA 010200Z 0103/0112 32010KT 9999 BKN040
                      PROB40 TEMPO 0104/0107 -TSRA SCT010 SCT030CB
                       OVC040
                      BECMG 0107/0109 SCT040CB
                      TEMPO 0109/0112 VRB15G25KT 3000 TSRA=
201906010500 TAF LRIA 010500Z 0106/0115 32010KT 9999 BKN035
                      BECMG 0106/0108 SCT040CB
                      TEMPO 0108/0112 VRB15G25KT 3000 +TSRA BKN010
                       BKN030CB=
201906010705 TAF AMD LRIA 010705Z 0107/0115 32010KT 9999 BKN035
                      TEMPO 0107/0110 VRB15G25KT 3000 +TSRA BKN010
                       BKN030CB
                      TEMPO 0110/0112 5000 SHRA BKN015 SCT030CB=
201906010800 TAF LRIA 010800Z 0109/0118 32010KT 9999 BKN035
                      TEMPO 0109/0112 5000 TSRA SCT030CB=
201906011100 TAF LRIA 011100Z 0112/0121 32010KT 9999 BKN035
                      TEMPO 0112/0114 5000 TSRA BKN015 SCT030CB
                       TEMPO 0114/0116 5000 SHRA SCT030CB=
201906011400 TAF LRIA 011400Z 0115/0124 30008KT 9999 BKN035
                      TEMPO 0115/0117 SCT035CB=
201906011700 TAF LRIA 011700Z 0118/0203 30006KT CAVOK=
201906012000 TAF LRIA 012000Z 0121/0206 30006KT CAVOK
                      TEMPO 0200/0204 3000 BR BKN010=
201906012300 TAF LRIA 012300Z 0200/0209 30006KT CAVOK
                      TEMPO 0201/0204 3000 BR BKN010=
201906020200 TAF LRIA 020200Z 0203/0212 26006KT CAVOK
                      TEMPO 0203/0205 3000 BR BKN010
                      BECMG 0205/0207 32010KT=
201906020500 TAF LRIA 020500Z 0206/0215 VRB04KT CAVOK
                      BECMG 0206/0208 32010KT=
201906020800 TAF LRIA 020800Z 0209/0218 32010KT 9999 SCT030=
201906021100 TAF LRIA 021100Z 0212/0221 32010KT 9999 SCT030
                      TEMPO 0215/0219 5000 -SHRA SCT030 SCT035CB=
201906021400 TAF LRIA 021400Z 0215/0224 34007KT 9999 SCT030
                      TEMPO 0215/0219 SCT030 FEW035CB=
201906021700 TAF LRIA 021700Z 0218/0303 VRB04KT CAVOK=
201906022000 TAF LRIA 022000Z 0221/0306 33006KT CAVOK
                      BECMG 0301/0303 5000 SHRA BKN015 SCT035CB
                       TEMPO 0303/0306 3000 TSRA=
201906022300 TAF LRIA 022300Z 0300/0309 32006KT CAVOK
                      BECMG 0300/0302 5000 -SHRA SCT015 SCT035CB
                       TEMPO 0302/0307 3000 TSRA BKN015 BKN030CB
                       BECMG 0307/0309 9999 NSW BKN025=
201906030200 TAF LRIA 030200Z 0303/0312 32006KT 9999 BKN040
                      TEMPO 0303/0307 3000 TSRA BKN015 BKN030CB=
201906030500 TAF LRIA 030500Z 0306/0315 30005KT 9999 SCT035CB
                      TEMPO 0306/0310 5000 TSRA
                      BECMG 0313/0315 04010KT=
201906030800 TAF LRIA 030800Z 0309/0318 04007KT 9999 SCT010 SCT040 FEW045CB
                       PROB30
                      TEMPO 0309/0311 5000 SHRA
                      PROB30 TEMPO 0314/0318 5000 TSRA=
201906031100 TAF LRIA 031100Z 0312/0321 01007KT 9999 SCT010 SCT040
                      PROB30 TEMPO 0315/0321 5000 TSRA SCT010 SCT035CB=
201906031400 TAF LRIA 031400Z 0315/0324 04007KT CAVOK
                      BECMG 0321/0323 5000 BR BKN015=
201906031700 TAF LRIA 031700Z 0318/0403 36005KT 9999 BKN040
                      PROB40 TEMPO 0318/0322 3000 TSRA BKN010 BKN025CB
                       TEMPO 0400/0403 3000 BR BKN015 BKN030=
201906032000 TAF LRIA 032000Z 0321/0406 34005KT 9999 BKN040
                      PROB40 TEMPO 0321/0323 5000 -SHRA BKN010
                       SCT035CB
                      TEMPO 0400/0403 3000 BR BKN015 BKN030
                      BECMG 0403/0405 5000 -RA BR BKN010 OVC030=
201906032300 TAF LRIA 032300Z 0400/0409 03005KT 9999 SCT045
                      TEMPO 0400/0403 3000 BR BKN015 BKN030
                      BECMG 0403/0405 5000 -RA BR BKN010 OVC030
                       TEMPO 0407/0409 3000 TSRA BKN005 BKN025CB=
201906040200 TAF LRIA 040200Z 0403/0412 VRB04KT 9999 SCT045
                      BECMG 0404/0406 5000 -RA BR BKN010 OVC030
                       TEMPO 0408/0412 3000 TSRA BKN005 BKN025CB=
201906040454 TAF AMD LRIA 040454Z 0404/0412 VRB04KT 5000 BR BKN002
                      PROB40 TEMPO 0404/0409 3000 TSRA BKN005 SCT030CB
                       BKN035
                      BECMG 0409/0411 12010KT 9999 NSW SCT020=
201906040500 TAF LRIA 040500Z 0406/0415 VRB04KT 5000 BR BKN002
                      PROB40 TEMPO 0406/0409 3000 TSRA BKN005 SCT030CB
                       BKN035
                      BECMG 0409/0411 12010KT 9999 NSW SCT020=
201906040800 TAF LRIA 040800Z 0409/0418 VRB04KT CAVOK
                      TEMPO 0411/0414 12010KT SCT040CB
                      TEMPO 0414/0417 05010KT=
201906041100 TAF LRIA 041100Z 0412/0421 VRB04KT 9999 SCT045
                      PROB30 TEMPO 0412/0415 12010KT 5000 -TSRA
                       SCT040CB
                      TEMPO 0415/0417 04010KT=
201906041400 TAF LRIA 041400Z 0415/0424 VRB04KT 9999 SCT035
                      TEMPO 0415/0417 5000 -TSRA SCT030CB
                      BECMG 0421/0423 3000 BR BKN005=
201906041700 TAF LRIA 041700Z 0418/0503 VRB04KT 9999 SCT007
                      BECMG 0420/0422 3000 BR BKN005
                      BECMG 0422/0424 1500 BR BKN002
                      BECMG 0500/0502 0600 FG OVC001=
201906042000 TAF LRIA 042000Z 0421/0506 VRB04KT 3000 BR NSC
                      BECMG 0421/0423 1500 BR BKN002
                      TEMPO 0423/0505 0500 FG OVC001=
201906042052 TAF AMD LRIA 042052Z 0421/0506 VRB04KT 0300 FG NSC
                      PROB30 TEMPO 0421/0422 1000 BR
                      BECMG 0422/0423 BKN001
                      PROB30 TEMPO 0423/0504 0150 FG VV000
                      BECMG 0504/0506 1500 BR BKN005=
201906042300 TAF LRIA 042300Z 0500/0509 VRB04KT 0150 FG OVC001
                      PROB30 TEMPO 0500/0504 0800
                      BECMG 0504/0506 1500 BR BKN005
                      BECMG 0506/0508 9999 NSW SCT025=
201906050200 TAF LRIA 050200Z 0503/0512 VRB04KT 0150 FG OVC001
                      PROB30 TEMPO 0503/0504 0600 OVC003
                      BECMG 0504/0506 1500 BR BKN005
                      BECMG 0506/0508 9999 NSW SCT030
                      TEMPO 0509/0512 SCT035CB=
201906050500 TAF LRIA 050500Z 0506/0515 VRB04KT 0600 FG VV002
                      BECMG 0506/0507 1500 BR BKN005
                      BECMG 0507/0509 12012KT 9999 NSW SCT030
                      TEMPO 0512/0515 SCT035CB=
201906050647 TAF AMD LRIA 050647Z 0506/0515 VRB04KT 9999 SCT030
                      BECMG 0507/0509 12012KT
                      TEMPO 0512/0515 SCT035CB=
201906050800 TAF LRIA 050800Z 0509/0518 VRB04KT 9999 SCT035
                      BECMG 0509/0511 12012KT
                      PROB40 TEMPO 0513/0516 VRB20KT 3000 TSRA
                       BKN010 BKN030CB=
201906051100 TAF LRIA 051100Z 0512/0521 13008KT 9999 SCT040
                      TEMPO 0513/0518 SCT035CB
                      PROB40 TEMPO 0514/0517 VRB20KT 3000 TSRA
                       BKN010 BKN030CB=
201906051400 TAF LRIA 051400Z 0515/0524 12008KT 9999 SCT040
                      PROB30 TEMPO 0515/0517 5000 -TSRA BKN010
                       SCT030CB=
201906051700 TAF LRIA 051700Z 0518/0603 VRB04KT 9999 SCT040
                      TEMPO 0518/0520 SCT045CB
                      BECMG 0522/0524 1500 BR
                      TEMPO 0600/0603 0600 FG BKN002=
201906052000 TAF LRIA 052000Z 0521/0606 10005KT 9999 SCT040
                      TEMPO 0521/0523 SCT045CB
                      BECMG 0600/0601 3000 BR
                      TEMPO 0601/0604 0600 FG BKN002=
201906052300 TAF LRIA 052300Z 0600/0609 10005KT 9999 SCT040
                      BECMG 0600/0601 3000 BR
                      TEMPO 0601/0604 0600 FG BKN002
                      BECMG 0607/0609 9999 NSW=
201906060200 TAF LRIA 060200Z 0603/0612 10005KT CAVOK
                      PROB30 TEMPO 0603/0605 5000 BR=
201906060500 TAF LRIA 060500Z 0606/0615 VRB04KT CAVOK
                      BECMG 0609/0611 SCT040CB
                      TEMPO 0611/0615 VRB20G30KT 3000 TSRA BKN010
                       BKN035CB=
201906060800 TAF LRIA 060800Z 0609/0618 VRB04KT CAVOK
                      BECMG 0609/0611 SCT040CB
                      TEMPO 0611/0616 VRB20G30KT 3000 TSRA BKN010
                       BKN035CB=
201906061100 TAF LRIA 061100Z 0612/0621 13012KT 9999 FEW045CB
                      TEMPO 0612/0616 VRB15G25KT 5000 -TSRA BKN010
                       SCT040CB
                      BECMG 0617/0619 VRB04KT SCT040=
201906061400 TAF LRIA 061400Z 0615/0624 12010KT CAVOK
                      TEMPO 0615/0617 VRB15G25KT 5000 -TSRA SCT040CB
                       BECMG 0617/0619 VRB04KT=
201906061700 TAF LRIA 061700Z 0618/0703 10006KT 9999 SCT035
                      TEMPO 0618/0621 SCT030CB
                      PROB40 TEMPO 0618/0620 5000 -TSRA
                      BECMG 0621/0623 5000 BR
                      TEMPO 0700/0703 1500 BR BKN005=
201906062000 TAF LRIA 062000Z 0621/0706 VRB04KT CAVOK
                      TEMPO 0700/0704 3000 BR=
201906062300 TAF LRIA 062300Z 0700/0709 VRB04KT CAVOK
                      TEMPO 0700/0704 3000 BR=
201906070200 TAF LRIA 070200Z 0703/0712 09008KT CAVOK
                      TEMPO 0703/0705 3000 BR BKN010=
201906070500 TAF LRIA 070500Z 0706/0715 10007KT CAVOK
                      TEMPO 0710/0715 VRB18G28KT 3000 TSRA SCT010
                       BKN030CB
                      PROB30 TEMPO 0711/0714 1500 +TSRA=
201906070800 TAF LRIA 070800Z 0709/0718 10007KT 9999 SCT030
                      TEMPO 0710/0715 VRB18G28KT 3000 TSRA SCT010
                       BKN030CB
                      PROB30 TEMPO 0711/0714 1500 +TSRA=
201906071100 TAF LRIA 071100Z 0712/0721 10007KT 9999 SCT040
                      TEMPO 0712/0715 VRB18G28KT 3000 TSRA SCT010
                       BKN030CB=
201906071400 TAF LRIA 071400Z 0715/0724 10007KT 9999 SCT040
                      PROB40 TEMPO 0715/0717 VRB15G25KT 5000 TSRA
                       SCT010 SCT030CB=
201906071700 TAF LRIA 071700Z 0718/0803 10006KT 9999 SCT035
                      TEMPO 0718/0719 VRB15G25KT 5000 -TSRA SCT010
                       SCT035CB
                      PROB30 TEMPO 0800/0803 5000 BR=
201906072000 TAF LRIA 072000Z 0721/0806 20006KT 9999 SCT040
                      PROB30 TEMPO 0800/0803 5000 BR=
201906072300 TAF LRIA 072300Z 0800/0809 VRB04KT CAVOK
                      PROB30 TEMPO 0800/0804 5000 BR=
201906080200 TAF LRIA 080200Z 0803/0812 VRB04KT CAVOK
                      PROB30 TEMPO 0803/0804 5000 BR=
201906080500 TAF LRIA 080500Z 0806/0815 VRB04KT CAVOK
                      TEMPO 0812/0815 SCT040CB=
201906080800 TAF LRIA 080800Z 0809/0818 VRB04KT CAVOK
                      TEMPO 0812/0816 SCT040CB=
201906081100 TAF LRIA 081100Z 0812/0821 VRB04KT CAVOK
                      TEMPO 0812/0816 SCT040CB=
201906081220 TAF AMD LRIA 081220Z 0812/0821 VRB04KT 9999 SCT030CB
                      TEMPO 0812/0815 5000 -TSRA
                      BECMG 0815/0817 NSC=
201906081400 TAF LRIA 081400Z 0815/0824 VRB04KT CAVOK=
201906081700 TAF LRIA 081700Z 0818/0903 VRB04KT CAVOK
                      TEMPO 0900/0903 3000 BR=
201906082000 TAF LRIA 082000Z 0821/0906 VRB04KT CAVOK
                      TEMPO 0900/0904 3000 BR
                      BECMG 0904/0906 35010KT=
201906082300 TAF LRIA 082300Z 0900/0909 VRB04KT CAVOK
                      TEMPO 0900/0903 3000 BR=
201906090200 TAF LRIA 090200Z 0903/0912 33006KT CAVOK
                      TEMPO 0909/0912 SCT030CB=
201906090500 TAF LRIA 090500Z 0906/0915 VRB04KT CAVOK
                      BECMG 0906/0908 35010KT
                      TEMPO 0912/0915 SCT030CB=
201906090800 TAF LRIA 090800Z 0909/0918 33010KT CAVOK
                      TEMPO 0912/0917 SCT030CB
                      PROB30 TEMPO 0914/0917 5000 -TSRA=
201906091100 TAF LRIA 091100Z 0912/0921 33010KT 9999 SCT035
                      PROB40 TEMPO 0913/0917 5000 -TSRA SCT030CB=
201906091400 TAF LRIA 091400Z 0915/0924 33010KT 9999 SCT035
                      TEMPO 0915/0918 VRB20KT 5000 TSRA SCT030CB
                       BECMG 0918/0920 VRB04KT=
201906091700 TAF LRIA 091700Z 0918/1003 VRB04KT CAVOK=
201906092000 TAF LRIA 092000Z 0921/1006 VRB04KT 9999 TS FEW040CB
                      BECMG 0921/0923 CAVOK=
201906092300 TAF LRIA 092300Z 1000/1009 VRB04KT CAVOK=
201906100200 TAF LRIA 100200Z 1003/1012 VRB04KT CAVOK=
201906100500 TAF LRIA 100500Z 1006/1015 30006KT CAVOK
                      TEMPO 1011/1015 VRB18KT 5000 -TSRA SCT040CB=
201906100800 TAF LRIA 100800Z 1009/1018 34007KT 9999 SCT040
                      TEMPO 1011/1015 VRB18KT 5000 -TSRA SCT040CB=
201906101100 TAF LRIA 101100Z 1012/1021 01008KT 9999 SCT040
                      TEMPO 1012/1015 VRB18KT 5000 -TSRA SCT040CB=
201906101400 TAF LRIA 101400Z 1015/1024 02008KT 9999 SCT040
                      PROB40 TEMPO 1015/1017 VRB18KT 5000 -TSRA
                       SCT040CB=
201906101700 TAF LRIA 101700Z 1018/1103 02008KT 9999 SCT045
                      TEMPO 1018/1021 SCT040CB=
201906102000 TAF LRIA 102000Z 1021/1106 VRB04KT CAVOK=
201906102300 TAF LRIA 102300Z 1100/1109 VRB04KT CAVOK=
201906110200 TAF LRIA 110200Z 1103/1112 VRB04KT 3000 BR SCT010
                      TEMPO 1103/1105 1500 BR BKN005
                      BECMG 1105/1107 CAVOK=
201906110500 TAF LRIA 110500Z 1106/1115 VRB04KT CAVOK=
201906110800 TAF LRIA 110800Z 1109/1118 VRB04KT CAVOK=
201906111100 TAF LRIA 111100Z 1112/1121 05008KT CAVOK=
201906111400 TAF LRIA 111400Z 1115/1124 08008KT 9999 BR SCT050CB
                      TEMPO 1115/1118 VRB15G25KT 5000 -TSRA
                      BECMG 1118/1120 NSC=
201906111700 TAF LRIA 111700Z 1118/1203 03010KT CAVOK
                      BECMG 1119/1121 VRB03KT=
201906112000 TAF LRIA 112000Z 1121/1206 VRB03KT CAVOK=
201906112300 TAF LRIA 112300Z 1200/1209 VRB03KT CAVOK=
201906120200 TAF LRIA 120200Z 1203/1212 VRB04KT CAVOK=
201906120500 TAF LRIA 120500Z 1206/1215 VRB04KT CAVOK=
201906120800 TAF LRIA 120800Z 1209/1218 34006KT CAVOK=
201906121100 TAF LRIA 121100Z 1212/1221 01008KT CAVOK=
201906121400 TAF LRIA 121400Z 1215/1224 02006KT CAVOK=
201906121618 TAF AMD LRIA 121618Z 1216/1224 02006KT 9999 -TSRA FEW040CB
                      BECMG 1216/1218 CAVOK=
201906121700 TAF LRIA 121700Z 1218/1303 02006KT 9999 FEW040CB
                      BECMG 1218/1219 NSC=
201906122000 TAF LRIA 122000Z 1221/1306 VRB04KT CAVOK=
201906122300 TAF LRIA 122300Z 1300/1309 VRB04KT CAVOK=
201906130200 TAF LRIA 130200Z 1303/1312 VRB04KT CAVOK
                      TEMPO 1303/1304 5000 BR=
201906130500 TAF LRIA 130500Z 1306/1315 VRB04KT CAVOK
                      TEMPO 1312/1315 SCT040CB=
201906130800 TAF LRIA 130800Z 1309/1318 34006KT CAVOK
                      TEMPO 1312/1316 SCT040CB
                      PROB30 TEMPO 1313/1316 TSRA=
201906131100 TAF LRIA 131100Z 1312/1321 02010KT CAVOK
                      TEMPO 1312/1316 SCT040CB
                      PROB30 TEMPO 1313/1316 TSRA
                      BECMG 1316/1318 VRB04KT=
201906131400 TAF LRIA 131400Z 1315/1324 02010KT CAVOK
                      TEMPO 1315/1317 5000 TSRA SCT040CB
                      BECMG 1317/1319 VRB04KT=
201906131700 TAF LRIA 131700Z 1318/1403 VRB04KT CAVOK
                      PROB30 TEMPO 1318/1320 5000 SHRA SCT040CB=
201906132000 TAF LRIA 132000Z 1321/1406 VRB04KT CAVOK=
201906132300 TAF LRIA 132300Z 1400/1409 VRB04KT CAVOK=
201906140200 TAF LRIA 140200Z 1403/1412 VRB04KT CAVOK=
201906140500 TAF LRIA 140500Z 1406/1415 VRB04KT CAVOK=
201906140800 TAF LRIA 140800Z 1409/1418 VRB04KT CAVOK=
201906141100 TAF LRIA 141100Z 1412/1421 VRB04KT CAVOK=
201906141400 TAF LRIA 141400Z 1415/1424 VRB04KT CAVOK=
201906141700 TAF LRIA 141700Z 1418/1503 VRB04KT CAVOK
                      TEMPO 1418/1420 SCT040CB=
201906142000 TAF LRIA 142000Z 1421/1506 VRB04KT 9999 SCT045
                      TEMPO 1421/1423 SCT040CB=
201906142300 TAF LRIA 142300Z 1500/1509 VRB04KT CAVOK=
201906150200 TAF LRIA 150200Z 1503/1512 VRB04KT CAVOK=
201906150500 TAF LRIA 150500Z 1506/1515 VRB04KT CAVOK
                      PROB40 TEMPO 1512/1515 5000 -TSRA SCT040CB=
201906150800 TAF LRIA 150800Z 1509/1518 VRB04KT 9999 SCT040
                      BECMG 1510/1512 SCT040CB
                      PROB40 TEMPO 1512/1516 5000 -TSRA=
201906151100 TAF LRIA 151100Z 1512/1521 VRB04KT 9999 SCT045CB
                      PROB40 TEMPO 1512/1517 5000 -TSRA
                      BECMG 1517/1519 NSC=
201906151400 TAF LRIA 151400Z 1515/1524 VRB04KT 9999 FEW050CB
                      PROB30 TEMPO 1515/1517 -TSRA
                      BECMG 1517/1519 NSC=
201906151700 TAF LRIA 151700Z 1518/1603 VRB04KT CAVOK=
201906152000 TAF LRIA 152000Z 1521/1606 VRB04KT CAVOK=
201906152300 TAF LRIA 152300Z 1600/1609 VRB04KT CAVOK=
201906160200 TAF LRIA 160200Z 1603/1612 VRB04KT CAVOK=
201906160500 TAF LRIA 160500Z 1606/1615 VRB04KT CAVOK=
201906160800 TAF LRIA 160800Z 1609/1618 VRB04KT CAVOK=
201906161100 TAF LRIA 161100Z 1612/1621 VRB04KT CAVOK=
201906161347 TAF AMD LRIA 161347Z 1613/1621 VRB04KT 9999 SCT040CB
                      TEMPO 1613/1615 VRB15KT 5000 -TSRA
                      BECMG 1615/1617 NSC=
201906161400 TAF LRIA 161400Z 1615/1624 04006KT 9999 SCT040CB
                      BECMG 1615/1617 CAVOK=
201906161700 TAF LRIA 161700Z 1618/1703 VRB03KT CAVOK=
201906162000 TAF LRIA 162000Z 1621/1706 VRB03KT CAVOK=
201906162300 TAF LRIA 162300Z 1700/1709 VRB03KT CAVOK=
201906170200 TAF LRIA 170200Z 1703/1712 VRB03KT CAVOK
                      TEMPO 1710/1712 FEW045CB=
201906170500 TAF LRIA 170500Z 1706/1715 VRB04KT CAVOK
                      BECMG 1711/1713 SCT045CB
                      TEMPO 1713/1715 VRB20KT 5000 TSRA=
201906170800 TAF LRIA 170800Z 1709/1718 VRB04KT CAVOK
                      BECMG 1711/1713 SCT045CB
                      TEMPO 1713/1717 VRB20KT 5000 TSRA=
201906171100 TAF LRIA 171100Z 1712/1721 32006KT 9999 SCT045
                      TEMPO 1713/1717 VRB20KT 3000 TSRA BKN040CB=
201906171400 TAF LRIA 171400Z 1715/1724 01006KT 9999 SCT045
                      TEMPO 1715/1718 VRB20KT 3000 TSRA BKN040CB=
201906171700 TAF LRIA 171700Z 1718/1803 32010KT 9999 SCT050CB
                      BECMG 1718/1720 VRB04KT CAVOK=
201906171827 TAF AMD LRIA 171827Z 1718/1803 03014KT 1500 +TSRA SCT035 BKN040CB
                       BECMG 1718/1720 5000 -TSRA
                      BECMG 1720/1722 VRB04KT 9999 NSW BKN040=
201906172000 TAF LRIA 172000Z 1721/1806 04006KT 9999 BKN040
                      PROB40 TEMPO 1721/1723 SCT035CB=
201906172300 TAF LRIA 172300Z 1800/1809 32006KT 9999 BKN030
                      PROB40 TEMPO 1800/1804 SCT030CB=
201906180200 TAF LRIA 180200Z 1803/1812 VRB04KT CAVOK=
201906180500 TAF LRIA 180500Z 1806/1815 32008KT 9999 BKN005
                      BECMG 1806/1808 SCT035
                      TEMPO 1812/1815 VRB20KT 3000 TSRA SCT015
                       BKN035CB=
201906180800 TAF LRIA 180800Z 1809/1818 33007KT 9999 SCT035
                      TEMPO 1812/1817 VRB20KT 3000 TSRA SCT015
                       BKN035CB=
201906181100 TAF LRIA 181100Z 1812/1821 33007KT 9999 SCT035
                      TEMPO 1812/1817 VRB20KT 3000 TSRA SCT015
                       BKN035CB=
201906181400 TAF LRIA 181400Z 1815/1824 06007KT 9999 SCT035
                      TEMPO 1815/1819 VRB20G30KT 3000 TSRA SCT015
                       BKN035CB
                      PROB40 1815/1817 VRB25G35KT 0800 +TSRAGR
                       SQ BKN010 BKN030CB BKN045=
201906181700 TAF LRIA 181700Z 1818/1903 32008KT 9999 SCT045
                      TEMPO 1818/1821 5000 -TSRA SCT015 BKN035CB=
201906182000 TAF LRIA 182000Z 1821/1906 29006KT 9999 SCT045
                      TEMPO 1821/1823 5000 -TSRA SCT035CB=
201906182300 TAF LRIA 182300Z 1900/1909 29006KT CAVOK
                      PROB40 TEMPO 1900/1903 5000 -SHRA SCT035CB=
201906190200 TAF LRIA 190200Z 1903/1912 VRB04KT CAVOK
                      TEMPO 1903/1906 5000 -SHRA BKN035CB
                      PROB40 TEMPO 1910/1912 3000 TSRA BKN010 BKN030CB=
201906190500 TAF LRIA 190500Z 1906/1915 VRB04KT CAVOK
                      TEMPO 1911/1915
                      PROB40 TEMPO 1912/1915 3000 TSRA BKN010 BKN030CB=
201906190753 TAF COR LRIA 190753Z 1906/1915 VRB04KT CAVOK
                      TEMPO 1911/1915 SCT040CB
                      PROB40 TEMPO 1912/1915 3000 TSRA BKN010 BKN030CB=
201906190800 TAF LRIA 190800Z 1909/1918 VRB04KT CAVOK
                      TEMPO 1911/1915 SCT040CB
                      PROB40 TEMPO 1912/1916 3000 TSRA BKN010 BKN030CB=
201906191100 TAF LRIA 191100Z 1912/1921 04006KT 9999 SCT035
                      TEMPO 1913/1917 VRB15KT 5000 -TSRA SCT010
                       SCT040CB=
201906191400 TAF LRIA 191400Z 1915/1924 04008KT 9999 SCT040
                      TEMPO 1916/1918 VRB15KT 5000 -TSRA SCT010
                       SCT040CB=
201906191700 TAF LRIA 191700Z 1918/2003 03006KT CAVOK
                      TEMPO 1918/1920 SCT045CB=
201906192000 TAF LRIA 192000Z 1921/2006 VRB03KT CAVOK=
201906192300 TAF LRIA 192300Z 2000/2009 VRB04KT CAVOK=
201906200200 TAF LRIA 200200Z 2003/2012 VRB04KT CAVOK=
201906200500 TAF LRIA 200500Z 2006/2015 VRB04KT CAVOK=
201906200800 TAF LRIA 200800Z 2009/2018 VRB04KT CAVOK=
201906201100 TAF LRIA 201100Z 2012/2021 VRB04KT CAVOK=
201906201400 TAF LRIA 201400Z 2015/2024 VRB04KT CAVOK=
201906201700 TAF LRIA 201700Z 2018/2103 VRB04KT CAVOK=
201906202000 TAF LRIA 202000Z 2021/2106 30006KT CAVOK=
201906202300 TAF LRIA 202300Z 2100/2109 VRB04KT CAVOK=
201906210200 TAF LRIA 210200Z 2103/2112 27005KT CAVOK=
201906210500 TAF LRIA 210500Z 2106/2115 27005KT CAVOK
                      TEMPO 2111/2115 SCT040CB
                      PROB30 2112/2115 5000 -TSRA=
201906210800 TAF LRIA 210800Z 2109/2118 26005KT CAVOK
                      TEMPO 2111/2116 SCT040CB
                      PROB30 2112/2115 5000 -TSRA=
201906211100 TAF LRIA 211100Z 2112/2121 26005KT CAVOK
                      TEMPO 2112/2117 SCT040CB
                      PROB30 2112/2116 5000 -TSRA=
201906211400 TAF LRIA 211400Z 2115/2124 VRB04KT CAVOK
                      TEMPO 2115/2118 5000 TSRA SCT040CB=
201906211700 TAF LRIA 211700Z 2118/2203 VRB04KT CAVOK=
201906212000 TAF LRIA 212000Z 2121/2206 VRB04KT CAVOK=
201906212300 TAF LRIA 212300Z 2200/2209 VRB04KT CAVOK=
201906220200 TAF LRIA 220200Z 2203/2212 VRB04KT CAVOK
                      TEMPO 2209/2212 SCT045CB=
201906220500 TAF LRIA 220500Z 2206/2215 VRB04KT 9999 BKN010
                      BECMG 2206/2208 SCT020
                      TEMPO 2210/2215 SCT045CB
                      PROB30 TEMPO 2212/2215 VRB18KT 5000 -TSRA=
201906220503 TAF AMD LRIA 220503Z 2205/2212 VRB04KT 9999 BKN005
                      BECMG 2205/2206 BKN010
                      BECMG 2206/2207 SCT020
                      TEMPO 2209/2212 SCT045CB=
201906220800 TAF LRIA 220800Z 2209/2218 33007KT CAVOK
                      TEMPO 2211/2216 SCT045CB
                      PROB30 TEMPO 2212/2215 VRB18KT 5000 -TSRA=
201906221100 TAF LRIA 221100Z 2212/2221 33006KT 9999 SCT035
                      TEMPO 2212/2216 SCT035CB
                      PROB40 TEMPO 2212/2215 VRB18KT 5000 -TSRA=
201906221400 TAF LRIA 221400Z 2215/2224 33007KT 9999 SCT035
                      PROB40 TEMPO 2215/2217 VRB18KT 5000 -TSRA
                       SCT035CB=
201906221534 TAF AMD LRIA 221534Z 2215/2224 11030KT 1500 +TSRA SQ SCT010 BKN030CB
                       BECMG 2216/2217 32007KT 5000 -TSRA SCT035CB
                       BECMG 2217/2218 9999 NSW SCT040=
201906221700 TAF LRIA 221700Z 2218/2303 VRB04KT CAVOK
                      TEMPO 2218/2221 5000 SHRA SCT040CB=
201906222000 TAF LRIA 222000Z 2221/2306 VRB04KT CAVOK=
201906222300 TAF LRIA 222300Z 2300/2309 VRB04KT CAVOK
                      TEMPO 2300/2305 3000 BR=
201906230200 TAF LRIA 230200Z 2303/2312 VRB04KT 3000 BR SCT010
                      TEMPO 2303/2305 1500 BR
                      BECMG 2305/2307 CAVOK=
201906230337 TAF AMD LRIA 230337Z 2303/2312 VRB04KT 5000 BR SCT010
                      TEMPO 2303/2305 1500 BR BKN005
                      BECMG 2305/2307 CAVOK=
201906230500 TAF LRIA 230500Z 2306/2315 VRB04KT 9999 BKN010
                      BECMG 2306/2308 CAVOK
                      PROB30 TEMPO 2313/2315 VRB15G25KT 5000 -TSRA
                       SCT035CB=
201906230800 TAF LRIA 230800Z 2309/2318 VRB04KT CAVOK
                      PROB30 TEMPO 2313/2316 VRB15G25KT 5000 -TSRA
                       SCT035CB=
201906231100 TAF LRIA 231100Z 2312/2321 VRB04KT CAVOK
                      PROB30 TEMPO 2313/2316 VRB15G25KT 5000 -TSRA
                       SCT035CB=
201906231400 TAF LRIA 231400Z 2315/2324 VRB04KT CAVOK
                      PROB30 TEMPO 2315/2317 VRB15G25KT 5000 -TSRA
                       SCT035CB=
201906231700 TAF LRIA 231700Z 2318/2403 VRB04KT 9999 SCT045CB
                      TEMPO 2318/2321 VRB18G28KT 3000 TSRA SCT010
                       BKN035
                      BECMG 2321/2323 NSC
                      TEMPO 2401/2403 3000 BR BKN010=
201906231754 TAF COR LRIA 231754Z 2318/2403 VRB04KT 9999 SCT045CB
                      TEMPO 2318/2321 VRB18G28KT 3000 TSRA SCT010
                       BKN035CB
                      BECMG 2321/2323 NSC
                      TEMPO 2401/2403 3000 BR BKN010=
201906232000 TAF LRIA 232000Z 2321/2406 VRB04KT 9999 SCT040
                      TEMPO 2401/2405 3000 BR BKN010=
201906232300 TAF LRIA 232300Z 2400/2409 VRB04KT 9999 SCT040
                      TEMPO 2401/2405 3000 BR BKN010=
201906240200 TAF LRIA 240200Z 2403/2412 34008KT 9999 SCT040
                      TEMPO 2403/2405 5000 BR BKN015
                      TEMPO 2410/2412 SCT040CB=
201906240500 TAF LRIA 240500Z 2406/2415 31008KT CAVOK
                      PROB30 TEMPO 2412/2415 SCT040CB=
201906240800 TAF LRIA 240800Z 2409/2418 31008KT CAVOK
                      PROB30 TEMPO 2412/2415 SCT040CB=
201906241100 TAF LRIA 241100Z 2412/2421 32010KT CAVOK
                      PROB30 TEMPO 2412/2415 SCT040CB=
201906241305 TAF AMD LRIA 241305Z 2413/2421 32010KT CAVOK
                      TEMPO 2413/2416 VRB20G30KT 3000 +TSRA BKN015
                       SCT030CB=
201906241400 TAF LRIA 241400Z 2415/2424 VRB04KT CAVOK
                      TEMPO 2415/2418 5000 -TSRA SCT030CB=
201906241700 TAF LRIA 241700Z 2418/2503 35006KT CAVOK
                      PROB30 TEMPO 2419/2424 SCT040CB=
201906242000 TAF LRIA 242000Z 2421/2506 VRB04KT CAVOK
                      PROB30 TEMPO 2421/2424 SCT040CB
                      BECMG 2504/2506 35010KT=
201906242300 TAF LRIA 242300Z 2500/2509 VRB04KT CAVOK
                      BECMG 2504/2506 35010KT=
201906250200 TAF LRIA 250200Z 2503/2512 VRB04KT CAVOK
                      BECMG 2504/2506 35010KT=
201906250500 TAF LRIA 250500Z 2506/2515 35008KT CAVOK
                      TEMPO 2506/2508 BKN010
                      TEMPO 2509/2514 02020G30KT=
201906250800 TAF LRIA 250800Z 2509/2518 34010KT CAVOK
                      TEMPO 2509/2514 02020G30KT=
201906251100 TAF LRIA 251100Z 2512/2521 36010KT CAVOK
                      TEMPO 2512/2515 01020G30KT SCT030CB=
201906251400 TAF LRIA 251400Z 2515/2524 36014KT CAVOK
                      TEMPO 2515/2517 01015G25KT SCT030CB
                      BECMG 2518/2520 VRB04KT=
201906251700 TAF LRIA 251700Z 2518/2603 01006KT CAVOK=
201906252000 TAF LRIA 252000Z 2521/2606 01008KT CAVOK=
201906252300 TAF LRIA 252300Z 2600/2609 01008KT CAVOK=
201906260200 TAF LRIA 260200Z 2603/2612 VRB04KT CAVOK=
201906260500 TAF LRIA 260500Z 2606/2615 VRB04KT CAVOK=
201906260800 TAF LRIA 260800Z 2609/2618 VRB04KT CAVOK=
201906261100 TAF LRIA 261100Z 2612/2621 02007KT CAVOK=
201906261400 TAF LRIA 261400Z 2615/2624 VRB04KT CAVOK=
201906261700 TAF LRIA 261700Z 2618/2703 VRB04KT CAVOK=
201906262000 TAF LRIA 262000Z 2621/2706 VRB04KT CAVOK=
201906262300 TAF LRIA 262300Z 2700/2709 VRB04KT CAVOK=
201906270200 TAF LRIA 270200Z 2703/2712 VRB04KT CAVOK
                      BECMG 2709/2711 33010KT SCT030CB=
201906270500 TAF LRIA 270500Z 2706/2715 VRB04KT CAVOK
                      BECMG 2709/2711 25012KT SCT045CB
                      TEMPO 2712/2715 33025G40KT 3000 SQ TSRA
                      PROB30 2712/2715 0800 +TSRAGR SCT010 BKN035CB=
201906270800 TAF LRIA 270800Z 2709/2718 25010KT CAVOK
                      BECMG 2709/2711 SCT045CB
                      TEMPO 2711/2715 33025G40KT 3000 SQ TSRA SCT010
                       BKN035CB
                      PROB30 2711/2714 0800 +TSRAGR
                      TEMPO 2715/2718 5000 TSRA=
201906271100 TAF LRIA 271100Z 2712/2721 23010KT 9999 FEW045CB
                      TEMPO 2713/2717 33025G40KT 3000 SQ TSRA SCT010
                       BKN035CB
                      PROB30 2713/2716 1500 +TSRAGR
                      BECMG 2718/2720 29010KT NSC=
201906271400 TAF LRIA 271400Z 2715/2724 VRB04KT 9999 FEW045CB
                      TEMPO 2715/2718 33015G25KT 3000 TSRA SCT010
                       BKN035CB
                      BECMG 2718/2720 29010KT NSC=
201906271700 TAF LRIA 271700Z 2718/2803 27008KT 9999 SCT045
                      BECMG 2720/2722 33012KT=
201906272000 TAF LRIA 272000Z 2721/2806 27008KT CAVOK
                      BECMG 2721/2723 33012KT=
201906272300 TAF LRIA 272300Z 2800/2809 33012KT CAVOK=
201906280200 TAF LRIA 280200Z 2803/2812 33010KT CAVOK=
201906280500 TAF LRIA 280500Z 2806/2815 33012KT CAVOK
                      TEMPO 2809/2815 33015G25KT=
201906280800 TAF LRIA 280800Z 2809/2818 33018KT CAVOK
                      TEMPO 2810/2816 33018G28KT=
201906281100 TAF LRIA 281100Z 2812/2821 33016KT CAVOK
                      TEMPO 2812/2815 33016G28KT=
201906281400 TAF LRIA 281400Z 2815/2824 33016KT CAVOK
                      PROB30 TEMPO 2815/2817 33016G26KT=
201906281700 TAF LRIA 281700Z 2818/2903 32010KT CAVOK=
201906282000 TAF LRIA 282000Z 2821/2906 30006KT CAVOK=
201906282300 TAF LRIA 282300Z 2900/2909 27006KT CAVOK
                      BECMG 2906/2908 33014KT=
201906290200 TAF LRIA 290200Z 2903/2912 27008KT CAVOK
                      BECMG 2906/2908 33014KT=
201906290500 TAF LRIA 290500Z 2906/2915 31014KT CAVOK
                      TEMPO 2912/2915 SCT040CB=
201906290800 TAF LRIA 290800Z 2909/2918 31014KT CAVOK
                      TEMPO 2909/2916 32015G25KT
                      PROB40 TEMPO 2913/2916 SCT040CB=
201906291100 TAF LRIA 291100Z 2912/2921 31012KT CAVOK
                      TEMPO 2912/2916 32015G25KT
                      PROB30 TEMPO 2913/2916 SCT040CB=
201906291400 TAF LRIA 291400Z 2915/2924 31012KT CAVOK
                      TEMPO 2915/2917 32015G25KT=
201906291700 TAF LRIA 291700Z 2918/3003 32010KT CAVOK=
201906292000 TAF LRIA 292000Z 2921/3006 32008KT CAVOK
                      PROB30 TEMPO 2921/2923 5000 -SHRA SCT045CB=
201906292300 TAF LRIA 292300Z 3000/3009 32008KT CAVOK=
201906300200 TAF LRIA 300200Z 3003/3012 30008KT CAVOK=
201906300500 TAF LRIA 300500Z 3006/3015 32007KT CAVOK=
201906300800 TAF LRIA 300800Z 3009/3018 32007KT CAVOK=
201906301100 TAF LRIA 301100Z 3012/3021 33007KT CAVOK=
201906301400 TAF LRIA 301400Z 3015/3024 32008KT CAVOK=
201906301700 TAF LRIA 301700Z 3018/0103 VRB04KT CAVOK=
201906302000 TAF LRIA 302000Z 3021/0106 VRB04KT CAVOK=
201906302300 TAF LRIA 302300Z 0100/0109 VRB04KT CAVOK=
