201906010000 METAR LRIA 010000Z 32009KT 9999 FEW048CB 16/13 Q1017=
201906010030 METAR LRIA 010030Z 31009KT 9999 FEW048CB 16/13 Q1017=
201906010100 METAR LRIA 010100Z 32009KT 9999 FEW044 16/13 Q1017=
201906010130 METAR LRIA 010130Z 32009KT 9999 SCT044 16/13 Q1017=
201906010200 METAR LRIA 010200Z 30008KT 9999 FEW032 16/13 Q1017=
201906010230 METAR LRIA 010230Z 32008KT 9999 SCT030 16/13 Q1017=
201906010300 METAR LRIA 010300Z 31007KT 9999 FEW033 17/13 Q1017=
201906010330 METAR LRIA 010330Z 32007KT 9999 FEW033 17/14 Q1016=
201906010400 METAR LRIA 010400Z 32008KT 9999 FEW033 17/14 Q1016=
201906010430 METAR LRIA 010430Z 33011KT 9999 FEW033 18/14 Q1016=
201906010500 METAR LRIA 010500Z 34011KT 9999 BKN033 18/14 Q1016=
201906010530 METAR LRIA 010530Z 34009KT 9999 BKN030 FEW040CB 18/14 Q1016=
201906010600 METAR LRIA 010600Z 34008KT 9999 SCT025 BKN035 FEW040CB 19/14
                        Q1016=
201906010630 METAR LRIA 010630Z 34007KT 9999 SCT027 BKN035 SCT040CB 19/15
                        Q1016=
201906010700 METAR LRIA 010700Z 25008KT 180V250 9999 TS BKN017 SCT030CB
                        BKN033 18/14 Q1017=
201906010730 METAR LRIA 010730Z 30010KT 9999 VCTS SCT017 BKN023 FEW030CB
                        19/14 Q1017=
201906010800 METAR LRIA 010800Z 31009KT 9999 BKN025 FEW033CB 20/14 Q1017=
201906010830 METAR LRIA 010830Z 31009KT 9999 FEW022 FEW033CB BKN037 19/14
                        Q1017=
201906010900 METAR LRIA 010900Z 31013KT 9999 VCTS SCT033 FEW040CB BKN048
                        19/13 Q1017=
201906010930 METAR LRIA 010930Z 33011KT 9999 BKN036 FEW040CB 19/14 Q1017=
201906011000 METAR LRIA 011000Z 31011KT 9999 BKN037 FEW040CB 19/14 Q1017=
201906011030 METAR LRIA 011030Z 27009KT 9999 VCTS FEW015 SCT033CB BKN039
                        18/14 Q1018=
201906011100 METAR LRIA 011100Z 20007KT 170V230 9999 TS SCT012 BKN030CB
                        OVC037 17/14 Q1018=
201906011130 METAR LRIA 011130Z 28007KT 250V350 9999 -TSRA FEW004 SCT024
                        BKN030CB BKN049 16/14 Q1017 R14/29//95=
201906011200 METAR LRIA 011200Z 28008KT 260V320 9999 VCTS FEW007 SCT026
                        SCT030CB 16/14 Q1017 R14/29//95=
201906011230 METAR LRIA 011230Z 25007KT 220V290 9999 -RA FEW004 SCT026
                        SCT030CB 16/14 Q1017 R14/29//95=
201906011300 METAR LRIA 011300Z 31004KT 9999 -RA VCTS FEW004 SCT030CB
                        SCT036 16/14 Q1017 RETS R14/29//95=
201906011330 METAR LRIA 011330Z 25006KT 9999 FEW004 SCT033CB SCT048 16/14
                        Q1017 RETS R14/29//95=
201906011400 METAR LRIA 011400Z 27008KT 9999 FEW006 FEW040CB 16/14 Q1017
                        R14/29//95=
201906011430 METAR LRIA 011430Z 30007KT 9999 FEW008 17/14 Q1017 R14/29//95=
201906011500 METAR LRIA 011500Z 29010KT 9999 FEW008 17/14 Q1016 R14/29//95=
201906011530 METAR COR LRIA 011530Z 29007KT 9999 FEW048 18/14 Q1016 R14/19//95=
201906011600 METAR LRIA 011600Z 31007KT 270V340 9999 FEW010 17/13 Q1016
                        R14/19//95=
201906011630 METAR LRIA 011630Z 31006KT 9999 FEW048 17/14 Q1016 R14/19//95=
201906011700 METAR LRIA 011700Z 29005KT 9999 FEW048 16/14 Q1017 R14/19//95=
201906011730 METAR LRIA 011730Z 28006KT 9999 FEW045 16/14 Q1017 R14/19//95=
201906011800 METAR LRIA 011800Z 29006KT 9999 FEW045 16/14 Q1017 R14/19//95=
201906011830 METAR LRIA 011830Z 29005KT 9999 SCT046 16/14 Q1017 R14/19//95=
201906011900 METAR LRIA 011900Z 29005KT 9999 SCT043 15/13 Q1017 R14/19//95=
201906011930 METAR COR LRIA 011930Z 29006KT 9999 SCT046 15/13 Q1017 R14/19//95=
201906012000 METAR LRIA 012000Z 30005KT 9999 SCT043 15/13 Q1017 R14/19//95=
201906012030 METAR LRIA 012030Z 29006KT CAVOK 15/13 Q1017 R14/19//95=
201906012100 METAR LRIA 012100Z 30006KT CAVOK 15/12 Q1017 R14/19//95=
201906012130 METAR LRIA 012130Z 28005KT CAVOK 14/12 Q1017 R14/19//95=
201906012200 METAR LRIA 012200Z 26003KT CAVOK 14/12 Q1017 R14/19//95=
201906012230 METAR LRIA 012230Z 27001KT CAVOK 14/12 Q1017 R14/19//95=
201906012300 METAR COR LRIA 012300Z VRB01KT CAVOK 14/12 Q1017 R14/19//95=
201906012330 METAR LRIA 012330Z 25003KT 4500 BR NSC 13/11 Q1017 R14/19//95=
201906020000 METAR LRIA 020000Z 27003KT 5000 BR NSC 13/12 Q1017 R14/19//95=
201906020030 METAR LRIA 020030Z 25003KT 7000 NSC 13/12 Q1017 R14/19//95=
201906020100 METAR LRIA 020100Z 26004KT 5000 BR NSC 13/12 Q1017 R14/19//95=
201906020130 METAR LRIA 020130Z 26004KT 7000 NSC 13/12 Q1017 R14/19//95=
201906020200 METAR LRIA 020200Z 26005KT 8000 NSC 13/12 Q1017 R14/19//95=
201906020230 METAR LRIA 020230Z 27006KT 9000 NCD 13/12 Q1017 R14/CLRD//=
201906020300 METAR LRIA 020300Z 22002KT 190V270 1000 R14/P2000 R32/0900
                        MIFG FEW002 12/11 Q1017=
201906020330 METAR LRIA 020330Z 21002KT 170V230 6000 BKN049 13/11 Q1017=
201906020400 METAR LRIA 020400Z VRB01KT CAVOK 14/12 Q1017=
201906020430 METAR LRIA 020430Z VRB01KT CAVOK 15/13 Q1017=
201906020500 METAR LRIA 020500Z 00000KT CAVOK 17/13 Q1018=
201906020530 METAR LRIA 020530Z 29004KT 250V340 CAVOK 17/13 Q1018=
201906020600 METAR LRIA 020600Z 27003KT 220V310 CAVOK 18/14 Q1018=
201906020630 METAR LRIA 020630Z 30005KT 250V330 CAVOK 19/14 Q1017=
201906020700 METAR LRIA 020700Z 32005KT 280V350 CAVOK 20/15 Q1018=
201906020730 METAR LRIA 020730Z 32004KT 270V030 9999 FEW023 21/15 Q1018=
201906020800 METAR LRIA 020800Z VRB03KT 9999 FEW020 21/15 Q1018=
201906020830 METAR LRIA 020830Z 34005KT 260V040 9999 FEW022 21/14 Q1017=
201906020900 METAR LRIA 020900Z 27005KT 240V310 9999 FEW025 22/15 Q1017=
201906020930 METAR LRIA 020930Z 32005KT 250V020 9999 FEW030 23/15 Q1017=
201906021000 METAR LRIA 021000Z 30007KT 270V340 9999 FEW030 23/15 Q1017=
201906021030 METAR LRIA 021030Z 29007KT 9999 SCT030 24/15 Q1017=
201906021100 METAR LRIA 021100Z 33007KT 290V010 9999 SCT030 24/14 Q1017=
201906021130 METAR LRIA 021130Z 33005KT 280V010 9999 SCT033 24/16 Q1017=
201906021200 METAR LRIA 021200Z 33007KT 300V360 9999 SCT033 24/15 Q1017=
201906021230 METAR LRIA 021230Z 32006KT 290V360 9999 SCT040 25/15 Q1017=
201906021300 METAR LRIA 021300Z 30008KT 260V340 9999 SCT035 25/15 Q1016=
201906021330 METAR LRIA 021330Z 34005KT 310V030 9999 FEW035 25/15 Q1016=
201906021400 METAR LRIA 021400Z 34006KT 310V030 9999 FEW035 FEW040TCU
                        25/15 Q1016=
201906021430 METAR LRIA 021430Z 34006KT 310V010 9999 FEW035 25/16 Q1016=
201906021500 METAR LRIA 021500Z 34006KT 310V010 9999 FEW035TCU 25/16 Q1016=
201906021530 METAR LRIA 021530Z 34005KT 9999 FEW035TCU 25/15 Q1015=
201906021600 METAR LRIA 021600Z 36005KT 320V030 CAVOK 25/16 Q1015=
201906021630 METAR LRIA 021630Z 34004KT 320V020 CAVOK 24/16 Q1015=
201906021700 METAR LRIA 021700Z 31005KT CAVOK 23/16 Q1015=
201906021730 METAR LRIA 021730Z 32005KT CAVOK 22/15 Q1015=
201906021800 METAR LRIA 021800Z 32005KT CAVOK 21/15 Q1016=
201906021830 METAR LRIA 021830Z 32006KT CAVOK 21/15 Q1016=
201906021900 METAR LRIA 021900Z 33006KT CAVOK 20/15 Q1016=
201906021930 METAR LRIA 021930Z 33006KT CAVOK 19/15 Q1016=
201906022000 METAR LRIA 022000Z 33006KT CAVOK 19/14 Q1016=
201906022030 METAR LRIA 022030Z 34009KT CAVOK 19/14 Q1016=
201906022100 METAR LRIA 022100Z 34008KT CAVOK 19/15 Q1016=
201906022130 METAR LRIA 022130Z 34008KT CAVOK 19/15 Q1016=
201906022200 METAR LRIA 022200Z 24004KT CAVOK 17/15 Q1016=
201906022230 METAR LRIA 022230Z 26004KT CAVOK 17/14 Q1016=
201906022300 METAR LRIA 022300Z 27004KT 9999 NCD 17/14 Q1016=
201906022330 METAR LRIA 022330Z 24005KT 210V270 CAVOK 17/14 Q1016=
201906030000 METAR LRIA 030000Z 22005KT 170V250 CAVOK 17/15 Q1016=
201906030030 METAR LRIA 030030Z 21003KT 170V250 CAVOK 16/14 Q1015=
201906030100 METAR LRIA 030100Z 25004KT 9999 FEW050CB 16/14 Q1015=
201906030130 METAR LRIA 030130Z 25004KT 9999 FEW050 17/14 Q1015=
201906030200 METAR LRIA 030200Z 26004KT 230V290 9999 FEW050CB 16/14 Q1015=
201906030230 METAR LRIA 030230Z 27003KT 220V280 9999 SCT040CB 16/14 Q1015=
201906030300 METAR LRIA 030300Z 26005KT 9999 TS SCT033CB 16/14 Q1015=
201906030330 METAR LRIA 030330Z 20005KT 170V240 7000 TSRA FEW010 BKN030CB
                        BKN044 17/14 Q1016 R14/29//95=
201906030400 METAR LRIA 030400Z 29005KT 8000 TSRA FEW010 BKN030CB BKN044
                        16/14 Q1016 R14/29//95=
201906030430 METAR LRIA 030430Z 28004KT 250V310 9999 -TSRA BKN030CB 16/14
                        Q1016 R14/29//95=
201906030500 METAR LRIA 030500Z 31003KT 9000 TSRA SCT039CB 16/14 Q1016
                        R14/29//95=
201906030530 METAR LRIA 030530Z 27002KT 170V310 8000 -RA SCT041CB 16/15
                        Q1016 R14/29//95=
201906030600 METAR LRIA 030600Z 26003KT 210V290 9999 -SHRA FEW013 SCT039CB
                        16/15 Q1016 R14/29//95=
201906030630 METAR LRIA 030630Z 31006KT 9999 -SHRA FEW009 SCT040CB 17/15
                        Q1016 R14/29//95=
201906030700 METAR LRIA 030700Z 34005KT 9999 -RA FEW011 FEW040CB 18/16
                        Q1016 R14/29//95=
201906030730 METAR LRIA 030730Z 04005KT 310V060 9999 FEW005 SCT010 BKN045
                        18/16 Q1016 RERA R14/29//95=
201906030800 METAR LRIA 030800Z 03005KT 9999 -RA FEW008 SCT040 19/16 Q1016
                        R14/29//95=
201906030830 METAR LRIA 030830Z 03004KT 360V060 9999 SCT040 19/16 Q1016
                        R14/29//95=
201906030900 METAR LRIA 030900Z 01005KT 9999 FEW007 BKN040 19/16 Q1016
                        R14/29//95=
201906030930 METAR LRIA 030930Z 01002KT 300V100 9999 FEW010 20/16 Q1016
                        R14/29//95=
201906031000 METAR LRIA 031000Z 35005KT 310V020 9999 FEW007 20/16 Q1016
                        R14/29//95=
201906031030 METAR LRIA 031030Z 01004KT 330V060 9999 FEW009 SCT012 20/16
                        Q1016 R14/29//95=
201906031100 METAR LRIA 031100Z 36007KT 320V030 9999 FEW009 SCT012 20/16
                        Q1016 R14/29//95=
201906031130 METAR COR LRIA 031130Z 01006KT 9999 FEW009 SCT040 20/16 Q1016
                        R14/19//95=
201906031200 METAR LRIA 031200Z 01008KT 9999 FEW009 20/16 Q1016 R14/19//95=
201906031230 METAR COR LRIA 031230Z 01007KT CAVOK 21/16 Q1016 R14/19//95=
201906031300 METAR COR LRIA 031300Z 02007KT CAVOK 21/16 Q1016 R14/19//95=
201906031330 METAR LRIA 031330Z 04006KT 360V060 CAVOK 22/16 Q1015 R14/19//95=
201906031400 METAR LRIA 031400Z 04007KT CAVOK 22/16 Q1015 R14/19//95=
201906031430 METAR LRIA 031430Z 02006KT CAVOK 23/16 Q1015 R14/19//95=
201906031500 METAR COR LRIA 031500Z 02008KT CAVOK 22/16 Q1015 R14/19//95=
201906031530 METAR LRIA 031530Z 02005KT CAVOK 22/16 Q1015 R14/19//95=
201906031600 METAR LRIA 031600Z 36005KT CAVOK 21/17 Q1015 R14/19//95=
201906031630 METAR COR LRIA 031630Z 35005KT 9999 FEW047 21/17 Q1015=
201906031700 METAR LRIA 031700Z 34005KT 9999 FEW045CB 21/17 Q1015=
201906031730 METAR LRIA 031730Z 34007KT 9999 FEW030 FEW045CB 20/17 Q1015=
201906031800 METAR LRIA 031800Z 35010KT 9999 SCT025 FEW030CB 20/16 Q1015=
201906031830 METAR LRIA 031830Z 02012KT 9999 FEW023 FEW030CB 19/15 Q1015=
201906031900 METAR LRIA 031900Z 02008KT 9999 FEW025 FEW033CB 19/15 Q1015=
201906031930 METAR LRIA 031930Z 02006KT 9999 -RA SCT020 SCT035 18/15 Q1016=
201906032000 METAR COR LRIA 032000Z 04008KT 9999 SCT045 19/16 Q1015 R14/29//95=
201906032030 METAR LRIA 032030Z 28003KT 9999 SCT040 18/15 Q1016 R14/29//95=
201906032100 METAR LRIA 032100Z 35004KT 320V040 9999 FEW040 17/15 Q1016
                        R14/29//95=
201906032130 METAR LRIA 032130Z 33002KT 9999 VCTS FEW030CB SCT040 17/15
                        Q1015 R14/29//95=
201906032200 METAR LRIA 032200Z 30005KT 9999 SCT040 17/15 Q1015 R14/29//95=
201906032230 METAR LRIA 032230Z 33003KT 9999 FEW040 16/15 Q1015 R14/29//95=
201906032300 METAR LRIA 032300Z 30004KT 9999 FEW047 16/14 Q1015 R14/19//95=
201906032330 METAR LRIA 032330Z 31004KT CAVOK 16/14 Q1015 R14/19//95=
201906040000 METAR LRIA 040000Z 28003KT CAVOK 16/14 Q1015 R14/19//95=
201906040030 METAR LRIA 040030Z 26004KT 9999 FEW040 16/14 Q1015 R14/19//95=
201906040100 METAR LRIA 040100Z 27003KT CAVOK 16/14 Q1015 R14/19//95=
201906040130 METAR LRIA 040130Z 30003KT 9999 FEW004 16/14 Q1014 R14/19//95=
201906040200 METAR LRIA 040200Z 28002KT 3000 BR FEW002 16/14 Q1015 R14/19//95=
201906040230 METAR LRIA 040230Z 28002KT 4000 1000NW R14/1500U R32/P2000
                        PRFG BR FEW002 16/14 Q1015 R14/19//95=
201906040300 METAR LRIA 040300Z 27003KT 220V310 4000 0600NW R14/1000D
                        R32/P2000 PRFG BR SCT002 16/14 Q1015
                        R14/19//95=
201906040330 METAR LRIA 040330Z 22002KT 6000 1200NW R14/1700U R32/P2000
                        PRFG SCT002 16/15 Q1015 R14/CLRD//=
201906040400 METAR LRIA 040400Z 26004KT 230V300 6000 1500NW PRFG SCT002
                        16/15 Q1015=
201906040430 METAR LRIA 040430Z 27003KT 230V300 6000 1800NW PRFG OVC001
                        16/15 Q1015=
201906040500 METAR LRIA 040500Z 32004KT 280V360 6000 OVC003 17/15 Q1015=
201906040530 METAR LRIA 040530Z 29003KT 250V330 7000 TS SCT002 SCT013
                        SCT030CB 17/16 Q1015 RESHRA R14/29//95=
201906040600 METAR LRIA 040600Z 25004KT 210V280 9999 VCTS FEW002 BKN004
                        FEW030CB 17/16 Q1015 RETS R14/29//95=
201906040630 METAR LRIA 040630Z 22005KT 9999 VCTS BKN004 FEW030CB 18/16
                        Q1015 R14/29//95=
201906040700 METAR LRIA 040700Z 24004KT 200V280 9999 FEW002 BKN004 FEW033CB
                        17/16 Q1016 R14/29//95=
201906040730 METAR LRIA 040730Z 32005KT 9999 FEW005 SCT010 FEW033CB 19/17
                        Q1015 R14/29//95=
201906040800 METAR LRIA 040800Z 32004KT 9999 FEW010 20/17 Q1015 R14/29//95=
201906040830 METAR COR LRIA 040830Z 34002KT 9999 FEW048 21/17 Q1015 R14/CLRD//=
201906040900 METAR LRIA 040900Z 22003KT 180V250 9999 FEW012 22/17 Q1015=
201906040930 METAR LRIA 040930Z 26004KT 9999 FEW010 SCT042 21/17 Q1015=
201906041000 METAR LRIA 041000Z 27006KT 9999 FEW013 22/18 Q1015=
201906041030 METAR LRIA 041030Z 26007KT 9999 -SHRA FEW013 SCT022 FEW040CB
                        22/18 Q1014=
201906041100 METAR LRIA 041100Z 31008KT 9999 FEW013 SCT048 23/18 Q1014=
201906041130 METAR LRIA 041130Z 28005KT 250V330 9999 FEW014 SCT022 FEW040CB
                        22/18 Q1014=
201906041200 METAR LRIA 041200Z 27004KT 240V300 9999 FEW022 SCT035 FEW040CB
                        22/18 Q1014=
201906041230 METAR LRIA 041230Z 23003KT 190V260 9999 VCTS FEW027 SCT040CB
                        22/18 Q1013=
201906041300 METAR LRIA 041300Z 26005KT 220V280 9999 -TSRA FEW024 BKN033CB
                        21/18 Q1013=
201906041330 METAR LRIA 041330Z 26005KT 9999 FEW024 BKN033CB 21/18 Q1013
                        RETS=
201906041400 METAR LRIA 041400Z 21004KT 160V230 9999 TS FEW024 BKN033CB
                        21/18 Q1013=
201906041430 METAR COR LRIA 041430Z 22008KT 190V260 9999 -TSRA FEW010
                        SCT024 BKN030CB 19/16 Q1013 RESHRA
                        R14/29//95=
201906041500 METAR LRIA 041500Z 32008KT 9999 -TSRA FEW024 BKN030CB 19/16
                        Q1013 R14/29//95=
201906041530 METAR LRIA 041530Z 31009KT 9999 FEW012 SCT033CB 19/16 Q1012
                        RETS R14/29//95=
201906041600 METAR LRIA 041600Z 32008KT 9999 FEW007 FEW040CB 18/16 Q1013
                        R14/29//95=
201906041630 METAR LRIA 041630Z 08004KT 9999 FEW007 19/16 Q1013 R14/29//95=
201906041700 METAR LRIA 041700Z 06004KT 9999 FEW007 18/15 Q1013 R14/29//95=
201906041730 METAR LRIA 041730Z 15003KT CAVOK 18/15 Q1013 R14/29//95=
201906041800 METAR LRIA 041800Z 10004KT CAVOK 17/15 Q1013 R14/29//95=
201906041830 METAR LRIA 041830Z 09006KT CAVOK 17/15 Q1014 R14/29//95=
201906041900 METAR LRIA 041900Z 15002KT CAVOK 16/14 Q1014 R14/29//95=
201906041930 METAR LRIA 041930Z VRB01KT CAVOK 16/14 Q1014 R14/29//95=
201906042000 METAR LRIA 042000Z 34002KT 6000 NSC 15/14 Q1014 R14/29//95=
201906042030 METAR COR LRIA 042030Z 26002KT 1000 R14/P2000 R32/1500 BR
                        NSC 16/14 Q1014 R14/29//95=
201906042100 METAR LRIA 042100Z 33002KT 300V020 2000 R14/1000 R32/1400
                        MIFG NSC 15/13 Q1014 R14/29//95=
201906042130 METAR LRIA 042130Z 29002KT 260V340 0150 R14/0200N R32/0450N
                        FG NSC 14/13 Q1014 R14/29//95=
201906042200 METAR LRIA 042200Z 27002KT 240V330 0450 R14/0325 R32/0750
                        FG NSC 14/12 Q1014 R14/29//95=
201906042230 METAR LRIA 042230Z 32001KT 0200 R14/0225N R32/0375N FG NSC
                        14/12 Q1014 R14/29//95=
201906042300 METAR LRIA 042300Z 20002KT 120V250 0100 R14/0250N R32/0300N
                        FG VV003 14/13 Q1014 R14/29//95=
201906042330 METAR LRIA 042330Z 25002KT 210V290 0250 R14/0275N R32/0300N
                        FG VV002 14/13 Q1014 R14/29//95=
201906050000 METAR LRIA 050000Z 11003KT 0200 R14/0225N R32/0300N FG VV003
                        14/13 Q1014 R14/29//95=
201906050030 METAR LRIA 050030Z VRB01KT 0250 R14/0300N R32/0500N FG VV002
                        15/13 Q1014 R14/29//95=
201906050100 METAR LRIA 050100Z AUTO 22002KT 170V260 0300 R14/0350N R32/0700N
                        FG NCD 15/13 Q1014=
201906050130 METAR LRIA 050130Z 21002KT 170V240 0400 R14/0450N R32/0750
                        FG VV003 15/13 Q1014 R14/29//95=
201906050200 METAR COR LRIA 050200Z VRB01KT 0250 R14/0300N R32/0350N FG
                        VV003 15/13 Q1014 R14/29//95=
201906050230 METAR LRIA 050230Z 01002KT 0300 R14/0375N R32/0325N FG VV003
                        14/13 Q1014 R14/19//95=
201906050300 METAR LRIA 050300Z 26002KT 200V320 0200 R14/0250N R32/0650U
                        FG VV003 14/13 Q1014 R14/19//95=
201906050330 METAR COR LRIA 050330Z VRB01KT 0200 R14/0225N R32/0275N FG
                        VV003 15/13 Q1014 R14/19//95=
201906050400 METAR LRIA 050400Z 31002KT 270V340 0250 R14/0300N R32/0350N
                        FG VV003 15/13 Q1015 R14/19//95=
201906050430 METAR LRIA 050430Z 29003KT 260V320 0600 R14/0650 R32/0400N
                        FG VV003 15/13 Q1015 R14/19//95=
201906050500 METAR LRIA 050500Z 00000KT 0500 R14/1000D R32/0650N FG VV002
                        15/13 Q1015 R14/19//95=
201906050530 METAR LRIA 050530Z 22003KT 150V270 0800 R14/1500N R32/P2000
                        FG BKN001 16/14 Q1015 R14/19//95=
201906050600 METAR LRIA 050600Z VRB02KT 3000 BR BKN002 16/15 Q1015 R14/19//95=
201906050630 METAR LRIA 050630Z 26004KT 200V300 8000 FEW002 SCT004 17/15
                        Q1015 R14/19//95=
201906050700 METAR LRIA 050700Z VRB02KT 9999 FEW002 19/16 Q1015 R14/19//95=
201906050730 METAR LRIA 050730Z 24003KT 180V300 9999 FEW007 19/16 Q1015
                        R14/19//95=
201906050800 METAR LRIA 050800Z VRB02KT 9999 FEW009 21/15 Q1015 R14/CLRD//=
201906050830 METAR LRIA 050830Z 12004KT 090V160 9999 FEW020 22/15 Q1015=
201906050900 METAR LRIA 050900Z 13004KT 060V180 9999 SCT022 23/15 Q1015=
201906050930 METAR LRIA 050930Z VRB03KT 9999 FEW027 23/17 Q1015=
201906051000 METAR LRIA 051000Z 27003KT 230V290 9999 FEW033 23/16 Q1015=
201906051030 METAR LRIA 051030Z VRB06KT 9999 FEW040 24/15 Q1015=
201906051100 METAR LRIA 051100Z 11008KT 9999 SCT040 25/14 Q1015=
201906051130 METAR LRIA 051130Z 15008KT 9999 FEW045 25/14 Q1014=
201906051200 METAR LRIA 051200Z 13008KT 100V170 9999 FEW047 25/13 Q1014=
201906051230 METAR LRIA 051230Z 14007KT 9999 FEW048 25/14 Q1014=
201906051300 METAR LRIA 051300Z 14008KT 9999 FEW047CB 25/13 Q1014=
201906051330 METAR LRIA 051330Z 15007KT 090V180 9999 FEW047CB 26/14 Q1014=
201906051400 METAR LRIA 051400Z 11006KT 070V160 9999 FEW048 26/14 Q1014=
201906051430 METAR LRIA 051430Z 13006KT 100V160 9999 FEW050TCU 25/13 Q1013=
201906051500 METAR LRIA 051500Z 18003KT 160V220 9999 FEW050TCU 25/14 Q1013=
201906051530 METAR LRIA 051530Z 20003KT 9999 FEW050CB 24/15 Q1013=
201906051600 METAR LRIA 051600Z 21005KT 160V240 CAVOK 24/15 Q1014=
201906051630 METAR LRIA 051630Z 21003KT 180V240 9999 FEW050TCU 24/14 Q1013=
201906051700 METAR COR LRIA 051700Z 27002KT 9999 FEW050TCU 24/16 Q1013=
201906051730 METAR LRIA 051730Z 26002KT 9999 FEW050CB 23/15 Q1013=
201906051800 METAR LRIA 051800Z 36002KT 9999 FEW042 FEW050CB 23/16 Q1014=
201906051830 METAR LRIA 051830Z 10007KT 9999 FEW047TCU 21/16 Q1014=
201906051900 METAR LRIA 051900Z 10006KT 9999 SCT040 FEW050CB 21/15 Q1015=
201906051930 METAR LRIA 051930Z 10010KT 9999 FEW045 FEW050CB 21/14 Q1015=
201906052000 METAR LRIA 052000Z 10005KT 9999 FEW050CB 20/14 Q1014=
201906052030 METAR LRIA 052030Z 08004KT 9999 FEW050CB 19/14 Q1014=
201906052100 METAR LRIA 052100Z 05003KT 020V080 9999 FEW050CB 19/14 Q1014=
201906052130 METAR LRIA 052130Z 25004KT 170V300 9999 FEW030 FEW050CB 18/14
                        Q1015=
201906052200 METAR LRIA 052200Z 10003KT 040V150 9999 FEW030 FEW050CB 19/14
                        Q1015=
201906052230 METAR LRIA 052230Z VRB02KT 9999 FEW030 18/14 Q1015=
201906052300 METAR LRIA 052300Z 05005KT 9999 BKN023 19/15 Q1015=
201906052330 METAR LRIA 052330Z 06007KT 9999 BKN023 19/14 Q1015=
201906060000 METAR LRIA 060000Z AUTO 07007KT 9999 FEW022/// 18/14 Q1015=
201906060030 METAR LRIA 060030Z 07008KT 9999 FEW023 18/14 Q1014=
201906060100 METAR LRIA 060100Z 10006KT CAVOK 17/14 Q1014=
201906060130 METAR LRIA 060130Z 07005KT CAVOK 16/14 Q1014=
201906060200 METAR LRIA 060200Z 07006KT CAVOK 17/14 Q1014=
201906060230 METAR LRIA 060230Z 08006KT CAVOK 17/14 Q1015=
201906060300 METAR LRIA 060300Z 10006KT CAVOK 17/14 Q1015=
201906060330 METAR LRIA 060330Z 08006KT 9999 FEW011 17/14 Q1015=
201906060400 METAR LRIA 060400Z 09006KT CAVOK 17/15 Q1015=
201906060430 METAR LRIA 060430Z 10006KT CAVOK 18/15 Q1015=
201906060500 METAR LRIA 060500Z 09006KT CAVOK 19/15 Q1015=
201906060530 METAR LRIA 060530Z 12006KT CAVOK 19/15 Q1016=
201906060600 METAR LRIA 060600Z 12004KT 080V150 9999 FEW009 20/16 Q1016=
201906060630 METAR LRIA 060630Z AUTO 14003KT 090V180 9999 FEW011/// 22/16
                        Q1016=
201906060700 METAR LRIA 060700Z VRB03KT 9999 FEW014 22/17 Q1016=
201906060730 METAR LRIA 060730Z 08003KT 030V130 9999 SCT014 23/17 Q1015=
201906060800 METAR LRIA 060800Z 12004KT 060V180 9999 FEW016 23/18 Q1016=
201906060830 METAR LRIA 060830Z 08007KT 050V110 9999 FEW014 23/18 Q1016=
201906060900 METAR LRIA 060900Z 09007KT 9999 FEW015 SCT048 23/18 Q1016=
201906060930 METAR LRIA 060930Z 10007KT 080V140 9999 SCT015 24/18 Q1015=
201906061000 METAR LRIA 061000Z 10010KT 9999 FEW016 SCT045 24/19 Q1015=
201906061030 METAR LRIA 061030Z 11012KT 9999 FEW017 SCT045 25/18 Q1015=
201906061100 METAR LRIA 061100Z 10011KT 9999 SCT045 25/18 Q1015=
201906061130 METAR LRIA 061130Z 12011KT 9999 SCT045 25/17 Q1015=
201906061200 METAR LRIA 061200Z 11013KT CAVOK 25/17 Q1015=
201906061230 METAR LRIA 061230Z 11015KT CAVOK 25/17 Q1015=
201906061300 METAR LRIA 061300Z 12014KT 9999 FEW023 25/18 Q1015=
201906061330 METAR LRIA 061330Z 11012KT 9999 FEW023 24/17 Q1015=
201906061400 METAR LRIA 061400Z 12011KT CAVOK 25/18 Q1015=
201906061430 METAR COR LRIA 061430Z 12014KT CAVOK 25/16 Q1015=
201906061500 METAR LRIA 061500Z 13012KT CAVOK 24/16 Q1015=
201906061530 METAR LRIA 061530Z 11012KT 9999 FEW050CB 24/15 Q1014=
201906061600 METAR LRIA 061600Z 12011KT 9999 FEW050CB 23/16 Q1014=
201906061630 METAR LRIA 061630Z 10008KT 9999 FEW030CB 22/16 Q1015=
201906061700 METAR LRIA 061700Z 10005KT 9999 FEW030CB 22/17 Q1015=
201906061730 METAR LRIA 061730Z 25004KT 180V270 9999 -SHRA FEW040CB 22/17
                        Q1015=
201906061800 METAR LRIA 061800Z VRB02KT 9999 FEW030 FEW045CB 22/16 Q1015
                        R14/19//95=
201906061830 METAR LRIA 061830Z 13003KT 9999 FEW030 21/17 Q1016 R14/19//95=
201906061900 METAR LRIA 061900Z 13004KT 9999 FEW045 20/16 Q1016 R14/CLRD//=
201906061930 METAR LRIA 061930Z 14002KT CAVOK 21/16 Q1016=
201906062000 METAR LRIA 062000Z 05002KT CAVOK 19/16 Q1016=
201906062030 METAR LRIA 062030Z 08002KT CAVOK 20/16 Q1016=
201906062100 METAR LRIA 062100Z 08004KT CAVOK 20/16 Q1016=
201906062130 METAR LRIA 062130Z 11003KT CAVOK 20/16 Q1016=
201906062200 METAR LRIA 062200Z 08003KT CAVOK 20/16 Q1016=
201906062230 METAR LRIA 062230Z 06004KT 050V130 CAVOK 19/16 Q1016=
201906062300 METAR LRIA 062300Z 06004KT CAVOK 19/16 Q1015=
201906062330 METAR LRIA 062330Z 10005KT CAVOK 19/16 Q1015=
201906070000 METAR LRIA 070000Z 07004KT CAVOK 18/16 Q1015=
201906070030 METAR LRIA 070030Z 07005KT CAVOK 19/16 Q1015=
201906070100 METAR LRIA 070100Z 09005KT CAVOK 19/16 Q1016=
201906070130 METAR LRIA 070130Z 10006KT CAVOK 18/16 Q1015=
201906070200 METAR LRIA 070200Z 09006KT CAVOK 18/16 Q1016=
201906070230 METAR LRIA 070230Z 09003KT CAVOK 18/16 Q1016=
201906070300 METAR LRIA 070300Z 09003KT CAVOK 18/16 Q1016=
201906070330 METAR LRIA 070330Z 10002KT CAVOK 19/16 Q1016=
201906070400 METAR LRIA 070400Z 10003KT CAVOK 19/17 Q1016=
201906070430 METAR LRIA 070430Z 09004KT 9999 SCT004 20/17 Q1016=
201906070500 METAR LRIA 070500Z 09004KT CAVOK 21/17 Q1017=
201906070530 METAR LRIA 070530Z 11005KT CAVOK 21/17 Q1017=
201906070600 METAR LRIA 070600Z 14003KT 110V180 9999 FEW012 22/18 Q1017=
201906070630 METAR LRIA 070630Z 13004KT 100V190 9999 FEW012 23/18 Q1017=
201906070700 METAR LRIA 070700Z 13004KT 070V200 9999 FEW011 23/18 Q1017=
201906070730 METAR LRIA 070730Z 11004KT 060V150 9999 FEW015 24/17 Q1017=
201906070800 METAR LRIA 070800Z 13005KT 070V170 9999 FEW021 25/18 Q1017=
201906070830 METAR LRIA 070830Z 09005KT 020V120 9999 FEW020 FEW040TCU
                        25/18 Q1017=
201906070900 METAR LRIA 070900Z 09006KT 070V130 9999 SCT022 FEW040TCU
                        25/18 Q1017=
201906070930 METAR LRIA 070930Z 08007KT 050V110 9999 TS BKN033 FEW040CB
                        25/17 Q1017=
201906071000 METAR LRIA 071000Z 09007KT 9999 BKN033 FEW040TCU 26/17 Q1017=
201906071030 METAR LRIA 071030Z 06005KT 020V120 9999 SCT033 FEW040TCU
                        26/17 Q1016=
201906071100 METAR LRIA 071100Z 27005KT 200V320 9999 FEW040CB SCT045 27/16
                        Q1016=
201906071130 METAR LRIA 071130Z 18002KT 9999 FEW040CB SCT047 28/14 Q1017=
201906071200 METAR LRIA 071200Z 31002KT 9999 SCT047 27/14 Q1016=
201906071230 METAR LRIA 071230Z 34004KT 300V020 9999 FEW040TCU SCT047
                        27/16 Q1016=
201906071300 METAR LRIA 071300Z 06005KT 030V090 9999 SCT048 27/17 Q1016=
201906071330 METAR LRIA 071330Z 05006KT 9999 FEW040TCU 27/17 Q1016=
201906071400 METAR LRIA 071400Z 05006KT 9999 FEW040TCU 27/17 Q1016=
201906071430 METAR LRIA 071430Z 07010KT 9999 FEW046 25/18 Q1016=
201906071500 METAR LRIA 071500Z 07009KT 9999 FEW044CB 25/17 Q1016=
201906071530 METAR LRIA 071530Z 10009KT 9999 VCTS FEW044CB 25/18 Q1017=
201906071600 METAR LRIA 071600Z 13013KT 9999 VCTS FEW023 FEW035CB 22/13
                        Q1017=
201906071630 METAR LRIA 071630Z 12010KT 9999 FEW035CB 22/15 Q1017=
201906071700 METAR LRIA 071700Z 10005KT 9999 FEW035CB 22/15 Q1017=
201906071730 METAR LRIA 071730Z 09003KT 9999 FEW035CB 22/15 Q1017=
201906071800 METAR LRIA 071800Z 10006KT 9999 FEW035CB 21/15 Q1017=
201906071830 METAR LRIA 071830Z 08005KT 9999 FEW035CB 21/15 Q1017=
201906071900 METAR LRIA 071900Z 17003KT 9999 FEW035CB 20/15 Q1018=
201906071930 METAR LRIA 071930Z 21002KT 170V240 9999 FEW040CB 20/15 Q1018=
201906072000 METAR COR LRIA 072000Z 22005KT 180V250 9999 FEW040CB 20/15
                        Q1018=
201906072030 METAR LRIA 072030Z 22004KT 160V250 9999 FEW040CB 20/15 Q1018=
201906072100 METAR LRIA 072100Z 24004KT 210V280 CAVOK 20/15 Q1018=
201906072130 METAR COR LRIA 072130Z 33002KT 290V010 CAVOK 19/15 Q1018=
201906072200 METAR LRIA 072200Z 00000KT CAVOK 19/15 Q1018=
201906072230 METAR LRIA 072230Z 00000KT CAVOK 18/15 Q1018=
201906072300 METAR LRIA 072300Z 00000KT CAVOK 18/14 Q1018=
201906072330 METAR LRIA 072330Z 11004KT CAVOK 18/14 Q1018=
201906080000 METAR LRIA 080000Z 07006KT CAVOK 18/15 Q1018=
201906080030 METAR COR LRIA 080030Z 06002KT CAVOK 17/14 Q1017=
201906080100 METAR LRIA 080100Z VRB01KT CAVOK 17/15 Q1017=
201906080130 METAR LRIA 080130Z 08002KT 040V180 CAVOK 17/14 Q1017=
201906080200 METAR COR LRIA 080200Z 22001KT CAVOK 17/15 Q1017=
201906080230 METAR LRIA 080230Z 00000KT CAVOK 17/15 Q1017=
201906080300 METAR LRIA 080300Z 00000KT CAVOK 17/15 Q1018=
201906080330 METAR LRIA 080330Z 25002KT CAVOK 18/15 Q1017=
201906080400 METAR LRIA 080400Z 00000KT CAVOK 20/16 Q1017=
201906080430 METAR LRIA 080430Z 28003KT 240V300 CAVOK 20/16 Q1018=
201906080500 METAR LRIA 080500Z 27003KT 250V310 CAVOK 20/15 Q1018=
201906080530 METAR LRIA 080530Z VRB01KT CAVOK 22/16 Q1018=
201906080600 METAR LRIA 080600Z 29002KT CAVOK 22/15 Q1018=
201906080630 METAR LRIA 080630Z 31002KT CAVOK 23/16 Q1018=
201906080700 METAR LRIA 080700Z VRB01KT CAVOK 25/16 Q1018=
201906080730 METAR LRIA 080730Z 28003KT CAVOK 25/15 Q1018=
201906080800 METAR LRIA 080800Z 33002KT 9999 FEW027 25/16 Q1018=
201906080830 METAR LRIA 080830Z VRB02KT 9999 FEW030TCU 25/17 Q1019=
201906080900 METAR LRIA 080900Z 30003KT 250V350 9999 FEW030TCU 25/17 Q1018=
201906080930 METAR LRIA 080930Z 29006KT 270V340 9999 FEW030CB 25/17 Q1018=
201906081000 METAR LRIA 081000Z 30005KT 210V360 9999 FEW030CB 26/17 Q1018=
201906081030 METAR LRIA 081030Z 27006KT 240V330 9999 FEW030 FEW033TCU
                        26/18 Q1018=
201906081100 METAR LRIA 081100Z VRB04KT 9999 FEW033TCU 26/17 Q1018=
201906081130 METAR LRIA 081130Z 34004KT 250V020 9999 FEW033 FEW040CB 27/18
                        Q1018=
201906081200 METAR LRIA 081200Z 05010KT 9999 FEW030 FEW033CB 25/17 Q1018=
201906081230 METAR LRIA 081230Z 04010KT 9999 TS VCSH FEW030CB 24/16 Q1018=
201906081300 METAR LRIA 081300Z 06006KT 9999 FEW030CB 24/16 Q1018 RETS=
201906081330 METAR LRIA 081330Z 19008KT 140V220 9999 FEW030CB 24/17 Q1018=
201906081400 METAR LRIA 081400Z 22002KT CAVOK 24/16 Q1018=
201906081430 METAR LRIA 081430Z 30003KT 260V330 CAVOK 25/16 Q1018=
201906081500 METAR LRIA 081500Z 00000KT CAVOK 25/16 Q1018=
201906081530 METAR LRIA 081530Z 30002KT CAVOK 25/16 Q1018=
201906081600 METAR LRIA 081600Z 27003KT CAVOK 26/17 Q1018=
201906081630 METAR LRIA 081630Z 07004KT 040V100 CAVOK 25/16 Q1018=
201906081700 METAR LRIA 081700Z 34004KT 310V020 CAVOK 24/17 Q1018=
201906081730 METAR LRIA 081730Z 35004KT CAVOK 23/17 Q1018=
201906081800 METAR LRIA 081800Z 36003KT CAVOK 22/17 Q1019=
201906081830 METAR COR LRIA 081830Z 34005KT 9999 FEW033CB 20/16 Q1019=
201906081900 METAR LRIA 081900Z 08012KT 9999 FEW033 FEW040CB 22/14 Q1020=
201906081930 METAR LRIA 081930Z 08007KT 9999 FEW036 20/14 Q1020=
201906082000 METAR LRIA 082000Z 07005KT CAVOK 20/14 Q1019=
201906082030 METAR LRIA 082030Z 28002KT 9999 -RA FEW040CB 19/14 Q1018=
201906082100 METAR LRIA 082100Z 28004KT CAVOK 19/14 Q1018=
201906082130 METAR LRIA 082130Z 28004KT CAVOK 18/14 Q1018=
201906082200 METAR LRIA 082200Z 29005KT CAVOK 18/14 Q1019=
201906082230 METAR LRIA 082230Z 02004KT 350V050 CAVOK 19/15 Q1020=
201906082300 METAR LRIA 082300Z AUTO 00000KT 9999 NCD 17/14 Q1020=
201906082330 METAR LRIA 082330Z 04002KT CAVOK 17/14 Q1020=
201906090000 METAR LRIA 090000Z 06006KT CAVOK 17/14 Q1020=
201906090030 METAR LRIA 090030Z 03004KT 330V080 CAVOK 17/14 Q1020=
201906090100 METAR LRIA 090100Z 01004KT CAVOK 17/14 Q1020=
201906090130 METAR LRIA 090130Z 33006KT 300V010 CAVOK 15/13 Q1020=
201906090200 METAR LRIA 090200Z 30004KT CAVOK 15/13 Q1020=
201906090230 METAR LRIA 090230Z 31005KT CAVOK 15/13 Q1021=
201906090300 METAR LRIA 090300Z 31006KT CAVOK 15/14 Q1021=
201906090330 METAR LRIA 090330Z 29004KT CAVOK 15/14 Q1021=
201906090400 METAR LRIA 090400Z 28005KT 250V310 CAVOK 16/14 Q1021=
201906090430 METAR LRIA 090430Z 31002KT CAVOK 18/15 Q1021=
201906090500 METAR LRIA 090500Z 28004KT 240V310 CAVOK 19/15 Q1022=
201906090530 METAR LRIA 090530Z 30005KT 250V320 CAVOK 20/15 Q1022=
201906090600 METAR LRIA 090600Z 32004KT 280V350 CAVOK 21/16 Q1022=
201906090630 METAR LRIA 090630Z 33005KT 290V350 CAVOK 21/16 Q1022=
201906090700 METAR LRIA 090700Z 32004KT 290V010 CAVOK 22/16 Q1022=
201906090730 METAR LRIA 090730Z 30006KT 260V340 CAVOK 23/17 Q1022=
201906090800 METAR LRIA 090800Z 33008KT CAVOK 23/16 Q1022=
201906090830 METAR LRIA 090830Z 32007KT CAVOK 24/16 Q1022=
201906090900 METAR LRIA 090900Z 32007KT 300V360 CAVOK 25/17 Q1022=
201906090930 METAR LRIA 090930Z 32008KT 290V350 CAVOK 25/18 Q1022=
201906091000 METAR LRIA 091000Z 35010KT 9999 FEW028 26/18 Q1022=
201906091030 METAR LRIA 091030Z 34009KT 300V020 9999 FEW030 26/18 Q1022=
201906091100 METAR LRIA 091100Z 34008KT 300V030 9999 FEW032 27/18 Q1022=
201906091130 METAR LRIA 091130Z 33008KT 9999 FEW035 FEW037CB 27/18 Q1021=
201906091200 METAR LRIA 091200Z 36008KT 330V030 9999 FEW036 FEW037CB 28/17
                        Q1021=
201906091230 METAR LRIA 091230Z 33008KT 9999 FEW036 FEW037CB 28/16 Q1020=
201906091300 METAR LRIA 091300Z 33008KT 300V360 9999 FEW040 FEW042CB 28/17
                        Q1020=
201906091330 METAR LRIA 091330Z 34011KT 300V360 9999 FEW040 FEW042CB 28/18
                        Q1019=
201906091400 METAR LRIA 091400Z 35012KT 9999 FEW040 FEW042CB 28/17 Q1019=
201906091430 METAR LRIA 091430Z 35011KT 9999 TS VCSH FEW042 FEW045CB 27/17
                        Q1020=
201906091500 METAR LRIA 091500Z 36010KT 9999 TS VCSH FEW045 SCT047CB 27/16
                        Q1020=
201906091530 METAR LRIA 091530Z 35008KT 320V020 9999 TS VCSH FEW045 SCT047CB
                        28/17 Q1020=
201906091600 METAR COR LRIA 091600Z 08012KT 9999 3000SE -TSRA SCT044 SCT045CB
                        22/14 Q1020=
201906091630 METAR LRIA 091630Z 14003KT 9999 TS FEW030 FEW045CB 20/14
                        Q1020=
201906091700 METAR LRIA 091700Z 27004KT 240V310 9999 FEW033 FEW045CB 19/14
                        Q1020 RETS=
201906091730 METAR LRIA 091730Z 29003KT 9999 FEW045CB 20/14 Q1020=
201906091800 METAR LRIA 091800Z 28005KT 9999 FEW045TCU 20/15 Q1020=
201906091830 METAR LRIA 091830Z 29006KT 9999 FEW045TCU 19/15 Q1020=
201906091900 METAR LRIA 091900Z 23004KT 200V280 9999 FEW045TCU 19/15 Q1021=
201906091930 METAR LRIA 091930Z 20002KT 9999 VCTS FEW045CB 18/15 Q1021=
201906092000 METAR LRIA 092000Z 24003KT 9999 TS FEW040CB 18/15 Q1020=
201906092030 METAR LRIA 092030Z 27005KT 9999 VCTS FEW040CB 18/15 Q1020
                        RETS=
201906092100 METAR LRIA 092100Z 26004KT 9999 VCTS FEW040CB 18/15 Q1021=
201906092130 METAR LRIA 092130Z 22004KT 9999 FEW040CB 18/15 Q1020=
201906092200 METAR LRIA 092200Z 22003KT 140V250 9999 FEW047 18/15 Q1020=
201906092230 METAR LRIA 092230Z 26004KT CAVOK 17/15 Q1020=
201906092300 METAR LRIA 092300Z 25003KT 230V290 CAVOK 17/15 Q1020=
201906092330 METAR LRIA 092330Z 23003KT CAVOK 17/15 Q1020=
201906100000 METAR LRIA 100000Z 27002KT CAVOK 17/15 Q1020=
201906100030 METAR LRIA 100030Z 25004KT CAVOK 17/15 Q1020=
201906100100 METAR LRIA 100100Z 26002KT CAVOK 17/15 Q1020=
201906100130 METAR LRIA 100130Z 19002KT CAVOK 17/15 Q1020=
201906100200 METAR LRIA 100200Z 23005KT CAVOK 17/15 Q1020=
201906100230 METAR LRIA 100230Z 25004KT CAVOK 17/15 Q1020=
201906100300 METAR LRIA 100300Z 27004KT CAVOK 17/15 Q1020=
201906100330 METAR LRIA 100330Z 23002KT CAVOK 18/16 Q1020=
201906100400 METAR LRIA 100400Z 27004KT CAVOK 18/16 Q1020=
201906100430 METAR LRIA 100430Z 28003KT CAVOK 19/17 Q1020=
201906100500 METAR LRIA 100500Z 29005KT CAVOK 20/17 Q1020=
201906100530 METAR LRIA 100530Z 29005KT 250V320 CAVOK 21/17 Q1020=
201906100600 METAR LRIA 100600Z 30004KT 260V010 CAVOK 22/18 Q1020=
201906100630 METAR LRIA 100630Z 33004KT 270V020 CAVOK 23/18 Q1020=
201906100700 METAR LRIA 100700Z 30006KT 260V330 CAVOK 23/18 Q1020=
201906100730 METAR LRIA 100730Z 34007KT CAVOK 24/17 Q1020=
201906100800 METAR LRIA 100800Z 31007KT 290V350 CAVOK 25/18 Q1019=
201906100830 METAR LRIA 100830Z 34008KT CAVOK 26/19 Q1019=
201906100900 METAR LRIA 100900Z 03007KT 340V060 9999 FEW027 27/17 Q1019=
201906100930 METAR LRIA 100930Z 34007KT 300V050 9999 FEW031 27/19 Q1019=
201906101000 METAR LRIA 101000Z 36008KT 9999 FEW034 28/18 Q1019=
201906101030 METAR LRIA 101030Z 02009KT 9999 FEW040 28/17 Q1019=
201906101100 METAR LRIA 101100Z 01008KT 9999 FEW039 28/18 Q1018=
201906101130 METAR LRIA 101130Z 03008KT 9999 FEW045 28/17 Q1018=
201906101200 METAR LRIA 101200Z AUTO 01009KT 9999 FEW042/// 29/18 Q1017=
201906101230 METAR COR LRIA 101230Z 02010KT 9999 VCTS FEW048CB 29/17 Q1017=
201906101300 METAR LRIA 101300Z 02007KT 9999 VCTS FEW050CB 28/17 Q1017=
201906101330 METAR LRIA 101330Z 03009KT 9999 VCTS FEW049CB 28/18 Q1016=
201906101400 METAR LRIA 101400Z 01009KT 9999 TS FEW051CB 26/15 Q1016=
201906101430 METAR LRIA 101430Z 01009KT 9999 FEW050CB 26/16 Q1016=
201906101500 METAR LRIA 101500Z 01009KT 9999 FEW050CB 28/17 Q1016=
201906101530 METAR LRIA 101530Z 01008KT 9999 FEW050CB 27/17 Q1016=
201906101600 METAR COR LRIA 101600Z 01007KT 9999 FEW050CB 27/18 Q1016=
201906101630 METAR LRIA 101630Z 02008KT 9999 FEW050CB 27/17 Q1016=
201906101700 METAR LRIA 101700Z 03007KT 9999 FEW048 FEW050CB 26/16 Q1016=
201906101730 METAR LRIA 101730Z 02006KT 9999 FEW048 FEW050CB 25/16 Q1016=
201906101800 METAR LRIA 101800Z 02006KT 9999 FEW050CB 25/16 Q1016=
201906101830 METAR LRIA 101830Z VRB02KT 9999 FEW050CB 23/17 Q1016=
201906101900 METAR LRIA 101900Z VRB02KT 9999 FEW050CB 22/17 Q1017=
201906101930 METAR LRIA 101930Z VRB01KT CAVOK 21/17 Q1016=
201906102000 METAR LRIA 102000Z 26003KT 230V300 CAVOK 21/17 Q1016=
201906102030 METAR LRIA 102030Z 22002KT CAVOK 21/17 Q1016=
201906102100 METAR LRIA 102100Z VRB01KT CAVOK 20/17 Q1016=
201906102130 METAR LRIA 102130Z VRB02KT CAVOK 19/17 Q1016=
201906102200 METAR LRIA 102200Z 00000KT CAVOK 19/17 Q1016=
201906102230 METAR LRIA 102230Z 27003KT CAVOK 19/17 Q1016=
201906102300 METAR LRIA 102300Z 27003KT 250V320 CAVOK 18/16 Q1016=
201906102330 METAR LRIA 102330Z 27003KT 230V300 CAVOK 18/16 Q1016=
201906110000 METAR LRIA 110000Z 26003KT CAVOK 18/16 Q1016=
201906110030 METAR LRIA 110030Z 27003KT CAVOK 18/16 Q1015=
201906110100 METAR LRIA 110100Z 33004KT CAVOK 17/15 Q1015=
201906110130 METAR LRIA 110130Z 29003KT CAVOK 17/15 Q1015=
201906110200 METAR LRIA 110200Z 27003KT 9999 1000NW R14/1200U R32/P2000
                        PRFG NSC 17/15 Q1015=
201906110230 METAR COR LRIA 110230Z 26003KT 220V310 8000 0800NW R14/1900D
                        R32/P2000 PRFG MIFG NSC 16/15 Q1015=
201906110300 METAR LRIA 110300Z 25002KT 8000 0800NW R14/0550U R32/P2000
                        PRFG NSC 16/15 Q1015=
201906110330 METAR LRIA 110330Z 26003KT CAVOK 17/16 Q1016=
201906110400 METAR LRIA 110400Z 25003KT CAVOK 18/16 Q1016=
201906110430 METAR LRIA 110430Z 26004KT CAVOK 19/17 Q1016=
201906110500 METAR LRIA 110500Z 27004KT CAVOK 20/17 Q1016=
201906110530 METAR LRIA 110530Z 26003KT CAVOK 21/17 Q1016=
201906110600 METAR LRIA 110600Z 27004KT 230V290 CAVOK 22/17 Q1016=
201906110630 METAR LRIA 110630Z 28004KT CAVOK 23/17 Q1016=
201906110700 METAR LRIA 110700Z 28004KT 240V310 CAVOK 23/17 Q1016=
201906110730 METAR LRIA 110730Z 31005KT 280V360 CAVOK 24/18 Q1016=
201906110800 METAR LRIA 110800Z 29005KT 250V310 CAVOK 26/18 Q1016=
201906110830 METAR LRIA 110830Z 31005KT 280V340 CAVOK 26/18 Q1016=
201906110900 METAR LRIA 110900Z 33005KT 300V010 CAVOK 27/18 Q1016=
201906110930 METAR LRIA 110930Z 34005KT 310V050 CAVOK 28/19 Q1016=
201906111000 METAR LRIA 111000Z 01004KT 320V070 CAVOK 29/16 Q1016=
201906111030 METAR LRIA 111030Z 36005KT 330V030 CAVOK 29/16 Q1016=
201906111100 METAR LRIA 111100Z 05007KT CAVOK 30/16 Q1015=
201906111130 METAR LRIA 111130Z 09011KT CAVOK 31/15 Q1015=
201906111200 METAR LRIA 111200Z 11010KT CAVOK 31/16 Q1015=
201906111230 METAR LRIA 111230Z 10008KT CAVOK 31/15 Q1015=
201906111300 METAR LRIA 111300Z 08008KT CAVOK 30/14 Q1015=
201906111330 METAR LRIA 111330Z 10011KT 9999 FEW050CB 31/14 Q1014=
201906111400 METAR LRIA 111400Z 08008KT 9999 FEW050CB 31/15 Q1014=
201906111430 METAR LRIA 111430Z 09012KT 9999 FEW050CB 31/14 Q1014=
201906111500 METAR LRIA 111500Z 08008KT 9999 FEW050CB 30/15 Q1014=
201906111530 METAR LRIA 111530Z 06008KT CAVOK 29/15 Q1014=
201906111600 METAR LRIA 111600Z 04008KT CAVOK 29/15 Q1014=
201906111630 METAR LRIA 111630Z 03007KT CAVOK 28/16 Q1015=
201906111700 METAR LRIA 111700Z 02009KT CAVOK 26/15 Q1015=
201906111730 METAR LRIA 111730Z 02009KT CAVOK 26/15 Q1015=
201906111800 METAR LRIA 111800Z 01008KT CAVOK 25/15 Q1015=
201906111830 METAR LRIA 111830Z 01006KT CAVOK 25/15 Q1015=
201906111900 METAR LRIA 111900Z 33002KT CAVOK 23/15 Q1015=
201906111930 METAR LRIA 111930Z 04002KT CAVOK 24/15 Q1015=
201906112000 METAR LRIA 112000Z 04005KT CAVOK 24/15 Q1015=
201906112030 METAR LRIA 112030Z 00000KT CAVOK 23/15 Q1015=
201906112100 METAR LRIA 112100Z 28003KT 260V030 CAVOK 23/15 Q1015=
201906112130 METAR LRIA 112130Z 32004KT CAVOK 21/15 Q1015=
201906112200 METAR LRIA 112200Z 30003KT CAVOK 20/15 Q1015=
201906112230 METAR COR LRIA 112230Z 31003KT CAVOK 20/16 Q1015=
201906112300 METAR LRIA 112300Z 32003KT CAVOK 20/16 Q1015=
201906112330 METAR LRIA 112330Z 28003KT CAVOK 18/16 Q1015=
201906120000 METAR LRIA 120000Z 25003KT CAVOK 18/16 Q1015=
201906120030 METAR LRIA 120030Z 26003KT CAVOK 18/15 Q1015=
201906120100 METAR LRIA 120100Z 25004KT CAVOK 17/15 Q1014=
201906120130 METAR LRIA 120130Z 25004KT CAVOK 17/15 Q1015=
201906120200 METAR LRIA 120200Z 27004KT CAVOK 17/15 Q1015=
201906120230 METAR LRIA 120230Z 25004KT CAVOK 17/15 Q1015=
201906120300 METAR LRIA 120300Z 23003KT CAVOK 17/15 Q1015=
201906120330 METAR LRIA 120330Z 24003KT CAVOK 18/16 Q1015=
201906120400 METAR LRIA 120400Z 25003KT CAVOK 19/16 Q1015=
201906120430 METAR LRIA 120430Z 25003KT CAVOK 20/17 Q1015=
201906120500 METAR LRIA 120500Z 26004KT CAVOK 21/17 Q1015=
201906120530 METAR LRIA 120530Z 28003KT 240V320 CAVOK 22/18 Q1015=
201906120600 METAR LRIA 120600Z 29004KT 240V310 CAVOK 23/18 Q1015=
201906120630 METAR LRIA 120630Z 28004KT 250V360 CAVOK 25/18 Q1015=
201906120700 METAR LRIA 120700Z 32005KT 270V350 CAVOK 25/19 Q1015=
201906120730 METAR LRIA 120730Z 32005KT 280V350 CAVOK 26/17 Q1015=
201906120800 METAR LRIA 120800Z 33006KT 300V360 CAVOK 27/17 Q1016=
201906120830 METAR LRIA 120830Z 35005KT 300V080 CAVOK 28/17 Q1015=
201906120900 METAR LRIA 120900Z 36008KT CAVOK 29/17 Q1015=
201906120930 METAR LRIA 120930Z 01008KT 340V050 9999 FEW032 29/16 Q1015=
201906121000 METAR LRIA 121000Z 02008KT 330V040 9999 FEW032 29/16 Q1015=
201906121030 METAR LRIA 121030Z 36009KT 9999 FEW033 30/15 Q1015=
201906121100 METAR LRIA 121100Z 02007KT 340V050 9999 FEW033 30/15 Q1015=
201906121130 METAR LRIA 121130Z 36009KT 330V030 9999 FEW035 30/14 Q1014=
201906121200 METAR LRIA 121200Z 03009KT 9999 FEW037 30/14 Q1014=
201906121230 METAR LRIA 121230Z 02007KT 350V050 9999 FEW037 30/14 Q1014=
201906121300 METAR LRIA 121300Z 36007KT 330V030 9999 FEW040 30/15 Q1014=
201906121330 METAR LRIA 121330Z 04008KT 360V060 9999 FEW040 30/13 Q1014=
201906121400 METAR LRIA 121400Z 02006KT 340V050 9999 FEW040 FEW040TCU
                        31/14 Q1014=
201906121430 METAR LRIA 121430Z 04005KT 9999 FEW040 FEW040TCU 30/13 Q1014=
201906121500 METAR LRIA 121500Z 02005KT 9999 FEW040 FEW040TCU 31/11 Q1013=
201906121530 METAR LRIA 121530Z 33002KT 9999 FEW040 FEW040CB 31/14 Q1013=
201906121600 METAR LRIA 121600Z 01004KT 9999 -SHRA FEW040 FEW040CB 30/16
                        Q1014=
201906121630 METAR LRIA 121630Z 19006KT 160V220 9999 TS FEW040 FEW040CB
                        27/13 Q1014 RESHRA R14/29//95=
201906121700 METAR COR LRIA 121700Z 26003KT 220V310 9999 FEW050CB 26/15
                        Q1014 R14/19//95=
201906121730 METAR LRIA 121730Z 29004KT CAVOK 25/14 Q1014 R14/19//95=
201906121800 METAR LRIA 121800Z 34001KT CAVOK 26/14 Q1014 R14/19//95=
201906121830 METAR LRIA 121830Z 26002KT CAVOK 23/14 Q1014 R14/CLRD//=
201906121900 METAR LRIA 121900Z 30004KT CAVOK 23/16 Q1015=
201906121930 METAR LRIA 121930Z 29002KT CAVOK 22/17 Q1015=
201906122000 METAR LRIA 122000Z 28002KT CAVOK 22/16 Q1015=
201906122030 METAR LRIA 122030Z 29003KT CAVOK 21/16 Q1015=
201906122100 METAR LRIA 122100Z 26002KT CAVOK 21/17 Q1015=
201906122130 METAR LRIA 122130Z 27002KT CAVOK 21/16 Q1015=
201906122200 METAR LRIA 122200Z 27004KT CAVOK 19/16 Q1015=
201906122230 METAR LRIA 122230Z 28004KT CAVOK 19/16 Q1015=
201906122300 METAR LRIA 122300Z 28003KT CAVOK 18/16 Q1015=
201906122330 METAR LRIA 122330Z 27004KT CAVOK 18/16 Q1015=
201906130000 METAR LRIA 130000Z 26004KT CAVOK 18/15 Q1015=
201906130030 METAR LRIA 130030Z 25004KT CAVOK 18/16 Q1015=
201906130100 METAR LRIA 130100Z 27004KT CAVOK 18/16 Q1015=
201906130130 METAR LRIA 130130Z 25003KT 8000 NSC 17/15 Q1015=
201906130200 METAR LRIA 130200Z 24003KT 9999 MIFG NSC 17/15 Q1015=
201906130230 METAR LRIA 130230Z 24003KT 9999 MIFG NSC 17/15 Q1015=
201906130300 METAR LRIA 130300Z 25004KT CAVOK 17/15 Q1015=
201906130330 METAR LRIA 130330Z 26004KT CAVOK 18/16 Q1015=
201906130400 METAR LRIA 130400Z 25004KT CAVOK 19/17 Q1015=
201906130430 METAR LRIA 130430Z 25004KT CAVOK 20/17 Q1015=
201906130500 METAR LRIA 130500Z 24003KT CAVOK 21/17 Q1016=
201906130530 METAR LRIA 130530Z 28004KT 230V310 CAVOK 23/17 Q1016=
201906130600 METAR COR LRIA 130600Z 27004KT 240V300 CAVOK 24/18 Q1016=
201906130630 METAR COR LRIA 130630Z 29004KT 230V320 CAVOK 25/17 Q1016=
201906130700 METAR LRIA 130700Z 28005KT 260V320 CAVOK 26/18 Q1016=
201906130730 METAR LRIA 130730Z 27005KT 230V310 CAVOK 27/18 Q1016=
201906130800 METAR LRIA 130800Z 32005KT 280V010 CAVOK 28/18 Q1016=
201906130830 METAR COR LRIA 130830Z 32006KT CAVOK 29/18 Q1016=
201906130900 METAR LRIA 130900Z 34008KT CAVOK 29/18 Q1016=
201906130930 METAR LRIA 130930Z 33008KT CAVOK 30/18 Q1016=
201906131000 METAR LRIA 131000Z 36007KT CAVOK 30/17 Q1016=
201906131030 METAR LRIA 131030Z 35007KT CAVOK 30/17 Q1016=
201906131100 METAR LRIA 131100Z 36007KT CAVOK 31/15 Q1016=
201906131130 METAR LRIA 131130Z 02008KT CAVOK 31/14 Q1016=
201906131200 METAR COR LRIA 131200Z 02007KT 350V050 CAVOK 31/13 Q1016=
201906131230 METAR LRIA 131230Z 03007KT 360V060 CAVOK 31/15 Q1016=
201906131300 METAR LRIA 131300Z 02007KT CAVOK 31/14 Q1015=
201906131330 METAR LRIA 131330Z 07008KT 9999 FEW050CB 32/15 Q1015=
201906131400 METAR LRIA 131400Z 05011KT 9999 -SHRA SCT050CB 28/16 Q1015=
201906131430 METAR LRIA 131430Z 05005KT 9999 TS SCT050CB 30/15 Q1015=
201906131500 METAR LRIA 131500Z 07007KT 9999 TS SCT050CB 29/17 Q1015=
201906131530 METAR LRIA 131530Z 11005KT 9999 TS SCT050CB 28/18 Q1015=
201906131600 METAR LRIA 131600Z 25004KT 210V270 9999 VCTS SCT050CB 26/17
                        Q1016=
201906131630 METAR LRIA 131630Z 28003KT 9999 TS VCSH SCT050CB 25/14 Q1016=
201906131700 METAR LRIA 131700Z VRB01KT 9999 -SHRA VCTS SCT048CB 25/15
                        Q1017 RETS=
201906131730 METAR LRIA 131730Z VRB02KT 9999 TS VCSH FEW040 SCT048CB 25/16
                        Q1017=
201906131800 METAR LRIA 131800Z VRB01KT 9999 FEW040 SCT048CB 24/16 Q1017
                        RETS=
201906131830 METAR LRIA 131830Z 30003KT 260V010 9999 FEW040 FEW045CB 21/17
                        Q1017=
201906131900 METAR LRIA 131900Z VRB01KT 9999 FEW040 FEW045CB 21/16 Q1017=
201906131930 METAR LRIA 131930Z 03004KT 9999 FEW040 21/15 Q1017=
201906132000 METAR LRIA 132000Z 31003KT CAVOK 20/16 Q1017=
201906132030 METAR LRIA 132030Z VRB01KT CAVOK 21/16 Q1017=
201906132100 METAR LRIA 132100Z 00000KT CAVOK 19/16 Q1018=
201906132130 METAR LRIA 132130Z VRB02KT CAVOK 19/14 Q1018=
201906132200 METAR LRIA 132200Z 28003KT 250V350 CAVOK 18/14 Q1018=
201906132230 METAR LRIA 132230Z 25001KT CAVOK 19/15 Q1018=
201906132300 METAR LRIA 132300Z 28003KT 230V310 CAVOK 19/15 Q1018=
201906132330 METAR LRIA 132330Z 25003KT 210V270 CAVOK 18/16 Q1018=
201906140000 METAR LRIA 140000Z 26003KT CAVOK 18/16 Q1018=
201906140030 METAR LRIA 140030Z 30004KT CAVOK 19/17 Q1018=
201906140100 METAR LRIA 140100Z 27003KT 230V300 CAVOK 18/15 Q1018=
201906140130 METAR LRIA 140130Z 28003KT CAVOK 18/15 Q1018=
201906140200 METAR LRIA 140200Z 30002KT CAVOK 18/15 Q1018=
201906140230 METAR LRIA 140230Z 27003KT CAVOK 17/15 Q1018=
201906140300 METAR LRIA 140300Z 27003KT CAVOK 18/15 Q1018=
201906140330 METAR LRIA 140330Z VRB02KT CAVOK 18/16 Q1018=
201906140400 METAR LRIA 140400Z 26003KT CAVOK 19/16 Q1018=
201906140430 METAR LRIA 140430Z 28004KT 260V320 CAVOK 20/15 Q1018=
201906140500 METAR LRIA 140500Z 27002KT CAVOK 22/16 Q1018=
201906140530 METAR LRIA 140530Z VRB01KT CAVOK 23/16 Q1018=
201906140600 METAR LRIA 140600Z 25002KT CAVOK 24/17 Q1019=
201906140630 METAR LRIA 140630Z 28004KT 250V320 CAVOK 25/17 Q1019=
201906140700 METAR LRIA 140700Z 34003KT 250V020 CAVOK 26/15 Q1019=
201906140730 METAR LRIA 140730Z 36006KT CAVOK 27/16 Q1019=
201906140800 METAR LRIA 140800Z 03005KT 330V080 CAVOK 27/13 Q1019=
201906140830 METAR LRIA 140830Z 03004KT 300V080 CAVOK 28/14 Q1019=
201906140900 METAR LRIA 140900Z 05005KT 010V100 CAVOK 28/14 Q1019=
201906140930 METAR LRIA 140930Z 05005KT 350V110 CAVOK 28/15 Q1019=
201906141000 METAR LRIA 141000Z 02005KT 340V050 CAVOK 29/14 Q1019=
201906141030 METAR LRIA 141030Z 07004KT 020V190 CAVOK 29/14 Q1019=
201906141100 METAR LRIA 141100Z 04005KT 010V090 CAVOK 29/15 Q1019=
201906141130 METAR LRIA 141130Z 06006KT 020V120 CAVOK 30/16 Q1019=
201906141200 METAR LRIA 141200Z 04006KT 010V080 CAVOK 30/15 Q1019=
201906141230 METAR LRIA 141230Z 05008KT CAVOK 30/15 Q1018=
201906141300 METAR COR LRIA 141300Z 08006KT 040V110 CAVOK 31/16 Q1018=
201906141330 METAR LRIA 141330Z 04008KT 010V070 9999 FEW045CB 31/16 Q1018=
201906141400 METAR LRIA 141400Z 05005KT 010V100 CAVOK 31/15 Q1017=
201906141430 METAR LRIA 141430Z 03004KT 350V060 CAVOK 31/15 Q1017=
201906141500 METAR LRIA 141500Z 04005KT 360V090 CAVOK 31/15 Q1017=
201906141530 METAR LRIA 141530Z 36004KT 330V030 CAVOK 30/17 Q1017=
201906141600 METAR LRIA 141600Z 03005KT 360V060 CAVOK 30/17 Q1017=
201906141630 METAR LRIA 141630Z 02005KT 9999 FEW045CB 30/17 Q1017=
201906141700 METAR LRIA 141700Z 04004KT 9999 FEW045CB 29/17 Q1017=
201906141730 METAR LRIA 141730Z 03005KT 9999 FEW045CB 28/17 Q1017=
201906141800 METAR LRIA 141800Z 03005KT 9999 FEW050CB 26/17 Q1017=
201906141830 METAR COR LRIA 141830Z 06005KT 9999 FEW050CB 26/17 Q1018=
201906141900 METAR LRIA 141900Z 08003KT 050V110 9999 FEW050CB 25/17 Q1018=
201906141930 METAR LRIA 141930Z 11003KT 9999 FEW050CB 26/17 Q1018=
201906142000 METAR LRIA 142000Z 20004KT 9999 FEW050CB 25/17 Q1018=
201906142030 METAR LRIA 142030Z 25004KT 220V280 CAVOK 24/17 Q1018=
201906142100 METAR LRIA 142100Z 28003KT CAVOK 23/17 Q1018=
201906142130 METAR COR LRIA 142130Z 25004KT 210V290 CAVOK 23/17 Q1018=
201906142200 METAR LRIA 142200Z 30006KT CAVOK 22/17 Q1018=
201906142230 METAR LRIA 142230Z AUTO 28005KT 9999 NCD 21/17 Q1018=
201906142300 METAR LRIA 142300Z 29005KT CAVOK 21/16 Q1018=
201906142330 METAR COR LRIA 142330Z 30007KT CAVOK 22/15 Q1018=
201906150000 METAR LRIA 150000Z 27005KT CAVOK 21/16 Q1018=
201906150030 METAR COR LRIA 150030Z 20003KT 170V240 CAVOK 20/16 Q1017=
201906150100 METAR COR LRIA 150100Z 24004KT CAVOK 20/16 Q1017=
201906150130 METAR COR LRIA 150130Z 24004KT CAVOK 20/16 Q1017=
201906150200 METAR LRIA 150200Z AUTO 29002KT 9999 NCD 20/15 Q1017=
201906150230 METAR COR LRIA 150230Z 31003KT CAVOK 18/16 Q1017=
201906150300 METAR COR LRIA 150300Z 29002KT CAVOK 19/16 Q1017=
201906150330 METAR LRIA 150330Z 27003KT CAVOK 19/17 Q1017=
201906150400 METAR LRIA 150400Z 23002KT CAVOK 21/16 Q1017=
201906150430 METAR COR LRIA 150430Z 24003KT 210V270 CAVOK 22/17 Q1017=
201906150500 METAR LRIA 150500Z 27004KT CAVOK 23/17 Q1017=
201906150530 METAR COR LRIA 150530Z VRB02KT CAVOK 24/18 Q1017=
201906150600 METAR LRIA 150600Z 24003KT CAVOK 25/18 Q1017=
201906150630 METAR LRIA 150630Z VRB02KT CAVOK 26/19 Q1017=
201906150700 METAR LRIA 150700Z 28003KT 220V330 CAVOK 27/19 Q1017=
201906150730 METAR LRIA 150730Z 28003KT 250V330 CAVOK 28/20 Q1017=
201906150800 METAR LRIA 150800Z 31005KT 270V340 CAVOK 28/19 Q1017=
201906150830 METAR LRIA 150830Z VRB03KT 9999 FEW036 29/18 Q1017=
201906150900 METAR LRIA 150900Z VRB05KT 9999 FEW038 FEW038TCU 30/18 Q1017=
201906150930 METAR LRIA 150930Z 36006KT 330V030 9999 FEW040 FEW042CB 30/16
                        Q1017=
201906151000 METAR LRIA 151000Z 34005KT 280V060 9999 FEW048 FEW050CB 29/17
                        Q1016=
201906151030 METAR LRIA 151030Z 35005KT 270V050 9999 FEW048 FEW050CB 30/17
                        Q1016=
201906151100 METAR LRIA 151100Z 03007KT 9999 FEW047 FEW050CB 30/18 Q1016=
201906151130 METAR LRIA 151130Z 05007KT 9999 VCTS FEW047 FEW050CB 31/17
                        Q1015=
201906151200 METAR LRIA 151200Z 36006KT 310V070 9999 TS FEW047 FEW051CB
                        31/17 Q1015=
201906151230 METAR LRIA 151230Z 36007KT 330V030 9999 TS FEW048 FEW051CB
                        30/17 Q1015=
201906151300 METAR LRIA 151300Z 01007KT 9999 FEW048 FEW051CB 30/17 Q1015
                        RETS=
201906151330 METAR LRIA 151330Z 02006KT 9999 FEW047 FEW050CB 31/16 Q1014=
201906151400 METAR LRIA 151400Z 05006KT 360V080 9999 FEW052CB 31/16 Q1014=
201906151430 METAR LRIA 151430Z 02006KT 340V060 9999 FEW053CB 31/16 Q1014=
201906151500 METAR LRIA 151500Z 02006KT 9999 FEW055CB 31/17 Q1014=
201906151530 METAR LRIA 151530Z 03007KT 9999 FEW055CB 31/16 Q1014=
201906151600 METAR LRIA 151600Z 03005KT 360V060 9999 FEW050TCU 30/17 Q1014=
201906151630 METAR LRIA 151630Z 08006KT 9999 FEW050TCU 28/17 Q1014=
201906151700 METAR LRIA 151700Z 10004KT 060V130 9999 FEW050TCU 28/17 Q1014=
201906151730 METAR LRIA 151730Z 10005KT 060V120 9999 FEW050TCU 27/18 Q1014=
201906151800 METAR LRIA 151800Z 10004KT CAVOK 26/17 Q1014=
201906151830 METAR LRIA 151830Z 07003KT CAVOK 25/17 Q1014=
201906151900 METAR LRIA 151900Z 31004KT CAVOK 23/17 Q1014=
201906151930 METAR LRIA 151930Z 33004KT CAVOK 24/17 Q1014=
201906152000 METAR LRIA 152000Z 33003KT CAVOK 22/17 Q1014=
201906152030 METAR LRIA 152030Z 19003KT 140V240 CAVOK 21/18 Q1015=
201906152100 METAR LRIA 152100Z 29002KT CAVOK 23/18 Q1014=
201906152130 METAR LRIA 152130Z 00000KT CAVOK 22/17 Q1014=
201906152200 METAR LRIA 152200Z 00000KT CAVOK 22/18 Q1014=
201906152230 METAR LRIA 152230Z 33003KT CAVOK 21/17 Q1014=
201906152300 METAR LRIA 152300Z 00000KT CAVOK 19/17 Q1014=
201906152330 METAR LRIA 152330Z 30004KT CAVOK 19/17 Q1014=
201906160000 METAR LRIA 160000Z 23002KT CAVOK 19/17 Q1014=
201906160030 METAR LRIA 160030Z 00000KT CAVOK 20/17 Q1013=
201906160100 METAR LRIA 160100Z 28002KT CAVOK 20/17 Q1013=
201906160130 METAR LRIA 160130Z VRB01KT CAVOK 19/17 Q1013=
201906160200 METAR LRIA 160200Z 23002KT CAVOK 19/17 Q1013=
201906160230 METAR LRIA 160230Z 27002KT CAVOK 18/16 Q1013=
201906160300 METAR LRIA 160300Z 27002KT 9999 MIFG NSC 18/16 Q1014=
201906160330 METAR LRIA 160330Z 26002KT CAVOK 19/18 Q1014=
201906160400 METAR LRIA 160400Z 00000KT CAVOK 21/18 Q1014=
201906160430 METAR LRIA 160430Z 27002KT CAVOK 21/18 Q1014=
201906160500 METAR LRIA 160500Z VRB01KT CAVOK 23/19 Q1014=
201906160530 METAR LRIA 160530Z 27002KT CAVOK 24/20 Q1014=
201906160600 METAR LRIA 160600Z 26003KT 220V320 CAVOK 25/18 Q1014=
201906160630 METAR LRIA 160630Z 27004KT CAVOK 26/17 Q1014=
201906160700 METAR LRIA 160700Z 28003KT 200V340 CAVOK 28/19 Q1014=
201906160730 METAR LRIA 160730Z 31002KT CAVOK 28/18 Q1014=
201906160800 METAR LRIA 160800Z 32003KT 280V040 CAVOK 28/18 Q1014=
201906160830 METAR LRIA 160830Z 32003KT 260V020 CAVOK 29/19 Q1014=
201906160900 METAR LRIA 160900Z 05005KT 340V080 CAVOK 29/17 Q1014=
201906160930 METAR LRIA 160930Z VRB03KT 9999 FEW047 29/16 Q1014=
201906161000 METAR LRIA 161000Z 01004KT 310V110 9999 FEW047 30/17 Q1014=
201906161030 METAR LRIA 161030Z VRB04KT 9999 FEW047TCU 30/16 Q1014=
201906161100 METAR LRIA 161100Z 11004KT 040V170 9999 FEW047 31/17 Q1014=
201906161130 METAR LRIA 161130Z 14004KT 070V190 9999 FEW047 FEW050CB 32/18
                        Q1013=
201906161200 METAR LRIA 161200Z 13005KT 090V150 9999 FEW050CB 31/16 Q1013=
201906161230 METAR LRIA 161230Z 10006KT 070V140 9999 FEW050CB 31/17 Q1013=
201906161300 METAR LRIA 161300Z 10004KT 070V130 9999 FEW050CB 31/16 Q1013=
201906161330 METAR LRIA 161330Z 11008G19KT 020V140 9999 VCTS FEW040 SCT050CB
                        30/16 Q1013=
201906161400 METAR LRIA 161400Z 05016G28KT 9999 -TSRA FEW040 SCT045CB
                        25/17 Q1013=
201906161430 METAR LRIA 161430Z 01006KT 9999 FEW045 FEW050CB 26/18 Q1013=
201906161500 METAR LRIA 161500Z 31002KT 9999 FEW055CB 25/19 Q1013=
201906161530 METAR LRIA 161530Z 32004KT 9999 FEW055CB 25/20 Q1013=
201906161600 METAR LRIA 161600Z 30002KT CAVOK 25/20 Q1013 R14/19//95=
201906161630 METAR LRIA 161630Z 30002KT CAVOK 26/20 Q1012 R14/19//95=
201906161700 METAR LRIA 161700Z VRB02KT CAVOK 25/21 Q1013 R14/19//95=
201906161730 METAR LRIA 161730Z 00000KT CAVOK 25/20 Q1013 R14/19//95=
201906161800 METAR LRIA 161800Z 00000KT CAVOK 25/19 Q1013 R14/19//95=
201906161830 METAR LRIA 161830Z 00000KT CAVOK 25/17 Q1013 R14/19//95=
201906161900 METAR LRIA 161900Z 00000KT CAVOK 25/17 Q1013 R14/19//95=
201906161930 METAR LRIA 161930Z 00000KT CAVOK 23/17 Q1013 R14/19//95=
201906162000 METAR LRIA 162000Z 00000KT CAVOK 24/18 Q1013 R14/19//95=
201906162030 METAR LRIA 162030Z 00000KT CAVOK 22/18 Q1013 R14/CLRD//=
201906162100 METAR LRIA 162100Z 00000KT CAVOK 21/17 Q1013=
201906162130 METAR LRIA 162130Z 00000KT CAVOK 21/17 Q1014=
201906162200 METAR LRIA 162200Z 00000KT CAVOK 20/17 Q1014=
201906162230 METAR LRIA 162230Z VRB01KT CAVOK 20/17 Q1014=
201906162300 METAR LRIA 162300Z 26003KT CAVOK 20/17 Q1014=
201906162330 METAR LRIA 162330Z 27004KT CAVOK 20/17 Q1014=
201906170000 METAR LRIA 170000Z 27002KT CAVOK 20/18 Q1014=
201906170030 METAR LRIA 170030Z 25003KT CAVOK 19/17 Q1014=
201906170100 METAR LRIA 170100Z 25003KT CAVOK 19/17 Q1014=
201906170130 METAR LRIA 170130Z 25004KT CAVOK 20/18 Q1014=
201906170200 METAR LRIA 170200Z 26003KT CAVOK 19/17 Q1014=
201906170230 METAR LRIA 170230Z VRB01KT CAVOK 19/17 Q1015=
201906170300 METAR LRIA 170300Z 00000KT CAVOK 19/17 Q1015=
201906170330 METAR LRIA 170330Z 28002KT CAVOK 20/18 Q1015=
201906170400 METAR LRIA 170400Z 27002KT CAVOK 21/19 Q1015=
201906170430 METAR LRIA 170430Z VRB02KT 9999 NCD 22/19 Q1015=
201906170500 METAR LRIA 170500Z 27003KT 230V290 CAVOK 23/19 Q1015=
201906170530 METAR LRIA 170530Z 27003KT 230V290 CAVOK 23/19 Q1015=
201906170600 METAR LRIA 170600Z 27004KT 240V300 CAVOK 25/20 Q1015=
201906170630 METAR LRIA 170630Z 29004KT 230V330 CAVOK 25/20 Q1016=
201906170700 METAR LRIA 170700Z VRB02KT CAVOK 27/21 Q1015=
201906170730 METAR LRIA 170730Z VRB03KT CAVOK 27/21 Q1015=
201906170800 METAR LRIA 170800Z VRB03KT CAVOK 27/20 Q1016=
201906170830 METAR LRIA 170830Z VRB03KT CAVOK 29/20 Q1016=
201906170900 METAR COR LRIA 170900Z 35004KT 270V050 CAVOK 29/19 Q1016=
201906170930 METAR LRIA 170930Z 32005KT CAVOK 29/19 Q1016=
201906171000 METAR LRIA 171000Z 31005KT 250V020 CAVOK 30/19 Q1015=
201906171030 METAR LRIA 171030Z 34005KT 310V010 9999 FEW038 30/19 Q1015=
201906171100 METAR LRIA 171100Z 31006KT 280V350 9999 FEW035 30/19 Q1015=
201906171130 METAR COR LRIA 171130Z 31006KT 280V340 9999 FEW041 31/19
                        Q1015=
201906171200 METAR LRIA 171200Z 35008KT 9999 SCT046 31/18 Q1015=
201906171230 METAR LRIA 171230Z 35006KT 9999 VCTS SCT044CB 31/18 Q1014=
201906171300 METAR COR LRIA 171300Z 01006KT 330V030 9999 VCTS FEW053CB
                        30/18 Q1015=
201906171330 METAR COR LRIA 171330Z 04009KT 020V080 9999 TS SCT050CB 28/18
                        Q1015=
201906171400 METAR LRIA 171400Z 02012KT 350V050 9999 TS FEW050CB 26/17
                        Q1014=
201906171430 METAR LRIA 171430Z 31007KT 9999 FEW045CB 26/14 Q1014=
201906171500 METAR LRIA 171500Z VRB02KT 9999 FEW050CB 25/16 Q1015=
201906171530 METAR LRIA 171530Z VRB05KT 9999 FEW050CB 26/17 Q1015=
201906171600 METAR LRIA 171600Z 12004KT 9999 FEW050CB 27/16 Q1015=
201906171630 METAR LRIA 171630Z 08004KT 9999 FEW050CB 26/17 Q1015=
201906171700 METAR LRIA 171700Z 32011KT 9999 SCT050CB 25/17 Q1016=
201906171730 METAR LRIA 171730Z 34015KT 9999 SCT050CB 23/17 Q1016=
201906171800 METAR LRIA 171800Z 35010KT 9999 -SHRA VCTS SCT040CB 22/16
                        Q1016=
201906171830 METAR LRIA 171830Z 04016KT 3000 +TSRA FEW017 BKN030 BKN033CB
                        20/17 Q1018 R14/290195=
201906171900 METAR LRIA 171900Z 04015KT 9999 -TSRA FEW017 SCT028 BKN033CB
                        20/16 Q1018 R14/290195=
201906171930 METAR LRIA 171930Z 05008KT 020V110 9999 -RA BKN040CB 21/17
                        Q1018 R14/290195=
201906172000 METAR LRIA 172000Z 10008KT 9999 -RA SCT040CB 20/17 Q1017
                        R14/290195=
201906172030 METAR LRIA 172030Z VRB05KT 9999 SCT040CB 19/17 Q1018 R14/290195=
201906172100 METAR LRIA 172100Z 27004KT 250V340 9999 -SHRA SCT040CB 19/17
                        Q1018 R14/290195=
201906172130 METAR LRIA 172130Z 25002KT 9999 -SHRA SCT040CB 19/17 Q1017
                        R14/290195=
201906172200 METAR LRIA 172200Z 23003KT 9999 -RA SCT040CB 19/17 Q1016
                        R14/290195=
201906172230 METAR LRIA 172230Z 23003KT 9999 SCT040CB 19/17 Q1016 R14/290195=
201906172300 METAR LRIA 172300Z 30007KT 9999 FEW050CB 19/17 Q1017 R14/290195=
201906172330 METAR LRIA 172330Z 32004KT 9999 FEW050CB 19/17 Q1017 R14/290195=
201906180000 METAR LRIA 180000Z 34003KT 310V040 9999 FEW050CB 19/17 Q1017
                        R14/290195=
201906180030 METAR LRIA 180030Z VRB01KT CAVOK 19/17 Q1017 R14/290195=
201906180100 METAR LRIA 180100Z 00000KT CAVOK 19/17 Q1017 R14/290195=
201906180130 METAR LRIA 180130Z 24002KT 9999 MIFG NSC 18/16 Q1017 R14/290195=
201906180200 METAR LRIA 180200Z 25004KT CAVOK 19/17 Q1017 R14/19//95=
201906180230 METAR LRIA 180230Z 26004KT CAVOK 19/17 Q1017 R14/19//95=
201906180300 METAR LRIA 180300Z 27004KT CAVOK 19/17 Q1017 R14/19//95=
201906180330 METAR LRIA 180330Z 28006KT 8000 NSC 20/18 Q1017 R14/19//95=
201906180400 METAR LRIA 180400Z 30006KT 280V340 7000 SCT004 20/18 Q1017
                        R14/19//95=
201906180430 METAR LRIA 180430Z 29008KT 8000 BKN005 21/18 Q1017 R14/19//95=
201906180500 METAR LRIA 180500Z 29007KT 9000 BKN006 21/19 Q1017 R14/19//95=
201906180530 METAR LRIA 180530Z 31006KT 9999 BKN009 22/19 Q1017 R14/19//95=
201906180600 METAR LRIA 180600Z 33008KT 9999 BKN008 22/19 Q1018 R14/CLRD//=
201906180630 METAR LRIA 180630Z 33006KT 300V360 9999 BKN010 23/19 Q1018=
201906180700 METAR LRIA 180700Z 29006KT 260V330 9999 BKN015 23/20 Q1018=
201906180730 METAR LRIA 180730Z 30007KT 270V330 9999 BKN015 24/20 Q1018=
201906180800 METAR LRIA 180800Z 29006KT 260V320 9999 SCT013 BKN022 25/20
                        Q1018=
201906180830 METAR LRIA 180830Z 30007KT 270V340 9999 BKN017 25/20 Q1018=
201906180900 METAR LRIA 180900Z 32007KT 270V350 9999 BKN022 26/20 Q1018=
201906180930 METAR LRIA 180930Z 31006KT 250V020 9999 BKN025 27/20 Q1017=
201906181000 METAR LRIA 181000Z 33006KT 280V350 9999 BKN025 27/20 Q1017=
201906181030 METAR LRIA 181030Z 33007KT 290V350 9999 BKN027 27/21 Q1017=
201906181100 METAR LRIA 181100Z 32006KT 290V350 9999 FEW030TCU SCT033
                        28/21 Q1017=
201906181130 METAR LRIA 181130Z 33007KT 9999 FEW030TCU SCT040 28/21 Q1016=
201906181200 METAR LRIA 181200Z 35005KT 310V020 9999 FEW030TCU SCT040
                        28/19 Q1016=
201906181230 METAR LRIA 181230Z 34005KT 320V020 9999 FEW033TCU SCT040
                        28/19 Q1016=
201906181300 METAR LRIA 181300Z 31008KT 9999 FEW033TCU SCT040 29/19 Q1016=
201906181330 METAR LRIA 181330Z 01007KT 9999 FEW033CB FEW040TCU 28/20
                        Q1016=
201906181400 METAR LRIA 181400Z 13022KT 9999 TS VCSH BKN040CB 23/14 Q1017=
201906181430 METAR LRIA 181430Z 10014KT 3000 TSRA BKN027CB 18/16 Q1017
                        R14/29//95=
201906181500 METAR LRIA 181500Z 36007KT 9999 -TSRA SCT040CB 19/17 Q1016
                        RESHRA R14/29//95=
201906181530 METAR LRIA 181530Z 29009KT 9999 TS FEW045CB 19/16 Q1016 R14/29//95=
201906181600 METAR LRIA 181600Z 14003KT 110V170 9999 -TSRA SCT047CB 19/17
                        Q1016 R14/29//95=
201906181630 METAR LRIA 181630Z 30004KT 260V340 9999 -SHRA VCTS FEW050CB
                        19/17 Q1016 RETS R14/29//95=
201906181700 METAR LRIA 181700Z 33008KT 9999 -RA FEW048 20/17 Q1016 R14/29//95=
201906181730 METAR LRIA 181730Z 25005KT 200V310 CAVOK 19/17 Q1016 R14/29//95=
201906181800 METAR LRIA 181800Z VRB01KT CAVOK 19/17 Q1016 RERA R14/29//95=
201906181830 METAR LRIA 181830Z 27004KT 9999 -RA NSC 19/17 Q1017 R14/29//95=
201906181900 METAR COR LRIA 181900Z 26005KT 230V290 9999 -RA FEW050CB
                        19/17 Q1017 R14/29//95=
201906181930 METAR COR LRIA 181930Z 18003KT 140V280 9999 -RA FEW050CB
                        19/17 Q1017 R14/29//95=
201906182000 METAR LRIA 182000Z 28005KT 250V330 9999 TS FEW038CB 19/18
                        Q1017 R14/29//95=
201906182030 METAR LRIA 182030Z 33010KT 9999 TS BKN036 FEW050CB 20/17
                        Q1017 R14/29//95=
201906182100 METAR LRIA 182100Z 31006KT 270V340 9999 BKN036 FEW050CB 20/17
                        Q1017 R14/29//95=
201906182130 METAR LRIA 182130Z 20003KT 9999 FEW039 FEW050CB 19/17 Q1017
                        R14/29//95=
201906182200 METAR LRIA 182200Z 28003KT CAVOK 19/17 Q1017 R14/29//95=
201906182230 METAR LRIA 182230Z VRB01KT CAVOK 19/17 Q1016 R14/29//95=
201906182300 METAR LRIA 182300Z 25003KT 210V270 CAVOK 19/17 Q1016 R14/29//95=
201906182330 METAR COR LRIA 182330Z 22003KT CAVOK 19/17 Q1017 R14/29//95=
201906190000 METAR LRIA 190000Z AUTO 21005KT 180V250 9999 OVC130/// 19/17
                        Q1017=
201906190030 METAR COR LRIA 190030Z 22005KT 180V260 9999 SCT039 19/17
                        Q1017 R14/29//95=
201906190100 METAR LRIA 190100Z 24004KT 190V280 9999 SCT039 19/17 Q1017
                        R14/29//95=
201906190130 METAR COR LRIA 190130Z 29004KT 9999 FEW037 19/17 Q1017 R14/29//95=
201906190200 METAR COR LRIA 190200Z VRB02KT 9999 BKN036 19/17 Q1017 R14/29//95=
201906190230 METAR COR LRIA 190230Z 31004KT 280V360 9999 FEW041 19/17
                        Q1017 R14/19//95=
201906190300 METAR LRIA 190300Z 32008KT CAVOK 20/17 Q1016 R14/19//95=
201906190330 METAR LRIA 190330Z 33008KT CAVOK 20/17 Q1016 R14/19//95=
201906190400 METAR LRIA 190400Z 28005KT 220V340 CAVOK 20/17 Q1016 R14/19//95=
201906190430 METAR LRIA 190430Z 33007KT CAVOK 20/18 Q1016 R14/19//95=
201906190500 METAR LRIA 190500Z 36004KT 300V040 CAVOK 21/18 Q1016 R14/19//95=
201906190530 METAR LRIA 190530Z 33003KT 300V360 9999 FEW010 22/18 Q1016
                        R14/19//95=
201906190600 METAR LRIA 190600Z 34004KT 9999 FEW012 22/18 Q1016 R14/19//95=
201906190630 METAR LRIA 190630Z 02003KT 330V050 9999 FEW015 23/18 Q1016
                        R14/19//95=
201906190700 METAR LRIA 190700Z 35003KT 270V060 9999 FEW015 24/19 Q1016
                        R14/19//95=
201906190730 METAR LRIA 190730Z 31004KT 9999 FEW018 25/20 Q1016 R14/19//95=
201906190800 METAR LRIA 190800Z VRB03KT 9999 FEW020 26/19 Q1016 R14/19//95=
201906190830 METAR LRIA 190830Z VRB03KT 9999 FEW023 26/19 Q1016 R14/19//95=
201906190900 METAR LRIA 190900Z 03004KT 340V080 9999 SCT026 27/19 Q1016
                        R14/CLRD//=
201906190930 METAR LRIA 190930Z 04005KT 310V110 9999 SCT033 27/18 Q1016=
201906191000 METAR LRIA 191000Z 02007KT 340V040 9999 SCT033 27/18 Q1016=
201906191030 METAR LRIA 191030Z 02004KT 330V090 9999 SCT032 27/18 Q1015=
201906191100 METAR LRIA 191100Z 02004KT 290V060 9999 SCT032 28/18 Q1015=
201906191130 METAR LRIA 191130Z 08006KT 030V110 9999 SCT034 28/18 Q1015=
201906191200 METAR LRIA 191200Z VRB04KT 9999 SCT036 28/18 Q1015=
201906191230 METAR LRIA 191230Z 04005KT 010V070 9999 SCT035 29/18 Q1014=
201906191300 METAR LRIA 191300Z 02005KT 320V080 9999 FEW036 28/18 Q1014=
201906191330 METAR LRIA 191330Z 04007KT 9999 FEW038 29/17 Q1014=
201906191400 METAR LRIA 191400Z 03005KT 360V060 9999 FEW040 29/17 Q1014=
201906191430 METAR LRIA 191430Z 05004KT 360V120 9999 FEW040 FEW042TCU
                        29/18 Q1014=
201906191500 METAR LRIA 191500Z 04006KT 9999 FEW040 FEW042CB 29/17 Q1013=
201906191530 METAR LRIA 191530Z 05005KT 9999 FEW045CB 29/18 Q1013=
201906191600 METAR LRIA 191600Z 03005KT 9999 FEW045CB 28/18 Q1013=
201906191630 METAR LRIA 191630Z 09004KT 060V130 9999 FEW045CB 26/18 Q1013=
201906191700 METAR LRIA 191700Z 12005KT 9999 FEW045CB 26/18 Q1013=
201906191730 METAR LRIA 191730Z 00000KT 9999 FEW045CB 27/18 Q1013=
201906191800 METAR LRIA 191800Z 13003KT 090V160 CAVOK 26/17 Q1013=
201906191830 METAR LRIA 191830Z 03001KT CAVOK 25/18 Q1014=
201906191900 METAR LRIA 191900Z 17005KT 080V220 CAVOK 24/18 Q1014=
201906191930 METAR LRIA 191930Z 21003KT CAVOK 24/17 Q1013=
201906192000 METAR LRIA 192000Z 30002KT CAVOK 22/17 Q1014=
201906192030 METAR LRIA 192030Z 27002KT CAVOK 22/17 Q1014=
201906192100 METAR LRIA 192100Z 28002KT CAVOK 21/19 Q1014=
201906192130 METAR LRIA 192130Z 26002KT CAVOK 22/18 Q1014=
201906192200 METAR LRIA 192200Z 29005KT 270V330 CAVOK 20/18 Q1014=
201906192230 METAR LRIA 192230Z 29005KT CAVOK 22/18 Q1014=
201906192300 METAR LRIA 192300Z 31004KT CAVOK 21/16 Q1014=
201906192330 METAR LRIA 192330Z 27003KT CAVOK 21/15 Q1014=
201906200000 METAR LRIA 200000Z 25003KT CAVOK 21/15 Q1014=
201906200030 METAR LRIA 200030Z 18001KT CAVOK 21/16 Q1013=
201906200100 METAR LRIA 200100Z 00000KT CAVOK 21/17 Q1013=
201906200130 METAR LRIA 200130Z 09003KT CAVOK 21/16 Q1013=
201906200200 METAR LRIA 200200Z 08001KT CAVOK 20/16 Q1013=
201906200230 METAR LRIA 200230Z 12002KT CAVOK 19/16 Q1013=
201906200300 METAR LRIA 200300Z 22002KT CAVOK 20/16 Q1013=
201906200330 METAR LRIA 200330Z 00000KT CAVOK 21/17 Q1013=
201906200400 METAR LRIA 200400Z 28004KT CAVOK 21/17 Q1013=
201906200430 METAR LRIA 200430Z 33005KT CAVOK 22/17 Q1013=
201906200500 METAR LRIA 200500Z 28005KT 260V320 CAVOK 22/17 Q1013=
201906200530 METAR LRIA 200530Z 31003KT 260V340 CAVOK 23/18 Q1014=
201906200600 METAR LRIA 200600Z 27003KT 230V320 CAVOK 24/17 Q1014=
201906200630 METAR LRIA 200630Z 28003KT 220V310 CAVOK 25/18 Q1014=
201906200700 METAR LRIA 200700Z VRB02KT CAVOK 27/18 Q1014=
201906200730 METAR LRIA 200730Z 04003KT 340V080 CAVOK 26/18 Q1014=
201906200800 METAR LRIA 200800Z 07004KT 030V110 CAVOK 27/19 Q1014=
201906200830 METAR LRIA 200830Z VRB03KT CAVOK 28/18 Q1013=
201906200900 METAR LRIA 200900Z VRB01KT CAVOK 28/18 Q1013=
201906200930 METAR LRIA 200930Z VRB03KT CAVOK 29/19 Q1013=
201906201000 METAR LRIA 201000Z VRB03KT CAVOK 29/18 Q1013=
201906201030 METAR LRIA 201030Z VRB03KT CAVOK 29/18 Q1013=
201906201100 METAR LRIA 201100Z VRB03KT CAVOK 29/17 Q1013=
201906201130 METAR LRIA 201130Z 08005KT 030V110 CAVOK 29/16 Q1013=
201906201200 METAR LRIA 201200Z 05004KT 320V120 CAVOK 30/17 Q1012=
201906201230 METAR LRIA 201230Z 08005KT 010V150 CAVOK 30/18 Q1012=
201906201300 METAR LRIA 201300Z 06007KT 030V090 CAVOK 30/16 Q1012=
201906201330 METAR LRIA 201330Z 04007KT CAVOK 30/17 Q1012=
201906201400 METAR LRIA 201400Z 07006KT CAVOK 30/18 Q1012=
201906201430 METAR LRIA 201430Z 04007KT CAVOK 30/18 Q1012=
201906201500 METAR LRIA 201500Z 04007KT CAVOK 30/17 Q1012=
201906201530 METAR LRIA 201530Z 04005KT CAVOK 30/18 Q1012=
201906201600 METAR LRIA 201600Z 06004KT CAVOK 29/19 Q1012=
201906201630 METAR LRIA 201630Z 03003KT CAVOK 29/19 Q1012=
201906201700 METAR LRIA 201700Z 35003KT 330V030 CAVOK 28/19 Q1012=
201906201730 METAR LRIA 201730Z 33002KT 9999 FEW055CB 28/18 Q1012=
201906201800 METAR LRIA 201800Z 33003KT 9999 FEW055CB 27/20 Q1012=
201906201830 METAR LRIA 201830Z 32005KT 9999 FEW055CB 25/19 Q1012=
201906201900 METAR LRIA 201900Z 30004KT 9999 FEW055CB 25/20 Q1013=
201906201930 METAR LRIA 201930Z 27009KT 240V300 CAVOK 24/19 Q1013=
201906202000 METAR LRIA 202000Z 30009KT 270V340 CAVOK 24/17 Q1013=
201906202030 METAR LRIA 202030Z 27006KT 220V310 CAVOK 23/17 Q1013=
201906202100 METAR LRIA 202100Z 24005KT CAVOK 22/17 Q1013=
201906202130 METAR LRIA 202130Z 24004KT CAVOK 22/17 Q1013=
201906202200 METAR LRIA 202200Z 25005KT CAVOK 22/17 Q1013=
201906202230 METAR LRIA 202230Z 27006KT CAVOK 22/17 Q1013=
201906202300 METAR LRIA 202300Z 25005KT CAVOK 21/17 Q1013=
201906202330 METAR LRIA 202330Z 25005KT CAVOK 21/17 Q1013=
201906210000 METAR LRIA 210000Z 25004KT 200V280 CAVOK 20/16 Q1013=
201906210030 METAR LRIA 210030Z 25003KT CAVOK 20/16 Q1013=
201906210100 METAR LRIA 210100Z 26004KT CAVOK 20/16 Q1013=
201906210130 METAR LRIA 210130Z 27003KT 240V300 CAVOK 20/16 Q1013=
201906210200 METAR LRIA 210200Z 26003KT CAVOK 19/16 Q1013=
201906210230 METAR LRIA 210230Z 26003KT CAVOK 19/16 Q1013=
201906210300 METAR LRIA 210300Z VRB01KT CAVOK 19/16 Q1013=
201906210330 METAR LRIA 210330Z 25004KT CAVOK 20/16 Q1014=
201906210400 METAR LRIA 210400Z 26004KT CAVOK 21/17 Q1014=
201906210430 METAR LRIA 210430Z 26004KT 240V310 CAVOK 21/17 Q1014=
201906210500 METAR LRIA 210500Z 24003KT 200V270 CAVOK 22/17 Q1014=
201906210530 METAR LRIA 210530Z 23003KT 190V270 CAVOK 23/17 Q1014=
201906210600 METAR LRIA 210600Z 24004KT 210V280 CAVOK 23/18 Q1014=
201906210630 METAR LRIA 210630Z 25004KT 190V300 CAVOK 24/18 Q1014=
201906210700 METAR LRIA 210700Z 22003KT 170V260 CAVOK 24/19 Q1014=
201906210730 METAR LRIA 210730Z 25005KT 180V290 CAVOK 25/19 Q1014=
201906210800 METAR LRIA 210800Z 25005KT 180V290 CAVOK 25/19 Q1014=
201906210830 METAR LRIA 210830Z VRB02KT CAVOK 26/19 Q1014=
201906210900 METAR LRIA 210900Z VRB02KT CAVOK 27/19 Q1014=
201906210930 METAR LRIA 210930Z 22003KT CAVOK 28/19 Q1015=
201906211000 METAR LRIA 211000Z 29003KT CAVOK 28/20 Q1014=
201906211030 METAR LRIA 211030Z 14003KT CAVOK 29/18 Q1014=
201906211100 METAR LRIA 211100Z VRB04KT CAVOK 29/18 Q1014=
201906211130 METAR LRIA 211130Z 19004KT 160V280 9999 FEW038TCU 30/17 Q1014=
201906211200 METAR LRIA 211200Z 25003KT 190V310 9999 BKN038 FEW040CB 29/18
                        Q1014=
201906211230 METAR LRIA 211230Z VRB01KT 9999 -SHRA SCT030 FEW058CB 30/20
                        Q1014=
201906211300 METAR LRIA 211300Z 08004KT 030V110 9999 FEW040CB 29/18 Q1013=
201906211330 METAR LRIA 211330Z 10005KT 060V120 9999 SCT040CB 29/19 Q1013=
201906211400 METAR LRIA 211400Z 16005KT 9999 FEW040CB 28/21 Q1014=
201906211430 METAR LRIA 211430Z 20009KT 170V230 9999 VCTS SCT040CB 26/18
                        Q1014=
201906211500 METAR LRIA 211500Z 23004KT 180V290 9999 TS SCT040CB 25/16
                        Q1014=
201906211530 METAR LRIA 211530Z 27002KT 210V340 9999 SCT040CB 25/16 Q1014=
201906211600 METAR LRIA 211600Z 23003KT 9999 SCT040CB 24/16 Q1014=
201906211630 METAR LRIA 211630Z 23004KT 190V270 9999 FEW040CB 24/17 Q1014=
201906211700 METAR LRIA 211700Z VRB01KT CAVOK 24/17 Q1014=
201906211730 METAR LRIA 211730Z VRB01KT CAVOK 24/17 Q1014=
201906211800 METAR LRIA 211800Z 30002KT CAVOK 23/18 Q1014=
201906211830 METAR LRIA 211830Z VRB02KT CAVOK 23/18 Q1014=
201906211900 METAR LRIA 211900Z 00000KT CAVOK 23/18 Q1014=
201906211930 METAR LRIA 211930Z VRB01KT CAVOK 23/18 Q1014=
201906212000 METAR LRIA 212000Z 11004KT CAVOK 22/18 Q1015=
201906212030 METAR LRIA 212030Z VRB01KT CAVOK 22/18 Q1015=
201906212100 METAR LRIA 212100Z 29003KT CAVOK 20/18 Q1015=
201906212130 METAR COR LRIA 212130Z 00000KT CAVOK 21/18 Q1015=
201906212200 METAR LRIA 212200Z 00000KT CAVOK 21/17 Q1015=
201906212230 METAR LRIA 212230Z VRB01KT CAVOK 21/18 Q1015=
201906212300 METAR LRIA 212300Z 28003KT CAVOK 20/18 Q1015=
201906212330 METAR LRIA 212330Z 31002KT CAVOK 21/18 Q1015=
201906220000 METAR LRIA 220000Z VRB01KT CAVOK 20/18 Q1015=
201906220030 METAR LRIA 220030Z 28003KT CAVOK 20/18 Q1015=
201906220100 METAR LRIA 220100Z 25004KT CAVOK 19/17 Q1015=
201906220130 METAR LRIA 220130Z VRB01KT 8000 NSC 19/17 Q1015=
201906220200 METAR LRIA 220200Z 00000KT 9999 MIFG NSC 19/17 Q1015=
201906220230 METAR LRIA 220230Z 22002KT 9999 MIFG NSC 19/17 Q1015=
201906220300 METAR LRIA 220300Z 23002KT CAVOK 19/17 Q1015=
201906220330 METAR LRIA 220330Z 25004KT CAVOK 20/18 Q1016=
201906220400 METAR LRIA 220400Z 26002KT 8000 FEW003 20/18 Q1016=
201906220430 METAR LRIA 220430Z 24004KT 200V280 9000 BKN004 21/19 Q1016=
201906220500 METAR LRIA 220500Z 24003KT 190V280 9000 BKN004 21/19 Q1016=
201906220530 METAR LRIA 220530Z 25004KT 220V310 9999 BKN006 22/19 Q1016=
201906220600 METAR LRIA 220600Z 26004KT 9999 BKN009 23/19 Q1016=
201906220630 METAR LRIA 220630Z 26005KT 230V290 9999 SCT010 23/19 Q1017=
201906220700 METAR LRIA 220700Z 27006KT 240V310 9999 FEW008 24/20 Q1017=
201906220730 METAR LRIA 220730Z 33006KT 9999 FEW015 24/20 Q1016=
201906220800 METAR LRIA 220800Z 34007KT 9999 FEW018 25/20 Q1017=
201906220830 METAR LRIA 220830Z 29005KT 250V320 9999 FEW020 26/20 Q1017=
201906220900 METAR LRIA 220900Z 31008KT 9999 FEW025 27/20 Q1017=
201906220930 METAR LRIA 220930Z 31006KT 280V360 9999 FEW025 27/19 Q1017=
201906221000 METAR LRIA 221000Z 35006KT 9999 FEW027 28/20 Q1016=
201906221030 METAR LRIA 221030Z 35006KT 300V020 9999 FEW035 28/20 Q1016=
201906221100 METAR LRIA 221100Z 31006KT 260V340 9999 SCT030 29/20 Q1016=
201906221130 METAR LRIA 221130Z 35006KT 320V020 9999 SCT035 28/20 Q1016=
201906221200 METAR LRIA 221200Z 36006KT 300V040 9999 FEW030TCU SCT035
                        30/20 Q1016=
201906221230 METAR LRIA 221230Z 31008KT 9999 FEW033 FEW035CB 29/20 Q1015=
201906221300 METAR LRIA 221300Z 33008KT 9999 FEW033 FEW035CB 29/20 Q1015=
201906221330 METAR LRIA 221330Z 32010KT 9999 FEW030 FEW033CB 28/20 Q1015=
201906221400 METAR LRIA 221400Z 32007KT 9999 FEW033CB 29/20 Q1015=
201906221430 METAR LRIA 221430Z 33009KT 9999 VCTS FEW033CB 28/20 Q1015=
201906221500 METAR LRIA 221500Z 32006KT 9999 VCTS FEW033CB 29/20 Q1015=
201906221530 METAR COR LRIA 221530Z 11028KT 1500 +TSRA SQ BKN040CB 19/15
                        Q1016 R14/29//95=
201906221600 METAR LRIA 221600Z 24007KT 200V270 7000 +SHRA VCTS SCT040CB
                        20/16 Q1016 R14/29//95=
201906221630 METAR LRIA 221630Z 32009KT 9999 -TSRA SCT040CB 21/16 Q1015
                        R14/29//95=
201906221700 METAR LRIA 221700Z 19005KT 090V230 9999 -SHRA SCT040CB 20/17
                        Q1016 R14/29//95=
201906221730 METAR LRIA 221730Z 02003KT 260V070 9999 -SHRA FEW040CB 21/17
                        Q1016 R14/29//95=
201906221800 METAR LRIA 221800Z 29003KT 230V360 9999 -SHRA FEW040CB 21/18
                        Q1016 R14/29//95=
201906221830 METAR LRIA 221830Z 22002KT 190V260 9999 FEW040CB 20/18 Q1016
                        R14/29//95=
201906221900 METAR COR LRIA 221900Z 27004KT 9999 FEW040CB 21/18 Q1016
                        R14/29//95=
201906221930 METAR LRIA 221930Z 27004KT 240V300 CAVOK 21/18 Q1016 R14/29//95=
201906222000 METAR LRIA 222000Z 24003KT 200V270 CAVOK 20/18 Q1016 R14/29//95=
201906222030 METAR COR LRIA 222030Z 27003KT CAVOK 20/18 Q1016 R14/29//95=
201906222100 METAR LRIA 222100Z 29006KT CAVOK 21/18 Q1016 R14/29//95=
201906222130 METAR LRIA 222130Z 28005KT CAVOK 20/18 Q1016 R14/29//95=
201906222200 METAR LRIA 222200Z 30005KT CAVOK 20/18 Q1016 R14/29//95=
201906222230 METAR LRIA 222230Z 29004KT CAVOK 20/18 Q1016 R14/19//95=
201906222300 METAR LRIA 222300Z 29007KT 5000 BR NSC 20/18 Q1016 R14/19//95=
201906222330 METAR COR LRIA 222330Z 30007KT 5000 BR NSC 20/18 Q1016 R14/19//95=
201906230000 METAR COR LRIA 230000Z 29006KT 4700 BR NSC 19/18 Q1016 R14/19//95=
201906230030 METAR COR LRIA 230030Z 25002KT 230V290 3900 BR NSC 19/18
                        Q1016 R14/19//95=
201906230100 METAR LRIA 230100Z AUTO 28004KT 3300 R14/2000 R32/P2000 BR
                        FEW003/// 19/18 Q1016=
201906230130 METAR LRIA 230130Z AUTO 27005KT 3500 R14/2000 R32/P2000 BR
                        FEW003/// 19/18 Q1016=
201906230200 METAR COR LRIA 230200Z 28006KT 3900 BR FEW002 SCT005 19/18
                        Q1016 R14/19//95=
201906230230 METAR LRIA 230230Z 27004KT 230V290 4700 BR FEW002 BKN005
                        19/18 Q1016 R14/19//95=
201906230300 METAR LRIA 230300Z 27003KT 4300 BR BKN004 20/18 Q1016 R14/CLRD//=
201906230330 METAR LRIA 230330Z 26002KT 210V300 4600 BR BKN005 20/18 Q1016=
201906230400 METAR COR LRIA 230400Z 27003KT 240V320 6000 BKN004 20/18
                        Q1016=
201906230430 METAR LRIA 230430Z VRB01KT 9000 BKN004 OVC007 20/18 Q1017=
201906230500 METAR COR LRIA 230500Z 34003KT 290V020 9999 BKN005 OVC006
                        21/18 Q1017=
201906230530 METAR LRIA 230530Z 32003KT 300V360 9999 SCT005 BKN007 21/19
                        Q1017=
201906230600 METAR LRIA 230600Z 29005KT 9999 FEW006 22/18 Q1017=
201906230630 METAR LRIA 230630Z 30006KT 260V330 9999 FEW008 23/18 Q1017=
201906230700 METAR LRIA 230700Z 31006KT 280V350 CAVOK 23/18 Q1016=
201906230730 METAR LRIA 230730Z VRB03KT CAVOK 25/19 Q1016=
201906230800 METAR LRIA 230800Z 33005KT 290V360 CAVOK 25/19 Q1016=
201906230830 METAR LRIA 230830Z 34004KT 290V010 CAVOK 26/20 Q1016=
201906230900 METAR LRIA 230900Z 32005KT 270V020 CAVOK 26/20 Q1016=
201906230930 METAR LRIA 230930Z 33004KT 290V020 CAVOK 27/20 Q1015=
201906231000 METAR LRIA 231000Z 32003KT 240V010 9999 FEW030 28/19 Q1015=
201906231030 METAR LRIA 231030Z 30006KT 270V340 9999 FEW033 28/20 Q1016=
201906231100 METAR LRIA 231100Z 33005KT 280V360 9999 FEW031 28/19 Q1016=
201906231130 METAR LRIA 231130Z 33005KT 300V360 9999 FEW033 29/17 Q1015=
201906231200 METAR LRIA 231200Z VRB04KT 9999 FEW035 29/18 Q1015=
201906231230 METAR LRIA 231230Z 02005KT 330V080 9999 FEW036 29/19 Q1015=
201906231300 METAR LRIA 231300Z 36006KT 290V030 9999 FEW038 29/19 Q1015=
201906231330 METAR LRIA 231330Z 36005KT 310V050 9999 FEW040 29/19 Q1015=
201906231400 METAR LRIA 231400Z 01005KT 330V070 9999 FEW042 FEW045CB 30/21
                        Q1014=
201906231430 METAR LRIA 231430Z 01006KT 320V030 9999 FEW045 FEW048CB 30/19
                        Q1014=
201906231500 METAR LRIA 231500Z 35006KT 320V020 9999 FEW045 FEW050CB 30/20
                        Q1014=
201906231530 METAR LRIA 231530Z 35005KT 320V020 9999 FEW048 FEW050CB 29/19
                        Q1014=
201906231600 METAR LRIA 231600Z 35005KT 9999 FEW050CB 29/19 Q1014=
201906231630 METAR LRIA 231630Z 34005KT 9999 FEW045CB 27/21 Q1014=
201906231700 METAR LRIA 231700Z 02005KT 330V130 9999 SCT045CB 27/21 Q1014=
201906231730 METAR COR LRIA 231730Z 02008KT 290V060 9999 VCTS SCT045CB
                        28/17 Q1015=
201906231800 METAR LRIA 231800Z 09022G32KT 6000 TSRA BKN040CB 22/16 Q1015
                        R14/29//95=
201906231830 METAR LRIA 231830Z 12007KT 100V160 9999 -TSRA BKN045CB 21/15
                        Q1015 RESHRA R14/29//95=
201906231900 METAR COR LRIA 231900Z 26004KT 220V290 9999 -SHRA VCTS SCT045CB
                        20/16 Q1014 RETS R14/29//95=
201906231930 METAR LRIA 231930Z 23004KT 170V290 9999 -SHRA VCTS FEW045CB
                        20/17 Q1015 R14/29//95=
201906232000 METAR LRIA 232000Z 30006KT 9999 -RA FEW045CB 20/17 Q1016
                        R14/29//95=
201906232030 METAR LRIA 232030Z 32009KT 9999 -RA FEW045 20/17 Q1016 R14/29//95=
201906232100 METAR LRIA 232100Z 32008KT 9999 SCT047 20/17 Q1015 R14/29//95=
201906232130 METAR LRIA 232130Z 30008KT 9999 SCT047 21/17 Q1015 R14/29//95=
201906232200 METAR LRIA 232200Z 24003KT 210V350 9999 FEW047 20/17 Q1016
                        R14/29//95=
201906232230 METAR LRIA 232230Z 27003KT 230V300 CAVOK 20/18 Q1016 R14/29//95=
201906232300 METAR LRIA 232300Z 25004KT 220V280 CAVOK 20/18 Q1016 R14/29//95=
201906232330 METAR LRIA 232330Z 28005KT 250V310 CAVOK 20/18 Q1016 R14/29//95=
201906240000 METAR LRIA 240000Z 26004KT CAVOK 20/18 Q1017 R14/29//95=
201906240030 METAR LRIA 240030Z 28002KT CAVOK 20/18 Q1017 R14/19//95=
201906240100 METAR LRIA 240100Z 30002KT CAVOK 20/18 Q1017 R14/19//95=
201906240130 METAR LRIA 240130Z 36007KT CAVOK 20/17 Q1016 R14/19//95=
201906240200 METAR LRIA 240200Z 34008KT CAVOK 19/16 Q1016 R14/19//95=
201906240230 METAR LRIA 240230Z 32005KT CAVOK 19/16 Q1016 R14/19//95=
201906240300 METAR LRIA 240300Z 29002KT CAVOK 20/17 Q1016 R14/19//95=
201906240330 METAR LRIA 240330Z 25005KT CAVOK 20/17 Q1017 R14/19//95=
201906240400 METAR LRIA 240400Z 28004KT 250V320 CAVOK 21/17 Q1017 R14/19//95=
201906240430 METAR LRIA 240430Z 28006KT 9999 FEW009 21/18 Q1017 R14/19//95=
201906240500 METAR LRIA 240500Z 29008KT 9999 FEW010 22/18 Q1017 R14/19//95=
201906240530 METAR LRIA 240530Z 31007KT 270V330 9999 FEW010 22/18 Q1017
                        R14/CLRD//=
201906240600 METAR LRIA 240600Z 31007KT 9999 FEW012 23/18 Q1017=
201906240630 METAR LRIA 240630Z 32006KT 9999 FEW015 23/19 Q1018=
201906240700 METAR LRIA 240700Z 33007KT 270V020 9999 FEW015 24/19 Q1018=
201906240730 METAR LRIA 240730Z 31009KT 280V340 9999 FEW015 25/19 Q1017=
201906240800 METAR LRIA 240800Z 32007KT 280V350 9999 FEW017 25/19 Q1018=
201906240830 METAR LRIA 240830Z 32006KT 270V350 9999 FEW020 26/20 Q1018=
201906240900 METAR LRIA 240900Z 32008KT 300V360 9999 SCT022 26/20 Q1018=
201906240930 METAR LRIA 240930Z 34008KT 9999 FEW028 26/19 Q1018=
201906241000 METAR LRIA 241000Z 32006KT 290V350 9999 FEW028 26/20 Q1018=
201906241030 METAR LRIA 241030Z 32009KT 9999 FEW024 27/20 Q1018=
201906241100 METAR LRIA 241100Z 32009KT 9999 FEW024 27/20 Q1018=
201906241130 METAR LRIA 241130Z 31009KT 280V340 9999 FEW024 FEW040CB 27/20
                        Q1018=
201906241200 METAR LRIA 241200Z 32008KT 9999 FEW030 FEW040CB 28/20 Q1018=
201906241230 METAR LRIA 241230Z AUTO 31007KT 9999 TS FEW200/// 28/20 Q1018=
201906241300 METAR COR LRIA 241300Z 08019KT 2000 +TSRA SCT026 BKN035CB
                        24/18 Q1018 R14/29//95=
201906241330 METAR LRIA 241330Z 19002KT 9999 -TSRA FEW026 BKN035CB 22/17
                        Q1018 R14/29//95=
201906241400 METAR LRIA 241400Z 21003KT 9999 VCTS SCT040CB 22/18 Q1019
                        RETS R14/29//95=
201906241430 METAR LRIA 241430Z 22003KT 200V260 9999 SCT040CB 22/18 Q1018
                        R14/29//95=
201906241500 METAR LRIA 241500Z 21002KT 9999 SCT040CB 22/19 Q1018 R14/29//95=
201906241530 METAR LRIA 241530Z VRB01KT 9999 SCT050CB 23/20 Q1019 R14/19//95=
201906241600 METAR LRIA 241600Z 28003KT 9999 FEW050CB 23/20 Q1019 R14/19//95=
201906241630 METAR LRIA 241630Z 31005KT CAVOK 24/20 Q1019 R14/19//95=
201906241700 METAR LRIA 241700Z VRB03KT CAVOK 23/20 Q1019 R14/19//95=
201906241730 METAR LRIA 241730Z VRB02KT CAVOK 23/20 Q1020 R14/19//95=
201906241800 METAR LRIA 241800Z 23004KT 190V270 CAVOK 22/19 Q1020 R14/19//95=
201906241830 METAR LRIA 241830Z 28005KT CAVOK 22/20 Q1020 R14/19//95=
201906241900 METAR LRIA 241900Z 32004KT CAVOK 22/19 Q1021 R14/19//95=
201906241930 METAR LRIA 241930Z 29004KT 210V360 CAVOK 22/19 Q1021 R14/CLRD//=
201906242000 METAR LRIA 242000Z 27004KT CAVOK 21/19 Q1021=
201906242030 METAR LRIA 242030Z 27004KT CAVOK 21/19 Q1021=
201906242100 METAR LRIA 242100Z 28005KT CAVOK 21/19 Q1021=
201906242130 METAR LRIA 242130Z 28005KT CAVOK 21/18 Q1021=
201906242200 METAR LRIA 242200Z 25004KT 200V300 CAVOK 20/18 Q1021=
201906242230 METAR LRIA 242230Z 24005KT 9999 FEW047CB 20/18 Q1021=
201906242300 METAR LRIA 242300Z 24004KT 9999 FEW050CB 20/18 Q1021=
201906242330 METAR LRIA 242330Z 25004KT CAVOK 20/18 Q1021=
201906250000 METAR LRIA 250000Z 27004KT CAVOK 20/18 Q1021=
201906250030 METAR LRIA 250030Z 24004KT CAVOK 19/18 Q1021=
201906250100 METAR LRIA 250100Z 26003KT CAVOK 19/17 Q1021=
201906250130 METAR LRIA 250130Z 26004KT CAVOK 19/18 Q1021=
201906250200 METAR LRIA 250200Z 26005KT 6000 NSC 19/18 Q1021=
201906250230 METAR LRIA 250230Z 28005KT 4000 NSC 19/18 Q1021=
201906250300 METAR LRIA 250300Z 27004KT 4600 BR FEW007 19/18 Q1022=
201906250330 METAR LRIA 250330Z 28005KT 6000 FEW012 20/18 Q1022=
201906250400 METAR LRIA 250400Z 29004KT 240V320 9999 FEW009 21/19 Q1022=
201906250430 METAR LRIA 250430Z 32007KT 9999 FEW015 22/19 Q1022=
201906250500 METAR LRIA 250500Z 33007KT CAVOK 22/19 Q1022=
201906250530 METAR LRIA 250530Z 33006KT CAVOK 23/19 Q1022=
201906250600 METAR LRIA 250600Z 32007KT CAVOK 24/19 Q1023=
201906250630 METAR LRIA 250630Z 32008KT CAVOK 24/19 Q1023=
201906250700 METAR COR LRIA 250700Z 32006KT 270V350 CAVOK 25/19 Q1023=
201906250730 METAR LRIA 250730Z 34009KT 300V010 CAVOK 26/20 Q1023=
201906250800 METAR LRIA 250800Z 34010KT CAVOK 27/20 Q1023=
201906250830 METAR LRIA 250830Z 36011KT CAVOK 27/20 Q1023=
201906250900 METAR LRIA 250900Z 36011KT 320V020 CAVOK 28/20 Q1023=
201906250930 METAR COR LRIA 250930Z 36011KT 330V030 9999 FEW037 29/19
                        Q1023=
201906251000 METAR LRIA 251000Z 01011KT 9999 SCT039 29/19 Q1023=
201906251030 METAR LRIA 251030Z 01013KT 9999 SCT040 29/18 Q1023=
201906251100 METAR LRIA 251100Z 36012KT 9999 SCT041 29/19 Q1023=
201906251130 METAR COR LRIA 251130Z 01013KT 9999 SCT040 30/19 Q1023=
201906251200 METAR LRIA 251200Z 36014KT 9999 SCT040 30/18 Q1023=
201906251230 METAR LRIA 251230Z 01014KT 9999 SCT045 30/18 Q1023=
201906251300 METAR LRIA 251300Z 36013KT 9999 FEW045 30/18 Q1023=
201906251330 METAR LRIA 251330Z 36014KT 9999 FEW048 30/18 Q1022=
201906251400 METAR COR LRIA 251400Z 36014KT 9999 FEW040 30/17 Q1022=
201906251430 METAR LRIA 251430Z 02012KT CAVOK 29/17 Q1022=
201906251500 METAR LRIA 251500Z 01012KT CAVOK 29/17 Q1022=
201906251530 METAR LRIA 251530Z 01009KT CAVOK 29/17 Q1023=
201906251600 METAR LRIA 251600Z 02011KT CAVOK 28/16 Q1023=
201906251630 METAR LRIA 251630Z 02010KT CAVOK 28/15 Q1024=
201906251700 METAR LRIA 251700Z 02007KT CAVOK 27/15 Q1024=
201906251730 METAR LRIA 251730Z 02007KT CAVOK 25/15 Q1024=
201906251800 METAR LRIA 251800Z 01009KT CAVOK 25/14 Q1024=
201906251830 METAR LRIA 251830Z 01009KT CAVOK 24/14 Q1025=
201906251900 METAR LRIA 251900Z 36010KT CAVOK 24/14 Q1025=
201906251930 METAR LRIA 251930Z 01010KT CAVOK 24/14 Q1025=
201906252000 METAR LRIA 252000Z 01009KT CAVOK 23/14 Q1025=
201906252030 METAR LRIA 252030Z 36009KT CAVOK 23/14 Q1025=
201906252100 METAR LRIA 252100Z 36008KT CAVOK 22/14 Q1025=
201906252130 METAR LRIA 252130Z 36007KT CAVOK 20/15 Q1025=
201906252200 METAR LRIA 252200Z 33009KT CAVOK 19/15 Q1025=
201906252230 METAR LRIA 252230Z 35009KT CAVOK 20/15 Q1025=
201906252300 METAR LRIA 252300Z 29003KT 210V360 CAVOK 19/15 Q1025=
201906252330 METAR LRIA 252330Z 24004KT 210V310 CAVOK 18/15 Q1025=
201906260000 METAR LRIA 260000Z 28004KT CAVOK 18/15 Q1025=
201906260030 METAR LRIA 260030Z 28004KT CAVOK 18/15 Q1025=
201906260100 METAR LRIA 260100Z 27003KT CAVOK 17/15 Q1025=
201906260130 METAR LRIA 260130Z 28004KT CAVOK 18/15 Q1025=
201906260200 METAR LRIA 260200Z 27003KT CAVOK 17/15 Q1025=
201906260230 METAR LRIA 260230Z 28003KT CAVOK 17/14 Q1025=
201906260300 METAR LRIA 260300Z 24003KT CAVOK 17/15 Q1025=
201906260330 METAR LRIA 260330Z 26003KT CAVOK 18/15 Q1025=
201906260400 METAR LRIA 260400Z 27003KT CAVOK 19/16 Q1026=
201906260430 METAR LRIA 260430Z 26003KT CAVOK 19/16 Q1026=
201906260500 METAR LRIA 260500Z 27004KT 240V310 CAVOK 21/16 Q1026=
201906260530 METAR LRIA 260530Z 31004KT 270V340 CAVOK 21/16 Q1026=
201906260600 METAR LRIA 260600Z 30004KT 270V330 CAVOK 22/17 Q1026=
201906260630 METAR LRIA 260630Z 31004KT 280V350 CAVOK 24/15 Q1026=
201906260700 METAR LRIA 260700Z 30004KT 250V350 CAVOK 25/15 Q1026=
201906260730 METAR LRIA 260730Z VRB04KT CAVOK 26/15 Q1026=
201906260800 METAR LRIA 260800Z 01005KT 340V060 CAVOK 26/13 Q1026=
201906260830 METAR LRIA 260830Z 02006KT 350V070 CAVOK 27/13 Q1026=
201906260900 METAR LRIA 260900Z VRB05KT CAVOK 27/14 Q1026=
201906260930 METAR LRIA 260930Z 36007KT 320V040 CAVOK 27/13 Q1025=
201906261000 METAR LRIA 261000Z 01006KT 330V050 CAVOK 27/12 Q1025=
201906261030 METAR LRIA 261030Z 01004KT 330V060 CAVOK 27/12 Q1025=
201906261100 METAR LRIA 261100Z 02007KT 350V050 CAVOK 28/13 Q1025=
201906261130 METAR LRIA 261130Z 03005KT 330V130 CAVOK 28/11 Q1024=
201906261200 METAR LRIA 261200Z 36003KT 300V070 CAVOK 28/11 Q1024=
201906261230 METAR LRIA 261230Z 03005KT 350V080 CAVOK 28/10 Q1024=
201906261300 METAR LRIA 261300Z 02004KT 320V070 CAVOK 29/12 Q1023=
201906261330 METAR LRIA 261330Z 04006KT CAVOK 29/10 Q1023=
201906261400 METAR LRIA 261400Z 05004KT 360V090 CAVOK 29/09 Q1023=
201906261430 METAR LRIA 261430Z 03005KT CAVOK 29/11 Q1022=
201906261500 METAR LRIA 261500Z 04004KT 350V070 CAVOK 29/12 Q1022=
201906261530 METAR LRIA 261530Z 02004KT 330V040 CAVOK 29/11 Q1022=
201906261600 METAR LRIA 261600Z 02003KT CAVOK 28/12 Q1022=
201906261630 METAR LRIA 261630Z 01002KT CAVOK 29/11 Q1021=
201906261700 METAR LRIA 261700Z 00000KT CAVOK 29/14 Q1021=
201906261730 METAR LRIA 261730Z 00000KT CAVOK 27/13 Q1021=
201906261800 METAR LRIA 261800Z 00000KT CAVOK 26/13 Q1021=
201906261830 METAR LRIA 261830Z 26003KT CAVOK 24/14 Q1021=
201906261900 METAR LRIA 261900Z 23003KT CAVOK 24/14 Q1021=
201906261930 METAR LRIA 261930Z 00000KT CAVOK 23/14 Q1021=
201906262000 METAR LRIA 262000Z 00000KT CAVOK 22/15 Q1021=
201906262030 METAR LRIA 262030Z 24002KT CAVOK 22/15 Q1021=
201906262100 METAR LRIA 262100Z 26002KT CAVOK 20/15 Q1021=
201906262130 METAR LRIA 262130Z 29003KT CAVOK 20/15 Q1020=
201906262200 METAR LRIA 262200Z 24003KT CAVOK 18/15 Q1020=
201906262230 METAR COR LRIA 262230Z 00000KT CAVOK 19/15 Q1020=
201906262300 METAR LRIA 262300Z 00000KT CAVOK 19/14 Q1019=
201906262330 METAR COR LRIA 262330Z 00000KT CAVOK 19/14 Q1019=
201906270000 METAR COR LRIA 270000Z 00000KT CAVOK 18/14 Q1019=
201906270030 METAR LRIA 270030Z 00000KT CAVOK 18/14 Q1019=
201906270100 METAR COR LRIA 270100Z 00000KT CAVOK 18/13 Q1019=
201906270130 METAR COR LRIA 270130Z 00000KT CAVOK 17/13 Q1018=
201906270200 METAR COR LRIA 270200Z 00000KT CAVOK 17/14 Q1018=
201906270230 METAR COR LRIA 270230Z 00000KT CAVOK 17/13 Q1018=
201906270300 METAR COR LRIA 270300Z 00000KT CAVOK 17/14 Q1018=
201906270330 METAR COR LRIA 270330Z 00000KT CAVOK 19/14 Q1017=
201906270400 METAR LRIA 270400Z 00000KT CAVOK 20/14 Q1017=
201906270430 METAR LRIA 270430Z 00000KT CAVOK 21/15 Q1017=
201906270500 METAR LRIA 270500Z 17003KT CAVOK 21/15 Q1017=
201906270530 METAR LRIA 270530Z 17003KT 130V200 CAVOK 22/15 Q1016=
201906270600 METAR LRIA 270600Z 17004KT 140V210 CAVOK 24/15 Q1016=
201906270630 METAR LRIA 270630Z 22004KT 120V260 CAVOK 25/15 Q1016=
201906270700 METAR LRIA 270700Z 25005KT 210V280 CAVOK 26/16 Q1015=
201906270730 METAR LRIA 270730Z 27006KT 230V300 CAVOK 27/17 Q1015=
201906270800 METAR LRIA 270800Z 26006KT 240V310 CAVOK 28/17 Q1015=
201906270830 METAR LRIA 270830Z 27006KT 230V310 CAVOK 28/17 Q1014=
201906270900 METAR LRIA 270900Z 24004KT 170V290 CAVOK 29/17 Q1014=
201906270930 METAR LRIA 270930Z VRB03KT CAVOK 30/18 Q1014=
201906271000 METAR LRIA 271000Z 23004KT 190V270 CAVOK 31/17 Q1013=
201906271030 METAR LRIA 271030Z 25006KT 190V290 CAVOK 31/17 Q1012=
201906271100 METAR LRIA 271100Z 24006KT 160V280 CAVOK 31/18 Q1012=
201906271130 METAR LRIA 271130Z 26006KT 160V310 CAVOK 32/17 Q1011=
201906271200 METAR LRIA 271200Z 26006KT 230V290 CAVOK 32/17 Q1011=
201906271230 METAR LRIA 271230Z 23003KT 130V300 9999 FEW050CB 33/17 Q1011=
201906271300 METAR LRIA 271300Z 34012KT 9999 -SHRA VCTS FEW050CB 26/18
                        Q1010=
201906271330 METAR LRIA 271330Z 25007KT 180V280 9999 TS FEW045CB 24/19
                        Q1011 R14/29//95=
201906271400 METAR LRIA 271400Z 18005KT 150V210 9999 VCTS FEW043CB 23/18
                        Q1010 R14/29//95=
201906271430 METAR LRIA 271430Z 22007KT 9999 -SHRA FEW045CB 23/18 Q1011
                        R14/29//95=
201906271500 METAR LRIA 271500Z 24004KT 9999 FEW035 FEW046CB 24/19 Q1011
                        R14/CLRD//=
201906271530 METAR LRIA 271530Z 23004KT 190V290 9999 FEW032 FEW050CB 24/20
                        Q1011=
201906271600 METAR LRIA 271600Z 28009KT 240V310 9999 -SHRA SCT045CB 24/18
                        Q1011 R14/29//95=
201906271630 METAR LRIA 271630Z 20005KT 9999 FEW030 FEW045CB 22/18 Q1011
                        R14/29//95=
201906271700 METAR LRIA 271700Z 27005KT 230V290 9999 -RA SCT047 22/18
                        Q1011 R14/29//95=
201906271730 METAR LRIA 271730Z 22002KT 9999 FEW030 22/19 Q1011 R14/29//95=
201906271800 METAR LRIA 271800Z 26005KT 9999 FEW047 22/18 Q1011 R14/29//95=
201906271830 METAR LRIA 271830Z 31004KT 210V360 9999 SCT047 21/17 Q1011
                        R14/19//95=
201906271900 METAR LRIA 271900Z 29003KT 240V360 9999 FEW047 21/17 Q1011
                        R14/19//95=
201906271930 METAR LRIA 271930Z 29005KT 9999 FEW047 21/16 Q1011 R14/19//95=
201906272000 METAR LRIA 272000Z 29008KT CAVOK 21/16 Q1011 R14/CLRD//=
201906272030 METAR LRIA 272030Z 29007KT CAVOK 21/16 Q1011=
201906272100 METAR LRIA 272100Z 29006KT CAVOK 20/17 Q1011=
201906272130 METAR LRIA 272130Z 30007KT CAVOK 20/17 Q1011=
201906272200 METAR LRIA 272200Z 32009KT CAVOK 21/17 Q1011=
201906272230 METAR LRIA 272230Z 32008KT CAVOK 20/16 Q1012=
201906272300 METAR LRIA 272300Z 31007KT CAVOK 20/16 Q1012=
201906272330 METAR LRIA 272330Z 30008KT CAVOK 19/15 Q1012=
201906280000 METAR LRIA 280000Z 32010KT CAVOK 19/14 Q1011=
201906280030 METAR LRIA 280030Z 32010KT CAVOK 19/13 Q1011=
201906280100 METAR LRIA 280100Z 33008KT CAVOK 18/13 Q1011=
201906280130 METAR LRIA 280130Z 32008KT CAVOK 18/12 Q1012=
201906280200 METAR LRIA 280200Z 32007KT CAVOK 17/12 Q1012=
201906280230 METAR LRIA 280230Z 32012KT CAVOK 18/12 Q1012=
201906280300 METAR LRIA 280300Z 32011KT CAVOK 17/12 Q1012=
201906280330 METAR LRIA 280330Z 33013KT CAVOK 18/12 Q1013=
201906280400 METAR LRIA 280400Z 33012KT CAVOK 18/12 Q1013=
201906280430 METAR LRIA 280430Z 32012KT CAVOK 18/12 Q1013=
201906280500 METAR LRIA 280500Z 32010KT CAVOK 18/13 Q1013=
201906280530 METAR LRIA 280530Z 32013KT CAVOK 20/13 Q1013=
201906280600 METAR LRIA 280600Z 32013KT CAVOK 20/12 Q1013=
201906280630 METAR LRIA 280630Z 31014KT 280V340 9999 FEW027 20/12 Q1013=
201906280700 METAR LRIA 280700Z 31015KT 280V340 9999 FEW034 20/12 Q1013=
201906280730 METAR LRIA 280730Z 32015KT 290V350 9999 FEW032 21/12 Q1013=
201906280800 METAR COR LRIA 280800Z 31015KT 9999 FEW032 20/10 Q1013=
201906280830 METAR LRIA 280830Z 31016KT 280V340 9999 FEW039 21/09 Q1013=
201906280900 METAR LRIA 280900Z 33018G28KT 9999 FEW046 21/08 Q1013=
201906280930 METAR LRIA 280930Z 33016KT 9999 FEW040 22/09 Q1013=
201906281000 METAR LRIA 281000Z 32015KT 290V350 9999 FEW045 22/09 Q1013=
201906281030 METAR LRIA 281030Z 33015KT 9999 FEW045 22/08 Q1013=
201906281100 METAR LRIA 281100Z 31016KT 280V340 CAVOK 22/09 Q1013=
201906281130 METAR LRIA 281130Z 31014KT CAVOK 22/09 Q1013=
201906281200 METAR LRIA 281200Z 32015KT CAVOK 23/08 Q1013=
201906281230 METAR COR LRIA 281230Z 32015KT CAVOK 23/07 Q1013=
201906281300 METAR LRIA 281300Z 33012KT CAVOK 23/07 Q1013=
201906281330 METAR LRIA 281330Z 33015KT CAVOK 23/07 Q1013=
201906281400 METAR LRIA 281400Z 32015KT CAVOK 22/07 Q1013=
201906281430 METAR LRIA 281430Z 33015KT CAVOK 23/07 Q1013=
201906281500 METAR LRIA 281500Z 32014KT CAVOK 22/06 Q1013=
201906281530 METAR LRIA 281530Z 32015KT CAVOK 22/06 Q1014=
201906281600 METAR LRIA 281600Z 32013KT CAVOK 21/06 Q1014=
201906281630 METAR LRIA 281630Z 33012KT CAVOK 22/06 Q1014=
201906281700 METAR LRIA 281700Z 33011KT CAVOK 21/07 Q1014=
201906281730 METAR LRIA 281730Z 33009KT CAVOK 20/07 Q1015=
201906281800 METAR LRIA 281800Z 34010KT CAVOK 19/06 Q1015=
201906281830 METAR LRIA 281830Z 33004KT CAVOK 18/07 Q1015=
201906281900 METAR LRIA 281900Z 32003KT CAVOK 17/07 Q1016=
201906281930 METAR LRIA 281930Z 31005KT CAVOK 16/07 Q1016=
201906282000 METAR LRIA 282000Z 27004KT CAVOK 15/07 Q1016=
201906282030 METAR LRIA 282030Z 27005KT CAVOK 14/08 Q1016=
201906282100 METAR LRIA 282100Z 27005KT CAVOK 15/07 Q1016=
201906282130 METAR LRIA 282130Z 28006KT CAVOK 14/07 Q1016=
201906282200 METAR LRIA 282200Z 28005KT CAVOK 14/07 Q1016=
201906282230 METAR LRIA 282230Z 30007KT CAVOK 14/07 Q1016=
201906282300 METAR LRIA 282300Z 29007KT CAVOK 14/07 Q1016=
201906282330 METAR LRIA 282330Z 29006KT CAVOK 14/07 Q1016=
201906290000 METAR LRIA 290000Z 30006KT CAVOK 13/08 Q1016=
201906290030 METAR LRIA 290030Z 31007KT CAVOK 14/08 Q1016=
201906290100 METAR LRIA 290100Z 29006KT CAVOK 13/08 Q1016=
201906290130 METAR LRIA 290130Z 29007KT CAVOK 14/08 Q1016=
201906290200 METAR LRIA 290200Z 28007KT CAVOK 13/08 Q1016=
201906290230 METAR LRIA 290230Z 29006KT CAVOK 13/08 Q1016=
201906290300 METAR LRIA 290300Z 28005KT CAVOK 13/08 Q1016=
201906290330 METAR LRIA 290330Z 26005KT CAVOK 14/09 Q1016=
201906290400 METAR LRIA 290400Z 27005KT 250V310 CAVOK 14/09 Q1017=
201906290430 METAR LRIA 290430Z 29009KT CAVOK 15/09 Q1016=
201906290500 METAR LRIA 290500Z 29011KT CAVOK 16/09 Q1017=
201906290530 METAR LRIA 290530Z 31010KT CAVOK 17/09 Q1017=
201906290600 METAR LRIA 290600Z 31008KT 270V330 CAVOK 17/09 Q1017=
201906290630 METAR LRIA 290630Z 32008KT CAVOK 19/09 Q1017=
201906290700 METAR LRIA 290700Z 31008KT CAVOK 20/09 Q1017=
201906290730 METAR LRIA 290730Z 33007KT CAVOK 21/10 Q1017=
201906290800 METAR LRIA 290800Z 31008KT 280V340 CAVOK 21/07 Q1017=
201906290830 METAR LRIA 290830Z 32008KT 9999 FEW045 22/08 Q1016=
201906290900 METAR LRIA 290900Z 31012KT 270V350 CAVOK 21/07 Q1016=
201906290930 METAR LRIA 290930Z 32013KT CAVOK 22/08 Q1016=
201906291000 METAR LRIA 291000Z 31011KT 280V340 CAVOK 21/08 Q1016=
201906291030 METAR LRIA 291030Z 30015KT 270V330 CAVOK 21/06 Q1016=
201906291100 METAR LRIA 291100Z 33014KT 280V350 CAVOK 23/08 Q1016=
201906291130 METAR LRIA 291130Z 32016KT CAVOK 23/08 Q1016=
201906291200 METAR LRIA 291200Z 32015KT CAVOK 22/07 Q1016=
201906291230 METAR LRIA 291230Z 32013KT CAVOK 22/08 Q1016=
201906291300 METAR LRIA 291300Z 32016KT CAVOK 22/06 Q1016=
201906291330 METAR LRIA 291330Z 32015KT CAVOK 22/06 Q1016=
201906291400 METAR LRIA 291400Z 31015KT 280V340 CAVOK 22/05 Q1016=
201906291430 METAR LRIA 291430Z 32016KT 290V350 CAVOK 22/06 Q1016=
201906291500 METAR LRIA 291500Z 32014KT CAVOK 22/05 Q1016=
201906291530 METAR LRIA 291530Z 32012KT CAVOK 22/05 Q1016=
201906291600 METAR LRIA 291600Z 33011KT CAVOK 21/06 Q1016=
201906291630 METAR LRIA 291630Z 31009KT CAVOK 21/06 Q1016=
201906291700 METAR LRIA 291700Z 33010KT CAVOK 21/06 Q1016=
201906291730 METAR LRIA 291730Z 33010KT CAVOK 20/06 Q1017=
201906291800 METAR LRIA 291800Z 33005KT CAVOK 19/06 Q1017=
201906291830 METAR COR LRIA 291830Z 32004KT CAVOK 18/07 Q1017=
201906291900 METAR LRIA 291900Z AUTO 30003KT 9999 FEW100/// SCT190///
                        18/06 Q1017=
201906291930 METAR LRIA 291930Z 28004KT CAVOK 17/08 Q1017=
201906292000 METAR LRIA 292000Z 31006KT 9999 -RA NSC 18/08 Q1017=
201906292030 METAR LRIA 292030Z 30007KT CAVOK 18/09 Q1017 RERA=
201906292100 METAR LRIA 292100Z 32004KT CAVOK 18/10 Q1017=
201906292130 METAR LRIA 292130Z 30004KT CAVOK 18/10 Q1017=
201906292200 METAR LRIA 292200Z 33003KT 290V020 CAVOK 17/11 Q1017=
201906292230 METAR LRIA 292230Z 33005KT 300V010 CAVOK 17/11 Q1017=
201906292300 METAR LRIA 292300Z 30008KT CAVOK 17/11 Q1017=
201906292330 METAR LRIA 292330Z 30006KT CAVOK 16/12 Q1017=
201906300000 METAR COR LRIA 300000Z 30008KT CAVOK 16/12 Q1017=
201906300030 METAR COR LRIA 300030Z 30006KT CAVOK 16/12 Q1017=
201906300100 METAR LRIA 300100Z AUTO 30006KT 9999 OVC089/// 16/12 Q1017=
201906300130 METAR LRIA 300130Z AUTO 30007KT 9999 FEW074/// BKN094///
                        16/12 Q1017=
201906300200 METAR LRIA 300200Z 30007KT CAVOK 16/12 Q1018=
201906300230 METAR LRIA 300230Z 31006KT CAVOK 16/12 Q1018=
201906300300 METAR COR LRIA 300300Z 31005KT CAVOK 16/12 Q1018=
201906300330 METAR LRIA 300330Z 32005KT CAVOK 17/12 Q1018=
201906300400 METAR LRIA 300400Z 30003KT CAVOK 17/12 Q1018=
201906300430 METAR LRIA 300430Z 26002KT CAVOK 17/13 Q1018=
201906300500 METAR LRIA 300500Z 27003KT 240V310 CAVOK 18/13 Q1018=
201906300530 METAR LRIA 300530Z 32004KT CAVOK 18/12 Q1019=
201906300600 METAR LRIA 300600Z 33004KT 290V360 CAVOK 19/11 Q1019=
201906300630 METAR LRIA 300630Z 34004KT 280V010 CAVOK 20/10 Q1019=
201906300700 METAR LRIA 300700Z 31003KT 230V040 CAVOK 21/08 Q1019=
201906300730 METAR LRIA 300730Z VRB03KT CAVOK 22/10 Q1019=
201906300800 METAR LRIA 300800Z 23003KT 170V300 CAVOK 22/10 Q1019=
201906300830 METAR LRIA 300830Z 29007KT 240V340 CAVOK 23/08 Q1019=
201906300900 METAR LRIA 300900Z 29006KT 260V320 CAVOK 24/10 Q1019=
201906300930 METAR LRIA 300930Z 32004KT 240V030 CAVOK 24/11 Q1019=
201906301000 METAR LRIA 301000Z 30008KT CAVOK 25/11 Q1019=
201906301030 METAR LRIA 301030Z 28008KT CAVOK 26/11 Q1018=
201906301100 METAR LRIA 301100Z 29006KT 240V320 CAVOK 26/12 Q1018=
201906301130 METAR LRIA 301130Z 28009KT 250V310 CAVOK 26/12 Q1018=
201906301200 METAR LRIA 301200Z 32009KT 290V350 CAVOK 26/12 Q1018=
201906301230 METAR LRIA 301230Z 31009KT 280V360 CAVOK 26/12 Q1018=
201906301300 METAR LRIA 301300Z 32011KT CAVOK 27/12 Q1017=
201906301330 METAR LRIA 301330Z 30011KT CAVOK 28/11 Q1017=
201906301400 METAR LRIA 301400Z 31009KT 280V350 CAVOK 28/12 Q1017=
201906301430 METAR LRIA 301430Z 31010KT CAVOK 28/11 Q1017=
201906301500 METAR LRIA 301500Z 30009KT CAVOK 28/11 Q1016=
201906301530 METAR LRIA 301530Z 30008KT CAVOK 28/12 Q1016=
201906301600 METAR LRIA 301600Z 31008KT CAVOK 28/12 Q1016=
201906301630 METAR LRIA 301630Z 28005KT CAVOK 27/13 Q1016=
201906301700 METAR LRIA 301700Z 28003KT CAVOK 27/14 Q1016=
201906301730 METAR LRIA 301730Z 28003KT CAVOK 26/13 Q1016=
201906301800 METAR LRIA 301800Z 25003KT CAVOK 25/13 Q1016=
201906301830 METAR LRIA 301830Z 26002KT CAVOK 25/13 Q1016=
201906301900 METAR LRIA 301900Z 26002KT CAVOK 23/13 Q1016=
201906301930 METAR LRIA 301930Z 23002KT CAVOK 24/13 Q1016=
201906302000 METAR LRIA 302000Z 23003KT CAVOK 23/14 Q1017=
201906302030 METAR LRIA 302030Z 23004KT CAVOK 22/14 Q1017=
201906302100 METAR LRIA 302100Z 24004KT CAVOK 21/14 Q1017=
201906302130 METAR LRIA 302130Z 26005KT CAVOK 20/14 Q1017=
201906302200 METAR LRIA 302200Z 29004KT CAVOK 21/13 Q1017=
201906302230 METAR LRIA 302230Z 27003KT CAVOK 21/14 Q1017=
201906302300 METAR LRIA 302300Z 24004KT CAVOK 19/14 Q1017=
201906302330 METAR LRIA 302330Z 24005KT CAVOK 19/14 Q1017=
