201907010000 METAR LRIA 010000Z 24005KT CAVOK 19/14 Q1017=
201907010030 METAR LRIA 010030Z 25005KT CAVOK 20/14 Q1017=
201907010100 METAR LRIA 010100Z 26003KT CAVOK 20/14 Q1017=
201907010130 METAR LRIA 010130Z VRB01KT CAVOK 20/14 Q1017=
201907010200 METAR LRIA 010200Z 26004KT CAVOK 19/14 Q1017=
201907010230 METAR LRIA 010230Z 24003KT CAVOK 19/14 Q1017=
201907010300 METAR LRIA 010300Z 25004KT CAVOK 20/14 Q1017=
201907010330 METAR LRIA 010330Z 25003KT CAVOK 20/15 Q1017=
201907010400 METAR LRIA 010400Z 27003KT 240V300 CAVOK 21/15 Q1017=
201907010430 METAR LRIA 010430Z 24002KT CAVOK 22/14 Q1017=
201907010500 METAR LRIA 010500Z 20002KT CAVOK 23/15 Q1017=
201907010530 METAR LRIA 010530Z 24004KT CAVOK 24/14 Q1017=
201907010600 METAR LRIA 010600Z 27004KT 230V300 CAVOK 25/15 Q1017=
201907010630 METAR LRIA 010630Z 24004KT 190V270 CAVOK 26/15 Q1017=
201907010700 METAR LRIA 010700Z 23004KT 200V320 CAVOK 27/15 Q1017=
201907010730 METAR COR LRIA 010730Z 26004KT 190V290 CAVOK 28/15 Q1017=
201907010800 METAR LRIA 010800Z 22004KT CAVOK 29/16 Q1017=
201907010830 METAR LRIA 010830Z 22004KT 170V290 CAVOK 29/16 Q1017=
201907010900 METAR LRIA 010900Z AUTO 19006KT 110V230 9999 NCD 30/16 Q1016=
201907010930 METAR LRIA 010930Z 20006KT 140V260 CAVOK 30/16 Q1016=
201907011000 METAR LRIA 011000Z 20006KT 150V260 CAVOK 31/16 Q1016=
201907011030 METAR LRIA 011030Z 19006KT 150V230 CAVOK 31/17 Q1016=
201907011100 METAR LRIA 011100Z 20008KT 160V240 CAVOK 31/16 Q1016=
201907011130 METAR LRIA 011130Z 22006KT 170V280 CAVOK 31/16 Q1015=
201907011200 METAR LRIA 011200Z 19007KT 150V220 CAVOK 31/17 Q1015=
201907011230 METAR LRIA 011230Z 19008KT 150V210 CAVOK 32/16 Q1015=
201907011300 METAR LRIA 011300Z 19007KT 170V230 CAVOK 32/16 Q1015=
201907011330 METAR LRIA 011330Z 19008KT 160V240 CAVOK 32/16 Q1014=
201907011400 METAR LRIA 011400Z 21006KT CAVOK 32/16 Q1014=
201907011430 METAR COR LRIA 011430Z 19007KT 150V230 CAVOK 32/16 Q1014=
201907011500 METAR LRIA 011500Z 20006KT 150V240 CAVOK 32/16 Q1013=
201907011530 METAR LRIA 011530Z 20006KT 170V230 CAVOK 32/16 Q1013=
201907011600 METAR LRIA 011600Z 18004KT 150V210 CAVOK 31/17 Q1013=
201907011630 METAR LRIA 011630Z 18005KT CAVOK 30/17 Q1013=
201907011700 METAR LRIA 011700Z 18005KT CAVOK 30/18 Q1013=
201907011730 METAR LRIA 011730Z 17004KT CAVOK 29/18 Q1013=
201907011800 METAR LRIA 011800Z 17004KT CAVOK 28/18 Q1013=
201907011830 METAR LRIA 011830Z 16004KT CAVOK 28/18 Q1013=
201907011900 METAR LRIA 011900Z 17002KT CAVOK 28/17 Q1013=
201907011930 METAR LRIA 011930Z 18003KT CAVOK 27/17 Q1013=
201907012000 METAR LRIA 012000Z 18003KT CAVOK 27/17 Q1013=
201907012030 METAR LRIA 012030Z 12002KT CAVOK 26/17 Q1013=
201907012100 METAR LRIA 012100Z 13003KT 100V160 CAVOK 26/18 Q1013=
201907012130 METAR LRIA 012130Z 19003KT 160V230 CAVOK 25/17 Q1013=
201907012200 METAR LRIA 012200Z 00000KT CAVOK 25/18 Q1013=
201907012230 METAR LRIA 012230Z 20003KT CAVOK 24/18 Q1013=
201907012300 METAR LRIA 012300Z 22004KT CAVOK 24/18 Q1013=
201907012330 METAR LRIA 012330Z 27002KT CAVOK 25/17 Q1013=
201907020000 METAR LRIA 020000Z 28002KT CAVOK 24/16 Q1013=
201907020030 METAR LRIA 020030Z 34002KT CAVOK 24/15 Q1013=
201907020100 METAR LRIA 020100Z 28004KT CAVOK 23/15 Q1013=
201907020130 METAR LRIA 020130Z 30003KT CAVOK 21/15 Q1013=
201907020200 METAR LRIA 020200Z 27004KT CAVOK 21/16 Q1013=
201907020230 METAR LRIA 020230Z 29004KT CAVOK 20/16 Q1013=
201907020300 METAR LRIA 020300Z 00000KT CAVOK 20/15 Q1013=
201907020330 METAR LRIA 020330Z 22002KT CAVOK 20/16 Q1013=
201907020400 METAR LRIA 020400Z 22003KT CAVOK 21/17 Q1013=
201907020430 METAR LRIA 020430Z 27002KT CAVOK 23/16 Q1013=
201907020500 METAR LRIA 020500Z 25003KT CAVOK 24/18 Q1013=
201907020530 METAR LRIA 020530Z 23003KT 200V260 CAVOK 26/17 Q1013=
201907020600 METAR LRIA 020600Z VRB02KT CAVOK 27/18 Q1013=
201907020630 METAR LRIA 020630Z 22004KT 160V240 CAVOK 27/16 Q1013=
201907020700 METAR LRIA 020700Z 24004KT CAVOK 28/15 Q1013=
201907020730 METAR LRIA 020730Z 27003KT 200V320 CAVOK 29/16 Q1013=
201907020800 METAR LRIA 020800Z VRB02KT CAVOK 31/17 Q1013=
201907020830 METAR LRIA 020830Z 32003KT 270V080 CAVOK 31/17 Q1013=
201907020900 METAR LRIA 020900Z VRB01KT CAVOK 32/18 Q1013=
201907020930 METAR LRIA 020930Z VRB04KT CAVOK 31/18 Q1012=
201907021000 METAR LRIA 021000Z VRB03KT CAVOK 32/16 Q1012=
201907021030 METAR LRIA 021030Z 06004KT 340V100 CAVOK 32/17 Q1012=
201907021100 METAR LRIA 021100Z 09005KT 060V140 CAVOK 32/17 Q1012=
201907021130 METAR LRIA 021130Z 15005KT 110V200 CAVOK 33/18 Q1011=
201907021200 METAR LRIA 021200Z 11006KT 070V150 CAVOK 33/18 Q1012=
201907021230 METAR LRIA 021230Z 03005KT 360V060 CAVOK 32/18 Q1012=
201907021300 METAR LRIA 021300Z 34020KT CAVOK 27/15 Q1012=
201907021330 METAR LRIA 021330Z 34016KT CAVOK 29/15 Q1012=
201907021400 METAR LRIA 021400Z 34012KT CAVOK 29/15 Q1012=
201907021430 METAR LRIA 021430Z 35009KT CAVOK 29/16 Q1012=
201907021500 METAR LRIA 021500Z 02007KT CAVOK 29/17 Q1012=
201907021530 METAR LRIA 021530Z 01008KT CAVOK 28/16 Q1013=
201907021600 METAR LRIA 021600Z 01009KT CAVOK 27/15 Q1013=
201907021630 METAR LRIA 021630Z 36009KT CAVOK 27/15 Q1013=
201907021700 METAR COR LRIA 021700Z 34008KT CAVOK 25/15 Q1013=
201907021730 METAR LRIA 021730Z 33005KT CAVOK 24/16 Q1013=
201907021800 METAR LRIA 021800Z 33005KT CAVOK 23/16 Q1013=
201907021830 METAR LRIA 021830Z VRB01KT 9999 FEW050CB 23/16 Q1013=
201907021900 METAR COR LRIA 021900Z 34009KT 290V010 9999 TS SCT050CB 23/17
                        Q1014=
201907021930 METAR LRIA 021930Z VRB03KT 9999 VCTS SCT050CB 21/16 Q1014=
201907022000 METAR LRIA 022000Z 13002KT 9999 VCTS SCT050CB 21/16 Q1014=
201907022030 METAR LRIA 022030Z 28004KT 250V320 9999 -TSRA SCT050CB 21/16
                        Q1014=
201907022100 METAR COR LRIA 022100Z 25005KT 220V290 9999 TS FEW055CB 20/17
                        Q1014 R14/29//95=
201907022130 METAR LRIA 022130Z 27005KT 9999 FEW050CB 20/17 Q1014 RERA
                        R14/29//95=
201907022200 METAR LRIA 022200Z 32003KT CAVOK 20/17 Q1014 R14/29//95=
201907022230 METAR LRIA 022230Z 31006KT CAVOK 19/17 Q1014 R14/29//95=
201907022300 METAR COR LRIA 022300Z 29003KT CAVOK 19/17 Q1014 R14/29//95=
201907022330 METAR COR LRIA 022330Z 30004KT 260V320 CAVOK 19/16 Q1014
                        R14/29//95=
201907030000 METAR COR LRIA 030000Z 25002KT 200V280 CAVOK 18/17 Q1014
                        R14/29//95=
201907030030 METAR LRIA 030030Z AUTO 21002KT 9999 NCD 19/17 Q1014=
201907030100 METAR LRIA 030100Z 25003KT 220V290 CAVOK 19/17 Q1014 R14/29//95=
201907030130 METAR COR LRIA 030130Z VRB01KT CAVOK 19/17 Q1014 R14/29//95=
201907030200 METAR LRIA 030200Z 27003KT CAVOK 18/16 Q1014 R14/29//95=
201907030230 METAR LRIA 030230Z 28003KT CAVOK 18/16 Q1014 R14/19//95=
201907030300 METAR COR LRIA 030300Z 26004KT CAVOK 19/17 Q1014 R14/19//95=
201907030330 METAR LRIA 030330Z 26004KT CAVOK 19/17 Q1015 R14/19//95=
201907030400 METAR LRIA 030400Z 25004KT CAVOK 19/17 Q1015 R14/19//95=
201907030430 METAR LRIA 030430Z 27005KT CAVOK 20/18 Q1015 R14/19//95=
201907030500 METAR LRIA 030500Z 29005KT 9999 FEW035CB 20/18 Q1015 R14/19//95=
201907030530 METAR LRIA 030530Z 33006KT 9999 FEW018 FEW045CB 21/19 Q1015
                        R14/19//95=
201907030600 METAR LRIA 030600Z 35009KT 9999 FEW007 22/19 Q1015 R14/19//95=
201907030630 METAR LRIA 030630Z 01009KT 9999 FEW007 SCT009 21/17 Q1015
                        R14/19//95=
201907030700 METAR LRIA 030700Z 33007KT 9999 FEW045CB BKN021 21/17 Q1016
                        R14/19//95=
201907030730 METAR LRIA 030730Z 33014KT 9999 -RA FEW045CB SCT023 BKN029
                        19/16 Q1017 R14/CLRD//=
201907030800 METAR LRIA 030800Z 05009KT 9999 SHRA FEW031 FEW045CB 20/16
                        Q1015 R14/19//95=
201907030830 METAR LRIA 030830Z 06003KT 020V140 9999 FEW035 FEW045CB 22/18
                        Q1015 R14/19//95=
201907030900 METAR LRIA 030900Z 30005KT 260V350 9999 FEW023 22/18 Q1016
                        R14/19//95=
201907030930 METAR LRIA 030930Z 33005KT 9999 FEW047 21/17 Q1016 R14/19//95=
201907031000 METAR LRIA 031000Z 30006KT 270V330 9999 -RA FEW050CB 20/17
                        Q1016 R14/19//95=
201907031030 METAR LRIA 031030Z 30009KT 9999 -SHRA VCTS FEW054CB 20/16
                        Q1017 R14/19//95=
201907031100 METAR LRIA 031100Z 29004KT 240V310 8000 RA FEW004 FEW045CB
                        19/16 Q1016 R14/19//95=
201907031130 METAR LRIA 031130Z 23003KT 170V270 5000 RA VCTS FEW004 SCT040CB
                        18/16 Q1017 R14/29//95=
201907031200 METAR LRIA 031200Z 24004KT 8000 -RA FEW004 SCT040CB 17/16
                        Q1016 R14/29//95=
201907031230 METAR LRIA 031230Z 17002KT 130V210 9999 -RA FEW005 FEW040CB
                        18/16 Q1015 R14/29//95=
201907031300 METAR LRIA 031300Z 34007KT 320V020 9999 -RA SCT023 FEW050CB
                        19/17 Q1015 R14/29//95=
201907031330 METAR LRIA 031330Z 31007KT 9999 FEW006 SCT024 FEW045CB 20/16
                        Q1015 R14/29//95=
201907031400 METAR LRIA 031400Z 31004KT 9999 FEW027 21/16 Q1015 R14/29//95=
201907031430 METAR LRIA 031430Z 29007KT 9999 FEW027 22/15 Q1015 R14/29//95=
201907031500 METAR LRIA 031500Z 31007KT 280V340 CAVOK 22/15 Q1015 R14/29//95=
201907031530 METAR LRIA 031530Z 30005KT 260V330 CAVOK 22/16 Q1015 R14/29//95=
201907031600 METAR LRIA 031600Z 28005KT 240V300 CAVOK 23/16 Q1016 R14/29//95=
201907031630 METAR LRIA 031630Z 29007KT CAVOK 23/15 Q1016 R14/CLRD//=
201907031700 METAR LRIA 031700Z 28005KT CAVOK 22/16 Q1016=
201907031730 METAR LRIA 031730Z 27004KT CAVOK 21/16 Q1016=
201907031800 METAR LRIA 031800Z 26003KT CAVOK 21/16 Q1016=
201907031830 METAR LRIA 031830Z 26005KT CAVOK 20/16 Q1016=
201907031900 METAR LRIA 031900Z 27004KT CAVOK 20/16 Q1016=
201907031930 METAR LRIA 031930Z 25003KT CAVOK 19/16 Q1016=
201907032000 METAR LRIA 032000Z 24003KT CAVOK 19/16 Q1017=
201907032030 METAR LRIA 032030Z 26004KT CAVOK 19/16 Q1017=
201907032100 METAR LRIA 032100Z 24003KT CAVOK 18/16 Q1017=
201907032130 METAR LRIA 032130Z 26004KT CAVOK 18/16 Q1017=
201907032200 METAR LRIA 032200Z 27003KT CAVOK 17/15 Q1017=
201907032230 METAR LRIA 032230Z 24004KT CAVOK 17/16 Q1018=
201907032300 METAR LRIA 032300Z 25004KT 200V300 CAVOK 18/16 Q1018=
201907032330 METAR LRIA 032330Z 25003KT CAVOK 17/15 Q1018=
201907040000 METAR LRIA 040000Z 32003KT CAVOK 17/15 Q1018=
201907040030 METAR LRIA 040030Z 26003KT CAVOK 17/15 Q1018=
201907040100 METAR LRIA 040100Z 25003KT 220V280 CAVOK 17/15 Q1018=
201907040130 METAR LRIA 040130Z 24004KT 210V310 CAVOK 16/15 Q1018=
201907040200 METAR LRIA 040200Z 27002KT CAVOK 17/15 Q1018=
201907040230 METAR LRIA 040230Z 26004KT CAVOK 16/15 Q1018=
201907040300 METAR LRIA 040300Z 33005KT CAVOK 16/14 Q1018=
201907040330 METAR LRIA 040330Z 34005KT CAVOK 16/14 Q1019=
201907040400 METAR LRIA 040400Z 29002KT CAVOK 17/14 Q1019=
201907040430 METAR LRIA 040430Z 28004KT CAVOK 17/14 Q1019=
201907040500 METAR LRIA 040500Z 30003KT 250V340 CAVOK 18/13 Q1019=
201907040530 METAR LRIA 040530Z 32004KT CAVOK 19/14 Q1019=
201907040600 METAR LRIA 040600Z 34004KT CAVOK 21/12 Q1019=
201907040630 METAR LRIA 040630Z 30003KT 220V350 CAVOK 22/13 Q1019=
201907040700 METAR LRIA 040700Z 15002KT 090V260 CAVOK 23/12 Q1019=
201907040730 METAR LRIA 040730Z 05003KT 350V100 CAVOK 23/12 Q1019=
201907040800 METAR LRIA 040800Z 07004KT 020V110 CAVOK 23/11 Q1020=
201907040830 METAR LRIA 040830Z VRB03KT CAVOK 23/10 Q1020=
201907040900 METAR LRIA 040900Z 09004KT 010V160 CAVOK 23/11 Q1019=
201907040930 METAR LRIA 040930Z VRB03KT CAVOK 24/11 Q1019=
201907041000 METAR COR LRIA 041000Z VRB03KT CAVOK 24/10 Q1019=
201907041030 METAR COR LRIA 041030Z 08004KT CAVOK 24/11 Q1019=
201907041100 METAR LRIA 041100Z 19004KT 100V240 CAVOK 25/12 Q1019=
201907041130 METAR LRIA 041130Z VRB03KT CAVOK 25/11 Q1019=
201907041200 METAR LRIA 041200Z VRB02KT CAVOK 26/13 Q1019=
201907041230 METAR COR LRIA 041230Z 07005KT 350V120 CAVOK 26/12 Q1018=
201907041300 METAR LRIA 041300Z 12005KT 080V150 CAVOK 26/12 Q1018=
201907041330 METAR LRIA 041330Z AUTO VRB03KT 9999 NCD 26/11 Q1017=
201907041400 METAR LRIA 041400Z 26003KT 150V300 CAVOK 27/13 Q1017=
201907041430 METAR LRIA 041430Z 14003KT 090V190 CAVOK 26/12 Q1017=
201907041500 METAR COR LRIA 041500Z 14002KT 050V190 CAVOK 26/12 Q1017=
201907041530 METAR LRIA 041530Z 14004KT CAVOK 26/11 Q1017=
201907041600 METAR LRIA 041600Z 09004KT 050V140 CAVOK 26/13 Q1017=
201907041630 METAR LRIA 041630Z 07004KT CAVOK 26/12 Q1017=
201907041700 METAR LRIA 041700Z 06005KT CAVOK 25/14 Q1017=
201907041730 METAR LRIA 041730Z 05005KT CAVOK 24/15 Q1017=
201907041800 METAR LRIA 041800Z 04006KT CAVOK 23/14 Q1017=
201907041830 METAR LRIA 041830Z 04007KT 9999 FEW054CB 23/13 Q1017=
201907041900 METAR LRIA 041900Z 03007KT 9999 FEW054CB 23/13 Q1017=
201907041930 METAR LRIA 041930Z 03007KT 9999 FEW052CB 22/13 Q1017=
201907042000 METAR LRIA 042000Z 02007KT 9999 FEW054CB 22/13 Q1017=
201907042030 METAR LRIA 042030Z VRB03KT 9999 FEW057CB 21/13 Q1018=
201907042100 METAR LRIA 042100Z 02007KT 350V060 9999 FEW057CB 22/11 Q1018=
201907042130 METAR LRIA 042130Z 01003KT 280V050 9999 FEW055CB 21/11 Q1018=
201907042200 METAR LRIA 042200Z 02005KT 350V060 CAVOK 20/11 Q1018=
201907042230 METAR LRIA 042230Z 02006KT CAVOK 20/11 Q1018=
201907042300 METAR LRIA 042300Z 02006KT CAVOK 19/11 Q1018=
201907042330 METAR LRIA 042330Z 04006KT CAVOK 19/11 Q1018=
201907050000 METAR LRIA 050000Z 03008KT CAVOK 17/11 Q1018=
201907050030 METAR LRIA 050030Z 02007KT CAVOK 17/11 Q1018=
201907050100 METAR LRIA 050100Z 02006KT CAVOK 17/11 Q1018=
201907050130 METAR LRIA 050130Z 11003KT 050V190 CAVOK 17/11 Q1017=
201907050200 METAR LRIA 050200Z 33002KT 250V350 CAVOK 16/11 Q1017=
201907050230 METAR LRIA 050230Z 28003KT CAVOK 15/12 Q1017=
201907050300 METAR LRIA 050300Z 26002KT 210V310 CAVOK 15/13 Q1017=
201907050330 METAR LRIA 050330Z 22002KT 190V250 CAVOK 16/13 Q1017=
201907050400 METAR LRIA 050400Z 23002KT CAVOK 17/13 Q1017=
201907050430 METAR LRIA 050430Z 23002KT CAVOK 18/14 Q1017=
201907050500 METAR LRIA 050500Z VRB02KT CAVOK 19/13 Q1017=
201907050530 METAR LRIA 050530Z VRB02KT CAVOK 20/13 Q1017=
201907050600 METAR LRIA 050600Z VRB02KT CAVOK 20/12 Q1017=
201907050630 METAR LRIA 050630Z 17004KT 110V200 CAVOK 21/12 Q1016=
201907050700 METAR LRIA 050700Z VRB02KT CAVOK 23/13 Q1016=
201907050730 METAR LRIA 050730Z 10003KT 030V180 CAVOK 23/13 Q1016=
201907050800 METAR LRIA 050800Z VRB03KT CAVOK 23/13 Q1015=
201907050830 METAR LRIA 050830Z VRB02KT CAVOK 25/14 Q1015=
201907050900 METAR LRIA 050900Z 11003KT 050V170 CAVOK 25/14 Q1015=
201907050930 METAR LRIA 050930Z 15004KT 100V200 9999 FEW045 25/14 Q1015=
201907051000 METAR LRIA 051000Z 15004KT 090V260 9999 SCT040 25/15 Q1014=
201907051030 METAR LRIA 051030Z 16005KT 9999 SCT048 26/14 Q1014=
201907051100 METAR LRIA 051100Z 20005KT 150V240 CAVOK 27/14 Q1013=
201907051130 METAR LRIA 051130Z 19006KT 150V250 CAVOK 27/13 Q1013=
201907051200 METAR LRIA 051200Z 26005KT 230V310 CAVOK 27/15 Q1013=
201907051230 METAR LRIA 051230Z 26006KT 200V300 CAVOK 27/14 Q1012=
201907051300 METAR LRIA 051300Z 20007KT 170V230 CAVOK 28/14 Q1012=
201907051330 METAR LRIA 051330Z VRB04KT CAVOK 28/14 Q1011=
201907051400 METAR LRIA 051400Z 17006KT 140V210 CAVOK 27/15 Q1011=
201907051430 METAR LRIA 051430Z 17006KT CAVOK 27/16 Q1011=
201907051500 METAR LRIA 051500Z 17003KT 130V230 CAVOK 27/15 Q1010=
201907051530 METAR LRIA 051530Z 16004KT 130V200 CAVOK 28/16 Q1010=
201907051600 METAR LRIA 051600Z 15004KT CAVOK 27/16 Q1010=
201907051630 METAR LRIA 051630Z 18004KT 9999 FEW050CB 26/15 Q1009=
201907051700 METAR LRIA 051700Z 14005KT 9999 FEW050CB 26/16 Q1009=
201907051730 METAR COR LRIA 051730Z 11005KT 9999 TS FEW050CB 26/16 Q1009=
201907051800 METAR COR LRIA 051800Z 06005KT 9999 -TSRA VCTS SCT050CB 25/17
                        Q1009=
201907051830 METAR LRIA 051830Z 33010KT 270V360 9999 TSRA SCT050CB 20/15
                        Q1010 R14/29//95=
201907051900 METAR LRIA 051900Z 34005KT 290V060 9999 VCTS SCT050CB 19/15
                        Q1009 R14/29//95=
201907051930 METAR LRIA 051930Z 24003KT 210V330 9999 SCT050CB 18/15 Q1010
                        R14/29//95=
201907052000 METAR LRIA 052000Z 25002KT 200V260 9999 FEW050CB 18/15 Q1010
                        R14/29//95=
201907052030 METAR LRIA 052030Z 26004KT 9999 FEW050CB 18/15 Q1010 R14/19//95=
201907052100 METAR COR LRIA 052100Z 26004KT 9999 FEW050CB 18/15 Q1010
                        R14/19//95=
201907052130 METAR LRIA 052130Z 25003KT CAVOK 17/15 Q1010 R14/19//95=
201907052200 METAR LRIA 052200Z 24005KT 220V280 CAVOK 17/15 Q1011 R14/19//95=
201907052230 METAR LRIA 052230Z 31011KT CAVOK 18/15 Q1011 R14/19//95=
201907052300 METAR LRIA 052300Z 32012KT CAVOK 18/13 Q1011 R14/19//95=
201907052330 METAR LRIA 052330Z 32010KT CAVOK 17/13 Q1012 R14/19//95=
201907060000 METAR LRIA 060000Z 27007KT CAVOK 17/13 Q1012 R14/CLRD//=
201907060030 METAR COR LRIA 060030Z 30008KT 9999 -RA NSC 17/13 Q1012=
201907060100 METAR COR LRIA 060100Z 31005KT CAVOK 17/13 Q1012 RERA=
201907060130 METAR LRIA 060130Z AUTO 32004KT 300V360 9999 BKN055/// 17/13
                        Q1012 RERA=
201907060200 METAR COR LRIA 060200Z 30003KT 260V320 CAVOK 16/13 Q1012=
201907060230 METAR COR LRIA 060230Z 25004KT 9999 -RA NSC 16/14 Q1012=
201907060300 METAR LRIA 060300Z 27004KT CAVOK 17/14 Q1012=
201907060330 METAR LRIA 060330Z 29004KT CAVOK 16/13 Q1012=
201907060400 METAR LRIA 060400Z 29003KT CAVOK 17/14 Q1012=
201907060430 METAR LRIA 060430Z 28004KT CAVOK 18/14 Q1012=
201907060500 METAR LRIA 060500Z 30006KT CAVOK 19/14 Q1012=
201907060530 METAR LRIA 060530Z 30007KT CAVOK 19/14 Q1012=
201907060600 METAR LRIA 060600Z 30008KT 280V340 CAVOK 19/13 Q1012=
201907060630 METAR LRIA 060630Z 32006KT 260V350 CAVOK 21/15 Q1012=
201907060700 METAR LRIA 060700Z 33008KT CAVOK 21/13 Q1013=
201907060730 METAR LRIA 060730Z 31006KT 290V350 CAVOK 22/13 Q1013=
201907060800 METAR LRIA 060800Z 32006KT 250V360 CAVOK 22/11 Q1013=
201907060830 METAR LRIA 060830Z 30005KT 250V020 9999 FEW039 23/11 Q1013=
201907060900 METAR LRIA 060900Z 32009KT 9999 FEW044 23/11 Q1013=
201907060930 METAR LRIA 060930Z 31007KT 270V350 9999 FEW047 24/12 Q1013=
201907061000 METAR LRIA 061000Z 28007KT 240V320 9999 FEW046 23/12 Q1013=
201907061030 METAR LRIA 061030Z 31007KT 280V080 CAVOK 24/12 Q1013=
201907061100 METAR LRIA 061100Z 29008KT 240V340 9999 SCT048 25/12 Q1012=
201907061130 METAR LRIA 061130Z 33009KT CAVOK 24/12 Q1012=
201907061200 METAR LRIA 061200Z 31008KT 280V360 CAVOK 25/11 Q1012=
201907061230 METAR LRIA 061230Z 31009KT 270V350 CAVOK 25/11 Q1012=
201907061300 METAR LRIA 061300Z 33008KT 290V360 CAVOK 26/11 Q1012=
201907061330 METAR LRIA 061330Z 32008KT CAVOK 26/10 Q1012=
201907061400 METAR LRIA 061400Z 29009KT 260V320 CAVOK 26/10 Q1012=
201907061430 METAR LRIA 061430Z 29005KT 250V320 CAVOK 25/11 Q1012=
201907061500 METAR LRIA 061500Z 31003KT 250V050 CAVOK 25/11 Q1011=
201907061530 METAR LRIA 061530Z 30005KT CAVOK 25/11 Q1011=
201907061600 METAR LRIA 061600Z 31005KT CAVOK 25/11 Q1011=
201907061630 METAR LRIA 061630Z 29003KT CAVOK 25/11 Q1011=
201907061700 METAR LRIA 061700Z 31003KT CAVOK 25/12 Q1011=
201907061730 METAR LRIA 061730Z 29001KT CAVOK 24/11 Q1011=
201907061800 METAR LRIA 061800Z 00000KT CAVOK 23/12 Q1011=
201907061830 METAR LRIA 061830Z 10004KT CAVOK 22/13 Q1012=
201907061900 METAR LRIA 061900Z 11004KT CAVOK 22/12 Q1012=
201907061930 METAR LRIA 061930Z 11002KT CAVOK 20/12 Q1012=
201907062000 METAR LRIA 062000Z 00000KT CAVOK 21/12 Q1012=
201907062030 METAR LRIA 062030Z 00000KT CAVOK 20/12 Q1012=
201907062100 METAR LRIA 062100Z 00000KT CAVOK 20/12 Q1012=
201907062130 METAR LRIA 062130Z 09004KT CAVOK 20/12 Q1012=
201907062200 METAR LRIA 062200Z 07005KT CAVOK 19/12 Q1012=
201907062230 METAR LRIA 062230Z 09005KT 040V100 CAVOK 19/12 Q1011=
201907062300 METAR LRIA 062300Z 11005KT CAVOK 18/12 Q1011=
201907062330 METAR LRIA 062330Z 11005KT CAVOK 18/12 Q1011=
201907070000 METAR LRIA 070000Z 12005KT CAVOK 18/12 Q1011=
201907070030 METAR LRIA 070030Z 13003KT CAVOK 19/11 Q1011=
201907070100 METAR LRIA 070100Z 13004KT CAVOK 18/11 Q1011=
201907070130 METAR LRIA 070130Z 14002KT CAVOK 18/11 Q1011=
201907070200 METAR LRIA 070200Z 00000KT CAVOK 18/11 Q1011=
201907070230 METAR LRIA 070230Z 21002KT CAVOK 18/11 Q1011=
201907070300 METAR LRIA 070300Z 00000KT CAVOK 19/11 Q1010=
201907070330 METAR LRIA 070330Z 10004KT CAVOK 18/12 Q1010=
201907070400 METAR LRIA 070400Z 11004KT CAVOK 18/12 Q1010=
201907070430 METAR LRIA 070430Z 12004KT CAVOK 19/13 Q1009=
201907070500 METAR LRIA 070500Z 11005KT CAVOK 20/14 Q1009=
201907070530 METAR LRIA 070530Z 13004KT 100V160 CAVOK 22/14 Q1009=
201907070600 METAR LRIA 070600Z 18004KT CAVOK 23/14 Q1009=
201907070630 METAR LRIA 070630Z 18005KT 150V230 CAVOK 25/14 Q1009=
201907070700 METAR LRIA 070700Z 19005KT 160V250 CAVOK 25/14 Q1008=
201907070730 METAR LRIA 070730Z 19007KT 160V230 CAVOK 26/14 Q1008=
201907070800 METAR LRIA 070800Z 18007KT 150V210 CAVOK 27/14 Q1008=
201907070830 METAR LRIA 070830Z 19007KT 150V240 CAVOK 27/15 Q1008=
201907070900 METAR LRIA 070900Z 19005KT 150V260 CAVOK 28/15 Q1008=
201907070930 METAR LRIA 070930Z 21007KT 150V250 CAVOK 29/14 Q1008=
201907071000 METAR LRIA 071000Z 21006KT 170V250 CAVOK 29/14 Q1008=
201907071030 METAR LRIA 071030Z 18007KT 140V220 CAVOK 29/14 Q1007=
201907071100 METAR LRIA 071100Z 18009KT CAVOK 30/13 Q1007=
201907071130 METAR LRIA 071130Z 22008KT 180V240 CAVOK 30/13 Q1006=
201907071200 METAR LRIA 071200Z 19007KT 160V220 CAVOK 30/13 Q1006=
201907071230 METAR LRIA 071230Z 22005KT 190V250 CAVOK 30/13 Q1006=
201907071300 METAR LRIA 071300Z 23005KT 170V280 CAVOK 30/13 Q1006=
201907071330 METAR LRIA 071330Z 16007KT 120V180 CAVOK 30/13 Q1005=
201907071400 METAR LRIA 071400Z 18005KT 140V200 CAVOK 29/14 Q1005=
201907071430 METAR LRIA 071430Z 18005KT CAVOK 29/13 Q1005=
201907071500 METAR LRIA 071500Z 17005KT CAVOK 28/14 Q1004=
201907071530 METAR LRIA 071530Z 14005KT CAVOK 28/15 Q1004=
201907071600 METAR LRIA 071600Z 13004KT CAVOK 28/15 Q1004=
201907071630 METAR LRIA 071630Z 14003KT 9999 -RA FEW050CB 27/15 Q1004=
201907071700 METAR LRIA 071700Z 29010KT 9999 -RA FEW050CB 23/16 Q1004=
201907071730 METAR LRIA 071730Z 33009KT 9999 -RA FEW050CB 22/17 Q1004=
201907071800 METAR LRIA 071800Z 33009KT 9999 -RA FEW050CB 22/17 Q1004=
201907071830 METAR LRIA 071830Z 34007KT 9999 -RA FEW050CB 22/17 Q1004=
201907071900 METAR LRIA 071900Z 32006KT 260V010 9999 FEW042CB 21/17 Q1004=
201907071930 METAR LRIA 071930Z VRB02KT 9999 FEW045CB 21/17 Q1004=
201907072000 METAR LRIA 072000Z 03002KT CAVOK 22/17 Q1004=
201907072030 METAR LRIA 072030Z 27003KT CAVOK 20/17 Q1005=
201907072100 METAR LRIA 072100Z 26004KT CAVOK 20/17 Q1005=
201907072130 METAR LRIA 072130Z 29004KT CAVOK 20/17 Q1004=
201907072200 METAR LRIA 072200Z 31002KT CAVOK 20/17 Q1005=
201907072230 METAR LRIA 072230Z 32009KT CAVOK 20/16 Q1005=
201907072300 METAR LRIA 072300Z 31006KT 9999 FEW025 19/16 Q1006=
201907072330 METAR LRIA 072330Z 29005KT CAVOK 19/16 Q1005=
201907080000 METAR LRIA 080000Z 29005KT CAVOK 19/16 Q1005=
201907080030 METAR LRIA 080030Z 23003KT 180V260 9999 SCT044 19/16 Q1005=
201907080100 METAR LRIA 080100Z 30005KT 9999 SCT040 18/16 Q1005=
201907080130 METAR LRIA 080130Z 29006KT 9999 FEW042 18/16 Q1005=
201907080200 METAR LRIA 080200Z 31008KT 9999 FEW0010 SCT046 18/16 Q1005=
201907080230 METAR LRIA 080230Z 31010KT 9999 SFEW040 18/14 Q1005=
201907080300 METAR LRIA 080300Z 30011KT CAVOK 18/14 Q1006=
201907080330 METAR LRIA 080330Z 30010KT CAVOK 18/14 Q1006=
201907080400 METAR LRIA 080400Z 31011KT CAVOK 18/14 Q1006=
201907080430 METAR LRIA 080430Z 31011KT CAVOK 18/14 Q1007=
201907080500 METAR LRIA 080500Z 31012KT CAVOK 18/13 Q1007=
201907080530 METAR LRIA 080530Z 31011KT 9999 SCT017 SCT033 18/14 Q1007=
201907080600 METAR LRIA 080600Z 32010KT 9999 SCT015 19/14 Q1008=
201907080630 METAR LRIA 080630Z 32008KT 9999 BKN015 19/14 Q1008=
201907080700 METAR LRIA 080700Z 32008KT 9999 BKN017 18/15 Q1008=
201907080730 METAR LRIA 080730Z 32009KT 9999 BKN020 19/14 Q1009=
201907080800 METAR LRIA 080800Z 32014KT 9999 BKN023 18/13 Q1009=
201907080830 METAR LRIA 080830Z 32011KT 9999 FEW020 BKN033 18/13 Q1009=
201907080900 METAR LRIA 080900Z 32010KT 9999 SCT022 20/14 Q1009=
201907080930 METAR LRIA 080930Z 32011KT 9999 SCT027 21/13 Q1009=
201907081000 METAR LRIA 081000Z 32011KT 9999 SCT035 22/10 Q1009=
201907081030 METAR LRIA 081030Z 33014KT 9999 FEW040 22/09 Q1009=
201907081100 METAR LRIA 081100Z 33012KT 300V360 9999 FEW045 23/09 Q1010=
201907081130 METAR LRIA 081130Z 34011KT 310V010 CAVOK 23/09 Q1010=
201907081200 METAR LRIA 081200Z 31009KT 290V350 CAVOK 23/10 Q1010=
201907081230 METAR LRIA 081230Z 33009KT CAVOK 23/11 Q1010=
201907081300 METAR LRIA 081300Z 34011KT CAVOK 22/10 Q1010=
201907081330 METAR LRIA 081330Z 34012KT CAVOK 22/11 Q1010=
201907081400 METAR LRIA 081400Z 33011KT 300V360 9999 FEW040 22/10 Q1010=
201907081430 METAR LRIA 081430Z 34010KT 9999 FEW040 22/10 Q1010=
201907081500 METAR LRIA 081500Z 34010KT CAVOK 22/09 Q1011=
201907081530 METAR LRIA 081530Z 32007KT CAVOK 21/09 Q1011=
201907081600 METAR LRIA 081600Z 29006KT CAVOK 20/09 Q1011=
201907081630 METAR LRIA 081630Z 32006KT CAVOK 20/10 Q1011=
201907081700 METAR LRIA 081700Z 28003KT CAVOK 20/10 Q1011=
201907081730 METAR COR LRIA 081730Z 31003KT CAVOK 19/10 Q1011=
201907081800 METAR LRIA 081800Z 31003KT CAVOK 19/10 Q1012=
201907081830 METAR LRIA 081830Z 31005KT CAVOK 18/10 Q1012=
201907081900 METAR LRIA 081900Z 29003KT 260V320 CAVOK 18/09 Q1012=
201907081930 METAR LRIA 081930Z 30005KT 9999 FEW063 BKN079 18/09 Q1013=
201907082000 METAR LRIA 082000Z 33003KT CAVOK 18/09 Q1013=
201907082030 METAR LRIA 082030Z 33004KT CAVOK 17/08 Q1013=
201907082100 METAR LRIA 082100Z VRB01KT CAVOK 17/08 Q1013=
201907082130 METAR LRIA 082130Z 29003KT 240V320 CAVOK 17/09 Q1013=
201907082200 METAR LRIA 082200Z 28006KT CAVOK 17/09 Q1014=
201907082230 METAR COR LRIA 082230Z 28003KT CAVOK 16/09 Q1013=
201907082300 METAR COR LRIA 082300Z 28004KT CAVOK 15/09 Q1013=
201907082330 METAR LRIA 082330Z AUTO 27003KT 9999 NCD 14/09 Q1013=
201907090000 METAR LRIA 090000Z 25003KT CAVOK 13/10 Q1013=
201907090030 METAR COR LRIA 090030Z 23004KT CAVOK 13/10 Q1013=
201907090100 METAR COR LRIA 090100Z 27002KT 240V300 CAVOK 14/10 Q1013=
201907090130 METAR COR LRIA 090130Z 00000KT CAVOK 13/10 Q1013=
201907090200 METAR COR LRIA 090200Z 34002KT CAVOK 12/09 Q1013=
201907090230 METAR COR LRIA 090230Z 00000KT CAVOK 13/09 Q1013=
201907090300 METAR LRIA 090300Z 26002KT CAVOK 12/09 Q1013=
201907090330 METAR LRIA 090330Z 24002KT 210V270 CAVOK 14/11 Q1014=
201907090400 METAR LRIA 090400Z 27002KT CAVOK 14/11 Q1014=
201907090430 METAR LRIA 090430Z 25002KT CAVOK 15/11 Q1013=
201907090500 METAR LRIA 090500Z 28003KT 250V320 CAVOK 16/11 Q1014=
201907090530 METAR LRIA 090530Z 29004KT 260V340 CAVOK 17/09 Q1014=
201907090600 METAR LRIA 090600Z 31004KT 260V330 CAVOK 18/09 Q1014=
201907090630 METAR LRIA 090630Z 29003KT 230V360 CAVOK 18/08 Q1014=
201907090700 METAR LRIA 090700Z 26003KT 220V290 CAVOK 18/08 Q1014=
201907090730 METAR LRIA 090730Z 30003KT 230V340 CAVOK 19/07 Q1013=
201907090800 METAR LRIA 090800Z VRB03KT CAVOK 20/06 Q1013=
201907090830 METAR LRIA 090830Z VRB03KT CAVOK 20/07 Q1013=
201907090900 METAR LRIA 090900Z 17007KT CAVOK 21/08 Q1013=
201907090930 METAR LRIA 090930Z 15005KT 090V200 CAVOK 22/07 Q1013=
201907091000 METAR LRIA 091000Z 19005KT 160V230 CAVOK 22/08 Q1013=
201907091030 METAR LRIA 091030Z VRB03KT CAVOK 22/08 Q1012=
201907091100 METAR LRIA 091100Z VRB03KT CAVOK 22/08 Q1012=
201907091130 METAR LRIA 091130Z VRB02KT CAVOK 22/07 Q1012=
201907091200 METAR LRIA 091200Z 08005KT 020V120 CAVOK 23/09 Q1011=
201907091230 METAR LRIA 091230Z 18003KT 130V290 CAVOK 22/08 Q1011=
201907091300 METAR LRIA 091300Z 32004KT 240V360 CAVOK 22/09 Q1011=
201907091330 METAR LRIA 091330Z 02007KT CAVOK 22/08 Q1011=
201907091400 METAR LRIA 091400Z 04009KT CAVOK 23/07 Q1011=
201907091430 METAR LRIA 091430Z 01005KT 320V050 CAVOK 22/08 Q1011=
201907091500 METAR LRIA 091500Z 03006KT 360V070 CAVOK 22/08 Q1011=
201907091530 METAR LRIA 091530Z 02007KT CAVOK 22/08 Q1011=
201907091600 METAR LRIA 091600Z 02007KT CAVOK 22/08 Q1011=
201907091630 METAR LRIA 091630Z 03005KT CAVOK 21/08 Q1011=
201907091700 METAR LRIA 091700Z 02005KT CAVOK 21/08 Q1011=
201907091730 METAR LRIA 091730Z 03004KT CAVOK 20/10 Q1011=
201907091800 METAR LRIA 091800Z 35005KT 310V020 CAVOK 19/10 Q1011=
201907091830 METAR LRIA 091830Z 36004KT CAVOK 18/09 Q1011=
201907091900 METAR LRIA 091900Z 35006KT 9999 FEW050CB 17/08 Q1012=
201907091930 METAR LRIA 091930Z 35005KT CAVOK 17/08 Q1012=
201907092000 METAR LRIA 092000Z 35005KT CAVOK 16/08 Q1012=
201907092030 METAR LRIA 092030Z 31005KT CAVOK 15/08 Q1012=
201907092100 METAR LRIA 092100Z 34009KT CAVOK 16/08 Q1012=
201907092130 METAR LRIA 092130Z 34008KT CAVOK 16/08 Q1012=
201907092200 METAR LRIA 092200Z 27004KT CAVOK 14/09 Q1012=
201907092230 METAR LRIA 092230Z 29003KT CAVOK 15/09 Q1012=
201907092300 METAR LRIA 092300Z 25004KT CAVOK 13/08 Q1012=
201907092330 METAR LRIA 092330Z 22005KT CAVOK 14/09 Q1012=
201907100000 METAR LRIA 100000Z 26005KT CAVOK 14/08 Q1012=
201907100030 METAR LRIA 100030Z 28005KT CAVOK 13/08 Q1011=
201907100100 METAR LRIA 100100Z 21003KT CAVOK 12/09 Q1011=
201907100130 METAR LRIA 100130Z 26003KT CAVOK 12/09 Q1011=
201907100200 METAR LRIA 100200Z 24003KT CAVOK 12/09 Q1011=
201907100230 METAR LRIA 100230Z 26002KT CAVOK 12/09 Q1011=
201907100300 METAR LRIA 100300Z 23004KT CAVOK 12/09 Q1011=
201907100330 METAR LRIA 100330Z 27003KT CAVOK 13/09 Q1011=
201907100400 METAR LRIA 100400Z 26003KT 230V290 CAVOK 14/09 Q1011=
201907100430 METAR LRIA 100430Z VRB01KT CAVOK 15/09 Q1011=
201907100500 METAR LRIA 100500Z 27004KT CAVOK 16/09 Q1011=
201907100530 METAR LRIA 100530Z 26003KT 210V320 CAVOK 18/08 Q1011=
201907100600 METAR LRIA 100600Z 27003KT CAVOK 18/09 Q1011=
201907100630 METAR LRIA 100630Z 30005KT CAVOK 18/08 Q1011=
201907100700 METAR LRIA 100700Z 30004KT 260V320 CAVOK 17/08 Q1011=
201907100730 METAR LRIA 100730Z 29004KT 230V330 CAVOK 18/08 Q1011=
201907100800 METAR LRIA 100800Z 29007KT 250V320 CAVOK 19/08 Q1011=
201907100830 METAR LRIA 100830Z AUTO 31007KT 280V340 9999 BKN081/// 19/07
                        Q1011=
201907100900 METAR LRIA 100900Z 30005KT 250V340 CAVOK 19/09 Q1011=
201907100930 METAR LRIA 100930Z 33006KT CAVOK 21/08 Q1011=
201907101000 METAR LRIA 101000Z 31007KT 270V330 CAVOK 21/07 Q1010=
201907101030 METAR LRIA 101030Z 29008KT 260V330 CAVOK 22/08 Q1010=
201907101100 METAR LRIA 101100Z 30007KT 270V340 CAVOK 21/08 Q1010=
201907101130 METAR LRIA 101130Z 30007KT 270V350 CAVOK 21/08 Q1010=
201907101200 METAR LRIA 101200Z 30006KT 260V010 CAVOK 22/08 Q1009=
201907101230 METAR COR LRIA 101230Z 25004KT 210V350 CAVOK 21/08 Q1009=
201907101300 METAR LRIA 101300Z 27007KT 230V310 9999 VCTS FEW050CB 22/08
                        Q1009=
201907101330 METAR LRIA 101330Z 33013KT 9999 VCTS SCT045CB BKN049 16/10
                        Q1010=
201907101400 METAR COR LRIA 101400Z 34010KT 9999 -SHRA VCTS BKN049 FEW055CB
                        15/12 Q1010=
201907101430 METAR LRIA 101430Z 32005KT 9999 FEW050CB 17/11 Q1010=
201907101500 METAR LRIA 101500Z 31004KT 9999 FEW050CB 17/12 Q1010=
201907101530 METAR LRIA 101530Z 28002KT 220V340 9999 FEW050CB 17/11 Q1010=
201907101600 METAR LRIA 101600Z 28004KT 240V310 9999 FEW050CB 17/11 Q1010=
201907101630 METAR LRIA 101630Z 28003KT 240V330 9999 FEW050CB 18/10 Q1010=
201907101700 METAR LRIA 101700Z 26003KT 220V290 9999 FEW050CB 19/11 Q1009=
201907101730 METAR LRIA 101730Z 29004KT 9999 FEW050CB 18/11 Q1009=
201907101800 METAR LRIA 101800Z 32007KT 290V350 9999 FEW038CB 16/12 Q1010=
201907101830 METAR LRIA 101830Z 34008KT 9999 -RA VCTS FEW042CB 15/11 Q1010
                        R14/29//95=
201907101900 METAR LRIA 101900Z 28004KT 9999 -RA FEW045CB 14/12 Q1011
                        R14/29//95=
201907101930 METAR LRIA 101930Z 31006KT 9999 FEW050CB 15/10 Q1011 R14/29//95=
201907102000 METAR LRIA 102000Z 31006KT CAVOK 14/10 Q1010 R14/19//95=
201907102030 METAR LRIA 102030Z 32007KT CAVOK 14/10 Q1010 R14/19//95=
201907102100 METAR LRIA 102100Z 32006KT CAVOK 14/09 Q1010 R14/19//95=
201907102130 METAR LRIA 102130Z 34005KT 310V020 CAVOK 14/09 Q1010 R14/19//95=
201907102200 METAR LRIA 102200Z 34003KT 310V030 CAVOK 13/09 Q1010 R14/19//95=
201907102230 METAR LRIA 102230Z 35005KT CAVOK 13/09 Q1010 R14/19//95=
201907102300 METAR LRIA 102300Z 31005KT 280V340 CAVOK 13/09 Q1010 R14/19//95=
201907102330 METAR LRIA 102330Z 32003KT 260V360 CAVOK 13/09 Q1010 R14/19//95=
201907110000 METAR LRIA 110000Z 28007KT CAVOK 13/09 Q1010 R14/19//95=
201907110030 METAR LRIA 110030Z 30006KT CAVOK 12/09 Q1010 R14/19//95=
201907110100 METAR LRIA 110100Z 31007KT CAVOK 12/09 Q1010 R14/19//95=
201907110130 METAR LRIA 110130Z 29005KT 9999 FEW035 12/09 Q1010 R14/19//95=
201907110200 METAR LRIA 110200Z 31007KT CAVOK 12/09 Q1010 R14/CLRD//=
201907110230 METAR LRIA 110230Z 31005KT 9999 FEW046 13/09 Q1010=
201907110300 METAR LRIA 110300Z 31006KT CAVOK 13/09 Q1010=
201907110330 METAR LRIA 110330Z 31005KT CAVOK 13/09 Q1010=
201907110400 METAR LRIA 110400Z 30005KT 9999 FEW043 14/10 Q1010=
201907110430 METAR LRIA 110430Z 31005KT CAVOK 14/10 Q1010=
201907110500 METAR LRIA 110500Z 31008KT CAVOK 15/10 Q1010=
201907110530 METAR LRIA 110530Z 32009KT CAVOK 15/10 Q1010=
201907110600 METAR LRIA 110600Z 32008KT 9999 FEW025 16/10 Q1010=
201907110630 METAR LRIA 110630Z 31010KT 280V340 9999 FEW025 17/10 Q1010=
201907110700 METAR LRIA 110700Z 32007KT 290V350 9999 SCT027 17/11 Q1010=
201907110730 METAR LRIA 110730Z 31009KT 290V350 9999 SCT027 18/10 Q1010=
201907110800 METAR LRIA 110800Z 31011KT 9999 FEW030CB SCT033 18/10 Q1010=
201907110830 METAR LRIA 110830Z 30011KT 9999 BKN035 19/09 Q1010=
201907110900 METAR LRIA 110900Z 31012KT 9999 FEW035CB SCT040 18/08 Q1010=
201907110930 METAR LRIA 110930Z 32010KT 9999 FEW040CB SCT045 20/09 Q1010=
201907111000 METAR LRIA 111000Z 31009KT 9999 FEW040TCU SCT045 21/08 Q1010=
201907111030 METAR LRIA 111030Z 30010KT 260V320 9999 SCT047 21/08 Q1009=
201907111100 METAR LRIA 111100Z 33009KT 290V360 CAVOK 22/07 Q1009=
201907111130 METAR LRIA 111130Z 30010KT 270V340 CAVOK 22/07 Q1009=
201907111200 METAR LRIA 111200Z 33009KT 280V350 CAVOK 23/08 Q1009=
201907111230 METAR LRIA 111230Z 31009KT 270V340 9999 FEW050TCU 21/08 Q1009=
201907111300 METAR LRIA 111300Z 31008KT CAVOK 22/08 Q1009=
201907111330 METAR LRIA 111330Z 33010KT 300V360 9999 FEW050CB 22/08 Q1009=
201907111400 METAR LRIA 111400Z 31012KT 9999 FEW050CB 20/07 Q1009=
201907111430 METAR LRIA 111430Z 29010KT 9999 FEW055CB 18/08 Q1010=
201907111500 METAR LRIA 111500Z 31009KT CAVOK 19/08 Q1010=
201907111530 METAR LRIA 111530Z 31008KT CAVOK 19/09 Q1009=
201907111600 METAR LRIA 111600Z 29008KT CAVOK 19/09 Q1009=
201907111630 METAR LRIA 111630Z 30007KT CAVOK 18/09 Q1009=
201907111700 METAR LRIA 111700Z 29005KT CAVOK 18/10 Q1010=
201907111730 METAR LRIA 111730Z 31007KT CAVOK 17/08 Q1010=
201907111800 METAR LRIA 111800Z 32005KT CAVOK 16/08 Q1010=
201907111830 METAR LRIA 111830Z 31006KT CAVOK 15/08 Q1010=
201907111900 METAR COR LRIA 111900Z 29006KT 260V320 CAVOK 15/08 Q1010=
201907111930 METAR LRIA 111930Z 27004KT 240V310 CAVOK 15/09 Q1011=
201907112000 METAR LRIA 112000Z 29005KT CAVOK 15/09 Q1011=
201907112030 METAR LRIA 112030Z 28005KT CAVOK 15/09 Q1011=
201907112100 METAR COR LRIA 112100Z 28004KT CAVOK 14/09 Q1011=
201907112130 METAR LRIA 112130Z AUTO 27004KT 9999 OVC088/// 14/09 Q1011=
201907112200 METAR LRIA 112200Z 25004KT CAVOK 14/09 Q1011=
201907112230 METAR LRIA 112230Z 28006KT CAVOK 14/09 Q1011=
201907112300 METAR LRIA 112300Z 26005KT 230V290 CAVOK 14/09 Q1011=
201907112330 METAR LRIA 112330Z 29003KT 250V340 CAVOK 14/09 Q1011=
201907120000 METAR LRIA 120000Z 28005KT CAVOK 14/09 Q1011=
201907120030 METAR LRIA 120030Z 27005KT CAVOK 13/09 Q1011=
201907120100 METAR LRIA 120100Z 27005KT CAVOK 13/09 Q1011=
201907120130 METAR LRIA 120130Z AUTO 27005KT 9999 NCD 12/09 Q1010=
201907120200 METAR LRIA 120200Z 29005KT CAVOK 12/09 Q1011=
201907120230 METAR COR LRIA 120230Z 28007KT CAVOK 12/09 Q1011=
201907120300 METAR LRIA 120300Z 28008KT CAVOK 12/09 Q1011=
201907120330 METAR LRIA 120330Z AUTO 30005KT 9999 FEW100/// 13/09 Q1011=
201907120400 METAR COR LRIA 120400Z 30006KT CAVOK 13/09 Q1011=
201907120430 METAR LRIA 120430Z 30009KT CAVOK 14/09 Q1011=
201907120500 METAR LRIA 120500Z 29009KT CAVOK 15/10 Q1011=
201907120530 METAR LRIA 120530Z 29009KT CAVOK 15/10 Q1011=
201907120600 METAR LRIA 120600Z 31007KT CAVOK 16/10 Q1012=
201907120630 METAR LRIA 120630Z 31008KT CAVOK 17/10 Q1012=
201907120700 METAR LRIA 120700Z 31007KT 290V350 CAVOK 18/10 Q1012=
201907120730 METAR LRIA 120730Z 31008KT 260V350 9999 FEW027 19/10 Q1012=
201907120800 METAR LRIA 120800Z 34010KT 9999 FEW027 19/10 Q1011=
201907120830 METAR LRIA 120830Z 31009KT 270V350 9999 FEW029 20/10 Q1011=
201907120900 METAR LRIA 120900Z 33010KT 9999 FEW033 21/10 Q1011=
201907120930 METAR LRIA 120930Z 32010KT 290V350 9999 FEW039TCU 20/09 Q1011=
201907121000 METAR LRIA 121000Z 32009KT 300V020 9999 FEW039TCU 21/09 Q1011=
201907121030 METAR LRIA 121030Z 31008KT 260V340 9999 FEW042TCU 22/09 Q1011=
201907121100 METAR LRIA 121100Z 32008KT 9999 SCT043 21/09 Q1011=
201907121130 METAR LRIA 121130Z 31008KT 9999 SCT043 22/09 Q1011=
201907121200 METAR LRIA 121200Z 32010KT 280V350 9999 FEW044 23/09 Q1011=
201907121230 METAR LRIA 121230Z 29009KT 9999 FEW046 24/10 Q1010=
201907121300 METAR LRIA 121300Z 31009KT 290V350 9999 FEW048 23/09 Q1010=
201907121330 METAR LRIA 121330Z 34010KT CAVOK 23/09 Q1010=
201907121400 METAR LRIA 121400Z 32009KT CAVOK 22/09 Q1010=
201907121430 METAR LRIA 121430Z 32008KT CAVOK 23/10 Q1010=
201907121500 METAR LRIA 121500Z 33010KT CAVOK 22/09 Q1010=
201907121530 METAR LRIA 121530Z 33008KT CAVOK 23/09 Q1010=
201907121600 METAR LRIA 121600Z 31006KT CAVOK 23/08 Q1010=
201907121630 METAR LRIA 121630Z 03006KT 9999 FEW050TCU 22/10 Q1010=
201907121700 METAR LRIA 121700Z 04004KT 9999 FEW050TCU 22/10 Q1010=
201907121730 METAR LRIA 121730Z 32002KT 9999 FEW050CB 20/10 Q1011=
201907121800 METAR LRIA 121800Z 00000KT 9999 FEW050CB 20/11 Q1011=
201907121830 METAR LRIA 121830Z 29008KT 260V330 9999 SCT055CB 18/10 Q1011=
201907121900 METAR LRIA 121900Z 33006KT 9999 FEW045CB 18/10 Q1011=
201907121930 METAR LRIA 121930Z 08007KT 9999 FEW047 18/10 Q1011=
201907122000 METAR LRIA 122000Z VRB02KT CAVOK 17/10 Q1011=
201907122030 METAR LRIA 122030Z 24004KT CAVOK 17/12 Q1011=
201907122100 METAR LRIA 122100Z 24004KT CAVOK 17/12 Q1011=
201907122130 METAR LRIA 122130Z 28003KT CAVOK 17/11 Q1011=
201907122200 METAR LRIA 122200Z 25003KT CAVOK 16/12 Q1011=
201907122230 METAR LRIA 122230Z 25003KT CAVOK 16/12 Q1011=
201907122300 METAR LRIA 122300Z 25003KT 220V280 CAVOK 16/12 Q1011=
201907122330 METAR LRIA 122330Z 25002KT CAVOK 15/12 Q1011=
201907130000 METAR LRIA 130000Z 21002KT CAVOK 15/12 Q1011=
201907130030 METAR LRIA 130030Z 22002KT CAVOK 15/11 Q1011=
201907130100 METAR LRIA 130100Z 25003KT CAVOK 15/11 Q1011=
201907130130 METAR LRIA 130130Z 23003KT CAVOK 15/11 Q1011=
201907130200 METAR LRIA 130200Z 22002KT CAVOK 15/11 Q1011=
201907130230 METAR LRIA 130230Z 26003KT CAVOK 15/11 Q1011=
201907130300 METAR LRIA 130300Z 26002KT CAVOK 15/11 Q1011=
201907130330 METAR LRIA 130330Z 23002KT CAVOK 15/11 Q1011=
201907130400 METAR LRIA 130400Z 28003KT CAVOK 16/11 Q1011=
201907130430 METAR LRIA 130430Z VRB01KT CAVOK 16/11 Q1011=
201907130500 METAR LRIA 130500Z 25004KT 190V300 CAVOK 17/11 Q1011=
201907130530 METAR LRIA 130530Z 22005KT 180V260 CAVOK 18/11 Q1011=
201907130600 METAR LRIA 130600Z 26003KT 240V300 CAVOK 19/11 Q1011=
201907130630 METAR LRIA 130630Z VRB03KT CAVOK 21/12 Q1011=
201907130700 METAR LRIA 130700Z VRB02KT CAVOK 21/10 Q1011=
201907130730 METAR LRIA 130730Z VRB03KT CAVOK 22/10 Q1011=
201907130800 METAR LRIA 130800Z 04003KT 360V080 9999 FEW041 22/11 Q1011=
201907130830 METAR LRIA 130830Z 21004KT 160V260 9999 FEW045 23/11 Q1011=
201907130900 METAR LRIA 130900Z 20004KT 110V270 9999 SCT041 24/10 Q1011=
201907130930 METAR LRIA 130930Z 05004KT 350V110 9999 FEW041TCU SCT045
                        24/10 Q1010=
201907131000 METAR LRIA 131000Z 31004KT 270V010 9999 BKN049 24/11 Q1010=
201907131030 METAR LRIA 131030Z 26003KT 230V290 CAVOK 23/10 Q1010=
201907131100 METAR LRIA 131100Z 29003KT CAVOK 23/10 Q1010=
201907131130 METAR LRIA 131130Z VRB02KT CAVOK 24/09 Q1010=
201907131200 METAR LRIA 131200Z 14004KT 110V210 CAVOK 25/09 Q1009=
201907131230 METAR LRIA 131230Z 11005KT 080V150 CAVOK 24/09 Q1009=
201907131300 METAR LRIA 131300Z 06006KT 9999 FEW050TCU 25/09 Q1009=
201907131330 METAR LRIA 131330Z 04004KT 320V090 9999 FEW050TCU 25/09 Q1009=
201907131400 METAR LRIA 131400Z 07005KT 020V100 9999 FEW050TCU 25/08 Q1009=
201907131430 METAR LRIA 131430Z 13007KT CAVOK 25/08 Q1008=
201907131500 METAR LRIA 131500Z 15006KT CAVOK 25/08 Q1008=
201907131530 METAR LRIA 131530Z 16004KT 130V200 CAVOK 25/08 Q1008=
201907131600 METAR LRIA 131600Z 18006KT CAVOK 25/08 Q1008=
201907131630 METAR LRIA 131630Z 18005KT CAVOK 24/08 Q1009=
201907131700 METAR LRIA 131700Z 18004KT CAVOK 23/07 Q1009=
201907131730 METAR LRIA 131730Z 18003KT CAVOK 23/07 Q1009=
201907131800 METAR LRIA 131800Z 22005KT 180V240 CAVOK 22/09 Q1009=
201907131830 METAR LRIA 131830Z 21004KT CAVOK 21/09 Q1009=
201907131900 METAR LRIA 131900Z 21003KT CAVOK 20/10 Q1009=
201907131930 METAR LRIA 131930Z VRB01KT CAVOK 20/11 Q1009=
201907132000 METAR LRIA 132000Z 00000KT CAVOK 19/10 Q1009=
201907132030 METAR LRIA 132030Z 00000KT CAVOK 19/10 Q1009=
201907132100 METAR LRIA 132100Z 00000KT CAVOK 19/10 Q1008=
201907132130 METAR LRIA 132130Z 00000KT CAVOK 16/11 Q1009=
201907132200 METAR LRIA 132200Z 00000KT CAVOK 16/11 Q1009=
201907132230 METAR LRIA 132230Z 00000KT CAVOK 17/11 Q1008=
201907132300 METAR LRIA 132300Z 08003KT CAVOK 16/10 Q1008=
201907132330 METAR LRIA 132330Z 07003KT CAVOK 17/11 Q1008=
201907140000 METAR LRIA 140000Z 19003KT CAVOK 15/11 Q1008=
201907140030 METAR LRIA 140030Z 10002KT CAVOK 17/11 Q1008=
201907140100 METAR LRIA 140100Z 00000KT CAVOK 15/12 Q1008=
201907140130 METAR LRIA 140130Z 05003KT CAVOK 16/11 Q1008=
201907140200 METAR LRIA 140200Z 02003KT CAVOK 15/11 Q1008=
201907140230 METAR LRIA 140230Z 30002KT CAVOK 14/12 Q1008=
201907140300 METAR LRIA 140300Z 05002KT 020V080 CAVOK 15/11 Q1008=
201907140330 METAR LRIA 140330Z VRB01KT CAVOK 15/11 Q1008=
201907140400 METAR LRIA 140400Z VRB01KT CAVOK 15/12 Q1008=
201907140430 METAR LRIA 140430Z 27002KT CAVOK 16/12 Q1008=
201907140500 METAR LRIA 140500Z 26003KT 220V300 CAVOK 17/12 Q1008=
201907140530 METAR LRIA 140530Z 26003KT CAVOK 17/12 Q1008=
201907140600 METAR LRIA 140600Z 26004KT 9999 -RA FEW035 17/13 Q1008=
201907140630 METAR LRIA 140630Z 22002KT 9999 -RA NSC 17/13 Q1008=
201907140700 METAR LRIA 140700Z 28002KT CAVOK 18/14 Q1008=
201907140730 METAR LRIA 140730Z 28003KT 240V010 CAVOK 20/14 Q1008=
201907140800 METAR LRIA 140800Z 19003KT 110V260 CAVOK 21/14 Q1009=
201907140830 METAR LRIA 140830Z 23003KT 170V270 9999 FEW030 21/13 Q1009=
201907140900 METAR LRIA 140900Z VRB05KT 9999 FEW035 22/12 Q1009=
201907140930 METAR LRIA 140930Z VRB02KT 9999 SCT040 23/12 Q1008=
201907141000 METAR LRIA 141000Z 13008KT 9999 FEW035TCU SCT040 22/12 Q1008=
201907141030 METAR LRIA 141030Z 16004KT 090V240 9999 SCT040 24/12 Q1007=
201907141100 METAR LRIA 141100Z VRB04KT 9999 SCT045 24/12 Q1007=
201907141130 METAR LRIA 141130Z 21006KT 180V260 9999 SCT047 25/11 Q1007=
201907141200 METAR LRIA 141200Z 22005KT 140V270 9999 FEW045CB SCT048 26/10
                        Q1007=
201907141230 METAR LRIA 141230Z 23005KT 170V290 9999 FEW050CB 25/11 Q1007=
201907141300 METAR LRIA 141300Z 27007KT 240V340 9999 FEW050CB FEW055TCU
                        25/10 Q1007=
201907141330 METAR LRIA 141330Z 13005KT 070V190 9999 VCTS SCT050CB 26/10
                        Q1006=
201907141400 METAR LRIA 141400Z 11014KT 9999 VCTS SCT050CB 24/13 Q1006=
201907141430 METAR LRIA 141430Z 11010KT 9999 -RA FEW048CB 22/10 Q1007=
201907141500 METAR LRIA 141500Z 06008KT 9999 VCTS FEW050CB 21/13 Q1007
                        RETS=
201907141530 METAR LRIA 141530Z 08004KT 060V120 9999 VCTS FEW050CB 21/13
                        Q1007=
201907141600 METAR LRIA 141600Z 28007KT 9999 VCTS SCT035CB 20/13 Q1007=
201907141630 METAR LRIA 141630Z 27008KT 220V300 9999 VCTS FEW040CB 20/13
                        Q1008=
201907141700 METAR LRIA 141700Z 32009KT 9999 VCTS FEW040CB 18/13 Q1009=
201907141730 METAR LRIA 141730Z 32007KT 9999 FEW049CB 17/13 Q1009=
201907141800 METAR COR LRIA 141800Z 33006KT 9999 -RA FEW006 SCT045CB 16/14
                        Q1009 R14/29//95=
201907141830 METAR LRIA 141830Z 30004KT 9999 -RA FEW046CB 16/14 Q1009
                        R14/29//95=
201907141900 METAR LRIA 141900Z 29003KT 240V350 9999 -RA FEW045CB 15/14
                        Q1009 R14/29//95=
201907141930 METAR LRIA 141930Z VRB01KT 9999 FEW045CB 15/14 Q1009 RERA
                        R14/29//95=
201907142000 METAR LRIA 142000Z 16003KT 9999 SCT040 15/13 Q1009 R14/29//95=
201907142030 METAR LRIA 142030Z 14003KT CAVOK 15/13 Q1009 R14/29//95=
201907142100 METAR LRIA 142100Z 16002KT CAVOK 15/14 Q1009 R14/29//95=
201907142130 METAR LRIA 142130Z AUTO 28003KT 9999 SCT008/// BKN120///
                        15/14 Q1009=
201907142200 METAR LRIA 142200Z 31003KT 9999 SCT008 15/14 Q1009 R14/29//95=
201907142230 METAR LRIA 142230Z 30001KT 9999 SCT006 15/14 Q1009 R14/29//95=
201907142300 METAR LRIA 142300Z 00000KT CAVOK 15/14 Q1009 R14/29//95=
201907142330 METAR LRIA 142330Z 28001KT 9999 FEW009 15/14 Q1009 R14/29//95=
201907150000 METAR LRIA 150000Z 29003KT 9999 BKN009 15/14 Q1009 R14/29//95=
201907150030 METAR LRIA 150030Z AUTO 27003KT 9999 FEW004/// OVC056///
                        15/14 Q1009=
201907150100 METAR LRIA 150100Z AUTO 26004KT 9999 FEW004/// BKN005///
                        15/14 Q1009=
201907150130 METAR LRIA 150130Z 29004KT 9999 FEW003 BKN005 15/14 Q1009
                        R14/29//95=
201907150200 METAR LRIA 150200Z AUTO 29002KT 260V320 9999 FEW003/// SCT005///
                        15/14 Q1009=
201907150230 METAR LRIA 150230Z 28003KT 9999 FEW003 SCT004 15/14 Q1009
                        R14/CLRD//=
201907150300 METAR COR LRIA 150300Z 29004KT 9999 FEW002 15/13 Q1009=
201907150330 METAR LRIA 150330Z 29004KT 9999 FEW002 BKN008 15/13 Q1009=
201907150400 METAR LRIA 150400Z 31006KT 9999 FEW005 BKN007 15/13 Q1009=
201907150430 METAR LRIA 150430Z 32007KT 9999 SCT005 15/13 Q1009=
201907150500 METAR LRIA 150500Z 31006KT 280V340 9999 FEW004 SCT006 BKN033
                        16/14 Q1009=
201907150530 METAR LRIA 150530Z 31007KT 9999 FEW003 BKN005 FEW030CB 16/14
                        Q1009=
201907150600 METAR LRIA 150600Z 34008KT 9999 FEW003 BKN005 16/14 Q1009=
201907150630 METAR LRIA 150630Z 34007KT 9999 FEW003 BKN005 BKN033 17/14
                        Q1009=
201907150700 METAR LRIA 150700Z 34009KT 9999 FEW005 BKN010 17/14 Q1009=
201907150730 METAR LRIA 150730Z 33008KT 9999 SCT005 BKN021 18/14 Q1010=
201907150800 METAR LRIA 150800Z 33008KT 9999 FEW008 BKN024 18/14 Q1010=
201907150830 METAR LRIA 150830Z 33009KT 9999 FEW008 BKN022 18/14 Q1010=
201907150900 METAR LRIA 150900Z 33008KT 9999 FEW011 SCT022 FEW030TCU 19/14
                        Q1010=
201907150930 METAR LRIA 150930Z 30007KT 270V340 9999 FEW013 BKN025 FEW030TCU
                        19/14 Q1010=
201907151000 METAR LRIA 151000Z 30008KT 270V330 9999 FEW014 BKN025 FEW030CB
                        20/14 Q1010=
201907151030 METAR LRIA 151030Z 31009KT 9999 FEW017 SCT023 FEW030CB 19/14
                        Q1010=
201907151100 METAR LRIA 151100Z 31010KT 9999 FEW016 SCT023 SCT030CB 20/14
                        Q1010=
201907151130 METAR LRIA 151130Z 30010KT 9999 FEW016 SCT025 SCT033CB 19/13
                        Q1010=
201907151200 METAR LRIA 151200Z 30008KT 9999 -RA FEW016 SCT033CB 19/14
                        Q1010=
201907151230 METAR LRIA 151230Z 29007KT 9999 -SHRA FEW030 SCT033CB 20/14
                        Q1010=
201907151300 METAR LRIA 151300Z 31006KT 9999 -SHRA FEW022 BKN030CB 20/14
                        Q1010=
201907151330 METAR LRIA 151330Z 34008KT 9999 -SHRA VCTS FEW022 BKN030CB
                        19/14 Q1010=
201907151400 METAR LRIA 151400Z 02008KT 9999 -SHRA FEW023 BKN030CB 17/14
                        Q1010 R14/29//95=
201907151430 METAR LRIA 151430Z 30003KT 260V340 9999 -SHRA FEW023 FEW030CB
                        17/15 Q1010 R14/29//95=
201907151500 METAR LRIA 151500Z 28004KT 240V310 9999 -RA FEW025 FEW030CB
                        17/15 Q1010 R14/29//95=
201907151530 METAR LRIA 151530Z 25004KT 200V280 9999 -RA FEW025 FEW030CB
                        17/14 Q1010 R14/29//95=
201907151600 METAR LRIA 151600Z 30003KT 9999 -RA FEW010 17/14 Q1010 R14/29//95=
201907151630 METAR LRIA 151630Z 30003KT 260V320 9999 FEW009 17/14 Q1010
                        R14/29//95=
201907151700 METAR LRIA 151700Z 31002KT 9999 FEW010 17/14 Q1010 R14/29//95=
201907151730 METAR LRIA 151730Z 27003KT CAVOK 16/14 Q1010 R14/29//95=
201907151800 METAR LRIA 151800Z 22002KT CAVOK 16/14 Q1011 R14/29//95=
201907151830 METAR LRIA 151830Z 25002KT CAVOK 16/14 Q1011 R14/29//95=
201907151900 METAR LRIA 151900Z 24002KT CAVOK 16/14 Q1011 R14/29//95=
201907151930 METAR LRIA 151930Z 20001KT CAVOK 16/14 Q1011 R14/29//95=
201907152000 METAR LRIA 152000Z 26003KT CAVOK 16/14 Q1011 R14/29//95=
201907152030 METAR LRIA 152030Z 25003KT CAVOK 16/14 Q1011 R14/29//95=
201907152100 METAR LRIA 152100Z 26004KT CAVOK 16/14 Q1011 R14/29//95=
201907152130 METAR LRIA 152130Z 22002KT CAVOK 16/14 Q1011 R14/29//95=
201907152200 METAR LRIA 152200Z 26004KT CAVOK 16/14 Q1011 R14/29//95=
201907152230 METAR LRIA 152230Z 26004KT CAVOK 15/14 Q1011 R14/29//95=
201907152300 METAR LRIA 152300Z 27003KT CAVOK 15/14 Q1010 R14/29//95=
201907152330 METAR LRIA 152330Z 24004KT CAVOK 15/14 Q1010 R14/29//95=
201907160000 METAR LRIA 160000Z 27006KT CAVOK 15/13 Q1011 R14/29//95=
201907160030 METAR LRIA 160030Z 23003KT CAVOK 14/13 Q1011 R14/19//95=
201907160100 METAR LRIA 160100Z 24003KT CAVOK 14/13 Q1011 R14/19//95=
201907160130 METAR LRIA 160130Z 26003KT CAVOK 14/12 Q1011 R14/19//95=
201907160200 METAR LRIA 160200Z 28006KT CAVOK 13/11 Q1011 R14/19//95=
201907160230 METAR LRIA 160230Z 28006KT CAVOK 13/11 Q1011 R14/19//95=
201907160300 METAR LRIA 160300Z 28007KT CAVOK 13/11 Q1011 R14/19//95=
201907160330 METAR LRIA 160330Z 27005KT 240V320 CAVOK 13/11 Q1011 R14/19//95=
201907160400 METAR LRIA 160400Z 30008KT CAVOK 14/11 Q1011 R14/19//95=
201907160430 METAR LRIA 160430Z 29006KT CAVOK 15/11 Q1011 R14/19//95=
201907160500 METAR LRIA 160500Z 29004KT 250V320 CAVOK 15/12 Q1011 R14/19//95=
201907160530 METAR LRIA 160530Z 30006KT CAVOK 16/12 Q1011 R14/19//95=
201907160600 METAR LRIA 160600Z 29005KT 260V340 CAVOK 17/12 Q1012 R14/CLRD//=
201907160630 METAR LRIA 160630Z 29004KT 260V330 CAVOK 17/12 Q1012=
201907160700 METAR LRIA 160700Z 31005KT 250V350 CAVOK 18/12 Q1011=
201907160730 METAR LRIA 160730Z 30006KT 270V350 CAVOK 20/13 Q1011=
201907160800 METAR LRIA 160800Z 30007KT 260V340 CAVOK 20/13 Q1011=
201907160830 METAR LRIA 160830Z 33007KT 9999 SCT029 22/13 Q1011=
201907160900 METAR LRIA 160900Z 33008KT 290V010 9999 SCT029 22/12 Q1011=
201907160930 METAR LRIA 160930Z 32009KT 280V350 9999 FEW033 SCT047 22/11
                        Q1011=
201907161000 METAR LRIA 161000Z 31009KT 280V340 9999 SCT041 23/11 Q1011=
201907161030 METAR LRIA 161030Z 33009KT 9999 FEW044 23/11 Q1011=
201907161100 METAR LRIA 161100Z 31007KT 9999 SCT047 23/10 Q1011=
201907161130 METAR LRIA 161130Z 31008KT 270V360 9999 SCT046 24/10 Q1011=
201907161200 METAR LRIA 161200Z 30009KT 250V330 9999 SCT048 24/10 Q1010=
201907161230 METAR LRIA 161230Z 30009KT 9999 FEW042 24/10 Q1010=
201907161300 METAR LRIA 161300Z 32008KT 9999 FEW043 24/09 Q1010=
201907161330 METAR LRIA 161330Z 30008KT CAVOK 24/09 Q1010=
201907161400 METAR LRIA 161400Z 34007KT 310V010 CAVOK 25/08 Q1010=
201907161430 METAR LRIA 161430Z 33007KT 300V360 CAVOK 25/08 Q1010=
201907161500 METAR LRIA 161500Z 33007KT 300V360 CAVOK 25/09 Q1010=
201907161530 METAR LRIA 161530Z 34007KT 290V010 CAVOK 25/08 Q1010=
201907161600 METAR LRIA 161600Z 31007KT CAVOK 24/09 Q1009=
201907161630 METAR LRIA 161630Z 30004KT 260V320 CAVOK 24/10 Q1010=
201907161700 METAR LRIA 161700Z 29004KT CAVOK 23/10 Q1010=
201907161730 METAR LRIA 161730Z 30003KT CAVOK 22/10 Q1010=
201907161800 METAR LRIA 161800Z 32003KT CAVOK 22/11 Q1010=
201907161830 METAR LRIA 161830Z 00000KT CAVOK 20/10 Q1010=
201907161900 METAR LRIA 161900Z 00000KT CAVOK 19/10 Q1010=
201907161930 METAR LRIA 161930Z 19002KT CAVOK 19/10 Q1010=
201907162000 METAR LRIA 162000Z 00000KT CAVOK 18/11 Q1010=
201907162030 METAR LRIA 162030Z 24003KT CAVOK 17/11 Q1011=
201907162100 METAR LRIA 162100Z 27003KT CAVOK 16/11 Q1010=
201907162130 METAR LRIA 162130Z 29003KT CAVOK 17/11 Q1010=
201907162200 METAR LRIA 162200Z 20002KT CAVOK 16/11 Q1010=
201907162230 METAR LRIA 162230Z 22003KT CAVOK 16/11 Q1010=
201907162300 METAR LRIA 162300Z 23002KT CAVOK 16/11 Q1010=
201907162330 METAR LRIA 162330Z 25004KT CAVOK 16/11 Q1010=
201907170000 METAR LRIA 170000Z 27004KT CAVOK 16/11 Q1010=
201907170030 METAR LRIA 170030Z 26003KT CAVOK 15/10 Q1010=
201907170100 METAR LRIA 170100Z 26003KT CAVOK 15/11 Q1010=
201907170130 METAR LRIA 170130Z 26003KT CAVOK 15/11 Q1010=
201907170200 METAR LRIA 170200Z 21003KT CAVOK 14/11 Q1009=
201907170230 METAR LRIA 170230Z 25003KT CAVOK 14/11 Q1009=
201907170300 METAR LRIA 170300Z 24003KT CAVOK 14/11 Q1010=
201907170330 METAR LRIA 170330Z 26004KT CAVOK 14/11 Q1010=
201907170400 METAR LRIA 170400Z 29007KT CAVOK 16/12 Q1010=
201907170430 METAR LRIA 170430Z 27005KT 240V300 CAVOK 16/12 Q1010=
201907170500 METAR LRIA 170500Z 30008KT 260V320 CAVOK 17/12 Q1010=
201907170530 METAR LRIA 170530Z 31007KT CAVOK 17/12 Q1010=
201907170600 METAR LRIA 170600Z 31009KT 290V350 CAVOK 18/11 Q1010=
201907170630 METAR LRIA 170630Z 32008KT CAVOK 19/11 Q1011=
201907170700 METAR LRIA 170700Z 33008KT CAVOK 20/11 Q1010=
201907170730 METAR LRIA 170730Z 04008KT 340V070 CAVOK 21/11 Q1010=
201907170800 METAR LRIA 170800Z 33007KT 300V020 CAVOK 20/12 Q1010=
201907170830 METAR LRIA 170830Z 36008KT 330V040 CAVOK 22/11 Q1010=
201907170900 METAR LRIA 170900Z 31007KT CAVOK 22/12 Q1010=
201907170930 METAR LRIA 170930Z 31007KT 280V350 CAVOK 22/12 Q1010=
201907171000 METAR LRIA 171000Z 29006KT 9999 FEW033 22/12 Q1010=
201907171030 METAR LRIA 171030Z 33005KT 300V020 9999 FEW035 22/12 Q1009=
201907171100 METAR LRIA 171100Z VRB05KT 9999 FEW037 24/12 Q1009=
201907171130 METAR LRIA 171130Z 04005KT 300V100 9999 FEW037 23/12 Q1009=
201907171200 METAR LRIA 171200Z 32007KT 9999 FEW040 24/12 Q1009=
201907171230 METAR LRIA 171230Z 35006KT 310V030 9999 FEW047 24/12 Q1009=
201907171300 METAR LRIA 171300Z 33009KT 9999 FEW047 23/12 Q1009=
201907171330 METAR LRIA 171330Z 33007KT 9999 FEW048 22/11 Q1009=
201907171400 METAR LRIA 171400Z 34007KT 9999 FEW048 22/11 Q1009=
201907171430 METAR LRIA 171430Z 34007KT CAVOK 24/11 Q1009=
201907171500 METAR LRIA 171500Z 36006KT 330V040 CAVOK 24/11 Q1009=
201907171530 METAR LRIA 171530Z 01007KT CAVOK 24/12 Q1009=
201907171600 METAR LRIA 171600Z 03006KT CAVOK 23/12 Q1009=
201907171630 METAR LRIA 171630Z 01006KT CAVOK 23/11 Q1009=
201907171700 METAR LRIA 171700Z 36004KT CAVOK 22/12 Q1009=
201907171730 METAR LRIA 171730Z 35007KT CAVOK 21/12 Q1009=
201907171800 METAR LRIA 171800Z 35005KT CAVOK 21/11 Q1009=
201907171830 METAR LRIA 171830Z 02002KT 360V060 9999 -SHRA SCT050CB 21/12
                        Q1009=
201907171900 METAR LRIA 171900Z 12002KT 9000 SHRA SCT050CB 20/13 Q1010
                        R14/29//95=
201907171930 METAR COR LRIA 171930Z 22003KT 190V280 9999 -SHRA FEW050CB
                        18/15 Q1010 R14/29//95=
201907172000 METAR LRIA 172000Z 00000KT 9999 -RA SCT050CB 18/15 Q1010
                        R14/29//95=
201907172030 METAR LRIA 172030Z 29005KT 9999 FEW057CB 17/15 Q1011 RERA
                        R14/29//95=
201907172100 METAR LRIA 172100Z 30007KT 9999 FEW056CB 18/13 Q1011 R14/29//95=
201907172130 METAR LRIA 172130Z 32007KT CAVOK 18/13 Q1011 R14/29//95=
201907172200 METAR COR LRIA 172200Z 34008KT CAVOK 17/11 Q1011 R14/29//95=
201907172230 METAR LRIA 172230Z 33007KT CAVOK 17/12 Q1011 R14/29//95=
201907172300 METAR LRIA 172300Z 28004KT 230V320 CAVOK 16/12 Q1012 R14/29//95=
201907172330 METAR LRIA 172330Z 29004KT CAVOK 16/11 Q1012 R14/29//95=
201907180000 METAR LRIA 180000Z 27004KT CAVOK 15/12 Q1012 R14/29//95=
201907180030 METAR LRIA 180030Z AUTO 28004KT 9999 FEW073/// OVC093///
                        15/12 Q1012=
201907180100 METAR LRIA 180100Z 28004KT 250V310 CAVOK 15/12 Q1012 R14/29//95=
201907180130 METAR LRIA 180130Z 24004KT CAVOK 14/12 Q1012 R14/29//95=
201907180200 METAR COR LRIA 180200Z 26004KT CAVOK 14/12 Q1012 R14/29//95=
201907180230 METAR COR LRIA 180230Z 24003KT CAVOK 13/11 Q1012 R14/29//95=
201907180300 METAR COR LRIA 180300Z 22002KT CAVOK 13/11 Q1012 R14/19//95=
201907180330 METAR LRIA 180330Z 24004KT CAVOK 14/11 Q1012 R14/19//95=
201907180400 METAR LRIA 180400Z 23003KT 200V260 CAVOK 15/12 Q1012 R14/19//95=
201907180430 METAR LRIA 180430Z 25004KT 220V280 CAVOK 16/12 Q1013 R14/19//95=
201907180500 METAR LRIA 180500Z 25003KT 230V300 CAVOK 16/12 Q1013 R14/19//95=
201907180530 METAR LRIA 180530Z 24003KT 220V290 CAVOK 18/11 Q1013 R14/19//95=
201907180600 METAR LRIA 180600Z 30005KT CAVOK 19/11 Q1013 R14/19//95=
201907180630 METAR LRIA 180630Z 30005KT 250V330 CAVOK 20/11 Q1013 R14/19//95=
201907180700 METAR LRIA 180700Z 30007KT 280V340 CAVOK 20/11 Q1013 R14/19//95=
201907180730 METAR LRIA 180730Z 34008KT CAVOK 20/11 Q1013 R14/19//95=
201907180800 METAR LRIA 180800Z 33006KT 290V010 CAVOK 21/10 Q1013 R14/19//95=
201907180830 METAR LRIA 180830Z 33008KT 9999 FEW038 21/10 Q1013 R14/19//95=
201907180900 METAR LRIA 180900Z 32008KT 280V350 9999 FEW041 22/09 Q1013
                        R14/19//95=
201907180930 METAR LRIA 180930Z 34010KT 300V010 9999 FEW045 22/09 Q1013
                        R14/19//95=
201907181000 METAR LRIA 181000Z 28008KT 240V320 9999 FEW045 23/10 Q1013
                        R14/19//95=
201907181030 METAR LRIA 181030Z 27007KT 160V300 9999 FEW049 23/10 Q1013
                        R14/19//95=
201907181100 METAR LRIA 181100Z 35009KT CAVOK 24/10 Q1013 R14/19//95=
201907181130 METAR LRIA 181130Z 32008KT 280V350 CAVOK 24/09 Q1013 R14/19//95=
201907181200 METAR LRIA 181200Z 35009KT CAVOK 25/09 Q1013 R14/19//95=
201907181230 METAR LRIA 181230Z 30008KT CAVOK 25/09 Q1013 R14/19//95=
201907181300 METAR LRIA 181300Z 32008KT CAVOK 25/09 Q1013 R14/19//95=
201907181330 METAR LRIA 181330Z 33008KT 300V020 CAVOK 25/09 Q1013 R14/CLRD//=
201907181400 METAR LRIA 181400Z 32007KT 290V350 CAVOK 25/09 Q1013=
201907181430 METAR LRIA 181430Z 36006KT CAVOK 25/08 Q1013=
201907181500 METAR LRIA 181500Z 32008KT CAVOK 25/09 Q1013=
201907181530 METAR LRIA 181530Z 31006KT CAVOK 25/09 Q1013=
201907181600 METAR LRIA 181600Z 36003KT CAVOK 25/09 Q1013=
201907181630 METAR LRIA 181630Z 03004KT CAVOK 24/09 Q1013=
201907181700 METAR LRIA 181700Z 04004KT 330V060 CAVOK 23/10 Q1013=
201907181730 METAR LRIA 181730Z 01005KT CAVOK 21/10 Q1014=
201907181800 METAR LRIA 181800Z 01005KT CAVOK 21/08 Q1014=
201907181830 METAR LRIA 181830Z 03004KT CAVOK 19/10 Q1014=
201907181900 METAR LRIA 181900Z 04004KT CAVOK 18/10 Q1014=
201907181930 METAR LRIA 181930Z 03004KT CAVOK 17/10 Q1015=
201907182000 METAR LRIA 182000Z 00000KT CAVOK 17/09 Q1015=
201907182030 METAR LRIA 182030Z 00000KT CAVOK 18/10 Q1015=
201907182100 METAR COR LRIA 182100Z 00000KT CAVOK 19/11 Q1015=
201907182130 METAR LRIA 182130Z 00000KT CAVOK 17/11 Q1015=
201907182200 METAR LRIA 182200Z 26004KT CAVOK 17/12 Q1015=
201907182230 METAR LRIA 182230Z 25004KT 210V300 9999 -SHRA SCT035 FEW040CB
                        17/12 Q1016 R14/29//95=
201907182300 METAR LRIA 182300Z 19005KT 160V220 9999 -RA FEW040CB 16/13
                        Q1016 R14/29//95=
201907182330 METAR LRIA 182330Z 19005KT 9999 -RA FEW040CB 16/13 Q1016
                        R14/29//95=
201907190000 METAR LRIA 190000Z 22004KT CAVOK 16/13 Q1016 R14/29//95=
201907190030 METAR LRIA 190030Z 18002KT CAVOK 17/13 Q1016 R14/29//95=
201907190100 METAR LRIA 190100Z 00000KT CAVOK 17/13 Q1016 R14/29//95=
201907190130 METAR LRIA 190130Z 00000KT CAVOK 17/13 Q1016 R14/29//95=
201907190200 METAR LRIA 190200Z 00000KT CAVOK 17/13 Q1016 R14/29//95=
201907190230 METAR LRIA 190230Z 35004KT 320V020 CAVOK 17/14 Q1016 R14/29//95=
201907190300 METAR LRIA 190300Z VRB01KT CAVOK 17/13 Q1016 R14/29//95=
201907190330 METAR LRIA 190330Z 10003KT 9999 FEW048 16/13 Q1016 R14/29//95=
201907190400 METAR LRIA 190400Z 11003KT CAVOK 17/13 Q1016 R14/29//95=
201907190430 METAR LRIA 190430Z 00000KT CAVOK 17/13 Q1017 R14/29//95=
201907190500 METAR LRIA 190500Z 00000KT CAVOK 17/13 Q1017 R14/29//95=
201907190530 METAR LRIA 190530Z 00000KT CAVOK 18/14 Q1017 R14/29//95=
201907190600 METAR LRIA 190600Z 31003KT 260V360 CAVOK 18/14 Q1017 R14/19//95=
201907190630 METAR LRIA 190630Z 34003KT 300V040 CAVOK 20/13 Q1017 R14/19//95=
201907190700 METAR LRIA 190700Z 29005KT 240V330 CAVOK 20/14 Q1017 R14/19//95=
201907190730 METAR LRIA 190730Z VRB02KT CAVOK 22/14 Q1017 R14/19//95=
201907190800 METAR LRIA 190800Z 14003KT 070V200 9999 FEW033 22/13 Q1017
                        R14/19//95=
201907190830 METAR LRIA 190830Z VRB03KT 9999 FEW038 23/13 Q1017=
201907190900 METAR LRIA 190900Z 12003KT 030V190 9999 FEW040 24/12 Q1017=
201907190930 METAR LRIA 190930Z VRB03KT 9999 FEW039 24/12 Q1017=
201907191000 METAR LRIA 191000Z 11005KT 070V160 9999 FEW040 25/12 Q1017=
201907191030 METAR LRIA 191030Z 07006KT 040V110 9999 FEW046 25/12 Q1017=
201907191100 METAR LRIA 191100Z 13005KT 060V160 CAVOK 25/11 Q1017=
201907191130 METAR LRIA 191130Z 09006KT 040V130 CAVOK 26/11 Q1016=
201907191200 METAR LRIA 191200Z 09005KT 050V140 CAVOK 26/11 Q1016=
201907191230 METAR LRIA 191230Z 07007KT 030V090 CAVOK 26/11 Q1016=
201907191300 METAR LRIA 191300Z 12006KT 090V160 CAVOK 26/11 Q1016=
201907191330 METAR LRIA 191330Z 08005KT 050V120 CAVOK 27/11 Q1016=
201907191400 METAR LRIA 191400Z 14006KT 110V170 CAVOK 26/11 Q1016=
201907191430 METAR LRIA 191430Z 11005KT 050V150 CAVOK 27/11 Q1016=
201907191500 METAR LRIA 191500Z 12006KT 070V170 CAVOK 27/11 Q1016=
201907191530 METAR LRIA 191530Z 10003KT 060V150 CAVOK 26/11 Q1016=
201907191600 METAR LRIA 191600Z 10005KT CAVOK 26/10 Q1016=
201907191630 METAR LRIA 191630Z 11004KT CAVOK 26/11 Q1016=
201907191700 METAR LRIA 191700Z 17004KT CAVOK 25/11 Q1016=
201907191730 METAR LRIA 191730Z 16003KT CAVOK 25/11 Q1016=
201907191800 METAR LRIA 191800Z 12002KT CAVOK 24/11 Q1016=
201907191830 METAR COR LRIA 191830Z 11003KT CAVOK 22/13 Q1017=
201907191900 METAR LRIA 191900Z 11002KT CAVOK 21/12 Q1017=
201907191930 METAR LRIA 191930Z 00000KT CAVOK 21/11 Q1017=
201907192000 METAR LRIA 192000Z 00000KT CAVOK 20/12 Q1017=
201907192030 METAR LRIA 192030Z 00000KT CAVOK 20/12 Q1017=
201907192100 METAR LRIA 192100Z 12002KT CAVOK 19/13 Q1018=
201907192130 METAR LRIA 192130Z 00000KT CAVOK 18/12 Q1017=
201907192200 METAR LRIA 192200Z 27001KT CAVOK 17/13 Q1018=
201907192230 METAR LRIA 192230Z 00000KT CAVOK 18/13 Q1018=
201907192300 METAR LRIA 192300Z 00000KT CAVOK 17/12 Q1018=
201907192330 METAR LRIA 192330Z 00000KT CAVOK 18/13 Q1018=
201907200000 METAR LRIA 200000Z 07005KT CAVOK 18/14 Q1018=
201907200030 METAR LRIA 200030Z 09003KT CAVOK 18/14 Q1018=
201907200100 METAR LRIA 200100Z 06003KT CAVOK 18/14 Q1017=
201907200130 METAR LRIA 200130Z 07004KT CAVOK 18/14 Q1018=
201907200200 METAR LRIA 200200Z 00000KT CAVOK 17/14 Q1018=
201907200230 METAR LRIA 200230Z 00000KT 9999 FEW100 17/14 Q1018=
201907200300 METAR LRIA 200300Z 00000KT CAVOK 16/13 Q1018=
201907200330 METAR LRIA 200330Z 00000KT CAVOK 16/14 Q1018=
201907200400 METAR LRIA 200400Z 00000KT CAVOK 18/14 Q1018=
201907200430 METAR LRIA 200430Z 00000KT CAVOK 20/14 Q1018=
201907200500 METAR LRIA 200500Z VRB01KT CAVOK 21/15 Q1018=
201907200530 METAR LRIA 200530Z 20002KT CAVOK 21/14 Q1019=
201907200600 METAR LRIA 200600Z 27002KT CAVOK 22/14 Q1019=
201907200630 METAR LRIA 200630Z 12001KT CAVOK 24/14 Q1019=
201907200700 METAR LRIA 200700Z 13003KT 080V210 CAVOK 25/15 Q1019=
201907200730 METAR LRIA 200730Z 14003KT 080V200 CAVOK 25/15 Q1019=
201907200800 METAR LRIA 200800Z 10003KT 040V160 CAVOK 26/15 Q1019=
201907200830 METAR LRIA 200830Z 10004KT 060V130 CAVOK 26/15 Q1019=
201907200900 METAR LRIA 200900Z 10005KT 060V130 CAVOK 27/15 Q1019=
201907200930 METAR LRIA 200930Z 12005KT 090V160 9999 FEW045TCU 27/15 Q1019=
201907201000 METAR LRIA 201000Z 24006KT 170V300 9999 FEW048TCU 27/14 Q1018=
201907201030 METAR LRIA 201030Z 17005KT 110V280 9999 FEW048 29/14 Q1018=
201907201100 METAR LRIA 201100Z 20005KT 150V250 9999 FEW048 29/14 Q1018=
201907201130 METAR LRIA 201130Z 22008KT 9999 FEW050CB 30/13 Q1018=
201907201200 METAR LRIA 201200Z VRB06KT CAVOK 29/13 Q1018=
201907201230 METAR LRIA 201230Z 26005KT 170V320 CAVOK 30/12 Q1018=
201907201300 METAR LRIA 201300Z 23006KT 180V260 CAVOK 29/11 Q1017=
201907201330 METAR LRIA 201330Z 25005KT 210V330 9999 FEW050CB 30/10 Q1017=
201907201400 METAR LRIA 201400Z 21004KT 150V290 9999 FEW050CB 30/09 Q1017=
201907201430 METAR LRIA 201430Z 24005KT 170V290 CAVOK 31/10 Q1017=
201907201500 METAR LRIA 201500Z 30006KT 9999 FEW050CB 28/12 Q1017=
201907201530 METAR LRIA 201530Z 30005KT 9999 FEW050CB 27/13 Q1017=
201907201600 METAR LRIA 201600Z 32005KT 9999 FEW050CB 27/14 Q1017=
201907201630 METAR LRIA 201630Z 01006KT 9999 FEW050CB 26/15 Q1017=
201907201700 METAR LRIA 201700Z 06005KT 040V120 9999 FEW050CB 25/15 Q1018=
201907201730 METAR LRIA 201730Z 18002KT 080V240 9999 FEW050CB 24/15 Q1018=
201907201800 METAR LRIA 201800Z 25004KT 9999 FEW050CB 23/14 Q1018=
201907201830 METAR LRIA 201830Z 28005KT CAVOK 23/14 Q1018=
201907201900 METAR LRIA 201900Z 26005KT CAVOK 22/14 Q1019=
201907201930 METAR LRIA 201930Z 27005KT CAVOK 22/14 Q1019=
201907202000 METAR COR LRIA 202000Z 25003KT 230V290 CAVOK 22/14 Q1019=
201907202030 METAR LRIA 202030Z 24004KT 220V280 CAVOK 22/14 Q1019=
201907202100 METAR LRIA 202100Z 25003KT CAVOK 21/14 Q1019=
201907202130 METAR LRIA 202130Z 25004KT CAVOK 20/14 Q1019=
201907202200 METAR LRIA 202200Z 26004KT CAVOK 20/14 Q1019=
201907202230 METAR LRIA 202230Z 26004KT CAVOK 20/14 Q1019=
201907202300 METAR LRIA 202300Z 25003KT CAVOK 19/14 Q1019=
201907202330 METAR COR LRIA 202330Z 00000KT CAVOK 19/14 Q1019=
201907210000 METAR LRIA 210000Z 27004KT CAVOK 18/14 Q1019=
201907210030 METAR LRIA 210030Z 27004KT CAVOK 18/14 Q1019=
201907210100 METAR COR LRIA 210100Z 28005KT CAVOK 18/13 Q1019=
201907210130 METAR COR LRIA 210130Z 25003KT CAVOK 17/13 Q1019=
201907210200 METAR LRIA 210200Z AUTO 24004KT 9999 NCD 17/14 Q1019=
201907210230 METAR LRIA 210230Z AUTO 26003KT 9999 NCD 16/14 Q1019=
201907210300 METAR COR LRIA 210300Z 00000KT CAVOK 17/14 Q1019=
201907210330 METAR LRIA 210330Z 24001KT CAVOK 17/14 Q1019=
201907210400 METAR LRIA 210400Z 25003KT CAVOK 18/14 Q1019=
201907210430 METAR LRIA 210430Z 25003KT CAVOK 18/14 Q1019=
201907210500 METAR LRIA 210500Z 26004KT CAVOK 20/14 Q1019=
201907210530 METAR LRIA 210530Z 24004KT CAVOK 21/14 Q1019=
201907210600 METAR LRIA 210600Z 25003KT 180V290 CAVOK 22/15 Q1019=
201907210630 METAR LRIA 210630Z 26004KT 220V310 CAVOK 23/14 Q1019=
201907210700 METAR LRIA 210700Z 26003KT 190V320 CAVOK 24/15 Q1019=
201907210730 METAR LRIA 210730Z VRB03KT CAVOK 26/15 Q1019=
201907210800 METAR LRIA 210800Z 33004KT 260V030 9999 FEW045 26/15 Q1019=
201907210830 METAR LRIA 210830Z 32005KT 230V010 9999 FEW047 27/14 Q1019=
201907210900 METAR LRIA 210900Z 31004KT 250V010 9999 FEW049 28/13 Q1019=
201907210930 METAR LRIA 210930Z VRB04KT CAVOK 29/12 Q1019=
201907211000 METAR LRIA 211000Z VRB03KT CAVOK 29/12 Q1019=
201907211030 METAR LRIA 211030Z 27006KT 200V310 9999 FEW050TCU 29/11 Q1019=
201907211100 METAR LRIA 211100Z VRB03KT 9999 FEW050TCU 29/12 Q1019=
201907211130 METAR LRIA 211130Z 33006KT 9999 FEW050TCU 30/13 Q1018=
201907211200 METAR LRIA 211200Z 34005KT 310V010 9999 FEW050TCU 30/12 Q1018=
201907211230 METAR LRIA 211230Z 30004KT 260V030 CAVOK 30/12 Q1018=
201907211300 METAR LRIA 211300Z 28005KT 250V330 CAVOK 30/12 Q1018=
201907211330 METAR LRIA 211330Z VRB04KT CAVOK 30/12 Q1018=
201907211400 METAR LRIA 211400Z VRB02KT CAVOK 30/11 Q1018=
201907211430 METAR LRIA 211430Z 25004KT 130V300 CAVOK 31/12 Q1017=
201907211500 METAR LRIA 211500Z 24004KT 200V280 CAVOK 30/11 Q1017=
201907211530 METAR LRIA 211530Z 23003KT 160V300 CAVOK 30/13 Q1017=
201907211600 METAR LRIA 211600Z 26004KT 210V290 CAVOK 30/13 Q1017=
201907211630 METAR LRIA 211630Z 29003KT CAVOK 30/13 Q1017=
201907211700 METAR LRIA 211700Z 32002KT CAVOK 29/14 Q1017=
201907211730 METAR LRIA 211730Z 00000KT CAVOK 28/13 Q1017=
201907211800 METAR LRIA 211800Z 02002KT CAVOK 25/15 Q1017=
201907211830 METAR LRIA 211830Z 04003KT 020V170 CAVOK 24/15 Q1018=
201907211900 METAR LRIA 211900Z VRB01KT CAVOK 23/14 Q1018=
201907211930 METAR LRIA 211930Z 00000KT CAVOK 24/15 Q1018=
201907212000 METAR LRIA 212000Z 00000KT CAVOK 23/15 Q1018=
201907212030 METAR LRIA 212030Z 00000KT CAVOK 23/15 Q1018=
201907212100 METAR LRIA 212100Z 00000KT CAVOK 21/15 Q1018=
201907212130 METAR LRIA 212130Z 00000KT CAVOK 22/16 Q1018=
201907212200 METAR LRIA 212200Z 27002KT CAVOK 21/15 Q1018=
201907212230 METAR LRIA 212230Z 26001KT CAVOK 22/15 Q1018=
201907212300 METAR LRIA 212300Z 27004KT CAVOK 20/15 Q1018=
201907212330 METAR LRIA 212330Z 00000KT CAVOK 20/15 Q1018=
201907220000 METAR LRIA 220000Z 26004KT CAVOK 20/15 Q1018=
201907220030 METAR LRIA 220030Z 28008KT CAVOK 20/16 Q1018=
201907220100 METAR LRIA 220100Z 24005KT CAVOK 19/16 Q1019=
201907220130 METAR LRIA 220130Z 26005KT CAVOK 19/16 Q1019=
201907220200 METAR LRIA 220200Z 22003KT CAVOK 19/16 Q1018=
201907220230 METAR LRIA 220230Z 23004KT CAVOK 19/16 Q1018=
201907220300 METAR LRIA 220300Z 27004KT CAVOK 19/16 Q1018=
201907220330 METAR LRIA 220330Z 29005KT CAVOK 19/16 Q1019=
201907220400 METAR LRIA 220400Z 30005KT CAVOK 20/16 Q1019=
201907220430 METAR LRIA 220430Z 28003KT 230V330 CAVOK 21/16 Q1019=
201907220500 METAR LRIA 220500Z 31005KT 270V330 CAVOK 21/16 Q1019=
201907220530 METAR LRIA 220530Z 32006KT CAVOK 22/16 Q1019=
201907220600 METAR COR LRIA 220600Z 32008KT CAVOK 23/16 Q1019=
201907220630 METAR LRIA 220630Z 32009KT 290V350 CAVOK 24/16 Q1019=
201907220700 METAR LRIA 220700Z 34010KT 310V010 CAVOK 24/16 Q1019=
201907220730 METAR LRIA 220730Z 33009KT 9999 FEW023 23/16 Q1020=
201907220800 METAR LRIA 220800Z 31007KT 280V340 9999 FEW021 23/16 Q1020=
201907220830 METAR COR LRIA 220830Z 31011KT 9999 FEW021 25/16 Q1020=
201907220900 METAR COR LRIA 220900Z 33008KT CAVOK 25/15 Q1019=
201907220930 METAR LRIA 220930Z AUTO 32010KT 290V350 9999 FEW200/// 26/15
                        Q1019=
201907221000 METAR LRIA 221000Z 32012KT CAVOK 26/15 Q1019=
201907221030 METAR LRIA 221030Z 33009KT 300V360 CAVOK 27/15 Q1019=
201907221100 METAR COR LRIA 221100Z 33009KT 270V360 CAVOK 27/15 Q1019=
201907221130 METAR LRIA 221130Z 33008KT 300V020 CAVOK 28/15 Q1018=
201907221200 METAR LRIA 221200Z 34009KT 9999 BKN044 28/15 Q1018=
201907221230 METAR LRIA 221230Z 35010KT 9999 BKN047 27/15 Q1018=
201907221300 METAR COR LRIA 221300Z 32010KT 9999 BKN047 27/15 Q1018=
201907221330 METAR LRIA 221330Z 32009KT 9999 BKN047 27/14 Q1018=
201907221400 METAR LRIA 221400Z 34010KT 9999 SCT048 27/15 Q1017=
201907221430 METAR COR LRIA 221430Z 34010KT 9999 SCT048 27/15 Q1017=
201907221500 METAR LRIA 221500Z 32008KT CAVOK 27/15 Q1018=
201907221530 METAR LRIA 221530Z 33006KT CAVOK 26/15 Q1018=
201907221600 METAR COR LRIA 221600Z 32005KT CAVOK 26/15 Q1017=
201907221630 METAR LRIA 221630Z 31003KT CAVOK 26/15 Q1018=
201907221700 METAR LRIA 221700Z 31001KT CAVOK 26/15 Q1018=
201907221730 METAR LRIA 221730Z 32004KT CAVOK 25/16 Q1018=
201907221800 METAR LRIA 221800Z 30003KT CAVOK 25/16 Q1018=
201907221830 METAR LRIA 221830Z 28004KT CAVOK 23/16 Q1018=
201907221900 METAR LRIA 221900Z 32004KT CAVOK 23/16 Q1018=
201907221930 METAR LRIA 221930Z 32006KT CAVOK 23/16 Q1018=
201907222000 METAR LRIA 222000Z 32006KT CAVOK 22/15 Q1018=
201907222030 METAR LRIA 222030Z 31005KT CAVOK 21/16 Q1018=
201907222100 METAR LRIA 222100Z 32005KT CAVOK 21/15 Q1018=
201907222130 METAR LRIA 222130Z 29003KT CAVOK 21/15 Q1018=
201907222200 METAR LRIA 222200Z 29005KT CAVOK 21/15 Q1018=
201907222230 METAR LRIA 222230Z 31006KT CAVOK 21/15 Q1018=
201907222300 METAR LRIA 222300Z 28004KT CAVOK 20/16 Q1018=
201907222330 METAR LRIA 222330Z 25002KT CAVOK 20/15 Q1018=
201907230000 METAR LRIA 230000Z 26002KT CAVOK 19/16 Q1018=
201907230030 METAR LRIA 230030Z 25003KT CAVOK 18/15 Q1018=
201907230100 METAR LRIA 230100Z 30005KT CAVOK 19/15 Q1017=
201907230130 METAR LRIA 230130Z 29004KT CAVOK 18/15 Q1017=
201907230200 METAR LRIA 230200Z 28002KT CAVOK 17/15 Q1017=
201907230230 METAR LRIA 230230Z 27004KT 210V310 CAVOK 18/15 Q1017=
201907230300 METAR LRIA 230300Z 31003KT 9999 -RA SCT049 19/15 Q1017 R14/19//05=
201907230330 METAR LRIA 230330Z 25004KT CAVOK 18/15 Q1017 R14/19//05=
201907230400 METAR LRIA 230400Z 27003KT CAVOK 19/16 Q1017 R14/19//05=
201907230430 METAR LRIA 230430Z VRB01KT CAVOK 19/15 Q1017 R14/CLRD//=
201907230500 METAR LRIA 230500Z 24003KT 9999 FEW040 19/16 Q1017=
201907230530 METAR LRIA 230530Z 27003KT CAVOK 20/16 Q1017=
201907230600 METAR LRIA 230600Z 26004KT 230V290 CAVOK 20/16 Q1017=
201907230630 METAR LRIA 230630Z 30006KT CAVOK 21/16 Q1017=
201907230700 METAR LRIA 230700Z 30006KT CAVOK 21/16 Q1017=
201907230730 METAR LRIA 230730Z 30010KT 270V330 CAVOK 22/16 Q1017=
201907230800 METAR LRIA 230800Z 31010KT 9999 FEW024 22/15 Q1017=
201907230830 METAR LRIA 230830Z 33012KT 9999 FEW026 22/15 Q1017=
201907230900 METAR LRIA 230900Z 34012KT 9999 FEW030 22/14 Q1017=
201907230930 METAR LRIA 230930Z 34010KT 300V360 9999 FEW030 SCT047 21/13
                        Q1017=
201907231000 METAR LRIA 231000Z 34011KT 9999 -RA FEW030 BKN048 20/14 Q1018=
201907231030 METAR LRIA 231030Z 33007KT 9999 -RA FEW030 BKN047 19/14 Q1018
                        R14/19//95=
201907231100 METAR LRIA 231100Z 31004KT 9999 -RA FEW035CB BKN047 18/15
                        Q1017 R14/29//95=
201907231130 METAR LRIA 231130Z VRB02KT 9999 FEW038 SCT047 19/16 Q1017
                        R14/29//95=
201907231200 METAR LRIA 231200Z 29004KT 230V340 9999 FEW038 FEW040CB 21/16
                        Q1017 R14/29//95=
201907231230 METAR LRIA 231230Z 32006KT 280V350 9999 SCT038 FEW040CB 22/14
                        Q1016 R14/19//95=
201907231300 METAR LRIA 231300Z VRB02KT 9999 SCT029 FEW035CB 23/15 Q1016
                        R14/CLRD//=
201907231330 METAR LRIA 231330Z 31005KT 260V360 9999 SCT028 FEW035CB 23/13
                        Q1016=
201907231400 METAR LRIA 231400Z 35007KT 320V020 9999 FEW031 FEW035CB 24/13
                        Q1015=
201907231430 METAR LRIA 231430Z 28007KT 9999 FEW037 FEW040CB 23/12 Q1015=
201907231500 METAR LRIA 231500Z 29005KT 9999 FEW037 FEW040CB 23/12 Q1015=
201907231530 METAR LRIA 231530Z 28006KT 240V340 9999 FEW037 FEW040CB 24/13
                        Q1015=
201907231600 METAR LRIA 231600Z 29007KT 260V320 9999 FEW037 FEW040CB 24/12
                        Q1015=
201907231630 METAR LRIA 231630Z 28006KT 250V320 9999 FEW037 FEW040CB 23/12
                        Q1015=
201907231700 METAR LRIA 231700Z 31004KT CAVOK 21/13 Q1015=
201907231730 METAR COR LRIA 231730Z 29006KT CAVOK 21/13 Q1015=
201907231800 METAR LRIA 231800Z 29006KT CAVOK 20/14 Q1015=
201907231830 METAR LRIA 231830Z 30007KT CAVOK 20/14 Q1015=
201907231900 METAR LRIA 231900Z 31008KT CAVOK 20/13 Q1015=
201907231930 METAR LRIA 231930Z 32008KT CAVOK 19/13 Q1015=
201907232000 METAR COR LRIA 232000Z 31008KT CAVOK 18/13 Q1015=
201907232030 METAR LRIA 232030Z 31008KT CAVOK 18/13 Q1015=
201907232100 METAR LRIA 232100Z 31009KT CAVOK 18/13 Q1015=
201907232130 METAR LRIA 232130Z 31009KT CAVOK 17/13 Q1015=
201907232200 METAR LRIA 232200Z 28006KT CAVOK 17/13 Q1015=
201907232230 METAR LRIA 232230Z 25004KT CAVOK 16/13 Q1015=
201907232300 METAR COR LRIA 232300Z 24004KT CAVOK 15/13 Q1015=
201907232330 METAR LRIA 232330Z 23003KT CAVOK 15/13 Q1015=
201907240000 METAR LRIA 240000Z 25003KT 220V280 CAVOK 15/13 Q1015=
201907240030 METAR LRIA 240030Z 23003KT 200V270 CAVOK 15/13 Q1015=
201907240100 METAR LRIA 240100Z AUTO 22004KT 9999 NCD 15/13 Q1015=
201907240130 METAR COR LRIA 240130Z 22005KT CAVOK 14/12 Q1015=
201907240200 METAR COR LRIA 240200Z 25004KT CAVOK 15/13 Q1015=
201907240230 METAR COR LRIA 240230Z 24004KT CAVOK 15/13 Q1015=
201907240300 METAR LRIA 240300Z AUTO 25003KT 9999 NCD 15/13 Q1015=
201907240330 METAR COR LRIA 240330Z 28005KT CAVOK 15/13 Q1016=
201907240400 METAR LRIA 240400Z 28004KT 250V320 CAVOK 16/14 Q1016=
201907240430 METAR LRIA 240430Z 28006KT 240V320 CAVOK 17/14 Q1016=
201907240500 METAR LRIA 240500Z 30006KT 270V330 CAVOK 17/14 Q1016=
201907240530 METAR LRIA 240530Z 31007KT CAVOK 18/14 Q1016=
201907240600 METAR LRIA 240600Z 32010KT CAVOK 19/14 Q1016=
201907240630 METAR LRIA 240630Z 31009KT CAVOK 20/13 Q1016=
201907240700 METAR LRIA 240700Z 31008KT CAVOK 21/14 Q1016=
201907240730 METAR LRIA 240730Z 33010KT CAVOK 22/12 Q1015=
201907240800 METAR LRIA 240800Z 35013KT 9999 FEW040 23/11 Q1016=
201907240830 METAR LRIA 240830Z 32010KT 9999 FEW041 23/12 Q1015=
201907240900 METAR LRIA 240900Z 34014KT 9999 FEW045 24/11 Q1015=
201907240930 METAR LRIA 240930Z 34013KT 310V010 9999 FEW046 24/11 Q1015=
201907241000 METAR LRIA 241000Z 33012KT 300V360 9999 FEW049 25/11 Q1015=
201907241030 METAR LRIA 241030Z 34015KT CAVOK 26/12 Q1015=
201907241100 METAR LRIA 241100Z 32012KT CAVOK 25/12 Q1015=
201907241130 METAR LRIA 241130Z 33011KT CAVOK 26/11 Q1015=
201907241200 METAR LRIA 241200Z 34011KT CAVOK 25/11 Q1015=
201907241230 METAR LRIA 241230Z 31010KT CAVOK 25/11 Q1014=
201907241300 METAR LRIA 241300Z 34010KT CAVOK 26/11 Q1015=
201907241330 METAR LRIA 241330Z 32009KT CAVOK 26/12 Q1014=
201907241400 METAR LRIA 241400Z 34010KT CAVOK 27/11 Q1014=
201907241430 METAR LRIA 241430Z 33008KT CAVOK 25/12 Q1014=
201907241500 METAR LRIA 241500Z 32012KT CAVOK 26/12 Q1014=
201907241530 METAR LRIA 241530Z 32012KT CAVOK 26/12 Q1014=
201907241600 METAR LRIA 241600Z 33010KT CAVOK 25/12 Q1014=
201907241630 METAR LRIA 241630Z 33012KT CAVOK 25/11 Q1015=
201907241700 METAR LRIA 241700Z 34012KT CAVOK 25/11 Q1015=
201907241730 METAR LRIA 241730Z 34009KT CAVOK 24/12 Q1015=
201907241800 METAR LRIA 241800Z 34006KT CAVOK 22/12 Q1015=
201907241830 METAR LRIA 241830Z 33006KT CAVOK 22/12 Q1015=
201907241900 METAR LRIA 241900Z 32005KT CAVOK 21/12 Q1016=
201907241930 METAR LRIA 241930Z 30006KT CAVOK 20/12 Q1016=
201907242000 METAR LRIA 242000Z 30006KT CAVOK 20/12 Q1016=
201907242030 METAR LRIA 242030Z 31006KT CAVOK 20/13 Q1016=
201907242100 METAR LRIA 242100Z 26004KT CAVOK 19/13 Q1016=
201907242130 METAR LRIA 242130Z 28003KT CAVOK 19/13 Q1016=
201907242200 METAR LRIA 242200Z 28006KT CAVOK 18/13 Q1016=
201907242230 METAR LRIA 242230Z 28004KT CAVOK 18/13 Q1016=
201907242300 METAR LRIA 242300Z 23004KT CAVOK 17/13 Q1016=
201907242330 METAR LRIA 242330Z 26005KT CAVOK 17/13 Q1016=
201907250000 METAR LRIA 250000Z 26006KT CAVOK 17/13 Q1016=
201907250030 METAR LRIA 250030Z 26006KT CAVOK 17/12 Q1016=
201907250100 METAR LRIA 250100Z 28006KT CAVOK 17/12 Q1016=
201907250130 METAR LRIA 250130Z 27006KT CAVOK 16/12 Q1016=
201907250200 METAR LRIA 250200Z 28007KT CAVOK 16/12 Q1016=
201907250230 METAR LRIA 250230Z 28008KT CAVOK 16/12 Q1016=
201907250300 METAR LRIA 250300Z 26005KT CAVOK 16/12 Q1017=
201907250330 METAR LRIA 250330Z 22003KT 180V250 CAVOK 15/12 Q1017=
201907250400 METAR LRIA 250400Z 25004KT CAVOK 16/13 Q1017=
201907250430 METAR LRIA 250430Z 27005KT 250V310 CAVOK 18/13 Q1017=
201907250500 METAR LRIA 250500Z 30007KT CAVOK 19/14 Q1017=
201907250530 METAR LRIA 250530Z 30008KT CAVOK 20/14 Q1017=
201907250600 METAR LRIA 250600Z 34006KT 290V360 CAVOK 21/14 Q1017=
201907250630 METAR LRIA 250630Z 33006KT 300V010 CAVOK 22/14 Q1017=
201907250700 METAR LRIA 250700Z 34007KT 310V010 CAVOK 22/14 Q1018=
201907250730 METAR LRIA 250730Z 32007KT 9999 FEW030 23/14 Q1018=
201907250800 METAR LRIA 250800Z 33007KT 290V350 9999 FEW033 24/14 Q1017=
201907250830 METAR LRIA 250830Z 32008KT 9999 FEW035 25/14 Q1017=
201907250900 METAR LRIA 250900Z 33008KT 300V360 9999 FEW034 25/13 Q1017=
201907250930 METAR LRIA 250930Z 31009KT 280V340 9999 FEW041 27/13 Q1017=
201907251000 METAR LRIA 251000Z 35011KT 310V010 9999 SCT045 FEW048 27/11
                        Q1017=
201907251030 METAR LRIA 251030Z 33009KT 300V010 9999 FEW050CB 27/12 Q1017=
201907251100 METAR LRIA 251100Z 36010KT CAVOK 27/11 Q1017=
201907251130 METAR LRIA 251130Z 31010KT 290V350 9999 FEW050CB 28/11 Q1016=
201907251200 METAR LRIA 251200Z 33008KT 9999 FEW050CB 27/11 Q1016=
201907251230 METAR LRIA 251230Z 33010KT 9999 FEW050CB 28/12 Q1016=
201907251300 METAR LRIA 251300Z 31010KT 9999 FEW050CB 28/11 Q1016=
201907251330 METAR LRIA 251330Z 35008KT 9999 FEW050TCU 27/11 Q1016=
201907251400 METAR LRIA 251400Z 34009KT 9999 FEW050TCU 28/11 Q1016=
201907251430 METAR LRIA 251430Z 35007KT CAVOK 27/12 Q1016=
201907251500 METAR LRIA 251500Z 35009KT CAVOK 28/12 Q1016=
201907251530 METAR LRIA 251530Z 35009KT CAVOK 27/12 Q1016=
201907251600 METAR LRIA 251600Z 32008KT CAVOK 26/11 Q1016=
201907251630 METAR LRIA 251630Z 33006KT CAVOK 25/11 Q1016=
201907251700 METAR LRIA 251700Z 32005KT CAVOK 25/12 Q1016=
201907251730 METAR LRIA 251730Z 33005KT CAVOK 24/12 Q1016=
201907251800 METAR LRIA 251800Z 34006KT CAVOK 21/12 Q1016=
201907251830 METAR LRIA 251830Z 32004KT CAVOK 22/12 Q1016=
201907251900 METAR LRIA 251900Z 30004KT CAVOK 22/12 Q1016=
201907251930 METAR LRIA 251930Z 25003KT CAVOK 21/13 Q1016=
201907252000 METAR LRIA 252000Z 23003KT CAVOK 22/12 Q1016=
201907252030 METAR LRIA 252030Z 22004KT CAVOK 21/12 Q1016=
201907252100 METAR LRIA 252100Z 28003KT CAVOK 21/12 Q1015=
201907252130 METAR LRIA 252130Z 28003KT CAVOK 21/12 Q1015=
201907252200 METAR LRIA 252200Z 25003KT CAVOK 19/13 Q1015=
201907252230 METAR LRIA 252230Z 25004KT CAVOK 19/13 Q1015=
201907252300 METAR LRIA 252300Z 28005KT CAVOK 20/13 Q1015=
201907252330 METAR LRIA 252330Z 24003KT CAVOK 18/13 Q1015=
201907260000 METAR LRIA 260000Z 22003KT CAVOK 18/14 Q1015=
201907260030 METAR LRIA 260030Z 23003KT CAVOK 18/13 Q1015=
201907260100 METAR LRIA 260100Z 24003KT CAVOK 18/13 Q1014=
201907260130 METAR LRIA 260130Z 23003KT CAVOK 18/13 Q1014=
201907260200 METAR LRIA 260200Z 22003KT CAVOK 18/12 Q1014=
201907260230 METAR LRIA 260230Z 24003KT CAVOK 18/12 Q1014=
201907260300 METAR LRIA 260300Z 24003KT 180V260 CAVOK 18/12 Q1014=
201907260330 METAR LRIA 260330Z VRB01KT CAVOK 18/12 Q1013=
201907260400 METAR LRIA 260400Z 00000KT CAVOK 18/13 Q1014=
201907260430 METAR LRIA 260430Z 22002KT CAVOK 19/14 Q1014=
201907260500 METAR LRIA 260500Z VRB01KT CAVOK 21/13 Q1013=
201907260530 METAR LRIA 260530Z 24002KT CAVOK 22/14 Q1013=
201907260600 METAR LRIA 260600Z 20002KT CAVOK 23/13 Q1013=
201907260630 METAR LRIA 260630Z 23003KT 170V300 CAVOK 24/13 Q1013=
201907260700 METAR LRIA 260700Z 25005KT 190V290 CAVOK 25/13 Q1013=
201907260730 METAR LRIA 260730Z 24005KT 190V260 CAVOK 26/13 Q1013=
201907260800 METAR LRIA 260800Z 29004KT 200V330 CAVOK 27/13 Q1013=
201907260830 METAR LRIA 260830Z VRB04KT CAVOK 28/13 Q1013=
201907260900 METAR LRIA 260900Z VRB03KT CAVOK 28/13 Q1012=
201907260930 METAR LRIA 260930Z VRB04KT CAVOK 29/12 Q1012=
201907261000 METAR LRIA 261000Z 17005KT 140V270 CAVOK 30/13 Q1012=
201907261030 METAR LRIA 261030Z 10005KT 050V130 CAVOK 30/12 Q1011=
201907261100 METAR LRIA 261100Z 21006KT 110V270 CAVOK 30/13 Q1011=
201907261130 METAR LRIA 261130Z 19007KT 110V220 CAVOK 30/13 Q1011=
201907261200 METAR LRIA 261200Z 17004KT 070V230 CAVOK 31/13 Q1011=
201907261230 METAR LRIA 261230Z VRB03KT CAVOK 31/12 Q1010=
201907261300 METAR LRIA 261300Z 19006KT 120V240 CAVOK 31/10 Q1010=
201907261330 METAR LRIA 261330Z 21004KT 120V250 CAVOK 30/11 Q1010=
201907261400 METAR LRIA 261400Z 18006KT 130V250 CAVOK 31/12 Q1010=
201907261430 METAR LRIA 261430Z 20005KT 160V250 CAVOK 31/11 Q1009=
201907261500 METAR LRIA 261500Z 20004KT 160V260 CAVOK 30/11 Q1009=
201907261530 METAR LRIA 261530Z 18003KT 130V240 CAVOK 30/10 Q1009=
201907261600 METAR LRIA 261600Z 21003KT 160V250 CAVOK 29/10 Q1009=
201907261630 METAR LRIA 261630Z VRB01KT CAVOK 30/13 Q1009=
201907261700 METAR LRIA 261700Z VRB01KT CAVOK 28/13 Q1009=
201907261730 METAR LRIA 261730Z 33001KT CAVOK 26/13 Q1009=
201907261800 METAR LRIA 261800Z 01002KT CAVOK 25/13 Q1009=
201907261830 METAR COR LRIA 261830Z 03010KT CAVOK 25/13 Q1009=
201907261900 METAR LRIA 261900Z 02009KT CAVOK 25/13 Q1009=
201907261930 METAR LRIA 261930Z 02007KT CAVOK 24/13 Q1009=
201907262000 METAR LRIA 262000Z VRB02KT CAVOK 23/14 Q1009=
201907262030 METAR LRIA 262030Z 28009G22KT 250V310 CAVOK 23/14 Q1010=
201907262100 METAR LRIA 262100Z 31011KT CAVOK 22/15 Q1010=
201907262130 METAR LRIA 262130Z 31012KT CAVOK 21/14 Q1010=
201907262200 METAR LRIA 262200Z 33008KT 9999 -RA NSC 21/15 Q1010=
201907262230 METAR LRIA 262230Z 30004KT 240V350 CAVOK 20/15 Q1010 RERA=
201907262300 METAR LRIA 262300Z 35010KT CAVOK 20/15 Q1009=
201907262330 METAR LRIA 262330Z 26003KT 210V360 CAVOK 20/15 Q1009=
201907270000 METAR COR LRIA 270000Z 34002KT 290V020 CAVOK 20/15 Q1009=
201907270030 METAR LRIA 270030Z AUTO 09002KT 030V160 9999 SCT130/// 19/15
                        Q1009=
201907270100 METAR LRIA 270100Z 27003KT 220V300 CAVOK 19/15 Q1009=
201907270130 METAR LRIA 270130Z 30005KT CAVOK 19/15 Q1009=
201907270200 METAR COR LRIA 270200Z 28004KT CAVOK 18/15 Q1009=
201907270230 METAR COR LRIA 270230Z 25003KT CAVOK 17/15 Q1009=
201907270300 METAR LRIA 270300Z 28004KT CAVOK 18/15 Q1009=
201907270330 METAR LRIA 270330Z 25003KT CAVOK 17/15 Q1009=
201907270400 METAR COR LRIA 270400Z 23002KT CAVOK 18/16 Q1009=
201907270430 METAR LRIA 270430Z 24003KT 210V280 CAVOK 19/16 Q1009=
201907270500 METAR LRIA 270500Z 23003KT 190V300 CAVOK 20/16 Q1009=
201907270530 METAR LRIA 270530Z 22003KT 160V270 CAVOK 21/16 Q1009=
201907270600 METAR LRIA 270600Z 26003KT 200V290 CAVOK 21/16 Q1010=
201907270630 METAR LRIA 270630Z 20003KT 160V240 CAVOK 22/16 Q1009=
201907270700 METAR LRIA 270700Z 28003KT 190V360 CAVOK 24/17 Q1009=
201907270730 METAR LRIA 270730Z 23003KT 140V310 CAVOK 24/16 Q1009=
201907270800 METAR LRIA 270800Z 17003KT CAVOK 27/16 Q1009=
201907270830 METAR LRIA 270830Z VRB03KT CAVOK 27/15 Q1009=
201907270900 METAR LRIA 270900Z 07004KT 020V160 CAVOK 27/14 Q1009=
201907270930 METAR LRIA 270930Z 04004KT 320V090 CAVOK 28/14 Q1009=
201907271000 METAR LRIA 271000Z 10005KT 050V150 CAVOK 28/14 Q1009=
201907271030 METAR LRIA 271030Z 09004KT 020V140 CAVOK 29/15 Q1009=
201907271100 METAR LRIA 271100Z 10004KT 020V190 9999 FEW050TCU 29/15 Q1009=
201907271130 METAR LRIA 271130Z 07005KT 010V110 9999 FEW050TCU 30/15 Q1008=
201907271200 METAR LRIA 271200Z VRB05KT 9999 FEW050CB 30/15 Q1008=
201907271230 METAR LRIA 271230Z 08004KT 020V120 9999 FEW050CB 30/15 Q1008=
201907271300 METAR LRIA 271300Z 11004KT 050V180 9999 FEW050CB 31/15 Q1008=
201907271330 METAR LRIA 271330Z VRB02KT 9999 FEW050CB 30/15 Q1008=
201907271400 METAR LRIA 271400Z 02003KT 9999 FEW050CB 30/16 Q1008=
201907271430 METAR LRIA 271430Z 04003KT 360V080 9999 FEW050CB 31/14 Q1007=
201907271500 METAR LRIA 271500Z 36003KT 300V050 9999 FEW050CB 30/15 Q1007=
201907271530 METAR LRIA 271530Z VRB02KT 9999 FEW050CB 31/13 Q1007=
201907271600 METAR LRIA 271600Z 09003KT 050V130 9999 FEW050CB 31/14 Q1007=
201907271630 METAR LRIA 271630Z 09003KT 9999 FEW050CB 30/14 Q1007=
201907271700 METAR LRIA 271700Z VRB01KT CAVOK 29/14 Q1007=
201907271730 METAR LRIA 271730Z 09002KT CAVOK 28/16 Q1008=
201907271800 METAR LRIA 271800Z 06005KT 040V110 CAVOK 27/15 Q1008=
201907271830 METAR LRIA 271830Z 14003KT 110V170 CAVOK 27/15 Q1008=
201907271900 METAR LRIA 271900Z 19003KT CAVOK 26/15 Q1008=
201907271930 METAR LRIA 271930Z 20003KT CAVOK 25/15 Q1008=
201907272000 METAR LRIA 272000Z 22003KT CAVOK 25/15 Q1008=
201907272030 METAR LRIA 272030Z 11004KT CAVOK 24/15 Q1008=
201907272100 METAR LRIA 272100Z 09007KT CAVOK 24/15 Q1008=
201907272130 METAR LRIA 272130Z 09007KT CAVOK 24/15 Q1008=
201907272200 METAR LRIA 272200Z 11005KT CAVOK 23/14 Q1008=
201907272230 METAR LRIA 272230Z 10007KT CAVOK 23/14 Q1008=
201907272300 METAR LRIA 272300Z 16005KT 130V190 CAVOK 23/14 Q1008=
201907272330 METAR LRIA 272330Z 16004KT CAVOK 23/14 Q1009=
201907280000 METAR LRIA 280000Z 16005KT CAVOK 23/13 Q1008=
201907280030 METAR LRIA 280030Z 16005KT CAVOK 23/13 Q1008=
201907280100 METAR LRIA 280100Z 10005KT CAVOK 21/13 Q1008=
201907280130 METAR LRIA 280130Z 10006KT CAVOK 21/13 Q1008=
201907280200 METAR LRIA 280200Z 10007KT CAVOK 20/13 Q1008=
201907280230 METAR LRIA 280230Z 11007KT CAVOK 20/13 Q1009=
201907280300 METAR LRIA 280300Z 10009KT CAVOK 20/13 Q1009=
201907280330 METAR LRIA 280330Z 11009KT CAVOK 20/14 Q1009=
201907280400 METAR LRIA 280400Z 10007KT CAVOK 21/14 Q1009=
201907280430 METAR LRIA 280430Z 11008KT CAVOK 21/14 Q1009=
201907280500 METAR LRIA 280500Z 11006KT CAVOK 23/14 Q1009=
201907280530 METAR LRIA 280530Z 11007KT CAVOK 24/14 Q1009=
201907280600 METAR LRIA 280600Z 11008KT CAVOK 25/15 Q1009=
201907280630 METAR LRIA 280630Z 11009KT CAVOK 26/15 Q1009=
201907280700 METAR LRIA 280700Z 10011KT CAVOK 26/15 Q1009=
201907280730 METAR LRIA 280730Z 10010KT CAVOK 28/15 Q1009=
201907280800 METAR LRIA 280800Z 13011KT CAVOK 30/15 Q1009=
201907280830 METAR COR LRIA 280830Z 15010KT CAVOK 30/13 Q1008=
201907280900 METAR LRIA 280900Z 15007KT 120V180 CAVOK 31/12 Q1008=
201907280930 METAR LRIA 280930Z 15008KT 120V190 CAVOK 32/12 Q1008=
201907281000 METAR LRIA 281000Z 19008KT 150V220 CAVOK 32/12 Q1008=
201907281030 METAR LRIA 281030Z 17010KT 140V210 CAVOK 32/11 Q1008=
201907281100 METAR LRIA 281100Z 16010KT 130V190 CAVOK 33/11 Q1008=
201907281130 METAR LRIA 281130Z 17010KT 140V200 CAVOK 32/11 Q1008=
201907281200 METAR LRIA 281200Z 18008KT 140V210 CAVOK 33/13 Q1008=
201907281230 METAR LRIA 281230Z 16009KT 130V200 CAVOK 33/13 Q1007=
201907281300 METAR LRIA 281300Z 17007KT 140V250 CAVOK 33/12 Q1007=
201907281330 METAR LRIA 281330Z 16010KT 130V190 CAVOK 33/12 Q1007=
201907281400 METAR COR LRIA 281400Z 18009KT 160V220 CAVOK 33/11 Q1007=
201907281430 METAR LRIA 281430Z 16010KT CAVOK 32/11 Q1006=
201907281500 METAR COR LRIA 281500Z 18007KT 140V220 CAVOK 32/11 Q1006=
201907281530 METAR COR LRIA 281530Z 17008KT 150V210 CAVOK 32/10 Q1006=
201907281600 METAR COR LRIA 281600Z 17007KT CAVOK 31/10 Q1006=
201907281630 METAR LRIA 281630Z 17006KT CAVOK 30/10 Q1006=
201907281700 METAR COR LRIA 281700Z 17005KT CAVOK 29/10 Q1006=
201907281730 METAR LRIA 281730Z 17006KT CAVOK 28/10 Q1006=
201907281800 METAR LRIA 281800Z 15005KT CAVOK 27/10 Q1006=
201907281830 METAR LRIA 281830Z 16005KT CAVOK 26/09 Q1007=
201907281900 METAR LRIA 281900Z 14005KT CAVOK 27/10 Q1007=
201907281930 METAR LRIA 281930Z 14005KT CAVOK 27/10 Q1006=
201907282000 METAR LRIA 282000Z 12006KT 090V160 CAVOK 26/11 Q1006=
201907282030 METAR LRIA 282030Z 11007KT CAVOK 25/11 Q1006=
201907282100 METAR LRIA 282100Z 15007KT CAVOK 25/12 Q1006=
201907282130 METAR LRIA 282130Z 12008KT CAVOK 24/12 Q1006=
201907282200 METAR LRIA 282200Z 14005KT 110V170 CAVOK 24/12 Q1006=
201907282230 METAR LRIA 282230Z 17008KT CAVOK 25/12 Q1006=
201907282300 METAR LRIA 282300Z 19007KT 150V210 CAVOK 25/12 Q1006=
201907282330 METAR LRIA 282330Z 19008KT CAVOK 25/12 Q1006=
201907290000 METAR LRIA 290000Z 17007KT 140V200 CAVOK 24/12 Q1006=
201907290030 METAR LRIA 290030Z 16004KT 120V180 CAVOK 23/12 Q1006=
201907290100 METAR LRIA 290100Z 10005KT 060V130 CAVOK 23/12 Q1006=
201907290130 METAR LRIA 290130Z 15005KT CAVOK 22/12 Q1006=
201907290200 METAR LRIA 290200Z 08005KT CAVOK 21/12 Q1005=
201907290230 METAR COR LRIA 290230Z 08006KT CAVOK 20/13 Q1006=
201907290300 METAR LRIA 290300Z 09007KT CAVOK 20/13 Q1006=
201907290330 METAR LRIA 290330Z 09008KT CAVOK 21/13 Q1006=
201907290400 METAR LRIA 290400Z 10008KT CAVOK 21/13 Q1006=
201907290430 METAR LRIA 290430Z 09008KT CAVOK 22/14 Q1006=
201907290500 METAR LRIA 290500Z 10008KT CAVOK 23/14 Q1006=
201907290530 METAR LRIA 290530Z 11008KT CAVOK 24/14 Q1005=
201907290600 METAR LRIA 290600Z 10009KT CAVOK 25/14 Q1005=
201907290630 METAR LRIA 290630Z 10009KT CAVOK 26/14 Q1005=
201907290700 METAR LRIA 290700Z 11008KT CAVOK 26/14 Q1005=
201907290730 METAR LRIA 290730Z 11008KT CAVOK 26/15 Q1006=
201907290800 METAR LRIA 290800Z 12007KT CAVOK 26/15 Q1006=
201907290830 METAR LRIA 290830Z 11005KT 080V160 CAVOK 27/16 Q1006=
201907290900 METAR LRIA 290900Z 17005KT 140V210 CAVOK 28/13 Q1006=
201907290930 METAR LRIA 290930Z 17005KT 130V210 CAVOK 28/13 Q1006=
201907291000 METAR LRIA 291000Z 17005KT 130V260 CAVOK 29/14 Q1005=
201907291030 METAR LRIA 291030Z VRB03KT CAVOK 30/13 Q1005=
201907291100 METAR LRIA 291100Z 18005KT 110V230 CAVOK 31/14 Q1005=
201907291130 METAR LRIA 291130Z 17008KT 140V210 CAVOK 31/13 Q1005=
201907291200 METAR LRIA 291200Z 19009KT 160V230 CAVOK 30/12 Q1005=
201907291230 METAR LRIA 291230Z 17006KT CAVOK 30/13 Q1005=
201907291300 METAR LRIA 291300Z 21006KT 170V250 CAVOK 30/14 Q1005=
201907291330 METAR LRIA 291330Z 22007KT 170V250 CAVOK 31/13 Q1005=
201907291400 METAR LRIA 291400Z 22005KT 190V260 CAVOK 30/13 Q1005=
201907291430 METAR LRIA 291430Z 23004KT 130V290 CAVOK 30/13 Q1004=
201907291500 METAR LRIA 291500Z 15004KT 090V190 CAVOK 30/12 Q1004=
201907291530 METAR LRIA 291530Z 23005KT 200V270 CAVOK 30/13 Q1004=
201907291600 METAR LRIA 291600Z 18004KT 9999 FEW045CB 30/13 Q1004=
201907291630 METAR LRIA 291630Z 26003KT 220V290 9999 FEW045CB 30/13 Q1004=
201907291700 METAR LRIA 291700Z 32004KT 9999 FEW040CB 27/15 Q1004=
201907291730 METAR LRIA 291730Z 31005KT 9999 FEW040CB 26/14 Q1004=
201907291800 METAR LRIA 291800Z 29003KT 9999 VCTS SCT040CB 26/14 Q1004=
201907291830 METAR LRIA 291830Z 02002KT 9999 VCTS FEW045CB 26/15 Q1005=
201907291900 METAR LRIA 291900Z 11011KT 9999 -RA FEW050CB 24/15 Q1006=
201907291930 METAR LRIA 291930Z 14005KT 100V180 9999 -RA FEW050CB 22/17
                        Q1006 R14/29//95=
201907292000 METAR LRIA 292000Z 22003KT 130V300 9999 -SHRA FEW050CB 21/17
                        Q1005 R14/29//95=
201907292030 METAR LRIA 292030Z 20002KT 9999 FEW050CB 21/17 Q1005 R14/29//95=
201907292100 METAR LRIA 292100Z 23004KT 190V260 CAVOK 21/17 Q1005 R14/29//95=
201907292130 METAR LRIA 292130Z 22003KT 190V260 CAVOK 21/17 Q1005 R14/29//95=
201907292200 METAR LRIA 292200Z 30003KT CAVOK 21/17 Q1005 R14/29//95=
201907292230 METAR LRIA 292230Z 17001KT CAVOK 21/17 Q1005 R14/29//95=
201907292300 METAR LRIA 292300Z 20002KT 120V240 CAVOK 20/17 Q1005 R14/29//95=
201907292330 METAR COR LRIA 292330Z VRB01KT CAVOK 20/17 Q1005 R14/29//95=
201907300000 METAR COR LRIA 300000Z 28001KT CAVOK 21/16 Q1005 R14/19//95=
201907300030 METAR COR LRIA 300030Z 00000KT CAVOK 20/16 Q1005 R14/19//95=
201907300100 METAR LRIA 300100Z AUTO 26002KT 200V300 9999 FEW170/// 20/16
                        Q1005=
201907300130 METAR COR LRIA 300130Z 33001KT CAVOK 20/16 Q1005 R14/19//95=
201907300200 METAR COR LRIA 300200Z 24002KT CAVOK 18/16 Q1005 R14/19//95=
201907300230 METAR COR LRIA 300230Z 28001KT CAVOK 18/16 Q1005 R14/19//95=
201907300300 METAR LRIA 300300Z AUTO VRB01KT 9999 NCD 19/16 Q1005=
201907300330 METAR LRIA 300330Z 34001KT CAVOK 19/16 Q1006 R14/19//95=
201907300400 METAR LRIA 300400Z 30002KT CAVOK 19/16 Q1006 R14/19//95=
201907300430 METAR LRIA 300430Z 31002KT CAVOK 20/17 Q1006 R14/19//95=
201907300500 METAR LRIA 300500Z 23003KT 200V260 CAVOK 21/17 Q1006 R14/19//95=
201907300530 METAR LRIA 300530Z 24004KT CAVOK 21/16 Q1006 R14/19//95=
201907300600 METAR LRIA 300600Z 24005KT CAVOK 22/14 Q1006 R14/CLRD//=
201907300630 METAR LRIA 300630Z 25004KT 210V280 CAVOK 23/15 Q1006=
201907300700 METAR LRIA 300700Z 25004KT 230V290 CAVOK 23/14 Q1007=
201907300730 METAR LRIA 300730Z 29003KT 230V350 CAVOK 24/15 Q1007=
201907300800 METAR LRIA 300800Z 31004KT 260V340 CAVOK 26/14 Q1007=
201907300830 METAR LRIA 300830Z 33005KT 300V010 CAVOK 27/14 Q1007=
201907300900 METAR LRIA 300900Z 33005KT CAVOK 29/14 Q1006=
201907300930 METAR LRIA 300930Z VRB04KT CAVOK 29/14 Q1006=
201907301000 METAR LRIA 301000Z 36006KT CAVOK 30/14 Q1006=
201907301030 METAR LRIA 301030Z 33004KT 290V070 CAVOK 30/14 Q1006=
201907301100 METAR LRIA 301100Z VRB03KT CAVOK 31/13 Q1006=
201907301130 METAR LRIA 301130Z 35005KT 320V040 CAVOK 31/13 Q1006=
201907301200 METAR LRIA 301200Z 35005KT 300V030 CAVOK 31/14 Q1006=
201907301230 METAR LRIA 301230Z 25006KT 200V310 CAVOK 32/14 Q1005=
201907301300 METAR LRIA 301300Z 32005KT CAVOK 32/14 Q1005=
201907301330 METAR LRIA 301330Z 29004KT 220V350 CAVOK 32/13 Q1005=
201907301400 METAR LRIA 301400Z 32004KT 260V040 CAVOK 32/13 Q1005=
201907301430 METAR LRIA 301430Z 05003KT 360V090 CAVOK 32/13 Q1005=
201907301500 METAR LRIA 301500Z VRB03KT CAVOK 32/14 Q1004=
201907301530 METAR LRIA 301530Z 30004KT 250V010 CAVOK 32/15 Q1004=
201907301600 METAR LRIA 301600Z 32004KT CAVOK 29/16 Q1004=
201907301630 METAR LRIA 301630Z 32004KT 9999 FEW050CB 29/15 Q1005=
201907301700 METAR LRIA 301700Z 31003KT 9999 FEW050CB 28/16 Q1005=
201907301730 METAR LRIA 301730Z 30002KT 9999 FEW050CB 29/14 Q1005=
201907301800 METAR LRIA 301800Z 32007KT CAVOK 26/16 Q1005=
201907301830 METAR LRIA 301830Z 31005KT CAVOK 25/16 Q1005=
201907301900 METAR LRIA 301900Z 27006KT CAVOK 25/16 Q1006=
201907301930 METAR LRIA 301930Z 28006KT CAVOK 25/16 Q1006=
201907302000 METAR LRIA 302000Z 27004KT CAVOK 24/16 Q1006=
201907302030 METAR LRIA 302030Z 28003KT CAVOK 24/16 Q1006=
201907302100 METAR LRIA 302100Z 24004KT CAVOK 24/16 Q1006=
201907302130 METAR LRIA 302130Z 25003KT 210V270 CAVOK 24/16 Q1006=
201907302200 METAR LRIA 302200Z 29003KT CAVOK 23/15 Q1006=
201907302230 METAR LRIA 302230Z 25004KT CAVOK 22/16 Q1006=
201907302300 METAR LRIA 302300Z 25004KT CAVOK 23/16 Q1006=
201907302330 METAR LRIA 302330Z 26005KT 220V290 CAVOK 22/16 Q1006=
201907310000 METAR LRIA 310000Z 24004KT 210V270 CAVOK 22/16 Q1006=
201907310030 METAR LRIA 310030Z AUTO 26004KT 210V300 9999 NCD 23/16 Q1006=
201907310100 METAR LRIA 310100Z 28006KT CAVOK 22/16 Q1006=
201907310130 METAR LRIA 310130Z 29005KT CAVOK 20/16 Q1006=
201907310200 METAR LRIA 310200Z 28005KT CAVOK 21/16 Q1006=
201907310230 METAR LRIA 310230Z 28006KT CAVOK 21/16 Q1007=
201907310300 METAR LRIA 310300Z 29005KT CAVOK 21/16 Q1007=
201907310330 METAR LRIA 310330Z 28006KT CAVOK 21/16 Q1007=
201907310400 METAR LRIA 310400Z 26002KT CAVOK 22/17 Q1008=
201907310430 METAR LRIA 310430Z 30008KT CAVOK 22/17 Q1008=
201907310500 METAR LRIA 310500Z 32010KT 9999 FEW022 23/17 Q1008=
201907310530 METAR LRIA 310530Z 32009KT 9999 FEW022 23/17 Q1008=
201907310600 METAR LRIA 310600Z 33011KT 9999 SCT017 22/17 Q1009=
201907310630 METAR LRIA 310630Z 31013KT 9999 BKN016 22/17 Q1009=
201907310700 METAR LRIA 310700Z 30011KT 9999 BKN017 23/16 Q1009=
201907310730 METAR LRIA 310730Z 31011KT 9999 BKN018 23/16 Q1010=
201907310800 METAR LRIA 310800Z 31011KT 280V340 9999 BKN019 24/16 Q1010=
201907310830 METAR LRIA 310830Z 30011KT 9999 BKN023 25/17 Q1010=
201907310900 METAR LRIA 310900Z 31011KT 280V340 9999 BKN025 26/16 Q1010=
201907310930 METAR COR LRIA 310930Z 32013KT 9999 FEW030 26/16 Q1010=
201907311000 METAR COR LRIA 311000Z 33011KT 290V350 9999 SCT032 27/17
                        Q1010=
201907311030 METAR LRIA 311030Z 34013KT 9999 SCT033 27/16 Q1010=
201907311100 METAR LRIA 311100Z 34012KT 310V020 9999 SCT035 27/16 Q1010=
201907311130 METAR LRIA 311130Z 32010KT 9999 SCT035 28/16 Q1010=
201907311200 METAR LRIA 311200Z 33011KT 9999 SCT038 28/16 Q1010=
201907311230 METAR LRIA 311230Z 32011KT 9999 FEW041 28/16 Q1010=
201907311300 METAR LRIA 311300Z 32011KT 290V360 9999 SCT043 29/16 Q1010=
201907311330 METAR LRIA 311330Z 35012KT 9999 FEW043 28/16 Q1010=
201907311400 METAR LRIA 311400Z 35013KT CAVOK 28/15 Q1009=
201907311430 METAR COR LRIA 311430Z 35013KT CAVOK 28/15 Q1009=
201907311500 METAR LRIA 311500Z 34009KT CAVOK 28/14 Q1010=
201907311530 METAR LRIA 311530Z 34009KT CAVOK 28/14 Q1010=
201907311600 METAR LRIA 311600Z 32006KT CAVOK 28/15 Q1010=
201907311630 METAR LRIA 311630Z 32004KT CAVOK 26/15 Q1010=
201907311700 METAR LRIA 311700Z 32003KT CAVOK 26/15 Q1010=
201907311730 METAR LRIA 311730Z 29003KT 240V320 CAVOK 25/15 Q1010=
201907311800 METAR LRIA 311800Z 31002KT CAVOK 25/14 Q1010=
201907311830 METAR LRIA 311830Z 30002KT CAVOK 25/14 Q1010=
201907311900 METAR LRIA 311900Z 28002KT CAVOK 24/15 Q1011=
201907311930 METAR LRIA 311930Z 24003KT CAVOK 24/15 Q1011=
201907312000 METAR LRIA 312000Z 24004KT 9999 FEW049 23/15 Q1011=
201907312030 METAR LRIA 312030Z 26004KT CAVOK 23/16 Q1011=
201907312100 METAR LRIA 312100Z 29005KT CAVOK 23/16 Q1011=
201907312130 METAR LRIA 312130Z 27005KT CAVOK 21/16 Q1012=
201907312200 METAR LRIA 312200Z 25002KT CAVOK 22/16 Q1011=
201907312230 METAR LRIA 312230Z 26003KT CAVOK 20/16 Q1012=
201907312300 METAR LRIA 312300Z 27002KT CAVOK 19/16 Q1012=
201907312330 METAR LRIA 312330Z 31004KT CAVOK 20/16 Q1012=
