201908010000 METAR LRIA 010000Z 34006KT CAVOK 21/15 Q1012=
201908010030 METAR LRIA 010030Z 36006KT CAVOK 21/14 Q1012=
201908010100 METAR LRIA 010100Z 01004KT CAVOK 21/14 Q1012=
201908010130 METAR LRIA 010130Z 35004KT CAVOK 19/13 Q1012=
201908010200 METAR LRIA 010200Z 35006KT CAVOK 19/13 Q1013=
201908010230 METAR LRIA 010230Z 33004KT 280V030 CAVOK 18/13 Q1013=
201908010300 METAR LRIA 010300Z 34007KT CAVOK 18/13 Q1013=
201908010330 METAR LRIA 010330Z 34007KT CAVOK 19/13 Q1013=
201908010400 METAR LRIA 010400Z 30005KT 9999 SCT044 19/13 Q1013=
201908010430 METAR LRIA 010430Z 31003KT 290V010 9999 SCT044 19/13 Q1013=
201908010500 METAR LRIA 010500Z 32003KT CAVOK 20/12 Q1013=
201908010530 METAR LRIA 010530Z 29004KT CAVOK 20/12 Q1013=
201908010600 METAR LRIA 010600Z 30003KT 260V340 CAVOK 20/13 Q1014=
201908010630 METAR LRIA 010630Z 28005KT CAVOK 20/12 Q1014=
201908010700 METAR LRIA 010700Z 30004KT 260V330 CAVOK 21/12 Q1014=
201908010730 METAR LRIA 010730Z 31004KT 270V350 CAVOK 22/12 Q1014=
201908010800 METAR LRIA 010800Z 32005KT CAVOK 22/12 Q1014=
201908010830 METAR LRIA 010830Z 33006KT CAVOK 23/11 Q1014=
201908010900 METAR LRIA 010900Z 33005KT 300V360 CAVOK 24/11 Q1014=
201908010930 METAR LRIA 010930Z 32005KT 270V350 CAVOK 24/11 Q1014=
201908011000 METAR LRIA 011000Z 30008KT CAVOK 24/10 Q1014=
201908011030 METAR LRIA 011030Z 30007KT CAVOK 25/09 Q1014=
201908011100 METAR LRIA 011100Z 29008KT CAVOK 24/10 Q1014=
201908011130 METAR LRIA 011130Z 26009KT 220V290 CAVOK 22/14 Q1014=
201908011200 METAR LRIA 011200Z 26008KT 220V290 CAVOK 22/14 Q1014=
201908011230 METAR LRIA 011230Z 26007KT 230V290 CAVOK 22/13 Q1013=
201908011300 METAR LRIA 011300Z 27008KT 230V300 CAVOK 23/13 Q1013=
201908011330 METAR LRIA 011330Z 26006KT 230V300 CAVOK 24/13 Q1013=
201908011400 METAR LRIA 011400Z 25005KT CAVOK 23/13 Q1013=
201908011430 METAR LRIA 011430Z 26006KT CAVOK 24/13 Q1013=
201908011500 METAR LRIA 011500Z 26007KT 200V290 CAVOK 25/12 Q1013=
201908011530 METAR LRIA 011530Z 26006KT 220V310 CAVOK 24/12 Q1013=
201908011600 METAR LRIA 011600Z 26005KT 220V290 CAVOK 23/13 Q1013=
201908011630 METAR LRIA 011630Z 27003KT 230V290 CAVOK 23/13 Q1013=
201908011700 METAR LRIA 011700Z 27003KT CAVOK 22/13 Q1012=
201908011730 METAR COR LRIA 011730Z 30003KT CAVOK 22/13 Q1013=
201908011800 METAR LRIA 011800Z 30003KT CAVOK 21/13 Q1013=
201908011830 METAR COR LRIA 011830Z 27004KT CAVOK 21/13 Q1013=
201908011900 METAR LRIA 011900Z 29004KT CAVOK 20/13 Q1013=
201908011930 METAR LRIA 011930Z 27003KT CAVOK 20/13 Q1013=
201908012000 METAR LRIA 012000Z 22002KT CAVOK 20/13 Q1013=
201908012030 METAR COR LRIA 012030Z 26002KT CAVOK 20/14 Q1013=
201908012100 METAR LRIA 012100Z 25004KT CAVOK 19/14 Q1013=
201908012130 METAR LRIA 012130Z 25003KT CAVOK 18/14 Q1013=
201908012200 METAR LRIA 012200Z VRB01KT CAVOK 18/14 Q1013=
201908012230 METAR COR LRIA 012230Z 18002KT CAVOK 18/14 Q1013=
201908012300 METAR LRIA 012300Z 00000KT CAVOK 18/14 Q1013=
201908012330 METAR LRIA 012330Z 23001KT CAVOK 17/13 Q1013=
201908020000 METAR LRIA 020000Z 00000KT CAVOK 17/14 Q1013=
201908020030 METAR LRIA 020030Z VRB01KT CAVOK 17/14 Q1013=
201908020100 METAR COR LRIA 020100Z 21002KT CAVOK 16/13 Q1013=
201908020130 METAR LRIA 020130Z VRB01KT CAVOK 17/13 Q1012=
201908020200 METAR LRIA 020200Z VRB01KT CAVOK 16/13 Q1012=
201908020230 METAR LRIA 020230Z 20002KT CAVOK 16/13 Q1012=
201908020300 METAR LRIA 020300Z 21002KT CAVOK 16/13 Q1012=
201908020330 METAR LRIA 020330Z 22002KT 180V250 CAVOK 17/13 Q1012=
201908020400 METAR LRIA 020400Z 22004KT 190V250 CAVOK 17/13 Q1012=
201908020430 METAR LRIA 020430Z 22002KT 180V250 CAVOK 18/14 Q1012=
201908020500 METAR LRIA 020500Z 25002KT CAVOK 19/14 Q1012=
201908020530 METAR LRIA 020530Z 24003KT CAVOK 20/14 Q1012=
201908020600 METAR LRIA 020600Z 19002KT CAVOK 22/14 Q1012=
201908020630 METAR LRIA 020630Z 28003KT 210V320 CAVOK 22/14 Q1012=
201908020700 METAR LRIA 020700Z 25005KT 210V310 9999 FEW038 23/15 Q1012=
201908020730 METAR LRIA 020730Z 29004KT 190V350 9999 FEW030 23/16 Q1012=
201908020800 METAR LRIA 020800Z 23004KT 190V300 9999 FEW021 24/16 Q1012=
201908020830 METAR LRIA 020830Z 28004KT 210V350 9999 FEW023 25/16 Q1012=
201908020900 METAR LRIA 020900Z 31005KT 260V360 9999 FEW025 25/16 Q1011=
201908020930 METAR LRIA 020930Z 33007KT 9999 SCT030 25/16 Q1011=
201908021000 METAR COR LRIA 021000Z 31006KT 270V330 9999 FEW030CB SCT038
                        25/15 Q1011 R14/19//95=
201908021030 METAR LRIA 021030Z 34010KT 9999 -RA FEW033CB 21/16 Q1012
                        R14/29//95=
201908021100 METAR LRIA 021100Z 30005KT 9999 -RA FEW045CB 21/18 Q1012
                        R14/29//95=
201908021130 METAR LRIA 021130Z 29003KT 250V320 9999 FEW050CB 21/18 Q1011
                        R14/29//95=
201908021200 METAR LRIA 021200Z 28005KT 250V310 9999 FEW050CB 23/17 Q1011
                        R14/29//95=
201908021230 METAR LRIA 021230Z 31005KT CAVOK 24/17 Q1011 R14/29//95=
201908021300 METAR LRIA 021300Z 30004KT 240V030 CAVOK 25/16 Q1011 R14/29//95=
201908021330 METAR LRIA 021330Z VRB02KT CAVOK 26/15 Q1011 R14/CLRD//=
201908021400 METAR LRIA 021400Z VRB03KT 9999 FEW050CB 27/14 Q1011=
201908021430 METAR LRIA 021430Z 25004KT 150V300 CAVOK 27/13 Q1010=
201908021500 METAR LRIA 021500Z 01019KT 9999 FEW056CB 25/14 Q1011=
201908021530 METAR LRIA 021530Z 01012KT 9999 FEW051CB 23/14 Q1011=
201908021600 METAR LRIA 021600Z 01006KT 9999 FEW054CB 23/15 Q1010=
201908021630 METAR LRIA 021630Z 34003KT CAVOK 25/15 Q1010=
201908021700 METAR LRIA 021700Z 17002KT CAVOK 23/15 Q1010=
201908021730 METAR LRIA 021730Z VRB01KT CAVOK 22/16 Q1010=
201908021800 METAR LRIA 021800Z 21002KT CAVOK 21/15 Q1011=
201908021830 METAR LRIA 021830Z 29002KT CAVOK 22/15 Q1011=
201908021900 METAR LRIA 021900Z VRB01KT CAVOK 21/15 Q1010=
201908021930 METAR LRIA 021930Z VRB01KT CAVOK 19/15 Q1010=
201908022000 METAR LRIA 022000Z 26002KT CAVOK 19/15 Q1010=
201908022030 METAR LRIA 022030Z 00000KT CAVOK 19/15 Q1010=
201908022100 METAR LRIA 022100Z 25002KT CAVOK 20/15 Q1010=
201908022130 METAR LRIA 022130Z VRB01KT CAVOK 19/15 Q1011=
201908022200 METAR LRIA 022200Z 00000KT CAVOK 19/15 Q1010=
201908022230 METAR LRIA 022230Z 23002KT CAVOK 17/14 Q1010=
201908022300 METAR LRIA 022300Z 00000KT CAVOK 18/15 Q1009=
201908022330 METAR LRIA 022330Z VRB01KT CAVOK 18/15 Q1009=
201908030000 METAR LRIA 030000Z 12003KT CAVOK 18/15 Q1009=
201908030030 METAR LRIA 030030Z 35002KT CAVOK 18/15 Q1009=
201908030100 METAR LRIA 030100Z 10002KT CAVOK 18/15 Q1009=
201908030130 METAR LRIA 030130Z 11002KT CAVOK 19/15 Q1009=
201908030200 METAR LRIA 030200Z VRB01KT CAVOK 17/15 Q1008=
201908030230 METAR LRIA 030230Z 21002KT CAVOK 17/15 Q1009=
201908030300 METAR LRIA 030300Z 17001KT CAVOK 17/15 Q1008=
201908030330 METAR COR LRIA 030330Z 20002KT 9999 -RA FEW045CB 17/15 Q1008
                        R14/19//95=
201908030400 METAR LRIA 030400Z VRB02KT 9999 -RA FEW048 18/15 Q1008 R14/19//95=
201908030430 METAR LRIA 030430Z VRB01KT CAVOK 18/15 Q1008 R14/19//95=
201908030500 METAR LRIA 030500Z VRB02KT 8000 NSC 18/16 Q1008 R14/19//95=
201908030530 METAR LRIA 030530Z 24001KT 8000 NSC 19/15 Q1008 R14/19//95=
201908030600 METAR LRIA 030600Z VRB01KT 8000 NSC 20/16 Q1008 R14/19//95=
201908030630 METAR LRIA 030630Z 30005KT 270V330 8000 NSC 20/16 Q1008 R14/19//95=
201908030700 METAR LRIA 030700Z 33007KT CAVOK 20/16 Q1008 R14/19//95=
201908030730 METAR LRIA 030730Z 33006KT CAVOK 20/16 Q1008 R14/19//95=
201908030800 METAR LRIA 030800Z 35006KT 9999 FEW010 20/17 Q1008 R14/19//95=
201908030830 METAR LRIA 030830Z 36008KT 9999 FEW009 20/16 Q1007 R14/19//95=
201908030900 METAR LRIA 030900Z 01008KT 9999 FEW012 21/16 Q1007 R14/19//95=
201908030930 METAR LRIA 030930Z 01008KT 9999 FEW014 21/15 Q1007 R14/19//95=
201908031000 METAR LRIA 031000Z 35010KT 9999 FEW016 21/15 Q1007 R14/CLRD//=
201908031030 METAR LRIA 031030Z 36009KT 9999 FEW020 SCT039 20/14 Q1007=
201908031100 METAR LRIA 031100Z 36012KT CAVOK 20/14 Q1006=
201908031130 METAR LRIA 031130Z 35010KT 9999 FEW030 20/14 Q1006=
201908031200 METAR LRIA 031200Z 35010KT 9999 FEW040 20/14 Q1006=
201908031230 METAR LRIA 031230Z 33010KT 9999 -RA FEW018 19/15 Q1006=
201908031300 METAR LRIA 031300Z 33011KT 9999 -RA FEW018 19/15 Q1006=
201908031330 METAR LRIA 031330Z 34015KT 9999 -RA FEW043 18/15 Q1006=
201908031400 METAR LRIA 031400Z 33013KT 9999 -RA FEW018 17/15 Q1006=
201908031430 METAR LRIA 031430Z 33011KT 9999 -RA FEW018 16/14 Q1007 R14/29//95=
201908031500 METAR LRIA 031500Z 34013KT 7000 RA FEW018 16/14 Q1006 R14/29//95=
201908031530 METAR LRIA 031530Z 34014KT 7000 +RA FEW018 16/14 Q1006 R14/29//95=
201908031600 METAR LRIA 031600Z 33010KT 7000 RA FEW018 16/14 Q1006 R14/29//95=
201908031630 METAR LRIA 031630Z 33011KT 9999 -RA FEW010 16/14 Q1006 R14/29//95=
201908031700 METAR LRIA 031700Z 34010KT 9000 -RA FEW005 SCT040 17/15 Q1006
                        R14/29//95=
201908031730 METAR LRIA 031730Z 34010KT 9999 -SHRA SCT002 FEW040CB 16/15
                        Q1006 R14/29//95=
201908031800 METAR LRIA 031800Z 34010KT 9000 -RA FEW008 SCT021CB BKN048
                        16/14 Q1006 R14/29//95=
201908031830 METAR LRIA 031830Z 33008KT 8000 -RA FEW002 SCT004 SCT023CB
                        15/14 Q1007=
201908031900 METAR LRIA 031900Z 32008KT 8000 -RA BKN003 SCT023CB 15/14
                        Q1007=
201908031930 METAR LRIA 031930Z 32008KT 8000 -RA BKN005 SCT030CB 15/14
                        Q1007=
201908032000 METAR COR LRIA 032000Z 32009KT 9000 RA BKN004 SCT030CB 15/14
                        Q1007 R14/29//95=
201908032030 METAR LRIA 032030Z 33008KT 9999 -RA SCT004 FEW032CB 15/14
                        Q1007 R14/29//95=
201908032100 METAR LRIA 032100Z 32008KT 9999 -RA FEW014 SCT025 FEW032CB
                        15/14 Q1007 R14/29//95=
201908032130 METAR LRIA 032130Z 32007KT 9999 -RA FEW004 SCT009 FEW032CB
                        15/13 Q1007 R14/29//95=
201908032200 METAR LRIA 032200Z 31009KT 9999 -RA FEW004 SCT028 FEW045CB
                        15/14 Q1006 R14/29//95=
201908032230 METAR LRIA 032230Z 32008KT 9999 -RA FEW007 SCT029 FEW052CB
                        16/14 Q1007 R14/29//95=
201908032300 METAR LRIA 032300Z 31008KT 9999 -RA FEW005 SCT027 FEW045CB
                        16/14 Q1007 R14/29//95=
201908032330 METAR LRIA 032330Z 30009KT 9999 -RA FEW004 SCT009 FEW056CB
                        16/14 Q1007 R14/29//95=
201908040000 METAR LRIA 040000Z 31009KT 9999 -RA FEW007 FEW048CB 16/14
                        Q1007 R14/29//95=
201908040030 METAR LRIA 040030Z 32009KT 9999 FEW006 SCT009 FEW048CB 16/14
                        Q1007 R14/29//95=
201908040100 METAR LRIA 040100Z 31010KT 9999 -RA SCT009 OVC038 16/14 Q1007
                        R14/29//95=
201908040130 METAR LRIA 040130Z 32010KT 9999 -RA SCT035 16/14 Q1007 R14/29//95=
201908040200 METAR LRIA 040200Z 32008KT 9999 FEW040 16/14 Q1007 R14/29//95=
201908040230 METAR LRIA 040230Z 32008KT 9999 FEW049 15/13 Q1007 R14/29//95=
201908040300 METAR LRIA 040300Z 31010KT CAVOK 15/13 Q1007 R14/29//95=
201908040330 METAR LRIA 040330Z 31010KT CAVOK 15/13 Q1007 R14/29//95=
201908040400 METAR LRIA 040400Z 30011KT 9999 FEW012 15/12 Q1007 R14/29//95=
201908040430 METAR LRIA 040430Z 31011KT CAVOK 15/13 Q1008 R14/29//95=
201908040500 METAR LRIA 040500Z 31012KT CAVOK 16/13 Q1008 R14/29//95=
201908040530 METAR LRIA 040530Z 31010KT CAVOK 16/13 Q1008 R14/29//95=
201908040600 METAR LRIA 040600Z 30012KT CAVOK 17/13 Q1008 R14/19//95=
201908040630 METAR LRIA 040630Z 32011KT 290V350 CAVOK 17/12 Q1008 R14/19//95=
201908040700 METAR LRIA 040700Z 31012KT CAVOK 19/12 Q1008 R14/CLRD//=
201908040730 METAR LRIA 040730Z 31013KT CAVOK 19/13 Q1009=
201908040800 METAR LRIA 040800Z 32011KT 280V340 CAVOK 19/11 Q1009=
201908040830 METAR LRIA 040830Z 31013KT 9999 FEW032 20/11 Q1009=
201908040900 METAR LRIA 040900Z 33015KT 9999 FEW032 21/10 Q1009=
201908040930 METAR LRIA 040930Z 31013KT 280V340 9999 FEW039 21/10 Q1009=
201908041000 METAR LRIA 041000Z 31011KT 9999 FEW039 21/11 Q1009=
201908041030 METAR LRIA 041030Z 32012KT 9999 SCT042 21/10 Q1009=
201908041100 METAR LRIA 041100Z 31010KT 9999 FEW044 21/10 Q1009=
201908041130 METAR LRIA 041130Z 32011KT 9999 FEW048 22/10 Q1009=
201908041200 METAR LRIA 041200Z 32011KT 9999 FEW048 23/10 Q1009=
201908041230 METAR LRIA 041230Z 32013KT 9999 FEW048 24/09 Q1009=
201908041300 METAR LRIA 041300Z 33011G21KT CAVOK 24/08 Q1009=
201908041330 METAR LRIA 041330Z 33012KT 300V360 9999 FEW050CB 24/09 Q1009=
201908041400 METAR LRIA 041400Z 33011G21KT 9999 FEW050CB 24/07 Q1009=
201908041430 METAR LRIA 041430Z 30013KT 9999 FEW050CB 20/09 Q1010=
201908041500 METAR LRIA 041500Z 30011KT CAVOK 20/10 Q1010=
201908041530 METAR LRIA 041530Z 31008KT CAVOK 20/10 Q1010=
201908041600 METAR LRIA 041600Z 30009KT CAVOK 21/10 Q1010=
201908041630 METAR LRIA 041630Z 30008KT CAVOK 20/11 Q1010=
201908041700 METAR LRIA 041700Z 30006KT CAVOK 20/11 Q1010=
201908041730 METAR LRIA 041730Z 31006KT CAVOK 19/10 Q1011=
201908041800 METAR LRIA 041800Z 33005KT CAVOK 18/10 Q1011=
201908041830 METAR LRIA 041830Z 34006KT CAVOK 17/09 Q1011=
201908041900 METAR LRIA 041900Z 33005KT 290V350 CAVOK 17/09 Q1012=
201908041930 METAR COR LRIA 041930Z 21003KT 160V280 CAVOK 17/09 Q1012=
201908042000 METAR LRIA 042000Z VRB01KT CAVOK 17/10 Q1012=
201908042030 METAR LRIA 042030Z VRB03KT CAVOK 17/09 Q1012=
201908042100 METAR LRIA 042100Z 28007KT CAVOK 17/09 Q1012=
201908042130 METAR LRIA 042130Z 28005KT CAVOK 17/09 Q1013=
201908042200 METAR LRIA 042200Z 26005KT CAVOK 16/10 Q1013=
201908042230 METAR COR LRIA 042230Z 29005KT CAVOK 16/10 Q1013=
201908042300 METAR LRIA 042300Z 27004KT 240V300 CAVOK 16/09 Q1013=
201908042330 METAR LRIA 042330Z 28004KT CAVOK 15/10 Q1013=
201908050000 METAR LRIA 050000Z 27002KT 230V310 CAVOK 15/10 Q1013=
201908050030 METAR LRIA 050030Z 24003KT CAVOK 14/10 Q1013=
201908050100 METAR COR LRIA 050100Z 25002KT CAVOK 14/10 Q1013=
201908050130 METAR LRIA 050130Z 25002KT 220V280 CAVOK 14/10 Q1013=
201908050200 METAR LRIA 050200Z AUTO 22004KT 9999 OVC100/// 14/10 Q1013=
201908050230 METAR LRIA 050230Z 25004KT CAVOK 14/10 Q1013=
201908050300 METAR COR LRIA 050300Z 24004KT 200V280 CAVOK 15/10 Q1013=
201908050330 METAR LRIA 050330Z 25004KT CAVOK 14/10 Q1013=
201908050400 METAR LRIA 050400Z 26006KT CAVOK 15/10 Q1013=
201908050430 METAR LRIA 050430Z 25005KT CAVOK 15/10 Q1014=
201908050500 METAR LRIA 050500Z 28004KT 250V310 CAVOK 17/10 Q1014=
201908050530 METAR LRIA 050530Z 26005KT 230V290 CAVOK 17/11 Q1014=
201908050600 METAR LRIA 050600Z 28007KT 260V330 CAVOK 19/10 Q1014=
201908050630 METAR LRIA 050630Z 29009KT 270V330 CAVOK 20/11 Q1014=
201908050700 METAR LRIA 050700Z 30010KT 250V320 CAVOK 20/11 Q1014=
201908050730 METAR LRIA 050730Z 28010KT CAVOK 21/11 Q1014=
201908050800 METAR LRIA 050800Z 31010KT CAVOK 21/10 Q1014=
201908050830 METAR LRIA 050830Z 31008KT 280V340 9999 FEW046 22/11 Q1014=
201908050900 METAR LRIA 050900Z 28009KT 240V320 CAVOK 23/10 Q1014=
201908050930 METAR LRIA 050930Z 30008KT 9999 FEW046 22/09 Q1014=
201908051000 METAR LRIA 051000Z 29006KT 240V320 CAVOK 23/10 Q1013=
201908051030 METAR LRIA 051030Z 28010KT CAVOK 24/09 Q1013=
201908051100 METAR LRIA 051100Z 27009KT CAVOK 25/08 Q1013=
201908051130 METAR LRIA 051130Z VRB07KT 9999 FEW050TCU 25/09 Q1013=
201908051200 METAR LRIA 051200Z 31007KT 9999 FEW050CB 24/08 Q1013=
201908051230 METAR LRIA 051230Z 28007KT 9999 SCT045CB 24/09 Q1013=
201908051300 METAR LRIA 051300Z 25009KT 220V280 9999 -SHRA SCT045CB 21/10
                        Q1013=
201908051330 METAR LRIA 051330Z 26006KT 9999 VCSH SCT040CB 23/11 Q1013=
201908051400 METAR LRIA 051400Z 27007KT 9999 VCSH BKN040CB 22/11 Q1013=
201908051430 METAR LRIA 051430Z 28012KT 9999 SCT045CB 21/11 Q1013=
201908051500 METAR LRIA 051500Z 01010KT 330V030 9999 FEW045CB 20/12 Q1014=
201908051530 METAR LRIA 051530Z 01008KT 9999 FEW045CB 18/12 Q1014=
201908051600 METAR LRIA 051600Z 02003KT 330V050 9999 FEW045CB 19/12 Q1014=
201908051630 METAR LRIA 051630Z 12004KT CAVOK 18/12 Q1014=
201908051700 METAR LRIA 051700Z 15003KT 120V190 CAVOK 18/12 Q1014=
201908051730 METAR LRIA 051730Z 20003KT CAVOK 17/12 Q1014=
201908051800 METAR LRIA 051800Z 23003KT 210V270 CAVOK 17/12 Q1014=
201908051830 METAR LRIA 051830Z 24003KT 210V280 9999 FEW050CB 17/12 Q1014=
201908051900 METAR LRIA 051900Z 20003KT 170V240 9999 FEW050CB 17/12 Q1014=
201908051930 METAR LRIA 051930Z 18003KT 150V210 CAVOK 16/12 Q1014=
201908052000 METAR LRIA 052000Z 23003KT 190V270 CAVOK 16/13 Q1014=
201908052030 METAR LRIA 052030Z 24004KT CAVOK 17/13 Q1014=
201908052100 METAR LRIA 052100Z 26004KT CAVOK 17/13 Q1015=
201908052130 METAR LRIA 052130Z 26004KT CAVOK 16/13 Q1015=
201908052200 METAR LRIA 052200Z 25004KT CAVOK 16/13 Q1015=
201908052230 METAR LRIA 052230Z 24002KT CAVOK 16/13 Q1015=
201908052300 METAR LRIA 052300Z VRB01KT CAVOK 16/13 Q1015=
201908052330 METAR LRIA 052330Z 27003KT CAVOK 16/13 Q1015=
201908060000 METAR LRIA 060000Z 23003KT CAVOK 16/13 Q1014=
201908060030 METAR LRIA 060030Z VRB01KT CAVOK 16/13 Q1014=
201908060100 METAR LRIA 060100Z 24003KT CAVOK 16/13 Q1014=
201908060130 METAR LRIA 060130Z 22002KT CAVOK 15/13 Q1015=
201908060200 METAR LRIA 060200Z 19002KT CAVOK 15/13 Q1014=
201908060230 METAR LRIA 060230Z 18001KT CAVOK 15/12 Q1015=
201908060300 METAR LRIA 060300Z 15001KT CAVOK 15/12 Q1015=
201908060330 METAR LRIA 060330Z 22002KT CAVOK 15/12 Q1015=
201908060400 METAR LRIA 060400Z 13003KT 110V170 CAVOK 15/12 Q1015=
201908060430 METAR LRIA 060430Z 09003KT CAVOK 16/13 Q1015=
201908060500 METAR LRIA 060500Z 00000KT CAVOK 17/13 Q1015=
201908060530 METAR LRIA 060530Z VRB01KT CAVOK 17/13 Q1015=
201908060600 METAR COR LRIA 060600Z 21003KT 150V240 CAVOK 19/12 Q1015=
201908060630 METAR LRIA 060630Z 21002KT 150V260 CAVOK 20/12 Q1015=
201908060700 METAR COR LRIA 060700Z 20003KT 140V270 CAVOK 21/12 Q1015=
201908060730 METAR LRIA 060730Z 22004KT 190V330 CAVOK 22/13 Q1016=
201908060800 METAR LRIA 060800Z 24005KT 190V290 CAVOK 23/13 Q1016=
201908060830 METAR COR LRIA 060830Z 24004KT 180V330 CAVOK 24/12 Q1015=
201908060900 METAR COR LRIA 060900Z VRB04KT CAVOK 25/12 Q1015=
201908060930 METAR LRIA 060930Z VRB05KT CAVOK 26/13 Q1015=
201908061000 METAR LRIA 061000Z 24005KT 170V310 CAVOK 26/13 Q1015=
201908061030 METAR LRIA 061030Z VRB05KT CAVOK 27/12 Q1015=
201908061100 METAR LRIA 061100Z 28004KT 220V320 CAVOK 27/13 Q1015=
201908061130 METAR LRIA 061130Z 24005KT 180V300 CAVOK 28/12 Q1014=
201908061200 METAR LRIA 061200Z 23006KT 170V280 CAVOK 28/11 Q1014=
201908061230 METAR LRIA 061230Z 23006KT 200V280 CAVOK 28/11 Q1014=
201908061300 METAR LRIA 061300Z 30005KT 190V360 CAVOK 28/12 Q1014=
201908061330 METAR LRIA 061330Z 27005KT 9999 VCTS FEW050CB 26/12 Q1014=
201908061400 METAR LRIA 061400Z 20006KT 9999 -SHRA VCTS FEW050CB 20/15
                        Q1015=
201908061430 METAR COR LRIA 061430Z 16002KT 120V200 9999 FEW050CB 23/15
                        Q1014=
201908061500 METAR LRIA 061500Z 24003KT 190V270 9999 FEW050CB 23/16 Q1014
                        R14/19//95=
201908061530 METAR LRIA 061530Z 26007KT 9999 FEW050CB 23/16 Q1014 R14/19//95=
201908061600 METAR COR LRIA 061600Z 27004KT 240V300 CAVOK 23/14 Q1014
                        R14/19//95=
201908061630 METAR LRIA 061630Z 31004KT 280V340 CAVOK 23/16 Q1014 R14/19//95=
201908061700 METAR LRIA 061700Z 33005KT CAVOK 22/16 Q1014 R14/19//95=
201908061730 METAR LRIA 061730Z 31005KT CAVOK 22/15 Q1015 R14/19//95=
201908061800 METAR LRIA 061800Z 00000KT CAVOK 22/15 Q1015 R14/19//95=
201908061830 METAR LRIA 061830Z 04003KT CAVOK 21/15 Q1015 R14/19//95=
201908061900 METAR LRIA 061900Z 05003KT 350V090 CAVOK 19/15 Q1015 R14/CLRD//=
201908061930 METAR LRIA 061930Z 34003KT CAVOK 19/14 Q1015=
201908062000 METAR LRIA 062000Z 21002KT CAVOK 19/15 Q1015=
201908062030 METAR LRIA 062030Z 26002KT CAVOK 19/15 Q1015=
201908062100 METAR LRIA 062100Z 22003KT CAVOK 19/16 Q1015=
201908062130 METAR LRIA 062130Z 17004KT CAVOK 19/16 Q1015=
201908062200 METAR LRIA 062200Z 20002KT CAVOK 18/15 Q1015=
201908062230 METAR LRIA 062230Z 19003KT CAVOK 18/15 Q1015=
201908062300 METAR LRIA 062300Z VRB01KT CAVOK 18/15 Q1015=
201908062330 METAR LRIA 062330Z 15001KT CAVOK 18/14 Q1014=
201908070000 METAR LRIA 070000Z 13002KT CAVOK 18/14 Q1014=
201908070030 METAR LRIA 070030Z 11001KT CAVOK 17/14 Q1014=
201908070100 METAR LRIA 070100Z 07002KT CAVOK 17/14 Q1014=
201908070130 METAR LRIA 070130Z 11004KT CAVOK 17/14 Q1014=
201908070200 METAR LRIA 070200Z VRB01KT CAVOK 16/14 Q1014=
201908070230 METAR LRIA 070230Z 06002KT CAVOK 17/14 Q1014=
201908070300 METAR LRIA 070300Z 08005KT CAVOK 17/14 Q1014=
201908070330 METAR COR LRIA 070330Z 07003KT CAVOK 18/14 Q1014=
201908070400 METAR LRIA 070400Z 09005KT CAVOK 18/14 Q1014=
201908070430 METAR LRIA 070430Z 10004KT CAVOK 18/15 Q1014=
201908070500 METAR LRIA 070500Z 06004KT CAVOK 19/15 Q1015=
201908070530 METAR LRIA 070530Z 09005KT CAVOK 20/15 Q1015=
201908070600 METAR LRIA 070600Z 11004KT CAVOK 20/16 Q1015=
201908070630 METAR LRIA 070630Z 18002KT CAVOK 22/16 Q1015=
201908070700 METAR LRIA 070700Z 16004KT 110V200 CAVOK 24/16 Q1015=
201908070730 METAR LRIA 070730Z 18004KT 130V230 CAVOK 25/16 Q1015=
201908070800 METAR LRIA 070800Z 19005KT 150V220 CAVOK 27/15 Q1015=
201908070830 METAR LRIA 070830Z 19006KT 150V230 CAVOK 28/15 Q1014=
201908070900 METAR LRIA 070900Z 21006KT 160V240 CAVOK 29/14 Q1014=
201908070930 METAR LRIA 070930Z 18007KT CAVOK 29/12 Q1014=
201908071000 METAR LRIA 071000Z 20008KT 170V230 CAVOK 30/12 Q1014=
201908071030 METAR LRIA 071030Z 17008KT 130V210 CAVOK 30/13 Q1014=
201908071100 METAR LRIA 071100Z 22006KT 130V270 CAVOK 30/14 Q1014=
201908071130 METAR LRIA 071130Z 19009KT 140V220 CAVOK 31/13 Q1013=
201908071200 METAR LRIA 071200Z 19008KT CAVOK 31/13 Q1013=
201908071230 METAR LRIA 071230Z 20008KT 120V240 CAVOK 31/13 Q1013=
201908071300 METAR LRIA 071300Z 17006KT 110V210 CAVOK 31/13 Q1013=
201908071330 METAR LRIA 071330Z 19008KT 150V220 CAVOK 31/13 Q1013=
201908071400 METAR LRIA 071400Z 19009KT 160V230 CAVOK 31/13 Q1012=
201908071430 METAR LRIA 071430Z 22009KT CAVOK 31/12 Q1012=
201908071500 METAR LRIA 071500Z 20007KT 160V240 CAVOK 31/12 Q1012=
201908071530 METAR LRIA 071530Z 20007KT 160V230 CAVOK 31/12 Q1012=
201908071600 METAR LRIA 071600Z 20006KT 180V240 CAVOK 30/13 Q1012=
201908071630 METAR LRIA 071630Z 19005KT CAVOK 29/13 Q1012=
201908071700 METAR COR LRIA 071700Z 18005KT CAVOK 28/14 Q1012=
201908071730 METAR COR LRIA 071730Z 17004KT CAVOK 27/13 Q1011=
201908071800 METAR LRIA 071800Z 17004KT CAVOK 27/13 Q1011=
201908071830 METAR LRIA 071830Z 17003KT CAVOK 26/13 Q1012=
201908071900 METAR LRIA 071900Z 17004KT CAVOK 26/13 Q1012=
201908071930 METAR LRIA 071930Z 18005KT CAVOK 25/13 Q1012=
201908072000 METAR COR LRIA 072000Z 19004KT CAVOK 25/13 Q1011=
201908072030 METAR COR LRIA 072030Z 20004KT CAVOK 25/14 Q1011=
201908072100 METAR LRIA 072100Z 20004KT CAVOK 24/14 Q1011=
201908072130 METAR COR LRIA 072130Z 20004KT CAVOK 24/14 Q1011=
201908072200 METAR LRIA 072200Z 11004KT 070V150 CAVOK 24/14 Q1011=
201908072230 METAR LRIA 072230Z 10005KT CAVOK 21/14 Q1011=
201908072300 METAR LRIA 072300Z 12004KT CAVOK 22/14 Q1011=
201908072330 METAR LRIA 072330Z 12004KT CAVOK 22/14 Q1011=
201908080000 METAR LRIA 080000Z 09005KT CAVOK 21/13 Q1011=
201908080030 METAR LRIA 080030Z 08005KT CAVOK 20/14 Q1011=
201908080100 METAR LRIA 080100Z 10006KT CAVOK 20/14 Q1011=
201908080130 METAR COR LRIA 080130Z 09004KT CAVOK 20/14 Q1011=
201908080200 METAR COR LRIA 080200Z 08007KT CAVOK 20/14 Q1011=
201908080230 METAR COR LRIA 080230Z 09007KT CAVOK 20/14 Q1011=
201908080300 METAR COR LRIA 080300Z 09007KT CAVOK 20/14 Q1011=
201908080330 METAR COR LRIA 080330Z 09005KT CAVOK 19/13 Q1011=
201908080400 METAR LRIA 080400Z 09006KT CAVOK 20/14 Q1011=
201908080430 METAR LRIA 080430Z 11006KT CAVOK 20/14 Q1010=
201908080500 METAR LRIA 080500Z 10005KT CAVOK 21/14 Q1011=
201908080530 METAR LRIA 080530Z 09006KT CAVOK 21/14 Q1011=
201908080600 METAR LRIA 080600Z 10004KT CAVOK 23/15 Q1011=
201908080630 METAR LRIA 080630Z 10005KT CAVOK 23/15 Q1011=
201908080700 METAR LRIA 080700Z 11006KT CAVOK 24/15 Q1011=
201908080730 METAR LRIA 080730Z 12007KT CAVOK 26/16 Q1011=
201908080800 METAR LRIA 080800Z 17006KT CAVOK 27/16 Q1011=
201908080830 METAR LRIA 080830Z 21007KT 170V240 CAVOK 28/16 Q1011=
201908080900 METAR LRIA 080900Z 19007KT 160V230 CAVOK 29/16 Q1011 WS R14=
201908080930 METAR LRIA 080930Z 19005KT 140V230 CAVOK 31/17 Q1011 WS R14=
201908081000 METAR LRIA 081000Z 19008KT 150V230 CAVOK 31/17 Q1011 WS R14=
201908081030 METAR LRIA 081030Z 19008KT 160V220 CAVOK 31/17 Q1010=
201908081100 METAR LRIA 081100Z 18009KT CAVOK 32/17 Q1010=
201908081130 METAR LRIA 081130Z 17009KT 130V190 CAVOK 33/17 Q1010=
201908081200 METAR LRIA 081200Z 20010KT 160V230 CAVOK 33/15 Q1010=
201908081230 METAR LRIA 081230Z 19010KT 9999 FEW040CB 33/16 Q1009=
201908081300 METAR LRIA 081300Z 18010KT 150V220 9999 FEW040CB 33/16 Q1009=
201908081330 METAR LRIA 081330Z 20007KT 9999 FEW040CB 32/15 Q1009=
201908081400 METAR LRIA 081400Z 19005KT 9999 -TSRA FEW040CB 31/16 Q1009=
201908081430 METAR LRIA 081430Z 24014KT 210V270 8000 +TSRA SCT040CB 23/19
                        Q1010 R14/29//95=
201908081500 METAR LRIA 081500Z 29011KT 240V320 7000 TSRA SCT040CB 21/17
                        Q1012 R14/29//95=
201908081530 METAR LRIA 081530Z 17009KT 140V200 9999 -TSRA FEW015 SCT040CB
                        20/18 Q1010 RESHRA R14/29//95=
201908081600 METAR LRIA 081600Z 15004KT 050V180 9999 SCT040CB 21/18 Q1011
                        RETS R14/29//95=
201908081630 METAR LRIA 081630Z 04006KT 340V080 9999 FEW040CB 22/18 Q1011
                        R14/29//95=
201908081700 METAR LRIA 081700Z 03003KT 330V090 9999 FEW048 23/18 Q1011
                        R14/29//95=
201908081730 METAR LRIA 081730Z 21002KT CAVOK 21/19 Q1011 R14/19//95=
201908081800 METAR LRIA 081800Z 18003KT 160V230 CAVOK 21/18 Q1012 R14/19//95=
201908081830 METAR LRIA 081830Z 11002KT CAVOK 21/19 Q1012 R14/19//95=
201908081900 METAR LRIA 081900Z 32002KT CAVOK 20/18 Q1012 R14/19//95=
201908081930 METAR LRIA 081930Z 32004KT 290V010 CAVOK 20/18 Q1012 R14/19//95=
201908082000 METAR LRIA 082000Z 02006KT 9999 VCTS FEW045CB 20/18 Q1013
                        R14/19//95=
201908082030 METAR LRIA 082030Z 28005KT 9999 VCTS FEW040CB 20/18 Q1013
                        R14/19//95=
201908082100 METAR LRIA 082100Z VRB02KT 9999 FEW047 20/18 Q1013 R14/19//95=
201908082130 METAR LRIA 082130Z 31002KT 9999 FEW048 20/18 Q1013 R14/19//95=
201908082200 METAR LRIA 082200Z 31002KT CAVOK 20/18 Q1013 R14/19//95=
201908082230 METAR LRIA 082230Z 25001KT CAVOK 20/18 Q1013 R14/19//95=
201908082300 METAR LRIA 082300Z 26002KT CAVOK 19/18 Q1013 R14/19//95=
201908082330 METAR LRIA 082330Z 27004KT CAVOK 19/18 Q1013 R14/19//95=
201908090000 METAR LRIA 090000Z 28001KT CAVOK 19/18 Q1013 R14/19//95=
201908090030 METAR LRIA 090030Z 27003KT CAVOK 19/17 Q1013 R14/19//95=
201908090100 METAR LRIA 090100Z 20002KT 5000 BR NSC 19/17 Q1013 R14/19//95=
201908090130 METAR LRIA 090130Z 24002KT 0600 R14/1000N R32/P2000 FG SCT001
                        19/17 Q1013 R14/19//95=
201908090200 METAR LRIA 090200Z 25003KT 220V280 0600 R14/1500D R32/P2000D
                        FG BKN001 19/17 Q1013 R14/19//95=
201908090230 METAR LRIA 090230Z 28003KT 0250 R14/0550N R32/0500N FG BKN001
                        19/17 Q1013 R14/19//95=
201908090300 METAR LRIA 090300Z 23003KT 0300 R14/0800N R32/0900N FG VV001
                        19/17 Q1014 R14/CLRD//=
201908090330 METAR LRIA 090330Z 23003KT 200V260 0300 R14/0600N R32/1500U
                        FG VV001 19/18 Q1014=
201908090400 METAR LRIA 090400Z 26003KT 0450 R14/0750U R32/P2000 FG BKN001
                        19/18 Q1014=
201908090430 METAR LRIA 090430Z 25003KT 2500 BR FEW002 19/18 Q1014=
201908090500 METAR LRIA 090500Z 24002KT 4900 BR FEW002 20/18 Q1014=
201908090530 METAR LRIA 090530Z 28004KT 6000 FEW002 20/19 Q1014=
201908090600 METAR LRIA 090600Z 31003KT 8000 FEW001 FEW055CB 20/19 Q1014=
201908090630 METAR COR LRIA 090630Z 26002KT 230V300 8000 -RA FEW003 FEW53CB
                        21/19 Q1014=
201908090700 METAR LRIA 090700Z 28005KT 7000 -RA FEW002 FEW046CB 21/19
                        Q1015=
201908090730 METAR LRIA 090730Z 30003KT 260V330 8000 -RA FEW005 FEW047CB
                        21/19 Q1015=
201908090800 METAR LRIA 090800Z 27004KT 240V300 9999 -RA FEW009 FEW051CB
                        21/19 Q1015=
201908090830 METAR LRIA 090830Z 25005KT 220V290 9999 -RA VCTS FEW003 FEW051CB
                        20/18 Q1016 R14/29//95=
201908090900 METAR LRIA 090900Z 32003KT 260V010 9000 -RA FEW010 FEW048CB
                        20/18 Q1015 R14/29//95=
201908090930 METAR LRIA 090930Z 01008KT 9999 FEW020 FEW048CB 21/19 Q1013
                        R14/29//95=
201908091000 METAR LRIA 091000Z 03005KT 9999 FEW026 21/19 Q1013 R14/29//95=
201908091030 METAR LRIA 091030Z 02004KT 350V050 CAVOK 22/19 Q1014 R14/29//95=
201908091100 METAR LRIA 091100Z 06004KT 010V120 9999 FEW010 23/19 Q1014
                        R14/29//95=
201908091130 METAR LRIA 091130Z 07004KT 360V140 9999 FEW012 24/18 Q1014
                        R14/29//95=
201908091200 METAR LRIA 091200Z 11006KT 070V150 9999 FEW020 25/17 Q1013
                        R14/29//95=
201908091230 METAR LRIA 091230Z 11005KT 070V160 9999 FEW021 25/18 Q1013
                        R14/CLRD//=
201908091300 METAR LRIA 091300Z 13004KT 080V190 9999 FEW025 25/17 Q1013=
201908091330 METAR LRIA 091330Z VRB03KT 9999 FEW025 25/17 Q1012=
201908091400 METAR LRIA 091400Z 12005KT 080V140 CAVOK 26/18 Q1012=
201908091430 METAR LRIA 091430Z 12006KT 100V160 CAVOK 26/18 Q1012=
201908091500 METAR LRIA 091500Z 10005KT CAVOK 25/18 Q1012=
201908091530 METAR LRIA 091530Z 08005KT CAVOK 25/18 Q1012=
201908091600 METAR LRIA 091600Z 08006KT CAVOK 25/18 Q1012=
201908091630 METAR COR LRIA 091630Z 09005KT 9999 -RA FEW055CB 25/18 Q1012=
201908091700 METAR COR LRIA 091700Z 04002KT 010V070 9999 -RA SCT030CB
                        24/19 Q1013=
201908091730 METAR LRIA 091730Z 02005KT 9999 FEW030CB 23/19 Q1013 RERA=
201908091800 METAR LRIA 091800Z 25001KT 9999 FEW026 FEW030CB 22/19 Q1013=
201908091830 METAR LRIA 091830Z 28002KT 9999 FEW035CB 22/19 Q1014=
201908091900 METAR LRIA 091900Z 25003KT 230V320 9999 FEW035CB 21/18 Q1014=
201908091930 METAR COR LRIA 091930Z 29004KT 9999 FEW040CB 21/19 Q1014=
201908092000 METAR LRIA 092000Z 27003KT 9999 FEW040CB 20/18 Q1014=
201908092030 METAR LRIA 092030Z 24004KT CAVOK 20/19 Q1014=
201908092100 METAR COR LRIA 092100Z 25003KT CAVOK 20/18 Q1015=
201908092130 METAR LRIA 092130Z 26003KT 5000 BR NSC 19/17 Q1015=
201908092200 METAR LRIA 092200Z 22002KT 4000 BR NSC 19/17 Q1015=
201908092230 METAR LRIA 092230Z 26004KT 5000 BR NSC 19/18 Q1015=
201908092300 METAR LRIA 092300Z 26003KT 5000 BR NSC 19/17 Q1015=
201908092330 METAR LRIA 092330Z 24003KT 3700 BR NSC 18/17 Q1015=
201908100000 METAR LRIA 100000Z 25004KT 5000 BR NSC 19/17 Q1015=
201908100030 METAR COR LRIA 100030Z 25003KT 4100 BR NSC 19/17 Q1015=
201908100100 METAR COR LRIA 100100Z 25002KT 1500 R14/0900VP2000D R32/P2000
                        BR NSC 18/17 Q1015=
201908100130 METAR LRIA 100130Z AUTO 24001KT 1700 R14/0800VP2000U R32/P2000
                        FG NCD 18/17 Q1015=
201908100200 METAR COR LRIA 100200Z 16001KT 0550 R14/0650N R32/0900 FG
                        NSC 17/16 Q1015=
201908100230 METAR LRIA 100230Z 00000KT 0650 R14/0600 R32/1300 FG NSC
                        17/16 Q1015=
201908100300 METAR LRIA 100300Z 24002KT 2100 R14/1300 BR NSC 18/16 Q1015=
201908100330 METAR COR LRIA 100330Z 24002KT 2100 R14/1300 BR NSC 18/16
                        Q1015=
201908100400 METAR LRIA 100400Z 26001KT 6000 MIFG NSC 18/17 Q1016=
201908100430 METAR LRIA 100430Z 25002KT 7000 MIFG NSC 19/17 Q1016=
201908100500 METAR LRIA 100500Z 21002KT 8000 MIFG NSC 19/18 Q1016=
201908100530 METAR LRIA 100530Z 23003KT 180V260 CAVOK 20/17 Q1016=
201908100600 METAR LRIA 100600Z 24004KT 200V270 CAVOK 22/17 Q1016=
201908100630 METAR LRIA 100630Z 22004KT 190V250 CAVOK 23/18 Q1016=
201908100700 METAR LRIA 100700Z 25006KT 220V280 CAVOK 23/17 Q1017=
201908100730 METAR LRIA 100730Z 25004KT 200V300 CAVOK 25/16 Q1017=
201908100800 METAR LRIA 100800Z 26004KT 220V290 CAVOK 26/17 Q1017=
201908100830 METAR LRIA 100830Z 24004KT 140V290 CAVOK 27/16 Q1017=
201908100900 METAR LRIA 100900Z 31004KT 270V360 CAVOK 27/16 Q1016=
201908100930 METAR LRIA 100930Z 29006KT 250V330 CAVOK 28/16 Q1016=
201908101000 METAR LRIA 101000Z 26007KT 220V300 CAVOK 28/15 Q1016=
201908101030 METAR LRIA 101030Z 26006KT 230V300 CAVOK 29/15 Q1016=
201908101100 METAR LRIA 101100Z 28007KT 240V320 CAVOK 29/14 Q1016=
201908101130 METAR LRIA 101130Z 27006KT 230V320 CAVOK 29/15 Q1016=
201908101200 METAR LRIA 101200Z 29005KT 250V350 CAVOK 29/13 Q1016=
201908101230 METAR LRIA 101230Z 31005KT 270V350 CAVOK 29/13 Q1016=
201908101300 METAR LRIA 101300Z 28004KT 200V340 CAVOK 30/14 Q1015=
201908101330 METAR LRIA 101330Z 29004KT 210V350 CAVOK 29/13 Q1016=
201908101400 METAR LRIA 101400Z VRB03KT CAVOK 30/13 Q1015=
201908101430 METAR LRIA 101430Z 27007KT CAVOK 30/13 Q1015=
201908101500 METAR LRIA 101500Z 33004KT 300V360 CAVOK 30/14 Q1016=
201908101530 METAR LRIA 101530Z 32003KT 280V010 CAVOK 30/15 Q1015=
201908101600 METAR LRIA 101600Z 23002KT CAVOK 30/14 Q1016=
201908101630 METAR LRIA 101630Z 06002KT CAVOK 29/13 Q1016=
201908101700 METAR LRIA 101700Z 06004KT CAVOK 28/16 Q1016=
201908101730 METAR LRIA 101730Z 08004KT CAVOK 27/15 Q1016=
201908101800 METAR LRIA 101800Z 10004KT 080V190 CAVOK 26/15 Q1016=
201908101830 METAR LRIA 101830Z 07004KT CAVOK 25/14 Q1017=
201908101900 METAR LRIA 101900Z 09005KT CAVOK 24/14 Q1017=
201908101930 METAR LRIA 101930Z 10005KT CAVOK 24/14 Q1017=
201908102000 METAR LRIA 102000Z 09006KT CAVOK 24/14 Q1017=
201908102030 METAR LRIA 102030Z 10004KT CAVOK 23/14 Q1017=
201908102100 METAR LRIA 102100Z 08004KT CAVOK 22/14 Q1017=
201908102130 METAR LRIA 102130Z 11004KT CAVOK 23/13 Q1017=
201908102200 METAR LRIA 102200Z 10003KT CAVOK 22/14 Q1017=
201908102230 METAR LRIA 102230Z 09002KT CAVOK 21/14 Q1017=
201908102300 METAR LRIA 102300Z 10003KT CAVOK 22/14 Q1016=
201908102330 METAR LRIA 102330Z 09003KT CAVOK 21/13 Q1016=
201908110000 METAR LRIA 110000Z 07002KT CAVOK 20/14 Q1016=
201908110030 METAR LRIA 110030Z 17002KT CAVOK 22/13 Q1016=
201908110100 METAR LRIA 110100Z 19002KT CAVOK 22/13 Q1016=
201908110130 METAR LRIA 110130Z 09003KT CAVOK 20/13 Q1016=
201908110200 METAR LRIA 110200Z 09004KT CAVOK 20/13 Q1016=
201908110230 METAR LRIA 110230Z 07006KT CAVOK 19/14 Q1016=
201908110300 METAR LRIA 110300Z 07007KT CAVOK 19/13 Q1016=
201908110330 METAR LRIA 110330Z 09004KT CAVOK 19/14 Q1016=
201908110400 METAR LRIA 110400Z 08004KT CAVOK 20/14 Q1017=
201908110430 METAR LRIA 110430Z 09005KT CAVOK 21/15 Q1017=
201908110500 METAR LRIA 110500Z 10003KT CAVOK 22/15 Q1017=
201908110530 METAR LRIA 110530Z 10003KT CAVOK 23/15 Q1017=
201908110600 METAR LRIA 110600Z 11004KT CAVOK 23/15 Q1017=
201908110630 METAR LRIA 110630Z 12004KT CAVOK 25/15 Q1017=
201908110700 METAR LRIA 110700Z 09003KT 050V140 CAVOK 26/16 Q1017=
201908110730 METAR LRIA 110730Z VRB04KT CAVOK 27/16 Q1017=
201908110800 METAR LRIA 110800Z 15003KT 080V200 CAVOK 28/16 Q1017=
201908110830 METAR LRIA 110830Z VRB03KT CAVOK 29/16 Q1017=
201908110900 METAR LRIA 110900Z 18004KT 130V220 CAVOK 29/16 Q1017=
201908110930 METAR LRIA 110930Z 18006KT 160V240 CAVOK 30/17 Q1017=
201908111000 METAR LRIA 111000Z 19006KT 160V230 CAVOK 30/17 Q1016=
201908111030 METAR LRIA 111030Z 24005KT 190V310 CAVOK 30/17 Q1016=
201908111100 METAR LRIA 111100Z VRB05KT CAVOK 31/17 Q1016=
201908111130 METAR LRIA 111130Z 26004KT 200V320 CAVOK 31/17 Q1016=
201908111200 METAR LRIA 111200Z 26004KT 210V320 CAVOK 31/17 Q1016=
201908111230 METAR LRIA 111230Z 24005KT 200V280 CAVOK 32/17 Q1016=
201908111300 METAR LRIA 111300Z 29007KT 270V340 CAVOK 32/17 Q1016=
201908111330 METAR LRIA 111330Z 28005KT 230V350 CAVOK 32/17 Q1016=
201908111400 METAR LRIA 111400Z 25007KT CAVOK 32/16 Q1016=
201908111430 METAR LRIA 111430Z 31005KT 260V360 CAVOK 32/17 Q1016=
201908111500 METAR LRIA 111500Z 30006KT 270V330 CAVOK 32/17 Q1016=
201908111530 METAR LRIA 111530Z 32004KT 290V350 CAVOK 31/18 Q1016=
201908111600 METAR LRIA 111600Z 35007KT CAVOK 30/17 Q1016=
201908111630 METAR LRIA 111630Z 35008KT CAVOK 30/17 Q1016=
201908111700 METAR LRIA 111700Z 35008KT CAVOK 29/17 Q1016=
201908111730 METAR LRIA 111730Z 34010KT CAVOK 28/17 Q1017=
201908111800 METAR LRIA 111800Z 34010KT CAVOK 27/18 Q1017=
201908111830 METAR LRIA 111830Z 36009KT CAVOK 27/18 Q1017=
201908111900 METAR LRIA 111900Z 36007KT CAVOK 26/18 Q1017=
201908111930 METAR LRIA 111930Z 36009KT CAVOK 26/18 Q1018=
201908112000 METAR LRIA 112000Z 02008KT CAVOK 26/18 Q1018=
201908112030 METAR LRIA 112030Z 34005KT 300V010 CAVOK 25/18 Q1018=
201908112100 METAR LRIA 112100Z 28003KT 240V310 CAVOK 24/18 Q1018=
201908112130 METAR LRIA 112130Z 31004KT CAVOK 23/18 Q1018=
201908112200 METAR LRIA 112200Z 30004KT CAVOK 23/19 Q1018=
201908112230 METAR LRIA 112230Z 30004KT CAVOK 23/19 Q1018=
201908112300 METAR LRIA 112300Z AUTO 30003KT 9999 BKN074/// 23/19 Q1018=
201908112330 METAR LRIA 112330Z 31005KT CAVOK 23/19 Q1018=
201908120000 METAR LRIA 120000Z 31004KT CAVOK 22/18 Q1018=
201908120030 METAR LRIA 120030Z 30003KT CAVOK 22/18 Q1018=
201908120100 METAR LRIA 120100Z 23002KT CAVOK 21/19 Q1018=
201908120130 METAR LRIA 120130Z 24003KT CAVOK 21/18 Q1018=
201908120200 METAR LRIA 120200Z 22003KT CAVOK 21/19 Q1018=
201908120230 METAR LRIA 120230Z 28003KT CAVOK 21/19 Q1018=
201908120300 METAR LRIA 120300Z 32003KT CAVOK 20/18 Q1018=
201908120330 METAR LRIA 120330Z 29001KT CAVOK 20/18 Q1018=
201908120400 METAR LRIA 120400Z 19002KT CAVOK 20/18 Q1018=
201908120430 METAR LRIA 120430Z VRB01KT CAVOK 21/19 Q1018=
201908120500 METAR LRIA 120500Z VRB01KT CAVOK 23/19 Q1018=
201908120530 METAR LRIA 120530Z 10002KT CAVOK 24/19 Q1018=
201908120600 METAR LRIA 120600Z 10003KT 060V130 CAVOK 24/19 Q1018=
201908120630 METAR LRIA 120630Z 10007KT CAVOK 26/18 Q1018=
201908120700 METAR LRIA 120700Z 10007KT CAVOK 26/18 Q1018=
201908120730 METAR LRIA 120730Z 12008KT CAVOK 27/18 Q1018=
201908120800 METAR LRIA 120800Z 11008KT CAVOK 27/18 Q1018=
201908120830 METAR LRIA 120830Z 10007KT CAVOK 28/18 Q1018=
201908120900 METAR LRIA 120900Z 11006KT 080V150 CAVOK 29/18 Q1018=
201908120930 METAR LRIA 120930Z 10004KT 020V140 CAVOK 30/19 Q1017=
201908121000 METAR LRIA 121000Z 09005KT 010V140 CAVOK 30/19 Q1017=
201908121030 METAR LRIA 121030Z 12007KT 070V150 CAVOK 31/19 Q1017=
201908121100 METAR LRIA 121100Z 16006KT 130V190 CAVOK 31/18 Q1017=
201908121130 METAR LRIA 121130Z 15006KT 100V200 CAVOK 32/19 Q1017=
201908121200 METAR LRIA 121200Z 13009KT CAVOK 32/18 Q1016=
201908121230 METAR LRIA 121230Z 15009KT 120V180 CAVOK 32/18 Q1016=
201908121300 METAR LRIA 121300Z 15008KT 100V170 CAVOK 33/18 Q1016=
201908121330 METAR LRIA 121330Z 15009KT 120V190 CAVOK 33/18 Q1015=
201908121400 METAR LRIA 121400Z 16008KT 050V200 CAVOK 33/17 Q1015=
201908121430 METAR LRIA 121430Z 17007KT 110V190 CAVOK 33/18 Q1015=
201908121500 METAR LRIA 121500Z 16006KT 140V210 CAVOK 33/17 Q1015=
201908121530 METAR LRIA 121530Z 15007KT 120V190 CAVOK 33/18 Q1015=
201908121600 METAR LRIA 121600Z 13007KT CAVOK 32/17 Q1014=
201908121630 METAR LRIA 121630Z 13006KT CAVOK 32/18 Q1014=
201908121700 METAR LRIA 121700Z 11006KT CAVOK 30/18 Q1014=
201908121730 METAR LRIA 121730Z 11006KT CAVOK 29/18 Q1015=
201908121800 METAR LRIA 121800Z 10006KT CAVOK 28/18 Q1015=
201908121830 METAR LRIA 121830Z 11006KT CAVOK 27/18 Q1015=
201908121900 METAR LRIA 121900Z 11005KT CAVOK 27/17 Q1015=
201908121930 METAR LRIA 121930Z 11004KT CAVOK 28/17 Q1015=
201908122000 METAR LRIA 122000Z 11004KT CAVOK 27/17 Q1015=
201908122030 METAR LRIA 122030Z 14003KT 110V170 CAVOK 28/16 Q1014=
201908122100 METAR LRIA 122100Z 14003KT CAVOK 27/16 Q1014=
201908122130 METAR LRIA 122130Z 16005KT CAVOK 26/15 Q1014=
201908122200 METAR LRIA 122200Z 16007KT CAVOK 26/14 Q1014=
201908122230 METAR LRIA 122230Z 16006KT CAVOK 26/14 Q1014=
201908122300 METAR LRIA 122300Z 16008KT CAVOK 26/13 Q1014=
201908122330 METAR LRIA 122330Z 17005KT 130V190 CAVOK 26/13 Q1014=
201908130000 METAR LRIA 130000Z 17006KT CAVOK 26/12 Q1014=
201908130030 METAR LRIA 130030Z 17008KT CAVOK 25/12 Q1014=
201908130100 METAR LRIA 130100Z 15005KT CAVOK 25/12 Q1014=
201908130130 METAR LRIA 130130Z 08006KT CAVOK 22/13 Q1014=
201908130200 METAR LRIA 130200Z 10008KT CAVOK 22/13 Q1014=
201908130230 METAR LRIA 130230Z 10008KT CAVOK 21/13 Q1014=
201908130300 METAR LRIA 130300Z 08005KT CAVOK 20/14 Q1014=
201908130330 METAR LRIA 130330Z 11007KT CAVOK 21/13 Q1014=
201908130400 METAR LRIA 130400Z 10010KT CAVOK 21/13 Q1014=
201908130430 METAR LRIA 130430Z 10006KT CAVOK 22/13 Q1014=
201908130500 METAR LRIA 130500Z 08005KT CAVOK 24/13 Q1014=
201908130530 METAR LRIA 130530Z 12004KT CAVOK 25/14 Q1014=
201908130600 METAR LRIA 130600Z 14005KT 110V180 CAVOK 27/14 Q1014=
201908130630 METAR LRIA 130630Z 17006KT 140V210 CAVOK 28/14 Q1014=
201908130700 METAR LRIA 130700Z 17006KT CAVOK 29/14 Q1014=
201908130730 METAR LRIA 130730Z 18009KT 140V210 CAVOK 30/14 Q1014=
201908130800 METAR LRIA 130800Z 19006KT 150V220 CAVOK 31/15 Q1014=
201908130830 METAR LRIA 130830Z 19010KT 150V220 CAVOK 31/15 Q1014=
201908130900 METAR LRIA 130900Z 18010KT 140V210 CAVOK 32/16 Q1014=
201908130930 METAR LRIA 130930Z 18011KT CAVOK 33/16 Q1014=
201908131000 METAR LRIA 131000Z 17011KT 140V210 CAVOK 33/16 Q1013=
201908131030 METAR LRIA 131030Z 18010KT 150V220 CAVOK 33/16 Q1013=
201908131100 METAR LRIA 131100Z 18010KT 150V210 CAVOK 33/16 Q1013=
201908131130 METAR LRIA 131130Z 17012KT 140V200 CAVOK 34/15 Q1013=
201908131200 METAR LRIA 131200Z 18009KT 150V210 CAVOK 34/16 Q1013=
201908131230 METAR LRIA 131230Z 17012KT 140V210 CAVOK 34/15 Q1012=
201908131300 METAR LRIA 131300Z 15013KT CAVOK 34/15 Q1012=
201908131330 METAR LRIA 131330Z 19009KT 150V220 CAVOK 34/15 Q1012=
201908131400 METAR LRIA 131400Z 17008KT 140V200 CAVOK 34/15 Q1012=
201908131430 METAR LRIA 131430Z 16010KT 130V190 CAVOK 34/14 Q1012=
201908131500 METAR LRIA 131500Z 18007KT 150V210 CAVOK 34/15 Q1012=
201908131530 METAR LRIA 131530Z 17007KT 140V210 CAVOK 33/15 Q1012=
201908131600 METAR LRIA 131600Z 17008KT 140V200 CAVOK 32/14 Q1012=
201908131630 METAR LRIA 131630Z 17006KT 130V210 CAVOK 32/15 Q1012=
201908131700 METAR LRIA 131700Z 14005KT CAVOK 30/15 Q1012=
201908131730 METAR LRIA 131730Z 13005KT CAVOK 29/14 Q1012=
201908131800 METAR LRIA 131800Z 12004KT CAVOK 29/14 Q1012=
201908131830 METAR LRIA 131830Z 09005KT CAVOK 27/15 Q1013=
201908131900 METAR LRIA 131900Z 09007KT CAVOK 27/15 Q1013=
201908131930 METAR LRIA 131930Z 11007KT CAVOK 27/15 Q1013=
201908132000 METAR LRIA 132000Z 12006KT CAVOK 25/15 Q1013=
201908132030 METAR LRIA 132030Z 11006KT CAVOK 25/15 Q1013=
201908132100 METAR LRIA 132100Z 13007KT CAVOK 25/15 Q1013=
201908132130 METAR LRIA 132130Z 13005KT CAVOK 24/15 Q1013=
201908132200 METAR LRIA 132200Z 13004KT CAVOK 24/15 Q1013=
201908132230 METAR LRIA 132230Z 11003KT 080V140 CAVOK 24/15 Q1013=
201908132300 METAR LRIA 132300Z 19003KT 110V230 CAVOK 24/14 Q1013=
201908132330 METAR LRIA 132330Z 21004KT 180V240 CAVOK 24/14 Q1013=
201908140000 METAR LRIA 140000Z 20003KT 170V230 CAVOK 23/14 Q1013=
201908140030 METAR LRIA 140030Z 15005KT CAVOK 22/15 Q1013=
201908140100 METAR LRIA 140100Z 10005KT CAVOK 20/15 Q1013=
201908140130 METAR LRIA 140130Z 09008KT CAVOK 20/16 Q1013=
201908140200 METAR LRIA 140200Z 10006KT CAVOK 20/15 Q1012=
201908140230 METAR LRIA 140230Z 10007KT CAVOK 20/15 Q1012=
201908140300 METAR LRIA 140300Z 10009KT CAVOK 20/15 Q1012=
201908140330 METAR LRIA 140330Z 09009KT CAVOK 20/16 Q1013=
201908140400 METAR LRIA 140400Z 09008KT CAVOK 21/15 Q1012=
201908140430 METAR LRIA 140430Z 08005KT CAVOK 21/16 Q1012=
201908140500 METAR LRIA 140500Z 08007KT CAVOK 23/15 Q1012=
201908140530 METAR LRIA 140530Z 09006KT CAVOK 24/16 Q1013=
201908140600 METAR LRIA 140600Z 16006KT 140V200 CAVOK 26/14 Q1012=
201908140630 METAR LRIA 140630Z 14007KT CAVOK 27/15 Q1012=
201908140700 METAR LRIA 140700Z 12008KT CAVOK 27/16 Q1012=
201908140730 METAR LRIA 140730Z 14005KT 090V170 CAVOK 28/14 Q1012=
201908140800 METAR LRIA 140800Z 10007KT CAVOK 28/14 Q1011=
201908140830 METAR LRIA 140830Z 12010KT CAVOK 29/12 Q1011=
201908140900 METAR LRIA 140900Z 12009KT 080V160 CAVOK 30/14 Q1011=
201908140930 METAR LRIA 140930Z 12014KT CAVOK 29/12 Q1010=
201908141000 METAR LRIA 141000Z 11012KT CAVOK 30/11 Q1010=
201908141030 METAR LRIA 141030Z 17009KT 140V200 CAVOK 31/10 Q1010=
201908141100 METAR LRIA 141100Z 13012KT CAVOK 31/10 Q1010=
201908141130 METAR LRIA 141130Z 19010KT CAVOK 31/09 Q1009=
201908141200 METAR LRIA 141200Z 15009KT 120V200 CAVOK 31/10 Q1009=
201908141230 METAR LRIA 141230Z 15011KT CAVOK 31/09 Q1009=
201908141300 METAR LRIA 141300Z 17011KT 130V200 CAVOK 31/07 Q1008=
201908141330 METAR LRIA 141330Z 16010KT 120V180 CAVOK 32/08 Q1008=
201908141400 METAR LRIA 141400Z 15009KT 120V180 CAVOK 32/10 Q1008=
201908141430 METAR LRIA 141430Z 15010KT CAVOK 32/09 Q1007=
201908141500 METAR LRIA 141500Z 14011KT CAVOK 31/10 Q1007=
201908141530 METAR LRIA 141530Z 16008KT CAVOK 31/10 Q1007=
201908141600 METAR LRIA 141600Z 16007KT CAVOK 30/11 Q1007=
201908141630 METAR LRIA 141630Z 17005KT CAVOK 29/11 Q1007=
201908141700 METAR LRIA 141700Z 15006KT CAVOK 28/11 Q1007=
201908141730 METAR LRIA 141730Z 15006KT CAVOK 27/11 Q1007=
201908141800 METAR LRIA 141800Z 15005KT CAVOK 27/11 Q1007=
201908141830 METAR LRIA 141830Z 15002KT CAVOK 27/11 Q1007=
201908141900 METAR LRIA 141900Z 06006KT CAVOK 25/12 Q1007=
201908141930 METAR LRIA 141930Z 06007KT CAVOK 25/11 Q1008=
201908142000 METAR LRIA 142000Z 04005KT 310V060 CAVOK 23/12 Q1009=
201908142030 METAR LRIA 142030Z 32016KT CAVOK 20/15 Q1010=
201908142100 METAR LRIA 142100Z 31016KT CAVOK 19/15 Q1010=
201908142130 METAR LRIA 142130Z 31014KT 9999 BKN015 19/14 Q1011=
201908142200 METAR LRIA 142200Z 31014KT 9999 OVC015 19/14 Q1011=
201908142230 METAR LRIA 142230Z 30011G21KT 9999 OVC015 19/14 Q1011=
201908142300 METAR LRIA 142300Z 31016G27KT 9999 OVC016 18/13 Q1011=
201908142330 METAR LRIA 142330Z 30016KT 9999 OVC016 18/13 Q1011=
201908150000 METAR LRIA 150000Z 31017G28KT 9999 OVC016 18/12 Q1011=
201908150030 METAR LRIA 150030Z 31014KT 9999 BKN017 OVC030 18/12 Q1012=
201908150100 METAR LRIA 150100Z 30014KT 9999 BKN017 OVC030 17/12 Q1012=
201908150130 METAR LRIA 150130Z 31016KT 9999 OVC018 17/12 Q1012=
201908150200 METAR LRIA 150200Z 30014KT 9999 OVC020 17/12 Q1012=
201908150230 METAR LRIA 150230Z 31014KT 280V340 9999 OVC020 17/12 Q1012=
201908150300 METAR LRIA 150300Z 31015KT 9999 OVC020 17/11 Q1012=
201908150330 METAR LRIA 150330Z 31012KT 9999 SCT018 OVC020 17/11 Q1012=
201908150400 METAR LRIA 150400Z 31011KT 9999 SCT017 OVC020 17/11 Q1013=
201908150430 METAR LRIA 150430Z 32012KT 9999 SCT017 OVC020 17/11 Q1013=
201908150500 METAR LRIA 150500Z 32011KT 9999 SCT018 OVC021 17/11 Q1013=
201908150530 METAR LRIA 150530Z 32011KT 9999 SCT017 OVC020 16/12 Q1013=
201908150600 METAR LRIA 150600Z 31011KT 270V330 9999 BKN014 OVC020 16/12
                        Q1014=
201908150630 METAR LRIA 150630Z 30012KT 9999 FEW009 SCT014 OVC020 15/12
                        Q1014=
201908150700 METAR LRIA 150700Z 31014KT 9999 BKN010 OVC017 15/12 Q1014=
201908150730 METAR LRIA 150730Z 32013KT 9999 BKN010 OVC023 16/12 Q1013=
201908150800 METAR LRIA 150800Z 33013KT 9999 -RA BKN010 OVC023 15/12 Q1013
                        R14/29//95=
201908150830 METAR LRIA 150830Z 32011KT 9999 BKN009 BKN040 15/13 Q1013
                        R14/29//95=
201908150900 METAR LRIA 150900Z 31010KT 9999 BKN008 BKN019 16/13 Q1014
                        R14/29//95=
201908150930 METAR LRIA 150930Z 31010KT 9999 BKN011 OVC020 16/12 Q1014
                        R14/09//95=
201908151000 METAR LRIA 151000Z 32012KT 9999 BKN015 OVC027 17/12 Q1014
                        R14/09//95=
201908151030 METAR LRIA 151030Z 31011KT 9999 BKN015 OVC027 16/12 Q1014
                        R14/09//95=
201908151100 METAR LRIA 151100Z 31011KT 9999 BKN015 OVC020 17/12 Q1014
                        R14/09//95=
201908151130 METAR LRIA 151130Z 32012KT 9999 BKN015 OVC023 17/12 Q1014
                        R14/09//95=
201908151200 METAR LRIA 151200Z 31013KT 9999 OVC014 16/12 Q1014 R14/09//95=
201908151230 METAR LRIA 151230Z 31012KT 9999 OVC015 17/12 Q1014 R14/CLRD//=
201908151300 METAR LRIA 151300Z 32010KT 9999 OVC016 17/12 Q1014=
201908151330 METAR LRIA 151330Z 31010KT 9999 BKN017 OVC026 17/12 Q1014=
201908151400 METAR LRIA 151400Z 32010KT 9999 BKN018 OVC025 17/12 Q1014=
201908151430 METAR LRIA 151430Z 33010KT 9999 BKN019 OVC030 17/12 Q1014=
201908151500 METAR LRIA 151500Z 33010KT 9999 BKN018 OVC027 17/12 Q1014=
201908151530 METAR LRIA 151530Z 32010KT 290V350 9999 BKN017 17/12 Q1014=
201908151600 METAR LRIA 151600Z 32011KT 9999 OVC019 17/12 Q1014=
201908151630 METAR LRIA 151630Z 33010KT 9999 OVC022 17/12 Q1014=
201908151700 METAR LRIA 151700Z 32008KT 9999 OVC022 17/12 Q1014=
201908151730 METAR LRIA 151730Z 32009KT 9999 OVC025 17/12 Q1014=
201908151800 METAR LRIA 151800Z 32007KT 9999 OVC025 17/12 Q1014=
201908151830 METAR LRIA 151830Z 32008KT 9999 BKN030 17/12 Q1015=
201908151900 METAR LRIA 151900Z 31006KT 9999 BKN030 17/12 Q1015=
201908151930 METAR LRIA 151930Z 32008KT 9999 BKN030 16/12 Q1015=
201908152000 METAR LRIA 152000Z 31007KT 9999 FEW033 15/12 Q1015=
201908152030 METAR COR LRIA 152030Z 30005KT 9999 SCT033 14/11 Q1015=
201908152100 METAR LRIA 152100Z 30006KT 9999 SCT033 14/11 Q1015=
201908152130 METAR LRIA 152130Z 31005KT 9999 FEW033 14/11 Q1015=
201908152200 METAR LRIA 152200Z 30005KT CAVOK 14/11 Q1015=
201908152230 METAR LRIA 152230Z 28005KT CAVOK 13/11 Q1015=
201908152300 METAR LRIA 152300Z 30004KT CAVOK 13/11 Q1015=
201908152330 METAR LRIA 152330Z 29005KT CAVOK 12/10 Q1015=
201908160000 METAR LRIA 160000Z 28004KT CAVOK 12/10 Q1015=
201908160030 METAR LRIA 160030Z 31006KT CAVOK 13/11 Q1015=
201908160100 METAR LRIA 160100Z 31006KT CAVOK 13/11 Q1015=
201908160130 METAR LRIA 160130Z 30007KT CAVOK 13/11 Q1014=
201908160200 METAR LRIA 160200Z 26005KT CAVOK 12/11 Q1015=
201908160230 METAR LRIA 160230Z 30007KT CAVOK 12/10 Q1014=
201908160300 METAR LRIA 160300Z 29007KT CAVOK 12/11 Q1015=
201908160330 METAR LRIA 160330Z 31007KT CAVOK 13/11 Q1015=
201908160400 METAR LRIA 160400Z 29007KT CAVOK 13/11 Q1015=
201908160430 METAR LRIA 160430Z 30008KT CAVOK 14/11 Q1015=
201908160500 METAR LRIA 160500Z 30008KT CAVOK 15/11 Q1015=
201908160530 METAR LRIA 160530Z 32009KT CAVOK 16/12 Q1015=
201908160600 METAR LRIA 160600Z 31008KT CAVOK 16/12 Q1015=
201908160630 METAR LRIA 160630Z 30009KT 270V330 9999 FEW017 17/12 Q1015=
201908160700 METAR LRIA 160700Z 29009KT 9999 FEW018 17/12 Q1015=
201908160730 METAR LRIA 160730Z 31009KT 290V350 9999 FEW018 19/11 Q1015=
201908160800 METAR LRIA 160800Z 33010KT 9999 FEW027 20/11 Q1015=
201908160830 METAR LRIA 160830Z 31011KT 9999 FEW033 21/09 Q1015=
201908160900 METAR LRIA 160900Z 33011KT 9999 FEW035 22/09 Q1014=
201908160930 METAR LRIA 160930Z 32009KT 9999 FEW042 22/09 Q1014=
201908161000 METAR LRIA 161000Z 34011KT 300V010 CAVOK 22/09 Q1014=
201908161030 METAR LRIA 161030Z 33010KT 300V010 CAVOK 23/09 Q1014=
201908161100 METAR LRIA 161100Z 33009KT CAVOK 23/08 Q1014=
201908161130 METAR LRIA 161130Z 34009KT CAVOK 23/07 Q1014=
201908161200 METAR LRIA 161200Z 32010KT 290V350 CAVOK 23/06 Q1014=
201908161230 METAR LRIA 161230Z 32010KT CAVOK 23/07 Q1014=
201908161300 METAR LRIA 161300Z 32009KT CAVOK 24/08 Q1014=
201908161330 METAR LRIA 161330Z 32009KT 290V350 CAVOK 24/08 Q1014=
201908161400 METAR LRIA 161400Z 32008KT CAVOK 23/08 Q1014=
201908161430 METAR LRIA 161430Z 33011KT CAVOK 23/07 Q1014=
201908161500 METAR LRIA 161500Z 34011KT CAVOK 23/07 Q1014=
201908161530 METAR LRIA 161530Z 33010KT 280V360 CAVOK 23/07 Q1014=
201908161600 METAR LRIA 161600Z 33009KT CAVOK 22/07 Q1014=
201908161630 METAR LRIA 161630Z 32007KT CAVOK 22/07 Q1014=
201908161700 METAR LRIA 161700Z 33006KT CAVOK 20/08 Q1014=
201908161730 METAR LRIA 161730Z 32005KT CAVOK 19/07 Q1014=
201908161800 METAR LRIA 161800Z 33006KT CAVOK 18/08 Q1015=
201908161830 METAR LRIA 161830Z 30005KT CAVOK 18/07 Q1015=
201908161900 METAR LRIA 161900Z 30005KT CAVOK 17/07 Q1015=
201908161930 METAR LRIA 161930Z 31005KT CAVOK 16/07 Q1015=
201908162000 METAR LRIA 162000Z 27004KT CAVOK 15/08 Q1015=
201908162030 METAR LRIA 162030Z 25004KT CAVOK 14/08 Q1015=
201908162100 METAR LRIA 162100Z 25004KT CAVOK 14/08 Q1015=
201908162130 METAR LRIA 162130Z 30007KT CAVOK 15/08 Q1015=
201908162200 METAR LRIA 162200Z 30006KT CAVOK 15/08 Q1015=
201908162230 METAR LRIA 162230Z 26005KT CAVOK 13/08 Q1015=
201908162300 METAR LRIA 162300Z 24003KT CAVOK 12/09 Q1015=
201908162330 METAR LRIA 162330Z 23001KT CAVOK 13/09 Q1015=
201908170000 METAR LRIA 170000Z 24001KT CAVOK 12/09 Q1015=
201908170030 METAR LRIA 170030Z 24001KT CAVOK 12/08 Q1015=
201908170100 METAR LRIA 170100Z 25005KT CAVOK 13/09 Q1016=
201908170130 METAR LRIA 170130Z 26004KT CAVOK 12/08 Q1015=
201908170200 METAR LRIA 170200Z 26003KT CAVOK 12/08 Q1015=
201908170230 METAR LRIA 170230Z 21002KT CAVOK 12/08 Q1015=
201908170300 METAR LRIA 170300Z 24002KT CAVOK 11/08 Q1016=
201908170330 METAR LRIA 170330Z 23004KT CAVOK 11/08 Q1016=
201908170400 METAR LRIA 170400Z 24004KT CAVOK 12/09 Q1016=
201908170430 METAR LRIA 170430Z 25003KT CAVOK 13/09 Q1016=
201908170500 METAR LRIA 170500Z 25005KT CAVOK 14/09 Q1016=
201908170530 METAR LRIA 170530Z 29005KT CAVOK 15/09 Q1016=
201908170600 METAR LRIA 170600Z 29006KT CAVOK 17/10 Q1016=
201908170630 METAR LRIA 170630Z 30006KT 260V330 CAVOK 18/10 Q1017=
201908170700 METAR LRIA 170700Z 32006KT 270V350 CAVOK 18/10 Q1016=
201908170730 METAR LRIA 170730Z 28005KT 240V320 CAVOK 20/10 Q1016=
201908170800 METAR LRIA 170800Z 28005KT 200V350 CAVOK 21/10 Q1016=
201908170830 METAR LRIA 170830Z 32005KT 290V350 CAVOK 21/09 Q1016=
201908170900 METAR LRIA 170900Z 29008KT 260V320 9999 FEW047 22/10 Q1016=
201908170930 METAR LRIA 170930Z 31010KT 9999 FEW047 23/09 Q1016=
201908171000 METAR LRIA 171000Z 33008KT 300V360 9999 FEW047 22/09 Q1016=
201908171030 METAR LRIA 171030Z 32009KT CAVOK 22/08 Q1015=
201908171100 METAR LRIA 171100Z 32008KT CAVOK 22/09 Q1015=
201908171130 METAR LRIA 171130Z 33011KT 290V350 CAVOK 23/07 Q1015=
201908171200 METAR LRIA 171200Z 30011KT 270V350 CAVOK 25/09 Q1015=
201908171230 METAR LRIA 171230Z 30011KT CAVOK 24/07 Q1015=
201908171300 METAR LRIA 171300Z 32011KT CAVOK 23/07 Q1015=
201908171330 METAR LRIA 171330Z 32009KT 290V350 CAVOK 23/06 Q1015=
201908171400 METAR LRIA 171400Z 30009KT 270V330 CAVOK 23/08 Q1015=
201908171430 METAR LRIA 171430Z 33009KT CAVOK 23/08 Q1015=
201908171500 METAR LRIA 171500Z 32008KT CAVOK 23/08 Q1015=
201908171530 METAR LRIA 171530Z 33008KT CAVOK 23/07 Q1015=
201908171600 METAR LRIA 171600Z 33008KT CAVOK 23/08 Q1015=
201908171630 METAR LRIA 171630Z 32005KT CAVOK 22/08 Q1015=
201908171700 METAR LRIA 171700Z 32004KT CAVOK 22/08 Q1015=
201908171730 METAR LRIA 171730Z 32002KT CAVOK 21/08 Q1015=
201908171800 METAR LRIA 171800Z 31004KT CAVOK 20/09 Q1015=
201908171830 METAR LRIA 171830Z 31005KT CAVOK 20/08 Q1015=
201908171900 METAR LRIA 171900Z 34007KT CAVOK 18/09 Q1015=
201908171930 METAR LRIA 171930Z 28004KT CAVOK 17/09 Q1015=
201908172000 METAR LRIA 172000Z 30004KT 260V320 CAVOK 16/10 Q1015=
201908172030 METAR LRIA 172030Z 24004KT CAVOK 15/10 Q1015=
201908172100 METAR LRIA 172100Z 25005KT CAVOK 15/09 Q1015=
201908172130 METAR LRIA 172130Z 25006KT CAVOK 16/09 Q1015=
201908172200 METAR LRIA 172200Z 25005KT CAVOK 15/09 Q1015=
201908172230 METAR LRIA 172230Z 24003KT CAVOK 14/09 Q1016=
201908172300 METAR LRIA 172300Z 24004KT CAVOK 14/09 Q1016=
201908172330 METAR LRIA 172330Z 24004KT CAVOK 14/09 Q1016=
201908180000 METAR LRIA 180000Z 00000KT CAVOK 14/09 Q1016=
201908180030 METAR LRIA 180030Z 22002KT CAVOK 13/09 Q1016=
201908180100 METAR LRIA 180100Z VRB02KT CAVOK 13/09 Q1016=
201908180130 METAR LRIA 180130Z 25003KT CAVOK 13/09 Q1016=
201908180200 METAR LRIA 180200Z 30002KT CAVOK 13/09 Q1016=
201908180230 METAR LRIA 180230Z 25002KT CAVOK 12/09 Q1016=
201908180300 METAR LRIA 180300Z 27002KT CAVOK 12/09 Q1016=
201908180330 METAR LRIA 180330Z 27003KT CAVOK 12/09 Q1016=
201908180400 METAR LRIA 180400Z 25003KT CAVOK 12/09 Q1016=
201908180430 METAR LRIA 180430Z 24002KT CAVOK 13/10 Q1016=
201908180500 METAR LRIA 180500Z 25003KT CAVOK 15/10 Q1016=
201908180530 METAR LRIA 180530Z 26004KT CAVOK 16/10 Q1016=
201908180600 METAR LRIA 180600Z 25005KT CAVOK 18/10 Q1016=
201908180630 METAR LRIA 180630Z 26004KT 220V300 CAVOK 19/10 Q1016=
201908180700 METAR LRIA 180700Z 24003KT 160V320 CAVOK 20/10 Q1017=
201908180730 METAR LRIA 180730Z VRB03KT CAVOK 21/10 Q1017=
201908180800 METAR LRIA 180800Z 28003KT 230V350 CAVOK 22/10 Q1016=
201908180830 METAR LRIA 180830Z 32003KT 250V360 CAVOK 24/10 Q1017=
201908180900 METAR LRIA 180900Z 34005KT 270V040 CAVOK 24/10 Q1016=
201908180930 METAR LRIA 180930Z VRB05KT CAVOK 25/09 Q1016=
201908181000 METAR LRIA 181000Z 31007KT 270V340 CAVOK 25/08 Q1016=
201908181030 METAR LRIA 181030Z 33008KT 270V010 CAVOK 26/08 Q1016=
201908181100 METAR LRIA 181100Z 33008KT CAVOK 26/08 Q1016=
201908181130 METAR LRIA 181130Z 34009KT CAVOK 26/08 Q1016=
201908181200 METAR LRIA 181200Z VRB04KT CAVOK 26/08 Q1016=
201908181230 METAR LRIA 181230Z 29007KT CAVOK 27/08 Q1016=
201908181300 METAR LRIA 181300Z VRB03KT CAVOK 27/08 Q1016=
201908181330 METAR LRIA 181330Z 16004KT 120V270 CAVOK 27/08 Q1016=
201908181400 METAR LRIA 181400Z VRB03KT CAVOK 27/08 Q1016=
201908181430 METAR LRIA 181430Z 32004KT 250V360 CAVOK 27/07 Q1016=
201908181500 METAR LRIA 181500Z 33004KT 290V360 CAVOK 27/07 Q1016=
201908181530 METAR LRIA 181530Z 33005KT CAVOK 27/08 Q1016=
201908181600 METAR LRIA 181600Z 01002KT CAVOK 27/07 Q1016=
201908181630 METAR LRIA 181630Z 05003KT CAVOK 25/09 Q1016=
201908181700 METAR LRIA 181700Z 06003KT CAVOK 25/08 Q1016=
201908181730 METAR LRIA 181730Z 06002KT CAVOK 23/08 Q1016=
201908181800 METAR LRIA 181800Z 16002KT CAVOK 23/08 Q1016=
201908181830 METAR LRIA 181830Z 21001KT CAVOK 22/09 Q1016=
201908181900 METAR LRIA 181900Z 25002KT CAVOK 21/09 Q1017=
201908181930 METAR LRIA 181930Z 26003KT CAVOK 21/09 Q1017=
201908182000 METAR LRIA 182000Z 25002KT CAVOK 20/09 Q1017=
201908182030 METAR LRIA 182030Z 25002KT CAVOK 20/08 Q1017=
201908182100 METAR LRIA 182100Z 28001KT CAVOK 19/09 Q1017=
201908182130 METAR LRIA 182130Z 23002KT CAVOK 18/09 Q1017=
201908182200 METAR LRIA 182200Z 25002KT CAVOK 19/09 Q1017=
201908182230 METAR LRIA 182230Z 29001KT CAVOK 18/09 Q1017=
201908182300 METAR LRIA 182300Z 00000KT CAVOK 18/09 Q1017=
201908182330 METAR LRIA 182330Z 00000KT CAVOK 17/09 Q1017=
201908190000 METAR LRIA 190000Z 00000KT CAVOK 16/09 Q1017=
201908190030 METAR LRIA 190030Z 00000KT CAVOK 16/10 Q1017=
201908190100 METAR LRIA 190100Z 00000KT CAVOK 15/10 Q1017=
201908190130 METAR LRIA 190130Z 07001KT CAVOK 15/09 Q1017=
201908190200 METAR LRIA 190200Z 11002KT CAVOK 15/10 Q1018=
201908190230 METAR LRIA 190230Z 10002KT CAVOK 15/10 Q1018=
201908190300 METAR LRIA 190300Z 07001KT CAVOK 13/09 Q1018=
201908190330 METAR LRIA 190330Z 00000KT CAVOK 14/10 Q1018=
201908190400 METAR LRIA 190400Z 00000KT CAVOK 16/11 Q1018=
201908190430 METAR LRIA 190430Z 00000KT CAVOK 17/11 Q1018=
201908190500 METAR LRIA 190500Z 00000KT CAVOK 18/12 Q1019=
201908190530 METAR LRIA 190530Z VRB01KT CAVOK 19/12 Q1019=
201908190600 METAR LRIA 190600Z VRB02KT CAVOK 21/11 Q1019=
201908190630 METAR LRIA 190630Z VRB02KT CAVOK 22/11 Q1019=
201908190700 METAR LRIA 190700Z 19003KT 140V230 CAVOK 24/10 Q1019=
201908190730 METAR LRIA 190730Z VRB02KT CAVOK 26/09 Q1019=
201908190800 METAR LRIA 190800Z VRB03KT CAVOK 26/09 Q1019=
201908190830 METAR LRIA 190830Z VRB04KT CAVOK 27/10 Q1019=
201908190900 METAR LRIA 190900Z 19005KT 140V240 CAVOK 28/10 Q1019=
201908190930 METAR LRIA 190930Z 15005KT 060V210 CAVOK 28/10 Q1019=
201908191000 METAR LRIA 191000Z 20005KT 120V280 CAVOK 29/09 Q1019=
201908191030 METAR LRIA 191030Z VRB04KT CAVOK 28/09 Q1019=
201908191100 METAR LRIA 191100Z VRB04KT CAVOK 29/09 Q1018=
201908191130 METAR LRIA 191130Z 17006KT 130V210 CAVOK 29/09 Q1018=
201908191200 METAR LRIA 191200Z VRB04KT CAVOK 29/09 Q1018=
201908191230 METAR LRIA 191230Z VRB04KT CAVOK 30/10 Q1018=
201908191300 METAR LRIA 191300Z VRB04KT CAVOK 30/09 Q1018=
201908191330 METAR LRIA 191330Z VRB04KT CAVOK 30/09 Q1018=
201908191400 METAR LRIA 191400Z 08005KT 030V150 CAVOK 30/09 Q1018=
201908191430 METAR LRIA 191430Z 17004KT 110V220 CAVOK 30/08 Q1018=
201908191500 METAR LRIA 191500Z VRB02KT CAVOK 30/08 Q1018=
201908191530 METAR LRIA 191530Z 19003KT CAVOK 29/09 Q1018=
201908191600 METAR LRIA 191600Z VRB02KT CAVOK 29/09 Q1018=
201908191630 METAR LRIA 191630Z 16004KT CAVOK 28/10 Q1018=
201908191700 METAR LRIA 191700Z 16002KT CAVOK 28/09 Q1018=
201908191730 METAR LRIA 191730Z VRB01KT CAVOK 26/10 Q1018=
201908191800 METAR LRIA 191800Z VRB01KT CAVOK 25/09 Q1019=
201908191830 METAR LRIA 191830Z 11002KT CAVOK 23/10 Q1019=
201908191900 METAR LRIA 191900Z 11001KT CAVOK 23/10 Q1019=
201908191930 METAR LRIA 191930Z VRB01KT CAVOK 21/10 Q1019=
201908192000 METAR LRIA 192000Z 28001KT CAVOK 22/10 Q1019=
201908192030 METAR LRIA 192030Z 27001KT CAVOK 23/10 Q1019=
201908192100 METAR LRIA 192100Z 00000KT CAVOK 21/10 Q1019=
201908192130 METAR LRIA 192130Z 27001KT CAVOK 21/10 Q1019=
201908192200 METAR LRIA 192200Z 30001KT CAVOK 20/09 Q1019=
201908192230 METAR LRIA 192230Z 11006KT CAVOK 18/10 Q1020=
201908192300 METAR LRIA 192300Z 07005KT CAVOK 18/11 Q1019=
201908192330 METAR LRIA 192330Z 09003KT CAVOK 19/10 Q1019=
201908200000 METAR LRIA 200000Z VRB01KT CAVOK 18/10 Q1019=
201908200030 METAR LRIA 200030Z 10004KT CAVOK 18/10 Q1019=
201908200100 METAR LRIA 200100Z 06007KT CAVOK 17/10 Q1019=
201908200130 METAR LRIA 200130Z 07006KT CAVOK 17/10 Q1020=
201908200200 METAR LRIA 200200Z 07005KT CAVOK 17/10 Q1020=
201908200230 METAR LRIA 200230Z 08006KT CAVOK 16/10 Q1020=
201908200300 METAR LRIA 200300Z 05004KT CAVOK 15/10 Q1020=
201908200330 METAR LRIA 200330Z 06005KT CAVOK 16/10 Q1020=
201908200400 METAR LRIA 200400Z 06005KT CAVOK 17/11 Q1020=
201908200430 METAR LRIA 200430Z 09003KT CAVOK 18/11 Q1020=
201908200500 METAR LRIA 200500Z 07002KT CAVOK 19/11 Q1021=
201908200530 METAR LRIA 200530Z 11002KT CAVOK 21/11 Q1021=
201908200600 METAR LRIA 200600Z 09003KT 070V130 CAVOK 22/11 Q1021=
201908200630 METAR LRIA 200630Z 11003KT 070V140 CAVOK 23/11 Q1021=
201908200700 METAR LRIA 200700Z 10004KT 070V150 CAVOK 24/12 Q1021=
201908200730 METAR LRIA 200730Z 12003KT 060V210 CAVOK 26/12 Q1021=
201908200800 METAR LRIA 200800Z 11004KT 070V150 CAVOK 27/12 Q1021=
201908200830 METAR LRIA 200830Z 12005KT 080V150 CAVOK 28/12 Q1021=
201908200900 METAR LRIA 200900Z 10004KT 050V150 CAVOK 29/11 Q1021=
201908200930 METAR LRIA 200930Z 11004KT 020V160 CAVOK 30/10 Q1021=
201908201000 METAR LRIA 201000Z 11003KT 060V200 CAVOK 31/08 Q1021=
201908201030 METAR LRIA 201030Z 11004KT 070V180 CAVOK 31/07 Q1021=
201908201100 METAR LRIA 201100Z 11005KT 040V160 CAVOK 31/08 Q1021=
201908201130 METAR LRIA 201130Z VRB03KT CAVOK 31/08 Q1021=
201908201200 METAR LRIA 201200Z 12005KT 040V160 CAVOK 31/08 Q1020=
201908201230 METAR LRIA 201230Z 05004KT 360V080 CAVOK 31/08 Q1020=
201908201300 METAR LRIA 201300Z 36005KT 320V060 CAVOK 32/09 Q1020=
201908201330 METAR LRIA 201330Z 31003KT 230V350 CAVOK 32/09 Q1020=
201908201400 METAR LRIA 201400Z 23004KT 160V280 CAVOK 32/08 Q1020=
201908201430 METAR LRIA 201430Z 16004KT 130V210 CAVOK 32/08 Q1020=
201908201500 METAR LRIA 201500Z 25002KT CAVOK 32/09 Q1020=
201908201530 METAR LRIA 201530Z 24002KT CAVOK 32/10 Q1020=
201908201600 METAR LRIA 201600Z 19003KT 160V220 CAVOK 31/10 Q1020=
201908201630 METAR LRIA 201630Z 21002KT CAVOK 31/09 Q1020=
201908201700 METAR LRIA 201700Z 24003KT CAVOK 29/09 Q1020=
201908201730 METAR LRIA 201730Z 28003KT CAVOK 28/10 Q1021=
201908201800 METAR LRIA 201800Z 30002KT CAVOK 26/11 Q1021=
201908201830 METAR LRIA 201830Z 34005KT CAVOK 26/10 Q1021=
201908201900 METAR LRIA 201900Z 27003KT CAVOK 22/11 Q1021=
201908201930 METAR LRIA 201930Z 28004KT CAVOK 24/10 Q1021=
201908202000 METAR LRIA 202000Z 23002KT CAVOK 23/11 Q1021=
201908202030 METAR LRIA 202030Z 00000KT CAVOK 22/11 Q1021=
201908202100 METAR LRIA 202100Z 28002KT CAVOK 22/12 Q1021=
201908202130 METAR LRIA 202130Z VRB01KT CAVOK 19/12 Q1021=
201908202200 METAR LRIA 202200Z 22002KT CAVOK 18/12 Q1021=
201908202230 METAR LRIA 202230Z 28002KT CAVOK 20/11 Q1021=
201908202300 METAR LRIA 202300Z VRB01KT CAVOK 18/11 Q1021=
201908202330 METAR LRIA 202330Z 22002KT CAVOK 18/12 Q1021=
201908210000 METAR LRIA 210000Z 20003KT CAVOK 18/12 Q1021=
201908210030 METAR LRIA 210030Z 00000KT CAVOK 18/12 Q1021=
201908210100 METAR LRIA 210100Z 29001KT CAVOK 17/12 Q1021=
201908210130 METAR LRIA 210130Z 00000KT CAVOK 17/12 Q1021=
201908210200 METAR LRIA 210200Z 32001KT CAVOK 17/12 Q1021=
201908210230 METAR LRIA 210230Z 00000KT CAVOK 15/12 Q1021=
201908210300 METAR LRIA 210300Z 27003KT CAVOK 16/12 Q1021=
201908210330 METAR LRIA 210330Z 26001KT CAVOK 16/12 Q1021=
201908210400 METAR LRIA 210400Z 25002KT CAVOK 15/12 Q1021=
201908210430 METAR LRIA 210430Z 25002KT CAVOK 17/13 Q1021=
201908210500 METAR LRIA 210500Z 26003KT CAVOK 18/13 Q1022=
201908210530 METAR LRIA 210530Z 25003KT CAVOK 20/14 Q1022=
201908210600 METAR LRIA 210600Z 25003KT 220V280 CAVOK 21/14 Q1022=
201908210630 METAR LRIA 210630Z 27002KT CAVOK 23/14 Q1022=
201908210700 METAR LRIA 210700Z VRB01KT CAVOK 25/15 Q1022=
201908210730 METAR LRIA 210730Z VRB01KT CAVOK 27/13 Q1022=
201908210800 METAR LRIA 210800Z VRB02KT CAVOK 29/14 Q1021=
201908210830 METAR LRIA 210830Z VRB02KT CAVOK 30/11 Q1021=
201908210900 METAR LRIA 210900Z VRB03KT CAVOK 31/10 Q1021=
201908210930 METAR LRIA 210930Z VRB04KT CAVOK 31/11 Q1021=
201908211000 METAR LRIA 211000Z VRB03KT CAVOK 31/11 Q1020=
201908211030 METAR LRIA 211030Z 02004KT 310V110 CAVOK 31/10 Q1020=
201908211100 METAR LRIA 211100Z 07006KT 030V130 CAVOK 31/09 Q1020=
201908211130 METAR LRIA 211130Z VRB04KT CAVOK 32/10 Q1020=
201908211200 METAR LRIA 211200Z VRB03KT CAVOK 32/10 Q1019=
201908211230 METAR LRIA 211230Z VRB04KT CAVOK 32/09 Q1019=
201908211300 METAR LRIA 211300Z 06005KT 010V120 CAVOK 32/09 Q1019=
201908211330 METAR LRIA 211330Z 10004KT 050V170 CAVOK 33/09 Q1019=
201908211400 METAR LRIA 211400Z 07006KT 360V130 CAVOK 32/09 Q1019=
201908211430 METAR LRIA 211430Z 01006KT 330V040 CAVOK 32/09 Q1019=
201908211500 METAR LRIA 211500Z 34003KT 300V030 CAVOK 33/10 Q1019=
201908211530 METAR LRIA 211530Z 04005KT 010V080 CAVOK 32/09 Q1018=
201908211600 METAR LRIA 211600Z 01004KT 330V070 CAVOK 32/09 Q1019=
201908211630 METAR LRIA 211630Z 33006KT CAVOK 30/11 Q1019=
201908211700 METAR LRIA 211700Z 33007KT CAVOK 27/12 Q1019=
201908211730 METAR LRIA 211730Z 33006KT CAVOK 25/11 Q1019=
201908211800 METAR LRIA 211800Z 33008KT CAVOK 24/10 Q1019=
201908211830 METAR LRIA 211830Z 34009KT CAVOK 24/10 Q1019=
201908211900 METAR LRIA 211900Z 33009KT CAVOK 24/10 Q1019=
201908211930 METAR LRIA 211930Z 32006KT CAVOK 23/10 Q1019=
201908212000 METAR LRIA 212000Z 29005KT CAVOK 22/11 Q1020=
201908212030 METAR LRIA 212030Z VRB01KT CAVOK 21/11 Q1020=
201908212100 METAR LRIA 212100Z 25005KT CAVOK 21/12 Q1020=
201908212130 METAR LRIA 212130Z 24004KT 220V300 CAVOK 21/11 Q1021=
201908212200 METAR LRIA 212200Z 24003KT CAVOK 21/12 Q1021=
201908212230 METAR LRIA 212230Z 27007KT CAVOK 20/11 Q1021=
201908212300 METAR LRIA 212300Z 31009KT CAVOK 21/14 Q1021=
201908212330 METAR LRIA 212330Z 29010KT CAVOK 21/16 Q1021=
201908220000 METAR LRIA 220000Z 29009KT CAVOK 21/16 Q1021=
201908220030 METAR LRIA 220030Z 27005KT 230V310 CAVOK 20/17 Q1021=
201908220100 METAR LRIA 220100Z 27006KT 220V290 CAVOK 20/17 Q1021=
201908220130 METAR LRIA 220130Z 30010KT 9999 SCT014 20/17 Q1021=
201908220200 METAR LRIA 220200Z 31013KT 9999 SCT014 20/17 Q1022=
201908220230 METAR LRIA 220230Z 31012KT 9999 SCT014 20/16 Q1022=
201908220300 METAR LRIA 220300Z 30012KT 9999 SCT014 20/16 Q1022=
201908220330 METAR LRIA 220330Z 30011KT 270V330 9999 SCT016 19/15 Q1023=
201908220400 METAR LRIA 220400Z 29007KT 9999 BKN016 19/15 Q1023=
201908220430 METAR LRIA 220430Z 28007KT 250V320 9999 BKN016 20/15 Q1023=
201908220500 METAR LRIA 220500Z 29009KT 9999 BKN016 20/15 Q1024=
201908220530 METAR LRIA 220530Z 31010KT 9999 BKN017 20/15 Q1024=
201908220600 METAR LRIA 220600Z 30008KT 280V340 9999 BKN018 21/15 Q1024=
201908220630 METAR LRIA 220630Z 32012KT 9999 BKN019 21/15 Q1024=
201908220700 METAR LRIA 220700Z 32010KT 9999 BKN019 21/15 Q1024=
201908220730 METAR LRIA 220730Z 31012KT 9999 BKN019 21/14 Q1024=
201908220800 METAR LRIA 220800Z 32010KT 9999 BKN020 21/14 Q1025=
201908220830 METAR LRIA 220830Z 31012KT 9999 BKN022 21/14 Q1024=
201908220900 METAR LRIA 220900Z 32013KT 290V350 9999 SCT023 23/14 Q1024=
201908220930 METAR LRIA 220930Z 32012KT 280V340 9999 SCT026 23/14 Q1024=
201908221000 METAR LRIA 221000Z 31013KT 280V340 9999 FEW028 23/14 Q1024=
201908221030 METAR LRIA 221030Z 31013KT 9999 FEW035 25/14 Q1024=
201908221100 METAR LRIA 221100Z 32012KT 9999 FEW038 24/14 Q1024=
201908221130 METAR LRIA 221130Z 33013KT CAVOK 24/14 Q1024=
201908221200 METAR LRIA 221200Z 32010KT 290V350 CAVOK 26/14 Q1023=
201908221230 METAR LRIA 221230Z 32012KT CAVOK 25/14 Q1023=
201908221300 METAR LRIA 221300Z 33012KT 300V360 CAVOK 26/14 Q1023=
201908221330 METAR LRIA 221330Z 33012KT CAVOK 25/14 Q1023=
201908221400 METAR LRIA 221400Z 33013KT CAVOK 25/14 Q1023=
201908221430 METAR LRIA 221430Z 33012KT CAVOK 25/14 Q1023=
201908221500 METAR LRIA 221500Z 32012KT CAVOK 25/14 Q1023=
201908221530 METAR LRIA 221530Z 33011KT CAVOK 25/14 Q1023=
201908221600 METAR LRIA 221600Z 32010KT CAVOK 24/14 Q1023=
201908221630 METAR LRIA 221630Z 31009KT CAVOK 24/14 Q1023=
201908221700 METAR LRIA 221700Z 31007KT CAVOK 23/14 Q1023=
201908221730 METAR LRIA 221730Z 31008KT CAVOK 22/14 Q1024=
201908221800 METAR LRIA 221800Z 31007KT CAVOK 21/14 Q1024=
201908221830 METAR LRIA 221830Z 31009KT CAVOK 21/14 Q1024=
201908221900 METAR LRIA 221900Z 32008KT CAVOK 21/14 Q1024=
201908221930 METAR LRIA 221930Z 32006KT CAVOK 20/14 Q1024=
201908222000 METAR LRIA 222000Z 32007KT CAVOK 20/14 Q1024=
201908222030 METAR LRIA 222030Z 32009KT CAVOK 20/14 Q1024=
201908222100 METAR LRIA 222100Z 32006KT CAVOK 19/14 Q1024=
201908222130 METAR LRIA 222130Z 32007KT CAVOK 19/14 Q1024=
201908222200 METAR LRIA 222200Z 32007KT CAVOK 19/14 Q1024=
201908222230 METAR LRIA 222230Z 32007KT CAVOK 18/14 Q1024=
201908222300 METAR LRIA 222300Z 32008KT CAVOK 18/14 Q1024=
201908222330 METAR LRIA 222330Z 32007KT CAVOK 18/14 Q1024=
201908230000 METAR LRIA 230000Z 32007KT CAVOK 18/14 Q1024=
201908230030 METAR LRIA 230030Z 31007KT CAVOK 17/14 Q1024=
201908230100 METAR LRIA 230100Z 31007KT CAVOK 17/13 Q1024=
201908230130 METAR LRIA 230130Z 31008KT CAVOK 16/13 Q1024=
201908230200 METAR LRIA 230200Z 31007KT CAVOK 16/14 Q1024=
201908230230 METAR LRIA 230230Z 31007KT CAVOK 16/14 Q1024=
201908230300 METAR LRIA 230300Z 29006KT CAVOK 16/13 Q1024=
201908230330 METAR LRIA 230330Z 30005KT CAVOK 16/13 Q1025=
201908230400 METAR LRIA 230400Z 30006KT CAVOK 16/13 Q1025=
201908230430 METAR LRIA 230430Z 31006KT CAVOK 17/14 Q1025=
201908230500 METAR LRIA 230500Z 30005KT CAVOK 18/14 Q1025=
201908230530 METAR LRIA 230530Z 32007KT CAVOK 19/14 Q1025=
201908230600 METAR LRIA 230600Z 33009KT CAVOK 20/14 Q1025=
201908230630 METAR LRIA 230630Z 33009KT CAVOK 21/14 Q1025=
201908230700 METAR LRIA 230700Z 34009KT CAVOK 21/14 Q1025=
201908230730 METAR LRIA 230730Z 33009KT CAVOK 22/14 Q1025=
201908230800 METAR LRIA 230800Z 32008KT 290V350 CAVOK 24/14 Q1025=
201908230830 METAR LRIA 230830Z 32009KT CAVOK 24/14 Q1025=
201908230900 METAR LRIA 230900Z 33012KT CAVOK 25/14 Q1025=
201908230930 METAR LRIA 230930Z 33011KT CAVOK 26/14 Q1024=
201908231000 METAR LRIA 231000Z 34010KT 300V010 CAVOK 26/13 Q1024=
201908231030 METAR LRIA 231030Z 32009KT CAVOK 27/14 Q1024=
201908231100 METAR LRIA 231100Z 32009KT CAVOK 27/14 Q1024=
201908231130 METAR LRIA 231130Z 32009KT 290V360 CAVOK 28/14 Q1024=
201908231200 METAR LRIA 231200Z 32009KT CAVOK 28/13 Q1023=
201908231230 METAR LRIA 231230Z 31010KT CAVOK 29/13 Q1023=
201908231300 METAR LRIA 231300Z 32009KT 290V350 CAVOK 29/13 Q1023=
201908231330 METAR LRIA 231330Z 32009KT CAVOK 29/13 Q1023=
201908231400 METAR LRIA 231400Z 32010KT 290V350 CAVOK 29/13 Q1023=
201908231430 METAR LRIA 231430Z 32010KT 300V360 CAVOK 29/13 Q1023=
201908231500 METAR LRIA 231500Z 32009KT CAVOK 29/13 Q1023=
201908231530 METAR LRIA 231530Z 32009KT CAVOK 28/13 Q1023=
201908231600 METAR LRIA 231600Z 32009KT CAVOK 28/13 Q1023=
201908231630 METAR LRIA 231630Z 32007KT CAVOK 26/12 Q1023=
201908231700 METAR LRIA 231700Z 32007KT CAVOK 25/13 Q1023=
201908231730 METAR LRIA 231730Z 33007KT CAVOK 24/12 Q1023=
201908231800 METAR LRIA 231800Z 32007KT CAVOK 24/12 Q1024=
201908231830 METAR LRIA 231830Z 32007KT CAVOK 23/12 Q1024=
201908231900 METAR LRIA 231900Z 32007KT CAVOK 23/11 Q1024=
201908231930 METAR LRIA 231930Z 32008KT CAVOK 23/11 Q1024=
201908232000 METAR LRIA 232000Z 33007KT CAVOK 22/12 Q1024=
201908232030 METAR LRIA 232030Z 32005KT CAVOK 21/12 Q1024=
201908232100 METAR LRIA 232100Z 32005KT CAVOK 21/12 Q1024=
201908232130 METAR LRIA 232130Z 28005KT CAVOK 20/12 Q1024=
201908232200 METAR LRIA 232200Z 29003KT CAVOK 20/12 Q1024=
201908232230 METAR LRIA 232230Z 29004KT 250V330 CAVOK 19/12 Q1024=
201908232300 METAR LRIA 232300Z 30004KT 250V320 CAVOK 19/12 Q1024=
201908232330 METAR LRIA 232330Z 25004KT CAVOK 18/12 Q1024=
201908240000 METAR LRIA 240000Z 27003KT CAVOK 18/12 Q1024=
201908240030 METAR LRIA 240030Z 23004KT CAVOK 17/12 Q1024=
201908240100 METAR LRIA 240100Z 25003KT CAVOK 17/12 Q1024=
201908240130 METAR LRIA 240130Z 26004KT CAVOK 17/12 Q1024=
201908240200 METAR LRIA 240200Z 27005KT CAVOK 17/12 Q1024=
201908240230 METAR LRIA 240230Z 27004KT CAVOK 16/12 Q1024=
201908240300 METAR LRIA 240300Z 27004KT CAVOK 16/12 Q1025=
201908240330 METAR LRIA 240330Z 24003KT CAVOK 15/12 Q1025=
201908240400 METAR LRIA 240400Z 26004KT CAVOK 15/13 Q1025=
201908240430 METAR LRIA 240430Z 25003KT CAVOK 16/13 Q1025=
201908240500 METAR LRIA 240500Z 25004KT 220V280 CAVOK 18/13 Q1025=
201908240530 METAR LRIA 240530Z 28004KT CAVOK 18/13 Q1025=
201908240600 METAR LRIA 240600Z 29004KT CAVOK 20/13 Q1025=
201908240630 METAR LRIA 240630Z 27005KT 240V300 CAVOK 21/13 Q1025=
201908240700 METAR LRIA 240700Z 28006KT 260V320 CAVOK 21/13 Q1025=
201908240730 METAR LRIA 240730Z 30007KT CAVOK 23/13 Q1025=
201908240800 METAR LRIA 240800Z 30006KT 260V340 CAVOK 24/14 Q1025=
201908240830 METAR LRIA 240830Z 33006KT 290V360 CAVOK 25/14 Q1024=
201908240900 METAR LRIA 240900Z 33008KT CAVOK 26/13 Q1024=
201908240930 METAR LRIA 240930Z 34006KT 310V020 CAVOK 27/13 Q1024=
201908241000 METAR LRIA 241000Z 34006KT 320V020 CAVOK 27/13 Q1024=
201908241030 METAR LRIA 241030Z 31008KT 270V350 CAVOK 27/14 Q1024=
201908241100 METAR LRIA 241100Z 31008KT 280V350 CAVOK 28/14 Q1023=
201908241130 METAR LRIA 241130Z 33006KT 300V020 CAVOK 28/13 Q1023=
201908241200 METAR LRIA 241200Z 33006KT 300V010 CAVOK 29/13 Q1023=
201908241230 METAR LRIA 241230Z 30005KT CAVOK 29/13 Q1023=
201908241300 METAR LRIA 241300Z 35007KT CAVOK 30/13 Q1022=
201908241330 METAR LRIA 241330Z 29005KT 260V320 CAVOK 31/13 Q1022=
201908241400 METAR LRIA 241400Z 35005KT 270V050 CAVOK 31/13 Q1022=
201908241430 METAR LRIA 241430Z 33005KT 300V020 CAVOK 30/13 Q1022=
201908241500 METAR LRIA 241500Z 32007KT 290V360 CAVOK 30/13 Q1022=
201908241530 METAR LRIA 241530Z 33006KT 290V350 CAVOK 30/13 Q1022=
201908241600 METAR LRIA 241600Z 32006KT CAVOK 29/13 Q1022=
201908241630 METAR LRIA 241630Z 32005KT CAVOK 28/13 Q1022=
201908241700 METAR LRIA 241700Z 33006KT CAVOK 25/13 Q1022=
201908241730 METAR LRIA 241730Z 32005KT CAVOK 25/12 Q1022=
201908241800 METAR LRIA 241800Z 32006KT CAVOK 24/13 Q1022=
201908241830 METAR LRIA 241830Z 32006KT CAVOK 24/13 Q1022=
201908241900 METAR LRIA 241900Z 30007KT CAVOK 23/13 Q1022=
201908241930 METAR LRIA 241930Z 28003KT CAVOK 22/13 Q1022=
201908242000 METAR LRIA 242000Z 25003KT CAVOK 20/13 Q1022=
201908242030 METAR LRIA 242030Z 29004KT CAVOK 22/13 Q1022=
201908242100 METAR LRIA 242100Z 25003KT CAVOK 21/13 Q1022=
201908242130 METAR LRIA 242130Z 27004KT CAVOK 20/13 Q1022=
201908242200 METAR LRIA 242200Z 27003KT CAVOK 20/13 Q1022=
201908242230 METAR LRIA 242230Z 25004KT CAVOK 19/13 Q1022=
201908242300 METAR LRIA 242300Z 25003KT CAVOK 19/14 Q1022=
201908242330 METAR LRIA 242330Z 24003KT CAVOK 18/14 Q1022=
201908250000 METAR LRIA 250000Z 26004KT CAVOK 18/13 Q1022=
201908250030 METAR LRIA 250030Z 26004KT CAVOK 18/13 Q1022=
201908250100 METAR LRIA 250100Z 25003KT CAVOK 18/13 Q1022=
201908250130 METAR LRIA 250130Z 25003KT CAVOK 17/14 Q1022=
201908250200 METAR LRIA 250200Z 26003KT CAVOK 18/14 Q1022=
201908250230 METAR LRIA 250230Z 26003KT CAVOK 17/13 Q1022=
201908250300 METAR LRIA 250300Z 25003KT CAVOK 17/13 Q1023=
201908250330 METAR LRIA 250330Z 25002KT CAVOK 17/13 Q1023=
201908250400 METAR LRIA 250400Z 25003KT CAVOK 17/14 Q1023=
201908250430 METAR LRIA 250430Z 24003KT CAVOK 18/14 Q1023=
201908250500 METAR LRIA 250500Z 26003KT CAVOK 19/14 Q1023=
201908250530 METAR LRIA 250530Z 25003KT CAVOK 20/14 Q1023=
201908250600 METAR LRIA 250600Z 26004KT 230V290 CAVOK 21/14 Q1023=
201908250630 METAR LRIA 250630Z 28004KT 240V300 CAVOK 22/13 Q1023=
201908250700 METAR LRIA 250700Z 29003KT 250V310 CAVOK 24/14 Q1023=
201908250730 METAR LRIA 250730Z 28004KT 240V300 CAVOK 25/14 Q1023=
201908250800 METAR LRIA 250800Z 27005KT 230V320 CAVOK 27/14 Q1023=
201908250830 METAR LRIA 250830Z 31004KT 280V360 CAVOK 28/14 Q1023=
201908250900 METAR LRIA 250900Z VRB02KT CAVOK 29/15 Q1023=
201908250930 METAR LRIA 250930Z 28004KT 250V320 CAVOK 29/15 Q1023=
201908251000 METAR LRIA 251000Z 11003KT 070V220 9999 FEW050TCU 31/16 Q1023=
201908251030 METAR LRIA 251030Z VRB02KT 9999 FEW050TCU 31/15 Q1023=
201908251100 METAR LRIA 251100Z VRB04KT 9999 FEW055TCU 32/14 Q1022=
201908251130 METAR LRIA 251130Z 34004KT 260V040 9999 FEW055TCU 32/13 Q1022=
201908251200 METAR LRIA 251200Z 05007KT CAVOK 32/14 Q1022=
201908251230 METAR LRIA 251230Z 32005KT 260V010 CAVOK 33/14 Q1021=
201908251300 METAR LRIA 251300Z 01006KT 330V090 CAVOK 33/13 Q1021=
201908251330 METAR LRIA 251330Z 09004KT CAVOK 32/13 Q1021=
201908251400 METAR LRIA 251400Z 12003KT 060V230 CAVOK 33/12 Q1021=
201908251430 METAR LRIA 251430Z 07005KT 030V100 CAVOK 32/12 Q1021=
201908251500 METAR LRIA 251500Z 06004KT CAVOK 32/12 Q1021=
201908251530 METAR LRIA 251530Z 08004KT 020V110 CAVOK 32/13 Q1021=
201908251600 METAR LRIA 251600Z 01007KT CAVOK 31/12 Q1021=
201908251630 METAR LRIA 251630Z 03006KT 9999 FEW050TCU 30/13 Q1021=
201908251700 METAR LRIA 251700Z 02006KT 9999 FEW050TCU 28/12 Q1021=
201908251730 METAR LRIA 251730Z 01007KT CAVOK 27/13 Q1021=
201908251800 METAR LRIA 251800Z 03006KT 9999 TS FEW050CB 27/12 Q1022=
201908251830 METAR LRIA 251830Z 03006KT 9999 FEW050CB 27/12 Q1022 RETS=
201908251900 METAR LRIA 251900Z 02006KT CAVOK 26/12 Q1022=
201908251930 METAR LRIA 251930Z VRB06KT CAVOK 26/12 Q1022=
201908252000 METAR LRIA 252000Z 19002KT CAVOK 25/12 Q1022=
201908252030 METAR LRIA 252030Z 12003KT CAVOK 25/12 Q1022=
201908252100 METAR LRIA 252100Z 08003KT CAVOK 24/13 Q1023=
201908252130 METAR LRIA 252130Z 12005KT CAVOK 24/13 Q1023=
201908252200 METAR LRIA 252200Z VRB01KT CAVOK 23/14 Q1023=
201908252230 METAR LRIA 252230Z VRB02KT CAVOK 22/13 Q1023=
201908252300 METAR LRIA 252300Z 06004KT CAVOK 22/13 Q1023=
201908252330 METAR LRIA 252330Z 06004KT CAVOK 22/13 Q1023=
201908260000 METAR LRIA 260000Z 07001KT CAVOK 21/14 Q1023=
201908260030 METAR LRIA 260030Z 00000KT CAVOK 21/13 Q1023=
201908260100 METAR LRIA 260100Z 08002KT CAVOK 21/13 Q1023=
201908260130 METAR LRIA 260130Z 06004KT CAVOK 20/14 Q1023=
201908260200 METAR LRIA 260200Z VRB01KT CAVOK 18/14 Q1023=
201908260230 METAR LRIA 260230Z 26003KT CAVOK 19/14 Q1023=
201908260300 METAR LRIA 260300Z 31002KT CAVOK 18/13 Q1023=
201908260330 METAR LRIA 260330Z VRB01KT CAVOK 17/13 Q1023=
201908260400 METAR LRIA 260400Z 27003KT 9999 FEW050TCU 17/14 Q1023=
201908260430 METAR LRIA 260430Z VRB02KT CAVOK 18/14 Q1023=
201908260500 METAR LRIA 260500Z 26002KT CAVOK 20/15 Q1024=
201908260530 METAR LRIA 260530Z 25002KT CAVOK 20/13 Q1024=
201908260600 METAR LRIA 260600Z 27003KT 240V300 CAVOK 22/12 Q1024=
201908260630 METAR LRIA 260630Z 24002KT CAVOK 24/13 Q1024=
201908260700 METAR LRIA 260700Z 02002KT CAVOK 25/11 Q1024=
201908260730 METAR LRIA 260730Z VRB03KT CAVOK 27/11 Q1024=
201908260800 METAR LRIA 260800Z 09004KT 010V170 CAVOK 28/11 Q1024=
201908260830 METAR LRIA 260830Z 11004KT 050V160 CAVOK 29/11 Q1024=
201908260900 METAR LRIA 260900Z 08006KT 040V120 CAVOK 29/09 Q1024=
201908260930 METAR LRIA 260930Z 11006KT 040V150 CAVOK 30/10 Q1024=
201908261000 METAR LRIA 261000Z VRB05KT CAVOK 31/09 Q1024=
201908261030 METAR LRIA 261030Z VRB04KT CAVOK 31/09 Q1023=
201908261100 METAR LRIA 261100Z VRB03KT CAVOK 31/10 Q1023=
201908261130 METAR LRIA 261130Z 11005KT 060V210 CAVOK 32/10 Q1023=
201908261200 METAR LRIA 261200Z 08005KT CAVOK 32/09 Q1023=
201908261230 METAR LRIA 261230Z 15005KT 090V190 CAVOK 32/09 Q1022=
201908261300 METAR LRIA 261300Z 36004KT 320V060 CAVOK 32/09 Q1022=
201908261330 METAR LRIA 261330Z 02005KT 320V070 CAVOK 32/09 Q1022=
201908261400 METAR LRIA 261400Z 05006KT CAVOK 32/09 Q1022=
201908261430 METAR LRIA 261430Z 04004KT 300V080 CAVOK 32/09 Q1021=
201908261500 METAR LRIA 261500Z 36002KT CAVOK 32/09 Q1021=
201908261530 METAR LRIA 261530Z 33003KT CAVOK 31/11 Q1021=
201908261600 METAR LRIA 261600Z 05004KT CAVOK 31/10 Q1021=
201908261630 METAR LRIA 261630Z 05005KT CAVOK 29/11 Q1021=
201908261700 METAR LRIA 261700Z 03006KT CAVOK 26/10 Q1021=
201908261730 METAR LRIA 261730Z 03006KT CAVOK 25/10 Q1021=
201908261800 METAR LRIA 261800Z 02006KT CAVOK 25/09 Q1022=
201908261830 METAR LRIA 261830Z 03005KT CAVOK 24/09 Q1022=
201908261900 METAR LRIA 261900Z 00000KT CAVOK 24/08 Q1021=
201908261930 METAR LRIA 261930Z 21002KT CAVOK 24/09 Q1022=
201908262000 METAR LRIA 262000Z 27004KT CAVOK 24/10 Q1022=
201908262030 METAR LRIA 262030Z 31004KT CAVOK 24/08 Q1022=
201908262100 METAR LRIA 262100Z 28002KT CAVOK 21/11 Q1022=
201908262130 METAR LRIA 262130Z VRB01KT CAVOK 20/10 Q1022=
201908262200 METAR LRIA 262200Z VRB01KT CAVOK 17/12 Q1022=
201908262230 METAR LRIA 262230Z 28004KT CAVOK 19/09 Q1022=
201908262300 METAR LRIA 262300Z 27003KT CAVOK 18/09 Q1022=
201908262330 METAR LRIA 262330Z 28004KT CAVOK 18/09 Q1022=
201908270000 METAR LRIA 270000Z 27003KT CAVOK 18/08 Q1022=
201908270030 METAR LRIA 270030Z 29002KT CAVOK 18/08 Q1021=
201908270100 METAR LRIA 270100Z 29003KT CAVOK 17/08 Q1022=
201908270130 METAR LRIA 270130Z 29003KT CAVOK 15/10 Q1021=
201908270200 METAR LRIA 270200Z 29002KT CAVOK 17/09 Q1022=
201908270230 METAR LRIA 270230Z 26003KT CAVOK 16/10 Q1022=
201908270300 METAR LRIA 270300Z 26003KT CAVOK 16/11 Q1022=
201908270330 METAR COR LRIA 270330Z 25003KT CAVOK 15/10 Q1022=
201908270400 METAR LRIA 270400Z 26003KT CAVOK 16/10 Q1022=
201908270430 METAR LRIA 270430Z 26003KT CAVOK 16/11 Q1022=
201908270500 METAR LRIA 270500Z 24002KT CAVOK 17/11 Q1022=
201908270530 METAR LRIA 270530Z 24002KT CAVOK 19/12 Q1022=
201908270600 METAR LRIA 270600Z 26002KT CAVOK 20/12 Q1023=
201908270630 METAR LRIA 270630Z 24002KT CAVOK 22/11 Q1023=
201908270700 METAR LRIA 270700Z VRB02KT CAVOK 23/11 Q1023=
201908270730 METAR LRIA 270730Z VRB02KT CAVOK 25/11 Q1023=
201908270800 METAR LRIA 270800Z 04002KT CAVOK 27/11 Q1023=
201908270830 METAR LRIA 270830Z VRB03KT CAVOK 28/10 Q1023=
201908270900 METAR LRIA 270900Z VRB03KT CAVOK 29/10 Q1023=
201908270930 METAR LRIA 270930Z VRB03KT CAVOK 30/11 Q1023=
201908271000 METAR LRIA 271000Z VRB03KT CAVOK 30/10 Q1023=
201908271030 METAR LRIA 271030Z VRB04KT CAVOK 31/08 Q1022=
201908271100 METAR LRIA 271100Z VRB04KT CAVOK 32/08 Q1022=
201908271130 METAR LRIA 271130Z VRB04KT CAVOK 32/09 Q1022=
201908271200 METAR LRIA 271200Z 08005KT 020V140 CAVOK 32/06 Q1022=
201908271230 METAR LRIA 271230Z VRB03KT CAVOK 32/07 Q1021=
201908271300 METAR LRIA 271300Z VRB04KT CAVOK 33/07 Q1021=
201908271330 METAR LRIA 271330Z 10002KT CAVOK 33/06 Q1021=
201908271400 METAR LRIA 271400Z 31002KT CAVOK 32/06 Q1021=
201908271430 METAR LRIA 271430Z 10004KT 020V140 CAVOK 32/06 Q1021=
201908271500 METAR LRIA 271500Z VRB02KT CAVOK 32/06 Q1021=
201908271530 METAR LRIA 271530Z VRB01KT CAVOK 33/06 Q1021=
201908271600 METAR LRIA 271600Z 30002KT CAVOK 31/07 Q1021=
201908271630 METAR LRIA 271630Z 27002KT CAVOK 30/06 Q1021=
201908271700 METAR LRIA 271700Z 31002KT CAVOK 29/08 Q1021=
201908271730 METAR LRIA 271730Z 33004KT CAVOK 26/08 Q1021=
201908271800 METAR LRIA 271800Z 35006KT CAVOK 26/08 Q1021=
201908271830 METAR LRIA 271830Z VRB03KT CAVOK 24/09 Q1021=
201908271900 METAR LRIA 271900Z 26002KT CAVOK 25/10 Q1021=
201908271930 METAR LRIA 271930Z 28002KT CAVOK 25/10 Q1021=
201908272000 METAR LRIA 272000Z 24002KT CAVOK 22/11 Q1022=
201908272030 METAR LRIA 272030Z 00000KT CAVOK 23/11 Q1022=
201908272100 METAR LRIA 272100Z 30001KT CAVOK 20/11 Q1022=
201908272130 METAR LRIA 272130Z 00000KT CAVOK 21/11 Q1022=
201908272200 METAR LRIA 272200Z 00000KT CAVOK 21/11 Q1022=
201908272230 METAR LRIA 272230Z 00000KT CAVOK 20/11 Q1022=
201908272300 METAR LRIA 272300Z 25002KT CAVOK 20/11 Q1022=
201908272330 METAR LRIA 272330Z 28001KT CAVOK 20/11 Q1022=
201908280000 METAR LRIA 280000Z 29002KT CAVOK 18/11 Q1022=
201908280030 METAR LRIA 280030Z 32002KT CAVOK 18/11 Q1022=
201908280100 METAR LRIA 280100Z 02002KT CAVOK 19/10 Q1022=
201908280130 METAR LRIA 280130Z 02001KT CAVOK 19/10 Q1022=
201908280200 METAR LRIA 280200Z 35001KT CAVOK 17/10 Q1022=
201908280230 METAR LRIA 280230Z 33002KT CAVOK 16/11 Q1023=
201908280300 METAR LRIA 280300Z 00000KT CAVOK 16/10 Q1023=
201908280330 METAR LRIA 280330Z 21001KT CAVOK 16/09 Q1023=
201908280400 METAR LRIA 280400Z 23002KT CAVOK 16/10 Q1023=
201908280430 METAR LRIA 280430Z 27002KT CAVOK 17/11 Q1023=
201908280500 METAR LRIA 280500Z VRB02KT CAVOK 18/12 Q1023=
201908280530 METAR LRIA 280530Z VRB01KT CAVOK 20/12 Q1023=
201908280600 METAR LRIA 280600Z VRB01KT CAVOK 23/12 Q1023=
201908280630 METAR LRIA 280630Z 12003KT 050V170 CAVOK 24/11 Q1023=
201908280700 METAR LRIA 280700Z 12004KT 080V150 CAVOK 25/11 Q1023=
201908280730 METAR LRIA 280730Z 14005KT 100V160 CAVOK 26/10 Q1023=
201908280800 METAR LRIA 280800Z 12004KT 070V180 CAVOK 27/10 Q1023=
201908280830 METAR LRIA 280830Z 08003KT 320V130 CAVOK 28/09 Q1022=
201908280900 METAR LRIA 280900Z 09004KT 050V130 CAVOK 30/09 Q1022=
201908280930 METAR LRIA 280930Z VRB04KT CAVOK 30/08 Q1022=
201908281000 METAR LRIA 281000Z VRB03KT CAVOK 31/09 Q1022=
201908281030 METAR LRIA 281030Z VRB03KT CAVOK 31/08 Q1022=
201908281100 METAR LRIA 281100Z VRB04KT CAVOK 31/09 Q1021=
201908281130 METAR LRIA 281130Z VRB04KT CAVOK 32/08 Q1021=
201908281200 METAR LRIA 281200Z VRB04KT CAVOK 32/09 Q1021=
201908281230 METAR LRIA 281230Z VRB04KT CAVOK 32/08 Q1020=
201908281300 METAR LRIA 281300Z 02006KT CAVOK 32/09 Q1020=
201908281330 METAR LRIA 281330Z VRB04KT CAVOK 32/08 Q1020=
201908281400 METAR LRIA 281400Z VRB03KT CAVOK 32/09 Q1020=
201908281430 METAR LRIA 281430Z 04005KT 010V090 CAVOK 32/09 Q1020=
201908281500 METAR LRIA 281500Z 01005KT 340V040 CAVOK 31/09 Q1020=
201908281530 METAR LRIA 281530Z VRB02KT CAVOK 31/09 Q1020=
201908281600 METAR LRIA 281600Z VRB02KT CAVOK 31/09 Q1020=
201908281630 METAR LRIA 281630Z 05003KT CAVOK 30/08 Q1020=
201908281700 METAR LRIA 281700Z 05004KT CAVOK 27/10 Q1020=
201908281730 METAR LRIA 281730Z 04006KT CAVOK 27/09 Q1020=
201908281800 METAR LRIA 281800Z 04006KT CAVOK 25/09 Q1020=
201908281830 METAR LRIA 281830Z 12004KT 040V190 CAVOK 24/09 Q1020=
201908281900 METAR LRIA 281900Z 10003KT CAVOK 25/09 Q1020=
201908281930 METAR LRIA 281930Z 09003KT CAVOK 24/09 Q1020=
201908282000 METAR LRIA 282000Z 12002KT CAVOK 23/10 Q1020=
201908282030 METAR LRIA 282030Z VRB01KT CAVOK 22/09 Q1020=
201908282100 METAR LRIA 282100Z VRB01KT CAVOK 22/09 Q1020=
201908282130 METAR LRIA 282130Z 00000KT CAVOK 22/09 Q1020=
201908282200 METAR LRIA 282200Z 00000KT CAVOK 21/09 Q1020=
201908282230 METAR LRIA 282230Z 08003KT CAVOK 22/09 Q1020=
201908282300 METAR LRIA 282300Z 13002KT CAVOK 19/09 Q1020=
201908282330 METAR LRIA 282330Z 07001KT CAVOK 20/09 Q1020=
201908290000 METAR LRIA 290000Z VRB04KT CAVOK 18/10 Q1020=
201908290030 METAR LRIA 290030Z 22003KT CAVOK 17/11 Q1020=
201908290100 METAR LRIA 290100Z 33002KT CAVOK 18/10 Q1020=
201908290130 METAR LRIA 290130Z VRB01KT CAVOK 17/10 Q1020=
201908290200 METAR LRIA 290200Z 11002KT CAVOK 16/10 Q1020=
201908290230 METAR LRIA 290230Z 10002KT CAVOK 17/09 Q1020=
201908290300 METAR LRIA 290300Z 12001KT CAVOK 17/09 Q1020=
201908290330 METAR LRIA 290330Z 00000KT CAVOK 16/09 Q1020=
201908290400 METAR LRIA 290400Z 25002KT CAVOK 16/11 Q1020=
201908290430 METAR LRIA 290430Z 31001KT CAVOK 17/12 Q1020=
201908290500 METAR LRIA 290500Z 24001KT CAVOK 18/12 Q1020=
201908290530 METAR LRIA 290530Z 26002KT CAVOK 19/12 Q1020=
201908290600 METAR LRIA 290600Z 25002KT CAVOK 21/12 Q1021=
201908290630 METAR LRIA 290630Z 26002KT CAVOK 22/12 Q1020=
201908290700 METAR LRIA 290700Z 04002KT CAVOK 24/11 Q1020=
201908290730 METAR LRIA 290730Z VRB02KT CAVOK 26/11 Q1021=
201908290800 METAR LRIA 290800Z 10003KT 040V200 CAVOK 27/10 Q1020=
201908290830 METAR LRIA 290830Z 11003KT 010V160 CAVOK 28/11 Q1020=
201908290900 METAR LRIA 290900Z 10004KT 070V140 CAVOK 29/11 Q1020=
201908290930 METAR LRIA 290930Z VRB03KT CAVOK 30/11 Q1020=
201908291000 METAR LRIA 291000Z 09006KT 020V130 CAVOK 30/11 Q1020=
201908291030 METAR LRIA 291030Z 10005KT 020V140 CAVOK 30/10 Q1020=
201908291100 METAR LRIA 291100Z 11005KT 080V160 CAVOK 31/10 Q1020=
201908291130 METAR LRIA 291130Z 04006KT 350V080 CAVOK 31/11 Q1019=
201908291200 METAR LRIA 291200Z VRB04KT CAVOK 31/11 Q1019=
201908291230 METAR LRIA 291230Z VRB03KT CAVOK 32/11 Q1019=
201908291300 METAR LRIA 291300Z 01003KT 310V070 CAVOK 31/10 Q1019=
201908291330 METAR LRIA 291330Z 05006KT 020V120 CAVOK 31/10 Q1018=
201908291400 METAR LRIA 291400Z 09004KT 050V150 CAVOK 31/10 Q1018=
201908291430 METAR LRIA 291430Z 01004KT 300V050 CAVOK 32/10 Q1018=
201908291500 METAR LRIA 291500Z 02006KT 320V090 CAVOK 31/10 Q1018=
201908291530 METAR LRIA 291530Z 04004KT CAVOK 31/11 Q1018=
201908291600 METAR LRIA 291600Z 06003KT CAVOK 31/10 Q1018=
201908291630 METAR LRIA 291630Z 03004KT CAVOK 29/10 Q1018=
201908291700 METAR LRIA 291700Z 05006KT CAVOK 27/11 Q1018=
201908291730 METAR LRIA 291730Z 07006KT CAVOK 27/10 Q1018=
201908291800 METAR LRIA 291800Z 05006KT CAVOK 26/10 Q1018=
201908291830 METAR LRIA 291830Z 08005KT CAVOK 25/10 Q1018=
201908291900 METAR LRIA 291900Z 08005KT CAVOK 25/10 Q1018=
201908291930 METAR LRIA 291930Z 08005KT CAVOK 25/10 Q1018=
201908292000 METAR LRIA 292000Z 06006KT CAVOK 25/10 Q1018=
201908292030 METAR LRIA 292030Z 10006KT CAVOK 24/10 Q1019=
201908292100 METAR LRIA 292100Z 16004KT 130V190 CAVOK 24/11 Q1019=
201908292130 METAR LRIA 292130Z 15005KT 130V190 CAVOK 24/11 Q1019=
201908292200 METAR LRIA 292200Z 17005KT CAVOK 23/12 Q1019=
201908292230 METAR LRIA 292230Z 17004KT CAVOK 23/12 Q1019=
201908292300 METAR LRIA 292300Z VRB02KT CAVOK 22/12 Q1019=
201908292330 METAR LRIA 292330Z 15001KT CAVOK 22/12 Q1019=
201908300000 METAR LRIA 300000Z 08004KT CAVOK 21/11 Q1019=
201908300030 METAR LRIA 300030Z 07005KT CAVOK 20/11 Q1019=
201908300100 METAR LRIA 300100Z 07005KT CAVOK 20/11 Q1019=
201908300130 METAR LRIA 300130Z 08005KT CAVOK 19/11 Q1019=
201908300200 METAR LRIA 300200Z 08005KT CAVOK 19/11 Q1019=
201908300230 METAR LRIA 300230Z 08005KT CAVOK 19/11 Q1019=
201908300300 METAR LRIA 300300Z 08006KT CAVOK 18/11 Q1019=
201908300330 METAR LRIA 300330Z 08007KT CAVOK 19/11 Q1019=
201908300400 METAR LRIA 300400Z 09007KT CAVOK 19/11 Q1020=
201908300430 METAR LRIA 300430Z 08005KT CAVOK 19/12 Q1020=
201908300500 METAR LRIA 300500Z 12003KT CAVOK 20/12 Q1020=
201908300530 METAR LRIA 300530Z 12004KT CAVOK 21/12 Q1020=
201908300600 METAR LRIA 300600Z 18003KT 130V230 CAVOK 22/12 Q1020=
201908300630 METAR LRIA 300630Z 21004KT 170V230 CAVOK 23/12 Q1020=
201908300700 METAR LRIA 300700Z 19003KT 100V270 CAVOK 25/12 Q1020=
201908300730 METAR LRIA 300730Z 21005KT 130V250 CAVOK 26/13 Q1020=
201908300800 METAR LRIA 300800Z 22005KT 140V260 CAVOK 26/12 Q1020=
201908300830 METAR LRIA 300830Z 21005KT 170V270 CAVOK 27/13 Q1020=
201908300900 METAR LRIA 300900Z 24005KT 180V300 CAVOK 28/13 Q1020=
201908300930 METAR LRIA 300930Z VRB03KT CAVOK 28/13 Q1020=
201908301000 METAR LRIA 301000Z 10004KT 030V160 CAVOK 29/12 Q1020=
201908301030 METAR LRIA 301030Z VRB03KT CAVOK 29/13 Q1020=
201908301100 METAR LRIA 301100Z 06005KT 350V110 CAVOK 29/11 Q1020=
201908301130 METAR LRIA 301130Z 17004KT 110V240 CAVOK 30/12 Q1020=
201908301200 METAR LRIA 301200Z 20004KT 160V220 CAVOK 31/11 Q1019=
201908301230 METAR LRIA 301230Z VRB04KT CAVOK 32/11 Q1019=
201908301300 METAR LRIA 301300Z 02005KT 350V060 CAVOK 30/11 Q1019=
201908301330 METAR LRIA 301330Z VRB03KT CAVOK 30/11 Q1019=
201908301400 METAR LRIA 301400Z 17003KT 120V210 CAVOK 31/11 Q1019=
201908301430 METAR LRIA 301430Z VRB03KT CAVOK 31/10 Q1018=
201908301500 METAR LRIA 301500Z 35003KT 310V040 CAVOK 30/10 Q1018=
201908301530 METAR LRIA 301530Z 01003KT 290V100 CAVOK 30/10 Q1018=
201908301600 METAR LRIA 301600Z 01003KT CAVOK 30/10 Q1018=
201908301630 METAR LRIA 301630Z 35003KT CAVOK 29/11 Q1018=
201908301700 METAR LRIA 301700Z 34004KT 290V360 CAVOK 26/11 Q1019=
201908301730 METAR LRIA 301730Z 34004KT CAVOK 27/11 Q1019=
201908301800 METAR LRIA 301800Z 33004KT CAVOK 25/11 Q1019=
201908301830 METAR LRIA 301830Z 32004KT CAVOK 24/11 Q1019=
201908301900 METAR LRIA 301900Z 26003KT 230V290 CAVOK 21/13 Q1019=
201908301930 METAR LRIA 301930Z VRB01KT CAVOK 21/13 Q1019=
201908302000 METAR LRIA 302000Z 27004KT CAVOK 23/11 Q1019=
201908302030 METAR LRIA 302030Z 13003KT 090V170 CAVOK 21/11 Q1019=
201908302100 METAR LRIA 302100Z 10003KT CAVOK 21/12 Q1019=
201908302130 METAR LRIA 302130Z 08007KT CAVOK 21/11 Q1020=
201908302200 METAR LRIA 302200Z 10006KT CAVOK 21/11 Q1020=
201908302230 METAR LRIA 302230Z 09007KT CAVOK 20/11 Q1020=
201908302300 METAR LRIA 302300Z 09006KT CAVOK 19/11 Q1020=
201908302330 METAR LRIA 302330Z 09007KT CAVOK 19/11 Q1020=
201908310000 METAR LRIA 310000Z 10005KT CAVOK 18/11 Q1020=
201908310030 METAR LRIA 310030Z 09005KT CAVOK 18/11 Q1020=
201908310100 METAR LRIA 310100Z 08005KT CAVOK 18/10 Q1020=
201908310130 METAR LRIA 310130Z 06003KT CAVOK 17/10 Q1020=
201908310200 METAR LRIA 310200Z 03002KT CAVOK 17/11 Q1020=
201908310230 METAR LRIA 310230Z 00000KT CAVOK 16/11 Q1020=
201908310300 METAR LRIA 310300Z 32002KT CAVOK 15/11 Q1020=
201908310330 METAR LRIA 310330Z 00000KT CAVOK 16/11 Q1020=
201908310400 METAR LRIA 310400Z 00000KT CAVOK 16/12 Q1020=
201908310430 METAR LRIA 310430Z VRB01KT CAVOK 17/12 Q1021=
201908310500 METAR LRIA 310500Z 00000KT CAVOK 18/13 Q1021=
201908310530 METAR LRIA 310530Z 22002KT CAVOK 19/13 Q1021=
201908310600 METAR LRIA 310600Z 24004KT 200V270 CAVOK 20/12 Q1021=
201908310630 METAR LRIA 310630Z 24004KT 200V270 CAVOK 21/12 Q1021=
201908310700 METAR LRIA 310700Z 23003KT 200V270 CAVOK 22/12 Q1021=
201908310730 METAR LRIA 310730Z VRB03KT CAVOK 24/13 Q1021=
201908310800 METAR LRIA 310800Z 24004KT 190V280 CAVOK 25/12 Q1021=
201908310830 METAR LRIA 310830Z VRB02KT CAVOK 26/12 Q1021=
201908310900 METAR LRIA 310900Z VRB02KT CAVOK 28/12 Q1021=
201908310930 METAR LRIA 310930Z VRB03KT CAVOK 29/11 Q1020=
201908311000 METAR LRIA 311000Z VRB03KT CAVOK 29/10 Q1020=
201908311030 METAR LRIA 311030Z VRB03KT CAVOK 30/07 Q1020=
201908311100 METAR LRIA 311100Z 01005KT 250V040 CAVOK 30/08 Q1020=
201908311130 METAR LRIA 311130Z 07006KT 040V110 CAVOK 30/08 Q1019=
201908311200 METAR LRIA 311200Z VRB04KT CAVOK 30/09 Q1019=
201908311230 METAR LRIA 311230Z 04005KT 010V070 CAVOK 30/08 Q1019=
201908311300 METAR LRIA 311300Z 12004KT 080V140 CAVOK 31/08 Q1018=
201908311330 METAR LRIA 311330Z VRB03KT CAVOK 31/08 Q1018=
201908311400 METAR LRIA 311400Z VRB03KT CAVOK 31/07 Q1018=
201908311430 METAR LRIA 311430Z 08006KT 040V110 CAVOK 31/07 Q1017=
201908311500 METAR LRIA 311500Z 12003KT 040V160 CAVOK 31/07 Q1017=
201908311530 METAR LRIA 311530Z 08004KT 030V100 CAVOK 30/08 Q1017=
201908311600 METAR LRIA 311600Z 09003KT CAVOK 30/09 Q1017=
201908311630 METAR LRIA 311630Z 04002KT CAVOK 29/08 Q1017=
201908311700 METAR LRIA 311700Z 05001KT CAVOK 27/09 Q1017=
201908311730 METAR LRIA 311730Z 00000KT CAVOK 27/08 Q1017=
201908311800 METAR LRIA 311800Z 23002KT CAVOK 26/09 Q1017=
201908311830 METAR LRIA 311830Z 22002KT CAVOK 24/10 Q1017=
201908311900 METAR LRIA 311900Z 23002KT CAVOK 24/11 Q1017=
201908311930 METAR LRIA 311930Z 21002KT CAVOK 23/10 Q1017=
201908312000 METAR LRIA 312000Z 23001KT CAVOK 23/09 Q1017=
201908312030 METAR LRIA 312030Z 32006KT CAVOK 20/11 Q1017=
201908312100 METAR LRIA 312100Z 29003KT CAVOK 21/10 Q1017=
201908312130 METAR LRIA 312130Z 20003KT CAVOK 21/11 Q1017=
201908312200 METAR LRIA 312200Z 26004KT 220V290 CAVOK 20/11 Q1017=
201908312230 METAR LRIA 312230Z 24003KT CAVOK 20/11 Q1017=
201908312300 METAR LRIA 312300Z 25003KT CAVOK 20/11 Q1016=
201908312330 METAR LRIA 312330Z 22002KT CAVOK 20/11 Q1016=
