201909010000 METAR LRIA 010000Z 29002KT CAVOK 19/11 Q1016=
201909010030 METAR LRIA 010030Z 19004KT CAVOK 18/11 Q1016=
201909010100 METAR LRIA 010100Z 23003KT 190V260 CAVOK 17/12 Q1016=
201909010130 METAR LRIA 010130Z 25002KT CAVOK 19/11 Q1016=
201909010200 METAR LRIA 010200Z 24002KT CAVOK 17/12 Q1016=
201909010230 METAR LRIA 010230Z 00000KT CAVOK 17/12 Q1016=
201909010300 METAR LRIA 010300Z 24001KT CAVOK 17/12 Q1016=
201909010330 METAR LRIA 010330Z VRB01KT CAVOK 16/12 Q1016=
201909010400 METAR LRIA 010400Z 25002KT CAVOK 17/12 Q1016=
201909010430 METAR LRIA 010430Z 28002KT CAVOK 17/13 Q1016=
201909010500 METAR LRIA 010500Z VRB01KT CAVOK 19/13 Q1016=
201909010530 METAR LRIA 010530Z 25003KT CAVOK 20/13 Q1016=
201909010600 METAR LRIA 010600Z 24004KT 210V270 CAVOK 21/13 Q1016=
201909010630 METAR LRIA 010630Z 27003KT 230V300 CAVOK 23/14 Q1016=
201909010700 METAR LRIA 010700Z 24003KT 150V310 CAVOK 24/14 Q1016=
201909010730 METAR LRIA 010730Z 23003KT 160V290 CAVOK 25/14 Q1016=
201909010800 METAR LRIA 010800Z 22003KT 120V290 CAVOK 26/15 Q1016=
201909010830 METAR LRIA 010830Z VRB03KT CAVOK 27/15 Q1016=
201909010900 METAR LRIA 010900Z VRB03KT CAVOK 28/15 Q1016=
201909010930 METAR LRIA 010930Z VRB03KT CAVOK 29/15 Q1015=
201909011000 METAR LRIA 011000Z VRB04KT CAVOK 30/14 Q1015=
201909011030 METAR LRIA 011030Z VRB03KT 9999 FEW050TCU 30/14 Q1015=
201909011100 METAR LRIA 011100Z VRB04KT 9999 FEW050TCU 30/13 Q1015=
201909011130 METAR LRIA 011130Z VRB05KT 9999 SCT050TCU 31/12 Q1014=
201909011200 METAR LRIA 011200Z 22006KT 110V270 9999 FEW050TCU 31/11 Q1014=
201909011230 METAR LRIA 011230Z 23003KT 200V260 9999 FEW050TCU 30/11 Q1014=
201909011300 METAR LRIA 011300Z VRB02KT 9999 FEW050TCU 31/12 Q1014=
201909011330 METAR LRIA 011330Z 24005KT 170V310 9999 FEW050TCU 32/11 Q1013=
201909011400 METAR LRIA 011400Z 25004KT 210V290 9999 FEW050TCU 31/11 Q1013=
201909011430 METAR LRIA 011430Z 18005KT 140V200 9999 FEW050CB 31/11 Q1013=
201909011500 METAR LRIA 011500Z 19004KT 160V230 9999 FEW050CB 31/11 Q1013=
201909011530 METAR LRIA 011530Z 21003KT 160V260 9999 FEW050CB 31/11 Q1013
                        RETS=
201909011600 METAR LRIA 011600Z 22003KT 9999 FEW050CB 30/11 Q1013=
201909011630 METAR LRIA 011630Z 21003KT 9999 FEW050CB 29/11 Q1013=
201909011700 METAR LRIA 011700Z 19003KT 9999 FEW050CB 28/11 Q1013=
201909011730 METAR LRIA 011730Z 00000KT 9999 FEW050CB 27/12 Q1013=
201909011800 METAR LRIA 011800Z 28002KT 9999 FEW050CB 27/12 Q1013=
201909011830 METAR LRIA 011830Z 24001KT 9999 FEW050CB 26/12 Q1014=
201909011900 METAR LRIA 011900Z 23001KT 9999 FEW050CB 25/12 Q1014=
201909011930 METAR LRIA 011930Z 10005KT CAVOK 23/12 Q1014=
201909012000 METAR LRIA 012000Z 08005KT CAVOK 24/12 Q1014=
201909012030 METAR LRIA 012030Z 09004KT CAVOK 23/11 Q1014=
201909012100 METAR LRIA 012100Z 08003KT CAVOK 23/11 Q1014=
201909012130 METAR LRIA 012130Z 09006KT CAVOK 23/11 Q1014=
201909012200 METAR LRIA 012200Z 00000KT CAVOK 22/11 Q1014=
201909012230 METAR LRIA 012230Z 21004KT CAVOK 23/11 Q1014=
201909012300 METAR LRIA 012300Z VRB01KT CAVOK 22/11 Q1014=
201909012330 METAR LRIA 012330Z 09005KT 080V150 CAVOK 21/11 Q1014=
201909020000 METAR LRIA 020000Z 08006KT CAVOK 20/11 Q1014=
201909020030 METAR LRIA 020030Z 08005KT CAVOK 19/10 Q1014=
201909020100 METAR LRIA 020100Z 07005KT CAVOK 19/10 Q1014=
201909020130 METAR LRIA 020130Z 07005KT CAVOK 19/10 Q1014=
201909020200 METAR LRIA 020200Z 07004KT CAVOK 19/10 Q1014=
201909020230 METAR LRIA 020230Z 06002KT CAVOK 18/10 Q1014=
201909020300 METAR LRIA 020300Z 06004KT CAVOK 18/10 Q1014=
201909020330 METAR LRIA 020330Z 08003KT CAVOK 18/10 Q1014=
201909020400 METAR LRIA 020400Z 09003KT 060V120 CAVOK 18/10 Q1014=
201909020430 METAR LRIA 020430Z 08004KT CAVOK 19/11 Q1014=
201909020500 METAR LRIA 020500Z 09003KT CAVOK 20/11 Q1014=
201909020530 METAR LRIA 020530Z 07003KT CAVOK 21/11 Q1015=
201909020600 METAR LRIA 020600Z 09003KT CAVOK 22/11 Q1015=
201909020630 METAR LRIA 020630Z 10002KT CAVOK 22/11 Q1015=
201909020700 METAR LRIA 020700Z 13002KT CAVOK 23/11 Q1015=
201909020730 METAR LRIA 020730Z 17003KT 140V210 CAVOK 24/12 Q1015=
201909020800 METAR LRIA 020800Z 21004KT 150V250 CAVOK 26/12 Q1015=
201909020830 METAR LRIA 020830Z 20004KT 150V260 CAVOK 27/11 Q1015=
201909020900 METAR LRIA 020900Z 19005KT 170V230 CAVOK 29/11 Q1015=
201909020930 METAR LRIA 020930Z 20006KT 150V250 CAVOK 30/11 Q1015=
201909021000 METAR LRIA 021000Z 17007KT 130V210 CAVOK 31/12 Q1014=
201909021030 METAR LRIA 021030Z 18006KT 150V210 CAVOK 31/12 Q1014=
201909021100 METAR LRIA 021100Z 22005KT 140V270 CAVOK 31/11 Q1014=
201909021130 METAR LRIA 021130Z 18008KT 130V220 CAVOK 32/11 Q1014=
201909021200 METAR LRIA 021200Z 19006KT 100V270 CAVOK 32/11 Q1013=
201909021230 METAR LRIA 021230Z 24005KT CAVOK 33/11 Q1013=
201909021300 METAR LRIA 021300Z 21006KT 170V250 CAVOK 33/10 Q1013=
201909021330 METAR LRIA 021330Z 22004KT 180V270 CAVOK 33/10 Q1013=
201909021400 METAR LRIA 021400Z 18006KT 140V230 CAVOK 33/11 Q1013=
201909021430 METAR LRIA 021430Z 19005KT 150V240 CAVOK 32/10 Q1013=
201909021500 METAR LRIA 021500Z 22005KT 170V250 9999 FEW050CB 32/11 Q1013=
201909021530 METAR LRIA 021530Z 23004KT 9999 FEW050CB 31/10 Q1013=
201909021600 METAR LRIA 021600Z 24003KT 9999 FEW050CB 31/11 Q1013=
201909021630 METAR LRIA 021630Z 28003KT 9999 FEW050CB 29/11 Q1013=
201909021700 METAR LRIA 021700Z 29003KT 9999 FEW050CB 29/11 Q1013=
201909021730 METAR LRIA 021730Z 31003KT 9999 FEW050CB 27/11 Q1013=
201909021800 METAR LRIA 021800Z 28003KT 9999 FEW050CB 27/11 Q1014=
201909021830 METAR LRIA 021830Z 27003KT 9999 FEW047 26/11 Q1014=
201909021900 METAR LRIA 021900Z 25003KT 9999 FEW047 26/12 Q1014=
201909021930 METAR LRIA 021930Z 23004KT CAVOK 25/12 Q1014=
201909022000 METAR LRIA 022000Z 22003KT CAVOK 23/13 Q1014=
201909022030 METAR LRIA 022030Z 21003KT CAVOK 23/13 Q1014=
201909022100 METAR LRIA 022100Z 21004KT CAVOK 23/12 Q1014=
201909022130 METAR LRIA 022130Z 22005KT CAVOK 23/12 Q1014=
201909022200 METAR LRIA 022200Z 25004KT CAVOK 23/12 Q1014=
201909022230 METAR LRIA 022230Z 27005KT CAVOK 23/12 Q1014=
201909022300 METAR LRIA 022300Z 28005KT CAVOK 22/12 Q1015=
201909022330 METAR LRIA 022330Z 26003KT CAVOK 22/12 Q1015=
201909030000 METAR LRIA 030000Z 25004KT CAVOK 21/12 Q1014=
201909030030 METAR LRIA 030030Z 23004KT CAVOK 20/13 Q1014=
201909030100 METAR LRIA 030100Z 27004KT CAVOK 19/13 Q1014=
201909030130 METAR LRIA 030130Z 21003KT CAVOK 19/12 Q1015=
201909030200 METAR LRIA 030200Z 22003KT 190V250 CAVOK 19/13 Q1015=
201909030230 METAR LRIA 030230Z 22003KT CAVOK 19/13 Q1015=
201909030300 METAR LRIA 030300Z 24003KT CAVOK 19/13 Q1015=
201909030330 METAR LRIA 030330Z 25003KT CAVOK 18/13 Q1015=
201909030400 METAR LRIA 030400Z 27003KT CAVOK 19/13 Q1015=
201909030430 METAR LRIA 030430Z 28003KT CAVOK 19/13 Q1015=
201909030500 METAR LRIA 030500Z 27002KT CAVOK 20/13 Q1015=
201909030530 METAR LRIA 030530Z 22002KT CAVOK 20/14 Q1015=
201909030600 METAR LRIA 030600Z 24003KT CAVOK 21/14 Q1016=
201909030630 METAR LRIA 030630Z 29004KT 230V350 CAVOK 23/14 Q1016=
201909030700 METAR LRIA 030700Z 29006KT 260V320 CAVOK 24/14 Q1016=
201909030730 METAR LRIA 030730Z 30007KT 260V330 CAVOK 25/15 Q1016=
201909030800 METAR LRIA 030800Z 29007KT 250V320 CAVOK 25/15 Q1016=
201909030830 METAR LRIA 030830Z 29007KT 250V320 CAVOK 26/15 Q1016=
201909030900 METAR LRIA 030900Z 32008KT 290V360 9999 FEW055CB 28/15 Q1016=
201909030930 METAR LRIA 030930Z 36008KT 280V020 9999 FEW055CB 28/15 Q1016=
201909031000 METAR LRIA 031000Z 32005KT 260V010 9999 FEW050CB 29/15 Q1016=
201909031030 METAR LRIA 031030Z 28004KT 230V320 9999 FEW050CB 28/16 Q1016=
201909031100 METAR LRIA 031100Z 25004KT 220V290 9999 FEW050CB 28/16 Q1015=
201909031130 METAR LRIA 031130Z 19006KT 130V230 9999 FEW050CB 31/15 Q1015=
201909031200 METAR LRIA 031200Z 21006KT 150V260 9999 FEW053CB 31/15 Q1015=
201909031230 METAR LRIA 031230Z 32004KT 290V010 9999 VCTS FEW053CB 30/15
                        Q1015=
201909031300 METAR LRIA 031300Z 02005KT 350V060 9999 FEW051CB 29/15 Q1014=
201909031330 METAR LRIA 031330Z 06006KT 010V090 9999 FEW051CB 29/14 Q1014=
201909031400 METAR LRIA 031400Z 04004KT 360V070 9999 FEW050CB 29/14 Q1014=
201909031430 METAR LRIA 031430Z 27018G30KT 240V300 9999 SCT043 24/14 Q1015=
201909031500 METAR LRIA 031500Z 29019KT 9999 TSRA BKN053CB 19/14 Q1016
                        R14/29//95=
201909031530 METAR LRIA 031530Z 32011KT 9999 -SHRA VCTS SCT052CB 21/13
                        Q1016 R14/29//95=
201909031600 METAR LRIA 031600Z 33020KT 9999 TSRA SCT050CB 20/16 Q1016
                        R14/29//95=
201909031630 METAR LRIA 031630Z 33013KT 290V350 9999 -SHRA SCT033CB 20/14
                        Q1015 RETS R14/29//95=
201909031700 METAR LRIA 031700Z 20008KT 170V300 9999 -SHRA SCT035CB 18/15
                        Q1016 R14/29//95=
201909031730 METAR LRIA 031730Z 29006KT 9999 FEW040CB 19/14 Q1016 R14/29//95=
201909031800 METAR LRIA 031800Z 30009KT 9999 FEW047 19/14 Q1017 R14/29//95=
201909031830 METAR LRIA 031830Z 31013KT 9999 FEW048 18/14 Q1017 R14/29//95=
201909031900 METAR LRIA 031900Z 31013KT CAVOK 18/14 Q1017 R14/29//95=
201909031930 METAR LRIA 031930Z 30011KT CAVOK 18/14 Q1017 R14/19//95=
201909032000 METAR LRIA 032000Z 30012KT CAVOK 17/13 Q1017 R14/19//95=
201909032030 METAR LRIA 032030Z 30010KT CAVOK 17/13 Q1018 R14/19//95=
201909032100 METAR LRIA 032100Z 28009KT CAVOK 17/13 Q1018 R14/19//95=
201909032130 METAR LRIA 032130Z 28008KT 9999 FEW045CB 16/13 Q1018 R14/19//95=
201909032200 METAR LRIA 032200Z 29009KT 9999 FEW040CB 16/13 Q1018 R14/19//95=
201909032230 METAR COR LRIA 032230Z 28013KT 9999 TS SCT020 FEW030CB 16/13
                        Q1019 R14/19//95=
201909032300 METAR LRIA 032300Z 31013KT 9999 -TSRA SCT017 SCT040CB 16/13
                        Q1018 R14/19//95=
201909032330 METAR LRIA 032330Z 32012KT 9999 -TSRA FEW017 SCT040CB 15/13
                        Q1018 R14/19//95=
201909040000 METAR LRIA 040000Z 25004KT 230V290 9999 -RA BKN010 15/13
                        Q1019 RETS R14/19//95=
201909040030 METAR LRIA 040030Z 29005KT 270V330 9999 SCT012 SCT047 15/13
                        Q1019 R14/19//95=
201909040100 METAR LRIA 040100Z 29008KT 9999 BKN013 15/13 Q1019 R14/19//95=
201909040130 METAR LRIA 040130Z 30009KT 9999 -RA BKN013 15/13 Q1019 R14/19//95=
201909040200 METAR LRIA 040200Z 30009KT 9999 -RA BKN013 15/13 Q1019 R14/19//95=
201909040230 METAR COR LRIA 040230Z 32011KT 9999 -RA BKN015 15/12 Q1019
                        R14/29//95=
201909040300 METAR LRIA 040300Z 33010KT 9999 -RA SCT015 BKN040 15/13 Q1019
                        R14/29//95=
201909040330 METAR LRIA 040330Z 32008KT 9999 -RA BKN007 BKN033 14/13 Q1019
                        R14/29//95=
201909040400 METAR LRIA 040400Z 33009KT 9999 -RA FEW003 BKN009 14/13 Q1019
                        R14/29//95=
201909040430 METAR LRIA 040430Z 31009KT 9999 -RA BKN008 OVC040 14/13 Q1019
                        R14/29//95=
201909040500 METAR LRIA 040500Z 32010KT 9999 -RA OVC009 14/13 Q1020 R14/29//95=
201909040530 METAR LRIA 040530Z 33010KT 300V360 9999 -RA BKN009 OVC040
                        14/12 Q1020 R14/29//95=
201909040600 METAR LRIA 040600Z 32008KT 9999 -RA BKN009 OVC040 14/12 Q1020
                        R14/29//95=
201909040630 METAR LRIA 040630Z 32008KT 9999 BKN010 OVC040 11/09 Q1020
                        R14/29//95=
201909040700 METAR LRIA 040700Z 31008KT 9999 FEW009 BKN012 BKN045 10/08
                        Q1020 R14/29//95=
201909040730 METAR LRIA 040730Z 31009KT 9999 FEW009 SCT013 11/08 Q1020
                        R14/29//95=
201909040800 METAR LRIA 040800Z 32011KT 9999 SCT014 13/08 Q1020 R14/29//95=
201909040830 METAR COR LRIA 040830Z 35011KT 320V020 9999 SCT018 14/08
                        Q1020 R14/19//95=
201909040900 METAR LRIA 040900Z 33010KT 9999 SCT022 14/07 Q1020 R14/19//95=
201909040930 METAR LRIA 040930Z 34010KT 9999 SCT027 17/09 Q1020 R14/19//95=
201909041000 METAR LRIA 041000Z 34010KT 310V010 9999 SCT032 17/08 Q1020
                        R14/CLRD//=
201909041030 METAR LRIA 041030Z 34010KT 9999 SCT032 19/09 Q1020=
201909041100 METAR LRIA 041100Z 36011KT 9999 SCT034 19/09 Q1019=
201909041130 METAR LRIA 041130Z 34009KT 290V010 9999 FEW036 19/17 Q1019=
201909041200 METAR COR LRIA 041200Z 32010KT 9999 SCT037 19/15 Q1019=
201909041230 METAR LRIA 041230Z 33012KT 9999 SCT040 19/12 Q1019=
201909041300 METAR LRIA 041300Z 34012KT 310V010 9999 BKN045 20/11 Q1019=
201909041330 METAR LRIA 041330Z 32012KT 9999 SCT048 20/11 Q1019=
201909041400 METAR LRIA 041400Z 31008KT 9999 FEW048 20/12 Q1018=
201909041430 METAR LRIA 041430Z 32008KT 300V360 CAVOK 21/12 Q1018=
201909041500 METAR LRIA 041500Z 32008KT 9999 FEW042 21/11 Q1018=
201909041530 METAR LRIA 041530Z 32007KT CAVOK 21/11 Q1018=
201909041600 METAR LRIA 041600Z 32006KT CAVOK 20/11 Q1018=
201909041630 METAR LRIA 041630Z 30004KT CAVOK 19/12 Q1018=
201909041700 METAR LRIA 041700Z 29005KT CAVOK 18/11 Q1018=
201909041730 METAR LRIA 041730Z 29004KT CAVOK 18/11 Q1018=
201909041800 METAR LRIA 041800Z 31004KT CAVOK 17/12 Q1018=
201909041830 METAR LRIA 041830Z 31005KT CAVOK 17/12 Q1018=
201909041900 METAR LRIA 041900Z 28004KT CAVOK 16/12 Q1018=
201909041930 METAR LRIA 041930Z 30005KT CAVOK 16/12 Q1018=
201909042000 METAR LRIA 042000Z 27004KT CAVOK 15/12 Q1018=
201909042030 METAR LRIA 042030Z 27005KT CAVOK 15/12 Q1018=
201909042100 METAR LRIA 042100Z 27006KT CAVOK 15/12 Q1018=
201909042130 METAR LRIA 042130Z 27005KT CAVOK 14/12 Q1018=
201909042200 METAR LRIA 042200Z 27003KT CAVOK 14/12 Q1018=
201909042230 METAR LRIA 042230Z 24002KT CAVOK 14/12 Q1018=
201909042300 METAR LRIA 042300Z VRB01KT CAVOK 13/12 Q1018=
201909042330 METAR LRIA 042330Z 26003KT CAVOK 13/12 Q1018=
201909050000 METAR LRIA 050000Z 25003KT CAVOK 12/11 Q1018=
201909050030 METAR LRIA 050030Z 25003KT CAVOK 12/12 Q1018=
201909050100 METAR LRIA 050100Z 26003KT CAVOK 12/12 Q1018=
201909050130 METAR LRIA 050130Z 26003KT CAVOK 12/12 Q1018=
201909050200 METAR LRIA 050200Z 27003KT CAVOK 12/12 Q1018=
201909050230 METAR LRIA 050230Z 27004KT CAVOK 12/11 Q1017=
201909050300 METAR LRIA 050300Z 27003KT CAVOK 11/11 Q1017=
201909050330 METAR LRIA 050330Z 26003KT CAVOK 11/10 Q1017=
201909050400 METAR LRIA 050400Z 26002KT CAVOK 11/10 Q1017=
201909050430 METAR LRIA 050430Z 26002KT CAVOK 11/11 Q1017=
201909050500 METAR LRIA 050500Z 26003KT CAVOK 12/12 Q1017=
201909050530 METAR LRIA 050530Z 26003KT CAVOK 13/12 Q1017=
201909050600 METAR LRIA 050600Z 25003KT 210V280 CAVOK 14/12 Q1017=
201909050630 METAR LRIA 050630Z 28004KT 240V310 CAVOK 16/12 Q1018=
201909050700 METAR LRIA 050700Z 30004KT 260V330 CAVOK 17/12 Q1018=
201909050730 METAR LRIA 050730Z 29003KT 210V010 CAVOK 18/12 Q1017=
201909050800 METAR LRIA 050800Z VRB03KT CAVOK 19/11 Q1017=
201909050830 METAR LRIA 050830Z 31004KT 200V360 9999 FEW037 20/09 Q1017=
201909050900 METAR LRIA 050900Z 29005KT 230V340 9999 FEW042 21/10 Q1017=
201909050930 METAR LRIA 050930Z 32006KT 290V030 9999 FEW045 21/08 Q1017=
201909051000 METAR LRIA 051000Z VRB05KT 9999 FEW047 22/08 Q1016=
201909051030 METAR LRIA 051030Z VRB05KT CAVOK 22/07 Q1016=
201909051100 METAR LRIA 051100Z 28005KT 180V320 CAVOK 23/07 Q1016=
201909051130 METAR LRIA 051130Z 25008KT 230V290 CAVOK 23/06 Q1016=
201909051200 METAR LRIA 051200Z 26006KT 200V320 CAVOK 24/06 Q1015=
201909051230 METAR LRIA 051230Z 03005KT 350V060 CAVOK 24/07 Q1015=
201909051300 METAR LRIA 051300Z VRB03KT CAVOK 24/07 Q1015=
201909051330 METAR LRIA 051330Z VRB03KT CAVOK 24/06 Q1015=
201909051400 METAR LRIA 051400Z 24003KT 190V310 CAVOK 24/07 Q1015=
201909051430 METAR LRIA 051430Z 35004KT 300V030 CAVOK 24/07 Q1015=
201909051500 METAR LRIA 051500Z 36004KT 300V070 CAVOK 23/07 Q1015=
201909051530 METAR LRIA 051530Z 02004KT 350V050 CAVOK 23/08 Q1015=
201909051600 METAR LRIA 051600Z 35004KT CAVOK 23/07 Q1015=
201909051630 METAR LRIA 051630Z 33004KT CAVOK 21/10 Q1015=
201909051700 METAR LRIA 051700Z 33005KT CAVOK 20/10 Q1015=
201909051730 METAR LRIA 051730Z 35006KT CAVOK 20/10 Q1015=
201909051800 METAR LRIA 051800Z 34006KT CAVOK 17/11 Q1015=
201909051830 METAR LRIA 051830Z 32003KT CAVOK 17/10 Q1016=
201909051900 METAR LRIA 051900Z 25003KT CAVOK 16/11 Q1016=
201909051930 METAR LRIA 051930Z 26003KT CAVOK 17/09 Q1016=
201909052000 METAR LRIA 052000Z 25003KT CAVOK 16/10 Q1016=
201909052030 METAR LRIA 052030Z 00000KT CAVOK 16/10 Q1016=
201909052100 METAR LRIA 052100Z AUTO 27002KT 9999 NCD 16/11 Q1016=
201909052130 METAR LRIA 052130Z 28003KT CAVOK 15/10 Q1016=
201909052200 METAR LRIA 052200Z 27003KT CAVOK 13/11 Q1016=
201909052230 METAR LRIA 052230Z 27002KT CAVOK 14/11 Q1016=
201909052300 METAR LRIA 052300Z VRB01KT CAVOK 12/10 Q1016=
201909052330 METAR LRIA 052330Z VRB02KT CAVOK 12/10 Q1016=
201909060000 METAR LRIA 060000Z 27004KT CAVOK 12/10 Q1016=
201909060030 METAR LRIA 060030Z 25003KT CAVOK 12/11 Q1017=
201909060100 METAR LRIA 060100Z VRB01KT CAVOK 12/11 Q1017=
201909060130 METAR LRIA 060130Z 28002KT CAVOK 12/11 Q1017=
201909060200 METAR LRIA 060200Z VRB02KT CAVOK 12/11 Q1017=
201909060230 METAR LRIA 060230Z 27003KT CAVOK 11/10 Q1017=
201909060300 METAR LRIA 060300Z 26002KT CAVOK 10/10 Q1017=
201909060330 METAR LRIA 060330Z 25002KT CAVOK 10/10 Q1018=
201909060400 METAR LRIA 060400Z 29001KT CAVOK 11/10 Q1018=
201909060430 METAR LRIA 060430Z 25002KT CAVOK 10/10 Q1018=
201909060500 METAR LRIA 060500Z 25002KT CAVOK 12/11 Q1018=
201909060530 METAR LRIA 060530Z 24003KT CAVOK 13/12 Q1018=
201909060600 METAR LRIA 060600Z 23003KT 200V260 CAVOK 14/12 Q1019=
201909060630 METAR LRIA 060630Z 25003KT 220V280 CAVOK 15/11 Q1019=
201909060700 METAR LRIA 060700Z 25004KT 200V290 CAVOK 17/11 Q1019=
201909060730 METAR LRIA 060730Z 26003KT 220V310 CAVOK 19/12 Q1019=
201909060800 METAR LRIA 060800Z 31004KT 280V060 CAVOK 21/11 Q1019=
201909060830 METAR LRIA 060830Z 34005KT 300V030 CAVOK 21/10 Q1019=
201909060900 METAR LRIA 060900Z 02005KT 350V060 CAVOK 23/09 Q1019=
201909060930 METAR LRIA 060930Z 33007KT 300V020 CAVOK 23/10 Q1019=
201909061000 METAR LRIA 061000Z 36007KT 330V030 CAVOK 24/09 Q1019=
201909061030 METAR LRIA 061030Z 30008KT CAVOK 24/08 Q1019=
201909061100 METAR LRIA 061100Z 35009KT 320V020 CAVOK 24/07 Q1019=
201909061130 METAR LRIA 061130Z 03006KT 340V070 CAVOK 24/08 Q1019=
201909061200 METAR LRIA 061200Z 01006KT 320V110 CAVOK 25/08 Q1019=
201909061230 METAR LRIA 061230Z 35010KT CAVOK 25/07 Q1019=
201909061300 METAR LRIA 061300Z 02007KT CAVOK 25/08 Q1019=
201909061330 METAR LRIA 061330Z 36007KT 330V030 CAVOK 24/09 Q1019=
201909061400 METAR LRIA 061400Z 02006KT 280V070 CAVOK 25/08 Q1019=
201909061430 METAR LRIA 061430Z 31006KT 260V030 CAVOK 25/08 Q1019=
201909061500 METAR LRIA 061500Z 03005KT 340V060 CAVOK 25/07 Q1019=
201909061530 METAR LRIA 061530Z 32005KT CAVOK 24/09 Q1019=
201909061600 METAR LRIA 061600Z 36005KT 320V020 CAVOK 24/09 Q1019=
201909061630 METAR LRIA 061630Z 36006KT CAVOK 22/10 Q1019=
201909061700 METAR LRIA 061700Z 36005KT CAVOK 20/11 Q1019=
201909061730 METAR LRIA 061730Z 01004KT CAVOK 20/11 Q1019=
201909061800 METAR LRIA 061800Z 32003KT CAVOK 21/09 Q1019=
201909061830 METAR LRIA 061830Z 31005KT CAVOK 18/11 Q1019=
201909061900 METAR LRIA 061900Z 24003KT 170V260 CAVOK 16/11 Q1019=
201909061930 METAR LRIA 061930Z 25004KT CAVOK 17/11 Q1020=
201909062000 METAR LRIA 062000Z 21002KT CAVOK 17/10 Q1020=
201909062030 METAR LRIA 062030Z 25002KT CAVOK 17/11 Q1020=
201909062100 METAR LRIA 062100Z VRB02KT CAVOK 17/11 Q1020=
201909062130 METAR LRIA 062130Z 24002KT CAVOK 16/11 Q1020=
201909062200 METAR LRIA 062200Z 25004KT CAVOK 15/11 Q1020=
201909062230 METAR LRIA 062230Z 25004KT CAVOK 16/11 Q1020=
201909062300 METAR LRIA 062300Z 22002KT CAVOK 15/11 Q1020=
201909062330 METAR LRIA 062330Z 24002KT CAVOK 14/11 Q1020=
201909070000 METAR LRIA 070000Z 27003KT CAVOK 15/11 Q1020=
201909070030 METAR LRIA 070030Z 26003KT CAVOK 13/11 Q1020=
201909070100 METAR LRIA 070100Z 27004KT CAVOK 14/11 Q1020=
201909070130 METAR LRIA 070130Z 25003KT CAVOK 13/11 Q1020=
201909070200 METAR LRIA 070200Z 24003KT CAVOK 12/11 Q1020=
201909070230 METAR LRIA 070230Z 26003KT CAVOK 13/11 Q1020=
201909070300 METAR LRIA 070300Z 27003KT CAVOK 13/11 Q1020=
201909070330 METAR LRIA 070330Z 26003KT CAVOK 12/11 Q1020=
201909070400 METAR LRIA 070400Z 27002KT CAVOK 12/11 Q1020=
201909070430 METAR LRIA 070430Z 26003KT CAVOK 12/11 Q1020=
201909070500 METAR LRIA 070500Z 25003KT CAVOK 14/12 Q1020=
201909070530 METAR LRIA 070530Z 25003KT CAVOK 15/12 Q1020=
201909070600 METAR LRIA 070600Z 26003KT 230V290 CAVOK 16/12 Q1021=
201909070630 METAR LRIA 070630Z 28003KT 230V310 CAVOK 17/12 Q1021=
201909070700 METAR LRIA 070700Z 25003KT 200V300 CAVOK 19/12 Q1021=
201909070730 METAR LRIA 070730Z VRB02KT CAVOK 20/12 Q1021=
201909070800 METAR LRIA 070800Z 26003KT 170V320 CAVOK 22/12 Q1021=
201909070830 METAR LRIA 070830Z 22004KT 170V330 CAVOK 23/13 Q1020=
201909070900 METAR LRIA 070900Z VRB02KT CAVOK 24/13 Q1021=
201909070930 METAR LRIA 070930Z VRB02KT CAVOK 25/12 Q1021=
201909071000 METAR LRIA 071000Z VRB02KT CAVOK 26/12 Q1020=
201909071030 METAR LRIA 071030Z 09004KT 040V130 CAVOK 26/11 Q1020=
201909071100 METAR LRIA 071100Z 20003KT CAVOK 27/11 Q1020=
201909071130 METAR LRIA 071130Z VRB03KT CAVOK 27/11 Q1019=
201909071200 METAR LRIA 071200Z VRB04KT CAVOK 27/10 Q1019=
201909071230 METAR LRIA 071230Z 06006KT 040V110 CAVOK 27/10 Q1019=
201909071300 METAR LRIA 071300Z 18003KT 130V240 CAVOK 28/10 Q1019=
201909071330 METAR LRIA 071330Z 22004KT 190V260 CAVOK 28/10 Q1019=
201909071400 METAR LRIA 071400Z 26003KT 210V290 CAVOK 28/11 Q1019=
201909071430 METAR LRIA 071430Z VRB02KT CAVOK 28/10 Q1019=
201909071500 METAR LRIA 071500Z VRB01KT CAVOK 28/11 Q1019=
201909071530 METAR LRIA 071530Z VRB02KT CAVOK 27/12 Q1018=
201909071600 METAR LRIA 071600Z 32003KT CAVOK 26/11 Q1018=
201909071630 METAR LRIA 071630Z 34004KT CAVOK 25/11 Q1019=
201909071700 METAR LRIA 071700Z 34004KT 320V020 CAVOK 25/11 Q1019=
201909071730 METAR LRIA 071730Z 34006KT CAVOK 22/13 Q1019=
201909071800 METAR LRIA 071800Z 34006KT CAVOK 21/13 Q1019=
201909071830 METAR LRIA 071830Z 30004KT CAVOK 21/13 Q1019=
201909071900 METAR LRIA 071900Z VRB02KT CAVOK 19/14 Q1019=
201909071930 METAR LRIA 071930Z VRB01KT CAVOK 18/14 Q1019=
201909072000 METAR LRIA 072000Z 25002KT CAVOK 20/13 Q1019=
201909072030 METAR LRIA 072030Z 22002KT CAVOK 20/13 Q1019=
201909072100 METAR LRIA 072100Z 19003KT CAVOK 19/14 Q1019=
201909072130 METAR LRIA 072130Z 00000KT CAVOK 19/14 Q1019=
201909072200 METAR LRIA 072200Z 15003KT CAVOK 19/13 Q1019=
201909072230 METAR LRIA 072230Z 11003KT CAVOK 20/13 Q1019=
201909072300 METAR LRIA 072300Z 09004KT CAVOK 19/13 Q1019=
201909072330 METAR LRIA 072330Z 11001KT CAVOK 20/12 Q1019=
201909080000 METAR LRIA 080000Z 09005KT CAVOK 18/12 Q1019=
201909080030 METAR LRIA 080030Z 07005KT CAVOK 18/12 Q1019=
201909080100 METAR LRIA 080100Z 08007KT CAVOK 18/12 Q1019=
201909080130 METAR LRIA 080130Z 08006KT CAVOK 17/12 Q1019=
201909080200 METAR LRIA 080200Z 08005KT CAVOK 17/11 Q1020=
201909080230 METAR LRIA 080230Z 08006KT CAVOK 17/11 Q1020=
201909080300 METAR LRIA 080300Z 08006KT CAVOK 17/11 Q1020=
201909080330 METAR LRIA 080330Z 08006KT CAVOK 16/11 Q1020=
201909080400 METAR LRIA 080400Z 07005KT CAVOK 17/11 Q1020=
201909080430 METAR LRIA 080430Z 08006KT CAVOK 17/11 Q1021=
201909080500 METAR LRIA 080500Z 08005KT CAVOK 18/12 Q1021=
201909080530 METAR LRIA 080530Z 09004KT CAVOK 19/12 Q1021=
201909080600 METAR LRIA 080600Z 11004KT CAVOK 21/12 Q1021=
201909080630 METAR LRIA 080630Z 11005KT CAVOK 22/12 Q1021=
201909080700 METAR LRIA 080700Z 11006KT CAVOK 23/12 Q1021=
201909080730 METAR LRIA 080730Z 11007KT CAVOK 25/11 Q1021=
201909080800 METAR LRIA 080800Z 11008KT CAVOK 25/11 Q1021=
201909080830 METAR LRIA 080830Z 12010KT CAVOK 26/12 Q1021=
201909080900 METAR LRIA 080900Z 12009KT 100V170 CAVOK 27/11 Q1021=
201909080930 METAR LRIA 080930Z 14009KT 120V180 CAVOK 28/11 Q1021=
201909081000 METAR LRIA 081000Z 14011KT CAVOK 28/09 Q1021=
201909081030 METAR LRIA 081030Z 12009KT 090V150 CAVOK 28/10 Q1021=
201909081100 METAR LRIA 081100Z 12010KT CAVOK 29/10 Q1021=
201909081130 METAR LRIA 081130Z 12009KT CAVOK 29/09 Q1021=
201909081200 METAR LRIA 081200Z 13009KT 100V160 CAVOK 29/09 Q1021=
201909081230 METAR LRIA 081230Z 14008KT 110V170 CAVOK 28/08 Q1020=
201909081300 METAR LRIA 081300Z 14008KT 110V170 CAVOK 28/08 Q1020=
201909081330 METAR LRIA 081330Z 12011KT CAVOK 28/08 Q1020=
201909081400 METAR LRIA 081400Z 13010KT CAVOK 29/07 Q1020=
201909081430 METAR LRIA 081430Z 13010KT CAVOK 28/07 Q1020=
201909081500 METAR LRIA 081500Z 14008KT CAVOK 28/07 Q1020=
201909081530 METAR LRIA 081530Z 13007KT CAVOK 27/08 Q1020=
201909081600 METAR LRIA 081600Z 13005KT CAVOK 26/08 Q1020=
201909081630 METAR LRIA 081630Z 10006KT CAVOK 25/09 Q1021=
201909081700 METAR LRIA 081700Z 11007KT CAVOK 24/09 Q1021=
201909081730 METAR LRIA 081730Z 10007KT CAVOK 23/09 Q1021=
201909081800 METAR LRIA 081800Z 10007KT CAVOK 22/09 Q1021=
201909081830 METAR LRIA 081830Z 10007KT CAVOK 22/08 Q1022=
201909081900 METAR LRIA 081900Z 11006KT CAVOK 22/06 Q1022=
201909081930 METAR LRIA 081930Z 12007KT CAVOK 22/06 Q1022=
201909082000 METAR LRIA 082000Z 16003KT 120V200 CAVOK 22/06 Q1022=
201909082030 METAR LRIA 082030Z 17008KT CAVOK 21/07 Q1022=
201909082100 METAR LRIA 082100Z 17007KT 140V220 CAVOK 22/06 Q1022=
201909082130 METAR LRIA 082130Z 18005KT 150V210 CAVOK 21/06 Q1022=
201909082200 METAR LRIA 082200Z VRB02KT CAVOK 20/07 Q1022=
201909082230 METAR LRIA 082230Z 08004KT CAVOK 18/07 Q1022=
201909082300 METAR LRIA 082300Z 08005KT CAVOK 17/08 Q1022=
201909082330 METAR LRIA 082330Z 08006KT CAVOK 17/07 Q1022=
201909090000 METAR LRIA 090000Z 08007KT CAVOK 17/07 Q1022=
201909090030 METAR LRIA 090030Z 08007KT CAVOK 16/07 Q1022=
201909090100 METAR LRIA 090100Z 08006KT CAVOK 16/07 Q1022=
201909090130 METAR LRIA 090130Z 08006KT CAVOK 16/07 Q1021=
201909090200 METAR LRIA 090200Z 08006KT CAVOK 15/07 Q1021=
201909090230 METAR LRIA 090230Z 09006KT CAVOK 15/07 Q1021=
201909090300 METAR LRIA 090300Z 08006KT CAVOK 16/06 Q1021=
201909090330 METAR LRIA 090330Z 09008KT CAVOK 16/06 Q1021=
201909090400 METAR LRIA 090400Z 08007KT CAVOK 16/06 Q1021=
201909090430 METAR LRIA 090430Z 07007KT CAVOK 17/06 Q1021=
201909090500 METAR LRIA 090500Z 08007KT CAVOK 17/06 Q1021=
201909090530 METAR LRIA 090530Z 07006KT CAVOK 18/07 Q1021=
201909090600 METAR LRIA 090600Z 09006KT CAVOK 19/07 Q1021=
201909090630 METAR LRIA 090630Z 11008KT CAVOK 21/07 Q1021=
201909090700 METAR LRIA 090700Z 11008KT CAVOK 22/08 Q1021=
201909090730 METAR LRIA 090730Z 12010KT CAVOK 24/07 Q1021=
201909090800 METAR LRIA 090800Z 12012KT CAVOK 25/06 Q1021=
201909090830 METAR LRIA 090830Z 13013KT CAVOK 26/05 Q1021=
201909090900 METAR LRIA 090900Z 12013KT 100V160 CAVOK 26/05 Q1020=
201909090930 METAR LRIA 090930Z 12014KT CAVOK 27/03 Q1020=
201909091000 METAR LRIA 091000Z 12013KT CAVOK 27/03 Q1020=
201909091030 METAR LRIA 091030Z 13013KT 090V150 CAVOK 27/02 Q1020=
201909091100 METAR LRIA 091100Z 13013KT 080V190 CAVOK 28/03 Q1019=
201909091130 METAR LRIA 091130Z 15015KT CAVOK 28/01 Q1019=
201909091200 METAR LRIA 091200Z 11015KT 090V150 CAVOK 28/02 Q1018=
201909091230 METAR LRIA 091230Z 13017KT CAVOK 28/02 Q1018=
201909091300 METAR LRIA 091300Z 16013KT CAVOK 28/00 Q1018=
201909091330 METAR LRIA 091330Z 12014KT CAVOK 28/01 Q1018=
201909091400 METAR LRIA 091400Z 12014KT CAVOK 27/02 Q1018=
201909091430 METAR LRIA 091430Z 13014KT CAVOK 27/03 Q1017=
201909091500 METAR LRIA 091500Z 13014KT CAVOK 26/02 Q1017=
201909091530 METAR LRIA 091530Z 13013KT CAVOK 25/02 Q1017=
201909091600 METAR LRIA 091600Z 12012KT CAVOK 25/02 Q1017=
201909091630 METAR LRIA 091630Z 13010KT CAVOK 24/02 Q1018=
201909091700 METAR LRIA 091700Z 13007KT CAVOK 22/03 Q1018=
201909091730 METAR LRIA 091730Z 11006KT CAVOK 21/03 Q1018=
201909091800 METAR LRIA 091800Z 13007KT CAVOK 21/03 Q1018=
201909091830 METAR LRIA 091830Z 12006KT CAVOK 20/03 Q1018=
201909091900 METAR LRIA 091900Z 13007KT CAVOK 20/04 Q1019=
201909091930 METAR LRIA 091930Z 14008KT CAVOK 20/04 Q1018=
201909092000 METAR LRIA 092000Z 11008KT CAVOK 19/05 Q1019=
201909092030 METAR LRIA 092030Z 12004KT CAVOK 19/05 Q1019=
201909092100 METAR LRIA 092100Z 16006KT CAVOK 19/05 Q1019=
201909092130 METAR LRIA 092130Z AUTO 13005KT 9999 NCD 18/06 Q1019=
201909092200 METAR LRIA 092200Z 09005KT CAVOK 17/06 Q1019=
201909092230 METAR LRIA 092230Z 13005KT 110V170 CAVOK 16/06 Q1019=
201909092300 METAR LRIA 092300Z AUTO 10006KT 9999 NCD 16/06 Q1019=
201909092330 METAR LRIA 092330Z 09006KT CAVOK 16/06 Q1019=
201909100000 METAR LRIA 100000Z 05004KT CAVOK 15/07 Q1019=
201909100030 METAR LRIA 100030Z 09007KT CAVOK 16/07 Q1019=
201909100100 METAR LRIA 100100Z 09007KT CAVOK 15/07 Q1019=
201909100130 METAR LRIA 100130Z 08007KT CAVOK 15/07 Q1019=
201909100200 METAR LRIA 100200Z 08007KT CAVOK 15/08 Q1019=
201909100230 METAR LRIA 100230Z 08006KT CAVOK 15/08 Q1019=
201909100300 METAR LRIA 100300Z 08008KT CAVOK 15/08 Q1019=
201909100330 METAR LRIA 100330Z 08008KT CAVOK 15/08 Q1019=
201909100400 METAR LRIA 100400Z 07008KT CAVOK 15/09 Q1019=
201909100430 METAR LRIA 100430Z 07009KT CAVOK 15/09 Q1019=
201909100500 METAR LRIA 100500Z 07005KT CAVOK 17/10 Q1020=
201909100530 METAR LRIA 100530Z 09004KT CAVOK 18/10 Q1020=
201909100600 METAR LRIA 100600Z 08005KT 9999 VCFG NSC 19/11 Q1020=
201909100630 METAR LRIA 100630Z 09006KT CAVOK 20/11 Q1020=
201909100700 METAR LRIA 100700Z 10008KT CAVOK 21/11 Q1021=
201909100730 METAR LRIA 100730Z 10008KT 080V140 CAVOK 21/10 Q1021=
201909100800 METAR LRIA 100800Z 11008KT CAVOK 22/11 Q1021=
201909100830 METAR LRIA 100830Z 12008KT CAVOK 23/10 Q1021=
201909100900 METAR LRIA 100900Z 12007KT 080V150 9999 FEW049 24/11 Q1021=
201909100930 METAR LRIA 100930Z 11007KT 080V140 CAVOK 25/09 Q1020=
201909101000 METAR LRIA 101000Z 10009KT CAVOK 25/07 Q1020=
201909101030 METAR LRIA 101030Z 13010KT CAVOK 26/06 Q1020=
201909101100 METAR LRIA 101100Z 13011KT CAVOK 26/05 Q1020=
201909101130 METAR LRIA 101130Z 13010KT CAVOK 26/05 Q1020=
201909101200 METAR LRIA 101200Z 14009KT 100V160 CAVOK 27/06 Q1020=
201909101230 METAR LRIA 101230Z 14006KT 100V170 CAVOK 27/05 Q1020=
201909101300 METAR LRIA 101300Z 13008KT 090V180 CAVOK 27/04 Q1020=
201909101330 METAR LRIA 101330Z 13007KT CAVOK 27/04 Q1020=
201909101400 METAR LRIA 101400Z 15006KT CAVOK 27/04 Q1020=
201909101430 METAR LRIA 101430Z 13007KT 100V160 CAVOK 27/04 Q1020=
201909101500 METAR LRIA 101500Z 12006KT CAVOK 26/04 Q1020=
201909101530 METAR LRIA 101530Z 12009KT CAVOK 26/04 Q1020=
201909101600 METAR LRIA 101600Z 10006KT CAVOK 24/05 Q1020=
201909101630 METAR LRIA 101630Z 08006KT CAVOK 23/05 Q1020=
201909101700 METAR LRIA 101700Z 06006KT CAVOK 23/06 Q1020=
201909101730 METAR LRIA 101730Z 10004KT CAVOK 22/06 Q1021=
201909101800 METAR LRIA 101800Z 09004KT CAVOK 22/05 Q1021=
201909101830 METAR LRIA 101830Z 09004KT CAVOK 20/06 Q1021=
201909101900 METAR LRIA 101900Z 08004KT CAVOK 21/05 Q1021=
201909101930 METAR LRIA 101930Z 09003KT CAVOK 20/07 Q1021=
201909102000 METAR LRIA 102000Z 00000KT CAVOK 19/05 Q1021=
201909102030 METAR LRIA 102030Z 00000KT CAVOK 18/06 Q1021=
201909102100 METAR LRIA 102100Z 14002KT CAVOK 18/06 Q1022=
201909102130 METAR LRIA 102130Z 10003KT 070V130 CAVOK 16/06 Q1022=
201909102200 METAR LRIA 102200Z 08005KT CAVOK 17/06 Q1022=
201909102230 METAR LRIA 102230Z 23001KT CAVOK 17/06 Q1022=
201909102300 METAR LRIA 102300Z 08003KT CAVOK 16/06 Q1022=
201909102330 METAR LRIA 102330Z 11005KT CAVOK 15/06 Q1022=
201909110000 METAR LRIA 110000Z 07006KT CAVOK 15/06 Q1022=
201909110030 METAR LRIA 110030Z 07007KT CAVOK 16/05 Q1022=
201909110100 METAR LRIA 110100Z 05003KT CAVOK 14/06 Q1023=
201909110130 METAR LRIA 110130Z 10004KT 070V150 CAVOK 14/06 Q1023=
201909110200 METAR LRIA 110200Z 10003KT CAVOK 13/07 Q1023=
201909110230 METAR LRIA 110230Z 17002KT CAVOK 12/07 Q1023=
201909110300 METAR LRIA 110300Z 00000KT CAVOK 12/07 Q1023=
201909110330 METAR LRIA 110330Z 00000KT CAVOK 12/07 Q1023=
201909110400 METAR LRIA 110400Z 00000KT CAVOK 12/08 Q1024=
201909110430 METAR LRIA 110430Z 00000KT CAVOK 13/08 Q1024=
201909110500 METAR LRIA 110500Z VRB01KT CAVOK 14/10 Q1024=
201909110530 METAR LRIA 110530Z 25001KT CAVOK 15/10 Q1024=
201909110600 METAR LRIA 110600Z VRB01KT CAVOK 16/09 Q1025=
201909110630 METAR LRIA 110630Z 00000KT CAVOK 18/10 Q1025=
201909110700 METAR LRIA 110700Z VRB02KT CAVOK 20/10 Q1025=
201909110730 METAR LRIA 110730Z 10003KT 050V150 CAVOK 21/08 Q1025=
201909110800 METAR LRIA 110800Z 13003KT 040V170 CAVOK 22/08 Q1025=
201909110830 METAR LRIA 110830Z VRB02KT CAVOK 23/06 Q1025=
201909110900 METAR LRIA 110900Z VRB02KT CAVOK 24/06 Q1025=
201909110930 METAR LRIA 110930Z 10004KT 040V160 CAVOK 25/05 Q1025=
201909111000 METAR LRIA 111000Z 12007KT 080V180 CAVOK 27/05 Q1025=
201909111030 METAR LRIA 111030Z 12010KT CAVOK 27/03 Q1025=
201909111100 METAR LRIA 111100Z 13007KT 090V170 CAVOK 27/04 Q1025=
201909111130 METAR LRIA 111130Z 12009KT 090V150 CAVOK 27/03 Q1025=
201909111200 METAR LRIA 111200Z 14007KT 100V210 CAVOK 28/03 Q1024=
201909111230 METAR LRIA 111230Z 15008KT 100V190 CAVOK 28/02 Q1024=
201909111300 METAR LRIA 111300Z 13011KT CAVOK 28/01 Q1024=
201909111330 METAR LRIA 111330Z 12007KT 080V160 CAVOK 28/02 Q1024=
201909111400 METAR LRIA 111400Z 12005KT 010V160 CAVOK 28/02 Q1024=
201909111430 METAR LRIA 111430Z 13005KT 100V170 CAVOK 28/01 Q1024=
201909111500 METAR LRIA 111500Z 15005KT 100V180 CAVOK 28/02 Q1024=
201909111530 METAR LRIA 111530Z 12005KT CAVOK 27/02 Q1024=
201909111600 METAR COR LRIA 111600Z 11004KT CAVOK 26/04 Q1024=
201909111630 METAR LRIA 111630Z 08003KT 040V110 CAVOK 25/03 Q1024=
201909111700 METAR LRIA 111700Z 04004KT CAVOK 23/03 Q1024=
201909111730 METAR LRIA 111730Z 02003KT 010V070 CAVOK 22/04 Q1024=
201909111800 METAR LRIA 111800Z VRB02KT CAVOK 21/04 Q1024=
201909111830 METAR LRIA 111830Z 30002KT CAVOK 21/04 Q1024=
201909111900 METAR LRIA 111900Z 35002KT CAVOK 22/03 Q1024=
201909111930 METAR LRIA 111930Z 00000KT CAVOK 18/05 Q1025=
201909112000 METAR LRIA 112000Z 03001KT CAVOK 17/07 Q1025=
201909112030 METAR LRIA 112030Z VRB02KT CAVOK 17/05 Q1025=
201909112100 METAR LRIA 112100Z VRB01KT CAVOK 18/07 Q1025=
201909112130 METAR LRIA 112130Z VRB01KT CAVOK 18/06 Q1025=
201909112200 METAR LRIA 112200Z VRB02KT CAVOK 17/06 Q1025=
201909112230 METAR LRIA 112230Z VRB02KT CAVOK 16/06 Q1025=
201909112300 METAR LRIA 112300Z 11003KT 070V160 CAVOK 15/07 Q1025=
201909112330 METAR LRIA 112330Z 04003KT 020V100 CAVOK 16/06 Q1025=
201909120000 METAR LRIA 120000Z VRB01KT CAVOK 14/07 Q1025=
201909120030 METAR LRIA 120030Z 07003KT CAVOK 14/06 Q1025=
201909120100 METAR LRIA 120100Z 00000KT CAVOK 13/07 Q1025=
201909120130 METAR LRIA 120130Z VRB02KT CAVOK 13/07 Q1025=
201909120200 METAR LRIA 120200Z 07002KT CAVOK 12/07 Q1025=
201909120230 METAR LRIA 120230Z VRB02KT CAVOK 12/07 Q1025=
201909120300 METAR LRIA 120300Z 29002KT CAVOK 13/08 Q1026=
201909120330 METAR LRIA 120330Z VRB02KT CAVOK 12/07 Q1026=
201909120400 METAR LRIA 120400Z 00000KT CAVOK 13/07 Q1026=
201909120430 METAR LRIA 120430Z 27002KT CAVOK 12/08 Q1026=
201909120500 METAR LRIA 120500Z VRB01KT CAVOK 14/09 Q1026=
201909120530 METAR LRIA 120530Z 00000KT CAVOK 16/09 Q1026=
201909120600 METAR LRIA 120600Z VRB01KT CAVOK 18/09 Q1027=
201909120630 METAR LRIA 120630Z VRB01KT CAVOK 20/08 Q1027=
201909120700 METAR LRIA 120700Z VRB01KT CAVOK 22/08 Q1027=
201909120730 METAR LRIA 120730Z VRB01KT CAVOK 24/07 Q1027=
201909120800 METAR LRIA 120800Z VRB02KT CAVOK 25/06 Q1027=
201909120830 METAR LRIA 120830Z VRB03KT CAVOK 26/05 Q1027=
201909120900 METAR LRIA 120900Z 11005KT 090V150 CAVOK 26/03 Q1027=
201909120930 METAR LRIA 120930Z 14008KT CAVOK 27/03 Q1027=
201909121000 METAR LRIA 121000Z 14004KT 090V220 CAVOK 27/03 Q1027=
201909121030 METAR LRIA 121030Z VRB04KT CAVOK 27/03 Q1026=
201909121100 METAR LRIA 121100Z VRB05KT CAVOK 27/03 Q1026=
201909121130 METAR COR LRIA 121130Z 09006KT 020V120 CAVOK 27/03 Q1026=
201909121200 METAR LRIA 121200Z VRB04KT CAVOK 28/04 Q1026=
201909121230 METAR LRIA 121230Z 20004KT 160V310 CAVOK 28/02 Q1026=
201909121300 METAR LRIA 121300Z VRB02KT CAVOK 29/02 Q1025=
201909121330 METAR LRIA 121330Z VRB02KT CAVOK 28/02 Q1025=
201909121400 METAR LRIA 121400Z VRB02KT CAVOK 28/02 Q1025=
201909121430 METAR LRIA 121430Z VRB01KT CAVOK 28/03 Q1025=
201909121500 METAR LRIA 121500Z 32004KT CAVOK 27/04 Q1025=
201909121530 METAR LRIA 121530Z 30003KT CAVOK 27/02 Q1025=
201909121600 METAR LRIA 121600Z 33004KT CAVOK 25/04 Q1025=
201909121630 METAR LRIA 121630Z 34005KT CAVOK 24/04 Q1025=
201909121700 METAR LRIA 121700Z 33005KT CAVOK 22/04 Q1025=
201909121730 METAR LRIA 121730Z 31007KT 270V340 CAVOK 21/05 Q1026=
201909121800 METAR LRIA 121800Z 30005KT CAVOK 20/06 Q1026=
201909121830 METAR LRIA 121830Z 28003KT CAVOK 18/07 Q1026=
201909121900 METAR LRIA 121900Z 26004KT CAVOK 19/06 Q1026=
201909121930 METAR LRIA 121930Z 23003KT CAVOK 18/07 Q1026=
201909122000 METAR LRIA 122000Z 24003KT CAVOK 18/07 Q1026=
201909122030 METAR LRIA 122030Z 26003KT CAVOK 18/08 Q1026=
201909122100 METAR LRIA 122100Z 25003KT CAVOK 17/08 Q1026=
201909122130 METAR LRIA 122130Z 26002KT CAVOK 14/08 Q1026=
201909122200 METAR LRIA 122200Z 00000KT CAVOK 14/08 Q1026=
201909122230 METAR LRIA 122230Z 23004KT CAVOK 14/09 Q1026=
201909122300 METAR LRIA 122300Z 25003KT CAVOK 15/09 Q1026=
201909122330 METAR LRIA 122330Z 26003KT CAVOK 15/09 Q1026=
201909130000 METAR LRIA 130000Z 25002KT CAVOK 15/09 Q1026=
201909130030 METAR LRIA 130030Z 27003KT CAVOK 14/09 Q1026=
201909130100 METAR LRIA 130100Z 25004KT CAVOK 13/08 Q1026=
201909130130 METAR LRIA 130130Z 25002KT CAVOK 12/09 Q1026=
201909130200 METAR LRIA 130200Z 26004KT CAVOK 12/08 Q1026=
201909130230 METAR LRIA 130230Z 29004KT CAVOK 11/08 Q1026=
201909130300 METAR LRIA 130300Z 25004KT CAVOK 11/08 Q1026=
201909130330 METAR LRIA 130330Z 24005KT CAVOK 11/08 Q1027=
201909130400 METAR LRIA 130400Z 24004KT CAVOK 11/08 Q1027=
201909130430 METAR LRIA 130430Z 25004KT CAVOK 12/08 Q1027=
201909130500 METAR LRIA 130500Z 25004KT CAVOK 14/09 Q1027=
201909130530 METAR LRIA 130530Z VRB02KT CAVOK 15/09 Q1027=
201909130600 METAR LRIA 130600Z VRB01KT CAVOK 16/09 Q1027=
201909130630 METAR LRIA 130630Z 22003KT 190V250 CAVOK 17/10 Q1027=
201909130700 METAR LRIA 130700Z 24004KT 200V290 CAVOK 19/11 Q1028=
201909130730 METAR LRIA 130730Z 31007KT CAVOK 20/11 Q1027=
201909130800 METAR LRIA 130800Z 28005KT 230V340 CAVOK 22/12 Q1027=
201909130830 METAR LRIA 130830Z 29005KT 230V330 CAVOK 23/12 Q1027=
201909130900 METAR LRIA 130900Z 26005KT 210V330 CAVOK 25/11 Q1027=
201909130930 METAR LRIA 130930Z 30004KT 240V020 CAVOK 26/10 Q1026=
201909131000 METAR LRIA 131000Z VRB03KT CAVOK 27/08 Q1026=
201909131030 METAR LRIA 131030Z 24004KT 170V300 CAVOK 27/07 Q1026=
201909131100 METAR LRIA 131100Z VRB04KT CAVOK 27/07 Q1026=
201909131130 METAR LRIA 131130Z 33004KT 250V030 CAVOK 28/07 Q1025=
201909131200 METAR LRIA 131200Z 32006KT CAVOK 28/05 Q1025=
201909131230 METAR LRIA 131230Z 30004KT 270V040 CAVOK 28/05 Q1024=
201909131300 METAR LRIA 131300Z 32005KT 280V340 CAVOK 28/04 Q1024=
201909131330 METAR LRIA 131330Z 31006KT 280V360 CAVOK 29/04 Q1024=
201909131400 METAR LRIA 131400Z 32005KT 290V350 CAVOK 28/04 Q1024=
201909131430 METAR LRIA 131430Z 28004KT 250V340 CAVOK 29/06 Q1024=
201909131500 METAR LRIA 131500Z 32006KT CAVOK 28/05 Q1023=
201909131530 METAR LRIA 131530Z 31004KT CAVOK 27/07 Q1023=
201909131600 METAR LRIA 131600Z 30003KT CAVOK 26/07 Q1023=
201909131630 METAR LRIA 131630Z 32002KT CAVOK 26/07 Q1023=
201909131700 METAR LRIA 131700Z 32002KT CAVOK 24/07 Q1024=
201909131730 METAR LRIA 131730Z 34004KT CAVOK 22/09 Q1024=
201909131800 METAR LRIA 131800Z 23002KT CAVOK 22/09 Q1024=
201909131830 METAR LRIA 131830Z 26002KT CAVOK 22/09 Q1024=
201909131900 METAR LRIA 131900Z VRB02KT CAVOK 22/09 Q1024=
201909131930 METAR LRIA 131930Z 26003KT CAVOK 21/09 Q1024=
201909132000 METAR LRIA 132000Z 26002KT CAVOK 20/10 Q1024=
201909132030 METAR LRIA 132030Z 26003KT CAVOK 19/10 Q1024=
201909132100 METAR LRIA 132100Z 26003KT CAVOK 18/10 Q1024=
201909132130 METAR LRIA 132130Z 27003KT CAVOK 16/11 Q1024=
201909132200 METAR LRIA 132200Z 29005KT CAVOK 17/12 Q1024=
201909132230 METAR LRIA 132230Z 26005KT CAVOK 17/11 Q1024=
201909132300 METAR LRIA 132300Z 24004KT CAVOK 16/11 Q1025=
201909132330 METAR LRIA 132330Z 21004KT CAVOK 16/11 Q1025=
201909140000 METAR LRIA 140000Z 23004KT CAVOK 17/12 Q1025=
201909140030 METAR LRIA 140030Z 23004KT CAVOK 17/12 Q1025=
201909140100 METAR LRIA 140100Z 25003KT CAVOK 16/12 Q1025=
201909140130 METAR LRIA 140130Z 26003KT CAVOK 16/12 Q1025=
201909140200 METAR LRIA 140200Z 27003KT CAVOK 16/12 Q1025=
201909140230 METAR LRIA 140230Z VRB02KT CAVOK 16/12 Q1024=
201909140300 METAR LRIA 140300Z 20002KT CAVOK 16/11 Q1024=
201909140330 METAR LRIA 140330Z 23003KT CAVOK 16/12 Q1025=
201909140400 METAR LRIA 140400Z 24003KT 220V280 CAVOK 16/12 Q1025=
201909140430 METAR LRIA 140430Z 28003KT CAVOK 15/12 Q1025=
201909140500 METAR LRIA 140500Z 29007KT CAVOK 18/12 Q1025=
201909140530 METAR LRIA 140530Z 30006KT CAVOK 19/12 Q1025=
201909140600 METAR LRIA 140600Z 28005KT CAVOK 20/12 Q1025=
201909140630 METAR LRIA 140630Z 28006KT CAVOK 21/11 Q1025=
201909140700 METAR LRIA 140700Z 30010KT 270V330 CAVOK 22/11 Q1025=
201909140730 METAR LRIA 140730Z 31010KT CAVOK 20/11 Q1025=
201909140800 METAR LRIA 140800Z 30010KT CAVOK 20/12 Q1025=
201909140830 METAR LRIA 140830Z 30010KT CAVOK 20/12 Q1025=
201909140900 METAR LRIA 140900Z 31010KT CAVOK 21/13 Q1025=
201909140930 METAR LRIA 140930Z 31008KT 260V340 CAVOK 22/13 Q1026=
201909141000 METAR LRIA 141000Z 30011KT 270V330 CAVOK 22/13 Q1025=
201909141030 METAR LRIA 141030Z 31014KT 9999 SCT035CB 22/13 Q1025=
201909141100 METAR LRIA 141100Z 32015KT 9999 SCT045 22/13 Q1026=
201909141130 METAR LRIA 141130Z 32016KT 9999 SCT035 22/13 Q1026=
201909141200 METAR LRIA 141200Z 33018G28KT 9999 SCT033 21/12 Q1026=
201909141230 METAR LRIA 141230Z 32018KT 9999 FEW033 21/11 Q1026=
201909141300 METAR LRIA 141300Z 32018KT 9999 FEW033 20/06 Q1026=
201909141330 METAR LRIA 141330Z 34014G24KT 9999 FEW047 20/07 Q1026=
201909141400 METAR LRIA 141400Z 34015KT CAVOK 20/07 Q1026=
201909141430 METAR LRIA 141430Z 34012KT CAVOK 21/07 Q1026=
201909141500 METAR LRIA 141500Z 34014KT CAVOK 20/06 Q1026=
201909141530 METAR LRIA 141530Z 34013KT CAVOK 20/05 Q1026=
201909141600 METAR LRIA 141600Z 33009KT CAVOK 19/04 Q1026=
201909141630 METAR LRIA 141630Z 33006KT CAVOK 18/04 Q1026=
201909141700 METAR LRIA 141700Z 33007KT CAVOK 17/04 Q1026=
201909141730 METAR LRIA 141730Z 33006KT CAVOK 16/04 Q1026=
201909141800 METAR LRIA 141800Z 33007KT CAVOK 16/04 Q1027=
201909141830 METAR LRIA 141830Z 31006KT CAVOK 15/04 Q1027=
201909141900 METAR LRIA 141900Z 33007KT CAVOK 14/05 Q1028=
201909141930 METAR LRIA 141930Z 30007KT CAVOK 14/05 Q1028=
201909142000 METAR LRIA 142000Z 30006KT CAVOK 14/05 Q1028=
201909142030 METAR LRIA 142030Z 31007KT CAVOK 13/05 Q1028=
201909142100 METAR LRIA 142100Z 30006KT CAVOK 13/05 Q1028=
201909142130 METAR LRIA 142130Z 29006KT CAVOK 12/05 Q1028=
201909142200 METAR LRIA 142200Z VRB01KT CAVOK 10/05 Q1028=
201909142230 METAR LRIA 142230Z 28003KT CAVOK 10/05 Q1028=
201909142300 METAR LRIA 142300Z 24003KT CAVOK 09/06 Q1028=
201909142330 METAR LRIA 142330Z 23005KT CAVOK 10/06 Q1028=
201909150000 METAR LRIA 150000Z 24003KT CAVOK 10/05 Q1028=
201909150030 METAR LRIA 150030Z 25003KT CAVOK 10/05 Q1029=
201909150100 METAR LRIA 150100Z 23003KT 200V260 CAVOK 09/05 Q1028=
201909150130 METAR LRIA 150130Z 21003KT CAVOK 09/05 Q1028=
201909150200 METAR LRIA 150200Z 24004KT CAVOK 10/05 Q1028=
201909150230 METAR LRIA 150230Z 27004KT CAVOK 09/05 Q1028=
201909150300 METAR LRIA 150300Z 27004KT CAVOK 09/05 Q1028=
201909150330 METAR LRIA 150330Z 27004KT CAVOK 08/05 Q1028=
201909150400 METAR LRIA 150400Z 27004KT CAVOK 08/05 Q1028=
201909150430 METAR LRIA 150430Z 25003KT CAVOK 07/05 Q1028=
201909150500 METAR LRIA 150500Z 28003KT CAVOK 10/06 Q1028=
201909150530 METAR LRIA 150530Z 28003KT CAVOK 11/06 Q1028=
201909150600 METAR LRIA 150600Z 30004KT 260V330 CAVOK 13/06 Q1028=
201909150630 METAR LRIA 150630Z 29004KT 240V350 CAVOK 14/06 Q1028=
201909150700 METAR LRIA 150700Z VRB02KT CAVOK 15/06 Q1028=
201909150730 METAR LRIA 150730Z VRB01KT CAVOK 17/06 Q1028=
201909150800 METAR LRIA 150800Z VRB02KT CAVOK 18/06 Q1028=
201909150830 METAR LRIA 150830Z VRB02KT CAVOK 19/06 Q1028=
201909150900 METAR LRIA 150900Z VRB03KT CAVOK 20/03 Q1027=
201909150930 METAR LRIA 150930Z 19005KT 110V280 CAVOK 20/03 Q1027=
201909151000 METAR LRIA 151000Z VRB04KT CAVOK 21/03 Q1026=
201909151030 METAR LRIA 151030Z VRB03KT CAVOK 21/03 Q1026=
201909151100 METAR LRIA 151100Z 18006KT 100V240 CAVOK 22/04 Q1025=
201909151130 METAR LRIA 151130Z 24004KT 150V310 CAVOK 22/03 Q1025=
201909151200 METAR LRIA 151200Z 19005KT 130V240 CAVOK 22/04 Q1024=
201909151230 METAR LRIA 151230Z VRB04KT CAVOK 23/03 Q1024=
201909151300 METAR LRIA 151300Z VRB03KT CAVOK 23/03 Q1023=
201909151330 METAR LRIA 151330Z 16004KT 090V250 CAVOK 23/02 Q1023=
201909151400 METAR LRIA 151400Z VRB03KT CAVOK 24/01 Q1022=
201909151430 METAR LRIA 151430Z VRB03KT CAVOK 23/02 Q1022=
201909151500 METAR LRIA 151500Z 12003KT 070V210 CAVOK 23/02 Q1022=
201909151530 METAR LRIA 151530Z 13004KT CAVOK 23/03 Q1021=
201909151600 METAR LRIA 151600Z 11005KT CAVOK 21/04 Q1021=
201909151630 METAR LRIA 151630Z 10006KT CAVOK 20/04 Q1021=
201909151700 METAR LRIA 151700Z 10006KT CAVOK 19/04 Q1021=
201909151730 METAR LRIA 151730Z 10006KT CAVOK 18/05 Q1021=
201909151800 METAR LRIA 151800Z 11005KT CAVOK 18/04 Q1020=
201909151830 METAR LRIA 151830Z 13003KT CAVOK 18/05 Q1020=
201909151900 METAR LRIA 151900Z 11002KT CAVOK 18/05 Q1020=
201909151930 METAR LRIA 151930Z VRB02KT CAVOK 18/05 Q1019=
201909152000 METAR LRIA 152000Z 08004KT CAVOK 16/06 Q1019=
201909152030 METAR LRIA 152030Z 14004KT CAVOK 17/06 Q1019=
201909152100 METAR LRIA 152100Z 00000KT CAVOK 16/06 Q1019=
201909152130 METAR LRIA 152130Z 20004KT 170V230 CAVOK 16/06 Q1019=
201909152200 METAR LRIA 152200Z 21004KT CAVOK 16/06 Q1019=
201909152230 METAR LRIA 152230Z VRB01KT CAVOK 15/06 Q1018=
201909152300 METAR LRIA 152300Z VRB02KT CAVOK 15/06 Q1018=
201909152330 METAR LRIA 152330Z 22003KT CAVOK 15/06 Q1018=
201909160000 METAR LRIA 160000Z 27002KT CAVOK 15/06 Q1018=
201909160030 METAR LRIA 160030Z 25003KT CAVOK 15/06 Q1018=
201909160100 METAR LRIA 160100Z 23003KT CAVOK 14/06 Q1018=
201909160130 METAR LRIA 160130Z VRB02KT CAVOK 14/06 Q1018=
201909160200 METAR LRIA 160200Z VRB02KT CAVOK 14/06 Q1018=
201909160230 METAR LRIA 160230Z 28002KT CAVOK 11/07 Q1018=
201909160300 METAR LRIA 160300Z VRB01KT CAVOK 10/06 Q1018=
201909160330 METAR LRIA 160330Z 22003KT CAVOK 10/07 Q1018=
201909160400 METAR LRIA 160400Z VRB01KT CAVOK 11/07 Q1018=
201909160430 METAR LRIA 160430Z VRB01KT CAVOK 10/07 Q1018=
201909160500 METAR LRIA 160500Z VRB01KT CAVOK 13/08 Q1018=
201909160530 METAR LRIA 160530Z 24003KT 210V270 CAVOK 14/08 Q1018=
201909160600 METAR LRIA 160600Z 22003KT 190V250 CAVOK 16/07 Q1018=
201909160630 METAR LRIA 160630Z 24003KT 210V280 CAVOK 18/07 Q1018=
201909160700 METAR LRIA 160700Z 24003KT 180V270 CAVOK 19/05 Q1017=
201909160730 METAR LRIA 160730Z 25004KT 190V310 CAVOK 20/04 Q1017=
201909160800 METAR LRIA 160800Z 22003KT 150V270 CAVOK 22/04 Q1017=
201909160830 METAR LRIA 160830Z VRB02KT CAVOK 24/05 Q1017=
201909160900 METAR LRIA 160900Z VRB03KT CAVOK 24/03 Q1017=
201909160930 METAR LRIA 160930Z 34003KT 280V070 CAVOK 25/02 Q1016=
201909161000 METAR LRIA 161000Z 31007KT 270V330 CAVOK 25/00 Q1016=
201909161030 METAR LRIA 161030Z 33007KT CAVOK 25/00 Q1016=
201909161100 METAR LRIA 161100Z VRB05KT CAVOK 26/00 Q1015=
201909161130 METAR LRIA 161130Z 29007KT 250V340 CAVOK 27/M00 Q1015=
201909161200 METAR LRIA 161200Z 27006KT 200V320 CAVOK 27/01 Q1014=
201909161230 METAR LRIA 161230Z 25007KT 220V290 CAVOK 27/01 Q1014=
201909161300 METAR LRIA 161300Z 26009KT CAVOK 27/00 Q1014=
201909161330 METAR LRIA 161330Z 23006KT 180V270 CAVOK 27/01 Q1013=
201909161400 METAR LRIA 161400Z 27005KT 200V300 CAVOK 27/00 Q1013=
201909161430 METAR LRIA 161430Z 26004KT 200V290 CAVOK 27/01 Q1013=
201909161500 METAR LRIA 161500Z 25004KT 210V270 CAVOK 27/02 Q1013=
201909161530 METAR LRIA 161530Z 24003KT 180V260 CAVOK 27/01 Q1012=
201909161600 METAR LRIA 161600Z 24003KT CAVOK 26/02 Q1012=
201909161630 METAR LRIA 161630Z 22003KT CAVOK 25/02 Q1012=
201909161700 METAR LRIA 161700Z VRB02KT CAVOK 22/04 Q1012=
201909161730 METAR LRIA 161730Z 17001KT CAVOK 23/04 Q1012=
201909161800 METAR LRIA 161800Z VRB01KT CAVOK 22/04 Q1012=
201909161830 METAR LRIA 161830Z 00000KT CAVOK 22/04 Q1012=
201909161900 METAR LRIA 161900Z 20003KT 170V240 CAVOK 19/06 Q1012=
201909161930 METAR LRIA 161930Z 25003KT CAVOK 19/05 Q1012=
201909162000 METAR LRIA 162000Z 21004KT CAVOK 20/04 Q1012=
201909162030 METAR LRIA 162030Z 23004KT CAVOK 19/05 Q1012=
201909162100 METAR LRIA 162100Z 30008KT CAVOK 18/05 Q1012=
201909162130 METAR LRIA 162130Z 31005KT CAVOK 18/06 Q1012=
201909162200 METAR LRIA 162200Z 24003KT CAVOK 16/07 Q1012=
201909162230 METAR LRIA 162230Z 24004KT CAVOK 16/08 Q1012=
201909162300 METAR LRIA 162300Z 00000KT CAVOK 16/07 Q1012=
201909162330 METAR LRIA 162330Z VRB01KT CAVOK 16/08 Q1011=
201909170000 METAR LRIA 170000Z 26004KT CAVOK 16/08 Q1012=
201909170030 METAR LRIA 170030Z 29005KT CAVOK 16/07 Q1011=
201909170100 METAR LRIA 170100Z 32009KT CAVOK 16/09 Q1012=
201909170130 METAR LRIA 170130Z 33011KT CAVOK 16/09 Q1012=
201909170200 METAR LRIA 170200Z 33008KT CAVOK 16/09 Q1012=
201909170230 METAR LRIA 170230Z 32006KT CAVOK 16/09 Q1013=
201909170300 METAR LRIA 170300Z 31005KT CAVOK 16/09 Q1013=
201909170330 METAR LRIA 170330Z 32004KT CAVOK 15/09 Q1013=
201909170400 METAR LRIA 170400Z 32005KT CAVOK 15/10 Q1013=
201909170430 METAR LRIA 170430Z 32007KT 9999 FEW050CB 15/10 Q1013=
201909170500 METAR LRIA 170500Z 33007KT 9999 FEW042 14/11 Q1014=
201909170530 METAR LRIA 170530Z 31005KT 270V330 9999 -RA NSC 14/11 Q1014=
201909170600 METAR LRIA 170600Z 32006KT 9999 -RA NSC 13/12 Q1014 R14/19//95=
201909170630 METAR LRIA 170630Z 31005KT 9999 -RA NSC 13/12 Q1014 R14/29//95=
201909170700 METAR LRIA 170700Z 30003KT 270V350 9999 FEW025 13/12 Q1014
                        R14/29//95=
201909170730 METAR LRIA 170730Z 29004KT 250V320 9999 FEW008 14/12 Q1014
                        R14/29//95=
201909170800 METAR LRIA 170800Z VRB02KT 9999 FEW009 14/11 Q1014 R14/29//95=
201909170830 METAR LRIA 170830Z 34005KT 310V020 CAVOK 15/11 Q1014 R14/29//95=
201909170900 METAR LRIA 170900Z 31005KT 280V340 9999 FEW015 15/11 Q1014
                        R14/29//95=
201909170930 METAR LRIA 170930Z VRB02KT 9999 FEW014 16/10 Q1014 R14/19//95=
201909171000 METAR LRIA 171000Z 31003KT 210V360 9999 FEW016 16/10 Q1014
                        R14/CLRD//=
201909171030 METAR LRIA 171030Z 33005KT 300V010 9999 FEW016 17/10 Q1013=
201909171100 METAR LRIA 171100Z 35003KT 310V030 CAVOK 17/10 Q1013=
201909171130 METAR LRIA 171130Z VRB02KT CAVOK 17/09 Q1013=
201909171200 METAR LRIA 171200Z VRB02KT CAVOK 17/10 Q1013=
201909171230 METAR LRIA 171230Z VRB01KT CAVOK 18/10 Q1012=
201909171300 METAR LRIA 171300Z 32004KT CAVOK 18/10 Q1012=
201909171330 METAR LRIA 171330Z VRB03KT CAVOK 18/10 Q1012=
201909171400 METAR LRIA 171400Z 24003KT 180V340 9999 SCT030 18/10 Q1012=
201909171430 METAR LRIA 171430Z 28003KT 230V310 9999 SCT030 18/10 Q1011=
201909171500 METAR LRIA 171500Z VRB01KT 9999 SCT040 18/10 Q1011=
201909171530 METAR LRIA 171530Z VRB01KT CAVOK 19/10 Q1011=
201909171600 METAR LRIA 171600Z VRB02KT CAVOK 18/10 Q1010=
201909171630 METAR LRIA 171630Z VRB01KT CAVOK 17/10 Q1010=
201909171700 METAR LRIA 171700Z 02005KT 360V080 CAVOK 15/10 Q1010=
201909171730 METAR LRIA 171730Z VRB02KT CAVOK 14/11 Q1010=
201909171800 METAR LRIA 171800Z 32002KT CAVOK 14/12 Q1010=
201909171830 METAR LRIA 171830Z VRB02KT CAVOK 15/12 Q1010=
201909171900 METAR LRIA 171900Z VRB01KT CAVOK 14/12 Q1010=
201909171930 METAR LRIA 171930Z 04004KT CAVOK 14/11 Q1010=
201909172000 METAR LRIA 172000Z VRB02KT CAVOK 13/11 Q1010=
201909172030 METAR LRIA 172030Z 12002KT CAVOK 13/10 Q1009=
201909172100 METAR LRIA 172100Z 11002KT CAVOK 14/11 Q1009=
201909172130 METAR LRIA 172130Z 10002KT CAVOK 14/11 Q1009=
201909172200 METAR LRIA 172200Z VRB02KT CAVOK 13/11 Q1008=
201909172230 METAR LRIA 172230Z 06001KT CAVOK 12/10 Q1008=
201909172300 METAR LRIA 172300Z VRB01KT CAVOK 13/11 Q1008=
201909172330 METAR LRIA 172330Z 00000KT CAVOK 12/10 Q1007=
201909180000 METAR COR LRIA 180000Z 00000KT CAVOK 12/11 Q1007=
201909180030 METAR LRIA 180030Z VRB02KT CAVOK 12/10 Q1007=
201909180100 METAR LRIA 180100Z 32009KT CAVOK 11/10 Q1008=
201909180130 METAR LRIA 180130Z 29005KT CAVOK 11/10 Q1008=
201909180200 METAR LRIA 180200Z 30005KT CAVOK 10/10 Q1008=
201909180230 METAR LRIA 180230Z 21003KT 160V250 9999 FEW008 10/10 Q1009=
201909180300 METAR LRIA 180300Z 22003KT 200V260 9999 FEW033 10/10 Q1009=
201909180330 METAR LRIA 180330Z 23004KT 200V270 9999 FEW042 10/10 Q1009=
201909180400 METAR LRIA 180400Z 21003KT 9999 FEW042 10/09 Q1010=
201909180430 METAR LRIA 180430Z 26004KT 9999 SCT040 11/10 Q1011=
201909180500 METAR LRIA 180500Z 33012KT 310V010 9999 FEW010 BKN030 12/08
                        Q1011=
201909180530 METAR LRIA 180530Z 31012KT 9999 BKN040 12/07 Q1012=
201909180600 METAR COR LRIA 180600Z 31009KT 9999 -RA BKN040 11/07 Q1012=
201909180630 METAR LRIA 180630Z 27005KT 9999 -RA BKN045 11/08 Q1013=
201909180700 METAR LRIA 180700Z 32008KT 280V340 9999 BKN047 11/08 Q1013=
201909180730 METAR LRIA 180730Z 31007KT 9999 BKN048 11/07 Q1013=
201909180800 METAR LRIA 180800Z 32007KT 290V350 9999 BKN049 11/07 Q1014=
201909180830 METAR COR LRIA 180830Z 30008KT 270V340 9999 -RA FEW017 BKN048
                        11/06 Q1015 R14/29//95=
201909180900 METAR LRIA 180900Z 31005KT 270V010 9999 -RA BKN048 10/07
                        Q1015 R14/29//95=
201909180930 METAR LRIA 180930Z VRB02KT 9999 -RA BKN048 10/07 Q1015 R14/29//95=
201909181000 METAR LRIA 181000Z VRB03KT 9999 FEW027 12/08 Q1015 R14/29//95=
201909181030 METAR LRIA 181030Z 28006KT 230V340 9999 FEW040 14/07 Q1015
                        R14/19//95=
201909181100 METAR LRIA 181100Z 28007KT 230V330 9999 FEW047 16/05 Q1014
                        R14/19//95=
201909181130 METAR LRIA 181130Z 30008KT 260V330 CAVOK 17/03 Q1014 R14/19//95=
201909181200 METAR LRIA 181200Z VRB05KT CAVOK 17/03 Q1015 R14/19//95=
201909181230 METAR LRIA 181230Z 32007KT CAVOK 18/02 Q1015 R14/19//95=
201909181300 METAR LRIA 181300Z 31008KT 280V340 CAVOK 18/00 Q1015 R14/19//95=
201909181330 METAR LRIA 181330Z 32010KT 290V360 CAVOK 19/01 Q1015 R14/CLRD//=
201909181400 METAR LRIA 181400Z 31012KT CAVOK 19/00 Q1015=
201909181430 METAR LRIA 181430Z 33013KT CAVOK 17/00 Q1016=
201909181500 METAR LRIA 181500Z 33013KT CAVOK 17/01 Q1016=
201909181530 METAR LRIA 181530Z 34012KT CAVOK 16/02 Q1017=
201909181600 METAR LRIA 181600Z 33010KT CAVOK 15/02 Q1017=
201909181630 METAR LRIA 181630Z 34009KT CAVOK 14/02 Q1017=
201909181700 METAR LRIA 181700Z 34010KT CAVOK 13/02 Q1018=
201909181730 METAR LRIA 181730Z 33007KT CAVOK 12/02 Q1019=
201909181800 METAR LRIA 181800Z VRB02KT CAVOK 11/02 Q1020=
201909181830 METAR LRIA 181830Z 00000KT CAVOK 11/02 Q1020=
201909181900 METAR LRIA 181900Z 27003KT CAVOK 11/02 Q1020=
201909181930 METAR LRIA 181930Z 22004KT CAVOK 11/02 Q1021=
201909182000 METAR LRIA 182000Z 27003KT 220V300 CAVOK 11/02 Q1021=
201909182030 METAR LRIA 182030Z 29005KT 240V310 CAVOK 11/02 Q1021=
201909182100 METAR LRIA 182100Z 31006KT CAVOK 10/01 Q1021=
201909182130 METAR LRIA 182130Z 30004KT CAVOK 10/01 Q1022=
201909182200 METAR LRIA 182200Z 29004KT CAVOK 09/01 Q1022=
201909182230 METAR LRIA 182230Z 27003KT 220V320 CAVOK 09/02 Q1022=
201909182300 METAR LRIA 182300Z 29003KT CAVOK 09/02 Q1022=
201909182330 METAR LRIA 182330Z 27003KT 230V300 CAVOK 06/02 Q1022=
201909190000 METAR LRIA 190000Z 25003KT 220V280 CAVOK 07/03 Q1021=
201909190030 METAR LRIA 190030Z 26004KT CAVOK 07/02 Q1021=
201909190100 METAR LRIA 190100Z 26004KT CAVOK 07/02 Q1021=
201909190130 METAR LRIA 190130Z 25005KT CAVOK 07/02 Q1021=
201909190200 METAR LRIA 190200Z 22005KT CAVOK 06/02 Q1021=
201909190230 METAR LRIA 190230Z 24004KT 210V270 CAVOK 07/02 Q1022=
201909190300 METAR LRIA 190300Z 22004KT CAVOK 07/02 Q1022=
201909190330 METAR LRIA 190330Z 23004KT CAVOK 07/02 Q1022=
201909190400 METAR LRIA 190400Z 22005KT CAVOK 07/02 Q1022=
201909190430 METAR LRIA 190430Z 25003KT CAVOK 07/02 Q1022=
201909190500 METAR LRIA 190500Z 25003KT CAVOK 08/02 Q1022=
201909190530 METAR LRIA 190530Z 22003KT 200V270 CAVOK 09/03 Q1023=
201909190600 METAR LRIA 190600Z 19003KT 150V240 CAVOK 10/03 Q1023=
201909190630 METAR LRIA 190630Z 18003KT 150V230 CAVOK 12/03 Q1023=
201909190700 METAR LRIA 190700Z VRB03KT CAVOK 14/03 Q1023=
201909190730 METAR LRIA 190730Z 19004KT 130V270 CAVOK 15/02 Q1023=
201909190800 METAR LRIA 190800Z VRB03KT CAVOK 16/02 Q1022=
201909190830 METAR LRIA 190830Z 18005KT 130V240 CAVOK 17/01 Q1022=
201909190900 METAR LRIA 190900Z 21006KT 180V250 CAVOK 18/01 Q1022=
201909190930 METAR LRIA 190930Z 25007KT 200V290 CAVOK 18/M01 Q1021=
201909191000 METAR LRIA 191000Z VRB02KT CAVOK 19/M00 Q1021=
201909191030 METAR LRIA 191030Z 26008KT CAVOK 18/M02 Q1021=
201909191100 METAR LRIA 191100Z 33010KT CAVOK 19/M02 Q1021=
201909191130 METAR LRIA 191130Z 34010KT 9999 FEW060CB 18/M00 Q1021=
201909191200 METAR LRIA 191200Z 34009KT 9999 FEW060CB 18/M00 Q1021=
201909191230 METAR LRIA 191230Z 34009KT CAVOK 18/M01 Q1020=
201909191300 METAR LRIA 191300Z 36008KT CAVOK 18/M02 Q1020=
201909191330 METAR LRIA 191330Z 36010KT CAVOK 17/M01 Q1020=
201909191400 METAR LRIA 191400Z 36009KT CAVOK 18/M02 Q1020=
201909191430 METAR LRIA 191430Z 33009KT 9999 FEW060CB 17/M03 Q1021=
201909191500 METAR LRIA 191500Z 32009KT 9999 SCT060CB 16/M03 Q1021=
201909191530 METAR LRIA 191530Z 34012KT 9999 FEW060CB 15/02 Q1021=
201909191600 METAR LRIA 191600Z 34010KT CAVOK 15/02 Q1021=
201909191630 METAR LRIA 191630Z 34009KT CAVOK 15/01 Q1021=
201909191700 METAR LRIA 191700Z 35008KT 9999 FEW060CB 15/01 Q1021=
201909191730 METAR LRIA 191730Z 35008KT 9999 FEW055CB 14/01 Q1021=
201909191800 METAR LRIA 191800Z 32005KT 9999 FEW048 14/02 Q1021=
201909191830 METAR LRIA 191830Z 29004KT 9999 -RA SCT040 13/03 Q1022=
201909191900 METAR LRIA 191900Z 31004KT 270V350 9999 -RA FEW022 BKN047
                        13/04 Q1022=
201909191930 METAR LRIA 191930Z 30007KT 260V330 9999 -RA SCT047 11/06
                        Q1022 R14/29//95=
201909192000 METAR LRIA 192000Z 25004KT 9999 SCT047 11/07 Q1022 R14/29//95=
201909192030 METAR LRIA 192030Z 23004KT 9999 -RA SCT047 12/05 Q1022 R14/29//95=
201909192100 METAR LRIA 192100Z 27003KT 230V320 9999 -RA SCT047 11/06
                        Q1022 R14/29//95=
201909192130 METAR LRIA 192130Z 30005KT 9999 -RA SCT045 11/05 Q1022 R14/29//95=
201909192200 METAR LRIA 192200Z 30004KT 9999 -RA SCT045 10/06 Q1022 R14/29//95=
201909192230 METAR LRIA 192230Z 29006KT 9999 -RA SCT045 10/06 Q1022 R14/29//95=
201909192300 METAR LRIA 192300Z 27005KT 240V300 9999 -RA SCT048 11/07
                        Q1022 R14/29//95=
201909192330 METAR LRIA 192330Z 29005KT 9999 FEW048 10/06 Q1022 R14/29//95=
201909200000 METAR LRIA 200000Z 30006KT 9999 FEW048 10/05 Q1022 R14/29//95=
201909200030 METAR LRIA 200030Z 28005KT 240V310 CAVOK 10/06 Q1022 R14/29//95=
201909200100 METAR LRIA 200100Z 27003KT CAVOK 10/06 Q1022 R14/29//95=
201909200130 METAR LRIA 200130Z 30005KT CAVOK 10/06 Q1022 R14/29//95=
201909200200 METAR LRIA 200200Z 29005KT CAVOK 09/06 Q1022 R14/29//95=
201909200230 METAR LRIA 200230Z 29007KT CAVOK 09/06 Q1022 R14/29//95=
201909200300 METAR COR LRIA 200300Z 29008KT CAVOK 08/05 Q1022 R14/29//95=
201909200330 METAR LRIA 200330Z 29007KT 9999 FEW050CB 08/04 Q1022 R14/29//95=
201909200400 METAR LRIA 200400Z 29010KT 9999 FEW050CB 08/04 Q1022 R14/29//95=
201909200430 METAR LRIA 200430Z 32008KT 9999 FEW045CB 08/05 Q1022 R14/29//95=
201909200500 METAR LRIA 200500Z 31009KT 9999 FEW047 09/05 Q1022 R14/29//95=
201909200530 METAR LRIA 200530Z 32010KT 9999 FEW045CB 09/05 Q1022 R14/29//95=
201909200600 METAR LRIA 200600Z 30008KT 9999 -SHRA FEW015 FEW045CB 08/06
                        Q1023 R14/29//95=
201909200630 METAR LRIA 200630Z 30009KT 9999 FEW015 FEW045CB 09/07 Q1023
                        R14/29//95=
201909200700 METAR LRIA 200700Z 31009KT 9999 FEW015 10/06 Q1023 R14/29//95=
201909200730 METAR LRIA 200730Z 30011KT 9999 FEW021 11/07 Q1023 R14/29//95=
201909200800 METAR LRIA 200800Z 30010KT 280V340 9999 FEW021 11/06 Q1023
                        R14/29//95=
201909200830 METAR LRIA 200830Z 30010KT 270V330 9999 FEW028 12/05 Q1023
                        R14/29//95=
201909200900 METAR LRIA 200900Z 29011KT 9999 SCT030 13/05 Q1022 R14/29//95=
201909200930 METAR LRIA 200930Z 30013KT 9999 SCT030 13/06 Q1022 R14/29//95=
201909201000 METAR LRIA 201000Z 31011KT 280V340 9999 SCT030 14/05 Q1022
                        R14/CLRD//=
201909201030 METAR LRIA 201030Z 31011KT 9999 FEW033CB SCT040 13/05 Q1022=
201909201100 METAR LRIA 201100Z 30013KT 9999 FEW033CB 13/04 Q1022=
201909201130 METAR LRIA 201130Z 30013KT 9999 FEW040TCU 15/03 Q1021=
201909201200 METAR LRIA 201200Z 31013KT 270V340 9999 FEW044 15/M00 Q1021=
201909201230 METAR LRIA 201230Z 31013G23KT 9999 FEW048TCU 14/01 Q1021=
201909201300 METAR LRIA 201300Z 34017G27KT 9999 FEW048 13/03 Q1022=
201909201330 METAR LRIA 201330Z 33011G21KT 9999 FEW048 14/03 Q1022=
201909201400 METAR LRIA 201400Z 34014KT CAVOK 14/02 Q1022=
201909201430 METAR LRIA 201430Z 34012KT CAVOK 14/02 Q1022=
201909201500 METAR LRIA 201500Z 33011KT CAVOK 13/02 Q1022=
201909201530 METAR LRIA 201530Z 31010KT CAVOK 13/01 Q1022=
201909201600 METAR LRIA 201600Z 31006KT CAVOK 12/01 Q1022=
201909201630 METAR LRIA 201630Z 30005KT CAVOK 10/02 Q1022=
201909201700 METAR LRIA 201700Z 31005KT CAVOK 10/02 Q1023=
201909201730 METAR LRIA 201730Z 30006KT CAVOK 10/02 Q1023=
201909201800 METAR LRIA 201800Z 32007KT CAVOK 10/01 Q1023=
201909201830 METAR LRIA 201830Z 33007KT CAVOK 09/00 Q1024=
201909201900 METAR LRIA 201900Z 30006KT CAVOK 08/01 Q1024=
201909201930 METAR LRIA 201930Z 30005KT CAVOK 09/01 Q1024=
201909202000 METAR LRIA 202000Z 29005KT CAVOK 08/01 Q1024=
201909202030 METAR LRIA 202030Z 31007KT CAVOK 09/01 Q1024=
201909202100 METAR LRIA 202100Z 30007KT CAVOK 08/02 Q1024=
201909202130 METAR LRIA 202130Z 30006KT CAVOK 08/02 Q1024=
201909202200 METAR LRIA 202200Z 31006KT CAVOK 08/02 Q1024=
201909202230 METAR LRIA 202230Z 32005KT CAVOK 08/02 Q1025=
201909202300 METAR LRIA 202300Z 29006KT CAVOK 07/02 Q1025=
201909202330 METAR LRIA 202330Z 29006KT CAVOK 07/02 Q1025=
201909210000 METAR LRIA 210000Z 28005KT 9999 FEW016 06/02 Q1025=
201909210030 METAR LRIA 210030Z 28005KT CAVOK 06/02 Q1025=
201909210100 METAR LRIA 210100Z 30006KT CAVOK 06/02 Q1025=
201909210130 METAR LRIA 210130Z 30005KT CAVOK 06/02 Q1025=
201909210200 METAR LRIA 210200Z 31006KT CAVOK 05/02 Q1025=
201909210230 METAR LRIA 210230Z 29005KT CAVOK 05/02 Q1025=
201909210300 METAR LRIA 210300Z 29006KT CAVOK 05/02 Q1025=
201909210330 METAR LRIA 210330Z 26006KT CAVOK 05/03 Q1025=
201909210400 METAR LRIA 210400Z 27006KT CAVOK 05/03 Q1025=
201909210430 METAR LRIA 210430Z 29005KT CAVOK 05/03 Q1026=
201909210500 METAR LRIA 210500Z 28006KT CAVOK 06/03 Q1026=
201909210530 METAR LRIA 210530Z 27005KT CAVOK 07/03 Q1026=
201909210600 METAR LRIA 210600Z 29005KT CAVOK 08/04 Q1026=
201909210630 METAR LRIA 210630Z 30007KT CAVOK 09/04 Q1026=
201909210700 METAR LRIA 210700Z 31006KT CAVOK 10/04 Q1027=
201909210730 METAR LRIA 210730Z 28006KT 210V320 CAVOK 11/04 Q1027=
201909210800 METAR LRIA 210800Z 26007KT 230V300 CAVOK 13/04 Q1027=
201909210830 METAR LRIA 210830Z 29009KT 240V330 CAVOK 13/02 Q1026=
201909210900 METAR LRIA 210900Z 32009KT 9999 FEW046 14/02 Q1026=
201909210930 METAR LRIA 210930Z 31011KT 9999 FEW046 15/00 Q1026=
201909211000 METAR LRIA 211000Z 31011KT 280V340 CAVOK 15/00 Q1026=
201909211030 METAR LRIA 211030Z 30007KT 270V360 CAVOK 16/M00 Q1026=
201909211100 METAR LRIA 211100Z 32010KT CAVOK 16/M00 Q1026=
201909211130 METAR LRIA 211130Z 30012KT CAVOK 16/M00 Q1026=
201909211200 METAR LRIA 211200Z 29009KT 240V310 CAVOK 17/M00 Q1025=
201909211230 METAR LRIA 211230Z 31009KT 260V340 CAVOK 17/M01 Q1025=
201909211300 METAR LRIA 211300Z 27008KT CAVOK 17/M01 Q1025=
201909211330 METAR LRIA 211330Z 31008KT CAVOK 17/M01 Q1024=
201909211400 METAR LRIA 211400Z 29010KT CAVOK 17/M01 Q1024=
201909211430 METAR LRIA 211430Z 29007KT CAVOK 17/M01 Q1024=
201909211500 METAR LRIA 211500Z 28006KT 250V320 CAVOK 17/M00 Q1024=
201909211530 METAR LRIA 211530Z 28005KT 240V300 CAVOK 16/M00 Q1024=
201909211600 METAR LRIA 211600Z 27002KT CAVOK 16/01 Q1024=
201909211630 METAR LRIA 211630Z 31002KT CAVOK 16/M00 Q1024=
201909211700 METAR LRIA 211700Z 26001KT CAVOK 15/00 Q1024=
201909211730 METAR LRIA 211730Z VRB02KT CAVOK 14/01 Q1024=
201909211800 METAR LRIA 211800Z VRB01KT CAVOK 13/02 Q1024=
201909211830 METAR LRIA 211830Z 21004KT CAVOK 13/03 Q1024=
201909211900 METAR LRIA 211900Z 20003KT CAVOK 12/03 Q1024=
201909211930 METAR LRIA 211930Z 20003KT 160V230 CAVOK 11/03 Q1024=
201909212000 METAR LRIA 212000Z VRB02KT CAVOK 11/02 Q1024=
201909212030 METAR LRIA 212030Z VRB02KT CAVOK 11/02 Q1024=
201909212100 METAR LRIA 212100Z VRB02KT CAVOK 11/02 Q1023=
201909212130 METAR LRIA 212130Z VRB02KT CAVOK 11/02 Q1023=
201909212200 METAR LRIA 212200Z 00000KT CAVOK 11/01 Q1023=
201909212230 METAR LRIA 212230Z 25003KT CAVOK 11/01 Q1023=
201909212300 METAR LRIA 212300Z 24003KT 210V270 CAVOK 11/01 Q1023=
201909212330 METAR LRIA 212330Z 24003KT 210V270 CAVOK 11/01 Q1023=
201909220000 METAR LRIA 220000Z AUTO 24004KT 9999 NCD 10/01 Q1023=
201909220030 METAR LRIA 220030Z 25004KT 210V270 CAVOK 09/01 Q1023=
201909220100 METAR LRIA 220100Z 27004KT CAVOK 09/01 Q1023=
201909220130 METAR LRIA 220130Z 24002KT CAVOK 09/01 Q1022=
201909220200 METAR LRIA 220200Z 26003KT CAVOK 10/01 Q1022=
201909220230 METAR LRIA 220230Z 26003KT CAVOK 08/02 Q1022=
201909220300 METAR LRIA 220300Z VRB02KT CAVOK 08/02 Q1022=
201909220330 METAR LRIA 220330Z VRB02KT CAVOK 08/02 Q1022=
201909220400 METAR LRIA 220400Z VRB02KT CAVOK 08/02 Q1022=
201909220430 METAR LRIA 220430Z 24003KT CAVOK 09/02 Q1022=
201909220500 METAR LRIA 220500Z 23002KT CAVOK 10/03 Q1022=
201909220530 METAR LRIA 220530Z 21002KT CAVOK 11/03 Q1022=
201909220600 METAR LRIA 220600Z 21004KT CAVOK 12/03 Q1022=
201909220630 METAR LRIA 220630Z 25004KT 220V280 CAVOK 13/03 Q1022=
201909220700 METAR LRIA 220700Z 25005KT 210V270 CAVOK 14/03 Q1022=
201909220730 METAR LRIA 220730Z 25005KT 200V280 CAVOK 16/03 Q1022=
201909220800 METAR LRIA 220800Z 21004KT 150V290 CAVOK 17/03 Q1022=
201909220830 METAR LRIA 220830Z 25004KT 170V330 CAVOK 19/03 Q1021=
201909220900 METAR LRIA 220900Z 27008KT 220V330 CAVOK 19/02 Q1021=
201909220930 METAR LRIA 220930Z 25007KT 210V290 CAVOK 21/03 Q1021=
201909221000 METAR LRIA 221000Z 25007KT 180V280 CAVOK 21/03 Q1020=
201909221030 METAR LRIA 221030Z VRB05KT CAVOK 22/02 Q1020=
201909221100 METAR LRIA 221100Z 24005KT 200V290 CAVOK 22/03 Q1019=
201909221130 METAR LRIA 221130Z 26007KT 220V300 CAVOK 22/03 Q1019=
201909221200 METAR COR LRIA 221200Z 22008KT 200V260 CAVOK 22/03 Q1019=
201909221230 METAR LRIA 221230Z 27008KT 230V300 CAVOK 22/03 Q1018=
201909221300 METAR LRIA 221300Z 26006KT 200V300 CAVOK 23/03 Q1018=
201909221330 METAR LRIA 221330Z 26005KT CAVOK 23/03 Q1017=
201909221400 METAR LRIA 221400Z 29005KT 190V340 CAVOK 23/04 Q1017=
201909221430 METAR LRIA 221430Z 29006KT 250V320 CAVOK 23/04 Q1017=
201909221500 METAR LRIA 221500Z 23004KT 180V290 CAVOK 23/04 Q1017=
201909221530 METAR LRIA 221530Z VRB02KT CAVOK 23/04 Q1017=
201909221600 METAR LRIA 221600Z 00000KT CAVOK 21/03 Q1017=
201909221630 METAR LRIA 221630Z 00000KT CAVOK 20/04 Q1016=
201909221700 METAR LRIA 221700Z 13002KT CAVOK 19/04 Q1017=
201909221730 METAR LRIA 221730Z 15003KT CAVOK 18/05 Q1016=
201909221800 METAR LRIA 221800Z 17003KT CAVOK 17/06 Q1016=
201909221830 METAR LRIA 221830Z 00000KT CAVOK 16/06 Q1016=
201909221900 METAR LRIA 221900Z 00000KT CAVOK 16/06 Q1016=
201909221930 METAR LRIA 221930Z 00000KT CAVOK 16/05 Q1016=
201909222000 METAR LRIA 222000Z 00000KT CAVOK 15/05 Q1016=
201909222030 METAR LRIA 222030Z 00000KT CAVOK 15/05 Q1016=
201909222100 METAR LRIA 222100Z 00000KT CAVOK 15/05 Q1016=
201909222130 METAR LRIA 222130Z 00000KT CAVOK 14/05 Q1016=
201909222200 METAR LRIA 222200Z 00000KT CAVOK 13/05 Q1016=
201909222230 METAR LRIA 222230Z 10003KT CAVOK 12/05 Q1016=
201909222300 METAR LRIA 222300Z 07005KT CAVOK 12/05 Q1016=
201909222330 METAR LRIA 222330Z AUTO 07005KT 9999 NCD 12/05 Q1015=
201909230000 METAR LRIA 230000Z 07005KT CAVOK 11/05 Q1015=
201909230030 METAR LRIA 230030Z 06004KT CAVOK 10/04 Q1015=
201909230100 METAR LRIA 230100Z VRB02KT CAVOK 10/04 Q1015=
201909230130 METAR LRIA 230130Z 06003KT CAVOK 10/04 Q1015=
201909230200 METAR LRIA 230200Z 04004KT CAVOK 09/04 Q1015=
201909230230 METAR LRIA 230230Z 35003KT CAVOK 10/04 Q1016=
201909230300 METAR LRIA 230300Z 08004KT CAVOK 09/04 Q1015=
201909230330 METAR LRIA 230330Z 11002KT CAVOK 08/04 Q1016=
201909230400 METAR LRIA 230400Z 09003KT CAVOK 08/05 Q1016=
201909230430 METAR LRIA 230430Z 10001KT CAVOK 08/05 Q1016=
201909230500 METAR LRIA 230500Z 27001KT CAVOK 09/05 Q1016=
201909230530 METAR LRIA 230530Z 27002KT CAVOK 10/06 Q1016=
201909230600 METAR LRIA 230600Z 23003KT CAVOK 11/06 Q1017=
201909230630 METAR LRIA 230630Z VRB02KT CAVOK 13/06 Q1017=
201909230700 METAR LRIA 230700Z 29004KT 240V330 CAVOK 14/06 Q1017=
201909230730 METAR LRIA 230730Z 24004KT 200V310 CAVOK 15/06 Q1017=
201909230800 METAR LRIA 230800Z 28003KT 230V350 CAVOK 17/05 Q1016=
201909230830 METAR LRIA 230830Z VRB01KT CAVOK 19/05 Q1016=
201909230900 METAR LRIA 230900Z VRB01KT CAVOK 20/05 Q1016=
201909230930 METAR LRIA 230930Z VRB02KT CAVOK 21/05 Q1016=
201909231000 METAR LRIA 231000Z VRB02KT CAVOK 21/04 Q1016=
201909231030 METAR LRIA 231030Z VRB02KT CAVOK 23/05 Q1015=
201909231100 METAR LRIA 231100Z 35004KT 210V020 CAVOK 23/04 Q1015=
201909231130 METAR LRIA 231130Z 09006KT 060V140 CAVOK 23/04 Q1014=
201909231200 METAR LRIA 231200Z 13007KT CAVOK 24/03 Q1014=
201909231230 METAR LRIA 231230Z 12005KT 060V190 CAVOK 24/03 Q1014=
201909231300 METAR LRIA 231300Z 13008KT CAVOK 25/03 Q1014=
201909231330 METAR LRIA 231330Z 11006KT 050V190 CAVOK 25/03 Q1014=
201909231400 METAR LRIA 231400Z 12005KT 070V170 CAVOK 25/03 Q1014=
201909231430 METAR LRIA 231430Z 11005KT 070V140 CAVOK 25/02 Q1013=
201909231500 METAR LRIA 231500Z 12005KT CAVOK 23/03 Q1013=
201909231530 METAR LRIA 231530Z 12003KT CAVOK 23/03 Q1013=
201909231600 METAR LRIA 231600Z 10002KT CAVOK 22/03 Q1014=
201909231630 METAR LRIA 231630Z 05003KT CAVOK 21/03 Q1014=
201909231700 METAR LRIA 231700Z 02005KT CAVOK 19/04 Q1014=
201909231730 METAR LRIA 231730Z 25004KT 230V300 CAVOK 18/05 Q1014=
201909231800 METAR LRIA 231800Z VRB01KT CAVOK 20/04 Q1014=
201909231830 METAR LRIA 231830Z 06003KT CAVOK 18/05 Q1014=
201909231900 METAR LRIA 231900Z 02008KT CAVOK 17/07 Q1014=
201909231930 METAR LRIA 231930Z 06009KT CAVOK 19/05 Q1014=
201909232000 METAR LRIA 232000Z 10012KT CAVOK 19/07 Q1014=
201909232030 METAR LRIA 232030Z 09010KT CAVOK 18/07 Q1015=
201909232100 METAR LRIA 232100Z 08009KT CAVOK 18/07 Q1015=
201909232130 METAR LRIA 232130Z 08009KT CAVOK 17/07 Q1015=
201909232200 METAR LRIA 232200Z 08011KT CAVOK 17/07 Q1015=
201909232230 METAR LRIA 232230Z 07009KT CAVOK 17/07 Q1015=
201909232300 METAR LRIA 232300Z 07008KT CAVOK 16/07 Q1015=
201909232330 METAR LRIA 232330Z 07007KT CAVOK 15/07 Q1015=
201909240000 METAR LRIA 240000Z 07008KT CAVOK 14/07 Q1015=
201909240030 METAR LRIA 240030Z 07009KT CAVOK 14/07 Q1015=
201909240100 METAR LRIA 240100Z 08008KT CAVOK 14/07 Q1015=
201909240130 METAR LRIA 240130Z 07007KT CAVOK 13/07 Q1015=
201909240200 METAR LRIA 240200Z 08007KT CAVOK 13/07 Q1015=
201909240230 METAR LRIA 240230Z 07007KT CAVOK 12/07 Q1015=
201909240300 METAR LRIA 240300Z 09006KT CAVOK 12/07 Q1015=
201909240330 METAR LRIA 240330Z 09006KT CAVOK 12/07 Q1015=
201909240400 METAR LRIA 240400Z VRB01KT CAVOK 11/07 Q1015=
201909240430 METAR LRIA 240430Z 23001KT CAVOK 10/07 Q1016=
201909240500 METAR LRIA 240500Z 23003KT CAVOK 11/08 Q1016=
201909240530 METAR LRIA 240530Z 24003KT 200V270 CAVOK 12/07 Q1016=
201909240600 METAR LRIA 240600Z VRB02KT CAVOK 13/07 Q1016=
201909240630 METAR LRIA 240630Z VRB01KT CAVOK 14/07 Q1016=
201909240700 METAR LRIA 240700Z VRB01KT 9999 BKN017 15/08 Q1017=
201909240730 METAR LRIA 240730Z VRB02KT 9999 SCT020 SCT026 16/08 Q1016=
201909240800 METAR LRIA 240800Z VRB02KT 9999 SCT022 16/09 Q1016=
201909240830 METAR LRIA 240830Z VRB02KT 9999 SCT025 16/09 Q1016=
201909240900 METAR LRIA 240900Z VRB02KT CAVOK 17/10 Q1016=
201909240930 METAR LRIA 240930Z VRB03KT CAVOK 19/11 Q1016=
201909241000 METAR LRIA 241000Z 22004KT 170V320 CAVOK 20/11 Q1016=
201909241030 METAR LRIA 241030Z 17003KT 080V240 CAVOK 21/11 Q1015=
201909241100 METAR LRIA 241100Z VRB04KT CAVOK 22/11 Q1015=
201909241130 METAR LRIA 241130Z VRB05KT CAVOK 22/10 Q1015=
201909241200 METAR LRIA 241200Z VRB02KT CAVOK 22/09 Q1014=
201909241230 METAR LRIA 241230Z 11004KT 060V210 CAVOK 22/08 Q1014=
201909241300 METAR LRIA 241300Z 15007KT 110V180 CAVOK 22/07 Q1014=
201909241330 METAR LRIA 241330Z 12010KT CAVOK 23/08 Q1014=
201909241400 METAR COR LRIA 241400Z 14009KT CAVOK 23/08 Q1014=
201909241430 METAR LRIA 241430Z 15005KT 120V180 CAVOK 23/07 Q1014=
201909241500 METAR LRIA 241500Z 15006KT CAVOK 22/08 Q1014=
201909241530 METAR LRIA 241530Z 12007KT CAVOK 21/11 Q1014=
201909241600 METAR LRIA 241600Z 12010KT CAVOK 20/11 Q1014=
201909241630 METAR LRIA 241630Z 11010KT CAVOK 19/11 Q1014=
201909241700 METAR LRIA 241700Z 10010KT CAVOK 18/11 Q1014=
201909241730 METAR LRIA 241730Z 11011KT CAVOK 18/12 Q1014=
201909241800 METAR LRIA 241800Z 11009KT CAVOK 17/12 Q1014=
201909241830 METAR LRIA 241830Z 11010KT CAVOK 17/12 Q1014=
201909241900 METAR LRIA 241900Z 11008KT CAVOK 16/12 Q1014=
201909241930 METAR LRIA 241930Z 11010KT CAVOK 16/12 Q1014=
201909242000 METAR LRIA 242000Z 12010KT CAVOK 16/12 Q1014=
201909242030 METAR LRIA 242030Z 11007KT CAVOK 16/12 Q1014=
201909242100 METAR LRIA 242100Z 10007KT CAVOK 16/12 Q1014=
201909242130 METAR LRIA 242130Z 11008KT CAVOK 15/12 Q1014=
201909242200 METAR LRIA 242200Z 10008KT CAVOK 15/12 Q1014=
201909242230 METAR LRIA 242230Z 11007KT CAVOK 14/12 Q1014=
201909242300 METAR LRIA 242300Z 10007KT CAVOK 13/12 Q1015=
201909242330 METAR LRIA 242330Z 10007KT CAVOK 13/12 Q1015=
201909250000 METAR LRIA 250000Z 11008KT CAVOK 13/11 Q1014=
201909250030 METAR LRIA 250030Z 11008KT CAVOK 13/11 Q1014=
201909250100 METAR LRIA 250100Z 11007KT CAVOK 13/11 Q1015=
201909250130 METAR LRIA 250130Z 09006KT CAVOK 12/11 Q1015=
201909250200 METAR LRIA 250200Z 09005KT CAVOK 12/11 Q1014=
201909250230 METAR LRIA 250230Z 09007KT CAVOK 12/11 Q1015=
201909250300 METAR LRIA 250300Z 10007KT CAVOK 12/11 Q1015=
201909250330 METAR LRIA 250330Z 11005KT CAVOK 12/11 Q1015=
201909250400 METAR LRIA 250400Z 10006KT CAVOK 12/11 Q1015=
201909250430 METAR LRIA 250430Z 10008KT CAVOK 12/11 Q1015=
201909250500 METAR LRIA 250500Z 10008KT CAVOK 12/11 Q1015=
201909250530 METAR LRIA 250530Z 10007KT CAVOK 13/11 Q1014=
201909250600 METAR LRIA 250600Z 10006KT CAVOK 15/11 Q1015=
201909250630 METAR LRIA 250630Z 09008KT CAVOK 14/11 Q1015=
201909250700 METAR LRIA 250700Z 10008KT CAVOK 16/11 Q1015=
201909250730 METAR LRIA 250730Z 12007KT 080V150 CAVOK 18/12 Q1015=
201909250800 METAR LRIA 250800Z 18006KT 9999 FEW030 19/12 Q1015=
201909250830 METAR LRIA 250830Z 16007KT 120V190 9999 SCT026 20/12 Q1015=
201909250900 METAR LRIA 250900Z 12010KT 9999 SCT029 19/11 Q1015=
201909250930 METAR LRIA 250930Z 11010KT 090V170 9999 SCT035 20/11 Q1014=
201909251000 METAR LRIA 251000Z 15010KT 120V180 9999 BKN038 22/10 Q1014=
201909251030 METAR LRIA 251030Z 18009KT 160V220 9999 BKN041 22/09 Q1014=
201909251100 METAR LRIA 251100Z 16010KT 140V200 9999 SCT046 22/09 Q1014=
201909251130 METAR LRIA 251130Z 15010KT 9999 SCT048 22/09 Q1013=
201909251200 METAR LRIA 251200Z 16011KT 140V210 9999 SCT048 22/08 Q1013=
201909251230 METAR LRIA 251230Z 14013KT CAVOK 22/08 Q1013=
201909251300 METAR LRIA 251300Z 16011KT CAVOK 22/08 Q1013=
201909251330 METAR LRIA 251330Z 16009KT 140V200 CAVOK 22/08 Q1013=
201909251400 METAR LRIA 251400Z 16009KT CAVOK 22/08 Q1012=
201909251430 METAR LRIA 251430Z 16008KT CAVOK 22/08 Q1012=
201909251500 METAR LRIA 251500Z 17009KT CAVOK 21/08 Q1012=
201909251530 METAR LRIA 251530Z 15010KT CAVOK 21/09 Q1012=
201909251600 METAR LRIA 251600Z 14009KT CAVOK 20/09 Q1012=
201909251630 METAR LRIA 251630Z 14008KT CAVOK 20/09 Q1012=
201909251700 METAR LRIA 251700Z 14009KT CAVOK 20/09 Q1012=
201909251730 METAR LRIA 251730Z 17009KT CAVOK 19/11 Q1012=
201909251800 METAR LRIA 251800Z 17011KT 140V210 CAVOK 19/11 Q1013=
201909251830 METAR LRIA 251830Z 17008KT CAVOK 18/11 Q1013=
201909251900 METAR LRIA 251900Z 14009KT 9999 -RA NSC 18/11 Q1013=
201909251930 METAR LRIA 251930Z 13010KT 9999 -RA NSC 17/12 Q1012=
201909252000 METAR LRIA 252000Z 13010KT 9999 -RA NSC 17/12 Q1012=
201909252030 METAR LRIA 252030Z 12010KT 9999 SCT026 17/13 Q1012 R14/19//95=
201909252100 METAR LRIA 252100Z 14008KT 9999 FEW040 17/12 Q1012 R14/19//95=
201909252130 METAR LRIA 252130Z 13008KT CAVOK 17/12 Q1012 R14/19//95=
201909252200 METAR LRIA 252200Z 12009KT 9999 -RA FEW022 SCT028 16/13 Q1012
                        R14/19//95=
201909252230 METAR LRIA 252230Z 13007KT 9999 -RA FEW021 BKN029 16/13 Q1012
                        R14/19//95=
201909252300 METAR LRIA 252300Z 13007KT 110V170 9999 -RA FEW028 BKN040
                        16/13 Q1012 R14/19//95=
201909252330 METAR LRIA 252330Z 11008KT 9999 -RA FEW018 OVC041 15/14 Q1012
                        R14/19//95=
201909260000 METAR LRIA 260000Z 11007KT 9999 -RA FEW011 BKN034 15/14 Q1011
                        R14/19//95=
201909260030 METAR LRIA 260030Z 12006KT 9999 -RA FEW009 SCT012 BKN026
                        15/14 Q1011 R14/19//95=
201909260100 METAR LRIA 260100Z AUTO 14007KT 9999 -SHRA FEW009/// BKN012///
                        16/14 Q1011=
201909260130 METAR COR LRIA 260130Z 15005KT 9999 -RA SCT012 SCT016 16/15
                        Q1011 R14/19//95=
201909260200 METAR COR LRIA 260200Z 17007KT 9999 -RA FEW010 SCT044 16/15
                        Q1011 R14/19//95=
201909260230 METAR LRIA 260230Z 17007KT 120V200 9999 -RA FEW085 SCT025
                        16/14 Q1011 R14/29//95=
201909260300 METAR LRIA 260300Z 17008KT 9999 -RA BKN040 16/14 Q1011 R14/29//95=
201909260330 METAR LRIA 260330Z 18008KT 9999 -RA NSC 16/14 Q1011 R14/29//95=
201909260400 METAR LRIA 260400Z 18007KT 9999 -RA NSC 15/14 Q1011 R14/29//95=
201909260430 METAR LRIA 260430Z 17005KT 130V200 CAVOK 15/14 Q1011 RERA
                        R14/29//95=
201909260500 METAR LRIA 260500Z 17006KT 9999 -RA FEW015 16/14 Q1012 R14/29//95=
201909260530 METAR LRIA 260530Z 18006KT 140V210 9999 -RA FEW042 16/14
                        Q1012 R14/29//95=
201909260600 METAR LRIA 260600Z 19006KT 9999 SCT042 16/14 Q1012 R14/29//95=
201909260630 METAR LRIA 260630Z 18008KT 150V220 9999 BKN042 17/14 Q1012
                        R14/29//95=
201909260700 METAR LRIA 260700Z 17008KT 9999 BKN044 17/14 Q1012 R14/29//95=
201909260730 METAR LRIA 260730Z 17009KT 120V220 9999 FEW014 SCT044 18/14
                        Q1012 R14/29//95=
201909260800 METAR LRIA 260800Z 19008KT 160V230 9999 FEW015 18/14 Q1012
                        R14/29//95=
201909260830 METAR LRIA 260830Z 19009KT 160V220 9999 FEW016 19/14 Q1012
                        R14/19//95=
201909260900 METAR LRIA 260900Z 18011KT 150V210 9999 FEW018 19/14 Q1012
                        R14/19//95=
201909260930 METAR LRIA 260930Z 18009KT 150V220 9999 FEW014 20/14 Q1012
                        R14/19//95=
201909261000 METAR LRIA 261000Z 18010KT 150V220 9999 FEW023 20/14 Q1012
                        R14/CLRD//=
201909261030 METAR LRIA 261030Z 18009KT 140V220 9999 FEW028 21/14 Q1011=
201909261100 METAR LRIA 261100Z 18008KT 140V210 9999 FEW027 21/14 Q1011=
201909261130 METAR LRIA 261130Z 19006KT 150V220 9999 FEW028 21/13 Q1011=
201909261200 METAR LRIA 261200Z 16006KT 9999 FEW031 SCT041 21/13 Q1011=
201909261230 METAR LRIA 261230Z 17007KT 140V200 9999 FEW029 SCT042 21/14
                        Q1011=
201909261300 METAR LRIA 261300Z 16007KT 9999 SCT034 21/14 Q1011=
201909261330 METAR LRIA 261330Z 17007KT CAVOK 21/14 Q1011=
201909261400 METAR LRIA 261400Z 12011KT 9999 FEW024 20/15 Q1011=
201909261430 METAR LRIA 261430Z 11011KT 9999 FEW024 20/15 Q1011=
201909261500 METAR LRIA 261500Z 11010KT 9999 FEW033 19/15 Q1011=
201909261530 METAR LRIA 261530Z 10008KT CAVOK 19/15 Q1011=
201909261600 METAR LRIA 261600Z 11009KT 9999 FEW027 18/15 Q1011=
201909261630 METAR LRIA 261630Z 10008KT 9999 FEW027 18/15 Q1011=
201909261700 METAR LRIA 261700Z 11006KT 9999 FEW030 18/15 Q1011=
201909261730 METAR LRIA 261730Z 10006KT 9999 FEW033 17/15 Q1011=
201909261800 METAR LRIA 261800Z 09004KT 9999 FEW030 17/15 Q1012=
201909261830 METAR LRIA 261830Z 09004KT 9999 -RA SCT025 17/15 Q1011=
201909261900 METAR LRIA 261900Z 09003KT 9999 -RA SCT016 BKN022 17/15 Q1012=
201909261930 METAR LRIA 261930Z 13006KT 5000 SHRA SCT016 SCT038CB 16/16
                        Q1012 R14/29//95=
201909262000 METAR LRIA 262000Z 14005KT 070V190 4000 +SHRA SCT016 BKN033CB
                        16/16 Q1012 R14/29//95=
201909262030 METAR LRIA 262030Z 11005KT 5000 SHRA FEW018 SCT023 BKN033CB
                        16/16 Q1012 R14/29//95=
201909262100 METAR LRIA 262100Z 19002KT 7000 SHRA FEW019 SCT024 BKN032CB
                        16/15 Q1012 R14/29//95=
201909262130 METAR LRIA 262130Z 30004KT 7000 SHRA FEW018 BKN028 SCT033CB
                        15/15 Q1012 R14/29//95=
201909262200 METAR LRIA 262200Z 32004KT 9999 -SHRA FEW018 BKN028 FEW035CB
                        15/15 Q1012 RESHRA R14/29//95=
201909262230 METAR LRIA 262230Z 28003KT 9999 -SHRA FEW018 BKN029 FEW033CB
                        15/15 Q1012 R14/29//95=
201909262300 METAR LRIA 262300Z 33003KT 9999 -RA FEW017 BKN029 15/15 Q1012
                        R14/29//95=
201909262330 METAR LRIA 262330Z 31003KT 9999 -RA FEW018 SCT030 15/15 Q1012
                        R14/29//95=
201909270000 METAR LRIA 270000Z 32003KT 9999 -RA FEW019 SCT025 15/14 Q1012
                        R14/29//95=
201909270030 METAR LRIA 270030Z 32004KT 9999 -RA FEW004 BKN024 15/14 Q1012
                        R14/29//95=
201909270100 METAR LRIA 270100Z 32006KT 9999 -RA FEW005 BKN023 14/14 Q1012
                        R14/29//95=
201909270130 METAR LRIA 270130Z 32005KT 9999 -RA FEW012 BKN022 14/14 Q1012
                        R14/29//95=
201909270200 METAR LRIA 270200Z 32006KT 9999 -RA FEW012 BKN023 14/14 Q1012
                        R14/29//95=
201909270230 METAR LRIA 270230Z 31004KT 9999 -RA FEW015 BKN028 14/14 Q1012
                        R14/29//95=
201909270300 METAR LRIA 270300Z 32005KT 9999 -RA FEW015 BKN030 14/14 Q1013
                        R14/29//95=
201909270330 METAR LRIA 270330Z 31004KT 9999 -RA FEW003 SCT030 14/14 Q1013
                        R14/29//95=
201909270400 METAR LRIA 270400Z 31006KT 7000 -RA SCT005 BKN013 14/14 Q1013
                        R14/29//95=
201909270430 METAR LRIA 270430Z 32007KT 7000 -RA SCT004 BKN011 15/14 Q1013
                        R14/29//95=
201909270500 METAR LRIA 270500Z 33009KT 6000 -SHRA SCT003 BKN020 FEW030CB
                        15/14 Q1013 R14/29//95=
201909270530 METAR LRIA 270530Z 33012KT 6000 SHRA FEW003 FEW025CB BKN033
                        15/14 Q1013 R14/29//95=
201909270600 METAR LRIA 270600Z 34009KT 2500 +SHRA SCT003 FEW025CB BKN030
                        15/14 Q1014 R14/29//95=
201909270630 METAR LRIA 270630Z 33009KT 5000 -SHRA SCT003 BKN025 15/14
                        Q1014 R14/29//95=
201909270700 METAR COR LRIA 270700Z 33008KT 3800 -RA FEW003 BKN025 14/14
                        Q1015 R14/29//95=
201909270730 METAR LRIA 270730Z 33008KT 4600 -RA FEW008 OVC033 15/14 Q1015
                        R14/29//95=
201909270800 METAR LRIA 270800Z 31006KT 5000 FEW004 SCT009 OVC025 15/14
                        Q1015 R14/29//95=
201909270830 METAR LRIA 270830Z 31008KT 7000 -RA SCT005 BKN037 15/14 Q1015
                        R14/29//95=
201909270900 METAR LRIA 270900Z 30007KT 7000 FEW006 BKN043 15/14 Q1016
                        R14/29//95=
201909270930 METAR LRIA 270930Z 31007KT 9999 FEW007 BKN040 16/14 Q1016
                        R14/29//95=
201909271000 METAR LRIA 271000Z 32006KT 290V350 9999 FEW016 SCT021 17/14
                        Q1016 R14/29//95=
201909271030 METAR LRIA 271030Z 33006KT 280V350 9999 SCT016 18/14 Q1016
                        R14/29//95=
201909271100 METAR LRIA 271100Z 32007KT 290V030 9999 SCT016 18/13 Q1015
                        R14/29//95=
201909271130 METAR LRIA 271130Z 31008KT 280V340 9999 FEW019 19/13 Q1015
                        R14/29//95=
201909271200 METAR LRIA 271200Z 33008KT 9999 SCT022 19/13 Q1015 R14/19//95=
201909271230 METAR LRIA 271230Z 34008KT 310V010 9999 FEW025 20/13 Q1015
                        R14/19//95=
201909271300 METAR LRIA 271300Z 34008KT 9999 FEW022 20/12 Q1015 R14/19//95=
201909271330 METAR LRIA 271330Z 35009KT 9999 FEW030 20/12 Q1015 R14/19//95=
201909271400 METAR LRIA 271400Z 33007KT 9999 FEW033 19/12 Q1015 R14/CLRD//=
201909271430 METAR LRIA 271430Z 32006KT 9999 FEW047 19/13 Q1015 R14/CLRD//=
201909271500 METAR LRIA 271500Z 30005KT CAVOK 19/13 Q1016=
201909271530 METAR LRIA 271530Z 30003KT CAVOK 18/13 Q1016=
201909271600 METAR LRIA 271600Z 32003KT CAVOK 18/13 Q1016=
201909271630 METAR LRIA 271630Z 33003KT CAVOK 17/13 Q1016=
201909271700 METAR LRIA 271700Z 28003KT CAVOK 16/13 Q1016=
201909271730 METAR LRIA 271730Z 27003KT CAVOK 16/13 Q1016=
201909271800 METAR LRIA 271800Z 31004KT CAVOK 16/12 Q1017=
201909271830 METAR LRIA 271830Z 34004KT CAVOK 15/12 Q1017=
201909271900 METAR LRIA 271900Z VRB01KT CAVOK 14/12 Q1017=
201909271930 METAR LRIA 271930Z 29002KT CAVOK 14/13 Q1018=
201909272000 METAR LRIA 272000Z 30001KT CAVOK 13/12 Q1018=
201909272030 METAR LRIA 272030Z 26001KT CAVOK 13/12 Q1018=
201909272100 METAR LRIA 272100Z 30001KT CAVOK 13/13 Q1018=
201909272130 METAR LRIA 272130Z 03003KT CAVOK 12/11 Q1018=
201909272200 METAR LRIA 272200Z 32002KT CAVOK 12/11 Q1018=
201909272230 METAR LRIA 272230Z 32003KT CAVOK 12/11 Q1018=
201909272300 METAR LRIA 272300Z 32004KT CAVOK 11/10 Q1018=
201909272330 METAR LRIA 272330Z 32003KT CAVOK 11/11 Q1018=
201909280000 METAR LRIA 280000Z VRB02KT CAVOK 11/11 Q1018=
201909280030 METAR LRIA 280030Z 00000KT 9999 MIFG NSC 11/11 Q1018=
201909280100 METAR LRIA 280100Z 19001KT 8000 MIFG NSC 10/10 Q1018=
201909280130 METAR COR LRIA 280130Z 07001KT 7000 SCT005 10/10 Q1018=
201909280200 METAR LRIA 280200Z 07002KT 0800 R14/P2000D R32/1500D FG SCT002
                        10/10 Q1018=
201909280230 METAR LRIA 280230Z 00000KT 0150 R14/0400N R32/0400N FG VV001
                        09/09 Q1018=
201909280300 METAR LRIA 280300Z 00000KT 0100 R14/0225N R32/0450N FG VV001
                        10/10 Q1018=
201909280330 METAR LRIA 280330Z 16001KT 0100 R14/0300N R32/0400N FG VV001
                        11/11 Q1018=
201909280400 METAR LRIA 280400Z 10003KT 0100 R14/0300N R32/0150N FG VV001
                        11/11 Q1018=
201909280430 METAR LRIA 280430Z 10004KT 0100 R14/0250N R32/0300N FG VV001
                        10/10 Q1018=
201909280500 METAR LRIA 280500Z 10003KT 0100 R14/0250N R32/0400N FG VV001
                        11/11 Q1018=
201909280530 METAR LRIA 280530Z 10006KT 0100 R14/0250N R32/0300D FG VV001
                        11/11 Q1018=
201909280600 METAR LRIA 280600Z 10007KT 0100 R14/0325D R32/0400N FG VV001
                        12/12 Q1018=
201909280630 METAR LRIA 280630Z 11008KT 0500 R14/0600N R32/1000N FG VV001
                        12/12 Q1019=
201909280700 METAR LRIA 280700Z 11008KT 0800 R14/1200D R32/P2000 FG VV001
                        13/13 Q1019=
201909280730 METAR LRIA 280730Z 10008KT 7000 1500NW BCFG BKN001 13/13
                        Q1019=
201909280800 METAR LRIA 280800Z 10008KT 7000 FEW001 BKN002 14/14 Q1019=
201909280830 METAR LRIA 280830Z 10009KT 8000 FEW002 BKN005 14/14 Q1019=
201909280900 METAR LRIA 280900Z 10010KT 9999 SCT004 16/15 Q1018=
201909280930 METAR LRIA 280930Z 10010KT 9999 FEW008 16/14 Q1018=
201909281000 METAR LRIA 281000Z 11010KT 9999 FEW015 17/14 Q1018=
201909281030 METAR LRIA 281030Z 10010KT 9999 FEW020 19/14 Q1018=
201909281100 METAR LRIA 281100Z 11009KT 9999 FEW020 20/14 Q1018=
201909281130 METAR LRIA 281130Z 11011KT 9999 FEW033 20/15 Q1017=
201909281200 METAR LRIA 281200Z 11012KT 9999 FEW038 20/15 Q1017=
201909281230 METAR LRIA 281230Z 11011KT 9999 FEW045 20/15 Q1017=
201909281300 METAR LRIA 281300Z 11011KT CAVOK 21/15 Q1016=
201909281330 METAR LRIA 281330Z 12011KT CAVOK 20/15 Q1016=
201909281400 METAR LRIA 281400Z 11010KT CAVOK 20/15 Q1016=
201909281430 METAR LRIA 281430Z 12010KT CAVOK 20/15 Q1016=
201909281500 METAR LRIA 281500Z 11010KT CAVOK 19/15 Q1016=
201909281530 METAR LRIA 281530Z 11009KT CAVOK 19/15 Q1016=
201909281600 METAR LRIA 281600Z 11008KT CAVOK 18/15 Q1016=
201909281630 METAR LRIA 281630Z 09008KT CAVOK 18/15 Q1016=
201909281700 METAR LRIA 281700Z 10007KT CAVOK 17/15 Q1016=
201909281730 METAR LRIA 281730Z 10006KT CAVOK 17/15 Q1016=
201909281800 METAR LRIA 281800Z 10006KT CAVOK 17/14 Q1015=
201909281830 METAR LRIA 281830Z 10005KT 080V150 CAVOK 16/14 Q1015=
201909281900 METAR LRIA 281900Z 10006KT CAVOK 16/14 Q1015=
201909281930 METAR LRIA 281930Z 10006KT CAVOK 16/14 Q1015=
201909282000 METAR LRIA 282000Z 10006KT 080V140 CAVOK 16/13 Q1014=
201909282030 METAR LRIA 282030Z 10005KT CAVOK 16/13 Q1014=
201909282100 METAR LRIA 282100Z 10004KT 080V140 CAVOK 16/13 Q1014=
201909282130 METAR LRIA 282130Z 17006KT CAVOK 17/13 Q1014=
201909282200 METAR LRIA 282200Z 19006KT CAVOK 17/13 Q1013=
201909282230 METAR LRIA 282230Z 23003KT 180V300 9999 -RA FEW050CB 17/13
                        Q1014=
201909282300 METAR LRIA 282300Z 17003KT 140V200 9999 FEW050CB 16/13 Q1013
                        R14/19//95=
201909282330 METAR LRIA 282330Z 20003KT 160V250 9999 -SHRA FEW050CB 16/13
                        Q1013 R14/19//95=
201909290000 METAR LRIA 290000Z 23003KT 9999 FEW050CB 16/14 Q1013 R14/19//95=
201909290030 METAR LRIA 290030Z VRB02KT 9999 -SHRA FEW045CB 16/14 Q1013
                        R14/19//95=
201909290100 METAR LRIA 290100Z 30004KT 9999 -SHRA FEW045CB 15/14 Q1013
                        R14/19//95=
201909290130 METAR LRIA 290130Z 29004KT 9999 -RA FEW045CB 15/14 Q1013
                        R14/19//95=
201909290200 METAR LRIA 290200Z 27004KT 9999 -RA FEW012 FEW045CB 15/14
                        Q1014 R14/19//95=
201909290230 METAR COR LRIA 290230Z 31004KT 9999 FEW008 15/14 Q1014 R14/29//95=
201909290300 METAR LRIA 290300Z 24003KT 200V280 9999 FEW008 15/14 Q1014
                        R14/29//95=
201909290330 METAR LRIA 290330Z 28005KT 250V320 9999 -RA BKN048 15/14
                        Q1014 R14/29//95=
201909290400 METAR LRIA 290400Z 27005KT 9999 FEW048 15/14 Q1014 R14/29//95=
201909290430 METAR LRIA 290430Z 29006KT 9999 -RA FEW008 15/14 Q1015 R14/29//95=
201909290500 METAR LRIA 290500Z 29006KT 9999 FEW010 15/14 Q1015 R14/29//95=
201909290530 METAR LRIA 290530Z 29006KT 9999 FEW012 15/14 Q1015 R14/29//95=
201909290600 METAR LRIA 290600Z 30004KT 9999 FEW015 15/14 Q1015 R14/29//95=
201909290630 METAR LRIA 290630Z 30008KT 9999 FEW015 16/14 Q1015 R14/29//95=
201909290700 METAR LRIA 290700Z 30006KT 9999 FEW025 17/14 Q1015 R14/29//95=
201909290730 METAR LRIA 290730Z 30008KT 9999 FEW020 18/12 Q1015 R14/29//95=
201909290800 METAR LRIA 290800Z 29008KT 9999 FEW020 18/13 Q1015 R14/29//95=
201909290830 METAR LRIA 290830Z 29010KT 9999 FEW025 19/11 Q1015 R14/29//95=
201909290900 METAR LRIA 290900Z 30009KT 9999 FEW025 20/11 Q1015 R14/19//95=
201909290930 METAR LRIA 290930Z 30009KT 9999 FEW030 20/11 Q1015 R14/19//95=
201909291000 METAR LRIA 291000Z 31008KT 280V340 9999 FEW040 20/10 Q1015
                        R14/19//95=
201909291030 METAR LRIA 291030Z 29009KT 9999 FEW042 21/10 Q1015 R14/CLRD//=
201909291100 METAR LRIA 291100Z 30008KT 260V330 9999 FEW042 22/10 Q1015=
201909291130 METAR LRIA 291130Z 30009KT 9999 FEW042 21/10 Q1014=
201909291200 METAR LRIA 291200Z 32005KT 240V360 9999 FEW048 22/09 Q1014=
201909291230 METAR LRIA 291230Z 34009KT CAVOK 22/09 Q1014=
201909291300 METAR LRIA 291300Z 32006KT 290V350 CAVOK 22/09 Q1014=
201909291330 METAR LRIA 291330Z 31003KT 250V020 CAVOK 22/08 Q1014=
201909291400 METAR LRIA 291400Z 30003KT 270V340 CAVOK 21/09 Q1013=
201909291430 METAR LRIA 291430Z 35004KT CAVOK 21/10 Q1013=
201909291500 METAR LRIA 291500Z 34002KT CAVOK 21/10 Q1013=
201909291530 METAR LRIA 291530Z VRB01KT CAVOK 20/10 Q1013=
201909291600 METAR LRIA 291600Z 11003KT CAVOK 19/11 Q1013=
201909291630 METAR LRIA 291630Z 11003KT CAVOK 19/11 Q1013=
201909291700 METAR LRIA 291700Z 13004KT CAVOK 18/11 Q1013=
201909291730 METAR LRIA 291730Z 18004KT CAVOK 17/11 Q1013=
201909291800 METAR LRIA 291800Z 18003KT CAVOK 17/11 Q1013=
201909291830 METAR LRIA 291830Z 18003KT CAVOK 17/11 Q1013=
201909291900 METAR LRIA 291900Z 17004KT CAVOK 16/11 Q1013=
201909291930 METAR LRIA 291930Z 20003KT CAVOK 16/11 Q1013=
201909292000 METAR LRIA 292000Z VRB02KT CAVOK 16/11 Q1013=
201909292030 METAR LRIA 292030Z 13002KT CAVOK 15/11 Q1013=
201909292100 METAR LRIA 292100Z 21003KT 170V240 CAVOK 15/10 Q1012=
201909292130 METAR LRIA 292130Z 15003KT 110V170 CAVOK 15/10 Q1012=
201909292200 METAR LRIA 292200Z VRB01KT CAVOK 14/10 Q1012=
201909292230 METAR LRIA 292230Z 14002KT CAVOK 14/10 Q1012=
201909292300 METAR LRIA 292300Z VRB01KT CAVOK 14/10 Q1011=
201909292330 METAR LRIA 292330Z 07005KT CAVOK 13/10 Q1011=
201909300000 METAR LRIA 300000Z 07006KT CAVOK 13/10 Q1010=
201909300030 METAR LRIA 300030Z 09005KT CAVOK 13/10 Q1010=
201909300100 METAR LRIA 300100Z 10003KT CAVOK 13/10 Q1010=
201909300130 METAR LRIA 300130Z 08004KT CAVOK 13/10 Q1009=
201909300200 METAR LRIA 300200Z VRB01KT CAVOK 14/10 Q1009=
201909300230 METAR LRIA 300230Z 21004KT CAVOK 15/10 Q1009=
201909300300 METAR LRIA 300300Z 22003KT 200V260 CAVOK 15/11 Q1009=
201909300330 METAR LRIA 300330Z VRB01KT CAVOK 14/11 Q1009=
201909300400 METAR LRIA 300400Z 21004KT 190V250 CAVOK 15/11 Q1008=
201909300430 METAR LRIA 300430Z VRB02KT CAVOK 14/11 Q1008=
201909300500 METAR LRIA 300500Z 22003KT CAVOK 15/11 Q1008=
201909300530 METAR LRIA 300530Z 20004KT 170V230 CAVOK 16/12 Q1008=
201909300600 METAR LRIA 300600Z 14004KT 060V180 CAVOK 17/12 Q1008=
201909300630 METAR LRIA 300630Z VRB03KT CAVOK 19/12 Q1008=
201909300700 METAR LRIA 300700Z 19005KT 150V220 CAVOK 20/12 Q1008=
201909300730 METAR LRIA 300730Z 19007KT 150V220 CAVOK 21/12 Q1008=
201909300800 METAR LRIA 300800Z 20007KT CAVOK 22/12 Q1007=
201909300830 METAR LRIA 300830Z 19007KT 170V230 CAVOK 23/11 Q1007=
201909300900 METAR LRIA 300900Z 20007KT 160V220 CAVOK 24/11 Q1007=
201909300930 METAR LRIA 300930Z 19007KT 140V220 CAVOK 25/11 Q1007=
201909301000 METAR LRIA 301000Z 22006KT 200V260 CAVOK 25/11 Q1007=
201909301030 METAR LRIA 301030Z 22008KT 180V240 CAVOK 26/09 Q1007=
201909301100 METAR LRIA 301100Z 18006KT 120V250 CAVOK 26/09 Q1006=
201909301130 METAR LRIA 301130Z 22007KT 190V280 CAVOK 26/09 Q1006=
201909301200 METAR LRIA 301200Z 23004KT 190V280 CAVOK 26/10 Q1006=
201909301230 METAR LRIA 301230Z 19006KT 160V240 CAVOK 27/10 Q1005=
201909301300 METAR LRIA 301300Z 20004KT 150V260 CAVOK 27/09 Q1005=
201909301330 METAR LRIA 301330Z 20005KT 160V250 CAVOK 27/10 Q1004=
201909301400 METAR LRIA 301400Z 26007KT 230V290 CAVOK 26/09 Q1004=
201909301430 METAR LRIA 301430Z 24006KT CAVOK 26/09 Q1004=
201909301500 METAR LRIA 301500Z 22006KT CAVOK 25/10 Q1004=
201909301530 METAR LRIA 301530Z 21005KT 180V240 CAVOK 24/10 Q1003=
201909301600 METAR LRIA 301600Z 23004KT CAVOK 24/11 Q1004=
201909301630 METAR LRIA 301630Z 24004KT CAVOK 23/11 Q1004=
201909301700 METAR LRIA 301700Z 22004KT CAVOK 23/11 Q1004=
201909301730 METAR LRIA 301730Z 24004KT CAVOK 22/11 Q1004=
201909301800 METAR LRIA 301800Z 24006KT CAVOK 22/10 Q1004=
201909301830 METAR LRIA 301830Z 23004KT 200V260 CAVOK 21/10 Q1004=
201909301900 METAR LRIA 301900Z 23006KT CAVOK 21/10 Q1004=
201909301930 METAR LRIA 301930Z 24005KT CAVOK 21/10 Q1005=
201909302000 METAR LRIA 302000Z 24006KT CAVOK 21/10 Q1005=
201909302030 METAR LRIA 302030Z 22006KT CAVOK 21/10 Q1005=
201909302100 METAR COR LRIA 302100Z 24006KT 200V280 CAVOK 21/10 Q1005=
201909302130 METAR LRIA 302130Z 23006KT 200V270 CAVOK 21/10 Q1005=
201909302200 METAR LRIA 302200Z 33019G32KT CAVOK 18/09 Q1007=
201909302230 METAR LRIA 302230Z 33013KT CAVOK 17/09 Q1008=
201909302300 METAR LRIA 302300Z 33011KT CAVOK 16/09 Q1008=
201909302330 METAR LRIA 302330Z 32007KT CAVOK 16/08 Q1009=