201910010142 TAF AMD LRIA 010142Z 0101/0109 VRB04KT CAVOK
                      BECMG 0102/0104 32010KT=
201910010200 TAF LRIA 010200Z 0103/0112 32008KT CAVOK=
201910010500 TAF LRIA 010500Z 0106/0115 VRB04KT CAVOK
                      BECMG 0107/0109 32010KT
                      BECMG 0113/0115 21006KT=
201910010800 TAF LRIA 010800Z 0109/0118 32014KT CAVOK
                      BECMG 0114/0116 VRB04KT=
201910011100 TAF LRIA 011100Z 0112/0121 31010KT CAVOK
                      BECMG 0113/0115 VRB04KT=
201910011400 TAF LRIA 011400Z 0115/0124 VRB04KT CAVOK=
201910011700 TAF LRIA 011700Z 0118/0203 14006KT CAVOK=
201910012000 TAF LRIA 012000Z 0121/0206 14006KT CAVOK=
201910012300 TAF LRIA 012300Z 0200/0209 11006KT CAVOK
                      BECMG 0207/0209 18012KT=
201910020200 TAF LRIA 020200Z 0203/0212 08006KT CAVOK
                      BECMG 0207/0209 18012KT=
201910020500 TAF LRIA 020500Z 0206/0215 09006KT CAVOK
                      BECMG 0207/0209 18012KT=
201910020800 TAF LRIA 020800Z 0209/0218 16012KT CAVOK=
201910021100 TAF LRIA 021100Z 0212/0221 18010KT CAVOK=
201910021400 TAF LRIA 021400Z 0215/0224 18010KT CAVOK=
201910021700 TAF LRIA 021700Z 0218/0303 16010KT CAVOK=
201910022000 TAF LRIA 022000Z 0221/0306 16009KT CAVOK=
201910022300 TAF LRIA 022300Z 0300/0309 17007KT CAVOK=
201910030200 TAF LRIA 030200Z 0303/0312 13007KT CAVOK=
201910030500 TAF LRIA 030500Z 0306/0315 13008KT CAVOK
                      BECMG 0313/0315 34012KT=
201910030800 TAF LRIA 030800Z 0309/0318 16008KT CAVOK
                      BECMG 0312/0314 34012KT
                      TEMPO 0314/0318 VRB20G30KT 3000 TSRA BKN010
                       BKN025CB
                      PROB30 0314/0316 1500 +TSRA=
201910031100 TAF LRIA 031100Z 0312/0321 16008KT CAVOK
                      BECMG 0312/0314 34012KT 5000 SHRA BKN010
                       SCT025CB OVC030
                      PROB30 0314/0317 VRB20G30KT 3000 +TSRA=
201910031400 TAF LRIA 031400Z 0315/0324 32010KT 9999 BKN035
                      TEMPO 0315/0318 VRB20G30KT 3000 TSRA BKN005
                       BKN030CB
                      BECMG 0318/0320 5000 RA BKN010 OVC025=
201910031700 TAF LRIA 031700Z 0318/0403 32018KT 9999 BKN025
                      TEMPO 0318/0320 31020G30KT 5000 TSRA BKN010
                       SCT030CB BKN035=
201910032000 TAF LRIA 032000Z 0321/0406 32010KT 9999 BKN020
                      TEMPO 0402/0406 5000 RA BKN005 BKN025=
201910032300 TAF LRIA 032300Z 0400/0409 32010KT 9999 BKN015 BKN030
                      TEMPO 0404/0409 5000 RA BKN005 BKN025=
201910040200 TAF LRIA 040200Z 0403/0412 32010KT 9999 BKN015 BKN030
                      TEMPO 0404/0409 5000 RA BKN005 BKN025
                      BECMG 0409/0411 BKN030=
201910040500 TAF LRIA 040500Z 0406/0415 33012KT 9999 BKN015 BKN030
                      TEMPO 0406/0411 5000 RA BR BKN005 BKN025
                       BECMG 0411/0413 BKN030=
201910040800 TAF LRIA 040800Z 0409/0418 33010KT 9999 BKN015 BKN030
                      TEMPO 0409/0414 5000 RA BR BKN005 BKN025
                       BECMG 0414/0416 BKN030=
201910041100 TAF LRIA 041100Z 0412/0421 33008KT 5000 -RA BR BKN010 BKN030
                      TEMPO 0412/0416 3000 RA BR BKN005 BKN025
                       BECMG 0416/0418 9999 NSW SCT020 BKN035=
201910041400 TAF LRIA 041400Z 0415/0424 30008KT 9999 SCT040
                      TEMPO 0415/0417 5000 -RA BR BKN010 BKN025=
201910041700 TAF LRIA 041700Z 0418/0503 VRB04KT CAVOK
                      TEMPO 0500/0503 3000 BR BKN010=
201910042000 TAF LRIA 042000Z 0421/0506 VRB04KT 9999 BKN025=
201910042300 TAF LRIA 042300Z 0500/0509 VRB04KT CAVOK
                      TEMPO 0500/0504 3000 BR BKN010=
201910050200 TAF LRIA 050200Z 0503/0512 VRB04KT CAVOK=
201910050500 TAF LRIA 050500Z 0506/0515 VRB04KT 9999 FEW035=
201910050800 TAF LRIA 050800Z 0509/0518 VRB04KT CAVOK=
201910051100 TAF LRIA 051100Z 0512/0521 VRB04KT 9999 SCT035=
201910051400 TAF LRIA 051400Z 0515/0524 VRB04KT CAVOK=
201910051700 TAF LRIA 051700Z 0518/0603 VRB04KT CAVOK
                      BECMG 0523/0601 3000 BR BKN010
                      TEMPO 0601/0603 1500 BR BKN005 OVC020=
201910052000 TAF LRIA 052000Z 0521/0606 VRB04KT CAVOK
                      BECMG 0523/0601 3000 BR BKN010
                      TEMPO 0601/0605 1500 BR BKN005 OVC020=
201910052300 TAF LRIA 052300Z 0600/0609 VRB04KT 5000 BR BKN015
                      TEMPO 0601/0605 1500 BR BKN005 OVC020
                      PROB40 TEMPO 0601/0604 0600 FG VV002=
201910060200 TAF LRIA 060200Z 0603/0612 33006KT CAVOK
                      TEMPO 0603/0606 3000 BR
                      TEMPO 0606/0612 5000 -RA BR BKN010 BKN025=
201910060500 TAF LRIA 060500Z 0606/0615 VRB04KT CAVOK
                      PROB30 TEMPO 0606/0612 5000 -RA BR BKN010
                       BKN025=
201910060800 TAF LRIA 060800Z 0609/0618 VRB04KT CAVOK
                      PROB30 TEMPO 0609/0613 5000 -RA BR BKN010
                       BKN025
                      TEMPO 0616/0618 5000 -RA BR BKN015 BKN035=
201910061100 TAF LRIA 061100Z 0612/0621 VRB04KT CAVOK
                      TEMPO 0616/0621 5000 -RA BR BKN015 BKN035=
201910061400 TAF LRIA 061400Z 0615/0624 VRB04KT CAVOK
                      TEMPO 0615/0620 5000 -RA BKN015 BKN035=
201910061616 TAF AMD LRIA 061616Z 0616/0624 31010KT 9999 -RA SCT010 OVC040
                      TEMPO 0616/0619 3000 SHRA BKN007 SCT030CB
                       OVC035=
201910061700 TAF LRIA 061700Z 0618/0703 31008KT 9999 -RA SCT010 BKN040
                      TEMPO 0618/0620 3000 SHRA BKN007 SCT030CB
                       OVC035=
201910062000 TAF LRIA 062000Z 0621/0706 31007KT 9999 -RA SCT015 BKN030=
201910062300 TAF LRIA 062300Z 0700/0709 VRB04KT 9999 BKN035
                      PROB40 TEMPO 0700/0705 5000 BR BKN015 BKN030=
201910070200 TAF LRIA 070200Z 0703/0712 33007KT CAVOK
                      PROB40 TEMPO 0703/0705 5000 BR BKN015 BKN030=
201910070500 TAF LRIA 070500Z 0706/0715 33008KT CAVOK
                      PROB30 TEMPO 0710/0713 5000 -RA BR BKN010
                       OVC040=
201910070800 TAF LRIA 070800Z 0709/0718 33010KT 9999 BKN035
                      PROB30 TEMPO 0710/0713 5000 -RA BR BKN010
                       OVC040=
201910071100 TAF LRIA 071100Z 0712/0721 33008KT 9999 SCT040=
201910071400 TAF LRIA 071400Z 0715/0724 33008KT 9999 SCT040=
201910071700 TAF LRIA 071700Z 0718/0803 33006KT 9999 BKN045=
201910072000 TAF LRIA 072000Z 0721/0806 30005KT CAVOK=
201910072300 TAF LRIA 072300Z 0800/0809 32006KT CAVOK=
201910080200 TAF LRIA 080200Z 0803/0812 VRB03KT CAVOK
                      BECMG 0810/0812 20010KT=
201910080500 TAF LRIA 080500Z 0806/0815 VRB03KT CAVOK
                      BECMG 0807/0809 18010KT=
201910080800 TAF LRIA 080800Z 0809/0818 VRB03KT CAVOK
                      BECMG 0809/0811 18010KT=
201910081100 TAF LRIA 081100Z 0812/0821 18008KT 9999 SCT040=
201910081400 TAF LRIA 081400Z 0815/0824 16008KT 9999 SCT045=
201910081700 TAF LRIA 081700Z 0818/0903 15008KT CAVOK=
201910082000 TAF LRIA 082000Z 0821/0906 17008KT CAVOK=
201910082300 TAF LRIA 082300Z 0900/0909 17008KT CAVOK=
201910090200 TAF LRIA 090200Z 0903/0912 09006KT CAVOK=
201910090500 TAF LRIA 090500Z 0906/0915 VRB04KT CAVOK=
201910090800 TAF LRIA 090800Z 0909/0918 20008KT CAVOK=
201910091100 TAF LRIA 091100Z 0912/0921 VRB04KT CAVOK=
201910091400 TAF LRIA 091400Z 0915/0924 16008KT CAVOK=
201910091700 TAF LRIA 091700Z 0918/1003 16006KT CAVOK=
201910092000 TAF LRIA 092000Z 0921/1006 09006KT CAVOK
                      PROB40 TEMPO 1000/1006 3000 BR=
201910092300 TAF LRIA 092300Z 1000/1009 10006KT 7000 NSC
                      PROB40 TEMPO 1000/1006 3000 BR=
201910100200 TAF LRIA 100200Z 1003/1012 09006KT CAVOK
                      PROB40 TEMPO 1003/1006 3000 BR=
201910100500 TAF LRIA 100500Z 1006/1015 VRB04KT CAVOK=
201910100800 TAF LRIA 100800Z 1009/1018 VRB04KT CAVOK=
201910101100 TAF LRIA 101100Z 1012/1021 28008KT CAVOK
                      PROB40 TEMPO 1018/1021 5000 -RA BR BKN010
                       BKN040=
201910101400 TAF LRIA 101400Z 1015/1024 VRB04KT CAVOK
                      PROB40 TEMPO 1019/1022 5000 -RA BR BKN010
                       BKN040=
201910101700 TAF LRIA 101700Z 1018/1103 VRB04KT CAVOK
                      BECMG 1018/1020 30015KT 5000 -RA BR BKN015
                       BKN040
                      BECMG 1022/1024 VRB04KT 9999 NSW=
201910102000 TAF LRIA 102000Z 1021/1106 VRB04KT CAVOK
                      TEMPO 1021/1024 29012KT 5000 -RA SCT010 FEW040CB
                       BKN045=
201910102300 TAF LRIA 102300Z 1100/1109 30008KT 9999 SCT040=
201910110200 TAF LRIA 110200Z 1103/1112 24006KT CAVOK
                      BECMG 1106/1108 31010KT=
201910110500 TAF LRIA 110500Z 1106/1115 24006KT CAVOK
                      BECMG 1106/1108 31010KT=
201910110800 TAF LRIA 110800Z 1109/1118 32012KT CAVOK=
201910111100 TAF LRIA 111100Z 1112/1121 32012KT CAVOK
                      BECMG 1114/1116 VRB04KT=
201910111400 TAF LRIA 111400Z 1115/1124 VRB04KT CAVOK=
201910111700 TAF LRIA 111700Z 1118/1203 VRB04KT CAVOK=
201910112000 TAF LRIA 112000Z 1121/1206 VRB04KT CAVOK=
201910112300 TAF LRIA 112300Z 1200/1209 VRB04KT CAVOK=
201910120200 TAF LRIA 120200Z 1203/1212 VRB04KT CAVOK=
201910120500 TAF LRIA 120500Z 1206/1215 VRB04KT CAVOK=
201910120800 TAF LRIA 120800Z 1209/1218 VRB04KT CAVOK=
201910121100 TAF LRIA 121100Z 1212/1221 VRB04KT CAVOK=
201910121400 TAF LRIA 121400Z 1215/1224 17006KT CAVOK=
201910121700 TAF LRIA 121700Z 1218/1303 16006KT CAVOK
                      TEMPO 1301/1303 3000 BR=
201910122000 TAF LRIA 122000Z 1221/1306 08006KT CAVOK
                      TEMPO 1301/1306 3000 BR=
201910122300 TAF LRIA 122300Z 1300/1309 07008KT CAVOK
                      PROB30 TEMPO 1301/1305 3000 BR=
201910130200 TAF LRIA 130200Z 1303/1312 07008KT CAVOK=
201910130500 TAF LRIA 130500Z 1306/1315 08008KT CAVOK=
201910130800 TAF LRIA 130800Z 1309/1318 09006KT CAVOK=
201910131100 TAF LRIA 131100Z 1312/1321 VRB04KT CAVOK=
201910131400 TAF LRIA 131400Z 1315/1324 10005KT CAVOK=
201910131700 TAF LRIA 131700Z 1318/1403 09005KT CAVOK
                      PROB30 TEMPO 1400/1403 5000 BR=
201910132000 TAF LRIA 132000Z 1321/1406 VRB04KT CAVOK
                      PROB30 TEMPO 1400/1405 5000 BR=
201910132300 TAF LRIA 132300Z 1400/1409 VRB04KT CAVOK
                      PROB30 TEMPO 1401/1405 5000 BR=
201910140200 TAF LRIA 140200Z 1403/1412 08006KT CAVOK
                      PROB30 TEMPO 1403/1405 5000 BR=
201910140434 TAF AMD LRIA 140434Z 1404/1412 08006KT 0150 FG OVC001
                      BECMG 1405/1406 1500 BR BKN002
                      BECMG 1406/1408 CAVOK=
201910140500 TAF LRIA 140500Z 1406/1415 08005KT 0350 FG VV001
                      BECMG 1406/1407 1500 BR BKN002
                      BECMG 1407/1408 CAVOK=
201910140800 TAF LRIA 140800Z 1409/1418 09006KT CAVOK=
201910141100 TAF LRIA 141100Z 1412/1421 10006KT CAVOK=
201910141400 TAF LRIA 141400Z 1415/1424 VRB04KT CAVOK=
201910141700 TAF LRIA 141700Z 1418/1503 VRB04KT CAVOK
                      TEMPO 1501/1503 5000 BR=
201910142000 TAF LRIA 142000Z 1421/1506 09005KT CAVOK
                      BECMG 1500/1502 5000 BR
                      TEMPO 1503/1506 3000 BR=
201910142300 TAF LRIA 142300Z 1500/1509 09005KT CAVOK
                      BECMG 1500/1502 5000 BR
                      TEMPO 1503/1506 1500 BR BKN005
                      BECMG 1507/1509 9999 NSW=
201910150200 TAF LRIA 150200Z 1503/1512 09005KT 5000 BR NSC
                      TEMPO 1503/1506 1500 BR BKN005
                      BECMG 1507/1509 9999 NSW=
201910150241 TAF AMD LRIA 150241Z 1503/1512 09006KT 0350 FG BKN001
                      TEMPO 1504/1506 0800 BKN002
                      BECMG 1506/1508 1500 BR
                      BECMG 1508/1510 16010KT CAVOK=
201910150500 TAF LRIA 150500Z 1506/1515 09005KT 0100 FG VV001
                      BECMG 1506/1508 3000 BR SCT002
                      BECMG 1508/1510 CAVOK=
201910150800 TAF LRIA 150800Z 1509/1518 13008KT 9999 BKN010
                      BECMG 1509/1510 CAVOK=
201910151100 TAF LRIA 151100Z 1512/1521 13008KT CAVOK=
201910151400 TAF LRIA 151400Z 1515/1524 12008KT CAVOK
                      BECMG 1518/1520 3000 BR
                      BECMG 1521/1523 1500 BR BKN005=
201910151700 TAF LRIA 151700Z 1518/1603 12006KT CAVOK
                      BECMG 1519/1521 3000 BR
                      BECMG 1521/1523 1500 BR BKN005
                      TEMPO 1600/1603 0600 FG BKN002=
201910152000 TAF LRIA 152000Z 1521/1606 09006KT CAVOK
                      BECMG 1521/1523 3000 BR BKN010
                      TEMPO 1523/1605 0800 FG BKN002
                      PROB40 TEMPO 1600/1605 0350 FG BKN001=
201910152300 TAF LRIA 152300Z 1600/1609 12006KT CAVOK
                      BECMG 1600/1602 3000 BR
                      TEMPO 1602/1605 0600 FG BKN002
                      BECMG 1605/1607 5000 BKN010
                      BECMG 1607/1609 CAVOK=
201910160200 TAF LRIA 160200Z 1603/1612 12008KT 0350 FG VV002
                      TEMPO 1603/1605 0100 FG VV001
                      BECMG 1605/1607 1500 BR BKN005
                      BECMG 1607/1608 3000 NSC
                      BECMG 1608/1610 CAVOK=
201910160348 TAF AMD LRIA 160348Z 1603/1612 11006KT 3000 BR NSC
                      PROB40 TEMPO 1604/1606 0600 FG BKN001
                      BECMG 1606/1608 CAVOK=
201910160500 TAF LRIA 160500Z 1606/1615 VRB04KT 9999 SCT020
                      PROB30 TEMPO 1606/1607 3000 BR BKN010
                      BECMG 1608/1610 15010KT=
201910160800 TAF LRIA 160800Z 1609/1618 15008KT CAVOK=
201910161100 TAF LRIA 161100Z 1612/1621 13010KT CAVOK
                      BECMG 1614/1616 VRB04KT=
201910161400 TAF LRIA 161400Z 1615/1624 13010KT CAVOK
                      BECMG 1615/1617 VRB04KT=
201910161700 TAF LRIA 161700Z 1618/1703 13006KT CAVOK
                      BECMG 1620/1622 3000 BR BKN010
                      BECMG 1623/1701 0800 FG OVC002
                      TEMPO 1701/1703 0300 FG VV001=
201910162000 TAF LRIA 162000Z 1621/1706 13006KT CAVOK
                      BECMG 1622/1624 3000 BR BKN010
                      BECMG 1700/1702 0800 FG OVC002
                      PROB30 TEMPO 1702/1705 0300 FG VV001=
201910162300 TAF LRIA 162300Z 1700/1709 12006KT 5000 BR SCT015
                      BECMG 1700/1702 1500 BR BKN005
                      PROB30 TEMPO 1702/1706 0350 FG VV001
                      BECMG 1706/1708 3000 BR BKN010=
201910170200 TAF LRIA 170200Z 1703/1712 12006KT 5000 BR NSC
                      TEMPO 1703/1706 1500 BR BKN005
                      PROB40 TEMPO 1704/1706 0350 FG VV001
                      BECMG 1706/1708 CAVOK=
201910170315 TAF AMD LRIA 170315Z 1703/1712 VRB04KT 0150 FG VV001
                      BECMG 1705/1706 1500 BR BKN005
                      BECMG 1707/1709 CAVOK=
201910170500 TAF LRIA 170500Z 1706/1715 VRB04KT 0600 FG BKN001
                      TEMPO 1706/1707 0150 FG VV000
                      BECMG 1707/1709 1500 BR BKN002
                      BECMG 1709/1711 CAVOK=
201910170736 TAF AMD LRIA 170736Z 1707/1715 VRB04KT 0150 FG VV001
                      BECMG 1708/1709 0600
                      BECMG 1709/1710 1500 BR BKN002
                      BECMG 1710/1712 CAVOK=
201910170800 TAF LRIA 170800Z 1709/1718 VRB04KT 0600 FG VV002
                      TEMPO 1709/1710 0150 FG VV001
                      BECMG 1710/1712 3000 BR BKN005
                      BECMG 1712/1714 CAVOK=
201910171100 TAF LRIA 171100Z 1712/1721 VRB04KT CAVOK=
201910171400 TAF LRIA 171400Z 1715/1724 VRB04KT CAVOK
                      BECMG 1722/1724 5000 BR BKN010=
201910171700 TAF LRIA 171700Z 1718/1803 VRB04KT CAVOK
                      BECMG 1719/1721 3000 BR
                      BECMG 1721/1724 0600 FG BKN002
                      TEMPO 1800/1803 0150 FG VV001=
201910172000 TAF LRIA 172000Z 1721/1806 VRB04KT 3000 BR NSC
                      BECMG 1721/1724 0600 FG BKN002
                      TEMPO 1800/1805 0150 FG VV001=
201910172300 TAF LRIA 172300Z 1800/1809 VRB04KT 0350 FG VV001
                      TEMPO 1800/1805 0150 FG
                      BECMG 1805/1807 0800 BKN002
                      BECMG 1807/1809 3000 BR SCT010=
201910172304 TAF AMD LRIA 172304Z 1723/1806 VRB04KT 0350 FG BKN002
                      TEMPO 1723/1805 0150 FG VV001=
201910180200 TAF LRIA 180200Z 1803/1812 VRB04KT 0350 FG VV001
                      TEMPO 1803/1805 0150 FG
                      BECMG 1805/1807 0800 BKN002
                      BECMG 1807/1809 3000 BR SCT010
                      BECMG 1809/1811 CAVOK=
201910180500 TAF LRIA 180500Z 1806/1815 VRB04KT 0800 FG VV002
                      TEMPO 1806/1808 0150 FG VV001
                      BECMG 1808/1809 3000 BR SCT010
                      BECMG 1809/1811 CAVOK=
201910180800 TAF LRIA 180800Z 1809/1818 VRB04KT CAVOK=
201910181100 TAF LRIA 181100Z 1812/1821 VRB04KT CAVOK=
201910181400 TAF LRIA 181400Z 1815/1824 VRB04KT CAVOK
                      BECMG 1819/1821 3000 BR
                      TEMPO 1821/1824 0800 FG VV002=
201910181700 TAF LRIA 181700Z 1818/1903 VRB04KT CAVOK
                      BECMG 1819/1821 3000 BR
                      BECMG 1821/1823 1500 BR BKN002
                      TEMPO 1823/1903 0350 FG VV001=
201910182000 TAF LRIA 182000Z 1821/1906 VRB04KT CAVOK
                      BECMG 1822/1824 3000 BR
                      BECMG 1900/1902 1500 BR BKN002
                      PROB30 TEMPO 1902/1906 0600 FG VV001=
201910182300 TAF LRIA 182300Z 1900/1909 09008KT CAVOK
                      BECMG 1900/1902 3000 BR
                      PROB30 TEMPO 1902/1906 0600 FG VV002
                      BECMG 1906/1908 16010KT 9999 NSW=
201910190200 TAF LRIA 190200Z 1903/1912 09008KT 3000 BR SCT005
                      TEMPO 1903/1907 0600 FG BKN002
                      PROB40 TEMPO 1904/1906 0350 FG VV001
                      BECMG 1908/1910 16010KT CAVOK=
201910190426 TAF AMD LRIA 190426Z 1904/1912 08006KT 0150 FG VV001
                      BECMG 1905/1907 0600 FG BKN002
                      BECMG 1907/1908 1500 BR BKN005
                      BECMG 1908/1910 CAVOK=
201910190500 TAF LRIA 190500Z 1906/1915 08006KT 0150 FG VV001
                      BECMG 1906/1908 1500 BR BKN005
                      BECMG 1908/1909 CAVOK
                      TEMPO 1911/1914 18010KT=
201910190800 TAF LRIA 190800Z 1909/1918 10012KT 0350 FG VV001
                      BECMG 1909/1911 3000 BR BKN005
                      BECMG 1911/1912 18007KT CAVOK=
201910190802 TAF AMD LRIA 190802Z 1908/1915 10010KT 0150 FG VV001
                      BECMG 1908/1910 1500 BR BKN005
                      BECMG 1910/1911 18007KT CAVOK=
201910191100 TAF LRIA 191100Z 1912/1921 10014KT CAVOK
                      BECMG 1914/1916 VRB04KT=
201910191400 TAF LRIA 191400Z 1915/1924 10014KT CAVOK
                      BECMG 1916/1918 VRB04KT
                      BECMG 1919/1922 3000 BR
                      PROB40 TEMPO 1922/1924 0600 FG BKN002=
201910191700 TAF LRIA 191700Z 1918/2003 11006KT CAVOK
                      BECMG 1918/1920 3000 BR
                      TEMPO 1922/2003 0800 FG BKN002=
201910192000 TAF LRIA 192000Z 1921/2006 10006KT CAVOK
                      BECMG 1922/1924 3000 BR BKN010
                      PROB30 TEMPO 2001/2005 0600 FG VV002=
201910192300 TAF AMD LRIA 200015Z 2000/2009 10006KT 0300 FG VV001
                      BECMG 2005/2007 0800 VV002
                      BECMG 2007/2009 3000 BR BKN010=
201910200015 TAF AMD LRIA 200015Z 2000/2009 10006KT 0300 FG VV001
                      BECMG 2005/2007 0800 VV002
                      BECMG 2007/2009 3000 BR BKN010=
201910200200 TAF LRIA 200200Z 2003/2012 09008KT 0300 FG VV001
                      BECMG 2005/2007 0800 VV002
                      BECMG 2007/2009 3000 BR SCT010
                      BECMG 2009/2010 CAVOK=
201910200500 TAF LRIA 200500Z 2006/2015 09008KT 0600 FG VV002
                      TEMPO 2006/2008 0150 FG VV001
                      BECMG 2008/2009 1500 BR BKN005
                      BECMG 2009/2010 5000 BR BKN015=
201910200800 TAF LRIA 200800Z 2009/2018 09008KT 3000 BR BKN005
                      BECMG 2009/2011 5000 BR BKN015
                      BECMG 2011/2012 CAVOK=
201910201100 TAF LRIA 201100Z 2012/2021 12010KT CAVOK
                      BECMG 2014/2016 3000 BR BKN010
                      BECMG 2016/2018 VRB04KT 1500 BR BKN005=
201910201400 TAF LRIA 201400Z 2015/2024 12010KT CAVOK
                      BECMG 2015/2017 3000 BR BKN010
                      BECMG 2017/2019 VRB04KT 1500 BR BKN005=
201910201700 TAF LRIA 201700Z 2018/2103 10006KT 5000 BR NSC
                      BECMG 2019/2021 1500 BR BKN005
                      BECMG 2023/2101 0600 FG VV002=
201910202000 TAF LRIA 202000Z 2021/2106 10006KT 1500 BR NSC
                      BECMG 2021/2023 0600 FG BKN002
                      TEMPO 2101/2105 0150 FG=
201910202300 TAF LRIA 202300Z 2100/2109 10008KT 5000 BR NSC
                      BECMG 2100/2102 1500 BR BKN005
                      TEMPO 2102/2105 0600 FG BKN002
                      BECMG 2106/2108 5000 BKN015=
201910210200 TAF LRIA 210200Z 2103/2112 10008KT 1500 BR BKN005
                      TEMPO 2103/2106 0600 FG OVC002
                      BECMG 2106/2108 5000 BR SCT015
                      BECMG 2108/2110 CAVOK=
201910210336 TAF AMD LRIA 210336Z 2103/2112 10008KT 0150 BR VV001
                      BECMG 2105/2107 0600 FG OVC002
                      BECMG 2107/2109 3000 BR SCT015
                      BECMG 2109/2111 CAVOK=
201910210500 TAF LRIA 210500Z 2106/2115 10007KT 0350 FG VV001
                      BECMG 2107/2108 1500 BR BKN005
                      BECMG 2108/2109 17010KT 3000 SCT010
                      BECMG 2109/2111 CAVOK=
201910210800 TAF LRIA 210800Z 2109/2118 14008KT 9999 BKN010
                      BECMG 2110/2112 SCT015=
201910211100 TAF LRIA 211100Z 2112/2121 13008KT CAVOK
                      BECMG 2118/2120 3000 BR BKN010=
201910211400 TAF LRIA 211400Z 2115/2124 11010KT CAVOK
                      BECMG 2118/2120 VRB04KT 3000 BR BKN010
                      BECMG 2121/2123 0800 FG BKN002=
201910211700 TAF LRIA 211700Z 2118/2203 10010KT CAVOK
                      BECMG 2118/2120 VRB04KT 5000 BR BKN010
                      BECMG 2120/2122 1500 BR BKN005
                      BECMG 2122/2124 0600 FG OVC002
                      TEMPO 2200/2203 0150 FG VV001=
201910212000 TAF LRIA 212000Z 2121/2206 10006KT 7000 NSC
                      BECMG 2121/2123 3000 BR BKN010
                      BECMG 2123/2201 0800 FG BKN002
                      TEMPO 2201/2203 0350 FG VV001=
201910212300 TAF AMD LRIA 220210Z 2202/2209 10006KT 0150 FG VV001
                      TEMPO 2202/2205 0600 FG BKN002
                      BECMG 2205/2207 1500 BR SCT010
                      BECMG 2207/2209 CAVOK=
201910220200 TAF LRIA 220200Z 2203/2212 10006KT 0150 FG VV002
                      TEMPO 2203/2205 0600 BKN005
                      BECMG 2205/2207 0800 BKN010
                      BECMG 2207/2209 3000 BR SCT015
                      BECMG 2209/2210 CAVOK=
201910220210 TAF AMD LRIA 220210Z 2202/2209 10006KT 0150 FG VV001
                      TEMPO 2202/2205 0600 FG BKN002
                      BECMG 2205/2207 1500 BR SCT010
                      BECMG 2207/2209 CAVOK=
201910220500 TAF LRIA 220500Z 2206/2215 10006KT 0150 FG VV001
                      BECMG 2206/2207 0600 VV002
                      BECMG 2207/2209 3000 BR SCT015
                      BECMG 2209/2210 CAVOK=
201910220800 TAF LRIA 220800Z 2209/2218 VRB04KT 3000 BR BKN002
                      TEMPO 2209/2210 1500 BR OVC001
                      BECMG 2210/2211 5000 BKN007
                      BECMG 2211/2212 9999 NSW BKN015
                      BECMG 2212/2214 SCT020=
201910221100 TAF LRIA 221100Z 2212/2221 VRB04KT 5000 BR BKN002
                      BECMG 2212/2214 9999 NSW BKN005
                      TEMPO 2214/2217 SCT005
                      BECMG 2217/2219 3000 BR BKN002
                      BECMG 2219/2221 0350 FG VV001=
201910221400 TAF LRIA 221400Z 2215/2224 12004KT 9999 BKN005
                      TEMPO 2215/2217 BKN010
                      BECMG 2217/2219 3000 BR
                      BECMG 2219/2221 0800 FG BKN002
                      TEMPO 2221/2224 0150 FG VV001=
201910221700 TAF LRIA 221700Z 2218/2303 10005KT 5000 BR OVC005
                      BECMG 2218/2220 3000 BR
                      BECMG 2220/2223 0800 FG OVC002
                      TEMPO 2300/2303 0150 FG VV001=
201910222000 TAF LRIA 222000Z 2221/2306 12005KT 3000 BR SCT002 OVC005
                      BECMG 2221/2223 1500 BR
                      BECMG 2223/2301 0600 FG OVC002
                      TEMPO 2301/2306 0150 FG VV001=
201910222300 TAF LRIA 222300Z 2300/2309 12005KT 3000 BR SCT002 OVC005
                      TEMPO 2300/2306 1500 BR OVC002
                      PROB30 TEMPO 2303/2306 0600 FG VV001
                      BECMG 2307/2309 8000 NSW SCT005 BKN010=
201910230200 TAF LRIA 230200Z 2303/2312 VRB04KT 2000 BR OVC002
                      TEMPO 2303/2306 0600 FG OVC001
                      BECMG 2307/2309 8000 NSW SCT005 BKN010=
201910230500 TAF LRIA 230500Z 2306/2315 VRB04KT 0600 FG VV001
                      BECMG 2306/2308 1500 BR OVC002
                      BECMG 2309/2311 5000 BKN005=
201910230800 TAF LRIA 230800Z 2309/2318 VRB04KT 3000 BR OVC002
                      TEMPO 2310/2315 5000 BKN010
                      BECMG 2315/2317 1500 BR=
201910231100 TAF LRIA 231100Z 2312/2321 VRB04KT 5000 BR OVC005
                      PROB30 TEMPO 2312/2315 BKN010
                      BECMG 2315/2317 1500 BR OVC002
                      BECMG 2317/2319 0600 FG VV001=
201910231400 TAF LRIA 231400Z 2315/2324 VRB04KT 5000 BR OVC005
                      BECMG 2315/2317 1500 BR OVC002
                      BECMG 2317/2319 0600 FG VV001
                      BECMG 2319/2321 0100 FG=
201910231700 TAF LRIA 231700Z 2318/2403 VRB04KT 7000 OVC005
                      BECMG 2318/2319 5000 BR
                      BECMG 2319/2320 1500 BR BKN002
                      BECMG 2320/2322 0150 FG VV001=
201910232000 TAF LRIA 232000Z 2321/2406 VRB04KT 7000 OVC005
                      BECMG 2321/2322 5000 BR
                      BECMG 2322/2323 1500 BR BKN002
                      BECMG 2323/2324 0150 FG VV001=
201910232300 TAF LRIA 232300Z 2400/2409 VRB04KT 5000 BR OVC002
                      BECMG 2400/2401 1500 BR
                      BECMG 2401/2402 0150 FG VV001
                      BECMG 2407/2408 3000 BR BKN005
                      BECMG 2408/2409 5000 SCT005=
201910240200 TAF LRIA 240200Z 2403/2412 VRB04KT 0600 FG OVC001
                      TEMPO 2403/2406 0150 FG
                      BECMG 2406/2408 3000 BR OVC002
                      BECMG 2408/2410 5000 BKN005
                      PROB30 TEMPO 2410/2412 9999 NSW BKN010=
201910240438 TAF AMD LRIA 240438Z 2404/2412 VRB04KT 1500 BR OVC002
                      TEMPO 2405/2407 0600 FG OVC001
                      BECMG 2407/2409 5000 OVC005
                      TEMPO 2410/2412 9999 NSW BKN010=
201910240500 TAF LRIA 240500Z 2406/2415 VRB04KT 1500 BR OVC002
                      TEMPO 2406/2407 0600 FG OVC001
                      BECMG 2407/2409 5000 OVC005
                      BECMG 2410/2412 9999 NSW SCT015=
201910240800 TAF LRIA 240800Z 2409/2418 VRB04KT 9999 OVC005
                      BECMG 2409/2411 BKN010
                      BECMG 2411/2413 SCT015=
201910241100 TAF LRIA 241100Z 2412/2421 VRB04KT 9999 SCT015
                      BECMG 2418/2420 5000 BR BKN005=
201910241400 TAF LRIA 241400Z 2415/2424 10008KT CAVOK
                      BECMG 2417/2419 3000 BR BKN005
                      BECMG 2419/2421 1500 BR OVC002
                      BECMG 2421/2423 0600 FG OVC001=
201910241632 TAF AMD LRIA 241632Z 2416/2424 10008KT 5000 BR BKN002
                      BECMG 2416/2418 1500 BR OVC001
                      BECMG 2418/2420 0600 FG=
201910241700 TAF LRIA 241700Z 2418/2503 10008KT 3000 BR BKN001
                      BECMG 2419/2421 0600 FG
                      BECMG 2421/2423 0350 FG VV000=
201910242000 TAF LRIA 242000Z 2421/2506 VRB04KT 3000 BR OVC003
                      BECMG 2422/2424 1500 BR OVC002
                      TEMPO 2500/2506 0600 FG
                      PROB40 2502/2506 0350 FG VV000=
201910242300 TAF LRIA 242300Z 2500/2509 VRB04KT 5000 BR OVC005
                      TEMPO 2501/2506 1500 FG OVC002
                      PROB40 2502/2505 0600 FG VV001
                      BECMG 2507/2509 9999 NSW SCT015=
201910250200 TAF LRIA 250200Z 2503/2512 VRB04KT 5000 BR OVC005
                      TEMPO 2503/2506 1500 FG OVC002
                      PROB40 2503/2505 0600 FG VV001
                      BECMG 2507/2509 9999 NSW SCT015=
201910250500 TAF LRIA 250500Z 2506/2515 13006KT 3000 BR OVC003
                      BECMG 2506/2508 5000 OVC007
                      BECMG 2509/2511 9999 NSW BKN015=
201910250800 TAF LRIA 250800Z 2509/2518 13006KT 8000 OVC003
                      BECMG 2510/2512 BKN010=
201910251100 TAF LRIA 251100Z 2512/2521 VRB04KT 5000 BR OVC005
                      TEMPO 2512/2515 7000 NSW BKN010
                      BECMG 2516/2518 1500 BR OVC002
                      BECMG 2518/2520 0350 FG OVC001=
201910251400 TAF LRIA 251400Z 2515/2524 VRB04KT 7000 BKN005 OVC010
                      BECMG 2515/2517 3000 BR OVC002
                      BECMG 2518/2520 0600 FG OVC001
                      TEMPO 2520/2524 0200 FG=
201910251700 TAF LRIA 251700Z 2518/2603 VRB04KT 5000 BR BKN005
                      BECMG 2519/2521 1500 BR OVC002
                      TEMPO 2600/2603 0600 FG OVC001=
201910252000 TAF LRIA 252000Z 2521/2606 VRB04KT 5000 -DZ BR OVC010
                      BECMG 2522/2524 1500 -DZ BR OVC005
                      TEMPO 2602/2606 0600 FG OVC002=
201910252300 TAF LRIA 252300Z 2600/2609 VRB04KT 5000 BR OVC010
                      TEMPO 2601/2606 1500 BR OVC005
                      PROB30 TEMPO 2603/2606 0600 FG OVC002=
201910260200 TAF LRIA 260200Z 2603/2612 VRB04KT 7000 OVC010
                      TEMPO 2603/2607 3000 BR OVC005
                      PROB30 TEMPO 2603/2606 0800 FG OVC002
                      BECMG 2609/2611 CAVOK=
201910260500 TAF LRIA 260500Z 2606/2615 VRB04KT 3000 BR OVC003
                      PROB30 TEMPO 2606/2607 0800 FG OVC002
                      BECMG 2607/2609 7000 NSW BKN010
                      TEMPO 2609/2615 BKN015=
201910260800 TAF LRIA 260800Z 2609/2618 VRB04KT 5000 BR OVC005
                      PROB30 TEMPO 2609/2610 3000 BR OVC002
                      BECMG 2610/2612 8000 NSW BKN010
                      TEMPO 2612/2615 BKN015=
201910261100 TAF LRIA 261100Z 2612/2621 VRB04KT CAVOK
                      PROB30 TEMPO 2612/2614 BKN010
                      BECMG 2615/2617 5000 BR
                      BECMG 2617/2619 3000 BR
                      BECMG 2619/2621 0800 FG BKN002=
201910261400 TAF LRIA 261400Z 2615/2624 VRB04KT 5000 BR NSC
                      BECMG 2615/2617 3000 BR
                      BECMG 2617/2619 1500 BR BKN005
                      BECMG 2619/2621 0800 FG BKN002
                      TEMPO 2621/2624 0350 FG OVC001=
201910261700 TAF LRIA 261700Z 2618/2703 VRB04KT 3000 BR NSC
                      BECMG 2618/2619 1500 BR OVC005
                      BECMG 2619/2621 0600 FG OVC002
                      TEMPO 2621/2703 0300 FG OVC001=
201910262000 TAF LRIA 262000Z 2621/2706 VRB04KT 0300 FG VV001
                      PROB30 TEMPO 2622/2702 0600 FG OVC002=
201910262300 TAF LRIA 262300Z 2700/2709 VRB04KT 0150 FG VV001
                      PROB30 TEMPO 2700/2702 0600 OVC002
                      BECMG 2707/2709 0800 OVC002=
201910270200 TAF LRIA 270200Z 2703/2712 VRB04KT 0200 FG VV001
                      BECMG 2707/2709 0800 OVC002
                      BECMG 2709/2710 3000 BR BKN005
                      BECMG 2710/2712 CAVOK=
201910270500 TAF LRIA 270500Z 2706/2715 VRB04KT 0300 FG VV001
                      BECMG 2707/2709 0800 OVC002
                      BECMG 2709/2710 3000 BR BKN005
                      BECMG 2710/2712 CAVOK=
201910270643 TAF AMD LRIA 270643Z 2706/2715 16006KT 3000 BR OVC002
                      BECMG 2707/2709 9999 BKN025=
201910270800 TAF LRIA 270800Z 2709/2718 16006KT 9999 BKN015
                      TEMPO 2709/2711 5000 BR OVC005=
201910271100 TAF LRIA 271100Z 2712/2721 16006KT 9999 BKN010
                      BECMG 2717/2719 5000 BR BKN015
                      BECMG 2719/2721 1500 BR BKN005=
201910271400 TAF LRIA 271400Z 2715/2724 16006KT 9999 SCT015
                      BECMG 2718/2720 3000 BR BKN010
                      BECMG 2720/2722 1500 BR BKN005=
201910271700 TAF LRIA 271700Z 2718/2803 12005KT 1500 BR NSC
                      BECMG 2719/2721 0350 FG OVC001=
201910272000 TAF LRIA 272000Z 2721/2806 VRB04KT 5000 BR BKN005
                      BECMG 2721/2723 1500 BR OVC002
                      BECMG 2723/2801 0600 FG OVC001
                      TEMPO 2801/2806 0300 FG=
201910272300 TAF LRIA 272300Z 2800/2809 VRB04KT 5000 BR BKN005
                      TEMPO 2801/2806 0800 FG BKN002=
201910280200 TAF LRIA 280200Z 2803/2812 VRB04KT 3000 BR BKN002
                      TEMPO 2803/2806 0800 FG VV001
                      BECMG 2806/2808 9999 NSW BKN010
                      BECMG 2808/2810 CAVOK=
201910280500 TAF LRIA 280500Z 2806/2815 VRB04KT 0800 FG OVC002
                      TEMPO 2806/2808 0350 FG OVC001
                      BECMG 2808/2810 3000 BR OVC005
                      BECMG 2810/2812 9999 NSW BKN010=
201910280800 TAF LRIA 280800Z 2809/2818 VRB04KT 1500 BR VV001
                      BECMG 2809/2811 3000 BR OVC005
                      BECMG 2811/2812 9999 NSW SCT015
                      BECMG 2816/2818 5000 BR=
201910281100 TAF LRIA 281100Z 2812/2821 VRB04KT 8000 SCT015
                      BECMG 2815/2817 5000 BR
                      BECMG 2819/2821 3000 BR BKN015 BKN035=
201910281400 TAF LRIA 281400Z 2815/2824 VRB04KT 8000 SCT015
                      BECMG 2815/2817 5000 BR
                      BECMG 2819/2821 3000 BR BKN015 BKN035
                      TEMPO 2821/2824 1500 -RADZ BKN010 BKN030=
201910281700 TAF LRIA 281700Z 2818/2903 VRB04KT 5000 BR NSC
                      BECMG 2818/2820 3000 BR BKN010 BKN035
                      TEMPO 2821/2903 1500 -RADZ BKN005 BKN030=
201910282000 TAF LRIA 282000Z 2821/2906 32006KT 5000 BR BKN035
                      BECMG 2821/2823 3000 RA BKN010 OVC030
                      TEMPO 2823/2903 1500 RA BR BKN005 OVC025=
201910282300 TAF AMD LRIA 290138Z 2901/2909 32008KT 9999 BKN010 OVC030
                      TEMPO 2901/2905 3000 DZ BKN002 OVC020=
201910290138 TAF AMD LRIA 290138Z 2901/2909 32008KT 9999 BKN010 OVC030
                      TEMPO 2901/2905 3000 DZ BKN002 OVC020=
201910290200 TAF LRIA 290200Z 2903/2912 32008KT 9999 BKN015 OVC030
                      TEMPO 2903/2907 3000 RA BKN005 OVC025=
201910290500 TAF LRIA 290500Z 2906/2915 32008KT 9999 SCT010 OVC020
                      TEMPO 2906/2910 5000 -RA SCT005 OVC015=
201910290800 TAF LRIA 290800Z 2909/2918 34006KT 9999 SCT010 OVC020
                      TEMPO 2909/2911 5000 -RA SCT005 OVC015=
201910291100 TAF LRIA 291100Z 2912/2921 34006KT 9999 SCT010 OVC035=
201910291400 TAF LRIA 291400Z 2915/2924 VRB04KT 9999 SCT015 OVC035
                      BECMG 2920/2922 32010KT=
201910291700 TAF LRIA 291700Z 2918/3003 32008KT 9999 OVC035
                      PROB30 TEMPO 2918/2922 5000 -RA BR BKN015
                       BKN030=
201910292000 TAF LRIA 292000Z 2921/3006 32008KT 9999 OVC045
                      TEMPO 2921/2923 5000 -RA BR BKN015 BKN030=
201910292300 TAF LRIA 292300Z 3000/3009 31008KT 9999 BKN045
                      TEMPO 3004/3007 5000 -RA BR BKN015 BKN030=
201910300200 TAF LRIA 300200Z 3003/3012 31008KT CAVOK
                      TEMPO 3004/3007 BKN015 BKN030=
201910300500 TAF LRIA 300500Z 3006/3015 33008KT CAVOK=
201910300800 TAF LRIA 300800Z 3009/3018 34010KT 9999 BKN035=
201910301100 TAF LRIA 301100Z 3012/3021 30008KT 9999 BKN035=
201910301400 TAF LRIA 301400Z 3015/3024 34006KT 9999 BKN045=
201910301700 TAF LRIA 301700Z 3018/3103 VRB04KT CAVOK
                      PROB30 TEMPO 3020/3024 5000 -RA BR=
201910302000 TAF LRIA 302000Z 3021/3106 VRB04KT CAVOK
                      PROB30 TEMPO 3021/3024 5000 -RA BR=
201910302300 TAF LRIA 302300Z 3100/3109 34006KT CAVOK=
201910310200 TAF LRIA 310200Z 3103/3112 35007KT CAVOK=
201910310500 TAF LRIA 310500Z 3106/3115 VRB04KT CAVOK=
201910310800 TAF LRIA 310800Z 3109/3118 32006KT CAVOK=
201910311100 TAF LRIA 311100Z 3112/3121 32006KT CAVOK=
201910311400 TAF LRIA 311400Z 3115/3124 03006KT CAVOK=
201910311700 TAF LRIA 311700Z 3118/0103 VRB04KT CAVOK=
201910312000 TAF LRIA 312000Z 3121/0106 VRB04KT CAVOK=
201910312300 TAF LRIA 312300Z 0100/0109 VRB04KT CAVOK=
