201910010000 METAR LRIA 010000Z 32007KT CAVOK 15/08 Q1009=
201910010030 METAR COR LRIA 010030Z 31003KT CAVOK 15/08 Q1009=
201910010100 METAR COR LRIA 010100Z 29002KT CAVOK 14/08 Q1010=
201910010130 METAR LRIA 010130Z VRB02KT CAVOK 14/08 Q1010=
201910010200 METAR LRIA 010200Z VRB02KT CAVOK 14/08 Q1010=
201910010230 METAR COR LRIA 010230Z 30003KT CAVOK 13/08 Q1011=
201910010300 METAR LRIA 010300Z VRB02KT CAVOK 13/08 Q1011=
201910010330 METAR LRIA 010330Z VRB01KT CAVOK 13/08 Q1011=
201910010400 METAR LRIA 010400Z 29005KT 260V320 CAVOK 12/08 Q1011=
201910010430 METAR LRIA 010430Z 27004KT CAVOK 12/08 Q1012=
201910010500 METAR LRIA 010500Z 30001KT CAVOK 13/08 Q1012=
201910010530 METAR LRIA 010530Z VRB01KT CAVOK 14/08 Q1013=
201910010600 METAR LRIA 010600Z 31008KT CAVOK 15/08 Q1013=
201910010630 METAR LRIA 010630Z 32011KT CAVOK 17/07 Q1013=
201910010700 METAR LRIA 010700Z 32013KT CAVOK 17/07 Q1014=
201910010730 METAR LRIA 010730Z 32014KT CAVOK 18/06 Q1014=
201910010800 METAR LRIA 010800Z 32013KT CAVOK 19/06 Q1014=
201910010830 METAR LRIA 010830Z 32011KT CAVOK 19/06 Q1014=
201910010900 METAR LRIA 010900Z 28011KT CAVOK 19/05 Q1014=
201910010930 METAR LRIA 010930Z 30009KT CAVOK 20/05 Q1014=
201910011000 METAR LRIA 011000Z 28010KT CAVOK 20/05 Q1014=
201910011030 METAR LRIA 011030Z 34014KT CAVOK 20/05 Q1013=
201910011100 METAR LRIA 011100Z 31009KT CAVOK 21/04 Q1013=
201910011130 METAR LRIA 011130Z 30009KT CAVOK 21/05 Q1013=
201910011200 METAR LRIA 011200Z 33005KT 270V360 CAVOK 21/05 Q1013=
201910011230 METAR LRIA 011230Z 36005KT 310V040 CAVOK 21/04 Q1013=
201910011300 METAR LRIA 011300Z 27005KT 220V310 CAVOK 22/03 Q1013=
201910011330 METAR LRIA 011330Z VRB05KT CAVOK 22/03 Q1013=
201910011400 METAR LRIA 011400Z 18003KT CAVOK 22/03 Q1012=
201910011430 METAR LRIA 011430Z 19004KT 160V240 CAVOK 22/04 Q1012=
201910011500 METAR LRIA 011500Z 17002KT CAVOK 22/03 Q1012=
201910011530 METAR LRIA 011530Z 12006KT CAVOK 20/06 Q1012=
201910011600 METAR LRIA 011600Z 12007KT CAVOK 18/07 Q1012=
201910011630 METAR LRIA 011630Z 11006KT CAVOK 17/07 Q1012=
201910011700 METAR LRIA 011700Z 11006KT CAVOK 16/07 Q1012=
201910011730 METAR LRIA 011730Z 11008KT CAVOK 16/07 Q1012=
201910011800 METAR LRIA 011800Z 10008KT CAVOK 16/07 Q1012=
201910011830 METAR LRIA 011830Z 11006KT CAVOK 15/07 Q1012=
201910011900 METAR LRIA 011900Z VRB01KT CAVOK 15/06 Q1012=
201910011930 METAR LRIA 011930Z 20004KT CAVOK 16/07 Q1012=
201910012000 METAR LRIA 012000Z 18004KT CAVOK 15/07 Q1012=
201910012030 METAR LRIA 012030Z 19004KT CAVOK 15/07 Q1012=
201910012100 METAR LRIA 012100Z 17002KT CAVOK 15/07 Q1012=
201910012130 METAR LRIA 012130Z VRB01KT CAVOK 15/07 Q1012=
201910012200 METAR LRIA 012200Z 18003KT CAVOK 15/07 Q1012=
201910012230 METAR LRIA 012230Z VRB01KT CAVOK 14/07 Q1012=
201910012300 METAR LRIA 012300Z 08003KT CAVOK 13/07 Q1012=
201910012330 METAR LRIA 012330Z 10004KT 080V140 CAVOK 13/07 Q1011=
201910020000 METAR LRIA 020000Z 12005KT CAVOK 12/08 Q1011=
201910020030 METAR LRIA 020030Z 12003KT 100V180 CAVOK 13/08 Q1011=
201910020100 METAR LRIA 020100Z 10003KT 070V140 CAVOK 12/08 Q1011=
201910020130 METAR LRIA 020130Z 08005KT CAVOK 11/07 Q1011=
201910020200 METAR LRIA 020200Z 08007KT CAVOK 11/09 Q1010=
201910020230 METAR LRIA 020230Z 10007KT CAVOK 11/09 Q1010=
201910020300 METAR LRIA 020300Z 08006KT CAVOK 11/09 Q1010=
201910020330 METAR LRIA 020330Z 09007KT CAVOK 11/09 Q1010=
201910020400 METAR LRIA 020400Z 10007KT CAVOK 11/10 Q1010=
201910020430 METAR LRIA 020430Z 10006KT CAVOK 11/10 Q1010=
201910020500 METAR LRIA 020500Z 09006KT CAVOK 12/10 Q1010=
201910020530 METAR LRIA 020530Z 11007KT CAVOK 13/11 Q1010=
201910020600 METAR LRIA 020600Z 11008KT CAVOK 14/12 Q1010=
201910020630 METAR LRIA 020630Z 12009KT CAVOK 16/13 Q1010=
201910020700 METAR LRIA 020700Z 12006KT CAVOK 17/12 Q1010=
201910020730 METAR LRIA 020730Z 11009KT 090V150 CAVOK 18/13 Q1010=
201910020800 METAR LRIA 020800Z VRB04KT CAVOK 20/12 Q1010=
201910020830 METAR LRIA 020830Z 13007KT 070V170 CAVOK 21/13 Q1010=
201910020900 METAR LRIA 020900Z 14007KT CAVOK 22/14 Q1010=
201910020930 METAR LRIA 020930Z 19007KT 160V220 CAVOK 22/13 Q1010=
201910021000 METAR LRIA 021000Z 13009KT CAVOK 23/13 Q1009=
201910021030 METAR LRIA 021030Z 17009KT CAVOK 24/13 Q1009=
201910021100 METAR LRIA 021100Z 18008KT CAVOK 24/13 Q1009=
201910021130 METAR LRIA 021130Z 18008KT 140V200 CAVOK 25/12 Q1008=
201910021200 METAR LRIA 021200Z 16009KT CAVOK 25/13 Q1008=
201910021230 METAR LRIA 021230Z 17010KT CAVOK 26/13 Q1008=
201910021300 METAR LRIA 021300Z 16008KT 140V200 CAVOK 26/12 Q1007=
201910021330 METAR LRIA 021330Z 17011KT 140V210 CAVOK 26/12 Q1007=
201910021400 METAR LRIA 021400Z 17012KT CAVOK 26/12 Q1007=
201910021430 METAR LRIA 021430Z 17010KT 150V210 CAVOK 26/12 Q1007=
201910021500 METAR LRIA 021500Z 17008KT CAVOK 25/12 Q1007=
201910021530 METAR LRIA 021530Z 16007KT CAVOK 24/13 Q1007=
201910021600 METAR LRIA 021600Z 15011KT CAVOK 23/13 Q1007=
201910021630 METAR LRIA 021630Z 15010KT CAVOK 23/13 Q1007=
201910021700 METAR LRIA 021700Z 14010KT 120V180 CAVOK 22/12 Q1007=
201910021730 METAR LRIA 021730Z 10012KT CAVOK 21/11 Q1006=
201910021800 METAR LRIA 021800Z 09013KT 050V110 CAVOK 21/11 Q1007=
201910021830 METAR LRIA 021830Z 14008KT 100V160 CAVOK 20/11 Q1006=
201910021900 METAR LRIA 021900Z 14012KT 110V190 CAVOK 21/12 Q1006=
201910021930 METAR LRIA 021930Z 15010KT CAVOK 20/12 Q1006=
201910022000 METAR LRIA 022000Z 15006KT 130V190 CAVOK 20/12 Q1007=
201910022030 METAR LRIA 022030Z 15007KT 120V190 CAVOK 20/13 Q1006=
201910022100 METAR LRIA 022100Z 17006KT 140V210 CAVOK 20/13 Q1006=
201910022130 METAR LRIA 022130Z 16007KT 120V200 CAVOK 20/13 Q1006=
201910022200 METAR LRIA 022200Z 17007KT 140V200 CAVOK 20/13 Q1006=
201910022230 METAR LRIA 022230Z 17006KT CAVOK 19/13 Q1006=
201910022300 METAR LRIA 022300Z 16007KT 130V200 CAVOK 18/13 Q1006=
201910022330 METAR LRIA 022330Z 16007KT 150V210 CAVOK 18/13 Q1005=
201910030000 METAR LRIA 030000Z 18004KT 140V230 CAVOK 18/13 Q1005=
201910030030 METAR LRIA 030030Z 19006KT CAVOK 17/13 Q1005=
201910030100 METAR LRIA 030100Z 07003KT CAVOK 16/12 Q1005=
201910030130 METAR LRIA 030130Z 09006KT CAVOK 15/12 Q1005=
201910030200 METAR LRIA 030200Z 12006KT CAVOK 15/12 Q1005=
201910030230 METAR LRIA 030230Z 11006KT CAVOK 15/12 Q1005=
201910030300 METAR LRIA 030300Z 11007KT CAVOK 15/12 Q1004=
201910030330 METAR LRIA 030330Z 10006KT CAVOK 14/12 Q1004=
201910030400 METAR LRIA 030400Z 09005KT CAVOK 14/12 Q1005=
201910030430 METAR LRIA 030430Z 11007KT CAVOK 14/12 Q1005=
201910030500 METAR LRIA 030500Z 12005KT CAVOK 15/13 Q1005=
201910030530 METAR LRIA 030530Z 11008KT CAVOK 16/13 Q1005=
201910030600 METAR LRIA 030600Z 11009KT CAVOK 17/13 Q1005=
201910030630 METAR LRIA 030630Z 11008KT CAVOK 18/13 Q1005=
201910030700 METAR LRIA 030700Z 11007KT CAVOK 19/13 Q1006=
201910030730 METAR LRIA 030730Z 18003KT 130V290 CAVOK 20/13 Q1006=
201910030800 METAR LRIA 030800Z 19006KT CAVOK 22/14 Q1006=
201910030830 METAR LRIA 030830Z 18005KT 150V210 CAVOK 20/13 Q1005=
201910030900 METAR LRIA 030900Z 13004KT 100V190 CAVOK 21/14 Q1005=
201910030930 METAR LRIA 030930Z 11009KT CAVOK 21/14 Q1005=
201910031000 METAR LRIA 031000Z 13003KT 090V170 9999 FEW026 22/14 Q1005=
201910031030 METAR LRIA 031030Z VRB01KT 9999 FEW030 22/15 Q1005=
201910031100 METAR LRIA 031100Z VRB02KT CAVOK 24/15 Q1004=
201910031130 METAR LRIA 031130Z 15008KT 110V170 CAVOK 26/14 Q1004=
201910031200 METAR LRIA 031200Z 18007KT 140V220 9999 FEW048 26/14 Q1004=
201910031230 METAR LRIA 031230Z 19007KT 150V230 CAVOK 27/14 Q1004=
201910031300 METAR LRIA 031300Z 20007KT 160V240 CAVOK 27/13 Q1003=
201910031330 METAR LRIA 031330Z 19007KT 150V220 CAVOK 27/14 Q1003=
201910031400 METAR LRIA 031400Z 32009KT CAVOK 23/15 Q1004=
201910031430 METAR LRIA 031430Z 31015KT 9999 FEW050CB 19/12 Q1004=
201910031500 METAR LRIA 031500Z 31017G27KT 9999 FEW050CB 16/11 Q1005=
201910031530 METAR LRIA 031530Z 31020KT 9999 FEW018 FEW050CB 14/10 Q1007=
201910031600 METAR LRIA 031600Z 31014KT 9999 BKN025 FEW045CB 14/10 Q1007=
201910031630 METAR LRIA 031630Z 30017KT 9999 FEW014 BKN029 FEW045CB 13/10
                        Q1008=
201910031700 METAR COR LRIA 031700Z 29016KT 9999 -SHRA SCT015 BKN027 SCT040CB
                        13/10 Q1009 R14/29//95=
201910031730 METAR LRIA 031730Z 32015KT 290V350 8000 TSRA SCT015 SCT040CB
                        11/10 Q1008 R14/29//95=
201910031800 METAR LRIA 031800Z 31015KT 9999 -RA BKN008 11/10 Q1008 RETSRA
                        R14/29//95=
201910031830 METAR LRIA 031830Z 29009KT 270V330 9999 -RA BKN009 11/10
                        Q1009 R14/29//95=
201910031900 METAR LRIA 031900Z 30009KT 9999 BKN010 11/10 Q1010 R14/29//95=
201910031930 METAR LRIA 031930Z 31012KT 9999 OVC013 11/09 Q1010 R14/29//95=
201910032000 METAR LRIA 032000Z 31011KT 9999 OVC013 11/09 Q1010 R14/29//95=
201910032030 METAR LRIA 032030Z 30012KT 9999 OVC013 11/09 Q1010 R14/29//95=
201910032100 METAR LRIA 032100Z 31010KT 9999 OVC013 11/09 Q1011 R14/29//95=
201910032130 METAR LRIA 032130Z 31011KT 9999 OVC013 10/09 Q1011 R14/29//95=
201910032200 METAR LRIA 032200Z 30011KT 9999 OVC013 10/09 Q1011 R14/29//95=
201910032230 METAR LRIA 032230Z 31011KT 9999 -RA OVC013 10/08 Q1011 R14/29//95=
201910032300 METAR LRIA 032300Z 32010KT 9999 BKN013 BKN027 10/09 Q1011
                        R14/29//95=
201910032330 METAR LRIA 032330Z 31009KT 9999 BKN013 BKN025 10/08 Q1011
                        R14/29//95=
201910040000 METAR LRIA 040000Z 31010KT 9999 BKN013 OVC020 10/08 Q1011
                        R14/29//95=
201910040030 METAR LRIA 040030Z 31011KT 9999 OVC013 10/08 Q1011 R14/29//95=
201910040100 METAR LRIA 040100Z 32010KT 9999 OVC013 10/08 Q1011 R14/29//95=
201910040130 METAR LRIA 040130Z 32009KT 9999 OVC013 10/08 Q1011 R14/29//95=
201910040200 METAR LRIA 040200Z 30009KT 9999 -RA OVC012 09/08 Q1011 R14/29//95=
201910040230 METAR LRIA 040230Z 31009KT 9999 -RA OVC012 09/08 Q1011 R14/29//95=
201910040300 METAR COR LRIA 040300Z 31009KT 9999 - BKN012 09/08 Q1011
                        R14/29//95=
201910040330 METAR LRIA 040330Z 31009KT 9999 -RA FEW015 09/08 Q1012 R14/29//95=
201910040400 METAR LRIA 040400Z 31009KT 9999 -RA SCT013 08/07 Q1012 R14/29//95=
201910040430 METAR LRIA 040430Z 31010KT 9999 -RA SCT010 08/07 Q1013 R14/29//95=
201910040500 METAR LRIA 040500Z 31010KT 9999 -RA SCT009 08/07 Q1013 R14/29//95=
201910040530 METAR LRIA 040530Z 31009KT 9999 -RA SCT009 08/07 Q1013 R14/29//95=
201910040600 METAR LRIA 040600Z 31009KT 9000 -RA SCT009 08/07 Q1014 R14/29//95=
201910040630 METAR LRIA 040630Z 31007KT 8000 -RA BKN008 08/08 Q1014 R14/29//95=
201910040700 METAR LRIA 040700Z 31007KT 8000 -RA BKN008 08/08 Q1014 R14/29//95=
201910040730 METAR LRIA 040730Z 31008KT 8000 -RA BKN007 08/08 Q1014 R14/29//95=
201910040800 METAR LRIA 040800Z 31007KT 8000 -RA BKN008 09/08 Q1013 R14/29//95=
201910040830 METAR LRIA 040830Z 31007KT 8000 -RA BKN007 09/08 Q1013 R14/29//95=
201910040900 METAR LRIA 040900Z 33009KT 9000 -RA BKN009 BKN023 09/08 Q1013
                        R14/29//95=
201910040930 METAR LRIA 040930Z 32010KT 9999 -RA BKN008 09/08 Q1013 R14/29//95=
201910041000 METAR LRIA 041000Z 32008KT 9999 -RA BKN009 09/08 Q1013 R14/29//95=
201910041030 METAR LRIA 041030Z 31008KT 7000 RA OVC009 09/08 Q1013 R14/29//95=
201910041100 METAR LRIA 041100Z 31008KT 8000 RA BKN010 BKN030 09/08 Q1013
                        R14/29//95=
201910041130 METAR LRIA 041130Z 30007KT 8000 RA SCT006 BKN010 BKN030 09/08
                        Q1013 R14/29//95=
201910041200 METAR LRIA 041200Z 30006KT 9000 -RA FEW009 BKN013 BKN027
                        08/08 Q1013 R14/29//95=
201910041230 METAR LRIA 041230Z 30008KT 9999 -RA FEW009 OVC026 09/07 Q1013
                        R14/29//95=
201910041300 METAR LRIA 041300Z 29007KT 9999 FEW009 BKN028 09/07 Q1013
                        R14/29//95=
201910041330 METAR LRIA 041330Z 29005KT 9999 FEW013 SCT030 09/07 Q1013
                        R14/29//95=
201910041400 METAR LRIA 041400Z 28004KT 9999 FEW030 09/07 Q1012 R14/29//95=
201910041430 METAR LRIA 041430Z 28004KT CAVOK 09/08 Q1012 R14/29//95=
201910041500 METAR LRIA 041500Z 29004KT CAVOK 09/07 Q1012 R14/29//95=
201910041530 METAR LRIA 041530Z 28003KT CAVOK 09/07 Q1012 R14/29//95=
201910041600 METAR LRIA 041600Z 30004KT CAVOK 09/07 Q1012 R14/29//95=
201910041630 METAR LRIA 041630Z 30004KT CAVOK 09/07 Q1012 R14/29//95=
201910041700 METAR LRIA 041700Z 30006KT CAVOK 09/07 Q1012 R14/29//95=
201910041730 METAR LRIA 041730Z 30006KT CAVOK 08/07 Q1012 R14/29//95=
201910041800 METAR LRIA 041800Z 30006KT CAVOK 08/07 Q1012 R14/29//95=
201910041830 METAR LRIA 041830Z 31006KT CAVOK 08/06 Q1011 R14/29//95=
201910041900 METAR LRIA 041900Z 18003KT 160V250 9999 FEW036 07/06 Q1012
                        R14/29//95=
201910041930 METAR LRIA 041930Z 22003KT 9999 SCT026 08/07 Q1012 R14/29//95=
201910042000 METAR LRIA 042000Z 24003KT 9999 BKN027 08/07 Q1012 R14/29//95=
201910042030 METAR LRIA 042030Z 22001KT 9999 BKN030 08/07 Q1012 R14/29//95=
201910042100 METAR LRIA 042100Z 21003KT 9999 BKN031 08/07 Q1012 R14/29//95=
201910042130 METAR LRIA 042130Z 22003KT 9999 FEW028 BKN036 08/07 Q1012
                        R14/29//95=
201910042200 METAR LRIA 042200Z 26003KT 9999 BKN037 08/08 Q1012 R14/29//95=
201910042230 METAR LRIA 042230Z VRB01KT 9999 BKN037 08/07 Q1012 R14/29//95=
201910042300 METAR LRIA 042300Z 28004KT 9999 SCT044 08/07 Q1011 R14/29//95=
201910042330 METAR LRIA 042330Z 28004KT CAVOK 08/07 Q1011 R14/29//95=
201910050000 METAR LRIA 050000Z 19003KT CAVOK 08/07 Q1011 R14/29//95=
201910050030 METAR LRIA 050030Z 22002KT CAVOK 08/08 Q1011 R14/19//95=
201910050100 METAR LRIA 050100Z 28004KT CAVOK 08/07 Q1011 R14/19//95=
201910050130 METAR LRIA 050130Z 26002KT CAVOK 08/07 Q1011 R14/19//95=
201910050200 METAR LRIA 050200Z 28002KT CAVOK 08/07 Q1011 R14/19//95=
201910050230 METAR LRIA 050230Z 27002KT 9999 -RA NSC 08/07 Q1010 R14/19//95=
201910050300 METAR LRIA 050300Z 20002KT CAVOK 08/07 Q1010 R14/19//95=
201910050330 METAR LRIA 050330Z 30002KT CAVOK 08/07 Q1010 R14/19//95=
201910050400 METAR LRIA 050400Z 28003KT 8000 NSC 08/07 Q1010 R14/19//95=
201910050430 METAR LRIA 050430Z 28004KT CAVOK 08/07 Q1010 R14/19//95=
201910050500 METAR LRIA 050500Z VRB02KT CAVOK 08/08 Q1010 R14/19//95=
201910050530 METAR LRIA 050530Z 25003KT CAVOK 08/07 Q1010 R14/19//95=
201910050600 METAR LRIA 050600Z 26003KT CAVOK 08/07 Q1010 R14/19//95=
201910050630 METAR LRIA 050630Z 26003KT 220V290 CAVOK 09/08 Q1010 R14/19//95=
201910050700 METAR LRIA 050700Z VRB01KT CAVOK 09/08 Q1010 R14/19//95=
201910050730 METAR LRIA 050730Z VRB02KT CAVOK 10/08 Q1010 R14/19//95=
201910050800 METAR LRIA 050800Z VRB02KT 9999 FEW008 10/08 Q1010 R14/19//95=
201910050830 METAR LRIA 050830Z VRB02KT CAVOK 11/07 Q1010 R14/19//95=
201910050900 METAR LRIA 050900Z 01003KT 320V050 CAVOK 12/07 Q1010 R14/19//95=
201910050930 METAR COR LRIA 050930Z 34004KT 290V010 9999 FEW024 12/05
                        Q1010 R14/19//95=
201910051000 METAR LRIA 051000Z 04003KT 360V090 9999 FEW026 13/06 Q1009
                        R14/CLRD//=
201910051030 METAR LRIA 051030Z 02005KT 350V070 9999 FEW026 13/05 Q1009=
201910051100 METAR LRIA 051100Z 33006KT 310V020 9999 SCT030 BKN038 13/06
                        Q1009=
201910051130 METAR COR LRIA 051130Z VRB02KT 9999 FEW036 SCT048 14/06 Q1008=
201910051200 METAR LRIA 051200Z 02006KT 9999 FEW033 BKN044 13/05 Q1009=
201910051230 METAR LRIA 051230Z 01005KT 330V050 9999 FEW036 BKN043 14/05
                        Q1008=
201910051300 METAR LRIA 051300Z 34006KT 290V020 CAVOK 14/05 Q1008=
201910051330 METAR LRIA 051330Z 32006KT 300V360 CAVOK 14/05 Q1008=
201910051400 METAR LRIA 051400Z 32005KT CAVOK 13/06 Q1008=
201910051430 METAR LRIA 051430Z 34006KT CAVOK 13/05 Q1008=
201910051500 METAR LRIA 051500Z 34006KT CAVOK 13/06 Q1009=
201910051530 METAR LRIA 051530Z 34005KT CAVOK 12/07 Q1009=
201910051600 METAR LRIA 051600Z 34006KT CAVOK 11/07 Q1009=
201910051630 METAR LRIA 051630Z 33004KT CAVOK 11/07 Q1009=
201910051700 METAR LRIA 051700Z 01005KT CAVOK 09/06 Q1009=
201910051730 METAR LRIA 051730Z 33003KT CAVOK 10/06 Q1010=
201910051800 METAR LRIA 051800Z 01005KT 9999 FEW037 09/05 Q1010=
201910051830 METAR LRIA 051830Z 33003KT 9999 FEW035 09/06 Q1010=
201910051900 METAR LRIA 051900Z VRB02KT CAVOK 08/06 Q1010=
201910051930 METAR LRIA 051930Z 24002KT CAVOK 07/06 Q1010=
201910052000 METAR LRIA 052000Z 24002KT CAVOK 08/07 Q1010=
201910052030 METAR LRIA 052030Z 00000KT CAVOK 08/06 Q1010=
201910052100 METAR LRIA 052100Z 24001KT CAVOK 07/05 Q1010=
201910052130 METAR LRIA 052130Z 00000KT CAVOK 07/07 Q1010=
201910052200 METAR LRIA 052200Z 30002KT CAVOK 07/06 Q1010=
201910052230 METAR LRIA 052230Z 29002KT CAVOK 05/04 Q1010=
201910052300 METAR LRIA 052300Z 27002KT CAVOK 05/04 Q1010=
201910052330 METAR LRIA 052330Z 28002KT 4000 MIFG BR NSC 04/04 Q1010=
201910060000 METAR LRIA 060000Z 26003KT 6000 0600NW R14/0900D R32/P2000
                        PRFG FEW002 03/03 Q1010=
201910060030 METAR LRIA 060030Z 24001KT CAVOK 04/04 Q1010=
201910060100 METAR LRIA 060100Z 23003KT CAVOK 05/05 Q1010=
201910060130 METAR LRIA 060130Z 31001KT CAVOK 05/05 Q1010=
201910060200 METAR LRIA 060200Z 31001KT CAVOK 06/05 Q1010=
201910060230 METAR LRIA 060230Z 00000KT CAVOK 05/05 Q1010=
201910060300 METAR LRIA 060300Z 23001KT CAVOK 05/05 Q1010=
201910060330 METAR LRIA 060330Z VRB01KT CAVOK 06/06 Q1010=
201910060400 METAR LRIA 060400Z VRB01KT CAVOK 06/05 Q1010=
201910060430 METAR LRIA 060430Z VRB01KT CAVOK 06/05 Q1010=
201910060500 METAR LRIA 060500Z 09002KT CAVOK 06/06 Q1010=
201910060530 METAR LRIA 060530Z VRB01KT 1500 R14/P2000 R32/0800N BR NSC
                        06/06 Q1010=
201910060600 METAR LRIA 060600Z VRB01KT 2500 BR FEW001 07/06 Q1010=
201910060630 METAR LRIA 060630Z VRB02KT 5000 BR FEW010 07/07 Q1011=
201910060700 METAR LRIA 060700Z 25003KT 8000 -RA FEW002 08/07 Q1011=
201910060730 METAR LRIA 060730Z 27003KT 240V300 8000 -RA FEW006 08/07
                        Q1011 R14/19//95=
201910060800 METAR LRIA 060800Z 26003KT 230V290 9000 FEW003 SCT006 08/07
                        Q1011 R14/CLRD//=
201910060830 METAR LRIA 060830Z 29004KT 8000 -RA SCT006 09/07 Q1011=
201910060900 METAR LRIA 060900Z 30004KT 8000 -RA FEW006 09/07 Q1011=
201910060930 METAR LRIA 060930Z 30004KT 270V330 9000 -RA SCT007 09/07
                        Q1011 R14/19//95=
201910061000 METAR LRIA 061000Z 29003KT 250V320 8000 -RA SCT007 BKN042
                        10/08 Q1012 R14/19//95=
201910061030 METAR LRIA 061030Z 27004KT 9000 -RA FEW009 BKN042 10/08 Q1012
                        R14/19//95=
201910061100 METAR LRIA 061100Z 29004KT 9000 -RA FEW012 BKN042 10/08 Q1012
                        R14/29//95=
201910061130 METAR LRIA 061130Z 31005KT 8000 -RA SCT010 BKN039 10/08 Q1012
                        R14/29//95=
201910061200 METAR LRIA 061200Z 31005KT 280V340 9000 -RA FEW012 FEW030TCU
                        BKN039 10/08 Q1012 R14/29//95=
201910061230 METAR LRIA 061230Z 31005KT 9999 -RA FEW012 FEW030TCU BKN039
                        10/07 Q1012 R14/29//95=
201910061300 METAR LRIA 061300Z 30005KT 9999 -RA FEW030TCU BKN039 10/07
                        Q1012 R14/29//95=
201910061330 METAR LRIA 061330Z 31007KT 9999 -SHRA BKN013 FEW030CB 10/07
                        Q1012 R14/29//95=
201910061400 METAR LRIA 061400Z 31006KT 9999 -SHRA FEW013 FEW025CB BKN029
                        09/07 Q1012 R14/29//95=
201910061430 METAR LRIA 061430Z 31006KT 9999 -RA FEW013 BKN035 09/07 Q1012
                        R14/29//95=
201910061500 METAR LRIA 061500Z 31007KT 9999 -RA FEW013 BKN038 09/08 Q1013
                        R14/29//95=
201910061530 METAR LRIA 061530Z 32010KT 9999 -RA BKN008 OVC036 08/07 Q1013
                        R14/29//95=
201910061600 METAR LRIA 061600Z 31010KT 8000 -RA SCT006 FEW030CB OVC038
                        08/07 Q1013 R14/29//95=
201910061630 METAR LRIA 061630Z 31010KT 9999 -RA SCT006 FEW030CB BKN038
                        07/07 Q1013 R14/29//95=
201910061700 METAR COR LRIA 061700Z 31008KT 9999 -RA SCT005 FEW030CB BKN040
                        07/07 Q1014 R14/29//95=
201910061730 METAR LRIA 061730Z 33008KT 9999 RA FEW006 SCT026CB BKN035
                        07/06 Q1014 R14/29//95=
201910061800 METAR LRIA 061800Z 32008KT 9999 -RA FEW006 BKN031 07/06 Q1014
                        R14/29//95=
201910061830 METAR LRIA 061830Z 31009KT 9999 -RA FEW004 BKN033 07/06 Q1015
                        R14/29//95=
201910061900 METAR LRIA 061900Z 31009KT 9999 -RA FEW005 OVC033 07/06 Q1015
                        R14/29//95=
201910061930 METAR LRIA 061930Z 30008KT 9999 -RA FEW024 SCT031 BKN040
                        06/06 Q1015 R14/29//95=
201910062000 METAR LRIA 062000Z 31007KT 9999 -RA OVC029 06/06 Q1015 R14/29//95=
201910062030 METAR LRIA 062030Z 31007KT 9999 -RA BKN030 SCT041 07/06 Q1015
                        R14/29//95=
201910062100 METAR LRIA 062100Z 30006KT 9999 OVC036 07/06 Q1015 RERA R14/29//95=
201910062130 METAR LRIA 062130Z 31006KT 9999 OVC035 07/06 Q1015 R14/29//95=
201910062200 METAR LRIA 062200Z 31004KT 9999 -RA FEW034 BKN043 07/06 Q1015
                        R14/29//95=
201910062230 METAR COR LRIA 062230Z 29003KT 9999 BKN037 07/06 Q1015 R14/29//95=
201910062300 METAR LRIA 062300Z 29006KT 9999 -RA BKN033 07/06 Q1015 R14/29//95=
201910062330 METAR LRIA 062330Z 30006KT 9999 BKN037 BKN047 07/06 Q1015
                        R14/29//95=
201910070000 METAR LRIA 070000Z 30006KT 9999 OVC044 06/06 Q1015 R14/29//95=
201910070030 METAR LRIA 070030Z 31006KT 9999 OVC042 06/06 Q1015 R14/29//95=
201910070100 METAR LRIA 070100Z 31006KT 9999 OVC033 06/06 Q1015 R14/29//95=
201910070130 METAR LRIA 070130Z 32005KT CAVOK 06/06 Q1015 R14/29//95=
201910070200 METAR COR LRIA 070200Z 33007KT CAVOK 06/05 Q1015 R14/29//95=
201910070230 METAR COR LRIA 070230Z 32006KT CAVOK 06/05 Q1015 R14/29//95=
201910070300 METAR COR LRIA 070300Z 31004KT 270V330 CAVOK 06/05 Q1015
                        R14/29//95=
201910070330 METAR LRIA 070330Z AUTO 32004KT 290V350 9999 BKN057/// SCT073///
                        06/05 Q1015=
201910070400 METAR LRIA 070400Z 30004KT 250V350 CAVOK 06/05 Q1016 R14/29//95=
201910070430 METAR LRIA 070430Z 29004KT 230V330 CAVOK 06/04 Q1016 R14/19//95=
201910070500 METAR LRIA 070500Z 32004KT CAVOK 06/04 Q1016 R14/19//95=
201910070530 METAR LRIA 070530Z 33005KT CAVOK 06/04 Q1016 R14/19//95=
201910070600 METAR LRIA 070600Z 32004KT CAVOK 06/04 Q1016 R14/19//95=
201910070630 METAR LRIA 070630Z 31006KT 9999 SCT045 06/04 Q1017 R14/19//95=
201910070700 METAR LRIA 070700Z 33007KT 9999 SCT045 06/04 Q1017 R14/19//95=
201910070730 METAR LRIA 070730Z 33009KT 9999 FEW039 06/04 Q1017 R14/19//95=
201910070800 METAR LRIA 070800Z 33008KT 9999 SCT038 07/04 Q1017 R14/19//95=
201910070830 METAR LRIA 070830Z 34008KT 9999 FEW015 07/04 Q1017 R14/19//95=
201910070900 METAR LRIA 070900Z 33007KT 9999 FEW011 08/05 Q1017 R14/19//95=
201910070930 METAR LRIA 070930Z 33008KT 9999 FEW016 08/05 Q1017 R14/19//95=
201910071000 METAR LRIA 071000Z 32009KT 9999 FEW017 08/05 Q1017 R14/19//95=
201910071030 METAR LRIA 071030Z 32008KT 9999 FEW015 08/03 Q1017 R14/19//95=
201910071100 METAR LRIA 071100Z 33007KT 300V360 9999 FEW017 08/04 Q1017
                        R14/19//95=
201910071130 METAR LRIA 071130Z 31007KT 9999 FEW018 08/04 Q1017 R14/CLRD//=
201910071200 METAR LRIA 071200Z 31007KT 9999 FEW020 SCT032 08/04 Q1018=
201910071230 METAR LRIA 071230Z 29008KT 9999 FEW018 BKN043 08/04 Q1018=
201910071300 METAR LRIA 071300Z 32007KT 9999 FEW018 SCT023 08/04 Q1018=
201910071330 METAR LRIA 071330Z 33007KT 9999 BKN030 08/03 Q1018=
201910071400 METAR LRIA 071400Z 32006KT 9999 SCT030 BKN038 08/03 Q1018=
201910071430 METAR LRIA 071430Z 33006KT 9999 BKN036 08/03 Q1018=
201910071500 METAR LRIA 071500Z 31005KT 9999 BKN047 08/03 Q1018=
201910071530 METAR LRIA 071530Z 32005KT 9999 BKN048 08/02 Q1019=
201910071600 METAR LRIA 071600Z 32005KT 9999 BKN045 07/02 Q1019=
201910071630 METAR LRIA 071630Z 33007KT 9999 FEW030 BKN041 07/02 Q1019=
201910071700 METAR LRIA 071700Z 32005KT 9999 FEW030 BKN045 07/02 Q1020=
201910071730 METAR LRIA 071730Z 32004KT 9999 BKN048 07/02 Q1020=
201910071800 METAR LRIA 071800Z 33005KT CAVOK 07/02 Q1020=
201910071830 METAR LRIA 071830Z 32005KT CAVOK 06/02 Q1020=
201910071900 METAR LRIA 071900Z 31004KT CAVOK 06/01 Q1021=
201910071930 METAR LRIA 071930Z 31005KT CAVOK 06/01 Q1021=
201910072000 METAR LRIA 072000Z 30005KT CAVOK 06/01 Q1021=
201910072030 METAR LRIA 072030Z 32005KT CAVOK 06/01 Q1021=
201910072100 METAR LRIA 072100Z 33005KT CAVOK 06/01 Q1021=
201910072130 METAR LRIA 072130Z 33005KT CAVOK 06/01 Q1021=
201910072200 METAR LRIA 072200Z 32004KT CAVOK 06/02 Q1021=
201910072230 METAR LRIA 072230Z 32006KT CAVOK 05/01 Q1021=
201910072300 METAR LRIA 072300Z 33006KT CAVOK 05/02 Q1022=
201910072330 METAR LRIA 072330Z 32005KT CAVOK 05/01 Q1022=
201910080000 METAR LRIA 080000Z 33005KT CAVOK 05/01 Q1022=
201910080030 METAR LRIA 080030Z 32004KT CAVOK 05/01 Q1022=
201910080100 METAR LRIA 080100Z VRB02KT CAVOK 04/01 Q1022=
201910080130 METAR LRIA 080130Z VRB02KT CAVOK 03/01 Q1022=
201910080200 METAR LRIA 080200Z 11002KT CAVOK 03/00 Q1023=
201910080230 METAR LRIA 080230Z 05001KT CAVOK 02/M00 Q1023=
201910080300 METAR LRIA 080300Z 05001KT CAVOK 02/M00 Q1023=
201910080330 METAR LRIA 080330Z 06001KT CAVOK 02/M00 Q1023=
201910080400 METAR LRIA 080400Z 05003KT CAVOK 02/M00 Q1023=
201910080430 METAR LRIA 080430Z 13001KT CAVOK 02/00 Q1023=
201910080500 METAR LRIA 080500Z 00000KT CAVOK 02/01 Q1023=
201910080530 METAR LRIA 080530Z VRB01KT CAVOK 04/02 Q1023=
201910080600 METAR LRIA 080600Z VRB01KT CAVOK 05/01 Q1024=
201910080630 METAR LRIA 080630Z VRB01KT CAVOK 06/01 Q1024=
201910080700 METAR LRIA 080700Z VRB02KT CAVOK 07/00 Q1024=
201910080730 METAR LRIA 080730Z 11004KT 060V150 CAVOK 07/00 Q1024=
201910080800 METAR LRIA 080800Z 12003KT 080V160 CAVOK 09/00 Q1024=
201910080830 METAR LRIA 080830Z 12004KT 070V240 9999 FEW034 09/M00 Q1024=
201910080900 METAR LRIA 080900Z 12007KT 090V160 9999 FEW040 10/M00 Q1024=
201910080930 METAR LRIA 080930Z 15006KT 120V220 9999 FEW044 11/M01 Q1024=
201910081000 METAR LRIA 081000Z 15005KT 110V190 9999 FEW043 11/M01 Q1024=
201910081030 METAR LRIA 081030Z 21006KT 160V240 9999 SCT043 11/M01 Q1023=
201910081100 METAR LRIA 081100Z VRB05KT 9999 SCT044 12/M00 Q1023=
201910081130 METAR LRIA 081130Z 22005KT 140V270 9999 SCT044 12/M00 Q1022=
201910081200 METAR LRIA 081200Z 19007KT 160V220 9999 BKN045 12/00 Q1022=
201910081230 METAR LRIA 081230Z 19007KT 150V220 9999 SCT046 13/M00 Q1022=
201910081300 METAR LRIA 081300Z 17007KT 140V220 9999 SCT048 13/00 Q1021=
201910081330 METAR LRIA 081330Z 15007KT 120V220 9999 SCT048 13/00 Q1021=
201910081400 METAR LRIA 081400Z 20005KT 170V250 CAVOK 13/01 Q1021=
201910081430 METAR LRIA 081430Z 17005KT 150V210 CAVOK 12/01 Q1021=
201910081500 METAR LRIA 081500Z 16006KT 130V190 CAVOK 11/01 Q1021=
201910081530 METAR LRIA 081530Z 14005KT CAVOK 10/02 Q1021=
201910081600 METAR LRIA 081600Z 14006KT CAVOK 10/02 Q1021=
201910081630 METAR LRIA 081630Z 15006KT CAVOK 09/02 Q1021=
201910081700 METAR LRIA 081700Z 16007KT CAVOK 09/03 Q1021=
201910081730 METAR LRIA 081730Z 16007KT CAVOK 09/03 Q1021=
201910081800 METAR LRIA 081800Z 17008KT CAVOK 09/03 Q1021=
201910081830 METAR LRIA 081830Z 17008KT CAVOK 09/03 Q1021=
201910081900 METAR LRIA 081900Z 17008KT 150V210 CAVOK 09/03 Q1021=
201910081930 METAR COR LRIA 081930Z 19008KT CAVOK 09/03 Q1021=
201910082000 METAR LRIA 082000Z 18008KT CAVOK 09/03 Q1020=
201910082030 METAR LRIA 082030Z 17007KT 140V200 CAVOK 08/03 Q1021=
201910082100 METAR LRIA 082100Z 17004KT 130V210 CAVOK 08/03 Q1020=
201910082130 METAR LRIA 082130Z 18004KT 150V210 CAVOK 07/03 Q1020=
201910082200 METAR LRIA 082200Z 16004KT 140V200 CAVOK 07/03 Q1020=
201910082230 METAR LRIA 082230Z 17003KT 130V210 CAVOK 07/03 Q1019=
201910082300 METAR COR LRIA 082300Z 12004KT 070V150 CAVOK 07/03 Q1019=
201910082330 METAR COR LRIA 082330Z 08005KT CAVOK 06/03 Q1019=
201910090000 METAR LRIA 090000Z 11005KT CAVOK 06/03 Q1019=
201910090030 METAR LRIA 090030Z AUTO 09004KT 9999 NCD 05/03 Q1019=
201910090100 METAR LRIA 090100Z 12004KT CAVOK 05/03 Q1018=
201910090130 METAR LRIA 090130Z 09004KT CAVOK 06/03 Q1018=
201910090200 METAR LRIA 090200Z 09007KT CAVOK 05/03 Q1018=
201910090230 METAR COR LRIA 090230Z 11006KT CAVOK 05/03 Q1018=
201910090300 METAR LRIA 090300Z 10006KT CAVOK 05/03 Q1018=
201910090330 METAR LRIA 090330Z 09005KT 050V110 CAVOK 05/03 Q1018=
201910090400 METAR LRIA 090400Z 10004KT CAVOK 05/03 Q1018=
201910090430 METAR LRIA 090430Z 10004KT CAVOK 05/03 Q1018=
201910090500 METAR LRIA 090500Z 10004KT CAVOK 06/03 Q1018=
201910090530 METAR LRIA 090530Z VRB02KT CAVOK 08/04 Q1018=
201910090600 METAR LRIA 090600Z 10004KT 350V130 CAVOK 08/04 Q1018=
201910090630 METAR LRIA 090630Z 12004KT 090V150 CAVOK 10/04 Q1018=
201910090700 METAR LRIA 090700Z 13004KT 090V160 CAVOK 12/04 Q1018=
201910090730 METAR LRIA 090730Z 16007KT 120V200 CAVOK 14/04 Q1017=
201910090800 METAR LRIA 090800Z VRB04KT CAVOK 14/02 Q1017=
201910090830 METAR LRIA 090830Z 19006KT 140V230 CAVOK 15/03 Q1017=
201910090900 METAR LRIA 090900Z 21006KT 140V250 CAVOK 17/03 Q1017=
201910090930 METAR LRIA 090930Z 20007KT 170V240 CAVOK 18/01 Q1017=
201910091000 METAR LRIA 091000Z 21007KT 170V240 CAVOK 19/02 Q1017=
201910091030 METAR LRIA 091030Z 21006KT 150V260 CAVOK 19/02 Q1017=
201910091100 METAR LRIA 091100Z 21006KT 160V240 CAVOK 20/02 Q1016=
201910091130 METAR LRIA 091130Z 18006KT 150V230 CAVOK 21/01 Q1017=
201910091200 METAR LRIA 091200Z 23005KT 170V270 CAVOK 21/01 Q1017=
201910091230 METAR LRIA 091230Z 20004KT 110V240 CAVOK 21/01 Q1016=
201910091300 METAR LRIA 091300Z 21003KT 140V270 CAVOK 21/02 Q1016=
201910091330 METAR LRIA 091330Z 18004KT 150V220 CAVOK 21/01 Q1016=
201910091400 METAR LRIA 091400Z 17006KT CAVOK 21/02 Q1016=
201910091430 METAR LRIA 091430Z 17005KT CAVOK 21/02 Q1016=
201910091500 METAR LRIA 091500Z 16004KT CAVOK 20/03 Q1016=
201910091530 METAR LRIA 091530Z 14005KT CAVOK 18/05 Q1016=
201910091600 METAR LRIA 091600Z 16007KT CAVOK 18/05 Q1016=
201910091630 METAR LRIA 091630Z 14005KT CAVOK 16/06 Q1016=
201910091700 METAR LRIA 091700Z 10005KT CAVOK 15/07 Q1015=
201910091730 METAR LRIA 091730Z 11006KT CAVOK 14/08 Q1015=
201910091800 METAR LRIA 091800Z 10006KT CAVOK 14/07 Q1015=
201910091830 METAR LRIA 091830Z 09006KT CAVOK 13/08 Q1015=
201910091900 METAR LRIA 091900Z 09006KT CAVOK 13/08 Q1015=
201910091930 METAR LRIA 091930Z 10006KT CAVOK 12/08 Q1015=
201910092000 METAR LRIA 092000Z 09006KT CAVOK 12/08 Q1014=
201910092030 METAR LRIA 092030Z 12008KT CAVOK 12/08 Q1014=
201910092100 METAR LRIA 092100Z 11009KT CAVOK 12/08 Q1013=
201910092130 METAR LRIA 092130Z 11008KT CAVOK 12/08 Q1013=
201910092200 METAR LRIA 092200Z 11008KT CAVOK 12/08 Q1013=
201910092230 METAR LRIA 092230Z 13006KT 100V170 CAVOK 11/08 Q1012=
201910092300 METAR LRIA 092300Z 11005KT CAVOK 11/08 Q1012=
201910092330 METAR LRIA 092330Z 11006KT CAVOK 11/08 Q1012=
201910100000 METAR LRIA 100000Z VRB06KT CAVOK 12/07 Q1012=
201910100030 METAR LRIA 100030Z 24004KT 180V280 CAVOK 13/07 Q1012=
201910100100 METAR LRIA 100100Z 14004KT CAVOK 12/07 Q1011=
201910100130 METAR LRIA 100130Z VRB02KT CAVOK 12/07 Q1011=
201910100200 METAR LRIA 100200Z 12003KT 100V160 CAVOK 12/07 Q1012=
201910100230 METAR LRIA 100230Z 10005KT CAVOK 10/07 Q1012=
201910100300 METAR LRIA 100300Z 11004KT CAVOK 10/07 Q1012=
201910100330 METAR LRIA 100330Z 08005KT CAVOK 09/07 Q1012=
201910100400 METAR LRIA 100400Z 09005KT CAVOK 09/07 Q1012=
201910100430 METAR LRIA 100430Z 09006KT CAVOK 09/08 Q1012=
201910100500 METAR LRIA 100500Z 09005KT CAVOK 09/08 Q1012=
201910100530 METAR LRIA 100530Z 08005KT CAVOK 10/09 Q1012=
201910100600 METAR LRIA 100600Z 10005KT CAVOK 11/09 Q1012=
201910100630 METAR LRIA 100630Z 12005KT CAVOK 11/09 Q1012=
201910100700 METAR LRIA 100700Z 11006KT CAVOK 13/09 Q1012=
201910100730 METAR LRIA 100730Z 09006KT CAVOK 15/10 Q1013=
201910100800 METAR LRIA 100800Z 09005KT 060V120 CAVOK 16/09 Q1013=
201910100830 METAR LRIA 100830Z VRB02KT CAVOK 18/09 Q1013=
201910100900 METAR LRIA 100900Z VRB02KT CAVOK 20/08 Q1013=
201910100930 METAR LRIA 100930Z 26004KT 200V310 CAVOK 22/06 Q1013=
201910101000 METAR LRIA 101000Z 24006KT 210V280 CAVOK 22/05 Q1013=
201910101030 METAR LRIA 101030Z 26006KT 240V300 CAVOK 23/05 Q1013=
201910101100 METAR LRIA 101100Z 29008KT 260V330 CAVOK 23/05 Q1013=
201910101130 METAR LRIA 101130Z 29011KT CAVOK 22/05 Q1013=
201910101200 METAR LRIA 101200Z 30010KT 260V330 CAVOK 22/06 Q1013=
201910101230 METAR LRIA 101230Z 34009KT CAVOK 22/08 Q1013=
201910101300 METAR LRIA 101300Z 35007KT 320V020 CAVOK 22/08 Q1013=
201910101330 METAR LRIA 101330Z 34006KT 310V010 CAVOK 22/07 Q1013=
201910101400 METAR LRIA 101400Z 31004KT 280V340 CAVOK 21/07 Q1013=
201910101430 METAR LRIA 101430Z 35005KT CAVOK 19/08 Q1013=
201910101500 METAR LRIA 101500Z 35004KT CAVOK 18/09 Q1013=
201910101530 METAR LRIA 101530Z 02004KT CAVOK 17/09 Q1013=
201910101600 METAR LRIA 101600Z 35004KT 340V070 CAVOK 17/09 Q1013=
201910101630 METAR LRIA 101630Z 32003KT CAVOK 17/08 Q1014=
201910101700 METAR LRIA 101700Z 33004KT CAVOK 16/09 Q1014=
201910101730 METAR LRIA 101730Z 33003KT CAVOK 16/09 Q1014=
201910101800 METAR LRIA 101800Z 32002KT CAVOK 15/10 Q1014=
201910101830 METAR LRIA 101830Z VRB02KT 9999 -RA NSC 15/10 Q1014=
201910101900 METAR LRIA 101900Z VRB01KT CAVOK 15/10 Q1014=
201910101930 METAR LRIA 101930Z 16003KT CAVOK 15/09 Q1015=
201910102000 METAR LRIA 102000Z 26004KT 9999 -RA NSC 14/10 Q1015=
201910102030 METAR LRIA 102030Z VRB02KT 9999 -RA NSC 14/10 Q1015 R14/19//95=
201910102100 METAR LRIA 102100Z 31008KT 9999 FEW049 15/10 Q1016 R14/19//95=
201910102130 METAR LRIA 102130Z 36007KT 340V040 9999 FEW048 15/10 Q1016
                        R14/19//95=
201910102200 METAR LRIA 102200Z 24003KT 200V290 9999 FEW048 14/10 Q1016
                        R14/19//95=
201910102230 METAR LRIA 102230Z 25003KT CAVOK 14/10 Q1016 R14/19//95=
201910102300 METAR LRIA 102300Z 27003KT 9999 SCT043 13/10 Q1017 R14/19//95=
201910102330 METAR LRIA 102330Z 32006KT 9999 FEW048 13/09 Q1017 R14/19//95=
201910110000 METAR LRIA 110000Z 32005KT CAVOK 13/09 Q1017 R14/19//95=
201910110030 METAR LRIA 110030Z 28004KT CAVOK 13/10 Q1018 R14/19//95=
201910110100 METAR LRIA 110100Z 26002KT CAVOK 13/09 Q1018 R14/19//95=
201910110130 METAR LRIA 110130Z 25002KT CAVOK 13/09 Q1018 R14/19//95=
201910110200 METAR LRIA 110200Z 24003KT CAVOK 11/09 Q1018 R14/19//95=
201910110230 METAR LRIA 110230Z 24004KT CAVOK 12/09 Q1018 R14/19//95=
201910110300 METAR LRIA 110300Z VRB01KT CAVOK 11/07 Q1019 R14/CLRD//=
201910110330 METAR LRIA 110330Z 25003KT CAVOK 09/08 Q1019=
201910110400 METAR LRIA 110400Z 26003KT 230V290 CAVOK 10/08 Q1019=
201910110430 METAR LRIA 110430Z 23003KT 210V270 CAVOK 10/08 Q1019=
201910110500 METAR LRIA 110500Z 26004KT CAVOK 10/08 Q1020=
201910110530 METAR LRIA 110530Z 26003KT CAVOK 11/08 Q1020=
201910110600 METAR LRIA 110600Z 23002KT CAVOK 11/09 Q1021=
201910110630 METAR LRIA 110630Z 26004KT 220V280 CAVOK 12/09 Q1021=
201910110700 METAR LRIA 110700Z 30010KT CAVOK 14/07 Q1022=
201910110730 METAR LRIA 110730Z 32009KT CAVOK 13/08 Q1022=
201910110800 METAR LRIA 110800Z 33013KT CAVOK 14/07 Q1023=
201910110830 METAR LRIA 110830Z 33012KT CAVOK 14/08 Q1023=
201910110900 METAR LRIA 110900Z 31008KT CAVOK 16/08 Q1023=
201910110930 METAR LRIA 110930Z 33009KT 9999 FEW035 16/07 Q1023=
201910111000 METAR LRIA 111000Z 32010KT 280V340 9999 FEW040 17/06 Q1023=
201910111030 METAR LRIA 111030Z 33009KT 300V010 9999 SCT042 17/06 Q1023=
201910111100 METAR LRIA 111100Z 33012KT 9999 SCT045 17/06 Q1023=
201910111130 METAR LRIA 111130Z 28012KT 9999 SCT048 17/04 Q1023=
201910111200 METAR LRIA 111200Z 31009KT 280V340 CAVOK 17/04 Q1023=
201910111230 METAR LRIA 111230Z 32007KT 280V350 CAVOK 18/05 Q1023=
201910111300 METAR LRIA 111300Z 30009KT 240V320 CAVOK 17/04 Q1023=
201910111330 METAR LRIA 111330Z 32007KT 280V340 CAVOK 16/04 Q1023=
201910111400 METAR LRIA 111400Z 33005KT 290V360 CAVOK 17/04 Q1023=
201910111430 METAR LRIA 111430Z 32005KT CAVOK 17/04 Q1023=
201910111500 METAR LRIA 111500Z 35005KT CAVOK 15/04 Q1023=
201910111530 METAR LRIA 111530Z 34003KT CAVOK 15/03 Q1023=
201910111600 METAR LRIA 111600Z 02003KT CAVOK 13/04 Q1023=
201910111630 METAR LRIA 111630Z 01003KT 330V050 CAVOK 14/02 Q1023=
201910111700 METAR LRIA 111700Z VRB01KT CAVOK 11/03 Q1023=
201910111730 METAR LRIA 111730Z VRB02KT CAVOK 13/03 Q1024=
201910111800 METAR LRIA 111800Z VRB02KT CAVOK 13/03 Q1024=
201910111830 METAR LRIA 111830Z 23001KT CAVOK 11/06 Q1024=
201910111900 METAR COR LRIA 111900Z VRB02KT CAVOK 11/06 Q1024=
201910111930 METAR LRIA 111930Z 21003KT CAVOK 12/05 Q1024=
201910112000 METAR LRIA 112000Z 21004KT CAVOK 11/06 Q1024=
201910112030 METAR LRIA 112030Z 22003KT CAVOK 11/05 Q1024=
201910112100 METAR LRIA 112100Z 00000KT CAVOK 11/05 Q1024=
201910112130 METAR LRIA 112130Z VRB01KT CAVOK 10/05 Q1024=
201910112200 METAR LRIA 112200Z VRB02KT CAVOK 10/05 Q1024=
201910112230 METAR LRIA 112230Z 21003KT CAVOK 10/06 Q1024=
201910112300 METAR LRIA 112300Z 20003KT CAVOK 10/06 Q1024=
201910112330 METAR LRIA 112330Z 21003KT 170V260 CAVOK 10/05 Q1024=
201910120000 METAR LRIA 120000Z 20003KT CAVOK 10/05 Q1024=
201910120030 METAR LRIA 120030Z 11004KT CAVOK 08/06 Q1024=
201910120100 METAR LRIA 120100Z 12002KT CAVOK 09/06 Q1024=
201910120130 METAR LRIA 120130Z 09004KT CAVOK 08/05 Q1024=
201910120200 METAR COR LRIA 120200Z 08003KT CAVOK 08/05 Q1024=
201910120230 METAR LRIA 120230Z 08003KT CAVOK 08/05 Q1024=
201910120300 METAR LRIA 120300Z 08004KT CAVOK 08/05 Q1024=
201910120330 METAR LRIA 120330Z AUTO 08007KT 9999 NCD 07/05 Q1024=
201910120400 METAR COR LRIA 120400Z 09004KT CAVOK 07/05 Q1024=
201910120430 METAR LRIA 120430Z 08006KT CAVOK 06/05 Q1024=
201910120500 METAR LRIA 120500Z 08005KT CAVOK 07/05 Q1024=
201910120530 METAR LRIA 120530Z 11004KT CAVOK 08/05 Q1023=
201910120600 METAR LRIA 120600Z VRB02KT CAVOK 10/06 Q1024=
201910120630 METAR LRIA 120630Z 08003KT 060V120 CAVOK 11/06 Q1024=
201910120700 METAR LRIA 120700Z 11004KT 080V140 CAVOK 12/06 Q1024=
201910120730 METAR LRIA 120730Z 11005KT CAVOK 13/06 Q1024=
201910120800 METAR LRIA 120800Z 14004KT 090V190 CAVOK 16/06 Q1023=
201910120830 METAR LRIA 120830Z 21006KT 170V250 CAVOK 17/05 Q1023=
201910120900 METAR LRIA 120900Z 20009KT 160V230 CAVOK 18/04 Q1023=
201910120930 METAR LRIA 120930Z 19006KT 160V220 CAVOK 19/04 Q1023=
201910121000 METAR LRIA 121000Z 22006KT 180V240 CAVOK 19/05 Q1023=
201910121030 METAR LRIA 121030Z 21006KT 180V260 CAVOK 20/04 Q1023=
201910121100 METAR LRIA 121100Z 19005KT 150V240 CAVOK 20/04 Q1022=
201910121130 METAR LRIA 121130Z 20006KT 160V240 CAVOK 21/04 Q1022=
201910121200 METAR LRIA 121200Z 19005KT 140V250 CAVOK 22/03 Q1022=
201910121230 METAR LRIA 121230Z 18007KT 140V210 CAVOK 21/03 Q1022=
201910121300 METAR LRIA 121300Z 19004KT 170V230 CAVOK 21/04 Q1021=
201910121330 METAR LRIA 121330Z 18004KT CAVOK 21/04 Q1021=
201910121400 METAR LRIA 121400Z 17005KT CAVOK 22/03 Q1021=
201910121430 METAR LRIA 121430Z 17004KT CAVOK 20/04 Q1021=
201910121500 METAR LRIA 121500Z 17004KT CAVOK 20/04 Q1021=
201910121530 METAR LRIA 121530Z 14003KT CAVOK 19/06 Q1021=
201910121600 METAR LRIA 121600Z 15004KT CAVOK 17/06 Q1021=
201910121630 METAR LRIA 121630Z 15003KT CAVOK 18/06 Q1021=
201910121700 METAR LRIA 121700Z 16004KT CAVOK 18/06 Q1021=
201910121730 METAR LRIA 121730Z 15004KT CAVOK 17/06 Q1021=
201910121800 METAR LRIA 121800Z VRB02KT CAVOK 17/06 Q1021=
201910121830 METAR LRIA 121830Z VRB02KT CAVOK 17/06 Q1021=
201910121900 METAR LRIA 121900Z VRB02KT CAVOK 16/06 Q1021=
201910121930 METAR LRIA 121930Z 07003KT CAVOK 15/06 Q1021=
201910122000 METAR LRIA 122000Z 08005KT CAVOK 13/06 Q1021=
201910122030 METAR LRIA 122030Z 08008KT CAVOK 13/07 Q1021=
201910122100 METAR LRIA 122100Z 07007KT CAVOK 12/06 Q1021=
201910122130 METAR LRIA 122130Z 08007KT CAVOK 12/07 Q1021=
201910122200 METAR LRIA 122200Z 09006KT CAVOK 11/07 Q1021=
201910122230 METAR LRIA 122230Z 08006KT CAVOK 10/06 Q1021=
201910122300 METAR LRIA 122300Z 07007KT CAVOK 10/06 Q1021=
201910122330 METAR LRIA 122330Z 07007KT CAVOK 10/06 Q1021=
201910130000 METAR LRIA 130000Z 06004KT CAVOK 10/06 Q1021=
201910130030 METAR LRIA 130030Z 08006KT CAVOK 10/06 Q1021=
201910130100 METAR LRIA 130100Z 07007KT CAVOK 09/06 Q1021=
201910130130 METAR LRIA 130130Z 07008KT CAVOK 09/06 Q1021=
201910130200 METAR LRIA 130200Z 08007KT CAVOK 09/07 Q1021=
201910130230 METAR LRIA 130230Z 07006KT CAVOK 08/06 Q1021=
201910130300 METAR LRIA 130300Z 07006KT CAVOK 08/07 Q1021=
201910130330 METAR LRIA 130330Z 08007KT CAVOK 09/08 Q1022=
201910130400 METAR LRIA 130400Z 09007KT CAVOK 08/07 Q1022=
201910130430 METAR LRIA 130430Z 07006KT CAVOK 08/07 Q1022=
201910130500 METAR LRIA 130500Z 07007KT CAVOK 09/07 Q1022=
201910130530 METAR LRIA 130530Z 10005KT CAVOK 09/08 Q1022=
201910130600 METAR LRIA 130600Z 08005KT CAVOK 10/08 Q1022=
201910130630 METAR LRIA 130630Z 09007KT CAVOK 11/09 Q1023=
201910130700 METAR LRIA 130700Z 10006KT CAVOK 12/09 Q1023=
201910130730 METAR LRIA 130730Z 10006KT CAVOK 13/08 Q1023=
201910130800 METAR LRIA 130800Z 11003KT 080V140 CAVOK 15/08 Q1023=
201910130830 METAR LRIA 130830Z 10003KT 060V160 CAVOK 17/08 Q1023=
201910130900 METAR LRIA 130900Z VRB02KT CAVOK 18/07 Q1023=
201910130930 METAR LRIA 130930Z 13004KT 110V170 CAVOK 19/06 Q1023=
201910131000 METAR LRIA 131000Z 12003KT 070V200 CAVOK 20/05 Q1023=
201910131030 METAR LRIA 131030Z VRB02KT CAVOK 21/03 Q1022=
201910131100 METAR LRIA 131100Z 17003KT 110V270 CAVOK 22/01 Q1022=
201910131130 METAR LRIA 131130Z VRB02KT CAVOK 22/02 Q1022=
201910131200 METAR LRIA 131200Z 11003KT 060V220 CAVOK 23/03 Q1022=
201910131230 METAR LRIA 131230Z VRB02KT CAVOK 22/06 Q1022=
201910131300 METAR LRIA 131300Z 08004KT 060V130 CAVOK 23/06 Q1022=
201910131330 METAR LRIA 131330Z 12004KT CAVOK 22/06 Q1022=
201910131400 METAR LRIA 131400Z 11005KT CAVOK 22/06 Q1022=
201910131430 METAR LRIA 131430Z 11006KT CAVOK 22/08 Q1021=
201910131500 METAR LRIA 131500Z 12007KT CAVOK 20/09 Q1021=
201910131530 METAR LRIA 131530Z 11006KT CAVOK 18/09 Q1021=
201910131600 METAR LRIA 131600Z 09005KT CAVOK 17/08 Q1022=
201910131630 METAR LRIA 131630Z 07004KT CAVOK 16/09 Q1022=
201910131700 METAR LRIA 131700Z 08004KT CAVOK 16/08 Q1022=
201910131730 METAR LRIA 131730Z 09004KT CAVOK 17/08 Q1022=
201910131800 METAR LRIA 131800Z 07005KT CAVOK 15/08 Q1022=
201910131830 METAR LRIA 131830Z 07005KT CAVOK 15/08 Q1022=
201910131900 METAR LRIA 131900Z 07006KT CAVOK 14/08 Q1022=
201910131930 METAR LRIA 131930Z 07005KT CAVOK 14/08 Q1022=
201910132000 METAR LRIA 132000Z 08004KT CAVOK 13/08 Q1022=
201910132030 METAR LRIA 132030Z 06005KT CAVOK 13/08 Q1022=
201910132100 METAR LRIA 132100Z 07006KT CAVOK 13/08 Q1022=
201910132130 METAR LRIA 132130Z 07006KT CAVOK 12/08 Q1022=
201910132200 METAR LRIA 132200Z 07007KT CAVOK 12/09 Q1022=
201910132230 METAR LRIA 132230Z 07005KT CAVOK 11/09 Q1022=
201910132300 METAR LRIA 132300Z 05005KT CAVOK 10/08 Q1022=
201910132330 METAR LRIA 132330Z 07006KT CAVOK 10/08 Q1022=
201910140000 METAR LRIA 140000Z 09006KT CAVOK 10/08 Q1022=
201910140030 METAR LRIA 140030Z 07006KT CAVOK 10/08 Q1022=
201910140100 METAR LRIA 140100Z 09006KT CAVOK 10/08 Q1022=
201910140130 METAR LRIA 140130Z 08003KT CAVOK 09/07 Q1022=
201910140200 METAR LRIA 140200Z 06006KT CAVOK 09/07 Q1022=
201910140230 METAR LRIA 140230Z 05005KT CAVOK 08/07 Q1022=
201910140300 METAR LRIA 140300Z 08006KT CAVOK 08/07 Q1022=
201910140330 METAR LRIA 140330Z 08006KT CAVOK 08/07 Q1022=
201910140400 METAR LRIA 140400Z 08004KT CAVOK 08/07 Q1022=
201910140430 METAR LRIA 140430Z 08005KT 0200 R14/0450N R32/0650D FG BKN001
                        09/08 Q1022=
201910140500 METAR LRIA 140500Z 07005KT 0100 R14/0225N R32/0250N FG VV001
                        09/08 Q1022=
201910140530 METAR LRIA 140530Z 08004KT 0100 R14/0200N R32/0200N FG VV001
                        09/08 Q1022=
201910140600 METAR LRIA 140600Z 09005KT 0100 R14/0225N R32/0300N FG VV001
                        09/09 Q1022=
201910140630 METAR LRIA 140630Z 09007KT 0150 R14/0275N R32/0250N FG VV001
                        09/09 Q1022=
201910140700 METAR LRIA 140700Z 10007KT 0250 R14/0375N R32/0350D FG VV001
                        10/10 Q1023=
201910140730 METAR LRIA 140730Z 09007KT 0200 R14/0400N R32/0650N FG VV001
                        11/11 Q1023=
201910140800 METAR LRIA 140800Z 10006KT 8000 SCT002 12/12 Q1023=
201910140830 METAR LRIA 140830Z 10005KT 070V130 CAVOK 13/13 Q1023=
201910140900 METAR LRIA 140900Z 09006KT CAVOK 15/13 Q1023=
201910140930 METAR LRIA 140930Z 11006KT CAVOK 17/12 Q1022=
201910141000 METAR LRIA 141000Z 11006KT CAVOK 18/12 Q1022=
201910141030 METAR LRIA 141030Z 10006KT CAVOK 18/12 Q1022=
201910141100 METAR LRIA 141100Z 10006KT 060V130 CAVOK 19/12 Q1022=
201910141130 METAR LRIA 141130Z 10006KT 070V130 CAVOK 20/12 Q1021=
201910141200 METAR LRIA 141200Z 11005KT 080V150 CAVOK 21/12 Q1021=
201910141230 METAR LRIA 141230Z 11006KT 080V140 CAVOK 21/12 Q1021=
201910141300 METAR LRIA 141300Z 10004KT 060V130 CAVOK 22/13 Q1020=
201910141330 METAR LRIA 141330Z 14003KT 080V210 CAVOK 23/11 Q1020=
201910141400 METAR LRIA 141400Z 17004KT 140V220 CAVOK 23/11 Q1020=
201910141430 METAR LRIA 141430Z 16006KT CAVOK 22/11 Q1020=
201910141500 METAR LRIA 141500Z 13006KT CAVOK 20/12 Q1020=
201910141530 METAR LRIA 141530Z 11006KT CAVOK 18/13 Q1020=
201910141600 METAR LRIA 141600Z 13004KT CAVOK 18/13 Q1020=
201910141630 METAR LRIA 141630Z 13003KT CAVOK 18/12 Q1020=
201910141700 METAR LRIA 141700Z 15004KT CAVOK 18/11 Q1020=
201910141730 METAR LRIA 141730Z 21001KT CAVOK 18/11 Q1020=
201910141800 METAR LRIA 141800Z VRB01KT CAVOK 17/11 Q1020=
201910141830 METAR LRIA 141830Z VRB02KT CAVOK 16/10 Q1020=
201910141900 METAR LRIA 141900Z 08003KT CAVOK 14/11 Q1020=
201910141930 METAR LRIA 141930Z 05004KT CAVOK 14/11 Q1020=
201910142000 METAR LRIA 142000Z 07007KT CAVOK 14/11 Q1020=
201910142030 METAR LRIA 142030Z 07007KT CAVOK 14/11 Q1020=
201910142100 METAR LRIA 142100Z 08007KT CAVOK 13/11 Q1020=
201910142130 METAR LRIA 142130Z 08006KT CAVOK 13/11 Q1020=
201910142200 METAR LRIA 142200Z 09006KT CAVOK 12/10 Q1020=
201910142230 METAR LRIA 142230Z 09007KT CAVOK 12/11 Q1020=
201910142300 METAR LRIA 142300Z 08006KT CAVOK 12/11 Q1020=
201910142330 METAR LRIA 142330Z 09007KT CAVOK 12/11 Q1020=
201910150000 METAR LRIA 150000Z 10006KT CAVOK 11/10 Q1020=
201910150030 METAR COR LRIA 150030Z 07006KT CAVOK 11/10 Q1020=
201910150100 METAR LRIA 150100Z 08006KT CAVOK 11/11 Q1020=
201910150130 METAR LRIA 150130Z 09007KT CAVOK 11/11 Q1020=
201910150200 METAR COR LRIA 150200Z 10007KT 5000 BR NSC 11/11 Q1020=
201910150230 METAR LRIA 150230Z 08005KT 0300 R14/0500D R32/0600D FG NSC
                        11/11 Q1020=
201910150300 METAR LRIA 150300Z 08005KT 0350 R14/0450N R32/0275 FG NSC
                        11/10 Q1020=
201910150330 METAR LRIA 150330Z 09005KT 0200 R14/0250N R32/0250N FG VV001
                        11/11 Q1020=
201910150400 METAR LRIA 150400Z 10004KT 0200 R14/0275N R32/0275N FG VV001
                        10/10 Q1020=
201910150430 METAR LRIA 150430Z 08004KT 0100 R14/0250N R32/0250N FG VV001
                        10/10 Q1020=
201910150500 METAR LRIA 150500Z 08004KT 0050 R14/0200N R32/0275N FG VV000
                        10/10 Q1020=
201910150530 METAR LRIA 150530Z 15002KT 0100 R14/0300N R32/0350N FG VV000
                        11/11 Q1020=
201910150600 METAR LRIA 150600Z VRB02KT 0100 R14/0350N R32/0375N FG VV000
                        11/11 Q1021=
201910150630 METAR LRIA 150630Z 10004KT 080V140 0300 R14/0800U R32/0400D
                        FG VV001 11/11 Q1021=
201910150700 METAR LRIA 150700Z 12003KT 090V150 1500 BR BKN001 12/12 Q1021=
201910150730 METAR LRIA 150730Z 11004KT 1500 BR BKN001 12/12 Q1021=
201910150800 METAR LRIA 150800Z 12005KT 5000 BR SCT001 BKN007 13/13 Q1021=
201910150830 METAR LRIA 150830Z 12005KT 8000 SCT004 BKN007 14/14 Q1021=
201910150900 METAR LRIA 150900Z 12006KT 9999 BKN007 15/14 Q1021=
201910150930 METAR LRIA 150930Z 11007KT 070V140 9999 FEW008 17/14 Q1021=
201910151000 METAR LRIA 151000Z 14005KT 120V240 9999 FEW010 18/13 Q1020=
201910151030 METAR LRIA 151030Z 14006KT 110V180 9999 FEW015 19/13 Q1020=
201910151100 METAR LRIA 151100Z 11009KT 9999 FEW015 19/13 Q1020=
201910151130 METAR LRIA 151130Z 11012KT CAVOK 19/14 Q1020=
201910151200 METAR LRIA 151200Z 11014KT CAVOK 18/13 Q1020=
201910151230 METAR LRIA 151230Z 11014KT CAVOK 18/13 Q1019=
201910151300 METAR LRIA 151300Z 11014KT CAVOK 17/13 Q1019=
201910151330 METAR LRIA 151330Z 11015KT CAVOK 16/13 Q1019=
201910151400 METAR LRIA 151400Z 11014KT CAVOK 16/13 Q1019=
201910151430 METAR LRIA 151430Z 10013KT CAVOK 15/13 Q1019=
201910151500 METAR LRIA 151500Z 10011KT CAVOK 15/12 Q1019=
201910151530 METAR LRIA 151530Z 11008KT CAVOK 14/12 Q1019=
201910151600 METAR LRIA 151600Z 11009KT CAVOK 14/12 Q1019=
201910151630 METAR LRIA 151630Z 12007KT CAVOK 14/12 Q1019=
201910151700 METAR LRIA 151700Z 12004KT CAVOK 13/12 Q1019=
201910151730 METAR LRIA 151730Z 12004KT CAVOK 13/12 Q1019=
201910151800 METAR LRIA 151800Z 10006KT CAVOK 12/11 Q1019=
201910151830 METAR LRIA 151830Z 09007KT CAVOK 12/11 Q1019=
201910151900 METAR LRIA 151900Z 09007KT CAVOK 12/11 Q1019=
201910151930 METAR LRIA 151930Z 08007KT CAVOK 12/12 Q1019=
201910152000 METAR LRIA 152000Z 10006KT CAVOK 12/11 Q1019=
201910152030 METAR LRIA 152030Z 11008KT CAVOK 12/11 Q1019=
201910152100 METAR LRIA 152100Z 10007KT CAVOK 12/11 Q1019=
201910152130 METAR LRIA 152130Z 10007KT CAVOK 12/11 Q1019=
201910152200 METAR LRIA 152200Z 10006KT CAVOK 11/11 Q1019=
201910152230 METAR LRIA 152230Z 11007KT CAVOK 11/11 Q1019=
201910152300 METAR LRIA 152300Z 11008KT CAVOK 11/11 Q1019=
201910152330 METAR LRIA 152330Z 11007KT 8000 FEW002 11/10 Q1019=
201910160000 METAR LRIA 160000Z 12007KT 8000 FEW002 10/10 Q1019=
201910160030 METAR LRIA 160030Z 11007KT 8000 FEW002 10/10 Q1018=
201910160100 METAR LRIA 160100Z 11007KT 100V160 6000 SCT007 10/10 Q1019=
201910160130 METAR LRIA 160130Z 12008KT 1500 BR BKN002 11/10 Q1018=
201910160200 METAR LRIA 160200Z 11009KT 0350 R14/0550D R32/1800U FG VV001
                        11/11 Q1019=
201910160230 METAR LRIA 160230Z 10007KT 8000 0600NW R14/0700N R32/P2000
                        BCFG SCT009 11/11 Q1019=
201910160300 METAR LRIA 160300Z 12006KT 0250 R14/0750N R32/0800D FG BKN002
                        11/11 Q1019=
201910160330 METAR LRIA 160330Z 11006KT 3000 BR FEW007 11/10 Q1019=
201910160400 METAR LRIA 160400Z 13005KT 8000 FEW008 10/10 Q1019=
201910160430 METAR LRIA 160430Z 13005KT 3000 MIFG BR FEW008 10/10 Q1019=
201910160500 METAR LRIA 160500Z 12004KT 8000 MIFG FEW010 10/10 Q1019=
201910160530 METAR LRIA 160530Z 12006KT 8000 FEW010 11/10 Q1019=
201910160600 METAR LRIA 160600Z 12009KT 8000 FEW010 12/11 Q1019=
201910160630 METAR LRIA 160630Z 13008KT 8000 FEW008 12/11 Q1020=
201910160700 METAR LRIA 160700Z 12008KT 8000 FEW007 13/11 Q1020=
201910160730 METAR LRIA 160730Z 15005KT 100V210 9999 FEW009 14/11 Q1020=
201910160800 METAR LRIA 160800Z 15005KT 120V180 9999 FEW012 15/11 Q1020=
201910160830 METAR LRIA 160830Z 13005KT 100V160 9999 FEW018 16/10 Q1019=
201910160900 METAR LRIA 160900Z 18005KT 140V210 CAVOK 17/10 Q1019=
201910160930 METAR LRIA 160930Z 19005KT 150V230 CAVOK 18/10 Q1019=
201910161000 METAR LRIA 161000Z 16005KT 110V230 CAVOK 19/11 Q1019=
201910161030 METAR LRIA 161030Z 11010KT CAVOK 19/11 Q1019=
201910161100 METAR LRIA 161100Z 12009KT 090V160 CAVOK 20/10 Q1018=
201910161130 METAR LRIA 161130Z 12009KT CAVOK 21/11 Q1018=
201910161200 METAR LRIA 161200Z 11011KT CAVOK 21/10 Q1018=
201910161230 METAR LRIA 161230Z 11011KT CAVOK 21/10 Q1018=
201910161300 METAR LRIA 161300Z 12009KT CAVOK 22/08 Q1018=
201910161330 METAR LRIA 161330Z 13009KT CAVOK 22/07 Q1017=
201910161400 METAR LRIA 161400Z 14009KT CAVOK 22/06 Q1017=
201910161430 METAR LRIA 161430Z 15010KT CAVOK 21/06 Q1017=
201910161500 METAR LRIA 161500Z 16006KT CAVOK 19/07 Q1017=
201910161530 METAR LRIA 161530Z 14006KT CAVOK 17/07 Q1018=
201910161600 METAR LRIA 161600Z 14007KT CAVOK 17/08 Q1018=
201910161630 METAR LRIA 161630Z 14008KT CAVOK 16/09 Q1018=
201910161700 METAR LRIA 161700Z 13007KT CAVOK 17/09 Q1018=
201910161730 METAR COR LRIA 161730Z 14006KT CAVOK 15/09 Q1018=
201910161800 METAR LRIA 161800Z 13007KT CAVOK 16/10 Q1018=
201910161830 METAR COR LRIA 161830Z 11005KT CAVOK 15/10 Q1018=
201910161900 METAR LRIA 161900Z 13004KT CAVOK 15/10 Q1018=
201910161930 METAR LRIA 161930Z 16003KT CAVOK 16/10 Q1018=
201910162000 METAR LRIA 162000Z 12005KT CAVOK 14/10 Q1018=
201910162030 METAR LRIA 162030Z 08005KT CAVOK 13/10 Q1018=
201910162100 METAR LRIA 162100Z 09006KT CAVOK 13/10 Q1018=
201910162130 METAR LRIA 162130Z 08005KT CAVOK 12/09 Q1018=
201910162200 METAR LRIA 162200Z 08005KT CAVOK 12/10 Q1018=
201910162230 METAR LRIA 162230Z 09003KT 040V120 CAVOK 12/10 Q1018=
201910162300 METAR COR LRIA 162300Z 07006KT CAVOK 12/10 Q1018=
201910162330 METAR LRIA 162330Z 10006KT CAVOK 11/10 Q1018=
201910170000 METAR LRIA 170000Z 09007KT CAVOK 11/10 Q1018=
201910170030 METAR COR LRIA 170030Z 10008KT CAVOK 11/10 Q1018=
201910170100 METAR LRIA 170100Z 10008KT CAVOK 11/10 Q1018=
201910170130 METAR LRIA 170130Z 09004KT 6000 NSC 10/10 Q1018=
201910170200 METAR COR LRIA 170200Z 08004KT 5000 BR NSC 10/10 Q1018=
201910170230 METAR LRIA 170230Z 08005KT 5000 BR NSC 10/10 Q1018=
201910170300 METAR COR LRIA 170300Z 07005KT 0150 R14/0250N R32/0225N FG
                        NSC 10/10 Q1018=
201910170330 METAR LRIA 170330Z 06004KT 0150 R14/0250N R32/0325N FG NSC
                        10/10 Q1018=
201910170400 METAR LRIA 170400Z 06005KT 0100 R14/0250N R32/0300N FG VV001
                        10/10 Q1018=
201910170430 METAR LRIA 170430Z 08003KT 060V150 0150 R14/0300N R32/0275N
                        FG VV002 10/09 Q1019=
201910170500 METAR LRIA 170500Z 08002KT 0050 R14/0175N R32/0225N FG VV000
                        09/09 Q1019=
201910170530 METAR LRIA 170530Z 08004KT 0050 R14/0200N R32/0225N FG VV000
                        09/09 Q1019=
201910170600 METAR LRIA 170600Z 09004KT 0100 R14/0225N R32/0175N FG VV001
                        09/09 Q1019=
201910170630 METAR LRIA 170630Z 09003KT 0100 R14/0175N R32/0175N FG VV000
                        10/10 Q1019=
201910170700 METAR LRIA 170700Z 10004KT 0100 R14/0200N R32/0200N FG VV000
                        10/10 Q1020=
201910170730 METAR LRIA 170730Z 09004KT 0100 R14/0225N R32/0250N FG VV001
                        11/11 Q1020=
201910170800 METAR LRIA 170800Z 03003KT 360V060 0100 R14/0225N R32/0300N
                        FG VV001 11/11 Q1020=
201910170830 METAR LRIA 170830Z 06003KT 350V080 0100 R14/0550N R32/0400N
                        FG VV001 12/12 Q1020=
201910170900 METAR LRIA 170900Z 10003KT 050V120 1300 R14/1400U R32/1300U
                        BR BKN001 13/13 Q1020=
201910170930 METAR LRIA 170930Z 08003KT 050V110 3000 BR SCT001 13/13 Q1020=
201910171000 METAR LRIA 171000Z 10005KT 5000 2000SE BR FEW003 14/14 Q1020=
201910171030 METAR LRIA 171030Z 11007KT 5000 2000SE BR FEW006 14/14 Q1020=
201910171100 METAR LRIA 171100Z 11007KT 8000 FEW010 15/13 Q1020=
201910171130 METAR LRIA 171130Z 10005KT CAVOK 17/13 Q1019=
201910171200 METAR LRIA 171200Z VRB02KT CAVOK 18/13 Q1019=
201910171230 METAR LRIA 171230Z 12003KT 080V170 CAVOK 19/12 Q1019=
201910171300 METAR LRIA 171300Z 13003KT 100V170 CAVOK 19/12 Q1019=
201910171330 METAR LRIA 171330Z VRB02KT CAVOK 19/12 Q1019=
201910171400 METAR LRIA 171400Z VRB01KT CAVOK 19/12 Q1019=
201910171430 METAR LRIA 171430Z 13003KT CAVOK 19/12 Q1019=
201910171500 METAR LRIA 171500Z 12003KT CAVOK 18/12 Q1019=
201910171530 METAR LRIA 171530Z 03003KT CAVOK 15/11 Q1019=
201910171600 METAR LRIA 171600Z 05003KT 020V080 CAVOK 14/11 Q1019=
201910171630 METAR LRIA 171630Z 05002KT CAVOK 15/11 Q1019=
201910171700 METAR LRIA 171700Z 10003KT CAVOK 15/12 Q1019=
201910171730 METAR LRIA 171730Z VRB01KT CAVOK 14/11 Q1019=
201910171800 METAR LRIA 171800Z 00000KT CAVOK 13/11 Q1019=
201910171830 METAR LRIA 171830Z VRB01KT CAVOK 14/12 Q1019=
201910171900 METAR LRIA 171900Z 31001KT 7000 NSC 12/11 Q1019=
201910171930 METAR LRIA 171930Z 29002KT 7000 NSC 13/12 Q1019=
201910172000 METAR LRIA 172000Z 27002KT 3900 BR NSC 12/12 Q1019=
201910172030 METAR LRIA 172030Z 00000KT 5000 BR NSC 12/11 Q1019=
201910172100 METAR LRIA 172100Z 00000KT 3800 BR NSC 11/11 Q1019=
201910172130 METAR LRIA 172130Z 00000KT 3600 BR NSC 11/10 Q1019=
201910172200 METAR LRIA 172200Z 00000KT 0400 R14/0350N R32/P2000 FG NSC
                        10/10 Q1019=
201910172230 METAR LRIA 172230Z 00000KT 0400 R14/0500N R32/1200U FG NSC
                        11/10 Q1019=
201910172300 METAR LRIA 172300Z 30001KT 0200 R14/0275N R32/1700D FG NSC
                        08/08 Q1019=
201910172330 METAR LRIA 172330Z 00000KT 0150 R14/0200N R32/1000D FG NSC
                        07/07 Q1019=
201910180000 METAR LRIA 180000Z 13002KT 0150 R14/0200N R32/0200N FG BKN001
                        07/08 Q1019=
201910180030 METAR LRIA 180030Z 26002KT 0200 R14/0275N R32/0250N FG VV001
                        08/08 Q1019=
201910180100 METAR LRIA 180100Z 28003KT 0300 R14/0350N R32/0225N FG VV001
                        07/07 Q1019=
201910180130 METAR LRIA 180130Z 31002KT 0350 R14/0400N R32/0650N FG VV001
                        07/06 Q1019=
201910180200 METAR LRIA 180200Z 26002KT 0300 R14/0400N R32/0450N FG VV001
                        06/06 Q1019=
201910180230 METAR LRIA 180230Z 29002KT 0200 R14/0225N R32/0350N FG VV001
                        06/06 Q1019=
201910180300 METAR LRIA 180300Z 28002KT 0250 R14/0275N R32/0375N FG VV001
                        07/07 Q1019=
201910180330 METAR LRIA 180330Z 00000KT 0300 R14/0375N R32/0325N FG VV001
                        07/06 Q1019=
201910180400 METAR LRIA 180400Z 00000KT 0200 R14/0250N R32/0450N FG VV001
                        07/07 Q1019=
201910180430 METAR LRIA 180430Z 29002KT 0100 R14/0300N R32/0300N FG VV001
                        06/06 Q1019=
201910180500 METAR LRIA 180500Z VRB02KT 0100 R14/0225N R32/0275N FG VV001
                        06/06 Q1019=
201910180530 METAR LRIA 180530Z 27002KT 0100 R14/0250N R32/0275N FG VV000
                        07/06 Q1020=
201910180600 METAR LRIA 180600Z VRB01KT 0100 R14/0175N R32/0300N FG VV001
                        07/07 Q1020=
201910180630 METAR LRIA 180630Z VRB02KT 0100 R14/0200N R32/0250N FG VV001
                        07/07 Q1020=
201910180700 METAR LRIA 180700Z 27003KT 230V290 0100 R14/0200N R32/0325N
                        FG VV001 08/08 Q1020=
201910180730 METAR LRIA 180730Z 25003KT 220V280 0250 R14/0450D R32/0350N
                        FG VV001 09/09 Q1020=
201910180800 METAR COR LRIA 180800Z VRB02KT 4000 1500SE BCFG BR BKN002
                        11/11 Q1020=
201910180830 METAR LRIA 180830Z VRB03KT 8000 NSC 13/13 Q1020=
201910180900 METAR LRIA 180900Z 26003KT 9000 NSC 14/14 Q1020=
201910180930 METAR LRIA 180930Z 25003KT 180V290 9000 NSC 16/14 Q1020=
201910181000 METAR LRIA 181000Z VRB01KT CAVOK 18/13 Q1019=
201910181030 METAR LRIA 181030Z VRB02KT CAVOK 20/13 Q1019=
201910181100 METAR LRIA 181100Z 12003KT 070V160 CAVOK 20/12 Q1018=
201910181130 METAR LRIA 181130Z VRB02KT CAVOK 20/11 Q1018=
201910181200 METAR LRIA 181200Z 10003KT 070V140 CAVOK 21/10 Q1018=
201910181230 METAR LRIA 181230Z 10005KT CAVOK 21/09 Q1018=
201910181300 METAR LRIA 181300Z 12004KT 090V170 CAVOK 22/09 Q1018=
201910181330 METAR LRIA 181330Z 12003KT CAVOK 22/10 Q1017=
201910181400 METAR LRIA 181400Z 10004KT CAVOK 22/10 Q1017=
201910181430 METAR LRIA 181430Z 09004KT CAVOK 21/11 Q1017=
201910181500 METAR LRIA 181500Z 08003KT CAVOK 20/10 Q1017=
201910181530 METAR LRIA 181530Z 09003KT CAVOK 19/10 Q1017=
201910181600 METAR LRIA 181600Z 10004KT CAVOK 18/10 Q1017=
201910181630 METAR LRIA 181630Z 12003KT CAVOK 17/10 Q1017=
201910181700 METAR LRIA 181700Z 15002KT CAVOK 17/10 Q1017=
201910181730 METAR LRIA 181730Z 00000KT CAVOK 16/10 Q1017=
201910181800 METAR LRIA 181800Z 14002KT CAVOK 16/10 Q1017=
201910181830 METAR LRIA 181830Z 09001KT CAVOK 16/10 Q1018=
201910181900 METAR LRIA 181900Z 00000KT CAVOK 14/09 Q1018=
201910181930 METAR LRIA 181930Z 00000KT CAVOK 14/09 Q1018=
201910182000 METAR LRIA 182000Z 00000KT CAVOK 14/10 Q1018=
201910182030 METAR LRIA 182030Z 00000KT CAVOK 14/10 Q1018=
201910182100 METAR LRIA 182100Z 06006KT CAVOK 12/09 Q1018=
201910182130 METAR LRIA 182130Z 07007KT CAVOK 12/10 Q1018=
201910182200 METAR LRIA 182200Z 08007KT CAVOK 12/10 Q1018=
201910182230 METAR LRIA 182230Z 09007KT CAVOK 12/10 Q1018=
201910182300 METAR LRIA 182300Z 08007KT CAVOK 11/10 Q1018=
201910182330 METAR LRIA 182330Z 08008KT CAVOK 11/10 Q1018=
201910190000 METAR LRIA 190000Z 07006KT CAVOK 11/10 Q1018=
201910190030 METAR LRIA 190030Z 08006KT CAVOK 10/10 Q1018=
201910190100 METAR LRIA 190100Z 08007KT CAVOK 11/10 Q1018=
201910190130 METAR LRIA 190130Z 09006KT CAVOK 11/10 Q1018=
201910190200 METAR LRIA 190200Z 08008KT CAVOK 11/10 Q1018=
201910190230 METAR LRIA 190230Z 10007KT 5000 1300SE R14/P2000 R32/P2000
                        BR NSC 10/09 Q1018=
201910190300 METAR LRIA 190300Z 09006KT 0100 R14/P2000 R32/0275N FG VV001
                        09/08 Q1018=
201910190330 METAR LRIA 190330Z 08006KT 0400 R14/P2000 R32/0750D FG NSC
                        09/08 Q1018=
201910190400 METAR LRIA 190400Z 08006KT 1200 0400SE R14/P2000 R32/0300N
                        BR PRFG NSC 09/09 Q1018=
201910190430 METAR LRIA 190430Z 08006KT 0050 R14/0300N R32/0225N FG VV001
                        09/08 Q1018=
201910190500 METAR LRIA 190500Z 07004KT 0050 R14/0175N R32/0200N FG VV000
                        08/08 Q1019=
201910190530 METAR LRIA 190530Z 08005KT 1200 0300SE R14/1500D R32/375N
                        PRFG BR SCT001 09/09 Q1019=
201910190600 METAR LRIA 190600Z 07005KT 3000 1200SE R14/P2000 R32/P2000U
                        PRFG BR NSC 10/10 Q1019=
201910190630 METAR LRIA 190630Z 08006KT 0600 R14/0900D R32/1000D FG BKN001
                        10/10 Q1019=
201910190700 METAR LRIA 190700Z 09007KT 0150 R14/0300N R32/0225N FG VV001
                        10/10 Q1019=
201910190730 METAR LRIA 190730Z 10011KT 0100 R14/0225N R32/0225N FG VV001
                        10/10 Q1019=
201910190800 METAR LRIA 190800Z 10010KT 0150 R14/0300N R32/0275N FG VV001
                        11/11 Q1020=
201910190830 METAR LRIA 190830Z 10011KT 0250 R14/0450N R32/0700N FG VV001
                        11/11 Q1020=
201910190900 METAR LRIA 190900Z 09012KT 0600 R14/0800U R32/1600U FG VV001
                        11/11 Q1020=
201910190930 METAR LRIA 190930Z 10013KT 8000 BKN002 12/12 Q1019=
201910191000 METAR LRIA 191000Z 10013KT 9999 FEW003 14/13 Q1019=
201910191030 METAR LRIA 191030Z 10013KT CAVOK 15/13 Q1019=
201910191100 METAR LRIA 191100Z 11015KT CAVOK 16/12 Q1019=
201910191130 METAR LRIA 191130Z 11015KT CAVOK 16/12 Q1019=
201910191200 METAR LRIA 191200Z 11015KT CAVOK 16/12 Q1018=
201910191230 METAR LRIA 191230Z 11016KT CAVOK 16/12 Q1018=
201910191300 METAR LRIA 191300Z 11015KT CAVOK 16/12 Q1018=
201910191330 METAR LRIA 191330Z 11015KT CAVOK 15/12 Q1018=
201910191400 METAR LRIA 191400Z 11014KT CAVOK 15/12 Q1018=
201910191430 METAR LRIA 191430Z 11013KT CAVOK 14/12 Q1018=
201910191500 METAR LRIA 191500Z 10010KT CAVOK 14/11 Q1019=
201910191530 METAR LRIA 191530Z 11009KT CAVOK 13/11 Q1019=
201910191600 METAR LRIA 191600Z 11007KT CAVOK 13/11 Q1019=
201910191630 METAR LRIA 191630Z 11007KT CAVOK 13/11 Q1019=
201910191700 METAR LRIA 191700Z 11006KT CAVOK 12/11 Q1020=
201910191730 METAR LRIA 191730Z 11007KT CAVOK 12/11 Q1020=
201910191800 METAR LRIA 191800Z 08007KT CAVOK 11/10 Q1020=
201910191830 METAR LRIA 191830Z 09007KT CAVOK 11/10 Q1020=
201910191900 METAR LRIA 191900Z 08006KT CAVOK 11/10 Q1020=
201910191930 METAR LRIA 191930Z 08007KT CAVOK 11/10 Q1020=
201910192000 METAR LRIA 192000Z 09008KT CAVOK 11/10 Q1020=
201910192030 METAR LRIA 192030Z 09007KT CAVOK 11/10 Q1020=
201910192100 METAR LRIA 192100Z 09008KT 8000 NSC 10/10 Q1020=
201910192130 METAR LRIA 192130Z 07006KT 8000 NSC 10/10 Q1020=
201910192200 METAR LRIA 192200Z 08006KT 8000 NSC 10/10 Q1020=
201910192230 METAR LRIA 192230Z 08007KT 8000 NSC 10/10 Q1020=
201910192300 METAR LRIA 192300Z 09006KT 6000 NSC 10/10 Q1020=
201910192330 METAR LRIA 192330Z 08006KT 4000 BR NSC 10/10 Q1020=
201910200000 METAR LRIA 200000Z 08007KT 0300 R14/0450N R32/0500D FG VV001
                        10/10 Q1020=
201910200030 METAR LRIA 200030Z 09006KT 0800 R14/P2000N R32/P2000U FG
                        BKN001 10/10 Q1020=
201910200100 METAR LRIA 200100Z 08008KT 0300 R14/0350N R32/0275N FG VV001
                        10/09 Q1020=
201910200130 METAR LRIA 200130Z 09006KT 0100 R14/0325N R32/0250N FG VV001
                        09/09 Q1020=
201910200200 METAR LRIA 200200Z 09008KT 0100 R14/0375N R32/0300N FG VV001
                        09/09 Q1020=
201910200230 METAR LRIA 200230Z 09006KT 0100 R14/0300N R32/0300N FG VV001
                        10/10 Q1020=
201910200300 METAR LRIA 200300Z 10007KT 0050 R14/0275N R32/0275N FG VV000
                        09/09 Q1020=
201910200330 METAR LRIA 200330Z 09007KT 0050 R14/0275N R32/0275N FG VV000
                        09/09 Q1020=
201910200400 METAR LRIA 200400Z 10007KT 0100 R14/0300N R32/0325N FG VV001
                        10/10 Q1021=
201910200430 METAR LRIA 200430Z 10005KT 0100 R14/0300N R32/0300N FG VV001
                        10/10 Q1021=
201910200500 METAR LRIA 200500Z 11004KT 0100 R14/0300N R32/0250N FG VV001
                        10/10 Q1021=
201910200530 METAR COR LRIA 200530Z 12004KT 0100 R14/0300N R32/0250N FG
                        VV001 10/10 Q1021=
201910200600 METAR LRIA 200600Z 11003KT 070V130 0150 R14/0300N R32/0300N
                        FG VV001 11/11 Q1021=
201910200630 METAR LRIA 200630Z 12005KT 0300 R14/0375N R32/0325N FG VV001
                        11/11 Q1021=
201910200700 METAR LRIA 200700Z 14004KT 0300 R14/0375N R32/0350N FG VV001
                        12/12 Q1021=
201910200730 METAR LRIA 200730Z 14004KT 0300 R14/0400N R32/0550N FG VV001
                        12/12 Q1022=
201910200800 METAR COR LRIA 200800Z 12004KT 100V160 3600 BR OVC002 13/13
                        Q1022=
201910200830 METAR LRIA 200830Z 12005KT 6000 SCT002 SCT003 13/13 Q1022=
201910200900 METAR LRIA 200900Z 11007KT 9000 SCT002 14/14 Q1022=
201910200930 METAR COR LRIA 200930Z 11011KT 9999 SCT004 15/15 Q1022=
201910201000 METAR LRIA 201000Z 11010KT 9999 SCT009 17/14 Q1022=
201910201030 METAR LRIA 201030Z 10010KT CAVOK 17/14 Q1021=
201910201100 METAR LRIA 201100Z 12010KT CAVOK 18/14 Q1021=
201910201130 METAR LRIA 201130Z 11011KT CAVOK 18/14 Q1021=
201910201200 METAR LRIA 201200Z 12009KT CAVOK 18/13 Q1021=
201910201230 METAR COR LRIA 201230Z 12009KT CAVOK 19/13 Q1021=
201910201300 METAR LRIA 201300Z 11012KT CAVOK 18/14 Q1021=
201910201330 METAR LRIA 201330Z 12013KT CAVOK 18/14 Q1021=
201910201400 METAR LRIA 201400Z 12010KT CAVOK 17/14 Q1021=
201910201430 METAR LRIA 201430Z 12009KT CAVOK 17/14 Q1021=
201910201500 METAR LRIA 201500Z 12008KT CAVOK 16/13 Q1021=
201910201530 METAR COR LRIA 201530Z 13007KT 6000 FEW002 15/13 Q1021=
201910201600 METAR LRIA 201600Z 12006KT 6000 FEW010 14/13 Q1022=
201910201630 METAR LRIA 201630Z 10008KT 5000 BR FEW010 14/13 Q1022=
201910201700 METAR LRIA 201700Z 10007KT 5000 BR NSC 14/13 Q1022=
201910201730 METAR LRIA 201730Z 11009KT 5000 BR NSC 14/13 Q1021=
201910201800 METAR LRIA 201800Z 11007KT 3500 BR NSC 14/13 Q1022=
201910201830 METAR LRIA 201830Z 09007KT 3500 BR NSC 14/13 Q1022=
201910201900 METAR LRIA 201900Z 10007KT 3500 BR NSC 14/13 Q1022=
201910201930 METAR LRIA 201930Z 12007KT 3500 1500SE BR NSC 14/13 Q1022=
201910202000 METAR LRIA 202000Z 11008KT 3500 1500SE BR NSC 13/13 Q1022=
201910202030 METAR LRIA 202030Z 10006KT 3500 BR NSC 13/13 Q1022=
201910202100 METAR LRIA 202100Z 10007KT 3500 BR FEW003 13/13 Q1022=
201910202130 METAR LRIA 202130Z 10008KT 3500 BR NSC 13/13 Q1022=
201910202200 METAR LRIA 202200Z 11008KT 3500 BR NSC 13/13 Q1022=
201910202230 METAR LRIA 202230Z 10008KT 5000 2000SE BR FEW002 13/12 Q1022=
201910202300 METAR LRIA 202300Z 10007KT 7000 NSC 12/12 Q1022=
201910202330 METAR LRIA 202330Z 10009KT 5000 BR NSC 12/12 Q1022=
201910210000 METAR LRIA 210000Z 10007KT 5000 BR NSC 12/11 Q1022=
201910210030 METAR LRIA 210030Z 10006KT 6000 NSC 12/11 Q1022=
201910210100 METAR LRIA 210100Z 09007KT 6000 NSC 11/11 Q1022=
201910210130 METAR LRIA 210130Z 09007KT 6000 NSC 11/11 Q1022=
201910210200 METAR LRIA 210200Z 10007KT 5000 BR NSC 11/11 Q1022=
201910210230 METAR LRIA 210230Z 09006KT 3500 BR NSC 11/11 Q1022=
201910210300 METAR LRIA 210300Z 10006KT 0800 R14/P2000 R32/P2000 FG BKN001
                        11/10 Q1022=
201910210330 METAR LRIA 210330Z 12003KT 0150 R14/0500N R32/0400N FG VV001
                        11/11 Q1023=
201910210400 METAR LRIA 210400Z 10002KT 0100 R14/0300N R32/0300N FG VV000
                        11/11 Q1023=
201910210430 METAR LRIA 210430Z 09002KT 0100 R14/0650N R32/0450N FG VV000
                        11/11 Q1023=
201910210500 METAR LRIA 210500Z 09003KT 0400 R14/0500N R32/0325N FG VV001
                        12/12 Q1023=
201910210530 METAR LRIA 210530Z 11004KT 0300 R14/0350N R32/0325N FG VV001
                        12/12 Q1023=
201910210600 METAR LRIA 210600Z 11004KT 0800 R14/1100U R32/0800U FG VV001
                        12/12 Q1023=
201910210630 METAR LRIA 210630Z 10004KT 1300 R14/1600U R32/1000U FG SCT003
                        BKN004 13/13 Q1023=
201910210700 METAR LRIA 210700Z 10003KT 3200 BR FEW003 SCT004 BKN006 13/13
                        Q1024=
201910210730 METAR LRIA 210730Z 12003KT 5000 BE FEW001 BKN007 14/14 Q1024=
201910210800 METAR LRIA 210800Z 13004KT 7000 FEW003 SCT007 BKN009 14/14
                        Q1024=
201910210830 METAR LRIA 210830Z 15005KT 120V180 8000 FEW004 BKN009 15/14
                        Q1024=
201910210900 METAR LRIA 210900Z 11006KT 090V160 9999 FEW006 BKN009 16/14
                        Q1024=
201910210930 METAR LRIA 210930Z 11005KT 090V150 9999 FEW010 17/14 Q1024=
201910211000 METAR LRIA 211000Z 11005KT 080V140 9999 FEW012 18/14 Q1023=
201910211030 METAR LRIA 211030Z 13007KT 070V170 9999 FEW011 19/13 Q1023=
201910211100 METAR LRIA 211100Z 13008KT 100V160 9999 FEW013 20/14 Q1023=
201910211130 METAR LRIA 211130Z 13008KT CAVOK 20/14 Q1023=
201910211200 METAR LRIA 211200Z 12008KT CAVOK 20/14 Q1023=
201910211230 METAR LRIA 211230Z 11012KT CAVOK 20/14 Q1022=
201910211300 METAR LRIA 211300Z 10011KT CAVOK 19/14 Q1022=
201910211330 METAR LRIA 211330Z 11012KT CAVOK 19/14 Q1022=
201910211400 METAR LRIA 211400Z 11010KT CAVOK 19/14 Q1022=
201910211430 METAR LRIA 211430Z 10012KT CAVOK 18/14 Q1022=
201910211500 METAR LRIA 211500Z 11011KT CAVOK 17/14 Q1022=
201910211530 METAR LRIA 211530Z 11011KT CAVOK 16/14 Q1022=
201910211600 METAR LRIA 211600Z 11010KT CAVOK 16/14 Q1022=
201910211630 METAR LRIA 211630Z 11009KT CAVOK 15/13 Q1022=
201910211700 METAR LRIA 211700Z 10006KT CAVOK 15/13 Q1023=
201910211730 METAR LRIA 211730Z 10007KT CAVOK 15/13 Q1023=
201910211800 METAR LRIA 211800Z 10005KT CAVOK 14/13 Q1023=
201910211830 METAR LRIA 211830Z 09006KT CAVOK 14/13 Q1023=
201910211900 METAR LRIA 211900Z 09006KT CAVOK 14/12 Q1023=
201910211930 METAR LRIA 211930Z 10006KT 8000 NSC 14/13 Q1023=
201910212000 METAR LRIA 212000Z 09006KT 7000 NSC 13/13 Q1023=
201910212030 METAR LRIA 212030Z 09007KT 7000 NSC 14/13 Q1023=
201910212100 METAR LRIA 212100Z 09006KT 6000 NSC 13/12 Q1023=
201910212130 METAR LRIA 212130Z 09007KT 6000 NSC 13/12 Q1023=
201910212200 METAR LRIA 212200Z 09007KT 5000 BR NSC 12/12 Q1023=
201910212230 METAR LRIA 212230Z 09007KT 5000 BR NSC 12/12 Q1023=
201910212300 METAR LRIA 212300Z 08007KT 5000 BR NSC 12/12 Q1023=
201910212330 METAR LRIA 212330Z 08008KT 3000 BR NSC 12/11 Q1023=
201910220000 METAR LRIA 220000Z 09005KT 3600 BR NSC 11/11 Q1023=
201910220030 METAR LRIA 220030Z 07006KT 2000 BR NSC 11/11 Q1024=
201910220100 METAR LRIA 220100Z 08004KT 2700 R14/P2000 R32/0800D FG FEW012
                        11/10 Q1024=
201910220130 METAR LRIA 220130Z 10004KT 0500 R14/0500 R32/0300 FG OVC012
                        11/10 Q1024=
201910220200 METAR COR LRIA 220200Z 10003KT 0150 R14/0175N R32/0200N FG
                        VV002 10/10 Q1024=
201910220230 METAR COR LRIA 220230Z 13001KT 0150 R14/0200N R32/0275N FG
                        VV002 10/10 Q1024=
201910220300 METAR LRIA 220300Z VRB01KT 0200 R14/0225 R32/0300N FG VV002
                        10/10 Q1024=
201910220330 METAR LRIA 220330Z 32002KT 0200 R14/0250N R32/0300N FG VV002
                        10/10 Q1024=
201910220400 METAR LRIA 220400Z VRB02KT 0300 R14/0350N R32/0350N FG VV002
                        10/10 Q1024=
201910220430 METAR LRIA 220430Z 05003KT 0350 R14/0400N R32/0375N FG VV002
                        11/11 Q1024=
201910220500 METAR LRIA 220500Z VRB02KT 0300 R14/0375N R32/0225N FG VV002
                        11/11 Q1024=
201910220530 METAR LRIA 220530Z 12002KT 0250 R14/0325N R32/0250N FG VV002
                        11/11 Q1025=
201910220600 METAR LRIA 220600Z 00000KT 0300 R14/0350N R32/0350N FG VV002
                        11/11 Q1025=
201910220630 METAR LRIA 220630Z VRB01KT 0100 R14/0375N R32/0325N -DZ FG
                        VV001 12/12 Q1025=
201910220700 METAR LRIA 220700Z 10002KT 0200 R14/0700D R32/0650N FG VV001
                        12/12 Q1025=
201910220730 METAR COR LRIA 220730Z 09003KT 0200 R14/0700D R32/0550N FG
                        VV001 12/12 Q1025 R14/19//95=
201910220800 METAR LRIA 220800Z VRB02KT 3500 1500SE BR OVC001 12/12 Q1025
                        R14/19//95=
201910220830 METAR LRIA 220830Z VRB01KT 1500 BR OVC001 13/13 Q1025 R14/19//95=
201910220900 METAR LRIA 220900Z 13003KT 0800 R14/1500D R32/0800N FG OVC001
                        13/13 Q1025 R14/19//95=
201910220930 METAR LRIA 220930Z VRB02KT 0400 R14/1200N R32/0800N FG OVC001
                        13/13 Q1025 R14/CLRD//=
201910221000 METAR LRIA 221000Z 13002KT 0800 R14/1300D R32/1500U FG OVC001
                        13/13 Q1025=
201910221030 METAR LRIA 221030Z VRB01KT 1300 R14/P2000 R32/P2000 BR OVC001
                        13/13 Q1025=
201910221100 METAR LRIA 221100Z 13002KT 3500 BR OVC002 13/13 Q1025=
201910221130 METAR LRIA 221130Z 12004KT 5000 BR OVC002 14/14 Q1025=
201910221200 METAR LRIA 221200Z 10004KT 7000 OVC004 14/14 Q1025=
201910221230 METAR LRIA 221230Z 14003KT 090V170 6000 OVC004 14/14 Q1024=
201910221300 METAR LRIA 221300Z 12004KT 090V150 7000 OVC004 14/14 Q1024=
201910221330 METAR LRIA 221330Z 12005KT 090V150 8000 OVC005 14/14 Q1024=
201910221400 METAR LRIA 221400Z 15004KT 110V180 8000 OVC005 14/14 Q1024=
201910221430 METAR LRIA 221430Z 10005KT 8000 OVC005 14/13 Q1024=
201910221500 METAR LRIA 221500Z 10005KT 8000 OVC005 14/13 Q1024=
201910221530 METAR LRIA 221530Z 09006KT 8000 OVC005 14/13 Q1024=
201910221600 METAR LRIA 221600Z 11005KT 8000 OVC005 14/13 Q1025=
201910221630 METAR LRIA 221630Z 10004KT 7000 OVC005 14/13 Q1025=
201910221700 METAR LRIA 221700Z 12005KT 6000 OVC006 14/13 Q1025=
201910221730 METAR LRIA 221730Z 12005KT 6000 BKN004 14/13 Q1025=
201910221800 METAR LRIA 221800Z 11005KT 5000 BR FEW003 BKN005 14/13 Q1025=
201910221830 METAR LRIA 221830Z 11006KT 3000 BR FEW001 SCT002 BKN004 13/13
                        Q1025=
201910221900 METAR LRIA 221900Z 11005KT 2600 BR SCT002 BKN004 13/13 Q1025=
201910221930 METAR LRIA 221930Z 12004KT 3200 BR SCT001 BKN003 13/13 Q1025=
201910222000 METAR LRIA 222000Z 13004KT 4000 BR FEW001 SCT002 BKN004 13/13
                        Q1024=
201910222030 METAR LRIA 222030Z VRB02KT 4400 BR SCT002 BKN004 13/13 Q1024=
201910222100 METAR LRIA 222100Z 00000KT 4700 BR SCT002 BKN005 13/13 Q1024=
201910222130 METAR LRIA 222130Z 00000KT 4000 BR FEW001 SCT002 BKN004 13/13
                        Q1024=
201910222200 METAR LRIA 222200Z VRB01KT 4300 BR SCT002 BKN004 13/13 Q1024=
201910222230 METAR LRIA 222230Z 00000KT 3400 BR FEW001 BKN002 13/13 Q1024=
201910222300 METAR LRIA 222300Z 12002KT 2500 BR BKN002 OVC004 13/13 Q1024=
201910222330 METAR LRIA 222330Z VRB02KT 2400 BR OVC002 13/13 Q1024=
201910230000 METAR LRIA 230000Z VRB01KT 2000 BR OVC002 13/13 Q1024=
201910230030 METAR LRIA 230030Z VRB01KT 1600 FG OVC002 13/13 Q1024=
201910230100 METAR LRIA 230100Z 15004KT 1000 R14/1300D R32/1800D BR VV001
                        12/12 Q1024=
201910230130 METAR LRIA 230130Z 14003KT 1600 BR OVC002 12/12 Q1024=
201910230200 METAR LRIA 230200Z 09003KT 2500 BR OVC002 12/12 Q1024=
201910230230 METAR LRIA 230230Z 13003KT 100V170 1200 R14/1500U R32/P2000
                        BR OVC001 12/12 Q1023 R14/10//05=
201910230300 METAR LRIA 230300Z VRB01KT 1000 R14/1200D R32/1000U BR VV001
                        12/12 Q1023 R14/10//05=
201910230330 METAR COR LRIA 230330Z VRB01KT 1000 R14/1000D R32/P2000 BR
                        VV001 12/12 Q1023 R14/19//95=
201910230400 METAR LRIA 230400Z 27002KT 0800 R14/1000D R32/P2000 FG VV001
                        12/12 Q1024 R14/19//95=
201910230430 METAR LRIA 230430Z VRB02KT 0700 R14/0900D R32/1600D FG VV001
                        12/12 Q1023 R14/19//95=
201910230500 METAR LRIA 230500Z 15001KT 0500 R14/1200N R32/P2000 FG VV001
                        12/12 Q1024 R14/19//95=
201910230530 METAR COR LRIA 230530Z VRB02KT 0600 R14/1300D R32/P2000 FG
                        VV001 12/12 Q1024 R14/CLRD//=
201910230600 METAR LRIA 230600Z VRB01KT 0800 R14/1500N R32/P2000 FG VV001
                        12/12 Q1024=
201910230630 METAR LRIA 230630Z VRB02KT 1500 BR VV001 12/12 Q1024=
201910230700 METAR LRIA 230700Z VRB02KT 1800 BR OVC002 12/12 Q1024=
201910230730 METAR LRIA 230730Z VRB02KT 1800 BR OVC002 12/12 Q1024=
201910230800 METAR LRIA 230800Z VRB02KT 2000 BR OVC002 12/12 Q1024=
201910230830 METAR LRIA 230830Z VRB02KT 2500 BR OVC002 12/12 Q1024=
201910230900 METAR LRIA 230900Z VRB02KT 4000 BR OVC003 12/12 Q1024=
201910230930 METAR LRIA 230930Z 09002KT 5000 BR OVC004 12/12 Q1024=
201910231000 METAR LRIA 231000Z VRB02KT 5000 BR OVC004 12/11 Q1023=
201910231030 METAR LRIA 231030Z 15003KT 100V190 6000 OVC005 13/11 Q1023=
201910231100 METAR LRIA 231100Z 11004KT 6000 OVC005 13/12 Q1023=
201910231130 METAR LRIA 231130Z VRB01KT 6000 OVC006 13/11 Q1023=
201910231200 METAR LRIA 231200Z VRB02KT 6000 OVC006 13/12 Q1023=
201910231230 METAR LRIA 231230Z VRB01KT 6000 OVC006 13/12 Q1023=
201910231300 METAR LRIA 231300Z 11003KT 070V170 7000 OVC006 13/12 Q1023=
201910231330 METAR LRIA 231330Z 09004KT 050V140 8000 OVC007 13/12 Q1023=
201910231400 METAR LRIA 231400Z 06003KT 8000 OVC007 13/12 Q1023=
201910231430 METAR LRIA 231430Z 06003KT 8000 OVC007 13/12 Q1023=
201910231500 METAR LRIA 231500Z 06003KT 030V090 8000 OVC008 13/12 Q1023=
201910231530 METAR LRIA 231530Z 06004KT 8000 OVC009 13/12 Q1023=
201910231600 METAR LRIA 231600Z 06004KT 8000 OVC009 13/12 Q1023=
201910231630 METAR LRIA 231630Z 06004KT 8000 OVC008 13/12 Q1023=
201910231700 METAR LRIA 231700Z 10004KT 070V130 8000 OVC007 13/12 Q1023=
201910231730 METAR LRIA 231730Z 12004KT 8000 OVC007 13/12 Q1023=
201910231800 METAR LRIA 231800Z 12004KT 8000 OVC006 13/12 Q1023=
201910231830 METAR LRIA 231830Z 11003KT 8000 OVC006 13/12 Q1023=
201910231900 METAR LRIA 231900Z 12004KT 8000 OVC006 13/12 Q1023=
201910231930 METAR LRIA 231930Z 12002KT 7000 OVC005 13/12 Q1023=
201910232000 METAR LRIA 232000Z 11003KT 7000 OVC005 13/12 Q1023=
201910232030 METAR LRIA 232030Z VRB02KT 6000 OVC004 13/12 Q1023=
201910232100 METAR LRIA 232100Z VRB01KT 6000 OVC004 13/12 Q1023=
201910232130 METAR LRIA 232130Z VRB02KT 5000 BR OVC003 12/11 Q1022=
201910232200 METAR LRIA 232200Z VRB02KT 5000 BR OVC002 12/12 Q1022=
201910232230 METAR LRIA 232230Z 16002KT 5000 BR OVC002 12/12 Q1022=
201910232300 METAR LRIA 232300Z VRB02KT 5000 BR OVC002 12/12 Q1022=
201910232330 METAR LRIA 232330Z VRB02KT 3800 BR OVC002 12/12 Q1022=
201910240000 METAR LRIA 240000Z 00000KT 5000 BR OVC002 12/12 Q1022=
201910240030 METAR LRIA 240030Z VRB02KT 3000 BR OVC001 12/11 Q1022=
201910240100 METAR LRIA 240100Z VRB02KT 1300 R14/2000D R32/P2000 BR OVC001
                        12/11 Q1022=
201910240130 METAR LRIA 240130Z 11003KT 050V160 1300 R14/1500U R32/P2000
                        BR OVC001 11/11 Q1022=
201910240200 METAR LRIA 240200Z 13004KT 090V160 1200 R14/2000 R32/P2000
                        BR OVC001 11/11 Q1022=
201910240230 METAR LRIA 240230Z 10004KT 0700 R14/1100D R32/1000U FG VV001
                        11/11 Q1022=
201910240300 METAR LRIA 240300Z 10004KT 0300 R14/1300N R32/1500U FG VV001
                        11/11 Q1022=
201910240330 METAR LRIA 240330Z 13004KT 0500 R14/1300U R32/P2000 FG VV001
                        11/11 Q1022=
201910240400 METAR LRIA 240400Z 14004KT 1300 R14/P2000 R32/P2000 BR OVC001
                        11/11 Q1022=
201910240430 METAR LRIA 240430Z 16003KT 130V200 2000 BR OVC001 11/10 Q1022=
201910240500 METAR LRIA 240500Z 17003KT 2500 BR OVC001 11/10 Q1022=
201910240530 METAR LRIA 240530Z 14004KT 1200 R14/1800D R32/P2000 BR VV001
                        11/11 Q1022=
201910240600 METAR LRIA 240600Z 16004KT 4000 1500NW BCFG BR VV001 10/10
                        Q1022=
201910240630 METAR LRIA 240630Z 13006KT 5000 2500NW BCFG BR FEW001 OVC003
                        10/10 Q1022=
201910240700 METAR LRIA 240700Z 14005KT 110V180 6000 FEW001 OVC003 10/10
                        Q1022=
201910240730 METAR LRIA 240730Z VRB02KT 8000 FEW002 OVC004 11/10 Q1022=
201910240800 METAR LRIA 240800Z VRB02KT 8000 OVC004 11/10 Q1022=
201910240830 METAR LRIA 240830Z VRB02KT 9000 OVC005 12/10 Q1022=
201910240900 METAR LRIA 240900Z 14003KT 100V200 9000 OVC007 12/10 Q1022=
201910240930 METAR LRIA 240930Z 12003KT 090V200 9999 BKN008 13/10 Q1022=
201910241000 METAR LRIA 241000Z 09004KT 050V130 9999 BKN009 13/10 Q1022=
201910241030 METAR LRIA 241030Z 10003KT 050V170 9999 BKN010 14/11 Q1021=
201910241100 METAR LRIA 241100Z 11005KT 090V160 9999 SCT012 15/11 Q1021=
201910241130 METAR LRIA 241130Z 10005KT 070V160 9999 FEW015 15/11 Q1021=
201910241200 METAR LRIA 241200Z 09006KT 9999 FEW018 15/11 Q1020=
201910241230 METAR LRIA 241230Z 10007KT 070V130 9999 FEW030 15/11 Q1020=
201910241300 METAR LRIA 241300Z 10008KT CAVOK 15/11 Q1020=
201910241330 METAR LRIA 241330Z 10009KT CAVOK 15/11 Q1020=
201910241400 METAR LRIA 241400Z 10010KT CAVOK 14/11 Q1020=
201910241430 METAR LRIA 241430Z 10010KT CAVOK 13/11 Q1020=
201910241500 METAR LRIA 241500Z 10010KT CAVOK 12/11 Q1020=
201910241530 METAR LRIA 241530Z 10008KT 7000 FEW009 11/10 Q1020=
201910241600 METAR LRIA 241600Z 10008KT 6000 SCT003 11/10 Q1020=
201910241630 METAR LRIA 241630Z 10007KT 5000 BR FEW001 BKN002 11/10 Q1020=
201910241700 METAR LRIA 241700Z 11007KT 5000 BR OVC001 11/10 Q1020=
201910241730 METAR LRIA 241730Z 11006KT 3000 BR OVC001 11/10 Q1020=
201910241800 METAR LRIA 241800Z 11007KT 3000 BR OVC002 11/11 Q1020=
201910241830 METAR LRIA 241830Z 11007KT 3000 BR OVC002 11/11 Q1020=
201910241900 METAR LRIA 241900Z 13005KT 4000 BR OVC003 11/11 Q1021=
201910241930 METAR LRIA 241930Z 15005KT 5000 BR OVC003 11/11 Q1021=
201910242000 METAR LRIA 242000Z 13005KT 5000 BR OVC003 11/11 Q1020=
201910242030 METAR LRIA 242030Z 14004KT 5000 BR OVC003 11/10 Q1020=
201910242100 METAR LRIA 242100Z 12005KT 5000 BR OVC003 11/10 Q1020=
201910242130 METAR LRIA 242130Z 13005KT 6000 OVC004 11/10 Q1020=
201910242200 METAR LRIA 242200Z 12006KT 6000 OVC004 11/10 Q1020=
201910242230 METAR LRIA 242230Z 12004KT 100V160 7000 OVC004 11/10 Q1020=
201910242300 METAR LRIA 242300Z 12004KT 8000 OVC004 11/10 Q1020=
201910242330 METAR LRIA 242330Z 11005KT 8000 OVC004 11/10 Q1020=
201910250000 METAR LRIA 250000Z 12005KT 8000 OVC004 10/10 Q1020=
201910250030 METAR LRIA 250030Z 12005KT 9000 OVC004 10/10 Q1020=
201910250100 METAR LRIA 250100Z 14004KT 110V170 9000 OVC004 10/09 Q1020=
201910250130 METAR LRIA 250130Z 12004KT 9000 OVC004 10/09 Q1020=
201910250200 METAR LRIA 250200Z 13004KT 9000 OVC004 10/09 Q1020=
201910250230 METAR LRIA 250230Z 14004KT 100V170 8000 OVC004 10/09 Q1020=
201910250300 METAR LRIA 250300Z 16003KT 6000 OVC003 10/09 Q1020=
201910250330 METAR LRIA 250330Z 16002KT 3000 -DZ BR OVC002 10/10 Q1020=
201910250400 METAR LRIA 250400Z 13005KT 3000 -DZ BR SCT001 OVC002 10/10
                        Q1020=
201910250430 METAR LRIA 250430Z 13004KT 3000 -DZ BR OVC002 10/10 Q1020=
201910250500 METAR LRIA 250500Z 14006KT 3000 -DZ BR OVC001 10/10 Q1020=
201910250530 METAR LRIA 250530Z 16005KT 140V200 7000 OVC002 10/09 Q1021=
201910250600 METAR LRIA 250600Z 13005KT 8000 FEW003 BKN005 10/09 Q1021=
201910250630 METAR LRIA 250630Z 14005KT 120V180 9000 FEW003 BKN005 10/09
                        Q1021=
201910250700 METAR LRIA 250700Z 13004KT 9000 FEW003 BKN004 10/10 Q1021=
201910250730 METAR LRIA 250730Z 11004KT 080V160 8000 SCT003 BKN005 10/10
                        Q1021=
201910250800 METAR LRIA 250800Z 11004KT 8000 OVC003 11/10 Q1021=
201910250830 METAR LRIA 250830Z 09005KT 6000 BKN004 11/10 Q1021=
201910250900 METAR LRIA 250900Z 10005KT 6000 OVC002 11/10 Q1021=
201910250930 METAR LRIA 250930Z 08005KT 4100 BR BKN002 11/10 Q1021=
201910251000 METAR LRIA 251000Z 07005KT 4000 BR BKN003 11/11 Q1021=
201910251030 METAR LRIA 251030Z 08004KT 5000 BR BKN003 12/11 Q1021=
201910251100 METAR LRIA 251100Z 08003KT 060V120 3000 BR BKN003 12/11 Q1021=
201910251130 METAR LRIA 251130Z 09003KT 6000 SCT004 12/11 Q1021=
201910251200 METAR LRIA 251200Z 10003KT 8000 BKN004 12/11 Q1021=
201910251230 METAR LRIA 251230Z 12003KT 9000 BKN005 12/11 Q1021=
201910251300 METAR LRIA 251300Z 09003KT 8000 BKN004 12/11 Q1021=
201910251330 METAR LRIA 251330Z 10004KT 8000 FEW004 BKN008 13/11 Q1021=
201910251400 METAR LRIA 251400Z 10004KT 9000 FEW003 BKN008 13/12 Q1021=
201910251430 METAR LRIA 251430Z 08003KT 7000 FEW003 BKN009 13/12 Q1021=
201910251500 METAR LRIA 251500Z 03003KT 7000 SCT008 BKN009 13/12 Q1022=
201910251530 METAR LRIA 251530Z VRB02KT 8000 FEW007 BKN009 13/12 Q1022=
201910251600 METAR LRIA 251600Z VRB02KT 6000 SCT008 BKN009 12/12 Q1022=
201910251630 METAR LRIA 251630Z 32005KT 290V350 5000 BR FEW005 BKN009
                        12/12 Q1022=
201910251700 METAR LRIA 251700Z 34004KT 5000 BR FEW003 BKN007 12/11 Q1022=
201910251730 METAR LRIA 251730Z 31003KT 5000 BR FEW005 OVC008 12/11 Q1022=
201910251800 METAR LRIA 251800Z 33006KT 6000 FEW002 OVC009 12/11 Q1022=
201910251830 METAR LRIA 251830Z 33007KT 5000 BR FEW001 OVC009 12/11 Q1023=
201910251900 METAR LRIA 251900Z 33005KT 5000 -DZ BR SCT002 OVC009 12/11
                        Q1023=
201910251930 METAR LRIA 251930Z 33004KT 5000 -DZ BR FEW001 OVC009 11/11
                        Q1023=
201910252000 METAR LRIA 252000Z 32004KT 5000 -DZ BR FEW001 OVC009 11/11
                        Q1023=
201910252030 METAR LRIA 252030Z 32004KT 5000 BR OVC010 11/11 Q1023=
201910252100 METAR LRIA 252100Z 32003KT 300V010 6000 FEW003 OVC010 11/11
                        Q1023=
201910252130 METAR LRIA 252130Z 31002KT 7000 FEW002 OVC009 11/11 Q1023=
201910252200 METAR LRIA 252200Z 30004KT 8000 FEW004 OVC009 11/10 Q1023=
201910252230 METAR LRIA 252230Z 31004KT 8000 OVC011 11/10 Q1023=
201910252300 METAR LRIA 252300Z 25003KT 210V280 8000 OVC009 11/09 Q1023=
201910252330 METAR LRIA 252330Z 27003KT 240V300 8000 OVC009 11/09 Q1023=
201910260000 METAR LRIA 260000Z VRB01KT 9000 OVC009 11/09 Q1023=
201910260030 METAR LRIA 260030Z 29002KT 9000 OVC008 11/09 Q1024=
201910260100 METAR LRIA 260100Z 31004KT 9000 OVC008 11/09 Q1024=
201910260130 METAR LRIA 260130Z 29004KT 9000 FEW006 OVC009 10/09 Q1024=
201910260200 METAR LRIA 260200Z 30005KT 9000 FEW006 OVC009 10/09 Q1024=
201910260230 METAR LRIA 260230Z 29004KT 9000 FEW004 OVC005 10/09 Q1024=
201910260300 METAR LRIA 260300Z 29004KT 250V310 7000 OVC003 10/09 Q1024=
201910260330 METAR LRIA 260330Z 29005KT 5000 BR OVC003 10/09 Q1024=
201910260400 METAR LRIA 260400Z 33004KT 7000 FEW004 OVC006 10/09 Q1024=
201910260430 METAR LRIA 260430Z 30003KT 270V330 4000 BR OVC003 10/09 Q1024=
201910260500 METAR LRIA 260500Z VRB02KT 5000 BR SCT004 OVC007 10/09 Q1024=
201910260530 METAR LRIA 260530Z 00000KT 2400 BR BKN004 OVC007 10/09 Q1024=
201910260600 METAR LRIA 260600Z VRB02KT 2500 BR SCT003 OVC005 10/09 Q1024=
201910260630 METAR LRIA 260630Z 30003KT 260V340 4200 BR OVC003 10/09 Q1025=
201910260700 METAR LRIA 260700Z 29004KT 260V320 3800 BR SCT003 OVC005
                        10/09 Q1025=
201910260730 METAR LRIA 260730Z 25004KT 210V290 3100 BR OVC004 10/09 Q1025=
201910260800 METAR LRIA 260800Z 31005KT 4200 BR OVC004 10/09 Q1025=
201910260830 METAR LRIA 260830Z 29003KT 260V320 3700 BR BKN003 OVC005
                        10/09 Q1025=
201910260900 METAR LRIA 260900Z 29003KT 270V350 4400 BR SCT004 OVC006
                        10/09 Q1025=
201910260930 METAR LRIA 260930Z 35003KT 310V020 5000 BR SCT004 OVC007
                        11/09 Q1025=
201910261000 METAR LRIA 261000Z 27003KT 220V330 6000 FEW004 SCT006 OVC009
                        11/09 Q1025=
201910261030 METAR LRIA 261030Z VRB02KT 6000 SCT007 BKN009 12/10 Q1024=
201910261100 METAR LRIA 261100Z VRB02KT 6000 SCT007 BKN009 13/10 Q1024=
201910261130 METAR LRIA 261130Z 08003KT 030V120 7000 BKN009 13/10 Q1024=
201910261200 METAR LRIA 261200Z 09003KT 020V120 8000 SCT009 14/10 Q1024=
201910261230 METAR LRIA 261230Z 06003KT 7000 NSC 14/10 Q1023=
201910261300 METAR LRIA 261300Z 07005KT 8000 NSC 13/10 Q1023=
201910261330 METAR LRIA 261330Z 09006KT 7000 NSC 13/10 Q1023=
201910261400 METAR LRIA 261400Z 08007KT 6000 NSC 12/10 Q1023=
201910261430 METAR LRIA 261430Z 07006KT 5000 BR NSC 11/10 Q1023=
201910261500 METAR LRIA 261500Z 08007KT 4500 BR NSC 11/10 Q1023=
201910261530 METAR LRIA 261530Z 07006KT 5000 BR NSC 10/09 Q1023=
201910261600 METAR LRIA 261600Z 07006KT 4800 BR NSC 10/09 Q1023=
201910261630 METAR LRIA 261630Z 07007KT 4300 BR NSC 10/09 Q1023=
201910261700 METAR LRIA 261700Z 06005KT 4300 BR NSC 09/08 Q1023=
201910261730 METAR LRIA 261730Z 05006KT 4000 BR FEW004 09/08 Q1024=
201910261800 METAR LRIA 261800Z 05005KT 3000 BR SCT003 SCT004 09/09 Q1024=
201910261830 METAR LRIA 261830Z 06005KT 2000 BR SCT003 09/09 Q1024=
201910261900 METAR LRIA 261900Z 10006KT 1000 R14/1800U R32/1200D BR SCT002
                        10/09 Q1024=
201910261930 METAR LRIA 261930Z 11005KT 0300 R14/0450 R32/0400N FG VV003
                        10/09 Q1023=
201910262000 METAR LRIA 262000Z 10006KT 0300 R14/0375N R32/0375N FG VV003
                        09/09 Q1023=
201910262030 METAR LRIA 262030Z 10005KT 0150 R14/0300N R32/0275N FG VV003
                        09/09 Q1023=
201910262100 METAR LRIA 262100Z 11004KT 080V140 0200 R14/0250N R32/0200N
                        FG VV002 09/09 Q1023=
201910262130 METAR LRIA 262130Z 10003KT 070V140 0200 R14/0250N R32/0225N
                        FG VV002 09/09 Q1023=
201910262200 METAR COR LRIA 262200Z VRB02KT 0200 R14/0250N R32/0225N FG
                        VV002 09/09 Q1023=
201910262230 METAR LRIA 262230Z VRB01KT 0150 R14/0275N R32/0250N FG VV002
                        09/09 Q1023=
201910262300 METAR LRIA 262300Z 13003KT 0150 R14/0275N R32/0250N FG VV003
                        08/08 Q1023=
201910262330 METAR COR LRIA 262330Z 08003KT 0200 R14/0250N R32/0275N FG
                        VV003 08/08 Q1023=
201910270000 METAR LRIA 270000Z 10004KT 080V140 0100 R14/0300N R32/0300N
                        FG VV003 08/08 Q1022=
201910270030 METAR LRIA 270030Z 11006KT 0250 R14/0325N R32/0300N FG VV003
                        08/08 Q1022=
201910270100 METAR LRIA 270100Z 12004KT 0250 R14/0275N R32/0275N FG VV003
                        08/08 Q1022=
201910270130 METAR COR LRIA 270130Z 11005KT 0250 R14/0325N R32/0300N FG
                        VV003 08/08 Q1021=
201910270200 METAR LRIA 270200Z 13004KT 0250 R14/0300N R32/0250N FG VV003
                        08/08 Q1021=
201910270230 METAR COR LRIA 270230Z 15003KT 0200 R14/0275N R32/0250N FG
                        VV003 08/08 Q1021=
201910270300 METAR COR LRIA 270300Z 13003KT 090V160 0250 R14/0275N R32/0325N
                        FG VV003 08/08 Q1021=
201910270330 METAR COR LRIA 270330Z 16003KT 130V190 0200 R14/0350N R32/0300N
                        FG VV003 08/08 Q1021=
201910270400 METAR LRIA 270400Z VRB01KT 0250 R14/0400N R32/0375N FG VV003
                        08/08 Q1021=
201910270430 METAR LRIA 270430Z 11002KT 0300 R14/0400N R32/0400N FG VV003
                        08/08 Q1021=
201910270500 METAR LRIA 270500Z 10005KT 0300 R14/0400N R32/0400N FG VV003
                        08/08 Q1021=
201910270530 METAR LRIA 270530Z 11004KT 0350 R14/0450N R32/0400N FG VV002
                        08/08 Q1021=
201910270600 METAR LRIA 270600Z 14003KT 0800 R14/0900U R32/1200U FG VV001
                        09/09 Q1021=
201910270630 METAR LRIA 270630Z 16004KT 2000 BR OVC002 09/09 Q1021=
201910270700 METAR LRIA 270700Z 17003KT 120V200 3800 BR OVC003 09/09 Q1021=
201910270730 METAR LRIA 270730Z 16003KT 110V200 5000 BR OVC002 09/09 Q1021=
201910270800 METAR LRIA 270800Z 16003KT 6000 OVC004 10/10 Q1021=
201910270830 METAR LRIA 270830Z 18004KT 160V220 8000 OVC004 10/10 Q1021=
201910270900 METAR LRIA 270900Z VRB02KT 8000 OVC005 10/10 Q1021=
201910270930 METAR LRIA 270930Z 20003KT 150V240 8000 OVC006 11/11 Q1020=
201910271000 METAR LRIA 271000Z 19004KT 150V220 8000 OVC007 11/11 Q1020=
201910271030 METAR LRIA 271030Z 16005KT 120V210 8000 OVC008 12/12 Q1020=
201910271100 METAR LRIA 271100Z 14005KT 120V180 8000 BKN009 12/11 Q1019=
201910271130 METAR LRIA 271130Z 16005KT 110V210 9999 BKN010 14/11 Q1019=
201910271200 METAR LRIA 271200Z 18004KT 150V220 9999 SCT010 14/11 Q1018=
201910271230 METAR LRIA 271230Z 16005KT 130V210 9999 FEW015 14/10 Q1018=
201910271300 METAR LRIA 271300Z 18005KT 140V210 9999 FEW015 15/10 Q1018=
201910271330 METAR LRIA 271330Z 12009KT 9999 FEW015 14/10 Q1018=
201910271400 METAR LRIA 271400Z 11009KT 9999 FEW015 13/10 Q1017=
201910271430 METAR LRIA 271430Z 11007KT 8000 FEW015 12/10 Q1017=
201910271500 METAR LRIA 271500Z 13005KT 8000 FEW015 11/09 Q1017=
201910271530 METAR LRIA 271530Z 13006KT 7000 FEW015 10/09 Q1017=
201910271600 METAR LRIA 271600Z 12005KT 5000 BR NSC 09/09 Q1017=
201910271630 METAR LRIA 271630Z 12005KT 5000 BR NSC 09/09 Q1017=
201910271700 METAR LRIA 271700Z 12004KT 5000 BR NSC 10/09 Q1018=
201910271730 METAR LRIA 271730Z 14003KT 5000 BR NSC 10/10 Q1017=
201910271800 METAR LRIA 271800Z 16004KT 5000 BR FEW007 09/09 Q1017=
201910271830 METAR LRIA 271830Z 15003KT 4300 BR FEW007 09/08 Q1017=
201910271900 METAR LRIA 271900Z 17004KT 4600 BR FEW004 09/09 Q1017=
201910271930 METAR LRIA 271930Z 18004KT 5000 BR FEW004 09/09 Q1017=
201910272000 METAR LRIA 272000Z 18003KT 5000 BR FEW004 09/09 Q1017=
201910272030 METAR LRIA 272030Z 19002KT 5000 BR BKN004 10/09 Q1017=
201910272100 METAR LRIA 272100Z 16004KT 090V200 4700 BR SCT004 BKN006
                        09/09 Q1017=
201910272130 METAR LRIA 272130Z 15004KT 5000 BR BKN005 10/09 Q1017=
201910272200 METAR LRIA 272200Z 12003KT 100V170 4400 BR SCT004 BKN006
                        10/09 Q1017=
201910272230 METAR LRIA 272230Z VRB02KT 5000 BR BKN005 10/09 Q1017=
201910272300 METAR LRIA 272300Z 14002KT 5000 BR BKN004 10/10 Q1017=
201910272330 METAR LRIA 272330Z 16003KT 130V210 4700 BR FEW003 BKN004
                        10/10 Q1016=
201910280000 METAR LRIA 280000Z 11003KT 3200 BR FEW002 BKN003 10/10 Q1016=
201910280030 METAR LRIA 280030Z 06001KT 4400 BR SCT002 BKN004 10/10 Q1016=
201910280100 METAR LRIA 280100Z VRB01KT 3300 BR SCT002 BKN003 10/10 Q1016=
201910280130 METAR LRIA 280130Z VRB01KT 2700 BR SCT002 BKN003 10/10 Q1016=
201910280200 METAR LRIA 280200Z 00000KT 3000 BR BKN002 10/10 Q1016=
201910280230 METAR LRIA 280230Z VRB02KT 2600 BR OVC002 10/10 Q1016=
201910280300 METAR LRIA 280300Z VRB01KT 2000 BR OVC002 10/10 Q1016=
201910280330 METAR LRIA 280330Z VRB02KT 0750 R14/0900D R32/P2000 FG VV001
                        09/09 Q1016=
201910280400 METAR LRIA 280400Z 31003KT 250V340 0650 R14/0800N R32/1100D
                        FG VV001 09/09 Q1016=
201910280430 METAR LRIA 280430Z 30003KT 0700 R14/0900U R32/1100U FG VV001
                        09/09 Q1016=
201910280500 METAR LRIA 280500Z 27003KT 210V330 1300 R14/1600D R32/1500D
                        BR VV001 09/09 Q1016=
201910280530 METAR LRIA 280530Z VRB02KT 0800 R14/1000D R32/1200U FG VV001
                        09/09 Q1016=
201910280600 METAR LRIA 280600Z 26003KT 210V300 0400 R14/0800D R32/1300D
                        FG VV001 09/09 Q1016=
201910280630 METAR LRIA 280630Z 29004KT 250V320 0350 R14/1000D R32/1300D
                        FG VV001 08/08 Q1016=
201910280700 METAR LRIA 280700Z VRB02KT 0500 R14/0900D R32/0800D FG VV001
                        08/08 Q1016=
201910280730 METAR LRIA 280730Z VRB02KT 0500 R14/0900N R32/1100N FG VV001
                        08/08 Q1016=
201910280800 METAR LRIA 280800Z VRB01KT 1300 0800NW R14/0900N R32/1600N
                        BCFG BR VV001 09/09 Q1017=
201910280830 METAR LRIA 280830Z VRB02KT 0600 R14/1000D R32/1400D FG VV001
                        09/09 Q1016=
201910280900 METAR LRIA 280900Z VRB02KT 1300 0800NW R14/1100N R32/P2000
                        BCFG BR VV002 09/09 Q1016=
201910280930 METAR LRIA 280930Z VRB02KT 1700 BR FEW001 OVC002 09/09 Q1016=
201910281000 METAR LRIA 281000Z VRB02KT 3000 BR FEW001 OVC002 09/09 Q1016=
201910281030 METAR LRIA 281030Z VRB02KT 5000 BR FEW002 OVC003 10/10 Q1016=
201910281100 METAR LRIA 281100Z 33003KT 270V030 6000 FEW004 OVC006 11/09
                        Q1016=
201910281130 METAR LRIA 281130Z 33004KT 300V010 6000 OVC006 11/09 Q1016=
201910281200 METAR LRIA 281200Z 34004KT 6000 BKN006 11/09 Q1015=
201910281230 METAR LRIA 281230Z 02003KT 330V080 7000 FEW008 12/09 Q1015=
201910281300 METAR LRIA 281300Z VRB02KT 8000 NSC 12/09 Q1015=
201910281330 METAR LRIA 281330Z VRB01KT 8000 NSC 13/10 Q1015=
201910281400 METAR LRIA 281400Z 33004KT 8000 NSC 13/09 Q1015=
201910281430 METAR LRIA 281430Z 31004KT 8000 NSC 12/09 Q1015=
201910281500 METAR LRIA 281500Z 33003KT 6000 NSC 11/09 Q1016=
201910281530 METAR LRIA 281530Z 01003KT 6000 NSC 10/08 Q1016=
201910281600 METAR LRIA 281600Z 31002KT 7000 NSC 10/09 Q1016=
201910281630 METAR LRIA 281630Z VRB01KT 6000 NSC 10/09 Q1017=
201910281700 METAR LRIA 281700Z 27003KT 6000 SCT027 10/09 Q1017=
201910281730 METAR LRIA 281730Z 25002KT 7000 BKN027 10/09 Q1017=
201910281800 METAR COR LRIA 281800Z 24001KT 6000 BKN029 10/09 Q1017=
201910281830 METAR LRIA 281830Z 22001KT 5000 BR BKN032 10/10 Q1017=
201910281900 METAR LRIA 281900Z 23003KT 5000 BR BKN034 10/09 Q1017=
201910281930 METAR LRIA 281930Z 26004KT 5000 BR BKN034 10/10 Q1017=
201910282000 METAR LRIA 282000Z 27003KT 250V320 5000 BR BKN035 11/10 Q1017=
201910282030 METAR LRIA 282030Z 32005KT 7000 BKN034 12/10 Q1017=
201910282100 METAR LRIA 282100Z 32006KT 7000 OVC024 12/10 Q1017=
201910282130 METAR LRIA 282130Z 34009KT 9999 FEW008 OVC024 12/10 Q1017=
201910282200 METAR LRIA 282200Z 33010KT 9999 -RA FEW015 OVC025 11/09 Q1017=
201910282230 METAR LRIA 282230Z 33007KT 9999 -RA FEW015 OVC023 10/09 Q1018=
201910282300 METAR LRIA 282300Z 32007KT 9999 FEW013 OVC023 10/09 Q1018=
201910282330 METAR LRIA 282330Z 32006KT 9999 SCT012 OVC026 10/09 Q1018=
201910290000 METAR LRIA 290000Z 32005KT 9999 SCT018 OVC028 10/09 Q1018=
201910290030 METAR LRIA 290030Z 32006KT 9999 -RADZ SCT004 OVC018 10/09
                        Q1018=
201910290100 METAR LRIA 290100Z 33006KT 9999 -DZ FEW003 OVC023 09/09 Q1018=
201910290130 METAR LRIA 290130Z 32007KT 9999 -DZ BKN002 OVC012 09/09 Q1018=
201910290200 METAR LRIA 290200Z 31005KT 8000 -DZ BKN005 OVC015 09/09 Q1018=
201910290230 METAR LRIA 290230Z 32004KT 5000 -RADZ BKN008 OVC018 09/09
                        Q1018=
201910290300 METAR COR LRIA 290300Z 33004KT 5000 -RADZ SCT004 OVC010 09/09
                        Q1018 R14/29//95=
201910290330 METAR LRIA 290330Z 32004KT 9999 SCT007 OVC015 09/08 Q1018
                        R14/29//95=
201910290400 METAR LRIA 290400Z 32005KT 9999 BKN009 OVC020 09/08 Q1018
                        R14/29//95=
201910290430 METAR LRIA 290430Z 32005KT 9999 BKN010 OVC020 09/08 Q1018
                        R14/29//95=
201910290500 METAR LRIA 290500Z 33006KT 9999 FEW005 OVC010 09/08 Q1018
                        R14/29//95=
201910290530 METAR LRIA 290530Z 34007KT 9999 FEW005 BKN011 OVC020 09/08
                        Q1019 R14/29//95=
201910290600 METAR LRIA 290600Z 34008KT 9999 SCT018 OVC029 09/08 Q1019
                        R14/29//95=
201910290630 METAR LRIA 290630Z 34006KT 9999 SCT018 OVC034 09/08 Q1019
                        R14/29//95=
201910290700 METAR LRIA 290700Z 32004KT 9999 FEW018 OVC033 09/08 Q1019
                        R14/29//95=
201910290730 METAR LRIA 290730Z VRB02KT 9999 FEW018 OVC034 09/08 Q1019
                        R14/29//95=
201910290800 METAR LRIA 290800Z 33003KT 9999 FEW008 OVC034 09/08 Q1019
                        R14/29//95=
201910290830 METAR LRIA 290830Z 30004KT 9999 FEW006 BKN036 09/08 Q1019
                        R14/29//95=
201910290900 METAR LRIA 290900Z 31004KT 280V340 9999 FEW006 OVC043 10/08
                        Q1019 R14/29//95=
201910290930 METAR LRIA 290930Z 32003KT 280V340 9999 FEW007 BKN044 10/08
                        Q1019 R14/29//95=
201910291000 METAR LRIA 291000Z 33004KT 9999 FEW009 BKN045 10/07 Q1019
                        R14/29//95=
201910291030 METAR LRIA 291030Z 31003KT 9999 FEW011 OVC046 10/07 Q1019
                        R14/19//95=
201910291100 METAR LRIA 291100Z 30003KT 260V330 9999 FEW011 OVC045 10/07
                        Q1019 R14/19//95=
201910291130 METAR LRIA 291130Z 32004KT 290V360 9999 FEW015 BKN044 10/07
                        Q1018 R14/19//95=
201910291200 METAR LRIA 291200Z 32004KT 9999 FEW015 OVC043 10/07 Q1018
                        R14/19//95=
201910291230 METAR LRIA 291230Z 31004KT 9999 FEW030 BKN042 10/07 Q1018
                        R14/19//95=
201910291300 METAR LRIA 291300Z 33004KT 290V350 9999 FEW025 OVC043 10/06
                        Q1018 R14/19//95=
201910291330 METAR LRIA 291330Z 32004KT 280V340 9999 FEW028 OVC044 11/06
                        Q1018 R14/19//95=
201910291400 METAR COR LRIA 291400Z 32004KT 9999 FEW019 BKN043 10/06 Q1018
                        R14/19//95=
201910291430 METAR LRIA 291430Z 32005KT 9999 BKN043 10/06 Q1018 R14/19//95=
201910291500 METAR LRIA 291500Z 33004KT 9999 BKN042 10/06 Q1018 R14/19//95=
201910291530 METAR LRIA 291530Z 31004KT 9999 BKN042 09/06 Q1018 R14/19//95=
201910291600 METAR LRIA 291600Z 32005KT 9999 OVC044 09/06 Q1019 R14/19//95=
201910291630 METAR LRIA 291630Z 32005KT 9999 OVC045 09/06 Q1019 R14/CLRD//=
201910291700 METAR LRIA 291700Z 32005KT 9999 OVC045 09/06 Q1019=
201910291730 METAR LRIA 291730Z 32005KT 9999 OVC044 09/06 Q1019=
201910291800 METAR LRIA 291800Z 33007KT 9999 OVC044 09/06 Q1020=
201910291830 METAR LRIA 291830Z 33006KT 9999 -RA OVC040 09/06 Q1020=
201910291900 METAR LRIA 291900Z 33005KT 9999 -RA OVC044 08/06 Q1020 R14/29//95=
201910291930 METAR LRIA 291930Z 32005KT 9999 -RA OVC036 08/07 Q1020 R14/29//95=
201910292000 METAR LRIA 292000Z 31004KT 9999 -RA OVC037 08/07 Q1020 R14/29//95=
201910292030 METAR LRIA 292030Z 29003KT 9999 -RA OVC040 08/07 Q1021 R14/29//95=
201910292100 METAR LRIA 292100Z 31005KT 9999 -RA OVC039 08/06 Q1021 R14/29//95=
201910292130 METAR LRIA 292130Z 30005KT 9999 -RA OVC040 08/06 Q1021 R14/29//95=
201910292200 METAR LRIA 292200Z 28004KT 9999 -RA BKN046 07/06 Q1021 R14/29//95=
201910292230 METAR LRIA 292230Z 30005KT 9999 -RA BKN035 07/06 Q1021 R14/29//95=
201910292300 METAR LRIA 292300Z 30005KT 9999 -RA BKN035 07/07 Q1021 R14/29//95=
201910292330 METAR LRIA 292330Z 30006KT 9999 -RA BKN037 07/07 Q1021 R14/29//95=
201910300000 METAR LRIA 300000Z 29005KT 9999 BKN043 07/07 Q1021 R14/29//95=
201910300030 METAR LRIA 300030Z 29007KT CAVOK 07/07 Q1021 R14/29//95=
201910300100 METAR LRIA 300100Z 30005KT CAVOK 07/06 Q1022 R14/29//95=
201910300130 METAR LRIA 300130Z 31005KT CAVOK 07/06 Q1022 R14/29//95=
201910300200 METAR LRIA 300200Z 30006KT CAVOK 07/06 Q1022 R14/29//95=
201910300230 METAR LRIA 300230Z 31006KT CAVOK 07/05 Q1022 R14/29//95=
201910300300 METAR LRIA 300300Z 31007KT CAVOK 07/05 Q1022 R14/29//95=
201910300330 METAR LRIA 300330Z 31008KT CAVOK 07/05 Q1023 R14/29//95=
201910300400 METAR LRIA 300400Z 32007KT CAVOK 06/04 Q1023 R14/29//95=
201910300430 METAR LRIA 300430Z 32007KT CAVOK 05/04 Q1023 R14/29//95=
201910300500 METAR LRIA 300500Z 31008KT CAVOK 05/04 Q1024 R14/29//95=
201910300530 METAR LRIA 300530Z 32007KT CAVOK 05/03 Q1024 R14/29//95=
201910300600 METAR LRIA 300600Z 31007KT 9999 FEW030 05/03 Q1025 R14/29//95=
201910300630 METAR LRIA 300630Z 32008KT 9999 FEW010 BKN032 05/04 Q1025
                        R14/29//95=
201910300700 METAR LRIA 300700Z 32007KT 9999 FEW010 BKN033 06/04 Q1025
                        R14/19//95=
201910300730 METAR LRIA 300730Z 32007KT 9999 FEW010 BKN033 06/05 Q1025
                        R14/19//95=
201910300800 METAR LRIA 300800Z 34010KT 9999 FEW010 BKN033 07/05 Q1026
                        R14/19//95=
201910300830 METAR LRIA 300830Z 33009KT 9999 SCT034 07/05 Q1026 R14/19//95=
201910300900 METAR LRIA 300900Z 32007KT 290V350 9999 FEW014 SCT034 08/04
                        Q1026 R14/19//95=
201910300930 METAR LRIA 300930Z 31005KT 260V030 9999 FEW017 FEW035TCU
                        BKN042 09/04 Q1026 R14/19//95=
201910301000 METAR LRIA 301000Z VRB04KT 9999 SCT023CB BKN042 09/03 Q1025
                        R14/19//95=
201910301030 METAR LRIA 301030Z 31005KT 9999 SCT020CB SCT025 09/04 Q1025
                        R14/CLRD//=
201910301100 METAR LRIA 301100Z 28006KT 250V310 9999 FEW020TCU SCT025
                        10/03 Q1025=
201910301130 METAR LRIA 301130Z 34005KT 9999 FEW033 SCT040 10/02 Q1025=
201910301200 METAR LRIA 301200Z 36007KT 9999 SCT040 09/02 Q1025=
201910301230 METAR LRIA 301230Z 34005KT 320V030 9999 FEW047 10/01 Q1025=
201910301300 METAR LRIA 301300Z 35006KT 9999 FEW047 10/00 Q1025=
201910301330 METAR LRIA 301330Z 34006KT 9999 FEW043 09/00 Q1025=
201910301400 METAR LRIA 301400Z 34007KT 9999 FEW042 09/01 Q1025=
201910301430 METAR LRIA 301430Z 34005KT 9999 FEW042 08/02 Q1025=
201910301500 METAR LRIA 301500Z 33005KT CAVOK 08/01 Q1025=
201910301530 METAR LRIA 301530Z 33004KT CAVOK 08/01 Q1025=
201910301600 METAR LRIA 301600Z 34006KT CAVOK 07/02 Q1026=
201910301630 METAR LRIA 301630Z 34006KT CAVOK 06/02 Q1026=
201910301700 METAR LRIA 301700Z 33005KT CAVOK 06/02 Q1026=
201910301730 METAR LRIA 301730Z 34005KT CAVOK 06/02 Q1026=
201910301800 METAR LRIA 301800Z 34005KT CAVOK 06/02 Q1026=
201910301830 METAR LRIA 301830Z 35005KT CAVOK 07/01 Q1026=
201910301900 METAR LRIA 301900Z 01005KT CAVOK 07/M00 Q1026=
201910301930 METAR LRIA 301930Z 01004KT CAVOK 07/M00 Q1026=
201910302000 METAR LRIA 302000Z 33004KT 290V010 CAVOK 06/01 Q1027=
201910302030 METAR LRIA 302030Z 00000KT CAVOK 06/01 Q1027=
201910302100 METAR LRIA 302100Z 28003KT CAVOK 06/02 Q1027=
201910302130 METAR LRIA 302130Z 30003KT CAVOK 06/02 Q1027=
201910302200 METAR COR LRIA 302200Z 28003KT CAVOK 05/02 Q1027=
201910302230 METAR LRIA 302230Z 32003KT CAVOK 05/01 Q1027=
201910302300 METAR LRIA 302300Z 33004KT CAVOK 05/01 Q1027=
201910302330 METAR LRIA 302330Z AUTO 30003KT 280V340 9999 FEW053/// SCT120///
                        05/00 Q1027=
201910310000 METAR COR LRIA 310000Z 30004KT CAVOK 04/00 Q1027=
201910310030 METAR COR LRIA 310030Z VRB02KT CAVOK 04/00 Q1027=
201910310100 METAR COR LRIA 310100Z 30003KT 270V330 CAVOK 04/00 Q1026=
201910310130 METAR LRIA 310130Z AUTO 32005KT 9999 FEW058/// 03/M00 Q1027=
201910310200 METAR LRIA 310200Z 32005KT CAVOK 03/M00 Q1027=
201910310230 METAR COR LRIA 310230Z 29003KT 260V320 CAVOK 03/00 Q1027=
201910310300 METAR LRIA 310300Z 33006KT CAVOK 04/00 Q1027=
201910310330 METAR LRIA 310330Z 34007KT CAVOK 04/M00 Q1027=
201910310400 METAR LRIA 310400Z 34009KT CAVOK 03/M00 Q1027=
201910310430 METAR LRIA 310430Z 34009KT CAVOK 03/M00 Q1027=
201910310500 METAR LRIA 310500Z 22002KT CAVOK 02/00 Q1027=
201910310530 METAR LRIA 310530Z 25003KT CAVOK 02/M00 Q1028=
201910310600 METAR LRIA 310600Z 29004KT CAVOK 02/M00 Q1028=
201910310630 METAR LRIA 310630Z 30004KT CAVOK 03/M01 Q1028=
201910310700 METAR LRIA 310700Z 31006KT CAVOK 03/M01 Q1028=
201910310730 METAR LRIA 310730Z 32006KT 280V350 CAVOK 04/M01 Q1028=
201910310800 METAR LRIA 310800Z 33005KT 280V350 CAVOK 05/M01 Q1028=
201910310830 METAR LRIA 310830Z 34005KT 290V040 CAVOK 06/M02 Q1028=
201910310900 METAR LRIA 310900Z 36005KT 330V050 CAVOK 06/M02 Q1028=
201910310930 METAR LRIA 310930Z 34004KT 280V050 CAVOK 07/M03 Q1028=
201910311000 METAR LRIA 311000Z 31005KT 270V020 CAVOK 08/M06 Q1028=
201910311030 METAR LRIA 311030Z 35005KT 290V060 CAVOK 08/M05 Q1027=
201910311100 METAR LRIA 311100Z 32005KT 260V050 9999 FEW046 09/M03 Q1027=
201910311130 METAR LRIA 311130Z 01008KT 9999 SCT045 07/M05 Q1027=
201910311200 METAR LRIA 311200Z 02007KT 9999 BKN046 07/M03 Q1027=
201910311230 METAR LRIA 311230Z 02004KT 9999 FEW045 07/M04 Q1027=
201910311300 METAR LRIA 311300Z 02006KT CAVOK 08/M05 Q1027=
201910311330 METAR LRIA 311330Z 04005KT 350V080 CAVOK 08/M04 Q1027=
201910311400 METAR LRIA 311400Z 02007KT CAVOK 07/M04 Q1027=
201910311430 METAR LRIA 311430Z 03005KT CAVOK 06/M03 Q1027=
201910311500 METAR LRIA 311500Z 05006KT CAVOK 05/M03 Q1027=
201910311530 METAR LRIA 311530Z 05005KT CAVOK 05/M03 Q1027=
201910311600 METAR LRIA 311600Z 08003KT CAVOK 05/M03 Q1027=
201910311630 METAR LRIA 311630Z 08004KT CAVOK 05/M03 Q1027=
201910311700 METAR LRIA 311700Z 06003KT CAVOK 05/M03 Q1027=
201910311730 METAR LRIA 311730Z 07004KT CAVOK 05/M03 Q1027=
201910311800 METAR LRIA 311800Z 09003KT CAVOK 04/M03 Q1027=
201910311830 METAR LRIA 311830Z 11003KT CAVOK 05/M03 Q1027=
201910311900 METAR LRIA 311900Z 07002KT CAVOK 05/M03 Q1027=
201910311930 METAR LRIA 311930Z 07003KT 010V100 CAVOK 04/M02 Q1027=
201910312000 METAR LRIA 312000Z VRB02KT CAVOK 04/M03 Q1027=
201910312030 METAR LRIA 312030Z VRB02KT CAVOK 04/M02 Q1027=
201910312100 METAR LRIA 312100Z 00000KT CAVOK 04/M01 Q1027=
201910312130 METAR LRIA 312130Z 07004KT CAVOK 03/M02 Q1027=
201910312200 METAR LRIA 312200Z 06004KT CAVOK 03/M02 Q1027=
201910312230 METAR LRIA 312230Z 09002KT CAVOK 03/M03 Q1027=
201910312300 METAR LRIA 312300Z 09002KT CAVOK 04/M03 Q1026=
201910312330 METAR LRIA 312330Z 10004KT CAVOK 03/M02 Q1026=
