201911010000 METAR LRIA 010000Z 10005KT CAVOK 02/M02 Q1026=
201911010030 METAR LRIA 010030Z 08005KT CAVOK 01/M03 Q1026=
201911010100 METAR LRIA 010100Z 07003KT 340V130 CAVOK 01/M03 Q1026=
201911010130 METAR LRIA 010130Z 10002KT CAVOK 01/M03 Q1026=
201911010200 METAR LRIA 010200Z 00000KT CAVOK 01/M03 Q1026=
201911010230 METAR LRIA 010230Z 15002KT CAVOK 01/M03 Q1026=
201911010300 METAR LRIA 010300Z 14001KT CAVOK 00/M03 Q1026=
201911010330 METAR LRIA 010330Z VRB01KT CAVOK 01/M03 Q1026=
201911010400 METAR LRIA 010400Z 00000KT CAVOK 01/M02 Q1026=
201911010430 METAR LRIA 010430Z 10004KT CAVOK 00/M03 Q1026=
201911010500 METAR LRIA 010500Z 09005KT CAVOK M01/M03 Q1026=
201911010530 METAR LRIA 010530Z 06004KT CAVOK M01/M04 Q1026=
201911010600 METAR LRIA 010600Z 07004KT CAVOK 01/M03 Q1027=
201911010630 METAR LRIA 010630Z 09003KT CAVOK 02/M03 Q1027=
201911010700 METAR LRIA 010700Z 08002KT CAVOK 03/M03 Q1027=
201911010730 METAR LRIA 010730Z VRB02KT CAVOK 05/M03 Q1027=
201911010800 METAR LRIA 010800Z VRB02KT CAVOK 06/M03 Q1027=
201911010830 METAR LRIA 010830Z 12003KT 070V150 CAVOK 07/M03 Q1027=
201911010900 METAR LRIA 010900Z VRB03KT CAVOK 08/M03 Q1026=
201911010930 METAR LRIA 010930Z 13004KT 090V160 CAVOK 08/M06 Q1026=
201911011000 METAR LRIA 011000Z 12004KT 040V190 CAVOK 08/M05 Q1026=
201911011030 METAR LRIA 011030Z 11004KT 050V160 CAVOK 09/M05 Q1026=
201911011100 METAR LRIA 011100Z VRB04KT CAVOK 09/M06 Q1025=
201911011130 METAR LRIA 011130Z VRB03KT CAVOK 09/M06 Q1025=
201911011200 METAR LRIA 011200Z 22004KT 150V310 CAVOK 10/M06 Q1025=
201911011230 METAR LRIA 011230Z 18004KT 140V280 CAVOK 09/M07 Q1025=
201911011300 METAR LRIA 011300Z 19004KT 150V230 CAVOK 10/M06 Q1025=
201911011330 METAR LRIA 011330Z VRB02KT CAVOK 09/M06 Q1024=
201911011400 METAR LRIA 011400Z 18003KT 140V210 CAVOK 09/M07 Q1024=
201911011430 METAR LRIA 011430Z 20003KT 170V230 CAVOK 08/M07 Q1024=
201911011500 METAR LRIA 011500Z 17003KT CAVOK 07/M06 Q1024=
201911011530 METAR LRIA 011530Z 16004KT CAVOK 06/M06 Q1024=
201911011600 METAR LRIA 011600Z 13003KT CAVOK 05/M05 Q1024=
201911011630 METAR LRIA 011630Z 09004KT CAVOK 04/M05 Q1024=
201911011700 METAR LRIA 011700Z 13003KT CAVOK 04/M05 Q1024=
201911011730 METAR LRIA 011730Z 16003KT CAVOK 04/M05 Q1024=
201911011800 METAR LRIA 011800Z 17004KT CAVOK 04/M05 Q1024=
201911011830 METAR LRIA 011830Z 16003KT CAVOK 03/M05 Q1024=
201911011900 METAR LRIA 011900Z 16003KT CAVOK 04/M04 Q1024=
201911011930 METAR LRIA 011930Z 17004KT CAVOK 03/M04 Q1024=
201911012000 METAR LRIA 012000Z 16005KT CAVOK 03/M04 Q1024=
201911012030 METAR LRIA 012030Z 16005KT CAVOK 03/M03 Q1024=
201911012100 METAR LRIA 012100Z 15006KT CAVOK 02/M03 Q1024=
201911012130 METAR LRIA 012130Z 15005KT CAVOK 02/M03 Q1023=
201911012200 METAR LRIA 012200Z 14007KT CAVOK 03/M03 Q1023=
201911012230 METAR LRIA 012230Z 15007KT CAVOK 03/M03 Q1023=
201911012300 METAR LRIA 012300Z 13006KT CAVOK 02/M03 Q1022=
201911012330 METAR LRIA 012330Z 14005KT CAVOK 02/M03 Q1022=
201911020000 METAR LRIA 020000Z 16006KT CAVOK 03/M03 Q1022=
201911020030 METAR LRIA 020030Z 12006KT CAVOK 01/M03 Q1021=
201911020100 METAR LRIA 020100Z 10006KT 080V140 CAVOK 01/M03 Q1021=
201911020130 METAR LRIA 020130Z 09006KT CAVOK M00/M03 Q1021=
201911020200 METAR LRIA 020200Z 09009KT CAVOK M00/M03 Q1020=
201911020230 METAR LRIA 020230Z 09009KT CAVOK 00/M02 Q1020=
201911020300 METAR LRIA 020300Z 10007KT CAVOK 00/M02 Q1020=
201911020330 METAR LRIA 020330Z 12008KT CAVOK 02/M01 Q1019=
201911020400 METAR LRIA 020400Z 14008KT 110V170 CAVOK 02/M01 Q1019=
201911020430 METAR LRIA 020430Z 13014KT 100V160 CAVOK 03/M01 Q1019=
201911020500 METAR LRIA 020500Z 13010KT CAVOK 02/M01 Q1019=
201911020530 METAR LRIA 020530Z 13011KT 9999 FEW010 02/M00 Q1018=
201911020600 METAR LRIA 020600Z 13012KT 9999 FEW016 03/01 Q1018=
201911020630 METAR LRIA 020630Z 13012KT 9999 FEW016 BKN021 04/01 Q1018=
201911020700 METAR LRIA 020700Z 15015KT 9999 SCT017 BKN020 07/03 Q1018=
201911020730 METAR LRIA 020730Z 14015G25KT 100V170 9999 SCT017 BKN020
                        07/03 Q1017=
201911020800 METAR LRIA 020800Z 15013KT 9999 FEW017 BKN020 07/03 Q1017=
201911020830 METAR LRIA 020830Z 16015G25KT 130V190 9999 BKN020 08/04 Q1017=
201911020900 METAR LRIA 020900Z 17011G21KT 140V220 9999 BKN020 09/04 Q1017=
201911020930 METAR LRIA 020930Z 17015G28KT 130V200 9999 OVC020 09/04 Q1017=
201911021000 METAR LRIA 021000Z 17014G24KT 140V220 9999 OVC020 09/04 Q1017=
201911021030 METAR LRIA 021030Z 16013G25KT 130V200 9999 OVC022 09/04 Q1016=
201911021100 METAR LRIA 021100Z 15017KT 9999 OVC022 09/04 Q1015=
201911021130 METAR LRIA 021130Z 16015G25KT 130V220 9999 OVC022 09/04 Q1015=
201911021200 METAR LRIA 021200Z 16018G29KT 140V200 9999 BKN022 10/04 Q1015=
201911021230 METAR LRIA 021230Z 17015KT 140V200 9999 BKN022 10/04 Q1015=
201911021300 METAR LRIA 021300Z 17012G22KT 130V200 9999 SCT022 10/05 Q1014=
201911021330 METAR LRIA 021330Z 17014G26KT 140V200 9999 FEW022 10/05 Q1014=
201911021400 METAR LRIA 021400Z 17015KT 150V210 9999 FEW023 10/05 Q1014=
201911021430 METAR LRIA 021430Z 16013KT 120V200 9999 FEW025 10/05 Q1014=
201911021500 METAR LRIA 021500Z 16012KT 120V190 9999 FEW023 10/05 Q1014=
201911021530 METAR LRIA 021530Z 16011KT 130V190 9999 SCT025 10/05 Q1014=
201911021600 METAR LRIA 021600Z 15012KT 9999 SCT023 10/05 Q1014=
201911021630 METAR LRIA 021630Z 16010KT 140V200 9999 -RA FEW023 10/06
                        Q1014=
201911021700 METAR LRIA 021700Z 17009KT 140V210 9999 -RA FEW023 10/07
                        Q1013 R14/29//95=
201911021730 METAR LRIA 021730Z 17011KT 140V200 9999 -RA NSC 10/07 Q1013
                        R14/29//95=
201911021800 METAR LRIA 021800Z 18013KT 150V210 9999 -RA NSC 11/06 Q1013
                        R14/29//95=
201911021830 METAR LRIA 021830Z 18013KT 150V220 CAVOK 11/07 Q1012 R14/29//95=
201911021900 METAR LRIA 021900Z 18013KT 150V210 CAVOK 11/07 Q1012 R14/29//95=
201911021930 METAR LRIA 021930Z 18014KT 150V210 CAVOK 11/07 Q1012 R14/29//95=
201911022000 METAR LRIA 022000Z 18013KT CAVOK 11/06 Q1012 R14/29//95=
201911022030 METAR COR LRIA 022030Z 18013KT 150V220 CAVOK 11/06 Q1012
                        R14/CLRD//=
201911022100 METAR LRIA 022100Z 17013KT 130V210 9999 -RA NSC 11/07 Q1011=
201911022130 METAR LRIA 022130Z 17012KT 9999 -RA NSC 11/07 Q1011=
201911022200 METAR LRIA 022200Z 17011KT CAVOK 11/07 Q1011=
201911022230 METAR LRIA 022230Z 17011KT CAVOK 11/07 Q1011=
201911022300 METAR LRIA 022300Z 17007KT 120V200 CAVOK 11/07 Q1011=
201911022330 METAR LRIA 022330Z 15007KT 110V180 9999 -RA NSC 10/07 Q1011=
201911030000 METAR LRIA 030000Z 16009KT 9999 -RA NSC 10/07 Q1011=
201911030030 METAR LRIA 030030Z 16006KT CAVOK 10/07 Q1011=
201911030100 METAR LRIA 030100Z 14008KT CAVOK 10/07 Q1010=
201911030130 METAR LRIA 030130Z 15008KT CAVOK 11/07 Q1010 REDZ=
201911030200 METAR LRIA 030200Z 13005KT CAVOK 10/07 Q1010=
201911030230 METAR LRIA 030230Z AUTO 14006KT 100V180 9999 -SHRA SCT085///
                        10/07 Q1010=
201911030300 METAR COR LRIA 030300Z 14007KT 9999 -RA NSC 10/07 Q1010=
201911030330 METAR LRIA 030330Z 13008KT CAVOK 10/07 Q1010=
201911030400 METAR LRIA 030400Z 13008KT 9999 -RA NSC 09/07 Q1010=
201911030430 METAR LRIA 030430Z 14006KT 110V170 CAVOK 09/07 Q1010=
201911030500 METAR LRIA 030500Z 13008KT CAVOK 10/07 Q1009=
201911030530 METAR LRIA 030530Z 13007KT 9999 -RA NSC 10/07 Q1010=
201911030600 METAR LRIA 030600Z 12008KT 9999 -RA NSC 10/07 Q1010 R14/19//95=
201911030630 METAR LRIA 030630Z 14006KT CAVOK 10/08 Q1010 R14/19//95=
201911030700 METAR LRIA 030700Z 14007KT CAVOK 10/08 Q1009 R14/19//95=
201911030730 METAR LRIA 030730Z 13008KT 100V160 CAVOK 11/07 Q1009 R14/19//95=
201911030800 METAR LRIA 030800Z 12007KT 100V160 CAVOK 12/08 Q1009 R14/19//95=
201911030830 METAR LRIA 030830Z 14008KT CAVOK 13/07 Q1009 R14/19//95=
201911030900 METAR LRIA 030900Z 11006KT 090V160 CAVOK 13/07 Q1009 R14/19//95=
201911030930 METAR LRIA 030930Z 11006KT CAVOK 15/08 Q1008 R14/19//95=
201911031000 METAR LRIA 031000Z 18008KT 140V210 CAVOK 16/07 Q1008 R14/19//95=
201911031030 METAR LRIA 031030Z 17007KT 140V200 CAVOK 16/07 Q1008 R14/19//95=
201911031100 METAR LRIA 031100Z 17006KT 130V200 CAVOK 17/08 Q1008 R14/CLRD//=
201911031130 METAR LRIA 031130Z 13005KT CAVOK 17/07 Q1007=
201911031200 METAR LRIA 031200Z 16005KT 110V200 CAVOK 18/08 Q1007=
201911031230 METAR LRIA 031230Z 16006KT CAVOK 17/08 Q1007=
201911031300 METAR LRIA 031300Z 17008KT 140V200 CAVOK 16/08 Q1007=
201911031330 METAR LRIA 031330Z 14006KT CAVOK 16/08 Q1007=
201911031400 METAR LRIA 031400Z 13006KT CAVOK 16/08 Q1007=
201911031430 METAR LRIA 031430Z 16006KT 130V200 CAVOK 16/08 Q1007=
201911031500 METAR LRIA 031500Z 15007KT CAVOK 15/08 Q1007=
201911031530 METAR LRIA 031530Z 14005KT 110V170 CAVOK 14/08 Q1007=
201911031600 METAR LRIA 031600Z 13008KT CAVOK 14/08 Q1007 WS R32=
201911031630 METAR LRIA 031630Z 12007KT 100V160 CAVOK 14/08 Q1007 WS R32=
201911031700 METAR LRIA 031700Z 14008KT CAVOK 13/08 Q1007 WS R32=
201911031730 METAR LRIA 031730Z 15008KT CAVOK 13/07 Q1006 WS R32=
201911031800 METAR LRIA 031800Z 14007KT CAVOK 12/07 Q1006 WS R32=
201911031830 METAR LRIA 031830Z 16010KT CAVOK 14/08 Q1006 WS R32=
201911031900 METAR LRIA 031900Z 15008KT 110V170 CAVOK 13/08 Q1006 WS R32=
201911031930 METAR LRIA 031930Z 17009KT CAVOK 14/08 Q1006 WS R32=
201911032000 METAR LRIA 032000Z 17008KT CAVOK 14/08 Q1006 WS R32=
201911032030 METAR LRIA 032030Z 17010KT 150V210 CAVOK 14/08 Q1005 WS R14=
201911032100 METAR LRIA 032100Z 16005KT 140V220 CAVOK 14/07 Q1005 WS R14=
201911032130 METAR LRIA 032130Z 16005KT CAVOK 14/07 Q1005 WS R14=
201911032200 METAR LRIA 032200Z 16010KT CAVOK 14/07 Q1005 WS R32=
201911032230 METAR LRIA 032230Z 16006KT CAVOK 14/08 Q1005 WS R32=
201911032300 METAR LRIA 032300Z 13008KT CAVOK 13/08 Q1004 WS R32=
201911032330 METAR LRIA 032330Z 11008KT CAVOK 12/09 Q1004 WS R32=
201911040000 METAR LRIA 040000Z 11007KT CAVOK 12/09 Q1004 WS R32=
201911040030 METAR LRIA 040030Z 11010KT CAVOK 12/09 Q1004 WS R32=
201911040100 METAR LRIA 040100Z 11010KT CAVOK 11/09 Q1004 WS R32=
201911040130 METAR LRIA 040130Z 12010KT CAVOK 11/09 Q1004 WS R32=
201911040200 METAR LRIA 040200Z 10007KT CAVOK 11/09 Q1004=
201911040230 METAR LRIA 040230Z 10009KT CAVOK 11/09 Q1004=
201911040300 METAR LRIA 040300Z 11012KT CAVOK 11/09 Q1004=
201911040330 METAR LRIA 040330Z 11010KT CAVOK 11/09 Q1003=
201911040400 METAR LRIA 040400Z 10010KT CAVOK 10/09 Q1003=
201911040430 METAR LRIA 040430Z 11009KT CAVOK 10/09 Q1003=
201911040500 METAR LRIA 040500Z 10009KT CAVOK 10/09 Q1003=
201911040530 METAR LRIA 040530Z 11010KT CAVOK 10/09 Q1003=
201911040600 METAR LRIA 040600Z 11010KT CAVOK 11/09 Q1003=
201911040630 METAR LRIA 040630Z 11011KT CAVOK 11/09 Q1003=
201911040700 METAR LRIA 040700Z 11010KT CAVOK 12/09 Q1003=
201911040730 METAR LRIA 040730Z 11010KT CAVOK 13/10 Q1003=
201911040800 METAR LRIA 040800Z 12009KT CAVOK 14/10 Q1003=
201911040830 METAR LRIA 040830Z 12011KT CAVOK 15/10 Q1003=
201911040900 METAR LRIA 040900Z 12011KT CAVOK 16/10 Q1003=
201911040930 METAR LRIA 040930Z 12009KT CAVOK 17/10 Q1003=
201911041000 METAR LRIA 041000Z 12013KT CAVOK 18/10 Q1002=
201911041030 METAR LRIA 041030Z 13010KT CAVOK 20/10 Q1001=
201911041100 METAR LRIA 041100Z 14006KT 090V180 CAVOK 21/10 Q1001=
201911041130 METAR LRIA 041130Z 15007KT 130V200 CAVOK 22/09 Q1001=
201911041200 METAR LRIA 041200Z 17008KT CAVOK 22/09 Q1000=
201911041230 METAR LRIA 041230Z 18010KT CAVOK 22/09 Q1000=
201911041300 METAR LRIA 041300Z 17011KT 130V200 CAVOK 22/10 Q1000=
201911041330 METAR LRIA 041330Z 16012KT CAVOK 21/10 Q1000=
201911041400 METAR LRIA 041400Z 16009KT CAVOK 20/10 Q1000=
201911041430 METAR LRIA 041430Z 17007KT CAVOK 20/10 Q1000=
201911041500 METAR LRIA 041500Z 13007KT CAVOK 18/10 Q1000=
201911041530 METAR LRIA 041530Z 14006KT CAVOK 18/10 Q1000=
201911041600 METAR LRIA 041600Z 18009KT CAVOK 19/10 Q1000=
201911041630 METAR LRIA 041630Z 18007KT 150V210 CAVOK 18/10 Q1000=
201911041700 METAR LRIA 041700Z 19008KT 160V220 CAVOK 18/11 Q1000=
201911041730 METAR LRIA 041730Z 17008KT CAVOK 18/11 Q0999=
201911041800 METAR LRIA 041800Z 12009KT CAVOK 17/11 Q0999=
201911041830 METAR LRIA 041830Z 15008KT CAVOK 18/10 Q0999=
201911041900 METAR COR LRIA 041900Z 16008KT CAVOK 18/10 Q1000=
201911041930 METAR LRIA 041930Z 17009KT 140V200 CAVOK 19/11 Q0999=
201911042000 METAR LRIA 042000Z 17007KT 140V200 CAVOK 19/11 Q0999=
201911042030 METAR LRIA 042030Z 18008KT 160V220 CAVOK 18/11 Q0999=
201911042100 METAR LRIA 042100Z 19009KT CAVOK 18/12 Q0999=
201911042130 METAR LRIA 042130Z 20009KT CAVOK 18/12 Q1000=
201911042200 METAR LRIA 042200Z 20008KT CAVOK 18/12 Q1000=
201911042230 METAR LRIA 042230Z 21008KT 180V240 CAVOK 18/12 Q1000=
201911042300 METAR LRIA 042300Z 21008KT CAVOK 17/11 Q0999=
201911042330 METAR LRIA 042330Z 22006KT CAVOK 17/11 Q1000=
201911050000 METAR LRIA 050000Z 23009KT 180V250 CAVOK 17/11 Q1000=
201911050030 METAR LRIA 050030Z 24007KT 210V270 CAVOK 17/09 Q1001=
201911050100 METAR LRIA 050100Z 21006KT CAVOK 17/09 Q1001=
201911050130 METAR LRIA 050130Z 21004KT 190V250 CAVOK 16/09 Q1001=
201911050200 METAR LRIA 050200Z 23005KT 200V260 CAVOK 16/08 Q1002=
201911050230 METAR COR LRIA 050230Z 22007KT CAVOK 16/08 Q1002=
201911050300 METAR COR LRIA 050300Z 23005KT 200V260 CAVOK 15/08 Q1003=
201911050330 METAR LRIA 050330Z 23003KT 190V330 CAVOK 15/07 Q1003=
201911050400 METAR LRIA 050400Z 22004KT CAVOK 14/08 Q1003=
201911050430 METAR COR LRIA 050430Z VRB02KT CAVOK 13/07 Q1004=
201911050500 METAR LRIA 050500Z VRB01KT CAVOK 13/07 Q1004=
201911050530 METAR LRIA 050530Z 26003KT 220V290 CAVOK 13/07 Q1005=
201911050600 METAR LRIA 050600Z VRB02KT CAVOK 15/08 Q1006=
201911050630 METAR LRIA 050630Z 01004KT 330V060 CAVOK 15/08 Q1006=
201911050700 METAR LRIA 050700Z 30003KT 240V330 CAVOK 16/08 Q1007=
201911050730 METAR LRIA 050730Z 31003KT CAVOK 17/07 Q1007=
201911050800 METAR LRIA 050800Z 15003KT 110V200 CAVOK 18/08 Q1007=
201911050830 METAR LRIA 050830Z 11003KT 020V160 CAVOK 19/07 Q1007=
201911050900 METAR LRIA 050900Z VRB02KT CAVOK 19/06 Q1007=
201911050930 METAR LRIA 050930Z 23003KT 180V270 CAVOK 20/06 Q1007=
201911051000 METAR LRIA 051000Z 22006KT 180V280 CAVOK 20/06 Q1006=
201911051030 METAR LRIA 051030Z 22007KT 190V260 CAVOK 21/05 Q1006=
201911051100 METAR LRIA 051100Z 22007KT 170V260 CAVOK 21/04 Q1006=
201911051130 METAR LRIA 051130Z 21008KT 160V260 CAVOK 22/04 Q1006=
201911051200 METAR LRIA 051200Z 23007KT 190V260 CAVOK 22/04 Q1006=
201911051230 METAR LRIA 051230Z 22007KT 170V270 CAVOK 21/03 Q1006=
201911051300 METAR LRIA 051300Z 21005KT 160V260 CAVOK 21/03 Q1006=
201911051330 METAR LRIA 051330Z 18006KT 150V220 CAVOK 20/04 Q1006=
201911051400 METAR LRIA 051400Z 19006KT CAVOK 20/04 Q1006=
201911051430 METAR LRIA 051430Z 15003KT CAVOK 18/05 Q1006=
201911051500 METAR LRIA 051500Z 12003KT CAVOK 17/05 Q1006=
201911051530 METAR LRIA 051530Z 17005KT CAVOK 17/05 Q1006=
201911051600 METAR LRIA 051600Z 17004KT CAVOK 17/05 Q1007=
201911051630 METAR LRIA 051630Z 18006KT 150V210 CAVOK 17/05 Q1006=
201911051700 METAR LRIA 051700Z 17005KT CAVOK 16/05 Q1006=
201911051730 METAR LRIA 051730Z 19004KT 160V220 CAVOK 16/06 Q1006=
201911051800 METAR LRIA 051800Z 19004KT CAVOK 16/06 Q1006=
201911051830 METAR LRIA 051830Z 18003KT CAVOK 15/06 Q1006=
201911051900 METAR LRIA 051900Z 20003KT CAVOK 14/07 Q1006=
201911051930 METAR LRIA 051930Z 19004KT CAVOK 15/07 Q1005=
201911052000 METAR LRIA 052000Z 09005KT CAVOK 13/07 Q1005=
201911052030 METAR LRIA 052030Z 09006KT CAVOK 12/07 Q1005=
201911052100 METAR LRIA 052100Z 09007KT CAVOK 11/07 Q1005=
201911052130 METAR LRIA 052130Z 10008KT CAVOK 11/07 Q1005=
201911052200 METAR LRIA 052200Z 10007KT CAVOK 10/07 Q1005=
201911052230 METAR LRIA 052230Z 09007KT CAVOK 10/07 Q1005=
201911052300 METAR LRIA 052300Z 10007KT CAVOK 10/07 Q1004=
201911052330 METAR LRIA 052330Z 10009KT CAVOK 10/07 Q1004=
201911060000 METAR LRIA 060000Z 10008KT CAVOK 10/07 Q1004=
201911060030 METAR LRIA 060030Z 10008KT CAVOK 10/07 Q1003=
201911060100 METAR LRIA 060100Z 10009KT CAVOK 10/07 Q1003=
201911060130 METAR LRIA 060130Z 11008KT CAVOK 11/06 Q1003=
201911060200 METAR LRIA 060200Z 12007KT CAVOK 13/06 Q1003=
201911060230 METAR LRIA 060230Z 10007KT CAVOK 13/06 Q1002=
201911060300 METAR LRIA 060300Z 10007KT CAVOK 12/06 Q1002=
201911060330 METAR LRIA 060330Z 09008KT CAVOK 12/07 Q1002=
201911060400 METAR LRIA 060400Z 12008KT CAVOK 12/07 Q1001=
201911060430 METAR LRIA 060430Z 12009KT CAVOK 12/07 Q1001=
201911060500 METAR LRIA 060500Z 09007KT CAVOK 11/07 Q1001=
201911060530 METAR LRIA 060530Z 10008KT CAVOK 12/07 Q1001=
201911060600 METAR LRIA 060600Z 10008KT CAVOK 12/07 Q1001=
201911060630 METAR LRIA 060630Z 11008KT CAVOK 13/08 Q1001=
201911060700 METAR LRIA 060700Z 12006KT CAVOK 14/08 Q1002=
201911060730 METAR LRIA 060730Z 12006KT 100V170 CAVOK 17/08 Q1002=
201911060800 METAR LRIA 060800Z 12004KT 090V170 CAVOK 18/07 Q1002=
201911060830 METAR LRIA 060830Z 12004KT 090V170 CAVOK 18/07 Q1002=
201911060900 METAR LRIA 060900Z 20007KT 160V230 CAVOK 21/07 Q1002=
201911060930 METAR LRIA 060930Z 17009KT 130V200 CAVOK 23/07 Q1002=
201911061000 METAR LRIA 061000Z 20011KT CAVOK 23/06 Q1001=
201911061030 METAR LRIA 061030Z 21010KT 170V230 CAVOK 23/06 Q1001=
201911061100 METAR LRIA 061100Z 20008KT 160V240 CAVOK 24/06 Q1001=
201911061130 METAR LRIA 061130Z 20008KT 170V230 CAVOK 25/06 Q1002=
201911061200 METAR LRIA 061200Z 21009KT 180V240 CAVOK 25/07 Q1002=
201911061230 METAR LRIA 061230Z 20007KT 150V220 CAVOK 25/07 Q1002=
201911061300 METAR LRIA 061300Z 24007KT 210V270 CAVOK 24/07 Q1003=
201911061330 METAR LRIA 061330Z 29009KT CAVOK 23/08 Q1003=
201911061400 METAR LRIA 061400Z 28010KT CAVOK 22/08 Q1004=
201911061430 METAR LRIA 061430Z 27008KT CAVOK 21/08 Q1004=
201911061500 METAR LRIA 061500Z 28005KT CAVOK 21/08 Q1004=
201911061530 METAR LRIA 061530Z 26005KT 220V300 CAVOK 20/08 Q1005=
201911061600 METAR LRIA 061600Z 23005KT 210V270 CAVOK 20/07 Q1005=
201911061630 METAR LRIA 061630Z 24005KT CAVOK 20/07 Q1006=
201911061700 METAR LRIA 061700Z 24005KT CAVOK 19/07 Q1005=
201911061730 METAR LRIA 061730Z 25006KT 210V280 CAVOK 20/06 Q1006=
201911061800 METAR LRIA 061800Z 25006KT CAVOK 20/06 Q1006=
201911061830 METAR LRIA 061830Z 25004KT CAVOK 19/06 Q1006=
201911061900 METAR LRIA 061900Z 31008KT CAVOK 18/07 Q1007=
201911061930 METAR LRIA 061930Z 31005KT CAVOK 17/07 Q1007=
201911062000 METAR LRIA 062000Z 31006KT CAVOK 16/08 Q1008=
201911062030 METAR LRIA 062030Z 32007KT CAVOK 15/09 Q1008=
201911062100 METAR LRIA 062100Z VRB02KT CAVOK 15/09 Q1008=
201911062130 METAR LRIA 062130Z 29004KT 250V320 CAVOK 15/09 Q1008=
201911062200 METAR LRIA 062200Z 29004KT CAVOK 14/09 Q1009=
201911062230 METAR LRIA 062230Z 24003KT CAVOK 14/09 Q1009=
201911062300 METAR LRIA 062300Z VRB02KT CAVOK 13/09 Q1009=
201911062330 METAR LRIA 062330Z 31003KT CAVOK 13/09 Q1009=
201911070000 METAR LRIA 070000Z 32002KT CAVOK 13/09 Q1009=
201911070030 METAR LRIA 070030Z 32003KT CAVOK 12/09 Q1009=
201911070100 METAR LRIA 070100Z VRB02KT CAVOK 12/09 Q1009=
201911070130 METAR LRIA 070130Z 26003KT CAVOK 12/09 Q1009=
201911070200 METAR LRIA 070200Z 28003KT CAVOK 12/09 Q1009=
201911070230 METAR LRIA 070230Z 32002KT CAVOK 11/09 Q1008=
201911070300 METAR LRIA 070300Z 28002KT CAVOK 11/09 Q1009=
201911070330 METAR LRIA 070330Z 23002KT CAVOK 11/09 Q1009=
201911070400 METAR LRIA 070400Z 28003KT CAVOK 11/09 Q1009=
201911070430 METAR LRIA 070430Z 29004KT CAVOK 11/09 Q1009=
201911070500 METAR LRIA 070500Z 34005KT CAVOK 11/09 Q1009=
201911070530 METAR LRIA 070530Z 26004KT CAVOK 11/09 Q1009=
201911070600 METAR LRIA 070600Z 22002KT CAVOK 11/09 Q1009=
201911070630 METAR LRIA 070630Z 22003KT CAVOK 12/09 Q1009=
201911070700 METAR COR LRIA 070700Z 25003KT 220V280 CAVOK 13/09 Q1009=
201911070730 METAR LRIA 070730Z VRB02KT CAVOK 13/09 Q1009=
201911070800 METAR LRIA 070800Z 25004KT CAVOK 14/10 Q1009=
201911070830 METAR LRIA 070830Z VRB02KT CAVOK 15/09 Q1008=
201911070900 METAR LRIA 070900Z VRB02KT CAVOK 17/08 Q1008=
201911070930 METAR LRIA 070930Z 10004KT 060V120 CAVOK 17/07 Q1008=
201911071000 METAR LRIA 071000Z VRB02KT CAVOK 17/07 Q1008=
201911071030 METAR LRIA 071030Z VRB01KT CAVOK 18/07 Q1008=
201911071100 METAR LRIA 071100Z 25004KT 210V280 CAVOK 18/08 Q1008=
201911071130 METAR LRIA 071130Z 23003KT 180V270 CAVOK 18/09 Q1008=
201911071200 METAR LRIA 071200Z VRB02KT CAVOK 18/09 Q1008=
201911071230 METAR LRIA 071230Z 26003KT 180V300 CAVOK 18/09 Q1007=
201911071300 METAR LRIA 071300Z 25003KT 230V290 CAVOK 17/10 Q1007=
201911071330 METAR LRIA 071330Z 23003KT CAVOK 17/10 Q1007=
201911071400 METAR LRIA 071400Z 27003KT CAVOK 16/10 Q1008=
201911071430 METAR LRIA 071430Z 29003KT CAVOK 16/10 Q1008=
201911071500 METAR COR LRIA 071500Z 30003KT CAVOK 15/10 Q1008=
201911071530 METAR LRIA 071530Z VRB02KT CAVOK 15/10 Q1008=
201911071600 METAR LRIA 071600Z 29002KT CAVOK 14/10 Q1008=
201911071630 METAR LRIA 071630Z 30002KT CAVOK 14/10 Q1008=
201911071700 METAR LRIA 071700Z 29003KT CAVOK 13/10 Q1009=
201911071730 METAR LRIA 071730Z 25002KT CAVOK 12/10 Q1009=
201911071800 METAR LRIA 071800Z 25001KT CAVOK 13/10 Q1009=
201911071830 METAR LRIA 071830Z 22003KT CAVOK 13/10 Q1009=
201911071900 METAR LRIA 071900Z 00000KT CAVOK 13/10 Q1010=
201911071930 METAR LRIA 071930Z 00000KT CAVOK 13/10 Q1010=
201911072000 METAR LRIA 072000Z VRB01KT CAVOK 13/10 Q1010=
201911072030 METAR LRIA 072030Z 30002KT CAVOK 13/10 Q1010=
201911072100 METAR LRIA 072100Z 29002KT CAVOK 12/10 Q1011=
201911072130 METAR LRIA 072130Z 00000KT CAVOK 12/10 Q1011=
201911072200 METAR LRIA 072200Z VRB02KT CAVOK 12/10 Q1011=
201911072230 METAR LRIA 072230Z 00000KT CAVOK 13/10 Q1011=
201911072300 METAR LRIA 072300Z 29003KT CAVOK 12/10 Q1012=
201911072330 METAR LRIA 072330Z 28003KT CAVOK 12/10 Q1012=
201911080000 METAR LRIA 080000Z 26002KT CAVOK 11/10 Q1012=
201911080030 METAR LRIA 080030Z 00000KT CAVOK 10/09 Q1013=
201911080100 METAR LRIA 080100Z 34005KT CAVOK 11/09 Q1013=
201911080130 METAR LRIA 080130Z 30003KT CAVOK 11/10 Q1013=
201911080200 METAR LRIA 080200Z VRB01KT CAVOK 10/09 Q1013=
201911080230 METAR LRIA 080230Z 31001KT CAVOK 10/09 Q1013=
201911080300 METAR LRIA 080300Z 29002KT 8000 NSC 09/08 Q1014=
201911080330 METAR LRIA 080330Z 24002KT 8000 MIFG NSC 09/09 Q1014=
201911080400 METAR LRIA 080400Z 28004KT 8000 NSC 08/08 Q1014=
201911080430 METAR LRIA 080430Z 00000KT 8000 MIFG NSC 08/08 Q1014=
201911080500 METAR LRIA 080500Z 34003KT 3000 BR NSC 08/08 Q1014=
201911080530 METAR LRIA 080530Z 27003KT 0150 R14/0375N R32/1100D FG NSC
                        06/06 Q1015=
201911080600 METAR LRIA 080600Z 29003KT 230V320 0300 R14/0450N R32/0550U
                        FG FEW001 06/06 Q1015=
201911080630 METAR LRIA 080630Z 26004KT 0100 R14/0250N R32/0550U FG BKN001
                        07/07 Q1016=
201911080700 METAR LRIA 080700Z 27003KT 240V310 0100 R14/0500N R32/0450D
                        FG SCT001 08/08 Q1016=
201911080730 METAR LRIA 080730Z 26003KT 0250 R14/0300N R32/0375N FG BKN001
                        08/08 Q1016=
201911080800 METAR LRIA 080800Z VRB02KT 0500 R14/0550U R32/1000D FG SCT001
                        09/09 Q1016=
201911080830 METAR LRIA 080830Z 27004KT 3000 BR SCT001 09/09 Q1016=
201911080900 METAR LRIA 080900Z 27003KT 250V310 8000 NSC 10/10 Q1016=
201911080930 METAR LRIA 080930Z 27003KT 240V300 8000 NSC 11/11 Q1016=
201911081000 METAR LRIA 081000Z 27004KT CAVOK 11/10 Q1016=
201911081030 METAR LRIA 081030Z 27003KT 240V310 CAVOK 11/10 Q1015=
201911081100 METAR LRIA 081100Z VRB02KT CAVOK 13/10 Q1015=
201911081130 METAR LRIA 081130Z VRB01KT CAVOK 13/09 Q1015=
201911081200 METAR LRIA 081200Z 00000KT CAVOK 14/10 Q1015=
201911081230 METAR LRIA 081230Z VRB02KT CAVOK 14/10 Q1014=
201911081300 METAR LRIA 081300Z 09004KT CAVOK 15/10 Q1014=
201911081330 METAR LRIA 081330Z 11004KT CAVOK 15/10 Q1014=
201911081400 METAR LRIA 081400Z 10004KT 9999 FEW044 15/10 Q1014=
201911081430 METAR LRIA 081430Z 08004KT 070V130 9999 FEW044 15/09 Q1013=
201911081500 METAR LRIA 081500Z 08005KT CAVOK 13/09 Q1014=
201911081530 METAR LRIA 081530Z 07005KT CAVOK 14/09 Q1013=
201911081600 METAR LRIA 081600Z 09003KT 9999 FEW041 14/09 Q1014=
201911081630 METAR LRIA 081630Z VRB02KT 9999 SCT036 12/09 Q1014=
201911081700 METAR LRIA 081700Z 09003KT 9999 SCT034 12/08 Q1014=
201911081730 METAR LRIA 081730Z 17001KT 9999 BKN034 13/09 Q1014=
201911081800 METAR LRIA 081800Z 07003KT 9999 OVC033 14/09 Q1013=
201911081830 METAR LRIA 081830Z 07010KT 9999 SCT032 14/10 Q1013=
201911081900 METAR LRIA 081900Z 09010KT 9999 BKN024 14/10 Q1013=
201911081930 METAR LRIA 081930Z 10010KT 9999 FEW015 BKN025 13/10 Q1014=
201911082000 METAR LRIA 082000Z 09010KT 9999 BKN014 BKN025 13/11 Q1013=
201911082030 METAR LRIA 082030Z 10011KT 9999 SCT010 BKN013 14/12 Q1013=
201911082100 METAR LRIA 082100Z 12007KT 9000 BKN008 BKN012 14/13 Q1013=
201911082130 METAR LRIA 082130Z 13011KT 7000 FEW007 BKN009 14/13 Q1013=
201911082200 METAR LRIA 082200Z 13012KT 6000 FEW003 BKN009 14/14 Q1014=
201911082230 METAR LRIA 082230Z 12011KT 6000 FEW003 SCT006 14/14 Q1014=
201911082300 METAR LRIA 082300Z 11012KT 6000 FEW005 SCT006 14/14 Q1013=
201911082330 METAR LRIA 082330Z 11013KT 6000 FEW004 SCT005 14/14 Q1013=
201911090000 METAR LRIA 090000Z AUTO 12013KT 8000 BKN003/// SCT004///
                        14/14 Q1013=
201911090030 METAR COR LRIA 090030Z 11011KT 9000 FEW007 SCT009 14/14 Q1013=
201911090100 METAR COR LRIA 090100Z 11010KT 9000 FEW005 SCT009 BKN012
                        14/14 Q1013=
201911090130 METAR COR LRIA 090130Z 11010KT 9000 FEW008 BKN012 15/14 Q1013=
201911090200 METAR COR LRIA 090200Z 11013KT 8000 SCT012 14/14 Q1013=
201911090230 METAR COR LRIA 090230Z 11014KT 7000 SCT019 14/14 Q1013=
201911090300 METAR COR LRIA 090300Z 11013KT 6000 SCT046 14/14 Q1013=
201911090330 METAR LRIA 090330Z AUTO 12008KT 5000 BR FEW003/// SCT110///
                        14/13 Q1013=
201911090400 METAR LRIA 090400Z 11006KT 5000 BR FEW009 SCT012 14/13 Q1014=
201911090430 METAR LRIA 090430Z VRB01KT 3000 BR FEW009 SCT012 14/13 Q1014=
201911090500 METAR LRIA 090500Z 11005KT 5000 BR BKN011 SCT014 14/13 Q1014=
201911090530 METAR LRIA 090530Z 11006KT 3700 BR SCT011 SCT014 14/13 Q1014=
201911090600 METAR LRIA 090600Z 14006KT 5000 BR BKN010 14/13 Q1014=
201911090630 METAR LRIA 090630Z 12006KT 5000 BR BKN012 14/13 Q1015=
201911090700 METAR LRIA 090700Z 12007KT 5000 BR SCT010 15/13 Q1015=
201911090730 METAR LRIA 090730Z 12009KT 6000 SCT013 15/13 Q1015=
201911090800 METAR LRIA 090800Z 14006KT 7000 BKN010 16/13 Q1015=
201911090830 METAR LRIA 090830Z 14008KT 8000 SCT011 17/13 Q1015=
201911090900 METAR LRIA 090900Z 14007KT 100V180 9000 FEW014 18/13 Q1015=
201911090930 METAR LRIA 090930Z 11007KT 090V150 9999 FEW015 18/13 Q1015=
201911091000 METAR LRIA 091000Z 15005KT 100V190 9999 FEW019 19/13 Q1014=
201911091030 METAR LRIA 091030Z 16005KT 100V230 CAVOK 20/13 Q1014=
201911091100 METAR LRIA 091100Z 15006KT 110V210 CAVOK 20/12 Q1014=
201911091130 METAR LRIA 091130Z 15007KT CAVOK 21/12 Q1014=
201911091200 METAR LRIA 091200Z 17007KT 140V210 CAVOK 21/12 Q1014=
201911091230 METAR LRIA 091230Z 16007KT 120V200 CAVOK 21/12 Q1014=
201911091300 METAR LRIA 091300Z 14009KT CAVOK 21/12 Q1013=
201911091330 METAR LRIA 091330Z 14010KT CAVOK 21/12 Q1013=
201911091400 METAR LRIA 091400Z 13008KT CAVOK 20/12 Q1013=
201911091430 METAR LRIA 091430Z 13009KT CAVOK 19/12 Q1013=
201911091500 METAR LRIA 091500Z 13009KT CAVOK 18/12 Q1013=
201911091530 METAR LRIA 091530Z 11009KT CAVOK 17/12 Q1013=
201911091600 METAR LRIA 091600Z 12008KT CAVOK 16/12 Q1014=
201911091630 METAR LRIA 091630Z 12009KT CAVOK 16/12 Q1014=
201911091700 METAR LRIA 091700Z 12008KT CAVOK 16/12 Q1014=
201911091730 METAR LRIA 091730Z 11009KT CAVOK 16/12 Q1014=
201911091800 METAR LRIA 091800Z 13009KT CAVOK 16/12 Q1014=
201911091830 METAR LRIA 091830Z 12008KT CAVOK 15/11 Q1014=
201911091900 METAR LRIA 091900Z 11010KT CAVOK 16/12 Q1014=
201911091930 METAR LRIA 091930Z 11009KT CAVOK 15/12 Q1013=
201911092000 METAR LRIA 092000Z 11009KT CAVOK 15/11 Q1013=
201911092030 METAR LRIA 092030Z 11008KT CAVOK 14/11 Q1013=
201911092100 METAR LRIA 092100Z 12009KT CAVOK 14/11 Q1013=
201911092130 METAR LRIA 092130Z 11009KT CAVOK 14/11 Q1013=
201911092200 METAR LRIA 092200Z 11010KT CAVOK 13/12 Q1013=
201911092230 METAR LRIA 092230Z 12010KT CAVOK 13/12 Q1013=
201911092300 METAR LRIA 092300Z 12009KT CAVOK 13/12 Q1013=
201911092330 METAR LRIA 092330Z 11009KT CAVOK 12/11 Q1013=
201911100000 METAR LRIA 100000Z 12010KT CAVOK 12/12 Q1013=
201911100030 METAR LRIA 100030Z 12009KT CAVOK 12/12 Q1013=
201911100100 METAR LRIA 100100Z 11009KT 5000 BR FEW003 12/12 Q1013=
201911100130 METAR LRIA 100130Z 12012KT 1500 BR BKN001 12/12 Q1013=
201911100200 METAR LRIA 100200Z 11012KT 1500 BR BKN001 12/12 Q1013=
201911100230 METAR LRIA 100230Z 11009KT 1500 BR BKN001 12/12 Q1013=
201911100300 METAR LRIA 100300Z 11008KT 1500 BR BKN001 12/12 Q1013=
201911100330 METAR LRIA 100330Z 12011KT 1500 BR BKN001 12/12 Q1013=
201911100400 METAR LRIA 100400Z 12012KT 1500 BR BKN001 12/12 Q1013=
201911100430 METAR LRIA 100430Z 12011KT 2000 BR SCT001 12/12 Q1013=
201911100500 METAR LRIA 100500Z 12014KT 3000 BR SCT003 12/12 Q1013=
201911100530 METAR LRIA 100530Z 11013KT 1500 BR SCT002 12/12 Q1013=
201911100600 METAR LRIA 100600Z 11011KT 1800 BR FEW002 13/13 Q1013=
201911100630 METAR LRIA 100630Z 11010KT 2100 BR FEW002 SCT010 13/13 Q1013
                        R14/29//95=
201911100700 METAR LRIA 100700Z 12007KT 090V150 6000 FEW003 14/14 Q1013
                        R14/29//95=
201911100730 METAR LRIA 100730Z 11013KT 9999 FEW004 15/14 Q1013 R14/29//95=
201911100800 METAR LRIA 100800Z 11014KT 9999 FEW010 16/14 Q1013 R14/29//95=
201911100830 METAR LRIA 100830Z 11014KT CAVOK 16/13 Q1013 R14/29//95=
201911100900 METAR LRIA 100900Z 10015KT CAVOK 17/13 Q1012 R14/CLRD//=
201911100930 METAR LRIA 100930Z 10014KT CAVOK 18/13 Q1012=
201911101000 METAR LRIA 101000Z 10015KT 080V140 CAVOK 19/12 Q1012=
201911101030 METAR LRIA 101030Z 14012KT 9999 FEW039 21/11 Q1012=
201911101100 METAR LRIA 101100Z 15014G24KT 9999 FEW047 21/11 Q1011=
201911101130 METAR LRIA 101130Z 16014G24KT 9999 FEW047 21/11 Q1011=
201911101200 METAR LRIA 101200Z 15020KT 9999 FEW038 21/12 Q1010=
201911101230 METAR LRIA 101230Z 14015KT 9999 FEW038 20/11 Q1010=
201911101300 METAR LRIA 101300Z 13015KT CAVOK 20/11 Q1010=
201911101330 METAR LRIA 101330Z 13014KT CAVOK 19/11 Q1010=
201911101400 METAR LRIA 101400Z 13012G23KT CAVOK 18/11 Q1010=
201911101430 METAR LRIA 101430Z 12012KT CAVOK 17/11 Q1010=
201911101500 METAR LRIA 101500Z 11012KT 9999 SCT030 17/12 Q1011=
201911101530 METAR LRIA 101530Z 12016KT 9999 FEW040 16/12 Q1011=
201911101600 METAR LRIA 101600Z 11014KT 9999 FEW040 15/11 Q1011=
201911101630 METAR LRIA 101630Z 11014KT 9999 SCT038 15/12 Q1011=
201911101700 METAR LRIA 101700Z 11016KT 9999 SCT033 15/12 Q1011=
201911101730 METAR LRIA 101730Z 11019KT 9999 FEW030 14/12 Q1011=
201911101800 METAR LRIA 101800Z 11017KT 9999 FEW008 14/12 Q1011=
201911101830 METAR LRIA 101830Z 11012KT 9999 SCT015 14/13 Q1012=
201911101900 METAR LRIA 101900Z 11013KT 9999 BKN014 14/13 Q1012=
201911101930 METAR LRIA 101930Z 11012KT 9999 BKN015 14/13 Q1011=
201911102000 METAR LRIA 102000Z 11010KT 9999 SCT013 14/13 Q1012=
201911102030 METAR LRIA 102030Z 13008KT 9999 FEW015 15/13 Q1011=
201911102100 METAR LRIA 102100Z 14007KT 9999 FEW015 14/13 Q1011=
201911102130 METAR LRIA 102130Z 12006KT CAVOK 14/13 Q1011=
201911102200 METAR LRIA 102200Z 12004KT CAVOK 14/13 Q1012=
201911102230 METAR LRIA 102230Z 09006KT CAVOK 14/13 Q1012=
201911102300 METAR LRIA 102300Z 11006KT CAVOK 14/13 Q1012=
201911102330 METAR LRIA 102330Z 10006KT 9999 -RA NSC 14/13 Q1012=
201911110000 METAR LRIA 110000Z 12005KT CAVOK 14/13 Q1012 R14/29//95=
201911110030 METAR LRIA 110030Z 10003KT CAVOK 14/13 Q1012 R14/29//95=
201911110100 METAR LRIA 110100Z VRB01KT CAVOK 14/13 Q1012 R14/29//95=
201911110130 METAR LRIA 110130Z VRB01KT CAVOK 14/13 Q1012 R14/29//95=
201911110200 METAR LRIA 110200Z VRB01KT CAVOK 14/13 Q1012 R14/29//95=
201911110230 METAR LRIA 110230Z 21003KT CAVOK 14/13 Q1013 R14/29//95=
201911110300 METAR LRIA 110300Z VRB01KT CAVOK 14/12 Q1013 R14/29//95=
201911110330 METAR LRIA 110330Z VRB02KT CAVOK 14/12 Q1013 R14/29//95=
201911110400 METAR LRIA 110400Z 26003KT CAVOK 13/11 Q1013 R14/29//95=
201911110430 METAR LRIA 110430Z 19002KT CAVOK 12/12 Q1014 R14/29//95=
201911110500 METAR LRIA 110500Z 20002KT 8000 MIFG NSC 12/12 Q1014 R14/29//95=
201911110530 METAR LRIA 110530Z VRB01KT 9000 NSC 12/11 Q1015 R14/29//95=
201911110600 METAR LRIA 110600Z 21003KT 180V250 9000 NSC 13/12 Q1015 R14/29//95=
201911110630 METAR LRIA 110630Z VRB02KT CAVOK 13/11 Q1015 R14/29//95=
201911110700 METAR COR LRIA 110700Z 24003KT 200V260 CAVOK 14/11 Q1016
                        R14/29//95=
201911110730 METAR LRIA 110730Z 22003KT 190V250 CAVOK 15/11 Q1016 R14/29//95=
201911110800 METAR LRIA 110800Z 24005KT 210V280 CAVOK 16/09 Q1016 R14/29//95=
201911110830 METAR LRIA 110830Z 25006KT 200V280 CAVOK 16/07 Q1016 R14/19//95=
201911110900 METAR LRIA 110900Z 24006KT 210V290 CAVOK 16/07 Q1016 R14/19//95=
201911110930 METAR LRIA 110930Z 25004KT 230V290 CAVOK 17/08 Q1016 R14/CLRD//=
201911111000 METAR LRIA 111000Z 23007KT 200V270 CAVOK 18/06 Q1016=
201911111030 METAR LRIA 111030Z 23007KT 200V260 CAVOK 19/05 Q1016=
201911111100 METAR LRIA 111100Z 28010KT CAVOK 19/04 Q1016=
201911111130 METAR COR LRIA 111130Z 26009KT 240V300 CAVOK 19/03 Q1016=
201911111200 METAR LRIA 111200Z 23005KT 190V280 CAVOK 19/04 Q1017=
201911111230 METAR LRIA 111230Z 25006KT 210V280 CAVOK 19/03 Q1017=
201911111300 METAR LRIA 111300Z 28005KT 230V310 CAVOK 19/03 Q1017=
201911111330 METAR LRIA 111330Z 24004KT 200V280 CAVOK 19/03 Q1017=
201911111400 METAR LRIA 111400Z 24003KT 160V290 CAVOK 18/03 Q1017=
201911111430 METAR LRIA 111430Z 27003KT 230V300 CAVOK 17/03 Q1017=
201911111500 METAR LRIA 111500Z VRB02KT CAVOK 16/04 Q1017=
201911111530 METAR LRIA 111530Z 32002KT CAVOK 16/04 Q1018=
201911111600 METAR LRIA 111600Z 02006KT CAVOK 12/05 Q1018=
201911111630 METAR LRIA 111630Z 04006KT CAVOK 13/06 Q1018=
201911111700 METAR LRIA 111700Z 00000KT CAVOK 12/06 Q1018=
201911111730 METAR LRIA 111730Z 00000KT CAVOK 13/06 Q1018=
201911111800 METAR LRIA 111800Z 04001KT CAVOK 12/05 Q1018=
201911111830 METAR LRIA 111830Z 03004KT CAVOK 10/05 Q1019=
201911111900 METAR LRIA 111900Z 08003KT 070V130 CAVOK 11/06 Q1019=
201911111930 METAR LRIA 111930Z 11004KT CAVOK 10/05 Q1019=
201911112000 METAR LRIA 112000Z VRB02KT CAVOK 09/05 Q1019=
201911112030 METAR LRIA 112030Z 07001KT CAVOK 09/05 Q1019=
201911112100 METAR LRIA 112100Z 08003KT CAVOK 09/05 Q1019=
201911112130 METAR LRIA 112130Z VRB02KT CAVOK 09/05 Q1019=
201911112200 METAR LRIA 112200Z 07005KT CAVOK 09/05 Q1019=
201911112230 METAR LRIA 112230Z 07005KT CAVOK 09/05 Q1019=
201911112300 METAR LRIA 112300Z 08007KT CAVOK 09/06 Q1019=
201911112330 METAR LRIA 112330Z 10007KT CAVOK 08/06 Q1019=
201911120000 METAR LRIA 120000Z 08008KT CAVOK 10/07 Q1019=
201911120030 METAR LRIA 120030Z 10007KT CAVOK 08/06 Q1019=
201911120100 METAR LRIA 120100Z 11005KT CAVOK 07/06 Q1019=
201911120130 METAR LRIA 120130Z 09005KT CAVOK 07/06 Q1020=
201911120200 METAR LRIA 120200Z 09007KT CAVOK 07/06 Q1019=
201911120230 METAR LRIA 120230Z 09006KT CAVOK 07/06 Q1019=
201911120300 METAR LRIA 120300Z 09006KT CAVOK 07/06 Q1019=
201911120330 METAR LRIA 120330Z 10008KT CAVOK 08/06 Q1019=
201911120400 METAR LRIA 120400Z 10008KT CAVOK 08/06 Q1020=
201911120430 METAR LRIA 120430Z 09009KT CAVOK 08/07 Q1020=
201911120500 METAR LRIA 120500Z 09008KT CAVOK 07/06 Q1019=
201911120530 METAR LRIA 120530Z 09008KT CAVOK 07/06 Q1019=
201911120600 METAR LRIA 120600Z 10005KT CAVOK 08/07 Q1020=
201911120630 METAR LRIA 120630Z 10009KT CAVOK 09/07 Q1020=
201911120700 METAR LRIA 120700Z 10009KT CAVOK 09/08 Q1020=
201911120730 METAR LRIA 120730Z 10009KT CAVOK 11/08 Q1020=
201911120800 METAR LRIA 120800Z 12009KT CAVOK 12/09 Q1020=
201911120830 METAR LRIA 120830Z 10011KT 9999 FEW045 13/09 Q1020=
201911120900 METAR LRIA 120900Z 10011KT 9999 SCT049 15/09 Q1020=
201911120930 METAR LRIA 120930Z 11012KT 9999 BKN044 15/09 Q1020=
201911121000 METAR LRIA 121000Z 11012KT 9999 BKN040 16/08 Q1019=
201911121030 METAR LRIA 121030Z 14014KT 9999 FEW041 18/06 Q1019=
201911121100 METAR LRIA 121100Z 12012KT CAVOK 18/07 Q1019=
201911121130 METAR LRIA 121130Z 14012KT 110V180 CAVOK 19/07 Q1018=
201911121200 METAR LRIA 121200Z 15015KT CAVOK 19/08 Q1018=
201911121230 METAR LRIA 121230Z 14014KT CAVOK 19/08 Q1018=
201911121300 METAR LRIA 121300Z 14011KT CAVOK 19/08 Q1018=
201911121330 METAR LRIA 121330Z 15011KT CAVOK 19/08 Q1018=
201911121400 METAR LRIA 121400Z 14012KT CAVOK 18/08 Q1018=
201911121430 METAR LRIA 121430Z 13013KT CAVOK 17/08 Q1018=
201911121500 METAR LRIA 121500Z 12011KT CAVOK 17/08 Q1018=
201911121530 METAR LRIA 121530Z 13011KT CAVOK 16/08 Q1018=
201911121600 METAR LRIA 121600Z 11010KT CAVOK 15/09 Q1018=
201911121630 METAR LRIA 121630Z 11012KT CAVOK 14/09 Q1018=
201911121700 METAR LRIA 121700Z 12013KT CAVOK 15/08 Q1018=
201911121730 METAR LRIA 121730Z 12015KT CAVOK 15/08 Q1019=
201911121800 METAR LRIA 121800Z 12015KT CAVOK 15/09 Q1019=
201911121830 METAR LRIA 121830Z 12018KT CAVOK 15/09 Q1018=
201911121900 METAR LRIA 121900Z AUTO 12018KT 9999 NCD 14/10 Q1018=
201911121930 METAR LRIA 121930Z 12016KT CAVOK 13/10 Q1018=
201911122000 METAR LRIA 122000Z 12015KT CAVOK 12/10 Q1019=
201911122030 METAR LRIA 122030Z 12015KT CAVOK 11/10 Q1019=
201911122100 METAR LRIA 122100Z 11014KT CAVOK 11/10 Q1019=
201911122130 METAR LRIA 122130Z 10015KT CAVOK 11/10 Q1019=
201911122200 METAR COR LRIA 122200Z 11012KT CAVOK 10/09 Q1019=
201911122230 METAR COR LRIA 122230Z 13008KT 9999 FEW013 10/09 Q1019=
201911122300 METAR COR LRIA 122300Z 13010KT CAVOK 11/09 Q1019=
201911122330 METAR LRIA 122330Z AUTO 12008KT 9999 FEW013/// 10/09 Q1019=
201911130000 METAR COR LRIA 130000Z 12013KT 8000 SCT011 10/10 Q1018=
201911130030 METAR LRIA 130030Z 12013KT 8000 SCT011 11/10 Q1018=
201911130100 METAR LRIA 130100Z 12015KT 9000 SCT011 SCT014 11/10 Q1018=
201911130130 METAR COR LRIA 130130Z 12017KT 9999 FEW013 11/10 Q1018=
201911130200 METAR LRIA 130200Z 12016KT 9999 FEW011 11/10 Q1018=
201911130230 METAR COR LRIA 130230Z 12015KT 9999 FEW012 11/10 Q1017=
201911130300 METAR LRIA 130300Z AUTO 12014KT 9999 FEW011/// SCT014///
                        11/10 Q1017=
201911130330 METAR COR LRIA 130330Z 12013KT 9000 SCT012 11/10 Q1017=
201911130400 METAR LRIA 130400Z 11013KT 9000 SCT012 11/10 Q1017=
201911130430 METAR LRIA 130430Z 11013KT 8000 SCT013 11/10 Q1017=
201911130500 METAR LRIA 130500Z 11012KT 8000 SCT012 11/10 Q1017=
201911130530 METAR LRIA 130530Z 11012KT 8000 FEW010 BKN013 11/10 Q1017=
201911130600 METAR LRIA 130600Z 11013KT 8000 BKN010 11/10 Q1017=
201911130630 METAR LRIA 130630Z 12011KT 8000 FEW009 BKN012 12/10 Q1017=
201911130700 METAR LRIA 130700Z 11012KT 8000 FEW008 BKN012 12/10 Q1017=
201911130730 METAR LRIA 130730Z 11011KT 8000 FEW013 BKN017 13/11 Q1017=
201911130800 METAR LRIA 130800Z 11013KT 9000 FEW013 BKN017 13/10 Q1017=
201911130830 METAR LRIA 130830Z 12011KT 9999 FEW014 BKN018 14/10 Q1017=
201911130900 METAR LRIA 130900Z 13011KT 9999 BKN018 15/10 Q1017=
201911130930 METAR LRIA 130930Z 13012KT 9999 SCT019 16/10 Q1016=
201911131000 METAR LRIA 131000Z 14012KT 9999 SCT022 15/10 Q1016=
201911131030 METAR LRIA 131030Z 14013KT 9999 SCT022 15/10 Q1016=
201911131100 METAR LRIA 131100Z 15016KT 9999 SCT025 16/10 Q1016=
201911131130 METAR LRIA 131130Z 15015KT 9999 FEW025 17/10 Q1015=
201911131200 METAR LRIA 131200Z 13018KT 9999 FEW026 17/10 Q1014=
201911131230 METAR LRIA 131230Z 14016KT 9999 FEW030 18/10 Q1014=
201911131300 METAR LRIA 131300Z 13017KT 9999 FEW029 17/11 Q1014=
201911131330 METAR LRIA 131330Z 12012KT 9999 FEW029 17/11 Q1014=
201911131400 METAR LRIA 131400Z 12013KT 9999 FEW030 17/11 Q1014=
201911131430 METAR LRIA 131430Z 12012KT CAVOK 16/11 Q1014=
201911131500 METAR LRIA 131500Z 13012KT CAVOK 16/10 Q1014=
201911131530 METAR LRIA 131530Z 12013KT CAVOK 16/10 Q1014=
201911131600 METAR LRIA 131600Z 12015KT CAVOK 15/10 Q1014=
201911131630 METAR LRIA 131630Z 12015KT CAVOK 15/10 Q1014=
201911131700 METAR LRIA 131700Z 12015KT CAVOK 14/10 Q1014=
201911131730 METAR COR LRIA 131730Z 12016KT CAVOK 14/10 Q1014 WS R14=
201911131800 METAR LRIA 131800Z 12016KT 9999 FEW012 14/10 Q1014 WS R14=
201911131830 METAR LRIA 131830Z 11013KT 9999 FEW012 13/10 Q1014 WS R14=
201911131900 METAR LRIA 131900Z 12014KT 9999 FEW015 13/11 Q1014 WS R14=
201911131930 METAR LRIA 131930Z 11014KT 9999 FEW019 13/11 Q1014=
201911132000 METAR LRIA 132000Z 10008KT 9999 SCT018 12/11 Q1015=
201911132030 METAR LRIA 132030Z 11010KT 9999 FEW017 12/10 Q1014=
201911132100 METAR LRIA 132100Z 12010KT 9999 FEW019 12/10 Q1015=
201911132130 METAR LRIA 132130Z 11012KT 9999 FEW018 11/10 Q1015=
201911132200 METAR LRIA 132200Z 11014KT 9999 FEW019 12/11 Q1015=
201911132230 METAR LRIA 132230Z 10015KT 9999 SCT011 12/11 Q1014=
201911132300 METAR LRIA 132300Z 10013KT 9999 SCT013 12/11 Q1015=
201911132330 METAR LRIA 132330Z 09011KT 9999 BKN011 12/11 Q1015=
201911140000 METAR LRIA 140000Z 12014KT 9999 BKN008 12/10 Q1015=
201911140030 METAR LRIA 140030Z 09012KT 9999 BKN008 11/10 Q1015=
201911140100 METAR LRIA 140100Z 08010KT 9999 BKN010 11/10 Q1015=
201911140130 METAR LRIA 140130Z 09010KT 9999 BKN013 11/10 Q1015=
201911140200 METAR LRIA 140200Z 09010KT 9999 SCT014 11/10 Q1015=
201911140230 METAR LRIA 140230Z 09011KT 9999 BKN012 11/10 Q1015=
201911140300 METAR LRIA 140300Z 10014KT 9999 BKN013 11/10 Q1015=
201911140330 METAR LRIA 140330Z 11014KT 9999 BKN012 11/10 Q1015=
201911140400 METAR LRIA 140400Z 11011KT 9999 BKN013 11/09 Q1015=
201911140430 METAR LRIA 140430Z 11013KT 9999 BKN012 11/09 Q1015=
201911140500 METAR LRIA 140500Z 12015KT 9999 BKN013 11/09 Q1015=
201911140530 METAR LRIA 140530Z 12014KT 9999 BKN014 11/09 Q1015=
201911140600 METAR LRIA 140600Z 12012KT 9999 FEW010 BKN013 11/09 Q1016=
201911140630 METAR LRIA 140630Z 12013KT 9999 FEW011 BKN015 11/09 Q1016=
201911140700 METAR LRIA 140700Z 12015KT 9999 BKN014 11/09 Q1016=
201911140730 METAR LRIA 140730Z 11012KT 9999 FEW011 BKN014 11/08 Q1016=
201911140800 METAR LRIA 140800Z 12013KT 9999 SCT011 BKN014 11/08 Q1016=
201911140830 METAR LRIA 140830Z 11012KT 9999 SCT012 BKN016 11/08 Q1017=
201911140900 METAR LRIA 140900Z 11013KT 9999 SCT013 BKN017 11/08 Q1017=
201911140930 METAR LRIA 140930Z 12013KT 9999 SCT014 BKN018 11/08 Q1016=
201911141000 METAR LRIA 141000Z 11011KT 9999 BKN015 11/07 Q1016=
201911141030 METAR LRIA 141030Z 11012KT 9999 BKN015 11/07 Q1016=
201911141100 METAR LRIA 141100Z 11011KT 9999 OVC014 11/07 Q1016=
201911141130 METAR LRIA 141130Z 11010KT 9999 OVC015 11/07 Q1016=
201911141200 METAR LRIA 141200Z 11009KT 9999 OVC015 11/07 Q1016=
201911141230 METAR LRIA 141230Z 11008KT 9999 OVC015 11/07 Q1016=
201911141300 METAR LRIA 141300Z 11008KT 9999 OVC015 10/07 Q1016=
201911141330 METAR LRIA 141330Z 11006KT 9999 OVC016 10/07 Q1016=
201911141400 METAR LRIA 141400Z 13007KT 9999 OVC017 10/06 Q1016=
201911141430 METAR LRIA 141430Z 13006KT 9999 OVC018 10/06 Q1016=
201911141500 METAR LRIA 141500Z 16004KT 9999 OVC018 10/06 Q1016=
201911141530 METAR COR LRIA 141530Z 15006KT 9999 OVC020 10/06 Q1017=
201911141600 METAR LRIA 141600Z 13004KT 9999 OVC020 10/06 Q1017=
201911141630 METAR LRIA 141630Z 12004KT 9999 OVC020 10/07 Q1017=
201911141700 METAR LRIA 141700Z 12005KT 9999 OVC019 10/06 Q1017=
201911141730 METAR LRIA 141730Z 09005KT 9999 BKN019 09/07 Q1017=
201911141800 METAR LRIA 141800Z 09005KT 9999 OVC019 10/06 Q1017=
201911141830 METAR LRIA 141830Z 08003KT 9999 OVC021 10/06 Q1017=
201911141900 METAR LRIA 141900Z 05006KT 9999 BKN024 09/06 Q1017=
201911141930 METAR LRIA 141930Z 04006KT 9999 FEW028 09/06 Q1017=
201911142000 METAR LRIA 142000Z 03006KT 9999 OVC016 09/06 Q1017=
201911142030 METAR LRIA 142030Z VRB02KT 9999 OVC017 09/06 Q1017=
201911142100 METAR LRIA 142100Z 07003KT 9999 OVC016 09/06 Q1017=
201911142130 METAR LRIA 142130Z 09003KT 9999 OVC015 09/06 Q1017=
201911142200 METAR LRIA 142200Z 09004KT 9999 OVC014 09/06 Q1017=
201911142230 METAR LRIA 142230Z 11005KT 080V140 9999 OVC013 09/06 Q1017=
201911142300 METAR LRIA 142300Z 11006KT 9999 OVC012 09/06 Q1017=
201911142330 METAR LRIA 142330Z 10005KT 9999 OVC012 09/06 Q1017=
201911150000 METAR LRIA 150000Z 09004KT 9999 OVC012 09/06 Q1017=
201911150030 METAR LRIA 150030Z 12006KT 9999 OVC012 09/07 Q1017=
201911150100 METAR LRIA 150100Z 06004KT 9999 OVC012 09/07 Q1017=
201911150130 METAR LRIA 150130Z 05004KT 020V080 9999 OVC012 09/07 Q1017=
201911150200 METAR LRIA 150200Z 05005KT 9999 OVC013 09/07 Q1017=
201911150230 METAR LRIA 150230Z 07005KT 9999 OVC014 09/06 Q1017=
201911150300 METAR LRIA 150300Z 07005KT 9999 OVC013 09/06 Q1017=
201911150330 METAR LRIA 150330Z 09005KT 9999 OVC011 09/06 Q1017=
201911150400 METAR LRIA 150400Z 08007KT 9999 OVC011 09/06 Q1017=
201911150430 METAR LRIA 150430Z 07006KT 9999 OVC011 08/06 Q1017=
201911150500 METAR LRIA 150500Z 06007KT 9999 OVC012 08/06 Q1017=
201911150530 METAR LRIA 150530Z 08008KT 9999 OVC010 08/06 Q1017=
201911150600 METAR LRIA 150600Z 11007KT 9999 -RA OVC012 08/06 Q1018=
201911150630 METAR LRIA 150630Z 10007KT 9999 -RA OVC011 08/06 Q1018=
201911150700 METAR LRIA 150700Z 10006KT 9999 -RA FEW010 BKN014 08/06 Q1018
                        R14/19//95=
201911150730 METAR LRIA 150730Z 10008KT 9999 BKN010 OVC028 08/06 Q1018
                        R14/19//95=
201911150800 METAR LRIA 150800Z 10008KT 9999 -RA BKN010 OVC024 08/06 Q1018
                        R14/19//95=
201911150830 METAR LRIA 150830Z 10009KT 9999 RA BKN015 BKN022 08/07 Q1018
                        R14/19//95=
201911150900 METAR LRIA 150900Z 10007KT 9999 -RA OVC022 09/07 Q1018 R14/19//95=
201911150930 METAR LRIA 150930Z 10008KT 9999 FEW006 OVC019 09/07 Q1018
                        R14/19//95=
201911151000 METAR LRIA 151000Z 10008KT 9999 FEW006 OVC018 09/07 Q1018
                        R14/19//95=
201911151030 METAR LRIA 151030Z 11008KT 5000 BR FEW006 OVC016 09/08 Q1018
                        R14/19//95=
201911151100 METAR LRIA 151100Z 11008KT 7000 FEW006 OVC015 09/08 Q1018
                        R14/19//95=
201911151130 METAR LRIA 151130Z 11007KT 7000 FEW010 BKN013 09/08 Q1018
                        R14/19//95=
201911151200 METAR LRIA 151200Z 11005KT 4200 BR FEW003 OVC012 09/09 Q1018
                        R14/19//95=
201911151230 METAR LRIA 151230Z 13005KT 4600 BR FEW002 OVC012 09/09 Q1018
                        R14/19//95=
201911151300 METAR LRIA 151300Z 11004KT 6000 BKN010 10/09 Q1019 R14/19//95=
201911151330 METAR COR LRIA 151330Z 12007KT 9000 OVC009 10/09 Q1019 R14/19//95=
201911151400 METAR LRIA 151400Z 12005KT 9999 OVC009 10/09 Q1019 R14/19//95=
201911151430 METAR LRIA 151430Z 12005KT 9000 SCT009 SCT012 10/09 Q1019
                        R14/19//95=
201911151500 METAR LRIA 151500Z 10004KT 7000 OVC011 10/09 Q1019 R14/19//95=
201911151530 METAR LRIA 151530Z 10003KT 6000 OVC010 10/09 Q1019 R14/19//95=
201911151600 METAR LRIA 151600Z 11004KT 6000 OVC010 10/09 Q1019 R14/19//95=
201911151630 METAR LRIA 151630Z 11004KT 7000 BKN011 SCT019 10/09 Q1019
                        R14/19//95=
201911151700 METAR LRIA 151700Z 11003KT 7000 BKN011 BKN017 10/09 Q1020
                        R14/19//95=
201911151730 METAR LRIA 151730Z 11005KT 9000 BKN011 BKN027 10/09 Q1019
                        R14/19//95=
201911151800 METAR LRIA 151800Z 11005KT 9000 BKN011 BKN039 10/09 Q1019
                        R14/19//95=
201911151830 METAR LRIA 151830Z 10004KT 9000 BKN012 10/09 Q1020 R14/19//95=
201911151900 METAR LRIA 151900Z 11004KT 9000 FEW011 BKN014 11/09 Q1020
                        R14/19//95=
201911151930 METAR LRIA 151930Z 13003KT 8000 SCT015 BKN019 10/09 Q1020
                        R14/19//95=
201911152000 METAR LRIA 152000Z 10004KT 7000 SCT012 BKN030 10/09 Q1020
                        R14/19//95=
201911152030 METAR LRIA 152030Z 11004KT 7000 SCT011 BKN030 10/09 Q1020
                        R14/19//95=
201911152100 METAR LRIA 152100Z 10006KT 7000 SCT011 BKN030 11/10 Q1020
                        R14/19//95=
201911152130 METAR LRIA 152130Z 10005KT 6000 BKN012 10/09 Q1020 R14/19//95=
201911152200 METAR LRIA 152200Z 11004KT 6000 SCT012 BKN015 11/10 Q1020
                        R14/19//95=
201911152230 METAR LRIA 152230Z 11005KT 7000 BKN012 11/10 Q1020 R14/19//95=
201911152300 METAR LRIA 152300Z 13005KT 6000 BKN012 11/10 Q1020 R14/19//95=
201911152330 METAR COR LRIA 152330Z 14004KT 7000 FEW008 BKN012 11/10 Q1020
                        R14/19//95=
201911160000 METAR LRIA 160000Z 14006KT 8000 FEW007 BKN009 11/10 Q1021
                        R14/19//95=
201911160030 METAR LRIA 160030Z 16005KT 130V200 9999 FEW008 BKN012 12/10
                        Q1021 R14/19//95=
201911160100 METAR LRIA 160100Z 15005KT 9999 BKN009 12/10 Q1021 R14/19//95=
201911160130 METAR LRIA 160130Z 16005KT 9999 BKN009 12/10 Q1021 R14/19//95=
201911160200 METAR LRIA 160200Z 17006KT 130V190 9999 SCT009 BKN012 11/09
                        Q1021 R14/19//95=
201911160230 METAR LRIA 160230Z 14007KT 9999 OVC011 11/09 Q1021 R14/19//95=
201911160300 METAR LRIA 160300Z 16005KT 9999 BKN011 11/09 Q1021 R14/19//95=
201911160330 METAR LRIA 160330Z 16006KT 9999 BKN011 11/09 Q1021 R14/CLRD//=
201911160400 METAR LRIA 160400Z 15007KT 9999 OVC011 11/09 Q1021=
201911160430 METAR LRIA 160430Z 14008KT 9999 OVC010 10/09 Q1021=
201911160500 METAR LRIA 160500Z 14007KT 9999 OVC010 10/08 Q1021=
201911160530 METAR LRIA 160530Z 18005KT 9999 OVC009 10/08 Q1022=
201911160600 METAR LRIA 160600Z 16006KT 9999 BKN009 10/08 Q1022=
201911160630 METAR LRIA 160630Z 16006KT 9999 BKN010 11/08 Q1022=
201911160700 METAR LRIA 160700Z 14008KT 9999 OVC010 11/09 Q1022=
201911160730 METAR LRIA 160730Z 15008KT 9999 BKN009 11/09 Q1023=
201911160800 METAR LRIA 160800Z 16007KT 9999 BKN009 11/09 Q1023=
201911160830 METAR LRIA 160830Z 14006KT 9999 BKN009 11/09 Q1023=
201911160900 METAR LRIA 160900Z 13007KT 9999 BKN008 12/09 Q1023=
201911160930 METAR LRIA 160930Z 16006KT 9999 OVC009 12/09 Q1023=
201911161000 METAR LRIA 161000Z 18007KT 9999 BKN009 12/10 Q1022=
201911161030 METAR LRIA 161030Z 18004KT 130V230 9999 OVC009 12/10 Q1022=
201911161100 METAR LRIA 161100Z 14006KT 9999 BKN009 12/10 Q1022=
201911161130 METAR LRIA 161130Z 16007KT 9999 OVC009 13/10 Q1022=
201911161200 METAR LRIA 161200Z 15006KT 9999 OVC009 13/10 Q1022=
201911161230 METAR LRIA 161230Z 15006KT 120V190 9999 OVC009 13/11 Q1022=
201911161300 METAR LRIA 161300Z 14007KT 9999 OVC008 13/11 Q1022=
201911161330 METAR LRIA 161330Z 12008KT 9999 OVC008 13/12 Q1022=
201911161400 METAR LRIA 161400Z 13006KT 9999 OVC009 13/12 Q1022=
201911161430 METAR LRIA 161430Z 14006KT 9999 OVC009 13/12 Q1022=
201911161500 METAR LRIA 161500Z 13007KT 9999 OVC009 13/12 Q1022=
201911161530 METAR LRIA 161530Z 11007KT 9999 OVC010 13/12 Q1022=
201911161600 METAR LRIA 161600Z 11008KT 9999 OVC011 13/11 Q1022=
201911161630 METAR LRIA 161630Z 12005KT 9999 BKN013 OVC017 13/11 Q1023=
201911161700 METAR LRIA 161700Z 11006KT 9999 BKN015 12/11 Q1023=
201911161730 METAR LRIA 161730Z 11006KT 9999 BKN015 12/11 Q1023=
201911161800 METAR LRIA 161800Z 11006KT 7000 BKN016 12/11 Q1023=
201911161830 METAR LRIA 161830Z 11006KT 7000 BKN016 12/11 Q1023=
201911161900 METAR LRIA 161900Z 11006KT 6000 BKN018 12/11 Q1023=
201911161930 METAR LRIA 161930Z 10007KT 5000 BR FEW014 BKN018 12/12 Q1023=
201911162000 METAR LRIA 162000Z 11007KT 5000 BR FEW011 BKN019 13/12 Q1023=
201911162030 METAR LRIA 162030Z 11008KT 5000 BR FEW013 BKN022 13/13 Q1023=
201911162100 METAR LRIA 162100Z 11009KT 4500 BR BKN013 BKN022 13/13 Q1023=
201911162130 METAR LRIA 162130Z 10010KT 4500 BR FEW013 BKN020 13/13 Q1023=
201911162200 METAR LRIA 162200Z 11008KT 4200 BR FEW002 BKN024 13/13 Q1023=
201911162230 METAR LRIA 162230Z 11011KT 5000 BR OVC021 14/13 Q1023=
201911162300 METAR LRIA 162300Z 12010KT 6000 FEW011 SCT014 14/13 Q1023=
201911162330 METAR LRIA 162330Z 14010KT 8000 BKN010 SCT013 14/13 Q1023=
201911170000 METAR LRIA 170000Z 14009KT 9000 BKN009 14/13 Q1023=
201911170030 METAR LRIA 170030Z 16008KT 9999 BKN009 14/12 Q1023=
201911170100 METAR LRIA 170100Z 14008KT 9999 BKN009 14/12 Q1024=
201911170130 METAR LRIA 170130Z 14008KT 9999 BKN010 14/12 Q1024=
201911170200 METAR COR LRIA 170200Z 15010KT 9999 BKN011 SCT014 14/11 Q1024=
201911170230 METAR LRIA 170230Z 16008KT 9999 BKN011 14/11 Q1024=
201911170300 METAR LRIA 170300Z 15008KT 9999 BKN011 14/11 Q1024=
201911170330 METAR LRIA 170330Z 14008KT 9999 BKN011 SCT014 13/11 Q1024=
201911170400 METAR LRIA 170400Z 13010KT 9999 OVC012 13/11 Q1024=
201911170430 METAR LRIA 170430Z 13010KT 9999 OVC012 13/10 Q1024=
201911170500 METAR LRIA 170500Z 13011KT 9999 BKN013 13/10 Q1024=
201911170530 METAR LRIA 170530Z 14012KT 9999 BKN015 13/10 Q1024=
201911170600 METAR LRIA 170600Z 13010KT 9999 BKN015 13/10 Q1025=
201911170630 METAR LRIA 170630Z 13012KT 9999 BKN014 13/10 Q1025=
201911170700 METAR LRIA 170700Z 13012KT 9999 BKN014 13/10 Q1025=
201911170730 METAR LRIA 170730Z 14015KT 9999 BKN017 13/09 Q1025=
201911170800 METAR LRIA 170800Z 13016KT 9999 BKN016 13/10 Q1025=
201911170830 METAR LRIA 170830Z 14012KT 9999 BKN018 13/09 Q1025=
201911170900 METAR LRIA 170900Z 15012KT 9999 BKN020 14/09 Q1025=
201911170930 METAR LRIA 170930Z 15011KT 9999 BKN020 14/10 Q1024=
201911171000 METAR LRIA 171000Z 13014KT 9999 BKN020 15/09 Q1024=
201911171030 METAR LRIA 171030Z 14010KT 9999 BKN020 15/10 Q1024=
201911171100 METAR LRIA 171100Z 13011KT 9999 BKN020 15/09 Q1024=
201911171130 METAR LRIA 171130Z 13011KT 9999 BKN021 14/09 Q1024=
201911171200 METAR LRIA 171200Z 13011KT 9999 BKN023 14/09 Q1024=
201911171230 METAR LRIA 171230Z 11013KT 9999 SCT020 13/09 Q1023=
201911171300 METAR LRIA 171300Z 10015KT 9999 SCT020 12/09 Q1023=
201911171330 METAR LRIA 171330Z 11015KT 9999 SCT020 12/09 Q1023=
201911171400 METAR LRIA 171400Z 11016KT 9999 BKN018 11/08 Q1024=
201911171430 METAR LRIA 171430Z 11013KT 9999 BKN017 10/08 Q1024=
201911171500 METAR LRIA 171500Z 11013KT 9999 BKN016 10/08 Q1024=
201911171530 METAR LRIA 171530Z 11013KT 9999 BKN015 10/08 Q1024=
201911171600 METAR LRIA 171600Z 12015KT 9999 BKN015 09/07 Q1024=
201911171630 METAR LRIA 171630Z 12014KT 9999 BKN015 09/07 Q1024=
201911171700 METAR LRIA 171700Z 11014KT 9999 BKN015 09/07 Q1024=
201911171730 METAR LRIA 171730Z 11014KT 9999 OVC012 09/07 Q1024=
201911171800 METAR LRIA 171800Z 11013KT 8000 OVC009 09/07 Q1024=
201911171830 METAR LRIA 171830Z 11014KT 8000 OVC009 08/07 Q1024=
201911171900 METAR LRIA 171900Z 11013KT 8000 OVC009 08/07 Q1024=
201911171930 METAR LRIA 171930Z 10012KT 5000 BR FEW006 OVC010 08/07 Q1024=
201911172000 METAR LRIA 172000Z 11012KT 5000 BR FEW006 OVC010 08/07 Q1023=
201911172030 METAR LRIA 172030Z 11012KT 5000 BR OVC010 08/07 Q1023=
201911172100 METAR LRIA 172100Z 11014KT 5000 BR OVC009 08/07 Q1023=
201911172130 METAR LRIA 172130Z 11012KT 5000 BR OVC008 08/07 Q1023=
201911172200 METAR LRIA 172200Z 11013KT 6000 OVC008 08/06 Q1023=
201911172230 METAR LRIA 172230Z 11012KT 6000 OVC006 08/07 Q1023=
201911172300 METAR LRIA 172300Z 11012KT 7000 OVC006 08/06 Q1023=
201911172330 METAR LRIA 172330Z 12011KT 9999 OVC007 08/06 Q1023=
201911180000 METAR LRIA 180000Z 12008KT 9999 OVC007 08/07 Q1023=
201911180030 METAR LRIA 180030Z 09010KT 5000 BR OVC008 08/07 Q1022=
201911180100 METAR LRIA 180100Z 11012KT 5000 BR FEW005 OVC010 08/07 Q1022=
201911180130 METAR LRIA 180130Z 11011KT 4000 BR FEW002 OVC010 08/07 Q1022=
201911180200 METAR LRIA 180200Z 11011KT 4000 BR FEW002 OVC010 08/07 Q1022=
201911180230 METAR LRIA 180230Z 10011KT 5000 BR OVC010 08/07 Q1022=
201911180300 METAR LRIA 180300Z 10010KT 5000 BR OVC010 08/07 Q1022=
201911180330 METAR LRIA 180330Z 11010KT 5000 BR OVC010 08/07 Q1022=
201911180400 METAR LRIA 180400Z 11011KT 5000 BR FEW003 OVC010 08/07 Q1022=
201911180430 METAR LRIA 180430Z 11010KT 8000 OVC011 08/07 Q1022=
201911180500 METAR LRIA 180500Z 11010KT 8000 OVC011 09/07 Q1022=
201911180530 METAR LRIA 180530Z 12011KT 8000 OVC012 09/08 Q1022=
201911180600 METAR LRIA 180600Z 10013KT 9999 SCT012 BKN023 09/08 Q1022=
201911180630 METAR LRIA 180630Z 10011KT 9999 FEW012 BKN024 09/08 Q1022=
201911180700 METAR LRIA 180700Z 10012KT 9999 BKN024 10/08 Q1022=
201911180730 METAR LRIA 180730Z 11015KT 9999 OVC023 10/08 Q1022=
201911180800 METAR LRIA 180800Z 11014KT 9999 OVC023 10/08 Q1022=
201911180830 METAR LRIA 180830Z 11014KT 9999 FEW021 BKN027 10/08 Q1022=
201911180900 METAR LRIA 180900Z 10013KT 9999 FEW018 BKN024 11/08 Q1022=
201911180930 METAR LRIA 180930Z 11014KT 9999 FEW023 BKN029 12/08 Q1021=
201911181000 METAR LRIA 181000Z 13015KT 9999 SCT023 BKN029 13/08 Q1021=
201911181030 METAR LRIA 181030Z 11014KT 9999 BKN026 12/08 Q1021=
201911181100 METAR LRIA 181100Z 15009KT 120V180 9999 SCT022 BKN028 13/08
                        Q1021=
201911181130 METAR LRIA 181130Z 12013KT 9999 BKN020 11/08 Q1021=
201911181200 METAR LRIA 181200Z 11014KT 9999 OVC022 11/08 Q1021=
201911181230 METAR LRIA 181230Z 11014KT 9999 OVC022 11/08 Q1021=
201911181300 METAR LRIA 181300Z 11013KT 9999 SCT021 BKN027 11/09 Q1020=
201911181330 METAR LRIA 181330Z 11013KT 9999 BKN025 11/08 Q1020=
201911181400 METAR LRIA 181400Z 12014KT 9999 FEW023 BKN034 11/08 Q1020=
201911181430 METAR LRIA 181430Z 12013KT 9999 SCT029 10/08 Q1020=
201911181500 METAR LRIA 181500Z 12012KT 9999 SCT019 10/08 Q1021=
201911181530 METAR LRIA 181530Z 11010KT 9999 FEW014 SCT021 10/08 Q1021=
201911181600 METAR LRIA 181600Z 11009KT 9999 SCT014 BKN018 09/08 Q1021=
201911181630 METAR LRIA 181630Z 08007KT 9999 BKN016 10/08 Q1021=
201911181700 METAR LRIA 181700Z 08010KT 9999 BKN012 10/08 Q1021=
201911181730 METAR LRIA 181730Z 10012KT 9999 BKN013 10/09 Q1021=
201911181800 METAR LRIA 181800Z 11012KT 9999 BKN013 10/09 Q1021=
201911181830 METAR LRIA 181830Z 12016KT 9999 BKN013 10/09 Q1021=
201911181900 METAR LRIA 181900Z 11011KT 9999 BKN012 10/09 Q1022=
201911181930 METAR LRIA 181930Z 12011KT 9999 BKN014 10/09 Q1022=
201911182000 METAR LRIA 182000Z 11010KT 9999 BKN011 11/09 Q1022=
201911182030 METAR LRIA 182030Z 10010KT 9999 BKN012 11/09 Q1022=
201911182100 METAR LRIA 182100Z 10010KT 9999 BKN014 11/10 Q1022=
201911182130 METAR LRIA 182130Z 11009KT 9999 BKN013 11/10 Q1022=
201911182200 METAR LRIA 182200Z 11011KT 9999 BKN013 11/10 Q1022=
201911182230 METAR LRIA 182230Z 11011KT 9999 BKN013 11/10 Q1023=
201911182300 METAR LRIA 182300Z 11008KT 9999 BKN013 11/10 Q1023=
201911182330 METAR LRIA 182330Z 11006KT 9999 BKN012 11/10 Q1023=
201911190000 METAR LRIA 190000Z 10008KT 9000 OVC011 11/10 Q1023=
201911190030 METAR LRIA 190030Z 11008KT 9000 OVC010 12/11 Q1023=
201911190100 METAR LRIA 190100Z 11008KT 9000 OVC010 12/11 Q1023=
201911190130 METAR LRIA 190130Z 10007KT 8000 OVC010 12/11 Q1023=
201911190200 METAR LRIA 190200Z 10006KT 8000 OVC010 12/11 Q1024=
201911190230 METAR LRIA 190230Z 09005KT 8000 -RA OVC010 12/11 Q1024=
201911190300 METAR COR LRIA 190300Z 10006KT 7000 -RA OVC010 12/11 Q1024
                        R14/19//95=
201911190330 METAR LRIA 190330Z 11007KT 7000 -RA OVC010 12/12 Q1024 R14/19//95=
201911190400 METAR LRIA 190400Z 10006KT 7000 OVC010 12/12 Q1024 R14/19//95=
201911190430 METAR LRIA 190430Z 10006KT 7000 OVC009 12/12 Q1024 R14/19//95=
201911190500 METAR LRIA 190500Z 11007KT 5000 -RA BR OVC009 12/12 Q1024
                        R14/19//95=
201911190530 METAR LRIA 190530Z 10009KT 2000 -RA BR OVC009 12/12 Q1024
                        R14/29//95=
201911190600 METAR LRIA 190600Z 11008KT 1000 R14/1800N R32/P2000 -RA BR
                        SCT002 OVC009 12/12 Q1024 R14/29//95=
201911190630 METAR LRIA 190630Z 11008KT 0800 R14/0800 R32/0900 -RA FG
                        OVC008 12/12 Q1025 R14/29//95=
201911190700 METAR LRIA 190700Z 12008KT 0750 R14/0900 R32/1000U -RA FG
                        OVC007 12/12 Q1025 R14/29//95=
201911190730 METAR LRIA 190730Z 11007KT 0700 R14/0800 R32/0700 -RA FG
                        FEW005 OVC009 12/12 Q1025 R14/29//95=
201911190800 METAR LRIA 190800Z 11007KT 0650 R14/0800N R32/0700N -RA FG
                        FEW003 OVC010 12/12 Q1025 R14/29//95=
201911190830 METAR LRIA 190830Z 11006KT 1000 R14/1000 R32/P2000 BR FEW005
                        BKN008 13/13 Q1025 R14/29//95=
201911190900 METAR LRIA 190900Z 11005KT 2500 BR FEW008 BKN010 13/13 Q1025
                        R14/29//95=
201911190930 METAR LRIA 190930Z 10006KT 2100 BR FEW001 BKN009 13/13 Q1025
                        R14/29//95=
201911191000 METAR LRIA 191000Z 11005KT 2400 BR FEW006 BKN008 13/13 Q1025
                        R14/29//95=
201911191030 METAR LRIA 191030Z 12006KT 3400 BR FEW008 BKN012 14/14 Q1024
                        R14/29//95=
201911191100 METAR LRIA 191100Z 12006KT 4300 BR FEW008 BKN012 14/14 Q1024
                        R14/29//95=
201911191130 METAR LRIA 191130Z 13005KT 4300 BR SCT009 SCT012 14/14 Q1024
                        R14/29//95=
201911191200 METAR LRIA 191200Z 11005KT 5000 BR FEW010 SCT013 15/14 Q1024
                        R14/29//95=
201911191230 METAR LRIA 191230Z 11008KT 3500 BR FEW001 BKN012 14/14 Q1024
                        R14/29//95=
201911191300 METAR LRIA 191300Z 10008KT 3900 BR FEW003 BKN017 14/14 Q1024
                        R14/29//95=
201911191330 METAR LRIA 191330Z 11008KT 4000 BR SCT014 BKN018 14/13 Q1024
                        R14/29//95=
201911191400 METAR LRIA 191400Z 10008KT 3900 BR FEW018 OVC032 14/13 Q1024
                        R14/29//95=
201911191430 METAR LRIA 191430Z 10007KT 5000 BR FEW015 OVC033 14/13 Q1024
                        R14/29//95=
201911191500 METAR LRIA 191500Z 11007KT 5000 BR OVC035 14/13 Q1024 R14/29//95=
201911191530 METAR LRIA 191530Z 11009KT 5000 BR SCT038 BKN046 13/13 Q1024
                        R14/19//95=
201911191600 METAR LRIA 191600Z 12010KT 4000 BR FEW014 SCT021 BKN049 13/13
                        Q1025 R14/19//95=
201911191630 METAR COR LRIA 191630Z 12008KT 3900 BR BKN009 13/13 Q1025
                        R14/19//95=
201911191700 METAR LRIA 191700Z 11007KT 4100 BR BKN008 13/13 Q1025 R14/19//95=
201911191730 METAR LRIA 191730Z 13006KT 4500 BR BKN009 13/13 Q1025 R14/19//95=
201911191800 METAR LRIA 191800Z 12008KT 4800 BR FEW007 BKN009 13/13 Q1025
                        R14/19//95=
201911191830 METAR LRIA 191830Z 13008KT 5000 BR FEW006 BKN009 13/13 Q1025
                        R14/19//95=
201911191900 METAR LRIA 191900Z 11008KT 4900 BR FEW007 BKN009 13/12 Q1025
                        R14/19//95=
201911191930 METAR LRIA 191930Z 11009KT 5000 BR FEW007 SCT009 13/12 Q1025
                        R14/19//95=
201911192000 METAR LRIA 192000Z 11010KT 5000 BR FEW006 BKN009 12/12 Q1025
                        R14/19//95=
201911192030 METAR LRIA 192030Z 12009KT 5000 BR FEW007 BKN009 12/12 Q1025
                        R14/19//95=
201911192100 METAR LRIA 192100Z 12009KT 4400 BR FEW007 BKN009 12/12 Q1025
                        R14/19//95=
201911192130 METAR LRIA 192130Z 11009KT 4700 BR FEW007 BKN009 12/11 Q1025
                        R14/19//95=
201911192200 METAR LRIA 192200Z 10009KT 4900 BR FEW007 SCT009 BKN014 12/11
                        Q1025 R14/19//95=
201911192230 METAR LRIA 192230Z 10008KT 5000 BR FEW008 SCT009 BKN015 12/11
                        Q1025 R14/19//95=
201911192300 METAR LRIA 192300Z 11008KT 5000 BR FEW008 SCT009 BKN017 12/11
                        Q1025 R14/19//95=
201911192330 METAR LRIA 192330Z 10009KT 5000 BR FEW008 BKN009 12/11 Q1025
                        R14/19//95=
201911200000 METAR LRIA 200000Z 10007KT 5000 BR FEW008 BKN009 11/11 Q1025
                        R14/19//95=
201911200030 METAR LRIA 200030Z 10007KT 5000 BR FEW008 BKN009 11/11 Q1025
                        R14/19//95=
201911200100 METAR LRIA 200100Z 09008KT 5000 BR SCT009 BKN023 11/11 Q1025
                        R14/19//95=
201911200130 METAR LRIA 200130Z 10010KT 5000 BR BKN011 SCT026 11/11 Q1025
                        R14/19//95=
201911200200 METAR LRIA 200200Z 11009KT 5000 BR FEW008 SCT009 BKN012 11/11
                        Q1025 R14/19//95=
201911200230 METAR LRIA 200230Z 11009KT 5000 BR FEW008 SCT009 BKN012 11/11
                        Q1025 R14/19//95=
201911200300 METAR LRIA 200300Z 12009KT 5000 BR SCT010 BKN013 11/11 Q1025
                        R14/19//95=
201911200330 METAR LRIA 200330Z 11010KT 5000 BR SCT012 BKN016 11/11 Q1025
                        R14/19//95=
201911200400 METAR LRIA 200400Z 10010KT 5000 BR SCT011 BKN018 11/11 Q1025
                        R14/19//95=
201911200430 METAR LRIA 200430Z 11009KT 6000 FEW009 SCT012 11/11 Q1025
                        R14/19//95=
201911200500 METAR LRIA 200500Z 10009KT 6000 FEW008 SCT009 BKN020 11/10
                        Q1025 R14/19//95=
201911200530 METAR LRIA 200530Z 12008KT 8000 FEW009 BKN018 11/10 Q1025
                        R14/19//95=
201911200600 METAR LRIA 200600Z 11007KT 8000 FEW010 BKN020 11/10 Q1025
                        R14/19//95=
201911200630 METAR LRIA 200630Z 12010KT 7000 FEW010 BKN021 11/11 Q1025
                        R14/19//95=
201911200700 METAR LRIA 200700Z 12010KT 7000 FEW010 BKN020 12/11 Q1025
                        R14/19//95=
201911200730 METAR LRIA 200730Z 11010KT 7000 SCT010 BKN018 11/10 Q1025
                        R14/19//95=
201911200800 METAR LRIA 200800Z 12011KT 8000 BKN015 BKN023 11/10 Q1025
                        R14/19//95=
201911200830 METAR LRIA 200830Z 11012KT 9000 SCT015 BKN023 11/10 Q1025
                        R14/19//95=
201911200900 METAR LRIA 200900Z 11010KT 9000 SCT017 BKN025 12/10 Q1025
                        R14/19//95=
201911200930 METAR LRIA 200930Z 11013KT 9999 BKN020 12/10 Q1025 R14/19//95=
201911201000 METAR LRIA 201000Z 12011KT 9999 BKN015 12/09 Q1025 R14/19//95=
201911201030 METAR LRIA 201030Z 14010KT 9999 SCT013 BKN020 12/09 Q1025
                        R14/19//95=
201911201100 METAR LRIA 201100Z 13012KT 9999 SCT013 BKN020 12/09 Q1025
                        R14/CLRD=
201911201130 METAR LRIA 201130Z 13012KT 9999 BKN022 12/08 Q1025=
201911201200 METAR LRIA 201200Z 12013KT 9999 BKN022 12/08 Q1024=
201911201230 METAR LRIA 201230Z 11012KT 9999 BKN020 12/08 Q1024=
201911201300 METAR LRIA 201300Z 13009KT 9999 SCT020 12/08 Q1024=
201911201330 METAR LRIA 201330Z 12011KT 9999 BKN017 12/08 Q1024=
201911201400 METAR LRIA 201400Z 13013KT 9999 BKN018 12/08 Q1025=
201911201430 METAR LRIA 201430Z 12009KT 9999 BKN020 11/08 Q1025=
201911201500 METAR LRIA 201500Z 12010KT 9999 BKN020 11/08 Q1025=
201911201530 METAR LRIA 201530Z 12011KT 9999 BKN020 11/08 Q1025=
201911201600 METAR LRIA 201600Z 12014KT 9999 BKN020 11/08 Q1025=
201911201630 METAR LRIA 201630Z 12013KT 8000 SCT013 BKN030 10/08 Q1025=
201911201700 METAR LRIA 201700Z 12011KT 9000 BKN018 10/08 Q1025=
201911201730 METAR LRIA 201730Z 11013KT 9999 BKN015 BKN027 10/08 Q1025=
201911201800 METAR LRIA 201800Z 12011KT 9999 BKN013 BKN027 10/07 Q1025=
201911201830 METAR LRIA 201830Z 11013KT 9999 BKN014 10/07 Q1025=
201911201900 METAR COR LRIA 201900Z 12013KT 8000 BKN009 09/07 Q1025=
201911201930 METAR LRIA 201930Z 12012KT 6000 FEW008 BKN009 09/08 Q1025=
201911202000 METAR COR LRIA 202000Z 12014KT 5000 BR SCT007 SCT008 09/07
                        Q1025=
201911202030 METAR LRIA 202030Z 12015KT 5000 BR SCT007 BKN008 08/07 Q1025=
201911202100 METAR COR LRIA 202100Z 12014KT 5000 BR BKN007 08/07 Q1025=
201911202130 METAR LRIA 202130Z 12014KT 4200 BR FEW005 SCT007 08/07 Q1026=
201911202200 METAR LRIA 202200Z 12014KT 3600 BR FEW003 BKN007 07/07 Q1026=
201911202230 METAR LRIA 202230Z 12013KT 4600 -DZ FEW004 OVC008 07/06 Q1026=
201911202300 METAR LRIA 202300Z 11014KT 6000 FEW007 BKN009 07/06 Q1026=
201911202330 METAR LRIA 202330Z 11015KT 6000 BKN008 07/06 Q1026=
201911210000 METAR LRIA 210000Z 11015KT 3700 BR BKN002 06/06 Q1026=
201911210030 METAR LRIA 210030Z 11016KT 7000 FEW004 BKN008 06/05 Q1026=
201911210100 METAR LRIA 210100Z 10016KT 5000 BR BKN005 06/05 Q1026=
201911210130 METAR LRIA 210130Z 10017KT 4000 BR BKN002 06/05 Q1026=
201911210200 METAR LRIA 210200Z 10015KT 7000 FEW001 BKN009 05/05 Q1026=
201911210230 METAR LRIA 210230Z 11014KT 5000 BR FEW004 SCT009 05/04 Q1026=
201911210300 METAR COR LRIA 210300Z 10015KT 4700 -RA BR FEW004 OVC009
                        05/04 Q1026=
201911210330 METAR LRIA 210330Z 10015KT 4200 -RA BR FEW003 SCT009 04/04
                        Q1026 R14/29//95=
201911210400 METAR COR LRIA 210400Z 10017KT 9999 -RA FEW005 BKN009 05/04
                        Q1026 R14/29//95=
201911210430 METAR COR LRIA 210430Z 11013KT 9000 -RA FEW007 SCT008 BKN009
                        04/04 Q1026 R14/29//95=
201911210500 METAR LRIA 210500Z 10013KT 8000 RA FEW006 BKN009 04/04 Q1026
                        R14/29//95=
201911210530 METAR LRIA 210530Z 10013KT 7000 -RA FEW008 BKN009 04/04 Q1026
                        R14/29//95=
201911210600 METAR LRIA 210600Z 10014KT 7000 -RA FEW004 OVC009 04/03 Q1027
                        R14/29//95=
201911210630 METAR LRIA 210630Z 12011KT 3000 -RA BR SCT003 OVC009 04/04
                        Q1027 R14/29//95=
201911210700 METAR LRIA 210700Z 10010KT 3800 -RA BR SCT003 OVC009 04/04
                        Q1028 R14/29//95=
201911210730 METAR LRIA 210730Z 11013KT 8000 -RA SCT006 OVC010 04/03 Q1028
                        R14/29//95=
201911210800 METAR LRIA 210800Z 11012KT 8000 -RA SCT005 OVC009 04/03 Q1028
                        R14/29//95=
201911210830 METAR LRIA 210830Z 11013KT 8000 -RA SCT005 OVC009 04/03 Q1028
                        R14/29//95=
201911210900 METAR LRIA 210900Z 11013KT 8000 -RA SCT007 OVC012 04/03 Q1028
                        R14/29//95=
201911210930 METAR LRIA 210930Z 12012KT 9999 -RA BKN005 OVC009 04/03 Q1028
                        R14/29//95=
201911211000 METAR LRIA 211000Z 11015KT 9999 -RA SCT005 OVC010 04/03 Q1028
                        R14/29//95=
201911211030 METAR LRIA 211030Z 11016KT 9999 -RA SCT005 OVC011 03/02 Q1028
                        R14/29//95=
201911211100 METAR LRIA 211100Z 11016KT 9999 -RA SCT006 OVC011 03/02 Q1028
                        R14/29//95=
201911211130 METAR LRIA 211130Z 11012KT 9999 -RA FEW003 OVC010 03/02 Q1028
                        R14/29//95=
201911211200 METAR LRIA 211200Z 12014KT 9999 -RA FEW008 OVC012 03/02 Q1028
                        R14/29//95=
201911211230 METAR COR LRIA 211230Z 12016KT 9999 -RA FEW008 OVC014 03/02
                        Q1028 R14/29//95=
201911211300 METAR LRIA 211300Z 12014KT 9999 -RA FEW008 OVC013 03/01 Q1028
                        R14/29//95=
201911211330 METAR LRIA 211330Z 11015KT 9999 -RA FEW008 OVC015 02/01 Q1028
                        R14/29//95=
201911211400 METAR LRIA 211400Z 11012KT 9999 -RA FEW011 OVC017 02/01 Q1029
                        R14/29//95=
201911211430 METAR LRIA 211430Z 11015KT 9999 -RA FEW011 OVC017 02/01 Q1028
                        R14/29//95=
201911211500 METAR LRIA 211500Z 11014KT 9999 -RA FEW013 OVC017 02/00 Q1029
                        R14/29//95=
201911211530 METAR LRIA 211530Z 10014KT 9999 -RA OVC014 02/00 Q1029 R14/29//95=
201911211600 METAR LRIA 211600Z 11016KT 9999 -SG OVC014 02/M00 Q1029 R14/29//95=
201911211630 METAR LRIA 211630Z 11016KT 9999 OVC014 02/M01 Q1030 R14/29//95=
201911211700 METAR LRIA 211700Z 11014KT 9999 OVC014 02/M01 Q1030 R14/29//95=
201911211730 METAR LRIA 211730Z 11016KT 9999 OVC015 01/M01 Q1030 R14/29//95=
201911211800 METAR LRIA 211800Z 11014KT 9999 OVC020 01/M02 Q1030 R14/29//95=
201911211830 METAR LRIA 211830Z 11014KT 9999 SCT020 OVC033 01/M02 Q1030
                        R14/29//95=
201911211900 METAR LRIA 211900Z 11013KT 9999 SCT025 OVC035 01/M02 Q1030
                        R14/29//95=
201911211930 METAR LRIA 211930Z 11011KT 9999 OVC025 01/M03 Q1031 R14/29//95=
201911212000 METAR LRIA 212000Z 12012KT 9999 OVC025 01/M03 Q1031 R14/29//95=
201911212030 METAR LRIA 212030Z 11011KT 9999 OVC022 01/M03 Q1031 R14/29//95=
201911212100 METAR LRIA 212100Z 11012KT 9999 OVC020 01/M03 Q1031 R14/29//95=
201911212130 METAR LRIA 212130Z 11014KT 9999 OVC018 00/M03 Q1031 R14/29//95=
201911212200 METAR LRIA 212200Z 11014KT 9999 OVC018 M00/M03 Q1030 R14/29//95=
201911212230 METAR LRIA 212230Z 10011KT 9999 OVC017 M00/M03 Q1030 R14/29//95=
201911212300 METAR LRIA 212300Z 10011KT 9999 OVC016 M00/M03 Q1030 R14/29//95=
201911212330 METAR LRIA 212330Z 11011KT 9999 OVC016 M00/M03 Q1030 R14/29//95=
201911220000 METAR LRIA 220000Z 10012KT 9999 OVC017 M01/M03 Q1030 R14/29//95=
201911220030 METAR LRIA 220030Z 10011KT 9999 OVC017 M01/M03 Q1031 R14/29//95=
201911220100 METAR LRIA 220100Z 11013KT 9999 OVC017 M01/M04 Q1030 R14/29//95=
201911220130 METAR LRIA 220130Z 10013KT 9999 OVC017 M01/M04 Q1030 R14/29//95=
201911220200 METAR LRIA 220200Z 10011KT 9999 OVC017 M01/M04 Q1030 R14/29//95=
201911220230 METAR LRIA 220230Z 10013KT 9999 OVC017 M01/M04 Q1030 R14/29//95=
201911220300 METAR LRIA 220300Z 09011KT 9999 OVC015 M01/M04 Q1030 R14/29//95=
201911220330 METAR LRIA 220330Z 09012KT 9999 BKN015 OVC023 M02/M04 Q1030
                        R14/19//95=
201911220400 METAR LRIA 220400Z 09012KT 9999 FEW015 OVC023 M02/M05 Q1030
                        R14/19//95=
201911220430 METAR LRIA 220430Z 09011KT 9999 SCT015 OVC023 M02/M05 Q1030
                        R14/19//95=
201911220500 METAR LRIA 220500Z 08012KT 9999 SCT015 BKN027 M03/M06 Q1031
                        R14/19//95=
201911220530 METAR LRIA 220530Z 08011KT 9999 SCT015 BKN030 M03/M06 Q1031
                        R14/19//95=
201911220600 METAR LRIA 220600Z 08012KT 9999 FEW015 BKN031 M03/M07 Q1031
                        R14/19//95=
201911220630 METAR LRIA 220630Z 08012KT 9999 SCT016 BKN030 M04/M07 Q1031
                        R14/CLRD//=
201911220700 METAR LRIA 220700Z 09010KT 9999 SCT017 M04/M07 Q1031=
201911220730 METAR LRIA 220730Z 09010KT 9999 FEW018 M04/M08 Q1031=
201911220800 METAR LRIA 220800Z 08009KT 9999 FEW018 M04/M08 Q1031=
201911220830 METAR LRIA 220830Z 09008KT 9999 FEW030 M03/M08 Q1031=
201911220900 METAR LRIA 220900Z 08010KT 9999 SCT021 M03/M08 Q1031=
201911220930 METAR LRIA 220930Z 09009KT 9999 BKN019 M03/M08 Q1031=
201911221000 METAR LRIA 221000Z 09009KT 9999 BKN018 M03/M08 Q1031=
201911221030 METAR LRIA 221030Z 10009KT 9999 BKN018 M03/M08 Q1030=
201911221100 METAR LRIA 221100Z 10009KT 9999 BKN017 M03/M08 Q1030=
201911221130 METAR LRIA 221130Z 13009KT 9999 OVC017 M03/M08 Q1030=
201911221200 METAR LRIA 221200Z 11009KT 9999 OVC014 M03/M07 Q1030=
201911221230 METAR LRIA 221230Z 10009KT 9999 OVC012 M03/M07 Q1030=
201911221300 METAR LRIA 221300Z 11009KT 9999 OVC012 M03/M07 Q1030=
201911221330 METAR LRIA 221330Z 10009KT 9999 OVC012 M03/M07 Q1030=
201911221400 METAR LRIA 221400Z 09009KT 9999 OVC013 M03/M06 Q1030=
201911221430 METAR LRIA 221430Z 09009KT 9999 OVC014 M03/M06 Q1030=
201911221500 METAR LRIA 221500Z 09009KT 9999 OVC013 M03/M06 Q1030=
201911221530 METAR LRIA 221530Z 09010KT 9999 OVC012 M03/M06 Q1030=
201911221600 METAR LRIA 221600Z 09010KT 9999 OVC012 M03/M06 Q1030=
201911221630 METAR LRIA 221630Z 10010KT 9999 OVC012 M03/M06 Q1030=
201911221700 METAR LRIA 221700Z 10010KT 9999 OVC012 M03/M06 Q1030=
201911221730 METAR LRIA 221730Z 10012KT 9999 OVC012 M03/M06 Q1030=
201911221800 METAR LRIA 221800Z 10011KT 9999 OVC012 M03/M06 Q1030=
201911221830 METAR LRIA 221830Z 11010KT 9999 BKN011 M03/M06 Q1030=
201911221900 METAR LRIA 221900Z 12012KT 9999 OVC011 M04/M06 Q1030=
201911221930 METAR LRIA 221930Z 11010KT 9999 BKN009 M04/M06 Q1030=
201911222000 METAR LRIA 222000Z 11010KT 9999 OVC009 M04/M06 Q1030=
201911222030 METAR LRIA 222030Z 11009KT 9999 SCT009 BKN023 M04/M06 Q1030=
201911222100 METAR LRIA 222100Z 10009KT 9999 FEW008 BKN023 M04/M05 Q1030=
201911222130 METAR LRIA 222130Z 10008KT 9999 FEW007 OVC025 M04/M05 Q1029=
201911222200 METAR LRIA 222200Z 10009KT 9999 OVC025 M03/M05 Q1029=
201911222230 METAR LRIA 222230Z 10007KT 9999 OVC022 M03/M05 Q1029=
201911222300 METAR LRIA 222300Z 10008KT 9999 FEW009 BKN020 M03/M05 Q1029=
201911222330 METAR LRIA 222330Z 10007KT 9999 BKN020 M03/M05 Q1029=
201911230000 METAR LRIA 230000Z 10006KT 9999 BKN016 M03/M05 Q1029=
201911230030 METAR LRIA 230030Z 10005KT 9999 SCT014 BKN018 M03/M05 Q1028=
201911230100 METAR LRIA 230100Z 08004KT 9999 OVC018 M03/M05 Q1028=
201911230130 METAR LRIA 230130Z 09005KT 9999 SCT016 BKN021 M03/M05 Q1028=
201911230200 METAR LRIA 230200Z 09006KT 9999 SCT013 BKN018 M03/M05 Q1028=
201911230230 METAR LRIA 230230Z 10007KT 9999 OVC013 M02/M05 Q1028=
201911230300 METAR LRIA 230300Z 10006KT 9999 SCT016 BKN036 M02/M05 Q1027=
201911230330 METAR LRIA 230330Z 11007KT 9999 OVC031 M02/M05 Q1027=
201911230400 METAR LRIA 230400Z 11007KT 9999 OVC028 M02/M05 Q1027=
201911230430 METAR LRIA 230430Z 11008KT 9999 OVC027 M02/M05 Q1027=
201911230500 METAR LRIA 230500Z 12006KT 9999 OVC026 M02/M04 Q1027=
201911230530 METAR LRIA 230530Z 11008KT 9999 OVC022 M02/M04 Q1027=
201911230600 METAR LRIA 230600Z 11008KT 9999 FEW015 OVC020 M02/M04 Q1027=
201911230630 METAR LRIA 230630Z 11008KT 9999 SCT014 OVC019 M01/M04 Q1027=
201911230700 METAR LRIA 230700Z 11009KT 9999 SCT014 OVC019 M01/M04 Q1027=
201911230730 METAR LRIA 230730Z 11009KT 9999 OVC014 M01/M05 Q1027=
201911230800 METAR LRIA 230800Z 11009KT 9999 OVC013 M01/M04 Q1027=
201911230830 METAR LRIA 230830Z 11008KT 9999 FEW011 OVC015 M01/M04 Q1027=
201911230900 METAR LRIA 230900Z 11006KT 9999 FEW011 OVC017 M01/M04 Q1027=
201911230930 METAR LRIA 230930Z 10007KT 9999 FEW012 OVC016 M01/M05 Q1027=
201911231000 METAR LRIA 231000Z 13008KT 9999 FEW015 OVC018 M01/M04 Q1027=
201911231030 METAR LRIA 231030Z 13007KT 9999 OVC018 M01/M04 Q1026=
201911231100 METAR LRIA 231100Z 11009KT 9999 OVC017 M00/M04 Q1026=
201911231130 METAR LRIA 231130Z 11010KT 9999 OVC017 M00/M04 Q1026=
201911231200 METAR LRIA 231200Z 12009KT 9999 OVC016 M00/M04 Q1026=
201911231230 METAR LRIA 231230Z 13009KT 9999 OVC016 M00/M04 Q1026=
201911231300 METAR LRIA 231300Z 12010KT 9999 OVC016 M00/M04 Q1026=
201911231330 METAR LRIA 231330Z 12011KT 9999 OVC016 M00/M04 Q1026=
201911231400 METAR LRIA 231400Z 12010KT 9999 OVC017 M00/M04 Q1026=
201911231430 METAR LRIA 231430Z 12010KT 9999 OVC017 M00/M04 Q1026=
201911231500 METAR LRIA 231500Z 13009KT 9999 OVC017 M00/M04 Q1026=
201911231530 METAR LRIA 231530Z 13009KT 9999 OVC017 M00/M04 Q1026=
201911231600 METAR LRIA 231600Z 12010KT 9999 OVC017 M00/M03 Q1026=
201911231630 METAR LRIA 231630Z 11011KT 9999 OVC017 M00/M04 Q1026=
201911231700 METAR LRIA 231700Z 11013KT 9999 OVC015 M01/M04 Q1026=
201911231730 METAR LRIA 231730Z 11012KT 9999 OVC015 M01/M04 Q1026=
201911231800 METAR LRIA 231800Z 11012KT 9999 OVC015 M01/M04 Q1026=
201911231830 METAR LRIA 231830Z 11013KT 9999 OVC015 M01/M04 Q1026=
201911231900 METAR LRIA 231900Z 12012KT 9999 OVC016 M01/M04 Q1026=
201911231930 METAR LRIA 231930Z 11013KT 9999 OVC016 M01/M04 Q1026=
201911232000 METAR LRIA 232000Z 11012KT 9999 OVC015 M01/M03 Q1026=
201911232030 METAR LRIA 232030Z 11011KT 9999 OVC015 M01/M03 Q1026=
201911232100 METAR LRIA 232100Z 11010KT 9999 OVC015 M01/M03 Q1026=
201911232130 METAR LRIA 232130Z 11010KT 9999 OVC015 M01/M04 Q1026=
201911232200 METAR LRIA 232200Z 11009KT 9999 OVC015 M01/M04 Q1026=
201911232230 METAR LRIA 232230Z 11009KT 9999 OVC014 M01/M04 Q1025=
201911232300 METAR LRIA 232300Z 11010KT 9999 OVC013 M01/M04 Q1025=
201911232330 METAR LRIA 232330Z 11010KT 9999 OVC011 M01/M03 Q1025=
201911240000 METAR LRIA 240000Z 11011KT 9999 OVC013 M01/M04 Q1025=
201911240030 METAR LRIA 240030Z 11009KT 9999 OVC012 M01/M03 Q1025=
201911240100 METAR LRIA 240100Z 11010KT 9999 OVC011 M01/M03 Q1024=
201911240130 METAR LRIA 240130Z 12011KT 9999 OVC011 M01/M04 Q1024=
201911240200 METAR LRIA 240200Z 11009KT 9999 OVC011 M01/M03 Q1024=
201911240230 METAR LRIA 240230Z 11009KT 9999 OVC010 M01/M03 Q1024=
201911240300 METAR LRIA 240300Z 11009KT 9999 OVC010 M00/M04 Q1024=
201911240330 METAR LRIA 240330Z 12008KT 9999 OVC010 M00/M03 Q1024=
201911240400 METAR LRIA 240400Z 11009KT 9999 OVC010 M00/M04 Q1024=
201911240430 METAR LRIA 240430Z 11010KT 9999 OVC010 M00/M04 Q1024=
201911240500 METAR LRIA 240500Z 12010KT 9999 OVC010 M00/M04 Q1024=
201911240530 METAR LRIA 240530Z 12010KT 9999 OVC011 M00/M04 Q1024=
201911240600 METAR LRIA 240600Z 13009KT 9999 OVC011 00/M04 Q1024=
201911240630 METAR LRIA 240630Z 12011KT 9999 OVC012 00/M05 Q1024=
201911240700 METAR LRIA 240700Z 11012KT 9999 OVC013 00/M05 Q1024=
201911240730 METAR LRIA 240730Z 11011KT 9999 OVC014 00/M04 Q1024=
201911240800 METAR LRIA 240800Z 11011KT 9999 OVC014 00/M04 Q1024=
201911240830 METAR LRIA 240830Z 11011KT 9999 OVC014 01/M04 Q1025=
201911240900 METAR LRIA 240900Z 11011KT 9999 OVC015 01/M04 Q1025=
201911240930 METAR LRIA 240930Z 10010KT 9999 OVC015 01/M03 Q1024=
201911241000 METAR LRIA 241000Z 11011KT 9999 OVC015 01/M03 Q1024=
201911241030 METAR LRIA 241030Z 11013KT 9999 OVC015 01/M03 Q1024=
201911241100 METAR LRIA 241100Z 11012KT 9999 OVC016 02/M03 Q1023=
201911241130 METAR LRIA 241130Z 11012KT 9999 OVC015 02/M02 Q1023=
201911241200 METAR LRIA 241200Z 11011KT 9999 OVC015 02/M02 Q1023=
201911241230 METAR LRIA 241230Z 11012KT 9999 OVC016 02/M02 Q1023=
201911241300 METAR LRIA 241300Z 11012KT 9999 OVC016 02/M02 Q1023=
201911241330 METAR LRIA 241330Z 11012KT 9999 OVC016 02/M02 Q1023=
201911241400 METAR LRIA 241400Z 11012KT 9999 OVC015 02/M02 Q1023=
201911241430 METAR LRIA 241430Z 11013KT 9999 OVC015 02/M02 Q1023=
201911241500 METAR LRIA 241500Z 11013KT 9999 OVC014 02/M02 Q1023=
201911241530 METAR LRIA 241530Z 11011KT 9999 OVC014 02/M01 Q1023=
201911241600 METAR LRIA 241600Z 11012KT 9999 OVC014 02/M01 Q1023=
201911241630 METAR LRIA 241630Z 11013KT 9999 OVC013 02/M00 Q1023=
201911241700 METAR LRIA 241700Z 11013KT 9999 OVC013 02/M00 Q1023=
201911241730 METAR LRIA 241730Z 11012KT 9999 FEW006 OVC011 01/00 Q1023=
201911241800 METAR LRIA 241800Z 11013KT 9999 FEW005 SCT008 BKN015 01/00
                        Q1023=
201911241830 METAR LRIA 241830Z 12011KT 9999 FEW005 SCT009 BKN015 01/00
                        Q1023=
201911241900 METAR LRIA 241900Z 12013KT 9999 FEW005 SCT009 BKN015 01/00
                        Q1023=
201911241930 METAR LRIA 241930Z 11013KT 9999 FEW005 SCT009 BKN014 01/00
                        Q1022=
201911242000 METAR LRIA 242000Z 11014KT 9999 FEW009 BKN011 01/00 Q1022=
201911242030 METAR LRIA 242030Z 11013KT 9999 FEW004 SCT009 BKN012 01/00
                        Q1022=
201911242100 METAR LRIA 242100Z 11014KT 9000 FEW003 SCT009 BKN012 01/00
                        Q1022=
201911242130 METAR LRIA 242130Z 11012KT 5000 BR FEW002 SCT003 BKN011 01/01
                        Q1022=
201911242200 METAR LRIA 242200Z 11012KT 4600 BR FEW001 SCT003 BKN007 01/01
                        Q1022=
201911242230 METAR LRIA 242230Z 11011KT 4200 BR FEW002 SCT003 BKN005 01/01
                        Q1021=
201911242300 METAR LRIA 242300Z 11012KT 5000 BR FEW001 SCT005 BKN007 01/01
                        Q1021=
201911242330 METAR LRIA 242330Z 11012KT 7000 FEW003 BKN008 01/00 Q1021=
201911250000 METAR LRIA 250000Z 11012KT 9999 FEW005 BKN009 01/M00 Q1021=
201911250030 METAR LRIA 250030Z 11011KT 9999 FEW005 BKN009 01/00 Q1021=
201911250100 METAR LRIA 250100Z 11013KT 8000 FEW005 BKN009 01/00 Q1021=
201911250130 METAR LRIA 250130Z 11012KT 6000 SCT004 BKN005 01/00 Q1020=
201911250200 METAR LRIA 250200Z 11012KT 7000 FEW003 BKN004 01/00 Q1020=
201911250230 METAR LRIA 250230Z 11012KT 7000 FEW004 BKN005 01/00 Q1020=
201911250300 METAR LRIA 250300Z 11014KT 8000 FEW004 BKN007 01/00 Q1020=
201911250330 METAR LRIA 250330Z 11012KT 7000 SCT004 BKN009 01/00 Q1020=
201911250400 METAR LRIA 250400Z 11013KT 6000 FEW003 BKN004 01/01 Q1020=
201911250430 METAR LRIA 250430Z 11013KT 6000 FEW002 BKN003 01/01 Q1020=
201911250500 METAR LRIA 250500Z 11013KT 5000 BR FEW002 BKN003 01/01 Q1020=
201911250530 METAR LRIA 250530Z 11015KT 1800 BR OVC002 01/01 Q1020=
201911250600 METAR LRIA 250600Z 11013KT 1800 BR VV002 01/01 Q1020=
201911250630 METAR LRIA 250630Z 11012KT 2000 BR OVC002 01/01 Q1020=
201911250700 METAR LRIA 250700Z 10011KT 3000 BR OVC002 02/01 Q1020=
201911250730 METAR LRIA 250730Z 10011KT 5000 BR OVC003 02/01 Q1020=
201911250800 METAR LRIA 250800Z 11012KT 7000 OVC004 02/01 Q1020=
201911250830 METAR LRIA 250830Z 10014KT 8000 OVC005 02/01 Q1020=
201911250900 METAR LRIA 250900Z 11013KT 9000 OVC006 02/01 Q1019=
201911250930 METAR LRIA 250930Z 11013KT 9999 OVC006 03/01 Q1019=
201911251000 METAR LRIA 251000Z 11014KT 9999 OVC007 03/01 Q1019=
201911251030 METAR LRIA 251030Z 11012KT 9999 OVC008 03/02 Q1019=
201911251100 METAR LRIA 251100Z 11014KT 9999 OVC008 03/02 Q1018=
201911251130 METAR LRIA 251130Z 11013KT 9999 OVC008 04/02 Q1018=
201911251200 METAR LRIA 251200Z 10013KT 9999 OVC008 04/02 Q1018=
201911251230 METAR LRIA 251230Z 11012KT 9999 OVC009 04/02 Q1018=
201911251300 METAR LRIA 251300Z 11013KT 9999 OVC009 04/02 Q1018=
201911251330 METAR LRIA 251330Z 11014KT 9999 OVC009 04/02 Q1018=
201911251400 METAR LRIA 251400Z 11013KT 9999 OVC010 04/02 Q1018=
201911251430 METAR LRIA 251430Z 11012KT 9999 OVC010 04/02 Q1018=
201911251500 METAR LRIA 251500Z 11012KT 9999 OVC010 04/02 Q1018=
201911251530 METAR LRIA 251530Z 11010KT 9999 OVC010 04/02 Q1018=
201911251600 METAR LRIA 251600Z 11010KT 9999 OVC010 04/02 Q1018=
201911251630 METAR LRIA 251630Z 10011KT 9999 OVC010 04/02 Q1018=
201911251700 METAR LRIA 251700Z 11011KT 9999 OVC010 04/02 Q1018=
201911251730 METAR LRIA 251730Z 11013KT 9999 OVC010 04/02 Q1018=
201911251800 METAR LRIA 251800Z 10013KT 9999 OVC009 04/02 Q1018=
201911251830 METAR LRIA 251830Z 11013KT 9999 SCT008 SCT009 04/03 Q1017=
201911251900 METAR LRIA 251900Z 11013KT 9999 BKN009 04/03 Q1018=
201911251930 METAR LRIA 251930Z 11014KT 9999 OVC009 04/02 Q1017=
201911252000 METAR COR LRIA 252000Z 11013KT 9999 OVC010 04/02 Q1017=
201911252030 METAR LRIA 252030Z 11012KT 9999 OVC010 04/02 Q1017=
201911252100 METAR LRIA 252100Z 11012KT 9999 OVC011 04/02 Q1017=
201911252130 METAR LRIA 252130Z 11012KT 9999 OVC011 04/02 Q1017=
201911252200 METAR LRIA 252200Z 11012KT 9999 OVC010 04/01 Q1018=
201911252230 METAR LRIA 252230Z 11013KT 9999 OVC010 03/01 Q1017=
201911252300 METAR LRIA 252300Z 11013KT 9999 OVC011 03/01 Q1017=
201911252330 METAR LRIA 252330Z 10012KT 9999 OVC011 03/00 Q1017=
201911260000 METAR LRIA 260000Z 11013KT 9999 OVC012 03/00 Q1017=
201911260030 METAR COR LRIA 260030Z 11014KT 9999 OVC012 03/M00 Q1017=
201911260100 METAR COR LRIA 260100Z 11013KT 9999 OVC014 02/M01 Q1017=
201911260130 METAR LRIA 260130Z 11013KT 9999 BKN015 02/M01 Q1017=
201911260200 METAR LRIA 260200Z 11012KT 9999 SCT018 01/M01 Q1017=
201911260230 METAR LRIA 260230Z 11011KT 9999 OVC099 01/M01 Q1017=
201911260300 METAR COR LRIA 260300Z 10011KT 9999 BKN096 01/M01 Q1016=
201911260330 METAR COR LRIA 260330Z 10011KT CAVOK 01/M01 Q1016=
201911260400 METAR COR LRIA 260400Z 10012KT CAVOK 01/M01 Q1016=
201911260430 METAR LRIA 260430Z 10011KT CAVOK 00/M01 Q1016=
201911260500 METAR LRIA 260500Z 09010KT CAVOK 00/M01 Q1016=
201911260530 METAR LRIA 260530Z 09009KT CAVOK 00/M01 Q1016=
201911260600 METAR LRIA 260600Z 09009KT CAVOK 00/M01 Q1016=
201911260630 METAR LRIA 260630Z 10009KT CAVOK 00/M02 Q1016=
201911260700 METAR LRIA 260700Z 09010KT CAVOK 01/M02 Q1017=
201911260730 METAR LRIA 260730Z 10008KT CAVOK 01/M02 Q1016=
201911260800 METAR LRIA 260800Z 09008KT CAVOK 01/M02 Q1016=
201911260830 METAR LRIA 260830Z 09008KT CAVOK 02/M01 Q1016=
201911260900 METAR LRIA 260900Z 08007KT CAVOK 02/M02 Q1016=
201911260930 METAR LRIA 260930Z 06007KT CAVOK 03/M01 Q1016=
201911261000 METAR LRIA 261000Z 09007KT 060V120 CAVOK 03/M01 Q1016=
201911261030 METAR LRIA 261030Z 08006KT CAVOK 03/M01 Q1016=
201911261100 METAR LRIA 261100Z 06004KT CAVOK 04/M01 Q1015=
201911261130 METAR LRIA 261130Z 06004KT 030V090 CAVOK 04/M01 Q1015=
201911261200 METAR LRIA 261200Z 07006KT CAVOK 04/M01 Q1015=
201911261230 METAR LRIA 261230Z 07005KT CAVOK 04/M01 Q1015=
201911261300 METAR LRIA 261300Z 06005KT CAVOK 04/M01 Q1015=
201911261330 METAR LRIA 261330Z 06005KT CAVOK 04/M01 Q1014=
201911261400 METAR LRIA 261400Z 06004KT CAVOK 04/M01 Q1014=
201911261430 METAR LRIA 261430Z 03004KT CAVOK 04/M00 Q1014=
201911261500 METAR LRIA 261500Z 04004KT 010V100 CAVOK 04/M00 Q1014=
201911261530 METAR LRIA 261530Z 04005KT CAVOK 03/M00 Q1014=
201911261600 METAR LRIA 261600Z 04005KT CAVOK 03/M00 Q1014=
201911261630 METAR LRIA 261630Z 36003KT CAVOK 03/00 Q1015=
201911261700 METAR LRIA 261700Z 01004KT 330V070 CAVOK 03/00 Q1015=
201911261730 METAR LRIA 261730Z VRB02KT CAVOK 03/00 Q1015=
201911261800 METAR LRIA 261800Z VRB01KT CAVOK 03/00 Q1015=
201911261830 METAR LRIA 261830Z 24002KT CAVOK 02/00 Q1015=
201911261900 METAR LRIA 261900Z VRB01KT CAVOK 03/00 Q1015=
201911261930 METAR LRIA 261930Z 07003KT CAVOK 02/00 Q1015=
201911262000 METAR LRIA 262000Z 06004KT CAVOK 02/M00 Q1015=
201911262030 METAR LRIA 262030Z 06005KT CAVOK 01/M01 Q1015=
201911262100 METAR LRIA 262100Z 08006KT CAVOK 01/M00 Q1014=
201911262130 METAR LRIA 262130Z 09005KT CAVOK 01/M01 Q1014=
201911262200 METAR LRIA 262200Z 09003KT CAVOK 00/M01 Q1014=
201911262230 METAR LRIA 262230Z 08005KT CAVOK 00/M01 Q1014=
201911262300 METAR LRIA 262300Z 06004KT CAVOK M00/M01 Q1014=
201911262330 METAR LRIA 262330Z VRB02KT CAVOK M01/M02 Q1014=
201911270000 METAR LRIA 270000Z VRB02KT 8000 NSC M01/M02 Q1013=
201911270030 METAR LRIA 270030Z VRB01KT 8000 NSC M01/M02 Q1013=
201911270100 METAR LRIA 270100Z 28001KT 7000 NSC M02/M02 Q1013=
201911270130 METAR LRIA 270130Z 30002KT 6000 NSC M02/M03 Q1013=
201911270200 METAR LRIA 270200Z 32002KT 6000 NSC M02/M02 Q1013=
201911270230 METAR LRIA 270230Z 28001KT 4000 BR NSC M03/M03 Q1013=
201911270300 METAR LRIA 270300Z 29002KT 2500 BR SCT001 M03/M03 Q1013=
201911270330 METAR LRIA 270330Z 28003KT 0100 R14/0350N R32/0550N FZFG
                        VV001 M03/M03 Q1013=
201911270400 METAR LRIA 270400Z 30003KT 0150 R14/0400N R32/0550N FZFG
                        VV001 M03/M03 Q1013=
201911270430 METAR LRIA 270430Z 27003KT 0100 R14/0325N R32/0500N FZFG
                        VV001 M03/M03 Q1013=
201911270500 METAR LRIA 270500Z 27001KT 0100 R14/0350N R32/0350D FZFG
                        VV001 M03/M03 Q1013=
201911270530 METAR LRIA 270530Z 27002KT 0150 R14/0350N R32/0400N FZFG
                        VV001 M03/M03 Q1013=
201911270600 METAR LRIA 270600Z 28003KT 0150 R14/0300N R32/0300N FZFG
                        VV001 M03/M03 Q1014 R14/19//95=
201911270630 METAR LRIA 270630Z 27004KT 0100 R14/0375D R32/0325N FZFG
                        VV001 M03/M03 Q1014 R14/19//95=
201911270700 METAR LRIA 270700Z 27004KT 0150 R14/0400N R32/0350N FZFG
                        VV001 M03/M03 Q1014 R14/19//95=
201911270730 METAR LRIA 270730Z 25003KT 200V290 0100 R14/0275N R32/0250N
                        FZFG VV001 M02/M03 Q1014 R14/19//95=
201911270800 METAR LRIA 270800Z 25003KT 0100 R14/0275N R32/0300N FZFG
                        VV001 M02/M02 Q1014 R14/19//95=
201911270830 METAR LRIA 270830Z VRB02KT 0100 R14/0275N R32/0275N FZFG
                        VV001 M02/M02 Q1014 R14/19//95=
201911270900 METAR LRIA 270900Z 25003KT 190V310 0100 R14/0275N R32/0250N
                        FZFG VV001 M02/M02 Q1014 R14/19//95=
201911270930 METAR LRIA 270930Z VRB02KT 0100 R14/0250N R32/0275N FZFG
                        VV001 M01/M01 Q1013 R14/19//95=
201911271000 METAR LRIA 271000Z VRB02KT 0100 R14/0300N R32/0325N FZFG
                        VV001 M01/M01 Q1013 R14/19//95=
201911271030 METAR LRIA 271030Z VRB02KT 0150 R14/0375N R32/0650N FZFG
                        VV001 M00/M00 Q1013 R14/19//95=
201911271100 METAR LRIA 271100Z VRB02KT 0200 R14/0375N R32/0750D FZFG
                        VV001 M00/M00 Q1013 R14/19//95=
201911271130 METAR LRIA 271130Z VRB01KT 0250 R14/0450N R32/0600N FZFG
                        VV001 M00/M00 Q1013 R14/19//95=
201911271200 METAR LRIA 271200Z VRB02KT 0250 R14/0800N R32/0650D FG VV001
                        00/00 Q1012 R14/19//95=
201911271230 METAR LRIA 271230Z 00000KT 0250 R14/0700N R32/0550N FG VV001
                        00/00 Q1012 R14/19//95=
201911271300 METAR LRIA 271300Z 25003KT 210V290 0250 R14/0550N R32/1000N
                        FG VV001 00/00 Q1012 R14/19//95=
201911271330 METAR LRIA 271330Z VRB02KT 0500 R14/0750D R32/0800N FG VV001
                        00/00 Q1012 R14/19//95=
201911271400 METAR LRIA 271400Z VRB01KT 1500 0800NW R14/1800D R32/P2000
                        PRFG BR VV001 00/00 Q1012 R14/19//95=
201911271430 METAR LRIA 271430Z VRB01KT 1200 0500NW R14/1200D R32/P2000
                        PRFG BR VV001 00/00 Q1012 R14/19//95=
201911271500 METAR LRIA 271500Z 31001KT 0500 R14/0650D R32/P2000 FG VV001
                        00/00 Q1012 R14/19//95=
201911271530 METAR LRIA 271530Z VRB01KT 0300 R14/0450N R32/0550N FZFG
                        VV001 M00/M00 Q1012 R14/19//95=
201911271600 METAR LRIA 271600Z 08003KT 050V120 0100 R14/0350N R32/0275N
                        FZFG VV001 M00/M00 Q1012 R14/19//95=
201911271630 METAR LRIA 271630Z 09003KT 0100 R14/0325N R32/0275N FZFG
                        VV001 M01/M01 Q1012 R14/19//95=
201911271700 METAR LRIA 271700Z VRB01KT 0100 R14/0350N R32/0275N FZFG
                        VV001 M01/M01 Q1012 R14/19//95=
201911271730 METAR LRIA 271730Z VRB01KT 0100 R14/0300N R32/0275N FZFG
                        VV001 M01/M01 Q1012 R14/19//95=
201911271800 METAR LRIA 271800Z VRB02KT 0100 R14/0300N R32/0250N FZFG
                        VV000 M00/M00 Q1012 R14/19//95=
201911271830 METAR LRIA 271830Z 10004KT 0100 R14/0275N R32/0250N FZFG
                        VV000 M01/M01 Q1012 R14/19//95=
201911271900 METAR LRIA 271900Z 07003KT 030V110 0100 R14/0300N R32/0300N
                        FZFG VV000 M01/M01 Q1012 R14/19//95=
201911271930 METAR LRIA 271930Z 09006KT 0100 R14/0350N R32/0275N FZFG
                        VV000 M01/M01 Q1012 R14/19//95=
201911272000 METAR LRIA 272000Z 10005KT 0100 R14/0275N R32/0250N FZFG
                        VV000 M01/M01 Q1012 R14/19//95=
201911272030 METAR LRIA 272030Z 11004KT 0100 R14/0275N R32/0275N FZFG
                        VV000 M01/M01 Q1012 R14/19//95=
201911272100 METAR LRIA 272100Z 12005KT 0100 R14/0275N R32/0250N FZFG
                        VV000 M02/M02 Q1012 R14/19//95=
201911272130 METAR LRIA 272130Z 12004KT 0100 R14/0275N R32/0250N FZFG
                        VV000 M02/M02 Q1012 R14/19//95=
201911272200 METAR LRIA 272200Z 09005KT 0100 R14/0300N R32/0300N FZFG
                        VV000 M02/M02 Q1012 R14/19//95=
201911272230 METAR LRIA 272230Z 10003KT 0100 R14/0300N R32/0300N FZFG
                        VV000 M02/M02 Q1012 R14/19//95=
201911272300 METAR LRIA 272300Z 10003KT 0100 R14/0300N R32/0300N FZFG
                        VV001 M02/M02 Q1012 R14/19//95=
201911272330 METAR LRIA 272330Z 10005KT 0100 R14/0400N R32/0350N FZFG
                        VV001 M01/M01 Q1012 R14/19//95=
201911280000 METAR LRIA 280000Z 09007KT 0100 R14/0450N R32/0450N FZFG
                        VV001 M01/M01 Q1011 R14/19//95=
201911280030 METAR LRIA 280030Z 10009KT 0100 R14/0500N R32/0550N FZFG
                        VV001 M00/M00 Q1011 R14/19//95=
201911280100 METAR LRIA 280100Z 10009KT 0100 R14/0500N R32/0500N FZFG
                        VV001 M00/M00 Q1011 R14/19//95=
201911280130 METAR LRIA 280130Z 11010KT 0100 R14/0500N R32/0500N FG VV001
                        00/00 Q1010 R14/19//95=
201911280200 METAR LRIA 280200Z 11008KT 0100 R14/0500N R32/0550N FG VV001
                        01/01 Q1010 R14/19//95=
201911280230 METAR LRIA 280230Z 10008KT 0100 R14/0550N R32/0650N FG VV001
                        01/01 Q1010 R14/19//95=
201911280300 METAR LRIA 280300Z 10008KT 0100 R14/0550N R32/0650N FG VV001
                        01/01 Q1010 R14/19//95=
201911280330 METAR LRIA 280330Z 11009KT 0100 R14/0500N R32/0550N FG VV001
                        01/01 Q1010 R14/19//95=
201911280400 METAR LRIA 280400Z 11010KT 0100 R14/0550N R32/0650N FG VV001
                        01/01 Q1010 R14/19//95=
201911280430 METAR LRIA 280430Z 11009KT 0100 R14/0550N R32/0700N FG VV001
                        02/02 Q1009 R14/19//95=
201911280500 METAR LRIA 280500Z 11010KT 0100 R14/0550N R32/0600N FG VV001
                        02/02 Q1009 R14/19//95=
201911280530 METAR LRIA 280530Z 11009KT 0100 R14/0650N R32/0750N FG VV001
                        02/02 Q1010 R14/CLRD//=
201911280600 METAR LRIA 280600Z 11009KT 0300 R14/0375N R32/0450N FG VV001
                        02/02 Q1010=
201911280630 METAR LRIA 280630Z 11009KT 0400 R14/0500N R32/0600U FG VV001
                        02/02 Q1010=
201911280700 METAR LRIA 280700Z 11009KT 0550 R14/0700U R32/0800U FG VV001
                        02/02 Q1010=
201911280730 METAR LRIA 280730Z 11008KT 1400 R14/1100U R32/2000 BR BKN001
                        OVC005 03/03 Q1010=
201911280800 METAR LRIA 280800Z 13006KT 7000 SCT001 OVC005 03/03 Q1010=
201911280830 METAR LRIA 280830Z 13006KT 8000 FEW001 SCT004 BKN006 03/03
                        Q1010=
201911280900 METAR LRIA 280900Z 13008KT 9999 FEW002 SCT005 BKN010 03/03
                        Q1009=
201911280930 METAR LRIA 280930Z 13008KT 9999 SCT005 BKN009 04/04 Q1009=
201911281000 METAR LRIA 281000Z 12007KT 9999 FEW004 BKN009 04/04 Q1009=
201911281030 METAR LRIA 281030Z 12007KT 9000 FEW002 BKN009 04/04 Q1009=
201911281100 METAR LRIA 281100Z 12008KT 9999 FEW001 BKN009 04/04 Q1008=
201911281130 METAR LRIA 281130Z 10008KT 9999 FEW002 BKN010 04/04 Q1008=
201911281200 METAR LRIA 281200Z 11007KT 9999 FEW006 SCT008 BKN012 05/04
                        Q1008=
201911281230 METAR LRIA 281230Z 12009KT 9999 FEW006 SCT008 BKN010 05/04
                        Q1008=
201911281300 METAR LRIA 281300Z 12010KT 9999 FEW007 BKN009 05/04 Q1008=
201911281330 METAR LRIA 281330Z 12009KT 9999 FEW007 BKN009 05/04 Q1007=
201911281400 METAR LRIA 281400Z 12008KT 9999 SCT008 BKN009 05/04 Q1008=
201911281430 METAR LRIA 281430Z 15007KT 9999 SCT008 BKN009 05/03 Q1007=
201911281500 METAR LRIA 281500Z 14007KT 9999 FEW007 BKN009 05/03 Q1007=
201911281530 METAR LRIA 281530Z 14005KT 9999 SCT007 BKN010 05/03 Q1008=
201911281600 METAR LRIA 281600Z 15006KT 9999 SCT007 BKN008 05/04 Q1007=
201911281630 METAR LRIA 281630Z 16006KT 9999 FEW006 BKN007 05/03 Q1007=
201911281700 METAR LRIA 281700Z 12004KT 8000 SCT006 BKN007 05/03 Q1007=
201911281730 METAR LRIA 281730Z 11007KT 7000 SCT006 BKN008 05/04 Q1006=
201911281800 METAR LRIA 281800Z 13005KT 9000 BKN006 05/04 Q1006=
201911281830 METAR LRIA 281830Z 12006KT 9000 FEW004 OVC006 05/04 Q1006=
201911281900 METAR LRIA 281900Z 10007KT 5000 BR SCT002 OVC005 04/04 Q1006=
201911281930 METAR LRIA 281930Z 11006KT 5000 1500NW PRFG BR SCT001 OVC005
                        04/04 Q1005=
201911282000 METAR LRIA 282000Z 15004KT 7000 SCT001 OVC005 05/05 Q1005=
201911282030 METAR LRIA 282030Z 14007KT 8000 FEW003 OVC005 05/04 Q1005=
201911282100 METAR LRIA 282100Z 13005KT 8000 OVC004 05/04 Q1005=
201911282130 METAR LRIA 282130Z 13005KT 8000 OVC005 05/04 Q1005=
201911282200 METAR LRIA 282200Z 11007KT 8000 OVC005 05/05 Q1004=
201911282230 METAR LRIA 282230Z 10006KT 8000 FEW003 OVC005 05/04 Q1004=
201911282300 METAR LRIA 282300Z 11006KT 8000 3000NW BCFG FEW001 OVC003
                        05/04 Q1004=
201911282330 METAR LRIA 282330Z 11007KT 8000 3000NW BCFG FEW001 OVC005
                        05/05 Q1004=
201911290000 METAR LRIA 290000Z 11006KT 5000 -DZ OVC003 05/05 Q1003=
201911290030 METAR LRIA 290030Z 11007KT 3000 -DZ BR OVC004 05/05 Q1003=
201911290100 METAR LRIA 290100Z 11006KT 1200 R14/1400N R32/P2000 -DZRA
                        BR OVC002 05/05 Q1003=
201911290130 METAR LRIA 290130Z 11007KT 1200 R14/1800D R32/P2000 -DZRA
                        BR BKN004 05/05 Q1003=
201911290200 METAR LRIA 290200Z 10004KT 1500 R14/1700D R32/P2000 -RA OVC004
                        05/05 Q1003=
201911290230 METAR LRIA 290230Z 09005KT 0500 R14/0800N R32/1600N -RA FG
                        OVC003 05/05 Q1003=
201911290300 METAR LRIA 290300Z 10006KT 0300 R14/0750N R32/0800N -RA FG
                        VV001 05/05 Q1003 R14/29//95=
201911290330 METAR LRIA 290330Z 10006KT 0300 R14/0550N R32/1000D -RA FG
                        VV001 05/05 Q1003 R14/29//95=
201911290400 METAR LRIA 290400Z 11006KT 0300 R14/0600N R32/1100N -RA FG
                        VV001 05/05 Q1002 R14/29//95=
201911290430 METAR LRIA 290430Z 11007KT 0150 R14/0750N R32/0700N FG VV001
                        05/05 Q1002 R14/29//95=
201911290500 METAR LRIA 290500Z 10007KT 0100 R14/0450N R32/0800N FG VV001
                        05/05 Q1002 R14/29//95=
201911290530 METAR LRIA 290530Z 10006KT 0150 R14/0450N R32/0800N FG VV001
                        05/05 Q1002 R14/29//95=
201911290600 METAR LRIA 290600Z 10004KT 0150 R14/0450N R32/0500N FG VV001
                        05/05 Q1002 R14/29//95=
201911290630 METAR LRIA 290630Z 09003KT 0200 R14/0550N R32/0550N FG BKN001
                        05/05 Q1002 R14/29//95=
201911290700 METAR LRIA 290700Z 07004KT 040V100 0800 R14/1300U R32/1600U
                        -RA FG SCT001 05/05 Q1003 R14/29//95=
201911290730 METAR LRIA 290730Z 07004KT 1800 -RA BR SCT001 SCT014 BKN045
                        05/05 Q1003 R14/29//95=
201911290800 METAR LRIA 290800Z 07004KT 2000 -RA BR SCT001 SCT016 BKN047
                        06/06 Q1003 R14/29//95=
201911290830 METAR LRIA 290830Z 10002KT 3500 -RA BR SCT001 SCT009 BKN021
                        06/06 Q1003 R14/29//95=
201911290900 METAR LRIA 290900Z 10003KT 5000 BR FEW001 BKN002 07/07 Q1003
                        R14/29//95=
201911290930 METAR LRIA 290930Z VRB02KT 6000 FEW001 SCT002 07/07 Q1003
                        R14/29//95=
201911291000 METAR LRIA 291000Z VRB02KT 7000 FEW001 SCT003 08/08 Q1003
                        R14/29//95=
201911291030 METAR LRIA 291030Z 26004KT 7000 FEW003 SCT006 08/08 Q1003
                        R14/29//95=
201911291100 METAR LRIA 291100Z 28004KT 250V320 9999 FEW006 09/08 Q1002
                        R14/29//95=
201911291130 METAR LRIA 291130Z 28005KT 9999 FEW007 09/08 Q1002 R14/29//95=
201911291200 METAR LRIA 291200Z 29007KT 9999 FEW010 09/07 Q1002 R14/29//95=
201911291230 METAR LRIA 291230Z 25003KT 220V320 9999 FEW010 09/07 Q1003
                        R14/29//95=
201911291300 METAR LRIA 291300Z 29003KT 9999 FEW012 09/08 Q1003 R14/29//95=
201911291330 METAR LRIA 291330Z 28006KT 9999 FEW009 09/08 Q1003 R14/29//95=
201911291400 METAR LRIA 291400Z 29003KT 250V340 9999 FEW012 09/07 Q1003
                        R14/29//95=
201911291430 METAR LRIA 291430Z VRB02KT 9000 NSC 08/07 Q1004 R14/29//95=
201911291500 METAR LRIA 291500Z 32003KT 5000 BR NSC 06/06 Q1004 R14/29//95=
201911291530 METAR LRIA 291530Z 32005KT 0800 R14/1000N R32/P2000 FG SCT001
                        06/06 Q1004 R14/29//95=
201911291600 METAR LRIA 291600Z 35003KT 0100 R14/0300N R32/0275N FG VV001
                        06/06 Q1004 R14/29//95=
201911291630 METAR LRIA 291630Z VRB02KT 0050 R14/0225N R32/0200N FG VV001
                        06/06 Q1004 R14/29//95=
201911291700 METAR LRIA 291700Z 28004KT 240V320 0050 R14/0250N R32/0275N
                        FG VV001 06/06 Q1005 R14/29//95=
201911291730 METAR LRIA 291730Z VRB01KT 0100 R14/0300N R32/0250N FG VV001
                        05/05 Q1005 R14/29//95=
201911291800 METAR LRIA 291800Z 30003KT 0300 R14/0325N R32/0300N FG VV001
                        05/05 Q1005 R14/29//95=
201911291830 METAR LRIA 291830Z 04002KT 0300 R14/0350N R32/0300N FG VV001
                        05/05 Q1005 R14/29//95=
201911291900 METAR LRIA 291900Z VRB02KT 0300 R14/0350N R32/0275N FG VV001
                        05/05 Q1005 R14/29//95=
201911291930 METAR LRIA 291930Z 16002KT 0250 R14/0325N R32/0250N FG VV001
                        05/05 Q1006 R14/29//95=
201911292000 METAR LRIA 292000Z 12002KT 0250 R14/0275N R32/0250N FG VV001
                        04/04 Q1006 R14/29//95=
201911292030 METAR LRIA 292030Z 00000KT 0200 R14/0250N R32/0225N FG VV001
                        04/04 Q1006 R14/29//95=
201911292100 METAR LRIA 292100Z 00000KT 0350 R14/0400N R32/0350N FG VV001
                        04/04 Q1006 R14/29//95=
201911292130 METAR LRIA 292130Z 29002KT 0350 R14/0325U R32/0350N FG VV001
                        03/03 Q1006 R14/29//95=
201911292200 METAR LRIA 292200Z VRB01KT 0300 R14/0375N R32/0250N FG VV001
                        03/03 Q1006 R14/29//95=
201911292230 METAR LRIA 292230Z VRB01KT 0300 R14/0275N R32/0225N FG VV001
                        03/03 Q1006 R14/29//95=
201911292300 METAR LRIA 292300Z 10003KT 0700 R14/0900U R32/0225N FG VV001
                        02/02 Q1006 R14/29//95=
201911292330 METAR LRIA 292330Z 08005KT 0500 R14/0600D R32/0375N FG VV001
                        01/01 Q1006 R14/29//95=
201911300000 METAR LRIA 300000Z 08005KT 0250 R14/0325N R32/0275N FG VV001
                        02/02 Q1007 R14/29//95=
201911300030 METAR LRIA 300030Z 08005KT 0300 R14/0350N R32/0375N FG VV001
                        02/02 Q1007 R14/29//95=
201911300100 METAR LRIA 300100Z 08004KT 0350 R14/0400N R32/0350N FG VV001
                        02/02 Q1007 R14/29//95=
201911300130 METAR LRIA 300130Z 09004KT 0250 R14/0300N R32/0300N FGVV001
                        03/03 Q1007 R14/29//95=
201911300200 METAR LRIA 300200Z 09004KT 0300 R14/0325N R32/0325N FG VV001
                        03/03 Q1007 R14/29//95=
201911300230 METAR LRIA 300230Z 09004KT 0300 R14/0375N R32/0325N FG VV001
                        04/04 Q1007 R14/29//95=
201911300300 METAR LRIA 300300Z 09005KT 0400 R14/0450N R32/0400N FG VV001
                        04/04 Q1007 R14/29//95=
201911300330 METAR LRIA 300330Z 08005KT 0450 R14/0550N R32/0450N FG VV001
                        03/03 Q1007 R14/29//95=
201911300400 METAR LRIA 300400Z 08003KT 040V100 0550 R14/0550U R32/0450U
                        FG BKN001 03/03 Q1008 R14/29//95=
201911300430 METAR LRIA 300430Z 05004KT 4000 BR FEW001 04/04 Q1008 R14/29//95=
201911300500 METAR LRIA 300500Z 28004KT 2700 BR SCT048 03/03 Q1009 R14/29//95=
201911300530 METAR LRIA 300530Z 28005KT 9000 FEW049 03/03 Q1009 R14/29//95=
201911300600 METAR LRIA 300600Z 30007KT 270V330 9999 FEW007 BKN049 04/04
                        Q1010 R14/29//95=
201911300630 METAR LRIA 300630Z 22004KT 7000 FEW005 SCT007 BKN049 04/04
                        Q1011 R14/29//95=
201911300700 METAR COR LRIA 300700Z 29007KT 9999 FEW006 BKN009 BKN048
                        04/04 Q1012 R14/29//95=
201911300730 METAR LRIA 300730Z 29007KT 9999 FEW007 BKN009 05/05 Q1012
                        R14/29//95=
201911300800 METAR LRIA 300800Z 30006KT 9999 -DZ BKN010 05/05 Q1013 R14/29//95=
201911300830 METAR COR LRIA 300830Z 31007KT 9999 DZ FEW012 BKN016 05/05
                        Q1013 R14/29//95=
201911300900 METAR COR LRIA 300900Z 31006KT 9999 BKN018 SCT024 05/05 Q1013
                        REDZ R14/29//95=
201911300930 METAR LRIA 300930Z 32007KT 280V340 9999 BKN024 05/05 Q1012
                        R14/29//95=
201911301000 METAR COR LRIA 301000Z 29005KT 9999 BKN029 SCT037 05/05 Q1013
                        R14/29//95=
201911301030 METAR LRIA 301030Z 30006KT 9999 OVC037 06/04 Q1013 R14/29//95=
201911301100 METAR LRIA 301100Z 31007KT 9999 FEW019 OVC040 06/04 Q1013
                        R14/29//95=
201911301130 METAR LRIA 301130Z 32007KT 9999 OVC038 06/03 Q1013 R14/29//95=
201911301200 METAR LRIA 301200Z 31009KT 9999 OVC039 06/03 Q1013 R14/29//95=
201911301230 METAR LRIA 301230Z 31007KT 9999 OVC039 06/03 Q1013 R14/29//95=
201911301300 METAR LRIA 301300Z 31006KT 9999 BKN040 06/02 Q1014 R14/29//95=
201911301330 METAR LRIA 301330Z 32006KT 9999 OVC041 06/01 Q1014 R14/29//95=
201911301400 METAR LRIA 301400Z 32006KT 9999 OVC045 06/01 Q1014 R14/29//95=
201911301430 METAR LRIA 301430Z 29004KT 9999 -RA NSC 05/01 Q1015 R14/29//95=
201911301500 METAR LRIA 301500Z 30004KT 9999 -RA SCT022 BKN029 05/02 Q1015
                        R14/29//95=
201911301530 METAR LRIA 301530Z 32005KT 9999 -RA FEW021 BKN027 05/02 Q1016
                        R14/29//95=
201911301600 METAR LRIA 301600Z 32004KT 9999 FEW031 BKN045 05/02 Q1016
                        R14/29//95=
201911301630 METAR LRIA 301630Z 31004KT 9999 SCT025 SCT033 05/02 Q1016
                        R14/29//95=
201911301700 METAR LRIA 301700Z 32007KT 9999 SCT025 SCT033 05/02 Q1016
                        R14/29//95=
201911301730 METAR LRIA 301730Z 32009KT 9999 SCT028 05/01 Q1017 R14/29//95=
201911301800 METAR LRIA 301800Z 31010KT 9999 FEW022 04/01 Q1017 R14/29//95=
201911301830 METAR LRIA 301830Z 33011KT 9999 FEW022 03/00 Q1018 R14/29//95=
201911301900 METAR LRIA 301900Z 31007KT 270V330 9999 FEW022 03/00 Q1018
                        R14/29//95=
201911301930 METAR LRIA 301930Z 33006KT CAVOK 03/00 Q1018 R14/29//95=
201911302000 METAR LRIA 302000Z 31011KT CAVOK 03/M00 Q1019 R14/29//95=
201911302030 METAR LRIA 302030Z 31011KT CAVOK 03/M01 Q1019 R14/29//95=
201911302100 METAR LRIA 302100Z 31010KT CAVOK 02/M01 Q1019 R14/29//95=
201911302130 METAR LRIA 302130Z 31011KT CAVOK 03/M02 Q1020 R14/29//95=
201911302200 METAR LRIA 302200Z 31008KT CAVOK 02/M02 Q1020 R14/19//95=
201911302230 METAR LRIA 302230Z 30008KT CAVOK 02/M02 Q1020 R14/19//95=
201911302300 METAR LRIA 302300Z 31007KT CAVOK 01/M03 Q1021 R14/19//95=
201911302330 METAR LRIA 302330Z 31007KT CAVOK 01/M03 Q1021 R14/19//95=
