201812010000 METAR LRTR 010000Z 08005KT CAVOK M07/M08 Q1023=
201812010030 METAR LRTR 010030Z 08005KT CAVOK M08/M08 Q1023=
201812010100 METAR LRTR 010100Z 08005KT CAVOK M08/M09 Q1022=
201812010130 METAR LRTR 010130Z 08003KT CAVOK M08/M09 Q1022=
201812010200 METAR COR LRTR 010200Z 07004KT CAVOK M08/M08 Q1022=
201812010230 METAR LRTR 010230Z 09004KT CAVOK M08/M09 Q1022=
201812010300 METAR LRTR 010300Z 08004KT CAVOK M08/M09 Q1022=
201812010330 METAR LRTR 010330Z 08005KT CAVOK M08/M09 Q1022=
201812010400 METAR LRTR 010400Z 09004KT CAVOK M08/M09 Q1022=
201812010430 METAR LRTR 010430Z 10004KT CAVOK M08/M09 Q1022=
201812010500 METAR LRTR 010500Z 10005KT CAVOK M09/M09 Q1022=
201812010530 METAR LRTR 010530Z 10004KT CAVOK M09/M09 Q1022=
201812010600 METAR LRTR 010600Z 09004KT CAVOK M08/M09 Q1022=
201812010630 METAR LRTR 010630Z 11005KT CAVOK M08/M09 Q1023=
201812010700 METAR LRTR 010700Z 10005KT CAVOK M07/M08 Q1023=
201812010730 METAR LRTR 010730Z 13006KT CAVOK M06/M07 Q1023=
201812010800 METAR LRTR 010800Z 13006KT CAVOK M05/M07 Q1023=
201812010830 METAR LRTR 010830Z 12005KT 9999 SCT048 M05/M06 Q1023=
201812010900 METAR LRTR 010900Z 13006KT 9999 BKN048 M04/M06 Q1023=
201812010930 METAR LRTR 010930Z 14005KT 110V170 9999 SCT048 M03/M06 Q1023=
201812011000 METAR LRTR 011000Z 15004KT 090V180 9999 SCT048 M03/M05 Q1023=
201812011030 METAR LRTR 011030Z VRB02KT 9999 SCT048 M02/M06 Q1023=
201812011100 METAR LRTR 011100Z VRB01KT 9999 BKN047 M02/M07 Q1023=
201812011130 METAR LRTR 011130Z VRB02KT 9999 BKN048 M02/M07 Q1023=
201812011200 METAR LRTR 011200Z 10003KT 060V130 9999 SCT048 M02/M07 Q1023=
201812011230 METAR LRTR 011230Z 13003KT 100V170 9999 FEW048 M02/M07 Q1023=
201812011300 METAR LRTR 011300Z 13003KT 090V170 9999 FEW045 M02/M07 Q1023=
201812011330 METAR LRTR 011330Z VRB01KT CAVOK M01/M06 Q1023=
201812011400 METAR LRTR 011400Z 14003KT CAVOK M02/M06 Q1023=
201812011430 METAR LRTR 011430Z 11003KT CAVOK M02/M06 Q1023=
201812011500 METAR LRTR 011500Z 11002KT 9999 FEW046 M02/M05 Q1023=
201812011530 METAR LRTR 011530Z 00000KT 9999 FEW046 M02/M06 Q1023=
201812011600 METAR LRTR 011600Z 10002KT CAVOK M02/M05 Q1023=
201812011630 METAR LRTR 011630Z 09002KT 9999 BKN047 M01/M05 Q1023=
201812011700 METAR LRTR 011700Z 11003KT 9999 BKN043 M02/M05 Q1023=
201812011730 METAR LRTR 011730Z 11002KT 9999 BKN042 M01/M05 Q1024=
201812011800 METAR LRTR 011800Z 11002KT 9999 OVC038 M01/M05 Q1024=
201812011830 METAR COR LRTR 011830Z 10003KT 9999 OVC034 M01/M05 Q1024=
201812011900 METAR LRTR 011900Z 09004KT 9999 OVC033 M01/M04 Q1024=
201812011930 METAR LRTR 011930Z 11003KT 9999 OVC032 M01/M04 Q1024=
201812012000 METAR COR LRTR 012000Z 10003KT 9999 OVC031 M01/M05 Q1024=
201812012030 METAR COR LRTR 012030Z 11003KT 9999 OVC032 M01/M05 Q1024=
201812012100 METAR LRTR 012100Z 11003KT 9999 BKN033 M01/M04 Q1024=
201812012130 METAR LRTR 012130Z 11004KT 9999 FEW033 M02/M04 Q1024=
201812012200 METAR LRTR 012200Z 12005KT 9999 FEW033 M02/M04 Q1024=
201812012230 METAR LRTR 012230Z 12004KT CAVOK M02/M04 Q1023=
201812012300 METAR LRTR 012300Z 11004KT CAVOK M02/M04 Q1024=
201812012330 METAR LRTR 012330Z 10004KT CAVOK M02/M04 Q1023=
201812020000 METAR LRTR 020000Z 08004KT CAVOK M03/M04 Q1023=
201812020030 METAR LRTR 020030Z 09004KT 9999 FEW040 M03/M04 Q1023=
201812020100 METAR LRTR 020100Z 10004KT 9999 BKN035 M03/M04 Q1023=
201812020130 METAR LRTR 020130Z 10004KT 9999 BKN032 M02/M03 Q1023=
201812020200 METAR LRTR 020200Z 10004KT 9999 OVC030 M02/M03 Q1023=
201812020230 METAR LRTR 020230Z 10004KT 9999 OVC028 M02/M03 Q1023=
201812020300 METAR LRTR 020300Z 10004KT 9999 OVC028 M02/M03 Q1023=
201812020330 METAR LRTR 020330Z 09003KT 9999 OVC028 M02/M03 Q1023=
201812020400 METAR LRTR 020400Z 07003KT 9999 BKN027 M02/M03 Q1023=
201812020430 METAR LRTR 020430Z 09004KT 9999 BKN026 M02/M04 Q1023=
201812020500 METAR LRTR 020500Z 09003KT 9999 BKN025 M03/M04 Q1023=
201812020530 METAR LRTR 020530Z 08002KT 9999 SCT025 M03/M04 Q1023=
201812020600 METAR LRTR 020600Z 11005KT 9999 FEW025 M05/M05 Q1023=
201812020630 METAR LRTR 020630Z 11005KT CAVOK M04/M05 Q1023=
201812020700 METAR LRTR 020700Z 11008KT CAVOK M03/M04 Q1023=
201812020730 METAR LRTR 020730Z 10009KT CAVOK M01/M04 Q1023=
201812020800 METAR LRTR 020800Z 11009KT CAVOK M00/M04 Q1022=
201812020830 METAR LRTR 020830Z 11010KT CAVOK 01/M04 Q1022=
201812020900 METAR LRTR 020900Z 12011KT CAVOK 01/M04 Q1022=
201812020930 METAR LRTR 020930Z 11009KT CAVOK 02/M03 Q1022=
201812021000 METAR LRTR 021000Z 12010KT CAVOK 03/M03 Q1021=
201812021030 METAR LRTR 021030Z 12010KT CAVOK 03/M03 Q1021=
201812021100 METAR LRTR 021100Z 12011KT CAVOK 04/M03 Q1020=
201812021130 METAR LRTR 021130Z 12011KT CAVOK 05/M03 Q1020=
201812021200 METAR LRTR 021200Z 13007KT CAVOK 05/M03 Q1020=
201812021230 METAR LRTR 021230Z 13005KT CAVOK 05/M03 Q1020=
201812021300 METAR LRTR 021300Z 12006KT CAVOK 05/M03 Q1020=
201812021330 METAR LRTR 021330Z 11008KT CAVOK 05/M02 Q1019=
201812021400 METAR LRTR 021400Z 11008KT CAVOK 04/M02 Q1019=
201812021430 METAR LRTR 021430Z 12008KT CAVOK 03/M02 Q1019=
201812021500 METAR LRTR 021500Z 12009KT CAVOK 02/M02 Q1019=
201812021530 METAR LRTR 021530Z 12010KT CAVOK 01/M02 Q1018=
201812021600 METAR LRTR 021600Z 11010KT CAVOK 01/M02 Q1018=
201812021630 METAR LRTR 021630Z 11010KT CAVOK 01/M02 Q1018=
201812021700 METAR LRTR 021700Z 11009KT CAVOK 00/M02 Q1017=
201812021730 METAR LRTR 021730Z 11009KT CAVOK M00/M02 Q1017=
201812021800 METAR LRTR 021800Z 12009KT CAVOK M01/M02 Q1018=
201812021830 METAR LRTR 021830Z 11009KT CAVOK 00/M02 Q1018=
201812021900 METAR LRTR 021900Z 12008KT CAVOK 00/M02 Q1017=
201812021930 METAR LRTR 021930Z 13008KT CAVOK 01/M01 Q1017=
201812022000 METAR LRTR 022000Z 11008KT CAVOK 02/M01 Q1017=
201812022030 METAR LRTR 022030Z 12011KT CAVOK 02/M01 Q1017=
201812022100 METAR LRTR 022100Z 12011KT CAVOK 01/M01 Q1017=
201812022130 METAR LRTR 022130Z 12011KT CAVOK 01/M01 Q1017=
201812022200 METAR LRTR 022200Z 12010KT CAVOK 00/M02 Q1017=
201812022230 METAR LRTR 022230Z 11009KT CAVOK 00/M02 Q1017=
201812022300 METAR LRTR 022300Z 11009KT CAVOK M00/M01 Q1016=
201812022330 METAR LRTR 022330Z 11009KT CAVOK 01/M01 Q1016=
201812030000 METAR LRTR 030000Z 11010KT CAVOK 01/M01 Q1016=
201812030030 METAR LRTR 030030Z 12011KT CAVOK 01/M01 Q1016=
201812030100 METAR LRTR 030100Z 12010KT CAVOK 01/M01 Q1016=
201812030130 METAR LRTR 030130Z 11011KT CAVOK 01/M01 Q1015=
201812030200 METAR LRTR 030200Z 12009KT CAVOK 01/M01 Q1015=
201812030230 METAR LRTR 030230Z 12010KT CAVOK 01/M01 Q1015=
201812030300 METAR LRTR 030300Z 12011KT CAVOK 01/M01 Q1015=
201812030330 METAR LRTR 030330Z 11009KT CAVOK 01/M01 Q1015=
201812030400 METAR LRTR 030400Z 12009KT CAVOK 01/M01 Q1015=
201812030430 METAR LRTR 030430Z 11008KT CAVOK 01/M01 Q1015=
201812030500 METAR LRTR 030500Z 11007KT CAVOK 01/M01 Q1015=
201812030530 METAR LRTR 030530Z 12008KT CAVOK 01/M01 Q1015=
201812030600 METAR LRTR 030600Z 12008KT CAVOK 01/M01 Q1015=
201812030630 METAR LRTR 030630Z 12009KT CAVOK 02/M01 Q1015=
201812030700 METAR LRTR 030700Z 11010KT CAVOK 03/M01 Q1015=
201812030730 METAR LRTR 030730Z 11008KT CAVOK 04/M00 Q1015=
201812030800 METAR LRTR 030800Z 12009KT CAVOK 04/M00 Q1015=
201812030830 METAR LRTR 030830Z 12009KT CAVOK 05/00 Q1016=
201812030900 METAR LRTR 030900Z 12009KT CAVOK 05/01 Q1015=
201812030930 METAR LRTR 030930Z 13008KT CAVOK 06/01 Q1015=
201812031000 METAR LRTR 031000Z 12007KT CAVOK 06/01 Q1015=
201812031030 METAR LRTR 031030Z 14006KT CAVOK 07/01 Q1015=
201812031100 METAR LRTR 031100Z 13006KT CAVOK 07/02 Q1014=
201812031130 METAR LRTR 031130Z 14006KT CAVOK 08/03 Q1014=
201812031200 METAR LRTR 031200Z 15007KT 130V190 CAVOK 11/04 Q1014=
201812031230 METAR LRTR 031230Z 16007KT CAVOK 11/03 Q1014=
201812031300 METAR LRTR 031300Z 17006KT 150V210 CAVOK 11/03 Q1014=
201812031330 METAR LRTR 031330Z 16005KT CAVOK 10/03 Q1013=
201812031400 METAR LRTR 031400Z 17005KT CAVOK 10/04 Q1013=
201812031430 METAR LRTR 031430Z 18004KT CAVOK 10/03 Q1014=
201812031500 METAR LRTR 031500Z 18004KT CAVOK 09/03 Q1014=
201812031530 METAR LRTR 031530Z 17004KT CAVOK 09/04 Q1014=
201812031600 METAR LRTR 031600Z 16005KT CAVOK 08/04 Q1014=
201812031630 METAR LRTR 031630Z 15003KT CAVOK 08/05 Q1014=
201812031700 METAR LRTR 031700Z 11005KT CAVOK 07/04 Q1014=
201812031730 METAR LRTR 031730Z 12004KT 9999 -RA NSC 07/04 Q1014=
201812031800 METAR LRTR 031800Z 11005KT CAVOK 07/03 Q1014=
201812031830 METAR LRTR 031830Z 12006KT CAVOK 06/03 Q1014=
201812031900 METAR LRTR 031900Z 12007KT CAVOK 06/03 Q1014=
201812031930 METAR LRTR 031930Z 11005KT CAVOK 05/03 Q1014=
201812032000 METAR LRTR 032000Z 11004KT 9999 -RA NSC 05/03 Q1014=
201812032030 METAR LRTR 032030Z 11006KT 9999 -RA NSC 05/04 Q1013 R11/190095=
201812032100 METAR LRTR 032100Z 12005KT 7000 RA NSC 05/05 Q1013 R11/290095=
201812032130 METAR LRTR 032130Z 11006KT 6000 RA SCT048 05/05 Q1013 R11/290095=
201812032200 METAR LRTR 032200Z 11006KT 8000 -RA BKN047 05/05 Q1013 RERA
                        R11/290095=
201812032230 METAR LRTR 032230Z 11007KT 7000 -RA BKN047 05/05 Q1013 R11/290095=
201812032300 METAR LRTR 032300Z 10005KT 9999 -RA BKN049 05/05 Q1012 R11/290095=
201812032330 METAR LRTR 032330Z 10006KT 7000 -RA NSC 05/05 Q1012 R11/290095=
201812040000 METAR LRTR 040000Z 11007KT 8000 -RA NSC 05/05 Q1012 R11/290095=
201812040030 METAR LRTR 040030Z 11008KT 8000 -RA NSC 05/05 Q1012 R11/290095=
201812040100 METAR LRTR 040100Z 11009KT 8000 -RA NSC 05/05 Q1012 R11/290095=
201812040130 METAR LRTR 040130Z AUTO 10008KT 9000 -RA OVC053/// 05/05
                        Q1012=
201812040200 METAR COR LRTR 040200Z 11009KT CAVOK 05/05 Q1012 RERA R11/290095=
201812040230 METAR LRTR 040230Z 12008KT CAVOK 05/05 Q1012 R11/290095=
201812040300 METAR LRTR 040300Z 11008KT 9999 BKN048 05/05 Q1012 R11/290095=
201812040330 METAR LRTR 040330Z 11009KT 9999 OVC046 05/05 Q1012 R11/290095=
201812040400 METAR LRTR 040400Z 11007KT 9999 OVC042 05/05 Q1012 R11/290095=
201812040430 METAR LRTR 040430Z 11005KT 9999 OVC038 05/05 Q1012 R11/290095=
201812040500 METAR LRTR 040500Z 10006KT 9999 OVC036 05/05 Q1012 R11/290095=
201812040530 METAR LRTR 040530Z 11008KT 9999 BKN034 BKN045 05/05 Q1012
                        R11/290095=
201812040600 METAR LRTR 040600Z 11008KT 9999 OVC034 05/05 Q1012 R11/290095=
201812040630 METAR LRTR 040630Z 12008KT 9999 BKN034 OVC048 05/05 Q1013
                        R11/290095=
201812040700 METAR LRTR 040700Z 12010KT 9999 BKN035 OVC048 06/05 Q1013
                        R11/290095=
201812040730 METAR LRTR 040730Z 10007KT 9999 SCT034 OVC048 06/06 Q1013
                        R11/290095=
201812040800 METAR LRTR 040800Z 11009KT 9999 SCT034 OVC048 06/06 Q1013
                        R11/290095=
201812040830 METAR LRTR 040830Z 11008KT 9999 -RA FEW035 OVC048 07/06 Q1013
                        R11/290095=
201812040900 METAR LRTR 040900Z 12007KT 9999 -RA FEW036 BKN048 07/07 Q1013
                        R11/290095=
201812040930 METAR LRTR 040930Z 11008KT 9999 FEW036 07/07 Q1013 R11/290095=
201812041000 METAR LRTR 041000Z 12007KT 9999 SCT033 08/07 Q1013 R11/290095=
201812041030 METAR LRTR 041030Z 10007KT 9999 BKN033 08/07 Q1013 R11/290095=
201812041100 METAR LRTR 041100Z 10005KT 9999 BKN033 08/07 Q1013 R11/290095=
201812041130 METAR LRTR 041130Z 11002KT 9999 BKN033 08/07 Q1013 R11/290095=
201812041200 METAR LRTR 041200Z 10004KT 9999 OVC033 08/08 Q1013 R11/290095=
201812041230 METAR LRTR 041230Z VRB01KT 8000 -RA BKN022 OVC032 08/08 Q1013
                        R11/290095=
201812041300 METAR LRTR 041300Z VRB02KT 7000 -RA BKN023 OVC030 08/08 Q1013
                        R11/290095=
201812041330 METAR LRTR 041330Z 00000KT 5000 -RA BR OVC027 08/08 Q1013
                        R11/290095=
201812041400 METAR LRTR 041400Z VRB01KT 5000 BR OVC017 08/08 Q1014 R11/290095=
201812041430 METAR LRTR 041430Z 09001KT 3500 BR OVC015 07/07 Q1014 R11/290095=
201812041500 METAR LRTR 041500Z 00000KT 2000 -DZ BR FEW007 OVC010 07/07
                        Q1014 R11/290095=
201812041530 METAR LRTR 041530Z 00000KT 1000 R11/1800D R29/1700D DZ BR
                        BKN004 BKN012 OVC030 07/07 Q1014
                        R11/290095=
201812041600 METAR COR LRTR 041600Z 00000KT 1000 R11/2000D R29/1700D -DZRA
                        BR FEW003 BKN005 OVC030 07/07 Q1015
                        R11/290095=
201812041630 METAR LRTR 041630Z 00000KT 1000 R11/1700D R29/P2000 DZRA
                        BR SCT004 OVC035 07/07 Q1015 R11/290095=
201812041700 METAR LRTR 041700Z 00000KT 1600 RADZ SCT007 OVC039 07/07
                        Q1015 R11/290095=
201812041730 METAR LRTR 041730Z 00000KT 1100 R11/1400N R29/1600U -RA BR
                        FEW010 SCT035 07/07 Q1015 RERADZ
                        R11/290095=
201812041800 METAR LRTR 041800Z 00000KT 1700 -RA BR BKN033 07/07 Q1015
                        R11/290095=
201812041830 METAR LRTR 041830Z 26002KT 0900 R11/1000U R29/0900U FG OVC034
                        07/07 Q1016 R11/290095=
201812041900 METAR LRTR 041900Z 27003KT 0900 R11/1500U R29/1800U FG OVC031
                        07/07 Q1016 R11/290095=
201812041930 METAR LRTR 041930Z 27004KT 1700 BR OVC029 07/07 Q1016 R11/290095=
201812042000 METAR LRTR 042000Z 27005KT 2000 BR OVC029 07/07 Q1016 R11/290095=
201812042030 METAR LRTR 042030Z 27005KT 2000 BR OVC028 07/07 Q1017 R11/290095=
201812042100 METAR LRTR 042100Z 28005KT 2000 BR OVC028 07/07 Q1017 R11/290095=
201812042130 METAR LRTR 042130Z 29008KT 3000 BR OVC027 07/07 Q1017 R11/290095=
201812042200 METAR LRTR 042200Z 31009KT 4000 BR OVC025 07/07 Q1017 R11/290095=
201812042230 METAR LRTR 042230Z 30010KT 4000 BR SCT015 OVC025 07/07 Q1018
                        R11/290095=
201812042300 METAR LRTR 042300Z 30008KT 4000 BR BKN014 OVC025 07/07 Q1018
                        R11/290095=
201812042330 METAR LRTR 042330Z 31007KT 4500 BR OVC014 07/07 Q1018 R11/290095=
201812050000 METAR LRTR 050000Z 31009KT 5000 BR SCT007 OVC013 07/07 Q1018
                        R11/290095=
201812050030 METAR LRTR 050030Z 32011KT 4000 BR SCT004 OVC008 06/06 Q1019
                        R11/290095=
201812050100 METAR LRTR 050100Z 32009KT 3500 BR BKN003 OVC007 06/06 Q1019
                        R11/290095=
201812050130 METAR LRTR 050130Z 34011KT 5000 BR OVC007 06/06 Q1019 R11/290095=
201812050200 METAR LRTR 050200Z 34011KT 9000 FEW008 OVC027 06/06 Q1019
                        R11/290095=
201812050230 METAR LRTR 050230Z 34019KT 9999 FEW015 BKN033 06/05 Q1020
                        R11/290095=
201812050300 METAR LRTR 050300Z 33015KT 9999 BKN041 05/05 Q1020 R11/290095=
201812050330 METAR LRTR 050330Z 34015KT 9999 BKN048 05/04 Q1020 R11/290095=
201812050400 METAR LRTR 050400Z 34015KT CAVOK 05/04 Q1021 R11/190095=
201812050430 METAR LRTR 050430Z 34017KT CAVOK 05/04 Q1021 R11/190095=
201812050500 METAR LRTR 050500Z 33015KT CAVOK 05/04 Q1022 R11/190095=
201812050530 METAR LRTR 050530Z 33014KT CAVOK 05/04 Q1022 R11/190095=
201812050600 METAR LRTR 050600Z 32012KT 9999 FEW049 04/03 Q1023 R11/190095=
201812050630 METAR LRTR 050630Z 30009KT 9999 FEW049 04/04 Q1023 R11/190095=
201812050700 METAR LRTR 050700Z 30007KT CAVOK 04/04 Q1024 R11/190095=
201812050730 METAR LRTR 050730Z 30006KT CAVOK 05/04 Q1024 R11/190095=
201812050800 METAR LRTR 050800Z 31008KT CAVOK 05/04 Q1025 R11/190095=
201812050830 METAR LRTR 050830Z 33012KT CAVOK 06/03 Q1025 R11/190095=
201812050900 METAR LRTR 050900Z 35017KT CAVOK 06/02 Q1025 R11/190095=
201812050930 METAR LRTR 050930Z 35016KT 9999 FEW012 07/02 Q1025 R11/190095=
201812051000 METAR LRTR 051000Z 34016KT 9999 FEW026 07/01 Q1025 R11/190095=
201812051030 METAR LRTR 051030Z 34016KT 9999 FEW027 07/02 Q1025 R11/190095=
201812051100 METAR LRTR 051100Z 33015KT 9999 FEW030 07/01 Q1026 R11/190095=
201812051130 METAR LRTR 051130Z 34014KT 9999 FEW031 07/M00 Q1026 R11/CLRD//=
201812051200 METAR LRTR 051200Z 34013KT 9999 FEW032 07/M00 Q1026=
201812051230 METAR LRTR 051230Z 34013KT 9999 FEW033 07/M00 Q1026=
201812051300 METAR LRTR 051300Z 34013KT 9999 FEW033 07/M01 Q1026=
201812051330 METAR LRTR 051330Z 34012KT CAVOK 06/M01 Q1026=
201812051400 METAR LRTR 051400Z 35009KT CAVOK 06/M01 Q1026=
201812051430 METAR LRTR 051430Z 35008KT CAVOK 05/M02 Q1027=
201812051500 METAR LRTR 051500Z 34009KT CAVOK 04/M01 Q1027=
201812051530 METAR LRTR 051530Z 34005KT CAVOK 04/M01 Q1027=
201812051600 METAR LRTR 051600Z 33005KT CAVOK 01/M00 Q1027=
201812051630 METAR LRTR 051630Z 31002KT CAVOK 01/M01 Q1027=
201812051700 METAR LRTR 051700Z 31005KT 9999 FEW038 M00/M01 Q1028=
201812051730 METAR LRTR 051730Z 34003KT 9999 FEW040 00/M01 Q1028 NOSIG=
201812051800 METAR LRTR 051800Z 01006KT 9999 FEW045 01/M01 Q1028 NOSIG=
201812051830 METAR LRTR 051830Z 31003KT 280V340 CAVOK M01/M02 Q1028 NOSIG=
201812051900 METAR LRTR 051900Z 00000KT CAVOK M00/M01 Q1028 NOSIG=
201812051930 METAR LRTR 051930Z 25004KT CAVOK M01/M02 Q1028 NOSIG=
201812052000 METAR LRTR 052000Z 31003KT CAVOK M01/M02 Q1029 NOSIG=
201812052030 METAR LRTR 052030Z 30003KT CAVOK M01/M02 Q1029 NOSIG=
201812052100 METAR LRTR 052100Z 30005KT CAVOK M02/M02 Q1028 NOSIG=
201812052130 METAR LRTR 052130Z 31005KT CAVOK M02/M02 Q1028 NOSIG=
201812052200 METAR LRTR 052200Z 32005KT CAVOK M02/M02 Q1028 NOSIG=
201812052230 METAR LRTR 052230Z 32005KT 8000 NSC M02/M02 Q1029 BECMG 5000
                        BR=
201812052300 METAR LRTR 052300Z 35003KT 8000 NSC M02/M02 Q1028 BECMG 5000
                        BR=
201812052330 METAR LRTR 052330Z 31004KT 8000 NSC M03/M03 Q1028 NOSIG=
201812060000 METAR LRTR 060000Z 33003KT CAVOK M03/M03 Q1028 NOSIG=
201812060030 METAR LRTR 060030Z 00000KT CAVOK M04/M04 Q1028 NOSIG=
201812060100 METAR LRTR 060100Z VRB02KT CAVOK M04/M04 Q1028 NOSIG=
201812060130 METAR LRTR 060130Z 06002KT CAVOK M02/M03 Q1028 NOSIG=
201812060200 METAR LRTR 060200Z AUTO 33003KT 270V350 9999 NCD M03/M04
                        Q1028 NOSIG=
201812060230 METAR LRTR 060230Z 31004KT 280V340 CAVOK M04/M04 Q1028 NOSIG=
201812060300 METAR LRTR 060300Z 32005KT CAVOK M04/M04 Q1027 NOSIG=
201812060330 METAR LRTR 060330Z 33002KT CAVOK M05/M05 Q1027 NOSIG=
201812060400 METAR LRTR 060400Z 08004KT CAVOK M04/M04 Q1027 NOSIG=
201812060430 METAR LRTR 060430Z 08006KT CAVOK M05/M05 Q1027 NOSIG=
201812060500 METAR LRTR 060500Z 11006KT CAVOK M07/M07 Q1027=
201812060530 METAR LRTR 060530Z 12005KT CAVOK M07/M06 Q1027=
201812060600 METAR LRTR 060600Z 12004KT CAVOK M06/M06 Q1027=
201812060630 METAR LRTR 060630Z 09005KT CAVOK M06/M06 Q1027=
201812060700 METAR LRTR 060700Z 11004KT CAVOK M05/M05 Q1027=
201812060730 METAR LRTR 060730Z 10003KT CAVOK M04/M04 Q1027=
201812060800 METAR LRTR 060800Z 11005KT CAVOK M02/M03 Q1027=
201812060830 METAR LRTR 060830Z 09003KT CAVOK M01/M02 Q1027=
201812060900 METAR LRTR 060900Z VRB02KT CAVOK M00/M01 Q1027=
201812060930 METAR LRTR 060930Z VRB01KT CAVOK 01/M01 Q1027=
201812061000 METAR LRTR 061000Z VRB01KT CAVOK 01/M02 Q1027=
201812061030 METAR LRTR 061030Z VRB02KT CAVOK 02/M01 Q1027=
201812061100 METAR LRTR 061100Z VRB02KT CAVOK 03/M01 Q1026=
201812061130 METAR LRTR 061130Z VRB02KT CAVOK 04/M02 Q1026=
201812061200 METAR LRTR 061200Z 02003KT 330V060 CAVOK 04/M03 Q1026=
201812061230 METAR LRTR 061230Z 03003KT 360V080 CAVOK 04/M03 Q1026=
201812061300 METAR COR LRTR 061300Z VRB02KT CAVOK 04/M05 Q1026=
201812061330 METAR LRTR 061330Z VRB02KT CAVOK 04/M04 Q1025=
201812061400 METAR LRTR 061400Z 02004KT CAVOK 03/M03 Q1025=
201812061430 METAR LRTR 061430Z 02004KT CAVOK 02/M02 Q1026=
201812061500 METAR COR LRTR 061500Z 02005KT CAVOK 00/M02 Q1026=
201812061530 METAR LRTR 061530Z 01005KT CAVOK M00/M02 Q1026=
201812061600 METAR LRTR 061600Z 04004KT CAVOK M01/M03 Q1026=
201812061630 METAR LRTR 061630Z 07004KT CAVOK M01/M03 Q1025=
201812061700 METAR LRTR 061700Z 06004KT CAVOK M02/M03 Q1025=
201812061730 METAR LRTR 061730Z 05003KT CAVOK M02/M03 Q1026=
201812061800 METAR LRTR 061800Z 08003KT CAVOK M02/M04 Q1026=
201812061830 METAR LRTR 061830Z 36001KT CAVOK M02/M04 Q1026=
201812061900 METAR LRTR 061900Z 00000KT CAVOK M03/M04 Q1026=
201812061930 METAR LRTR 061930Z 00000KT CAVOK M03/M04 Q1026=
201812062000 METAR LRTR 062000Z 09002KT CAVOK M04/M04 Q1026=
201812062030 METAR LRTR 062030Z 02003KT CAVOK M04/M04 Q1026=
201812062100 METAR LRTR 062100Z 09004KT CAVOK M04/M04 Q1026=
201812062130 METAR LRTR 062130Z 10005KT CAVOK M05/M05 Q1026=
201812062200 METAR LRTR 062200Z 10005KT CAVOK M05/M05 Q1026=
201812062230 METAR LRTR 062230Z 08004KT CAVOK M06/M06 Q1026=
201812062300 METAR LRTR 062300Z 09004KT CAVOK M06/M06 Q1026=
201812062330 METAR LRTR 062330Z 11005KT CAVOK M06/M06 Q1026=
201812070000 METAR LRTR 070000Z 10005KT CAVOK M06/M06 Q1025=
201812070030 METAR LRTR 070030Z 11005KT CAVOK M05/M05 Q1025=
201812070100 METAR LRTR 070100Z 10005KT CAVOK M04/M04 Q1025=
201812070130 METAR LRTR 070130Z 10004KT CAVOK M04/M04 Q1026=
201812070200 METAR LRTR 070200Z 12005KT CAVOK M03/M03 Q1025=
201812070230 METAR COR LRTR 070230Z 12005KT CAVOK M03/M03 Q1025=
201812070300 METAR LRTR 070300Z 14005KT CAVOK M03/M03 Q1025=
201812070330 METAR LRTR 070330Z 10004KT CAVOK M03/M03 Q1025=
201812070400 METAR LRTR 070400Z 10004KT CAVOK M03/M03 Q1025=
201812070430 METAR LRTR 070430Z 11005KT CAVOK M03/M03 Q1025=
201812070500 METAR LRTR 070500Z 13004KT 9999 SCT047 M03/M03 Q1025=
201812070530 METAR LRTR 070530Z 11005KT 9999 BKN045 M03/M03 Q1024=
201812070600 METAR LRTR 070600Z 11004KT 9999 BKN045 M02/M02 Q1024=
201812070630 METAR LRTR 070630Z 12005KT 9999 BKN045 M02/M02 Q1024=
201812070700 METAR LRTR 070700Z 12006KT 9999 BKN043 M02/M02 Q1024=
201812070730 METAR LRTR 070730Z 11005KT 9999 BKN042 M02/M02 Q1024=
201812070800 METAR LRTR 070800Z 15006KT 9999 BKN040 M01/M02 Q1024=
201812070830 METAR LRTR 070830Z 16005KT 9999 FEW035 BKN041 M01/M01 Q1023=
201812070900 METAR LRTR 070900Z 15005KT 9999 FEW035 BKN042 M00/M01 Q1023=
201812070930 METAR LRTR 070930Z 16006KT 9999 SCT034 BKN048 M00/M01 Q1023=
201812071000 METAR LRTR 071000Z 17006KT 9999 SCT033 BKN048 01/M01 Q1023=
201812071030 METAR LRTR 071030Z 17007KT 9999 SCT030 BKN045 01/M01 Q1022=
201812071100 METAR LRTR 071100Z 15005KT 120V180 9999 SCT031 BKN045 01/M01
                        Q1022=
201812071130 METAR LRTR 071130Z 16006KT 9999 SCT033 BKN047 02/M01 Q1022=
201812071200 METAR LRTR 071200Z 14008KT 9999 SCT032 BKN047 02/M01 Q1021=
201812071230 METAR LRTR 071230Z 15008KT 9999 SCT038 SCT048 03/M01 Q1021=
201812071300 METAR LRTR 071300Z 15009KT 9999 BKN038 03/M01 Q1020=
201812071330 METAR LRTR 071330Z 15008KT 9999 FEW029 SCT037 03/M01 Q1020=
201812071400 METAR LRTR 071400Z 12009KT 9999 FEW030 SCT040 02/00 Q1020=
201812071430 METAR LRTR 071430Z 11007KT 9999 FEW033 SCT042 02/00 Q1020=
201812071500 METAR LRTR 071500Z 12008KT 9999 SCT034 SCT048 02/M00 Q1020=
201812071530 METAR LRTR 071530Z 11009KT 9999 SCT036 SCT046 02/M00 Q1019=
201812071600 METAR LRTR 071600Z 11007KT 9999 SCT045 02/M00 Q1019=
201812071630 METAR LRTR 071630Z 13007KT 9999 SCT045 02/M00 Q1019=
201812071700 METAR LRTR 071700Z 11005KT 9999 SCT048 02/M01 Q1018=
201812071730 METAR COR LRTR 071730Z 12008KT 9999 FEW048 02/M01 Q1018=
201812071800 METAR LRTR 071800Z 12010KT CAVOK 02/M00 Q1018=
201812071830 METAR LRTR 071830Z 12009KT CAVOK 02/M00 Q1017=
201812071900 METAR LRTR 071900Z 12009KT CAVOK 02/M01 Q1017=
201812071930 METAR LRTR 071930Z 11010KT CAVOK 02/M01 Q1016=
201812072000 METAR LRTR 072000Z 12011KT CAVOK 02/M01 Q1016=
201812072030 METAR LRTR 072030Z 12010KT CAVOK 02/M01 Q1015=
201812072100 METAR LRTR 072100Z 12010KT CAVOK 01/M01 Q1015=
201812072130 METAR LRTR 072130Z 12009KT CAVOK 01/M01 Q1014=
201812072200 METAR LRTR 072200Z 12009KT CAVOK 00/M01 Q1014=
201812072230 METAR LRTR 072230Z 12008KT CAVOK 00/M01 Q1013=
201812072300 METAR LRTR 072300Z 11008KT CAVOK 01/M01 Q1013=
201812072330 METAR LRTR 072330Z 11008KT CAVOK 00/M01 Q1012=
201812080000 METAR LRTR 080000Z 12009KT CAVOK 01/M01 Q1012=
201812080030 METAR LRTR 080030Z 11009KT CAVOK 01/M01 Q1012=
201812080100 METAR LRTR 080100Z 11009KT CAVOK 01/M00 Q1011=
201812080130 METAR LRTR 080130Z 12010KT CAVOK 01/M00 Q1011=
201812080200 METAR LRTR 080200Z 13009KT CAVOK 02/M00 Q1011=
201812080230 METAR COR LRTR 080230Z 13009KT CAVOK 02/M00 Q1011=
201812080300 METAR LRTR 080300Z 14006KT CAVOK 02/M00 Q1011=
201812080330 METAR LRTR 080330Z 13006KT CAVOK 02/M00 Q1011=
201812080400 METAR LRTR 080400Z VRB02KT CAVOK 02/M00 Q1011=
201812080430 METAR LRTR 080430Z 10006KT CAVOK 01/M00 Q1011=
201812080500 METAR LRTR 080500Z 13005KT CAVOK 02/00 Q1010 NOSIG=
201812080530 METAR LRTR 080530Z 13007KT CAVOK 03/M01 Q1010 NOSIG=
201812080600 METAR LRTR 080600Z 12009KT 9999 BKN048 03/M00 Q1010 TEMPO
                        RA=
201812080630 METAR LRTR 080630Z 12006KT 9999 -RA BKN048 02/01 Q1011 NOSIG=
201812080700 METAR LRTR 080700Z 13007KT 9999 -RA BKN048 03/01 Q1010 NOSIG=
201812080730 METAR LRTR 080730Z 12008KT 9999 -RA NSC 02/02 Q1010 R11/290095
                        NOSIG=
201812080800 METAR LRTR 080800Z 12007KT 9999 OVC047 02/02 Q1010 R11/290095
                        TEMPO RA=
201812080830 METAR LRTR 080830Z 05003KT 020V130 8000 -RA OVC043 03/02
                        Q1011 R11/290095 NOSIG=
201812080900 METAR LRTR 080900Z 12005KT 8000 -RA OVC043 03/03 Q1011 R11/290095
                        NOSIG=
201812080930 METAR LRTR 080930Z 11005KT 9999 -RA BKN025 OVC040 03/03 Q1010
                        R11/290095 NOSIG=
201812081000 METAR LRTR 081000Z 00000KT 9999 -RA BKN032 04/03 Q1010 R11/290095
                        NOSIG=
201812081030 METAR LRTR 081030Z 16003KT 9999 -RA BKN028 OVC045 04/03 Q1010
                        R11/290095 NOSIG=
201812081100 METAR LRTR 081100Z 16004KT 9999 -RA BKN030 04/04 Q1010 R11/290095
                        NOSIG=
201812081130 METAR LRTR 081130Z 19004KT 7000 -RA BKN015 OVC030 04/04 Q1010
                        R11/290095 BECMG 5000 BR BKN010 OVC030=
201812081200 METAR LRTR 081200Z 19005KT 6000 -RA OVC013 04/04 Q1010 R11/290095
                        TEMPO 5000 BR=
201812081230 METAR LRTR 081230Z 22004KT 190V260 5000 -RA BR BKN013 OVC040
                        04/04 Q1010 R11/290095 NOSIG=
201812081300 METAR LRTR 081300Z VRB02KT 5000 BR BKN013 04/04 Q1010 R11/290095
                        NOSIG=
201812081330 METAR LRTR 081330Z 23003KT 170V260 6000 BKN012 05/05 Q1010
                        R11/290095 TEMPO 5000 BR=
201812081400 METAR LRTR 081400Z 28007KT 5000 BR FEW005 OVC012 05/05 Q1010
                        R11/290095 TEMPO 3000 BR OVC005=
201812081430 METAR LRTR 081430Z 30005KT 3500 BR OVC005 05/05 Q1011 R11/290095
                        BECMG 3000 BR=
201812081500 METAR LRTR 081500Z 29004KT 3000 BR OVC005 05/05 Q1011 R11/290095
                        BECMG 1500 BR=
201812081530 METAR LRTR 081530Z 32007KT 2500 BR OVC005 05/05 Q1011 R11/290095
                        TEMPO 1500 BR=
201812081600 METAR LRTR 081600Z 33007KT 3000 BR BKN008 OVC027 05/05 Q1011
                        R11/290095 TEMPO 1500 BR=
201812081630 METAR LRTR 081630Z 33005KT 3000 BR BKN010 BKN036 05/05 Q1011
                        R11/290095 NOSIG=
201812081700 METAR LRTR 081700Z 30004KT 3000 BR SCT010 04/04 Q1012 R11/290095
                        NOSIG=
201812081730 METAR LRTR 081730Z 29004KT 3000 BR SCT008 04/04 Q1012 R11/290095
                        NOSIG=
201812081800 METAR LRTR 081800Z 30004KT 3000 BR FEW008 04/04 Q1013 R11/290095
                        NOSIG=
201812081830 METAR LRTR 081830Z 30006KT 3000 BR FEW048 04/04 Q1013 R11/290095
                        NOSIG=
201812081900 METAR LRTR 081900Z 30004KT 2500 BR FEW048 03/03 Q1013 R11/290095
                        TEMPO 1500 BR=
201812081930 METAR LRTR 081930Z 30005KT 2000 BR FEW040 03/03 Q1013 R11/290095
                        TEMPO 1500 BR=
201812082000 METAR LRTR 082000Z 28004KT 1500 BR FEW040 02/02 Q1013 R11/190095
                        TEMPO 0800 FG=
201812082030 METAR LRTR 082030Z 27003KT 1000 R11/P2000 R29/1900D BR NSC
                        02/02 Q1013 R11/190095 TEMPO 0800
                        FG=
201812082100 METAR LRTR 082100Z 27002KT 0800 R11/1000D R29/0450N FG NSC
                        02/02 Q1013 R11/190095 BECMG 0350
                        FG=
201812082130 METAR LRTR 082130Z 00000KT 0200 R11/0250N R29/0250N FG BKN003
                        00/00 Q1013 R11/190095 BECMG 0150
                        FZFG=
201812082200 METAR LRTR 082200Z 16003KT 0200 R11/0225N R29/0325N FZFG
                        FEW001 SCT003 BKN004 M00/M00 Q1013
                        R11/190095 NOSIG=
201812082230 METAR LRTR 082230Z VRB02KT 0150 R11/0300N R29/0250N FZFG
                        BKN002 BKN004 M02/M02 Q1013 R11/190095
                        NOSIG=
201812082300 METAR LRTR 082300Z VRB01KT 0150 R11/0275N R29/0400N FZFG
                        FEW001 BKN002 BKN004 M01/M01 Q1013
                        R11/190095 NOSIG=
201812082330 METAR LRTR 082330Z VRB02KT 0100 R11/0250N R29/0225N FZFG
                        SCT001 BKN002 OVC009 M02/M02 Q1013
                        R11/190095 NOSIG=
201812090000 METAR LRTR 090000Z VRB02KT 0100 R11/0225N R29/0250N FZFG
                        SCT001 BKN002 M02/M02 Q1013 R11/190095
                        NOSIG=
201812090030 METAR LRTR 090030Z 09002KT 0100 R11/0250N R29/0275N FZFZ
                        VV001 M01/M01 Q1013 R11/190095 NOSIG=
201812090100 METAR LRTR 090100Z 07002KT 0100 R11/0225N R29/0200N FZFG
                        VV001 M01/M01 Q1013 R11/190095 NOSIG=
201812090130 METAR LRTR 090130Z 11004KT 0100 R11/0325N R29/0250N FZFG
                        VV001 M01/M01 Q1013 R11/190095 NOSIG=
201812090200 METAR LRTR 090200Z 10003KT 0150 R11/0375N R29/0275N FZFG
                        VV001 M01/M01 Q1013 R11/190095 NOSIG=
201812090230 METAR LRTR 090230Z 11003KT 0150 R11/0325N R29/0350N FZFG
                        VV001 M02/M02 Q1013 R11/190095 NOSIG=
201812090300 METAR LRTR 090300Z 10005KT 0200 R11/0450N R29/0450N FZFG
                        VV001 M02/M02 Q1012 R11/190095 NOSIG=
201812090330 METAR LRTR 090330Z 11006KT 0200 R11/0450N R29/0400N FZFG
                        VV001 M02/M02 Q1013 R11/190095 NOSIG=
201812090400 METAR LRTR 090400Z 13008KT 0200 R11/0450N R29/0450N FZFG
                        VV001 M01/M01 Q1012 R11/190095 NOSIG=
201812090430 METAR LRTR 090430Z 13006KT 0200 R11/0450N R29/0450N FZFG
                        VV001 M01/M01 Q1012 R11/190095 NOSIG=
201812090500 METAR LRTR 090500Z 13007KT 0250 R11/0550N R29/0550N FZFG
                        VV001 M01/M01 Q1012 R11/190095 TEMPO
                        0350 FZFG=
201812090530 METAR COR LRTR 090530Z 10004KT 060V140 0200 R11/0500N R29/0500N=
201812090600 METAR LRTR 090600Z 14005KT 0200 R11/0450N R29/0350N FZFG
                        VV001 M01/M01 Q1012 R11/190095=
201812090630 METAR LRTR 090630Z 14005KT 0200 R11/0325N R29/0325N FZFG
                        VV001 M01/M01 Q1012 R11/190095=
201812090700 METAR LRTR 090700Z 16005KT 0200 R11/0400N R29/0325N FZFG
                        VV001 M00/M00 Q1012 R11/190095=
201812090730 METAR LRTR 090730Z 12004KT 0150 R11/0225N R29/0225N FZFG
                        VV001 M00/M00 Q1011 R11/190095=
201812090800 METAR LRTR 090800Z 15004KT 0150 R11/0225N R29/0200N FZFG
                        VV001 M00/M00 Q1011 R11/190095=
201812090830 METAR LRTR 090830Z 14006KT 0150 R11/0250N R29/0225N FG VV001
                        00/00 Q1011 R11/190095=
201812090900 METAR LRTR 090900Z 13007KT 0200 R11/0300N R29/0250N FG VV001
                        01/01 Q1010 R11/190095=
201812090930 METAR LRTR 090930Z 14009KT 0300 R11/0375N R29/0400N FG VV002
                        02/02 Q1009 R11/190095=
201812091000 METAR LRTR 091000Z 14009KT 0600 R11/0900U R29/P2000 FG BKN001
                        OVC002 03/03 Q1009 R11/190095=
201812091030 METAR LRTR 091030Z 12007KT 2000 BR BKN001 BKN003 04/04 Q1008
                        R11/190095=
201812091100 METAR LRTR 091100Z 12007KT 4000 BR SCT003 SCT006 06/06 Q1007
                        R11/190095=
201812091130 METAR LRTR 091130Z 17011KT 9999 FEW007 08/08 Q1007 R11/190095=
201812091200 METAR LRTR 091200Z 17013KT 9999 FEW007 08/05 Q1007 R11/190095=
201812091230 METAR LRTR 091230Z 18012KT CAVOK 08/05 Q1006 R11/190095=
201812091300 METAR LRTR 091300Z 17009KT CAVOK 08/05 Q1006 R11/190095=
201812091330 METAR LRTR 091330Z 16007KT CAVOK 08/04 Q1006 R11/190095=
201812091400 METAR LRTR 091400Z 16007KT CAVOK 08/04 Q1006 R11/CLRD//=
201812091430 METAR LRTR 091430Z 13007KT CAVOK 06/04 Q1005=
201812091500 METAR LRTR 091500Z 13004KT CAVOK 05/04 Q1005=
201812091530 METAR LRTR 091530Z 10002KT CAVOK 04/04 Q1006=
201812091600 METAR LRTR 091600Z 17002KT CAVOK 05/04 Q1006=
201812091630 METAR LRTR 091630Z 10004KT CAVOK 04/04 Q1005=
201812091700 METAR LRTR 091700Z 13008KT CAVOK 04/04 Q1005 NOSIG=
201812091730 METAR LRTR 091730Z 09005KT CAVOK 04/03 Q1005 NOSIG=
201812091800 METAR LRTR 091800Z 11006KT CAVOK 03/02 Q1005 NOSIG=
201812091830 METAR LRTR 091830Z 11006KT CAVOK 03/03 Q1005 NOSIG=
201812091900 METAR LRTR 091900Z 11005KT CAVOK 03/03 Q1005 NOSIG=
201812091930 METAR LRTR 091930Z 10003KT CAVOK 03/03 Q1006 NOSIG=
201812092000 METAR LRTR 092000Z 13004KT CAVOK 03/03 Q1006 NOSIG=
201812092030 METAR LRTR 092030Z 14005KT CAVOK 03/03 Q1006 NOSIG=
201812092100 METAR LRTR 092100Z 12004KT CAVOK 03/03 Q1006 NOSIG=
201812092130 METAR LRTR 092130Z 14004KT CAVOK 04/03 Q1006 NOSIG=
201812092200 METAR LRTR 092200Z 14002KT CAVOK 04/03 Q1006 NOSIG=
201812092230 METAR LRTR 092230Z 13004KT CAVOK 02/02 Q1007 NOSIG=
201812092300 METAR LRTR 092300Z 12003KT 8000 SCT048 03/03 Q1007 NOSIG=
201812092330 METAR LRTR 092330Z 14002KT 8000 SCT048 03/03 Q1006 NOSIG=
201812100000 METAR LRTR 100000Z 14003KT CAVOK 02/02 Q1006 NOSIG=
201812100030 METAR LRTR 100030Z VRB01KT 8000 NSC 02/02 Q1006 NOSIG=
201812100100 METAR LRTR 100100Z 11002KT 7000 NSC 02/02 Q1007 NOSIG=
201812100130 METAR LRTR 100130Z VRB01KT 6000 NSC 02/02 Q1007 BECMG 5000
                        BR=
201812100200 METAR LRTR 100200Z 07003KT 5000 BR NSC 01/01 Q1007 NOSIG=
201812100230 METAR LRTR 100230Z 08003KT 5000 BR NSC 01/01 Q1007 NOSIG=
201812100300 METAR LRTR 100300Z 11003KT 5000 BR NSC 02/02 Q1007 NOSIG=
201812100330 METAR LRTR 100330Z 11003KT 5000 BR NSC 02/02 Q1007 NOSIG=
201812100400 METAR LRTR 100400Z 11003KT 5000 BR NSC 02/02 Q1007 NOSIG=
201812100430 METAR LRTR 100430Z 00000KT 5000 BR BKN040 02/02 Q1007 NOSIG=
201812100500 METAR LRTR 100500Z 36002KT 5000 -RA BR BKN030 03/03 Q1007
                        NOSIG=
201812100530 METAR LRTR 100530Z VRB01KT 6000 -RA BKN034 03/03 Q1008 R11/290095=
201812100600 METAR LRTR 100600Z 17004KT 5000 -RA BR SCT034 BKN049 02/02
                        Q1008 R11/290095=
201812100630 METAR LRTR 100630Z 24002KT 8000 MIFG BKN034 04/04 Q1008 R11/290095=
201812100700 METAR LRTR 100700Z 27003KT 9999 MIFG SCT036 BKN040 04/04
                        Q1008 R11/290095=
201812100730 METAR LRTR 100730Z 25003KT 9999 SCT040 04/04 Q1009 R11/290095=
201812100800 METAR LRTR 100800Z 27005KT 9999 FEW040 06/05 Q1009 R11/290095=
201812100830 METAR LRTR 100830Z 28009KT 9999 FEW045 07/06 Q1009 R11/290095=
201812100900 METAR LRTR 100900Z 29011KT 9999 FEW020 08/05 Q1009 R11/290095=
201812100930 METAR LRTR 100930Z 29012KT 9999 FEW020 08/05 Q1009 R11/290095=
201812101000 METAR LRTR 101000Z 31012KT 9999 SCT023 08/04 Q1009 R11/190095=
201812101030 METAR LRTR 101030Z 31013KT 9999 BKN027 08/04 Q1009 R11/190095=
201812101100 METAR LRTR 101100Z 31012KT 9999 BKN027 08/03 Q1009 R11/190095=
201812101130 METAR LRTR 101130Z 31012KT 9999 BKN030 08/04 Q1009 R11/CLRD//=
201812101200 METAR LRTR 101200Z 31013KT 9999 BKN031 08/03 Q1010=
201812101230 METAR LRTR 101230Z 31013KT 9999 SCT033 08/02 Q1010=
201812101300 METAR LRTR 101300Z 30012KT 9999 BKN033 08/02 Q1010=
201812101330 METAR LRTR 101330Z 30010KT 9999 BKN040 07/03 Q1010=
201812101400 METAR LRTR 101400Z 30011KT 9999 BKN043 07/02 Q1011=
201812101430 METAR LRTR 101430Z 30012KT 9999 BKN048 07/01 Q1011=
201812101500 METAR LRTR 101500Z 30010KT 9999 BKN048 06/02 Q1011=
201812101530 METAR LRTR 101530Z 30009KT 9999 BKN044 06/02 Q1011=
201812101600 METAR LRTR 101600Z 29007KT 9999 BKN043 05/02 Q1011=
201812101630 METAR LRTR 101630Z 28006KT 9999 BKN044 04/02 Q1011=
201812101700 METAR LRTR 101700Z 28006KT 9999 BKN049 03/01 Q1012=
201812101730 METAR LRTR 101730Z 28007KT CAVOK 02/01 Q1012=
201812101800 METAR LRTR 101800Z 29007KT CAVOK 02/01 Q1012=
201812101830 METAR LRTR 101830Z 30006KT CAVOK 03/02 Q1012=
201812101900 METAR LRTR 101900Z 30005KT CAVOK 02/01 Q1012=
201812101930 METAR LRTR 101930Z 29006KT CAVOK 02/01 Q1012=
201812102000 METAR LRTR 102000Z VRB02KT CAVOK M00/M00 Q1012=
201812102030 METAR LRTR 102030Z 26004KT 230V290 CAVOK M00/M00 Q1013=
201812102100 METAR LRTR 102100Z 28005KT CAVOK M01/M01 Q1013=
201812102130 METAR LRTR 102130Z 28005KT CAVOK M02/M02 Q1013=
201812102200 METAR LRTR 102200Z 27006KT CAVOK M02/M02 Q1013=
201812102230 METAR LRTR 102230Z VRB01KT CAVOK M02/M02 Q1013=
201812102300 METAR LRTR 102300Z 27006KT CAVOK M02/M02 Q1013=
201812102330 METAR LRTR 102330Z 27005KT CAVOK M02/M02 Q1013=
201812110000 METAR COR LRTR 110000Z 00000KT 7000 3000E BCFG NSC M02/M02
                        Q1013=
201812110030 METAR LRTR 110030Z 30002KT 9000 4000E BCFG NSC M02/M02 Q1013=
201812110100 METAR LRTR 110100Z 29004KT CAVOK M02/M02 Q1013=
201812110130 METAR LRTR 110130Z 27006KT CAVOK M03/M03 Q1013=
201812110200 METAR LRTR 110200Z 28008KT CAVOK M03/M03 Q1013=
201812110230 METAR LRTR 110230Z 29008KT CAVOK M03/M03 Q1013=
201812110300 METAR LRTR 110300Z 29008KT CAVOK M03/M03 Q1013=
201812110330 METAR LRTR 110330Z 29007KT CAVOK M03/M03 Q1013=
201812110400 METAR LRTR 110400Z 29006KT CAVOK M03/M03 Q1013=
201812110430 METAR LRTR 110430Z 05003KT 360V080 CAVOK M04/M04 Q1014=
201812110500 METAR LRTR 110500Z 00000KT CAVOK M03/M03 Q1014=
201812110530 METAR LRTR 110530Z 13005KT CAVOK M06/M06 Q1014 NOSIG=
201812110600 METAR LRTR 110600Z 16004KT CAVOK M04/M04 Q1015 NOSIG=
201812110630 METAR LRTR 110630Z VRB01KT CAVOK M05/M05 Q1015 NOSIG=
201812110700 METAR LRTR 110700Z 00000KT CAVOK M04/M04 Q1015 NOSIG=
201812110730 METAR LRTR 110730Z 20003KT CAVOK M02/M02 Q1015 NOSIG=
201812110800 METAR LRTR 110800Z VRB02KT 8000 NSC M00/M00 Q1015 NOSIG=
201812110830 METAR LRTR 110830Z VRB01KT 8000 FEW003 01/M00 Q1015 NOSIG=
201812110900 METAR LRTR 110900Z 22003KT 180V250 9999 FEW006 02/00 Q1016
                        NOSIG=
201812110930 METAR LRTR 110930Z VRB03KT 9999 FEW010 02/00 Q1015 NOSIG=
201812111000 METAR LRTR 111000Z 27005KT 240V300 9999 FEW011 02/M00 Q1015
                        NOSIG=
201812111030 METAR LRTR 111030Z 28006KT 250V310 9999 FEW013 03/00 Q1015
                        NOSIG=
201812111100 METAR LRTR 111100Z 28006KT 240V300 9999 FEW015 03/01 Q1015
                        NOSIG=
201812111130 METAR LRTR 111130Z 27004KT 240V300 9999 FEW018 04/01 Q1015
                        NOSIG=
201812111200 METAR LRTR 111200Z 28005KT 260V330 9999 FEW019 05/00 Q1015
                        NOSIG=
201812111230 METAR LRTR 111230Z 28007KT 9999 FEW019 04/00 Q1015 NOSIG=
201812111300 METAR LRTR 111300Z 25006KT 9999 FEW020 SCT037 04/00 Q1015
                        NOSIG=
201812111330 METAR LRTR 111330Z 25003KT 190V320 9999 FEW022 BKN040 04/00
                        Q1015 NOSIG=
201812111400 METAR LRTR 111400Z 23003KT 200V260 9999 FEW025 SCT035 04/00
                        Q1016 NOSIG=
201812111430 METAR LRTR 111430Z 23004KT 9999 SCT025 BKN035 04/01 Q1016
                        NOSIG=
201812111500 METAR LRTR 111500Z 21004KT 9999 FEW025 BKN033 04/01 Q1016
                        NOSIG=
201812111530 METAR LRTR 111530Z 26007KT 220V300 9999 -RA SCT020 BKN030
                        03/02 Q1016 NOSIG=
201812111600 METAR LRTR 111600Z 29004KT 9999 -RASN FEW013 BKN023 BKN035
                        02/02 Q1016 R11/190095 NOSIG=
201812111630 METAR LRTR 111630Z 30004KT 9999 FEW013 SCT025 BKN040 01/01
                        Q1016 R11/190095 NOSIG=
201812111700 METAR LRTR 111700Z 28004KT 9999 FEW007 SCT020 BKN038 01/01
                        Q1016 R11/190095 NOSIG=
201812111730 METAR LRTR 111730Z 28006KT 9999 SCT007 BKN038 02/02 Q1017
                        R11/190095=
201812111800 METAR LRTR 111800Z 27004KT 9999 -RA SCT007 BKN019 02/02 Q1017
                        R11/190095=
201812111830 METAR LRTR 111830Z 25003KT 9999 -RASN FEW007 SCT016 BKN025
                        02/02 Q1017 R11/190095=
201812111900 METAR LRTR 111900Z 23002KT 9999 FEW007 BKN024 02/02 Q1017
                        R11/190095=
201812111930 METAR LRTR 111930Z 21003KT 9999 SCT022 BKN042 02/02 Q1017
                        R11/190095=
201812112000 METAR COR LRTR 112000Z 20003KT 9999 -RASN FEW020 SCT037 BKN047
                        02/02 Q1016 R11/190095=
201812112030 METAR LRTR 112030Z 24005KT 9999 -RASN FEW010 SCT023 BKN039
                        02/02 Q1016 R11/190095=
201812112100 METAR LRTR 112100Z 24006KT 9999 -RASN SCT010 BKN022 02/02
                        Q1016 R11/190095=
201812112130 METAR LRTR 112130Z 24007KT 8000 -SN SCT006 BKN014 OVC030
                        01/01 Q1016 R11/190095=
201812112200 METAR LRTR 112200Z 24007KT 8000 -SN SCT006 BKN014 OVC030
                        01/01 Q1016 R11/190095=
201812112230 METAR LRTR 112230Z 22003KT 6000 -SN SCT004 BKN013 OVC025
                        01/01 Q1016 R11/190095=
201812112300 METAR LRTR 112300Z 23003KT 9999 -SN BKN010 OVC030 01/01 Q1016
                        R11/190095=
201812112330 METAR LRTR 112330Z 24005KT 220V280 9999 -SN BKN010 OVC030
                        02/02 Q1016 R11/190095=
201812120000 METAR LRTR 120000Z 25008KT 8000 -RA BKN010 OVC020 02/02 Q1016
                        R11/190095=
201812120030 METAR LRTR 120030Z 25008KT 9999 -RA BKN007 OVC017 02/02 Q1016
                        R11/190095=
201812120100 METAR LRTR 120100Z 25008KT 9999 -RA BKN007 OVC020 02/02 Q1016
                        R11/190095=
201812120130 METAR LRTR 120130Z 25007KT 8000 -SN BKN010 OVC018 02/02 Q1016
                        R11/190095=
201812120200 METAR LRTR 120200Z 24007KT 9999 -RA FEW005 BKN014 OVC024
                        02/02 Q1016 R11/190095=
201812120230 METAR LRTR 120230Z 22008KT 9999 -RASN FEW007 BKN018 OVC024
                        02/02 Q1016 R11/190095=
201812120300 METAR COR LRTR 120300Z 21008KT 8000 -RASN BKN008 OVC024 02/02
                        Q1016 R11/190095=
201812120330 METAR LRTR 120330Z 22009KT 8000 -RASN BKN009 OVC024 02/02
                        Q1016 R11/290095=
201812120400 METAR LRTR 120400Z 23009KT 9000 -RASN BKN007 OVC020 02/02
                        Q1016 R11/290095=
201812120430 METAR LRTR 120430Z 23008KT 9999 -SN SCT005 BKN012 OVC020
                        02/02 Q1016 R11/290095=
201812120500 METAR LRTR 120500Z 25006KT 8000 -RASN SCT005 OVC012 02/02
                        Q1016 R11/290095=
201812120530 METAR LRTR 120530Z 25007KT 9999 -RA SCT008 OVC015 02/02 Q1016
                        R11/290095 NOSIG=
201812120600 METAR LRTR 120600Z 24007KT 9999 -RA FEW018 BKN025 OVC043
                        02/02 Q1016 R11/290095 NOSIG=
201812120630 METAR LRTR 120630Z 26007KT 9999 FEW020 BKN025 02/02 Q1016
                        R11/290095 NOSIG=
201812120700 METAR LRTR 120700Z 27008KT 9999 BKN026 02/02 Q1016 R11/290095
                        NOSIG=
201812120730 METAR LRTR 120730Z 27007KT 9999 FEW018 BKN023 02/02 Q1016
                        R11/290095 NOSIG=
201812120800 METAR LRTR 120800Z 27008KT 9999 FEW018 BKN025 03/03 Q1017
                        R11/290095 NOSIG=
201812120830 METAR LRTR 120830Z 27009KT 9999 FEW018 BKN027 03/02 Q1017
                        R11/290095 NOSIG=
201812120900 METAR LRTR 120900Z 27008KT 9999 SCT010 BKN028 03/02 Q1017
                        R11/290095 TEMPO BKN010 BKN028=
201812120930 METAR LRTR 120930Z 29009KT 9999 BKN010 BKN033 03/02 Q1017
                        R11/290095 NOSIG=
201812121000 METAR LRTR 121000Z 28008KT 9999 -RASN SCT012 BKN035 03/02
                        Q1017 R11/290095 NOSIG=
201812121030 METAR LRTR 121030Z 28008KT 9999 BKN012 OVC030 03/02 Q1017
                        R11/290095 NOSIG=
201812121100 METAR LRTR 121100Z 28009KT 9999 SCT014 BKN020 03/02 Q1017
                        R11/290095 NOSIG=
201812121130 METAR LRTR 121130Z 27011KT 9999 SCT019 SCT025 03/01 Q1017
                        R11/290095 NOSIG=
201812121200 METAR LRTR 121200Z 26010KT 9999 BKN021 03/01 Q1017 R11/290095
                        NOSIG=
201812121230 METAR LRTR 121230Z 27010KT 9999 BKN025 03/02 Q1017 R11/290095
                        NOSIG=
201812121300 METAR LRTR 121300Z 27009KT 9999 FEW015 BKN025 03/02 Q1018
                        R11/190095 NOSIG=
201812121330 METAR LRTR 121330Z 28008KT 9999 FEW015 BKN025 03/02 Q1018
                        R11/190095 NOSIG=
201812121400 METAR LRTR 121400Z 29007KT 9999 OVC028 03/01 Q1018 R11/190095
                        NOSIG=
201812121430 METAR LRTR 121430Z 29006KT 9999 SCT024 BKN033 03/01 Q1018
                        R11/190095 NOSIG=
201812121500 METAR LRTR 121500Z 28006KT 9999 BKN030 02/01 Q1018 R11/190095
                        NOSIG=
201812121530 METAR LRTR 121530Z 30005KT 9999 OVC030 02/01 Q1019 R11/190095
                        NOSIG=
201812121600 METAR LRTR 121600Z 29004KT 9999 OVC030 02/02 Q1019 R11/190095
                        NOSIG=
201812121630 METAR LRTR 121630Z 30003KT 9999 OVC029 02/02 Q1019 NOSIG=
201812121700 METAR LRTR 121700Z 28004KT 9999 OVC025 02/02 Q1019 NOSIG=
201812121730 METAR LRTR 121730Z 26005KT 9999 FEW018 OVC030 02/02 Q1019
                        NOSIG=
201812121800 METAR LRTR 121800Z 27005KT 9999 OVC033 02/02 Q1020 NOSIG=
201812121830 METAR LRTR 121830Z 28004KT 9999 FEW016 OVC035 02/02 Q1020
                        NOSIG=
201812121900 METAR LRTR 121900Z 28004KT 9999 FEW011 OVC038 01/01 Q1020
                        NOSIG=
201812121930 METAR LRTR 121930Z 27005KT 8000 FEW011 BKN045 01/01 Q1020
                        NOSIG=
201812122000 METAR LRTR 122000Z 25005KT 8000 SCT011 SCT037 OVC045 01/01
                        Q1020 NOSIG=
201812122030 METAR LRTR 122030Z 27006KT 8000 BKN011 OVC045 02/02 Q1020
                        NOSIG=
201812122100 METAR LRTR 122100Z 28006KT 7000 BKN011 OVC048 01/01 Q1020
                        NOSIG=
201812122130 METAR LRTR 122130Z 27005KT 6000 SCT010 OVC049 01/01 Q1021
                        BECMG 5000 BR=
201812122200 METAR LRTR 122200Z 28004KT 5000 BR SCT011 OVC049 01/01 Q1021
                        NOSIG=
201812122230 METAR LRTR 122230Z 29005KT 5000 BR FEW011 OVC047 01/01 Q1021
                        NOSIG=
201812122300 METAR LRTR 122300Z 31003KT 5000 BR FEW012 OVC044 01/01 Q1020
                        NOSIG=
201812122330 METAR LRTR 122330Z 28003KT 250V310 5000 BR OVC042 01/01 Q1021
                        NOSIG=
201812130000 METAR LRTR 130000Z 30004KT 5000 BR OVC041 01/01 Q1021 NOSIG=
201812130030 METAR LRTR 130030Z 28003KT 5000 BR OVC041 01/01 Q1021 NOSIG=
201812130100 METAR LRTR 130100Z 30003KT 5000 BR OVC041 01/01 Q1021 NOSIG=
201812130130 METAR LRTR 130130Z 30005KT 5000 BR FEW018 OVC042 00/00 Q1021
                        TEMPO 3000 BR=
201812130200 METAR LRTR 130200Z 33004KT 3500 BR FEW018 BKN048 M00/M00
                        Q1021 NOSIG=
201812130230 METAR LRTR 130230Z 32004KT 3500 BR BKN049 M01/M01 Q1021 NOSIG=
201812130300 METAR LRTR 130300Z 01003KT 350V070 2000 BR SCT049 M01/M01
                        Q1021 TEMPO 0650 BCFG=
201812130330 METAR LRTR 130330Z 00000KT 2500 1000E R11/1400D R29/0600U
                        BCFG BR FEW049 M01/M01 Q1021 TEMPO
                        0650 BCFG=
201812130400 METAR LRTR 130400Z 00000KT 2000 0600E R11/0800D R29/0450N
                        BCFG BR FEW049 M02/M02 Q1021 TEMPO
                        0350 BCFG=
201812130430 METAR LRTR 130430Z 00000KT 0550 R11/0650U R29/0550U FZFG
                        FEW004 SCT007 M03/M03 Q1021 TEMPO
                        0150 FZFG=
201812130500 METAR COR LRTR 130500Z 09002KT 2000 0800E R11/0800U R29/1800U
                        BCFG BR FEW004 BKN006 M01/M01 Q1021
                        TEMPO 0600 BCFG=
201812130530 METAR LRTR 130530Z 00000KT 4000 BR BKN005 M00/M00 Q1021=
201812130600 METAR LRTR 130600Z 00000KT 4000 BR BKN007 M00/M00 Q1021=
201812130630 METAR LRTR 130630Z 19005KT 3500 BR BKN008 M01/M01 Q1021=
201812130700 METAR LRTR 130700Z 20001KT 2500 BR SCT008 M00/M00 Q1021=
201812130730 METAR LRTR 130730Z 00000KT 2000 BR SCT007 00/00 Q1021=
201812130800 METAR LRTR 130800Z 18002KT 2000 BR SCT012 01/01 Q1021=
201812130830 METAR LRTR 130830Z VRB01KT 3000 BR FEW003 SCT011 01/01 Q1021=
201812130900 METAR LRTR 130900Z 00000KT 5000 BR FEW003 SCT011 02/02 Q1021=
201812130930 METAR LRTR 130930Z VRB02KT 8000 SCT006 02/02 Q1021=
201812131000 METAR LRTR 131000Z VRB01KT 9999 SCT007 02/01 Q1021=
201812131030 METAR LRTR 131030Z VRB02KT 9999 FEW008 SCT012 03/01 Q1021=
201812131100 METAR LRTR 131100Z 01004KT 340V070 9999 SCT011 03/02 Q1020=
201812131130 METAR LRTR 131130Z 35002KT 9999 SCT013 02/01 Q1020=
201812131200 METAR LRTR 131200Z VRB03KT 9999 SCT020 02/01 Q1020=
201812131230 METAR LRTR 131230Z 32004KT 9999 SCT023 04/M00 Q1020=
201812131300 METAR LRTR 131300Z 32003KT 300V360 9999 SCT030 04/M01 Q1020=
201812131330 METAR LRTR 131330Z 35003KT 290V020 9999 SCT034 04/M02 Q1020=
201812131400 METAR LRTR 131400Z 35007KT 9999 FEW015 02/02 Q1020=
201812131430 METAR LRTR 131430Z 36006KT 8000 FEW015 01/01 Q1020=
201812131500 METAR LRTR 131500Z 36006KT 5000 BR FEW016 00/00 Q1020=
201812131530 METAR LRTR 131530Z 02006KT 4000 BR NSC M00/M00 Q1020=
201812131600 METAR LRTR 131600Z 02004KT 5000 BR NSC M00/M00 Q1020=
201812131630 METAR LRTR 131630Z 02004KT 5000 BR NSC M01/M01 Q1020=
201812131700 METAR LRTR 131700Z 01005KT 4000 BR NSC M01/M01 Q1020=
201812131730 METAR LRTR 131730Z 02005KT 5000 BR NSC M01/M01 Q1020 NOSIG=
201812131800 METAR LRTR 131800Z 02006KT 6000 NSC M01/M01 Q1019 BECMG 5000
                        BR=
201812131830 METAR LRTR 131830Z 03005KT 6000 NSC M02/M02 Q1020 BECMG 5000
                        BR=
201812131900 METAR LRTR 131900Z 02005KT 8000 NSC M02/M02 Q1020 NOSIG=
201812131930 METAR LRTR 131930Z 02005KT 8000 NSC M02/M02 Q1020 NOSIG=
201812132000 METAR LRTR 132000Z VRB02KT CAVOK M02/M03 Q1020 NOSIG=
201812132030 METAR LRTR 132030Z 05005KT CAVOK M03/M03 Q1020 NOSIG=
201812132100 METAR LRTR 132100Z 04005KT CAVOK M03/M03 Q1020 NOSIG=
201812132130 METAR LRTR 132130Z 03006KT CAVOK M02/M03 Q1020 NOSIG=
201812132200 METAR LRTR 132200Z 04006KT CAVOK M03/M03 Q1020 NOSIG=
201812132230 METAR LRTR 132230Z 04005KT CAVOK M03/M03 Q1020 NOSIG=
201812132300 METAR LRTR 132300Z 03006KT CAVOK M04/M04 Q1020 NOSIG=
201812132330 METAR LRTR 132330Z 07005KT CAVOK M05/M05 Q1019 NOSIG=
201812140000 METAR LRTR 140000Z 03003KT CAVOK M04/M04 Q1020 NOSIG=
201812140030 METAR LRTR 140030Z 00000KT CAVOK M05/M05 Q1020 NOSIG=
201812140100 METAR LRTR 140100Z 04004KT CAVOK M05/M05 Q1020 NOSIG=
201812140130 METAR LRTR 140130Z 04005KT CAVOK M04/M04 Q1019 NOSIG=
201812140200 METAR LRTR 140200Z 05005KT CAVOK M03/M04 Q1019 NOSIG=
201812140230 METAR LRTR 140230Z 09004KT CAVOK M05/M05 Q1019 NOSIG=
201812140300 METAR LRTR 140300Z 06005KT CAVOK M06/M06 Q1019 NOSIG=
201812140330 METAR LRTR 140330Z 00000KT CAVOK M06/M06 Q1019 NOSIG=
201812140400 METAR LRTR 140400Z 11002KT 8000 NSC M06/M06 Q1019 TEMPO 5000
                        BR=
201812140430 METAR LRTR 140430Z 08004KT 8000 NSC M07/M07 Q1019 TEMPO 5000
                        BR=
201812140500 METAR LRTR 140500Z 05005KT 8000 NSC M06/M06 Q1018 TEMPO 5000
                        BR=
201812140530 METAR LRTR 140530Z 09003KT 9000 NSC M06/M06 Q1019=
201812140600 METAR LRTR 140600Z 11005KT 9000 NSC M05/M06 Q1019=
201812140630 METAR LRTR 140630Z 09006KT CAVOK M04/M04 Q1019=
201812140700 METAR LRTR 140700Z 10005KT CAVOK M04/M04 Q1019=
201812140730 METAR LRTR 140730Z 11004KT CAVOK M03/M03 Q1019=
201812140800 METAR LRTR 140800Z 11005KT CAVOK M02/M02 Q1019=
201812140830 METAR LRTR 140830Z 11005KT CAVOK M01/M01 Q1019=
201812140900 METAR LRTR 140900Z 09007KT CAVOK M00/M01 Q1019=
201812140930 METAR LRTR 140930Z 11006KT CAVOK 00/M01 Q1020=
201812141000 METAR LRTR 141000Z 10006KT CAVOK 01/M01 Q1019=
201812141030 METAR LRTR 141030Z 10006KT CAVOK 01/M00 Q1019=
201812141100 METAR LRTR 141100Z 08006KT CAVOK 01/M01 Q1019=
201812141130 METAR LRTR 141130Z 07006KT CAVOK 02/M01 Q1019=
201812141200 METAR LRTR 141200Z 06007KT CAVOK 02/M01 Q1019=
201812141230 METAR LRTR 141230Z 07007KT CAVOK 02/M01 Q1018=
201812141300 METAR LRTR 141300Z 08006KT CAVOK 02/M01 Q1018=
201812141330 METAR LRTR 141330Z 08005KT CAVOK 02/M01 Q1018=
201812141400 METAR LRTR 141400Z 08004KT CAVOK 02/M01 Q1018=
201812141430 METAR LRTR 141430Z 07003KT CAVOK 01/M01 Q1018=
201812141500 METAR LRTR 141500Z 07003KT 9999 FEW043 01/M01 Q1018=
201812141530 METAR COR LRTR 141530Z 03001KT 9999 -RASN SCT041 01/M01 Q1019=
201812141600 METAR LRTR 141600Z 05005KT 8000 -SN SCT025 OVC035 01/M01
                        Q1019=
201812141630 METAR LRTR 141630Z 04004KT 5000 -SN BR SCT026 OVC036 00/00
                        Q1019 R11/190095=
201812141700 METAR LRTR 141700Z 04005KT 3000 SN BR SCT025 OVC031 M00/M00
                        Q1019 R11/190095=
201812141730 METAR LRTR 141730Z 06006KT 2000 SN BR SCT022 OVC033 M00/M00
                        Q1019 R11/190095=
201812141800 METAR LRTR 141800Z 07006KT 1500 SN BR FEW007 SCT016 OVC030
                        M00/M00 Q1019 R11/290095=
201812141830 METAR LRTR 141830Z 07006KT 1200 SN BR SCT006 SCT013 OVC024
                        M00/M00 Q1019 R11/590593=
201812141900 METAR LRTR 141900Z 07007KT 1200 SN BR SCT007 SCT013 OVC020
                        M00/M00 Q1018 R11/590593=
201812141930 METAR LRTR 141930Z 07006KT 1200 SN BR SCT005 BKN013 OVC020
                        M00/M00 Q1018 R11/591093=
201812142000 METAR LRTR 142000Z 07006KT 1000 R11/2000D R29/1900D SN BR
                        FEW004 BKN014 OVC020 M00/M00 Q1018
                        R11/591093=
201812142030 METAR LRTR 142030Z 06004KT 1200 R11/1900N R29/2000U SN BR
                        FEW003 BKN013 OVC020 M00/M00 Q1018
                        R11/591093=
201812142100 METAR LRTR 142100Z 06004KT 1200 R11/1900U R29/1900U SN BR
                        SCT003 BKN012 OVC018 M00/M00 Q1018
                        R11/592592=
201812142130 METAR LRTR 142130Z 06002KT 1300 R11/P2000 R29/P2000 SN BR
                        SCT003 BKN012 OVC020 M00/M00 Q1018
                        R11/592592=
201812142200 METAR LRTR 142200Z 07001KT 1300 R11/P2000 R29/P2000 SN BR
                        SCT003 BKN005 OVC020 M00/M00 Q1018
                        R11/592592=
201812142230 METAR LRTR 142230Z 00000KT 1100 R11/1800D R29/1900N SN BR
                        SCT003 BKN005 OVC020 M00/M00 Q1018
                        R11/592592=
201812142300 METAR LRTR 142300Z 04002KT 1000 R11/1800D R29/1900D SN BR
                        FEW003 BKN005 OVC020 M00/M00 Q1018
                        R11/590493=
201812142330 METAR LRTR 142330Z 05004KT 1300 R11/P2000 R29/P2000 SN BR
                        SCT003 BKN005 OVC020 M00/M00 Q1018
                        R11/590493=
201812150000 METAR LRTR 150000Z 07004KT 1300 R11/P2000 R29/P2000 SN BR
                        FEW003 BKN005 OVC018 M00/M00 Q1017
                        R11/590493=
201812150030 METAR LRTR 150030Z 08005KT 1500 SN BR SCT003 BKN005 OVC018
                        M00/M00 Q1017 R11/590493=
201812150100 METAR LRTR 150100Z 07005KT 1600 SN BR FEW003 BKN005 OVC023
                        M00/M00 Q1017 R11/590493=
201812150130 METAR LRTR 150130Z 08003KT 1600 SN BR FEW003 BKN005 OVC023
                        00/M00 Q1017 R11/592093=
201812150200 METAR LRTR 150200Z 00000KT 1600 SN BR BKN004 OVC023 00/00
                        Q1017 R11/592093=
201812150230 METAR LRTR 150230Z 06002KT 1600 SN BR SCT003 BKN005 OVC023
                        00/00 Q1017 R11/592093=
201812150300 METAR LRTR 150300Z 06003KT 1500 SN BR FEW003 BKN005 OVC015
                        00/00 Q1017 R11/592093=
201812150330 METAR LRTR 150330Z 06003KT 1600 SN BR BKN006 OVC015 00/00
                        Q1017 R11/592093=
201812150400 METAR LRTR 150400Z 00000KT 1500 SN BR BKN004 OVC016 00/00
                        Q1017 R11/592093=
201812150430 METAR LRTR 150430Z 36001KT 1200 R11/1900U R29/1900N SN BR
                        BKN004 OVC016 00/M00 Q1017 R11/592093=
201812150500 METAR LRTR 150500Z 05003KT 1300 R11/P2000 R29/1900N SN BR
                        BKN005 OVC017 00/00 Q1017 R11/592093=
201812150530 METAR COR LRTR 150530Z 06003KT 1300 R11/P2000 R29/P2000 SN
                        BR SCT004 OVC017 00/00 Q1017 R11/592093
                        NOSIG=
201812150600 METAR LRTR 150600Z 08004KT 1500 SN BR SCT003 SCT009 OVC016
                        00/00 Q1017 R11/592093 NOSIG=
201812150630 METAR LRTR 150630Z 08004KT 1500 SN BR SCT003 SCT015 OVC027
                        00/00 Q1018 R11///99// NOSIG=
201812150700 METAR LRTR 150700Z 08004KT 1000 R11/1400D R29/1100D SN BR
                        SCT002 SCT012 OVC020 00/00 Q1018
                        R11///99// NOSIG=
201812150730 METAR LRTR 150730Z 08004KT 0800 R11/1100U R29/1100N SN FG
                        FEW003 SCT008 OVC015 00/00 Q1018
                        R11///99// NOSIG=
201812150800 METAR LRTR 150800Z 07002KT 1000 R11/1200N R29/1200N SN BR
                        FEW002 SCT008 OVC015 00/00 Q1018
                        R11/590593 NOSIG=
201812150830 METAR LRTR 150830Z 06002KT 1000 R11/1200D R29/1200D SN BR
                        FEW003 SCT008 OVC015 00/00 Q1018
                        R11/590593 TEMPO 0800 SN FG=
201812150900 METAR LRTR 150900Z 07002KT 0800 R11/1200N R29/1200N SN FG
                        FEW001 SCT006 OVC012 00/00 Q1018
                        R11/590593 NOSIG=
201812150930 METAR LRTR 150930Z 09003KT 1000 R11/1200D R29/1300D SN BR
                        FEW002 SCT006 OVC013 00/00 Q1018
                        R11/590593 TEMPO 0800 SN FG=
201812151000 METAR LRTR 151000Z 08003KT 0800 R11/1000N R29/1100D SN FG
                        FEW002 SCT007 OVC012 00/00 Q1018
                        R11/590593 TEMPO 0600 SN FG=
201812151030 METAR LRTR 151030Z 05003KT 0600 R11/1000N R29/1200D SN FG
                        FEW002 SCT007 OVC012 00/00 Q1018
                        R11/590593 TEMPO 0800=
201812151100 METAR LRTR 151100Z 05003KT 0550 R11/0800N R29/0800D SN FG
                        FEW002 BKN004 OVC011 00/00 Q1017
                        R11/590593 TEMPO 0350 +SN FG=
201812151130 METAR LRTR 151130Z 06004KT 0800 R11/1000U R29/1000N SN FG
                        FEW002 BKN008 OVC013 00/00 Q1017
                        R11/591093 TEMPO 0600 SN FG=
201812151200 METAR LRTR 151200Z 07004KT 0550 R11/0900N R29/1000N SN FG
                        FEW003 BKN006 OVC010 00/00 Q1017
                        R11/591093 NOSIG=
201812151230 METAR LRTR 151230Z 05003KT 020V080 0600 R11/1000N R29/1000N
                        SN FG FEW003 SCT005 OVC010 00/00
                        Q1017 R11/591093 NOSIG=
201812151300 METAR LRTR 151300Z 05002KT 0800 R11/1100N R29/1100N SN FG
                        FEW003 SCT005 OVC013 00/00 Q1017
                        R11/591093 NOSIG=
201812151330 METAR LRTR 151330Z 00000KT 0550 R11/0900D R29/0900D SN FG
                        FEW002 BKN006 OVC010 00/00 Q1017
                        R11/591093 TEMPO 0350 +SN FG=
201812151400 METAR LRTR 151400Z 00000KT 0400 R11/0900U R29/0900D +SN FG
                        FEW001 BKN003 OVC010 00/00 Q1017
                        R11/591093 NOSIG=
201812151430 METAR LRTR 151430Z 24003KT 0450 R11/0900N R29/1000N +SN FG
                        FEW001 BKN003 OVC010 00/00 Q1017
                        R11/591093 NOSIG=
201812151500 METAR LRTR 151500Z 27004KT 0400 R11/0800U R29/0800U +SN FG
                        FEW002 SCT004 OVC010 00/00 Q1017
                        R11/591093 NOSIG=
201812151530 METAR COR LRTR 151530Z 27004KT 0550 R11/1200U R29/1500U +SN
                        FG FEW001 BKN003 OVC008 00/00 Q1018
                        R11/591093 TEMPO 0800 SN FG=
201812151600 METAR LRTR 151600Z 25004KT 0600 R11/1300D R29/1700D +SN FG
                        FEW001 SCT003 OVC008 00/00 Q1018
                        R11/591093 TEMPO 0800 SN FG=
201812151630 METAR LRTR 151630Z 27005KT 0800 R11/1400U R29/1800U SN FG
                        FEW001 BKN003 OVC008 00/00 Q1018
                        RESN R11/591093 NOSIG=
201812151700 METAR LRTR 151700Z 25004KT 1000 R11/P2000 R29/P2000 SN BR
                        FEW002 SCT004 OVC012 M00/M00 Q1018
                        R11/591093 NOSIG=
201812151730 METAR COR LRTR 151730Z 28002KT 1200 R11/P2000 R29/P2000 SN
                        BR SCT001 BKN003 OVC015 00/00 Q1018
                        R11/591093=
201812151800 METAR LRTR 151800Z 31003KT 1200 R11/1900N R29/1500VP2000D
                        SN BR SCT001 BKN003 OVC013 M00/M00
                        Q1018 R11/591093=
201812151830 METAR LRTR 151830Z 30003KT 1200 R11/1600U R29/1800D SN BR
                        SCT001 BKN003 OVC015 M00/M00 Q1018
                        R11/591093=
201812151900 METAR LRTR 151900Z 30003KT 1300 R11/1900U R29/P2000 SN BR
                        FEW002 BKN003 OVC015 M00/M00 Q1018
                        R11/591093=
201812151930 METAR LRTR 151930Z 33003KT 1400 R11/1700N R29/2000D SN BR
                        FEW002 BKN003 OVC017 M00/M00 Q1018
                        R11/591593=
201812152000 METAR COR LRTR 152000Z 34002KT 1400 R11/P2000 R29/P2000 SN
                        BR FEW002 BKN003 OVC020 M00/M00 Q1018
                        R11/591593=
201812152030 METAR LRTR 152030Z 32001KT 1300 R11/P2000 R29/P2000 SN BR
                        SCT002 BKN003 OVC016 M00/M00 Q1018
                        R11/591593=
201812152100 METAR LRTR 152100Z 29002KT 1400 R11/P2000 R11/P2000 SN BR
                        BKN003 OVC015 M00/M00 Q1018 R11/591593=
201812152130 METAR LRTR 152130Z 30001KT 1400 R11/P2000 R29/P2000 SN BR
                        BKN003 OVC015 M00/M00 Q1018 R11/590593=
201812152200 METAR LRTR 152200Z 30001KT 1300 R11/P2000 R29/P2000 SN BR
                        BKN003 OVC016 M00/M00 Q1018 R11/590593=
201812152230 METAR LRTR 152230Z 00000KT 1500 SN BR BKN005 OVC016 M01/M01
                        Q1018 R11/590593=
201812152300 METAR LRTR 152300Z 10002KT 1500 SN BR SCT003 BKN005 OVC015
                        M01/M01 Q1018 R11/591093=
201812152330 METAR LRTR 152330Z 13003KT 3000 SN BR SCT003 BKN005 OVC015
                        M01/M01 Q1018 R11/591093=
201812160000 METAR LRTR 160000Z 15004KT 3500 SN BR SCT003 BKB005 OVC015
                        003 M01/M01 Q1018 R11/591093=
201812160030 METAR LRTR 160030Z 14003KT 3500 SN BR BKN003 OVC015 M01/M01
                        Q1018 R11/591093=
201812160100 METAR LRTR 160100Z 14003KT 2500 SN BR SCT003 BKN005 OVC016
                        M01/M01 Q1018 R11/591093=
201812160130 METAR LRTR 160130Z 16003KT 2000 SN BR FEW003 BKN005 OVC013
                        M01/M01 Q1018 R11/591093=
201812160200 METAR LRTR 160200Z 17003KT 3000 SN BR FEW002 BKN005 OVC015
                        M01/M01 Q1018 R11/591093=
201812160230 METAR LRTR 160230Z 20002KT 2500 SN BR FEW002 BKN005 OVC020
                        M01/M01 Q1017 R11/591093=
201812160300 METAR LRTR 160300Z 20003KT 1800 SN BR FEW002 BKN004 OVC017
                        M01/M01 Q1017 R11/591093=
201812160330 METAR LRTR 160330Z 19003KT 1500 SN BR FEW002 BKN004 OVC018
                        M01/M01 Q1017 R11/591093=
201812160400 METAR LRTR 160400Z 20002KT 1400 R11/1700N R29/P2000 SN BR
                        FEW002 BKN004 OVC013 M01/M01 Q1017
                        R11/591093=
201812160430 METAR LRTR 160430Z 20003KT 1400 R11/1900D R29/1800N SN BR
                        SCT002 BKN004 OVC013 M01/M01 Q1018
                        R11/591093=
201812160500 METAR LRTR 160500Z 19004KT 1400 R11/1900D R29/2000D SN BR
                        FEW002 BKN004 OVC013 M01/M01 Q1018
                        R11/592093=
201812160530 METAR LRTR 160530Z 17003KT 1000 R11/2000U R29/1800U SN BR
                        FEW003 OVC014 M01/M01 Q1018 R11/592093=
201812160600 METAR LRTR 160600Z 15003KT 1000 R11/P2000 R29/1700D SN BR
                        FEW003 OVC014 M01/M01 Q1018 R11/593093=
201812160630 METAR LRTR 160630Z 16004KT 1000 R11/1800U R29/1600N SN BR
                        FEW003 OVC014 M01/M01 Q1018 R11/593093=
201812160700 METAR COR LRTR 160700Z 18004KT 0800 R11/1400D R29/1500D -SN
                        FZFG FEW002 SCT018 OVC020 M01/M01
                        Q1019 R11/593093=
201812160730 METAR LRTR 160730Z 17003KT 0600 R11/1400N R29/1400U -SN FZFG
                        FEW003 SCT020 OVC028 M01/M01 Q1019
                        R11/593093=
201812160800 METAR LRTR 160800Z 16003KT 0600 R11/1300N R29/1400N -SN FZFG
                        FEW003 SCT020 OVC027 M00/M00 Q1019
                        R11/593093=
201812160830 METAR COR LRTR 160830Z 18003KT 1000 R11/1800N R29/1700U -SN
                        BR BKN004 OVC027 00/00 Q1020 R11/590593=
201812160900 METAR LRTR 160900Z 20005KT 1200 R11/2000N R29/P2000 -SN BR
                        BKN004 OVC027 00/00 Q1020 R11/590593=
201812160930 METAR LRTR 160930Z 19005KT 1500 BR OVC004 00/00 Q1020 R11/590593=
201812161000 METAR LRTR 161000Z 21004KT 1500 -SN BR OVC005 M00/M00 Q1020
                        R11/590593=
201812161030 METAR LRTR 161030Z 23004KT 1200 R11/2000U R29/P2000 -SN BR
                        BKN003 OVC010 00/M00 Q1019 R11/590593=
201812161100 METAR COR LRTR 161100Z 26003KT 220V290 1200 R11/2000D R29/P2000
                        BR BKN003 OVC010 M00/M00 Q1019 R11/590593=
201812161130 METAR LRTR 161130Z 27004KT 1500 BR BKN003 OVC010 M00/M00
                        Q1019 R11/590593=
201812161200 METAR LRTR 161200Z 27004KT 1000 R11/1700D R29/P2000 BR BKN003
                        OVC010 M00/M00 Q1019 R11/590593=
201812161230 METAR LRTR 161230Z 26004KT 1000 R11/1900U R29/P2000 BR BKN004
                        OVC010 M00/M00 Q1019 R11/590593=
201812161300 METAR LRTR 161300Z 26004KT 1500 BR BKN004 OVC010 M00/M00
                        Q1020 R11/590593=
201812161330 METAR COR LRTR 161330Z 26004KT 1500 BR SCT004 OVC008 M00/M00
                        Q1020 R11/590593=
201812161400 METAR LRTR 161400Z 27003KT 1700 BR FEW004 OVC007 M00/M01
                        Q1020 R11/621094=
201812161430 METAR LRTR 161430Z 26006KT 0400 R11/0900D R29/1700D FZFG
                        BKN002 OVC005 M01/M01 Q1020 R11/621094=
201812161500 METAR LRTR 161500Z 27007KT 0300 R11/0750N R29/0800N FZFG
                        OVC002 M01/M01 Q1021 R11/621094=
201812161530 METAR LRTR 161530Z 27008KT 0300 R11/1000N R29/0900N FZFG
                        VV002 M01/M01 Q1021 R11/621094=
201812161600 METAR COR LRTR 161600Z 26007KT 1000 R11/P2000 R29/2000 BR
                        BKN002 OVC008 M01/M01 Q1021 R11/621094=
201812161630 METAR LRTR 161630Z 27005KT 1500 BR BKN004 OVC011 M01/M01
                        Q1021 R11/621094=
201812161700 METAR LRTR 161700Z VRB01KT 2000 BR BKN005 OVC010 M01/M01
                        Q1021 R11/621094=
201812161730 METAR COR LRTR 161730Z 25003KT 3000 BR FEW005 OVC011 M01/M01
                        Q1022 R11/621094 NOSIG=
201812161800 METAR LRTR 161800Z 28004KT 2500 BR FEW005 OVC010 M01/M01
                        Q1021 R11/621094 NOSIG=
201812161830 METAR LRTR 161830Z 28003KT 2000 BR FEW006 OVC011 M01/M01
                        Q1022 R11/621094 BECMG 1500 BR=
201812161900 METAR LRTR 161900Z 00000KT 2000 BR OVC010 M01/M01 Q1021 R11/621094
                        BECMG 1500 BR=
201812161930 METAR LRTR 161930Z 00000KT 1800 BR OVC010 M01/M01 Q1021 R11/621094
                        NOSIG=
201812162000 METAR LRTR 162000Z VRB01KT 1800 BR OVC009 M02/M02 Q1021 R11/621094
                        BECMG 1500 BR=
201812162030 METAR LRTR 162030Z 21002KT 1500 BR FEW006 OVC010 M01/M01
                        Q1021 R11/621094 NOSIG=
201812162100 METAR LRTR 162100Z VRB02KT 1500 BR FEW005 OVC010 M01/M01
                        Q1021 R11/621094 NOSIG=
201812162130 METAR LRTR 162130Z VRB02KT 1800 BR FEW004 OVC009 M02/M02
                        Q1022 R11/621094 NOSIG=
201812162200 METAR LRTR 162200Z 30001KT 1800 BR FEW004 OVC009 M02/M02
                        Q1022 R11/621094 NOSIG=
201812162230 METAR LRTR 162230Z 29003KT 2000 BR FEW005 OVC009 M02/M02
                        Q1022 R11/621094 NOSIG=
201812162300 METAR LRTR 162300Z 30003KT 1800 BR OVC009 M02/M02 Q1021 R11/621094
                        BECMG 1500 BR=
201812162330 METAR LRTR 162330Z 29003KT 1500 BR OVC009 M02/M02 Q1021 R11/621094
                        NOSIG=
201812170000 METAR LRTR 170000Z 30002KT 1500 BR OVC009 M02/M02 Q1021 R11/190095
                        NOSIG=
201812170030 METAR LRTR 170030Z 00000KT 1500 BR OVC009 M02/M02 Q1021 R11/190095
                        NOSIG=
201812170100 METAR LRTR 170100Z 31001KT 1300 BR OVC008 M02/M02 Q1021 R11/190095
                        NOSIG=
201812170130 METAR LRTR 170130Z 34003KT 1500 BR FEW005 OVC010 M02/M02
                        Q1021 R11/190095 NOSIG=
201812170200 METAR LRTR 170200Z 03004KT 2500 BR SCT005 OVC010 M02/M02
                        Q1021 R11/190095 BECMG 3000=
201812170230 METAR LRTR 170230Z 03003KT 3000 BR BKN005 OVC009 M02/M02
                        Q1020 R11/190095 NOSIG=
201812170300 METAR LRTR 170300Z 35003KT 3000 BR FEW003 SCT005 OVC009 M03/M03
                        Q1020 R11/190095 NOSIG=
201812170330 METAR LRTR 170330Z 33004KT 3000 BR BKN003 OVC009 M02/M02
                        Q1021 R11/190095 NOSIG=
201812170400 METAR LRTR 170400Z 31004KT 2500 BR SCT003 OVC005 M02/M02
                        Q1021 R11/190095 NOSIG=
201812170430 METAR LRTR 170430Z 31004KT 2500 BR SCT003 OVC006 M02/M02
                        Q1021 R11/190095 NOSIG=
201812170500 METAR LRTR 170500Z 32004KT 2500 BR SCT003 OVC006 M02/M02
                        Q1021 R11/190095 BECMG 3000=
201812170530 METAR LRTR 170530Z 35006KT 2500 BR BKN003 OVC005 M02/M02
                        Q1021 R11/190095 TEMPO 1500 BR=
201812170600 METAR LRTR 170600Z 35005KT 1500 -SN BR BKN003 OVC005 M02/M02
                        Q1020 R11/190095 NOSIG=
201812170630 METAR LRTR 170630Z 36005KT 1500 BR BKN002 M02/M02 Q1020 R11/190095
                        NOSIG=
201812170700 METAR LRTR 170700Z 01006KT 0400 R11/0500N R29/0550N FZFG
                        VV001 M02/M02 Q1020 R11/190095 TEMPO
                        0350 FZFG=
201812170730 METAR LRTR 170730Z 02007KT 0600 R11/1000N R29/1200U FZFG
                        VV001 M02/M02 Q1020 R11/190095 BECMG
                        0800 VV002=
201812170800 METAR LRTR 170800Z 03007KT 0800 R11/1300N R29/1700U FZFG
                        BKN001 M02/M02 Q1021 R11/190095 BECMG
                        1500 BR BKN002=
201812170830 METAR LRTR 170830Z 02005KT 350V050 1500 BR BKN002 M02/M02
                        Q1021 R11/190095 BECMG 3000 BKN005=
201812170900 METAR LRTR 170900Z 36004KT 2000 BR BKN003 M02/M02 Q1021 R11/190095
                        BECMG 3000 BKN005=
201812170930 METAR LRTR 170930Z 35008KT 2500 BR BKN003 M01/M01 Q1021 R11/190095
                        BECMG 3000 BKN005=
201812171000 METAR LRTR 171000Z 35008KT 3000 BR BKN003 M01/M01 Q1021 R11/190095
                        BECMG BKN005=
201812171030 METAR LRTR 171030Z 34007KT 3300 BR BKN004 M01/M01 Q1021 R11/190095
                        BECMG BKN005=
201812171100 METAR LRTR 171100Z 35008KT 3400 BR BKN005 M01/M01 Q1021 R11/190095
                        BECMG BKN010=
201812171130 METAR LRTR 171130Z 35007KT 3500 BR BKN005 M01/M01 Q1021 R11/190095
                        BECMG BKN010=
201812171200 METAR LRTR 171200Z 35007KT 3500 BR BKN005 M01/M01 Q1021 R11/190095
                        BECMG BKN010=
201812171230 METAR LRTR 171230Z 35006KT 3500 BR BKN006 M01/M01 Q1021 R11/190095
                        NOSIG=
201812171300 METAR LRTR 171300Z 32008KT 3500 BR BKN006 M01/M01 Q1021 R11/190095
                        NOSIG=
201812171330 METAR LRTR 171330Z 33006KT 3500 BR BKN006 M01/M01 Q1022 R11/190095
                        NOSIG=
201812171400 METAR LRTR 171400Z 32007KT 4000 BR BKN007 M01/M01 Q1022 R11/190095
                        NOSIG=
201812171430 METAR LRTR 171430Z 32006KT 4500 BR BKN006 M01/M01 Q1022 R11/190095
                        TEMPO 5000=
201812171500 METAR LRTR 171500Z 32007KT 5000 BR OVC007 M02/M02 Q1023 R11/190095
                        NOSIG=
201812171530 METAR LRTR 171530Z 32005KT 5000 BR BKN008 M02/M02 Q1023 R11/190095
                        NOSIG=
201812171600 METAR LRTR 171600Z 32005KT 5000 BR BKN008 M02/M02 Q1023 R11/190095
                        NOSIG=
201812171630 METAR LRTR 171630Z 32006KT 4500 BR BKN008 M02/M02 Q1023 R11/190095
                        BECMG 3000 BR=
201812171700 METAR LRTR 171700Z 32007KT 4000 BR BKN008 M02/M02 Q1024 R11/190095
                        BECMG 3000 BR=
201812171730 METAR LRTR 171730Z 32007KT 4000 BR OVC009 M02/M02 Q1024 R11/190095=
201812171800 METAR LRTR 171800Z 32006KT 4000 BR OVC009 M02/M02 Q1024 R11/190095=
201812171830 METAR LRTR 171830Z 31007KT 4000 BR OVC010 M02/M03 Q1025 R11/190095=
201812171900 METAR LRTR 171900Z 33006KT 4000 BR OVC010 M03/M03 Q1025 R11/190095=
201812171930 METAR LRTR 171930Z 32007KT 4000 BR OVC010 M03/M03 Q1025 R11/190095=
201812172000 METAR LRTR 172000Z 31007KT 4500 BR OVC010 M03/M03 Q1025 R11/190095=
201812172030 METAR LRTR 172030Z 32008KT 5000 -SN BR OVC010 M03/M03 Q1025
                        R11/190095=
201812172100 METAR LRTR 172100Z 31007KT 5000 BR OVC010 M03/M03 Q1026 R11/190095=
201812172130 METAR LRTR 172130Z 33006KT 6000 OVC007 M03/M03 Q1026 R11/190095=
201812172200 METAR COR LRTR 172200Z 33007KT 6000 OVC007 M03/M03 Q1026
                        R11/190095=
201812172230 METAR LRTR 172230Z 32006KT 5000 BR OVC008 M03/M03 Q1026 R11/190095=
201812172300 METAR LRTR 172300Z 31005KT 4500 BR OVC007 M03/M03 Q1026 R11/190095=
201812172330 METAR LRTR 172330Z 29007KT 2000 BR SCT003 OVC007 M04/M04
                        Q1026 R11/190095=
201812180000 METAR COR LRTR 180000Z 30006KT 1000 R11/P2000 R29/P2000 BR
                        BKN002 OVC005 M05/M05 Q1026 R11/190095=
201812180030 METAR LRTR 180030Z 29005KT 0800 R11/1700 R29/P2000 FZFG BKN002
                        OVC005 M05/M05 Q1026 R11/190095=
201812180100 METAR LRTR 180100Z 29007KT 0800 R11/P2000 R29/P2000 FZFG
                        OVC002 M06/M06 Q1027 R11/190095=
201812180130 METAR LRTR 180130Z 28007KT 1200 R11/P2000 R29/P2000 BR OVC002
                        M05/M05 Q1027 R11/190095=
201812180200 METAR LRTR 180200Z 29006KT 1500 -SN BR OVC002 M05/M05 Q1027
                        R11/190095=
201812180230 METAR LRTR 180230Z 31008KT 1500 BR OVC002 M05/M05 Q1027 R11/190095=
201812180300 METAR LRTR 180300Z 31007KT 1500 BR OVC002 M05/M05 Q1027 R11/190095=
201812180330 METAR LRTR 180330Z 30006KT 1500 BR OVC002 M05/M05 Q1027 R11/190095=
201812180400 METAR LRTR 180400Z 31007KT 1200 R11/P2000 R29/2000 BR OVC002
                        M05/M05 Q1028 R11/190095=
201812180430 METAR LRTR 180430Z 29004KT 1200 R11/P2000 R29/P2000 BR OVC002
                        M05/M05 Q1028 R11/190095=
201812180500 METAR LRTR 180500Z 30006KT 2000 BR OVC003 M05/M05 Q1028 R11/190095=
201812180530 METAR LRTR 180530Z 30006KT 2500 BR BKN003 OVC007 M05/M05
                        Q1028 R11/190095=
201812180600 METAR LRTR 180600Z 30004KT 1800 BR BKN003 OVC005 M05/M05
                        Q1028 R11/190095=
201812180630 METAR LRTR 180630Z 32007KT 1800 BR BKN002 OVC005 M05/M05
                        Q1029 R11/190095=
201812180700 METAR LRTR 180700Z 32007KT 0450 R11/0650D R29/0750N FZFG
                        VV002 M05/M05 Q1029 R11/190095=
201812180730 METAR LRTR 180730Z 31007KT 0400 R11/0500N R29/0550N FZFG
                        VV002 M05/M05 Q1029 R11/190095=
201812180800 METAR LRTR 180800Z 31005KT 0400 R11/0650U R29/0800U FZFG
                        VV002 M05/M05 Q1030 R11/190095=
201812180830 METAR LRTR 180830Z 30002KT 0800 R11/1100N R29/1400U FZFG
                        VV002 M04/M05 Q1030 R11/190095=
201812180900 METAR LRTR 180900Z 30004KT 0800 R11/1000D R29/1700U FZFG
                        OVC002 M04/M04 Q1030 R11/190095=
201812180930 METAR LRTR 180930Z 31004KT 1500 R11/P2000 R29/1400U BR OVC001
                        M04/M04 Q1029 R11/190095=
201812181000 METAR LRTR 181000Z 29003KT 2500 -SG OVC002 M04/M04 Q1029
                        R11/190095=
201812181030 METAR LRTR 181030Z 30005KT 3000 BR OVC002 M05/M05 Q1029 R11/190095=
201812181100 METAR LRTR 181100Z 30004KT 0400 R11/0500N R29/1300D -SG FZFG
                        VV002 M05/M05 Q1029 R11/190095=
201812181130 METAR LRTR 181130Z 29005KT 0350 R11/0450N R29/0450N FZFG
                        VV002 M05/M05 Q1029 R11/190095=
201812181200 METAR LRTR 181200Z 29005KT 0450 R11/0650N R29/1000D FZFG
                        VV002 M06/M06 Q1029 R11/190095=
201812181230 METAR LRTR 181230Z 29006KT 0350 R11/0450N R29/0500N FZFG
                        VV002 M06/M06 Q1029 R11/190095=
201812181300 METAR LRTR 181300Z 29005KT 0300 R11/0400N R29/0650N FZFG
                        VV002 M06/M06 Q1029 R11/190095=
201812181330 METAR LRTR 181330Z 29004KT 0300 R11/0350N R29/0400N FZFG
                        VV002 M06/M06 Q1029 R11/190095=
201812181400 METAR LRTR 181400Z 29003KT 0200 R11/0300N R29/0275N FZFG
                        VV002 M06/M06 Q1029 R11/190095=
201812181430 METAR LRTR 181430Z VRB02KT 0300 R11/0400N R29/0400N FZFG
                        VV002 M06/M06 Q1029 R11/190095=
201812181500 METAR LRTR 181500Z 30003KT 0400 R11/0500N R29/0450U FZFG
                        VV002 M06/M06 Q1029 R11/190095=
201812181530 METAR LRTR 181530Z 30002KT 0500 R11/0800U R29/0900D FZFG
                        OVC002 M06/M06 Q1029 R11/190095=
201812181600 METAR LRTR 181600Z 00000KT 0900 R11/1200U R29/0800N FZFG
                        VV002 M06/M06 Q1029 R11/190095=
201812181630 METAR LRTR 181630Z 00000KT 1800 BR SCT002 OVC005 M06/M06
                        Q1029 R11/190095=
201812181700 METAR LRTR 181700Z 00000KT 2000 BR SCT003 OVC005 M06/M06
                        Q1030 R11/190095=
201812181730 METAR LRTR 181730Z 00000KT 2000 R11/P2000 R29/1300D BR BKN002
                        M06/M06 Q1030 R11/190095 BECMG 1500
                        BR=
201812181800 METAR LRTR 181800Z 08003KT 1500 R11/P2000 R29/1400U BR OVC002
                        M06/M06 Q1030 R11/190095 TEMPO 0800
                        FZFG VV001=
201812181830 METAR LRTR 181830Z 06003KT 1200 R11/P2000 R29/P2000 BR OVC002
                        M06/M06 Q1030 R11/190095 TEMPO 0800
                        FZFG VV001=
201812181900 METAR LRTR 181900Z 10002KT 1500 BR OVC002 M06/M06 Q1030 R11/190095
                        TEMPO 0800 FZFG VV001=
201812181930 METAR LRTR 181930Z VRB02KT 2000 BR OVC002 M06/M06 Q1030 R11/190095
                        BECMG 1500 BR=
201812182000 METAR LRTR 182000Z 07003KT 030V100 1500 BR OVC002 M06/M06
                        Q1030 R11/190095 TEMPO 0800 FZFG=
201812182030 METAR LRTR 182030Z 08003KT 1500 BR OVC002 M06/M06 Q1030 R11/190095
                        TEMPO 0800 FZFG=
201812182100 METAR LRTR 182100Z VRB01KT 1000 R11/1800D R29/2000 BR OVC002
                        M06/M06 Q1030 R11/190095 BECMG 0800
                        FZFG VV001=
201812182130 METAR LRTR 182130Z VRB02KT 0500 R11/0600N R29/P2000 FZFG
                        VV002 M07/M07 Q1030 R11/190095 TEMPO
                        0350 FZFG=
201812182200 METAR LRTR 182200Z 29004KT 0350 R11/0550N R29/0600N FZFG
                        VV001 M08/M08 Q1030 R11/190095 NOSIG=
201812182230 METAR LRTR 182230Z 29004KT 0400 R11/0800U R29/1100U FZFG
                        VV001 M08/M08 Q1030 R11/190095 NOSIG=
201812182300 METAR LRTR 182300Z 27005KT 0400 R11/0900U R29/1100U FZFG
                        VV001 M09/M09 Q1030 R11/190095 NOSIG=
201812182330 METAR LRTR 182330Z 28004KT 0700 R11/1300U R29/1300D FZFG
                        VV001 M09/M09 Q1029 R11/190095 BECMG
                        0600 FZFG=
201812190000 METAR LRTR 190000Z 31002KT 0600 R11/1600D R29/1100N FZFG
                        VV001 M09/M09 Q1029 R11/190095 NOSIG=
201812190030 METAR LRTR 190030Z VRB01KT 0600 R11/1900D R29/0800U FZFG
                        VV001 M08/M08 Q1029 R11/190095 NOSIG=
201812190100 METAR LRTR 190100Z 32001KT 0600 R11/1300D R29/0900D FZFG
                        VV001 M08/M08 Q1029 R11/190095 NOSIG=
201812190130 METAR LRTR 190130Z 00000KT 0500 R11/0800D R29/0500N FZFG
                        VV001 M08/M08 Q1029 R11/190095 NOSIG=
201812190200 METAR LRTR 190200Z 08002KT 0350 R11/0450N R29/0400N FZFG
                        VV001 M07/M07 Q1029 R11/190095 NOSIG=
201812190230 METAR LRTR 190230Z 09002KT 0350 R11/0500N R29/0600U FZFG
                        VV001 M07/M07 Q1029 R11/190095 NOSIG=
201812190300 METAR LRTR 190300Z 11002KT 0600 R11/1500U R29/1500U FZFG
                        VV001 M07/M07 Q1029 R11/190095 NOSIG=
201812190330 METAR LRTR 190330Z 16001KT 0800 R11/P2000 R29/1800N FZFG
                        OVC002 M06/M06 Q1029 R11/190095 TEMPO
                        1500 BR=
201812190400 METAR LRTR 190400Z 00000KT 0800 R11/P2000 R29/P2000 FZFG
                        OVC002 M06/M06 Q1029 TEMPO 1500 BR=
201812190430 METAR LRTR 190430Z 10002KT 1200 R11/P2000 R29/P2000 BR OVC002
                        M06/M06 Q1029 BECMG 0800 FZFG=
201812190500 METAR LRTR 190500Z 00000KT 0800 R11/P2000 R29/P2000 FZFG
                        OVC002 M06/M06 Q1029 NOSIG=
201812190530 METAR LRTR 190530Z 13001KT 1000 R11/P2000 R29/P2000 BR FEW001
                        OVC002 M06/M06 Q1029 TEMPO 0800 FZFG=
201812190600 METAR LRTR 190600Z 10002KT 1000 R11/P2000 R29/P2000 BR OVC002
                        M06/M06 Q1029 TEMPO 0800 FZFG=
201812190630 METAR LRTR 190630Z 09004KT 0800 R11/1800U R29/1800N FZFG
                        BKN002 OVC003 M06/M06 Q1029 NOSIG=
201812190700 METAR COR LRTR 190700Z 12004KT 0800 R11/1400D R29/1300D FZFG
                        OVC003 M05/M05 Q1030 NOSIG=
201812190730 METAR LRTR 190730Z 11005KT 1000 R11/1400N R29/1500U BR OVC003
                        M05/M05 Q1030 BECMG 1500=
201812190800 METAR LRTR 190800Z 12006KT 1500 BR OVC004 M05/M05 Q1030 NOSIG=
201812190830 METAR LRTR 190830Z 13006KT 1800 BR BKN004 OVC037 M05/M05
                        Q1030 NOSIG=
201812190900 METAR LRTR 190900Z 12007KT 1800 BR BKN004 OVC036 M04/M04
                        Q1030 NOSIG=
201812190930 METAR LRTR 190930Z 14005KT 2000 BR BKN005 OVC036 M04/M04
                        Q1030 NOSIG=
201812191000 METAR LRTR 191000Z 14006KT 2000 BR BKN004 OVC036 M04/M04
                        Q1029 NOSIG=
201812191030 METAR LRTR 191030Z 11002KT 2000 BR BKN006 OVC036 M04/M04
                        Q1029 NOSIG=
201812191100 METAR LRTR 191100Z 14001KT 2500 BR BKN006 OVC036 M03/M03
                        Q1029 NOSIG=
201812191130 METAR LRTR 191130Z VRB01KT 2500 BR BKN006 OVC036 M03/M03
                        Q1029 NOSIG=
201812191200 METAR LRTR 191200Z VRB01KT 2500 BR BKN007 OVC036 M03/M03
                        Q1029 NOSIG=
201812191230 METAR LRTR 191230Z 10003KT 2500 BR OVC006 M03/M03 Q1029 NOSIG=
201812191300 METAR LRTR 191300Z VRB02KT 2000 BR OVC005 M03/M03 Q1029 NOSIG=
201812191330 METAR LRTR 191330Z 13004KT 2000 BR OVC004 M03/M03 Q1029 NOSIG=
201812191400 METAR LRTR 191400Z 14006KT 110V170 2000 BR OVC004 M04/M04
                        Q1029 NOSIG=
201812191430 METAR LRTR 191430Z 12005KT 1800 BR OVC003 M04/M04 Q1029 NOSIG=
201812191500 METAR LRTR 191500Z 12006KT 100V160 1800 BR OVC003 M04/M04
                        Q1028 TEMPO 1500 BR=
201812191530 METAR LRTR 191530Z 12006KT 1500 BR OVC002 M04/M04 Q1028 TEMPO
                        0800=
201812191600 METAR LRTR 191600Z 12006KT 1500 BR OVC002 M04/M04 Q1028 TEMPO
                        0800=
201812191630 METAR LRTR 191630Z 13005KT 1000 R11/P2000 R29/P2000 BR FEW001
                        OVC002 M04/M04 Q1028 TEMPO 0800 FZFG=
201812191700 METAR COR LRTR 191700Z 11005KT 0800 R11/0750D R29/P2000 FZFG
                        SCT001 OVC002 M05/M05 Q1028 TEMPO
                        0600 FZFG=
201812191730 METAR LRTR 191730Z 15004KT 0800 R11/1100D R29/1400D FZFG
                        VV002 M05/M05 Q1028 TEMPO 0600 FZFG=
201812191800 METAR LRTR 191800Z VRB02KT 0800 R11/1700U R29/0700N FZFG
                        OVC002 M05/M05 Q1028=
201812191830 METAR LRTR 191830Z 15002KT 0900 R11/0800D R29/0500U FZFG
                        VV003 M05/M05 Q1028=
201812191900 METAR LRTR 191900Z 00000KT 0450 R11/0500N R29/0350N FZFG
                        OVC002 M05/M05 Q1027=
201812191930 METAR LRTR 191930Z 10006KT 0300 R11/0350N R29/0375N FZFG
                        VV001 M05/M05 Q1027=
201812192000 METAR LRTR 192000Z 10006KT 0300 R11/0325N R29/0350N FZFG
                        VV001 M06/M06 Q1027=
201812192030 METAR LRTR 192030Z 11005KT 0300 R11/0375N R29/0350N FZFG
                        VV001 M06/M06 Q1027=
201812192100 METAR LRTR 192100Z 13005KT 0300 R11/0400N R29/0450N FZFG
                        VV001 M06/M06 Q1027=
201812192130 METAR LRTR 192130Z 11007KT 0300 R11/0500N R29/0450N FZFG
                        VV001 M06/M06 Q1027=
201812192200 METAR LRTR 192200Z 10010KT 0300 R11/0400N R29/0450N FZFG
                        VV001 M06/M06 Q1026=
201812192230 METAR LRTR 192230Z 10007KT 0300 R11/0450N R29/0500N FZFG
                        VV001 M06/M06 Q1026=
201812192300 METAR LRTR 192300Z 10005KT 0400 R11/0500N R29/0550N FZFG
                        VV001 M05/M05 Q1026=
201812192330 METAR LRTR 192330Z 09006KT 0550 R11/0650N R29/0800N FZFG
                        VV002 M06/M06 Q1026=
201812200000 METAR LRTR 200000Z 00000KT 0300 R11/0375N R29/0350N FZFG
                        VV001 M06/M06 Q1026=
201812200030 METAR LRTR 200030Z 12009KT 0450 R11/0550N R29/0550N FZFG
                        VV002 M06/M06 Q1025=
201812200100 METAR LRTR 200100Z 11008KT 0550 R11/0650N R29/0900U FZFG
                        VV001 M06/M06 Q1025=
201812200130 METAR LRTR 200130Z 10008KT 0550 R11/0650N R29/0750N FZFG
                        VV001 M06/M06 Q1025=
201812200200 METAR LRTR 200200Z 09005KT 0500 R11/0600N R29/0800N FZFG
                        VV001 M07/M07 Q1025=
201812200230 METAR LRTR 200230Z 10004KT 0350 R11/0400N R29/0500N FZFG
                        VV001 M07/M07 Q1025=
201812200300 METAR LRTR 200300Z 10004KT 0200 R11/0250N R29/0325N FZFG
                        VV001 M07/M07 Q1025=
201812200330 METAR LRTR 200330Z 07004KT 0200 R11/0225N R29/0325N FZFG
                        VV001 M08/M08 Q1025=
201812200400 METAR LRTR 200400Z 04002KT 0450 R11/0500N R29/0800U FZFG
                        BKN003 M08/M08 Q1024=
201812200430 METAR LRTR 200430Z 04002KT 3000 BR SCT006 M08/M08 Q1025=
201812200500 METAR LRTR 200500Z 09003KT 5000 BR FEW010 M07/M07 Q1024=
201812200530 METAR LRTR 200530Z 09007KT 4500 BR FEW010 M07/M07 Q1024=
201812200600 METAR LRTR 200600Z 13004KT 3500 BR NSC M07/M07 Q1024=
201812200630 METAR LRTR 200630Z 12007KT 3000 BR NSC M07/M07 Q1024=
201812200700 METAR LRTR 200700Z 13003KT 100V160 3000 BR NSC M06/M06 Q1025=
201812200730 METAR LRTR 200730Z 11003KT 3000 BR NSC M06/M06 Q1025=
201812200800 METAR LRTR 200800Z 14004KT 120V180 3000 BR NSC M05/M05 Q1025=
201812200830 METAR LRTR 200830Z 14002KT 3000 BR NSC M05/M05 Q1025=
201812200900 METAR LRTR 200900Z 00000KT 2500 BR NSC M04/M04 Q1026=
201812200930 METAR LRTR 200930Z 10005KT 3000 BR NSC M05/M05 Q1025=
201812201000 METAR LRTR 201000Z 11003KT 3500 BR NSC M05/M05 Q1025=
201812201030 METAR LRTR 201030Z 08003KT 3500 BR NSC M04/M04 Q1025=
201812201100 METAR LRTR 201100Z 11005KT 3000 BR NSC M04/M04 Q1025=
201812201130 METAR LRTR 201130Z 11005KT 3000 BR NSC M03/M03 Q1025=
201812201200 METAR LRTR 201200Z VRB04KT 3300 BR NSC M03/M03 Q1024=
201812201230 METAR LRTR 201230Z 12005KT 3300 BR NSC M03/M03 Q1024=
201812201300 METAR LRTR 201300Z 11004KT 3200 BR NSC M03/M03 Q1025=
201812201330 METAR LRTR 201330Z 00000KT 3500 BR NSC M02/M02 Q1025=
201812201400 METAR LRTR 201400Z 13003KT 3700 BR NSC M03/M03 Q1025=
201812201430 METAR LRTR 201430Z 14003KT 4000 BR NSC M02/M02 Q1025=
201812201500 METAR LRTR 201500Z 13005KT 4000 BR NSC M02/M02 Q1025=
201812201530 METAR LRTR 201530Z 14005KT 4000 BR NSC M01/M01 Q1025=
201812201600 METAR LRTR 201600Z 12006KT 3500 BR NSC M02/M02 Q1025=
201812201630 METAR LRTR 201630Z 13001KT 3500 BR NSC M03/M03 Q1026=
201812201700 METAR LRTR 201700Z 10005KT 3000 BR NSC M03/M03 Q1025=
201812201730 METAR LRTR 201730Z 11007KT 3000 BR NSC M02/M02 Q1026=
201812201800 METAR LRTR 201800Z 12008KT 2500 BR NSC M04/M04 Q1026=
201812201830 METAR LRTR 201830Z 09005KT 1800 BR NSC M04/M04 Q1026=
201812201900 METAR LRTR 201900Z 10009KT 2000 BR NSC M04/M04 Q1026=
201812201930 METAR LRTR 201930Z 11008KT 2000 BR NSC M03/M03 Q1026=
201812202000 METAR LRTR 202000Z 09005KT 2000 BR NSC M03/M03 Q1026=
201812202030 METAR LRTR 202030Z 11007KT 2500 BR NSC M03/M03 Q1026=
201812202100 METAR LRTR 202100Z 11005KT 2500 BR NSC M03/M03 Q1026=
201812202130 METAR LRTR 202130Z 10007KT 3000 BR NSC M03/M03 Q1026=
201812202200 METAR LRTR 202200Z 12007KT 3500 BR NSC M03/M03 Q1026=
201812202230 METAR LRTR 202230Z 11007KT 3500 BR NSC M04/M04 Q1026=
201812202300 METAR LRTR 202300Z 12006KT 3500 BR NSC M04/M04 Q1026=
201812202330 METAR COR LRTR 202330Z 12007KT 4000 BR NSC M04/M04 Q1026=
201812210000 METAR LRTR 210000Z 10008KT 4000 BR NSC M03/M03 Q1026=
201812210030 METAR LRTR 210030Z 11007KT 4000 BR NSC M04/M04 Q1026=
201812210100 METAR LRTR 210100Z 12008KT 3500 BR NSC M04/M04 Q1026=
201812210130 METAR LRTR 210130Z 11009KT 4000 BR NSC M04/M04 Q1026=
201812210200 METAR COR LRTR 210200Z 11008KT 4000 BR NSC M03/M03 Q1027=
201812210230 METAR LRTR 210230Z 11007KT 4000 BR NSC M02/M02 Q1026=
201812210300 METAR LRTR 210300Z 12008KT 4000 -FZRA BR SCT048 M02/M02 Q1026=
201812210330 METAR COR LRTR 210330Z 11008KT 4000 BR BKN048 M02/M02 Q1026
                        REFZRA=
201812210400 METAR LRTR 210400Z 10008KT 5000 BR SCT048 M02/M02 Q1026=
201812210430 METAR LRTR 210430Z 10008KT 5000 BR SCT044 M02/M02 Q1026=
201812210500 METAR LRTR 210500Z 12009KT 5000 BR SCT042 M02/M02 Q1026=
201812210530 METAR LRTR 210530Z 11008KT 7000 BKN042 M01/M01 Q1026 NOSIG=
201812210600 METAR LRTR 210600Z 09008KT 5000 BR BKN045 M02/M02 Q1026 NOSIG=
201812210630 METAR LRTR 210630Z 10004KT 5000 BR BKN044 M02/M02 Q1027 NOSIG=
201812210700 METAR LRTR 210700Z 12009KT 4500 -FZRA BR BKN044 M01/M01 Q1026
                        BECMG 5000=
201812210730 METAR LRTR 210730Z 12007KT 5000 -FZRA BR BKN045 M01/M01 Q1026
                        R11/19//95 BECMG NSW=
201812210800 METAR LRTR 210800Z 12009KT 5000 -FZRA BR BKN045 M01/M01 Q1026
                        R11/19//95 BECMG NSW=
201812210830 METAR LRTR 210830Z 12010KT 6000 -FZRA BKN039 M00/M00 Q1026
                        R11/19//95 BECMG NSW=
201812210900 METAR LRTR 210900Z 11009KT 7000 BKN039 M00/M00 Q1027 REFZRA
                        R11/19//95 NOSIG=
201812210930 METAR LRTR 210930Z 13007KT 6000 BKN037 M00/M00 Q1026 R11/19//95
                        TEMPO 5000 BR=
201812211000 METAR LRTR 211000Z 12009KT 5000 BR BKN040 M00/M00 Q1026 R11/19//95
                        NOSIG=
201812211030 METAR LRTR 211030Z 10008KT 4500 BR BKN039 00/00 Q1026 R11/19//95
                        NOSIG=
201812211100 METAR LRTR 211100Z 12008KT 4500 BR BKN039 01/00 Q1025 R11/19//95
                        NOSIG=
201812211130 METAR LRTR 211130Z 12008KT 4500 BR BKN040 01/00 Q1025 R11/19//95
                        NOSIG=
201812211200 METAR LRTR 211200Z 12008KT 5000 BR BKN038 01/00 Q1024 R11/19//95
                        NOSIG=
201812211230 METAR LRTR 211230Z 12008KT 5000 BR BKN036 01/01 Q1024 R11/19//95
                        NOSIG=
201812211300 METAR LRTR 211300Z 13007KT 5000 BR BKN036 01/01 Q1024 R11/19//95
                        NOSIG=
201812211330 METAR LRTR 211330Z 13005KT 5000 BR BKN035 01/01 Q1024 R11/19//95
                        NOSIG=
201812211400 METAR LRTR 211400Z 13007KT 5000 BR SCT034 01/01 Q1024 R11/19//95
                        NOSIG=
201812211430 METAR LRTR 211430Z 13008KT 4500 BR FEW034 01/01 Q1024 R11/19//95
                        NOSIG=
201812211500 METAR LRTR 211500Z 12008KT 4500 BR NSC 00/00 Q1024 R11/19//95
                        NOSIG=
201812211530 METAR LRTR 211530Z 12007KT 5000 BR NSC M00/M00 Q1024 R11/19//95
                        NOSIG=
201812211600 METAR LRTR 211600Z 12008KT 4500 BR NSC M00/M00 Q1023 R11/19//95
                        BECMG 3000 BR=
201812211630 METAR LRTR 211630Z 12011KT 4000 BR NSC M00/M00 Q1023 R11/19//95
                        BECMG 3000 BR=
201812211700 METAR LRTR 211700Z 12010KT 3000 BR NSC M00/M00 Q1022 R11/19//95
                        NOSIG=
201812211730 METAR LRTR 211730Z 12009KT 4000 BR NSC M00/M00 Q1022 R11/19//95=
201812211800 METAR LRTR 211800Z 12009KT 4000 BR NSC M00/M00 Q1022 R11/19//95=
201812211830 METAR LRTR 211830Z 11009KT 4500 BR NSC M00/M00 Q1021 R11/19//95=
201812211900 METAR LRTR 211900Z 12009KT 4500 BR NSC M00/M00 Q1021 R11/19//95=
201812211930 METAR LRTR 211930Z 12008KT 4500 BR NSC M00/M00 Q1021 R11/19//95=
201812212000 METAR LRTR 212000Z 12009KT 5000 BR NSC M00/M00 Q1021 R11/19//95=
201812212030 METAR LRTR 212030Z 11009KT 5000 BR NSC M00/M00 Q1020 R11/19//95=
201812212100 METAR LRTR 212100Z 12009KT 6000 NSC M00/M00 Q1020 R11/19//95=
201812212130 METAR LRTR 212130Z 13009KT 7000 NSC 01/00 Q1020 R11/19//95=
201812212200 METAR LRTR 212200Z 13008KT 6000 NSC M01/M01 Q1020 R11/19//95=
201812212230 METAR LRTR 212230Z 13007KT 5000 BR NSC M01/M01 Q1020 R11/19//95=
201812212300 METAR LRTR 212300Z 12007KT 5000 BR NSC M01/M01 Q1020 R11/19//95=
201812212330 METAR LRTR 212330Z 15007KT 6000 NSC 01/01 Q1019 R11/19//95=
201812220000 METAR LRTR 220000Z 16007KT 6000 NSC 02/01 Q1019 R11/19//95=
201812220030 METAR LRTR 220030Z 15005KT 7000 NSC 02/01 Q1019 R11/19//95=
201812220100 METAR LRTR 220100Z 15005KT 7000 SCT048 02/02 Q1019 R11/19//95=
201812220130 METAR LRTR 220130Z 19009KT 8000 BKN044 02/02 Q1019 R11/19//95=
201812220200 METAR LRTR 220200Z 19011KT 9000 BKN043 02/02 Q1019 R11/19//95=
201812220230 METAR COR LRTR 220230Z 19009KT 7000 -RA BKN042 02/02 Q1019
                        R11/19//95=
201812220300 METAR LRTR 220300Z 18008KT 8000 -RA OVC036 02/02 Q1018 R11/19//95=
201812220330 METAR LRTR 220330Z 18009KT 9000 -RA BKN042 02/02 Q1018 R11/19//95=
201812220400 METAR LRTR 220400Z 19009KT 9000 SCT048 03/02 Q1018 R11/19//95=
201812220430 METAR LRTR 220430Z 19009KT CAVOK 03/02 Q1018 R11/CLRD//=
201812220500 METAR LRTR 220500Z 19010KT CAVOK 03/02 Q1018 R11/CLRD//=
201812220530 METAR LRTR 220530Z 16006KT CAVOK 03/02 Q1018 R11/CLRD//=
201812220600 METAR LRTR 220600Z 18006KT 9999 FEW039 03/02 Q1018=
201812220630 METAR LRTR 220630Z 18004KT 9999 -RA FEW035 03/02 Q1018 R11/190095=
201812220700 METAR LRTR 220700Z 19006KT 9999 -RA BKN041 03/02 Q1018 R11/190095=
201812220730 METAR LRTR 220730Z 18010KT 9999 BKN044 03/02 Q1018 R11/190095=
201812220800 METAR LRTR 220800Z 16007KT 9999 BKN044 03/02 Q1018 R11/190095=
201812220830 METAR LRTR 220830Z 17008KT 9999 FEW043 03/02 Q1018 R11/190095=
201812220900 METAR LRTR 220900Z 17005KT CAVOK 04/03 Q1018 R11/190095=
201812220930 METAR LRTR 220930Z 16006KT 9999 FEW044 04/03 Q1018 R11/190095=
201812221000 METAR LRTR 221000Z 12005KT 9999 BKN044 03/02 Q1017 R11/190095=
201812221030 METAR LRTR 221030Z 18007KT 9999 SCT045 05/03 Q1017 R11/190095=
201812221100 METAR LRTR 221100Z 18006KT 9999 SCT044 04/03 Q1017 R11/190095=
201812221130 METAR LRTR 221130Z 18007KT 9999 SCT044 04/02 Q1016 R11/190095=
201812221200 METAR LRTR 221200Z 17006KT 9999 SCT043 04/02 Q1016 R11/190095=
201812221230 METAR LRTR 221230Z 18009KT 9999 FEW043 05/02 Q1016 R11/190095=
201812221300 METAR LRTR 221300Z 17005KT CAVOK 04/02 Q1016 R11/190095=
201812221330 METAR COR LRTR 221330Z 17005KT 9999 FEW042 04/03 Q1017 R11/190095=
201812221400 METAR LRTR 221400Z 16005KT 9999 -RA BKN042 04/02 Q1017 R11/190095=
201812221430 METAR LRTR 221430Z 19006KT 9999 -RA BKN042 04/02 Q1016 R11/190095=
201812221500 METAR LRTR 221500Z 19008KT 9999 -RA SCT040 04/02 Q1016 R11/190095=
201812221530 METAR LRTR 221530Z 20008KT 9999 FEW045 04/03 Q1016 R11/190095=
201812221600 METAR LRTR 221600Z 20006KT 9999 SCT043 04/03 Q1016 R11/190095=
201812221630 METAR LRTR 221630Z VRB03KT 9999 -RA SCT041 05/03 Q1017 R11/190095=
201812221700 METAR LRTR 221700Z 22004KT 180V260 9999 -RA SCT040 04/03
                        Q1017 R11/190095 NOSIG=
201812221730 METAR LRTR 221730Z VRB05KT 9999 -RA BKN042 05/04 Q1017 R11/190095
                        NOSIG=
201812221800 METAR LRTR 221800Z 17004KT 9999 BKN042 05/03 Q1017 R11/190095
                        NOSIG=
201812221830 METAR LRTR 221830Z 17006KT 9999 -RA BKN038 04/03 Q1017 R11/190095
                        NOSIG=
201812221900 METAR LRTR 221900Z 19005KT 9999 -RA SCT031 03/03 Q1017 R11/190095
                        NOSIG=
201812221930 METAR LRTR 221930Z 03003KT 320V060 9999 FEW030 04/04 Q1017
                        R11/190095 NOSIG=
201812222000 METAR LRTR 222000Z 11005KT 030V150 8000 NSC 02/02 Q1017 R11/190095
                        NOSIG=
201812222030 METAR LRTR 222030Z 14006KT 7000 NSC 02/02 Q1017 R11/190095
                        BECMG 5000 BR=
201812222100 METAR LRTR 222100Z 12004KT 6000 NSC 02/02 Q1018 R11/190095
                        BECMG 5000 BR=
201812222130 METAR LRTR 222130Z 16003KT 5000 BR NSC 02/02 Q1018 R11/190095
                        NOSIG=
201812222200 METAR COR LRTR 222200Z 17005KT 5000 BR NSC 03/03 Q1017 R11/190095
                        NOSIG=
201812222230 METAR LRTR 222230Z 13004KT 5000 BR NSC 02/02 Q1018 R11/190095
                        NOSIG=
201812222300 METAR LRTR 222300Z 25003KT 220V280 7000 NSC 03/03 Q1018 R11/190095
                        NOSIG=
201812222330 METAR LRTR 222330Z 00000KT 7000 NSC 02/02 Q1018 R11/190095
                        BECMG 5000 BR=
201812230000 METAR LRTR 230000Z 23004KT 200V270 8000 NSC 04/03 Q1018 R11/190095
                        NOSIG=
201812230030 METAR LRTR 230030Z 22005KT 8000 NSC 03/03 Q1018 R11/190095
                        NOSIG=
201812230100 METAR LRTR 230100Z 27007KT CAVOK 03/03 Q1018 R11/190095 NOSIG=
201812230130 METAR LRTR 230130Z 26005KT CAVOK 04/03 Q1018 R11/190095 NOSIG=
201812230200 METAR LRTR 230200Z 28006KT CAVOK 03/03 Q1019 R11/190095 NOSIG=
201812230230 METAR LRTR 230230Z 27004KT CAVOK 03/03 Q1019 R11/190095 NOSIG=
201812230300 METAR LRTR 230300Z 27009KT CAVOK 03/03 Q1019 R11/190095 NOSIG=
201812230330 METAR LRTR 230330Z 33003KT 290V010 CAVOK 02/02 Q1019 R11/190095
                        NOSIG=
201812230400 METAR LRTR 230400Z 27009KT CAVOK 03/03 Q1019 R11/190095 NOSIG=
201812230430 METAR LRTR 230430Z 27005KT CAVOK 02/02 Q1019 R11/190095 NOSIG=
201812230500 METAR LRTR 230500Z 13003KT 090V230 CAVOK 01/01 Q1020 R11/190095=
201812230530 METAR LRTR 230530Z 11005KT CAVOK 00/00 Q1020 R11/190095=
201812230600 METAR COR LRTR 230600Z VRB02KT 8000 NSC M00/M00 Q1020 R11/190095=
201812230630 METAR LRTR 230630Z 17004KT 6000 NSC 00/00 Q1021 R11/190095=
201812230700 METAR LRTR 230700Z 00000KT 8000 NSC 01/01 Q1021 R11/190095=
201812230730 METAR LRTR 230730Z 19003KT 8000 NSC 02/02 Q1021 R11/190095=
201812230800 METAR LRTR 230800Z 00000KT 8000 BKN048 01/01 Q1021 R11/190095=
201812230830 METAR LRTR 230830Z VRB03KT 8000 BKN048 01/01 Q1021 R11/190095=
201812230900 METAR COR LRTR 230900Z VRB02KT 8000 FEW048 02/02 Q1022 R11/190095=
201812230930 METAR LRTR 230930Z VRB01KT 9999 FEW048 02/02 Q1022 R11/190095=
201812231000 METAR LRTR 231000Z 27005KT CAVOK 04/03 Q1021 R11/190095=
201812231030 METAR LRTR 231030Z 28004KT CAVOK 04/03 Q1021 R11/190095=
201812231100 METAR LRTR 231100Z 32004KT CAVOK 04/03 Q1021 R11/190095=
201812231130 METAR LRTR 231130Z 28007KT CAVOK 04/03 Q1021 R11/190095=
201812231200 METAR LRTR 231200Z 28009KT CAVOK 04/03 Q1021 R11/190095=
201812231230 METAR LRTR 231230Z 30004KT 260V360 CAVOK 04/02 Q1021 R11/190095=
201812231300 METAR LRTR 231300Z 30004KT CAVOK 04/03 Q1022 R11/190095=
201812231330 METAR LRTR 231330Z VRB01KT CAVOK 06/03 Q1021 R11/190095=
201812231400 METAR LRTR 231400Z VRB02KT 9999 FEW044 04/03 Q1022 R11/190095=
201812231430 METAR LRTR 231430Z 10007KT 8000 BKN043 02/02 Q1022 R11/190095=
201812231500 METAR LRTR 231500Z 17005KT 9999 BKN042 03/02 Q1022 R11/190095=
201812231530 METAR COR LRTR 231530Z 15006KT 9999 SCT040 02/02 Q1022 R11/190095=
201812231600 METAR COR LRTR 231600Z 17003KT 9999 FEW040 02/02 Q1022 R11/190095=
201812231630 METAR LRTR 231630Z 11005KT 8000 FEW040 00/00 Q1022 R11/190095=
201812231700 METAR LRTR 231700Z 11006KT 6000 NSC 00/00 Q1022 R11/190095=
201812231730 METAR LRTR 231730Z 13003KT 6000 NSC 00/00 Q1022 R11/190095=
201812231800 METAR LRTR 231800Z 10006KT 5000 BR NSC M00/M00 Q1022 R11/190095=
201812231830 METAR LRTR 231830Z 10006KT 5000 BR NSC 00/00 Q1021 R11/190095=
201812231900 METAR LRTR 231900Z 11003KT 5000 BR NSC 01/01 Q1021 R11/190095=
201812231930 METAR LRTR 231930Z 15002KT 5000 BR NSC 01/01 Q1021 R11/190095=
201812232000 METAR LRTR 232000Z 16002KT 5000 BR NSC 00/00 Q1021 R11/190095=
201812232030 METAR LRTR 232030Z 11005KT 4500 BR NSC M00/M00 Q1020 R11/190095=
201812232100 METAR LRTR 232100Z 12004KT 070V130 3000 BR NSC 00/00 Q1020
                        R11/190095=
201812232130 METAR LRTR 232130Z 10005KT 3500 -RA BR NSC 00/00 Q1020 R11/190095=
201812232200 METAR COR LRTR 232200Z 09007KT 3500 -RA BR NSC 01/01 Q1020
                        R11/190095=
201812232230 METAR LRTR 232230Z 11007KT 4500 -RA NSC 01/01 Q1019 R11/190095=
201812232300 METAR LRTR 232300Z 08009KT 5000 BR NSC 01/01 Q1018 R11/190095=
201812232330 METAR LRTR 232330Z 10010KT 7000 NSC 02/02 Q1017 R11/190095=
201812240000 METAR LRTR 240000Z 12009KT 7000 NSC 02/02 Q1016 R11/190095=
201812240030 METAR COR LRTR 240030Z 14008KT 6000 NSC 02/02 Q1017 R11/190095=
201812240100 METAR LRTR 240100Z 09006KT 5000 BR NSC 01/01 Q1016 R11/190095=
201812240130 METAR LRTR 240130Z 12006KT 5000 -RA BKN054 BR NC 01/01 Q1016
                        R11/190095=
201812240200 METAR LRTR 240200Z 12011KT 5000 -RA BR NSC 01/01 Q1014 R11/190095=
201812240230 METAR LRTR 240230Z 13008KT 5000 BR NSC 01/01 Q1013 R11/190095=
201812240300 METAR LRTR 240300Z 15005KT 9000 NSC 02/02 Q1011 R11/190095=
201812240330 METAR LRTR 240330Z 14010KT 9999 FEW047 02/02 Q1010 R11/190095=
201812240400 METAR LRTR 240400Z 14007KT 9999 SCT046 03/02 Q1010 R11/190095=
201812240430 METAR LRTR 240430Z 15007KT 9999 OVC044 04/03 Q1009 R11/190095=
201812240500 METAR LRTR 240500Z 17008KT 9999 BKN046 04/03 Q1008 R11/190095=
201812240530 METAR LRTR 240530Z 18009KT 9999 BKN046 04/03 Q1008 R11/190095
                        NOSIG=
201812240600 METAR LRTR 240600Z 19010KT 9999 BKN044 04/03 Q1007 R11/190095
                        NOSIG=
201812240630 METAR LRTR 240630Z 20012KT 9999 -RA SCT045 05/03 Q1006 R11/190095
                        NOSIG=
201812240700 METAR LRTR 240700Z 20014KT 9999 SCT045 05/04 Q1006 R11/190095
                        NOSIG=
201812240730 METAR LRTR 240730Z 20014KT 9999 -RA SCT048 05/04 Q1005 R11/190095
                        NOSIG=
201812240800 METAR LRTR 240800Z 20013KT 9999 -RA SCT048 05/04 Q1005 R11/190095
                        NOSIG=
201812240830 METAR LRTR 240830Z 20011KT 9000 -RA BKN047 05/04 Q1005 R11/190095
                        TEMPO 5000 RA=
201812240900 METAR LRTR 240900Z 22011KT 9999 -RA FEW035 BKN045 06/04 Q1005
                        R11/190095 TEMPO 5000 RA=
201812240930 METAR LRTR 240930Z 23013KT 9999 -RA SCT026 BKN044 06/05 Q1005
                        R11/190095 NOSIG=
201812241000 METAR LRTR 241000Z 23009KT 9999 -RA SCT021 BKN044 06/05 Q1005
                        R11/290095 NOSIG=
201812241030 METAR LRTR 241030Z 27016KT 9999 -RA FEW019 SCT025 BKN044
                        05/04 Q1006 R11/290095 NOSIG=
201812241100 METAR LRTR 241100Z 27014KT 9999 SCT019 OVC045 04/04 Q1006
                        R11/290095 NOSIG=
201812241130 METAR LRTR 241130Z 28013KT 9999 SCT014 OVC047 04/04 Q1006
                        R11/290095 NOSIG=
201812241200 METAR LRTR 241200Z 29010KT 9999 FEW012 SCT018 OVC047 04/04
                        Q1007 R11/290095 NOSIG=
201812241230 METAR LRTR 241230Z 31011KT 9999 -RA BKN015 OVC040 04/04 Q1008
                        R11/290095 NOSIG=
201812241300 METAR LRTR 241300Z 32014KT 9999 -RA BKN013 OVC040 03/03 Q1010
                        R11/290095 NOSIG=
201812241330 METAR LRTR 241330Z 32016KT 9999 -RA BKN011 OVC045 03/03 Q1011
                        R11/290095 NOSIG=
201812241400 METAR LRTR 241400Z 32014KT 9999 -RA SCT012 SCT027 OVC047
                        03/03 Q1011 R11/290095 NOSIG=
201812241430 METAR COR LRTR 241430Z 33016KT 9999 -RA SCT015 BKN045 03/03
                        Q1013 R11/290095 NOSIG=
201812241500 METAR LRTR 241500Z 32012KT 9999 -RA SCT016 SCT025 03/03 Q1014
                        R11/290095 NOSIG=
201812241530 METAR LRTR 241530Z 31009KT 9999 SCT018 SCT028 02/02 Q1015
                        R11/290095 NOSIG=
201812241600 METAR LRTR 241600Z 32011KT 9999 SCT020 03/03 Q1015 R11/290095
                        NOSIG=
201812241630 METAR LRTR 241630Z 31009KT 9999 FEW025 SCT036 03/03 Q1016
                        R11/290095 NOSIG=
201812241700 METAR LRTR 241700Z 35015KT 9999 -SHRA BKN016 FEW035CB OVC040
                        03/02 Q1017 R11/290095 TEMPO 5000
                        SHRA=
201812241730 METAR LRTR 241730Z 36016KT 9999 -RA BKN018 FEW033CB BKN035
                        03/00 Q1017 R11/290095=
201812241800 METAR COR LRTR 241800Z 34018KT 9999 -SHRA FEW017 FEW033CB
                        OVC039 03/M01 Q1018 R11/290095=
201812241830 METAR LRTR 241830Z 35020KT 9999 -RA FEW025 BKN047 02/M01
                        Q1019 R11/290095=
201812241900 METAR LRTR 241900Z 35015KT 9999 FEW017 BKN045 01/M00 Q1020
                        R11/290095=
201812241930 METAR LRTR 241930Z 34012KT 9999 BKN045 02/M01 Q1020 R11/290095=
201812242000 METAR LRTR 242000Z 34011KT 9999 BKN048 02/M00 Q1021 R11/290095=
201812242030 METAR LRTR 242030Z 33013KT 9999 BKN048 02/00 Q1021 R11/290095=
201812242100 METAR LRTR 242100Z 34013KT CAVOK 02/00 Q1022 R11/290095=
201812242130 METAR COR LRTR 242130Z 32011KT CAVOK 01/01 Q1022 R11/290095=
201812242200 METAR LRTR 242200Z 32010KT CAVOK 01/01 Q1022 R11/290095=
201812242230 METAR COR LRTR 242230Z 32009KT CAVOK 01/00 Q1023 R11/290095=
201812242300 METAR LRTR 242300Z 32009KT CAVOK 01/00 Q1023 R11/290095=
201812242330 METAR COR LRTR 242330Z 33011KT CAVOK 01/00 Q1023 R11/290095=
201812250000 METAR LRTR 250000Z 31008KT CAVOK 01/01 Q1023 R11/290095=
201812250030 METAR LRTR 250030Z 31006KT CAVOK 01/M00 Q1024 R11/290095=
201812250100 METAR LRTR 250100Z 30006KT CAVOK 01/00 Q1024 R11/290095=
201812250130 METAR COR LRTR 250130Z 31006KT CAVOK 01/M00 Q1025 R11/290095=
201812250200 METAR LRTR 250200Z 30007KT CAVOK 00/M00 Q1025 R11/290095=
201812250230 METAR LRTR 250230Z 31007KT CAVOK 00/M00 Q1025 R11/290095=
201812250300 METAR LRTR 250300Z 31005KT CAVOK M00/M01 Q1025 R11/290095=
201812250330 METAR LRTR 250330Z 31005KT CAVOK M01/M01 Q1025 R11/290095=
201812250400 METAR COR LRTR 250400Z 29004KT CAVOK M01/M01 Q1025 R11/290095=
201812250430 METAR LRTR 250430Z 28005KT CAVOK M01/M01 Q1025 R11/290095=
201812250500 METAR LRTR 250500Z 28004KT CAVOK M01/M01 Q1025 R11/290095
                        NOSIG=
201812250530 METAR LRTR 250530Z 28005KT CAVOK M01/M01 Q1025 R11/290095
                        NOSIG=
201812250600 METAR LRTR 250600Z 28006KT CAVOK M01/M01 Q1026 R11/290095
                        NOSIG=
201812250630 METAR LRTR 250630Z 28006KT CAVOK M01/M02 Q1026 R11/290095
                        NOSIG=
201812250700 METAR LRTR 250700Z 30004KT CAVOK M01/M02 Q1026 R11/290095
                        NOSIG=
201812250730 METAR LRTR 250730Z 29004KT CAVOK M01/M01 Q1026 R11/290095
                        NOSIG=
201812250800 METAR LRTR 250800Z 31003KT CAVOK M00/M01 Q1026 R11/290095
                        NOSIG=
201812250830 METAR LRTR 250830Z 29004KT 9999 BKN042 M01/M02 Q1026 R11/290095
                        NOSIG=
201812250900 METAR LRTR 250900Z 30006KT 9999 BKN042 M01/M02 Q1026 R11/290095
                        NOSIG=
201812250930 METAR LRTR 250930Z 30005KT 9999 SCT045 M00/M01 Q1026 R11/290095
                        NOSIG=
201812251000 METAR LRTR 251000Z 30007KT CAVOK M00/M02 Q1026 NOSIG=
201812251030 METAR LRTR 251030Z 30004KT CAVOK M00/M02 Q1026 NOSIG=
201812251100 METAR LRTR 251100Z 31005KT CAVOK 00/M02 Q1025 NOSIG=
201812251130 METAR LRTR 251130Z 31003KT CAVOK 00/M02 Q1025 NOSIG=
201812251200 METAR LRTR 251200Z 31004KT CAVOK 01/M02 Q1026 NOSIG=
201812251230 METAR LRTR 251230Z 32003KT CAVOK 01/M02 Q1026 NOSIG=
201812251300 METAR LRTR 251300Z 32003KT CAVOK 01/M02 Q1026 NOSIG=
201812251330 METAR LRTR 251330Z VRB02KT CAVOK 01/M03 Q1026 NOSIG=
201812251400 METAR LRTR 251400Z 00000KT CAVOK 00/M02 Q1026 NOSIG=
201812251430 METAR LRTR 251430Z 25005KT CAVOK M00/M02 Q1027 NOSIG=
201812251500 METAR LRTR 251500Z 25005KT CAVOK M01/M02 Q1027 NOSIG=
201812251530 METAR LRTR 251530Z 26007KT CAVOK M01/M02 Q1027 NOSIG=
201812251600 METAR LRTR 251600Z 27005KT CAVOK M02/M02 Q1027 NOSIG=
201812251630 METAR LRTR 251630Z 28007KT CAVOK M02/M03 Q1027 NOSIG=
201812251700 METAR LRTR 251700Z 28007KT CAVOK M03/M03 Q1027 NOSIG=
201812251730 METAR LRTR 251730Z 26005KT CAVOK M02/M03 Q1027 NOSIG=
201812251800 METAR LRTR 251800Z 27003KT CAVOK M02/M03 Q1027 NOSIG=
201812251830 METAR LRTR 251830Z 27004KT CAVOK M03/M03 Q1027 NOSIG=
201812251900 METAR LRTR 251900Z VRB02KT CAVOK M03/M03 Q1027 NOSIG=
201812251930 METAR LRTR 251930Z 10004KT CAVOK M05/M05 Q1028 NOSIG=
201812252000 METAR LRTR 252000Z 11005KT CAVOK M05/M04 Q1027 NOSIG=
201812252030 METAR LRTR 252030Z 11006KT CAVOK M04/M04 Q1028 NOSIG=
201812252100 METAR LRTR 252100Z 09003KT CAVOK M04/M04 Q1028 NOSIG=
201812252130 METAR LRTR 252130Z 12004KT CAVOK M04/M04 Q1028 NOSIG=
201812252200 METAR LRTR 252200Z 13004KT 9999 FEW006 SCT014 M03/M03 Q1028
                        NOSIG=
201812252230 METAR LRTR 252230Z 13004KT 9999 SCT005 BKN014 M02/M02 Q1028
                        NOSIG=
201812252300 METAR LRTR 252300Z 12004KT 9999 BKN004 OVC014 M02/M02 Q1028
                        NOSIG=
201812252330 METAR LRTR 252330Z 12004KT 9999 OVC004 M02/M02 Q1028 NOSIG=
201812260000 METAR LRTR 260000Z 14005KT 9999 OVC004 M01/M01 Q1028 NOSIG=
201812260030 METAR LRTR 260030Z 15004KT 8000 OVC003 M01/M01 Q1028 NOSIG=
201812260100 METAR LRTR 260100Z 16004KT 7000 FEW002 OVC003 M01/M01 Q1028
                        BECMG 5000 BR=
201812260130 METAR LRTR 260130Z 20003KT 5000 BR FEW002 OVC004 M00/M00
                        Q1027 NOSIG=
201812260200 METAR LRTR 260200Z 19003KT 5000 BR BKN004 OVC021 M00/M00
                        Q1027 NOSIG=
201812260230 METAR LRTR 260230Z 17002KT 5000 BR SCT004 OVC022 M00/M00
                        Q1027 NOSIG=
201812260300 METAR LRTR 260300Z 15002KT 5000 BR SCT006 OVC024 M00/M00
                        Q1027 NOSIG=
201812260330 METAR LRTR 260330Z VRB01KT 7000 FEW007 OVC023 00/M00 Q1027
                        NOSIG=
201812260400 METAR LRTR 260400Z VRB02KT 8000 FEW007 OVC021 M00/M00 Q1027
                        NOSIG=
201812260430 METAR LRTR 260430Z 00000KT 9999 SCT021 OVC033 00/00 Q1027
                        NOSIG=
201812260500 METAR LRTR 260500Z 00000KT 9999 SCT021 OVC030 00/00 Q1027
                        NOSIG=
201812260530 METAR LRTR 260530Z 14003KT 7000 BKN021 OVC030 M00/M00 Q1027=
201812260600 METAR LRTR 260600Z 20005KT 9999 BKN022 OVC035 00/00 Q1027=
201812260630 METAR LRTR 260630Z 20006KT 9999 BKN020 OVC035 00/00 Q1027=
201812260700 METAR LRTR 260700Z 19005KT 9999 BKN021 OVC036 00/00 Q1028=
201812260730 METAR LRTR 260730Z 20005KT 9999 OVC021 00/00 Q1028=
201812260800 METAR LRTR 260800Z 24005KT 9999 BKN021 OVC036 01/01 Q1028=
201812260830 METAR LRTR 260830Z 25007KT 9999 BKN021 OVC036 01/00 Q1028=
201812260900 METAR LRTR 260900Z 24008KT 200V260 9999 OVC022 01/01 Q1028=
201812260930 METAR LRTR 260930Z 24006KT 9999 OVC024 01/00 Q1027=
201812261000 METAR LRTR 261000Z 24006KT 9999 OVC028 01/00 Q1027=
201812261030 METAR LRTR 261030Z 24007KT 9999 BKN030 OVC048 01/00 Q1027=
201812261100 METAR LRTR 261100Z 25006KT 9999 BKN030 01/01 Q1026=
201812261130 METAR LRTR 261130Z 25007KT 9999 BKN030 02/01 Q1026=
201812261200 METAR LRTR 261200Z 26007KT 9999 BKN031 02/01 Q1026=
201812261230 METAR LRTR 261230Z 25008KT 9999 BKN034 02/01 Q1026=
201812261300 METAR LRTR 261300Z 24007KT 9999 BKN035 02/01 Q1026=
201812261330 METAR LRTR 261330Z 25007KT 9999 OVC036 02/01 Q1026=
201812261400 METAR LRTR 261400Z 26008KT 9999 BKN038 02/01 Q1026=
201812261430 METAR LRTR 261430Z 26007KT 9999 FEW039 02/01 Q1026=
201812261500 METAR LRTR 261500Z 26006KT CAVOK 02/01 Q1025=
201812261530 METAR LRTR 261530Z AUTO 26006KT 9999 BKN053/// 02/01 Q1025=
201812261600 METAR LRTR 261600Z 27005KT 9999 FEW034 02/01 Q1025=
201812261630 METAR LRTR 261630Z 27005KT 9999 FEW038 02/01 Q1025=
201812261700 METAR LRTR 261700Z 30003KT 270V330 9999 BKN035 01/01 Q1025
                        NOSIG=
201812261730 METAR LRTR 261730Z 00000KT 9999 BKN040 01/01 Q1025 NOSIG=
201812261800 METAR LRTR 261800Z 00000KT 7000 BKN042 00/00 Q1025 BECMG
                        5000 BR=
201812261830 METAR LRTR 261830Z 00000KT 6000 BKN045 01/01 Q1025 BECMG
                        5000 BR=
201812261900 METAR LRTR 261900Z 00000KT 5000 BR BKN046 00/00 Q1025 NOSIG=
201812261930 METAR LRTR 261930Z 00000KT 5000 BR OVC046 M00/M00 Q1025 NOSIG=
201812262000 METAR LRTR 262000Z 07004KT 5000 BR OVC046 M00/M00 Q1025 NOSIG=
201812262030 METAR LRTR 262030Z 07003KT 5000 BR FEW034 OVC045 M00/M00
                        Q1025 NOSIG=
201812262100 METAR LRTR 262100Z 10004KT 4500 BR OVC043 M00/M00 Q1025 BECMG
                        3000 BR=
201812262130 METAR LRTR 262130Z 00000KT 4000 BR OVC042 M00/M00 Q1025 BECMG
                        3000 BR=
201812262200 METAR LRTR 262200Z 00000KT 3000 BR OVC042 M00/M00 Q1025 NOSIG=
201812262230 METAR LRTR 262230Z 00000KT 3000 BR OVC042 M00/M00 Q1025 NOSIG=
201812262300 METAR LRTR 262300Z 00000KT 3000 BR OVC042 M00/M00 Q1025 NOSIG=
201812262330 METAR LRTR 262330Z 00000KT 3000 BR BKN042 M00/M00 Q1025 NOSIG=
201812270000 METAR LRTR 270000Z 00000KT 3000 1000E R11/P2000 R29/0700N
                        BCFG BR SCT040 M00/M00 Q1025 TEMPO
                        1500 BCFG=
201812270030 METAR LRTR 270030Z 29002KT 3000 1000E R11/P2000 R29/0500N
                        BCFG BR NSC M01/M01 Q1026 TEMPO 1500
                        BCFG=
201812270100 METAR LRTR 270100Z 27002KT 1500 R11/0550D R29/0900D BCFG
                        BR NSC M02/M02 Q1026 TEMPO 0800 FZFG=
201812270130 METAR LRTR 270130Z 24003KT 3000 BR NSC M01/M01 Q1026 NOSIG=
201812270200 METAR LRTR 270200Z 27004KT 3000 BR NSC M01/M01 Q1026 NOSIG=
201812270230 METAR LRTR 270230Z 30002KT 3000 BR NSC M02/M02 Q1026 NOSIG=
201812270300 METAR LRTR 270300Z 00000KT 2500 BR NSC M02/M02 Q1026 TEMPO
                        1500 BR=
201812270330 METAR LRTR 270330Z 00000KT 2500 BR NSC M02/M02 Q1026 TEMPO
                        1500 BR=
201812270400 METAR LRTR 270400Z 00000KT 3000 BR NSC M02/M02 Q1026 NOSIG=
201812270430 METAR LRTR 270430Z 00000KT 4000 BR NSC M02/M02 Q1026 NOSIG=
201812270500 METAR LRTR 270500Z 26002KT 5000 BR BKN048 M01/M01 Q1026 NOSIG=
201812270530 METAR LRTR 270530Z VRB01KT 5000 BR BKN048 M01/M01 Q1027=
201812270600 METAR LRTR 270600Z 00000KT 4000 BR BKN048 M01/M01 Q1027=
201812270630 METAR LRTR 270630Z VRB01KT 3000 MIFG BR SCT048 M03/M03 Q1027=
201812270700 METAR LRTR 270700Z VRB01KT 2000 1000E R11/1200U R29/0300N
                        BCFG BR FEW048 M03/M03 Q1027=
201812270730 METAR LRTR 270730Z 11002KT 0300 R11/0400N R29/0250N BCFG
                        BR FEW048 M03/M03 Q1027=
201812270800 METAR LRTR 270800Z VRB01KT 0600 R11/0700N R29/0300N BCFG
                        BR FEW048 M03/M03 Q1028=
201812270830 METAR LRTR 270830Z VRB01KT 1000 R11/P2000U R29/1100U BCFG
                        BR NSC M02/M02 Q1028=
201812270900 METAR LRTR 270900Z 12004KT 3000 BR NSC M01/M01 Q1028=
201812270930 METAR LRTR 270930Z 16004KT 5000 BR NSC M00/M00 Q1027=
201812271000 METAR LRTR 271000Z 16004KT 8000 NSC 00/00 Q1027=
201812271030 METAR LRTR 271030Z 17004KT CAVOK 01/00 Q1027=
201812271100 METAR LRTR 271100Z 17005KT CAVOK 01/00 Q1027=
201812271130 METAR LRTR 271130Z 14005KT CAVOK 02/01 Q1026=
201812271200 METAR COR LRTR 271200Z 17006KT CAVOK 02/01 Q1026=
201812271230 METAR LRTR 271230Z 18006KT 9999 FEW020 03/01 Q1027=
201812271300 METAR LRTR 271300Z 19006KT 9999 BKN018 03/01 Q1026=
201812271330 METAR LRTR 271330Z 16004KT 9999 BKN019 02/02 Q1026=
201812271400 METAR LRTR 271400Z 16004KT 9999 BKN019 02/02 Q1026=
201812271430 METAR LRTR 271430Z 14004KT 9999 BKN022 02/02 Q1026=
201812271500 METAR LRTR 271500Z 13004KT 8000 SCT015 BKN022 01/01 Q1026=
201812271530 METAR LRTR 271530Z 13004KT 8000 FEW014 BKN020 02/02 Q1026=
201812271600 METAR LRTR 271600Z 11005KT 6000 SCT014 BKN025 01/01 Q1026=
201812271630 METAR LRTR 271630Z 15005KT 6000 FEW014 BKN025 02/02 Q1026=
201812271700 METAR LRTR 271700Z VRB01KT 6000 FEW012 BKN025 01/01 Q1026=
201812271730 METAR LRTR 271730Z 14005KT 6000 FEW015 BKN026 02/02 Q1026=
201812271800 METAR LRTR 271800Z 14004KT 6000 FEW015 BKN025 02/02 Q1026=
201812271830 METAR LRTR 271830Z 11004KT 5000 BR FEW015 BKN024 01/01 Q1026=
201812271900 METAR LRTR 271900Z 16004KT 5000 BR OVC026 02/02 Q1026=
201812271930 METAR LRTR 271930Z 15002KT 6000 OVC025 02/02 Q1026=
201812272000 METAR LRTR 272000Z 15003KT 6000 OVC026 02/01 Q1026=
201812272030 METAR LRTR 272030Z 13005KT 5000 BR OVC029 01/01 Q1026=
201812272100 METAR LRTR 272100Z 16005KT 3000 BR OVC028 02/02 Q1026=
201812272130 METAR LRTR 272130Z 16004KT 3000 BR OVC027 02/02 Q1026=
201812272200 METAR COR LRTR 272200Z 15005KT 3000 BR OVC031 02/02 Q1025=
201812272230 METAR LRTR 272230Z 16006KT 2500 BR OVC027 02/02 Q1025=
201812272300 METAR LRTR 272300Z 17006KT 3500 BR OVC024 02/02 Q1025=
201812272330 METAR LRTR 272330Z 18004KT 3500 BR OVC023 02/02 Q1025=
201812280000 METAR LRTR 280000Z 19004KT 5000 BR OVC015 02/02 Q1025=
201812280030 METAR LRTR 280030Z 18005KT 5000 BR OVC013 02/02 Q1025=
201812280100 METAR LRTR 280100Z 16006KT 5000 BR SCT013 OVC019 02/02 Q1025=
201812280130 METAR LRTR 280130Z 17005KT 3500 BR SCT011 OVC018 02/02 Q1024=
201812280200 METAR LRTR 280200Z 17005KT 4000 BR SCT010 OVC018 02/02 Q1024=
201812280230 METAR LRTR 280230Z 18005KT 2500 BR BKN005 OVC013 02/02 Q1024=
201812280300 METAR LRTR 280300Z 17005KT 2500 BR SCT006 BKN023 OVC026 02/02
                        Q1024=
201812280330 METAR LRTR 280330Z 17004KT 2500 BR SCT007 OVC024 02/02 Q1024=
201812280400 METAR LRTR 280400Z 17006KT 2500 BR SCT007 BKN024 OVC035 02/02
                        Q1023=
201812280430 METAR LRTR 280430Z 17005KT 3000 BR SCT007 BKN026 OVC035 02/02
                        Q1023=
201812280500 METAR LRTR 280500Z 15004KT 4500 BR BKN029 OVC036 02/02 Q1023=
201812280530 METAR LRTR 280530Z 17004KT 3500 BR BKN029 02/02 Q1023=
201812280600 METAR LRTR 280600Z 17004KT 5000 BR BKN028 02/02 Q1023=
201812280630 METAR LRTR 280630Z 16004KT 3500 BR BKN034 02/02 Q1024=
201812280700 METAR LRTR 280700Z 17004KT 3500 BR OVC041 02/02 Q1023=
201812280730 METAR LRTR 280730Z 14003KT 3000 BR OVC040 02/02 Q1023=
201812280800 METAR LRTR 280800Z 16004KT 3500 BR OVC041 03/03 Q1023=
201812280830 METAR LRTR 280830Z 17005KT 4500 BR BKN046 03/03 Q1023=
201812280900 METAR LRTR 280900Z 19004KT 5000 BR SCT038 OVC048 04/04 Q1023=
201812280930 METAR LRTR 280930Z 23005KT 6000 BKN038 04/04 Q1023=
201812281000 METAR LRTR 281000Z 22004KT 8000 BKN037 05/04 Q1023=
201812281030 METAR LRTR 281030Z 22004KT 9000 BKN039 05/04 Q1022=
201812281100 METAR LRTR 281100Z 27003KT 240V320 9000 BKN042 05/04 Q1022=
201812281130 METAR LRTR 281130Z 24003KT 170V270 7000 -RA FEW020 OVC035
                        05/05 Q1022=
201812281200 METAR LRTR 281200Z VRB01KT 5000 -RA BR SCT022 OVC035 04/04
                        Q1022=
201812281230 METAR LRTR 281230Z 11004KT 2500 -RA BR OVC023 04/04 Q1022
                        R11/190095=
201812281300 METAR LRTR 281300Z 17004KT 3000 -RA BR SCT024 04/04 Q1022
                        R11/190095=
201812281330 METAR LRTR 281330Z 21006KT 2600 -RA BR FEW024 05/05 Q1021
                        R11/290095=
201812281400 METAR LRTR 281400Z 22005KT 2500 -RA BR FEW009 05/05 Q1021
                        R11/290095=
201812281430 METAR LRTR 281430Z 25005KT 8000 -RA FEW008 OVC048 05/05 Q1021
                        R11/290095=
201812281500 METAR LRTR 281500Z 29002KT 5000 RA BR BKN005 OVC030 05/05
                        Q1021 R11/290095=
201812281530 METAR LRTR 281530Z VRB02KT 7000 -RA FEW006 OVC030 05/05 Q1021
                        RERA R11/290095=
201812281600 METAR LRTR 281600Z 22005KT 6000 -RA FEW007 OVC029 05/05 Q1021
                        R11/290095=
201812281630 METAR LRTR 281630Z 22005KT 5000 -RA BR FEW010 OVC029 05/05
                        Q1021 R11/290095=
201812281700 METAR LRTR 281700Z 23004KT 6000 -RA BKN015 OVC040 05/05 Q1021
                        R11/290095=
201812281730 METAR LRTR 281730Z 26007KT 5000 -RA BR BKN010 OVC018 05/05
                        Q1021 R11/290095=
201812281800 METAR COR LRTR 281800Z 27008KT 5000 -SHRA BKN012 FEW025CB
                        OVC030 05/05 Q1021 R11/290095=
201812281830 METAR LRTR 281830Z 24006KT 4000 SHRA BKN011 SCT025CB OVC035
                        05/05 Q1021 R11/290095=
201812281900 METAR LRTR 281900Z 27006KT 4000 -RA BR BKN010 OVC030 05/05
                        Q1021 RESHRA R11/290095=
201812281930 METAR LRTR 281930Z 29006KT 5000 -RA BR FEW008 BKN012 OVC030
                        04/04 Q1021 R11/290095=
201812282000 METAR LRTR 282000Z 28004KT 4000 BR FEW008 OVC016 04/04 Q1021
                        R11/290095=
201812282030 METAR LRTR 282030Z 28004KT 4000 BR OVC018 04/04 Q1021 R11/290095=
201812282100 METAR COR LRTR 282100Z 28004KT 4000 BR OVC018 04/04 Q1021
                        R11/290095=
201812282130 METAR LRTR 282130Z 28005KT 3000 BR OVC020 04/04 Q1021 R11/290095=
201812282200 METAR LRTR 282200Z 29006KT 3000 BR OVC022 04/04 Q1021 R11/290095=
201812282230 METAR LRTR 282230Z 28006KT 4000 BR OVC015 04/04 Q1021 R11/290095=
201812282300 METAR COR LRTR 282300Z 29006KT 3500 RA BR BKN012 OVC025 04/04
                        Q1021 R11/290095=
201812282330 METAR LRTR 282330Z 28005KT 4000 -RA BKN015 OVC025 04/04 Q1022
                        RERA R11/290095=
201812290000 METAR COR LRTR 290000Z 30007KT 4000 -RA BR SCT010 BKN015
                        OVC025 04/04 Q1022 R11/290095=
201812290030 METAR LRTR 290030Z 30008KT 5000 -RA BR BKN008 BKN020 OVC045
                        04/04 Q1022 R11/290095=
201812290100 METAR LRTR 290100Z 32007KT 5000 BR BKN006 OVC048 04/04 Q1022
                        R11/290095=
201812290130 METAR LRTR 290130Z 33007KT 1500 BR BKN002 OVC006 04/04 Q1022
                        R11/290095=
201812290200 METAR COR LRTR 290200Z 34007KT 1500 BR OVC002 04/04 Q1022
                        R11/290095=
201812290230 METAR COR LRTR 290230Z 33006KT 0500 R11/1300N R29/1600D FG
                        OVC002 04/04 Q1022 R11/290095=
201812290300 METAR LRTR 290300Z 34006KT 0800 R11/P2000 R29/P2000 FG OVC002
                        04/04 Q1022 R11/290095=
201812290330 METAR LRTR 290330Z 35004KT 1500 BR OVC002 04/04 Q1022 R11/290095=
201812290400 METAR LRTR 290400Z 34004KT 1500 BR BKN002 OVC004 04/04 Q1023
                        R11/290095=
201812290430 METAR LRTR 290430Z 34004KT 310V030 2000 BR SCT002 OVC004
                        04/04 Q1023 R11/290095=
201812290500 METAR LRTR 290500Z 34005KT 300V010 1500 BR FEW001 OVC002
                        04/04 Q1024 R11/290095=
201812290530 METAR LRTR 290530Z 32006KT 0900 R11/1100U R29/P2000 FG BKN001
                        OVC002 04/04 Q1024 R11/290095 TEMPO
                        0600 FG=
201812290600 METAR LRTR 290600Z 31004KT 1500 R11/P2000 R29/1200U BR BKN001
                        OVC002 03/03 Q1024 R11/290095 NOSIG=
201812290630 METAR LRTR 290630Z 31006KT 1500 BR OVC001 03/03 Q1024 R11/290095
                        BECMG 3000=
201812290700 METAR LRTR 290700Z 33007KT 1100 R11/1300D R29/P2000 BR OVC001
                        03/03 Q1025 R11/290095 TEMPO 0800
                        FG=
201812290730 METAR LRTR 290730Z 32005KT 0800 R11/1600N R29/0750N FG OVC001
                        03/03 Q1025 R11/290095 BECMG 1500
                        BR=
201812290800 METAR LRTR 290800Z 30003KT 1500 BR OVC001 03/03 Q1025 R11/290095
                        NOSIG=
201812290830 METAR LRTR 290830Z 31004KT 2000 BR BKN001 04/04 Q1025 R11/290095
                        BECMG 3000 BKN002=
201812290900 METAR LRTR 290900Z 28004KT 1800 BR BKN002 OVC004 04/04 Q1026
                        R11/290095 BECMG 3000=
201812290930 METAR LRTR 290930Z VRB02KT 1500 BR BKN001 OVC004 03/03 Q1026
                        R11/290095 BECMG 3000=
201812291000 METAR LRTR 291000Z 25004KT 2000 BR BKN002 OVC005 04/04 Q1026
                        R11/290095 BECMG 3000 OVC005=
201812291030 METAR LRTR 291030Z 26007KT 2500 BR OVC003 04/04 Q1025 R11/290095
                        BECMG 3000 OVC005=
201812291100 METAR LRTR 291100Z 26005KT 230V290 3000 BR BKN005 04/04 Q1025
                        R11/290095 BECMG 5000 BKN010=
201812291130 METAR LRTR 291130Z 29005KT 260V320 5000 BR SCT005 04/04 Q1025
                        R11/290095 NOSIG=
201812291200 METAR LRTR 291200Z 29004KT 260V320 6000 SCT007 04/04 Q1025
                        R11/290095 NOSIG=
201812291230 METAR LRTR 291230Z 28005KT 7000 BKN008 05/05 Q1025 R11/290095
                        TEMPO 5000 BR BKN005=
201812291300 METAR LRTR 291300Z 26005KT 6000 OVC007 05/05 Q1025 R11/290095
                        TEMPO 5000 BR OVC005=
201812291330 METAR LRTR 291330Z 28006KT 5000 BR BKN007 05/05 Q1026 R11/19//95
                        NOSIG=
201812291400 METAR LRTR 291400Z 29006KT 5000 BR BKN008 04/04 Q1026 R11/19//95
                        NOSIG=
201812291430 METAR LRTR 291430Z VRB01KT 6000 SCT007 04/04 Q1026 R11/19//95
                        BECMG 5000 BR=
201812291500 METAR LRTR 291500Z 00000KT 5000 BR FEW007 04/04 Q1026 R11/19//95
                        NOSIG=
201812291530 METAR LRTR 291530Z 19003KT 5000 BR SCT008 04/04 Q1026 R11/19//95
                        BECMG BKN008=
201812291600 METAR LRTR 291600Z 17003KT 5000 BR SCT008 BKN012 04/04 Q1026
                        R11/19//95 BECMG BKN008=
201812291630 METAR LRTR 291630Z 20004KT 5000 BR BKN010 04/04 Q1027 R11/19//95
                        NOSIG=
201812291700 METAR LRTR 291700Z 19003KT 170V230 4500 BR SCT012 BKN048
                        04/04 Q1026 R11/19//95=
201812291730 METAR LRTR 291730Z 21003KT 5000 BR FEW047 04/04 Q1026 R11/19//95=
201812291800 METAR LRTR 291800Z 18004KT 4500 BR NSC 04/03 Q1026 R11/19//95=
201812291830 METAR LRTR 291830Z 12002KT 3500 BR NSC 03/03 Q1026 R11/19//95=
201812291900 METAR LRTR 291900Z 15002KT 2000 BR NSC 03/03 Q1026 R11/19//95=
201812291930 METAR LRTR 291930Z 18002KT 1500 R11/2000D R29/1000U BR NSC
                        03/03 Q1026 R11/19//95=
201812292000 METAR COR LRTR 292000Z VRB01KT 2000 R11/1800D R29/1200U BR
                        FEW001 02/02 Q1026 R11/19//95=
201812292030 METAR LRTR 292030Z 10004KT 1200 R11/1800D R29/0900D PRFG
                        FEW001 03/03 Q1026 R11/19//95=
201812292100 METAR LRTR 292100Z 11003KT 0550 R11/0650D R29/0650N FG FEW001
                        02/02 Q1026 R11/19//95=
201812292130 METAR LRTR 292130Z 11004KT 0500 R11/0550N R29/0800N FG BKN001
                        02/02 Q1026 R11/19//95=
201812292200 METAR LRTR 292200Z 10004KT 0550 R11/0650N R29/1900N FG BKN002
                        OVC005 02/02 Q1025 R11/19//95=
201812292230 METAR LRTR 292230Z 12005KT 1800 BR BKN002 OVC006 02/02 Q1025
                        R11/19//95=
201812292300 METAR LRTR 292300Z 14002KT 2500 BR BKN002 OVC013 03/03 Q1025
                        R11/19//95=
201812292330 METAR LRTR 292330Z 13003KT 2500 BR SCT002 OVC013 03/03 Q1025
                        R11/19//95=
201812300000 METAR LRTR 300000Z 14004KT 2700 BR SCT003 OVC016 03/03 Q1025
                        R11/19//95=
201812300030 METAR LRTR 300030Z 15003KT 2700 BR BKN003 OVC016 03/03 Q1025
                        R11/19//95=
201812300100 METAR LRTR 300100Z 14004KT 2400 BR SCT002 OVC020 03/03 Q1024
                        R11/19//95=
201812300130 METAR LRTR 300130Z 17003KT 2200 BR BKN002 OVC016 03/03 Q1024
                        R11/19//95=
201812300200 METAR LRTR 300200Z 17003KT 2000 BR OVC002 03/03 Q1024 R11/19//95=
201812300230 METAR LRTR 300230Z 16004KT 1700 BR OVC002 03/03 Q1023 R11/19//95=
201812300300 METAR LRTR 300300Z 21003KT 2100 BR SCT001 OVC003 03/03 Q1023
                        R11/19//95=
201812300330 METAR LRTR 300330Z 20001KT 1500 BR BKN001 OVC002 03/03 Q1023
                        R11/19//95=
201812300400 METAR LRTR 300400Z 18002KT 2000 BR OVC003 03/03 Q1023 R11/19//95=
201812300430 METAR LRTR 300430Z 25004KT 4000 BR OVC003 02/02 Q1023 R11/19//95=
201812300500 METAR LRTR 300500Z 28003KT 3800 BR OVC004 02/02 Q1023 R11/19//95=
201812300530 METAR LRTR 300530Z 25003KT 3000 BR BKN004 OVC009 02/02 Q1023
                        R11/19//95=
201812300600 METAR COR LRTR 300600Z 27003KT 4000 BR SCT004 BKN010 02/02
                        Q1023 R11/19//95=
201812300630 METAR LRTR 300630Z 27004KT 3500 -RA BR SCT010 BKN020 02/02
                        Q1024 R11/19//95=
201812300700 METAR LRTR 300700Z 24004KT 3000 -RA BR SCT009 BKN020 02/02
                        Q1024 R11/19//95=
201812300730 METAR LRTR 300730Z 26005KT 2500 -RA BR FEW007 SCT018 BKN030
                        02/02 Q1024 R11/19//95=
201812300800 METAR COR LRTR 300800Z 28007KT 3500 -RA BR FEW007 SCT015
                        BKN030 02/02 Q1024 R11/290095=
201812300830 METAR LRTR 300830Z 27008KT 4000 -RA BR SCT005 BKN030 02/02
                        Q1024 R11/290095=
201812300900 METAR LRTR 300900Z 28006KT 4000 -RA BR SCT005 BKN013 OVC030
                        02/02 Q1024 R11/290095=
201812300930 METAR LRTR 300930Z 27004KT 5000 -RA BR SCT005 BKN015 OVC035
                        03/03 Q1024 R11/290095=
201812301000 METAR LRTR 301000Z 27005KT 5000 -RA BR SCT006 BKN015 OVC035
                        03/03 Q1023 R11/290095=
201812301030 METAR LRTR 301030Z 27005KT 8000 -RA SCT007 BKN015 OVC035
                        03/03 Q1023 R11/290095=
201812301100 METAR LRTR 301100Z 30004KT 8000 -RA FEW007 BKN015 OVC035
                        03/03 Q1023 R11/290095=
201812301130 METAR LRTR 301130Z 29003KT 250V320 8000 -RA SCT008 BKN016
                        OVC030 03/03 Q1022 R11/290095=
201812301200 METAR LRTR 301200Z VRB02KT 9999 -RA BKN009 OVC030 03/03 Q1022
                        R11/290095=
201812301230 METAR LRTR 301230Z 18004KT 8000 SCT009 OVC035 03/03 Q1022
                        R11/290095=
201812301300 METAR LRTR 301300Z 17004KT 5000 BR SCT006 BKN011 OVC035 03/03
                        Q1023 R11/290095=
201812301330 METAR LRTR 301330Z 19004KT 5000 BR SCT007 BKN012 OVC035 03/03
                        Q1023 R11/290095=
201812301400 METAR LRTR 301400Z 18003KT 5000 BR BKN010 OVC030 04/04 Q1023
                        R11/290095=
201812301430 METAR LRTR 301430Z 18004KT 4000 BR SCT010 BKN025 04/04 Q1023
                        R11/290095=
201812301500 METAR LRTR 301500Z 19004KT 3500 BR SCT009 BKN013 OVC025 04/04
                        Q1023 R11/290095=
201812301530 METAR LRTR 301530Z 18003KT 3500 -RA BR BKN012 OVC038 03/03
                        Q1023 R11/290095=
201812301600 METAR LRTR 301600Z 18003KT 4000 BR BKN012 OVC034 03/03 Q1023
                        R11/290095=
201812301630 METAR LRTR 301630Z 19004KT 5000 -RA BR BKN014 OVC035 03/03
                        Q1023 R11/290095=
201812301700 METAR LRTR 301700Z 19004KT 4000 RA BR BKN013 OVC022 03/03
                        Q1023 R11/290095=
201812301730 METAR LRTR 301730Z 18003KT 3000 RA BR BKN008 OVC020 03/03
                        Q1023 R11/290095 TEMPO 1500 RA BR
                        BKN005 OVC010=
201812301800 METAR LRTR 301800Z 20005KT 2000 RA BR BKN007 OVC020 03/03
                        Q1023 R11/290095 TEMPO 1500 RA BR
                        OVC005=
201812301830 METAR LRTR 301830Z 20004KT 1500 RA BR BKN008 OVC020 03/03
                        Q1023 R11/290095 NOSIG=
201812301900 METAR LRTR 301900Z 20005KT 1500 RA BR BKN010 OVC020 04/03
                        Q1023 R11/290095 NOSIG=
201812301930 METAR LRTR 301930Z 18005KT 2000 -RADZ BKN015 OVC022 03/03
                        Q1023 RERA R11/290095 TEMPO 1500
                        BR=
201812302000 METAR LRTR 302000Z 20005KT 3000 -DZRA BR BKN009 OVC022 03/03
                        Q1022 R11/290095 TEMPO 1500 DZ=
201812302030 METAR LRTR 302030Z 24005KT 3000 -DZ BR BKN005 OVC016 04/04
                        Q1022 R11/290095 NOSIG=
201812302100 METAR LRTR 302100Z 26007KT 2500 -DZRA BR BKN005 OVC018 03/03
                        Q1022 R11/290095 TEMPO 1500 RADZ=
201812302130 METAR LRTR 302130Z 25006KT 1500 RA BR BKN004 OVC017 03/03
                        Q1022 R11/290095 NOSIG=
201812302200 METAR LRTR 302200Z 25006KT 2000 -RA BR BKN004 OVC017 03/03
                        Q1022 RERA R11/290095 TEMPO 1500
                        RA BR=
201812302230 METAR LRTR 302230Z 24005KT 2000 -DZRA BR BKN004 OVC018 03/03
                        Q1022 R11/290095 TEMPO 1500 RA BR=
201812302300 METAR LRTR 302300Z 22004KT 1500 -RADZ BR BKN003 OVC018 03/03
                        Q1022 R11/290095 NOSIG=
201812302330 METAR LRTR 302330Z 21004KT 1500 -DZ BR OVC003 03/03 Q1021
                        R11/290095 NOSIG=
201812310000 METAR LRTR 310000Z 19003KT 1500 BR OVC003 03/03 Q1021 R11/290095
                        NOSIG=
201812310030 METAR LRTR 310030Z 19003KT 1500 BR OVC003 03/03 Q1021 R11/290095
                        NOSIG=
201812310100 METAR LRTR 310100Z 20002KT 1500 -DZ BR OVC003 03/03 Q1021
                        R11/290095 NOSIG=
201812310130 METAR LRTR 310130Z 21003KT 1500 -DZ BR SCT001 OVC004 03/03
                        Q1021 R11/290095 NOSIG=
201812310200 METAR LRTR 310200Z 22003KT 1500 -DZ BR SCT001 OVC004 03/03
                        Q1021 R11/290095 NOSIG=
201812310230 METAR LRTR 310230Z 23003KT 1500 R11/P2000 R29/1300N -DZ BR
                        OVC002 03/03 Q1021 R11/290095 NOSIG=
201812310300 METAR LRTR 310300Z 26001KT 1500 -DZ BR OVC002 03/03 Q1021
                        R11/290095 NOSIG=
201812310330 METAR LRTR 310330Z 00000KT 1500 -DZ BR OVC002 03/03 Q1021
                        R11/290095 TEMPO DZ=
201812310400 METAR LRTR 310400Z 00000KT 1500 -DZ BR OVC002 03/03 Q1021
                        R11/290095 TEMPO DZ=
201812310430 METAR LRTR 310430Z 28002KT 2000 -DZ BR OVC002 03/03 Q1021
                        R11/290095 NOSIG=
201812310500 METAR LRTR 310500Z 28002KT 2500 BR OVC002 03/03 Q1021 R11/290095
                        NOSIG=
201812310530 METAR LRTR 310530Z 31003KT 3000 -DZ BR OVC002 03/03 Q1022
                        R11/290095=
201812310600 METAR LRTR 310600Z 32002KT 3000 -DZRA BR SCT002 OVC004 03/03
                        Q1022 R11/290095=
201812310630 METAR COR LRTR 310630Z 32002KT 0800 R11/2000 R29/0700N -DZ
                        FG OVC002 03/03 Q1022 R11/290095=
201812310700 METAR LRTR 310700Z 05003KT 360V070 0100 R11/0450N R29/0450N
                        -DZ FG OVC002 03/03 Q1022 R11/290095=
201812310730 METAR COR LRTR 310730Z 09003KT 0100 R11/0600N R29/0600N FG
                        VV002 04/03 Q1023 R11/290095=
201812310800 METAR COR LRTR 310800Z 09006KT 0150 R11/0500D R29/0600N FG
                        VV002 03/03 Q1023 R11/290095=
201812310830 METAR LRTR 310830Z 10007KT 0200 R11/0700U R29/0750N FG VV002
                        04/04 Q1023 R11/290095=
201812310900 METAR LRTR 310900Z 10006KT 1200 R11/P2000U R29/P2000 BR OVC002
                        04/04 Q1023 R11/290095=
201812310930 METAR LRTR 310930Z 09006KT 3000 BR BKN002 OVC004 03/03 Q1023
                        R11/290095=
201812311000 METAR LRTR 311000Z 09005KT 3000 BR BKN003 OVC006 03/03 Q1023
                        R11/290095=
201812311030 METAR COR LRTR 311030Z 07005KT 9999 BR FEW003 OVC006 04/04
                        Q1023 R11/290095=
201812311100 METAR LRTR 311100Z 06004KT 9999 BKN006 OVC020 04/04 Q1023
                        R11/290095=
201812311130 METAR LRTR 311130Z 07004KT 9999 BKN007 OVC020 04/04 Q1023
                        R11/290095=
201812311200 METAR LRTR 311200Z 04003KT 010V070 9999 FEW007 OVC010 04/04
                        Q1023 R11/190095=
201812311230 METAR COR LRTR 311230Z 03003KT 9999 BKN010 OVC020 04/04 Q1023
                        R11/190095=
201812311300 METAR LRTR 311300Z 35003KT 9999 SCT011 OVC025 04/04 Q1024
                        R11/190095=
201812311330 METAR LRTR 311330Z 36005KT 9999 BKN008 OVC025 05/04 Q1024
                        R11/190095=
201812311400 METAR COR LRTR 311400Z 01005KT 8000 SCT010 SCT020 BKN033
                        05/05 Q1024 R11/190095=
201812311430 METAR LRTR 311430Z 01006KT 9999 FEW014 BKN025 BKN048 05/05
                        Q1024 R11/190095=
201812311500 METAR LRTR 311500Z 01007KT 9999 FEW012 SCT028 BKN048 04/04
                        Q1024 R11/190095=
201812311530 METAR LRTR 311530Z 02007KT 9999 FEW015 SCT025 BKN048 04/04
                        Q1025 R11/190095=
201812311600 METAR LRTR 311600Z 36008KT 6000 -RA FEW012 SCT025 OVC045
                        04/04 Q1025 R11/190095=
201812311630 METAR LRTR 311630Z 35008KT 6000 -RA BKN017 OVC045 04/04 Q1025
                        R11/190095=
201812311700 METAR LRTR 311700Z 36009KT 5000 -RA BR BKN020 OVC046 04/04
                        Q1025 R11/190095=
201812311730 METAR LRTR 311730Z 02011KT 8000 -RA SCT027 OVC045 04/04 Q1026
                        R11/190095=
201812311800 METAR LRTR 311800Z 01011KT 9999 SCT032 BKN045 04/04 Q1026
                        R11/190095=
201812311830 METAR LRTR 311830Z 01011KT 9999 FEW035 SCT048 04/04 Q1026
                        R11/190095=
201812311900 METAR LRTR 311900Z 01013KT 9999 FEW036 SCT048 04/04 Q1026
                        R11/190095=
201812311930 METAR LRTR 311930Z 02017KT 9999 SCT047 03/03 Q1026 R11/190095=
201812312000 METAR LRTR 312000Z 02014KT CAVOK 03/03 Q1027 R11/190095=
201812312030 METAR LRTR 312030Z 02014KT CAVOK 03/02 Q1027 R11/190095=
201812312100 METAR LRTR 312100Z 02013KT CAVOK 03/02 Q1027 R11/190095=
201812312130 METAR LRTR 312130Z 01013KT CAVOK 03/02 Q1027 R11/190095=
201812312200 METAR LRTR 312200Z 01010KT CAVOK 02/02 Q1027 R11/190095=
201812312230 METAR LRTR 312230Z 36010KT CAVOK 02/02 Q1027 R11/190095=
201812312300 METAR LRTR 312300Z 36012KT CAVOK 02/02 Q1027 R11/190095=
201812312330 METAR LRTR 312330Z 36011KT CAVOK 02/02 Q1027 R11/190095=