201812010500 TAF LRTR 010500Z 0106/0206 11006KT CAVOK=
201812011100 TAF LRTR 011100Z 0112/0212 VRB04KT CAVOK
                      BECMG 0206/0208 11010KT=
201812011700 TAF LRTR 011700Z 0118/0218 VRB04KT 9999 BKN040
                      PROB30 TEMPO 0123/0205 BKN015 BKN030
                      BECMG 0205/0207 11010KT=
201812012300 TAF LRTR 012300Z 0200/0224 VRB04KT CAVOK
                      PROB30 TEMPO 0202/0205 BKN015 BKN025
                      BECMG 0205/0207 11010KT=
201812020500 TAF LRTR 020500Z 0206/0306 10007KT CAVOK=
201812021100 TAF LRTR 021100Z 0212/0312 11008KT CAVOK=
201812021700 TAF LRTR 021700Z 0218/0318 12010KT CAVOK
                      BECMG 0315/0317 5000 -RA BKN015 OVC040=
201812022300 TAF LRTR 022300Z 0300/0324 12009KT CAVOK
                      BECMG 0317/0319 5000 -RA BR
                      TEMPO 0320/0324 3000 -RA BR BKN015 BKN045=
201812030500 TAF LRTR 030500Z 0306/0406 12010KT CAVOK
                      BECMG 0318/0320 5000 RA BR BKN015 OVC040
                       TEMPO 0321/0403 3000 RA BR BKN010 OVC035=
201812031100 TAF LRTR 031100Z 0312/0412 14010KT CAVOK
                      BECMG 0318/0320 5000 RA BR BKN015 OVC040
                       PROB40
                      TEMPO 0321/0403 3000 RA BR BKN010 OVC035
                       TEMPO 0408/0412 3000 RA BR BKN010 OVC030=
201812031700 TAF LRTR 031700Z 0318/0418 11006KT CAVOK
                      BECMG 0318/0320 5000 -RA
                      PROB40 TEMPO 0321/0403 3000 RA BR BKN015
                       OVC035
                      BECMG 0403/0405 BKN010 OVC030
                      TEMPO 0408/0414 3000 RA BR BKN005 OVC030=
201812032300 TAF LRTR 032300Z 0400/0424 11006KT 9999 BKN040
                      BECMG 0401/0403 5000 BR BKN010 OVC030
                      TEMPO 0408/0414 3000 -RA BR BKN005 OVC030
                       TEMPO 0414/0419 1500 RADZ BR BKN002 OVC020
                       BECMG 0419/0421 32010KT 9999 NSW=
201812040500 TAF LRTR 040500Z 0406/0506 11006KT 9999 BKN035
                      BECMG 0409/0411 5000 -RA BKN005 OVC030
                      TEMPO 0411/0419 1500 RADZ BR BKN002 OVC020
                       BECMG 0419/0421 32012KT 9999 NSW
                      PROB30 0500/0503 5000 -SN
                      BECMG 0503/0505 SCT020=
201812041100 TAF LRTR 041100Z 0412/0512 11006KT 9999 BKN035
                      BECMG 0412/0414 5000 -RA BKN010 OVC030
                      TEMPO 0414/0419 3000 RA BKN005 OVC020
                      BECMG 0420/0422 34014KT 9999 NSW
                      BECMG 0500/0502 SCT020
                      TEMPO 0502/0508 35015G25KT=
201812041700 TAF LRTR 041700Z 0418/0518 VRB04KT 1500 -DZRA BR BKN005 OVC030
                       TEMPO 0418/0420 0800 -DZ FG BKN002 OVC020
                       BECMG 0422/0424 3000 BR BKN010 BKN035
                      BECMG 0500/0502 35012KT 9999 NSW SCT020
                      PROB40 TEMPO 0502/0507 35015G25KT=
201812042300 TAF LRTR 042300Z 0500/0524 34012KT 5000 BR SCT015 BKN025
                      TEMPO 0500/0506 35015G25KT 3000 BR BKN010
                       OVC025
                      BECMG 0506/0508 9999 NSW=
201812050500 TAF LRTR 050500Z 0506/0606 34012KT CAVOK
                      TEMPO 0506/0512 34015G25KT
                      BECMG 0600/0602 VRB04KT 3000 BR
                      TEMPO 0602/0606 1500 BR BKN005
                      PROB30 TEMPO 0603/0606 0600 FZFG BKN002=
201812051100 TAF LRTR 051100Z 0512/0612 34014KT 9999 SCT030
                      BECMG 0600/0602 VRB04KT 5000 BR
                      TEMPO 0602/0607 1500 BR BKN003
                      TEMPO 0608/0611 BKN005
                      BECMG 0610/0612 9999 NSW=
201812051700 TAF LRTR 051700Z 0518/0618 VRB04KT CAVOK
                      BECMG 0602/0604 5000 BR
                      TEMPO 0604/0607 1500 BR BKN002
                      BECMG 0609/0611 9999 NSW SCT005
                      BECMG 0616/0618 3000 BR=
201812052300 TAF LRTR 052300Z 0600/0624 VRB04KT CAVOK
                      BECMG 0602/0604 5000 BR
                      TEMPO 0604/0607 1500 BR BKN002
                      BECMG 0609/0611 9999 NSW
                      BECMG 0616/0618 3000 BR
                      BECMG 0618/0620 1500 BR=
201812060500 TAF LRTR 060500Z 0606/0706 VRB04KT CAVOK
                      BECMG 0619/0621 3000 BR
                      PROB30 TEMPO 0700/0705 0600 FZFG OVC002=
201812061100 TAF LRTR 061100Z 0612/0712 VRB04KT CAVOK
                      BECMG 0619/0621 3000 BR
                      PROB30 TEMPO 0700/0705 0600 FZFG OVC002
                      BECMG 0706/0708 9999 NSW=
201812061700 TAF LRTR 061700Z 0618/0718 VRB04KT CAVOK
                      PROB30 TEMPO 0706/0709 -FZRA
                      TEMPO 0715/0718 16010KT=
201812062300 TAF LRTR 062300Z 0700/0724 VRB04KT CAVOK
                      PROB30 TEMPO 0706/0709 -FZRA
                      BECMG 0717/0719 16010KT=
201812070500 TAF LRTR 070500Z 0706/0806 VRB04KT CAVOK
                      BECMG 0717/0719 16010KT
                      PROB30 TEMPO 0802/0806 5000 -RA BR=
201812071100 TAF LRTR 071100Z 0712/0812 17010KT 9999 BKN040
                      BECMG 0806/0808 23008KT 5000 -RASN BKN010
                       OVC030
                      TEMPO 0808/0812 3000 -RA BKN005 OVC030=
201812071700 TAF LRTR 071700Z 0718/0818 12006KT CAVOK
                      TEMPO 0808/0812 5000 -RA BR BKN010 OVC030
                       BECMG 0815/0817 3000 BR BKN005=
201812072300 TAF LRTR 072300Z 0800/0824 11008KT CAVOK
                      TEMPO 0808/0812 5000 -RA BR BKN010 OVC030
                       BECMG 0815/0817 3000 BR BKN005
                      BECMG 0818/0820 0800 FG BKN003
                      PROB30 TEMPO 0821/0824 0350 FG VV001=
201812080500 TAF LRTR 080500Z 0806/0906 11006KT 9999 SCT045
                      TEMPO 0806/0813 5000 -RA BR BKN010 OVC030
                       BECMG 0815/0817 3000 BR BKN005
                      BECMG 0818/0820 0800 FG BKN002
                      PROB40 TEMPO 0823/0905 0350 -DZ FG OVC001=
201812081100 TAF LRTR 081100Z 0812/0912 VRB04KT 9999 BKN030
                      TEMPO 0812/0814 5000 -RA BR BKN010 OVC030
                       BECMG 0815/0817 3000 BR BKN005
                      BECMG 0818/0820 0800 FG BKN002
                      TEMPO 0823/0906 0350 FG VV001
                      BECMG 0907/0909 3000 BR BKN010
                      BECMG 0909/0911 16010KT 7000 NSW SCT015=
201812081700 TAF LRTR 081700Z 0818/0918 VRB04KT 3000 BR BKN010 BKN035
                      BECMG 0819/0821 0800 FG OVC005
                      TEMPO 0823/0906 0350 FZFG VV001
                      BECMG 0909/0911 16010KT 3000 BKN010
                      BECMG 0911/0913 7000 NSW SCT015=
201812082300 TAF LRTR 082300Z 0900/0924 VRB04KT 0150 FZFG VV001
                      BECMG 0906/0908 0800 FG BKN002
                      BECMG 0909/0911 16010KT 3000 BR BKN010
                      BECMG 0911/0913 7000 NSW SCT015
                      BECMG 0916/0918 3000 -DZ BR BKN010
                      TEMPO 0919/0924 1500 -DZ BR BKN005 OVC025=
201812090500 TAF LRTR 090500Z 0906/1006 12006KT 0200 FZFG VV001
                      BECMG 0906/0908 0800 FG BKN002
                      BECMG 0909/0910 18010KT 3000 BR BKN005
                      BECMG 0910/0912 7000 NSW SCT010
                      BECMG 0916/0918 VRB04KT 3000 BR SCT010 BKN035
                       TEMPO 0920/1006 1500 -DZ BR BKN005 OVC025
                       PROB30
                      TEMPO 1002/1006 -FZDZ OVC002=
201812090817 TAF AMD LRTR 090817Z 0908/1006 13006KT 0150 FZFG VV001
                      BECMG 0909/0911 0800 FG BKN002
                      BECMG 0911/0912 18010KT 3000 BR BKN005
                      BECMG 0912/0914 7000 NSW SCT010
                      BECMG 0916/0918 VRB04KT 3000 BR SCT010 BKN035
                       TEMPO 0920/1006 1500 -DZ BR BKN005 OVC025
                       PROB30
                      TEMPO 1002/1006 -FZDZ OVC002=
201812091100 TAF LRTR 091100Z 0912/1012 13007KT CAVOK
                      BECMG 0916/0918 3000 BR SCT010 BKN035
                      TEMPO 0919/1007 1500 -DZ BR BKN005 OVC025
                       PROB30
                      TEMPO 1003/1007 0600 -DZ FG OVC002
                      BECMG 1009/1011 31010KT 9999 NSW=
201812091700 TAF LRTR 091700Z 0918/1018 13007KT 9999 SCT045
                      TEMPO 0918/0922 5000 -RA BR BKN015 BKN045
                       BECMG 0922/0924 5000 BR BKN015 BKN040
                      TEMPO 1003/1008 3000 -RA BR BKN010 OVC030
                       BECMG 1008/1010 31010KT 9999 NSW SCT025=
201812092300 TAF LRTR 092300Z 1000/1024 11006KT 5000 BR SCT035
                      TEMPO 1003/1008 3000 -RA BR BKN010 OVC030
                       BECMG 1008/1010 31010KT CAVOK
                      TEMPO 1018/1024 5000 BR=
201812100500 TAF LRTR 100500Z 1006/1106 VRB04KT 5000 BR NSC
                      TEMPO 1006/1009 3000 -RA BR BKN010 BKN030
                       BECMG 1009/1011 31010KT CAVOK
                      BECMG 1020/1022 VRB04KT 5000 BR
                      TEMPO 1022/1106 1500 BR BKN005=
201812101100 TAF LRTR 101100Z 1012/1112 31012KT 9999 BKN030
                      BECMG 1020/1022 VRB04KT 5000 BR
                      TEMPO 1022/1106 1500 BR BKN005
                      BECMG 1106/1108 CAVOK=
201812101700 TAF LRTR 101700Z 1018/1118 28008KT 9999 BKN045
                      BECMG 1021/1023 5000 BR
                      PROB30 TEMPO 1023/1106 1500 BR BKN005
                      BECMG 1106/1108 CAVOK
                      BECMG 1114/1116 5000 -RA BR BKN015 BKN035
                       TEMPO 1116/1118 3000 RASN BR BKN010 OVC030=
201812102300 TAF LRTR 102300Z 1100/1124 27008KT CAVOK
                      PROB30 TEMPO 1102/1106 3000 BR BKN005
                      BECMG 1114/1116 5000 -RA BR BKN015 BKN035
                       TEMPO 1117/1124 3000 RASN BR BKN010 OVC030=
201812110500 TAF LRTR 110500Z 1106/1206 27006KT CAVOK
                      BECMG 1114/1116 5000 -RA BR BKN015 BKN035
                       TEMPO 1117/1124 3000 RASN BR BKN010 OVC030
                       TEMPO 1200/1206 1500 -RADZ BR BKN005 OVC015=
201812111100 TAF LRTR 111100Z 1112/1212 27006KT CAVOK
                      BECMG 1114/1116 5000 -RA BR BKN015 BKN035
                       TEMPO 1119/1122 3000 RASN BR BKN010 OVC030
                       BECMG 1122/1124 1500 -SN BR BKN005 OVC015
                       BECMG 1206/1208 9999 NSW=
201812111700 TAF LRTR 111700Z 1118/1218 27006KT 9999 BKN040
                      BECMG 1118/1120 5000 -RA BR BKN015 BKN035
                       TEMPO 1120/1122 3000 RASN BR BKN010 OVC030
                       BECMG 1122/1124 1500 SN BR BKN005 OVC020
                       BECMG 1206/1208 5000 BR BKN015=
201812112300 TAF LRTR 112300Z 1200/1224 VRB04KT 5000 -SN BKN015 OVC025
                      TEMPO 1200/1206 1500 SN BR BKN005 OVC020
                       BECMG 1207/1209 9999 NSW BKN030
                      BECMG 1216/1218 3000 BR BKN010
                      PROB30 TEMPO 1220/1224 0800 FZFG VV002=
201812120500 TAF LRTR 120500Z 1206/1306 25008KT 9999 BKN015 OVC025
                      TEMPO 1206/1208 5000 -RASN -SN BKN005 OVC015
                       TEMPO 1208/1213 5000 -RA BR
                      TEMPO 1223/1305 3000 BR BKN010=
201812121100 TAF LRTR 121100Z 1212/1312 28008KT 9999 OVC025
                      PROB30 TEMPO 1213/1216 5000 -RA BR BKN015
                       OVC025
                      BECMG 1221/1223 5000 BR BKN010
                      TEMPO 1301/1306 1500 BR BKN005
                      BECMG 1306/1308 9999 NSW SCT025=
201812121700 TAF LRTR 121700Z 1218/1318 28008KT 9999 OVC025
                      BECMG 1221/1223 5000 BR BKN010
                      TEMPO 1301/1306 1500 BR BKN005
                      BECMG 1306/1308 9999 NSW SCT025=
201812122300 TAF AMD LRTR 130444Z 1304/1324 VRB04KT 0800 FZFG BKN002
                      TEMPO 1304/1307 0350 FZFG VV001
                      BECMG 1307/1309 1500 BR BKN005
                      BECMG 1309/1311 7000 NSW SCT025
                      BECMG 1316/1318 3000 BR=
201812130444 TAF AMD LRTR 130444Z 1304/1324 VRB04KT 0800 FZFG BKN002
                      TEMPO 1304/1307 0350 FZFG VV001
                      BECMG 1307/1309 1500 BR BKN005
                      BECMG 1309/1311 7000 NSW SCT025
                      BECMG 1316/1318 3000 BR=
201812130500 TAF LRTR 130500Z 1306/1406 28008KT 3000 BR BKN005
                      TEMPO 1306/1307 0800 FZFG BKN002
                      BECMG 1309/1311 9999 NSW SCT020
                      BECMG 1316/1318 3000 BR
                      TEMPO 1400/1404 1500 BR BKN005=
201812131100 TAF LRTR 131100Z 1312/1412 VRB04KT CAVOK
                      BECMG 1316/1318 3000 BR
                      TEMPO 1400/1404 1500 BR BKN005
                      BECMG 1407/1409 9999 NSW=
201812131700 TAF LRTR 131700Z 1318/1418 VRB04KT 3000 BR NSC
                      TEMPO 1400/1406 1500 BR BKN010
                      PROB40 1403/1406 0600 FZFG BKN002
                      BECMG 1407/1409 9999 NSW
                      BECMG 1416/1418 5000 -SN BKN015 OVC030=
201812132010 TAF AMD LRTR 132010Z 1320/1418 VRB04KT CAVOK
                      TEMPO 1400/1406 3000 BR BKN010
                      BECMG 1416/1418 5000 -SN BKN015 OVC030=
201812132300 TAF LRTR 132300Z 1400/1424 VRB04KT CAVOK
                      TEMPO 1400/1406 3000 BR BKN010
                      BECMG 1416/1418 5000 -SN BKN015 OVC030
                      BECMG 1422/1424 1500 SN BKN005 OVC020=
201812140500 TAF LRTR 140500Z 1406/1506 08005KT CAVOK
                      TEMPO 1406/1408 5000 BR
                      BECMG 1415/1417 5000 -SN BKN010 OVC030
                      BECMG 1422/1424 1500 SN BKN005 OVC020
                      TEMPO 1502/1506 0600 +SN BKN002 OVC010=
201812141100 TAF LRTR 141100Z 1412/1512 09006KT CAVOK
                      BECMG 1416/1418 5000 -SN BKN010 OVC030
                      BECMG 1422/1424 1500 SN BKN005 OVC020
                      TEMPO 1502/1509 0600 +SN BKN002 OVC010=
201812141700 TAF LRTR 141700Z 1418/1518 06005KT 3000 -SN SCT010 OVC030
                      BECMG 1421/1423 1500 SN BKN005 OVC020
                      TEMPO 1502/1508 0600 +SN BKN002 OVC010
                      TEMPO 1513/1518 0600 +SN BKN002 OVC010=
201812142300 TAF LRTR 142300Z 1500/1524 VRB04KT 1500 SN BR BKN005 OVC025
                      TEMPO 1501/1508 0600 +SN BKN002 OVC010
                      TEMPO 1511/1516 0600 +SN BKN002 OVC010
                      TEMPO 1520/1524 0600 +SN BKN002 OVC010=
201812150500 TAF LRTR 150500Z 1506/1606 VRB04KT 1500 SN BKN005 OVC015
                      TEMPO 1508/1514 0600 +SN BKN002 OVC010
                      TEMPO 1520/1524 0600 +SN BKN002 OVC010
                      TEMPO 1602/1606 0600 +SN BKN002 OVC010=
201812151100 TAF LRTR 151100Z 1512/1612 VRB04KT 1500 SN BKN005 OVC010
                      TEMPO 1512/1518 0600 +SN VV001
                      BECMG 1605/1607 3000 -SN BR BKN010 OVC015=
201812151700 TAF LRTR 151700Z 1518/1618 VRB04KT 1000 SN BKN005 OVC015
                      TEMPO 1518/1524 0600 +SN BKN002 OVC010
                      BECMG 1608/1610 3000 -SN BKN010 OVC020
                      BECMG 1610/1612 7000 NSW BKN015 BKN020
                      BECMG 1616/1618 3000 BR BKN005=
201812152300 TAF LRTR 152300Z 1600/1624 VRB04KT 1500 SN BKN005 OVC015
                      TEMPO 1600/1605 0600 +SN BKN002 OVC010
                      BECMG 1608/1610 3000 -SN BKN010 OVC020
                      BECMG 1612/1614 7000 NSW BKN015 BKN020
                      BECMG 1616/1618 3000 BR BKN005
                      TEMPO 1618/1624 1500 BR=
201812160500 TAF LRTR 160500Z 1606/1706 VRB04KT 1500 SN BKN005 OVC015
                      PROB30 TEMPO 1606/1608 0800 +SN BKN002 OVC010
                       BECMG 1609/1611 3000 -SN BKN010 OVC020
                      BECMG 1613/1615 7000 NSW BKN015 BKN020
                      BECMG 1616/1618 3000 BR BKN005
                      BECMG 1620/1622 1500 BR
                      TEMPO 1700/1706 0600 FZFG OVC002=
201812161100 TAF LRTR 161100Z 1612/1712 VRB04KT 3000 BR BKN005 OVC010
                      TEMPO 1612/1616 7000 NSW BKN015 BKN020
                      BECMG 1616/1618 1500 BR
                      TEMPO 1620/1706 0600 FZFG OVC002
                      BECMG 1708/1710 5000 BR BKN010=
201812161516 TAF AMD LRTR 161516Z 1615/1712 VRB04KT 0350 FZFG OVC002
                      TEMPO 1615/1618 0800
                      BECMG 1705/1707 0800 BKN005
                      BECMG 1707/1709 3000 BR BKN010
                      TEMPO 1710/1712 7000 NSW BKN015=
201812161700 TAF LRTR 161700Z 1618/1718 VRB04KT 3000 BR BKN005 OVC010
                      BECMG 1619/1621 0800 FZFG BKN002
                      TEMPO 1700/1705 0300 FZFG VV001
                      BECMG 1707/1709 3000 BR BKN010
                      BECMG 1709/1711 7000 NSW BKN020
                      BECMG 1715/1717 35010KT 1500 -SN BR BKN010
                       OVC030=
201812162300 TAF LRTR 162300Z 1700/1724 VRB04KT 1500 BR OVC005
                      TEMPO 1700/1706 0350 FZFG VV001
                      BECMG 1707/1709 3000 BR BKN010
                      BECMG 1709/1711 7000 NSW BKN020
                      BECMG 1715/1717 34010KT 3000 -SN BR BKN010
                       OVC030
                      TEMPO 1718/1723 1500 SN BR BKN005 OVC020=
201812170500 TAF LRTR 170500Z 1706/1806 34006KT 3000 BR OVC005
                      TEMPO 1706/1707 1500 BR BKN002 OVC005
                      BECMG 1708/1710 5000 SCT005 BKN010
                      BECMG 1714/1716 3000 -SN BR
                      TEMPO 1718/1723 1500 -SN BR BKN005 BKN025
                       BECMG 1723/1801 5000 BR BKN005
                      BECMG 1802/1804 1500 BR BKN002 OVC005
                      PROB40 TEMPO 1804/1806 0600 FZFG OVC001=
201812170713 TAF AMD LRTR 170713Z 1707/1806 35006KT 0400 FZFG VV001
                      BECMG 1707/1709 0800 BKN002 BKN010
                      BECMG 1709/1711 3000 SCT005 BKN020
                      BECMG 1712/1713 5000
                      BECMG 1714/1716 3000 -SN BR
                      TEMPO 1718/1723 1500 -SN BR BKN005 BKN025
                       BECMG 1723/1801 5000 BR BKN005
                      BECMG 1802/1804 1500 BR BKN002 OVC005
                      PROB40 TEMPO 1804/1806 0600 FZFG OVC001=
201812171100 TAF LRTR 171100Z 1712/1812 34006KT 3000 BR BKN005
                      BECMG 1712/1714 5000 SCT005 BKN010
                      TEMPO 1714/1723 1500 -SN BR BKN005 BKN025
                       BECMG 1723/1801 1500 BR BKN005
                      BECMG 1802/1804 0600 FZFG OVC002
                      PROB40 TEMPO 1804/1807 0350 FZFG OVC001
                      BECMG 1808/1810 3000 BR BKN005 BKN010
                      BECMG 1810/1812 5000 SCT005 BKN010=
201812171700 TAF LRTR 171700Z 1718/1818 33008KT 5000 BR SCT005 BKN010
                      BECMG 1718/1720 3000 BR
                      PROB30 TEMPO 1721/1802 1500 -SN BR BKN005
                       BKN025
                      BECMG 1802/1804 1500 BR BKN005
                      PROB40 TEMPO 1804/1807 0600 FZFG OVC002
                      BECMG 1808/1810 3000 SCT005 BKN010
                      BECMG 1810/1812 5000
                      BECMG 1815/1817 3000 BR BKN005 BKN015=
201812172300 TAF LRTR 172300Z 1800/1824 32008KT 5000 BR SCT005 BKN010
                      TEMPO 1800/1803 1500 -SN BR BKN005 BKN025
                       BECMG 1803/1805 1500 BR BKN005
                      PROB40 TEMPO 1805/1807 0600 FZFG OVC002
                      BECMG 1808/1810 3000 SCT005 BKN010
                      BECMG 1810/1812 5000
                      BECMG 1815/1817 3000 BR BKN005 BKN015
                      BECMG 1818/1820 1500 BR OVC002=
201812180500 TAF LRTR 180500Z 1806/1906 32006KT 3000 BR OVC005
                      PROB40 TEMPO 1806/1808 0600 FZFG OVC002
                      BECMG 1810/1812 5000 BKN010
                      BECMG 1815/1817 3000 BR BKN005
                      BECMG 1818/1820 1500 BR
                      BECMG 1820/1822 0600 FZFG OVC002=
201812180906 TAF AMD LRTR 180906Z 1809/1906 32006KT 0800 FZFG OVC002
                      BECMG 1810/1812 3000 BR BKN010
                      TEMPO 1812/1816 5000
                      BECMG 1818/1820 1500 BR BKN005
                      BECMG 1820/1822 0600 FZFG OVC002=
201812181100 TAF LRTR 181100Z 1812/1912 31006KT 0350 FZFG VV001
                      PROB30 TEMPO 1812/1816 0800 BKN003
                      BECMG 1909/1911 0800 BKN003=
201812181639 TAF AMD LRTR 181639Z 1816/1912 31006KT 2000 BR OVC005
                      BECMG 1821/1823 0800 FZFG OVC003
                      BECMG 1900/1902 0350 FZFG VV001
                      BECMG 1907/1909 0800 OVC003
                      BECMG 1909/1911 1500 BR BKN010=
201812181700 TAF LRTR 181700Z 1818/1918 VRB04KT 1500 BR BCFG BKN002 OVC005
                      TEMPO 1818/1822 0800 FZFG
                      BECMG 1822/1824 0600 FZFG
                      TEMPO 1901/1907 0350 FZFG VV001
                      BECMG 1909/1911 1500 BR SCT002 BKN005
                      TEMPO 1911/1915 3000=
201812182300 TAF LRTR 182300Z 1900/1924 VRB04KT 0600 FZFG OVC002
                      TEMPO 1900/1907 0350 FZFG VV001
                      BECMG 1909/1911 1500 BR SCT002 BKN005
                      TEMPO 1911/1915 3000
                      BECMG 1916/1918 SCT005
                      PROB40 TEMPO 1921/1924 0800 FZFG=
201812190500 TAF LRTR 190500Z 1906/2006 11005KT 1500 BR OVC002
                      TEMPO 1906/1907 0600 FZFG OVC001
                      BECMG 1908/1910 3000 SCT002 BKN005
                      TEMPO 1911/1915 5000
                      BECMG 1916/1918 1500 BR
                      BECMG 1922/1924 0800 FZFG BKN002
                      TEMPO 2001/2006 0350 FZFG OVC001=
201812191100 TAF LRTR 191100Z 1912/2012 11005KT 3000 BR BKN005
                      BECMG 1915/1917 1500 BR
                      BECMG 1921/1923 0800 FZFG BKN002
                      TEMPO 2001/2007 0350=
201812191700 TAF LRTR 191700Z 1918/2018 11006KT 0600 FZFG OVC002
                      TEMPO 1918/1921 0350 FZFG VV001
                      PROB30 TEMPO 2001/2007 0350 FZFG VV001
                      BECMG 2007/2009 1500 BR BKN005
                      TEMPO 2010/2016 3000 BKN010=
201812192103 TAF AMD LRTR 192103Z 1921/2018 11006KT 0300 FZFG VV001
                      BECMG 2006/2008 0800 OVC002
                      BECMG 2008/2010 1500 BR BKN005
                      TEMPO 2010/2016 3000 BKN010=
201812192300 TAF LRTR 192300Z 2000/2024 11006KT 0300 FZFG VV001
                      BECMG 2006/2008 0800 OVC002
                      BECMG 2008/2010 1500 BR BKN005
                      TEMPO 2010/2016 3000 BKN010
                      BECMG 2017/2019 0600 FZFG OVC002
                      BECMG 2019/2021 0300=
201812200500 TAF LRTR 200500Z 2006/2106 VRB04KT 3000 BR NSC
                      BECMG 2006/2008 9999
                      BECMG 2016/2018 3000 BR BKN010
                      PROB40 TEMPO 2100/2106 0800 -FZDZ=
201812200908 TAF AMD LRTR 200908Z 2009/2106 VRB04KT 3000 BR NSC
                      PROB40 TEMPO 2009/2011 1500 -FZDZ BR BKN005
                       TEMPO 2011/2015 7000 NSW
                      PROB40 TEMPO 2100/2106 0800 -FZDZ FZFG BKN002=
201812201100 TAF LRTR 201100Z 2012/2112 11005KT 3000 BR NSC
                      PROB30 TEMPO 2100/2106 0800 -FZDZ FZFG BKN002
                       BECMG 2109/2111 9999 NSW=
201812201700 TAF LRTR 201700Z 2018/2118 11006KT 3000 BR NSC
                      BECMG 2019/2021 1500 BR BKN005
                      PROB30 TEMPO 2101/2106 0800 -FZDZ FZFG BKN002
                       BECMG 2108/2110 3000 SCT010
                      TEMPO 2111/2115 7000 NSW=
201812202300 TAF LRTR 202300Z 2100/2124 11008KT 3000 BR NSC
                      PROB30 TEMPO 2101/2106 0800 -FZDZ FZFG BKN002
                       BECMG 2108/2110 7000 NSW
                      BECMG 2117/2119 19010KT=
201812210500 TAF LRTR 210500Z 2106/2206 11008KT 5000 BR SCT045
                      PROB30 TEMPO 2106/2109 3000 -FZRA BR BKN015
                       BKN030
                      BECMG 2109/2111 9999 NSW
                      BECMG 2119/2121 19010KT
                      TEMPO 2201/2206 3000 -RADZ BR BKN005 OVC025=
201812211100 TAF LRTR 211100Z 2112/2212 11008KT 5000 BR BKN040
                      BECMG 2119/2121 20010KT
                      TEMPO 2200/2204 3000 BR BKN010 OVC030
                      BECMG 2204/2206 3000 -RA BR BKN010 OVC030
                       BECMG 2210/2212 7000 -RA SCT015 OVC035=
201812211700 TAF LRTR 211700Z 2118/2218 12010KT 3000 BR NSC
                      BECMG 2119/2121 20010KT
                      TEMPO 2123/2204 1500 -RA BR BKN010 OVC030
                       BECMG 2205/2207 8000 NSW
                      TEMPO 2209/2215 5000 -RA -SHRA SCT015 FEW025CB
                       BKN040
                      BECMG 2215/2217 3000 RA BR BKN015 BKN040=
201812212300 TAF LRTR 212300Z 2200/2224 15008KT 5000 BR NSC
                      TEMPO 2200/2204 3000 -RA BR BKN015 OVC030
                       BECMG 2205/2207 21010KT 8000 NSW
                      TEMPO 2209/2214 5000 -RA -SHRA SCT015 FEW025CB
                       BKN040
                      TEMPO 2216/2222 3000 RA BR BKN015 BKN040
                       BECMG 2222/2224 27008KT=
201812220500 TAF LRTR 220500Z 2206/2306 20010KT CAVOK
                      PROB30 TEMPO 2210/2215 5000 -RA BR BKN015
                       BKN040
                      TEMPO 2215/2221 3000 RA BR BKN010 OVC030
                       BECMG 2222/2224 27008KT=
201812221100 TAF LRTR 221100Z 2212/2312 22008KT CAVOK
                      PROB30 TEMPO 2212/2218 5000 -RA BR BKN015
                       BKN040=
201812221700 TAF LRTR 221700Z 2218/2318 22008KT 9999 SCT040
                      PROB30 TEMPO 2221/2304 5000 BR BKN005
                      BECMG 2307/2309 29010KT=
201812222300 TAF LRTR 222300Z 2300/2324 22005KT 9999 SCT040
                      PROB30 TEMPO 2300/2306 5000 BR BKN005
                      BECMG 2307/2309 28010KT
                      BECMG 2318/2320 VRB04KT 5000 BR BKN010
                      TEMPO 2321/2324 1500 -DZRA BR BKN005=
201812230500 TAF LRTR 230500Z 2306/2406 VRB04KT CAVOK
                      PROB40 TEMPO 2308/2312 30010KT 5000 -RA BR
                       BKN015 OVC040
                      TEMPO 2318/2323 3000 BR BKN010
                      BECMG 2323/2401 5000 -RA BR BKN010 OVC030
                       TEMPO 2403/2406 1500 -DZRA BR BKN005 OVC010=
201812231100 TAF LRTR 231100Z 2312/2412 VRB04KT CAVOK
                      BECMG 2321/2323 5000 -RA BR BKN010 OVC030
                       TEMPO 2323/2404 3000 -DZRA BR BKN005 OVC010
                       BECMG 2408/2410 30012KT 3000 RA
                      PROB30 TEMPO 2410/2412 1500 SHRA BKN005 SCT020CB
                       OVC030=
201812231700 TAF LRTR 231700Z 2318/2418 VRB04KT CAVOK
                      BECMG 2322/2324 5000 -RA BR BKN015 OVC030
                       TEMPO 2400/2404 3000 -DZRA BR BKN010 OVC020
                       BECMG 2406/2408 32012KT 3000 RA BKN010 OVC020
                       PROB30
                      TEMPO 2409/2415 1500 SHRA BKN005 SCT020CB
                       OVC030=
201812232300 TAF AMD LRTR 240343Z 2403/2424 14008KT 9999 SCT045
                      PROB30 TEMPO 2403/2406 5000 -RADZ BR BKN015
                       OVC030
                      BECMG 2406/2408 23012KT
                      TEMPO 2409/2413 3000 RA BR BKN010 OVC025
                       BECMG 2413/2415 34015KT=
201812240343 TAF AMD LRTR 240343Z 2403/2424 14008KT 9999 SCT045
                      PROB30 TEMPO 2403/2406 5000 -RADZ BR BKN015
                       OVC030
                      BECMG 2406/2408 23012KT
                      TEMPO 2409/2413 3000 RA BR BKN010 OVC025
                       BECMG 2413/2415 34015KT=
201812240500 TAF LRTR 240500Z 2406/2506 21010KT 9999 BKN045
                      TEMPO 2407/2415 3000 RA BR BKN010 OVC025
                       BECMG 2411/2413 34015KT
                      TEMPO 2413/2417 34018G28KT
                      BECMG 2500/2502 VRB04KT 5000 BR BKN015
                      TEMPO 2502/2506 3000 BR BKN010=
201812241100 TAF LRTR 241100Z 2412/2512 32015KT 9999 BKN045
                      TEMPO 2412/2414 5000 -RA BR BKN015 OVC025
                       TEMPO 2412/2417 32018G28KT
                      BECMG 2500/2502 32005KT 5000 BR BKN015
                      TEMPO 2502/2506 3000 BR BKN010
                      BECMG 2507/2509 9999 NSW SCT025=
201812241700 TAF LRTR 241700Z 2418/2518 32008KT 9999 SCT030
                      TEMPO 2500/2506 3000 BR BKN010=
201812242300 TAF LRTR 242300Z 2500/2524 34008KT 9999 BKN030
                      TEMPO 2500/2506 3000 BR BKN010=
201812250500 TAF LRTR 250500Z 2506/2606 30008KT CAVOK
                      TEMPO 2600/2606 3000 -SN BR BKN015 OVC030=
201812251100 TAF LRTR 251100Z 2512/2612 VRB04KT CAVOK
                      BECMG 2522/2524 BKN015 OVC035
                      TEMPO 2603/2608 3000 -SN BR
                      TEMPO 2608/2612 5000 -RA BR=
201812251700 TAF LRTR 251700Z 2518/2618 28006KT CAVOK
                      BECMG 2520/2522 5000 BR BKN015 OVC030
                      TEMPO 2523/2605 1500 BR BKN005 OVC025
                      PROB40 2600/2604 0600 FZFG BKN002
                      BECMG 2607/2609 9999 NSW BKN020=
201812252300 TAF LRTR 252300Z 2600/2624 28006KT 9999 BKN005 OVC015
                      BECMG 2600/2602 5000 BR
                      TEMPO 2602/2606 1500 BR BKN002 OVC010
                      BECMG 2607/2609 9999 NSW BKN020
                      BECMG 2621/2623 5000 BR BKN015 BKN030=
201812260500 TAF LRTR 260500Z 2606/2706 VRB04KT 9999 BKN020
                      TEMPO 2606/2608 5000 BR
                      BECMG 2608/2610 26010KT
                      BECMG 2620/2622 VRB04KT 5000 BR BKN010
                      TEMPO 2700/2706 1500 BR BKN005=
201812261100 TAF LRTR 261100Z 2612/2712 25008KT 9999 BKN030
                      BECMG 2620/2622 5000 BR BKN010
                      TEMPO 2700/2706 1500 BR BKN005
                      BECMG 2708/2710 9999 NSW BKN020=
201812261700 TAF LRTR 261700Z 2618/2718 27005KT 9999 SCT035
                      BECMG 2622/2624 5000 BR
                      TEMPO 2700/2706 1500 BR BKN005
                      PROB30 TEMPO 2703/2706 0800 FG BKN002
                      BECMG 2708/2710 9999 NSW
                      BECMG 2716/2718 5000 BR=
201812262300 TAF LRTR 262300Z 2700/2724 27005KT 3000 BR SCT045
                      TEMPO 2700/2706 1500 BR BKN005
                      PROB30 TEMPO 2703/2706 0800 FG BKN002
                      BECMG 2708/2710 9999 NSW
                      BECMG 2716/2718 5000 BR
                      BECMG 2722/2724 3000 BR=
201812270500 TAF LRTR 270500Z 2706/2806 20005KT 3000 BR BKN045
                      TEMPO 2706/2707 1500 BR
                      BECMG 2708/2710 9999 NSW
                      TEMPO 2800/2806 3000 BR BKN005=
201812270732 TAF AMD LRTR 270732Z 2707/2806 VRB04KT 0350 FZFG VV001
                      TEMPO 2708/2710 1500 BR BKN005
                      BECMG 2710/2712 3000 BR SCT010
                      BECMG 2712/2714 5000 BR NSC
                      TEMPO 2800/2806 1500 BR BKN005=
201812271100 TAF LRTR 271100Z 2712/2812 20008KT CAVOK
                      BECMG 2716/2718 5000 BR BKN015
                      TEMPO 2800/2806 1500 BR BKN005
                      BECMG 2806/2808 9999 BKN030=
201812271700 TAF LRTR 271700Z 2718/2818 VRB04KT 5000 BR BKN025
                      TEMPO 2800/2806 1500 BR BKN005
                      BECMG 2807/2809 9999 NSW
                      BECMG 2810/2812 5000 -RA BR BKN015 OVC025
                       TEMPO 2814/2818 3000 RA BKN010 OVC020=
201812272300 TAF LRTR 272300Z 2800/2824 18006KT 3000 BR BKN025
                      TEMPO 2800/2806 1500 BR BKN010
                      BECMG 2807/2809 9999 NSW
                      BECMG 2810/2812 5000 -RA BR BKN015 OVC025
                       TEMPO 2814/2818 3000 RA BKN010 OVC020
                      BECMG 2818/2820 3000 BR BKN010=
201812280500 TAF LRTR 280500Z 2806/2906 16006KT 3000 BR BKN030
                      BECMG 2807/2809 9999 NSW
                      BECMG 2810/2812 5000 -RA BR BKN015 OVC025
                       TEMPO 2814/2821 3000 RA BKN010 OVC020
                      BECMG 2821/2823 32010KT 3000 BR BKN005 OVC015
                       TEMPO 2900/2906 1500 -RADZ BR BKN002 OVC010=
201812281100 TAF LRTR 281100Z 2812/2912 VRB04KT 7000 BKN040
                      BECMG 2812/2814 5000 -RA BR BKN015 OVC025
                       TEMPO 2814/2821 3000 RA BKN010 OVC020
                      BECMG 2821/2823 32010KT 3000 BR BKN005 OVC015
                       TEMPO 2900/2906 1500 -RADZ BR BKN002 OVC010=
201812281700 TAF LRTR 281700Z 2818/2918 22006KT 5000 -RA BR BKN015 BKN030
                      TEMPO 2818/2823 3000 SHRA BKN010 SCT025CB
                       BKN030
                      BECMG 2823/2901 32010KT 3000 BR BKN005 OVC015
                       TEMPO 2901/2909 1500 -RADZ BR BKN002 OVC010
                       BECMG 2910/2912 VRB04KT 7000 NSW BKN020=
201812282300 TAF LRTR 282300Z 2900/2924 32008KT 3000 BR BKN010
                      TEMPO 2900/2906 1500 RADZ BR OVC005
                      BECMG 2907/2909 5000 BKN025
                      BECMG 2919/2921 1500 BR OVC005=
201812290500 TAF LRTR 290500Z 2906/3006 34008KT 1000 BR OVC002
                      TEMPO 2906/2909 0350 FG OVC001
                      BECMG 2909/2911 5000 BKN010
                      TEMPO 2911/2914 SCT020
                      BECMG 2916/2918 1500 BR BKN005
                      BECMG 2920/2922 0600 FG OVC002
                      BECMG 3001/3003 1500 -RA BR BKN005 OVC020=
201812291100 TAF LRTR 291100Z 2912/3012 VRB04KT 3000 BR BKN005
                      TEMPO 2912/2915 7000 NSW BKN010
                      BECMG 2916/2918 1500 BR
                      BECMG 2920/2922 0600 FG OVC002
                      TEMPO 3000/3006 0350 -DZ FG OVC001
                      PROB30 TEMPO 3003/3006 -FZDZ FZFG
                      BECMG 3006/3008 1500 -RASN BR
                      BECMG 3009/3011 24010KT 3000 -RA BR BKN007
                       BKN040=
201812291700 TAF LRTR 291700Z 2918/3018 VRB04KT 5000 BR SCT010
                      BECMG 2919/2921 3000 BR BKN010
                      BECMG 2923/3001 1500 -DZ BR OVC002
                      TEMPO 3001/3007 0600 -DZ FG OVC001
                      BECMG 3007/3009 3000 -RASN BR BKN005 BKN030
                       BECMG 3011/3013 24010KT 5000 -RA BKN010
                       BKN040
                      BECMG 3015/3017 3000 -RA BR=
201812292300 TAF LRTR 292300Z 3000/3024 VRB04KT 1500 BR BKN005 OVC015
                      TEMPO 3000/3007 0600 -DZ FG OVC002
                      BECMG 3007/3009 3000 -RASN BKN010 BKN030
                       BECMG 3009/3011 5000 -RA BKN015 BKN040
                      BECMG 3014/3016 3000 -RA BR BKN010 BKN030
                       TEMPO 3021/3024 1500 RA BR BKN005 BKN025=
201812300500 TAF LRTR 300500Z 3006/3106 23004KT 3000 BR BKN005 OVC010
                      PROB30 TEMPO 3006/3009 5000 -RASN BKN010
                       BKN030
                      BECMG 3009/3011 5000 -RA BKN015 BKN035
                      BECMG 3014/3016 3000 -RA BR BKN010 BKN030
                       TEMPO 3022/3106 1500 RA BR BKN005 BKN025=
201812301100 TAF LRTR 301100Z 3012/3112 24004KT 9999 BKN015 OVC035
                      BECMG 3014/3016 5000 -RA BR BKN010 BKN030
                       TEMPO 3020/3105 1500 RA BR BKN005 BKN025
                       BECMG 3105/3107 7000 NSW BKN015 OVC035
                      PROB30 TEMPO 3107/3110 5000 -RA BKN010 OVC030=
201812301700 TAF LRTR 301700Z 3018/3118 VRB04KT 3000 -RA BR BKN010 OVC030
                      TEMPO 3018/3022 1500 RA BR BKN005 OVC025
                       BECMG 3022/3024 1500 -RA BR BKN005 OVC020
                       PROB30
                      TEMPO 3102/3106 0800 -DZ FG OVC002
                      BECMG 3107/3109 3000 BR BKN010 OVC025
                      BECMG 3109/3111 5000 BKN015
                      BECMG 3114/3116 01010KT CAVOK=
201812302300 TAF LRTR 302300Z 3100/3124 VRB04KT 1500 -RA BR BKN005 OVC020
                      PROB30 TEMPO 3102/3106 0800 -DZ FG OVC002
                       BECMG 3107/3109 3000 BR BKN010 OVC025
                      BECMG 3109/3111 5000 BKN015
                      BECMG 3114/3116 01010KT CAVOK
                      TEMPO 3120/3122 5000 BR=
201812310500 TAF LRTR 310500Z 3106/0106 VRB04KT 3000 BR BKN005
                      TEMPO 3106/3109 1500 -DZ BR OVC002
                      BECMG 3109/3111 02010KT 5000 BKN015
                      TEMPO 0101/0106 1500 BR BKN002=
201812310737 TAF AMD LRTR 310737Z 3107/0106 VRB04KT 0150 FG VV001
                      BECMG 3108/3110 0800 BKN002
                      BECMG 3110/3112 02010KT 3000 BR BKN005
                      TEMPO 3112/3115 5000 BKN015
                      BECMG 3122/3124 VRB04KT 1500 BR BKN002
                      PROB40 TEMPO 0101/0106 0600 FZFG VV001=
201812311100 TAF LRTR 311100Z 3112/0112 04006KT 9999 BKN005 OVC020
                      TEMPO 3112/3116 BKN015
                      BECMG 3121/3123 3000 BR BKN002
                      PROB40 TEMPO 0101/0106 0800 FZFG VV001
                      BECMG 0108/0110 5000 BKN005=
201812311700 TAF LRTR 311700Z 3118/0118 01010KT 5000 -RA BR BKN020 BKN025
                      PROB30 TEMPO 3118/3120 3000 -RA BR BKN015
                       OVC020
                      BECMG 3122/3124 3000 BR BKN005
                      TEMPO 0101/0102 0800 FG BKN002
                      PROB30 TEMPO 0102/0106 0300 FG BKN001
                      BECMG 0108/0110 22008KT 5000 BKN010
                      PROB40 TEMPO 0112/0118 3000 -DZ BR BKN005=
201812312300 TAF LRTR 312300Z 0100/0124 01012KT CAVOK
                      TEMPO 0101/0106 3000 BR BKN010
                      BECMG 0107/0109 VRB03KT
                      PROB30 TEMPO 0115/0118 3000 -DZ BR BKN005
                       BKN025=
