201901010000 METAR LRTR 010000Z 36011KT CAVOK 01/01 Q1028 R11/190095=
201901010030 METAR LRTR 010030Z 01010KT CAVOK 01/01 Q1028 R11/190095=
201901010100 METAR LRTR 010100Z 01011KT CAVOK 01/01 Q1028 R11/190095=
201901010130 METAR COR LRTR 010130Z 01010KT CAVOK 00/00 Q1028 R11/190095=
201901010200 METAR LRTR 010200Z 02009KT CAVOK 00/00 Q1028 R11/190095=
201901010230 METAR LRTR 010230Z 03007KT CAVOK 00/00 Q1028 R11/190095=
201901010300 METAR LRTR 010300Z 01007KT CAVOK M00/M00 Q1028 R11/190095=
201901010330 METAR LRTR 010330Z 35006KT CAVOK M00/M00 Q1028 R11/CLRD//=
201901010400 METAR LRTR 010400Z 36005KT CAVOK M00/M00 Q1028=
201901010430 METAR LRTR 010430Z 36009KT 9999 FEW024 M00/M00 Q1028=
201901010500 METAR LRTR 010500Z 01008KT 9999 FEW029 M00/M00 Q1028=
201901010530 METAR LRTR 010530Z 36005KT 260V050 9999 SCT030 00/00 Q1028=
201901010600 METAR LRTR 010600Z 06005KT 010V130 9999 FEW004 BKN029 00/00
                        Q1028=
201901010630 METAR LRTR 010630Z 06004KT 6000 SCT005 BKN028 M00/M00 Q1028=
201901010700 METAR LRTR 010700Z 09004KT 0800 R11/0900D R29/1000U FZFG
                        FEW001 SCT003 M00/M00 Q1028=
201901010730 METAR LRTR 010730Z VRB02KT 0200 R11/0250N R29/0350N FZFG
                        BKN001 M01/M01 Q1028 R11/190095=
201901010800 METAR LRTR 010800Z VRB02KT 0350 R11/0550N R29/1300U FZFG
                        VV002 M01/M01 Q1028 R11/190095=
201901010830 METAR LRTR 010830Z VRB01KT 1300 R11/1400U R29/P2000 BR OVC002
                        M00/M00 Q1028 R11/190095=
201901010900 METAR LRTR 010900Z VRB02KT 5000 BR OVC002 00/00 Q1028 R11/190095=
201901010930 METAR LRTR 010930Z 14003KT 5000 BR OVC003 01/01 Q1028 R11/190095=
201901011000 METAR LRTR 011000Z 17003KT 140V200 5000 BR OVC003 01/01 Q1027
                        R11/190095=
201901011030 METAR LRTR 011030Z 20007KT 5000 BR OVC003 01/01 Q1027 R11/190095=
201901011100 METAR COR LRTR 011100Z 23004KT 5000 BR OVC004 02/02 Q1026
                        R11/190095=
201901011130 METAR LRTR 011130Z 29005KT 3500 BR OVC003 01/01 Q1026 R11/190095=
201901011200 METAR LRTR 011200Z 26004KT 3800 BR OVC003 01/01 Q1026 R11/190095=
201901011230 METAR LRTR 011230Z 27003KT 240V300 4000 BR OVC003 01/01 Q1025
                        R11/190095=
201901011300 METAR LRTR 011300Z 18004KT 140V220 4000 BR OVC003 01/01 Q1025
                        R11/190095=
201901011330 METAR LRTR 011330Z 19003KT 150V210 3000 BR OVC002 01/01 Q1025
                        R11/190095=
201901011400 METAR LRTR 011400Z 18005KT 2500 BR OVC003 01/01 Q1025 R11/190095=
201901011430 METAR LRTR 011430Z 19006KT 3000 BR OVC003 01/01 Q1024 R11/190095=
201901011500 METAR LRTR 011500Z 17005KT 140V200 2500 -DZ BR OVC002 01/01
                        Q1024 R11/190095=
201901011530 METAR LRTR 011530Z 16007KT 3000 BR OVC002 00/00 Q1024 R11/190095=
201901011600 METAR LRTR 011600Z 16008KT 3000 BR OVC002 00/00 Q1023 R11/190095=
201901011630 METAR LRTR 011630Z 17007KT 0800 R11/1000U R29/1100U -DZ FG
                        VV002 00/00 Q1023 R11/190095=
201901011700 METAR LRTR 011700Z 18009KT 0500 R11/1100D R29/P2000D FG VV002
                        00/00 Q1023 R11/190095=
201901011730 METAR LRTR 011730Z 20008KT 0800 R11/P2000U R29/2000 FG VV002
                        00/00 Q1023 R11/190095=
201901011800 METAR LRTR 011800Z 18007KT 2500 BR FEW003 BKN008 00/00 Q1022
                        R11/190095=
201901011830 METAR COR LRTR 011830Z 19008KT 3500 BR SCT003 BKN07 01/01
                        Q1022 R11/190095=
201901011900 METAR LRTR 011900Z 20009KT 2000 BR OVC003 01/01 Q1021 R11/190095=
201901011930 METAR LRTR 011930Z 19008KT 2000 BR OVC002 01/01 Q1021 R11/190095=
201901012000 METAR LRTR 012000Z 19009KT 2000 BR BKN002 BKN004 01/01 Q1020
                        R11/190095=
201901012030 METAR LRTR 012030Z 20009KT 2500 BR OVC003 01/01 Q1020 R11/190095=
201901012100 METAR LRTR 012100Z 20009KT 3000 BR BKN004 01/01 Q1019 R11/190095=
201901012130 METAR LRTR 012130Z 20007KT 4000 BR BKN005 OVC045 01/01 Q1019
                        R11/190095=
201901012200 METAR LRTR 012200Z 20007KT 4000 BR SCT005 OVC042 01/01 Q1018
                        R11/190095=
201901012230 METAR LRTR 012230Z 19008KT 4000 BR FEW005 OVC038 01/01 Q1018
                        R11/190095=
201901012300 METAR LRTR 012300Z 19010KT 5000 BR FEW006 OVC040 01/01 Q1017
                        R11/190095=
201901012330 METAR LRTR 012330Z 21009KT 7000 FEW006 BKN040 01/01 Q1017
                        R11/190095=
201901020000 METAR LRTR 020000Z 21009KT 6000 -SN OVC035 01/01 Q1017 R11/190095=
201901020030 METAR COR LRTR 020030Z 20009KT 2500 SN SCT023 OVC035 00/00
                        Q1016 R11/190095=
201901020100 METAR COR LRTR 020100Z 19009KT 2500 SN FEW014 BKN020 OVC035
                        00/00 Q1016 R11/190095=
201901020130 METAR LRTR 020130Z 19009KT 3000 -SN BR SCT004 OVC027 00/00
                        Q1015 RESN R11/190095=
201901020200 METAR COR LRTR 020200Z 19010KT 3000 -SN BKN003 OVC030 00/00
                        Q1014 R11/190095=
201901020230 METAR COR LRTR 020230Z 20010KT 4000 BR BKN004 BKN040 00/00
                        Q1014 R11/190095=
201901020300 METAR LRTR 020300Z 21007KT 180V240 2000 SN BR BKN004 BKN030
                        00/00 Q1014 R11/190095=
201901020330 METAR LRTR 020330Z 19009KT 3000 BR FEW005 BKN035 OVC045 00/00
                        Q1013 RESN R11/190095=
201901020400 METAR LRTR 020400Z 20010KT 5000 BR FEW005 BKN040 00/00 Q1013
                        R11/190095=
201901020430 METAR LRTR 020430Z 22009KT 4000 -SN BR BKN025 BKN040 00/00
                        Q1013 R11/190095=
201901020500 METAR COR LRTR 020500Z 21007KT 5000 BR FEW005 SCT025 01/01
                        Q1013 R11/190095=
201901020530 METAR LRTR 020530Z 20007KT 5000 BR FEW005 SCT025 01/01 Q1013
                        R11/190095=
201901020600 METAR LRTR 020600Z 20006KT 170V230 4500 BR FEW025 01/01 Q1013
                        R11/190095=
201901020630 METAR LRTR 020630Z 22005KT 5000 BR FEW028 01/01 Q1013 R11/190095=
201901020700 METAR LRTR 020700Z 21005KT 7000 FEW011 01/01 Q1013 R11/190095=
201901020730 METAR LRTR 020730Z 21004KT 7000 FEW011 01/01 Q1013 R11/190095=
201901020800 METAR LRTR 020800Z 25006KT 9999 FEW010 01/01 Q1013 R11/190095=
201901020830 METAR LRTR 020830Z 29011KT 9999 FEW010 03/02 Q1013 R11/190095=
201901020900 METAR LRTR 020900Z 29011KT 9999 FEW048 03/02 Q1013 R11/190095=
201901020930 METAR LRTR 020930Z 28012KT 9999 SCT049 03/02 Q1013 R11/190095=
201901021000 METAR LRTR 021000Z 29009KT 9999 FEW023 05/02 Q1013 R11/190095=
201901021030 METAR LRTR 021030Z 30011KT 9999 SCT025 04/01 Q1013 R11/190095=
201901021100 METAR LRTR 021100Z 30012KT 9999 BKN026 04/01 Q1012 R11/190095=
201901021130 METAR LRTR 021130Z 31010KT 9999 BKN028 04/02 Q1012 R11/190095=
201901021200 METAR LRTR 021200Z 31007KT 9999 SCT025 SCT040 04/02 Q1012
                        R11/190095=
201901021230 METAR LRTR 021230Z 29006KT 9999 SCT026 SCT040 04/02 Q1012
                        R11/190095=
201901021300 METAR LRTR 021300Z 29005KT 9999 BKN025 SCT042 04/02 Q1012
                        R11/190095=
201901021330 METAR LRTR 021330Z 30005KT 9999 SCT025 BKN042 04/02 Q1012
                        R11/190095=
201901021400 METAR LRTR 021400Z 28005KT 9999 BKN032 SCT046 04/02 Q1013
                        R11/190095=
201901021430 METAR COR LRTR 021430Z 28007KT 9999 -RA BKN038 04/02 Q1013
                        R11/190095=
201901021500 METAR LRTR 021500Z 32009KT 9999 BKN038 04/01 Q1013 R11/190095=
201901021530 METAR LRTR 021530Z 32009KT 9999 BKN036 03/02 Q1013 R11/190095=
201901021600 METAR LRTR 021600Z 29005KT 9999 SCT046 03/02 Q1013 R11/190095=
201901021630 METAR LRTR 021630Z 29005KT 9999 SCT049 02/01 Q1014 R11/190095=
201901021700 METAR LRTR 021700Z 30005KT CAVOK 02/01 Q1014 R11/190095=
201901021730 METAR LRTR 021730Z 28004KT CAVOK 01/01 Q1014 R11/190095=
201901021800 METAR LRTR 021800Z 30007KT CAVOK 01/01 Q1014 R11/190095=
201901021830 METAR LRTR 021830Z 31009KT CAVOK 01/M00 Q1014 R11/190095=
201901021900 METAR LRTR 021900Z 30004KT CAVOK 00/M00 Q1015 R11/190095=
201901021930 METAR LRTR 021930Z 29007KT CAVOK M00/M01 Q1015 R11/190095=
201901022000 METAR LRTR 022000Z 28007KT CAVOK M00/M01 Q1015 R11/190095=
201901022030 METAR LRTR 022030Z 29006KT CAVOK M00/M01 Q1015 R11/190095=
201901022100 METAR LRTR 022100Z 31005KT CAVOK M01/M01 Q1015 R11/190095=
201901022130 METAR LRTR 022130Z 31006KT CAVOK M01/M01 Q1015 R11/190095=
201901022200 METAR LRTR 022200Z 30005KT CAVOK M01/M01 Q1015 R11/190095=
201901022230 METAR LRTR 022230Z 33006KT CAVOK M01/M01 Q1015 R11/190095=
201901022300 METAR LRTR 022300Z 29006KT CAVOK M01/M01 Q1015 R11/190095=
201901022330 METAR LRTR 022330Z 29005KT CAVOK M01/M01 Q1016 R11/190095=
201901030000 METAR LRTR 030000Z 29003KT CAVOK M01/M01 Q1016 R11/190095=
201901030030 METAR LRTR 030030Z 32004KT CAVOK M00/M00 Q1016 R11/190095=
201901030100 METAR LRTR 030100Z 33006KT CAVOK M00/M00 Q1017 R11/190095=
201901030130 METAR LRTR 030130Z 33007KT CAVOK M00/M00 Q1017 R11/190095=
201901030200 METAR LRTR 030200Z 33009KT CAVOK 00/M00 Q1017 R11/190095=
201901030230 METAR LRTR 030230Z 34009KT CAVOK 00/M00 Q1017 R11/190095=
201901030300 METAR COR LRTR 030300Z 34010KT CAVOK 00/M00 Q1017 R11/190095=
201901030330 METAR COR LRTR 030330Z 33010KT CAVOK M00/M00 Q1017 R11/190095=
201901030400 METAR LRTR 030400Z 32010KT CAVOK M00/M00 Q1018 R11/CLRD//=
201901030430 METAR LRTR 030430Z 32012KT CAVOK M00/M00 Q1018=
201901030500 METAR LRTR 030500Z 33014KT CAVOK M00/M00 Q1018=
201901030530 METAR COR LRTR 030530Z 33012KT 9999 -SN NSC M01/M01 Q1018=
201901030600 METAR LRTR 030600Z 32010KT 9999 -SN NSC M01/M01 Q1019=
201901030630 METAR LRTR 030630Z 32008KT CAVOK M01/M01 Q1019=
201901030700 METAR LRTR 030700Z 32008KT 9999 -SN FEW045 M00/M01 Q1019=
201901030730 METAR LRTR 030730Z 31006KT 9999 -SN FEW049 M00/M02 Q1020=
201901030800 METAR LRTR 030800Z 32009KT 9999 -SN SCT048 M00/M02 Q1020=
201901030830 METAR LRTR 030830Z 32011KT 8000 3000NW -SN BCFG SCT043 M01/M01
                        Q1020=
201901030900 METAR LRTR 030900Z 32007KT 9999 -SN FEW010 SCT039 M01/M01
                        Q1021=
201901030930 METAR LRTR 030930Z 33010KT 5000 -SN BR FEW015 SCT040 M00/M01
                        Q1021=
201901031000 METAR LRTR 031000Z 33010KT 9999 -SN FEW015 00/M02 Q1020=
201901031030 METAR LRTR 031030Z 33010KT 9999 FEW015 00/M02 Q1020=
201901031100 METAR LRTR 031100Z 32012KT 9999 SCT025 00/M02 Q1020=
201901031130 METAR LRTR 031130Z 33013KT 9999 FEW020 SCT040 00/M02 Q1020=
201901031200 METAR LRTR 031200Z 33011KT 9999 FEW040 00/M02 Q1020=
201901031230 METAR LRTR 031230Z 33012KT 9999 FEW038 00/M02 Q1020=
201901031300 METAR LRTR 031300Z 33015KT 9999 FEW015 M00/M02 Q1020=
201901031330 METAR LRTR 031330Z 32012KT 9999 SCT014 M00/M02 Q1021=
201901031400 METAR LRTR 031400Z 32009KT 9999 FEW014 SCT040 M00/M02 Q1021=
201901031430 METAR LRTR 031430Z 33010KT 9999 FEW024 FEW046CB M01/M02 Q1021=
201901031500 METAR LRTR 031500Z 33008KT 9999 FEW020 FEW045CB M01/M03 Q1021=
201901031530 METAR LRTR 031530Z 35017KT 5000 SHSN BR SCT023 SCT040CB M02/M02
                        Q1021=
201901031600 METAR LRTR 031600Z 34005KT 9999 -SHSN FEW023 SCT045CB M03/M03
                        Q1021 RESN R11/590294=
201901031630 METAR LRTR 031630Z 33004KT 9999 -SN FEW023 SCT045CB M03/M03
                        Q1021 R11/590294=
201901031700 METAR LRTR 031700Z 36009KT 9999 BKN023 SCT045CB M02/M03 Q1022
                        R11/590294=
201901031730 METAR LRTR 031730Z 01011KT 2000 SHSN BR SCT015 BKN022CB M03/M03
                        Q1021 R11/590294 TEMPO 1500 +SHSN=
201901031800 METAR LRTR 031800Z 02005KT 9999 -SHSN FEW015 SCT034CB M03/M03
                        Q1022 RESHSN R11/590593 TEMPO 5000
                        SHSN=
201901031830 METAR LRTR 031830Z 35011KT 1000 R11/1900U R29/1800U +SHSN
                        SCT010 BKN030CB M03/M03 Q1022 R11/590593
                        BECMG 1500=
201901031900 METAR LRTR 031900Z 30002KT 9999 FEW040CB M04/M04 Q1021 RESHSN
                        R11/590593 NOSIG=
201901031930 METAR LRTR 031930Z 32004KT 9999 FEW050CB M04/M04 Q1022 R11/590593
                        NOSIG=
201901032000 METAR LRTR 032000Z 33003KT 4500 MIFG BR NSC M06/M06 Q1022
                        R11/591093 TEMPO 3000 MIFG=
201901032030 METAR LRTR 032030Z 01004KT 9999 MIFG FEW001 M07/M07 Q1022
                        R11/591093 TEMPO 5000 MIFG=
201901032100 METAR LRTR 032100Z 03002KT CAVOK M08/M08 Q1022 R11/591093
                        NOSIG=
201901032130 METAR LRTR 032130Z 32003KT CAVOK M08/M08 Q1022 R11/591093
                        NOSIG=
201901032200 METAR LRTR 032200Z 34003KT 8000 NSC M07/M07 Q1023 R11/591093
                        NOSIG=
201901032230 METAR LRTR 032230Z 34004KT 8000 SCT045 M07/M07 Q1023 R11/591093
                        NOSIG=
201901032300 METAR LRTR 032300Z 35006KT 9999 SCT045 M06/M06 Q1023 R11/591093
                        NOSIG=
201901032330 METAR LRTR 032330Z 35006KT CAVOK M06/M06 Q1023 R11/591093
                        NOSIG=
201901040000 METAR LRTR 040000Z 35006KT CAVOK M07/M07 Q1023 R11/591093
                        NOSIG=
201901040030 METAR LRTR 040030Z 01005KT CAVOK M08/M08 Q1023 R11/591093
                        NOSIG=
201901040100 METAR LRTR 040100Z 36007KT CAVOK M07/M08 Q1023 R11/591093
                        NOSIG=
201901040130 METAR LRTR 040130Z 36006KT CAVOK M08/M08 Q1023 R11/591093
                        NOSIG=
201901040200 METAR LRTR 040200Z 35006KT CAVOK M08/M08 Q1023 R11/591093
                        NOSIG=
201901040230 METAR LRTR 040230Z 01002KT CAVOK M09/M09 Q1023 R11/591093
                        NOSIG=
201901040300 METAR LRTR 040300Z 01003KT CAVOK M10/M10 Q1023 R11/591093
                        NOSIG=
201901040330 METAR LRTR 040330Z 34003KT 9999 SCT025 M09/M09 Q1024 R11/591093
                        NOSIG=
201901040400 METAR LRTR 040400Z 36003KT 9999 -SN SCT017 OVC035 M07/M07
                        Q1024 R11/590593 NOSIG=
201901040430 METAR LRTR 040430Z 01004KT 9999 -SN SCT017 BKN032 M08/M08
                        Q1024 R11/590593 NOSIG=
201901040500 METAR LRTR 040500Z 34003KT 7000 -SN SCT022 OVC040 M07/M07
                        Q1024 R11/590893 TEMPO 5000 SN=
201901040530 METAR LRTR 040530Z 34005KT 9999 -SN SCT018 BKN032 M06/M06
                        Q1024 R11/590893 TEMPO 5000 SN=
201901040600 METAR LRTR 040600Z 32006KT 9999 -SN FEW018 BKN035 M06/M06
                        Q1024 R11/590893=
201901040630 METAR COR LRTR 040630Z 33008KT 9999 FEW020 SCT035 M06/M06
                        Q1025 R11/590893=
201901040700 METAR LRTR 040700Z 33006KT 9999 SCT040 M05/M05 Q1025 R11/590893=
201901040730 METAR LRTR 040730Z 35007KT 9999 SCT030 M04/M04 Q1026 R11/590893=
201901040800 METAR LRTR 040800Z 01007KT 9999 FEW020 BKN035 M03/M04 Q1026
                        R11/590893=
201901040830 METAR LRTR 040830Z 36007KT 9999 FEW020 BKN035 M03/M04 Q1026
                        R11/590893=
201901040900 METAR LRTR 040900Z 36009KT 9999 FEW015 BKN035 M03/M04 Q1026
                        R11/590893=
201901040930 METAR LRTR 040930Z 36009KT 9999 FEW014 BKN035 M03/M04 Q1026
                        R11/590893=
201901041000 METAR LRTR 041000Z 36008KT 9999 BKN012 BKN035 M02/M03 Q1026
                        R11/590893=
201901041030 METAR COR LRTR 041030Z 36009KT 9999 BKN012 M02/M04 Q1026
                        R11/590893=
201901041100 METAR LRTR 041100Z 34010KT 9999 SCT012 M02/M04 Q1026 R11/590893=
201901041130 METAR LRTR 041130Z 36008KT 9999 FEW012 M02/M05 Q1026 R11/590893=
201901041200 METAR LRTR 041200Z 36010KT 9999 FEW014 M02/M05 Q1026 R11/590893=
201901041230 METAR LRTR 041230Z 34011KT 9999 FEW014 SCT030 M02/M04 Q1026
                        R11/590893=
201901041300 METAR COR LRTR 041300Z 36010KT 9999 SCT015 BKN033 M02/M04
                        Q1026 R11/590893=
201901041330 METAR LRTR 041330Z 36009KT 9999 SCT018 BKN033 M02/M04 Q1027
                        R11/590893=
201901041400 METAR LRTR 041400Z 01007KT 9999 FEW014 SCT033 M02/M05 Q1027
                        R11/190095=
201901041430 METAR LRTR 041430Z 01005KT 9999 FEW014 SCT032 M02/M05 Q1027
                        R11/190095=
201901041500 METAR LRTR 041500Z 36006KT 9999 FEW035 M02/M05 Q1027 R11/190095=
201901041530 METAR LRTR 041530Z 36005KT 9999 FEW035 M03/M04 Q1027 R11/190095=
201901041600 METAR LRTR 041600Z 34004KT 9999 FEW035 M03/M04 Q1027 R11/190095=
201901041630 METAR COR LRTR 041630Z 33005KT CAVOK M03/M04 Q1027 R11/190095=
201901041700 METAR LRTR 041700Z 33005KT CAVOK M03/M04 Q1027 R11/190095=
201901041730 METAR LRTR 041730Z 32004KT 9999 FEW030 M03/M04 Q1027 R11/190095=
201901041800 METAR LRTR 041800Z 33004KT 9999 FEW029 M04/M04 Q1027 R11/190095=
201901041830 METAR LRTR 041830Z 33004KT 7000 FEW040 M04/M04 Q1027 R11/190095=
201901041900 METAR LRTR 041900Z 32004KT 7000 FEW036 M05/M05 Q1027 R11/190095=
201901041930 METAR LRTR 041930Z 30003KT 5000 BR FEW040 M05/M05 Q1027 R11/190095=
201901042000 METAR LRTR 042000Z 29005KT 5000 BR FEW040 M05/M05 Q1026 R11/190095=
201901042030 METAR LRTR 042030Z 27003KT 150V280 4500 BR FEW040 M06/M06
                        Q1026 R11/190095=
201901042100 METAR LRTR 042100Z 29003KT 4000 BR FEW040 M06/M06 Q1026 R11/190095=
201901042130 METAR LRTR 042130Z 30003KT 3500 BR FEW040 M06/M06 Q1026 R11/190095=
201901042200 METAR COR LRTR 042200Z 28001KT 3500 0800E R11/0450D R29/P2000D
                        BCFG BR NSC M07/M07 Q1026 R11/190095=
201901042230 METAR LRTR 042230Z 00000KT 2500 0800NE R11/0450D R29/P2000D
                        BCFG BR NSC M08/M08 Q1026 R11/190095=
201901042300 METAR LRTR 042300Z 00000KT 0800 R11/0900D R29/0275N FZFG
                        NSC M08/M08 Q1026 R11/190095=
201901042330 METAR LRTR 042330Z 00000KT 0250 R11/0350N R29/0325N FZFG
                        NSC M08/M08 Q1026 R11/190095=
201901050000 METAR LRTR 050000Z 10003KT 0200 R11/1500U R29/0600U FZFG
                        SCT001 M09/M09 Q1026 R11/190095=
201901050030 METAR LRTR 050030Z 12003KT 0300 R11/0375N R29/1300D FZFG
                        SCT002 M09/M09 Q1025 R11/190095=
201901050100 METAR LRTR 050100Z 10003KT 0350 R11/0400N R29/P2000 FZFG
                        SCT001 M08/M08 Q1025 R11/190095=
201901050130 METAR LRTR 050130Z 08004KT 0800 R11/P2000 R29/1500D FZFG
                        SCT002 M08/M08 Q1025 R11/190095=
201901050200 METAR LRTR 050200Z 10004KT 1000 R11/1500D R29/P2000 BR SCT003
                        M09/M09 Q1025 R11/190095=
201901050230 METAR LRTR 050230Z 09004KT 2000 BR FEW001 SCT005 M08/M08
                        Q1024 R11/190095=
201901050300 METAR LRTR 050300Z 13005KT 2000 BR SCT003 M08/M08 Q1024 R11/190095=
201901050330 METAR LRTR 050330Z 14006KT 0800 R11/1100N R29/1600D FZFG
                        BKN002 M08/M07 Q1024 R11/190095=
201901050400 METAR LRTR 050400Z 14007KT 0200 R11/0500N R29/0450N FZFG
                        VV002 M08/M08 Q1023 R11/190095=
201901050430 METAR LRTR 050430Z 13005KT 0400 R11/0500U R29/0450N FZFG
                        VV002 M08/M08 Q1023 R11/190095=
201901050500 METAR LRTR 050500Z 14006KT 0500 R11/0600N R29/0750N FZFG
                        VV002 M07/M07 Q1023 R11/190095=
201901050530 METAR LRTR 050530Z 14006KT 0700 R11/0800D R29/0900VU FZFG
                        VV002 M07/M07 Q1023 R11/190095=
201901050600 METAR LRTR 050600Z 17006KT 0900 R11/1000D R29/1700D SG FZFG
                        VV002 M07/M07 Q1023 R11/190095=
201901050630 METAR LRTR 050630Z 16006KT 0800 R11/1100U R29/0650N FZFG
                        VV002 M08/M08 Q1023 RESG R11/190095=
201901050700 METAR LRTR 050700Z 16006KT 0900 R11/1300D R29/0900U FZFG
                        VV002 M08/M08 Q1022 R11/190095=
201901050730 METAR LRTR 050730Z 17006KT 0900 R11/1000U R29/1500U FZFG
                        VV001 M07/M07 Q1022 R11/190095=
201901050800 METAR LRTR 050800Z 17007KT 1800 BR OVC002 M06/M06 Q1022 R11/190095=
201901050830 METAR LRTR 050830Z 17009KT 2000 BR BKN002 OVC043 M05/M05
                        Q1021 R11/190095=
201901050900 METAR LRTR 050900Z 18009KT 4000 BR SCT004 OVC044 M05/M05
                        Q1021 R11/190095=
201901050930 METAR COR LRTR 050930Z 18010KT 6000 FEW006 OVC044 M04/M04
                        Q1020 R11/190095=
201901051000 METAR COR LRTR 051000Z 19010KT 7000 -SN SCT007 OVC045 M04/M04
                        Q1020 R11/190095=
201901051030 METAR LRTR 051030Z 19011KT 6000 -SN FEW006 OVC023 M04/M04
                        Q1019 R11/190095=
201901051100 METAR LRTR 051100Z 19011KT 6000 -SN FEW008 BKN023 M04/M04
                        Q1018 R11/190095=
201901051130 METAR LRTR 051130Z 19012KT 3000 -SN BR SCT008 BKN025 M03/M03
                        Q1018 R11/190095=
201901051200 METAR LRTR 051200Z 18011KT 3000 -SN BR SCT008 BKN030 M03/M03
                        Q1017 R11/190095=
201901051230 METAR LRTR 051230Z 19010KT 5000 -SN BR BKN009 BKN027 M03/M03
                        Q1017 R11/190095=
201901051300 METAR LRTR 051300Z 18011KT 5000 -SN BR BKN009 BKN034 M03/M03
                        Q1016 R11/190095=
201901051330 METAR LRTR 051330Z 20011KT 3500 -SN BR BKN009 BKN023 M03/M03
                        Q1016 R11/550394=
201901051400 METAR LRTR 051400Z 20011KT 2500 -SN BR BKN009 OVC034 M03/M03
                        Q1016 R11/550394=
201901051430 METAR LRTR 051430Z 19011KT 3000 -SN BR SCT007 BKN020 OVC034
                        M03/M03 Q1016 R11/550394=
201901051500 METAR LRTR 051500Z 19009KT 2000 -SN BR BKN008 OVC033 M03/M03
                        Q1015 R11/590593=
201901051530 METAR LRTR 051530Z 19010KT 2500 SN BR BKN008 OVC033 M03/M03
                        Q1015 R11/590593=
201901051600 METAR LRTR 051600Z 19010KT 2700 SN BKN007 OVC033 M03/M03
                        Q1015 R11/591093=
201901051630 METAR LRTR 051630Z 18010KT 2500 SN BR FEW004 SCT006 OVC028
                        M03/M03 Q1014 R11/591093=
201901051700 METAR COR LRTR 051700Z 18009KT 2000 SN BR SCT007 BKN012 OVC025
                        M03/M03 Q1014 R11/591093=
201901051730 METAR COR LRTR 051730Z 18010KT 1000 R11/P2000 R29/P2000 SN
                        BR SCT005 BKN012 OVC025 M03/M03 Q1014
                        R11/591093=
201901051800 METAR LRTR 051800Z 18008KT 1200 R11/P2000 R29/P2000 SN BR
                        FEW006 BKN012 OVC025 M03/M03 Q1014
                        R11/591093=
201901051830 METAR LRTR 051830Z 18008KT 1400 R11/P2000 R29/P2000 SN BR
                        FEW006 BKN012 OVC025 M03/M03 Q1014
                        R11/590593=
201901051900 METAR LRTR 051900Z 18008KT 1500 SN BR BKN007 OVC015 M03/M03
                        Q1013 R11/590593=
201901051930 METAR COR LRTR 051930Z 17007KT 1500 SN BR SCT007 OVC012 M03/M03
                        Q1013 R11/590593=
201901052000 METAR LRTR 052000Z 18008KT 2000 SN BR BKN006 OVC012 M03/M03
                        Q1013 R11/590593=
201901052030 METAR LRTR 052030Z 17007KT 3000 -SN BR SCT006 OVC014 M03/M03
                        Q1013 RESN R11/590593=
201901052100 METAR LRTR 052100Z 18005KT 4000 -SN BR BKN005 OVC012 M03/M03
                        Q1013 R11/590593=
201901052130 METAR COR LRTR 052130Z 16005KT 4000 -SN BR BKN005 OVC012
                        M03/M03 Q1012 R11/590593=
201901052200 METAR LRTR 052200Z 13004KT 4500 -SN BR OVC005 M03/M03 Q1012
                        R11/590593=
201901052230 METAR LRTR 052230Z 09004KT 4500 -SN BR OVC005 M03/M03 Q1012
                        R11/590593=
201901052300 METAR LRTR 052300Z 09005KT 4500 -SN BR OVC004 M03/M03 Q1012
                        R11/590593=
201901052330 METAR LRTR 052330Z 08003KT 5000 BR OVC004 M03/M03 Q1013 R11/590593=
201901060000 METAR LRTR 060000Z 07004KT 5000 -SN BR OVC004 M03/M03 Q1013
                        R11/590593=
201901060030 METAR LRTR 060030Z 07002KT 4000 -SN BR OVC004 M03/M03 Q1013
                        R11/590593=
201901060100 METAR LRTR 060100Z 10004KT 3000 -SN BR OVC003 M03/M03 Q1013
                        R11/590593=
201901060130 METAR LRTR 060130Z 08005KT 1500 BR OVC002 M03/M03 Q1013 R11/590593=
201901060200 METAR COR LRTR 060200Z VRB02KT 0600 R11/1500D R29/P2000 FZFG
                        OVC002 M03/M03 Q1013 R11/590593=
201901060230 METAR LRTR 060230Z 34003KT 0700 R11/1700U R29/P2000 FZFG
                        OVC002 M03/M03 Q1013 R11/590593=
201901060300 METAR LRTR 060300Z 31006KT 0500 R11/1500D R29/2000 FZFG OVC002
                        M03/M03 Q1013 R11/590593=
201901060330 METAR COR LRTR 060330Z 31007KT 0300 R11/0900N R29/1400U FZFG
                        OVC002 M02/M02 Q1013 R11/590593=
201901060400 METAR LRTR 060400Z 33009KT 1000 R11/P2000 R29/2000 -SN BR
                        OVC002 M02/M02 Q1013 R11/590593=
201901060430 METAR LRTR 060430Z 32010KT 2500 -SN BR BKN002 OVC004 M02/M02
                        Q1013 R11/590593=
201901060500 METAR LRTR 060500Z 32010KT 3000 BR BKN003 M02/M02 Q1014 R11/590593=
201901060530 METAR LRTR 060530Z 33009KT 3000 BR BKN003 M02/M02 Q1014 R11/590593
                        BECMG BKN005=
201901060600 METAR LRTR 060600Z 33009KT 3000 -SN BR BKN004 M02/M02 Q1014
                        R11/590593 BECMG BKN005=
201901060630 METAR LRTR 060630Z 34009KT 3000 -SN BR SCT005 M02/M02 Q1014
                        R11/590593 NOSIG=
201901060700 METAR LRTR 060700Z 36007KT 3500 -SN BR NSC M02/M02 Q1014
                        R11/590593 TEMPO 5000=
201901060730 METAR LRTR 060730Z 36007KT 4500 -SN BR NSC M02/M02 Q1015
                        R11/590593 TEMPO 5000=
201901060800 METAR LRTR 060800Z 35006KT 5000 -SN BR NSC M02/M02 Q1015
                        R11/590593 NOSIG=
201901060830 METAR LRTR 060830Z 36005KT 5000 -SN BR NSC M01/M01 Q1015
                        R11/590593 NOSIG=
201901060900 METAR LRTR 060900Z 36007KT 4000 -SN BR FEW040 M01/M01 Q1016
                        R11/550394 BECMG 3000 -SN BR=
201901060930 METAR LRTR 060930Z 36007KT 3500 -SN BR FEW040 M01/M01 Q1016
                        R11/550394 TEMPO 3000 -SN BR=
201901061000 METAR LRTR 061000Z 36006KT 3000 -SN BR BKN040 M01/M01 Q1016
                        R11/550394 NOSIG=
201901061030 METAR LRTR 061030Z 36007KT 5000 -SN BR NSC M01/M01 Q1016
                        R11/550394 NOSIG=
201901061100 METAR LRTR 061100Z 31006KT 5000 BR NSC M01/M01 Q1016 R11/550394
                        NOSIG=
201901061130 METAR LRTR 061130Z 33006KT 5000 BR NSC M00/M01 Q1016 R11/550394
                        NOSIG=
201901061200 METAR LRTR 061200Z 36010KT 8000 NSC 00/M02 Q1016 R11/550394
                        NOSIG=
201901061230 METAR LRTR 061230Z 02009KT CAVOK M00/M02 Q1016 R11/550394
                        NOSIG=
201901061300 METAR LRTR 061300Z 01008KT CAVOK M00/M02 Q1016 R11/29//95
                        NOSIG=
201901061330 METAR LRTR 061330Z 35009KT CAVOK 00/M02 Q1016 R11/29//95
                        NOSIG=
201901061400 METAR LRTR 061400Z 35010KT CAVOK M00/M02 Q1017 R11/29//95
                        NOSIG=
201901061430 METAR LRTR 061430Z 34008KT CAVOK M00/M02 Q1017 R11/29//95
                        NOSIG=
201901061500 METAR LRTR 061500Z 33008KT CAVOK M01/M02 Q1017 R11/29//95
                        NOSIG=
201901061530 METAR LRTR 061530Z 34008KT CAVOK M01/M02 Q1017 R11/29//95
                        NOSIG=
201901061600 METAR LRTR 061600Z 34008KT CAVOK M01/M02 Q1018 R11/29//95
                        NOSIG=
201901061630 METAR LRTR 061630Z 34011KT 9999 FEW025 M01/M04 Q1018 R11/29//95
                        NOSIG=
201901061700 METAR LRTR 061700Z 35014KT CAVOK M02/M06 Q1018 R11/29//95
                        NOSIG=
201901061730 METAR LRTR 061730Z 35013KT CAVOK M02/M06 Q1019 R11/29//95=
201901061800 METAR LRTR 061800Z 36010KT CAVOK M02/M06 Q1019 R11/29//95=
201901061830 METAR LRTR 061830Z 33009KT CAVOK M02/M06 Q1019 R11/29//95=
201901061900 METAR LRTR 061900Z 35013KT CAVOK M03/M07 Q1019 R11/29//95=
201901061930 METAR LRTR 061930Z 35013KT CAVOK M04/M07 Q1019 R11/29//95=
201901062000 METAR LRTR 062000Z 35013KT CAVOK M04/M07 Q1019 R11/29//95=
201901062030 METAR COR LRTR 062030Z 35011KT CAVOK M04/M07 Q1019 R11/29//95=
201901062100 METAR LRTR 062100Z 34010KT CAVOK M04/M07 Q1020 R11/29//95=
201901062130 METAR LRTR 062130Z 35012KT CAVOK M05/M07 Q1020 R11/29//95=
201901062200 METAR LRTR 062200Z 35011KT CAVOK M05/M08 Q1020 R11/29//95=
201901062230 METAR LRTR 062230Z 35015KT CAVOK M05/M07 Q1021 R11/29//95=
201901062300 METAR LRTR 062300Z 35015KT CAVOK M05/M07 Q1021 R11/290093=
201901062330 METAR LRTR 062330Z 35016KT CAVOK M05/M08 Q1021 R11/290093=
201901070000 METAR LRTR 070000Z 35016KT CAVOK M06/M08 Q1021 R11/290093=
201901070030 METAR LRTR 070030Z 35014KT CAVOK M06/M09 Q1022 R11/490193=
201901070100 METAR LRTR 070100Z 35015KT CAVOK M07/M09 Q1022 R11/490193=
201901070130 METAR LRTR 070130Z 35013KT CAVOK M07/M09 Q1022 R11/490193=
201901070200 METAR LRTR 070200Z 35012KT CAVOK M08/M09 Q1022 R11/490193=
201901070230 METAR LRTR 070230Z 35014KT CAVOK M08/M09 Q1022 R11/490193=
201901070300 METAR LRTR 070300Z 35013KT CAVOK M08/M09 Q1023 R11/490193=
201901070330 METAR LRTR 070330Z 35013KT CAVOK M08/M10 Q1023 R11/490193=
201901070400 METAR LRTR 070400Z 34011KT CAVOK M08/M10 Q1023 R11/490393=
201901070430 METAR LRTR 070430Z 35012KT CAVOK M08/M09 Q1024 R11/490393=
201901070500 METAR LRTR 070500Z 36011KT CAVOK M08/M09 Q1024 R11/490393=
201901070530 METAR LRTR 070530Z 34008KT CAVOK M07/M09 Q1024 R11/490393=
201901070600 METAR LRTR 070600Z 32008KT CAVOK M08/M09 Q1025 R11/490393=
201901070630 METAR LRTR 070630Z 35012KT CAVOK M07/M08 Q1025 R11/490393=
201901070700 METAR LRTR 070700Z 35011KT CAVOK M07/M08 Q1026 R11/490393=
201901070730 METAR LRTR 070730Z 35010KT CAVOK M06/M07 Q1026 R11/490393=
201901070800 METAR LRTR 070800Z 35012KT CAVOK M06/M07 Q1026 R11/490393=
201901070830 METAR LRTR 070830Z 35011KT CAVOK M05/M07 Q1027 R11/450393=
201901070900 METAR LRTR 070900Z 34009KT CAVOK M05/M07 Q1027 R11/450393=
201901070930 METAR LRTR 070930Z 34010KT CAVOK M05/M07 Q1027 R11/450393=
201901071000 METAR LRTR 071000Z 36012KT CAVOK M04/M06 Q1027 R11/450393=
201901071030 METAR LRTR 071030Z 35010KT CAVOK M04/M06 Q1027 R11/450393=
201901071100 METAR LRTR 071100Z 36007KT CAVOK M04/M06 Q1027 R11/450393=
201901071130 METAR LRTR 071130Z 36007KT CAVOK M04/M06 Q1027 R11/450393=
201901071200 METAR LRTR 071200Z 36007KT CAVOK M03/M06 Q1027 R11/450393=
201901071230 METAR LRTR 071230Z 34005KT CAVOK M03/M06 Q1027 R11/450393=
201901071300 METAR LRTR 071300Z 33006KT CAVOK M03/M06 Q1027 R11/450393=
201901071330 METAR LRTR 071330Z 35004KT CAVOK M04/M06 Q1027 R11/420395=
201901071400 METAR LRTR 071400Z 32006KT CAVOK M04/M06 Q1027 R11/420395=
201901071430 METAR LRTR 071430Z 32005KT 9999 FEW016 M05/M06 Q1027 R11/420395=
201901071500 METAR LRTR 071500Z 30003KT 9999 FEW015 M06/M07 Q1028 R11/420395=
201901071530 METAR LRTR 071530Z 32005KT 8000 NSC M07/M07 Q1028 R11/420395=
201901071600 METAR LRTR 071600Z 32006KT 5000 BR NSC M08/M08 Q1028 R11/420395=
201901071630 METAR LRTR 071630Z 31005KT 5000 BR NSC M09/M09 Q1028 R11/420395=
201901071700 METAR LRTR 071700Z 31004KT 5000 BR NSC M09/M09 Q1028 R11/420395=
201901071730 METAR LRTR 071730Z 29004KT 5000 BR NSC M09/M09 Q1028 R11/420395
                        NOSIG=
201901071800 METAR LRTR 071800Z 31003KT 4500 BR NSC M09/M09 Q1028 R11/420395
                        BECMG 3000 BR=
201901071830 METAR LRTR 071830Z 31006KT 3500 BR NSC M11/M11 Q1028 R11/420395
                        BECMG 3000 BR=
201901071900 METAR LRTR 071900Z 30005KT 3500 BR NSC M11/M11 Q1028 R11/410395
                        BECMG 3000 BR=
201901071930 METAR LRTR 071930Z VRB01KT 3000 BR NSC M11/M11 Q1028 R11/410395
                        NOSIG=
201901072000 METAR LRTR 072000Z 21003KT 3000 BR NSC M11/M11 Q1028 R11/410395
                        NOSIG=
201901072030 METAR LRTR 072030Z 25002KT 3000 BR NSC M12/M12 Q1028 R11/410395
                        TEMPO 1500 BR=
201901072100 METAR LRTR 072100Z 30002KT 2500 BR NSC M12/M12 Q1028 R11/410395
                        TEMPO 1500 BR=
201901072130 METAR LRTR 072130Z 00000KT 1500 BR NSC M11/M11 Q1028 R11/410395
                        NOSIG=
201901072200 METAR LRTR 072200Z 10002KT 1500 BR SCT003 M14/M14 Q1028 R11/410395
                        TEMPO 0800 FZFG BKN003=
201901072230 METAR LRTR 072230Z 09003KT 0800 R11/P2000 R29/P2000 FZFG
                        SCT005 M14/M14 Q1028 R11/410395 TEMPO
                        0600 FZFG BKN005=
201901072300 METAR LRTR 072300Z 10004KT 0700 R11/0600D R29/0800U FZFG
                        BKN001 M14/M14 Q1028 R11/410395 TEMPO
                        0600 FZFG=
201901072330 METAR LRTR 072330Z 09005KT 0800 R11/P2000 R29/P2000 FZFG
                        BKN001 M14/M14 Q1028 R11/410395 TEMPO
                        0600 FZFG=
201901080000 METAR LRTR 080000Z 10005KT 1500 BR BKN001 M14/M14 Q1027 R11/410395
                        TEMPO 0800 FZFG=
201901080030 METAR LRTR 080030Z 09005KT 1500 BR SCT001 SCT020 M15/M15
                        Q1027 R11/410395 TEMPO 0800 FZFG=
201901080100 METAR LRTR 080100Z 11004KT 1500 BR FEW001 M15/M15 Q1027 R11/410395
                        NOSIG=
201901080130 METAR LRTR 080130Z 13004KT 1500 BR FEW020 M14/M15 Q1026 R11/410395
                        NOSIG=
201901080200 METAR LRTR 080200Z 14004KT 2500 BR FEW020 M15/M15 Q1026 R11/410395
                        NOSIG=
201901080230 METAR LRTR 080230Z 12005KT 3000 BR FEW020 M14/M14 Q1026 R11/410395
                        NOSIG=
201901080300 METAR LRTR 080300Z 14004KT 3000 BR FEW020 M13/M13 Q1025 R11/410395
                        NOSIG=
201901080330 METAR LRTR 080330Z VRB02KT 2000 BR BKN001 M13/M13 Q1025 R11/410395
                        BECMG 1500 BR=
201901080400 METAR LRTR 080400Z 11003KT 0800 R11/P2000D R29/2000 FZFG
                        BKN001 M13/M13 Q1025 R11/410395 NOSIG=
201901080430 METAR LRTR 080430Z 11005KT 1500 BR BKN001 M12/M12 Q1025 R11/410395
                        TEMPO 0800 FZFG=
201901080500 METAR LRTR 080500Z 12006KT 2000 BR FEW001 BKN003 M12/M12
                        Q1024 R11/410395=
201901080530 METAR LRTR 080530Z 10004KT 3000 BR FEW003 M12/M12 Q1024 R11/410395=
201901080600 METAR COR LRTR 080600Z 11006KT 3000 BR FEW003 M12/M12 Q1023
                        R11/410395=
201901080630 METAR LRTR 080630Z 12006KT 3000 BR FEW004 M13/M13 Q1023 R11/410395=
201901080700 METAR LRTR 080700Z 12006KT 3000 BR FEW035 M11/M11 Q1023 R11/410395=
201901080730 METAR LRTR 080730Z 13004KT 3000 BR SCT037 M10/M10 Q1022 R11/410395=
201901080800 METAR LRTR 080800Z 15005KT 4000 BR SCT037 M08/M08 Q1022 R11/410395=
201901080830 METAR LRTR 080830Z 16007KT 5000 BR FEW037 M08/M08 Q1021 R11/410395=
201901080900 METAR LRTR 080900Z 17008KT 5000 BR FEW037 M07/M07 Q1021 R11/410395=
201901080930 METAR LRTR 080930Z 16009KT 7000 NSC M06/M06 Q1020 R11/410395=
201901081000 METAR LRTR 081000Z 16008KT 8000 NSC M05/M06 Q1019 R11/410395=
201901081030 METAR LRTR 081030Z 16010KT 8000 BKN048 M05/M06 Q1018 R11/410395=
201901081100 METAR LRTR 081100Z 16010KT 9999 BKN048 M04/M06 Q1017 R11/410395=
201901081130 METAR LRTR 081130Z 18008KT 9999 BKN045 M04/M06 Q1017 R11/410395=
201901081200 METAR LRTR 081200Z 18010KT 9999 FEW027 BKN040 M04/M06 Q1016
                        R11/410395=
201901081230 METAR LRTR 081230Z 18009KT 9999 BKN030 OVC040 M04/M07 Q1016
                        R11/410395=
201901081300 METAR LRTR 081300Z 18009KT 9999 BKN030 BKN040 M03/M06 Q1015
                        R11/410395=
201901081330 METAR LRTR 081330Z 17008KT 9999 OVC034 M03/M06 Q1015 R11/410395=
201901081400 METAR LRTR 081400Z 18008KT 9999 BKN034 M03/M06 Q1015 R11/410395=
201901081430 METAR COR LRTR 081430Z 16010KT 9999 SCT034 M04/M06 Q1014
                        R11/410395=
201901081500 METAR LRTR 081500Z 17009KT 9999 BKN028 M04/M06 Q1014 R11/410395=
201901081530 METAR LRTR 081530Z 16008KT 8000 -SN BKN028 M04/M06 Q1013
                        R11/410395=
201901081600 METAR LRTR 081600Z 16008KT 3000 -SN BR FEW015 BKN023 M04/M05
                        Q1013 R11/410395=
201901081630 METAR LRTR 081630Z 16010KT 2500 -SN BR FEW015 BKN023 M04/M04
                        Q1012 R11/590294=
201901081700 METAR LRTR 081700Z 16010KT 2500 -SN BR BKN025 M04/M04 Q1012
                        R11/590294=
201901081730 METAR LRTR 081730Z 16010KT 2500 -SN BR FEW012 BKN024 OVC048
                        M04/M04 Q1011 R11/590294=
201901081800 METAR LRTR 081800Z 16011KT 2000 -SN BR SCT010 BKN023 OVC045
                        M04/M04 Q1011 R11/590593=
201901081830 METAR LRTR 081830Z 15010KT 2000 -SN BR FEW007 BKN022 OVC045
                        M04/M04 Q1011 R11/590593=
201901081900 METAR LRTR 081900Z 16010KT 2000 -SN BR FEW005 BKN021 OVC040
                        M04/M04 Q1011 R11/590593=
201901081930 METAR LRTR 081930Z 16009KT 1500 SN BR SCT006 BKN018 OVC030
                        M04/M04 Q1010 R11/590593=
201901082000 METAR LRTR 082000Z 16008KT 3500 -SN BR FEW009 BKN013 OVC030
                        M04/M04 Q1010 RESN R11/590993=
201901082030 METAR LRTR 082030Z 15007KT 5000 -SN BR FEW007 BKN015 OVC028
                        M04/M04 Q1010 R11/590993=
201901082100 METAR LRTR 082100Z 15007KT 5000 -SN BR FEW007 BKN015 OVC025
                        M04/M04 Q1009 R11/590993=
201901082130 METAR LRTR 082130Z 16007KT 8000 -SN FEW007 OVC021 M03/M03
                        Q1009 R11/590393=
201901082200 METAR LRTR 082200Z 15008KT 9999 -SN FEW009 BKN017 OVC025
                        M03/M03 Q1009 R11/590393=
201901082230 METAR LRTR 082230Z 16007KT 9999 -SN BKN011 OVC022 M03/M03
                        Q1009 R11/590393=
201901082300 METAR LRTR 082300Z 15006KT 9999 BKN009 OVC020 M03/M03 Q1008
                        R11/590393=
201901082330 METAR LRTR 082330Z 16007KT 4000 -SN BR BKN008 OVC020 M02/M02
                        Q1008 R11/590393=
201901090000 METAR LRTR 090000Z 17007KT 2000 -SN BR BKN008 OVC020 M02/M02
                        Q1007 R11/590393=
201901090030 METAR LRTR 090030Z 18009KT 5000 -SN BR BKN006 OVC020 M02/M02
                        Q1007 R11/590393=
201901090100 METAR LRTR 090100Z 19008KT 5000 -SN BR BKN006 OVC020 M02/M02
                        Q1007 R11/590393=
201901090130 METAR LRTR 090130Z 19010KT 3000 -SN BR BKN006 OVC020 M02/M02
                        Q1007 R11/590393=
201901090200 METAR LRTR 090200Z 18010KT 3000 -SN BR BKN006 OVC020 M02/M02
                        Q1007 R11/590393=
201901090230 METAR LRTR 090230Z 19010KT 2000 SN BR BKN005 OVC020 M01/M01
                        Q1007 R11/590393=
201901090300 METAR LRTR 090300Z 19010KT 2000 SN BR BKN005 OVC020 M01/M01
                        Q1006 R11/590393=
201901090330 METAR LRTR 090330Z 18009KT 3000 -SN BR SCT005 BKN011 OVC020
                        M01/M01 Q1006 RESN R11/591093=
201901090400 METAR LRTR 090400Z 18009KT 6000 -SN SCT005 BKN011 OVC025
                        M01/M01 Q1006 R11/591093=
201901090430 METAR LRTR 090430Z 19011KT 6000 -SN SCT006 BKN018 OVC028
                        M01/M01 Q1005 R11/591093=
201901090500 METAR LRTR 090500Z 20009KT 6000 -RASN FEW006 BKN018 OVC030
                        M01/M01 Q1006 R11/591093=
201901090530 METAR LRTR 090530Z 20008KT 7000 -RASN OVC007 M01/M01 Q1006
                        R11/590393=
201901090600 METAR LRTR 090600Z 18006KT 4500 -SN OVC008 M01/M01 Q1006
                        R11/590393=
201901090630 METAR LRTR 090630Z 18006KT 4500 -SN FEW003 BKN012 OVC030
                        M01/M01 Q1005 R11/590393=
201901090700 METAR LRTR 090700Z 17008KT 6000 -SN FEW004 SCT030 M00/M00
                        Q1005 R11/590593=
201901090730 METAR LRTR 090730Z 18010KT 7000 FEW005 SCT040 M00/M00 Q1005
                        R11/590593=
201901090800 METAR LRTR 090800Z 17009KT 9000 SCT035 BKN048 M00/M00 Q1005
                        R11/590593=
201901090830 METAR LRTR 090830Z 18007KT 9999 SCT046 00/00 Q1005 R11/590593=
201901090900 METAR LRTR 090900Z 19007KT 9999 FEW010 01/00 Q1006 R11/590593=
201901090930 METAR LRTR 090930Z 21004KT 170V230 9999 SCT022 01/00 Q1006
                        R11/590593=
201901091000 METAR LRTR 091000Z 20006KT 9999 SCT021 01/00 Q1006 R11/590593=
201901091030 METAR LRTR 091030Z 19006KT 9999 FEW017 BKN022 01/00 Q1005
                        R11/590393=
201901091100 METAR LRTR 091100Z 19008KT 9999 SCT019 BKN030 01/M00 Q1005
                        R11/590393=
201901091130 METAR LRTR 091130Z 19008KT 9999 SCT020 BKN037 01/M01 Q1005
                        R11/590393=
201901091200 METAR LRTR 091200Z 18011KT 9999 FEW020 BKN036 01/M01 Q1005
                        R11/590393=
201901091230 METAR LRTR 091230Z 17006KT 9999 FEW022 BKN035 01/M01 Q1005
                        R11/590393=
201901091300 METAR LRTR 091300Z 16009KT 9999 BKN038 01/M01 Q1005 R11/590393=
201901091330 METAR LRTR 091330Z 17008KT 9999 OVC042 01/M01 Q1005 R11/590393=
201901091400 METAR LRTR 091400Z 14007KT 9999 BKN044 01/M01 Q1005 R11/590393=
201901091430 METAR COR LRTR 091430Z 16005KT 9999 BKN048 01/M00 Q1005 R11/620394=
201901091500 METAR LRTR 091500Z 14005KT CAVOK 00/M00 Q1005 R11/620394=
201901091530 METAR LRTR 091530Z 11005KT CAVOK M00/M00 Q1005 R11/620394=
201901091600 METAR LRTR 091600Z 11006KT 8000 NSC 00/00 Q1005 R11/620394=
201901091630 METAR LRTR 091630Z 10004KT 4500 BR NSC M00/M00 Q1005 R11/620394=
201901091700 METAR LRTR 091700Z 10005KT 4000 BR NSC M01/M01 Q1005 R11/620394=
201901091730 METAR LRTR 091730Z 00000KT 4000 BR NSC M01/M01 Q1005 R11/620394=
201901091800 METAR LRTR 091800Z 33004KT 6000 NSC M01/M01 Q1005 R11/620394=
201901091830 METAR COR LRTR 091830Z 35003KT 6000 NSC M01/M01 Q1005 R11/620394=
201901091900 METAR LRTR 091900Z 03002KT 7000 NSC M01/M01 Q1006 R11/620394=
201901091930 METAR LRTR 091930Z 07002KT 7000 NSC M01/M01 Q1006 R11/620394=
201901092000 METAR LRTR 092000Z 33004KT 6000 NSC M01/M01 Q1006 R11/620394=
201901092030 METAR COR LRTR 092030Z 32002KT 7000 NSC M01/M01 Q1006 R11/620394=
201901092100 METAR LRTR 092100Z 36004KT 7000 -SN NSC M00/M00 Q1006 R11/620394=
201901092130 METAR LRTR 092130Z 02008KT 7000 -SN FEW026 M00/M00 Q1006
                        R11/620394=
201901092200 METAR LRTR 092200Z 02006KT 6000 SCT020 M01/M01 Q1006 R11/620394=
201901092230 METAR LRTR 092230Z 01008KT 6000 FEW020 BKN026 M00/M00 Q1006
                        R11/620394=
201901092300 METAR LRTR 092300Z 01009KT 6000 FEW022 SCT030 M00/M00 Q1006
                        R11/620394=
201901092330 METAR LRTR 092330Z 01011KT 6000 FEW030 M00/M00 Q1006 R11/620394=
201901100000 METAR LRTR 100000Z 01011KT 6000 FEW030 M00/M00 Q1006 R11/620394=
201901100030 METAR COR LRTR 100030Z 01010KT 8000 FEW035 M00/M00 Q1006
                        R11/620394=
201901100100 METAR LRTR 100100Z 01009KT 8000 FEW035 M00/M00 Q1006 R11/620394=
201901100130 METAR COR LRTR 100130Z 36005KT 7000 -SN SCT045 M00/M00 Q1006
                        R11/620394=
201901100200 METAR LRTR 100200Z 01005KT 7000 SCT045 00/00 Q1006 R11/620394=
201901100230 METAR LRTR 100230Z 36008KT 6000 -SN FEW045 M00/M00 Q1006
                        R11/620394=
201901100300 METAR LRTR 100300Z 36013KT 2000 -SN BR BKN002 M01/M01 Q1006
                        R11/620394=
201901100330 METAR COR LRTR 100330Z 01012KT 1200 R11/P2000 R29/P2000 -SN
                        BR OVC002 M02/M02 Q1006 R11/620394=
201901100400 METAR LRTR 100400Z 01012KT 1200 R11/P2000 R29/P2000 -SN BR
                        OVC002 M01/M01 Q1006 R11/920395=
201901100430 METAR LRTR 100430Z 36012KT 1200 R11/P2000 R29/P2000 -SN BR
                        OVC002 M01/M01 Q1007 R11/920395=
201901100500 METAR LRTR 100500Z 36012KT 0800 R11/P2000 R29/P2000 FZFG
                        OVC001 M01/M01 Q1007 R11/920395=
201901100530 METAR LRTR 100530Z 36012KT 0800 R11/P2000 R29/2000 FZFG OVC001
                        M01/M01 Q1007 R11/920395 BECMG 1500
                        BR=
201901100600 METAR LRTR 100600Z 36011KT 0800 R11/P2000 R29/P2000 FZFG
                        OVC001 M01/M01 Q1007 R11/920395 BECMG
                        1500 BR OVC002=
201901100630 METAR LRTR 100630Z 01011KT 1500 BR OVC002 M01/M01 Q1007 R11/920395
                        BECMG 3000=
201901100700 METAR LRTR 100700Z 36009KT 2000 BR OVC002 M01/M01 Q1008 R11/920395
                        BECMG 3000 OVC005=
201901100730 METAR LRTR 100730Z 04006KT 2500 BR OVC003 M01/M01 Q1008 R11/920395
                        BECMG 3000 OVC005=
201901100800 METAR LRTR 100800Z 02010KT 2200 BR OVC003 M02/M02 Q1009 R11/920395
                        TEMPO 1500 BR=
201901100830 METAR LRTR 100830Z 01009KT 1500 BR OVC003 M02/M02 Q1009 R11/920395
                        NOSIG=
201901100900 METAR LRTR 100900Z 36009KT 2000 BR OVC003 M02/M02 Q1009 R11/920395
                        NOSIG=
201901100930 METAR LRTR 100930Z 36011KT 2000 BR OVC003 M02/M02 Q1009 R11/920395
                        TEMPO 1500 BR=
201901101000 METAR LRTR 101000Z 01007KT 330V040 1500 BR OVC003 M02/M02
                        Q1009 R11/920395 NOSIG=
201901101030 METAR LRTR 101030Z 02007KT 1500 BR OVC003 M02/M02 Q1009 R11/920395
                        NOSIG=
201901101100 METAR LRTR 101100Z 02008KT 350V050 2000 BR OVC003 M02/M02
                        Q1008 R11/920395 TEMPO 1500 BR=
201901101130 METAR LRTR 101130Z 36009KT 2000 BR OVC003 M02/M02 Q1008 R11/920395
                        TEMPO 1500 BR=
201901101200 METAR LRTR 101200Z 35006KT 310V020 2000 BR OVC003 M02/M02
                        Q1008 R11/920395 TEMPO 1500 BR=
201901101230 METAR LRTR 101230Z 35008KT 320V020 1500 BR OVC003 M02/M02
                        Q1009 R11/920395 NOSIG=
201901101300 METAR LRTR 101300Z 36012KT 2500 BR OVC003 M02/M02 Q1009 R11/920395
                        BECMG 3000=
201901101330 METAR LRTR 101330Z 36006KT 310V020 3000 BR OVC004 M02/M02
                        Q1008 R11/920395 NOSIG=
201901101400 METAR LRTR 101400Z 36010KT 320V020 4000 BR OVC004 M02/M02
                        Q1008 R11/910395 TEMPO 5000 OVC005=
201901101430 METAR LRTR 101430Z 01010KT 4000 BR OVC005 M02/M02 Q1008 R11/910395
                        BECMG 3000 BR=
201901101500 METAR LRTR 101500Z 36014KT 3500 BR OVC004 M01/M01 Q1008 R11/910395
                        BECMG 3000 BR=
201901101530 METAR LRTR 101530Z 01015KT 3000 BR OVC004 M02/M02 Q1008 R11/910395
                        NOSIG=
201901101600 METAR LRTR 101600Z 36013KT 4000 BR BKN005 M01/M01 Q1009 R11/910395
                        TEMPO 5000=
201901101630 METAR LRTR 101630Z 36008KT 5000 BR BKN007 M01/M01 Q1009 R11/910395
                        TEMPO BKN010=
201901101700 METAR LRTR 101700Z 33010KT 5000 BR BKN008 M02/M02 Q1009 R11/910395=
201901101730 METAR LRTR 101730Z 34012KT 5000 BR BKN008 M02/M02 Q1009 R11/910395=
201901101800 METAR LRTR 101800Z 32010KT 5000 BR SCT010 M03/M03 Q1009 R11/910395=
201901101830 METAR LRTR 101830Z 32009KT 5000 BR NSC M03/M03 Q1009 R11/910395=
201901101900 METAR LRTR 101900Z 33011KT 5000 BR NSC M03/M03 Q1010 R11/910395=
201901101930 METAR LRTR 101930Z 35008KT 5000 BR NSC M03/M03 Q1010 R11/910395=
201901102000 METAR LRTR 102000Z 36011KT 5000 BR NSC M03/M03 Q1010 R11/910395=
201901102030 METAR LRTR 102030Z 36013KT 5000 BR FEW049 M03/M03 Q1010 R11/910395=
201901102100 METAR LRTR 102100Z 36011KT 5000 BR NSC M03/M03 Q1010 R11/910395=
201901102130 METAR LRTR 102130Z 36008KT 5000 BR NSC M03/M03 Q1010 R11/910395=
201901102200 METAR LRTR 102200Z 35006KT 5000 BR NSC M03/M03 Q1010 R11/910395=
201901102230 METAR LRTR 102230Z 36009KT 5000 BR NSC M03/M03 Q1010 R11/910395=
201901102300 METAR LRTR 102300Z 35009KT 5000 BR FEW044 M03/M03 Q1011 R11/910395=
201901102330 METAR LRTR 102330Z 35010KT 5000 -SN BR BKN045 M03/M03 Q1011
                        R11/910395=
201901110000 METAR LRTR 110000Z 35009KT 5000 -SN BR BKN047 M03/M03 Q1011
                        R11/910395=
201901110030 METAR LRTR 110030Z 35012KT 5000 -SN BR BKN047 M03/M04 Q1011
                        R11/910395=
201901110100 METAR COR LRTR 110100Z 33010KT 5000 -SN BR SCT048 M03/M04
                        Q1012 R11/910395=
201901110130 METAR COR LRTR 110130Z 32010KT 5000 -SN BR NSC M03/M04 Q1012
                        R11/910395=
201901110200 METAR LRTR 110200Z 32010KT 5000 -SN BR NSC M04/M04 Q1012
                        R11/910395=
201901110230 METAR LRTR 110230Z 32009KT 5000 -SN BR NSC M04/M04 Q1012
                        R11/910395=
201901110300 METAR LRTR 110300Z 32011KT 4500 SN BR NSC M04/M04 Q1012 R11/910395=
201901110330 METAR LRTR 110330Z 31009KT 2500 SN BR SCT040 M04/M04 Q1013
                        R11/590294=
201901110400 METAR LRTR 110400Z 31009KT 2500 SN BR SCT035 OVC045 M05/M05
                        Q1013 R11/590294=
201901110430 METAR LRTR 110430Z 31010KT 2500 SN BR SCT026 OVC040 M05/M05
                        Q1013 R11/590294=
201901110500 METAR LRTR 110500Z 31009KT 3000 SN BR SCT021 OVC040 M05/M05
                        Q1014 R11/590294=
201901110530 METAR LRTR 110530Z 31009KT 5000 -SN BR SCT020 OVC040 M04/M05
                        Q1014 RESN R11/590294=
201901110600 METAR LRTR 110600Z 32009KT 3000 -SN BR SCT030 OVC040 M04/M05
                        Q1014 R11/590294=
201901110630 METAR LRTR 110630Z 31007KT 3000 -SN BR SCT030 OVC040 M04/M05
                        Q1015 R11/490393=
201901110700 METAR LRTR 110700Z 31008KT 2000 -SN BR BKN030 OVC040 M04/M04
                        Q1015 R11/490393=
201901110730 METAR LRTR 110730Z 31008KT 3500 -SN BR SCT030 OVC045 M04/M05
                        Q1016 R11/490393=
201901110800 METAR LRTR 110800Z 31008KT 5000 -SN BR FEW030 BKN045 M04/M05
                        Q1016 R11/490393=
201901110830 METAR LRTR 110830Z 31007KT 6000 -SN BKN045 M04/M05 Q1016
                        R11/490393=
201901110900 METAR LRTR 110900Z 31006KT 5000 -SN BR BKN044 M04/M05 Q1017
                        R11/490393=
201901110930 METAR LRTR 110930Z 31006KT 5000 -SN BR BKN045 M04/M05 Q1017
                        R11/490393=
201901111000 METAR LRTR 111000Z 31006KT 5000 -SN BR BKN045 M03/M05 Q1017
                        R11/490393=
201901111030 METAR COR LRTR 111030Z 32009KT 7000 NSC M03/M05 Q1017 R11/490294=
201901111100 METAR LRTR 111100Z 32008KT 7000 NSC M03/M05 Q1017 R11/490294=
201901111130 METAR LRTR 111130Z 32007KT 8000 NSC M03/M05 Q1018 R11/490294=
201901111200 METAR LRTR 111200Z 31005KT 8000 NSC M03/M05 Q1018 R11/490294=
201901111230 METAR LRTR 111230Z 30005KT 7000 NSC M03/M05 Q1018 R11/450294=
201901111300 METAR LRTR 111300Z 28008KT 7000 SCT034 M03/M05 Q1018 R11/550294=
201901111330 METAR LRTR 111330Z 28007KT 8000 BKN032 M02/M05 Q1018 R11/550294=
201901111400 METAR LRTR 111400Z 29005KT 8000 SCT032 M03/M05 Q1018 R11/550294=
201901111430 METAR LRTR 111430Z 26004KT 6000 FEW033 M03/M05 Q1018 R11/550294=
201901111500 METAR LRTR 111500Z 24004KT 5000 BR FEW015 SCT036 M04/M05
                        Q1019 R11/550294=
201901111530 METAR LRTR 111530Z 24005KT 5000 BR FEW015 BKN035 M03/M04
                        Q1019 R11/550294=
201901111600 METAR LRTR 111600Z 25004KT 5000 BR BKN035 M03/M04 Q1019 R11/550294=
201901111630 METAR LRTR 111630Z 22004KT 5000 BR BKN035 M03/M03 Q1019 R11/550294=
201901111700 METAR LRTR 111700Z 18003KT 4000 BR FEW035 M04/M04 Q1019 R11/550294=
201901111730 METAR LRTR 111730Z 13004KT 4000 BR SCT025 M07/M07 Q1020 R11/550294
                        BECMG 3000 BR=
201901111800 METAR LRTR 111800Z 15005KT 3000 BR BKN025 M05/M05 Q1020 R11/550294
                        NOSIG=
201901111830 METAR LRTR 111830Z 11003KT 3000 BR OVC030 M05/M05 Q1020 R11/550294
                        NOSIG=
201901111900 METAR LRTR 111900Z 12005KT 3000 BR OVC030 M05/M05 Q1020 R11/550294
                        NOSIG=
201901111930 METAR LRTR 111930Z 13005KT 3000 BR OVC033 M04/M04 Q1020 R11/520294
                        NOSIG=
201901112000 METAR LRTR 112000Z 14005KT 3000 BR OVC033 M04/M04 Q1020 R11/520294
                        NOSIG=
201901112030 METAR LRTR 112030Z 16006KT 3000 BR OVC032 M03/M03 Q1019 R11/520294
                        NOSIG=
201901112100 METAR LRTR 112100Z 18007KT 3000 BR OVC031 M03/M03 Q1019 R11/520294
                        NOSIG=
201901112130 METAR LRTR 112130Z 19006KT 3000 BR OVC032 M03/M03 Q1019 R11/520294
                        NOSIG=
201901112200 METAR LRTR 112200Z 19006KT 3000 BR FEW022 OVC040 M03/M03
                        Q1019 R11/520294 NOSIG=
201901112230 METAR LRTR 112230Z 18004KT 3000 BR OVC040 M03/M03 Q1019 R11/520294
                        NOSIG=
201901112300 METAR LRTR 112300Z 20005KT 3500 BR OVC037 M03/M03 Q1019 R11/520294
                        NOSIG=
201901112330 METAR LRTR 112330Z 23003KT 4000 BR OVC035 M03/M03 Q1019 R11/520294
                        TEMPO 3000 BR=
201901120000 METAR LRTR 120000Z 24001KT 4000 BR BKN035 M03/M03 Q1019 R11/520294
                        TEMPO 3000 BR=
201901120030 METAR LRTR 120030Z 26006KT 5000 BR NSC M04/M04 Q1019 R11/520294
                        NOSIG=
201901120100 METAR LRTR 120100Z 27004KT 8000 NSC M05/M05 Q1018 R11/520294
                        NOSIG=
201901120130 METAR LRTR 120130Z 25004KT 8000 NSC M06/M06 Q1018 R11/520294
                        NOSIG=
201901120200 METAR LRTR 120200Z 25003KT 8000 NSC M06/M06 Q1018 R11/520294
                        NOSIG=
201901120230 METAR COR LRTR 120230Z 27002KT 7000 1500E R11/P2000 R29/0600N
                        BCFG BR NSC M06/M06 Q1018 R11/520294
                        BECMG 5000 BCFG BR=
201901120300 METAR LRTR 120300Z 25002KT 5000 BR SCT040 M07/M07 Q1018 R11/520294
                        NOSIG=
201901120330 METAR LRTR 120330Z VRB02KT 5000 BR BKN040 M08/M08 Q1018 R11/520294
                        BECMG 3000 BR=
201901120400 METAR LRTR 120400Z 11004KT 4000 BR OVC045 M08/M08 Q1018 R11/920294
                        BECMG 3000 BR=
201901120430 METAR LRTR 120430Z 10003KT 3000 BR OVC045 M07/M07 Q1018 R11/920294
                        TEMPO 5000=
201901120500 METAR LRTR 120500Z 11004KT 6000 OVC045 M07/M07 Q1018 R11/920294=
201901120530 METAR LRTR 120530Z 15004KT 8000 OVC048 M06/M06 Q1018 R11/920294=
201901120600 METAR LRTR 120600Z 16005KT 8000 OVC048 M06/M06 Q1018 R11/920294=
201901120630 METAR LRTR 120630Z 14006KT 9999 OVC047 M06/M06 Q1018 R11/920294=
201901120700 METAR LRTR 120700Z 17006KT 9999 OVC045 M06/M06 Q1018 R11/920294=
201901120730 METAR LRTR 120730Z 17006KT 9999 OVC035 M06/M06 Q1018 R11/920294=
201901120800 METAR LRTR 120800Z 17006KT 8000 -SN OVC030 M05/M06 Q1018
                        R11/920294=
201901120830 METAR LRTR 120830Z 17006KT 9999 OVC023 M05/M05 Q1018 R11/920294=
201901120900 METAR LRTR 120900Z 17008KT 8000 OVC016 M04/M05 Q1017 R11/920294=
201901120930 METAR LRTR 120930Z 17006KT 6000 OVC012 M04/M05 Q1017 R11/920294=
201901121000 METAR LRTR 121000Z 19006KT 2500 -SG BR OVC009 M03/M03 Q1017
                        R11/920294=
201901121030 METAR LRTR 121030Z 21008KT 1500 -SG BR OVC006 M03/M03 Q1016
                        R11/920294=
201901121100 METAR COR LRTR 121100Z 19006KT 1400 R11/2000D R29/1900U -SG
                        BR BKN004 OVC007 M03/M03 Q1016 R11/920294=
201901121130 METAR LRTR 121130Z 19008KT 1400 R11/1700N R29/2000D -SG BR
                        OVC004 M02/M02 Q1016 R11/920294=
201901121200 METAR LRTR 121200Z 20008KT 1400 R11/1500D R29/1700N -SG BR
                        OVC003 M02/M02 Q1016 R11/920294=
201901121230 METAR LRTR 121230Z 20008KT 1200 R11/1400N R29/1700D -FZDZ
                        BR OVC002 M02/M02 Q1015 R11/920294=
201901121300 METAR LRTR 121300Z 21005KT 1500 -FZDZ BR BKN002 OVC004 M01/M01
                        Q1015 R11/920294=
201901121330 METAR LRTR 121330Z 25006KT 2000 -FZDZ BR BKN002 OVC004 M01/M01
                        Q1015 R11/690293=
201901121400 METAR LRTR 121400Z 25005KT 2000 -SG BR FEW002 OVC004 M01/M01
                        Q1015 R11/690293=
201901121430 METAR LRTR 121430Z 25006KT 2000 -SG BR FEW002 BKN005 OVC012
                        M01/M01 Q1015 R11/690293=
201901121500 METAR COR LRTR 121500Z 25005KT 2000 -SG BR FEW002 OVC006
                        M01/M01 Q1015 R11/690293=
201901121530 METAR COR LRTR 121530Z 25004KT 1500 -SN BR FEW002 OVC005
                        M01/M01 Q1015 R11/690293=
201901121600 METAR LRTR 121600Z 21002KT 2500 -SN BR OVC005 M01/M01 Q1015
                        R11/690293=
201901121630 METAR LRTR 121630Z 14006KT 1500 -SN BR OVC005 M01/M01 Q1015
                        R11/690293=
201901121700 METAR LRTR 121700Z 14005KT 1500 -SN BR OVC005 M02/M02 Q1015
                        R11/690293=
201901121730 METAR LRTR 121730Z 17005KT 1500 -FZDZ BR BKN007 OVC014 M02/M02
                        Q1015 R11/690293=
201901121800 METAR LRTR 121800Z 16006KT 1500 -FZDZ BR BKN008 OVC013 M01/M02
                        Q1015 R11/690293=
201901121830 METAR LRTR 121830Z 17005KT 1700 -FZDZ BR SCT002 BKN007 OVC014
                        M02/M02 Q1015 R11/690293=
201901121900 METAR LRTR 121900Z 17006KT 1500 -FZDZ BR SCT002 OVC004 M02/M02
                        Q1015 R11/690293=
201901121930 METAR LRTR 121930Z 16007KT 1700 BR BKN003 OVC008 M02/M02
                        Q1015 R11/690293=
201901122000 METAR LRTR 122000Z 16006KT 2000 BR SCT003 BKN010 OVC025 M02/M02
                        Q1015 R11/690293=
201901122030 METAR LRTR 122030Z 17006KT 2000 BR BKN003 OVC025 M02/M02
                        Q1015 R11/690293=
201901122100 METAR LRTR 122100Z 17009KT 2000 BR SCT003 BKN010 OVC030 M02/M02
                        Q1014 R11/690293=
201901122130 METAR LRTR 122130Z 18009KT 2000 BR SCT003 BKN010 OVC016 M02/M02
                        Q1014 R11/690293=
201901122200 METAR LRTR 122200Z 18008KT 2200 BR SCT004 BKN012 OVC016 M02/M02
                        Q1014 R11/690293=
201901122230 METAR LRTR 122230Z 17008KT 2500 BR SCT004 OVC014 M02/M02
                        Q1014 R11/690293=
201901122300 METAR LRTR 122300Z 17008KT 2500 BR OVC015 M02/M02 Q1013 R11/690293=
201901122330 METAR LRTR 122330Z 17008KT 3000 BR OVC015 M02/M02 Q1013 R11/690293=
201901130000 METAR LRTR 130000Z 18008KT 3000 BR BKN013 OVC025 M02/M02
                        Q1013 R11/690293=
201901130030 METAR LRTR 130030Z 18007KT 3000 -SN BR BKN015 OVC025 M01/M01
                        Q1013 R11/690293=
201901130100 METAR LRTR 130100Z 19007KT 2000 -SN BR FEW005 BKN013 OVC020
                        M01/M01 Q1013 R11/690293=
201901130130 METAR LRTR 130130Z 19007KT 2000 -SN BR FEW005 BKN012 OVC020
                        M01/M01 Q1012 R11/690293=
201901130200 METAR LRTR 130200Z 17007KT 2000 -FZDZ BR BKN009 OVC015 M01/M01
                        Q1012 R11/690293=
201901130230 METAR LRTR 130230Z 17008KT 2000 -SN BR SCT004 OVC008 M01/M01
                        Q1012 R11/690293=
201901130300 METAR LRTR 130300Z 17007KT 2000 -SN BR SCT004 BKN010 OVC020
                        M01/M01 Q1011 R11/690293=
201901130330 METAR LRTR 130330Z 17006KT 3000 -SN BR SCT004 BKN040 M01/M01
                        Q1011 R11/690293=
201901130400 METAR LRTR 130400Z 17007KT 3000 -SN BR SCT004 BKN037 M01/M01
                        Q1011 R11/690293=
201901130430 METAR LRTR 130430Z 17006KT 3500 -SN BR FEW005 BKN037 OVC049
                        M01/M01 Q1011 R11/690293=
201901130500 METAR LRTR 130500Z 16005KT 2000 -SN BR SCT004 BKN027 OVC047
                        M01/M01 Q1011 R11/690293=
201901130530 METAR LRTR 130530Z 17003KT 2000 -SN BR SCT004 SCT007 OVC025
                        M01/M01 Q1011 R11/690293 TEMPO 1500
                        SN BR=
201901130600 METAR LRTR 130600Z 14004KT 2000 -SN BR SCT004 BKN022 OVC048
                        M01/M01 Q1011 R11/590293 TEMPO 1500
                        SN BR=
201901130630 METAR LRTR 130630Z 15005KT 1500 -SN BR FEW005 BKN030 M01/M01
                        Q1011 R11/590293 NOSIG=
201901130700 METAR LRTR 130700Z 16005KT 1000 R11/1300D R29/1200D -SN BR
                        FEW004 SCT007 OVC028 M01/M01 Q1011
                        R11/590293 NOSIG=
201901130730 METAR LRTR 130730Z 16006KT 1000 R11/1300U R29/1300N -SN BR
                        FEW003 BKN007 OVC025 M01/M01 Q1011
                        R11/590293 NOSIG=
201901130800 METAR LRTR 130800Z 16005KT 1000 R11/1300U R29/1200N -SN BR
                        SCT003 SCT008 OVC022 M01/M01 Q1011
                        R11/590493 NOSIG=
201901130830 METAR LRTR 130830Z 17004KT 1200 R11/1400N R29/1500N -SN BR
                        SCT003 SCT010 OVC022 M00/M00 Q1011
                        R11/590493 TEMPO 1500=
201901130900 METAR LRTR 130900Z 17006KT 1000 R11/1300N R29/1300N -SN BR
                        SCT003 SCT009 OVC025 M00/M00 Q1010
                        R11/590493 NOSIG=
201901130930 METAR LRTR 130930Z 18007KT 1000 R11/1300N R29/1400N -SN BR
                        SCT002 SCT009 OVC027 M00/M00 Q1010
                        R11/590493 NOSIG=
201901131000 METAR LRTR 131000Z 19007KT 1200 R11/1400N R29/1300D -SN BR
                        SCT003 BKN025 OVC040 00/00 Q1010
                        R11/590493 NOSIG=
201901131030 METAR LRTR 131030Z 19008KT 1000 R11/1100N R29/1000N -SN BR
                        SCT002 SCT007 BKN020 00/00 Q1009
                        R11/590493 TEMPO 0800 -SN FG=
201901131100 METAR LRTR 131100Z 19008KT 1200 R11/1300U R29/1600U -SN BR
                        SCT003 SCT014 OVC022 01/01 Q1009
                        R11/650393 BECMG 1500=
201901131130 METAR LRTR 131130Z 18007KT 1500 -SN BR SCT002 SCT014 OVC027
                        01/01 Q1008 R11/650393 NOSIG=
201901131200 METAR LRTR 131200Z 19008KT 1800 -SNRA BR BKN003 OVC028 01/01
                        Q1008 R11/650393 NOSIG=
201901131230 METAR COR LRTR 131230Z 19009KT 2500 BR BKN003 OVC030 01/01
                        Q1008 R11/650393 BECMG 3000=
201901131300 METAR LRTR 131300Z 19008KT 3000 BR BKN003 BKN035 01/01 Q1007
                        R11/650393 BECMG 5000=
201901131330 METAR LRTR 131330Z 19010KT 5000 BR SCT004 SCT035 01/01 Q1007
                        R11/650393 NOSIG=
201901131400 METAR LRTR 131400Z 19006KT 5000 BR FEW006 SCT030 01/01 Q1007
                        R11/650393 NOSIG=
201901131430 METAR LRTR 131430Z 18007KT 5000 BR FEW005 SCT033 01/01 Q1007
                        R11/650393 NOSIG=
201901131500 METAR LRTR 131500Z 19005KT 5000 BR FEW006 SCT040 01/01 Q1007
                        R11/650393 NOSIG=
201901131530 METAR LRTR 131530Z 20009KT 5000 BR FEW007 BKN035 01/01 Q1006
                        R11/650393 NOSIG=
201901131600 METAR LRTR 131600Z 20009KT 5000 BR OVC030 01/01 Q1006 R11/290095
                        NOSIG=
201901131630 METAR LRTR 131630Z 20005KT 5000 BR OVC029 01/01 Q1006 R11/290095
                        NOSIG=
201901131700 METAR LRTR 131700Z 20008KT 5000 BR BKN029 01/01 Q1005 R11/290095
                        NOSIG=
201901131730 METAR LRTR 131730Z 19007KT 5000 BR BKN030 00/00 Q1005 R11/290095=
201901131800 METAR LRTR 131800Z 20007KT 4000 BR FEW030 M00/M00 Q1005 R11/290095=
201901131830 METAR LRTR 131830Z 17006KT 4000 BR FEW030 M01/M01 Q1004 R11/290095=
201901131900 METAR LRTR 131900Z 19007KT 4000 BR FEW027 M01/M01 Q1004 R11/290095=
201901131930 METAR LRTR 131930Z 18005KT 4000 BR NSC M01/M01 Q1004 R11/290095=
201901132000 METAR LRTR 132000Z 18006KT 5000 BR NSC M01/M01 Q1003 R11/290095=
201901132030 METAR LRTR 132030Z 16006KT 5000 BR NSC M02/M02 Q1003 R11/290095=
201901132100 METAR LRTR 132100Z 17005KT 5000 BR NSC M02/M02 Q1002 R11/390094=
201901132130 METAR LRTR 132130Z 18004KT 6000 NSC M02/M02 Q1002 R11/390094=
201901132200 METAR LRTR 132200Z 19009KT 8000 NSC M01/M01 Q1001 R11/390094=
201901132230 METAR LRTR 132230Z 18009KT 8000 NSC M01/M01 Q1001 R11/390094=
201901132300 METAR LRTR 132300Z 16008KT 8000 NSC M00/M01 Q1000 R11/390094=
201901132330 METAR LRTR 132330Z 17010KT 8000 NSC M00/M01 Q0999 R11/390094=
201901140000 METAR LRTR 140000Z 17011KT CAVOK 00/M00 Q0998 R11/390094=
201901140030 METAR COR LRTR 140030Z 16009KT CAVOK 00/M00 Q0998 R11/390094=
201901140100 METAR LRTR 140100Z 17007KT CAVOK 00/M00 Q0998 R11/390094=
201901140130 METAR LRTR 140130Z 17010KT 9999 -SN NSC 01/M00 Q0997 R11/390094=
201901140200 METAR LRTR 140200Z 18008KT 9999 -SN SCT033 BKN048 01/M00
                        Q0997 R11/390094=
201901140230 METAR COR LRTR 140230Z 18012KT 9999 -SN BKN030 BKN048 01/M00
                        Q0996 R11/390094=
201901140300 METAR LRTR 140300Z 19012KT 9999 -RASN OVC033 01/00 Q0995
                        R11/390094=
201901140330 METAR LRTR 140330Z 20012KT 9999 -RA OVC030 01/00 Q0995 R11/390094=
201901140400 METAR LRTR 140400Z 19009KT 6000 -RASN BKN020 OVC030 01/01
                        Q0995 R11/290095=
201901140430 METAR COR LRTR 140430Z 19009KT 8000 -RA FEW020 OVC030 01/01
                        Q0995 R11/290095=
201901140500 METAR LRTR 140500Z 21010KT 8000 RA OVC026 01/01 Q0995 R11/290095=
201901140530 METAR LRTR 140530Z 21011KT 8000 RA OVC025 02/01 Q0995 R11/290095
                        NOSIG=
201901140600 METAR LRTR 140600Z 21008KT 8000 FEW025 BKN030 02/01 Q0995
                        RERA R11/290095 NOSIG=
201901140630 METAR LRTR 140630Z 20010KT 9999 FEW030 01/01 Q0995 R11/290095
                        NOSIG=
201901140700 METAR LRTR 140700Z 22008KT 9999 FEW015 SCT040 02/01 Q0995
                        R11/290095 NOSIG=
201901140730 METAR LRTR 140730Z 20008KT 9999 FEW040 02/02 Q0996 R11/290095
                        NOSIG=
201901140800 METAR LRTR 140800Z 21006KT 190V250 9999 FEW032 02/02 Q0997
                        R11/290095 NOSIG=
201901140830 METAR LRTR 140830Z 24007KT 9999 FEW020 SCT042 03/02 Q0997
                        R11/290095 NOSIG=
201901140900 METAR LRTR 140900Z 24009KT 9999 FEW045 03/03 Q0997 R11/290095
                        NOSIG=
201901140930 METAR LRTR 140930Z 24009KT CAVOK 04/03 Q0997 R11/290095 NOSIG=
201901141000 METAR LRTR 141000Z 25009KT CAVOK 04/03 Q0997 R11/290095 NOSIG=
201901141030 METAR LRTR 141030Z 24008KT CAVOK 05/03 Q0997 R11/290095 NOSIG=
201901141100 METAR LRTR 141100Z 23008KT CAVOK 05/03 Q0997 R11/290095 NOSIG=
201901141130 METAR LRTR 141130Z 22009KT CAVOK 05/03 Q0997 R11/290095 NOSIG=
201901141200 METAR LRTR 141200Z 22008KT CAVOK 05/03 Q0997 R11/290095 NOSIG=
201901141230 METAR LRTR 141230Z 23008KT CAVOK 05/03 Q0997 R11/290095 NOSIG=
201901141300 METAR LRTR 141300Z 25011KT CAVOK 05/03 Q0998 R11/19//95 NOSIG=
201901141330 METAR LRTR 141330Z 27010KT 9999 FEW039 04/02 Q0998 R11/19//95
                        NOSIG=
201901141400 METAR LRTR 141400Z 27010KT 9999 FEW042 04/02 Q0998 R11/19//95
                        NOSIG=
201901141430 METAR LRTR 141430Z 27009KT 9999 SCT044 04/02 Q0999 R11/19//95
                        NOSIG=
201901141500 METAR LRTR 141500Z 27008KT 9999 SCT044 03/01 Q0999 R11/19//95
                        NOSIG=
201901141530 METAR LRTR 141530Z 27008KT 9999 FEW045 03/01 Q0999 R11/19//95
                        NOSIG=
201901141600 METAR LRTR 141600Z 28010KT CAVOK 03/M00 Q1000 R11/19//95
                        NOSIG=
201901141630 METAR LRTR 141630Z 27010KT CAVOK 02/00 Q1000 R11/19//95 NOSIG=
201901141700 METAR LRTR 141700Z 29010KT CAVOK 02/M01 Q1001 R11/19//95
                        NOSIG=
201901141730 METAR LRTR 141730Z 29010KT CAVOK 02/M02 Q1001 R11/19//95=
201901141800 METAR LRTR 141800Z 30010KT CAVOK 02/M02 Q1001 R11/19//95=
201901141830 METAR LRTR 141830Z 30009KT CAVOK 01/M02 Q1002 R11/19//95=
201901141900 METAR LRTR 141900Z 29003KT CAVOK 00/M02 Q1002 R11/19//95=
201901141930 METAR LRTR 141930Z 26008KT CAVOK M00/M02 Q1003 R11/19//95=
201901142000 METAR LRTR 142000Z 28007KT CAVOK 00/M02 Q1003 R11/19//95=
201901142030 METAR LRTR 142030Z 28010KT CAVOK M01/M02 Q1004 R11/19//95=
201901142100 METAR LRTR 142100Z 28008KT CAVOK 00/M02 Q1004 R11/19//95=
201901142130 METAR LRTR 142130Z 28011KT CAVOK M01/M02 Q1005 R11/19//95=
201901142200 METAR LRTR 142200Z 27011KT CAVOK M00/M02 Q1005 R11/19//95=
201901142230 METAR LRTR 142230Z 29009KT CAVOK 00/M03 Q1005 R11/19//95=
201901142300 METAR LRTR 142300Z 29011KT CAVOK 01/M03 Q1005 R11/19//95=
201901142330 METAR LRTR 142330Z 28015KT CAVOK 01/M02 Q1006 R11/19//95=
201901150000 METAR LRTR 150000Z 29011KT 9999 FEW046 00/M02 Q1006 R11/19//95=
201901150030 METAR LRTR 150030Z 29011KT 9999 FEW046 M00/M03 Q1007 R11/19//95=
201901150100 METAR LRTR 150100Z 30009KT CAVOK M01/M04 Q1007 R11/19//95=
201901150130 METAR LRTR 150130Z 31009KT CAVOK M02/M04 Q1008 R11/19//95=
201901150200 METAR LRTR 150200Z 31009KT CAVOK M01/M04 Q1008 R11/19//95=
201901150230 METAR LRTR 150230Z 32011KT CAVOK M02/M03 Q1009 R11/19//95=
201901150300 METAR LRTR 150300Z 32009KT CAVOK M03/M04 Q1009 R11/19//95=
201901150330 METAR LRTR 150330Z 34010KT CAVOK M03/M04 Q1010 R11/19//95=
201901150400 METAR LRTR 150400Z 33013KT CAVOK M03/M05 Q1010 R11/CLRD//=
201901150430 METAR LRTR 150430Z 33012KT CAVOK M03/M05 Q1011=
201901150500 METAR LRTR 150500Z 33011KT CAVOK M03/M06 Q1011=
201901150530 METAR LRTR 150530Z 33009KT CAVOK M04/M06 Q1012=
201901150600 METAR LRTR 150600Z 31007KT CAVOK M06/M06 Q1012=
201901150630 METAR LRTR 150630Z 30006KT CAVOK M06/M06 Q1012=
201901150700 METAR LRTR 150700Z 29006KT CAVOK M05/M06 Q1012=
201901150730 METAR COR LRTR 150730Z 31008KT CAVOK M04/M05 Q1013=
201901150800 METAR LRTR 150800Z 29008KT CAVOK M03/M04 Q1013=
201901150830 METAR LRTR 150830Z 27007KT CAVOK M02/M04 Q1014=
201901150900 METAR LRTR 150900Z 26006KT CAVOK M01/M04 Q1014=
201901150930 METAR LRTR 150930Z 27009KT CAVOK M00/M04 Q1014=
201901151000 METAR LRTR 151000Z 27010KT CAVOK 00/M03 Q1014=
201901151030 METAR LRTR 151030Z 28010KT CAVOK 00/M03 Q1014=
201901151100 METAR LRTR 151100Z 28010KT CAVOK 01/M03 Q1014=
201901151130 METAR LRTR 151130Z 28010KT CAVOK 01/M03 Q1014=
201901151200 METAR LRTR 151200Z 28011KT 9999 FEW025 01/M02 Q1014=
201901151230 METAR LRTR 151230Z 27012KT 9999 SCT026 02/M02 Q1014=
201901151300 METAR LRTR 151300Z 27014KT 9999 FEW031 02/M02 Q1014=
201901151330 METAR LRTR 151330Z 27014KT 9999 FEW030 02/M01 Q1014=
201901151400 METAR LRTR 151400Z 27012KT 9999 FEW035 01/M00 Q1014=
201901151430 METAR LRTR 151430Z 28008KT 9999 FEW040 01/M00 Q1014=
201901151500 METAR LRTR 151500Z 27009KT CAVOK 00/M01 Q1014=
201901151530 METAR LRTR 151530Z 26008KT CAVOK M00/M01 Q1014=
201901151600 METAR LRTR 151600Z 26006KT CAVOK M01/M01 Q1014=
201901151630 METAR LRTR 151630Z 25006KT 9999 SCT048 M01/M01 Q1014=
201901151700 METAR LRTR 151700Z 25006KT 9999 SCT045 00/M00 Q1014=
201901151730 METAR LRTR 151730Z 26008KT 9999 BKN042 01/M00 Q1014 NOSIG=
201901151800 METAR LRTR 151800Z 25008KT 9999 BKN041 01/M00 Q1014 NOSIG=
201901151830 METAR LRTR 151830Z 25011KT 9999 -SN OVC040 01/M00 Q1015 TEMPO
                        5000 SN=
201901151900 METAR LRTR 151900Z 25011KT 9999 -SN BKN036 01/00 Q1015 NOSIG=
201901151930 METAR LRTR 151930Z 25010KT 9999 -SN BKN030 01/00 Q1015 NOSIG=
201901152000 METAR LRTR 152000Z 24009KT 9999 -RASN BKN025 01/M00 Q1014
                        NOSIG=
201901152030 METAR LRTR 152030Z 24013KT 9999 -SN BKN020 OVC047 01/M00
                        Q1015 NOSIG=
201901152100 METAR LRTR 152100Z 26015KT 9999 -SN SCT020 BKN041 02/00 Q1015
                        NOSIG=
201901152130 METAR LRTR 152130Z 26013KT 9999 OVC041 02/00 Q1014 NOSIG=
201901152200 METAR LRTR 152200Z 25013KT 9999 BKN040 02/M00 Q1014 NOSIG=
201901152230 METAR LRTR 152230Z 25014KT 9999 SCT040 02/M00 Q1014 NOSIG=
201901152300 METAR LRTR 152300Z 24011KT 9999 SCT040 02/M01 Q1014 NOSIG=
201901152330 METAR LRTR 152330Z 24010KT 9999 SCT039 02/M01 Q1014 NOSIG=
201901160000 METAR LRTR 160000Z 23010KT 9999 BKN038 02/M01 Q1014 NOSIG=
201901160030 METAR LRTR 160030Z 25011KT 9999 -SN OVC035 02/M01 Q1014 NOSIG=
201901160100 METAR LRTR 160100Z 26010KT 9999 -SN OVC032 02/M01 Q1014 NOSIG=
201901160130 METAR LRTR 160130Z 21008KT 9999 -SN OVC040 02/M01 Q1014 NOSIG=
201901160200 METAR LRTR 160200Z 21007KT 9999 -SN OVC035 02/M02 Q1014 NOSIG=
201901160230 METAR LRTR 160230Z 20008KT 9999 -SN OVC035 02/M01 Q1013 NOSIG=
201901160300 METAR LRTR 160300Z 20005KT 160V240 9999 -SN OVC035 02/M01
                        Q1013 NOSIG=
201901160330 METAR LRTR 160330Z 20009KT 9999 -SN OVC037 01/M00 Q1013 NOSIG=
201901160400 METAR LRTR 160400Z 21008KT 9999 -SN OVC036 01/M00 Q1013 NOSIG=
201901160430 METAR LRTR 160430Z 18005KT 9999 -SN OVC036 01/M00 Q1013 NOSIG=
201901160500 METAR LRTR 160500Z 20006KT 9999 OVC040 01/M00 Q1013 NOSIG=
201901160530 METAR LRTR 160530Z 19006KT 9999 OVC035 01/M00 Q1014 NOSIG=
201901160600 METAR LRTR 160600Z 20008KT 9999 FEW035 OVC047 01/M00 Q1014
                        R11/190095 NOSIG=
201901160630 METAR LRTR 160630Z 21007KT 9999 FEW035 OVC045 01/M00 Q1014
                        R11/190095 NOSIG=
201901160700 METAR LRTR 160700Z 21007KT 9999 FEW038 OVC045 02/M01 Q1014
                        R11/190095 NOSIG=
201901160730 METAR LRTR 160730Z 20006KT 9999 -SN FEW025 BKN032 OVC048
                        02/M00 Q1015 R11/190095 NOSIG=
201901160800 METAR LRTR 160800Z 22005KT 190V260 5000 -SN BR SCT019 OVC030
                        01/00 Q1015 R11/190095 TEMPO 3000
                        SN BR=
201901160830 METAR LRTR 160830Z 19006KT 9999 -SN SCT019 OVC035 01/01 Q1015
                        RESN R11/190095 NOSIG=
201901160900 METAR LRTR 160900Z 18007KT 7000 -SN FEW020 OVC030 02/01 Q1016
                        R11/190095 NOSIG=
201901160930 METAR LRTR 160930Z 19007KT 080V240 7000 -SN SCT022 OVC030
                        02/01 Q1016 R11/190095 TEMPO 3000
                        SN BR=
201901161000 METAR COR LRTR 161000Z 19004KT 5000 -SNRA BR BKN023 OVC037
                        01/01 Q1016 R11/290095 TEMPO 3000
                        SNRA BR=
201901161030 METAR LRTR 161030Z 19006KT 8000 -RASN SCT023 OVC031 02/02
                        Q1015 R11/290095 NOSIG=
201901161100 METAR LRTR 161100Z 18007KT 8000 -RA FEW024 BKN035 02/02 Q1015
                        R11/290095 NOSIG=
201901161130 METAR LRTR 161130Z 18005KT 9999 -RA SCT035 02/02 Q1015 R11/290095
                        NOSIG=
201901161200 METAR LRTR 161200Z 21005KT 170V230 9999 BKN040 03/02 Q1015
                        R11/290095 NOSIG=
201901161230 METAR LRTR 161230Z 21006KT 9999 FEW045 04/02 Q1015 R11/290095
                        NOSIG=
201901161300 METAR LRTR 161300Z 20006KT 9999 FEW049 04/03 Q1015 R11/290095
                        NOSIG=
201901161330 METAR LRTR 161330Z 18006KT 9999 FEW049 03/03 Q1015 R11/290095
                        NOSIG=
201901161400 METAR LRTR 161400Z 13006KT 9999 FEW049 02/02 Q1015 R11/290095
                        NOSIG=
201901161430 METAR LRTR 161430Z 13005KT CAVOK 02/02 Q1015 R11/290095 NOSIG=
201901161500 METAR LRTR 161500Z 14006KT CAVOK 02/02 Q1015 R11/290095 NOSIG=
201901161530 METAR LRTR 161530Z 14005KT CAVOK 01/01 Q1016 R11/290095 NOSIG=
201901161600 METAR LRTR 161600Z 12006KT CAVOK 00/00 Q1016 R11/290095 NOSIG=
201901161630 METAR LRTR 161630Z 11007KT CAVOK M00/M00 Q1016 R11/290095
                        NOSIG=
201901161700 METAR LRTR 161700Z 09005KT 8000 NSC M01/M01 Q1016 R11/290095
                        NOSIG=
201901161730 METAR LRTR 161730Z 10004KT 8000 NSC M01/M01 Q1016 R11/290095=
201901161800 METAR LRTR 161800Z 09005KT 8000 FEW046 M01/M01 Q1016 R11/190095=
201901161830 METAR LRTR 161830Z 08005KT 8000 FEW045 M01/M01 Q1016 R11/190095=
201901161900 METAR LRTR 161900Z 09004KT 8000 NSC M02/M02 Q1016 R11/190095=
201901161930 METAR LRTR 161930Z 08006KT 8000 NSC M02/M02 Q1016 R11/190095=
201901162000 METAR LRTR 162000Z 09006KT 8000 NSC M02/M02 Q1016 R11/190095=
201901162030 METAR LRTR 162030Z 08005KT CAVOK M01/M01 Q1016 R11/190095=
201901162100 METAR LRTR 162100Z 10008KT CAVOK M01/M01 Q1016 R11/190095=
201901162130 METAR LRTR 162130Z 12007KT CAVOK M02/M02 Q1016 R11/190095=
201901162200 METAR LRTR 162200Z 11007KT CAVOK M02/M02 Q1016 R11/190095=
201901162230 METAR LRTR 162230Z 11007KT CAVOK M03/M03 Q1016 R11/190095=
201901162300 METAR LRTR 162300Z 11007KT CAVOK M03/M03 Q1016 R11/190095=
201901162330 METAR LRTR 162330Z 12007KT CAVOK M03/M03 Q1016 R11/190095=
201901170000 METAR LRTR 170000Z 12007KT CAVOK M02/M02 Q1016 R11/190095=
201901170030 METAR LRTR 170030Z 11007KT CAVOK M03/M03 Q1016 R11/190095=
201901170100 METAR LRTR 170100Z 13008KT CAVOK M02/M02 Q1016 R11/190095=
201901170130 METAR LRTR 170130Z 12009KT CAVOK M02/M02 Q1016 R11/190095=
201901170200 METAR LRTR 170200Z 12009KT CAVOK M02/M02 Q1016 R11/190095=
201901170230 METAR LRTR 170230Z 11007KT CAVOK M02/M02 Q1016 R11/190095=
201901170300 METAR COR LRTR 170300Z 12007KT CAVOK M01/M01 Q1016 R11/190095=
201901170330 METAR LRTR 170330Z 12008KT CAVOK M02/M02 Q1016 R11/190095=
201901170400 METAR LRTR 170400Z 12008KT CAVOK M02/M02 Q1015 R11/190095=
201901170430 METAR LRTR 170430Z 12008KT CAVOK M02/M02 Q1015 R11/190095=
201901170500 METAR LRTR 170500Z 12007KT CAVOK M03/M03 Q1015 R11/190095=
201901170530 METAR LRTR 170530Z 10005KT CAVOK M03/M03 Q1015 R11/190095=
201901170600 METAR LRTR 170600Z 13008KT CAVOK M03/M03 Q1015 R11/190095=
201901170630 METAR LRTR 170630Z 12008KT CAVOK M02/M02 Q1015 R11/190095=
201901170700 METAR LRTR 170700Z 13008KT CAVOK M02/M02 Q1015 R11/190095=
201901170730 METAR LRTR 170730Z 13007KT CAVOK M01/M01 Q1016 R11/190095=
201901170800 METAR LRTR 170800Z 14006KT CAVOK 01/00 Q1016 R11/190095=
201901170830 METAR LRTR 170830Z 14006KT CAVOK 02/01 Q1016 R11/190095=
201901170900 METAR LRTR 170900Z 16009KT CAVOK 04/01 Q1016 R11/190095=
201901170930 METAR LRTR 170930Z 17011KT CAVOK 05/01 Q1016 R11/190095=
201901171000 METAR LRTR 171000Z 17011KT CAVOK 06/01 Q1016 R11/190095=
201901171030 METAR LRTR 171030Z 19015KT CAVOK 06/01 Q1015 R11/190095=
201901171100 METAR LRTR 171100Z 19015KT CAVOK 06/01 Q1015 R11/190095=
201901171130 METAR LRTR 171130Z 19013KT CAVOK 06/01 Q1015 R11/190095=
201901171200 METAR LRTR 171200Z 18011KT CAVOK 06/02 Q1014 R11/190095=
201901171230 METAR LRTR 171230Z 19013KT CAVOK 06/02 Q1014 R11/190095=
201901171300 METAR LRTR 171300Z 19012KT CAVOK 08/03 Q1014 R11/190095=
201901171330 METAR LRTR 171330Z 19014KT CAVOK 07/01 Q1014 R11/190095=
201901171400 METAR LRTR 171400Z 19015KT CAVOK 07/02 Q1014 R11/190095=
201901171430 METAR COR LRTR 171430Z 19014KT CAVOK 06/01 Q1014 R11/190095=
201901171500 METAR LRTR 171500Z 19013KT CAVOK 06/01 Q1014 R11/190095=
201901171530 METAR LRTR 171530Z 19010KT CAVOK 05/01 Q1014 R11/190095=
201901171600 METAR LRTR 171600Z 19012KT CAVOK 05/01 Q1014 R11/190095=
201901171630 METAR LRTR 171630Z 19011KT CAVOK 04/00 Q1014 R11/CLRD//=
201901171700 METAR LRTR 171700Z 20011KT CAVOK 05/M00 Q1014 R11/CLRD//=
201901171730 METAR LRTR 171730Z 20011KT CAVOK 05/00 Q1014 NOSIG=
201901171800 METAR LRTR 171800Z 15006KT CAVOK 04/00 Q1014 NOSIG=
201901171830 METAR LRTR 171830Z 16005KT CAVOK 04/00 Q1014 NOSIG=
201901171900 METAR LRTR 171900Z 14005KT CAVOK 04/00 Q1014 NOSIG=
201901171930 METAR LRTR 171930Z 15005KT CAVOK 04/00 Q1014 NOSIG=
201901172000 METAR LRTR 172000Z 09003KT 050V130 CAVOK 02/M00 Q1014 NOSIG=
201901172030 METAR LRTR 172030Z 15006KT CAVOK 02/M00 Q1014 NOSIG=
201901172100 METAR LRTR 172100Z 15006KT CAVOK 01/M00 Q1014 NOSIG=
201901172130 METAR LRTR 172130Z 16006KT CAVOK 02/M00 Q1014 NOSIG=
201901172200 METAR LRTR 172200Z 13005KT 100V160 CAVOK 01/M00 Q1014 NOSIG=
201901172230 METAR LRTR 172230Z 15006KT CAVOK 01/M01 Q1014 NOSIG=
201901172300 METAR LRTR 172300Z 12007KT CAVOK 00/M01 Q1013 NOSIG=
201901172330 METAR LRTR 172330Z 12005KT CAVOK 01/M00 Q1013 NOSIG=
201901180000 METAR LRTR 180000Z 13006KT CAVOK 01/M01 Q1013 NOSIG=
201901180030 METAR LRTR 180030Z 13006KT CAVOK 01/M00 Q1013 NOSIG=
201901180100 METAR LRTR 180100Z 15007KT CAVOK 02/00 Q1013 NOSIG=
201901180130 METAR LRTR 180130Z 14006KT CAVOK 02/00 Q1013 NOSIG=
201901180200 METAR LRTR 180200Z 16007KT CAVOK 03/00 Q1013 NOSIG=
201901180230 METAR LRTR 180230Z 14006KT CAVOK 02/01 Q1013 NOSIG=
201901180300 METAR LRTR 180300Z 14007KT CAVOK 03/01 Q1012 NOSIG=
201901180330 METAR LRTR 180330Z 16006KT CAVOK 03/00 Q1012 NOSIG=
201901180400 METAR LRTR 180400Z 15005KT CAVOK 03/00 Q1012 NOSIG=
201901180430 METAR LRTR 180430Z 15005KT CAVOK 03/01 Q1012 NOSIG=
201901180500 METAR LRTR 180500Z 14006KT 9999 -RASN NSC 03/01 Q1012 NOSIG=
201901180530 METAR LRTR 180530Z 13005KT CAVOK 03/01 Q1012 NOSIG=
201901180600 METAR LRTR 180600Z 10007KT CAVOK 02/01 Q1012 NOSIG=
201901180630 METAR LRTR 180630Z 12009KT CAVOK 03/01 Q1012 NOSIG=
201901180700 METAR LRTR 180700Z 11006KT CAVOK 03/01 Q1012 NOSIG=
201901180730 METAR LRTR 180730Z 11005KT CAVOK 03/02 Q1012 NOSIG=
201901180800 METAR LRTR 180800Z 12006KT 9999 -RA NSC 03/02 Q1013 NOSIG=
201901180830 METAR LRTR 180830Z 10005KT CAVOK 03/02 Q1013 NOSIG=
201901180900 METAR LRTR 180900Z 11005KT CAVOK 04/02 Q1013 NOSIG=
201901180930 METAR LRTR 180930Z 12005KT CAVOK 05/02 Q1013 NOSIG=
201901181000 METAR LRTR 181000Z 09004KT CAVOK 04/02 Q1013 NOSIG=
201901181030 METAR LRTR 181030Z VRB02KT CAVOK 06/01 Q1013 NOSIG=
201901181100 METAR LRTR 181100Z VRB01KT CAVOK 06/02 Q1013 NOSIG=
201901181130 METAR LRTR 181130Z 29006KT CAVOK 06/03 Q1013 NOSIG=
201901181200 METAR LRTR 181200Z 34007KT 9999 FEW048 04/03 Q1013 NOSIG=
201901181230 METAR LRTR 181230Z 36012KT 9999 -RA FEW046 04/03 Q1013 NOSIG=
201901181300 METAR LRTR 181300Z 01011KT 9999 FEW045 03/03 Q1013 NOSIG=
201901181330 METAR LRTR 181330Z 35010KT 9999 -RA SCT042 03/03 Q1014 NOSIG=
201901181400 METAR LRTR 181400Z 35009KT 9999 -RA SCT015 OVC042 03/03 Q1014
                        NOSIG=
201901181430 METAR LRTR 181430Z 36010KT 9999 -RA BKN015 OVC042 03/03 Q1015
                        R11/29//95 TEMPO 5000 RA=
201901181500 METAR LRTR 181500Z 35011KT 7000 -RA SCT013 OVC030 02/02 Q1015
                        R11/29//95 TEMPO 5000 RA=
201901181530 METAR LRTR 181530Z 36009KT 9999 -RA SCT010 OVC036 02/02 Q1015
                        R11/29//95 TEMPO BKN010 OVC036=
201901181600 METAR LRTR 181600Z 35007KT 9999 -RA BKN015 02/02 Q1016 R11/29//95
                        NOSIG=
201901181630 METAR LRTR 181630Z 33006KT 9999 FEW015 BKN037 02/02 Q1016
                        R11/29//95 NOSIG=
201901181700 METAR LRTR 181700Z 33003KT 9999 -RA BKN040 02/02 Q1016 R11/29//95
                        NOSIG=
201901181730 METAR LRTR 181730Z 34003KT 7000 BKN045 02/02 Q1017 R11/29//95=
201901181800 METAR LRTR 181800Z 30004KT 5000 BR BKN048 01/01 Q1017 R11/29//95=
201901181830 METAR LRTR 181830Z 29004KT 5000 BR NSC 02/02 Q1017 R11/29//95=
201901181900 METAR LRTR 181900Z 27004KT 5000 BR NSC 01/01 Q1018 R11/29//95=
201901181930 METAR LRTR 181930Z 25004KT 5000 BR NSC 02/02 Q1018 R11/29//95=
201901182000 METAR LRTR 182000Z 25004KT 6000 NSC 01/01 Q1019 R11/29//95=
201901182030 METAR LRTR 182030Z 26005KT 6000 NSC 01/01 Q1019 R11/29//95=
201901182100 METAR LRTR 182100Z 28005KT 6000 NSC 00/00 Q1019 R11/29//95=
201901182130 METAR LRTR 182130Z 28005KT 5000 BR NSC 00/00 Q1019 R11/29//95=
201901182200 METAR LRTR 182200Z 30005KT 5000 BR NSC M00/M00 Q1019 R11/29//95=
201901182230 METAR LRTR 182230Z 31003KT 5000 BR NSC M01/M01 Q1019 R11/29//95=
201901182300 METAR LRTR 182300Z 27004KT 6000 NSC M01/M01 Q1020 R11/29//95=
201901182330 METAR LRTR 182330Z 29005KT 7000 NSC M02/M02 Q1019 R11/29//95=
201901190000 METAR LRTR 190000Z 29006KT 8000 NSC M02/M02 Q1019 R11/29//95=
201901190030 METAR LRTR 190030Z 28004KT 8000 NSC M02/M02 Q1020 R11/29//95=
201901190100 METAR LRTR 190100Z 32002KT 8000 NSC M02/M02 Q1020 R11/29//95=
201901190130 METAR LRTR 190130Z 00000KT 7000 NSC M02/M02 Q1020 R11/29//95=
201901190200 METAR LRTR 190200Z 07002KT 8000 NSC M02/M02 Q1020 R11/29//95=
201901190230 METAR LRTR 190230Z 08002KT 7000 NSC M02/M02 Q1019 R11/29//95=
201901190300 METAR LRTR 190300Z 05003KT 8000 NSC M02/M02 Q1020 R11/29//95=
201901190330 METAR LRTR 190330Z 10005KT 0800 R11/P2000 R29/0900D FZFG
                        SCT001 M03/M03 Q1020 R11/29//95=
201901190400 METAR LRTR 190400Z 10005KT 0400 R11/1400D R29/1100U FZFG
                        BKN001 M03/M03 Q1019 R11/110095=
201901190430 METAR COR LRTR 190430Z 09005KT 5000 BR FEW001 M03/M03 Q1019
                        R11/190095=
201901190500 METAR LRTR 190500Z 11006KT 6000 FEW001 M04/M04 Q1020 R11/190095=
201901190530 METAR COR LRTR 190530Z 09006KT 6000 1500E R11/P2000 R29/1600VP2000D
                        BCFG SCT003 M03/M03 Q1020 R11/190095=
201901190600 METAR LRTR 190600Z 11007KT 0700 R11/0800D R29/0800D FZFG
                        BKN002 M03/M03 Q1020 R11/190095=
201901190630 METAR LRTR 190630Z 09004KT 0400 R11/0500N R29/0500N FZFG
                        VV002 M02/M02 Q1020 R11/190095=
201901190700 METAR LRTR 190700Z 10003KT 0500 R11/0600N R29/0700U FZFG
                        VV002 M02/M02 Q1020 R11/190095=
201901190730 METAR LRTR 190730Z 10006KT 0500 R11/0700N R29/0700U FZFG
                        VV002 M01/M01 Q1020 R11/190095=
201901190800 METAR LRTR 190800Z 09006KT 0550 R11/0900N R29/0700N FZFG
                        VV002 M01/M01 Q1020 R11/190095=
201901190830 METAR LRTR 190830Z 11006KT 0650 R11/0900U R29/1200U FZFG
                        VV002 M00/M00 Q1020 R11/190095=
201901190900 METAR LRTR 190900Z 12007KT 0800 R11/1400U R29/2000U FG BKN002
                        OVC003 00/00 Q1021 R11/190095=
201901190930 METAR LRTR 190930Z 13008KT 1500 BR BKN002 OVC003 00/00 Q1021
                        R11/190095=
201901191000 METAR LRTR 191000Z 12009KT 4000 BR SCT002 OVC003 01/00 Q1021
                        R11/190095=
201901191030 METAR LRTR 191030Z 10008KT 3000 BR BKN002 OVC003 00/00 Q1020
                        R11/190095=
201901191100 METAR LRTR 191100Z 10007KT 5000 BR SCT002 BKN003 00/00 Q1020
                        R11/190095=
201901191130 METAR LRTR 191130Z 13007KT 9999 SCT003 BKN006 01/01 Q1020
                        R11/190095=
201901191200 METAR LRTR 191200Z 11005KT 9999 BKN006 01/01 Q1019 R11/190095=
201901191230 METAR LRTR 191230Z 08005KT 050V110 9999 BKN006 01/01 Q1019
                        R11/190095=
201901191300 METAR LRTR 191300Z 09005KT 9999 SCT006 SCT045 01/01 Q1019
                        R11/190095=
201901191330 METAR LRTR 191330Z 00000KT 9999 SCT009 SCT048 01/01 Q1019
                        R11/190095=
201901191400 METAR LRTR 191400Z 00000KT 9999 FEW009 02/02 Q1019 R11/190095=
201901191430 METAR LRTR 191430Z VRB01KT 9999 FEW012 02/02 Q1019 R11/190095=
201901191500 METAR LRTR 191500Z 00000KT 9999 FEW045 01/01 Q1019 R11/190095=
201901191530 METAR LRTR 191530Z 35003KT 7000 FEW006 SCT042 01/01 Q1019
                        R11/190095=
201901191600 METAR LRTR 191600Z 34002KT 5000 BR FEW007 BKN040 01/01 Q1019
                        R11/190095=
201901191630 METAR LRTR 191630Z 02005KT 340V040 4500 BR FEW006 BKN041
                        01/01 Q1018 R11/190095=
201901191700 METAR LRTR 191700Z 02006KT 4000 BR OVC039 00/00 Q1018 R11/190095=
201901191730 METAR LRTR 191730Z 02007KT 4000 BR OVC038 00/00 Q1018 R11/190095
                        TEMPO 3000 BR=
201901191800 METAR LRTR 191800Z 01005KT 3000 BR OVC044 00/00 Q1018 R11/190095
                        NOSIG=
201901191830 METAR LRTR 191830Z 01005KT 3000 BR OVC041 00/00 Q1018 R11/190095
                        NOSIG=
201901191900 METAR LRTR 191900Z 01004KT 3500 BR OVC036 01/00 Q1018 R11/190095
                        TEMPO 3000 BR=
201901191930 METAR LRTR 191930Z 01004KT 3000 -RA BR OVC035 01/00 Q1018
                        R11/190095 NOSIG=
201901192000 METAR LRTR 192000Z 02006KT 3000 -RA BR OVC037 01/01 Q1018
                        R11/190095 NOSIG=
201901192030 METAR LRTR 192030Z 04005KT 4000 -RA BR OVC032 01/01 Q1018
                        R11/190095 NOSIG=
201901192100 METAR LRTR 192100Z 03006KT 4000 -RA BR OVC030 01/01 Q1018
                        R11/190095 TEMPO 3000 BR=
201901192130 METAR LRTR 192130Z 03007KT 3500 -RA BR OVC033 00/00 Q1018
                        R11/29//95 TEMPO 3000 BR=
201901192200 METAR LRTR 192200Z 03007KT 3000 -SN BR OVC039 00/00 Q1018
                        R11/29//95 NOSIG=
201901192230 METAR LRTR 192230Z 03007KT 3000 -RASN BR OVC042 00/00 Q1018
                        R11/29//95 NOSIG=
201901192300 METAR LRTR 192300Z 03006KT 3000 -RASN BR BKN042 00/00 Q1017
                        R11/29//95 NOSIG=
201901192330 METAR LRTR 192330Z 04006KT 3000 -RASN BR BKN041 01/01 Q1017
                        R11/29//95 NOSIG=
201901200000 METAR LRTR 200000Z 02006KT 3000 BR BKN040 01/00 Q1016 R11/29//95
                        NOSIG=
201901200030 METAR LRTR 200030Z 02005KT 3000 BR BKN040 01/01 Q1016 R11/29//95
                        NOSIG=
201901200100 METAR LRTR 200100Z 03006KT 3000 BR BKN040 01/01 Q1016 R11/29//95
                        NOSIG=
201901200130 METAR LRTR 200130Z 03004KT 3500 BR BKN040 01/01 Q1016 R11/29//95
                        NOSIG=
201901200200 METAR LRTR 200200Z 07004KT 5000 BR BKN041 01/01 Q1016 R11/29//95
                        NOSIG=
201901200230 METAR LRTR 200230Z 08005KT 8000 BKN041 01/01 Q1015 R11/29//95
                        NOSIG=
201901200300 METAR LRTR 200300Z 08006KT 8000 BKN036 01/01 Q1015 R11/29//95
                        NOSIG=
201901200330 METAR LRTR 200330Z 10007KT 9999 -RASN BKN031 01/01 Q1015
                        R11/29//95 NOSIG=
201901200400 METAR LRTR 200400Z 10008KT 8000 -SN FEW022 OVC030 01/01 Q1015
                        R11/29//95 TEMPO 5000 SN=
201901200430 METAR LRTR 200430Z 10008KT 7000 -SN SCT022 OVC028 01/01 Q1015
                        R11/29//95 TEMPO 5000 SN=
201901200500 METAR LRTR 200500Z 09008KT 5000 -SN BR OVC025 01/01 Q1015
                        R11/29//95 NOSIG=
201901200530 METAR COR LRTR 200530Z 07004KT 4000 -SN BR FEW018 OVC025
                        00/00 Q1015 R11/29//95 TEMPO 3000
                        SN BR=
201901200600 METAR LRTR 200600Z 09005KT 2000 SN BR FEW009 BKN015 OVC024
                        00/00 Q1015 R11/29//95 TEMPO 1500
                        SN BR=
201901200630 METAR LRTR 200630Z 09005KT 1500 -SN BR FEW010 BKN015 OVC022
                        00/00 Q1015 RESN R11/690294 NOSIG=
201901200700 METAR LRTR 200700Z 09004KT 2000 -SN BR BKN012 OVC022 00/00
                        Q1015 R11/690294 NOSIG=
201901200730 METAR LRTR 200730Z 10003KT 2000 -SN BR FEW009 SCT012 OVC022
                        00/00 Q1015 R11/690294 NOSIG=
201901200800 METAR LRTR 200800Z 00000KT 2000 -SN BR FEW003 BKN008 OVC022
                        00/00 Q1015 R11/690294 TEMPO 1500
                        -SNRA BR=
201901200830 METAR LRTR 200830Z 12003KT 1500 -SN BR FEW002 BKN007 OVC021
                        00/00 Q1015 R11/690294 NOSIG=
201901200900 METAR LRTR 200900Z 00000KT 1500 -SNRA BR FEW002 SCT005 OVC025
                        00/00 Q1015 R11/690294 NOSIG=
201901200930 METAR LRTR 200930Z 13003KT 1500 -SN BR FEW002 SCT006 OVC025
                        00/00 Q1015 R11/690294 NOSIG=
201901201000 METAR LRTR 201000Z 00000KT 1500 -SNRA BR FEW003 BKN008 OVC025
                        00/00 Q1015 R11/690294 NOSIG=
201901201030 METAR LRTR 201030Z 12005KT 1500 -RASN BR FEW005 BKN009 OVC028
                        00/00 Q1015 R11/690294 NOSIG=
201901201100 METAR LRTR 201100Z 12005KT 1300 R11/1400N R29/1700D -SN BR
                        SCT006 SCT014 OVC027 00/00 Q1015
                        R11/690294 NOSIG=
201901201130 METAR LRTR 201130Z 12005KT 1500 -SN BR FEW003 BKN006 OVC026
                        00/00 Q1015 R11/690294 NOSIG=
201901201200 METAR LRTR 201200Z 13004KT 1400 R11/1700U R29/1400N -SN BR
                        FEW002 BKN005 OVC026 00/00 Q1015
                        R11/690294 NOSIG=
201901201230 METAR LRTR 201230Z 13002KT 1400 R11/1600U R29/1400U -RASN
                        BR SCT002 SCT005 OVC025 00/00 Q1015
                        R11/690294 NOSIG=
201901201300 METAR LRTR 201300Z 15002KT 1500 -RASN BR SCT002 BKN004 OVC022
                        00/00 Q1015 R11/690294 NOSIG=
201901201330 METAR LRTR 201330Z 17001KT 1400 R11/1300U R29/1000U -SN BR
                        SCT002 BKN004 OVC020 00/00 Q1015
                        R11/690294 TEMPO 0800 -SN FG=
201901201400 METAR LRTR 201400Z 17003KT 1200 R11/1400U R29/1000U -SN BR
                        SCT002 BKN004 OVC020 00/00 Q1015
                        R11/690294 TEMPO 0800 -SN FG=
201901201430 METAR LRTR 201430Z 18004KT 1500 -SN BR BKN003 OVC020 00/00
                        Q1015 R11/290095 NOSIG=
201901201500 METAR LRTR 201500Z 19005KT 1500 -SN BR SCT002 BKN004 OVC020
                        00/00 Q1015 R11/290095 NOSIG=
201901201530 METAR LRTR 201530Z 20005KT 2500 -SN BR BKN003 OVC020 00/00
                        Q1015 R11/290095 BECMG 3000 -SN BR=
201901201600 METAR LRTR 201600Z 21005KT 3000 -SN BR BKN003 OVC020 00/00
                        Q1015 R11/290095 NOSIG=
201901201630 METAR LRTR 201630Z 20004KT 3000 -SN BR FEW002 BKN003 OVC020
                        00/00 Q1016 R11/290095 NOSIG=
201901201700 METAR LRTR 201700Z 20004KT 2500 -RASN BR FEW001 BKN003 OVC020
                        00/00 Q1016 R11/290095 TEMPO 1500
                        BR=
201901201730 METAR LRTR 201730Z 26005KT 2000 BR SCT001 BKN002 OVC020 00/00
                        Q1016 R11/290095=
201901201800 METAR LRTR 201800Z 26006KT 2000 BR SCT001 BKN002 OVC003 00/00
                        Q1016 R11/290095=
201901201830 METAR LRTR 201830Z 27006KT 1100 R11/1100D R29/P2000 FG BKN002
                        OVC003 00/00 Q1017 R11/290095=
201901201900 METAR LRTR 201900Z 28006KT 0700 R11/0800N R29/1200D FG OVC002
                        00/00 Q1017 R11/290095=
201901201930 METAR LRTR 201930Z 28006KT 0900 R11/1100D R29/1700U FG VV002
                        00/00 Q1017 R11/290095=
201901202000 METAR LRTR 202000Z 27006KT 0550 R11/0900D R29/0750N FG VV002
                        00/00 Q1017 R11/290095=
201901202030 METAR LRTR 202030Z 28005KT 0700 R11/0800N R29/1000D FG VV002
                        00/00 Q1018 R11/290095=
201901202100 METAR LRTR 202100Z 27005KT 0900 R11/1700D R29/P2000U FG VV002
                        00/00 Q1018 R11/290095=
201901202130 METAR LRTR 202130Z 29006KT 0600 R11/0700U R29/0550N FG VV002
                        00/00 Q1018 R11/290095=
201901202200 METAR LRTR 202200Z 29007KT 0700 R11/0800U R29/1900D FG VV002
                        00/00 Q1018 R11/290095=
201901202230 METAR LRTR 202230Z AUTO 31007KT 3900 OVC003/// M00/M00 Q1019=
201901202300 METAR LRTR 202300Z 31007KT 2500 BR OVC003 M00/M00 Q1019 R11/290095=
201901202330 METAR LRTR 202330Z 31007KT 2500 BR OVC002 M00/M00 Q1019 R11/290095=
201901210000 METAR LRTR 210000Z 32006KT 0550 R11/0650N R29/P2000D FZFG
                        VV002 M00/M00 Q1019 R11/290095=
201901210030 METAR LRTR 210030Z 32006KT 0400 R11/0500N R29/0900D FZFG
                        VV002 M00/M00 Q1019 R11/290095=
201901210100 METAR LRTR 210100Z 32006KT 3800 BR OVC002 M00/M00 Q1019 R11/290095=
201901210130 METAR COR LRTR 210130Z 32006KT 3800 BR OVC002 M00/M00 Q1019
                        R11/290095=
201901210200 METAR LRTR 210200Z 33005KT 1500 BR BKN003 OVC006 M00/M00
                        Q1019 R11/290095=
201901210230 METAR LRTR 210230Z 32005KT 0800 R11/0900U R29/1300U FZFG
                        VV002 M00/M00 Q1019 R11/290095=
201901210300 METAR LRTR 210300Z 33004KT 1100 R11/P2000 R29/P2000 BR BKN002
                        OVC003 M00/M00 Q1019 R11/290095=
201901210330 METAR LRTR 210330Z 34004KT 1500 BR FEW001 BKN002 OVC003 M00/M00
                        Q1019 R11/290095=
201901210400 METAR LRTR 210400Z 32005KT 1800 BR FEW001 BKN002 OVC003 M00/M00
                        Q1020 R11/290095=
201901210430 METAR LRTR 210430Z 31004KT 2000 BR FEW001 BKN002 OVC003 M00/M00
                        Q1020 R11/290095=
201901210500 METAR LRTR 210500Z 31004KT 2500 BR FEW001 SCT002 OVC005 M00/M00
                        Q1020 R11/290095=
201901210530 METAR LRTR 210530Z 32004KT 2000 BR BKN004 OVC008 M00/M00
                        Q1020 R11/290095=
201901210600 METAR LRTR 210600Z 33005KT 1800 BR BKN005 OVC010 M00/M00
                        Q1020 R11/290095=
201901210630 METAR LRTR 210630Z 33004KT 1700 BR BKN006 OVC012 M00/M00
                        Q1020 R11/290095=
201901210700 METAR LRTR 210700Z 33004KT 2000 BR BKN004 OVC013 M00/M00
                        Q1021 R11/290095=
201901210730 METAR LRTR 210730Z 33004KT 2500 BR BKN004 OVC014 M00/M00
                        Q1021 R11/290095=
201901210800 METAR LRTR 210800Z 32004KT 2500 BR BKN004 OVC015 M00/M00
                        Q1021 R11/290095=
201901210830 METAR LRTR 210830Z 34005KT 3000 BR FEW005 BKN011 OVC016 00/00
                        Q1021 R11/290095=
201901210900 METAR LRTR 210900Z 33005KT 3500 BR SCT006 OVC015 00/00 Q1022
                        R11/290095=
201901210930 METAR LRTR 210930Z 33002KT 4000 BR SCT006 OVC016 01/01 Q1022
                        R11/290095=
201901211000 METAR LRTR 211000Z 35003KT 320V020 5000 BR BKN008 OVC016
                        01/00 Q1021 R11/190095=
201901211030 METAR LRTR 211030Z VRB01KT 7000 BKN008 OVC016 01/00 Q1021
                        R11/190095=
201901211100 METAR LRTR 211100Z 32004KT 9999 BKN010 OVC016 01/00 Q1021
                        R11/190095=
201901211130 METAR LRTR 211130Z 34003KT 280V040 9999 BKN012 OVC017 01/M00
                        Q1021 R11/190095=
201901211200 METAR LRTR 211200Z VRB01KT 9999 OVC016 01/M00 Q1021 R11/190095=
201901211230 METAR LRTR 211230Z 34004KT 310V020 9999 OVC016 01/M01 Q1021
                        R11/190095=
201901211300 METAR LRTR 211300Z 34004KT 9999 BKN016 01/M01 Q1020 R11/190095=
201901211330 METAR LRTR 211330Z VRB03KT 9999 BKN017 01/M01 Q1021 R11/190095=
201901211400 METAR LRTR 211400Z 35003KT 310V090 9999 BKN018 01/M01 Q1021
                        R11/190095=
201901211430 METAR LRTR 211430Z 00000KT 9999 BKN019 01/M01 Q1021 R11/190095=
201901211500 METAR LRTR 211500Z 06003KT 9999 OVC019 01/M01 Q1021 R11/190095=
201901211530 METAR LRTR 211530Z 06001KT 9999 OVC019 01/M01 Q1021 R11/190095=
201901211600 METAR LRTR 211600Z 00000KT 9999 BKN019 01/M01 Q1020 R11/190095=
201901211630 METAR LRTR 211630Z 34003KT 6000 BKN019 M00/M00 Q1020 R11/CLRD//=
201901211700 METAR LRTR 211700Z 03004KT 5000 BR SCT018 M01/M01 Q1020=
201901211730 METAR LRTR 211730Z 04003KT 5000 BR SCT018 M01/M01 Q1020 NOSIG=
201901211800 METAR LRTR 211800Z 02003KT 5000 BR SCT018 M01/M01 Q1020 NOSIG=
201901211830 METAR LRTR 211830Z 03004KT 5000 BR FEW018 M01/M01 Q1020 NOSIG=
201901211900 METAR LRTR 211900Z 06003KT 5000 BR NSC M01/M01 Q1020 R11/190095
                        NOSIG=
201901211930 METAR LRTR 211930Z 04003KT 5000 BR NSC M01/M01 Q1020 R11/190095
                        NOSIG=
201901212000 METAR LRTR 212000Z 02002KT 5000 BR NSC M01/M01 Q1020 R11/190095
                        NOSIG=
201901212030 METAR LRTR 212030Z 05003KT 5000 BR NSC M01/M01 Q1020 R11/190095
                        NOSIG=
201901212100 METAR LRTR 212100Z 03002KT 5000 BR NSC M01/M01 Q1020 R11/190095
                        NOSIG=
201901212130 METAR LRTR 212130Z 03003KT 5000 BR NSC M01/M01 Q1020 R11/190095
                        NOSIG=
201901212200 METAR LRTR 212200Z 03003KT 5000 -SN BR FEW038 M01/M01 Q1020
                        R11/190095 NOSIG=
201901212230 METAR LRTR 212230Z 03003KT 5000 -SN BR FEW033 M01/M01 Q1020
                        R11/190095 NOSIG=
201901212300 METAR LRTR 212300Z 03004KT 3500 -SN BR SCT028 M01/M01 Q1019
                        R11/190095 TEMPO 1500 SN BR=
201901212330 METAR LRTR 212330Z 04004KT 1500 SN BR SCT020 BKN030 M01/M01
                        Q1019 R11/590294 NOSIG=
201901220000 METAR LRTR 220000Z 06004KT 1500 SN BR SCT018 BKN025 OVC045
                        M01/M01 Q1019 R11/590294 NOSIG=
201901220030 METAR LRTR 220030Z 06005KT 1500 SN BR FEW009 SCT017 OVC030
                        M01/M01 Q1019 R11/590593 NOSIG=
201901220100 METAR LRTR 220100Z 07005KT 1500 SN BR FEW009 SCT016 OVC025
                        M01/M01 Q1019 R11/590593 NOSIG=
201901220130 METAR LRTR 220130Z 07004KT 1500 SN BR BKN015 OVC025 M01/M01
                        Q1018 R11/590593 TEMPO 0800 +SN FG=
201901220200 METAR LRTR 220200Z 07004KT 1500 SN BR BKN014 OVC025 M01/M01
                        Q1018 R11/590593 NOSIG=
201901220230 METAR LRTR 220230Z 07003KT 1200 R11/P2000 R29P2000 SN BR
                        BKN015 OVC025 M01/M01 Q1017 R11/590593
                        NOSIG=
201901220300 METAR LRTR 220300Z 07003KT 1500 SN BR BKN017 OVC030 M01/M01
                        Q1017 R11/590593 TEMPO 0800 +SN FG=
201901220330 METAR LRTR 220330Z 06003KT 2500 -SN BR SCT017 OVC035 M01/M01
                        Q1017 RESN R11/590593 NOSIG=
201901220400 METAR LRTR 220400Z 06004KT 2500 -SN BR FEW017 OVC035 M01/M01
                        Q1017 R11/590593 NOSIG=
201901220430 METAR LRTR 220430Z 07004KT 3000 -SN BR SCT025 OVC040 M01/M01
                        Q1016 R11/590593 NOSIG=
201901220500 METAR COR LRTR 220500Z 06004KT 3500 -SN BR FEW006 OVC039
                        M01/M01 Q1016 R11/590593 NOSIG=
201901220530 METAR LRTR 220530Z 06005KT 4000 -SN BR FEW005 OVC035 M01/M01
                        Q1016 R11/590593 TEMPO 3000 SN BR=
201901220600 METAR LRTR 220600Z 07006KT 5000 -SN BR OVC035 M01/M01 Q1016
                        R11/590593 TEMPO 3000 SN BR=
201901220630 METAR LRTR 220630Z 08007KT 3500 -SN BR OVC034 M00/M00 Q1015
                        R11/590593 TEMPO 3000 SN BR=
201901220700 METAR LRTR 220700Z 08006KT 3000 -SN BR OVC032 M00/M00 Q1015
                        R11/590593 NOSIG=
201901220730 METAR LRTR 220730Z 08006KT 4000 -SN BR OVC027 M00/M00 Q1015
                        R11/590593 NOSIG=
201901220800 METAR LRTR 220800Z 08006KT 2000 -SN BR BKN022 OVC034 00/00
                        Q1015 R11/590593 TEMPO 1500 SN BR=
201901220830 METAR LRTR 220830Z 08006KT 2000 SN BR FEW009 OVC028 00/00
                        Q1015 R11/690594 BECMG 3000=
201901220900 METAR LRTR 220900Z 09007KT 2000 -SN BR FEW024 OVC031 01/01
                        Q1014 RESN R11/690594 BECMG 3000=
201901220930 METAR LRTR 220930Z 09008KT 2200 -SN BR FEW025 OVC030 00/00
                        Q1014 R11/690594 TEMPO 1500 SN BR=
201901221000 METAR LRTR 221000Z 10007KT 1500 -SN BR OVC028 00/00 Q1014
                        R11/690594 NOSIG=
201901221030 METAR LRTR 221030Z 09008KT 2000 -SN BR OVC027 00/00 Q1013
                        R11/690594 NOSIG=
201901221100 METAR LRTR 221100Z 09008KT 3000 -SN BR FEW012 OVC027 00/00
                        Q1013 R11/690594 TEMPO 1500 SN BR=
201901221130 METAR LRTR 221130Z 07005KT 1500 SN BR OVC025 00/00 Q1012
                        R11/690594 NOSIG=
201901221200 METAR LRTR 221200Z 09005KT 1500 SN BR FEW014 OVC028 00/00
                        Q1012 R11/690594 NOSIG=
201901221230 METAR LRTR 221230Z 06004KT 1500 SN BR SCT017 OVC030 01/01
                        Q1011 R11/29//95 NOSIG=
201901221300 METAR LRTR 221300Z 06005KT 1200 R11/1400N R29/1300N SN BR
                        SCT004 OVC020 00/00 Q1011 R11/29//95
                        NOSIG=
201901221330 METAR LRTR 221330Z 04004KT 1500 SN BR SCT003 OVC025 00/00
                        Q1011 R11/29//95 NOSIG=
201901221400 METAR LRTR 221400Z 05005KT 2500 -SN BR FEW015 OVC031 00/00
                        Q1010 RESN R11/29//95 BECMG 3000=
201901221430 METAR LRTR 221430Z 05004KT 3000 -SN BR OVC028 00/00 Q1010
                        R11/29//95 NOSIG=
201901221500 METAR LRTR 221500Z 04005KT 3500 -RASN BR OVC028 00/00 Q1010
                        R11/29//95 NOSIG=
201901221530 METAR LRTR 221530Z 05005KT 4000 -RASN BR OVC028 00/00 Q1009
                        R11/29//95 TEMPO 5000=
201901221600 METAR LRTR 221600Z 06005KT 5000 -SN BR OVC027 00/00 Q1009
                        R11/29//95 NOSIG=
201901221630 METAR LRTR 221630Z 08004KT 5000 -SN BR OVC027 00/00 Q1009
                        R11/29//95 NOSIG=
201901221700 METAR LRTR 221700Z 06005KT 4000 -SN BR OVC027 00/00 Q1008
                        R11/29//95 TEMPO 3000 SN BR=
201901221730 METAR LRTR 221730Z 09005KT 2500 -SN BR OVC030 00/00 Q1008
                        R11/29//95=
201901221800 METAR LRTR 221800Z 09005KT 2500 -SN BR FEW009 OVC033 00/00
                        Q1008 R11/29//95=
201901221830 METAR LRTR 221830Z 08005KT 2300 -SN BR FEW009 SCT023 OVC035
                        00/00 Q1007 R11/29//95=
201901221900 METAR LRTR 221900Z 09005KT 2500 -SN BR FEW003 SCT023 OVC035
                        00/00 Q1007 R11/29//95=
201901221930 METAR LRTR 221930Z 08005KT 3000 -SN BR FEW008 SCT015 OVC032
                        00/00 Q1007 R11/690294=
201901222000 METAR LRTR 222000Z 09005KT 2300 -SN BR FEW008 SCT021 OVC033
                        00/00 Q1006 R11/690294=
201901222030 METAR LRTR 222030Z 07004KT 3500 -SN BR FEW007 OVC031 00/00
                        Q1006 R11/690294=
201901222100 METAR LRTR 222100Z 08004KT 3000 -SN BR SCT006 SCT017 OVC032
                        00/00 Q1006 R11/690294=
201901222130 METAR LRTR 222130Z 09006KT 3000 -SN BR SCT003 SCT015 OVC032
                        00/00 Q1005 R11/690294=
201901222200 METAR LRTR 222200Z 08005KT 2500 -SN BR FEW003 SCT024 OVC032
                        00/00 Q1005 R11/690294=
201901222230 METAR LRTR 222230Z 09006KT 2300 -SN BR FEW002 SCT017 OVC032
                        00/00 Q1005 R11/590394=
201901222300 METAR LRTR 222300Z 10007KT 2000 -SN BR FEW002 OVC028 00/00
                        Q1004 R11/590394=
201901222330 METAR LRTR 222330Z 09005KT 2800 -SN BR FEW003 SCT023 OVC030
                        00/00 Q1004 R11/590394=
201901230000 METAR LRTR 230000Z 09007KT 3000 -SN BR FEW002 SCT020 OVC030
                        00/00 Q1003 R11/590394=
201901230030 METAR LRTR 230030Z 09009KT 3000 -SN BR FEW014 OVC028 00/00
                        Q1003 R11/590394=
201901230100 METAR LRTR 230100Z 09006KT 2500 -SN BR SCT011 OVC030 00/00
                        Q1003 R11/590394=
201901230130 METAR COR LRTR 230130Z 09006KT 2000 -SN BR FEW002 SCT012
                        OVC030 00/00 Q1003 R11/590394=
201901230200 METAR LRTR 230200Z 09005KT 2300 -SN BR FEW001 SCT014 OVC030
                        00/00 Q1002 R11/590394=
201901230230 METAR LRTR 230230Z 10005KT 2500 -SN BR SCT016 OVC030 00/00
                        Q1002 R11/590394=
201901230300 METAR LRTR 230300Z 10006KT 2500 -SN BR SCT010 OVC027 00/00
                        Q1002 R11/590394=
201901230330 METAR LRTR 230330Z 10007KT 2500 -SN BR FEW005 SCT015 OVC030
                        00/00 Q1002 R11/590393=
201901230400 METAR LRTR 230400Z 11007KT 3500 -SN BR SCT018 OVC030 00/00
                        Q1001 R11/590294=
201901230430 METAR LRTR 230430Z 10008KT 4000 BR SCT017 OVC027 00/00 Q1001
                        R11/590294=
201901230500 METAR LRTR 230500Z 10008KT 4000 BR SCT016 OVC026 00/00 Q1001
                        R11/590294=
201901230530 METAR LRTR 230530Z 11006KT 4500 BR SCT017 OVC025 00/00 Q1001
                        R11/590294=
201901230600 METAR LRTR 230600Z 10006KT 5000 BR OVC023 00/00 Q1001 R11/590294=
201901230630 METAR LRTR 230630Z 12005KT 3500 BR OVC023 00/00 Q1002 R11/590294=
201901230700 METAR LRTR 230700Z 11006KT 3500 BR FEW016 BKN022 00/00 Q1002
                        R11/590294=
201901230730 METAR LRTR 230730Z 11006KT 3000 BR FEW016 BKN021 00/00 Q1001
                        R11/590294=
201901230800 METAR LRTR 230800Z 12006KT 3500 BR FEW016 BKN020 01/01 Q1002
                        R11/590294=
201901230830 METAR LRTR 230830Z 12005KT 4000 BR BKN020 01/01 Q1002 R11/590294=
201901230900 METAR LRTR 230900Z 12004KT 5000 BR SCT025 02/02 Q1002 R11/650295=
201901230930 METAR LRTR 230930Z 12005KT 5000 BR SCT007 SCT025 02/02 Q1002
                        R11/650295=
201901231000 METAR LRTR 231000Z 00000KT 8000 SCT007 SCT025 03/02 Q1001
                        R11/650295=
201901231030 METAR LRTR 231030Z VRB01KT 9999 FEW011 SCT025 04/02 Q1001
                        R11/650295=
201901231100 METAR LRTR 231100Z VRB02KT 9999 SCT011 02/02 Q1001 R11/650295=
201901231130 METAR LRTR 231130Z 07004KT 9999 SCT010 02/02 Q1000 R11/650295=
201901231200 METAR LRTR 231200Z 08003KT 9999 BKN012 03/02 Q1000 R11/290095=
201901231230 METAR LRTR 231230Z 31005KT 9999 BKN010 02/02 Q1000 R11/290095=
201901231300 METAR LRTR 231300Z 32006KT 9999 SCT010 02/02 Q1000 R11/290095=
201901231330 METAR LRTR 231330Z 32005KT 9999 FEW010 02/02 Q1000 R11/290095=
201901231400 METAR LRTR 231400Z 32004KT 9999 FEW011 02/02 Q1000 R11/290095=
201901231430 METAR LRTR 231430Z 33005KT 9999 FEW012 01/01 Q1000 R11/290095=
201901231500 METAR LRTR 231500Z 32005KT 8000 NSC 01/01 Q1000 R11/290095=
201901231530 METAR LRTR 231530Z 33005KT 5000 BR NSC 00/00 Q1000 R11/190095=
201901231600 METAR LRTR 231600Z 34004KT 4000 BR NSC 00/00 Q1000 R11/190095=
201901231630 METAR LRTR 231630Z 01006KT 4500 BR NSC M00/M00 Q1000 R11/190095=
201901231700 METAR LRTR 231700Z 36006KT 4500 BR NSC M00/M00 Q1000 R11/190095=
201901231730 METAR LRTR 231730Z 02010KT 4000 BR NSC M00/M00 Q0999 R11/190095
                        BECMG 3000 BR=
201901231800 METAR LRTR 231800Z 01010KT 3000 BR NSC M00/M00 Q0999 R11/190095
                        NOSIG=
201901231830 METAR LRTR 231830Z 01011KT 1500 BR SCT001 M00/M00 Q0999 R11/190095
                        BECMG 0800 FZFG BKN001=
201901231900 METAR LRTR 231900Z 02012KT 1200 R11/1400U R29/1300U BR SCT001
                        M00/M00 Q0999 R11/190095 TEMPO 0800
                        FZFG BKN001=
201901231930 METAR LRTR 231930Z 02012KT 0800 R11/1300N R29/1900U FZFG
                        BKN001 M01/M01 Q0999 R11/190095 TEMPO
                        0600 FZFG=
201901232000 METAR LRTR 232000Z 01008KT 1000 R11/P2000 R29/P2000 BR SCT001
                        M01/M01 Q0999 R11/190095 TEMPO 0800
                        FZFG=
201901232030 METAR LRTR 232030Z 01007KT 1500 BR FEW001 M01/M01 Q0999 R11/190095
                        TEMPO 0800 FZFG=
201901232100 METAR LRTR 232100Z 36010KT 2000 BR NSC M01/M01 Q0999 R11/190095
                        TEMPO 3000=
201901232130 METAR LRTR 232130Z 36011KT 3000 BR NSC M00/M00 Q0999 R11/190095
                        TEMPO 1500 BR=
201901232200 METAR LRTR 232200Z 02012KT 1500 BR SCT002 M00/M00 Q0999 R11/190095
                        NOSIG=
201901232230 METAR LRTR 232230Z 02009KT 2000 BR FEW002 M00/M00 Q0998 R11/190095
                        NOSIG=
201901232300 METAR LRTR 232300Z 02011KT 2500 BR NSC M01/M01 Q0998 R11/190095
                        TEMPO 1500 BR=
201901232330 METAR LRTR 232330Z 02012KT 1500 BR SCT048 M01/M01 Q0998 R11/190095
                        NOSIG=
201901240000 METAR LRTR 240000Z 02013KT 1500 -FZRA BR SCT045 M01/M01 Q0998
                        R11/190095 NOSIG=
201901240030 METAR LRTR 240030Z 01012KT 1500 -FZRA BR SCT043 M01/M01 Q0998
                        R11/190095 NOSIG=
201901240100 METAR LRTR 240100Z 01013KT 2500 -FZRA BR NSC M01/M01 Q0997
                        R11/190095 TEMPO 3000=
201901240130 METAR LRTR 240130Z 01014KT 2500 -FZRA BR FEW013 M01/M01 Q0997
                        R11/190095 TEMPO 3000=
201901240200 METAR LRTR 240200Z 01013KT 2000 -FZRA BR SCT003 OVC042 M01/M01
                        Q0997 R11/190095 NOSIG=
201901240230 METAR LRTR 240230Z 02013KT 2000 -FZRA BR FEW010 OVC032 M01/M01
                        Q0997 R11/190095 NOSIG=
201901240300 METAR LRTR 240300Z 02011KT 2500 -FZRA BR OVC027 M00/M00 Q0997
                        R11/29//95 NOSIG=
201901240330 METAR LRTR 240330Z 02011KT 3000 -FZRA BR BKN025 M00/M00 Q0996
                        R11/29//95 NOSIG=
201901240400 METAR LRTR 240400Z 01012KT 3000 -FZRA BR BKN030 M00/M00 Q0996
                        R11/29//95 NOSIG=
201901240430 METAR LRTR 240430Z 36012KT 3000 -RA BR BKN035 00/00 Q0996
                        REFZRA R11/29//95 NOSIG=
201901240500 METAR LRTR 240500Z 01013KT 3000 -RA BR BKN032 00/00 Q0996
                        R11/29//95 NOSIG=
201901240530 METAR LRTR 240530Z 02008KT 350V060 3500 -RASN BR FEW003 BKN032
                        OVC049 00/00 Q0996 R11/29//95 NOSIG=
201901240600 METAR LRTR 240600Z 35008KT 3500 -RASN BR FEW003 BKN025 OVC040
                        00/00 Q0997 R11/29//95 NOSIG=
201901240630 METAR LRTR 240630Z 34007KT 3000 -RA BR FEW004 BKN022 OVC039
                        00/00 Q0997 R11/29//95 NOSIG=
201901240700 METAR LRTR 240700Z 36008KT 3000 -RA BR FEW004 BKN022 OVC037
                        00/00 Q0997 R11/29//95 NOSIG=
201901240730 METAR LRTR 240730Z 35006KT 3000 -RA BR SCT007 BKN023 OVC040
                        00/00 Q0998 R11/29//95 NOSIG=
201901240800 METAR LRTR 240800Z 36009KT 3000 -RA BR FEW007 SCT025 OVC040
                        00/00 Q0998 R11/29//95 NOSIG=
201901240830 METAR LRTR 240830Z 01006KT 3000 -RA BR SCT007 BKN027 OVC040
                        00/00 Q0998 R11/29//95 NOSIG=
201901240900 METAR LRTR 240900Z 01002KT 2500 -RA BR BKN006 OVC030 00/00
                        Q0998 R11/29//95 TEMPO 1500 RA BR=
201901240930 METAR LRTR 240930Z 35002KT 2500 -RA BR BKN005 OVC030 00/00
                        Q0999 R11/29//95 TEMPO 1500 RASN
                        BR=
201901241000 METAR LRTR 241000Z 36003KT 1500 SNRA BR BKN004 OVC025 00/00
                        Q0999 R11/29//95 TEMPO 0800 SN BR=
201901241030 METAR LRTR 241030Z 01002KT 0800 R11/1200D R29/1300D SN FG
                        BKN003 OVC020 00/00 Q0999 RESNRA
                        R11/29//95 NOSIG=
201901241100 METAR LRTR 241100Z 00000KT 0800 R11/1100N R29/1300U SN FG
                        BKN003 OVC017 00/00 Q0999 R11/29//95
                        NOSIG=
201901241130 METAR LRTR 241130Z 15002KT 1200 R11/1400U R29/1500D -RASN
                        BR FEW001 SCT003 OVC020 00/00 Q0999
                        RESN R11/29//95 NOSIG=
201901241200 METAR COR LRTR 241200Z 17005KT 1200 R11/1400D R29/1300U -SNRA
                        BR FEW001 SCT002 OVC022 01/01 Q0999
                        R11/29//95 NOSIG=
201901241230 METAR LRTR 241230Z 17005KT 1200 R11/1500D R29/1600N -SN BR
                        FEW001 BKN002 OVC022 01/01 Q0999
                        R11/29//95 TEMPO 1500 -SNRA BR=
201901241300 METAR LRTR 241300Z 16005KT 2000 -SNRA BR BKN002 OVC022 01/01
                        Q1000 R11/29//95 NOSIG=
201901241330 METAR LRTR 241330Z 18006KT 2500 -SNRA BR BKN002 OVC025 01/01
                        Q1000 R11/29//95 NOSIG=
201901241400 METAR LRTR 241400Z 18006KT 2000 -SN BR SCT002 SCT003 OVC025
                        01/01 Q1000 R11/29//95 NOSIG=
201901241430 METAR LRTR 241430Z 18007KT 2500 -SN BR BKN003 OVC020 01/01
                        Q1001 R11/29//95 BECMG 3000 -SN BR=
201901241500 METAR LRTR 241500Z 18006KT 2000 -SN BR BKN003 OVC020 00/00
                        Q1001 R11/29//95 TEMPO 1500 SN BR=
201901241530 METAR LRTR 241530Z 17005KT 2000 -SN BR SCT003 SCT005 OVC020
                        00/00 Q1001 R11/29//95 TEMPO 1500
                        SN BR=
201901241600 METAR LRTR 241600Z 19007KT 3000 -SN BR FEW003 BKN005 OVC020
                        00/00 Q1001 R11/29//95 NOSIG=
201901241630 METAR LRTR 241630Z 19007KT 3000 -SN BR FEW002 BKN004 OVC020
                        00/00 Q1002 R11/29//95 NOSIG=
201901241700 METAR LRTR 241700Z 18007KT 3000 -SN BR FEW002 BKN004 OVC020
                        M00/M00 Q1002 R11/29//95 NOSIG=
201901241730 METAR LRTR 241730Z 20006KT 3000 -SN BR FEW002 BKN003 OVC020
                        00/00 Q1002 R11/29//95=
201901241800 METAR LRTR 241800Z 19006KT 5000 BR SCT004 OVC025 00/00 Q1003
                        R11/29//95=
201901241830 METAR LRTR 241830Z 20006KT 1500 -SN BR BKN003 OVC020 M00/M00
                        Q1003 R11/29//95=
201901241900 METAR COR LRTR 241900Z 19007KT 1200 R11/P2000U R29/P2000
                        -SN FZFG BKN002 OVC020 M00/M00 Q1004
                        R11/29//95=
201901241930 METAR LRTR 241930Z 18005KT 0900 R11/1300U R29/1700U -SN FZFG
                        BKN002 OVC020 M00/M00 Q1004 RESN
                        R11/29//95=
201901242000 METAR LRTR 242000Z 19005KT 1200 R11/1900U R29/P2000 -SN BR
                        BKN002 OVC020 M00/M00 Q1004 R11/29//95=
201901242030 METAR LRTR 242030Z 19007KT 1200 R11/P2000 R29/P2000 -SN BR
                        FEW001 BKN002 OVC020 M00/M00 Q1004
                        R11/29//95=
201901242100 METAR LRTR 242100Z 19006KT 2000 BR BKN002 OVC004 M00/M00
                        Q1005 R11/29//95=
201901242130 METAR LRTR 242130Z 20007KT 2000 BR BKN003 OVC006 M00/M00
                        Q1005 R11/29//95=
201901242200 METAR LRTR 242200Z 19006KT 3000 BR BKN003 OVC013 M00/M00
                        Q1005 R11/29//95=
201901242230 METAR LRTR 242230Z 17006KT 3500 BR SCT005 BKN011 OVC030 M00/M00
                        Q1005 R11/29//95=
201901242300 METAR LRTR 242300Z 18005KT 3500 -SN BR BKN005 OVC030 M00/M00
                        Q1005 R11/29//95=
201901242330 METAR LRTR 242330Z 18005KT 3500 -SN BKN004 M00/M00 Q1005
                        R11/29//95=
201901250000 METAR LRTR 250000Z AUTO 17004KT 3300 -SHSN OVC002/// M00/M00
                        Q1006=
201901250030 METAR COR LRTR 250030Z 18005KT 3300 BR BKN006 00/00 Q1006
                        R11/29//95=
201901250100 METAR LRTR 250100Z 19006KT 3500 BR BKN003 OVC006 M00/M00
                        Q1006 R11/29//95=
201901250130 METAR LRTR 250130Z 19006KT 3500 -SN BR BKN003 OVC006 M00/M00
                        Q1006 R11/29//95=
201901250200 METAR COR LRTR 250200Z 18005KT 3500 -SN BR SCT004 BKN007
                        OVC030 M00/M00 Q1006 R11/29//95=
201901250230 METAR LRTR 250230Z 18005KT 4000 -SN BR BKN006 OVC035 M00/M00
                        Q1006 R11/29//95=
201901250300 METAR LRTR 250300Z 18005KT 3500 -SN BR BKN005 OVC037 M00/M00
                        Q1007 R11/29//95=
201901250330 METAR LRTR 250330Z 19005KT 3000 -SN BR BKN004 OVC035 M00/M00
                        Q1007 R11/29//95=
201901250400 METAR LRTR 250400Z 19004KT 3000 -SN BR BKN004 OVC030 M00/M00
                        Q1007 R11/29//95=
201901250430 METAR LRTR 250430Z 18003KT 2000 -SN BR BKN004 OVC034 M00/M00
                        Q1007 R11/29//95=
201901250500 METAR COR LRTR 250500Z 16001KT 2000 -SN BR SCT008 BKN035
                        M00/M00 Q1007 R11/29//95=
201901250530 METAR LRTR 250530Z 16003KT 2500 -SN BR SCT008 BKN032 M00/M00
                        Q1007 R11/29//95=
201901250600 METAR LRTR 250600Z 11004KT 1500 BR SCT006 BKN032 M00/M00
                        Q1007 R11/29//95=
201901250630 METAR LRTR 250630Z 11003KT 1500 BR SCT003 SCT006 OVC032 M00/M00
                        Q1007 R11/29//95=
201901250700 METAR LRTR 250700Z VRB02KT 1500 BR BKN004 OVC032 M00/M00
                        Q1008 R11/29//95=
201901250730 METAR LRTR 250730Z 00000KT 2000 BR BKN004 OVC032 M00/M00
                        Q1008 R11/29//95=
201901250800 METAR LRTR 250800Z 00000KT 2300 BR BKN004 OVC032 M00/M00
                        Q1008 R11/29//95=
201901250830 METAR LRTR 250830Z 32004KT 2300 BR BKN004 OVC032 M00/M00
                        Q1008 R11/29//95=
201901250900 METAR LRTR 250900Z 33004KT 3000 BR FEW003 BKN005 OVC032 M00/M00
                        Q1008 R11/29//95=
201901250930 METAR LRTR 250930Z 33005KT 3000 BR FEW003 BKN005 OVC032 M00/M00
                        Q1008 R11/29//95=
201901251000 METAR LRTR 251000Z 35004KT 3000 BR BKN004 OVC032 00/M00 Q1008
                        R11/29//95=
201901251030 METAR LRTR 251030Z 33004KT 3500 BR OVC005 00/00 Q1008 R11/29//95=
201901251100 METAR LRTR 251100Z 34004KT 3300 -RA BR OVC005 00/00 Q1008
                        R11/29//95=
201901251130 METAR LRTR 251130Z 33005KT 2300 -DZ BR OVC005 00/00 Q1008
                        R11/29//95=
201901251200 METAR LRTR 251200Z 34006KT 2500 BR FEW003 OVC005 00/00 Q1008
                        R11/19//95=
201901251230 METAR LRTR 251230Z 35007KT 3000 BR FEW003 OVC005 00/00 Q1007
                        R11/19//95=
201901251300 METAR LRTR 251300Z 35008KT 3500 BR BKN006 OVC031 00/00 Q1007
                        R11/19//95=
201901251330 METAR LRTR 251330Z 34009KT 3000 BR BKN004 OVC031 00/00 Q1007
                        R11/19//95=
201901251400 METAR LRTR 251400Z 34008KT 2000 BR FEW002 BKN005 OVC031 M00/M00
                        Q1007 R11/19//95=
201901251430 METAR LRTR 251430Z 34010KT 1800 -SN BR FEW002 BKN004 OVC031
                        M00/M00 Q1007 R11/19//95=
201901251500 METAR LRTR 251500Z 34010KT 1300 R11/2000D R29/P2000 -SN BR
                        OVC004 M00/M00 Q1007 R11/19//95=
201901251530 METAR LRTR 251530Z 34011KT 1300 R11/2000N R29/P2000 -SN BR
                        OVC004 M00/M00 Q1007 R11/19//95=
201901251600 METAR LRTR 251600Z 34010KT 2000 -SN BR BKN004 OVC032 M00/M00
                        Q1007 R11/19//95=
201901251630 METAR LRTR 251630Z 34011KT 1800 -SN BR BKN004 OVC030 M00/M00
                        Q1007 R11/290095=
201901251700 METAR LRTR 251700Z 34012KT 2000 -SN BR BKN003 OVC025 M00/M00
                        Q1007 R11/290095=
201901251730 METAR LRTR 251730Z 34014KT 2000 -SN BR BKN003 OVC022 M00/M00
                        Q1007 R11/290095 NOSIG=
201901251800 METAR LRTR 251800Z 34013KT 2000 -SN BR SCT003 SCT007 OVC025
                        M01/M01 Q1007 R11/690394 TEMPO 1500
                        SN BR=
201901251830 METAR LRTR 251830Z 34012KT 2000 -SN BR SCT003 SCT007 OVC024
                        M01/M01 Q1007 R11/690394 TEMPO 1500
                        SN BR=
201901251900 METAR LRTR 251900Z 34012KT 1500 SN BR SCT003 SCT006 OVC024
                        M01/M01 Q1007 R11/690394 NOSIG=
201901251930 METAR LRTR 251930Z 34012KT 2000 -SN BR FEW003 SCT006 OVC024
                        M00/M00 Q1006 RESN R11/591093 NOSIG=
201901252000 METAR LRTR 252000Z 35014KT 2000 -SN BR SCT004 SCT008 OVC025
                        M00/M00 Q1006 R11/591093 NOSIG=
201901252030 METAR LRTR 252030Z 35015KT 2000 -SN BR SCT004 BKN021 OVC035
                        M00/M00 Q1006 R11/591093 NOSIG=
201901252100 METAR LRTR 252100Z 35014KT 2500 -SN BR FEW004 SCT007 BKN021
                        M00/M00 Q1006 R11/591093 NOSIG=
201901252130 METAR LRTR 252130Z 35015KT 2500 -SN BR FEW004 SCT007 OVC020
                        M01/M01 Q1006 R11/591093 NOSIG=
201901252200 METAR COR LRTR 252200Z 34011KT 2500 -SN BR SCT004 SCT008
                        OVC020 M01/M01 Q1006 R11/690394 TEMPO
                        3000 -SN BR=
201901252230 METAR LRTR 252230Z 34010KT 3000 -SN BR BKN005 OVC022 M01/M01
                        Q1007 R11/690394 NOSIG=
201901252300 METAR LRTR 252300Z 34010KT 3000 -SN BR BKN005 OVC020 M01/M01
                        Q1006 R11/690394 NOSIG=
201901252330 METAR LRTR 252330Z 34015KT 3500 -SN BR BKN005 OVC020 M02/M02
                        Q1006 R11/690394 NOSIG=
201901260000 METAR LRTR 260000Z 34013KT 3500 -SN BR BKN004 OVC021 M02/M02
                        Q1006 R11/690394 NOSIG=
201901260030 METAR LRTR 260030Z 34010KT 3000 -SN BR BKN005 OVC022 M02/M02
                        Q1006 R11/690394 NOSIG=
201901260100 METAR LRTR 260100Z 33011KT 3000 -SN BR BKN005 OVC021 M02/M02
                        Q1006 R11/690394 TEMPO 1500 SN BR=
201901260130 METAR LRTR 260130Z 33013KT 3000 -SN BR BKN005 OVC020 M02/M02
                        Q1006 R11/690394 TEMPO 1500 SN BR=
201901260200 METAR COR LRTR 260200Z 32013KT 3500 -SN BR BKN005 OVC020
                        M03/M03 Q1006 R11/690394 NOSIG=
201901260230 METAR LRTR 260230Z 33014KT 3500 -SN BR BKN005 OVC020 M03/M03
                        Q1006 R11/690394 NOSIG=
201901260300 METAR LRTR 260300Z 33014KT 3500 -SN BR BKN006 OVC025 M03/M03
                        Q1006 R11/790392 NOSIG=
201901260330 METAR LRTR 260330Z 33010KT 3500 -SN BR BKN006 OVC025 M03/M03
                        Q1006 R11/790392 TEMPO 3000 -SN BR=
201901260400 METAR LRTR 260400Z 33010KT 3000 -SN BR BKN007 OVC020 M03/M03
                        Q1006 R11/790392 NOSIG=
201901260430 METAR LRTR 260430Z 33011KT 3000 -SN BR BKN007 OVC019 M03/M03
                        Q1007 R11/790392 TEMPO 1500 SN BR=
201901260500 METAR LRTR 260500Z 33011KT 3500 -SN BR BKN007 OVC019 M03/M03
                        Q1007 R11/790392 NOSIG=
201901260530 METAR LRTR 260530Z 34012KT 3000 SN BR BKN008 OVC019 M03/M03
                        Q1007 R11/790392 TEMPO 1500 SN BR=
201901260600 METAR LRTR 260600Z 34012KT 2000 SN BR BKN008 OVC019 M03/M03
                        Q1007 R11/790392 TEMPO 1500 SN BR=
201901260630 METAR LRTR 260630Z 34010KT 1500 -SN BR BKN008 OVC019 M03/M03
                        Q1008 RESN R11/790392 NOSIG=
201901260700 METAR LRTR 260700Z 34011KT 2000 -SN BR BKN008 OVC020 M03/M03
                        Q1008 R11/790392 NOSIG=
201901260730 METAR LRTR 260730Z 33009KT 3000 -SN BR BKN008 OVC020 M03/M03
                        Q1008 R11/790393 NOSIG=
201901260800 METAR LRTR 260800Z 33009KT 3000 -SN BR BKN008 OVC023 M03/M03
                        Q1008 R11/790393 NOSIG=
201901260830 METAR LRTR 260830Z 32008KT 2500 -SN BR SCT005 OVC022 M03/M03
                        Q1009 R11/790393 BECMG 3000=
201901260900 METAR LRTR 260900Z 31006KT 2000 -SN BR SCT005 OVC020 M03/M03
                        Q1009 R11/790393 BECMG 3000=
201901260930 METAR LRTR 260930Z 31008KT 3000 -SN BR SCT007 OVC022 M03/M03
                        Q1009 R11/790393 NOSIG=
201901261000 METAR LRTR 261000Z 31008KT 3000 -SN BR SCT007 OVC021 M03/M03
                        Q1009 R11/790393 NOSIG=
201901261030 METAR LRTR 261030Z 30007KT 3500 -SN BR SCT007 OVC022 M03/M03
                        Q1009 R11/790193 BECMG 5000=
201901261100 METAR LRTR 261100Z 29005KT 4500 BR BKN007 OVC032 M03/M03
                        Q1009 R11/790193 BECMG 5000=
201901261130 METAR LRTR 261130Z 28009KT 5000 BR BKN008 OVC021 M03/M03
                        Q1010 R11/790193 NOSIG=
201901261200 METAR LRTR 261200Z 28008KT 6000 BKN010 OVC021 M03/M04 Q1010
                        R11/790193 NOSIG=
201901261230 METAR LRTR 261230Z 26007KT 7000 SCT012 OVC020 M03/M04 Q1009
                        R11/790193 NOSIG=
201901261300 METAR LRTR 261300Z 25005KT 8000 BKN022 M02/M04 Q1009 R11/790193
                        NOSIG=
201901261330 METAR LRTR 261330Z 24004KT 210V270 8000 NSC M02/M04 Q1009
                        R11/690393 NOSIG=
201901261400 METAR LRTR 261400Z 24005KT 7000 SCT030 M02/M04 Q1010 R11/690393
                        NOSIG=
201901261430 METAR LRTR 261430Z 24006KT 7000 SCT030 M02/M04 Q1010 R11/690393
                        BECMG 5000 BR=
201901261500 METAR LRTR 261500Z 24004KT 6000 FEW040 M03/M04 Q1010 R11/690393
                        BECMG 5000 BR=
201901261530 METAR LRTR 261530Z 24005KT 5000 BR NSC M03/M04 Q1010 R11/690393
                        NOSIG=
201901261600 METAR LRTR 261600Z 24005KT 5000 BR NSC M03/M04 Q1010 R11/690393
                        BECMG 3000 BR=
201901261630 METAR LRTR 261630Z 20005KT 3500 BR NSC M03/M04 Q1010 R11/690393
                        BECMG 3000 BR=
201901261700 METAR LRTR 261700Z 19005KT 3000 BR NSC M04/M04 Q1010 R11/690393
                        NOSIG=
201901261730 METAR LRTR 261730Z 18005KT 3500 BR NSC M04/M04 Q1010 R11/690393=
201901261800 METAR LRTR 261800Z 16005KT 4000 BR NSC M04/M05 Q1010 R11/690393=
201901261830 METAR LRTR 261830Z 17005KT 4500 BR NSC M05/M05 Q1010 R11/690393=
201901261900 METAR LRTR 261900Z 17005KT 4000 BR NSC M05/M05 Q1010 R11/690393=
201901261930 METAR LRTR 261930Z 18005KT 4000 BR NSC M05/M05 Q1010 R11/690393=
201901262000 METAR LRTR 262000Z 18005KT 4000 BR SCT035 M05/M05 Q1011 R11/690393=
201901262030 METAR LRTR 262030Z 19005KT 4500 BR BKN031 M04/M05 Q1010 R11/690393=
201901262100 METAR LRTR 262100Z 18004KT 4500 BR FEW015 BKN030 M04/M05
                        Q1011 R11/690393=
201901262130 METAR LRTR 262130Z 19005KT 4500 BR SCT014 OVC030 M04/M05
                        Q1011 R11/690393=
201901262200 METAR LRTR 262200Z 18005KT 4500 -SN BR BKN012 OVC030 M04/M04
                        Q1011 R11/690393=
201901262230 METAR LRTR 262230Z 17005KT 4500 -SN BR BKN011 OVC028 M04/M04
                        Q1011 R11/690393=
201901262300 METAR LRTR 262300Z 17006KT 4500 BR BKN010 OVC025 M04/M04
                        Q1011 R11/690393=
201901262330 METAR LRTR 262330Z 17007KT 4000 BR SCT010 OVC030 M04/M04
                        Q1010 R11/690393=
201901270000 METAR LRTR 270000Z 16008KT 4000 BR SCT011 OVC034 M04/M04
                        Q1010 R11/690393=
201901270030 METAR LRTR 270030Z 15006KT 4500 BR SCT011 OVC040 M04/M04
                        Q1010 R11/690393=
201901270100 METAR LRTR 270100Z 16006KT 4000 BR OVC039 M03/M04 Q1010 R11/690393=
201901270130 METAR LRTR 270130Z 16006KT 5000 BR OVC034 M03/M04 Q1010 R11/690393=
201901270200 METAR LRTR 270200Z 16006KT 5000 BR OVC032 M03/M04 Q1010 R11/690393=
201901270230 METAR LRTR 270230Z 14005KT 5000 BR OVC030 M03/M03 Q1010 R11/690393=
201901270300 METAR LRTR 270300Z 14006KT 5000 BR OVC028 M03/M03 Q1009 R11/690393=
201901270330 METAR LRTR 270330Z 15005KT 5000 -SN BR SCT014 OVC030 M03/M03
                        Q1009 R11/690393=
201901270400 METAR LRTR 270400Z 15005KT 5000 -SN BR SCT014 OVC028 M03/M03
                        Q1009 R11/990293=
201901270430 METAR LRTR 270430Z 14005KT 5000 -SN BR FEW019 OVC036 M03/M03
                        Q1009 R11/990293=
201901270500 METAR LRTR 270500Z 15006KT 5000 BR FEW021 BKN030 M03/M03
                        Q1008 R11/990293=
201901270530 METAR LRTR 270530Z 15006KT 5000 BR FEW022 BKN026 M03/M03
                        Q1008 R11/990293=
201901270600 METAR LRTR 270600Z 14007KT 5000 BR FEW020 BKN024 M03/M03
                        Q1008 R11/990293=
201901270630 METAR LRTR 270630Z 14008KT 4500 BR SCT020 OVC024 M03/M03
                        Q1008 R11/750393=
201901270700 METAR LRTR 270700Z 15006KT 4500 BR SCT020 OVC025 M03/M03
                        Q1008 R11/750393=
201901270730 METAR LRTR 270730Z 16005KT 4500 BR SCT025 OVC036 M02/M03
                        Q1008 R11/750393=
201901270800 METAR LRTR 270800Z 16006KT 4500 BR SCT025 BKN037 M02/M02
                        Q1008 R11/750393=
201901270830 METAR LRTR 270830Z 17006KT 5000 BR SCT037 M02/M03 Q1008 R11/990393=
201901270900 METAR LRTR 270900Z 14007KT 5000 BR FEW037 M01/M03 Q1008 R11/990393=
201901270930 METAR LRTR 270930Z 15010KT 6000 NSC M01/M03 Q1008 R11/990393=
201901271000 METAR LRTR 271000Z 14009KT 8000 NSC M00/M03 Q1007 R11/990393=
201901271030 METAR LRTR 271030Z 14010KT CAVOK M00/M02 Q1007 R11/990393=
201901271100 METAR COR LRTR 271100Z 13010KT CAVOK 00/M02 Q1006 R11/990393=
201901271130 METAR LRTR 271130Z 11010KT CAVOK M00/M01 Q1006 R11/650393=
201901271200 METAR LRTR 271200Z 11011KT CAVOK 00/M01 Q1005 R11/650393=
201901271230 METAR LRTR 271230Z 11009KT CAVOK 00/M00 Q1005 R11/620394=
201901271300 METAR LRTR 271300Z 11010KT CAVOK 01/M00 Q1005 R11/620394=
201901271330 METAR LRTR 271330Z 12010KT CAVOK 01/M00 Q1004 R11/620394=
201901271400 METAR LRTR 271400Z 12011KT CAVOK 01/M00 Q1004 R11/620394=
201901271430 METAR LRTR 271430Z 11012KT CAVOK 00/M00 Q1004 R11/290095=
201901271500 METAR LRTR 271500Z 11013KT 8000 NSC M00/M01 Q1004 R11/290095=
201901271530 METAR LRTR 271530Z 11012KT 8000 NSC M01/M01 Q1003 R11/290095=
201901271600 METAR LRTR 271600Z 11011KT 9000 NSC M00/M01 Q1003 R11/290095=
201901271630 METAR LRTR 271630Z 11010KT CAVOK 00/M00 Q1003 R11/290095=
201901271700 METAR LRTR 271700Z 11011KT CAVOK 01/M00 Q1003 R11/290095=
201901271730 METAR LRTR 271730Z 11011KT CAVOK 01/00 Q1003 R11/290095 NOSIG=
201901271800 METAR LRTR 271800Z 11012KT CAVOK 01/00 Q1003 R11/290095 NOSIG=
201901271830 METAR LRTR 271830Z 11014KT CAVOK 02/00 Q1002 R11/290095 NOSIG=
201901271900 METAR LRTR 271900Z 11014KT CAVOK 01/00 Q1002 R11/290095 NOSIG=
201901271930 METAR LRTR 271930Z 11013KT CAVOK 01/M00 Q1002 R11/290095
                        NOSIG=
201901272000 METAR LRTR 272000Z 11013KT CAVOK 00/M00 Q1002 R11/190095
                        NOSIG=
201901272030 METAR LRTR 272030Z 12011KT CAVOK 00/M00 Q1002 R11/190095
                        NOSIG=
201901272100 METAR LRTR 272100Z 11011KT CAVOK 01/00 Q1002 R11/190095 NOSIG=
201901272130 METAR LRTR 272130Z 12011KT CAVOK 00/M00 Q1002 R11/190095
                        NOSIG=
201901272200 METAR LRTR 272200Z 11012KT CAVOK 01/M00 Q1002 R11/190095
                        NOSIG=
201901272230 METAR LRTR 272230Z 11009KT CAVOK 01/M00 Q1002 R11/190095
                        NOSIG=
201901272300 METAR LRTR 272300Z 12012KT CAVOK 00/M01 Q1001 R11/190095
                        NOSIG=
201901272330 METAR LRTR 272330Z 11013KT CAVOK M00/M01 Q1001 R11/190095
                        NOSIG=
201901280000 METAR LRTR 280000Z 11012KT CAVOK M00/M01 Q1001 R11/190095
                        NOSIG=
201901280030 METAR LRTR 280030Z 11012KT CAVOK 00/M00 Q1001 R11/190095
                        NOSIG=
201901280100 METAR LRTR 280100Z 11010KT CAVOK 01/M00 Q1001 R11/190095
                        NOSIG=
201901280130 METAR LRTR 280130Z 11008KT CAVOK M00/M00 Q1001 R11/190095
                        NOSIG=
201901280200 METAR LRTR 280200Z 11009KT CAVOK M00/M01 Q1000 R11/190095
                        NOSIG=
201901280230 METAR LRTR 280230Z 11007KT CAVOK M00/M01 Q1000 R11/190095
                        NOSIG=
201901280300 METAR LRTR 280300Z 11009KT CAVOK 00/M00 Q1000 R11/190095
                        NOSIG=
201901280330 METAR LRTR 280330Z 11011KT CAVOK 00/M00 Q0999 R11/190095
                        NOSIG=
201901280400 METAR LRTR 280400Z 11012KT CAVOK 01/M00 Q0999 R11/190095
                        NOSIG=
201901280430 METAR LRTR 280430Z 11011KT CAVOK 01/M00 Q0999 R11/190095
                        NOSIG=
201901280500 METAR LRTR 280500Z 11010KT CAVOK 01/M00 Q0998 R11/190095
                        NOSIG=
201901280530 METAR LRTR 280530Z 10011KT CAVOK 01/M00 Q0998 R11/190095
                        NOSIG=
201901280600 METAR LRTR 280600Z 10011KT CAVOK 02/00 Q0998 R11/190095 NOSIG=
201901280630 METAR LRTR 280630Z 10011KT CAVOK 02/01 Q0998 R11/190095 NOSIG=
201901280700 METAR LRTR 280700Z 11012KT CAVOK 02/00 Q0998 R11/190095 NOSIG=
201901280730 METAR LRTR 280730Z 11010KT CAVOK 02/00 Q0998 R11/190095 NOSIG=
201901280800 METAR LRTR 280800Z 12013KT CAVOK 02/00 Q0998 R11/190095 NOSIG=
201901280830 METAR LRTR 280830Z 11011KT CAVOK 02/01 Q0998 R11/190095 NOSIG=
201901280900 METAR LRTR 280900Z 11011KT CAVOK 03/01 Q0998 R11/190095 NOSIG=
201901280930 METAR LRTR 280930Z 11010KT CAVOK 03/01 Q0998 R11/190095 NOSIG=
201901281000 METAR LRTR 281000Z 11010KT CAVOK 03/01 Q0998 R11/190095 NOSIG=
201901281030 METAR LRTR 281030Z 11008KT CAVOK 03/01 Q0997 R11/190095 NOSIG=
201901281100 METAR LRTR 281100Z 11008KT CAVOK 03/01 Q0997 R11/190095 NOSIG=
201901281130 METAR LRTR 281130Z 10009KT CAVOK 04/01 Q0997 R11/190095 NOSIG=
201901281200 METAR LRTR 281200Z 11008KT CAVOK 04/02 Q0996 R11/190095 NOSIG=
201901281230 METAR LRTR 281230Z 11007KT CAVOK 03/02 Q0996 R11/190095 NOSIG=
201901281300 METAR LRTR 281300Z 13008KT 9999 -RA NSC 04/02 Q0996 R11/190095
                        NOSIG=
201901281330 METAR LRTR 281330Z 12010KT 9999 -RA FEW042 03/02 Q0996 R11/190095
                        TEMPO 5000 RA=
201901281400 METAR LRTR 281400Z 11010KT 9999 -RA SCT045 04/02 Q0995 R11/190095
                        NOSIG=
201901281430 METAR LRTR 281430Z 12011KT 9999 -RA FEW048 03/02 Q0996 R11/290095
                        NOSIG=
201901281500 METAR LRTR 281500Z 12011KT 9999 -RA FEW048 03/02 Q0996 R11/290095
                        NOSIG=
201901281530 METAR LRTR 281530Z 10006KT 9999 -RA FEW048 03/02 Q0996 R11/290095
                        NOSIG=
201901281600 METAR LRTR 281600Z 10007KT 9999 -RA NSC 03/02 Q0996 R11/290095
                        NOSIG=
201901281630 METAR LRTR 281630Z 12004KT 9999 -RA NSC 03/02 Q0997 R11/290095
                        NOSIG=
201901281700 METAR LRTR 281700Z 11008KT 9999 -RA NSC 02/02 Q0997 R11/290095
                        NOSIG=
201901281730 METAR LRTR 281730Z 11006KT 9999 -RA NSC 02/02 Q0997 R11/290095=
201901281800 METAR LRTR 281800Z 13009KT 9999 -RA BKN049 03/03 Q0997 R11/290095=
201901281830 METAR LRTR 281830Z 13007KT 9999 -RA BKN048 02/02 Q0997 R11/290095=
201901281900 METAR LRTR 281900Z 29006KT 9999 -RA BKN049 02/02 Q0998 R11/290095=
201901281930 METAR LRTR 281930Z 26009KT 9999 BKN049 04/02 Q0998 R11/290095=
201901282000 METAR LRTR 282000Z 27007KT 9999 BKN041 02/02 Q0999 R11/290095=
201901282030 METAR LRTR 282030Z 27006KT 9999 -RA FEW035 SCT038 OVC049
                        02/02 Q0999 R11/290095=
201901282100 METAR LRTR 282100Z 23009KT 9999 -RA FEW032 SCT040 BKN048
                        03/02 Q1000 R11/290095=
201901282130 METAR LRTR 282130Z 22009KT 9999 -RA FEW032 BKN038 03/02 Q1000
                        R11/290095=
201901282200 METAR LRTR 282200Z 22009KT 9999 BKN036 02/02 Q1000 R11/290095=
201901282230 METAR LRTR 282230Z 21009KT 9999 SCT038 BKN048 02/02 Q1000
                        R11/290095=
201901282300 METAR LRTR 282300Z 21008KT 9999 SCT036 BKN049 02/02 Q1001
                        R11/290095=
201901282330 METAR LRTR 282330Z 21008KT 9999 -RA SCT034 BKN048 02/02 Q1001
                        R11/290095=
201901290000 METAR LRTR 290000Z 25009KT 5000 -RA BR FEW003 SCT033 BKN045
                        01/01 Q1001 R11/290095=
201901290030 METAR LRTR 290030Z 23006KT 3000 BR SCT002 BKN030 01/01 Q1002
                        R11/290095=
201901290100 METAR COR LRTR 290100Z 24007KT 1500 BR SCT002 BKN030 01/01
                        Q1002 R11/290095=
201901290130 METAR LRTR 290130Z 25007KT 0550 R11/0700N R29/1600N FG FEW001
                        OVC002 01/01 Q1002 R11/290095=
201901290200 METAR LRTR 290200Z 24006KT 0450 R11/0550N R29/0700D FG BKN001
                        OVC002 01/01 Q1003 R11/290095=
201901290230 METAR LRTR 290230Z 27004KT 0400 R11/0500N R29/0550N FG BKN001
                        OVC002 00/00 Q1002 R11/290095=
201901290300 METAR COR LRTR 290300Z 23004KT 0400 R11/0450N R29/0450N FG
                        BKN001 OVC002 00/00 Q1003 R11/290095=
201901290330 METAR COR LRTR 290330Z 27006KT 0350 R11/0400N R29/0550N FG
                        OVC001 00/00 Q1003 R11/190095=
201901290400 METAR LRTR 290400Z 29005KT 0350 R11/0400N R29/0400N FG VV001
                        00/00 Q1004 R11/190095=
201901290430 METAR LRTR 290430Z 29003KT 0350 R11/0450N R29/0400N FG VV001
                        00/00 Q1004 R11/190095=
201901290500 METAR LRTR 290500Z 24002KT 0300 R11/0375N R29/0400N FG VV001
                        00/00 Q1004 R11/190095=
201901290530 METAR LRTR 290530Z 27003KT 0200 R11/0400N R29/0450N FG VV001
                        00/00 Q1005 R11/190095=
201901290600 METAR LRTR 290600Z 29002KT 0200 R11/0400N R29/0450N FG VV001
                        00/00 Q1005 R11/190095=
201901290630 METAR LRTR 290630Z 31003KT 0200 R11/0325N R29/0375N FG VV002
                        00/00 Q1005 R11/190095=
201901290700 METAR LRTR 290700Z 30004KT 0250 R11/0450U R29/0350N FZFG
                        VV002 M00/M00 Q1006 R11/190095=
201901290730 METAR LRTR 290730Z 28004KT 0250 R11/0325N R29/0550N FZFG
                        VV002 M00/M00 Q1006 R11/190095=
201901290800 METAR LRTR 290800Z 28003KT 0300 R11/0375N R29/0650N -SN FZFG
                        OVC002 M00/M00 Q1007 R11/190095=
201901290830 METAR LRTR 290830Z 00000KT 0400 R11/0600N R29/P2000 FG BKN002
                        OVC036 00/00 Q1007 R11/190095=
201901290900 METAR LRTR 290900Z 00000KT 0500 R11/0750N R29/P2000U FG BKN002
                        OVC036 01/01 Q1007 R11/190095=
201901290930 METAR LRTR 290930Z VRB02KT 1200 R11/1900U R29/P2000 BR BKN002
                        OVC040 00/00 Q1007 R11/190095=
201901291000 METAR LRTR 291000Z 08003KT 030V110 0500 R11/1200D R29/P2000
                        FG BKN002 OVC047 00/00 Q1007 R11/190095=
201901291030 METAR COR LRTR 291030Z 16003KT 1000 R11/P2000 R29/P2000 BR
                        BKN002 OVC047 01/01 Q1008 R11/190095=
201901291100 METAR LRTR 291100Z VRB02KT 2000 BR BKN002 OVC049 01/01 Q1007
                        R11/190095=
201901291130 METAR LRTR 291130Z VRB01KT 2500 BR FEW003 BKN005 01/01 Q1007
                        R11/190095=
201901291200 METAR LRTR 291200Z 11003KT 3000 BR BKN005 01/01 Q1007 R11/190095=
201901291230 METAR LRTR 291230Z VRB02KT 3500 BR SCT005 02/02 Q1007 R11/190095=
201901291300 METAR LRTR 291300Z 00000KT 5000 BR SCT006 02/02 Q1007 R11/190095=
201901291330 METAR LRTR 291330Z VRB01KT 6000 FEW007 03/03 Q1007 R11/190095=
201901291400 METAR LRTR 291400Z 32003KT 7000 FEW007 03/02 Q1007 R11/190095=
201901291430 METAR LRTR 291430Z 00000KT 8000 FEW007 03/02 Q1007 R11/190095=
201901291500 METAR LRTR 291500Z 27001KT 5000 BR NSC 02/02 Q1007 R11/190095=
201901291530 METAR LRTR 291530Z 00000KT 4000 BR NSC 02/02 Q1007 R11/190095=
201901291600 METAR LRTR 291600Z 31005KT 4000 BR NSC 01/01 Q1007 R11/190095=
201901291630 METAR LRTR 291630Z 34003KT 4000 BR NSC 01/01 Q1007 R11/190095=
201901291700 METAR LRTR 291700Z 02001KT 4000 BR NSC 01/01 Q1007 R11/190095=
201901291730 METAR LRTR 291730Z 00000KT 4000 BR FEW033 BKN048 01/01 Q1007
                        R11/190095 NOSIG=
201901291800 METAR LRTR 291800Z 00000KT 4000 BR FEW030 BKN045 01/01 Q1007
                        R11/190095 NOSIG=
201901291830 METAR LRTR 291830Z VRB01KT 3500 BR OVC041 01/01 Q1007 R11/190095
                        BECMG 3000 BR=
201901291900 METAR LRTR 291900Z 00000KT 3000 -RA BR OVC040 01/01 Q1006
                        R11/190095 NOSIG=
201901291930 METAR LRTR 291930Z 00000KT 3500 BR SCT033 OVC045 01/01 Q1006
                        R11/190095 NOSIG=
201901292000 METAR LRTR 292000Z 00000KT 3500 BR OVC034 01/01 Q1006 R11/190095
                        NOSIG=
201901292030 METAR LRTR 292030Z 00000KT 3500 BR OVC031 01/01 Q1006 R11/190095
                        BECMG 3000 BR=
201901292100 METAR LRTR 292100Z 06003KT 3000 BR OVC030 01/01 Q1005 R11/190095
                        NOSIG=
201901292130 METAR LRTR 292130Z VRB02KT 3500 BR OVC030 01/01 Q1006 R11/190095
                        NOSIG=
201901292200 METAR LRTR 292200Z 29003KT 3500 BR OVC028 01/01 Q1006 R11/190095
                        NOSIG=
201901292230 METAR LRTR 292230Z 00000KT 3500 BR OVC028 01/01 Q1005 R11/190095
                        NOSIG=
201901292300 METAR LRTR 292300Z AUTO 00000KT 3300 BR OVC028/// 01/01 Q1005
                        NOSIG=
201901292330 METAR LRTR 292330Z 00000KT 2500 BR OVC030 01/01 Q1005 R11/190095
                        TEMPO 1500 BR=
201901300000 METAR LRTR 300000Z 34001KT 2500 BR BKN028 OVC041 01/01 Q1004
                        R11/190095 TEMPO 1500 BR=
201901300030 METAR LRTR 300030Z 36001KT 2000 BR SCT029 BKN045 01/01 Q1004
                        R11/190095 TEMPO 1500 BR=
201901300100 METAR LRTR 300100Z 00000KT 2500 BR BKN028 BKN045 01/01 Q1004
                        R11/190095=
201901300130 METAR LRTR 300130Z 00000KT 2500 BR BKN028 OVC042 01/01 Q1004
                        R11/190095 NOSIG=
201901300200 METAR LRTR 300200Z 00000KT 2000 -RA BR FEW010 OVC028 01/01
                        Q1004 R11/190095 NOSIG=
201901300230 METAR LRTR 300230Z 29004KT 2000 -RA BR FEW014 OVC028 00/00
                        Q1003 R11/190095 TEMPO 1500 -RA BR=
201901300300 METAR LRTR 300300Z 30002KT 1500 -RA BR FEW013 OVC028 00/00
                        Q1003 R11/190095 TEMPO 0800 -RADZ
                        FG=
201901300330 METAR LRTR 300330Z 31002KT 1000 R11/1800U R29/P2000 -RADZ
                        BR SCT017 OVC027 01/01 Q1003 R11/290095
                        NOSIG=
201901300400 METAR LRTR 300400Z 29003KT 1000 R11/1900U R29/P2000 -DZ BR
                        BKN010 OVC028 00/00 Q1003 R11/290095
                        NOSIG=
201901300430 METAR LRTR 300430Z 34002KT 1000 R11/1800D R29/1600D -DZ BR
                        BKN010 OVC028 01/01 Q1003 R11/290095
                        TEMPO 0800 DZ FG=
201901300500 METAR LRTR 300500Z 00000KT 1000 R11/1600N R29/2000U -DZRA
                        BR SCT009 SCT015 OVC028 01/01 Q1003
                        R11/290095 TEMPO 0800 DZ FG=
201901300530 METAR LRTR 300530Z 00000KT 0800 R11/1600U R29/1900D -DZRA
                        FG SCT015 OVC030 01/01 Q1003 R11/290095
                        TEMPO 0600 DZ FG=
201901300600 METAR LRTR 300600Z 31003KT 0700 R11/1500D R29/1700D -DZ FG
                        BKN015 OVC030 01/01 Q1002 R11/290095
                        TEMPO 0600 DZ FG=
201901300630 METAR LRTR 300630Z VRB02KT 0600 R11/1300D R29/1200U -RA FG
                        BKN015 OVC045 01/01 Q1002 R11/290095
                        BECMG 0800=
201901300700 METAR LRTR 300700Z 33002KT 0800 R11/1100N R29/1500N FG SCT002
                        OVC013 01/01 Q1002 R11/290095 TEMPO
                        BKN002 OVC010=
201901300730 METAR LRTR 300730Z 00000KT 0800 R11/1500N R29/1700N FG SCT003
                        OVC013 01/01 Q1002 R11/290095 TEMPO
                        BKN002 OVC010=
201901300800 METAR LRTR 300800Z 00000KT 1200 R11/1700N R29/1800U -DZ BR
                        OVC010 01/01 Q1002 R11/290095 BECMG
                        1500=
201901300830 METAR LRTR 300830Z 00000KT 1200 R11/1200D R29/1200U -DZ BR
                        OVC010 01/01 Q1002 R11/290095 BECMG
                        1500=
201901300900 METAR LRTR 300900Z 13001KT 1200 R11/1200U R29/1300N -RA BR
                        FEW003 BKN012 OVC038 01/01 Q1003
                        R11/290095 BECMG 1500=
201901300930 METAR LRTR 300930Z 00000KT 1500 R11/1400U R29/1400U -RA BR
                        SCT003 OVC032 01/01 Q1003 R11/290095
                        TEMPO BKN003 OVC032=
201901301000 METAR LRTR 301000Z 24001KT 1500 R11/1400D R29/1500D -DZRA
                        BR BKN003 OVC030 02/02 Q1003 R11/290095
                        NOSIG=
201901301030 METAR LRTR 301030Z 23003KT 1400 R11/1400N R29/1700D -DZ BR
                        OVC003 02/02 Q1002 R11/290095 TEMPO
                        OVC002=
201901301100 METAR LRTR 301100Z 00000KT 1000 R11/1200N R29/1100N -DZ BR
                        OVC003 02/02 Q1002 R11/290095 TEMPO
                        0800 DZ FG OVC002=
201901301130 METAR LRTR 301130Z 00000KT 0800 R11/1200N R29/1500D -DZ FG
                        OVC003 02/02 Q1002 R11/290095 NOSIG=
201901301200 METAR LRTR 301200Z 28002KT 0800 R11/1100D R29/1200U -DZ FG
                        OVC002 02/02 Q1002 R11/290095 NOSIG=
201901301230 METAR LRTR 301230Z 31003KT 0800 R11/1200D R29/1400D FG OVC002
                        01/01 Q1002 R11/290095 TEMPO 0600
                        FG=
201901301300 METAR LRTR 301300Z 30001KT 0600 R11/1400U R29/1500U FG OVC002
                        01/01 Q1002 R11/290095 NOSIG=
201901301330 METAR LRTR 301330Z 29001KT 0500 R11/1200D R29/1500U FG OVC002
                        01/01 Q1002 R11/290095 NOSIG=
201901301400 METAR LRTR 301400Z 00000KT 0500 R11/1000N R29/1600U FG BKN001
                        OVC003 01/01 Q1002 R11/290095 NOSIG=
201901301430 METAR LRTR 301430Z 00000KT 0450 R11/0900N R29/1300D FG BKN001
                        OVC003 01/01 Q1002 R11/290095 TEMPO
                        0350 FG=
201901301500 METAR LRTR 301500Z 00000KT 0400 R11/0800U R29/0650D FG VV001
                        01/01 Q1002 R11/290095 TEMPO 0350
                        FG=
201901301530 METAR LRTR 301530Z 00000KT 0600 R11/1200N R29/0700N FG BKN002
                        OVC004 01/01 Q1002 R11/290095 NOSIG=
201901301600 METAR LRTR 301600Z 00000KT 0500 R11/1100D R29/0600N FG BKN001
                        OVC005 01/01 Q1002 R11/290095 NOSIG=
201901301630 METAR LRTR 301630Z 00000KT 0350 R11/0750N R29/1000N FG BKN001
                        OVC005 01/01 Q1003 R11/290095 NOSIG=
201901301700 METAR LRTR 301700Z 00000KT 0400 R11/0700N R29/0750N FG BKN001
                        OVC005 01/01 Q1003 R11/290095 TEMPO
                        0350 FG=
201901301730 METAR LRTR 301730Z 00000KT 0400 R11/0375N R29/1900D FG BKN001
                        OVC005 01/01 Q1003 R11/290095=
201901301800 METAR LRTR 301800Z VRB02KT 0450 R11/0300N R29/2000U FG BKN002
                        OVC008 01/01 Q1003 R11/290095=
201901301830 METAR LRTR 301830Z 15001KT 0800 R11/P2000 R29/1400N FG BKN001
                        OVC003 01/01 Q1003 R11/290095=
201901301900 METAR LRTR 301900Z 11003KT 0500 R11/1100U R29/0375N FG OVC002
                        01/01 Q1003 R11/290095=
201901301930 METAR LRTR 301930Z 12003KT 0200 R11/0400N R29/0325N FG OVC001
                        01/01 Q1003 R11/290095=
201901302000 METAR LRTR 302000Z 11003KT 0100 R11/0450N R29/0325N FG OVC001
                        01/01 Q1003 R11/290095=
201901302030 METAR LRTR 302030Z VRB02KT 0100 R11/0350N R29/0400U FG OVC001
                        01/01 Q1003 R11/290095=
201901302100 METAR LRTR 302100Z 12003KT 0200 R11/0600D R29/0350N FG OVC002
                        01/01 Q1003 R11/290095=
201901302130 METAR LRTR 302130Z 09002KT 0200 R11/0400N R29/0375N FG BKN002
                        OVC004 01/01 Q1003 R11/290095=
201901302200 METAR LRTR 302200Z 09002KT 0100 R11/0400N R29/0600N FG BKN001
                        OVC004 01/01 Q1003 R11/290095=
201901302230 METAR LRTR 302230Z 09001KT 0100 R11/0350N R29/0600N FG BKN001
                        OVC004 01/01 Q1003 R11/290095=
201901302300 METAR LRTR 302300Z 00000KT 0150 R11/0500N R29/0550N FG BKN002
                        OVC006 01/01 Q1003 R11/290095=
201901302330 METAR LRTR 302330Z VRB02KT 0150 R11/0450N R29/0550N FG OVC002
                        01/01 Q1003 R11/290095=
201901310000 METAR LRTR 310000Z VRB02KT 0200 R11/0400N R29/0400N FG VV002
                        01/01 Q1003 R11/290095=
201901310030 METAR LRTR 310030Z 03003KT 0200 R11/0400N R29/0400N FG VV003
                        01/01 Q1002 R11/290095=
201901310100 METAR LRTR 310100Z 07002KT 0300 R11/0500N R29/0500N FG VV002
                        01/01 Q1003 R11/290095=
201901310130 METAR LRTR 310130Z 00000KT 0300 R11/0550N R29/0500N FG VV002
                        01/01 Q1003 R11/290095=
201901310200 METAR LRTR 310200Z 00000KT 0300 R11/0500N R29/0600N FG VV002
                        01/01 Q1003 R11/290095=
201901310230 METAR LRTR 310230Z 33001KT 0400 R11/0700N R29/0750N FG VV002
                        01/01 Q1003 R11/290095=
201901310300 METAR LRTR 310300Z 29002KT 0600 R11/0900D R29/1000U FG OVC002
                        01/01 Q1003 R11/290095=
201901310330 METAR COR LRTR 310330Z VRB02KT 0450 R11/0700N R29/0700D FG
                        VV002 01/01 Q1002 R11/290095=
201901310400 METAR LRTR 310400Z 04003KT 360V090 0800 R11/1400U R29/1200U
                        FG BKN002 OVC010 01/01 Q1002 R11/290095=
201901310430 METAR LRTR 310430Z VRB02KT 0800 R11/2000D R29/1000D FG BKN002
                        OVC009 01/01 Q1002 R11/290095=
201901310500 METAR LRTR 310500Z 25003KT 1300 R11/1800D R29/0750N PRFG
                        OVC002 01/01 Q1002 R11/290095=
201901310530 METAR COR LRTR 310530Z 30003KT 1800 R11/P2000 R29/0900U PRFG
                        BKN002 OVC009 01/01 Q1002 R11/290095=
201901310600 METAR LRTR 310600Z 30004KT 1600 BR OVC002 01/01 Q1002 R11/290095=
201901310630 METAR COR LRTR 310630Z 33004KT 1300 R11/1600D R29/1700N BR
                        FEW002 OVC009 01/01 Q1003 R11/290095=
201901310700 METAR LRTR 310700Z 32004KT 1300 R11/1800D R29/P2000 BR BKN001
                        OVC008 01/01 Q1003 R11/290095=
201901310730 METAR LRTR 310730Z 01005KT 1500 R11/1500N R29/1400N BR SCT002
                        OVC008 01/01 Q1003 R11/290095=
201901310800 METAR LRTR 310800Z 02005KT 2000 BR OVC009 02/02 Q1003 R11/290095=
201901310830 METAR LRTR 310830Z 07005KT 2500 BR OVC009 02/02 Q1003 R11/190095=
201901310900 METAR LRTR 310900Z 04005KT 3000 BR OVC008 02/02 Q1003 R11/190095=
201901310930 METAR LRTR 310930Z 03005KT 2000 BR FEW005 OVC008 02/02 Q1003
                        R11/190095=
201901311000 METAR LRTR 311000Z 01005KT 2000 0 BR OVC005 02/02 Q1003 R11/190095=
201901311030 METAR LRTR 311030Z 03004KT 1700 BR OVC004 02/02 Q1003 R11/190095=
201901311100 METAR LRTR 311100Z VRB02KT 3000 BR OVC005 02/02 Q1003 R11/190095=
201901311130 METAR LRTR 311130Z 36003KT 330V040 3100 BR OVC005 02/02 Q1003
                        R11/190095=
201901311200 METAR LRTR 311200Z 02003KT 3500 BR OVC005 03/03 Q1003 R11/190095=
201901311230 METAR LRTR 311230Z 33003KT 300V360 4000 BR OVC005 03/03 Q1003
                        R11/190095=
201901311300 METAR LRTR 311300Z VRB02KT 5000 BR OVC007 03/03 Q1003 R11/190095=
201901311330 METAR LRTR 311330Z VRB01KT 5000 BR OVC007 03/03 Q1004 R11/190095=
201901311400 METAR LRTR 311400Z 01003KT 5000 BR OVC007 03/03 Q1004 R11/190095=
201901311430 METAR LRTR 311430Z 08004KT 7000 OVC009 03/03 Q1004 R11/190095=
201901311500 METAR LRTR 311500Z 08003KT 8000 OVC008 03/03 Q1004 R11/190095=
201901311530 METAR LRTR 311530Z 11003KT 8000 OVC008 03/03 Q1004 R11/190095=
201901311600 METAR LRTR 311600Z 13004KT 5000 BR OVC007 02/02 Q1004 R11/190095=
201901311630 METAR LRTR 311630Z 14002KT 5000 BR OVC007 02/02 Q1004 R11/190095=
201901311700 METAR LRTR 311700Z 14003KT 110V190 5000 BR OVC007 02/02 Q1005
                        R11/190095 NOSIG=
201901311730 METAR LRTR 311730Z VRB01KT 5000 BR OVC007 02/02 Q1005 R11/190095
                        NOSIG=
201901311800 METAR LRTR 311800Z VRB01KT 5000 BR OVC007 02/02 Q1005 R11/190095
                        NOSIG=
201901311830 METAR LRTR 311830Z 00000KT 7000 OVC007 02/02 Q1006 R11/190095
                        TEMPO 5000 BR=
201901311900 METAR LRTR 311900Z 00000KT 5000 BR OVC007 02/02 Q1006 R11/190095
                        NOSIG=
201901311930 METAR LRTR 311930Z 00000KT 5000 BR OVC007 02/02 Q1006 R11/190095
                        NOSIG=
201901312000 METAR LRTR 312000Z 13003KT 5000 BR OVC007 02/02 Q1007 R11/190095
                        BECMG 3000 BR OVC005=
201901312030 METAR LRTR 312030Z 14003KT 4000 -RA BR OVC005 02/02 Q1007
                        R11/190095 BECMG 3000 -RA BR=
201901312100 METAR LRTR 312100Z 18003KT 3000 -DZRA BR OVC005 02/02 Q1008
                        R11/190095 NOSIG=
201901312130 METAR LRTR 312130Z 22003KT 3000 BR OVC006 02/02 Q1008 R11/190095
                        NOSIG=
201901312200 METAR LRTR 312200Z 23004KT 2500 BR BKN003 OVC008 02/02 Q1008
                        R11/190095 TEMPO 1500 BR=
201901312230 METAR LRTR 312230Z 21004KT 1500 BR OVC002 02/02 Q1008 R11/190095
                        TEMPO 0800 FG OVC001=
201901312300 METAR LRTR 312300Z 21006KT 0300 R11/0450N R29/0375N FG VV001
                        02/02 Q1008 R11/190095 NOSIG=
201901312330 METAR LRTR 312330Z 21006KT 0500 R11/0650N R29/0700U FG VV001
                        02/02 Q1009 R11/190095 TEMPO 0600=
