201902010000 METAR LRTR 010000Z 21008KT 0800 R11/1700N R29/1100D FG BKN001
                        OVC005 01/01 Q1009 R11/190095 TEMPO
                        1500 BR=
201902010030 METAR LRTR 010030Z 19007KT 1500 BR BKN001 OVC007 01/01 Q1009
                        R11/190095 NOSIG=
201902010100 METAR LRTR 010100Z 19008KT 1500 BR OVC004 01/01 Q1009 R11/190095
                        NOSIG=
201902010130 METAR LRTR 010130Z 18009KT 2000 BR OVC004 01/01 Q1009 R11/190095
                        NOSIG=
201902010200 METAR LRTR 010200Z 17009KT 2000 BR OVC003 01/01 Q1009 R11/190095
                        NOSIG=
201902010230 METAR LRTR 010230Z 18009KT 2000 BR OVC003 01/01 Q1009 R11/190095
                        NOSIG=
201902010300 METAR LRTR 010300Z 16008KT 1500 BR OVC005 01/01 Q1009 R11/190095
                        NOSIG=
201902010330 METAR LRTR 010330Z 15007KT 2000 BR OVC004 01/01 Q1009 R11/190095
                        NOSIG=
201902010400 METAR LRTR 010400Z 15008KT 2500 BR OVC004 01/01 Q1009 R11/190095
                        BECMG 3000=
201902010430 METAR LRTR 010430Z 14008KT 3000 BR OVC005 01/01 Q1009 R11/190095
                        NOSIG=
201902010500 METAR LRTR 010500Z 13009KT 3000 BR OVC005 01/01 Q1009 R11/190095
                        NOSIG=
201902010530 METAR LRTR 010530Z 09007KT 5000 BR BKN005 01/01 Q1009 R11/190095=
201902010600 METAR LRTR 010600Z 10008KT 2000 BR BKN004 01/01 Q1009 R11/190095=
201902010630 METAR LRTR 010630Z 12010KT 2000 BR BKN004 01/01 Q1009 R11/190095=
201902010700 METAR LRTR 010700Z 11011KT 3000 BR FEW003 BKN004 01/01 Q1009
                        R11/190095=
201902010730 METAR LRTR 010730Z 11011KT 4000 BR FEW003 BKN004 02/02 Q1010
                        R11/190095=
201902010800 METAR LRTR 010800Z 11014KT 8000 -SHRA SCT005 FEW050CB 02/02
                        Q1010 R11/190095=
201902010830 METAR LRTR 010830Z 11015KT 9999 FEW005 FEW050CB 03/03 Q1009
                        R11/190095=
201902010900 METAR LRTR 010900Z 11014KT 9999 FEW055CB 04/04 Q1009 R11/190095=
201902010930 METAR LRTR 010930Z 11016KT CAVOK 04/04 Q1009 R11/190095=
201902011000 METAR LRTR 011000Z 11015KT CAVOK 05/04 Q1009 R11/190095=
201902011030 METAR LRTR 011030Z 12014KT CAVOK 05/05 Q1009 R11/190095=
201902011100 METAR LRTR 011100Z 12014KT CAVOK 06/05 Q1009 R11/190095=
201902011130 METAR LRTR 011130Z 12014KT CAVOK 08/06 Q1008 R11/190095=
201902011200 METAR LRTR 011200Z 12012KT CAVOK 09/06 Q1008 R11/190095=
201902011230 METAR LRTR 011230Z 12012KT CAVOK 09/06 Q1008 R11/190095=
201902011300 METAR LRTR 011300Z 12012KT CAVOK 10/06 Q1008 R11/190095=
201902011330 METAR LRTR 011330Z 12011KT CAVOK 10/06 Q1008 R11/190095=
201902011400 METAR LRTR 011400Z 12012KT CAVOK 09/06 Q1008 R11/190095=
201902011430 METAR LRTR 011430Z 12011KT CAVOK 09/06 Q1008 R11/CLRD//=
201902011500 METAR LRTR 011500Z 12009KT CAVOK 08/06 Q1008=
201902011530 METAR LRTR 011530Z 11009KT CAVOK 06/05 Q1008=
201902011600 METAR LRTR 011600Z 12010KT CAVOK 06/04 Q1008=
201902011630 METAR LRTR 011630Z 13009KT CAVOK 05/04 Q1007=
201902011700 METAR LRTR 011700Z 12009KT CAVOK 04/03 Q1007=
201902011730 METAR LRTR 011730Z 11008KT CAVOK 04/03 Q1007=
201902011800 METAR LRTR 011800Z 12008KT CAVOK 04/03 Q1007=
201902011830 METAR LRTR 011830Z 11008KT CAVOK 03/03 Q1007=
201902011900 METAR LRTR 011900Z 10008KT CAVOK 04/03 Q1007=
201902011930 METAR LRTR 011930Z 11008KT CAVOK 05/03 Q1007=
201902012000 METAR LRTR 012000Z 10011KT CAVOK 05/03 Q1007=
201902012030 METAR LRTR 012030Z 11009KT CAVOK 05/04 Q1007=
201902012100 METAR LRTR 012100Z 11009KT CAVOK 05/04 Q1007=
201902012130 METAR LRTR 012130Z 11009KT CAVOK 05/04 Q1007=
201902012200 METAR LRTR 012200Z 11006KT CAVOK 05/04 Q1007=
201902012230 METAR LRTR 012230Z 11008KT CAVOK 05/04 Q1007=
201902012300 METAR COR LRTR 012300Z 12006KT CAVOK 06/04 Q1007=
201902012330 METAR LRTR 012330Z 11007KT CAVOK 05/05 Q1007=
201902020000 METAR LRTR 020000Z 11007KT CAVOK 06/05 Q1007=
201902020030 METAR LRTR 020030Z 12007KT CAVOK 06/05 Q1007=
201902020100 METAR LRTR 020100Z 11010KT 9999 -RA NSC 07/05 Q1007=
201902020130 METAR LRTR 020130Z 11009KT CAVOK 07/05 Q1007=
201902020200 METAR LRTR 020200Z 11009KT CAVOK 07/05 Q1007=
201902020230 METAR LRTR 020230Z 11009KT CAVOK 07/05 Q1007=
201902020300 METAR LRTR 020300Z 11010KT CAVOK 07/05 Q1007=
201902020330 METAR LRTR 020330Z 12010KT CAVOK 07/05 Q1007=
201902020400 METAR LRTR 020400Z 12010KT CAVOK 07/05 Q1006=
201902020430 METAR LRTR 020430Z 11011KT CAVOK 08/05 Q1006=
201902020500 METAR LRTR 020500Z 12009KT CAVOK 07/05 Q1006=
201902020530 METAR LRTR 020530Z 12012KT CAVOK 07/05 Q1006=
201902020600 METAR LRTR 020600Z 12012KT CAVOK 08/05 Q1007=
201902020630 METAR LRTR 020630Z 12011KT CAVOK 07/05 Q1007=
201902020700 METAR LRTR 020700Z 12010KT CAVOK 07/05 Q1007=
201902020730 METAR LRTR 020730Z 13008KT CAVOK 08/05 Q1007=
201902020800 METAR LRTR 020800Z 12010KT CAVOK 08/05 Q1007=
201902020830 METAR LRTR 020830Z 12008KT CAVOK 09/06 Q1007=
201902020900 METAR LRTR 020900Z 12011KT CAVOK 10/06 Q1007=
201902020930 METAR LRTR 020930Z 15013KT CAVOK 13/06 Q1007=
201902021000 METAR LRTR 021000Z 17015KT CAVOK 14/05 Q1007=
201902021030 METAR LRTR 021030Z 17016KT CAVOK 14/05 Q1007=
201902021100 METAR LRTR 021100Z 17018KT CAVOK 14/05 Q1006=
201902021130 METAR LRTR 021130Z 17017KT CAVOK 13/05 Q1007=
201902021200 METAR LRTR 021200Z 17016KT CAVOK 14/05 Q1006=
201902021230 METAR LRTR 021230Z 17015KT CAVOK 14/05 Q1006=
201902021300 METAR LRTR 021300Z 17014KT CAVOK 14/05 Q1006=
201902021330 METAR LRTR 021330Z 17013KT CAVOK 14/05 Q1006=
201902021400 METAR LRTR 021400Z 17013KT CAVOK 13/05 Q1006=
201902021430 METAR LRTR 021430Z 17014KT CAVOK 13/05 Q1006=
201902021500 METAR LRTR 021500Z 17013KT CAVOK 13/05 Q1006=
201902021530 METAR LRTR 021530Z 17011KT CAVOK 13/05 Q1007=
201902021600 METAR LRTR 021600Z 14009KT CAVOK 12/06 Q1007=
201902021630 METAR LRTR 021630Z 10006KT CAVOK 10/08 Q1007=
201902021700 METAR LRTR 021700Z 12009KT CAVOK 09/07 Q1007=
201902021730 METAR LRTR 021730Z 11007KT CAVOK 09/07 Q1007=
201902021800 METAR LRTR 021800Z 11008KT CAVOK 09/07 Q1007=
201902021830 METAR LRTR 021830Z 11008KT CAVOK 09/07 Q1007=
201902021900 METAR COR LRTR 021900Z 11006KT CAVOK 08/06 Q1007=
201902021930 METAR LRTR 021930Z 11006KT CAVOK 08/06 Q1007=
201902022000 METAR COR LRTR 022000Z 11007KT CAVOK 08/06 Q1007=
201902022030 METAR LRTR 022030Z 11007KT CAVOK 08/06 Q1007=
201902022100 METAR LRTR 022100Z 11009KT CAVOK 08/06 Q1007=
201902022130 METAR LRTR 022130Z 11009KT CAVOK 08/06 Q1006=
201902022200 METAR LRTR 022200Z 10010KT CAVOK 08/06 Q1006=
201902022230 METAR COR LRTR 022230Z 10012KT CAVOK 08/06 Q1006=
201902022300 METAR LRTR 022300Z 10011KT CAVOK 08/06 Q1006=
201902022330 METAR LRTR 022330Z 11011KT CAVOK 08/05 Q1006=
201902030000 METAR LRTR 030000Z 11010KT CAVOK 08/05 Q1006=
201902030030 METAR LRTR 030030Z 11011KT CAVOK 08/05 Q1006=
201902030100 METAR LRTR 030100Z 10009KT CAVOK 08/05 Q1006=
201902030130 METAR LRTR 030130Z 11010KT CAVOK 08/05 Q1005=
201902030200 METAR LRTR 030200Z 11012KT CAVOK 08/05 Q1006=
201902030230 METAR LRTR 030230Z 11013KT CAVOK 08/05 Q1005=
201902030300 METAR COR LRTR 030300Z 11013KT CAVOK 08/05 Q1005=
201902030330 METAR LRTR 030330Z 11013KT CAVOK 08/05 Q1005=
201902030400 METAR LRTR 030400Z 11014KT CAVOK 08/05 Q1005=
201902030430 METAR LRTR 030430Z 11009KT CAVOK 08/05 Q1005=
201902030500 METAR LRTR 030500Z 11009KT CAVOK 08/05 Q1005=
201902030530 METAR LRTR 030530Z 09008KT CAVOK 08/05 Q1006 NOSIG=
201902030600 METAR LRTR 030600Z 11008KT CAVOK 08/05 Q1006 NOSIG=
201902030630 METAR LRTR 030630Z 12010KT CAVOK 08/05 Q1006 NOSIG=
201902030700 METAR LRTR 030700Z 11008KT CAVOK 08/06 Q1006 NOSIG=
201902030730 METAR LRTR 030730Z 12010KT CAVOK 08/06 Q1007 NOSIG=
201902030800 METAR LRTR 030800Z 11009KT CAVOK 09/06 Q1007 NOSIG=
201902030830 METAR LRTR 030830Z 09007KT CAVOK 10/07 Q1006 NOSIG=
201902030900 METAR LRTR 030900Z 09008KT CAVOK 10/07 Q1006 NOSIG=
201902030930 METAR LRTR 030930Z 11010KT CAVOK 12/06 Q1007 NOSIG=
201902031000 METAR LRTR 031000Z 11009KT CAVOK 11/07 Q1006 NOSIG=
201902031030 METAR LRTR 031030Z 12011KT CAVOK 13/07 Q1006 NOSIG=
201902031100 METAR LRTR 031100Z 11011KT CAVOK 12/07 Q1006 NOSIG=
201902031130 METAR LRTR 031130Z 12011KT CAVOK 12/07 Q1006 NOSIG=
201902031200 METAR LRTR 031200Z 12011KT CAVOK 12/07 Q1005 NOSIG=
201902031230 METAR LRTR 031230Z 12009KT CAVOK 13/07 Q1005 NOSIG=
201902031300 METAR LRTR 031300Z 13013KT CAVOK 14/06 Q1005 NOSIG=
201902031330 METAR LRTR 031330Z 14011KT CAVOK 15/04 Q1005 NOSIG=
201902031400 METAR LRTR 031400Z 11009KT CAVOK 13/07 Q1005 NOSIG=
201902031430 METAR LRTR 031430Z 11008KT CAVOK 12/07 Q1005 NOSIG=
201902031500 METAR LRTR 031500Z 11008KT CAVOK 11/07 Q1005 NOSIG=
201902031530 METAR LRTR 031530Z 12009KT CAVOK 11/06 Q1005 NOSIG=
201902031600 METAR LRTR 031600Z 13005KT CAVOK 11/06 Q1006 NOSIG=
201902031630 METAR LRTR 031630Z 27012KT CAVOK 12/07 Q1009 NOSIG=
201902031700 METAR LRTR 031700Z 23013KT CAVOK 12/06 Q1009 NOSIG=
201902031730 METAR LRTR 031730Z 25009KT CAVOK 11/07 Q1010=
201902031800 METAR LRTR 031800Z 25005KT 200V270 CAVOK 10/08 Q1011=
201902031830 METAR LRTR 031830Z 16004KT 120V190 CAVOK 11/08 Q1011=
201902031900 METAR LRTR 031900Z 12006KT 9999 -RA NSC 09/08 Q1011=
201902031930 METAR LRTR 031930Z 12010KT CAVOK 09/08 Q1011 R11/190095=
201902032000 METAR LRTR 032000Z 15013KT CAVOK 10/08 Q1011 R11/190095=
201902032030 METAR LRTR 032030Z 16008KT CAVOK 09/08 Q1012 R11/190095=
201902032100 METAR LRTR 032100Z 19008KT 170V230 CAVOK 09/07 Q1013 R11/190095=
201902032130 METAR LRTR 032130Z 17010KT CAVOK 09/07 Q1013 R11/190095=
201902032200 METAR LRTR 032200Z 18008KT 160V220 CAVOK 09/06 Q1014 R11/190095=
201902032230 METAR LRTR 032230Z 20005KT CAVOK 09/06 Q1015 R11/190095=
201902032300 METAR LRTR 032300Z 29006KT 250V320 CAVOK 07/06 Q1015 R11/190095=
201902032330 METAR LRTR 032330Z 16003KT CAVOK 07/06 Q1016 R11/190095=
201902040000 METAR LRTR 040000Z 26004KT CAVOK 05/04 Q1016 R11/190095=
201902040030 METAR LRTR 040030Z 31005KT CAVOK 04/04 Q1017 R11/190095=
201902040100 METAR LRTR 040100Z 26004KT 220V280 8000 NSC 03/03 Q1018 R11/190095=
201902040130 METAR LRTR 040130Z 31008KT 8000 NSC 04/04 Q1018 R11/190095=
201902040200 METAR LRTR 040200Z 32009KT 7000 SCT003 04/04 Q1018 R11/190095=
201902040230 METAR LRTR 040230Z 33006KT 3000 BR BKN003 05/05 Q1020 R11/190095=
201902040300 METAR LRTR 040300Z 33009KT 4500 BR SCT003 BKN005 05/05 Q1019
                        R11/190095=
201902040330 METAR LRTR 040330Z 32008KT 7000 BKN006 05/05 Q1020 R11/190095=
201902040400 METAR LRTR 040400Z 33010KT 9999 BKN007 04/04 Q1021 R11/190095=
201902040430 METAR LRTR 040430Z 32010KT 9999 BKN009 04/04 Q1021 R11/190095=
201902040500 METAR LRTR 040500Z 33008KT 9999 BKN008 03/03 Q1021 R11/190095=
201902040530 METAR LRTR 040530Z 33008KT 9999 BKN010 03/03 Q1022 R11/190095=
201902040600 METAR LRTR 040600Z 33007KT 9999 OVC010 03/03 Q1023 R11/190095=
201902040630 METAR LRTR 040630Z 31006KT 9999 OVC012 03/03 Q1024 R11/190095=
201902040700 METAR LRTR 040700Z 31007KT 9999 OVC012 03/03 Q1024 R11/190095=
201902040730 METAR LRTR 040730Z 33007KT 9999 OVC012 03/03 Q1024 R11/190095=
201902040800 METAR LRTR 040800Z 32006KT 9999 OVC013 04/03 Q1025 R11/190095=
201902040830 METAR LRTR 040830Z 31006KT 9999 OVC015 04/03 Q1026 R11/190095=
201902040900 METAR LRTR 040900Z 32007KT 9999 BKN017 04/03 Q1026 R11/190095=
201902040930 METAR LRTR 040930Z 31007KT 9999 SCT019 04/03 Q1026 R11/190095=
201902041000 METAR LRTR 041000Z 32008KT 9999 FEW020 05/03 Q1026 R11/CLRD//=
201902041030 METAR LRTR 041030Z 31007KT CAVOK 05/03 Q1026=
201902041100 METAR COR LRTR 041100Z 32008KT 9999 FEW015 05/03 Q1026=
201902041130 METAR LRTR 041130Z 32010KT 9999 FEW016 05/03 Q1026=
201902041200 METAR LRTR 041200Z 32008KT 9999 FEW016 05/04 Q1026=
201902041230 METAR LRTR 041230Z 31006KT 280V340 9999 FEW016 06/03 Q1027=
201902041300 METAR LRTR 041300Z 30006KT 9999 SCT017 06/04 Q1027=
201902041330 METAR LRTR 041330Z 31006KT 9999 FEW017 06/04 Q1027=
201902041400 METAR LRTR 041400Z 33006KT 9999 FEW017 06/04 Q1027=
201902041430 METAR LRTR 041430Z 34006KT 310V010 9999 FEW018 06/03 Q1027=
201902041500 METAR LRTR 041500Z 35006KT 9999 FEW018 06/03 Q1027=
201902041530 METAR LRTR 041530Z 35006KT 9999 FEW018 05/03 Q1027=
201902041600 METAR LRTR 041600Z 36003KT CAVOK 05/03 Q1027=
201902041630 METAR LRTR 041630Z 35005KT CAVOK 04/03 Q1027=
201902041700 METAR LRTR 041700Z 35004KT CAVOK 04/03 Q1027 NOSIG=
201902041730 METAR LRTR 041730Z 03001KT CAVOK 03/03 Q1027 NOSIG=
201902041800 METAR LRTR 041800Z 35003KT CAVOK 03/03 Q1027 NOSIG=
201902041830 METAR LRTR 041830Z 36001KT CAVOK 02/02 Q1028 NOSIG=
201902041900 METAR LRTR 041900Z 00000KT CAVOK 02/02 Q1028 NOSIG=
201902041930 METAR LRTR 041930Z 30002KT 7000 NSC 02/02 Q1028 BECMG 5000
                        BR=
201902042000 METAR LRTR 042000Z 31003KT 4500 BR NSC 01/01 Q1028 BECMG
                        3000 BR=
201902042030 METAR LRTR 042030Z 35001KT 3500 BR NSC 01/01 Q1028 BECMG
                        3000 BR=
201902042100 METAR LRTR 042100Z 36005KT 5000 BR NSC 01/01 Q1028 NOSIG=
201902042130 METAR LRTR 042130Z 01005KT 6000 NSC 02/02 Q1028 TEMPO 5000
                        BR=
201902042200 METAR LRTR 042200Z 04002KT 7000 NSC 02/02 Q1028 TEMPO 5000
                        BR=
201902042230 METAR LRTR 042230Z 00000KT 8000 NSC 02/02 Q1028 NOSIG=
201902042300 METAR LRTR 042300Z 35002KT 7000 NSC 02/02 Q1027 TEMPO 5000
                        BR=
201902042330 METAR LRTR 042330Z 32004KT 5000 BR NSC 02/02 Q1027 NOSIG=
201902050000 METAR LRTR 050000Z 32004KT 5000 BR NSC 02/02 Q1027 TEMPO
                        3000 BR=
201902050030 METAR LRTR 050030Z 33004KT 5000 -RA BR NSC 02/02 Q1027 TEMPO
                        3000 BR=
201902050100 METAR LRTR 050100Z 32005KT 4000 -RA BR NSC 02/02 Q1027 NOSIG=
201902050130 METAR LRTR 050130Z 34004KT 5000 -RA BR NSC 02/02 Q1027 NOSIG=
201902050200 METAR LRTR 050200Z 35006KT 5000 -RA BR NSC 02/02 Q1026 NOSIG=
201902050230 METAR LRTR 050230Z 36007KT 5000 BR NSC 02/02 Q1026 NOSIG=
201902050300 METAR LRTR 050300Z 01008KT 5000 BR NSC 02/02 Q1026 NOSIG=
201902050330 METAR LRTR 050330Z 01006KT 5000 BR NSC 02/02 Q1026 R11/29//95
                        NOSIG=
201902050400 METAR LRTR 050400Z 31003KT 5000 BR SCT015 03/03 Q1026 R11/29//95
                        TEMPO BKN010=
201902050430 METAR LRTR 050430Z 31004KT 5000 -DZ BR BKN015 03/03 Q1026
                        R11/29//95 TEMPO 3000 DZ BR BKN010=
201902050500 METAR LRTR 050500Z 35005KT 4000 -DZ BR BKN012 03/03 Q1026
                        R11/29//95 TEMPO 3000 DZ BR BKN010=
201902050530 METAR LRTR 050530Z 35007KT 4000 -DZ BR SCT012 BKN018 03/03
                        Q1026 R11/29//95=
201902050600 METAR LRTR 050600Z 36007KT 4000 BR FEW015 BKN018 03/03 Q1026
                        R11/29//95=
201902050630 METAR LRTR 050630Z 35004KT 5000 BR OVC015 03/03 Q1026 R11/29//95=
201902050700 METAR LRTR 050700Z 32003KT 6000 BKN006 OVC015 03/03 Q1026
                        R11/29//95=
201902050730 METAR LRTR 050730Z 01008KT 6000 FEW006 SCT014 BKN048 03/03
                        Q1026 R11/29//95=
201902050800 METAR COR LRTR 050800Z 03008KT 6000 FEW006 SCT048 03/03 Q1026
                        R11/29//95=
201902050830 METAR LRTR 050830Z 04007KT 6000 FEW006 BKN014 BKN042 04/04
                        Q1026 R11/29//95=
201902050900 METAR LRTR 050900Z 07003KT 360V130 7000 FEW006 BKN014 BKN040
                        04/04 Q1027 R11/29//95=
201902050930 METAR LRTR 050930Z 00000KT 7000 -RA BKN006 OVC014 04/04 Q1027
                        R11/29//95=
201902051000 METAR LRTR 051000Z VRB02KT 8000 -RA BKN006 OVC013 04/04 Q1027
                        R11/29//95=
201902051030 METAR LRTR 051030Z 30003KT 8000 SCT006 BKN012 BKN032 05/05
                        Q1027 R11/29//95=
201902051100 METAR LRTR 051100Z 33004KT 8000 FEW007 SCT013 BKN030 05/05
                        Q1027 R11/29//95=
201902051130 METAR LRTR 051130Z 32005KT 8000 FEW007 BKN030 05/05 Q1027
                        R11/29//95=
201902051200 METAR LRTR 051200Z 34005KT 8000 BKN008 BKN034 06/05 Q1026
                        R11/29//95=
201902051230 METAR LRTR 051230Z 36008KT 8000 BKN008 OVC035 06/06 Q1026
                        R11/29//95=
201902051300 METAR LRTR 051300Z 35007KT 7000 OVC008 06/05 Q1026 R11/29//95=
201902051330 METAR LRTR 051330Z 36008KT 6000 OVC008 05/05 Q1026 R11/29//95=
201902051400 METAR LRTR 051400Z 36008KT 6000 OVC009 05/05 Q1026 R11/29//95=
201902051430 METAR LRTR 051430Z 02008KT 7000 SCT008 OVC035 05/05 Q1026
                        R11/29//95=
201902051500 METAR COR LRTR 051500Z 02008KT 6000 FEW009 OVC035 05/05 Q1026
                        R11/29//95=
201902051530 METAR COR LRTR 051530Z 02006KT 5000 BR SCT009 OVC030 05/05
                        Q1026 R11/CLRD//=
201902051600 METAR COR LRTR 051600Z 02006KT 5000 BR BKN008 OVC028 05/05
                        Q1026=
201902051630 METAR LRTR 051630Z 36007KT 4500 BR OVC007 05/05 Q1026=
201902051700 METAR LRTR 051700Z 36005KT 6000 OVC007 05/05 Q1026=
201902051730 METAR LRTR 051730Z 36004KT 330V040 6000 BKN007 OVC027 05/05
                        Q1026=
201902051800 METAR LRTR 051800Z 01006KT 6000 SCT007 OVC030 05/05 Q1026=
201902051830 METAR LRTR 051830Z 35009KT 6000 OVC031 05/05 Q1026=
201902051900 METAR LRTR 051900Z 35010KT 6000 OVC032 05/05 Q1026=
201902051930 METAR LRTR 051930Z 35009KT 6000 OVC032 05/05 Q1026=
201902052000 METAR LRTR 052000Z 36008KT 5000 BR FEW006 OVC031 04/04 Q1026=
201902052030 METAR LRTR 052030Z 36008KT 6000 FEW006 OVC031 04/04 Q1026=
201902052100 METAR LRTR 052100Z 35009KT 6000 FEW007 OVC030 04/04 Q1026=
201902052130 METAR LRTR 052130Z 36008KT 6000 SCT007 OVC030 04/04 Q1026=
201902052200 METAR LRTR 052200Z 36007KT 6000 OVC006 04/04 Q1026=
201902052230 METAR LRTR 052230Z 01008KT 6000 OVC006 04/04 Q1026=
201902052300 METAR LRTR 052300Z 01008KT 6000 OVC006 04/04 Q1025=
201902052330 METAR LRTR 052330Z 01007KT 6000 BKN006 OVC039 04/04 Q1025=
201902060000 METAR LRTR 060000Z 36005KT 7000 BKN006 OVC040 04/04 Q1025=
201902060030 METAR LRTR 060030Z 36006KT 8000 BKN007 OVC037 04/04 Q1025=
201902060100 METAR LRTR 060100Z 01006KT 7000 BKN007 OVC044 03/03 Q1025=
201902060130 METAR LRTR 060130Z 35007KT 6000 OVC007 03/03 Q1025=
201902060200 METAR COR LRTR 060200Z 36010KT 7000 SCT007 BKN033 OVC048
                        03/03 Q1025=
201902060230 METAR LRTR 060230Z 36009KT 8000 BKN008 OVC049 03/03 Q1024=
201902060300 METAR LRTR 060300Z 36010KT 9999 SCT008 OVC040 03/03 Q1024=
201902060330 METAR LRTR 060330Z 01008KT 9999 FEW010 OVC045 03/03 Q1024=
201902060400 METAR LRTR 060400Z 36007KT 7000 OVC042 03/03 Q1024=
201902060430 METAR LRTR 060430Z 35007KT 7000 OVC040 03/03 Q1024=
201902060500 METAR LRTR 060500Z 36007KT 7000 OVC040 03/03 Q1024=
201902060530 METAR LRTR 060530Z 35008KT 7000 OVC039 03/03 Q1024=
201902060600 METAR LRTR 060600Z 33010KT 7000 BKN043 03/03 Q1024=
201902060630 METAR LRTR 060630Z 33007KT 6000 SCT040 03/03 Q1024=
201902060700 METAR LRTR 060700Z 34011KT 4500 BR SCT005 03/03 Q1024=
201902060730 METAR LRTR 060730Z 34011KT 5000 BR SCT005 04/03 Q1024=
201902060800 METAR LRTR 060800Z 34013KT 5000 BR FEW007 03/03 Q1024=
201902060830 METAR LRTR 060830Z 35010KT 320V020 7000 FEW007 04/03 Q1024=
201902060900 METAR LRTR 060900Z 01009KT 340V040 9000 FEW007 05/03 Q1024=
201902060930 METAR LRTR 060930Z 36012KT 9999 FEW007 05/03 Q1024=
201902061000 METAR LRTR 061000Z 35014KT CAVOK 06/03 Q1024=
201902061030 METAR LRTR 061030Z 35012KT CAVOK 07/03 Q1024=
201902061100 METAR LRTR 061100Z 34012KT CAVOK 07/03 Q1023=
201902061130 METAR LRTR 061130Z 35014KT CAVOK 07/03 Q1023=
201902061200 METAR LRTR 061200Z 35013KT CAVOK 07/04 Q1023=
201902061230 METAR LRTR 061230Z 35013KT CAVOK 08/04 Q1023=
201902061300 METAR LRTR 061300Z 35015KT CAVOK 08/03 Q1023=
201902061330 METAR LRTR 061330Z 35016KT CAVOK 07/03 Q1023=
201902061400 METAR LRTR 061400Z 36014KT CAVOK 07/03 Q1023=
201902061430 METAR LRTR 061430Z 35015KT CAVOK 07/03 Q1023=
201902061500 METAR LRTR 061500Z 35013KT CAVOK 06/02 Q1023=
201902061530 METAR LRTR 061530Z 35014KT CAVOK 05/02 Q1023=
201902061600 METAR LRTR 061600Z 35013KT CAVOK 05/02 Q1023=
201902061630 METAR LRTR 061630Z 35014KT CAVOK 04/01 Q1023=
201902061700 METAR LRTR 061700Z 35014KT CAVOK 04/01 Q1023=
201902061730 METAR LRTR 061730Z 35015KT CAVOK 04/01 Q1024=
201902061800 METAR LRTR 061800Z 36014KT CAVOK 03/01 Q1024=
201902061830 METAR LRTR 061830Z 35012KT CAVOK 03/01 Q1024=
201902061900 METAR COR LRTR 061900Z 33011KT CAVOK 03/01 Q1024=
201902061930 METAR LRTR 061930Z 35011KT CAVOK 02/00 Q1024=
201902062000 METAR LRTR 062000Z 35009KT CAVOK 01/M00 Q1025=
201902062030 METAR LRTR 062030Z 35011KT CAVOK 01/M00 Q1025=
201902062100 METAR LRTR 062100Z 36012KT CAVOK 01/M01 Q1025=
201902062130 METAR LRTR 062130Z 36011KT CAVOK 00/M01 Q1025=
201902062200 METAR LRTR 062200Z 01007KT CAVOK 00/M01 Q1025=
201902062230 METAR LRTR 062230Z 01009KT CAVOK M00/M01 Q1025=
201902062300 METAR COR LRTR 062300Z 02007KT CAVOK M00/M01 Q1024=
201902062330 METAR LRTR 062330Z 01008KT CAVOK M01/M01 Q1024=
201902070000 METAR LRTR 070000Z 01008KT CAVOK M01/M01 Q1024=
201902070030 METAR LRTR 070030Z 01007KT CAVOK M01/M01 Q1024=
201902070100 METAR LRTR 070100Z 07003KT 030V120 CAVOK M01/M01 Q1025=
201902070130 METAR COR LRTR 070130Z 01004KT CAVOK M02/M02 Q1024=
201902070200 METAR COR LRTR 070200Z 01004KT 9999 FEW040 M02/M02 Q1024=
201902070230 METAR LRTR 070230Z 36004KT 9999 SCT037 M02/M02 Q1024=
201902070300 METAR LRTR 070300Z 33003KT 9999 SCT037 M03/M03 Q1024=
201902070330 METAR LRTR 070330Z 00000KT 9999 BKN037 M03/M03 Q1024=
201902070400 METAR LRTR 070400Z 26003KT 8000 BKN037 M03/M03 Q1024=
201902070430 METAR COR LRTR 070430Z 20003KT 8000 BKN037 M03/M03 Q1025=
201902070500 METAR LRTR 070500Z 19002KT 7000 BKN035 M04/M04 Q1025=
201902070530 METAR LRTR 070530Z 14002KT 5000 BR SCT035 M04/M04 Q1024 TEMPO
                        3000 BR=
201902070600 METAR LRTR 070600Z 12003KT 3500 BR SCT035 M04/M04 Q1025 TEMPO
                        3000 BR=
201902070630 METAR LRTR 070630Z 14003KT 4000 BR BKN038 M03/M03 Q1025 BECMG
                        5000=
201902070700 METAR LRTR 070700Z 15002KT 7000 BKN038 M03/M03 Q1025 NOSIG=
201902070730 METAR LRTR 070730Z 15003KT 8000 BKN038 M02/M02 Q1025 NOSIG=
201902070800 METAR LRTR 070800Z 15004KT 130V190 9999 BKN038 M01/M01 Q1025
                        NOSIG=
201902070830 METAR LRTR 070830Z 16004KT 130V190 9999 BKN038 M01/M01 Q1025
                        NOSIG=
201902070900 METAR LRTR 070900Z 18005KT 9999 BKN036 M00/M01 Q1025 NOSIG=
201902070930 METAR LRTR 070930Z 17004KT 9999 BKN036 00/M00 Q1025 NOSIG=
201902071000 METAR LRTR 071000Z 15004KT 110V200 9999 FEW017 BKN035 01/00
                        Q1025 NOSIG=
201902071030 METAR LRTR 071030Z 17004KT 140V200 9999 FEW017 BKN035 01/00
                        Q1025 NOSIG=
201902071100 METAR LRTR 071100Z 18004KT 9999 FEW015 BKN032 02/M00 Q1025
                        NOSIG=
201902071130 METAR LRTR 071130Z 14004KT 9999 FEW014 BKN030 02/M00 Q1024
                        NOSIG=
201902071200 METAR LRTR 071200Z 15005KT 9999 OVC031 02/00 Q1024 NOSIG=
201902071230 METAR LRTR 071230Z 15005KT 9999 OVC032 03/01 Q1024 NOSIG=
201902071300 METAR LRTR 071300Z 15004KT 9999 BKN033 03/01 Q1023 NOSIG=
201902071330 METAR LRTR 071330Z 14004KT 9999 BKN038 03/01 Q1023 NOSIG=
201902071400 METAR LRTR 071400Z 12006KT 9999 BKN040 04/02 Q1023 NOSIG=
201902071430 METAR LRTR 071430Z 11005KT 9999 BKN040 04/02 Q1023 NOSIG=
201902071500 METAR LRTR 071500Z 11007KT 9999 BKN040 04/03 Q1023 NOSIG=
201902071530 METAR LRTR 071530Z 11008KT 9999 BKN041 04/03 Q1023 NOSIG=
201902071600 METAR LRTR 071600Z 11007KT 8000 SCT041 03/03 Q1022 BECMG
                        5000 BR=
201902071630 METAR LRTR 071630Z 11007KT 7000 SCT043 01/01 Q1022 BECMG
                        5000 BR=
201902071700 METAR LRTR 071700Z 08006KT 5000 BR NSC 01/01 Q1022 NOSIG=
201902071730 METAR LRTR 071730Z 12006KT 5000 BR NSC 01/01 Q1022=
201902071800 METAR LRTR 071800Z 12006KT 6000 NSC M00/M00 Q1022=
201902071830 METAR LRTR 071830Z 13005KT 6000 NSC M00/M00 Q1022=
201902071900 METAR LRTR 071900Z 13006KT 3500 BR NSC M00/M00 Q1022=
201902071930 METAR LRTR 071930Z 11007KT 2500 BR NSC M01/M01 Q1022=
201902072000 METAR LRTR 072000Z 10005KT 3000 BR NSC M01/M01 Q1022=
201902072030 METAR LRTR 072030Z 12005KT 3500 BR NSC M02/M02 Q1021=
201902072100 METAR LRTR 072100Z 10005KT 3500 BR NSC M01/M01 Q1021=
201902072130 METAR LRTR 072130Z 08006KT 5000 BR NSC M01/M01 Q1021=
201902072200 METAR LRTR 072200Z 08005KT 7000 NSC M01/M01 Q1021=
201902072230 METAR LRTR 072230Z 06006KT 9000 NSC M01/M01 Q1021=
201902072300 METAR LRTR 072300Z 08006KT CAVOK M01/M01 Q1021=
201902072330 METAR LRTR 072330Z 08006KT CAVOK M01/M01 Q1021=
201902080000 METAR LRTR 080000Z 08006KT CAVOK M01/M01 Q1021=
201902080030 METAR LRTR 080030Z 06009KT CAVOK M01/M01 Q1021=
201902080100 METAR LRTR 080100Z 08008KT CAVOK M01/M01 Q1020=
201902080130 METAR LRTR 080130Z 09007KT CAVOK M01/M01 Q1020=
201902080200 METAR LRTR 080200Z 10007KT CAVOK M01/M01 Q1020=
201902080230 METAR LRTR 080230Z 09006KT CAVOK M02/M02 Q1020=
201902080300 METAR LRTR 080300Z 10007KT CAVOK M00/M01 Q1020=
201902080330 METAR LRTR 080330Z 09004KT 9999 SCT038 M00/M00 Q1020=
201902080400 METAR LRTR 080400Z 07004KT 9999 BKN038 00/00 Q1020=
201902080430 METAR LRTR 080430Z 06005KT 9999 OVC037 00/00 Q1020=
201902080500 METAR LRTR 080500Z 08005KT 9999 OVC037 01/01 Q1021=
201902080530 METAR LRTR 080530Z 10004KT 9999 OVC037 01/01 Q1021=
201902080600 METAR LRTR 080600Z VRB02KT 9999 OVC036 01/01 Q1021=
201902080630 METAR LRTR 080630Z VRB01KT 9999 OVC036 01/01 Q1021=
201902080700 METAR LRTR 080700Z 12002KT 9000 OVC035 01/01 Q1021=
201902080730 METAR LRTR 080730Z 10002KT 7000 OVC035 00/00 Q1022=
201902080800 METAR LRTR 080800Z VRB02KT 8000 OVC034 01/01 Q1022=
201902080830 METAR LRTR 080830Z 08002KT 8000 OVC034 01/01 Q1022=
201902080900 METAR LRTR 080900Z VRB02KT 8000 OVC035 02/02 Q1022=
201902080930 METAR LRTR 080930Z 09003KT 9999 OVC035 03/02 Q1022=
201902081000 METAR LRTR 081000Z 07003KT 9999 OVC036 03/02 Q1022=
201902081030 METAR LRTR 081030Z 00000KT 9999 OVC036 04/02 Q1022=
201902081100 METAR LRTR 081100Z 00000KT 9999 OVC037 04/01 Q1022=
201902081130 METAR LRTR 081130Z VRB02KT 9999 OVC038 05/02 Q1022=
201902081200 METAR LRTR 081200Z 24003KT 9999 OVC040 05/02 Q1022=
201902081230 METAR LRTR 081230Z 26003KT 220V320 9999 OVC041 05/01 Q1022=
201902081300 METAR LRTR 081300Z 28005KT 260V320 9999 OVC040 05/02 Q1022=
201902081330 METAR LRTR 081330Z 29005KT 9999 OVC036 05/02 Q1022=
201902081400 METAR LRTR 081400Z 30004KT 9999 OVC037 05/02 Q1022=
201902081430 METAR LRTR 081430Z 31005KT 9999 OVC036 05/03 Q1022=
201902081500 METAR LRTR 081500Z 36005KT 320V040 9999 OVC037 05/M00 Q1022=
201902081530 METAR LRTR 081530Z 03006KT 9999 OVC036 05/M01 Q1022=
201902081600 METAR COR LRTR 081600Z 01007KT 9999 OVC039 04/M02 Q1022=
201902081630 METAR LRTR 081630Z 04006KT 9999 OVC040 04/M00 Q1022=
201902081700 METAR LRTR 081700Z 06004KT 9999 OVC039 04/M01 Q1022 NOSIG=
201902081730 METAR LRTR 081730Z 04004KT 350V080 9999 OVC039 04/M01 Q1022
                        NOSIG=
201902081800 METAR LRTR 081800Z 03003KT 9999 OVC038 03/M00 Q1022 NOSIG=
201902081830 METAR LRTR 081830Z VRB02KT 9999 OVC038 03/M00 Q1022 NOSIG=
201902081900 METAR LRTR 081900Z 35004KT 300V020 9999 OVC038 03/00 Q1022
                        NOSIG=
201902081930 METAR LRTR 081930Z VRB01KT 9999 OVC039 03/M01 Q1022 NOSIG=
201902082000 METAR LRTR 082000Z 33002KT 9999 OVC039 04/M01 Q1023 NOSIG=
201902082030 METAR LRTR 082030Z 00000KT 9999 OVC040 03/M01 Q1023 NOSIG=
201902082100 METAR LRTR 082100Z 05001KT 9999 OVC040 03/M01 Q1023 NOSIG=
201902082130 METAR LRTR 082130Z 36002KT 9999 OVC040 03/M01 Q1023 NOSIG=
201902082200 METAR LRTR 082200Z 00000KT 9999 OVC040 02/M01 Q1022 NOSIG=
201902082230 METAR LRTR 082230Z 00000KT 9999 OVC040 03/M01 Q1022 NOSIG=
201902082300 METAR LRTR 082300Z 00000KT 9999 OVC039 02/M01 Q1022 NOSIG=
201902082330 METAR LRTR 082330Z 00000KT 9999 OVC039 03/M01 Q1022 NOSIG=
201902090000 METAR LRTR 090000Z 00000KT 9999 OVC039 03/M02 Q1022 NOSIG=
201902090030 METAR LRTR 090030Z 00000KT 9999 OVC038 03/M03 Q1022 NOSIG=
201902090100 METAR LRTR 090100Z 14003KT 9999 OVC038 03/M02 Q1022 NOSIG=
201902090130 METAR LRTR 090130Z 00000KT 9999 OVC038 03/M02 Q1022 NOSIG=
201902090200 METAR LRTR 090200Z 26004KT 9999 OVC038 02/01 Q1022 NOSIG=
201902090230 METAR LRTR 090230Z 26005KT 7000 OVC038 02/02 Q1022 BECMG
                        5000 BR=
201902090300 METAR LRTR 090300Z 00000KT 4000 BR OVC038 01/01 Q1022 BECMG
                        3000 BR=
201902090330 METAR LRTR 090330Z 00000KT 3000 BR OVC038 01/01 Q1022 NOSIG=
201902090400 METAR LRTR 090400Z 00000KT 3000 BR OVC039 01/01 Q1021 NOSIG=
201902090430 METAR LRTR 090430Z 14003KT 3000 BR OVC039 01/01 Q1021 NOSIG=
201902090500 METAR LRTR 090500Z 16004KT 2500 BR OVC039 01/01 Q1021 NOSIG=
201902090530 METAR LRTR 090530Z 16005KT 1500 BR BKN002 OVC040 01/01 Q1021=
201902090600 METAR LRTR 090600Z 17003KT 1200 R11/P2000 R29/2000U BR BKN002
                        OVC040 01/01 Q1021=
201902090630 METAR LRTR 090630Z 17003KT 1200 R11/P2000 R29/2000 BR BKN002
                        BKN040 01/01 Q1022=
201902090700 METAR LRTR 090700Z 15003KT 1200 R11/1700D R29/1600U BR BKN002
                        BKN040 01/01 Q1022=
201902090730 METAR LRTR 090730Z 00000KT 1500 BR SCT003 BKN038 01/01 Q1022=
201902090800 METAR LRTR 090800Z VRB02KT 1800 BR FEW003 OVC039 02/02 Q1022=
201902090830 METAR COR LRTR 090830Z VRB02KT 2500 BR FEW004 OVC037 02/02
                        Q1022=
201902090900 METAR LRTR 090900Z 13003KT 100V170 3500 BR FEW008 OVC037
                        03/02 Q1022=
201902090930 METAR LRTR 090930Z 13003KT 6000 BKN036 04/02 Q1022=
201902091000 METAR LRTR 091000Z VRB02KT 8000 FEW012 BKN035 05/M02 Q1022=
201902091030 METAR LRTR 091030Z VRB02KT 9999 FEW020 BKN033 04/M03 Q1022=
201902091100 METAR LRTR 091100Z 21003KT 150V260 9999 OVC033 05/M03 Q1021=
201902091130 METAR LRTR 091130Z 12005KT 100V160 9999 BKN035 05/M03 Q1021=
201902091200 METAR LRTR 091200Z 14005KT 090V250 9999 BKN035 06/M03 Q1021=
201902091230 METAR LRTR 091230Z 14006KT 100V250 9999 SCT037 05/M03 Q1020=
201902091300 METAR LRTR 091300Z 12005KT 070V190 9999 SCT037 06/M03 Q1020=
201902091330 METAR LRTR 091330Z 12004KT 070V190 9999 BKN037 06/M03 Q1020=
201902091400 METAR LRTR 091400Z 19004KT 150V270 9999 SCT038 06/M03 Q1020=
201902091430 METAR LRTR 091430Z VRB02KT 9999 SCT038 05/M03 Q1020=
201902091500 METAR LRTR 091500Z 15004KT 9999 FEW038 05/M03 Q1020=
201902091530 METAR LRTR 091530Z 06003KT 9999 SCT038 04/M00 Q1021=
201902091600 METAR LRTR 091600Z 07004KT 9999 SCT037 04/01 Q1021=
201902091630 METAR LRTR 091630Z 08005KT 9999 FEW037 03/01 Q1021=
201902091700 METAR LRTR 091700Z 09005KT CAVOK 02/01 Q1021=
201902091730 METAR LRTR 091730Z 07005KT CAVOK 01/00 Q1021=
201902091800 METAR LRTR 091800Z 09004KT CAVOK 01/M00 Q1021=
201902091830 METAR LRTR 091830Z 10005KT CAVOK 01/M00 Q1021=
201902091900 METAR LRTR 091900Z 06003KT 7000 NSC M00/M01 Q1022=
201902091930 METAR LRTR 091930Z 09006KT 7000 NSC M01/M01 Q1021=
201902092000 METAR LRTR 092000Z 09007KT 6000 NSC M01/M01 Q1021=
201902092030 METAR LRTR 092030Z 09006KT 6000 NSC M01/M01 Q1021=
201902092100 METAR LRTR 092100Z 10005KT 7000 NSC M01/M01 Q1021=
201902092130 METAR LRTR 092130Z 10002KT 7000 NSC M01/M01 Q1022=
201902092200 METAR LRTR 092200Z 13002KT 7000 NSC M01/M01 Q1022=
201902092230 METAR LRTR 092230Z 08004KT 7000 NSC M01/M02 Q1022=
201902092300 METAR LRTR 092300Z 08006KT 6000 NSC M01/M01 Q1022=
201902092330 METAR LRTR 092330Z 09007KT 7000 NSC M01/M02 Q1021=
201902100000 METAR LRTR 100000Z 09006KT 8000 NSC M01/M02 Q1022=
201902100030 METAR LRTR 100030Z 10006KT 8000 NSC M02/M02 Q1021=
201902100100 METAR LRTR 100100Z 10005KT 7000 NSC M02/M02 Q1022=
201902100130 METAR LRTR 100130Z 10005KT 7000 NSC M02/M02 Q1021=
201902100200 METAR LRTR 100200Z 10005KT 7000 NSC M02/M02 Q1021=
201902100230 METAR LRTR 100230Z 09005KT 6000 NSC M02/M02 Q1022=
201902100300 METAR LRTR 100300Z 10006KT 7000 NSC M02/M02 Q1021=
201902100330 METAR LRTR 100330Z 10006KT 8000 NSC M02/M02 Q1021=
201902100400 METAR LRTR 100400Z 09005KT 8000 NSC M02/M02 Q1021=
201902100430 METAR LRTR 100430Z 10003KT 8000 NSC M03/M03 Q1021=
201902100500 METAR LRTR 100500Z 10006KT CAVOK M02/M02 Q1021=
201902100530 METAR LRTR 100530Z 08004KT CAVOK M02/M02 Q1021=
201902100600 METAR LRTR 100600Z 09005KT CAVOK M03/M03 Q1021=
201902100630 METAR LRTR 100630Z 12007KT 8000 NSC M02/M02 Q1021=
201902100700 METAR LRTR 100700Z 12006KT 8000 NSC M01/M01 Q1021=
201902100730 METAR LRTR 100730Z 12008KT CAVOK M00/M01 Q1021=
201902100800 METAR LRTR 100800Z 11009KT CAVOK 00/M01 Q1021=
201902100830 METAR LRTR 100830Z 11009KT CAVOK 01/M00 Q1021=
201902100900 METAR LRTR 100900Z 11009KT CAVOK 02/00 Q1020=
201902100930 METAR LRTR 100930Z 12009KT CAVOK 03/00 Q1020=
201902101000 METAR LRTR 101000Z 13008KT CAVOK 04/00 Q1020=
201902101030 METAR LRTR 101030Z 13008KT CAVOK 05/00 Q1020=
201902101100 METAR LRTR 101100Z 13006KT CAVOK 05/00 Q1019=
201902101130 METAR LRTR 101130Z 13007KT CAVOK 06/01 Q1019=
201902101200 METAR LRTR 101200Z 14007KT 110V170 CAVOK 07/01 Q1018=
201902101230 METAR LRTR 101230Z 13009KT CAVOK 07/01 Q1018=
201902101300 METAR LRTR 101300Z 13008KT CAVOK 07/02 Q1017=
201902101330 METAR LRTR 101330Z 13007KT CAVOK 08/02 Q1017=
201902101400 METAR LRTR 101400Z 15007KT CAVOK 08/02 Q1017=
201902101430 METAR LRTR 101430Z 15007KT CAVOK 08/02 Q1016=
201902101500 METAR LRTR 101500Z 12007KT CAVOK 07/03 Q1016=
201902101530 METAR LRTR 101530Z 12007KT CAVOK 05/03 Q1015=
201902101600 METAR LRTR 101600Z 12009KT CAVOK 03/02 Q1015=
201902101630 METAR LRTR 101630Z 11007KT CAVOK 04/02 Q1015=
201902101700 METAR LRTR 101700Z 12007KT CAVOK 02/02 Q1015=
201902101730 METAR LRTR 101730Z 11008KT CAVOK 02/01 Q1014=
201902101800 METAR LRTR 101800Z 11009KT CAVOK 02/01 Q1014=
201902101830 METAR LRTR 101830Z 10009KT CAVOK 02/01 Q1013=
201902101900 METAR LRTR 101900Z 10009KT CAVOK 02/01 Q1013=
201902101930 METAR COR LRTR 101930Z 11009KT CAVOK 02/01 Q1012=
201902102000 METAR LRTR 102000Z 10011KT CAVOK 03/01 Q1012=
201902102030 METAR LRTR 102030Z 10009KT CAVOK 02/01 Q1011=
201902102100 METAR LRTR 102100Z 11006KT CAVOK 03/01 Q1011=
201902102130 METAR LRTR 102130Z 12008KT CAVOK 03/02 Q1011=
201902102200 METAR LRTR 102200Z 12008KT CAVOK 03/02 Q1010=
201902102230 METAR LRTR 102230Z 13007KT CAVOK 04/02 Q1010=
201902102300 METAR LRTR 102300Z 13008KT CAVOK 04/02 Q1010=
201902102330 METAR LRTR 102330Z 14007KT CAVOK 06/02 Q1009=
201902110000 METAR LRTR 110000Z 17009KT CAVOK 08/02 Q1009=
201902110030 METAR LRTR 110030Z 18011KT CAVOK 08/02 Q1009=
201902110100 METAR LRTR 110100Z 18011KT CAVOK 08/02 Q1008=
201902110130 METAR LRTR 110130Z 18013KT CAVOK 08/02 Q1007=
201902110200 METAR LRTR 110200Z 18013KT CAVOK 08/01 Q1007=
201902110230 METAR LRTR 110230Z 18013KT CAVOK 08/02 Q1007=
201902110300 METAR LRTR 110300Z 18012KT CAVOK 08/02 Q1006=
201902110330 METAR LRTR 110330Z 18012KT 9999 -RA NSC 08/02 Q1006=
201902110400 METAR LRTR 110400Z 18015KT CAVOK 08/02 Q1006=
201902110430 METAR LRTR 110430Z 20011KT 9999 -RA NSC 08/03 Q1006=
201902110500 METAR LRTR 110500Z 20011KT 9999 -RA NSC 08/03 Q1006 R11/190095=
201902110530 METAR LRTR 110530Z 18013KT 9999 -RA BKN049 08/04 Q1005 R11/190095
                        NOSIG=
201902110600 METAR LRTR 110600Z 19009KT 9999 -RA BKN049 07/04 Q1005 R11/190095
                        NOSIG=
201902110630 METAR LRTR 110630Z 18008KT 9999 -RA BKN047 07/05 Q1005 R11/290095
                        NOSIG=
201902110700 METAR LRTR 110700Z 33007KT 290V360 9999 -RA BKN045 06/05
                        Q1006 R11/290095 NOSIG=
201902110730 METAR LRTR 110730Z 21005KT 160V280 9999 -RA BKN047 06/06
                        Q1005 R11/290095 NOSIG=
201902110800 METAR LRTR 110800Z 19004KT 150V220 9999 SCT049 07/06 Q1004
                        R11/290095 NOSIG=
201902110830 METAR LRTR 110830Z 27004KT 9999 -RA FEW048 06/06 Q1005 R11/290095
                        NOSIG=
201902110900 METAR LRTR 110900Z 33005KT 9999 -RA FEW049 06/06 Q1005 R11/290095
                        NOSIG=
201902110930 METAR LRTR 110930Z 33006KT 8000 -RA NSC 06/06 Q1005 R11/290095
                        TEMPO 5000 RA BR=
201902111000 METAR LRTR 111000Z 35004KT 7000 -RA OVC049 07/07 Q1005 R11/290095
                        TEMPO 5000 RA BR=
201902111030 METAR LRTR 111030Z 36007KT 7000 -RA OVC049 07/07 Q1005 R11/290095
                        NOSIG=
201902111100 METAR LRTR 111100Z 36009KT 5000 RA BR OVC048 06/06 Q1005
                        R11/290095 NOSIG=
201902111130 METAR LRTR 111130Z 35013KT 7000 SHRA SCT005 FEW020CB OVC048
                        06/06 Q1004 R11/290095 NOSIG=
201902111200 METAR LRTR 111200Z 35014KT 9999 -RA FEW005 BKN020 05/05 Q1004
                        RESHRA R11/290095 NOSIG=
201902111230 METAR LRTR 111230Z 35013KT 9999 -RA FEW008 BKN022 05/05 Q1004
                        R11/290095 NOSIG=
201902111300 METAR LRTR 111300Z 33011KT 9999 -RA FEW008 BKN015 05/05 Q1005
                        R11/290095 NOSIG=
201902111330 METAR LRTR 111330Z 34013KT 9999 -RA SCT010 OVC025 04/04 Q1005
                        R11/290095 NOSIG=
201902111400 METAR LRTR 111400Z 35012KT 9999 -RA FEW010 OVC029 05/05 Q1005
                        R11/290095 NOSIG=
201902111430 METAR LRTR 111430Z 34011KT 9999 -RA OVC033 05/05 Q1005 R11/290095
                        NOSIG=
201902111500 METAR LRTR 111500Z 34007KT 6000 RA OVC027 05/05 Q1006 R11/290095
                        TEMPO 5000 RA BR=
201902111530 METAR LRTR 111530Z 36006KT 5000 RA BR OVC022 05/05 Q1006
                        R11/290095 NOSIG=
201902111600 METAR LRTR 111600Z 35005KT 8000 RA OVC025 05/05 Q1006 R11/290095
                        NOSIG=
201902111630 METAR LRTR 111630Z 33004KT 9999 -RA BKN033 04/04 Q1006 RERA
                        R11/290095 NOSIG=
201902111700 METAR LRTR 111700Z 35003KT 8000 -RA OVC025 04/04 Q1006 R11/290095
                        NOSIG=
201902111730 METAR LRTR 111730Z 35002KT 8000 -RA BKN023 OVC042 04/04 Q1006
                        R11/290095=
201902111800 METAR LRTR 111800Z 29004KT 8000 -RA BKN025 OVC030 04/04 Q1007
                        R11/290095=
201902111830 METAR LRTR 111830Z 27005KT 6000 -RA BKN025 OVC030 04/04 Q1007
                        R11/290095=
201902111900 METAR LRTR 111900Z 29004KT 8000 -RA BKN026 OVC031 04/04 Q1007
                        R11/290095=
201902111930 METAR LRTR 111930Z 32012KT 9999 -RA BKN025 OVC035 05/05 Q1007
                        R11/290095=
201902112000 METAR LRTR 112000Z 31009KT 9999 -RA BKN026 OVC037 04/04 Q1008
                        R11/290095=
201902112030 METAR LRTR 112030Z 32011KT 9999 -RA BKN030 OVC038 04/04 Q1007
                        R11/290095=
201902112100 METAR LRTR 112100Z 32008KT 9999 -RA BKN025 OVC045 04/04 Q1008
                        R11/290095=
201902112130 METAR LRTR 112130Z 33011KT 9999 -RA SCT022 BKN040 OVC048
                        04/04 Q1008 R11/290095=
201902112200 METAR LRTR 112200Z 01020G30KT 9999 -RA SCT015 BKN025 OVC040
                        05/04 Q1008 RERA R11/290095=
201902112230 METAR LRTR 112230Z 02016KT 9999 -RA FEW015 SCT030 BKN040
                        05/03 Q1008 R11/290095=
201902112300 METAR LRTR 112300Z 33013KT 9999 SCT030 BKN040 04/04 Q1009
                        R11/290095=
201902112330 METAR COR LRTR 112330Z 33013KT 9999 SCT030 BKN040 04/04 Q1009
                        R11/290095=
201902120000 METAR LRTR 120000Z 33010KT CAVOK 05/04 Q1010 R11/290095=
201902120030 METAR LRTR 120030Z 32014KT CAVOK 05/04 Q1011 R11/290095=
201902120100 METAR LRTR 120100Z 33015KT CAVOK 05/03 Q1011 R11/290095=
201902120130 METAR LRTR 120130Z 32014KT CAVOK 04/03 Q1011 R11/290095=
201902120200 METAR LRTR 120200Z AUTO 32013KT 9999 OVC067/// 04/03 Q1011=
201902120230 METAR COR LRTR 120230Z 31009KT CAVOK 04/03 Q1011 R11/290095=
201902120300 METAR LRTR 120300Z 31009KT CAVOK 04/03 Q1011 R11/290095=
201902120330 METAR LRTR 120330Z 31009KT CAVOK 03/03 Q1012 R11/290095=
201902120400 METAR LRTR 120400Z 31010KT CAVOK 03/02 Q1012 R11/290095=
201902120430 METAR LRTR 120430Z 32012KT CAVOK 03/02 Q1012 R11/290095=
201902120500 METAR LRTR 120500Z 32012KT CAVOK 03/02 Q1013 R11/290095=
201902120530 METAR LRTR 120530Z 33010KT 9999 SCT033 02/01 Q1014 R11/290095=
201902120600 METAR LRTR 120600Z 31009KT 9999 SCT040 02/01 Q1014 R11/190095=
201902120630 METAR LRTR 120630Z 31011KT 9999 SCT048 02/01 Q1014 R11/190095=
201902120700 METAR LRTR 120700Z 31012KT CAVOK 03/01 Q1015 R11/190095=
201902120730 METAR LRTR 120730Z 32013KT CAVOK 03/01 Q1015 R11/190095=
201902120800 METAR LRTR 120800Z 32014KT CAVOK 03/02 Q1015 R11/190095=
201902120830 METAR LRTR 120830Z 32014KT CAVOK 03/02 Q1016 R11/190095=
201902120900 METAR LRTR 120900Z 32015KT CAVOK 04/02 Q1016 R11/190095=
201902120930 METAR LRTR 120930Z 32016KT 9999 FEW022 05/02 Q1016 R11/190095=
201902121000 METAR LRTR 121000Z 32018KT 9999 FEW025 05/01 Q1016 R11/CLRD//=
201902121030 METAR LRTR 121030Z 32017KT 9999 FEW027 05/01 Q1016=
201902121100 METAR LRTR 121100Z 33019KT 9999 FEW030 05/M00 Q1016=
201902121130 METAR LRTR 121130Z 33017KT 9999 FEW033 05/01 Q1017=
201902121200 METAR LRTR 121200Z 34017KT 9999 FEW030 05/01 Q1017=
201902121230 METAR LRTR 121230Z 32015KT 9999 FEW029 05/01 Q1017=
201902121300 METAR LRTR 121300Z 33016KT 9999 FEW030 04/01 Q1018=
201902121330 METAR LRTR 121330Z 33018G28KT 9999 FEW030 03/01 Q1018=
201902121400 METAR LRTR 121400Z 32016KT 9999 FEW030 03/01 Q1019=
201902121430 METAR LRTR 121430Z 31018KT 9999 -SHRASN FEW008 SCT025CB 02/01
                        Q1020=
201902121500 METAR LRTR 121500Z 34012KT 9999 -SHRA FEW033CB 02/01 Q1020=
201902121530 METAR LRTR 121530Z 35015KT 9999 SCT048 02/01 Q1020=
201902121600 METAR LRTR 121600Z 35013KT 9999 SCT047 02/M01 Q1021=
201902121630 METAR LRTR 121630Z 35009KT 9999 SCT045 03/M01 Q1021=
201902121700 METAR LRTR 121700Z 31005KT 9999 SCT048 01/M00 Q1022=
201902121730 METAR LRTR 121730Z 32008KT CAVOK 01/00 Q1023 NOSIG=
201902121800 METAR LRTR 121800Z 36018KT 4000 SHSN SCT025CB 00/00 Q1024
                        TEMPO 3000 SHSN=
201902121830 METAR LRTR 121830Z 35005KT 9999 FEW030CB M00/M00 Q1023 RESHSN
                        NOSIG=
201902121900 METAR LRTR 121900Z 31003KT 9999 -SHSN FEW040CB M01/M01 Q1024
                        R11/690294 TEMPO 5000 SHSN=
201902121930 METAR LRTR 121930Z 31006KT 5000 SHSN SCT035CB 01/01 Q1025
                        R11/690294 TEMPO 3000 SHSN=
201902122000 METAR LRTR 122000Z 32012KT 9999 -SHSN SCT035CB 00/00 Q1025
                        RESHSN R11/690294 NOSIG=
201902122030 METAR LRTR 122030Z 31007KT 9999 FEW050CB 00/00 Q1025 R11/690294
                        NOSIG=
201902122100 METAR LRTR 122100Z 33008KT 9999 FEW045 01/M00 Q1026 R11/690294
                        NOSIG=
201902122130 METAR LRTR 122130Z 32007KT 9999 FEW047 M00/M00 Q1026 R11/690294
                        NOSIG=
201902122200 METAR LRTR 122200Z 32008KT 8000 -SHSN SCT030CB 00/00 Q1027
                        R11/620295 TEMPO 5000 SHSN=
201902122230 METAR LRTR 122230Z 32006KT 9999 FEW040 M00/M00 Q1027 R11/620295
                        NOSIG=
201902122300 METAR LRTR 122300Z 29005KT 9999 FEW045 M01/M01 Q1027 R11/620295
                        NOSIG=
201902122330 METAR LRTR 122330Z 30006KT 9999 FEW048 M01/M01 Q1027 R11/620295
                        NOSIG=
201902130000 METAR LRTR 130000Z 31007KT CAVOK M00/M01 Q1027 R11/620295
                        NOSIG=
201902130030 METAR LRTR 130030Z 31006KT CAVOK M01/M01 Q1027 R11/620295
                        NOSIG=
201902130100 METAR LRTR 130100Z 32005KT CAVOK M01/M01 Q1028 R11/620295
                        NOSIG=
201902130130 METAR LRTR 130130Z 34010KT CAVOK M00/M02 Q1028 R11/620295
                        NOSIG=
201902130200 METAR LRTR 130200Z 34008KT CAVOK M00/M02 Q1028 R11/620295
                        NOSIG=
201902130230 METAR LRTR 130230Z 34007KT CAVOK M01/M02 Q1028 R11/620295
                        NOSIG=
201902130300 METAR LRTR 130300Z 04003KT 360V060 CAVOK M02/M02 Q1029 R11/620295
                        NOSIG=
201902130330 METAR LRTR 130330Z 36004KT 9999 FEW043 M02/M02 Q1030 R11/620295
                        NOSIG=
201902130400 METAR LRTR 130400Z 34004KT 9999 SCT042 M01/M02 Q1030 R11/19//95
                        NOSIG=
201902130430 METAR LRTR 130430Z 35004KT 9999 SCT042 M02/M02 Q1030 R11/19//95
                        NOSIG=
201902130500 METAR LRTR 130500Z VRB02KT 9999 SCT045 M01/M02 Q1030 R11/19//95
                        NOSIG=
201902130530 METAR LRTR 130530Z 03006KT 9999 SCT040 M01/M02 Q1030 R11/19//95
                        NOSIG=
201902130600 METAR LRTR 130600Z 36004KT 9999 FEW040 M02/M02 Q1031 R11/19//95
                        NOSIG=
201902130630 METAR LRTR 130630Z VRB02KT 9999 FEW042 M02/M02 Q1032 R11/19//95
                        NOSIG=
201902130700 METAR LRTR 130700Z 00000KT CAVOK 00/M01 Q1032 R11/19//95
                        NOSIG=
201902130730 METAR LRTR 130730Z 36005KT CAVOK 00/M01 Q1032 R11/19//95
                        NOSIG=
201902130800 METAR LRTR 130800Z 02008KT CAVOK 01/M01 Q1032 R11/19//95
                        NOSIG=
201902130830 METAR LRTR 130830Z 02009KT CAVOK 02/M01 Q1032 R11/19//95
                        NOSIG=
201902130900 METAR LRTR 130900Z 03012KT CAVOK 02/M00 Q1032 R11/19//95
                        NOSIG=
201902130930 METAR LRTR 130930Z 03011KT CAVOK 03/M00 Q1033 R11/19//95
                        NOSIG=
201902131000 METAR LRTR 131000Z 03010KT CAVOK 04/M00 Q1033 R11/19//95
                        NOSIG=
201902131030 METAR LRTR 131030Z 02010KT CAVOK 04/M01 Q1033 R11/19//95
                        NOSIG=
201902131100 METAR LRTR 131100Z 36008KT 340V040 CAVOK 05/M01 Q1033 R11/19//95
                        NOSIG=
201902131130 METAR LRTR 131130Z 02012KT CAVOK 05/M00 Q1033 R11/19//95
                        NOSIG=
201902131200 METAR LRTR 131200Z 01012KT 9999 FEW025 05/M01 Q1033 R11/19//95
                        NOSIG=
201902131230 METAR LRTR 131230Z 36011KT 330V030 9999 FEW025 05/M01 Q1033
                        R11/19//95 NOSIG=
201902131300 METAR LRTR 131300Z 01012KT 9999 FEW030 06/M03 Q1033 R11/19//95
                        NOSIG=
201902131330 METAR LRTR 131330Z 01013KT 9999 FEW033 06/M03 Q1033 R11/19//95
                        NOSIG=
201902131400 METAR LRTR 131400Z 01010KT 9999 FEW035 06/M03 Q1033 R11/19//95
                        NOSIG=
201902131430 METAR LRTR 131430Z 01010KT 340V040 CAVOK 06/M03 Q1033 R11/CLRD//
                        NOSIG=
201902131500 METAR LRTR 131500Z 01009KT CAVOK 05/M03 Q1033 NOSIG=
201902131530 METAR LRTR 131530Z 01006KT CAVOK 05/M01 Q1034 NOSIG=
201902131600 METAR LRTR 131600Z 36006KT CAVOK 03/M02 Q1034 NOSIG=
201902131630 METAR LRTR 131630Z 34006KT CAVOK 03/M03 Q1034 NOSIG=
201902131700 METAR LRTR 131700Z 31004KT CAVOK 02/M02 Q1034 NOSIG=
201902131730 METAR LRTR 131730Z 26003KT CAVOK 02/M02 Q1034=
201902131800 METAR LRTR 131800Z 30003KT CAVOK 01/M01 Q1035=
201902131830 METAR LRTR 131830Z 31003KT CAVOK 01/M01 Q1035=
201902131900 METAR LRTR 131900Z 30002KT 8000 NSC M00/M01 Q1035=
201902131930 METAR LRTR 131930Z 27002KT 8000 NSC M00/M01 Q1034=
201902132000 METAR LRTR 132000Z 22004KT CAVOK M01/M02 Q1034=
201902132030 METAR LRTR 132030Z 24002KT CAVOK M01/M02 Q1034=
201902132100 METAR LRTR 132100Z 25004KT CAVOK M00/M03 Q1034=
201902132130 METAR LRTR 132130Z 27004KT CAVOK M01/M03 Q1034=
201902132200 METAR LRTR 132200Z 29005KT CAVOK M01/M02 Q1034=
201902132230 METAR LRTR 132230Z 00000KT CAVOK M02/M03 Q1034=
201902132300 METAR LRTR 132300Z 00000KT CAVOK M02/M03 Q1034=
201902132330 METAR LRTR 132330Z 14002KT CAVOK M02/M02 Q1034=
201902140000 METAR COR LRTR 140000Z 11003KT 9999 SCT026 M02/M02 Q1034=
201902140030 METAR LRTR 140030Z 12005KT 8000 BKN025 M01/M01 Q1034=
201902140100 METAR LRTR 140100Z 12005KT 6000 -SN OVC023 M01/M01 Q1034=
201902140130 METAR LRTR 140130Z 12007KT 6000 -SN OVC022 M01/M01 Q1033=
201902140200 METAR LRTR 140200Z 13007KT 7000 OVC027 M01/M01 Q1033=
201902140230 METAR LRTR 140230Z 15003KT 110V190 8000 OVC032 M01/M01 Q1033=
201902140300 METAR LRTR 140300Z 13004KT 8000 OVC030 M01/M01 Q1033=
201902140330 METAR LRTR 140330Z 12005KT 6000 OVC027 M01/M01 Q1033=
201902140400 METAR LRTR 140400Z 13003KT 6000 OVC027 M00/M00 Q1033=
201902140430 METAR LRTR 140430Z 13005KT 6000 OVC025 M00/M00 Q1033=
201902140500 METAR LRTR 140500Z 16005KT 7000 SCT023 OVC040 M00/M00 Q1033=
201902140530 METAR LRTR 140530Z 10005KT 5000 BR FEW003 SCT015 OVC040 M00/M00
                        Q1033=
201902140600 METAR LRTR 140600Z 14004KT 100V180 3500 BR FEW022 BKN042
                        M00/M00 Q1033=
201902140630 METAR LRTR 140630Z 10005KT 2500 BR FEW005 SCT046 M00/M00
                        Q1033=
201902140700 METAR LRTR 140700Z 11006KT 5000 BR SCT005 M00/M00 Q1033=
201902140730 METAR LRTR 140730Z 13004KT 6000 FEW005 01/01 Q1033=
201902140800 METAR LRTR 140800Z VRB02KT 8000 FEW005 02/02 Q1033=
201902140830 METAR LRTR 140830Z 10004KT 8000 FEW006 02/02 Q1033=
201902140900 METAR LRTR 140900Z 09006KT 9999 SCT007 02/02 Q1033=
201902140930 METAR LRTR 140930Z 08003KT 030V120 9999 FEW007 SCT045 03/02
                        Q1033=
201902141000 METAR LRTR 141000Z 06003KT 340V130 9999 SCT009 04/03 Q1033=
201902141030 METAR LRTR 141030Z 07005KT 040V100 9999 SCT010 05/03 Q1033=
201902141100 METAR LRTR 141100Z VRB02KT 9999 FEW011 05/03 Q1032=
201902141130 METAR LRTR 141130Z 08004KT 010V150 9999 FEW013 06/04 Q1032=
201902141200 METAR LRTR 141200Z 03003KT 350V090 9999 FEW014 06/04 Q1032=
201902141230 METAR LRTR 141230Z 01004KT 9999 FEW012 06/03 Q1032=
201902141300 METAR LRTR 141300Z 01003KT 310V040 CAVOK 06/04 Q1032=
201902141330 METAR LRTR 141330Z 34003KT 300V040 9999 FEW042 07/04 Q1032=
201902141400 METAR LRTR 141400Z 34004KT 9999 FEW042 07/05 Q1032=
201902141430 METAR LRTR 141430Z 34003KT 300V020 9999 SCT042 07/05 Q1031=
201902141500 METAR LRTR 141500Z 33005KT 9999 SCT042 07/05 Q1031=
201902141530 METAR LRTR 141530Z 01003KT 8000 NSC 06/05 Q1031=
201902141600 METAR LRTR 141600Z 34003KT 7000 NSC 06/05 Q1031=
201902141630 METAR LRTR 141630Z 32004KT 5000 BR NSC 05/05 Q1031=
201902141700 METAR COR LRTR 141700Z 34002KT 5000 BR NSC 05/05 Q1031=
201902141730 METAR LRTR 141730Z 32004KT 5000 BR NSC 05/05 Q1031=
201902141800 METAR LRTR 141800Z 33004KT 5000 BR NSC 05/05 Q1031=
201902141830 METAR LRTR 141830Z 33004KT 5000 BR NSC 04/04 Q1031=
201902141900 METAR LRTR 141900Z 34003KT 5000 BR NSC 04/04 Q1031=
201902141930 METAR LRTR 141930Z 33005KT 6000 NSC 05/05 Q1030=
201902142000 METAR LRTR 142000Z 36005KT 6000 NSC 04/04 Q1030=
201902142030 METAR LRTR 142030Z 01006KT 6000 FEW044 05/04 Q1030=
201902142100 METAR LRTR 142100Z 02005KT 5000 BR FEW042 04/04 Q1030=
201902142130 METAR LRTR 142130Z 02005KT 5000 BR FEW044 04/04 Q1030=
201902142200 METAR LRTR 142200Z 36006KT 6000 FEW038 05/04 Q1030=
201902142230 METAR LRTR 142230Z 01005KT 6000 FEW036 04/04 Q1030=
201902142300 METAR LRTR 142300Z 02005KT 5000 BR FEW035 04/04 Q1030=
201902142330 METAR LRTR 142330Z 01006KT 6000 FEW035 04/04 Q1030=
201902150000 METAR LRTR 150000Z 36008KT 6000 FEW036 04/03 Q1030=
201902150030 METAR LRTR 150030Z 36008KT 6000 FEW036 04/03 Q1030=
201902150100 METAR LRTR 150100Z 35010KT 6000 NSC 04/03 Q1029=
201902150130 METAR LRTR 150130Z 35009KT 6000 NSC 03/03 Q1029=
201902150200 METAR LRTR 150200Z 36011KT 7000 NSC 03/02 Q1029=
201902150230 METAR LRTR 150230Z 36010KT 7000 NSC 02/02 Q1029=
201902150300 METAR LRTR 150300Z 01009KT 6000 NSC 02/02 Q1029=
201902150330 METAR LRTR 150330Z 01010KT 6000 NSC 01/01 Q1029=
201902150400 METAR LRTR 150400Z 01009KT 5000 BR NSC 01/01 Q1029=
201902150430 METAR LRTR 150430Z 01010KT 6000 NSC 01/01 Q1029=
201902150500 METAR LRTR 150500Z 04007KT 7000 NSC 01/01 Q1029=
201902150530 METAR LRTR 150530Z 01005KT 7000 NSC 01/01 Q1029 TEMPO 5000
                        BR=
201902150600 METAR LRTR 150600Z 34003KT 5000 BR NSC 01/01 Q1030 NOSIG=
201902150630 METAR LRTR 150630Z 07003KT 030V110 8000 NSC 02/01 Q1030 NOSIG=
201902150700 METAR LRTR 150700Z VRB02KT 8000 NSC 02/02 Q1030 NOSIG=
201902150730 METAR LRTR 150730Z 01004KT CAVOK 04/02 Q1031 NOSIG=
201902150800 METAR LRTR 150800Z 01005KT CAVOK 04/03 Q1031 NOSIG=
201902150830 METAR LRTR 150830Z 01004KT CAVOK 06/03 Q1031 NOSIG=
201902150900 METAR LRTR 150900Z 08006KT 050V110 CAVOK 08/02 Q1031 NOSIG=
201902150930 METAR LRTR 150930Z 08008KT 050V110 CAVOK 08/02 Q1032 NOSIG=
201902151000 METAR LRTR 151000Z 08010KT CAVOK 09/00 Q1032 NOSIG=
201902151030 METAR LRTR 151030Z 09012KT 9999 FEW040 10/M00 Q1032 NOSIG=
201902151100 METAR LRTR 151100Z 08011KT 9999 FEW040 10/M00 Q1031 NOSIG=
201902151130 METAR LRTR 151130Z 09009KT 050V120 9999 FEW045 10/M01 Q1031
                        NOSIG=
201902151200 METAR LRTR 151200Z 07011KT CAVOK 10/M01 Q1031 NOSIG=
201902151230 METAR LRTR 151230Z 09008KT CAVOK 10/M02 Q1031 NOSIG=
201902151300 METAR LRTR 151300Z 07009KT 050V110 CAVOK 10/M02 Q1031 NOSIG=
201902151330 METAR LRTR 151330Z 10008KT 070V130 CAVOK 10/M03 Q1031 NOSIG=
201902151400 METAR LRTR 151400Z 04008KT CAVOK 10/M01 Q1031 NOSIG=
201902151430 METAR LRTR 151430Z 03005KT 350V060 CAVOK 10/M02 Q1031 NOSIG=
201902151500 METAR LRTR 151500Z 02007KT CAVOK 10/M01 Q1031 NOSIG=
201902151530 METAR LRTR 151530Z 01006KT CAVOK 09/00 Q1031 NOSIG=
201902151600 METAR LRTR 151600Z 36006KT CAVOK 07/01 Q1031 NOSIG=
201902151630 METAR LRTR 151630Z 35005KT CAVOK 07/M00 Q1032 NOSIG=
201902151700 METAR LRTR 151700Z 33006KT CAVOK 05/00 Q1032 NOSIG=
201902151730 METAR LRTR 151730Z 36005KT CAVOK 05/M00 Q1032=
201902151800 METAR LRTR 151800Z 01007KT CAVOK 03/00 Q1032=
201902151830 METAR LRTR 151830Z 01007KT CAVOK 03/00 Q1032=
201902151900 METAR LRTR 151900Z 01007KT CAVOK 03/00 Q1032=
201902151930 METAR LRTR 151930Z 35006KT CAVOK 03/00 Q1032=
201902152000 METAR LRTR 152000Z 01006KT CAVOK 02/01 Q1032=
201902152030 METAR LRTR 152030Z 04005KT CAVOK 02/01 Q1032=
201902152100 METAR LRTR 152100Z 03005KT CAVOK 02/00 Q1032=
201902152130 METAR LRTR 152130Z 34003KT CAVOK 01/M00 Q1032=
201902152200 METAR LRTR 152200Z 34003KT CAVOK 01/M00 Q1032=
201902152230 METAR LRTR 152230Z 10003KT CAVOK 01/M00 Q1032=
201902152300 METAR LRTR 152300Z 09004KT CAVOK 00/M01 Q1032=
201902152330 METAR LRTR 152330Z 09004KT CAVOK M01/M01 Q1032=
201902160000 METAR LRTR 160000Z 12005KT CAVOK M01/M01 Q1032=
201902160030 METAR LRTR 160030Z 08005KT CAVOK M01/M01 Q1032=
201902160100 METAR LRTR 160100Z 01003KT 320V030 CAVOK M02/M02 Q1032=
201902160130 METAR LRTR 160130Z 33002KT CAVOK M02/M02 Q1032=
201902160200 METAR LRTR 160200Z 00000KT CAVOK M02/M02 Q1032=
201902160230 METAR LRTR 160230Z 07002KT CAVOK M02/M02 Q1032=
201902160300 METAR LRTR 160300Z 07003KT CAVOK M03/M03 Q1032=
201902160330 METAR LRTR 160330Z 07004KT CAVOK M03/M03 Q1032=
201902160400 METAR LRTR 160400Z 11004KT CAVOK M03/M03 Q1032=
201902160430 METAR LRTR 160430Z 11005KT CAVOK M03/M03 Q1032=
201902160500 METAR LRTR 160500Z 11004KT CAVOK M03/M03 Q1032=
201902160530 METAR LRTR 160530Z 09004KT CAVOK M03/M03 Q1032=
201902160600 METAR LRTR 160600Z 09004KT CAVOK M03/M03 Q1032=
201902160630 METAR LRTR 160630Z 10002KT CAVOK M02/M02 Q1032=
201902160700 METAR LRTR 160700Z 10003KT 9999 FEW040 M01/M01 Q1033=
201902160730 METAR LRTR 160730Z 13004KT 9999 FEW040 01/00 Q1033=
201902160800 METAR LRTR 160800Z 12005KT CAVOK 02/M00 Q1033=
201902160830 METAR LRTR 160830Z 12004KT 090V150 CAVOK 03/00 Q1033=
201902160900 METAR LRTR 160900Z 13004KT 100V160 CAVOK 04/00 Q1033=
201902160930 METAR LRTR 160930Z VRB02KT CAVOK 05/00 Q1033=
201902161000 METAR LRTR 161000Z 00000KT CAVOK 07/01 Q1033=
201902161030 METAR LRTR 161030Z VRB02KT CAVOK 07/02 Q1032=
201902161100 METAR LRTR 161100Z 32003KT 280V350 CAVOK 09/03 Q1032=
201902161130 METAR LRTR 161130Z 33006KT 290V010 CAVOK 09/02 Q1032=
201902161200 METAR LRTR 161200Z 32008KT CAVOK 10/02 Q1031=
201902161230 METAR LRTR 161230Z 33008KT 9999 FEW025 10/03 Q1031=
201902161300 METAR LRTR 161300Z 33007KT 9999 FEW032 10/03 Q1031=
201902161330 METAR LRTR 161330Z 33007KT 300V360 9999 FEW034 10/03 Q1031=
201902161400 METAR LRTR 161400Z 33006KT 9999 FEW035 10/02 Q1031=
201902161430 METAR LRTR 161430Z 33006KT 9999 FEW036 10/03 Q1031=
201902161500 METAR LRTR 161500Z 34005KT 9999 FEW035 10/03 Q1030=
201902161530 METAR LRTR 161530Z 32004KT CAVOK 09/03 Q1030=
201902161600 METAR LRTR 161600Z 30004KT CAVOK 08/03 Q1030=
201902161630 METAR LRTR 161630Z 28003KT 9000 NSC 07/03 Q1030=
201902161700 METAR LRTR 161700Z 28003KT 8000 NSC 07/03 Q1030 BECMG 5000
                        BR=
201902161730 METAR LRTR 161730Z 03003KT 7000 NSC 05/03 Q1030 BECMG 5000
                        BR=
201902161800 METAR LRTR 161800Z VRB01KT 7000 NSC 03/03 Q1030 BECMG 5000
                        BR=
201902161830 METAR LRTR 161830Z VRB02KT 6000 NSC 04/03 Q1031 BECMG 5000
                        BR=
201902161900 METAR LRTR 161900Z 36002KT 5000 BR NSC 03/03 Q1031 BECMG
                        3000 BR=
201902161930 METAR LRTR 161930Z 34002KT 5000 BR NSC 02/02 Q1031 BECMG
                        3000 BR=
201902162000 METAR LRTR 162000Z 34003KT 6000 NSC 02/02 Q1031 BECMG 5000
                        BR=
201902162030 METAR LRTR 162030Z 02002KT 5000 BR NSC 01/01 Q1031 NOSIG=
201902162100 METAR LRTR 162100Z 01003KT 5000 BR NSC 01/01 Q1030 NOSIG=
201902162130 METAR LRTR 162130Z 36002KT 5000 BR NSC 01/01 Q1030 NOSIG=
201902162200 METAR LRTR 162200Z 00000KT 5000 BR NSC 01/00 Q1030 TEMPO
                        3000 BR=
201902162230 METAR LRTR 162230Z 24002KT 3000 BR NSC 00/00 Q1030 NOSIG=
201902162300 METAR LRTR 162300Z 00000KT 3000 BR NSC M00/M00 Q1030 NOSIG=
201902162330 METAR LRTR 162330Z 09004KT 4000 BR NSC M01/M01 Q1030 TEMPO
                        3000 BR=
201902170000 METAR LRTR 170000Z 10005KT 3000 BR NSC M01/M01 Q1030 TEMPO
                        1500 BR=
201902170030 METAR LRTR 170030Z 09005KT 1500 BR NSC M01/M01 Q1030 NOSIG=
201902170100 METAR LRTR 170100Z 10005KT 1500 BR NSC M01/M01 Q1030 NOSIG=
201902170130 METAR LRTR 170130Z 12006KT 2000 BR NSC M02/M02 Q1030 TEMPO
                        1500 BR=
201902170200 METAR LRTR 170200Z 09005KT 2000 BR NSC M02/M02 Q1030 TEMPO
                        1500 BR=
201902170230 METAR LRTR 170230Z 10005KT 1500 BR NSC M03/M03 Q1029 NOSIG=
201902170300 METAR LRTR 170300Z 10005KT 2500 BR NSC M02/M02 Q1029 TEMPO
                        1500 BR=
201902170330 METAR LRTR 170330Z 11005KT 2500 BR NSC M03/M03 Q1029 TEMPO
                        1500 BR=
201902170400 METAR LRTR 170400Z 10005KT 2500 BR NSC M03/M03 Q1029 TEMPO
                        1500 BR=
201902170430 METAR LRTR 170430Z 11005KT 3000 BR NSC M03/M03 Q1029 NOSIG=
201902170500 METAR LRTR 170500Z 10005KT 3000 BR NSC M03/M03 Q1029 NOSIG=
201902170530 METAR LRTR 170530Z 06004KT 4000 BR NSC M03/M03 Q1029=
201902170600 METAR LRTR 170600Z 13002KT 4000 BR NSC M02/M02 Q1030=
201902170630 METAR LRTR 170630Z 11003KT 4000 BR NSC M01/M01 Q1030=
201902170700 METAR LRTR 170700Z 12003KT 5000 BR NSC M00/M00 Q1030=
201902170730 METAR LRTR 170730Z 12004KT 6000 NSC 01/01 Q1030=
201902170800 METAR LRTR 170800Z 11007KT 8000 NSC 02/01 Q1030=
201902170830 METAR LRTR 170830Z 09007KT CAVOK 04/01 Q1030=
201902170900 METAR LRTR 170900Z 10006KT CAVOK 05/01 Q1030=
201902170930 METAR LRTR 170930Z 11005KT CAVOK 06/01 Q1030=
201902171000 METAR LRTR 171000Z 13005KT CAVOK 07/01 Q1030=
201902171030 METAR LRTR 171030Z VRB02KT CAVOK 08/02 Q1029=
201902171100 METAR LRTR 171100Z VRB02KT CAVOK 09/02 Q1029=
201902171130 METAR LRTR 171130Z VRB01KT CAVOK 11/02 Q1029=
201902171200 METAR LRTR 171200Z 32004KT 280V040 CAVOK 10/02 Q1028=
201902171230 METAR LRTR 171230Z 29004KT 260V340 CAVOK 11/02 Q1028=
201902171300 METAR LRTR 171300Z 34004KT 270V070 CAVOK 11/02 Q1027=
201902171330 METAR LRTR 171330Z 32005KT 290V360 CAVOK 12/03 Q1027=
201902171400 METAR LRTR 171400Z 32007KT CAVOK 12/03 Q1027=
201902171430 METAR LRTR 171430Z 33007KT CAVOK 12/03 Q1027=
201902171500 METAR LRTR 171500Z 33005KT CAVOK 11/03 Q1027=
201902171530 METAR LRTR 171530Z 33006KT CAVOK 10/03 Q1026=
201902171600 METAR LRTR 171600Z 33006KT CAVOK 09/04 Q1026=
201902171630 METAR LRTR 171630Z 29004KT CAVOK 07/04 Q1027=
201902171700 METAR LRTR 171700Z 33005KT CAVOK 07/04 Q1027=
201902171730 METAR LRTR 171730Z 34003KT 8000 NSC 06/04 Q1027=
201902171800 METAR LRTR 171800Z 35005KT 8000 NSC 04/03 Q1026=
201902171830 METAR LRTR 171830Z 35005KT CAVOK 06/03 Q1026=
201902171900 METAR LRTR 171900Z 01005KT CAVOK 04/02 Q1026=
201902171930 METAR LRTR 171930Z 02004KT CAVOK 06/03 Q1026=
201902172000 METAR LRTR 172000Z 01002KT CAVOK 05/02 Q1027=
201902172030 METAR LRTR 172030Z 02003KT CAVOK 04/03 Q1027=
201902172100 METAR LRTR 172100Z 03003KT 7000 NSC 03/02 Q1027=
201902172130 METAR LRTR 172130Z VRB02KT 6000 NSC 01/01 Q1026=
201902172200 METAR LRTR 172200Z 02003KT 6000 NSC 02/02 Q1026=
201902172230 METAR LRTR 172230Z 36003KT 350V080 5000 BR NSC 00/00 Q1026=
201902172300 METAR LRTR 172300Z 09004KT 6000 NSC 00/00 Q1026=
201902172330 METAR LRTR 172330Z 09003KT 5000 BR NSC M00/M00 Q1026=
201902180000 METAR LRTR 180000Z 06002KT 5000 BR NSC 00/00 Q1026=
201902180030 METAR LRTR 180030Z 08003KT 5000 BR NSC 00/00 Q1026=
201902180100 METAR LRTR 180100Z 08001KT 5000 BR NSC M01/M01 Q1026=
201902180130 METAR LRTR 180130Z 00000KT 5000 BR NSC M01/M01 Q1026=
201902180200 METAR LRTR 180200Z 11005KT 4000 BR NSC M02/M02 Q1026=
201902180230 METAR LRTR 180230Z 10005KT 5000 BR NSC M01/M01 Q1025=
201902180300 METAR COR LRTR 180300Z 09005KT 5000 BR NSC M02/M02 Q1025=
201902180330 METAR LRTR 180330Z 10005KT 5000 BR NSC M02/M02 Q1025=
201902180400 METAR LRTR 180400Z 10005KT 5000 BR NSC M02/M02 Q1025=
201902180430 METAR LRTR 180430Z 08004KT 4500 BR NSC M03/M03 Q1025=
201902180500 METAR LRTR 180500Z 10004KT 4600 BR NSC M03/M02 Q1025=
201902180530 METAR LRTR 180530Z 10004KT 3500 BR NSC M03/M03 Q1025=
201902180600 METAR LRTR 180600Z 11005KT 4000 MIFG BR NSC M03/M03 Q1026=
201902180630 METAR LRTR 180630Z 10003KT 4500 BR NSC M01/M01 Q1026=
201902180700 METAR LRTR 180700Z 11004KT 5000 BR NSC M00/M00 Q1026=
201902180730 METAR LRTR 180730Z 12005KT 7000 NSC 02/02 Q1026=
201902180800 METAR LRTR 180800Z 12006KT CAVOK 03/02 Q1026=
201902180830 METAR LRTR 180830Z 13006KT CAVOK 04/03 Q1026=
201902180900 METAR LRTR 180900Z 12007KT CAVOK 05/02 Q1026=
201902180930 METAR LRTR 180930Z 13006KT CAVOK 06/03 Q1026=
201902181000 METAR LRTR 181000Z 12004KT 090V170 CAVOK 09/03 Q1026=
201902181030 METAR LRTR 181030Z 11003KT 070V150 CAVOK 09/03 Q1025=
201902181100 METAR LRTR 181100Z VRB02KT CAVOK 11/03 Q1025=
201902181130 METAR LRTR 181130Z VRB02KT CAVOK 12/03 Q1025=
201902181200 METAR LRTR 181200Z VRB03KT CAVOK 12/03 Q1024=
201902181230 METAR LRTR 181230Z 31003KT 250V020 CAVOK 12/03 Q1024=
201902181300 METAR LRTR 181300Z 33004KT 270V050 CAVOK 13/03 Q1024=
201902181330 METAR LRTR 181330Z 33005KT 290V360 CAVOK 13/04 Q1023=
201902181400 METAR LRTR 181400Z 34005KT 310V010 CAVOK 13/03 Q1023=
201902181430 METAR LRTR 181430Z 36007KT CAVOK 13/03 Q1023=
201902181500 METAR LRTR 181500Z 35004KT CAVOK 13/03 Q1023=
201902181530 METAR LRTR 181530Z 35003KT CAVOK 12/04 Q1023=
201902181600 METAR LRTR 181600Z 35003KT CAVOK 11/03 Q1023=
201902181630 METAR LRTR 181630Z 00000KT CAVOK 09/04 Q1023=
201902181700 METAR LRTR 181700Z 00000KT CAVOK 09/04 Q1023=
201902181730 METAR LRTR 181730Z 00000KT CAVOK 07/04 Q1023=
201902181800 METAR LRTR 181800Z 34003KT 8000 NSC 06/03 Q1023=
201902181830 METAR LRTR 181830Z 00000KT 8000 NSC 06/04 Q1023=
201902181900 METAR LRTR 181900Z 00000KT 8000 NSC 04/03 Q1023=
201902181930 METAR LRTR 181930Z 36002KT 8000 NSC 05/04 Q1023=
201902182000 METAR LRTR 182000Z 08002KT 7000 NSC 04/03 Q1023=
201902182030 METAR LRTR 182030Z 10004KT 7000 NSC 03/02 Q1023=
201902182100 METAR LRTR 182100Z 08007KT 6000 NSC 02/02 Q1023=
201902182130 METAR LRTR 182130Z 10007KT 5000 BR NSC 00/00 Q1022=
201902182200 METAR LRTR 182200Z 10007KT 5000 BR NSC 00/00 Q1022=
201902182230 METAR LRTR 182230Z 10007KT 5000 BR NSC M01/M01 Q1022=
201902182300 METAR LRTR 182300Z 10007KT 5000 BR NSC M00/M00 Q1022=
201902182330 METAR LRTR 182330Z 10007KT 5000 BR NSC M00/M00 Q1022=
201902190000 METAR LRTR 190000Z 10007KT 6000 NSC M00/M00 Q1022=
201902190030 METAR LRTR 190030Z 10007KT 6000 NSC M00/M00 Q1022=
201902190100 METAR LRTR 190100Z 11005KT 6000 NSC M00/M00 Q1022=
201902190130 METAR LRTR 190130Z 10005KT 5000 BR NSC M02/M02 Q1021=
201902190200 METAR LRTR 190200Z 12004KT 5000 BR NSC M01/M01 Q1021=
201902190230 METAR LRTR 190230Z 13007KT 5000 BR NSC M02/M02 Q1021=
201902190300 METAR LRTR 190300Z 13008KT 5000 BR NSC M01/M01 Q1021=
201902190330 METAR LRTR 190330Z 12008KT 6000 NSC M02/M02 Q1021=
201902190400 METAR LRTR 190400Z 11008KT 6000 NSC M01/M01 Q1021=
201902190430 METAR LRTR 190430Z 11007KT 6000 NSC M01/M01 Q1021=
201902190500 METAR LRTR 190500Z 11007KT 6000 NSC M01/M01 Q1021=
201902190530 METAR LRTR 190530Z 08005KT 4500 BR NSC M01/M01 Q1021 TEMPO
                        3000 BR=
201902190600 METAR LRTR 190600Z 08005KT 4000 BR NSC M01/M01 Q1021 BECMG
                        5000=
201902190630 METAR LRTR 190630Z 08004KT 4500 BR NSC M00/M00 Q1021 BECMG
                        5000=
201902190700 METAR LRTR 190700Z 11007KT 7000 NSC 02/02 Q1021 NOSIG=
201902190730 METAR LRTR 190730Z 11008KT 8000 NSC 04/03 Q1021 NOSIG=
201902190800 METAR LRTR 190800Z 11009KT CAVOK 06/03 Q1021 NOSIG=
201902190830 METAR LRTR 190830Z 10009KT CAVOK 07/03 Q1021 NOSIG=
201902190900 METAR LRTR 190900Z 11008KT CAVOK 09/02 Q1021 NOSIG=
201902190930 METAR LRTR 190930Z 12008KT CAVOK 10/03 Q1021 NOSIG=
201902191000 METAR LRTR 191000Z 12006KT CAVOK 12/02 Q1021 NOSIG=
201902191030 METAR LRTR 191030Z 14006KT CAVOK 13/02 Q1021 NOSIG=
201902191100 METAR LRTR 191100Z 15005KT 100V180 CAVOK 13/02 Q1020 NOSIG=
201902191130 METAR LRTR 191130Z 15004KT 120V210 CAVOK 15/02 Q1020 NOSIG=
201902191200 METAR LRTR 191200Z 20007KT CAVOK 15/01 Q1019 NOSIG=
201902191230 METAR LRTR 191230Z 19007KT 150V220 CAVOK 15/02 Q1019 NOSIG=
201902191300 METAR LRTR 191300Z 20005KT 110V250 CAVOK 15/02 Q1019 NOSIG=
201902191330 METAR LRTR 191330Z 20006KT 170V240 CAVOK 16/01 Q1019 NOSIG=
201902191400 METAR LRTR 191400Z 22006KT 180V240 CAVOK 16/00 Q1019 NOSIG=
201902191430 METAR LRTR 191430Z 24004KT 190V270 CAVOK 16/01 Q1018 NOSIG=
201902191500 METAR LRTR 191500Z 22006KT CAVOK 15/02 Q1018 NOSIG=
201902191530 METAR LRTR 191530Z 23005KT CAVOK 14/01 Q1018 NOSIG=
201902191600 METAR LRTR 191600Z 22004KT 200V260 CAVOK 14/01 Q1018 NOSIG=
201902191630 METAR LRTR 191630Z 24004KT CAVOK 11/02 Q1018 NOSIG=
201902191700 METAR LRTR 191700Z VRB02KT CAVOK 11/02 Q1018 NOSIG=
201902191730 METAR LRTR 191730Z 00000KT CAVOK 10/02 Q1018=
201902191800 METAR LRTR 191800Z 00000KT CAVOK 07/02 Q1018=
201902191830 METAR LRTR 191830Z 10002KT CAVOK 06/02 Q1018=
201902191900 METAR LRTR 191900Z 10003KT CAVOK 04/02 Q1018=
201902191930 METAR LRTR 191930Z 11004KT CAVOK 04/02 Q1018=
201902192000 METAR LRTR 192000Z 11005KT CAVOK 03/01 Q1019=
201902192030 METAR LRTR 192030Z 10004KT CAVOK 02/01 Q1019=
201902192100 METAR LRTR 192100Z 10006KT CAVOK 02/01 Q1018=
201902192130 METAR LRTR 192130Z 10005KT CAVOK 01/01 Q1019=
201902192200 METAR LRTR 192200Z 11005KT 5000 BR NCD 01/01 Q1019=
201902192230 METAR COR LRTR 192230Z 10006KT CAVOK 01/01 Q1019=
201902192300 METAR LRTR 192300Z 10006KT CAVOK 00/00 Q1019=
201902192330 METAR LRTR 192330Z 10006KT CAVOK M00/M00 Q1019=
201902200000 METAR LRTR 200000Z 10005KT CAVOK M00/M00 Q1019=
201902200030 METAR LRTR 200030Z 12005KT CAVOK 00/00 Q1019=
201902200100 METAR COR LRTR 200100Z 11005KT CAVOK M01/M01 Q1019=
201902200130 METAR LRTR 200130Z 11006KT 8000 NSC M01/M01 Q1019=
201902200200 METAR LRTR 200200Z 11005KT 8000 NSC M01/M01 Q1019=
201902200230 METAR LRTR 200230Z 11005KT 7000 NSC M01/M01 Q1019=
201902200300 METAR LRTR 200300Z 00000KT 7000 NSC M01/M01 Q1019=
201902200330 METAR LRTR 200330Z 00000KT 7000 NSC M01/M01 Q1019=
201902200400 METAR LRTR 200400Z 00000KT 7000 NSC M02/M02 Q1019=
201902200430 METAR LRTR 200430Z 00000KT 7000 NSC M02/M02 Q1019=
201902200500 METAR LRTR 200500Z 00000KT 3500 BR NSC M01/M01 Q1020=
201902200530 METAR COR LRTR 200530Z 07003KT 2500 BR NSC M03/M03 Q1020
                        BECMG 5000 BR=
201902200600 METAR LRTR 200600Z 12004KT 3000 BR NSC M02/M02 Q1020 BECMG
                        5000 BR=
201902200630 METAR LRTR 200630Z 12003KT 3000 BR NSC M01/M01 Q1021 BECMG
                        5000 BR=
201902200700 METAR LRTR 200700Z 12004KT 3000 BR NSC 00/00 Q1021 NOSIG=
201902200730 METAR LRTR 200730Z 14003KT 3000 BR NSC 01/01 Q1021 NOSIG=
201902200800 METAR LRTR 200800Z 15003KT 3000 BR NSC 02/02 Q1021 NOSIG=
201902200830 METAR LRTR 200830Z VRB02KT 3500 BR NSC 04/02 Q1021 NOSIG=
201902200900 METAR LRTR 200900Z VRB01KT 4000 BR NSC 06/02 Q1022 NOSIG=
201902200930 METAR LRTR 200930Z VRB01KT 4000 BR NSC 07/02 Q1022 BECMG
                        5000=
201902201000 METAR LRTR 201000Z VRB03KT 5000 BR NSC 09/02 Q1022 NOSIG=
201902201030 METAR LRTR 201030Z 29006KT 260V320 8000 NSC 09/02 Q1022 NOSIG=
201902201100 METAR LRTR 201100Z 29006KT 260V330 CAVOK 11/03 Q1022 NOSIG=
201902201130 METAR LRTR 201130Z 29005KT 260V340 CAVOK 11/03 Q1021 NOSIG=
201902201200 METAR LRTR 201200Z 29007KT CAVOK 11/02 Q1021 NOSIG=
201902201230 METAR LRTR 201230Z 28005KT 260V350 CAVOK 12/02 Q1021 NOSIG=
201902201300 METAR LRTR 201300Z 34004KT 270V030 CAVOK 13/02 Q1021 NOSIG=
201902201330 METAR LRTR 201330Z 34007KT CAVOK 13/00 Q1021=
201902201400 METAR LRTR 201400Z 33008KT CAVOK 14/M01 Q1021=
201902201430 METAR LRTR 201430Z 34008KT CAVOK 14/M00 Q1021=
201902201500 METAR LRTR 201500Z 31008KT CAVOK 13/M03 Q1021=
201902201530 METAR LRTR 201530Z 34008KT CAVOK 12/M00 Q1021=
201902201600 METAR LRTR 201600Z 01006KT CAVOK 10/01 Q1021=
201902201630 METAR LRTR 201630Z 30004KT CAVOK 08/01 Q1022=
201902201700 METAR LRTR 201700Z 30005KT CAVOK 07/01 Q1022 NOSIG=
201902201730 METAR LRTR 201730Z 30005KT CAVOK 06/00 Q1022 NOSIG=
201902201800 METAR LRTR 201800Z 32005KT CAVOK 05/M00 Q1023 NOSIG=
201902201830 METAR LRTR 201830Z 30005KT CAVOK 04/M01 Q1023 NOSIG=
201902201900 METAR LRTR 201900Z 31004KT CAVOK 04/M01 Q1023 NOSIG=
201902201930 METAR LRTR 201930Z 29006KT CAVOK 03/M01 Q1023 NOSIG=
201902202000 METAR LRTR 202000Z 32004KT CAVOK 03/M01 Q1024 NOSIG=
201902202030 METAR LRTR 202030Z 31004KT CAVOK 02/M01 Q1024 NOSIG=
201902202100 METAR LRTR 202100Z 32006KT CAVOK 02/M01 Q1024 NOSIG=
201902202130 METAR LRTR 202130Z 31006KT CAVOK 02/M01 Q1024 NOSIG=
201902202200 METAR LRTR 202200Z 29005KT CAVOK 02/M01 Q1024 NOSIG=
201902202230 METAR LRTR 202230Z 30005KT CAVOK 01/M01 Q1024 NOSIG=
201902202300 METAR LRTR 202300Z 30004KT CAVOK 01/M01 Q1024 NOSIG=
201902202330 METAR LRTR 202330Z 31006KT CAVOK M00/M01 Q1025 NOSIG=
201902210000 METAR LRTR 210000Z 31006KT CAVOK M00/M01 Q1025 NOSIG=
201902210030 METAR LRTR 210030Z 29007KT 8000 NSC M01/M01 Q1025 BECMG 5000
                        BR=
201902210100 METAR LRTR 210100Z 30007KT 7000 NSC M01/M02 Q1025 BECMG 5000
                        BR=
201902210130 METAR LRTR 210130Z 30009KT 7000 NSC M01/M02 Q1025 BECMG 5000
                        BR=
201902210200 METAR LRTR 210200Z 29007KT 6000 NSC M02/M02 Q1025 TEMPO 5000
                        BR=
201902210230 METAR LRTR 210230Z 29008KT 5000 BR NSC M03/M03 Q1025 NOSIG=
201902210300 METAR LRTR 210300Z VRB02KT 6000 NSC M02/M02 Q1025 TEMPO 5000
                        BR=
201902210330 METAR LRTR 210330Z 00000KT 6000 NSC M01/M01 Q1026 TEMPO 5000
                        BR=
201902210400 METAR LRTR 210400Z 26002KT 7000 NSC M01/M02 Q1026 TEMPO 5000
                        BR=
201902210430 METAR LRTR 210430Z 28003KT 5000 BR NSC M01/M01 Q1026 NOSIG=
201902210500 METAR LRTR 210500Z 24003KT 5000 BR NSC M02/M02 Q1026 NOSIG=
201902210530 METAR LRTR 210530Z 00000KT 5000 BR NSC M03/M03 Q1026 NOSIG=
201902210600 METAR LRTR 210600Z 16001KT 5000 BR NSC M04/M04 Q1026 NOSIG=
201902210630 METAR LRTR 210630Z VRB02KT 4000 BR NSC M02/M02 Q1027 NOSIG=
201902210700 METAR LRTR 210700Z 11004KT 4000 BR NSC M01/M01 Q1027 NOSIG=
201902210730 METAR LRTR 210730Z 12004KT 090V150 4500 BR NSC M00/M00 Q1027
                        BECMG 5000=
201902210800 METAR LRTR 210800Z 12003KT 090V150 5000 BR NSC 01/01 Q1027
                        NOSIG=
201902210830 METAR LRTR 210830Z 00000KT 7000 NSC 03/00 Q1028 NOSIG=
201902210900 METAR LRTR 210900Z VRB02KT 8000 NSC 04/M00 Q1028 NOSIG=
201902210930 METAR LRTR 210930Z 20003KT 140V270 8000 NSC 05/00 Q1028 NOSIG=
201902211000 METAR LRTR 211000Z VRB02KT 8000 NSC 06/00 Q1028 NOSIG=
201902211030 METAR LRTR 211030Z VRB02KT 8000 NSC 07/00 Q1027 NOSIG=
201902211100 METAR LRTR 211100Z VRB03KT CAVOK 08/00 Q1027 NOSIG=
201902211130 METAR LRTR 211130Z VRB03KT CAVOK 09/M00 Q1027 NOSIG=
201902211200 METAR LRTR 211200Z 27005KT 190V360 CAVOK 10/M01 Q1026 NOSIG=
201902211230 METAR LRTR 211230Z VRB05KT CAVOK 10/M01 Q1026 NOSIG=
201902211300 METAR LRTR 211300Z 31006KT 270V350 CAVOK 10/M02 Q1026 NOSIG=
201902211330 METAR LRTR 211330Z 30005KT CAVOK 11/M03 Q1026 NOSIG=
201902211400 METAR LRTR 211400Z 35003KT 270V060 CAVOK 11/M02 Q1025 NOSIG=
201902211430 METAR LRTR 211430Z VRB02KT CAVOK 11/M02 Q1025 NOSIG=
201902211500 METAR LRTR 211500Z VRB01KT CAVOK 11/M02 Q1025 NOSIG=
201902211530 METAR LRTR 211530Z 32007KT CAVOK 10/M03 Q1025 NOSIG=
201902211600 METAR LRTR 211600Z 33005KT CAVOK 08/M02 Q1025 NOSIG=
201902211630 METAR LRTR 211630Z 33004KT CAVOK 08/M02 Q1025 NOSIG=
201902211700 METAR LRTR 211700Z 35003KT CAVOK 07/M02 Q1025=
201902211730 METAR LRTR 211730Z 08001KT CAVOK 06/M02 Q1025=
201902211800 METAR LRTR 211800Z 12005KT CAVOK 05/M02 Q1024=
201902211830 METAR LRTR 211830Z 11002KT CAVOK 03/M02 Q1024=
201902211900 METAR LRTR 211900Z 11004KT CAVOK 01/M01 Q1024=
201902211930 METAR LRTR 211930Z 11004KT CAVOK 01/M01 Q1024=
201902212000 METAR LRTR 212000Z 11003KT CAVOK 01/M01 Q1024=
201902212030 METAR LRTR 212030Z 11003KT CAVOK 01/M01 Q1024=
201902212100 METAR LRTR 212100Z 12003KT CAVOK 01/M01 Q1024=
201902212130 METAR LRTR 212130Z 12003KT CAVOK 01/M01 Q1024=
201902212200 METAR LRTR 212200Z 11004KT CAVOK 01/M01 Q1023=
201902212230 METAR LRTR 212230Z 11005KT CAVOK 02/00 Q1023=
201902212300 METAR LRTR 212300Z 12006KT CAVOK 02/00 Q1023=
201902212330 METAR LRTR 212330Z 11006KT CAVOK 02/01 Q1022=
201902220000 METAR LRTR 220000Z 13004KT CAVOK 02/01 Q1022=
201902220030 METAR LRTR 220030Z 09003KT 040V110 CAVOK 03/01 Q1022=
201902220100 METAR COR LRTR 220100Z 00000KT 9999 -RA SCT041 03/01 Q1022=
201902220130 METAR LRTR 220130Z 00000KT 6000 -RA FEW030 OVC042 03/02 Q1021=
201902220200 METAR LRTR 220200Z VRB01KT 6000 RA SCT032 OVC049 03/03 Q1021=
201902220230 METAR LRTR 220230Z 00000KT 4500 -RA FEW007 OVC030 03/03 Q1021=
201902220300 METAR LRTR 220300Z 23001KT 5000 -RA BR SCT006 OVC035 03/03
                        Q1020=
201902220330 METAR LRTR 220330Z 26003KT 3000 -RA BR SCT004 SCT020 OVC035
                        04/04 Q1020 R11/290095=
201902220400 METAR LRTR 220400Z 27004KT 240V300 2000 -RA BR FEW002 BKN020
                        OVC030 05/05 Q1020 R11/290095=
201902220430 METAR LRTR 220430Z 25006KT 2500 -RA BR FEW010 OVC028 05/05
                        Q1019 R11/290095=
201902220500 METAR LRTR 220500Z 26007KT 2500 -RA BR FEW010 OVC025 05/05
                        Q1019 R11/290095=
201902220530 METAR LRTR 220530Z 26006KT 2500 -RA BR FEW013 OVC028 05/05
                        Q1018 R11/290095=
201902220600 METAR LRTR 220600Z 27006KT 3000 -RA BR FEW015 OVC027 06/05
                        Q1018 R11/290095=
201902220630 METAR LRTR 220630Z 28006KT 3000 BR SCT020 OVC030 06/06 Q1018
                        R11/290095=
201902220700 METAR LRTR 220700Z 27007KT 3500 BR FEW022 BKN030 06/06 Q1018
                        R11/290095=
201902220730 METAR LRTR 220730Z 29007KT 4000 BR BKN030 06/06 Q1018 R11/290095=
201902220800 METAR LRTR 220800Z 32009KT 6000 FEW015 BKN033 07/07 Q1018
                        R11/290095=
201902220830 METAR LRTR 220830Z 33011KT 7000 SCT010 BKN030 07/07 Q1018
                        R11/290095=
201902220900 METAR LRTR 220900Z 35011KT 8000 SCT010 BKN030 08/07 Q1018
                        R11/290095=
201902220930 METAR LRTR 220930Z 36010KT 9999 SCT011 BKN040 08/07 Q1018
                        R11/190095=
201902221000 METAR LRTR 221000Z 02007KT 9999 SCT013 BKN038 08/07 Q1018
                        R11/190095=
201902221030 METAR LRTR 221030Z 01008KT 9999 SCT014 BKN043 08/07 Q1018
                        R11/190095=
201902221100 METAR LRTR 221100Z 01007KT 9999 SCT015 BKN041 08/07 Q1018
                        R11/190095=
201902221130 METAR LRTR 221130Z 01008KT 8000 -RA SCT014 BKN035 08/08 Q1018
                        R11/190095=
201902221200 METAR LRTR 221200Z 36007KT 8000 -RA FEW011 SCT014 OVC038
                        08/08 Q1018 R11/190095=
201902221230 METAR LRTR 221230Z 35007KT 9999 FEW012 SCT025 BKN045 08/08
                        Q1018 R11/190095=
201902221300 METAR LRTR 221300Z 35009KT 9999 FEW015 SCT025 BKN043 08/07
                        Q1018 R11/190095=
201902221330 METAR COR LRTR 221330Z 35010KT 8000 -DZRA BKN012 OVC025 07/07
                        Q1018 REDZ RERA R11/190095=
201902221400 METAR LRTR 221400Z 36023KT 9999 -RA BKN008 OVC023 05/05 Q1018
                        RERA R11/290095=
201902221430 METAR LRTR 221430Z 36022KT 9999 -RA BKN010 OVC025 04/04 Q1019
                        R11/290095=
201902221500 METAR LRTR 221500Z 36023KT 9999 -RA SCT013 BKN030 04/03 Q1019
                        R11/290095=
201902221530 METAR LRTR 221530Z 36022KT 9999 FEW021 SCT030 03/00 Q1019
                        R11/290095=
201902221600 METAR LRTR 221600Z 35023KT 9999 FEW034 03/M00 Q1020 R11/290095=
201902221630 METAR COR LRTR 221630Z 35022G32KT 9999 FEW033 02/M02 Q1020
                        R11/190095=
201902221700 METAR LRTR 221700Z 35025G38KT 9999 FEW030 01/M04 Q1021 R11/190095=
201902221730 METAR LRTR 221730Z 36025KT 9999 FEW030 00/M05 Q1022 R11/190095
                        NOSIG=
201902221800 METAR LRTR 221800Z 36023KT CAVOK M00/M06 Q1022 R11/190095
                        NOSIG=
201902221830 METAR LRTR 221830Z 36027G37KT CAVOK M01/M07 Q1022 R11/190095
                        NOSIG=
201902221900 METAR LRTR 221900Z 36032KT CAVOK M01/M09 Q1023 R11/190095
                        NOSIG=
201902221930 METAR LRTR 221930Z 35031G42KT CAVOK M02/M09 Q1023 R11/CLRD//
                        NOSIG=
201902222000 METAR LRTR 222000Z 36028G44KT CAVOK M02/M10 Q1024 NOSIG=
201902222030 METAR LRTR 222030Z 36028G38KT CAVOK M03/M10 Q1025 NOSIG=
201902222100 METAR LRTR 222100Z 36027KT CAVOK M03/M10 Q1025 NOSIG=
201902222130 METAR LRTR 222130Z 36028KT CAVOK M03/M10 Q1026 NOSIG=
201902222200 METAR LRTR 222200Z 36026KT CAVOK M03/M10 Q1027 NOSIG=
201902222230 METAR LRTR 222230Z 01024KT CAVOK M03/M11 Q1028 NOSIG=
201902222300 METAR LRTR 222300Z 01023KT CAVOK M03/M11 Q1029 NOSIG=
201902222330 METAR LRTR 222330Z 36021KT CAVOK M04/M11 Q1029 NOSIG=
201902230000 METAR LRTR 230000Z 01020KT CAVOK M04/M10 Q1030 NOSIG=
201902230030 METAR LRTR 230030Z 01019KT CAVOK M04/M10 Q1030 NOSIG=
201902230100 METAR LRTR 230100Z 01016KT CAVOK M04/M10 Q1031 NOSIG=
201902230130 METAR LRTR 230130Z 01015KT CAVOK M04/M10 Q1032 NOSIG=
201902230200 METAR LRTR 230200Z 01016KT CAVOK M04/M10 Q1032 NOSIG=
201902230230 METAR LRTR 230230Z 01016KT CAVOK M05/M09 Q1033 NOSIG=
201902230300 METAR LRTR 230300Z 01015KT CAVOK M05/M09 Q1034 NOSIG=
201902230330 METAR LRTR 230330Z 01013KT CAVOK M05/M09 Q1034 NOSIG=
201902230400 METAR LRTR 230400Z 02014KT CAVOK M05/M09 Q1035 NOSIG=
201902230430 METAR LRTR 230430Z 02013KT CAVOK M06/M09 Q1035 NOSIG=
201902230500 METAR LRTR 230500Z 02014KT CAVOK M05/M09 Q1035 NOSIG=
201902230530 METAR LRTR 230530Z 36010KT CAVOK M06/M09 Q1036 NOSIG=
201902230600 METAR LRTR 230600Z 36010KT CAVOK M05/M09 Q1036 NOSIG=
201902230630 METAR LRTR 230630Z 36012KT CAVOK M05/M08 Q1037 NOSIG=
201902230700 METAR LRTR 230700Z 36011KT CAVOK M04/M08 Q1037 NOSIG=
201902230730 METAR LRTR 230730Z 36012KT CAVOK M03/M09 Q1037 NOSIG=
201902230800 METAR LRTR 230800Z 36012KT CAVOK M02/M08 Q1037 NOSIG=
201902230830 METAR LRTR 230830Z 03012KT CAVOK M01/M09 Q1037 NOSIG=
201902230900 METAR LRTR 230900Z 01010KT CAVOK M01/M11 Q1038 NOSIG=
201902230930 METAR LRTR 230930Z 04010KT CAVOK M01/M11 Q1038 NOSIG=
201902231000 METAR LRTR 231000Z 06009KT 020V090 CAVOK M00/M11 Q1038 NOSIG=
201902231030 METAR LRTR 231030Z 03007KT 360V090 CAVOK 00/M11 Q1037 NOSIG=
201902231100 METAR LRTR 231100Z 05006KT 320V110 CAVOK 01/M10 Q1037 NOSIG=
201902231130 METAR LRTR 231130Z 03009KT 360V060 CAVOK 01/M10 Q1037 NOSIG=
201902231200 METAR LRTR 231200Z 36009KT 330V050 CAVOK 01/M09 Q1037 NOSIG=
201902231230 METAR LRTR 231230Z 02007KT 350V050 9999 FEW047 01/M09 Q1037
                        NOSIG=
201902231300 METAR LRTR 231300Z 36011KT 330V030 9999 FEW048 02/M09 Q1037
                        NOSIG=
201902231330 METAR LRTR 231330Z 36009KT 330V030 CAVOK 02/M09 Q1037 NOSIG=
201902231400 METAR LRTR 231400Z 02010KT CAVOK 01/M09 Q1037 NOSIG=
201902231430 METAR LRTR 231430Z 01012KT CAVOK 01/M09 Q1037 NOSIG=
201902231500 METAR LRTR 231500Z 02012KT CAVOK 01/M09 Q1037 NOSIG=
201902231530 METAR LRTR 231530Z 01012KT CAVOK 00/M08 Q1037 NOSIG=
201902231600 METAR LRTR 231600Z 02010KT CAVOK M00/M07 Q1037 NOSIG=
201902231630 METAR LRTR 231630Z 35008KT CAVOK M01/M07 Q1037 NOSIG=
201902231700 METAR LRTR 231700Z 36008KT CAVOK M01/M07 Q1038 NOSIG=
201902231730 METAR LRTR 231730Z 36009KT CAVOK M02/M07 Q1038=
201902231800 METAR LRTR 231800Z 01009KT CAVOK M02/M07 Q1038=
201902231830 METAR LRTR 231830Z 36009KT CAVOK M02/M07 Q1038=
201902231900 METAR LRTR 231900Z 01009KT CAVOK M03/M06 Q1038=
201902231930 METAR LRTR 231930Z 01009KT CAVOK M03/M07 Q1038=
201902232000 METAR LRTR 232000Z 01009KT CAVOK M03/M06 Q1038=
201902232030 METAR LRTR 232030Z 02007KT CAVOK M04/M07 Q1038=
201902232100 METAR LRTR 232100Z 04006KT CAVOK M04/M07 Q1038=
201902232130 METAR LRTR 232130Z 05003KT CAVOK M04/M08 Q1038=
201902232200 METAR LRTR 232200Z AUTO 09007KT 9999 NCD M04/M08 Q1038=
201902232230 METAR LRTR 232230Z AUTO 10006KT 9999 NCD M06/M08 Q1039=
201902232300 METAR LRTR 232300Z AUTO 10006KT 9999 SCT220/// M05/M08 Q1039=
201902232330 METAR LRTR 232330Z AUTO 11008KT 9999 BKN220/// M06/M09 Q1039=
201902240000 METAR LRTR 240000Z AUTO 10007KT 9999 BKN230/// M06/M08 Q1039=
201902240030 METAR COR LRTR 240030Z 02003KT 310V070 CAVOK M07/M08 Q1039=
201902240100 METAR LRTR 240100Z VRB02KT CAVOK M06/M08 Q1039=
201902240130 METAR LRTR 240130Z 01003KT 330V070 CAVOK M06/M08 Q1039=
201902240200 METAR LRTR 240200Z 00000KT CAVOK M07/M09 Q1038=
201902240230 METAR LRTR 240230Z 10005KT CAVOK M06/M08 Q1038=
201902240300 METAR LRTR 240300Z 08005KT CAVOK M07/M08 Q1038=
201902240330 METAR LRTR 240330Z 09005KT CAVOK M07/M08 Q1038=
201902240400 METAR LRTR 240400Z 08005KT CAVOK M07/M08 Q1038=
201902240430 METAR LRTR 240430Z 11004KT 090V170 CAVOK M08/M09 Q1038=
201902240500 METAR LRTR 240500Z 11005KT CAVOK M08/M09 Q1038=
201902240530 METAR LRTR 240530Z 11003KT CAVOK M08/M09 Q1038=
201902240600 METAR LRTR 240600Z 11004KT CAVOK M06/M07 Q1038=
201902240630 METAR LRTR 240630Z 09004KT CAVOK M05/M06 Q1039=
201902240700 METAR LRTR 240700Z 10004KT CAVOK M04/M06 Q1039=
201902240730 METAR LRTR 240730Z 13004KT CAVOK M04/M06 Q1039=
201902240800 METAR COR LRTR 240800Z 17004KT CAVOK M03/M06 Q1039=
201902240830 METAR LRTR 240830Z 16004KT CAVOK M03/M06 Q1039=
201902240900 METAR LRTR 240900Z 18004KT 140V210 CAVOK M02/M07 Q1039=
201902240930 METAR LRTR 240930Z 15003KT 100V180 CAVOK M02/M07 Q1039=
201902241000 METAR LRTR 241000Z 19003KT 130V290 CAVOK M01/M08 Q1039=
201902241030 METAR LRTR 241030Z 17003KT 120V220 CAVOK M00/M06 Q1039=
201902241100 METAR LRTR 241100Z VRB02KT CAVOK 00/M07 Q1039=
201902241130 METAR LRTR 241130Z VRB02KT CAVOK 00/M08 Q1038=
201902241200 METAR LRTR 241200Z VRB01KT CAVOK 01/M07 Q1038=
201902241230 METAR LRTR 241230Z 29003KT 220V010 CAVOK 01/M09 Q1038=
201902241300 METAR LRTR 241300Z 35005KT 310V020 CAVOK 01/M09 Q1037=
201902241330 METAR LRTR 241330Z 31007KT 270V340 CAVOK 02/M09 Q1037=
201902241400 METAR COR LRTR 241400Z 33006KT 280V010 CAVOK 02/M09 Q1037=
201902241430 METAR LRTR 241430Z 32007KT CAVOK 01/M08 Q1036=
201902241500 METAR LRTR 241500Z 33005KT 300V010 CAVOK 02/M07 Q1036=
201902241530 METAR LRTR 241530Z 33005KT CAVOK 01/M08 Q1036=
201902241600 METAR LRTR 241600Z 34004KT CAVOK 00/M07 Q1036=
201902241630 METAR LRTR 241630Z 01004KT CAVOK M01/M06 Q1036=
201902241700 METAR LRTR 241700Z 04005KT CAVOK M01/M05 Q1036=
201902241730 METAR LRTR 241730Z 02004KT CAVOK M01/M04 Q1036=
201902241800 METAR LRTR 241800Z 01004KT CAVOK M01/M04 Q1036=
201902241830 METAR LRTR 241830Z 35005KT CAVOK M01/M05 Q1036=
201902241900 METAR LRTR 241900Z 32005KT CAVOK M01/M04 Q1036=
201902241930 METAR LRTR 241930Z 34005KT CAVOK M01/M05 Q1036=
201902242000 METAR LRTR 242000Z 35005KT CAVOK M01/M05 Q1036=
201902242030 METAR LRTR 242030Z 36007KT CAVOK M01/M06 Q1036=
201902242100 METAR LRTR 242100Z 01007KT CAVOK M01/M05 Q1036=
201902242130 METAR LRTR 242130Z 01008KT CAVOK M01/M06 Q1036=
201902242200 METAR LRTR 242200Z 01008KT 9999 SCT047 M01/M06 Q1036=
201902242230 METAR LRTR 242230Z 02005KT 9999 SCT048 M01/M05 Q1036=
201902242300 METAR LRTR 242300Z 36002KT 9999 BKN047 M01/M05 Q1036=
201902242330 METAR LRTR 242330Z VRB01KT 9999 BKN045 M01/M06 Q1036=
201902250000 METAR LRTR 250000Z 34004KT 9999 BKN044 M01/M07 Q1036=
201902250030 METAR LRTR 250030Z 32005KT 9999 BKN043 M01/M06 Q1036=
201902250100 METAR LRTR 250100Z VRB02KT 9999 BKN043 M01/M06 Q1036=
201902250130 METAR LRTR 250130Z 36006KT 9999 BKN043 M01/M06 Q1035=
201902250200 METAR LRTR 250200Z 01005KT 9999 BKN042 M01/M05 Q1035=
201902250230 METAR LRTR 250230Z 04006KT 9999 SCT042 M01/M04 Q1035=
201902250300 METAR LRTR 250300Z 03007KT 9999 FEW042 M01/M05 Q1035=
201902250330 METAR LRTR 250330Z 03008KT 9999 FEW044 M02/M05 Q1035=
201902250400 METAR LRTR 250400Z 05007KT 9999 FEW044 M02/M05 Q1035=
201902250430 METAR LRTR 250430Z 05005KT 9999 FEW044 M03/M05 Q1035=
201902250500 METAR LRTR 250500Z 07007KT 9999 FEW048 M04/M05 Q1035=
201902250530 METAR LRTR 250530Z 08006KT 9999 SCT049 M03/M05 Q1035 NOSIG=
201902250600 METAR LRTR 250600Z 10005KT 9999 SCT045 M03/M04 Q1036 NOSIG=
201902250630 METAR LRTR 250630Z 10006KT 9999 SCT045 M01/M04 Q1036 NOSIG=
201902250700 METAR LRTR 250700Z 09005KT 9999 SCT045 M00/M03 Q1036 NOSIG=
201902250730 METAR LRTR 250730Z 12007KT 9999 FEW045 01/M04 Q1036 NOSIG=
201902250800 METAR LRTR 250800Z 16008KT 9999 FEW048 01/M04 Q1036 NOSIG=
201902250830 METAR LRTR 250830Z 17007KT 140V200 CAVOK 02/M05 Q1036 NOSIG=
201902250900 METAR LRTR 250900Z 20006KT 170V230 CAVOK 02/M06 Q1037 NOSIG=
201902250930 METAR LRTR 250930Z 22006KT 180V250 CAVOK 03/M07 Q1037 NOSIG=
201902251000 METAR LRTR 251000Z 21007KT CAVOK 04/M06 Q1036 NOSIG=
201902251030 METAR LRTR 251030Z 18003KT 100V270 CAVOK 04/M07 Q1037 NOSIG=
201902251100 METAR LRTR 251100Z VRB02KT CAVOK 05/M07 Q1036 NOSIG=
201902251130 METAR LRTR 251130Z 24004KT 160V310 CAVOK 06/M06 Q1036 NOSIG=
201902251200 METAR LRTR 251200Z VRB03KT CAVOK 05/M06 Q1036 NOSIG=
201902251230 METAR LRTR 251230Z 31005KT 200V010 CAVOK 05/M06 Q1035 NOSIG=
201902251300 METAR LRTR 251300Z 25005KT 210V310 CAVOK 06/M06 Q1035 NOSIG=
201902251330 METAR LRTR 251330Z 28005KT 260V320 CAVOK 06/M06 Q1035 NOSIG=
201902251400 METAR LRTR 251400Z VRB05KT CAVOK 06/M06 Q1034 NOSIG=
201902251430 METAR LRTR 251430Z 27007KT CAVOK 06/M06 Q1034 NOSIG=
201902251500 METAR LRTR 251500Z 30005KT 260V340 CAVOK 06/M06 Q1034 NOSIG=
201902251530 METAR LRTR 251530Z 27006KT CAVOK 06/M06 Q1034 NOSIG=
201902251600 METAR LRTR 251600Z 29006KT CAVOK 04/M06 Q1033 NOSIG=
201902251630 METAR LRTR 251630Z 27005KT CAVOK 03/M05 Q1033 NOSIG=
201902251700 METAR LRTR 251700Z 29004KT CAVOK 02/M05 Q1033 NOSIG=
201902251730 METAR LRTR 251730Z 28004KT CAVOK 02/M05 Q1033 NOSIG=
201902251800 METAR LRTR 251800Z 28003KT CAVOK 02/M05 Q1033=
201902251830 METAR LRTR 251830Z 24003KT CAVOK 02/M06 Q1032=
201902251900 METAR LRTR 251900Z 21002KT CAVOK 01/M05 Q1032=
201902251930 METAR LRTR 251930Z VRB01KT CAVOK 00/M05 Q1032=
201902252000 METAR LRTR 252000Z 00000KT CAVOK 01/M06 Q1032=
201902252030 METAR LRTR 252030Z 26002KT CAVOK 00/M06 Q1032=
201902252100 METAR COR LRTR 252100Z VRB01KT CAVOK M01/M06 Q1032=
201902252130 METAR LRTR 252130Z 00000KT CAVOK M01/M05 Q1032=
201902252200 METAR LRTR 252200Z 15003KT CAVOK M02/M04 Q1031=
201902252230 METAR LRTR 252230Z 15002KT CAVOK M01/M03 Q1031=
201902252300 METAR LRTR 252300Z 10002KT CAVOK M02/M03 Q1031=
201902252330 METAR LRTR 252330Z 13003KT CAVOK M02/M02 Q1031=
201902260000 METAR LRTR 260000Z 14003KT CAVOK M02/M03 Q1030=
201902260030 METAR LRTR 260030Z 08003KT CAVOK M02/M02 Q1031=
201902260100 METAR LRTR 260100Z 08005KT CAVOK M03/M03 Q1030=
201902260130 METAR LRTR 260130Z 10005KT CAVOK M04/M04 Q1029=
201902260200 METAR COR LRTR 260200Z 10005KT 7000 NSC M04/M04 Q1029=
201902260230 METAR LRTR 260230Z 11005KT 8000 NSC M05/M05 Q1029=
201902260300 METAR COR LRTR 260300Z 12006KT 8000 NSC M04/M04 Q1028=
201902260330 METAR LRTR 260330Z 11006KT 8000 NSC M05/M05 Q1028=
201902260400 METAR LRTR 260400Z 11007KT CAVOK M04/M04 Q1028=
201902260430 METAR LRTR 260430Z 12007KT CAVOK M03/M03 Q1028=
201902260500 METAR LRTR 260500Z 11006KT CAVOK M03/M03 Q1028=
201902260530 METAR LRTR 260530Z 13006KT CAVOK M04/M04 Q1027=
201902260600 METAR LRTR 260600Z 11006KT CAVOK M03/M03 Q1027=
201902260630 METAR LRTR 260630Z 13006KT CAVOK M03/M03 Q1027=
201902260700 METAR LRTR 260700Z 16005KT CAVOK M01/M03 Q1027=
201902260730 METAR LRTR 260730Z 17009KT CAVOK 00/M03 Q1026=
201902260800 METAR COR LRTR 260800Z 17009KT CAVOK 02/M04 Q1025=
201902260830 METAR LRTR 260830Z 18009KT CAVOK 03/M04 Q1025=
201902260900 METAR LRTR 260900Z 20007KT CAVOK 03/M04 Q1025=
201902260930 METAR LRTR 260930Z 20006KT CAVOK 04/M05 Q1025=
201902261000 METAR LRTR 261000Z 21005KT CAVOK 05/M05 Q1024=
201902261030 METAR LRTR 261030Z 20006KT 170V230 CAVOK 05/M04 Q1024=
201902261100 METAR LRTR 261100Z 21006KT 170V270 CAVOK 07/M03 Q1024=
201902261130 METAR LRTR 261130Z 21007KT 180V250 CAVOK 06/M03 Q1023=
201902261200 METAR LRTR 261200Z 22005KT 180V250 CAVOK 08/M03 Q1022=
201902261230 METAR LRTR 261230Z 22005KT 150V280 CAVOK 08/M03 Q1022=
201902261300 METAR LRTR 261300Z 25004KT 200V300 CAVOK 09/M03 Q1021=
201902261330 METAR LRTR 261330Z 27005KT 220V300 CAVOK 09/M03 Q1020=
201902261400 METAR LRTR 261400Z 29005KT 240V320 CAVOK 10/M02 Q1020=
201902261430 METAR LRTR 261430Z 33006KT 300V360 CAVOK 10/M02 Q1020=
201902261500 METAR LRTR 261500Z 35008KT 320V020 CAVOK 10/M02 Q1020=
201902261530 METAR LRTR 261530Z 01005KT CAVOK 09/M01 Q1020=
201902261600 METAR LRTR 261600Z 02004KT CAVOK 07/M01 Q1020=
201902261630 METAR LRTR 261630Z VRB02KT CAVOK 07/M01 Q1020=
201902261700 METAR LRTR 261700Z 35004KT 8000 NSC 05/M02 Q1020=
201902261730 METAR LRTR 261730Z 02006KT CAVOK 04/M01 Q1020 NOSIG=
201902261800 METAR LRTR 261800Z 10003KT 060V140 CAVOK 04/M01 Q1021 NOSIG=
201902261830 METAR LRTR 261830Z 12005KT CAVOK 03/M01 Q1021 NOSIG=
201902261900 METAR LRTR 261900Z 06004KT CAVOK 02/M01 Q1021 NOSIG=
201902261930 METAR LRTR 261930Z 32004KT 8000 NSC 01/M01 Q1021 NOSIG=
201902262000 METAR LRTR 262000Z 14006KT 8000 NSC 01/M02 Q1021 NOSIG=
201902262030 METAR LRTR 262030Z 14003KT 7000 NSC 00/M02 Q1021 NOSIG=
201902262100 METAR LRTR 262100Z 02003KT 350V070 7000 NSC 00/M01 Q1021
                        NOSIG=
201902262130 METAR LRTR 262130Z 33007KT 7000 NSC 01/M01 Q1022 NOSIG=
201902262200 METAR LRTR 262200Z 33007KT 7000 NSC 00/M01 Q1021 NOSIG=
201902262230 METAR LRTR 262230Z 35011KT CAVOK 04/M01 Q1021 NOSIG=
201902262300 METAR LRTR 262300Z 34007KT CAVOK 04/M00 Q1021 NOSIG=
201902262330 METAR LRTR 262330Z 01007KT CAVOK 02/M01 Q1021 NOSIG=
201902270000 METAR LRTR 270000Z 36009KT CAVOK 01/M01 Q1021 NOSIG=
201902270030 METAR LRTR 270030Z 34006KT CAVOK 01/M01 Q1021 NOSIG=
201902270100 METAR LRTR 270100Z 01006KT CAVOK 01/M01 Q1021 NOSIG=
201902270130 METAR LRTR 270130Z 36009KT CAVOK 02/M01 Q1021 NOSIG=
201902270200 METAR LRTR 270200Z 36011KT CAVOK 02/M00 Q1021 NOSIG=
201902270230 METAR LRTR 270230Z 36012KT CAVOK 02/M00 Q1021 NOSIG=
201902270300 METAR LRTR 270300Z 36011KT CAVOK 01/M01 Q1021 NOSIG=
201902270330 METAR LRTR 270330Z 01012KT CAVOK 01/M01 Q1021 NOSIG=
201902270400 METAR LRTR 270400Z 01010KT CAVOK 01/M01 Q1021 NOSIG=
201902270430 METAR LRTR 270430Z 36010KT CAVOK 01/M01 Q1022 NOSIG=
201902270500 METAR LRTR 270500Z 35009KT CAVOK 02/00 Q1022 NOSIG=
201902270530 METAR LRTR 270530Z 33012KT CAVOK 02/00 Q1022=
201902270600 METAR LRTR 270600Z 35013KT CAVOK 03/00 Q1022 NOSIG=
201902270630 METAR LRTR 270630Z 35013KT CAVOK 03/01 Q1022 NOSIG=
201902270700 METAR LRTR 270700Z 34014KT CAVOK 05/01 Q1023 NOSIG=
201902270730 METAR LRTR 270730Z 36016KT CAVOK 06/02 Q1023 NOSIG=
201902270800 METAR LRTR 270800Z 36017KT CAVOK 07/01 Q1023 NOSIG=
201902270830 METAR LRTR 270830Z 36018KT CAVOK 08/02 Q1023 NOSIG=
201902270900 METAR LRTR 270900Z 02015KT 9999 FEW026 09/02 Q1023 NOSIG=
201902270930 METAR LRTR 270930Z 02016KT 9999 FEW028 09/01 Q1023 NOSIG=
201902271000 METAR LRTR 271000Z 01015KT 9999 FEW033 10/M00 Q1023 NOSIG=
201902271030 METAR LRTR 271030Z 01015KT 9999 FEW038 10/00 Q1023 NOSIG=
201902271100 METAR LRTR 271100Z 03014KT 9999 SCT044 11/M00 Q1023 NOSIG=
201902271130 METAR LRTR 271130Z 36013KT 9999 BKN049 10/M01 Q1023 NOSIG=
201902271200 METAR LRTR 271200Z 36012KT CAVOK 11/M00 Q1023 NOSIG=
201902271230 METAR LRTR 271230Z 36013KT CAVOK 10/M00 Q1023 NOSIG=
201902271300 METAR LRTR 271300Z 36012KT CAVOK 11/M01 Q1022 NOSIG=
201902271330 METAR LRTR 271330Z 36013KT CAVOK 11/M02 Q1022 NOSIG=
201902271400 METAR LRTR 271400Z 01012KT CAVOK 11/M01 Q1022 NOSIG=
201902271430 METAR LRTR 271430Z 01011KT 340V040 CAVOK 11/M01 Q1022 NOSIG=
201902271500 METAR LRTR 271500Z 01012KT CAVOK 10/M01 Q1022 NOSIG=
201902271530 METAR LRTR 271530Z 01011KT CAVOK 10/M01 Q1022 NOSIG=
201902271600 METAR LRTR 271600Z 36010KT CAVOK 09/M01 Q1022 NOSIG=
201902271630 METAR LRTR 271630Z 35007KT CAVOK 07/M01 Q1022 NOSIG=
201902271700 METAR LRTR 271700Z 34008KT CAVOK 06/M01 Q1022 NOSIG=
201902271730 METAR LRTR 271730Z 36007KT CAVOK 05/M01 Q1022=
201902271800 METAR LRTR 271800Z 35005KT CAVOK 05/M01 Q1022=
201902271830 METAR LRTR 271830Z 36005KT CAVOK 03/M01 Q1022=
201902271900 METAR LRTR 271900Z 00000KT CAVOK 02/M01 Q1022=
201902271930 METAR LRTR 271930Z 36002KT CAVOK 03/M01 Q1022=
201902272000 METAR LRTR 272000Z 32006KT CAVOK 01/M02 Q1022=
201902272030 METAR LRTR 272030Z 33004KT CAVOK 01/M01 Q1022=
201902272100 METAR LRTR 272100Z 32006KT CAVOK 00/M02 Q1021=
201902272130 METAR LRTR 272130Z 33005KT CAVOK 00/M01 Q1021=
201902272200 METAR LRTR 272200Z 34003KT CAVOK M00/M02 Q1021=
201902272230 METAR LRTR 272230Z 00000KT CAVOK 01/M01 Q1021=
201902272300 METAR LRTR 272300Z 22006KT CAVOK M01/M02 Q1021=
201902272330 METAR LRTR 272330Z 27001KT CAVOK M01/M02 Q1021=
201902280000 METAR LRTR 280000Z VRB01KT CAVOK M02/M02 Q1020=
201902280030 METAR LRTR 280030Z 12005KT CAVOK M02/M02 Q1020=
201902280100 METAR LRTR 280100Z 11006KT CAVOK M02/M02 Q1020=
201902280130 METAR LRTR 280130Z 11005KT CAVOK M03/M03 Q1019=
201902280200 METAR LRTR 280200Z 14006KT CAVOK M03/M03 Q1019=
201902280230 METAR LRTR 280230Z 12007KT CAVOK M03/M03 Q1019=
201902280300 METAR LRTR 280300Z 11005KT CAVOK M03/M03 Q1019=
201902280330 METAR LRTR 280330Z 11006KT CAVOK M03/M03 Q1019=
201902280400 METAR LRTR 280400Z 13006KT CAVOK M04/M04 Q1019=
201902280430 METAR LRTR 280430Z 12007KT CAVOK M04/M04 Q1018=
201902280500 METAR LRTR 280500Z 14006KT CAVOK M04/M04 Q1018=
201902280530 METAR LRTR 280530Z 10005KT CAVOK M04/M04 Q1018=
201902280600 METAR LRTR 280600Z 13005KT CAVOK M03/M03 Q1018=
201902280630 METAR LRTR 280630Z 13005KT CAVOK M01/M01 Q1018=
201902280700 METAR LRTR 280700Z 17005KT CAVOK 01/M00 Q1018=
201902280730 METAR LRTR 280730Z 18008KT CAVOK 03/01 Q1017=
201902280800 METAR LRTR 280800Z 16005KT CAVOK 05/01 Q1017=
201902280830 METAR LRTR 280830Z 17008KT CAVOK 06/01 Q1016=
201902280900 METAR LRTR 280900Z 18008KT CAVOK 08/01 Q1016=
201902280930 METAR LRTR 280930Z 20009KT 170V230 CAVOK 09/01 Q1016=
201902281000 METAR LRTR 281000Z 19011KT CAVOK 10/01 Q1015=
201902281030 METAR LRTR 281030Z 20012KT CAVOK 12/01 Q1014=
201902281100 METAR LRTR 281100Z 19013KT CAVOK 13/00 Q1014=
201902281130 METAR LRTR 281130Z 20012KT CAVOK 14/00 Q1013=
201902281200 METAR LRTR 281200Z 20013KT CAVOK 15/00 Q1012=
201902281230 METAR LRTR 281230Z 22012KT CAVOK 16/M00 Q1012=
201902281300 METAR LRTR 281300Z 22014KT CAVOK 17/M01 Q1011=
201902281330 METAR LRTR 281330Z 22012KT 190V260 CAVOK 18/M04 Q1010=
201902281400 METAR LRTR 281400Z 24015KT CAVOK 18/M06 Q1009=
201902281430 METAR LRTR 281430Z 24015KT CAVOK 19/M05 Q1009=
201902281500 METAR LRTR 281500Z 24013KT CAVOK 18/M04 Q1008=
201902281530 METAR LRTR 281530Z 24011KT CAVOK 18/M03 Q1008=
201902281600 METAR LRTR 281600Z 24009KT CAVOK 16/M03 Q1007=
201902281630 METAR LRTR 281630Z 24009KT CAVOK 15/M03 Q1007=
201902281700 METAR LRTR 281700Z 24010KT CAVOK 15/M03 Q1007=
201902281730 METAR LRTR 281730Z 24010KT CAVOK 15/M03 Q1007=
201902281800 METAR COR LRTR 281800Z 24010KT CAVOK 14/M02 Q1007=
201902281830 METAR LRTR 281830Z 24010KT CAVOK 13/M02 Q1007=
201902281900 METAR LRTR 281900Z 26015KT CAVOK 11/M02 Q1007=
201902281930 METAR LRTR 281930Z 28008KT CAVOK 08/M02 Q1007=
201902282000 METAR LRTR 282000Z 29007KT CAVOK 07/M01 Q1007=
201902282030 METAR LRTR 282030Z 28007KT CAVOK 07/M01 Q1007=
201902282100 METAR LRTR 282100Z 28007KT CAVOK 07/M01 Q1008=
201902282130 METAR LRTR 282130Z 28008KT CAVOK 06/M00 Q1008=
201902282200 METAR LRTR 282200Z 29007KT CAVOK 05/M00 Q1008=
201902282230 METAR LRTR 282230Z 31007KT CAVOK 05/M00 Q1008=
201902282300 METAR LRTR 282300Z 31005KT CAVOK 05/M00 Q1008=
201902282330 METAR LRTR 282330Z 29007KT CAVOK 05/00 Q1008=