201903010000 METAR LRTR 010000Z 30005KT CAVOK 06/M00 Q1008=
201903010030 METAR LRTR 010030Z 28006KT CAVOK 05/00 Q1008=
201903010100 METAR LRTR 010100Z 29006KT CAVOK 07/00 Q1008=
201903010130 METAR LRTR 010130Z 29005KT CAVOK 06/00 Q1008=
201903010200 METAR LRTR 010200Z 31005KT CAVOK 06/00 Q1009=
201903010230 METAR LRTR 010230Z 29007KT CAVOK 06/01 Q1009=
201903010300 METAR LRTR 010300Z 29005KT CAVOK 07/01 Q1009=
201903010330 METAR LRTR 010330Z 30007KT CAVOK 05/01 Q1008=
201903010400 METAR LRTR 010400Z 29009KT CAVOK 05/01 Q1008=
201903010430 METAR LRTR 010430Z 30007KT CAVOK 03/01 Q1008=
201903010500 METAR LRTR 010500Z 31006KT CAVOK 04/01 Q1008=
201903010530 METAR COR LRTR 010530Z 34001KT CAVOK 04/01 Q1009 NOSIG=
201903010600 METAR LRTR 010600Z 02003KT 290V090 CAVOK 04/01 Q1009 NOSIG=
201903010630 METAR LRTR 010630Z VRB01KT CAVOK 06/01 Q1010 NOSIG=
201903010700 METAR LRTR 010700Z 29004KT CAVOK 08/02 Q1010 NOSIG=
201903010730 METAR LRTR 010730Z 30006KT CAVOK 09/02 Q1010 NOSIG=
201903010800 METAR LRTR 010800Z 28010KT CAVOK 10/03 Q1010 NOSIG=
201903010830 METAR LRTR 010830Z 28009KT CAVOK 12/03 Q1010 NOSIG=
201903010900 METAR LRTR 010900Z 28010KT CAVOK 13/03 Q1010 NOSIG=
201903010930 METAR LRTR 010930Z 31012KT CAVOK 15/02 Q1009 NOSIG=
201903011000 METAR LRTR 011000Z 31012KT CAVOK 15/01 Q1009 NOSIG=
201903011030 METAR LRTR 011030Z 33013KT 300V360 CAVOK 15/01 Q1009 NOSIG=
201903011100 METAR LRTR 011100Z 33015KT CAVOK 15/02 Q1009 NOSIG=
201903011130 METAR LRTR 011130Z 31012KT 9999 FEW048 16/02 Q1008 NOSIG=
201903011200 METAR LRTR 011200Z 29011KT 9999 FEW045 FEW050CB 15/02 Q1008
                        TEMPO 5000 SHRA=
201903011230 METAR LRTR 011230Z 31012KT 9999 SCT045 FEW050CB 15/03 Q1008
                        TEMPO 5000 SHRA=
201903011300 METAR LRTR 011300Z 32013KT 9999 SCT048 FEW055CB 15/04 Q1008
                        NOSIG=
201903011330 METAR LRTR 011330Z 32012KT 9999 -SHRA FEW045CB 14/05 Q1008
                        NOSIG=
201903011400 METAR LRTR 011400Z 31007KT 9999 -SHRA FEW050CB 15/06 Q1008
                        NOSIG=
201903011430 METAR LRTR 011430Z 32010KT 9999 FEW050CB 15/04 Q1008 NOSIG=
201903011500 METAR LRTR 011500Z 31011KT 9999 -SHRA FEW050CB 15/05 Q1007
                        NOSIG=
201903011530 METAR LRTR 011530Z 34010KT 9999 FEW038 FEW050CB 14/04 Q1008
                        NOSIG=
201903011600 METAR LRTR 011600Z 35008KT 9999 FEW040 12/04 Q1008 NOSIG=
201903011630 METAR LRTR 011630Z 36005KT 9999 FEW045 11/04 Q1008 NOSIG=
201903011700 METAR LRTR 011700Z 00000KT CAVOK 10/05 Q1008 NOSIG=
201903011730 METAR LRTR 011730Z 00000KT CAVOK 10/05 Q1008 NOSIG=
201903011800 METAR LRTR 011800Z 00000KT CAVOK 10/04 Q1008=
201903011830 METAR LRTR 011830Z VRB01KT CAVOK 09/05 Q1008=
201903011900 METAR LRTR 011900Z 00000KT CAVOK 08/05 Q1008=
201903011930 METAR LRTR 011930Z VRB01KT CAVOK 07/05 Q1008=
201903012000 METAR LRTR 012000Z 29003KT 8000 NSC 07/05 Q1008=
201903012030 METAR LRTR 012030Z 24004KT CAVOK 07/05 Q1008=
201903012100 METAR LRTR 012100Z 26002KT CAVOK 07/04 Q1008=
201903012130 METAR LRTR 012130Z 27006KT CAVOK 07/04 Q1008=
201903012200 METAR LRTR 012200Z 31006KT 8000 NSC 06/04 Q1009=
201903012230 METAR LRTR 012230Z 29006KT 7000 NSC 05/04 Q1009=
201903012300 METAR LRTR 012300Z 32007KT CAVOK 05/03 Q1009=
201903012330 METAR LRTR 012330Z 32006KT CAVOK 05/03 Q1009=
201903020000 METAR COR LRTR 020000Z 30007KT CAVOK 04/03 Q1009=
201903020030 METAR LRTR 020030Z 30007KT CAVOK 03/03 Q1009=
201903020100 METAR LRTR 020100Z 29007KT CAVOK 05/04 Q1009=
201903020130 METAR LRTR 020130Z 29008KT CAVOK 05/04 Q1009=
201903020200 METAR LRTR 020200Z 31010KT CAVOK 06/04 Q1009=
201903020230 METAR LRTR 020230Z 32010KT 9999 FEW022 05/04 Q1009=
201903020300 METAR LRTR 020300Z 33007KT 9999 SCT020 05/04 Q1010=
201903020330 METAR LRTR 020330Z 36009KT 9999 FEW022 06/04 Q1010=
201903020400 METAR LRTR 020400Z 36011KT 9999 FEW025 06/04 Q1010=
201903020430 METAR LRTR 020430Z 01013KT 9999 SCT034 05/03 Q1010=
201903020500 METAR LRTR 020500Z 01012KT 9999 SCT040 05/02 Q1011=
201903020530 METAR LRTR 020530Z 35009KT 9999 FEW045 04/02 Q1011=
201903020600 METAR LRTR 020600Z 33007KT 9999 FEW048 05/03 Q1012=
201903020630 METAR LRTR 020630Z 35012KT CAVOK 05/01 Q1013=
201903020700 METAR LRTR 020700Z 36014KT CAVOK 05/00 Q1013=
201903020730 METAR LRTR 020730Z 36015KT CAVOK 05/M01 Q1013=
201903020800 METAR LRTR 020800Z 36016KT CAVOK 06/M01 Q1013=
201903020830 METAR LRTR 020830Z 36014KT CAVOK 06/M02 Q1014=
201903020900 METAR LRTR 020900Z 35012KT CAVOK 07/M03 Q1014=
201903020930 METAR LRTR 020930Z 35011KT 330V030 CAVOK 08/M06 Q1014=
201903021000 METAR LRTR 021000Z 35010KT CAVOK 09/M06 Q1015=
201903021030 METAR LRTR 021030Z 35010KT CAVOK 10/M08 Q1015=
201903021100 METAR LRTR 021100Z 34011KT CAVOK 10/M07 Q1015=
201903021130 METAR LRTR 021130Z 35011KT CAVOK 10/M07 Q1015=
201903021200 METAR LRTR 021200Z 35010KT CAVOK 10/M07 Q1015=
201903021230 METAR LRTR 021230Z 35009KT CAVOK 10/M07 Q1014=
201903021300 METAR LRTR 021300Z 34009KT 300V010 CAVOK 10/M06 Q1015=
201903021330 METAR LRTR 021330Z 34010KT 9999 FEW049 09/M06 Q1015=
201903021400 METAR LRTR 021400Z 32008KT 290V350 9999 FEW048 09/M06 Q1015=
201903021430 METAR LRTR 021430Z 33010KT CAVOK 09/M06 Q1015=
201903021500 METAR LRTR 021500Z 33010KT CAVOK 09/M05 Q1015=
201903021530 METAR LRTR 021530Z 33008KT CAVOK 08/M05 Q1015=
201903021600 METAR LRTR 021600Z 33006KT CAVOK 07/M05 Q1015=
201903021630 METAR LRTR 021630Z 35004KT CAVOK 06/M05 Q1016=
201903021700 METAR LRTR 021700Z 02003KT CAVOK 06/M06 Q1016=
201903021730 METAR LRTR 021730Z 03004KT CAVOK 04/M05 Q1016 NOSIG=
201903021800 METAR LRTR 021800Z 06006KT CAVOK 03/M05 Q1016 NOSIG=
201903021830 METAR LRTR 021830Z 08004KT CAVOK 03/M05 Q1016 NOSIG=
201903021900 METAR LRTR 021900Z 10004KT CAVOK 03/M05 Q1016 NOSIG=
201903021930 METAR LRTR 021930Z 07002KT CAVOK 02/M05 Q1016 NOSIG=
201903022000 METAR LRTR 022000Z VRB02KT CAVOK 02/M05 Q1016 NOSIG=
201903022030 METAR LRTR 022030Z 10003KT CAVOK 01/M05 Q1017 NOSIG=
201903022100 METAR LRTR 022100Z VRB01KT CAVOK 02/M04 Q1017 NOSIG=
201903022130 METAR LRTR 022130Z VRB01KT CAVOK 01/M04 Q1017 NOSIG=
201903022200 METAR LRTR 022200Z 13002KT CAVOK 00/M04 Q1017 NOSIG=
201903022230 METAR LRTR 022230Z 31003KT CAVOK M00/M04 Q1017 NOSIG=
201903022300 METAR LRTR 022300Z 34003KT CAVOK M01/M03 Q1017 NOSIG=
201903022330 METAR LRTR 022330Z VRB01KT CAVOK M00/M03 Q1018 NOSIG=
201903030000 METAR LRTR 030000Z VRB02KT CAVOK 02/M04 Q1018 NOSIG=
201903030030 METAR LRTR 030030Z 25004KT 9999 FEW045 02/M03 Q1018 NOSIG=
201903030100 METAR LRTR 030100Z 27004KT 9999 SCT045 01/M02 Q1018 NOSIG=
201903030130 METAR LRTR 030130Z 28005KT 9999 SCT047 02/M02 Q1018 NOSIG=
201903030200 METAR LRTR 030200Z VRB02KT 9999 FEW048 02/M01 Q1018 NOSIG=
201903030230 METAR LRTR 030230Z 27005KT 9999 FEW049 02/M01 Q1018 NOSIG=
201903030300 METAR LRTR 030300Z 25004KT CAVOK 02/M00 Q1018 NOSIG=
201903030330 METAR LRTR 030330Z 29003KT CAVOK 02/M00 Q1018 NOSIG=
201903030400 METAR LRTR 030400Z 28003KT 250V320 CAVOK 02/01 Q1018 NOSIG=
201903030430 METAR LRTR 030430Z 25004KT CAVOK 03/02 Q1018 NOSIG=
201903030500 METAR LRTR 030500Z 24004KT CAVOK 03/02 Q1018 NOSIG=
201903030530 METAR LRTR 030530Z 00000KT CAVOK 04/02 Q1018=
201903030600 METAR LRTR 030600Z VRB02KT CAVOK 03/02 Q1018=
201903030630 METAR LRTR 030630Z 09004KT 8000 NSC 03/01 Q1019=
201903030700 METAR LRTR 030700Z VRB01KT 8000 NSC 05/03 Q1019=
201903030730 METAR LRTR 030730Z 28006KT CAVOK 05/03 Q1019=
201903030800 METAR LRTR 030800Z 27003KT 220V290 CAVOK 06/03 Q1019=
201903030830 METAR LRTR 030830Z 28005KT 240V310 CAVOK 07/02 Q1019=
201903030900 METAR LRTR 030900Z 24004KT 180V280 CAVOK 07/02 Q1020=
201903030930 METAR LRTR 030930Z 27004KT 240V320 CAVOK 07/02 Q1020=
201903031000 METAR LRTR 031000Z 28004KT 230V030 CAVOK 08/02 Q1020=
201903031030 METAR LRTR 031030Z 26005KT 230V320 CAVOK 08/M00 Q1020=
201903031100 METAR LRTR 031100Z 26005KT 220V300 9999 FEW043 08/00 Q1020=
201903031130 METAR LRTR 031130Z 26005KT 9999 SCT041 09/01 Q1019=
201903031200 METAR LRTR 031200Z 26004KT 9999 BKN036 08/01 Q1019=
201903031230 METAR LRTR 031230Z 27004KT 230V290 9999 BKN035 08/01 Q1019=
201903031300 METAR LRTR 031300Z 17004KT 120V210 9999 BKN040 08/00 Q1019=
201903031330 METAR LRTR 031330Z 20005KT 160V220 9999 BKN039 09/01 Q1019=
201903031400 METAR LRTR 031400Z 21005KT 180V250 9999 BKN043 09/01 Q1019=
201903031430 METAR LRTR 031430Z 21006KT 9999 BKN046 09/01 Q1018=
201903031500 METAR LRTR 031500Z 21006KT CAVOK 09/01 Q1018=
201903031530 METAR LRTR 031530Z 20007KT CAVOK 09/01 Q1018=
201903031600 METAR LRTR 031600Z 19007KT CAVOK 08/01 Q1018=
201903031630 METAR LRTR 031630Z 20005KT CAVOK 08/02 Q1018=
201903031700 METAR LRTR 031700Z 17005KT CAVOK 07/02 Q1018=
201903031730 METAR LRTR 031730Z 17006KT CAVOK 07/02 Q1018=
201903031800 METAR LRTR 031800Z 17006KT CAVOK 07/02 Q1018=
201903031830 METAR LRTR 031830Z 16007KT CAVOK 06/02 Q1017=
201903031900 METAR LRTR 031900Z 15005KT CAVOK 05/01 Q1017=
201903031930 METAR LRTR 031930Z 14005KT CAVOK 04/02 Q1017=
201903032000 METAR LRTR 032000Z 11007KT CAVOK 03/02 Q1017=
201903032030 METAR LRTR 032030Z 13006KT CAVOK 03/02 Q1017=
201903032100 METAR LRTR 032100Z 14007KT CAVOK 04/02 Q1016=
201903032130 METAR LRTR 032130Z 14007KT CAVOK 04/02 Q1016=
201903032200 METAR COR LRTR 032200Z 14007KT CAVOK 03/02 Q1016=
201903032230 METAR LRTR 032230Z 13007KT CAVOK 03/01 Q1016=
201903032300 METAR LRTR 032300Z 14007KT CAVOK 03/02 Q1016=
201903032330 METAR LRTR 032330Z 13008KT CAVOK 03/01 Q1015=
201903040000 METAR LRTR 040000Z 15007KT CAVOK 03/02 Q1015=
201903040030 METAR LRTR 040030Z 12007KT CAVOK 03/02 Q1015=
201903040100 METAR LRTR 040100Z 13008KT CAVOK 03/02 Q1015=
201903040130 METAR LRTR 040130Z 13009KT CAVOK 02/01 Q1014=
201903040200 METAR LRTR 040200Z 11008KT CAVOK 02/01 Q1014=
201903040230 METAR LRTR 040230Z 11008KT CAVOK 01/01 Q1014=
201903040300 METAR LRTR 040300Z 10006KT CAVOK 01/01 Q1014=
201903040330 METAR LRTR 040330Z 11008KT CAVOK 01/00 Q1013=
201903040400 METAR LRTR 040400Z 11008KT CAVOK 00/00 Q1013=
201903040430 METAR LRTR 040430Z 12008KT CAVOK 00/M00 Q1013=
201903040500 METAR LRTR 040500Z 12009KT CAVOK 00/00 Q1013=
201903040530 METAR LRTR 040530Z 12009KT CAVOK 01/01 Q1013=
201903040600 METAR LRTR 040600Z 13009KT CAVOK 02/01 Q1013=
201903040630 METAR LRTR 040630Z 11007KT CAVOK 04/02 Q1012=
201903040700 METAR LRTR 040700Z 12005KT CAVOK 06/02 Q1013=
201903040730 METAR LRTR 040730Z 17007KT CAVOK 08/03 Q1013=
201903040800 METAR LRTR 040800Z 19011KT CAVOK 10/02 Q1013=
201903040830 METAR LRTR 040830Z 18011KT CAVOK 12/02 Q1012=
201903040900 METAR LRTR 040900Z 19012KT CAVOK 13/01 Q1012=
201903040930 METAR LRTR 040930Z 18011KT CAVOK 14/01 Q1012=
201903041000 METAR LRTR 041000Z 20011KT CAVOK 15/00 Q1012=
201903041030 METAR LRTR 041030Z 19011KT CAVOK 16/00 Q1011=
201903041100 METAR LRTR 041100Z 20012KT CAVOK 16/00 Q1010=
201903041130 METAR LRTR 041130Z 20011KT CAVOK 17/M01 Q1010=
201903041200 METAR LRTR 041200Z 20012KT CAVOK 18/M00 Q1009=
201903041230 METAR LRTR 041230Z 21011KT 180V240 CAVOK 18/M01 Q1009=
201903041300 METAR LRTR 041300Z 19011KT 160V230 CAVOK 18/M02 Q1008=
201903041330 METAR LRTR 041330Z 21013KT CAVOK 18/M02 Q1007=
201903041400 METAR LRTR 041400Z 20012KT CAVOK 18/M02 Q1007=
201903041430 METAR LRTR 041430Z 19011KT CAVOK 18/M01 Q1007=
201903041500 METAR LRTR 041500Z 20012KT CAVOK 18/M01 Q1006=
201903041530 METAR LRTR 041530Z 18012KT CAVOK 17/M01 Q1006=
201903041600 METAR LRTR 041600Z 17010KT CAVOK 16/M01 Q1006=
201903041630 METAR LRTR 041630Z 17009KT CAVOK 15/M00 Q1006=
201903041700 METAR LRTR 041700Z 16009KT CAVOK 14/M00 Q1005=
201903041730 METAR LRTR 041730Z 17011KT CAVOK 13/M01 Q1005 NOSIG=
201903041800 METAR LRTR 041800Z 17009KT CAVOK 13/M01 Q1005 NOSIG=
201903041830 METAR LRTR 041830Z 17009KT CAVOK 12/M01 Q1005 NOSIG=
201903041900 METAR LRTR 041900Z 17010KT CAVOK 12/M01 Q1004 NOSIG=
201903041930 METAR LRTR 041930Z 17009KT CAVOK 12/M01 Q1004 NOSIG=
201903042000 METAR LRTR 042000Z 19008KT CAVOK 11/M01 Q1005 NOSIG=
201903042030 METAR LRTR 042030Z 19007KT CAVOK 10/M00 Q1005 NOSIG=
201903042100 METAR LRTR 042100Z 20011KT CAVOK 12/M00 Q1005 NOSIG=
201903042130 METAR LRTR 042130Z 20010KT CAVOK 12/M01 Q1005 NOSIG=
201903042200 METAR LRTR 042200Z 20009KT CAVOK 12/M01 Q1005 NOSIG=
201903042230 METAR LRTR 042230Z 20007KT CAVOK 11/M01 Q1005 NOSIG=
201903042300 METAR LRTR 042300Z 21008KT CAVOK 11/M00 Q1005 NOSIG=
201903042330 METAR LRTR 042330Z 20008KT CAVOK 10/00 Q1005 NOSIG=
201903050000 METAR LRTR 050000Z VRB02KT CAVOK 10/01 Q1005 NOSIG=
201903050030 METAR LRTR 050030Z 32003KT 260V350 CAVOK 09/01 Q1005 NOSIG=
201903050100 METAR LRTR 050100Z 30007KT CAVOK 09/01 Q1006 NOSIG=
201903050130 METAR LRTR 050130Z 32009KT CAVOK 10/00 Q1006 NOSIG=
201903050200 METAR LRTR 050200Z 32008KT CAVOK 09/00 Q1006 TEMPO RA=
201903050230 METAR LRTR 050230Z 32011KT CAVOK 09/02 Q1007 TEMPO RA=
201903050300 METAR LRTR 050300Z 31013KT 9999 -RA NSC 09/03 Q1008 NOSIG=
201903050330 METAR LRTR 050330Z 32011KT 9999 -RA NSC 08/05 Q1008 R11/19//95
                        NOSIG=
201903050400 METAR LRTR 050400Z 31010KT 9999 -RA FEW042 07/06 Q1009 R11/19//95
                        NOSIG=
201903050430 METAR LRTR 050430Z 30006KT 9999 -RA OVC042 07/06 Q1009 R11/19//95
                        NOSIG=
201903050500 METAR LRTR 050500Z 25004KT 9999 BKN042 06/06 Q1009 R11/19//95
                        NOSIG=
201903050530 METAR LRTR 050530Z 25007KT 9999 BKN045 07/07 Q1010 R11/19//95
                        NOSIG=
201903050600 METAR LRTR 050600Z 26009KT 9999 SCT040 07/07 Q1011 R11/19//95
                        NOSIG=
201903050630 METAR LRTR 050630Z 25009KT 9999 FEW040 07/06 Q1011 R11/19//95
                        NOSIG=
201903050700 METAR LRTR 050700Z 23008KT 9999 FEW045 08/07 Q1011 R11/19//95
                        NOSIG=
201903050730 METAR LRTR 050730Z 27013KT 9999 SCT045 07/06 Q1012 R11/19//95
                        NOSIG=
201903050800 METAR LRTR 050800Z 26011KT 9999 FEW045 09/06 Q1012 R11/19//95
                        NOSIG=
201903050830 METAR LRTR 050830Z 26011KT 9999 FEW020 11/06 Q1012 R11/19//95
                        NOSIG=
201903050900 METAR LRTR 050900Z 29011KT 9999 FEW035 12/01 Q1012 R11/19//95
                        NOSIG=
201903050930 METAR LRTR 050930Z 29011KT 260V320 9999 FEW035 12/02 Q1012
                        R11/19//95 NOSIG=
201903051000 METAR LRTR 051000Z 29010KT 9999 FEW036 13/03 Q1012 R11/19//95
                        NOSIG=
201903051030 METAR LRTR 051030Z 26014KT 9999 FEW036 13/02 Q1012 R11/19//95
                        NOSIG=
201903051100 METAR LRTR 051100Z 29010KT 260V320 9999 FEW040 13/01 Q1012
                        R11/19//95 NOSIG=
201903051130 METAR LRTR 051130Z 30010KT 260V320 9999 FEW045 14/01 Q1012
                        R11/19//95 NOSIG=
201903051200 METAR LRTR 051200Z 27014KT 9999 FEW048 14/M00 Q1012 R11/19//95
                        NOSIG=
201903051230 METAR LRTR 051230Z 27010KT 9999 SCT049 15/00 Q1012 R11/19//95
                        NOSIG=
201903051300 METAR LRTR 051300Z 28009KT 240V310 9999 SCT049 15/M00 Q1012
                        R11/19//95 NOSIG=
201903051330 METAR LRTR 051330Z 27013KT CAVOK 15/M00 Q1011 R11/CLRD//
                        NOSIG=
201903051400 METAR LRTR 051400Z 24012KT CAVOK 14/M01 Q1011 NOSIG=
201903051430 METAR LRTR 051430Z 25010KT CAVOK 14/M03 Q1012 NOSIG=
201903051500 METAR LRTR 051500Z 26011KT CAVOK 14/M03 Q1011 NOSIG=
201903051530 METAR LRTR 051530Z 27008KT CAVOK 14/M02 Q1011 NOSIG=
201903051600 METAR LRTR 051600Z 26007KT CAVOK 12/M02 Q1012 NOSIG=
201903051630 METAR LRTR 051630Z 27004KT CAVOK 11/M03 Q1012 NOSIG=
201903051700 METAR LRTR 051700Z 25004KT CAVOK 11/M03 Q1012 NOSIG=
201903051730 METAR LRTR 051730Z 26005KT CAVOK 10/M03 Q1013=
201903051800 METAR LRTR 051800Z 23005KT 220V280 CAVOK 11/M02 Q1013=
201903051830 METAR LRTR 051830Z 19005KT CAVOK 08/M02 Q1013=
201903051900 METAR LRTR 051900Z 22005KT CAVOK 08/M00 Q1013=
201903051930 METAR LRTR 051930Z 20004KT CAVOK 07/M00 Q1013=
201903052000 METAR LRTR 052000Z 19005KT CAVOK 07/01 Q1013=
201903052030 METAR LRTR 052030Z VRB02KT CAVOK 03/M01 Q1014=
201903052100 METAR LRTR 052100Z 15002KT CAVOK 04/00 Q1014=
201903052130 METAR LRTR 052130Z 10006KT CAVOK 02/M00 Q1014=
201903052200 METAR LRTR 052200Z 12008KT CAVOK 01/M00 Q1014=
201903052230 METAR LRTR 052230Z 14005KT CAVOK 02/00 Q1014=
201903052300 METAR LRTR 052300Z 13006KT CAVOK 01/01 Q1014=
201903052330 METAR LRTR 052330Z 17005KT CAVOK 03/02 Q1014=
201903060000 METAR LRTR 060000Z 10006KT CAVOK 01/01 Q1015=
201903060030 METAR LRTR 060030Z 12007KT CAVOK 01/01 Q1014=
201903060100 METAR LRTR 060100Z AUTO 13005KT 9999 NCD 01/01 Q1014=
201903060130 METAR LRTR 060130Z AUTO 16006KT 9999 NCD 01/01 Q1014=
201903060200 METAR COR LRTR 060200Z 12005KT CAVOK 00/00 Q1014=
201903060230 METAR LRTR 060230Z 11005KT CAVOK 01/01 Q1014=
201903060300 METAR LRTR 060300Z VRB02KT CAVOK 01/01 Q1015=
201903060330 METAR LRTR 060330Z 03003KT 360V070 8000 RA SCT039 03/03 Q1015
                        R11/190095=
201903060400 METAR LRTR 060400Z 00000KT 6000 -RA NSC 03/02 Q1015 RERA
                        R11/190095=
201903060430 METAR LRTR 060430Z 00000KT 6000 NSC 02/02 Q1016 R11/190095=
201903060500 METAR LRTR 060500Z 22002KT 7000 FEW047 02/02 Q1016 R11/190095=
201903060530 METAR LRTR 060530Z 33003KT 6000 FEW050CB 02/02 Q1016 R11/190095=
201903060600 METAR LRTR 060600Z 31006KT 6000 FEW050CB 03/03 Q1017 R11/190095=
201903060630 METAR LRTR 060630Z 31003KT 7000 FEW050CB 04/03 Q1017 R11/190095=
201903060700 METAR LRTR 060700Z 27004KT CAVOK 05/04 Q1018 R11/190095=
201903060730 METAR LRTR 060730Z 29006KT CAVOK 06/05 Q1018 R11/190095=
201903060800 METAR LRTR 060800Z 31009KT CAVOK 08/05 Q1019 R11/190095=
201903060830 METAR LRTR 060830Z 33010KT 9999 FEW023 09/04 Q1019 R11/190095=
201903060900 METAR LRTR 060900Z 32007KT 290V350 9999 FEW025 10/04 Q1019
                        R11/190095 NOSIG=
201903060930 METAR LRTR 060930Z 29005KT 260V320 9999 FEW027 10/03 Q1020
                        R11/190095 NOSIG=
201903061000 METAR COR LRTR 061000Z 28006KT 230V310 9999 FEW030 11/02
                        Q1020 R11/190095 NOSIG=
201903061030 METAR LRTR 061030Z 28005KT 230V320 9999 FEW034 11/02 Q1020
                        R11/190095 NOSIG=
201903061100 METAR LRTR 061100Z 31005KT 270V010 9999 FEW035 12/02 Q1020
                        R11/190095 NOSIG=
201903061130 METAR LRTR 061130Z VRB05KT 9999 FEW040 12/01 Q1020 R11/190095
                        NOSIG=
201903061200 METAR LRTR 061200Z 27006KT 230V300 9999 FEW045 12/00 Q1020
                        R11/190095 NOSIG=
201903061230 METAR LRTR 061230Z 22007KT 9999 FEW048 13/M01 Q1019 R11/CLRD//
                        NOSIG=
201903061300 METAR LRTR 061300Z 28008KT CAVOK 14/M02 Q1019 NOSIG=
201903061330 METAR LRTR 061330Z 29007KT CAVOK 13/M02 Q1019 NOSIG=
201903061400 METAR LRTR 061400Z 30007KT CAVOK 14/M03 Q1019 NOSIG=
201903061430 METAR LRTR 061430Z 28005KT CAVOK 14/M02 Q1019 NOSIG=
201903061500 METAR LRTR 061500Z VRB02KT CAVOK 14/M02 Q1019 NOSIG=
201903061530 METAR LRTR 061530Z VRB01KT CAVOK 13/M03 Q1019 NOSIG=
201903061600 METAR LRTR 061600Z 00000KT CAVOK 12/M03 Q1019 NOSIG=
201903061630 METAR LRTR 061630Z 11003KT CAVOK 11/M03 Q1019 NOSIG=
201903061700 METAR LRTR 061700Z 12005KT CAVOK 09/M03 Q1019 NOSIG=
201903061730 METAR LRTR 061730Z 13005KT CAVOK 07/M03 Q1019 NOSIG=
201903061800 METAR LRTR 061800Z 09008KT CAVOK 05/M02 Q1019 NOSIG=
201903061830 METAR LRTR 061830Z 08006KT CAVOK 05/M02 Q1019 NOSIG=
201903061900 METAR LRTR 061900Z 09005KT CAVOK 04/M01 Q1019 NOSIG=
201903061930 METAR LRTR 061930Z 09007KT CAVOK 03/M01 Q1019 NOSIG=
201903062000 METAR LRTR 062000Z 09009KT CAVOK 04/M01 Q1018 NOSIG=
201903062030 METAR LRTR 062030Z 09008KT CAVOK 05/M00 Q1018 NOSIG=
201903062100 METAR LRTR 062100Z 10008KT CAVOK 04/M00 Q1018 NOSIG=
201903062130 METAR LRTR 062130Z 10010KT CAVOK 05/M00 Q1018 NOSIG=
201903062200 METAR LRTR 062200Z 12010KT CAVOK 05/M00 Q1018 NOSIG=
201903062230 METAR LRTR 062230Z 11010KT CAVOK 04/M01 Q1018 NOSIG=
201903062300 METAR LRTR 062300Z 11008KT CAVOK 04/M01 Q1018 NOSIG=
201903062330 METAR LRTR 062330Z 11009KT CAVOK 04/M01 Q1017 NOSIG=
201903070000 METAR LRTR 070000Z 11010KT CAVOK 05/M01 Q1017 NOSIG=
201903070030 METAR LRTR 070030Z 11009KT CAVOK 04/M01 Q1017 NOSIG=
201903070100 METAR LRTR 070100Z 11009KT CAVOK 05/M02 Q1017 NOSIG=
201903070130 METAR LRTR 070130Z 11010KT CAVOK 04/M02 Q1016 NOSIG=
201903070200 METAR LRTR 070200Z 14009KT CAVOK 04/M02 Q1016 NOSIG=
201903070230 METAR LRTR 070230Z 11010KT CAVOK 03/M01 Q1016 NOSIG=
201903070300 METAR LRTR 070300Z 12010KT CAVOK 02/M01 Q1016 NOSIG=
201903070330 METAR LRTR 070330Z 11008KT CAVOK 04/M01 Q1016 NOSIG=
201903070400 METAR LRTR 070400Z 13009KT CAVOK 05/M01 Q1016 NOSIG=
201903070430 METAR LRTR 070430Z 12009KT CAVOK 04/M01 Q1016 NOSIG=
201903070500 METAR LRTR 070500Z 11007KT CAVOK 04/M01 Q1016 NOSIG=
201903070530 METAR LRTR 070530Z 11008KT CAVOK 04/M01 Q1016=
201903070600 METAR LRTR 070600Z 10008KT CAVOK 06/00 Q1016=
201903070630 METAR LRTR 070630Z 10007KT CAVOK 07/M00 Q1016=
201903070700 METAR LRTR 070700Z 12007KT CAVOK 08/01 Q1016=
201903070730 METAR LRTR 070730Z 13008KT CAVOK 10/01 Q1016=
201903070800 METAR LRTR 070800Z 16011KT CAVOK 15/M00 Q1016=
201903070830 METAR LRTR 070830Z 18021KT CAVOK 15/M01 Q1015=
201903070900 METAR LRTR 070900Z 19020KT CAVOK 16/M01 Q1015=
201903070930 METAR LRTR 070930Z 19021KT CAVOK 17/M01 Q1015=
201903071000 METAR LRTR 071000Z 19021KT CAVOK 17/M01 Q1015=
201903071030 METAR LRTR 071030Z 19021KT CAVOK 17/M01 Q1015=
201903071100 METAR LRTR 071100Z 20021KT CAVOK 19/M00 Q1014=
201903071130 METAR LRTR 071130Z 17021KT CAVOK 19/00 Q1014=
201903071200 METAR LRTR 071200Z 18021KT CAVOK 19/01 Q1013=
201903071230 METAR LRTR 071230Z 18019KT CAVOK 19/01 Q1013=
201903071300 METAR LRTR 071300Z 17019KT CAVOK 19/01 Q1013=
201903071330 METAR LRTR 071330Z 17018KT CAVOK 19/01 Q1013=
201903071400 METAR LRTR 071400Z 17018KT CAVOK 19/01 Q1012=
201903071430 METAR LRTR 071430Z 17017KT CAVOK 18/01 Q1012=
201903071500 METAR LRTR 071500Z 18017KT CAVOK 18/01 Q1012=
201903071530 METAR LRTR 071530Z 18013KT CAVOK 17/01 Q1012=
201903071600 METAR LRTR 071600Z 17011KT CAVOK 17/01 Q1012=
201903071630 METAR LRTR 071630Z 17008KT CAVOK 16/01 Q1012=
201903071700 METAR LRTR 071700Z 15008KT CAVOK 16/01 Q1012=
201903071730 METAR LRTR 071730Z 17009KT CAVOK 15/01 Q1012=
201903071800 METAR LRTR 071800Z 15007KT CAVOK 13/02 Q1013=
201903071830 METAR LRTR 071830Z 11008KT CAVOK 11/02 Q1013=
201903071900 METAR LRTR 071900Z 11008KT CAVOK 11/01 Q1013=
201903071930 METAR LRTR 071930Z 11007KT CAVOK 11/01 Q1013=
201903072000 METAR LRTR 072000Z 11007KT CAVOK 12/02 Q1013=
201903072030 METAR LRTR 072030Z 13008KT CAVOK 12/02 Q1013=
201903072100 METAR LRTR 072100Z 15009KT CAVOK 13/02 Q1013=
201903072130 METAR LRTR 072130Z 17012KT CAVOK 14/01 Q1013=
201903072200 METAR LRTR 072200Z 18011KT CAVOK 14/01 Q1013=
201903072230 METAR LRTR 072230Z 18009KT CAVOK 14/01 Q1013=
201903072300 METAR LRTR 072300Z 19008KT CAVOK 13/01 Q1014=
201903072330 METAR LRTR 072330Z 19008KT CAVOK 13/01 Q1014=
201903080000 METAR LRTR 080000Z 19009KT CAVOK 13/01 Q1014=
201903080030 METAR LRTR 080030Z 18008KT CAVOK 12/00 Q1014=
201903080100 METAR LRTR 080100Z 18006KT CAVOK 12/00 Q1014=
201903080130 METAR LRTR 080130Z 17006KT CAVOK 12/00 Q1014=
201903080200 METAR LRTR 080200Z 17007KT CAVOK 12/00 Q1014=
201903080230 METAR LRTR 080230Z 17008KT CAVOK 12/00 Q1014=
201903080300 METAR LRTR 080300Z 17008KT CAVOK 12/00 Q1014=
201903080330 METAR LRTR 080330Z 17008KT CAVOK 12/00 Q1014=
201903080400 METAR LRTR 080400Z 17007KT CAVOK 12/M00 Q1014=
201903080430 METAR LRTR 080430Z 18006KT CAVOK 11/M00 Q1014=
201903080500 METAR LRTR 080500Z 20005KT CAVOK 11/M00 Q1014=
201903080530 METAR LRTR 080530Z 16004KT CAVOK 11/00 Q1014=
201903080600 METAR LRTR 080600Z 18005KT CAVOK 12/M00 Q1015=
201903080630 METAR LRTR 080630Z 20010KT CAVOK 13/M00 Q1015=
201903080700 METAR LRTR 080700Z 20009KT CAVOK 14/00 Q1015=
201903080730 METAR LRTR 080730Z 20009KT CAVOK 15/00 Q1015=
201903080800 METAR LRTR 080800Z 21010KT CAVOK 16/01 Q1016=
201903080830 METAR LRTR 080830Z 22009KT CAVOK 17/00 Q1016=
201903080900 METAR LRTR 080900Z 21008KT CAVOK 18/01 Q1016=
201903080930 METAR LRTR 080930Z 22008KT CAVOK 18/01 Q1016=
201903081000 METAR LRTR 081000Z 23009KT CAVOK 19/02 Q1016=
201903081030 METAR LRTR 081030Z 24009KT 200V270 CAVOK 20/02 Q1016=
201903081100 METAR LRTR 081100Z 24007KT 200V280 CAVOK 20/02 Q1016=
201903081130 METAR LRTR 081130Z 26007KT 230V290 CAVOK 21/03 Q1016=
201903081200 METAR LRTR 081200Z 25008KT CAVOK 21/03 Q1016=
201903081230 METAR LRTR 081230Z 25007KT 220V280 CAVOK 21/03 Q1016=
201903081300 METAR LRTR 081300Z 27007KT 230V310 CAVOK 21/04 Q1016=
201903081330 METAR LRTR 081330Z 29010KT CAVOK 21/04 Q1016=
201903081400 METAR LRTR 081400Z 30009KT CAVOK 20/05 Q1016=
201903081430 METAR LRTR 081430Z 29007KT CAVOK 20/05 Q1016=
201903081500 METAR LRTR 081500Z 34010KT CAVOK 19/05 Q1016=
201903081530 METAR LRTR 081530Z 35012KT CAVOK 17/05 Q1016=
201903081600 METAR LRTR 081600Z 35010KT CAVOK 16/05 Q1016=
201903081630 METAR LRTR 081630Z 36010KT CAVOK 15/05 Q1017=
201903081700 METAR LRTR 081700Z 35010KT CAVOK 15/06 Q1017 NOSIG=
201903081730 METAR LRTR 081730Z 34011KT CAVOK 15/06 Q1018 NOSIG=
201903081800 METAR LRTR 081800Z 36011KT 9999 FEW060CB 14/06 Q1018 NOSIG=
201903081830 METAR LRTR 081830Z 34008KT 9999 FEW060CB 14/07 Q1018 NOSIG=
201903081900 METAR LRTR 081900Z 32008KT 9999 FEW055CB 13/08 Q1019 NOSIG=
201903081930 METAR LRTR 081930Z 34006KT 9999 -SHRA FEW055CB 12/10 Q1019
                        NOSIG=
201903082000 METAR LRTR 082000Z 31005KT 9999 FEW055CB 11/11 Q1019 R11/19//95
                        NOSIG=
201903082030 METAR LRTR 082030Z 31008KT 9999 -SHRA SCT050CB 11/11 Q1020
                        R11/19//95 NOSIG=
201903082100 METAR LRTR 082100Z 02003KT 330V070 9999 -SHRA SCT050CB 11/11
                        Q1019 R11/19//95 NOSIG=
201903082130 METAR LRTR 082130Z VRB02KT 8000 SHRA BKN050CB 11/11 Q1020
                        R11/29//95 TEMPO 5000 SHRA=
201903082200 METAR LRTR 082200Z 21004KT 5000 RA BR BKN037 11/11 Q1020
                        R11/29//95 NOSIG=
201903082230 METAR LRTR 082230Z 15009KT 7000 RA SCT040 11/11 Q1019 R11/29//95
                        NOSIG=
201903082300 METAR LRTR 082300Z 18007KT 140V200 9999 -RA NSC 11/11 Q1020
                        RERA R11/29//95 NOSIG=
201903082330 METAR LRTR 082330Z VRB02KT 9999 -RA NSC 10/10 Q1020 R11/29//95
                        NOSIG=
201903090000 METAR LRTR 090000Z 19004KT 9999 -RA SCT035 10/10 Q1020 R11/29//95
                        NOSIG=
201903090030 METAR LRTR 090030Z 19004KT 9999 -RA BKN034 10/10 Q1020 R11/29//95
                        NOSIG=
201903090100 METAR LRTR 090100Z 18006KT 9999 SCT037 10/10 Q1020 R11/29//95
                        NOSIG=
201903090130 METAR LRTR 090130Z 16005KT 9999 BKN037 10/10 Q1020 R11/29//95
                        NOSIG=
201903090200 METAR LRTR 090200Z 18006KT 9999 BKN040 10/10 Q1020 R11/29//95
                        NOSIG=
201903090230 METAR LRTR 090230Z 17006KT 9999 BKN037 10/10 Q1020 R11/29//95
                        NOSIG=
201903090300 METAR LRTR 090300Z 20005KT 9999 OVC027 10/10 Q1020 R11/29//95
                        NOSIG=
201903090330 METAR LRTR 090330Z 16006KT 9999 OVC024 10/10 Q1020 R11/29//95
                        NOSIG=
201903090400 METAR LRTR 090400Z 18006KT 9999 SCT023 09/09 Q1020 R11/29//95
                        NOSIG=
201903090430 METAR LRTR 090430Z 20005KT 150V210 9999 FEW010 09/09 Q1020
                        R11/29//95 NOSIG=
201903090500 METAR LRTR 090500Z 22005KT 9999 SCT008 09/09 Q1020 R11/29//95
                        NOSIG=
201903090530 METAR LRTR 090530Z 18005KT 5000 BR FEW005 SCT010 08/08 Q1020
                        R11/29//95 TEMPO 3000 BR=
201903090600 METAR LRTR 090600Z 20004KT 5000 BR SCT003 BKN011 09/09 Q1021
                        R11/29//95 TEMPO 3000 BR BKN003=
201903090630 METAR LRTR 090630Z 19004KT 3000 BR BKN003 OVC011 09/09 Q1021
                        R11/29//95 NOSIG=
201903090700 METAR LRTR 090700Z 17008KT 2500 BR SCT002 SCT003 OVC009 09/09
                        Q1021 R11/29//95 NOSIG=
201903090730 METAR LRTR 090730Z 21006KT 3000 BR SCT002 SCT004 OVC010 10/10
                        Q1021 R11/29//95 NOSIG=
201903090800 METAR LRTR 090800Z 25006KT 4500 BR FEW002 SCT005 OVC010 10/10
                        Q1021 R11/29//95 BECMG 5000=
201903090830 METAR LRTR 090830Z 21005KT 5000 2000N BR FEW001 SCT003 OVC009
                        10/10 Q1021 R11/29//95 TEMPO 3000
                        BR=
201903090900 METAR LRTR 090900Z 21003KT 160V250 7000 3000SE BR FEW002
                        BKN008 11/11 Q1021 R11/29//95 NOSIG=
201903090930 METAR COR LRTR 090930Z 26007KT 8000 FEW005 BKN010 12/12 Q1022
                        R11/29//95 NOSIG=
201903091000 METAR LRTR 091000Z 26007KT 240V300 9999 SCT011 SCT020 13/11
                        Q1022 R11/29//95 NOSIG=
201903091030 METAR LRTR 091030Z 28004KT 230V340 9999 FEW012 14/09 Q1021
                        R11/29//95 NOSIG=
201903091100 METAR LRTR 091100Z 25005KT 190V290 9999 SCT025 14/07 Q1021
                        R11/29//95 NOSIG=
201903091130 METAR LRTR 091130Z 22007KT 190V250 9999 SCT030 15/07 Q1020
                        R11/29//95 NOSIG=
201903091200 METAR LRTR 091200Z 28006KT 240V300 9999 FEW035 15/07 Q1020
                        R11/CLRD// NOSIG=
201903091230 METAR LRTR 091230Z 22005KT 110V270 9999 FEW038 15/06 Q1019
                        NOSIG=
201903091300 METAR LRTR 091300Z 20005KT 160V260 9999 FEW040 16/06 Q1019
                        NOSIG=
201903091330 METAR LRTR 091330Z 26008KT 9999 FEW043 16/07 Q1018 NOSIG=
201903091400 METAR LRTR 091400Z 24009KT 210V270 9999 FEW048 16/05 Q1018
                        NOSIG=
201903091430 METAR LRTR 091430Z 25009KT 9999 FEW049 16/06 Q1018 NOSIG=
201903091500 METAR LRTR 091500Z 24010KT 210V270 CAVOK 15/06 Q1018 NOSIG=
201903091530 METAR LRTR 091530Z 24006KT CAVOK 15/06 Q1017 NOSIG=
201903091600 METAR LRTR 091600Z 25005KT CAVOK 14/07 Q1017 NOSIG=
201903091630 METAR LRTR 091630Z 25004KT CAVOK 14/07 Q1017 NOSIG=
201903091700 METAR LRTR 091700Z 23003KT CAVOK 13/07 Q1017 NOSIG=
201903091730 METAR LRTR 091730Z 25003KT CAVOK 13/07 Q1017=
201903091800 METAR LRTR 091800Z 15002KT CAVOK 11/07 Q1017=
201903091830 METAR LRTR 091830Z 13004KT CAVOK 10/08 Q1017=
201903091900 METAR LRTR 091900Z 13004KT CAVOK 09/09 Q1017=
201903091930 METAR LRTR 091930Z 16006KT CAVOK 10/08 Q1016=
201903092000 METAR LRTR 092000Z 09003KT 8000 NSC 08/08 Q1016=
201903092030 METAR LRTR 092030Z 16005KT 8000 NSC 07/07 Q1016=
201903092100 METAR LRTR 092100Z 17005KT CAVOK 07/07 Q1016=
201903092130 METAR LRTR 092130Z VRB02KT CAVOK 07/07 Q1016=
201903092200 METAR LRTR 092200Z 18004KT CAVOK 09/08 Q1016=
201903092230 METAR LRTR 092230Z 13004KT CAVOK 07/07 Q1016=
201903092300 METAR LRTR 092300Z 17005KT CAVOK 07/07 Q1015=
201903092330 METAR LRTR 092330Z 18006KT CAVOK 08/08 Q1015=
201903100000 METAR LRTR 100000Z 19007KT CAVOK 08/08 Q1015=
201903100030 METAR LRTR 100030Z 19007KT CAVOK 09/08 Q1015=
201903100100 METAR LRTR 100100Z 24013KT CAVOK 10/08 Q1015=
201903100130 METAR LRTR 100130Z 26014KT CAVOK 10/07 Q1015=
201903100200 METAR LRTR 100200Z AUTO 26012KT 9999 BKN084/// 09/07 Q1015=
201903100230 METAR LRTR 100230Z AUTO 26014KT 9999 FEW250/// 09/06 Q1016=
201903100300 METAR COR LRTR 100300Z 26010KT CAVOK 08/06 Q1017=
201903100330 METAR LRTR 100330Z 26010KT CAVOK 07/05 Q1017=
201903100400 METAR LRTR 100400Z 25009KT CAVOK 08/05 Q1017=
201903100430 METAR LRTR 100430Z 25005KT CAVOK 07/05 Q1017=
201903100500 METAR LRTR 100500Z 27004KT CAVOK 06/05 Q1018=
201903100530 METAR LRTR 100530Z VRB02KT CAVOK 06/05 Q1018=
201903100600 METAR LRTR 100600Z 14005KT CAVOK 05/05 Q1019=
201903100630 METAR LRTR 100630Z 18005KT CAVOK 07/06 Q1019=
201903100700 METAR LRTR 100700Z 20004KT 170V230 CAVOK 08/06 Q1020=
201903100730 METAR LRTR 100730Z 19006KT CAVOK 08/06 Q1019=
201903100800 METAR LRTR 100800Z 19008KT CAVOK 09/06 Q1019=
201903100830 METAR LRTR 100830Z 19006KT CAVOK 10/07 Q1019=
201903100900 METAR LRTR 100900Z 16006KT CAVOK 11/06 Q1018=
201903100930 METAR LRTR 100930Z 17008KT CAVOK 12/06 Q1018=
201903101000 METAR LRTR 101000Z 20009KT CAVOK 12/04 Q1018=
201903101030 METAR LRTR 101030Z 20008KT CAVOK 13/04 Q1017=
201903101100 METAR LRTR 101100Z 17008KT 130V190 CAVOK 14/03 Q1016=
201903101130 METAR LRTR 101130Z 18010KT CAVOK 15/05 Q1015=
201903101200 METAR LRTR 101200Z 19010KT 160V230 CAVOK 16/04 Q1014=
201903101230 METAR LRTR 101230Z 21009KT CAVOK 17/04 Q1014=
201903101300 METAR LRTR 101300Z 20010KT 170V230 CAVOK 16/04 Q1013=
201903101330 METAR LRTR 101330Z 20010KT 170V230 CAVOK 18/03 Q1012=
201903101400 METAR LRTR 101400Z 21014KT CAVOK 18/02 Q1011=
201903101430 METAR LRTR 101430Z 24011KT CAVOK 18/02 Q1011=
201903101500 METAR LRTR 101500Z 22010KT CAVOK 18/01 Q1011=
201903101530 METAR LRTR 101530Z 23007KT CAVOK 17/04 Q1010=
201903101600 METAR LRTR 101600Z 27007KT CAVOK 15/06 Q1010=
201903101630 METAR LRTR 101630Z 25005KT CAVOK 15/07 Q1010=
201903101700 METAR LRTR 101700Z 25010KT 200V280 9999 -RA NSC 15/06 Q1010=
201903101730 METAR LRTR 101730Z 24009KT 9999 -RA NSC 15/06 Q1010 NOSIG=
201903101800 METAR LRTR 101800Z 25012KT 9999 -RA NSC 15/05 Q1009 NOSIG=
201903101830 METAR LRTR 101830Z 25008KT 9999 -RA NSC 15/06 Q1009 NOSIG=
201903101900 METAR LRTR 101900Z 26006KT 9999 -RA NSC 13/07 Q1009 NOSIG=
201903101930 METAR LRTR 101930Z 25008KT CAVOK 14/06 Q1009 NOSIG=
201903102000 METAR LRTR 102000Z 23008KT CAVOK 15/04 Q1009 NOSIG=
201903102030 METAR LRTR 102030Z 23010KT CAVOK 14/04 Q1009 NOSIG=
201903102100 METAR LRTR 102100Z 24011KT CAVOK 14/04 Q1009 NOSIG=
201903102130 METAR LRTR 102130Z 24009KT CAVOK 13/04 Q1009 NOSIG=
201903102200 METAR LRTR 102200Z 24009KT CAVOK 12/05 Q1010 NOSIG=
201903102230 METAR LRTR 102230Z 22006KT CAVOK 12/04 Q1009 NOSIG=
201903102300 METAR LRTR 102300Z 19006KT CAVOK 13/04 Q1010 NOSIG=
201903102330 METAR LRTR 102330Z VRB02KT CAVOK 12/05 Q1010 NOSIG=
201903110000 METAR LRTR 110000Z 25006KT 9999 FEW047 11/05 Q1010 NOSIG=
201903110030 METAR LRTR 110030Z 21007KT 9999 FEW048 10/05 Q1011 NOSIG=
201903110100 METAR LRTR 110100Z 21006KT CAVOK 09/06 Q1011 NOSIG=
201903110130 METAR LRTR 110130Z 22005KT CAVOK 09/06 Q1011 NOSIG=
201903110200 METAR LRTR 110200Z 24005KT CAVOK 10/06 Q1011 NOSIG=
201903110230 METAR LRTR 110230Z 25003KT CAVOK 09/06 Q1012 NOSIG=
201903110300 METAR LRTR 110300Z 26006KT CAVOK 10/06 Q1012 NOSIG=
201903110330 METAR LRTR 110330Z 26007KT CAVOK 10/06 Q1012 NOSIG=
201903110400 METAR LRTR 110400Z 28007KT CAVOK 09/06 Q1012 NOSIG=
201903110430 METAR LRTR 110430Z 27009KT CAVOK 10/06 Q1013 NOSIG=
201903110500 METAR LRTR 110500Z 30010KT CAVOK 10/05 Q1013 NOSIG=
201903110530 METAR LRTR 110530Z 30009KT CAVOK 10/04 Q1013 NOSIG=
201903110600 METAR LRTR 110600Z 31009KT CAVOK 10/03 Q1013 NOSIG=
201903110630 METAR LRTR 110630Z 32008KT CAVOK 09/01 Q1014 NOSIG=
201903110700 METAR LRTR 110700Z 32005KT CAVOK 09/02 Q1014 NOSIG=
201903110730 METAR LRTR 110730Z 02007KT 9999 FEW030 09/01 Q1015 NOSIG=
201903110800 METAR LRTR 110800Z 35008KT 9999 FEW035 09/00 Q1015 NOSIG=
201903110830 METAR LRTR 110830Z 34006KT 9999 FEW036 10/M00 Q1015 NOSIG=
201903110900 METAR LRTR 110900Z 33007KT 9999 FEW038 10/M01 Q1016 NOSIG=
201903110930 METAR LRTR 110930Z 32007KT 9999 FEW038 10/M00 Q1015 NOSIG=
201903111000 METAR LRTR 111000Z 32010KT 9999 FEW040 10/M02 Q1015 NOSIG=
201903111030 METAR LRTR 111030Z 32010KT 9999 FEW042 10/M03 Q1015 NOSIG=
201903111100 METAR LRTR 111100Z 31007KT 9999 FEW042 10/M02 Q1015 NOSIG=
201903111130 METAR LRTR 111130Z 31007KT 9999 FEW045 10/M02 Q1015 NOSIG=
201903111200 METAR LRTR 111200Z 29007KT 9999 FEW045 10/M02 Q1014 NOSIG=
201903111230 METAR LRTR 111230Z 32007KT 9999 FEW048 10/M03 Q1014 NOSIG=
201903111300 METAR LRTR 111300Z 32006KT CAVOK 10/M03 Q1014 NOSIG=
201903111330 METAR LRTR 111330Z 33008KT CAVOK 10/M02 Q1014 NOSIG=
201903111400 METAR LRTR 111400Z 32009KT CAVOK 09/M03 Q1013 NOSIG=
201903111430 METAR LRTR 111430Z 32006KT CAVOK 09/M03 Q1013 NOSIG=
201903111500 METAR LRTR 111500Z 33005KT CAVOK 09/M02 Q1013 NOSIG=
201903111530 METAR LRTR 111530Z 30005KT CAVOK 08/M02 Q1013 NOSIG=
201903111600 METAR LRTR 111600Z 29006KT CAVOK 08/M01 Q1013 NOSIG=
201903111630 METAR LRTR 111630Z 28004KT CAVOK 08/M02 Q1013 NOSIG=
201903111700 METAR LRTR 111700Z 31004KT CAVOK 07/M01 Q1013 NOSIG=
201903111730 METAR LRTR 111730Z 31006KT CAVOK 06/00 Q1014=
201903111800 METAR LRTR 111800Z 28004KT CAVOK 05/00 Q1014=
201903111830 METAR LRTR 111830Z 25008KT CAVOK 06/02 Q1014=
201903111900 METAR LRTR 111900Z 25011KT CAVOK 06/02 Q1015=
201903111930 METAR LRTR 111930Z 26009KT CAVOK 05/03 Q1015=
201903112000 METAR LRTR 112000Z 30007KT CAVOK 05/01 Q1015=
201903112030 METAR LRTR 112030Z 32008KT CAVOK 05/01 Q1014=
201903112100 METAR LRTR 112100Z 33007KT CAVOK 05/01 Q1015=
201903112130 METAR LRTR 112130Z 33007KT CAVOK 05/02 Q1015=
201903112200 METAR LRTR 112200Z 32007KT CAVOK 04/02 Q1015=
201903112230 METAR LRTR 112230Z 31006KT CAVOK 04/02 Q1015=
201903112300 METAR LRTR 112300Z 32008KT CAVOK 04/02 Q1015=
201903112330 METAR LRTR 112330Z 33008KT CAVOK 03/01 Q1015=
201903120000 METAR LRTR 120000Z 33007KT CAVOK 03/01 Q1015=
201903120030 METAR LRTR 120030Z 32006KT CAVOK 02/01 Q1015=
201903120100 METAR COR LRTR 120100Z 30004KT 9999 OVC160 02/01 Q1016=
201903120130 METAR LRTR 120130Z 30004KT CAVOK 02/01 Q1016=
201903120200 METAR LRTR 120200Z 27004KT CAVOK 02/01 Q1016=
201903120230 METAR LRTR 120230Z 29006KT CAVOK 01/00 Q1016=
201903120300 METAR LRTR 120300Z 31005KT CAVOK 01/00 Q1016=
201903120330 METAR LRTR 120330Z 31006KT CAVOK 01/00 Q1017=
201903120400 METAR LRTR 120400Z 33004KT CAVOK 01/00 Q1017=
201903120430 METAR LRTR 120430Z 35006KT CAVOK 02/00 Q1017=
201903120500 METAR LRTR 120500Z 36005KT CAVOK 01/00 Q1017=
201903120530 METAR LRTR 120530Z 34004KT CAVOK 01/00 Q1017=
201903120600 METAR LRTR 120600Z 35008KT CAVOK 02/00 Q1017=
201903120630 METAR LRTR 120630Z 36011KT CAVOK 03/00 Q1018=
201903120700 METAR LRTR 120700Z 36013KT CAVOK 03/M00 Q1018=
201903120730 METAR LRTR 120730Z 36012KT CAVOK 04/00 Q1018=
201903120800 METAR LRTR 120800Z 01010KT CAVOK 05/M00 Q1018=
201903120830 METAR LRTR 120830Z 01008KT CAVOK 05/M00 Q1019=
201903120900 METAR LRTR 120900Z 35008KT CAVOK 06/M00 Q1019=
201903120930 METAR LRTR 120930Z 02010KT 350V050 CAVOK 08/M02 Q1019=
201903121000 METAR LRTR 121000Z 02011KT 9999 FEW038 08/M02 Q1019=
201903121030 METAR LRTR 121030Z 35009KT 9999 SCT040 08/M02 Q1019=
201903121100 METAR LRTR 121100Z 35011KT 320V020 9999 SCT042 08/M03 Q1019=
201903121130 METAR LRTR 121130Z 34009KT 310V020 9999 SCT046 09/M03 Q1019=
201903121200 METAR LRTR 121200Z 35009KT 9999 SCT048 09/M04 Q1019=
201903121230 METAR LRTR 121230Z 34011KT 300V020 CAVOK 10/M05 Q1019=
201903121300 METAR LRTR 121300Z 34008KT 300V010 CAVOK 10/M05 Q1019=
201903121330 METAR LRTR 121330Z 01011KT CAVOK 10/M06 Q1019=
201903121400 METAR LRTR 121400Z 34010KT CAVOK 10/M05 Q1019=
201903121430 METAR LRTR 121430Z 36013KT CAVOK 10/M06 Q1019=
201903121500 METAR LRTR 121500Z 36011KT CAVOK 10/M06 Q1019=
201903121530 METAR LRTR 121530Z 35010KT CAVOK 09/M06 Q1019=
201903121600 METAR LRTR 121600Z 36008KT CAVOK 08/M06 Q1019=
201903121630 METAR LRTR 121630Z 36005KT CAVOK 07/M05 Q1019=
201903121700 METAR LRTR 121700Z 36006KT CAVOK 05/M05 Q1019 NOSIG=
201903121730 METAR LRTR 121730Z 01007KT CAVOK 04/M05 Q1020 NOSIG=
201903121800 METAR LRTR 121800Z 01007KT CAVOK 03/M05 Q1020 NOSIG=
201903121830 METAR LRTR 121830Z 02007KT CAVOK 02/M04 Q1020 NOSIG=
201903121900 METAR LRTR 121900Z 02007KT CAVOK 02/M04 Q1020 NOSIG=
201903121930 METAR LRTR 121930Z 36005KT CAVOK 02/M04 Q1020 NOSIG=
201903122000 METAR LRTR 122000Z 01005KT CAVOK 01/M04 Q1020 NOSIG=
201903122030 METAR LRTR 122030Z 05005KT CAVOK 02/M05 Q1020 NOSIG=
201903122100 METAR LRTR 122100Z 08005KT CAVOK M00/M05 Q1020 NOSIG=
201903122130 METAR LRTR 122130Z 08005KT CAVOK M00/M05 Q1020 NOSIG=
201903122200 METAR LRTR 122200Z 10006KT CAVOK M01/M05 Q1020 NOSIG=
201903122230 METAR LRTR 122230Z 09005KT CAVOK M02/M05 Q1020 NOSIG=
201903122300 METAR LRTR 122300Z 10004KT CAVOK M01/M05 Q1020 NOSIG=
201903122330 METAR LRTR 122330Z 31006KT 280V340 CAVOK M05/M06 Q1020 NOSIG=
201903130000 METAR LRTR 130000Z 31003KT 270V340 CAVOK M03/M05 Q1020 NOSIG=
201903130030 METAR LRTR 130030Z 00000KT CAVOK M03/M05 Q1020 NOSIG=
201903130100 METAR LRTR 130100Z 00000KT CAVOK M03/M05 Q1019 NOSIG=
201903130130 METAR LRTR 130130Z 10002KT CAVOK M04/M05 Q1019 NOSIG=
201903130200 METAR LRTR 130200Z 09005KT CAVOK M05/M06 Q1019 NOSIG=
201903130230 METAR LRTR 130230Z 11007KT CAVOK M05/M06 Q1019 NOSIG=
201903130300 METAR LRTR 130300Z 11007KT CAVOK M04/M05 Q1019 NOSIG=
201903130330 METAR LRTR 130330Z 10007KT CAVOK M05/M05 Q1019 NOSIG=
201903130400 METAR LRTR 130400Z 09007KT CAVOK M04/M05 Q1019 NOSIG=
201903130430 METAR LRTR 130430Z 10008KT CAVOK M04/M05 Q1018 NOSIG=
201903130500 METAR LRTR 130500Z 10005KT CAVOK M05/M06 Q1018 NOSIG=
201903130530 METAR LRTR 130530Z 10006KT CAVOK M04/M05 Q1018 NOSIG=
201903130600 METAR LRTR 130600Z 10006KT CAVOK M01/M03 Q1018 NOSIG=
201903130630 METAR LRTR 130630Z 11009KT CAVOK 01/M02 Q1018 NOSIG=
201903130700 METAR LRTR 130700Z 12010KT CAVOK 01/M02 Q1018 NOSIG=
201903130730 METAR LRTR 130730Z 10008KT CAVOK 03/M03 Q1018 NOSIG=
201903130800 METAR LRTR 130800Z 12007KT CAVOK 04/M04 Q1018 NOSIG=
201903130830 METAR LRTR 130830Z 15005KT 110V180 CAVOK 06/M04 Q1018 NOSIG=
201903130900 METAR LRTR 130900Z 15005KT 120V180 CAVOK 07/M05 Q1018 NOSIG=
201903130930 METAR LRTR 130930Z 16007KT 9999 FEW038 08/M03 Q1018 NOSIG=
201903131000 METAR LRTR 131000Z 17009KT 9999 FEW040 09/M04 Q1018 NOSIG=
201903131030 METAR LRTR 131030Z 18009KT 120V200 9999 FEW042 10/M03 Q1017
                        NOSIG=
201903131100 METAR LRTR 131100Z 19008KT 170V240 9999 FEW045 10/M05 Q1017
                        NOSIG=
201903131130 METAR LRTR 131130Z 18009KT 9999 FEW048 11/M05 Q1017 NOSIG=
201903131200 METAR LRTR 131200Z 18007KT 140V200 9999 FEW048 11/M04 Q1016
                        NOSIG=
201903131230 METAR LRTR 131230Z 19008KT 140V250 9999 FEW049 11/M05 Q1015
                        NOSIG=
201903131300 METAR LRTR 131300Z 17008KT 150V210 CAVOK 11/M06 Q1015 NOSIG=
201903131330 METAR LRTR 131330Z 15006KT CAVOK 12/M05 Q1015 NOSIG=
201903131400 METAR LRTR 131400Z 18008KT 150V220 CAVOK 11/M06 Q1014 NOSIG=
201903131430 METAR LRTR 131430Z 18008KT 150V210 CAVOK 11/M06 Q1014 NOSIG=
201903131500 METAR LRTR 131500Z 22009KT CAVOK 11/M05 Q1014 NOSIG=
201903131530 METAR LRTR 131530Z 20006KT CAVOK 11/M05 Q1014 NOSIG=
201903131600 METAR LRTR 131600Z 22006KT CAVOK 10/M05 Q1013 NOSIG=
201903131630 METAR LRTR 131630Z 19004KT CAVOK 10/M04 Q1013 NOSIG=
201903131700 METAR LRTR 131700Z 17004KT CAVOK 09/M05 Q1013 NOSIG=
201903131730 METAR LRTR 131730Z 17005KT CAVOK 09/M04 Q1013 NOSIG=
201903131800 METAR LRTR 131800Z 17007KT CAVOK 08/M04 Q1013 NOSIG=
201903131830 METAR LRTR 131830Z 18008KT CAVOK 08/M05 Q1013 NOSIG=
201903131900 METAR LRTR 131900Z 19006KT CAVOK 07/M04 Q1013 NOSIG=
201903131930 METAR LRTR 131930Z 19007KT CAVOK 06/M04 Q1013 NOSIG=
201903132000 METAR LRTR 132000Z 18005KT CAVOK 06/M04 Q1014 NOSIG=
201903132030 METAR LRTR 132030Z 11004KT CAVOK 05/M04 Q1014 NOSIG=
201903132100 METAR LRTR 132100Z 10006KT CAVOK 04/M03 Q1014 NOSIG=
201903132130 METAR LRTR 132130Z 11007KT CAVOK 04/M03 Q1013 NOSIG=
201903132200 METAR LRTR 132200Z 11006KT CAVOK 04/M02 Q1013 NOSIG=
201903132230 METAR LRTR 132230Z 09005KT CAVOK 05/M02 Q1013 NOSIG=
201903132300 METAR LRTR 132300Z 10005KT CAVOK 04/M02 Q1013 NOSIG=
201903132330 METAR LRTR 132330Z 09007KT CAVOK 04/M02 Q1013 NOSIG=
201903140000 METAR LRTR 140000Z 09007KT CAVOK 04/M02 Q1012 NOSIG=
201903140030 METAR LRTR 140030Z 09007KT CAVOK 04/M01 Q1012 NOSIG=
201903140100 METAR LRTR 140100Z 09006KT CAVOK 04/M01 Q1012 NOSIG=
201903140130 METAR LRTR 140130Z 09008KT CAVOK 04/M01 Q1012 NOSIG=
201903140200 METAR LRTR 140200Z 09008KT CAVOK 04/M01 Q1012 NOSIG=
201903140230 METAR LRTR 140230Z 09007KT CAVOK 04/M01 Q1012=
201903140300 METAR LRTR 140300Z 10007KT CAVOK 04/M01 Q1012=
201903140330 METAR LRTR 140330Z 10005KT CAVOK 03/M01 Q1012=
201903140400 METAR LRTR 140400Z 10005KT CAVOK 03/M01 Q1012=
201903140430 METAR LRTR 140430Z 10005KT CAVOK 02/M01 Q1011=
201903140500 METAR LRTR 140500Z 08004KT CAVOK 02/M02 Q1011=
201903140530 METAR LRTR 140530Z 06004KT CAVOK 03/M01 Q1011=
201903140600 METAR LRTR 140600Z VRB01KT CAVOK 04/M00 Q1012=
201903140630 METAR LRTR 140630Z VRB02KT CAVOK 05/M01 Q1012=
201903140700 METAR LRTR 140700Z VRB02KT CAVOK 06/M02 Q1012=
201903140730 METAR LRTR 140730Z 07003KT 020V110 CAVOK 07/M03 Q1012=
201903140800 METAR LRTR 140800Z VRB02KT CAVOK 07/M03 Q1012=
201903140830 METAR LRTR 140830Z VRB02KT CAVOK 08/M03 Q1012=
201903140900 METAR LRTR 140900Z VRB03KT CAVOK 09/M03 Q1012=
201903140930 METAR LRTR 140930Z 29007KT 9999 FEW041 09/M02 Q1012=
201903141000 METAR LRTR 141000Z 29006KT 260V320 9999 SCT041 09/M01 Q1012=
201903141030 METAR LRTR 141030Z VRB03KT 9999 SCT042 10/M01 Q1012=
201903141100 METAR LRTR 141100Z VRB04KT 9999 FEW040 10/M01 Q1012=
201903141130 METAR LRTR 141130Z VRB03KT 9999 FEW045 10/M01 Q1011=
201903141200 METAR LRTR 141200Z VRB03KT 9999 FEW047 11/M01 Q1011=
201903141230 METAR LRTR 141230Z VRB02KT CAVOK 12/M01 Q1010=
201903141300 METAR LRTR 141300Z 33004KT 250V050 CAVOK 12/M02 Q1010=
201903141330 METAR LRTR 141330Z 30003KT 270V330 CAVOK 11/M02 Q1010=
201903141400 METAR LRTR 141400Z 24004KT 200V320 CAVOK 12/M03 Q1010=
201903141430 METAR LRTR 141430Z 31003KT 280V360 CAVOK 11/M03 Q1010=
201903141500 METAR LRTR 141500Z VRB01KT CAVOK 11/M03 Q1010=
201903141530 METAR LRTR 141530Z 32006KT 280V340 CAVOK 11/M03 Q1010=
201903141600 METAR LRTR 141600Z 32005KT CAVOK 11/M03 Q1010=
201903141630 METAR LRTR 141630Z 32005KT CAVOK 09/M02 Q1010=
201903141700 METAR LRTR 141700Z 29005KT CAVOK 08/M01 Q1009=
201903141730 METAR LRTR 141730Z 31006KT CAVOK 07/M01 Q1009 NOSIG=
201903141800 METAR LRTR 141800Z 33003KT CAVOK 07/M01 Q1009 NOSIG=
201903141830 METAR LRTR 141830Z 00000KT CAVOK 06/M01 Q1009 NOSIG=
201903141900 METAR LRTR 141900Z 12003KT CAVOK 05/M01 Q1009 NOSIG=
201903141930 METAR LRTR 141930Z 14003KT CAVOK 04/M01 Q1009 NOSIG=
201903142000 METAR LRTR 142000Z VRB02KT CAVOK 03/M01 Q1009 NOSIG=
201903142030 METAR LRTR 142030Z 12003KT CAVOK 02/M01 Q1009 NOSIG=
201903142100 METAR LRTR 142100Z 16003KT CAVOK 02/M01 Q1008 NOSIG=
201903142130 METAR LRTR 142130Z 11004KT CAVOK 01/M02 Q1008 NOSIG=
201903142200 METAR LRTR 142200Z 11006KT CAVOK M00/M02 Q1008 NOSIG=
201903142230 METAR LRTR 142230Z 11006KT CAVOK M00/M02 Q1008 NOSIG=
201903142300 METAR LRTR 142300Z 12006KT CAVOK M00/M02 Q1008 NOSIG=
201903142330 METAR LRTR 142330Z 11006KT 050V130 CAVOK M01/M02 Q1008 NOSIG=
201903150000 METAR LRTR 150000Z 11006KT CAVOK M01/M02 Q1008 NOSIG=
201903150030 METAR LRTR 150030Z AUTO 12006KT 9999 BKN180/// M00/M01 Q1008
                        NOSIG=
201903150100 METAR LRTR 150100Z 13007KT CAVOK M00/M01 Q1007 NOSIG=
201903150130 METAR LRTR 150130Z 12008KT CAVOK M01/M01 Q1007 NOSIG=
201903150200 METAR LRTR 150200Z 11007KT CAVOK M01/M01 Q1007 NOSIG=
201903150230 METAR LRTR 150230Z 11008KT CAVOK M01/M01 Q1007 NOSIG=
201903150300 METAR LRTR 150300Z 12008KT CAVOK M01/M01 Q1007 NOSIG=
201903150330 METAR LRTR 150330Z 11007KT CAVOK 00/M00 Q1007 NOSIG=
201903150400 METAR LRTR 150400Z 13009KT CAVOK 01/00 Q1007 NOSIG=
201903150430 METAR LRTR 150430Z 09004KT CAVOK 02/00 Q1007 NOSIG=
201903150500 METAR LRTR 150500Z 12009KT CAVOK 02/01 Q1007 NOSIG=
201903150530 METAR LRTR 150530Z 11007KT CAVOK 02/01 Q1007 NOSIG=
201903150600 METAR LRTR 150600Z 10007KT CAVOK 02/01 Q1007 NOSIG=
201903150630 METAR LRTR 150630Z 12006KT CAVOK 03/01 Q1007 NOSIG=
201903150700 METAR LRTR 150700Z 16004KT CAVOK 05/02 Q1007 NOSIG=
201903150730 METAR LRTR 150730Z 19012KT CAVOK 07/01 Q1007 NOSIG=
201903150800 METAR LRTR 150800Z 20009KT CAVOK 08/00 Q1008 NOSIG=
201903150830 METAR LRTR 150830Z 27009KT CAVOK 10/M00 Q1008 NOSIG=
201903150900 METAR LRTR 150900Z 27011KT CAVOK 09/M01 Q1008 NOSIG=
201903150930 METAR LRTR 150930Z 28007KT 250V310 CAVOK 09/00 Q1009 NOSIG=
201903151000 METAR LRTR 151000Z 28005KT 9999 -RA NSC 10/01 Q1009 NOSIG=
201903151030 METAR LRTR 151030Z 27008KT CAVOK 10/01 Q1009 NOSIG=
201903151100 METAR LRTR 151100Z 29008KT CAVOK 10/01 Q1009 NOSIG=
201903151130 METAR LRTR 151130Z 30008KT 9999 SCT047 11/01 Q1009 NOSIG=
201903151200 METAR LRTR 151200Z 31008KT 9999 SCT038 11/02 Q1008 NOSIG=
201903151230 METAR LRTR 151230Z 29005KT 210V360 9999 SCT040 12/02 Q1008
                        NOSIG=
201903151300 METAR LRTR 151300Z 31004KT 280V030 9999 SCT041 11/02 Q1008
                        NOSIG=
201903151330 METAR LRTR 151330Z 33003KT 280V360 9999 SCT044 12/02 Q1008
                        NOSIG=
201903151400 METAR LRTR 151400Z 27002KT 9999 SCT045 12/01 Q1008 NOSIG=
201903151430 METAR LRTR 151430Z 27009KT 9999 SCT047 12/01 Q1008 NOSIG=
201903151500 METAR LRTR 151500Z 28009KT 9999 SCT047 12/M01 Q1008 NOSIG=
201903151530 METAR LRTR 151530Z 30008KT 9999 SCT047 12/M01 Q1009 NOSIG=
201903151600 METAR LRTR 151600Z 30004KT 260V340 9999 -SHRA FEW050CB 12/M00
                        Q1009 NOSIG=
201903151630 METAR LRTR 151630Z 31003KT 260V350 CAVOK 10/M00 Q1009 NOSIG=
201903151700 METAR LRTR 151700Z 28006KT CAVOK 08/M02 Q1010 NOSIG=
201903151730 METAR LRTR 151730Z 28005KT CAVOK 07/M02 Q1010=
201903151800 METAR LRTR 151800Z 27007KT CAVOK 08/M02 Q1010=
201903151830 METAR LRTR 151830Z 26006KT CAVOK 07/M02 Q1010=
201903151900 METAR LRTR 151900Z 27002KT CAVOK 07/M02 Q1010=
201903151930 METAR LRTR 151930Z VRB01KT CAVOK 07/M02 Q1010=
201903152000 METAR LRTR 152000Z 22004KT CAVOK 08/M02 Q1010=
201903152030 METAR LRTR 152030Z VRB02KT CAVOK 07/M02 Q1010=
201903152100 METAR LRTR 152100Z 00000KT CAVOK 05/M00 Q1010=
201903152130 METAR LRTR 152130Z 12003KT CAVOK 05/01 Q1010=
201903152200 METAR LRTR 152200Z 15005KT CAVOK 06/01 Q1010=
201903152230 METAR LRTR 152230Z 16003KT 130V190 CAVOK 07/01 Q1010=
201903152300 METAR LRTR 152300Z 08005KT 050V120 CAVOK 06/01 Q1010=
201903152330 METAR LRTR 152330Z 13005KT 9999 -RA NSC 06/02 Q1010=
201903160000 METAR LRTR 160000Z VRB02KT CAVOK 07/02 Q1010=
201903160030 METAR LRTR 160030Z VRB01KT 9999 -RA SCT046 06/04 Q1010=
201903160100 METAR LRTR 160100Z 15005KT 9999 -RA SCT046 06/04 Q1010=
201903160130 METAR LRTR 160130Z 17006KT 9999 -RA BKN046 06/04 Q1009=
201903160200 METAR LRTR 160200Z 17007KT 9999 -RA BKN046 07/04 Q1009=
201903160230 METAR LRTR 160230Z 18008KT 9999 -RA NSC 07/04 Q1009=
201903160300 METAR LRTR 160300Z 18008KT 9999 -RA BKN044 07/04 Q1008=
201903160330 METAR LRTR 160330Z 17009KT 9999 BKN044 07/04 Q1008=
201903160400 METAR LRTR 160400Z 18009KT 9999 -RA NSC 07/04 Q1008 R11/290095=
201903160430 METAR LRTR 160430Z 20006KT 9999 -RA NSC 07/04 Q1008 R11/290095=
201903160500 METAR LRTR 160500Z 20011KT 9999 -RA NSC 07/04 Q1008 R11/290095=
201903160530 METAR LRTR 160530Z 21005KT 9999 -RA NSC 07/05 Q1008 R11/290095=
201903160600 METAR LRTR 160600Z 19007KT 9999 -RA NSC 07/05 Q1008 R11/290095=
201903160630 METAR LRTR 160630Z VRB01KT 9999 -RA NSC 07/05 Q1010 R11/290095=
201903160700 METAR LRTR 160700Z VRB02KT 9999 -RA NSC 08/06 Q1010 R11/290095=
201903160730 METAR LRTR 160730Z AUTO 22004KT 9999 -SHRA OVC066/// 08/05
                        Q1010=
201903160800 METAR LRTR 160800Z 28004KT 260V320 9999 -RA NSC 09/06 Q1011
                        R11/290095=
201903160830 METAR LRTR 160830Z 30006KT 9999 -RA NSC 09/07 Q1012 R11/290095=
201903160900 METAR LRTR 160900Z 28005KT 240V330 9999 -RA OVC048 10/08
                        Q1011 R11/290095=
201903160930 METAR LRTR 160930Z 29005KT 9999 -RA NSC 10/08 Q1012 R11/290095=
201903161000 METAR LRTR 161000Z 27005KT 9999 -RA NSC 10/09 Q1012 R11/290095=
201903161030 METAR LRTR 161030Z 27011KT 9999 -RA NSC 10/08 Q1013 R11/290095=
201903161100 METAR LRTR 161100Z 29007KT 9999 -RA NSC 10/07 Q1013 R11/290095=
201903161130 METAR LRTR 161130Z 28009KT 9999 -RA NSC 10/06 Q1013 R11/290095=
201903161200 METAR LRTR 161200Z 26009KT 9999 -RA NSC 10/07 Q1013 R11/290095=
201903161230 METAR LRTR 161230Z 26007KT 9999 -RA NSC 10/07 Q1013 R11/290095=
201903161300 METAR LRTR 161300Z 27007KT 9999 -RA NSC 10/06 Q1014 R11/290095=
201903161330 METAR LRTR 161330Z 25006KT 9999 -RA NSC 10/07 Q1014 R11/290095=
201903161400 METAR LRTR 161400Z 23005KT 9999 -RA NSC 10/07 Q1013 R11/290095=
201903161430 METAR LRTR 161430Z 25007KT CAVOK 10/07 Q1014 R11/290095=
201903161500 METAR LRTR 161500Z 24006KT CAVOK 10/07 Q1013 R11/290095=
201903161530 METAR COR LRTR 161530Z 27005KT CAVOK 09/07 Q1014 R11/290095=
201903161600 METAR LRTR 161600Z 26007KT CAVOK 10/06 Q1014 R11/290095=
201903161630 METAR LRTR 161630Z 25006KT CAVOK 09/07 Q1014 R11/290095=
201903161700 METAR LRTR 161700Z 26007KT CAVOK 09/06 Q1014 R11/190095 NOSIG=
201903161730 METAR LRTR 161730Z 27004KT CAVOK 08/06 Q1014 R11/190095 NOSIG=
201903161800 METAR LRTR 161800Z 27005KT CAVOK 08/06 Q1014 R11/190095 NOSIG=
201903161830 METAR LRTR 161830Z VRB01KT CAVOK 08/06 Q1014 R11/190095 NOSIG=
201903161900 METAR LRTR 161900Z 23003KT CAVOK 08/06 Q1015 R11/190095 NOSIG=
201903161930 METAR LRTR 161930Z 16002KT CAVOK 08/06 Q1015 R11/190095 NOSIG=
201903162000 METAR LRTR 162000Z 11002KT CAVOK 07/06 Q1015 R11/190095 NOSIG=
201903162030 METAR LRTR 162030Z 17003KT CAVOK 07/06 Q1015 R11/190095 NOSIG=
201903162100 METAR LRTR 162100Z 12003KT CAVOK 06/06 Q1015 R11/190095 NOSIG=
201903162130 METAR LRTR 162130Z 14006KT CAVOK 07/07 Q1014 R11/190095 NOSIG=
201903162200 METAR LRTR 162200Z 18003KT CAVOK 07/07 Q1015 R11/190095 NOSIG=
201903162230 METAR LRTR 162230Z 10005KT CAVOK 06/06 Q1014 R11/190095 NOSIG=
201903162300 METAR LRTR 162300Z 11005KT CAVOK 06/06 Q1014 R11/190095 NOSIG=
201903162330 METAR LRTR 162330Z 12006KT CAVOK 06/06 Q1014 R11/190095 NOSIG=
201903170000 METAR LRTR 170000Z 10005KT CAVOK 06/06 Q1014 R11/190095 NOSIG=
201903170030 METAR LRTR 170030Z 17003KT 140V200 CAVOK 06/06 Q1015 R11/190095
                        NOSIG=
201903170100 METAR LRTR 170100Z 16003KT CAVOK 06/06 Q1015 R11/190095 NOSIG=
201903170130 METAR LRTR 170130Z 15004KT CAVOK 06/06 Q1014 R11/190095 NOSIG=
201903170200 METAR LRTR 170200Z 12005KT CAVOK 05/05 Q1014 R11/190095 NOSIG=
201903170230 METAR LRTR 170230Z 12006KT CAVOK 04/04 Q1014 R11/190095 NOSIG=
201903170300 METAR LRTR 170300Z 12007KT CAVOK 05/05 Q1014 R11/190095 NOSIG=
201903170330 METAR LRTR 170330Z 13006KT CAVOK 04/04 Q1014 R11/190095 NOSIG=
201903170400 METAR LRTR 170400Z 11005KT CAVOK 03/03 Q1014 R11/190095 NOSIG=
201903170430 METAR LRTR 170430Z 12007KT CAVOK 03/03 Q1014 R11/190095 NOSIG=
201903170500 METAR LRTR 170500Z 11007KT CAVOK 03/03 Q1014 R11/190095 NOSIG=
201903170530 METAR LRTR 170530Z 10006KT CAVOK 04/03 Q1014 R11/190095 NOSIG=
201903170600 METAR LRTR 170600Z 12006KT CAVOK 06/06 Q1015 R11/190095 NOSIG=
201903170630 METAR LRTR 170630Z 12008KT CAVOK 07/07 Q1015 R11/190095 NOSIG=
201903170700 METAR LRTR 170700Z 15008KT CAVOK 09/07 Q1015 R11/190095 NOSIG=
201903170730 METAR LRTR 170730Z 17008KT CAVOK 12/07 Q1015 R11/190095 NOSIG=
201903170800 METAR LRTR 170800Z 17009KT CAVOK 13/08 Q1015 R11/190095 NOSIG=
201903170830 METAR LRTR 170830Z 17009KT CAVOK 14/08 Q1015 R11/190095 NOSIG=
201903170900 METAR LRTR 170900Z 18009KT CAVOK 15/08 Q1014 R11/190095 NOSIG=
201903170930 METAR LRTR 170930Z 18010KT CAVOK 17/09 Q1014 R11/190095 NOSIG=
201903171000 METAR LRTR 171000Z 19010KT CAVOK 18/07 Q1014 R11/190095 NOSIG=
201903171030 METAR LRTR 171030Z 19009KT CAVOK 18/06 Q1014 R11/190095 NOSIG=
201903171100 METAR LRTR 171100Z 24007KT CAVOK 19/06 Q1014 R11/190095 NOSIG=
201903171130 METAR LRTR 171130Z 20009KT CAVOK 19/06 Q1013 R11/CLRD// NOSIG=
201903171200 METAR LRTR 171200Z 20010KT CAVOK 20/06 Q1013 NOSIG=
201903171230 METAR LRTR 171230Z 20010KT 170V230 CAVOK 21/05 Q1013 NOSIG=
201903171300 METAR LRTR 171300Z 22009KT CAVOK 21/05 Q1012 NOSIG=
201903171330 METAR LRTR 171330Z 22007KT CAVOK 22/04 Q1011 NOSIG=
201903171400 METAR LRTR 171400Z 19009KT 170V230 CAVOK 22/04 Q1011 NOSIG=
201903171430 METAR LRTR 171430Z 19010KT CAVOK 22/04 Q1011 NOSIG=
201903171500 METAR LRTR 171500Z 19008KT CAVOK 22/04 Q1011 NOSIG=
201903171530 METAR LRTR 171530Z 17008KT CAVOK 21/04 Q1010 NOSIG=
201903171600 METAR LRTR 171600Z 16007KT CAVOK 21/04 Q1010 NOSIG=
201903171630 METAR LRTR 171630Z 16007KT CAVOK 19/04 Q1010 NOSIG=
201903171700 METAR LRTR 171700Z 15007KT CAVOK 17/05 Q1010 NOSIG=
201903171730 METAR LRTR 171730Z 15008KT CAVOK 16/04 Q1010=
201903171800 METAR LRTR 171800Z 14008KT CAVOK 13/05 Q1010=
201903171830 METAR LRTR 171830Z 12008KT CAVOK 11/05 Q1009=
201903171900 METAR LRTR 171900Z 12008KT CAVOK 10/05 Q1009=
201903171930 METAR LRTR 171930Z 11008KT CAVOK 10/05 Q1009=
201903172000 METAR LRTR 172000Z 08007KT CAVOK 10/05 Q1009=
201903172030 METAR LRTR 172030Z 09009KT CAVOK 11/06 Q1009=
201903172100 METAR LRTR 172100Z 10009KT CAVOK 10/06 Q1008=
201903172130 METAR LRTR 172130Z 10011KT CAVOK 11/05 Q1008=
201903172200 METAR LRTR 172200Z 11009KT CAVOK 10/05 Q1008=
201903172230 METAR LRTR 172230Z 12009KT CAVOK 09/05 Q1008=
201903172300 METAR COR LRTR 172300Z 13008KT CAVOK 09/05 Q1009=
201903172330 METAR LRTR 172330Z 13007KT CAVOK 06/05 Q1009=
201903180000 METAR LRTR 180000Z 19005KT CAVOK 09/04 Q1010=
201903180030 METAR LRTR 180030Z 21008KT CAVOK 10/03 Q1010=
201903180100 METAR LRTR 180100Z 26007KT CAVOK 10/05 Q1010=
201903180130 METAR COR LRTR 180130Z 23006KT CAVOK 11/05 Q1011=
201903180200 METAR LRTR 180200Z 19004KT 160V220 CAVOK 09/05 Q1011=
201903180230 METAR LRTR 180230Z 16004KT CAVOK 06/04 Q1011=
201903180300 METAR LRTR 180300Z 15005KT CAVOK 05/04 Q1011=
201903180330 METAR LRTR 180330Z 10004KT CAVOK 04/04 Q1012=
201903180400 METAR LRTR 180400Z 10006KT CAVOK 04/04 Q1012=
201903180430 METAR LRTR 180430Z 10006KT CAVOK 05/04 Q1012=
201903180500 METAR LRTR 180500Z 11005KT CAVOK 04/04 Q1012=
201903180530 METAR LRTR 180530Z 36004KT CAVOK 07/05 Q1013=
201903180600 METAR LRTR 180600Z 30003KT CAVOK 10/07 Q1013=
201903180630 METAR LRTR 180630Z 32004KT CAVOK 12/07 Q1013=
201903180700 METAR LRTR 180700Z 34006KT CAVOK 12/05 Q1013=
201903180730 METAR LRTR 180730Z 31005KT CAVOK 12/05 Q1013=
201903180800 METAR LRTR 180800Z 31003KT 280V360 CAVOK 13/05 Q1014=
201903180830 METAR LRTR 180830Z 34003KT CAVOK 13/05 Q1014=
201903180900 METAR LRTR 180900Z 12003KT CAVOK 14/05 Q1014=
201903180930 METAR LRTR 180930Z VRB02KT CAVOK 15/05 Q1014=
201903181000 METAR LRTR 181000Z 14004KT 090V220 CAVOK 15/05 Q1013=
201903181030 METAR LRTR 181030Z VRB03KT CAVOK 17/05 Q1013=
201903181100 METAR LRTR 181100Z 20003KT 090V260 CAVOK 17/05 Q1013=
201903181130 METAR LRTR 181130Z VRB03KT 9999 FEW042 17/05 Q1013=
201903181200 METAR LRTR 181200Z VRB02KT 9999 FEW045 18/06 Q1012=
201903181230 METAR LRTR 181230Z 31005KT 260V020 9999 FEW048 18/05 Q1012=
201903181300 METAR COR LRTR 181300Z 29006KT 250V330 CAVOK 18/06 Q1012=
201903181330 METAR LRTR 181330Z 28006KT 260V320 CAVOK 18/06 Q1012=
201903181400 METAR LRTR 181400Z 30007KT 270V330 CAVOK 19/06 Q1012=
201903181430 METAR LRTR 181430Z 34008KT CAVOK 18/05 Q1012=
201903181500 METAR LRTR 181500Z 30007KT CAVOK 18/05 Q1012=
201903181530 METAR LRTR 181530Z 31009KT CAVOK 17/05 Q1012=
201903181600 METAR LRTR 181600Z 33009KT CAVOK 16/04 Q1012=
201903181630 METAR LRTR 181630Z 34009KT CAVOK 15/04 Q1013=
201903181700 METAR LRTR 181700Z 34010KT CAVOK 14/04 Q1013=
201903181730 METAR LRTR 181730Z 34011KT CAVOK 13/03 Q1013 NOSIG=
201903181800 METAR LRTR 181800Z 33011KT CAVOK 12/02 Q1014 NOSIG=
201903181830 METAR LRTR 181830Z 33013KT CAVOK 11/03 Q1014 NOSIG=
201903181900 METAR LRTR 181900Z 33016KT CAVOK 11/03 Q1015 NOSIG=
201903181930 METAR LRTR 181930Z 33018KT CAVOK 10/03 Q1015 NOSIG=
201903182000 METAR LRTR 182000Z 33015KT 9999 FEW050CB 09/03 Q1016 NOSIG=
201903182030 METAR LRTR 182030Z 32010KT 9999 FEW050CB 08/03 Q1017 NOSIG=
201903182100 METAR LRTR NIL=
201903182130 METAR LRTR NIL=
201903182200 METAR COR LRTR 182200Z 33015KT 9999 FEW050CB 08/04 Q1017
                        NOSIG=
201903182230 METAR LRTR 182230Z 33015KT CAVOK 08/04 Q1018 NOSIG=
201903182300 METAR LRTR 182300Z 33015KT CAVOK 08/04 Q1018 NOSIG=
201903182330 METAR LRTR 182330Z 34012KT CAVOK 07/05 Q1018 NOSIG=
201903190000 METAR LRTR 190000Z 33010KT CAVOK 08/05 Q1019 NOSIG=
201903190030 METAR LRTR 190030Z 33007KT CAVOK 08/05 Q1019 NOSIG=
201903190100 METAR LRTR 190100Z 34007KT CAVOK 08/05 Q1019 NOSIG=
201903190130 METAR LRTR 190130Z 32005KT CAVOK 07/05 Q1019 NOSIG=
201903190200 METAR LRTR 190200Z 33008KT CAVOK 07/05 Q1019 NOSIG=
201903190230 METAR LRTR 190230Z 33006KT CAVOK 07/05 Q1019 NOSIG=
201903190300 METAR COR LRTR 190300Z 33007KT CAVOK 07/05 Q1019 NOSIG=
201903190330 METAR LRTR 190330Z 33007KT CAVOK 07/05 Q1019 NOSIG=
201903190400 METAR LRTR 190400Z 33007KT CAVOK 07/05 Q1019 NOSIG=
201903190430 METAR LRTR 190430Z 32008KT CAVOK 07/05 Q1020 NOSIG=
201903190500 METAR LRTR 190500Z 32008KT CAVOK 07/05 Q1020 NOSIG=
201903190530 METAR LRTR 190530Z 32005KT CAVOK 07/05 Q1020 NOSIG=
201903190600 METAR LRTR 190600Z 34006KT CAVOK 07/05 Q1020 NOSIG=
201903190630 METAR LRTR 190630Z 33008KT CAVOK 08/05 Q1020 NOSIG=
201903190700 METAR LRTR 190700Z 33008KT CAVOK 08/04 Q1020 NOSIG=
201903190730 METAR LRTR 190730Z 36009KT CAVOK 08/04 Q1020 NOSIG=
201903190800 METAR LRTR 190800Z 35011KT CAVOK 09/03 Q1020 NOSIG=
201903190830 METAR LRTR 190830Z 01011KT CAVOK 10/03 Q1021 NOSIG=
201903190900 METAR LRTR 190900Z 35011KT CAVOK 10/03 Q1021 NOSIG=
201903190930 METAR LRTR 190930Z 36010KT 320V020 CAVOK 10/03 Q1021 NOSIG=
201903191000 METAR LRTR 191000Z 35010KT 330V030 9999 FEW033 11/02 Q1021
                        NOSIG=
201903191030 METAR LRTR 191030Z 34008KT 310V020 9999 FEW033 11/03 Q1021
                        NOSIG=
201903191100 METAR LRTR 191100Z 32009KT 9999 FEW035 11/02 Q1021 NOSIG=
201903191130 METAR LRTR 191130Z 33008KT 9999 FEW038 13/03 Q1021 NOSIG=
201903191200 METAR LRTR 191200Z 33008KT 310V010 9999 FEW040 12/02 Q1021
                        NOSIG=
201903191230 METAR LRTR 191230Z 33008KT 290V010 9999 FEW042 12/01 Q1021
                        NOSIG=
201903191300 METAR LRTR 191300Z 35009KT 9999 FEW045 13/02 Q1021 NOSIG=
201903191330 METAR LRTR 191330Z 35011KT 9999 FEW048 12/02 Q1021 NOSIG=
201903191400 METAR LRTR 191400Z 34011KT CAVOK 12/01 Q1021 NOSIG=
201903191430 METAR LRTR 191430Z 36010KT CAVOK 12/01 Q1021 NOSIG=
201903191500 METAR LRTR 191500Z 02009KT CAVOK 12/01 Q1021 NOSIG=
201903191530 METAR LRTR 191530Z 03008KT CAVOK 12/01 Q1021 NOSIG=
201903191600 METAR LRTR 191600Z 04008KT CAVOK 12/01 Q1021 NOSIG=
201903191630 METAR LRTR 191630Z 03006KT CAVOK 11/02 Q1022 NOSIG=
201903191700 METAR LRTR 191700Z 01004KT CAVOK 11/02 Q1022 NOSIG=
201903191730 METAR LRTR 191730Z 35009KT CAVOK 11/M01 Q1023=
201903191800 METAR LRTR 191800Z 36010KT CAVOK 10/M03 Q1023=
201903191830 METAR LRTR 191830Z 36009KT CAVOK 10/M02 Q1023=
201903191900 METAR LRTR 191900Z 36007KT CAVOK 09/M02 Q1024=
201903191930 METAR LRTR 191930Z 35007KT CAVOK 09/M02 Q1024=
201903192000 METAR LRTR 192000Z 32008KT CAVOK 09/M03 Q1024=
201903192030 METAR LRTR 192030Z 34009KT CAVOK 09/M03 Q1024=
201903192100 METAR LRTR 192100Z 34010KT CAVOK 09/M03 Q1025=
201903192130 METAR LRTR 192130Z 35013KT CAVOK 09/M03 Q1025=
201903192200 METAR LRTR 192200Z 34012KT CAVOK 09/M03 Q1025=
201903192230 METAR LRTR 192230Z 35012KT CAVOK 09/M03 Q1025=
201903192300 METAR LRTR 192300Z 35011KT CAVOK 09/M03 Q1025=
201903192330 METAR LRTR 192330Z 32009KT CAVOK 09/M02 Q1025=
201903200000 METAR LRTR 200000Z 34009KT CAVOK 09/M02 Q1026=
201903200030 METAR LRTR 200030Z 31006KT 9999 SCT047 08/M00 Q1026=
201903200100 METAR LRTR 200100Z 33007KT 9999 FEW047 07/M01 Q1026=
201903200130 METAR LRTR 200130Z 33006KT 9999 FEW047 07/00 Q1026=
201903200200 METAR LRTR 200200Z 32006KT CAVOK 07/M00 Q1026=
201903200230 METAR LRTR 200230Z 34006KT CAVOK 07/M01 Q1026=
201903200300 METAR LRTR 200300Z 34008KT CAVOK 07/M01 Q1026=
201903200330 METAR LRTR 200330Z 34008KT CAVOK 07/M01 Q1026=
201903200400 METAR LRTR 200400Z 35010KT CAVOK 07/M01 Q1026=
201903200430 METAR LRTR 200430Z 35010KT CAVOK 07/M01 Q1027=
201903200500 METAR LRTR 200500Z 34009KT CAVOK 07/M01 Q1027=
201903200530 METAR LRTR 200530Z 36008KT CAVOK 07/M01 Q1027=
201903200600 METAR LRTR 200600Z 35012KT CAVOK 06/M01 Q1027=
201903200630 METAR LRTR 200630Z 35012KT CAVOK 07/M01 Q1028=
201903200700 METAR LRTR 200700Z 35011KT CAVOK 07/M01 Q1028=
201903200730 METAR LRTR 200730Z 36009KT CAVOK 07/M01 Q1028=
201903200800 METAR LRTR 200800Z 06005KT 360V100 CAVOK 08/M00 Q1029=
201903200830 METAR LRTR 200830Z 04007KT CAVOK 08/M01 Q1029=
201903200900 METAR LRTR 200900Z 03008KT CAVOK 09/00 Q1029=
201903200930 METAR LRTR 200930Z 03010KT CAVOK 10/M00 Q1029=
201903201000 METAR LRTR 201000Z 01013KT CAVOK 10/M01 Q1029=
201903201030 METAR LRTR 201030Z 02012KT CAVOK 11/M01 Q1030=
201903201100 METAR LRTR 201100Z 01013KT CAVOK 11/M01 Q1030=
201903201130 METAR LRTR 201130Z 03012KT CAVOK 11/M02 Q1030=
201903201200 METAR LRTR 201200Z 03011KT CAVOK 11/M00 Q1029=
201903201230 METAR LRTR 201230Z 02012KT CAVOK 11/M01 Q1029=
201903201300 METAR LRTR 201300Z 03010KT CAVOK 11/M02 Q1029=
201903201330 METAR LRTR 201330Z 03010KT CAVOK 11/M03 Q1029=
201903201400 METAR LRTR 201400Z 04010KT CAVOK 12/M02 Q1029=
201903201430 METAR LRTR 201430Z 03008KT CAVOK 12/M03 Q1030=
201903201500 METAR LRTR 201500Z 13006KT CAVOK 11/01 Q1030=
201903201530 METAR LRTR 201530Z 14004KT CAVOK 10/02 Q1030=
201903201600 METAR LRTR 201600Z 14004KT CAVOK 10/03 Q1030=
201903201630 METAR LRTR 201630Z 11004KT CAVOK 08/04 Q1031=
201903201700 METAR LRTR 201700Z 12005KT CAVOK 08/05 Q1031 NOSIG=
201903201730 METAR LRTR 201730Z 11005KT CAVOK 07/05 Q1031 NOSIG=
201903201800 METAR LRTR 201800Z 12005KT CAVOK 07/04 Q1031 NOSIG=
201903201830 METAR LRTR 201830Z 09003KT 050V130 CAVOK 06/04 Q1031 NOSIG=
201903201900 METAR LRTR 201900Z 07003KT 040V110 CAVOK 05/04 Q1032 NOSIG=
201903201930 METAR LRTR 201930Z VRB02KT CAVOK 05/04 Q1032 NOSIG=
201903202000 METAR LRTR 202000Z 36003KT CAVOK 05/04 Q1032 NOSIG=
201903202030 METAR LRTR 202030Z 03003KT CAVOK 04/02 Q1032 NOSIG=
201903202100 METAR LRTR 202100Z 05003KT CAVOK 03/01 Q1032 NOSIG=
201903202130 METAR LRTR 202130Z 35002KT CAVOK 04/M01 Q1032 NOSIG=
201903202200 METAR LRTR 202200Z 35006KT CAVOK 03/M02 Q1032 NOSIG=
201903202230 METAR LRTR 202230Z 01008KT CAVOK 04/M03 Q1032 NOSIG=
201903202300 METAR LRTR 202300Z 01007KT CAVOK 03/M03 Q1033 NOSIG=
201903202330 METAR LRTR 202330Z 02009KT CAVOK 03/M03 Q1033 NOSIG=
201903210000 METAR LRTR 210000Z 02007KT CAVOK 03/M02 Q1033 NOSIG=
201903210030 METAR LRTR 210030Z 05004KT 020V120 CAVOK 02/M03 Q1033 NOSIG=
201903210100 METAR LRTR 210100Z 00000KT CAVOK 02/M03 Q1033 NOSIG=
201903210130 METAR LRTR 210130Z 10004KT 030V130 CAVOK 03/M03 Q1033 NOSIG=
201903210200 METAR LRTR 210200Z 05004KT CAVOK 02/M03 Q1033 NOSIG=
201903210230 METAR LRTR 210230Z 02004KT CAVOK 02/M02 Q1033 NOSIG=
201903210300 METAR LRTR 210300Z 36006KT CAVOK 02/M03 Q1033 NOSIG=
201903210330 METAR LRTR 210330Z 36003KT 300V040 CAVOK 02/M03 Q1033 NOSIG=
201903210400 METAR LRTR 210400Z 02007KT CAVOK 01/M02 Q1033 NOSIG=
201903210430 METAR LRTR 210430Z 02010KT CAVOK 02/M02 Q1033 NOSIG=
201903210500 METAR LRTR 210500Z 02009KT CAVOK 01/M02 Q1033 NOSIG=
201903210530 METAR LRTR 210530Z 36010KT CAVOK 02/M02 Q1034 NOSIG=
201903210600 METAR LRTR 210600Z 02010KT CAVOK 03/M02 Q1034 NOSIG=
201903210630 METAR LRTR 210630Z 01011KT CAVOK 05/M01 Q1034 NOSIG=
201903210700 METAR LRTR 210700Z 01012KT CAVOK 07/M02 Q1034 NOSIG=
201903210730 METAR LRTR 210730Z 02011KT CAVOK 09/M02 Q1034 NOSIG=
201903210800 METAR LRTR 210800Z 02011KT CAVOK 10/M03 Q1034 NOSIG=
201903210830 METAR LRTR 210830Z 02011KT CAVOK 11/M03 Q1034 NOSIG=
201903210900 METAR LRTR 210900Z 01012KT CAVOK 11/M05 Q1034 NOSIG=
201903210930 METAR LRTR 210930Z 01014KT CAVOK 12/M05 Q1034 NOSIG=
201903211000 METAR LRTR 211000Z 01014KT CAVOK 12/M04 Q1034 NOSIG=
201903211030 METAR LRTR 211030Z 01012KT 340V050 CAVOK 12/M05 Q1034 NOSIG=
201903211100 METAR LRTR 211100Z 36011KT CAVOK 13/M05 Q1034 NOSIG=
201903211130 METAR LRTR 211130Z 01011KT 9999 3000SW FU NSC 13/M03 Q1034
                        NOSIG=
201903211200 METAR LRTR 211200Z 01012KT CAVOK 13/M06 Q1033 NOSIG=
201903211230 METAR LRTR 211230Z 01009KT 340V040 CAVOK 13/M04 Q1033 NOSIG=
201903211300 METAR LRTR 211300Z 34011KT CAVOK 14/M04 Q1033 NOSIG=
201903211330 METAR LRTR 211330Z 34011KT CAVOK 14/M06 Q1032 NOSIG=
201903211400 METAR LRTR 211400Z 33010KT 300V360 CAVOK 13/M06 Q1032 NOSIG=
201903211430 METAR LRTR 211430Z 35009KT 330V030 CAVOK 14/M04 Q1032 NOSIG=
201903211500 METAR LRTR 211500Z 35009KT 320V020 CAVOK 13/M06 Q1032 NOSIG=
201903211530 METAR LRTR 211530Z 34009KT CAVOK 13/M05 Q1032 NOSIG=
201903211600 METAR LRTR 211600Z 36008KT CAVOK 13/M05 Q1032 NOSIG=
201903211630 METAR LRTR 211630Z 01005KT CAVOK 11/M04 Q1032 NOSIG=
201903211700 METAR LRTR 211700Z 05003KT CAVOK 09/M04 Q1032 NOSIG=
201903211730 METAR LRTR 211730Z AUTO 03004KT 9999 NCD 08/M04 Q1032 NOSIG=
201903211800 METAR LRTR 211800Z 35004KT CAVOK 07/M04 Q1032=
201903211830 METAR LRTR 211830Z 33002KT CAVOK 07/M04 Q1032=
201903211900 METAR LRTR 211900Z 35003KT CAVOK 06/M04 Q1032=
201903211930 METAR LRTR 211930Z 01004KT CAVOK 05/M04 Q1032=
201903212000 METAR LRTR 212000Z 36005KT CAVOK 03/M04 Q1032=
201903212030 METAR LRTR 212030Z 03005KT CAVOK 04/M04 Q1032=
201903212100 METAR LRTR 212100Z 36006KT CAVOK 06/M05 Q1032=
201903212130 METAR LRTR 212130Z 36005KT CAVOK 04/M04 Q1032=
201903212200 METAR LRTR 212200Z 35003KT CAVOK 03/M04 Q1032=
201903212230 METAR LRTR 212230Z 33003KT CAVOK 02/M04 Q1032=
201903212300 METAR LRTR 212300Z 29005KT CAVOK 00/M03 Q1032=
201903212330 METAR LRTR 212330Z 31005KT CAVOK 01/M04 Q1032=
201903220000 METAR LRTR 220000Z VRB01KT CAVOK 01/M04 Q1032=
201903220030 METAR LRTR 220030Z 04003KT CAVOK 02/M04 Q1032=
201903220100 METAR LRTR 220100Z 07003KT CAVOK 02/M04 Q1032=
201903220130 METAR COR LRTR 220130Z 11004KT CAVOK 00/M04 Q1032=
201903220200 METAR LRTR 220200Z 12004KT CAVOK 00/M03 Q1031=
201903220230 METAR LRTR 220230Z 07003KT CAVOK M00/M03 Q1032=
201903220300 METAR LRTR 220300Z 08004KT CAVOK 01/M02 Q1032=
201903220330 METAR LRTR 220330Z 08003KT CAVOK 00/M02 Q1032=
201903220400 METAR LRTR 220400Z 00000KT CAVOK 00/M02 Q1032=
201903220430 METAR LRTR 220430Z 09002KT CAVOK 00/M02 Q1032=
201903220500 METAR LRTR 220500Z 08003KT CAVOK M01/M03 Q1032=
201903220530 METAR LRTR 220530Z 09004KT CAVOK 01/M01 Q1032=
201903220600 METAR LRTR 220600Z 12003KT 080V140 CAVOK 03/M01 Q1032=
201903220630 METAR LRTR 220630Z 14002KT CAVOK 04/M00 Q1032=
201903220700 METAR LRTR 220700Z VRB02KT CAVOK 07/M00 Q1032=
201903220730 METAR LRTR 220730Z VRB01KT CAVOK 09/M01 Q1032=
201903220800 METAR LRTR 220800Z VRB02KT CAVOK 11/M02 Q1032=
201903220830 METAR LRTR 220830Z VRB01KT CAVOK 12/M01 Q1032=
201903220900 METAR LRTR 220900Z 29003KT 170V330 CAVOK 13/M02 Q1031=
201903220930 METAR LRTR 220930Z 36006KT 320V040 CAVOK 15/M02 Q1031=
201903221000 METAR LRTR 221000Z 01008KT 320V030 CAVOK 15/M03 Q1031=
201903221030 METAR LRTR 221030Z 36009KT CAVOK 16/M02 Q1031=
201903221100 METAR LRTR 221100Z 01009KT CAVOK 16/M02 Q1031=
201903221130 METAR LRTR 221130Z 36010KT CAVOK 17/M02 Q1030=
201903221200 METAR LRTR 221200Z 35008KT 330V030 CAVOK 17/M03 Q1030=
201903221230 METAR LRTR 221230Z 01010KT CAVOK 17/M02 Q1029=
201903221300 METAR LRTR 221300Z 01011KT CAVOK 17/M01 Q1029=
201903221330 METAR LRTR 221330Z 35010KT CAVOK 17/M03 Q1028=
201903221400 METAR LRTR 221400Z 33010KT CAVOK 18/M01 Q1028=
201903221430 METAR LRTR 221430Z 35010KT 320V020 CAVOK 17/M01 Q1028=
201903221500 METAR LRTR 221500Z 01010KT CAVOK 17/01 Q1028=
201903221530 METAR LRTR 221530Z 36011KT CAVOK 17/01 Q1028=
201903221600 METAR LRTR 221600Z 35010KT CAVOK 16/01 Q1028=
201903221630 METAR LRTR 221630Z 02009KT CAVOK 15/02 Q1028=
201903221700 METAR LRTR 221700Z 36005KT CAVOK 13/02 Q1028=
201903221730 METAR LRTR 221730Z 01004KT CAVOK 12/02 Q1028 NOSIG=
201903221800 METAR LRTR 221800Z 35006KT CAVOK 10/01 Q1027 NOSIG=
201903221830 METAR LRTR 221830Z 34002KT CAVOK 10/02 Q1028 NOSIG=
201903221900 METAR LRTR 221900Z 30005KT CAVOK 08/02 Q1027 NOSIG=
201903221930 METAR LRTR 221930Z 30003KT 270V330 CAVOK 06/02 Q1027 NOSIG=
201903222000 METAR LRTR 222000Z 33005KT CAVOK 08/03 Q1028 NOSIG=
201903222030 METAR LRTR 222030Z VRB01KT CAVOK 09/04 Q1028 NOSIG=
201903222100 METAR LRTR 222100Z VRB02KT CAVOK 09/04 Q1027 NOSIG=
201903222130 METAR LRTR 222130Z VRB01KT CAVOK 09/05 Q1027 NOSIG=
201903222200 METAR LRTR 222200Z VRB02KT CAVOK 09/05 Q1027 NOSIG=
201903222230 METAR LRTR 222230Z 02003KT 350V070 CAVOK 09/05 Q1027 NOSIG=
201903222300 METAR LRTR 222300Z 01003KT 340V040 CAVOK 08/04 Q1027 NOSIG=
201903222330 METAR COR LRTR 222330Z 35006KT CAVOK 08/05 Q1027 NOSIG=
201903230000 METAR LRTR 230000Z 36004KT 320V020 CAVOK 08/05 Q1027 NOSIG=
201903230030 METAR LRTR 230030Z VRB01KT CAVOK 08/05 Q1027 NOSIG=
201903230100 METAR LRTR 230100Z 02005KT CAVOK 07/05 Q1026 NOSIG=
201903230130 METAR LRTR 230130Z 00000KT CAVOK 07/05 Q1026 NOSIG=
201903230200 METAR LRTR 230200Z VRB02KT CAVOK 06/05 Q1026 NOSIG=
201903230230 METAR LRTR 230230Z 01005KT 340V040 CAVOK 05/04 Q1026 NOSIG=
201903230300 METAR LRTR 230300Z 36010KT CAVOK 05/04 Q1026 NOSIG=
201903230330 METAR LRTR 230330Z 01011KT CAVOK 05/04 Q1026 NOSIG=
201903230400 METAR LRTR 230400Z 01012KT CAVOK 05/04 Q1026 NOSIG=
201903230430 METAR LRTR 230430Z 02009KT CAVOK 05/04 Q1026 NOSIG=
201903230500 METAR LRTR 230500Z 02003KT CAVOK 05/04 Q1026 NOSIG=
201903230530 METAR LRTR 230530Z 03004KT 010V070 CAVOK 06/05 Q1026 NOSIG=
201903230600 METAR LRTR 230600Z 06003KT 360V120 CAVOK 07/05 Q1026 NOSIG=
201903230630 METAR LRTR 230630Z 08004KT 040V130 CAVOK 08/06 Q1026 NOSIG=
201903230700 METAR LRTR 230700Z 02006KT 350V060 CAVOK 09/06 Q1026 NOSIG=
201903230730 METAR LRTR 230730Z 03006KT CAVOK 11/07 Q1026 NOSIG=
201903230800 METAR LRTR 230800Z 01007KT CAVOK 12/06 Q1026 NOSIG=
201903230830 METAR LRTR 230830Z 36007KT CAVOK 13/06 Q1026 NOSIG=
201903230900 METAR LRTR 230900Z 34007KT CAVOK 15/07 Q1026 NOSIG=
201903230930 METAR LRTR 230930Z 01008KT 330V030 CAVOK 16/06 Q1026 NOSIG=
201903231000 METAR LRTR 231000Z 35008KT CAVOK 16/05 Q1026 NOSIG=
201903231030 METAR LRTR 231030Z 35010KT 320V020 CAVOK 16/04 Q1025 NOSIG=
201903231100 METAR LRTR 231100Z 36011KT CAVOK 17/03 Q1025 NOSIG=
201903231130 METAR LRTR 231130Z 02014KT CAVOK 18/03 Q1025 NOSIG=
201903231200 METAR COR LRTR 231200Z 36012KT 330V030 CAVOK 19/M01 Q1025
                        NOSIG=
201903231230 METAR LRTR 231230Z 34012KT 310V010 CAVOK 19/M02 Q1024 NOSIG=
201903231300 METAR LRTR 231300Z 34013KT CAVOK 19/M04 Q1024 NOSIG=
201903231330 METAR LRTR 231330Z 34013KT 310V010 CAVOK 19/M06 Q1024 NOSIG=
201903231400 METAR LRTR 231400Z 34015KT CAVOK 19/M05 Q1023 NOSIG=
201903231430 METAR LRTR 231430Z 35014KT CAVOK 19/M02 Q1023 NOSIG=
201903231500 METAR LRTR 231500Z 35012KT CAVOK 19/M02 Q1023 NOSIG=
201903231530 METAR LRTR 231530Z 35011KT CAVOK 19/M03 Q1023 NOSIG=
201903231600 METAR LRTR 231600Z 35011KT CAVOK 18/M03 Q1023 NOSIG=
201903231630 METAR LRTR 231630Z 34009KT CAVOK 17/M02 Q1023 NOSIG=
201903231700 METAR LRTR 231700Z 34009KT CAVOK 15/M02 Q1023 NOSIG=
201903231730 METAR LRTR 231730Z 35009KT CAVOK 13/M02 Q1023=
201903231800 METAR LRTR 231800Z 34006KT CAVOK 12/M01 Q1023=
201903231830 METAR LRTR 231830Z 33006KT CAVOK 12/M01 Q1023=
201903231900 METAR LRTR 231900Z 34004KT 310V010 CAVOK 12/M01 Q1023=
201903231930 METAR LRTR 231930Z 35009KT CAVOK 11/M02 Q1023=
201903232000 METAR LRTR 232000Z 35009KT CAVOK 11/M02 Q1023=
201903232030 METAR LRTR 232030Z 36007KT CAVOK 10/M02 Q1023=
201903232100 METAR LRTR 232100Z 36010KT CAVOK 09/M03 Q1023=
201903232130 METAR LRTR 232130Z 01006KT CAVOK 09/M03 Q1024=
201903232200 METAR LRTR 232200Z 11003KT 070V140 CAVOK 07/M03 Q1024=
201903232230 METAR LRTR 232230Z 09004KT CAVOK 08/M03 Q1023=
201903232300 METAR LRTR 232300Z 04005KT CAVOK 06/M03 Q1023=
201903232330 METAR LRTR 232330Z 05006KT CAVOK 06/M04 Q1023=
201903240000 METAR LRTR 240000Z 03006KT CAVOK 07/M04 Q1023=
201903240030 METAR LRTR 240030Z 11003KT 050V170 CAVOK 07/M04 Q1023=
201903240100 METAR LRTR 240100Z 13006KT CAVOK 05/M05 Q1023=
201903240130 METAR LRTR 240130Z 16005KT CAVOK 03/M05 Q1023=
201903240200 METAR LRTR 240200Z 06002KT CAVOK 02/M04 Q1023=
201903240230 METAR LRTR 240230Z 07003KT CAVOK 03/M04 Q1023=
201903240300 METAR LRTR 240300Z 04003KT CAVOK M00/M04 Q1023=
201903240330 METAR LRTR 240330Z 07006KT CAVOK M00/M05 Q1023=
201903240400 METAR LRTR 240400Z 14005KT CAVOK 01/M03 Q1023=
201903240430 METAR LRTR 240430Z 14007KT CAVOK 00/M02 Q1023=
201903240500 METAR LRTR 240500Z 11008KT CAVOK 01/M01 Q1023=
201903240530 METAR LRTR 240530Z 09004KT CAVOK 02/M01 Q1024=
201903240600 METAR LRTR 240600Z 11006KT CAVOK 04/00 Q1024=
201903240630 METAR LRTR 240630Z 12005KT CAVOK 06/00 Q1024=
201903240700 METAR LRTR 240700Z 12006KT CAVOK 08/00 Q1024=
201903240730 METAR LRTR 240730Z 14004KT CAVOK 10/00 Q1024=
201903240800 METAR LRTR 240800Z 19006KT 160V220 CAVOK 12/01 Q1024=
201903240830 METAR LRTR 240830Z 22006KT CAVOK 14/00 Q1024=
201903240900 METAR COR LRTR 240900Z 24003KT 200V290 CAVOK 15/M01 Q1023=
201903240930 METAR LRTR 240930Z VRB02KT CAVOK 17/M01 Q1023=
201903241000 METAR COR LRTR 241000Z VRB02KT CAVOK 17/M01 Q1023=
201903241030 METAR COR LRTR 241030Z VRB03KT CAVOK 18/M00 Q1022=
201903241100 METAR LRTR 241100Z VRB03KT CAVOK 18/01 Q1022=
201903241130 METAR LRTR 241130Z 29004KT 210V350 CAVOK 19/M01 Q1021=
201903241200 METAR LRTR 241200Z VRB04KT CAVOK 19/M02 Q1021=
201903241230 METAR LRTR 241230Z 30004KT 240V360 CAVOK 19/M03 Q1020=
201903241300 METAR LRTR 241300Z 34004KT 260V020 CAVOK 20/M00 Q1020=
201903241330 METAR LRTR 241330Z 32004KT 230V010 CAVOK 20/M02 Q1019=
201903241400 METAR LRTR 241400Z 30005KT 260V340 CAVOK 20/M01 Q1019=
201903241430 METAR LRTR 241430Z 28008KT CAVOK 20/M02 Q1018=
201903241500 METAR LRTR 241500Z VRB02KT CAVOK 21/M01 Q1018=
201903241530 METAR LRTR 241530Z 26004KT CAVOK 20/M01 Q1018=
201903241600 METAR LRTR 241600Z VRB01KT CAVOK 19/M00 Q1018=
201903241630 METAR LRTR 241630Z 18004KT CAVOK 18/M01 Q1017=
201903241700 METAR LRTR 241700Z 17006KT CAVOK 17/M02 Q1017 NOSIG=
201903241730 METAR LRTR 241730Z 17004KT CAVOK 16/M02 Q1017 NOSIG=
201903241800 METAR LRTR 241800Z 18004KT CAVOK 15/M02 Q1017 NOSIG=
201903241830 METAR LRTR 241830Z 10003KT CAVOK 11/M02 Q1017 NOSIG=
201903241900 METAR LRTR 241900Z 09004KT CAVOK 09/M02 Q1017 NOSIG=
201903241930 METAR LRTR 241930Z 09005KT CAVOK 09/M01 Q1017 NOSIG=
201903242000 METAR LRTR 242000Z 08004KT CAVOK 08/M02 Q1017 NOSIG=
201903242030 METAR LRTR 242030Z 09003KT CAVOK 08/M02 Q1016 NOSIG=
201903242100 METAR LRTR 242100Z 12005KT CAVOK 09/M02 Q1016 NOSIG=
201903242130 METAR LRTR 242130Z 13004KT CAVOK 08/M02 Q1016 NOSIG=
201903242200 METAR LRTR 242200Z 10006KT CAVOK 08/M02 Q1016 NOSIG=
201903242230 METAR LRTR 242230Z 10006KT CAVOK 06/M02 Q1015 NOSIG=
201903242300 METAR LRTR 242300Z 11008KT CAVOK 04/M02 Q1015 NOSIG=
201903242330 METAR LRTR 242330Z 10007KT CAVOK 04/M01 Q1015 NOSIG=
201903250000 METAR LRTR 250000Z 09006KT CAVOK 04/M01 Q1015 NOSIG=
201903250030 METAR LRTR 250030Z 10005KT CAVOK 04/M01 Q1015 NOSIG=
201903250100 METAR LRTR 250100Z 10006KT CAVOK 04/M01 Q1014 NOSIG=
201903250130 METAR LRTR 250130Z 10005KT CAVOK 03/M02 Q1014 NOSIG=
201903250200 METAR LRTR 250200Z 11006KT CAVOK 03/M02 Q1014 NOSIG=
201903250230 METAR LRTR 250230Z 11006KT CAVOK 03/M02 Q1014 NOSIG=
201903250300 METAR LRTR 250300Z 11006KT CAVOK 02/M01 Q1013 NOSIG=
201903250330 METAR LRTR 250330Z 13005KT CAVOK 03/M01 Q1013 NOSIG=
201903250400 METAR LRTR 250400Z 10005KT CAVOK 02/M01 Q1013 NOSIG=
201903250430 METAR LRTR 250430Z 11004KT CAVOK 02/M01 Q1013 NOSIG=
201903250500 METAR LRTR 250500Z 12003KT CAVOK 03/M01 Q1013 NOSIG=
201903250530 METAR LRTR 250530Z 12007KT CAVOK 05/M01 Q1013 NOSIG=
201903250600 METAR LRTR 250600Z 12007KT CAVOK 06/00 Q1012 NOSIG=
201903250630 METAR LRTR 250630Z 10005KT CAVOK 08/00 Q1013 NOSIG=
201903250700 METAR LRTR 250700Z VRB02KT CAVOK 10/M02 Q1013 NOSIG=
201903250730 METAR LRTR 250730Z 20004KT 160V240 CAVOK 11/M02 Q1013 NOSIG=
201903250800 METAR LRTR 250800Z 30007KT 270V330 CAVOK 12/01 Q1013 NOSIG=
201903250830 METAR LRTR 250830Z 31006KT 280V340 CAVOK 15/03 Q1013 NOSIG=
201903250900 METAR LRTR 250900Z 33011KT CAVOK 16/03 Q1013 NOSIG=
201903250930 METAR LRTR 250930Z 34010KT CAVOK 17/02 Q1013 NOSIG=
201903251000 METAR LRTR 251000Z 32013KT CAVOK 17/03 Q1012 NOSIG=
201903251030 METAR LRTR 251030Z 32016KT CAVOK 18/M00 Q1012 NOSIG=
201903251100 METAR LRTR 251100Z 32016KT CAVOK 18/M00 Q1012 NOSIG=
201903251130 METAR LRTR 251130Z 32015KT CAVOK 19/00 Q1012 NOSIG=
201903251200 METAR LRTR 251200Z 31013KT CAVOK 18/00 Q1012 NOSIG=
201903251230 METAR LRTR 251230Z 33017KT CAVOK 18/00 Q1011 NOSIG=
201903251300 METAR LRTR 251300Z 33017KT CAVOK 16/00 Q1011 NOSIG=
201903251330 METAR LRTR 251330Z 34010KT CAVOK 15/00 Q1011 NOSIG=
201903251400 METAR LRTR 251400Z 34008KT CAVOK 15/01 Q1011 NOSIG=
201903251430 METAR LRTR 251430Z 33013KT CAVOK 15/03 Q1011 NOSIG=
201903251500 METAR LRTR 251500Z 33011KT CAVOK 15/02 Q1011 NOSIG=
201903251530 METAR LRTR 251530Z 35013KT CAVOK 14/00 Q1011 NOSIG=
201903251600 METAR LRTR 251600Z 35012KT CAVOK 14/00 Q1011 NOSIG=
201903251630 METAR LRTR 251630Z 34011KT CAVOK 13/00 Q1011 NOSIG=
201903251700 METAR LRTR 251700Z 34006KT CAVOK 13/01 Q1010=
201903251730 METAR LRTR 251730Z 34005KT CAVOK 12/01 Q1011=
201903251800 METAR LRTR 251800Z 32007KT CAVOK 11/01 Q1011=
201903251830 METAR LRTR 251830Z 32009KT CAVOK 12/01 Q1011=
201903251900 METAR LRTR 251900Z 34010KT 9999 -SHRA FEW045CB 12/M00 Q1011=
201903251930 METAR LRTR 251930Z 33012KT 9999 -SHRA FEW040CB 11/01 Q1012=
201903252000 METAR LRTR 252000Z 34011KT 9999 FEW045 11/01 Q1012=
201903252030 METAR LRTR 252030Z 32005KT 9999 FEW045CB 11/01 Q1012=
201903252100 METAR LRTR 252100Z 32007KT 9999 FEW048 11/00 Q1012=
201903252130 METAR LRTR 252130Z 31012KT 9999 FEW048 11/M00 Q1013=
201903252200 METAR COR LRTR 252200Z 32008KT 9999 FEW048 10/M01 Q1013=
201903252230 METAR LRTR 252230Z 34009KT CAVOK 10/M01 Q1013=
201903252300 METAR LRTR 252300Z 33008KT CAVOK 09/M01 Q1014=
201903252330 METAR LRTR 252330Z 34006KT CAVOK 09/M01 Q1014=
201903260000 METAR COR LRTR 260000Z 35008KT CAVOK 09/M02 Q1014=
201903260030 METAR LRTR 260030Z 34010KT CAVOK 09/M02 Q1014=
201903260100 METAR LRTR 260100Z 01015KT CAVOK 08/M01 Q1015=
201903260130 METAR LRTR 260130Z 36012KT CAVOK 08/M01 Q1014=
201903260200 METAR COR LRTR 260200Z 34011KT CAVOK 07/M01 Q1015=
201903260230 METAR LRTR 260230Z 33012KT CAVOK 07/M01 Q1015=
201903260300 METAR LRTR 260300Z 33012KT CAVOK 06/M01 Q1015=
201903260330 METAR LRTR 260330Z 34008KT CAVOK 06/M01 Q1016=
201903260400 METAR LRTR 260400Z 34007KT CAVOK 05/M01 Q1016=
201903260430 METAR COR LRTR 260430Z 34004KT CAVOK 03/M01 Q1017=
201903260500 METAR LRTR 260500Z 33005KT CAVOK 03/M01 Q1017=
201903260530 METAR LRTR 260530Z 32005KT CAVOK 04/M00 Q1018=
201903260600 METAR LRTR 260600Z 34010KT CAVOK 06/00 Q1018=
201903260630 METAR LRTR 260630Z 36014KT CAVOK 07/M01 Q1018=
201903260700 METAR LRTR 260700Z 01014KT CAVOK 07/M01 Q1019=
201903260730 METAR LRTR 260730Z 36014KT CAVOK 08/M00 Q1019=
201903260800 METAR LRTR 260800Z 36014KT CAVOK 08/M01 Q1019=
201903260830 METAR LRTR 260830Z 01011KT CAVOK 08/M01 Q1020=
201903260900 METAR LRTR 260900Z 36013KT CAVOK 09/M01 Q1020=
201903260930 METAR LRTR 260930Z 01012KT 9999 FEW035 10/M01 Q1020=
201903261000 METAR LRTR 261000Z 01012KT 9999 SCT042 10/M02 Q1020=
201903261030 METAR LRTR 261030Z 01013KT 9999 SCT045 10/M02 Q1020=
201903261100 METAR LRTR 261100Z 35011KT 9999 SCT048 11/M03 Q1020=
201903261130 METAR LRTR 261130Z 35012KT 9999 BKN048 11/M02 Q1020=
201903261200 METAR LRTR 261200Z 36010KT 330V040 CAVOK 11/M04 Q1020=
201903261230 METAR LRTR 261230Z 35010KT 310V020 CAVOK 12/M02 Q1020=
201903261300 METAR LRTR 261300Z 36012KT CAVOK 12/M03 Q1019=
201903261330 METAR LRTR 261330Z 35009KT 330V030 CAVOK 13/M04 Q1019=
201903261400 METAR LRTR 261400Z 35010KT CAVOK 13/M05 Q1019=
201903261430 METAR LRTR 261430Z 33011KT CAVOK 13/M05 Q1019=
201903261500 METAR LRTR 261500Z 34009KT CAVOK 12/M05 Q1019=
201903261530 METAR LRTR 261530Z 35013KT CAVOK 12/M06 Q1019=
201903261600 METAR LRTR 261600Z 33009KT CAVOK 11/M05 Q1020=
201903261630 METAR LRTR 261630Z 34006KT CAVOK 10/M05 Q1020=
201903261700 METAR LRTR 261700Z 36005KT CAVOK 08/M05 Q1020=
201903261730 METAR LRTR 261730Z 34005KT CAVOK 07/M05 Q1020=
201903261800 METAR LRTR 261800Z 36004KT CAVOK 06/M05 Q1020=
201903261830 METAR LRTR 261830Z 03004KT CAVOK 04/M05 Q1021=
201903261900 METAR LRTR 261900Z 04004KT CAVOK 03/M05 Q1021=
201903261930 METAR LRTR 261930Z 06002KT CAVOK 03/M04 Q1021=
201903262000 METAR LRTR 262000Z 01003KT CAVOK 03/M05 Q1021=
201903262030 METAR LRTR 262030Z 00000KT CAVOK 02/M04 Q1021=
201903262100 METAR LRTR 262100Z 28005KT 260V320 CAVOK 02/M04 Q1022=
201903262130 METAR LRTR 262130Z 31008KT CAVOK 03/M05 Q1022=
201903262200 METAR LRTR 262200Z 33008KT CAVOK 02/M05 Q1023=
201903262230 METAR LRTR 262230Z 32006KT CAVOK 02/M05 Q1023=
201903262300 METAR LRTR 262300Z 31005KT CAVOK 01/M05 Q1023=
201903262330 METAR LRTR 262330Z 30005KT CAVOK 01/M05 Q1023=
201903270000 METAR LRTR 270000Z 28004KT CAVOK 01/M04 Q1023=
201903270030 METAR LRTR 270030Z 29005KT CAVOK M00/M04 Q1023=
201903270100 METAR LRTR 270100Z 27006KT CAVOK M01/M04 Q1022=
201903270130 METAR LRTR 270130Z 27007KT CAVOK M01/M04 Q1022=
201903270200 METAR LRTR 270200Z 28006KT CAVOK M01/M04 Q1023=
201903270230 METAR LRTR 270230Z 30006KT CAVOK M02/M05 Q1023=
201903270300 METAR LRTR 270300Z 30005KT CAVOK M03/M05 Q1023=
201903270330 METAR LRTR 270330Z 27003KT CAVOK M02/M05 Q1023=
201903270400 METAR LRTR 270400Z 34003KT CAVOK M03/M05 Q1024=
201903270430 METAR LRTR 270430Z 32004KT CAVOK M02/M05 Q1024=
201903270500 METAR LRTR 270500Z 31005KT CAVOK M02/M04 Q1024 NOSIG=
201903270530 METAR LRTR 270530Z 27003KT 240V310 CAVOK M00/M03 Q1024 NOSIG=
201903270600 METAR LRTR 270600Z 34005KT 310V010 CAVOK 02/M03 Q1024 NOSIG=
201903270630 METAR LRTR 270630Z VRB02KT CAVOK 04/M03 Q1025 NOSIG=
201903270700 METAR LRTR 270700Z 06006KT 020V110 CAVOK 07/M02 Q1025 NOSIG=
201903270730 METAR LRTR 270730Z 06007KT 030V100 CAVOK 08/M03 Q1025 NOSIG=
201903270800 METAR LRTR 270800Z 03011KT CAVOK 10/M05 Q1025 NOSIG=
201903270830 METAR LRTR 270830Z 02010KT CAVOK 10/M04 Q1026 NOSIG=
201903270900 METAR LRTR 270900Z 02011KT 9999 FEW048 10/M06 Q1026 NOSIG=
201903270930 METAR LRTR 270930Z 01010KT 9999 FEW048 11/M06 Q1026 NOSIG=
201903271000 METAR LRTR 271000Z 36011KT CAVOK 11/M07 Q1026 NOSIG=
201903271030 METAR LRTR 271030Z 01010KT 350V050 CAVOK 12/M05 Q1026 NOSIG=
201903271100 METAR LRTR 271100Z 36012KT 320V030 CAVOK 12/M06 Q1026 NOSIG=
201903271130 METAR LRTR 271130Z 35013KT CAVOK 12/M06 Q1025 NOSIG=
201903271200 METAR LRTR 271200Z 35013KT CAVOK 12/M06 Q1025 NOSIG=
201903271230 METAR LRTR 271230Z 35013KT CAVOK 13/M07 Q1025 NOSIG=
201903271300 METAR LRTR 271300Z 35014KT CAVOK 12/M10 Q1025 NOSIG=
201903271330 METAR LRTR 271330Z 35015KT CAVOK 12/M13 Q1025 NOSIG=
201903271400 METAR LRTR 271400Z 36014KT CAVOK 12/M13 Q1025 NOSIG=
201903271430 METAR LRTR 271430Z 36015KT CAVOK 11/M14 Q1025 NOSIG=
201903271500 METAR LRTR 271500Z 35014KT CAVOK 12/M14 Q1025 NOSIG=
201903271530 METAR LRTR 271530Z 36014KT CAVOK 11/M14 Q1025 NOSIG=
201903271600 METAR LRTR 271600Z 35015KT CAVOK 11/M17 Q1025 NOSIG=
201903271630 METAR LRTR 271630Z 35013KT CAVOK 10/M16 Q1026 NOSIG=
201903271700 METAR LRTR 271700Z 35011KT CAVOK 08/M15 Q1026 NOSIG=
201903271730 METAR LRTR 271730Z 36012KT CAVOK 07/M14 Q1026=
201903271800 METAR COR LRTR 271800Z 36013KT CAVOK 06/M13 Q1027=
201903271830 METAR LRTR 271830Z 01013KT CAVOK 06/M12 Q1027=
201903271900 METAR LRTR 271900Z 01012KT CAVOK 06/M12 Q1027=
201903271930 METAR LRTR 271930Z 02011KT CAVOK 05/M12 Q1027=
201903272000 METAR LRTR 272000Z 01011KT CAVOK 04/M11 Q1027=
201903272030 METAR COR LRTR 272030Z 02008KT CAVOK 04/M12 Q1028=
201903272100 METAR LRTR 272100Z 03011KT CAVOK 03/M12 Q1028=
201903272130 METAR LRTR 272130Z 02007KT CAVOK 01/M12 Q1028=
201903272200 METAR LRTR 272200Z 03005KT CAVOK 01/M12 Q1028=
201903272230 METAR LRTR 272230Z 04008KT CAVOK 01/M12 Q1029=
201903272300 METAR LRTR 272300Z 03010KT CAVOK 01/M11 Q1028=
201903272330 METAR LRTR 272330Z 02009KT CAVOK 01/M11 Q1028=
201903280000 METAR LRTR 280000Z 03008KT CAVOK 01/M12 Q1029=
201903280030 METAR LRTR 280030Z 07005KT 030V120 CAVOK 00/M12 Q1029=
201903280100 METAR LRTR 280100Z 07005KT CAVOK M01/M13 Q1029=
201903280130 METAR LRTR 280130Z VRB01KT CAVOK M00/M12 Q1029=
201903280200 METAR LRTR 280200Z 02002KT CAVOK 00/M13 Q1029=
201903280230 METAR LRTR 280230Z 02004KT CAVOK M01/M13 Q1029=
201903280300 METAR LRTR 280300Z 05004KT CAVOK M00/M13 Q1029=
201903280330 METAR LRTR 280330Z 02003KT CAVOK M02/M13 Q1029=
201903280400 METAR LRTR 280400Z 03004KT CAVOK M00/M13 Q1029=
201903280430 METAR LRTR 280430Z 08007KT CAVOK M02/M13 Q1029=
201903280500 METAR LRTR 280500Z 13004KT 090V150 CAVOK M02/M11 Q1029=
201903280530 METAR LRTR 280530Z 09003KT CAVOK 00/M10 Q1030=
201903280600 METAR LRTR 280600Z 10005KT CAVOK 02/M09 Q1030=
201903280630 METAR LRTR 280630Z 10005KT CAVOK 02/M09 Q1030=
201903280700 METAR LRTR 280700Z 12008KT CAVOK 06/M09 Q1030=
201903280730 METAR LRTR 280730Z 12009KT CAVOK 07/M08 Q1030=
201903280800 METAR LRTR 280800Z 13008KT CAVOK 08/M09 Q1030=
201903280830 METAR COR LRTR 280830Z 13007KT CAVOK 10/M09 Q1030=
201903280900 METAR LRTR 280900Z 12006KT 070V150 CAVOK 11/M10 Q1030=
201903280930 METAR LRTR 280930Z 12004KT 070V200 CAVOK 12/M11 Q1030=
201903281000 METAR LRTR 281000Z VRB03KT CAVOK 13/M09 Q1030=
201903281030 METAR COR LRTR 281030Z 10007KT 070V140 CAVOK 12/M10 Q1029=
201903281100 METAR LRTR 281100Z VRB03KT CAVOK 13/M08 Q1029=
201903281130 METAR LRTR 281130Z VRB04KT CAVOK 14/M09 Q1029=
201903281200 METAR LRTR 281200Z 31006KT 290V030 CAVOK 14/M09 Q1028=
201903281230 METAR LRTR 281230Z 02008KT 350V070 CAVOK 14/M10 Q1028=
201903281300 METAR LRTR 281300Z 33005KT 280V040 CAVOK 14/M11 Q1028=
201903281330 METAR LRTR 281330Z 04010KT 010V070 CAVOK 16/M10 Q1027=
201903281400 METAR LRTR 281400Z 02012KT CAVOK 15/M10 Q1027=
201903281430 METAR LRTR 281430Z 01010KT CAVOK 15/M10 Q1027=
201903281500 METAR LRTR 281500Z 36010KT 330V040 CAVOK 14/M10 Q1027=
201903281530 METAR LRTR 281530Z 02011KT CAVOK 14/M10 Q1027=
201903281600 METAR LRTR 281600Z 02009KT CAVOK 13/M10 Q1027=
201903281630 METAR LRTR 281630Z 01009KT CAVOK 12/M09 Q1027=
201903281700 METAR LRTR 281700Z 01007KT CAVOK 10/M08 Q1027 NOSIG=
201903281730 METAR LRTR 281730Z 01006KT CAVOK 08/M09 Q1027 NOSIG=
201903281800 METAR LRTR 281800Z 01007KT CAVOK 07/M08 Q1028 NOSIG=
201903281830 METAR LRTR 281830Z 03009KT CAVOK 06/M09 Q1028 NOSIG=
201903281900 METAR LRTR 281900Z 01008KT CAVOK 07/M08 Q1028 NOSIG=
201903281930 METAR LRTR 281930Z 01007KT CAVOK 06/M07 Q1028 NOSIG=
201903282000 METAR LRTR 282000Z 36007KT CAVOK 06/M07 Q1028 NOSIG=
201903282030 METAR LRTR 282030Z 36008KT CAVOK 05/M06 Q1028 NOSIG=
201903282100 METAR LRTR 282100Z 01007KT CAVOK 06/M07 Q1028 NOSIG=
201903282130 METAR LRTR 282130Z 01008KT CAVOK 06/M07 Q1028 NOSIG=
201903282200 METAR LRTR 282200Z 02007KT CAVOK 05/M06 Q1029 NOSIG=
201903282230 METAR LRTR 282230Z 02004KT 350V060 CAVOK 04/M06 Q1029 NOSIG=
201903282300 METAR LRTR 282300Z 02006KT CAVOK 04/M05 Q1029 NOSIG=
201903282330 METAR LRTR 282330Z 09003KT 040V130 CAVOK 04/M05 Q1029 NOSIG=
201903290000 METAR LRTR 290000Z 36005KT CAVOK 04/M05 Q1029 NOSIG=
201903290030 METAR LRTR 290030Z 01007KT CAVOK 03/M05 Q1029 NOSIG=
201903290100 METAR LRTR 290100Z 01012KT CAVOK 04/M04 Q1029 NOSIG=
201903290130 METAR LRTR 290130Z 03007KT CAVOK 03/M04 Q1029 NOSIG=
201903290200 METAR LRTR 290200Z 01012KT CAVOK 03/M04 Q1028 NOSIG=
201903290230 METAR LRTR 290230Z 01013KT CAVOK 04/M04 Q1028 NOSIG=
201903290300 METAR LRTR 290300Z 01011KT CAVOK 03/M03 Q1029 NOSIG=
201903290330 METAR LRTR 290330Z 01012KT CAVOK 03/M03 Q1029 NOSIG=
201903290400 METAR LRTR 290400Z 02012KT CAVOK 03/M02 Q1029 NOSIG=
201903290430 METAR LRTR 290430Z 01012KT CAVOK 03/M02 Q1029 NOSIG=
201903290500 METAR LRTR 290500Z 01012KT CAVOK 03/M01 Q1029 NOSIG=
201903290530 METAR LRTR 290530Z 02007KT 360V060 CAVOK 04/M01 Q1029 NOSIG=
201903290600 METAR LRTR 290600Z 02009KT CAVOK 05/M01 Q1030 NOSIG=
201903290630 METAR LRTR 290630Z 04007KT CAVOK 06/00 Q1030 NOSIG=
201903290700 METAR LRTR 290700Z 02010KT CAVOK 08/00 Q1030 NOSIG=
201903290730 METAR LRTR 290730Z 02012KT CAVOK 10/00 Q1029 NOSIG=
201903290800 METAR LRTR 290800Z 02012KT CAVOK 11/M01 Q1029 NOSIG=
201903290830 METAR LRTR 290830Z 02010KT CAVOK 12/M02 Q1029 NOSIG=
201903290900 METAR LRTR 290900Z 01009KT CAVOK 13/M03 Q1029 NOSIG=
201903290930 METAR LRTR 290930Z 01011KT CAVOK 14/M02 Q1029 NOSIG=
201903291000 METAR LRTR 291000Z 36011KT 330V040 CAVOK 14/M02 Q1029 NOSIG=
201903291030 METAR LRTR 291030Z 33011KT CAVOK 15/M02 Q1029 NOSIG=
201903291100 METAR LRTR 291100Z 35011KT CAVOK 14/M03 Q1028 NOSIG=
201903291130 METAR LRTR 291130Z 35011KT 320V040 CAVOK 15/M04 Q1028 NOSIG=
201903291200 METAR LRTR 291200Z 01013KT CAVOK 16/M05 Q1027 NOSIG=
201903291230 METAR LRTR 291230Z 36012KT CAVOK 16/M03 Q1027 NOSIG=
201903291300 METAR LRTR 291300Z 01013KT 350V050 CAVOK 16/M03 Q1027 NOSIG=
201903291330 METAR LRTR 291330Z 01013KT CAVOK 16/M03 Q1026=
201903291400 METAR LRTR 291400Z 01013KT CAVOK 17/M03 Q1026=
201903291430 METAR LRTR 291430Z 01013KT CAVOK 16/M03 Q1026=
201903291500 METAR LRTR 291500Z 01015KT CAVOK 16/M03 Q1026=
201903291530 METAR LRTR 291530Z 36014KT CAVOK 16/M03 Q1026=
201903291600 METAR LRTR 291600Z 36012KT CAVOK 15/M03 Q1026=
201903291630 METAR LRTR 291630Z 01012KT CAVOK 14/M02 Q1026=
201903291700 METAR LRTR 291700Z 34008KT CAVOK 13/M02 Q1026=
201903291730 METAR LRTR 291730Z 34008KT CAVOK 12/M03 Q1026=
201903291800 METAR LRTR 291800Z 36010KT CAVOK 11/M02 Q1026=
201903291830 METAR COR LRTR 291830Z 36010KT CAVOK 11/M02 Q1026=
201903291900 METAR LRTR 291900Z 01012KT CAVOK 10/M02 Q1026=
201903291930 METAR COR LRTR 291930Z 01006KT CAVOK 09/M02 Q1026=
201903292000 METAR LRTR 292000Z 32005KT CAVOK 10/M02 Q1026=
201903292030 METAR COR LRTR 292030Z VRB02KT CAVOK 08/M02 Q1026=
201903292100 METAR LRTR 292100Z VRB02KT CAVOK 07/M03 Q1026=
201903292130 METAR LRTR 292130Z 02006KT CAVOK 06/M03 Q1026=
201903292200 METAR LRTR 292200Z 01006KT CAVOK 07/M03 Q1026=
201903292230 METAR LRTR 292230Z 36010KT CAVOK 07/M03 Q1025=
201903292300 METAR LRTR 292300Z 36014KT CAVOK 07/M03 Q1025=
201903292330 METAR LRTR 292330Z 01010KT CAVOK 06/M03 Q1025=
201903300000 METAR COR LRTR 300000Z 01009KT CAVOK 06/M03 Q1025=
201903300030 METAR LRTR 300030Z VRB02KT CAVOK 05/M02 Q1026=
201903300100 METAR LRTR 300100Z 01008KT CAVOK 05/M03 Q1025=
201903300130 METAR LRTR 300130Z 01008KT CAVOK 05/M02 Q1025=
201903300200 METAR LRTR 300200Z 01009KT CAVOK 05/M02 Q1025=
201903300230 METAR LRTR 300230Z 06004KT 010V130 CAVOK 06/M02 Q1025=
201903300300 METAR LRTR 300300Z 03007KT CAVOK 05/M02 Q1025=
201903300330 METAR LRTR 300330Z 03004KT 360V060 CAVOK 05/M02 Q1025=
201903300400 METAR LRTR 300400Z 02007KT CAVOK 05/M02 Q1025=
201903300430 METAR LRTR 300430Z 05005KT 020V080 CAVOK 05/M02 Q1025=
201903300500 METAR LRTR 300500Z 08004KT 060V130 CAVOK 03/M02 Q1026=
201903300530 METAR LRTR 300530Z 13003KT CAVOK 04/M00 Q1026=
201903300600 METAR LRTR 300600Z 00000KT CAVOK 07/M01 Q1026=
201903300630 METAR LRTR 300630Z 13003KT CAVOK 07/00 Q1026=
201903300700 METAR LRTR 300700Z 14004KT CAVOK 08/M00 Q1026=
201903300730 METAR LRTR 300730Z VRB02KT CAVOK 10/M00 Q1026=
201903300800 METAR LRTR 300800Z VRB02KT CAVOK 12/01 Q1026=
201903300830 METAR LRTR 300830Z VRB02KT CAVOK 13/01 Q1026=
201903300900 METAR LRTR 300900Z 31004KT 280V360 CAVOK 14/01 Q1026=
201903300930 METAR LRTR 300930Z 35007KT 320V020 CAVOK 16/00 Q1026=
201903301000 METAR LRTR 301000Z 01007KT 340V050 CAVOK 17/M01 Q1025=
201903301030 METAR LRTR 301030Z 01007KT CAVOK 17/M02 Q1025=
201903301100 METAR LRTR 301100Z 36007KT 320V030 CAVOK 18/M02 Q1024=
201903301130 METAR LRTR 301130Z 01008KT 340V040 CAVOK 18/M01 Q1024=
201903301200 METAR LRTR 301200Z 02007KT 340V050 CAVOK 19/M01 Q1023=
201903301230 METAR LRTR 301230Z 36009KT 340V040 CAVOK 20/M00 Q1023=
201903301300 METAR LRTR 301300Z 01009KT 340V050 CAVOK 19/M02 Q1023=
201903301330 METAR LRTR 301330Z 36008KT 310V020 CAVOK 19/M02 Q1022=
201903301400 METAR LRTR 301400Z 36009KT CAVOK 19/M00 Q1022=
201903301430 METAR LRTR 301430Z 35009KT CAVOK 19/M00 Q1022=
201903301500 METAR LRTR 301500Z 34010KT CAVOK 19/M01 Q1022=
201903301530 METAR LRTR 301530Z 35010KT CAVOK 19/M01 Q1021=
201903301600 METAR LRTR 301600Z 35010KT CAVOK 18/M00 Q1021=
201903301630 METAR LRTR 301630Z 35008KT CAVOK 17/M00 Q1021=
201903301700 METAR LRTR 301700Z 01007KT CAVOK 15/M00 Q1021=
201903301730 METAR LRTR 301730Z 36007KT CAVOK 13/M01 Q1021 NOSIG=
201903301800 METAR LRTR 301800Z 01007KT CAVOK 11/M01 Q1021 NOSIG=
201903301830 METAR LRTR 301830Z VRB01KT CAVOK 11/M00 Q1021 NOSIG=
201903301900 METAR LRTR 301900Z 01004KT CAVOK 10/M01 Q1021 NOSIG=
201903301930 METAR LRTR 301930Z 34004KT 280V360 CAVOK 10/M00 Q1021 NOSIG=
201903302000 METAR LRTR 302000Z 33004KT CAVOK 11/00 Q1021 NOSIG=
201903302030 METAR LRTR 302030Z 35005KT CAVOK 09/M00 Q1021 NOSIG=
201903302100 METAR LRTR 302100Z 01005KT CAVOK 09/00 Q1021 NOSIG=
201903302130 METAR LRTR 302130Z 36005KT CAVOK 09/M00 Q1021 NOSIG=
201903302200 METAR LRTR 302200Z 02004KT CAVOK 08/00 Q1021 NOSIG=
201903302230 METAR LRTR 302230Z 04004KT CAVOK 07/M00 Q1021 NOSIG=
201903302300 METAR LRTR 302300Z 02003KT CAVOK 05/M01 Q1021 NOSIG=
201903302330 METAR LRTR 302330Z 06004KT CAVOK 05/01 Q1021 NOSIG=
201903310000 METAR LRTR 310000Z 03003KT CAVOK 04/M01 Q1020 NOSIG=
201903310030 METAR LRTR 310030Z 02004KT CAVOK 05/01 Q1020 NOSIG=
201903310100 METAR LRTR 310100Z 09007KT CAVOK 02/M00 Q1020 NOSIG=
201903310130 METAR LRTR 310130Z 10004KT CAVOK 02/M00 Q1020 NOSIG=
201903310200 METAR LRTR 310200Z 07004KT CAVOK 02/00 Q1020 NOSIG=
201903310230 METAR LRTR 310230Z 10004KT CAVOK 02/01 Q1020 NOSIG=
201903310300 METAR LRTR 310300Z 08005KT CAVOK 02/00 Q1020 NOSIG=
201903310330 METAR LRTR 310330Z 10004KT 090V150 CAVOK 03/01 Q1020 NOSIG=
201903310400 METAR LRTR 310400Z 09003KT CAVOK 02/00 Q1020 NOSIG=
201903310430 METAR LRTR 310430Z 07004KT CAVOK 01/M02 Q1019 NOSIG=
201903310500 METAR LRTR 310500Z 12005KT CAVOK 02/00 Q1020 NOSIG=
201903310530 METAR LRTR 310530Z 12003KT CAVOK 04/01 Q1020 NOSIG=
201903310600 METAR LRTR 310600Z 13005KT CAVOK 06/02 Q1020 NOSIG=
201903310630 METAR LRTR 310630Z 12008KT CAVOK 08/03 Q1020 NOSIG=
201903310700 METAR LRTR 310700Z 12007KT CAVOK 09/03 Q1020 NOSIG=
201903310730 METAR LRTR 310730Z 10004KT 060V140 CAVOK 11/03 Q1020 NOSIG=
201903310800 METAR LRTR 310800Z 12003KT 080V190 CAVOK 13/02 Q1020 NOSIG=
201903310830 METAR LRTR 310830Z 16003KT 110V220 CAVOK 14/03 Q1020 NOSIG=
201903310900 METAR LRTR 310900Z VRB02KT CAVOK 15/01 Q1019 NOSIG=
201903310930 METAR LRTR 310930Z VRB02KT CAVOK 17/02 Q1019 NOSIG=
201903311000 METAR LRTR 311000Z VRB02KT CAVOK 18/02 Q1019 NOSIG=
201903311030 METAR LRTR 311030Z 01005KT 300V080 CAVOK 19/02 Q1018 NOSIG=
201903311100 METAR LRTR 311100Z 03005KT 300V070 CAVOK 19/01 Q1018 NOSIG=
201903311130 METAR LRTR 311130Z 32005KT 290V010 CAVOK 20/02 Q1018 NOSIG=
201903311200 METAR LRTR 311200Z 34006KT 300V020 CAVOK 20/01 Q1017 NOSIG=
201903311230 METAR LRTR 311230Z 01006KT 350V070 CAVOK 20/01 Q1017 NOSIG=
201903311300 METAR LRTR 311300Z 35007KT CAVOK 20/M01 Q1017 NOSIG=
201903311330 METAR LRTR 311330Z 01005KT 270V060 CAVOK 21/M01 Q1016 NOSIG=
201903311400 METAR LRTR 311400Z 35007KT 320V030 CAVOK 21/M00 Q1016 NOSIG=
201903311430 METAR LRTR 311430Z 01007KT CAVOK 21/M01 Q1016 NOSIG=
201903311500 METAR LRTR 311500Z 02006KT 350V050 CAVOK 21/M00 Q1015 NOSIG=
201903311530 METAR LRTR 311530Z 35006KT CAVOK 21/M02 Q1015 NOSIG=
201903311600 METAR LRTR 311600Z 36006KT CAVOK 20/M03 Q1015 NOSIG=
201903311630 METAR LRTR 311630Z 36007KT CAVOK 18/M01 Q1015=
201903311700 METAR LRTR 311700Z 36005KT CAVOK 17/M02 Q1015=
201903311730 METAR LRTR 311730Z 01005KT CAVOK 14/M01 Q1015=
201903311800 METAR LRTR 311800Z 36006KT CAVOK 12/M02 Q1015=
201903311830 METAR LRTR 311830Z 01005KT CAVOK 10/M02 Q1015=
201903311900 METAR LRTR 311900Z 01005KT CAVOK 11/M01 Q1015=
201903311930 METAR LRTR 311930Z 01005KT CAVOK 11/M01 Q1015=
201903312000 METAR LRTR 312000Z 01006KT CAVOK 11/M02 Q1015=
201903312030 METAR LRTR 312030Z 36007KT CAVOK 11/M02 Q1015=
201903312100 METAR LRTR 312100Z 36006KT CAVOK 10/M03 Q1015=
201903312130 METAR COR LRTR 312130Z 05002KT CAVOK 08/M02 Q1016=
201903312200 METAR LRTR 312200Z 04003KT CAVOK 08/M02 Q1015=
201903312230 METAR LRTR 312230Z 00000KT CAVOK 06/M01 Q1015=
201903312300 METAR LRTR 312300Z 00000KT CAVOK 05/M01 Q1015=
201903312330 METAR LRTR 312330Z 08004KT CAVOK 05/M02 Q1015=
