201904010000 METAR LRTR 010000Z 06004KT CAVOK 05/M02 Q1015=
201904010030 METAR LRTR 010030Z 05003KT 9999 NCD 05/M01 Q1015=
201904010100 METAR LRTR 010100Z 05003KT CAVOK 03/M02 Q1015=
201904010130 METAR LRTR 010130Z AUTO 00000KT 9999 NCD 03/M01 Q1015=
201904010200 METAR COR LRTR 010200Z 10001KT CAVOK 05/M01 Q1015=
201904010230 METAR LRTR 010230Z 08003KT CAVOK 02/M03 Q1015=
201904010300 METAR LRTR 010300Z 03003KT 360V100 CAVOK 02/M02 Q1015=
201904010330 METAR LRTR 010330Z VRB02KT CAVOK 03/M02 Q1015=
201904010400 METAR LRTR 010400Z 08004KT CAVOK 05/M02 Q1015=
201904010430 METAR LRTR 010430Z 35004KT CAVOK 03/M02 Q1016=
201904010500 METAR LRTR 010500Z 01002KT CAVOK 04/M02 Q1016=
201904010530 METAR LRTR 010530Z 08003KT CAVOK 05/M02 Q1016=
201904010600 METAR LRTR 010600Z 12003KT CAVOK 08/01 Q1016=
201904010630 METAR LRTR 010630Z 00000KT CAVOK 11/01 Q1016=
201904010700 METAR LRTR 010700Z VRB02KT CAVOK 12/01 Q1016=
201904010730 METAR LRTR 010730Z VRB01KT CAVOK 13/02 Q1017=
201904010800 METAR LRTR 010800Z 33002KT 270V010 CAVOK 14/02 Q1017=
201904010830 METAR LRTR 010830Z 33003KT 280V050 CAVOK 15/02 Q1017=
201904010900 METAR LRTR 010900Z 32003KT 290V020 CAVOK 17/01 Q1016=
201904010930 METAR LRTR 010930Z VRB04KT CAVOK 19/01 Q1016=
201904011000 METAR COR LRTR 011000Z 02006KT 330V060 CAVOK 19/00 Q1016=
201904011030 METAR LRTR 011030Z 01008KT CAVOK 21/M00 Q1016=
201904011100 METAR LRTR 011100Z 35006KT 310V030 CAVOK 21/01 Q1016=
201904011130 METAR LRTR 011130Z 01007KT 350V060 CAVOK 22/00 Q1015=
201904011200 METAR LRTR 011200Z 35008KT 310V020 CAVOK 22/01 Q1015=
201904011230 METAR LRTR 011230Z 36006KT 320V060 CAVOK 22/M01 Q1015=
201904011300 METAR LRTR 011300Z 35006KT 300V020 CAVOK 22/00 Q1014=
201904011330 METAR LRTR 011330Z 35009KT CAVOK 22/00 Q1014=
201904011400 METAR LRTR 011400Z 35009KT 320V020 CAVOK 22/M01 Q1014=
201904011430 METAR LRTR 011430Z 33007KT CAVOK 23/M01 Q1014=
201904011500 METAR LRTR 011500Z 36007KT 330V040 CAVOK 22/M02 Q1014=
201904011530 METAR LRTR 011530Z 36008KT CAVOK 22/M01 Q1013=
201904011600 METAR COR LRTR 011600Z 34006KT CAVOK 21/M01 Q1014=
201904011630 METAR COR LRTR 011630Z 03005KT CAVOK 19/M01 Q1014 NOSIG=
201904011700 METAR LRTR 011700Z 02010KT CAVOK 19/02 Q1014 NOSIG=
201904011730 METAR LRTR 011730Z 01015KT CAVOK 18/03 Q1014 NOSIG=
201904011800 METAR LRTR 011800Z 01016KT CAVOK 17/03 Q1014 NOSIG=
201904011830 METAR LRTR 011830Z 02018KT CAVOK 16/02 Q1014 NOSIG=
201904011900 METAR LRTR 011900Z 02019KT CAVOK 15/01 Q1014 NOSIG=
201904011930 METAR LRTR 011930Z 02018KT CAVOK 14/01 Q1015 NOSIG=
201904012000 METAR LRTR 012000Z 02017KT CAVOK 14/01 Q1015 NOSIG=
201904012030 METAR LRTR 012030Z 02017KT CAVOK 13/01 Q1015 NOSIG=
201904012100 METAR LRTR 012100Z 02016KT CAVOK 13/00 Q1015 NOSIG=
201904012130 METAR LRTR 012130Z 01012KT CAVOK 11/00 Q1015 NOSIG=
201904012200 METAR LRTR 012200Z 02010KT CAVOK 11/M00 Q1016 NOSIG=
201904012230 METAR LRTR 012230Z 01008KT CAVOK 10/M00 Q1016 NOSIG=
201904012300 METAR LRTR 012300Z 01004KT CAVOK 09/M00 Q1017 NOSIG=
201904012330 METAR LRTR 012330Z 36007KT CAVOK 08/M00 Q1016 NOSIG=
201904020000 METAR LRTR 020000Z 01009KT CAVOK 08/M00 Q1016 NOSIG=
201904020030 METAR LRTR 020030Z 01011KT CAVOK 08/M01 Q1016 NOSIG=
201904020100 METAR LRTR 020100Z 02011KT CAVOK 07/M01 Q1017 NOSIG=
201904020130 METAR LRTR 020130Z 02013KT CAVOK 07/M01 Q1017 NOSIG=
201904020200 METAR LRTR 020200Z 04005KT CAVOK 06/M01 Q1017 NOSIG=
201904020230 METAR LRTR 020230Z 02004KT CAVOK 05/M01 Q1017 NOSIG=
201904020300 METAR LRTR 020300Z 01005KT CAVOK 05/M01 Q1017 NOSIG=
201904020330 METAR LRTR 020330Z 36005KT CAVOK 05/M01 Q1017 NOSIG=
201904020400 METAR LRTR 020400Z 01006KT CAVOK 05/M01 Q1017 NOSIG=
201904020430 METAR LRTR 020430Z 06003KT 020V080 CAVOK 05/M00 Q1018 NOSIG=
201904020500 METAR LRTR 020500Z VRB02KT CAVOK 05/01 Q1018 NOSIG=
201904020530 METAR LRTR 020530Z VRB02KT CAVOK 06/01 Q1018 NOSIG=
201904020600 METAR LRTR 020600Z 11002KT CAVOK 09/02 Q1018 NOSIG=
201904020630 METAR LRTR 020630Z 00000KT CAVOK 12/03 Q1018 NOSIG=
201904020700 METAR LRTR 020700Z 23003KT 190V260 CAVOK 13/02 Q1018 NOSIG=
201904020730 METAR LRTR 020730Z 21003KT 170V240 CAVOK 13/02 Q1019 NOSIG=
201904020800 METAR LRTR 020800Z VRB02KT CAVOK 15/02 Q1019 NOSIG=
201904020830 METAR LRTR 020830Z VRB01KT CAVOK 16/02 Q1019 NOSIG=
201904020900 METAR LRTR 020900Z 20004KT 170V230 CAVOK 16/02 Q1019 NOSIG=
201904020930 METAR LRTR 020930Z VRB02KT CAVOK 17/01 Q1018 NOSIG=
201904021000 METAR LRTR 021000Z VRB03KT CAVOK 18/01 Q1018 NOSIG=
201904021030 METAR LRTR 021030Z VRB04KT CAVOK 19/01 Q1018 NOSIG=
201904021100 METAR LRTR 021100Z 20005KT 150V260 CAVOK 19/M00 Q1018 NOSIG=
201904021130 METAR LRTR 021130Z 22009KT CAVOK 20/M02 Q1017 NOSIG=
201904021200 METAR LRTR 021200Z 17006KT 140V220 CAVOK 20/M02 Q1017 NOSIG=
201904021230 METAR LRTR 021230Z 18008KT 140V230 CAVOK 20/M01 Q1017 NOSIG=
201904021300 METAR LRTR 021300Z 17008KT CAVOK 21/00 Q1016 NOSIG=
201904021330 METAR LRTR 021330Z 15009KT 120V180 CAVOK 21/M02 Q1016 NOSIG=
201904021400 METAR LRTR 021400Z 19008KT CAVOK 21/M01 Q1016 NOSIG=
201904021430 METAR LRTR 021430Z 18006KT 130V220 CAVOK 20/M02 Q1016 NOSIG=
201904021500 METAR LRTR 021500Z 18007KT 140V210 CAVOK 20/M01 Q1015 NOSIG=
201904021530 METAR LRTR 021530Z 19008KT CAVOK 20/M02 Q1015 NOSIG=
201904021600 METAR LRTR 021600Z 18009KT CAVOK 19/M01 Q1015 NOSIG=
201904021630 METAR LRTR 021630Z 20010KT CAVOK 17/M00 Q1015=
201904021700 METAR LRTR 021700Z 19008KT CAVOK 16/M00 Q1015=
201904021730 METAR COR LRTR 021730Z 18007KT CAVOK 15/M00 Q1016=
201904021800 METAR LRTR 021800Z 18006KT CAVOK 13/M01 Q1016=
201904021830 METAR LRTR 021830Z 15007KT CAVOK 12/M01 Q1016=
201904021900 METAR LRTR 021900Z 17010KT CAVOK 13/M02 Q1016=
201904021930 METAR LRTR 021930Z 17010KT CAVOK 12/M03 Q1016=
201904022000 METAR LRTR 022000Z 16009KT CAVOK 12/M03 Q1016=
201904022030 METAR LRTR 022030Z 13006KT CAVOK 08/M02 Q1016=
201904022100 METAR LRTR 022100Z 10005KT CAVOK 07/M02 Q1017=
201904022130 METAR LRTR 022130Z 11007KT CAVOK 06/M02 Q1017=
201904022200 METAR LRTR 022200Z 10007KT CAVOK 06/M02 Q1017=
201904022230 METAR LRTR 022230Z 11008KT CAVOK 06/M02 Q1017=
201904022300 METAR LRTR 022300Z 10009KT CAVOK 06/M03 Q1016=
201904022330 METAR LRTR 022330Z 10010KT CAVOK 07/M03 Q1016=
201904030000 METAR LRTR 030000Z 11010KT CAVOK 07/M03 Q1016=
201904030030 METAR LRTR 030030Z 11010KT CAVOK 08/M03 Q1016=
201904030100 METAR COR LRTR 030100Z 11010KT CAVOK 07/M03 Q1016=
201904030130 METAR LRTR 030130Z 11011KT CAVOK 07/M03 Q1015=
201904030200 METAR COR LRTR 030200Z 11013KT CAVOK 07/M03 Q1015=
201904030230 METAR LRTR 030230Z 11013KT CAVOK 07/M02 Q1015=
201904030300 METAR LRTR 030300Z 11013KT CAVOK 07/M02 Q1015=
201904030330 METAR LRTR 030330Z 11013KT CAVOK 06/M03 Q1015=
201904030400 METAR COR LRTR 030400Z 11012KT CAVOK 07/M03 Q1015=
201904030430 METAR LRTR 030430Z 11014KT CAVOK 07/M03 Q1015=
201904030500 METAR LRTR 030500Z 11012KT CAVOK 06/M03 Q1015=
201904030530 METAR LRTR 030530Z 11013KT CAVOK 08/M03 Q1015=
201904030600 METAR LRTR 030600Z 11014KT CAVOK 09/M03 Q1015=
201904030630 METAR LRTR 030630Z 11015KT CAVOK 10/M03 Q1015=
201904030700 METAR LRTR 030700Z 12014KT CAVOK 12/M02 Q1015=
201904030730 METAR LRTR 030730Z 13011KT CAVOK 13/M04 Q1015=
201904030800 METAR LRTR 030800Z 14011KT CAVOK 14/M03 Q1015=
201904030830 METAR COR LRTR 030830Z 14012KT CAVOK 15/M03 Q1015=
201904030900 METAR LRTR 030900Z 16014KT CAVOK 16/M04 Q1015=
201904030930 METAR LRTR 030930Z 15014KT CAVOK 17/M03 Q1014=
201904031000 METAR LRTR 031000Z 15011KT 9999 FEW050CB 16/M03 Q1014=
201904031030 METAR LRTR 031030Z 16011KT 9999 FEW050CB 17/M02 Q1014=
201904031100 METAR LRTR 031100Z 18013KT 9999 FEW050CB 18/M03 Q1014=
201904031130 METAR LRTR 031130Z 16009KT 9999 FEW055CB 17/M03 Q1014=
201904031200 METAR COR LRTR 031200Z 19013KT CAVOK 18/M02 Q1013=
201904031230 METAR LRTR 031230Z 15013KT 130V190 CAVOK 19/M02 Q1013=
201904031300 METAR LRTR 031300Z 17013KT 130V200 CAVOK 19/M03 Q1012=
201904031330 METAR LRTR 031330Z 17012KT CAVOK 19/M02 Q1012=
201904031400 METAR LRTR 031400Z 17013KT CAVOK 19/M03 Q1012=
201904031430 METAR LRTR 031430Z 18013KT CAVOK 18/M03 Q1012=
201904031500 METAR LRTR 031500Z 17013KT CAVOK 18/M03 Q1012=
201904031530 METAR LRTR 031530Z 17012KT CAVOK 17/M03 Q1011=
201904031600 METAR LRTR 031600Z 17010KT CAVOK 16/M04 Q1011 NOSIG=
201904031630 METAR LRTR 031630Z 16009KT CAVOK 16/M03 Q1011 NOSIG=
201904031700 METAR LRTR 031700Z 16010KT CAVOK 15/M04 Q1011 NOSIG=
201904031730 METAR LRTR 031730Z 17008KT CAVOK 13/M04 Q1012 NOSIG=
201904031800 METAR LRTR 031800Z 17007KT CAVOK 13/M04 Q1012 NOSIG=
201904031830 METAR LRTR 031830Z 17007KT CAVOK 12/M04 Q1012 NOSIG=
201904031900 METAR LRTR 031900Z 16008KT CAVOK 12/M04 Q1012 NOSIG=
201904031930 METAR LRTR 031930Z 15008KT CAVOK 11/M04 Q1012 NOSIG=
201904032000 METAR LRTR 032000Z 13006KT CAVOK 08/M03 Q1013 NOSIG=
201904032030 METAR LRTR 032030Z 11006KT CAVOK 07/M03 Q1013 NOSIG=
201904032100 METAR LRTR 032100Z 11007KT CAVOK 06/M03 Q1013 NOSIG=
201904032130 METAR LRTR 032130Z 10008KT CAVOK 06/M03 Q1013 NOSIG=
201904032200 METAR LRTR 032200Z 11008KT CAVOK 06/M03 Q1013 NOSIG=
201904032230 METAR LRTR 032230Z 11008KT CAVOK 06/M03 Q1012 NOSIG=
201904032300 METAR LRTR 032300Z 11008KT CAVOK 07/M03 Q1012 NOSIG=
201904032330 METAR LRTR 032330Z 11007KT CAVOK 05/M03 Q1012 NOSIG=
201904040000 METAR LRTR 040000Z 11008KT CAVOK 06/M03 Q1012 NOSIG=
201904040030 METAR LRTR 040030Z 11009KT CAVOK 06/M02 Q1012 NOSIG=
201904040100 METAR COR LRTR 040100Z 11009KT CAVOK 06/M03 Q1012 NOSIG=
201904040130 METAR LRTR 040130Z 11010KT CAVOK 07/M03 Q1012 NOSIG=
201904040200 METAR LRTR 040200Z 11010KT CAVOK 07/M03 Q1011 NOSIG=
201904040230 METAR LRTR 040230Z 11009KT CAVOK 06/M03 Q1011 NOSIG=
201904040300 METAR LRTR 040300Z 11010KT CAVOK 07/M03 Q1011 NOSIG=
201904040330 METAR LRTR 040330Z 11009KT CAVOK 07/M03 Q1011 NOSIG=
201904040400 METAR LRTR 040400Z 11010KT CAVOK 07/M03 Q1011 NOSIG=
201904040430 METAR LRTR 040430Z 10011KT CAVOK 07/M03 Q1011 NOSIG=
201904040500 METAR LRTR 040500Z 11011KT CAVOK 08/M03 Q1011 NOSIG=
201904040530 METAR LRTR 040530Z 11011KT CAVOK 09/M02 Q1011 NOSIG=
201904040600 METAR LRTR 040600Z 12011KT CAVOK 09/M02 Q1011 NOSIG=
201904040630 METAR LRTR 040630Z 12010KT CAVOK 11/M01 Q1011 NOSIG=
201904040700 METAR LRTR 040700Z 12012KT CAVOK 12/M01 Q1012 NOSIG=
201904040730 METAR COR LRTR 040730Z 13010KT 9999 -RA NSC 12/M00 Q1012
                        NOSIG=
201904040800 METAR LRTR 040800Z 15008KT 9999 -RA NSC 11/02 Q1012 R11/19//95
                        NOSIG=
201904040830 METAR LRTR 040830Z 13007KT 9999 -RA NSC 12/04 Q1012 R11/19//95
                        NOSIG=
201904040900 METAR LRTR 040900Z 15012KT CAVOK 14/02 Q1012 R11/19//95 NOSIG=
201904040930 METAR LRTR 040930Z 15014KT CAVOK 16/M00 Q1011 R11/19//95
                        NOSIG=
201904041000 METAR LRTR 041000Z 17013KT CAVOK 17/01 Q1011 R11/19//95 NOSIG=
201904041030 METAR LRTR 041030Z 17014KT CAVOK 18/M00 Q1010 R11/19//95
                        NOSIG=
201904041100 METAR LRTR 041100Z 19017KT CAVOK 19/01 Q1010 R11/19//95 NOSIG=
201904041130 METAR LRTR 041130Z 19017KT CAVOK 19/01 Q1010 R11/CLRD// NOSIG=
201904041200 METAR LRTR 041200Z 18017KT CAVOK 20/01 Q1009 NOSIG=
201904041230 METAR LRTR 041230Z 18016KT CAVOK 20/01 Q1008 NOSIG=
201904041300 METAR LRTR 041300Z 18016KT CAVOK 20/01 Q1008 NOSIG=
201904041330 METAR LRTR 041330Z 19017KT CAVOK 20/01 Q1008 NOSIG=
201904041400 METAR LRTR 041400Z 18016KT CAVOK 19/01 Q1008 NOSIG=
201904041430 METAR LRTR 041430Z 18018KT CAVOK 19/00 Q1007 NOSIG=
201904041500 METAR LRTR 041500Z 18015KT CAVOK 19/00 Q1007 NOSIG=
201904041530 METAR COR LRTR 041530Z 18015KT CAVOK 19/01 Q1007 NOSIG=
201904041600 METAR COR LRTR 041600Z 17012KT CAVOK 18/00 Q1007 NOSIG=
201904041630 METAR LRTR 041630Z 15011KT CAVOK 17/M00 Q1007=
201904041700 METAR LRTR 041700Z 14009KT CAVOK 15/00 Q1007=
201904041730 METAR LRTR 041730Z 14010KT CAVOK 15/M00 Q1007=
201904041800 METAR LRTR 041800Z 13009KT CAVOK 14/M00 Q1008=
201904041830 METAR LRTR 041830Z 11007KT CAVOK 10/M00 Q1008=
201904041900 METAR LRTR 041900Z 12010KT CAVOK 10/M00 Q1008=
201904041930 METAR LRTR 041930Z 10007KT CAVOK 10/M01 Q1008=
201904042000 METAR LRTR 042000Z 10007KT CAVOK 09/M01 Q1008=
201904042030 METAR LRTR 042030Z 11007KT CAVOK 10/M00 Q1008=
201904042100 METAR LRTR 042100Z 11008KT CAVOK 11/00 Q1008=
201904042130 METAR LRTR 042130Z 11006KT CAVOK 10/M00 Q1009=
201904042200 METAR LRTR 042200Z 11008KT CAVOK 10/M00 Q1009=
201904042230 METAR LRTR 042230Z 11007KT CAVOK 09/00 Q1009=
201904042300 METAR LRTR 042300Z 11008KT CAVOK 09/M01 Q1009=
201904042330 METAR LRTR 042330Z 10006KT CAVOK 07/M01 Q1009=
201904050000 METAR LRTR 050000Z 10009KT CAVOK 08/M01 Q1009=
201904050030 METAR LRTR 050030Z 09009KT CAVOK 09/M01 Q1008=
201904050100 METAR LRTR 050100Z 09009KT CAVOK 08/M00 Q1008=
201904050130 METAR LRTR 050130Z 09009KT CAVOK 08/M00 Q1008=
201904050200 METAR COR LRTR 050200Z 10009KT CAVOK 08/M00 Q1008=
201904050230 METAR LRTR 050230Z 10008KT CAVOK 08/M00 Q1008=
201904050300 METAR LRTR 050300Z 11008KT CAVOK 08/M00 Q1008=
201904050330 METAR LRTR 050330Z 10010KT CAVOK 08/M00 Q1008=
201904050400 METAR LRTR 050400Z 09009KT CAVOK 08/M00 Q1008=
201904050430 METAR LRTR 050430Z 11011KT CAVOK 09/M00 Q1008=
201904050500 METAR LRTR 050500Z 11011KT CAVOK 10/00 Q1008=
201904050530 METAR LRTR 050530Z 11013KT CAVOK 11/00 Q1008=
201904050600 METAR LRTR 050600Z 11014KT CAVOK 12/01 Q1008=
201904050630 METAR LRTR 050630Z 12014KT CAVOK 13/01 Q1008=
201904050700 METAR LRTR 050700Z 11014KT CAVOK 15/02 Q1008=
201904050730 METAR COR LRTR 050730Z 12014KT CAVOK 16/01 Q1008=
201904050800 METAR COR LRTR 050800Z 12013KT CAVOK 18/03 Q1008=
201904050830 METAR LRTR 050830Z 14013KT CAVOK 19/02 Q1008=
201904050900 METAR LRTR 050900Z 16015KT CAVOK 19/01 Q1008=
201904050930 METAR LRTR 050930Z 14014KT CAVOK 21/01 Q1007=
201904051000 METAR LRTR 051000Z 17017KT CAVOK 20/01 Q1007=
201904051030 METAR COR LRTR 051030Z 17014KT CAVOK 20/01 Q1007=
201904051100 METAR LRTR 051100Z 18015KT CAVOK 19/01 Q1007=
201904051130 METAR LRTR 051130Z 17015KT CAVOK 20/01 Q1007=
201904051200 METAR LRTR 051200Z 17016KT CAVOK 20/00 Q1006=
201904051230 METAR LRTR 051230Z 18020KT CAVOK 19/00 Q1006=
201904051300 METAR LRTR 051300Z 17017KT CAVOK 19/00 Q1006=
201904051330 METAR LRTR 051330Z 16015KT CAVOK 20/01 Q1006=
201904051400 METAR LRTR 051400Z 16017KT CAVOK 19/01 Q1006=
201904051430 METAR LRTR 051430Z 17019KT CAVOK 19/01 Q1006=
201904051500 METAR LRTR 051500Z 15015KT CAVOK 18/02 Q1005=
201904051530 METAR LRTR 051530Z 16015KT CAVOK 18/02 Q1005=
201904051600 METAR LRTR 051600Z 15013KT CAVOK 18/02 Q1005=
201904051630 METAR LRTR 051630Z 15012KT CAVOK 17/02 Q1005 NOSIG=
201904051700 METAR LRTR 051700Z 15015KT CAVOK 17/03 Q1005 NOSIG=
201904051730 METAR LRTR 051730Z 15010KT CAVOK 16/03 Q1006 NOSIG=
201904051800 METAR LRTR 051800Z 15012KT CAVOK 16/03 Q1006 NOSIG=
201904051830 METAR LRTR 051830Z 14009KT CAVOK 15/04 Q1006 NOSIG=
201904051900 METAR LRTR 051900Z 14009KT CAVOK 15/04 Q1006 NOSIG=
201904051930 METAR LRTR 051930Z 12007KT CAVOK 13/04 Q1006 NOSIG=
201904052000 METAR LRTR 052000Z 12007KT CAVOK 13/05 Q1007 NOSIG=
201904052030 METAR LRTR 052030Z 00000KT CAVOK 13/05 Q1007 NOSIG=
201904052100 METAR LRTR 052100Z 00000KT 9999 -RA NSC 13/04 Q1007 NOSIG=
201904052130 METAR LRTR 052130Z 30006KT 9999 -RA NSC 12/07 Q1008 NOSIG=
201904052200 METAR LRTR 052200Z 31008KT 9999 -RA NSC 11/08 Q1008 NOSIG=
201904052230 METAR COR LRTR 052230Z 33010KT CAVOK 11/08 Q1008 NOSIG=
201904052300 METAR LRTR 052300Z 36009KT 9999 -RA NSC 11/08 Q1008 NOSIG=
201904052330 METAR LRTR 052330Z 35006KT CAVOK 11/08 Q1008 NOSIG=
201904060000 METAR LRTR 060000Z 01011KT CAVOK 11/08 Q1008 NOSIG=
201904060030 METAR LRTR 060030Z 01008KT CAVOK 11/07 Q1008 NOSIG=
201904060100 METAR LRTR 060100Z AUTO 01007KT 9999 OVC071/// 10/07 Q1008
                        NOSIG=
201904060130 METAR LRTR 060130Z 03010KT CAVOK 10/07 Q1007 NOSIG=
201904060200 METAR LRTR 060200Z 03011KT CAVOK 10/07 Q1007 NOSIG=
201904060230 METAR LRTR 060230Z 02009KT CAVOK 10/07 Q1007 NOSIG=
201904060300 METAR LRTR 060300Z 02010KT CAVOK 10/07 Q1007 NOSIG=
201904060330 METAR LRTR 060330Z 02010KT CAVOK 10/07 Q1007 NOSIG=
201904060400 METAR LRTR 060400Z 02010KT 9999 -RA NSC 10/06 Q1007 NOSIG=
201904060430 METAR LRTR 060430Z 04010KT 9999 -RA NSC 10/07 Q1007 NOSIG=
201904060500 METAR LRTR 060500Z 04009KT CAVOK 10/07 Q1008 NOSIG=
201904060530 METAR LRTR 060530Z 04007KT 9999 -SHRA FEW050CB 10/08 Q1008
                        NOSIG=
201904060600 METAR LRTR 060600Z 09004KT 030V140 9999 FEW050CB 11/08 Q1008
                        NOSIG=
201904060630 METAR LRTR 060630Z 06001KT 9999 FEW050CB 11/08 Q1008 NOSIG=
201904060700 METAR LRTR 060700Z 30002KT CAVOK 12/09 Q1009 NOSIG=
201904060730 METAR LRTR 060730Z 29003KT 260V320 CAVOK 12/09 Q1009 NOSIG=
201904060800 METAR LRTR 060800Z 33004KT CAVOK 12/09 Q1009 NOSIG=
201904060830 METAR LRTR 060830Z 32001KT CAVOK 12/08 Q1009 NOSIG=
201904060900 METAR LRTR 060900Z VRB01KT CAVOK 13/08 Q1009 NOSIG=
201904060930 METAR LRTR 060930Z 27003KT 220V300 9999 -RA NSC 13/09 Q1009
                        NOSIG=
201904061000 METAR LRTR 061000Z 23004KT 180V260 CAVOK 14/08 Q1009 NOSIG=
201904061030 METAR LRTR 061030Z 25005KT 150V300 CAVOK 15/07 Q1009 NOSIG=
201904061100 METAR LRTR 061100Z VRB03KT CAVOK 16/07 Q1009 NOSIG=
201904061130 METAR LRTR 061130Z 26004KT 180V340 CAVOK 17/07 Q1008 NOSIG=
201904061200 METAR LRTR 061200Z VRB04KT CAVOK 18/05 Q1008 NOSIG=
201904061230 METAR LRTR 061230Z VRB05KT CAVOK 19/05 Q1007 NOSIG=
201904061300 METAR LRTR 061300Z 20013KT 160V220 CAVOK 19/03 Q1007 NOSIG=
201904061330 METAR LRTR 061330Z 21015KT CAVOK 19/03 Q1007 NOSIG=
201904061400 METAR LRTR 061400Z 21013KT CAVOK 19/03 Q1007 NOSIG=
201904061430 METAR LRTR 061430Z 21012KT CAVOK 19/03 Q1007 NOSIG=
201904061500 METAR LRTR 061500Z 20013KT CAVOK 19/03 Q1006 NOSIG=
201904061530 METAR LRTR 061530Z 20011KT CAVOK 18/03 Q1007 NOSIG=
201904061600 METAR LRTR 061600Z 20010KT CAVOK 18/03 Q1007 NOSIG=
201904061630 METAR LRTR 061630Z 20010KT CAVOK 18/02 Q1007=
201904061700 METAR LRTR 061700Z 21008KT CAVOK 17/02 Q1007=
201904061730 METAR LRTR 061730Z 22006KT CAVOK 16/02 Q1007=
201904061800 METAR LRTR 061800Z 22006KT CAVOK 15/02 Q1008=
201904061830 METAR LRTR 061830Z 21007KT CAVOK 14/03 Q1008=
201904061900 METAR LRTR 061900Z 21008KT CAVOK 14/03 Q1008=
201904061930 METAR LRTR 061930Z 21007KT CAVOK 14/03 Q1008=
201904062000 METAR LRTR 062000Z 16004KT 120V180 CAVOK 13/03 Q1008=
201904062030 METAR LRTR 062030Z 16005KT CAVOK 12/04 Q1009=
201904062100 METAR LRTR 062100Z 18004KT 150V210 CAVOK 12/03 Q1009=
201904062130 METAR LRTR 062130Z VRB02KT CAVOK 12/04 Q1008=
201904062200 METAR LRTR 062200Z 11005KT CAVOK 11/04 Q1008=
201904062230 METAR LRTR 062230Z 08004KT CAVOK 10/04 Q1008=
201904062300 METAR LRTR 062300Z 08004KT CAVOK 10/04 Q1008=
201904062330 METAR LRTR 062330Z 08005KT CAVOK 09/04 Q1008=
201904070000 METAR LRTR 070000Z 09007KT CAVOK 08/04 Q1008=
201904070030 METAR LRTR 070030Z 09006KT CAVOK 08/04 Q1008=
201904070100 METAR LRTR 070100Z 09006KT CAVOK 09/04 Q1008=
201904070130 METAR LRTR 070130Z 10006KT CAVOK 09/04 Q1008=
201904070200 METAR LRTR 070200Z 11008KT CAVOK 10/04 Q1007=
201904070230 METAR LRTR 070230Z 10009KT CAVOK 10/04 Q1007=
201904070300 METAR LRTR 070300Z 10010KT CAVOK 09/04 Q1007=
201904070330 METAR LRTR 070330Z 11010KT CAVOK 09/04 Q1007=
201904070400 METAR LRTR 070400Z 11010KT CAVOK 09/04 Q1007=
201904070430 METAR LRTR 070430Z 11011KT CAVOK 09/04 Q1007=
201904070500 METAR LRTR 070500Z 11013KT CAVOK 09/04 Q1007=
201904070530 METAR LRTR 070530Z 11013KT CAVOK 10/04 Q1007=
201904070600 METAR LRTR 070600Z 11014KT CAVOK 12/04 Q1007=
201904070630 METAR LRTR 070630Z 11013KT CAVOK 13/05 Q1007=
201904070700 METAR LRTR 070700Z 11012KT CAVOK 14/05 Q1007=
201904070730 METAR LRTR 070730Z 12010KT CAVOK 16/06 Q1007=
201904070800 METAR LRTR 070800Z 14007KT CAVOK 17/05 Q1007=
201904070830 METAR LRTR 070830Z 14005KT CAVOK 18/06 Q1007=
201904070900 METAR LRTR 070900Z 18009KT 140V210 CAVOK 19/04 Q1007=
201904070930 METAR LRTR 070930Z 20011KT CAVOK 20/05 Q1007=
201904071000 METAR LRTR 071000Z 19011KT 160V230 CAVOK 21/04 Q1007=
201904071030 METAR LRTR 071030Z 18011KT 150V230 CAVOK 21/03 Q1007=
201904071100 METAR LRTR 071100Z 20008KT 9999 FEW020 22/03 Q1006=
201904071130 METAR LRTR 071130Z 20012KT 170V230 9999 FEW025 22/04 Q1006=
201904071200 METAR LRTR 071200Z 21010KT 160V230 9999 FEW035 22/04 Q1006=
201904071230 METAR LRTR 071230Z 19013KT 180V240 9999 FEW045 23/03 Q1006=
201904071300 METAR LRTR 071300Z 20009KT 160V240 CAVOK 23/03 Q1005=
201904071330 METAR LRTR 071330Z 18009KT 140V200 CAVOK 23/03 Q1005=
201904071400 METAR LRTR 071400Z 21009KT 170V230 CAVOK 23/03 Q1005=
201904071430 METAR LRTR 071430Z 22009KT CAVOK 23/02 Q1005=
201904071500 METAR LRTR 071500Z 19005KT 140V220 CAVOK 23/03 Q1005=
201904071530 METAR LRTR 071530Z 21006KT CAVOK 22/02 Q1004=
201904071600 METAR LRTR 071600Z 20005KT CAVOK 22/03 Q1004=
201904071630 METAR LRTR 071630Z 19007KT CAVOK 21/04 Q1005=
201904071700 METAR LRTR 071700Z 19009KT CAVOK 20/04 Q1005=
201904071730 METAR LRTR 071730Z 19009KT CAVOK 18/05 Q1005=
201904071800 METAR LRTR 071800Z 18009KT CAVOK 17/05 Q1005=
201904071830 METAR LRTR 071830Z 19007KT CAVOK 15/05 Q1006=
201904071900 METAR LRTR 071900Z 18007KT CAVOK 14/05 Q1006=
201904071930 METAR COR LRTR 071930Z 19005KT CAVOK 13/05 Q1006=
201904072000 METAR LRTR 072000Z 17002KT CAVOK 12/04 Q1006=
201904072030 METAR LRTR 072030Z VRB01KT CAVOK 10/05 Q1006=
201904072100 METAR COR LRTR 072100Z 00000KT CAVOK 11/05 Q1006=
201904072130 METAR LRTR 072130Z 11004KT CAVOK 08/04 Q1006=
201904072200 METAR COR LRTR 072200Z 10005KT CAVOK 08/04 Q1006=
201904072230 METAR LRTR 072230Z 09006KT CAVOK 07/04 Q1006=
201904072300 METAR COR LRTR 072300Z 08004KT CAVOK 07/05 Q1006=
201904072330 METAR LRTR 072330Z 02004KT 340V060 CAVOK 08/05 Q1006=
201904080000 METAR LRTR 080000Z 32005KT CAVOK 08/05 Q1006=
201904080030 METAR LRTR 080030Z 36003KT CAVOK 09/05 Q1006=
201904080100 METAR LRTR 080100Z 02006KT CAVOK 09/06 Q1006=
201904080130 METAR LRTR 080130Z 35004KT CAVOK 10/05 Q1005=
201904080200 METAR LRTR 080200Z 01006KT CAVOK 10/05 Q1005=
201904080230 METAR COR LRTR 080230Z 36004KT CAVOK 10/05 Q1005=
201904080300 METAR LRTR 080300Z 01006KT CAVOK 10/05 Q1005=
201904080330 METAR LRTR 080330Z 33004KT 290V360 CAVOK 09/06 Q1005=
201904080400 METAR LRTR 080400Z 01006KT CAVOK 10/06 Q1005=
201904080430 METAR LRTR 080430Z 02006KT CAVOK 11/06 Q1005 NOSIG=
201904080500 METAR LRTR 080500Z 03009KT CAVOK 11/06 Q1005 NOSIG=
201904080530 METAR COR LRTR 080530Z 05007KT CAVOK 12/06 Q1005 NOSIG=
201904080600 METAR LRTR 080600Z 04005KT CAVOK 13/06 Q1005 NOSIG=
201904080630 METAR LRTR 080630Z 00000KT CAVOK 13/07 Q1005 NOSIG=
201904080700 METAR LRTR 080700Z 26003KT 9999 -RA NSC 13/07 Q1005 NOSIG=
201904080730 METAR LRTR 080730Z 31003KT 270V340 CAVOK 14/07 Q1005 NOSIG=
201904080800 METAR LRTR 080800Z 29004KT 260V330 CAVOK 14/07 Q1005 NOSIG=
201904080830 METAR LRTR 080830Z VRB02KT 9999 FEW035 15/07 Q1005 NOSIG=
201904080900 METAR LRTR 080900Z VRB02KT 9999 FEW035 15/06 Q1005 NOSIG=
201904080930 METAR LRTR 080930Z VRB02KT CAVOK 16/06 Q1004 NOSIG=
201904081000 METAR LRTR 081000Z 36004KT 300V060 CAVOK 16/06 Q1004 NOSIG=
201904081030 METAR LRTR 081030Z VRB02KT CAVOK 16/05 Q1004 NOSIG=
201904081100 METAR LRTR 081100Z 02004KT 340V060 CAVOK 17/05 Q1004 NOSIG=
201904081130 METAR LRTR 081130Z 04005KT 360V080 CAVOK 18/05 Q1004 NOSIG=
201904081200 METAR LRTR 081200Z 34005KT 280V020 9999 FEW048 19/06 Q1004
                        NOSIG=
201904081230 METAR LRTR 081230Z 35007KT 310V040 9999 FEW048 19/05 Q1003
                        NOSIG=
201904081300 METAR LRTR 081300Z 03005KT 310V080 9999 FEW049 19/06 Q1003
                        NOSIG=
201904081330 METAR LRTR 081330Z 01007KT 330V050 9999 FEW049 19/05 Q1003
                        NOSIG=
201904081400 METAR LRTR 081400Z 02006KT 350V060 CAVOK 19/05 Q1003 NOSIG=
201904081430 METAR LRTR 081430Z 01004KT 310V050 CAVOK 19/05 Q1002 NOSIG=
201904081500 METAR LRTR 081500Z VRB02KT CAVOK 20/05 Q1002 NOSIG=
201904081530 METAR LRTR 081530Z 35006KT CAVOK 19/05 Q1002 NOSIG=
201904081600 METAR LRTR 081600Z 36006KT CAVOK 19/05 Q1002 NOSIG=
201904081630 METAR LRTR 081630Z 36005KT CAVOK 18/06 Q1002=
201904081700 METAR LRTR 081700Z 33005KT CAVOK 16/05 Q1002=
201904081730 METAR LRTR 081730Z 33004KT CAVOK 15/06 Q1002=
201904081800 METAR LRTR 081800Z 35004KT CAVOK 14/06 Q1003=
201904081830 METAR LRTR 081830Z 35003KT CAVOK 13/05 Q1003=
201904081900 METAR LRTR 081900Z 33004KT CAVOK 13/06 Q1003=
201904081930 METAR LRTR 081930Z 34004KT CAVOK 12/05 Q1003=
201904082000 METAR LRTR 082000Z 34004KT CAVOK 12/05 Q1003=
201904082030 METAR LRTR 082030Z 32004KT CAVOK 11/05 Q1003=
201904082100 METAR LRTR 082100Z 31003KT CAVOK 10/05 Q1003=
201904082130 METAR LRTR 082130Z 35003KT 320V020 CAVOK 11/05 Q1003=
201904082200 METAR LRTR 082200Z 34003KT CAVOK 11/05 Q1003=
201904082230 METAR LRTR 082230Z 23003KT 200V270 CAVOK 10/06 Q1003=
201904082300 METAR LRTR 082300Z AUTO 01005KT 9999 NCD 10/05 Q1003=
201904082330 METAR LRTR 082330Z 05003KT CAVOK 10/06 Q1003=
201904090000 METAR LRTR 090000Z 12002KT CAVOK 09/05 Q1004=
201904090030 METAR LRTR 090030Z 02004KT CAVOK 07/05 Q1003=
201904090100 METAR LRTR 090100Z 08002KT CAVOK 08/06 Q1003=
201904090130 METAR LRTR 090130Z 01001KT CAVOK 07/05 Q1003=
201904090200 METAR LRTR 090200Z 30007KT CAVOK 06/05 Q1003=
201904090230 METAR LRTR 090230Z 31004KT CAVOK 06/05 Q1003=
201904090300 METAR LRTR 090300Z VRB01KT CAVOK 07/05 Q1003=
201904090330 METAR LRTR 090330Z VRB01KT CAVOK 05/03 Q1003=
201904090400 METAR LRTR 090400Z VRB02KT 8000 NSC 05/05 Q1004=
201904090430 METAR LRTR 090430Z 05003KT 9000 NSC 05/03 Q1003=
201904090500 METAR LRTR 090500Z 09002KT 9000 NSC 06/05 Q1004=
201904090530 METAR LRTR 090530Z 00000KT 9000 NSC 09/07 Q1004=
201904090600 METAR LRTR 090600Z VRB01KT CAVOK 11/08 Q1004=
201904090630 METAR LRTR 090630Z 12003KT 070V150 CAVOK 12/08 Q1004=
201904090700 METAR LRTR 090700Z VRB01KT CAVOK 14/08 Q1004=
201904090730 METAR LRTR 090730Z VRB02KT CAVOK 15/09 Q1004=
201904090800 METAR LRTR 090800Z VRB02KT CAVOK 16/08 Q1004=
201904090830 METAR LRTR 090830Z VRB03KT CAVOK 18/08 Q1004=
201904090900 METAR LRTR 090900Z 34004KT 270V040 CAVOK 19/08 Q1004=
201904090930 METAR LRTR 090930Z 34004KT 290V060 CAVOK 20/08 Q1003=
201904091000 METAR LRTR 091000Z 33007KT 270V360 CAVOK 21/08 Q1003=
201904091030 METAR LRTR 091030Z 35005KT 300V060 CAVOK 22/08 Q1003=
201904091100 METAR LRTR 091100Z 33007KT CAVOK 22/07 Q1003=
201904091130 METAR LRTR 091130Z 31005KT 250V010 CAVOK 22/07 Q1003=
201904091200 METAR LRTR 091200Z 32007KT 290V350 CAVOK 22/06 Q1002=
201904091230 METAR LRTR 091230Z 31006KT 270V350 CAVOK 23/05 Q1002=
201904091300 METAR LRTR 091300Z 31008KT 280V340 CAVOK 23/05 Q1002=
201904091330 METAR LRTR 091330Z 32006KT 280V360 CAVOK 23/05 Q1002=
201904091400 METAR LRTR 091400Z 33007KT CAVOK 23/06 Q1002=
201904091430 METAR LRTR 091430Z 33008KT CAVOK 23/06 Q1002=
201904091500 METAR LRTR 091500Z 35007KT CAVOK 23/06 Q1002=
201904091530 METAR LRTR 091530Z 01009KT CAVOK 23/07 Q1002=
201904091600 METAR LRTR 091600Z 01006KT CAVOK 22/06 Q1002=
201904091630 METAR LRTR 091630Z 02006KT CAVOK 22/06 Q1002 NOSIG=
201904091700 METAR LRTR 091700Z 36004KT CAVOK 21/06 Q1002 NOSIG=
201904091730 METAR LRTR 091730Z 35001KT CAVOK 19/07 Q1002 NOSIG=
201904091800 METAR LRTR 091800Z 34001KT CAVOK 18/07 Q1003 NOSIG=
201904091830 METAR LRTR 091830Z 01003KT CAVOK 17/06 Q1003 NOSIG=
201904091900 METAR LRTR 091900Z 17010KT CAVOK 17/10 Q1004 NOSIG=
201904091930 METAR LRTR 091930Z 18008KT CAVOK 16/10 Q1004 NOSIG=
201904092000 METAR LRTR 092000Z 18009KT CAVOK 16/10 Q1004 NOSIG=
201904092030 METAR LRTR 092030Z 17008KT CAVOK 15/10 Q1004 NOSIG=
201904092100 METAR LRTR 092100Z 18007KT CAVOK 14/10 Q1004 NOSIG=
201904092130 METAR LRTR 092130Z 19011KT CAVOK 14/11 Q1004 NOSIG=
201904092200 METAR LRTR 092200Z 18008KT CAVOK 14/11 Q1004 NOSIG=
201904092230 METAR LRTR 092230Z 16004KT CAVOK 13/11 Q1005 NOSIG=
201904092300 METAR LRTR 092300Z 16005KT CAVOK 12/11 Q1005 NOSIG=
201904092330 METAR LRTR 092330Z 13006KT CAVOK 09/09 Q1005 NOSIG=
201904100000 METAR LRTR 100000Z 13007KT CAVOK 10/10 Q1005 NOSIG=
201904100030 METAR LRTR 100030Z 13008KT CAVOK 10/10 Q1005 NOSIG=
201904100100 METAR LRTR 100100Z 13006KT CAVOK 09/09 Q1005 NOSIG=
201904100130 METAR LRTR 100130Z 14007KT CAVOK 11/11 Q1005 NOSIG=
201904100200 METAR LRTR 100200Z 15006KT CAVOK 10/10 Q1005 NOSIG=
201904100230 METAR LRTR 100230Z 12006KT CAVOK 10/10 Q1005 NOSIG=
201904100300 METAR LRTR 100300Z 11007KT CAVOK 10/10 Q1005 NOSIG=
201904100330 METAR LRTR 100330Z 12008KT CAVOK 10/10 Q1005 NOSIG=
201904100400 METAR LRTR 100400Z 12008KT CAVOK 10/10 Q1005 NOSIG=
201904100430 METAR LRTR 100430Z 11008KT CAVOK 10/10 Q1005 NOSIG=
201904100500 METAR LRTR 100500Z 10007KT CAVOK 10/10 Q1005 NOSIG=
201904100530 METAR LRTR 100530Z 11008KT CAVOK 11/10 Q1006 NOSIG=
201904100600 METAR LRTR 100600Z 11008KT CAVOK 13/11 Q1006 NOSIG=
201904100630 METAR LRTR 100630Z 11007KT CAVOK 13/11 Q1006 NOSIG=
201904100700 METAR LRTR 100700Z 12007KT 9999 FEW020 14/11 Q1006 NOSIG=
201904100730 METAR LRTR 100730Z 14008KT 9999 FEW025 15/11 Q1006 NOSIG=
201904100800 METAR LRTR 100800Z 15007KT 120V180 CAVOK 16/11 Q1006 NOSIG=
201904100830 METAR LRTR 100830Z 14007KT CAVOK 17/11 Q1006 NOSIG=
201904100900 METAR LRTR 100900Z 17006KT 110V210 CAVOK 18/11 Q1006 NOSIG=
201904100930 METAR LRTR 100930Z 14005KT 060V220 CAVOK 19/11 Q1006 NOSIG=
201904101000 METAR LRTR 101000Z 18006KT 120V230 9999 FEW035 20/10 Q1005
                        NOSIG=
201904101030 METAR COR LRTR 101030Z 18006KT 120V230 9999 FEW038 21/09
                        Q1005 NOSIG=
201904101100 METAR LRTR 101100Z 15006KT 120V180 9999 FEW040 21/10 Q1005
                        NOSIG=
201904101130 METAR LRTR 101130Z 20005KT 160V230 9999 FEW040CB 22/09 Q1005
                        NOSIG=
201904101200 METAR LRTR 101200Z 23007KT 9999 FEW040CB SCT045 21/08 Q1005
                        NOSIG=
201904101230 METAR LRTR 101230Z 16004KT 100V240 9999 FEW040CB SCT048 23/08
                        Q1004 NOSIG=
201904101300 METAR LRTR 101300Z 21006KT 120V240 9999 FEW045CB SCT049 23/07
                        Q1004 NOSIG=
201904101330 METAR LRTR 101330Z 19006KT 9999 SCT045CB 22/07 Q1004 TEMPO
                        TS=
201904101400 METAR LRTR 101400Z 16003KT 120V190 9999 TS SCT045CB 22/07
                        Q1004 NOSIG=
201904101430 METAR LRTR 101430Z VRB01KT 9999 TS SCT045CB 23/06 Q1004 NOSIG=
201904101500 METAR LRTR 101500Z 06014KT 9999 TS SCT045CB 21/09 Q1004 WS
                        RWY11 TEMPO TSRA=
201904101530 METAR LRTR 101530Z 08015KT 9999 TS SCT045CB 20/08 Q1004 WS
                        RWY11 TEMPO TSRA=
201904101600 METAR LRTR 101600Z 11017KT 9999 TS VCSH FEW020 SCT045CB 18/09
                        Q1004 WS RWY11 TEMPO 5000 TSRA=
201904101630 METAR LRTR 101630Z 09014KT 9999 FEW050CB 18/09 Q1004 RETS
                        WS RWY11=
201904101700 METAR LRTR 101700Z 08013KT 9999 FEW050CB 17/09 Q1004=
201904101730 METAR LRTR 101730Z 10007KT 9999 FEW050CB 17/09 Q1004=
201904101800 METAR LRTR 101800Z 11005KT 9999 FEW050CB 15/10 Q1005=
201904101830 METAR LRTR 101830Z 15004KT 9999 FEW050CB 15/10 Q1005=
201904101900 METAR LRTR 101900Z 12009KT CAVOK 15/10 Q1006=
201904101930 METAR LRTR 101930Z 07009KT CAVOK 15/11 Q1006=
201904102000 METAR LRTR 102000Z 08008KT CAVOK 15/10 Q1006=
201904102030 METAR LRTR 102030Z 10008KT CAVOK 15/10 Q1006=
201904102100 METAR LRTR 102100Z 10005KT CAVOK 15/11 Q1006=
201904102130 METAR LRTR 102130Z 11006KT CAVOK 14/11 Q1006=
201904102200 METAR COR LRTR 102200Z 10004KT CAVOK 14/11 Q1006=
201904102230 METAR COR LRTR 102230Z 09005KT CAVOK 14/12 Q1006=
201904102300 METAR LRTR 102300Z 03005KT 9999 -RA NSC 13/13 Q1006=
201904102330 METAR LRTR 102330Z 02008KT 9999 -RA NSC 13/12 Q1006 R11/290095=
201904110000 METAR LRTR 110000Z 03006KT 9999 -RA NSC 13/12 Q1006 R11/290095=
201904110030 METAR COR LRTR 110030Z 11007KT 9999 -RA NSC 13/12 Q1006 R11/290095=
201904110100 METAR LRTR 110100Z VRB02KT 9999 RA NSC 13/12 Q1006 R11/290095=
201904110130 METAR LRTR 110130Z 35002KT 9999 -RA NSC 12/12 Q1006 RERA
                        R11/290095=
201904110200 METAR LRTR 110200Z VRB02KT CAVOK 13/13 Q1006 R11/290095=
201904110230 METAR LRTR 110230Z 36005KT 9999 -RA NSC 12/12 Q1006 R11/290095=
201904110300 METAR LRTR 110300Z 04008KT 9999 -RA NSC 12/12 Q1006 R11/290095=
201904110330 METAR LRTR 110330Z 04005KT CAVOK 11/11 Q1006 R11/290095=
201904110400 METAR LRTR 110400Z 06006KT CAVOK 11/11 Q1006 R11/290095=
201904110430 METAR LRTR 110430Z 07005KT 8000 NSC 11/11 Q1007 R11/290095=
201904110500 METAR LRTR 110500Z 09004KT 9000 NSC 11/11 Q1007 R11/290095=
201904110530 METAR LRTR 110530Z 07004KT CAVOK 12/12 Q1007 R11/290095=
201904110600 METAR LRTR 110600Z 13002KT CAVOK 12/12 Q1007 R11/290095=
201904110630 METAR LRTR 110630Z 00000KT CAVOK 13/13 Q1007 R11/290095=
201904110700 METAR LRTR 110700Z 09003KT CAVOK 15/13 Q1007 R11/290095=
201904110730 METAR LRTR 110730Z 13004KT 090V170 CAVOK 15/13 Q1007 R11/290095=
201904110800 METAR LRTR 110800Z VRB02KT CAVOK 15/13 Q1008 R11/290095=
201904110830 METAR LRTR 110830Z VRB01KT CAVOK 16/13 Q1008 R11/290095=
201904110900 METAR LRTR 110900Z 28004KT 240V320 9999 FEW020 17/13 Q1008
                        R11/290095=
201904110930 METAR LRTR 110930Z 32004KT 240V040 9999 FEW022 17/13 Q1007
                        R11/290095=
201904111000 METAR LRTR 111000Z 32006KT 9999 SCT023 17/12 Q1007 R11/290095=
201904111030 METAR LRTR 111030Z 29006KT 250V330 9999 SCT024 18/13 Q1007
                        R11/290095=
201904111100 METAR LRTR 111100Z 27007KT 240V300 9999 SCT032 18/12 Q1007
                        R11/290095=
201904111130 METAR LRTR 111130Z 25007KT 220V280 9999 SCT035 18/11 Q1007
                        R11/CLRD//=
201904111200 METAR LRTR 111200Z 27008KT 9999 SCT040 18/11 Q1007=
201904111230 METAR LRTR 111230Z 29009KT 9999 SCT047 18/10 Q1007=
201904111300 METAR LRTR 111300Z 28010KT 9999 SCT041 FEW050CB 18/11 Q1007=
201904111330 METAR LRTR 111330Z 30009KT 9999 -TSRA BKN029 SCT045CB 16/14
                        Q1007 RESHRA R11/290095=
201904111400 METAR LRTR 111400Z 35012KT 9999 TS BKN039 SCT050CB 17/12
                        Q1007 R11/290095=
201904111430 METAR COR LRTR 111430Z 36011KT 9999 -TSRA BKN040 SCT050CB
                        17/11 Q1007 R11/290095=
201904111500 METAR LRTR 111500Z VRB04KT 5000 SHRA SCT045CB BKN047 14/14
                        Q1007 RETS RESHRA R11/290094=
201904111530 METAR LRTR 111530Z 14008KT 6000 TSRA BKN034 SCT040CB 13/13
                        Q1007 R11/290094=
201904111600 METAR LRTR 111600Z 16008KT 130V190 2500 +TSRA SCT007 BKN020
                        SCT040CB 12/12 Q1008 R11/290094=
201904111630 METAR LRTR 111630Z 19007KT 5000 TSRA FEW008 SCT030CB 12/12
                        Q1008 RESHRA R11/290094 NOSIG=
201904111700 METAR LRTR 111700Z 20006KT 7000 -SHRA FEW010 SCT035CB 12/12
                        Q1008 RETS RESHRA R11/290094 NOSIG=
201904111730 METAR LRTR 111730Z 19006KT 7000 -SHRA FEW010 SCT035CB 12/12
                        Q1008 R11/290095 TEMPO 5000 SHRA=
201904111800 METAR COR LRTR 111800Z 21003KT 180V240 5000 SHRA SCT030CB
                        SCT045 12/12 Q1009 R11/290095 TEMPO
                        3000 +SHRA=
201904111830 METAR COR LRTR 111830Z 22004KT 5000 SHRA FEW015 SCT030CB
                        SCT045 12/12 Q1009 R11/290095 TEMPO
                        3000 +SHRA=
201904111900 METAR LRTR 111900Z 23003KT 3500 +SHRA FEW020 SCT035CB BKN048
                        OVC069 12/12 Q1009 R11/290095 NOSIG=
201904111930 METAR LRTR 111930Z 30002KT 4000 SHRA FEW016 SCT035CB 12/12
                        Q1009 RESHRA R11/290095 NOSIG=
201904112000 METAR LRTR 112000Z 29006KT 6000 -RA FEW003 SCT012 FEW030CB
                        11/11 Q1009 RESHRA R11/290095 NOSIG=
201904112030 METAR LRTR 112030Z VRB02KT 6000 -RA SCT003 SCT038 12/12 Q1009
                        R11/290095 NOSIG=
201904112100 METAR LRTR 112100Z 19002KT 6000 FEW004 SCT015 11/11 Q1009
                        R11/290095 NOSIG=
201904112130 METAR LRTR 112130Z 00000KT 5000 BR FEW003 SCT012 11/11 Q1009
                        R11/290095 TEMPO 3000 BR=
201904112200 METAR LRTR 112200Z 10004KT 3000 BR FEW002 SCT012 11/11 Q1009
                        R11/290095 NOSIG=
201904112230 METAR LRTR 112230Z 01008KT 5000 BR FEW001 SCT003 BKN010 10/10
                        Q1009 R11/290095 NOSIG=
201904112300 METAR LRTR 112300Z 02007KT 8000 SCT002 SCT007 OVC009 10/09
                        Q1009 R11/290095 NOSIG=
201904112330 METAR LRTR 112330Z 02007KT 9999 FEW003 SCT005 OVC009 10/09
                        Q1009 R11/290095 NOSIG=
201904120000 METAR LRTR 120000Z 03007KT 9999 SCT005 OVC008 09/09 Q1009
                        R11/290095 NOSIG=
201904120030 METAR LRTR 120030Z 03006KT 9999 FEW004 OVC007 10/09 Q1009
                        R11/290095 NOSIG=
201904120100 METAR LRTR 120100Z 02006KT 8000 SCT003 OVC007 09/09 Q1009
                        R11/290095 NOSIG=
201904120130 METAR LRTR 120130Z 02006KT 7000 SCT003 OVC007 09/09 Q1009
                        R11/290095 BECMG 5000 BR=
201904120200 METAR LRTR 120200Z 03007KT 6000 SCT003 OVC008 09/09 Q1009
                        R11/290095 NOSIG=
201904120230 METAR LRTR 120230Z 02007KT 8000 BKN004 OVC008 09/09 Q1009
                        R11/290095 NOSIG=
201904120300 METAR LRTR 120300Z 02009KT 9999 SCT004 BKN008 09/09 Q1009
                        R11/190095 NOSIG=
201904120330 METAR LRTR 120330Z 03007KT 9999 SCT004 BKN017 09/09 Q1009
                        R11/190095 NOSIG=
201904120400 METAR LRTR 120400Z 03006KT 9999 SCT004 BKN018 09/09 Q1009
                        R11/190095 NOSIG=
201904120430 METAR LRTR 120430Z 03002KT 9999 -RA SCT003 SCT018 09/09 Q1010
                        R11/190095 NOSIG=
201904120500 METAR LRTR 120500Z 01003KT 9999 SCT003 09/09 Q1010 R11/190095
                        TEMPO BKN003=
201904120530 METAR LRTR 120530Z 03007KT 9999 -RA BKN003 09/09 Q1010 R11/190095
                        NOSIG=
201904120600 METAR LRTR 120600Z 03005KT 9999 BKN003 10/10 Q1010 R11/190095
                        NOSIG=
201904120630 METAR LRTR 120630Z 04006KT 9999 BKN004 10/10 Q1010 R11/190095
                        BECMG BKN010=
201904120700 METAR LRTR 120700Z 04004KT 9999 -RA SCT005 BKN012 11/11 Q1010
                        R11/190095 NOSIG=
201904120730 METAR LRTR 120730Z VRB05KT 7000 -RA BKN005 10/10 Q1011 R11/190095
                        NOSIG=
201904120800 METAR LRTR 120800Z 19008KT 8000 -RA BKN005 10/10 Q1011 R11/190095
                        NOSIG=
201904120830 METAR LRTR 120830Z 19009KT 8000 -RA BKN005 10/10 Q1011 R11/190095
                        NOSIG=
201904120900 METAR LRTR 120900Z 19010KT 9999 -RA BKN007 10/10 Q1011 R11/190095
                        NOSIG=
201904120930 METAR LRTR 120930Z 19010KT 9999 -RA BKN008 09/09 Q1012 R11/190095
                        NOSIG=
201904121000 METAR LRTR 121000Z 19009KT 9999 BKN010 10/09 Q1012 R11/190095
                        NOSIG=
201904121030 METAR LRTR 121030Z 20010KT 9999 BKN011 10/09 Q1012 R11/190095
                        NOSIG=
201904121100 METAR LRTR 121100Z 20009KT 9999 BKN012 10/09 Q1012 R11/190095
                        NOSIG=
201904121130 METAR LRTR 121130Z 22009KT 9999 BKN012 11/09 Q1012 R11/190095
                        NOSIG=
201904121200 METAR LRTR 121200Z 23009KT 9999 BKN013 10/08 Q1012 R11/190095
                        NOSIG=
201904121230 METAR LRTR 121230Z 22008KT 9999 BKN015 10/08 Q1012 R11/190095
                        NOSIG=
201904121300 METAR LRTR 121300Z 23009KT 9999 BKN017 11/08 Q1012 R11/190095
                        NOSIG=
201904121330 METAR LRTR 121330Z 22008KT 190V250 9999 BKN018 11/08 Q1012
                        R11/190095 NOSIG=
201904121400 METAR LRTR 121400Z 24006KT 9999 BKN018 10/08 Q1012 R11/190095
                        NOSIG=
201904121430 METAR LRTR 121430Z 23007KT 9999 BKN020 10/07 Q1012 R11/190095
                        NOSIG=
201904121500 METAR LRTR 121500Z 23006KT 9999 BKN018 11/08 Q1012 R11/190095
                        NOSIG=
201904121530 METAR LRTR 121530Z 23007KT 9999 SCT018 BKN047 10/07 Q1012
                        NOSIG=
201904121600 METAR LRTR 121600Z 21006KT 9999 SCT020 BKN048 10/07 Q1012
                        NOSIG=
201904121630 METAR LRTR 121630Z 21005KT 9999 SCT021 BKN046 10/07 Q1012=
201904121700 METAR LRTR 121700Z 21004KT 180V240 9999 BKN020 10/07 Q1013=
201904121730 METAR LRTR 121730Z 22004KT 9999 BKN022 10/08 Q1013=
201904121800 METAR LRTR 121800Z 26004KT 9999 BKN021 09/08 Q1013=
201904121830 METAR LRTR 121830Z 25005KT 9999 BKN024 09/08 Q1013=
201904121900 METAR LRTR 121900Z AUTO 24005KT 9999 BKN025/// OVC089///
                        09/08 Q1014=
201904121930 METAR LRTR 121930Z 22004KT 9999 BKN025 08/08 Q1014=
201904122000 METAR LRTR 122000Z 23003KT 9999 SCT024 BKN048 08/08 Q1014=
201904122030 METAR LRTR 122030Z 26007KT 9999 SCT025 BKN045 08/08 Q1014=
201904122100 METAR LRTR 122100Z 26007KT 9999 SCT025 BKN044 08/08 Q1014=
201904122130 METAR LRTR 122130Z 27005KT 9999 SCT023 BKN043 07/07 Q1014=
201904122200 METAR LRTR 122200Z 25007KT 9999 -RA SCT006 BKN022 OVC044
                        07/07 Q1014=
201904122230 METAR LRTR 122230Z 25007KT 9999 -RA SCT006 BKN022 OVC045
                        07/07 Q1014=
201904122300 METAR LRTR 122300Z 26005KT 9999 SCT005 BKN039 07/07 Q1014=
201904122330 METAR LRTR 122330Z 26005KT 9999 SCT005 BKN039 07/07 Q1014=
201904130000 METAR LRTR 130000Z 25006KT 9999 SCT006 BKN037 07/07 Q1014=
201904130030 METAR LRTR 130030Z 25004KT 9999 FEW008 BKN034 07/07 Q1014=
201904130100 METAR LRTR 130100Z 26003KT 9999 BKN008 OVC034 07/07 Q1014=
201904130130 METAR LRTR 130130Z 28004KT 9999 BKN009 OVC034 06/06 Q1014=
201904130200 METAR LRTR 130200Z 28002KT 9999 BKN007 OVC035 07/07 Q1014=
201904130230 METAR LRTR 130230Z 25003KT 9999 SCT007 BKN013 OVC032 07/07
                        Q1014=
201904130300 METAR LRTR 130300Z 26004KT 9999 -RA SCT008 BKN014 OVC032
                        06/06 Q1014=
201904130330 METAR LRTR 130330Z 26004KT 8000 -RA BKN009 OVC030 06/06 Q1014=
201904130400 METAR LRTR 130400Z 26004KT 5000 -RA BR BKN009 OVC030 06/06
                        Q1014=
201904130430 METAR LRTR 130430Z 27003KT 5000 -RA BR BKN007 OVC030 06/06
                        Q1014=
201904130500 METAR COR LRTR 130500Z 27001KT 5000 -RA BR BKN007 OVC030
                        07/07 Q1014=
201904130530 METAR LRTR 130530Z VRB01KT 5000 -RA BR BKN006 OVC030 07/07
                        Q1014=
201904130600 METAR LRTR 130600Z 00000KT 5000 -RA BR BKN007 OVC030 07/07
                        Q1014=
201904130630 METAR LRTR 130630Z 19003KT 160V220 6000 -RA OVC006 07/07
                        Q1014 R11/29//95=
201904130700 METAR LRTR 130700Z 19004KT 150V220 9000 -RA OVC008 07/07
                        Q1015 R11/29//95=
201904130730 METAR LRTR 130730Z 18003KT 140V210 9000 BKN008 OVC015 08/08
                        Q1015 R11/29//95=
201904130800 METAR LRTR 130800Z 18004KT 140V230 9999 BKN011 OVC020 08/07
                        Q1015 R11/29//95=
201904130830 METAR LRTR 130830Z 18004KT 150V220 9999 BKN012 OVC020 09/08
                        Q1015 R11/29//95=
201904130900 METAR LRTR 130900Z 20003KT 160V230 9999 BKN013 OVC020 09/07
                        Q1015 R11/29//95=
201904130930 METAR LRTR 130930Z 20004KT 170V240 9999 SCT015 BKN020 OVC046
                        09/07 Q1015 R11/15//95=
201904131000 METAR LRTR 131000Z 20004KT 180V240 9999 BKN015 OVC039 10/08
                        Q1015 R11/15//95=
201904131030 METAR LRTR 131030Z 21003KT 170V250 9999 -RA BKN015 OVC040
                        09/07 Q1015 R11/15//95=
201904131100 METAR LRTR 131100Z 31004KT 9999 -RA BKN015 OVC035 09/08 Q1015
                        R11/15//95=
201904131130 METAR LRTR 131130Z 30003KT 260V330 8000 -RA BKN015 OVC030
                        09/09 Q1015 R11/15//95=
201904131200 METAR LRTR 131200Z 28003KT 250V310 9000 -RA BKN012 OVC030
                        09/09 Q1015 R11/290095=
201904131230 METAR LRTR 131230Z 28004KT 9000 -RA BKN013 OVC030 09/09 Q1015
                        R11/290095=
201904131300 METAR LRTR 131300Z 27005KT 9999 -RA BKN012 OVC030 10/09 Q1015
                        R11/290095=
201904131330 METAR LRTR 131330Z 26005KT 230V290 9999 -RA BKN012 OVC030
                        10/09 Q1015 R11/290095=
201904131400 METAR LRTR 131400Z 28005KT 9999 -RA BKN014 OVC030 10/09 Q1015
                        R11/290095=
201904131430 METAR LRTR 131430Z 26003KT 230V290 9999 -RA BKN017 OVC030
                        09/09 Q1015 R11/290095=
201904131500 METAR LRTR 131500Z 24004KT 9000 -RA BKN019 OVC030 10/10 Q1015
                        R11/290095=
201904131530 METAR COR LRTR 131530Z VRB02KT 9000 -RA BKN021 OVC030 10/10
                        Q1015 R11/290095=
201904131600 METAR LRTR 131600Z 26003KT 9999 -RA OVC022 09/09 Q1015 R11/290095=
201904131630 METAR LRTR 131630Z 28001KT 9999 -RA BKN021 OVC030 09/09 Q1015
                        R11/290095 NOSIG=
201904131700 METAR LRTR 131700Z 00000KT 9999 BKN019 OVC030 09/09 Q1015
                        R11/290095 NOSIG=
201904131730 METAR LRTR 131730Z 23001KT 9999 OVC019 09/09 Q1015 R11/290095
                        NOSIG=
201904131800 METAR LRTR 131800Z 00000KT 9999 -RA OVC020 09/09 Q1015 R11/290095
                        NOSIG=
201904131830 METAR LRTR 131830Z 00000KT 9999 BKN020 09/09 Q1015 R11/290095
                        NOSIG=
201904131900 METAR LRTR 131900Z 00000KT 9999 BKN022 09/09 Q1015 R11/290095
                        NOSIG=
201904131930 METAR LRTR 131930Z 29001KT 9999 BKN024 09/09 Q1015 R11/290095
                        NOSIG=
201904132000 METAR LRTR 132000Z 31001KT 8000 BKN024 09/09 Q1015 R11/290095
                        NOSIG=
201904132030 METAR LRTR 132030Z 28003KT 7000 -RA OVC022 09/09 Q1015 R11/290095
                        TEMPO 5000 BR=
201904132100 METAR LRTR 132100Z 28003KT 5000 -RA BR BKN022 09/09 Q1015
                        R11/290095 NOSIG=
201904132130 METAR LRTR 132130Z 27003KT 5000 -RA BR SCT025 08/08 Q1015
                        R11/290095 NOSIG=
201904132200 METAR LRTR 132200Z 27004KT 5000 -RA BR SCT022 08/08 Q1015
                        R11/290095 NOSIG=
201904132230 METAR LRTR 132230Z 30004KT 4000 -RA BR SCT022 08/08 Q1015
                        R11/290095 TEMPO 3000 BR=
201904132300 METAR LRTR 132300Z 31003KT 3000 -RA BR SCT030 08/08 Q1015
                        R11/290095 NOSIG=
201904132330 METAR LRTR 132330Z 32002KT 2000 BR NSC 08/08 Q1015 R11/290095
                        TEMPO 1500 BR=
201904140000 METAR LRTR 140000Z 32002KT 1500 RA BR NSC 08/08 Q1015 R11/290095
                        NOSIG=
201904140030 METAR LRTR 140030Z 00000KT 1500 -RA BR NSC 08/08 Q1014 RERA
                        R11/290095 NOSIG=
201904140100 METAR LRTR 140100Z 00000KT 1500 -RA BR NSC 08/08 Q1014 R11/290095
                        NOSIG=
201904140130 METAR LRTR 140130Z 00000KT 2000 -RA BR NSC 08/08 Q1014 R11/290095
                        TEMPO 1500 RA BR=
201904140200 METAR LRTR 140200Z 29003KT 1500 BR SCT002 OVC044 08/08 Q1014
                        R11/290095 TEMPO 0800 FG BKN002=
201904140230 METAR LRTR 140230Z 27002KT 1200 R11/P2000 R29/P2000 BR BKN001
                        OVC044 08/08 Q1014 R11/290095 TEMPO
                        0800 FG=
201904140300 METAR COR LRTR 140300Z 29004KT 1200 R11/1600U R29/P2000 -DZ
                        BR BKN001 OVC045 08/08 Q1014 R11/290095
                        TEMPO 0800 FG=
201904140330 METAR LRTR 140330Z 29002KT 0800 R11/P2000 R29/P2000 -DZ FG
                        BKN001 08/08 Q1014 R11/290095 NOSIG=
201904140400 METAR LRTR 140400Z 29003KT 0800 R11/P2000 R29/P2000 -DZ FG
                        BKN001 08/08 Q1014 R11/290095 BECMG
                        1500=
201904140430 METAR LRTR 140430Z 31004KT 1000 R11/P2000 R29/P2000 -RADZ
                        BR BKN002 OVC048 08/08 Q1014 R11/290095
                        BECMG 1500=
201904140500 METAR LRTR 140500Z 34002KT 1300 R11/P2000 R29/P2000 -DZ BR
                        SCT002 BKN005 09/09 Q1014 R11/290095
                        BECMG 1500=
201904140530 METAR LRTR 140530Z 34003KT 1500 -DZ BR FEW003 BKN008 BKN048
                        09/09 Q1014 R11/290095 BECMG 3000=
201904140600 METAR LRTR 140600Z 01005KT 3500 -DZ BR SCT005 SCT008 BKN040
                        09/09 Q1014 R11/290095 BECMG 5000=
201904140630 METAR LRTR 140630Z 36004KT 5000 -DZ BR SCT006 SCT010 BKN040
                        10/10 Q1014 R11/290095 NOSIG=
201904140700 METAR LRTR 140700Z 36005KT 6000 -DZ SCT007 SCT010 BKN040
                        10/10 Q1014 R11/290095 NOSIG=
201904140730 METAR LRTR 140730Z 36006KT 6000 FEW007 BKN014 BKN045 10/10
                        Q1014 R11/290095 NOSIG=
201904140800 METAR LRTR 140800Z 34005KT 5000 -DZ BR FEW007 SCT014 BKN020
                        10/10 Q1015 R11/290095 NOSIG=
201904140830 METAR LRTR 140830Z 33005KT 5000 -DZ BR SCT009 SCT015 BKN020
                        10/10 Q1014 R11/290095 NOSIG=
201904140900 METAR LRTR 140900Z 32005KT 6000 -DZRA SCT008 SCT015 BKN022
                        11/11 Q1015 R11/290095 NOSIG=
201904140930 METAR LRTR 140930Z 31005KT 7000 -RADZ FEW008 SCT015 BKN025
                        11/11 Q1014 R11/290095 NOSIG=
201904141000 METAR LRTR 141000Z 28006KT 8000 FEW009 SCT025 BKN035 11/11
                        Q1014 R11/290095 NOSIG=
201904141030 METAR LRTR 141030Z 28007KT 250V310 8000 FEW010 SCT026 BKN035
                        12/12 Q1014 R11/190095 NOSIG=
201904141100 METAR LRTR 141100Z 27006KT 250V310 9999 SCT013 SCT033 13/11
                        Q1014 R11/190095 NOSIG=
201904141130 METAR LRTR 141130Z 28007KT 250V320 9999 SCT014 SCT034 14/12
                        Q1014 R11/190095 NOSIG=
201904141200 METAR LRTR 141200Z 32006KT 9999 SCT017 SCT035 14/11 Q1014
                        R11/190095 NOSIG=
201904141230 METAR LRTR 141230Z 30008KT 260V330 9999 SCT020 BKN038 14/11
                        Q1014 R11/190095 NOSIG=
201904141300 METAR LRTR 141300Z 30006KT 270V330 9999 FEW020 FEW030CB BKN040
                        15/11 Q1014 R11/CLRD// TEMPO 5000
                        TSRA=
201904141330 METAR LRTR 141330Z 32009KT 300V360 9999 VCTS VCSH FEW022
                        SCT030CB 13/10 Q1013 TEMPO 5000 TSRA=
201904141400 METAR LRTR 141400Z 02010KT 5000 SHRA FEW025 SCT030CB 12/11
                        Q1014 TEMPO 3000 SHRA=
201904141430 METAR COR LRTR 141430Z 35006KT 320V030 3000 +SHRA FEW025
                        BKN033CB 11/11 Q1014 R11/190095 NOSIG=
201904141500 METAR LRTR 141500Z 29007KT 7000 -SHRA FEW030 SCT035CB BKN048
                        10/10 Q1014 RESHRA R11/290095 NOSIG=
201904141530 METAR COR LRTR 141530Z 28005KT 9999 -SHRA SCT028 SCT035CB
                        10/10 Q1014 R11/290095 TEMPO TSRA=
201904141600 METAR LRTR 141600Z 29005KT 9999 -SHRA SCT022 SCT035CB 10/10
                        Q1014 RESHRA R11/290095 NOSIG=
201904141630 METAR LRTR 141630Z 28003KT 9999 -SHRA SCT025 FEW040CB 11/11
                        Q1014 R11/290095=
201904141700 METAR LRTR 141700Z 33005KT 9999 FEW025 FEW040CB 11/11 Q1014
                        R11/290095=
201904141730 METAR LRTR 141730Z 32005KT 9999 FEW040CB 10/10 Q1014 R11/290095=
201904141800 METAR LRTR 141800Z 29004KT 9999 FEW040CB 10/10 Q1014 R11/290095=
201904141830 METAR LRTR 141830Z 28003KT 9999 FEW045CB 10/10 Q1014 R11/290095=
201904141900 METAR LRTR 141900Z 29004KT 9999 -RA NSC 10/10 Q1015 R11/290095=
201904141930 METAR LRTR 141930Z VRB02KT 9999 -RA NSC 10/10 Q1015 R11/290095=
201904142000 METAR LRTR 142000Z 32006KT CAVOK 10/10 Q1015 R11/290095=
201904142030 METAR LRTR 142030Z 31004KT CAVOK 09/09 Q1015 R11/290095=
201904142100 METAR LRTR 142100Z 36004KT 9999 -RA NSC 09/09 Q1015 R11/290095=
201904142130 METAR LRTR 142130Z 01005KT CAVOK 10/10 Q1015 R11/290095=
201904142200 METAR LRTR 142200Z 01004KT CAVOK 10/09 Q1015 R11/290095=
201904142230 METAR LRTR 142230Z 02006KT CAVOK 10/10 Q1015 R11/290095=
201904142300 METAR LRTR 142300Z 01005KT CAVOK 10/09 Q1015 R11/290095=
201904142330 METAR LRTR 142330Z 36005KT CAVOK 09/09 Q1015 R11/290095=
201904150000 METAR LRTR 150000Z 07005KT CAVOK 09/09 Q1015 R11/290095=
201904150030 METAR LRTR 150030Z 07006KT 8000 NSC 09/09 Q1015 R11/290095=
201904150100 METAR LRTR 150100Z 07005KT 5000 BR NSC 09/09 Q1015 R11/290095=
201904150130 METAR LRTR 150130Z 09006KT 5000 BR NSC 09/09 Q1015 R11/290095=
201904150200 METAR LRTR 150200Z 08006KT 6000 NSC 09/09 Q1015 R11/290095=
201904150230 METAR LRTR 150230Z 08006KT 7000 NSC 09/09 Q1015 R11/290095=
201904150300 METAR LRTR 150300Z 08006KT 8000 NSC 09/09 Q1015 R11/290095=
201904150330 METAR LRTR 150330Z 08006KT CAVOK 09/09 Q1015 R11/290095=
201904150400 METAR LRTR 150400Z 08004KT 9999 -RA NSC 09/09 Q1016 R11/290095=
201904150430 METAR LRTR 150430Z 07003KT 9999 -RA NSC 09/08 Q1016 R11/290095
                        NOSIG=
201904150500 METAR LRTR 150500Z 08005KT CAVOK 09/09 Q1016 R11/290095 NOSIG=
201904150530 METAR LRTR 150530Z 05004KT 9999 -RA NSC 09/09 Q1016 R11/290095
                        NOSIG=
201904150600 METAR LRTR 150600Z 09006KT CAVOK 09/08 Q1016 R11/290095 NOSIG=
201904150630 METAR LRTR 150630Z 10008KT 9999 FEW027 10/08 Q1017 R11/290095
                        NOSIG=
201904150700 METAR LRTR 150700Z 10009KT 9999 SCT023 10/08 Q1017 R11/290095
                        NOSIG=
201904150730 METAR LRTR 150730Z 10009KT 9999 -RA SCT023 SCT035 10/07 Q1017
                        R11/290095 NOSIG=
201904150800 METAR LRTR 150800Z 10008KT 9999 -RA SCT023 BKN035 11/07 Q1017
                        R11/290095 NOSIG=
201904150830 METAR LRTR 150830Z 12009KT 9999 -RA FEW025 BKN034 11/07 Q1017
                        R11/290095 NOSIG=
201904150900 METAR LRTR 150900Z 10007KT 9999 -RA SCT026 BKN036 11/08 Q1018
                        R11/290095 NOSIG=
201904150930 METAR LRTR 150930Z 11006KT 9999 -RA FEW025 BKN036 12/07 Q1018
                        R11/290095 NOSIG=
201904151000 METAR LRTR 151000Z 09003KT 350V150 9999 FEW022 BKN039 13/08
                        Q1018 R11/290095 NOSIG=
201904151030 METAR LRTR 151030Z VRB02KT 9999 FEW026 SCT035 13/08 Q1018
                        R11/290095 NOSIG=
201904151100 METAR LRTR 151100Z 15003KT 090V200 9999 FEW025 SCT035 FEW050CB
                        13/08 Q1018 NOSIG=
201904151130 METAR LRTR 151130Z 35003KT 320V040 9999 FEW026 BKN046 FEW050CB
                        14/09 Q1017 NOSIG=
201904151200 METAR LRTR 151200Z VRB01KT 9999 FEW025 BKN046 FEW050CB 14/08
                        Q1017 NOSIG=
201904151230 METAR LRTR 151230Z 01003KT 320V070 9999 FEW034 SCT045 FEW050CB
                        14/08 Q1017=
201904151300 METAR LRTR 151300Z 08004KT 020V150 9999 SCT047 FEW050CB 15/06
                        Q1017=
201904151330 METAR LRTR 151330Z 08004KT 030V120 9999 SCT041 FEW050CB 15/07
                        Q1017=
201904151400 METAR LRTR 151400Z VRB03KT 9999 BKN039 FEW050CB 15/10 Q1017=
201904151430 METAR LRTR 151430Z 35006KT 9999 BKN040 FEW050CB 15/05 Q1017=
201904151500 METAR LRTR 151500Z 03007KT 9999 BKN044 FEW050CB 15/07 Q1017=
201904151530 METAR LRTR 151530Z 36006KT 280V020 9999 SCT045 FEW050CB 14/08
                        Q1017=
201904151600 METAR LRTR 151600Z 34006KT CAVOK 14/08 Q1017=
201904151630 METAR LRTR 151630Z 35003KT CAVOK 14/08 Q1017=
201904151700 METAR LRTR 151700Z 29004KT CAVOK 13/08 Q1017=
201904151730 METAR LRTR 151730Z 27007KT CAVOK 11/10 Q1017=
201904151800 METAR LRTR 151800Z 29006KT CAVOK 09/09 Q1018=
201904151830 METAR LRTR 151830Z 30005KT CAVOK 09/09 Q1018=
201904151900 METAR LRTR 151900Z 30005KT CAVOK 08/08 Q1018=
201904151930 METAR LRTR 151930Z 30006KT CAVOK 07/07 Q1018=
201904152000 METAR LRTR 152000Z 30004KT CAVOK 07/07 Q1018=
201904152030 METAR LRTR 152030Z 29005KT CAVOK 06/05 Q1018=
201904152100 METAR LRTR 152100Z 29009KT CAVOK 06/05 Q1018=
201904152130 METAR LRTR 152130Z 29004KT 270V340 CAVOK 05/04 Q1018=
201904152200 METAR LRTR 152200Z 34004KT 310V010 CAVOK 06/02 Q1018=
201904152230 METAR LRTR 152230Z 01007KT CAVOK 06/02 Q1018=
201904152300 METAR LRTR 152300Z VRB02KT CAVOK 05/02 Q1018=
201904152330 METAR LRTR 152330Z 01005KT 340V050 CAVOK 05/02 Q1018=
201904160000 METAR COR LRTR 160000Z 02009KT CAVOK 05/02 Q1018=
201904160030 METAR LRTR 160030Z 01008KT CAVOK 05/02 Q1018=
201904160100 METAR LRTR 160100Z 05005KT CAVOK 04/02 Q1018=
201904160130 METAR LRTR 160130Z 03005KT CAVOK 04/01 Q1018=
201904160200 METAR LRTR 160200Z 04005KT CAVOK 04/01 Q1019=
201904160230 METAR LRTR 160230Z 04006KT CAVOK 03/01 Q1019=
201904160300 METAR LRTR 160300Z 05006KT CAVOK 02/01 Q1019=
201904160330 METAR LRTR 160330Z 02005KT CAVOK 02/01 Q1019=
201904160400 METAR LRTR 160400Z VRB01KT 9999 FEW004 02/01 Q1019 NOSIG=
201904160430 METAR LRTR 160430Z 02002KT 9999 FEW004 02/01 Q1019 NOSIG=
201904160500 METAR LRTR 160500Z 02006KT 9999 FEW002 03/02 Q1019 NOSIG=
201904160530 METAR LRTR 160530Z 03006KT 9999 FEW003 05/03 Q1019 NOSIG=
201904160600 METAR LRTR 160600Z 02004KT 9999 FEW005 06/04 Q1019 NOSIG=
201904160630 METAR LRTR 160630Z VRB02KT 9999 FEW005 08/06 Q1019 NOSIG=
201904160700 METAR LRTR 160700Z 00000KT 9999 FEW002 10/07 Q1020 NOSIG=
201904160730 METAR LRTR 160730Z VRB02KT 9999 FEW004 10/07 Q1020 NOSIG=
201904160800 METAR LRTR 160800Z 31004KT 230V340 9999 FEW008 11/08 Q1020
                        NOSIG=
201904160830 METAR LRTR 160830Z 34006KT 290V020 9999 FEW010 12/04 Q1019
                        NOSIG=
201904160900 METAR LRTR 160900Z 36009KT 9999 FEW030 13/01 Q1019 NOSIG=
201904160930 METAR LRTR 160930Z 35011KT 9999 FEW035 14/01 Q1019 NOSIG=
201904161000 METAR LRTR 161000Z 36011KT 330V030 9999 FEW040 14/M00 Q1019
                        NOSIG=
201904161030 METAR LRTR 161030Z 35010KT CAVOK 15/01 Q1019 NOSIG=
201904161100 METAR LRTR 161100Z 34009KT 320V020 CAVOK 15/M02 Q1019 NOSIG=
201904161130 METAR LRTR 161130Z 36013KT CAVOK 15/M01 Q1019 NOSIG=
201904161200 METAR LRTR 161200Z 35011KT 310V010 CAVOK 16/M04 Q1019 NOSIG=
201904161230 METAR LRTR 161230Z 33011KT 300V010 CAVOK 16/M02 Q1018 NOSIG=
201904161300 METAR LRTR 161300Z 34011KT 310V010 CAVOK 16/M03 Q1018 NOSIG=
201904161330 METAR LRTR 161330Z 35011KT CAVOK 16/M03 Q1018 NOSIG=
201904161400 METAR COR LRTR 161400Z 32010KT 300V360 CAVOK 16/M03 Q1018
                        NOSIG=
201904161430 METAR LRTR 161430Z 34011KT 310V010 CAVOK 16/M04 Q1017 NOSIG=
201904161500 METAR LRTR 161500Z 33010KT CAVOK 16/M05 Q1017 NOSIG=
201904161530 METAR LRTR 161530Z 33011KT CAVOK 16/M05 Q1017 NOSIG=
201904161600 METAR LRTR 161600Z 34011KT CAVOK 16/M05 Q1017 NOSIG=
201904161630 METAR LRTR 161630Z 34009KT CAVOK 15/M05 Q1018=
201904161700 METAR LRTR 161700Z 33008KT CAVOK 13/M05 Q1018=
201904161730 METAR LRTR 161730Z 33008KT CAVOK 12/M04 Q1018=
201904161800 METAR LRTR 161800Z 35007KT CAVOK 11/M04 Q1018=
201904161830 METAR LRTR 161830Z 34007KT CAVOK 09/M03 Q1018=
201904161900 METAR LRTR 161900Z 36005KT CAVOK 08/M02 Q1018=
201904161930 METAR LRTR 161930Z 31006KT CAVOK 06/M01 Q1018=
201904162000 METAR LRTR 162000Z 32006KT CAVOK 06/M02 Q1018=
201904162030 METAR LRTR 162030Z 31005KT CAVOK 05/M01 Q1018=
201904162100 METAR LRTR 162100Z 31005KT CAVOK 06/M01 Q1018=
201904162130 METAR LRTR 162130Z 33004KT CAVOK 06/M02 Q1018=
201904162200 METAR LRTR 162200Z 32004KT CAVOK 04/M02 Q1018=
201904162230 METAR LRTR 162230Z 01005KT CAVOK 05/M01 Q1018=
201904162300 METAR LRTR 162300Z 29009KT CAVOK 03/00 Q1018=
201904162330 METAR LRTR 162330Z 34006KT CAVOK 06/M00 Q1018=
201904170000 METAR LRTR 170000Z 01007KT CAVOK 05/01 Q1018=
201904170030 METAR LRTR 170030Z 02010KT CAVOK 06/02 Q1018=
201904170100 METAR LRTR 170100Z 02009KT CAVOK 06/03 Q1018=
201904170130 METAR LRTR 170130Z 01010KT CAVOK 06/04 Q1018=
201904170200 METAR LRTR 170200Z 02007KT CAVOK 06/04 Q1017=
201904170230 METAR LRTR 170230Z 36010KT CAVOK 06/04 Q1017=
201904170300 METAR LRTR 170300Z 34006KT CAVOK 07/04 Q1017=
201904170330 METAR LRTR 170330Z 34006KT CAVOK 07/04 Q1017=
201904170400 METAR LRTR 170400Z 34007KT CAVOK 06/04 Q1018=
201904170430 METAR LRTR 170430Z 34007KT CAVOK 06/04 Q1018=
201904170500 METAR LRTR 170500Z 35008KT CAVOK 06/04 Q1018=
201904170530 METAR LRTR 170530Z 36008KT CAVOK 07/04 Q1018=
201904170600 METAR LRTR 170600Z 01010KT CAVOK 08/04 Q1018=
201904170630 METAR LRTR 170630Z 36009KT CAVOK 08/04 Q1018=
201904170700 METAR LRTR 170700Z 35010KT CAVOK 08/04 Q1019=
201904170730 METAR LRTR 170730Z 36010KT 320V020 9999 FEW024 09/04 Q1019=
201904170800 METAR LRTR 170800Z 34009KT 9999 FEW026 10/03 Q1019=
201904170830 METAR LRTR 170830Z 35009KT 9999 FEW030 11/04 Q1019=
201904170900 METAR LRTR 170900Z 35010KT 9999 FEW033 12/04 Q1019=
201904170930 METAR LRTR 170930Z 34010KT 9999 FEW035 13/04 Q1019=
201904171000 METAR LRTR 171000Z 34011KT 9999 FEW035 14/04 Q1019=
201904171030 METAR COR LRTR 171030Z 35012KT 330V030 9999 FEW038 14/04
                        Q1019=
201904171100 METAR LRTR 171100Z 36012KT 9999 FEW039 14/04 Q1018=
201904171130 METAR LRTR 171130Z 34013KT 9999 FEW042 15/04 Q1019=
201904171200 METAR LRTR 171200Z 35009KT 320V030 9999 SCT042 14/05 Q1019=
201904171230 METAR LRTR 171230Z 01010KT 340V040 9999 SCT042 14/05 Q1019=
201904171300 METAR LRTR 171300Z 01010KT 9999 BKN043 14/04 Q1018=
201904171330 METAR LRTR 171330Z 01011KT 9999 BKN042 15/05 Q1018=
201904171400 METAR LRTR 171400Z 03008KT 9999 BKN045 15/04 Q1019=
201904171430 METAR LRTR 171430Z 35007KT 9999 BKN048 15/04 Q1018=
201904171500 METAR LRTR 171500Z 04003KT 010V110 9999 FEW046 FEW050CB 15/04
                        Q1019=
201904171530 METAR LRTR 171530Z 03006KT 010V070 9999 FEW050CB 15/05 Q1019=
201904171600 METAR LRTR 171600Z 05017KT 8000 SHRA SCT043CB 10/10 Q1020
                        R11/290095=
201904171630 METAR LRTR 171630Z 10005KT 9999 -SHRA FEW015 SCT040CB 10/09
                        Q1019 RESHRA R11/290095 NOSIG=
201904171700 METAR LRTR 171700Z 09004KT 9999 FEW020 FEW045CB 10/10 Q1020
                        R11/290095 NOSIG=
201904171730 METAR LRTR 171730Z 04003KT 9999 FEW025 10/10 Q1020 R11/290095
                        NOSIG=
201904171800 METAR LRTR 171800Z 05003KT 9999 SCT040 10/09 Q1020 R11/290095
                        NOSIG=
201904171830 METAR LRTR 171830Z 02004KT 9999 SCT040 10/09 Q1021 R11/290095
                        NOSIG=
201904171900 METAR LRTR 171900Z 08005KT CAVOK 10/09 Q1021 R11/290095 NOSIG=
201904171930 METAR LRTR 171930Z 03004KT 9999 -RA NSC 10/10 Q1021 R11/290095
                        NOSIG=
201904172000 METAR LRTR 172000Z 36006KT CAVOK 10/09 Q1022 R11/290095 NOSIG=
201904172030 METAR LRTR 172030Z 36005KT CAVOK 09/09 Q1022 R11/290095 NOSIG=
201904172100 METAR LRTR 172100Z 01007KT CAVOK 09/09 Q1022 R11/290095 NOSIG=
201904172130 METAR LRTR 172130Z 03009KT CAVOK 08/08 Q1022 R11/290095 NOSIG=
201904172200 METAR LRTR 172200Z 06006KT CAVOK 08/07 Q1022 R11/290095 NOSIG=
201904172230 METAR LRTR 172230Z 04008KT CAVOK 08/07 Q1022 R11/290095 NOSIG=
201904172300 METAR LRTR 172300Z 06007KT CAVOK 08/07 Q1022 R11/290095 NOSIG=
201904172330 METAR LRTR 172330Z 05007KT CAVOK 07/06 Q1022 R11/290095 NOSIG=
201904180000 METAR LRTR 180000Z 04006KT CAVOK 06/06 Q1022 R11/290095 NOSIG=
201904180030 METAR LRTR 180030Z 04007KT CAVOK 07/06 Q1022 R11/290095 NOSIG=
201904180100 METAR LRTR 180100Z 06008KT CAVOK 07/06 Q1023 R11/290095 NOSIG=
201904180130 METAR LRTR 180130Z 07006KT CAVOK 06/06 Q1023 R11/290095 NOSIG=
201904180200 METAR LRTR 180200Z 09004KT CAVOK 05/05 Q1023 R11/290095 NOSIG=
201904180230 METAR LRTR 180230Z 08004KT CAVOK 04/04 Q1023 R11/290095 NOSIG=
201904180300 METAR LRTR 180300Z 09005KT CAVOK 03/03 Q1023 R11/190095 NOSIG=
201904180330 METAR LRTR 180330Z 09007KT CAVOK 03/03 Q1023 R11/190095 NOSIG=
201904180400 METAR LRTR 180400Z 08006KT CAVOK 04/04 Q1024 R11/190095 NOSIG=
201904180430 METAR LRTR 180430Z 06005KT CAVOK 05/05 Q1024 R11/190095 NOSIG=
201904180500 METAR LRTR 180500Z 09008KT CAVOK 07/06 Q1025 R11/190095 NOSIG=
201904180530 METAR LRTR 180530Z 09007KT CAVOK 08/07 Q1025 R11/190095 NOSIG=
201904180600 METAR LRTR 180600Z 09008KT CAVOK 10/08 Q1025 R11/190095 NOSIG=
201904180630 METAR LRTR 180630Z 09007KT CAVOK 11/08 Q1026 R11/190095 NOSIG=
201904180700 METAR LRTR 180700Z 10006KT CAVOK 12/08 Q1026 R11/190095 NOSIG=
201904180730 METAR LRTR 180730Z 11006KT 060V130 9999 FEW022 13/08 Q1026
                        R11/190095 NOSIG=
201904180800 METAR LRTR 180800Z VRB02KT 9999 FEW030 14/06 Q1026 R11/CLRD//
                        NOSIG=
201904180830 METAR LRTR 180830Z VRB02KT 9999 FEW035 14/06 Q1026 NOSIG=
201904180900 METAR LRTR 180900Z 03006KT 320V060 9999 SCT038 14/05 Q1026
                        NOSIG=
201904180930 METAR LRTR 180930Z 01006KT 290V050 9999 SCT040 16/07 Q1026
                        NOSIG=
201904181000 METAR LRTR 181000Z 34005KT 290V030 9999 SCT045 16/05 Q1026
                        NOSIG=
201904181030 METAR LRTR 181030Z 35007KT 310V020 9999 SCT047 16/05 Q1026
                        NOSIG=
201904181100 METAR LRTR 181100Z 07006KT 010V110 9999 SCT049 17/05 Q1026
                        NOSIG=
201904181130 METAR LRTR 181130Z 33005KT 290V020 9999 SCT049 17/04 Q1026
                        NOSIG=
201904181200 METAR LRTR 181200Z 10008KT 070V160 9999 SCT049 17/03 Q1026
                        NOSIG=
201904181230 METAR LRTR 181230Z 03008KT CAVOK 17/03 Q1026 NOSIG=
201904181300 METAR LRTR 181300Z 01009KT 340V040 CAVOK 17/04 Q1026 NOSIG=
201904181330 METAR LRTR 181330Z 02005KT 330V080 CAVOK 19/04 Q1025 NOSIG=
201904181400 METAR COR LRTR 181400Z 34006KT 9999 FEW050CB 19/05 Q1025
                        NOSIG=
201904181430 METAR LRTR 181430Z 04007KT 360V060 9999 FEW050CB 18/04 Q1025
                        NOSIG=
201904181500 METAR LRTR 181500Z 36009KT 9999 FEW050CB 19/04 Q1025 NOSIG=
201904181530 METAR LRTR 181530Z 06012KT 9999 FEW050CB 18/05 Q1025 NOSIG=
201904181600 METAR LRTR 181600Z 03008KT 9999 FEW050CB 17/06 Q1025 NOSIG=
201904181630 METAR LRTR 181630Z 02007KT 9999 FEW050CB 16/06 Q1026=
201904181700 METAR LRTR 181700Z 01008KT CAVOK 15/07 Q1026=
201904181730 METAR LRTR 181730Z 02005KT 9999 FEW050CB 14/08 Q1026=
201904181800 METAR LRTR 181800Z 03004KT 9999 FEW050CB 14/08 Q1026=
201904181830 METAR LRTR 181830Z 01005KT 9999 FEW050CB 12/08 Q1027=
201904181900 METAR LRTR 181900Z 01007KT CAVOK 11/08 Q1027=
201904181930 METAR LRTR 181930Z 03004KT CAVOK 11/08 Q1027=
201904182000 METAR LRTR 182000Z 07005KT CAVOK 11/08 Q1027=
201904182030 METAR LRTR 182030Z 08006KT CAVOK 11/08 Q1027=
201904182100 METAR LRTR 182100Z 08005KT CAVOK 09/07 Q1027=
201904182130 METAR LRTR 182130Z 08008KT CAVOK 09/07 Q1027=
201904182200 METAR LRTR 182200Z 09006KT CAVOK 09/07 Q1027=
201904182230 METAR LRTR 182230Z 09007KT CAVOK 08/07 Q1027=
201904182300 METAR LRTR 182300Z 09007KT CAVOK 08/07 Q1027=
201904182330 METAR LRTR 182330Z 09006KT CAVOK 07/06 Q1027=
201904190000 METAR LRTR 190000Z 09005KT CAVOK 06/06 Q1027=
201904190030 METAR LRTR 190030Z 08005KT CAVOK 06/06 Q1027=
201904190100 METAR LRTR 190100Z 08005KT CAVOK 06/06 Q1027=
201904190130 METAR LRTR 190130Z 08004KT CAVOK 07/06 Q1027=
201904190200 METAR LRTR 190200Z 10005KT CAVOK 06/06 Q1027=
201904190230 METAR LRTR 190230Z 09007KT CAVOK 05/05 Q1027=
201904190300 METAR LRTR 190300Z 09006KT CAVOK 05/05 Q1027=
201904190330 METAR LRTR 190330Z 08006KT CAVOK 05/05 Q1027=
201904190400 METAR LRTR 190400Z 07005KT CAVOK 04/04 Q1027=
201904190430 METAR LRTR 190430Z 05004KT 9999 MIFG NSC 05/05 Q1027=
201904190500 METAR LRTR 190500Z 01003KT CAVOK 07/07 Q1027=
201904190530 METAR LRTR 190530Z 00000KT CAVOK 11/08 Q1028=
201904190600 METAR LRTR 190600Z 12003KT 090V150 CAVOK 11/08 Q1028=
201904190630 METAR LRTR 190630Z VRB02KT CAVOK 12/08 Q1028=
201904190700 METAR LRTR 190700Z VRB02KT CAVOK 13/08 Q1028=
201904190730 METAR LRTR 190730Z 31002KT CAVOK 15/08 Q1028=
201904190800 METAR LRTR 190800Z 31005KT 280V350 CAVOK 15/07 Q1027=
201904190830 METAR LRTR 190830Z 32008KT 9999 FEW030 16/07 Q1027=
201904190900 METAR LRTR 190900Z 34009KT 310V020 9999 FEW035 17/06 Q1027=
201904190930 METAR LRTR 190930Z 34009KT 9999 FEW035 18/06 Q1027=
201904191000 METAR LRTR 191000Z 34010KT 310V020 9999 FEW040 19/05 Q1026=
201904191030 METAR LRTR 191030Z 34011KT 9999 FEW045 19/04 Q1026=
201904191100 METAR LRTR 191100Z 35014KT 330V030 9999 FEW049 21/03 Q1026=
201904191130 METAR LRTR 191130Z 35015KT 320V020 CAVOK 20/02 Q1025=
201904191200 METAR LRTR 191200Z 35013KT 320V020 CAVOK 20/02 Q1025=
201904191230 METAR LRTR 191230Z 34013KT 310V020 CAVOK 21/01 Q1025=
201904191300 METAR LRTR 191300Z 34014KT CAVOK 21/01 Q1024=
201904191330 METAR LRTR 191330Z 33014KT CAVOK 21/00 Q1024=
201904191400 METAR LRTR 191400Z 36014KT CAVOK 21/M01 Q1024=
201904191430 METAR LRTR 191430Z 35015KT CAVOK 22/M03 Q1024=
201904191500 METAR LRTR 191500Z 36015KT CAVOK 22/M02 Q1023=
201904191530 METAR LRTR 191530Z 36015KT CAVOK 21/M03 Q1023=
201904191600 METAR LRTR 191600Z 01014KT CAVOK 20/M03 Q1024=
201904191630 METAR LRTR 191630Z 36012KT CAVOK 20/M02 Q1024 NOSIG=
201904191700 METAR LRTR 191700Z 02012KT CAVOK 18/M04 Q1024 NOSIG=
201904191730 METAR LRTR 191730Z 03009KT CAVOK 15/M04 Q1024 NOSIG=
201904191800 METAR LRTR 191800Z 01008KT CAVOK 13/M03 Q1025 NOSIG=
201904191830 METAR LRTR 191830Z 36008KT CAVOK 12/M02 Q1025 NOSIG=
201904191900 METAR LRTR 191900Z 35008KT CAVOK 11/M02 Q1025 NOSIG=
201904191930 METAR LRTR 191930Z 36008KT CAVOK 10/M02 Q1025 NOSIG=
201904192000 METAR LRTR 192000Z 36008KT CAVOK 10/M02 Q1025 NOSIG=
201904192030 METAR LRTR 192030Z 02009KT CAVOK 10/M02 Q1025 NOSIG=
201904192100 METAR LRTR 192100Z 02010KT CAVOK 10/M02 Q1025 NOSIG=
201904192130 METAR LRTR 192130Z 03011KT CAVOK 10/M02 Q1025 NOSIG=
201904192200 METAR LRTR 192200Z 03009KT CAVOK 10/M02 Q1025 NOSIG=
201904192230 METAR LRTR 192230Z 04008KT CAVOK 09/M02 Q1025 NOSIG=
201904192300 METAR LRTR 192300Z 03007KT CAVOK 08/M02 Q1026 NOSIG=
201904192330 METAR LRTR 192330Z 04008KT CAVOK 08/M02 Q1026 NOSIG=
201904200000 METAR LRTR 200000Z 05008KT CAVOK 07/M02 Q1026 NOSIG=
201904200030 METAR LRTR 200030Z 06008KT CAVOK 09/M02 Q1026 NOSIG=
201904200100 METAR LRTR 200100Z 06011KT CAVOK 10/M01 Q1026 NOSIG=
201904200130 METAR LRTR 200130Z 08009KT CAVOK 09/M00 Q1026 NOSIG=
201904200200 METAR LRTR 200200Z 07006KT CAVOK 08/M00 Q1026 NOSIG=
201904200230 METAR LRTR 200230Z 08010KT CAVOK 09/M00 Q1026 NOSIG=
201904200300 METAR LRTR 200300Z 08009KT CAVOK 08/00 Q1026 NOSIG=
201904200330 METAR LRTR 200330Z 08008KT CAVOK 07/01 Q1026 NOSIG=
201904200400 METAR LRTR 200400Z 11003KT CAVOK 06/01 Q1027 NOSIG=
201904200430 METAR LRTR 200430Z 04003KT 010V080 CAVOK 06/01 Q1027 NOSIG=
201904200500 METAR LRTR 200500Z 04003KT CAVOK 08/02 Q1027 NOSIG=
201904200530 METAR LRTR 200530Z 09005KT CAVOK 11/02 Q1027 NOSIG=
201904200600 METAR LRTR 200600Z 09006KT CAVOK 13/03 Q1027 NOSIG=
201904200630 METAR LRTR 200630Z 08011KT CAVOK 14/01 Q1028 NOSIG=
201904200700 METAR LRTR 200700Z 09011KT CAVOK 15/01 Q1028 NOSIG=
201904200730 METAR LRTR 200730Z 10009KT CAVOK 16/M00 Q1028 NOSIG=
201904200800 METAR LRTR 200800Z 10008KT 050V120 CAVOK 16/M01 Q1028 NOSIG=
201904200830 METAR LRTR 200830Z 06007KT 020V100 CAVOK 16/M02 Q1028 NOSIG=
201904200900 METAR LRTR 200900Z 08009KT CAVOK 17/M02 Q1028 NOSIG=
201904200930 METAR LRTR 200930Z 07005KT 350V130 CAVOK 16/M02 Q1028 NOSIG=
201904201000 METAR LRTR 201000Z 04005KT 010V080 CAVOK 17/M02 Q1027 NOSIG=
201904201030 METAR LRTR 201030Z 36004KT 300V090 CAVOK 17/M01 Q1027 NOSIG=
201904201100 METAR LRTR 201100Z 03008KT 350V100 CAVOK 19/M02 Q1027 NOSIG=
201904201130 METAR LRTR 201130Z 05007KT 350V080 CAVOK 18/M04 Q1027 NOSIG=
201904201200 METAR LRTR 201200Z 07008KT CAVOK 19/M05 Q1027 NOSIG=
201904201230 METAR LRTR 201230Z 02008KT 340V060 CAVOK 19/M06 Q1026 NOSIG=
201904201300 METAR LRTR 201300Z 05008KT CAVOK 19/M05 Q1026 NOSIG=
201904201330 METAR COR LRTR 201330Z 34009KT CAVOK 19/M04 Q1026 NOSIG=
201904201400 METAR LRTR 201400Z 03007KT 360V080 CAVOK 19/M04 Q1026 NOSIG=
201904201430 METAR LRTR 201430Z 03011KT CAVOK 19/M05 Q1026 NOSIG=
201904201500 METAR LRTR 201500Z 04008KT CAVOK 19/M03 Q1025 NOSIG=
201904201530 METAR LRTR 201530Z 35007KT 320V020 CAVOK 19/M04 Q1025 NOSIG=
201904201600 METAR LRTR 201600Z 01008KT CAVOK 19/M04 Q1025 NOSIG=
201904201630 METAR LRTR 201630Z 01008KT CAVOK 18/M05 Q1025=
201904201700 METAR LRTR 201700Z 03005KT CAVOK 16/M03 Q1025=
201904201730 METAR LRTR 201730Z 04004KT CAVOK 13/M01 Q1025=
201904201800 METAR LRTR 201800Z 05005KT CAVOK 13/M02 Q1025=
201904201830 METAR LRTR 201830Z 03002KT CAVOK 11/M01 Q1025=
201904201900 METAR LRTR 201900Z 32002KT CAVOK 09/M01 Q1025=
201904201930 METAR LRTR 201930Z 32002KT CAVOK 10/M01 Q1025=
201904202000 METAR LRTR 202000Z 00000KT CAVOK 09/M00 Q1025=
201904202030 METAR LRTR 202030Z 29002KT CAVOK 09/M01 Q1025=
201904202100 METAR LRTR 202100Z 29004KT CAVOK 08/M00 Q1025=
201904202130 METAR LRTR 202130Z 30004KT CAVOK 07/00 Q1025=
201904202200 METAR LRTR 202200Z 05003KT CAVOK 06/01 Q1025=
201904202230 METAR LRTR 202230Z 12007KT CAVOK 04/01 Q1025=
201904202300 METAR LRTR 202300Z AUTO 10006KT 9999 NCD 04/02 Q1025=
201904202330 METAR LRTR 202330Z 10005KT CAVOK 03/01 Q1025=
201904210000 METAR LRTR 210000Z 09006KT CAVOK 03/01 Q1024=
201904210030 METAR LRTR 210030Z 09005KT CAVOK 03/00 Q1024=
201904210100 METAR LRTR 210100Z 10007KT CAVOK 03/01 Q1024=
201904210130 METAR LRTR 210130Z 12008KT CAVOK 02/01 Q1024=
201904210200 METAR LRTR 210200Z 12006KT CAVOK 02/02 Q1024=
201904210230 METAR LRTR 210230Z 11006KT CAVOK 02/02 Q1024=
201904210300 METAR LRTR 210300Z 11006KT CAVOK 02/01 Q1024=
201904210330 METAR LRTR 210330Z 12008KT CAVOK 02/02 Q1024=
201904210400 METAR LRTR 210400Z 12006KT CAVOK 02/02 Q1023=
201904210430 METAR LRTR 210430Z 12007KT CAVOK 03/03 Q1024=
201904210500 METAR LRTR 210500Z 12006KT CAVOK 06/04 Q1024=
201904210530 METAR LRTR 210530Z 13005KT CAVOK 07/04 Q1024=
201904210600 METAR LRTR 210600Z 16006KT CAVOK 09/05 Q1024=
201904210630 METAR LRTR 210630Z 18008KT CAVOK 11/05 Q1023=
201904210700 METAR LRTR 210700Z 19010KT CAVOK 12/05 Q1023=
201904210730 METAR LRTR 210730Z 19009KT CAVOK 13/04 Q1023=
201904210800 METAR LRTR 210800Z 20008KT 170V230 CAVOK 15/04 Q1023=
201904210830 METAR LRTR 210830Z 21009KT CAVOK 16/03 Q1023=
201904210900 METAR LRTR 210900Z 22009KT CAVOK 17/04 Q1022=
201904210930 METAR LRTR 210930Z 23008KT CAVOK 18/05 Q1022=
201904211000 METAR LRTR 211000Z 20009KT 160V240 CAVOK 19/04 Q1022=
201904211030 METAR LRTR 211030Z 25011KT 220V280 CAVOK 21/02 Q1021=
201904211100 METAR LRTR 211100Z 27011KT CAVOK 21/01 Q1021=
201904211130 METAR LRTR 211130Z 25010KT 220V280 CAVOK 21/00 Q1020=
201904211200 METAR LRTR 211200Z 26013KT CAVOK 20/01 Q1020=
201904211230 METAR LRTR 211230Z 27009KT CAVOK 20/M00 Q1020=
201904211300 METAR LRTR 211300Z 25009KT CAVOK 20/02 Q1020=
201904211330 METAR LRTR 211330Z 32008KT CAVOK 20/00 Q1019=
201904211400 METAR LRTR 211400Z 30009KT 270V330 CAVOK 21/00 Q1019=
201904211430 METAR LRTR 211430Z 25005KT 210V280 CAVOK 19/02 Q1019=
201904211500 METAR LRTR 211500Z 26008KT 230V300 CAVOK 20/M01 Q1018=
201904211530 METAR LRTR 211530Z 36007KT 330V060 CAVOK 20/01 Q1018=
201904211600 METAR LRTR 211600Z 26007KT CAVOK 19/03 Q1018 NOSIG=
201904211630 METAR LRTR 211630Z 25005KT 9999 FEW055CB 20/01 Q1018 NOSIG=
201904211700 METAR LRTR 211700Z 22005KT 9999 FEW055CB 19/00 Q1017 NOSIG=
201904211730 METAR LRTR 211730Z VRB01KT 9999 -SHRA FEW055CB 19/M00 Q1018
                        NOSIG=
201904211800 METAR LRTR 211800Z 18007KT 9999 FEW055CB 17/04 Q1017 NOSIG=
201904211830 METAR LRTR 211830Z 17005KT CAVOK 16/04 Q1018 NOSIG=
201904211900 METAR LRTR 211900Z 18006KT CAVOK 16/04 Q1018 NOSIG=
201904211930 METAR LRTR 211930Z 19004KT CAVOK 16/04 Q1018 NOSIG=
201904212000 METAR LRTR 212000Z VRB04KT CAVOK 16/02 Q1018 NOSIG=
201904212030 METAR LRTR 212030Z 29005KT CAVOK 15/03 Q1018 NOSIG=
201904212100 METAR LRTR 212100Z 25006KT CAVOK 14/02 Q1018 NOSIG=
201904212130 METAR LRTR 212130Z 21006KT CAVOK 15/02 Q1018 NOSIG=
201904212200 METAR LRTR 212200Z 21007KT CAVOK 13/02 Q1017 NOSIG=
201904212230 METAR LRTR 212230Z 19009KT CAVOK 12/02 Q1017 NOSIG=
201904212300 METAR LRTR 212300Z 20007KT CAVOK 11/03 Q1017 NOSIG=
201904212330 METAR LRTR 212330Z 19007KT CAVOK 11/03 Q1017 NOSIG=
201904220000 METAR LRTR 220000Z 19007KT CAVOK 10/03 Q1017 NOSIG=
201904220030 METAR LRTR 220030Z 19005KT CAVOK 10/03 Q1017 NOSIG=
201904220100 METAR LRTR 220100Z 18005KT CAVOK 09/02 Q1017 NOSIG=
201904220130 METAR LRTR 220130Z 18006KT CAVOK 09/02 Q1017 NOSIG=
201904220200 METAR LRTR 220200Z 17006KT CAVOK 08/02 Q1016 NOSIG=
201904220230 METAR LRTR 220230Z 14004KT CAVOK 07/03 Q1016 NOSIG=
201904220300 METAR LRTR 220300Z 12006KT CAVOK 05/03 Q1016 NOSIG=
201904220330 METAR LRTR 220330Z 12005KT CAVOK 05/03 Q1016 NOSIG=
201904220400 METAR LRTR 220400Z 11005KT CAVOK 04/03 Q1016 NOSIG=
201904220430 METAR LRTR 220430Z 10005KT CAVOK 05/03 Q1016 NOSIG=
201904220500 METAR LRTR 220500Z 12006KT CAVOK 07/05 Q1016 NOSIG=
201904220530 METAR LRTR 220530Z 12006KT CAVOK 10/05 Q1016 NOSIG=
201904220600 METAR LRTR 220600Z 13006KT CAVOK 12/04 Q1016 NOSIG=
201904220630 METAR LRTR 220630Z 17006KT CAVOK 14/03 Q1016 NOSIG=
201904220700 METAR LRTR 220700Z 17006KT 150V210 CAVOK 15/02 Q1016 NOSIG=
201904220730 METAR LRTR 220730Z 18004KT 140V210 CAVOK 16/03 Q1017 NOSIG=
201904220800 METAR LRTR 220800Z 17007KT CAVOK 18/05 Q1017 NOSIG=
201904220830 METAR LRTR 220830Z 20010KT CAVOK 19/02 Q1016 NOSIG=
201904220900 METAR LRTR 220900Z 18009KT CAVOK 20/02 Q1016 NOSIG=
201904220930 METAR LRTR 220930Z 20011KT CAVOK 21/02 Q1016 NOSIG=
201904221000 METAR LRTR 221000Z 18011KT CAVOK 21/M01 Q1016 NOSIG=
201904221030 METAR LRTR 221030Z 17011KT CAVOK 21/01 Q1015 NOSIG=
201904221100 METAR LRTR 221100Z 17010KT 140V200 CAVOK 22/02 Q1015 NOSIG=
201904221130 METAR LRTR 221130Z 19013KT CAVOK 22/01 Q1015 NOSIG=
201904221200 METAR LRTR 221200Z 19015KT CAVOK 23/01 Q1014 NOSIG=
201904221230 METAR LRTR 221230Z 19014KT 160V220 CAVOK 22/M01 Q1014 NOSIG=
201904221300 METAR LRTR 221300Z 18013KT CAVOK 22/M02 Q1014 NOSIG=
201904221330 METAR LRTR 221330Z 18012KT CAVOK 23/00 Q1014 NOSIG=
201904221400 METAR LRTR 221400Z 18008KT 140V200 CAVOK 22/M01 Q1014 NOSIG=
201904221430 METAR LRTR 221430Z 19011KT CAVOK 22/00 Q1014 NOSIG=
201904221500 METAR LRTR 221500Z 17010KT CAVOK 21/M01 Q1013 NOSIG=
201904221530 METAR LRTR 221530Z 16008KT CAVOK 21/01 Q1013 NOSIG=
201904221600 METAR LRTR 221600Z 15011KT CAVOK 21/01 Q1013 NOSIG=
201904221630 METAR LRTR 221630Z 15013KT CAVOK 20/04 Q1013 NOSIG=
201904221700 METAR LRTR 221700Z 15012KT CAVOK 19/04 Q1013 NOSIG=
201904221730 METAR LRTR 221730Z 14010KT CAVOK 18/05 Q1013=
201904221800 METAR LRTR 221800Z 14009KT CAVOK 17/05 Q1013=
201904221830 METAR LRTR 221830Z 13007KT CAVOK 15/05 Q1014=
201904221900 METAR LRTR 221900Z 11009KT CAVOK 14/05 Q1014=
201904221930 METAR LRTR 221930Z 09009KT CAVOK 14/05 Q1014=
201904222000 METAR LRTR 222000Z 10012KT CAVOK 14/05 Q1015=
201904222030 METAR LRTR 222030Z 10014KT CAVOK 14/05 Q1015=
201904222100 METAR LRTR 222100Z 10015KT CAVOK 15/04 Q1015=
201904222130 METAR LRTR 222130Z 10016KT CAVOK 14/05 Q1015=
201904222200 METAR COR LRTR 222200Z 11016KT CAVOK 13/05 Q1015=
201904222230 METAR LRTR 222230Z 11016KT 9999 -RA NSC 13/06 Q1015 R11/190095=
201904222300 METAR LRTR 222300Z 11013KT CAVOK 12/05 Q1015 R11/CLRD//=
201904222330 METAR LRTR 222330Z 11015KT CAVOK 12/05 Q1015=
201904230000 METAR LRTR 230000Z 11017KT CAVOK 12/05 Q1015=
201904230030 METAR LRTR 230030Z 12015KT CAVOK 12/05 Q1015=
201904230100 METAR COR LRTR 230100Z 13016KT CAVOK 13/03 Q1015=
201904230130 METAR LRTR 230130Z 12012KT 9999 -RA NSC 11/07 Q1015=
201904230200 METAR LRTR 230200Z 11010KT CAVOK 11/07 Q1015=
201904230230 METAR LRTR 230230Z 12009KT CAVOK 10/08 Q1015=
201904230300 METAR LRTR 230300Z 12008KT CAVOK 09/08 Q1016=
201904230330 METAR LRTR 230330Z 13009KT CAVOK 09/07 Q1016=
201904230400 METAR LRTR 230400Z 12008KT CAVOK 09/07 Q1016=
201904230430 METAR LRTR 230430Z 13007KT CAVOK 10/07 Q1017=
201904230500 METAR LRTR 230500Z 13007KT CAVOK 10/07 Q1017=
201904230530 METAR LRTR 230530Z 14007KT CAVOK 11/06 Q1017=
201904230600 METAR LRTR 230600Z 16013KT CAVOK 13/01 Q1017=
201904230630 METAR LRTR 230630Z 15015KT 9999 -RA SCT045 12/04 Q1018=
201904230700 METAR LRTR 230700Z 15013KT 9999 -RA BKN048 11/07 Q1018=
201904230730 METAR LRTR 230730Z 15011KT 9999 -RA BKN049 11/08 Q1018 R11/190095=
201904230800 METAR LRTR 230800Z 15010KT 9999 -RA SCT046 11/09 Q1018 R11/190095=
201904230830 METAR LRTR 230830Z 14009KT 9999 -RA SCT048 12/10 Q1018 R11/190095=
201904230900 METAR LRTR 230900Z 13013KT 9999 -RA SCT048 11/09 Q1019 R11/190095=
201904230930 METAR LRTR 230930Z 14014KT 9999 -RA BKN049 11/09 Q1019 R11/190095=
201904231000 METAR LRTR 231000Z 12013KT 9999 SHRA FEW035CB OVC046 10/10
                        Q1018 R11/290095=
201904231030 METAR LRTR 231030Z 10016KT 9999 -SHRA FEW035CB BKN046 12/10
                        Q1017 RESHRA R11/290095=
201904231100 METAR COR LRTR 231100Z 11022KT 9999 FEW045CB SCT045 12/08
                        Q1017 R11/290095=
201904231130 METAR LRTR 231130Z 12021KT 9999 SCT047 13/08 Q1017 R11/290095=
201904231200 METAR LRTR 231200Z 12020KT 9999 FEW048 13/07 Q1017 R11/290095=
201904231230 METAR LRTR 231230Z 11017KT CAVOK 13/07 Q1017 R11/190095=
201904231300 METAR LRTR 231300Z 11016KT CAVOK 14/07 Q1016 R11/190095=
201904231330 METAR LRTR 231330Z 11012KT 9999 FEW050CB 14/07 Q1016 R11/190095=
201904231400 METAR LRTR 231400Z 14011KT 9999 FEW050CB 15/07 Q1016 R11/190095=
201904231430 METAR LRTR 231430Z 15012KT 9999 FEW050CB 15/06 Q1016 R11/190095=
201904231500 METAR LRTR 231500Z 16012KT 9999 FEW050CB 14/05 Q1016 R11/CLRD//=
201904231530 METAR LRTR 231530Z 16011KT 9999 FEW050CB 14/05 Q1016=
201904231600 METAR LRTR 231600Z 16008KT 9999 FEW050CB 14/06 Q1016=
201904231630 METAR LRTR 231630Z 15006KT CAVOK 13/07 Q1016 NOSIG=
201904231700 METAR LRTR 231700Z 12008KT CAVOK 13/07 Q1016 NOSIG=
201904231730 METAR LRTR 231730Z 14010KT CAVOK 13/06 Q1016 NOSIG=
201904231800 METAR LRTR 231800Z 13012KT 9999 -RA NSC 13/05 Q1016 NOSIG=
201904231830 METAR LRTR 231830Z 14011KT 9999 -RA NSC 12/05 Q1017 NOSIG=
201904231900 METAR LRTR 231900Z 13011KT CAVOK 12/05 Q1017 NOSIG=
201904231930 METAR LRTR 231930Z 12012KT CAVOK 12/05 Q1017 NOSIG=
201904232000 METAR LRTR 232000Z 13009KT CAVOK 12/05 Q1017 NOSIG=
201904232030 METAR LRTR 232030Z 13008KT CAVOK 12/06 Q1017 NOSIG=
201904232100 METAR LRTR 232100Z 12009KT CAVOK 12/06 Q1017 NOSIG=
201904232130 METAR LRTR 232130Z 13008KT 9999 -RA NSC 11/07 Q1017 NOSIG=
201904232200 METAR LRTR 232200Z 12008KT CAVOK 11/07 Q1017 NOSIG=
201904232230 METAR LRTR 232230Z 11008KT CAVOK 11/07 Q1017 NOSIG=
201904232300 METAR LRTR 232300Z 12009KT CAVOK 11/07 Q1017 NOSIG=
201904232330 METAR LRTR 232330Z 12010KT CAVOK 11/07 Q1017 NOSIG=
201904240000 METAR LRTR 240000Z 12010KT CAVOK 11/07 Q1017 NOSIG=
201904240030 METAR LRTR 240030Z 12010KT CAVOK 10/07 Q1017 NOSIG=
201904240100 METAR LRTR 240100Z 11010KT CAVOK 10/07 Q1017 NOSIG=
201904240130 METAR LRTR 240130Z 11009KT CAVOK 10/08 Q1017 NOSIG=
201904240200 METAR LRTR 240200Z 13009KT CAVOK 11/07 Q1017 NOSIG=
201904240230 METAR LRTR 240230Z 12009KT 9999 -RA NSC 10/08 Q1017 NOSIG=
201904240300 METAR LRTR 240300Z 12008KT CAVOK 11/08 Q1018 NOSIG=
201904240330 METAR LRTR 240330Z 12010KT CAVOK 10/08 Q1018 NOSIG=
201904240400 METAR LRTR 240400Z 12009KT 9999 FEW032 10/08 Q1018 NOSIG=
201904240430 METAR LRTR 240430Z 12009KT 9999 -RA FEW045 11/09 Q1018 R11/190095
                        NOSIG=
201904240500 METAR LRTR 240500Z 11009KT CAVOK 11/09 Q1019 R11/CLRD// NOSIG=
201904240530 METAR LRTR 240530Z 11009KT CAVOK 13/09 Q1019 NOSIG=
201904240600 METAR LRTR 240600Z 12010KT CAVOK 14/09 Q1019 NOSIG=
201904240630 METAR LRTR 240630Z 13010KT CAVOK 15/09 Q1019 NOSIG=
201904240700 METAR LRTR 240700Z 15012KT CAVOK 17/08 Q1019 NOSIG=
201904240730 METAR LRTR 240730Z 15011KT CAVOK 17/08 Q1020 NOSIG=
201904240800 METAR LRTR 240800Z 17014KT CAVOK 18/08 Q1020 WS RWY11 NOSIG=
201904240830 METAR LRTR 240830Z 17017KT CAVOK 19/08 Q1020 WS RWY11 NOSIG=
201904240900 METAR LRTR 240900Z 19016KT CAVOK 20/08 Q1020 WS RWY11 NOSIG=
201904240930 METAR LRTR 240930Z 19017KT CAVOK 20/08 Q1020 WS RWY11 NOSIG=
201904241000 METAR LRTR 241000Z 19017KT CAVOK 20/08 Q1020 NOSIG=
201904241030 METAR LRTR 241030Z 18014KT CAVOK 21/09 Q1019 NOSIG=
201904241100 METAR LRTR 241100Z 19015KT CAVOK 22/09 Q1019 NOSIG=
201904241130 METAR LRTR 241130Z 18014KT CAVOK 22/09 Q1019 NOSIG=
201904241200 METAR LRTR 241200Z 18014KT CAVOK 22/09 Q1019 NOSIG=
201904241230 METAR LRTR 241230Z 17014KT CAVOK 23/09 Q1019 NOSIG=
201904241300 METAR LRTR 241300Z 17014KT CAVOK 23/07 Q1018 NOSIG=
201904241330 METAR LRTR 241330Z 17015KT CAVOK 23/08 Q1018 NOSIG=
201904241400 METAR LRTR 241400Z 17014KT CAVOK 23/08 Q1018 NOSIG=
201904241430 METAR LRTR 241430Z 18014KT CAVOK 23/09 Q1018 NOSIG=
201904241500 METAR LRTR 241500Z 17012KT CAVOK 23/08 Q1018 NOSIG=
201904241530 METAR LRTR 241530Z 17012KT CAVOK 23/08 Q1018 NOSIG=
201904241600 METAR LRTR 241600Z 17012KT CAVOK 23/08 Q1018 NOSIG=
201904241630 METAR LRTR 241630Z 16009KT CAVOK 21/08 Q1018=
201904241700 METAR LRTR 241700Z 15008KT CAVOK 20/08 Q1018=
201904241730 METAR LRTR 241730Z 16008KT CAVOK 19/08 Q1018=
201904241800 METAR LRTR 241800Z 16010KT CAVOK 18/07 Q1018=
201904241830 METAR LRTR 241830Z 15008KT CAVOK 17/08 Q1018=
201904241900 METAR LRTR 241900Z 13008KT CAVOK 17/08 Q1018=
201904241930 METAR LRTR 241930Z 12008KT CAVOK 15/09 Q1019=
201904242000 METAR LRTR 242000Z 13007KT CAVOK 14/09 Q1019=
201904242030 METAR LRTR 242030Z 10008KT 9999 -RA NSC 15/09 Q1019=
201904242100 METAR LRTR 242100Z 11006KT 9999 -RA NSC 14/09 Q1019=
201904242130 METAR LRTR 242130Z 15007KT 9999 -SHRA FEW050CB 15/09 Q1019=
201904242200 METAR COR LRTR 242200Z 14010KT 9999 -SHRA FEW033 FEW050CB
                        15/10 Q1019=
201904242230 METAR LRTR 242230Z 13011KT 9999 -SHRA FEW050CB 15/11 Q1019=
201904242300 METAR LRTR 242300Z 12011KT 9999 FEW055CB 14/11 Q1019=
201904242330 METAR LRTR 242330Z 13010KT CAVOK 14/11 Q1019=
201904250000 METAR LRTR 250000Z 13010KT CAVOK 14/11 Q1019=
201904250030 METAR LRTR 250030Z 13008KT CAVOK 14/10 Q1019=
201904250100 METAR LRTR 250100Z 12008KT CAVOK 12/10 Q1019=
201904250130 METAR LRTR 250130Z 16005KT CAVOK 12/10 Q1020=
201904250200 METAR LRTR 250200Z 14004KT CAVOK 12/10 Q1020=
201904250230 METAR LRTR 250230Z 12007KT CAVOK 11/10 Q1020=
201904250300 METAR LRTR 250300Z 12008KT CAVOK 10/10 Q1020=
201904250330 METAR LRTR 250330Z 12007KT CAVOK 10/09 Q1020=
201904250400 METAR LRTR 250400Z 11007KT CAVOK 10/09 Q1020=
201904250430 METAR LRTR 250430Z 10006KT CAVOK 11/10 Q1020=
201904250500 METAR LRTR 250500Z 11007KT CAVOK 13/10 Q1020=
201904250530 METAR LRTR 250530Z 12008KT CAVOK 14/10 Q1021=
201904250600 METAR LRTR 250600Z 12009KT CAVOK 15/10 Q1021=
201904250630 METAR LRTR 250630Z 12008KT CAVOK 17/12 Q1021=
201904250700 METAR LRTR 250700Z 14008KT CAVOK 17/10 Q1021=
201904250730 METAR LRTR 250730Z 15008KT CAVOK 19/11 Q1021=
201904250800 METAR LRTR 250800Z 15009KT CAVOK 20/11 Q1021=
201904250830 METAR LRTR 250830Z 18014KT CAVOK 22/09 Q1020=
201904250900 METAR LRTR 250900Z 19014KT CAVOK 22/10 Q1021=
201904250930 METAR LRTR 250930Z 20012KT CAVOK 22/09 Q1021=
201904251000 METAR LRTR 251000Z 21010KT 170V230 CAVOK 23/10 Q1021=
201904251030 METAR LRTR 251030Z 18010KT 150V210 CAVOK 23/10 Q1020=
201904251100 METAR LRTR 251100Z 19009KT 160V220 CAVOK 24/10 Q1020=
201904251130 METAR LRTR 251130Z 22010KT 160V250 CAVOK 25/11 Q1020=
201904251200 METAR LRTR 251200Z 19009KT CAVOK 24/10 Q1019=
201904251230 METAR LRTR 251230Z 20010KT 170V240 CAVOK 25/09 Q1019=
201904251300 METAR LRTR 251300Z 20011KT CAVOK 25/09 Q1019=
201904251330 METAR LRTR 251330Z 19009KT CAVOK 25/09 Q1019=
201904251400 METAR LRTR 251400Z 20009KT CAVOK 25/09 Q1018=
201904251430 METAR LRTR 251430Z 19009KT 160V220 CAVOK 25/07 Q1018=
201904251500 METAR LRTR 251500Z 19007KT CAVOK 25/08 Q1018=
201904251530 METAR LRTR 251530Z 18008KT CAVOK 25/08 Q1018=
201904251600 METAR LRTR 251600Z 16006KT CAVOK 24/10 Q1017 NOSIG=
201904251630 METAR LRTR 251630Z 15004KT CAVOK 24/10 Q1017 NOSIG=
201904251700 METAR LRTR 251700Z 14004KT CAVOK 23/10 Q1017 NOSIG=
201904251730 METAR LRTR 251730Z 13004KT CAVOK 21/11 Q1017 NOSIG=
201904251800 METAR LRTR 251800Z 12005KT CAVOK 19/10 Q1017 NOSIG=
201904251830 METAR LRTR 251830Z 10006KT CAVOK 17/10 Q1018 NOSIG=
201904251900 METAR LRTR 251900Z 08003KT CAVOK 17/10 Q1018 NOSIG=
201904251930 METAR LRTR 251930Z 08003KT 060V120 CAVOK 16/10 Q1018 NOSIG=
201904252000 METAR LRTR 252000Z 12005KT CAVOK 15/10 Q1018 NOSIG=
201904252030 METAR LRTR 252030Z 12006KT CAVOK 14/10 Q1018 NOSIG=
201904252100 METAR LRTR 252100Z 10005KT CAVOK 15/10 Q1018 NOSIG=
201904252130 METAR LRTR 252130Z 10006KT CAVOK 14/10 Q1018 NOSIG=
201904252200 METAR LRTR 252200Z 10006KT CAVOK 13/10 Q1018 NOSIG=
201904252230 METAR LRTR 252230Z 10007KT CAVOK 13/10 Q1018 NOSIG=
201904252300 METAR LRTR 252300Z 11006KT CAVOK 13/10 Q1018 NOSIG=
201904252330 METAR LRTR 252330Z 10008KT CAVOK 13/11 Q1018 NOSIG=
201904260000 METAR LRTR 260000Z 09007KT CAVOK 13/11 Q1018 NOSIG=
201904260030 METAR LRTR 260030Z 10006KT CAVOK 12/10 Q1018 NOSIG=
201904260100 METAR LRTR 260100Z 11007KT CAVOK 11/10 Q1018 NOSIG=
201904260130 METAR LRTR 260130Z 10007KT CAVOK 12/10 Q1018 NOSIG=
201904260200 METAR LRTR 260200Z 11008KT CAVOK 12/10 Q1017 NOSIG=
201904260230 METAR LRTR 260230Z 11006KT CAVOK 11/10 Q1017 NOSIG=
201904260300 METAR LRTR 260300Z 10006KT CAVOK 10/10 Q1017 NOSIG=
201904260330 METAR LRTR 260330Z 10007KT CAVOK 11/10 Q1017 NOSIG=
201904260400 METAR LRTR 260400Z 10007KT CAVOK 09/09 Q1017 NOSIG=
201904260430 METAR LRTR 260430Z 10007KT CAVOK 13/11 Q1017 NOSIG=
201904260500 METAR LRTR 260500Z 11009KT CAVOK 15/11 Q1017 NOSIG=
201904260530 METAR LRTR 260530Z 11010KT CAVOK 16/11 Q1018 NOSIG=
201904260600 METAR LRTR 260600Z 12010KT CAVOK 17/13 Q1018 NOSIG=
201904260630 METAR LRTR 260630Z 12010KT CAVOK 18/12 Q1018 NOSIG=
201904260700 METAR LRTR 260700Z 13009KT CAVOK 20/13 Q1018 NOSIG=
201904260730 METAR LRTR 260730Z 15009KT CAVOK 20/12 Q1017 NOSIG=
201904260800 METAR LRTR 260800Z 16010KT CAVOK 23/14 Q1017 NOSIG=
201904260830 METAR LRTR 260830Z 19013KT 9999 FEW040 24/12 Q1017 NOSIG=
201904260900 METAR LRTR 260900Z 18011KT 9999 FEW040 25/14 Q1017 NOSIG=
201904260930 METAR LRTR 260930Z 18011KT 9999 FEW045 25/13 Q1017 NOSIG=
201904261000 METAR LRTR 261000Z 17009KT 140V200 9999 FEW047 26/13 Q1016
                        NOSIG=
201904261030 METAR LRTR 261030Z 18012KT CAVOK 26/12 Q1016 NOSIG=
201904261100 METAR LRTR 261100Z 19012KT CAVOK 27/13 Q1016 NOSIG=
201904261130 METAR LRTR 261130Z 19013KT CAVOK 27/12 Q1015 NOSIG=
201904261200 METAR LRTR 261200Z 18013KT CAVOK 28/10 Q1015 NOSIG=
201904261230 METAR LRTR 261230Z 18012KT CAVOK 28/08 Q1015 NOSIG=
201904261300 METAR LRTR 261300Z 20012KT CAVOK 27/11 Q1014 NOSIG=
201904261330 METAR LRTR 261330Z 19010KT CAVOK 27/11 Q1014 NOSIG=
201904261400 METAR LRTR 261400Z 19010KT CAVOK 27/11 Q1014 NOSIG=
201904261430 METAR LRTR 261430Z 17010KT CAVOK 27/12 Q1013 NOSIG=
201904261500 METAR LRTR 261500Z 16008KT CAVOK 27/12 Q1013 NOSIG=
201904261530 METAR LRTR 261530Z 16008KT CAVOK 27/10 Q1013 NOSIG=
201904261600 METAR LRTR 261600Z 15006KT CAVOK 26/09 Q1012 NOSIG=
201904261630 METAR LRTR 261630Z 15006KT CAVOK 25/11 Q1012 NOSIG=
201904261700 METAR LRTR 261700Z 15006KT CAVOK 24/11 Q1012=
201904261730 METAR LRTR 261730Z 15006KT CAVOK 23/12 Q1012=
201904261800 METAR LRTR 261800Z 15006KT CAVOK 21/12 Q1012=
201904261830 METAR LRTR 261830Z 12007KT CAVOK 19/12 Q1012=
201904261900 METAR LRTR 261900Z 10007KT CAVOK 18/12 Q1012=
201904261930 METAR LRTR 261930Z 12007KT CAVOK 17/12 Q1013=
201904262000 METAR LRTR 262000Z 11007KT 9999 NCD 15/12 Q1013=
201904262030 METAR LRTR 262030Z 12007KT CAVOK 15/13 Q1012=
201904262100 METAR LRTR 262100Z 11009KT CAVOK 15/13 Q1012=
201904262130 METAR LRTR 262130Z 10007KT CAVOK 14/12 Q1012=
201904262200 METAR LRTR 262200Z 10008KT CAVOK 15/12 Q1012=
201904262230 METAR LRTR 262230Z 10008KT CAVOK 16/12 Q1012=
201904262300 METAR LRTR 262300Z 10008KT CAVOK 16/12 Q1011=
201904262330 METAR LRTR 262330Z VRB08KT CAVOK 17/11 Q1012=
201904270000 METAR LRTR 270000Z 35007KT CAVOK 17/10 Q1012=
201904270030 METAR LRTR 270030Z 03005KT CAVOK 15/11 Q1012=
201904270100 METAR LRTR 270100Z 03004KT CAVOK 14/11 Q1012=
201904270130 METAR LRTR 270130Z AUTO 35003KT 280V040 9999 FEW120/// SCT170///
                        14/11 Q1012=
201904270200 METAR LRTR 270200Z 05002KT CAVOK 14/11 Q1012=
201904270230 METAR COR LRTR 270230Z 15005KT CAVOK 15/12 Q1012=
201904270300 METAR LRTR 270300Z 17006KT CAVOK 17/12 Q1012=
201904270330 METAR LRTR 270330Z 21008KT CAVOK 16/13 Q1012=
201904270400 METAR LRTR 270400Z 16005KT 140V240 CAVOK 15/13 Q1012=
201904270430 METAR LRTR 270430Z 15004KT CAVOK 15/14 Q1012=
201904270500 METAR LRTR 270500Z VRB02KT 9999 FEW050CB 16/14 Q1013=
201904270530 METAR LRTR 270530Z 29006KT 260V320 9999 -SHRA FEW036 FEW050CB
                        16/14 Q1013=
201904270600 METAR LRTR 270600Z 33009KT 9999 FEW031 FEW050CB 17/13 Q1012=
201904270630 METAR LRTR 270630Z 32007KT 290V350 9999 FEW055CB 18/14 Q1013=
201904270700 METAR LRTR 270700Z 30007KT CAVOK 17/14 Q1013=
201904270730 METAR LRTR 270730Z 32006KT 290V350 CAVOK 18/14 Q1013=
201904270800 METAR LRTR 270800Z 33007KT 9999 FEW050CB 19/14 Q1013=
201904270830 METAR LRTR 270830Z 33004KT 290V010 9999 -SHRA FEW035 SCT050CB
                        18/15 Q1013=
201904270900 METAR LRTR 270900Z 35004KT 310V040 9999 FEW026 FEW050CB 19/16
                        Q1013=
201904270930 METAR LRTR 270930Z 34003KT 240V020 9999 FEW050CB 19/15 Q1013=
201904271000 METAR LRTR 271000Z 34006KT 310V020 9999 FEW050CB 20/14 Q1012=
201904271030 METAR LRTR 271030Z 36005KT 320V050 9999 -SHRA FEW023 FEW050CB
                        20/14 Q1012=
201904271100 METAR LRTR 271100Z 03005KT 330V070 9999 FEW026 FEW050CB 21/14
                        Q1012 RESHRA=
201904271130 METAR LRTR 271130Z VRB03KT 9999 SCT035 FEW050CB 21/13 Q1012=
201904271200 METAR LRTR 271200Z 30005KT 230V340 9999 SCT035 FEW045CB 21/14
                        Q1011=
201904271230 METAR LRTR 271230Z 33005KT 280V350 9999 VCTS SCT034 SCT045CB
                        20/14 Q1011=
201904271300 METAR LRTR 271300Z 28034G44KT 0450 R11/0600N R29/0900U +TSRAGS
                        SCT006 BKN040CB 10/10 Q1012 R11/29//94=
201904271330 METAR LRTR 271330Z 29018KT 9999 SCT018 SCT050CB 14/14 Q1012
                        R11/29//94=
201904271400 METAR LRTR 271400Z 30016KT 9999 FEW020 SCT050CB 14/14 Q1011
                        R11/29//94=
201904271430 METAR LRTR 271430Z 32010KT 9999 FEW050CB 14/14 Q1011 R11/29//94=
201904271500 METAR LRTR 271500Z 33008KT 310V010 CAVOK 15/14 Q1011 R11/29//94=
201904271530 METAR LRTR 271530Z 03007KT 9999 FEW050CB 15/13 Q1011 R11/19//94=
201904271600 METAR LRTR 271600Z 06006KT 030V090 9999 FEW050CB 15/13 Q1011
                        R11/19//94=
201904271630 METAR LRTR 271630Z 19005KT 150V230 9999 FEW020 15/13 Q1012
                        R11/19//94=
201904271700 METAR LRTR 271700Z 27011KT 9999 FEW010 14/14 Q1012 R11/19//94=
201904271730 METAR LRTR 271730Z 27005KT 9999 FEW010 13/13 Q1012 R11/19//94=
201904271800 METAR LRTR 271800Z 22002KT 9999 FEW010 13/13 Q1012 R11/19//94=
201904271830 METAR COR LRTR 271830Z 33005KT 9999 FEW009 12/12 Q1013 R11/19//94=
201904271900 METAR LRTR 271900Z 32004KT 8000 FEW010 11/11 Q1013 R11/19//94=
201904271930 METAR LRTR 271930Z 29004KT 8000 FEW010 SCT025 11/11 Q1013
                        R11/19//94=
201904272000 METAR LRTR 272000Z 27004KT 8000 SCT028 BKN045 12/12 Q1013
                        R11/19//94=
201904272030 METAR COR LRTR 272030Z 27005KT 8000 BKN029 12/12 Q1013 R11/19//94=
201904272100 METAR COR LRTR 272100Z 29008KT 9000 BKN030 12/12 Q1013 R11/19//94=
201904272130 METAR LRTR 272130Z 28007KT 8000 FEW035 SCT045 11/11 Q1013
                        R11/19//94=
201904272200 METAR COR LRTR 272200Z 25005KT 8000 -RA FEW037 12/12 Q1013
                        R11/19//94=
201904272230 METAR LRTR 272230Z 24007KT 5000 -RA BR FEW025 SCT040 12/12
                        Q1013 R11/19//94=
201904272300 METAR COR LRTR 272300Z 24006KT 5000 RA FEW005 12/12 Q1013
                        R11/19//94=
201904272330 METAR LRTR 272330Z 23006KT 7000 -RA FEW015 SCT043 12/12 Q1012
                        RERA R11/19//94=
201904280000 METAR LRTR 280000Z 24007KT 8000 -RA FEW007 OVC043 12/11 Q1012
                        R11/19//94=
201904280030 METAR LRTR 280030Z 25007KT 9999 FEW007 BKN048 11/11 Q1012
                        R11/19//94=
201904280100 METAR LRTR 280100Z 26011KT 9999 SCT006 BKN048 11/11 Q1012
                        R11/19//94=
201904280130 METAR COR LRTR 280130Z 27009KT 9999 FEW006 BKN048 10/10 Q1012
                        R11/19//94=
201904280200 METAR LRTR 280200Z 27007KT 9999 FEW006 BKN048 10/10 Q1012
                        R11/19//94=
201904280230 METAR LRTR 280230Z 26008KT CAVOK 10/10 Q1012 R11/19//94=
201904280300 METAR LRTR 280300Z 25007KT CAVOK 10/10 Q1012 R11/19//94=
201904280330 METAR LRTR 280330Z 25006KT CAVOK 10/10 Q1012 R11/19//94=
201904280400 METAR LRTR 280400Z 25009KT CAVOK 10/10 Q1012 R11/19//94 NOSIG=
201904280430 METAR LRTR 280430Z 24007KT 9999 FEW012 10/10 Q1012 R11/19//94
                        NOSIG=
201904280500 METAR LRTR 280500Z 25009KT 9999 FEW015 11/10 Q1012 R11/19//94
                        NOSIG=
201904280530 METAR LRTR 280530Z 25009KT 9999 FEW015 11/10 Q1012 R11/19//94
                        NOSIG=
201904280600 METAR LRTR 280600Z 25009KT 9999 FEW020 12/11 Q1012 R11/19//94
                        NOSIG=
201904280630 METAR LRTR 280630Z 25010KT 9999 FEW020 13/11 Q1012 R11/19//94
                        NOSIG=
201904280700 METAR LRTR 280700Z 26010KT 9999 FEW022 14/11 Q1012 R11/CLRD//
                        NOSIG=
201904280730 METAR COR LRTR 280730Z 27010KT 9999 SCT022 13/11 Q1012 NOSIG=
201904280800 METAR LRTR 280800Z 27009KT 9999 BKN023 14/11 Q1013 NOSIG=
201904280830 METAR LRTR 280830Z 27009KT 9999 FEW020 BKN030 13/11 Q1013
                        NOSIG=
201904280900 METAR LRTR 280900Z 30009KT 9999 BKN024 13/10 Q1013 NOSIG=
201904280930 METAR LRTR 280930Z 30009KT 9999 BKN024 13/11 Q1013 NOSIG=
201904281000 METAR LRTR 281000Z 29013KT 7000 -DZ OVC015 11/11 Q1013 TEMPO
                        5000 DZ BR=
201904281030 METAR LRTR 281030Z 29010KT 4000 -DZ BR SCT015 OVC024 11/11
                        Q1013 REDZ R11/19//95 BECMG 5000=
201904281100 METAR LRTR 281100Z 29010KT 9999 FEW015 BKN027 13/12 Q1013
                        R11/19//95 NOSIG=
201904281130 METAR LRTR 281130Z 30009KT 9999 FEW015 BKN030 14/12 Q1013
                        R11/19//95 NOSIG=
201904281200 METAR LRTR 281200Z 32007KT 300V010 9999 FEW018 BKN030 14/11
                        Q1013 R11/19//95 NOSIG=
201904281230 METAR LRTR 281230Z 31009KT 9999 FEW020 BKN030 14/11 Q1013
                        R11/19//95 NOSIG=
201904281300 METAR LRTR 281300Z 29008KT 9999 SCT022 15/11 Q1013 R11/19//95
                        NOSIG=
201904281330 METAR LRTR 281330Z 32008KT 9999 BKN024 14/11 Q1013 R11/19//95
                        NOSIG=
201904281400 METAR LRTR 281400Z 32008KT 9999 SCT030 14/11 Q1012 R11/19//95
                        NOSIG=
201904281430 METAR LRTR 281430Z 35009KT 9999 FEW030 13/11 Q1012 R11/19//95
                        NOSIG=
201904281500 METAR LRTR 281500Z 34006KT 310V020 9999 FEW033 14/12 Q1012
                        R11/19//95 NOSIG=
201904281530 METAR LRTR 281530Z 35008KT 9999 FEW016 SCT035 13/11 Q1012
                        R11/19//95 NOSIG=
201904281600 METAR LRTR 281600Z 34008KT 9999 FEW016 SCT035 13/11 Q1012
                        R11/19//95=
201904281630 METAR LRTR 281630Z 34006KT 9999 FEW014 SCT040 12/12 Q1012
                        R11/19//95=
201904281700 METAR LRTR 281700Z 34005KT 9999 FEW014 SCT046 12/11 Q1012
                        R11/19//95=
201904281730 METAR LRTR 281730Z 35004KT 340V050 9999 FEW013 11/11 Q1012
                        R11/19//95=
201904281800 METAR LRTR 281800Z 00000KT 9999 FEW014 11/11 Q1013 R11/19//95=
201904281830 METAR LRTR 281830Z 00000KT 9999 FEW014 10/10 Q1013 R11/19//95=
201904281900 METAR LRTR 281900Z 00000KT 8000 FEW014 10/10 Q1013 R11/19//95=
201904281930 METAR LRTR 281930Z 00000KT 5000 BR SCT011 10/10 Q1013 R11/19//95=
201904282000 METAR LRTR 282000Z 00000KT 6000 SCT010 10/10 Q1013 R11/19//95=
201904282030 METAR LRTR 282030Z VRB01KT 7000 SCT010 10/10 Q1013 R11/19//95=
201904282100 METAR LRTR 282100Z 00000KT 4000 0800NE R11/1700U R29/P2000
                        BR BCFG FEW010 09/09 Q1013 R11/19//95=
201904282130 METAR LRTR 282130Z 34001KT 0550 R11/0700N R29/P2000D FG SCT003
                        SCT011 07/07 Q1013 R11/19//95=
201904282200 METAR LRTR 282200Z 30004KT 0300 R11/0275N R29/0450N FG SCT002
                        06/06 Q1013 R11/19//95=
201904282230 METAR LRTR 282230Z 22001KT 0350 R11/0375D R29/0275N FG SCT001
                        07/07 Q1013 R11/19//95=
201904282300 METAR LRTR 282300Z 18002KT 0500 R11/P2000 R29/0375N FG SCT003
                        07/07 Q1013 R11/19//95=
201904282330 METAR LRTR 282330Z 00000KT 0500 R11/0600D R29/0375N FG SCT002
                        05/05 Q1013 R11/19//95=
201904290000 METAR LRTR 290000Z VRB02KT 0800 R11/1000U R29/1000U FG FEW002
                        SCT036 07/07 Q1013 R11/19//95=
201904290030 METAR LRTR 290030Z 05003KT 0700 R11/0800U R29/0800N FG FEW001
                        SCT033 07/07 Q1013 R11/19//95=
201904290100 METAR LRTR 290100Z 08003KT 0600 R11/0700N R29/0600N FG FEW001
                        SCT033 06/06 Q1012 R11/19//95=
201904290130 METAR LRTR 290130Z 06003KT 030V100 0350 R11/0375N R29/0800N
                        FG SCT001 06/06 Q1012 R11/19//95=
201904290200 METAR LRTR 290200Z 14003KT 0300 R11/0350N R29/0350N FG BKN001
                        06/06 Q1012 R11/19//95=
201904290230 METAR LRTR 290230Z 15004KT 0350 R11/0400N R29/0350N FG BKN001
                        06/06 Q1012 R11/19//95=
201904290300 METAR LRTR 290300Z 15004KT 0600 R11/0900N R29/0900D FG BKN001
                        06/06 Q1012 R11/19//95=
201904290330 METAR LRTR 290330Z 13003KT 0600 R11/01100D R29/0700D FG BKN001
                        07/07 Q1012 R11/CLRD//=
201904290400 METAR LRTR 290400Z 13005KT 0700 R11/1100D R29/1300U -RA FG
                        VV002 07/07 Q1012=
201904290430 METAR LRTR 290430Z 13004KT 0400 R11/0550N R29/0600D -RA FG
                        VV002 07/07 Q1012=
201904290500 METAR LRTR 290500Z 13004KT 0250 R11/0300N R29/0650U FG VV001
                        07/07 Q1012=
201904290530 METAR LRTR 290530Z 16004KT 0250 R11/0350N R29/0900D FG VV001
                        08/08 Q1012=
201904290600 METAR LRTR 290600Z 15003KT 0500 R11/0700U R29/2000N FG VV002
                        08/08 Q1012=
201904290630 METAR COR LRTR 290630Z VRB02KT 1500 BR BKN002 09/09 Q1012=
201904290700 METAR LRTR 290700Z 14003KT 3000 BR SCT002 OVC015 10/10 Q1012=
201904290730 METAR LRTR 290730Z 15004KT 110V170 6000 BKN003 10/10 Q1012=
201904290800 METAR LRTR 290800Z 18003KT 140V230 8000 BKN009 10/10 Q1013=
201904290830 METAR LRTR 290830Z VRB02KT 9000 BKN017 11/11 Q1013=
201904290900 METAR LRTR 290900Z VRB02KT 9999 FEW020 BKN026 12/11 Q1012=
201904290930 METAR LRTR 290930Z VRB01KT 9999 FEW016 BKN031 14/11 Q1012=
201904291000 METAR LRTR 291000Z VRB02KT 9999 FEW025 BKN035 15/10 Q1012=
201904291030 METAR LRTR 291030Z 26004KT 200V290 9999 FEW026 BKN035 15/09
                        Q1012=
201904291100 METAR LRTR 291100Z VRB02KT 9999 FEW030 SCT036 15/10 Q1011=
201904291130 METAR LRTR 291130Z 20003KT 150V250 9999 BKN030 BKN042 15/09
                        Q1011=
201904291200 METAR LRTR 291200Z VRB02KT 9999 FEW032 BKN044 15/09 Q1011=
201904291230 METAR LRTR 291230Z VRB02KT 9999 SCT045 17/09 Q1011=
201904291300 METAR LRTR 291300Z 01003KT 300V110 9999 SCT038 17/08 Q1010=
201904291330 METAR LRTR 291330Z 30003KT 260V340 9999 FEW040 17/09 Q1010=
201904291400 METAR LRTR 291400Z 30004KT 240V340 9999 FEW042 17/08 Q1010=
201904291430 METAR LRTR 291430Z 34003KT 260V050 9999 FEW045 17/08 Q1010=
201904291500 METAR LRTR 291500Z 31004KT 9999 FEW048 16/08 Q1009=
201904291530 METAR LRTR 291530Z 34005KT 9999 FEW045 16/09 Q1009=
201904291600 METAR LRTR 291600Z 36006KT 9999 FEW045 16/09 Q1009 NOSIG=
201904291630 METAR LRTR 291630Z 02005KT 9999 FEW045 16/11 Q1009 NOSIG=
201904291700 METAR LRTR 291700Z 04003KT 9999 FEW045 15/12 Q1009 NOSIG=
201904291730 METAR LRTR 291730Z 02003KT 9999 FEW047 15/13 Q1010 NOSIG=
201904291800 METAR LRTR 291800Z 01004KT CAVOK 14/13 Q1010 NOSIG=
201904291830 METAR LRTR 291830Z 01003KT CAVOK 14/12 Q1010 NOSIG=
201904291900 METAR LRTR 291900Z 01006KT CAVOK 14/12 Q1010 NOSIG=
201904291930 METAR LRTR 291930Z 34005KT CAVOK 14/12 Q1010 TEMPO RA=
201904292000 METAR LRTR 292000Z 32005KT 9999 -RA NSC 13/13 Q1010 NOSIG=
201904292030 METAR LRTR 292030Z 31005KT 9999 -RA NSC 12/12 Q1010 NOSIG=
201904292100 METAR LRTR 292100Z 33004KT 9999 -RA NSC 12/12 Q1010 NOSIG=
201904292130 METAR LRTR 292130Z 28002KT 9999 -RA NSC 12/12 Q1010 NOSIG=
201904292200 METAR LRTR 292200Z 32002KT 9999 -RA NSC 12/12 Q1010 NOSIG=
201904292230 METAR LRTR 292230Z VRB01KT 9999 -RA NSC 12/12 Q1010 NOSIG=
201904292300 METAR LRTR 292300Z 16002KT 9999 -RA NSC 12/12 Q1010 NOSIG=
201904292330 METAR LRTR 292330Z 00000KT 9999 -RA NSC 12/12 Q1009 NOSIG=
201904300000 METAR LRTR 300000Z 00000KT 8000 NSC 11/11 Q1009 NOSIG=
201904300030 METAR LRTR 300030Z 32005KT 8000 NSC 11/11 Q1009 NOSIG=
201904300100 METAR LRTR 300100Z 31004KT 9999 OVC047 11/11 Q1009 NOSIG=
201904300130 METAR LRTR 300130Z 00000KT 9999 OVC047 11/11 Q1009 NOSIG=
201904300200 METAR LRTR 300200Z 04005KT 9999 OVC048 11/11 Q1008 NOSIG=
201904300230 METAR LRTR 300230Z 03005KT 9999 OVC045 11/11 Q1008 NOSIG=
201904300300 METAR LRTR 300300Z 08004KT 9999 OVC045 11/11 Q1008 R11/19//95
                        NOSIG=
201904300330 METAR LRTR 300330Z 09004KT 7000 OVC045 11/11 Q1008 R11/19//95
                        NOSIG=
201904300400 METAR LRTR 300400Z VRB02KT 6000 FEW010 OVC042 11/11 Q1008
                        R11/19//95=
201904300430 METAR LRTR 300430Z 12003KT 4500 BR SCT004 OVC044 11/11 Q1008
                        R11/19//95=
201904300500 METAR LRTR 300500Z 20005KT 2500 -RADZ BR FEW002 BKN004 OVC046
                        11/11 Q1008 R11/19//95=
201904300530 METAR LRTR 300530Z 23005KT 3000 -RA BR FEW003 SCT005 OVC047
                        11/11 Q1008 R11/29//95=
201904300600 METAR LRTR 300600Z 24004KT 3000 -RA BR FEW003 SCT020 BKN035
                        12/11 Q1008 R11/29//95=
201904300630 METAR LRTR 300630Z 27004KT 2500 RA BR FEW003 BKN025 BKN040
                        11/11 Q1008 R11/29//95=
201904300700 METAR LRTR 300700Z VRB02KT 3000 RA BR FEW003 SCT034 12/12
                        Q1008 R11/29//95=
201904300730 METAR COR LRTR 300730Z VRB02KT 6000 -RA FEW004 SCT012 12/12
                        Q1008 RERA R11/29//95=
201904300800 METAR LRTR 300800Z 29003KT 260V320 7000 -RA FEW004 12/12
                        Q1008 R11/29//95=
201904300830 METAR COR LRTR 300830Z 30004KT 270V330 8000 -RA SCT005 12/12
                        Q1008 R11/29//95=
201904300900 METAR LRTR 300900Z 30004KT 8000 -RA FEW007 13/13 Q1008 R11/29//95=
201904300930 METAR LRTR 300930Z 29004KT 250V320 9999 FEW010 BKN048 13/13
                        Q1008 R11/29//95=
201904301000 METAR LRTR 301000Z 29005KT 260V320 9999 FEW010 SCT048 13/13
                        Q1007 R11/29//95=
201904301030 METAR LRTR 301030Z 30006KT 9999 -RA FEW008 BKN041 13/13 Q1007
                        R11/29//95=
201904301100 METAR COR LRTR 301100Z 31006KT 9999 -RA VCTS FEW009 FEW025CB
                        BKN042 13/13 Q1007 RERA R11/29//95=
201904301130 METAR LRTR 301130Z 32005KT 9999 SCT009 FEW025CB BKN040 13/13
                        Q1007 R11/29//95=
201904301200 METAR LRTR 301200Z VRB02KT 9999 SCT011 FEW025CB BKN040 13/12
                        Q1007 R11/29//95=
201904301230 METAR LRTR 301230Z 29004KT 9999 BKN013 FEW025CB BKN040 14/12
                        Q1007 R11/29//95=
201904301300 METAR LRTR 301300Z 28006KT 9999 SCT013 SCT020 14/12 Q1006
                        R11/29//95=
201904301330 METAR LRTR 301330Z 30006KT 260V320 9999 BKN014 BKN030 14/12
                        Q1006 R11/19//95=
201904301400 METAR LRTR 301400Z 28008KT 9999 BKN015 BKN032 14/12 Q1006
                        R11/19//95=
201904301430 METAR LRTR 301430Z 29012KT 9999 BKN015 FEW025CB BKN035 14/12
                        Q1006 R11/19//95=
201904301500 METAR LRTR 301500Z 30011KT 9999 BKN015 FEW025CB BKN035 13/12
                        Q1006 R11/19//95=
201904301530 METAR LRTR 301530Z 29011KT 9999 -RA BKN013 FEW025CB BKN035
                        12/11 Q1006 R11/19//95=
201904301600 METAR LRTR 301600Z 28009KT 9999 -SHRA SCT015 SCT028CB OVC040
                        12/12 Q1006 R11/19//95=
201904301630 METAR LRTR 301630Z 30007KT 9999 -SHRA FEW014 SCT028CB OVC040
                        12/12 Q1006 R11/19//95=
201904301700 METAR LRTR 301700Z 28007KT 9999 -SHRA SCT012 SCT027CB OVC043
                        12/12 Q1006 R11/290095=
201904301730 METAR LRTR 301730Z 25009KT 9000 -RA BKN013 OVC016 11/11 Q1006
                        R11/290095=
201904301800 METAR LRTR 301800Z 25010KT 5000 -RA BR OVC006 11/11 Q1006
                        R11/290095=
201904301830 METAR LRTR 301830Z 25013KT 4000 RA BR OVC006 11/11 Q1006
                        R11/290095=
201904301900 METAR LRTR 301900Z 26013KT 5000 -RA BR BKN006 OVC047 11/11
                        Q1006 RERA R11/290095=
201904301930 METAR LRTR 301930Z 26013KT 6000 -RA BKN006 OVC045 11/11 Q1006
                        R11/290095=
201904302000 METAR LRTR 302000Z 26014KT 6000 -RA BKN005 OVC040 11/11 Q1006
                        R11/290095=
201904302030 METAR LRTR 302030Z 25013KT 7000 -RA SCT004 BKN024 11/11 Q1005
                        R11/290095=
201904302100 METAR LRTR 302100Z 25011KT 9999 -RA FEW004 BKN022 OVC048
                        11/11 Q1006 R11/290095=
201904302130 METAR LRTR 302130Z 25008KT 9999 -RA BKN009 OVC048 11/11 Q1005
                        R11/290095=
201904302200 METAR LRTR 302200Z 28010KT 5000 RA SCT006 OVC020 11/11 Q1005
                        R11/290095=
201904302230 METAR LRTR 302230Z 28009KT 6000 RA OVC004 11/11 Q1005 R11/290095=
201904302300 METAR LRTR 302300Z 27014KT 6000 RA BKN004 OVC047 11/11 Q1005
                        R11/290095=
201904302330 METAR LRTR 302330Z 27014KT 9999 OVC008 11/11 Q1005 RERA R11/290095=
