201905010500 TAF LRTR 010500Z 0106/0206 27012KT 7000 SCT015 BKN035
                      TEMPO 0106/0111 5000 -SHRA BKN010 SCT030CB
                       BKN035
                      BECMG 0111/0113 SCT040
                      TEMPO 0114/0120 5000 -TSRA SCT035CB
                      BECMG 0120/0122 VRB04KT=
201905011100 TAF LRTR 011100Z 0112/0212 32010KT 9999 SCT035CB
                      TEMPO 0112/0118 5000 -TSRA
                      BECMG 0118/0120 VRB04KT SCT030
                      PROB40 TEMPO 0204/0208 5000 -RA BKN015 BKN030
                       BECMG 0208/0210 28010KT=
201905011700 TAF LRTR 011700Z 0118/0218 VRB04KT CAVOK
                      BECMG 0208/0210 26010KT
                      TEMPO 0212/0218 SCT040CB
                      PROB30 TEMPO 0214/0217 5000 TSRA=
201905012300 TAF LRTR 012300Z 0200/0224 VRB04KT CAVOK
                      PROB40 TEMPO 0204/0208 5000 -SHRA SCT040CB
                       BECMG 0208/0210 26010KT
                      TEMPO 0212/0218 SCT040CB
                      PROB30 TEMPO 0214/0217 5000 TSRA
                      BECMG 0217/0219 VRB04KT=
201905020500 TAF LRTR 020500Z 0206/0306 VRB04KT CAVOK
                      BECMG 0207/0209 26010KT
                      TEMPO 0212/0217 SCT040CB
                      PROB30 TEMPO 0214/0216 5000 TSRA
                      BECMG 0217/0219 VRB04KT=
201905021100 TAF LRTR 021100Z 0212/0312 26010KT 9999 SCT035
                      TEMPO 0212/0216 SCT035CB
                      BECMG 0216/0218 VRB04KT=
201905021700 TAF LRTR 021700Z 0218/0318 VRB04KT CAVOK
                      TEMPO 0302/0306 5000 BR
                      BECMG 0306/0308 22010KT
                      TEMPO 0314/0318 SCT045CB=
201905022300 TAF LRTR 022300Z 0300/0324 11006KT CAVOK
                      TEMPO 0301/0306 3000 BR
                      BECMG 0306/0308 22010KT
                      TEMPO 0314/0319 SCT045CB=
201905030500 TAF LRTR 030500Z 0306/0406 11008KT CAVOK
                      BECMG 0308/0310 22012KT
                      BECMG 0310/0312 SCT035CB
                      TEMPO 0314/0317 VRB20G30KT 5000 TSRA
                      BECMG 0318/0320 VRB04KT NSC=
201905031100 TAF LRTR 031100Z 0312/0412 23012KT CAVOK
                      TEMPO 0314/0318 VRB20G30KT 5000 -TSRA SCT035CB
                       BECMG 0318/0320 VRB04KT
                      BECMG 0408/0410 18010KT=
201905031700 TAF LRTR 031700Z 0318/0418 17008KT CAVOK
                      TEMPO 0318/0323 VRB15KT 5000 -SHRA SCT045CB
                       TEMPO 0414/0418 5000 -SHRA SCT010 SCT040CB=
201905032300 TAF LRTR 032300Z 0400/0424 VRB04KT CAVOK
                      BECMG 0407/0409 17012KT
                      PROB40 TEMPO 0414/0418 5000 -SHRA SCT010
                       SCT040CB
                      BECMG 0418/0420 10008KT
                      BECMG 0420/0422 5000 -RA BR BKN015 BKN035
                       TEMPO 0422/0424 3000 -RA BR BKN010 OVC030=
201905040500 TAF LRTR 040500Z 0406/0506 11008KT CAVOK
                      PROB30 TEMPO 0411/0415 VRB15G25KT 3000 TSRA
                       BKN010 BKN030CB
                      BECMG 0421/0423 17010KT 5000 RA BKN015 OVC035
                       TEMPO 0500/0506 3000 SHRA BKN010 SCT025CB
                       OVC030=
201905041100 TAF LRTR 041100Z 0412/0512 14008KT CAVOK
                      PROB30 TEMPO 0412/0415 VRB15G25KT 3000 TSRA
                       BKN010 BKN035CB
                      BECMG 0421/0423 20010KT 5000 RA BKN015 OVC035
                       TEMPO 0500/0507 3000 SHRA BKN010 SCT025CB
                       OVC030=
201905041700 TAF LRTR 041700Z 0418/0518 VRB04KT CAVOK
                      BECMG 0500/0502 5000 RA BKN015 BKN035
                      TEMPO 0502/0507 3000 SHRA BKN010 SCT025CB
                       OVC030
                      BECMG 0507/0509 9999 NSW=
201905042300 TAF LRTR 042300Z 0500/0524 VRB04KT CAVOK
                      BECMG 0500/0502 5000 RA BKN015 BKN035
                      PROB30 TEMPO 0502/0507 3000 SHRA BKN010 SCT025CB
                       OVC030
                      BECMG 0507/0509 9999 NSW
                      BECMG 0518/0520 3000 BR=
201905050500 TAF LRTR 050500Z 0506/0606 12010KT 9999 SCT045
                      TEMPO 0507/0511 5000 -SHRA SCT010 SCT040CB
                       BECMG 0511/0513 19008KT SCT035CB
                      TEMPO 0514/0520 VRB20G30KT 3000 TSRA SCT010
                       BKN035CB
                      BECMG 0520/0522 BKN010 BKN030
                      TEMPO 0522/0603 5000 -RA BR
                      BECMG 0604/0606 28010KT=
201905051100 TAF LRTR 051100Z 0512/0612 18010KT 9999 BKN035
                      TEMPO 0513/0520 5000 -SHRA SCT030CB BKN035
                       PROB30
                      TEMPO 0514/0520 VRB20G30KT 3000 TSRA SCT010
                       BKN030CB
                      TEMPO 0520/0608 5000 -RA -SHRA BKN010 SCT030CB
                       BKN035
                      BECMG 0606/0608 28010KT=
201905051700 TAF LRTR 051700Z 0518/0618 25006KT 9999 BKN035
                      TEMPO 0518/0522 5000 SHRA BKN015 BKN030CB
                       BECMG 0600/0602 5000 RA BKN015 OVC035
                      TEMPO 0600/0606 3000 SHRA BKN010 SCT025CB
                       OVC030
                      BECMG 0606/0608 34012KT
                      BECMG 0613/0615 9999 NSW BKN035=
201905052300 TAF LRTR 052300Z 0600/0624 25008KT 3000 RA BKN005 OVC035
                      TEMPO 0600/0606 1500 SHRA BKN002 SCT025CB
                       OVC030
                      BECMG 0606/0608 34012KT
                      BECMG 0613/0615 9999 NSW BKN035=
201905060500 TAF LRTR 060500Z 0606/0706 23008KT 5000 -RA BR BKN005 OVC035
                      TEMPO 0606/0610 3000 RA BKN002 FEW025CB OVC030
                       BECMG 0609/0611 34012KT 9999 NSW BKN015
                       OVC035
                      BECMG 0611/0613 BKN035
                      PROB30 TEMPO 0616/0624 5000 -RA BR BKN015
                       OVC035=
201905061100 TAF LRTR 061100Z 0612/0712 26008KT 9999 BKN015 OVC035
                      BECMG 0612/0614 33014KT SCT015 BKN035
                      PROB30 TEMPO 0618/0702 5000 -RA BR BKN010
                       OVC035
                      TEMPO 0709/0712 33017G27KT 5000 -RA BR=
201905061700 TAF LRTR 061700Z 0618/0718 33010KT 9999 SCT010 BKN025
                      TEMPO 0618/0622 5000 -DZ BR BKN010 BKN025
                       TEMPO 0700/0705 5000 -RA BR BKN005 OVC025
                       TEMPO 0709/0715 33015G25KT=
201905062300 TAF LRTR 062300Z 0700/0724 33010KT 9999 BKN025
                      TEMPO 0700/0705 5000 -RA BR BKN010 OVC025
                       TEMPO 0709/0715 33015G25KT=
201905070500 TAF LRTR 070500Z 0706/0806 28006KT 9999 BKN040
                      BECMG 0706/0708 31016KT
                      BECMG 0715/0717 30006KT
                      TEMPO 0801/0805 3000 BR=
201905071100 TAF LRTR 071100Z 0712/0812 33016KT 9999 BKN040
                      BECMG 0715/0717 32006KT
                      TEMPO 0801/0805 3000 BR=
201905071700 TAF LRTR 071700Z 0718/0818 33006KT CAVOK
                      TEMPO 0801/0805 3000 BR=
201905072300 TAF AMD LRTR 080325Z 0803/0824 VRB04KT 0600 FG NSC
                      TEMPO 0803/0804 0300 FG OVC001
                      BECMG 0805/0806 3000 BR
                      BECMG 0806/0807 9999 NSW=
201905080325 TAF AMD LRTR 080325Z 0803/0824 VRB04KT 0600 FG NSC
                      TEMPO 0803/0804 0300 FG OVC001
                      BECMG 0805/0806 3000 BR
                      BECMG 0806/0807 9999 NSW=
201905080500 TAF LRTR 080500Z 0806/0906 VRB04KT CAVOK
                      TEMPO 0806/0808 3000 BR
                      BECMG 0903/0905 12010KT=
201905081100 TAF LRTR 081100Z 0812/0912 22006KT CAVOK
                      BECMG 0903/0905 14012KT
                      BECMG 0910/0912 5000 -SHRA BKN015 SCT025CB
                       OVC030=
201905081700 TAF LRTR 081700Z 0818/0918 11006KT CAVOK
                      BECMG 0907/0909 18010KT
                      BECMG 0912/0914 5000 -RA BKN040
                      TEMPO 0915/0918 3000 SHRA BKN010 SCT035CB
                       OVC040=
201905082300 TAF LRTR 082300Z 0900/0924 VRB04KT CAVOK
                      BECMG 0907/0909 18012KT
                      BECMG 0912/0914 5000 -RA BKN015 BKN040
                      TEMPO 0915/0921 3000 SHRA BKN010 SCT035CB
                       OVC040
                      BECMG 0918/0920 VRB04KT=
201905090500 TAF LRTR 090500Z 0906/1006 11010KT CAVOK
                      PROB40 TEMPO 0906/0912 5000 -SHRA SCT015
                       SCT040CB
                      BECMG 0907/0909 18012KT
                      BECMG 0912/0914 5000 -RA BKN015 BKN040
                      TEMPO 0915/0922 3000 SHRA BKN010 SCT035CB
                       OVC040
                      BECMG 0922/0924 VRB04KT 3000 -RA BR BKN010
                       BKN030=
201905091100 TAF LRTR 091100Z 0912/1012 19012KT 9999 SCT040
                      TEMPO 0912/0918 5000 -RA BKN015 BKN040
                      BECMG 0918/0920 3000 -RA BR BKN010 BKN030
                       TEMPO 0922/1005 1500 -RADZ BR BKN005 OVC020
                       BECMG 1006/1008 28010KT 9999 NSW SCT040
                       BECMG 1010/1012 SCT040CB=
201905091700 TAF LRTR 091700Z 0918/1018 VRB04KT 9999 -RA BKN015 OVC040
                      TEMPO 0918/0922 3000 -RA BR BKN010 BKN030
                       TEMPO 0922/1005 1500 -RADZ BR BKN005 OVC020
                       BECMG 1006/1008 28010KT NSW BKN035
                      TEMPO 1010/1016 SCT040CB
                      PROB40 TEMPO 1012/1016 VRB15G25KT 5000 TSRA=
201905092300 TAF LRTR 092300Z 1000/1024 VRB04KT 5000 -RA BR BKN010 OVC040
                      TEMPO 1000/1005 1500 -RADZ BR BKN002 OVC010
                       BECMG 1005/1007 28010KT 9999 NSW BKN035
                       TEMPO 1010/1016 SCT040CB
                      PROB40 TEMPO 1012/1016 VRB15G25KT 5000 TSRA=
201905100500 TAF LRTR 100500Z 1006/1106 28008KT 9999 BKN007 BKN030
                      BECMG 1007/1009 BKN035
                      TEMPO 1013/1019 SCT040CB
                      PROB40 1014/1018 5000 -TSRA
                      BECMG 1020/1022 3000 BR BKN005
                      TEMPO 1101/1105 0600 FG BKN002=
201905101100 TAF LRTR 101100Z 1012/1112 29010KT 9999 SCT035 FEW040CB
                      TEMPO 1013/1017 VRB18KT 3000 TSRA SCT015
                       BKN035CB
                      BECMG 1017/1019 VRB04KT NSC
                      BECMG 1020/1022 3000 BR
                      TEMPO 1100/1104 0800 FG BKN002
                      BECMG 1105/1107 9999 NSW=
201905101700 TAF LRTR 101700Z 1018/1118 VRB04KT 9999 SCT045CB
                      TEMPO 1018/1020 5000 -TSRA
                      BECMG 1020/1022 NSC
                      BECMG 1022/1024 3000 BR
                      TEMPO 1101/1106 0800 FG BKN002
                      BECMG 1106/1108 9999 NSW=
201905102300 TAF AMD LRTR 110340Z 1103/1124 VRB04KT 0350 FG BKN001
                      BECMG 1105/1107 1500 BR SCT005
                      BECMG 1107/1109 9999 NSW
                      BECMG 1118/1120 11010KT=
201905110340 TAF AMD LRTR 110340Z 1103/1124 VRB04KT 0350 FG BKN001
                      BECMG 1105/1107 1500 BR SCT005
                      BECMG 1107/1109 9999 NSW
                      BECMG 1118/1120 11010KT=
201905110500 TAF LRTR 110500Z 1106/1206 VRB04KT CAVOK
                      BECMG 1120/1122 11012KT=
201905111100 TAF LRTR 111100Z 1112/1212 VRB04KT 9999 SCT045
                      BECMG 1120/1122 11012KT=
201905111700 TAF LRTR 111700Z 1118/1218 11008KT CAVOK
                      TEMPO 1212/1218 FEW040CB=
201905112300 TAF LRTR 112300Z 1200/1224 10008KT CAVOK
                      TEMPO 1212/1218 FEW040CB=
201905120500 TAF LRTR 120500Z 1206/1306 10008KT CAVOK
                      TEMPO 1212/1218 SCT040CB
                      PROB30 1212/1215 -TSRA=
201905121100 TAF LRTR 121100Z 1212/1312 10008KT CAVOK
                      TEMPO 1212/1218 SCT040CB
                      PROB30 1212/1216 -TSRA
                      TEMPO 1308/1312 5000 -TSRA BKN010 BKN020CB=
201905121700 TAF LRTR 121700Z 1218/1318 10010KT CAVOK
                      TEMPO 1220/1223 SCT040CB
                      BECMG 1223/1301 VRB04KT
                      PROB40 TEMPO 1301/1304 5000 -TSRA SCT040CB
                       TEMPO 1308/1312 5000 -TSRA BKN040CB=
201905122300 TAF LRTR 122300Z 1300/1324 VRB04KT CAVOK
                      PROB30 TEMPO 1301/1304 5000 -TSRA SCT040CB
                       TEMPO 1309/1314 5000 -TSRA BKN040CB
                      PROB30 TEMPO 1318/1322 5000 SHRA SCT040CB=
201905130500 TAF LRTR 130500Z 1306/1406 09006KT 9999 SCT045
                      TEMPO 1309/1314 VRB15G25KT 5000 -TSRA SCT040CB
                       TEMPO 1318/1406 5000 -SHRA SCT040CB
                      PROB40 TEMPO 1400/1406 3000 SHRA BKN010 BKN035CB=
201905131100 TAF LRTR 131100Z 1312/1412 VRB04KT 9999 SCT045
                      PROB30 TEMPO 1314/1322 5000 -SHRA SCT040CB
                       BECMG 1322/1324 5000 -RA
                      PROB40 TEMPO 1400/1406 3000 SHRA BKN010 SCT035CB=
201905131700 TAF LRTR 131700Z 1318/1418 34006KT 9999 SCT045
                      PROB30 TEMPO 1318/1322 3000 TSRA BKN010 BKN030CB
                       BECMG 1403/1405 08010KT 5000 -RA BKN015
                       OVC030
                      TEMPO 1405/1410 3000 SHRA BKN010 SCT035CB
                       TEMPO 1410/1416 VRB15G25KT 3000 TSRA BKN005
                       BKN025CB=
201905132300 TAF AMD LRTR 140447Z 1404/1424 01015KT 9999 SCT045
                      BECMG 1404/1406 5000 -RA BKN015 OVC030
                      TEMPO 1406/1412 3000 SHRA BKN010 SCT035CB
                       TEMPO 1412/1417 VRB15G25KT 1500 TSRA BKN005
                       BKN025CB
                      BECMG 1418/1420 24004KT 9999 NSW BKN020=
201905140447 TAF AMD LRTR 140447Z 1404/1424 01015KT 9999 SCT045
                      BECMG 1404/1406 5000 -RA BKN015 OVC030
                      TEMPO 1406/1412 3000 SHRA BKN010 SCT035CB
                       TEMPO 1412/1417 VRB15G25KT 1500 TSRA BKN005
                       BKN025CB
                      BECMG 1418/1420 24004KT 9999 NSW BKN020=
201905140500 TAF LRTR 140500Z 1406/1506 01012KT 8000 -RA SCT015 BKN040
                      TEMPO 1406/1409 5000 -RA BR BKN010 OVC035
                       BECMG 1409/1411 VRB04KT
                      PROB40 TEMPO 1414/1417 3000 TSRA BKN010 SCT030CB
                       BKN040
                      TEMPO 1418/1424 3000 BR
                      BECMG 1500/1502 18012KT
                      TEMPO 1503/1506 5000 -RA BR BKN010 OVC030=
201905141100 TAF LRTR 141100Z 1412/1512 34008KT 8000 -DZ SCT005 BKN040
                      PROB40 TEMPO 1413/1417 5000 SHRA BKN005 SCT030CB
                       BKN040
                      BECMG 1418/1420 3000 BR OVC005
                      TEMPO 1421/1501 1500 BR OVC002
                      BECMG 1500/1502 20010KT 5000 -RA BR BKN010
                       OVC020
                      TEMPO 1502/1507 3000 RA BR BKN002 OVC030
                       BECMG 1508/1510 9999 NSW BKN020=
201905141700 TAF LRTR 141700Z 1418/1518 01006KT 9999 -RA SCT010 BKN035
                      BECMG 1418/1420 5000 -DZ BR BKN005 OVC030
                       PROB40
                      TEMPO 1421/1424 1500 DZ BR BKN002 OVC025
                       BECMG 1500/1502 20010KT 5000 -RA BR BKN010
                       OVC020
                      TEMPO 1502/1507 3000 RA BR BKN002 OVC030
                       BECMG 1507/1509 9999 NSW BKN020
                      BECMG 1513/1515 VRB04KT=
201905142013 TAF COR LRTR 142013Z 1418/1518 01006KT 9999 -RA SCT010 BKN035
                      BECMG 1418/1420 5000 -DZ BR BKN005 OVC030
                       PROB40
                      TEMPO 1421/1424 1500 DZ BR BKN002 OVC025
                       BECMG 1500/1502 20010KT 3000 -RA BR BKN010
                       OVC020
                      TEMPO 1502/1507 1500 RA BR BKN002 OVC030
                       BECMG 1507/1509 9999 NSW BKN020
                      BECMG 1513/1515 VRB04KT=
201905142300 TAF LRTR 142300Z 1500/1524 18010KT 3000 -RADZ BR BKN005 BKN025
                       TEMPO 1501/1507 1500 RA BR BKN002 OVC020
                       BECMG 1507/1509 9999 NSW BKN020
                      BECMG 1513/1515 VRB04KT=
201905150500 TAF LRTR 150500Z 1506/1606 20010KT 5000 -RA BR BKN005 BKN030
                      TEMPO 1506/1508 3000 -RA BR BKN002 OVC025
                       BECMG 1508/1510 BKN020
                      BECMG 1513/1515 26006KT
                      BECMG 1522/1524 5000 BR
                      TEMPO 1600/1604 1500 BR=
201905150833 TAF COR LRTR 150833Z 1506/1606 20010KT 5000 -RA BR BKN005 BKN030
                       TEMPO 1506/1508 3000 -RA BR BKN002 OVC025
                       BECMG 1508/1510 9999 NSW BKN020
                      BECMG 1513/1515 26006KT
                      BECMG 1522/1524 5000 BR
                      TEMPO 1600/1604 1500 BR=
201905151100 TAF LRTR 151100Z 1512/1612 20010KT 9999 BKN030
                      BECMG 1513/1515 26006KT
                      BECMG 1522/1524 5000 BR
                      TEMPO 1600/1604 1500 BR
                      BECMG 1604/1606 9999 NSW=
201905151700 TAF LRTR 151700Z 1518/1618 VRB04KT 9999 SCT020 BKN030
                      TEMPO 1523/1604 4000 BR=
201905152300 TAF LRTR 152300Z 1600/1624 VRB04KT 9999 BKN025
                      TEMPO 1601/1604 4000 BR
                      PROB30 TEMPO 1622/1624 5000 -RA BR BKN015
                       BKN030=
201905160500 TAF LRTR 160500Z 1606/1706 VRB04KT 9999 BKN035
                      BECMG 1622/1624 5000 -RA BR BKN015 BKN030
                       TEMPO 1700/1706 3000 RA BKN010 OVC030=
201905161100 TAF LRTR 161100Z 1612/1712 33006KT 9999 BKN035
                      BECMG 1622/1624 5000 -RA BR BKN015 BKN030
                       TEMPO 1700/1708 3000 RA BKN010 OVC030=
201905161700 TAF LRTR 161700Z 1618/1718 33006KT 9999 BKN035
                      PROB40 TEMPO 1618/1621 5000 -SHRA SCT030CB
                       BKN035=
201905162300 TAF LRTR 162300Z 1700/1724 30006KT 9999 BKN025
                      BECMG 1720/1722 3000 BR
                      TEMPO 1722/1724 1500 BR=
201905170500 TAF LRTR 170500Z 1706/1806 30007KT 9999 BKN020
                      PROB40 TEMPO 1711/1715 SCT040CB
                      BECMG 1718/1720 5000 BR
                      BECMG 1721/1723 1500 BR BKN005
                      TEMPO 1800/1804 0600 FG BKN002
                      BECMG 1804/1806 3000 BR BKN010=
201905171100 TAF LRTR 171100Z 1712/1812 VRB04KT 9999 BKN030
                      BECMG 1718/1721 5000 BR
                      BECMG 1721/1723 1500 BR BKN005
                      TEMPO 1800/1804 0600 FG BKN002
                      BECMG 1804/1806 3000 BR BKN010
                      BECMG 1806/1808 9999 NSW SCT020=
201905171700 TAF LRTR 171700Z 1718/1818 VRB04KT 9999 SCT040
                      BECMG 1721/1723 5000 BR
                      PROB30 TEMPO 1800/1805 1500 BR BKN005
                      BECMG 1806/1808 9999 NSW=
201905172300 TAF LRTR 172300Z 1800/1824 VRB04KT 5000 BR SCT040
                      PROB30 TEMPO 1801/1805 1500 BR BKN005
                      BECMG 1806/1808 9999 NSW=
201905180500 TAF LRTR 180500Z 1806/1906 10006KT CAVOK
                      PROB40 TEMPO 1822/1902 5000 -SHRA SCT040CB=
201905181100 TAF LRTR 181100Z 1812/1912 10006KT CAVOK
                      PROB30 TEMPO 1822/1902 5000 -SHRA SCT040CB
                       TEMPO 1902/1905 3000 BR
                      TEMPO 1910/1912 SCT040CB=
201905181700 TAF LRTR 181700Z 1818/1918 VRB04KT CAVOK
                      TEMPO 1820/1824 SCT035CB
                      TEMPO 1900/1905 3000 BR
                      BECMG 1907/1909 15010KT
                      TEMPO 1911/1916 5000 -SHRA SCT040CB
                      PROB40 TEMPO 1912/1915 VRB18G28KT 3000 TSRA
                       SCT010 BKN030CB
                      BECMG 1915/1917 07008KT=
201905182300 TAF LRTR 182300Z 1900/1924 VRB04KT CAVOK
                      TEMPO 1900/1903 VRB15G25KT 3000 TSRA SCT010
                       BKN035CB
                      TEMPO 1903/1905 3000 BR
                      BECMG 1907/1909 15010KT
                      TEMPO 1911/1916 5000 -SHRA SCT040CB
                      PROB40 TEMPO 1912/1915 VRB18G28KT 3000 TSRA
                       SCT010 BKN030CB
                      BECMG 1915/1917 07008KT
                      TEMPO 1921/1924 3000 TSRA SCT010 BKN030CB=
201905190500 TAF LRTR 190500Z 1906/2006 14007KT CAVOK
                      TEMPO 1912/1916 VRB18G28KT 3000 TSRA BKN010
                       BKN030CB
                      TEMPO 1921/2001 VRB20G30KT 3000 TSRA BKN010
                       BKN030CB
                      BECMG 2001/2003 NSC=
201905191100 TAF LRTR 191100Z 1912/2012 VRB04KT CAVOK
                      TEMPO 1912/1916 VRB18G28KT 3000 TSRA BKN010
                       BKN030CB
                      TEMPO 1921/2001 VRB20G30KT 3000 TSRA BKN010
                       BKN030CB
                      BECMG 2001/2003 NSC=
201905191700 TAF LRTR 191700Z 1918/2018 VRB04KT CAVOK
                      TEMPO 1920/2001 VRB20G30KT 5000 TSRA BKN010
                       SCT035CB
                      TEMPO 2001/2005 3000 BR BKN005
                      PROB40 TEMPO 2002/2004 0600 FG
                      BECMG 2012/2014 22012KT
                      TEMPO 2015/2018 SCT040CB=
201905192300 TAF LRTR 192300Z 2000/2024 VRB04KT 9999 FEW045CB
                      BECMG 2000/2002 NSC
                      TEMPO 2002/2005 3000 BR BKN005
                      PROB30 TEMPO 2002/2004 0600 FG
                      BECMG 2012/2014 22010KT
                      TEMPO 2015/2018 SCT040CB=
201905200500 TAF LRTR 200500Z 2006/2106 VRB04KT 9999 SCT040
                      TEMPO 2006/2008 BKN005
                      BECMG 2010/2012 22010KT
                      TEMPO 2014/2020 SCT035CB
                      PROB40 TEMPO 2014/2018 VRB15G25KT 5000 -TSRA
                       BECMG 2100/2102 5000 BR BKN010
                      TEMPO 2102/2105 1500 BR BKN005=
201905201100 TAF LRTR 201100Z 2012/2112 19008KT 9999 SCT040
                      TEMPO 2012/2020 SCT035CB
                      PROB40 TEMPO 2013/2018 VRB15G25KT 5000 -TSRA
                       TEMPO 2023/2103 3000 BR BKN010
                      TEMPO 2103/2107 5000 -SHRA SCT030CB=
201905201700 TAF LRTR 201700Z 2018/2118 VRB04KT 9999 SCT040
                      PROB40 TEMPO 2018/2023 5000 -TSRA BKN015
                       SCT030CB
                      PROB30 TEMPO 2100/2104 3000 BR BKN010
                      BECMG 2106/2108 21010KT=
201905202300 TAF LRTR 202300Z 2100/2124 VRB04KT CAVOK
                      PROB30 TEMPO 2102/2104 3000 BR BKN010
                      BECMG 2106/2108 21010KT
                      TEMPO 2122/2124 SCT040CB=
201905210500 TAF LRTR 210500Z 2106/2206 21010KT CAVOK
                      TEMPO 2111/2115 5000 -SHRA SCT040CB
                      TEMPO 2120/2124 5000 -SHRA SCT040CB
                      PROB30 TEMPO 2201/2205 3000 BR BKN010=
201905211100 TAF LRTR 211100Z 2112/2212 22009KT 9999 SCT045
                      TEMPO 2112/2116 5000 -SHRA SCT040CB
                      PROB40 2112/2115 -TSRA
                      TEMPO 2122/2203 5000 -SHRA SCT040CB
                      TEMPO 2208/2212 5000 -SHRA SCT035CB=
201905211700 TAF LRTR 211700Z 2118/2218 22010KT 9999 SCT045
                      TEMPO 2118/2121 5000 -TSRA SCT040CB
                      TEMPO 2202/2205 5000 -SHRA SCT040CB
                      TEMPO 2214/2218 VRB20G30KT 3000 +TSRA BKN010
                       BKN035CB=
201905212300 TAF LRTR 212300Z 2200/2224 21008KT CAVOK
                      TEMPO 2201/2205 5000 -SHRA SCT040CB
                      TEMPO 2214/2218 VRB20G30KT 3000 +TSRA BKN010
                       BKN035CB=
201905220500 TAF LRTR 220500Z 2206/2306 19008KT 9999 SCT035
                      BECMG 2207/2209 23018KT
                      TEMPO 2209/2212 5000 -SHRA SCT030CB
                      TEMPO 2212/2217 30018KT 3000 TSRA SCT010
                       BKN030CB
                      BECMG 2216/2218 25007KT
                      TEMPO 2222/2304 5000 -RADZ BR BKN010 BKN025=
201905221100 TAF LRTR 221100Z 2212/2312 23017KT 9999 BKN040
                      TEMPO 2212/2217 29017KT 3000 TSRA SCT010
                       BKN030CB
                      BECMG 2216/2218 25007KT
                      BECMG 2222/2224 BKN015 BKN030
                      TEMPO 2302/2307 5000 -RA BR BKN010 BKN025
                       BECMG 2308/2310 SCT015 BKN030=
201905221700 TAF LRTR 221700Z 2218/2318 27007KT 9999 SCT040
                      TEMPO 2218/2220 5000 -SHRA SCT035CB
                      BECMG 2222/2224 BKN015 BKN030
                      TEMPO 2303/2308 5000 -RA BR BKN010 BKN025
                       BECMG 2308/2310 SCT015 BKN030
                      TEMPO 2312/2318 5000 -SHRA SCT035CB=
201905222300 TAF LRTR 222300Z 2300/2324 26008KT 9999 SCT015 BKN030
                      TEMPO 2303/2308 5000 -RA BR BKN010 BKN025
                       TEMPO 2312/2318 5000 -SHRA SCT035CB=
201905230500 TAF LRTR 230500Z 2306/2406 26010KT 9999 BKN030
                      TEMPO 2311/2317 5000 -SHRA SCT025CB BKN030
                       BECMG 2321/2323 BKN015 BKN030
                      TEMPO 2402/2406 5000 -RA BR=
201905231100 TAF LRTR 231100Z 2312/2412 26008KT 9999 BKN035
                      PROB30 TEMPO 2313/2317 5000 -SHRA SCT030CB
                       BKN035
                      BECMG 2322/2324 BKN015 BKN025
                      TEMPO 2402/2407 5000 -RA BR
                      BECMG 2407/2409 BKN025
                      TEMPO 2409/2412 5000 -SHRA SCT010 SCT020CB
                       BKN025=
201905231700 TAF LRTR 231700Z 2318/2418 28007KT 9999 SCT025 BKN040
                      TEMPO 2400/2407 5000 -RA BR BKN010 OVC025
                       TEMPO 2411/2416 5000 -SHRA SCT030CB BKN040
                       PROB40
                      TEMPO 2412/2415 VRB20KT TSRA=
201905232300 TAF LRTR 232300Z 2400/2424 28007KT 9999 BKN035
                      TEMPO 2400/2407 5000 -RA BR BKN010 OVC025
                       TEMPO 2411/2416 5000 -SHRA SCT030CB BKN040
                       PROB40
                      TEMPO 2412/2415 VRB20KT TSRA
                      TEMPO 2421/2424 5000 BR BKN010=
201905240500 TAF LRTR 240500Z 2406/2506 28007KT 9999 BKN035
                      BECMG 2409/2411 -SHRA SCT035CB BKN040
                      TEMPO 2411/2416 3000 TSRA BKN010 BKN030CB
                       PROB40
                      TEMPO 2412/2415 VRB20KT 1500 +TSRA
                      BECMG 2416/2418 BKN020 OVC040
                      TEMPO 2500/2505 5000 -RA BR BKN010 OVC030=
201905241100 TAF LRTR 241100Z 2412/2512 28007KT 9999 BKN035
                      TEMPO 2412/2416 3000 TSRA BKN010 BKN030CB
                       PROB40
                      TEMPO 2412/2415 VRB20KT 1500 +TSRA
                      BECMG 2416/2418 BKN020 OVC040
                      TEMPO 2502/2507 5000 -RA BR BKN010 OVC030=
201905241700 TAF LRTR 241700Z 2418/2518 28005KT 9999 SCT035CB
                      PROB30 TEMPO 2418/2420 5000 -TSRA
                      BECMG 2420/2422 NSC
                      TEMPO 2501/2505 5000 BR BKN010=
201905242125 TAF AMD LRTR 242125Z 2421/2518 VRB03KT 0800 FG NSC
                      TEMPO 2421/2503 0150 FG VV001
                      BECMG 2503/2505 3000 BR BKN002
                      BECMG 2505/2506 CAVOK=
201905242300 TAF AMD LRTR 250325Z 2503/2524 VRB04KT 0150 FG VV001
                      BECMG 2504/2505 0800 OVC002
                      BECMG 2505/2507 5000 BR BKN010
                      BECMG 2507/2508 CAVOK=
201905250325 TAF AMD LRTR 250325Z 2503/2524 VRB04KT 0150 FG VV001
                      BECMG 2504/2505 0800 OVC002
                      BECMG 2505/2507 5000 BR BKN010
                      BECMG 2507/2508 CAVOK=
201905250500 TAF LRTR 250500Z 2506/2606 VRB04KT 0350 FG VV001
                      BECMG 2506/2507 0800 BKN002
                      BECMG 2507/2508 3000 BR SCT010
                      BECMG 2508/2509 9999 NSW
                      TEMPO 2513/2518 SCT040CB
                      BECMG 2522/2524 5000 BR
                      TEMPO 2601/2605 1500 BR BKN005=
201905251100 TAF LRTR 251100Z 2512/2612 VRB04KT 9999 SCT045
                      TEMPO 2512/2518 -TSRA SCT040CB
                      BECMG 2522/2524 5000 BR
                      BECMG 2600/2602 1500 BR BKN005
                      TEMPO 2602/2605 0600 FG OVC002
                      BECMG 2606/2608 5000 SCT010
                      BECMG 2608/2609 CAVOK=
201905251700 TAF LRTR 251700Z 2518/2618 VRB04KT CAVOK
                      BECMG 2522/2524 5000 BR
                      BECMG 2600/2602 1500 BR BKN005
                      PROB30 TEMPO 2602/2604 0600 FG VV001
                      BECMG 2604/2606 3000 SCT010
                      BECMG 2606/2608 CAVOK=
201905252300 TAF LRTR 252300Z 2600/2624 10008KT CAVOK
                      BECMG 2600/2602 3000 BR BKN005
                      PROB30 TEMPO 2602/2604 0600 FG VV001
                      BECMG 2605/2607 CAVOK=
201905260500 TAF LRTR 260500Z 2606/2706 11008KT CAVOK
                      TEMPO 2700/2704 3000 BR=
201905261100 TAF LRTR 261100Z 2612/2712 VRB04KT CAVOK
                      TEMPO 2623/2703 5000 BR
                      BECMG 2704/2706 17010KT=
201905261700 TAF LRTR 261700Z 2618/2718 VRB04KT CAVOK
                      BECMG 2704/2706 17010KT SCT015 SCT040CB
                      TEMPO 2706/2709 5000 -SHRA
                      TEMPO 2712/2718 VRB15G25KT 3000 TSRA BKN015
                       BKN035CB=
201905262300 TAF LRTR 262300Z 2700/2724 08006KT CAVOK
                      PROB30 TEMPO 2701/2704 3000 BR
                      BECMG 2704/2706 17010KT
                      TEMPO 2706/2709 5000 -SHRA SCT015 SCT040CB
                       TEMPO 2712/2718 VRB15G25KT 3000 TSRA BKN015
                       BKN035CB=
201905270500 TAF LRTR 270500Z 2706/2806 17010KT CAVOK
                      TEMPO 2706/2709 5000 -SHRA SCT040CB
                      TEMPO 2715/2721 17015G25KT 3000 TSRA BKN015
                       BKN035CB=
201905271100 TAF LRTR 271100Z 2712/2812 18008KT CAVOK
                      TEMPO 2712/2716 5000 -SHRA SCT015 SCT040CB
                       TEMPO 2716/2721 18015G25KT 3000 TSRA BKN015
                       BKN035CB
                      TEMPO 2806/2812 5000 -TSRA SCT035CB=
201905271700 TAF LRTR 271700Z 2718/2818 VRB04KT CAVOK
                      BECMG 2804/2806 18010KT
                      TEMPO 2804/2809 5000 -SHRA SCT010 SCT040CB
                       TEMPO 2809/2814 VRB15G25KT 5000 TSRA SCT045CB=
201905272300 TAF LRTR 272300Z 2800/2824 11008KT 9999 SCT045
                      TEMPO 2804/2809 5000 -SHRA SCT010 SCT040CB
                       TEMPO 2809/2815 18012KT -TSRA SCT045CB=
201905280500 TAF LRTR 280500Z 2806/2906 09006KT 9999 SCT045
                      TEMPO 2806/2809 5000 SHRA SCT010 SCT040CB
                       TEMPO 2809/2815 18012KT 5000 TSRA SCT045CB=
201905281100 TAF LRTR 281100Z 2812/2912 17008KT 9999 SCT045
                      TEMPO 2812/2817 VRB15G25KT 5000 TSRA SCT045CB
                       TEMPO 2822/2904 3000 BR BKN005
                      TEMPO 2909/2912 SCT040CB=
201905281700 TAF LRTR 281700Z 2818/2918 VRB04KT CAVOK
                      PROB40 TEMPO 2818/2820 -TSRA SCT045CB
                      TEMPO 2823/2905 3000 BR BKN005
                      TEMPO 2909/2912 SCT040CB
                      TEMPO 2912/2918 VRB15KT 3000 TSRA BKN030CB=
201905282300 TAF LRTR 282300Z 2900/2924 VRB04KT CAVOK
                      TEMPO 2900/2902 SCT045CB
                      TEMPO 2902/2905 3000 BR BKN005
                      TEMPO 2909/2912 SCT040CB
                      TEMPO 2912/2918 VRB15KT 3000 TSRA BKN030CB
                       BECMG 2921/2923 27010KT=
201905290500 TAF LRTR 290500Z 2906/3006 14006KT CAVOK
                      BECMG 2909/2911 SCT040CB
                      TEMPO 2912/2917 VRB20G30KT 3000 TSRA BKN010
                       BKN030CB
                      PROB40 TEMPO 2912/2916 1500 +TSRAGR
                      TEMPO 2921/3003 3000 BR BKN005=
201905290630 TAF COR LRTR 290630Z 2906/3006 14006KT CAVOK
                      BECMG 2909/2911 SCT040CB
                      TEMPO 2912/2917 VRB20G30KT 3000 TSRA BKN010
                       BKN030CB
                      PROB40 TEMPO 2912/2916 1500 +TSRAGR
                      BECMG 2918/2920 SCT040
                      TEMPO 2921/3003 3000 BR BKN005=
201905291100 TAF LRTR 291100Z 2912/3012 VRB04KT 9999 SCT035CB
                      TEMPO 2912/2917 VRB20G30KT 3000 TSRA BKN010
                       BKN030CB
                      PROB40 TEMPO 2912/2916 1500 +TSRAGR
                      BECMG 2918/2920 5000 BR SCT015 SCT040
                      PROB40 TEMPO 2921/3004 3000 BR BKN005
                      BECMG 3005/3007 23010KT 9999 NSW=
201905291700 TAF LRTR 291700Z 2918/3018 VRB04KT 9999 BKN035
                      TEMPO 2918/2924 5000 SHRA SCT040CB
                      TEMPO 3000/3004 3000 BR BKN010 BKN030
                      BECMG 3005/3007 23010KT
                      PROB40 TEMPO 3007/3010 5000 SHRA SCT040CB=
201905292300 TAF LRTR 292300Z 3000/3024 VRB04KT CAVOK
                      TEMPO 3000/3004 3000 BR BKN010
                      BECMG 3005/3007 23010KT
                      PROB40 TEMPO 3007/3010 5000 SHRA SCT040CB=
201905300500 TAF LRTR 300500Z 3006/3106 28006KT 9999 BKN010
                      TEMPO 3006/3007 5000 BR
                      BECMG 3007/3009 SCT015 SCT030
                      PROB30 TEMPO 3014/3018 5000 SHRA SCT035CB
                       TEMPO 3100/3106 3000 BR BKN007=
201905301100 TAF LRTR 301100Z 3012/3112 28006KT 9999 SCT035
                      PROB30 TEMPO 3013/3017 5000 SHRA SCT035CB
                       BECMG 3023/3101 5000 BR
                      TEMPO 3101/3105 1500 BR BKN005
                      BECMG 3105/3107 9999 NSW
                      TEMPO 3109/3112 34010KT 5000 TSRA SCT030CB=
201905301700 TAF LRTR 301700Z 3018/3118 28008KT 9999 SCT030
                      BECMG 3022/3024 5000 BR
                      TEMPO 3100/3105 1500 BR BKN005
                      BECMG 3105/3107 9999 NSW
                      TEMPO 3109/3117 VRB15G25KT 5000 TSRA SCT015
                       SCT030CB=
201905302300 TAF AMD LRTR 310330Z 3103/3124 28008KT 0600 FG BKN002
                      BECMG 3105/3107 3000 BR BKN005
                      BECMG 3107/3108 9999 NSW SCT015
                      TEMPO 3109/3117 VRB15G25KT 5000 TSRA SCT015
                       SCT030CB
                      BECMG 3120/3122 3000 BR
                      TEMPO 3122/3124 1500 BR BKN005=
201905310330 TAF AMD LRTR 310330Z 3103/3124 28008KT 0600 FG BKN002
                      BECMG 3105/3107 3000 BR BKN005
                      BECMG 3107/3108 9999 NSW SCT015
                      TEMPO 3109/3117 VRB15G25KT 5000 TSRA SCT015
                       SCT030CB
                      BECMG 3120/3122 3000 BR
                      TEMPO 3122/3124 1500 BR BKN005=
201905310500 TAF LRTR 310500Z 3106/0106 28008KT 1500 BR BKN002
                      BECMG 3106/3107 3000 BR BKN005
                      BECMG 3107/3109 9999 NSW SCT015 SCT030
                      PROB30 TEMPO 3109/3112 5000 SHRA SCT015 SCT030CB
                       PROB40
                      TEMPO 3112/3116 01010KT 5000 -TSRA SCT030CB
                       BECMG 0100/0102 5000 -RA BKN005 BKN035
                      TEMPO 0100/0103 3000 SHRA BKN002 BKN030CB
                       OVC035
                      BECMG 0103/0105 5000 -RA BKN005 BKN035=
201905310535 TAF COR LRTR 310535Z 3106/0106 28008KT 1500 BR BKN002
                      BECMG 3106/3107 3000 BKN005
                      BECMG 3107/3109 9999 NSW SCT015 SCT030
                      PROB30 TEMPO 3109/3112 5000 SHRA SCT015 SCT030CB
                       PROB40
                      TEMPO 3112/3116 01010KT 5000 -TSRA SCT030CB
                       TEMPO 0100/0103 3000 SHRA BKN002 BKN030CB
                       OVC035
                      BECMG 0103/0105 5000 -RA BKN005 BKN035=
201905311100 TAF LRTR 311100Z 3112/0112 VRB04KT 9999 BKN025
                      PROB40 TEMPO 3112/3116 01010KT 5000 -TSRA
                       BKN015 SCT030CB
                      TEMPO 0100/0103 3000 SHRA BKN005 BKN030CB
                       OVC035
                      BECMG 0103/0105 5000 -RA BKN005 BKN035
                      BECMG 0108/0110 9999 NSW BKN025=
201905311700 TAF LRTR 311700Z 3118/0118 VRB04KT 9999 SCT020 FEW050CB
                      TEMPO 3118/3121 5000 SHRA BKN015 SCT030CB
                       BECMG 3121/3123 BKN015 SCT030
                      TEMPO 0102/0107 5000 -RA BR BKN005 BKN015
                       BECMG 0108/0110 9999 NSW SCT015 BKN025=
201905312300 TAF AMD LRTR 010418Z 0104/0124 VRB04KT 9999 BKN010 BKN040
                      TEMPO 0104/0105 5000 BR OVC005
                      TEMPO 0105/0109 5000 -SHRA BKN005 SCT030CB
                       OVC035
                      BECMG 0109/0111 BKN045
                      BECMG 0119/0121 5000 BR
                      BECMG 0122/0124 1500 BR BKN005=
