201906010000 METAR LRTR 010000Z 06001KT 8000 FEW045 15/15 Q1017 R11/29//95
                        NOSIG=
201906010030 METAR LRTR 010030Z 08003KT 3000 BR NSC 15/15 Q1017 R11/29//95
                        BECMG 1500 BR=
201906010100 METAR LRTR 010100Z 00000KT 1500 BR SCT005 15/15 Q1017 R11/29//95
                        TEMPO 0800 FG=
201906010130 METAR LRTR 010130Z 00000KT 1200 R11/1300U R29/P2000 BR SCT005
                        15/15 Q1016 R11/29//95 TEMPO 0800
                        FG=
201906010200 METAR LRTR 010200Z 04001KT 0800 R11/1500U R29/P2000 FG FEW010
                        15/15 Q1016 R11/29//95 TEMPO 0600
                        FG=
201906010230 METAR LRTR 010230Z 02001KT 0800 R11/1200U R29/P2000 FG SCT009
                        15/15 Q1016 R11/29//95 TEMPO 0600
                        FG BKN005=
201906010300 METAR LRTR 010300Z 05002KT 3000 BR BKN005 15/15 Q1016 R11/29//95
                        NOSIG=
201906010330 METAR LRTR 010330Z 00000KT 4000 -DZ BR OVC005 16/16 Q1016
                        R11/29//95 BECMG 5000=
201906010400 METAR LRTR 010400Z 02005KT 7000 OVC005 15/15 Q1016 R11/29//95
                        NOSIG=
201906010430 METAR LRTR 010430Z 36005KT 8000 -DZ BKN004 OVC008 16/16 Q1016
                        R11/29//95 NOSIG=
201906010500 METAR COR LRTR 010500Z 02005KT 5000 -DZRA BR BKN005 OVC042
                        16/15 Q1016 R11/29//95 TEMPO 3000
                        RA BR=
201906010530 METAR LRTR 010530Z 02001KT 5000 -RA BR FEW003 BKN006 OVC041
                        16/16 Q1016 RERA R11/29//95 NOSIG=
201906010600 METAR LRTR 010600Z 02006KT 8000 -RA FEW003 BKN006 OVC040
                        16/16 Q1016 R11/29//95 NOSIG=
201906010630 METAR LRTR 010630Z 03005KT 6000 -RA FEW004 SCT007 OVC040
                        16/16 Q1016 R11/29//95 TEMPO 3000
                        RA BR=
201906010700 METAR LRTR 010700Z 04005KT 6000 -RA FEW004 BKN007 OVC035
                        16/16 Q1016 R11/29//95 TEMPO 3000
                        RA BR=
201906010730 METAR LRTR 010730Z 05003KT 020V080 8000 -RA SCT004 SCT008
                        OVC042 17/17 Q1016 R11/29//95 NOSIG=
201906010800 METAR LRTR 010800Z VRB02KT 5000 RA BR SCT005 SCT009 OVC037
                        17/17 Q1017 R11/29//95 NOSIG=
201906010830 METAR COR LRTR 010830Z 01004KT 9999 -RA FEW004 SCT010 OVC037
                        17/17 Q1017 NOSIG=
201906010900 METAR LRTR 010900Z 01007KT 9999 -SHRA FEW005 SCT015 FEW040CB
                        17/17 Q1017 TEMPO 5000 SHRA=
201906010930 METAR LRTR 010930Z 11005KT 070V130 6000 SHRA FEW008 SCT016
                        SCT035CB 17/17 Q1017 NOSIG=
201906011000 METAR LRTR 011000Z 11007KT 9999 -RA FEW005 SCT008 FEW035CB
                        18/18 Q1017 RESHRA R11/29//95 NOSIG=
201906011030 METAR LRTR 011030Z 11006KT 080V140 9999 -RA FEW005 BKN009
                        FEW040CB 18/18 Q1017 R11/29//95 NOSIG=
201906011100 METAR LRTR 011100Z 10007KT 9999 SCT009 SCT025 18/18 Q1017
                        R11/29//95 NOSIG=
201906011130 METAR LRTR 011130Z 10006KT 9999 -RA FEW010 SCT030 18/17 Q1017
                        R11/29//95 NOSIG=
201906011200 METAR LRTR 011200Z 10004KT 9999 -RA FEW009 BKN033 18/18 Q1017
                        R11/29//95 TEMPO 5000 RA=
201906011230 METAR LRTR 011230Z 12004KT 9999 -RA FEW010 SCT033 18/17 Q1017
                        R11/29//95 NOSIG=
201906011300 METAR LRTR 011300Z 10004KT 9999 -RA FEW010 SCT034 18/17 Q1017
                        R11/29//95 NOSIG=
201906011330 METAR LRTR 011330Z 08003KT 9999 -RA FEW011 SCT035 18/16 Q1017
                        R11/29//95 NOSIG=
201906011400 METAR LRTR 011400Z VRB02KT 9999 -RA FEW011 SCT035 18/16 Q1017
                        R11/29//95 NOSIG=
201906011430 METAR LRTR 011430Z VRB02KT 9999 FEW012 SCT040 19/16 Q1017
                        R11/29//95 NOSIG=
201906011500 METAR LRTR 011500Z 17003KT 140V220 9999 FEW012 SCT040 19/17
                        Q1016 R11/29//95 NOSIG=
201906011530 METAR LRTR 011530Z 00000KT 9999 FEW012 SCT048 20/17 Q1016
                        R11/29//95 NOSIG=
201906011600 METAR COR LRTR 011600Z VRB02KT 9999 FEW017 FEW050CB 20/17
                        Q1016 R11/29//95 NOSIG=
201906011630 METAR LRTR 011630Z 22005KT 180V240 9999 FEW017 FEW050CB 20/17
                        Q1016 R11/29//95=
201906011700 METAR LRTR 011700Z VRB02KT 9999 FEW018 FEW055CB 20/17 Q1016
                        R11/29//95=
201906011730 METAR LRTR 011730Z 25001KT 9999 FEW020 FEW055CB 19/17 Q1016
                        R11/29//95=
201906011800 METAR LRTR 011800Z 34002KT 9999 FEW023 FEW055CB 18/18 Q1016
                        R11/19//95=
201906011830 METAR LRTR 011830Z 00000KT 9999 FEW025 17/17 Q1016 R11/19//95=
201906011900 METAR LRTR 011900Z 27001KT 9999 FEW017 17/17 Q1017 R11/19//95=
201906011930 METAR LRTR 011930Z 00000KT 9999 FEW017 17/16 Q1017 R11/19//95=
201906012000 METAR LRTR 012000Z 24003KT 9999 FEW020 16/16 Q1017 R11/19//95=
201906012030 METAR LRTR 012030Z 19001KT CAVOK 16/16 Q1017 R11/19//95=
201906012100 METAR LRTR 012100Z 00000KT CAVOK 15/15 Q1017 R11/19//95=
201906012130 METAR LRTR 012130Z 17001KT CAVOK 15/15 Q1017 R11/19//95=
201906012200 METAR LRTR 012200Z 17003KT CAVOK 15/15 Q1017 R11/19//95=
201906012230 METAR LRTR 012230Z VRB01KT 8000 FEW002 15/15 Q1017 R11/19//95=
201906012300 METAR LRTR 012300Z 00000KT 5000 1200W R11/P2000 R29/P2000
                        PRFG BR SCT002 15/15 Q1017 R11/19//95=
201906012330 METAR LRTR 012330Z 00000KT 0800 R11/1100U R29/P2000 FG BKN002
                        15/15 Q1017 R11/19//95=
201906020000 METAR LRTR 020000Z 00000KT 0800 R11/1100D R29/P2000 FG BKN002
                        15/15 Q1017 R11/19//95=
201906020030 METAR LRTR 020030Z 15002KT 0800 R11/P2000 R29/P2000 BCFG
                        BKN001 15/15 Q1017 R11/19//95=
201906020100 METAR LRTR 020100Z NIL=
201906020130 METAR LRTR 020130Z VRB02KT 1000 R11/1200D R29/1200VP2000D
                        FG BKN002 15/15 Q1017 R11/19//95=
201906020200 METAR LRTR 020200Z 09001KT 0400 R11/0750N R29/0800D FG BKN002
                        15/15 Q1017 R11/19//95=
201906020230 METAR LRTR 020230Z 00000KT 0350 R11/0650N R29/0800N FG BKN001
                        15/15 Q1017 R11/19//95=
201906020300 METAR LRTR 020300Z 13003KT 0450 R11/0800N R29/1400VP2000D
                        FG BKN002 15/15 Q1017 R11/19//95=
201906020330 METAR COR LRTR 020330Z 16004KT 0900 R11/1100N R29/0750VP2000D
                        FG BKN002 15/15 Q1017 R11/19//95=
201906020400 METAR LRTR 020400Z 14003KT 0300 R11/0550N R29/0650U FG BKN002
                        15/15 Q1017 R11/19//95=
201906020430 METAR LRTR 020430Z 14002KT 0400 R11/0650N R29/01300U FG BKN002
                        15/15 Q1017 R11/19//95=
201906020500 METAR LRTR 020500Z 13003KT 1800 BR BKN002 16/16 Q1018 R11/19//95=
201906020530 METAR LRTR 020530Z 15003KT 3000 -RA BR BKN002 OVC025 16/16
                        Q1018 R11/19//95=
201906020600 METAR LRTR 020600Z VRB01KT 5000 BR BKN002 OVC025 16/16 Q1018
                        R11/19//95=
201906020630 METAR LRTR 020630Z VRB01KT 6000 SCT003 BKN005 BKN025 16/16
                        Q1018 R11/19//95=
201906020700 METAR LRTR 020700Z 15003KT 120V210 7000 SCT005 BKN009 17/17
                        Q1018 R11/19//95=
201906020730 METAR LRTR 020730Z 16003KT 9999 SCT007 BKN013 BKN041 18/18
                        Q1018 R11/19//95=
201906020800 METAR LRTR 020800Z VRB02KT 9999 FEW008 BKN013 BKN041 19/18
                        Q1018 R11/19//95=
201906020830 METAR LRTR 020830Z 24005KT 200V270 9999 FEW010 SCT012 BKN042
                        19/18 Q1018 R11/19//95=
201906020900 METAR LRTR 020900Z 27003KT 210V340 9999 SCT013 BKN040 20/18
                        Q1018 R11/19//95=
201906020930 METAR LRTR 020930Z 00000KT 9999 SCT016 BKN040 21/16 Q1018
                        R11/19//95=
201906021000 METAR COR LRTR 021000Z 20004KT 140V250 9999 SCT019 SCT033
                        21/18 Q1018 R11/CLRD//=
201906021030 METAR LRTR 021030Z 18004KT 110V240 9999 SCT022 21/17 Q1018=
201906021100 METAR LRTR 021100Z 24004KT 190V280 9999 SCT025 22/17 Q1018=
201906021130 METAR LRTR 021130Z VRB03KT 9999 SCT030 22/18 Q1018=
201906021200 METAR LRTR 021200Z VRB02KT 9999 FEW031 23/16 Q1017=
201906021230 METAR LRTR 021230Z 31004KT 260V350 9999 FEW030 23/15 Q1017=
201906021300 METAR LRTR 021300Z 30004KT 220V020 9999 FEW031 24/17 Q1016=
201906021330 METAR LRTR 021330Z 04002KT 9999 FEW033 24/17 Q1016=
201906021400 METAR LRTR 021400Z VRB01KT 9999 FEW035 24/16 Q1016=
201906021430 METAR LRTR 021430Z 03003KT 350V090 9999 FEW036 24/15 Q1016=
201906021500 METAR LRTR 021500Z 35004KT 290V040 9999 FEW036 24/18 Q1015=
201906021530 METAR LRTR 021530Z 32004KT 290V010 9999 FEW036 24/17 Q1016=
201906021600 METAR LRTR 021600Z 33005KT 290V360 9999 FEW036 FEW050CB 24/17
                        Q1015=
201906021630 METAR LRTR 021630Z 02004KT 9999 FEW038 FEW050CB 23/17 Q1015
                        NOSIG=
201906021700 METAR LRTR 021700Z 32003KT 9999 FEW037 FEW050CB 23/17 Q1015
                        TEMPO TS=
201906021730 METAR LRTR 021730Z 36003KT 9999 FEW040 FEW050CB 23/18 Q1015
                        NOSIG=
201906021800 METAR LRTR 021800Z 34004KT 9999 FEW050CB 21/19 Q1015 NOSIG=
201906021830 METAR LRTR 021830Z 33004KT 9999 FEW042 20/19 Q1016 NOSIG=
201906021900 METAR LRTR 021900Z 32004KT CAVOK 18/18 Q1016 NOSIG=
201906021930 METAR LRTR 021930Z 32004KT CAVOK 18/18 Q1016 NOSIG=
201906022000 METAR LRTR 022000Z 31005KT CAVOK 17/17 Q1016 NOSIG=
201906022030 METAR LRTR 022030Z 32005KT CAVOK 17/17 Q1016 NOSIG=
201906022100 METAR LRTR 022100Z 32005KT CAVOK 17/17 Q1016 NOSIG=
201906022130 METAR LRTR 022130Z 35003KT CAVOK 16/16 Q1015 NOSIG=
201906022200 METAR LRTR 022200Z 00000KT CAVOK 17/17 Q1015 NOSIG=
201906022230 METAR LRTR 022230Z 33004KT CAVOK 17/17 Q1015 NOSIG=
201906022300 METAR LRTR 022300Z 31007KT CAVOK 16/16 Q1015 NOSIG=
201906022330 METAR LRTR 022330Z 33006KT CAVOK 15/15 Q1014 NOSIG=
201906030000 METAR LRTR 030000Z 34005KT CAVOK 16/16 Q1014 NOSIG=
201906030030 METAR LRTR 030030Z 35006KT CAVOK 16/16 Q1014 NOSIG=
201906030100 METAR LRTR 030100Z 08007KT CAVOK 16/16 Q1014 NOSIG=
201906030130 METAR LRTR 030130Z 06006KT CAVOK 16/16 Q1014 NOSIG=
201906030200 METAR LRTR 030200Z 04004KT 360V060 CAVOK 15/15 Q1013 NOSIG=
201906030230 METAR LRTR 030230Z 33006KT CAVOK 16/16 Q1013 NOSIG=
201906030300 METAR LRTR 030300Z 02006KT 010V110 9999 FEW015 15/15 Q1013
                        NOSIG=
201906030330 METAR LRTR 030330Z 01007KT 9999 FEW015 15/15 Q1013 NOSIG=
201906030400 METAR LRTR 030400Z 01004KT 9999 FEW015 16/16 Q1013 NOSIG=
201906030430 METAR LRTR 030430Z 02005KT 9999 MIFG NSC 16/16 Q1013 NOSIG=
201906030500 METAR LRTR 030500Z 02003KT CAVOK 17/17 Q1013 NOSIG=
201906030530 METAR LRTR 030530Z 36003KT CAVOK 18/18 Q1013 NOSIG=
201906030600 METAR LRTR 030600Z 04007KT CAVOK 20/19 Q1013 NOSIG=
201906030630 METAR LRTR 030630Z 07007KT CAVOK 21/19 Q1013 NOSIG=
201906030700 METAR LRTR 030700Z 07006KT CAVOK 21/18 Q1013 NOSIG=
201906030730 METAR LRTR 030730Z 09008KT CAVOK 21/17 Q1013 NOSIG=
201906030800 METAR LRTR 030800Z 10006KT CAVOK 21/18 Q1014 NOSIG=
201906030830 METAR LRTR 030830Z 11007KT 080V140 9999 FEW018 22/18 Q1014
                        NOSIG=
201906030900 METAR LRTR 030900Z 13009KT 9999 FEW020 22/18 Q1014 NOSIG=
201906030930 METAR LRTR 030930Z 13008KT 9999 FEW020 22/18 Q1014 NOSIG=
201906031000 METAR LRTR 031000Z 14008KT 9999 FEW022 21/18 Q1014 NOSIG=
201906031030 METAR LRTR 031030Z 14008KT 9999 FEW025 21/18 Q1015 NOSIG=
201906031100 METAR LRTR 031100Z 14007KT 9999 FEW025 FEW035CB 21/17 Q1015
                        TEMPO TSRA=
201906031130 METAR LRTR 031130Z 11007KT 9999 -SHRA FEW020 FEW035CB 21/18
                        Q1014 TEMPO TS=
201906031200 METAR LRTR 031200Z 12007KT 9999 FEW020 FEW035CB 22/18 Q1014
                        NOSIG=
201906031230 METAR LRTR 031230Z 10004KT 050V140 9999 FEW020 FEW050CB 21/18
                        Q1014 NOSIG=
201906031300 METAR LRTR 031300Z VRB03KT 9999 FEW023 FEW050CB 22/18 Q1014
                        NOSIG=
201906031330 METAR LRTR 031330Z VRB01KT 9999 FEW023 FEW050CB 22/18 Q1013
                        NOSIG=
201906031400 METAR LRTR 031400Z 10003KT 060V190 9999 FEW024 FEW050CB 23/18
                        Q1013 NOSIG=
201906031430 METAR LRTR 031430Z 08006KT 9999 FEW025 FEW050CB 22/18 Q1013
                        NOSIG=
201906031500 METAR LRTR 031500Z 08006KT 9999 FEW030 FEW050CB 23/18 Q1013
                        NOSIG=
201906031530 METAR LRTR 031530Z 09004KT 9999 FEW035 FEW050CB 23/18 Q1013
                        NOSIG=
201906031600 METAR LRTR 031600Z 05005KT 9999 FEW035 FEW050CB 22/19 Q1013
                        NOSIG=
201906031630 METAR LRTR 031630Z 04003KT 010V070 9999 FEW030 FEW050CB 22/18
                        Q1012 NOSIG=
201906031700 METAR LRTR 031700Z 00000KT 9999 FEW030 FEW050CB 22/19 Q1012=
201906031730 METAR LRTR 031730Z 34003KT 9999 FEW033 FEW050CB 20/19 Q1012=
201906031800 METAR LRTR 031800Z 02004KT 9999 FEW033 FEW050CB 19/19 Q1013=
201906031830 METAR LRTR 031830Z 02004KT 320V030 9999 FEW033 18/18 Q1013=
201906031900 METAR LRTR 031900Z 02002KT 9999 FEW033 18/18 Q1013=
201906031930 METAR LRTR 031930Z 01005KT 9999 FEW035 18/18 Q1013=
201906032000 METAR LRTR 032000Z VRB01KT 9999 FEW035 17/17 Q1013=
201906032030 METAR LRTR 032030Z 34002KT CAVOK 17/17 Q1013=
201906032100 METAR LRTR 032100Z 35005KT CAVOK 16/16 Q1013=
201906032130 METAR LRTR 032130Z 01006KT CAVOK 17/17 Q1013=
201906032200 METAR LRTR 032200Z 36005KT CAVOK 16/16 Q1013=
201906032230 METAR LRTR 032230Z 02006KT CAVOK 17/17 Q1013=
201906032300 METAR LRTR 032300Z 02005KT CAVOK 16/16 Q1013=
201906032330 METAR LRTR 032330Z 03004KT 010V070 CAVOK 16/16 Q1012=
201906040000 METAR LRTR 040000Z 02005KT CAVOK 17/17 Q1012=
201906040030 METAR LRTR 040030Z VRB02KT CAVOK 16/16 Q1012=
201906040100 METAR LRTR 040100Z 23001KT CAVOK 15/15 Q1012=
201906040130 METAR LRTR 040130Z 11004KT 8000 NSC 15/15 Q1012=
201906040200 METAR LRTR 040200Z 09004KT 9000 NSC 14/14 Q1012=
201906040230 METAR LRTR 040230Z VRB01KT 8000 FEW037 14/14 Q1012=
201906040300 METAR LRTR 040300Z 00000KT 9999 FEW037 15/15 Q1012=
201906040330 METAR LRTR 040330Z 07003KT 9999 FEW037 15/15 Q1012=
201906040400 METAR LRTR 040400Z 09003KT 9999 FEW037 17/17 Q1012=
201906040430 METAR LRTR 040430Z 06003KT 010V090 9999 FEW038 18/17 Q1012=
201906040500 METAR LRTR 040500Z VRB02KT 9999 FEW037 18/18 Q1012=
201906040530 METAR LRTR 040530Z 10003KT 9999 FEW036 18/18 Q1012=
201906040600 METAR LRTR 040600Z 10008KT 9999 FEW038 19/18 Q1012=
201906040630 METAR LRTR 040630Z 11007KT 9999 FEW040 19/18 Q1012=
201906040700 METAR LRTR 040700Z 13004KT 9999 FEW040 20/18 Q1012=
201906040730 METAR LRTR 040730Z VRB01KT 9999 FEW042 21/18 Q1012=
201906040800 METAR LRTR 040800Z 14006KT 9999 FEW037 21/18 Q1012=
201906040830 METAR LRTR 040830Z 16006KT 9999 FEW015 SCT030 21/18 Q1013=
201906040900 METAR LRTR 040900Z 18007KT 150V210 9999 FEW017 BKN032 FEW050CB
                        20/19 Q1013=
201906040930 METAR LRTR 040930Z 20008KT 9999 -SHRA FEW016 SCT036 FEW050CB
                        21/20 Q1013 RESHRA R11/190095=
201906041000 METAR LRTR 041000Z 17007KT 140V200 9999 VCTS FEW015 SCT025
                        FEW050CB 22/19 Q1013 R11/190095=
201906041030 METAR LRTR 041030Z 19009KT 160V220 9999 SCT024 FEW050CB 23/19
                        Q1012 R11/190095=
201906041100 METAR LRTR 041100Z 18007KT 9999 SCT025 FEW050CB 23/18 Q1012
                        R11/CLRD//=
201906041130 METAR LRTR 041130Z 23007KT 200V260 9999 VCTS FEW027 FEW050CB
                        24/18 Q1012=
201906041200 METAR LRTR 041200Z 25005KT 180V300 9999 VCTS SCT028 FEW050CB
                        25/17 Q1012=
201906041230 METAR LRTR 041230Z 22003KT 9999 SCT030 FEW050CB 24/16 Q1011=
201906041300 METAR LRTR 041300Z 25005KT 220V320 9999 VCTS FEW035 SCT050CB
                        24/15 Q1011=
201906041330 METAR LRTR 041330Z 26004KT 220V290 9999 VCTS VCSH SCT040
                        SCT050CB 23/16 Q1011=
201906041400 METAR LRTR 041400Z 19004KT 160V230 9999 TS VCSH SCT042 SCT045CB
                        23/16 Q1012=
201906041430 METAR LRTR 041430Z 16008KT 9999 TS VCSH SCT040 SCT045CB 22/18
                        Q1012=
201906041500 METAR LRTR 041500Z 10007KT 060V140 9999 TS VCSH SCT042 SCT045CB
                        20/16 Q1012=
201906041530 METAR LRTR 041530Z 06009KT 9999 -TSRA SCT040 SCT045CB 17/17
                        Q1012 R11/190095=
201906041600 METAR LRTR 041600Z VRB02KT 9999 SHRA SCT040CB 17/17 Q1011
                        RETS R11/290095=
201906041630 METAR LRTR 041630Z 12003KT 9999 FEW045CB 17/17 Q1011 RESHRA
                        R11/290095 NOSIG=
201906041700 METAR LRTR 041700Z 13005KT 9999 FEW050CB 18/18 Q1011 R11/290095
                        NOSIG=
201906041730 METAR LRTR 041730Z 14004KT 9999 FEW050CB 18/18 Q1011 R11/290095
                        NOSIG=
201906041800 METAR LRTR 041800Z 13004KT 9999 FEW050CB 17/17 Q1011 R11/290095
                        NOSIG=
201906041830 METAR LRTR 041830Z 10005KT 9999 FEW050CB 17/17 Q1011 R11/290095
                        NOSIG=
201906041900 METAR LRTR 041900Z 14006KT 9999 FEW055CB 16/16 Q1011 R11/290095
                        NOSIG=
201906041930 METAR LRTR 041930Z 15004KT CAVOK 16/16 Q1012 R11/290095 NOSIG=
201906042000 METAR LRTR 042000Z 13001KT 7000 NSC 15/15 Q1012 R11/290095
                        BECMG 5000 BR=
201906042030 METAR LRTR 042030Z 12003KT 5000 MIFG BR NSC 15/15 Q1012 R11/290095
                        TEMPO 3000 MIFG BR=
201906042100 METAR LRTR 042100Z 12006KT 5000 MIFG BR NSC 15/15 Q1012 R11/290095
                        NOSIG=
201906042130 METAR LRTR 042130Z 11005KT 8000 NSC 15/15 Q1011 R11/290095
                        NOSIG=
201906042200 METAR LRTR 042200Z 08005KT CAVOK 15/15 Q1012 R11/290095 NOSIG=
201906042230 METAR LRTR 042230Z 13003KT CAVOK 15/15 Q1011 R11/290095 NOSIG=
201906042300 METAR LRTR 042300Z 00000KT CAVOK 15/15 Q1012 R11/290095 NOSIG=
201906042330 METAR LRTR 042330Z VRB01KT CAVOK 15/15 Q1011 R11/290095 NOSIG=
201906050000 METAR LRTR 050000Z 10005KT CAVOK 15/15 Q1011 R11/290095 NOSIG=
201906050030 METAR LRTR 050030Z 10006KT CAVOK 15/15 Q1011 R11/290095 NOSIG=
201906050100 METAR LRTR 050100Z 13005KT CAVOK 15/15 Q1011 R11/290095 NOSIG=
201906050130 METAR LRTR 050130Z 11005KT CAVOK 15/15 Q1011 R11/290095 NOSIG=
201906050200 METAR LRTR 050200Z 11006KT 8000 NSC 15/15 Q1011 R11/290095
                        TEMPO 5000 BR=
201906050230 METAR LRTR 050230Z 12007KT 9999 FEW042CB 15/15 Q1011 R11/290095
                        TEMPO 5000 TSRA=
201906050300 METAR LRTR 050300Z 12007KT 9999 -SHRA FEW042CB 15/15 Q1011
                        R11/190095 TEMPO 5000 TSRA=
201906050330 METAR LRTR 050330Z 10006KT 8000 SHRA SCT045CB 15/15 Q1011
                        R11/190095 NOSIG=
201906050400 METAR LRTR 050400Z 09004KT 6000 SHRA SCT045CB 15/15 Q1012
                        R11/190095 TEMPO 5000 SHRA=
201906050430 METAR LRTR 050430Z VRB02KT 5000 SHRA FEW026 SCT045CB 15/15
                        Q1012 R11/290095 TEMPO 3000 +SHRA=
201906050500 METAR LRTR 050500Z 17004KT 5000 SHRA FEW015 SCT045CB 15/15
                        Q1011 RESHRA R11/290095 NOSIG=
201906050530 METAR LRTR 050530Z 11005KT 3000 -SHRA BR SCT002 SCT045CB
                        15/15 Q1011 RESHRA R11/290095 NOSIG=
201906050600 METAR LRTR 050600Z 14007KT 5000 -SHRA BR FEW003 SCT045CB
                        16/16 Q1011 R11/290095 NOSIG=
201906050630 METAR LRTR 050630Z 15008KT 8000 -RA FEW003 SCT030 FEW045CB
                        16/16 Q1011 R11/290095 NOSIG=
201906050700 METAR LRTR 050700Z 15008KT 9999 -RA SCT004 SCT030 17/17 Q1012
                        R11/290095 NOSIG=
201906050730 METAR LRTR 050730Z 17010KT 9999 BKN007 BKN025 17/17 Q1012
                        R11/290095 NOSIG=
201906050800 METAR LRTR 050800Z 16008KT 9999 BKN008 BKN025 18/18 Q1012
                        R11/290095 NOSIG=
201906050830 METAR LRTR 050830Z 15008KT 9999 BKN011 BKN025 18/18 Q1012
                        R11/290095 NOSIG=
201906050900 METAR LRTR 050900Z 16009KT 9999 BKN010 18/18 Q1012 R11/290095
                        NOSIG=
201906050930 METAR COR LRTR 050930Z 17010KT 9999 FEW008 BKN031 FEW040CB
                        18/18 Q1012 R11/290095 NOSIG=
201906051000 METAR LRTR 051000Z 17008KT 9999 FEW007 SCT040 FEW045CB 18/18
                        Q1012 R11/290095 NOSIG=
201906051030 METAR LRTR 051030Z 16007KT 9999 FEW010 SCT042 FEW045CB 19/18
                        Q1012 R11/290095 NOSIG=
201906051100 METAR LRTR 051100Z 15007KT 9999 FEW010 SCT045 FEW050CB 19/18
                        Q1012 R11/290095 NOSIG=
201906051130 METAR LRTR 051130Z 17008KT 9999 SCT015 SCT045 FEW050CB 20/18
                        Q1012 R11/CLRD// NOSIG=
201906051200 METAR LRTR 051200Z 15009KT 9999 FEW018 SCT048 FEW050CB 20/17
                        Q1011 NOSIG=
201906051230 METAR LRTR 051230Z 13009KT 9999 FEW018 SCT025 FEW050CB 19/18
                        Q1011 NOSIG=
201906051300 METAR LRTR 051300Z 19008KT 9999 FEW023 FEW030TCU 21/17 Q1011
                        NOSIG=
201906051330 METAR LRTR 051330Z 18006KT 140V210 9999 FEW025 FEW030TCU
                        20/16 Q1011 NOSIG=
201906051400 METAR LRTR 051400Z 20007KT 170V230 9999 FEW025 FEW040CB 22/17
                        Q1011 NOSIG=
201906051430 METAR LRTR 051430Z 14006KT 090V160 9999 FEW030 FEW040CB 21/16
                        Q1011 NOSIG=
201906051500 METAR LRTR 051500Z 13006KT 9999 FEW030 FEW050CB 20/17 Q1011
                        NOSIG=
201906051530 METAR LRTR 051530Z 12004KT 080V140 9999 FEW030 FEW050CB 20/17
                        Q1011 NOSIG=
201906051600 METAR LRTR 051600Z 13005KT 9999 VCSH FEW030 FEW050CB 21/16
                        Q1011 NOSIG=
201906051630 METAR LRTR 051630Z 17007KT 9999 VCSH SCT031 SCT050CB 20/17
                        Q1011=
201906051700 METAR LRTR 051700Z 15007KT 9999 -SHRA FEW035 SCT050CB 19/17
                        Q1011=
201906051730 METAR LRTR 051730Z 15005KT 9999 FEW040 FEW050CB 19/17 Q1011=
201906051800 METAR LRTR 051800Z 13005KT 9999 FEW050CB 18/18 Q1011=
201906051830 METAR LRTR 051830Z 15002KT CAVOK 18/17 Q1011=
201906051900 METAR COR LRTR 051900Z 15003KT 9999 SCT045 FEW050CB 18/17
                        Q1012=
201906051930 METAR LRTR 051930Z 14004KT 9999 FEW047 FEW050CB 17/17 Q1012=
201906052000 METAR LRTR 052000Z 14004KT 9999 FEW040 16/16 Q1012=
201906052030 METAR LRTR 052030Z 12005KT 9999 FEW040 16/16 Q1012=
201906052100 METAR LRTR 052100Z 10005KT 9999 SCT035 16/16 Q1012=
201906052130 METAR LRTR 052130Z 11007KT 9999 SCT038 16/16 Q1012=
201906052200 METAR LRTR 052200Z 11007KT 9999 SCT039 16/16 Q1012=
201906052230 METAR LRTR 052230Z 10007KT 9999 SCT036 FEW050CB 16/16 Q1012=
201906052300 METAR LRTR 052300Z 10005KT 080V140 6000 SHRA SCT013 BKN035
                        SCT040CB 16/16 Q1012 RESHRA R11/290095=
201906052330 METAR LRTR 052330Z 09008KT 8000 -SHRA BKN035 SCT040CB 16/16
                        Q1012 RESHRA R11/290095=
201906060000 METAR LRTR 060000Z 11008KT 9999 FEW035 BKN044 SCT045CB 16/16
                        Q1011 R11/290095=
201906060030 METAR LRTR 060030Z 10008KT 9999 BKN036 SCT050CB 16/16 Q1011
                        R11/290095=
201906060100 METAR COR LRTR 060100Z 11007KT 9999 SCT033 FEW050CB 16/16
                        Q1011 R11/290095=
201906060130 METAR LRTR 060130Z 10008KT 8000 FEW032 SCT049 FEW050CB 16/16
                        Q1011 R11/290095=
201906060200 METAR LRTR 060200Z 11008KT 9999 BKN031 FEW050CB 16/16 Q1011
                        R11/290095=
201906060230 METAR LRTR 060230Z 11007KT 9999 BKN028 16/16 Q1012 R11/290095=
201906060300 METAR LRTR 060300Z 13007KT 9999 SCT028 BKN038 16/16 Q1012
                        R11/290095=
201906060330 METAR LRTR 060330Z 12007KT 9999 SCT027 BKN040 16/16 Q1012
                        R11/290095=
201906060400 METAR LRTR 060400Z 11009KT 9999 SCT027 BKN045 16/16 Q1012
                        R11/290095=
201906060430 METAR LRTR 060430Z 12007KT 9999 SCT024 16/16 Q1012 R11/290095=
201906060500 METAR LRTR 060500Z 11009KT 9999 SCT023 17/17 Q1012 R11/290095=
201906060530 METAR LRTR 060530Z 11009KT 9999 SCT023 17/17 Q1013 R11/290095=
201906060600 METAR LRTR 060600Z 12009KT 9999 FEW024 18/18 Q1013 R11/290095=
201906060630 METAR LRTR 060630Z 12009KT 9999 FEW023 19/18 Q1013 R11/290095=
201906060700 METAR LRTR 060700Z 14008KT 090V170 9999 FEW016 19/18 Q1013
                        R11/290095=
201906060730 METAR LRTR 060730Z 17008KT 9999 SCT016 21/19 Q1013 R11/290095=
201906060800 METAR LRTR 060800Z 17008KT 140V200 9999 SCT017 21/18 Q1013
                        R11/290095=
201906060830 METAR LRTR 060830Z 18006KT 9999 SCT020 22/19 Q1014 R11/290095=
201906060900 METAR LRTR 060900Z 17007KT 9999 SCT022 22/19 Q1014 R11/290095=
201906060930 METAR LRTR 060930Z 18007KT 9999 SCT025 22/19 Q1014 R11/290095=
201906061000 METAR LRTR 061000Z 19007KT 9999 FEW025 23/19 Q1013 R11/290095=
201906061030 METAR LRTR 061030Z 20008KT 9999 FEW026 FEW036CB 23/19 Q1013
                        R11/290095=
201906061100 METAR LRTR 061100Z 18007KT 9999 SCT026 FEW036CB 23/20 Q1014
                        R11/290095=
201906061130 METAR LRTR 061130Z 20005KT 9999 SCT027 FEW037CB 23/19 Q1014
                        R11/290095=
201906061200 METAR LRTR 061200Z 24004KT 9999 -SHRA FEW030 FEW037CB 24/19
                        Q1013 R11/290095=
201906061230 METAR LRTR 061230Z 26007KT 220V290 9999 FEW030 FEW037CB 25/20
                        Q1013 R11/290095=
201906061300 METAR LRTR 061300Z 21005KT 180V240 9999 SCT032 FEW037CB 24/19
                        Q1013 R11/CLRD//=
201906061330 METAR LRTR 061330Z 25009KT 9000 TSRA SCT032 SCT035CB 22/20
                        Q1013=
201906061400 METAR COR LRTR 061400Z 28006KT 9999 VCTS FEW035 FEW040CB
                        23/22 Q1013 RETSRA=
201906061430 METAR LRTR 061430Z 23007KT 200V270 9999 FEW033 FEW040CB 24/21
                        Q1013 R11/190095=
201906061500 METAR LRTR 061500Z 25006KT 9999 FEW030 FEW040CB 24/21 Q1013
                        R11/190095=
201906061530 METAR LRTR 061530Z 25005KT 9999 FEW030 FEW040CB 25/21 Q1013
                        R11/190095=
201906061600 METAR LRTR 061600Z 26007KT 9999 FEW026 24/20 Q1013 R11/190095=
201906061630 METAR LRTR 061630Z 27004KT 240V320 9999 FEW030 FEW050CB 24/21
                        Q1014 R11/190095 NOSIG=
201906061700 METAR LRTR 061700Z 25003KT 9999 FEW030 FEW050CB 24/20 Q1014
                        R11/190095 NOSIG=
201906061730 METAR LRTR 061730Z 00000KT 9999 FEW030 FEW050CB 23/20 Q1014
                        R11/190095 NOSIG=
201906061800 METAR LRTR 061800Z 13001KT 9999 FEW050CB 22/21 Q1014 R11/190095
                        NOSIG=
201906061830 METAR LRTR 061830Z 12003KT CAVOK 21/21 Q1014 R11/CLRD// NOSIG=
201906061900 METAR LRTR 061900Z 14004KT CAVOK 21/20 Q1014 NOSIG=
201906061930 METAR LRTR 061930Z 11005KT CAVOK 20/20 Q1014 NOSIG=
201906062000 METAR LRTR 062000Z 12005KT CAVOK 20/20 Q1015 NOSIG=
201906062030 METAR LRTR 062030Z 11007KT CAVOK 19/19 Q1015 NOSIG=
201906062100 METAR LRTR 062100Z 12006KT CAVOK 19/19 Q1015 NOSIG=
201906062130 METAR LRTR 062130Z 12008KT CAVOK 18/18 Q1015 NOSIG=
201906062200 METAR LRTR 062200Z 11007KT 8000 NSC 18/18 Q1015 NOSIG=
201906062230 METAR LRTR 062230Z 12007KT 7000 NSC 17/17 Q1015 NOSIG=
201906062300 METAR LRTR 062300Z 11005KT 7000 NSC 17/17 Q1015 BECMG 5000
                        BR=
201906062330 METAR LRTR 062330Z 11005KT 5000 BR FEW050CB 17/17 Q1015 BECMG
                        3000 BR=
201906070000 METAR LRTR 070000Z 09006KT 4000 BR FEW050CB 16/16 Q1015 TEMPO
                        3000 BR=
201906070030 METAR LRTR 070030Z 11005KT 5000 VCTS BR FEW050CB 17/17 Q1015
                        TEMPO TS=
201906070100 METAR LRTR 070100Z 13007KT 7000 VCTS FEW050CB 17/17 Q1015
                        NOSIG=
201906070130 METAR LRTR 070130Z 11007KT 7000 FEW050CB 16/16 Q1015 NOSIG=
201906070200 METAR LRTR 070200Z 11008KT 7000 FEW050CB 16/16 Q1015 NOSIG=
201906070230 METAR LRTR 070230Z 11007KT 6000 FEW050CB 16/16 Q1015 NOSIG=
201906070300 METAR LRTR 070300Z 11008KT 6000 FEW050CB 16/16 Q1016 NOSIG=
201906070330 METAR LRTR 070330Z 11007KT 6000 MIFG FEW050CB 16/16 Q1016
                        NOSIG=
201906070400 METAR LRTR 070400Z 10005KT 6000 MIFG FEW050CB 16/16 Q1016
                        NOSIG=
201906070430 METAR LRTR 070430Z 10009KT 9999 MIFG FEW050CB 18/18 Q1016
                        NOSIG=
201906070500 METAR LRTR 070500Z 10007KT 9999 FEW050CB 19/19 Q1016 TEMPO
                        TS=
201906070530 METAR LRTR 070530Z 12007KT 9999 FEW050CB 20/20 Q1017 TEMPO
                        TS=
201906070600 METAR LRTR 070600Z 14005KT 9999 FEW050CB 19/19 Q1017 TEMPO
                        TS=
201906070630 METAR LRTR 070630Z 15004KT 120V200 9999 FEW050CB 19/19 Q1017
                        NOSIG=
201906070700 METAR LRTR 070700Z 11004KT CAVOK 20/20 Q1017 NOSIG=
201906070730 METAR LRTR 070730Z 11006KT CAVOK 21/20 Q1017 NOSIG=
201906070800 METAR LRTR 070800Z 13005KT CAVOK 22/21 Q1017 NOSIG=
201906070830 METAR LRTR 070830Z 14005KT 110V170 CAVOK 23/21 Q1017 NOSIG=
201906070900 METAR LRTR 070900Z VRB02KT CAVOK 24/21 Q1018 NOSIG=
201906070930 METAR LRTR 070930Z 16004KT 130V210 CAVOK 25/21 Q1017 NOSIG=
201906071000 METAR LRTR 071000Z VRB02KT CAVOK 26/21 Q1017 NOSIG=
201906071030 METAR LRTR 071030Z 11004KT 040V160 CAVOK 26/17 Q1017 NOSIG=
201906071100 METAR LRTR 071100Z 12003KT 050V190 CAVOK 27/17 Q1017 NOSIG=
201906071130 METAR LRTR 071130Z VRB02KT CAVOK 27/16 Q1017 NOSIG=
201906071200 METAR LRTR 071200Z VRB03KT CAVOK 28/17 Q1017 NOSIG=
201906071230 METAR LRTR 071230Z VRB03KT 9999 FEW050TCU 27/17 Q1017 NOSIG=
201906071300 METAR LRTR 071300Z 09004KT 020V130 CAVOK 28/20 Q1016 NOSIG=
201906071330 METAR LRTR 071330Z 12004KT 080V180 CAVOK 28/17 Q1016 NOSIG=
201906071400 METAR LRTR 071400Z 15004KT 110V170 CAVOK 27/18 Q1016 NOSIG=
201906071430 METAR LRTR 071430Z 16007KT CAVOK 28/18 Q1016 NOSIG=
201906071500 METAR LRTR 071500Z 18006KT 140V210 CAVOK 28/19 Q1016 NOSIG=
201906071530 METAR LRTR 071530Z 24005KT CAVOK 28/18 Q1016 NOSIG=
201906071600 METAR LRTR 071600Z 19005KT CAVOK 28/17 Q1016 NOSIG=
201906071630 METAR LRTR 071630Z 21004KT 170V230 CAVOK 27/18 Q1016=
201906071700 METAR LRTR 071700Z VRB02KT CAVOK 27/19 Q1016=
201906071730 METAR LRTR 071730Z 19003KT 160V220 CAVOK 26/18 Q1016=
201906071800 METAR LRTR 071800Z 16003KT CAVOK 25/19 Q1016=
201906071830 METAR COR LRTR 071830Z 16003KT CAVOK 23/20 Q1016=
201906071900 METAR LRTR 071900Z 13003KT CAVOK 21/21 Q1017=
201906071930 METAR LRTR 071930Z 10003KT CAVOK 21/21 Q1017=
201906072000 METAR LRTR 072000Z 08006KT CAVOK 20/20 Q1017=
201906072030 METAR LRTR 072030Z 09004KT CAVOK 19/19 Q1017=
201906072100 METAR LRTR 072100Z 10003KT CAVOK 19/19 Q1017=
201906072130 METAR LRTR 072130Z 09005KT CAVOK 18/18 Q1017=
201906072200 METAR LRTR 072200Z 10006KT CAVOK 18/18 Q1017=
201906072230 METAR LRTR 072230Z 08004KT 8000 NSC 18/18 Q1017=
201906072300 METAR LRTR 072300Z 10006KT 8000 NSC 18/18 Q1017=
201906072330 METAR LRTR 072330Z 09006KT 7000 NSC 18/18 Q1017=
201906080000 METAR LRTR 080000Z 10007KT 6000 NSC 18/18 Q1017=
201906080030 METAR LRTR 080030Z 10006KT 4500 BR NSC 17/17 Q1017=
201906080100 METAR LRTR 080100Z 11007KT 4000 BR NSC 17/17 Q1017=
201906080130 METAR LRTR 080130Z 10006KT 5000 BR NSC 17/17 Q1017=
201906080200 METAR LRTR 080200Z 10006KT 6000 NSC 17/17 Q1016=
201906080230 METAR LRTR 080230Z 10006KT 6000 NSC 18/18 Q1016=
201906080300 METAR LRTR 080300Z 10007KT 7000 NSC 18/18 Q1016=
201906080330 METAR LRTR 080330Z 11006KT 8000 NSC 18/18 Q1017=
201906080400 METAR LRTR 080400Z 11004KT 9000 NSC 19/19 Q1017=
201906080430 METAR LRTR 080430Z 12003KT CAVOK 19/19 Q1017=
201906080500 METAR LRTR 080500Z 12007KT CAVOK 20/20 Q1017=
201906080530 METAR LRTR 080530Z 13008KT CAVOK 21/21 Q1017=
201906080600 METAR LRTR 080600Z 12007KT CAVOK 22/21 Q1017=
201906080630 METAR LRTR 080630Z 15006KT CAVOK 23/22 Q1017=
201906080700 METAR LRTR 080700Z 17004KT 140V210 CAVOK 24/22 Q1018=
201906080730 METAR LRTR 080730Z 20004KT 130V240 CAVOK 25/23 Q1018=
201906080800 METAR LRTR 080800Z 19006KT 160V230 CAVOK 26/23 Q1018=
201906080830 METAR LRTR 080830Z 19006KT 160V230 9999 FEW046 28/21 Q1018=
201906080900 METAR LRTR 080900Z 26008KT 230V290 9999 SCT045 27/19 Q1018=
201906080930 METAR LRTR 080930Z AUTO 25013KT 230V290 9999 BKN047/// 28/17
                        Q1017=
201906081000 METAR LRTR 081000Z 26009KT 9999 FEW047 29/18 Q1018=
201906081030 METAR COR LRTR 081030Z 26010KT 220V290 9999 FEW048 29/19
                        Q1018=
201906081100 METAR LRTR 081100Z 28011KT 9999 FEW048 28/18 Q1018=
201906081130 METAR LRTR 081130Z 28010KT 9999 FEW048 28/19 Q1018=
201906081200 METAR LRTR 081200Z 29008KT 250V330 CAVOK 28/19 Q1018=
201906081230 METAR LRTR 081230Z 28009KT 240V320 CAVOK 28/19 Q1018=
201906081300 METAR LRTR 081300Z 27009KT CAVOK 28/18 Q1018=
201906081330 METAR LRTR 081330Z 27008KT CAVOK 28/20 Q1018=
201906081400 METAR LRTR 081400Z 27008KT 240V300 CAVOK 29/19 Q1018=
201906081430 METAR LRTR 081430Z 29008KT CAVOK 28/19 Q1018=
201906081500 METAR LRTR 081500Z 31007KT CAVOK 28/19 Q1018=
201906081530 METAR LRTR 081530Z 30007KT CAVOK 28/20 Q1018=
201906081600 METAR LRTR 081600Z 32006KT CAVOK 28/19 Q1018 NOSIG=
201906081630 METAR LRTR 081630Z 32006KT CAVOK 27/19 Q1018 NOSIG=
201906081700 METAR LRTR 081700Z 32006KT CAVOK 27/20 Q1018 NOSIG=
201906081730 METAR LRTR 081730Z 32005KT CAVOK 26/21 Q1018 NOSIG=
201906081800 METAR LRTR 081800Z 32005KT CAVOK 24/21 Q1018 NOSIG=
201906081830 METAR LRTR 081830Z 33005KT CAVOK 23/21 Q1019 NOSIG=
201906081900 METAR LRTR 081900Z 34003KT CAVOK 22/21 Q1019 NOSIG=
201906081930 METAR LRTR 081930Z 32002KT CAVOK 22/21 Q1019 NOSIG=
201906082000 METAR LRTR 082000Z 00000KT CAVOK 22/21 Q1019 NOSIG=
201906082030 METAR LRTR 082030Z 00000KT CAVOK 20/20 Q1019 NOSIG=
201906082100 METAR LRTR 082100Z 00000KT CAVOK 19/19 Q1020 NOSIG=
201906082130 METAR LRTR 082130Z 30005KT CAVOK 20/20 Q1020 NOSIG=
201906082200 METAR LRTR 082200Z 34007KT CAVOK 21/20 Q1020 NOSIG=
201906082230 METAR LRTR 082230Z 33007KT CAVOK 20/20 Q1020 NOSIG=
201906082300 METAR LRTR 082300Z 34006KT CAVOK 20/20 Q1020 NOSIG=
201906082330 METAR LRTR 082330Z 32004KT CAVOK 19/19 Q1020 NOSIG=
201906090000 METAR LRTR 090000Z 26005KT CAVOK 19/19 Q1021 NOSIG=
201906090030 METAR LRTR 090030Z 32004KT CAVOK 19/19 Q1021 NOSIG=
201906090100 METAR LRTR 090100Z 36005KT CAVOK 19/19 Q1020 NOSIG=
201906090130 METAR LRTR 090130Z 35004KT CAVOK 19/19 Q1020 NOSIG=
201906090200 METAR LRTR 090200Z 03003KT 360V060 CAVOK 19/19 Q1021 NOSIG=
201906090230 METAR LRTR 090230Z 35001KT CAVOK 18/18 Q1021 NOSIG=
201906090300 METAR LRTR 090300Z 34003KT 8000 MIFG NSC 18/18 Q1021 NOSIG=
201906090330 METAR LRTR 090330Z 00000KT 7000 NSC 17/17 Q1021 TEMPO 5000
                        BR=
201906090400 METAR LRTR 090400Z VRB01KT 5000 BR NSC 19/19 Q1021 BECMG
                        9999 NSW=
201906090430 METAR LRTR 090430Z 33002KT 7000 NSC 19/19 Q1021 BECMG 9999
                        NSW=
201906090500 METAR LRTR 090500Z 35002KT CAVOK 20/20 Q1022 NOSIG=
201906090530 METAR LRTR 090530Z 35004KT 320V030 CAVOK 21/20 Q1022 NOSIG=
201906090600 METAR LRTR 090600Z 33004KT 290V020 CAVOK 22/20 Q1022 NOSIG=
201906090630 METAR LRTR 090630Z VRB02KT CAVOK 23/21 Q1022 NOSIG=
201906090700 METAR LRTR 090700Z 00000KT CAVOK 25/22 Q1022 NOSIG=
201906090730 METAR LRTR 090730Z VRB02KT CAVOK 25/21 Q1022 NOSIG=
201906090800 METAR LRTR 090800Z VRB01KT CAVOK 26/21 Q1022 NOSIG=
201906090830 METAR LRTR 090830Z VRB02KT 9999 FEW024 27/21 Q1022 NOSIG=
201906090900 METAR LRTR 090900Z 00000KT 9999 FEW025 28/21 Q1022 NOSIG=
201906090930 METAR LRTR 090930Z VRB02KT 9999 FEW030 28/21 Q1022 NOSIG=
201906091000 METAR LRTR 091000Z 29004KT 220V340 9999 FEW025 FEW030TCU
                        28/21 Q1021 NOSIG=
201906091030 METAR COR LRTR 091030Z 24004KT 9999 FEW030 FEW035TCU 29/22
                        Q1021 NOSIG=
201906091100 METAR LRTR 091100Z 36004KT 300V050 9999 FEW033 FEW038TCU
                        28/22 Q1021 NOSIG=
201906091130 METAR LRTR 091130Z 29006KT 260V320 9999 FEW035 FEW040TCU
                        29/21 Q1021 NOSIG=
201906091200 METAR LRTR 091200Z 32006KT 290V360 9999 SCT038 30/20 Q1020
                        NOSIG=
201906091230 METAR LRTR 091230Z 01005KT 320V050 9999 SCT040 30/19 Q1020
                        NOSIG=
201906091300 METAR LRTR 091300Z 33005KT 290V030 9999 FEW045 30/19 Q1020
                        NOSIG=
201906091330 METAR LRTR 091330Z 34007KT 300V020 9999 FEW047 FEW050CB 30/20
                        Q1019 NOSIG=
201906091400 METAR LRTR 091400Z 33007KT 9999 FEW048 FEW050CB 30/20 Q1019
                        NOSIG=
201906091430 METAR LRTR 091430Z 32008KT 9999 FEW048 FEW050CB 30/19 Q1019
                        NOSIG=
201906091500 METAR LRTR 091500Z 34007KT 9999 FEW048 FEW050CB 30/20 Q1019
                        NOSIG=
201906091530 METAR LRTR 091530Z 33006KT 9999 FEW048 FEW050CB 30/20 Q1019
                        TEMPO TS=
201906091600 METAR LRTR 091600Z 34007KT 9999 FEW048 FEW050CB 29/20 Q1019
                        TEMPO TS=
201906091630 METAR LRTR 091630Z 01005KT 9999 FEW044 FEW050CB 28/22 Q1019=
201906091700 METAR COR LRTR 091700Z 36005KT 9999 FEW045 FEW050CB 28/23
                        Q1018=
201906091730 METAR LRTR 091730Z 01004KT 9999 FEW045 27/23 Q1018=
201906091800 METAR LRTR 091800Z 04004KT CAVOK 25/24 Q1018=
201906091830 METAR LRTR 091830Z 09007KT 050V110 CAVOK 24/23 Q1018=
201906091900 METAR LRTR 091900Z 11005KT CAVOK 23/22 Q1019=
201906091930 METAR LRTR 091930Z 10006KT CAVOK 22/22 Q1019=
201906092000 METAR LRTR 092000Z 09003KT CAVOK 21/21 Q1019=
201906092030 METAR LRTR 092030Z 11004KT CAVOK 21/21 Q1019=
201906092100 METAR LRTR 092100Z 12007KT CAVOK 20/20 Q1019=
201906092130 METAR LRTR 092130Z 09003KT CAVOK 20/20 Q1019=
201906092200 METAR LRTR 092200Z 05004KT CAVOK 19/19 Q1019=
201906092230 METAR LRTR 092230Z 00000KT CAVOK 19/19 Q1019=
201906092300 METAR LRTR 092300Z VRB01KT CAVOK 19/19 Q1019=
201906092330 METAR LRTR 092330Z 00000KT CAVOK 19/19 Q1018=
201906100000 METAR LRTR 100000Z 09005KT CAVOK 18/18 Q1018=
201906100030 METAR LRTR 100030Z 09005KT CAVOK 17/17 Q1018=
201906100100 METAR LRTR 100100Z 10005KT CAVOK 17/17 Q1018=
201906100130 METAR LRTR 100130Z 09004KT CAVOK 17/17 Q1018=
201906100200 METAR LRTR 100200Z 10004KT CAVOK 17/17 Q1018=
201906100230 METAR LRTR 100230Z 09006KT 9999 MIFG NSC 17/17 Q1018=
201906100300 METAR LRTR 100300Z 09005KT 9999 MIFG NSC 17/17 Q1018=
201906100330 METAR LRTR 100330Z 10005KT CAVOK 17/17 Q1018=
201906100400 METAR LRTR 100400Z 11005KT CAVOK 18/18 Q1018=
201906100430 METAR LRTR 100430Z 12007KT CAVOK 19/19 Q1018=
201906100500 METAR LRTR 100500Z 12009KT CAVOK 20/20 Q1018=
201906100530 METAR LRTR 100530Z 12009KT CAVOK 21/21 Q1018=
201906100600 METAR LRTR 100600Z 12008KT CAVOK 23/21 Q1018=
201906100630 METAR LRTR 100630Z 11007KT CAVOK 23/21 Q1018=
201906100700 METAR LRTR 100700Z 11008KT CAVOK 24/21 Q1018=
201906100730 METAR LRTR 100730Z 11008KT CAVOK 25/21 Q1018=
201906100800 METAR LRTR 100800Z 11008KT 080V140 CAVOK 26/21 Q1018=
201906100830 METAR LRTR 100830Z 14006KT CAVOK 27/21 Q1017=
201906100900 METAR LRTR 100900Z 11006KT 070V150 9999 FEW023 28/21 Q1017=
201906100930 METAR LRTR 100930Z 16007KT 120V190 9999 FEW025 28/23 Q1017=
201906101000 METAR LRTR 101000Z 14005KT 100V200 9999 FEW028 28/21 Q1017=
201906101030 METAR LRTR 101030Z 13005KT 100V200 9999 FEW032 28/21 Q1016=
201906101100 METAR LRTR 101100Z 10005KT 050V130 9999 FEW035 FEW050CB 29/23
                        Q1016=
201906101130 METAR LRTR 101130Z VRB04KT 9999 FEW036 FEW050CB 29/21 Q1016=
201906101200 METAR LRTR 101200Z 09003KT 040V130 9999 FEW038 FEW050CB 29/22
                        Q1016=
201906101230 METAR LRTR 101230Z 17004KT 150V230 9999 FEW042 FEW050CB 30/22
                        Q1015=
201906101300 METAR LRTR 101300Z 11003KT 060V200 9999 FEW042 FEW050CB 30/17
                        Q1015=
201906101330 METAR LRTR 101330Z 06004KT 9999 FEW043 FEW050CB 30/17 Q1015=
201906101400 METAR LRTR 101400Z 02004KT 350V080 9999 FEW045 FEW050CB 30/19
                        Q1014=
201906101430 METAR COR LRTR 101430Z 09003KT 030V140 9999 FEW047 FEW050CB
                        30/19 Q1014=
201906101500 METAR LRTR 101500Z VRB01KT 9999 FEW050CB 31/18 Q1014=
201906101530 METAR LRTR 101530Z 06005KT 9999 FEW050CB 30/19 Q1014=
201906101600 METAR LRTR 101600Z 01003KT 9999 FEW050CB 29/20 Q1013=
201906101630 METAR LRTR 101630Z 04004KT 9999 FEW050CB 29/21 Q1013 NOSIG=
201906101700 METAR LRTR 101700Z 08004KT 9999 FEW050CB 29/20 Q1014 TEMPO
                        TS=
201906101730 METAR LRTR 101730Z 07002KT 9999 VCSH FEW050CB 29/20 Q1014
                        TEMPO TSRA=
201906101800 METAR LRTR 101800Z 16004KT 9999 VCSH FEW045CB 28/20 Q1014
                        NOSIG=
201906101830 METAR LRTR 101830Z 08010KT 9999 -SHRA SCT045CB 25/24 Q1014
                        NOSIG=
201906101900 METAR LRTR 101900Z 11009KT 9999 -SHRA FEW045CB 24/22 Q1014
                        NOSIG=
201906101930 METAR LRTR 101930Z 11007KT 9999 FEW050CB 23/21 Q1014 NOSIG=
201906102000 METAR LRTR 102000Z 11007KT CAVOK 22/22 Q1014 NOSIG=
201906102030 METAR LRTR 102030Z 09005KT CAVOK 22/22 Q1014 NOSIG=
201906102100 METAR LRTR 102100Z 08005KT CAVOK 21/21 Q1014 NOSIG=
201906102130 METAR LRTR 102130Z 08005KT CAVOK 21/21 Q1014 NOSIG=
201906102200 METAR LRTR 102200Z 09007KT CAVOK 21/19 Q1013 NOSIG=
201906102230 METAR LRTR 102230Z 10006KT CAVOK 20/19 Q1014 NOSIG=
201906102300 METAR LRTR 102300Z 11008KT CAVOK 19/18 Q1013 NOSIG=
201906102330 METAR LRTR 102330Z 10010KT CAVOK 20/18 Q1013 NOSIG=
201906110000 METAR LRTR 110000Z 11008KT CAVOK 19/18 Q1013 NOSIG=
201906110030 METAR LRTR 110030Z 10008KT CAVOK 19/18 Q1013 NOSIG=
201906110100 METAR LRTR 110100Z 10007KT CAVOK 18/18 Q1013 NOSIG=
201906110130 METAR LRTR 110130Z 11006KT CAVOK 18/18 Q1013 NOSIG=
201906110200 METAR LRTR 110200Z 10007KT CAVOK 18/18 Q1013 NOSIG=
201906110230 METAR LRTR 110230Z 10006KT CAVOK 18/18 Q1013 NOSIG=
201906110300 METAR LRTR 110300Z 10005KT CAVOK 18/18 Q1013 NOSIG=
201906110330 METAR LRTR 110330Z 10006KT CAVOK 18/18 Q1013 NOSIG=
201906110400 METAR LRTR 110400Z 09005KT CAVOK 19/18 Q1014 NOSIG=
201906110430 METAR LRTR 110430Z 07005KT 050V110 CAVOK 20/19 Q1013 NOSIG=
201906110500 METAR LRTR 110500Z 07005KT CAVOK 21/19 Q1013 NOSIG=
201906110530 METAR LRTR 110530Z 08007KT CAVOK 23/19 Q1014 NOSIG=
201906110600 METAR LRTR 110600Z 08008KT CAVOK 24/19 Q1014 NOSIG=
201906110630 METAR LRTR 110630Z 09008KT CAVOK 24/19 Q1014 NOSIG=
201906110700 METAR LRTR 110700Z 08006KT 050V110 CAVOK 25/19 Q1014 NOSIG=
201906110730 METAR LRTR 110730Z 08009KT CAVOK 26/18 Q1014 NOSIG=
201906110800 METAR LRTR 110800Z 06008KT CAVOK 27/18 Q1014 NOSIG=
201906110830 METAR LRTR 110830Z 04007KT CAVOK 27/18 Q1014 NOSIG=
201906110900 METAR LRTR 110900Z 05009KT 020V080 CAVOK 28/19 Q1014 NOSIG=
201906110930 METAR LRTR 110930Z 08009KT CAVOK 28/19 Q1013 NOSIG=
201906111000 METAR LRTR 111000Z 07010KT 9999 FEW028 28/19 Q1013 NOSIG=
201906111030 METAR LRTR 111030Z 07014KT 9999 FEW030 29/17 Q1013 NOSIG=
201906111100 METAR LRTR 111100Z 10017KT 9999 FEW035CB 29/18 Q1013 NOSIG=
201906111130 METAR LRTR 111130Z 09016KT 9999 FEW035CB 29/16 Q1013 NOSIG=
201906111200 METAR LRTR 111200Z 08014KT 9999 FEW035CB 29/17 Q1013 NOSIG=
201906111230 METAR LRTR 111230Z 09013KT 9999 FEW040CB 28/17 Q1013 NOSIG=
201906111300 METAR LRTR 111300Z 09009KT 9999 FEW045CB 28/19 Q1013 NOSIG=
201906111330 METAR LRTR 111330Z 13005KT 9999 FEW045CB 28/19 Q1012 NOSIG=
201906111400 METAR LRTR 111400Z 13009KT 9999 FEW042 FEW050CB 28/19 Q1012
                        NOSIG=
201906111430 METAR LRTR 111430Z 15006KT 9999 FEW045 FEW050CB 28/19 Q1013
                        NOSIG=
201906111500 METAR LRTR 111500Z 12008KT 9999 FEW045TCU 28/19 Q1013 NOSIG=
201906111530 METAR LRTR 111530Z 12010KT 9999 FEW050CB 28/20 Q1012 NOSIG=
201906111600 METAR LRTR 111600Z 12015KT 9999 FEW050CB 27/18 Q1013 NOSIG=
201906111630 METAR LRTR 111630Z 13011KT 9999 FEW050CB 26/17 Q1013=
201906111700 METAR LRTR 111700Z 13009KT 9999 FEW050CB 26/18 Q1013=
201906111730 METAR LRTR 111730Z 12009KT CAVOK 24/18 Q1013=
201906111800 METAR LRTR 111800Z 13005KT CAVOK 23/19 Q1013=
201906111830 METAR LRTR 111830Z 10006KT CAVOK 23/21 Q1013=
201906111900 METAR LRTR 111900Z 09007KT CAVOK 23/21 Q1014=
201906111930 METAR LRTR 111930Z 08006KT CAVOK 21/21 Q1014=
201906112000 METAR LRTR 112000Z 08004KT CAVOK 21/20 Q1014=
201906112030 METAR LRTR 112030Z 11006KT CAVOK 20/20 Q1014=
201906112100 METAR LRTR 112100Z 15004KT CAVOK 21/20 Q1014=
201906112130 METAR LRTR 112130Z 11006KT CAVOK 20/20 Q1014=
201906112200 METAR LRTR 112200Z 04004KT CAVOK 18/19 Q1014=
201906112230 METAR LRTR 112230Z 10003KT CAVOK 19/19 Q1015=
201906112300 METAR LRTR 112300Z 09005KT CAVOK 19/19 Q1015=
201906112330 METAR LRTR 112330Z VRB02KT CAVOK 19/19 Q1015=
201906120000 METAR COR LRTR 120000Z 13003KT CAVOK 19/19 Q1014=
201906120030 METAR LRTR 120030Z 04005KT CAVOK 17/18 Q1014=
201906120100 METAR LRTR 120100Z 09004KT 060V120 CAVOK 18/18 Q1014=
201906120130 METAR LRTR 120130Z 10004KT CAVOK 18/18 Q1014=
201906120200 METAR LRTR 120200Z 08006KT CAVOK 17/17 Q1014=
201906120230 METAR LRTR 120230Z 10006KT CAVOK 17/17 Q1014=
201906120300 METAR LRTR 120300Z 07004KT CAVOK 17/17 Q1014=
201906120330 METAR LRTR 120330Z VRB02KT CAVOK 18/18 Q1014=
201906120400 METAR LRTR 120400Z 06003KT CAVOK 18/18 Q1014=
201906120430 METAR LRTR 120430Z 09002KT CAVOK 19/19 Q1014=
201906120500 METAR LRTR 120500Z VRB01KT CAVOK 22/20 Q1014=
201906120530 METAR LRTR 120530Z 10006KT 070V130 CAVOK 22/20 Q1014=
201906120600 METAR LRTR 120600Z 13006KT CAVOK 22/20 Q1014=
201906120630 METAR LRTR 120630Z 13006KT CAVOK 22/21 Q1014=
201906120700 METAR LRTR 120700Z 12007KT CAVOK 24/21 Q1014=
201906120730 METAR LRTR 120730Z 11008KT CAVOK 25/21 Q1014=
201906120800 METAR LRTR 120800Z 11007KT CAVOK 26/20 Q1015=
201906120830 METAR LRTR 120830Z 12006KT 090V150 CAVOK 26/20 Q1015=
201906120900 METAR LRTR 120900Z 11005KT 9999 FEW027 27/19 Q1015=
201906120930 METAR LRTR 120930Z 12005KT 9999 FEW027 27/20 Q1015=
201906121000 METAR LRTR 121000Z 13003KT 090V180 9999 FEW030 28/20 Q1015=
201906121030 METAR LRTR 121030Z VRB01KT 9999 FEW030 FEW050CB 30/22 Q1015=
201906121100 METAR LRTR 121100Z 00000KT 9999 FEW040 FEW050CB 30/17 Q1014=
201906121130 METAR LRTR 121130Z VRB02KT 9999 FEW040 FEW050CB 31/15 Q1014=
201906121200 METAR LRTR 121200Z VRB01KT 9999 FEW040 FEW050CB 31/18 Q1014=
201906121230 METAR LRTR 121230Z VRB02KT 9999 FEW040 FEW050CB 31/17 Q1014=
201906121300 METAR LRTR 121300Z VRB04KT 9999 FEW040 FEW050CB 31/17 Q1014=
201906121330 METAR LRTR 121330Z 02004KT 330V060 9999 FEW040 FEW050CB 31/16
                        Q1014=
201906121400 METAR LRTR 121400Z 13005KT 100V160 9999 VCTS FEW045 FEW050CB
                        31/17 Q1014=
201906121430 METAR LRTR 121430Z 09003KT 010V140 9999 FEW045 FEW050CB 31/15
                        Q1013=
201906121500 METAR LRTR 121500Z 13004KT 070V170 9999 FEW045 FEW050CB 31/17
                        Q1013=
201906121530 METAR LRTR 121530Z 13005KT 9999 FEW045 FEW050CB 31/17 Q1013=
201906121600 METAR LRTR 121600Z 15004KT 120V180 9999 FEW045 FEW050CB 31/18
                        Q1013=
201906121630 METAR LRTR 121630Z 14004KT CAVOK 30/18 Q1013 NOSIG=
201906121700 METAR LRTR 121700Z 11003KT CAVOK 30/19 Q1013 NOSIG=
201906121730 METAR LRTR 121730Z 13005KT CAVOK 27/22 Q1013 NOSIG=
201906121800 METAR LRTR 121800Z 10007KT CAVOK 26/22 Q1013 NOSIG=
201906121830 METAR LRTR 121830Z 09008KT CAVOK 24/20 Q1013 NOSIG=
201906121900 METAR LRTR 121900Z 09008KT CAVOK 23/19 Q1014 NOSIG=
201906121930 METAR LRTR 121930Z 10006KT CAVOK 22/19 Q1014 NOSIG=
201906122000 METAR LRTR 122000Z 09007KT CAVOK 21/19 Q1014 NOSIG=
201906122030 METAR LRTR 122030Z 09004KT CAVOK 20/19 Q1014 NOSIG=
201906122100 METAR LRTR 122100Z 09008KT CAVOK 20/18 Q1014 NOSIG=
201906122130 METAR LRTR 122130Z 09007KT CAVOK 19/18 Q1014 NOSIG=
201906122200 METAR LRTR 122200Z 09007KT CAVOK 19/18 Q1014 NOSIG=
201906122230 METAR LRTR 122230Z 10006KT CAVOK 19/18 Q1014 NOSIG=
201906122300 METAR LRTR 122300Z 09006KT CAVOK 18/17 Q1014 NOSIG=
201906122330 METAR LRTR 122330Z 10007KT CAVOK 18/17 Q1014 NOSIG=
201906130000 METAR LRTR 130000Z 10007KT CAVOK 19/18 Q1014 NOSIG=
201906130030 METAR LRTR 130030Z 10008KT CAVOK 18/18 Q1014 NOSIG=
201906130100 METAR LRTR 130100Z 09009KT CAVOK 18/18 Q1014 NOSIG=
201906130130 METAR LRTR 130130Z 09010KT CAVOK 18/18 Q1014 NOSIG=
201906130200 METAR LRTR 130200Z 09010KT CAVOK 18/18 Q1014 NOSIG=
201906130230 METAR LRTR 130230Z 10009KT CAVOK 18/18 Q1013 NOSIG=
201906130300 METAR LRTR 130300Z 10007KT CAVOK 18/18 Q1014 NOSIG=
201906130330 METAR LRTR 130330Z 10008KT CAVOK 19/18 Q1014 NOSIG=
201906130400 METAR LRTR 130400Z 09008KT CAVOK 19/18 Q1014 NOSIG=
201906130430 METAR LRTR 130430Z 08009KT CAVOK 20/18 Q1014 NOSIG=
201906130500 METAR LRTR 130500Z 11009KT CAVOK 22/18 Q1014 NOSIG=
201906130530 METAR LRTR 130530Z 10011KT CAVOK 23/18 Q1014 NOSIG=
201906130600 METAR LRTR 130600Z 10010KT CAVOK 24/18 Q1014 NOSIG=
201906130630 METAR LRTR 130630Z 11010KT CAVOK 25/18 Q1015 NOSIG=
201906130700 METAR LRTR 130700Z 11011KT CAVOK 26/19 Q1015 NOSIG=
201906130730 METAR LRTR 130730Z 12011KT CAVOK 26/19 Q1015 NOSIG=
201906130800 METAR LRTR 130800Z 11009KT CAVOK 28/20 Q1015 NOSIG=
201906130830 METAR LRTR 130830Z 12008KT 080V140 CAVOK 28/19 Q1015 NOSIG=
201906130900 METAR LRTR 130900Z 12006KT 090V150 CAVOK 29/19 Q1015 NOSIG=
201906130930 METAR LRTR 130930Z 11007KT 070V140 CAVOK 30/19 Q1015 NOSIG=
201906131000 METAR LRTR 131000Z VRB06KT CAVOK 30/19 Q1015 NOSIG=
201906131030 METAR LRTR 131030Z 12007KT 090V150 CAVOK 31/19 Q1015 NOSIG=
201906131100 METAR LRTR 131100Z 14005KT 100V190 CAVOK 31/20 Q1014 NOSIG=
201906131130 METAR LRTR 131130Z 13006KT 080V150 CAVOK 31/19 Q1014 NOSIG=
201906131200 METAR LRTR 131200Z 13007KT 100V160 CAVOK 32/20 Q1014 NOSIG=
201906131230 METAR LRTR 131230Z 15006KT 100V210 CAVOK 32/19 Q1014 NOSIG=
201906131300 METAR LRTR 131300Z 14006KT CAVOK 33/18 Q1014 NOSIG=
201906131330 METAR LRTR 131330Z 16006KT 120V200 CAVOK 33/18 Q1014 NOSIG=
201906131400 METAR LRTR 131400Z 15005KT 090V190 CAVOK 33/18 Q1013 NOSIG=
201906131430 METAR LRTR 131430Z 15006KT CAVOK 32/19 Q1013 NOSIG=
201906131500 METAR LRTR 131500Z 15005KT 110V210 CAVOK 33/17 Q1013 NOSIG=
201906131530 METAR LRTR 131530Z 17006KT CAVOK 32/18 Q1013 NOSIG=
201906131600 METAR LRTR 131600Z 13005KT 100V160 CAVOK 32/20 Q1013 NOSIG=
201906131630 METAR LRTR 131630Z 10006KT CAVOK 31/21 Q1013=
201906131700 METAR LRTR 131700Z 11005KT CAVOK 30/21 Q1013=
201906131730 METAR LRTR 131730Z 10003KT CAVOK 30/22 Q1013=
201906131800 METAR LRTR 131800Z VRB04KT CAVOK 29/23 Q1013=
201906131830 METAR LRTR 131830Z 08005KT CAVOK 26/24 Q1013=
201906131900 METAR LRTR 131900Z 09004KT CAVOK 24/23 Q1014=
201906131930 METAR LRTR 131930Z 00000KT CAVOK 25/23 Q1014=
201906132000 METAR LRTR 132000Z 08005KT CAVOK 22/22 Q1014=
201906132030 METAR LRTR 132030Z 09006KT CAVOK 22/22 Q1014=
201906132100 METAR LRTR 132100Z 09005KT CAVOK 22/22 Q1015=
201906132130 METAR LRTR 132130Z 09005KT CAVOK 22/21 Q1015=
201906132200 METAR LRTR 132200Z 09006KT CAVOK 22/20 Q1015=
201906132230 METAR LRTR 132230Z 10006KT CAVOK 21/20 Q1015=
201906132300 METAR LRTR 132300Z 10007KT CAVOK 21/20 Q1015=
201906132330 METAR LRTR 132330Z 09007KT CAVOK 20/20 Q1015=
201906140000 METAR COR LRTR 140000Z 09007KT CAVOK 20/20 Q1015=
201906140030 METAR LRTR 140030Z 09006KT CAVOK 20/20 Q1015=
201906140100 METAR LRTR 140100Z 09006KT CAVOK 20/19 Q1015=
201906140130 METAR LRTR 140130Z 09007KT CAVOK 20/19 Q1015=
201906140200 METAR LRTR 140200Z 09007KT CAVOK 20/19 Q1015=
201906140230 METAR LRTR 140230Z 10006KT CAVOK 20/19 Q1015=
201906140300 METAR LRTR 140300Z 09007KT CAVOK 20/19 Q1015=
201906140330 METAR LRTR 140330Z 10007KT CAVOK 20/20 Q1015=
201906140400 METAR LRTR 140400Z 11006KT CAVOK 21/20 Q1016=
201906140430 METAR LRTR 140430Z 12007KT CAVOK 22/21 Q1016=
201906140500 METAR LRTR 140500Z 11008KT CAVOK 23/21 Q1016=
201906140530 METAR LRTR 140530Z 13005KT CAVOK 24/21 Q1016=
201906140600 METAR LRTR 140600Z 12005KT CAVOK 25/21 Q1017=
201906140630 METAR LRTR 140630Z 10009KT CAVOK 26/21 Q1017=
201906140700 METAR LRTR 140700Z 11008KT CAVOK 26/20 Q1017=
201906140730 METAR LRTR 140730Z 11006KT CAVOK 27/21 Q1017=
201906140800 METAR LRTR 140800Z 16006KT CAVOK 28/21 Q1017=
201906140830 METAR LRTR 140830Z 16006KT 120V210 CAVOK 29/22 Q1017=
201906140900 METAR LRTR 140900Z 17006KT 130V220 CAVOK 30/23 Q1017=
201906140930 METAR LRTR 140930Z 18006KT 150V220 CAVOK 30/21 Q1018=
201906141000 METAR LRTR 141000Z 16007KT 120V200 CAVOK 30/21 Q1018=
201906141030 METAR LRTR 141030Z 19005KT 160V220 9999 FEW035 31/22 Q1017=
201906141100 METAR LRTR 141100Z 18004KT 110V230 9999 FEW038 32/23 Q1017=
201906141130 METAR LRTR 141130Z 18005KT 110V250 9999 FEW040 32/22 Q1017=
201906141200 METAR LRTR 141200Z VRB03KT 9999 FEW043 32/23 Q1017=
201906141230 METAR LRTR 141230Z 17004KT 130V250 9999 FEW040TCU 33/21 Q1016=
201906141300 METAR LRTR 141300Z 15004KT 050V200 9999 VCTS FEW043CB 32/21
                        Q1017=
201906141330 METAR LRTR 141330Z 16004KT 9999 TS FEW043CB 31/23 Q1017=
201906141400 METAR LRTR 141400Z 22007KT 9999 TS SCT043CB 30/19 Q1017=
201906141430 METAR LRTR 141430Z 21006KT 9999 FEW050CB 31/19 Q1016 RETS=
201906141500 METAR LRTR 141500Z 22005KT CAVOK 32/19 Q1016=
201906141530 METAR LRTR 141530Z VRB02KT CAVOK 33/20 Q1016=
201906141600 METAR LRTR 141600Z 31005KT 9999 FEW050CB 31/22 Q1016=
201906141630 METAR LRTR 141630Z 30006KT 9999 FEW045 FEW050CB 29/23 Q1016
                        NOSIG=
201906141700 METAR LRTR 141700Z 30005KT 9999 FEW045 FEW050CB 29/23 Q1016
                        NOSIG=
201906141730 METAR LRTR 141730Z 29006KT 9999 FEW050CB 28/23 Q1016 NOSIG=
201906141800 METAR LRTR 141800Z 32006KT CAVOK 28/22 Q1016 NOSIG=
201906141830 METAR LRTR 141830Z 31005KT CAVOK 27/23 Q1016 NOSIG=
201906141900 METAR LRTR 141900Z 35003KT 320V020 CAVOK 26/22 Q1017 NOSIG=
201906141930 METAR LRTR 141930Z VRB02KT CAVOK 25/22 Q1017 NOSIG=
201906142000 METAR LRTR 142000Z 33005KT CAVOK 25/22 Q1017 NOSIG=
201906142030 METAR LRTR 142030Z 03005KT CAVOK 24/20 Q1017 NOSIG=
201906142100 METAR LRTR 142100Z 00000KT CAVOK 24/21 Q1017 NOSIG=
201906142130 METAR LRTR 142130Z 00000KT CAVOK 24/21 Q1017 NOSIG=
201906142200 METAR LRTR 142200Z VRB01KT CAVOK 23/21 Q1017 NOSIG=
201906142230 METAR LRTR 142230Z 00000KT CAVOK 22/21 Q1017 NOSIG=
201906142300 METAR LRTR 142300Z 05005KT CAVOK 22/21 Q1017 NOSIG=
201906142330 METAR LRTR 142330Z 09005KT CAVOK 21/21 Q1016 NOSIG=
201906150000 METAR LRTR 150000Z 13003KT 100V160 CAVOK 22/21 Q1016 NOSIG=
201906150030 METAR LRTR 150030Z 12004KT CAVOK 21/21 Q1016 NOSIG=
201906150100 METAR LRTR 150100Z 10005KT 8000 NSC 20/20 Q1016 NOSIG=
201906150130 METAR LRTR 150130Z 09004KT 7000 NSC 20/20 Q1016 BECMG 5000
                        BR=
201906150200 METAR LRTR 150200Z 10004KT 5000 BR NSC 20/20 Q1016 NOSIG=
201906150230 METAR LRTR 150230Z VRB01KT 6000 MIFG NSC 19/19 Q1016 NOSIG=
201906150300 METAR LRTR 150300Z 11001KT 8000 MIFG NSC 20/20 Q1016 NOSIG=
201906150330 METAR LRTR 150330Z 10005KT 8000 MIFG NSC 20/20 Q1016 NOSIG=
201906150400 METAR LRTR 150400Z 11004KT 9999 MIFG NSC 21/21 Q1016 NOSIG=
201906150430 METAR LRTR 150430Z 11007KT CAVOK 22/21 Q1016 NOSIG=
201906150500 METAR LRTR 150500Z 11008KT CAVOK 23/21 Q1016 NOSIG=
201906150530 METAR LRTR 150530Z 11007KT CAVOK 23/22 Q1016 NOSIG=
201906150600 METAR LRTR 150600Z 10006KT CAVOK 25/23 Q1016 NOSIG=
201906150630 METAR LRTR 150630Z 11007KT CAVOK 25/22 Q1016 NOSIG=
201906150700 METAR LRTR 150700Z 13006KT CAVOK 26/23 Q1016 NOSIG=
201906150730 METAR LRTR 150730Z 13006KT 080V170 CAVOK 27/23 Q1016 NOSIG=
201906150800 METAR LRTR 150800Z 15005KT CAVOK 28/22 Q1016 NOSIG=
201906150830 METAR LRTR 150830Z 16005KT 110V200 CAVOK 29/23 Q1016 NOSIG=
201906150900 METAR LRTR 150900Z 17007KT CAVOK 30/22 Q1016 NOSIG=
201906150930 METAR LRTR 150930Z 16006KT 120V210 CAVOK 31/22 Q1016 NOSIG=
201906151000 METAR LRTR 151000Z AUTO VRB04KT 9999 NCD 31/22 Q1015 NOSIG=
201906151030 METAR LRTR 151030Z VRB03KT 9999 FEW035 31/21 Q1015 NOSIG=
201906151100 METAR LRTR 151100Z VRB04KT 9999 FEW042 31/21 Q1015 NOSIG=
201906151130 METAR LRTR 151130Z 18004KT 090V250 9999 FEW042 32/22 Q1014
                        NOSIG=
201906151200 METAR LRTR 151200Z VRB05KT 9999 FEW044 32/21 Q1014 NOSIG=
201906151230 METAR LRTR 151230Z VRB04KT 9999 FEW045 32/21 Q1014 NOSIG=
201906151300 METAR LRTR 151300Z 14005KT 100V230 9999 FEW045 32/20 Q1014
                        NOSIG=
201906151330 METAR LRTR 151330Z VRB02KT 9999 FEW045 33/19 Q1014 NOSIG=
201906151400 METAR LRTR 151400Z VRB02KT 9999 FEW050CB 33/19 Q1014 NOSIG=
201906151430 METAR LRTR 151430Z 21004KT 150V260 9999 FEW050CB 33/19 Q1013
                        NOSIG=
201906151500 METAR LRTR 151500Z 17017KT 9999 FEW050CB 33/20 Q1014 NOSIG=
201906151530 METAR LRTR 151530Z 16013KT 9999 FEW050CB 28/18 Q1014 NOSIG=
201906151600 METAR LRTR 151600Z 14010KT 9999 FEW050CB 28/19 Q1014=
201906151630 METAR LRTR 151630Z 16006KT 9999 FEW050CB 28/18 Q1013=
201906151700 METAR LRTR 151700Z 13006KT 100V170 9999 FEW050CB 28/20 Q1013=
201906151730 METAR LRTR 151730Z 11010KT 9999 FEW050CB 26/20 Q1013=
201906151800 METAR LRTR 151800Z 11009KT CAVOK 25/20 Q1013=
201906151830 METAR LRTR 151830Z 11007KT CAVOK 24/21 Q1013=
201906151900 METAR LRTR 151900Z 10009KT CAVOK 23/19 Q1014=
201906151930 METAR LRTR 151930Z 09008KT CAVOK 22/19 Q1014=
201906152000 METAR LRTR 152000Z 10007KT CAVOK 22/19 Q1014=
201906152030 METAR LRTR 152030Z 11007KT CAVOK 21/19 Q1013=
201906152100 METAR LRTR 152100Z 10007KT CAVOK 21/19 Q1013=
201906152130 METAR LRTR 152130Z 09009KT CAVOK 20/19 Q1013=
201906152200 METAR LRTR 152200Z 09007KT CAVOK 20/19 Q1013=
201906152230 METAR LRTR 152230Z 09007KT CAVOK 19/18 Q1013=
201906152300 METAR LRTR 152300Z 10006KT CAVOK 19/18 Q1013=
201906152330 METAR LRTR 152330Z 11006KT CAVOK 19/18 Q1013=
201906160000 METAR LRTR 160000Z 10007KT CAVOK 18/18 Q1013=
201906160030 METAR LRTR 160030Z 09009KT CAVOK 19/18 Q1013=
201906160100 METAR LRTR 160100Z 11006KT CAVOK 18/17 Q1013=
201906160130 METAR LRTR 160130Z 10007KT CAVOK 18/17 Q1013=
201906160200 METAR LRTR 160200Z 10007KT CAVOK 18/18 Q1012=
201906160230 METAR LRTR 160230Z 10007KT CAVOK 18/18 Q1012=
201906160300 METAR LRTR 160300Z 10006KT CAVOK 18/17 Q1013=
201906160330 METAR LRTR 160330Z 08005KT CAVOK 18/18 Q1013=
201906160400 METAR LRTR 160400Z 09005KT CAVOK 20/19 Q1013=
201906160430 METAR LRTR 160430Z 10006KT CAVOK 21/19 Q1013=
201906160500 METAR LRTR 160500Z 10008KT CAVOK 22/19 Q1013=
201906160530 METAR LRTR 160530Z 11009KT CAVOK 23/18 Q1013=
201906160600 METAR LRTR 160600Z 11008KT CAVOK 24/19 Q1013=
201906160630 METAR LRTR 160630Z 10007KT CAVOK 25/21 Q1014=
201906160700 METAR LRTR 160700Z 11007KT CAVOK 26/19 Q1014=
201906160730 METAR LRTR 160730Z 10006KT CAVOK 27/19 Q1014=
201906160800 METAR LRTR 160800Z 11005KT CAVOK 29/18 Q1014=
201906160830 METAR LRTR 160830Z 08005KT 040V110 CAVOK 29/18 Q1013=
201906160900 METAR LRTR 160900Z 16003KT 090V260 CAVOK 30/18 Q1013=
201906160930 METAR LRTR 160930Z 11003KT 340V150 CAVOK 30/18 Q1013=
201906161000 METAR LRTR 161000Z 06003KT 330V100 9999 FEW050CB 31/16 Q1013=
201906161030 METAR LRTR 161030Z 36003KT 280V080 9999 FEW050CB 31/17 Q1013=
201906161100 METAR LRTR 161100Z 36003KT 280V070 9999 FEW050CB 31/18 Q1013=
201906161130 METAR LRTR 161130Z 08003KT 030V190 9999 FEW044 FEW050CB 32/18
                        Q1012=
201906161200 METAR LRTR 161200Z 04003KT 310V120 9999 FEW045 FEW050CB 32/19
                        Q1012=
201906161230 METAR LRTR 161230Z 06004KT 360V150 9999 FEW047 FEW050CB 32/19
                        Q1012=
201906161300 METAR LRTR 161300Z VRB04KT 9999 FEW050CB 32/18 Q1012=
201906161330 METAR LRTR 161330Z 08004KT 020V140 9999 FEW050CB 32/18 Q1011=
201906161400 METAR LRTR 161400Z 06004KT 360V130 9999 FEW050CB 33/19 Q1011=
201906161430 METAR LRTR 161430Z 04005KT 350V070 9999 VCTS FEW050CB 33/19
                        Q1011=
201906161500 METAR LRTR 161500Z 04006KT 360V070 9999 TS SCT045CB 32/21
                        Q1011=
201906161530 METAR LRTR 161530Z 12020KT 9999 -TSRA BKN040CB 26/19 Q1011=
201906161600 METAR LRTR 161600Z 17012KT 9999 -TSRA BKN040CB 27/17 Q1011=
201906161630 METAR LRTR 161630Z 21006KT 190V250 9999 FEW020 BKN040CB 29/17
                        Q1011 RETS TEMPO SHRA=
201906161700 METAR LRTR 161700Z 09007G17KT 9999 SCT045CB 26/18 Q1012 NOSIG=
201906161730 METAR LRTR 161730Z 10003KT 070V140 9999 FEW025 SCT045CB 26/19
                        Q1012 NOSIG=
201906161800 METAR LRTR 161800Z VRB02KT 9999 SCT045CB 26/19 Q1012 TEMPO
                        TSRA=
201906161830 METAR LRTR 161830Z 09005KT 9999 SCT040CB 25/20 Q1012 TEMPO
                        TSRA=
201906161900 METAR LRTR 161900Z 33013KT 9999 SCT040CB 25/19 Q1013 TEMPO
                        TSRA=
201906161930 METAR LRTR 161930Z 34013KT 9999 SCT050CB 23/17 Q1013 TEMPO
                        TS=
201906162000 METAR LRTR 162000Z 36013KT 9999 SCT050CB 22/17 Q1013 TEMPO
                        TS=
201906162030 METAR LRTR 162030Z 36012KT 9999 SCT050CB 22/18 Q1013 TEMPO
                        TS=
201906162100 METAR LRTR 162100Z 03014KT 9999 VCTS SCT050CB 23/19 Q1014
                        TEMPO TSRA=
201906162130 METAR LRTR 162130Z 03019KT 9999 SCT050CB 21/19 Q1014 TEMPO
                        TS=
201906162200 METAR LRTR 162200Z 03017KT 9999 FEW050CB 21/19 Q1014 NOSIG=
201906162230 METAR LRTR 162230Z 03013KT 9999 FEW050CB 21/19 Q1013 NOSIG=
201906162300 METAR LRTR 162300Z 06010KT 9999 FEW050CB 21/19 Q1013 NOSIG=
201906162330 METAR LRTR 162330Z 11011KT 9999 FEW050CB 21/18 Q1013 NOSIG=
201906170000 METAR LRTR 170000Z 11011KT CAVOK 20/19 Q1013 NOSIG=
201906170030 METAR LRTR 170030Z 10009KT CAVOK 20/19 Q1014 NOSIG=
201906170100 METAR LRTR 170100Z 27010KT CAVOK 20/19 Q1015 NOSIG=
201906170130 METAR LRTR 170130Z 28010KT CAVOK 20/19 Q1015 NOSIG=
201906170200 METAR LRTR 170200Z 29009KT CAVOK 19/18 Q1015 NOSIG=
201906170230 METAR LRTR 170230Z 31008KT CAVOK 19/18 Q1015 NOSIG=
201906170300 METAR LRTR 170300Z 34007KT CAVOK 19/18 Q1015 NOSIG=
201906170330 METAR LRTR 170330Z 34006KT CAVOK 19/19 Q1015 NOSIG=
201906170400 METAR LRTR 170400Z 35006KT CAVOK 19/19 Q1015 NOSIG=
201906170430 METAR LRTR 170430Z 02007KT 9999 FEW045 19/19 Q1015 NOSIG=
201906170500 METAR LRTR 170500Z 03007KT 9999 FEW045 20/19 Q1015 NOSIG=
201906170530 METAR LRTR 170530Z 07004KT CAVOK 20/19 Q1015 NOSIG=
201906170600 METAR LRTR 170600Z 10003KT CAVOK 21/20 Q1015 NOSIG=
201906170630 METAR LRTR 170630Z 13004KT CAVOK 21/20 Q1016 NOSIG=
201906170700 METAR LRTR 170700Z 18004KT 9999 FEW020 22/20 Q1016 NOSIG=
201906170730 METAR LRTR 170730Z 18006KT 9999 FEW020 22/20 Q1016 NOSIG=
201906170800 METAR LRTR 170800Z 19006KT 160V220 9999 FEW023 23/20 Q1016
                        NOSIG=
201906170830 METAR LRTR 170830Z 21006KT 160V240 9999 FEW025 24/20 Q1016
                        NOSIG=
201906170900 METAR LRTR 170900Z 22005KT 9999 FEW025 25/21 Q1016 NOSIG=
201906170930 METAR LRTR 170930Z 24004KT 200V290 9999 SCT024 25/21 Q1017
                        NOSIG=
201906171000 METAR LRTR 171000Z 27005KT 9999 SCT025 26/21 Q1017 NOSIG=
201906171030 METAR LRTR 171030Z 28009KT 9999 FEW030 FEW040CB 26/22 Q1016
                        NOSIG=
201906171100 METAR LRTR 171100Z 27007KT 9999 FEW030 25/21 Q1016 NOSIG=
201906171130 METAR LRTR 171130Z 27007KT 9999 FEW030 26/21 Q1016 NOSIG=
201906171200 METAR LRTR 171200Z 26008KT 230V300 9999 SCT030 27/21 Q1016
                        NOSIG=
201906171230 METAR LRTR 171230Z VRB05KT 9999 SCT032 27/21 Q1016 NOSIG=
201906171300 METAR LRTR 171300Z 31005KT 270V350 9999 SCT035 28/19 Q1016
                        NOSIG=
201906171330 METAR LRTR 171330Z 32006KT 270V350 9999 SCT034 28/20 Q1015
                        NOSIG=
201906171400 METAR LRTR 171400Z 32006KT 280V010 9999 SCT035 28/20 Q1015
                        NOSIG=
201906171430 METAR LRTR 171430Z 32006KT 290V360 9999 SCT037 27/19 Q1015
                        NOSIG=
201906171500 METAR LRTR 171500Z 35004KT 9999 FEW040 FEW050CB 28/18 Q1015
                        NOSIG=
201906171530 METAR LRTR 171530Z 36004KT 330V030 9999 FEW040 FEW050CB 27/21
                        Q1015 NOSIG=
201906171600 METAR LRTR 171600Z 01004KT 9999 FEW045 FEW050CB 27/19 Q1015
                        NOSIG=
201906171630 METAR LRTR 171630Z 02004KT 340V040 9999 FEW050CB 27/20 Q1015=
201906171700 METAR LRTR 171700Z 11013KT 9999 VCTS FEW037CB 24/18 Q1015=
201906171730 METAR LRTR 171730Z 10010KT 9999 VCTS FEW038CB 23/18 Q1015=
201906171800 METAR COR LRTR 171800Z 10004KT 070V130 9999 VCTS FEW033CB
                        23/19 Q1015=
201906171830 METAR LRTR 171830Z 18003KT 130V210 9999 FEW035CB 22/20 Q1015=
201906171900 METAR LRTR 171900Z 09003KT 9999 FEW038CB 21/19 Q1016=
201906171930 METAR LRTR 171930Z 11006KT 9999 -SHRA FEW040CB 20/19 Q1016
                        RESHRA R11/190095=
201906172000 METAR LRTR 172000Z 11005KT 9999 FEW040CB 19/19 Q1016 R11/190095=
201906172030 METAR LRTR 172030Z 08006KT 9999 FEW040CB 19/19 Q1016 R11/190095=
201906172100 METAR LRTR 172100Z 06005KT 9999 FEW040CB 18/18 Q1016 R11/190095=
201906172130 METAR LRTR 172130Z 07003KT CAVOK 18/18 Q1016 R11/190095=
201906172200 METAR LRTR 172200Z VRB01KT CAVOK 18/18 Q1016 R11/190095=
201906172230 METAR LRTR 172230Z 31004KT CAVOK 18/18 Q1016 R11/190095=
201906172300 METAR LRTR 172300Z 34003KT 320V030 CAVOK 17/17 Q1016 R11/190095=
201906172330 METAR LRTR 172330Z 05004KT CAVOK 17/17 Q1015 R11/190095=
201906180000 METAR LRTR 180000Z 05004KT CAVOK 17/17 Q1015 R11/190095=
201906180030 METAR LRTR 180030Z 08003KT CAVOK 17/16 Q1015 R11/190095=
201906180100 METAR COR LRTR 180100Z VRB01KT CAVOK 17/17 Q1015 R11/190095=
201906180130 METAR LRTR 180130Z 09005KT CAVOK 16/16 Q1015 R11/190095=
201906180200 METAR LRTR 180200Z 10006KT CAVOK 17/17 Q1015 R11/190095=
201906180230 METAR LRTR 180230Z 09005KT CAVOK 16/16 Q1015 R11/190095=
201906180300 METAR LRTR 180300Z 11004KT CAVOK 16/16 Q1016 R11/190095=
201906180330 METAR LRTR 180330Z 09001KT CAVOK 17/17 Q1016 R11/190095=
201906180400 METAR LRTR 180400Z 11008KT 9999 FEW003 18/18 Q1017 R11/190095=
201906180430 METAR LRTR 180430Z 09006KT 9999 FEW004 18/18 Q1017 R11/190095=
201906180500 METAR LRTR 180500Z 10008KT CAVOK 19/19 Q1017 R11/190095=
201906180530 METAR LRTR 180530Z 13006KT 9999 FEW035 20/19 Q1017 R11/190095=
201906180600 METAR LRTR 180600Z 16005KT 9999 FEW035 21/19 Q1017 R11/CLRD//=
201906180630 METAR COR LRTR 180630Z 15006KT 9999 FEW040 21/19 Q1017=
201906180700 METAR LRTR 180700Z 11004KT 9999 FEW040 21/19 Q1017=
201906180730 METAR LRTR 180730Z VRB01KT CAVOK 22/19 Q1017=
201906180800 METAR COR LRTR 180800Z 18003KT 130V220 CAVOK 22/20 Q1017=
201906180830 METAR LRTR 180830Z 12005KT CAVOK 23/20 Q1017=
201906180900 METAR LRTR 180900Z 13004KT 090V160 CAVOK 23/20 Q1017=
201906180930 METAR LRTR 180930Z 12004KT 080V160 CAVOK 24/19 Q1017=
201906181000 METAR LRTR 181000Z 10006KT 070V140 9999 FEW025 FEW035CB 26/20
                        Q1017=
201906181030 METAR LRTR 181030Z VRB02KT 9999 FEW025 FEW035CB 26/20 Q1017=
201906181100 METAR COR LRTR 181100Z VRB02KT 9999 FEW030 FEW035CB 27/20
                        Q1016=
201906181130 METAR COR LRTR 181130Z 06004KT 010V110 9999 FEW030 FEW035CB
                        27/20 Q1016=
201906181200 METAR COR LRTR 181200Z 07004KT 9999 FEW030 FEW035CB 27/19
                        Q1016=
201906181230 METAR LRTR 181230Z 28003KT 180V350 9999 FEW030 FEW035CB 29/19
                        Q1015=
201906181300 METAR LRTR 181300Z VRB01KT 9999 FEW040 29/19 Q1015=
201906181330 METAR LRTR 181330Z 01003KT 300V060 9999 SCT040 28/19 Q1015=
201906181400 METAR LRTR 181400Z VRB01KT 9999 SCT045 29/20 Q1015=
201906181430 METAR COR LRTR 181430Z 07004KT 020V130 9999 FEW040CB 28/20
                        Q1014=
201906181500 METAR LRTR 181500Z VRB02KT 9999 FEW040CB 29/17 Q1014=
201906181530 METAR LRTR 181530Z 03004KT 360V070 9999 FEW040CB 29/18 Q1014=
201906181600 METAR LRTR 181600Z 06003KT 020V100 9999 FEW040CB 28/18 Q1014=
201906181630 METAR LRTR 181630Z 06004KT 9999 FEW045CB 27/20 Q1014 TEMPO
                        TS=
201906181700 METAR LRTR 181700Z 05004KT 9999 FEW045CB 26/22 Q1014 NOSIG=
201906181730 METAR LRTR 181730Z 06003KT 9999 FEW045CB 25/21 Q1014 NOSIG=
201906181800 METAR LRTR 181800Z 07005KT 9999 FEW050CB 24/21 Q1014 NOSIG=
201906181830 METAR LRTR 181830Z 05004KT 9999 FEW050CB 23/21 Q1014 NOSIG=
201906181900 METAR LRTR 181900Z 06006KT 9999 FEW050CB 22/20 Q1014 NOSIG=
201906181930 METAR LRTR 181930Z 03004KT CAVOK 21/20 Q1014 NOSIG=
201906182000 METAR LRTR 182000Z 07004KT CAVOK 21/20 Q1015 NOSIG=
201906182030 METAR LRTR 182030Z 02004KT CAVOK 21/20 Q1015 NOSIG=
201906182100 METAR LRTR 182100Z 00000KT CAVOK 22/20 Q1015 NOSIG=
201906182130 METAR LRTR 182130Z 00000KT CAVOK 21/20 Q1015 NOSIG=
201906182200 METAR LRTR 182200Z 00000KT CAVOK 20/20 Q1015 NOSIG=
201906182230 METAR LRTR 182230Z 20006KT 170V230 CAVOK 21/20 Q1015 NOSIG=
201906182300 METAR LRTR 182300Z 29006KT CAVOK 20/20 Q1015 NOSIG=
201906182330 METAR LRTR 182330Z 30007KT CAVOK 20/20 Q1015 NOSIG=
201906190000 METAR LRTR 190000Z 31007KT CAVOK 19/19 Q1014 NOSIG=
201906190030 METAR LRTR 190030Z 31006KT CAVOK 19/19 Q1014 NOSIG=
201906190100 METAR LRTR 190100Z 35005KT CAVOK 19/19 Q1014=
201906190130 METAR LRTR 190130Z 05004KT CAVOK 18/18 Q1014 NOSIG=
201906190200 METAR LRTR 190200Z 11004KT 7000 NSC 17/17 Q1014 TEMPO 5000
                        BR=
201906190230 METAR LRTR 190230Z 10006KT 6000 MIFG NSC 18/18 Q1014 NOSIG=
201906190300 METAR LRTR 190300Z 10003KT 6000 MIFG NSC 17/17 Q1014 NOSIG=
201906190330 METAR LRTR 190330Z 15004KT 8000 MIFG NSC 18/18 Q1014 NOSIG=
201906190400 METAR LRTR 190400Z 10004KT 8000 BR NSC 19/19 Q1015 NOSIG=
201906190430 METAR LRTR 190430Z 10004KT CAVOK 20/20 Q1014 NOSIG=
201906190500 METAR LRTR 190500Z 10005KT CAVOK 21/21 Q1015 NOSIG=
201906190530 METAR LRTR 190530Z 11006KT CAVOK 21/21 Q1015 NOSIG=
201906190600 METAR LRTR 190600Z 13004KT CAVOK 23/22 Q1015 NOSIG=
201906190630 METAR LRTR 190630Z 13004KT CAVOK 24/22 Q1014 NOSIG=
201906190700 METAR LRTR 190700Z 11005KT 090V150 CAVOK 25/22 Q1014 NOSIG=
201906190730 METAR LRTR 190730Z 13004KT 080V150 CAVOK 26/21 Q1014 NOSIG=
201906190800 METAR LRTR 190800Z 11003KT 020V190 9999 FEW016 27/21 Q1014
                        NOSIG=
201906190830 METAR LRTR 190830Z 00000KT 9999 FEW024 27/21 Q1014 NOSIG=
201906190900 METAR LRTR 190900Z VRB03KT 9999 FEW025 28/20 Q1014 NOSIG=
201906190930 METAR LRTR 190930Z 13005KT 090V170 9999 FEW032TCU 28/22 Q1014
                        NOSIG=
201906191000 METAR LRTR 191000Z VRB03KT 9999 FEW035CB 29/20 Q1014 NOSIG=
201906191030 METAR LRTR 191030Z 18005KT 120V230 9999 FEW040CB 29/20 Q1013
                        NOSIG=
201906191100 METAR LRTR 191100Z VRB03KT 9999 FEW040CB SCT043 29/20 Q1013
                        NOSIG=
201906191130 METAR LRTR 191130Z 24004KT 180V280 9999 VCTS VCSH FEW044CB
                        SCT047 28/19 Q1013 TEMPO TSRA=
201906191200 METAR LRTR 191200Z 20004KT 160V240 9999 -SHRA FEW040CB 27/21
                        Q1013 RETS R11/29//95 NOSIG=
201906191230 METAR LRTR 191230Z 18004KT 140V200 9999 -SHRA FEW040CB 27/21
                        Q1012 R11/29//95 NOSIG=
201906191300 METAR LRTR 191300Z 20005KT 160V240 9999 VCTS FEW035 SCT040CB
                        29/19 Q1012 R11/29//95 TEMPO TSRA=
201906191330 METAR LRTR 191330Z 15004KT 100V190 9999 TS SCT037CB 29/19
                        Q1012 R11/CLRD// TEMPO SHRA=
201906191400 METAR LRTR 191400Z 16007KT 140V220 9999 VCTS SCT037CB 26/20
                        Q1012 RETS TEMPO TSRA=
201906191430 METAR COR LRTR 191430Z 17007KT 9999 VCTS SCT035CB 25/20 Q1012
                        TEMPO TSRA=
201906191500 METAR LRTR 191500Z 20011KT 9999 SCT040CB 23/21 Q1012 TEMPO
                        TS=
201906191530 METAR LRTR 191530Z 20008KT 9999 -TSRA SCT040CB 22/21 Q1012
                        NOSIG=
201906191600 METAR LRTR 191600Z 12003KT 050V190 9999 -TSRA SCT040CB 22/21
                        Q1012=
201906191630 METAR COR LRTR 191630Z 05006KT 9999 -SHRA SCT040CB 21/21
                        Q1012 RETS=
201906191700 METAR LRTR 191700Z VRB02KT 9999 -SHRA FEW045CB 21/21 Q1012=
201906191730 METAR LRTR 191730Z 06003KT 360V120 9999 -SHRA VCTS SCT050CB
                        22/22 Q1012 R11/190095=
201906191800 METAR LRTR 191800Z 07004KT 9999 FEW050CB 22/22 Q1012 R11/190095=
201906191830 METAR LRTR 191830Z 09004KT 9999 FEW050CB 22/22 Q1012 R11/190095=
201906191900 METAR LRTR 191900Z 06003KT 9999 FEW040CB 21/21 Q1012 R11/190095=
201906191930 METAR LRTR 191930Z 08005KT CAVOK 21/21 Q1012 R11/190095=
201906192000 METAR LRTR 192000Z 10004KT CAVOK 21/21 Q1012 R11/190095=
201906192030 METAR LRTR 192030Z 07006KT CAVOK 20/20 Q1012 R11/190095=
201906192100 METAR LRTR 192100Z 06006KT CAVOK 20/20 Q1012 R11/190095=
201906192130 METAR COR LRTR 192130Z 09005KT CAVOK 19/19 Q1012 R11/CLRD//=
201906192200 METAR LRTR 192200Z 09005KT CAVOK 19/19 Q1012=
201906192230 METAR LRTR 192230Z 33004KT 320V020 9999 FEW045 19/19 Q1012=
201906192300 METAR LRTR 192300Z 05003KT 9999 FEW044 FEW050CB 19/19 Q1012=
201906192330 METAR COR LRTR 192330Z 07004KT 9999 VCTS FEW045CB SCT048
                        19/19 Q1012=
201906200000 METAR LRTR 200000Z VRB01KT 9999 VCTS FEW045CB BKN048 19/19
                        Q1012=
201906200030 METAR COR LRTR 200030Z 28002KT 9999 -TSRA VCTS FEW012 SCT040CB
                        BKN045 20/20 Q1013=
201906200100 METAR COR LRTR 200100Z 34004KT 310V030 7000 TSRA BKN040CB
                        20/20 Q1012 R11/290094=
201906200130 METAR COR LRTR 200130Z 02006KT 010V070 8000 -TSRA SCT040CB
                        20/20 Q1012 R11/290094=
201906200200 METAR COR LRTR 200200Z 08005KT 4000 +SHRA BKN040CB 20/20
                        Q1011 RETS R11/290094=
201906200230 METAR LRTR 200230Z 10005KT 080V160 9999 -SHRA VCTS BKN042CB
                        20/20 Q1011 R11/290094=
201906200300 METAR LRTR 200300Z 13009KT 6000 TSRA FEW008 BKN042CB 19/19
                        Q1012 R11/290094=
201906200330 METAR LRTR 200330Z 10006KT 9999 FEW010 SCT045CB 19/19 Q1012
                        RETSRA R11/290094=
201906200400 METAR COR LRTR 200400Z 10004KT 9999 FEW045CB 19/19 Q1012
                        R11/290094=
201906200430 METAR LRTR 200430Z 11006KT 9999 FEW045CB 20/20 Q1012 R11/290095=
201906200500 METAR LRTR 200500Z 11006KT 9999 FEW050CB 20/20 Q1012 R11/290095=
201906200530 METAR LRTR 200530Z 11008KT 9999 FEW050CB 20/20 Q1012 R11/290095=
201906200600 METAR LRTR 200600Z 11009KT 9999 FEW050CB 22/22 Q1012 R11/190095=
201906200630 METAR LRTR 200630Z 11009KT 9999 FEW040 22/21 Q1013 R11/190095=
201906200700 METAR LRTR 200700Z 12008KT 9999 FEW040 24/22 Q1013 R11/190095=
201906200730 METAR LRTR 200730Z 14007KT 110V170 9999 FEW040 25/22 Q1013
                        R11/190095=
201906200800 METAR LRTR 200800Z 18006KT 150V210 CAVOK 26/21 Q1013 R11/190095=
201906200830 METAR LRTR 200830Z 17006KT 140V200 CAVOK 26/22 Q1013 R11/190095=
201906200900 METAR LRTR 200900Z 15007KT CAVOK 27/20 Q1012 R11/190095=
201906200930 METAR LRTR 200930Z 18009KT CAVOK 28/18 Q1013 R11/190095=
201906201000 METAR LRTR 201000Z 18011KT 9999 FEW036 28/20 Q1012 R11/CLRD//=
201906201030 METAR LRTR 201030Z 16011KT 9999 FEW038TCU 29/18 Q1012=
201906201100 METAR LRTR 201100Z 18011KT 9999 FEW042TCU 29/18 Q1012=
201906201130 METAR LRTR 201130Z 28010KT 9999 VCTS SCT040CB 24/18 Q1013=
201906201200 METAR LRTR 201200Z 27010KT 9999 VCTS SCT042CB 24/18 Q1012=
201906201230 METAR COR LRTR 201230Z 27008KT 9999 VCTS SCT042CB 23/17 Q1012=
201906201300 METAR LRTR 201300Z 23005KT 9999 VCTS SCT042CB 23/16 Q1012=
201906201330 METAR LRTR 201330Z 21007KT 9999 VCTS SCT042CB 22/16 Q1012=
201906201400 METAR LRTR 201400Z 23004KT 180V310 9999 -SHRA VCTS SCT042CB
                        22/19 Q1012 R11/190095=
201906201430 METAR LRTR 201430Z 00000KT 9999 -SHRA SCT042CB 21/20 Q1012
                        R11/290095=
201906201500 METAR LRTR 201500Z 10004KT 9999 FEW050CB 22/20 Q1011 R11/290095=
201906201530 METAR LRTR 201530Z VRB01KT 9999 FEW050CB 23/20 Q1011 R11/290095=
201906201600 METAR LRTR 201600Z 03005KT 350V050 9999 FEW050CB 23/21 Q1012
                        R11/190095=
201906201630 METAR LRTR 201630Z VRB02KT 9999 FEW050CB 24/20 Q1012 R11/190095
                        NOSIG=
201906201700 METAR LRTR 201700Z VRB01KT 9999 FEW050CB 23/22 Q1012 R11/190095
                        NOSIG=
201906201730 METAR LRTR 201730Z VRB02KT 9999 FEW050CB 22/21 Q1012 R11/190095
                        NOSIG=
201906201800 METAR LRTR 201800Z 20004KT 9999 FEW050CB 22/21 Q1012 R11/190095
                        NOSIG=
201906201830 METAR LRTR 201830Z 16003KT CAVOK 21/21 Q1012 R11/190095 NOSIG=
201906201900 METAR LRTR 201900Z 00000KT CAVOK 20/20 Q1012 R11/190095 NOSIG=
201906201930 METAR LRTR 201930Z 01005KT CAVOK 19/19 Q1013 R11/190095 NOSIG=
201906202000 METAR LRTR 202000Z 07002KT CAVOK 19/19 Q1013 R11/190095 NOSIG=
201906202030 METAR LRTR 202030Z 05004KT CAVOK 19/19 Q1013 R11/190095 NOSIG=
201906202100 METAR LRTR 202100Z 06004KT CAVOK 19/19 Q1013 R11/190095 NOSIG=
201906202130 METAR LRTR 202130Z 09006KT CAVOK 19/19 Q1013 R11/190095 NOSIG=
201906202200 METAR LRTR 202200Z 09004KT CAVOK 19/19 Q1013 R11/190095 NOSIG=
201906202230 METAR LRTR 202230Z 10006KT CAVOK 18/18 Q1013 R11/190095 NOSIG=
201906202300 METAR LRTR 202300Z 11005KT CAVOK 18/18 Q1013 R11/190095 NOSIG=
201906202330 METAR LRTR 202330Z 10005KT CAVOK 18/18 Q1013 R11/190095 NOSIG=
201906210000 METAR LRTR 210000Z 14007KT CAVOK 18/18 Q1013 R11/190095 NOSIG=
201906210030 METAR LRTR 210030Z 11006KT CAVOK 17/17 Q1014 R11/190095 NOSIG=
201906210100 METAR LRTR 210100Z 12005KT CAVOK 17/17 Q1014 R11/190095 NOSIG=
201906210130 METAR LRTR 210130Z 08004KT CAVOK 17/16 Q1014 R11/190095 NOSIG=
201906210200 METAR LRTR 210200Z 11005KT CAVOK 16/16 Q1014 R11/190095 NOSIG=
201906210230 METAR LRTR 210230Z 10005KT 9999 MIFG NSC 16/16 Q1014 R11/190095
                        NOSIG=
201906210300 METAR LRTR 210300Z 11005KT 9999 MIFG NSC 16/16 Q1014 NOSIG=
201906210330 METAR LRTR 210330Z 10003KT 9999 MIFG NSC 16/16 Q1014 NOSIG=
201906210400 METAR LRTR 210400Z 10004KT 9999 MIFG NSC 17/17 Q1015 NOSIG=
201906210430 METAR LRTR 210430Z 11005KT CAVOK 18/18 Q1015 NOSIG=
201906210500 METAR LRTR 210500Z 13004KT CAVOK 19/19 Q1015 NOSIG=
201906210530 METAR LRTR 210530Z 13005KT CAVOK 20/20 Q1015 NOSIG=
201906210600 METAR LRTR 210600Z 14005KT 100V170 CAVOK 21/20 Q1015 NOSIG=
201906210630 METAR LRTR 210630Z 13005KT CAVOK 21/20 Q1015 NOSIG=
201906210700 METAR LRTR 210700Z 13006KT 090V160 CAVOK 22/19 Q1016 NOSIG=
201906210730 METAR LRTR 210730Z 14004KT 090V180 CAVOK 23/21 Q1015 NOSIG=
201906210800 METAR LRTR 210800Z 16003KT 110V210 CAVOK 24/20 Q1016 NOSIG=
201906210830 METAR LRTR 210830Z VRB03KT CAVOK 25/21 Q1016 NOSIG=
201906210900 METAR LRTR 210900Z VRB02KT 9999 FEW020 26/21 Q1016 NOSIG=
201906210930 METAR LRTR 210930Z 20003KT 120V280 9999 FEW025 26/20 Q1016
                        NOSIG=
201906211000 METAR LRTR 211000Z VRB02KT 9999 FEW030 FEW050CB 28/19 Q1015
                        NOSIG=
201906211030 METAR LRTR 211030Z VRB03KT 9999 FEW030 FEW050CB 28/20 Q1015
                        NOSIG=
201906211100 METAR LRTR 211100Z 32006KT 280V350 9999 FEW035 FEW050CB 28/20
                        Q1015 NOSIG=
201906211130 METAR COR LRTR 211130Z 29006KT 250V340 9999 FEW040 FEW050CB
                        29/19 Q1015 NOSIG=
201906211200 METAR LRTR 211200Z 29005KT 230V340 9999 FEW040 FEW050CB 29/19
                        Q1014 NOSIG=
201906211230 METAR LRTR 211230Z 31006KT 270V330 9999 FEW045 FEW050CB 28/18
                        Q1014 NOSIG=
201906211300 METAR LRTR 211300Z 32004KT 270V040 9999 SCT045 FEW050CB 28/19
                        Q1014 NOSIG=
201906211330 METAR LRTR 211330Z VRB04KT 9999 SCT045 FEW050CB 30/19 Q1014
                        NOSIG=
201906211400 METAR LRTR 211400Z 30006KT 9999 SCT045 FEW050CB 28/19 Q1014
                        TEMPO TS=
201906211430 METAR LRTR 211430Z 29006KT 260V330 9999 TS VCSH FEW040 SCT045CB
                        28/20 Q1014 TEMPO TSRA=
201906211500 METAR LRTR 211500Z 27008KT 8000 TSRA SCT045CB 25/21 Q1014
                        NOSIG=
201906211530 METAR LRTR 211530Z 26009KT 9999 VCTS SCT045CB 23/19 Q1014
                        RESHRA NOSIG=
201906211600 METAR LRTR 211600Z 32003KT 9999 -SHRA VCTS SCT045CB 23/20
                        Q1014=
201906211630 METAR LRTR 211630Z 32004KT 9999 -SHRA VCTS SCT045CB 23/20
                        Q1015=
201906211700 METAR LRTR 211700Z 33006KT 280V360 9999 VCTS SCT045CB 24/21
                        Q1015=
201906211730 METAR LRTR 211730Z 08005KT 9999 VCTS SCT045CB 24/21 Q1015=
201906211800 METAR LRTR 211800Z 34014KT 9999 VCTS SCT029CB 22/18 Q1016=
201906211830 METAR LRTR 211830Z 02010KT 9999 FEW034CB 21/19 Q1016=
201906211900 METAR LRTR 211900Z 06007KT 9999 FEW040CB 21/19 Q1016=
201906211930 METAR LRTR 211930Z 09007KT 9999 FEW045CB 20/19 Q1015=
201906212000 METAR LRTR 212000Z 12003KT 9999 FEW045CB 20/19 Q1016=
201906212030 METAR LRTR 212030Z 10004KT 9999 FEW045CB 20/20 Q1016=
201906212100 METAR LRTR 212100Z 11004KT 070V140 CAVOK 20/19 Q1016=
201906212130 METAR LRTR 212130Z VRB01KT CAVOK 20/19 Q1016=
201906212200 METAR LRTR 212200Z 08003KT CAVOK 19/19 Q1016=
201906212230 METAR LRTR 212230Z 06003KT CAVOK 18/18 Q1016=
201906212300 METAR LRTR 212300Z 04002KT CAVOK 18/18 Q1016=
201906212330 METAR LRTR 212330Z 07003KT CAVOK 18/18 Q1016=
201906220000 METAR LRTR 220000Z 05004KT CAVOK 17/17 Q1016=
201906220030 METAR LRTR 220030Z 08004KT CAVOK 17/17 Q1016=
201906220100 METAR LRTR 220100Z 06004KT CAVOK 17/17 Q1016=
201906220130 METAR LRTR 220130Z VRB01KT CAVOK 16/16 Q1016=
201906220200 METAR COR LRTR 220200Z 04004KT CAVOK 16/16 Q1016=
201906220230 METAR LRTR 220230Z 04003KT 8000 NSC 17/17 Q1016=
201906220300 METAR LRTR 220300Z 35002KT CAVOK 17/17 Q1017=
201906220330 METAR LRTR 220330Z 02003KT CAVOK 17/17 Q1017=
201906220400 METAR LRTR 220400Z VRB01KT 8000 NSC 19/19 Q1017=
201906220430 METAR LRTR 220430Z 00000KT CAVOK 19/19 Q1017=
201906220500 METAR COR LRTR 220500Z 08002KT CAVOK 21/21 Q1017=
201906220530 METAR LRTR 220530Z 11005KT CAVOK 22/21 Q1017=
201906220600 METAR LRTR 220600Z 11005KT 080V140 CAVOK 23/21 Q1017=
201906220630 METAR COR LRTR 220630Z 09006KT CAVOK 24/21 Q1017=
201906220700 METAR LRTR 220700Z 08004KT 030V110 CAVOK 25/20 Q1017=
201906220730 METAR LRTR 220730Z 00000KT CAVOK 26/20 Q1017=
201906220800 METAR LRTR 220800Z VRB02KT CAVOK 26/19 Q1017=
201906220830 METAR LRTR 220830Z VRB02KT CAVOK 27/18 Q1017=
201906220900 METAR LRTR 220900Z VRB02KT 9999 FEW030 28/19 Q1017=
201906220930 METAR LRTR 220930Z VRB02KT 9999 FEW035 28/18 Q1017=
201906221000 METAR LRTR 221000Z 32003KT 280V360 9999 FEW040TCU 29/17 Q1017=
201906221030 METAR COR LRTR 221030Z VRB03KT 9999 SCT042 29/18 Q1017=
201906221100 METAR LRTR 221100Z 34004KT 280V060 9999 FEW040CB SCT045 29/18
                        Q1017=
201906221130 METAR COR LRTR 221130Z 33003KT 250V050 9999 FEW040CB SCT045CB
                        29/19 Q1017=
201906221200 METAR LRTR 221200Z VRB02KT 9999 FEW048 29/18 Q1016=
201906221230 METAR LRTR 221230Z 00000KT 9999 SCT048 29/18 Q1016=
201906221300 METAR LRTR 221300Z 32005KT 270V360 9999 SCT048 29/18 Q1016=
201906221330 METAR LRTR 221330Z VRB02KT 9999 SCT048 29/19 Q1015=
201906221400 METAR LRTR 221400Z 29004KT 200V330 9999 SCT048 29/18 Q1015=
201906221430 METAR LRTR 221430Z 06004KT 030V100 CAVOK 29/19 Q1015=
201906221500 METAR LRTR 221500Z 06003KT 010V090 CAVOK 29/19 Q1015=
201906221530 METAR LRTR 221530Z 04004KT CAVOK 28/19 Q1014=
201906221600 METAR LRTR 221600Z 04003KT 010V080 CAVOK 29/18 Q1014=
201906221630 METAR LRTR 221630Z 03005KT CAVOK 28/20 Q1014 NOSIG=
201906221700 METAR LRTR 221700Z 03004KT CAVOK 28/21 Q1014 NOSIG=
201906221730 METAR LRTR 221730Z 05004KT CAVOK 26/23 Q1014 NOSIG=
201906221800 METAR LRTR 221800Z 06003KT CAVOK 24/22 Q1014 NOSIG=
201906221830 METAR LRTR 221830Z 02003KT CAVOK 23/22 Q1014 NOSIG=
201906221900 METAR LRTR 221900Z 04004KT CAVOK 22/21 Q1014 NOSIG=
201906221930 METAR LRTR 221930Z 05004KT CAVOK 21/21 Q1014 NOSIG=
201906222000 METAR LRTR 222000Z 06007KT CAVOK 21/20 Q1014 NOSIG=
201906222030 METAR LRTR 222030Z 07006KT CAVOK 21/21 Q1014 NOSIG=
201906222100 METAR LRTR 222100Z 08005KT CAVOK 20/20 Q1014 NOSIG=
201906222130 METAR LRTR 222130Z 09004KT CAVOK 20/20 Q1014 NOSIG=
201906222200 METAR LRTR 222200Z 27001KT CAVOK 20/20 Q1015 NOSIG=
201906222230 METAR LRTR 222230Z 30006KT 9999 FEW050CB 20/20 Q1015 TEMPO
                        TS=
201906222300 METAR LRTR 222300Z 30011KT 9999 FEW045CB 20/17 Q1016 WS RWY11
                        TEMPO TS=
201906222330 METAR LRTR 222330Z 29005KT 9999 FEW045CB 21/17 Q1015 WS RWY11
                        TEMPO TSRA=
201906230000 METAR LRTR 230000Z 07003KT 030V100 9999 FEW045CB 20/18 Q1014
                        WS RWY11 TEMPO SHRA=
201906230030 METAR LRTR 230030Z 11006KT 9999 -SHRA FEW045CB 21/21 Q1013
                        WS RWY11 NOSIG=
201906230100 METAR LRTR 230100Z 08008KT 9999 -SHRA FEW045CB 22/22 Q1013
                        NOSIG=
201906230130 METAR LRTR 230130Z 10009KT 9999 FEW050CB 22/22 Q1014 NOSIG=
201906230200 METAR LRTR 230200Z 34004KT 300V060 CAVOK 20/17 Q1014 NOSIG=
201906230230 METAR LRTR 230230Z 05005KT 010V070 CAVOK 20/18 Q1014 NOSIG=
201906230300 METAR LRTR 230300Z 09004KT 9999 FEW050CB 19/19 Q1014 NOSIG=
201906230330 METAR LRTR 230330Z 24003KT 9999 FEW050CB 19/19 Q1014 NOSIG=
201906230400 METAR LRTR 230400Z 00000KT 9999 -SHRA FEW050CB 19/19 Q1014
                        NOSIG=
201906230430 METAR LRTR 230430Z 06006KT 9999 -SHRA FEW050CB 19/19 Q1013
                        NOSIG=
201906230500 METAR LRTR 230500Z 09008KT CAVOK 20/20 Q1013 NOSIG=
201906230530 METAR LRTR 230530Z 29006KT CAVOK 21/20 Q1014 NOSIG=
201906230600 METAR LRTR 230600Z 04003KT 360V070 9999 -SHRA FEW055CB 20/20
                        Q1014 NOSIG=
201906230630 METAR LRTR 230630Z 10004KT 9999 FEW055CB 21/21 Q1014 NOSIG=
201906230700 METAR LRTR 230700Z 07005KT 9999 FEW060CB 22/21 Q1014 NOSIG=
201906230730 METAR LRTR 230730Z 07008KT 9999 FEW060CB 24/21 Q1014 NOSIG=
201906230800 METAR LRTR 230800Z 08007KT 050V110 9999 FEW060CB 25/21 Q1013
                        NOSIG=
201906230830 METAR LRTR 230830Z 07006KT 9999 FEW018 FEW060CB 26/21 Q1014
                        NOSIG=
201906230900 METAR LRTR 230900Z 01007KT 9999 FEW020 FEW055CB 26/20 Q1014
                        NOSIG=
201906230930 METAR LRTR 230930Z 01007KT 330V040 9999 FEW025 FEW050CB 27/20
                        Q1014 TEMPO TS=
201906231000 METAR LRTR 231000Z 36007KT 330V040 9999 FEW050CB 27/21 Q1013
                        TEMPO TS=
201906231030 METAR LRTR 231030Z 06006KT 010V080 9999 FEW050CB 28/20 Q1013
                        NOSIG=
201906231100 METAR LRTR 231100Z 07008KT 040V120 9999 FEW050CB 29/21 Q1013
                        NOSIG=
201906231130 METAR LRTR 231130Z 07006KT 9999 FEW050CB 28/21 Q1013 NOSIG=
201906231200 METAR LRTR 231200Z 01006KT 9999 FEW040 FEW050CB 28/21 Q1013
                        NOSIG=
201906231230 METAR LRTR 231230Z 36008KT 9999 FEW045 FEW050CB 28/21 Q1013
                        NOSIG=
201906231300 METAR LRTR 231300Z 02010KT 9999 FEW050CB 28/22 Q1012 NOSIG=
201906231330 METAR LRTR 231330Z 02011KT 9999 VCTS FEW050CB 29/21 Q1012
                        TEMPO TS=
201906231400 METAR LRTR 231400Z 36012KT 9999 TS SCT050CB 27/21 Q1012 TEMPO
                        SHRA=
201906231430 METAR LRTR 231430Z 01008KT 9999 -TSRA FEW019 BKN050CB 25/22
                        Q1012 RESHRA R11/290095 NOSIG=
201906231500 METAR LRTR 231500Z 03006KT 360V060 9999 -SHRA VCTS FEW020
                        SCT050CB 24/23 Q1012 RETS R11/290095
                        NOSIG=
201906231530 METAR LRTR 231530Z 02007KT 9999 -SHRA SCT050CB 24/23 Q1012
                        NOSIG=
201906231600 METAR LRTR 231600Z 11004KT 080V170 9999 SCT050CB 24/23 Q1012=
201906231630 METAR LRTR 231630Z 11006KT 9999 FEW050CB 25/23 Q1012=
201906231700 METAR LRTR 231700Z 13005KT 9999 FEW050CB 22/22 Q1012=
201906231730 METAR LRTR 231730Z 03004KT 360V060 9999 FEW050CB 22/22 Q1012=
201906231800 METAR LRTR 231800Z NIL=
201906231830 METAR LRTR 231830Z 23017KT 9999 -TSRA FEW010 SCT020 BKN030CB
                        19/19 Q1015=
201906231900 METAR COR LRTR 231900Z 29012KT 6000 TSRA FEW010 BKN035CB
                        18/18 Q1016 R11/290094=
201906231930 METAR LRTR 231930Z 27014KT 6000 TSRA FEW014 BKN035CB 18/18
                        Q1014 RESHRA R11/290094=
201906232000 METAR LRTR 232000Z 27007KT 7000 TSRA FEW017 BKN040CB 18/18
                        Q1015 R11/290094=
201906232030 METAR LRTR 232030Z 12011KT 8000 TSRA FEW010 BKN040CB 18/18
                        Q1015 R11/290094=
201906232100 METAR LRTR 232100Z 01003KT 350V050 6000 +TSRA FEW010 BKN040CB
                        18/18 Q1015 R11/290593=
201906232130 METAR COR LRTR 232130Z 36007KT 9999 -SHRA FEW010 SCT040CB
                        18/18 Q1014 RETSRA R11/290593=
201906232200 METAR LRTR 232200Z 09003KT 050V120 9999 -SHRA SCT040CB 18/18
                        Q1015 R11/290593=
201906232230 METAR COR LRTR 232230Z 16004KT 9999 -RA FEW004 18/18 Q1015
                        R11/290593=
201906232300 METAR LRTR 232300Z 13006KT 9999 -RA BKN004 18/18 Q1015 R11/290593=
201906232330 METAR LRTR 232330Z 13005KT 9999 -RA BKN004 18/18 Q1016 R11/290593=
201906240000 METAR LRTR 240000Z 17003KT 140V200 9999 -RA BKN004 18/18
                        Q1015 R11/290593=
201906240030 METAR COR LRTR 240030Z VRB02KT 9999 -RA BKN004 18/18 Q1016
                        R11/290593=
201906240100 METAR LRTR 240100Z 22003KT 180V240 9999 -RA BKN006 18/18
                        Q1015 R11/290593=
201906240130 METAR COR LRTR 240130Z 27003KT 9999 BKN007 18/18 Q1015 R11/290593=
201906240200 METAR LRTR 240200Z 36002KT 9999 BKN009 18/18 Q1016 R11/290593=
201906240230 METAR LRTR 240230Z 33003KT 9999 BKN011 18/18 Q1015 R11/290593=
201906240300 METAR LRTR 240300Z 00000KT 9999 SCT011 BKN021 18/18 Q1016
                        R11/290095=
201906240330 METAR LRTR 240330Z 00000KT 9999 FEW011 BKN022 18/18 Q1016
                        R11/290095=
201906240400 METAR LRTR 240400Z 00000KT 9999 BKN022 18/18 Q1016 R11/290095=
201906240430 METAR LRTR 240430Z 11004KT 9999 FEW023 19/19 Q1016 R11/190095=
201906240500 METAR LRTR 240500Z 10003KT 070V140 9999 FEW005 20/19 Q1016
                        R11/190095=
201906240530 METAR LRTR 240530Z 11005KT 9999 FEW008 20/19 Q1016 R11/190095=
201906240600 METAR LRTR 240600Z 12005KT 9999 SCT010 20/19 Q1017 R11/190095=
201906240630 METAR LRTR 240630Z 14005KT 100V170 9999 SCT013 21/19 Q1017
                        R11/190095=
201906240700 METAR LRTR 240700Z 14003KT 110V170 9999 SCT014 21/19 Q1017
                        R11/190095=
201906240730 METAR LRTR 240730Z 16005KT 130V230 9999 BKN018 22/20 Q1017
                        R11/190095=
201906240800 METAR COR LRTR 240800Z 12004KT 080V170 9999 FEW020 SCT025
                        22/19 Q1017 R11/CLRD//=
201906240830 METAR LRTR 240830Z 17003KT 120V220 9999 BKN025 22/19 Q1017=
201906240900 METAR LRTR 240900Z VRB02KT 9999 BKN028 23/19 Q1018=
201906240930 METAR LRTR 240930Z VRB03KT 9999 BKN028 24/19 Q1018=
201906241000 METAR LRTR 241000Z 14006KT 100V170 9999 BKN028 24/19 Q1018=
201906241030 METAR LRTR 241030Z 15004KT 070V220 9999 SCT031 26/20 Q1018=
201906241100 METAR LRTR 241100Z VRB03KT 9999 SCT031 25/19 Q1018=
201906241130 METAR LRTR 241130Z VRB02KT 9999 SCT031 25/19 Q1018=
201906241200 METAR LRTR 241200Z VRB01KT 9999 FEW037 26/20 Q1018=
201906241230 METAR COR LRTR 241230Z 00000KT 9999 SCT037 26/19 Q1018=
201906241300 METAR LRTR 241300Z VRB01KT 9999 FEW038 27/19 Q1018=
201906241330 METAR LRTR 241330Z 32003KT 250V050 9999 FEW040 27/18 Q1018=
201906241400 METAR LRTR 241400Z VRB01KT 9999 FEW038 28/19 Q1017=
201906241430 METAR COR LRTR 241430Z VRB03KT 9999 FEW038 27/19 Q1017=
201906241500 METAR LRTR 241500Z 36004KT 310V080 9999 FEW040 27/19 Q1018=
201906241530 METAR LRTR 241530Z 36004KT 300V040 9999 FEW040 27/20 Q1018=
201906241600 METAR LRTR 241600Z 34005KT 9999 FEW050CB 28/20 Q1017 NOSIG=
201906241630 METAR LRTR 241630Z 35004KT 9999 FEW050CB 27/20 Q1018 NOSIG=
201906241700 METAR LRTR 241700Z 01005KT 9999 FEW050CB 26/22 Q1018 NOSIG=
201906241730 METAR LRTR 241730Z 36005KT 9999 FEW055CB 26/22 Q1018 NOSIG=
201906241800 METAR LRTR 241800Z 01005KT CAVOK 24/22 Q1018 NOSIG=
201906241830 METAR LRTR 241830Z 03005KT CAVOK 23/22 Q1019 NOSIG=
201906241900 METAR LRTR 241900Z 03004KT CAVOK 22/21 Q1019 NOSIG=
201906241930 METAR LRTR 241930Z 04002KT CAVOK 22/22 Q1019 NOSIG=
201906242000 METAR LRTR 242000Z 32005KT CAVOK 22/22 Q1020 NOSIG=
201906242030 METAR LRTR 242030Z 36001KT CAVOK 22/22 Q1020 NOSIG=
201906242100 METAR LRTR 242100Z 36005KT CAVOK 22/22 Q1020 NOSIG=
201906242130 METAR LRTR 242130Z 04002KT CAVOK 22/22 Q1020 NOSIG=
201906242200 METAR LRTR 242200Z VRB01KT CAVOK 22/21 Q1020 NOSIG=
201906242230 METAR LRTR 242230Z 05003KT CAVOK 21/21 Q1020 NOSIG=
201906242300 METAR LRTR 242300Z 04003KT CAVOK 20/20 Q1020 NOSIG=
201906242330 METAR LRTR 242330Z 06004KT CAVOK 20/20 Q1020 NOSIG=
201906250000 METAR LRTR 250000Z VRB01KT CAVOK 20/20 Q1020 NOSIG=
201906250030 METAR LRTR 250030Z 08005KT CAVOK 19/19 Q1020 NOSIG=
201906250100 METAR LRTR 250100Z 10006KT CAVOK 20/20 Q1020 NOSIG=
201906250130 METAR LRTR 250130Z 07003KT 040V110 CAVOK 19/19 Q1020 NOSIG=
201906250200 METAR LRTR 250200Z VRB02KT CAVOK 19/19 Q1020 NOSIG=
201906250230 METAR LRTR 250230Z 07005KT CAVOK 19/19 Q1020 NOSIG=
201906250300 METAR LRTR 250300Z 11008KT CAVOK 19/19 Q1020 NOSIG=
201906250330 METAR LRTR 250330Z 11009KT CAVOK 20/20 Q1020 NOSIG=
201906250400 METAR LRTR 250400Z 12011KT CAVOK 20/20 Q1021 NOSIG=
201906250430 METAR LRTR 250430Z 11008KT CAVOK 21/21 Q1021 NOSIG=
201906250500 METAR LRTR 250500Z 11007KT CAVOK 22/21 Q1021 NOSIG=
201906250530 METAR LRTR 250530Z 13006KT CAVOK 24/21 Q1022 NOSIG=
201906250600 METAR LRTR 250600Z VRB01KT CAVOK 25/21 Q1022 NOSIG=
201906250630 METAR LRTR 250630Z VRB01KT CAVOK 25/21 Q1022 NOSIG=
201906250700 METAR LRTR 250700Z VRB02KT CAVOK 26/20 Q1022 NOSIG=
201906250730 METAR LRTR 250730Z VRB03KT 9999 FEW024 27/20 Q1022 NOSIG=
201906250800 METAR LRTR 250800Z 04003KT 320V100 9999 FEW025 27/20 Q1022
                        NOSIG=
201906250830 METAR LRTR 250830Z 05004KT 320V120 9999 FEW025 27/21 Q1022
                        NOSIG=
201906250900 METAR LRTR 250900Z 05004KT 010V090 9999 FEW027 27/21 Q1023
                        NOSIG=
201906250930 METAR LRTR 250930Z VRB02KT 9999 FEW027 28/20 Q1023 NOSIG=
201906251000 METAR LRTR 251000Z 04005KT 340V090 9999 FEW030 28/21 Q1023
                        NOSIG=
201906251030 METAR LRTR 251030Z 33003KT 280V010 9999 FEW030 29/20 Q1023
                        NOSIG=
201906251100 METAR LRTR 251100Z VRB03KT 9999 FEW033 29/21 Q1023 NOSIG=
201906251130 METAR LRTR 251130Z VRB03KT 9999 FEW035 FEW050CB 30/20 Q1023
                        NOSIG=
201906251200 METAR LRTR 251200Z VRB02KT 9999 FEW035 FEW050CB 30/19 Q1023
                        NOSIG=
201906251230 METAR LRTR 251230Z 06004KT 010V100 9999 FEW035 FEW050CB 30/19
                        Q1022 NOSIG=
201906251300 METAR LRTR 251300Z VRB02KT 9999 FEW040 FEW045TCU FEW050CB
                        31/20 Q1022 NOSIG=
201906251330 METAR LRTR 251330Z 05003KT 020V090 9999 FEW040 FEW045TCU
                        FEW050CB 31/21 Q1022 NOSIG=
201906251400 METAR LRTR 251400Z 09004KT 070V140 9999 FEW040 FEW045TCU
                        FEW050CB 31/20 Q1022 NOSIG=
201906251430 METAR LRTR 251430Z VRB02KT 9999 FEW045 FEW050CB 31/18 Q1022
                        NOSIG=
201906251500 METAR LRTR 251500Z 07004KT 030V130 9999 FEW045 31/19 Q1022
                        NOSIG=
201906251530 METAR LRTR 251530Z 12004KT 040V200 9999 FEW047 30/22 Q1022
                        NOSIG=
201906251600 METAR LRTR 251600Z 14003KT 040V170 9999 FEW048 30/22 Q1022
                        NOSIG=
201906251630 METAR LRTR 251630Z 07005KT CAVOK 30/22 Q1022=
201906251700 METAR LRTR 251700Z 05006KT CAVOK 29/23 Q1022=
201906251730 METAR LRTR 251730Z 10004KT CAVOK 28/24 Q1022=
201906251800 METAR LRTR 251800Z 11007KT CAVOK 26/24 Q1023=
201906251830 METAR LRTR 251830Z 12008KT CAVOK 24/23 Q1023=
201906251900 METAR LRTR 251900Z 10006KT CAVOK 24/23 Q1023=
201906251930 METAR LRTR 251930Z VRB01KT CAVOK 23/23 Q1023=
201906252000 METAR LRTR 252000Z 07002KT CAVOK 23/23 Q1024=
201906252030 METAR LRTR 252030Z 07003KT CAVOK 22/22 Q1024=
201906252100 METAR LRTR 252100Z 02005KT CAVOK 22/22 Q1023=
201906252130 METAR LRTR 252130Z 34003KT 320V030 CAVOK 22/22 Q1023=
201906252200 METAR LRTR 252200Z 07005KT CAVOK 21/21 Q1024=
201906252230 METAR LRTR 252230Z 10006KT 060V120 CAVOK 21/21 Q1024=
201906252300 METAR LRTR 252300Z 12007KT CAVOK 21/21 Q1024=
201906252330 METAR LRTR 252330Z 07005KT CAVOK 21/21 Q1023=
201906260000 METAR COR LRTR 260000Z 10005KT CAVOK 21/21 Q1024=
201906260030 METAR LRTR 260030Z 09006KT CAVOK 21/21 Q1023=
201906260100 METAR LRTR 260100Z 10006KT CAVOK 20/20 Q1023=
201906260130 METAR COR LRTR 260130Z 10006KT CAVOK 20/20 Q1023=
201906260200 METAR LRTR 260200Z 11005KT CAVOK 19/19 Q1024=
201906260230 METAR LRTR 260230Z 11007KT CAVOK 20/20 Q1024=
201906260300 METAR LRTR 260300Z 12007KT 8000 NSC 20/20 Q1024=
201906260330 METAR LRTR 260330Z 12006KT 8000 NSC 20/20 Q1024=
201906260400 METAR LRTR 260400Z 10004KT 8000 NSC 21/21 Q1024=
201906260430 METAR LRTR 260430Z 09004KT CAVOK 21/21 Q1024=
201906260500 METAR LRTR 260500Z 10005KT CAVOK 22/22 Q1024=
201906260530 METAR LRTR 260530Z 12004KT CAVOK 23/22 Q1025=
201906260600 METAR COR LRTR 260600Z 11003KT 070V160 CAVOK 25/22 Q1025=
201906260630 METAR LRTR 260630Z VRB02KT CAVOK 26/22 Q1025=
201906260700 METAR LRTR 260700Z VRB02KT CAVOK 26/21 Q1025=
201906260730 METAR LRTR 260730Z VRB01KT CAVOK 27/21 Q1025=
201906260800 METAR COR LRTR 260800Z 11003KT 080V150 CAVOK 28/22 Q1025=
201906260830 METAR LRTR 260830Z VRB02KT CAVOK 29/22 Q1025=
201906260900 METAR LRTR 260900Z 30005KT 270V330 CAVOK 29/20 Q1025=
201906260930 METAR LRTR 260930Z 33005KT 290V020 CAVOK 29/22 Q1025=
201906261000 METAR LRTR 261000Z 32006KT 300V360 CAVOK 30/19 Q1025=
201906261030 METAR LRTR 261030Z VRB02KT CAVOK 31/19 Q1024=
201906261100 METAR LRTR 261100Z VRB02KT 9999 FEW040 31/19 Q1024=
201906261130 METAR LRTR 261130Z 30004KT 250V350 9999 FEW042 31/20 Q1024=
201906261200 METAR LRTR 261200Z 30006KT 9999 FEW045 31/20 Q1024=
201906261230 METAR LRTR 261230Z 30005KT 250V330 9999 FEW048 32/22 Q1023=
201906261300 METAR LRTR 261300Z VRB03KT 9999 FEW049 32/20 Q1023=
201906261330 METAR LRTR 261330Z 34004KT 300V010 CAVOK 32/19 Q1023=
201906261400 METAR LRTR 261400Z 35005KT 290V020 CAVOK 33/19 Q1022=
201906261430 METAR LRTR 261430Z 36006KT 310V030 CAVOK 32/20 Q1022=
201906261500 METAR LRTR 261500Z 01007KT CAVOK 31/20 Q1022=
201906261530 METAR LRTR 261530Z 01006KT CAVOK 32/21 Q1021=
201906261600 METAR LRTR 261600Z 33006KT CAVOK 32/20 Q1021=
201906261630 METAR LRTR 261630Z 34004KT CAVOK 31/20 Q1021 NOSIG=
201906261700 METAR LRTR 261700Z 32005KT CAVOK 31/22 Q1021 NOSIG=
201906261730 METAR LRTR 261730Z 32004KT CAVOK 30/23 Q1021 NOSIG=
201906261800 METAR LRTR 261800Z 31005KT CAVOK 29/23 Q1021 NOSIG=
201906261830 METAR LRTR 261830Z 31004KT CAVOK 27/24 Q1021 NOSIG=
201906261900 METAR LRTR 261900Z 33004KT CAVOK 26/24 Q1021 NOSIG=
201906261930 METAR LRTR 261930Z 32005KT CAVOK 26/23 Q1021 NOSIG=
201906262000 METAR LRTR 262000Z 31004KT CAVOK 25/23 Q1021 NOSIG=
201906262030 METAR LRTR 262030Z 31005KT CAVOK 24/23 Q1021 NOSIG=
201906262100 METAR LRTR 262100Z 31004KT CAVOK 24/23 Q1021 NOSIG=
201906262130 METAR LRTR 262130Z 31004KT CAVOK 23/22 Q1021 NOSIG=
201906262200 METAR LRTR 262200Z 34003KT CAVOK 23/22 Q1021 NOSIG=
201906262230 METAR LRTR 262230Z 32003KT CAVOK 23/22 Q1021 NOSIG=
201906262300 METAR LRTR 262300Z 33004KT CAVOK 22/22 Q1021 NOSIG=
201906262330 METAR LRTR 262330Z 00000KT CAVOK 21/21 Q1021 NOSIG=
201906270000 METAR LRTR 270000Z 00000KT CAVOK 22/21 Q1020 NOSIG=
201906270030 METAR LRTR 270030Z 17001KT CAVOK 22/21 Q1021 NOSIG=
201906270100 METAR LRTR 270100Z 09005KT CAVOK 20/20 Q1020 NOSIG=
201906270130 METAR LRTR 270130Z 08006KT CAVOK 20/20 Q1020 NOSIG=
201906270200 METAR LRTR 270200Z 12005KT 8000 MIFG NSC 20/20 Q1020 NOSIG=
201906270230 METAR COR LRTR 270230Z 12005KT 5000 MIFG BR NSC 20/20 Q1020
                        TEMPO 3000 BR=
201906270300 METAR LRTR 270300Z 10005KT 2000 MIFG BR NSC 19/19 Q1020 TEMPO
                        1500 BCFG BR=
201906270330 METAR COR LRTR 270330Z 11005KT 2500 1200SE R11/P2000 R29/0800U
                        BCFG BR FEW001 20/20 Q1020 TEMPO
                        1500 BR=
201906270400 METAR LRTR 270400Z 10004KT 3500 BR NSC 21/21 Q1020 BECMG
                        5000=
201906270430 METAR LRTR 270430Z 11005KT CAVOK 21/21 Q1020 NOSIG=
201906270500 METAR LRTR 270500Z 11005KT CAVOK 22/22 Q1020 NOSIG=
201906270530 METAR LRTR 270530Z 10004KT CAVOK 24/23 Q1020 NOSIG=
201906270600 METAR LRTR 270600Z 14004KT CAVOK 25/23 Q1020 NOSIG=
201906270630 METAR LRTR 270630Z VRB02KT CAVOK 26/23 Q1019 NOSIG=
201906270700 METAR LRTR 270700Z VRB01KT CAVOK 28/23 Q1019 NOSIG=
201906270730 METAR LRTR 270730Z VRB02KT CAVOK 28/23 Q1019 NOSIG=
201906270800 METAR LRTR 270800Z VRB02KT 9999 FEW020 29/24 Q1018 NOSIG=
201906270830 METAR LRTR 270830Z VRB02KT 9999 FEW024 31/22 Q1018 NOSIG=
201906270900 METAR LRTR 270900Z VRB03KT 9999 FEW036 31/21 Q1018 NOSIG=
201906270930 METAR LRTR 270930Z 29009KT 9999 FEW038 32/16 Q1018 NOSIG=
201906271000 METAR LRTR 271000Z 28007KT 250V310 9999 FEW040 32/18 Q1018
                        NOSIG=
201906271030 METAR LRTR 271030Z 30005KT 230V340 9999 SCT045 32/19 Q1017
                        NOSIG=
201906271100 METAR LRTR 271100Z 28006KT 220V310 CAVOK 32/19 Q1017 NOSIG=
201906271130 METAR LRTR 271130Z 28007KT 210V320 CAVOK 32/20 Q1017 NOSIG=
201906271200 METAR LRTR 271200Z 27010KT CAVOK 32/19 Q1016 NOSIG=
201906271230 METAR LRTR 271230Z 27009KT 230V290 CAVOK 32/19 Q1016 NOSIG=
201906271300 METAR LRTR 271300Z 25010KT 220V280 CAVOK 32/19 Q1015 NOSIG=
201906271330 METAR LRTR 271330Z 26009KT CAVOK 32/19 Q1015 NOSIG=
201906271400 METAR LRTR 271400Z 26010KT CAVOK 32/17 Q1015 NOSIG=
201906271430 METAR LRTR 271430Z 25010KT CAVOK 32/18 Q1014 NOSIG=
201906271500 METAR LRTR 271500Z 25011KT CAVOK 32/19 Q1014 NOSIG=
201906271530 METAR LRTR 271530Z 25011KT CAVOK 32/20 Q1013 NOSIG=
201906271600 METAR LRTR 271600Z 26010KT CAVOK 31/21 Q1013=
201906271630 METAR LRTR 271630Z 26009KT CAVOK 31/20 Q1013=
201906271700 METAR LRTR 271700Z 24007KT CAVOK 31/20 Q1013=
201906271730 METAR LRTR 271730Z 24004KT 200V290 9999 FEW040CB 30/20 Q1013=
201906271800 METAR LRTR 271800Z 03023KT 9999 TS FEW008 BKN040CB 22/20
                        Q1015 RESQ=
201906271830 METAR COR LRTR 271830Z 02013KT 350V050 7000 +TSRA FEW025
                        BKN040CB 20/20 Q1015 R11/290094=
201906271900 METAR LRTR 271900Z 25005KT 200V290 8000 TSRA FEW025 BKN040CB
                        21/21 Q1014 RESHRA R11/290094=
201906271930 METAR LRTR 271930Z 19007KT 9999 -SHRA VCTS FEW030 SCT045CB
                        21/21 Q1014 RESHRA R11/290094=
201906272000 METAR LRTR 272000Z 13008KT 090V160 9999 FEW005 FEW045CB 20/20
                        Q1014 R11/290094=
201906272030 METAR LRTR 272030Z 14005KT 9999 FEW007 FEW045CB 20/20 Q1014
                        R11/290094=
201906272100 METAR LRTR 272100Z 20006KT 9999 FEW007 20/20 Q1014 R11/290095=
201906272130 METAR LRTR 272130Z 12003KT 040V190 9999 FEW008 20/20 Q1014
                        R11/290095=
201906272200 METAR LRTR 272200Z 02003KT 330V050 CAVOK 19/19 Q1015 R11/290095=
201906272230 METAR LRTR 272230Z 06006KT CAVOK 19/19 Q1014 R11/290095=
201906272300 METAR LRTR 272300Z 06005KT CAVOK 19/19 Q1014 R11/290095=
201906272330 METAR LRTR 272330Z 03004KT CAVOK 19/19 Q1014 R11/290095=
201906280000 METAR LRTR 280000Z 00000KT CAVOK 19/19 Q1014 R11/290095=
201906280030 METAR LRTR 280030Z 00000KT CAVOK 19/19 Q1014 R11/290095=
201906280100 METAR COR LRTR 280100Z 00000KT CAVOK 19/19 Q1014 R11/290095=
201906280130 METAR LRTR 280130Z 07004KT 8000 NSC 18/18 Q1014 R11/290095=
201906280200 METAR LRTR 280200Z VRB02KT 8000 NSC 18/18 Q1014 R11/290095=
201906280230 METAR LRTR 280230Z 01004KT 8000 MIFG NSC 18/18 Q1014 R11/290095=
201906280300 METAR LRTR 280300Z VRB02KT 8000 MIFG NSC 18/18 Q1014 R11/190095=
201906280330 METAR LRTR 280330Z 32004KT 8000 NSC 18/18 Q1014 R11/190095=
201906280400 METAR LRTR 280400Z 32003KT 290V360 CAVOK 19/19 Q1015 R11/CLRD//=
201906280430 METAR LRTR 280430Z 36006KT CAVOK 19/19 Q1014=
201906280500 METAR LRTR 280500Z 01007KT CAVOK 20/19 Q1015=
201906280530 METAR LRTR 280530Z 02006KT 360V060 CAVOK 21/18 Q1015=
201906280600 METAR LRTR 280600Z 02009KT CAVOK 21/18 Q1015=
201906280630 METAR LRTR 280630Z 02013KT CAVOK 22/18 Q1015=
201906280700 METAR LRTR 280700Z 01014KT CAVOK 23/17 Q1015=
201906280730 METAR LRTR 280730Z 36015KT CAVOK 23/17 Q1015=
201906280800 METAR LRTR 280800Z 36014KT CAVOK 23/16 Q1016=
201906280830 METAR LRTR 280830Z 36013KT CAVOK 24/16 Q1016=
201906280900 METAR LRTR 280900Z 01013KT CAVOK 24/15 Q1016=
201906280930 METAR LRTR 280930Z 01012KT CAVOK 24/16 Q1016=
201906281000 METAR LRTR 281000Z 35013KT CAVOK 25/15 Q1016=
201906281030 METAR LRTR 281030Z 36014KT CAVOK 25/14 Q1016=
201906281100 METAR LRTR 281100Z 35014KT CAVOK 25/13 Q1016=
201906281130 METAR LRTR 281130Z 35013KT CAVOK 26/13 Q1017=
201906281200 METAR LRTR 281200Z 35014KT CAVOK 26/16 Q1017=
201906281230 METAR LRTR 281230Z 36013KT CAVOK 26/14 Q1016=
201906281300 METAR LRTR 281300Z 34012KT 310V010 CAVOK 25/10 Q1016=
201906281330 METAR LRTR 281330Z 34015KT 310V010 CAVOK 25/11 Q1016=
201906281400 METAR LRTR 281400Z 36014KT CAVOK 25/10 Q1016=
201906281430 METAR LRTR 281430Z 35013KT CAVOK 25/10 Q1017=
201906281500 METAR LRTR 281500Z 36013KT CAVOK 25/10 Q1017=
201906281530 METAR LRTR 281530Z 35012KT CAVOK 25/10 Q1017=
201906281600 METAR LRTR 281600Z 01013KT CAVOK 24/10 Q1017=
201906281630 METAR LRTR 281630Z 01013KT CAVOK 24/11 Q1017 NOSIG=
201906281700 METAR LRTR 281700Z 36011KT CAVOK 23/10 Q1017 NOSIG=
201906281730 METAR LRTR 281730Z 01009KT CAVOK 22/11 Q1017 NOSIG=
201906281800 METAR LRTR 281800Z 01007KT CAVOK 20/12 Q1017 NOSIG=
201906281830 METAR LRTR 281830Z 02005KT CAVOK 18/15 Q1017 NOSIG=
201906281900 METAR LRTR 281900Z 02005KT CAVOK 17/14 Q1018 NOSIG=
201906281930 METAR LRTR 281930Z 35005KT CAVOK 16/15 Q1018 NOSIG=
201906282000 METAR LRTR 282000Z VRB02KT CAVOK 17/14 Q1018 NOSIG=
201906282030 METAR LRTR 282030Z 34004KT CAVOK 16/14 Q1019 NOSIG=
201906282100 METAR LRTR 282100Z 02004KT CAVOK 15/14 Q1019 NOSIG=
201906282130 METAR LRTR 282130Z 03005KT CAVOK 14/14 Q1019 NOSIG=
201906282200 METAR LRTR 282200Z 01008KT CAVOK 15/14 Q1019 NOSIG=
201906282230 METAR LRTR 282230Z 03007KT CAVOK 15/14 Q1019 NOSIG=
201906282300 METAR LRTR 282300Z 02005KT CAVOK 14/14 Q1019 NOSIG=
201906282330 METAR LRTR 282330Z 03005KT CAVOK 14/14 Q1019 NOSIG=
201906290000 METAR LRTR 290000Z 01005KT CAVOK 14/14 Q1019 NOSIG=
201906290030 METAR LRTR 290030Z 35006KT CAVOK 15/14 Q1019 NOSIG=
201906290100 METAR LRTR 290100Z 36006KT CAVOK 14/14 Q1019 NOSIG=
201906290130 METAR LRTR 290130Z 35004KT CAVOK 14/14 Q1019 NOSIG=
201906290200 METAR LRTR 290200Z 36008KT CAVOK 14/14 Q1019 NOSIG=
201906290230 METAR LRTR 290230Z 36009KT CAVOK 14/14 Q1020 NOSIG=
201906290300 METAR LRTR 290300Z 01009KT CAVOK 14/14 Q1020 NOSIG=
201906290330 METAR LRTR 290330Z 01008KT CAVOK 14/14 Q1020 NOSIG=
201906290400 METAR LRTR 290400Z 01008KT CAVOK 15/14 Q1020 NOSIG=
201906290430 METAR LRTR 290430Z 02009KT CAVOK 16/14 Q1020 NOSIG=
201906290500 METAR LRTR 290500Z 01008KT CAVOK 17/14 Q1020 NOSIG=
201906290530 METAR LRTR 290530Z 01010KT CAVOK 18/14 Q1020 NOSIG=
201906290600 METAR LRTR 290600Z 01009KT CAVOK 20/14 Q1020 NOSIG=
201906290630 METAR LRTR 290630Z 01009KT CAVOK 21/13 Q1020 NOSIG=
201906290700 METAR LRTR 290700Z 02008KT CAVOK 22/12 Q1020 NOSIG=
201906290730 METAR LRTR 290730Z 36009KT 9999 FEW040 23/12 Q1021 NOSIG=
201906290800 METAR LRTR 290800Z 01008KT 340V040 9999 FEW043 24/10 Q1021
                        NOSIG=
201906290830 METAR LRTR 290830Z 01009KT 340V050 9999 FEW045 24/08 Q1021
                        NOSIG=
201906290900 METAR LRTR 290900Z 35009KT 320V020 9999 FEW048 24/09 Q1021
                        NOSIG=
201906290930 METAR LRTR 290930Z 02010KT CAVOK 24/10 Q1021 NOSIG=
201906291000 METAR LRTR 291000Z 36010KT 330V040 CAVOK 25/11 Q1021 NOSIG=
201906291030 METAR LRTR 291030Z 02009KT 330V060 CAVOK 25/09 Q1021 NOSIG=
201906291100 METAR LRTR 291100Z 01010KT CAVOK 25/11 Q1020 NOSIG=
201906291130 METAR LRTR 291130Z 36009KT 310V030 CAVOK 25/11 Q1020 NOSIG=
201906291200 METAR LRTR 291200Z 01013KT 340V040 CAVOK 25/11 Q1020 NOSIG=
201906291230 METAR LRTR 291230Z 36011KT 330V030 CAVOK 26/12 Q1020 NOSIG=
201906291300 METAR LRTR 291300Z 02009KT 350V050 CAVOK 26/13 Q1020 NOSIG=
201906291330 METAR LRTR 291330Z 35009KT 310V010 CAVOK 25/13 Q1020 NOSIG=
201906291400 METAR LRTR 291400Z 36011KT CAVOK 25/12 Q1020 NOSIG=
201906291430 METAR LRTR 291430Z 36009KT 330V040 CAVOK 26/12 Q1020 NOSIG=
201906291500 METAR LRTR 291500Z 03009KT CAVOK 25/13 Q1020 NOSIG=
201906291530 METAR LRTR 291530Z 36009KT CAVOK 25/13 Q1019 NOSIG=
201906291600 METAR LRTR 291600Z 36007KT CAVOK 25/13 Q1019 NOSIG=
201906291630 METAR LRTR 291630Z 03007KT 360V070 CAVOK 25/13 Q1020=
201906291700 METAR LRTR 291700Z 02005KT CAVOK 24/14 Q1020=
201906291730 METAR LRTR 291730Z 04004KT CAVOK 23/15 Q1020=
201906291800 METAR LRTR 291800Z 03003KT CAVOK 23/16 Q1020=
201906291830 METAR COR LRTR 291830Z 02001KT CAVOK 22/15 Q1020=
201906291900 METAR LRTR 291900Z 00000KT CAVOK 22/15 Q1020=
201906291930 METAR COR LRTR 291930Z 07003KT CAVOK 19/17 Q1021 RERA=
201906292000 METAR LRTR 292000Z 00000KT CAVOK 18/17 Q1021=
201906292030 METAR LRTR 292030Z 06005KT CAVOK 18/17 Q1020=
201906292100 METAR LRTR 292100Z 07007KT CAVOK 16/16 Q1021=
201906292130 METAR LRTR 292130Z 07006KT CAVOK 16/16 Q1021=
201906292200 METAR LRTR 292200Z 11003KT CAVOK 17/16 Q1021=
201906292230 METAR LRTR 292230Z VRB02KT CAVOK 16/15 Q1021=
201906292300 METAR LRTR 292300Z AUTO 05002KT 9999 NCD 16/15 Q1021=
201906292330 METAR LRTR 292330Z 08004KT CAVOK 15/15 Q1021=
201906300000 METAR LRTR 300000Z 09004KT CAVOK 15/15 Q1021=
201906300030 METAR LRTR 300030Z 08003KT CAVOK 14/14 Q1021=
201906300100 METAR LRTR 300100Z 09006KT CAVOK 14/14 Q1021=
201906300130 METAR LRTR 300130Z 08005KT CAVOK 14/14 Q1021=
201906300200 METAR LRTR 300200Z 10007KT CAVOK 14/14 Q1021=
201906300230 METAR LRTR 300230Z 10005KT CAVOK 14/14 Q1021=
201906300300 METAR LRTR 300300Z 10005KT CAVOK 13/13 Q1021=
201906300330 METAR LRTR 300330Z 11004KT CAVOK 14/14 Q1021=
201906300400 METAR LRTR 300400Z 11006KT CAVOK 15/15 Q1021=
201906300430 METAR COR LRTR 300430Z 10005KT CAVOK 16/15 Q1021=
201906300500 METAR LRTR 300500Z 11008KT CAVOK 17/15 Q1022=
201906300530 METAR LRTR 300530Z 11007KT CAVOK 18/16 Q1022=
201906300600 METAR LRTR 300600Z 11006KT CAVOK 20/16 Q1022=
201906300630 METAR LRTR 300630Z 12006KT CAVOK 21/16 Q1022=
201906300700 METAR LRTR 300700Z 14005KT CAVOK 22/16 Q1022=
201906300730 METAR LRTR 300730Z 16004KT 090V230 CAVOK 24/14 Q1022=
201906300800 METAR LRTR 300800Z VRB02KT CAVOK 25/14 Q1022=
201906300830 METAR LRTR 300830Z 22004KT 160V300 CAVOK 26/14 Q1022=
201906300900 METAR LRTR 300900Z 35003KT 260V050 CAVOK 26/15 Q1022=
201906300930 METAR LRTR 300930Z 32003KT 260V050 CAVOK 27/14 Q1022=
201906301000 METAR LRTR 301000Z VRB03KT CAVOK 28/14 Q1022=
201906301030 METAR LRTR 301030Z VRB03KT 9999 FEW045 28/12 Q1022=
201906301100 METAR LRTR 301100Z 00000KT 9999 FEW048 28/13 Q1022=
201906301130 METAR LRTR 301130Z 30003KT 9999 FEW049 29/14 Q1022=
201906301200 METAR LRTR 301200Z VRB03KT CAVOK 29/14 Q1022=
201906301230 METAR LRTR 301230Z 29005KT 240V320 CAVOK 29/14 Q1021=
201906301300 METAR LRTR 301300Z VRB05KT CAVOK 29/14 Q1021=
201906301330 METAR LRTR 301330Z 22004KT CAVOK 30/15 Q1021=
201906301400 METAR LRTR 301400Z 31005KT 280V350 CAVOK 30/15 Q1021=
201906301430 METAR LRTR 301430Z 05003KT 360V090 CAVOK 30/15 Q1021=
201906301500 METAR LRTR 301500Z 00000KT CAVOK 30/14 Q1021=
201906301530 METAR LRTR 301530Z VRB02KT CAVOK 30/14 Q1020=
201906301600 METAR LRTR 301600Z 31004KT CAVOK 30/15 Q1020=
201906301630 METAR COR LRTR 301630Z 28003KT CAVOK 29/15 Q1020 NOSIG=
201906301700 METAR LRTR 301700Z 26004KT CAVOK 29/15 Q1020 NOSIG=
201906301730 METAR LRTR 301730Z 26004KT CAVOK 29/15 Q1020 NOSIG=
201906301800 METAR LRTR 301800Z 25004KT CAVOK 27/17 Q1020 NOSIG=
201906301830 METAR LRTR 301830Z 27003KT CAVOK 25/18 Q1020 NOSIG=
201906301900 METAR LRTR 301900Z 29003KT 170V300 CAVOK 24/18 Q1020 NOSIG=
201906301930 METAR LRTR 301930Z 00000KT CAVOK 23/18 Q1020 NOSIG=
201906302000 METAR COR LRTR 302000Z 09004KT CAVOK 20/19 Q1020 NOSIG=
201906302030 METAR LRTR 302030Z 08005KT CAVOK 19/19 Q1020 NOSIG=
201906302100 METAR LRTR 302100Z 09006KT CAVOK 19/18 Q1020 NOSIG=
201906302130 METAR LRTR 302130Z 09005KT CAVOK 18/18 Q1020 NOSIG=
201906302200 METAR LRTR 302200Z 09005KT CAVOK 18/18 Q1020 NOSIG=
201906302230 METAR LRTR 302230Z 10005KT CAVOK 18/18 Q1020 NOSIG=
201906302300 METAR LRTR 302300Z 11006KT CAVOK 18/18 Q1020 NOSIG=
201906302330 METAR LRTR 302330Z 11006KT CAVOK 17/17 Q1020 NOSIG=