201907010000 METAR LRTR 010000Z 09006KT CAVOK 17/17 Q1020 NOSIG=
201907010030 METAR LRTR 010030Z 10005KT CAVOK 17/17 Q1020 NOSIG=
201907010100 METAR LRTR 010100Z 11006KT CAVOK 15/15 Q1020 NOSIG=
201907010130 METAR LRTR 010130Z 11006KT CAVOK 16/16 Q1020 NOSIG=
201907010200 METAR LRTR 010200Z 09005KT CAVOK 16/16 Q1020 NOSIG=
201907010230 METAR LRTR 010230Z 09007KT CAVOK 16/16 Q1019 NOSIG=
201907010300 METAR LRTR 010300Z 10007KT CAVOK 16/16 Q1019 NOSIG=
201907010330 METAR LRTR 010330Z 11006KT CAVOK 16/16 Q1019 NOSIG=
201907010400 METAR LRTR 010400Z 11005KT CAVOK 17/17 Q1020 NOSIG=
201907010430 METAR LRTR 010430Z 10005KT CAVOK 18/18 Q1019 NOSIG=
201907010500 METAR LRTR 010500Z 11008KT CAVOK 19/19 Q1020 NOSIG=
201907010530 METAR LRTR 010530Z 11010KT CAVOK 21/19 Q1020 NOSIG=
201907010600 METAR COR LRTR 010600Z 11009KT CAVOK 22/19 Q1019 NOSIG=
201907010630 METAR LRTR 010630Z 11008KT CAVOK 23/19 Q1019 NOSIG=
201907010700 METAR LRTR 010700Z 12008KT CAVOK 24/19 Q1019 NOSIG=
201907010730 METAR LRTR 010730Z 10006KT CAVOK 25/19 Q1019 NOSIG=
201907010800 METAR LRTR 010800Z 13007KT 100V170 CAVOK 26/18 Q1019 NOSIG=
201907010830 METAR LRTR 010830Z 13006KT 100V160 CAVOK 27/19 Q1019 NOSIG=
201907010900 METAR LRTR 010900Z 14006KT 110V180 CAVOK 28/19 Q1019 NOSIG=
201907010930 METAR LRTR 010930Z 17008KT CAVOK 29/17 Q1018 NOSIG=
201907011000 METAR LRTR 011000Z 18005KT 140V230 CAVOK 30/17 Q1018 NOSIG=
201907011030 METAR LRTR 011030Z 16003KT 090V260 CAVOK 31/15 Q1018 NOSIG=
201907011100 METAR LRTR 011100Z 17003KT 100V230 CAVOK 31/15 Q1018 NOSIG=
201907011130 METAR LRTR 011130Z 21004KT 150V250 CAVOK 31/18 Q1018 NOSIG=
201907011200 METAR LRTR 011200Z 10004KT 050V150 CAVOK 32/18 Q1017 NOSIG=
201907011230 METAR LRTR 011230Z 13004KT 040V190 CAVOK 33/19 Q1017 NOSIG=
201907011300 METAR LRTR 011300Z 17005KT 120V230 CAVOK 33/18 Q1017 NOSIG=
201907011330 METAR LRTR 011330Z 19004KT 140V230 CAVOK 33/18 Q1017 NOSIG=
201907011400 METAR LRTR 011400Z 21004KT CAVOK 34/19 Q1016 NOSIG=
201907011430 METAR LRTR 011430Z 22004KT 160V330 CAVOK 34/16 Q1016 NOSIG=
201907011500 METAR LRTR 011500Z 18005KT 140V200 CAVOK 33/19 Q1016 NOSIG=
201907011530 METAR LRTR 011530Z 19004KT 170V230 CAVOK 33/18 Q1015 NOSIG=
201907011600 METAR LRTR 011600Z 18004KT CAVOK 33/19 Q1015 NOSIG=
201907011630 METAR LRTR 011630Z 22003KT CAVOK 33/18 Q1015=
201907011700 METAR LRTR 011700Z 17004KT CAVOK 32/19 Q1015=
201907011730 METAR LRTR 011730Z 14004KT CAVOK 30/19 Q1015=
201907011800 METAR COR LRTR 011800Z 12006KT CAVOK 28/21 Q1015=
201907011830 METAR COR LRTR 011830Z 11005KT CAVOK 26/22 Q1015=
201907011900 METAR LRTR 011900Z 10006KT CAVOK 24/22 Q1015=
201907011930 METAR LRTR 011930Z 10006KT CAVOK 23/21 Q1015=
201907012000 METAR LRTR 012000Z 10006KT CAVOK 22/21 Q1015=
201907012030 METAR LRTR 012030Z 10006KT CAVOK 21/20 Q1015=
201907012100 METAR LRTR 012100Z 10006KT CAVOK 21/21 Q1015=
201907012130 METAR LRTR 012130Z 10005KT CAVOK 21/20 Q1015=
201907012200 METAR LRTR 012200Z 11005KT CAVOK 20/20 Q1015=
201907012230 METAR COR LRTR 012230Z 11005KT CAVOK 20/20 Q1015=
201907012300 METAR LRTR 012300Z 09003KT CAVOK 19/19 Q1015=
201907012330 METAR LRTR 012330Z 07005KT CAVOK 19/19 Q1015=
201907020000 METAR LRTR 020000Z 09005KT CAVOK 18/18 Q1015=
201907020030 METAR LRTR 020030Z 09007KT CAVOK 19/19 Q1015=
201907020100 METAR LRTR 020100Z 10007KT CAVOK 18/18 Q1014=
201907020130 METAR LRTR 020130Z 08006KT CAVOK 18/18 Q1014=
201907020200 METAR LRTR 020200Z 10006KT CAVOK 18/18 Q1014=
201907020230 METAR COR LRTR 020230Z 09006KT CAVOK 18/18 Q1014=
201907020300 METAR LRTR 020300Z 12008KT CAVOK 18/18 Q1014=
201907020330 METAR LRTR 020330Z 11009KT CAVOK 19/19 Q1014=
201907020400 METAR LRTR 020400Z 10008KT CAVOK 20/20 Q1014 NOSIG=
201907020430 METAR LRTR 020430Z 10007KT CAVOK 20/20 Q1014 NOSIG=
201907020500 METAR LRTR 020500Z 11009KT CAVOK 22/21 Q1013 NOSIG=
201907020530 METAR LRTR 020530Z 10007KT CAVOK 23/21 Q1014 NOSIG=
201907020600 METAR LRTR 020600Z 10006KT CAVOK 24/22 Q1014 NOSIG=
201907020630 METAR LRTR 020630Z 12007KT CAVOK 26/21 Q1014 NOSIG=
201907020700 METAR LRTR 020700Z 10004KT 070V140 CAVOK 27/22 Q1014 NOSIG=
201907020730 METAR LRTR 020730Z 10003KT 070V150 CAVOK 28/22 Q1014 NOSIG=
201907020800 METAR LRTR 020800Z 14003KT 090V180 CAVOK 29/20 Q1014 NOSIG=
201907020830 METAR LRTR 020830Z 17004KT 110V220 CAVOK 31/20 Q1013 NOSIG=
201907020900 METAR LRTR 020900Z 16003KT 100V270 CAVOK 31/21 Q1013 NOSIG=
201907020930 METAR LRTR 020930Z 10003KT 010V150 CAVOK 32/20 Q1013 NOSIG=
201907021000 METAR LRTR 021000Z 00000KT CAVOK 33/20 Q1013 NOSIG=
201907021030 METAR LRTR 021030Z VRB03KT CAVOK 33/21 Q1013 NOSIG=
201907021100 METAR LRTR 021100Z 31004KT 260V350 CAVOK 34/17 Q1013 NOSIG=
201907021130 METAR LRTR 021130Z 32006KT 270V010 CAVOK 34/19 Q1013 NOSIG=
201907021200 METAR LRTR 021200Z VRB03KT CAVOK 34/20 Q1013 NOSIG=
201907021230 METAR LRTR 021230Z 30007KT 270V340 CAVOK 34/19 Q1013=
201907021300 METAR LRTR 021300Z 30005KT 240V350 CAVOK 35/20 Q1012=
201907021330 METAR LRTR 021330Z 27005KT 230V320 CAVOK 35/18 Q1012=
201907021400 METAR LRTR 021400Z VRB06KT CAVOK 35/18 Q1012=
201907021430 METAR LRTR 021430Z 29006KT 240V320 CAVOK 35/19 Q1012=
201907021500 METAR LRTR 021500Z 31006KT 280V340 CAVOK 35/19 Q1012=
201907021530 METAR LRTR 021530Z 28007KT CAVOK 34/18 Q1012=
201907021600 METAR LRTR 021600Z 27006KT CAVOK 34/20 Q1012 NOSIG=
201907021630 METAR LRTR 021630Z 28007KT CAVOK 33/20 Q1012 NOSIG=
201907021700 METAR LRTR 021700Z 29007KT CAVOK 32/20 Q1012 NOSIG=
201907021730 METAR LRTR 021730Z 30005KT CAVOK 31/22 Q1012 NOSIG=
201907021800 METAR LRTR 021800Z 32003KT CAVOK 29/22 Q1012 NOSIG=
201907021830 METAR LRTR 021830Z 32003KT CAVOK 29/22 Q1012 NOSIG=
201907021900 METAR LRTR 021900Z 00000KT CAVOK 27/21 Q1012 NOSIG=
201907021930 METAR LRTR 021930Z VRB02KT CAVOK 26/21 Q1013 NOSIG=
201907022000 METAR LRTR 022000Z 01002KT CAVOK 25/22 Q1013 NOSIG=
201907022030 METAR LRTR 022030Z 36004KT CAVOK 25/20 Q1013 NOSIG=
201907022100 METAR LRTR 022100Z 04002KT CAVOK 23/21 Q1013 NOSIG=
201907022130 METAR LRTR 022130Z VRB01KT CAVOK 24/21 Q1013 NOSIG=
201907022200 METAR LRTR 022200Z 01008KT CAVOK 24/19 Q1013 NOSIG=
201907022230 METAR LRTR 022230Z 35004KT CAVOK 24/19 Q1013 NOSIG=
201907022300 METAR LRTR 022300Z 31004KT CAVOK 22/19 Q1013 NOSIG=
201907022330 METAR LRTR 022330Z 32007KT CAVOK 22/19 Q1013 NOSIG=
201907030000 METAR LRTR 030000Z 34003KT CAVOK 22/19 Q1012 NOSIG=
201907030030 METAR LRTR 030030Z 01005KT CAVOK 22/19 Q1012 NOSIG=
201907030100 METAR LRTR 030100Z VRB02KT CAVOK 22/19 Q1013 NOSIG=
201907030130 METAR LRTR 030130Z 31007KT 9999 FEW050CB 21/20 Q1013 NOSIG=
201907030200 METAR LRTR 030200Z 30014KT 270V330 9999 VCTS FEW050CB 21/19
                        Q1015 TEMPO TSRA=
201907030230 METAR LRTR 030230Z 30010KT 9999 TSRA SCT050CB 20/20 Q1014
                        R11/29//95 BECMG NSW=
201907030300 METAR LRTR 030300Z 31012KT 9999 -SHRA SCT050CB 20/19 Q1014
                        RETS RESHRA R11/29//95 NOSIG=
201907030330 METAR LRTR 030330Z 34008KT 9999 FEW050CB 20/18 Q1014 R11/29//95
                        NOSIG=
201907030400 METAR LRTR 030400Z 36004KT 310V040 9999 FEW050CB 20/19 Q1014
                        R11/29//95 NOSIG=
201907030430 METAR LRTR 030430Z 36008KT 9999 FEW050CB 19/19 Q1014 R11/29//95
                        TEMPO TS=
201907030500 METAR LRTR 030500Z 03006KT 9999 FEW050CB 20/19 Q1015 R11/29//95
                        TEMPO TS=
201907030530 METAR LRTR 030530Z 35006KT 320V040 9999 4000NE TSRA SCT050CB
                        19/19 Q1015 R11/29//95 NOSIG=
201907030600 METAR LRTR 030600Z 30003KT 270V330 9999 -SHRA FEW045CB 20/20
                        Q1016 RETS RESHRA R11/29//95 NOSIG=
201907030630 METAR LRTR 030630Z 31004KT 9999 FEW045CB 20/20 Q1015 R11/29//95
                        NOSIG=
201907030700 METAR LRTR 030700Z 30007KT 9999 FEW015 FEW050CB 21/21 Q1016
                        R11/29//95 NOSIG=
201907030730 METAR LRTR 030730Z 31007KT 9999 FEW013 22/21 Q1016 R11/29//95
                        NOSIG=
201907030800 METAR LRTR 030800Z 33008KT 9999 FEW013 23/20 Q1016 R11/CLRD//
                        NOSIG=
201907030830 METAR LRTR 030830Z 33006KT 280V360 9999 FEW018 23/20 Q1016
                        NOSIG=
201907030900 METAR LRTR 030900Z 32007KT 9999 FEW020 24/20 Q1016 NOSIG=
201907030930 METAR LRTR 030930Z 34006KT 310V030 9999 FEW023 25/21 Q1016
                        NOSIG=
201907031000 METAR LRTR 031000Z 02009KT 340V040 9999 FEW027 26/18 Q1016
                        NOSIG=
201907031030 METAR LRTR 031030Z 01009KT 9999 FEW035 28/17 Q1016 NOSIG=
201907031100 METAR LRTR 031100Z 01011KT 9999 FEW040 28/16 Q1017 NOSIG=
201907031130 METAR LRTR 031130Z 01010KT 340V040 9999 FEW040 28/15 Q1017
                        NOSIG=
201907031200 METAR LRTR 031200Z 01008KT 340V050 9999 FEW045 29/16 Q1017
                        NOSIG=
201907031230 METAR LRTR 031230Z 01008KT 350V050 9999 FEW048 29/14 Q1017
                        NOSIG=
201907031300 METAR LRTR 031300Z 03010KT 360V060 CAVOK 29/15 Q1016 NOSIG=
201907031330 METAR LRTR 031330Z 02010KT CAVOK 29/13 Q1016 NOSIG=
201907031400 METAR LRTR 031400Z 01009KT 320V030 CAVOK 29/12 Q1016 NOSIG=
201907031430 METAR LRTR 031430Z 36011KT CAVOK 29/11 Q1016 NOSIG=
201907031500 METAR LRTR 031500Z 02007KT 340V040 CAVOK 29/12 Q1016 NOSIG=
201907031530 METAR LRTR 031530Z 02008KT CAVOK 28/11 Q1016 NOSIG=
201907031600 METAR LRTR 031600Z 01007KT 340V040 CAVOK 28/09 Q1016 NOSIG=
201907031630 METAR LRTR 031630Z 05006KT CAVOK 28/12 Q1016=
201907031700 METAR LRTR 031700Z 04006KT CAVOK 27/13 Q1016=
201907031730 METAR LRTR 031730Z 04004KT CAVOK 25/15 Q1016=
201907031800 METAR LRTR 031800Z 07003KT CAVOK 24/15 Q1016=
201907031830 METAR LRTR 031830Z 05002KT CAVOK 23/15 Q1016=
201907031900 METAR LRTR 031900Z 06002KT CAVOK 20/17 Q1016=
201907031930 METAR LRTR 031930Z 06003KT CAVOK 19/17 Q1017=
201907032000 METAR LRTR 032000Z 10004KT CAVOK 19/17 Q1017=
201907032030 METAR LRTR 032030Z 09005KT CAVOK 18/16 Q1017=
201907032100 METAR LRTR 032100Z 08006KT CAVOK 17/16 Q1017=
201907032130 METAR LRTR 032130Z 07004KT CAVOK 17/16 Q1017=
201907032200 METAR LRTR 032200Z 07005KT CAVOK 16/16 Q1017=
201907032230 METAR LRTR 032230Z 08004KT CAVOK 16/16 Q1017=
201907032300 METAR LRTR 032300Z 07004KT CAVOK 16/15 Q1017=
201907032330 METAR LRTR 032330Z 32006KT CAVOK 16/16 Q1018=
201907040000 METAR LRTR 040000Z 02001KT CAVOK 16/16 Q1018=
201907040030 METAR LRTR 040030Z 06004KT CAVOK 15/15 Q1018=
201907040100 METAR LRTR 040100Z 10005KT CAVOK 14/14 Q1018=
201907040130 METAR LRTR 040130Z 09005KT CAVOK 14/14 Q1017=
201907040200 METAR COR LRTR 040200Z VRB01KT CAVOK 14/14 Q1018=
201907040230 METAR LRTR 040230Z 05003KT CAVOK 14/14 Q1018=
201907040300 METAR LRTR 040300Z 04004KT CAVOK 14/14 Q1018=
201907040330 METAR LRTR 040330Z 08005KT CAVOK 15/15 Q1018=
201907040400 METAR LRTR 040400Z 09004KT CAVOK 16/16 Q1018=
201907040430 METAR LRTR 040430Z 12006KT CAVOK 17/16 Q1018=
201907040500 METAR LRTR 040500Z 32008KT CAVOK 17/16 Q1019=
201907040530 METAR LRTR 040530Z VRB01KT 9999 FEW050CB 18/16 Q1019=
201907040600 METAR LRTR 040600Z 34006KT 300V010 9999 -SHRA FEW040CB 18/16
                        Q1019=
201907040630 METAR LRTR 040630Z 35005KT 9999 FEW040CB 19/15 Q1019=
201907040700 METAR LRTR 040700Z 34006KT 9999 FEW045CB 20/15 Q1019=
201907040730 METAR LRTR 040730Z 30004KT 270V330 CAVOK 22/16 Q1019=
201907040800 METAR LRTR 040800Z 34004KT 260V020 CAVOK 24/15 Q1019=
201907040830 METAR LRTR 040830Z 33005KT 300V360 CAVOK 23/15 Q1019=
201907040900 METAR LRTR 040900Z 31006KT CAVOK 24/16 Q1019=
201907040930 METAR COR LRTR 040930Z 32006KT 290V350 CAVOK 24/15 Q1019=
201907041000 METAR LRTR 041000Z 33007KT CAVOK 25/14 Q1019=
201907041030 METAR LRTR 041030Z 34006KT 320V020 CAVOK 26/15 Q1019=
201907041100 METAR LRTR 041100Z 33005KT 270V010 CAVOK 27/14 Q1019=
201907041130 METAR LRTR 041130Z 35006KT 320V030 CAVOK 26/12 Q1019=
201907041200 METAR LRTR 041200Z 01007KT 340V040 CAVOK 26/14 Q1019=
201907041230 METAR LRTR 041230Z 31005KT 280V020 CAVOK 27/12 Q1019=
201907041300 METAR COR LRTR 041300Z 33008KT CAVOK 26/14 Q1019=
201907041330 METAR LRTR 041330Z 35006KT 320V020 CAVOK 26/11 Q1018=
201907041400 METAR LRTR 041400Z 36005KT 310V030 CAVOK 27/12 Q1018=
201907041430 METAR LRTR 041430Z 33005KT 300V010 CAVOK 26/14 Q1018=
201907041500 METAR LRTR 041500Z 31005KT CAVOK 27/13 Q1018=
201907041530 METAR LRTR 041530Z 30007KT CAVOK 26/13 Q1018=
201907041600 METAR COR LRTR 041600Z 29009KT 9999 FEW050CB 24/14 Q1018=
201907041630 METAR LRTR 041630Z 29011KT 9999 FEW050CB 23/14 Q1018=
201907041700 METAR LRTR 041700Z 29008KT 9999 FEW050CB 22/15 Q1018=
201907041730 METAR LRTR 041730Z 29006KT CAVOK 22/17 Q1018=
201907041800 METAR LRTR 041800Z 31004KT CAVOK 22/17 Q1018=
201907041830 METAR LRTR 041830Z 22004KT 170V260 CAVOK 21/18 Q1018=
201907041900 METAR LRTR 041900Z 31005KT CAVOK 20/18 Q1018=
201907041930 METAR LRTR 041930Z 35003KT CAVOK 19/18 Q1018=
201907042000 METAR LRTR 042000Z 25003KT CAVOK 18/18 Q1018=
201907042030 METAR LRTR 042030Z 31005KT CAVOK 18/17 Q1018=
201907042100 METAR LRTR 042100Z 32005KT CAVOK 17/17 Q1018=
201907042130 METAR LRTR 042130Z 34003KT CAVOK 17/17 Q1018=
201907042200 METAR LRTR 042200Z 31002KT CAVOK 17/17 Q1018=
201907042230 METAR LRTR 042230Z 00000KT CAVOK 16/16 Q1018=
201907042300 METAR LRTR 042300Z 00000KT CAVOK 15/15 Q1018=
201907042330 METAR LRTR 042330Z 04002KT CAVOK 15/15 Q1018=
201907050000 METAR LRTR 050000Z 35001KT CAVOK 14/14 Q1018=
201907050030 METAR LRTR 050030Z 35003KT CAVOK 13/13 Q1018=
201907050100 METAR LRTR 050100Z 01003KT CAVOK 14/13 Q1018=
201907050130 METAR LRTR 050130Z 00000KT CAVOK 14/13 Q1018=
201907050200 METAR LRTR 050200Z 11001KT CAVOK 14/12 Q1017=
201907050230 METAR LRTR 050230Z 07004KT CAVOK 13/13 Q1017=
201907050300 METAR LRTR 050300Z 36003KT CAVOK 12/12 Q1017=
201907050330 METAR LRTR 050330Z 03003KT CAVOK 13/13 Q1017=
201907050400 METAR LRTR 050400Z 04003KT 320V090 CAVOK 14/14 Q1017=
201907050430 METAR LRTR 050430Z VRB01KT CAVOK 16/15 Q1018=
201907050500 METAR LRTR 050500Z VRB02KT CAVOK 18/15 Q1017=
201907050530 METAR LRTR 050530Z VRB01KT CAVOK 19/16 Q1017=
201907050600 METAR LRTR 050600Z VRB01KT CAVOK 21/15 Q1017=
201907050630 METAR LRTR 050630Z VRB01KT CAVOK 23/14 Q1017=
201907050700 METAR LRTR 050700Z VRB01KT CAVOK 24/13 Q1017=
201907050730 METAR LRTR 050730Z 34003KT 290V030 CAVOK 24/11 Q1017=
201907050800 METAR LRTR 050800Z VRB03KT CAVOK 26/12 Q1017=
201907050830 METAR LRTR 050830Z VRB02KT 9999 FEW048 26/11 Q1017=
201907050900 METAR LRTR 050900Z 32004KT 230V360 9999 FEW048 26/12 Q1017=
201907050930 METAR LRTR 050930Z VRB02KT 9999 FEW048 27/12 Q1017=
201907051000 METAR LRTR 051000Z 30005KT 220V350 CAVOK 27/09 Q1016=
201907051030 METAR LRTR 051030Z VRB03KT CAVOK 28/10 Q1016=
201907051100 METAR LRTR 051100Z VRB03KT 9999 FEW050CB 29/11 Q1016=
201907051130 METAR LRTR 051130Z 32005KT 260V030 9999 FEW050CB 28/11 Q1015=
201907051200 METAR LRTR 051200Z VRB03KT 9999 FEW050CB 27/10 Q1015=
201907051230 METAR LRTR 051230Z 27005KT 230V320 CAVOK 28/09 Q1015=
201907051300 METAR LRTR 051300Z 33005KT 300V010 CAVOK 28/09 Q1014=
201907051330 METAR LRTR 051330Z 34005KT 280V040 CAVOK 29/10 Q1014=
201907051400 METAR LRTR 051400Z 31007KT 260V360 CAVOK 29/11 Q1014=
201907051430 METAR LRTR 051430Z 29006KT 260V340 CAVOK 29/10 Q1014=
201907051500 METAR LRTR 051500Z 27006KT 230V290 CAVOK 29/11 Q1014=
201907051530 METAR LRTR 051530Z 29006KT 260V320 CAVOK 28/12 Q1013=
201907051600 METAR LRTR 051600Z 25007KT CAVOK 28/11 Q1013=
201907051630 METAR LRTR 051630Z 28006KT CAVOK 28/11 Q1013=
201907051700 METAR COR LRTR 051700Z 26006KT CAVOK 27/13 Q1013=
201907051730 METAR LRTR 051730Z 25005KT CAVOK 26/13 Q1013=
201907051800 METAR LRTR 051800Z 25005KT CAVOK 25/13 Q1013=
201907051830 METAR LRTR 051830Z 25005KT CAVOK 24/13 Q1013=
201907051900 METAR LRTR 051900Z 24004KT CAVOK 24/13 Q1013=
201907051930 METAR LRTR 051930Z 22004KT CAVOK 24/13 Q1013=
201907052000 METAR LRTR 052000Z 22004KT CAVOK 24/13 Q1013=
201907052030 METAR LRTR 052030Z 00000KT CAVOK 19/15 Q1013=
201907052100 METAR COR LRTR 052100Z 00000KT CAVOK 18/15 Q1013=
201907052130 METAR LRTR 052130Z 09002KT CAVOK 18/16 Q1013=
201907052200 METAR LRTR 052200Z 11003KT CAVOK 18/16 Q1014=
201907052230 METAR LRTR 052230Z 10003KT CAVOK 17/16 Q1014=
201907052300 METAR LRTR 052300Z 12003KT CAVOK 17/16 Q1014=
201907052330 METAR LRTR 052330Z 11005KT CAVOK 17/16 Q1014=
201907060000 METAR LRTR 060000Z 09006KT CAVOK 16/15 Q1014=
201907060030 METAR LRTR 060030Z 08005KT CAVOK 16/15 Q1014=
201907060100 METAR LRTR 060100Z 12003KT CAVOK 16/16 Q1014=
201907060130 METAR LRTR 060130Z VRB01KT CAVOK 16/16 Q1014=
201907060200 METAR LRTR 060200Z 06001KT CAVOK 15/15 Q1014=
201907060230 METAR LRTR 060230Z 09003KT CAVOK 14/14 Q1014=
201907060300 METAR LRTR 060300Z 08004KT CAVOK 14/14 Q1014=
201907060330 METAR LRTR 060330Z 09005KT CAVOK 14/14 Q1014=
201907060400 METAR LRTR 060400Z 11004KT CAVOK 16/16 Q1014=
201907060430 METAR LRTR 060430Z 10004KT CAVOK 17/16 Q1014=
201907060500 METAR LRTR 060500Z 12003KT CAVOK 18/17 Q1014=
201907060530 METAR LRTR 060530Z VRB02KT CAVOK 21/18 Q1014=
201907060600 METAR LRTR 060600Z 14003KT 110V180 CAVOK 22/18 Q1014=
201907060630 METAR LRTR 060630Z VRB02KT CAVOK 24/15 Q1014=
201907060700 METAR LRTR 060700Z 19003KT 150V230 CAVOK 25/14 Q1014=
201907060730 METAR LRTR 060730Z 19003KT 130V270 CAVOK 27/12 Q1014=
201907060800 METAR LRTR 060800Z 23004KT 150V310 CAVOK 27/12 Q1014=
201907060830 METAR LRTR 060830Z VRB02KT CAVOK 28/11 Q1014=
201907060900 METAR LRTR 060900Z VRB02KT CAVOK 28/12 Q1014=
201907060930 METAR LRTR 060930Z VRB02KT CAVOK 29/08 Q1014=
201907061000 METAR LRTR 061000Z VRB03KT CAVOK 29/09 Q1014=
201907061030 METAR LRTR 061030Z 12004KT 020V190 CAVOK 29/09 Q1014=
201907061100 METAR LRTR 061100Z VRB02KT CAVOK 30/11 Q1013=
201907061130 METAR LRTR 061130Z VRB03KT CAVOK 30/11 Q1013=
201907061200 METAR COR LRTR 061200Z VRB04KT CAVOK 30/10 Q1013=
201907061230 METAR LRTR 061230Z 25004KT 160V320 CAVOK 31/09 Q1013=
201907061300 METAR LRTR 061300Z 30005KT 240V360 CAVOK 31/10 Q1012=
201907061330 METAR LRTR 061330Z VRB06KT CAVOK 31/09 Q1012=
201907061400 METAR LRTR 061400Z VRB03KT CAVOK 31/10 Q1012=
201907061430 METAR LRTR 061430Z VRB02KT CAVOK 31/10 Q1012=
201907061500 METAR LRTR 061500Z 25004KT 200V330 CAVOK 31/10 Q1011=
201907061530 METAR LRTR 061530Z 23004KT 160V280 CAVOK 31/11 Q1011=
201907061600 METAR LRTR 061600Z VRB02KT CAVOK 30/10 Q1011=
201907061630 METAR LRTR 061630Z 25003KT 210V290 CAVOK 30/10 Q1011=
201907061700 METAR LRTR 061700Z 17004KT CAVOK 29/13 Q1011=
201907061730 METAR LRTR 061730Z 18004KT CAVOK 29/13 Q1011=
201907061800 METAR LRTR 061800Z 16002KT CAVOK 28/14 Q1010=
201907061830 METAR LRTR 061830Z VRB02KT CAVOK 25/16 Q1010=
201907061900 METAR LRTR 061900Z 09005KT CAVOK 23/17 Q1010=
201907061930 METAR LRTR 061930Z 09007KT CAVOK 21/17 Q1010=
201907062000 METAR LRTR 062000Z 11006KT CAVOK 20/17 Q1010=
201907062030 METAR LRTR 062030Z 10006KT CAVOK 19/17 Q1010=
201907062100 METAR LRTR 062100Z 10005KT CAVOK 18/17 Q1010=
201907062130 METAR LRTR 062130Z 10006KT CAVOK 19/17 Q1010=
201907062200 METAR LRTR 062200Z 10007KT CAVOK 18/16 Q1010=
201907062230 METAR LRTR 062230Z 10007KT CAVOK 18/16 Q1010=
201907062300 METAR LRTR 062300Z 10008KT CAVOK 18/16 Q1010=
201907062330 METAR LRTR 062330Z 10007KT CAVOK 18/16 Q1010=
201907070000 METAR LRTR 070000Z 10007KT CAVOK 18/15 Q1010=
201907070030 METAR LRTR 070030Z 09008KT CAVOK 18/15 Q1010=
201907070100 METAR LRTR 070100Z 10008KT CAVOK 18/15 Q1010=
201907070130 METAR LRTR 070130Z 10009KT CAVOK 18/14 Q1009=
201907070200 METAR LRTR 070200Z 10009KT CAVOK 18/14 Q1009=
201907070230 METAR LRTR 070230Z 10009KT CAVOK 18/14 Q1009=
201907070300 METAR LRTR 070300Z 11008KT CAVOK 17/14 Q1008=
201907070330 METAR LRTR 070330Z 11007KT 9999 FEW050CB 17/14 Q1008=
201907070400 METAR LRTR 070400Z 11011KT 9999 FEW050CB 18/15 Q1008=
201907070430 METAR COR LRTR 070430Z 11008KT 9999 FEW050CB 19/15 Q1008
                        TEMPO TS=
201907070500 METAR LRTR 070500Z 10008KT 9999 TS VCSH FEW050CB 20/15 Q1008
                        NOSIG=
201907070530 METAR LRTR 070530Z 10007KT 9999 FEW050CB 21/15 Q1008 RETS
                        NOSIG=
201907070600 METAR LRTR 070600Z 13007KT 9999 VCTS FEW045CB 21/16 Q1007
                        TEMPO TSRA=
201907070630 METAR COR LRTR 070630Z 17009KT 5000 TSRA SCT035CB 19/18 Q1008
                        RESHRA R11/290095 NOSIG=
201907070700 METAR LRTR 070700Z 16008KT 9999 -TSRA FEW028 FEW035CB 20/19
                        Q1008 RESHRA R11/290095 BECMG NSW=
201907070730 METAR LRTR 070730Z 12005KT 080V180 9999 FEW050CB 20/19 Q1009
                        RETS R11/290095 NOSIG=
201907070800 METAR LRTR 070800Z 11004KT 9999 FEW050CB 20/20 Q1009 R11/290095
                        NOSIG=
201907070830 METAR LRTR 070830Z 11008KT 9999 FEW050CB 21/21 Q1009 R11/290095
                        NOSIG=
201907070900 METAR LRTR 070900Z 13009KT CAVOK 22/21 Q1009 R11/290095 NOSIG=
201907070930 METAR LRTR 070930Z 17008KT CAVOK 24/19 Q1008 R11/290095 NOSIG=
201907071000 METAR LRTR 071000Z AUTO 19009KT 9999 NCD 27/20 Q1008 NOSIG=
201907071030 METAR LRTR 071030Z 20006KT 160V240 9999 FEW028 27/20 Q1008
                        R11/290095 NOSIG=
201907071100 METAR LRTR 071100Z 25009KT 9999 FEW033 28/20 Q1008 R11/290095
                        NOSIG=
201907071130 METAR COR LRTR 071130Z 27007KT 9999 FEW035 28/19 Q1008 R11/CLRD//
                        NOSIG=
201907071200 METAR LRTR 071200Z 30005KT 260V010 9999 FEW040 29/20 Q1008
                        NOSIG=
201907071230 METAR LRTR 071230Z VRB04KT 9999 FEW045 29/18 Q1007 NOSIG=
201907071300 METAR LRTR 071300Z 31004KT 270V010 9999 FEW048 30/17 Q1007
                        NOSIG=
201907071330 METAR LRTR 071330Z 27004KT 190V300 9999 FEW049 30/18 Q1007
                        NOSIG=
201907071400 METAR LRTR 071400Z 25007KT 220V290 9999 FEW050CB 31/17 Q1006
                        NOSIG=
201907071430 METAR LRTR 071430Z 23005KT 200V270 9999 FEW050CB 30/15 Q1006
                        NOSIG=
201907071500 METAR LRTR 071500Z 26005KT 230V300 9999 FEW050CB 30/16 Q1005
                        NOSIG=
201907071530 METAR LRTR 071530Z 30003KT 9999 FEW050CB 30/16 Q1005 NOSIG=
201907071600 METAR LRTR 071600Z 32001KT 9999 FEW050CB 29/19 Q1005 NOSIG=
201907071630 METAR LRTR 071630Z 36002KT 9999 FEW050CB 29/20 Q1005=
201907071700 METAR LRTR 071700Z 29004KT 9999 FEW050CB 28/19 Q1005=
201907071730 METAR LRTR 071730Z 35007KT 9999 -SHRA FEW050CB 25/19 Q1006=
201907071800 METAR LRTR 071800Z 33007KT 9999 -TSRA FEW050CB 23/20 Q1006
                        R11/190095=
201907071830 METAR LRTR 071830Z 33019KT 9999 TSRA FEW047CB 20/18 Q1008
                        R11/290095=
201907071900 METAR LRTR 071900Z 31011KT 7000 +TSRA FEW005 SCT045CB 19/19
                        Q1009 R11/290095=
201907071930 METAR LRTR 071930Z VRB02KT 9999 TSRA SCT045CB 18/18 Q1008
                        RESHRA R11/290095=
201907072000 METAR LRTR 072000Z 14006KT 9999 -SHRA FEW050CB 18/18 Q1008
                        RESHRA R11/290095=
201907072030 METAR LRTR 072030Z 12006KT 9999 FEW050CB 18/18 Q1008 R11/290095=
201907072100 METAR LRTR 072100Z 32005KT CAVOK 18/18 Q1009 R11/290095=
201907072130 METAR LRTR 072130Z 29006KT CAVOK 18/18 Q1009 R11/290095=
201907072200 METAR LRTR 072200Z 22005KT CAVOK 19/19 Q1009 R11/290095=
201907072230 METAR LRTR 072230Z 24006KT 210V270 CAVOK 18/18 Q1009 R11/290095=
201907072300 METAR LRTR 072300Z 24005KT CAVOK 19/19 Q1010 R11/290095=
201907072330 METAR LRTR 072330Z 25006KT CAVOK 19/19 Q1010 R11/290095=
201907080000 METAR LRTR 080000Z 26004KT CAVOK 19/19 Q1010 R11/290095=
201907080030 METAR COR LRTR 080030Z VRB01KT CAVOK 19/19 Q1009 R11/290095=
201907080100 METAR LRTR 080100Z 25005KT CAVOK 18/18 Q1009 R11/290095=
201907080130 METAR LRTR 080130Z 24005KT CAVOK 18/18 Q1010 R11/290095=
201907080200 METAR LRTR 080200Z 26008KT CAVOK 18/18 Q1010 R11/290095=
201907080230 METAR LRTR 080230Z 27006KT CAVOK 17/17 Q1010 R11/290095=
201907080300 METAR LRTR 080300Z 26006KT CAVOK 17/17 Q1010 R11/290095=
201907080330 METAR LRTR 080330Z 27007KT CAVOK 17/17 Q1011 R11/290095=
201907080400 METAR LRTR 080400Z 28007KT CAVOK 17/17 Q1011 R11/15//95=
201907080430 METAR LRTR 080430Z 29007KT CAVOK 17/17 Q1011 R11/15//95=
201907080500 METAR LRTR 080500Z 30006KT 9999 FEW007 18/18 Q1011 R11/CLRD//=
201907080530 METAR COR LRTR 080530Z 32007KT 290V350 9999 FEW007 18/18
                        Q1011=
201907080600 METAR LRTR 080600Z 31007KT 9999 BKN008 19/18 Q1012=
201907080630 METAR LRTR 080630Z 34005KT 310V010 9999 BKN009 20/18 Q1012=
201907080700 METAR LRTR 080700Z 36003KT 310V070 9999 BKN011 20/19 Q1013=
201907080730 METAR LRTR 080730Z 34006KT 300V360 9999 BKN015 22/19 Q1013=
201907080800 METAR LRTR 080800Z 34008KT 310V010 9999 BKN020 22/18 Q1013=
201907080830 METAR LRTR 080830Z 32008KT 9999 SCT025 23/18 Q1013=
201907080900 METAR LRTR 080900Z 33005KT 280V020 9999 SCT030 23/16 Q1014=
201907080930 METAR LRTR 080930Z 33006KT 290V020 9999 SCT035 24/14 Q1014=
201907081000 METAR COR LRTR 081000Z 31007KT 280V350 9999 SCT040 24/14
                        Q1014=
201907081030 METAR LRTR 081030Z 31007KT 260V020 9999 FEW045 25/12 Q1014=
201907081100 METAR COR LRTR 081100Z 33006KT 280V020 9999 FEW045 25/11
                        Q1014=
201907081130 METAR LRTR 081130Z 30011KT CAVOK 27/15 Q1014=
201907081200 METAR LRTR 081200Z 32008KT 280V350 CAVOK 26/13 Q1014=
201907081230 METAR LRTR 081230Z 33010KT 290V360 CAVOK 25/11 Q1014=
201907081300 METAR LRTR 081300Z 30009KT CAVOK 26/11 Q1014=
201907081330 METAR LRTR 081330Z 30008KT CAVOK 26/12 Q1014=
201907081400 METAR LRTR 081400Z 30006KT 270V340 CAVOK 26/12 Q1014=
201907081430 METAR LRTR 081430Z 31009KT CAVOK 26/12 Q1014=
201907081500 METAR LRTR 081500Z 32010KT CAVOK 26/11 Q1013=
201907081530 METAR LRTR 081530Z 32009KT 290V010 CAVOK 26/11 Q1013=
201907081600 METAR LRTR 081600Z 30007KT CAVOK 25/12 Q1013=
201907081630 METAR LRTR 081630Z 30008KT CAVOK 25/12 Q1013 NOSIG=
201907081700 METAR LRTR 081700Z 32007KT CAVOK 24/12 Q1013 NOSIG=
201907081730 METAR LRTR 081730Z 30005KT CAVOK 23/14 Q1013 NOSIG=
201907081800 METAR LRTR 081800Z 30005KT CAVOK 21/15 Q1013 NOSIG=
201907081830 METAR LRTR 081830Z 31006KT CAVOK 21/14 Q1013 NOSIG=
201907081900 METAR LRTR 081900Z 32005KT CAVOK 20/16 Q1014 NOSIG=
201907081930 METAR LRTR 081930Z 34004KT CAVOK 20/15 Q1014 NOSIG=
201907082000 METAR LRTR 082000Z 02004KT CAVOK 18/16 Q1014 NOSIG=
201907082030 METAR LRTR 082030Z 02004KT CAVOK 18/16 Q1014 NOSIG=
201907082100 METAR LRTR 082100Z 00000KT CAVOK 19/16 Q1014 NOSIG=
201907082130 METAR LRTR 082130Z 01004KT CAVOK 18/17 Q1014 NOSIG=
201907082200 METAR LRTR 082200Z 36004KT CAVOK 19/15 Q1014 NOSIG=
201907082230 METAR LRTR 082230Z 36003KT CAVOK 18/16 Q1014 NOSIG=
201907082300 METAR LRTR 082300Z 36004KT CAVOK 18/16 Q1014 NOSIG=
201907082330 METAR LRTR 082330Z 01003KT CAVOK 18/16 Q1014 NOSIG=
201907090000 METAR LRTR 090000Z 00000KT 9999 -RA NSC 18/15 Q1015 NOSIG=
201907090030 METAR LRTR 090030Z VRB02KT CAVOK 18/15 Q1014 NOSIG=
201907090100 METAR LRTR 090100Z 34003KT 310V050 9999 -RA NSC 18/15 Q1015
                        NOSIG=
201907090130 METAR LRTR 090130Z 00000KT 9999 -RA NSC 18/16 Q1014 NOSIG=
201907090200 METAR LRTR 090200Z 01004KT 330V040 9999 -RA NSC 18/16 Q1015
                        NOSIG=
201907090230 METAR LRTR 090230Z 33004KT 9999 -RA NSC 17/14 Q1015 NOSIG=
201907090300 METAR LRTR 090300Z 28007KT 9999 -RA FEW050CB 16/16 Q1015
                        NOSIG=
201907090330 METAR LRTR 090330Z 32004KT 9999 FEW050CB 16/15 Q1015 NOSIG=
201907090400 METAR LRTR 090400Z 35005KT 9999 -RA NSC 16/14 Q1015 NOSIG=
201907090430 METAR LRTR 090430Z 35006KT CAVOK 16/14 Q1015=
201907090500 METAR LRTR 090500Z 01005KT 9999 -RA NSC 16/14 Q1015=
201907090530 METAR LRTR 090530Z 35004KT 9999 -RA NSC 16/14 Q1015=
201907090600 METAR LRTR 090600Z 30003KT 250V350 9999 -RA NSC 17/15 Q1015=
201907090630 METAR LRTR 090630Z 22003KT 190V260 CAVOK 17/14 Q1015=
201907090700 METAR LRTR 090700Z 26003KT 220V290 CAVOK 18/13 Q1015=
201907090730 METAR LRTR 090730Z VRB02KT CAVOK 20/12 Q1015=
201907090800 METAR LRTR 090800Z 33003KT 240V040 CAVOK 21/12 Q1015=
201907090830 METAR LRTR 090830Z VRB03KT 9999 FEW035 22/11 Q1015=
201907090900 METAR LRTR 090900Z VRB02KT 9999 FEW040 22/07 Q1015=
201907090930 METAR LRTR 090930Z VRB03KT 9999 FEW042 23/08 Q1015=
201907091000 METAR LRTR 091000Z VRB05KT 9999 FEW042 23/08 Q1014=
201907091030 METAR LRTR 091030Z 13005KT 080V160 9999 FEW044 24/09 Q1014=
201907091100 METAR LRTR 091100Z 16007KT 130V190 9999 FEW045 24/10 Q1015=
201907091130 METAR LRTR 091130Z VRB04KT 9999 SCT045 24/08 Q1014=
201907091200 METAR LRTR 091200Z 22007KT 170V260 9999 SCT048 24/10 Q1014=
201907091230 METAR LRTR 091230Z 21006KT 170V260 CAVOK 25/11 Q1014=
201907091300 METAR LRTR 091300Z 24007KT 200V260 CAVOK 24/09 Q1013=
201907091330 METAR LRTR 091330Z 28009KT CAVOK 25/08 Q1013=
201907091400 METAR LRTR 091400Z 27006KT 220V290 CAVOK 25/09 Q1013=
201907091430 METAR LRTR 091430Z 26007KT 210V300 9999 FEW050CB 24/11 Q1013=
201907091500 METAR LRTR 091500Z 28008KT 250V310 9999 FEW050CB 24/10 Q1013=
201907091530 METAR LRTR 091530Z 26008KT 9999 FEW050CB 23/11 Q1013=
201907091600 METAR LRTR 091600Z 25006KT 9999 FEW050CB 23/13 Q1012=
201907091630 METAR LRTR 091630Z 26009KT 9999 FEW040 FEW050CB 23/14 Q1012=
201907091700 METAR LRTR 091700Z 27010KT 9999 FEW042 21/16 Q1013=
201907091730 METAR LRTR 091730Z 28010KT CAVOK 21/16 Q1013=
201907091800 METAR LRTR 091800Z 27009KT CAVOK 20/17 Q1013=
201907091830 METAR LRTR 091830Z 27007KT CAVOK 20/17 Q1013=
201907091900 METAR LRTR 091900Z 27006KT CAVOK 19/17 Q1013=
201907091930 METAR LRTR 091930Z 28004KT CAVOK 18/17 Q1013=
201907092000 METAR LRTR 092000Z 26005KT CAVOK 18/17 Q1013=
201907092030 METAR LRTR 092030Z 27005KT CAVOK 17/16 Q1013=
201907092100 METAR LRTR 092100Z 26006KT CAVOK 17/16 Q1013=
201907092130 METAR LRTR 092130Z 29007KT CAVOK 16/16 Q1013=
201907092200 METAR LRTR 092200Z 31005KT CAVOK 15/15 Q1013=
201907092230 METAR LRTR 092230Z 29005KT CAVOK 14/14 Q1013=
201907092300 METAR LRTR 092300Z 30006KT CAVOK 14/14 Q1013=
201907092330 METAR LRTR 092330Z 30006KT CAVOK 14/14 Q1013=
201907100000 METAR LRTR 100000Z 30005KT CAVOK 14/14 Q1013=
201907100030 METAR LRTR 100030Z 28005KT CAVOK 14/13 Q1013=
201907100100 METAR LRTR 100100Z 34004KT CAVOK 14/13 Q1013=
201907100130 METAR LRTR 100130Z 35004KT 320V030 CAVOK 14/12 Q1013=
201907100200 METAR LRTR 100200Z 34002KT CAVOK 14/12 Q1013=
201907100230 METAR LRTR 100230Z 35002KT CAVOK 14/11 Q1013=
201907100300 METAR LRTR 100300Z VRB02KT CAVOK 14/10 Q1013=
201907100330 METAR LRTR 100330Z VRB01KT CAVOK 15/10 Q1013=
201907100400 METAR LRTR 100400Z 01004KT CAVOK 15/11 Q1013=
201907100430 METAR LRTR 100430Z VRB02KT CAVOK 15/12 Q1013=
201907100500 METAR LRTR 100500Z 34003KT CAVOK 15/12 Q1013=
201907100530 METAR LRTR 100530Z VRB02KT CAVOK 16/12 Q1013=
201907100600 METAR LRTR 100600Z 34005KT 320V020 CAVOK 16/13 Q1013=
201907100630 METAR LRTR 100630Z 36003KT 300V040 CAVOK 18/13 Q1013=
201907100700 METAR LRTR 100700Z 01007KT 350V050 CAVOK 19/13 Q1013=
201907100730 METAR LRTR 100730Z 33004KT 280V030 CAVOK 21/13 Q1013=
201907100800 METAR LRTR 100800Z 34007KT 310V010 CAVOK 21/08 Q1013=
201907100830 METAR LRTR 100830Z 34008KT CAVOK 22/09 Q1013=
201907100900 METAR LRTR 100900Z 29009KT CAVOK 22/09 Q1013=
201907100930 METAR LRTR 100930Z 31009KT CAVOK 21/09 Q1013=
201907101000 METAR LRTR 101000Z 29007KT 250V330 CAVOK 20/13 Q1013=
201907101030 METAR LRTR 101030Z 26011KT CAVOK 20/14 Q1013=
201907101100 METAR LRTR 101100Z 26008KT CAVOK 20/14 Q1013=
201907101130 METAR LRTR 101130Z 26008KT CAVOK 20/13 Q1013=
201907101200 METAR LRTR 101200Z 30006KT 270V340 CAVOK 21/10 Q1013=
201907101230 METAR LRTR 101230Z 34007KT 310V020 CAVOK 21/08 Q1013=
201907101300 METAR LRTR 101300Z 32009KT 260V340 CAVOK 22/08 Q1013=
201907101330 METAR LRTR 101330Z 31010KT 280V340 CAVOK 22/07 Q1013=
201907101400 METAR LRTR 101400Z 31007KT CAVOK 23/07 Q1012=
201907101430 METAR LRTR 101430Z 33011KT CAVOK 22/06 Q1012=
201907101500 METAR LRTR 101500Z 33006KT 300V010 CAVOK 22/06 Q1012=
201907101530 METAR LRTR 101530Z 30009KT CAVOK 22/06 Q1012=
201907101600 METAR LRTR 101600Z 31008KT CAVOK 22/07 Q1012=
201907101630 METAR LRTR 101630Z 32007KT CAVOK 21/07 Q1013=
201907101700 METAR LRTR 101700Z 30008KT CAVOK 22/07 Q1013=
201907101730 METAR LRTR 101730Z 31006KT CAVOK 20/08 Q1013=
201907101800 METAR LRTR 101800Z 31006KT CAVOK 18/09 Q1012=
201907101830 METAR LRTR 101830Z 31005KT CAVOK 17/11 Q1012=
201907101900 METAR LRTR 101900Z 31003KT CAVOK 16/10 Q1012=
201907101930 METAR LRTR 101930Z VRB02KT CAVOK 16/11 Q1013=
201907102000 METAR LRTR 102000Z 29001KT CAVOK 16/10 Q1013=
201907102030 METAR LRTR 102030Z 00000KT CAVOK 14/11 Q1013=
201907102100 METAR LRTR 102100Z 09001KT CAVOK 11/11 Q1013=
201907102130 METAR LRTR 102130Z 15003KT CAVOK 13/11 Q1013=
201907102200 METAR LRTR 102200Z 10003KT CAVOK 11/11 Q1013=
201907102230 METAR LRTR 102230Z 09003KT CAVOK 10/10 Q1013=
201907102300 METAR LRTR 102300Z VRB01KT CAVOK 10/10 Q1013=
201907102330 METAR LRTR 102330Z 08005KT CAVOK 09/09 Q1013=
201907110000 METAR LRTR 110000Z 08006KT CAVOK 09/09 Q1013=
201907110030 METAR LRTR 110030Z AUTO 11004KT 080V150 9999 NCD 09/09 Q1013=
201907110100 METAR LRTR 110100Z 11004KT CAVOK 09/09 Q1013=
201907110130 METAR LRTR 110130Z AUTO 08005KT 9999 NCD 08/08 Q1013=
201907110200 METAR LRTR 110200Z 12004KT CAVOK 08/08 Q1013=
201907110230 METAR LRTR 110230Z 10006KT CAVOK 09/09 Q1013=
201907110300 METAR LRTR 110300Z 10003KT CAVOK 08/08 Q1013=
201907110330 METAR COR LRTR 110330Z 10004KT 8000 MIFG FEW003 09/09 Q1013=
201907110400 METAR LRTR 110400Z 09004KT 9999 MIFG FEW002 10/10 Q1013=
201907110430 METAR LRTR 110430Z 12004KT 0300 R11/0650D R29/0600N FG SCT002
                        11/11 Q1013=
201907110500 METAR LRTR 110500Z 14004KT 0400 R11/1100N R29/1100U FG BKN001
                        11/11 Q1013=
201907110530 METAR LRTR 110530Z 12006KT 2500 BR SCT001 12/12 Q1013=
201907110600 METAR LRTR 110600Z VRB02KT 9999 SCT003 14/14 Q1013=
201907110630 METAR LRTR 110630Z VRB03KT 9999 FEW008 16/14 Q1013=
201907110700 METAR LRTR 110700Z 17005KT 9999 FEW010 17/14 Q1013=
201907110730 METAR LRTR 110730Z 25004KT 220V300 9999 FEW013 19/13 Q1013=
201907110800 METAR LRTR 110800Z VRB03KT 9999 FEW028 20/12 Q1013=
201907110830 METAR LRTR 110830Z 26007KT 230V310 9999 FEW040 22/10 Q1013=
201907110900 METAR LRTR 110900Z 28010KT 250V320 9999 FEW040 22/10 Q1013=
201907110930 METAR LRTR 110930Z 28009KT 250V310 9999 FEW045 23/11 Q1013=
201907111000 METAR LRTR 111000Z 29012KT CAVOK 24/09 Q1012=
201907111030 METAR LRTR 111030Z 29010KT CAVOK 24/10 Q1012=
201907111100 METAR LRTR 111100Z 31010KT 290V350 CAVOK 23/09 Q1012=
201907111130 METAR LRTR 111130Z 28010KT 250V310 CAVOK 25/09 Q1012=
201907111200 METAR LRTR 111200Z 29011KT 260V320 CAVOK 24/09 Q1012=
201907111230 METAR LRTR 111230Z 31011KT 280V340 CAVOK 24/09 Q1011=
201907111300 METAR LRTR 111300Z 33008KT 290V360 CAVOK 25/09 Q1011=
201907111330 METAR LRTR 111330Z 29009KT CAVOK 24/08 Q1011=
201907111400 METAR LRTR 111400Z 30007KT 280V340 CAVOK 25/09 Q1011=
201907111430 METAR LRTR 111430Z 27011KT 250V320 CAVOK 25/07 Q1011=
201907111500 METAR LRTR 111500Z 27009KT 240V300 CAVOK 25/07 Q1011=
201907111530 METAR LRTR 111530Z 27010KT CAVOK 25/08 Q1011=
201907111600 METAR LRTR 111600Z 28012KT 240V300 CAVOK 25/08 Q1011=
201907111630 METAR LRTR 111630Z 28012KT CAVOK 23/08 Q1011=
201907111700 METAR LRTR 111700Z 33009KT 290V360 9999 -SHRA FEW055CB 20/11
                        Q1011=
201907111730 METAR LRTR 111730Z 02014KT 9999 FEW055CB 18/11 Q1011=
201907111800 METAR LRTR 111800Z 03008KT 9999 FEW055CB 17/11 Q1012=
201907111830 METAR LRTR 111830Z 08004KT 060V120 CAVOK 17/12 Q1012=
201907111900 METAR LRTR 111900Z 08002KT CAVOK 16/12 Q1012=
201907111930 METAR LRTR 111930Z 11004KT 090V150 CAVOK 16/13 Q1012 RERA=
201907112000 METAR LRTR 112000Z 13003KT CAVOK 16/13 Q1012=
201907112030 METAR LRTR 112030Z 13003KT CAVOK 15/13 Q1012=
201907112100 METAR LRTR 112100Z 00000KT CAVOK 14/13 Q1013=
201907112130 METAR LRTR 112130Z 30002KT CAVOK 14/13 Q1013=
201907112200 METAR LRTR 112200Z 32004KT CAVOK 13/13 Q1013=
201907112230 METAR LRTR 112230Z 34004KT CAVOK 12/12 Q1013=
201907112300 METAR LRTR 112300Z 01006KT CAVOK 12/12 Q1013=
201907112330 METAR COR LRTR 112330Z 01006KT CAVOK 12/12 Q1013=
201907120000 METAR LRTR 120000Z 01006KT CAVOK 12/12 Q1013=
201907120030 METAR COR LRTR 120030Z 36003KT CAVOK 11/11 Q1013=
201907120100 METAR COR LRTR 120100Z 36003KT CAVOK 11/11 Q1013=
201907120130 METAR COR LRTR 120130Z 01006KT CAVOK 11/11 Q1013=
201907120200 METAR LRTR 120200Z VRB02KT CAVOK 11/11 Q1013=
201907120230 METAR LRTR 120230Z 00000KT CAVOK 10/10 Q1013=
201907120300 METAR LRTR 120300Z 08005KT CAVOK 10/10 Q1013=
201907120330 METAR LRTR 120330Z 00000KT CAVOK 11/11 Q1013=
201907120400 METAR LRTR 120400Z 05003KT CAVOK 11/11 Q1014=
201907120430 METAR LRTR 120430Z 06003KT 030V090 CAVOK 12/12 Q1013=
201907120500 METAR COR LRTR 120500Z 09003KT CAVOK 14/14 Q1014=
201907120530 METAR LRTR 120530Z 09004KT CAVOK 15/13 Q1014=
201907120600 METAR LRTR 120600Z 08004KT 050V120 CAVOK 17/14 Q1014=
201907120630 METAR LRTR 120630Z 10004KT 070V160 CAVOK 18/13 Q1014=
201907120700 METAR LRTR 120700Z 13005KT 070V160 CAVOK 19/11 Q1014=
201907120730 METAR LRTR 120730Z VRB02KT CAVOK 21/11 Q1014=
201907120800 METAR LRTR 120800Z 15004KT CAVOK 21/11 Q1014=
201907120830 METAR LRTR 120830Z VRB04KT 9999 FEW035 21/11 Q1014=
201907120900 METAR LRTR 120900Z VRB04KT 9999 FEW038 22/09 Q1014=
201907120930 METAR LRTR 120930Z 36006KT 320V030 9999 FEW040 23/08 Q1014=
201907121000 METAR LRTR 121000Z 02005KT 310V080 9999 FEW045 23/07 Q1013=
201907121030 METAR LRTR 121030Z VRB02KT 9999 FEW045 23/08 Q1013=
201907121100 METAR COR LRTR 121100Z VRB04KT 9999 FEW045 24/07 Q1013=
201907121130 METAR LRTR 121130Z 03005KT 340V130 CAVOK 24/08 Q1013=
201907121200 METAR LRTR 121200Z VRB04KT CAVOK 24/08 Q1013=
201907121230 METAR LRTR 121230Z 04004KT 340V150 CAVOK 24/08 Q1013=
201907121300 METAR LRTR 121300Z 33005KT 290V020 CAVOK 25/09 Q1012=
201907121330 METAR LRTR 121330Z VRB04KT CAVOK 24/09 Q1012=
201907121400 METAR LRTR 121400Z VRB01KT CAVOK 25/08 Q1012=
201907121430 METAR LRTR 121430Z 32004KT 290V360 CAVOK 24/08 Q1012=
201907121500 METAR COR LRTR 121500Z 34004KT 310V010 CAVOK 24/09 Q1012=
201907121530 METAR COR LRTR 121530Z 26013KT CAVOK 22/12 Q1012=
201907121600 METAR LRTR 121600Z 30008KT CAVOK 21/12 Q1012=
201907121630 METAR LRTR 121630Z 30007KT CAVOK 21/12 Q1012=
201907121700 METAR LRTR 121700Z 30007KT CAVOK 21/12 Q1012=
201907121730 METAR LRTR 121730Z 32006KT 9999 -RA NSC 20/13 Q1012=
201907121800 METAR LRTR 121800Z 32007KT CAVOK 19/13 Q1012=
201907121830 METAR LRTR 121830Z 33005KT CAVOK 19/13 Q1012=
201907121900 METAR LRTR 121900Z VRB02KT CAVOK 19/14 Q1012=
201907121930 METAR LRTR 121930Z 07004KT CAVOK 18/15 Q1012=
201907122000 METAR LRTR 122000Z VRB01KT CAVOK 18/14 Q1012=
201907122030 METAR LRTR 122030Z 15003KT CAVOK 17/14 Q1012=
201907122100 METAR LRTR 122100Z VRB02KT CAVOK 18/14 Q1012=
201907122130 METAR LRTR 122130Z 14001KT CAVOK 18/15 Q1012=
201907122200 METAR LRTR 122200Z 00000KT CAVOK 19/16 Q1012=
201907122230 METAR LRTR 122230Z 00000KT CAVOK 17/16 Q1012=
201907122300 METAR LRTR 122300Z 00000KT CAVOK 17/16 Q1012=
201907122330 METAR LRTR 122330Z 00000KT CAVOK 17/16 Q1012=
201907130000 METAR LRTR 130000Z 00000KT CAVOK 16/15 Q1012=
201907130030 METAR LRTR 130030Z 00000KT CAVOK 16/15 Q1012=
201907130100 METAR LRTR 130100Z 06002KT CAVOK 16/15 Q1012=
201907130130 METAR COR LRTR 130130Z VRB01KT CAVOK 17/15 Q1011=
201907130200 METAR LRTR 130200Z 00000KT CAVOK 16/15 Q1011=
201907130230 METAR LRTR 130230Z 00000KT CAVOK 16/15 Q1011=
201907130300 METAR LRTR 130300Z 11005KT CAVOK 14/14 Q1011=
201907130330 METAR LRTR 130330Z 12006KT CAVOK 14/14 Q1011=
201907130400 METAR COR LRTR 130400Z 11005KT CAVOK 15/15 Q1011=
201907130430 METAR LRTR 130430Z 12008KT CAVOK 16/16 Q1011=
201907130500 METAR LRTR 130500Z 12006KT CAVOK 16/16 Q1011=
201907130530 METAR LRTR 130530Z 09006KT 9999 FEW050CB 17/16 Q1011=
201907130600 METAR LRTR 130600Z 09005KT 060V120 9999 FEW050CB 18/15 Q1012=
201907130630 METAR LRTR 130630Z 08005KT 9999 FEW050CB 19/15 Q1011=
201907130700 METAR LRTR 130700Z 05005KT 9999 FEW050CB 19/16 Q1011=
201907130730 METAR LRTR 130730Z 11005KT 9999 FEW050CB 20/15 Q1011=
201907130800 METAR LRTR 130800Z 07005KT 9999 -SHRA FEW050CB 20/15 Q1011=
201907130830 METAR LRTR 130830Z 08006KT 9999 -SHRA FEW045CB 18/17 Q1011=
201907130900 METAR LRTR 130900Z 11009KT 9999 -SHRA FEW045CB 17/17 Q1011=
201907130930 METAR LRTR 130930Z 09008KT 9999 -RA FEW050CB 17/17 Q1011
                        R11/29//95=
201907131000 METAR LRTR 131000Z 10006KT 9999 FEW050CB 18/17 Q1011 R11/29//95=
201907131030 METAR LRTR 131030Z 11007KT CAVOK 18/17 Q1011 R11/29//95=
201907131100 METAR LRTR 131100Z 11007KT CAVOK 18/18 Q1010 R11/29//95=
201907131130 METAR LRTR 131130Z 11008KT CAVOK 20/16 Q1010 R11/29//95=
201907131200 METAR LRTR 131200Z 11009KT CAVOK 21/16 Q1010 R11/CLRD//=
201907131230 METAR LRTR 131230Z 13007KT 9999 FEW025 21/16 Q1010=
201907131300 METAR LRTR 131300Z 13005KT 9999 FEW030 22/16 Q1009=
201907131330 METAR LRTR 131330Z VRB02KT 9999 FEW030 22/16 Q1009=
201907131400 METAR LRTR 131400Z VRB03KT 9999 FEW030 FEW050CB 23/16 Q1009=
201907131430 METAR LRTR 131430Z VRB02KT 9999 FEW036 FEW050CB 23/16 Q1009=
201907131500 METAR LRTR 131500Z 36004KT 310V030 9999 FEW037 FEW050CB 23/16
                        Q1009=
201907131530 METAR LRTR 131530Z 02009KT 9999 FEW040 20/15 Q1009=
201907131600 METAR LRTR 131600Z 02009KT 9999 FEW040 19/15 Q1009=
201907131630 METAR LRTR 131630Z 02010KT 9999 FEW045 20/15 Q1009=
201907131700 METAR LRTR 131700Z 01008KT CAVOK 19/15 Q1009=
201907131730 METAR LRTR 131730Z 04005KT CAVOK 18/16 Q1009=
201907131800 METAR LRTR 131800Z 02003KT CAVOK 17/16 Q1009=
201907131830 METAR COR LRTR 131830Z 00000KT CAVOK 17/15 Q1009=
201907131900 METAR LRTR 131900Z 13003KT 9999 FEW048 17/15 Q1010=
201907131930 METAR LRTR 131930Z 12004KT 9999 FEW048 16/15 Q1010=
201907132000 METAR LRTR 132000Z VRB02KT CAVOK 16/15 Q1010=
201907132030 METAR LRTR 132030Z 12003KT CAVOK 16/15 Q1010=
201907132100 METAR LRTR 132100Z 00000KT CAVOK 15/15 Q1010=
201907132130 METAR LRTR 132130Z 00000KT CAVOK 15/15 Q1010=
201907132200 METAR LRTR 132200Z 00000KT 9999 -SHRA FEW050CB 15/15 Q1010=
201907132230 METAR COR LRTR 132230Z 00000KT 9999 SCT035 FEW050CB 16/16
                        Q1010=
201907132300 METAR LRTR 132300Z 00000KT 9999 SCT035 FEW050CB 15/15 Q1009=
201907132330 METAR LRTR 132330Z 00000KT CAVOK 15/15 Q1009=
201907140000 METAR LRTR 140000Z 19004KT CAVOK 15/15 Q1009=
201907140030 METAR LRTR 140030Z 00000KT CAVOK 14/14 Q1009=
201907140100 METAR LRTR 140100Z 00000KT 9999 SCT033 13/13 Q1009=
201907140130 METAR LRTR 140130Z 00000KT 9999 SCT036 13/13 Q1009=
201907140200 METAR LRTR 140200Z VRB02KT 9999 SCT038 13/13 Q1009=
201907140230 METAR LRTR 140230Z VRB01KT 9999 SCT038 13/13 Q1009=
201907140300 METAR LRTR 140300Z 09005KT 8000 MIFG FEW040 12/12 Q1009=
201907140330 METAR LRTR 140330Z 10003KT 2000 BR SCT004 13/13 Q1009=
201907140400 METAR LRTR 140400Z 09003KT 2000 BR SCT003 BKN043 13/13 Q1009=
201907140430 METAR LRTR 140430Z 11004KT 2000 BR BKN004 BKN037 14/14 Q1009=
201907140500 METAR LRTR 140500Z 10003KT 3000 BR OVC003 15/15 Q1009=
201907140530 METAR LRTR 140530Z VRB02KT 5000 BR OVC003 15/15 Q1009=
201907140600 METAR LRTR 140600Z VRB02KT 6000 OVC003 16/16 Q1009=
201907140630 METAR LRTR 140630Z VRB02KT 8000 OVC004 16/16 Q1009=
201907140700 METAR LRTR 140700Z VRB02KT 9999 OVC006 17/17 Q1009=
201907140730 METAR LRTR 140730Z VRB02KT 9999 OVC008 17/17 Q1009=
201907140800 METAR LRTR 140800Z 14003KT 100V190 9999 BKN011 18/17 Q1009=
201907140830 METAR LRTR 140830Z VRB02KT 9999 BKN013 19/17 Q1009=
201907140900 METAR LRTR 140900Z 18003KT 110V250 9999 SCT015 20/17 Q1009=
201907140930 METAR LRTR 140930Z VRB01KT 9999 FEW019 21/17 Q1009=
201907141000 METAR LRTR 141000Z 26005KT 230V290 9999 FEW025 22/16 Q1009=
201907141030 METAR LRTR 141030Z VRB03KT 9999 SCT030 22/15 Q1009=
201907141100 METAR LRTR 141100Z VRB05KT 9999 FEW033CB BKN035 22/15 Q1009=
201907141130 METAR COR LRTR 141130Z 30012KT 9999 FEW030CB BKN035 20/17
                        Q1009=
201907141200 METAR LRTR 141200Z 31008KT 9999 -SHRA FEW035CB 18/18 Q1009=
201907141230 METAR LRTR 141230Z 31007KT 9999 FEW038 FEW040CB 19/18 Q1009=
201907141300 METAR LRTR 141300Z 32008KT 9999 FEW042CB 19/17 Q1009=
201907141330 METAR LRTR 141330Z 29006KT 9999 FEW033CB 20/18 Q1009=
201907141400 METAR LRTR 141400Z 28004KT 250V330 9999 FEW033 FEW035CB 22/16
                        Q1009=
201907141430 METAR LRTR 141430Z 31006KT 270V340 9999 FEW035CB 22/17 Q1009=
201907141500 METAR LRTR 141500Z 28006KT 250V310 9999 FEW040CB 23/15 Q1008=
201907141530 METAR LRTR 141530Z 31004KT 250V050 9999 TS SCT040CB 23/15
                        Q1008=
201907141600 METAR LRTR 141600Z 30010KT 270V340 5000 +TSRA FEW021 BKN038CB
                        17/16 Q1009 R11/290095=
201907141630 METAR LRTR 141630Z 32005KT 9999 -TSRA SCT045CB 18/17 Q1009
                        R11/290095=
201907141700 METAR LRTR 141700Z 01003KT 9999 -TSRA SCT050CB 18/17 Q1009
                        R11/290095=
201907141730 METAR LRTR 141730Z 35001KT 9999 TS SCT050CB 19/18 Q1009 R11/290095=
201907141800 METAR LRTR 141800Z 32003KT 9999 FEW050CB 18/18 Q1009 R11/290095=
201907141830 METAR LRTR 141830Z 27002KT 9999 FEW050CB 18/18 Q1009 R11/290095=
201907141900 METAR LRTR 141900Z 33004KT CAVOK 17/17 Q1010 R11/290095=
201907141930 METAR LRTR 141930Z 30005KT CAVOK 16/16 Q1010 R11/290095=
201907142000 METAR LRTR 142000Z 30004KT CAVOK 16/16 Q1010 R11/290095=
201907142030 METAR LRTR 142030Z 30004KT CAVOK 16/16 Q1010 R11/290095=
201907142100 METAR LRTR 142100Z 30005KT CAVOK 16/16 Q1010 R11/290095=
201907142130 METAR LRTR 142130Z 30004KT CAVOK 16/16 Q1010 R11/290095=
201907142200 METAR LRTR 142200Z 00000KT CAVOK 15/15 Q1010 R11/290095=
201907142230 METAR LRTR 142230Z 30003KT CAVOK 15/15 Q1010 R11/290095=
201907142300 METAR LRTR 142300Z 32002KT CAVOK 15/15 Q1010 R11/290095=
201907142330 METAR LRTR 142330Z 29004KT CAVOK 14/14 Q1010 R11/290095=
201907150000 METAR LRTR 150000Z 32004KT CAVOK 14/14 Q1010 R11/290095=
201907150030 METAR LRTR 150030Z 34003KT 310V010 CAVOK 15/15 Q1010 R11/290095=
201907150100 METAR LRTR 150100Z VRB02KT CAVOK 15/15 Q1010 R11/290095=
201907150130 METAR LRTR 150130Z 36004KT CAVOK 15/15 Q1010 R11/290095=
201907150200 METAR LRTR 150200Z 34003KT 320V020 CAVOK 15/15 Q1010 R11/290095=
201907150230 METAR LRTR 150230Z 33003KT CAVOK 15/15 Q1010 R11/290095=
201907150300 METAR LRTR 150300Z 34004KT CAVOK 14/14 Q1010 R11/290095=
201907150330 METAR LRTR 150330Z 35005KT CAVOK 14/14 Q1010 R11/CLRD//=
201907150400 METAR LRTR 150400Z 35005KT CAVOK 14/14 Q1010=
201907150430 METAR LRTR 150430Z VRB02KT CAVOK 15/15 Q1010=
201907150500 METAR LRTR 150500Z 34004KT CAVOK 16/16 Q1010=
201907150530 METAR LRTR 150530Z 36004KT 320V030 CAVOK 17/16 Q1010=
201907150600 METAR LRTR 150600Z 01006KT 9999 FEW015 17/16 Q1011=
201907150630 METAR LRTR 150630Z 35006KT 320V040 9999 FEW015 17/15 Q1011=
201907150700 METAR COR LRTR 150700Z 33007KT 9999 FEW016 18/16 Q1011=
201907150730 METAR LRTR 150730Z 33005KT 290V030 9999 FEW018 19/16 Q1011=
201907150800 METAR LRTR 150800Z 33007KT 300V030 9999 FEW020 20/16 Q1010=
201907150830 METAR LRTR 150830Z 33007KT 300V020 9999 FEW025 21/13 Q1010=
201907150900 METAR LRTR 150900Z 35007KT 320V020 9999 FEW028 22/14 Q1011=
201907150930 METAR LRTR 150930Z 01007KT 350V050 9999 FEW035 22/14 Q1011=
201907151000 METAR LRTR 151000Z 01006KT 330V050 9999 FEW040 23/15 Q1011=
201907151030 METAR LRTR 151030Z 01007KT 340V050 9999 FEW043 24/14 Q1011=
201907151100 METAR LRTR 151100Z 35007KT 320V030 9999 FEW047 23/13 Q1010=
201907151130 METAR LRTR 151130Z 34007KT 9999 FEW048 24/13 Q1010=
201907151200 METAR LRTR 151200Z 33009KT 290V360 CAVOK 24/12 Q1010=
201907151230 METAR LRTR 151230Z 34009KT CAVOK 23/13 Q1010=
201907151300 METAR LRTR 151300Z 35009KT 320V020 CAVOK 24/12 Q1010=
201907151330 METAR LRTR 151330Z 36010KT CAVOK 24/12 Q1010=
201907151400 METAR LRTR 151400Z 35009KT 320V020 CAVOK 24/11 Q1010=
201907151430 METAR LRTR 151430Z 01010KT CAVOK 25/12 Q1010=
201907151500 METAR LRTR 151500Z 35009KT CAVOK 25/09 Q1010=
201907151530 METAR LRTR 151530Z 36009KT CAVOK 24/11 Q1010=
201907151600 METAR LRTR 151600Z 36008KT 330V030 CAVOK 23/11 Q1010=
201907151630 METAR LRTR 151630Z 35011KT CAVOK 24/10 Q1010=
201907151700 METAR LRTR 151700Z 36008KT CAVOK 23/09 Q1011=
201907151730 METAR LRTR 151730Z 01006KT CAVOK 22/10 Q1011=
201907151800 METAR LRTR 151800Z 01006KT CAVOK 20/11 Q1011=
201907151830 METAR LRTR 151830Z 36005KT CAVOK 17/12 Q1011=
201907151900 METAR LRTR 151900Z 01007KT CAVOK 16/12 Q1011=
201907151930 METAR LRTR 151930Z 36005KT CAVOK 15/12 Q1011=
201907152000 METAR LRTR 152000Z 03004KT CAVOK 14/12 Q1011=
201907152030 METAR COR LRTR 152030Z 01004KT CAVOK 14/12 Q1012=
201907152100 METAR LRTR 152100Z 36004KT CAVOK 14/11 Q1012=
201907152130 METAR LRTR 152130Z 08004KT 350V140 CAVOK 13/11 Q1012=
201907152200 METAR LRTR 152200Z VRB02KT CAVOK 12/11 Q1012=
201907152230 METAR LRTR 152230Z 35003KT CAVOK 13/11 Q1012=
201907152300 METAR LRTR 152300Z 33002KT CAVOK 13/11 Q1012=
201907152330 METAR LRTR 152330Z 32004KT CAVOK 12/11 Q1012=
201907160000 METAR LRTR 160000Z 01005KT CAVOK 11/11 Q1012=
201907160030 METAR LRTR 160030Z 05004KT CAVOK 12/10 Q1012=
201907160100 METAR LRTR 160100Z VRB01KT CAVOK 12/10 Q1012=
201907160130 METAR LRTR 160130Z VRB02KT CAVOK 11/10 Q1012=
201907160200 METAR LRTR 160200Z VRB02KT CAVOK 10/10 Q1012=
201907160230 METAR LRTR 160230Z 00000KT CAVOK 10/10 Q1012=
201907160300 METAR LRTR 160300Z 07005KT CAVOK 09/09 Q1012=
201907160330 METAR LRTR 160330Z 02003KT CAVOK 10/10 Q1012=
201907160400 METAR LRTR 160400Z VRB01KT CAVOK 11/11 Q1012=
201907160430 METAR LRTR 160430Z VRB02KT CAVOK 14/13 Q1012=
201907160500 METAR LRTR 160500Z 10004KT CAVOK 15/15 Q1012=
201907160530 METAR LRTR 160530Z 10005KT CAVOK 17/16 Q1012=
201907160600 METAR LRTR 160600Z 10005KT 060V130 CAVOK 18/16 Q1012=
201907160630 METAR LRTR 160630Z 12004KT 070V150 CAVOK 19/16 Q1012=
201907160700 METAR LRTR 160700Z 11003KT 070V150 CAVOK 20/15 Q1012=
201907160730 METAR LRTR 160730Z 14003KT 050V190 CAVOK 21/15 Q1012=
201907160800 METAR LRTR 160800Z VRB02KT CAVOK 23/13 Q1012=
201907160830 METAR LRTR 160830Z 36004KT 320V070 CAVOK 23/12 Q1012=
201907160900 METAR LRTR 160900Z 35008KT 9999 FEW045 24/10 Q1012=
201907160930 METAR LRTR 160930Z 01006KT 310V120 9999 FEW048 25/10 Q1012=
201907161000 METAR LRTR 161000Z 33008KT CAVOK 25/09 Q1012=
201907161030 METAR LRTR 161030Z 01007KT 330V050 CAVOK 26/07 Q1012=
201907161100 METAR LRTR 161100Z 35011KT CAVOK 26/08 Q1012=
201907161130 METAR LRTR 161130Z 33008KT CAVOK 26/07 Q1012=
201907161200 METAR LRTR 161200Z 33009KT 280V010 CAVOK 26/09 Q1011=
201907161230 METAR LRTR 161230Z 33010KT 290V020 CAVOK 26/07 Q1011=
201907161300 METAR LRTR 161300Z 36010KT CAVOK 26/06 Q1011=
201907161330 METAR LRTR 161330Z 36011KT CAVOK 26/07 Q1011=
201907161400 METAR LRTR 161400Z 34009KT 300V360 CAVOK 26/08 Q1011=
201907161430 METAR LRTR 161430Z 33010KT CAVOK 26/07 Q1011=
201907161500 METAR LRTR 161500Z 36010KT CAVOK 26/07 Q1011=
201907161530 METAR LRTR 161530Z 34010KT CAVOK 26/08 Q1011=
201907161600 METAR LRTR 161600Z 01008KT CAVOK 25/07 Q1011=
201907161630 METAR LRTR 161630Z 35007KT CAVOK 25/07 Q1011=
201907161700 METAR LRTR 161700Z 34007KT CAVOK 25/08 Q1011=
201907161730 METAR LRTR 161730Z 34004KT CAVOK 23/09 Q1011=
201907161800 METAR LRTR 161800Z 35004KT CAVOK 22/09 Q1011=
201907161830 METAR LRTR 161830Z 03003KT 360V070 CAVOK 20/11 Q1011=
201907161900 METAR LRTR 161900Z 03004KT CAVOK 19/10 Q1011=
201907161930 METAR LRTR 161930Z 02003KT CAVOK 16/12 Q1012=
201907162000 METAR LRTR 162000Z 05003KT CAVOK 16/11 Q1012=
201907162030 METAR LRTR 162030Z 04003KT CAVOK 16/11 Q1012=
201907162100 METAR LRTR 162100Z 00000KT CAVOK 14/11 Q1012=
201907162130 METAR LRTR 162130Z 00000KT CAVOK 14/12 Q1012=
201907162200 METAR LRTR 162200Z 00000KT CAVOK 13/11 Q1012=
201907162230 METAR LRTR 162230Z 00000KT CAVOK 13/11 Q1012=
201907162300 METAR LRTR 162300Z 00000KT CAVOK 12/11 Q1012=
201907162330 METAR LRTR 162330Z 08004KT CAVOK 11/11 Q1012=
201907170000 METAR LRTR 170000Z 09006KT CAVOK 11/11 Q1012=
201907170030 METAR LRTR 170030Z 11005KT CAVOK 11/11 Q1012=
201907170100 METAR LRTR 170100Z 11003KT CAVOK 11/11 Q1012=
201907170130 METAR LRTR 170130Z 12003KT CAVOK 11/11 Q1012=
201907170200 METAR LRTR 170200Z 11005KT CAVOK 11/11 Q1012=
201907170230 METAR LRTR 170230Z 13006KT CAVOK 10/10 Q1012=
201907170300 METAR LRTR 170300Z 12005KT CAVOK 11/11 Q1012=
201907170330 METAR LRTR 170330Z 11004KT CAVOK 10/10 Q1012=
201907170400 METAR LRTR 170400Z 10005KT CAVOK 11/11 Q1012=
201907170430 METAR LRTR 170430Z 11005KT CAVOK 13/13 Q1012=
201907170500 METAR LRTR 170500Z 13004KT CAVOK 14/13 Q1012=
201907170530 METAR LRTR 170530Z VRB02KT CAVOK 15/13 Q1012=
201907170600 METAR LRTR 170600Z VRB01KT CAVOK 17/13 Q1012=
201907170630 METAR LRTR 170630Z 30003KT 260V330 CAVOK 19/12 Q1012=
201907170700 METAR LRTR 170700Z 32005KT 290V350 CAVOK 20/13 Q1012=
201907170730 METAR LRTR 170730Z 28005KT 240V320 CAVOK 22/13 Q1012=
201907170800 METAR LRTR 170800Z 30010KT 270V330 CAVOK 22/11 Q1012=
201907170830 METAR LRTR 170830Z 29009KT CAVOK 23/12 Q1012=
201907170900 METAR LRTR 170900Z 30008KT 260V340 CAVOK 24/12 Q1012=
201907170930 METAR LRTR 170930Z 32009KT 290V360 CAVOK 25/13 Q1012=
201907171000 METAR LRTR 171000Z 31008KT 270V340 CAVOK 25/12 Q1012=
201907171030 METAR LRTR 171030Z 31008KT 270V340 CAVOK 25/12 Q1011=
201907171100 METAR LRTR 171100Z 31009KT 270V350 9999 FEW040 25/11 Q1011=
201907171130 METAR LRTR 171130Z 30008KT 270V340 9999 FEW043 26/11 Q1011=
201907171200 METAR LRTR 171200Z 31011KT 290V350 9999 FEW043 26/11 Q1011=
201907171230 METAR LRTR 171230Z 31011KT 280V340 9999 FEW045 26/11 Q1011=
201907171300 METAR LRTR 171300Z 31008KT 280V350 9999 FEW047 26/10 Q1011=
201907171330 METAR LRTR 171330Z 32011KT 280V350 9999 FEW048 26/11 Q1011=
201907171400 METAR LRTR 171400Z 31011KT 280V350 CAVOK 26/09 Q1011=
201907171430 METAR LRTR 171430Z 33010KT 290V350 CAVOK 26/10 Q1011=
201907171500 METAR LRTR 171500Z 33010KT 300V360 CAVOK 26/10 Q1011=
201907171530 METAR LRTR 171530Z 33009KT CAVOK 26/10 Q1011=
201907171600 METAR LRTR 171600Z 33006KT 290V010 CAVOK 26/10 Q1010=
201907171630 METAR LRTR 171630Z 34008KT 310V010 CAVOK 25/10 Q1011=
201907171700 METAR LRTR 171700Z 35006KT CAVOK 25/10 Q1011=
201907171730 METAR LRTR 171730Z 35005KT CAVOK 23/12 Q1011=
201907171800 METAR LRTR 171800Z 36005KT CAVOK 21/13 Q1011=
201907171830 METAR LRTR 171830Z 03004KT CAVOK 19/13 Q1011=
201907171900 METAR COR LRTR 171900Z 03004KT CAVOK 17/13 Q1011=
201907171930 METAR LRTR 171930Z 04004KT CAVOK 16/13 Q1011=
201907172000 METAR LRTR 172000Z 06007KT CAVOK 16/13 Q1011=
201907172030 METAR COR LRTR 172030Z 09003KT 070V130 CAVOK 16/13 Q1011=
201907172100 METAR LRTR 172100Z 13003KT CAVOK 16/13 Q1011=
201907172130 METAR COR LRTR 172130Z 10005KT CAVOK 15/13 Q1012=
201907172200 METAR COR LRTR 172200Z 10004KT CAVOK 15/13 Q1012=
201907172230 METAR LRTR 172230Z 08005KT CAVOK 13/12 Q1012=
201907172300 METAR COR LRTR 172300Z 08006KT CAVOK 13/12 Q1012=
201907172330 METAR LRTR 172330Z 10004KT CAVOK 13/13 Q1011=
201907180000 METAR LRTR 180000Z 09002KT CAVOK 13/12 Q1012=
201907180030 METAR LRTR 180030Z 08005KT CAVOK 12/12 Q1012=
201907180100 METAR LRTR 180100Z 09005KT CAVOK 12/12 Q1012=
201907180130 METAR LRTR 180130Z 10005KT CAVOK 12/12 Q1012=
201907180200 METAR LRTR 180200Z 10005KT CAVOK 12/12 Q1012=
201907180230 METAR LRTR 180230Z 10004KT CAVOK 11/11 Q1012=
201907180300 METAR LRTR 180300Z 10004KT CAVOK 11/11 Q1012=
201907180330 METAR LRTR 180330Z 10004KT CAVOK 11/11 Q1012=
201907180400 METAR LRTR 180400Z 09005KT CAVOK 13/13 Q1012=
201907180430 METAR LRTR 180430Z 12005KT CAVOK 15/14 Q1012=
201907180500 METAR LRTR 180500Z 11007KT CAVOK 15/15 Q1012=
201907180530 METAR LRTR 180530Z 11007KT CAVOK 17/15 Q1012=
201907180600 METAR LRTR 180600Z 11008KT CAVOK 19/15 Q1013=
201907180630 METAR LRTR 180630Z 12008KT CAVOK 20/14 Q1013=
201907180700 METAR LRTR 180700Z 12008KT CAVOK 21/14 Q1013=
201907180730 METAR LRTR 180730Z 11005KT 070V140 CAVOK 22/15 Q1013=
201907180800 METAR LRTR 180800Z 11004KT 070V190 CAVOK 24/13 Q1013=
201907180830 METAR LRTR 180830Z 09004KT 060V130 CAVOK 24/13 Q1013=
201907180900 METAR LRTR 180900Z 10004KT 060V140 CAVOK 25/13 Q1013=
201907180930 METAR LRTR 180930Z VRB03KT CAVOK 26/10 Q1013=
201907181000 METAR LRTR 181000Z VRB02KT CAVOK 27/10 Q1013=
201907181030 METAR LRTR 181030Z VRB03KT CAVOK 27/10 Q1013=
201907181100 METAR LRTR 181100Z VRB02KT CAVOK 28/10 Q1013=
201907181130 METAR LRTR 181130Z VRB04KT CAVOK 27/09 Q1013=
201907181200 METAR LRTR 181200Z 08005KT 030V150 CAVOK 28/10 Q1012=
201907181230 METAR LRTR 181230Z 35005KT 290V050 CAVOK 28/10 Q1012=
201907181300 METAR LRTR 181300Z VRB05KT CAVOK 28/09 Q1012=
201907181330 METAR LRTR 181330Z 28004KT 200V010 CAVOK 29/08 Q1012=
201907181400 METAR LRTR 181400Z 36004KT 320V070 CAVOK 28/09 Q1012=
201907181430 METAR LRTR 181430Z VRB03KT CAVOK 28/10 Q1012=
201907181500 METAR LRTR 181500Z 31007KT 280V340 CAVOK 28/12 Q1012=
201907181530 METAR LRTR 181530Z 35005KT 300V010 CAVOK 28/11 Q1012=
201907181600 METAR LRTR 181600Z 01008KT CAVOK 27/12 Q1012=
201907181630 METAR LRTR 181630Z 01006KT CAVOK 26/12 Q1012=
201907181700 METAR LRTR 181700Z 02012KT CAVOK 24/13 Q1012=
201907181730 METAR LRTR 181730Z 04010KT CAVOK 23/12 Q1012=
201907181800 METAR LRTR 181800Z 03009KT CAVOK 22/12 Q1013=
201907181830 METAR LRTR 181830Z 03006KT CAVOK 20/13 Q1013=
201907181900 METAR LRTR 181900Z 04007KT CAVOK 20/14 Q1013=
201907181930 METAR LRTR 181930Z 03005KT CAVOK 19/14 Q1014=
201907182000 METAR LRTR 182000Z 03004KT CAVOK 19/15 Q1014=
201907182030 METAR LRTR 182030Z 07003KT CAVOK 18/14 Q1014=
201907182100 METAR LRTR 182100Z 01005KT CAVOK 18/15 Q1014=
201907182130 METAR LRTR 182130Z AUTO 02006KT 9999 FEW100/// SCT120///
                        18/15 Q1014=
201907182200 METAR LRTR 182200Z 02006KT CAVOK 18/15 Q1014=
201907182230 METAR LRTR 182230Z AUTO 02005KT 9999 SCT130/// 17/15 Q1014=
201907182300 METAR LRTR 182300Z 03006KT CAVOK 17/15 Q1014=
201907182330 METAR LRTR 182330Z 04005KT CAVOK 16/15 Q1015=
201907190000 METAR COR LRTR 190000Z 35004KT CAVOK 17/15 Q1015=
201907190030 METAR LRTR 190030Z AUTO 06005KT 9999 NCD 16/15 Q1015=
201907190100 METAR COR LRTR 190100Z 04004KT CAVOK 16/15 Q1015=
201907190130 METAR LRTR 190130Z 07006KT CAVOK 15/14 Q1015=
201907190200 METAR LRTR 190200Z VRB02KT CAVOK 16/14 Q1015=
201907190230 METAR LRTR 190230Z VRB02KT CAVOK 15/15 Q1015=
201907190300 METAR LRTR 190300Z VRB02KT CAVOK 16/15 Q1015=
201907190330 METAR LRTR 190330Z VRB02KT CAVOK 16/15 Q1015=
201907190400 METAR LRTR 190400Z 06005KT CAVOK 16/15 Q1015=
201907190430 METAR LRTR 190430Z 07004KT CAVOK 18/16 Q1015=
201907190500 METAR LRTR 190500Z VRB02KT CAVOK 19/17 Q1016=
201907190530 METAR LRTR 190530Z 05004KT CAVOK 20/16 Q1016=
201907190600 METAR LRTR 190600Z 07006KT CAVOK 21/16 Q1016=
201907190630 METAR LRTR 190630Z 08006KT CAVOK 21/16 Q1016=
201907190700 METAR LRTR 190700Z 12005KT CAVOK 22/17 Q1016=
201907190730 METAR LRTR 190730Z 11005KT CAVOK 23/17 Q1016=
201907190800 METAR LRTR 190800Z 11004KT 070V140 CAVOK 24/17 Q1017=
201907190830 METAR LRTR 190830Z 13005KT 090V170 CAVOK 24/16 Q1017=
201907190900 METAR LRTR NIL=
201907190930 METAR LRTR 190930Z 16005KT 100V200 9999 FEW038 26/16 Q1017=
201907191000 METAR LRTR 191000Z VRB04KT 9999 FEW042 27/15 Q1017=
201907191030 METAR LRTR 191030Z 17004KT 100V220 9999 FEW045 27/14 Q1017=
201907191100 METAR LRTR 191100Z 28004KT 210V360 9999 FEW048 29/14 Q1017=
201907191130 METAR LRTR 191130Z VRB03KT CAVOK 29/14 Q1016=
201907191200 METAR LRTR 191200Z 23004KT 190V320 CAVOK 28/15 Q1016=
201907191230 METAR LRTR 191230Z 34007KT CAVOK 28/12 Q1016=
201907191300 METAR LRTR 191300Z 03004KT 330V100 9999 FEW050CB 29/13 Q1016=
201907191330 METAR LRTR 191330Z VRB03KT 9999 FEW050CB 28/12 Q1016=
201907191400 METAR LRTR 191400Z 00000KT 9999 FEW050CB 28/13 Q1015=
201907191430 METAR LRTR 191430Z 31006KT 270V330 9999 FEW050CB 28/14 Q1015=
201907191500 METAR LRTR 191500Z 34006KT 9999 FEW050CB 28/14 Q1015=
201907191530 METAR LRTR 191530Z 32007KT CAVOK 27/15 Q1015=
201907191600 METAR LRTR 191600Z 34005KT CAVOK 27/14 Q1015=
201907191630 METAR LRTR 191630Z 02003KT 350V050 CAVOK 27/15 Q1015=
201907191700 METAR LRTR 191700Z 00000KT CAVOK 28/14 Q1016=
201907191730 METAR LRTR 191730Z 05002KT CAVOK 27/14 Q1016=
201907191800 METAR LRTR 191800Z 00000KT CAVOK 26/16 Q1016=
201907191830 METAR LRTR 191830Z 00000KT CAVOK 24/15 Q1016=
201907191900 METAR LRTR 191900Z 00000KT CAVOK 24/14 Q1017=
201907191930 METAR LRTR 191930Z VRB01KT CAVOK 20/17 Q1017=
201907192000 METAR LRTR 192000Z 04005KT CAVOK 20/16 Q1017=
201907192030 METAR LRTR 192030Z 04004KT CAVOK 18/16 Q1017=
201907192100 METAR LRTR 192100Z 07004KT CAVOK 18/16 Q1017=
201907192130 METAR LRTR 192130Z 10005KT CAVOK 17/16 Q1017=
201907192200 METAR LRTR 192200Z 09005KT CAVOK 17/16 Q1017=
201907192230 METAR LRTR 192230Z 11005KT CAVOK 17/16 Q1017=
201907192300 METAR LRTR 192300Z 09006KT CAVOK 17/16 Q1017=
201907192330 METAR LRTR 192330Z 08007KT CAVOK 16/16 Q1017=
201907200000 METAR LRTR 200000Z 09005KT CAVOK 16/16 Q1017=
201907200030 METAR LRTR 200030Z 08006KT CAVOK 16/16 Q1017=
201907200100 METAR LRTR 200100Z 09007KT CAVOK 16/16 Q1017=
201907200130 METAR LRTR 200130Z 09007KT CAVOK 16/16 Q1017=
201907200200 METAR LRTR 200200Z 09006KT CAVOK 16/16 Q1017=
201907200230 METAR LRTR 200230Z 10007KT CAVOK 16/16 Q1018=
201907200300 METAR LRTR 200300Z 10007KT CAVOK 16/16 Q1018=
201907200330 METAR LRTR 200330Z 11006KT CAVOK 16/16 Q1018=
201907200400 METAR COR LRTR 200400Z 11007KT CAVOK 17/16 Q1018=
201907200430 METAR LRTR 200430Z 11007KT CAVOK 18/17 Q1018=
201907200500 METAR LRTR 200500Z 11005KT CAVOK 19/17 Q1018=
201907200530 METAR LRTR 200530Z 11008KT CAVOK 20/17 Q1019=
201907200600 METAR LRTR 200600Z 12008KT CAVOK 21/17 Q1019=
201907200630 METAR LRTR 200630Z 11006KT CAVOK 22/17 Q1019=
201907200700 METAR LRTR 200700Z 13005KT 100V170 CAVOK 24/17 Q1019=
201907200730 METAR LRTR 200730Z 11003KT 030V180 CAVOK 25/17 Q1019=
201907200800 METAR LRTR 200800Z 10003KT 340V150 CAVOK 26/17 Q1019=
201907200830 METAR LRTR 200830Z 13004KT 070V180 CAVOK 27/17 Q1019=
201907200900 METAR LRTR 200900Z 19004KT 150V230 CAVOK 28/14 Q1019=
201907200930 METAR LRTR 200930Z 20003KT 180V320 9999 FEW048 28/14 Q1019=
201907201000 METAR LRTR 201000Z VRB03KT CAVOK 29/15 Q1019=
201907201030 METAR LRTR 201030Z 19005KT 150V240 CAVOK 29/16 Q1019=
201907201100 METAR LRTR 201100Z VRB02KT CAVOK 30/14 Q1019=
201907201130 METAR LRTR 201130Z VRB01KT CAVOK 31/14 Q1018=
201907201200 METAR LRTR 201200Z 11005KT 070V170 CAVOK 30/14 Q1018=
201907201230 METAR COR LRTR 201230Z 14007KT 090V160 CAVOK 30/13 Q1018=
201907201300 METAR LRTR 201300Z 25003KT 150V310 CAVOK 31/13 Q1018=
201907201330 METAR LRTR 201330Z VRB03KT CAVOK 30/12 Q1018=
201907201400 METAR LRTR 201400Z VRB02KT CAVOK 32/12 Q1017=
201907201430 METAR LRTR 201430Z 21002KT CAVOK 31/12 Q1017=
201907201500 METAR LRTR 201500Z 23005KT 190V260 CAVOK 31/12 Q1017=
201907201530 METAR LRTR 201530Z VRB02KT CAVOK 30/13 Q1017=
201907201600 METAR LRTR 201600Z VRB02KT CAVOK 31/13 Q1017=
201907201630 METAR LRTR 201630Z 19003KT 150V220 CAVOK 31/12 Q1017=
201907201700 METAR LRTR 201700Z 17002KT CAVOK 30/14 Q1017=
201907201730 METAR LRTR 201730Z 24002KT CAVOK 29/15 Q1017=
201907201800 METAR LRTR 201800Z 08004KT CAVOK 28/15 Q1017=
201907201830 METAR LRTR 201830Z 04003KT CAVOK 26/15 Q1018=
201907201900 METAR LRTR 201900Z 09003KT 060V120 CAVOK 24/15 Q1018=
201907201930 METAR LRTR 201930Z 05003KT 010V070 CAVOK 24/15 Q1018=
201907202000 METAR LRTR 202000Z 04004KT CAVOK 21/16 Q1018=
201907202030 METAR LRTR 202030Z 04003KT CAVOK 21/16 Q1018=
201907202100 METAR LRTR 202100Z 11003KT CAVOK 20/16 Q1018=
201907202130 METAR LRTR 202130Z 08005KT CAVOK 18/16 Q1018=
201907202200 METAR LRTR 202200Z 09007KT CAVOK 18/16 Q1019=
201907202230 METAR LRTR 202230Z 09007KT CAVOK 18/16 Q1019=
201907202300 METAR LRTR 202300Z 09007KT CAVOK 18/16 Q1019=
201907202330 METAR LRTR 202330Z 10007KT CAVOK 18/16 Q1019=
201907210000 METAR LRTR 210000Z 10005KT CAVOK 17/16 Q1019=
201907210030 METAR LRTR 210030Z 10006KT CAVOK 17/16 Q1018=
201907210100 METAR LRTR 210100Z 10006KT CAVOK 17/16 Q1018=
201907210130 METAR LRTR 210130Z 10007KT CAVOK 17/16 Q1018=
201907210200 METAR LRTR 210200Z 10006KT CAVOK 15/15 Q1018=
201907210230 METAR LRTR 210230Z 12007KT CAVOK 16/16 Q1018=
201907210300 METAR LRTR 210300Z 11006KT CAVOK 16/16 Q1018=
201907210330 METAR LRTR 210330Z 10006KT CAVOK 16/16 Q1018=
201907210400 METAR LRTR 210400Z 11005KT CAVOK 17/16 Q1018=
201907210430 METAR LRTR 210430Z 11007KT CAVOK 18/17 Q1019=
201907210500 METAR LRTR 210500Z 12008KT CAVOK 20/17 Q1019=
201907210530 METAR LRTR 210530Z 11010KT CAVOK 21/18 Q1019=
201907210600 METAR LRTR 210600Z 11009KT CAVOK 22/17 Q1019=
201907210630 METAR LRTR 210630Z 11007KT CAVOK 24/17 Q1019=
201907210700 METAR LRTR 210700Z 13005KT CAVOK 25/17 Q1019=
201907210730 METAR LRTR 210730Z 15004KT CAVOK 25/17 Q1019=
201907210800 METAR LRTR 210800Z 13003KT 050V180 CAVOK 27/17 Q1019=
201907210830 METAR LRTR 210830Z 18004KT CAVOK 28/17 Q1019=
201907210900 METAR LRTR 210900Z 15003KT 070V220 CAVOK 30/15 Q1019=
201907210930 METAR LRTR 210930Z 16004KT 120V210 CAVOK 30/14 Q1019=
201907211000 METAR LRTR 211000Z 16004KT 120V250 CAVOK 31/13 Q1019=
201907211030 METAR LRTR 211030Z VRB02KT CAVOK 31/13 Q1019=
201907211100 METAR LRTR 211100Z VRB02KT CAVOK 31/12 Q1019=
201907211130 METAR LRTR 211130Z 20006KT 150V240 CAVOK 32/12 Q1019=
201907211200 METAR LRTR 211200Z VRB05KT CAVOK 32/13 Q1019=
201907211230 METAR LRTR 211230Z VRB04KT CAVOK 33/13 Q1018=
201907211300 METAR LRTR 211300Z 15006KT 100V200 CAVOK 33/14 Q1018=
201907211330 METAR LRTR 211330Z 18005KT 130V250 CAVOK 33/12 Q1018=
201907211400 METAR LRTR 211400Z 26003KT 200V350 CAVOK 33/13 Q1017=
201907211430 METAR LRTR 211430Z 28007KT 250V310 CAVOK 33/13 Q1017=
201907211500 METAR LRTR 211500Z 27007KT CAVOK 33/13 Q1017=
201907211530 METAR LRTR 211530Z 29007KT 250V320 CAVOK 33/14 Q1017=
201907211600 METAR LRTR 211600Z 27007KT CAVOK 32/15 Q1017=
201907211630 METAR LRTR 211630Z 30005KT CAVOK 30/17 Q1018=
201907211700 METAR LRTR 211700Z 30005KT CAVOK 29/16 Q1017=
201907211730 METAR LRTR 211730Z 32004KT CAVOK 28/17 Q1017=
201907211800 METAR LRTR 211800Z 31004KT CAVOK 27/17 Q1018=
201907211830 METAR COR LRTR 211830Z 32001KT CAVOK 26/17 Q1018=
201907211900 METAR LRTR 211900Z 00000KT CAVOK 25/16 Q1018=
201907211930 METAR LRTR 211930Z 00000KT CAVOK 25/16 Q1018=
201907212000 METAR COR LRTR 212000Z 10005KT CAVOK 22/17 Q1019=
201907212030 METAR LRTR 212030Z 08005KT CAVOK 21/18 Q1019=
201907212100 METAR LRTR 212100Z 10004KT CAVOK 21/18 Q1019=
201907212130 METAR LRTR 212130Z 09004KT CAVOK 20/18 Q1019=
201907212200 METAR LRTR 212200Z 09005KT CAVOK 20/17 Q1019=
201907212230 METAR LRTR 212230Z 10005KT CAVOK 20/18 Q1019=
201907212300 METAR LRTR 212300Z 10003KT 060V120 CAVOK 19/18 Q1019=
201907212330 METAR LRTR 212330Z 10004KT CAVOK 19/17 Q1019=
201907220000 METAR LRTR 220000Z 10004KT CAVOK 19/17 Q1019=
201907220030 METAR LRTR 220030Z VRB02KT CAVOK 19/18 Q1019=
201907220100 METAR LRTR 220100Z 11002KT CAVOK 18/18 Q1019=
201907220130 METAR LRTR 220130Z 11003KT CAVOK 18/18 Q1019=
201907220200 METAR LRTR 220200Z 03004KT 350V060 CAVOK 16/16 Q1019=
201907220230 METAR LRTR 220230Z AUTO 35003KT 9999 NCD 17/17 Q1019=
201907220300 METAR LRTR 220300Z 36004KT CAVOK 17/17 Q1019=
201907220330 METAR LRTR 220330Z 34005KT CAVOK 18/18 Q1019=
201907220400 METAR LRTR 220400Z 33004KT CAVOK 19/19 Q1019=
201907220430 METAR LRTR 220430Z 32003KT 280V350 8000 NSC 19/19 Q1020=
201907220500 METAR LRTR 220500Z 35005KT CAVOK 20/19 Q1020=
201907220530 METAR LRTR 220530Z 35004KT 300V050 CAVOK 21/20 Q1020=
201907220600 METAR LRTR 220600Z 33004KT 280V010 CAVOK 22/19 Q1020=
201907220630 METAR LRTR 220630Z 32005KT 290V010 CAVOK 23/20 Q1020=
201907220700 METAR LRTR 220700Z 33006KT 290V360 CAVOK 23/19 Q1020=
201907220730 METAR LRTR 220730Z 33008KT CAVOK 25/19 Q1020=
201907220800 METAR LRTR 220800Z 35007KT 310V020 CAVOK 26/20 Q1020=
201907220830 METAR LRTR 220830Z 35008KT 310V010 CAVOK 27/19 Q1020=
201907220900 METAR LRTR 220900Z 34008KT CAVOK 27/19 Q1021=
201907220930 METAR LRTR 220930Z 33009KT 310V010 CAVOK 27/18 Q1021=
201907221000 METAR LRTR 221000Z 34008KT 310V010 CAVOK 28/19 Q1021=
201907221030 METAR LRTR 221030Z 32010KT CAVOK 28/17 Q1021=
201907221100 METAR LRTR 221100Z 32009KT 290V350 CAVOK 28/16 Q1020=
201907221130 METAR LRTR 221130Z 32011KT 280V010 CAVOK 29/16 Q1020=
201907221200 METAR LRTR 221200Z 31011KT 280V350 CAVOK 29/16 Q1020=
201907221230 METAR LRTR 221230Z 30011KT CAVOK 29/14 Q1020=
201907221300 METAR LRTR 221300Z 32014KT 290V350 CAVOK 29/14 Q1020=
201907221330 METAR LRTR 221330Z 32010KT 280V350 CAVOK 30/16 Q1020=
201907221400 METAR LRTR 221400Z 34011KT 290V020 CAVOK 30/15 Q1020=
201907221430 METAR LRTR 221430Z 32010KT CAVOK 29/15 Q1020=
201907221500 METAR LRTR 221500Z 33011KT CAVOK 29/16 Q1020=
201907221530 METAR LRTR 221530Z 34012KT CAVOK 29/15 Q1019=
201907221600 METAR LRTR 221600Z 33010KT CAVOK 29/14 Q1019=
201907221630 METAR LRTR 221630Z 34005KT CAVOK 28/15 Q1019=
201907221700 METAR LRTR 221700Z 35005KT CAVOK 28/16 Q1019=
201907221730 METAR LRTR 221730Z 34004KT CAVOK 26/16 Q1019=
201907221800 METAR LRTR 221800Z 34004KT 330V040 CAVOK 24/16 Q1019=
201907221830 METAR LRTR 221830Z 36005KT CAVOK 22/16 Q1020=
201907221900 METAR LRTR 221900Z 35001KT CAVOK 22/17 Q1020=
201907221930 METAR LRTR 221930Z 36003KT CAVOK 22/16 Q1020=
201907222000 METAR LRTR 222000Z VRB02KT CAVOK 20/16 Q1020=
201907222030 METAR LRTR 222030Z 06004KT CAVOK 19/16 Q1020=
201907222100 METAR LRTR 222100Z 00000KT CAVOK 20/16 Q1019=
201907222130 METAR LRTR 222130Z AUTO 01003KT 9999 NCD 20/15 Q1020=
201907222200 METAR LRTR 222200Z 00000KT CAVOK 18/15 Q1020=
201907222230 METAR LRTR 222230Z 00000KT CAVOK 20/16 Q1019=
201907222300 METAR LRTR 222300Z 00000KT CAVOK 18/16 Q1019=
201907222330 METAR LRTR 222330Z 00000KT CAVOK 18/17 Q1019=
201907230000 METAR COR LRTR 230000Z 00000KT CAVOK 17/16 Q1019=
201907230030 METAR LRTR 230030Z 30002KT CAVOK 16/16 Q1019=
201907230100 METAR LRTR 230100Z VRB02KT CAVOK 16/16 Q1019=
201907230130 METAR LRTR 230130Z 04003KT CAVOK 16/16 Q1019=
201907230200 METAR LRTR 230200Z 10006KT CAVOK 15/15 Q1019=
201907230230 METAR LRTR 230230Z 09006KT CAVOK 15/15 Q1018=
201907230300 METAR LRTR 230300Z 09006KT CAVOK 15/15 Q1018=
201907230330 METAR LRTR 230330Z 11002KT CAVOK 15/15 Q1018=
201907230400 METAR LRTR 230400Z 09003KT CAVOK 16/15 Q1019=
201907230430 METAR LRTR 230430Z 11005KT CAVOK 16/16 Q1018=
201907230500 METAR LRTR 230500Z 11005KT CAVOK 17/17 Q1018=
201907230530 METAR LRTR 230530Z 12006KT CAVOK 19/18 Q1018=
201907230600 METAR LRTR 230600Z 13005KT CAVOK 20/19 Q1018=
201907230630 METAR LRTR 230630Z 13005KT CAVOK 21/19 Q1018=
201907230700 METAR LRTR 230700Z VRB02KT CAVOK 23/18 Q1018=
201907230730 METAR LRTR 230730Z VRB01KT CAVOK 24/17 Q1018=
201907230800 METAR LRTR 230800Z VRB01KT CAVOK 26/16 Q1018=
201907230830 METAR LRTR 230830Z VRB01KT CAVOK 27/16 Q1018=
201907230900 METAR LRTR 230900Z VRB02KT 9999 FEW040 27/15 Q1018=
201907230930 METAR LRTR 230930Z VRB05KT 9999 FEW043 28/15 Q1017=
201907231000 METAR LRTR 231000Z 30008KT 9999 FEW045 28/15 Q1017=
201907231030 METAR LRTR 231030Z 33007KT 290V360 CAVOK 29/14 Q1017=
201907231100 METAR LRTR 231100Z 32009KT CAVOK 28/15 Q1017=
201907231130 METAR LRTR 231130Z 33010KT CAVOK 28/14 Q1017=
201907231200 METAR LRTR 231200Z 32012KT CAVOK 29/13 Q1016=
201907231230 METAR LRTR 231230Z 33011KT CAVOK 29/14 Q1016=
201907231300 METAR LRTR 231300Z 34011KT CAVOK 28/14 Q1016=
201907231330 METAR LRTR 231330Z 33012KT CAVOK 29/14 Q1016=
201907231400 METAR LRTR 231400Z 31014KT CAVOK 28/14 Q1016=
201907231430 METAR LRTR 231430Z 33011KT CAVOK 28/14 Q1016=
201907231500 METAR LRTR 231500Z 34011KT 310V010 CAVOK 28/15 Q1016=
201907231530 METAR LRTR 231530Z 01012KT CAVOK 28/16 Q1016=
201907231600 METAR LRTR 231600Z 01014KT CAVOK 27/16 Q1016=
201907231630 METAR LRTR 231630Z 02010KT CAVOK 26/15 Q1016=
201907231700 METAR LRTR 231700Z 03010KT CAVOK 25/14 Q1016=
201907231730 METAR LRTR 231730Z 03010KT CAVOK 25/14 Q1016=
201907231800 METAR COR LRTR 231800Z 03007KT CAVOK 24/14 Q1016=
201907231830 METAR LRTR 231830Z 04006KT CAVOK 24/15 Q1016=
201907231900 METAR LRTR 231900Z 02009KT CAVOK 23/14 Q1016=
201907231930 METAR LRTR 231930Z 01008KT CAVOK 23/15 Q1017=
201907232000 METAR LRTR 232000Z 01008KT CAVOK 22/14 Q1017=
201907232030 METAR LRTR 232030Z 02007KT CAVOK 21/15 Q1017=
201907232100 METAR LRTR 232100Z 02004KT CAVOK 20/15 Q1017=
201907232130 METAR LRTR 232130Z 02005KT CAVOK 20/15 Q1017=
201907232200 METAR LRTR 232200Z 01005KT CAVOK 19/16 Q1017=
201907232230 METAR LRTR 232230Z 35006KT CAVOK 19/16 Q1017=
201907232300 METAR LRTR 232300Z 33006KT CAVOK 19/16 Q1017=
201907232330 METAR LRTR 232330Z 36009KT CAVOK 20/16 Q1017=
201907240000 METAR LRTR 240000Z 36008KT CAVOK 20/16 Q1016=
201907240030 METAR LRTR 240030Z 36008KT CAVOK 20/16 Q1016=
201907240100 METAR LRTR 240100Z 02008KT CAVOK 19/16 Q1016=
201907240130 METAR COR LRTR 240130Z 02010KT CAVOK 18/16 Q1016=
201907240200 METAR LRTR 240200Z 02010KT CAVOK 18/16 Q1016=
201907240230 METAR LRTR 240230Z 02009KT CAVOK 18/16 Q1016=
201907240300 METAR LRTR 240300Z 03008KT CAVOK 17/16 Q1016=
201907240330 METAR LRTR 240330Z 06005KT CAVOK 16/16 Q1017=
201907240400 METAR LRTR 240400Z 36006KT CAVOK 17/16 Q1017=
201907240430 METAR LRTR 240430Z 34007KT CAVOK 18/16 Q1017=
201907240500 METAR LRTR 240500Z 36005KT 330V030 CAVOK 19/17 Q1017=
201907240530 METAR LRTR 240530Z 30005KT 240V020 CAVOK 20/17 Q1017=
201907240600 METAR LRTR 240600Z 33005KT 290V360 CAVOK 20/17 Q1017=
201907240630 METAR LRTR 240630Z 36005KT 320V030 CAVOK 22/17 Q1017=
201907240700 METAR LRTR 240700Z 01006KT 330V050 CAVOK 23/17 Q1017=
201907240730 METAR LRTR 240730Z 36006KT 320V030 CAVOK 24/16 Q1017=
201907240800 METAR LRTR 240800Z 33006KT 300V360 9999 FEW040 25/16 Q1017=
201907240830 METAR LRTR 240830Z 03004KT 340V110 9999 FEW040 25/16 Q1017=
201907240900 METAR LRTR 240900Z 34006KT 300V040 9999 FEW042 26/15 Q1017=
201907240930 METAR LRTR 240930Z 36009KT 320V040 9999 FEW045 26/15 Q1017=
201907241000 METAR LRTR 241000Z 34007KT 9999 FEW048 26/14 Q1017=
201907241030 METAR LRTR 241030Z 36008KT 9999 FEW048 27/14 Q1017=
201907241100 METAR LRTR 241100Z 36009KT 330V060 9999 FEW048 27/15 Q1017=
201907241130 METAR LRTR 241130Z 33009KT 300V360 9999 FEW048 27/15 Q1017=
201907241200 METAR LRTR 241200Z 01008KT CAVOK 28/13 Q1017=
201907241230 METAR LRTR 241230Z 36009KT CAVOK 29/14 Q1016=
201907241300 METAR LRTR 241300Z 34008KT CAVOK 28/13 Q1016=
201907241330 METAR LRTR 241330Z 36006KT 320V030 CAVOK 29/14 Q1016=
201907241400 METAR LRTR 241400Z 36007KT CAVOK 28/13 Q1016=
201907241430 METAR LRTR 241430Z 32010KT 300V360 CAVOK 28/13 Q1016=
201907241500 METAR LRTR 241500Z 35008KT 310V040 CAVOK 28/12 Q1016=
201907241530 METAR LRTR 241530Z 34009KT CAVOK 28/13 Q1016=
201907241600 METAR LRTR 241600Z 36011KT CAVOK 28/14 Q1016=
201907241630 METAR LRTR 241630Z 36009KT CAVOK 27/14 Q1016=
201907241700 METAR LRTR 241700Z 36008KT CAVOK 27/14 Q1016=
201907241730 METAR LRTR 241730Z 36009KT CAVOK 26/13 Q1016=
201907241800 METAR LRTR 241800Z 36006KT CAVOK 24/14 Q1016=
201907241830 METAR LRTR 241830Z 36006KT CAVOK 22/14 Q1017=
201907241900 METAR LRTR 241900Z 36006KT CAVOK 20/15 Q1017=
201907241930 METAR LRTR 241930Z 36006KT CAVOK 20/15 Q1017=
201907242000 METAR LRTR 242000Z 01005KT CAVOK 19/15 Q1017=
201907242030 METAR LRTR 242030Z 02006KT CAVOK 18/15 Q1017=
201907242100 METAR LRTR 242100Z 02007KT CAVOK 18/15 Q1018=
201907242130 METAR LRTR 242130Z 36006KT CAVOK 19/15 Q1017=
201907242200 METAR LRTR 242200Z 36003KT CAVOK 18/15 Q1018=
201907242230 METAR LRTR 242230Z 06004KT CAVOK 18/16 Q1018=
201907242300 METAR LRTR 242300Z 06004KT CAVOK 18/16 Q1018=
201907242330 METAR LRTR 242330Z 06004KT CAVOK 19/17 Q1017=
201907250000 METAR LRTR 250000Z 00000KT CAVOK 20/17 Q1018=
201907250030 METAR LRTR 250030Z 29002KT CAVOK 20/17 Q1018=
201907250100 METAR LRTR 250100Z 30004KT CAVOK 19/17 Q1017=
201907250130 METAR LRTR 250130Z 33003KT CAVOK 19/17 Q1017=
201907250200 METAR LRTR 250200Z 01004KT CAVOK 19/17 Q1017=
201907250230 METAR LRTR 250230Z VRB02KT CAVOK 19/17 Q1017=
201907250300 METAR LRTR 250300Z 11002KT CAVOK 18/17 Q1018=
201907250330 METAR LRTR 250330Z 10005KT CAVOK 18/17 Q1018=
201907250400 METAR LRTR 250400Z 07003KT CAVOK 18/17 Q1018=
201907250430 METAR LRTR 250430Z 07004KT CAVOK 19/17 Q1018=
201907250500 METAR LRTR 250500Z VRB02KT CAVOK 20/18 Q1018=
201907250530 METAR LRTR 250530Z VRB01KT CAVOK 22/17 Q1018=
201907250600 METAR LRTR 250600Z VRB02KT CAVOK 23/18 Q1019=
201907250630 METAR LRTR 250630Z VRB01KT CAVOK 24/18 Q1019=
201907250700 METAR COR LRTR 250700Z VRB02KT CAVOK 25/17 Q1019=
201907250730 METAR LRTR 250730Z VRB02KT CAVOK 25/17 Q1018=
201907250800 METAR LRTR 250800Z VRB01KT CAVOK 27/16 Q1018=
201907250830 METAR LRTR 250830Z VRB03KT CAVOK 27/16 Q1018=
201907250900 METAR LRTR 250900Z 31005KT 280V340 CAVOK 28/16 Q1018=
201907250930 METAR LRTR 250930Z 30004KT 270V330 9999 FEW035 27/16 Q1018=
201907251000 METAR LRTR 251000Z VRB02KT 9999 FEW037 29/16 Q1018=
201907251030 METAR LRTR 251030Z VRB03KT 9999 FEW040 28/15 Q1018=
201907251100 METAR LRTR 251100Z VRB02KT 9999 FEW043 28/15 Q1018=
201907251130 METAR LRTR 251130Z 04004KT 310V120 9999 FEW045 28/15 Q1018=
201907251200 METAR LRTR 251200Z VRB03KT CAVOK 30/15 Q1017=
201907251230 METAR LRTR 251230Z VRB02KT CAVOK 29/15 Q1017=
201907251300 METAR LRTR 251300Z 26004KT 200V330 CAVOK 30/16 Q1017=
201907251330 METAR LRTR 251330Z 32004KT 270V040 CAVOK 30/16 Q1017=
201907251400 METAR LRTR 251400Z 27004KT 240V310 CAVOK 30/16 Q1016=
201907251430 METAR LRTR 251430Z VRB02KT CAVOK 30/15 Q1016=
201907251500 METAR LRTR 251500Z VRB02KT CAVOK 30/16 Q1016=
201907251530 METAR LRTR 251530Z VRB02KT CAVOK 31/15 Q1016=
201907251600 METAR LRTR 251600Z 28003KT 200V340 CAVOK 30/15 Q1016=
201907251630 METAR LRTR 251630Z 34004KT CAVOK 29/16 Q1016=
201907251700 METAR LRTR 251700Z 35003KT CAVOK 28/17 Q1016=
201907251730 METAR COR LRTR 251730Z 01005KT CAVOK 27/18 Q1016=
201907251800 METAR LRTR 251800Z 03003KT CAVOK 26/18 Q1016=
201907251830 METAR LRTR 251830Z 04004KT CAVOK 24/18 Q1016=
201907251900 METAR LRTR 251900Z 03004KT CAVOK 23/18 Q1016=
201907251930 METAR LRTR 251930Z 07005KT 060V120 CAVOK 22/18 Q1016=
201907252000 METAR LRTR 252000Z 07005KT CAVOK 22/17 Q1016=
201907252030 METAR LRTR 252030Z 06005KT CAVOK 21/18 Q1016=
201907252100 METAR LRTR 252100Z 07006KT CAVOK 21/18 Q1015=
201907252130 METAR LRTR 252130Z 09005KT CAVOK 20/18 Q1015=
201907252200 METAR LRTR 252200Z 09005KT CAVOK 20/18 Q1015=
201907252230 METAR LRTR 252230Z 10006KT CAVOK 20/18 Q1015=
201907252300 METAR COR LRTR 252300Z 08004KT CAVOK 19/18 Q1015=
201907252330 METAR LRTR 252330Z 08007KT CAVOK 19/17 Q1015=
201907260000 METAR LRTR 260000Z 07004KT CAVOK 18/17 Q1015=
201907260030 METAR LRTR 260030Z 08004KT CAVOK 18/17 Q1014=
201907260100 METAR LRTR 260100Z 08004KT CAVOK 18/17 Q1014=
201907260130 METAR LRTR 260130Z 07006KT CAVOK 17/17 Q1014=
201907260200 METAR LRTR 260200Z 08006KT CAVOK 17/17 Q1014=
201907260230 METAR LRTR 260230Z 07006KT CAVOK 17/17 Q1014=
201907260300 METAR LRTR 260300Z 08006KT CAVOK 17/17 Q1014=
201907260330 METAR LRTR 260330Z 09006KT CAVOK 17/17 Q1014=
201907260400 METAR LRTR 260400Z 10004KT CAVOK 18/17 Q1014=
201907260430 METAR LRTR 260430Z 11006KT CAVOK 19/18 Q1013=
201907260500 METAR LRTR 260500Z 11008KT CAVOK 20/18 Q1013=
201907260530 METAR LRTR 260530Z 11007KT CAVOK 22/19 Q1013=
201907260600 METAR LRTR 260600Z 12009KT CAVOK 23/18 Q1013=
201907260630 METAR LRTR 260630Z 13006KT CAVOK 24/18 Q1013=
201907260700 METAR LRTR 260700Z 14004KT 100V170 CAVOK 25/19 Q1013=
201907260730 METAR LRTR 260730Z 11004KT 050V150 CAVOK 26/18 Q1013=
201907260800 METAR LRTR 260800Z VRB03KT CAVOK 28/18 Q1013=
201907260830 METAR LRTR 260830Z 12004KT 040V160 CAVOK 28/16 Q1013=
201907260900 METAR LRTR 260900Z VRB03KT CAVOK 29/14 Q1013=
201907260930 METAR LRTR 260930Z VRB02KT CAVOK 29/11 Q1012=
201907261000 METAR LRTR 261000Z VRB02KT CAVOK 29/14 Q1012=
201907261030 METAR LRTR 261030Z VRB01KT CAVOK 30/14 Q1012=
201907261100 METAR LRTR 261100Z 14004KT 070V220 CAVOK 30/13 Q1012=
201907261130 METAR LRTR 261130Z 07004KT 030V090 CAVOK 30/14 Q1011=
201907261200 METAR LRTR 261200Z 17003KT 130V230 CAVOK 30/13 Q1011=
201907261230 METAR LRTR 261230Z VRB01KT CAVOK 31/14 Q1011=
201907261300 METAR LRTR 261300Z VRB02KT CAVOK 31/13 Q1010=
201907261330 METAR LRTR 261330Z 06003KT 340V110 CAVOK 31/13 Q1010=
201907261400 METAR LRTR 261400Z 23004KT 170V260 CAVOK 31/13 Q1010=
201907261430 METAR LRTR 261430Z VRB04KT CAVOK 32/15 Q1010=
201907261500 METAR LRTR 261500Z 21006KT 180V250 CAVOK 31/14 Q1009=
201907261530 METAR LRTR 261530Z 18006KT CAVOK 31/14 Q1009=
201907261600 METAR LRTR 261600Z 18004KT CAVOK 30/15 Q1009=
201907261630 METAR LRTR 261630Z 17004KT CAVOK 31/16 Q1009=
201907261700 METAR LRTR 261700Z 17003KT 150V230 CAVOK 30/15 Q1009=
201907261730 METAR LRTR 261730Z 23004KT CAVOK 29/15 Q1009=
201907261800 METAR LRTR 261800Z 00000KT CAVOK 28/15 Q1008=
201907261830 METAR LRTR 261830Z 00000KT CAVOK 27/16 Q1008=
201907261900 METAR LRTR 261900Z VRB02KT CAVOK 26/16 Q1008=
201907261930 METAR LRTR 261930Z 04004KT CAVOK 21/18 Q1008=
201907262000 METAR LRTR 262000Z 07005KT CAVOK 21/17 Q1008=
201907262030 METAR LRTR 262030Z 08006KT CAVOK 21/17 Q1008=
201907262100 METAR LRTR 262100Z 08006KT CAVOK 20/17 Q1008=
201907262130 METAR LRTR 262130Z 10005KT CAVOK 19/17 Q1008=
201907262200 METAR LRTR 262200Z 09006KT CAVOK 19/17 Q1008=
201907262230 METAR LRTR 262230Z 11005KT CAVOK 19/17 Q1008=
201907262300 METAR LRTR 262300Z 06005KT CAVOK 19/17 Q1008=
201907262330 METAR LRTR 262330Z 07005KT CAVOK 18/17 Q1007=
201907270000 METAR LRTR 270000Z 08007KT CAVOK 19/17 Q1007=
201907270030 METAR LRTR 270030Z 09006KT CAVOK 19/17 Q1007=
201907270100 METAR LRTR 270100Z 09007KT CAVOK 19/17 Q1007=
201907270130 METAR LRTR 270130Z 10007KT CAVOK 18/17 Q1007=
201907270200 METAR LRTR 270200Z 10008KT CAVOK 18/16 Q1007=
201907270230 METAR COR LRTR 270230Z 12005KT CAVOK 17/16 Q1007=
201907270300 METAR LRTR 270300Z 12006KT CAVOK 17/16 Q1007=
201907270330 METAR LRTR 270330Z 11008KT CAVOK 17/17 Q1007=
201907270400 METAR LRTR 270400Z 10007KT CAVOK 18/17 Q1007=
201907270430 METAR LRTR 270430Z 10007KT CAVOK 19/17 Q1007=
201907270500 METAR LRTR 270500Z 11007KT CAVOK 21/18 Q1007=
201907270530 METAR LRTR 270530Z 12009KT CAVOK 22/18 Q1007=
201907270600 METAR LRTR 270600Z 11007KT CAVOK 23/17 Q1007=
201907270630 METAR LRTR 270630Z 11007KT CAVOK 24/17 Q1007=
201907270700 METAR LRTR 270700Z 12007KT 100V160 CAVOK 26/16 Q1007=
201907270730 METAR LRTR 270730Z 16007KT 120V190 CAVOK 27/17 Q1006=
201907270800 METAR LRTR 270800Z 17007KT 140V220 CAVOK 27/17 Q1007=
201907270830 METAR LRTR 270830Z 19006KT 150V230 CAVOK 29/17 Q1007=
201907270900 METAR LRTR 270900Z 17011KT CAVOK 30/17 Q1006=
201907270930 METAR LRTR 270930Z 17010KT 150V210 CAVOK 30/17 Q1006=
201907271000 METAR LRTR 271000Z 17011KT CAVOK 30/16 Q1006=
201907271030 METAR LRTR 271030Z 19011KT 150V220 CAVOK 31/16 Q1006=
201907271100 METAR LRTR 271100Z 18009KT 150V210 CAVOK 32/17 Q1006=
201907271130 METAR LRTR 271130Z 21010KT 160V240 9999 FEW045 31/16 Q1006=
201907271200 METAR LRTR 271200Z 22008KT 9999 FEW048 31/17 Q1005=
201907271230 METAR LRTR 271230Z 20007KT 170V250 CAVOK 31/18 Q1005=
201907271300 METAR LRTR 271300Z 21008KT CAVOK 30/18 Q1005=
201907271330 METAR LRTR 271330Z 22008KT CAVOK 30/18 Q1005=
201907271400 METAR LRTR 271400Z 22007KT CAVOK 31/20 Q1005=
201907271430 METAR LRTR 271430Z 22007KT 190V270 CAVOK 32/20 Q1004=
201907271500 METAR LRTR 271500Z 24006KT 200V260 CAVOK 32/20 Q1004=
201907271530 METAR LRTR 271530Z 22008KT CAVOK 32/20 Q1004=
201907271600 METAR LRTR 271600Z 21006KT 180V240 CAVOK 31/19 Q1004=
201907271630 METAR LRTR 271630Z 24006KT 210V270 CAVOK 31/19 Q1004=
201907271700 METAR LRTR 271700Z 27004KT CAVOK 31/19 Q1004=
201907271730 METAR LRTR 271730Z 26003KT CAVOK 30/20 Q1004=
201907271800 METAR LRTR 271800Z 00000KT CAVOK 28/20 Q1004=
201907271830 METAR LRTR 271830Z 00000KT CAVOK 27/20 Q1004=
201907271900 METAR LRTR 271900Z 04005KT CAVOK 24/21 Q1004=
201907271930 METAR LRTR 271930Z 07005KT CAVOK 23/20 Q1004=
201907272000 METAR LRTR 272000Z 09007KT CAVOK 23/20 Q1004=
201907272030 METAR LRTR 272030Z 11005KT CAVOK 22/21 Q1004=
201907272100 METAR LRTR 272100Z 10005KT CAVOK 21/21 Q1004=
201907272130 METAR LRTR 272130Z 11006KT CAVOK 21/20 Q1004=
201907272200 METAR LRTR 272200Z 11008KT CAVOK 23/21 Q1004=
201907272230 METAR LRTR 272230Z 10007KT CAVOK 22/21 Q1004=
201907272300 METAR LRTR 272300Z 10006KT CAVOK 22/20 Q1004=
201907272330 METAR LRTR 272330Z 09007KT CAVOK 22/19 Q1004=
201907280000 METAR LRTR 280000Z 11007KT CAVOK 20/19 Q1004=
201907280030 METAR LRTR 280030Z 09006KT 9999 FEW050CB 21/19 Q1004=
201907280100 METAR LRTR 280100Z 11007KT 9999 FEW040CB 21/19 Q1003=
201907280130 METAR LRTR 280130Z 36016KT 9999 VCTS FEW040CB 22/19 Q1005=
201907280200 METAR LRTR 280200Z 03017KT 9999 VCTS FEW040CB 21/19 Q1004=
201907280230 METAR LRTR 280230Z 03016KT 9999 FEW040CB 21/19 Q1004=
201907280300 METAR COR LRTR 280300Z 04012KT 9999 FEW040CB 21/19 Q1004=
201907280330 METAR LRTR 280330Z 07008KT 9999 FEW040CB 21/19 Q1004=
201907280400 METAR LRTR 280400Z 07009KT CAVOK 22/19 Q1004=
201907280430 METAR LRTR 280430Z 12008KT CAVOK 22/19 Q1004=
201907280500 METAR LRTR 280500Z 11008KT CAVOK 22/20 Q1004=
201907280530 METAR LRTR 280530Z 11007KT CAVOK 24/20 Q1004=
201907280600 METAR LRTR 280600Z 11007KT CAVOK 25/21 Q1004=
201907280630 METAR LRTR 280630Z 11010KT CAVOK 27/20 Q1004=
201907280700 METAR LRTR 280700Z 12011KT CAVOK 28/19 Q1004=
201907280730 METAR LRTR 280730Z 12010KT CAVOK 29/19 Q1003=
201907280800 METAR LRTR 280800Z 15007KT 120V180 CAVOK 30/19 Q1003=
201907280830 METAR LRTR 280830Z 15007KT CAVOK 31/20 Q1003=
201907280900 METAR LRTR 280900Z AUTO 19011KT 9999 NCD 33/19 Q1003=
201907280930 METAR LRTR 280930Z 17017KT CAVOK 34/16 Q1002=
201907281000 METAR LRTR 281000Z 18017KT CAVOK 34/16 Q1002=
201907281030 METAR LRTR 281030Z 18014KT CAVOK 33/16 Q1002=
201907281100 METAR LRTR 281100Z 17012KT CAVOK 34/16 Q1002=
201907281130 METAR LRTR 281130Z 17010KT 140V200 CAVOK 34/16 Q1002=
201907281200 METAR LRTR 281200Z 16009KT 9999 VCTS FEW045CB 33/16 Q1002=
201907281230 METAR LRTR 281230Z 19014KT 9999 VCTS FEW045CB 34/16 Q1001=
201907281300 METAR LRTR 281300Z 17013KT 9999 FEW045CB 32/17 Q1001=
201907281330 METAR LRTR 281330Z 15014KT 9999 FEW045CB 32/16 Q1001=
201907281400 METAR LRTR 281400Z 16015KT 9999 FEW045CB 33/17 Q1001=
201907281430 METAR LRTR 281430Z 16012KT 9999 FEW045CB 32/17 Q1001=
201907281500 METAR LRTR 281500Z 16012KT 9999 FEW045CB 31/16 Q1001=
201907281530 METAR LRTR 281530Z 13008KT 9999 FEW045CB 29/18 Q1001=
201907281600 METAR LRTR 281600Z 10007KT 9999 FEW045CB 28/19 Q1001=
201907281630 METAR LRTR 281630Z 10005KT 9999 FEW050CB 28/19 Q1001=
201907281700 METAR LRTR 281700Z 07004KT 9999 FEW050CB 28/20 Q1001=
201907281730 METAR LRTR 281730Z 09004KT 9999 FEW050CB 27/20 Q1001=
201907281800 METAR LRTR 281800Z 22025G37KT 4000 TSRA SQ FEW016 BKN030CB
                        20/20 Q1004 R11/290095=
201907281830 METAR LRTR 281830Z 25009KT 8000 TSRA BKN040CB 21/21 Q1003
                        R11/290095=
201907281900 METAR LRTR 281900Z 33004KT 8000 SHRA SCT045CB 21/21 Q1003
                        RETS R11/290095=
201907281930 METAR LRTR 281930Z 30006KT 9999 -SHRA FEW050CB 21/21 Q1004
                        RESHRA R11/290095=
201907282000 METAR LRTR 282000Z 26005KT 220V300 6000 SHRA SCT045CB 20/20
                        Q1004 R11/290095=
201907282030 METAR LRTR 282030Z 05006KT 020V080 7000 SHRA SCT045CB 20/20
                        Q1003 R11/290095=
201907282100 METAR LRTR 282100Z 09005KT 8000 -SHRA SCT050CB 20/20 Q1004
                        RESHRA R11/290095=
201907282130 METAR LRTR 282130Z 08005KT 9999 -SHRA SCT050CB 20/20 Q1004
                        R11/290095=
201907282200 METAR LRTR 282200Z 09008KT 9999 -SHRA SCT050CB 20/20 Q1003
                        R11/290095=
201907282230 METAR LRTR 282230Z 12011KT 9999 -SHRA SCT050CB 20/20 Q1003
                        R11/290095=
201907282300 METAR LRTR 282300Z 11009KT 9999 -SHRA SCT050CB 20/20 Q1003
                        R11/290095=
201907282330 METAR LRTR 282330Z 11010KT 9999 -RA NSC 20/20 Q1003 R11/290095=
201907290000 METAR LRTR 290000Z 16006KT 130V190 9999 -RA NSC 20/20 Q1003
                        R11/290095=
201907290030 METAR LRTR 290030Z 15005KT 9999 -RA NSC 20/20 Q1003 R11/290095=
201907290100 METAR LRTR 290100Z 14004KT 110V170 9999 -RA NSC 19/19 Q1003
                        R11/290095=
201907290130 METAR LRTR 290130Z 12007KT 9999 -RA NSC 19/19 Q1003 R11/290095=
201907290200 METAR LRTR 290200Z 10007KT 9999 -RA NSC 19/19 Q1003 R11/290095=
201907290230 METAR LRTR 290230Z 07007KT 9999 -RA NSC 19/19 Q1003 R11/290095=
201907290300 METAR COR LRTR 290300Z 05006KT 6000 SHRA FEW011 SCT035CB
                        19/19 Q1003 R11/290095=
201907290330 METAR LRTR 290330Z 04008KT 3000 SHRA BR FEW017 BKN038CB 19/19
                        Q1003 RESHRA R11/290095=
201907290400 METAR LRTR 290400Z 01004KT 4000 SHRA BR FEW019 SCT038CB 19/19
                        Q1004 R11/290095=
201907290430 METAR LRTR 290430Z 36004KT 4000 SHRA BR SCT020 SCT035CB 19/19
                        Q1004 RESHRA R11/290095=
201907290500 METAR LRTR 290500Z 01006KT 9999 -SHRA FEW025 FEW040CB 19/19
                        Q1004 RESHRA R11/290095=
201907290530 METAR LRTR 290530Z 05006KT 9999 FEW030 FEW045CB 19/19 Q1004
                        R11/290095=
201907290600 METAR LRTR 290600Z 05006KT 9999 FEW050CB 19/19 Q1004 R11/290095=
201907290630 METAR LRTR 290630Z 05006KT 9999 FEW048 20/20 Q1004 R11/290095=
201907290700 METAR LRTR 290700Z 06006KT CAVOK 21/21 Q1004 R11/290095=
201907290730 METAR LRTR 290730Z 06006KT 9999 SCT049 22/21 Q1004 R11/290095=
201907290800 METAR LRTR 290800Z 08006KT 9999 SCT048 23/20 Q1004 R11/290095=
201907290830 METAR LRTR 290830Z 09006KT 9999 FEW048 23/20 Q1004 R11/19//95=
201907290900 METAR LRTR 290900Z 10006KT 060V120 9999 FEW048 24/20 Q1005
                        R11/19//95=
201907290930 METAR LRTR 290930Z 09005KT 050V130 9999 FEW027 25/18 Q1005
                        R11/19//95=
201907291000 METAR LRTR 291000Z VRB02KT 9999 SCT030 26/17 Q1005 R11/19//95=
201907291030 METAR LRTR 291030Z VRB03KT 9999 SCT035 26/17 Q1005 R11/19//95=
201907291100 METAR LRTR 291100Z 09003KT 050V210 9999 SCT037 26/17 Q1005
                        R11/19//95=
201907291130 METAR LRTR 291130Z 35007KT 9999 BKN039 26/18 Q1004 R11/19//95=
201907291200 METAR LRTR 291200Z 03007KT 360V070 9999 SCT045 27/18 Q1004
                        R11/19//95=
201907291230 METAR LRTR 291230Z 02005KT 350V080 9999 SCT045 26/18 Q1004
                        R11/19//95=
201907291300 METAR LRTR 291300Z 04006KT 350V110 9999 SCT044 27/18 Q1004
                        R11/19//95=
201907291330 METAR LRTR 291330Z 03006KT 360V060 9999 FEW045 27/17 Q1004
                        R11/CLRD//=
201907291400 METAR LRTR 291400Z 03005KT 320V100 9999 FEW045 27/17 Q1004=
201907291430 METAR LRTR 291430Z 02006KT 330V060 9999 FEW045 27/16 Q1004=
201907291500 METAR LRTR 291500Z 35005KT 310V030 9999 FEW048 27/16 Q1004=
201907291530 METAR LRTR 291530Z 34005KT CAVOK 27/17 Q1004=
201907291600 METAR LRTR 291600Z 36006KT 320V020 9999 FEW050CB 26/17 Q1004=
201907291630 METAR LRTR 291630Z 36006KT 9999 FEW048CB 26/18 Q1005=
201907291700 METAR COR LRTR 291700Z 09003KT 040V130 9999 FEW048 26/18
                        Q1005=
201907291730 METAR LRTR 291730Z 18005KT 9999 SCT045 24/19 Q1005=
201907291800 METAR COR LRTR 291800Z 18006KT 9999 SCT045 23/20 Q1006=
201907291830 METAR LRTR 291830Z 19004KT 9999 FEW045 22/20 Q1006=
201907291900 METAR LRTR 291900Z 21003KT 9999 FEW045 22/20 Q1006=
201907291930 METAR LRTR 291930Z 32001KT CAVOK 21/20 Q1006=
201907292000 METAR LRTR 292000Z 00000KT CAVOK 20/20 Q1007=
201907292030 METAR LRTR 292030Z 11003KT CAVOK 19/19 Q1007=
201907292100 METAR LRTR 292100Z 00000KT CAVOK 19/19 Q1007=
201907292130 METAR COR LRTR 292130Z 08002KT CAVOK 18/18 Q1007=
201907292200 METAR LRTR 292200Z 07001KT CAVOK 18/18 Q1007=
201907292230 METAR LRTR 292230Z 07003KT CAVOK 18/18 Q1007=
201907292300 METAR LRTR 292300Z 12004KT CAVOK 18/18 Q1007=
201907292330 METAR LRTR 292330Z 16004KT 8000 NSC 19/19 Q1007=
201907300000 METAR COR LRTR 300000Z 00000KT 8000 2500E R11/P2000 R29/0900N
                        PRFG NSC 18/18 Q1007=
201907300030 METAR LRTR 300030Z 00000KT 4000 1500E R11/P2000 R29/1400D
                        PRFG BR NSC 18/18 Q1007=
201907300100 METAR LRTR 300100Z 12004KT 0500 R11/0800N R29/0650N BCFG
                        NSC 17/17 Q1007=
201907300130 METAR LRTR 300130Z 10002KT 0400 R11/0650D R29/0700N FG NSC
                        16/16 Q1007=
201907300200 METAR LRTR 300200Z 12004KT 0300 R11/0450U R29/0600N FG NSC
                        17/17 Q1007=
201907300230 METAR COR LRTR 300230Z 09003KT 0300 R11/0650N R29/0450N FG
                        FEW002 16/16 Q1008=
201907300300 METAR COR LRTR 300300Z 11003KT 0300 R11/0800D R29/1300U FG
                        SCT002 16/16 Q1008=
201907300330 METAR LRTR 300330Z 08004KT 0200 R11/0500N R29/0650N FG BKN002
                        17/17 Q1008=
201907300400 METAR COR LRTR 300400Z VRB02KT 0200 R11/0275N R29/0300N FG
                        BKN002 18/18 Q1008=
201907300430 METAR LRTR 300430Z VRB02KT 0100 R11/0225N R29/0225N FG VV002
                        18/18 Q1008=
201907300500 METAR LRTR 300500Z 11003KT 090V150 0100 R11/0225N R29/0225N
                        FG VV001 18/18 Q1008=
201907300530 METAR LRTR 300530Z VRB01KT 0250 R11/0375V0500N R29/0325V0500N
                        FG BKN001 19/19 Q1009=
201907300600 METAR LRTR 300600Z VRB02KT 0500 R11/0700V1200N R29/1000D
                        FG BKN002 19/19 Q1009=
201907300630 METAR LRTR 300630Z 16003KT 110V210 3000 R11/P2000 R29/1300VP2000U
                        BR SCT002 SCT003 19/19 Q1009=
201907300700 METAR LRTR 300700Z 14003KT 110V180 7000 FEW003 SCT005 20/20
                        Q1009=
201907300730 METAR LRTR 300730Z 13004KT 100V160 9999 FEW006 23/22 Q1009=
201907300800 METAR LRTR 300800Z 20003KT 160V320 9999 FEW012 24/21 Q1009=
201907300830 METAR LRTR 300830Z VRB03KT 9999 FEW020 26/21 Q1009=
201907300900 METAR LRTR 300900Z VRB02KT 9999 FEW024 27/20 Q1009=
201907300930 METAR LRTR 300930Z VRB02KT 9999 FEW025 26/19 Q1009=
201907301000 METAR LRTR 301000Z 33003KT 290V010 9999 SCT030 27/20 Q1009=
201907301030 METAR LRTR 301030Z VRB04KT 9999 SCT036 28/19 Q1009=
201907301100 METAR LRTR 301100Z 27004KT 190V350 9999 SCT040 29/19 Q1009=
201907301130 METAR LRTR 301130Z VRB03KT 9999 SCT046 29/18 Q1009=
201907301200 METAR LRTR 301200Z 28007KT 250V320 9999 FEW048 29/19 Q1009=
201907301230 METAR LRTR 301230Z 30006KT 260V330 CAVOK 29/18 Q1009=
201907301300 METAR LRTR 301300Z 30006KT 260V330 CAVOK 28/19 Q1009=
201907301330 METAR LRTR 301330Z 30009KT CAVOK 29/19 Q1009=
201907301400 METAR LRTR 301400Z 26007KT 240V300 CAVOK 30/18 Q1008=
201907301430 METAR LRTR 301430Z 28007KT 240V300 CAVOK 29/19 Q1008=
201907301500 METAR LRTR 301500Z 26008KT 230V300 CAVOK 29/18 Q1008=
201907301530 METAR LRTR 301530Z 25008KT 220V290 CAVOK 30/18 Q1008=
201907301600 METAR LRTR 301600Z 28005KT 230V320 CAVOK 29/19 Q1008=
201907301630 METAR LRTR 301630Z 25005KT CAVOK 29/19 Q1008=
201907301700 METAR LRTR 301700Z 25006KT CAVOK 29/19 Q1008=
201907301730 METAR LRTR 301730Z 26004KT CAVOK 28/19 Q1008=
201907301800 METAR LRTR 301800Z 25002KT CAVOK 27/20 Q1008=
201907301830 METAR LRTR 301830Z 00000KT CAVOK 26/21 Q1009=
201907301900 METAR LRTR 301900Z 19004KT CAVOK 25/20 Q1009=
201907301930 METAR LRTR 301930Z 18003KT 9999 FEW047 25/20 Q1009=
201907302000 METAR LRTR 302000Z 17003KT 160V220 9999 SCT044 25/21 Q1009=
201907302030 METAR LRTR 302030Z 19004KT 9999 SCT045 24/21 Q1009=
201907302100 METAR LRTR 302100Z 21003KT 9999 SCT044 24/21 Q1009=
201907302130 METAR LRTR 302130Z 00000KT 9999 FEW047 21/21 Q1010=
201907302200 METAR LRTR 302200Z 00000KT CAVOK 20/20 Q1010=
201907302230 METAR LRTR 302230Z 13001KT CAVOK 20/20 Q1010=
201907302300 METAR LRTR 302300Z 12003KT 9999 FEW047 20/20 Q1010=
201907302330 METAR LRTR 302330Z 09003KT 9999 SCT046 20/20 Q1010=
201907310000 METAR LRTR 310000Z 13004KT 9999 SCT047 20/20 Q1009=
201907310030 METAR LRTR 310030Z 00000KT 9999 SCT047 19/19 Q1009=
201907310100 METAR LRTR 310100Z 13003KT 8000 SCT045 19/19 Q1009=
201907310130 METAR LRTR 310130Z 12003KT 7000 FEW045 19/19 Q1009=
201907310200 METAR LRTR 310200Z 09003KT 7000 NSC 19/19 Q1009=
201907310230 METAR LRTR 310230Z 09004KT 5000 BR NSC 19/19 Q1009=
201907310300 METAR LRTR 310300Z 12004KT 5000 MIFG BR NSC 19/19 Q1010=
201907310330 METAR LRTR 310330Z 10004KT 3500 MIFG BR NSC 18/18 Q1010=
201907310400 METAR LRTR 310400Z 10002KT 3500 MIFG BR NSC 19/19 Q1010=
201907310430 METAR LRTR 310430Z 12003KT 4000 BR NSC 20/20 Q1010=
201907310500 METAR LRTR 310500Z VRB02KT 4000 BR NSC 21/21 Q1010=
201907310530 METAR LRTR 310530Z 00000KT 6000 NSC 22/22 Q1010=
201907310600 METAR LRTR 310600Z 00000KT 8000 NSC 23/22 Q1010=
201907310630 METAR LRTR 310630Z VRB02KT CAVOK 24/22 Q1010=
201907310700 METAR LRTR 310700Z VRB02KT CAVOK 25/23 Q1011=
201907310730 METAR LRTR 310730Z VRB01KT 9999 FEW012 26/23 Q1011=
201907310800 METAR LRTR 310800Z 23006KT 200V260 9999 FEW022 27/23 Q1011=
201907310830 METAR LRTR 310830Z 23005KT 160V270 9999 FEW025 28/22 Q1011=
201907310900 METAR COR LRTR 310900Z 27007KT 230V310 9999 FEW028 28/22
                        Q1011=
201907310930 METAR LRTR 310930Z 27007KT 240V320 9999 FEW029 29/22 Q1011=
201907311000 METAR LRTR 311000Z 25006KT 220V280 9999 FEW031 29/22 Q1011=
201907311030 METAR LRTR 311030Z 26006KT 230V290 9999 SCT031 29/23 Q1011=
201907311100 METAR LRTR 311100Z 27006KT 230V320 9999 SCT033 29/22 Q1011=
201907311130 METAR LRTR 311130Z 28008KT 9999 SCT037 30/22 Q1010=
201907311200 METAR LRTR 311200Z 30007KT 270V340 9999 SCT039 30/21 Q1010=
201907311230 METAR LRTR 311230Z 29008KT 9999 SCT041 31/21 Q1010=
201907311300 METAR LRTR 311300Z 32007KT 260V350 9999 SCT044 31/22 Q1010=
201907311330 METAR LRTR 311330Z 33009KT 9999 SCT046 31/21 Q1010=
201907311400 METAR LRTR 311400Z 31008KT 260V350 9999 SCT048 31/20 Q1010=
201907311430 METAR LRTR 311430Z 33008KT 290V350 9999 FEW048 31/21 Q1010=
201907311500 METAR LRTR 311500Z 32006KT 9999 FEW050TCU 30/20 Q1010=
201907311530 METAR LRTR 311530Z 34007KT 9999 FEW050CB 31/20 Q1010=
201907311600 METAR LRTR 311600Z 34004KT 310V010 9999 TS VCSH SCT045CB
                        30/21 Q1010=
201907311630 METAR LRTR 311630Z 07013KT 9999 -TSRA FEW014 BKN045CB 23/22
                        Q1011=
201907311700 METAR LRTR 311700Z 07009KT 9999 TS VCSH FEW016 SCT045CB 23/21
                        Q1011=
201907311730 METAR LRTR 311730Z 09005KT 060V120 9999 TS SCT045CB 23/23
                        Q1011=
201907311800 METAR LRTR 311800Z 08005KT 350V120 7000 TSRA FEW003 SCT040CB
                        22/22 Q1011 R11/290095=
201907311830 METAR LRTR 311830Z 08005KT 9999 SCT040CB 22/22 Q1011 RESHRA
                        RETS R11/290095=
201907311900 METAR LRTR 311900Z 06006KT 9999 VCTS FEW045CB 22/22 Q1012
                        R11/290095=
201907311930 METAR LRTR 311930Z 02008KT 350V050 9999 -SHRA VCTS FEW045CB
                        22/22 Q1013 R11/290095=
201907312000 METAR LRTR 312000Z 04007KT 9999 FEW045CB 22/22 Q1012 RESHRA
                        R11/290095=
201907312030 METAR LRTR 312030Z 08006KT 9999 -SHRA FEW045CB 22/21 Q1012
                        R11/290095=
201907312100 METAR LRTR 312100Z VRB02KT 8000 SHRA FEW015 FEW045CB 21/21
                        Q1013 R11/290095=
201907312130 METAR LRTR 312130Z 33005KT 300V360 9999 -SHRA FEW020 FEW045CB
                        21/21 Q1013 RESHRA R11/290095=
201907312200 METAR LRTR 312200Z 01003KT 290V090 9999 -SHRA FEW045CB 21/21
                        Q1013 R11/290095=
201907312230 METAR LRTR 312230Z 07009KT 9999 -SHRA FEW040CB 21/21 Q1011
                        RESHRA R11/290095=
201907312300 METAR LRTR 312300Z VRB04KT 9999 FEW040CB 21/21 Q1011 R11/290095=
201907312330 METAR LRTR 312330Z 01005KT 9999 FEW040CB 20/20 Q1012 R11/290095=
