201908010000 METAR LRTR 010000Z 03004KT 8000 NSC 20/20 Q1012 R11/290095=
201908010030 METAR LRTR 010030Z 35003KT 6000 NSC 20/20 Q1013 R11/290095=
201908010100 METAR LRTR 010100Z 36002KT 4000 BR NSC 20/20 Q1013 R11/290095=
201908010130 METAR LRTR 010130Z 35003KT 3500 BR NSC 20/20 Q1013 R11/290095=
201908010200 METAR LRTR 010200Z 00000KT 3000 BR NSC 19/20 Q1013 R11/290095=
201908010230 METAR LRTR 010230Z 32007KT 3000 0600NE R11/P2000 R29/2000
                        BCFG BR FEW001 19/19 Q1014 R11/290095=
201908010300 METAR LRTR 010300Z 33006KT 6000 FEW002 19/19 Q1013 R11/190095=
201908010330 METAR LRTR 010330Z 05005KT 3000 1200E R11/P2000 R29/2000D
                        BR SCT002 19/19 Q1013 R11/190095=
201908010400 METAR LRTR 010400Z 06005KT 030V100 0300 R11/0750N R29/0750N
                        FG OVC001 20/20 Q1013 R11/190095=
201908010430 METAR LRTR 010430Z 06004KT 030V090 0400 R11/0800D R29/0800U
                        FG OVC002 20/20 Q1013 R11/190095=
201908010500 METAR LRTR 010500Z 09004KT 2500 BR BKN002 20/20 Q1013 R11/190095=
201908010530 METAR LRTR 010530Z 09006KT 060V120 3500 BR BKN002 20/20 Q1013
                        R11/190095=
201908010600 METAR COR LRTR 010600Z 11005KT 5000 BR BKN003 21/21 Q1013
                        R11/190095=
201908010630 METAR COR LRTR 010630Z 10003KT 070V130 8000 BKN004 22/22
                        Q1013 R11/190095=
201908010700 METAR LRTR 010700Z 32003KT 280V070 8000 BKN006 23/22 Q1014
                        R11/190095=
201908010730 METAR LRTR 010730Z 26004KT 210V300 9999 SCT010 24/22 Q1014
                        R11/190095=
201908010800 METAR LRTR 010800Z 31007KT 9999 BKN012 24/22 Q1014=
201908010830 METAR LRTR 010830Z 28004KT 210V360 9999 SCT015 25/22 Q1014=
201908010900 METAR COR LRTR 010900Z 36003KT 320V110 9999 SCT020 26/23
                        Q1014=
201908010930 METAR LRTR 010930Z VRB04KT 9999 BKN020 26/21 Q1014=
201908011000 METAR COR LRTR 011000Z 31007KT 9999 BKN024 26/22 Q1014=
201908011030 METAR COR LRTR 011030Z 28008KT 9999 BKN030 27/21 Q1014=
201908011100 METAR LRTR 011100Z 30007KT 260V320 9999 SCT035 28/21 Q1014=
201908011130 METAR LRTR 011130Z 29010KT 9999 SCT035 28/21 Q1014=
201908011200 METAR LRTR 011200Z 31009KT 280V340 9999 SCT035 29/22 Q1013=
201908011230 METAR LRTR 011230Z 30008KT 270V340 9999 SCT035 28/21 Q1013=
201908011300 METAR LRTR 011300Z 30008KT 270V340 9999 SCT036 28/21 Q1013=
201908011330 METAR LRTR 011330Z 31008KT 290V350 9999 SCT040 29/20 Q1013=
201908011400 METAR LRTR 011400Z 29010KT 260V320 9999 SCT040 30/21 Q1013=
201908011430 METAR LRTR 011430Z 30008KT 9999 SCT040 29/21 Q1013=
201908011500 METAR LRTR 011500Z 31009KT 9999 FEW045 29/20 Q1013=
201908011530 METAR LRTR 011530Z 30009KT 280V340 9999 FEW045 29/20 Q1013=
201908011600 METAR LRTR 011600Z 33008KT 300V360 9999 FEW045 29/20 Q1013=
201908011630 METAR LRTR 011630Z 33009KT 9999 FEW045 28/20 Q1012 NOSIG=
201908011700 METAR LRTR 011700Z 33004KT 9999 FEW048 28/20 Q1012 NOSIG=
201908011730 METAR LRTR 011730Z 33003KT 9999 FEW048 27/21 Q1013 NOSIG=
201908011800 METAR LRTR 011800Z 35004KT 9999 FEW049 26/22 Q1013 NOSIG=
201908011830 METAR LRTR 011830Z 35004KT CAVOK 25/21 Q1013 NOSIG=
201908011900 METAR LRTR 011900Z 33002KT CAVOK 24/22 Q1013 NOSIG=
201908011930 METAR LRTR 011930Z 00000KT CAVOK 23/22 Q1013 NOSIG=
201908012000 METAR LRTR 012000Z 02002KT CAVOK 23/21 Q1013 NOSIG=
201908012030 METAR LRTR 012030Z 00000KT CAVOK 22/21 Q1013 NOSIG=
201908012100 METAR LRTR 012100Z 00000KT CAVOK 21/21 Q1013 NOSIG=
201908012130 METAR LRTR 012130Z 07004KT CAVOK 21/21 Q1013 NOSIG=
201908012200 METAR LRTR 012200Z 13001KT CAVOK 20/20 Q1014 NOSIG=
201908012230 METAR LRTR 012230Z 16003KT CAVOK 20/20 Q1013 NOSIG=
201908012300 METAR LRTR 012300Z 00000KT CAVOK 20/20 Q1013 NOSIG=
201908012330 METAR LRTR 012330Z 00000KT 7000 FEW002 19/19 Q1013 NOSIG=
201908020000 METAR COR LRTR 020000Z 00000KT 5000 BR FEW002 18/18 Q1013
                        BECMG 3000 BCFG BR=
201908020030 METAR LRTR 020030Z 07001KT 3500 BR FEW002 18/18 Q1013 TEMPO
                        1500 BCFG BR=
201908020100 METAR LRTR 020100Z 06004KT 3000 BR NSC 17/17 Q1013 NOSIG=
201908020130 METAR LRTR 020130Z 00000KT 3000 BR NSC 17/17 Q1013 NOSIG=
201908020200 METAR LRTR 020200Z 00000KT 3000 MIFG BR FEW002 18/18 Q1013
                        TEMPO 0300 BCFG=
201908020230 METAR LRTR 020230Z 01003KT 3000 0600NE R11/0750N R29/0450N
                        BCFG BR FEW001 16/16 Q1013 TEMPO
                        0300 BCFG=
201908020300 METAR LRTR 020300Z 08003KT 3000 0600E R11/P2000 R29/0700N
                        BCFG BR FEW001 16/16 Q1013 TEMPO
                        0300 BCFG=
201908020330 METAR LRTR 020330Z 00000KT 3000 0600E R11/1300D R29/0275N
                        BCFG BR FEW001 16/16 Q1013 TEMPO
                        0300 BCFG=
201908020400 METAR LRTR 020400Z 07003KT 1500 0450N R11/0900U R29/0650N
                        BCFG BR FEW001 SCT002 16/16 Q1013
                        TEMPO 0300 BCFG=
201908020430 METAR LRTR 020430Z 07002KT 0400 R11/0550N R29/0450N FG FEW001
                        SCT002 17/17 Q1013=
201908020500 METAR LRTR 020500Z VRB01KT 1000 R11/P2000U R29/0450N BCFG
                        BR FEW001 18/18 Q1013=
201908020530 METAR LRTR 020530Z 08003KT 040V100 0300 R11/0700N R29/0300N
                        FG SCT001 19/19 Q1013=
201908020600 METAR LRTR 020600Z VRB01KT 5000 1000E R11/P2000U R29/0750U
                        BCFG BR SCT001 20/20 Q1013=
201908020630 METAR LRTR 020630Z VRB02KT 8000 3000E BCFG SCT002 22/21 Q1013=
201908020700 METAR LRTR 020700Z 11004KT 070V140 9999 FEW001 22/22 Q1013=
201908020730 METAR LRTR 020730Z 11004KT 040V160 9999 FEW020 24/21 Q1013=
201908020800 METAR COR LRTR 020800Z VRB02KT 9999 FEW023 26/19 Q1013=
201908020830 METAR LRTR 020830Z VRB01KT 9999 FEW025 27/18 Q1013=
201908020900 METAR LRTR 020900Z VRB01KT 9999 FEW028 29/15 Q1012=
201908020930 METAR LRTR 020930Z VRB01KT 9999 FEW033 29/13 Q1012=
201908021000 METAR LRTR 021000Z 32003KT 260V030 9999 FEW036 29/13 Q1012=
201908021030 METAR LRTR 021030Z 09004KT 030V150 9999 FEW040 30/12 Q1012=
201908021100 METAR LRTR 021100Z VRB03KT 9999 FEW043 30/11 Q1012=
201908021130 METAR LRTR 021130Z 31005KT 270V340 9999 FEW045 30/13 Q1012=
201908021200 METAR LRTR 021200Z 29006KT 9999 FEW048 30/12 Q1011=
201908021230 METAR LRTR 021230Z VRB02KT CAVOK 31/11 Q1011=
201908021300 METAR LRTR 021300Z 32003KT 290V060 CAVOK 31/10 Q1011=
201908021330 METAR LRTR 021330Z 16006KT CAVOK 31/10 Q1010=
201908021400 METAR LRTR 021400Z 13006KT CAVOK 30/13 Q1010=
201908021430 METAR LRTR 021430Z 09003KT 050V170 CAVOK 30/14 Q1010=
201908021500 METAR LRTR 021500Z 09003KT CAVOK 29/17 Q1010=
201908021530 METAR LRTR 021530Z 10002KT CAVOK 29/17 Q1010=
201908021600 METAR LRTR 021600Z 11004KT CAVOK 28/17 Q1009=
201908021630 METAR LRTR 021630Z 10005KT CAVOK 29/18 Q1008=
201908021700 METAR COR LRTR 021700Z 06003KT CAVOK 27/19 Q1008=
201908021730 METAR LRTR 021730Z 06004KT CAVOK 26/19 Q1008=
201908021800 METAR LRTR 021800Z VRB02KT CAVOK 25/20 Q1008=
201908021830 METAR LRTR 021830Z 30003KT 260V330 CAVOK 26/18 Q1009=
201908021900 METAR LRTR 021900Z 35005KT 320V020 9999 FEW050CB 25/17 Q1009=
201908021930 METAR LRTR 021930Z 27005KT 250V320 9999 -SHRA FEW050CB 24/18
                        Q1010=
201908022000 METAR LRTR 022000Z 24013KT 190V260 8000 SHRA BKN045CB 21/20
                        Q1008 R11/190095=
201908022030 METAR LRTR 022030Z 28017KT 9999 -SHRA FEW025 FEW045CB 21/20
                        Q1009 RESHRA R11/190095=
201908022100 METAR LRTR 022100Z 28009KT CAVOK 21/20 Q1009 R11/190095=
201908022130 METAR COR LRTR 022130Z 31007KT CAVOK 21/20 Q1009 R11/190095=
201908022200 METAR LRTR 022200Z 33009KT CAVOK 20/19 Q1008 R11/190095=
201908022230 METAR LRTR 022230Z 36010KT CAVOK 19/18 Q1008 R11/190095=
201908022300 METAR LRTR 022300Z 36009KT CAVOK 19/18 Q1008 R11/190095=
201908022330 METAR LRTR 022330Z 02007KT CAVOK 18/18 Q1008 R11/190095=
201908030000 METAR COR LRTR 030000Z VRB01KT CAVOK 18/18 Q1008 R11/190095=
201908030030 METAR LRTR 030030Z 03004KT CAVOK 18/18 Q1008 R11/190095=
201908030100 METAR LRTR 030100Z 35003KT CAVOK 18/18 Q1008 R11/190095=
201908030130 METAR LRTR 030130Z 00000KT CAVOK 18/18 Q1007 R11/190095=
201908030200 METAR LRTR 030200Z 36001KT CAVOK 18/18 Q1007 R11/190095=
201908030230 METAR COR LRTR 030230Z 25005KT 9999 FEW044CB 18/18 Q1007
                        R11/190095=
201908030300 METAR LRTR 030300Z 27005KT 9999 FEW040CB BKN045 18/18 Q1007
                        R11/CLRD//=
201908030330 METAR LRTR 030330Z 28005KT 8000 -SHRA FEW025 SCT035CB BKN048
                        18/18 Q1007 RESHRA R11/290095=
201908030400 METAR LRTR 030400Z 29003KT 260V330 6000 SHRA SCT042CB 18/18
                        Q1007 R11/290594=
201908030430 METAR LRTR 030430Z 27002KT 5000 SHRA SCT015 SCT045CB 18/18
                        Q1007 R11/290594=
201908030500 METAR LRTR 030500Z 22003KT 3500 SHRA SCT005 SCT045CB 18/18
                        Q1007 R11/290594=
201908030530 METAR LRTR 030530Z 28004KT 3000 SHRA SCT004 SCT045CB 18/18
                        Q1007 RESHRA R11/290594=
201908030600 METAR LRTR 030600Z 30007KT 2500 +SHRA SCT003 SCT045CB 18/18
                        Q1007 R11/290594=
201908030630 METAR LRTR 030630Z 31009KT 2500 +SHRA SCT003 SCT040CB 18/18
                        Q1007 R11/290594=
201908030700 METAR LRTR 030700Z 31010KT 3000 RA SCT005 OVC045 18/18 Q1007
                        RESHRA R11/290594=
201908030730 METAR LRTR 030730Z 32009KT 7000 RA BKN005 BKN045 18/18 Q1007
                        R11/290594=
201908030800 METAR LRTR 030800Z 32010KT 9999 -RA SCT007 BKN040 19/19 Q1007
                        RERA R11/290594=
201908030830 METAR LRTR 030830Z 32011KT 9999 -RA SCT008 BKN045 19/19 Q1008
                        R11/290595=
201908030900 METAR LRTR 030900Z 32010KT 9999 -RA SCT010 BKN045 20/20 Q1008
                        R11/290595=
201908030930 METAR LRTR 030930Z 33010KT 9999 BKN011 21/20 Q1008 R11/290595=
201908031000 METAR LRTR 031000Z 33013KT 9999 -RA SCT015 SCT045 21/20 Q1008
                        R11/290095=
201908031030 METAR LRTR 031030Z 32010KT 9999 FEW016 SCT046 22/19 Q1008
                        R11/290095=
201908031100 METAR LRTR 031100Z 31011KT 9999 SCT021 SCT043 22/19 Q1008
                        R11/290095=
201908031130 METAR LRTR 031130Z 30010KT 9999 -SHRA VCTS SCT021 FEW040CB
                        21/20 Q1008 RESHRA R11/290095=
201908031200 METAR LRTR 031200Z 31010KT 9999 FEW021 FEW040CB 23/19 Q1008
                        R11/290095=
201908031230 METAR LRTR 031230Z 32013KT 9999 SCT030 FEW040CB 24/19 Q1008
                        R11/290095=
201908031300 METAR LRTR 031300Z 34008KT 310V010 9999 SCT032 24/18 Q1008
                        R11/290095=
201908031330 METAR LRTR 031330Z 34009KT 9999 SCT038 25/17 Q1008 R11/15//95=
201908031400 METAR LRTR 031400Z 34009KT 9999 SCT043 26/17 Q1008 R11/15//95=
201908031430 METAR LRTR 031430Z 33011KT 290V010 9999 FEW040CB SCT046 25/17
                        Q1008 R11/15//95=
201908031500 METAR LRTR 031500Z 32010KT 9999 VCTS FEW040CB 25/16 Q1008
                        R11/15//95=
201908031530 METAR LRTR 031530Z 32019KT 6000 +TSRA SCT014 BKN045CB 20/18
                        Q1008 R11/290095=
201908031600 METAR LRTR 031600Z 01009KT 9999 TS VCSH FEW013 SCT040CB 18/18
                        Q1009 RESHRA R11/290095=
201908031630 METAR LRTR 031630Z 33006KT 9999 FEW050CB 19/18 Q1009 RETS
                        R11/290095=
201908031700 METAR LRTR 031700Z 34004KT 9999 FEW050CB 19/18 Q1009 R11/290095=
201908031730 METAR LRTR 031730Z 35009KT CAVOK 19/18 Q1009 R11/290095=
201908031800 METAR LRTR 031800Z 35005KT CAVOK 18/18 Q1009 R11/290095=
201908031830 METAR LRTR 031830Z 31005KT CAVOK 17/17 Q1010 R11/290095=
201908031900 METAR LRTR 031900Z 31007KT CAVOK 16/16 Q1010 R11/290095=
201908031930 METAR LRTR 031930Z 32006KT CAVOK 16/16 Q1010 R11/290095=
201908032000 METAR LRTR 032000Z 32007KT CAVOK 16/16 Q1011 R11/220095=
201908032030 METAR LRTR 032030Z 32006KT CAVOK 16/16 Q1011 R11/220095=
201908032100 METAR LRTR 032100Z 30002KT CAVOK 15/15 Q1011 R11/220095=
201908032130 METAR LRTR 032130Z VRB02KT CAVOK 15/15 Q1011 R11/220095=
201908032200 METAR LRTR 032200Z 30005KT CAVOK 15/15 Q1011 R11/220095=
201908032230 METAR LRTR 032230Z 31003KT 7000 NSC 15/15 Q1011 R11/220095=
201908032300 METAR LRTR 032300Z VRB01KT 7000 2000E R11/P2000 R29/0600D
                        BCFG NSC 14/14 Q1011 R11/220095=
201908032330 METAR LRTR 032330Z VRB02KT 8000 3000E BCFG NSC 15/15 Q1011
                        R11/220095=
201908040000 METAR LRTR 040000Z 00000KT 6000 NSC 15/15 Q1011 R11/220095=
201908040030 METAR LRTR 040030Z 00000KT 5000 BR NSC 14/14 Q1011 R11/220095=
201908040100 METAR LRTR 040100Z 00000KT 3500 BR NSC 14/14 Q1011 R11/220095=
201908040130 METAR LRTR 040130Z 26003KT 3000 BR FEW003 13/13 Q1011 R11/220095=
201908040200 METAR LRTR 040200Z 28005KT 2000 R11/0650U R29/P2000 BR FEW002
                        13/13 Q1012 R11/220095=
201908040230 METAR LRTR 040230Z 29005KT 3000 BR FEW002 13/13 Q1012 R11/220095=
201908040300 METAR LRTR 040300Z 30005KT 1500 BR FEW001 13/13 Q1012 R11/CLRD//=
201908040330 METAR LRTR 040330Z 32003KT 0300 R11/0600N R29/0500D FG SCT001
                        13/13 Q1012=
201908040400 METAR LRTR 040400Z 32002KT 0300 R11/0650U R29/0275N FG SCT001
                        13/13 Q1012=
201908040430 METAR LRTR 040430Z 27003KT 190V310 0400 R11/0650N R29/0800U
                        FG SCT001 14/14 Q1013 TEMPO 0800
                        FG=
201908040500 METAR LRTR 040500Z VRB01KT 1500 0800E R11/P2000 R29/0800D
                        BCFG BR SCT001 15/15 Q1013 TEMPO
                        3000 BR=
201908040530 METAR LRTR 040530Z VRB01KT 3500 1500E R11/P2000 R29/1200U
                        BCFG BR FEW001 15/15 Q1013 BECMG
                        5000 BR=
201908040600 METAR LRTR 040600Z VRB02KT 5000 1500E R11/P2000 R29/0900D
                        BCFG BR FEW002 16/16 Q1013 NOSIG=
201908040630 METAR LRTR 040630Z 08003KT 050V120 5000 BR FEW001 SCT003
                        17/17 Q1013 NOSIG=
201908040700 METAR LRTR 040700Z 13003KT 060V180 7000 FEW002 SCT004 17/17
                        Q1013 NOSIG=
201908040730 METAR LRTR 040730Z VRB02KT 9999 FEW005 SCT008 18/18 Q1014
                        NOSIG=
201908040800 METAR LRTR 040800Z VRB02KT 9999 FEW008 SCT011 20/17 Q1014
                        NOSIG=
201908040830 METAR LRTR 040830Z VRB01KT 9999 FEW015 21/18 Q1014 NOSIG=
201908040900 METAR COR LRTR 040900Z 22004KT 170V270 9999 FEW019 FEW024TCU
                        21/17 Q1014 NOSIG=
201908040930 METAR LRTR 040930Z 26004KT 210V310 9999 SCT024 FEW027TCU
                        22/16 Q1014 NOSIG=
201908041000 METAR LRTR 041000Z 27005KT 210V320 9999 SCT028 FEW033CB 22/17
                        Q1014 TEMPO TS=
201908041030 METAR LRTR 041030Z 27005KT 220V320 9999 TS SCT035 FEW040CB
                        23/16 Q1014 NOSIG=
201908041100 METAR LRTR 041100Z 29008KT 9999 TS SCT035 FEW040CB 24/16
                        Q1013 NOSIG=
201908041130 METAR LRTR 041130Z 30005KT 270V330 9999 VCTS SCT038 FEW043CB
                        24/16 Q1013 RETS TEMPO TS=
201908041200 METAR LRTR 041200Z 09007KT 9999 VCTS SCT040 FEW045CB 22/17
                        Q1014 TEMPO TS=
201908041230 METAR LRTR 041230Z 11006KT 9999 VCTS FEW040 FEW045CB 22/17
                        Q1014 TEMPO TS=
201908041300 METAR LRTR 041300Z 17007KT 9999 FEW042 FEW045CB 23/15 Q1014
                        NOSIG=
201908041330 METAR LRTR 041330Z 21008KT 9999 VCTS FEW045 FEW048CB 23/15
                        Q1014 TEMPO TS=
201908041400 METAR LRTR 041400Z 16005KT 9999 FEW045 FEW050CB 24/16 Q1013
                        NOSIG=
201908041430 METAR LRTR 041430Z 16004KT 090V220 9999 FEW045 FEW050CB 24/15
                        Q1013 NOSIG=
201908041500 METAR LRTR 041500Z 34009KT 9999 FEW045 FEW055CB 24/16 Q1013
                        NOSIG=
201908041530 METAR LRTR 041530Z 34009KT 9999 FEW048 FEW055CB 24/14 Q1013
                        TEMPO TS=
201908041600 METAR LRTR 041600Z 33008KT 9999 FEW048 FEW055CB 24/15 Q1013
                        TEMPO TS=
201908041630 METAR LRTR 041630Z 32007KT 9999 FEW055CB 23/14 Q1013=
201908041700 METAR LRTR 041700Z 33004KT 9999 FEW050CB 23/15 Q1013=
201908041730 METAR LRTR 041730Z 34004KT 9999 FEW050CB 22/15 Q1014=
201908041800 METAR LRTR 041800Z 33004KT 9999 FEW050CB 20/16 Q1014=
201908041830 METAR LRTR 041830Z 30004KT CAVOK 19/16 Q1014=
201908041900 METAR LRTR 041900Z 11003KT CAVOK 19/16 Q1015=
201908041930 METAR LRTR 041930Z 10004KT CAVOK 17/17 Q1015=
201908042000 METAR LRTR 042000Z 12004KT CAVOK 17/17 Q1015=
201908042030 METAR LRTR 042030Z 00000KT CAVOK 16/16 Q1015=
201908042100 METAR LRTR 042100Z 09002KT CAVOK 15/15 Q1015=
201908042130 METAR LRTR 042130Z 09002KT CAVOK 14/14 Q1015=
201908042200 METAR LRTR 042200Z 10003KT CAVOK 14/14 Q1016=
201908042230 METAR LRTR 042230Z 10006KT 7000 NSC 14/14 Q1016=
201908042300 METAR LRTR 042300Z 12004KT 8000 NSC 14/14 Q1016=
201908042330 METAR LRTR 042330Z 11005KT 6000 NSC 14/14 Q1016=
201908050000 METAR LRTR 050000Z 11005KT 6000 NSC 14/14 Q1016=
201908050030 METAR LRTR 050030Z 14004KT 8000 NSC 13/13 Q1016=
201908050100 METAR LRTR 050100Z 12005KT 7000 NSC 13/13 Q1016=
201908050130 METAR LRTR 050130Z 11005KT 5000 BR NSC 13/13 Q1016=
201908050200 METAR LRTR 050200Z 12005KT 3000 0900NE R11/0900D R29/0800N
                        BCFG BR NSC 13/13 Q1016=
201908050230 METAR LRTR 050230Z 11005KT 3500 1000E R11/P2000 R29/1200U
                        BCFG BR NSC 12/12 Q1016=
201908050300 METAR LRTR 050300Z 10005KT 5000 MIFG BR NSC 12/12 Q1016=
201908050330 METAR LRTR 050330Z 12007KT 8000 MIFG NSC 12/12 Q1016=
201908050400 METAR LRTR 050400Z 11006KT 8000 NSC 13/13 Q1016=
201908050430 METAR LRTR 050430Z 11006KT CAVOK 14/14 Q1016=
201908050500 METAR LRTR 050500Z 11008KT CAVOK 15/15 Q1016=
201908050530 METAR LRTR 050530Z 11007KT CAVOK 16/16 Q1016=
201908050600 METAR LRTR 050600Z 13006KT CAVOK 17/17 Q1017=
201908050630 METAR LRTR 050630Z 14006KT CAVOK 18/17 Q1017=
201908050700 METAR LRTR 050700Z 17005KT CAVOK 20/18 Q1017=
201908050730 METAR LRTR 050730Z 16006KT CAVOK 21/18 Q1017=
201908050800 METAR COR LRTR 050800Z 16004KT 130V210 CAVOK 22/19 Q1017=
201908050830 METAR LRTR 050830Z 16005KT 120V210 CAVOK 23/17 Q1017=
201908050900 METAR LRTR 050900Z 19005KT 170V240 CAVOK 24/18 Q1017=
201908050930 METAR LRTR 050930Z VRB04KT 9999 FEW040 25/16 Q1016=
201908051000 METAR LRTR 051000Z 28007KT 9999 FEW045 26/12 Q1016=
201908051030 METAR LRTR 051030Z VRB04KT 9999 FEW047 27/15 Q1016=
201908051100 METAR COR LRTR 051100Z 22006KT 190V250 9999 SCT048 26/12
                        Q1016=
201908051130 METAR COR LRTR 051130Z 24006KT 9999 SCT048 27/11 Q1016=
201908051200 METAR LRTR 051200Z 26008KT CAVOK 27/11 Q1015=
201908051230 METAR LRTR 051230Z VRB04KT CAVOK 28/13 Q1015=
201908051300 METAR LRTR 051300Z 28006KT CAVOK 28/12 Q1015=
201908051330 METAR LRTR 051330Z 25005KT 150V280 CAVOK 27/10 Q1015=
201908051400 METAR LRTR 051400Z 28005KT 250V310 CAVOK 27/11 Q1015=
201908051430 METAR LRTR 051430Z 25007KT CAVOK 28/11 Q1015=
201908051500 METAR COR LRTR 051500Z 28004KT 240V330 CAVOK 28/11 Q1014=
201908051530 METAR LRTR 051530Z 27006KT 240V300 CAVOK 27/11 Q1014=
201908051600 METAR COR LRTR 051600Z 24004KT CAVOK 27/12 Q1014=
201908051630 METAR LRTR 051630Z 26007KT CAVOK 27/12 Q1014 NOSIG=
201908051700 METAR LRTR 051700Z 24005KT 190V250 CAVOK 26/13 Q1014 NOSIG=
201908051730 METAR LRTR 051730Z 24004KT CAVOK 25/13 Q1014 NOSIG=
201908051800 METAR LRTR 051800Z 24004KT 180V320 CAVOK 24/13 Q1014 NOSIG=
201908051830 METAR LRTR 051830Z 22003KT CAVOK 24/12 Q1015 NOSIG=
201908051900 METAR LRTR 051900Z 21003KT CAVOK 21/14 Q1015 NOSIG=
201908051930 METAR LRTR 051930Z 19003KT CAVOK 20/15 Q1015 NOSIG=
201908052000 METAR LRTR 052000Z VRB02KT CAVOK 19/16 Q1015 NOSIG=
201908052030 METAR LRTR 052030Z 12003KT CAVOK 17/16 Q1015 NOSIG=
201908052100 METAR LRTR 052100Z 11003KT CAVOK 16/16 Q1015 NOSIG=
201908052130 METAR LRTR 052130Z 12003KT CAVOK 16/16 Q1015 NOSIG=
201908052200 METAR LRTR 052200Z 10006KT CAVOK 16/16 Q1016 NOSIG=
201908052230 METAR LRTR 052230Z 11005KT CAVOK 15/15 Q1016 NOSIG=
201908052300 METAR LRTR 052300Z 11006KT CAVOK 16/16 Q1016 NOSIG=
201908052330 METAR LRTR 052330Z 11006KT CAVOK 15/15 Q1016 NOSIG=
201908060000 METAR LRTR 060000Z 11005KT CAVOK 15/15 Q1016 NOSIG=
201908060030 METAR LRTR 060030Z 11005KT CAVOK 15/15 Q1016 NOSIG=
201908060100 METAR LRTR 060100Z 10005KT CAVOK 14/14 Q1015 NOSIG=
201908060130 METAR LRTR 060130Z 10005KT CAVOK 15/15 Q1015 NOSIG=
201908060200 METAR LRTR 060200Z 10006KT CAVOK 15/15 Q1015 NOSIG=
201908060230 METAR LRTR 060230Z 10006KT CAVOK 14/14 Q1016 NOSIG=
201908060300 METAR LRTR 060300Z 10005KT CAVOK 14/14 Q1016 NOSIG=
201908060330 METAR LRTR 060330Z 10006KT CAVOK 14/14 Q1016 NOSIG=
201908060400 METAR LRTR 060400Z 10004KT CAVOK 14/14 Q1016 NOSIG=
201908060430 METAR LRTR 060430Z 11004KT CAVOK 15/15 Q1016 NOSIG=
201908060500 METAR LRTR 060500Z 11006KT CAVOK 16/16 Q1016 NOSIG=
201908060530 METAR LRTR 060530Z 11007KT CAVOK 18/17 Q1016 NOSIG=
201908060600 METAR LRTR 060600Z 12008KT CAVOK 19/17 Q1016 NOSIG=
201908060630 METAR LRTR 060630Z 12006KT CAVOK 20/17 Q1016 NOSIG=
201908060700 METAR LRTR 060700Z 14006KT CAVOK 21/16 Q1016 NOSIG=
201908060730 METAR LRTR 060730Z 16006KT 130V200 CAVOK 23/17 Q1016 NOSIG=
201908060800 METAR LRTR 060800Z 17006KT 130V200 CAVOK 24/17 Q1016 NOSIG=
201908060830 METAR LRTR 060830Z 18007KT 140V220 CAVOK 25/16 Q1016 NOSIG=
201908060900 METAR LRTR 060900Z 17007KT 130V210 CAVOK 26/15 Q1016 NOSIG=
201908060930 METAR LRTR 060930Z 17007KT CAVOK 27/16 Q1016 NOSIG=
201908061000 METAR LRTR 061000Z 18006KT 150V220 CAVOK 27/14 Q1016 NOSIG=
201908061030 METAR LRTR 061030Z 16008KT CAVOK 27/14 Q1016 NOSIG=
201908061100 METAR LRTR 061100Z 16009KT CAVOK 28/14 Q1016 NOSIG=
201908061130 METAR LRTR 061130Z 19008KT CAVOK 29/13 Q1016 NOSIG=
201908061200 METAR LRTR 061200Z 18008KT CAVOK 29/14 Q1015 NOSIG=
201908061230 METAR LRTR 061230Z 17008KT 140V230 CAVOK 29/12 Q1015 NOSIG=
201908061300 METAR LRTR 061300Z 19006KT 150V220 CAVOK 29/12 Q1015 NOSIG=
201908061330 METAR LRTR 061330Z 22008KT CAVOK 30/12 Q1015 NOSIG=
201908061400 METAR LRTR 061400Z 22008KT 190V260 CAVOK 30/12 Q1014 NOSIG=
201908061430 METAR LRTR 061430Z 21007KT 180V240 CAVOK 30/12 Q1014 NOSIG=
201908061500 METAR LRTR 061500Z 19008KT CAVOK 30/12 Q1014 NOSIG=
201908061530 METAR LRTR 061530Z 20007KT 170V230 CAVOK 29/11 Q1014 NOSIG=
201908061600 METAR LRTR 061600Z 19007KT CAVOK 29/12 Q1014 NOSIG=
201908061630 METAR COR LRTR 061630Z 23006KT CAVOK 28/13 Q1013=
201908061700 METAR LRTR 061700Z 20005KT CAVOK 28/12 Q1013=
201908061730 METAR LRTR 061730Z 22004KT CAVOK 27/13 Q1014=
201908061800 METAR LRTR 061800Z 19003KT CAVOK 26/13 Q1014=
201908061830 METAR LRTR 061830Z 16003KT CAVOK 24/15 Q1014=
201908061900 METAR LRTR 061900Z 10004KT CAVOK 21/18 Q1014=
201908061930 METAR LRTR 061930Z 10004KT CAVOK 22/18 Q1014=
201908062000 METAR LRTR 062000Z 09006KT CAVOK 21/18 Q1014=
201908062030 METAR LRTR 062030Z 10006KT CAVOK 20/18 Q1014=
201908062100 METAR LRTR 062100Z 11005KT CAVOK 19/18 Q1014=
201908062130 METAR LRTR 062130Z 11007KT CAVOK 19/18 Q1014=
201908062200 METAR COR LRTR 062200Z 12008KT CAVOK 19/18 Q1014=
201908062230 METAR LRTR 062230Z 10007KT CAVOK 19/18 Q1013=
201908062300 METAR COR LRTR 062300Z 10007KT CAVOK 18/18 Q1013=
201908062330 METAR LRTR 062330Z 10007KT CAVOK 18/18 Q1013=
201908070000 METAR LRTR 070000Z 10007KT CAVOK 18/18 Q1013=
201908070030 METAR LRTR 070030Z 11006KT CAVOK 18/17 Q1013=
201908070100 METAR COR LRTR 070100Z 11006KT CAVOK 18/17 Q1013=
201908070130 METAR LRTR 070130Z 11006KT CAVOK 18/17 Q1013=
201908070200 METAR LRTR 070200Z 12006KT CAVOK 17/17 Q1013=
201908070230 METAR LRTR 070230Z 12007KT CAVOK 18/16 Q1013=
201908070300 METAR LRTR 070300Z 11007KT CAVOK 18/16 Q1013=
201908070330 METAR LRTR 070330Z 11007KT CAVOK 17/16 Q1013=
201908070400 METAR LRTR 070400Z 10006KT CAVOK 19/16 Q1013=
201908070430 METAR LRTR 070430Z 09007KT CAVOK 19/17 Q1013=
201908070500 METAR LRTR 070500Z 10008KT CAVOK 20/17 Q1013=
201908070530 METAR LRTR 070530Z 11007KT CAVOK 21/17 Q1013=
201908070600 METAR LRTR 070600Z 11009KT CAVOK 22/16 Q1013=
201908070630 METAR LRTR 070630Z 11009KT CAVOK 23/17 Q1013=
201908070700 METAR LRTR 070700Z 12009KT CAVOK 24/17 Q1013=
201908070730 METAR LRTR 070730Z 16007KT CAVOK 25/17 Q1013=
201908070800 METAR LRTR 070800Z 15007KT 120V180 CAVOK 26/17 Q1013=
201908070830 METAR LRTR 070830Z 16008KT 130V200 CAVOK 28/18 Q1013=
201908070900 METAR LRTR 070900Z 17010KT 140V200 CAVOK 29/15 Q1013=
201908070930 METAR LRTR 070930Z 18013KT CAVOK 30/17 Q1013=
201908071000 METAR LRTR 071000Z 18012KT CAVOK 30/18 Q1013=
201908071030 METAR LRTR 071030Z 20011KT 170V230 CAVOK 30/19 Q1013=
201908071100 METAR LRTR 071100Z 22012KT CAVOK 30/18 Q1013=
201908071130 METAR LRTR 071130Z 23011KT CAVOK 30/19 Q1012=
201908071200 METAR LRTR 071200Z 23010KT CAVOK 31/19 Q1012=
201908071230 METAR LRTR 071230Z 22011KT 180V240 CAVOK 31/18 Q1012=
201908071300 METAR LRTR 071300Z 24009KT CAVOK 32/19 Q1012=
201908071330 METAR LRTR 071330Z 24009KT 200V270 CAVOK 32/19 Q1012=
201908071400 METAR LRTR 071400Z 23009KT CAVOK 32/18 Q1011=
201908071430 METAR LRTR 071430Z 22009KT 200V260 CAVOK 32/17 Q1011=
201908071500 METAR LRTR 071500Z 23009KT CAVOK 32/18 Q1011=
201908071530 METAR LRTR 071530Z 21007KT 170V270 CAVOK 32/18 Q1011=
201908071600 METAR LRTR 071600Z 20008KT CAVOK 32/18 Q1011 NOSIG=
201908071630 METAR LRTR 071630Z 19008KT CAVOK 31/18 Q1011 NOSIG=
201908071700 METAR LRTR 071700Z 19006KT CAVOK 30/19 Q1011 NOSIG=
201908071730 METAR LRTR 071730Z 18005KT CAVOK 29/19 Q1011 NOSIG=
201908071800 METAR LRTR 071800Z 17006KT CAVOK 28/19 Q1010 NOSIG=
201908071830 METAR LRTR 071830Z 14005KT CAVOK 26/19 Q1010 NOSIG=
201908071900 METAR LRTR 071900Z 15005KT CAVOK 25/20 Q1010 NOSIG=
201908071930 METAR LRTR 071930Z 14005KT CAVOK 25/22 Q1011 NOSIG=
201908072000 METAR LRTR 072000Z 11005KT CAVOK 22/21 Q1011 NOSIG=
201908072030 METAR LRTR 072030Z 14005KT CAVOK 22/20 Q1011 NOSIG=
201908072100 METAR LRTR 072100Z 12006KT CAVOK 22/20 Q1011 NOSIG=
201908072130 METAR LRTR 072130Z 13005KT CAVOK 22/20 Q1011 NOSIG=
201908072200 METAR LRTR 072200Z 12007KT CAVOK 21/20 Q1011 NOSIG=
201908072230 METAR LRTR 072230Z 11006KT CAVOK 20/20 Q1011 NOSIG=
201908072300 METAR LRTR 072300Z 11006KT CAVOK 20/20 Q1010 NOSIG=
201908072330 METAR LRTR 072330Z 11006KT CAVOK 20/20 Q1010 NOSIG=
201908080000 METAR LRTR 080000Z 11006KT CAVOK 20/19 Q1010 NOSIG=
201908080030 METAR LRTR 080030Z 12006KT CAVOK 20/19 Q1010 NOSIG=
201908080100 METAR LRTR 080100Z 12008KT CAVOK 20/19 Q1010 NOSIG=
201908080130 METAR LRTR 080130Z 11007KT CAVOK 19/19 Q1010 NOSIG=
201908080200 METAR LRTR 080200Z 11006KT CAVOK 20/18 Q1010 NOSIG=
201908080230 METAR LRTR 080230Z 11007KT CAVOK 19/18 Q1010 NOSIG=
201908080300 METAR LRTR 080300Z 11006KT CAVOK 19/18 Q1010 NOSIG=
201908080330 METAR LRTR 080330Z 12007KT CAVOK 19/18 Q1010 NOSIG=
201908080400 METAR LRTR 080400Z 08003KT 350V110 CAVOK 19/18 Q1011 NOSIG=
201908080430 METAR LRTR 080430Z VRB02KT CAVOK 20/19 Q1011 NOSIG=
201908080500 METAR LRTR 080500Z 12003KT CAVOK 21/19 Q1011 NOSIG=
201908080530 METAR LRTR 080530Z 14003KT 110V200 CAVOK 23/19 Q1011 NOSIG=
201908080600 METAR LRTR 080600Z 21002KT CAVOK 24/19 Q1012 NOSIG=
201908080630 METAR LRTR 080630Z 25004KT 210V280 CAVOK 25/19 Q1012 NOSIG=
201908080700 METAR LRTR 080700Z 18004KT 150V250 CAVOK 26/20 Q1012 NOSIG=
201908080730 METAR LRTR 080730Z 20004KT 160V240 CAVOK 27/20 Q1012 NOSIG=
201908080800 METAR LRTR 080800Z 20003KT 090V230 CAVOK 28/20 Q1012 NOSIG=
201908080830 METAR LRTR 080830Z 30004KT 260V360 CAVOK 29/21 Q1012 NOSIG=
201908080900 METAR LRTR 080900Z 25003KT 200V300 CAVOK 29/20 Q1012 NOSIG=
201908080930 METAR LRTR 080930Z 33003KT 270V360 CAVOK 29/20 Q1012 NOSIG=
201908081000 METAR LRTR 081000Z 32003KT 220V030 CAVOK 30/21 Q1012 NOSIG=
201908081030 METAR LRTR 081030Z 33006KT 280V020 CAVOK 30/21 Q1012 NOSIG=
201908081100 METAR LRTR 081100Z 32008KT CAVOK 31/20 Q1012 NOSIG=
201908081130 METAR LRTR 081130Z 33010KT CAVOK 31/20 Q1012 NOSIG=
201908081200 METAR LRTR 081200Z 33009KT CAVOK 31/19 Q1012 NOSIG=
201908081230 METAR LRTR 081230Z 32009KT 290V360 CAVOK 31/19 Q1012=
201908081300 METAR LRTR 081300Z 32008KT 290V360 CAVOK 31/18 Q1012=
201908081330 METAR LRTR 081330Z 32010KT CAVOK 31/18 Q1012=
201908081400 METAR LRTR 081400Z 33011KT CAVOK 30/18 Q1012=
201908081430 METAR LRTR 081430Z 34010KT 310V010 CAVOK 30/18 Q1012=
201908081500 METAR LRTR 081500Z 35009KT CAVOK 30/18 Q1012=
201908081530 METAR LRTR 081530Z 34010KT CAVOK 29/17 Q1012=
201908081600 METAR LRTR 081600Z 34007KT CAVOK 29/18 Q1012=
201908081630 METAR LRTR 081630Z 35008KT CAVOK 29/18 Q1012=
201908081700 METAR LRTR 081700Z 35008KT CAVOK 28/17 Q1012=
201908081730 METAR LRTR 081730Z 35006KT CAVOK 26/17 Q1012=
201908081800 METAR LRTR 081800Z 34005KT CAVOK 25/18 Q1012=
201908081830 METAR LRTR 081830Z 34004KT CAVOK 24/18 Q1012=
201908081900 METAR LRTR 081900Z 35004KT CAVOK 24/19 Q1013=
201908081930 METAR LRTR 081930Z 02005KT CAVOK 24/18 Q1013=
201908082000 METAR LRTR 082000Z 36005KT CAVOK 24/18 Q1013=
201908082030 METAR LRTR 082030Z 36006KT CAVOK 23/17 Q1013=
201908082100 METAR LRTR 082100Z 34005KT 300V020 9999 FEW050CB 23/18 Q1013=
201908082130 METAR LRTR 082130Z VRB01KT 9999 VCTS FEW050CB 23/18 Q1013=
201908082200 METAR LRTR 082200Z 34005KT 9999 TS SCT050CB 22/18 Q1014=
201908082230 METAR LRTR 082230Z 31017KT 7000 TSRA FEW015 SCT045CB 21/19
                        Q1015=
201908082300 METAR LRTR 082300Z 35012KT 9999 TS SCT045CB 20/19 Q1014 RESHRA
                        R11/290095=
201908082330 METAR LRTR 082330Z 02007KT 340V060 9999 VCTS FEW045CB 19/19
                        Q1014 R11/290095=
201908090000 METAR LRTR 090000Z 15003KT 050V220 9999 -SHRA VCTS FEW029
                        FEW045CB 20/19 Q1014 R11/290095=
201908090030 METAR LRTR 090030Z 19004KT 9999 -TSRA FEW020 SCT050CB 20/19
                        Q1015 R11/290095=
201908090100 METAR LRTR 090100Z 12004KT 9999 TS SCT050CB 19/19 Q1015 R11/290095=
201908090130 METAR LRTR 090130Z 08006KT 9999 -SHRA SCT050CB 19/19 Q1014
                        RETS R11/290095=
201908090200 METAR LRTR 090200Z 05006KT 9999 FEW050CB 19/19 Q1014 R11/290095=
201908090230 METAR LRTR 090230Z 09006KT 9999 FEW050CB 19/19 Q1014 R11/290095=
201908090300 METAR LRTR 090300Z 07004KT 9999 FEW050CB 19/19 Q1015 R11/290095=
201908090330 METAR LRTR 090330Z 08004KT 360V120 9999 FEW050CB 19/18 Q1015
                        R11/290095=
201908090400 METAR LRTR 090400Z 01004KT 9999 FEW050CB 18/18 Q1015 R11/290095=
201908090430 METAR LRTR 090430Z 34003KT 9999 FEW050CB 19/19 Q1015 NOSIG=
201908090500 METAR LRTR 090500Z 33002KT CAVOK 19/19 Q1015 NOSIG=
201908090530 METAR LRTR 090530Z 01003KT CAVOK 20/20 Q1015 NOSIG=
201908090600 METAR LRTR 090600Z 36005KT CAVOK 22/20 Q1015 NOSIG=
201908090630 METAR LRTR 090630Z 02005KT CAVOK 22/20 Q1015 NOSIG=
201908090700 METAR LRTR 090700Z VRB02KT CAVOK 24/19 Q1015 NOSIG=
201908090730 METAR LRTR 090730Z VRB01KT CAVOK 25/19 Q1015 NOSIG=
201908090800 METAR LRTR 090800Z VRB02KT 9999 FEW025 25/19 Q1016 NOSIG=
201908090830 METAR LRTR 090830Z VRB04KT 9999 FEW025 26/19 Q1016 NOSIG=
201908090900 METAR LRTR 090900Z VRB05KT 9999 FEW028 26/20 Q1016 NOSIG=
201908090930 METAR LRTR 090930Z 36004KT 310V050 9999 FEW030 27/19 Q1016
                        NOSIG=
201908091000 METAR LRTR 091000Z 35008KT 9999 FEW035 28/17 Q1016 NOSIG=
201908091030 METAR LRTR 091030Z 34005KT 320V020 9999 FEW040 28/15 Q1015
                        NOSIG=
201908091100 METAR LRTR 091100Z 02005KT 330V040 9999 FEW040 29/16 Q1015
                        NOSIG=
201908091130 METAR LRTR 091130Z 01004KT 300V080 9999 FEW045 29/15 Q1015
                        NOSIG=
201908091200 METAR LRTR 091200Z VRB04KT 9999 FEW045 30/15 Q1015 NOSIG=
201908091230 METAR LRTR 091230Z 34004KT 290V050 9999 FEW048 30/13 Q1015
                        NOSIG=
201908091300 METAR LRTR 091300Z VRB05KT 9999 FEW048 30/13 Q1014 NOSIG=
201908091330 METAR LRTR 091330Z 33006KT 290V360 CAVOK 30/13 Q1014 NOSIG=
201908091400 METAR LRTR 091400Z 30007KT 270V330 CAVOK 30/12 Q1014 NOSIG=
201908091430 METAR LRTR 091430Z 30005KT 250V340 CAVOK 31/12 Q1014 NOSIG=
201908091500 METAR LRTR 091500Z 31004KT 250V340 CAVOK 31/13 Q1014 NOSIG=
201908091530 METAR LRTR 091530Z 32006KT CAVOK 30/12 Q1014 NOSIG=
201908091600 METAR LRTR 091600Z 31006KT CAVOK 30/12 Q1014 NOSIG=
201908091630 METAR LRTR 091630Z 32005KT CAVOK 29/14 Q1014=
201908091700 METAR LRTR 091700Z 33004KT CAVOK 28/16 Q1014=
201908091730 METAR LRTR 091730Z 34004KT CAVOK 26/17 Q1014=
201908091800 METAR LRTR 091800Z 35004KT CAVOK 24/17 Q1014=
201908091830 METAR LRTR 091830Z 36004KT CAVOK 23/17 Q1015=
201908091900 METAR LRTR 091900Z 36005KT CAVOK 22/18 Q1015=
201908091930 METAR LRTR 091930Z 06005KT CAVOK 21/17 Q1015=
201908092000 METAR LRTR 092000Z 04003KT CAVOK 20/18 Q1015=
201908092030 METAR LRTR 092030Z 08005KT CAVOK 20/17 Q1015=
201908092100 METAR LRTR 092100Z 10004KT CAVOK 19/17 Q1015=
201908092130 METAR LRTR 092130Z 08004KT CAVOK 18/17 Q1015=
201908092200 METAR LRTR 092200Z 08004KT CAVOK 18/17 Q1015=
201908092230 METAR LRTR 092230Z 09006KT CAVOK 18/17 Q1015=
201908092300 METAR LRTR 092300Z 09006KT CAVOK 17/17 Q1015=
201908092330 METAR LRTR 092330Z 08006KT CAVOK 17/17 Q1015=
201908100000 METAR LRTR 100000Z 09006KT CAVOK 17/17 Q1015=
201908100030 METAR LRTR 100030Z 09006KT CAVOK 17/17 Q1015=
201908100100 METAR LRTR 100100Z 09006KT CAVOK 17/17 Q1015=
201908100130 METAR LRTR 100130Z 10005KT CAVOK 16/16 Q1015=
201908100200 METAR LRTR 100200Z 10005KT CAVOK 16/16 Q1015=
201908100230 METAR LRTR 100230Z 08006KT CAVOK 16/16 Q1015=
201908100300 METAR LRTR 100300Z 10006KT CAVOK 16/16 Q1015=
201908100330 METAR LRTR 100330Z 10006KT CAVOK 16/16 Q1015=
201908100400 METAR LRTR 100400Z 10007KT CAVOK 16/16 Q1015 NOSIG=
201908100430 METAR LRTR 100430Z 11007KT CAVOK 18/17 Q1016 NOSIG=
201908100500 METAR LRTR 100500Z 11007KT CAVOK 19/18 Q1016 NOSIG=
201908100530 METAR LRTR 100530Z 11009KT CAVOK 20/17 Q1016 NOSIG=
201908100600 METAR LRTR 100600Z 11010KT CAVOK 21/17 Q1016 NOSIG=
201908100630 METAR LRTR 100630Z 12009KT CAVOK 23/17 Q1016 NOSIG=
201908100700 METAR LRTR 100700Z 12009KT CAVOK 24/18 Q1016 NOSIG=
201908100730 METAR LRTR 100730Z 11007KT 080V150 CAVOK 25/17 Q1017 NOSIG=
201908100800 METAR LRTR 100800Z 11008KT CAVOK 27/17 Q1017 NOSIG=
201908100830 METAR LRTR 100830Z 11007KT CAVOK 28/18 Q1017 NOSIG=
201908100900 METAR LRTR 100900Z 10007KT CAVOK 29/16 Q1016 NOSIG=
201908100930 METAR LRTR 100930Z 10007KT CAVOK 30/16 Q1016 NOSIG=
201908101000 METAR LRTR 101000Z 10008KT CAVOK 30/14 Q1016 NOSIG=
201908101030 METAR LRTR 101030Z 08006KT 060V130 CAVOK 31/12 Q1016 NOSIG=
201908101100 METAR LRTR 101100Z 10007KT 070V140 CAVOK 31/13 Q1016 NOSIG=
201908101130 METAR LRTR 101130Z 09007KT CAVOK 31/13 Q1015 NOSIG=
201908101200 METAR LRTR 101200Z 10006KT 070V130 CAVOK 32/14 Q1015 NOSIG=
201908101230 METAR LRTR 101230Z 09005KT 010V140 CAVOK 32/12 Q1015 NOSIG=
201908101300 METAR LRTR 101300Z 12005KT 050V210 CAVOK 32/15 Q1015 NOSIG=
201908101330 METAR LRTR 101330Z 10005KT 050V180 CAVOK 32/13 Q1015 NOSIG=
201908101400 METAR LRTR 101400Z 13005KT 090V170 CAVOK 33/13 Q1015 NOSIG=
201908101430 METAR LRTR 101430Z 07004KT 010V100 CAVOK 32/13 Q1015 NOSIG=
201908101500 METAR LRTR 101500Z 08004KT 050V140 CAVOK 32/14 Q1015 NOSIG=
201908101530 METAR LRTR 101530Z 07005KT 010V100 CAVOK 32/14 Q1015 NOSIG=
201908101600 METAR LRTR 101600Z 13006KT CAVOK 32/15 Q1015 NOSIG=
201908101630 METAR LRTR 101630Z 13005KT CAVOK 31/16 Q1015=
201908101700 METAR LRTR 101700Z 14004KT CAVOK 30/16 Q1015=
201908101730 METAR LRTR 101730Z 13005KT CAVOK 29/16 Q1015=
201908101800 METAR LRTR 101800Z 12005KT CAVOK 27/17 Q1015=
201908101830 METAR LRTR 101830Z 10004KT CAVOK 25/18 Q1015=
201908101900 METAR COR LRTR 101900Z 05005KT CAVOK 23/19 Q1015=
201908101930 METAR LRTR 101930Z 06004KT CAVOK 22/19 Q1015=
201908102000 METAR LRTR 102000Z 07004KT CAVOK 21/19 Q1015=
201908102030 METAR LRTR 102030Z 04003KT CAVOK 21/18 Q1015=
201908102100 METAR LRTR 102100Z 08003KT CAVOK 21/18 Q1015=
201908102130 METAR LRTR 102130Z 08006KT CAVOK 19/18 Q1015=
201908102200 METAR COR LRTR 102200Z 08007KT CAVOK 20/18 Q1015=
201908102230 METAR COR LRTR 102230Z 09007KT CAVOK 19/18 Q1015=
201908102300 METAR LRTR 102300Z 09006KT CAVOK 18/18 Q1015=
201908102330 METAR LRTR 102330Z 09006KT CAVOK 18/18 Q1015=
201908110000 METAR LRTR 110000Z 10005KT CAVOK 19/18 Q1015=
201908110030 METAR COR LRTR 110030Z 09004KT CAVOK 18/18 Q1015=
201908110100 METAR LRTR 110100Z 09006KT CAVOK 17/17 Q1015=
201908110130 METAR LRTR 110130Z 09006KT CAVOK 17/17 Q1015=
201908110200 METAR LRTR 110200Z 09007KT CAVOK 17/17 Q1015=
201908110230 METAR LRTR 110230Z 10006KT CAVOK 17/17 Q1015=
201908110300 METAR LRTR 110300Z 10006KT CAVOK 16/16 Q1015=
201908110330 METAR LRTR 110330Z 10005KT CAVOK 16/16 Q1016=
201908110400 METAR LRTR 110400Z 11006KT CAVOK 16/16 Q1016=
201908110430 METAR LRTR 110430Z 11007KT CAVOK 18/18 Q1016=
201908110500 METAR LRTR 110500Z 11006KT CAVOK 20/19 Q1016=
201908110530 METAR LRTR 110530Z 11007KT CAVOK 22/19 Q1017=
201908110600 METAR LRTR 110600Z 11007KT CAVOK 23/20 Q1017=
201908110630 METAR LRTR 110630Z 11007KT CAVOK 25/19 Q1017=
201908110700 METAR LRTR 110700Z 12005KT CAVOK 26/19 Q1017=
201908110730 METAR LRTR 110730Z 12004KT 090V150 CAVOK 28/18 Q1017=
201908110800 METAR LRTR 110800Z VRB02KT CAVOK 29/18 Q1017=
201908110830 METAR LRTR 110830Z VRB02KT CAVOK 30/17 Q1017=
201908110900 METAR LRTR 110900Z VRB02KT CAVOK 31/17 Q1017=
201908110930 METAR LRTR 110930Z VRB03KT CAVOK 31/17 Q1017=
201908111000 METAR LRTR 111000Z VRB04KT CAVOK 32/15 Q1017=
201908111030 METAR LRTR 111030Z 08005KT 040V200 CAVOK 32/15 Q1017=
201908111100 METAR LRTR 111100Z 12004KT 010V160 CAVOK 33/15 Q1017=
201908111130 METAR LRTR 111130Z VRB02KT CAVOK 33/15 Q1016=
201908111200 METAR LRTR 111200Z VRB03KT CAVOK 34/15 Q1016=
201908111230 METAR LRTR 111230Z 32003KT 250V060 CAVOK 34/14 Q1016=
201908111300 METAR LRTR 111300Z VRB02KT CAVOK 34/15 Q1016=
201908111330 METAR LRTR 111330Z VRB02KT CAVOK 35/15 Q1016=
201908111400 METAR LRTR 111400Z 29003KT 260V330 CAVOK 35/13 Q1015=
201908111430 METAR LRTR 111430Z 35003KT 290V020 CAVOK 34/13 Q1015=
201908111500 METAR LRTR 111500Z VRB02KT CAVOK 35/13 Q1015=
201908111530 METAR LRTR 111530Z VRB02KT CAVOK 35/12 Q1015=
201908111600 METAR LRTR 111600Z VRB01KT CAVOK 35/14 Q1015 NOSIG=
201908111630 METAR LRTR 111630Z 06001KT CAVOK 34/17 Q1015 NOSIG=
201908111700 METAR LRTR 111700Z 28004KT CAVOK 32/18 Q1015 NOSIG=
201908111730 METAR LRTR 111730Z 30005KT CAVOK 29/19 Q1015 NOSIG=
201908111800 METAR LRTR 111800Z 31007KT CAVOK 29/18 Q1015 NOSIG=
201908111830 METAR LRTR 111830Z 34006KT CAVOK 26/19 Q1015 NOSIG=
201908111900 METAR LRTR 111900Z 01007KT CAVOK 26/18 Q1015 NOSIG=
201908111930 METAR LRTR 111930Z 03007KT CAVOK 25/18 Q1015 NOSIG=
201908112000 METAR LRTR 112000Z 06005KT CAVOK 23/19 Q1015 NOSIG=
201908112030 METAR LRTR 112030Z 05005KT CAVOK 23/19 Q1015 NOSIG=
201908112100 METAR LRTR 112100Z 08005KT CAVOK 22/19 Q1015 NOSIG=
201908112130 METAR LRTR 112130Z 10006KT CAVOK 21/19 Q1015 NOSIG=
201908112200 METAR LRTR 112200Z 11007KT CAVOK 22/19 Q1015 NOSIG=
201908112230 METAR LRTR 112230Z 10005KT CAVOK 20/19 Q1015 NOSIG=
201908112300 METAR LRTR 112300Z 10006KT CAVOK 20/19 Q1015 NOSIG=
201908112330 METAR LRTR 112330Z 10006KT CAVOK 20/19 Q1015 NOSIG=
201908120000 METAR LRTR 120000Z 09007KT CAVOK 19/19 Q1015 NOSIG=
201908120030 METAR LRTR 120030Z 10006KT CAVOK 19/19 Q1015 NOSIG=
201908120100 METAR LRTR 120100Z 10005KT CAVOK 19/19 Q1015 NOSIG=
201908120130 METAR LRTR 120130Z 11006KT CAVOK 18/18 Q1014 NOSIG=
201908120200 METAR LRTR 120200Z 10006KT CAVOK 19/19 Q1014 NOSIG=
201908120230 METAR LRTR 120230Z 11007KT CAVOK 19/19 Q1014 NOSIG=
201908120300 METAR LRTR 120300Z 11006KT CAVOK 19/19 Q1014 NOSIG=
201908120330 METAR LRTR 120330Z 11007KT CAVOK 19/19 Q1015 NOSIG=
201908120400 METAR LRTR 120400Z 11006KT CAVOK 19/19 Q1015 NOSIG=
201908120430 METAR LRTR 120430Z 10005KT CAVOK 20/20 Q1015 NOSIG=
201908120500 METAR LRTR 120500Z 11006KT CAVOK 22/21 Q1015 NOSIG=
201908120530 METAR LRTR 120530Z 11007KT CAVOK 24/21 Q1015 NOSIG=
201908120600 METAR LRTR 120600Z 11010KT CAVOK 25/21 Q1015 NOSIG=
201908120630 METAR LRTR 120630Z 11010KT CAVOK 26/20 Q1015 NOSIG=
201908120700 METAR LRTR 120700Z 11010KT CAVOK 28/21 Q1015 NOSIG=
201908120730 METAR LRTR 120730Z 11008KT CAVOK 29/21 Q1015 NOSIG=
201908120800 METAR LRTR 120800Z 13008KT CAVOK 31/20 Q1015 NOSIG=
201908120830 METAR LRTR 120830Z 15007KT 110V180 CAVOK 32/20 Q1015 NOSIG=
201908120900 METAR LRTR 120900Z 17009KT 140V200 CAVOK 33/20 Q1015 NOSIG=
201908120930 METAR LRTR 120930Z 18009KT 150V210 CAVOK 34/17 Q1015 NOSIG=
201908121000 METAR LRTR 121000Z 16009KT CAVOK 35/17 Q1014 NOSIG=
201908121030 METAR LRTR 121030Z 16010KT CAVOK 35/14 Q1014 NOSIG=
201908121100 METAR LRTR 121100Z 14008KT CAVOK 35/16 Q1014 NOSIG=
201908121130 METAR LRTR 121130Z 20010KT CAVOK 36/15 Q1014 NOSIG=
201908121200 METAR LRTR 121200Z 19010KT 140V210 CAVOK 36/14 Q1014 NOSIG=
201908121230 METAR LRTR 121230Z 18006KT 140V200 CAVOK 36/15 Q1013 NOSIG=
201908121300 METAR LRTR 121300Z 18009KT 140V220 CAVOK 36/15 Q1013 NOSIG=
201908121330 METAR LRTR 121330Z 18007KT 130V220 CAVOK 36/15 Q1013 NOSIG=
201908121400 METAR LRTR 121400Z 18009KT CAVOK 37/15 Q1013 NOSIG=
201908121430 METAR LRTR 121430Z 20006KT 160V270 CAVOK 37/16 Q1012 NOSIG=
201908121500 METAR LRTR 121500Z 19009KT CAVOK 36/15 Q1012 NOSIG=
201908121530 METAR LRTR 121530Z 16008KT CAVOK 36/15 Q1012 NOSIG=
201908121600 METAR LRTR 121600Z 16007KT CAVOK 35/16 Q1012 NOSIG=
201908121630 METAR LRTR 121630Z 15006KT CAVOK 34/16 Q1012=
201908121700 METAR LRTR 121700Z 16006KT CAVOK 33/16 Q1012=
201908121730 METAR LRTR 121730Z 15006KT CAVOK 32/17 Q1012=
201908121800 METAR LRTR 121800Z 15007KT CAVOK 30/18 Q1012=
201908121830 METAR LRTR 121830Z 16009KT CAVOK 30/18 Q1012=
201908121900 METAR LRTR 121900Z 14006KT CAVOK 29/18 Q1012=
201908121930 METAR LRTR 121930Z 12005KT CAVOK 25/19 Q1012=
201908122000 METAR LRTR 122000Z 12005KT CAVOK 24/20 Q1012=
201908122030 METAR LRTR 122030Z 10007KT CAVOK 23/20 Q1012=
201908122100 METAR LRTR 122100Z 09006KT CAVOK 23/20 Q1012=
201908122130 METAR LRTR 122130Z 07007KT CAVOK 22/20 Q1012=
201908122200 METAR LRTR 122200Z 08008KT CAVOK 23/19 Q1012=
201908122230 METAR LRTR 122230Z 10008KT CAVOK 22/20 Q1012=
201908122300 METAR LRTR 122300Z 09007KT CAVOK 21/19 Q1012=
201908122330 METAR LRTR 122330Z 09006KT CAVOK 20/19 Q1012=
201908130000 METAR LRTR 130000Z 11008KT CAVOK 21/19 Q1012=
201908130030 METAR LRTR 130030Z 09008KT CAVOK 21/19 Q1012=
201908130100 METAR LRTR 130100Z 08007KT CAVOK 21/19 Q1012=
201908130130 METAR LRTR 130130Z 09007KT CAVOK 20/19 Q1012=
201908130200 METAR LRTR 130200Z 09007KT CAVOK 20/19 Q1012=
201908130230 METAR COR LRTR 130230Z 12009KT CAVOK 19/19 Q1011=
201908130300 METAR LRTR 130300Z 11008KT CAVOK 19/19 Q1011=
201908130330 METAR LRTR 130330Z 10007KT CAVOK 18/18 Q1011=
201908130400 METAR LRTR 130400Z 10009KT CAVOK 19/19 Q1011=
201908130430 METAR LRTR 130430Z 11010KT CAVOK 21/20 Q1011=
201908130500 METAR LRTR 130500Z 10006KT CAVOK 23/19 Q1011=
201908130530 METAR COR LRTR 130530Z 08007KT CAVOK 24/19 Q1012=
201908130600 METAR COR LRTR 130600Z 10010KT CAVOK 26/18 Q1012=
201908130630 METAR LRTR 130630Z 10008KT CAVOK 27/18 Q1012=
201908130700 METAR LRTR 130700Z 10007KT CAVOK 29/18 Q1012=
201908130730 METAR LRTR 130730Z 11011KT CAVOK 29/17 Q1011=
201908130800 METAR LRTR 130800Z 10009KT CAVOK 31/16 Q1012=
201908130830 METAR COR LRTR 130830Z 11007KT 080V140 CAVOK 32/17 Q1012=
201908130900 METAR LRTR 130900Z 14006KT 110V170 CAVOK 32/15 Q1012=
201908130930 METAR LRTR 130930Z 11006KT 080V160 CAVOK 34/17 Q1012=
201908131000 METAR LRTR 131000Z 15005KT CAVOK 34/14 Q1012=
201908131030 METAR LRTR 131030Z VRB04KT CAVOK 35/16 Q1012=
201908131100 METAR LRTR 131100Z 15004KT 080V190 CAVOK 35/14 Q1011=
201908131130 METAR LRTR 131130Z VRB04KT CAVOK 35/16 Q1011=
201908131200 METAR COR LRTR 131200Z 12003KT 040V200 CAVOK 35/14 Q1011=
201908131230 METAR LRTR 131230Z VRB03KT CAVOK 36/14 Q1011=
201908131300 METAR LRTR 131300Z 16006KT 140V230 CAVOK 36/13 Q1010=
201908131330 METAR LRTR 131330Z 27005KT 220V330 CAVOK 36/13 Q1010=
201908131400 METAR LRTR 131400Z 21009KT 180V270 CAVOK 37/11 Q1010=
201908131430 METAR LRTR 131430Z 19008KT CAVOK 36/11 Q1010=
201908131500 METAR LRTR 131500Z 16003KT 090V220 CAVOK 36/10 Q1010=
201908131530 METAR COR LRTR 131530Z 16004KT 120V190 CAVOK 36/12 Q1009=
201908131600 METAR LRTR 131600Z 21003KT 160V230 CAVOK 35/13 Q1010=
201908131630 METAR LRTR 131630Z 23006KT 190V260 CAVOK 34/15 Q1010 NOSIG=
201908131700 METAR LRTR 131700Z 27006KT CAVOK 32/16 Q1010 NOSIG=
201908131730 METAR LRTR 131730Z 28005KT 260V320 CAVOK 29/18 Q1010 NOSIG=
201908131800 METAR LRTR 131800Z 29002KT CAVOK 29/18 Q1010 NOSIG=
201908131830 METAR LRTR 131830Z 26003KT CAVOK 29/17 Q1010 NOSIG=
201908131900 METAR LRTR 131900Z 02005KT CAVOK 26/17 Q1010 NOSIG=
201908131930 METAR LRTR 131930Z 14004KT CAVOK 27/18 Q1010 NOSIG=
201908132000 METAR LRTR 132000Z 15004KT CAVOK 27/18 Q1010 NOSIG=
201908132030 METAR LRTR 132030Z 17005KT 160V250 CAVOK 27/18 Q1011 NOSIG=
201908132100 METAR LRTR 132100Z 17003KT CAVOK 25/18 Q1010 NOSIG=
201908132130 METAR LRTR 132130Z 28003KT 260V320 CAVOK 24/19 Q1010 NOSIG=
201908132200 METAR LRTR 132200Z 00000KT CAVOK 22/19 Q1010 NOSIG=
201908132230 METAR LRTR 132230Z 13003KT CAVOK 22/19 Q1010 NOSIG=
201908132300 METAR LRTR 132300Z 10006KT CAVOK 21/19 Q1009 NOSIG=
201908132330 METAR LRTR 132330Z 12005KT CAVOK 21/19 Q1009 NOSIG=
201908140000 METAR LRTR 140000Z 11004KT 100V170 CAVOK 21/19 Q1009 NOSIG=
201908140030 METAR LRTR 140030Z 26003KT CAVOK 21/19 Q1009 NOSIG=
201908140100 METAR LRTR 140100Z VRB02KT CAVOK 20/18 Q1009 NOSIG=
201908140130 METAR LRTR 140130Z 00000KT CAVOK 19/18 Q1009 NOSIG=
201908140200 METAR LRTR 140200Z 02002KT CAVOK 19/18 Q1009 NOSIG=
201908140230 METAR LRTR 140230Z 08004KT CAVOK 18/18 Q1010 NOSIG=
201908140300 METAR LRTR 140300Z 36005KT CAVOK 18/18 Q1010 NOSIG=
201908140330 METAR LRTR 140330Z 04005KT CAVOK 18/18 Q1009 NOSIG=
201908140400 METAR LRTR 140400Z 31005KT CAVOK 18/18 Q1010 NOSIG=
201908140430 METAR LRTR 140430Z 31004KT CAVOK 19/19 Q1010 NOSIG=
201908140500 METAR LRTR 140500Z 34006KT CAVOK 20/19 Q1010 NOSIG=
201908140530 METAR LRTR 140530Z 32009KT CAVOK 21/19 Q1010 NOSIG=
201908140600 METAR LRTR 140600Z 33009KT 9999 FEW020 21/19 Q1011 NOSIG=
201908140630 METAR LRTR 140630Z 32012KT 9999 FEW018 22/19 Q1011 NOSIG=
201908140700 METAR LRTR 140700Z 32012KT 9999 BKN015 21/19 Q1011 NOSIG=
201908140730 METAR LRTR 140730Z 30009KT 9999 BKN016 21/19 Q1012 NOSIG=
201908140800 METAR LRTR 140800Z 29010KT 9999 BKN016 21/19 Q1012 NOSIG=
201908140830 METAR LRTR 140830Z 29012KT 9999 BKN017 20/18 Q1013 NOSIG=
201908140900 METAR LRTR 140900Z 29014KT 3500 DZ BR OVC009 18/18 Q1014
                        R11/19//95 TEMPO 3000 DZ BR OVC005=
201908140930 METAR LRTR 140930Z 30008KT 9999 -DZ SCT010 BKN034 19/19 Q1014
                        REDZ R11/19//95 NOSIG=
201908141000 METAR LRTR 141000Z 34005KT 9999 FEW010 21/18 Q1013 R11/19//95
                        NOSIG=
201908141030 METAR LRTR 141030Z VRB03KT 9999 FEW025 21/18 Q1013 R11/19//95
                        NOSIG=
201908141100 METAR LRTR 141100Z 27006KT 9999 FEW016 20/18 Q1013 R11/19//95
                        NOSIG=
201908141130 METAR LRTR 141130Z 26007KT 9999 SCT016 21/18 Q1013 R11/19//95
                        NOSIG=
201908141200 METAR LRTR 141200Z 27010KT 9999 BKN016 20/18 Q1014 R11/19//95
                        NOSIG=
201908141230 METAR LRTR 141230Z 28010KT 9999 BKN016 21/19 Q1013 R11/19//95
                        NOSIG=
201908141300 METAR LRTR 141300Z 26009KT 9999 SCT020 22/18 Q1013 R11/19//95
                        NOSIG=
201908141330 METAR LRTR 141330Z 29010KT 9999 BKN022 22/18 Q1013 R11/19//95
                        NOSIG=
201908141400 METAR LRTR 141400Z 30011KT 9999 BKN027 21/17 Q1014 R11/19//95
                        NOSIG=
201908141430 METAR LRTR 141430Z 30008KT 9999 SCT027 21/17 Q1013 R11/19//95
                        NOSIG=
201908141500 METAR LRTR 141500Z 29008KT 9999 SCT027 21/17 Q1014 R11/19//95
                        NOSIG=
201908141530 METAR LRTR 141530Z 29011KT 9999 -RA SCT027 20/17 Q1014 R11/19//95
                        NOSIG=
201908141600 METAR LRTR 141600Z 30010KT 9999 -RA FEW017 SCT027 19/17 Q1014
                        R11/19//95 NOSIG=
201908141630 METAR COR LRTR 141630Z 30008KT 9999 FEW027 19/17 Q1014 R11/19//95=
201908141700 METAR LRTR 141700Z 31009KT 9999 FEW015 19/17 Q1014 R11/19//95=
201908141730 METAR LRTR 141730Z 31007KT 9999 FEW015 18/17 Q1014 R11/19//95=
201908141800 METAR LRTR 141800Z 30005KT CAVOK 18/17 Q1014 R11/CLRD//=
201908141830 METAR LRTR 141830Z 31004KT 9999 FEW025 18/17 Q1015=
201908141900 METAR LRTR 141900Z 30005KT 9999 SCT018 SCT027 18/17 Q1015=
201908141930 METAR LRTR 141930Z 32004KT 9999 BKN018 BKN031 18/17 Q1015=
201908142000 METAR LRTR 142000Z 01007KT 9999 SCT014 OVC024 18/16 Q1015=
201908142030 METAR LRTR 142030Z 36009KT 9999 FEW017 OVC025 18/16 Q1015=
201908142100 METAR LRTR 142100Z 36009KT 9999 OVC028 17/15 Q1015=
201908142130 METAR LRTR 142130Z 35009KT 9999 OVC033 17/15 Q1015=
201908142200 METAR LRTR 142200Z 36010KT 9999 BKN033 17/14 Q1015=
201908142230 METAR LRTR 142230Z 35007KT 9999 SCT035 16/14 Q1015=
201908142300 METAR LRTR 142300Z 35007KT 9999 FEW040 16/14 Q1015=
201908142330 METAR LRTR 142330Z 36009KT 9999 FEW042 16/13 Q1015=
201908150000 METAR LRTR 150000Z 36008KT CAVOK 16/13 Q1015=
201908150030 METAR LRTR 150030Z 33006KT CAVOK 16/14 Q1015=
201908150100 METAR LRTR 150100Z 35008KT CAVOK 16/13 Q1015=
201908150130 METAR LRTR 150130Z 33007KT CAVOK 15/14 Q1015=
201908150200 METAR LRTR 150200Z 34009KT CAVOK 15/13 Q1014=
201908150230 METAR LRTR 150230Z 34008KT CAVOK 14/13 Q1014=
201908150300 METAR LRTR 150300Z 34006KT CAVOK 14/12 Q1015=
201908150330 METAR LRTR 150330Z 33006KT CAVOK 13/12 Q1015=
201908150400 METAR LRTR 150400Z 34006KT CAVOK 13/12 Q1015=
201908150430 METAR LRTR 150430Z 34006KT CAVOK 13/13 Q1015=
201908150500 METAR LRTR 150500Z 35006KT 320V020 CAVOK 15/14 Q1015=
201908150530 METAR LRTR 150530Z 34007KT CAVOK 15/14 Q1016=
201908150600 METAR LRTR 150600Z 34005KT 300V030 CAVOK 16/14 Q1016=
201908150630 METAR LRTR 150630Z 33007KT CAVOK 17/13 Q1016=
201908150700 METAR LRTR 150700Z 33007KT 300V360 9999 FEW015 17/12 Q1016=
201908150730 METAR LRTR 150730Z 32010KT 9999 FEW015 19/13 Q1015=
201908150800 METAR LRTR 150800Z 32009KT 9999 FEW020 19/12 Q1015=
201908150830 METAR LRTR 150830Z 32008KT 290V350 9999 FEW022 19/12 Q1015=
201908150900 METAR LRTR 150900Z 34009KT 310V010 9999 FEW028 20/13 Q1015=
201908150930 METAR LRTR 150930Z 32008KT 280V340 9999 FEW030 20/12 Q1015=
201908151000 METAR LRTR 151000Z 31008KT 250V350 9999 FEW035 21/12 Q1015=
201908151030 METAR LRTR 151030Z 34007KT 310V010 9999 FEW040 23/13 Q1015=
201908151100 METAR LRTR 151100Z 31006KT 260V010 9999 FEW043 22/12 Q1015=
201908151130 METAR LRTR 151130Z 32010KT 9999 FEW044 22/12 Q1014=
201908151200 METAR LRTR 151200Z 33008KT 260V360 9999 FEW048 23/12 Q1014=
201908151230 METAR LRTR 151230Z 33008KT 300V010 9999 SCT045 23/12 Q1014=
201908151300 METAR LRTR 151300Z 31008KT 9999 SCT046 23/13 Q1014=
201908151330 METAR LRTR 151330Z 34008KT 300V010 9999 SCT048 23/13 Q1014=
201908151400 METAR LRTR 151400Z 36009KT 340V040 9999 SCT048 24/12 Q1013=
201908151430 METAR LRTR 151430Z 36009KT CAVOK 24/11 Q1014=
201908151500 METAR LRTR 151500Z 36010KT CAVOK 24/12 Q1013=
201908151530 METAR LRTR 151530Z 02010KT CAVOK 23/12 Q1013=
201908151600 METAR LRTR 151600Z 03009KT CAVOK 23/12 Q1014 NOSIG=
201908151630 METAR LRTR 151630Z 35006KT 310V030 CAVOK 23/12 Q1014 NOSIG=
201908151700 METAR LRTR 151700Z 02007KT CAVOK 22/12 Q1014 NOSIG=
201908151730 METAR LRTR 151730Z 36006KT CAVOK 20/12 Q1014 NOSIG=
201908151800 METAR LRTR 151800Z 04005KT CAVOK 19/13 Q1014 NOSIG=
201908151830 METAR LRTR 151830Z 04005KT CAVOK 17/13 Q1015 NOSIG=
201908151900 METAR LRTR 151900Z 01005KT CAVOK 16/13 Q1015 NOSIG=
201908151930 METAR LRTR 151930Z 01005KT CAVOK 16/13 Q1015 NOSIG=
201908152000 METAR LRTR 152000Z 01004KT CAVOK 15/13 Q1015 NOSIG=
201908152030 METAR LRTR 152030Z VRB02KT CAVOK 15/13 Q1015 NOSIG=
201908152100 METAR LRTR 152100Z VRB01KT CAVOK 15/13 Q1015 NOSIG=
201908152130 METAR LRTR 152130Z 31003KT CAVOK 14/13 Q1015 NOSIG=
201908152200 METAR LRTR 152200Z 31002KT CAVOK 14/13 Q1015 NOSIG=
201908152230 METAR LRTR 152230Z 04002KT CAVOK 15/13 Q1015 NOSIG=
201908152300 METAR LRTR 152300Z 00000KT CAVOK 14/13 Q1015 NOSIG=
201908152330 METAR LRTR 152330Z 00000KT CAVOK 12/12 Q1015 NOSIG=
201908160000 METAR LRTR 160000Z 27003KT CAVOK 13/13 Q1015 NOSIG=
201908160030 METAR LRTR 160030Z 32003KT CAVOK 11/11 Q1015 NOSIG=
201908160100 METAR LRTR 160100Z 00000KT CAVOK 11/11 Q1015 NOSIG=
201908160130 METAR LRTR 160130Z 00000KT CAVOK 11/11 Q1015 NOSIG=
201908160200 METAR LRTR 160200Z 00000KT CAVOK 12/12 Q1015 NOSIG=
201908160230 METAR LRTR 160230Z 09003KT CAVOK 11/11 Q1015 NOSIG=
201908160300 METAR LRTR 160300Z 09004KT CAVOK 10/10 Q1015 NOSIG=
201908160330 METAR LRTR 160330Z 08004KT CAVOK 10/10 Q1016 NOSIG=
201908160400 METAR LRTR 160400Z 05003KT CAVOK 11/11 Q1016 NOSIG=
201908160430 METAR LRTR 160430Z 08003KT CAVOK 12/12 Q1016=
201908160500 METAR LRTR 160500Z 00000KT CAVOK 14/14 Q1016=
201908160530 METAR LRTR 160530Z 12003KT CAVOK 15/15 Q1016=
201908160600 METAR LRTR 160600Z 00000KT CAVOK 17/15 Q1016=
201908160630 METAR LRTR 160630Z 00000KT CAVOK 19/15 Q1016=
201908160700 METAR LRTR 160700Z 00000KT CAVOK 21/15 Q1016=
201908160730 METAR LRTR 160730Z 31004KT 280V010 CAVOK 21/14 Q1016=
201908160800 METAR LRTR 160800Z 33006KT 230V360 CAVOK 22/14 Q1016=
201908160830 METAR LRTR 160830Z VRB03KT CAVOK 23/13 Q1016=
201908160900 METAR LRTR 160900Z 30007KT 260V340 CAVOK 24/12 Q1016=
201908160930 METAR LRTR 160930Z VRB04KT CAVOK 23/10 Q1016=
201908161000 METAR COR LRTR 161000Z 33006KT 290V010 CAVOK 25/10 Q1016=
201908161030 METAR LRTR 161030Z 33006KT 270V040 CAVOK 24/09 Q1016=
201908161100 METAR LRTR 161100Z 36008KT CAVOK 25/09 Q1015=
201908161130 METAR LRTR 161130Z 35007KT 300V020 CAVOK 25/09 Q1015=
201908161200 METAR LRTR 161200Z 34008KT 300V010 CAVOK 26/08 Q1015=
201908161230 METAR LRTR 161230Z 33004KT 270V020 CAVOK 25/08 Q1015=
201908161300 METAR LRTR 161300Z 31007KT 270V350 CAVOK 27/08 Q1015=
201908161330 METAR LRTR 161330Z 33009KT CAVOK 27/08 Q1015=
201908161400 METAR LRTR 161400Z 31007KT 280V360 CAVOK 27/08 Q1014=
201908161430 METAR LRTR 161430Z 29008KT CAVOK 26/09 Q1014=
201908161500 METAR LRTR 161500Z 31007KT CAVOK 27/09 Q1014=
201908161530 METAR LRTR 161530Z 29007KT CAVOK 26/09 Q1014=
201908161600 METAR LRTR 161600Z 29006KT CAVOK 24/10 Q1014 NOSIG=
201908161630 METAR LRTR 161630Z 29006KT CAVOK 24/10 Q1014 NOSIG=
201908161700 METAR LRTR 161700Z 30004KT CAVOK 23/10 Q1015 NOSIG=
201908161730 METAR LRTR 161730Z 27010KT CAVOK 22/14 Q1015 NOSIG=
201908161800 METAR LRTR 161800Z 29009KT CAVOK 22/14 Q1015 NOSIG=
201908161830 METAR LRTR 161830Z 30007KT CAVOK 20/14 Q1015 NOSIG=
201908161900 METAR LRTR 161900Z 29007KT CAVOK 18/15 Q1016 NOSIG=
201908161930 METAR LRTR 161930Z 28006KT CAVOK 17/15 Q1016 NOSIG=
201908162000 METAR LRTR 162000Z 31005KT CAVOK 17/15 Q1016 NOSIG=
201908162030 METAR LRTR 162030Z 29008KT CAVOK 16/14 Q1016 NOSIG=
201908162100 METAR LRTR 162100Z 32004KT CAVOK 16/14 Q1016 NOSIG=
201908162130 METAR LRTR 162130Z 31004KT CAVOK 15/14 Q1016 NOSIG=
201908162200 METAR LRTR 162200Z 31005KT CAVOK 15/14 Q1016 NOSIG=
201908162230 METAR LRTR 162230Z 29007KT CAVOK 15/14 Q1016 NOSIG=
201908162300 METAR LRTR 162300Z 30006KT CAVOK 14/14 Q1016 NOSIG=
201908162330 METAR LRTR 162330Z 08004KT CAVOK 15/14 Q1016 NOSIG=
201908170000 METAR LRTR 170000Z 31004KT CAVOK 13/13 Q1016 NOSIG=
201908170030 METAR LRTR 170030Z 07005KT 030V090 CAVOK 14/13 Q1016 NOSIG=
201908170100 METAR LRTR 170100Z 10005KT CAVOK 13/13 Q1016 NOSIG=
201908170130 METAR LRTR 170130Z VRB02KT CAVOK 13/13 Q1016 NOSIG=
201908170200 METAR LRTR 170200Z 00000KT CAVOK 12/12 Q1016 NOSIG=
201908170230 METAR LRTR 170230Z 00000KT CAVOK 13/13 Q1016 NOSIG=
201908170300 METAR LRTR 170300Z 09005KT CAVOK 12/12 Q1016 NOSIG=
201908170330 METAR LRTR 170330Z 09005KT CAVOK 12/12 Q1017 NOSIG=
201908170400 METAR COR LRTR 170400Z 10004KT CAVOK 12/12 Q1017 NOSIG=
201908170430 METAR LRTR 170430Z 10005KT 9999 FEW003 12/12 Q1017=
201908170500 METAR LRTR 170500Z 11005KT 5000 BR FEW002 13/13 Q1017=
201908170530 METAR LRTR 170530Z 11006KT 4500 BR SCT004 15/15 Q1017=
201908170600 METAR LRTR 170600Z 12005KT 6000 SCT004 16/16 Q1017=
201908170630 METAR COR LRTR 170630Z 11005KT 070V130 8000 FEW004 16/16
                        Q1018=
201908170700 METAR LRTR 170700Z 12004KT 090V160 9999 FEW006 18/16 Q1018=
201908170730 METAR LRTR 170730Z 14004KT 090V170 CAVOK 20/16 Q1018=
201908170800 METAR LRTR 170800Z 14004KT 080V250 CAVOK 21/16 Q1018=
201908170830 METAR LRTR 170830Z VRB03KT 9999 FEW025 23/16 Q1018=
201908170900 METAR LRTR 170900Z VRB02KT 9999 FEW027 23/16 Q1017=
201908170930 METAR LRTR 170930Z VRB04KT 9999 FEW033 24/15 Q1017=
201908171000 METAR LRTR 171000Z VRB02KT 9999 SCT035 25/16 Q1017=
201908171030 METAR LRTR 171030Z 25003KT 200V310 9999 SCT040 26/14 Q1017=
201908171100 METAR LRTR 171100Z VRB02KT 9999 SCT042 24/14 Q1017=
201908171130 METAR LRTR 171130Z 28006KT 220V320 9999 SCT045 26/13 Q1016=
201908171200 METAR LRTR 171200Z 30007KT 270V010 9999 SCT048 27/12 Q1016=
201908171230 METAR COR LRTR 171230Z 27008KT 230V310 9999 FEW048 27/12
                        Q1016=
201908171300 METAR LRTR 171300Z 27005KT 230V320 CAVOK 28/11 Q1016=
201908171330 METAR LRTR 171330Z 29007KT 270V020 CAVOK 27/12 Q1015=
201908171400 METAR COR LRTR 171400Z 24008KT CAVOK 28/12 Q1015=
201908171430 METAR LRTR 171430Z VRB04KT CAVOK 29/11 Q1015=
201908171500 METAR LRTR 171500Z 29008KT CAVOK 27/10 Q1015=
201908171530 METAR LRTR 171530Z 26008KT CAVOK 28/10 Q1015=
201908171600 METAR LRTR 171600Z 26006KT 230V300 CAVOK 26/12 Q1015=
201908171630 METAR LRTR 171630Z 28005KT CAVOK 25/12 Q1015=
201908171700 METAR LRTR 171700Z 29004KT CAVOK 25/13 Q1015=
201908171730 METAR LRTR 171730Z 31003KT CAVOK 24/14 Q1015=
201908171800 METAR LRTR 171800Z 34003KT CAVOK 22/13 Q1016=
201908171830 METAR LRTR 171830Z 31003KT CAVOK 21/14 Q1016=
201908171900 METAR COR LRTR 171900Z 01003KT CAVOK 21/13 Q1016=
201908171930 METAR LRTR 171930Z 35003KT CAVOK 19/13 Q1016=
201908172000 METAR LRTR 172000Z 35001KT CAVOK 19/12 Q1016=
201908172030 METAR LRTR 172030Z 07001KT CAVOK 18/12 Q1016=
201908172100 METAR LRTR 172100Z 00000KT CAVOK 18/12 Q1016=
201908172130 METAR LRTR 172130Z 00000KT CAVOK 18/13 Q1016=
201908172200 METAR LRTR 172200Z 12001KT CAVOK 16/13 Q1016=
201908172230 METAR LRTR 172230Z 09005KT CAVOK 15/13 Q1016=
201908172300 METAR LRTR 172300Z 12006KT CAVOK 14/14 Q1016=
201908172330 METAR LRTR 172330Z 11005KT CAVOK 14/14 Q1016=
201908180000 METAR LRTR 180000Z 09006KT CAVOK 14/14 Q1016=
201908180030 METAR LRTR 180030Z 04001KT CAVOK 13/13 Q1016=
201908180100 METAR LRTR 180100Z 00000KT CAVOK 14/13 Q1016=
201908180130 METAR LRTR 180130Z 11004KT CAVOK 14/13 Q1016=
201908180200 METAR LRTR 180200Z 11006KT CAVOK 13/13 Q1016=
201908180230 METAR LRTR 180230Z 11005KT CAVOK 12/12 Q1016=
201908180300 METAR LRTR 180300Z 10006KT CAVOK 12/12 Q1016=
201908180330 METAR LRTR 180330Z 10006KT CAVOK 12/12 Q1016=
201908180400 METAR LRTR 180400Z 10005KT CAVOK 12/12 Q1017 NOSIG=
201908180430 METAR LRTR 180430Z 11005KT CAVOK 13/13 Q1017 NOSIG=
201908180500 METAR LRTR 180500Z 11006KT CAVOK 15/15 Q1017 NOSIG=
201908180530 METAR LRTR 180530Z 12008KT CAVOK 16/16 Q1017 NOSIG=
201908180600 METAR LRTR 180600Z 12006KT CAVOK 18/15 Q1017 NOSIG=
201908180630 METAR LRTR 180630Z 13005KT 090V160 CAVOK 20/16 Q1017 NOSIG=
201908180700 METAR LRTR 180700Z 15004KT CAVOK 21/15 Q1017 NOSIG=
201908180730 METAR LRTR 180730Z 15004KT 110V190 CAVOK 23/15 Q1017 NOSIG=
201908180800 METAR LRTR 180800Z 15004KT 080V170 CAVOK 24/15 Q1017 NOSIG=
201908180830 METAR LRTR 180830Z 16004KT 100V220 CAVOK 25/14 Q1017 NOSIG=
201908180900 METAR LRTR 180900Z 18005KT 130V220 9999 FEW045 26/12 Q1017
                        NOSIG=
201908180930 METAR LRTR 180930Z VRB03KT 9999 FEW048 28/12 Q1017 NOSIG=
201908181000 METAR LRTR 181000Z 22007KT CAVOK 27/11 Q1017 NOSIG=
201908181030 METAR LRTR 181030Z 20005KT 120V250 CAVOK 28/11 Q1017 NOSIG=
201908181100 METAR LRTR 181100Z 32004KT 240V020 CAVOK 28/10 Q1017 NOSIG=
201908181130 METAR LRTR 181130Z 24006KT 190V310 9999 FEW100 29/09 Q1017
                        NOSIG=
201908181200 METAR LRTR 181200Z 29003KT 200V360 CAVOK 29/10 Q1016 NOSIG=
201908181230 METAR LRTR 181230Z 13004KT 070V190 CAVOK 29/09 Q1016 NOSIG=
201908181300 METAR LRTR 181300Z 19004KT 140V270 CAVOK 29/08 Q1016 NOSIG=
201908181330 METAR LRTR 181330Z 27003KT 180V320 CAVOK 30/08 Q1016 NOSIG=
201908181400 METAR LRTR 181400Z VRB03KT CAVOK 30/09 Q1016 NOSIG=
201908181430 METAR LRTR 181430Z 16004KT 090V240 CAVOK 30/10 Q1016 NOSIG=
201908181500 METAR LRTR 181500Z 29004KT 240V330 CAVOK 30/10 Q1016 NOSIG=
201908181530 METAR LRTR 181530Z VRB03KT CAVOK 30/09 Q1016 NOSIG=
201908181600 METAR COR LRTR 181600Z 26003KT 220V300 CAVOK 30/10 Q1016
                        NOSIG=
201908181630 METAR LRTR 181630Z 32002KT CAVOK 30/12 Q1016=
201908181700 METAR LRTR 181700Z 00000KT CAVOK 28/11 Q1016=
201908181730 METAR COR LRTR 181730Z 13004KT CAVOK 27/10 Q1016=
201908181800 METAR LRTR 181800Z 12004KT CAVOK 25/11 Q1016=
201908181830 METAR LRTR 181830Z 15002KT CAVOK 23/12 Q1016=
201908181900 METAR LRTR 181900Z 06002KT CAVOK 21/12 Q1016=
201908181930 METAR COR LRTR 181930Z 06004KT CAVOK 20/13 Q1016=
201908182000 METAR LRTR 182000Z 09005KT CAVOK 18/13 Q1016=
201908182030 METAR LRTR 182030Z 08006KT CAVOK 18/13 Q1016=
201908182100 METAR LRTR 182100Z 08004KT CAVOK 18/13 Q1016=
201908182130 METAR LRTR 182130Z 11005KT CAVOK 17/13 Q1016=
201908182200 METAR LRTR 182200Z 11006KT CAVOK 17/14 Q1016=
201908182230 METAR LRTR 182230Z 12004KT CAVOK 17/14 Q1016=
201908182300 METAR LRTR 182300Z 11004KT CAVOK 16/13 Q1016=
201908182330 METAR COR LRTR 182330Z 10006KT CAVOK 17/14 Q1016=
201908190000 METAR LRTR 190000Z 10006KT CAVOK 16/14 Q1016=
201908190030 METAR LRTR 190030Z 11007KT CAVOK 16/14 Q1016=
201908190100 METAR COR LRTR 190100Z 10008KT CAVOK 16/14 Q1016=
201908190130 METAR LRTR 190130Z 10007KT CAVOK 15/14 Q1016=
201908190200 METAR COR LRTR 190200Z 10007KT CAVOK 15/14 Q1016=
201908190230 METAR LRTR 190230Z 10006KT CAVOK 15/14 Q1016=
201908190300 METAR LRTR 190300Z 10006KT CAVOK 15/14 Q1017=
201908190330 METAR LRTR 190330Z 10006KT CAVOK 15/14 Q1017=
201908190400 METAR LRTR 190400Z 12006KT CAVOK 14/14 Q1017=
201908190430 METAR LRTR 190430Z 14006KT CAVOK 16/15 Q1017 NOSIG=
201908190500 METAR LRTR 190500Z 13006KT CAVOK 18/15 Q1017 NOSIG=
201908190530 METAR LRTR 190530Z 10009KT CAVOK 19/15 Q1017 NOSIG=
201908190600 METAR LRTR 190600Z 11011KT CAVOK 21/15 Q1018 NOSIG=
201908190630 METAR LRTR 190630Z 10011KT CAVOK 22/15 Q1018 NOSIG=
201908190700 METAR LRTR 190700Z 11010KT CAVOK 24/14 Q1018 NOSIG=
201908190730 METAR LRTR 190730Z 11009KT CAVOK 25/14 Q1017 NOSIG=
201908190800 METAR LRTR 190800Z 13009KT CAVOK 27/14 Q1018 NOSIG=
201908190830 METAR LRTR 190830Z 12008KT CAVOK 27/14 Q1017 NOSIG=
201908190900 METAR LRTR 190900Z 12009KT CAVOK 29/11 Q1017 NOSIG=
201908190930 METAR LRTR 190930Z 13007KT 090V160 CAVOK 30/12 Q1017 NOSIG=
201908191000 METAR LRTR 191000Z 12007KT 080V160 CAVOK 31/11 Q1017 NOSIG=
201908191030 METAR LRTR 191030Z 14006KT 080V200 CAVOK 32/11 Q1017 NOSIG=
201908191100 METAR LRTR 191100Z 12007KT 060V130 CAVOK 32/09 Q1017 NOSIG=
201908191130 METAR LRTR 191130Z 11005KT 020V170 CAVOK 32/10 Q1017 NOSIG=
201908191200 METAR LRTR 191200Z VRB04KT CAVOK 33/12 Q1017 NOSIG=
201908191230 METAR LRTR 191230Z VRB04KT CAVOK 32/11 Q1017 NOSIG=
201908191300 METAR LRTR 191300Z 14005KT 110V170 CAVOK 33/11 Q1017 NOSIG=
201908191330 METAR LRTR 191330Z VRB03KT CAVOK 33/12 Q1017 NOSIG=
201908191400 METAR LRTR 191400Z 07003KT 360V120 CAVOK 33/12 Q1016 NOSIG=
201908191430 METAR LRTR 191430Z 07007KT CAVOK 33/12 Q1016 NOSIG=
201908191500 METAR LRTR 191500Z 13004KT 080V170 CAVOK 33/11 Q1016 NOSIG=
201908191530 METAR LRTR 191530Z VRB02KT CAVOK 33/13 Q1016 NOSIG=
201908191600 METAR LRTR 191600Z VRB02KT CAVOK 33/13 Q1016 NOSIG=
201908191630 METAR LRTR 191630Z 10003KT CAVOK 32/14 Q1016 NOSIG=
201908191700 METAR LRTR 191700Z 14004KT CAVOK 31/15 Q1016 NOSIG=
201908191730 METAR LRTR 191730Z 00000KT CAVOK 30/14 Q1016 NOSIG=
201908191800 METAR LRTR 191800Z 00000KT CAVOK 29/14 Q1017 NOSIG=
201908191830 METAR LRTR 191830Z 10004KT CAVOK 25/15 Q1017 NOSIG=
201908191900 METAR LRTR 191900Z 09004KT CAVOK 24/14 Q1017 NOSIG=
201908191930 METAR LRTR 191930Z 01004KT 310V050 CAVOK 24/16 Q1017 NOSIG=
201908192000 METAR LRTR 192000Z 00000KT CAVOK 23/15 Q1017 NOSIG=
201908192030 METAR LRTR 192030Z 09003KT CAVOK 22/15 Q1017 NOSIG=
201908192100 METAR LRTR 192100Z 09005KT CAVOK 20/16 Q1017 NOSIG=
201908192130 METAR LRTR 192130Z 10005KT CAVOK 20/16 Q1017 NOSIG=
201908192200 METAR LRTR 192200Z 10006KT CAVOK 19/16 Q1018 NOSIG=
201908192230 METAR LRTR 192230Z 09008KT CAVOK 19/16 Q1018 NOSIG=
201908192300 METAR LRTR 192300Z 08008KT CAVOK 20/16 Q1017 NOSIG=
201908192330 METAR LRTR 192330Z 08007KT CAVOK 19/16 Q1018 NOSIG=
201908200000 METAR LRTR 200000Z 10006KT CAVOK 19/16 Q1018 NOSIG=
201908200030 METAR LRTR 200030Z 10007KT CAVOK 18/16 Q1018 NOSIG=
201908200100 METAR LRTR 200100Z 10006KT CAVOK 18/16 Q1018 NOSIG=
201908200130 METAR LRTR 200130Z 10006KT CAVOK 18/16 Q1018 NOSIG=
201908200200 METAR LRTR 200200Z 09007KT CAVOK 17/16 Q1018 NOSIG=
201908200230 METAR LRTR 200230Z 10006KT CAVOK 16/16 Q1018 NOSIG=
201908200300 METAR LRTR 200300Z 09006KT CAVOK 17/16 Q1018 NOSIG=
201908200330 METAR LRTR 200330Z 10007KT CAVOK 17/16 Q1018 NOSIG=
201908200400 METAR LRTR 200400Z 11007KT CAVOK 17/16 Q1019 NOSIG=
201908200430 METAR LRTR 200430Z 10005KT CAVOK 18/17 Q1019=
201908200500 METAR LRTR 200500Z 11007KT CAVOK 20/18 Q1019=
201908200530 METAR LRTR 200530Z 11008KT CAVOK 22/18 Q1019=
201908200600 METAR LRTR 200600Z 11010KT CAVOK 23/17 Q1019=
201908200630 METAR LRTR 200630Z 11010KT CAVOK 24/18 Q1019=
201908200700 METAR LRTR 200700Z 11008KT CAVOK 26/17 Q1019=
201908200730 METAR LRTR 200730Z 11007KT CAVOK 27/17 Q1019=
201908200800 METAR COR LRTR 200800Z 11006KT 080V140 CAVOK 29/16 Q1019=
201908200830 METAR LRTR 200830Z 14006KT 080V230 CAVOK 30/15 Q1019=
201908200900 METAR LRTR 200900Z 16005KT 130V190 CAVOK 30/15 Q1019=
201908200930 METAR LRTR 200930Z 15004KT 050V200 CAVOK 31/15 Q1019=
201908201000 METAR LRTR 201000Z 22005KT 180V330 CAVOK 32/14 Q1019=
201908201030 METAR LRTR 201030Z VRB04KT CAVOK 33/14 Q1019=
201908201100 METAR LRTR 201100Z 09005KT 040V160 CAVOK 34/13 Q1019=
201908201130 METAR LRTR 201130Z 15005KT 120V180 CAVOK 33/13 Q1019=
201908201200 METAR LRTR 201200Z VRB02KT CAVOK 35/13 Q1018=
201908201230 METAR LRTR 201230Z 18006KT 140V210 CAVOK 35/13 Q1018=
201908201300 METAR LRTR 201300Z 26005KT 220V300 CAVOK 34/12 Q1018=
201908201330 METAR LRTR 201330Z VRB03KT CAVOK 35/12 Q1018=
201908201400 METAR COR LRTR 201400Z 14003KT 090V170 CAVOK 34/12 Q1018=
201908201430 METAR LRTR 201430Z VRB03KT CAVOK 35/12 Q1018=
201908201500 METAR LRTR 201500Z 10004KT 070V130 CAVOK 34/13 Q1018=
201908201530 METAR LRTR 201530Z 10004KT 040V150 CAVOK 34/12 Q1018=
201908201600 METAR LRTR 201600Z VRB02KT CAVOK 33/12 Q1018=
201908201630 METAR LRTR 201630Z 11005KT CAVOK 32/14 Q1018 NOSIG=
201908201700 METAR LRTR 201700Z 12004KT CAVOK 31/14 Q1018 NOSIG=
201908201730 METAR LRTR 201730Z 12003KT CAVOK 30/14 Q1018 NOSIG=
201908201800 METAR LRTR 201800Z 12004KT CAVOK 28/15 Q1018 NOSIG=
201908201830 METAR LRTR 201830Z 09004KT CAVOK 27/15 Q1018 NOSIG=
201908201900 METAR LRTR 201900Z 03005KT 330V070 CAVOK 24/15 Q1018 NOSIG=
201908201930 METAR LRTR 201930Z 03006KT CAVOK 25/14 Q1018 NOSIG=
201908202000 METAR LRTR 202000Z 04005KT CAVOK 25/14 Q1018 NOSIG=
201908202030 METAR LRTR 202030Z 09005KT CAVOK 22/16 Q1018 NOSIG=
201908202100 METAR LRTR 202100Z 15005KT 110V170 CAVOK 23/16 Q1018 NOSIG=
201908202130 METAR LRTR 202130Z 10006KT CAVOK 21/17 Q1018 NOSIG=
201908202200 METAR LRTR 202200Z 09007KT CAVOK 21/17 Q1018 NOSIG=
201908202230 METAR LRTR 202230Z 09006KT CAVOK 20/17 Q1018 NOSIG=
201908202300 METAR LRTR 202300Z 11007KT CAVOK 20/18 Q1018 NOSIG=
201908202330 METAR LRTR 202330Z 11007KT CAVOK 20/18 Q1018 NOSIG=
201908210000 METAR LRTR 210000Z 11006KT CAVOK 19/18 Q1018 NOSIG=
201908210030 METAR LRTR 210030Z 10007KT CAVOK 19/18 Q1018 NOSIG=
201908210100 METAR LRTR 210100Z 10007KT CAVOK 19/17 Q1018 NOSIG=
201908210130 METAR LRTR 210130Z 10007KT CAVOK 20/18 Q1019 NOSIG=
201908210200 METAR LRTR 210200Z 10007KT CAVOK 19/17 Q1019 NOSIG=
201908210230 METAR LRTR 210230Z 11007KT CAVOK 18/17 Q1019 NOSIG=
201908210300 METAR LRTR 210300Z 11008KT CAVOK 18/18 Q1019 NOSIG=
201908210330 METAR LRTR 210330Z 11007KT CAVOK 18/17 Q1019 NOSIG=
201908210400 METAR LRTR 210400Z 10007KT CAVOK 17/17 Q1019 NOSIG=
201908210430 METAR LRTR 210430Z 10006KT CAVOK 19/18 Q1019=
201908210500 METAR LRTR 210500Z 11005KT CAVOK 21/19 Q1019=
201908210530 METAR LRTR 210530Z 10006KT CAVOK 23/18 Q1020=
201908210600 METAR LRTR 210600Z 10007KT CAVOK 24/18 Q1020=
201908210630 METAR LRTR 210630Z 11009KT CAVOK 25/18 Q1020=
201908210700 METAR LRTR 210700Z 11007KT CAVOK 27/17 Q1020=
201908210730 METAR LRTR 210730Z 12007KT CAVOK 28/17 Q1020=
201908210800 METAR LRTR 210800Z 12006KT 090V150 CAVOK 30/15 Q1020=
201908210830 METAR LRTR 210830Z 17005KT 130V200 CAVOK 31/13 Q1020=
201908210900 METAR LRTR 210900Z 17004KT 090V230 CAVOK 32/13 Q1020=
201908210930 METAR COR LRTR 210930Z 17007KT CAVOK 33/13 Q1020=
201908211000 METAR LRTR 211000Z VRB02KT CAVOK 33/12 Q1019=
201908211030 METAR LRTR 211030Z 16004KT 090V200 CAVOK 33/12 Q1019=
201908211100 METAR LRTR 211100Z 34005KT 290V060 CAVOK 33/12 Q1019=
201908211130 METAR LRTR 211130Z 32006KT 280V360 CAVOK 33/12 Q1019=
201908211200 METAR LRTR 211200Z 29005KT 240V330 CAVOK 34/12 Q1019=
201908211230 METAR LRTR 211230Z 36005KT 290V050 CAVOK 34/13 Q1019=
201908211300 METAR LRTR 211300Z 33004KT 260V050 CAVOK 35/13 Q1018=
201908211330 METAR LRTR 211330Z 31008KT CAVOK 34/13 Q1018=
201908211400 METAR LRTR 211400Z 31006KT CAVOK 35/12 Q1018=
201908211430 METAR LRTR 211430Z 35004KT 300V050 CAVOK 34/13 Q1018=
201908211500 METAR LRTR 211500Z 33005KT CAVOK 34/12 Q1018=
201908211530 METAR LRTR 211530Z 34006KT 310V020 CAVOK 34/12 Q1018=
201908211600 METAR LRTR 211600Z 35005KT 320V020 CAVOK 33/14 Q1018=
201908211630 METAR LRTR 211630Z 34004KT CAVOK 32/15 Q1018=
201908211700 METAR LRTR 211700Z 35006KT CAVOK 31/15 Q1018=
201908211730 METAR LRTR 211730Z 36006KT CAVOK 29/15 Q1018=
201908211800 METAR LRTR 211800Z AUTO 36007KT 9999 NCD 28/15 Q1018=
201908211830 METAR LRTR 211830Z 02006KT CAVOK 26/14 Q1019=
201908211900 METAR LRTR 211900Z 36005KT CAVOK 26/15 Q1019=
201908211930 METAR LRTR 211930Z 01007KT CAVOK 25/15 Q1019=
201908212000 METAR LRTR 212000Z 02006KT CAVOK 25/15 Q1019=
201908212030 METAR LRTR 212030Z 34006KT CAVOK 26/15 Q1019=
201908212100 METAR LRTR 212100Z 35010KT CAVOK 26/18 Q1019=
201908212130 METAR LRTR 212130Z 35008KT CAVOK 25/19 Q1019=
201908212200 METAR LRTR 212200Z 36009KT CAVOK 25/19 Q1019=
201908212230 METAR LRTR 212230Z 01011KT CAVOK 24/19 Q1020=
201908212300 METAR LRTR 212300Z 01011KT CAVOK 23/19 Q1020=
201908212330 METAR LRTR 212330Z 02012KT CAVOK 22/17 Q1020=
201908220000 METAR LRTR 220000Z 01012KT CAVOK 21/17 Q1019=
201908220030 METAR LRTR 220030Z 01010KT CAVOK 21/17 Q1020=
201908220100 METAR LRTR 220100Z 02009KT CAVOK 20/17 Q1019=
201908220130 METAR LRTR 220130Z 02011KT CAVOK 20/17 Q1019=
201908220200 METAR LRTR 220200Z 02010KT CAVOK 20/17 Q1019=
201908220230 METAR LRTR 220230Z 01010KT CAVOK 20/17 Q1020=
201908220300 METAR LRTR 220300Z 02011KT CAVOK 19/16 Q1020=
201908220330 METAR LRTR 220330Z 01009KT CAVOK 19/16 Q1020=
201908220400 METAR LRTR 220400Z 01005KT CAVOK 19/17 Q1020 NOSIG=
201908220430 METAR LRTR 220430Z 05004KT CAVOK 19/17 Q1021 NOSIG=
201908220500 METAR LRTR 220500Z 03005KT 9999 FEW050CB 20/17 Q1021 TEMPO
                        TS=
201908220530 METAR LRTR 220530Z 36004KT 9999 FEW050CB 20/17 Q1021 TEMPO
                        TS=
201908220600 METAR LRTR 220600Z 36005KT 9999 FEW050CB 22/18 Q1021 TEMPO
                        TS=
201908220630 METAR LRTR 220630Z VRB02KT 9999 FEW050CB 23/18 Q1022 NOSIG=
201908220700 METAR LRTR 220700Z 18006KT CAVOK 22/18 Q1022 NOSIG=
201908220730 METAR LRTR 220730Z 19007KT CAVOK 22/18 Q1022 NOSIG=
201908220800 METAR LRTR 220800Z 20009KT CAVOK 22/18 Q1022 NOSIG=
201908220830 METAR LRTR 220830Z 21007KT CAVOK 23/18 Q1022 NOSIG=
201908220900 METAR LRTR 220900Z 21007KT 170V240 CAVOK 24/18 Q1022 NOSIG=
201908220930 METAR LRTR 220930Z 27003KT 180V350 CAVOK 25/18 Q1022 NOSIG=
201908221000 METAR LRTR 221000Z VRB04KT CAVOK 26/18 Q1022 NOSIG=
201908221030 METAR LRTR 221030Z 23006KT 210V270 CAVOK 27/19 Q1022 NOSIG=
201908221100 METAR LRTR 221100Z VRB04KT 9999 FEW050CB 28/18 Q1022 NOSIG=
201908221130 METAR LRTR 221130Z VRB03KT 9999 FEW050CB 28/18 Q1022 NOSIG=
201908221200 METAR LRTR 221200Z VRB03KT 9999 FEW050CB 29/18 Q1021 NOSIG=
201908221230 METAR LRTR 221230Z VRB03KT 9999 FEW050CB 30/19 Q1021 NOSIG=
201908221300 METAR LRTR 221300Z 26006KT 230V290 9999 FEW055CB 31/18 Q1021
                        NOSIG=
201908221330 METAR LRTR 221330Z VRB03KT 9999 FEW055CB 31/18 Q1020 NOSIG=
201908221400 METAR LRTR 221400Z 29005KT 230V340 9999 FEW055CB 31/18 Q1020
                        NOSIG=
201908221430 METAR LRTR 221430Z VRB01KT 9999 FEW055CB 32/17 Q1020 NOSIG=
201908221500 METAR LRTR 221500Z 27004KT 150V310 9999 FEW055CB 33/17 Q1020
                        NOSIG=
201908221530 METAR LRTR 221530Z 23005KT 200V270 9999 FEW055CB 33/18 Q1020
                        NOSIG=
201908221600 METAR LRTR 221600Z 09004KT 350V150 CAVOK 32/17 Q1020 NOSIG=
201908221630 METAR LRTR 221630Z 05006KT CAVOK 31/18 Q1020=
201908221700 METAR LRTR 221700Z 11010KT CAVOK 29/17 Q1020=
201908221730 METAR COR LRTR 221730Z 15005KT CAVOK 28/19 Q1020=
201908221800 METAR LRTR 221800Z 11004KT 080V140 CAVOK 25/19 Q1020=
201908221830 METAR COR LRTR 221830Z 09006KT CAVOK 25/19 Q1021=
201908221900 METAR LRTR 221900Z 07003KT CAVOK 25/18 Q1021=
201908221930 METAR LRTR 221930Z 03003KT 320V120 CAVOK 24/19 Q1021=
201908222000 METAR LRTR 222000Z 04004KT CAVOK 24/19 Q1021=
201908222030 METAR COR LRTR 222030Z 06003KT CAVOK 23/19 Q1021=
201908222100 METAR LRTR 222100Z 09004KT CAVOK 23/19 Q1021=
201908222130 METAR LRTR 222130Z 01003KT CAVOK 22/19 Q1021=
201908222200 METAR LRTR 222200Z 01005KT CAVOK 21/19 Q1021=
201908222230 METAR LRTR 222230Z 02006KT CAVOK 21/19 Q1021=
201908222300 METAR LRTR 222300Z 06005KT CAVOK 20/19 Q1021=
201908222330 METAR LRTR 222330Z 06005KT 020V080 CAVOK 19/18 Q1021=
201908230000 METAR LRTR 230000Z 04005KT CAVOK 19/18 Q1021=
201908230030 METAR LRTR 230030Z 36003KT 330V030 CAVOK 19/18 Q1021=
201908230100 METAR LRTR 230100Z 03004KT 360V060 CAVOK 19/18 Q1021=
201908230130 METAR LRTR 230130Z 00000KT CAVOK 18/18 Q1021=
201908230200 METAR LRTR 230200Z 01001KT CAVOK 18/18 Q1021=
201908230230 METAR LRTR 230230Z 35005KT CAVOK 18/18 Q1021=
201908230300 METAR COR LRTR 230300Z 00000KT CAVOK 18/18 Q1021=
201908230330 METAR LRTR 230330Z 00000KT CAVOK 18/18 Q1021=
201908230400 METAR LRTR 230400Z 32001KT CAVOK 18/18 Q1021 NOSIG=
201908230430 METAR LRTR 230430Z 00000KT CAVOK 17/17 Q1022 NOSIG=
201908230500 METAR LRTR 230500Z 02003KT CAVOK 19/18 Q1022 NOSIG=
201908230530 METAR LRTR 230530Z 11003KT CAVOK 21/19 Q1022 NOSIG=
201908230600 METAR LRTR 230600Z 12007KT CAVOK 23/20 Q1022 NOSIG=
201908230630 METAR LRTR 230630Z 12004KT 070V140 CAVOK 24/20 Q1022 NOSIG=
201908230700 METAR LRTR 230700Z VRB02KT CAVOK 25/20 Q1022 NOSIG=
201908230730 METAR LRTR 230730Z VRB02KT CAVOK 26/20 Q1023 NOSIG=
201908230800 METAR LRTR 230800Z VRB03KT CAVOK 27/19 Q1023 NOSIG=
201908230830 METAR LRTR 230830Z VRB03KT CAVOK 28/20 Q1023 NOSIG=
201908230900 METAR LRTR 230900Z 30005KT 240V330 CAVOK 28/20 Q1023 NOSIG=
201908230930 METAR LRTR 230930Z 33004KT 270V030 CAVOK 29/18 Q1023 NOSIG=
201908231000 METAR COR LRTR 231000Z 33003KT 290V050 9999 FEW038 29/18
                        Q1022 NOSIG=
201908231030 METAR LRTR 231030Z VRB02KT 9999 FEW040 30/18 Q1022 NOSIG=
201908231100 METAR LRTR 231100Z VRB04KT 9999 FEW040 31/18 Q1022 NOSIG=
201908231130 METAR LRTR 231130Z 20004KT 160V260 9999 FEW043 31/17 Q1021
                        NOSIG=
201908231200 METAR LRTR 231200Z 12005KT 080V230 9999 FEW045 32/16 Q1021
                        NOSIG=
201908231230 METAR LRTR 231230Z VRB02KT 9999 FEW045 32/16 Q1021 NOSIG=
201908231300 METAR LRTR 231300Z 13005KT 060V200 9999 FEW045 32/16 Q1021
                        NOSIG=
201908231330 METAR LRTR 231330Z 17003KT 120V230 9999 FEW045 32/15 Q1020
                        NOSIG=
201908231400 METAR LRTR 231400Z VRB02KT 9999 FEW048TCU 33/16 Q1020 NOSIG=
201908231430 METAR LRTR 231430Z 24004KT 210V310 9999 FEW050CB 33/15 Q1020
                        NOSIG=
201908231500 METAR LRTR 231500Z 09004KT 050V220 9999 FEW050CB 33/16 Q1020
                        NOSIG=
201908231530 METAR LRTR 231530Z VRB01KT 9999 FEW050CB 33/15 Q1020 TEMPO
                        TS=
201908231600 METAR LRTR 231600Z VRB02KT 9999 FEW050CB 32/16 Q1020 TEMPO
                        TS=
201908231630 METAR LRTR 231630Z 00000KT 9999 FEW055CB 32/16 Q1020 NOSIG=
201908231700 METAR LRTR 231700Z 11004KT CAVOK 30/17 Q1020 NOSIG=
201908231730 METAR LRTR 231730Z 08004KT CAVOK 29/17 Q1020 NOSIG=
201908231800 METAR LRTR 231800Z 05003KT 350V070 CAVOK 26/18 Q1020 NOSIG=
201908231830 METAR LRTR 231830Z 01007KT CAVOK 25/17 Q1020 NOSIG=
201908231900 METAR LRTR 231900Z 04003KT 020V080 CAVOK 25/17 Q1020 NOSIG=
201908231930 METAR LRTR 231930Z 03005KT CAVOK 24/18 Q1020 NOSIG=
201908232000 METAR LRTR 232000Z 04005KT CAVOK 24/18 Q1020 NOSIG=
201908232030 METAR LRTR 232030Z 03006KT CAVOK 24/18 Q1020 NOSIG=
201908232100 METAR LRTR 232100Z 04006KT CAVOK 24/18 Q1020 NOSIG=
201908232130 METAR LRTR 232130Z 11006KT CAVOK 22/18 Q1020 NOSIG=
201908232200 METAR LRTR 232200Z 11006KT CAVOK 22/18 Q1020 NOSIG=
201908232230 METAR LRTR 232230Z 09008KT CAVOK 22/18 Q1020 NOSIG=
201908232300 METAR LRTR 232300Z 07003KT CAVOK 22/18 Q1020 NOSIG=
201908232330 METAR LRTR 232330Z 08007KT CAVOK 21/17 Q1020 NOSIG=
201908240000 METAR LRTR 240000Z 08007KT CAVOK 22/17 Q1020 NOSIG=
201908240030 METAR LRTR 240030Z 09006KT CAVOK 21/17 Q1020 NOSIG=
201908240100 METAR LRTR 240100Z 10006KT CAVOK 20/17 Q1020 NOSIG=
201908240130 METAR LRTR 240130Z 11007KT CAVOK 19/18 Q1020 NOSIG=
201908240200 METAR LRTR 240200Z 10005KT CAVOK 19/18 Q1020 NOSIG=
201908240230 METAR LRTR 240230Z 10007KT CAVOK 20/18 Q1020 NOSIG=
201908240300 METAR LRTR 240300Z 11008KT CAVOK 19/17 Q1020 NOSIG=
201908240330 METAR LRTR 240330Z 11007KT CAVOK 18/18 Q1021 NOSIG=
201908240400 METAR LRTR 240400Z 10006KT CAVOK 19/18 Q1021 NOSIG=
201908240430 METAR LRTR 240430Z 10008KT CAVOK 21/18 Q1021=
201908240500 METAR LRTR 240500Z 11008KT CAVOK 22/18 Q1021=
201908240530 METAR LRTR 240530Z 10007KT CAVOK 23/18 Q1021=
201908240600 METAR LRTR 240600Z 11007KT CAVOK 24/18 Q1021=
201908240630 METAR LRTR 240630Z 11008KT CAVOK 26/17 Q1021=
201908240700 METAR LRTR 240700Z 12007KT CAVOK 27/17 Q1021=
201908240730 METAR LRTR 240730Z 14005KT CAVOK 28/17 Q1021=
201908240800 METAR LRTR 240800Z 14007KT CAVOK 30/17 Q1021=
201908240830 METAR LRTR 240830Z 14007KT 090V180 CAVOK 30/16 Q1021=
201908240900 METAR LRTR 240900Z 13007KT 100V170 CAVOK 31/15 Q1021=
201908240930 METAR LRTR 240930Z 11007KT 070V140 CAVOK 31/15 Q1021=
201908241000 METAR LRTR 241000Z 12008KT CAVOK 32/14 Q1021=
201908241030 METAR LRTR 241030Z 12005KT CAVOK 32/14 Q1020=
201908241100 METAR LRTR 241100Z 10007KT 070V130 CAVOK 33/12 Q1020=
201908241130 METAR LRTR 241130Z 10006KT 050V140 CAVOK 33/12 Q1020=
201908241200 METAR LRTR 241200Z 13005KT 090V180 CAVOK 33/13 Q1020=
201908241230 METAR LRTR 241230Z VRB05KT CAVOK 33/13 Q1019=
201908241300 METAR LRTR 241300Z VRB04KT CAVOK 34/14 Q1019=
201908241330 METAR LRTR 241330Z 12006KT 070V140 CAVOK 33/13 Q1019=
201908241400 METAR LRTR 241400Z 12009KT CAVOK 34/13 Q1019=
201908241430 METAR LRTR 241430Z 15007KT CAVOK 34/13 Q1018=
201908241500 METAR LRTR 241500Z 13007KT CAVOK 33/13 Q1018=
201908241530 METAR LRTR 241530Z 13005KT 100V170 CAVOK 32/13 Q1018=
201908241600 METAR LRTR 241600Z 10005KT 9999 VCTS FEW050CB 32/15 Q1018=
201908241630 METAR LRTR 241630Z 09004KT 9999 VCTS VCSH FEW045CB 31/14
                        Q1018=
201908241700 METAR LRTR 241700Z 32009KT 9999 SCT045CB 27/17 Q1018=
201908241730 METAR LRTR 241730Z 03004KT 350V140 9999 SCT050CB 26/17 Q1019=
201908241800 METAR LRTR 241800Z 02005KT 9999 FEW055CB 26/17 Q1019=
201908241830 METAR LRTR 241830Z 02005KT 9999 FEW050CB 25/16 Q1019=
201908241900 METAR LRTR 241900Z 14013KT 9999 TSRA SCT040CB 27/16 Q1019=
201908241930 METAR LRTR 241930Z 29010KT 9999 -TSRA FEW009 SCT036 SCT040CB
                        25/18 Q1019 R11/290095=
201908242000 METAR LRTR 242000Z 02003KT 330V030 9999 TS SCT030 SCT045CB
                        24/19 Q1019 R11/290095=
201908242030 METAR LRTR 242030Z 07005KT 9999 FEW050CB 24/19 Q1019 RETS
                        R11/290095=
201908242100 METAR LRTR 242100Z 09006KT 9999 FEW050CB 23/19 Q1019 R11/290095=
201908242130 METAR LRTR 242130Z 07006KT 9999 FEW050CB 22/19 Q1019 R11/290095=
201908242200 METAR LRTR 242200Z 07006KT CAVOK 21/19 Q1019 R11/290095=
201908242230 METAR LRTR 242230Z 09005KT CAVOK 21/19 Q1019 R11/290095=
201908242300 METAR LRTR 242300Z 09006KT CAVOK 21/19 Q1019 R11/290095=
201908242330 METAR LRTR 242330Z 08006KT CAVOK 21/19 Q1019 R11/290095=
201908250000 METAR LRTR 250000Z 09007KT CAVOK 21/19 Q1019 R11/290095=
201908250030 METAR COR LRTR 250030Z 11008KT CAVOK 21/19 Q1019 R11/290095=
201908250100 METAR LRTR 250100Z 11007KT CAVOK 20/19 Q1019 R11/290095=
201908250130 METAR LRTR 250130Z 10008KT CAVOK 20/19 Q1018 R11/290095=
201908250200 METAR COR LRTR 250200Z 12006KT CAVOK 19/18 Q1018 R11/290095=
201908250230 METAR COR LRTR 250230Z 11006KT CAVOK 18/18 Q1018 R11/290095=
201908250300 METAR LRTR 250300Z 11006KT CAVOK 19/18 Q1019 R11/290095=
201908250330 METAR LRTR 250330Z 13007KT CAVOK 19/18 Q1019 R11/19//95=
201908250400 METAR LRTR 250400Z 12009KT CAVOK 19/18 Q1019 R11/19//95=
201908250430 METAR LRTR 250430Z 10007KT CAVOK 19/18 Q1019 R11/19//95=
201908250500 METAR LRTR 250500Z 09007KT CAVOK 20/18 Q1019 R11/19//95=
201908250530 METAR LRTR 250530Z 10007KT CAVOK 21/19 Q1019 R11/19//95=
201908250600 METAR LRTR 250600Z 11007KT CAVOK 24/19 Q1019 R11/19//95=
201908250630 METAR LRTR 250630Z 11008KT CAVOK 25/17 Q1019 R11/19//95=
201908250700 METAR LRTR 250700Z 11009KT CAVOK 26/17 Q1020 R11/19//95=
201908250730 METAR LRTR 250730Z 11007KT CAVOK 28/16 Q1020 R11/CLRD//=
201908250800 METAR LRTR 250800Z 11003KT CAVOK 29/15 Q1020=
201908250830 METAR LRTR 250830Z VRB02KT CAVOK 30/16 Q1020=
201908250900 METAR COR LRTR 250900Z 15003KT 070V230 CAVOK 31/16 Q1020=
201908250930 METAR LRTR 250930Z VRB02KT CAVOK 31/15 Q1020=
201908251000 METAR LRTR 251000Z 18003KT 100V250 CAVOK 31/16 Q1020=
201908251030 METAR LRTR 251030Z VRB03KT CAVOK 31/16 Q1019=
201908251100 METAR LRTR 251100Z 20005KT 160V230 CAVOK 32/17 Q1019=
201908251130 METAR LRTR 251130Z 21005KT 120V260 CAVOK 33/16 Q1019=
201908251200 METAR LRTR 251200Z 34004KT 270V020 9999 FEW050CB 32/17 Q1019=
201908251230 METAR LRTR 251230Z VRB01KT 9999 VCTS FEW045CB 32/15 Q1018=
201908251300 METAR LRTR 251300Z 24003KT 170V280 9999 FEW045CB 32/15 Q1018=
201908251330 METAR LRTR 251330Z 24005KT 180V280 9999 FEW045CB 30/16 Q1018=
201908251400 METAR LRTR 251400Z 22007KT 180V240 9999 FEW045CB 29/15 Q1018=
201908251430 METAR LRTR 251430Z 21003KT 9999 FEW045CB 29/16 Q1018=
201908251500 METAR LRTR 251500Z 18006KT 140V200 9999 FEW045CB 28/18 Q1018=
201908251530 METAR LRTR 251530Z 16008KT 9999 FEW045CB 26/18 Q1018=
201908251600 METAR LRTR 251600Z 19003KT 9999 -SHRA FEW045CB 25/20 Q1018=
201908251630 METAR LRTR 251630Z 16003KT 9999 -SHRA FEW050CB 24/21 Q1019=
201908251700 METAR LRTR 251700Z 13009KT 9999 -SHRA VCTS FEW050CB 24/21
                        Q1019=
201908251730 METAR LRTR 251730Z 10007KT 9999 FEW050CB 23/21 Q1019=
201908251800 METAR LRTR 251800Z 11009KT 9999 FEW050CB 24/18 Q1019=
201908251830 METAR LRTR 251830Z 09007KT 9999 FEW050CB 24/17 Q1019=
201908251900 METAR LRTR 251900Z 10011KT 9999 VCTS FEW050CB 24/18 Q1019=
201908251930 METAR LRTR 251930Z 09011KT 9999 VCTS FEW050CB 24/18 Q1019=
201908252000 METAR LRTR 252000Z 19011KT 9999 +TSRA SCT050CB 22/19 Q1019
                        R11/290095=
201908252030 METAR LRTR 252030Z 30008KT 9000 TSRA FEW016 BKN055CB 24/18
                        Q1019 RESHRA R11/290095=
201908252100 METAR LRTR 252100Z 12011KT 9999 TS SCT055CB 22/19 Q1019 RESHRA
                        R11/290095=
201908252130 METAR LRTR 252130Z 11009KT 9999 VCTS FEW055CB 21/21 Q1019
                        RETS R11/290095=
201908252200 METAR LRTR 252200Z 10010KT 9999 VCTS FEW055CB 21/21 Q1019
                        R11/290095=
201908252230 METAR LRTR 252230Z 08007KT 9999 VCTS FEW055CB 21/20 Q1019
                        R11/290095=
201908252300 METAR LRTR 252300Z 09007KT 060V120 9999 VCTS FEW055CB 21/20
                        Q1019 R11/290095=
201908252330 METAR LRTR 252330Z 11006KT 9999 VCTS FEW050CB 21/20 Q1019
                        R11/290095=
201908260000 METAR LRTR 260000Z 11008KT 9999 VCTS FEW055CB 21/20 Q1019
                        R11/290095=
201908260030 METAR LRTR 260030Z 10011KT 9999 VCTS FEW055CB 22/20 Q1019
                        R11/290095=
201908260100 METAR LRTR 260100Z 09009KT 9999 VCTS FEW055CB 21/20 Q1019
                        R11/290095=
201908260130 METAR LRTR 260130Z 11008KT 9999 VCTS FEW055CB 21/20 Q1020
                        R11/290095=
201908260200 METAR LRTR 260200Z 12010KT 9999 VCTS FEW055CB 21/20 Q1020
                        R11/290095=
201908260230 METAR LRTR 260230Z 12010KT 9999 TS FEW055CB 21/19 Q1020 R11/290095=
201908260300 METAR LRTR 260300Z 11011KT 9999 TSRA SCT055CB 20/19 Q1020
                        R11/290095=
201908260330 METAR LRTR 260330Z 10010KT 9999 -TSRA SCT055CB 20/20 Q1020
                        RESHRA R11/290095=
201908260400 METAR LRTR 260400Z 17005KT 9999 TSRA FEW014 SCT050CB 20/20
                        Q1021 R11/290095=
201908260430 METAR LRTR 260430Z 20003KT 150V250 9999 -SHRA FEW015 SCT050CB
                        20/20 Q1020 RETS RESHRA R11/290095
                        TEMPO TSRA=
201908260500 METAR LRTR 260500Z 08006KT 9999 -SHRA SCT050CB 20/19 Q1020
                        R11/290095 TEMPO SHRA=
201908260530 METAR LRTR 260530Z 07005KT 030V100 9999 -TSRA SCT050CB 20/20
                        Q1020 R11/290095 TEMPO SHRA=
201908260600 METAR LRTR 260600Z 08005KT 040V130 9999 -TSRA SCT050CB 20/20
                        Q1020 R11/290095 BECMG NSW=
201908260630 METAR LRTR 260630Z 11005KT 9999 FEW050CB 21/20 Q1021 RETS
                        R11/290095 NOSIG=
201908260700 METAR LRTR 260700Z 12008KT 9999 FEW050CB 22/21 Q1021 R11/290095
                        NOSIG=
201908260730 METAR LRTR 260730Z 10009KT 9999 FEW020 FEW050CB 24/21 Q1021
                        R11/290095 TEMPO TS=
201908260800 METAR LRTR 260800Z 10007KT 9999 FEW020 FEW050CB 24/21 Q1021
                        TEMPO TS=
201908260830 METAR LRTR 260830Z 09007KT 9999 FEW022 FEW050CB 25/21 Q1021
                        NOSIG=
201908260900 METAR LRTR 260900Z 12009KT 9999 FEW025 26/21 Q1021 NOSIG=
201908260930 METAR LRTR 260930Z 11006KT 9999 FEW025 27/19 Q1020 NOSIG=
201908261000 METAR LRTR 261000Z 14009KT 9999 FEW050CB 27/20 Q1021 TEMPO
                        TSRA=
201908261030 METAR LRTR 261030Z 11007KT 9999 FEW027 FEW050CB 26/21 Q1021
                        NOSIG=
201908261100 METAR LRTR 261100Z 10007KT 9999 -SHRA FEW030 FEW050CB 26/20
                        Q1020 NOSIG=
201908261130 METAR LRTR 261130Z 12009KT 9999 FEW050CB 28/20 Q1020 NOSIG=
201908261200 METAR LRTR 261200Z 14008KT 9999 FEW055CB 27/18 Q1020 NOSIG=
201908261230 METAR LRTR 261230Z 09005KT 070V130 CAVOK 27/18 Q1020 NOSIG=
201908261300 METAR LRTR 261300Z 11004KT CAVOK 28/18 Q1019 NOSIG=
201908261330 METAR LRTR 261330Z 11006KT CAVOK 28/18 Q1019 NOSIG=
201908261400 METAR LRTR 261400Z 10006KT 060V120 CAVOK 29/18 Q1019 NOSIG=
201908261430 METAR LRTR 261430Z 10008KT CAVOK 29/17 Q1018 NOSIG=
201908261500 METAR LRTR 261500Z 10007KT CAVOK 29/16 Q1018 NOSIG=
201908261530 METAR LRTR 261530Z 09007KT CAVOK 29/17 Q1018 NOSIG=
201908261600 METAR LRTR 261600Z 08007KT CAVOK 28/18 Q1018=
201908261630 METAR LRTR 261630Z 08005KT CAVOK 27/18 Q1018=
201908261700 METAR LRTR 261700Z 07005KT CAVOK 26/19 Q1018=
201908261730 METAR LRTR 261730Z 08005KT CAVOK 25/18 Q1018=
201908261800 METAR LRTR 261800Z 06006KT CAVOK 23/18 Q1018=
201908261830 METAR LRTR 261830Z 08004KT CAVOK 23/18 Q1018=
201908261900 METAR LRTR 261900Z 08007KT CAVOK 23/19 Q1018=
201908261930 METAR LRTR 261930Z 08008KT CAVOK 24/19 Q1018=
201908262000 METAR LRTR 262000Z 09008KT CAVOK 24/18 Q1018=
201908262030 METAR LRTR 262030Z 09009KT CAVOK 24/17 Q1018=
201908262100 METAR COR LRTR 262100Z 09008KT CAVOK 23/17 Q1018=
201908262130 METAR LRTR 262130Z 09008KT CAVOK 22/17 Q1018=
201908262200 METAR LRTR 262200Z 10008KT CAVOK 22/16 Q1018=
201908262230 METAR LRTR 262230Z 10007KT CAVOK 21/17 Q1019=
201908262300 METAR COR LRTR 262300Z 13008KT CAVOK 21/17 Q1019=
201908262330 METAR COR LRTR 262330Z 11008KT CAVOK 20/17 Q1019=
201908270000 METAR LRTR 270000Z 17007KT CAVOK 22/17 Q1020=
201908270030 METAR LRTR 270030Z 12005KT CAVOK 20/18 Q1019=
201908270100 METAR LRTR 270100Z 15006KT CAVOK 21/19 Q1020=
201908270130 METAR LRTR 270130Z 20003KT CAVOK 21/19 Q1019=
201908270200 METAR LRTR 270200Z 12007KT CAVOK 19/19 Q1019=
201908270230 METAR LRTR 270230Z 13005KT CAVOK 18/18 Q1019=
201908270300 METAR LRTR 270300Z 09008KT CAVOK 18/18 Q1019=
201908270330 METAR LRTR 270330Z 09008KT CAVOK 18/18 Q1019=
201908270400 METAR LRTR 270400Z 11007KT CAVOK 18/18 Q1019=
201908270430 METAR LRTR 270430Z 11005KT CAVOK 19/19 Q1019=
201908270500 METAR LRTR 270500Z 10006KT CAVOK 19/19 Q1020=
201908270530 METAR LRTR 270530Z VRB02KT CAVOK 20/19 Q1020=
201908270600 METAR LRTR 270600Z 09006KT CAVOK 22/20 Q1020=
201908270630 METAR LRTR 270630Z 10008KT CAVOK 23/19 Q1020=
201908270700 METAR LRTR 270700Z 09008KT CAVOK 25/18 Q1020=
201908270730 METAR LRTR 270730Z 09007KT CAVOK 27/18 Q1020=
201908270800 METAR LRTR 270800Z 10008KT CAVOK 28/17 Q1020=
201908270830 METAR LRTR 270830Z 11009KT 080V140 CAVOK 30/16 Q1020=
201908270900 METAR LRTR 270900Z 16008KT 120V180 CAVOK 30/13 Q1020=
201908270930 METAR LRTR 270930Z 11004KT 010V160 CAVOK 30/15 Q1020=
201908271000 METAR LRTR 271000Z VRB04KT CAVOK 31/15 Q1020=
201908271030 METAR LRTR 271030Z 18004KT 090V260 CAVOK 32/15 Q1020=
201908271100 METAR LRTR 271100Z 20005KT 140V250 CAVOK 32/14 Q1020=
201908271130 METAR LRTR 271130Z VRB03KT CAVOK 32/15 Q1020=
201908271200 METAR LRTR 271200Z 15006KT 110V190 9999 FEW045 32/13 Q1020=
201908271230 METAR LRTR 271230Z VRB03KT 9999 FEW045 32/14 Q1019=
201908271300 METAR COR LRTR 271300Z 08005KT 040V140 9999 FEW047 33/14
                        Q1019=
201908271330 METAR LRTR 271330Z 12007KT 9999 FEW048 33/14 Q1019=
201908271400 METAR LRTR 271400Z 10007KT 9999 FEW048 33/14 Q1019=
201908271430 METAR LRTR 271430Z 10008KT CAVOK 33/14 Q1019=
201908271500 METAR LRTR 271500Z 09011KT 9999 FEW050CB 32/15 Q1018=
201908271530 METAR LRTR 271530Z 10009KT 9999 FEW050CB 32/15 Q1018=
201908271600 METAR LRTR 271600Z 09009KT 9999 FEW050CB 31/17 Q1018=
201908271630 METAR LRTR 271630Z 09007KT CAVOK 30/16 Q1018 NOSIG=
201908271700 METAR LRTR 271700Z 09010KT CAVOK 29/16 Q1018 NOSIG=
201908271730 METAR LRTR 271730Z 10008KT CAVOK 27/16 Q1018 NOSIG=
201908271800 METAR LRTR 271800Z 11006KT CAVOK 25/17 Q1019 NOSIG=
201908271830 METAR LRTR 271830Z 09006KT CAVOK 24/17 Q1019 NOSIG=
201908271900 METAR LRTR 271900Z 09006KT CAVOK 23/18 Q1019 NOSIG=
201908271930 METAR LRTR 271930Z 10007KT CAVOK 23/18 Q1019 NOSIG=
201908272000 METAR LRTR 272000Z 10007KT CAVOK 22/18 Q1019 NOSIG=
201908272030 METAR LRTR 272030Z 09007KT CAVOK 22/18 Q1019 NOSIG=
201908272100 METAR LRTR 272100Z 10006KT CAVOK 21/18 Q1019 NOSIG=
201908272130 METAR LRTR 272130Z 09006KT CAVOK 20/18 Q1020 NOSIG=
201908272200 METAR LRTR 272200Z 09007KT CAVOK 21/17 Q1020 NOSIG=
201908272230 METAR LRTR 272230Z 09007KT CAVOK 20/17 Q1020 NOSIG=
201908272300 METAR LRTR 272300Z 08006KT CAVOK 20/17 Q1020 NOSIG=
201908272330 METAR LRTR 272330Z 09005KT CAVOK 19/17 Q1020 NOSIG=
201908280000 METAR LRTR 280000Z 10006KT CAVOK 19/17 Q1020 NOSIG=
201908280030 METAR LRTR 280030Z 10007KT CAVOK 19/17 Q1020 NOSIG=
201908280100 METAR LRTR 280100Z 10007KT CAVOK 19/17 Q1020 NOSIG=
201908280130 METAR LRTR 280130Z 10008KT CAVOK 19/17 Q1019 NOSIG=
201908280200 METAR LRTR 280200Z 11007KT CAVOK 18/17 Q1019 NOSIG=
201908280230 METAR LRTR 280230Z 12008KT CAVOK 18/17 Q1019 NOSIG=
201908280300 METAR LRTR 280300Z 11008KT CAVOK 18/17 Q1019 NOSIG=
201908280330 METAR LRTR 280330Z 11009KT CAVOK 17/17 Q1020 NOSIG=
201908280400 METAR LRTR 280400Z 10007KT CAVOK 17/17 Q1020 NOSIG=
201908280430 METAR LRTR 280430Z 12010KT CAVOK 18/18 Q1020=
201908280500 METAR LRTR 280500Z 12010KT CAVOK 19/18 Q1020=
201908280530 METAR LRTR 280530Z 11009KT CAVOK 21/18 Q1020=
201908280600 METAR LRTR 280600Z 11010KT CAVOK 22/18 Q1020=
201908280630 METAR LRTR 280630Z 11009KT CAVOK 24/18 Q1020=
201908280700 METAR LRTR 280700Z 11010KT CAVOK 26/17 Q1020=
201908280730 METAR LRTR 280730Z 11011KT CAVOK 27/17 Q1020=
201908280800 METAR LRTR 280800Z 10010KT CAVOK 28/16 Q1020=
201908280830 METAR LRTR 280830Z 12010KT CAVOK 29/16 Q1020=
201908280900 METAR LRTR 280900Z 12008KT CAVOK 31/16 Q1020=
201908280930 METAR LRTR 280930Z 14008KT 090V170 CAVOK 31/15 Q1020=
201908281000 METAR LRTR 281000Z 14006KT 110V180 CAVOK 32/16 Q1019=
201908281030 METAR LRTR 281030Z 15007KT 120V180 CAVOK 32/15 Q1019=
201908281100 METAR LRTR 281100Z 18006KT 120V220 CAVOK 33/14 Q1019=
201908281130 METAR LRTR 281130Z 15007KT 110V170 CAVOK 32/12 Q1019=
201908281200 METAR LRTR 281200Z 17006KT 100V260 CAVOK 34/13 Q1018=
201908281230 METAR LRTR 281230Z 13011KT CAVOK 34/12 Q1018=
201908281300 METAR LRTR 281300Z 14008KT 120V180 CAVOK 34/12 Q1018=
201908281330 METAR LRTR 281330Z 16006KT 100V190 CAVOK 34/12 Q1018=
201908281400 METAR LRTR 281400Z 11009KT CAVOK 33/13 Q1018=
201908281430 METAR LRTR 281430Z 11009KT CAVOK 33/13 Q1017=
201908281500 METAR LRTR 281500Z 11008KT 070V130 CAVOK 33/13 Q1018=
201908281530 METAR LRTR 281530Z 10008KT CAVOK 32/13 Q1017=
201908281600 METAR LRTR 281600Z 10009KT 9999 FEW055CB 32/13 Q1017=
201908281630 METAR LRTR 281630Z 10006KT 9999 FEW055CB 30/14 Q1017=
201908281700 METAR LRTR 281700Z 10006KT CAVOK 29/14 Q1018=
201908281730 METAR LRTR 281730Z 08007KT CAVOK 27/15 Q1018=
201908281800 METAR LRTR 281800Z 08007KT CAVOK 26/14 Q1018=
201908281830 METAR LRTR 281830Z 08006KT CAVOK 24/15 Q1018=
201908281900 METAR LRTR 281900Z 09006KT CAVOK 23/15 Q1018=
201908281930 METAR LRTR 281930Z 11006KT CAVOK 22/16 Q1018=
201908282000 METAR LRTR 282000Z 10007KT CAVOK 22/16 Q1018=
201908282030 METAR LRTR 282030Z 10005KT CAVOK 20/17 Q1018=
201908282100 METAR LRTR 282100Z 10006KT CAVOK 20/17 Q1018=
201908282130 METAR LRTR 282130Z 10007KT CAVOK 21/18 Q1018=
201908282200 METAR LRTR 282200Z 10007KT CAVOK 20/18 Q1018=
201908282230 METAR LRTR 282230Z 09006KT CAVOK 20/18 Q1018=
201908282300 METAR LRTR 282300Z 10007KT CAVOK 21/18 Q1018=
201908282330 METAR LRTR 282330Z 10007KT CAVOK 20/18 Q1018=
201908290000 METAR LRTR 290000Z 10008KT CAVOK 20/18 Q1018=
201908290030 METAR LRTR 290030Z 10008KT CAVOK 20/17 Q1018=
201908290100 METAR LRTR 290100Z 10008KT CAVOK 19/17 Q1018=
201908290130 METAR LRTR 290130Z 10008KT CAVOK 19/17 Q1018=
201908290200 METAR LRTR 290200Z 10008KT CAVOK 19/17 Q1018=
201908290230 METAR LRTR 290230Z 10008KT CAVOK 19/17 Q1018=
201908290300 METAR LRTR 290300Z 10007KT CAVOK 19/17 Q1018=
201908290330 METAR LRTR 290330Z 10008KT CAVOK 19/16 Q1018=
201908290400 METAR LRTR 290400Z 10008KT CAVOK 19/16 Q1018=
201908290430 METAR LRTR 290430Z 09007KT CAVOK 18/17 Q1019=
201908290500 METAR LRTR 290500Z 11007KT CAVOK 20/18 Q1019=
201908290530 METAR LRTR 290530Z 10009KT CAVOK 21/18 Q1019=
201908290600 METAR COR LRTR 290600Z 10011KT CAVOK 23/17 Q1019=
201908290630 METAR LRTR 290630Z 10010KT CAVOK 24/17 Q1019=
201908290700 METAR COR LRTR 290700Z 10009KT CAVOK 25/17 Q1019=
201908290730 METAR LRTR 290730Z 10009KT CAVOK 27/15 Q1019=
201908290800 METAR LRTR 290800Z 11009KT CAVOK 28/15 Q1019=
201908290830 METAR LRTR 290830Z 12010KT CAVOK 30/13 Q1019=
201908290900 METAR LRTR 290900Z 11008KT CAVOK 30/11 Q1018=
201908290930 METAR LRTR 290930Z 11007KT CAVOK 32/11 Q1018=
201908291000 METAR LRTR 291000Z 14008KT 100V170 CAVOK 32/11 Q1018=
201908291030 METAR LRTR 291030Z 15008KT 110V170 CAVOK 32/11 Q1018=
201908291100 METAR LRTR 291100Z 11009KT 070V130 CAVOK 33/12 Q1018=
201908291130 METAR LRTR 291130Z 10012KT CAVOK 32/12 Q1018=
201908291200 METAR LRTR 291200Z 09010KT 050V120 CAVOK 33/12 Q1018=
201908291230 METAR COR LRTR 291230Z 10010KT CAVOK 33/11 Q1018=
201908291300 METAR COR LRTR 291300Z 06008KT CAVOK 33/11 Q1017=
201908291330 METAR LRTR 291330Z 09007KT 060V120 CAVOK 34/12 Q1017=
201908291400 METAR COR LRTR 291400Z 11009KT CAVOK 33/12 Q1017=
201908291430 METAR LRTR 291430Z 09007KT CAVOK 33/11 Q1017=
201908291500 METAR LRTR 291500Z 11007KT 070V140 CAVOK 33/12 Q1017=
201908291530 METAR LRTR 291530Z 08005KT 050V110 CAVOK 32/12 Q1017=
201908291600 METAR LRTR 291600Z 07005KT CAVOK 32/13 Q1017=
201908291630 METAR LRTR 291630Z 08005KT CAVOK 31/13 Q1016=
201908291700 METAR LRTR 291700Z 06006KT CAVOK 28/13 Q1017=
201908291730 METAR LRTR 291730Z 04005KT CAVOK 26/13 Q1017=
201908291800 METAR LRTR 291800Z 04004KT CAVOK 25/13 Q1017=
201908291830 METAR LRTR 291830Z 04004KT CAVOK 24/13 Q1017=
201908291900 METAR LRTR 291900Z 07006KT CAVOK 23/13 Q1017=
201908291930 METAR LRTR 291930Z 05005KT CAVOK 23/13 Q1017=
201908292000 METAR LRTR 292000Z 08005KT CAVOK 22/13 Q1017=
201908292030 METAR LRTR 292030Z 09004KT CAVOK 22/14 Q1018=
201908292100 METAR LRTR 292100Z 09003KT CAVOK 22/15 Q1018=
201908292130 METAR LRTR 292130Z 11001KT CAVOK 22/14 Q1018=
201908292200 METAR LRTR 292200Z 10005KT CAVOK 20/15 Q1018=
201908292230 METAR LRTR 292230Z 08006KT CAVOK 19/15 Q1018=
201908292300 METAR LRTR 292300Z 08006KT CAVOK 18/16 Q1018=
201908292330 METAR LRTR 292330Z 09004KT CAVOK 19/15 Q1018=
201908300000 METAR LRTR 300000Z 10006KT CAVOK 18/16 Q1018=
201908300030 METAR LRTR 300030Z 09006KT CAVOK 18/16 Q1018=
201908300100 METAR LRTR 300100Z 09005KT CAVOK 18/16 Q1018=
201908300130 METAR LRTR 300130Z 11004KT CAVOK 18/16 Q1018=
201908300200 METAR LRTR 300200Z 08005KT CAVOK 17/16 Q1018=
201908300230 METAR LRTR 300230Z 08005KT CAVOK 18/16 Q1018=
201908300300 METAR LRTR 300300Z 08006KT CAVOK 18/16 Q1018=
201908300330 METAR LRTR 300330Z 09006KT CAVOK 18/16 Q1018=
201908300400 METAR LRTR 300400Z 07005KT CAVOK 18/16 Q1018=
201908300430 METAR LRTR 300430Z 08004KT CAVOK 18/16 Q1018 NOSIG=
201908300500 METAR LRTR 300500Z VRB02KT CAVOK 19/17 Q1018 NOSIG=
201908300530 METAR LRTR 300530Z 07004KT CAVOK 22/17 Q1019 NOSIG=
201908300600 METAR LRTR 300600Z 07007KT CAVOK 23/17 Q1019 NOSIG=
201908300630 METAR LRTR 300630Z 09005KT 060V120 CAVOK 25/17 Q1019 NOSIG=
201908300700 METAR LRTR 300700Z 11007KT CAVOK 26/17 Q1019 NOSIG=
201908300730 METAR LRTR 300730Z 12009KT CAVOK 27/15 Q1019 NOSIG=
201908300800 METAR LRTR 300800Z 10005KT 060V140 CAVOK 28/16 Q1019 NOSIG=
201908300830 METAR LRTR 300830Z 10005KT 070V130 CAVOK 29/16 Q1019 NOSIG=
201908300900 METAR LRTR 300900Z VRB03KT CAVOK 30/16 Q1019 NOSIG=
201908300930 METAR LRTR 300930Z VRB01KT CAVOK 31/16 Q1019 NOSIG=
201908301000 METAR LRTR 301000Z 01006KT 340V050 CAVOK 32/14 Q1019 NOSIG=
201908301030 METAR LRTR 301030Z 03004KT 330V130 CAVOK 33/13 Q1019 NOSIG=
201908301100 METAR LRTR 301100Z 36006KT 320V030 CAVOK 33/13 Q1018 NOSIG=
201908301130 METAR LRTR 301130Z VRB02KT CAVOK 34/12 Q1018 NOSIG=
201908301200 METAR LRTR 301200Z 36005KT 310V070 CAVOK 34/12 Q1018 NOSIG=
201908301230 METAR LRTR 301230Z 02006KT CAVOK 32/12 Q1018 NOSIG=
201908301300 METAR LRTR 301300Z 04005KT 350V080 9999 FEW050TCU 34/12 Q1017
                        NOSIG=
201908301330 METAR LRTR 301330Z 05005KT 020V100 9999 VCTS FEW050CB 34/12
                        Q1017 RETS NOSIG=
201908301400 METAR LRTR 301400Z 15010KT 9999 FEW050CB 33/13 Q1017 NOSIG=
201908301430 METAR LRTR 301430Z 17006KT 150V210 9999 FEW050CB 33/12 Q1016
                        NOSIG=
201908301500 METAR LRTR 301500Z 30004KT 260V360 9999 FEW050CB 32/14 Q1017
                        NOSIG=
201908301530 METAR LRTR 301530Z 27006KT 9999 FEW050CB 30/15 Q1016 TEMPO
                        TS=
201908301600 METAR LRTR 301600Z 29008KT 9999 TS FEW050CB 28/14 Q1017=
201908301630 METAR LRTR 301630Z 31008KT 9999 FEW050CB 28/14 Q1017 RETS=
201908301700 METAR LRTR 301700Z 30005KT 9999 FEW050CB 26/15 Q1017=
201908301730 METAR COR LRTR 301730Z 32006KT 9999 FEW050CB 25/15 Q1017=
201908301800 METAR LRTR 301800Z 12007KT 9999 FEW050CB 25/14 Q1018=
201908301830 METAR LRTR 301830Z 04003KT 9999 FEW050CB 24/15 Q1018=
201908301900 METAR LRTR 301900Z 09004KT 9999 FEW050CB 24/15 Q1018=
201908301930 METAR LRTR 301930Z 04003KT 010V110 CAVOK 22/15 Q1018=
201908302000 METAR LRTR 302000Z 33005KT CAVOK 21/15 Q1018=
201908302030 METAR LRTR 302030Z 33003KT CAVOK 20/16 Q1018=
201908302100 METAR LRTR 302100Z 05004KT CAVOK 20/15 Q1018=
201908302130 METAR LRTR 302130Z 10005KT CAVOK 19/15 Q1018=
201908302200 METAR LRTR 302200Z 11008KT CAVOK 19/16 Q1018=
201908302230 METAR LRTR 302230Z 10005KT CAVOK 18/16 Q1018=
201908302300 METAR LRTR 302300Z 09007KT CAVOK 18/16 Q1018=
201908302330 METAR LRTR 302330Z 09006KT CAVOK 18/16 Q1018=
201908310000 METAR COR LRTR 310000Z 11007KT CAVOK 17/16 Q1017=
201908310030 METAR LRTR 310030Z 10004KT CAVOK 17/16 Q1017=
201908310100 METAR COR LRTR 310100Z 10006KT CAVOK 17/16 Q1017=
201908310130 METAR COR LRTR 310130Z 09005KT CAVOK 17/16 Q1017=
201908310200 METAR LRTR 310200Z 10007KT CAVOK 17/16 Q1017=
201908310230 METAR COR LRTR 310230Z 09006KT CAVOK 18/16 Q1017=
201908310300 METAR LRTR 310300Z 08007KT CAVOK 19/17 Q1017=
201908310330 METAR LRTR 310330Z 08005KT CAVOK 18/16 Q1017=
201908310400 METAR LRTR 310400Z 10005KT CAVOK 17/16 Q1018=
201908310430 METAR LRTR 310430Z 12004KT CAVOK 18/16 Q1018=
201908310500 METAR LRTR 310500Z 10006KT CAVOK 19/17 Q1018=
201908310530 METAR LRTR 310530Z 11008KT CAVOK 20/18 Q1018=
201908310600 METAR LRTR 310600Z 11010KT CAVOK 22/17 Q1018=
201908310630 METAR LRTR 310630Z 11010KT CAVOK 23/16 Q1018=
201908310700 METAR LRTR 310700Z 12011KT CAVOK 24/16 Q1018=
201908310730 METAR LRTR 310730Z 12009KT CAVOK 26/16 Q1018=
201908310800 METAR LRTR 310800Z 12009KT 080V150 CAVOK 27/16 Q1018=
201908310830 METAR LRTR 310830Z 14007KT CAVOK 28/15 Q1018=
201908310900 METAR LRTR 310900Z 17006KT 130V200 CAVOK 30/15 Q1018=
201908310930 METAR LRTR 310930Z 19004KT 140V230 CAVOK 30/14 Q1018=
201908311000 METAR LRTR 311000Z 17004KT 130V220 CAVOK 31/14 Q1017=
201908311030 METAR LRTR 311030Z 26004KT 190V310 CAVOK 31/14 Q1017=
201908311100 METAR LRTR 311100Z 21005KT 170V250 CAVOK 32/13 Q1017=
201908311130 METAR LRTR 311130Z 20004KT 140V260 CAVOK 33/12 Q1017=
201908311200 METAR LRTR 311200Z VRB05KT CAVOK 33/13 Q1016=
201908311230 METAR LRTR 311230Z VRB04KT CAVOK 33/12 Q1016=
201908311300 METAR LRTR 311300Z VRB04KT CAVOK 33/12 Q1015=
201908311330 METAR LRTR 311330Z 19005KT 110V240 CAVOK 33/12 Q1015=
201908311400 METAR LRTR 311400Z 10005KT 060V140 CAVOK 33/09 Q1015=
201908311430 METAR LRTR 311430Z VRB01KT 9999 FEW055CB 34/10 Q1015=
201908311500 METAR LRTR 311500Z 11003KT 060V170 9999 FEW055CB 33/10 Q1014=
201908311530 METAR LRTR 311530Z 11006KT CAVOK 33/11 Q1014=
201908311600 METAR LRTR 311600Z 13006KT 9999 FEW055CB 32/12 Q1014=
201908311630 METAR LRTR 311630Z 10006KT 9999 FEW055CB 31/12 Q1014 BECMG
                        NSC=
201908311700 METAR LRTR 311700Z 10007KT 9999 FEW055CB 29/11 Q1014 BECMG
                        NSC=
201908311730 METAR LRTR 311730Z 08007KT CAVOK 27/11 Q1014 NOSIG=
201908311800 METAR LRTR 311800Z 08006KT CAVOK 24/12 Q1014 NOSIG=
201908311830 METAR LRTR 311830Z 07008KT CAVOK 23/11 Q1015 NOSIG=
201908311900 METAR LRTR 311900Z 08008KT CAVOK 24/10 Q1015 NOSIG=
201908311930 METAR LRTR 311930Z 10006KT CAVOK 22/11 Q1015 NOSIG=
201908312000 METAR LRTR 312000Z 10007KT CAVOK 20/12 Q1015 NOSIG=
201908312030 METAR LRTR 312030Z 11008KT CAVOK 20/13 Q1015 NOSIG=
201908312100 METAR LRTR 312100Z 10007KT CAVOK 20/13 Q1015 NOSIG=
201908312130 METAR LRTR 312130Z 09005KT CAVOK 19/13 Q1015 NOSIG=
201908312200 METAR LRTR 312200Z 09006KT CAVOK 19/13 Q1015 NOSIG=
201908312230 METAR LRTR 312230Z 10007KT CAVOK 20/14 Q1015 NOSIG=
201908312300 METAR LRTR 312300Z 11008KT CAVOK 19/15 Q1015 NOSIG=
201908312330 METAR LRTR 312330Z 11008KT CAVOK 18/15 Q1015 NOSIG=
