201909010500 TAF LRTR 010500Z 0106/0206 12008KT CAVOK=
201909011100 TAF LRTR 011100Z 0112/0212 14008KT CAVOK=
201909011700 TAF LRTR 011700Z 0118/0218 VRB04KT CAVOK=
201909012300 TAF LRTR 012300Z 0200/0224 VRB04KT CAVOK=
201909020500 TAF LRTR 020500Z 0206/0306 12012KT CAVOK
                      BECMG 0214/0216 VRB03KT
                      BECMG 0301/0303 33010KT=
201909021100 TAF LRTR 021100Z 0212/0312 15010KT CAVOK
                      BECMG 0214/0216 VRB03KT
                      BECMG 0301/0303 33010KT
                      BECMG 0310/0312 SCT040CB=
201909021700 TAF LRTR 021700Z 0218/0318 VRB04KT CAVOK
                      BECMG 0302/0304 33010KT
                      TEMPO 0313/0318 SCT040CB
                      PROB40 TEMPO 0314/0318 VRB15G25KT 5000 -TSRA=
201909022300 TAF LRTR 022300Z 0300/0324 09006KT CAVOK
                      BECMG 0302/0304 33010KT
                      TEMPO 0313/0318 SCT040CB
                      PROB40 TEMPO 0314/0318 VRB15G25KT 5000 -TSRA=
201909030500 TAF LRTR 030500Z 0306/0406 25006KT CAVOK
                      BECMG 0307/0309 33012KT
                      PROB30 TEMPO 0315/0318 33015G25KT FEW030CB
                       SCT040
                      TEMPO 0318/0321 5000 -RA BKN015 BKN030
                      TEMPO 0321/0404 BKN010=
201909031100 TAF LRTR 031100Z 0312/0412 30012KT 9999 SCT040
                      TEMPO 0312/0316 33015G25KT FEW030CB BKN040
                       TEMPO 0316/0321 36010KT 5000 -RA BKN015
                       BKN040
                      TEMPO 0321/0404 BKN010=
201909031700 TAF LRTR 031700Z 0318/0418 35012KT 9999 SCT040
                      TEMPO 0318/0323 5000 -RA BKN015 SCT030CB
                       BKN040=
201909032300 TAF LRTR 032300Z 0400/0424 35010KT CAVOK
                      PROB30 TEMPO 0400/0406 BKN010=
201909040500 TAF LRTR 040500Z 0406/0506 35006KT CAVOK=
201909041100 TAF LRTR 041100Z 0412/0512 35006KT CAVOK=
201909041700 TAF LRTR 041700Z 0418/0518 35005KT CAVOK=
201909042300 TAF LRTR 042300Z 0500/0524 VRB04KT CAVOK
                      TEMPO 0510/0515 35010KT=
201909050500 TAF LRTR 050500Z 0506/0606 VRB04KT CAVOK
                      TEMPO 0510/0515 35010KT=
201909051100 TAF LRTR 051100Z 0512/0612 VRB04KT CAVOK
                      BECMG 0606/0608 02012KT=
201909051700 TAF LRTR 051700Z 0518/0618 VRB04KT CAVOK=
201909052300 TAF LRTR 052300Z 0600/0624 VRB04KT CAVOK=
201909060500 TAF LRTR 060500Z 0606/0706 VRB04KT CAVOK
                      BECMG 0702/0704 13010KT=
201909061100 TAF LRTR 061100Z 0612/0712 VRB04KT 9999 FEW045
                      BECMG 0702/0704 13010KT=
201909061700 TAF LRTR 061700Z 0618/0718 VRB04KT CAVOK
                      BECMG 0702/0704 13010KT=
201909062300 TAF LRTR 062300Z 0700/0724 VRB04KT CAVOK
                      BECMG 0702/0704 15010KT
                      TEMPO 0711/0716 15015G25KT
                      BECMG 0721/0723 VRB04KT=
201909070500 TAF LRTR 070500Z 0706/0806 13008KT CAVOK
                      TEMPO 0711/0716 13015G25KT
                      PROB40 TEMPO 0718/0722 VRB20KT 5000 TSRA
                       SCT050CB
                      BECMG 0800/0802 SCT040CB
                      PROB40 TEMPO 0800/0804 32015G25KT 3000 TSRA=
201909071100 TAF LRTR 071100Z 0712/0812 16008KT CAVOK
                      PROB40 TEMPO 0717/0722 VRB20KT TSRA SCT050CB
                       BECMG 0722/0724 SCT040CB
                      TEMPO 0800/0806 VRB15G25KT 5000 TSRA
                      BECMG 0807/0809 NSC=
201909071700 TAF LRTR 071700Z 0718/0818 VRB04KT 9999 SCT045CB
                      TEMPO 0718/0803 VRB15G25KT 5000 -TSRA SCT040CB
                       TEMPO 0803/0807 3000 -RA -SHRA BKN010 SCT035CB
                       BKN040
                      BECMG 0807/0809 NSC
                      BECMG 0815/0817 14012KT=
201909072300 TAF AMD LRTR 080137Z 0801/0824 VRB04KT CAVOK
                      TEMPO 0801/0808 3000 -SHRA BKN010 SCT035CB
                       BKN040
                      BECMG 0815/0817 14012KT=
201909080137 TAF AMD LRTR 080137Z 0801/0824 VRB04KT CAVOK
                      TEMPO 0801/0808 3000 -SHRA BKN010 SCT035CB
                       BKN040
                      BECMG 0815/0817 14012KT=
201909080500 TAF LRTR 080500Z 0806/0906 VRB04KT CAVOK
                      PROB40 TEMPO 0806/0809 5000 -SHRA SCT035CB
                       BKN040
                      BECMG 0815/0817 14012KT=
201909081100 TAF LRTR 081100Z 0812/0912 18008KT CAVOK
                      BECMG 0908/0910 16018KT SCT040CB=
201909081700 TAF LRTR 081700Z 0818/0918 11008KT CAVOK
                      PROB40 TEMPO 0823/0906 FEW040CB
                      BECMG 0907/0909 17014KT
                      TEMPO 0909/0916 17018G28KT
                      TEMPO 0914/0917 3000 TSRA SCT010 SCT040CB=
201909082300 TAF LRTR 082300Z 0900/0924 10008KT CAVOK
                      PROB40 TEMPO 0900/0906 FEW040CB
                      BECMG 0907/0909 17014KT
                      TEMPO 0909/0916 17016G27KT
                      PROB40 TEMPO 0914/0917 3000 TSRA SCT040CB
                       TEMPO 0917/0921 5000 SHRA SCT010 SCT040CB
                       BECMG 0917/0919 VRB04KT=
201909090500 TAF LRTR 090500Z 0906/1006 10008KT CAVOK
                      BECMG 0907/0909 17016KT
                      TEMPO 0909/0913 17020G30KT
                      TEMPO 0913/0917 VRB30G40KT 3000 TSRA SCT010
                       BKN030CB
                      BECMG 0917/0919 VRB04KT
                      TEMPO 0917/0922 5000 SHRA SCT035CB=
201909091100 TAF LRTR 091100Z 0912/1012 16016KT CAVOK
                      TEMPO 0913/0917 VRB30G40KT 3000 TSRA SCT010
                       BKN030CB
                      BECMG 0917/0919 VRB04KT
                      TEMPO 0917/0922 5000 SHRA SCT035CB=
201909091700 TAF LRTR 091700Z 0918/1018 32010KT 9999 SCT045
                      TEMPO 0918/0922 5000 TSRA SCT010 SCT035CB
                       BECMG 0922/0924 VRB04KT
                      TEMPO 1000/1004 3000 BR
                      BECMG 1009/1011 02010KT=
201909092300 TAF AMD LRTR 100325Z 1003/1024 VRB04KT 0600 FG BKN002
                      PROB30 TEMPO 1003/1004 0350 FG OVC001
                      BECMG 1004/1006 3000 BR BKN005
                      BECMG 1006/1008 CAVOK
                      BECMG 1008/1010 02010KT
                      BECMG 1020/1022 VRB04KT=
201909100325 TAF AMD LRTR 100325Z 1003/1024 VRB04KT 0600 FG BKN002
                      PROB30 TEMPO 1003/1004 0350 FG OVC001
                      BECMG 1004/1006 3000 BR BKN005
                      BECMG 1006/1008 CAVOK
                      BECMG 1008/1010 02010KT
                      BECMG 1020/1022 VRB04KT=
201909100500 TAF LRTR 100500Z 1006/1106 02008KT 9999 BKN025
                      TEMPO 1006/1007 5000 BR BKN010
                      BECMG 1022/1024 3000 BR BKN005
                      BECMG 1100/1102 0800 FG BKN002
                      PROB40 TEMPO 1102/1105 0150 FG VV001=
201909101100 TAF LRTR 101100Z 1012/1112 02008KT CAVOK
                      BECMG 1100/1102 5000 BR
                      PROB40 TEMPO 1102/1104 1500 BR BKN005
                      BECMG 1104/1106 CAVOK=
201909101700 TAF LRTR 101700Z 1018/1118 VRB04KT CAVOK
                      TEMPO 1100/1105 3000 BR
                      BECMG 1106/1108 02012KT=
201909102300 TAF LRTR 102300Z 1100/1124 03008KT CAVOK
                      TEMPO 1100/1105 3000 BR=
201909110500 TAF LRTR 110500Z 1106/1206 06006KT CAVOK=
201909111100 TAF LRTR 111100Z 1112/1212 VRB04KT CAVOK
                      BECMG 1209/1211 34010KT=
201909111700 TAF LRTR 111700Z 1118/1218 VRB04KT CAVOK
                      BECMG 1210/1212 34010KT=
201909112300 TAF LRTR 112300Z 1200/1224 VRB04KT CAVOK
                      BECMG 1210/1212 34010KT
                      BECMG 1217/1219 VRB04KT=
201909120500 TAF LRTR 120500Z 1206/1306 VRB04KT CAVOK
                      BECMG 1209/1211 01010KT
                      TEMPO 1210/1216 SCT040CB
                      BECMG 1222/1224 VRB04KT=
201909121100 TAF LRTR 121100Z 1212/1312 01012KT CAVOK
                      BECMG 1222/1224 VRB04KT=
201909121700 TAF LRTR 121700Z 1218/1318 33008KT CAVOK=
201909122300 TAF LRTR 122300Z 1300/1324 33007KT CAVOK=
201909130500 TAF LRTR 130500Z 1306/1406 32008KT CAVOK=
201909131100 TAF LRTR 131100Z 1312/1412 32008KT CAVOK=
201909131700 TAF LRTR 131700Z 1318/1418 32006KT CAVOK
                      BECMG 1409/1411 02010KT=
201909132300 TAF LRTR 132300Z 1400/1424 VRB04KT CAVOK
                      BECMG 1409/1411 01010KT=
201909140500 TAF LRTR 140500Z 1406/1506 VRB03KT CAVOK
                      BECMG 1407/1409 01012KT
                      TEMPO 1412/1416 01015G25KT=
201909141100 TAF LRTR 141100Z 1412/1512 01010KT CAVOK
                      TEMPO 1412/1416 01015G25KT=
201909141700 TAF LRTR 141700Z 1418/1518 36008KT CAVOK=
201909142300 TAF LRTR 142300Z 1500/1524 36008KT CAVOK=
201909150500 TAF LRTR 150500Z 1506/1606 05008KT CAVOK=
201909151100 TAF LRTR 151100Z 1512/1612 VRB04KT CAVOK=
201909151700 TAF LRTR 151700Z 1518/1618 VRB04KT CAVOK=
201909152300 TAF LRTR 152300Z 1600/1624 VRB04KT CAVOK=
201909160500 TAF LRTR 160500Z 1606/1706 VRB04KT CAVOK=
201909161100 TAF LRTR 161100Z 1612/1712 VRB04KT CAVOK
                      BECMG 1709/1711 28013KT=
201909161721 TAF COR LRTR 161721Z 1618/1718 VRB04KT CAVOK
                      TEMPO 1705/1709 5000 -RA BR BKN010 OVC030
                       BECMG 1709/1711 28010KT=
201909162300 TAF LRTR 162300Z 1700/1724 VRB04KT 9999 BKN045
                      TEMPO 1705/1709 5000 -RA BR BKN010 OVC030
                       BECMG 1709/1711 30010KT=
201909170500 TAF LRTR 170500Z 1706/1806 VRB04KT 9999 BKN045
                      PROB40 TEMPO 1706/1710 5000 -RA BR BKN010
                       OVC030
                      BECMG 1710/1712 30010KT
                      TEMPO 1723/1804 5000 RA BR BKN010 OVC030
                       BECMG 1804/1806 34015G25KT=
201909171100 TAF LRTR 171100Z 1712/1812 26008KT CAVOK
                      BECMG 1714/1716 33010KT
                      TEMPO 1800/1805 5000 RA BR BKN010 OVC030
                       TEMPO 1808/1812 33015G25KT=
201909171700 TAF LRTR 171700Z 1718/1818 VRB03KT CAVOK
                      PROB30 TEMPO 1800/1805 5000 RA BR BKN010
                       OVC030
                      BECMG 1805/1807 31010KT
                      TEMPO 1807/1814 33015G25KT=
201909172300 TAF LRTR 172300Z 1800/1824 VRB03KT 9999 BKN045
                      TEMPO 1800/1805 5000 RA BR BKN010 OVC030
                       BECMG 1805/1807 31012KT
                      TEMPO 1807/1814 33015G25KT=
201909180500 TAF LRTR 180500Z 1806/1906 32010KT CAVOK
                      TEMPO 1807/1813 32015G25KT
                      BECMG 1818/1820 VRB04KT=
201909181100 TAF LRTR 181100Z 1812/1912 32012KT CAVOK
                      TEMPO 1812/1815 32015G25KT
                      BECMG 1818/1820 VRB04KT
                      BECMG 1907/1909 34010KT=
201909181700 TAF LRTR 181700Z 1818/1918 VRB04KT CAVOK
                      BECMG 1907/1909 34012KT=
201909182300 TAF LRTR 182300Z 1900/1924 VRB04KT CAVOK
                      BECMG 1907/1909 34012KT=
201909190500 TAF LRTR 190500Z 1906/2006 VRB04KT CAVOK
                      BECMG 1907/1909 32012KT
                      BECMG 1916/1918 02008KT=
201909191100 TAF LRTR 191100Z 1912/2012 33012KT CAVOK
                      BECMG 1916/1918 VRB04KT
                      BECMG 2007/2009 34010KT=
201909191700 TAF LRTR 191700Z 1918/2018 33008KT CAVOK=
201909192300 TAF LRTR 192300Z 2000/2024 34010KT CAVOK
                      BECMG 2019/2021 VRB04KT=
201909200500 TAF LRTR 200500Z 2006/2106 VRB04KT CAVOK
                      BECMG 2006/2008 36010KT
                      BECMG 2020/2022 VRB04KT=
201909201100 TAF LRTR 201100Z 2012/2112 02010KT CAVOK
                      BECMG 2020/2022 VRB04KT=
201909201700 TAF LRTR 201700Z 2018/2118 VRB04KT CAVOK=
201909202300 TAF LRTR 202300Z 2100/2124 VRB04KT CAVOK=
201909210500 TAF LRTR 210500Z 2106/2206 10008KT CAVOK=
201909211100 TAF LRTR 211100Z 2112/2212 08008KT CAVOK
                      BECMG 2208/2210 16010KT=
201909211700 TAF LRTR 211700Z 2118/2218 VRB04KT CAVOK
                      BECMG 2203/2205 10010KT
                      TEMPO 2211/2215 16007KT=
201909212300 TAF LRTR 212300Z 2200/2224 10010KT CAVOK
                      TEMPO 2211/2215 16007KT=
201909220500 TAF LRTR 220500Z 2206/2306 11008KT CAVOK
                      PROB30 TEMPO 2303/2306 5000 -RA -SHRA SCT035CB
                       BKN045=
201909221100 TAF LRTR 221100Z 2212/2312 15008KT CAVOK
                      TEMPO 2303/2312 5000 -SHRA SCT015 SCT035CB
                       BKN045
                      PROB40 TEMPO 2306/2309 3000 RA BKN010 BKN040
                       BECMG 2309/2311 09010KT=
201909221700 TAF LRTR 221700Z 2218/2318 VRB04KT CAVOK
                      BECMG 2306/2308 09012KT 5000 -RA BR BKN015
                       BKN040
                      TEMPO 2308/2314 3000 SHRA BKN010 SCT035CB
                       BKN040
                      BECMG 2315/2317 9999 NSW BKN020 OVC045=
201909222300 TAF LRTR 222300Z 2300/2324 VRB04KT CAVOK
                      BECMG 2306/2308 10010KT
                      TEMPO 2308/2314 5000 RA BKN010 BKN040=
201909230500 TAF LRTR 230500Z 2306/2406 11008KT CAVOK
                      TEMPO 2306/2309 FEW045CB
                      TEMPO 2318/2324 5000 -RA SCT015 FEW040CB
                       BKN045
                      BECMG 2401/2403 5000 RA BKN015 OVC040=
201909231100 TAF LRTR 231100Z 2312/2412 10010KT CAVOK
                      TEMPO 2402/2410 5000 RA BKN015 OVC040=
201909231700 TAF LRTR 231700Z 2318/2418 08008KT 9999 SCT045
                      TEMPO 2320/2416 5000 -RA
                      PROB30 TEMPO 2406/2414 3000 RA BKN015 OVC040=
201909232300 TAF LRTR 232300Z 2400/2424 VRB04KT 9999 SCT045
                      TEMPO 2401/2416 5000 -RA
                      PROB30 TEMPO 2406/2414 3000 RA BKN015 OVC040=
201909240500 TAF LRTR 240500Z 2406/2506 VRB04KT 9999 BKN045
                      PROB40 TEMPO 2406/2410 5000 -RA -SHRA SCT040CB
                       BKN045
                      TEMPO 2500/2504 5000 BR BKN010
                      BECMG 2504/2506 18010KT=
201909241100 TAF LRTR 241100Z 2412/2512 VRB04KT 9999 BKN045
                      TEMPO 2500/2504 5000 BR BKN010
                      BECMG 2504/2506 19010KT
                      TEMPO 2506/2510 5000 -RA BR BKN010 BKN040=
201909241700 TAF LRTR 241700Z 2418/2518 VRB04KT 9999 BKN045
                      BECMG 2422/2424 5000 BR BKN015 BKN040
                      TEMPO 2500/2505 3000 -RA BR BKN010 BKN035
                       BECMG 2505/2507 20010KT 9999 NSW BKN035=
201909242300 TAF LRTR 242300Z 2500/2524 VRB04KT 5000 BR NSC
                      TEMPO 2500/2505 3000 -RA BR BKN015 BKN040
                       BECMG 2506/2508 20010KT 9999 NSW
                      BECMG 2514/2516 VRB04KT=
201909250500 TAF LRTR 250500Z 2506/2606 VRB04KT 3000 BR BKN010 OVC040
                      TEMPO 2506/2507 1500 BR BKN005 BKN035
                      BECMG 2507/2509 20010KT 9999 NSW BKN045
                      BECMG 2514/2516 VRB04KT
                      BECMG 2522/2524 5000 BR BKN015 BKN040
                      BECMG 2601/2603 3000 RA BR BKN005 OVC035=
201909251100 TAF LRTR 251100Z 2512/2612 17008KT 9999 SCT015 BKN040
                      BECMG 2522/2524 5000 BR BKN010 BKN035
                      BECMG 2600/2602 -RA
                      TEMPO 2604/2610 3000 RA BR
                      PROB40 TEMPO 2608/2611 1500 SHRA BKN005 SCT025CB
                       OVC030=
201909251700 TAF LRTR 251700Z 2518/2618 VRB04KT 9999 BKN035
                      PROB40 TEMPO 2523/2603 5000 -RA -SHRA BKN015
                       SCT030CB BKN035
                      TEMPO 2603/2606 3000 BR BKN010 BKN035
                      TEMPO 2608/2614 3000 RA SHRA BKN010 SCT030CB
                       OVC035
                      BECMG 2610/2612 31010KT=
201909252300 TAF LRTR 252300Z 2600/2624 VRB04KT 9999 BKN035
                      PROB40 TEMPO 2600/2603 5000 -RA -SHRA BKN015
                       SCT030CB BKN035
                      TEMPO 2603/2606 3000 BR BKN010 BKN035
                      TEMPO 2608/2613 3000 RA SHRA BKN010 SCT030CB
                       OVC035
                      BECMG 2610/2612 31010KT
                      BECMG 2620/2622 VRB04KT 3000 BR BKN010=
201909260500 TAF LRTR 260500Z 2606/2706 VRB04KT 9999 -RA BKN030
                      BECMG 2606/2608 31010KT 5000 -RA BR BKN015
                       BKN025
                      TEMPO 2608/2612 3000 RA BKN010 FEW025CB BKN030
                       BECMG 2612/2614 9999 NSW SCT015 SCT030
                      BECMG 2616/2618 24005KT
                      BECMG 2620/2622 5000 BR
                      TEMPO 2702/2706 3000 BR BKN010=
201909261100 TAF LRTR 261100Z 2612/2712 30010KT 5000 -RA BR BKN010 BKN025
                      PROB30 TEMPO 2612/2613 3000 SHRA BKN005 SCT025CB
                       BKN030
                      BECMG 2613/2615 VRB04KT 9999 NSW SCT015 SCT030
                       BECMG 2620/2622 5000 BR
                      TEMPO 2702/2706 3000 BR BKN010
                      PROB30 TEMPO 2703/2706 1500 BR BKN002
                      BECMG 2706/2708 9999 NSW=
201909261700 TAF LRTR 261700Z 2618/2718 VRB04KT CAVOK
                      TEMPO 2618/2620 SCT030CB
                      BECMG 2620/2622 5000 BR BKN015
                      TEMPO 2701/2706 1500 BR BKN005
                      BECMG 2706/2708 9999 NSW SCT030=
201909262300 TAF AMD LRTR 270458Z 2704/2724 VRB04KT 0350 FG BKN002
                      BECMG 2705/2706 1500 BR SCT005
                      BECMG 2707/2709 CAVOK=
201909270458 TAF AMD LRTR 270458Z 2704/2724 VRB04KT 0350 FG BKN002
                      BECMG 2705/2706 1500 BR SCT005
                      BECMG 2707/2709 CAVOK=
201909270500 TAF LRTR 270500Z 2706/2806 10006KT 0300 FG SCT001
                      BECMG 2706/2707 1500 BR
                      BECMG 2707/2709 CAVOK=
201909271100 TAF LRTR 271100Z 2712/2812 VRB04KT CAVOK
                      TEMPO 2800/2805 3000 BR BKN005=
201909271700 TAF LRTR 271700Z 2718/2818 12006KT CAVOK=
201909272300 TAF LRTR 272300Z 2800/2824 10006KT CAVOK
                      PROB30 TEMPO 2800/2805 3000 BR=
201909280500 TAF LRTR 280500Z 2806/2906 10010KT CAVOK
                      BECMG 2810/2812 20008KT
                      BECMG 2814/2816 33010KT
                      BECMG 2820/2822 VRB04KT
                      TEMPO 2901/2905 3000 BR=
201909281100 TAF LRTR 281100Z 2812/2912 20008KT CAVOK
                      BECMG 2814/2816 33010KT
                      BECMG 2818/2820 VRB04KT
                      TEMPO 2901/2906 5000 BR=
201909281700 TAF LRTR 281700Z 2818/2918 VRB04KT CAVOK
                      TEMPO 2901/2906 5000 BR=
201909282300 TAF LRTR 282300Z 2900/2924 VRB04KT CAVOK
                      PROB30 TEMPO 2903/2906 5000 BR=
201909290500 TAF LRTR 290500Z 2906/3006 VRB04KT CAVOK
                      TEMPO 3000/3005 3000 BR=
201909291100 TAF LRTR 291100Z 2912/3012 VRB04KT CAVOK
                      BECMG 3005/3007 22012KT=
201909291700 TAF LRTR 291700Z 2918/3018 VRB04KT CAVOK
                      BECMG 3008/3011 28012KT=
201909292300 TAF LRTR 292300Z 3000/3024 VRB04KT CAVOK
                      BECMG 3009/3011 28012KT
                      BECMG 3018/3020 34012KT
                      BECMG 3022/3024 VRB04KT=
201909300500 TAF LRTR 300500Z 3006/0106 VRB04KT CAVOK
                      BECMG 3008/3010 27010KT
                      TEMPO 3016/3021 34020KT 5000 -SHRA SCT040CB
                       BECMG 3022/3024 VRB04KT=
201909301100 TAF LRTR 301100Z 3012/0112 25010KT 9999 SCT045
                      BECMG 3016/3018 33010KT
                      TEMPO 3016/3021 33015G25KT SCT040CB
                      BECMG 0100/0102 VRB04KT=
201909301700 TAF LRTR 301700Z 3018/0118 25007KT CAVOK
                      BECMG 3019/3021 34012KT
                      BECMG 0105/0107 VRB04KT=
201909302300 TAF LRTR 302300Z 0100/0124 34008KT CAVOK
                      TEMPO 0101/0105 3000 BR=
