201909010000 METAR LRTR 010000Z 11007KT CAVOK 18/15 Q1015 NOSIG=
201909010030 METAR LRTR 010030Z 12008KT CAVOK 18/15 Q1015 NOSIG=
201909010100 METAR LRTR 010100Z 11008KT CAVOK 17/14 Q1015 NOSIG=
201909010130 METAR LRTR 010130Z 11008KT CAVOK 17/14 Q1015 NOSIG=
201909010200 METAR LRTR 010200Z 11008KT CAVOK 17/14 Q1015 NOSIG=
201909010230 METAR LRTR 010230Z 11007KT CAVOK 16/14 Q1015 NOSIG=
201909010300 METAR LRTR 010300Z 12008KT CAVOK 16/14 Q1015 NOSIG=
201909010330 METAR LRTR 010330Z 11008KT CAVOK 16/14 Q1015 NOSIG=
201909010400 METAR LRTR 010400Z 12008KT CAVOK 15/14 Q1015 NOSIG=
201909010430 METAR LRTR 010430Z 12008KT CAVOK 16/14 Q1015=
201909010500 METAR LRTR 010500Z 11007KT CAVOK 18/15 Q1015=
201909010530 METAR LRTR 010530Z 11008KT CAVOK 20/15 Q1015=
201909010600 METAR LRTR 010600Z 11009KT CAVOK 22/14 Q1015=
201909010630 METAR LRTR 010630Z 11010KT CAVOK 23/14 Q1015=
201909010700 METAR LRTR 010700Z 12008KT CAVOK 25/13 Q1015=
201909010730 METAR LRTR 010730Z 10007KT 070V130 CAVOK 26/13 Q1015=
201909010800 METAR LRTR 010800Z 14005KT CAVOK 27/11 Q1015=
201909010830 METAR LRTR 010830Z 15006KT 120V190 CAVOK 28/11 Q1015=
201909010900 METAR LRTR 010900Z 16006KT 120V190 CAVOK 29/10 Q1015=
201909010930 METAR LRTR 010930Z 17005KT 130V260 CAVOK 30/09 Q1015=
201909011000 METAR LRTR 011000Z 15007KT 110V220 CAVOK 31/10 Q1014=
201909011030 METAR LRTR 011030Z 15005KT 110V180 CAVOK 31/09 Q1014=
201909011100 METAR LRTR 011100Z 11004KT 030V140 CAVOK 31/10 Q1014=
201909011130 METAR LRTR 011130Z 15008KT 110V180 CAVOK 32/10 Q1014=
201909011200 METAR LRTR 011200Z 08005KT 050V130 CAVOK 32/10 Q1013=
201909011230 METAR LRTR 011230Z 12007KT 050V170 CAVOK 32/10 Q1013=
201909011300 METAR LRTR 011300Z 09004KT 360V150 CAVOK 32/09 Q1013=
201909011330 METAR LRTR 011330Z VRB03KT CAVOK 32/09 Q1012=
201909011400 METAR LRTR 011400Z 16005KT 130V190 CAVOK 32/10 Q1012=
201909011430 METAR LRTR 011430Z 11005KT 070V140 CAVOK 32/09 Q1012=
201909011500 METAR LRTR 011500Z 18005KT 120V210 CAVOK 32/10 Q1012=
201909011530 METAR LRTR 011530Z 14003KT 110V200 CAVOK 32/08 Q1012=
201909011600 METAR LRTR 011600Z 10003KT 040V130 CAVOK 31/10 Q1012=
201909011630 METAR LRTR 011630Z 07003KT CAVOK 30/10 Q1012=
201909011700 METAR LRTR 011700Z 10004KT CAVOK 29/10 Q1012=
201909011730 METAR LRTR 011730Z 08004KT CAVOK 27/10 Q1012=
201909011800 METAR LRTR 011800Z 07005KT CAVOK 23/13 Q1012=
201909011830 METAR LRTR 011830Z 07006KT CAVOK 23/12 Q1012=
201909011900 METAR LRTR 011900Z 08005KT CAVOK 22/12 Q1013=
201909011930 METAR LRTR 011930Z 15004KT CAVOK 23/13 Q1013=
201909012000 METAR LRTR 012000Z 15005KT 110V190 CAVOK 21/13 Q1013=
201909012030 METAR LRTR 012030Z 16003KT CAVOK 22/12 Q1013=
201909012100 METAR LRTR 012100Z 17004KT 110V200 CAVOK 21/12 Q1013=
201909012130 METAR LRTR 012130Z 10006KT CAVOK 18/13 Q1013=
201909012200 METAR LRTR 012200Z 10006KT CAVOK 18/13 Q1013=
201909012230 METAR LRTR 012230Z 09005KT CAVOK 17/13 Q1013=
201909012300 METAR LRTR 012300Z 09005KT CAVOK 17/13 Q1013=
201909012330 METAR LRTR 012330Z 10006KT CAVOK 17/13 Q1013=
201909020000 METAR LRTR 020000Z 09007KT CAVOK 17/13 Q1013=
201909020030 METAR LRTR 020030Z 10008KT CAVOK 17/13 Q1013=
201909020100 METAR LRTR 020100Z 09007KT CAVOK 16/13 Q1013=
201909020130 METAR LRTR 020130Z 10007KT CAVOK 16/13 Q1013=
201909020200 METAR LRTR 020200Z 10006KT CAVOK 16/14 Q1014=
201909020230 METAR LRTR 020230Z 10007KT CAVOK 17/14 Q1013=
201909020300 METAR LRTR 020300Z 11007KT CAVOK 15/14 Q1013=
201909020330 METAR LRTR 020330Z 10008KT CAVOK 17/14 Q1014=
201909020400 METAR LRTR 020400Z 10009KT CAVOK 17/15 Q1013=
201909020430 METAR LRTR 020430Z 10009KT CAVOK 17/15 Q1014=
201909020500 METAR LRTR 020500Z 11009KT CAVOK 18/15 Q1014=
201909020530 METAR LRTR 020530Z 10009KT CAVOK 19/14 Q1014=
201909020600 METAR COR LRTR 020600Z 10009KT CAVOK 21/14 Q1014=
201909020630 METAR LRTR 020630Z 10010KT CAVOK 23/13 Q1014=
201909020700 METAR LRTR 020700Z 11010KT CAVOK 24/12 Q1014=
201909020730 METAR LRTR 020730Z 11009KT CAVOK 25/12 Q1014=
201909020800 METAR LRTR 020800Z 11007KT 080V150 CAVOK 27/12 Q1014=
201909020830 METAR LRTR 020830Z 13006KT 100V160 CAVOK 29/09 Q1014=
201909020900 METAR LRTR 020900Z 17007KT 120V200 CAVOK 30/08 Q1014=
201909020930 METAR LRTR 020930Z 17008KT CAVOK 30/07 Q1014=
201909021000 METAR LRTR 021000Z 17006KT 110V220 CAVOK 31/07 Q1014=
201909021030 METAR COR LRTR 021030Z 15006KT 100V190 CAVOK 31/07 Q1014=
201909021100 METAR LRTR 021100Z 15006KT 090V210 CAVOK 32/08 Q1014=
201909021130 METAR LRTR 021130Z VRB03KT CAVOK 32/07 Q1013=
201909021200 METAR LRTR 021200Z VRB05KT CAVOK 33/08 Q1013=
201909021230 METAR LRTR 021230Z 20006KT 150V250 CAVOK 33/08 Q1013=
201909021300 METAR LRTR 021300Z VRB03KT CAVOK 33/07 Q1013=
201909021330 METAR LRTR 021330Z VRB03KT CAVOK 33/06 Q1013=
201909021400 METAR LRTR 021400Z AUTO VRB03KT 9999 NCD 33/06 Q1013=
201909021430 METAR LRTR 021430Z VRB02KT CAVOK 33/06 Q1012=
201909021500 METAR COR LRTR 021500Z 11004KT 040V160 CAVOK 32/07 Q1012=
201909021530 METAR LRTR 021530Z 11003KT 080V150 CAVOK 32/06 Q1012=
201909021600 METAR LRTR 021600Z VRB01KT CAVOK 32/05 Q1012=
201909021630 METAR LRTR 021630Z 09002KT CAVOK 31/08 Q1012=
201909021700 METAR LRTR 021700Z 08003KT CAVOK 30/07 Q1012=
201909021730 METAR LRTR 021730Z 07004KT CAVOK 26/10 Q1012=
201909021800 METAR LRTR 021800Z 07005KT CAVOK 23/10 Q1013=
201909021830 METAR LRTR 021830Z 07006KT CAVOK 22/11 Q1013=
201909021900 METAR LRTR 021900Z 08005KT CAVOK 22/09 Q1013=
201909021930 METAR LRTR 021930Z 10007KT CAVOK 20/11 Q1013=
201909022000 METAR LRTR 022000Z 11006KT CAVOK 19/12 Q1014=
201909022030 METAR LRTR 022030Z 11007KT CAVOK 19/12 Q1014=
201909022100 METAR LRTR 022100Z 12007KT CAVOK 19/12 Q1014=
201909022130 METAR LRTR 022130Z 10006KT CAVOK 18/12 Q1014=
201909022200 METAR LRTR 022200Z 09007KT CAVOK 18/11 Q1014=
201909022230 METAR LRTR 022230Z 08006KT CAVOK 17/11 Q1014=
201909022300 METAR LRTR 022300Z 09006KT CAVOK 18/11 Q1014=
201909022330 METAR LRTR 022330Z 08006KT CAVOK 17/11 Q1014=
201909030000 METAR LRTR 030000Z VRB04KT CAVOK 17/12 Q1014=
201909030030 METAR LRTR 030030Z 27003KT 220V310 CAVOK 16/12 Q1014=
201909030100 METAR LRTR 030100Z AUTO 13004KT 9999 NCD 16/12 Q1015=
201909030130 METAR COR LRTR 030130Z 33007KT CAVOK 16/14 Q1015=
201909030200 METAR LRTR 030200Z 33006KT CAVOK 16/15 Q1015=
201909030230 METAR LRTR 030230Z 35006KT CAVOK 17/17 Q1015=
201909030300 METAR LRTR 030300Z 34005KT CAVOK 17/17 Q1015=
201909030330 METAR LRTR 030330Z 30006KT CAVOK 15/15 Q1015=
201909030400 METAR LRTR 030400Z 30004KT CAVOK 15/15 Q1016=
201909030430 METAR LRTR 030430Z 28003KT CAVOK 15/15 Q1016=
201909030500 METAR LRTR 030500Z 23003KT CAVOK 16/16 Q1016=
201909030530 METAR LRTR 030530Z 25006KT CAVOK 17/16 Q1017=
201909030600 METAR LRTR 030600Z 27008KT CAVOK 18/16 Q1017=
201909030630 METAR LRTR 030630Z 26009KT 9999 FEW014 19/16 Q1017=
201909030700 METAR LRTR 030700Z 28007KT 240V310 9999 FEW015 19/16 Q1017=
201909030730 METAR LRTR 030730Z 26005KT 210V300 9999 FEW015 21/16 Q1018=
201909030800 METAR LRTR 030800Z 23005KT 170V290 9999 FEW020 21/16 Q1018=
201909030830 METAR LRTR 030830Z 22005KT 170V270 9999 FEW025 22/16 Q1018=
201909030900 METAR LRTR 030900Z 24008KT 9999 FEW028 23/17 Q1018=
201909030930 METAR LRTR 030930Z 22008G18KT 170V270 9999 SCT028 24/17 Q1018=
201909031000 METAR LRTR 031000Z 25008KT 9999 SCT032 24/16 Q1018=
201909031030 METAR LRTR 031030Z 25008KT 230V290 9999 SCT036 25/16 Q1018=
201909031100 METAR LRTR 031100Z 28008KT 9999 SCT037 25/16 Q1018=
201909031130 METAR LRTR 031130Z 28014KT 9999 BKN038 24/15 Q1018=
201909031200 METAR LRTR 031200Z 29012KT 9999 FEW040 23/15 Q1018=
201909031230 METAR LRTR 031230Z 29012KT 9999 FEW042 23/15 Q1019=
201909031300 METAR LRTR 031300Z 29012KT CAVOK 22/15 Q1018=
201909031330 METAR LRTR 031330Z 30010KT CAVOK 22/15 Q1019=
201909031400 METAR LRTR 031400Z 29010KT CAVOK 22/15 Q1019=
201909031430 METAR COR LRTR 031430Z 30012KT CAVOK 22/15 Q1019=
201909031500 METAR LRTR 031500Z 31011KT 9999 FEW045 22/15 Q1019=
201909031530 METAR LRTR 031530Z 32012KT 9999 FEW045 21/14 Q1019=
201909031600 METAR LRTR 031600Z 32011KT 9999 FEW045 21/14 Q1019=
201909031630 METAR LRTR 031630Z 32011KT CAVOK 21/14 Q1019=
201909031700 METAR LRTR 031700Z 32010KT CAVOK 20/14 Q1019=
201909031730 METAR LRTR 031730Z 33010KT CAVOK 20/13 Q1020=
201909031800 METAR LRTR 031800Z 33008KT CAVOK 19/14 Q1020=
201909031830 METAR LRTR 031830Z 33009KT 9999 -RA NSC 18/15 Q1020=
201909031900 METAR LRTR 031900Z 33009KT 9999 -RA NSC 17/16 Q1020=
201909031930 METAR LRTR 031930Z 35007KT 9999 -RA NSC 17/16 Q1021 R11/19//95=
201909032000 METAR LRTR 032000Z 36008KT 9999 -RA NSC 16/16 Q1021 R11/19//95=
201909032030 METAR LRTR 032030Z 34008KT CAVOK 16/16 Q1021 R11/19//95=
201909032100 METAR COR LRTR 032100Z 34007KT CAVOK 16/16 Q1021 R11/19//95=
201909032130 METAR LRTR 032130Z 34006KT 9999 FEW010 16/16 Q1021 R11/19//95=
201909032200 METAR LRTR 032200Z 35007KT 9999 FEW010 16/16 Q1021 R11/19//95=
201909032230 METAR LRTR 032230Z 33006KT 9999 FEW010 15/15 Q1021 R11/19//95=
201909032300 METAR LRTR 032300Z 34009KT 9999 SCT010 15/15 Q1021 R11/19//95=
201909032330 METAR LRTR 032330Z 34003KT 270V020 9999 FEW010 SCT048 15/15
                        Q1021 R11/19//95=
201909040000 METAR LRTR 040000Z 33004KT 9999 SCT048 15/15 Q1021 R11/19//95=
201909040030 METAR LRTR 040030Z 33005KT 9999 SCT048 15/15 Q1020 R11/19//95=
201909040100 METAR LRTR 040100Z 33005KT 9999 BKN048 14/14 Q1020 R11/19//95=
201909040130 METAR LRTR 040130Z 31005KT 9999 SCT048 14/13 Q1020 R11/19//95=
201909040200 METAR LRTR 040200Z 29004KT 9999 FEW048 13/13 Q1020 R11/19//95=
201909040230 METAR COR LRTR 040230Z 30004KT 280V340 9999 BKN048 13/13
                        Q1020 R11/CLRD//=
201909040300 METAR LRTR 040300Z 30004KT 9999 BKN048 13/13 Q1020=
201909040330 METAR LRTR 040330Z 30004KT 9999 BKN048 13/13 Q1020=
201909040400 METAR COR LRTR 040400Z 34005KT 9999 BKN048 13/13 Q1020=
201909040430 METAR LRTR 040430Z 36006KT CAVOK 13/13 Q1020=
201909040500 METAR LRTR 040500Z 35003KT 310V050 CAVOK 14/14 Q1021=
201909040530 METAR LRTR 040530Z 36005KT CAVOK 14/14 Q1021=
201909040600 METAR LRTR 040600Z 02004KT 350V050 CAVOK 15/14 Q1021=
201909040630 METAR LRTR 040630Z 01006KT 350V070 9999 FEW014 16/14 Q1021=
201909040700 METAR LRTR 040700Z 01004KT 320V070 9999 FEW017 17/14 Q1021=
201909040730 METAR LRTR 040730Z 02007KT 350V070 9999 FEW020 18/14 Q1021=
201909040800 METAR LRTR 040800Z 01006KT 320V050 9999 FEW023 19/13 Q1021=
201909040830 METAR LRTR 040830Z 36007KT 310V050 9999 FEW025 20/13 Q1021=
201909040900 METAR LRTR 040900Z 34006KT 310V020 9999 FEW028 21/13 Q1020=
201909040930 METAR LRTR 040930Z 34006KT 290V030 9999 FEW030 22/13 Q1020=
201909041000 METAR LRTR 041000Z 33006KT 280V040 9999 FEW033 22/11 Q1020=
201909041030 METAR LRTR 041030Z 32007KT 280V350 9999 FEW035 23/10 Q1019=
201909041100 METAR LRTR 041100Z 01005KT 290V060 9999 FEW038 23/07 Q1019=
201909041130 METAR LRTR 041130Z 36005KT 310V050 9999 FEW040 24/08 Q1019=
201909041200 METAR LRTR 041200Z 30008KT 9999 FEW044 24/08 Q1019=
201909041230 METAR LRTR 041230Z 29009KT 260V320 9999 FEW048 24/08 Q1018=
201909041300 METAR LRTR 041300Z 01007KT 350V050 CAVOK 25/07 Q1018=
201909041330 METAR LRTR 041330Z 26004KT 180V340 CAVOK 25/08 Q1017=
201909041400 METAR LRTR 041400Z 32004KT 240V040 CAVOK 25/07 Q1017=
201909041430 METAR LRTR 041430Z 35007KT 310V020 CAVOK 25/08 Q1017=
201909041500 METAR LRTR 041500Z 33005KT 270V010 CAVOK 25/09 Q1017=
201909041530 METAR LRTR 041530Z 35004KT 320V020 CAVOK 25/09 Q1017=
201909041600 METAR LRTR 041600Z 35006KT 320V020 CAVOK 24/09 Q1016=
201909041630 METAR LRTR 041630Z 36004KT 340V040 CAVOK 23/09 Q1016 NOSIG=
201909041700 METAR LRTR 041700Z 35004KT CAVOK 21/09 Q1016 NOSIG=
201909041730 METAR LRTR 041730Z 35004KT CAVOK 20/09 Q1017 NOSIG=
201909041800 METAR LRTR 041800Z 35003KT CAVOK 19/09 Q1017 NOSIG=
201909041830 METAR LRTR 041830Z 35003KT CAVOK 17/09 Q1017 NOSIG=
201909041900 METAR LRTR 041900Z 01005KT CAVOK 17/09 Q1017 NOSIG=
201909041930 METAR LRTR 041930Z 02004KT CAVOK 16/09 Q1017 NOSIG=
201909042000 METAR LRTR 042000Z 04003KT CAVOK 16/10 Q1016 NOSIG=
201909042030 METAR LRTR 042030Z 04003KT CAVOK 15/10 Q1016 NOSIG=
201909042100 METAR LRTR 042100Z 04003KT CAVOK 15/10 Q1016 NOSIG=
201909042130 METAR LRTR 042130Z 00000KT CAVOK 14/10 Q1016 NOSIG=
201909042200 METAR LRTR 042200Z 00000KT CAVOK 15/10 Q1016 NOSIG=
201909042230 METAR LRTR 042230Z 00000KT CAVOK 14/10 Q1016 NOSIG=
201909042300 METAR LRTR 042300Z 11006KT CAVOK 13/11 Q1016 NOSIG=
201909042330 METAR LRTR 042330Z 11005KT CAVOK 12/11 Q1016 NOSIG=
201909050000 METAR LRTR 050000Z 07004KT CAVOK 11/11 Q1016 NOSIG=
201909050030 METAR LRTR 050030Z 11003KT CAVOK 12/11 Q1016 NOSIG=
201909050100 METAR LRTR 050100Z 10006KT CAVOK 11/11 Q1016 NOSIG=
201909050130 METAR LRTR 050130Z 12005KT CAVOK 11/11 Q1016 NOSIG=
201909050200 METAR LRTR 050200Z 12006KT CAVOK 11/11 Q1016 NOSIG=
201909050230 METAR LRTR 050230Z 12006KT CAVOK 11/11 Q1015 NOSIG=
201909050300 METAR LRTR 050300Z 11005KT CAVOK 10/10 Q1015 NOSIG=
201909050330 METAR LRTR 050330Z 10006KT CAVOK 10/10 Q1015 NOSIG=
201909050400 METAR LRTR 050400Z 08004KT CAVOK 10/10 Q1015 NOSIG=
201909050430 METAR LRTR 050430Z 10005KT CAVOK 10/10 Q1015=
201909050500 METAR LRTR 050500Z 11006KT CAVOK 12/12 Q1016=
201909050530 METAR LRTR 050530Z 11006KT CAVOK 14/13 Q1016=
201909050600 METAR LRTR 050600Z 11006KT CAVOK 15/13 Q1016=
201909050630 METAR LRTR 050630Z 13004KT 100V160 CAVOK 16/13 Q1016=
201909050700 METAR LRTR 050700Z 18003KT 110V210 CAVOK 18/12 Q1016=
201909050730 METAR LRTR 050730Z VRB02KT CAVOK 21/12 Q1016=
201909050800 METAR LRTR 050800Z 21005KT 140V250 CAVOK 21/12 Q1016=
201909050830 METAR LRTR 050830Z 20005KT 170V240 CAVOK 22/12 Q1016=
201909050900 METAR LRTR 050900Z VRB04KT CAVOK 23/12 Q1015=
201909050930 METAR LRTR 050930Z 30004KT 230V360 CAVOK 24/10 Q1015=
201909051000 METAR LRTR 051000Z VRB03KT CAVOK 25/10 Q1015=
201909051030 METAR LRTR 051030Z 19004KT 130V230 CAVOK 25/09 Q1015=
201909051100 METAR LRTR 051100Z 22004KT 160V320 CAVOK 25/09 Q1015=
201909051130 METAR LRTR 051130Z VRB03KT CAVOK 26/09 Q1014=
201909051200 METAR LRTR 051200Z VRB03KT CAVOK 26/09 Q1014=
201909051230 METAR LRTR 051230Z 33006KT 270V050 CAVOK 27/09 Q1014=
201909051300 METAR LRTR 051300Z VRB04KT CAVOK 27/09 Q1014=
201909051330 METAR LRTR 051330Z VRB03KT CAVOK 27/08 Q1013=
201909051400 METAR LRTR 051400Z 35005KT CAVOK 27/08 Q1013=
201909051430 METAR LRTR 051430Z VRB03KT CAVOK 27/08 Q1013=
201909051500 METAR LRTR 051500Z VRB03KT CAVOK 27/07 Q1013=
201909051530 METAR LRTR 051530Z VRB02KT CAVOK 28/07 Q1013=
201909051600 METAR LRTR 051600Z VRB02KT CAVOK 27/07 Q1013=
201909051630 METAR LRTR 051630Z 26003KT 240V300 CAVOK 26/08 Q1013=
201909051700 METAR LRTR 051700Z 30003KT CAVOK 24/08 Q1013=
201909051730 METAR LRTR 051730Z 36004KT CAVOK 22/09 Q1013=
201909051800 METAR LRTR 051800Z 01005KT CAVOK 20/08 Q1014=
201909051830 METAR LRTR 051830Z 02008KT CAVOK 18/07 Q1014=
201909051900 METAR LRTR 051900Z 02006KT CAVOK 18/08 Q1014=
201909051930 METAR LRTR 051930Z 04005KT CAVOK 17/08 Q1014=
201909052000 METAR LRTR 052000Z 08003KT CAVOK 17/09 Q1014=
201909052030 METAR LRTR 052030Z 11003KT 080V140 CAVOK 17/09 Q1014=
201909052100 METAR LRTR 052100Z 12003KT CAVOK 17/09 Q1014=
201909052130 METAR LRTR 052130Z 05003KT CAVOK 17/09 Q1015=
201909052200 METAR LRTR 052200Z 10005KT 070V140 CAVOK 15/09 Q1015=
201909052230 METAR LRTR 052230Z 09006KT CAVOK 14/10 Q1015=
201909052300 METAR LRTR 052300Z 07004KT CAVOK 13/11 Q1015=
201909052330 METAR LRTR 052330Z 03004KT CAVOK 14/10 Q1015=
201909060000 METAR LRTR 060000Z 05006KT CAVOK 13/10 Q1015=
201909060030 METAR LRTR 060030Z 07005KT CAVOK 13/10 Q1016=
201909060100 METAR LRTR 060100Z 07004KT CAVOK 13/10 Q1016=
201909060130 METAR LRTR 060130Z 08005KT CAVOK 11/10 Q1016=
201909060200 METAR LRTR 060200Z 08005KT CAVOK 12/11 Q1016=
201909060230 METAR LRTR 060230Z 09004KT CAVOK 12/11 Q1016=
201909060300 METAR COR LRTR 060300Z 06004KT CAVOK 11/11 Q1016=
201909060330 METAR LRTR 060330Z 04003KT CAVOK 12/11 Q1016=
201909060400 METAR LRTR 060400Z 07004KT CAVOK 10/10 Q1016=
201909060430 METAR LRTR 060430Z 07003KT CAVOK 11/10 Q1017=
201909060500 METAR LRTR 060500Z 04003KT CAVOK 12/12 Q1017=
201909060530 METAR LRTR 060530Z 00000KT CAVOK 15/13 Q1017=
201909060600 METAR LRTR 060600Z 00000KT CAVOK 19/13 Q1017=
201909060630 METAR LRTR 060630Z 00000KT CAVOK 19/13 Q1017=
201909060700 METAR LRTR 060700Z VRB02KT CAVOK 21/13 Q1017=
201909060730 METAR LRTR 060730Z 02006KT 350V050 CAVOK 23/11 Q1017=
201909060800 METAR LRTR 060800Z 01005KT 330V070 9999 FEW040 24/10 Q1017=
201909060830 METAR LRTR 060830Z 35007KT 9999 FEW042 25/10 Q1017=
201909060900 METAR LRTR 060900Z VRB03KT 9999 FEW045 25/11 Q1017=
201909060930 METAR LRTR 060930Z 10005KT 050V120 9999 FEW045 26/11 Q1017=
201909061000 METAR LRTR 061000Z VRB04KT 9999 FEW048 26/10 Q1017=
201909061030 METAR LRTR 061030Z 09008KT 030V130 9999 FEW048 26/08 Q1017=
201909061100 METAR COR LRTR 061100Z 10006KT 060V120 9999 FEW048 27/08
                        Q1017=
201909061130 METAR LRTR 061130Z 13007KT CAVOK 28/06 Q1017=
201909061200 METAR LRTR 061200Z 10005KT 030V190 CAVOK 27/06 Q1016=
201909061230 METAR LRTR 061230Z 17005KT 160V220 CAVOK 28/08 Q1016=
201909061300 METAR COR LRTR 061300Z 24005KT 190V330 CAVOK 28/08 Q1016=
201909061330 METAR LRTR 061330Z 11004KT 060V160 CAVOK 28/07 Q1016=
201909061400 METAR LRTR 061400Z 13004KT 080V150 CAVOK 28/07 Q1016=
201909061430 METAR LRTR 061430Z 11005KT 050V160 CAVOK 29/06 Q1015=
201909061500 METAR LRTR 061500Z VRB02KT CAVOK 28/06 Q1015=
201909061530 METAR LRTR 061530Z 05004KT 030V130 CAVOK 28/07 Q1015=
201909061600 METAR LRTR 061600Z VRB02KT CAVOK 27/06 Q1015=
201909061630 METAR LRTR 061630Z 10001KT CAVOK 26/07 Q1015=
201909061700 METAR LRTR 061700Z 07003KT CAVOK 25/07 Q1015=
201909061730 METAR LRTR 061730Z 07003KT CAVOK 23/07 Q1016=
201909061800 METAR LRTR 061800Z 07004KT CAVOK 19/09 Q1016=
201909061830 METAR LRTR 061830Z VRB01KT CAVOK 20/08 Q1016=
201909061900 METAR LRTR 061900Z 00000KT CAVOK 21/07 Q1016=
201909061930 METAR LRTR 061930Z 05005KT CAVOK 17/09 Q1016=
201909062000 METAR LRTR 062000Z 13002KT CAVOK 18/09 Q1016=
201909062030 METAR LRTR 062030Z 12001KT CAVOK 18/10 Q1016=
201909062100 METAR LRTR 062100Z 07003KT CAVOK 16/09 Q1016=
201909062130 METAR LRTR 062130Z 10007KT CAVOK 16/11 Q1016=
201909062200 METAR LRTR 062200Z 11008KT CAVOK 16/13 Q1016=
201909062230 METAR LRTR 062230Z 10003KT CAVOK 16/13 Q1016=
201909062300 METAR LRTR 062300Z 11006KT CAVOK 16/13 Q1016=
201909062330 METAR LRTR 062330Z 10005KT CAVOK 15/13 Q1016=
201909070000 METAR LRTR 070000Z 11006KT CAVOK 16/14 Q1016=
201909070030 METAR LRTR 070030Z 09005KT CAVOK 16/14 Q1016=
201909070100 METAR LRTR 070100Z 11007KT CAVOK 16/14 Q1016=
201909070130 METAR LRTR 070130Z 11007KT CAVOK 17/14 Q1016=
201909070200 METAR LRTR 070200Z 11008KT CAVOK 16/14 Q1016=
201909070230 METAR LRTR 070230Z 11008KT CAVOK 16/15 Q1016=
201909070300 METAR LRTR 070300Z 11008KT CAVOK 17/14 Q1016=
201909070330 METAR LRTR 070330Z 10007KT CAVOK 17/14 Q1016=
201909070400 METAR LRTR 070400Z 11006KT CAVOK 17/14 Q1016=
201909070430 METAR LRTR 070430Z 10007KT CAVOK 18/13 Q1016=
201909070500 METAR LRTR 070500Z 11005KT CAVOK 18/14 Q1016=
201909070530 METAR LRTR 070530Z 11005KT CAVOK 19/13 Q1016=
201909070600 METAR LRTR 070600Z 12007KT 9999 FEW055CB 19/13 Q1017=
201909070630 METAR LRTR 070630Z 11007KT 9999 -SHRA FEW050CB 20/12 Q1017=
201909070700 METAR LRTR 070700Z 10006KT 9999 FEW055CB 20/13 Q1017=
201909070730 METAR LRTR 070730Z 11007KT CAVOK 21/13 Q1017=
201909070800 METAR LRTR 070800Z 11007KT 9999 -RA NSC 22/13 Q1017=
201909070830 METAR LRTR 070830Z 10008KT CAVOK 24/12 Q1017=
201909070900 METAR LRTR 070900Z 10008KT 080V140 CAVOK 25/10 Q1016=
201909070930 METAR LRTR 070930Z 14009KT CAVOK 26/09 Q1016=
201909071000 METAR LRTR 071000Z 16007KT 120V200 CAVOK 27/10 Q1016=
201909071030 METAR LRTR 071030Z 13008KT 110V170 CAVOK 28/09 Q1016=
201909071100 METAR LRTR 071100Z 17007KT 140V200 CAVOK 27/09 Q1016=
201909071130 METAR LRTR 071130Z 16005KT 110V230 CAVOK 29/10 Q1015=
201909071200 METAR LRTR 071200Z 14005KT 110V200 CAVOK 29/09 Q1015=
201909071230 METAR LRTR 071230Z 18009KT CAVOK 29/09 Q1015=
201909071300 METAR LRTR 071300Z 15007KT CAVOK 30/09 Q1015=
201909071330 METAR LRTR 071330Z 14007KT CAVOK 29/09 Q1014=
201909071400 METAR LRTR 071400Z 14008KT CAVOK 30/09 Q1014=
201909071430 METAR LRTR 071430Z 16007KT 130V190 CAVOK 28/09 Q1014=
201909071500 METAR LRTR 071500Z 18008KT CAVOK 28/10 Q1014=
201909071530 METAR LRTR 071530Z 18006KT 9999 FEW055CB 28/10 Q1014=
201909071600 METAR LRTR 071600Z 16006KT 9999 FEW055CB 27/11 Q1014=
201909071630 METAR LRTR 071630Z 15006KT 9999 FEW055CB 26/11 Q1015=
201909071700 METAR LRTR 071700Z 15005KT 9999 FEW055CB 25/11 Q1015=
201909071730 METAR LRTR 071730Z 16006KT 9999 FEW050CB 25/11 Q1015=
201909071800 METAR LRTR 071800Z 33005KT 290V360 9999 FEW050CB 23/13 Q1015=
201909071830 METAR LRTR 071830Z 36009KT 340V040 9999 FEW050CB 22/14 Q1015=
201909071900 METAR LRTR 071900Z 01008KT 9999 -TSRA SCT045CB 21/15 Q1016=
201909071930 METAR LRTR 071930Z 26017KT 5000 TSRA BR SCT016 BKN035CB 18/18
                        Q1018 RESHRA R11/29//94=
201909072000 METAR LRTR 072000Z 30008KT 6000 SHRA FEW017 SCT045CB 17/17
                        Q1018 RETS R11/29//94=
201909072030 METAR LRTR 072030Z 35007KT 8000 -SHRA FEW018 SCT050CB 17/17
                        Q1017 RESHRA R11/29//94=
201909072100 METAR LRTR 072100Z 01009KT 9999 -RA NSC 17/17 Q1016 R11/29//94=
201909072130 METAR LRTR 072130Z 04009KT CAVOK 17/17 Q1016 R11/29//94=
201909072200 METAR LRTR 072200Z 05008KT CAVOK 17/17 Q1016 R11/29//94=
201909072230 METAR LRTR 072230Z 08006KT 9999 FEW050CB 17/17 Q1016 R11/29//94=
201909072300 METAR LRTR 072300Z 13006KT 9999 FEW050CB 17/17 Q1016 R11/29//94=
201909072330 METAR LRTR 072330Z 11006KT 9999 FEW050CB 17/17 Q1016 R11/29//94=
201909080000 METAR LRTR 080000Z 07005KT CAVOK 17/17 Q1016 R11/29//94=
201909080030 METAR LRTR 080030Z 09006KT CAVOK 17/17 Q1016 R11/29//94=
201909080100 METAR LRTR 080100Z 09006KT CAVOK 16/16 Q1016 R11/29//94=
201909080130 METAR LRTR 080130Z 08007KT CAVOK 16/16 Q1016 R11/29//94=
201909080200 METAR LRTR 080200Z 08007KT CAVOK 16/16 Q1015 R11/29//94=
201909080230 METAR LRTR 080230Z 08006KT CAVOK 16/16 Q1016 R11/29//94=
201909080300 METAR LRTR 080300Z 09006KT CAVOK 16/16 Q1016 R11/29//94=
201909080330 METAR LRTR 080330Z 10004KT CAVOK 15/15 Q1016 R11/190095=
201909080400 METAR LRTR 080400Z 11004KT CAVOK 15/15 Q1016 R11/190095=
201909080430 METAR LRTR 080430Z 11005KT CAVOK 16/16 Q1016 R11/190095=
201909080500 METAR LRTR 080500Z 09003KT 060V120 CAVOK 16/16 Q1016 R11/190095=
201909080530 METAR LRTR 080530Z 10005KT CAVOK 17/17 Q1016 R11/190095=
201909080600 METAR LRTR 080600Z 10006KT CAVOK 18/18 Q1016 R11/190095=
201909080630 METAR LRTR 080630Z 10007KT CAVOK 18/18 Q1017 R11/190095=
201909080700 METAR LRTR 080700Z 12008KT CAVOK 19/19 Q1017 R11/190095=
201909080730 METAR LRTR 080730Z 12009KT CAVOK 20/19 Q1017 R11/190095=
201909080800 METAR LRTR 080800Z 13008KT CAVOK 21/18 Q1017 R11/190095=
201909080830 METAR LRTR 080830Z 12006KT CAVOK 21/18 Q1017=
201909080900 METAR LRTR 080900Z 15005KT 110V180 CAVOK 23/17 Q1017=
201909080930 METAR LRTR 080930Z 17003KT 130V220 CAVOK 25/17 Q1017=
201909081000 METAR LRTR 081000Z 20005KT 170V260 CAVOK 26/16 Q1017=
201909081030 METAR LRTR 081030Z 15007KT CAVOK 26/15 Q1017=
201909081100 METAR LRTR 081100Z 18006KT 140V210 CAVOK 26/14 Q1017=
201909081130 METAR LRTR 081130Z 19006KT 150V220 CAVOK 27/15 Q1016=
201909081200 METAR LRTR 081200Z 15007KT 120V220 CAVOK 28/15 Q1016=
201909081230 METAR LRTR 081230Z 13005KT 100V170 CAVOK 28/15 Q1016=
201909081300 METAR LRTR 081300Z 16006KT 100V200 CAVOK 28/15 Q1016=
201909081330 METAR LRTR 081330Z 11004KT 070V170 CAVOK 28/15 Q1015=
201909081400 METAR LRTR 081400Z 13003KT CAVOK 28/14 Q1015=
201909081430 METAR LRTR 081430Z 14004KT 100V180 CAVOK 29/14 Q1015=
201909081500 METAR LRTR 081500Z 12008KT 9999 FEW050CB 29/13 Q1015=
201909081530 METAR LRTR 081530Z 13008KT 9999 FEW050CB 28/13 Q1015=
201909081600 METAR LRTR 081600Z 11006KT CAVOK 27/15 Q1015=
201909081630 METAR LRTR 081630Z 11007KT CAVOK 25/16 Q1015=
201909081700 METAR LRTR 081700Z 13005KT CAVOK 24/16 Q1015=
201909081730 METAR LRTR 081730Z 13007KT CAVOK 23/16 Q1015=
201909081800 METAR LRTR 081800Z 12007KT CAVOK 22/15 Q1015=
201909081830 METAR LRTR 081830Z 12006KT CAVOK 21/15 Q1015=
201909081900 METAR LRTR 081900Z 10006KT CAVOK 19/17 Q1015=
201909081930 METAR LRTR 081930Z 11007KT CAVOK 19/16 Q1015=
201909082000 METAR LRTR 082000Z 09007KT CAVOK 19/15 Q1015=
201909082030 METAR LRTR 082030Z 11007KT CAVOK 19/14 Q1015=
201909082100 METAR LRTR 082100Z 09007KT CAVOK 19/14 Q1014=
201909082130 METAR LRTR 082130Z 10007KT CAVOK 19/14 Q1014=
201909082200 METAR LRTR 082200Z 10007KT CAVOK 19/14 Q1014=
201909082230 METAR LRTR 082230Z 10008KT CAVOK 20/14 Q1014=
201909082300 METAR LRTR 082300Z 10008KT CAVOK 20/14 Q1014=
201909082330 METAR LRTR 082330Z 11009KT CAVOK 20/14 Q1014=
201909090000 METAR LRTR 090000Z 11009KT CAVOK 20/14 Q1014=
201909090030 METAR LRTR 090030Z 11009KT CAVOK 20/14 Q1013=
201909090100 METAR LRTR 090100Z 11008KT CAVOK 19/14 Q1013=
201909090130 METAR COR LRTR 090130Z 11007KT 9999 SCT120 19/14 Q1013=
201909090200 METAR LRTR 090200Z 12008KT CAVOK 18/14 Q1013=
201909090230 METAR COR LRTR 090230Z 12007KT CAVOK 18/15 Q1013=
201909090300 METAR LRTR 090300Z 13007KT CAVOK 18/15 Q1013=
201909090330 METAR LRTR 090330Z 12007KT CAVOK 18/15 Q1013=
201909090400 METAR LRTR 090400Z 12006KT CAVOK 17/15 Q1013=
201909090430 METAR LRTR 090430Z 12007KT CAVOK 18/15 Q1013 NOSIG=
201909090500 METAR LRTR 090500Z 12007KT CAVOK 19/15 Q1013 NOSIG=
201909090530 METAR LRTR 090530Z 13007KT CAVOK 20/15 Q1013 NOSIG=
201909090600 METAR LRTR 090600Z 12007KT CAVOK 21/15 Q1013 NOSIG=
201909090630 METAR LRTR 090630Z 13008KT CAVOK 23/14 Q1013 NOSIG=
201909090700 METAR LRTR 090700Z 13007KT CAVOK 24/12 Q1013 NOSIG=
201909090730 METAR LRTR 090730Z 16015KT CAVOK 25/10 Q1013 NOSIG=
201909090800 METAR LRTR 090800Z 16011KT CAVOK 25/10 Q1013 NOSIG=
201909090830 METAR LRTR 090830Z 16014KT CAVOK 25/09 Q1013=
201909090900 METAR LRTR 090900Z 16015KT CAVOK 25/10 Q1012=
201909090930 METAR LRTR 090930Z 16017KT CAVOK 25/10 Q1012=
201909091000 METAR LRTR 091000Z 16015KT CAVOK 25/10 Q1012=
201909091030 METAR LRTR 091030Z 15016KT CAVOK 26/10 Q1012=
201909091100 METAR LRTR 091100Z 16017KT CAVOK 26/10 Q1012=
201909091130 METAR LRTR 091130Z 15018KT CAVOK 27/11 Q1011=
201909091200 METAR LRTR 091200Z 16018KT CAVOK 28/11 Q1011=
201909091230 METAR LRTR 091230Z 16017KT 130V190 CAVOK 28/12 Q1010=
201909091300 METAR LRTR 091300Z 17019KT CAVOK 27/12 Q1010=
201909091330 METAR LRTR 091330Z 17015KT CAVOK 28/12 Q1010=
201909091400 METAR LRTR 091400Z 18017KT 9999 FEW067CB 27/11 Q1011=
201909091430 METAR LRTR 091430Z 29022KT 9999 SCT069CB 18/11 Q1013=
201909091500 METAR LRTR 091500Z 30021G31KT 9999 SCT069CB 17/12 Q1014=
201909091530 METAR LRTR 091530Z 31018KT 9999 SCT069CB 16/12 Q1014=
201909091600 METAR LRTR 091600Z 33015KT 9999 -SHRA VCTS SCT069CB 16/12
                        Q1015=
201909091630 METAR LRTR 091630Z 32010KT 9999 -SHRA VCTS FEW020 SCT050CB
                        15/14 Q1015 R11/19//95=
201909091700 METAR LRTR 091700Z 35008KT 8000 SHRA FEW025 SCT050CB 14/14
                        Q1015 R11/290095=
201909091730 METAR LRTR 091730Z 02006KT 350V050 9999 -SHRA FEW020 SCT050CB
                        14/14 Q1016 RESHRA R11/290095=
201909091800 METAR LRTR 091800Z 01003KT 330V040 6000 +SHRA FEW020 SCT050CB
                        14/14 Q1017 R11/290095=
201909091830 METAR LRTR 091830Z 07007KT 9000 SHRA FEW020 SCT040CB 14/14
                        Q1016 RESHRA R11/290095=
201909091900 METAR LRTR 091900Z 12007KT 7000 SHRA FEW017 SCT040CB 15/15
                        Q1017 R11/290095=
201909091930 METAR LRTR 091930Z 11007KT 6000 SHRA FEW018 SCT040CB 14/14
                        Q1017 R11/290095=
201909092000 METAR LRTR 092000Z 12009KT 7000 SHRA FEW020 SCT040CB 14/14
                        Q1017 R11/290095=
201909092030 METAR LRTR 092030Z 12012KT 6000 SHRA FEW021 SCT040CB 14/14
                        Q1017 R11/290095=
201909092100 METAR LRTR 092100Z 12012KT 9999 -SHRA FEW025 SCT040CB 14/14
                        Q1017 RESHRA R11/290095=
201909092130 METAR COR LRTR 092130Z 11010KT 9999 -SHRA FEW025 SCT040CB
                        14/14 Q1017 R11/290095=
201909092200 METAR LRTR 092200Z 12011KT 9999 -RA FEW040CB 14/14 Q1017
                        R11/290095=
201909092230 METAR LRTR 092230Z 12006KT 9999 -RA FEW040CB 14/14 Q1017
                        R11/290095=
201909092300 METAR LRTR 092300Z 11005KT 9999 FEW040CB 14/14 Q1017 R11/290095=
201909092330 METAR LRTR 092330Z VRB02KT 9999 -RA NSC 14/14 Q1017 R11/290095=
201909100000 METAR COR LRTR 100000Z 00000KT CAVOK 14/14 Q1017 R11/290095=
201909100030 METAR LRTR 100030Z 05001KT CAVOK 14/14 Q1017 R11/290095=
201909100100 METAR LRTR 100100Z 00000KT CAVOK 14/14 Q1018 R11/290095=
201909100130 METAR LRTR 100130Z 33005KT CAVOK 14/14 Q1018 R11/290095=
201909100200 METAR LRTR 100200Z 33004KT CAVOK 14/14 Q1018 R11/290095=
201909100230 METAR LRTR 100230Z 34005KT CAVOK 14/14 Q1018 R11/290095=
201909100300 METAR LRTR 100300Z 36006KT 3500 0800E R11/P2000 R29/1600D
                        BCFG NSC 13/13 Q1018 R11/290095=
201909100330 METAR LRTR 100330Z 35003KT 1500 BR SCT002 13/13 Q1018 R11/290095=
201909100400 METAR LRTR 100400Z 35006KT 8000 SCT002 14/14 Q1018 R11/290095=
201909100430 METAR LRTR 100430Z 34005KT 9999 FEW002 14/14 Q1018 R11/290095=
201909100500 METAR LRTR 100500Z 35005KT 9999 FEW002 14/14 Q1019 R11/290095=
201909100530 METAR LRTR 100530Z 35006KT 9999 FEW003 14/14 Q1019 R11/290095=
201909100600 METAR LRTR 100600Z 36006KT 330V030 9999 SCT003 14/14 Q1019
                        R11/290095=
201909100630 METAR LRTR 100630Z 02004KT 320V040 9999 SCT003 14/14 Q1019
                        R11/290095=
201909100700 METAR LRTR 100700Z 02005KT 340V040 9999 FEW003 15/15 Q1020
                        R11/290095=
201909100730 METAR LRTR 100730Z 03006KT 9999 FEW003 16/16 Q1020 R11/290095=
201909100800 METAR LRTR 100800Z 36006KT 330V030 9999 FEW003 17/17 Q1020
                        R11/290095=
201909100830 METAR LRTR 100830Z 36006KT 320V020 9999 FEW004 18/16 Q1020
                        R11/290095=
201909100900 METAR COR LRTR 100900Z 36006KT 9999 FEW006 19/17 Q1020 R11/290095=
201909100930 METAR LRTR 100930Z 35005KT 300V020 9999 FEW008 21/16 Q1020
                        R11/290095=
201909101000 METAR LRTR 101000Z 02007KT 360V060 9999 FEW015 21/14 Q1020
                        R11/290095=
201909101030 METAR LRTR 101030Z 01006KT 320V050 9999 FEW020 22/14 Q1019
                        R11/290095=
201909101100 METAR LRTR 101100Z 01006KT 310V060 9999 FEW025 23/13 Q1019
                        R11/CLRD//=
201909101130 METAR LRTR 101130Z 34006KT 9999 FEW030 23/13 Q1019=
201909101200 METAR LRTR 101200Z 36008KT 330V030 9999 FEW035 24/13 Q1019=
201909101230 METAR LRTR 101230Z 01006KT 340V040 9999 FEW040 24/13 Q1019=
201909101300 METAR LRTR 101300Z 04006KT 360V070 9999 FEW040 24/12 Q1019=
201909101330 METAR LRTR 101330Z 36006KT 330V050 9999 FEW045 25/12 Q1018=
201909101400 METAR LRTR 101400Z 03006KT 360V070 CAVOK 24/11 Q1018=
201909101430 METAR LRTR 101430Z 35007KT CAVOK 25/11 Q1018=
201909101500 METAR LRTR 101500Z 36009KT CAVOK 24/12 Q1018=
201909101530 METAR COR LRTR 101530Z 36008KT CAVOK 24/12 Q1018=
201909101600 METAR LRTR 101600Z 36008KT CAVOK 23/12 Q1018=
201909101630 METAR LRTR 101630Z 36007KT CAVOK 22/13 Q1018 NOSIG=
201909101700 METAR LRTR 101700Z 36006KT CAVOK 20/14 Q1018 NOSIG=
201909101730 METAR LRTR 101730Z 36007KT CAVOK 19/14 Q1019 NOSIG=
201909101800 METAR LRTR 101800Z 36007KT CAVOK 18/14 Q1019 NOSIG=
201909101830 METAR LRTR 101830Z 01008KT CAVOK 18/14 Q1019 NOSIG=
201909101900 METAR LRTR 101900Z 01008KT CAVOK 18/14 Q1019 NOSIG=
201909101930 METAR LRTR 101930Z 01009KT CAVOK 18/14 Q1019 NOSIG=
201909102000 METAR LRTR 102000Z 01008KT CAVOK 18/14 Q1019 NOSIG=
201909102030 METAR LRTR 102030Z 01009KT CAVOK 17/14 Q1019 NOSIG=
201909102100 METAR LRTR 102100Z 02009KT CAVOK 17/13 Q1019 NOSIG=
201909102130 METAR LRTR 102130Z 02008KT CAVOK 17/13 Q1019 NOSIG=
201909102200 METAR LRTR 102200Z 05005KT 020V090 CAVOK 16/14 Q1020 NOSIG=
201909102230 METAR LRTR 102230Z 06005KT CAVOK 16/14 Q1020 NOSIG=
201909102300 METAR LRTR 102300Z 07004KT 040V120 CAVOK 16/14 Q1020 NOSIG=
201909102330 METAR LRTR 102330Z 06004KT CAVOK 15/14 Q1020 NOSIG=
201909110000 METAR LRTR 110000Z 07004KT CAVOK 14/14 Q1020 NOSIG=
201909110030 METAR LRTR 110030Z 00000KT CAVOK 14/14 Q1020 NOSIG=
201909110100 METAR LRTR 110100Z 06004KT CAVOK 13/13 Q1020 NOSIG=
201909110130 METAR LRTR 110130Z AUTO VRB01KT 9999 NCD 14/14 Q1020 NOSIG=
201909110200 METAR LRTR 110200Z 07003KT CAVOK 13/13 Q1020 NOSIG=
201909110230 METAR LRTR 110230Z 06005KT CAVOK 13/13 Q1020 NOSIG=
201909110300 METAR LRTR 110300Z 09005KT CAVOK 13/13 Q1020 NOSIG=
201909110330 METAR LRTR 110330Z 09006KT CAVOK 13/13 Q1020 NOSIG=
201909110400 METAR LRTR 110400Z 07005KT CAVOK 13/13 Q1020 NOSIG=
201909110430 METAR LRTR 110430Z 07005KT CAVOK 13/13 Q1021 NOSIG=
201909110500 METAR LRTR 110500Z 08005KT CAVOK 15/14 Q1021 NOSIG=
201909110530 METAR LRTR 110530Z 11007KT CAVOK 17/15 Q1021 NOSIG=
201909110600 METAR LRTR 110600Z 10006KT CAVOK 18/15 Q1021 NOSIG=
201909110630 METAR LRTR 110630Z 11008KT CAVOK 20/15 Q1021 NOSIG=
201909110700 METAR LRTR 110700Z 11006KT 080V140 CAVOK 21/15 Q1022 NOSIG=
201909110730 METAR LRTR 110730Z 12007KT CAVOK 21/15 Q1022 NOSIG=
201909110800 METAR LRTR 110800Z 12005KT CAVOK 23/14 Q1022 NOSIG=
201909110830 METAR LRTR 110830Z 15004KT 110V190 CAVOK 25/14 Q1022 NOSIG=
201909110900 METAR LRTR 110900Z 17003KT 130V250 CAVOK 25/12 Q1022 NOSIG=
201909110930 METAR LRTR 110930Z 20003KT 120V290 CAVOK 26/12 Q1022 NOSIG=
201909111000 METAR LRTR 111000Z VRB01KT CAVOK 26/12 Q1022 NOSIG=
201909111030 METAR LRTR 111030Z 31004KT 250V360 CAVOK 27/13 Q1022 NOSIG=
201909111100 METAR LRTR 111100Z 33005KT 260V020 CAVOK 27/13 Q1021 NOSIG=
201909111130 METAR LRTR 111130Z VRB05KT CAVOK 28/12 Q1021 NOSIG=
201909111200 METAR LRTR 111200Z 07004KT 010V170 CAVOK 28/12 Q1021 NOSIG=
201909111230 METAR LRTR 111230Z 07007KT CAVOK 28/11 Q1021 NOSIG=
201909111300 METAR LRTR 111300Z 01006KT 330V050 CAVOK 28/12 Q1021 NOSIG=
201909111330 METAR LRTR 111330Z 01007KT 320V050 CAVOK 29/12 Q1021 NOSIG=
201909111400 METAR LRTR 111400Z 03005KT 360V080 CAVOK 29/13 Q1020 NOSIG=
201909111430 METAR LRTR 111430Z 03008KT 360V060 CAVOK 28/12 Q1020 NOSIG=
201909111500 METAR LRTR 111500Z 02007KT CAVOK 28/12 Q1020 NOSIG=
201909111530 METAR LRTR 111530Z 01006KT CAVOK 28/13 Q1020 NOSIG=
201909111600 METAR LRTR 111600Z 01005KT CAVOK 27/13 Q1021=
201909111630 METAR LRTR 111630Z 01005KT CAVOK 25/14 Q1021=
201909111700 METAR LRTR 111700Z 36006KT CAVOK 23/14 Q1021=
201909111730 METAR LRTR 111730Z 36003KT CAVOK 22/15 Q1021=
201909111800 METAR LRTR 111800Z 01005KT CAVOK 21/15 Q1021=
201909111830 METAR LRTR 111830Z 01005KT CAVOK 21/15 Q1022=
201909111900 METAR LRTR 111900Z 01006KT CAVOK 21/15 Q1022=
201909111930 METAR LRTR 111930Z 01006KT CAVOK 21/15 Q1022=
201909112000 METAR LRTR 112000Z 02007KT CAVOK 21/15 Q1022=
201909112030 METAR LRTR 112030Z 14005KT 100V160 CAVOK 22/15 Q1023=
201909112100 METAR LRTR 112100Z 22003KT CAVOK 21/15 Q1023=
201909112130 METAR LRTR 112130Z 27006KT CAVOK 18/16 Q1023=
201909112200 METAR COR LRTR 112200Z 30006KT CAVOK 18/16 Q1023=
201909112230 METAR LRTR 112230Z 31007KT CAVOK 19/16 Q1023=
201909112300 METAR LRTR 112300Z 29005KT CAVOK 17/16 Q1023=
201909112330 METAR COR LRTR 112330Z 13003KT CAVOK 17/16 Q1023=
201909120000 METAR LRTR 120000Z 10006KT CAVOK 15/15 Q1023=
201909120030 METAR LRTR 120030Z 09006KT CAVOK 15/15 Q1023=
201909120100 METAR LRTR 120100Z 09005KT CAVOK 15/15 Q1023=
201909120130 METAR LRTR 120130Z 09005KT CAVOK 15/15 Q1024=
201909120200 METAR LRTR 120200Z 09005KT CAVOK 15/15 Q1024=
201909120230 METAR LRTR 120230Z 09006KT CAVOK 14/14 Q1024=
201909120300 METAR LRTR 120300Z 10006KT CAVOK 14/14 Q1024=
201909120330 METAR LRTR 120330Z 09005KT CAVOK 14/14 Q1024=
201909120400 METAR LRTR 120400Z 09005KT CAVOK 14/14 Q1024=
201909120430 METAR LRTR 120430Z 11003KT CAVOK 13/13 Q1024=
201909120500 METAR COR LRTR 120500Z 10005KT CAVOK 14/14 Q1024=
201909120530 METAR LRTR 120530Z 11006KT CAVOK 15/14 Q1025=
201909120600 METAR LRTR 120600Z 00000KT CAVOK 16/15 Q1025=
201909120630 METAR LRTR 120630Z VRB01KT CAVOK 17/15 Q1025=
201909120700 METAR LRTR 120700Z 32004KT 290V350 CAVOK 19/16 Q1026=
201909120730 METAR LRTR 120730Z 33004KT CAVOK 19/16 Q1026=
201909120800 METAR LRTR 120800Z 32006KT CAVOK 20/17 Q1026=
201909120830 METAR LRTR 120830Z 33007KT CAVOK 21/17 Q1026=
201909120900 METAR LRTR 120900Z 34007KT 300V010 CAVOK 23/17 Q1026=
201909120930 METAR LRTR 120930Z 34007KT 300V360 CAVOK 24/17 Q1026=
201909121000 METAR LRTR 121000Z 34008KT 310V020 CAVOK 26/15 Q1026=
201909121030 METAR LRTR 121030Z 36009KT CAVOK 27/14 Q1026=
201909121100 METAR LRTR 121100Z 03011KT CAVOK 27/14 Q1026=
201909121130 METAR LRTR 121130Z 02013KT 350V050 CAVOK 28/12 Q1026=
201909121200 METAR LRTR 121200Z 35010KT 9999 FEW045 28/12 Q1025=
201909121230 METAR LRTR 121230Z 35010KT 330V040 9999 FEW045 28/12 Q1025=
201909121300 METAR LRTR 121300Z 35011KT 9999 FEW045 29/13 Q1025=
201909121330 METAR LRTR 121330Z 34011KT 9999 FEW047 27/12 Q1025=
201909121400 METAR LRTR 121400Z 35014KT CAVOK 29/13 Q1025=
201909121430 METAR LRTR 121430Z 35013KT CAVOK 28/12 Q1025=
201909121500 METAR LRTR 121500Z 34012KT CAVOK 28/13 Q1025=
201909121530 METAR LRTR 121530Z 34014KT CAVOK 26/13 Q1025=
201909121600 METAR LRTR 121600Z 33013KT CAVOK 25/13 Q1025=
201909121630 METAR LRTR 121630Z 33011KT CAVOK 25/13 Q1025 NOSIG=
201909121700 METAR LRTR 121700Z 33008KT CAVOK 23/13 Q1025 NOSIG=
201909121730 METAR LRTR 121730Z 35006KT CAVOK 21/14 Q1026 NOSIG=
201909121800 METAR LRTR 121800Z 34005KT CAVOK 20/14 Q1026 NOSIG=
201909121830 METAR LRTR 121830Z 35004KT 330V030 CAVOK 20/14 Q1026 NOSIG=
201909121900 METAR LRTR 121900Z 34006KT CAVOK 20/14 Q1027 NOSIG=
201909121930 METAR LRTR 121930Z 33005KT CAVOK 18/14 Q1027 NOSIG=
201909122000 METAR LRTR 122000Z 33005KT CAVOK 17/14 Q1027 NOSIG=
201909122030 METAR LRTR 122030Z 32005KT CAVOK 16/14 Q1027 NOSIG=
201909122100 METAR LRTR 122100Z 34007KT CAVOK 17/13 Q1027 NOSIG=
201909122130 METAR LRTR 122130Z VRB01KT CAVOK 17/12 Q1027 NOSIG=
201909122200 METAR LRTR 122200Z 33004KT CAVOK 15/12 Q1027 NOSIG=
201909122230 METAR LRTR 122230Z 31006KT CAVOK 15/12 Q1027 NOSIG=
201909122300 METAR LRTR 122300Z 31006KT CAVOK 16/12 Q1027 NOSIG=
201909122330 METAR LRTR 122330Z 33004KT CAVOK 17/12 Q1027 NOSIG=
201909130000 METAR LRTR 130000Z 34007KT CAVOK 16/12 Q1027 NOSIG=
201909130030 METAR LRTR 130030Z 35005KT CAVOK 16/13 Q1027 NOSIG=
201909130100 METAR LRTR 130100Z 33005KT CAVOK 15/13 Q1027 NOSIG=
201909130130 METAR LRTR 130130Z 33005KT CAVOK 15/13 Q1027 NOSIG=
201909130200 METAR LRTR 130200Z 33005KT CAVOK 14/13 Q1027 NOSIG=
201909130230 METAR LRTR 130230Z 33003KT 280V360 CAVOK 15/13 Q1027 NOSIG=
201909130300 METAR LRTR 130300Z 00000KT CAVOK 14/12 Q1027 NOSIG=
201909130330 METAR LRTR 130330Z 27003KT CAVOK 12/12 Q1027 NOSIG=
201909130400 METAR LRTR 130400Z 29004KT CAVOK 12/12 Q1027 NOSIG=
201909130430 METAR LRTR 130430Z 34003KT CAVOK 12/12 Q1028 NOSIG=
201909130500 METAR LRTR 130500Z 29004KT CAVOK 12/12 Q1028 NOSIG=
201909130530 METAR LRTR 130530Z 30002KT CAVOK 14/13 Q1028 NOSIG=
201909130600 METAR LRTR 130600Z 00000KT CAVOK 16/13 Q1028 NOSIG=
201909130630 METAR LRTR 130630Z 00000KT CAVOK 17/14 Q1028 NOSIG=
201909130700 METAR LRTR 130700Z VRB01KT CAVOK 18/14 Q1028 NOSIG=
201909130730 METAR LRTR 130730Z 21003KT 150V230 CAVOK 19/14 Q1029 NOSIG=
201909130800 METAR LRTR 130800Z VRB02KT CAVOK 21/13 Q1029 NOSIG=
201909130830 METAR COR LRTR 130830Z 25003KT CAVOK 22/14 Q1028 NOSIG=
201909130900 METAR LRTR 130900Z 27005KT CAVOK 23/13 Q1028 NOSIG=
201909130930 METAR LRTR 130930Z 29006KT 260V330 CAVOK 24/13 Q1028 NOSIG=
201909131000 METAR LRTR 131000Z 31006KT 290V350 CAVOK 25/12 Q1028 NOSIG=
201909131030 METAR LRTR 131030Z 29007KT 250V330 9999 FEW040 26/12 Q1028
                        NOSIG=
201909131100 METAR LRTR 131100Z 30009KT 9999 FEW045 26/11 Q1027 NOSIG=
201909131130 METAR LRTR 131130Z 29005KT 220V340 9999 FEW045 27/11 Q1027
                        NOSIG=
201909131200 METAR LRTR 131200Z VRB03KT 9999 FEW047 27/11 Q1027 NOSIG=
201909131230 METAR LRTR 131230Z 31005KT 260V350 9999 FEW048 27/10 Q1027
                        NOSIG=
201909131300 METAR LRTR 131300Z 28008KT 240V330 CAVOK 28/09 Q1026 NOSIG=
201909131330 METAR LRTR 131330Z 30008KT 260V320 CAVOK 28/09 Q1026 NOSIG=
201909131400 METAR LRTR 131400Z 28007KT CAVOK 28/09 Q1026 NOSIG=
201909131430 METAR LRTR 131430Z 30007KT CAVOK 28/10 Q1026 NOSIG=
201909131500 METAR LRTR 131500Z 32007KT CAVOK 28/09 Q1026 NOSIG=
201909131530 METAR LRTR 131530Z 31007KT CAVOK 27/09 Q1026 NOSIG=
201909131600 METAR LRTR 131600Z 31006KT CAVOK 26/10 Q1026 NOSIG=
201909131630 METAR LRTR 131630Z 31005KT CAVOK 24/10 Q1026=
201909131700 METAR LRTR 131700Z 30003KT CAVOK 23/10 Q1026=
201909131730 METAR LRTR 131730Z 29004KT CAVOK 22/10 Q1026=
201909131800 METAR LRTR 131800Z 30003KT CAVOK 21/10 Q1026=
201909131830 METAR COR LRTR 131830Z 29004KT CAVOK 19/11 Q1027=
201909131900 METAR LRTR 131900Z 30007KT CAVOK 17/12 Q1027=
201909131930 METAR LRTR 131930Z 32007KT CAVOK 17/12 Q1027=
201909132000 METAR LRTR 132000Z 33006KT CAVOK 16/12 Q1027=
201909132030 METAR LRTR 132030Z 31004KT CAVOK 16/13 Q1027=
201909132100 METAR LRTR 132100Z 30005KT CAVOK 16/13 Q1027=
201909132130 METAR LRTR 132130Z 33004KT 280V360 CAVOK 16/13 Q1027=
201909132200 METAR LRTR 132200Z 33004KT CAVOK 16/13 Q1027=
201909132230 METAR LRTR 132230Z 32005KT CAVOK 15/12 Q1027=
201909132300 METAR LRTR 132300Z 31005KT CAVOK 14/12 Q1027=
201909132330 METAR LRTR 132330Z 31006KT CAVOK 14/13 Q1027=
201909140000 METAR LRTR 140000Z 31003KT CAVOK 14/12 Q1027=
201909140030 METAR LRTR 140030Z AUTO 27003KT 9999 NCD 13/12 Q1027=
201909140100 METAR LRTR 140100Z 29004KT CAVOK 13/12 Q1026=
201909140130 METAR LRTR 140130Z 30002KT CAVOK 12/12 Q1026=
201909140200 METAR LRTR 140200Z 32003KT CAVOK 12/12 Q1026=
201909140230 METAR LRTR 140230Z VRB01KT CAVOK 12/12 Q1026=
201909140300 METAR LRTR 140300Z 07004KT CAVOK 11/11 Q1026=
201909140330 METAR LRTR 140330Z 07003KT CAVOK 11/11 Q1026=
201909140400 METAR LRTR 140400Z VRB02KT CAVOK 11/11 Q1026=
201909140430 METAR LRTR 140430Z 10004KT CAVOK 11/11 Q1027=
201909140500 METAR LRTR 140500Z VRB02KT CAVOK 12/12 Q1027=
201909140530 METAR LRTR 140530Z VRB02KT CAVOK 13/13 Q1027=
201909140600 METAR COR LRTR 140600Z 09003KT CAVOK 14/14 Q1027=
201909140630 METAR LRTR 140630Z VRB02KT CAVOK 15/13 Q1027=
201909140700 METAR LRTR 140700Z VRB02KT CAVOK 16/13 Q1027=
201909140730 METAR COR LRTR 140730Z VRB01KT CAVOK 18/13 Q1027=
201909140800 METAR LRTR 140800Z VRB02KT CAVOK 19/13 Q1027=
201909140830 METAR COR LRTR 140830Z 00000KT CAVOK 22/14 Q1027=
201909140900 METAR COR LRTR 140900Z 32004KT 290V020 CAVOK 24/13 Q1027=
201909140930 METAR LRTR 140930Z 34004KT 290V020 9999 FEW040 25/13 Q1027=
201909141000 METAR COR LRTR 141000Z 29005KT 260V060 9999 FEW045 26/13
                        Q1027=
201909141030 METAR LRTR 141030Z 32006KT 270V020 9999 FEW048 26/11 Q1027=
201909141100 METAR LRTR 141100Z 35009KT CAVOK 27/12 Q1026=
201909141130 METAR LRTR 141130Z 36010KT 320V020 CAVOK 27/11 Q1026=
201909141200 METAR LRTR 141200Z 36010KT 340V040 CAVOK 27/12 Q1026=
201909141230 METAR LRTR 141230Z 36010KT 330V040 CAVOK 27/12 Q1025=
201909141300 METAR LRTR 141300Z 01010KT 340V040 CAVOK 27/11 Q1025=
201909141330 METAR COR LRTR 141330Z 35014KT CAVOK 27/10 Q1025=
201909141400 METAR LRTR 141400Z 35014KT 330V030 CAVOK 26/11 Q1025=
201909141430 METAR LRTR 141430Z 35015KT CAVOK 27/10 Q1025=
201909141500 METAR LRTR 141500Z 01013KT CAVOK 26/10 Q1025=
201909141530 METAR LRTR 141530Z 01014KT CAVOK 25/09 Q1025=
201909141600 METAR LRTR 141600Z 35013KT CAVOK 24/10 Q1025=
201909141630 METAR LRTR 141630Z 36010KT CAVOK 23/10 Q1025=
201909141700 METAR LRTR 141700Z 36008KT CAVOK 22/10 Q1026=
201909141730 METAR LRTR 141730Z 35006KT CAVOK 21/09 Q1026=
201909141800 METAR COR LRTR 141800Z 35007KT CAVOK 20/10 Q1026=
201909141830 METAR LRTR 141830Z 01006KT CAVOK 19/10 Q1026=
201909141900 METAR LRTR 141900Z 36007KT CAVOK 18/09 Q1026=
201909141930 METAR LRTR 141930Z 36006KT CAVOK 17/09 Q1027=
201909142000 METAR LRTR 142000Z 07003KT 040V110 CAVOK 17/09 Q1027=
201909142030 METAR LRTR 142030Z 03006KT CAVOK 16/08 Q1027=
201909142100 METAR LRTR 142100Z 02006KT CAVOK 16/08 Q1027=
201909142130 METAR LRTR 142130Z 03008KT CAVOK 16/07 Q1027=
201909142200 METAR LRTR 142200Z 02008KT CAVOK 16/07 Q1027=
201909142230 METAR LRTR 142230Z 02009KT CAVOK 15/07 Q1027=
201909142300 METAR LRTR 142300Z 02007KT CAVOK 14/07 Q1027=
201909142330 METAR LRTR 142330Z 02007KT CAVOK 14/07 Q1027=
201909150000 METAR LRTR 150000Z 36006KT CAVOK 14/07 Q1027=
201909150030 METAR LRTR 150030Z 01007KT CAVOK 14/07 Q1027=
201909150100 METAR LRTR 150100Z 01006KT CAVOK 13/07 Q1026=
201909150130 METAR LRTR 150130Z 01005KT CAVOK 13/07 Q1026=
201909150200 METAR LRTR 150200Z 02003KT 360V060 CAVOK 13/07 Q1026=
201909150230 METAR LRTR 150230Z 01005KT CAVOK 13/07 Q1026=
201909150300 METAR COR LRTR 150300Z 02007KT 360V090 CAVOK 12/07 Q1026=
201909150330 METAR LRTR 150330Z 05005KT CAVOK 11/07 Q1026=
201909150400 METAR LRTR 150400Z 07004KT CAVOK 11/07 Q1026=
201909150430 METAR LRTR 150430Z 11003KT CAVOK 11/08 Q1027=
201909150500 METAR LRTR 150500Z 06003KT CAVOK 11/08 Q1027=
201909150530 METAR LRTR 150530Z VRB02KT CAVOK 14/09 Q1027=
201909150600 METAR LRTR 150600Z 12005KT CAVOK 16/10 Q1027=
201909150630 METAR LRTR 150630Z 13005KT CAVOK 17/10 Q1027=
201909150700 METAR LRTR 150700Z 15003KT 130V190 CAVOK 18/11 Q1027=
201909150730 METAR LRTR 150730Z 14004KT 100V180 CAVOK 19/11 Q1027=
201909150800 METAR LRTR 150800Z 15004KT 110V190 CAVOK 21/11 Q1027=
201909150830 METAR LRTR 150830Z 19004KT 150V240 CAVOK 22/11 Q1027=
201909150900 METAR LRTR 150900Z 18004KT 090V220 CAVOK 23/10 Q1027=
201909150930 METAR LRTR 150930Z 26003KT 160V320 9999 FEW045 23/10 Q1027=
201909151000 METAR LRTR 151000Z VRB04KT 9999 FEW048 24/11 Q1027=
201909151030 METAR LRTR 151030Z VRB07KT CAVOK 24/11 Q1026=
201909151100 METAR LRTR 151100Z 24006KT 220V280 CAVOK 24/11 Q1026=
201909151130 METAR LRTR 151130Z 24004KT 220V310 CAVOK 25/10 Q1025=
201909151200 METAR LRTR 151200Z 23006KT 140V250 CAVOK 25/09 Q1025=
201909151230 METAR LRTR 151230Z VRB05KT CAVOK 25/09 Q1025=
201909151300 METAR LRTR 151300Z 26006KT 210V290 CAVOK 26/09 Q1024=
201909151330 METAR LRTR 151330Z 29005KT 230V010 CAVOK 26/09 Q1024=
201909151400 METAR LRTR 151400Z 22003KT 170V250 CAVOK 26/08 Q1023=
201909151430 METAR LRTR 151430Z VRB01KT CAVOK 26/09 Q1023=
201909151500 METAR COR LRTR 151500Z 20003KT CAVOK 26/10 Q1023=
201909151530 METAR LRTR 151530Z 23003KT 200V270 CAVOK 26/09 Q1022=
201909151600 METAR LRTR 151600Z VRB01KT CAVOK 25/09 Q1022=
201909151630 METAR LRTR 151630Z 25004KT CAVOK 24/10 Q1022=
201909151700 METAR LRTR 151700Z 26004KT CAVOK 22/10 Q1022=
201909151730 METAR COR LRTR 151730Z 28005KT CAVOK 20/10 Q1022=
201909151800 METAR LRTR 151800Z 00000KT CAVOK 20/09 Q1022=
201909151830 METAR LRTR 151830Z 00000KT CAVOK 18/09 Q1022=
201909151900 METAR LRTR 151900Z 06003KT CAVOK 18/08 Q1022=
201909151930 METAR LRTR 151930Z 06004KT CAVOK 15/08 Q1022=
201909152000 METAR LRTR 152000Z 06003KT CAVOK 16/08 Q1022=
201909152030 METAR LRTR 152030Z 08003KT CAVOK 16/08 Q1022=
201909152100 METAR LRTR 152100Z 09002KT CAVOK 15/09 Q1022=
201909152130 METAR LRTR 152130Z 12003KT CAVOK 14/09 Q1022=
201909152200 METAR LRTR 152200Z 13003KT CAVOK 14/09 Q1021=
201909152230 METAR LRTR 152230Z 11006KT CAVOK 12/09 Q1021=
201909152300 METAR LRTR 152300Z 08005KT CAVOK 11/09 Q1022=
201909152330 METAR LRTR 152330Z 11006KT CAVOK 12/09 Q1021=
201909160000 METAR LRTR 160000Z 10005KT CAVOK 11/09 Q1021=
201909160030 METAR LRTR 160030Z 09006KT CAVOK 11/09 Q1021=
201909160100 METAR LRTR 160100Z 09007KT CAVOK 11/09 Q1021=
201909160130 METAR COR LRTR 160130Z 11006KT CAVOK 10/09 Q1020=
201909160200 METAR LRTR 160200Z 10005KT CAVOK 10/09 Q1020=
201909160230 METAR LRTR 160230Z 09006KT CAVOK 10/09 Q1020=
201909160300 METAR LRTR 160300Z 10006KT CAVOK 11/09 Q1020=
201909160330 METAR LRTR 160330Z 10005KT CAVOK 10/09 Q1020=
201909160400 METAR LRTR 160400Z 12005KT CAVOK 10/09 Q1020=
201909160430 METAR LRTR 160430Z 12004KT CAVOK 10/09 Q1020=
201909160500 METAR LRTR 160500Z 11006KT CAVOK 11/10 Q1020=
201909160530 METAR LRTR 160530Z 11005KT CAVOK 13/11 Q1020=
201909160600 METAR LRTR 160600Z 11008KT CAVOK 15/11 Q1020=
201909160630 METAR LRTR 160630Z 13006KT CAVOK 16/12 Q1020=
201909160700 METAR LRTR 160700Z 13004KT CAVOK 17/11 Q1020=
201909160730 METAR LRTR 160730Z 14004KT 090V170 CAVOK 19/11 Q1020=
201909160800 METAR LRTR 160800Z 18003KT 070V240 CAVOK 21/11 Q1020=
201909160830 METAR LRTR 160830Z 17003KT 110V240 CAVOK 22/11 Q1020=
201909160900 METAR LRTR 160900Z 22004KT 160V270 CAVOK 24/11 Q1020=
201909160930 METAR LRTR 160930Z 21003KT CAVOK 24/11 Q1019=
201909161000 METAR LRTR 161000Z VRB03KT CAVOK 26/12 Q1019=
201909161030 METAR LRTR 161030Z VRB03KT CAVOK 26/11 Q1019=
201909161100 METAR LRTR 161100Z 27007KT CAVOK 27/12 Q1018=
201909161130 METAR LRTR 161130Z 27006KT CAVOK 26/11 Q1018=
201909161200 METAR LRTR 161200Z 27008KT CAVOK 27/11 Q1018=
201909161230 METAR LRTR 161230Z 28005KT 210V360 CAVOK 28/11 Q1017=
201909161300 METAR LRTR 161300Z 28009KT CAVOK 28/10 Q1017=
201909161330 METAR LRTR 161330Z 26006KT 200V300 CAVOK 28/10 Q1016=
201909161400 METAR LRTR 161400Z 28009KT 250V310 CAVOK 29/10 Q1016=
201909161430 METAR LRTR 161430Z 27008KT 240V310 CAVOK 29/10 Q1015=
201909161500 METAR LRTR 161500Z 29007KT CAVOK 28/10 Q1015=
201909161530 METAR LRTR 161530Z 27008KT CAVOK 28/10 Q1015=
201909161600 METAR LRTR 161600Z 26005KT CAVOK 27/11 Q1015=
201909161630 METAR LRTR 161630Z 30006KT CAVOK 25/11 Q1015=
201909161700 METAR LRTR 161700Z 30004KT CAVOK 23/11 Q1015=
201909161730 METAR LRTR 161730Z 32004KT CAVOK 22/11 Q1015=
201909161800 METAR LRTR 161800Z 30003KT CAVOK 22/11 Q1015=
201909161830 METAR LRTR 161830Z 28003KT CAVOK 21/11 Q1015=
201909161900 METAR LRTR 161900Z 29002KT CAVOK 20/11 Q1015=
201909161930 METAR LRTR 161930Z 00000KT CAVOK 19/11 Q1015=
201909162000 METAR LRTR 162000Z 05001KT CAVOK 19/11 Q1015=
201909162030 METAR LRTR 162030Z 00000KT CAVOK 17/11 Q1015=
201909162100 METAR LRTR 162100Z 12005KT CAVOK 16/11 Q1015=
201909162130 METAR LRTR 162130Z 11006KT CAVOK 15/11 Q1015=
201909162200 METAR LRTR 162200Z 09005KT CAVOK 14/11 Q1015=
201909162230 METAR LRTR 162230Z 09005KT CAVOK 14/11 Q1015=
201909162300 METAR LRTR 162300Z 09005KT CAVOK 14/11 Q1015=
201909162330 METAR LRTR 162330Z 10005KT CAVOK 14/11 Q1015=
201909170000 METAR LRTR 170000Z 09005KT CAVOK 13/11 Q1015=
201909170030 METAR LRTR 170030Z 12004KT CAVOK 14/11 Q1015=
201909170100 METAR LRTR 170100Z 11007KT CAVOK 13/11 Q1014=
201909170130 METAR LRTR 170130Z 10006KT CAVOK 13/11 Q1014=
201909170200 METAR LRTR 170200Z 09006KT CAVOK 14/12 Q1014=
201909170230 METAR LRTR 170230Z 10005KT CAVOK 14/12 Q1014=
201909170300 METAR LRTR 170300Z VRB02KT CAVOK 16/12 Q1015=
201909170330 METAR LRTR 170330Z 08003KT CAVOK 17/12 Q1015=
201909170400 METAR LRTR 170400Z 16005KT CAVOK 15/12 Q1015=
201909170430 METAR LRTR 170430Z 16007KT CAVOK 15/12 Q1014 NOSIG=
201909170500 METAR LRTR 170500Z 11004KT CAVOK 15/12 Q1015 NOSIG=
201909170530 METAR LRTR 170530Z 09003KT 060V120 CAVOK 16/12 Q1015 NOSIG=
201909170600 METAR LRTR 170600Z 13007KT CAVOK 17/13 Q1015 NOSIG=
201909170630 METAR LRTR 170630Z 14005KT CAVOK 18/13 Q1015 NOSIG=
201909170700 METAR LRTR 170700Z 14005KT CAVOK 18/13 Q1015 NOSIG=
201909170730 METAR LRTR 170730Z 14004KT CAVOK 18/13 Q1015 NOSIG=
201909170800 METAR LRTR 170800Z 17006KT 9999 -RA NSC 18/14 Q1015 NOSIG=
201909170830 METAR LRTR 170830Z VRB01KT CAVOK 18/14 Q1015 NOSIG=
201909170900 METAR LRTR 170900Z 21004KT 9999 -RA NSC 19/15 Q1015 NOSIG=
201909170930 METAR LRTR 170930Z VRB02KT CAVOK 20/15 Q1015 NOSIG=
201909171000 METAR LRTR 171000Z 10002KT CAVOK 20/15 Q1015 NOSIG=
201909171030 METAR LRTR 171030Z VRB01KT CAVOK 22/15 Q1015 NOSIG=
201909171100 METAR LRTR 171100Z 00000KT CAVOK 22/14 Q1015 NOSIG=
201909171130 METAR LRTR 171130Z VRB01KT CAVOK 23/14 Q1015 NOSIG=
201909171200 METAR LRTR 171200Z 00000KT CAVOK 23/15 Q1014 NOSIG=
201909171230 METAR LRTR 171230Z 00000KT CAVOK 24/14 Q1014 NOSIG=
201909171300 METAR LRTR 171300Z 33004KT CAVOK 24/13 Q1014 NOSIG=
201909171330 METAR LRTR 171330Z 31007KT 270V340 CAVOK 25/13 Q1014 NOSIG=
201909171400 METAR LRTR 171400Z 32006KT 280V350 CAVOK 26/13 Q1014 NOSIG=
201909171430 METAR LRTR 171430Z 33005KT 290V020 CAVOK 25/12 Q1013 NOSIG=
201909171500 METAR LRTR 171500Z 35009KT CAVOK 25/13 Q1013 NOSIG=
201909171530 METAR LRTR 171530Z 35010KT CAVOK 24/12 Q1013 NOSIG=
201909171600 METAR LRTR 171600Z 35008KT CAVOK 23/12 Q1013 NOSIG=
201909171630 METAR LRTR 171630Z 01004KT CAVOK 21/12 Q1013=
201909171700 METAR LRTR 171700Z 36004KT CAVOK 20/12 Q1013=
201909171730 METAR LRTR 171730Z 01002KT CAVOK 19/12 Q1013=
201909171800 METAR COR LRTR 171800Z 04003KT CAVOK 19/12 Q1013=
201909171830 METAR LRTR 171830Z 11003KT CAVOK 18/12 Q1013=
201909171900 METAR LRTR 171900Z 08002KT CAVOK 17/12 Q1013=
201909171930 METAR LRTR 171930Z 08004KT CAVOK 17/13 Q1013=
201909172000 METAR LRTR 172000Z 04003KT CAVOK 17/13 Q1013=
201909172030 METAR LRTR 172030Z 06005KT CAVOK 17/13 Q1013=
201909172100 METAR LRTR 172100Z 08005KT CAVOK 17/13 Q1013=
201909172130 METAR LRTR 172130Z 01006KT CAVOK 17/13 Q1013=
201909172200 METAR LRTR 172200Z 36005KT CAVOK 18/13 Q1014=
201909172230 METAR LRTR 172230Z 02007KT 9999 -RA NSC 18/14 Q1014=
201909172300 METAR LRTR 172300Z 01005KT 9999 -RA NSC 17/15 Q1014 RERA
                        R11/290095=
201909172330 METAR LRTR 172330Z 33005KT 6000 RA NSC 17/15 Q1015 R11/290095=
201909180000 METAR LRTR 180000Z 33008KT 6000 RA FEW045 16/15 Q1014 R11/290095=
201909180030 METAR LRTR 180030Z 34005KT 9999 -RA NSC 16/15 Q1015 RERA
                        R11/290095=
201909180100 METAR LRTR 180100Z 32006KT 9999 -RA NSC 16/15 Q1015 R11/290095=
201909180130 METAR LRTR 180130Z 32004KT 9999 -RA NSC 16/15 Q1015 RERA
                        R11/290095=
201909180200 METAR LRTR 180200Z 26005KT 9999 -RA NSC 16/15 Q1015 R11/290095=
201909180230 METAR COR LRTR 180230Z 27004KT 9999 -RA NSC 15/15 Q1015 R11/290095=
201909180300 METAR COR LRTR 180300Z 29005KT CAVOK 15/15 Q1015 R11/290095=
201909180330 METAR LRTR 180330Z 29005KT 9999 -RA NSC 15/15 Q1016 R11/290095=
201909180400 METAR LRTR 180400Z 28005KT 9999 -RA NSC 15/14 Q1017 R11/290095=
201909180430 METAR LRTR 180430Z 28006KT 9999 -RA NSC 15/14 Q1017 R11/290095=
201909180500 METAR LRTR 180500Z 31008KT CAVOK 15/12 Q1018 R11/290095=
201909180530 METAR LRTR 180530Z 31007KT 9999 -RA NSC 14/11 Q1018 R11/290095=
201909180600 METAR LRTR 180600Z 29006KT CAVOK 15/11 Q1019 R11/290095=
201909180630 METAR LRTR 180630Z 28008KT 9999 FEW040 15/12 Q1019 R11/290095=
201909180700 METAR LRTR 180700Z 31012KT CAVOK 15/08 Q1019 R11/290095=
201909180730 METAR LRTR 180730Z 32010KT CAVOK 15/08 Q1019 R11/290095=
201909180800 METAR LRTR 180800Z 32012KT CAVOK 17/06 Q1020 R11/290095=
201909180830 METAR LRTR 180830Z 31011KT CAVOK 16/05 Q1020 R11/290095=
201909180900 METAR LRTR 180900Z 31009KT CAVOK 17/02 Q1020 R11/190095=
201909180930 METAR LRTR 180930Z 32011KT CAVOK 18/02 Q1020 R11/190095=
201909181000 METAR LRTR 181000Z 30011KT 270V340 CAVOK 19/04 Q1020 R11/190095=
201909181030 METAR LRTR 181030Z 30014KT 280V340 CAVOK 19/04 Q1020 R11/190095=
201909181100 METAR LRTR 181100Z 30011KT CAVOK 19/03 Q1020 R11/190095=
201909181130 METAR LRTR 181130Z 29010KT CAVOK 19/04 Q1020 R11/190095=
201909181200 METAR LRTR 181200Z 30009KT CAVOK 19/02 Q1020 R11/190095=
201909181230 METAR LRTR 181230Z 31011KT 280V340 CAVOK 20/02 Q1020 R11/190095=
201909181300 METAR LRTR 181300Z 32012KT 280V340 CAVOK 20/03 Q1020 R11/190095=
201909181330 METAR LRTR 181330Z 31011KT CAVOK 19/02 Q1020 R11/CLRD//=
201909181400 METAR LRTR 181400Z 32011KT CAVOK 19/00 Q1020=
201909181430 METAR LRTR 181430Z 31011KT CAVOK 19/00 Q1020=
201909181500 METAR LRTR 181500Z 32010KT CAVOK 19/01 Q1021=
201909181530 METAR LRTR 181530Z 30008KT CAVOK 18/01 Q1021=
201909181600 METAR LRTR 181600Z 31008KT CAVOK 16/03 Q1021=
201909181630 METAR LRTR 181630Z 29006KT CAVOK 14/03 Q1021=
201909181700 METAR COR LRTR 181700Z 28005KT CAVOK 13/03 Q1021=
201909181730 METAR LRTR 181730Z 28006KT CAVOK 13/03 Q1021=
201909181800 METAR LRTR 181800Z 29006KT CAVOK 13/03 Q1022=
201909181830 METAR COR LRTR 181830Z 29005KT CAVOK 13/03 Q1022=
201909181900 METAR LRTR 181900Z 30004KT CAVOK 11/03 Q1022=
201909181930 METAR LRTR 181930Z 26004KT CAVOK 11/04 Q1022=
201909182000 METAR LRTR 182000Z 28004KT 240V310 CAVOK 10/05 Q1022=
201909182030 METAR LRTR 182030Z 27005KT 230V290 CAVOK 09/06 Q1022=
201909182100 METAR LRTR 182100Z 27005KT CAVOK 10/07 Q1022=
201909182130 METAR LRTR 182130Z 31004KT CAVOK 08/06 Q1022=
201909182200 METAR LRTR 182200Z 30003KT CAVOK 08/06 Q1023=
201909182230 METAR LRTR 182230Z 28003KT CAVOK 07/06 Q1022=
201909182300 METAR LRTR 182300Z 30003KT CAVOK 07/06 Q1022=
201909182330 METAR LRTR 182330Z 00000KT CAVOK 07/05 Q1022=
201909190000 METAR COR LRTR 190000Z VRB02KT CAVOK 05/04 Q1022=
201909190030 METAR LRTR 190030Z VRB01KT CAVOK 06/04 Q1022=
201909190100 METAR LRTR 190100Z VRB01KT CAVOK 05/03 Q1022=
201909190130 METAR LRTR 190130Z 11004KT CAVOK 04/03 Q1022=
201909190200 METAR COR LRTR 190200Z 08005KT CAVOK 03/02 Q1022=
201909190230 METAR LRTR 190230Z 08005KT CAVOK 03/02 Q1022=
201909190300 METAR LRTR 190300Z 10005KT CAVOK 03/02 Q1022=
201909190330 METAR LRTR 190330Z 07002KT CAVOK 03/02 Q1023=
201909190400 METAR LRTR 190400Z 09004KT CAVOK 02/02 Q1023=
201909190430 METAR LRTR 190430Z 08005KT CAVOK 02/02 Q1023=
201909190500 METAR LRTR 190500Z 08003KT CAVOK 04/03 Q1023=
201909190530 METAR LRTR 190530Z 09003KT 050V120 CAVOK 06/05 Q1023=
201909190600 METAR LRTR 190600Z 12004KT CAVOK 08/06 Q1023=
201909190630 METAR LRTR 190630Z VRB02KT CAVOK 09/07 Q1024=
201909190700 METAR LRTR 190700Z VRB02KT CAVOK 11/07 Q1024=
201909190730 METAR LRTR 190730Z VRB02KT CAVOK 13/06 Q1024=
201909190800 METAR LRTR 190800Z VRB03KT CAVOK 14/05 Q1024=
201909190830 METAR LRTR 190830Z 33006KT 300V070 CAVOK 16/03 Q1024=
201909190900 METAR LRTR 190900Z 33005KT 270V020 9999 FEW043 16/03 Q1024=
201909190930 METAR LRTR 190930Z 35009KT 310V020 9999 FEW045 18/02 Q1023=
201909191000 METAR LRTR 191000Z 32010KT 290V350 9999 FEW048 17/01 Q1023=
201909191030 METAR LRTR 191030Z 35011KT CAVOK 17/M02 Q1023=
201909191100 METAR LRTR 191100Z 33010KT 290V360 CAVOK 19/01 Q1023=
201909191130 METAR LRTR 191130Z 31013KT CAVOK 19/M00 Q1022=
201909191200 METAR LRTR 191200Z 34011KT 310V010 CAVOK 19/M01 Q1022 WS
                        RWY29=
201909191230 METAR LRTR 191230Z 33010KT 300V360 CAVOK 19/M01 Q1022 WS
                        RWY29=
201909191300 METAR LRTR 191300Z 36010KT 320V020 CAVOK 20/M00 Q1022 WS
                        RWY29=
201909191330 METAR LRTR 191330Z 35010KT 290V020 CAVOK 19/M01 Q1022 WS
                        RWY29=
201909191400 METAR LRTR 191400Z 34012KT 310V010 CAVOK 19/M01 Q1022 WS
                        RWY29=
201909191430 METAR LRTR 191430Z 33010KT 300V360 CAVOK 19/M01 Q1022=
201909191500 METAR LRTR 191500Z 34012KT CAVOK 18/M00 Q1022=
201909191530 METAR LRTR 191530Z 33011KT CAVOK 18/M01 Q1022=
201909191600 METAR LRTR 191600Z 34009KT CAVOK 17/M00 Q1022=
201909191630 METAR LRTR 191630Z 33007KT CAVOK 15/00 Q1022=
201909191700 METAR LRTR 191700Z 33005KT CAVOK 13/00 Q1022=
201909191730 METAR COR LRTR 191730Z 34005KT CAVOK 12/01 Q1023=
201909191800 METAR LRTR 191800Z 35004KT CAVOK 11/01 Q1023=
201909191830 METAR LRTR 191830Z 35005KT CAVOK 10/01 Q1023=
201909191900 METAR LRTR 191900Z 01005KT CAVOK 09/01 Q1023=
201909191930 METAR LRTR 191930Z 29004KT 270V340 CAVOK 08/01 Q1023=
201909192000 METAR LRTR 192000Z 30006KT CAVOK 07/01 Q1024=
201909192030 METAR COR LRTR 192030Z 01004KT CAVOK 09/01 Q1024=
201909192100 METAR COR LRTR 192100Z 33005KT CAVOK 08/02 Q1024=
201909192130 METAR LRTR 192130Z 32006KT CAVOK 07/02 Q1024=
201909192200 METAR LRTR 192200Z 32006KT CAVOK 07/02 Q1024=
201909192230 METAR LRTR 192230Z 31005KT CAVOK 06/02 Q1024=
201909192300 METAR LRTR 192300Z 32004KT CAVOK 07/02 Q1024=
201909192330 METAR LRTR 192330Z 30004KT CAVOK 06/02 Q1024=
201909200000 METAR LRTR 200000Z 30004KT CAVOK 06/02 Q1024=
201909200030 METAR LRTR 200030Z 31006KT CAVOK 04/02 Q1024=
201909200100 METAR LRTR 200100Z 30006KT CAVOK 04/02 Q1024=
201909200130 METAR LRTR 200130Z 36004KT CAVOK 05/02 Q1024=
201909200200 METAR LRTR 200200Z 30003KT CAVOK 05/02 Q1024=
201909200230 METAR LRTR 200230Z VRB01KT CAVOK 04/02 Q1024=
201909200300 METAR LRTR 200300Z 09003KT CAVOK 04/02 Q1024=
201909200330 METAR LRTR 200330Z 01006KT CAVOK 03/01 Q1024=
201909200400 METAR LRTR 200400Z 01005KT CAVOK 04/02 Q1024=
201909200430 METAR LRTR 200430Z 35006KT CAVOK 03/01 Q1024=
201909200500 METAR LRTR 200500Z 06002KT CAVOK 04/02 Q1024=
201909200530 METAR LRTR 200530Z 06004KT CAVOK 06/03 Q1025=
201909200600 METAR LRTR 200600Z 04006KT CAVOK 08/04 Q1025=
201909200630 METAR LRTR 200630Z 03007KT 360V080 CAVOK 10/03 Q1025=
201909200700 METAR LRTR 200700Z 03009KT CAVOK 11/04 Q1025=
201909200730 METAR LRTR 200730Z 04008KT CAVOK 14/04 Q1026=
201909200800 METAR LRTR 200800Z 04011KT CAVOK 15/03 Q1026=
201909200830 METAR LRTR 200830Z 02012KT 360V060 CAVOK 16/03 Q1026=
201909200900 METAR LRTR 200900Z 03011KT CAVOK 16/02 Q1026=
201909200930 METAR LRTR 200930Z 01012KT CAVOK 17/03 Q1026=
201909201000 METAR LRTR 201000Z 02012KT CAVOK 16/01 Q1026=
201909201030 METAR LRTR 201030Z 01013KT CAVOK 16/01 Q1025=
201909201100 METAR LRTR 201100Z 35010KT CAVOK 17/01 Q1025=
201909201130 METAR LRTR 201130Z 34009KT CAVOK 17/01 Q1025=
201909201200 METAR LRTR 201200Z 35013KT 310V020 CAVOK 18/M01 Q1025=
201909201230 METAR LRTR 201230Z 34011KT CAVOK 17/M01 Q1025=
201909201300 METAR LRTR 201300Z 01011KT 340V040 CAVOK 18/M01 Q1025=
201909201330 METAR LRTR 201330Z 01009KT CAVOK 18/M02 Q1025=
201909201400 METAR LRTR 201400Z 01011KT CAVOK 18/M02 Q1024=
201909201430 METAR LRTR 201430Z 02012KT CAVOK 18/M01 Q1025=
201909201500 METAR LRTR 201500Z 36011KT CAVOK 17/M01 Q1025=
201909201530 METAR LRTR 201530Z 36009KT 330V030 CAVOK 16/M01 Q1025=
201909201600 METAR LRTR 201600Z 01007KT CAVOK 16/M00 Q1025=
201909201630 METAR LRTR 201630Z 36006KT CAVOK 14/00 Q1025=
201909201700 METAR LRTR 201700Z 35006KT CAVOK 12/00 Q1025=
201909201730 METAR LRTR 201730Z 01006KT CAVOK 11/00 Q1026=
201909201800 METAR LRTR 201800Z 02005KT CAVOK 09/00 Q1026=
201909201830 METAR LRTR 201830Z 02006KT CAVOK 08/00 Q1026=
201909201900 METAR LRTR 201900Z 01006KT CAVOK 08/M00 Q1026=
201909201930 METAR LRTR 201930Z 01005KT CAVOK 07/00 Q1026=
201909202000 METAR LRTR 202000Z 04004KT 010V080 CAVOK 08/00 Q1027=
201909202030 METAR LRTR 202030Z 04004KT CAVOK 07/00 Q1027=
201909202100 METAR LRTR 202100Z 02002KT CAVOK 08/00 Q1027=
201909202130 METAR LRTR 202130Z 03004KT CAVOK 06/00 Q1027=
201909202200 METAR LRTR 202200Z 31005KT CAVOK 05/01 Q1027=
201909202230 METAR LRTR 202230Z 32003KT CAVOK 05/01 Q1027=
201909202300 METAR LRTR 202300Z 06003KT CAVOK 06/01 Q1027=
201909202330 METAR LRTR 202330Z 08004KT CAVOK 06/00 Q1027=
201909210000 METAR LRTR 210000Z 08006KT CAVOK 04/01 Q1027=
201909210030 METAR LRTR 210030Z 11003KT 080V170 CAVOK 05/01 Q1027=
201909210100 METAR LRTR 210100Z 16001KT CAVOK 05/01 Q1027=
201909210130 METAR LRTR 210130Z 00000KT CAVOK 04/M00 Q1027=
201909210200 METAR LRTR 210200Z 09003KT CAVOK 03/00 Q1027=
201909210230 METAR LRTR 210230Z 06003KT CAVOK 03/00 Q1027=
201909210300 METAR LRTR 210300Z 04002KT CAVOK 04/00 Q1027=
201909210330 METAR LRTR 210330Z 10004KT 060V120 CAVOK 02/M00 Q1027=
201909210400 METAR LRTR 210400Z 10006KT CAVOK 02/00 Q1027=
201909210430 METAR LRTR 210430Z 09005KT CAVOK 01/00 Q1027 NOSIG=
201909210500 METAR LRTR 210500Z 10004KT CAVOK 02/01 Q1027 NOSIG=
201909210530 METAR LRTR 210530Z 10004KT CAVOK 05/02 Q1028 NOSIG=
201909210600 METAR LRTR 210600Z 11005KT CAVOK 07/03 Q1028 NOSIG=
201909210630 METAR LRTR 210630Z 12005KT CAVOK 09/03 Q1028 NOSIG=
201909210700 METAR LRTR 210700Z 11006KT 080V140 CAVOK 11/02 Q1028 NOSIG=
201909210730 METAR LRTR 210730Z 11006KT CAVOK 13/02 Q1028 NOSIG=
201909210800 METAR LRTR 210800Z 12005KT 090V150 CAVOK 14/02 Q1028 NOSIG=
201909210830 METAR LRTR 210830Z VRB04KT CAVOK 15/00 Q1028 NOSIG=
201909210900 METAR LRTR 210900Z VRB02KT CAVOK 17/01 Q1028 NOSIG=
201909210930 METAR LRTR 210930Z 16004KT 130V200 CAVOK 17/01 Q1028 NOSIG=
201909211000 METAR LRTR 211000Z 05005KT 010V090 CAVOK 18/00 Q1028 NOSIG=
201909211030 METAR LRTR 211030Z VRB03KT CAVOK 18/M00 Q1027 NOSIG=
201909211100 METAR LRTR 211100Z VRB04KT CAVOK 19/00 Q1027 NOSIG=
201909211130 METAR LRTR 211130Z VRB03KT CAVOK 18/M00 Q1027 NOSIG=
201909211200 METAR LRTR 211200Z 08003KT 010V170 CAVOK 19/M00 Q1026 NOSIG=
201909211230 METAR LRTR 211230Z VRB03KT CAVOK 19/M00 Q1026 NOSIG=
201909211300 METAR LRTR 211300Z 18003KT 130V210 CAVOK 20/01 Q1026 NOSIG=
201909211330 METAR LRTR 211330Z 01004KT 310V100 CAVOK 20/00 Q1025 NOSIG=
201909211400 METAR LRTR 211400Z 26005KT 200V340 CAVOK 20/M00 Q1025 NOSIG=
201909211430 METAR LRTR 211430Z 18003KT 110V220 CAVOK 20/00 Q1025 NOSIG=
201909211500 METAR LRTR 211500Z 22003KT 120V290 CAVOK 20/M00 Q1025 NOSIG=
201909211530 METAR LRTR 211530Z 29005KT CAVOK 19/01 Q1025 NOSIG=
201909211600 METAR LRTR 211600Z 26003KT CAVOK 18/01 Q1025 NOSIG=
201909211630 METAR LRTR 211630Z 28003KT CAVOK 17/00 Q1025=
201909211700 METAR LRTR 211700Z 31003KT CAVOK 16/01 Q1025=
201909211730 METAR LRTR 211730Z 32003KT CAVOK 15/01 Q1025=
201909211800 METAR LRTR 211800Z 34003KT CAVOK 13/02 Q1025=
201909211830 METAR LRTR 211830Z 02005KT CAVOK 11/01 Q1025=
201909211900 METAR LRTR 211900Z 04004KT CAVOK 10/01 Q1025=
201909211930 METAR LRTR 211930Z 04005KT CAVOK 10/01 Q1024=
201909212000 METAR LRTR 212000Z 05006KT CAVOK 09/01 Q1024=
201909212030 METAR LRTR 212030Z 08005KT CAVOK 09/01 Q1024=
201909212100 METAR LRTR 212100Z 09007KT CAVOK 08/02 Q1024=
201909212130 METAR LRTR 212130Z 10007KT CAVOK 07/02 Q1024=
201909212200 METAR LRTR 212200Z 09007KT CAVOK 07/02 Q1024=
201909212230 METAR LRTR 212230Z 08007KT CAVOK 06/02 Q1024=
201909212300 METAR LRTR 212300Z 08007KT CAVOK 07/02 Q1023=
201909212330 METAR LRTR 212330Z 08007KT CAVOK 07/02 Q1024=
201909220000 METAR LRTR 220000Z 09007KT CAVOK 06/02 Q1023=
201909220030 METAR LRTR 220030Z 09007KT CAVOK 07/02 Q1023=
201909220100 METAR COR LRTR 220100Z 09007KT CAVOK 06/02 Q1023=
201909220130 METAR LRTR 220130Z 11007KT CAVOK 05/02 Q1023=
201909220200 METAR LRTR 220200Z 10007KT CAVOK 05/02 Q1023=
201909220230 METAR LRTR 220230Z 11008KT CAVOK 05/03 Q1023=
201909220300 METAR LRTR 220300Z 10006KT CAVOK 05/02 Q1022=
201909220330 METAR LRTR 220330Z 10006KT CAVOK 04/02 Q1022=
201909220400 METAR LRTR 220400Z 11008KT CAVOK 03/02 Q1022=
201909220430 METAR LRTR 220430Z 10007KT CAVOK 04/02 Q1022=
201909220500 METAR LRTR 220500Z 11006KT CAVOK 05/03 Q1022=
201909220530 METAR LRTR 220530Z 11006KT CAVOK 07/04 Q1022=
201909220600 METAR LRTR 220600Z 12008KT CAVOK 10/04 Q1022=
201909220630 METAR LRTR 220630Z 11009KT CAVOK 12/04 Q1022=
201909220700 METAR LRTR 220700Z 11010KT CAVOK 14/03 Q1022=
201909220730 METAR LRTR 220730Z 12010KT CAVOK 16/02 Q1022=
201909220800 METAR LRTR 220800Z 11010KT CAVOK 17/02 Q1022=
201909220830 METAR LRTR 220830Z 12007KT CAVOK 19/02 Q1022=
201909220900 METAR LRTR 220900Z 12007KT CAVOK 20/03 Q1021=
201909220930 METAR LRTR 220930Z 12007KT 090V160 CAVOK 21/02 Q1021=
201909221000 METAR LRTR 221000Z 15005KT 110V210 CAVOK 21/01 Q1020=
201909221030 METAR LRTR 221030Z 14010KT 120V190 CAVOK 22/M00 Q1020=
201909221100 METAR LRTR 221100Z 16007KT 130V200 CAVOK 22/00 Q1019=
201909221130 METAR LRTR 221130Z 16005KT 100V190 CAVOK 23/M00 Q1019=
201909221200 METAR LRTR 221200Z 16006KT 120V210 CAVOK 24/01 Q1018=
201909221230 METAR LRTR 221230Z 14005KT 100V190 CAVOK 24/M01 Q1018=
201909221300 METAR LRTR 221300Z 15006KT 130V200 CAVOK 25/M00 Q1017=
201909221330 METAR LRTR 221330Z VRB05KT CAVOK 25/M00 Q1017=
201909221400 METAR LRTR 221400Z 19004KT 140V290 CAVOK 25/M01 Q1017=
201909221430 METAR LRTR 221430Z 19006KT CAVOK 24/M01 Q1016=
201909221500 METAR LRTR 221500Z 23003KT CAVOK 24/01 Q1016=
201909221530 METAR LRTR 221530Z 16002KT CAVOK 23/01 Q1016=
201909221600 METAR LRTR 221600Z 00000KT CAVOK 22/02 Q1016=
201909221630 METAR LRTR 221630Z 00000KT CAVOK 21/03 Q1016 NOSIG=
201909221700 METAR LRTR 221700Z 07002KT CAVOK 18/04 Q1016 NOSIG=
201909221730 METAR LRTR 221730Z 06005KT CAVOK 14/04 Q1016 NOSIG=
201909221800 METAR LRTR 221800Z 06005KT CAVOK 14/03 Q1016 NOSIG=
201909221830 METAR LRTR 221830Z 06005KT CAVOK 14/03 Q1016 NOSIG=
201909221900 METAR LRTR 221900Z 06005KT CAVOK 13/03 Q1016 NOSIG=
201909221930 METAR LRTR 221930Z 09006KT CAVOK 13/04 Q1016 NOSIG=
201909222000 METAR LRTR 222000Z 09006KT CAVOK 13/05 Q1016 NOSIG=
201909222030 METAR LRTR 222030Z 10007KT CAVOK 14/05 Q1016 NOSIG=
201909222100 METAR LRTR 222100Z 09007KT CAVOK 14/04 Q1016 NOSIG=
201909222130 METAR LRTR 222130Z 09006KT CAVOK 14/04 Q1016 NOSIG=
201909222200 METAR LRTR 222200Z 09007KT CAVOK 14/04 Q1016 NOSIG=
201909222230 METAR LRTR 222230Z 09007KT CAVOK 15/04 Q1015 NOSIG=
201909222300 METAR LRTR 222300Z 10007KT CAVOK 15/04 Q1016 NOSIG=
201909222330 METAR LRTR 222330Z 10007KT CAVOK 15/04 Q1015 NOSIG=
201909230000 METAR LRTR 230000Z 10007KT CAVOK 15/04 Q1015 NOSIG=
201909230030 METAR LRTR 230030Z 10006KT CAVOK 15/04 Q1015 NOSIG=
201909230100 METAR LRTR 230100Z 11006KT CAVOK 15/05 Q1015 NOSIG=
201909230130 METAR LRTR 230130Z 10006KT 9999 -RA NSC 15/05 Q1015 NOSIG=
201909230200 METAR LRTR 230200Z 11007KT CAVOK 15/05 Q1015 NOSIG=
201909230230 METAR LRTR 230230Z 10008KT CAVOK 15/05 Q1015 NOSIG=
201909230300 METAR LRTR 230300Z 11006KT CAVOK 15/05 Q1015 NOSIG=
201909230330 METAR LRTR 230330Z 11005KT CAVOK 14/06 Q1015 NOSIG=
201909230400 METAR LRTR 230400Z 11005KT CAVOK 14/06 Q1015 NOSIG=
201909230430 METAR LRTR 230430Z 14005KT CAVOK 14/06 Q1015=
201909230500 METAR LRTR 230500Z 13004KT 9999 -RA NSC 14/07 Q1015=
201909230530 METAR LRTR 230530Z 08005KT 9999 -RA NSC 12/09 Q1015 R11/19//95=
201909230600 METAR LRTR 230600Z 07006KT CAVOK 13/10 Q1015 R11/19//95=
201909230630 METAR LRTR 230630Z 08006KT CAVOK 14/10 Q1015 R11/19//95=
201909230700 METAR LRTR 230700Z 08006KT 9999 -RA NSC 14/11 Q1015 R11/19//95=
201909230730 METAR LRTR 230730Z 11006KT 9999 -RA NSC 15/12 Q1015 R11/19//95=
201909230800 METAR LRTR 230800Z 13009KT CAVOK 15/11 Q1015 R11/19//95=
201909230830 METAR LRTR 230830Z 14009KT CAVOK 16/11 Q1015 R11/19//95=
201909230900 METAR LRTR 230900Z 12010KT 9999 -RA NSC 16/11 Q1015 R11/19//95=
201909230930 METAR LRTR 230930Z 10010KT CAVOK 16/11 Q1014 R11/19//95=
201909231000 METAR LRTR 231000Z 12009KT CAVOK 17/12 Q1014 R11/CLRD//=
201909231030 METAR LRTR 231030Z 10011KT CAVOK 18/11 Q1014=
201909231100 METAR LRTR 231100Z 11010KT CAVOK 18/10 Q1013=
201909231130 METAR LRTR 231130Z 11009KT CAVOK 19/11 Q1013=
201909231200 METAR LRTR 231200Z 10008KT CAVOK 20/11 Q1013=
201909231230 METAR LRTR 231230Z 10007KT CAVOK 20/10 Q1013=
201909231300 METAR LRTR 231300Z 10007KT CAVOK 21/10 Q1013=
201909231330 METAR LRTR 231330Z 10008KT CAVOK 21/11 Q1013=
201909231400 METAR LRTR 231400Z 10007KT CAVOK 21/11 Q1012=
201909231430 METAR LRTR 231430Z 10007KT CAVOK 21/10 Q1012=
201909231500 METAR LRTR 231500Z 10006KT CAVOK 21/10 Q1012=
201909231530 METAR LRTR 231530Z 09006KT CAVOK 21/11 Q1012=
201909231600 METAR LRTR 231600Z 07006KT CAVOK 20/11 Q1012=
201909231630 METAR LRTR 231630Z 07005KT CAVOK 19/11 Q1012=
201909231700 METAR LRTR 231700Z 05004KT CAVOK 18/11 Q1012=
201909231730 METAR LRTR 231730Z 05003KT CAVOK 18/12 Q1012=
201909231800 METAR LRTR 231800Z 00000KT CAVOK 18/12 Q1012=
201909231830 METAR LRTR 231830Z 00000KT CAVOK 18/12 Q1012=
201909231900 METAR LRTR 231900Z 05003KT CAVOK 17/12 Q1012=
201909231930 METAR LRTR 231930Z 06004KT CAVOK 16/11 Q1012=
201909232000 METAR LRTR 232000Z 00000KT CAVOK 16/11 Q1012=
201909232030 METAR COR LRTR 232030Z 03003KT CAVOK 16/11 Q1012=
201909232100 METAR LRTR 232100Z 06005KT CAVOK 16/12 Q1011=
201909232130 METAR LRTR 232130Z 03004KT CAVOK 16/11 Q1011=
201909232200 METAR LRTR 232200Z 04004KT CAVOK 16/11 Q1011=
201909232230 METAR LRTR 232230Z 36005KT CAVOK 16/12 Q1011=
201909232300 METAR LRTR 232300Z 02005KT CAVOK 16/12 Q1011=
201909232330 METAR LRTR 232330Z 06005KT CAVOK 16/12 Q1011=
201909240000 METAR LRTR 240000Z 07005KT CAVOK 16/12 Q1011=
201909240030 METAR LRTR 240030Z 08005KT CAVOK 16/12 Q1010=
201909240100 METAR LRTR 240100Z 09005KT CAVOK 16/12 Q1010=
201909240130 METAR LRTR 240130Z 10005KT CAVOK 16/12 Q1010=
201909240200 METAR LRTR 240200Z 12005KT CAVOK 15/12 Q1010=
201909240230 METAR LRTR 240230Z 13005KT CAVOK 15/12 Q1010=
201909240300 METAR LRTR 240300Z 12004KT CAVOK 15/12 Q1010=
201909240330 METAR LRTR 240330Z 10003KT 070V160 CAVOK 15/12 Q1010=
201909240400 METAR LRTR 240400Z 00000KT CAVOK 16/11 Q1011=
201909240430 METAR LRTR 240430Z 00000KT 9999 -RA NSC 15/12 Q1011 R11/190095=
201909240500 METAR LRTR 240500Z 01005KT 9999 -RA BKN045 14/13 Q1011 R11/290095=
201909240530 METAR LRTR 240530Z VRB03KT 9999 BKN043 15/14 Q1011 R11/290095=
201909240600 METAR LRTR 240600Z VRB01KT 9999 BKN045 15/14 Q1011 R11/290095=
201909240630 METAR LRTR 240630Z 00000KT 9999 BKN048 15/14 Q1011 R11/290095=
201909240700 METAR LRTR 240700Z 12002KT CAVOK 16/14 Q1012 R11/290095=
201909240730 METAR LRTR 240730Z 10003KT 060V120 9999 SCT045 17/13 Q1012
                        R11/290095=
201909240800 METAR LRTR 240800Z 10005KT 9999 SCT047 16/14 Q1012 R11/290095=
201909240830 METAR LRTR 240830Z VRB02KT 9999 SCT048 17/14 Q1012 R11/290095=
201909240900 METAR LRTR 240900Z 00000KT 9999 FEW035 SCT048 17/14 Q1012
                        R11/290095=
201909240930 METAR LRTR 240930Z 07004KT 9999 FEW035 SCT048 17/14 Q1012
                        R11/290095=
201909241000 METAR LRTR 241000Z 15003KT 9999 FEW008 BKN048 17/15 Q1012
                        R11/290095=
201909241030 METAR LRTR 241030Z 13001KT 9999 -RA FEW008 BKN045 17/14 Q1012
                        R11/15//95=
201909241100 METAR LRTR 241100Z 00000KT 9999 -RA FEW009 BKN046 17/15 Q1012
                        R11/15//95=
201909241130 METAR LRTR 241130Z 23003KT 190V260 9999 BKN047 18/14 Q1012
                        R11/15//95=
201909241200 METAR LRTR 241200Z VRB02KT 9999 BKN047 18/15 Q1012 R11/15//95=
201909241230 METAR LRTR 241230Z 30004KT 9999 BKN048 18/15 Q1012 R11/15//95=
201909241300 METAR LRTR 241300Z VRB02KT 9999 -RA FEW035 BKN045 18/15 Q1012
                        R11/15//95=
201909241330 METAR LRTR 241330Z 36004KT 9999 -RA BKN044 18/15 Q1012 R11/15//95=
201909241400 METAR LRTR 241400Z 32005KT 9999 BKN045 18/14 Q1012 R11/15//95=
201909241430 METAR LRTR 241430Z 32005KT 9999 SCT045 18/14 Q1012 R11/15//95=
201909241500 METAR COR LRTR 241500Z 34003KT 300V360 9999 SCT046 18/14
                        Q1012 R11/15//95=
201909241530 METAR LRTR 241530Z 03003KT 360V070 9999 SCT048 18/13 Q1012
                        R11/15//95=
201909241600 METAR LRTR 241600Z 32003KT 9999 SCT048 18/14 Q1011 R11/15//95=
201909241630 METAR LRTR 241630Z 00000KT CAVOK 18/14 Q1011 R11/15//95=
201909241700 METAR LRTR 241700Z 00000KT CAVOK 17/14 Q1012 R11/15//95=
201909241730 METAR LRTR 241730Z 00000KT CAVOK 17/14 Q1012 R11/15//95=
201909241800 METAR LRTR 241800Z 00000KT CAVOK 17/14 Q1012 R11/15//95=
201909241830 METAR LRTR 241830Z 14003KT CAVOK 17/15 Q1012 R11/15//95=
201909241900 METAR LRTR 241900Z 21003KT 180V240 CAVOK 17/14 Q1012 R11/15//95=
201909241930 METAR LRTR 241930Z VRB01KT CAVOK 16/14 Q1013 R11/15//95=
201909242000 METAR LRTR 242000Z 34002KT CAVOK 16/14 Q1013 R11/15//95=
201909242030 METAR LRTR 242030Z 05002KT CAVOK 16/15 Q1013 R11/15//95=
201909242100 METAR LRTR 242100Z 02001KT CAVOK 16/14 Q1013 R11/15//95=
201909242130 METAR LRTR 242130Z 00000KT 9000 NSC 15/14 Q1013 R11/15//95=
201909242200 METAR LRTR 242200Z 00000KT 9000 NSC 15/14 Q1013 R11/15//95=
201909242230 METAR LRTR 242230Z 14002KT 8000 NSC 16/15 Q1012 R11/15//95=
201909242300 METAR LRTR 242300Z 12005KT 6000 NSC 15/14 Q1012 R11/15//95=
201909242330 METAR LRTR 242330Z 00000KT 6000 NSC 15/14 Q1013 R11/15//95=
201909250000 METAR LRTR 250000Z 12004KT 5000 BR NSC 15/14 Q1012 R11/15//95=
201909250030 METAR LRTR 250030Z 19003KT 5000 BR NSC 15/14 Q1012 R11/15//95=
201909250100 METAR LRTR 250100Z 17004KT 4000 BR NSC 15/15 Q1012 R11/15//95=
201909250130 METAR LRTR 250130Z 17005KT 4000 BR NSC 15/14 Q1012 R11/15//95=
201909250200 METAR LRTR 250200Z 18005KT 3000 BR SCT003 OVC049 15/14 Q1012
                        R11/15//95=
201909250230 METAR LRTR 250230Z 19004KT 3000 BR SCT003 OVC049 15/14 Q1012
                        R11/15//95=
201909250300 METAR LRTR 250300Z 19005KT 3000 BR SCT003 BKN042 15/14 Q1012
                        R11/CLRD//=
201909250330 METAR LRTR 250330Z 19004KT 3000 BR SCT003 OVC040 15/14 Q1012=
201909250400 METAR LRTR 250400Z 00000KT 3000 BR SCT003 OVC045 15/14 Q1012=
201909250430 METAR LRTR 250430Z VRB01KT 3000 BR SCT003 OVC044 15/14 Q1012
                        TEMPO 1500 BR=
201909250500 METAR LRTR 250500Z 00000KT 2000 BR SCT003 OVC041 15/14 Q1012
                        NOSIG=
201909250530 METAR LRTR 250530Z 13004KT 2000 BR SCT004 OVC038 15/14 Q1012
                        NOSIG=
201909250600 METAR LRTR 250600Z 15004KT 2000 BR SCT004 OVC040 15/14 Q1012
                        NOSIG=
201909250630 METAR LRTR 250630Z 14004KT 2500 BR SCT004 OVC042 15/14 Q1012
                        NOSIG=
201909250700 METAR LRTR 250700Z 15006KT 2500 BR FEW003 OVC043 15/14 Q1012
                        BECMG 3000=
201909250730 METAR LRTR 250730Z 14007KT 3500 BR FEW004 OVC044 15/14 Q1012
                        BECMG 5000=
201909250800 METAR LRTR 250800Z 14006KT 5000 BR FEW006 BKN042 16/14 Q1013
                        NOSIG=
201909250830 METAR LRTR 250830Z 16006KT 7000 FEW008 SCT040 17/14 Q1013
                        NOSIG=
201909250900 METAR LRTR 250900Z 17006KT 7000 FEW010 SCT037 17/14 Q1013
                        NOSIG=
201909250930 METAR LRTR 250930Z 18006KT 9000 FEW014 SCT036 18/14 Q1013
                        NOSIG=
201909251000 METAR LRTR 251000Z 17006KT 9999 FEW014 SCT034 18/14 Q1013
                        NOSIG=
201909251030 METAR LRTR 251030Z 16006KT 9999 FEW014 SCT034 18/14 Q1013
                        NOSIG=
201909251100 METAR LRTR 251100Z 15006KT 130V190 9999 FEW015 SCT034 18/14
                        Q1012 NOSIG=
201909251130 METAR LRTR 251130Z 15007KT 9999 FEW015 SCT035 18/14 Q1012
                        NOSIG=
201909251200 METAR LRTR 251200Z 16007KT 130V200 9999 FEW015 SCT037 18/14
                        Q1012 NOSIG=
201909251230 METAR LRTR 251230Z 15007KT 120V190 9999 FEW020 SCT040 19/14
                        Q1011 NOSIG=
201909251300 METAR LRTR 251300Z 18009KT 9999 FEW022 SCT040 20/14 Q1011
                        NOSIG=
201909251330 METAR LRTR 251330Z 17008KT 9999 FEW024 SCT040 19/14 Q1011
                        NOSIG=
201909251400 METAR LRTR 251400Z 20009KT 9999 FEW027 SCT042 20/13 Q1011
                        NOSIG=
201909251430 METAR LRTR 251430Z 19007KT 9999 FEW030 SCT045 19/13 Q1011
                        NOSIG=
201909251500 METAR LRTR 251500Z 20004KT 170V230 9999 BKN045 19/13 Q1011
                        NOSIG=
201909251530 METAR LRTR 251530Z 22004KT 190V250 9999 BKN047 19/13 Q1011
                        NOSIG=
201909251600 METAR LRTR 251600Z 19002KT 9999 BKN048 19/13 Q1011 NOSIG=
201909251630 METAR LRTR 251630Z 15002KT 9999 SCT030 SCT040 18/14 Q1011=
201909251700 METAR LRTR 251700Z 15004KT 120V190 9999 BKN030 18/14 Q1011=
201909251730 METAR LRTR 251730Z 11006KT 9999 BKN031 17/14 Q1011=
201909251800 METAR LRTR 251800Z 12004KT 9999 BKN035 17/14 Q1011=
201909251830 METAR LRTR 251830Z 13007KT 9999 BKN035 17/14 Q1011=
201909251900 METAR LRTR 251900Z 13006KT 9999 BKN040 17/14 Q1011=
201909251930 METAR LRTR 251930Z 13005KT 9999 SCT045 17/14 Q1011=
201909252000 METAR LRTR 252000Z 13006KT 9999 SCT045 17/14 Q1011=
201909252030 METAR LRTR 252030Z 11004KT 9999 SCT048 16/14 Q1011=
201909252100 METAR LRTR 252100Z 03003KT CAVOK 16/14 Q1011=
201909252130 METAR LRTR 252130Z 05003KT 9999 SCT030 16/14 Q1011=
201909252200 METAR LRTR 252200Z 06003KT 9999 SCT030 16/14 Q1011=
201909252230 METAR LRTR 252230Z 02004KT 9999 BKN028 16/14 Q1011=
201909252300 METAR LRTR 252300Z 05004KT 9999 BKN028 16/14 Q1011=
201909252330 METAR LRTR 252330Z 08005KT 9999 SCT027 16/14 Q1011=
201909260000 METAR LRTR 260000Z 08004KT 9999 BKN027 15/14 Q1011=
201909260030 METAR LRTR 260030Z AUTO 09004KT 9999 BKN029/// BKN120///
                        15/14 Q1011=
201909260100 METAR LRTR 260100Z 09004KT CAVOK 15/14 Q1010=
201909260130 METAR LRTR 260130Z AUTO 11002KT 9999 OVC074/// 15/14 Q1011=
201909260200 METAR LRTR 260200Z 08004KT 9999 SCT030 15/14 Q1010=
201909260230 METAR LRTR 260230Z VRB02KT 9999 SCT035 15/14 Q1011=
201909260300 METAR LRTR 260300Z 00000KT 9999 BKN030 15/14 Q1011=
201909260330 METAR LRTR 260330Z 11001KT 9999 FEW024 BKN030 15/14 Q1011=
201909260400 METAR LRTR 260400Z VRB01KT 9999 SCT024 SCT030 15/14 Q1011=
201909260430 METAR LRTR 260430Z 00000KT 9999 BKN024 15/14 Q1011=
201909260500 METAR LRTR 260500Z 00000KT 9999 -RA BKN026 15/14 Q1011=
201909260530 METAR LRTR 260530Z 11002KT 9999 -RA SCT025 15/14 Q1011=
201909260600 METAR LRTR 260600Z 00000KT 9999 -RA SCT022 15/14 Q1011=
201909260630 METAR LRTR 260630Z 00000KT 9999 -RA SCT020 15/14 Q1011 R11/190095=
201909260700 METAR LRTR 260700Z 17002KT 7000 -RA SCT018 15/14 Q1011 R11/190095=
201909260730 METAR LRTR 260730Z VRB02KT 5000 -RA BR SCT016 SCT032 15/15
                        Q1012 R11/290095=
201909260800 METAR LRTR 260800Z 00000KT 4500 -RA BR SCT004 SCT015 16/15
                        Q1012 R11/290095=
201909260830 METAR LRTR 260830Z 25003KT 7000 BKN005 BKN031 16/15 Q1012
                        R11/290095=
201909260900 METAR LRTR 260900Z 25003KT 6000 OVC006 16/15 Q1012 R11/290095=
201909260930 METAR LRTR 260930Z 24004KT 5000 BR OVC007 16/15 Q1012 R11/290095=
201909261000 METAR LRTR 261000Z 26003KT 230V310 3000 SHRA BR BKN005 FEW040CB
                        16/15 Q1012 R11/290394=
201909261030 METAR COR LRTR 261030Z 33005KT 3500 -RA BR BKN006 BKN017
                        16/15 Q1012 RESHRA R11/290394=
201909261100 METAR LRTR 261100Z 32006KT 5000 -RA BR BKN006 16/15 Q1012
                        R11/290394=
201909261130 METAR LRTR 261130Z 32007KT 9999 BKN007 16/15 Q1012 R11/290394=
201909261200 METAR LRTR 261200Z 34010KT 9999 -RA BKN006 16/15 Q1012 R11/290394=
201909261230 METAR LRTR 261230Z 35010KT 9999 BKN006 16/15 Q1012 R11/290394=
201909261300 METAR LRTR 261300Z 35007KT 9999 SCT007 16/15 Q1013 R11/290394=
201909261330 METAR LRTR 261330Z 33010KT 9999 SCT008 SCT016 16/14 Q1013
                        R11/290394=
201909261400 METAR LRTR 261400Z 32010KT 9999 FEW007 SCT014 16/14 Q1013
                        R11/290394=
201909261430 METAR LRTR 261430Z 32008KT 9999 FEW011 SCT021 17/15 Q1013
                        R11/290394=
201909261500 METAR LRTR 261500Z 31009KT 9999 FEW010 SCT025 17/14 Q1014
                        R11/290394=
201909261530 METAR LRTR 261530Z 30008KT 9999 FEW015 SCT028 17/14 Q1014
                        R11/190095=
201909261600 METAR LRTR 261600Z 30006KT 9999 FEW015 17/14 Q1014 R11/190095=
201909261630 METAR LRTR 261630Z 30004KT 9999 FEW015 15/14 Q1014 R11/190095=
201909261700 METAR LRTR 261700Z 29003KT CAVOK 15/13 Q1014 R11/190095=
201909261730 METAR LRTR 261730Z 00000KT CAVOK 15/13 Q1014 R11/190095=
201909261800 METAR LRTR 261800Z 19002KT CAVOK 14/13 Q1015 R11/190095=
201909261830 METAR LRTR 261830Z 19003KT 8000 NSC 13/13 Q1015 R11/190095=
201909261900 METAR COR LRTR 261900Z 17002KT 6000 MIFG NSC 13/12 Q1015
                        R11/190095=
201909261930 METAR LRTR 261930Z VRB02KT 8000 MIFG NSC 14/13 Q1015 R11/190095=
201909262000 METAR LRTR 262000Z VRB01KT 8000 MIFG NSC 13/12 Q1015 R11/190095=
201909262030 METAR COR LRTR 262030Z 10003KT 5000 2000E R11/P2000 R29/0450D
                        PRFG BR NSC 11/11 Q1015 R11/190095=
201909262100 METAR LRTR 262100Z 10002KT 3000 1200E R11/P2000 R29/0650N
                        PRFG BR NSC 11/11 Q1016 R11/190095=
201909262130 METAR LRTR 262130Z VRB01KT 2500 1200E R11/P2000U R29/0900U
                        BCFG BR NSC 11/11 Q1016 R11/190095=
201909262200 METAR COR LRTR 262200Z 00000KT 8000 2000E R11/P2000 R29/0800N
                        PRFG NSC 11/11 Q1016 R11/190095=
201909262230 METAR LRTR 262230Z 29003KT 8000 2000E R11/P2000 R29/0700N
                        PRFG NSC 11/11 Q1016 R11/190095=
201909262300 METAR LRTR 262300Z 00000KT 5000 1200E R11/P2000 R29/0800D
                        PRFG BR NSC 09/09 Q1016 R11/190095=
201909262330 METAR COR LRTR 262330Z 00000KT 4500 1200E R11/P2000U R29/0700N
                        PRFG BR NSC 08/08 Q1016 R11/190095=
201909270000 METAR LRTR 270000Z 00000KT 4000 1200E R11/1200D R29/1400U
                        BCFG BR NSC 09/09 Q1016 R11/190095=
201909270030 METAR COR LRTR 270030Z 10004KT 0300 R11/0700N R29/1800U FG
                        NSC 08/08 Q1016 R11/190095=
201909270100 METAR COR LRTR 270100Z 10004KT 2000 0500 R11/1100N R29/1500N
                        BCFG NSC 08/08 Q1016 R11/190095=
201909270130 METAR COR LRTR 270130Z 21002KT 8000 NSC 09/09 Q1016 R11/190095=
201909270200 METAR LRTR 270200Z 23003KT 8000 NSC 08/08 Q1016 R11/190095=
201909270230 METAR COR LRTR 270230Z 25003KT 4000 MIFG BR FEW002 07/07
                        Q1017 R11/190095=
201909270300 METAR LRTR 270300Z 23003KT 4000 1500E R11/P2000 R29/1200D
                        BCFG BR FEW003 09/09 Q1017 R11/190095=
201909270330 METAR LRTR 270330Z 00000KT 2000 MIFG BR FEW003 08/08 Q1017
                        R11/190095=
201909270400 METAR LRTR 270400Z 13002KT 0800 R11/1400D R29/1200D BCFG
                        FEW002 06/06 Q1017 R11/CLRD//=
201909270430 METAR LRTR 270430Z 13002KT 0300 R11/0400N R29/0650D FG SCT002
                        06/06 Q1017=
201909270500 METAR LRTR 270500Z 07003KT 020V080 0200 R11/0400N R29/0400N
                        FG SCT001 07/07 Q1017 R11/19//95=
201909270530 METAR LRTR 270530Z 08003KT 0300 R11/0500N R29/0450U FG SCT002
                        08/08 Q1018 R11/19//95=
201909270600 METAR LRTR 270600Z 14003KT 100V170 0150 R11/0325N R29/0375N
                        FG BKN001 09/09 Q1018 R11/19//95=
201909270630 METAR LRTR 270630Z 12003KT 0250 R11/0400N R29/0400N FG BKN002
                        10/10 Q1018 R11/19//95=
201909270700 METAR LRTR 270700Z VRB02KT 0550 R11/0750U R29/0900U FG BKN002
                        11/11 Q1018 R11/19//95=
201909270730 METAR LRTR 270730Z 17003KT 140V220 3000 BR SCT001 SCT002
                        12/12 Q1018 R11/19//95=
201909270800 METAR LRTR 270800Z 18004KT 140V220 7000 FEW002 SCT003 13/13
                        Q1018 R11/19//95=
201909270830 METAR LRTR 270830Z 18005KT 150V220 9999 FEW005 16/13 Q1019
                        R11/19//95=
201909270900 METAR LRTR 270900Z 20004KT 130V240 9999 FEW008 17/12 Q1019
                        R11/19//95=
201909270930 METAR LRTR 270930Z 16003KT 110V220 9999 FEW010 19/12 Q1019
                        R11/19//95=
201909271000 METAR LRTR 271000Z VRB02KT 9999 FEW020 20/13 Q1019 R11/19//95=
201909271030 METAR LRTR 271030Z VRB03KT 9999 FEW025 20/12 Q1018 R11/19//95=
201909271100 METAR LRTR 271100Z 19004KT 150V240 9999 FEW030 20/12 Q1018
                        R11/19//95=
201909271130 METAR LRTR 271130Z VRB03KT 9999 FEW033 20/11 Q1018 R11/19//95=
201909271200 METAR LRTR 271200Z VRB01KT 9999 FEW036 21/12 Q1017 R11/19//95=
201909271230 METAR LRTR 271230Z 19004KT 140V230 9999 FEW041 22/11 Q1017
                        R11/19//95=
201909271300 METAR LRTR 271300Z 29004KT 230V330 9999 FEW043 22/11 Q1017
                        R11/19//95=
201909271330 METAR LRTR 271330Z 31004KT 240V360 9999 FEW045 22/11 Q1017
                        R11/19//95=
201909271400 METAR LRTR 271400Z 20003KT 160V230 9999 FEW048 22/10 Q1017
                        R11/CLRD//=
201909271430 METAR LRTR 271430Z 00000KT CAVOK 23/10 Q1017=
201909271500 METAR LRTR 271500Z 00000KT CAVOK 23/11 Q1017=
201909271530 METAR LRTR 271530Z 10002KT CAVOK 21/12 Q1017=
201909271600 METAR LRTR 271600Z 11005KT CAVOK 19/12 Q1017=
201909271630 METAR LRTR 271630Z 14005KT CAVOK 18/12 Q1017 NOSIG=
201909271700 METAR LRTR 271700Z 13005KT CAVOK 17/12 Q1017 NOSIG=
201909271730 METAR COR LRTR 271730Z 13005KT CAVOK 16/12 Q1017 NOSIG=
201909271800 METAR LRTR 271800Z 11006KT CAVOK 15/12 Q1018 NOSIG=
201909271830 METAR LRTR 271830Z 10006KT CAVOK 14/12 Q1017 NOSIG=
201909271900 METAR LRTR 271900Z 10006KT CAVOK 13/12 Q1018 NOSIG=
201909271930 METAR LRTR 271930Z 09006KT CAVOK 13/12 Q1018 NOSIG=
201909272000 METAR LRTR 272000Z 09005KT CAVOK 13/11 Q1018 NOSIG=
201909272030 METAR LRTR 272030Z 10006KT CAVOK 12/11 Q1018 NOSIG=
201909272100 METAR LRTR 272100Z 10007KT CAVOK 12/11 Q1018 NOSIG=
201909272130 METAR LRTR 272130Z 10006KT CAVOK 12/11 Q1018 NOSIG=
201909272200 METAR LRTR 272200Z 10008KT CAVOK 12/11 Q1018 NOSIG=
201909272230 METAR LRTR 272230Z 10008KT CAVOK 12/11 Q1018 NOSIG=
201909272300 METAR LRTR 272300Z 11006KT CAVOK 12/11 Q1018 NOSIG=
201909272330 METAR LRTR 272330Z 10007KT CAVOK 12/11 Q1018 NOSIG=
201909280000 METAR LRTR 280000Z 10007KT CAVOK 12/11 Q1018 NOSIG=
201909280030 METAR LRTR 280030Z 10007KT CAVOK 12/11 Q1018 NOSIG=
201909280100 METAR LRTR 280100Z 10007KT CAVOK 11/11 Q1018 NOSIG=
201909280130 METAR LRTR 280130Z 10008KT CAVOK 12/11 Q1018 NOSIG=
201909280200 METAR LRTR 280200Z 11008KT CAVOK 11/10 Q1017 NOSIG=
201909280230 METAR LRTR 280230Z 11007KT CAVOK 11/10 Q1017 NOSIG=
201909280300 METAR LRTR 280300Z 12009KT CAVOK 11/11 Q1017 NOSIG=
201909280330 METAR LRTR 280330Z 11007KT CAVOK 11/10 Q1018 NOSIG=
201909280400 METAR LRTR 280400Z 10006KT CAVOK 11/10 Q1018 NOSIG=
201909280430 METAR LRTR 280430Z 10009KT CAVOK 12/10 Q1017=
201909280500 METAR LRTR 280500Z 10008KT CAVOK 12/10 Q1018=
201909280530 METAR LRTR 280530Z 11008KT CAVOK 12/11 Q1018=
201909280600 METAR LRTR 280600Z 11007KT CAVOK 13/11 Q1018=
201909280630 METAR LRTR 280630Z 11009KT CAVOK 15/12 Q1018=
201909280700 METAR LRTR 280700Z 12010KT CAVOK 15/12 Q1018=
201909280730 METAR LRTR 280730Z 12011KT CAVOK 17/12 Q1018=
201909280800 METAR LRTR 280800Z 12009KT CAVOK 18/12 Q1018=
201909280830 METAR LRTR 280830Z 13008KT CAVOK 19/11 Q1018=
201909280900 METAR LRTR 280900Z 13008KT CAVOK 20/11 Q1018=
201909280930 METAR LRTR 280930Z 16007KT 130V190 CAVOK 21/12 Q1017=
201909281000 METAR LRTR 281000Z 18009KT CAVOK 23/11 Q1017=
201909281030 METAR LRTR 281030Z 20010KT CAVOK 23/11 Q1017=
201909281100 METAR LRTR 281100Z 20008KT CAVOK 24/12 Q1017=
201909281130 METAR LRTR 281130Z 19008KT 160V230 CAVOK 23/11 Q1016=
201909281200 METAR LRTR 281200Z 20009KT CAVOK 24/11 Q1016=
201909281230 METAR LRTR 281230Z 22009KT CAVOK 24/11 Q1016=
201909281300 METAR LRTR 281300Z 22008KT CAVOK 24/12 Q1016=
201909281330 METAR COR LRTR 281330Z 23009KT CAVOK 24/12 Q1016=
201909281400 METAR LRTR 281400Z 24007KT CAVOK 24/13 Q1016=
201909281430 METAR LRTR 281430Z 24006KT CAVOK 24/13 Q1016=
201909281500 METAR LRTR 281500Z 23005KT CAVOK 23/13 Q1016=
201909281530 METAR LRTR 281530Z 22003KT CAVOK 23/14 Q1016=
201909281600 METAR LRTR 281600Z 19003KT 170V230 CAVOK 22/14 Q1016=
201909281630 METAR LRTR 281630Z 25003KT 230V300 CAVOK 20/14 Q1016 NOSIG=
201909281700 METAR LRTR 281700Z 29003KT CAVOK 20/14 Q1016 NOSIG=
201909281730 METAR LRTR 281730Z 29007KT CAVOK 19/14 Q1017 NOSIG=
201909281800 METAR LRTR 281800Z 32006KT CAVOK 18/14 Q1017 NOSIG=
201909281830 METAR LRTR 281830Z 34004KT CAVOK 18/14 Q1017 NOSIG=
201909281900 METAR LRTR 281900Z 34004KT CAVOK 17/14 Q1017 NOSIG=
201909281930 METAR LRTR 281930Z 33004KT CAVOK 17/14 Q1017 NOSIG=
201909282000 METAR LRTR 282000Z VRB01KT CAVOK 16/13 Q1017 NOSIG=
201909282030 METAR LRTR 282030Z 30003KT CAVOK 15/13 Q1017 NOSIG=
201909282100 METAR LRTR 282100Z 28006KT CAVOK 15/14 Q1017 NOSIG=
201909282130 METAR LRTR 282130Z 27004KT CAVOK 15/14 Q1017 NOSIG=
201909282200 METAR LRTR 282200Z 29004KT CAVOK 16/14 Q1017 NOSIG=
201909282230 METAR LRTR 282230Z 29003KT CAVOK 15/14 Q1017 NOSIG=
201909282300 METAR LRTR 282300Z 30004KT CAVOK 15/14 Q1018 NOSIG=
201909282330 METAR LRTR 282330Z 29006KT CAVOK 15/14 Q1018 NOSIG=
201909290000 METAR LRTR 290000Z 34005KT CAVOK 15/14 Q1018 NOSIG=
201909290030 METAR LRTR 290030Z 34004KT CAVOK 15/13 Q1018 NOSIG=
201909290100 METAR LRTR 290100Z 34004KT 9999 -RA NSC 15/12 Q1018 NOSIG=
201909290130 METAR LRTR 290130Z 31004KT 9999 -RA NSC 15/12 Q1018 NOSIG=
201909290200 METAR LRTR 290200Z 27006KT 9999 -RA NSC 14/13 Q1018 NOSIG=
201909290230 METAR LRTR 290230Z 28007KT 9999 -RA NSC 14/12 Q1018 NOSIG=
201909290300 METAR LRTR 290300Z 30007KT 9999 -RA NSC 14/12 Q1018 R11/19//95
                        NOSIG=
201909290330 METAR LRTR 290330Z 30006KT CAVOK 14/12 Q1018 R11/19//95 NOSIG=
201909290400 METAR COR LRTR 290400Z 32003KT CAVOK 13/12 Q1018 R11/19//95=
201909290430 METAR LRTR 290430Z 31003KT CAVOK 13/12 Q1018 R11/19//95=
201909290500 METAR LRTR 290500Z VRB02KT CAVOK 13/12 Q1018 R11/19//95=
201909290530 METAR LRTR 290530Z 00000KT CAVOK 14/12 Q1018 R11/19//95=
201909290600 METAR LRTR 290600Z 00000KT CAVOK 14/13 Q1018 R11/19//95=
201909290630 METAR LRTR 290630Z 32003KT CAVOK 16/12 Q1018 R11/19//95=
201909290700 METAR LRTR 290700Z 34003KT 310V010 CAVOK 17/12 Q1018 R11/19//95=
201909290730 METAR LRTR 290730Z 33004KT 300V020 CAVOK 18/11 Q1018 R11/19//95=
201909290800 METAR LRTR 290800Z 02003KT 320V070 CAVOK 20/10 Q1018 R11/CLRD//=
201909290830 METAR LRTR 290830Z VRB03KT CAVOK 21/10 Q1018=
201909290900 METAR LRTR 290900Z 36005KT 310V050 CAVOK 21/10 Q1018=
201909290930 METAR COR LRTR 290930Z 34004KT 230V040 CAVOK 22/10 Q1018=
201909291000 METAR LRTR 291000Z 02005KT 340V060 CAVOK 22/10 Q1018=
201909291030 METAR LRTR 291030Z VRB02KT CAVOK 23/10 Q1017=
201909291100 METAR LRTR 291100Z 23003KT 140V300 CAVOK 23/09 Q1017=
201909291130 METAR LRTR 291130Z 27003KT 220V020 CAVOK 23/10 Q1017=
201909291200 METAR LRTR 291200Z 15005KT 100V230 CAVOK 23/10 Q1016=
201909291230 METAR COR LRTR 291230Z 19004KT 150V250 CAVOK 24/10 Q1016=
201909291300 METAR LRTR 291300Z 22007KT 200V260 CAVOK 24/11 Q1015=
201909291330 METAR LRTR 291330Z 26004KT 200V010 CAVOK 24/10 Q1015=
201909291400 METAR LRTR 291400Z 22006KT 170V260 CAVOK 24/11 Q1015=
201909291430 METAR LRTR 291430Z 23004KT 170V260 CAVOK 24/11 Q1015=
201909291500 METAR LRTR 291500Z 24006KT 210V270 CAVOK 23/11 Q1014=
201909291530 METAR LRTR 291530Z 21004KT CAVOK 23/11 Q1014=
201909291600 METAR LRTR 291600Z 19004KT CAVOK 22/11 Q1014=
201909291630 METAR LRTR 291630Z 17003KT CAVOK 21/12 Q1013=
201909291700 METAR LRTR 291700Z 15003KT CAVOK 19/12 Q1013=
201909291730 METAR LRTR 291730Z 13002KT CAVOK 20/11 Q1013=
201909291800 METAR LRTR 291800Z 13005KT CAVOK 17/12 Q1013=
201909291830 METAR LRTR 291830Z 10006KT CAVOK 15/12 Q1013=
201909291900 METAR LRTR 291900Z 09003KT CAVOK 15/12 Q1013=
201909291930 METAR LRTR 291930Z 10007KT CAVOK 13/11 Q1013=
201909292000 METAR LRTR 292000Z 10008KT CAVOK 14/12 Q1013=
201909292030 METAR LRTR 292030Z 11006KT CAVOK 13/11 Q1013=
201909292100 METAR LRTR 292100Z 10006KT CAVOK 14/12 Q1012=
201909292130 METAR LRTR 292130Z 10006KT CAVOK 13/12 Q1012=
201909292200 METAR LRTR 292200Z 11005KT CAVOK 13/12 Q1012=
201909292230 METAR LRTR 292230Z 12006KT CAVOK 13/11 Q1012=
201909292300 METAR LRTR 292300Z 12007KT CAVOK 13/12 Q1012=
201909292330 METAR LRTR 292330Z 11007KT CAVOK 13/11 Q1011=
201909300000 METAR LRTR 300000Z 11006KT CAVOK 12/11 Q1011=
201909300030 METAR LRTR 300030Z 11006KT CAVOK 12/11 Q1010=
201909300100 METAR LRTR 300100Z 11007KT CAVOK 13/12 Q1010=
201909300130 METAR LRTR 300130Z 10006KT CAVOK 12/11 Q1010=
201909300200 METAR LRTR 300200Z 10006KT CAVOK 13/12 Q1010=
201909300230 METAR LRTR 300230Z 11007KT CAVOK 13/11 Q1010=
201909300300 METAR LRTR 300300Z 12006KT CAVOK 12/11 Q1010=
201909300330 METAR LRTR 300330Z 12007KT CAVOK 12/11 Q1010=
201909300400 METAR LRTR 300400Z 12007KT CAVOK 12/11 Q1010=
201909300430 METAR LRTR 300430Z 11004KT CAVOK 11/11 Q1010 NOSIG=
201909300500 METAR LRTR 300500Z 10004KT 070V140 CAVOK 12/11 Q1010 NOSIG=
201909300530 METAR LRTR 300530Z 11004KT CAVOK 13/12 Q1010 NOSIG=
201909300600 METAR LRTR 300600Z 13005KT CAVOK 15/12 Q1010 NOSIG=
201909300630 METAR LRTR 300630Z 15005KT CAVOK 16/13 Q1010 NOSIG=
201909300700 METAR LRTR 300700Z 17007KT CAVOK 18/14 Q1010 NOSIG=
201909300730 METAR LRTR 300730Z 17006KT CAVOK 20/14 Q1010 NOSIG=
201909300800 METAR LRTR 300800Z 19006KT 150V220 CAVOK 22/14 Q1010 NOSIG=
201909300830 METAR LRTR 300830Z 21006KT 180V250 CAVOK 22/13 Q1010 NOSIG=
201909300900 METAR LRTR 300900Z 22009KT CAVOK 23/14 Q1010 NOSIG=
201909300930 METAR LRTR 300930Z 21007KT 9999 FEW035 23/14 Q1010 NOSIG=
201909301000 METAR LRTR 301000Z 20008KT 9999 FEW035 23/13 Q1010 NOSIG=
201909301030 METAR LRTR 301030Z 22008KT 9999 FEW038 23/13 Q1010 NOSIG=
201909301100 METAR LRTR 301100Z 25010KT 9999 FEW044 24/13 Q1009 NOSIG=
201909301130 METAR LRTR 301130Z 25009KT CAVOK 24/12 Q1009 NOSIG=
201909301200 METAR LRTR 301200Z 26012KT CAVOK 25/12 Q1009 NOSIG=
201909301230 METAR LRTR 301230Z 25008KT CAVOK 26/12 Q1009 NOSIG=
201909301300 METAR LRTR 301300Z 24011KT CAVOK 26/12 Q1008 NOSIG=
201909301330 METAR LRTR 301330Z 26011KT CAVOK 25/12 Q1008 NOSIG=
201909301400 METAR LRTR 301400Z 25008KT CAVOK 25/12 Q1008 NOSIG=
201909301430 METAR LRTR 301430Z 25007KT CAVOK 25/13 Q1008 NOSIG=
201909301500 METAR LRTR 301500Z 25010KT CAVOK 25/13 Q1008 NOSIG=
201909301530 METAR LRTR 301530Z 26009KT CAVOK 24/13 Q1008 NOSIG=
201909301600 METAR LRTR 301600Z 24006KT CAVOK 23/13 Q1008=
201909301630 METAR LRTR 301630Z 25008KT CAVOK 22/13 Q1008=
201909301700 METAR COR LRTR 301700Z 25007KT CAVOK 21/13 Q1008=
201909301730 METAR LRTR 301730Z 25007KT CAVOK 20/13 Q1009=
201909301800 METAR LRTR 301800Z 26007KT CAVOK 19/13 Q1009=
201909301830 METAR LRTR 301830Z 27005KT CAVOK 18/13 Q1010=
201909301900 METAR LRTR 301900Z 31004KT CAVOK 18/13 Q1010=
201909301930 METAR LRTR 301930Z 35003KT CAVOK 18/14 Q1011=
201909302000 METAR LRTR 302000Z 34003KT CAVOK 18/14 Q1011=
201909302030 METAR LRTR 302030Z 34005KT CAVOK 19/14 Q1012=
201909302100 METAR COR LRTR 302100Z 33008KT CAVOK 19/09 Q1013=
201909302130 METAR LRTR 302130Z 35008KT CAVOK 19/07 Q1013=
201909302200 METAR LRTR 302200Z 34009KT CAVOK 19/06 Q1013=
201909302230 METAR LRTR 302230Z 31007KT CAVOK 18/07 Q1013=
201909302300 METAR LRTR 302300Z 32007KT CAVOK 18/07 Q1014=
201909302330 METAR LRTR 302330Z 33007KT CAVOK 17/07 Q1014=