201910010000 METAR LRTR 010000Z 32006KT CAVOK 16/07 Q1014=
201910010030 METAR COR LRTR 010030Z 33005KT CAVOK 16/07 Q1014=
201910010100 METAR LRTR 010100Z 33005KT CAVOK 16/07 Q1014=
201910010130 METAR LRTR 010130Z 30006KT CAVOK 13/07 Q1014=
201910010200 METAR LRTR 010200Z 33004KT CAVOK 12/07 Q1015=
201910010230 METAR LRTR 010230Z 26003KT CAVOK 13/07 Q1015=
201910010300 METAR LRTR 010300Z 00000KT CAVOK 11/07 Q1015=
201910010330 METAR LRTR 010330Z VRB02KT CAVOK 10/07 Q1015=
201910010400 METAR LRTR 010400Z 30003KT 250V320 CAVOK 10/06 Q1015 NOSIG=
201910010430 METAR LRTR 010430Z 30004KT CAVOK 10/06 Q1015 NOSIG=
201910010500 METAR LRTR 010500Z VRB02KT CAVOK 11/07 Q1015 NOSIG=
201910010530 METAR LRTR 010530Z 11004KT CAVOK 11/07 Q1015 NOSIG=
201910010600 METAR LRTR 010600Z 00000KT CAVOK 14/08 Q1016 NOSIG=
201910010630 METAR LRTR 010630Z 00000KT CAVOK 16/07 Q1016 NOSIG=
201910010700 METAR LRTR 010700Z 00000KT CAVOK 17/07 Q1016 NOSIG=
201910010730 METAR LRTR 010730Z VRB01KT CAVOK 18/07 Q1016 NOSIG=
201910010800 METAR LRTR 010800Z VRB01KT CAVOK 19/07 Q1016 NOSIG=
201910010830 METAR LRTR 010830Z 16004KT 130V250 CAVOK 19/06 Q1016 NOSIG=
201910010900 METAR LRTR 010900Z 20004KT 140V260 CAVOK 20/06 Q1016 NOSIG=
201910010930 METAR LRTR 010930Z 21004KT 130V260 CAVOK 21/06 Q1016 NOSIG=
201910011000 METAR LRTR 011000Z 19005KT 130V230 CAVOK 21/07 Q1016 NOSIG=
201910011030 METAR LRTR 011030Z 24004KT 170V280 CAVOK 22/06 Q1016 NOSIG=
201910011100 METAR LRTR 011100Z VRB03KT CAVOK 22/06 Q1015 NOSIG=
201910011130 METAR LRTR 011130Z 18004KT 140V260 CAVOK 23/05 Q1015 NOSIG=
201910011200 METAR LRTR 011200Z VRB02KT CAVOK 23/05 Q1014 NOSIG=
201910011230 METAR LRTR 011230Z 18004KT 140V220 CAVOK 23/05 Q1014 NOSIG=
201910011300 METAR LRTR 011300Z VRB03KT CAVOK 24/06 Q1014 NOSIG=
201910011330 METAR LRTR 011330Z 14005KT 100V220 CAVOK 23/06 Q1013 NOSIG=
201910011400 METAR LRTR 011400Z VRB02KT CAVOK 24/06 Q1013 NOSIG=
201910011430 METAR LRTR 011430Z 00000KT CAVOK 24/06 Q1013 NOSIG=
201910011500 METAR LRTR 011500Z 13003KT 110V170 CAVOK 23/05 Q1012 NOSIG=
201910011530 METAR LRTR 011530Z 13005KT CAVOK 23/06 Q1012 NOSIG=
201910011600 METAR LRTR 011600Z 11004KT CAVOK 21/07 Q1012 NOSIG=
201910011630 METAR LRTR 011630Z 10006KT CAVOK 18/07 Q1012=
201910011700 METAR LRTR 011700Z 11006KT CAVOK 17/07 Q1012=
201910011730 METAR LRTR 011730Z 09007KT CAVOK 16/07 Q1011=
201910011800 METAR LRTR 011800Z 09005KT CAVOK 15/08 Q1011=
201910011830 METAR LRTR 011830Z 09006KT CAVOK 14/08 Q1011=
201910011900 METAR LRTR 011900Z 08003KT CAVOK 15/07 Q1011=
201910011930 METAR LRTR 011930Z 08003KT CAVOK 15/07 Q1011=
201910012000 METAR LRTR 012000Z 09007KT CAVOK 13/08 Q1011=
201910012030 METAR LRTR 012030Z 10008KT CAVOK 14/09 Q1011=
201910012100 METAR LRTR 012100Z 11008KT CAVOK 13/09 Q1010=
201910012130 METAR LRTR 012130Z 10007KT CAVOK 13/09 Q1010=
201910012200 METAR LRTR 012200Z 10008KT CAVOK 13/09 Q1010=
201910012230 METAR LRTR 012230Z 10008KT CAVOK 13/09 Q1010=
201910012300 METAR LRTR 012300Z 10008KT CAVOK 13/09 Q1010=
201910012330 METAR LRTR 012330Z 10009KT CAVOK 13/09 Q1010=
201910020000 METAR LRTR 020000Z 10007KT CAVOK 13/09 Q1009=
201910020030 METAR LRTR 020030Z 11008KT CAVOK 12/09 Q1009=
201910020100 METAR LRTR 020100Z 11008KT CAVOK 12/09 Q1009=
201910020130 METAR LRTR 020130Z 11006KT CAVOK 11/08 Q1008=
201910020200 METAR LRTR 020200Z 12009KT CAVOK 11/08 Q1008=
201910020230 METAR LRTR 020230Z 11006KT CAVOK 10/08 Q1008=
201910020300 METAR LRTR 020300Z 11006KT CAVOK 10/08 Q1008=
201910020330 METAR LRTR 020330Z 10006KT CAVOK 10/08 Q1007=
201910020400 METAR LRTR 020400Z 10006KT CAVOK 09/08 Q1007=
201910020430 METAR LRTR 020430Z 10007KT CAVOK 10/08 Q1007=
201910020500 METAR LRTR 020500Z 10007KT CAVOK 11/08 Q1007=
201910020530 METAR LRTR 020530Z 12010KT CAVOK 13/09 Q1007=
201910020600 METAR LRTR 020600Z 12011KT CAVOK 15/10 Q1007=
201910020630 METAR LRTR 020630Z 12011KT CAVOK 17/10 Q1007=
201910020700 METAR LRTR 020700Z 12011KT CAVOK 17/09 Q1007=
201910020730 METAR LRTR 020730Z 12008KT CAVOK 19/09 Q1007=
201910020800 METAR LRTR 020800Z 14007KT 110V170 CAVOK 21/10 Q1007 NOSIG=
201910020830 METAR LRTR 020830Z 18007KT CAVOK 23/10 Q1007 NOSIG=
201910020900 METAR LRTR 020900Z 20015KT CAVOK 25/10 Q1007 NOSIG=
201910020930 METAR LRTR 020930Z 20014KT CAVOK 25/10 Q1007 NOSIG=
201910021000 METAR LRTR 021000Z 21013KT CAVOK 26/11 Q1006 NOSIG=
201910021030 METAR LRTR 021030Z 20013KT CAVOK 26/11 Q1006 NOSIG=
201910021100 METAR LRTR 021100Z 22011KT 180V250 CAVOK 27/11 Q1006 NOSIG=
201910021130 METAR LRTR 021130Z 22009KT 180V250 CAVOK 27/11 Q1006 NOSIG=
201910021200 METAR LRTR 021200Z 24010KT 9999 FEW045 27/12 Q1005 NOSIG=
201910021230 METAR LRTR 021230Z 20009KT 180V240 9999 SCT047 27/11 Q1005
                        NOSIG=
201910021300 METAR LRTR 021300Z 23009KT 200V260 9999 SCT049 28/11 Q1005
                        NOSIG=
201910021330 METAR LRTR 021330Z 20007KT 140V260 CAVOK 28/10 Q1004 NOSIG=
201910021400 METAR LRTR 021400Z NIL=
201910021430 METAR LRTR 021430Z 21009KT CAVOK 27/10 Q1004 NOSIG=
201910021500 METAR LRTR 021500Z 23008KT CAVOK 27/09 Q1004 NOSIG=
201910021530 METAR LRTR 021530Z 22005KT CAVOK 26/10 Q1004 NOSIG=
201910021600 METAR LRTR 021600Z 22003KT CAVOK 25/10 Q1004 NOSIG=
201910021630 METAR LRTR 021630Z 23001KT CAVOK 23/10 Q1004 NOSIG=
201910021700 METAR LRTR 021700Z 20003KT 190V260 CAVOK 22/10 Q1004 NOSIG=
201910021730 METAR LRTR 021730Z 00000KT CAVOK 18/10 Q1004 NOSIG=
201910021800 METAR LRTR 021800Z 08006KT CAVOK 17/09 Q1004 NOSIG=
201910021830 METAR LRTR 021830Z 11008KT CAVOK 16/11 Q1003 NOSIG=
201910021900 METAR LRTR 021900Z 09007KT CAVOK 17/11 Q1003 NOSIG=
201910021930 METAR LRTR 021930Z 10007KT CAVOK 18/11 Q1003 NOSIG=
201910022000 METAR LRTR 022000Z 11009KT CAVOK 18/11 Q1003 NOSIG=
201910022030 METAR LRTR 022030Z 11009KT 9999 -RA NSC 18/11 Q1003 NOSIG=
201910022100 METAR LRTR 022100Z 11006KT 9999 -SHRA FEW050CB 18/12 Q1003
                        NOSIG=
201910022130 METAR LRTR 022130Z 13006KT 9999 -SHRA FEW050CB 18/14 Q1003
                        RESHRA R11/29//95 TEMPO SHRA=
201910022200 METAR LRTR 022200Z 13008KT 9999 FEW050CB 18/13 Q1003 R11/29//95
                        NOSIG=
201910022230 METAR LRTR 022230Z 24006KT 200V280 9999 FEW050CB 18/13 Q1003
                        R11/29//95 TEMPO SHRA=
201910022300 METAR LRTR 022300Z 31010KT 9999 FEW050CB 18/14 Q1004 R11/29//95
                        TEMPO SHRA=
201910022330 METAR LRTR 022330Z 36008KT CAVOK 17/15 Q1004 R11/29//95 NOSIG=
201910030000 METAR LRTR 030000Z 35007KT CAVOK 17/15 Q1004 R11/29//95 NOSIG=
201910030030 METAR LRTR 030030Z 36009KT 9999 FEW055CB 17/15 Q1003 R11/29//95
                        TEMPO TSRA=
201910030100 METAR LRTR 030100Z 10003KT 070V130 9999 FEW055CB 16/15 Q1004
                        R11/29//95 NOSIG=
201910030130 METAR LRTR 030130Z 24005KT 160V270 9999 FEW043 15/14 Q1004
                        R11/29//95 NOSIG=
201910030200 METAR LRTR 030200Z 28010KT 7000 SCT011 15/15 Q1005 R11/29//95
                        TEMPO 5000 BR BKN010=
201910030230 METAR LRTR 030230Z 29008KT 5000 BR BKN012 15/15 Q1005 R11/29//95
                        TEMPO BKN010=
201910030300 METAR LRTR 030300Z 27010KT 5000 BR BKN004 16/15 Q1005 R11/190095
                        NOSIG=
201910030330 METAR LRTR 030330Z 30010KT 5000 -DZ BR OVC004 15/14 Q1005
                        R11/190095 TEMPO 3000 DZ BR OVC003=
201910030400 METAR LRTR 030400Z 30008KT 9999 OVC010 15/14 Q1005 R11/190095
                        NOSIG=
201910030430 METAR LRTR 030430Z 30008KT 9999 BKN008 OVC020 15/14 Q1006
                        R11/190095 NOSIG=
201910030500 METAR LRTR 030500Z 30006KT 7000 -RA BKN007 OVC021 15/14 Q1006
                        R11/190095 TEMPO 5000 RA BR=
201910030530 METAR LRTR 030530Z 31008KT 9999 SCT008 OVC027 14/13 Q1006
                        R11/190095 NOSIG=
201910030600 METAR LRTR 030600Z 31011KT 9999 SCT008 OVC030 14/13 Q1007
                        R11/190095 NOSIG=
201910030630 METAR LRTR 030630Z 31013KT 9999 SCT008 OVC035 14/13 Q1007
                        R11/190095 NOSIG=
201910030700 METAR LRTR 030700Z 32015KT 9999 -RA SCT007 OVC035 13/12 Q1008
                        R11/190095 NOSIG=
201910030730 METAR LRTR 030730Z 31017KT 9999 -RA SCT008 BKN040 12/11 Q1008
                        R11/190095 NOSIG=
201910030800 METAR LRTR 030800Z 32014KT 9999 -RA SCT008 SCT018 OVC038
                        12/11 Q1009 R11/190095 NOSIG=
201910030830 METAR LRTR 030830Z 33012KT 9999 -RA SCT008 OVC038 12/11 Q1009
                        R11/190095 NOSIG=
201910030900 METAR LRTR 030900Z 33013KT 9999 -RA BKN008 OVC040 12/11 Q1009
                        R11/190095 NOSIG=
201910030930 METAR LRTR 030930Z 33010KT 9999 -DZ BKN008 OVC040 12/11 Q1009
                        R11/190095 NOSIG=
201910031000 METAR LRTR 031000Z 33012KT 9999 BKN009 OVC040 13/11 Q1010
                        R11/190095 NOSIG=
201910031030 METAR LRTR 031030Z 34013KT 9999 SCT010 BKN040 14/10 Q1010
                        R11/190095 NOSIG=
201910031100 METAR LRTR 031100Z 35012KT 9999 FEW010 SCT016 14/10 Q1010
                        R11/190095 NOSIG=
201910031130 METAR LRTR 031130Z 35009KT 330V030 9999 FEW010 BKN016 13/11
                        Q1011 R11/190095 NOSIG=
201910031200 METAR LRTR 031200Z 34009KT 9999 -DZ SCT009 OVC015 13/11 Q1011
                        R11/CLRD// NOSIG=
201910031230 METAR LRTR 031230Z 34005KT 310V010 9999 SCT010 BKN018 13/11
                        Q1011 NOSIG=
201910031300 METAR LRTR 031300Z 35008KT 9999 FEW010 OVC017 13/10 Q1011
                        NOSIG=
201910031330 METAR LRTR 031330Z 34011KT 9999 FEW010 OVC016 13/09 Q1011
                        NOSIG=
201910031400 METAR LRTR 031400Z 35009KT 9999 FEW010 OVC018 13/09 Q1012
                        NOSIG=
201910031430 METAR LRTR 031430Z 33012KT 9999 FEW012 OVC019 12/10 Q1012
                        NOSIG=
201910031500 METAR LRTR 031500Z 33012KT 9999 FEW013 BKN019 12/09 Q1012
                        NOSIG=
201910031530 METAR LRTR 031530Z 34010KT 9999 SCT016 SCT038 12/09 Q1012
                        NOSIG=
201910031600 METAR LRTR 031600Z 34008KT 9999 FEW016 SCT040 12/09 Q1012
                        NOSIG=
201910031630 METAR LRTR 031630Z 34006KT 9999 FEW020 SCT048 11/08 Q1012=
201910031700 METAR LRTR 031700Z 35003KT 9999 FEW020 BKN044 11/08 Q1012=
201910031730 METAR LRTR 031730Z 35002KT 9999 BKN044 11/09 Q1012=
201910031800 METAR LRTR 031800Z 31002KT 9999 BKN044 11/09 Q1013=
201910031830 METAR LRTR 031830Z 33004KT 9999 BKN042 11/09 Q1013=
201910031900 METAR LRTR 031900Z 32003KT 9999 OVC042 11/09 Q1013=
201910031930 METAR LRTR 031930Z 33006KT 9999 OVC044 11/09 Q1013=
201910032000 METAR LRTR 032000Z 33006KT 9999 OVC045 11/09 Q1013=
201910032030 METAR LRTR 032030Z 33006KT 9999 SCT048 10/09 Q1013=
201910032100 METAR LRTR 032100Z 31007KT 9999 SCT048 10/09 Q1014=
201910032130 METAR LRTR 032130Z 32008KT 9999 SCT048 10/09 Q1013=
201910032200 METAR LRTR 032200Z 32009KT 9999 FEW048 10/09 Q1013=
201910032230 METAR LRTR 032230Z 33008KT 9999 FEW048 10/09 Q1013=
201910032300 METAR LRTR 032300Z 34009KT CAVOK 10/09 Q1013=
201910032330 METAR LRTR 032330Z 34007KT CAVOK 10/08 Q1013=
201910040000 METAR LRTR 040000Z AUTO 33007KT 9999 BKN120/// BKN140///
                        10/08 Q1013=
201910040030 METAR LRTR 040030Z 33007KT CAVOK 10/09 Q1013=
201910040100 METAR COR LRTR 040100Z 33008KT CAVOK 10/09 Q1013=
201910040130 METAR COR LRTR 040130Z 32008KT CAVOK 09/09 Q1013=
201910040200 METAR LRTR 040200Z 32009KT CAVOK 09/09 Q1013=
201910040230 METAR LRTR 040230Z 32007KT CAVOK 09/09 Q1013=
201910040300 METAR COR LRTR 040300Z 32009KT CAVOK 09/09 Q1013=
201910040330 METAR LRTR 040330Z 33008KT CAVOK 09/08 Q1013=
201910040400 METAR LRTR 040400Z 30005KT 280V340 CAVOK 08/07 Q1013=
201910040430 METAR LRTR 040430Z 31006KT CAVOK 08/07 Q1013=
201910040500 METAR LRTR 040500Z 31004KT CAVOK 08/07 Q1014=
201910040530 METAR LRTR 040530Z 32008KT CAVOK 08/07 Q1013=
201910040600 METAR LRTR 040600Z 31006KT CAVOK 09/08 Q1014=
201910040630 METAR LRTR 040630Z 34004KT CAVOK 09/07 Q1014=
201910040700 METAR LRTR 040700Z 35004KT CAVOK 10/07 Q1014=
201910040730 METAR LRTR 040730Z 35006KT CAVOK 11/07 Q1014=
201910040800 METAR LRTR 040800Z 33004KT 310V010 CAVOK 11/06 Q1014=
201910040830 METAR LRTR 040830Z 34006KT 9999 FEW041 12/05 Q1014=
201910040900 METAR LRTR 040900Z 34006KT 300V360 9999 FEW040 12/05 Q1014=
201910040930 METAR LRTR 040930Z 36005KT 330V060 CAVOK 13/05 Q1014=
201910041000 METAR LRTR 041000Z 35006KT CAVOK 14/04 Q1014=
201910041030 METAR LRTR 041030Z 02005KT 330V080 CAVOK 15/04 Q1013=
201910041100 METAR LRTR 041100Z 34005KT 9999 FEW040 15/03 Q1012=
201910041130 METAR LRTR 041130Z VRB04KT 9999 FEW042 16/02 Q1012=
201910041200 METAR LRTR 041200Z 01005KT 340V050 9999 FEW044 16/02 Q1012=
201910041230 METAR LRTR 041230Z 28003KT 180V340 9999 FEW048 16/03 Q1012=
201910041300 METAR LRTR 041300Z 28003KT 180V340 9999 FEW048 16/03 Q1012=
201910041330 METAR LRTR 041330Z 32005KT CAVOK 17/02 Q1011=
201910041400 METAR LRTR 041400Z 30008KT 270V350 CAVOK 16/03 Q1011=
201910041430 METAR LRTR 041430Z 30007KT 280V360 CAVOK 15/03 Q1011=
201910041500 METAR LRTR 041500Z 34007KT CAVOK 16/03 Q1011=
201910041530 METAR LRTR 041530Z 34006KT CAVOK 15/02 Q1011=
201910041600 METAR LRTR 041600Z 33005KT CAVOK 13/03 Q1011=
201910041630 METAR LRTR 041630Z 31004KT CAVOK 12/03 Q1011=
201910041700 METAR LRTR 041700Z 32005KT CAVOK 11/03 Q1011=
201910041730 METAR LRTR 041730Z 35004KT CAVOK 10/03 Q1011=
201910041800 METAR LRTR 041800Z 02004KT CAVOK 09/04 Q1011=
201910041830 METAR LRTR 041830Z VRB02KT CAVOK 10/04 Q1011=
201910041900 METAR LRTR 041900Z 35002KT CAVOK 10/04 Q1012=
201910041930 METAR LRTR 041930Z 00000KT CAVOK 10/04 Q1012=
201910042000 METAR LRTR 042000Z 09003KT 060V170 CAVOK 09/04 Q1011=
201910042030 METAR LRTR 042030Z 00000KT CAVOK 08/04 Q1011=
201910042100 METAR LRTR 042100Z VRB02KT CAVOK 07/03 Q1011=
201910042130 METAR LRTR 042130Z 00000KT CAVOK 06/04 Q1011=
201910042200 METAR LRTR 042200Z 10005KT CAVOK 05/03 Q1011=
201910042230 METAR LRTR 042230Z 10008KT CAVOK 06/04 Q1011=
201910042300 METAR LRTR 042300Z 10006KT CAVOK 05/04 Q1011=
201910042330 METAR LRTR 042330Z 11005KT CAVOK 04/04 Q1011=
201910050000 METAR LRTR 050000Z 11005KT CAVOK 04/03 Q1011=
201910050030 METAR LRTR 050030Z 09005KT CAVOK 04/04 Q1011=
201910050100 METAR LRTR 050100Z 12005KT 100V160 CAVOK 05/04 Q1011=
201910050130 METAR LRTR 050130Z 12005KT CAVOK 05/05 Q1011=
201910050200 METAR LRTR 050200Z 11006KT CAVOK 05/04 Q1011=
201910050230 METAR LRTR 050230Z 11007KT CAVOK 05/04 Q1010=
201910050300 METAR LRTR 050300Z 11007KT CAVOK 05/04 Q1010=
201910050330 METAR LRTR 050330Z 11006KT CAVOK 04/04 Q1010=
201910050400 METAR LRTR 050400Z 12006KT CAVOK 04/03 Q1010 NOSIG=
201910050430 METAR LRTR 050430Z 12007KT CAVOK 03/03 Q1010 NOSIG=
201910050500 METAR LRTR 050500Z 11006KT CAVOK 03/03 Q1010 NOSIG=
201910050530 METAR LRTR 050530Z 11006KT CAVOK 05/05 Q1010 NOSIG=
201910050600 METAR LRTR 050600Z 11004KT CAVOK 07/06 Q1010 NOSIG=
201910050630 METAR LRTR 050630Z 12005KT CAVOK 07/06 Q1010 NOSIG=
201910050700 METAR LRTR 050700Z 13004KT 100V160 CAVOK 09/06 Q1011 NOSIG=
201910050730 METAR LRTR 050730Z 16005KT CAVOK 10/06 Q1011 NOSIG=
201910050800 METAR LRTR 050800Z 16006KT 140V200 CAVOK 11/06 Q1011 NOSIG=
201910050830 METAR LRTR 050830Z 19006KT CAVOK 12/06 Q1011 NOSIG=
201910050900 METAR LRTR 050900Z 20006KT 150V230 CAVOK 13/06 Q1011 NOSIG=
201910050930 METAR LRTR 050930Z 21006KT CAVOK 14/06 Q1010 NOSIG=
201910051000 METAR LRTR 051000Z 21005KT 160V250 CAVOK 14/05 Q1010 NOSIG=
201910051030 METAR LRTR 051030Z 22006KT 190V260 CAVOK 16/05 Q1010 NOSIG=
201910051100 METAR LRTR 051100Z 20006KT 170V260 CAVOK 15/04 Q1010 NOSIG=
201910051130 METAR LRTR 051130Z 25005KT 210V330 CAVOK 17/04 Q1009 NOSIG=
201910051200 METAR LRTR 051200Z 19006KT 150V220 CAVOK 16/04 Q1009 NOSIG=
201910051230 METAR LRTR 051230Z 21007KT 160V240 CAVOK 16/04 Q1009 NOSIG=
201910051300 METAR LRTR 051300Z 24006KT 180V280 CAVOK 17/04 Q1009 NOSIG=
201910051330 METAR LRTR 051330Z 21008KT CAVOK 17/04 Q1009 NOSIG=
201910051400 METAR LRTR 051400Z 21007KT 170V250 CAVOK 17/04 Q1009 NOSIG=
201910051430 METAR LRTR 051430Z 21007KT CAVOK 16/04 Q1009 NOSIG=
201910051500 METAR LRTR 051500Z 22006KT 200V260 CAVOK 16/04 Q1009 NOSIG=
201910051530 METAR LRTR 051530Z 20006KT CAVOK 16/04 Q1009 NOSIG=
201910051600 METAR LRTR 051600Z 21005KT CAVOK 15/05 Q1009 NOSIG=
201910051630 METAR LRTR 051630Z 21006KT CAVOK 14/05 Q1009=
201910051700 METAR LRTR 051700Z 21004KT 170V240 CAVOK 14/05 Q1010=
201910051730 METAR LRTR 051730Z 18004KT 9999 -RA NSC 13/05 Q1010=
201910051800 METAR LRTR 051800Z 17005KT 9999 -RA NSC 13/06 Q1010=
201910051830 METAR LRTR 051830Z 19004KT 9999 -RA NSC 13/06 Q1010=
201910051900 METAR LRTR 051900Z 18004KT 9999 -RA NSC 12/06 Q1010=
201910051930 METAR LRTR 051930Z 19003KT CAVOK 12/06 Q1010=
201910052000 METAR LRTR 052000Z 20005KT CAVOK 12/06 Q1010=
201910052030 METAR LRTR 052030Z 17005KT 9999 -RA NSC 11/07 Q1010=
201910052100 METAR LRTR 052100Z 15006KT 9999 -RA NSC 11/07 Q1009=
201910052130 METAR COR LRTR 052130Z 19004KT CAVOK 10/07 Q1009=
201910052200 METAR LRTR 052200Z 34004KT 9999 -RA NSC 10/07 Q1010=
201910052230 METAR LRTR 052230Z 29007KT 9999 SCT040 10/08 Q1010=
201910052300 METAR LRTR 052300Z 28007KT 9999 -RA BKN035 11/08 Q1011=
201910052330 METAR LRTR 052330Z 29007KT 9999 -RA BKN038 10/08 Q1010=
201910060000 METAR LRTR 060000Z 23003KT 9999 -RA BKN045 10/09 Q1010=
201910060030 METAR LRTR 060030Z 23004KT 9999 SCT048 09/08 Q1010=
201910060100 METAR LRTR 060100Z 25005KT CAVOK 07/07 Q1010=
201910060130 METAR LRTR 060130Z 23006KT 9999 SCT029 SCT040 09/08 Q1010=
201910060200 METAR LRTR 060200Z 23005KT 9999 SCT024 SCT040 09/08 Q1011=
201910060230 METAR LRTR 060230Z 24007KT 9999 SCT020 BKN032 09/08 Q1011=
201910060300 METAR LRTR 060300Z 25008KT 9999 SCT016 BKN025 09/08 Q1011=
201910060330 METAR LRTR 060330Z 25009KT 9999 SCT013 BKN025 10/09 Q1011=
201910060400 METAR LRTR 060400Z 25012KT 8000 -DZ FEW006 BKN010 OVC020
                        10/09 Q1011 RERA=
201910060430 METAR LRTR 060430Z 25009KT 6000 -DZ BKN005 OVC010 09/09 Q1011
                        R11/290095=
201910060500 METAR LRTR 060500Z 26010KT 6000 BKN005 OVC010 09/09 Q1011
                        R11/290095=
201910060530 METAR COR LRTR 060530Z 27012KT 8000 -RA FEW005 OVC012 10/09
                        Q1011 R11/290095=
201910060600 METAR COR LRTR 060600Z 27013KT 8000 -RA BKN012 BKN018 OVC035
                        10/09 Q1012 R11/290095=
201910060630 METAR LRTR 060630Z 27012KT 9999 FEW012 BKN015 OVC040 10/09
                        Q1012 R11/290095=
201910060700 METAR LRTR 060700Z 27012KT 9999 BKN009 OVC040 10/09 Q1012
                        R11/290095=
201910060730 METAR LRTR 060730Z 28012KT 3000 DZRA BKN004 OVC008 09/09
                        Q1012 R11/290095=
201910060800 METAR LRTR 060800Z 34012KT 8000 -RA SCT005 SCT010 OVC025
                        09/08 Q1013 REDZRA R11/290095=
201910060830 METAR COR LRTR 060830Z 33009KT 9999 FEW005 BKN015 BKN025
                        10/08 Q1013 R11/290095=
201910060900 METAR LRTR 060900Z 32012KT 9999 BKN011 10/09 Q1014 R11/290095=
201910060930 METAR LRTR 060930Z 32015KT 9999 BKN012 BKN020 11/08 Q1014
                        R11/290095=
201910061000 METAR LRTR 061000Z 33014KT 9999 FEW012 SCT020 BKN030 12/07
                        Q1014 R11/290095=
201910061030 METAR LRTR 061030Z 32015KT 9999 SCT022 BKN033 13/07 Q1014
                        R11/190095=
201910061100 METAR LRTR 061100Z 31014KT 9999 FEW022 BKN030 12/06 Q1015
                        R11/190095=
201910061130 METAR COR LRTR 061130Z 33014KT 9999 FEW022 OVC030 12/05 Q1015
                        R11/CLRD//=
201910061200 METAR LRTR 061200Z 31013KT 9999 FEW025 OVC033 12/05 Q1015=
201910061230 METAR LRTR 061230Z 31010KT 9999 FEW025 OVC035 12/05 Q1015=
201910061300 METAR COR LRTR 061300Z 32010KT 9999 FEW025 OVC040 12/05 Q1015=
201910061330 METAR LRTR 061330Z 32009KT 9999 FEW025 BKN040 12/05 Q1015=
201910061400 METAR LRTR 061400Z 31006KT 9999 SCT040 13/05 Q1015=
201910061430 METAR LRTR 061430Z 31006KT 280V340 9999 FEW040 13/05 Q1015=
201910061500 METAR LRTR 061500Z 34008KT 310V010 9999 FEW037 13/04 Q1015=
201910061530 METAR LRTR 061530Z 34005KT 9999 FEW042 11/05 Q1015=
201910061600 METAR LRTR 061600Z 35006KT 9999 FEW045 11/05 Q1015 NOSIG=
201910061630 METAR LRTR 061630Z 02004KT CAVOK 09/05 Q1016 NOSIG=
201910061700 METAR LRTR 061700Z 35002KT CAVOK 08/04 Q1016 NOSIG=
201910061730 METAR LRTR 061730Z 02003KT CAVOK 07/04 Q1016 NOSIG=
201910061800 METAR LRTR 061800Z VRB02KT CAVOK 07/04 Q1016 NOSIG=
201910061830 METAR LRTR 061830Z 01002KT CAVOK 07/04 Q1016 NOSIG=
201910061900 METAR LRTR 061900Z 33004KT CAVOK 07/04 Q1016 NOSIG=
201910061930 METAR LRTR 061930Z 05003KT CAVOK 05/04 Q1016 NOSIG=
201910062000 METAR LRTR 062000Z VRB01KT CAVOK 05/04 Q1016 NOSIG=
201910062030 METAR LRTR 062030Z 11003KT CAVOK 05/04 Q1016 NOSIG=
201910062100 METAR LRTR 062100Z 08005KT CAVOK 04/03 Q1016 NOSIG=
201910062130 METAR LRTR 062130Z 06005KT CAVOK 04/03 Q1015 NOSIG=
201910062200 METAR LRTR 062200Z 08005KT CAVOK 04/03 Q1015 NOSIG=
201910062230 METAR LRTR 062230Z 11004KT CAVOK 04/03 Q1015 NOSIG=
201910062300 METAR LRTR 062300Z 09006KT CAVOK 03/03 Q1015 NOSIG=
201910062330 METAR LRTR 062330Z 08005KT CAVOK 03/02 Q1015 NOSIG=
201910070000 METAR LRTR 070000Z VRB02KT CAVOK 03/03 Q1015 NOSIG=
201910070030 METAR LRTR 070030Z 09001KT CAVOK 03/02 Q1015 NOSIG=
201910070100 METAR LRTR 070100Z 00000KT CAVOK 03/03 Q1015 NOSIG=
201910070130 METAR LRTR 070130Z 10006KT 3000 0800E R11/P2000 R29/0650N
                        BCFG BR SCT001 02/02 Q1015 BECMG
                        0800 FG BKN001=
201910070200 METAR LRTR 070200Z 05005KT 0800 R11/0700D R29/0650N -DZ FG
                        BKN001 01/01 Q1015 TEMPO 0600 DZ
                        FG=
201910070230 METAR LRTR 070230Z 17003KT 130V200 0800 R11/0900N R29/1000U
                        FG BKN001 02/02 Q1015 TEMPO 0600
                        FG=
201910070300 METAR LRTR 070300Z 08003KT 050V110 0300 R11/0500N R29/0600D
                        FG VV001 01/01 Q1015 TEMPO 0150 FG=
201910070330 METAR LRTR 070330Z 09003KT 0800 R11/1000U R29/1100U FG BKN001
                        01/01 Q1015 TEMPO 0600 FG=
201910070400 METAR LRTR 070400Z 07004KT 0800 R11/P2000U R29/1100D FG BKN001
                        00/00 Q1014 TEMPO 0600 FG=
201910070430 METAR LRTR 070430Z 06005KT 1000 R11/P2000 R29/1700U BR SCT001
                        01/01 Q1014=
201910070500 METAR LRTR 070500Z 08005KT 0600 R11/1500D R29/1700D BCFG
                        FEW003 02/02 Q1015=
201910070530 METAR LRTR 070530Z 06004KT 0800 R11/1200U R29/0600N FG FEW002
                        02/02 Q1015=
201910070600 METAR COR LRTR 070600Z 08004KT 6000 1500E BCFG FEW002 05/05
                        Q1015=
201910070630 METAR LRTR 070630Z 10005KT 9999 FEW010 06/05 Q1016=
201910070700 METAR LRTR 070700Z 11004KT 090V150 9999 FEW012 07/06 Q1016=
201910070730 METAR LRTR 070730Z 08004KT 040V110 CAVOK 08/06 Q1016=
201910070800 METAR LRTR 070800Z 05003KT 340V100 9999 FEW020 09/06 Q1016=
201910070830 METAR LRTR 070830Z 08003KT 340V150 9999 FEW023 10/06 Q1016=
201910070900 METAR LRTR 070900Z 03005KT 360V070 9999 FEW023 11/05 Q1017=
201910070930 METAR LRTR 070930Z 36006KT 9999 FEW026 12/05 Q1017=
201910071000 METAR LRTR 071000Z 01005KT 330V060 9999 FEW030 12/04 Q1016=
201910071030 METAR LRTR 071030Z 04007KT 340V070 9999 FEW035 13/02 Q1016=
201910071100 METAR LRTR 071100Z 05008KT 010V090 9999 FEW038 14/02 Q1016=
201910071130 METAR LRTR 071130Z 03007KT 350V070 9999 FEW043 15/01 Q1016=
201910071200 METAR LRTR 071200Z 36007KT 330V050 9999 FEW045 15/01 Q1016=
201910071230 METAR LRTR 071230Z 02007KT 340V040 CAVOK 15/M01 Q1016=
201910071300 METAR LRTR 071300Z 35009KT 310V020 CAVOK 16/M01 Q1016=
201910071330 METAR LRTR 071330Z 01011KT 340V040 CAVOK 15/00 Q1016=
201910071400 METAR LRTR 071400Z 01011KT CAVOK 15/M00 Q1016=
201910071430 METAR LRTR 071430Z 02012KT CAVOK 14/M00 Q1016=
201910071500 METAR LRTR 071500Z 01012KT CAVOK 14/M01 Q1017=
201910071530 METAR LRTR 071530Z 01012KT CAVOK 13/M00 Q1017=
201910071600 METAR COR LRTR 071600Z 01010KT CAVOK 11/M00 Q1017=
201910071630 METAR LRTR 071630Z 02007KT CAVOK 10/M00 Q1018=
201910071700 METAR LRTR 071700Z 03006KT CAVOK 09/M00 Q1018=
201910071730 METAR LRTR 071730Z 01008KT CAVOK 08/M01 Q1018=
201910071800 METAR LRTR 071800Z 01009KT CAVOK 08/M01 Q1019=
201910071830 METAR LRTR 071830Z 03005KT CAVOK 06/M01 Q1019=
201910071900 METAR LRTR 071900Z 01007KT CAVOK 07/M01 Q1019=
201910071930 METAR LRTR 071930Z 02008KT CAVOK 06/M01 Q1019=
201910072000 METAR LRTR 072000Z 01008KT CAVOK 06/M01 Q1020=
201910072030 METAR COR LRTR 072030Z 01007KT CAVOK 05/M01 Q1020=
201910072100 METAR LRTR 072100Z AUTO 01007KT 9999 NCD 04/M01 Q1020=
201910072130 METAR LRTR 072130Z 02007KT CAVOK 04/M01 Q1020=
201910072200 METAR LRTR 072200Z 01008KT CAVOK 04/M01 Q1020=
201910072230 METAR LRTR 072230Z 01006KT CAVOK 04/M01 Q1020=
201910072300 METAR LRTR 072300Z VRB02KT CAVOK 03/M01 Q1020=
201910072330 METAR LRTR 072330Z 35006KT CAVOK 03/M01 Q1020=
201910080000 METAR COR LRTR 080000Z 01007KT CAVOK 02/M01 Q1020=
201910080030 METAR LRTR 080030Z 01006KT CAVOK 02/M01 Q1020=
201910080100 METAR LRTR 080100Z 02003KT 360V060 CAVOK 02/M02 Q1021=
201910080130 METAR LRTR 080130Z 09004KT 060V120 CAVOK 01/M02 Q1021=
201910080200 METAR COR LRTR 080200Z 09004KT CAVOK 00/M02 Q1021=
201910080230 METAR COR LRTR 080230Z 12004KT CAVOK M01/M03 Q1022=
201910080300 METAR COR LRTR 080300Z 07003KT 020V100 CAVOK M01/M03 Q1022=
201910080330 METAR LRTR 080330Z 35001KT CAVOK M01/M03 Q1022=
201910080400 METAR LRTR 080400Z 00000KT CAVOK M01/M03 Q1022=
201910080430 METAR LRTR 080430Z 01003KT CAVOK M01/M02 Q1022=
201910080500 METAR LRTR 080500Z 04003KT CAVOK M01/M03 Q1023=
201910080530 METAR LRTR 080530Z 08003KT CAVOK M01/M02 Q1023=
201910080600 METAR LRTR 080600Z 10004KT CAVOK 02/M00 Q1023=
201910080630 METAR LRTR 080630Z 12004KT CAVOK 04/01 Q1023=
201910080700 METAR LRTR 080700Z 11006KT CAVOK 06/02 Q1023=
201910080730 METAR LRTR 080730Z 12007KT CAVOK 07/02 Q1023=
201910080800 METAR LRTR 080800Z 12006KT CAVOK 09/01 Q1023=
201910080830 METAR LRTR 080830Z 11006KT CAVOK 11/01 Q1023=
201910080900 METAR LRTR 080900Z 12006KT 080V150 CAVOK 12/00 Q1023=
201910080930 METAR LRTR 080930Z 13005KT 080V160 CAVOK 13/M03 Q1023=
201910081000 METAR LRTR 081000Z 09005KT 060V140 9999 FEW045 13/M02 Q1023=
201910081030 METAR LRTR 081030Z VRB03KT 9999 FEW046 14/M04 Q1023=
201910081100 METAR LRTR 081100Z 26006KT 230V310 9999 FEW048 14/M05 Q1022=
201910081130 METAR LRTR 081130Z VRB03KT 9999 FEW048 16/M06 Q1022=
201910081200 METAR LRTR 081200Z VRB05KT 9999 FEW048 15/M05 Q1022=
201910081230 METAR LRTR 081230Z VRB04KT CAVOK 16/M06 Q1021=
201910081300 METAR LRTR 081300Z 17005KT 090V230 CAVOK 16/M05 Q1021=
201910081330 METAR LRTR 081330Z 19007KT 160V240 CAVOK 16/M05 Q1021=
201910081400 METAR LRTR 081400Z 18006KT 150V220 CAVOK 16/M05 Q1021=
201910081430 METAR LRTR 081430Z 20006KT 170V230 CAVOK 16/M06 Q1021=
201910081500 METAR LRTR 081500Z 18005KT CAVOK 16/M06 Q1021=
201910081530 METAR LRTR 081530Z 20005KT CAVOK 15/M05 Q1021=
201910081600 METAR LRTR 081600Z 20002KT CAVOK 14/M04 Q1020=
201910081630 METAR LRTR 081630Z 18004KT CAVOK 13/M04 Q1020=
201910081700 METAR LRTR 081700Z 15004KT CAVOK 10/M02 Q1020=
201910081730 METAR LRTR 081730Z 14005KT CAVOK 10/M02 Q1020=
201910081800 METAR LRTR 081800Z 15005KT CAVOK 10/01 Q1021=
201910081830 METAR LRTR 081830Z 16005KT CAVOK 10/03 Q1021=
201910081900 METAR LRTR 081900Z 18003KT CAVOK 09/03 Q1021=
201910081930 METAR LRTR 081930Z 15003KT CAVOK 08/03 Q1020=
201910082000 METAR LRTR 082000Z 13003KT CAVOK 06/03 Q1021=
201910082030 METAR LRTR 082030Z 10006KT CAVOK 06/02 Q1021=
201910082100 METAR LRTR 082100Z 11008KT CAVOK 04/02 Q1020=
201910082130 METAR LRTR 082130Z 11008KT CAVOK 04/02 Q1020=
201910082200 METAR COR LRTR 082200Z 11008KT CAVOK 05/03 Q1020=
201910082230 METAR LRTR 082230Z 11007KT CAVOK 05/03 Q1020=
201910082300 METAR LRTR 082300Z 11007KT CAVOK 04/03 Q1020=
201910082330 METAR LRTR 082330Z 11007KT CAVOK 04/03 Q1020=
201910090000 METAR LRTR 090000Z 11007KT CAVOK 05/03 Q1019=
201910090030 METAR LRTR 090030Z 11008KT CAVOK 06/04 Q1019=
201910090100 METAR LRTR 090100Z 10008KT CAVOK 06/04 Q1019=
201910090130 METAR LRTR 090130Z 10009KT CAVOK 06/04 Q1019=
201910090200 METAR LRTR 090200Z 10008KT CAVOK 06/04 Q1019=
201910090230 METAR LRTR 090230Z 11009KT CAVOK 06/04 Q1018=
201910090300 METAR LRTR 090300Z 12008KT CAVOK 06/04 Q1018=
201910090330 METAR LRTR 090330Z 11009KT CAVOK 06/03 Q1019=
201910090400 METAR LRTR 090400Z 12008KT CAVOK 06/03 Q1018=
201910090430 METAR LRTR 090430Z 13010KT CAVOK 06/04 Q1018=
201910090500 METAR LRTR 090500Z 11009KT CAVOK 06/03 Q1018 NOSIG=
201910090530 METAR LRTR 090530Z 12010KT CAVOK 06/04 Q1018 NOSIG=
201910090600 METAR LRTR 090600Z 11008KT CAVOK 08/04 Q1019 NOSIG=
201910090630 METAR LRTR 090630Z 11008KT CAVOK 10/05 Q1019 NOSIG=
201910090700 METAR LRTR 090700Z 13008KT CAVOK 12/05 Q1019 NOSIG=
201910090730 METAR LRTR 090730Z 15007KT CAVOK 14/06 Q1019 NOSIG=
201910090800 METAR LRTR 090800Z 16008KT CAVOK 16/06 Q1019 NOSIG=
201910090830 METAR LRTR 090830Z 18009KT CAVOK 18/06 Q1019 NOSIG=
201910090900 METAR LRTR 090900Z 20012KT CAVOK 19/06 Q1019 NOSIG=
201910090930 METAR LRTR 090930Z 20009KT 150V220 CAVOK 19/06 Q1018 NOSIG=
201910091000 METAR LRTR 091000Z 19009KT 160V220 CAVOK 20/06 Q1018 NOSIG=
201910091030 METAR LRTR 091030Z 19009KT CAVOK 21/05 Q1017 NOSIG=
201910091100 METAR LRTR 091100Z 18008KT CAVOK 21/05 Q1017 NOSIG=
201910091130 METAR LRTR 091130Z 23009KT CAVOK 22/05 Q1016 NOSIG=
201910091200 METAR LRTR 091200Z 20007KT CAVOK 22/03 Q1016 NOSIG=
201910091230 METAR LRTR 091230Z 21008KT 170V240 CAVOK 23/04 Q1016 NOSIG=
201910091300 METAR LRTR 091300Z 20007KT CAVOK 23/04 Q1015 NOSIG=
201910091330 METAR LRTR 091330Z 19008KT CAVOK 23/02 Q1015 NOSIG=
201910091400 METAR LRTR 091400Z 22009KT CAVOK 23/03 Q1015 NOSIG=
201910091430 METAR LRTR 091430Z 19009KT CAVOK 23/04 Q1015 NOSIG=
201910091500 METAR LRTR 091500Z 20007KT CAVOK 22/05 Q1015 NOSIG=
201910091530 METAR LRTR 091530Z 19004KT CAVOK 21/05 Q1014 NOSIG=
201910091600 METAR LRTR 091600Z 14003KT CAVOK 20/05 Q1014 NOSIG=
201910091630 METAR LRTR 091630Z 13006KT CAVOK 15/05 Q1014=
201910091700 METAR LRTR 091700Z 12006KT CAVOK 15/05 Q1014=
201910091730 METAR LRTR 091730Z VRB02KT CAVOK 13/04 Q1014=
201910091800 METAR LRTR 091800Z 07003KT CAVOK 13/04 Q1014=
201910091830 METAR LRTR 091830Z 09005KT CAVOK 11/04 Q1014=
201910091900 METAR LRTR 091900Z 09003KT CAVOK 11/05 Q1014=
201910091930 METAR LRTR 091930Z 08006KT CAVOK 11/05 Q1014=
201910092000 METAR LRTR 092000Z 10006KT CAVOK 10/05 Q1014=
201910092030 METAR LRTR 092030Z 09006KT CAVOK 11/05 Q1014=
201910092100 METAR LRTR 092100Z 11007KT CAVOK 10/06 Q1014=
201910092130 METAR LRTR 092130Z 11007KT CAVOK 10/06 Q1014=
201910092200 METAR LRTR 092200Z 10005KT CAVOK 10/06 Q1014=
201910092230 METAR LRTR 092230Z VRB02KT CAVOK 10/06 Q1014=
201910092300 METAR LRTR 092300Z 34003KT 320V060 CAVOK 09/06 Q1015=
201910092330 METAR LRTR 092330Z 10004KT CAVOK 10/06 Q1015=
201910100000 METAR LRTR 100000Z 11005KT CAVOK 09/06 Q1015=
201910100030 METAR LRTR 100030Z VRB01KT CAVOK 10/06 Q1015=
201910100100 METAR LRTR 100100Z VRB02KT CAVOK 11/07 Q1015=
201910100130 METAR LRTR 100130Z 11003KT CAVOK 11/07 Q1016=
201910100200 METAR LRTR 100200Z 12004KT CAVOK 11/07 Q1015=
201910100230 METAR COR LRTR 100230Z 11003KT CAVOK 11/07 Q1016=
201910100300 METAR LRTR 100300Z 11003KT 9999 -RA NSC 11/08 Q1016=
201910100330 METAR LRTR 100330Z 05001KT 9999 -RA NSC 11/08 Q1016=
201910100400 METAR LRTR 100400Z 10005KT 9999 -RA NSC 11/09 Q1016 R11/190095=
201910100430 METAR LRTR 100430Z 06003KT 9999 -RA NSC 10/09 Q1017 R11/290095=
201910100500 METAR LRTR 100500Z 12003KT 9999 -RA NSC 10/09 Q1017 R11/290095=
201910100530 METAR LRTR 100530Z 15003KT CAVOK 11/09 Q1017 R11/290095=
201910100600 METAR LRTR 100600Z 15003KT 9999 -RA NSC 11/09 Q1017 R11/290095=
201910100630 METAR LRTR 100630Z 09003KT CAVOK 11/10 Q1018 R11/290095=
201910100700 METAR LRTR 100700Z 12005KT CAVOK 12/10 Q1018 R11/290095=
201910100730 METAR LRTR 100730Z 12004KT 090V150 CAVOK 13/11 Q1018 R11/190095=
201910100800 METAR LRTR 100800Z 09001KT CAVOK 13/11 Q1018 R11/190095=
201910100830 METAR LRTR 100830Z 13004KT CAVOK 14/11 Q1018 R11/190095=
201910100900 METAR LRTR 100900Z 09004KT CAVOK 15/11 Q1018 R11/190095=
201910100930 METAR LRTR 100930Z 10004KT CAVOK 15/11 Q1018 R11/190095=
201910101000 METAR LRTR 101000Z 07002KT CAVOK 15/10 Q1018 R11/190095=
201910101030 METAR LRTR 101030Z 08004KT CAVOK 16/10 Q1018 R11/190095=
201910101100 METAR LRTR 101100Z VRB02KT CAVOK 16/10 Q1018 R11/190095=
201910101130 METAR LRTR 101130Z VRB02KT CAVOK 16/11 Q1018 R11/CLRD//=
201910101200 METAR LRTR 101200Z 31005KT 9999 -RA NSC 15/12 Q1018=
201910101230 METAR LRTR 101230Z 35004KT CAVOK 15/12 Q1018=
201910101300 METAR LRTR 101300Z 34005KT 9999 -RA NSC 15/10 Q1018=
201910101330 METAR COR LRTR 101330Z 34004KT 9999 -RA NSC 14/11 Q1018 R11/190095=
201910101400 METAR LRTR 101400Z 04004KT CAVOK 13/12 Q1017 R11/190095=
201910101430 METAR LRTR 101430Z 36006KT 9999 -RA NSC 13/12 Q1018 R11/190095=
201910101500 METAR LRTR 101500Z 03003KT 8000 -RA NSC 13/12 Q1017 R11/290095=
201910101530 METAR LRTR 101530Z 01003KT 340V060 8000 -RA NSC 13/12 Q1018
                        R11/290095=
201910101600 METAR LRTR 101600Z 34005KT 6000 -RA FEW020 13/12 Q1018 R11/290095=
201910101630 METAR LRTR 101630Z 36006KT 7000 -RA FEW020 13/12 Q1019 R11/290095=
201910101700 METAR LRTR 101700Z 36006KT 7000 -RA FEW020 13/12 Q1019 R11/290095=
201910101730 METAR LRTR 101730Z 33007KT 7000 -RA NSC 12/11 Q1020 R11/290095=
201910101800 METAR COR LRTR 101800Z 35009KT 9999 -RA NSC 12/11 Q1020 R11/290095=
201910101830 METAR LRTR 101830Z 36009KT CAVOK 12/10 Q1020 R11/290095=
201910101900 METAR LRTR 101900Z 04006KT 020V080 CAVOK 12/10 Q1020 R11/290095=
201910101930 METAR LRTR 101930Z 08002KT CAVOK 11/10 Q1020 R11/290095=
201910102000 METAR LRTR 102000Z VRB01KT CAVOK 11/10 Q1021 R11/290095=
201910102030 METAR LRTR 102030Z 16003KT CAVOK 11/10 Q1021 R11/290095=
201910102100 METAR LRTR 102100Z 32002KT CAVOK 11/10 Q1021 R11/290095=
201910102130 METAR LRTR 102130Z 34004KT CAVOK 10/09 Q1021 R11/290095=
201910102200 METAR LRTR 102200Z 32004KT CAVOK 09/09 Q1022 R11/290095=
201910102230 METAR LRTR 102230Z 31004KT CAVOK 08/08 Q1022 R11/290095=
201910102300 METAR LRTR 102300Z 32005KT CAVOK 08/08 Q1022 R11/290095=
201910102330 METAR LRTR 102330Z 32005KT CAVOK 07/07 Q1023 R11/290095=
201910110000 METAR LRTR 110000Z VRB02KT CAVOK 08/07 Q1023 R11/290095=
201910110030 METAR LRTR 110030Z 02001KT CAVOK 08/08 Q1023 R11/290095=
201910110100 METAR LRTR 110100Z 02003KT CAVOK 08/07 Q1023 R11/290095=
201910110130 METAR LRTR 110130Z 02003KT CAVOK 07/07 Q1024 R11/290095=
201910110200 METAR LRTR 110200Z 31003KT 280V340 CAVOK 07/07 Q1024 R11/290095=
201910110230 METAR LRTR 110230Z 36003KT CAVOK 07/07 Q1024 R11/290095=
201910110300 METAR LRTR 110300Z 35006KT CAVOK 07/07 Q1025 R11/190095=
201910110330 METAR LRTR 110330Z 35003KT CAVOK 08/07 Q1025 R11/190095=
201910110400 METAR LRTR 110400Z 16003KT 6000 0800E PRFG NSC 06/05 Q1025
                        R11/190095=
201910110430 METAR LRTR 110430Z 15006KT 7000 R11/0800D R29/0900D MIFG
                        NSC 05/05 Q1025 R11/190095=
201910110500 METAR COR LRTR 110500Z 13003KT 070V170 8000 R11/1000D R29/0450N
                        MIFG NSC 04/04 Q1026 R11/190095=
201910110530 METAR LRTR 110530Z 12004KT 0600 R11/0600U R29/0600D FG FEW003
                        04/04 Q1026 R11/190095=
201910110600 METAR LRTR 110600Z 13003KT 0500 R11/0650N R29/0450N FG FEW003
                        05/05 Q1026 R11/190095=
201910110630 METAR LRTR 110630Z 14003KT 5000 BR FEW001 07/07 Q1027 R11/190095=
201910110700 METAR LRTR 110700Z VRB01KT 9999 FEW001 SCT049 09/09 Q1027
                        R11/190095=
201910110730 METAR LRTR 110730Z 22003KT 9999 FEW003 11/10 Q1027 R11/190095=
201910110800 METAR LRTR 110800Z 20003KT 150V260 9999 FEW007 12/09 Q1027
                        R11/190095=
201910110830 METAR LRTR 110830Z VRB02KT 9999 FEW010 13/10 Q1027 R11/190095=
201910110900 METAR LRTR 110900Z 18003KT 090V240 9999 FEW015 14/10 Q1027
                        R11/190095=
201910110930 METAR LRTR 110930Z 18003KT 110V230 9999 FEW018 15/09 Q1028
                        R11/190095=
201910111000 METAR LRTR 111000Z 20003KT 120V260 9999 FEW020 16/09 Q1027
                        R11/190095=
201910111030 METAR LRTR 111030Z 20005KT 130V270 9999 FEW027 16/08 Q1027
                        R11/190095=
201910111100 METAR LRTR 111100Z 24005KT 210V290 9999 SCT032 16/08 Q1027
                        R11/190095=
201910111130 METAR LRTR 111130Z VRB02KT 9999 SCT035 17/08 Q1027 R11/190095=
201910111200 METAR LRTR 111200Z 28005KT 230V310 9999 FEW040 17/08 Q1026
                        R11/190095=
201910111230 METAR LRTR 111230Z VRB01KT 9999 SCT040 18/08 Q1026 R11/190095=
201910111300 METAR LRTR 111300Z VRB02KT 9999 SCT040 18/08 Q1026 R11/190095=
201910111330 METAR LRTR 111330Z 31004KT 270V350 9999 FEW043 17/07 Q1026
                        R11/190095=
201910111400 METAR LRTR 111400Z VRB01KT 9999 FEW045 17/07 Q1026 R11/CLRD//=
201910111430 METAR LRTR 111430Z 00000KT 9999 FEW045 17/08 Q1025=
201910111500 METAR LRTR 111500Z 00000KT CAVOK 17/08 Q1025=
201910111530 METAR LRTR 111530Z 00000KT CAVOK 16/08 Q1025=
201910111600 METAR COR LRTR 111600Z 00000KT CAVOK 15/08 Q1025=
201910111630 METAR LRTR 111630Z 13003KT CAVOK 14/08 Q1025=
201910111700 METAR LRTR 111700Z 12004KT CAVOK 13/08 Q1025=
201910111730 METAR LRTR 111730Z 11004KT CAVOK 12/08 Q1025=
201910111800 METAR LRTR 111800Z 09005KT CAVOK 10/08 Q1025=
201910111830 METAR LRTR 111830Z 09006KT CAVOK 09/07 Q1024=
201910111900 METAR LRTR 111900Z 06005KT CAVOK 08/07 Q1025=
201910111930 METAR LRTR 111930Z 04004KT CAVOK 07/06 Q1025=
201910112000 METAR LRTR 112000Z 07006KT CAVOK 07/06 Q1025=
201910112030 METAR LRTR 112030Z 08006KT CAVOK 07/06 Q1025=
201910112100 METAR LRTR 112100Z 10006KT CAVOK 06/05 Q1025=
201910112130 METAR COR LRTR 112130Z 09005KT CAVOK 06/05 Q1025=
201910112200 METAR LRTR 112200Z 09007KT CAVOK 06/05 Q1025=
201910112230 METAR COR LRTR 112230Z 09007KT CAVOK 07/05 Q1025=
201910112300 METAR LRTR 112300Z 10008KT CAVOK 07/06 Q1025=
201910112330 METAR LRTR 112330Z 11006KT CAVOK 05/04 Q1024=
201910120000 METAR COR LRTR 120000Z 12008KT CAVOK 05/05 Q1024=
201910120030 METAR LRTR 120030Z 12008KT CAVOK 04/04 Q1024=
201910120100 METAR LRTR 120100Z 09009KT CAVOK 06/06 Q1024=
201910120130 METAR LRTR 120130Z 10010KT CAVOK 07/06 Q1024=
201910120200 METAR LRTR 120200Z 11008KT CAVOK 06/05 Q1024=
201910120230 METAR LRTR 120230Z 10009KT CAVOK 06/05 Q1024=
201910120300 METAR LRTR 120300Z 11008KT CAVOK 05/05 Q1024=
201910120330 METAR COR LRTR 120330Z 12009KT CAVOK 05/04 Q1024=
201910120400 METAR LRTR 120400Z 11009KT CAVOK 06/05 Q1024=
201910120430 METAR LRTR 120430Z 10008KT CAVOK 06/05 Q1024=
201910120500 METAR LRTR 120500Z 11007KT CAVOK 05/04 Q1024=
201910120530 METAR LRTR 120530Z 11007KT CAVOK 06/05 Q1024=
201910120600 METAR LRTR 120600Z 10009KT CAVOK 09/06 Q1024=
201910120630 METAR LRTR 120630Z 11008KT CAVOK 10/07 Q1024=
201910120700 METAR LRTR 120700Z 11010KT CAVOK 12/07 Q1024=
201910120730 METAR LRTR 120730Z 12011KT CAVOK 13/06 Q1024=
201910120800 METAR LRTR 120800Z 11010KT CAVOK 15/06 Q1024=
201910120830 METAR LRTR 120830Z 12008KT CAVOK 16/06 Q1024=
201910120900 METAR LRTR 120900Z 12006KT CAVOK 18/06 Q1024=
201910120930 METAR LRTR 120930Z 16007KT 120V190 CAVOK 19/06 Q1024=
201910121000 METAR LRTR 121000Z 17009KT CAVOK 20/06 Q1024=
201910121030 METAR LRTR 121030Z 18008KT CAVOK 21/06 Q1023=
201910121100 METAR LRTR 121100Z 22009KT CAVOK 22/06 Q1023=
201910121130 METAR LRTR 121130Z 20006KT 160V230 CAVOK 23/07 Q1023=
201910121200 METAR LRTR 121200Z 22005KT 150V290 CAVOK 24/07 Q1022=
201910121230 METAR LRTR 121230Z 19006KT 160V230 CAVOK 24/07 Q1022=
201910121300 METAR LRTR 121300Z 25005KT 220V300 CAVOK 24/08 Q1022=
201910121330 METAR LRTR 121330Z 18004KT 140V250 CAVOK 24/08 Q1022=
201910121400 METAR LRTR 121400Z 18004KT 130V270 CAVOK 24/07 Q1022=
201910121430 METAR LRTR 121430Z 21004KT 160V240 CAVOK 24/07 Q1021=
201910121500 METAR LRTR 121500Z VRB02KT CAVOK 24/07 Q1021=
201910121530 METAR LRTR 121530Z VRB01KT CAVOK 23/07 Q1021=
201910121600 METAR LRTR 121600Z 00000KT CAVOK 20/08 Q1021=
201910121630 METAR LRTR 121630Z 00000KT CAVOK 19/08 Q1021=
201910121700 METAR LRTR 121700Z 08006KT CAVOK 15/08 Q1022=
201910121730 METAR LRTR 121730Z 09006KT CAVOK 14/07 Q1022=
201910121800 METAR LRTR 121800Z 09006KT CAVOK 12/07 Q1022=
201910121830 METAR LRTR 121830Z 08004KT CAVOK 12/08 Q1022=
201910121900 METAR LRTR 121900Z 09005KT CAVOK 12/08 Q1022=
201910121930 METAR LRTR 121930Z 08004KT CAVOK 12/08 Q1023=
201910122000 METAR LRTR 122000Z 10005KT CAVOK 12/08 Q1023=
201910122030 METAR LRTR 122030Z 10006KT CAVOK 11/07 Q1023=
201910122100 METAR LRTR 122100Z 10007KT CAVOK 10/07 Q1022=
201910122130 METAR LRTR 122130Z 11008KT CAVOK 10/07 Q1022=
201910122200 METAR LRTR 122200Z 10007KT CAVOK 08/07 Q1022=
201910122230 METAR LRTR 122230Z 10007KT CAVOK 09/06 Q1022=
201910122300 METAR LRTR 122300Z 10006KT CAVOK 09/06 Q1022=
201910122330 METAR LRTR 122330Z 11007KT CAVOK 08/06 Q1023=
201910130000 METAR COR LRTR 130000Z 10006KT CAVOK 08/06 Q1023=
201910130030 METAR COR LRTR 130030Z 09006KT CAVOK 08/06 Q1022=
201910130100 METAR LRTR 130100Z 09007KT CAVOK 08/06 Q1022=
201910130130 METAR LRTR 130130Z 09006KT CAVOK 08/06 Q1022=
201910130200 METAR LRTR 130200Z 08007KT CAVOK 08/06 Q1022=
201910130230 METAR LRTR 130230Z 10006KT CAVOK 07/06 Q1022=
201910130300 METAR LRTR 130300Z 11007KT CAVOK 07/05 Q1022=
201910130330 METAR LRTR 130330Z 12007KT CAVOK 06/05 Q1022=
201910130400 METAR LRTR 130400Z 11007KT CAVOK 07/06 Q1022 NOSIG=
201910130430 METAR LRTR 130430Z 09006KT CAVOK 06/05 Q1023 NOSIG=
201910130500 METAR LRTR 130500Z 10006KT CAVOK 07/05 Q1023 NOSIG=
201910130530 METAR LRTR 130530Z 10007KT CAVOK 08/06 Q1023 NOSIG=
201910130600 METAR LRTR 130600Z 10006KT CAVOK 09/07 Q1023 NOSIG=
201910130630 METAR LRTR 130630Z 10008KT CAVOK 12/08 Q1023 NOSIG=
201910130700 METAR LRTR 130700Z 11008KT CAVOK 14/08 Q1023 NOSIG=
201910130730 METAR LRTR 130730Z 10009KT CAVOK 16/08 Q1023 NOSIG=
201910130800 METAR LRTR 130800Z 11007KT 080V140 CAVOK 17/08 Q1023 NOSIG=
201910130830 METAR LRTR 130830Z 12006KT CAVOK 18/08 Q1023 NOSIG=
201910130900 METAR LRTR 130900Z 13005KT CAVOK 20/09 Q1023 NOSIG=
201910130930 METAR LRTR 130930Z 11004KT 040V160 CAVOK 22/09 Q1023 NOSIG=
201910131000 METAR LRTR 131000Z 16003KT 110V200 CAVOK 23/09 Q1023 NOSIG=
201910131030 METAR LRTR 131030Z 03003KT 270V080 CAVOK 23/09 Q1022 NOSIG=
201910131100 METAR LRTR 131100Z VRB01KT CAVOK 25/08 Q1022 NOSIG=
201910131130 METAR LRTR 131130Z VRB03KT CAVOK 24/07 Q1022 NOSIG=
201910131200 METAR LRTR 131200Z VRB02KT CAVOK 25/05 Q1022 NOSIG=
201910131230 METAR LRTR 131230Z 12004KT 070V160 CAVOK 25/07 Q1021 NOSIG=
201910131300 METAR LRTR 131300Z 22003KT 120V280 CAVOK 26/08 Q1021 NOSIG=
201910131330 METAR LRTR 131330Z VRB02KT CAVOK 25/08 Q1021 NOSIG=
201910131400 METAR LRTR 131400Z 00000KT CAVOK 25/08 Q1021 NOSIG=
201910131430 METAR LRTR 131430Z 00000KT CAVOK 25/09 Q1021 NOSIG=
201910131500 METAR LRTR 131500Z 00000KT CAVOK 24/09 Q1021 NOSIG=
201910131530 METAR LRTR 131530Z 06001KT CAVOK 24/08 Q1021 NOSIG=
201910131600 METAR LRTR 131600Z 02001KT CAVOK 23/08 Q1021 NOSIG=
201910131630 METAR LRTR 131630Z 05003KT CAVOK 19/09 Q1021=
201910131700 METAR LRTR 131700Z 04005KT CAVOK 17/08 Q1021=
201910131730 METAR LRTR 131730Z 03005KT CAVOK 16/07 Q1021=
201910131800 METAR LRTR 131800Z 04004KT CAVOK 15/07 Q1021=
201910131830 METAR LRTR 131830Z 04005KT CAVOK 14/07 Q1021=
201910131900 METAR LRTR 131900Z 05005KT CAVOK 14/07 Q1021=
201910131930 METAR LRTR 131930Z 12005KT CAVOK 14/07 Q1022=
201910132000 METAR LRTR 132000Z 09007KT CAVOK 12/07 Q1022=
201910132030 METAR LRTR 132030Z 08005KT CAVOK 11/07 Q1022=
201910132100 METAR LRTR 132100Z 09007KT CAVOK 11/07 Q1022=
201910132130 METAR LRTR 132130Z 10007KT CAVOK 12/07 Q1022=
201910132200 METAR LRTR 132200Z 10006KT CAVOK 11/07 Q1022=
201910132230 METAR LRTR 132230Z AUTO 10007KT 9999 NCD 10/07 Q1022=
201910132300 METAR LRTR 132300Z 12008KT CAVOK 09/07 Q1022=
201910132330 METAR LRTR 132330Z 11007KT CAVOK 10/08 Q1022=
201910140000 METAR LRTR 140000Z 11008KT CAVOK 10/08 Q1021=
201910140030 METAR LRTR 140030Z 11008KT CAVOK 11/08 Q1021=
201910140100 METAR LRTR 140100Z 11007KT CAVOK 10/08 Q1021=
201910140130 METAR LRTR 140130Z 11008KT CAVOK 10/08 Q1021=
201910140200 METAR LRTR 140200Z 11009KT CAVOK 10/08 Q1021=
201910140230 METAR LRTR 140230Z 11008KT CAVOK 10/08 Q1021=
201910140300 METAR LRTR 140300Z 11007KT CAVOK 09/07 Q1021=
201910140330 METAR LRTR 140330Z 11008KT CAVOK 09/07 Q1021=
201910140400 METAR LRTR 140400Z 11008KT CAVOK 09/07 Q1021=
201910140430 METAR LRTR 140430Z 10006KT CAVOK 09/07 Q1021=
201910140500 METAR LRTR 140500Z 11008KT CAVOK 08/07 Q1022=
201910140530 METAR LRTR 140530Z 11009KT CAVOK 09/08 Q1022=
201910140600 METAR LRTR 140600Z 11007KT CAVOK 11/08 Q1022=
201910140630 METAR LRTR 140630Z 12008KT CAVOK 13/09 Q1022=
201910140700 METAR LRTR 140700Z 11009KT CAVOK 15/09 Q1022=
201910140730 METAR LRTR 140730Z 12008KT CAVOK 17/09 Q1022=
201910140800 METAR LRTR 140800Z 12007KT CAVOK 19/09 Q1022=
201910140830 METAR LRTR 140830Z 12006KT CAVOK 20/09 Q1022=
201910140900 METAR LRTR 140900Z 12004KT CAVOK 21/10 Q1022=
201910140930 METAR LRTR 140930Z VRB03KT CAVOK 23/10 Q1022=
201910141000 METAR LRTR 141000Z 20004KT 130V260 CAVOK 24/10 Q1021=
201910141030 METAR LRTR 141030Z VRB01KT CAVOK 24/10 Q1021=
201910141100 METAR COR LRTR 141100Z VRB02KT CAVOK 25/11 Q1021=
201910141130 METAR LRTR 141130Z 00000KT CAVOK 26/11 Q1020=
201910141200 METAR LRTR 141200Z 00000KT CAVOK 26/11 Q1020=
201910141230 METAR LRTR 141230Z 00000KT CAVOK 26/11 Q1020=
201910141300 METAR LRTR 141300Z VRB02KT CAVOK 26/10 Q1019=
201910141330 METAR LRTR 141330Z VRB02KT CAVOK 27/11 Q1019=
201910141400 METAR LRTR 141400Z 16003KT 110V200 CAVOK 26/11 Q1019=
201910141430 METAR LRTR 141430Z 26002KT CAVOK 26/11 Q1019=
201910141500 METAR LRTR 141500Z 00000KT CAVOK 26/11 Q1019=
201910141530 METAR LRTR 141530Z 00000KT CAVOK 24/11 Q1019=
201910141600 METAR LRTR 141600Z 36001KT CAVOK 23/11 Q1019 NOSIG=
201910141630 METAR LRTR 141630Z 36004KT CAVOK 20/11 Q1019 NOSIG=
201910141700 METAR LRTR 141700Z 02005KT CAVOK 18/10 Q1019 NOSIG=
201910141730 METAR LRTR 141730Z 04005KT CAVOK 17/10 Q1019 NOSIG=
201910141800 METAR LRTR 141800Z 04005KT CAVOK 16/10 Q1019 NOSIG=
201910141830 METAR LRTR 141830Z 07004KT CAVOK 16/09 Q1019 NOSIG=
201910141900 METAR LRTR 141900Z 06004KT CAVOK 15/09 Q1019 NOSIG=
201910141930 METAR LRTR 141930Z 09005KT CAVOK 14/10 Q1019 NOSIG=
201910142000 METAR LRTR 142000Z 09006KT CAVOK 14/09 Q1019 NOSIG=
201910142030 METAR LRTR 142030Z 09005KT CAVOK 14/09 Q1019 NOSIG=
201910142100 METAR LRTR 142100Z 11006KT CAVOK 13/09 Q1018 NOSIG=
201910142130 METAR LRTR 142130Z 10006KT CAVOK 11/09 Q1018 NOSIG=
201910142200 METAR LRTR 142200Z 10007KT CAVOK 12/09 Q1018 NOSIG=
201910142230 METAR LRTR 142230Z 10006KT CAVOK 12/09 Q1018 NOSIG=
201910142300 METAR LRTR 142300Z 09007KT CAVOK 13/09 Q1018 NOSIG=
201910142330 METAR LRTR 142330Z 10008KT CAVOK 13/09 Q1018 NOSIG=
201910150000 METAR LRTR 150000Z 09007KT CAVOK 12/09 Q1018 NOSIG=
201910150030 METAR LRTR 150030Z 10008KT CAVOK 13/09 Q1018 NOSIG=
201910150100 METAR LRTR 150100Z 10009KT CAVOK 13/09 Q1017 NOSIG=
201910150130 METAR LRTR 150130Z 10009KT CAVOK 13/09 Q1017 NOSIG=
201910150200 METAR LRTR 150200Z 10007KT CAVOK 12/09 Q1017 NOSIG=
201910150230 METAR LRTR 150230Z 11007KT CAVOK 10/08 Q1017 NOSIG=
201910150300 METAR LRTR 150300Z 10007KT CAVOK 10/08 Q1017 NOSIG=
201910150330 METAR LRTR 150330Z 10006KT CAVOK 11/08 Q1017 NOSIG=
201910150400 METAR LRTR 150400Z 09006KT CAVOK 09/07 Q1017 NOSIG=
201910150430 METAR LRTR 150430Z 09005KT CAVOK 09/07 Q1017=
201910150500 METAR LRTR 150500Z 11007KT CAVOK 09/08 Q1017=
201910150530 METAR LRTR 150530Z 11008KT CAVOK 10/08 Q1017=
201910150600 METAR LRTR 150600Z 11008KT CAVOK 12/09 Q1017=
201910150630 METAR LRTR 150630Z 11008KT CAVOK 15/10 Q1018=
201910150700 METAR LRTR 150700Z 11009KT CAVOK 17/10 Q1018=
201910150730 METAR LRTR 150730Z 11011KT CAVOK 18/10 Q1018=
201910150800 METAR LRTR 150800Z 11009KT CAVOK 20/10 Q1018=
201910150830 METAR LRTR 150830Z 12007KT CAVOK 21/10 Q1017=
201910150900 METAR LRTR 150900Z 12007KT CAVOK 22/10 Q1017=
201910150930 METAR LRTR 150930Z 13006KT CAVOK 24/10 Q1017=
201910151000 METAR LRTR 151000Z 15005KT 110V220 CAVOK 25/10 Q1017=
201910151030 METAR LRTR 151030Z 17009KT CAVOK 25/10 Q1017=
201910151100 METAR LRTR 151100Z 17008KT CAVOK 26/11 Q1016=
201910151130 METAR LRTR 151130Z 21009KT 180V240 CAVOK 27/10 Q1016=
201910151200 METAR LRTR 151200Z 19009KT 160V220 CAVOK 27/10 Q1015=
201910151230 METAR LRTR 151230Z 22010KT CAVOK 27/10 Q1015=
201910151300 METAR COR LRTR 151300Z 20010KT CAVOK 27/10 Q1015=
201910151330 METAR LRTR 151330Z 20008KT 160V230 CAVOK 27/10 Q1015=
201910151400 METAR LRTR 151400Z 21007KT CAVOK 27/10 Q1014=
201910151430 METAR LRTR 151430Z 21008KT CAVOK 27/10 Q1014=
201910151500 METAR LRTR 151500Z 21005KT CAVOK 26/10 Q1014=
201910151530 METAR LRTR 151530Z 20003KT CAVOK 25/10 Q1014=
201910151600 METAR LRTR 151600Z 23003KT CAVOK 23/11 Q1014=
201910151630 METAR LRTR 151630Z VRB02KT CAVOK 21/10 Q1014=
201910151700 METAR COR LRTR 151700Z VRB02KT CAVOK 21/10 Q1014=
201910151730 METAR LRTR 151730Z VRB01KT CAVOK 16/09 Q1015=
201910151800 METAR LRTR 151800Z 08004KT CAVOK 16/09 Q1015=
201910151830 METAR LRTR 151830Z 07004KT CAVOK 14/08 Q1015=
201910151900 METAR LRTR 151900Z 06005KT CAVOK 13/08 Q1015=
201910151930 METAR LRTR 151930Z 07005KT CAVOK 13/08 Q1015=
201910152000 METAR LRTR 152000Z 07004KT CAVOK 13/09 Q1015=
201910152030 METAR LRTR 152030Z 07005KT CAVOK 13/09 Q1015=
201910152100 METAR LRTR 152100Z 09006KT CAVOK 12/08 Q1015=
201910152130 METAR LRTR 152130Z 09007KT CAVOK 12/08 Q1015=
201910152200 METAR LRTR 152200Z 09007KT CAVOK 12/08 Q1015=
201910152230 METAR LRTR 152230Z 09007KT CAVOK 12/09 Q1015=
201910152300 METAR LRTR 152300Z 10008KT CAVOK 13/09 Q1015=
201910152330 METAR LRTR 152330Z 10008KT CAVOK 13/09 Q1015=
201910160000 METAR LRTR 160000Z 10007KT CAVOK 13/09 Q1015=
201910160030 METAR LRTR 160030Z 11008KT CAVOK 12/09 Q1015=
201910160100 METAR LRTR 160100Z 11007KT CAVOK 10/08 Q1015=
201910160130 METAR LRTR 160130Z 11007KT CAVOK 11/08 Q1015=
201910160200 METAR LRTR 160200Z 11008KT CAVOK 10/08 Q1015=
201910160230 METAR COR LRTR 160230Z 11007KT CAVOK 10/08 Q1015=
201910160300 METAR LRTR 160300Z 12008KT CAVOK 11/08 Q1015=
201910160330 METAR LRTR 160330Z 11009KT CAVOK 11/08 Q1015=
201910160400 METAR LRTR 160400Z 11008KT CAVOK 11/08 Q1015=
201910160430 METAR LRTR 160430Z 11010KT CAVOK 10/08 Q1015=
201910160500 METAR LRTR 160500Z 12008KT CAVOK 10/08 Q1015=
201910160530 METAR LRTR 160530Z 12009KT CAVOK 11/08 Q1015=
201910160600 METAR LRTR 160600Z 11007KT CAVOK 12/09 Q1016=
201910160630 METAR LRTR 160630Z 11006KT CAVOK 15/10 Q1016=
201910160700 METAR LRTR 160700Z 12006KT CAVOK 17/10 Q1016=
201910160730 METAR LRTR 160730Z 12005KT CAVOK 19/10 Q1016=
201910160800 METAR LRTR 160800Z 17006KT 130V190 CAVOK 20/09 Q1016=
201910160830 METAR LRTR 160830Z 18007KT CAVOK 21/10 Q1016=
201910160900 METAR LRTR 160900Z 19012KT CAVOK 22/09 Q1016=
201910160930 METAR LRTR 160930Z 21010KT 180V240 CAVOK 24/10 Q1016=
201910161000 METAR LRTR 161000Z 20008KT CAVOK 25/08 Q1016=
201910161030 METAR LRTR 161030Z 23008KT CAVOK 25/08 Q1016=
201910161100 METAR LRTR 161100Z 20008KT CAVOK 25/07 Q1016=
201910161130 METAR LRTR 161130Z 21007KT 190V250 CAVOK 26/07 Q1016=
201910161200 METAR LRTR 161200Z 24006KT CAVOK 26/07 Q1015=
201910161230 METAR LRTR 161230Z 21005KT 170V250 CAVOK 26/06 Q1015=
201910161300 METAR LRTR 161300Z 23005KT CAVOK 27/06 Q1015=
201910161330 METAR LRTR 161330Z 22004KT 180V250 CAVOK 26/07 Q1015=
201910161400 METAR LRTR 161400Z 23005KT CAVOK 26/07 Q1015=
201910161430 METAR LRTR 161430Z 22004KT CAVOK 26/07 Q1015=
201910161500 METAR LRTR 161500Z 20002KT CAVOK 25/07 Q1015=
201910161530 METAR LRTR 161530Z 00000KT CAVOK 23/08 Q1015=
201910161600 METAR LRTR 161600Z 23002KT CAVOK 21/07 Q1015=
201910161630 METAR LRTR 161630Z 00000KT CAVOK 20/07 Q1016=
201910161700 METAR LRTR 161700Z 33002KT CAVOK 18/07 Q1016=
201910161730 METAR LRTR 161730Z 36002KT CAVOK 16/06 Q1016=
201910161800 METAR LRTR 161800Z 03003KT CAVOK 16/07 Q1016=
201910161830 METAR LRTR 161830Z 35002KT CAVOK 14/07 Q1016=
201910161900 METAR LRTR 161900Z 05003KT 340V070 CAVOK 14/07 Q1017=
201910161930 METAR LRTR 161930Z 08004KT CAVOK 14/07 Q1017=
201910162000 METAR LRTR 162000Z 08007KT CAVOK 13/06 Q1017=
201910162030 METAR LRTR 162030Z AUTO 10006KT 9999 NCD 12/06 Q1017=
201910162100 METAR LRTR 162100Z VRB02KT CAVOK 12/06 Q1017=
201910162130 METAR LRTR 162130Z 33003KT CAVOK 11/06 Q1017=
201910162200 METAR LRTR 162200Z 04002KT CAVOK 11/07 Q1018=
201910162230 METAR LRTR 162230Z 01004KT 320V030 CAVOK 10/06 Q1018=
201910162300 METAR LRTR 162300Z 04007KT CAVOK 11/07 Q1018=
201910162330 METAR LRTR 162330Z 01006KT CAVOK 11/07 Q1018=
201910170000 METAR LRTR 170000Z 03005KT CAVOK 12/07 Q1018=
201910170030 METAR LRTR 170030Z 05004KT CAVOK 11/07 Q1018=
201910170100 METAR LRTR 170100Z 09005KT CAVOK 10/07 Q1018=
201910170130 METAR LRTR 170130Z 09005KT CAVOK 10/07 Q1018=
201910170200 METAR LRTR 170200Z 04002KT CAVOK 09/07 Q1018=
201910170230 METAR LRTR 170230Z 10004KT CAVOK 10/07 Q1018=
201910170300 METAR COR LRTR 170300Z 10007KT CAVOK 08/07 Q1018=
201910170330 METAR LRTR 170330Z 09006KT CAVOK 08/07 Q1018=
201910170400 METAR LRTR 170400Z 08003KT CAVOK 08/07 Q1018 NOSIG=
201910170430 METAR LRTR 170430Z 10005KT CAVOK 07/06 Q1018 NOSIG=
201910170500 METAR LRTR 170500Z 10003KT CAVOK 07/07 Q1018 NOSIG=
201910170530 METAR LRTR 170530Z 13007KT CAVOK 09/08 Q1019 NOSIG=
201910170600 METAR LRTR 170600Z 08003KT CAVOK 10/08 Q1019 NOSIG=
201910170630 METAR LRTR 170630Z 09004KT 050V120 CAVOK 12/09 Q1019 NOSIG=
201910170700 METAR LRTR 170700Z 12007KT CAVOK 14/10 Q1020 NOSIG=
201910170730 METAR LRTR 170730Z 12005KT CAVOK 15/09 Q1020 NOSIG=
201910170800 METAR LRTR 170800Z 14004KT CAVOK 17/09 Q1020 NOSIG=
201910170830 METAR LRTR 170830Z 14006KT CAVOK 18/09 Q1019 NOSIG=
201910170900 METAR LRTR 170900Z 16005KT 130V200 CAVOK 20/10 Q1019 NOSIG=
201910170930 METAR LRTR 170930Z 18006KT CAVOK 21/10 Q1019 NOSIG=
201910171000 METAR LRTR 171000Z 22005KT 180V290 CAVOK 21/10 Q1019 NOSIG=
201910171030 METAR LRTR 171030Z 23004KT 190V280 CAVOK 22/10 Q1019 NOSIG=
201910171100 METAR LRTR 171100Z 21004KT 180V240 CAVOK 23/09 Q1019 NOSIG=
201910171130 METAR LRTR 171130Z VRB02KT CAVOK 23/10 Q1018 NOSIG=
201910171200 METAR LRTR 171200Z VRB02KT CAVOK 24/10 Q1018 NOSIG=
201910171230 METAR LRTR 171230Z VRB01KT CAVOK 25/09 Q1018 NOSIG=
201910171300 METAR LRTR 171300Z 00000KT CAVOK 25/09 Q1018 NOSIG=
201910171330 METAR LRTR 171330Z VRB02KT CAVOK 25/09 Q1017 NOSIG=
201910171400 METAR LRTR 171400Z 26003KT 220V300 CAVOK 25/09 Q1017 NOSIG=
201910171430 METAR LRTR 171430Z 27003KT CAVOK 25/09 Q1017 NOSIG=
201910171500 METAR LRTR 171500Z 27003KT CAVOK 24/10 Q1017 NOSIG=
201910171530 METAR LRTR 171530Z 28004KT CAVOK 22/10 Q1017 NOSIG=
201910171600 METAR LRTR 171600Z 30005KT 8000 NSC 20/10 Q1017 TEMPO 5000
                        BR=
201910171630 METAR LRTR 171630Z 31004KT 7000 NSC 19/10 Q1017=
201910171700 METAR LRTR 171700Z 32005KT 7000 NSC 18/10 Q1018=
201910171730 METAR LRTR 171730Z 32005KT 7000 NSC 18/09 Q1018=
201910171800 METAR LRTR 171800Z 35004KT 8000 NSC 17/09 Q1018=
201910171830 METAR LRTR 171830Z 03003KT 9999 NSC 15/09 Q1018=
201910171900 METAR LRTR 171900Z 04005KT CAVOK 14/09 Q1018=
201910171930 METAR LRTR 171930Z 07005KT CAVOK 14/08 Q1018=
201910172000 METAR LRTR 172000Z 09005KT CAVOK 13/09 Q1018=
201910172030 METAR LRTR 172030Z 09006KT CAVOK 13/09 Q1018=
201910172100 METAR LRTR 172100Z 10006KT CAVOK 13/09 Q1018=
201910172130 METAR LRTR 172130Z 08006KT CAVOK 12/08 Q1018=
201910172200 METAR LRTR 172200Z 10007KT CAVOK 12/09 Q1018=
201910172230 METAR LRTR 172230Z 08004KT CAVOK 12/08 Q1018=
201910172300 METAR LRTR 172300Z 09004KT CAVOK 12/09 Q1018=
201910172330 METAR LRTR 172330Z 09006KT CAVOK 11/08 Q1018=
201910180000 METAR LRTR 180000Z 10005KT CAVOK 10/08 Q1018=
201910180030 METAR LRTR 180030Z 11006KT CAVOK 10/08 Q1017=
201910180100 METAR LRTR 180100Z 10006KT CAVOK 09/08 Q1017=
201910180130 METAR LRTR 180130Z 13007KT CAVOK 11/09 Q1017=
201910180200 METAR LRTR 180200Z 13005KT CAVOK 10/09 Q1017=
201910180230 METAR LRTR 180230Z 11007KT CAVOK 11/09 Q1017=
201910180300 METAR LRTR 180300Z 11007KT CAVOK 10/08 Q1017=
201910180330 METAR LRTR 180330Z 11007KT CAVOK 10/08 Q1017=
201910180400 METAR LRTR 180400Z 10007KT CAVOK 11/09 Q1017=
201910180430 METAR LRTR 180430Z 11006KT CAVOK 11/09 Q1017=
201910180500 METAR LRTR 180500Z 10006KT CAVOK 11/09 Q1017=
201910180530 METAR LRTR 180530Z 09004KT CAVOK 11/09 Q1018=
201910180600 METAR LRTR 180600Z 11006KT CAVOK 11/09 Q1018=
201910180630 METAR LRTR 180630Z 11008KT CAVOK 12/10 Q1018=
201910180700 METAR LRTR 180700Z 11007KT CAVOK 13/10 Q1018=
201910180730 METAR LRTR 180730Z 12007KT CAVOK 15/10 Q1018=
201910180800 METAR LRTR 180800Z 15005KT CAVOK 18/10 Q1018=
201910180830 METAR LRTR 180830Z 15005KT 120V190 CAVOK 19/10 Q1018=
201910180900 METAR LRTR 180900Z 17004KT 140V210 CAVOK 20/11 Q1018=
201910180930 METAR LRTR 180930Z 17004KT 130V200 CAVOK 21/11 Q1018=
201910181000 METAR LRTR 181000Z 17006KT 140V210 CAVOK 22/10 Q1017=
201910181030 METAR LRTR 181030Z 19007KT CAVOK 23/10 Q1017=
201910181100 METAR LRTR 181100Z 21009KT CAVOK 24/10 Q1017=
201910181130 METAR LRTR 181130Z 22009KT CAVOK 24/10 Q1016=
201910181200 METAR LRTR 181200Z 21009KT 190V250 CAVOK 25/10 Q1016=
201910181230 METAR LRTR 181230Z 22007KT CAVOK 24/10 Q1016=
201910181300 METAR LRTR 181300Z 23009KT 200V270 CAVOK 25/10 Q1016=
201910181330 METAR LRTR 181330Z 23008KT CAVOK 24/10 Q1016=
201910181400 METAR LRTR 181400Z 23006KT CAVOK 24/11 Q1016=
201910181430 METAR LRTR 181430Z 25004KT 190V270 8000 NSC 23/11 Q1016=
201910181500 METAR LRTR 181500Z 25003KT 6000 NSC 22/11 Q1016=
201910181530 METAR LRTR 181530Z 23004KT 5000 HZ NSC 21/11 Q1016=
201910181600 METAR LRTR 181600Z 23004KT 4500 HZ NSC 20/10 Q1016=
201910181630 METAR LRTR 181630Z 20003KT 4000 HZ NSC 20/11 Q1016=
201910181700 METAR LRTR 181700Z 00000KT 4000 HZ NSC 18/10 Q1016=
201910181730 METAR LRTR 181730Z 00000KT 3500 HZ NSC 17/10 Q1016=
201910181800 METAR LRTR 181800Z 00000KT 3500 HZ NSC 16/10 Q1016=
201910181830 METAR LRTR 181830Z 00000KT 4000 HZ NSC 15/09 Q1017=
201910181900 METAR LRTR 181900Z 05003KT 4000 HZ NSC 13/08 Q1017=
201910181930 METAR LRTR 181930Z 11001KT 4000 HZ NSC 13/09 Q1017=
201910182000 METAR LRTR 182000Z 09006KT 4000 HZ NSC 11/08 Q1017=
201910182030 METAR LRTR 182030Z 10006KT 3900 HZ NSC 11/08 Q1017=
201910182100 METAR LRTR 182100Z 09006KT 3800 HZ NSC 11/08 Q1017=
201910182130 METAR LRTR 182130Z 09006KT 3900 HZ NSC 10/08 Q1017=
201910182200 METAR LRTR 182200Z 09006KT 4000 HZ NSC 11/08 Q1017=
201910182230 METAR LRTR 182230Z 10006KT 3700 HZ NSC 10/08 Q1017=
201910182300 METAR LRTR 182300Z 08001KT 3800 HZ NSC 10/08 Q1017=
201910182330 METAR LRTR 182330Z 09004KT 3600 HZ NSC 10/08 Q1017=
201910190000 METAR LRTR 190000Z 09004KT 4000 HZ NSC 11/09 Q1017=
201910190030 METAR LRTR 190030Z 07003KT 4500 HZ NSC 12/09 Q1017=
201910190100 METAR LRTR 190100Z 08005KT 4800 HZ NSC 12/09 Q1017=
201910190130 METAR LRTR 190130Z 11006KT 4700 HZ NSC 12/10 Q1017=
201910190200 METAR LRTR 190200Z 09006KT 5000 HZ NSC 12/09 Q1017=
201910190230 METAR LRTR 190230Z 10006KT 5000 HZ NSC 11/09 Q1017=
201910190300 METAR COR LRTR 190300Z 10005KT 5000 HZ NSC 12/10 Q1017=
201910190330 METAR LRTR 190330Z 11006KT 5000 HZ NSC 11/09 Q1017=
201910190400 METAR LRTR 190400Z 11005KT 5000 HZ NSC 10/09 Q1017=
201910190430 METAR LRTR 190430Z 11006KT 4000 HZ NSC 10/09 Q1017=
201910190500 METAR LRTR 190500Z 11007KT 3500 HZ NSC 10/09 Q1017=
201910190530 METAR LRTR 190530Z 09005KT 3300 HZ NSC 10/09 Q1018=
201910190600 METAR LRTR 190600Z 10006KT 4500 BR NSC 12/10 Q1018=
201910190630 METAR LRTR 190630Z 10005KT 6000 NSC 13/11 Q1018=
201910190700 METAR LRTR 190700Z 12008KT 7000 NSC 15/11 Q1018=
201910190730 METAR LRTR 190730Z 11009KT CAVOK 16/11 Q1018=
201910190800 METAR LRTR 190800Z 13007KT CAVOK 18/11 Q1018=
201910190830 METAR LRTR 190830Z 14004KT CAVOK 19/11 Q1018=
201910190900 METAR LRTR 190900Z VRB02KT CAVOK 20/11 Q1018=
201910190930 METAR LRTR 190930Z 18005KT 140V220 CAVOK 21/11 Q1018=
201910191000 METAR LRTR 191000Z 17007KT 140V200 CAVOK 23/10 Q1017=
201910191030 METAR LRTR 191030Z 18010KT CAVOK 23/10 Q1017=
201910191100 METAR LRTR 191100Z 18011KT CAVOK 23/11 Q1017=
201910191130 METAR LRTR 191130Z 20010KT CAVOK 24/10 Q1016=
201910191200 METAR LRTR 191200Z 21011KT CAVOK 25/10 Q1016=
201910191230 METAR LRTR 191230Z 23008KT 180V250 CAVOK 25/11 Q1016=
201910191300 METAR LRTR 191300Z 22007KT 150V260 CAVOK 25/10 Q1016=
201910191330 METAR LRTR 191330Z 20007KT 170V240 CAVOK 25/11 Q1016=
201910191400 METAR LRTR 191400Z 23007KT CAVOK 25/11 Q1016=
201910191430 METAR LRTR 191430Z AUTO 23006KT 9999 NCD 24/11 Q1016=
201910191500 METAR LRTR 191500Z 23004KT CAVOK 23/11 Q1016=
201910191530 METAR LRTR 191530Z 25004KT 8000 NSC 22/11 Q1017=
201910191600 METAR LRTR 191600Z 26003KT 7000 NSC 20/11 Q1017=
201910191630 METAR LRTR 191630Z VRB01KT 7000 FEW038 18/11 Q1017 NOSIG=
201910191700 METAR LRTR 191700Z 00000KT 7000 NSC 18/11 Q1017 NOSIG=
201910191730 METAR LRTR 191730Z 00000KT 7000 FEW030 17/11 Q1017 NOSIG=
201910191800 METAR LRTR 191800Z VRB01KT 6000 FEW030 16/10 Q1017 TEMPO
                        5000 BR=
201910191830 METAR LRTR 191830Z 11005KT 5000 BR FEW030 13/09 Q1017 NOSIG=
201910191900 METAR LRTR 191900Z 10005KT 5000 BR NSC 13/08 Q1017 NOSIG=
201910191930 METAR LRTR 191930Z 10006KT 5000 BR NSC 12/09 Q1018 NOSIG=
201910192000 METAR LRTR 192000Z 12005KT 5000 BR NSC 13/09 Q1018 NOSIG=
201910192030 METAR LRTR 192030Z 11006KT 5000 BR NSC 12/08 Q1018 NOSIG=
201910192100 METAR LRTR 192100Z 08005KT 5000 BR NSC 12/08 Q1018 NOSIG=
201910192130 METAR LRTR 192130Z 10004KT 5000 BR NSC 12/08 Q1018 NOSIG=
201910192200 METAR LRTR 192200Z 08004KT 030V110 6000 NSC 11/09 Q1018 TEMPO
                        5000 BR=
201910192230 METAR LRTR 192230Z 06004KT 5000 BR NSC 12/09 Q1019 NOSIG=
201910192300 METAR LRTR 192300Z 09006KT 7000 NSC 12/09 Q1018 NOSIG=
201910192330 METAR LRTR 192330Z 10007KT 7000 NSC 11/09 Q1019 NOSIG=
201910200000 METAR LRTR 200000Z 09007KT 7000 NSC 10/08 Q1019 NOSIG=
201910200030 METAR LRTR 200030Z 10008KT 7000 NSC 11/09 Q1019 NOSIG=
201910200100 METAR LRTR 200100Z 10007KT 8000 NSC 10/08 Q1019 NOSIG=
201910200130 METAR LRTR 200130Z 10006KT 8000 NSC 09/08 Q1018 NOSIG=
201910200200 METAR LRTR 200200Z 09007KT 8000 NSC 10/08 Q1019 NOSIG=
201910200230 METAR LRTR 200230Z 09007KT CAVOK 10/09 Q1019 NOSIG=
201910200300 METAR LRTR 200300Z 09007KT CAVOK 10/09 Q1019 NOSIG=
201910200330 METAR LRTR 200330Z 09007KT CAVOK 10/09 Q1019 NOSIG=
201910200400 METAR LRTR 200400Z 10006KT CAVOK 10/08 Q1019 NOSIG=
201910200430 METAR LRTR 200430Z 10007KT CAVOK 10/09 Q1019=
201910200500 METAR LRTR 200500Z 10006KT CAVOK 10/08 Q1019=
201910200530 METAR LRTR 200530Z 11008KT 8000 NSC 10/08 Q1019=
201910200600 METAR LRTR 200600Z 11007KT 8000 NSC 11/09 Q1019=
201910200630 METAR COR LRTR 200630Z 11007KT CAVOK 13/11 Q1019=
201910200700 METAR LRTR 200700Z 11009KT CAVOK 16/11 Q1020=
201910200730 METAR LRTR 200730Z 11009KT CAVOK 17/11 Q1020=
201910200800 METAR LRTR 200800Z 12009KT CAVOK 18/11 Q1020=
201910200830 METAR LRTR 200830Z 12007KT CAVOK 20/11 Q1020=
201910200900 METAR LRTR 200900Z 15006KT 120V180 CAVOK 21/10 Q1020=
201910200930 METAR LRTR 200930Z 18006KT 140V210 CAVOK 23/11 Q1020=
201910201000 METAR LRTR 201000Z 20011KT 170V230 CAVOK 24/09 Q1020=
201910201030 METAR LRTR 201030Z 20010KT 170V230 CAVOK 24/09 Q1019=
201910201100 METAR LRTR 201100Z 19010KT CAVOK 25/09 Q1019=
201910201130 METAR LRTR 201130Z 19010KT CAVOK 26/08 Q1019=
201910201200 METAR LRTR 201200Z 22009KT CAVOK 26/09 Q1019=
201910201230 METAR LRTR 201230Z 21008KT 180V240 CAVOK 26/08 Q1019=
201910201300 METAR LRTR 201300Z 20009KT CAVOK 26/09 Q1019=
201910201330 METAR LRTR 201330Z 21009KT CAVOK 26/09 Q1019=
201910201400 METAR LRTR 201400Z 21007KT CAVOK 26/09 Q1018=
201910201430 METAR LRTR 201430Z 22007KT CAVOK 25/09 Q1018=
201910201500 METAR LRTR 201500Z 25004KT CAVOK 24/09 Q1018=
201910201530 METAR LRTR 201530Z 26003KT CAVOK 22/09 Q1019=
201910201600 METAR LRTR 201600Z 25003KT CAVOK 21/09 Q1019=
201910201630 METAR LRTR 201630Z 30002KT CAVOK 20/09 Q1019=
201910201700 METAR LRTR 201700Z 00000KT CAVOK 19/09 Q1019=
201910201730 METAR LRTR 201730Z 00000KT CAVOK 16/08 Q1019=
201910201800 METAR LRTR 201800Z 11004KT CAVOK 14/07 Q1019=
201910201830 METAR LRTR 201830Z 08005KT CAVOK 13/07 Q1019=
201910201900 METAR LRTR 201900Z 08004KT CAVOK 13/07 Q1020=
201910201930 METAR LRTR 201930Z 07004KT CAVOK 12/07 Q1020=
201910202000 METAR LRTR 202000Z 09006KT CAVOK 13/08 Q1020=
201910202030 METAR LRTR 202030Z 07005KT CAVOK 12/08 Q1020=
201910202100 METAR LRTR 202100Z 06004KT CAVOK 12/07 Q1020=
201910202130 METAR LRTR 202130Z 10006KT CAVOK 12/08 Q1020=
201910202200 METAR LRTR 202200Z 10007KT CAVOK 11/08 Q1020=
201910202230 METAR LRTR 202230Z AUTO 10007KT 9999 NCD 11/08 Q1020=
201910202300 METAR LRTR 202300Z 10007KT CAVOK 11/08 Q1020=
201910202330 METAR LRTR 202330Z 10007KT CAVOK 10/08 Q1020=
201910210000 METAR LRTR 210000Z AUTO 10007KT 9999 NCD 11/08 Q1021=
201910210030 METAR LRTR 210030Z AUTO 09007KT 9999 NCD 11/08 Q1021=
201910210100 METAR LRTR 210100Z AUTO 09006KT 9999 NCD 10/08 Q1021=
201910210130 METAR LRTR 210130Z 09007KT CAVOK 10/08 Q1021=
201910210200 METAR COR LRTR 210200Z 09007KT CAVOK 09/07 Q1021=
201910210230 METAR LRTR 210230Z 09007KT CAVOK 09/07 Q1021=
201910210300 METAR LRTR 210300Z 10007KT CAVOK 08/07 Q1021=
201910210330 METAR LRTR 210330Z 10007KT CAVOK 09/07 Q1021=
201910210400 METAR LRTR 210400Z 08004KT CAVOK 09/07 Q1021=
201910210430 METAR LRTR 210430Z 09005KT CAVOK 09/07 Q1021 NOSIG=
201910210500 METAR LRTR 210500Z 08004KT CAVOK 09/07 Q1021 NOSIG=
201910210530 METAR LRTR 210530Z 10006KT CAVOK 09/08 Q1022 NOSIG=
201910210600 METAR LRTR 210600Z 11007KT CAVOK 11/09 Q1022 NOSIG=
201910210630 METAR LRTR 210630Z 12009KT CAVOK 13/11 Q1022 NOSIG=
201910210700 METAR LRTR 210700Z 11010KT CAVOK 16/10 Q1022 NOSIG=
201910210730 METAR LRTR 210730Z 11009KT CAVOK 17/11 Q1022 NOSIG=
201910210800 METAR LRTR 210800Z 12008KT CAVOK 19/10 Q1022 NOSIG=
201910210830 METAR LRTR 210830Z 14006KT CAVOK 21/10 Q1022 NOSIG=
201910210900 METAR LRTR 210900Z 15006KT CAVOK 22/10 Q1023 NOSIG=
201910210930 METAR LRTR 210930Z 14006KT 110V170 CAVOK 23/11 Q1022 NOSIG=
201910211000 METAR LRTR 211000Z 18005KT 150V240 CAVOK 25/10 Q1022 NOSIG=
201910211030 METAR LRTR 211030Z 19009KT 170V230 CAVOK 25/10 Q1022 NOSIG=
201910211100 METAR LRTR 211100Z 23009KT CAVOK 26/10 Q1022 NOSIG=
201910211130 METAR LRTR 211130Z 22007KT 150V260 CAVOK 26/10 Q1022 NOSIG=
201910211200 METAR LRTR 211200Z 19005KT 140V230 CAVOK 27/11 Q1022 NOSIG=
201910211230 METAR LRTR 211230Z 23007KT 200V260 CAVOK 27/10 Q1022 NOSIG=
201910211300 METAR LRTR 211300Z 22005KT CAVOK 27/10 Q1022 NOSIG=
201910211330 METAR LRTR 211330Z 23006KT CAVOK 27/10 Q1021 NOSIG=
201910211400 METAR LRTR 211400Z 21004KT 170V250 CAVOK 27/10 Q1021 NOSIG=
201910211430 METAR LRTR 211430Z 20004KT 150V240 CAVOK 26/10 Q1021 NOSIG=
201910211500 METAR LRTR 211500Z 21003KT CAVOK 25/09 Q1021 NOSIG=
201910211530 METAR LRTR 211530Z 21002KT CAVOK 23/10 Q1021 NOSIG=
201910211600 METAR LRTR 211600Z 22003KT 7000 NSC 22/10 Q1021 NOSIG=
201910211630 METAR LRTR 211630Z 00000KT CAVOK 20/09 Q1022=
201910211700 METAR LRTR 211700Z 00000KT CAVOK 19/09 Q1022=
201910211730 METAR LRTR 211730Z 00000KT CAVOK 16/07 Q1022=
201910211800 METAR LRTR 211800Z 10005KT CAVOK 15/07 Q1022=
201910211830 METAR LRTR 211830Z 08005KT CAVOK 14/07 Q1022=
201910211900 METAR LRTR 211900Z 09004KT CAVOK 13/08 Q1022=
201910211930 METAR LRTR 211930Z 07004KT CAVOK 13/08 Q1022=
201910212000 METAR LRTR 212000Z 08003KT CAVOK 12/07 Q1022=
201910212030 METAR LRTR 212030Z 00000KT CAVOK 13/08 Q1022=
201910212100 METAR LRTR 212100Z 10002KT CAVOK 12/08 Q1022=
201910212130 METAR LRTR 212130Z 09005KT CAVOK 11/07 Q1022=
201910212200 METAR LRTR 212200Z 08006KT CAVOK 11/07 Q1022=
201910212230 METAR LRTR 212230Z 09006KT CAVOK 11/08 Q1022=
201910212300 METAR LRTR 212300Z 08005KT CAVOK 11/08 Q1023=
201910212330 METAR LRTR 212330Z 10006KT CAVOK 10/08 Q1023=
201910220000 METAR LRTR 220000Z 09006KT CAVOK 11/08 Q1023=
201910220030 METAR LRTR 220030Z 08005KT CAVOK 10/08 Q1023=
201910220100 METAR LRTR 220100Z 10005KT CAVOK 10/08 Q1023=
201910220130 METAR LRTR 220130Z 10004KT CAVOK 10/08 Q1023=
201910220200 METAR LRTR 220200Z 11006KT CAVOK 10/08 Q1023=
201910220230 METAR LRTR 220230Z 10006KT CAVOK 09/07 Q1023=
201910220300 METAR LRTR 220300Z 10006KT 8000 NSC 09/08 Q1023=
201910220330 METAR LRTR 220330Z 11007KT 7000 NSC 08/07 Q1023=
201910220400 METAR LRTR 220400Z 11006KT 7000 NSC 08/08 Q1023=
201910220430 METAR LRTR 220430Z 10005KT 7000 NSC 08/07 Q1023=
201910220500 METAR LRTR 220500Z 12006KT 7000 NSC 08/07 Q1023=
201910220530 METAR LRTR 220530Z 12006KT 8000 NSC 08/07 Q1023=
201910220600 METAR LRTR 220600Z 11006KT 8000 NSC 10/09 Q1024=
201910220630 METAR LRTR 220630Z 11006KT CAVOK 12/10 Q1024=
201910220700 METAR LRTR 220700Z 12007KT CAVOK 14/10 Q1024=
201910220730 METAR LRTR 220730Z 12007KT CAVOK 16/10 Q1024=
201910220800 METAR LRTR 220800Z 12006KT CAVOK 18/10 Q1024=
201910220830 METAR LRTR 220830Z 14004KT 110V200 CAVOK 19/10 Q1024=
201910220900 METAR LRTR 220900Z 13003KT 090V160 CAVOK 20/10 Q1024=
201910220930 METAR LRTR 220930Z VRB02KT CAVOK 22/11 Q1024=
201910221000 METAR LRTR 221000Z VRB02KT CAVOK 23/10 Q1024=
201910221030 METAR LRTR 221030Z VRB02KT CAVOK 24/10 Q1024=
201910221100 METAR LRTR 221100Z VRB02KT CAVOK 25/10 Q1023=
201910221130 METAR LRTR 221130Z VRB01KT CAVOK 25/10 Q1023=
201910221200 METAR LRTR 221200Z 18003KT 070V240 CAVOK 26/10 Q1023=
201910221230 METAR LRTR 221230Z VRB01KT CAVOK 27/09 Q1023=
201910221300 METAR LRTR 221300Z 00000KT CAVOK 27/10 Q1022=
201910221330 METAR LRTR 221330Z VRB01KT CAVOK 26/09 Q1022=
201910221400 METAR LRTR 221400Z 00000KT CAVOK 27/10 Q1022=
201910221430 METAR LRTR 221430Z VRB02KT CAVOK 27/10 Q1022=
201910221500 METAR LRTR 221500Z 29003KT CAVOK 25/11 Q1022=
201910221530 METAR LRTR 221530Z 29004KT CAVOK 23/11 Q1022=
201910221600 METAR LRTR 221600Z 29004KT CAVOK 22/11 Q1022 NOSIG=
201910221630 METAR LRTR 221630Z 00000KT CAVOK 20/11 Q1022 NOSIG=
201910221700 METAR LRTR 221700Z 35003KT 8000 NSC 19/10 Q1022 NOSIG=
201910221730 METAR LRTR 221730Z 01003KT 8000 NSC 17/09 Q1022 NOSIG=
201910221800 METAR LRTR 221800Z 04003KT CAVOK 15/08 Q1022 NOSIG=
201910221830 METAR LRTR 221830Z 02002KT CAVOK 17/09 Q1022 NOSIG=
201910221900 METAR LRTR 221900Z 03003KT CAVOK 15/09 Q1022 NOSIG=
201910221930 METAR LRTR 221930Z 04004KT CAVOK 17/09 Q1022 NOSIG=
201910222000 METAR LRTR 222000Z 06006KT CAVOK 14/08 Q1022 NOSIG=
201910222030 METAR LRTR 222030Z 08004KT CAVOK 13/08 Q1023 NOSIG=
201910222100 METAR LRTR 222100Z 10006KT CAVOK 12/08 Q1023 NOSIG=
201910222130 METAR COR LRTR 222130Z 09006KT CAVOK 13/08 Q1022 NOSIG=
201910222200 METAR LRTR 222200Z 09005KT 8000 NSC 12/08 Q1022 NOSIG=
201910222230 METAR LRTR 222230Z 11006KT CAVOK 11/08 Q1022 NOSIG=
201910222300 METAR LRTR 222300Z 10007KT CAVOK 11/08 Q1022 NOSIG=
201910222330 METAR LRTR 222330Z 10008KT CAVOK 12/08 Q1022 NOSIG=
201910230000 METAR LRTR 230000Z 09007KT CAVOK 12/08 Q1022 NOSIG=
201910230030 METAR LRTR 230030Z 09006KT CAVOK 12/08 Q1022 NOSIG=
201910230100 METAR LRTR 230100Z 11006KT CAVOK 10/08 Q1022 NOSIG=
201910230130 METAR LRTR 230130Z 12005KT CAVOK 10/07 Q1022 NOSIG=
201910230200 METAR LRTR 230200Z 11006KT CAVOK 10/08 Q1022 NOSIG=
201910230230 METAR LRTR 230230Z 10006KT 8000 NSC 08/07 Q1022 NOSIG=
201910230300 METAR LRTR 230300Z 10008KT 8000 NSC 10/08 Q1022 NOSIG=
201910230330 METAR LRTR 230330Z 10007KT CAVOK 10/08 Q1022 NOSIG=
201910230400 METAR LRTR 230400Z 09003KT CAVOK 09/07 Q1022 NOSIG=
201910230430 METAR LRTR 230430Z 10004KT 060V160 CAVOK 08/07 Q1022 NOSIG=
201910230500 METAR LRTR 230500Z 09006KT CAVOK 10/08 Q1022 NOSIG=
201910230530 METAR LRTR 230530Z 10006KT CAVOK 08/07 Q1022 NOSIG=
201910230600 METAR LRTR 230600Z 10007KT CAVOK 11/08 Q1022 NOSIG=
201910230630 METAR LRTR 230630Z 11006KT CAVOK 12/09 Q1023 NOSIG=
201910230700 METAR LRTR 230700Z 11005KT CAVOK 15/10 Q1023 NOSIG=
201910230730 METAR LRTR 230730Z 12006KT CAVOK 17/10 Q1023 NOSIG=
201910230800 METAR LRTR 230800Z 11008KT CAVOK 19/10 Q1022 NOSIG=
201910230830 METAR LRTR 230830Z 11008KT CAVOK 21/10 Q1022 NOSIG=
201910230900 METAR LRTR 230900Z 12009KT CAVOK 22/09 Q1022 NOSIG=
201910230930 METAR LRTR 230930Z 12008KT CAVOK 23/09 Q1022 NOSIG=
201910231000 METAR LRTR 231000Z 13007KT CAVOK 24/09 Q1021 NOSIG=
201910231030 METAR LRTR 231030Z 10004KT 080V150 CAVOK 25/09 Q1021 NOSIG=
201910231100 METAR LRTR 231100Z 09003KT 010V150 CAVOK 26/09 Q1021 NOSIG=
201910231130 METAR LRTR 231130Z VRB02KT CAVOK 27/09 Q1021 NOSIG=
201910231200 METAR LRTR 231200Z VRB01KT CAVOK 27/08 Q1020 NOSIG=
201910231230 METAR LRTR 231230Z VRB02KT CAVOK 27/07 Q1020 NOSIG=
201910231300 METAR LRTR 231300Z 08003KT 020V140 CAVOK 28/07 Q1020 NOSIG=
201910231330 METAR LRTR 231330Z VRB02KT CAVOK 28/07 Q1020 NOSIG=
201910231400 METAR LRTR 231400Z VRB02KT CAVOK 28/07 Q1019 NOSIG=
201910231430 METAR LRTR 231430Z 00000KT CAVOK 28/07 Q1019 NOSIG=
201910231500 METAR LRTR 231500Z 35001KT CAVOK 26/08 Q1019 NOSIG=
201910231530 METAR LRTR 231530Z 03004KT CAVOK 23/08 Q1019 NOSIG=
201910231600 METAR COR LRTR 231600Z 03004KT CAVOK 20/08 Q1019 NOSIG=
201910231630 METAR LRTR 231630Z 04006KT CAVOK 19/07 Q1019=
201910231700 METAR LRTR 231700Z 06004KT CAVOK 18/06 Q1019=
201910231730 METAR LRTR 231730Z 09006KT CAVOK 17/07 Q1019=
201910231800 METAR LRTR 231800Z 10005KT CAVOK 17/07 Q1019=
201910231830 METAR LRTR 231830Z 08006KT CAVOK 15/08 Q1019=
201910231900 METAR LRTR 231900Z 07005KT CAVOK 15/07 Q1019=
201910231930 METAR LRTR 231930Z 07005KT CAVOK 14/07 Q1019=
201910232000 METAR LRTR 232000Z 06004KT CAVOK 14/08 Q1019=
201910232030 METAR LRTR 232030Z 09008KT CAVOK 14/08 Q1019=
201910232100 METAR LRTR 232100Z 10007KT CAVOK 13/08 Q1019=
201910232130 METAR LRTR 232130Z 13007KT CAVOK 13/08 Q1019=
201910232200 METAR LRTR 232200Z 11008KT CAVOK 12/08 Q1019=
201910232230 METAR LRTR 232230Z 09008KT CAVOK 12/07 Q1019=
201910232300 METAR LRTR 232300Z 10007KT CAVOK 10/07 Q1019=
201910232330 METAR LRTR 232330Z 11008KT CAVOK 11/07 Q1019=
201910240000 METAR LRTR 240000Z 11008KT CAVOK 11/07 Q1019=
201910240030 METAR LRTR 240030Z 11006KT CAVOK 11/07 Q1019=
201910240100 METAR LRTR 240100Z 10006KT CAVOK 10/07 Q1019=
201910240130 METAR LRTR 240130Z 11007KT CAVOK 10/07 Q1018=
201910240200 METAR LRTR 240200Z 10007KT CAVOK 10/07 Q1018=
201910240230 METAR LRTR 240230Z 10006KT CAVOK 09/06 Q1018=
201910240300 METAR LRTR 240300Z 10006KT CAVOK 09/07 Q1018=
201910240330 METAR LRTR 240330Z 11008KT CAVOK 08/07 Q1018=
201910240400 METAR LRTR 240400Z 09007KT CAVOK 08/06 Q1018=
201910240430 METAR LRTR 240430Z 10006KT 8000 NSC 08/06 Q1018=
201910240500 METAR LRTR 240500Z 11008KT CAVOK 09/07 Q1018=
201910240530 METAR LRTR 240530Z 10008KT CAVOK 11/08 Q1018=
201910240600 METAR LRTR 240600Z 10007KT CAVOK 12/08 Q1018=
201910240630 METAR LRTR 240630Z 10008KT CAVOK 15/09 Q1018=
201910240700 METAR LRTR 240700Z 10009KT CAVOK 17/09 Q1018=
201910240730 METAR LRTR 240730Z 11011KT CAVOK 19/09 Q1018=
201910240800 METAR LRTR 240800Z 11011KT CAVOK 20/09 Q1018=
201910240830 METAR LRTR 240830Z 10010KT CAVOK 21/09 Q1018=
201910240900 METAR LRTR 240900Z 12009KT CAVOK 22/09 Q1018=
201910240930 METAR LRTR 240930Z 11008KT CAVOK 23/09 Q1018=
201910241000 METAR LRTR 241000Z 11007KT 080V140 CAVOK 24/08 Q1018=
201910241030 METAR LRTR 241030Z 14004KT 090V180 CAVOK 26/08 Q1017=
201910241100 METAR LRTR 241100Z 12006KT CAVOK 26/07 Q1017=
201910241130 METAR LRTR 241130Z 13006KT 110V170 CAVOK 27/08 Q1017=
201910241200 METAR LRTR 241200Z 16005KT 130V200 CAVOK 27/07 Q1016=
201910241230 METAR LRTR 241230Z 14004KT 110V170 CAVOK 28/07 Q1016=
201910241300 METAR LRTR 241300Z 15005KT 100V190 CAVOK 28/06 Q1016=
201910241330 METAR LRTR 241330Z 13004KT 100V180 CAVOK 28/06 Q1016=
201910241400 METAR LRTR 241400Z 12005KT CAVOK 28/06 Q1015=
201910241430 METAR LRTR 241430Z 15004KT CAVOK 27/07 Q1015=
201910241500 METAR LRTR 241500Z 15004KT CAVOK 26/07 Q1015=
201910241530 METAR LRTR 241530Z 14003KT CAVOK 24/06 Q1015=
201910241600 METAR LRTR 241600Z 14002KT CAVOK 23/05 Q1016=
201910241630 METAR LRTR 241630Z 14003KT CAVOK 21/05 Q1016 NOSIG=
201910241700 METAR LRTR 241700Z 09003KT 050V120 CAVOK 19/04 Q1016 NOSIG=
201910241730 METAR LRTR 241730Z 03003KT CAVOK 17/04 Q1016 NOSIG=
201910241800 METAR LRTR 241800Z 08005KT CAVOK 17/04 Q1016 NOSIG=
201910241830 METAR LRTR 241830Z 11003KT CAVOK 17/04 Q1016 NOSIG=
201910241900 METAR LRTR 241900Z 07006KT CAVOK 14/04 Q1016 NOSIG=
201910241930 METAR LRTR 241930Z 10005KT CAVOK 13/04 Q1016 NOSIG=
201910242000 METAR LRTR 242000Z 09009KT CAVOK 15/06 Q1016 NOSIG=
201910242030 METAR LRTR 242030Z 08007KT CAVOK 13/05 Q1016 NOSIG=
201910242100 METAR LRTR 242100Z 14005KT CAVOK 14/07 Q1016 NOSIG=
201910242130 METAR LRTR 242130Z 10007KT CAVOK 12/07 Q1016 NOSIG=
201910242200 METAR LRTR 242200Z 09008KT CAVOK 12/07 Q1016 NOSIG=
201910242230 METAR LRTR 242230Z 10008KT CAVOK 11/07 Q1017 NOSIG=
201910242300 METAR LRTR 242300Z 08006KT CAVOK 11/06 Q1017 NOSIG=
201910242330 METAR LRTR 242330Z 09006KT CAVOK 10/06 Q1017 NOSIG=
201910250000 METAR LRTR 250000Z 08008KT CAVOK 11/07 Q1017 NOSIG=
201910250030 METAR LRTR 250030Z 09007KT CAVOK 10/06 Q1017 NOSIG=
201910250100 METAR LRTR 250100Z AUTO 08008KT 9999 NCD 11/06 Q1017 NOSIG=
201910250130 METAR LRTR 250130Z 09007KT CAVOK 11/07 Q1017 NOSIG=
201910250200 METAR LRTR 250200Z 10007KT CAVOK 10/07 Q1017 NOSIG=
201910250230 METAR LRTR 250230Z 10006KT CAVOK 10/06 Q1017 NOSIG=
201910250300 METAR LRTR 250300Z 11006KT CAVOK 09/06 Q1017 NOSIG=
201910250330 METAR LRTR 250330Z 10007KT CAVOK 08/06 Q1017 NOSIG=
201910250400 METAR LRTR 250400Z 07006KT CAVOK 09/07 Q1017 NOSIG=
201910250430 METAR LRTR 250430Z VRB02KT CAVOK 08/06 Q1017 NOSIG=
201910250500 METAR LRTR 250500Z 08004KT CAVOK 07/05 Q1017 NOSIG=
201910250530 METAR LRTR 250530Z 13004KT CAVOK 10/06 Q1018 NOSIG=
201910250600 METAR LRTR 250600Z 15003KT 130V220 CAVOK 10/07 Q1018 NOSIG=
201910250630 METAR LRTR 250630Z 12004KT CAVOK 12/08 Q1018 NOSIG=
201910250700 METAR LRTR 250700Z 12005KT CAVOK 14/09 Q1019 NOSIG=
201910250730 METAR LRTR 250730Z 12007KT CAVOK 16/09 Q1019 NOSIG=
201910250800 METAR LRTR 250800Z 13007KT CAVOK 18/08 Q1019 NOSIG=
201910250830 METAR LRTR 250830Z 11006KT CAVOK 19/08 Q1019 NOSIG=
201910250900 METAR LRTR 250900Z 12004KT 070V150 CAVOK 21/08 Q1019 NOSIG=
201910250930 METAR LRTR 250930Z VRB01KT CAVOK 22/07 Q1020 NOSIG=
201910251000 METAR LRTR 251000Z VRB02KT CAVOK 23/07 Q1020 NOSIG=
201910251030 METAR LRTR 251030Z VRB03KT CAVOK 24/07 Q1020 NOSIG=
201910251100 METAR LRTR 251100Z 31005KT 270V350 CAVOK 25/07 Q1020 NOSIG=
201910251130 METAR LRTR 251130Z 29004KT 210V010 CAVOK 26/07 Q1019 NOSIG=
201910251200 METAR LRTR 251200Z 29004KT 230V350 CAVOK 25/06 Q1019 NOSIG=
201910251230 METAR LRTR 251230Z 26004KT 220V320 CAVOK 26/06 Q1019 NOSIG=
201910251300 METAR LRTR 251300Z 31004KT 270V350 CAVOK 26/07 Q1019 NOSIG=
201910251330 METAR LRTR 251330Z 30006KT 260V320 CAVOK 26/06 Q1019 NOSIG=
201910251400 METAR LRTR 251400Z 31006KT CAVOK 26/07 Q1019 NOSIG=
201910251430 METAR LRTR 251430Z 31005KT CAVOK 25/07 Q1019 NOSIG=
201910251500 METAR LRTR 251500Z 01006KT CAVOK 23/07 Q1019 NOSIG=
201910251530 METAR LRTR 251530Z 01007KT CAVOK 21/07 Q1019 NOSIG=
201910251600 METAR LRTR 251600Z 36006KT CAVOK 19/06 Q1020 NOSIG=
201910251630 METAR LRTR 251630Z 36005KT CAVOK 18/06 Q1020=
201910251700 METAR LRTR 251700Z 36005KT CAVOK 17/06 Q1020=
201910251730 METAR LRTR 251730Z 35004KT CAVOK 17/06 Q1020=
201910251800 METAR LRTR 251800Z 02004KT CAVOK 16/06 Q1021=
201910251830 METAR LRTR 251830Z 02005KT CAVOK 17/07 Q1021=
201910251900 METAR LRTR 251900Z 04005KT CAVOK 17/06 Q1021=
201910251930 METAR LRTR 251930Z 02007KT CAVOK 16/07 Q1021=
201910252000 METAR LRTR 252000Z 01004KT CAVOK 15/06 Q1021=
201910252030 METAR LRTR 252030Z VRB02KT CAVOK 15/06 Q1021=
201910252100 METAR LRTR 252100Z 00000KT CAVOK 14/06 Q1022=
201910252130 METAR LRTR 252130Z 11003KT CAVOK 11/05 Q1022=
201910252200 METAR LRTR 252200Z 07003KT CAVOK 10/05 Q1022=
201910252230 METAR LRTR 252230Z 09004KT CAVOK 09/05 Q1022=
201910252300 METAR LRTR 252300Z 08003KT CAVOK 09/05 Q1022=
201910252330 METAR LRTR 252330Z 36003KT 330V050 CAVOK 09/05 Q1022=
201910260000 METAR LRTR 260000Z 32004KT CAVOK 07/04 Q1023=
201910260030 METAR LRTR 260030Z 05004KT 020V080 CAVOK 09/05 Q1023=
201910260100 METAR LRTR 260100Z 09003KT CAVOK 09/05 Q1023=
201910260130 METAR LRTR 260130Z 10002KT CAVOK 09/05 Q1023=
201910260200 METAR LRTR 260200Z 12003KT CAVOK 08/05 Q1023=
201910260230 METAR LRTR 260230Z 10005KT CAVOK 07/05 Q1023=
201910260300 METAR LRTR 260300Z 12005KT CAVOK 05/04 Q1023=
201910260330 METAR LRTR 260330Z 12005KT 7000 NSC 05/04 Q1023=
201910260400 METAR LRTR 260400Z 11006KT CAVOK 04/04 Q1023=
201910260430 METAR LRTR 260430Z 11006KT 8000 NSC 05/04 Q1023=
201910260500 METAR LRTR 260500Z 11006KT 7000 NSC 04/03 Q1023=
201910260530 METAR LRTR 260530Z 11007KT 6000 NSC 05/04 Q1024=
201910260600 METAR LRTR 260600Z 11005KT 7000 NSC 06/05 Q1024=
201910260630 METAR LRTR 260630Z 10005KT 8000 NSC 08/06 Q1024=
201910260700 METAR LRTR 260700Z 11005KT 4000 BR NSC 10/07 Q1024=
201910260730 METAR LRTR 260730Z 11004KT 3000 BR NSC 11/07 Q1024=
201910260800 METAR LRTR 260800Z VRB02KT 2500 BR NSC 13/07 Q1025=
201910260830 METAR LRTR 260830Z 15003KT 110V170 3000 BR NSC 14/07 Q1025=
201910260900 METAR LRTR 260900Z 17003KT 110V240 3500 BR NSC 15/08 Q1025=
201910260930 METAR LRTR 260930Z 22003KT 140V260 3500 HZ NSC 17/08 Q1025=
201910261000 METAR LRTR 261000Z VRB02KT 4000 HZ NSC 18/08 Q1024=
201910261030 METAR LRTR 261030Z 20003KT 150V260 4000 HZ NSC 20/08 Q1024=
201910261100 METAR COR LRTR 261100Z 00000KT 4500 HZ NSC 20/08 Q1024=
201910261130 METAR COR LRTR 261130Z VRB01KT 5000 HZ NSC 22/08 Q1023=
201910261200 METAR LRTR 261200Z 00000KT 5000 HZ NSC 22/08 Q1023=
201910261230 METAR LRTR 261230Z VRB02KT 5000 HZ NSC 22/08 Q1023=
201910261300 METAR LRTR 261300Z VRB01KT 6000 NSC 23/08 Q1022=
201910261330 METAR LRTR 261330Z VRB01KT 8000 NSC 23/08 Q1022=
201910261400 METAR LRTR 261400Z VRB01KT 9000 NSC 23/08 Q1022=
201910261430 METAR LRTR 261430Z 00000KT 8000 NSC 22/08 Q1022=
201910261500 METAR LRTR 261500Z 00000KT 7000 NSC 21/08 Q1022=
201910261530 METAR LRTR 261530Z 22002KT 6000 NSC 19/08 Q1022=
201910261600 METAR LRTR 261600Z VRB01KT 6000 NSC 18/08 Q1022 TEMPO 5000
                        HZ=
201910261630 METAR LRTR 261630Z 00000KT 5000 HZ NSC 16/07 Q1022 NOSIG=
201910261700 METAR LRTR 261700Z 00000KT 7000 NSC 14/07 Q1022 TEMPO 5000
                        HZ=
201910261730 METAR LRTR 261730Z 00000KT 5000 HZ NSC 12/06 Q1022 NOSIG=
201910261800 METAR LRTR 261800Z 00000KT 6000 NSC 10/04 Q1022 NOSIG=
201910261830 METAR LRTR 261830Z 07004KT 8000 NSC 10/04 Q1022 NOSIG=
201910261900 METAR LRTR 261900Z 05005KT 8000 NSC 09/05 Q1022 NOSIG=
201910261930 METAR LRTR 261930Z 06005KT 7000 NSC 08/04 Q1023 NOSIG=
201910262000 METAR LRTR 262000Z 09007KT 7000 NSC 09/05 Q1023 NOSIG=
201910262030 METAR LRTR 262030Z 09007KT 6000 NSC 09/06 Q1023 TEMPO 5000
                        BR=
201910262100 METAR LRTR 262100Z 10006KT 5000 BR NSC 08/05 Q1023 NOSIG=
201910262130 METAR LRTR 262130Z 08006KT 5000 BR NSC 07/04 Q1023 NOSIG=
201910262200 METAR LRTR 262200Z 09006KT 5000 BR NSC 07/05 Q1023 NOSIG=
201910262230 METAR LRTR 262230Z 10006KT 5000 BR NSC 07/05 Q1023 NOSIG=
201910262300 METAR LRTR 262300Z 10006KT 5000 BR NSC 06/05 Q1023 TEMPO
                        3000 BR=
201910262330 METAR LRTR 262330Z 09006KT 4000 BR NSC 06/05 Q1022 TEMPO
                        3000 BR=
201910270000 METAR LRTR 270000Z 10006KT 3000 BR NSC 06/05 Q1022 NOSIG=
201910270030 METAR LRTR 270030Z AUTO 09006KT 4800 BR NCD 06/05 Q1022 NOSIG=
201910270100 METAR LRTR 270100Z AUTO 10007KT 4700 BR NCD 06/05 Q1021 NOSIG=
201910270130 METAR LRTR 270130Z 10007KT 5000 BR NSC 06/05 Q1021 NOSIG=
201910270200 METAR LRTR 270200Z 11006KT 5000 BR NSC 05/05 Q1021 TEMPO
                        3000 BR=
201910270230 METAR LRTR 270230Z 12006KT 3000 BR NSC 04/04 Q1021 NOSIG=
201910270300 METAR LRTR 270300Z 11008KT 4000 BR NSC 06/05 Q1021 TEMPO
                        3000 BR=
201910270330 METAR LRTR 270330Z 11007KT 4000 BR NSC 05/05 Q1021 TEMPO
                        3000 BR=
201910270400 METAR LRTR 270400Z 11007KT 3000 BR NSC 05/05 Q1021 NOSIG=
201910270430 METAR LRTR 270430Z 11007KT 3000 BR NSC 04/04 Q1021 TEMPO
                        1500 BR=
201910270500 METAR LRTR 270500Z 11005KT 2500 BR NSC 04/04 Q1021 TEMPO
                        1500 BR=
201910270530 METAR LRTR 270530Z 09005KT 3000 MIFG BR NSC 04/04 Q1021 NOSIG=
201910270600 METAR LRTR 270600Z 12006KT 3000 MIFG BR NSC 06/06 Q1021 NOSIG=
201910270630 METAR LRTR 270630Z 12005KT 3500 MIFG BR NSC 08/07 Q1021 BECMG
                        5000=
201910270700 METAR LRTR 270700Z 12006KT 5000 BR NSC 10/08 Q1021 NOSIG=
201910270730 METAR LRTR 270730Z 11008KT 8000 NSC 12/08 Q1021 NOSIG=
201910270800 METAR LRTR 270800Z 12006KT 8000 NSC 13/09 Q1021 NOSIG=
201910270830 METAR LRTR 270830Z 11004KT CAVOK 15/08 Q1021 NOSIG=
201910270900 METAR LRTR 270900Z VRB02KT CAVOK 17/09 Q1021 NOSIG=
201910270930 METAR LRTR 270930Z 18003KT 110V230 8000 NSC 18/09 Q1021 NOSIG=
201910271000 METAR LRTR 271000Z VRB02KT 8000 NSC 19/09 Q1020 NOSIG=
201910271030 METAR LRTR 271030Z VRB02KT 9000 NSC 20/09 Q1020 NOSIG=
201910271100 METAR LRTR 271100Z 19003KT 110V260 9000 NSC 21/09 Q1020 NOSIG=
201910271130 METAR LRTR 271130Z VRB02KT 9000 NSC 22/09 Q1019 NOSIG=
201910271200 METAR LRTR 271200Z 00000KT CAVOK 23/07 Q1019 NOSIG=
201910271230 METAR LRTR 271230Z VRB01KT CAVOK 23/08 Q1019 NOSIG=
201910271300 METAR LRTR 271300Z VRB01KT CAVOK 23/07 Q1019 NOSIG=
201910271330 METAR LRTR 271330Z 00000KT CAVOK 23/07 Q1018 NOSIG=
201910271400 METAR LRTR 271400Z 00000KT CAVOK 23/07 Q1018 NOSIG=
201910271430 METAR LRTR 271430Z 26002KT CAVOK 22/07 Q1018 NOSIG=
201910271500 METAR LRTR 271500Z 00000KT CAVOK 21/07 Q1017 NOSIG=
201910271530 METAR LRTR 271530Z 00000KT CAVOK 18/07 Q1017 NOSIG=
201910271600 METAR LRTR 271600Z 00000KT CAVOK 18/07 Q1017 NOSIG=
201910271630 METAR LRTR 271630Z 30003KT 9000 NSC 18/07 Q1018 NOSIG=
201910271700 METAR LRTR 271700Z 00000KT 8000 NSC 14/06 Q1018 NOSIG=
201910271730 METAR LRTR 271730Z 00000KT 6000 NSC 14/06 Q1018=
201910271800 METAR LRTR 271800Z 00000KT 6000 NSC 14/05 Q1018=
201910271830 METAR LRTR 271830Z 00000KT 7000 NSC 12/06 Q1017=
201910271900 METAR LRTR 271900Z 04005KT 8000 NSC 10/04 Q1017=
201910271930 METAR LRTR 271930Z 04003KT 8000 NSC 10/04 Q1017=
201910272000 METAR LRTR 272000Z 06003KT 030V100 8000 NSC 11/05 Q1017=
201910272030 METAR LRTR 272030Z 11005KT 9000 NSC 08/04 Q1017=
201910272100 METAR LRTR 272100Z 11005KT 8000 NSC 08/04 Q1017=
201910272130 METAR LRTR 272130Z 11006KT 7000 NSC 07/05 Q1017=
201910272200 METAR LRTR 272200Z 12006KT 7000 NSC 07/04 Q1017=
201910272230 METAR LRTR 272230Z 11004KT 7000 NSC 07/04 Q1017=
201910272300 METAR LRTR 272300Z 10003KT 7000 NSC 07/04 Q1017=
201910272330 METAR LRTR 272330Z 11005KT 6000 NSC 06/04 Q1017=
201910280000 METAR LRTR 280000Z 10006KT 6000 NSC 06/04 Q1017=
201910280030 METAR LRTR 280030Z 10006KT 6000 NSC 05/04 Q1017=
201910280100 METAR LRTR 280100Z 09006KT 6000 NSC 05/04 Q1017=
201910280130 METAR LRTR 280130Z 10006KT 6000 NSC 05/04 Q1016=
201910280200 METAR LRTR 280200Z 10007KT 7000 NSC 05/04 Q1016=
201910280230 METAR COR LRTR 280230Z 11006KT 6000 NSC 04/03 Q1016=
201910280300 METAR LRTR 280300Z 12005KT 6000 NSC 04/03 Q1016=
201910280330 METAR LRTR 280330Z 11005KT 6000 NSC 04/03 Q1016=
201910280400 METAR LRTR 280400Z 12006KT 5000 BR NSC 04/03 Q1016=
201910280430 METAR LRTR 280430Z 11006KT 6000 NSC 04/03 Q1016=
201910280500 METAR LRTR 280500Z 10006KT 6000 NSC 04/03 Q1016=
201910280530 METAR LRTR 280530Z 11006KT 5000 BR FEW027 03/03 Q1016=
201910280600 METAR LRTR 280600Z 12007KT 6000 NSC 05/04 Q1016=
201910280630 METAR LRTR 280630Z 12005KT 7000 NSC 07/06 Q1017=
201910280700 METAR LRTR 280700Z 12007KT 8000 NSC 08/06 Q1016=
201910280730 METAR LRTR 280730Z 13006KT 8000 NSC 09/06 Q1017=
201910280800 METAR LRTR 280800Z 14005KT 5000 HZ NSC 11/07 Q1017=
201910280830 METAR LRTR 280830Z 14004KT 110V170 2500 HZ NSC 12/07 Q1017=
201910280900 METAR LRTR 280900Z 14004KT 100V160 2400 HZ NSC 13/08 Q1017=
201910280930 METAR LRTR 280930Z 15003KT 120V190 2500 HZ NSC 15/08 Q1017=
201910281000 METAR LRTR 281000Z 15003KT 100V200 2800 HZ NSC 17/09 Q1016=
201910281030 METAR LRTR 281030Z VRB02KT 2700 HZ NSC 17/10 Q1016=
201910281100 METAR LRTR 281100Z VRB02KT 3000 HZ NSC 19/10 Q1016=
201910281130 METAR LRTR 281130Z VRB02KT 3600 HZ NSC 20/10 Q1016=
201910281200 METAR LRTR 281200Z 30004KT 220V350 3700 HZ NSC 20/10 Q1016=
201910281230 METAR LRTR 281230Z 29004KT 230V330 4200 HZ NSC 20/11 Q1015=
201910281300 METAR LRTR 281300Z 30005KT 270V330 4600 HZ NSC 20/10 Q1015=
201910281330 METAR LRTR 281330Z 30006KT 4200 HZ NSC 20/10 Q1015=
201910281400 METAR LRTR 281400Z 34008KT 4400 HZ NSC 20/10 Q1015=
201910281430 METAR LRTR 281430Z 34008KT 4200 HZ NSC 19/10 Q1015=
201910281500 METAR LRTR 281500Z 35008KT 4700 HZ NSC 18/10 Q1015=
201910281530 METAR LRTR 281530Z 35006KT 4700 HZ NSC 16/10 Q1015=
201910281600 METAR LRTR 281600Z 35004KT 5000 HZ NSC 16/09 Q1015=
201910281630 METAR LRTR 281630Z 34003KT 5000 HZ NSC 15/09 Q1016=
201910281700 METAR LRTR 281700Z 01003KT 4500 HZ NSC 14/09 Q1016=
201910281730 METAR LRTR 281730Z 00000KT 4500 BR NSC 14/09 Q1016 NOSIG=
201910281800 METAR LRTR 281800Z 36005KT 5000 BR NSC 13/09 Q1016 NOSIG=
201910281830 METAR LRTR 281830Z 02003KT 6000 NSC 13/09 Q1016 NOSIG=
201910281900 METAR LRTR 281900Z 02004KT 5000 BR NSC 13/10 Q1016 NOSIG=
201910281930 METAR LRTR 281930Z 06003KT 5000 BR NSC 13/10 Q1016 NOSIG=
201910282000 METAR LRTR 282000Z 03007KT 5000 BR NSC 13/10 Q1016 NOSIG=
201910282030 METAR LRTR 282030Z VRB01KT 5000 BR NSC 12/10 Q1016 NOSIG=
201910282100 METAR LRTR 282100Z 01005KT 5000 BR NSC 12/09 Q1016 NOSIG=
201910282130 METAR LRTR 282130Z 03006KT 5000 BR NSC 12/09 Q1016 NOSIG=
201910282200 METAR LRTR 282200Z 01006KT 5000 BR NSC 12/09 Q1016 NOSIG=
201910282230 METAR LRTR 282230Z 36008KT 5000 BR NSC 12/09 Q1016 NOSIG=
201910282300 METAR LRTR 282300Z 31003KT 270V360 5000 BR NSC 11/09 Q1016
                        NOSIG=
201910282330 METAR LRTR 282330Z 35005KT 320V020 6000 NSC 11/09 Q1016 NOSIG=
201910290000 METAR LRTR 290000Z 36006KT 8000 NSC 11/09 Q1016 NOSIG=
201910290030 METAR LRTR 290030Z 34005KT 8000 NSC 11/09 Q1016 NOSIG=
201910290100 METAR LRTR 290100Z 35008KT CAVOK 11/09 Q1016 NOSIG=
201910290130 METAR LRTR 290130Z 36003KT 320V040 CAVOK 11/08 Q1016 NOSIG=
201910290200 METAR LRTR 290200Z VRB01KT CAVOK 11/08 Q1016 NOSIG=
201910290230 METAR LRTR 290230Z VRB02KT CAVOK 11/08 Q1016 NOSIG=
201910290300 METAR LRTR 290300Z 06005KT 010V080 CAVOK 11/07 Q1016 NOSIG=
201910290330 METAR LRTR 290330Z VRB01KT CAVOK 10/07 Q1016 NOSIG=
201910290400 METAR LRTR 290400Z 04003KT 350V110 CAVOK 10/07 Q1016 NOSIG=
201910290430 METAR LRTR 290430Z 02005KT 360V060 CAVOK 10/07 Q1016 NOSIG=
201910290500 METAR LRTR 290500Z 02007KT CAVOK 10/07 Q1016 NOSIG=
201910290530 METAR LRTR 290530Z 36006KT CAVOK 10/07 Q1017 NOSIG=
201910290600 METAR LRTR 290600Z 36008KT CAVOK 10/07 Q1017 NOSIG=
201910290630 METAR LRTR 290630Z 01008KT CAVOK 10/06 Q1017 NOSIG=
201910290700 METAR LRTR 290700Z 01006KT 9999 -RA NSC 10/07 Q1017 NOSIG=
201910290730 METAR LRTR 290730Z 01006KT 9999 -RA NSC 10/07 Q1017 NOSIG=
201910290800 METAR LRTR 290800Z 01004KT CAVOK 11/07 Q1017 NOSIG=
201910290830 METAR LRTR 290830Z 02008KT 9999 -RA NSC 12/08 Q1017 NOSIG=
201910290900 METAR LRTR 290900Z 01008KT CAVOK 13/07 Q1017 NOSIG=
201910290930 METAR LRTR 290930Z 36009KT CAVOK 13/07 Q1017 NOSIG=
201910291000 METAR LRTR 291000Z 36007KT CAVOK 13/07 Q1017 NOSIG=
201910291030 METAR LRTR 291030Z 35008KT CAVOK 12/06 Q1017 NOSIG=
201910291100 METAR LRTR 291100Z 35008KT 9999 -RA NSC 11/08 Q1017 R11/19//95
                        TEMPO 5000 RA=
201910291130 METAR LRTR 291130Z 36010KT 8000 RA NSC 10/08 Q1017 R11/29//95
                        TEMPO 5000 RA=
201910291200 METAR LRTR 291200Z 36009KT 8000 -RA NSC 10/08 Q1018 RERA
                        R11/29//95 TEMPO 5000 RA=
201910291230 METAR LRTR 291230Z 01011KT 6000 RA FEW010 09/08 Q1017 R11/29//95
                        NOSIG=
201910291300 METAR LRTR 291300Z 01012KT 9999 -RA FEW010 08/08 Q1017 RERA
                        R11/29//95 NOSIG=
201910291330 METAR LRTR 291330Z 02013KT 9999 -RA FEW007 08/07 Q1017 R11/29//95
                        NOSIG=
201910291400 METAR LRTR 291400Z 36012KT 9999 FEW010 09/07 Q1017 R11/29//95
                        NOSIG=
201910291430 METAR LRTR 291430Z 01011KT CAVOK 08/07 Q1017 R11/29//95 NOSIG=
201910291500 METAR LRTR 291500Z 01013KT 9999 -RA NSC 08/07 Q1017 R11/29//95
                        NOSIG=
201910291530 METAR LRTR 291530Z 02014KT 9999 -RA NSC 08/07 Q1017 R11/29//95
                        NOSIG=
201910291600 METAR LRTR 291600Z 01013KT 9999 -RA NSC 08/07 Q1018 R11/29//95
                        NOSIG=
201910291630 METAR LRTR 291630Z 01012KT 9999 -RA NSC 08/07 Q1018 R11/29//95
                        NOSIG=
201910291700 METAR LRTR 291700Z 35007KT 9000 -RA OVC045 08/07 Q1019 R11/29//95
                        NOSIG=
201910291730 METAR LRTR 291730Z 36009KT 8000 -RA OVC035 08/07 Q1019 R11/29//95=
201910291800 METAR LRTR 291800Z 01009KT 6000 -RA SCT032 OVC045 08/07 Q1019
                        R11/29//95=
201910291830 METAR LRTR 291830Z 01011KT 6000 -RA FEW035 OVC041 07/07 Q1019
                        R11/29//95=
201910291900 METAR LRTR 291900Z 36010KT 8000 -RA OVC040 07/06 Q1019 R11/29//95=
201910291930 METAR LRTR 291930Z 35011KT 9999 -RA FEW030 OVC043 08/06 Q1020
                        R11/29//95=
201910292000 METAR LRTR 292000Z 34011KT 9999 -RA SCT030 OVC040 08/06 Q1020
                        R11/29//95=
201910292030 METAR LRTR 292030Z 35012KT 8000 -RA OVC030 08/06 Q1020 R11/29//95=
201910292100 METAR LRTR 292100Z 34009KT 9000 -RA OVC029 08/07 Q1021 R11/29//95=
201910292130 METAR LRTR 292130Z 35007KT 9000 -RA OVC032 08/07 Q1021 R11/29//95=
201910292200 METAR LRTR 292200Z 34006KT 9999 -RA SCT032 OVC044 08/06 Q1021
                        R11/29//95=
201910292230 METAR LRTR 292230Z 32005KT 9999 -RA SCT045 08/06 Q1021 R11/29//95=
201910292300 METAR LRTR 292300Z 31006KT 9999 -RA SCT045 08/06 Q1021 R11/29//95=
201910292330 METAR LRTR 292330Z 31005KT 9999 -RA BKN042 08/06 Q1021 R11/29//95=
201910300000 METAR LRTR 300000Z 30004KT 9999 -RA BKN043 08/06 Q1021 R11/29//95=
201910300030 METAR LRTR 300030Z 31007KT 9999 OVC043 08/06 Q1022 R11/29//95=
201910300100 METAR LRTR 300100Z 32007KT 9999 OVC044 08/06 Q1021 R11/29//95=
201910300130 METAR LRTR 300130Z 32007KT 9999 OVC045 08/06 Q1022 R11/29//95=
201910300200 METAR COR LRTR 300200Z 32005KT 9999 OVC048 07/06 Q1022 R11/29//95=
201910300230 METAR LRTR 300230Z 32004KT 9999 OVC047 07/06 Q1022 R11/29//95=
201910300300 METAR COR LRTR 300300Z 32005KT 9999 OVC049 07/05 Q1022 R11/29//95=
201910300330 METAR LRTR 300330Z 36009KT CAVOK 07/04 Q1022 R11/19//95=
201910300400 METAR LRTR 300400Z 35007KT CAVOK 07/04 Q1022 R11/19//95=
201910300430 METAR LRTR 300430Z 35006KT CAVOK 07/04 Q1022 R11/19//95=
201910300500 METAR LRTR 300500Z 35007KT CAVOK 06/04 Q1022 R11/19//95=
201910300530 METAR LRTR 300530Z 35008KT CAVOK 06/04 Q1022 R11/19//95=
201910300600 METAR LRTR 300600Z 36007KT CAVOK 06/05 Q1023 R11/19//95=
201910300630 METAR LRTR 300630Z 01008KT CAVOK 07/05 Q1023 R11/19//95=
201910300700 METAR LRTR 300700Z 02009KT CAVOK 07/05 Q1023 R11/19//95=
201910300730 METAR LRTR 300730Z 02010KT CAVOK 08/05 Q1023 R11/19//95=
201910300800 METAR LRTR 300800Z 01010KT CAVOK 08/05 Q1023 R11/19//95=
201910300830 METAR LRTR 300830Z 03009KT CAVOK 09/05 Q1023 R11/19//95=
201910300900 METAR LRTR 300900Z 02009KT CAVOK 09/05 Q1023 R11/19//95=
201910300930 METAR LRTR 300930Z 02007KT 360V060 CAVOK 09/05 Q1023 R11/19//95=
201910301000 METAR LRTR 301000Z 36006KT 330V040 CAVOK 09/05 Q1023 R11/19//95=
201910301030 METAR LRTR 301030Z 36005KT 330V030 CAVOK 09/05 Q1023 R11/19//95=
201910301100 METAR LRTR 301100Z 35004KT 320V020 CAVOK 09/05 Q1023 R11/CLRD//=
201910301130 METAR LRTR 301130Z 01007KT CAVOK 10/05 Q1023=
201910301200 METAR LRTR 301200Z 02008KT CAVOK 10/05 Q1023=
201910301230 METAR LRTR 301230Z 02007KT 9999 -RA NSC 09/05 Q1023=
201910301300 METAR LRTR 301300Z 04006KT 9999 -RA NSC 08/06 Q1023 R11/190095=
201910301330 METAR LRTR 301330Z 03007KT CAVOK 08/06 Q1023 R11/290095=
201910301400 METAR LRTR 301400Z 03004KT CAVOK 09/06 Q1023 RERA R11/290095=
201910301430 METAR LRTR 301430Z 06003KT CAVOK 09/07 Q1024 R11/290095=
201910301500 METAR LRTR 301500Z 00000KT CAVOK 09/07 Q1024 R11/290095=
201910301530 METAR LRTR 301530Z VRB02KT CAVOK 09/06 Q1024 R11/190095=
201910301600 METAR LRTR 301600Z 34003KT 9999 -RA NSC 08/05 Q1024 R11/190095=
201910301630 METAR LRTR 301630Z 35007KT 9999 -RA NSC 08/05 Q1024 R11/190095=
201910301700 METAR LRTR 301700Z 35011KT 9999 -RA NSC 08/04 Q1025 R11/190095
                        NOSIG=
201910301730 METAR LRTR 301730Z 36010KT 9999 -RA FEW042 07/05 Q1025 R11/190095
                        NOSIG=
201910301800 METAR LRTR 301800Z 36013KT 9999 SHRA SCT040CB 06/05 Q1025
                        R11/190095 BECMG NSW=
201910301830 METAR LRTR 301830Z 36012KT 8000 RA FEW030 06/05 Q1025 R11/190095
                        BECMG NSW=
201910301900 METAR LRTR 301900Z 35009KT 9999 -RA OVC032 06/05 Q1026 RERA
                        R11/190095 NOSIG=
201910301930 METAR LRTR 301930Z 36007KT 9999 -RA BKN025 06/05 Q1026 R11/29//95
                        NOSIG=
201910302000 METAR LRTR 302000Z 35007KT 9999 -RA SCT025 06/05 Q1026 R11/29//95
                        NOSIG=
201910302030 METAR LRTR 302030Z 36006KT 9999 BKN030 05/04 Q1026 R11/29//95
                        NOSIG=
201910302100 METAR LRTR 302100Z 35005KT 9999 BKN030 05/04 Q1026 R11/29//95
                        NOSIG=
201910302130 METAR LRTR 302130Z 35005KT 9999 BKN032 04/04 Q1026 R11/29//95
                        NOSIG=
201910302200 METAR LRTR 302200Z 34003KT 9999 BKN034 04/04 Q1025 R11/29//95
                        NOSIG=
201910302230 METAR LRTR 302230Z 31004KT 8000 BKN042 05/05 Q1026 R11/29//95
                        NOSIG=
201910302300 METAR LRTR 302300Z 27003KT 8000 BKN043 05/05 Q1026 R11/29//95
                        NOSIG=
201910302330 METAR LRTR 302330Z 30003KT 9999 BKN045 05/05 Q1026 R11/29//95
                        NOSIG=
201910310000 METAR LRTR 310000Z 32006KT 9999 SCT046 04/04 Q1026 R11/29//95
                        NOSIG=
201910310030 METAR LRTR 310030Z 31004KT 7000 NSC 04/03 Q1025 R11/29//95
                        NOSIG=
201910310100 METAR LRTR 310100Z 31004KT 7000 NSC 03/03 Q1025 R11/29//95
                        TEMPO 5000 BR=
201910310130 METAR LRTR 310130Z 33003KT 5000 BR NSC 02/02 Q1025 R11/29//95
                        NOSIG=
201910310200 METAR LRTR 310200Z 32006KT 5000 BR NSC 02/01 Q1025 R11/29//95
                        NOSIG=
201910310230 METAR LRTR 310230Z 33006KT 6000 NSC 01/01 Q1025 R11/29//95
                        TEMPO 5000 BR=
201910310300 METAR LRTR 310300Z 00000KT 6000 NSC 01/01 Q1025 R11/29//95
                        TEMPO 5000 BR=
201910310330 METAR LRTR 310330Z 32003KT 8000 NSC 01/01 Q1025 R11/190095
                        NOSIG=
201910310400 METAR LRTR 310400Z 33003KT CAVOK 01/00 Q1025 R11/190095 NOSIG=
201910310430 METAR LRTR 310430Z 34003KT CAVOK 01/00 Q1025 R11/190095 NOSIG=
201910310500 METAR LRTR 310500Z 36004KT CAVOK 00/M00 Q1025 R11/190095
                        NOSIG=
201910310530 METAR LRTR 310530Z VRB02KT 9999 FEW049 00/M01 Q1025 R11/190095
                        NOSIG=
201910310600 METAR LRTR 310600Z 36004KT 9999 FEW049 00/M01 Q1025 R11/190095
                        NOSIG=
201910310630 METAR LRTR 310630Z 03003KT 9999 FEW049 01/00 Q1025 R11/190095
                        NOSIG=
201910310700 METAR LRTR 310700Z 00000KT 9999 SCT049 02/01 Q1025 R11/190095
                        NOSIG=
201910310730 METAR LRTR 310730Z 00000KT 9999 SCT049 04/02 Q1026 R11/190095
                        NOSIG=
201910310800 METAR LRTR 310800Z 00000KT CAVOK 05/03 Q1026 R11/190095 NOSIG=
201910310830 METAR LRTR 310830Z VRB01KT CAVOK 06/04 Q1025 R11/190095 NOSIG=
201910310900 METAR LRTR 310900Z VRB02KT CAVOK 07/04 Q1025 R11/190095 NOSIG=
201910310930 METAR LRTR 310930Z VRB01KT CAVOK 07/03 Q1025 R11/190095 NOSIG=
201910311000 METAR LRTR 311000Z VRB01KT CAVOK 08/03 Q1025 R11/190095 NOSIG=
201910311030 METAR LRTR 311030Z VRB01KT 9999 FEW025 09/04 Q1025 R11/190095
                        NOSIG=
201910311100 METAR LRTR 311100Z VRB01KT 9999 FEW022 09/02 Q1025 R11/190095
                        NOSIG=
201910311130 METAR LRTR 311130Z VRB02KT 9999 FEW022 09/02 Q1025 R11/190095
                        NOSIG=
201910311200 METAR LRTR 311200Z VRB03KT 9999 FEW025 10/03 Q1024 R11/190095
                        NOSIG=
201910311230 METAR LRTR 311230Z VRB01KT 9999 FEW029 10/02 Q1024 R11/190095
                        NOSIG=
201910311300 METAR LRTR 311300Z 16003KT 9999 FEW029 SCT049 09/02 Q1024
                        R11/CLRD// NOSIG=
201910311330 METAR LRTR 311330Z 16003KT 120V180 9999 FEW030 SCT049 09/03
                        Q1024 NOSIG=
201910311400 METAR LRTR 311400Z VRB02KT 9999 FEW030 BKN049 10/03 Q1024
                        NOSIG=
201910311430 METAR LRTR 311430Z 17003KT 140V210 9999 FEW035 BKN049 09/03
                        Q1024 NOSIG=
201910311500 METAR LRTR 311500Z 16003KT 9999 FEW035 BKN045 09/03 Q1024
                        NOSIG=
201910311530 METAR LRTR 311530Z 16002KT 9999 FEW035 BKN042 09/03 Q1024
                        NOSIG=
201910311600 METAR LRTR 311600Z 00000KT 9999 FEW035 BKN040 09/03 Q1024
                        NOSIG=
201910311630 METAR LRTR 311630Z 16004KT 9999 -RA SCT035 OVC046 08/05 Q1024
                        NOSIG=
201910311700 METAR LRTR 311700Z 14003KT 120V180 9999 SCT036 OVC046 08/05
                        Q1024 NOSIG=
201910311730 METAR LRTR 311730Z 18004KT 9999 -RA BKN037 OVC045 08/06 Q1025
                        R11/190095=
201910311800 METAR LRTR 311800Z 17003KT 9999 -RA BKN038 OVC045 08/06 Q1025
                        R11/190095=
201910311830 METAR LRTR 311830Z 21004KT 9999 -RA BKN036 08/06 Q1025 R11/190095=
201910311900 METAR LRTR 311900Z 17003KT 9999 BKN037 08/06 Q1025 R11/190095=
201910311930 METAR LRTR 311930Z 22003KT 9999 BKN038 08/06 Q1025 R11/190095=
201910312000 METAR LRTR 312000Z 23003KT 9999 BKN037 07/06 Q1025 R11/190095=
201910312030 METAR LRTR 312030Z 25002KT 9999 BKN035 07/06 Q1025 R11/190095=
201910312100 METAR LRTR 312100Z 00000KT 9999 BKN035 07/06 Q1025 R11/190095=
201910312130 METAR LRTR 312130Z 07003KT 8000 BKN036 07/06 Q1025 R11/190095=
201910312200 METAR LRTR 312200Z VRB01KT 8000 BKN035 07/06 Q1025 R11/190095=
201910312230 METAR LRTR 312230Z 08003KT 8000 BKN037 07/06 Q1025 R11/190095=
201910312300 METAR LRTR 312300Z 00000KT 7000 BKN040 07/06 Q1025 R11/190095=
201910312330 METAR LRTR 312330Z 00000KT 7000 FEW028 SCT041 07/06 Q1025
                        R11/190095=