201911010000 METAR LRTR 010000Z 00000KT 7000 SCT027 07/06 Q1025 R11/190095=
201911010030 METAR COR LRTR 010030Z 30002KT 6000 SCT025 06/06 Q1025 R11/190095=
201911010100 METAR LRTR 010100Z 32002KT 6000 SCT025 06/06 Q1025 R11/190095=
201911010130 METAR LRTR 010130Z 30003KT 8000 FEW025 BKN042 06/05 Q1024
                        R11/190095=
201911010200 METAR COR LRTR 010200Z 31002KT 9999 OVC041 06/05 Q1024 R11/190095=
201911010230 METAR LRTR 010230Z 29002KT 9999 FEW026 OVC040 07/05 Q1024
                        R11/190095=
201911010300 METAR LRTR 010300Z 27002KT 9999 SCT026 OVC040 07/05 Q1024
                        R11/190095=
201911010330 METAR LRTR 010330Z 00000KT 9999 FEW018 OVC040 06/05 Q1024
                        R11/190095=
201911010400 METAR LRTR 010400Z 00000KT 9999 BKN018 06/05 Q1024 R11/190095=
201911010430 METAR LRTR 010430Z 00000KT 9999 SCT019 BKN035 06/05 Q1024
                        R11/190095=
201911010500 METAR LRTR 010500Z 00000KT 9999 SCT020 OVC035 06/05 Q1024
                        R11/190095=
201911010530 METAR LRTR 010530Z 10004KT 9999 BKN020 OVC035 06/05 Q1024
                        R11/190095=
201911010600 METAR LRTR 010600Z 09004KT 9999 OVC020 06/05 Q1025 R11/190095=
201911010630 METAR LRTR 010630Z 11004KT 9999 OVC021 07/04 Q1025 R11/190095=
201911010700 METAR LRTR 010700Z 13005KT 9999 BKN020 OVC035 07/04 Q1025
                        R11/190095=
201911010730 METAR LRTR 010730Z 12005KT 9999 BKN021 OVC035 07/04 Q1025
                        R11/190095=
201911010800 METAR LRTR 010800Z 09004KT 9999 OVC026 08/05 Q1025 R11/190095=
201911010830 METAR LRTR 010830Z 10005KT 070V130 9999 FEW016 OVC030 08/04
                        Q1025 R11/190095=
201911010900 METAR LRTR 010900Z 09006KT 9999 FEW016 BKN032 09/04 Q1025
                        R11/190095=
201911010930 METAR LRTR 010930Z 12007KT 090V150 9999 FEW018 BKN033 09/05
                        Q1025 R11/190095=
201911011000 METAR LRTR 011000Z 12007KT 080V140 9999 SCT018 BKN033 09/05
                        Q1025 R11/190095=
201911011030 METAR LRTR 011030Z 11006KT 080V140 9999 SCT020 BKN033 09/04
                        Q1024 R11/190095=
201911011100 METAR LRTR 011100Z 11005KT 080V140 9999 BKN023 10/03 Q1024
                        R11/190095=
201911011130 METAR LRTR 011130Z 15005KT 110V170 9999 BKN029 09/03 Q1024
                        R11/190095=
201911011200 METAR LRTR 011200Z 18003KT 140V230 9999 BKN033 10/04 Q1023
                        R11/190095=
201911011230 METAR LRTR 011230Z 17003KT 130V220 9999 BKN034 10/04 Q1023
                        R11/190095=
201911011300 METAR LRTR 011300Z 06002KT 360V120 9999 BKN033 10/03 Q1023
                        R11/190095=
201911011330 METAR LRTR 011330Z 09004KT 050V150 9999 FEW033 10/03 Q1022
                        R11/190095=
201911011400 METAR LRTR 011400Z 12003KT 090V190 9999 FEW035 10/03 Q1022
                        R11/190095=
201911011430 METAR LRTR 011430Z 14004KT 9999 FEW037 10/03 Q1022 R11/190095=
201911011500 METAR LRTR 011500Z 00000KT 9999 FEW037 10/02 Q1021 R11/190095=
201911011530 METAR LRTR 011530Z 10004KT CAVOK 08/03 Q1021 R11/190095=
201911011600 METAR LRTR 011600Z 11005KT 9999 FEW042 07/03 Q1021 R11/190095=
201911011630 METAR LRTR 011630Z 10005KT 9999 SCT043 06/03 Q1021 R11/190095=
201911011700 METAR LRTR 011700Z 18005KT 130V220 9999 BKN042 08/03 Q1021
                        R11/CLRD//=
201911011730 METAR LRTR 011730Z 20006KT 9999 BKN040 07/02 Q1021=
201911011800 METAR LRTR 011800Z 20007KT 9999 BKN039 06/02 Q1021=
201911011830 METAR LRTR 011830Z 20006KT 9999 FEW039 05/01 Q1021=
201911011900 METAR LRTR 011900Z 19004KT 140V200 CAVOK 04/01 Q1021=
201911011930 METAR LRTR 011930Z 09006KT CAVOK 02/01 Q1020=
201911012000 METAR LRTR 012000Z 12006KT CAVOK 02/01 Q1020=
201911012030 METAR LRTR 012030Z 10006KT CAVOK 01/00 Q1020=
201911012100 METAR LRTR 012100Z 09006KT CAVOK 00/M00 Q1020=
201911012130 METAR LRTR 012130Z 09007KT CAVOK 00/M00 Q1019=
201911012200 METAR LRTR 012200Z 10008KT CAVOK 01/00 Q1019=
201911012230 METAR COR LRTR 012230Z 09008KT CAVOK 01/00 Q1018=
201911012300 METAR LRTR 012300Z 10009KT CAVOK 02/01 Q1018=
201911012330 METAR LRTR 012330Z AUTO 11010KT 9999 NCD 02/01 Q1017=
201911020000 METAR LRTR 020000Z 11011KT CAVOK 02/01 Q1017=
201911020030 METAR LRTR 020030Z 11010KT CAVOK 02/01 Q1016=
201911020100 METAR LRTR 020100Z 11011KT CAVOK 02/01 Q1016=
201911020130 METAR LRTR 020130Z 12011KT CAVOK 02/01 Q1016=
201911020200 METAR LRTR 020200Z 12011KT CAVOK 02/01 Q1015=
201911020230 METAR LRTR 020230Z 12009KT CAVOK 02/01 Q1015=
201911020300 METAR LRTR 020300Z 12009KT CAVOK 02/01 Q1015=
201911020330 METAR LRTR 020330Z 12009KT CAVOK 03/01 Q1014=
201911020400 METAR LRTR 020400Z 12009KT CAVOK 03/01 Q1014=
201911020430 METAR LRTR 020430Z 12009KT CAVOK 03/01 Q1014=
201911020500 METAR LRTR 020500Z 12008KT CAVOK 03/01 Q1013 NOSIG=
201911020530 METAR LRTR 020530Z 12009KT CAVOK 04/02 Q1013 NOSIG=
201911020600 METAR LRTR 020600Z 12009KT CAVOK 04/02 Q1014 NOSIG=
201911020630 METAR LRTR 020630Z 12009KT 9999 -RA NSC 05/03 Q1013 NOSIG=
201911020700 METAR LRTR 020700Z 12009KT CAVOK 06/03 Q1013 NOSIG=
201911020730 METAR LRTR 020730Z 13008KT CAVOK 07/03 Q1013 NOSIG=
201911020800 METAR LRTR 020800Z 13008KT 9999 -RA NSC 07/04 Q1013 NOSIG=
201911020830 METAR LRTR 020830Z 13008KT 9999 FEW045 08/04 Q1013 NOSIG=
201911020900 METAR LRTR 020900Z 12009KT 9999 FEW045 09/04 Q1012 NOSIG=
201911020930 METAR LRTR 020930Z 13009KT CAVOK 10/04 Q1012 NOSIG=
201911021000 METAR LRTR 021000Z 14009KT 9999 -RA NSC 10/05 Q1012 NOSIG=
201911021030 METAR LRTR 021030Z 14008KT CAVOK 11/05 Q1012 NOSIG=
201911021100 METAR LRTR 021100Z 14009KT 9999 -RA NSC 12/06 Q1011 NOSIG=
201911021130 METAR LRTR 021130Z 18018KT CAVOK 14/05 Q1011 NOSIG=
201911021200 METAR LRTR 021200Z 18017KT CAVOK 14/05 Q1011 NOSIG=
201911021230 METAR LRTR 021230Z 17014KT CAVOK 14/05 Q1010 NOSIG=
201911021300 METAR LRTR 021300Z 18014KT CAVOK 14/05 Q1010 NOSIG=
201911021330 METAR LRTR 021330Z 18014KT CAVOK 14/05 Q1010 NOSIG=
201911021400 METAR LRTR 021400Z 17012KT CAVOK 13/05 Q1010 NOSIG=
201911021430 METAR LRTR 021430Z 16014KT CAVOK 13/05 Q1010 NOSIG=
201911021500 METAR LRTR 021500Z 17015KT CAVOK 13/05 Q1010 NOSIG=
201911021530 METAR LRTR 021530Z 17012KT CAVOK 13/05 Q1010 NOSIG=
201911021600 METAR LRTR 021600Z 16010KT CAVOK 13/06 Q1010 NOSIG=
201911021630 METAR LRTR 021630Z 17009KT CAVOK 13/06 Q1010 NOSIG=
201911021700 METAR LRTR 021700Z 11006KT 9999 -RA NSC 11/08 Q1010 NOSIG=
201911021730 METAR LRTR 021730Z 11007KT 9999 -RA NSC 10/08 Q1010=
201911021800 METAR LRTR 021800Z 12008KT 9999 -RA NSC 10/07 Q1010 R11/290095=
201911021830 METAR LRTR 021830Z 11009KT 9999 -RA NSC 09/08 Q1010 R11/290095=
201911021900 METAR LRTR 021900Z 11010KT 9999 -RA NSC 09/07 Q1009 R11/290095=
201911021930 METAR COR LRTR 021930Z 11010KT 9999 -RA NSC 09/07 Q1009 R11/290095=
201911022000 METAR LRTR 022000Z 12010KT CAVOK 09/08 Q1009 R11/290095=
201911022030 METAR LRTR 022030Z 12009KT 9999 -RA NSC 09/08 Q1009 R11/290095=
201911022100 METAR LRTR 022100Z 11010KT 9999 -RA NSC 09/08 Q1009 R11/290095=
201911022130 METAR LRTR 022130Z 11010KT 9999 -RA NSC 09/08 Q1008 R11/290095=
201911022200 METAR LRTR 022200Z 12008KT 9999 -RA NSC 09/08 Q1008 R11/290095=
201911022230 METAR LRTR 022230Z 12009KT 9999 -RA NSC 09/08 Q1008 R11/290095=
201911022300 METAR LRTR 022300Z 12009KT CAVOK 09/08 Q1008 R11/290095=
201911022330 METAR LRTR 022330Z 12008KT CAVOK 10/08 Q1008 R11/290095=
201911030000 METAR LRTR 030000Z 12008KT CAVOK 10/08 Q1008 R11/290095=
201911030030 METAR LRTR 030030Z 13009KT CAVOK 10/08 Q1007 R11/290095=
201911030100 METAR LRTR 030100Z 13008KT CAVOK 10/08 Q1007 R11/290095=
201911030130 METAR COR LRTR 030130Z 13008KT CAVOK 10/09 Q1007 R11/290095=
201911030200 METAR LRTR 030200Z 16011KT CAVOK 12/08 Q1007 R11/290095=
201911030230 METAR LRTR 030230Z 16012KT CAVOK 12/09 Q1006 R11/290095=
201911030300 METAR LRTR 030300Z 16012KT 9999 -RA NSC 12/09 Q1007 R11/290095=
201911030330 METAR LRTR 030330Z 15011KT 9999 -RA NSC 13/10 Q1006 R11/290095=
201911030400 METAR LRTR 030400Z 12008KT 9999 -RA NSC 10/10 Q1006 R11/290095=
201911030430 METAR LRTR 030430Z 11008KT CAVOK 10/09 Q1006 R11/290095=
201911030500 METAR LRTR 030500Z 12008KT CAVOK 10/09 Q1006 R11/290095=
201911030530 METAR LRTR 030530Z 12009KT CAVOK 10/09 Q1006 R11/290095=
201911030600 METAR COR LRTR 030600Z 12010KT CAVOK 10/09 Q1006 R11/290095=
201911030630 METAR LRTR 030630Z 12010KT CAVOK 11/09 Q1006 R11/290095=
201911030700 METAR LRTR 030700Z 12009KT CAVOK 11/10 Q1005 R11/290095=
201911030730 METAR LRTR 030730Z 13009KT 9999 -RA NSC 12/11 Q1005 R11/290095=
201911030800 METAR LRTR 030800Z 13008KT CAVOK 13/11 Q1005 R11/290095=
201911030830 METAR LRTR 030830Z 15009KT CAVOK 15/10 Q1005 R11/290095=
201911030900 METAR LRTR 030900Z 16012KT CAVOK 15/10 Q1005 R11/290095=
201911030930 METAR LRTR 030930Z 17014KT CAVOK 16/10 Q1004 R11/290095=
201911031000 METAR LRTR 031000Z 18019KT CAVOK 18/10 Q1004 R11/190095=
201911031030 METAR LRTR 031030Z 18021KT CAVOK 18/10 Q1004 R11/190095=
201911031100 METAR LRTR 031100Z 18019KT CAVOK 18/10 Q1003 R11/190095=
201911031130 METAR LRTR 031130Z 19019KT CAVOK 17/09 Q1003 R11/190095=
201911031200 METAR LRTR 031200Z 18018KT 9999 FEW043 18/09 Q1003 R11/190095=
201911031230 METAR COR LRTR 031230Z 18019KT 9999 -RA FEW043 16/10 Q1003
                        R11/190095=
201911031300 METAR LRTR 031300Z 17016KT 9999 FEW040 16/11 Q1003 R11/190095=
201911031330 METAR LRTR 031330Z 17016KT 9999 -RA NSC 16/11 Q1003 R11/190095=
201911031400 METAR LRTR 031400Z 17013KT 9999 -RA NSC 15/12 Q1003 R11/290095=
201911031430 METAR LRTR 031430Z 11009KT 9999 -RA FEW047 14/13 Q1003 R11/290095=
201911031500 METAR LRTR 031500Z 11009KT 9999 -RA FEW020 13/13 Q1003 R11/290095=
201911031530 METAR LRTR 031530Z 11012KT 9999 -RA FEW020 13/12 Q1003 R11/290095=
201911031600 METAR LRTR 031600Z 11009KT 9999 -RA FEW047 13/12 Q1003 R11/290095=
201911031630 METAR LRTR 031630Z 10011KT CAVOK 13/12 Q1002 R11/290095=
201911031700 METAR LRTR 031700Z 11011KT CAVOK 13/12 Q1002 R11/290095 NOSIG=
201911031730 METAR LRTR 031730Z 13009KT CAVOK 13/12 Q1002 R11/290095 NOSIG=
201911031800 METAR LRTR 031800Z 13009KT CAVOK 13/11 Q1002 R11/290095 NOSIG=
201911031830 METAR LRTR 031830Z 14007KT CAVOK 13/11 Q1002 R11/290095 NOSIG=
201911031900 METAR LRTR 031900Z 12007KT CAVOK 13/11 Q1001 R11/290095 NOSIG=
201911031930 METAR LRTR 031930Z 11007KT CAVOK 12/11 Q1001 R11/290095 NOSIG=
201911032000 METAR LRTR 032000Z 14007KT CAVOK 15/11 Q1001 R11/290095 NOSIG=
201911032030 METAR LRTR 032030Z 17013KT CAVOK 16/10 Q1001 R11/290095 NOSIG=
201911032100 METAR LRTR 032100Z 16014KT CAVOK 17/10 Q1001 R11/290095 NOSIG=
201911032130 METAR LRTR 032130Z 17016KT CAVOK 17/10 Q1001 R11/290095 NOSIG=
201911032200 METAR LRTR 032200Z 17016KT CAVOK 17/10 Q1000 R11/290095 NOSIG=
201911032230 METAR LRTR 032230Z 17018KT CAVOK 17/10 Q1000 R11/290095 NOSIG=
201911032300 METAR LRTR 032300Z 17017KT CAVOK 17/10 Q1000 R11/290095 NOSIG=
201911032330 METAR LRTR 032330Z 17016KT CAVOK 17/10 Q1000 R11/290095 NOSIG=
201911040000 METAR LRTR 040000Z 17014KT CAVOK 17/10 Q1000 R11/290095 NOSIG=
201911040030 METAR LRTR 040030Z 17015KT CAVOK 18/10 Q0999 R11/290095 NOSIG=
201911040100 METAR LRTR 040100Z 17015KT CAVOK 18/10 Q0999 R11/290095 NOSIG=
201911040130 METAR LRTR 040130Z 17015KT CAVOK 18/10 Q0999 R11/290095 NOSIG=
201911040200 METAR LRTR 040200Z 17014G24KT CAVOK 18/10 Q0999 R11/290095
                        NOSIG=
201911040230 METAR LRTR 040230Z 12008KT CAVOK 15/10 Q0999 R11/290095 NOSIG=
201911040300 METAR LRTR 040300Z 13008KT CAVOK 15/10 Q0999 R11/290095 NOSIG=
201911040330 METAR LRTR 040330Z 14009KT CAVOK 16/10 Q0999 R11/290095 NOSIG=
201911040400 METAR LRTR 040400Z 14007KT 9999 -RA NSC 16/11 Q0999 NOSIG=
201911040430 METAR LRTR 040430Z 16014KT 9999 -RA NSC 16/12 Q0998 RERA
                        R11/29//95 NOSIG=
201911040500 METAR LRTR 040500Z 15012KT 9999 -RA NSC 15/12 Q0998 R11/29//95
                        NOSIG=
201911040530 METAR LRTR 040530Z 14009KT 9999 -RA NSC 15/12 Q0998 R11/29//95
                        NOSIG=
201911040600 METAR LRTR 040600Z 14012KT 9999 -RA NSC 15/12 Q0998 R11/29//95
                        NOSIG=
201911040630 METAR LRTR 040630Z 14012KT CAVOK 15/12 Q0998 R11/29//95 NOSIG=
201911040700 METAR LRTR 040700Z 14012KT CAVOK 15/12 Q0998 R11/29//95 NOSIG=
201911040730 METAR LRTR 040730Z 15012KT CAVOK 16/12 Q0998 R11/29//95 NOSIG=
201911040800 METAR LRTR 040800Z 16013KT 9999 -RA NSC 16/12 Q0998 R11/29//95
                        NOSIG=
201911040830 METAR LRTR 040830Z 16015KT 9999 -RA NSC 17/12 Q0998 R11/29//95
                        NOSIG=
201911040900 METAR LRTR 040900Z 15015KT 9999 FEW030 17/13 Q0998 R11/29//95
                        NOSIG=
201911040930 METAR LRTR 040930Z 16016KT 9999 FEW040 18/13 Q0998 R11/29//95
                        NOSIG=
201911041000 METAR LRTR 041000Z 16015KT CAVOK 18/13 Q0998 R11/19//95 NOSIG=
201911041030 METAR LRTR 041030Z 18018KT 9999 -RA NSC 18/12 Q0997 R11/19//95
                        NOSIG=
201911041100 METAR LRTR 041100Z 18021KT CAVOK 18/12 Q0997 R11/19//95 NOSIG=
201911041130 METAR LRTR 041130Z 17020KT 9999 -RA NSC 17/12 Q0997 R11/19//95
                        NOSIG=
201911041200 METAR LRTR 041200Z 17020KT 9999 -RA NSC 17/12 Q0997 R11/19//95
                        NOSIG=
201911041230 METAR LRTR 041230Z 18019KT CAVOK 17/12 Q0997 R11/19//95 NOSIG=
201911041300 METAR LRTR 041300Z 18018KT 9999 FEW040CB 17/12 Q0997 R11/19//95
                        TEMPO 5000 SHRA=
201911041330 METAR LRTR 041330Z 21012KT 5000 SHRA FEW024 SCT040CB 15/14
                        Q0999 R11/290095 NOSIG=
201911041400 METAR LRTR 041400Z 19009KT 9999 -RA FEW024 FEW045CB 14/14
                        Q0999 RESHRA R11/290095 NOSIG=
201911041430 METAR LRTR 041430Z 20010KT 9999 FEW025 FEW045CB 15/14 Q0999
                        R11/290095 NOSIG=
201911041500 METAR LRTR 041500Z 22009KT 9999 FEW020 15/13 Q1000 R11/290095
                        NOSIG=
201911041530 METAR LRTR 041530Z 19008KT 9999 FEW020 15/13 Q1000 R11/290095
                        NOSIG=
201911041600 METAR LRTR 041600Z 19006KT CAVOK 13/13 Q1001 R11/290095 NOSIG=
201911041630 METAR LRTR 041630Z 17005KT CAVOK 13/12 Q1001 R11/290095 NOSIG=
201911041700 METAR LRTR 041700Z 17006KT CAVOK 13/12 Q1001 R11/290095 NOSIG=
201911041730 METAR LRTR 041730Z 20007KT CAVOK 13/12 Q1002 R11/290095=
201911041800 METAR LRTR 041800Z 20007KT CAVOK 13/12 Q1002 R11/290095=
201911041830 METAR LRTR 041830Z 23004KT 200V280 9999 FEW016 12/11 Q1003
                        R11/290095=
201911041900 METAR LRTR 041900Z 25006KT 9999 FEW011 13/12 Q1004 R11/290095=
201911041930 METAR LRTR 041930Z 25006KT 9999 FEW010 12/12 Q1004 R11/290095=
201911042000 METAR LRTR 042000Z 22003KT 9999 FEW010 12/11 Q1004 R11/290095=
201911042030 METAR LRTR 042030Z 21002KT 9999 2000E BCFG FEW010 11/11 Q1004
                        R11/290095=
201911042100 METAR LRTR 042100Z 16004KT 140V200 9999 1200E R11/1300U R29/0750U
                        BCFG FEW010 09/09 Q1004 R11/290095=
201911042130 METAR LRTR 042130Z 14004KT 0800 R11/0900N R29/1000N FG FEW010
                        09/09 Q1005 R11/290095=
201911042200 METAR LRTR 042200Z 13004KT 0600 R11/1100U R29/0550N FG FEW005
                        08/08 Q1005 R11/290095=
201911042230 METAR COR LRTR 042230Z 11004KT 0400 R11/0450N R29/0900D FG
                        FEW002 07/07 Q1005 R11/290095=
201911042300 METAR LRTR 042300Z 12005KT 0400 R11/1300D R29/0500N FG SCT003
                        08/08 Q1005 R11/290095=
201911042330 METAR LRTR 042330Z 11006KT 0500 R11/0600N R29/0900D FG SCT002
                        07/07 Q1005 R11/290095=
201911050000 METAR LRTR 050000Z 11006KT 0500 R11/1100D R29/0600D FG SCT002
                        08/08 Q1006 R11/290095=
201911050030 METAR LRTR 050030Z 12007KT 1000 R11/1000D R29/1000D BR SCT003
                        07/07 Q1006 R11/290095=
201911050100 METAR LRTR 050100Z 12007KT 3000 R11/1600D R29/1200D BR FEW003
                        08/07 Q1005 R11/290095=
201911050130 METAR LRTR 050130Z 12006KT 3000 R11/1400D R29/2000U BR FEW003
                        07/07 Q1006 R11/290095=
201911050200 METAR LRTR 050200Z 13007KT 5000 BR NSC 07/07 Q1005 R11/290095=
201911050230 METAR LRTR 050230Z 12007KT 8000 NSC 07/07 Q1006 R11/290095=
201911050300 METAR COR LRTR 050300Z 13007KT 8000 NSC 07/07 Q1006 R11/290095=
201911050330 METAR LRTR 050330Z 11006KT CAVOK 06/06 Q1006 R11/290095=
201911050400 METAR LRTR 050400Z 11006KT CAVOK 07/07 Q1006 R11/290095=
201911050430 METAR LRTR 050430Z 10007KT CAVOK 07/07 Q1006 R11/290095=
201911050500 METAR LRTR 050500Z 11006KT CAVOK 07/07 Q1006 R11/290095=
201911050530 METAR LRTR 050530Z 11006KT CAVOK 07/07 Q1006 R11/290095=
201911050600 METAR LRTR 050600Z 11007KT CAVOK 07/07 Q1007 R11/290095=
201911050630 METAR LRTR 050630Z 11006KT CAVOK 09/08 Q1006 R11/290095=
201911050700 METAR LRTR 050700Z 11006KT CAVOK 11/10 Q1006 R11/290095=
201911050730 METAR LRTR 050730Z 14007KT CAVOK 12/10 Q1006 R11/190095=
201911050800 METAR LRTR 050800Z 13006KT CAVOK 14/11 Q1007 R11/190095=
201911050830 METAR LRTR 050830Z 15008KT CAVOK 16/11 Q1006 R11/190095=
201911050900 METAR LRTR 050900Z 17014KT CAVOK 18/09 Q1006 R11/190095=
201911050930 METAR LRTR 050930Z 18015KT CAVOK 19/09 Q1006 R11/190095=
201911051000 METAR LRTR 051000Z 18016KT CAVOK 20/09 Q1005 R11/190095=
201911051030 METAR LRTR 051030Z 18016KT CAVOK 20/09 Q1004 R11/190095=
201911051100 METAR LRTR 051100Z 18016KT CAVOK 21/09 Q1004 R11/190095=
201911051130 METAR LRTR 051130Z 18018KT CAVOK 22/09 Q1004 R11/190095=
201911051200 METAR LRTR 051200Z 17019KT CAVOK 22/09 Q1003 R11/190095=
201911051230 METAR LRTR 051230Z 18016KT CAVOK 22/09 Q1003 R11/190095=
201911051300 METAR LRTR 051300Z 18018KT CAVOK 22/09 Q1003 R11/190095=
201911051330 METAR LRTR 051330Z 18015KT CAVOK 22/09 Q1003 R11/190095=
201911051400 METAR LRTR 051400Z 18016KT CAVOK 22/09 Q1002 R11/190095=
201911051430 METAR LRTR 051430Z 18014KT CAVOK 22/09 Q1002 R11/190095=
201911051500 METAR LRTR 051500Z 18012KT CAVOK 21/09 Q1002 R11/CLRD//=
201911051530 METAR LRTR 051530Z 18014KT CAVOK 21/08 Q1002=
201911051600 METAR LRTR 051600Z 17011KT CAVOK 19/09 Q1002=
201911051630 METAR LRTR 051630Z 17010KT CAVOK 19/09 Q1002=
201911051700 METAR LRTR 051700Z 17011KT CAVOK 18/09 Q1002=
201911051730 METAR LRTR 051730Z 16012KT CAVOK 18/09 Q1002=
201911051800 METAR LRTR 051800Z 16014KT CAVOK 19/09 Q1001=
201911051830 METAR LRTR 051830Z 17015KT CAVOK 19/09 Q1001=
201911051900 METAR LRTR 051900Z 18018KT CAVOK 19/09 Q1001=
201911051930 METAR LRTR 051930Z NIL=
201911052000 METAR COR LRTR 052000Z 18019KT CAVOK 19/09 Q1000=
201911052030 METAR LRTR 052030Z 18018KT CAVOK 19/09 Q1000=
201911052100 METAR LRTR 052100Z 18016KT CAVOK 18/09 Q1000=
201911052130 METAR LRTR 052130Z 18016KT CAVOK 18/09 Q1000=
201911052200 METAR COR LRTR 052200Z 18017KT CAVOK 18/09 Q1000=
201911052230 METAR COR LRTR 052230Z 18018KT CAVOK 18/09 Q1000=
201911052300 METAR COR LRTR 052300Z 18020KT CAVOK 19/09 Q1000=
201911052330 METAR COR LRTR 052330Z 18019KT CAVOK 19/09 Q1000=
201911060000 METAR LRTR 060000Z 17018KT CAVOK 18/09 Q1000=
201911060030 METAR LRTR 060030Z 18019KT CAVOK 19/09 Q0999=
201911060100 METAR LRTR 060100Z 17018KT CAVOK 19/09 Q0999=
201911060130 METAR COR LRTR 060130Z 18017KT CAVOK 19/09 Q0999=
201911060200 METAR COR LRTR 060200Z 18015KT CAVOK 18/09 Q0999=
201911060230 METAR LRTR 060230Z 19015KT CAVOK 19/09 Q0999=
201911060300 METAR COR LRTR 060300Z 28015KT 9999 -SHRA FEW050CB 17/11
                        Q1002=
201911060330 METAR LRTR 060330Z 32010KT 9999 FEW050CB 14/13 Q1002 R11/190095=
201911060400 METAR LRTR 060400Z 33008KT 9999 FEW050CB 14/13 Q1002 R11/190095=
201911060430 METAR LRTR 060430Z 31010KT 6000 SHRA BKN040CB 13/13 Q1003
                        R11/290095=
201911060500 METAR LRTR 060500Z 28008KT 6000 SHRA FEW020 BKN045CB 13/13
                        Q1004 R11/290095=
201911060530 METAR LRTR 060530Z 28004KT 250V310 8000 SHRA FEW020 SCT045CB
                        13/13 Q1004 R11/290095=
201911060600 METAR LRTR 060600Z 18005KT 9999 -SHRA SCT030 FEW050CB 13/13
                        Q1004 R11/290095=
201911060630 METAR LRTR 060630Z 16007KT 9999 -SHRA SCT030 FEW050CB 13/13
                        Q1004 R11/290095=
201911060700 METAR LRTR 060700Z 18008KT 9999 -SHRA SCT023 FEW050CB 13/13
                        Q1005 R11/290095=
201911060730 METAR LRTR 060730Z 17010KT 9999 -SHRA FEW004 SCT025 FEW050CB
                        13/13 Q1006 R11/290095=
201911060800 METAR LRTR 060800Z 18010KT 9999 -RA FEW004 SCT025 FEW050CB
                        13/12 Q1006 R11/290095=
201911060830 METAR LRTR 060830Z 19011KT 9999 -RA SCT030 FEW050CB 13/12
                        Q1007 R11/290095 NOSIG=
201911060900 METAR LRTR 060900Z 18011KT 9999 FEW005 SCT030 FEW050CB 13/11
                        Q1006 R11/290095 NOSIG=
201911060930 METAR LRTR 060930Z 19010KT 9999 FEW005 SCT035 13/12 Q1007
                        R11/290095 NOSIG=
201911061000 METAR LRTR 061000Z 19011KT 9999 FEW007 SCT040 13/12 Q1007
                        R11/290095 NOSIG=
201911061030 METAR LRTR 061030Z 19010KT 9999 -RA FEW010 BKN045 14/12 Q1007
                        R11/290095 NOSIG=
201911061100 METAR LRTR 061100Z 19009KT 9999 FEW012 BKN045 13/12 Q1007
                        R11/290095 NOSIG=
201911061130 METAR LRTR 061130Z 18008KT 9999 FEW011 BKN045 13/11 Q1007
                        R11/290095 NOSIG=
201911061200 METAR LRTR 061200Z 20007KT 9999 FEW011 BKN047 13/11 Q1007
                        R11/290095 NOSIG=
201911061230 METAR LRTR 061230Z 21008KT 9999 FEW011 BKN047 14/11 Q1008
                        R11/290095 NOSIG=
201911061300 METAR LRTR 061300Z 19005KT 9999 FEW010 BKN049 14/11 Q1007
                        R11/19//95 NOSIG=
201911061330 METAR LRTR 061330Z 19005KT 9999 FEW010 BKN049 14/11 Q1007
                        R11/19//95 NOSIG=
201911061400 METAR LRTR 061400Z 18005KT 130V220 9999 SCT049 14/11 Q1007
                        R11/19//95 NOSIG=
201911061430 METAR LRTR 061430Z 17004KT CAVOK 14/12 Q1008 R11/19//95 NOSIG=
201911061500 METAR LRTR 061500Z 18003KT CAVOK 13/12 Q1007 R11/19//95 NOSIG=
201911061530 METAR LRTR 061530Z 14004KT CAVOK 13/11 Q1008 R11/19//95=
201911061600 METAR LRTR 061600Z 17004KT 130V190 CAVOK 12/11 Q1008 R11/19//95=
201911061630 METAR LRTR 061630Z 12004KT CAVOK 12/11 Q1008 R11/19//95=
201911061700 METAR LRTR 061700Z 12004KT CAVOK 11/11 Q1008 R11/19//95=
201911061730 METAR COR LRTR 061730Z 12007KT CAVOK 11/11 Q1007 R11/19//95=
201911061800 METAR LRTR 061800Z 00000KT CAVOK 11/11 Q1008 R11/19//95=
201911061830 METAR LRTR 061830Z 08006KT CAVOK 11/11 Q1007 R11/19//95=
201911061900 METAR LRTR 061900Z 03003KT CAVOK 11/11 Q1008 R11/19//95=
201911061930 METAR LRTR 061930Z 11004KT CAVOK 11/10 Q1007 R11/19//95=
201911062000 METAR LRTR 062000Z 08007KT CAVOK 11/11 Q1007 R11/19//95=
201911062030 METAR LRTR 062030Z 11008KT CAVOK 11/11 Q1007 R11/19//95=
201911062100 METAR LRTR 062100Z 13009KT 9999 -RA NSC 12/11 Q1008 R11/19//95=
201911062130 METAR LRTR 062130Z 09008KT 9999 -RA FEW027 11/11 Q1006 R11/19//95=
201911062200 METAR LRTR 062200Z 10009KT CAVOK 11/11 Q1007 R11/19//95=
201911062230 METAR LRTR 062230Z 10011KT CAVOK 12/11 Q1006 R11/29//95=
201911062300 METAR LRTR 062300Z 11010KT CAVOK 12/11 Q1006 R11/29//95=
201911062330 METAR LRTR 062330Z 11009KT CAVOK 12/11 Q1006 R11/29//95=
201911070000 METAR LRTR 070000Z 11007KT CAVOK 11/11 Q1006 R11/29//95=
201911070030 METAR LRTR 070030Z 11007KT CAVOK 11/11 Q1007 R11/29//95=
201911070100 METAR LRTR 070100Z 12008KT CAVOK 12/11 Q1006 R11/29//95=
201911070130 METAR LRTR 070130Z 13009KT CAVOK 12/11 Q1006 R11/29//95=
201911070200 METAR LRTR 070200Z 12011KT CAVOK 11/11 Q1006 R11/29//95=
201911070230 METAR LRTR 070230Z 11006KT CAVOK 11/11 Q1006 R11/29//95=
201911070300 METAR LRTR 070300Z 12008KT CAVOK 11/11 Q1006 R11/29//95=
201911070330 METAR LRTR 070330Z 12006KT CAVOK 11/11 Q1006 R11/29//95=
201911070400 METAR LRTR 070400Z 11007KT CAVOK 10/10 Q1006 R11/29//95=
201911070430 METAR LRTR 070430Z 12008KT CAVOK 10/10 Q1006 R11/29//95=
201911070500 METAR LRTR 070500Z 11004KT CAVOK 10/10 Q1006 R11/29//95=
201911070530 METAR LRTR 070530Z 11005KT CAVOK 10/10 Q1006 R11/29//95 NOSIG=
201911070600 METAR LRTR 070600Z 12006KT CAVOK 10/10 Q1006 R11/29//95 NOSIG=
201911070630 METAR LRTR 070630Z 11005KT CAVOK 11/11 Q1007 R11/29//95 NOSIG=
201911070700 METAR LRTR 070700Z 14005KT 9999 FEW017 12/12 Q1007 R11/19//95
                        NOSIG=
201911070730 METAR LRTR 070730Z 20004KT 140V240 9999 FEW005 SCT017 13/12
                        Q1007 R11/19//95 NOSIG=
201911070800 METAR LRTR 070800Z 23006KT 210V280 8000 SCT004 SCT018 13/12
                        Q1008 R11/19//95 NOSIG=
201911070830 METAR COR LRTR 070830Z 24006KT 190V280 8000 SCT004 SCT017
                        13/12 Q1008 R11/19//95 NOSIG=
201911070900 METAR LRTR 070900Z 27008KT 6000 SCT004 SCT015 12/12 Q1008
                        R11/19//95 TEMPO 5000 BR=
201911070930 METAR LRTR 070930Z 27006KT 6000 SCT005 SCT010 13/12 Q1008
                        R11/19//95 TEMPO 5000 BR=
201911071000 METAR LRTR 071000Z 25005KT 8000 FEW007 SCT015 13/11 Q1008
                        R11/19//95 NOSIG=
201911071030 METAR LRTR 071030Z 26005KT 8000 FEW010 14/11 Q1008 R11/19//95
                        NOSIG=
201911071100 METAR LRTR 071100Z 27004KT 230V290 9000 FEW012 14/11 Q1008
                        R11/19//95 NOSIG=
201911071130 METAR LRTR 071130Z 19003KT 150V230 9999 FEW015 14/11 Q1008
                        R11/19//95 NOSIG=
201911071200 METAR LRTR 071200Z VRB01KT CAVOK 14/10 Q1008 R11/19//95 NOSIG=
201911071230 METAR LRTR 071230Z 00000KT CAVOK 15/11 Q1009 R11/19//95 NOSIG=
201911071300 METAR LRTR 071300Z 29005KT 260V320 9999 FEW016 14/10 Q1009
                        R11/19//95=
201911071330 METAR LRTR 071330Z VRB01KT 9999 FEW016 15/11 Q1009 R11/19//95=
201911071400 METAR LRTR 071400Z VRB01KT 9999 FEW018 15/11 Q1009 R11/CLRD//=
201911071430 METAR LRTR 071430Z VRB01KT 9999 FEW018 14/11 Q1009 R11/CLRD//=
201911071500 METAR LRTR 071500Z 00000KT 9999 SCT048 14/11 Q1009=
201911071530 METAR LRTR 071530Z 18002KT 8000 SCT045 12/11 Q1010=
201911071600 METAR LRTR 071600Z 15004KT 8000 FEW045 12/10 Q1010=
201911071630 METAR LRTR 071630Z VRB02KT 6000 FEW045 10/10 Q1010=
201911071700 METAR LRTR 071700Z 05004KT 6000 FEW045 10/10 Q1011=
201911071730 METAR LRTR 071730Z 08005KT 5000 BR NSC 09/09 Q1010=
201911071800 METAR LRTR 071800Z 08005KT 5000 BR NSC 09/09 Q1010=
201911071830 METAR LRTR 071830Z 07006KT 5000 BR NSC 09/08 Q1011=
201911071900 METAR LRTR 071900Z 07005KT 4500 BR NSC 08/08 Q1011=
201911071930 METAR LRTR 071930Z 07006KT 5000 BR NSC 08/08 Q1011=
201911072000 METAR LRTR 072000Z 08006KT 5000 BR NSC 08/08 Q1011=
201911072030 METAR LRTR 072030Z 10006KT 5000 BR NSC 08/08 Q1011=
201911072100 METAR LRTR 072100Z 07006KT 5000 BR NSC 08/08 Q1011=
201911072130 METAR LRTR 072130Z 08005KT 5000 BR NSC 08/08 Q1010=
201911072200 METAR COR LRTR 072200Z 10006KT 6000 NSC 08/08 Q1011=
201911072230 METAR LRTR 072230Z 09005KT 5000 BR NSC 08/08 Q1011=
201911072300 METAR LRTR 072300Z 07006KT 5000 BR NSC 08/08 Q1011=
201911072330 METAR COR LRTR 072330Z 08007KT 5000 BR NSC 09/09 Q1010=
201911080000 METAR LRTR 080000Z 08007KT 5000 BR NSC 10/10 Q1010=
201911080030 METAR LRTR 080030Z 08003KT 320V120 3000 BR FEW002 08/08 Q1011=
201911080100 METAR LRTR 080100Z 11002KT 0400 R11/0450D R29/0400N FG BKN003
                        08/08 Q1011=
201911080130 METAR LRTR 080130Z 10005KT 0250 R11/0300N R29/0400U FG BKN001
                        07/07 Q1010=
201911080200 METAR LRTR 080200Z 07004KT 0550 R11/0700D R29/0800N FG BKN001
                        08/08 Q1010=
201911080230 METAR LRTR 080230Z 36003KT 1500 BR BKN002 07/07 Q1010=
201911080300 METAR LRTR 080300Z AUTO 07006KT 4100 R11/P2000 R29/1000VP2000D
                        SCT170/// 07/07 Q1009 REUP=
201911080330 METAR COR LRTR 080330Z 02003KT 3500 BR SCT002 07/07 Q1009=
201911080400 METAR LRTR 080400Z 05006KT 5000 BR NSC 08/08 Q1009=
201911080430 METAR LRTR 080430Z 07006KT 8000 NSC 09/09 Q1009=
201911080500 METAR LRTR 080500Z 08005KT CAVOK 09/09 Q1009=
201911080530 METAR LRTR 080530Z 08004KT 8000 -RA NSC 10/10 Q1009 NOSIG=
201911080600 METAR LRTR 080600Z 06004KT 7000 -RA SCT047 10/10 Q1009 R11/190095
                        TEMPO 5000 RA BR=
201911080630 METAR LRTR 080630Z 07002KT 5000 RA BR FEW028 BKN035 OVC045
                        10/10 Q1009 R11/190095 TEMPO 3000
                        RA BR=
201911080700 METAR LRTR 080700Z 04002KT 3000 RA BR SCT028 OVC040 11/11
                        Q1009 R11/290095 TEMPO 1500 +RA BR=
201911080730 METAR LRTR 080730Z 09006KT 5000 RA BR SCT028 OVC040 11/11
                        Q1009 R11/290095 NOSIG=
201911080800 METAR LRTR 080800Z 08007KT 8000 -RA SCT030 OVC045 12/12 Q1009
                        RERA R11/290095 NOSIG=
201911080830 METAR COR LRTR 080830Z 08008KT 5000 -RA BR BKN026 BKN043
                        12/12 Q1009 R11/290095 TEMPO 3000
                        RA BR=
201911080900 METAR LRTR 080900Z 08009KT 5000 RA BR FEW015 BKN029 OVC048
                        12/12 Q1008 R11/290095 NOSIG=
201911080930 METAR LRTR 080930Z 08008KT 8000 -RA FEW015 SCT030 BKN045
                        13/12 Q1008 RERA R11/290095 NOSIG=
201911081000 METAR LRTR 081000Z 07006KT 9999 -RA FEW015 SCT030 BKN044
                        13/12 Q1008 R11/290095 NOSIG=
201911081030 METAR LRTR 081030Z 09005KT 9999 FEW015 SCT035 14/13 Q1008
                        R11/290095 NOSIG=
201911081100 METAR LRTR 081100Z 08003KT 9999 FEW008 BKN048 14/13 Q1008
                        R11/290095 NOSIG=
201911081130 METAR LRTR 081130Z 09006KT 9999 FEW008 SCT044 15/13 Q1007
                        R11/290095 NOSIG=
201911081200 METAR LRTR 081200Z 09006KT 9999 FEW018 BKN043 15/13 Q1007
                        R11/290095 NOSIG=
201911081230 METAR LRTR 081230Z 10008KT 9999 FEW020 BKN042 15/14 Q1007
                        R11/290095 NOSIG=
201911081300 METAR LRTR 081300Z 10008KT 9999 FEW020 BKN040 16/14 Q1007
                        R11/290095 NOSIG=
201911081330 METAR LRTR 081330Z 11006KT 9999 FEW025 BKN041 16/14 Q1007
                        R11/290095 NOSIG=
201911081400 METAR LRTR 081400Z 13004KT 9999 FEW030 BKN040 16/14 Q1007
                        R11/290095 NOSIG=
201911081430 METAR LRTR 081430Z 12007KT 9999 SCT035 16/14 Q1007 R11/190095
                        NOSIG=
201911081500 METAR LRTR 081500Z 14007KT 9999 SCT037 16/13 Q1007 R11/190095
                        NOSIG=
201911081530 METAR LRTR 081530Z 15005KT 9999 FEW040 15/12 Q1007 R11/190095
                        NOSIG=
201911081600 METAR LRTR 081600Z 15004KT 9999 FEW045 14/12 Q1008 R11/190095
                        NOSIG=
201911081630 METAR LRTR 081630Z 14005KT 9999 FEW048 14/12 Q1008 R11/190095
                        NOSIG=
201911081700 METAR LRTR 081700Z 04003KT CAVOK 14/11 Q1008 R11/190095 NOSIG=
201911081730 METAR LRTR 081730Z 12006KT CAVOK 11/11 Q1008 R11/190095=
201911081800 METAR LRTR 081800Z 14006KT CAVOK 12/11 Q1008 R11/190095=
201911081830 METAR LRTR 081830Z 12005KT CAVOK 11/10 Q1008 R11/190095=
201911081900 METAR LRTR 081900Z 11005KT CAVOK 11/10 Q1008 R11/190095=
201911081930 METAR LRTR 081930Z 10007KT CAVOK 11/11 Q1009 R11/190095=
201911082000 METAR LRTR 082000Z 11008KT CAVOK 11/10 Q1009 R11/190095=
201911082030 METAR LRTR 082030Z 10006KT CAVOK 10/10 Q1009 R11/190095=
201911082100 METAR LRTR 082100Z 10006KT CAVOK 10/10 Q1009 R11/190095=
201911082130 METAR LRTR 082130Z 13007KT CAVOK 10/09 Q1009 R11/190095=
201911082200 METAR LRTR 082200Z 15007KT CAVOK 10/09 Q1010 R11/190095=
201911082230 METAR LRTR 082230Z 16006KT CAVOK 11/10 Q1010 R11/190095=
201911082300 METAR LRTR 082300Z 17008KT CAVOK 13/11 Q1010 R11/190095=
201911082330 METAR LRTR 082330Z 18007KT CAVOK 12/10 Q1010 R11/190095=
201911090000 METAR LRTR 090000Z 18006KT CAVOK 12/10 Q1010 R11/190095=
201911090030 METAR LRTR 090030Z 18007KT CAVOK 12/10 Q1010 R11/190095=
201911090100 METAR LRTR 090100Z 16006KT CAVOK 12/10 Q1010 R11/190095=
201911090130 METAR LRTR 090130Z 13006KT CAVOK 09/08 Q1010 R11/190095=
201911090200 METAR COR LRTR 090200Z 11006KT CAVOK 08/08 Q1011 R11/190095=
201911090230 METAR LRTR 090230Z 12007KT CAVOK 09/08 Q1011 R11/190095=
201911090300 METAR LRTR 090300Z 12007KT CAVOK 09/08 Q1010 R11/190095=
201911090330 METAR COR LRTR 090330Z 11008KT CAVOK 09/08 Q1011 R11/190095=
201911090400 METAR LRTR 090400Z 11008KT CAVOK 09/08 Q1011 R11/15//95=
201911090430 METAR LRTR 090430Z 12009KT CAVOK 09/08 Q1011 R11/15//95=
201911090500 METAR LRTR 090500Z 12009KT CAVOK 09/08 Q1011 R11/15//95=
201911090530 METAR LRTR 090530Z 12009KT CAVOK 09/09 Q1011 R11/15//95=
201911090600 METAR LRTR 090600Z 12009KT CAVOK 10/09 Q1011 R11/15//95=
201911090630 METAR LRTR 090630Z 11008KT CAVOK 11/10 Q1011 R11/15//95=
201911090700 METAR LRTR 090700Z 11009KT CAVOK 12/10 Q1011 R11/15//95=
201911090730 METAR LRTR 090730Z 11010KT CAVOK 13/11 Q1011 R11/15//95=
201911090800 METAR LRTR 090800Z 12010KT CAVOK 14/11 Q1011 R11/15//95=
201911090830 METAR LRTR 090830Z 11008KT CAVOK 15/11 Q1011 R11/15//95=
201911090900 METAR LRTR 090900Z 14008KT CAVOK 17/11 Q1011 R11/15//95=
201911090930 METAR LRTR 090930Z 17015KT CAVOK 19/09 Q1011 R11/15//95=
201911091000 METAR LRTR 091000Z 17019KT CAVOK 20/09 Q1011 R11/15//95=
201911091030 METAR LRTR 091030Z 18017KT CAVOK 20/09 Q1011 R11/15//95=
201911091100 METAR LRTR 091100Z 17016KT CAVOK 20/09 Q1010 R11/15//95=
201911091130 METAR LRTR 091130Z 18015KT CAVOK 21/09 Q1010 R11/15//95=
201911091200 METAR LRTR 091200Z 18014KT CAVOK 20/09 Q1010 R11/15//95=
201911091230 METAR LRTR 091230Z 18016KT CAVOK 20/09 Q1010 R11/15//95=
201911091300 METAR LRTR 091300Z 18014KT CAVOK 20/09 Q1010 R11/15//95=
201911091330 METAR LRTR 091330Z 18012KT CAVOK 19/09 Q1010 R11/15//95=
201911091400 METAR LRTR 091400Z 17011KT CAVOK 19/10 Q1010 R11/15//95=
201911091430 METAR LRTR 091430Z 17010KT CAVOK 18/10 Q1010 R11/15//95=
201911091500 METAR LRTR 091500Z 17009KT CAVOK 18/09 Q1010 R11/15//95=
201911091530 METAR LRTR 091530Z 18007KT CAVOK 16/09 Q1010 R11/15//95=
201911091600 METAR LRTR 091600Z 12005KT CAVOK 14/09 Q1010 R11/CLRD//=
201911091630 METAR LRTR 091630Z 13005KT CAVOK 15/09 Q1010=
201911091700 METAR LRTR 091700Z 12006KT CAVOK 13/09 Q1010=
201911091730 METAR LRTR 091730Z 13005KT CAVOK 12/09 Q1010=
201911091800 METAR LRTR 091800Z 12006KT CAVOK 12/09 Q1010=
201911091830 METAR LRTR 091830Z 12007KT CAVOK 12/09 Q1010=
201911091900 METAR LRTR 091900Z 12006KT CAVOK 12/09 Q1010=
201911091930 METAR COR LRTR 091930Z 12008KT CAVOK 13/09 Q1010=
201911092000 METAR LRTR 092000Z 31007KT CAVOK 13/09 Q1010=
201911092030 METAR LRTR 092030Z 32008KT CAVOK 13/10 Q1010=
201911092100 METAR LRTR 092100Z 01005KT CAVOK 13/10 Q1010=
201911092130 METAR LRTR 092130Z 02005KT CAVOK 12/09 Q1010=
201911092200 METAR LRTR 092200Z 04003KT CAVOK 11/09 Q1010=
201911092230 METAR LRTR 092230Z 04005KT CAVOK 10/09 Q1009=
201911092300 METAR LRTR 092300Z 04006KT CAVOK 09/08 Q1009=
201911092330 METAR LRTR 092330Z 05007KT CAVOK 10/09 Q1009=
201911100000 METAR COR LRTR 100000Z 05006KT CAVOK 10/09 Q1009=
201911100030 METAR LRTR 100030Z 06006KT CAVOK 11/09 Q1009=
201911100100 METAR LRTR 100100Z 08006KT CAVOK 10/09 Q1008=
201911100130 METAR COR LRTR 100130Z 08007KT CAVOK 11/09 Q1007=
201911100200 METAR COR LRTR 100200Z 08007KT 9999 -RA NSC 11/09 Q1007=
201911100230 METAR LRTR 100230Z 08006KT CAVOK 11/10 Q1007=
201911100300 METAR LRTR 100300Z 09006KT CAVOK 12/10 Q1006=
201911100330 METAR LRTR 100330Z 12004KT CAVOK 11/10 Q1006=
201911100400 METAR LRTR 100400Z 11006KT CAVOK 12/10 Q1007=
201911100430 METAR LRTR 100430Z 12007KT 9999 -RA NSC 12/10 Q1007=
201911100500 METAR LRTR 100500Z 12006KT 9999 -RA BKN045 11/11 Q1007 R11/290095=
201911100530 METAR LRTR 100530Z 11007KT 9999 -RA BKN045 12/11 Q1007 RERA
                        R11/290095=
201911100600 METAR LRTR 100600Z 11007KT 9999 -RA BKN044 12/11 Q1007 R11/290095=
201911100630 METAR LRTR 100630Z 11008KT 9999 -RA BKN045 12/11 Q1007 R11/290095=
201911100700 METAR LRTR 100700Z 11007KT 9999 -RA NSC 13/12 Q1006 R11/290095=
201911100730 METAR LRTR 100730Z 11008KT 9999 -RA NSC 13/12 Q1006 R11/290095=
201911100800 METAR LRTR 100800Z 11009KT 9999 -RA FEW043 13/12 Q1006 R11/290095=
201911100830 METAR LRTR 100830Z 11009KT 9999 FEW045 14/13 Q1006 R11/290095=
201911100900 METAR LRTR 100900Z 14010KT 9999 FEW047 16/13 Q1007 R11/290095=
201911100930 METAR LRTR 100930Z 17014KT CAVOK 18/12 Q1007 R11/290095=
201911101000 METAR LRTR 101000Z 18017KT CAVOK 18/11 Q1007 R11/290095=
201911101030 METAR LRTR 101030Z 18016KT CAVOK 19/11 Q1007 R11/290095=
201911101100 METAR LRTR 101100Z 18016KT 9999 FEW042 19/11 Q1007 R11/290095=
201911101130 METAR LRTR 101130Z 20013KT 9999 BKN040 18/10 Q1007 R11/15//95=
201911101200 METAR LRTR 101200Z 22012KT 180V240 9999 BKN043 18/09 Q1007
                        R11/15//95=
201911101230 METAR LRTR 101230Z 24017KT 9999 SCT043 19/07 Q1007 R11/15//95=
201911101300 METAR LRTR 101300Z 25015KT 9999 SCT043 FEW050CB 18/08 Q1008
                        R11/15//95=
201911101330 METAR LRTR 101330Z 26009KT 9999 SCT045 FEW050CB 16/09 Q1008
                        R11/15//95=
201911101400 METAR LRTR 101400Z 27011KT 9999 SCT045 FEW050CB 16/11 Q1008
                        R11/CLRD//=
201911101430 METAR LRTR 101430Z 28013KT 9999 FEW047 FEW050CB 15/11 Q1009=
201911101500 METAR LRTR 101500Z 28011KT 9999 FEW050CB 13/10 Q1009=
201911101530 METAR LRTR 101530Z 29008KT 9999 FEW050CB 11/10 Q1010=
201911101600 METAR LRTR 101600Z 29007KT 9999 FEW055CB 11/09 Q1010=
201911101630 METAR LRTR 101630Z 30009KT 9999 SCT009 10/09 Q1011=
201911101700 METAR LRTR 101700Z 28006KT 9999 BKN010 10/08 Q1012=
201911101730 METAR LRTR 101730Z 24003KT 200V260 9999 SCT010 10/08 Q1013=
201911101800 METAR LRTR 101800Z 26007KT 9999 SCT012 09/08 Q1013=
201911101830 METAR LRTR 101830Z 27005KT 9999 -RA BKN010 09/09 Q1014=
201911101900 METAR LRTR 101900Z 24003KT 9999 OVC011 09/09 Q1014=
201911101930 METAR LRTR 101930Z 24004KT 9999 OVC012 09/08 Q1015=
201911102000 METAR LRTR 102000Z 24004KT 9999 OVC011 09/08 Q1015=
201911102030 METAR LRTR 102030Z 32007KT 9999 OVC010 09/08 Q1015=
201911102100 METAR LRTR 102100Z 27006KT 9999 OVC009 09/08 Q1016=
201911102130 METAR LRTR 102130Z 27003KT 230V300 9999 OVC009 09/08 Q1016=
201911102200 METAR LRTR 102200Z 23004KT 9999 OVC009 09/08 Q1016=
201911102230 METAR LRTR 102230Z 24004KT 9999 BKN010 09/08 Q1017=
201911102300 METAR LRTR 102300Z 25008KT 9999 OVC009 09/08 Q1017=
201911102330 METAR LRTR 102330Z 26006KT 9999 OVC010 08/07 Q1017=
201911110000 METAR LRTR 110000Z 26006KT 9999 BKN009 08/07 Q1017=
201911110030 METAR LRTR 110030Z 27006KT 9999 FEW010 08/06 Q1018=
201911110100 METAR LRTR 110100Z 30004KT CAVOK 07/06 Q1018=
201911110130 METAR LRTR 110130Z 28003KT CAVOK 06/05 Q1018=
201911110200 METAR LRTR 110200Z 29003KT CAVOK 06/05 Q1018=
201911110230 METAR LRTR 110230Z 00000KT CAVOK 06/06 Q1018=
201911110300 METAR LRTR 110300Z 00000KT CAVOK 06/06 Q1019=
201911110330 METAR LRTR 110330Z 25002KT CAVOK 06/06 Q1019=
201911110400 METAR COR LRTR 110400Z 21003KT 150V240 9000 FEW005 06/06
                        Q1019=
201911110430 METAR COR LRTR 110430Z VRB01KT 7000 SCT005 06/06 Q1019=
201911110500 METAR LRTR 110500Z VRB01KT 6000 BKN005 06/06 Q1019=
201911110530 METAR LRTR 110530Z 05002KT 6000 BKN005 06/06 Q1020=
201911110600 METAR LRTR 110600Z 07003KT 040V100 6000 SCT005 06/06 Q1020=
201911110630 METAR LRTR 110630Z 07002KT 7000 FEW005 07/07 Q1020=
201911110700 METAR LRTR 110700Z 10003KT 9000 NSC 08/07 Q1020=
201911110730 METAR LRTR 110730Z 09005KT 9999 FEW022 08/08 Q1020=
201911110800 METAR LRTR 110800Z 12006KT 9999 FEW010 10/08 Q1020=
201911110830 METAR LRTR 110830Z 15005KT 9999 FEW009 10/08 Q1020=
201911110900 METAR LRTR 110900Z 15004KT 090V180 9999 SCT012 11/08 Q1020=
201911110930 METAR LRTR 110930Z 11005KT 050V150 9999 SCT015 11/07 Q1019=
201911111000 METAR LRTR 111000Z 16004KT 110V210 9999 FEW017 12/07 Q1019=
201911111030 METAR LRTR 111030Z 12004KT 080V170 9999 SCT018 12/07 Q1019=
201911111100 METAR LRTR 111100Z 14003KT 100V230 9999 SCT022 13/06 Q1018=
201911111130 METAR LRTR 111130Z 10005KT 010V140 9999 SCT025 13/07 Q1018=
201911111200 METAR LRTR 111200Z 14005KT 090V180 9999 SCT024 13/07 Q1018=
201911111230 METAR LRTR 111230Z 14004KT 100V160 9999 FEW025 13/07 Q1018=
201911111300 METAR LRTR 111300Z 10004KT 070V130 9999 FEW025 13/07 Q1018=
201911111330 METAR LRTR 111330Z 09005KT 9999 FEW028 13/07 Q1017=
201911111400 METAR LRTR 111400Z 11004KT CAVOK 12/07 Q1017=
201911111430 METAR LRTR 111430Z 09002KT CAVOK 12/08 Q1017=
201911111500 METAR LRTR 111500Z 11002KT CAVOK 11/08 Q1017=
201911111530 METAR LRTR 111530Z 07004KT CAVOK 10/08 Q1016=
201911111600 METAR LRTR 111600Z 08005KT CAVOK 09/07 Q1016=
201911111630 METAR LRTR 111630Z 10005KT CAVOK 08/07 Q1016=
201911111700 METAR LRTR 111700Z 10006KT CAVOK 08/07 Q1016=
201911111730 METAR LRTR 111730Z 08006KT CAVOK 07/06 Q1016=
201911111800 METAR LRTR 111800Z 07007KT CAVOK 07/06 Q1016=
201911111830 METAR LRTR 111830Z 08008KT CAVOK 07/06 Q1015=
201911111900 METAR LRTR 111900Z 08006KT CAVOK 07/06 Q1015=
201911111930 METAR LRTR 111930Z 09006KT CAVOK 06/06 Q1016=
201911112000 METAR LRTR 112000Z 09007KT CAVOK 06/06 Q1015=
201911112030 METAR LRTR 112030Z 10010KT CAVOK 07/06 Q1015=
201911112100 METAR LRTR 112100Z 09007KT CAVOK 06/06 Q1015=
201911112130 METAR LRTR 112130Z 10008KT CAVOK 07/06 Q1015=
201911112200 METAR LRTR 112200Z 11006KT CAVOK 05/05 Q1015=
201911112230 METAR LRTR 112230Z 10006KT CAVOK 06/05 Q1015=
201911112300 METAR LRTR 112300Z 10008KT CAVOK 08/06 Q1015=
201911112330 METAR LRTR 112330Z 10008KT CAVOK 07/05 Q1015=
201911120000 METAR LRTR 120000Z 09009KT CAVOK 08/06 Q1015=
201911120030 METAR LRTR 120030Z 09010KT CAVOK 08/06 Q1014=
201911120100 METAR LRTR 120100Z 10010KT CAVOK 08/06 Q1014=
201911120130 METAR LRTR 120130Z 10010KT CAVOK 09/06 Q1014=
201911120200 METAR COR LRTR 120200Z 10012KT CAVOK 09/06 Q1013=
201911120230 METAR LRTR 120230Z 11010KT CAVOK 09/06 Q1013=
201911120300 METAR LRTR 120300Z 11009KT CAVOK 08/06 Q1013=
201911120330 METAR LRTR 120330Z 11008KT CAVOK 08/05 Q1013=
201911120400 METAR LRTR 120400Z 11010KT CAVOK 07/05 Q1013=
201911120430 METAR LRTR 120430Z 11011KT CAVOK 07/05 Q1012=
201911120500 METAR LRTR 120500Z 11011KT CAVOK 06/05 Q1012=
201911120530 METAR LRTR 120530Z 11009KT CAVOK 07/05 Q1012=
201911120600 METAR LRTR 120600Z 11010KT CAVOK 08/06 Q1012=
201911120630 METAR LRTR 120630Z 11012KT CAVOK 08/06 Q1012=
201911120700 METAR LRTR 120700Z 11014KT CAVOK 10/06 Q1012=
201911120730 METAR LRTR 120730Z 11014KT CAVOK 12/07 Q1011=
201911120800 METAR LRTR 120800Z 10014KT CAVOK 13/06 Q1011=
201911120830 METAR LRTR 120830Z 11014KT CAVOK 14/07 Q1011=
201911120900 METAR COR LRTR 120900Z 11013KT CAVOK 14/07 Q1011=
201911120930 METAR LRTR 120930Z 11012KT CAVOK 15/08 Q1010=
201911121000 METAR LRTR 121000Z 11014KT CAVOK 16/08 Q1009=
201911121030 METAR LRTR 121030Z 11014KT CAVOK 17/09 Q1009=
201911121100 METAR COR LRTR 121100Z 11015KT CAVOK 17/09 Q1009=
201911121130 METAR LRTR 121130Z 11013KT CAVOK 17/10 Q1009=
201911121200 METAR LRTR 121200Z 11011KT CAVOK 18/10 Q1008=
201911121230 METAR LRTR 121230Z 12013KT CAVOK 19/11 Q1008=
201911121300 METAR LRTR 121300Z 12011KT CAVOK 19/11 Q1008=
201911121330 METAR LRTR 121330Z 13011KT CAVOK 19/10 Q1007=
201911121400 METAR LRTR 121400Z 11009KT CAVOK 17/11 Q1007=
201911121430 METAR LRTR 121430Z 12010KT CAVOK 17/11 Q1008=
201911121500 METAR LRTR 121500Z 11010KT CAVOK 16/11 Q1007=
201911121530 METAR COR LRTR 121530Z 11013KT 9999 BKN150 16/10 Q1006=
201911121600 METAR LRTR 121600Z 10008KT CAVOK 15/10 Q1006=
201911121630 METAR LRTR 121630Z 13017KT CAVOK 19/10 Q1006=
201911121700 METAR COR LRTR 121700Z 13018KT CAVOK 19/10 Q1006=
201911121730 METAR LRTR 121730Z 13014KT CAVOK 19/10 Q1007=
201911121800 METAR LRTR 121800Z 11011KT CAVOK 17/10 Q1007=
201911121830 METAR LRTR 121830Z 11009KT CAVOK 17/10 Q1007=
201911121900 METAR LRTR 121900Z 13008KT CAVOK 17/10 Q1007=
201911121930 METAR LRTR 121930Z 12009KT CAVOK 16/11 Q1007=
201911122000 METAR LRTR 122000Z 15010KT CAVOK 18/10 Q1007=
201911122030 METAR LRTR 122030Z 13008KT CAVOK 18/10 Q1007=
201911122100 METAR LRTR 122100Z 14013KT CAVOK 18/10 Q1006=
201911122130 METAR LRTR 122130Z 14013KT CAVOK 19/10 Q1006=
201911122200 METAR LRTR 122200Z 13014KT CAVOK 19/10 Q1006=
201911122230 METAR LRTR 122230Z 14012KT CAVOK 18/10 Q1006=
201911122300 METAR LRTR 122300Z 13012KT CAVOK 19/10 Q1005=
201911122330 METAR LRTR 122330Z 14011KT CAVOK 19/10 Q1005=
201911130000 METAR LRTR 130000Z 13009KT CAVOK 18/10 Q1005=
201911130030 METAR LRTR 130030Z 13009KT CAVOK 17/10 Q1004=
201911130100 METAR LRTR 130100Z 13011KT CAVOK 17/10 Q1004=
201911130130 METAR LRTR 130130Z 13011KT CAVOK 18/10 Q1004=
201911130200 METAR LRTR 130200Z 13011KT CAVOK 18/09 Q1004=
201911130230 METAR LRTR 130230Z 13011KT CAVOK 17/10 Q1003=
201911130300 METAR LRTR 130300Z 13011KT CAVOK 18/09 Q1003=
201911130330 METAR COR LRTR 130330Z 14010KT CAVOK 18/09 Q1003=
201911130400 METAR LRTR 130400Z 20010KT 150V240 CAVOK 18/09 Q1004=
201911130430 METAR LRTR 130430Z 22009KT CAVOK 16/10 Q1004=
201911130500 METAR LRTR 130500Z 22012KT CAVOK 15/11 Q1005=
201911130530 METAR LRTR 130530Z 21012KT CAVOK 15/11 Q1005 NOSIG=
201911130600 METAR LRTR 130600Z 21013KT CAVOK 15/11 Q1005 NOSIG=
201911130630 METAR LRTR 130630Z 18013KT CAVOK 15/11 Q1005 NOSIG=
201911130700 METAR LRTR 130700Z 16012KT CAVOK 15/11 Q1005 NOSIG=
201911130730 METAR LRTR 130730Z 13019KT CAVOK 15/11 Q1004 NOSIG=
201911130800 METAR LRTR 130800Z 13014KT CAVOK 16/10 Q1003 NOSIG=
201911130830 METAR LRTR 130830Z 12018KT CAVOK 17/10 Q1002 NOSIG=
201911130900 METAR LRTR 130900Z 13014KT CAVOK 18/10 Q1003 NOSIG=
201911130930 METAR LRTR 130930Z 13018KT CAVOK 20/09 Q1003 NOSIG=
201911131000 METAR LRTR 131000Z 12022KT CAVOK 20/10 Q1002 NOSIG=
201911131030 METAR LRTR 131030Z 13022KT CAVOK 20/10 Q1002 NOSIG=
201911131100 METAR LRTR 131100Z 14019KT CAVOK 21/10 Q1002 NOSIG=
201911131130 METAR LRTR 131130Z 15016KT CAVOK 21/10 Q1002 NOSIG=
201911131200 METAR LRTR 131200Z 16024KT CAVOK 21/09 Q1001 NOSIG=
201911131230 METAR LRTR 131230Z 16020KT CAVOK 22/09 Q1002 NOSIG=
201911131300 METAR LRTR 131300Z 16020KT CAVOK 22/09 Q1002=
201911131330 METAR LRTR 131330Z 16018KT CAVOK 21/09 Q1003=
201911131400 METAR LRTR 131400Z 15019KT CAVOK 19/09 Q1002=
201911131430 METAR LRTR 131430Z 16016KT CAVOK 19/09 Q1003=
201911131500 METAR LRTR 131500Z 16017KT CAVOK 18/09 Q1003=
201911131530 METAR LRTR 131530Z 16016KT CAVOK 18/09 Q1003=
201911131600 METAR LRTR 131600Z 15014KT CAVOK 17/09 Q1003=
201911131630 METAR LRTR 131630Z 15015KT CAVOK 17/09 Q1003=
201911131700 METAR LRTR 131700Z 15016KT CAVOK 17/09 Q1004=
201911131730 METAR LRTR 131730Z 16014KT CAVOK 17/09 Q1004=
201911131800 METAR LRTR 131800Z 16015KT CAVOK 17/09 Q1004=
201911131830 METAR LRTR 131830Z 15015KT CAVOK 17/09 Q1004=
201911131900 METAR LRTR 131900Z 15013KT CAVOK 17/10 Q1005=
201911131930 METAR LRTR 131930Z 16012KT CAVOK 17/10 Q1006=
201911132000 METAR LRTR 132000Z 17009KT CAVOK 17/10 Q1006=
201911132030 METAR LRTR 132030Z 14006KT CAVOK 15/10 Q1006=
201911132100 METAR LRTR 132100Z 13006KT CAVOK 15/10 Q1006=
201911132130 METAR LRTR 132130Z 13006KT CAVOK 15/10 Q1007=
201911132200 METAR COR LRTR 132200Z 14006KT 9999 -RA NSC 15/10 Q1007=
201911132230 METAR LRTR 132230Z 13006KT CAVOK 15/10 Q1007=
201911132300 METAR LRTR 132300Z 13005KT 110V170 CAVOK 15/10 Q1007=
201911132330 METAR LRTR 132330Z 16006KT CAVOK 16/10 Q1007=
201911140000 METAR LRTR 140000Z 18005KT CAVOK 16/10 Q1008=
201911140030 METAR LRTR 140030Z 18005KT 9999 -RA NSC 15/11 Q1008=
201911140100 METAR LRTR 140100Z 21008KT CAVOK 16/10 Q1008=
201911140130 METAR LRTR 140130Z 20007KT CAVOK 15/10 Q1008=
201911140200 METAR LRTR 140200Z 21008KT 8000 SHRA FEW050CB 14/12 Q1009=
201911140230 METAR LRTR 140230Z 16003KT 110V190 9999 -RA FEW040 FEW050CB
                        13/12 Q1009 RESHRA=
201911140300 METAR LRTR 140300Z VRB02KT 9999 -RA BKN042 13/12 Q1009=
201911140330 METAR LRTR 140330Z 33004KT 9999 -RA OVC045 13/12 Q1009 R11/290095=
201911140400 METAR LRTR 140400Z 01003KT 9999 BKN045 13/12 Q1009 R11/290095=
201911140430 METAR LRTR 140430Z 34003KT 9999 BKN045 12/12 Q1009 R11/290095=
201911140500 METAR LRTR 140500Z VRB02KT 9999 FEW045 12/12 Q1010 R11/290095=
201911140530 METAR LRTR 140530Z 00000KT 8000 -RA SCT046 12/12 Q1010 R11/290095=
201911140600 METAR LRTR 140600Z 00000KT 6000 -RA SCT046 12/12 Q1010 R11/290095
                        TEMPO 5000 RA=
201911140630 METAR LRTR 140630Z VRB02KT 6000 -RA SCT047 12/12 Q1010 R11/290095
                        TEMPO 5000 RA=
201911140700 METAR LRTR 140700Z 09004KT 9999 FEW048 13/12 Q1011 R11/290095
                        NOSIG=
201911140730 METAR LRTR 140730Z 07003KT 9999 FEW048 13/12 Q1010 R11/290095
                        NOSIG=
201911140800 METAR LRTR 140800Z VRB01KT 9999 FEW049 14/12 Q1011 R11/290095
                        NOSIG=
201911140830 METAR LRTR 140830Z 00000KT 9999 FEW049 14/13 Q1011 R11/290095
                        NOSIG=
201911140900 METAR LRTR 140900Z 09002KT CAVOK 15/13 Q1011 R11/290095 NOSIG=
201911140930 METAR COR LRTR 140930Z VRB02KT CAVOK 16/12 Q1011 R11/290095
                        NOSIG=
201911141000 METAR LRTR 141000Z VRB01KT CAVOK 16/11 Q1011 R11/290095 NOSIG=
201911141030 METAR LRTR 141030Z 30004KT 290V060 CAVOK 16/14 Q1010 R11/290095
                        NOSIG=
201911141100 METAR LRTR 141100Z 34004KT CAVOK 16/12 Q1010 R11/290095 NOSIG=
201911141130 METAR LRTR 141130Z 32005KT CAVOK 17/13 Q1010 R11/290095 NOSIG=
201911141200 METAR LRTR 141200Z 32004KT 290V350 CAVOK 17/12 Q1010 R11/290095
                        NOSIG=
201911141230 METAR LRTR 141230Z 35003KT 310V010 CAVOK 17/12 Q1010 R11/290095
                        NOSIG=
201911141300 METAR LRTR 141300Z 01005KT CAVOK 16/13 Q1010 R11/290095 NOSIG=
201911141330 METAR LRTR 141330Z 35004KT CAVOK 16/12 Q1010 R11/290095 NOSIG=
201911141400 METAR LRTR 141400Z 34002KT CAVOK 15/13 Q1010 R11/290095 NOSIG=
201911141430 METAR LRTR 141430Z 35004KT 9999 -RA NSC 15/13 Q1010 R11/290095=
201911141500 METAR LRTR 141500Z 36004KT 9999 -RA NSC 14/13 Q1010 R11/290095=
201911141530 METAR LRTR 141530Z 02005KT 9999 -RA NSC 14/13 Q1010 R11/290095=
201911141600 METAR LRTR 141600Z 02005KT 9999 -RA NSC 14/13 Q1011 R11/290095=
201911141630 METAR LRTR 141630Z 03004KT 9999 -RA NSC 14/13 Q1011 R11/290095=
201911141700 METAR LRTR 141700Z 09001KT 9999 -RA NSC 14/13 Q1011 R11/290095=
201911141730 METAR LRTR 141730Z 10005KT 8000 -RA NSC 13/13 Q1011 R11/290095=
201911141800 METAR LRTR 141800Z 09005KT 9000 -RA NSC 13/13 Q1011 R11/290095=
201911141830 METAR LRTR 141830Z 11005KT 8000 -RA NSC 13/12 Q1011 R11/290095=
201911141900 METAR LRTR 141900Z 10005KT 8000 -RA NSC 13/12 Q1011 R11/290095=
201911141930 METAR LRTR 141930Z 09006KT 6000 -RA NSC 13/13 Q1011 R11/290095=
201911142000 METAR LRTR 142000Z 11005KT 5000 -RA BR NSC 12/12 Q1012 R11/290095=
201911142030 METAR LRTR 142030Z 10006KT 5000 BR FEW032 12/12 Q1012 R11/290095=
201911142100 METAR LRTR 142100Z 09006KT 4500 BR SCT031 12/12 Q1012 R11/290095=
201911142130 METAR LRTR 142130Z 10005KT 4500 BR FEW031 12/12 Q1012 R11/290095=
201911142200 METAR LRTR 142200Z 10004KT 4000 BR FEW031 12/12 Q1012 R11/290095=
201911142230 METAR LRTR 142230Z 09006KT 4000 BR NSC 12/12 Q1012 R11/290095=
201911142300 METAR LRTR 142300Z 11003KT 3500 BR NSC 11/11 Q1012 R11/290095=
201911142330 METAR LRTR 142330Z 12004KT 1500 R11/0650U R29/P2000D BCFG
                        BR NSC 11/11 Q1012 R11/290095=
201911150000 METAR LRTR 150000Z 12004KT 1000 R11/0700N R29/0800N BCFG
                        BR NSC 10/10 Q1012 R11/290095=
201911150030 METAR LRTR 150030Z 10004KT 1500 R11/1700D R29/0700U BCFG
                        BR NSC 10/10 Q1012 R11/290095=
201911150100 METAR LRTR 150100Z 11004KT 0500 R11/0550N R29/0600N FG FEW004
                        09/09 Q1012 R11/290095=
201911150130 METAR LRTR 150130Z 11004KT 0450 R11/0550N R29/0600N FG FEW004
                        09/09 Q1012 R11/290095=
201911150200 METAR LRTR 150200Z 15003KT 0800 R11/1400U R29/01400U FG SCT002
                        09/09 Q1012 R11/290095=
201911150230 METAR LRTR 150230Z 15003KT 0200 R11/0275N R29/0400N FG SCT001
                        10/10 Q1012 R11/290095=
201911150300 METAR LRTR 150300Z 13004KT 0200 R11/0325N R29/0350N FG VV001
                        10/10 Q1013 R11/290095=
201911150330 METAR LRTR 150330Z 18005KT 0250 R11/0400N R29/0325N FG VV001
                        10/10 Q1013 R11/290095=
201911150400 METAR LRTR 150400Z 14004KT 0300 R11/0650N R29/0700N FG VV002
                        10/10 Q1013 R11/290095=
201911150430 METAR LRTR 150430Z 14004KT 0450 R11/0900U R29/0700N FG VV002
                        10/10 Q1013 R11/290095=
201911150500 METAR LRTR 150500Z 18004KT 140V210 0450 R11/0900D R29/0800N
                        FG VV002 10/10 Q1013 R11/290095=
201911150530 METAR LRTR 150530Z 22003KT 0500 R11/1100U R29/0900U FG OVC001
                        10/10 Q1014 R11/290095=
201911150600 METAR LRTR 150600Z 17004KT 140V200 0500 R11/1200D R29/1100U
                        FG SCT001 BKN002 10/10 Q1014 R11/290095=
201911150630 METAR LRTR 150630Z 16004KT 0550 R11/1400U R29/1000D FG SCT001
                        OVC002 10/10 Q1014 R11/290095=
201911150700 METAR LRTR 150700Z 18004KT 0450 R11/0900D R29/0650N FG SCT001
                        OVC002 10/10 Q1014 R11/290095 TEMPO
                        0350 FG=
201911150730 METAR LRTR 150730Z 19004KT 160V240 1300 0800E R11/P2000 R29/0650N
                        BCFG BR SCT001 OVC002 10/10 Q1014
                        R11/290095 TEMPO 1500=
201911150800 METAR LRTR 150800Z 16004KT 0600 R11/1000U R29/1700U FG OVC001
                        11/11 Q1015 R11/290095 TEMPO 1500
                        BR=
201911150830 METAR LRTR 150830Z 13005KT 1200 0600E R11/1600U R29/P2000
                        BCFG OVC001 11/11 Q1015 R11/290095
                        TEMPO 1500=
201911150900 METAR LRTR 150900Z 13007KT 2000 BR FEW001 SCT002 BKN004 11/11
                        Q1015 R11/190095 BECMG 3000=
201911150930 METAR LRTR 150930Z 13008KT 1500 BR FEW001 SCT002 OVC003 11/11
                        Q1015 R11/190095 NOSIG=
201911151000 METAR LRTR 151000Z 12008KT 2000 1000E BR FEW001 SCT002 BKN003
                        11/11 Q1014 R11/190095 BECMG 3000=
201911151030 METAR LRTR 151030Z 11008KT 3000 BR SCT002 BKN003 11/11 Q1014
                        R11/190095 BECMG 5000=
201911151100 METAR LRTR 151100Z 12010KT 9999 SCT002 SCT004 13/13 Q1014
                        R11/190095 NOSIG=
201911151130 METAR LRTR 151130Z 11010KT 9999 FEW004 14/13 Q1013 R11/190095
                        NOSIG=
201911151200 METAR LRTR 151200Z 12009KT 9999 FEW020 16/12 Q1013 R11/190095
                        NOSIG=
201911151230 METAR LRTR 151230Z 12009KT 9999 FEW025 16/12 Q1013 R11/190095
                        NOSIG=
201911151300 METAR LRTR 151300Z 12008KT 9999 FEW030 16/12 Q1013 R11/190095
                        NOSIG=
201911151330 METAR LRTR 151330Z 12008KT 9999 FEW030 16/12 Q1013 R11/CLRD//
                        NOSIG=
201911151400 METAR LRTR 151400Z 14006KT CAVOK 16/12 Q1013 NOSIG=
201911151430 METAR LRTR 151430Z 16007KT CAVOK 16/09 Q1013 NOSIG=
201911151500 METAR LRTR 151500Z 13007KT CAVOK 14/09 Q1013 NOSIG=
201911151530 METAR LRTR 151530Z 14007KT CAVOK 13/09 Q1013 NOSIG=
201911151600 METAR LRTR 151600Z 14008KT CAVOK 14/09 Q1014 NOSIG=
201911151630 METAR COR LRTR 151630Z 14007KT CAVOK 14/09 Q1014 NOSIG=
201911151700 METAR LRTR 151700Z 14008KT CAVOK 14/09 Q1014 NOSIG=
201911151730 METAR LRTR 151730Z 12007KT CAVOK 12/09 Q1014=
201911151800 METAR LRTR 151800Z 10008KT CAVOK 11/09 Q1014=
201911151830 METAR LRTR 151830Z 10008KT CAVOK 11/09 Q1014=
201911151900 METAR LRTR 151900Z 10009KT CAVOK 11/09 Q1014=
201911151930 METAR LRTR 151930Z 10009KT CAVOK 11/09 Q1014=
201911152000 METAR LRTR 152000Z 10008KT CAVOK 10/09 Q1014=
201911152030 METAR LRTR 152030Z 11006KT CAVOK 09/08 Q1015=
201911152100 METAR LRTR 152100Z 10007KT CAVOK 09/08 Q1015=
201911152130 METAR LRTR 152130Z 11007KT CAVOK 09/08 Q1015=
201911152200 METAR LRTR 152200Z 11007KT CAVOK 08/08 Q1015=
201911152230 METAR LRTR 152230Z 11007KT CAVOK 08/08 Q1015=
201911152300 METAR LRTR 152300Z 11007KT CAVOK 08/07 Q1015=
201911152330 METAR LRTR 152330Z 11007KT CAVOK 08/07 Q1015=
201911160000 METAR LRTR 160000Z 11006KT CAVOK 08/08 Q1015=
201911160030 METAR LRTR 160030Z 12008KT CAVOK 08/07 Q1016=
201911160100 METAR LRTR 160100Z 11009KT CAVOK 08/08 Q1015=
201911160130 METAR LRTR 160130Z 11007KT CAVOK 09/08 Q1016=
201911160200 METAR LRTR 160200Z 11008KT CAVOK 08/07 Q1016=
201911160230 METAR LRTR 160230Z 11008KT CAVOK 08/07 Q1015=
201911160300 METAR LRTR 160300Z 11008KT CAVOK 09/08 Q1015=
201911160330 METAR LRTR 160330Z 11008KT CAVOK 10/09 Q1016=
201911160400 METAR LRTR 160400Z 11009KT CAVOK 10/09 Q1016=
201911160430 METAR LRTR 160430Z 10008KT CAVOK 10/09 Q1016=
201911160500 METAR LRTR 160500Z 12008KT CAVOK 10/09 Q1016=
201911160530 METAR LRTR 160530Z 10008KT CAVOK 11/09 Q1016=
201911160600 METAR LRTR 160600Z 11008KT CAVOK 11/09 Q1017=
201911160630 METAR LRTR 160630Z 11008KT CAVOK 11/09 Q1017=
201911160700 METAR LRTR 160700Z 11008KT CAVOK 12/10 Q1017=
201911160730 METAR LRTR 160730Z 13008KT CAVOK 12/10 Q1018=
201911160800 METAR LRTR 160800Z 11008KT CAVOK 13/11 Q1017=
201911160830 METAR LRTR 160830Z 12008KT CAVOK 14/11 Q1018=
201911160900 METAR COR LRTR 160900Z 12008KT CAVOK 15/11 Q1018=
201911160930 METAR LRTR 160930Z 13007KT CAVOK 15/11 Q1018=
201911161000 METAR LRTR 161000Z 14007KT CAVOK 16/11 Q1018=
201911161030 METAR LRTR 161030Z 15009KT CAVOK 17/10 Q1017=
201911161100 METAR LRTR 161100Z 15008KT CAVOK 18/10 Q1018=
201911161130 METAR LRTR 161130Z 15010KT CAVOK 18/10 Q1017=
201911161200 METAR COR LRTR 161200Z 14007KT CAVOK 18/10 Q1017=
201911161230 METAR LRTR 161230Z 14006KT CAVOK 19/10 Q1017=
201911161300 METAR LRTR 161300Z 15007KT CAVOK 18/10 Q1017=
201911161330 METAR LRTR 161330Z 14006KT CAVOK 18/10 Q1017=
201911161400 METAR LRTR 161400Z 11008KT CAVOK 17/09 Q1017=
201911161430 METAR LRTR 161430Z 13006KT CAVOK 17/09 Q1017=
201911161500 METAR LRTR 161500Z 14009KT CAVOK 17/08 Q1017=
201911161530 METAR LRTR 161530Z 10007KT CAVOK 14/10 Q1017=
201911161600 METAR LRTR 161600Z 10006KT CAVOK 12/10 Q1017=
201911161630 METAR LRTR 161630Z 11007KT CAVOK 12/09 Q1017=
201911161700 METAR LRTR 161700Z 10007KT CAVOK 11/09 Q1017=
201911161730 METAR LRTR 161730Z 10007KT CAVOK 12/09 Q1017=
201911161800 METAR LRTR 161800Z 10007KT CAVOK 12/09 Q1017=
201911161830 METAR LRTR 161830Z 10007KT CAVOK 12/09 Q1017=
201911161900 METAR LRTR 161900Z 11008KT CAVOK 12/09 Q1017=
201911161930 METAR LRTR 161930Z 10010KT CAVOK 13/09 Q1017=
201911162000 METAR LRTR 162000Z 10010KT CAVOK 12/09 Q1017=
201911162030 METAR LRTR 162030Z 10010KT CAVOK 12/08 Q1017=
201911162100 METAR LRTR 162100Z 10009KT CAVOK 12/08 Q1018=
201911162130 METAR LRTR 162130Z 12007KT CAVOK 10/07 Q1018=
201911162200 METAR LRTR 162200Z 12010KT CAVOK 10/08 Q1018=
201911162230 METAR LRTR 162230Z 12008KT CAVOK 09/07 Q1017=
201911162300 METAR LRTR 162300Z 12010KT CAVOK 09/07 Q1017=
201911162330 METAR LRTR 162330Z 11007KT CAVOK 10/07 Q1017=
201911170000 METAR LRTR 170000Z 11008KT CAVOK 10/07 Q1017=
201911170030 METAR LRTR 170030Z 11008KT CAVOK 09/07 Q1017=
201911170100 METAR LRTR 170100Z 11009KT CAVOK 09/07 Q1017=
201911170130 METAR LRTR 170130Z 11009KT CAVOK 09/07 Q1017=
201911170200 METAR LRTR 170200Z 11009KT CAVOK 09/07 Q1017=
201911170230 METAR LRTR 170230Z 11009KT CAVOK 09/07 Q1017=
201911170300 METAR LRTR 170300Z 11009KT CAVOK 09/07 Q1017=
201911170330 METAR COR LRTR 170330Z 12009KT CAVOK 09/07 Q1017=
201911170400 METAR LRTR 170400Z 12009KT CAVOK 09/07 Q1017=
201911170430 METAR LRTR 170430Z 12009KT CAVOK 09/07 Q1017=
201911170500 METAR LRTR 170500Z 11009KT CAVOK 09/07 Q1017=
201911170530 METAR LRTR 170530Z 10009KT CAVOK 09/06 Q1017=
201911170600 METAR LRTR 170600Z 11008KT CAVOK 09/06 Q1017=
201911170630 METAR COR LRTR 170630Z 12007KT CAVOK 08/07 Q1017=
201911170700 METAR LRTR 170700Z 11008KT CAVOK 10/07 Q1017=
201911170730 METAR LRTR 170730Z 11008KT CAVOK 11/08 Q1017=
201911170800 METAR LRTR 170800Z 11009KT CAVOK 12/08 Q1017=
201911170830 METAR LRTR 170830Z 11008KT CAVOK 15/09 Q1017=
201911170900 METAR LRTR 170900Z 12011KT CAVOK 15/09 Q1017=
201911170930 METAR LRTR 170930Z 12009KT CAVOK 16/08 Q1017=
201911171000 METAR LRTR 171000Z 13008KT CAVOK 15/09 Q1016=
201911171030 METAR LRTR 171030Z 12007KT CAVOK 16/09 Q1016=
201911171100 METAR LRTR 171100Z 13008KT CAVOK 15/09 Q1016=
201911171130 METAR LRTR 171130Z 14005KT CAVOK 16/09 Q1016=
201911171200 METAR LRTR 171200Z 12007KT CAVOK 16/09 Q1015=
201911171230 METAR LRTR 171230Z 11007KT CAVOK 16/09 Q1015=
201911171300 METAR LRTR 171300Z 09005KT 060V120 CAVOK 16/09 Q1015=
201911171330 METAR LRTR 171330Z 07007KT CAVOK 16/09 Q1015=
201911171400 METAR LRTR 171400Z 08006KT CAVOK 15/10 Q1015=
201911171430 METAR LRTR 171430Z 09005KT CAVOK 15/10 Q1015=
201911171500 METAR LRTR 171500Z 11004KT CAVOK 15/09 Q1015=
201911171530 METAR LRTR 171530Z 12004KT CAVOK 14/09 Q1015=
201911171600 METAR LRTR 171600Z 16003KT 140V200 CAVOK 13/08 Q1014=
201911171630 METAR LRTR 171630Z 09006KT CAVOK 11/08 Q1014=
201911171700 METAR LRTR 171700Z 12007KT CAVOK 11/08 Q1014=
201911171730 METAR LRTR 171730Z 12008KT CAVOK 11/08 Q1014=
201911171800 METAR COR LRTR 171800Z 12005KT CAVOK 10/08 Q1014=
201911171830 METAR LRTR 171830Z 13008KT CAVOK 12/08 Q1014=
201911171900 METAR COR LRTR 171900Z 10003KT CAVOK 09/07 Q1014=
201911171930 METAR LRTR 171930Z 11007KT CAVOK 10/07 Q1014=
201911172000 METAR LRTR 172000Z 15003KT CAVOK 12/07 Q1014=
201911172030 METAR COR LRTR 172030Z 12006KT CAVOK 10/08 Q1014=
201911172100 METAR LRTR 172100Z 11006KT CAVOK 09/07 Q1014=
201911172130 METAR COR LRTR 172130Z 09008KT CAVOK 10/08 Q1014=
201911172200 METAR LRTR 172200Z 12010KT CAVOK 11/09 Q1014=
201911172230 METAR LRTR 172230Z 11007KT CAVOK 11/08 Q1014=
201911172300 METAR COR LRTR 172300Z 12011KT CAVOK 11/08 Q1013=
201911172330 METAR LRTR 172330Z 12010KT CAVOK 13/08 Q1013=
201911180000 METAR LRTR 180000Z 12006KT CAVOK 13/09 Q1013=
201911180030 METAR LRTR 180030Z 12009KT CAVOK 11/08 Q1013=
201911180100 METAR LRTR 180100Z 12010KT CAVOK 12/09 Q1013=
201911180130 METAR LRTR 180130Z 06006KT 030V090 CAVOK 11/08 Q1013=
201911180200 METAR LRTR 180200Z 12010KT CAVOK 11/08 Q1012=
201911180230 METAR LRTR 180230Z 10008KT CAVOK 11/09 Q1012=
201911180300 METAR LRTR 180300Z 11009KT CAVOK 12/09 Q1012=
201911180330 METAR LRTR 180330Z 12010KT CAVOK 11/08 Q1012=
201911180400 METAR LRTR 180400Z 12011KT CAVOK 11/08 Q1012=
201911180430 METAR LRTR 180430Z 12010KT CAVOK 11/08 Q1012=
201911180500 METAR LRTR 180500Z 13007KT CAVOK 11/08 Q1012=
201911180530 METAR LRTR 180530Z 13010G20KT CAVOK 14/08 Q1012=
201911180600 METAR LRTR 180600Z 13010KT CAVOK 12/08 Q1012=
201911180630 METAR LRTR 180630Z 11010KT CAVOK 12/08 Q1013=
201911180700 METAR LRTR 180700Z 13008KT CAVOK 12/09 Q1013=
201911180730 METAR LRTR 180730Z 14011KT CAVOK 15/09 Q1013=
201911180800 METAR LRTR 180800Z 14014KT CAVOK 15/09 Q1013=
201911180830 METAR LRTR 180830Z 15014KT CAVOK 16/09 Q1014=
201911180900 METAR COR LRTR 180900Z 16011KT 9999 -RA NSC 16/09 Q1014=
201911180930 METAR LRTR 180930Z 16010KT 9999 -RA NSC 15/10 Q1015=
201911181000 METAR LRTR 181000Z 16012KT 9999 FEW050CB 18/10 Q1015=
201911181030 METAR LRTR 181030Z 17014KT 9999 FEW030 FEW055CB 19/10 Q1015=
201911181100 METAR COR LRTR 181100Z 19020KT 9999 FEW035 18/09 Q1015=
201911181130 METAR LRTR 181130Z 18018KT 9999 FEW040 18/09 Q1015=
201911181200 METAR LRTR 181200Z 19017KT CAVOK 18/10 Q1015=
201911181230 METAR LRTR 181230Z 19016KT CAVOK 17/10 Q1016=
201911181300 METAR LRTR 181300Z 20013KT CAVOK 17/09 Q1016=
201911181330 METAR LRTR 181330Z 20013KT CAVOK 18/09 Q1016=
201911181400 METAR LRTR 181400Z 19009KT CAVOK 16/10 Q1017=
201911181430 METAR LRTR 181430Z 21008KT 9999 SCT035 17/10 Q1017=
201911181500 METAR LRTR 181500Z 27007KT 9999 FEW040 14/08 Q1018=
201911181530 METAR LRTR 181530Z 25005KT CAVOK 14/08 Q1018=
201911181600 METAR LRTR 181600Z 24003KT CAVOK 13/07 Q1019=
201911181630 METAR LRTR 181630Z 33003KT CAVOK 11/07 Q1019=
201911181700 METAR LRTR 181700Z 33003KT CAVOK 10/07 Q1020=
201911181730 METAR LRTR 181730Z 34001KT CAVOK 09/07 Q1020=
201911181800 METAR LRTR 181800Z 00000KT CAVOK 10/07 Q1020=
201911181830 METAR LRTR 181830Z 10004KT CAVOK 07/06 Q1020=
201911181900 METAR LRTR 181900Z 07006KT CAVOK 06/05 Q1020=
201911181930 METAR LRTR 181930Z 08005KT CAVOK 06/05 Q1021=
201911182000 METAR LRTR 182000Z 08006KT CAVOK 06/05 Q1021=
201911182030 METAR LRTR 182030Z 07006KT CAVOK 06/05 Q1021=
201911182100 METAR LRTR 182100Z 07007KT CAVOK 06/05 Q1021=
201911182130 METAR LRTR 182130Z 07008KT CAVOK 06/06 Q1021=
201911182200 METAR LRTR 182200Z 08007KT CAVOK 07/06 Q1021=
201911182230 METAR LRTR 182230Z 08008KT CAVOK 07/07 Q1022=
201911182300 METAR LRTR 182300Z 08007KT CAVOK 06/06 Q1022=
201911182330 METAR LRTR 182330Z 10007KT CAVOK 06/06 Q1022=
201911190000 METAR LRTR 190000Z 10006KT CAVOK 06/06 Q1022=
201911190030 METAR LRTR 190030Z 09007KT CAVOK 05/05 Q1022=
201911190100 METAR LRTR 190100Z 09008KT CAVOK 06/06 Q1022=
201911190130 METAR LRTR 190130Z 10006KT CAVOK 06/06 Q1022=
201911190200 METAR LRTR 190200Z 09007KT CAVOK 06/06 Q1021=
201911190230 METAR LRTR 190230Z 11008KT CAVOK 05/05 Q1022=
201911190300 METAR LRTR 190300Z 12007KT CAVOK 06/06 Q1022=
201911190330 METAR LRTR 190330Z AUTO 12009KT 7000 NCD 06/06 Q1022=
201911190400 METAR COR LRTR 190400Z 10008KT 8000 NSC 05/05 Q1022=
201911190430 METAR LRTR 190430Z 10008KT 8000 NSC 05/05 Q1022=
201911190500 METAR LRTR 190500Z 10007KT CAVOK 05/05 Q1022=
201911190530 METAR LRTR 190530Z 08007KT CAVOK 06/06 Q1022=
201911190600 METAR LRTR 190600Z 08008KT CAVOK 06/06 Q1022=
201911190630 METAR LRTR 190630Z 11008KT CAVOK 08/07 Q1023=
201911190700 METAR LRTR 190700Z 12007KT CAVOK 08/07 Q1023=
201911190730 METAR LRTR 190730Z 11009KT CAVOK 10/08 Q1023=
201911190800 METAR LRTR 190800Z 11010KT CAVOK 11/08 Q1023=
201911190830 METAR LRTR 190830Z 10009KT CAVOK 12/09 Q1023=
201911190900 METAR LRTR 190900Z 12011KT CAVOK 13/08 Q1023=
201911190930 METAR LRTR 190930Z 10009KT CAVOK 14/09 Q1022=
201911191000 METAR LRTR 191000Z 10009KT CAVOK 15/08 Q1022=
201911191030 METAR LRTR 191030Z 10009KT CAVOK 16/09 Q1021=
201911191100 METAR LRTR 191100Z 10009KT CAVOK 17/08 Q1021=
201911191130 METAR LRTR 191130Z 10009KT CAVOK 17/08 Q1021=
201911191200 METAR LRTR 191200Z 11009KT CAVOK 18/08 Q1020=
201911191230 METAR LRTR 191230Z 11008KT CAVOK 18/09 Q1020=
201911191300 METAR LRTR 191300Z 10007KT CAVOK 18/08 Q1020=
201911191330 METAR LRTR 191330Z 10006KT CAVOK 17/09 Q1020=
201911191400 METAR LRTR 191400Z 11006KT CAVOK 17/09 Q1020=
201911191430 METAR LRTR 191430Z 15007KT CAVOK 16/09 Q1020=
201911191500 METAR LRTR 191500Z 15006KT CAVOK 15/07 Q1020=
201911191530 METAR LRTR 191530Z 17005KT CAVOK 15/07 Q1020=
201911191600 METAR COR LRTR 191600Z 14002KT CAVOK 14/07 Q1020=
201911191630 METAR LRTR 191630Z 15002KT CAVOK 14/07 Q1020=
201911191700 METAR LRTR 191700Z 09006KT CAVOK 09/06 Q1020=
201911191730 METAR LRTR 191730Z 09007KT CAVOK 10/07 Q1020=
201911191800 METAR LRTR 191800Z 09008KT CAVOK 09/08 Q1020=
201911191830 METAR LRTR 191830Z 08007KT CAVOK 10/08 Q1020=
201911191900 METAR LRTR 191900Z 10009KT CAVOK 10/08 Q1020=
201911191930 METAR LRTR 191930Z 09009KT CAVOK 09/08 Q1020=
201911192000 METAR LRTR 192000Z 09008KT CAVOK 09/07 Q1020=
201911192030 METAR LRTR 192030Z 09008KT CAVOK 09/07 Q1020=
201911192100 METAR LRTR 192100Z 09009KT CAVOK 09/07 Q1020=
201911192130 METAR LRTR 192130Z 10010KT CAVOK 10/07 Q1020=
201911192200 METAR LRTR 192200Z 10009KT CAVOK 10/07 Q1019=
201911192230 METAR LRTR 192230Z 10010KT CAVOK 10/07 Q1019=
201911192300 METAR LRTR 192300Z 10009KT CAVOK 09/07 Q1019=
201911192330 METAR LRTR 192330Z 12008KT CAVOK 08/07 Q1019=
201911200000 METAR LRTR 200000Z 12009KT CAVOK 08/07 Q1019=
201911200030 METAR LRTR 200030Z 10008KT CAVOK 09/07 Q1019=
201911200100 METAR LRTR 200100Z 10010KT CAVOK 10/07 Q1018=
201911200130 METAR LRTR 200130Z 10011KT CAVOK 11/07 Q1018=
201911200200 METAR COR LRTR 200200Z 11009KT CAVOK 10/07 Q1018=
201911200230 METAR LRTR 200230Z 11007KT CAVOK 09/07 Q1017=
201911200300 METAR LRTR 200300Z 09008KT CAVOK 09/06 Q1017=
201911200330 METAR LRTR 200330Z 08008KT CAVOK 09/06 Q1017=
201911200400 METAR LRTR 200400Z 09009KT CAVOK 11/07 Q1016=
201911200430 METAR LRTR 200430Z 09011KT CAVOK 12/07 Q1016=
201911200500 METAR LRTR 200500Z 09010KT CAVOK 12/07 Q1016=
201911200530 METAR LRTR 200530Z 09008KT CAVOK 12/07 Q1016=
201911200600 METAR LRTR 200600Z 10007KT CAVOK 11/07 Q1016=
201911200630 METAR LRTR 200630Z 10010KT CAVOK 12/07 Q1016=
201911200700 METAR COR LRTR 200700Z 10011KT CAVOK 13/07 Q1015=
201911200730 METAR LRTR 200730Z 10012KT CAVOK 13/07 Q1015=
201911200800 METAR LRTR 200800Z 11011KT CAVOK 14/07 Q1015=
201911200830 METAR LRTR 200830Z 10012KT CAVOK 14/07 Q1015=
201911200900 METAR LRTR 200900Z 11010KT CAVOK 14/07 Q1014=
201911200930 METAR LRTR 200930Z 12010KT CAVOK 14/08 Q1015=
201911201000 METAR COR LRTR 201000Z 14008KT CAVOK 13/08 Q1015=
201911201030 METAR LRTR 201030Z 13008KT 9999 -RA NSC 12/09 Q1015=
201911201100 METAR LRTR 201100Z 11007KT 9999 -RA NSC 12/10 Q1015 R11/190095=
201911201130 METAR COR LRTR 201130Z 12006KT 8000 -RA NSC 12/11 Q1015 R11/190095=
201911201200 METAR COR LRTR 201200Z 14007KT 8000 -RA NSC 13/11 Q1014 R11/190095=
201911201230 METAR LRTR 201230Z 14011KT 8000 -RA NSC 14/12 Q1014 R11/190095=
201911201300 METAR LRTR 201300Z 14018KT 8000 -RA NSC 14/12 Q1014 R11/290095=
201911201330 METAR COR LRTR 201330Z 13014KT 9999 -RA NSC 14/11 Q1014 R11/290095=
201911201400 METAR LRTR 201400Z 12013KT CAVOK 13/12 Q1014 R11/290095=
201911201430 METAR LRTR 201430Z 11011KT 9999 -RA NSC 12/11 Q1014 R11/290095=
201911201500 METAR LRTR 201500Z 12012KT CAVOK 12/11 Q1014 R11/290095=
201911201530 METAR COR LRTR 201530Z 11014KT CAVOK 12/11 Q1013 R11/290095=
201911201600 METAR LRTR 201600Z 12014KT CAVOK 12/11 Q1014 R11/290095=
201911201630 METAR LRTR 201630Z 12010KT CAVOK 12/11 Q1014 R11/290095=
201911201700 METAR LRTR 201700Z 12011KT CAVOK 12/11 Q1014 R11/290095=
201911201730 METAR LRTR 201730Z 11011KT CAVOK 12/10 Q1014 R11/290095=
201911201800 METAR LRTR 201800Z 11010KT CAVOK 11/10 Q1014 R11/290095=
201911201830 METAR LRTR 201830Z 10011KT CAVOK 11/09 Q1014 R11/290095=
201911201900 METAR LRTR 201900Z 11010KT CAVOK 11/09 Q1014 R11/290095=
201911201930 METAR LRTR 201930Z 10012KT CAVOK 11/09 Q1014 R11/290095=
201911202000 METAR LRTR 202000Z 11010KT CAVOK 11/09 Q1014 R11/190095=
201911202030 METAR LRTR 202030Z 11009KT CAVOK 11/09 Q1014 R11/190095=
201911202100 METAR LRTR 202100Z 11010KT CAVOK 11/10 Q1014 R11/190095=
201911202130 METAR LRTR 202130Z 11008KT CAVOK 11/10 Q1014 R11/190095=
201911202200 METAR LRTR 202200Z 11009KT CAVOK 11/09 Q1014 R11/190095=
201911202230 METAR LRTR 202230Z 11009KT CAVOK 10/09 Q1014 R11/190095=
201911202300 METAR LRTR 202300Z 11008KT CAVOK 10/09 Q1014 R11/190095=
201911202330 METAR LRTR 202330Z 11008KT CAVOK 10/09 Q1014 R11/190095=
201911210000 METAR LRTR 210000Z 11009KT CAVOK 10/09 Q1015 R11/190095=
201911210030 METAR LRTR 210030Z 10008KT CAVOK 10/08 Q1015 R11/190095=
201911210100 METAR COR LRTR 210100Z 10008KT CAVOK 10/08 Q1015 R11/190095=
201911210130 METAR LRTR 210130Z 11008KT CAVOK 10/08 Q1015 R11/190095=
201911210200 METAR LRTR 210200Z AUTO 11007KT 9999 NCD 09/08 Q1015=
201911210230 METAR LRTR 210230Z 11008KT CAVOK 08/07 Q1015 R11/190095=
201911210300 METAR LRTR 210300Z 10006KT CAVOK 08/07 Q1015 R11/190095=
201911210330 METAR LRTR 210330Z 11006KT CAVOK 08/07 Q1015 R11/190095=
201911210400 METAR LRTR 210400Z 10007KT CAVOK 08/07 Q1015 R11/190095=
201911210430 METAR LRTR 210430Z 11007KT CAVOK 08/07 Q1015 R11/190095=
201911210500 METAR LRTR 210500Z 11007KT CAVOK 07/06 Q1015 R11/190095=
201911210530 METAR LRTR 210530Z 11006KT CAVOK 07/06 Q1015 R11/190095=
201911210600 METAR LRTR 210600Z 11006KT CAVOK 07/06 Q1016 R11/190095=
201911210630 METAR LRTR 210630Z 11007KT CAVOK 08/07 Q1016 R11/190095=
201911210700 METAR LRTR 210700Z 11006KT CAVOK 10/08 Q1016 R11/CLRD//=
201911210730 METAR LRTR 210730Z 10006KT CAVOK 11/09 Q1016=
201911210800 METAR LRTR 210800Z 10008KT CAVOK 13/09 Q1016=
201911210830 METAR LRTR 210830Z 11008KT CAVOK 13/09 Q1016=
201911210900 METAR LRTR 210900Z 12008KT CAVOK 14/10 Q1016=
201911210930 METAR LRTR 210930Z 14008KT CAVOK 16/10 Q1016=
201911211000 METAR LRTR 211000Z 16009KT CAVOK 17/09 Q1016=
201911211030 METAR LRTR 211030Z 16010KT 140V200 9999 FEW035 17/09 Q1015=
201911211100 METAR LRTR 211100Z 18010KT 9999 FEW038 18/08 Q1015=
201911211130 METAR COR LRTR 211130Z 19012KT 9999 FEW043 18/08 Q1015=
201911211200 METAR LRTR 211200Z 18010KT 9999 FEW045 17/08 Q1015=
201911211230 METAR LRTR 211230Z 18009KT 9999 FEW048 18/09 Q1015=
201911211300 METAR LRTR 211300Z 19010KT CAVOK 17/09 Q1015=
201911211330 METAR LRTR 211330Z 16009KT CAVOK 16/08 Q1015=
201911211400 METAR LRTR 211400Z 18011KT CAVOK 16/08 Q1015=
201911211430 METAR LRTR 211430Z 18011KT CAVOK 16/08 Q1015=
201911211500 METAR LRTR 211500Z 18010KT CAVOK 14/08 Q1015=
201911211530 METAR LRTR 211530Z 17009KT CAVOK 14/07 Q1015=
201911211600 METAR LRTR 211600Z 17009KT CAVOK 13/07 Q1016=
201911211630 METAR LRTR 211630Z 17008KT CAVOK 12/07 Q1016=
201911211700 METAR LRTR 211700Z 09006KT CAVOK 10/07 Q1016=
201911211730 METAR LRTR 211730Z 08006KT CAVOK 09/07 Q1016=
201911211800 METAR LRTR 211800Z 10005KT CAVOK 10/07 Q1016=
201911211830 METAR LRTR 211830Z 09006KT CAVOK 08/06 Q1016=
201911211900 METAR COR LRTR 211900Z 10006KT CAVOK 09/07 Q1016=
201911211930 METAR LRTR 211930Z 09006KT CAVOK 09/07 Q1016=
201911212000 METAR COR LRTR 212000Z 09008KT CAVOK 09/07 Q1016=
201911212030 METAR LRTR 212030Z 10010KT CAVOK 10/07 Q1016=
201911212100 METAR LRTR 212100Z 10008KT CAVOK 10/07 Q1016=
201911212130 METAR LRTR 212130Z 11008KT CAVOK 09/07 Q1016=
201911212200 METAR LRTR 212200Z 10007KT CAVOK 09/08 Q1016=
201911212230 METAR LRTR 212230Z 11008KT CAVOK 10/08 Q1016=
201911212300 METAR LRTR 212300Z 11007KT CAVOK 10/07 Q1016=
201911212330 METAR LRTR 212330Z 10007KT CAVOK 09/07 Q1016=
201911220000 METAR LRTR 220000Z 11007KT CAVOK 08/07 Q1016=
201911220030 METAR LRTR 220030Z 11009KT CAVOK 09/07 Q1017=
201911220100 METAR LRTR 220100Z 11007KT CAVOK 09/07 Q1017=
201911220130 METAR LRTR 220130Z 10009KT CAVOK 09/06 Q1016=
201911220200 METAR LRTR 220200Z 11009KT CAVOK 09/07 Q1016=
201911220230 METAR LRTR 220230Z 11009KT CAVOK 09/06 Q1017=
201911220300 METAR LRTR 220300Z 13008KT CAVOK 09/06 Q1017=
201911220330 METAR LRTR 220330Z 12007KT CAVOK 08/06 Q1017=
201911220400 METAR LRTR 220400Z 12009KT CAVOK 08/06 Q1017=
201911220430 METAR LRTR 220430Z 11009KT CAVOK 07/06 Q1017=
201911220500 METAR LRTR 220500Z 11008KT CAVOK 07/06 Q1017=
201911220530 METAR LRTR 220530Z 11006KT 9999 FEW047 07/05 Q1017=
201911220600 METAR LRTR 220600Z 11008KT 9999 FEW045 07/06 Q1018=
201911220630 METAR LRTR 220630Z 13006KT 9999 SCT045 07/05 Q1018=
201911220700 METAR LRTR 220700Z 12006KT 9999 FEW049 07/06 Q1018=
201911220730 METAR LRTR 220730Z 12009KT 9999 FEW049 09/06 Q1018=
201911220800 METAR LRTR 220800Z 12008KT CAVOK 10/06 Q1018=
201911220830 METAR LRTR 220830Z 13008KT CAVOK 10/05 Q1018=
201911220900 METAR LRTR 220900Z 13007KT CAVOK 10/06 Q1019=
201911220930 METAR LRTR 220930Z 12006KT CAVOK 11/05 Q1018=
201911221000 METAR LRTR 221000Z 14006KT CAVOK 11/05 Q1018=
201911221030 METAR LRTR 221030Z 16006KT 130V200 CAVOK 12/04 Q1018=
201911221100 METAR LRTR 221100Z 15010KT CAVOK 12/04 Q1018=
201911221130 METAR LRTR 221130Z 17010KT CAVOK 12/03 Q1018=
201911221200 METAR LRTR 221200Z 17011KT CAVOK 12/03 Q1018=
201911221230 METAR LRTR 221230Z 17010KT CAVOK 12/03 Q1018=
201911221300 METAR LRTR 221300Z 18010KT CAVOK 11/03 Q1018=
201911221330 METAR LRTR 221330Z 18009KT CAVOK 11/03 Q1018=
201911221400 METAR LRTR 221400Z 19007KT 9999 FEW048 11/03 Q1018=
201911221430 METAR LRTR 221430Z 17006KT 9999 FEW049 10/03 Q1018=
201911221500 METAR LRTR 221500Z 17007KT 9999 FEW046 10/03 Q1018=
201911221530 METAR LRTR 221530Z 15004KT 9999 SCT047 10/03 Q1018=
201911221600 METAR LRTR 221600Z 16005KT 9999 SCT048 10/02 Q1018=
201911221630 METAR LRTR 221630Z 17006KT 9999 BKN048 10/02 Q1018=
201911221700 METAR LRTR 221700Z 11004KT 080V150 9999 SCT048 09/02 Q1019=
201911221730 METAR LRTR 221730Z 13004KT 9999 SCT048 08/03 Q1019=
201911221800 METAR LRTR 221800Z 11004KT CAVOK 07/03 Q1019=
201911221830 METAR LRTR 221830Z 16004KT CAVOK 08/03 Q1019=
201911221900 METAR LRTR 221900Z 12003KT 080V190 CAVOK 08/02 Q1019=
201911221930 METAR LRTR 221930Z 12004KT 090V150 9999 SCT047 07/02 Q1019=
201911222000 METAR LRTR 222000Z 11003KT 080V150 9999 SCT048 06/03 Q1019=
201911222030 METAR LRTR 222030Z 10004KT 070V140 9999 SCT049 05/03 Q1019=
201911222100 METAR LRTR 222100Z 14004KT 090V170 CAVOK 06/03 Q1019=
201911222130 METAR LRTR 222130Z 10003KT 070V130 CAVOK 05/02 Q1019=
201911222200 METAR LRTR 222200Z 08004KT 060V130 CAVOK 05/02 Q1019=
201911222230 METAR LRTR 222230Z 08004KT CAVOK 04/02 Q1019=
201911222300 METAR LRTR 222300Z 11005KT CAVOK 04/01 Q1019=
201911222330 METAR LRTR 222330Z 08003KT CAVOK 04/01 Q1019=
201911230000 METAR LRTR 230000Z 05004KT CAVOK 03/01 Q1019=
201911230030 METAR LRTR 230030Z 07003KT CAVOK 03/01 Q1019=
201911230100 METAR LRTR 230100Z 09004KT CAVOK 03/00 Q1019=
201911230130 METAR LRTR 230130Z 08003KT CAVOK 03/01 Q1019=
201911230200 METAR LRTR 230200Z 09004KT CAVOK 02/00 Q1019=
201911230230 METAR LRTR 230230Z 10006KT CAVOK 02/00 Q1019=
201911230300 METAR LRTR 230300Z 09006KT CAVOK 01/M00 Q1019=
201911230330 METAR LRTR 230330Z 08007KT CAVOK 01/M00 Q1019=
201911230400 METAR LRTR 230400Z 10008KT CAVOK 01/M00 Q1019=
201911230430 METAR LRTR 230430Z 10007KT CAVOK 02/00 Q1019=
201911230500 METAR LRTR 230500Z 11008KT CAVOK 02/00 Q1019=
201911230530 METAR LRTR 230530Z 11008KT CAVOK 02/00 Q1019=
201911230600 METAR LRTR 230600Z 11009KT CAVOK 02/01 Q1019=
201911230630 METAR LRTR 230630Z 11009KT CAVOK 03/01 Q1019=
201911230700 METAR LRTR 230700Z 11009KT CAVOK 04/02 Q1019=
201911230730 METAR LRTR 230730Z 11010KT CAVOK 05/02 Q1019=
201911230800 METAR LRTR 230800Z 12011KT CAVOK 06/02 Q1019=
201911230830 METAR LRTR 230830Z 12011KT CAVOK 07/02 Q1019=
201911230900 METAR LRTR 230900Z 13010KT CAVOK 09/02 Q1019=
201911230930 METAR LRTR 230930Z 14009KT CAVOK 09/02 Q1019=
201911231000 METAR LRTR 231000Z 13009KT CAVOK 10/02 Q1018=
201911231030 METAR LRTR 231030Z 15007KT CAVOK 11/02 Q1018=
201911231100 METAR LRTR 231100Z 15008KT CAVOK 12/03 Q1018=
201911231130 METAR LRTR 231130Z 17010KT 140V200 CAVOK 13/02 Q1017=
201911231200 METAR LRTR 231200Z 17012KT 130V190 CAVOK 13/02 Q1017=
201911231230 METAR LRTR 231230Z 16011KT CAVOK 13/02 Q1017=
201911231300 METAR LRTR 231300Z 15009KT CAVOK 13/02 Q1017=
201911231330 METAR LRTR 231330Z 15009KT CAVOK 13/03 Q1017=
201911231400 METAR LRTR 231400Z 15008KT CAVOK 12/03 Q1017=
201911231430 METAR LRTR 231430Z 15007KT CAVOK 11/03 Q1017=
201911231500 METAR LRTR 231500Z 16008KT CAVOK 10/02 Q1017=
201911231530 METAR LRTR 231530Z 12007KT CAVOK 07/02 Q1017=
201911231600 METAR LRTR 231600Z 10006KT CAVOK 05/03 Q1017=
201911231630 METAR LRTR 231630Z 11007KT CAVOK 05/03 Q1017=
201911231700 METAR LRTR 231700Z 10008KT CAVOK 05/02 Q1017=
201911231730 METAR LRTR 231730Z 10008KT CAVOK 05/02 Q1017=
201911231800 METAR LRTR 231800Z 10008KT CAVOK 05/02 Q1017=
201911231830 METAR LRTR 231830Z 10008KT CAVOK 04/02 Q1017=
201911231900 METAR LRTR 231900Z 10009KT CAVOK 04/02 Q1017=
201911231930 METAR LRTR 231930Z 11009KT CAVOK 04/02 Q1017=
201911232000 METAR LRTR 232000Z 11008KT CAVOK 04/02 Q1017=
201911232030 METAR LRTR 232030Z 11009KT CAVOK 04/02 Q1017=
201911232100 METAR LRTR 232100Z 11009KT CAVOK 05/02 Q1017=
201911232130 METAR LRTR 232130Z 11009KT CAVOK 04/02 Q1017=
201911232200 METAR LRTR 232200Z 11011KT CAVOK 04/02 Q1017=
201911232230 METAR LRTR 232230Z 11010KT CAVOK 04/02 Q1017=
201911232300 METAR COR LRTR 232300Z 12010KT CAVOK 04/02 Q1017=
201911232330 METAR LRTR 232330Z 11011KT CAVOK 04/02 Q1017=
201911240000 METAR LRTR 240000Z 12011KT CAVOK 04/02 Q1017=
201911240030 METAR LRTR 240030Z 12012KT CAVOK 04/02 Q1017=
201911240100 METAR LRTR 240100Z 11012KT CAVOK 04/02 Q1017=
201911240130 METAR LRTR 240130Z 11011KT CAVOK 04/02 Q1017=
201911240200 METAR LRTR 240200Z 11011KT CAVOK 04/02 Q1017=
201911240230 METAR LRTR 240230Z 11010KT CAVOK 04/02 Q1016=
201911240300 METAR LRTR 240300Z 11010KT CAVOK 04/02 Q1016=
201911240330 METAR LRTR 240330Z 11010KT CAVOK 04/02 Q1016=
201911240400 METAR LRTR 240400Z 11010KT CAVOK 04/02 Q1016=
201911240430 METAR LRTR 240430Z 11010KT CAVOK 05/02 Q1016=
201911240500 METAR LRTR 240500Z 11010KT CAVOK 04/02 Q1016=
201911240530 METAR COR LRTR 240530Z 11011KT CAVOK 04/02 Q1016=
201911240600 METAR COR LRTR 240600Z 11011KT CAVOK 05/02 Q1017=
201911240630 METAR LRTR 240630Z 11012KT CAVOK 05/03 Q1017=
201911240700 METAR LRTR 240700Z 11012KT CAVOK 06/03 Q1017=
201911240730 METAR COR LRTR 240730Z 12013KT CAVOK 07/03 Q1017=
201911240800 METAR LRTR 240800Z 11014KT CAVOK 08/04 Q1017=
201911240830 METAR COR LRTR 240830Z 11012KT CAVOK 09/04 Q1017=
201911240900 METAR LRTR 240900Z 11012KT CAVOK 10/04 Q1017=
201911240930 METAR LRTR 240930Z 11010KT CAVOK 11/05 Q1017=
201911241000 METAR LRTR 241000Z 11009KT CAVOK 12/05 Q1016=
201911241030 METAR LRTR 241030Z 12008KT 080V150 CAVOK 13/05 Q1016=
201911241100 METAR LRTR 241100Z 15006KT 110V170 CAVOK 14/05 Q1016=
201911241130 METAR LRTR 241130Z 14005KT 100V170 CAVOK 14/05 Q1016=
201911241200 METAR LRTR 241200Z 15006KT CAVOK 14/05 Q1016=
201911241230 METAR LRTR 241230Z VRB02KT CAVOK 15/05 Q1015=
201911241300 METAR LRTR 241300Z 13005KT 100V160 CAVOK 15/05 Q1015=
201911241330 METAR LRTR 241330Z 15007KT CAVOK 15/04 Q1015=
201911241400 METAR LRTR 241400Z 13005KT CAVOK 14/05 Q1015=
201911241430 METAR LRTR 241430Z 10007KT CAVOK 12/06 Q1015=
201911241500 METAR LRTR 241500Z 10008KT CAVOK 11/05 Q1015=
201911241530 METAR LRTR 241530Z 10009KT CAVOK 10/05 Q1015=
201911241600 METAR LRTR 241600Z 11008KT CAVOK 08/04 Q1015=
201911241630 METAR LRTR 241630Z 10008KT CAVOK 08/04 Q1015=
201911241700 METAR LRTR 241700Z 10006KT CAVOK 07/04 Q1015=
201911241730 METAR LRTR 241730Z 09007KT CAVOK 07/04 Q1015=
201911241800 METAR LRTR 241800Z 09006KT CAVOK 06/04 Q1015=
201911241830 METAR LRTR 241830Z 09008KT CAVOK 06/04 Q1015=
201911241900 METAR LRTR 241900Z 09009KT CAVOK 06/04 Q1015=
201911241930 METAR LRTR 241930Z 11009KT CAVOK 06/04 Q1015=
201911242000 METAR LRTR 242000Z 10009KT CAVOK 07/04 Q1015=
201911242030 METAR LRTR 242030Z 10010KT CAVOK 07/04 Q1015=
201911242100 METAR LRTR 242100Z 10009KT CAVOK 06/04 Q1014=
201911242130 METAR LRTR 242130Z 10010KT CAVOK 06/04 Q1014=
201911242200 METAR LRTR 242200Z 11011KT CAVOK 07/04 Q1014=
201911242230 METAR LRTR 242230Z 11007KT CAVOK 05/03 Q1014=
201911242300 METAR LRTR 242300Z 10010KT CAVOK 06/03 Q1014=
201911242330 METAR LRTR 242330Z 11009KT CAVOK 05/03 Q1014=
201911250000 METAR LRTR 250000Z 12008KT CAVOK 04/03 Q1014=
201911250030 METAR LRTR 250030Z 12006KT CAVOK 03/02 Q1014=
201911250100 METAR LRTR 250100Z 11007KT CAVOK 04/03 Q1014=
201911250130 METAR LRTR 250130Z 12007KT CAVOK 03/02 Q1014=
201911250200 METAR LRTR 250200Z 12007KT CAVOK 03/02 Q1014=
201911250230 METAR LRTR 250230Z 10005KT CAVOK 02/02 Q1013=
201911250300 METAR LRTR 250300Z 10004KT CAVOK 03/02 Q1013=
201911250330 METAR LRTR 250330Z 13005KT CAVOK 02/01 Q1013=
201911250400 METAR LRTR 250400Z 11006KT CAVOK 01/01 Q1013=
201911250430 METAR LRTR 250430Z 11007KT CAVOK 01/01 Q1013=
201911250500 METAR LRTR 250500Z 10006KT CAVOK 01/01 Q1013=
201911250530 METAR LRTR 250530Z 12006KT CAVOK 01/01 Q1013 NOSIG=
201911250600 METAR LRTR 250600Z 10008KT CAVOK 02/01 Q1013 NOSIG=
201911250630 METAR LRTR 250630Z 10005KT CAVOK 03/02 Q1013 NOSIG=
201911250700 METAR LRTR 250700Z 10007KT CAVOK 05/03 Q1013 NOSIG=
201911250730 METAR LRTR 250730Z 11007KT CAVOK 07/04 Q1013 NOSIG=
201911250800 METAR LRTR 250800Z 11009KT CAVOK 09/05 Q1013 NOSIG=
201911250830 METAR LRTR 250830Z 12008KT CAVOK 10/05 Q1013 NOSIG=
201911250900 METAR LRTR 250900Z 12006KT CAVOK 11/05 Q1013 NOSIG=
201911250930 METAR LRTR 250930Z 11004KT 080V160 CAVOK 12/05 Q1013 NOSIG=
201911251000 METAR LRTR 251000Z VRB02KT CAVOK 13/05 Q1013 NOSIG=
201911251030 METAR LRTR 251030Z VRB01KT CAVOK 14/05 Q1012 NOSIG=
201911251100 METAR LRTR 251100Z VRB02KT CAVOK 14/05 Q1012 NOSIG=
201911251130 METAR LRTR 251130Z 30006KT 270V330 CAVOK 14/06 Q1012 NOSIG=
201911251200 METAR LRTR 251200Z 29007KT CAVOK 14/07 Q1012 NOSIG=
201911251230 METAR LRTR 251230Z 29007KT CAVOK 13/06 Q1012 NOSIG=
201911251300 METAR LRTR 251300Z 30008KT CAVOK 13/06 Q1012 NOSIG=
201911251330 METAR LRTR 251330Z 30008KT CAVOK 13/06 Q1012 NOSIG=
201911251400 METAR LRTR 251400Z 32008KT CAVOK 13/06 Q1012 NOSIG=
201911251430 METAR LRTR 251430Z 32007KT CAVOK 12/06 Q1012 NOSIG=
201911251500 METAR LRTR 251500Z 32004KT CAVOK 10/06 Q1012 NOSIG=
201911251530 METAR LRTR 251530Z 34004KT CAVOK 09/06 Q1012 NOSIG=
201911251600 METAR LRTR 251600Z 34004KT CAVOK 08/05 Q1012 NOSIG=
201911251630 METAR LRTR 251630Z 35005KT CAVOK 09/05 Q1012 NOSIG=
201911251700 METAR LRTR 251700Z 36005KT CAVOK 08/05 Q1012 NOSIG=
201911251730 METAR LRTR 251730Z 36005KT CAVOK 07/05 Q1012=
201911251800 METAR LRTR 251800Z VRB02KT CAVOK 05/04 Q1012=
201911251830 METAR LRTR 251830Z 35003KT CAVOK 06/04 Q1012=
201911251900 METAR LRTR 251900Z 35003KT 300V020 CAVOK 05/03 Q1012=
201911251930 METAR LRTR 251930Z 00000KT CAVOK 07/05 Q1012=
201911252000 METAR LRTR 252000Z 33003KT CAVOK 05/03 Q1012=
201911252030 METAR COR LRTR 252030Z VRB02KT 8000 NSC 06/04 Q1012=
201911252100 METAR LRTR 252100Z 06003KT 8000 NSC 04/03 Q1012=
201911252130 METAR LRTR 252130Z 09006KT 6000 NSC 03/02 Q1013=
201911252200 METAR LRTR 252200Z 08004KT 6000 NSC 02/02 Q1013=
201911252230 METAR LRTR 252230Z 07004KT 6000 NSC 03/03 Q1013=
201911252300 METAR LRTR 252300Z 08006KT 8000 NSC 03/03 Q1013=
201911252330 METAR LRTR 252330Z 08005KT 8000 NSC 02/02 Q1013=
201911260000 METAR LRTR 260000Z 10005KT 8000 NSC 03/03 Q1013=
201911260030 METAR COR LRTR 260030Z 13004KT 8000 NSC 03/03 Q1013=
201911260100 METAR LRTR 260100Z 12004KT 8000 NSC 02/02 Q1013=
201911260130 METAR LRTR 260130Z 09005KT 6000 NSC 03/03 Q1013=
201911260200 METAR LRTR 260200Z 10005KT 8000 NSC 03/03 Q1012=
201911260230 METAR LRTR 260230Z 12006KT 8000 NSC 02/02 Q1012=
201911260300 METAR LRTR 260300Z 11008KT 8000 NSC 02/02 Q1012=
201911260330 METAR LRTR 260330Z 08004KT 8000 NSC 02/02 Q1012=
201911260400 METAR LRTR 260400Z 05003KT 6000 NSC 02/02 Q1012=
201911260430 METAR LRTR 260430Z 08002KT 6000 NSC 02/02 Q1013=
201911260500 METAR LRTR 260500Z 00000KT 9000 NSC 02/02 Q1013=
201911260530 METAR LRTR 260530Z 01002KT 7000 MIFG NSC 01/01 Q1013=
201911260600 METAR LRTR 260600Z 01002KT 8000 MIFG NSC 02/02 Q1013=
201911260630 METAR LRTR 260630Z 00000KT 9999 MIFG NSC 03/03 Q1013=
201911260700 METAR LRTR 260700Z 11003KT CAVOK 05/04 Q1013=
201911260730 METAR LRTR 260730Z 11004KT CAVOK 05/04 Q1013=
201911260800 METAR LRTR 260800Z 09003KT CAVOK 06/05 Q1013=
201911260830 METAR LRTR 260830Z 12004KT CAVOK 06/05 Q1013=
201911260900 METAR LRTR 260900Z 13004KT CAVOK 07/06 Q1013=
201911260930 METAR LRTR 260930Z 12004KT CAVOK 08/06 Q1013=
201911261000 METAR LRTR 261000Z 11004KT CAVOK 08/07 Q1013=
201911261030 METAR LRTR 261030Z 15003KT 120V190 CAVOK 09/07 Q1013=
201911261100 METAR LRTR 261100Z VRB02KT CAVOK 09/06 Q1013=
201911261130 METAR LRTR 261130Z 00000KT CAVOK 10/07 Q1013=
201911261200 METAR LRTR 261200Z 00000KT CAVOK 11/07 Q1012=
201911261230 METAR LRTR 261230Z VRB01KT CAVOK 11/07 Q1012=
201911261300 METAR LRTR 261300Z 29003KT 260V330 CAVOK 12/07 Q1012=
201911261330 METAR LRTR 261330Z 30003KT CAVOK 11/06 Q1012=
201911261400 METAR LRTR 261400Z 32003KT CAVOK 11/06 Q1012=
201911261430 METAR LRTR 261430Z 31003KT CAVOK 10/07 Q1012=
201911261500 METAR LRTR 261500Z 32004KT CAVOK 09/06 Q1012=
201911261530 METAR LRTR 261530Z 33003KT 8000 NSC 08/06 Q1013=
201911261600 METAR LRTR 261600Z 29003KT 7000 NSC 08/06 Q1013=
201911261630 METAR LRTR 261630Z 31002KT 6000 NSC 07/07 Q1013=
201911261700 METAR LRTR 261700Z 04001KT 6000 NSC 05/05 Q1013=
201911261730 METAR LRTR 261730Z 08005KT 5000 BR NSC 04/04 Q1013=
201911261800 METAR LRTR 261800Z 08006KT 5000 BR NSC 03/03 Q1013=
201911261830 METAR LRTR 261830Z 09005KT 5000 BR NSC 04/04 Q1013=
201911261900 METAR LRTR 261900Z 07006KT 5000 BR NSC 03/02 Q1013=
201911261930 METAR LRTR 261930Z 14005KT 090V170 5000 BR FEW001 03/03 Q1013=
201911262000 METAR LRTR 262000Z 13004KT 0350 R11/0400N R29/0275N FG FEW001
                        SCT010 02/02 Q1013=
201911262030 METAR LRTR 262030Z 06004KT 0350 R11/0450N R29/0600N FG SCT008
                        01/01 Q1013=
201911262100 METAR LRTR 262100Z 07004KT 0600 R11/0800N R29/0800N FG SCT004
                        02/02 Q1013=
201911262130 METAR LRTR 262130Z 04004KT 1500 R11/0900D R29/1100U BR FEW010
                        01/01 Q1013=
201911262200 METAR LRTR 262200Z 07006KT 2500 BR FEW010 01/01 Q1013=
201911262230 METAR LRTR 262230Z 10004KT 1500 R11/P2000U R29/14000U BR
                        NSC 01/01 Q1013=
201911262300 METAR LRTR 262300Z 10007KT 1000 BR NSC 01/01 Q1012=
201911262330 METAR LRTR 262330Z 10005KT 0300 R11/0500N R29/0400N FG SCT001
                        00/00 Q1012=
201911270000 METAR LRTR 270000Z 10005KT 0200 R11/0400N R29/0350N FZFG
                        SCT001 M00/M00 Q1012=
201911270030 METAR LRTR 270030Z 09006KT 0400 R11/0650U R29/0500N FG SCT001
                        00/M00 Q1012=
201911270100 METAR LRTR 270100Z 09006KT 0600 R11/1200D R29/1000U FZFG
                        SCT002 M00/M00 Q1012=
201911270130 METAR LRTR 270130Z 11006KT 0800 R11/1800D R29/1100U FZFG
                        SCT001 M01/M01 Q1012=
201911270200 METAR LRTR 270200Z 11004KT 1500 BR SCT001 M01/M01 Q1012=
201911270230 METAR LRTR 270230Z 14003KT 1500 BR SCT008 M00/M00 Q1011=
201911270300 METAR LRTR 270300Z 12004KT 1500 R11/P2000U R29/0800U BR SCT010
                        M01/M01 Q1011=
201911270330 METAR LRTR 270330Z 12004KT 0800 R11/P2000 R29/1600U FZFG
                        FEW010 M01/M01 Q1011=
201911270400 METAR LRTR 270400Z 11004KT 0700 R11/0800U R29/P2000 FZFG
                        FEW003 SCT010 M00/M00 Q1011=
201911270430 METAR LRTR 270430Z 11005KT 0600 R11/0900N R29/0800N FZFG
                        SCT003 M01/M01 Q1011=
201911270500 METAR LRTR 270500Z 11006KT 0700 R11/1000U R29/P2000 FZFG
                        FEW003 SCT012 M01/M01 Q1011=
201911270530 METAR LRTR 270530Z 12003KT 2000 BR FEW011 M00/M00 Q1011 TEMPO
                        3000=
201911270600 METAR LRTR 270600Z 12004KT 2500 BR FEW001 M00/M00 Q1011=
201911270630 METAR LRTR 270630Z 11003KT 0350 R11/0400N R29/0440N FZFG
                        SCT001 M01/M01 Q1011=
201911270700 METAR LRTR 270700Z 09004KT 0550 R11/0800U R29/0700U FZFG
                        SCT002 M00/M00 Q1011=
201911270730 METAR LRTR 270730Z 11006KT 3500 BR FEW003 02/02 Q1011=
201911270800 METAR LRTR 270800Z 10006KT 6000 NSC 03/03 Q1011=
201911270830 METAR LRTR 270830Z 10006KT CAVOK 06/06 Q1011=
201911270900 METAR LRTR 270900Z 12007KT CAVOK 07/06 Q1011=
201911270930 METAR LRTR 270930Z 14009KT CAVOK 09/06 Q1010=
201911271000 METAR LRTR 271000Z 15006KT CAVOK 10/06 Q1010=
201911271030 METAR LRTR 271030Z 16008KT CAVOK 11/06 Q1010=
201911271100 METAR LRTR 271100Z 17009KT CAVOK 12/06 Q1009=
201911271130 METAR LRTR 271130Z 17010KT CAVOK 13/06 Q1009=
201911271200 METAR LRTR 271200Z 19011KT CAVOK 13/06 Q1009=
201911271230 METAR LRTR 271230Z 18012KT CAVOK 13/06 Q1008=
201911271300 METAR LRTR 271300Z 19011KT CAVOK 13/06 Q1008=
201911271330 METAR LRTR 271330Z 20010KT CAVOK 13/06 Q1008=
201911271400 METAR LRTR 271400Z 17007KT CAVOK 12/06 Q1008=
201911271430 METAR LRTR 271430Z 16006KT CAVOK 11/06 Q1008=
201911271500 METAR LRTR 271500Z 15007KT CAVOK 10/06 Q1008=
201911271530 METAR LRTR 271530Z 15007KT CAVOK 09/05 Q1008=
201911271600 METAR LRTR 271600Z 15007KT CAVOK 09/05 Q1008=
201911271630 METAR LRTR 271630Z 16006KT CAVOK 09/05 Q1008=
201911271700 METAR LRTR 271700Z 13004KT CAVOK 08/05 Q1008=
201911271730 METAR LRTR 271730Z 12007KT CAVOK 07/05 Q1008=
201911271800 METAR LRTR 271800Z 11008KT CAVOK 07/05 Q1008=
201911271830 METAR LRTR 271830Z 11007KT CAVOK 07/05 Q1008=
201911271900 METAR LRTR 271900Z 11007KT CAVOK 07/05 Q1008=
201911271930 METAR LRTR 271930Z 11007KT CAVOK 07/05 Q1008=
201911272000 METAR LRTR 272000Z 11011KT CAVOK 07/05 Q1007=
201911272030 METAR LRTR 272030Z 11008KT CAVOK 07/05 Q1007=
201911272100 METAR LRTR 272100Z 11008KT CAVOK 07/05 Q1007=
201911272130 METAR LRTR 272130Z 12009KT CAVOK 07/05 Q1007=
201911272200 METAR LRTR 272200Z 11009KT CAVOK 08/05 Q1007=
201911272230 METAR LRTR 272230Z 11009KT CAVOK 08/05 Q1007=
201911272300 METAR LRTR 272300Z 11007KT CAVOK 08/05 Q1007=
201911272330 METAR LRTR 272330Z 12005KT 9999 -RA NSC 08/06 Q1007=
201911280000 METAR LRTR 280000Z 12006KT CAVOK 08/06 Q1007 REUP=
201911280030 METAR LRTR 280030Z 12007KT 9999 -RA NSC 08/06 Q1007=
201911280100 METAR LRTR 280100Z 11006KT 9999 -RA NSC 07/07 Q1007=
201911280130 METAR LRTR 280130Z 11005KT 9999 -RA NSC VC069 07/07 Q1007=
201911280200 METAR LRTR 280200Z 12005KT 9999 -RA SCT048 07/07 Q1007=
201911280230 METAR LRTR 280230Z 12006KT 9999 -RA SCT036 07/07 Q1007=
201911280300 METAR LRTR 280300Z 11005KT 8000 -RA SCT037 07/07 Q1007 R11/29//95=
201911280330 METAR LRTR 280330Z 12006KT 8000 -RA SCT042 07/07 Q1007 R11/29//95=
201911280400 METAR LRTR 280400Z 11007KT 8000 -RA SCT045 07/07 Q1007 R11/29//95=
201911280430 METAR LRTR 280430Z 12009KT 7000 -RA BKN047 07/07 Q1007 R11/29//95=
201911280500 METAR LRTR 280500Z 12007KT 9999 -RA NSC 07/07 Q1007 R11/29//95=
201911280530 METAR LRTR 280530Z 10007KT 8000 -RA NSC 07/07 Q1006 R11/29//95=
201911280600 METAR LRTR 280600Z 11007KT 8000 NSC 07/07 Q1007 R11/29//95=
201911280630 METAR LRTR 280630Z 11007KT CAVOK 08/07 Q1007 R11/29//95=
201911280700 METAR LRTR 280700Z 11008KT CAVOK 08/08 Q1006 R11/29//95=
201911280730 METAR LRTR 280730Z 12008KT CAVOK 08/08 Q1007 R11/29//95=
201911280800 METAR LRTR 280800Z 11009KT CAVOK 09/08 Q1006 R11/29//95=
201911280830 METAR LRTR 280830Z 11009KT CAVOK 09/09 Q1006 R11/29//95=
201911280900 METAR LRTR 280900Z 12009KT CAVOK 10/09 Q1006 R11/29//95=
201911280930 METAR LRTR 280930Z 12009KT 9999 -RA NSC 10/09 Q1006 R11/19//95=
201911281000 METAR COR LRTR 281000Z 12009KT CAVOK 11/10 Q1006 R11/19//95=
201911281030 METAR COR LRTR 281030Z 13006KT 9999 -RA NSC 11/10 Q1005 R11/19//95=
201911281100 METAR LRTR 281100Z 12005KT 8000 -RA NSC 11/11 Q1005 R11/19//95=
201911281130 METAR COR LRTR 281130Z 14006KT 110V170 8000 -RA NSC 12/11
                        Q1005 R11/19//95=
201911281200 METAR LRTR 281200Z 15008KT 8000 -RA NSC 12/11 Q1005 RERA
                        R11/29//95=
201911281230 METAR LRTR 281230Z 18010KT 9999 -RA BKN048 12/11 Q1005 R11/29//95=
201911281300 METAR LRTR 281300Z 17011KT 7000 RA SCT045 12/11 Q1004 R11/29//95=
201911281330 METAR LRTR 281330Z 16011KT 9999 FEW045 12/11 Q1004 RERA R11/29//95=
201911281400 METAR LRTR 281400Z 16009KT 9999 FEW045 12/11 Q1004 R11/29//95=
201911281430 METAR LRTR 281430Z 16008KT 9999 FEW045 12/10 Q1004 R11/29//95=
201911281500 METAR LRTR 281500Z 17008KT 9999 -RA FEW045 11/10 Q1004 R11/29//95=
201911281530 METAR LRTR 281530Z 18009KT 9999 -RA FEW045 11/10 Q1004 R11/29//95=
201911281600 METAR LRTR 281600Z 19011KT 9999 -RA FEW048 11/10 Q1004 R11/29//95=
201911281630 METAR LRTR 281630Z 20013KT 9999 -RA NSC 11/10 Q1004 R11/29//95=
201911281700 METAR LRTR 281700Z 18012KT 9999 -RA NSC 11/10 Q1004 R11/29//95=
201911281730 METAR LRTR 281730Z 19011KT 9999 -RA NSC 11/10 Q1004 R11/29//95=
201911281800 METAR LRTR 281800Z 20011KT CAVOK 11/10 Q1004 R11/29//95=
201911281830 METAR LRTR 281830Z 19011KT 9999 -RA NSC 11/10 Q1004 R11/29//95=
201911281900 METAR LRTR 281900Z 18011KT 9999 -RA NSC 11/10 Q1004 R11/29//95=
201911281930 METAR LRTR 281930Z 20009KT 9999 -RA NSC 11/10 Q1004 R11/29//95=
201911282000 METAR LRTR 282000Z 19009KT 9999 -RA FEW015 11/10 Q1004 R11/29//95=
201911282030 METAR LRTR 282030Z 19010KT 9999 BKN041 11/10 Q1004 R11/29//95=
201911282100 METAR LRTR 282100Z 20010KT 9999 -RA BKN034 11/10 Q1004 R11/29//95=
201911282130 METAR LRTR 282130Z 20007KT 9999 -RA BKN040 10/10 Q1004 R11/29//95=
201911282200 METAR LRTR 282200Z 19007KT 9999 -RA BKN048 10/10 Q1004 R11/29//95=
201911282230 METAR LRTR 282230Z 19009KT 9999 FEW047 10/10 Q1004 R11/29//95=
201911282300 METAR LRTR 282300Z 19008KT 9999 FEW048 10/10 Q1004 R11/29//95=
201911282330 METAR LRTR 282330Z 20008KT 9999 SCT007 SCT040 10/09 Q1004
                        R11/29//95=
201911290000 METAR LRTR 290000Z 20009KT 9999 SCT014 SCT040 10/09 Q1004
                        R11/29//95=
201911290030 METAR LRTR 290030Z 21007KT 9999 FEW020 SCT035 09/09 Q1005
                        R11/29//95=
201911290100 METAR LRTR 290100Z 20006KT 9999 SCT021 BKN033 09/09 Q1005
                        R11/29//95=
201911290130 METAR LRTR 290130Z 21007KT 9999 FEW007 BKN020 09/09 Q1005
                        R11/29//95=
201911290200 METAR LRTR 290200Z 21007KT 9000 SCT017 OVC041 09/09 Q1005
                        R11/29//95=
201911290230 METAR COR LRTR 290230Z 22005KT 8000 FEW012 BKN023 09/09 Q1005
                        R11/29//95=
201911290300 METAR LRTR 290300Z 24004KT 8000 BKN006 09/09 Q1005 R11/29//95=
201911290330 METAR COR LRTR 290330Z 22004KT 7000 BKN006 09/09 Q1005 R11/29//95=
201911290400 METAR LRTR 290400Z 26004KT 6000 BKN005 OVC011 10/10 Q1006
                        R11/29//95=
201911290430 METAR LRTR 290430Z 24005KT 5000 BR BKN004 09/09 Q1006 R11/29//95=
201911290500 METAR LRTR 290500Z 27004KT 5000 BR BKN003 09/09 Q1006 R11/29//95=
201911290530 METAR LRTR 290530Z 29003KT 260V320 4500 BR BKN003 09/09 Q1006
                        R11/29//95=
201911290600 METAR LRTR 290600Z 33003KT 1500 BR FEW001 BKN003 09/09 Q1006
                        R11/29//95=
201911290630 METAR COR LRTR 290630Z VRB01KT 1000 R11/1900U R29/P2000 BR
                        SCT001 BKN003 09/09 Q1006 R11/29//95=
201911290700 METAR LRTR 290700Z VRB01KT 1500 BR SCT002 BKN004 09/09 Q1006
                        R11/29//95=
201911290730 METAR LRTR 290730Z 15004KT 120V190 3000 BR SCT003 BKN004
                        09/09 Q1007 R11/29//95=
201911290800 METAR LRTR 290800Z 17006KT 3500 BR SCT003 BKN004 09/09 Q1007
                        R11/29//95=
201911290830 METAR LRTR 290830Z 17005KT 3500 BR SCT002 BKN003 09/09 Q1007
                        R11/29//95=
201911290900 METAR LRTR 290900Z 20006KT 3000 BR SCT003 BKN004 10/10 Q1007
                        R11/29//95=
201911290930 METAR LRTR 290930Z 19007KT 3000 -RA BR SCT003 BKN004 10/10
                        Q1008 R11/29//95=
201911291000 METAR LRTR 291000Z VRB02KT 3500 -RA BR SCT003 BKN004 10/10
                        Q1008 R11/29//95=
201911291030 METAR LRTR 291030Z 28008KT 3000 -RA BR SCT003 BKN004 10/10
                        Q1008 R11/29//95=
201911291100 METAR LRTR 291100Z 31007KT 4500 -SHRA BR FEW005 SCT007 SCT033CB
                        09/09 Q1008 R11/29//95=
201911291130 METAR LRTR 291130Z VRB01KT 8000 FEW005 SCT007 FEW040CB 10/09
                        Q1007 R11/29//95=
201911291200 METAR LRTR 291200Z 07003KT 010V110 9999 SCT007 10/09 Q1007
                        R11/29//95=
201911291230 METAR LRTR 291230Z 11003KT 9999 SCT006 BKN042 10/09 Q1007
                        R11/29//95=
201911291300 METAR LRTR 291300Z VRB02KT 9999 FEW008 BKN043 10/10 Q1008
                        R11/29//95=
201911291330 METAR LRTR 291330Z 13004KT 9999 SCT011 BKN044 10/10 Q1008
                        R11/29//95=
201911291400 METAR LRTR 291400Z 13004KT 9999 FEW006 BKN037 10/10 Q1008
                        R11/29//95=
201911291430 METAR LRTR 291430Z 15004KT 9999 FEW006 BKN032 10/10 Q1008
                        R11/19//95=
201911291500 METAR LRTR 291500Z 18005KT 8000 FEW006 BKN027 10/10 Q1008
                        R11/19//95=
201911291530 METAR LRTR 291530Z 20005KT 7000 BKN028 10/10 Q1009 R11/19//95=
201911291600 METAR LRTR 291600Z 19005KT 6000 BKN026 10/10 Q1009 R11/19//95=
201911291630 METAR LRTR 291630Z 20004KT 5000 BR SCT026 09/09 Q1009 R11/19//95=
201911291700 METAR LRTR 291700Z 17005KT 4500 1000E R11/P2000 R29/1300N
                        BCFG BR BKN019 09/09 Q1009 R11/19//95=
201911291730 METAR COR LRTR 291730Z 17005KT 4000 1200E R11/P2000 R29/0900D
                        BCFG BR BKN018 09/09 Q1009 R11/19//95=
201911291800 METAR LRTR 291800Z 12003KT 090V150 0150 R11/0400N R29/0600N
                        FG SCT002 07/07 Q1009 R11/19//95=
201911291830 METAR LRTR 291830Z 12003KT 0050 R11/0300N R29/0375N FG VV001
                        07/07 Q1009 R11/19//95=
201911291900 METAR LRTR 291900Z 09004KT 0150 R11/0550N R29/0700N FG VV001
                        06/06 Q1009 R11/19//95=
201911291930 METAR COR LRTR 291930Z 09005KT 0150 R11/0450N R29/0900N FG
                        VV001 07/07 Q1009 R11/19//95=
201911292000 METAR LRTR 292000Z VRB01KT 0150 R11/0500N R29/0550N FG VV001
                        07/07 Q1010 R11/19//95=
201911292030 METAR LRTR 292030Z 08002KT 0200 R11/0650U R29/0550N FG VV001
                        06/06 Q1009 R11/19//95=
201911292100 METAR LRTR 292100Z 07003KT 0200 R11/0800N R29/0375N FG VV001
                        05/05 Q1010 R11/19//95=
201911292130 METAR LRTR 292130Z 06005KT 0500 R11/1100U R29/0800U FG FEW002
                        SCT010 05/05 Q1010 R11/19//95=
201911292200 METAR COR LRTR 292200Z 11004KT 0800 R11/1600D R29/1000U FG
                        FEW002 SCT040 05/05 Q1010 R11/19//95=
201911292230 METAR LRTR 292230Z VRB02KT 0500 R11/1200U R29/1000D FG SCT035
                        05/05 Q1010 R11/19//95=
201911292300 METAR LRTR 292300Z 06002KT 1500 BR SCT035 05/05 Q1010 R11/19//95=
201911292330 METAR COR LRTR 292330Z 10004KT 1500 BR SCT038 BKN045 06/06
                        Q1010 R11/19//95=
201911300000 METAR LRTR 300000Z 08003KT 0500 R11/1200D R29/2000 BCFG BR
                        BKN048 06/06 Q1010 R11/19//95=
201911300030 METAR LRTR 300030Z 06003KT 0300 R11/0800N R29/2000 BCFG BR
                        BKN048 06/06 Q1010 R11/19//95=
201911300100 METAR COR LRTR 300100Z 11003KT 1500 BR NSC 06/06 Q1010 R11/19//95=
201911300130 METAR LRTR 300130Z 06003KT 1500 BR NSC 06/06 Q1010 R11/19//95=
201911300200 METAR LRTR 300200Z 36002KT 1500 BR FEW007 06/06 Q1011 R11/19//95=
201911300230 METAR LRTR 300230Z 30004KT 1500 BR FEW005 06/06 Q1011 R11/19//95=
201911300300 METAR LRTR 300300Z 31005KT 1500 BR FEW005 06/06 Q1011 R11/19//95=
201911300330 METAR LRTR 300330Z 34006KT 6000 -RA NSC 07/07 Q1011 R11/19//95=
201911300400 METAR LRTR 300400Z 32008KT 8000 -RA NSC 06/06 Q1012 R11/19//95=
201911300430 METAR COR LRTR 300430Z 32011KT 9999 -RA NSC 06/06 Q1012 R11/19//95=
201911300500 METAR LRTR 300500Z 32010KT 9999 FEW045 06/04 Q1013 R11/19//95=
201911300530 METAR LRTR 300530Z 33012KT 9999 BKN045 06/03 Q1014 R11/19//95
                        NOSIG=
201911300600 METAR LRTR 300600Z 32009KT 9999 BKN048 05/03 Q1014 R11/19//95
                        NOSIG=
201911300630 METAR LRTR 300630Z 32011KT CAVOK 05/03 Q1015 R11/19//95 NOSIG=
201911300700 METAR LRTR 300700Z 31011KT CAVOK 04/02 Q1015 R11/29//95 NOSIG=
201911300730 METAR LRTR 300730Z 31012KT CAVOK 05/02 Q1016 R11/29//95 NOSIG=
201911300800 METAR LRTR 300800Z 31012KT CAVOK 04/02 Q1016 R11/29//95 NOSIG=
201911300830 METAR LRTR 300830Z 31013KT 9999 FEW015 05/02 Q1016 R11/29//95
                        NOSIG=
201911300900 METAR LRTR 300900Z 31012KT 9999 FEW018 05/02 Q1017 R11/19//95
                        NOSIG=
201911300930 METAR LRTR 300930Z 32017KT 9999 FEW020 06/02 Q1017 R11/19//95
                        NOSIG=
201911301000 METAR LRTR 301000Z 31016KT 9999 FEW022 06/02 Q1017 NOSIG=
201911301030 METAR LRTR 301030Z 31015KT 9999 FEW023 SCT035 06/02 Q1017
                        NOSIG=
201911301100 METAR LRTR 301100Z 31013KT 9999 FEW024 BKN035 06/02 Q1018
                        NOSIG=
201911301130 METAR LRTR 301130Z 30012KT 9999 FEW024 BKN038 06/03 Q1018
                        NOSIG=
201911301200 METAR COR LRTR 301200Z 30010KT 9999 FEW028 BKN039 06/02 Q1018
                        NOSIG=
201911301230 METAR LRTR 301230Z 30010KT 9999 BKN032 07/02 Q1018 NOSIG=
201911301300 METAR LRTR 301300Z 30010KT 9999 BKN031 07/02 Q1019 NOSIG=
201911301330 METAR LRTR 301330Z 31010KT 9999 BKN032 07/02 Q1019 NOSIG=
201911301400 METAR LRTR 301400Z 30009KT 9999 BKN032 06/02 Q1019 NOSIG=
201911301430 METAR LRTR 301430Z 31009KT 9999 BKN033 06/02 Q1020 NOSIG=
201911301500 METAR LRTR 301500Z 31007KT 9999 BKN032 06/02 Q1020 NOSIG=
201911301530 METAR LRTR 301530Z 31010KT 9999 BKN034 05/01 Q1021 NOSIG=
201911301600 METAR LRTR 301600Z 31011KT 9999 BKN036 05/M00 Q1021 NOSIG=
201911301630 METAR LRTR 301630Z 31012KT 9999 BKN035 04/M01 Q1021 NOSIG=
201911301700 METAR LRTR 301700Z 30008KT 9999 BKN040 03/M00 Q1022 NOSIG=
201911301730 METAR LRTR 301730Z 31008KT 9999 SCT042 02/M00 Q1022=
201911301800 METAR LRTR 301800Z 30006KT 9999 SCT042 01/M01 Q1022=
201911301830 METAR LRTR 301830Z 31007KT 9999 SCT048 01/M00 Q1022=
201911301900 METAR LRTR 301900Z 31005KT CAVOK 01/M00 Q1023=
201911301930 METAR LRTR 301930Z 30004KT CAVOK M00/M01 Q1023=
201911302000 METAR LRTR 302000Z 30006KT CAVOK M01/M01 Q1023=
201911302030 METAR LRTR 302030Z 30006KT CAVOK M01/M02 Q1023=
201911302100 METAR LRTR 302100Z 29007KT CAVOK M02/M03 Q1024=
201911302130 METAR LRTR 302130Z 29006KT CAVOK M02/M02 Q1024=
201911302200 METAR LRTR 302200Z 28006KT CAVOK M01/M03 Q1024=
201911302230 METAR LRTR 302230Z 27004KT CAVOK M01/M02 Q1024=
201911302300 METAR LRTR 302300Z VRB04KT CAVOK M01/M03 Q1025=
201911302330 METAR LRTR 302330Z 29005KT 270V340 CAVOK M03/M03 Q1025=