201912010000 METAR LRTR 010000Z 27003KT CAVOK M03/M03 Q1025=
201912010030 METAR LRTR 010030Z 00000KT CAVOK M02/M03 Q1025=
201912010100 METAR LRTR 010100Z 00000KT CAVOK M03/M03 Q1025=
201912010130 METAR LRTR 010130Z 29002KT CAVOK M03/M04 Q1025=
201912010200 METAR LRTR 010200Z 30002KT CAVOK M03/M03 Q1025=
201912010230 METAR LRTR 010230Z 30005KT CAVOK M04/M04 Q1025=
201912010300 METAR LRTR 010300Z 29005KT CAVOK M05/M05 Q1026=
201912010330 METAR LRTR 010330Z 30004KT CAVOK M05/M05 Q1026=
201912010400 METAR LRTR 010400Z 31003KT 8000 NSC M05/M05 Q1026=
201912010430 METAR LRTR 010430Z 33001KT 7000 NSC M05/M05 Q1026=
201912010500 METAR LRTR 010500Z 00000KT 8000 NSC M05/M05 Q1026=
201912010530 METAR LRTR 010530Z 00000KT 7000 NSC M04/M04 Q1027=
201912010600 METAR LRTR 010600Z 12001KT CAVOK M05/M05 Q1027=
201912010630 METAR LRTR 010630Z VRB01KT CAVOK M04/M05 Q1027=
201912010700 METAR LRTR 010700Z 00000KT CAVOK M03/M04 Q1027=
201912010730 METAR LRTR 010730Z 08002KT CAVOK M02/M04 Q1027=
201912010800 METAR LRTR 010800Z 09003KT CAVOK M01/M02 Q1027=
201912010830 METAR LRTR 010830Z VRB02KT CAVOK 00/M02 Q1028=
201912010900 METAR COR LRTR 010900Z 13003KT 100V170 CAVOK 02/M01 Q1028=
201912010930 METAR LRTR 010930Z 12003KT 090V170 CAVOK 02/M01 Q1027=
201912011000 METAR LRTR 011000Z 12004KT 080V150 CAVOK 03/M02 Q1027=
201912011030 METAR LRTR 011030Z 14004KT 110V170 CAVOK 03/M02 Q1027=
201912011100 METAR LRTR 011100Z VRB02KT CAVOK 04/M03 Q1027=
201912011130 METAR LRTR 011130Z VRB02KT CAVOK 04/M04 Q1027=
201912011200 METAR LRTR 011200Z VRB01KT CAVOK 04/M04 Q1026=
201912011230 METAR LRTR 011230Z VRB01KT CAVOK 05/M04 Q1026=
201912011300 METAR LRTR 011300Z VRB01KT CAVOK 04/M03 Q1026=
201912011330 METAR LRTR 011330Z VRB02KT CAVOK 04/M03 Q1026=
201912011400 METAR LRTR 011400Z 11004KT CAVOK 04/M02 Q1026=
201912011430 METAR LRTR 011430Z 12005KT CAVOK 02/M03 Q1026=
201912011500 METAR LRTR 011500Z 15005KT CAVOK 01/M04 Q1026=
201912011530 METAR LRTR 011530Z 14004KT CAVOK 01/M04 Q1026=
201912011600 METAR LRTR 011600Z 10004KT CAVOK M01/M03 Q1026=
201912011630 METAR LRTR 011630Z 09005KT CAVOK M01/M03 Q1026=
201912011700 METAR LRTR 011700Z 10005KT CAVOK M02/M03 Q1026 NOSIG=
201912011730 METAR LRTR 011730Z 10006KT CAVOK M03/M04 Q1025 NOSIG=
201912011800 METAR LRTR 011800Z 10005KT CAVOK M03/M04 Q1025 NOSIG=
201912011830 METAR LRTR 011830Z 11007KT CAVOK M04/M04 Q1025 NOSIG=
201912011900 METAR LRTR 011900Z 11008KT CAVOK M03/M04 Q1025 NOSIG=
201912011930 METAR LRTR 011930Z 11008KT CAVOK M03/M04 Q1025 NOSIG=
201912012000 METAR LRTR 012000Z 11009KT CAVOK M02/M04 Q1024 NOSIG=
201912012030 METAR LRTR 012030Z 11010KT CAVOK M02/M03 Q1024 NOSIG=
201912012100 METAR LRTR 012100Z 12009KT CAVOK M01/M03 Q1024 NOSIG=
201912012130 METAR COR LRTR 012130Z 11009KT CAVOK M01/M03 Q1024 NOSIG=
201912012200 METAR LRTR 012200Z 12008KT CAVOK M01/M03 Q1024 NOSIG=
201912012230 METAR LRTR 012230Z 11009KT CAVOK M01/M02 Q1023 NOSIG=
201912012300 METAR LRTR 012300Z 11010KT CAVOK M00/M02 Q1023 NOSIG=
201912012330 METAR LRTR 012330Z 12011KT CAVOK M00/M02 Q1023 NOSIG=
201912020000 METAR LRTR 020000Z 12011KT CAVOK M00/M02 Q1022 NOSIG=
201912020030 METAR LRTR 020030Z 11011KT CAVOK M00/M02 Q1022 NOSIG=
201912020100 METAR LRTR 020100Z 11010KT CAVOK 00/M01 Q1022 NOSIG=
201912020130 METAR LRTR 020130Z 11009KT CAVOK 01/M01 Q1022 NOSIG=
201912020200 METAR LRTR 020200Z 11009KT CAVOK 01/M01 Q1021 NOSIG=
201912020230 METAR LRTR 020230Z 12007KT CAVOK 01/M01 Q1021 NOSIG=
201912020300 METAR LRTR 020300Z 12007KT CAVOK 02/M01 Q1021 NOSIG=
201912020330 METAR LRTR 020330Z 13007KT 9999 -RA NSC 02/M01 Q1021 NOSIG=
201912020400 METAR LRTR 020400Z 13009KT 9999 -RA FEW040 02/M00 Q1020 R11/19//95
                        NOSIG=
201912020430 METAR LRTR 020430Z 12010KT 9999 -RA FEW042 01/00 Q1020 R11/19//95
                        NOSIG=
201912020500 METAR LRTR 020500Z 11010KT 9999 -RA NSC 01/00 Q1020 R11/29//95
                        NOSIG=
201912020530 METAR LRTR 020530Z 11012KT 9999 -RA NSC 01/00 Q1019 R11/29//95=
201912020600 METAR LRTR 020600Z 11012KT 9999 -RA NSC 02/01 Q1018 R11/29//95=
201912020630 METAR LRTR 020630Z 11011KT 9999 -RA NSC 02/01 Q1018 R11/29//95=
201912020700 METAR LRTR 020700Z 11011KT CAVOK 02/01 Q1018 R11/29//95=
201912020730 METAR LRTR 020730Z 11010KT CAVOK 02/02 Q1018 R11/29//95=
201912020800 METAR LRTR 020800Z 11009KT CAVOK 03/02 Q1018 R11/29//95=
201912020830 METAR COR LRTR 020830Z 11011KT CAVOK 03/02 Q1018 R11/29//95=
201912020900 METAR LRTR 020900Z 12012KT CAVOK 03/01 Q1017 R11/29//95=
201912020930 METAR LRTR 020930Z 12010KT CAVOK 04/02 Q1017 R11/29//95=
201912021000 METAR LRTR 021000Z 12013KT CAVOK 05/02 Q1016 R11/19//95=
201912021030 METAR LRTR 021030Z 14007KT CAVOK 06/02 Q1016 R11/19//95=
201912021100 METAR LRTR 021100Z 14008KT 9999 -RA NSC 06/02 Q1015 R11/19//95=
201912021130 METAR LRTR 021130Z 14007KT 9999 -RA NSC 06/02 Q1015 R11/19//95=
201912021200 METAR LRTR 021200Z 17010KT 9999 -RA OVC048 06/01 Q1015 R11/19//95=
201912021230 METAR LRTR 021230Z 18005KT 9999 -RA OVC048 06/02 Q1016 R11/19//95=
201912021300 METAR LRTR 021300Z 17003KT 9999 -RA OVC048 06/02 Q1016 R11/19//95=
201912021330 METAR LRTR 021330Z 31006KT 8000 -RA FEW035 OVC042 05/04 Q1017
                        R11/29//95=
201912021400 METAR LRTR 021400Z 00000KT 8000 RA OVC037 05/03 Q1017 R11/29//95=
201912021430 METAR LRTR 021430Z 21007KT 8000 -RA OVC035 04/03 Q1017 RERA
                        R11/29//95=
201912021500 METAR LRTR 021500Z 23005KT 8000 -RA OVC027 04/03 Q1017 R11/29//95=
201912021530 METAR LRTR 021530Z 26005KT 7000 -RA BKN009 OVC027 04/04 Q1018
                        R11/29//95=
201912021600 METAR LRTR 021600Z 28006KT 7000 -RA BKN007 OVC014 04/04 Q1018
                        R11/29//95=
201912021630 METAR LRTR 021630Z 29008KT 7000 OVC008 04/04 Q1018 R11/29//95=
201912021700 METAR LRTR 021700Z 31011KT 9999 OVC006 03/03 Q1019 R11/29//95=
201912021730 METAR LRTR 021730Z 31011KT 9999 -DZ OVC010 03/02 Q1019 R11/29//95=
201912021800 METAR LRTR 021800Z 32011KT 8000 -DZRA OVC008 02/02 Q1020
                        R11/29//95=
201912021830 METAR LRTR 021830Z 31008KT 7000 -RASN OVC006 02/02 Q1020
                        R11/29//95=
201912021900 METAR LRTR 021900Z 31011KT 9000 -RASN OVC006 02/01 Q1021
                        R11/29//95=
201912021930 METAR LRTR 021930Z 30010KT 9999 OVC008 01/01 Q1022 R11/29//95=
201912022000 METAR LRTR 022000Z 31011KT 9999 OVC011 01/01 Q1022 R11/29//95=
201912022030 METAR LRTR 022030Z 31010KT 9999 OVC010 01/01 Q1022 R11/29//95=
201912022100 METAR LRTR 022100Z 31009KT 9999 OVC010 01/01 Q1022 R11/29//95=
201912022130 METAR LRTR 022130Z 32010KT 8000 OVC009 01/01 Q1023 R11/29//95=
201912022200 METAR LRTR 022200Z 32007KT 9000 OVC008 01/01 Q1023 R11/29//95=
201912022230 METAR LRTR 022230Z 31007KT 8000 OVC010 01/01 Q1023 R11/29//95=
201912022300 METAR LRTR 022300Z 31007KT 9000 OVC009 01/00 Q1023 R11/29//95=
201912022330 METAR LRTR 022330Z 32006KT 9999 OVC011 01/01 Q1023 R11/29//95=
201912030000 METAR LRTR 030000Z 32005KT 8000 OVC010 01/01 Q1023 R11/29//95=
201912030030 METAR LRTR 030030Z 31005KT 9000 OVC013 01/00 Q1023 R11/29//95=
201912030100 METAR LRTR 030100Z 31007KT 8000 OVC013 01/00 Q1023 R11/29//95=
201912030130 METAR LRTR 030130Z 31006KT 6000 OVC012 01/01 Q1024 R11/29//95=
201912030200 METAR LRTR 030200Z 31006KT 6000 OVC010 01/00 Q1024 R11/29//95=
201912030230 METAR LRTR 030230Z 32006KT 7000 OVC011 01/00 Q1024 R11/29//95=
201912030300 METAR LRTR 030300Z 33005KT 9000 OVC010 01/M00 Q1024 R11/29//95=
201912030330 METAR LRTR 030330Z 33003KT 300V360 9999 OVC010 01/M00 Q1024
                        R11/29//95=
201912030400 METAR LRTR 030400Z 34005KT 9999 OVC010 00/M01 Q1024 R11/19//95=
201912030430 METAR LRTR 030430Z 32004KT 9999 OVC009 00/M00 Q1024 R11/19//95=
201912030500 METAR LRTR 030500Z 31003KT 8000 OVC009 00/M01 Q1024 R11/19//95=
201912030530 METAR LRTR 030530Z VRB02KT 8000 OVC008 00/M01 Q1025 R11/19//95=
201912030600 METAR LRTR 030600Z 27004KT 160V300 7000 OVC008 00/M00 Q1025
                        R11/19//95=
201912030630 METAR LRTR 030630Z 32004KT 6000 BKN008 M00/M01 Q1025 R11/19//95=
201912030700 METAR LRTR 030700Z 00000KT 6000 BKN007 M00/M01 Q1026 R11/19//95=
201912030730 METAR LRTR 030730Z 16003KT 120V190 7000 BKN007 M00/M01 Q1026
                        R11/19//95=
201912030800 METAR LRTR 030800Z 22004KT 170V240 7000 BKN006 00/M01 Q1026
                        R11/19//95=
201912030830 METAR LRTR 030830Z 19006KT 8000 SCT007 01/M00 Q1026 R11/19//95=
201912030900 METAR LRTR 030900Z 24004KT 190V270 7000 BKN009 02/00 Q1026
                        R11/19//95=
201912030930 METAR LRTR 030930Z 22003KT 180V300 7000 BKN010 02/M01 Q1026
                        R11/19//95=
201912031000 METAR LRTR 031000Z 19005KT 7000 SCT012 03/00 Q1026 R11/19//95=
201912031030 METAR LRTR 031030Z 27004KT 8000 SCT014 02/M01 Q1026 R11/19//95=
201912031100 METAR LRTR 031100Z VRB02KT 9000 BKN015 03/00 Q1026 R11/19//95=
201912031130 METAR LRTR 031130Z VRB02KT 9999 BKN017 04/M01 Q1025 R11/19//95=
201912031200 METAR LRTR 031200Z 22003KT 180V240 9999 BKN018 04/M00 Q1025
                        R11/19//95=
201912031230 METAR LRTR 031230Z 21003KT 170V230 9999 BKN019 SCT026 03/M00
                        Q1025 R11/19//95=
201912031300 METAR LRTR 031300Z 21003KT 160V260 9999 SCT016 BKN026 03/M00
                        Q1025 R11/19//95=
201912031330 METAR LRTR 031330Z 17003KT 9999 SCT018 BKN025 03/M00 Q1025
                        R11/19//95=
201912031400 METAR LRTR 031400Z 17003KT 130V200 9999 SCT018 BKN022 03/01
                        Q1025 R11/19//95=
201912031430 METAR LRTR 031430Z 15005KT 9999 BKN022 BKN032 03/01 Q1026
                        R11/19//95=
201912031500 METAR LRTR 031500Z 14004KT 9999 BKN020 BKN035 03/01 Q1026
                        R11/19//95=
201912031530 METAR LRTR 031530Z 15004KT 9999 BKN019 BKN037 02/01 Q1026
                        R11/CLRD//=
201912031600 METAR LRTR 031600Z 13005KT 8000 SCT019 BKN038 02/01 Q1026
                        R11/CLRD//=
201912031630 METAR LRTR 031630Z 15004KT 8000 SCT019 BKN037 02/00 Q1026=
201912031700 METAR LRTR 031700Z 13003KT 8000 FEW019 BKN036 02/00 Q1027=
201912031730 METAR LRTR 031730Z 10004KT 8000 FEW019 OVC035 02/01 Q1027=
201912031800 METAR LRTR 031800Z 12004KT 8000 BKN035 02/01 Q1027=
201912031830 METAR LRTR 031830Z 12004KT 8000 BKN038 01/01 Q1027=
201912031900 METAR LRTR 031900Z 10004KT 8000 BKN038 02/01 Q1027=
201912031930 METAR LRTR 031930Z 11004KT 7000 BKN038 01/01 Q1028=
201912032000 METAR LRTR 032000Z 09003KT 6000 OVC039 02/01 Q1028=
201912032030 METAR LRTR 032030Z 09004KT 6000 BKN039 02/01 Q1028=
201912032100 METAR LRTR 032100Z 09003KT 6000 OVC038 02/01 Q1028=
201912032130 METAR LRTR 032130Z 08002KT 6000 OVC037 02/01 Q1028=
201912032200 METAR LRTR 032200Z 07002KT 7000 OVC037 02/01 Q1028=
201912032230 METAR LRTR 032230Z 10004KT 7000 OVC036 01/01 Q1028=
201912032300 METAR LRTR 032300Z 11004KT 7000 OVC035 01/01 Q1028=
201912032330 METAR LRTR 032330Z 11004KT 7000 OVC035 02/01 Q1028=
201912040000 METAR LRTR 040000Z 11004KT 6000 OVC033 01/01 Q1028=
201912040030 METAR LRTR 040030Z 08004KT 6000 OVC034 01/01 Q1029=
201912040100 METAR LRTR 040100Z 09005KT 5000 BR OVC034 01/00 Q1029=
201912040130 METAR LRTR 040130Z 11005KT 5000 BR OVC035 00/00 Q1029=
201912040200 METAR LRTR 040200Z 12005KT 5000 BR BKN034 00/00 Q1029=
201912040230 METAR LRTR 040230Z 11005KT 5000 BR OVC032 00/M00 Q1029=
201912040300 METAR LRTR 040300Z 10005KT 7000 OVC034 00/M00 Q1029=
201912040330 METAR COR LRTR 040330Z 11005KT 8000 OVC034 00/M01 Q1029=
201912040400 METAR LRTR 040400Z 12004KT 9999 OVC034 00/M01 Q1029=
201912040430 METAR COR LRTR 040430Z 11003KT 9999 OVC034 M00/M01 Q1029=
201912040500 METAR LRTR 040500Z 09004KT 9999 OVC035 M00/M01 Q1029 NOSIG=
201912040530 METAR LRTR 040530Z 07003KT 9999 BKN035 M00/M01 Q1030 NOSIG=
201912040600 METAR LRTR 040600Z 08003KT 8000 SCT035 M01/M02 Q1030 NOSIG=
201912040630 METAR LRTR 040630Z 08004KT 8000 NSC M01/M02 Q1030 NOSIG=
201912040700 METAR LRTR 040700Z 12005KT CAVOK M01/M02 Q1031 NOSIG=
201912040730 METAR LRTR 040730Z 10004KT CAVOK M00/M01 Q1031 NOSIG=
201912040800 METAR LRTR 040800Z 11007KT CAVOK 01/M02 Q1031 NOSIG=
201912040830 METAR LRTR 040830Z 10007KT CAVOK 01/M02 Q1031 NOSIG=
201912040900 METAR LRTR 040900Z 12008KT CAVOK 02/M02 Q1031 NOSIG=
201912040930 METAR LRTR 040930Z 11008KT CAVOK 03/M02 Q1031 NOSIG=
201912041000 METAR LRTR 041000Z 10007KT CAVOK 03/M01 Q1031 NOSIG=
201912041030 METAR LRTR 041030Z 10007KT 9999 FEW022 03/M01 Q1031 NOSIG=
201912041100 METAR LRTR 041100Z 12004KT 9999 FEW024 04/M02 Q1031 NOSIG=
201912041130 METAR LRTR 041130Z 08004KT 030V130 9999 FEW025 04/M02 Q1031
                        NOSIG=
201912041200 METAR LRTR 041200Z VRB02KT 9999 FEW027 04/M03 Q1031 NOSIG=
201912041230 METAR LRTR 041230Z VRB01KT 9999 FEW030 05/M02 Q1030 NOSIG=
201912041300 METAR LRTR 041300Z VRB02KT 9999 FEW035 05/M02 Q1030 NOSIG=
201912041330 METAR LRTR 041330Z VRB01KT CAVOK 05/M02 Q1030 NOSIG=
201912041400 METAR LRTR 041400Z 29003KT CAVOK 04/M02 Q1030 NOSIG=
201912041430 METAR LRTR 041430Z 34002KT CAVOK 03/M01 Q1031 NOSIG=
201912041500 METAR LRTR 041500Z 02004KT CAVOK 03/M01 Q1030 NOSIG=
201912041530 METAR LRTR 041530Z 01004KT CAVOK 02/M01 Q1031 NOSIG=
201912041600 METAR LRTR 041600Z 02003KT CAVOK 01/M01 Q1031 NOSIG=
201912041630 METAR LRTR 041630Z 02004KT CAVOK M00/M02 Q1031 NOSIG=
201912041700 METAR LRTR 041700Z 04003KT CAVOK M00/M01 Q1031 NOSIG=
201912041730 METAR LRTR 041730Z 04005KT CAVOK M01/M02 Q1031=
201912041800 METAR LRTR 041800Z 03005KT 7000 NSC M01/M01 Q1031=
201912041830 METAR LRTR 041830Z 02007KT 3500 1000N BCFG BR NSC M01/M01
                        Q1031=
201912041900 METAR COR LRTR 041900Z 03005KT 3000 BR FEW001 M02/M02 Q1031=
201912041930 METAR COR LRTR 041930Z 06004KT 4000 BR FEW001 M02/M02 Q1031=
201912042000 METAR LRTR 042000Z 08004KT 5000 BR NSC M03/M03 Q1031=
201912042030 METAR LRTR 042030Z 08006KT 6000 NSC M02/M03 Q1031=
201912042100 METAR LRTR 042100Z 07005KT 7000 NSC M03/M03 Q1031=
201912042130 METAR LRTR 042130Z 09002KT 7000 NSC M03/M04 Q1032=
201912042200 METAR LRTR 042200Z 09005KT 8000 NSC M04/M04 Q1032=
201912042230 METAR LRTR 042230Z 10007KT 8000 NSC M03/M04 Q1031=
201912042300 METAR LRTR 042300Z 09006KT 8000 NSC M03/M04 Q1031=
201912042330 METAR LRTR 042330Z 09008KT 8000 NSC M03/M03 Q1031=
201912050000 METAR LRTR 050000Z 10007KT 8000 NSC M02/M03 Q1031=
201912050030 METAR LRTR 050030Z 10007KT 8000 NSC M03/M03 Q1031=
201912050100 METAR LRTR 050100Z 09007KT 7000 NSC M03/M04 Q1031=
201912050130 METAR LRTR 050130Z 10006KT 7000 NSC M04/M05 Q1031=
201912050200 METAR LRTR 050200Z 10007KT 7000 NSC M04/M04 Q1031=
201912050230 METAR LRTR 050230Z 09005KT 7000 NSC M04/M05 Q1031=
201912050300 METAR LRTR 050300Z 10007KT 7000 NSC M04/M05 Q1031=
201912050330 METAR LRTR 050330Z 09006KT 7000 NSC M04/M05 Q1031=
201912050400 METAR LRTR 050400Z 10005KT 7000 NSC M05/M05 Q1030=
201912050430 METAR LRTR 050430Z 10007KT 7000 NSC M05/M05 Q1030=
201912050500 METAR LRTR 050500Z 08006KT 7000 NSC M05/M05 Q1030=
201912050530 METAR LRTR 050530Z 08006KT 6000 NSC M05/M05 Q1030=
201912050600 METAR LRTR 050600Z 08005KT 6000 NSC M05/M05 Q1030=
201912050630 METAR LRTR 050630Z 10006KT 7000 NSC M04/M05 Q1030=
201912050700 METAR LRTR 050700Z 09006KT 7000 NSC M03/M04 Q1030=
201912050730 METAR LRTR 050730Z 10005KT 8000 NSC M01/M03 Q1030=
201912050800 METAR LRTR 050800Z 10008KT CAVOK M00/M02 Q1030=
201912050830 METAR LRTR 050830Z 09006KT CAVOK 01/M02 Q1030=
201912050900 METAR LRTR 050900Z 11008KT CAVOK 01/M02 Q1030=
201912050930 METAR LRTR 050930Z 11009KT CAVOK 02/M02 Q1030=
201912051000 METAR LRTR 051000Z 10008KT CAVOK 03/M02 Q1030=
201912051030 METAR LRTR 051030Z 11008KT CAVOK 04/M02 Q1029=
201912051100 METAR LRTR 051100Z 12010KT CAVOK 04/M02 Q1029=
201912051130 METAR LRTR 051130Z 12008KT CAVOK 04/M02 Q1029=
201912051200 METAR LRTR 051200Z 11006KT CAVOK 05/M02 Q1029=
201912051230 METAR LRTR 051230Z 10006KT CAVOK 05/M02 Q1029=
201912051300 METAR LRTR 051300Z 12006KT CAVOK 05/M02 Q1028=
201912051330 METAR LRTR 051330Z 12005KT CAVOK 05/M02 Q1028=
201912051400 METAR LRTR 051400Z AUTO 12005KT 9999 NCD 04/M01 Q1028=
201912051430 METAR LRTR 051430Z 12005KT CAVOK 03/M02 Q1028=
201912051500 METAR LRTR 051500Z 13004KT CAVOK 03/M02 Q1028=
201912051530 METAR LRTR 051530Z 13004KT CAVOK 02/M02 Q1028=
201912051600 METAR LRTR 051600Z 09005KT CAVOK M00/M02 Q1028=
201912051630 METAR LRTR 051630Z 09004KT 9000 NSC M01/M02 Q1028=
201912051700 METAR LRTR 051700Z 11006KT 8000 NSC M01/M03 Q1028 BECMG 5000
                        BR=
201912051730 METAR LRTR 051730Z 11004KT 7000 NSC M02/M03 Q1028 BECMG 5000
                        BR=
201912051800 METAR LRTR 051800Z 09002KT 7000 NSC M02/M03 Q1028 BECMG 5000
                        BR=
201912051830 METAR LRTR 051830Z 05003KT 020V080 6000 NSC M02/M03 Q1028
                        BECMG 5000 BR=
201912051900 METAR LRTR 051900Z 02002KT 5000 BR NSC M02/M03 Q1028 NOSIG=
201912051930 METAR LRTR 051930Z 00000KT 5000 BR NSC M03/M03 Q1028 TEMPO
                        3000 BR=
201912052000 METAR LRTR 052000Z 00000KT 4000 BR NSC M03/M03 Q1028 TEMPO
                        3000 BR=
201912052030 METAR LRTR 052030Z 30003KT 3000 BR NSC M04/M04 Q1028 NOSIG=
201912052100 METAR LRTR 052100Z 29002KT 3000 BR NSC M04/M04 Q1028 NOSIG=
201912052130 METAR LRTR 052130Z 03003KT 2500 BR NSC M03/M03 Q1028 BECMG
                        1500 BR=
201912052200 METAR LRTR 052200Z 07003KT 3000 BR NSC M04/M04 Q1028 NOSIG=
201912052230 METAR LRTR 052230Z 12003KT 4000 BR NSC M04/M04 Q1028 TEMPO
                        5000=
201912052300 METAR LRTR 052300Z 12005KT 5000 BR NSC M05/M05 Q1027 NOSIG=
201912052330 METAR LRTR 052330Z 18006KT 0600 R11/0500N R29/0500N FZFG
                        NSC M05/M05 Q1027 TEMPO 0350 FZFG=
201912060000 METAR LRTR 060000Z 16006KT 0300 R11/0450N R29/0600D FZFG
                        BKN001 M04/M04 Q1027 NOSIG=
201912060030 METAR LRTR 060030Z 18005KT 0550 R11/0600N R29/0800D FZFG
                        VV001 M03/M03 Q1027 TEMPO 0350 FZFG=
201912060100 METAR LRTR 060100Z 20004KT 160V240 0600 R11/1000D R29/0500N
                        FZFG VV001 M04/M04 Q1028 TEMPO 0350
                        FZFG=
201912060130 METAR LRTR 060130Z VRB02KT 0400 R11/1600U R29/0550U FZFG
                        VV001 M05/M05 Q1027 TEMPO 0350 FZFG=
201912060200 METAR LRTR 060200Z 10001KT 0600 R11/1900D R29/0750N FZFG
                        VV001 M04/M04 Q1027 TEMPO 0350 FZFG=
201912060230 METAR LRTR 060230Z 10002KT 0350 R11/0800N R29/0700N FZFG
                        VV001 M04/M04 Q1027 NOSIG=
201912060300 METAR LRTR 060300Z 09003KT 0350 R11/0900U R29/1000N FZFG
                        VV002 M04/M04 Q1027 NOSIG=
201912060330 METAR LRTR 060330Z 11005KT 0600 R11/1700U R29/1600N FZFG
                        OVC002 M03/M03 Q1027 TEMPO 0800=
201912060400 METAR LRTR 060400Z 11004KT 1000 R11/P2000 R29/P2000 BR OVC002
                        M03/M03 Q1027 R11/490594 TEMPO 0800
                        FZFG=
201912060430 METAR LRTR 060430Z 11004KT 0800 R11/P2000 R29/P2000 FZFG
                        OVC002 M03/M03 Q1027 R11/490594 BECMG
                        1500 BR=
201912060500 METAR LRTR 060500Z 14005KT 0800 R11/P2000 R29/P2000 FZFG
                        OVC002 M02/M02 Q1027 R11/490594 BECMG
                        1500 BR=
201912060530 METAR LRTR 060530Z 13005KT 0550 R11/1700D R29/1400D -FZDZ
                        FZFG FEW001 OVC002 M02/M02 Q1027
                        R11/490594 NOSIG=
201912060600 METAR LRTR 060600Z 12006KT 0450 R11/1400N R29/1300N -FZDZ
                        FZFG FEW001 OVC002 M02/M02 Q1027
                        R11/490594 TEMPO 0350 FZFG=
201912060630 METAR LRTR 060630Z 14005KT 0450 R11/1000U R29/1100N FZFG
                        FEW001 OVC002 M02/M02 Q1027 R11/490594
                        NOSIG=
201912060700 METAR LRTR 060700Z 14005KT 0600 R11/1400U R29/1300N FZFG
                        SCT001 OVC002 M01/M01 Q1027 R11/190095
                        TEMPO 0800=
201912060730 METAR LRTR 060730Z 14005KT 0600 R11/1700D R29/1400N FZFG
                        FEW001 OVC002 M01/M01 Q1027 R11/190095
                        TEMPO 0800=
201912060800 METAR LRTR 060800Z 13005KT 0800 R11/1500D R29/1400D FZFG
                        FEW001 OVC002 M01/M01 Q1027 R11/190095
                        TEMPO 0600 FZFG=
201912060830 METAR LRTR 060830Z 15006KT 0600 R11/1100D R29/1200N FZFG
                        FEW001 OVC002 M01/M01 Q1027 R11/190095
                        NOSIG=
201912060900 METAR LRTR 060900Z 15006KT 0800 R11/1300U R29/1400U FZFG
                        FEW001 OVC002 M01/M01 Q1027 R11/190095
                        NOSIG=
201912060930 METAR LRTR 060930Z 16005KT 1000 R11/1700U R29/1900U BR FEW001
                        BKN002 OVC004 M01/M01 Q1027 R11/190095
                        BECMG 1500=
201912061000 METAR LRTR 061000Z 18005KT 1500 BR SCT002 OVC004 M01/M01
                        Q1026 R11/190095 BECMG 3000=
201912061030 METAR LRTR 061030Z 15005KT 2500 BR SCT003 OVC004 M01/M01
                        Q1026 R11/190095 BECMG 3000=
201912061100 METAR LRTR 061100Z 18004KT 160V220 2000 BR SCT002 OVC003
                        M01/M01 Q1026 R11/190095 TEMPO 1500
                        BR=
201912061130 METAR LRTR 061130Z 16005KT 1500 BR SCT002 OVC003 M01/M01
                        Q1026 R11/190095 NOSIG=
201912061200 METAR LRTR 061200Z 15005KT 100V190 1300 R11/1400U R29/1800D
                        BR FEW001 SCT002 OVC003 M01/M01 Q1025
                        R11/190095 TEMPO 0800 FZFG BKN002=
201912061230 METAR LRTR 061230Z 14005KT 100V180 1200 R11/1500N R29/1600U
                        BR FEW001 BKN002 OVC003 M01/M01 Q1025
                        R11/190095 NOSIG=
201912061300 METAR LRTR 061300Z 12005KT 1200 R11/1900D R29/P2000 BR FEW001
                        BKN002 OVC003 M01/M01 Q1025 R11/190095
                        NOSIG=
201912061330 METAR LRTR 061330Z 14006KT 1300 R11/P2000 R29/P2000 BR FEW001
                        OVC002 M01/M01 Q1024 R11/190095 TEMPO
                        1500=
201912061400 METAR LRTR 061400Z 12006KT 090V160 1500 BR FEW001 OVC002
                        M01/M01 Q1024 R11/190095 NOSIG=
201912061430 METAR LRTR 061430Z 16005KT 1500 BR FEW001 OVC002 M01/M01
                        Q1024 R11/190095 TEMPO 0800 FZFG=
201912061500 METAR LRTR 061500Z 14007KT 1800 BR FEW001 OVC002 M00/M00
                        Q1024 R11/190095 TEMPO 1500=
201912061530 METAR LRTR 061530Z 12008KT 0550 R11/1100D R29/1300U FZFG
                        FEW001 OVC002 M01/M01 Q1024 R11/190095
                        TEMPO 0350 FZFG=
201912061600 METAR LRTR 061600Z 12008KT 0400 R11/0900U R29/P2000 FZFG
                        VV002 M01/M01 Q1024 R11/190095 TEMPO
                        0350 FZFG=
201912061630 METAR LRTR 061630Z 12008KT 0300 R11/0900N R29/0650N FZFG
                        VV001 M01/M01 Q1024 R11/190095 TEMPO
                        0150 FZFG=
201912061700 METAR LRTR 061700Z 11007KT 0300 R11/0600N R29/0600N FZFG
                        VV001 M01/M01 Q1023 R11/190095 TEMPO
                        0150 FZFG=
201912061730 METAR LRTR 061730Z 12009KT 0600 R11/1600D R29/1700U FZFG
                        VV002 M02/M02 Q1023 R11/190095=
201912061800 METAR LRTR 061800Z 11009KT 1800 BR BKN002 BKN030 M01/M01
                        Q1023 R11/190095=
201912061830 METAR LRTR 061830Z 11010KT 2500 BR SCT002 OVC036 M01/M01
                        Q1023 R11/190095=
201912061900 METAR LRTR 061900Z 12006KT 3500 BR FEW003 OVC037 M01/M01
                        Q1022 R11/190095=
201912061930 METAR LRTR 061930Z 11008KT 4000 BR OVC038 M01/M01 Q1022 R11/190095=
201912062000 METAR LRTR 062000Z 11008KT 5000 BR OVC036 M00/M00 Q1022 R11/190095=
201912062030 METAR LRTR 062030Z 11008KT 5000 BR OVC035 M00/M00 Q1022 R11/190095=
201912062100 METAR LRTR 062100Z 11009KT 6000 OVC038 00/00 Q1021 R11/190095=
201912062130 METAR LRTR 062130Z 12007KT 6000 OVC040 00/00 Q1021 R11/190095=
201912062200 METAR LRTR 062200Z 12006KT 7000 OVC043 00/00 Q1021 R11/CLRD//=
201912062230 METAR LRTR 062230Z 10005KT 7000 OVC041 00/00 Q1021=
201912062300 METAR LRTR 062300Z 09005KT 8000 OVC041 01/01 Q1021=
201912062330 METAR LRTR 062330Z 11004KT 8000 OVC040 01/01 Q1020=
201912070000 METAR LRTR 070000Z 09004KT 8000 OVC039 01/01 Q1020=
201912070030 METAR COR LRTR 070030Z 11005KT 8000 OVC040 02/01 Q1020=
201912070100 METAR LRTR 070100Z 11007KT 9999 OVC043 02/01 Q1019=
201912070130 METAR LRTR 070130Z 11008KT 9999 OVC042 03/01 Q1019=
201912070200 METAR LRTR 070200Z 11007KT 9999 OVC042 03/01 Q1019=
201912070230 METAR LRTR 070230Z 11005KT 9999 OVC042 03/02 Q1018=
201912070300 METAR COR LRTR 070300Z 12005KT 9999 OVC042 03/01 Q1018=
201912070330 METAR LRTR 070330Z 12007KT 9999 OVC042 03/01 Q1018=
201912070400 METAR LRTR 070400Z 11004KT 9999 OVC046 03/02 Q1018=
201912070430 METAR LRTR 070430Z 11005KT 9999 OVC045 03/02 Q1018=
201912070500 METAR LRTR 070500Z 09003KT 9999 OVC044 03/02 Q1018=
201912070530 METAR LRTR 070530Z 12004KT 9999 BKN043 03/02 Q1018=
201912070600 METAR LRTR 070600Z 10006KT 9999 BKN045 03/02 Q1017=
201912070630 METAR LRTR 070630Z 10003KT 9999 BKN045 03/02 Q1018=
201912070700 METAR LRTR 070700Z 09004KT 9000 BKN044 03/02 Q1018=
201912070730 METAR LRTR 070730Z 11004KT 9000 SCT044 04/03 Q1018=
201912070800 METAR LRTR 070800Z 09003KT 9000 SCT044 05/03 Q1018=
201912070830 METAR LRTR 070830Z 09003KT 9999 BKN043 06/04 Q1018=
201912070900 METAR COR LRTR 070900Z 12003KT 070V160 9999 BKN049 07/04
                        Q1018=
201912070930 METAR LRTR 070930Z 15004KT 110V180 9999 BKN047 07/03 Q1018=
201912071000 METAR LRTR 071000Z 19004KT 150V210 9999 BKN042 08/03 Q1018=
201912071030 METAR LRTR 071030Z 21003KT 180V240 9999 BKN038 08/03 Q1017=
201912071100 METAR LRTR 071100Z VRB02KT 9999 BKN034 08/03 Q1017=
201912071130 METAR LRTR 071130Z 13003KT 100V160 9999 BKN031 08/04 Q1017=
201912071200 METAR LRTR 071200Z 12005KT 9999 SCT033 07/04 Q1017=
201912071230 METAR LRTR 071230Z 13004KT 9999 SCT033 07/04 Q1017=
201912071300 METAR LRTR 071300Z 14004KT 9999 -RA FEW033 06/04 Q1017=
201912071330 METAR LRTR 071330Z 08003KT 9999 SCT025 06/04 Q1017=
201912071400 METAR LRTR 071400Z 09003KT 9000 SCT023 06/04 Q1018=
201912071430 METAR LRTR 071430Z 11002KT 8000 -RA SCT022 06/04 Q1018=
201912071500 METAR LRTR 071500Z 12003KT 7000 -RA FEW022 05/04 Q1018 R11/290095=
201912071530 METAR LRTR 071530Z 18003KT 7000 FEW022 05/04 Q1018 R11/290095=
201912071600 METAR LRTR 071600Z 24003KT 6000 NSC 05/04 Q1018 R11/290095=
201912071630 METAR LRTR 071630Z 00000KT 6000 NSC 05/04 Q1018 R11/290095=
201912071700 METAR LRTR 071700Z 10004KT 6000 NSC 04/04 Q1018 R11/290095=
201912071730 METAR LRTR 071730Z 10005KT 6000 NSC 04/04 Q1018 R11/290095
                        BECMG 5000 BR=
201912071800 METAR LRTR 071800Z 00000KT 6000 NSC 04/04 Q1018 R11/290095
                        BECMG 5000 BR=
201912071830 METAR LRTR 071830Z 28003KT 5000 BR NSC 04/03 Q1019 R11/290095
                        NOSIG=
201912071900 METAR LRTR 071900Z 00000KT 5000 BR NSC 03/03 Q1019 R11/190095
                        NOSIG=
201912071930 METAR LRTR 071930Z 04001KT 4500 BR NSC 02/02 Q1019 R11/190095
                        BECMG 3000 BR=
201912072000 METAR LRTR 072000Z 07005KT 3500 BR NSC 01/01 Q1019 R11/190095
                        BECMG 3000 BR=
201912072030 METAR LRTR 072030Z 02004KT 3000 BR NSC 02/02 Q1019 R11/190095
                        NOSIG=
201912072100 METAR LRTR 072100Z 08001KT 3000 BR NSC 02/02 Q1019 R11/190095
                        NOSIG=
201912072130 METAR LRTR 072130Z 34003KT 2500 BR NSC 01/01 Q1020 R11/190095
                        TEMPO 1500 BR=
201912072200 METAR LRTR 072200Z 26004KT 2000 BR NSC 01/01 Q1020 R11/190095
                        TEMPO 1500 BR=
201912072230 METAR LRTR 072230Z 29004KT 2000 BR NSC 01/01 Q1020 R11/190095
                        BECMG 1500 BR=
201912072300 METAR LRTR 072300Z 35003KT 1800 BR FEW007 01/01 Q1020 R11/190095
                        NOSIG=
201912072330 METAR LRTR 072330Z 21001KT 1800 BR FEW005 02/02 Q1020 R11/190095
                        TEMPO 1500 BR=
201912080000 METAR LRTR 080000Z 11003KT 1500 BR FEW003 SCT005 01/01 Q1020
                        R11/190095 NOSIG=
201912080030 METAR LRTR 080030Z 09004KT 2500 BR FEW002 SCT003 02/02 Q1020
                        R11/190095 NOSIG=
201912080100 METAR LRTR 080100Z VRB01KT 2500 BR FEW001 SCT002 BKN003 02/02
                        Q1020 R11/190095 TEMPO 3000=
201912080130 METAR LRTR 080130Z VRB02KT 3000 BR FEW001 BKN002 OVC003 02/02
                        Q1020 R11/190095 TEMPO 1500 BR=
201912080200 METAR LRTR 080200Z 14003KT 0550 R11/0650N R29/2000D FG SCT001
                        OVC002 02/02 Q1020 R11/190095 TEMPO
                        0150 FG=
201912080230 METAR COR LRTR 080230Z 15004KT 0100 R11/0375N R29/0400N FG
                        VV001 02/02 Q1020 R11/190095 NOSIG=
201912080300 METAR LRTR 080300Z 14004KT 0100 R11/0350N R29/0375N FG VV001
                        02/02 Q1020 R11/190095 NOSIG=
201912080330 METAR LRTR 080330Z 13004KT 0150 R11/0500N R29/0550N FG VV001
                        02/02 Q1020 R11/190095 NOSIG=
201912080400 METAR LRTR 080400Z 15003KT 0300 R11/0750N R29/0800U FG VV001
                        02/02 Q1020 R11/190095 TEMPO 0350=
201912080430 METAR COR LRTR 080430Z 13005KT 0500 R11/1500U R29/P2000 FG
                        VV001 02/02 Q1020 R11/190095 TEMPO
                        0600=
201912080500 METAR LRTR 080500Z 19002KT 1500 BR OVC001 02/02 Q1021 R11/190095
                        TEMPO 0800 FG=
201912080530 METAR LRTR 080530Z VRB01KT 1200 R11/P2000 R29/P2000 BR OVC001
                        02/02 Q1021 R11/190095 TEMPO 0800
                        FG=
201912080600 METAR LRTR 080600Z VRB02KT 1000 R11/P2000 R29/P2000 BR OVC001
                        02/02 Q1021 R11/190095 TEMPO 0800
                        FG=
201912080630 METAR LRTR 080630Z 14004KT 0800 R11/1100U R29/1900D FG BKN001
                        OVC003 02/02 Q1021 R11/190095 BECMG
                        1500 BR=
201912080700 METAR LRTR 080700Z 18003KT 0800 R11/1900N R29/P2000 FG OVC001
                        02/02 Q1021 R11/190095 BECMG 1500
                        BR=
201912080730 METAR LRTR 080730Z VRB02KT 1200 R11/1400N R29/1200D BR OVC001
                        02/02 Q1021 R11/190095 BECMG 1500
                        BR=
201912080800 METAR LRTR 080800Z 12003KT 0800 R11/1400D R29/1200N FG OVC001
                        03/03 Q1021 R11/190095 TEMPO 0600
                        FG=
201912080830 METAR LRTR 080830Z 16004KT 130V190 0450 R11/0400N R29/1100U
                        FG VV001 03/03 Q1021 R11/190095 BECMG
                        0600=
201912080900 METAR LRTR 080900Z 17005KT 0350 R11/0400N R29/0400N FG VV001
                        03/03 Q1021 R11/190095 BECMG 0600=
201912080930 METAR LRTR 080930Z 17004KT 0300 R11/0300N R29/0350N FG VV001
                        03/03 Q1021 R11/190095 BECMG 0350=
201912081000 METAR LRTR 081000Z 16005KT 140V200 0350 R11/0325N R29/0400N
                        FG VV001 03/03 Q1021 R11/190095 NOSIG=
201912081030 METAR LRTR 081030Z 16005KT 0350 R11/0500N R29/0450U FG VV001
                        03/03 Q1021 R11/190095 NOSIG=
201912081100 METAR LRTR 081100Z 17006KT 0450 R11/0650D R29/0700U FG VV001
                        04/04 Q1020 R11/190095 BECMG 0600=
201912081130 METAR LRTR 081130Z 16006KT 0600 R11/0800U R29/0700U FG VV001
                        04/04 Q1020 R11/190095 NOSIG=
201912081200 METAR LRTR 081200Z 16008KT 0450 R11/0550N R29/0750U FG VV001
                        05/05 Q1020 R11/190095 TEMPO 0350
                        FG=
201912081230 METAR LRTR 081230Z 16007KT 0350 R11/0650N R29/0600N FG VV001
                        05/05 Q1019 R11/190095 NOSIG=
201912081300 METAR LRTR 081300Z 15007KT 0350 R11/0600N R29/0650D FG VV001
                        05/05 Q1019 R11/190095 NOSIG=
201912081330 METAR LRTR 081330Z 16008KT 0400 R11/0900N R29/0800U FG VV001
                        05/05 Q1019 R11/190095 NOSIG=
201912081400 METAR LRTR 081400Z 14007KT 0500 R11/0600N R29/0800U FG VV001
                        06/06 Q1019 R11/190095 NOSIG=
201912081430 METAR LRTR 081430Z 13008KT 0800 R11/1400U R29/P2000D FG OVC001
                        06/06 Q1019 R11/190095 TEMPO 1500
                        BR=
201912081500 METAR LRTR 081500Z 14006KT 0500 R11/0800U R29/0750N FG VV001
                        05/05 Q1018 TEMPO 0350 FG=
201912081530 METAR LRTR 081530Z 13006KT 0200 R11/0450N R29/0400N FG VV001
                        05/05 Q1018 TEMPO 0150 FG=
201912081600 METAR LRTR 081600Z 13006KT 0150 R11/0375N R29/0350N FG VV001
                        05/05 Q1018 NOSIG=
201912081630 METAR LRTR 081630Z 11006KT 0300 R11/0550N R29/0550N FG VV001
                        04/04 Q1018 BECMG 0350=
201912081700 METAR COR LRTR 081700Z 10008KT 0800 R11/1000U R29/0800U FG
                        BKN001 03/03 Q1017=
201912081730 METAR LRTR 081730Z 11008KT 2000 BR FEW001 SCT003 03/03 Q1017=
201912081800 METAR LRTR 081800Z 12010KT 2500 BR FEW001 SCT003 03/03 Q1017=
201912081830 METAR LRTR 081830Z 11008KT 2500 BR FEW002 02/02 Q1017=
201912081900 METAR LRTR 081900Z 12007KT 2500 BR FEW002 02/02 Q1017=
201912081930 METAR LRTR 081930Z 12009KT 1800 BR FEW001 01/01 Q1016=
201912082000 METAR LRTR 082000Z 12007KT 0400 R11/0650N R29/0650N FG SCT001
                        01/01 Q1016=
201912082030 METAR LRTR 082030Z 13005KT 0400 R11/0600N R29/0650N FG BKN001
                        01/01 Q1016=
201912082100 METAR LRTR 082100Z 11006KT 0450 R11/0650N R29/0700N FG BKN002
                        00/00 Q1016=
201912082130 METAR LRTR 082130Z 11005KT 0600 R11/0900U R29/1200U FG BKN005
                        00/00 Q1016=
201912082200 METAR LRTR 082200Z 11008KT 3000 BR FEW008 00/00 Q1016=
201912082230 METAR LRTR 082230Z 11008KT 4500 BR FEW010 00/00 Q1015=
201912082300 METAR LRTR 082300Z 11008KT 6000 NSC 00/00 Q1015=
201912082330 METAR LRTR 082330Z 11008KT 8000 NSC 00/00 Q1015=
201912090000 METAR LRTR 090000Z 11009KT CAVOK 00/00 Q1014=
201912090030 METAR LRTR 090030Z 11007KT CAVOK 00/00 Q1014=
201912090100 METAR LRTR 090100Z 11006KT CAVOK M00/M00 Q1014=
201912090130 METAR LRTR 090130Z 11007KT CAVOK M00/M00 Q1014=
201912090200 METAR LRTR 090200Z 11007KT 9000 NSC M00/M00 Q1014=
201912090230 METAR LRTR 090230Z 11006KT 9000 NSC M00/M00 Q1014=
201912090300 METAR LRTR 090300Z 11006KT CAVOK 00/00 Q1014=
201912090330 METAR LRTR 090330Z 11007KT CAVOK M00/M00 Q1013=
201912090400 METAR LRTR 090400Z 11009KT CAVOK 00/00 Q1013=
201912090430 METAR LRTR 090430Z 11009KT CAVOK 00/00 Q1013=
201912090500 METAR LRTR 090500Z 11009KT CAVOK 00/00 Q1013=
201912090530 METAR LRTR 090530Z 10008KT CAVOK 01/01 Q1013=
201912090600 METAR LRTR 090600Z 10008KT CAVOK 01/01 Q1013=
201912090630 METAR COR LRTR 090630Z 11009KT CAVOK 01/01 Q1013=
201912090700 METAR LRTR 090700Z 11009KT CAVOK 02/02 Q1013=
201912090730 METAR LRTR 090730Z 12009KT CAVOK 03/02 Q1012=
201912090800 METAR LRTR 090800Z 12008KT CAVOK 04/03 Q1013=
201912090830 METAR LRTR 090830Z 12008KT CAVOK 05/04 Q1013=
201912090900 METAR LRTR 090900Z 12008KT CAVOK 06/04 Q1012=
201912090930 METAR LRTR 090930Z 13007KT CAVOK 06/05 Q1012=
201912091000 METAR LRTR 091000Z 13007KT CAVOK 07/05 Q1012=
201912091030 METAR LRTR 091030Z 15007KT CAVOK 08/06 Q1011=
201912091100 METAR LRTR 091100Z 15005KT CAVOK 09/06 Q1011=
201912091130 METAR LRTR 091130Z 17007KT CAVOK 10/06 Q1010=
201912091200 METAR LRTR 091200Z 19009KT CAVOK 10/06 Q1010=
201912091230 METAR LRTR 091230Z 21007KT CAVOK 10/06 Q1010=
201912091300 METAR LRTR 091300Z 16004KT CAVOK 10/06 Q1010=
201912091330 METAR LRTR 091330Z 14004KT CAVOK 10/06 Q1010=
201912091400 METAR LRTR 091400Z 14006KT CAVOK 10/07 Q1009=
201912091430 METAR LRTR 091430Z 17004KT CAVOK 09/06 Q1009=
201912091500 METAR LRTR 091500Z 13007KT CAVOK 08/06 Q1009=
201912091530 METAR LRTR 091530Z 12005KT CAVOK 08/06 Q1009=
201912091600 METAR LRTR 091600Z 11006KT CAVOK 07/06 Q1009=
201912091630 METAR LRTR 091630Z 10006KT CAVOK 08/06 Q1009=
201912091700 METAR LRTR 091700Z 11006KT CAVOK 07/06 Q1009 NOSIG=
201912091730 METAR LRTR 091730Z 11008KT CAVOK 07/06 Q1009 NOSIG=
201912091800 METAR LRTR 091800Z 12008KT CAVOK 07/06 Q1009 NOSIG=
201912091830 METAR LRTR 091830Z 12008KT CAVOK 08/05 Q1009 NOSIG=
201912091900 METAR LRTR 091900Z 11009KT CAVOK 08/05 Q1008 NOSIG=
201912091930 METAR LRTR 091930Z 11009KT CAVOK 07/04 Q1008 NOSIG=
201912092000 METAR LRTR 092000Z 10008KT CAVOK 06/04 Q1008 NOSIG=
201912092030 METAR LRTR 092030Z 09010KT CAVOK 06/04 Q1008 NOSIG=
201912092100 METAR LRTR 092100Z 08007KT CAVOK 06/04 Q1008 NOSIG=
201912092130 METAR LRTR 092130Z 10010KT CAVOK 06/04 Q1008 NOSIG=
201912092200 METAR LRTR 092200Z 10010KT CAVOK 07/04 Q1008 NOSIG=
201912092230 METAR LRTR 092230Z 10010KT CAVOK 07/04 Q1008 NOSIG=
201912092300 METAR LRTR 092300Z 10010KT CAVOK 07/04 Q1008 NOSIG=
201912092330 METAR LRTR 092330Z 10010KT CAVOK 07/03 Q1008 NOSIG=
201912100000 METAR LRTR 100000Z 11009KT CAVOK 07/03 Q1008 NOSIG=
201912100030 METAR LRTR 100030Z 10011KT CAVOK 07/04 Q1008 NOSIG=
201912100100 METAR LRTR 100100Z 11009KT CAVOK 07/03 Q1008 NOSIG=
201912100130 METAR LRTR 100130Z 11009KT CAVOK 07/03 Q1008 NOSIG=
201912100200 METAR LRTR 100200Z 11009KT CAVOK 07/03 Q1008 NOSIG=
201912100230 METAR LRTR 100230Z 11009KT CAVOK 07/03 Q1008 NOSIG=
201912100300 METAR LRTR 100300Z 12009KT CAVOK 06/03 Q1008 NOSIG=
201912100330 METAR LRTR 100330Z 12009KT CAVOK 06/03 Q1008 NOSIG=
201912100400 METAR LRTR 100400Z 12007KT CAVOK 05/03 Q1009 NOSIG=
201912100430 METAR LRTR 100430Z 12008KT CAVOK 04/03 Q1009 NOSIG=
201912100500 METAR LRTR 100500Z 12007KT CAVOK 04/03 Q1009 NOSIG=
201912100530 METAR LRTR 100530Z 10006KT CAVOK 04/03 Q1009 NOSIG=
201912100600 METAR LRTR 100600Z 11004KT CAVOK 04/03 Q1010 NOSIG=
201912100630 METAR COR LRTR 100630Z 13003KT 100V160 CAVOK 05/03 Q1011
                        NOSIG=
201912100700 METAR LRTR 100700Z 32003KT 290V010 CAVOK 05/04 Q1011 NOSIG=
201912100730 METAR LRTR 100730Z 31004KT CAVOK 06/04 Q1011 NOSIG=
201912100800 METAR LRTR 100800Z 33004KT CAVOK 07/05 Q1012 NOSIG=
201912100830 METAR LRTR 100830Z 36005KT CAVOK 08/04 Q1012 NOSIG=
201912100900 METAR LRTR 100900Z 36003KT CAVOK 08/04 Q1012 NOSIG=
201912100930 METAR LRTR 100930Z 01004KT CAVOK 09/05 Q1012 NOSIG=
201912101000 METAR LRTR 101000Z 01006KT CAVOK 09/05 Q1013 NOSIG=
201912101030 METAR LRTR 101030Z 36007KT CAVOK 09/06 Q1013 NOSIG=
201912101100 METAR LRTR 101100Z 01008KT CAVOK 08/06 Q1013 NOSIG=
201912101130 METAR LRTR 101130Z 01008KT CAVOK 09/06 Q1013 NOSIG=
201912101200 METAR LRTR 101200Z 36007KT CAVOK 09/06 Q1013 NOSIG=
201912101230 METAR LRTR 101230Z 01007KT CAVOK 09/06 Q1013 NOSIG=
201912101300 METAR LRTR 101300Z 36008KT CAVOK 08/06 Q1014 NOSIG=
201912101330 METAR LRTR 101330Z 35006KT 7000 NSC 08/06 Q1014 NOSIG=
201912101400 METAR LRTR 101400Z 36008KT 6000 NSC 08/06 Q1014 TEMPO 5000
                        BR=
201912101430 METAR LRTR 101430Z 35007KT 5000 BR FEW008 07/06 Q1015 NOSIG=
201912101500 METAR LRTR 101500Z 35009KT 6000 FEW009 07/06 Q1015 NOSIG=
201912101530 METAR LRTR 101530Z 36011KT 7000 NSC 07/06 Q1015 NOSIG=
201912101600 METAR LRTR 101600Z 35013KT 8000 FEW049 07/06 Q1015 NOSIG=
201912101630 METAR LRTR 101630Z 35013KT 7000 FEW012 SCT049 07/06 Q1016
                        NOSIG=
201912101700 METAR LRTR 101700Z 36014KT 9999 FEW010 SCT049 07/06 Q1016
                        NOSIG=
201912101730 METAR LRTR 101730Z 35014KT 9999 SCT046 07/06 Q1016=
201912101800 METAR LRTR 101800Z 35016KT 9999 SCT047 06/05 Q1017=
201912101830 METAR LRTR 101830Z 36017KT 9999 SCT048 06/05 Q1017=
201912101900 METAR LRTR 101900Z 36017KT 9999 FEW048 06/05 Q1017=
201912101930 METAR LRTR 101930Z 36016KT CAVOK 06/05 Q1018=
201912102000 METAR LRTR 102000Z 36017KT CAVOK 05/04 Q1018=
201912102030 METAR LRTR 102030Z 36015KT 9999 FEW019 05/03 Q1018=
201912102100 METAR LRTR 102100Z 01014KT 9999 FEW020 05/03 Q1018=
201912102130 METAR LRTR 102130Z 01014KT CAVOK 05/03 Q1018=
201912102200 METAR LRTR 102200Z 36013KT CAVOK 04/02 Q1018=
201912102230 METAR LRTR 102230Z 35010KT CAVOK 04/02 Q1018=
201912102300 METAR LRTR 102300Z 36012KT CAVOK 04/02 Q1018=
201912102330 METAR LRTR 102330Z 36013KT CAVOK 04/01 Q1018=
201912110000 METAR LRTR 110000Z 01013KT CAVOK 04/01 Q1018=
201912110030 METAR LRTR 110030Z 01013KT 9999 FEW022 03/01 Q1019=
201912110100 METAR LRTR 110100Z 01012KT 9999 SCT019 03/01 Q1019=
201912110130 METAR LRTR 110130Z 02011KT 9999 SCT017 03/01 Q1018=
201912110200 METAR LRTR 110200Z 02010KT 9999 FEW018 02/01 Q1018=
201912110230 METAR LRTR 110230Z 02006KT 9999 FEW030 02/01 Q1018=
201912110300 METAR LRTR 110300Z 02005KT 9999 FEW033 01/00 Q1019=
201912110330 METAR LRTR 110330Z 02004KT 9999 FEW015 SCT040 01/00 Q1019=
201912110400 METAR LRTR 110400Z 02005KT 9999 SCT014 02/01 Q1019=
201912110430 METAR LRTR 110430Z 02007KT 9999 BKN014 02/01 Q1019=
201912110500 METAR LRTR 110500Z 02007KT 9999 OVC014 02/01 Q1019=
201912110530 METAR LRTR 110530Z 03005KT 9999 OVC014 03/01 Q1019=
201912110600 METAR LRTR 110600Z 03005KT 9999 OVC010 03/01 Q1019=
201912110630 METAR LRTR 110630Z 04005KT 9999 OVC009 03/01 Q1019=
201912110700 METAR LRTR 110700Z 07003KT 9999 OVC008 03/02 Q1019=
201912110730 METAR LRTR 110730Z 03003KT 360V060 9999 OVC007 03/02 Q1019=
201912110800 METAR LRTR 110800Z VRB01KT 9999 FEW004 OVC007 03/02 Q1019=
201912110830 METAR COR LRTR 110830Z 13003KT 7000 1200E R11/P2000 R29/P2000
                        BCFG SCT004 OVC005 03/03 Q1019=
201912110900 METAR LRTR 110900Z 17003KT 2000 BR BKN004 OVC005 03/03 Q1019=
201912110930 METAR LRTR 110930Z 14004KT 4000 BR BKN003 OVC006 04/04 Q1019=
201912111000 METAR LRTR 111000Z 00000KT 8000 OVC005 04/04 Q1019=
201912111030 METAR LRTR 111030Z 00000KT 9000 OVC005 04/04 Q1018=
201912111100 METAR LRTR 111100Z VRB01KT 9999 OVC006 05/04 Q1018=
201912111130 METAR LRTR 111130Z 15004KT 130V200 9999 OVC007 05/04 Q1018=
201912111200 METAR LRTR 111200Z 15004KT 9999 BKN007 OVC010 05/04 Q1018=
201912111230 METAR LRTR 111230Z 14003KT 9999 BKN007 OVC010 05/04 Q1017=
201912111300 METAR LRTR 111300Z 12004KT 9999 BKN009 OVC012 05/04 Q1017=
201912111330 METAR LRTR 111330Z 13005KT 9999 BKN009 OVC013 05/04 Q1017=
201912111400 METAR LRTR 111400Z 14005KT 9999 BKN009 OVC012 05/04 Q1017=
201912111430 METAR LRTR 111430Z 16006KT 9000 BKN009 OVC011 05/04 Q1017=
201912111500 METAR LRTR 111500Z 16005KT 6000 BKN010 OVC015 05/04 Q1017=
201912111530 METAR LRTR 111530Z 16004KT 6000 FEW008 BKN013 OVC020 05/04
                        Q1017=
201912111600 METAR LRTR 111600Z 17004KT 7000 SCT009 BKN015 OVC021 05/04
                        Q1016=
201912111630 METAR LRTR 111630Z 18004KT 9000 FEW009 BKN020 OVC049 04/04
                        Q1016=
201912111700 METAR LRTR 111700Z 18002KT 9999 FEW006 SCT021 BKN049 04/04
                        Q1016=
201912111730 METAR LRTR 111730Z 00000KT 8000 SCT005 SCT019 04/04 Q1016
                        NOSIG=
201912111800 METAR LRTR 111800Z VRB02KT 7000 FEW005 BKN017 04/04 Q1015
                        NOSIG=
201912111830 METAR LRTR 111830Z VRB02KT 7000 FEW005 BKN016 04/03 Q1015
                        NOSIG=
201912111900 METAR LRTR 111900Z 01001KT 7000 FEW005 SCT016 02/02 Q1015
                        BECMG 5000 BR=
201912111930 METAR LRTR 111930Z 00000KT 5000 BR BKN016 03/03 Q1015 NOSIG=
201912112000 METAR LRTR 112000Z 07003KT 030V090 4500 BR FEW006 BKN016
                        03/03 Q1015 BECMG 3000 BR=
201912112030 METAR LRTR 112030Z 05003KT 0350 R11/0650N R29/0600N FG FEW001
                        BKN003 BKN015 02/02 Q1015 TEMPO 0150
                        FG BKN002=
201912112100 METAR LRTR 112100Z 05004KT 0600 R11/1900U R29/1200U FG FEW001
                        BKN003 02/02 Q1014 TEMPO 1500 BR=
201912112130 METAR LRTR 112130Z AUTO 06005KT 1700 R11/1200VP2000U R29/1500VP2000U
                        FG SCT001/// BKN050/// 02/02 Q1014
                        TEMPO 1500 BR=
201912112200 METAR LRTR 112200Z 10005KT 0350 R11/0500N R29/0900D FG SCT001
                        BKN002 03/03 Q1014 TEMPO 0150 FG=
201912112230 METAR LRTR 112230Z 12003KT 0150 R11/0400N R29/0350N FG BKN001
                        OVC002 02/02 Q1013 NOSIG=
201912112300 METAR LRTR 112300Z 08007KT 0150 R11/0450N R29/0450N FG VV001
                        01/01 Q1012 NOSIG=
201912112330 METAR LRTR 112330Z 09005KT 0150 R11/0400N R29/0500N FG VV001
                        01/01 Q1012 NOSIG=
201912120000 METAR LRTR 120000Z 10008KT 0250 R11/0500N R29/0600N FG VV001
                        01/01 Q1012 TEMPO 0350=
201912120030 METAR LRTR 120030Z 10010KT 0350 R11/0650U R29/0900N FG VV001
                        01/01 Q1012 NOSIG=
201912120100 METAR LRTR 120100Z 11008KT 0450 R11/1000D R29/0650N FG VV001
                        01/01 Q1011 NOSIG=
201912120130 METAR LRTR 120130Z 10010KT 0400 R11/0900U R29/0800D FG VV001
                        01/01 Q1011 NOSIG=
201912120200 METAR LRTR 120200Z 10008KT 0450 R11/1200U R29/1200U FG VV001
                        01/01 Q1011 TEMPO 0600=
201912120230 METAR LRTR 120230Z 09008KT 0450 R11/1100D R29/1200D FG VV001
                        01/01 Q1010 NOSIG=
201912120300 METAR LRTR 120300Z 09007KT 0450 R11/1000N R29/1200D FG VV001
                        01/01 Q1010 NOSIG=
201912120330 METAR LRTR 120330Z 11007KT 0250 R11/0650N R29/0700N FG VV001
                        01/01 Q1010 TEMPO 0150 FG=
201912120400 METAR COR LRTR 120400Z 11007KT 0450 R11/0900U R29/1700U FG
                        VV001 01/01 Q1010 TEMPO 0600=
201912120430 METAR COR LRTR 120430Z 10006KT 1000 R11/P2000 R29/P2000 BR
                        SCT001 BKN002 01/01 Q1009 BECMG 1500=
201912120500 METAR LRTR 120500Z 09006KT 0600 R11/0900U R29/1300D FG BKN001
                        01/01 Q1009 TEMPO 0350 FG=
201912120530 METAR LRTR 120530Z 09005KT 1500 BR BKN001 00/00 Q1009 TEMPO
                        0800 FG=
201912120600 METAR LRTR 120600Z 08004KT 1500 BR FEW001 M00/M00 Q1009 TEMPO
                        0800 FG=
201912120630 METAR LRTR 120630Z VRB01KT 2000 BR FEW001 M01/M01 Q1009 BECMG
                        3000=
201912120700 METAR LRTR 120700Z 00000KT 2500 BR NSC M00/M00 Q1009 BECMG
                        3000=
201912120730 METAR LRTR 120730Z VRB02KT 2500 BR FEW002 00/00 Q1009 BECMG
                        3000=
201912120800 METAR LRTR 120800Z 09003KT 060V130 3000 BR FEW002 01/01 Q1009
                        NOSIG=
201912120830 METAR LRTR 120830Z 10005KT 3500 BR FEW002 02/02 Q1009 BECMG
                        5000=
201912120900 METAR LRTR 120900Z 09005KT 5000 BR NSC 03/03 Q1009 NOSIG=
201912120930 METAR LRTR 120930Z 09005KT 7000 NSC 03/03 Q1008 NOSIG=
201912121000 METAR LRTR 121000Z 11006KT 8000 NSC 04/04 Q1008 NOSIG=
201912121030 METAR LRTR 121030Z 11006KT 9999 FEW018 05/04 Q1008 NOSIG=
201912121100 METAR LRTR 121100Z 11007KT 9999 FEW020 05/04 Q1007 NOSIG=
201912121130 METAR LRTR 121130Z 11008KT CAVOK 05/04 Q1007 NOSIG=
201912121200 METAR LRTR 121200Z 11007KT CAVOK 06/04 Q1007 NOSIG=
201912121230 METAR LRTR 121230Z 10007KT CAVOK 05/04 Q1007 NOSIG=
201912121300 METAR LRTR 121300Z 11007KT CAVOK 06/04 Q1006 NOSIG=
201912121330 METAR LRTR 121330Z 11006KT CAVOK 06/04 Q1006 NOSIG=
201912121400 METAR LRTR 121400Z 11006KT CAVOK 05/04 Q1006 NOSIG=
201912121430 METAR LRTR 121430Z 12005KT 9999 -RA NSC 05/04 Q1006 NOSIG=
201912121500 METAR LRTR 121500Z 11004KT 9999 -RA NSC 05/05 Q1006 NOSIG=
201912121530 METAR LRTR 121530Z 00000KT CAVOK 05/05 Q1006 NOSIG=
201912121600 METAR LRTR 121600Z 26001KT 8000 NSC 05/04 Q1006 NOSIG=
201912121630 METAR LRTR 121630Z 00000KT 7000 -RA NSC 05/05 Q1006 NOSIG=
201912121700 METAR LRTR 121700Z VRB01KT 7000 -RA NSC 05/04 Q1006 NOSIG=
201912121730 METAR LRTR 121730Z 07001KT 8000 -RA NSC 05/04 Q1005=
201912121800 METAR LRTR 121800Z 00000KT 7000 -RA NSC 04/04 Q1005=
201912121830 METAR LRTR 121830Z 35002KT 5000 -RA BR NSC 04/04 Q1005=
201912121900 METAR LRTR 121900Z 07003KT 6000 -RA OVC049 04/04 Q1005 R11/290095=
201912121930 METAR LRTR 121930Z 00000KT 5000 -RA BR OVC048 04/04 Q1004
                        R11/290095=
201912122000 METAR LRTR 122000Z 06003KT 5000 -RA BR OVC048 04/04 Q1004
                        R11/290095=
201912122030 METAR LRTR 122030Z 07003KT 5000 BR OVC048 04/04 Q1004 R11/290095=
201912122100 METAR LRTR 122100Z 10004KT 5000 -RA BR OVC046 04/04 Q1004
                        R11/290095=
201912122130 METAR LRTR 122130Z 11006KT 6000 OVC046 05/05 Q1003 R11/290095=
201912122200 METAR LRTR 122200Z 11006KT 090V150 9999 OVC042 05/05 Q1003
                        R11/290095=
201912122230 METAR LRTR 122230Z 11005KT 9999 OVC041 05/05 Q1003 R11/290095=
201912122300 METAR LRTR 122300Z 12005KT 9999 OVC042 05/05 Q1002 R11/290095=
201912122330 METAR LRTR 122330Z 12006KT 9999 OVC042 05/05 Q1002 R11/290095=
201912130000 METAR COR LRTR 130000Z 11007KT 7000 -RA OVC041 05/05 Q1001
                        R11/290095=
201912130030 METAR LRTR 130030Z 10008KT 8000 -RA BKN043 05/05 Q1001 R11/290095=
201912130100 METAR LRTR 130100Z 11007KT 8000 -RA BKN047 05/05 Q1001 R11/290095=
201912130130 METAR LRTR 130130Z 11007KT 8000 -RA BKN046 05/05 Q1001 R11/290095=
201912130200 METAR LRTR 130200Z 12008KT 9999 -RA SCT038 BKN048 05/05 Q1000
                        R11/290095=
201912130230 METAR LRTR 130230Z 12008KT 9999 SCT037 BKN045 05/05 Q1000
                        R11/290095=
201912130300 METAR LRTR 130300Z 13007KT 9999 SCT036 BKN046 05/05 Q1000
                        R11/290095=
201912130330 METAR LRTR 130330Z 15004KT 9999 BKN035 05/05 Q1000 R11/290095=
201912130400 METAR LRTR 130400Z 14005KT 9999 BKN034 05/05 Q1000 R11/290095=
201912130430 METAR LRTR 130430Z 13004KT 9999 -RA BKN034 05/05 Q0999 R11/290095=
201912130500 METAR LRTR 130500Z 12005KT 9999 BKN035 04/04 Q0999 R11/290095=
201912130530 METAR LRTR 130530Z 13005KT 9999 SCT040 04/04 Q0999 R11/290095=
201912130600 METAR LRTR 130600Z 12005KT 9999 SCT045 04/04 Q0999 R11/290095=
201912130630 METAR LRTR 130630Z 12004KT 9999 -RA SCT045 04/05 Q0999 R11/290095=
201912130700 METAR LRTR 130700Z 14003KT 9999 SCT040 05/05 Q0999 R11/290095=
201912130730 METAR LRTR 130730Z 00000KT 9999 SCT040 05/05 Q0999 R11/290095=
201912130800 METAR LRTR 130800Z 00000KT 9999 SCT042 06/05 Q0999 R11/290095=
201912130830 METAR LRTR 130830Z 11006KT 9999 SCT045 06/05 Q0998 R11/290095=
201912130900 METAR LRTR 130900Z 12006KT 9999 SCT048 07/06 Q0998 R11/290095=
201912130930 METAR LRTR 130930Z 15007KT CAVOK 09/06 Q0998 R11/290095=
201912131000 METAR LRTR 131000Z 14008KT CAVOK 09/05 Q0997 R11/190095=
201912131030 METAR LRTR 131030Z 16009KT CAVOK 10/06 Q0997 R11/190095=
201912131100 METAR LRTR 131100Z 17014KT CAVOK 10/05 Q0996 R11/190095=
201912131130 METAR LRTR 131130Z 17015KT CAVOK 10/05 Q0995 R11/190095=
201912131200 METAR LRTR 131200Z 17017KT CAVOK 11/05 Q0995 R11/190095=
201912131230 METAR LRTR 131230Z 17018KT CAVOK 11/05 Q0995 R11/190095=
201912131300 METAR LRTR 131300Z 17015KT CAVOK 11/04 Q0995 R11/CLRD//=
201912131330 METAR LRTR 131330Z 17015KT CAVOK 11/04 Q0994=
201912131400 METAR LRTR 131400Z 17012KT CAVOK 10/04 Q0994=
201912131430 METAR LRTR 131430Z 16009KT CAVOK 09/04 Q0994=
201912131500 METAR LRTR 131500Z 15005KT CAVOK 08/04 Q0995=
201912131530 METAR LRTR 131530Z 14007KT CAVOK 07/04 Q0994=
201912131600 METAR LRTR 131600Z 14008KT CAVOK 06/03 Q0994=
201912131630 METAR LRTR 131630Z 12008KT CAVOK 06/03 Q0994=
201912131700 METAR LRTR 131700Z 11008KT CAVOK 05/03 Q0994 NOSIG=
201912131730 METAR LRTR 131730Z 11007KT CAVOK 04/03 Q0994 NOSIG=
201912131800 METAR LRTR 131800Z 11007KT CAVOK 04/03 Q0994 NOSIG=
201912131830 METAR LRTR 131830Z 11006KT CAVOK 03/02 Q0994 NOSIG=
201912131900 METAR LRTR 131900Z 10007KT CAVOK 03/03 Q0993 NOSIG=
201912131930 METAR LRTR 131930Z 10009KT CAVOK 04/03 Q0993 NOSIG=
201912132000 METAR LRTR 132000Z 11008KT CAVOK 03/02 Q0993 NOSIG=
201912132030 METAR LRTR 132030Z 10009KT CAVOK 03/02 Q0993 NOSIG=
201912132100 METAR LRTR 132100Z 10009KT CAVOK 03/03 Q0993 NOSIG=
201912132130 METAR LRTR 132130Z 10009KT CAVOK 03/02 Q0993 NOSIG=
201912132200 METAR LRTR 132200Z 09009KT CAVOK 03/02 Q0993 NOSIG=
201912132230 METAR LRTR 132230Z 10008KT CAVOK 03/02 Q0992 NOSIG=
201912132300 METAR LRTR 132300Z 09010KT CAVOK 03/02 Q0992 NOSIG=
201912132330 METAR LRTR 132330Z 09011KT CAVOK 03/02 Q0992 NOSIG=
201912140000 METAR LRTR 140000Z 10012KT CAVOK 04/03 Q0992 NOSIG=
201912140030 METAR LRTR 140030Z 10011KT CAVOK 04/03 Q0992 NOSIG=
201912140100 METAR LRTR 140100Z 10011KT CAVOK 04/03 Q0992 NOSIG=
201912140130 METAR LRTR 140130Z 10012KT CAVOK 05/03 Q0992 NOSIG=
201912140200 METAR LRTR 140200Z 10010KT CAVOK 05/03 Q0992 NOSIG=
201912140230 METAR LRTR 140230Z 11011KT CAVOK 06/03 Q0992 NOSIG=
201912140300 METAR LRTR 140300Z 10010KT CAVOK 05/03 Q0992 NOSIG=
201912140330 METAR LRTR 140330Z 08007KT CAVOK 04/02 Q0992 NOSIG=
201912140400 METAR LRTR 140400Z 10008KT CAVOK 04/02 Q0993 NOSIG=
201912140430 METAR LRTR 140430Z 13005KT CAVOK 04/02 Q0993 NOSIG=
201912140500 METAR LRTR 140500Z 13005KT CAVOK 03/01 Q0994 NOSIG=
201912140530 METAR LRTR 140530Z 10002KT CAVOK 02/01 Q0994 NOSIG=
201912140600 METAR LRTR 140600Z 09006KT CAVOK 01/01 Q0995 NOSIG=
201912140630 METAR COR LRTR 140630Z 09006KT CAVOK 02/01 Q0995 NOSIG=
201912140700 METAR LRTR 140700Z 11002KT CAVOK 03/02 Q0996 NOSIG=
201912140730 METAR LRTR 140730Z 12002KT CAVOK 04/03 Q0997 NOSIG=
201912140800 METAR LRTR 140800Z 13005KT CAVOK 05/03 Q0997 NOSIG=
201912140830 METAR LRTR 140830Z 12003KT 9999 -RA NSC 06/03 Q0998 NOSIG=
201912140900 METAR LRTR 140900Z 12004KT CAVOK 06/04 Q0998 NOSIG=
201912140930 METAR LRTR 140930Z 13004KT CAVOK 07/04 Q0998 NOSIG=
201912141000 METAR LRTR 141000Z VRB02KT 9999 BKN048 07/05 Q0998 NOSIG=
201912141030 METAR LRTR 141030Z 30005KT 9999 OVC048 07/05 Q0999 NOSIG=
201912141100 METAR LRTR 141100Z 30007KT 9999 OVC048 06/05 Q1000 NOSIG=
201912141130 METAR LRTR 141130Z 30008KT 9999 OVC041 06/05 Q1000 NOSIG=
201912141200 METAR LRTR 141200Z VRB03KT 9999 -RA BKN042 06/05 Q1000 NOSIG=
201912141230 METAR LRTR 141230Z 25005KT 210V270 9999 -RA BKN045 08/06
                        Q1000 R11/190095 NOSIG=
201912141300 METAR LRTR 141300Z 18006KT 9999 -RA SCT045 FEW050CB 08/06
                        Q1001 R11/190095 TEMPO 5000 SHRA=
201912141330 METAR LRTR 141330Z 22005KT 5000 SHRA FEW025 SCT047 FEW050CB
                        07/07 Q1002 R11/190095 NOSIG=
201912141400 METAR LRTR 141400Z 24008KT 7000 -SHRA FEW011 SCT025 FEW045CB
                        07/07 Q1002 RESHRA R11/290095 NOSIG=
201912141430 METAR LRTR 141430Z 25010KT 9999 FEW015 SCT025 FEW045CB 07/06
                        Q1003 R11/290095 NOSIG=
201912141500 METAR LRTR 141500Z 26010KT 9999 SCT009 BKN023 06/06 Q1004
                        R11/290095 NOSIG=
201912141530 METAR LRTR 141530Z 23009KT 8000 BKN009 OVC022 06/06 Q1004
                        R11/290095 NOSIG=
201912141600 METAR LRTR 141600Z 25007KT 8000 FEW008 OVC010 06/06 Q1005
                        R11/290095 NOSIG=
201912141630 METAR LRTR 141630Z 27007KT 8000 SCT008 OVC010 06/05 Q1006
                        R11/290095 NOSIG=
201912141700 METAR LRTR 141700Z 26008KT 8000 OVC009 05/05 Q1007 R11/290095
                        NOSIG=
201912141730 METAR LRTR 141730Z 27011KT 8000 OVC009 05/05 Q1008 R11/290095=
201912141800 METAR LRTR 141800Z 21004KT 9999 BKN009 05/04 Q1008 R11/290095=
201912141830 METAR LRTR 141830Z 18004KT 8000 SCT009 04/04 Q1008 R11/290095=
201912141900 METAR LRTR 141900Z 20006KT 6000 NSC 04/04 Q1009 R11/290095=
201912141930 METAR LRTR 141930Z 20004KT 6000 NSC 04/04 Q1010 R11/290095=
201912142000 METAR LRTR 142000Z 20005KT 5000 BR NSC 04/04 Q1011 R11/290095=
201912142030 METAR LRTR 142030Z 20004KT 5000 BR NSC 03/03 Q1011 R11/290095=
201912142100 METAR LRTR 142100Z 16007KT 3500 BR NSC 02/02 Q1011 R11/290095=
201912142130 METAR LRTR 142130Z 18003KT 140V200 4000 BR NSC 03/03 Q1012
                        R11/290095=
201912142200 METAR LRTR 142200Z 11004KT 2500 BR NSC 01/01 Q1012 R11/290095=
201912142230 METAR LRTR 142230Z 12005KT 2000 0600NE R11/P2000 R29/1500D
                        BCFG BR NSC 01/00 Q1013 R11/290095=
201912142300 METAR LRTR 142300Z 17004KT 1500 0600NE R11/P2000 R29/1300D
                        BCFG BR FEW003 02/02 Q1013 R11/290095=
201912142330 METAR LRTR 142330Z 18005KT 1500 0500E R11/P2000 R29/0550N
                        BCFG BR NSC 01/01 Q1013 R11/290095=
201912150000 METAR LRTR 150000Z 00000KT 0700 R11/0800U R29/1300U FZFG
                        NSC M01/M01 Q1014 R11/290095=
201912150030 METAR LRTR 150030Z 00000KT 1500 0300E R11/1500D R29/0275N
                        BCFG BR FEW001 00/00 Q1015 R11/290095=
201912150100 METAR LRTR 150100Z 14004KT 0550 R11/0700N R29/0450N FZFG
                        SCT004 M02/M02 Q1015 R11/290095=
201912150130 METAR LRTR 150130Z 13006KT 0600 R11/1000D R29/0600D FZFG
                        SCT004 M02/M02 Q1015 R11/290095=
201912150200 METAR LRTR 150200Z 14005KT 0300 R11/0600N R29/0375N FZFG
                        FEW001 BKN003 M02/M02 Q1015 R11/290095=
201912150230 METAR LRTR 150230Z 15005KT 0300 R11/0450N R29/0450N FZFG
                        BKN001 M01/M01 Q1015 R11/290095=
201912150300 METAR LRTR 150300Z 12007KT 0250 R11/0450N R29/0400N FZFG
                        VV001 M00/M00 Q1015 R11/290095=
201912150330 METAR LRTR 150330Z 16005KT 0350 R11/0500N R29/0500N FZFG
                        VV001 M00/M00 Q1015 R11/290095=
201912150400 METAR LRTR 150400Z 15005KT 0350 R11/0550U R29/0400N FZFG
                        BKN001 M01/M01 Q1015 R11/190095=
201912150430 METAR LRTR 150430Z 13006KT 2000 BR FEW001 SCT005 M01/M01
                        Q1015 R11/190095=
201912150500 METAR LRTR 150500Z 13007KT 2000 0800NE R11/P2000 R29/2000
                        BCFG BR NSC M01/M01 Q1015 R11/190095=
201912150530 METAR LRTR 150530Z 11007KT 3500 0800NE R11/P2000 R29/P2000
                        BCFG BR NSC M01/M01 Q1016 R11/190095=
201912150600 METAR LRTR 150600Z 14005KT 3000 BR NSC M01/M01 Q1016 R11/190095=
201912150630 METAR LRTR 150630Z 11006KT 4000 BR NSC M01/M01 Q1016 R11/190095=
201912150700 METAR LRTR 150700Z 12008KT 4000 BR NSC 00/00 Q1016 R11/190095=
201912150730 METAR LRTR 150730Z 11007KT 5000 BR NSC 01/01 Q1016 R11/190095=
201912150800 METAR COR LRTR 150800Z 11009KT 7000 NSC 03/03 Q1016 R11/190095=
201912150830 METAR LRTR 150830Z 11010KT 8000 NSC 04/04 Q1016 R11/190095=
201912150900 METAR LRTR 150900Z 12011KT CAVOK 05/05 Q1016 R11/190095=
201912150930 METAR LRTR 150930Z 13010KT CAVOK 07/05 Q1016 R11/190095=
201912151000 METAR LRTR 151000Z 13008KT CAVOK 08/05 Q1016 R11/190095=
201912151030 METAR LRTR 151030Z 18006KT CAVOK 09/05 Q1016 R11/190095=
201912151100 METAR LRTR 151100Z 15007KT CAVOK 10/05 Q1016 R11/190095=
201912151130 METAR LRTR 151130Z 14007KT CAVOK 11/06 Q1016 R11/190095=
201912151200 METAR LRTR 151200Z 15008KT CAVOK 11/06 Q1016 R11/190095=
201912151230 METAR LRTR 151230Z 15008KT CAVOK 12/06 Q1016 R11/190095=
201912151300 METAR LRTR 151300Z 16008KT CAVOK 12/06 Q1016 R11/190095=
201912151330 METAR LRTR 151330Z 14004KT CAVOK 12/06 Q1016 R11/190095=
201912151400 METAR LRTR 151400Z 23001KT CAVOK 13/06 Q1017 R11/190095=
201912151430 METAR LRTR 151430Z 09005KT CAVOK 10/07 Q1016 R11/190095=
201912151500 METAR LRTR 151500Z 13006KT CAVOK 09/06 Q1017 R11/CLRD//=
201912151530 METAR LRTR 151530Z 13009KT CAVOK 07/05 Q1017=
201912151600 METAR LRTR 151600Z 13008KT CAVOK 06/05 Q1017=
201912151630 METAR LRTR 151630Z 13007KT CAVOK 05/04 Q1017=
201912151700 METAR LRTR 151700Z 11007KT CAVOK 05/04 Q1017=
201912151730 METAR LRTR 151730Z 12007KT CAVOK 04/03 Q1017=
201912151800 METAR LRTR 151800Z 13006KT CAVOK 04/03 Q1018=
201912151830 METAR LRTR 151830Z 13005KT CAVOK 04/03 Q1018=
201912151900 METAR LRTR 151900Z 12006KT CAVOK 04/02 Q1018=
201912151930 METAR LRTR 151930Z 12006KT CAVOK 04/02 Q1018=
201912152000 METAR LRTR 152000Z 08005KT CAVOK 04/03 Q1018=
201912152030 METAR COR LRTR 152030Z 11007KT CAVOK 05/04 Q1018=
201912152100 METAR LRTR 152100Z 11006KT CAVOK 06/04 Q1019=
201912152130 METAR LRTR 152130Z 12008KT CAVOK 06/04 Q1019=
201912152200 METAR LRTR 152200Z 12006KT CAVOK 05/04 Q1019=
201912152230 METAR COR LRTR 152230Z 11007KT CAVOK 05/03 Q1019=
201912152300 METAR LRTR 152300Z 11007KT CAVOK 06/03 Q1019=
201912152330 METAR LRTR 152330Z 12008KT CAVOK 06/04 Q1019=
201912160000 METAR LRTR 160000Z 12007KT CAVOK 06/03 Q1019=
201912160030 METAR LRTR 160030Z 12007KT CAVOK 06/03 Q1020=
201912160100 METAR LRTR 160100Z 12007KT CAVOK 05/03 Q1020=
201912160130 METAR LRTR 160130Z 12007KT CAVOK 05/03 Q1020=
201912160200 METAR LRTR 160200Z 12007KT CAVOK 06/03 Q1020=
201912160230 METAR LRTR 160230Z 12006KT CAVOK 05/03 Q1020=
201912160300 METAR LRTR 160300Z 12006KT CAVOK 06/03 Q1020=
201912160330 METAR LRTR 160330Z AUTO 12007KT 9999 OVC071/// 06/03 Q1020=
201912160400 METAR COR LRTR 160400Z 12006KT CAVOK 06/03 Q1021=
201912160430 METAR LRTR 160430Z 11006KT CAVOK 06/03 Q1021=
201912160500 METAR LRTR 160500Z 12007KT CAVOK 05/04 Q1021 NOSIG=
201912160530 METAR LRTR 160530Z 10005KT CAVOK 05/03 Q1021 NOSIG=
201912160600 METAR LRTR 160600Z 10006KT CAVOK 05/03 Q1022 NOSIG=
201912160630 METAR LRTR 160630Z 12008KT CAVOK 04/03 Q1022 NOSIG=
201912160700 METAR LRTR 160700Z 12008KT CAVOK 05/03 Q1022 NOSIG=
201912160730 METAR LRTR 160730Z 11007KT CAVOK 06/04 Q1022 NOSIG=
201912160800 METAR LRTR 160800Z 12006KT CAVOK 09/04 Q1023 NOSIG=
201912160830 METAR LRTR 160830Z 12007KT CAVOK 09/04 Q1023 NOSIG=
201912160900 METAR LRTR 160900Z 15005KT CAVOK 10/04 Q1023 NOSIG=
201912160930 METAR LRTR 160930Z 15006KT CAVOK 11/04 Q1023 NOSIG=
201912161000 METAR LRTR 161000Z 14006KT CAVOK 12/04 Q1023 NOSIG=
201912161030 METAR LRTR 161030Z 15005KT CAVOK 13/05 Q1022 NOSIG=
201912161100 METAR LRTR 161100Z 14007KT CAVOK 14/05 Q1022 NOSIG=
201912161130 METAR LRTR 161130Z 16007KT CAVOK 14/06 Q1021 NOSIG=
201912161200 METAR LRTR 161200Z 16009KT CAVOK 15/04 Q1021 NOSIG=
201912161230 METAR LRTR 161230Z 13007KT CAVOK 15/06 Q1021 NOSIG=
201912161300 METAR LRTR 161300Z 16008KT CAVOK 15/04 Q1021 NOSIG=
201912161330 METAR LRTR 161330Z 18008KT CAVOK 15/04 Q1021 NOSIG=
201912161400 METAR LRTR 161400Z 18005KT CAVOK 13/05 Q1021 NOSIG=
201912161430 METAR LRTR 161430Z 18003KT CAVOK 12/05 Q1021 NOSIG=
201912161500 METAR LRTR 161500Z 13003KT 090V170 CAVOK 09/06 Q1021 NOSIG=
201912161530 METAR LRTR 161530Z 12004KT CAVOK 09/06 Q1021 NOSIG=
201912161600 METAR LRTR 161600Z 13004KT CAVOK 09/05 Q1021 NOSIG=
201912161630 METAR LRTR 161630Z 13005KT CAVOK 07/05 Q1021 NOSIG=
201912161700 METAR LRTR 161700Z 08005KT CAVOK 06/05 Q1021 NOSIG=
201912161730 METAR LRTR 161730Z 10006KT CAVOK 05/04 Q1021=
201912161800 METAR LRTR 161800Z 09008KT CAVOK 05/04 Q1021=
201912161830 METAR LRTR 161830Z 10007KT CAVOK 04/03 Q1021=
201912161900 METAR LRTR 161900Z 10007KT CAVOK 04/03 Q1021=
201912161930 METAR LRTR 161930Z 10008KT CAVOK 04/03 Q1021=
201912162000 METAR LRTR 162000Z 10009KT CAVOK 05/03 Q1021=
201912162030 METAR LRTR 162030Z 11008KT CAVOK 03/02 Q1021=
201912162100 METAR LRTR 162100Z 10009KT CAVOK 04/03 Q1021=
201912162130 METAR LRTR 162130Z 10008KT CAVOK 04/03 Q1020=
201912162200 METAR LRTR 162200Z 11009KT CAVOK 03/02 Q1020=
201912162230 METAR LRTR 162230Z 11008KT CAVOK 03/02 Q1020=
201912162300 METAR LRTR 162300Z 10009KT CAVOK 03/02 Q1020=
201912162330 METAR LRTR 162330Z 11009KT CAVOK 02/02 Q1020=
201912170000 METAR LRTR 170000Z 11010KT CAVOK 02/02 Q1021=
201912170030 METAR LRTR 170030Z 11009KT CAVOK 02/02 Q1021=
201912170100 METAR LRTR 170100Z 11008KT CAVOK 03/02 Q1021=
201912170130 METAR LRTR 170130Z 11009KT 9999 NCD 03/02 Q1021=
201912170200 METAR LRTR 170200Z 11009KT CAVOK 02/02 Q1020=
201912170230 METAR LRTR 170230Z 11010KT CAVOK 03/02 Q1020=
201912170300 METAR LRTR 170300Z 11009KT CAVOK 02/02 Q1020=
201912170330 METAR LRTR 170330Z 11008KT CAVOK 02/02 Q1020=
201912170400 METAR LRTR 170400Z 11008KT CAVOK 02/01 Q1020=
201912170430 METAR LRTR 170430Z 11009KT CAVOK 02/02 Q1020=
201912170500 METAR LRTR 170500Z 11008KT CAVOK 02/02 Q1021=
201912170530 METAR LRTR 170530Z 10007KT CAVOK 02/01 Q1021=
201912170600 METAR LRTR 170600Z 11006KT CAVOK 02/01 Q1021=
201912170630 METAR LRTR 170630Z 12009KT CAVOK 03/02 Q1021=
201912170700 METAR LRTR 170700Z 11010KT CAVOK 04/03 Q1022=
201912170730 METAR LRTR 170730Z 12009KT CAVOK 05/03 Q1022=
201912170800 METAR LRTR 170800Z 11009KT CAVOK 06/04 Q1022=
201912170830 METAR LRTR 170830Z 12009KT CAVOK 07/04 Q1022=
201912170900 METAR LRTR 170900Z 12011KT CAVOK 08/05 Q1022=
201912170930 METAR LRTR 170930Z 12011KT CAVOK 09/05 Q1022=
201912171000 METAR LRTR 171000Z 12008KT CAVOK 10/05 Q1022=
201912171030 METAR LRTR 171030Z 13006KT CAVOK 12/06 Q1022=
201912171100 METAR LRTR 171100Z 15006KT CAVOK 13/06 Q1021=
201912171130 METAR LRTR 171130Z 15006KT CAVOK 14/06 Q1021=
201912171200 METAR LRTR 171200Z 14006KT CAVOK 15/06 Q1021=
201912171230 METAR LRTR 171230Z 14007KT CAVOK 16/07 Q1021=
201912171300 METAR LRTR 171300Z 17007KT CAVOK 15/06 Q1021=
201912171330 METAR LRTR 171330Z 17005KT CAVOK 15/06 Q1021=
201912171400 METAR LRTR 171400Z 16005KT CAVOK 14/06 Q1021=
201912171430 METAR LRTR 171430Z 14004KT CAVOK 12/07 Q1021=
201912171500 METAR LRTR 171500Z 12006KT CAVOK 10/07 Q1021=
201912171530 METAR LRTR 171530Z 10006KT CAVOK 08/07 Q1021=
201912171600 METAR LRTR 171600Z 09006KT CAVOK 08/06 Q1022=
201912171630 METAR LRTR 171630Z 09006KT CAVOK 06/05 Q1022=
201912171700 METAR LRTR 171700Z 07005KT CAVOK 06/05 Q1022 NOSIG=
201912171730 METAR LRTR 171730Z 09007KT CAVOK 06/05 Q1022 NOSIG=
201912171800 METAR LRTR 171800Z 09007KT CAVOK 05/04 Q1022 NOSIG=
201912171830 METAR LRTR 171830Z 09008KT CAVOK 05/04 Q1022 NOSIG=
201912171900 METAR LRTR 171900Z 09007KT CAVOK 05/04 Q1022 NOSIG=
201912171930 METAR LRTR 171930Z 10008KT CAVOK 04/03 Q1022 NOSIG=
201912172000 METAR LRTR 172000Z 09006KT CAVOK 04/03 Q1022 NOSIG=
201912172030 METAR LRTR 172030Z 09007KT 7000 NSC 04/03 Q1022 TEMPO 5000
                        BR=
201912172100 METAR LRTR 172100Z 11008KT CAVOK 03/02 Q1022 NOSIG=
201912172130 METAR LRTR 172130Z 11008KT CAVOK 03/03 Q1022 NOSIG=
201912172200 METAR LRTR 172200Z 09008KT CAVOK 04/03 Q1022 NOSIG=
201912172230 METAR LRTR 172230Z 10007KT CAVOK 03/03 Q1022 NOSIG=
201912172300 METAR LRTR 172300Z 10007KT CAVOK 03/03 Q1022 NOSIG=
201912172330 METAR LRTR 172330Z 10007KT CAVOK 02/02 Q1022 NOSIG=
201912180000 METAR LRTR 180000Z 11008KT CAVOK 02/02 Q1022 NOSIG=
201912180030 METAR LRTR 180030Z 11010KT CAVOK 03/02 Q1022 NOSIG=
201912180100 METAR LRTR 180100Z 11009KT CAVOK 03/02 Q1023 NOSIG=
201912180130 METAR LRTR 180130Z 11009KT CAVOK 03/02 Q1023 NOSIG=
201912180200 METAR LRTR 180200Z 11009KT CAVOK 03/02 Q1023 NOSIG=
201912180230 METAR LRTR 180230Z 10009KT CAVOK 03/02 Q1023 NOSIG=
201912180300 METAR LRTR 180300Z 10008KT CAVOK 03/02 Q1023 NOSIG=
201912180330 METAR LRTR 180330Z 10007KT CAVOK 02/02 Q1023 NOSIG=
201912180400 METAR LRTR 180400Z 10004KT CAVOK 02/01 Q1023 NOSIG=
201912180430 METAR LRTR 180430Z 10007KT CAVOK 02/02 Q1023 NOSIG=
201912180500 METAR LRTR 180500Z 11006KT CAVOK 01/01 Q1023=
201912180530 METAR LRTR 180530Z 11006KT CAVOK 01/01 Q1023=
201912180600 METAR LRTR 180600Z 11007KT CAVOK 01/01 Q1023=
201912180630 METAR COR LRTR 180630Z 09006KT CAVOK 01/01 Q1024=
201912180700 METAR COR LRTR 180700Z 11006KT CAVOK 03/02 Q1024=
201912180730 METAR LRTR 180730Z 09006KT CAVOK 04/03 Q1024=
201912180800 METAR LRTR 180800Z 11005KT CAVOK 05/04 Q1025=
201912180830 METAR LRTR 180830Z 12007KT CAVOK 07/04 Q1025=
201912180900 METAR LRTR 180900Z 12008KT CAVOK 08/05 Q1025=
201912180930 METAR LRTR 180930Z 12006KT CAVOK 08/05 Q1025=
201912181000 METAR LRTR 181000Z 12007KT CAVOK 09/05 Q1025=
201912181030 METAR LRTR 181030Z 12005KT CAVOK 11/06 Q1025=
201912181100 METAR LRTR 181100Z 12005KT CAVOK 11/06 Q1025=
201912181130 METAR COR LRTR 181130Z 12004KT 090V150 CAVOK 13/06 Q1024=
201912181200 METAR LRTR 181200Z 14004KT 110V170 CAVOK 13/06 Q1024=
201912181230 METAR LRTR 181230Z 14005KT CAVOK 13/06 Q1024=
201912181300 METAR LRTR 181300Z 14005KT CAVOK 14/05 Q1024=
201912181330 METAR LRTR 181330Z 15005KT CAVOK 14/06 Q1024=
201912181400 METAR LRTR 181400Z 18004KT CAVOK 14/06 Q1024=
201912181430 METAR LRTR 181430Z 11001KT CAVOK 12/06 Q1024=
201912181500 METAR LRTR 181500Z 14003KT CAVOK 11/06 Q1025=
201912181530 METAR LRTR 181530Z 13002KT CAVOK 09/07 Q1025=
201912181600 METAR LRTR 181600Z 16005KT CAVOK 09/06 Q1024=
201912181630 METAR LRTR 181630Z 01005KT 350V070 CAVOK 08/06 Q1025=
201912181700 METAR LRTR 181700Z 06005KT CAVOK 06/05 Q1025=
201912181730 METAR LRTR 181730Z 11005KT CAVOK 06/05 Q1025=
201912181800 METAR LRTR 181800Z 09006KT CAVOK 05/04 Q1025=
201912181830 METAR LRTR 181830Z 09008KT CAVOK 05/04 Q1026=
201912181900 METAR LRTR 181900Z 12006KT CAVOK 05/04 Q1025=
201912181930 METAR LRTR 181930Z 11006KT 7000 NSC 04/03 Q1026=
201912182000 METAR LRTR 182000Z 09005KT 6000 NSC 03/03 Q1026=
201912182030 METAR LRTR 182030Z 09005KT 6000 NSC 03/03 Q1026=
201912182100 METAR LRTR 182100Z 10006KT 7000 NSC 03/03 Q1026=
201912182130 METAR LRTR 182130Z 10007KT 8000 NSC 03/03 Q1026=
201912182200 METAR LRTR 182200Z 11007KT 8000 NSC 02/02 Q1027=
201912182230 METAR LRTR 182230Z 14006KT 7000 NSC 03/03 Q1027=
201912182300 METAR LRTR 182300Z 12007KT 7000 NSC 03/03 Q1027=
201912182330 METAR LRTR 182330Z 11007KT 7000 NSC 03/03 Q1026=
201912190000 METAR LRTR 190000Z 10008KT 7000 NSC 04/03 Q1027=
201912190030 METAR LRTR 190030Z 11008KT CAVOK 04/03 Q1026=
201912190100 METAR LRTR 190100Z 11008KT CAVOK 03/03 Q1027=
201912190130 METAR LRTR 190130Z 10006KT CAVOK 03/03 Q1027=
201912190200 METAR LRTR 190200Z 11007KT CAVOK 03/03 Q1026=
201912190230 METAR LRTR 190230Z 12007KT CAVOK 02/02 Q1026=
201912190300 METAR LRTR 190300Z 11007KT CAVOK 02/02 Q1026=
201912190330 METAR LRTR 190330Z 09006KT 6000 NSC 01/01 Q1027=
201912190400 METAR LRTR 190400Z 09007KT 7000 NSC 02/02 Q1027=
201912190430 METAR LRTR 190430Z 09008KT 7000 NSC 02/02 Q1026=
201912190500 METAR LRTR 190500Z 11006KT 6000 NSC 01/01 Q1027=
201912190530 METAR LRTR 190530Z 07005KT 6000 NSC 01/01 Q1027=
201912190600 METAR LRTR 190600Z 10007KT 8000 NSC 01/01 Q1026=
201912190630 METAR LRTR 190630Z 11007KT 8000 NSC 01/01 Q1026=
201912190700 METAR LRTR 190700Z 11005KT 8000 NSC 01/01 Q1027=
201912190730 METAR LRTR 190730Z 11008KT CAVOK 04/03 Q1026=
201912190800 METAR LRTR 190800Z 12008KT CAVOK 05/04 Q1027=
201912190830 METAR LRTR 190830Z 12008KT CAVOK 07/05 Q1027=
201912190900 METAR LRTR 190900Z 11009KT CAVOK 08/05 Q1026=
201912190930 METAR LRTR 190930Z 12008KT CAVOK 09/05 Q1026=
201912191000 METAR LRTR 191000Z 13007KT CAVOK 10/06 Q1026=
201912191030 METAR LRTR 191030Z 12008KT CAVOK 11/06 Q1026=
201912191100 METAR LRTR 191100Z 11005KT CAVOK 11/06 Q1025=
201912191130 METAR LRTR 191130Z 09005KT CAVOK 13/06 Q1025=
201912191200 METAR LRTR 191200Z 09004KT CAVOK 13/05 Q1024=
201912191230 METAR LRTR 191230Z 09005KT CAVOK 13/06 Q1024=
201912191300 METAR LRTR 191300Z 13004KT CAVOK 13/06 Q1024=
201912191330 METAR LRTR 191330Z 12004KT CAVOK 13/06 Q1024=
201912191400 METAR LRTR 191400Z 12004KT CAVOK 12/06 Q1024=
201912191430 METAR LRTR 191430Z 11002KT CAVOK 11/06 Q1024=
201912191500 METAR LRTR 191500Z 11005KT CAVOK 08/06 Q1023=
201912191530 METAR LRTR 191530Z 10005KT CAVOK 08/06 Q1023=
201912191600 METAR LRTR 191600Z 07003KT CAVOK 07/06 Q1023=
201912191630 METAR LRTR 191630Z 11001KT CAVOK 06/05 Q1023=
201912191700 METAR LRTR 191700Z 00000KT 7000 NSC 07/06 Q1023=
201912191730 METAR LRTR 191730Z 09002KT 8000 NSC 05/05 Q1023=
201912191800 METAR LRTR 191800Z 10003KT CAVOK 05/04 Q1023=
201912191830 METAR LRTR 191830Z 11004KT CAVOK 04/04 Q1023=
201912191900 METAR LRTR 191900Z 11005KT CAVOK 03/03 Q1023=
201912191930 METAR LRTR 191930Z 11007KT CAVOK 03/03 Q1023=
201912192000 METAR LRTR 192000Z 09004KT CAVOK 02/02 Q1022=
201912192030 METAR LRTR 192030Z 13003KT CAVOK 04/03 Q1022=
201912192100 METAR LRTR 192100Z 11008KT CAVOK 03/02 Q1022=
201912192130 METAR LRTR 192130Z 10008KT CAVOK 03/02 Q1022=
201912192200 METAR LRTR 192200Z 10007KT 8000 NSC 02/02 Q1022=
201912192230 METAR LRTR 192230Z 11008KT 8000 NSC 02/02 Q1021=
201912192300 METAR LRTR 192300Z 12009KT 7000 NSC 02/01 Q1021=
201912192330 METAR LRTR 192330Z 11009KT 7000 NSC 03/02 Q1021=
201912200000 METAR LRTR 200000Z 11009KT 9000 NSC 04/03 Q1020=
201912200030 METAR LRTR 200030Z 12010KT CAVOK 04/03 Q1020=
201912200100 METAR LRTR 200100Z 12011KT CAVOK 04/03 Q1020=
201912200130 METAR LRTR 200130Z 12010KT CAVOK 04/03 Q1020=
201912200200 METAR LRTR 200200Z 12011KT CAVOK 04/03 Q1019=
201912200230 METAR LRTR 200230Z 13010KT CAVOK 04/03 Q1019=
201912200300 METAR LRTR 200300Z 13010KT CAVOK 04/03 Q1019=
201912200330 METAR LRTR 200330Z 12010KT CAVOK 04/03 Q1018=
201912200400 METAR LRTR 200400Z 12010KT CAVOK 04/03 Q1018=
201912200430 METAR LRTR 200430Z 11010KT CAVOK 04/03 Q1017=
201912200500 METAR LRTR 200500Z 11010KT CAVOK 05/03 Q1017=
201912200530 METAR LRTR 200530Z 11009KT CAVOK 04/02 Q1017=
201912200600 METAR LRTR 200600Z 12007KT CAVOK 03/02 Q1017=
201912200630 METAR LRTR 200630Z 12008KT CAVOK 03/02 Q1017=
201912200700 METAR LRTR 200700Z 11009KT CAVOK 05/02 Q1016=
201912200730 METAR LRTR 200730Z 12007KT CAVOK 05/03 Q1016=
201912200800 METAR LRTR 200800Z 12009KT CAVOK 06/03 Q1016=
201912200830 METAR LRTR 200830Z 12009KT CAVOK 07/04 Q1016=
201912200900 METAR LRTR 200900Z 12008KT CAVOK 07/04 Q1016=
201912200930 METAR LRTR 200930Z 13007KT CAVOK 10/04 Q1016=
201912201000 METAR LRTR 201000Z 12007KT CAVOK 10/04 Q1015=
201912201030 METAR LRTR 201030Z 15007KT CAVOK 12/05 Q1015=
201912201100 METAR LRTR 201100Z 14008KT CAVOK 12/06 Q1014=
201912201130 METAR LRTR 201130Z 13009KT CAVOK 13/06 Q1013=
201912201200 METAR LRTR 201200Z 13008KT CAVOK 14/06 Q1012=
201912201230 METAR LRTR 201230Z 18012KT CAVOK 16/04 Q1012=
201912201300 METAR LRTR 201300Z 17011KT CAVOK 16/05 Q1012=
201912201330 METAR LRTR 201330Z 18010KT CAVOK 15/05 Q1011=
201912201400 METAR LRTR 201400Z 18010KT CAVOK 15/05 Q1011=
201912201430 METAR LRTR 201430Z 17008KT CAVOK 14/04 Q1011=
201912201500 METAR LRTR 201500Z 18007KT CAVOK 13/05 Q1011=
201912201530 METAR LRTR 201530Z 18008KT CAVOK 13/05 Q1011=
201912201600 METAR LRTR 201600Z 17008KT CAVOK 13/05 Q1011=
201912201630 METAR COR LRTR 201630Z 17006KT CAVOK 11/05 Q1010=
201912201700 METAR LRTR 201700Z 17009KT CAVOK 11/04 Q1010=
201912201730 METAR LRTR 201730Z 17008KT CAVOK 10/04 Q1010=
201912201800 METAR LRTR 201800Z 17007KT CAVOK 10/04 Q1010=
201912201830 METAR LRTR 201830Z 17008KT CAVOK 10/04 Q1009=
201912201900 METAR LRTR 201900Z 17008KT CAVOK 10/04 Q1009=
201912201930 METAR LRTR 201930Z 16008KT CAVOK 09/05 Q1009=
201912202000 METAR LRTR 202000Z 16008KT CAVOK 10/05 Q1009=
201912202030 METAR LRTR 202030Z 16008KT CAVOK 10/05 Q1008=
201912202100 METAR LRTR 202100Z 17003KT CAVOK 10/05 Q1008=
201912202130 METAR LRTR 202130Z 17007KT CAVOK 09/05 Q1008=
201912202200 METAR LRTR 202200Z 18010KT CAVOK 10/05 Q1008=
201912202230 METAR LRTR 202230Z 17011KT CAVOK 10/05 Q1008=
201912202300 METAR LRTR 202300Z 18011KT CAVOK 10/05 Q1007=
201912202330 METAR LRTR 202330Z 17009KT CAVOK 10/05 Q1007=
201912210000 METAR LRTR 210000Z 17009KT CAVOK 10/05 Q1007=
201912210030 METAR LRTR 210030Z 16010KT CAVOK 11/06 Q1007=
201912210100 METAR LRTR 210100Z 17009KT CAVOK 11/06 Q1007=
201912210130 METAR LRTR 210130Z 17010KT CAVOK 11/06 Q1007 WS RWY11=
201912210200 METAR LRTR 210200Z 17009KT CAVOK 11/06 Q1007 WS RWY11=
201912210230 METAR LRTR 210230Z 16009KT 9999 -RA NSC 11/06 Q1006 WS RWY11=
201912210300 METAR LRTR 210300Z 16008KT CAVOK 11/06 Q1006=
201912210330 METAR LRTR 210330Z 16008KT CAVOK 11/06 Q1006=
201912210400 METAR LRTR 210400Z 14008KT CAVOK 11/06 Q1006=
201912210430 METAR LRTR 210430Z 14006KT CAVOK 11/06 Q1006=
201912210500 METAR LRTR 210500Z 13007KT 9999 -RA NSC 11/07 Q1006=
201912210530 METAR LRTR 210530Z 15008KT 9999 -RA NSC 11/07 Q1005 R11/190095=
201912210600 METAR LRTR 210600Z 14007KT 9999 -RA NSC 11/07 Q1006 R11/190095=
201912210630 METAR LRTR 210630Z 12008KT 9999 -RA NSC 10/07 Q1005 R11/190095=
201912210700 METAR LRTR 210700Z 13006KT 9999 -RA NSC 10/08 Q1005 R11/190095=
201912210730 METAR LRTR 210730Z 13007KT 9999 -RA NSC 11/08 Q1005 R11/190095=
201912210800 METAR LRTR 210800Z 17009KT CAVOK 13/07 Q1005 R11/190095=
201912210830 METAR LRTR 210830Z 17011KT CAVOK 13/07 Q1004 R11/190095=
201912210900 METAR LRTR 210900Z 18012KT CAVOK 14/07 Q1004 R11/190095=
201912210930 METAR LRTR 210930Z 18013KT CAVOK 14/07 Q1003 R11/190095=
201912211000 METAR LRTR 211000Z 18014KT CAVOK 15/07 Q1003 R11/190095=
201912211030 METAR LRTR 211030Z 19017KT CAVOK 16/07 Q1002 R11/190095=
201912211100 METAR COR LRTR 211100Z 18014KT CAVOK 16/07 Q1001 R11/CLRD//=
201912211130 METAR LRTR 211130Z 18017KT CAVOK 16/07 Q1001=
201912211200 METAR LRTR 211200Z 18016KT CAVOK 17/07 Q1000=
201912211230 METAR LRTR 211230Z 18015KT CAVOK 17/06 Q1000=
201912211300 METAR LRTR 211300Z 17015KT CAVOK 16/06 Q0999=
201912211330 METAR LRTR 211330Z 17013KT CAVOK 16/06 Q0999=
201912211400 METAR LRTR 211400Z 17012KT CAVOK 16/06 Q0999=
201912211430 METAR LRTR 211430Z 17011KT CAVOK 15/06 Q0999=
201912211500 METAR LRTR 211500Z 17011KT CAVOK 15/06 Q0998=
201912211530 METAR LRTR 211530Z 18011KT CAVOK 15/06 Q0998=
201912211600 METAR LRTR 211600Z 18012KT 9999 -RA NSC 14/08 Q0998=
201912211630 METAR LRTR 211630Z 16013KT 9999 -RA NSC 13/09 Q0998 R11/290095=
201912211700 METAR LRTR 211700Z 15014KT CAVOK 13/08 Q0997 R11/290095=
201912211730 METAR LRTR 211730Z 15012KT 9999 -RA NSC 13/08 Q0996 R11/290095=
201912211800 METAR COR LRTR 211800Z 14010KT CAVOK 13/09 Q0997 R11/290095=
201912211830 METAR LRTR 211830Z 14009KT CAVOK 13/08 Q0996 R11/290095=
201912211900 METAR LRTR 211900Z 14008KT CAVOK 12/08 Q0996 R11/290095=
201912211930 METAR LRTR 211930Z 14009KT CAVOK 13/07 Q0996 R11/290095=
201912212000 METAR LRTR 212000Z 17014KT CAVOK 14/07 Q0996 R11/290095=
201912212030 METAR COR LRTR 212030Z 17014KT CAVOK 14/07 Q0996 R11/290095=
201912212100 METAR LRTR 212100Z 18015KT CAVOK 14/07 Q0995 R11/290095=
201912212130 METAR LRTR 212130Z 18018KT CAVOK 14/07 Q0995 R11/290095=
201912212200 METAR COR LRTR 212200Z 19014KT CAVOK 14/06 Q0995 R11/290095=
201912212230 METAR LRTR 212230Z 21014KT 9999 -RA NSC 13/07 Q0996 R11/290095=
201912212300 METAR COR LRTR 212300Z 23016KT 8000 SHRA BKN040CB 11/09 Q0998
                        R11/19//95=
201912212330 METAR LRTR 212330Z 20009KT 5000 SHRA BKN045CB 10/10 Q0997
                        RESHRA R11/19//95=
201912220000 METAR COR LRTR 220000Z 16013KT 9999 -SHRA FEW050CB 10/10
                        Q0996 RESHRA R11/19//95=
201912220030 METAR COR LRTR 220030Z 18009KT CAVOK 11/09 Q0996 R11/29//95=
201912220100 METAR LRTR 220100Z 18011KT CAVOK 10/09 Q0997 R11/29//95=
201912220130 METAR LRTR 220130Z 18009KT CAVOK 09/09 Q0997 R11/29//95=
201912220200 METAR LRTR 220200Z 18008KT CAVOK 09/09 Q0997 R11/29//95=
201912220230 METAR LRTR 220230Z 17009KT CAVOK 09/09 Q0997 R11/29//95=
201912220300 METAR LRTR 220300Z 18007KT CAVOK 09/09 Q0997 R11/29//95=
201912220330 METAR LRTR 220330Z 16008KT CAVOK 08/08 Q0996 R11/29//95=
201912220400 METAR LRTR 220400Z 17007KT CAVOK 08/08 Q0996 R11/29//95=
201912220430 METAR LRTR 220430Z 15005KT CAVOK 08/08 Q0996 R11/29//95=
201912220500 METAR LRTR 220500Z 14003KT CAVOK 06/06 Q0995 R11/29//95=
201912220530 METAR LRTR 220530Z 09004KT CAVOK 05/05 Q0995 R11/29//95=
201912220600 METAR LRTR 220600Z 10007KT CAVOK 06/06 Q0995 R11/29//95=
201912220630 METAR LRTR 220630Z 11007KT CAVOK 05/05 Q0995 R11/29//95=
201912220700 METAR LRTR 220700Z 09005KT CAVOK 06/06 Q0994 R11/29//95=
201912220730 METAR LRTR 220730Z 10005KT CAVOK 08/08 Q0994 R11/29//95=
201912220800 METAR LRTR 220800Z 10008KT CAVOK 09/08 Q0994 R11/29//95=
201912220830 METAR LRTR 220830Z 09007KT CAVOK 11/10 Q0993 R11/29//95=
201912220900 METAR LRTR 220900Z 10008KT CAVOK 12/10 Q0993 R11/190095=
201912220930 METAR LRTR 220930Z 10010KT CAVOK 13/10 Q0993 R11/190095=
201912221000 METAR LRTR 221000Z 11009KT CAVOK 13/10 Q0992 R11/190095=
201912221030 METAR LRTR 221030Z 11010KT CAVOK 13/10 Q0991 R11/190095=
201912221100 METAR LRTR 221100Z 10010KT CAVOK 14/11 Q0990 R11/190095=
201912221130 METAR LRTR 221130Z 10011KT CAVOK 14/11 Q0990 R11/190095=
201912221200 METAR LRTR 221200Z 10013KT CAVOK 14/11 Q0989 R11/190095=
201912221230 METAR LRTR 221230Z 10012KT CAVOK 15/11 Q0988 R11/CLRD//=
201912221300 METAR LRTR 221300Z 12010KT 9999 -RA NSC 14/11 Q0988=
201912221330 METAR LRTR 221330Z 11012KT 9999 -RA NSC 14/11 Q0988=
201912221400 METAR LRTR 221400Z 10011KT CAVOK 14/10 Q0987=
201912221430 METAR LRTR 221430Z 11011KT 9999 -RA NSC 13/10 Q0987=
201912221500 METAR LRTR 221500Z 12009KT 9999 -RA NSC 12/11 Q0987 R11/290095=
201912221530 METAR LRTR 221530Z 13010KT 9999 -RA NSC 13/10 Q0987 R11/290095=
201912221600 METAR LRTR 221600Z 14012KT 9999 -RA NSC 13/11 Q0987 R11/290095=
201912221630 METAR LRTR 221630Z 15012KT 9999 -SHRA FEW045CB 13/11 Q0987
                        R11/290095=
201912221700 METAR LRTR 221700Z 14011KT 9999 -SHRA FEW045CB 12/11 Q0987
                        R11/290095=
201912221730 METAR LRTR 221730Z 15010KT 9999 -RA NSC 13/11 Q0987 R11/290095=
201912221800 METAR LRTR 221800Z 16009KT CAVOK 13/11 Q0987 R11/290095=
201912221830 METAR LRTR 221830Z 16010KT CAVOK 13/10 Q0987 R11/290095=
201912221900 METAR LRTR 221900Z 17015KT CAVOK 13/10 Q0987 R11/290095=
201912221930 METAR LRTR 221930Z 18013KT CAVOK 13/09 Q0988 R11/290095=
201912222000 METAR LRTR 222000Z 18011KT CAVOK 12/09 Q0988 R11/290095=
201912222030 METAR LRTR 222030Z 18010KT CAVOK 12/09 Q0987 R11/290095=
201912222100 METAR LRTR 222100Z 18011KT CAVOK 12/09 Q0987 R11/290095=
201912222130 METAR LRTR 222130Z 17009KT CAVOK 12/09 Q0988 R11/290095=
201912222200 METAR LRTR 222200Z 17008KT CAVOK 11/09 Q0987 R11/290095=
201912222230 METAR LRTR 222230Z 15006KT CAVOK 11/09 Q0987 R11/290095=
201912222300 METAR LRTR 222300Z 14005KT CAVOK 10/08 Q0987 R11/290095=
201912222330 METAR LRTR 222330Z 16006KT CAVOK 11/08 Q0987 R11/290095=
201912230000 METAR LRTR 230000Z 15006KT CAVOK 11/08 Q0987 R11/290095=
201912230030 METAR LRTR 230030Z 17007KT CAVOK 10/08 Q0987 R11/290095=
201912230100 METAR LRTR 230100Z 16005KT CAVOK 10/08 Q0987 R11/290095=
201912230130 METAR COR LRTR 230130Z 17006KT CAVOK 10/08 Q0987 R11/290095=
201912230200 METAR COR LRTR 230200Z VRB02KT CAVOK 09/08 Q0987 R11/290095=
201912230230 METAR LRTR 230230Z 18006KT CAVOK 10/08 Q0987 R11/290095=
201912230300 METAR LRTR 230300Z 20006KT CAVOK 10/08 Q0988 R11/290095=
201912230330 METAR LRTR 230330Z 26007KT CAVOK 09/08 Q0988 R11/190095=
201912230400 METAR LRTR 230400Z 26007KT 9000 FEW005 BKN049 09/08 Q0988
                        R11/190095=
201912230430 METAR LRTR 230430Z 25006KT 0800 R11/0800D R29/2000 -RA FG
                        VV002 08/08 Q0988 R11/190095=
201912230500 METAR LRTR 230500Z 24006KT 210V270 4000 -RA BR BKN003 OVC045
                        08/08 Q0989 R11/190095=
201912230530 METAR LRTR 230530Z 22007KT 4000 RA BR BKN003 OVC045 08/08
                        Q0989 R11/290095=
201912230600 METAR LRTR 230600Z 24008KT 5000 RA BR SCT003 BKN005 08/08
                        Q0989 R11/290095=
201912230630 METAR LRTR 230630Z 26010KT 5000 -RA BR SCT003 BKN005 07/07
                        Q0990 RERA R11/290095=
201912230700 METAR LRTR 230700Z 26011KT 6000 -RA SCT004 BKN005 07/07 Q0990
                        R11/290095=
201912230730 METAR LRTR 230730Z 26009KT 8000 -RA BKN005 SCT012 07/07 Q0991
                        R11/290095=
201912230800 METAR LRTR 230800Z 26009KT 9999 -RA BKN005 SCT012 06/06 Q0991
                        R11/290095=
201912230830 METAR LRTR 230830Z 25007KT 9999 -RA BKN006 SCT012 07/07 Q0991
                        R11/290095=
201912230900 METAR LRTR 230900Z 25007KT 4000 -RA BR SCT004 BKN006 07/07
                        Q0992 R11/290095=
201912230930 METAR LRTR 230930Z 25008KT 1800 -DZ BR SCT004 BKN006 07/07
                        Q0992 R11/290095=
201912231000 METAR COR LRTR 231000Z 25008KT 1800 -DZ BR SCT003 BKN006
                        OVC010 06/06 Q0992 R11/290095=
201912231030 METAR LRTR 231030Z 25007KT 1800 -DZ BR SCT003 BKN006 OVC010
                        06/06 Q0992 R11/290095=
201912231100 METAR LRTR 231100Z 25008KT 220V290 2500 -DZ BR FEW003 BKN005
                        OVC013 07/07 Q0992 R11/290095=
201912231130 METAR LRTR 231130Z 25006KT 5000 BR SCT004 BKN007 OVC015 07/07
                        Q0992 R11/290095=
201912231200 METAR LRTR 231200Z 25005KT 5000 BR SCT004 BKN007 OVC015 07/07
                        Q0992 R11/290095=
201912231230 METAR LRTR 231230Z 25006KT 2000 -RA BR SCT003 BKN007 OVC013
                        07/07 Q0992 R11/290095=
201912231300 METAR LRTR 231300Z 26007KT 3500 -RA BR SCT003 BKN006 OVC012
                        07/07 Q0993 R11/290095=
201912231330 METAR LRTR 231330Z 28007KT 4000 -RA BR SCT004 BKN010 OVC020
                        07/07 Q0993 R11/290095=
201912231400 METAR LRTR 231400Z 29006KT 7000 -RA SCT003 BKN010 OVC020
                        07/07 Q0993 R11/290095=
201912231430 METAR LRTR 231430Z 28006KT 8000 SCT004 BKN006 OVC020 07/07
                        Q0993 R11/290095=
201912231500 METAR LRTR 231500Z 28006KT 8000 BKN005 OVC020 07/07 Q0994
                        R11/290095=
201912231530 METAR LRTR 231530Z 29006KT 8000 BKN005 OVC018 07/07 Q0994
                        R11/290095=
201912231600 METAR LRTR 231600Z 29006KT 8000 BKN005 OVC018 07/07 Q0994
                        R11/290095=
201912231630 METAR LRTR 231630Z 29005KT 5000 -RADZ BR OVC005 06/06 Q0995
                        R11/290095=
201912231700 METAR LRTR 231700Z 26005KT 3000 -DZRA BR SCT003 OVC005 07/07
                        Q0995 R11/290095=
201912231730 METAR LRTR 231730Z 32005KT 2500 -DZRA BR SCT003 OVC005 07/07
                        Q0995 R11/290095=
201912231800 METAR LRTR 231800Z 35006KT 2100 DZ BR BKN002 OVC004 07/07
                        Q0996 R11/290095=
201912231830 METAR LRTR 231830Z 35020KT 5000 RA BR SCT003 BKN007 OVC017
                        06/06 Q0997 R11/290095=
201912231900 METAR LRTR 231900Z 36017KT 9000 -RA SCT004 BKN009 OVC020
                        06/06 Q0997 R11/290095=
201912231930 METAR LRTR 231930Z 34016KT 9999 -RA BKN010 OVC025 06/06 Q0998
                        R11/290095=
201912232000 METAR LRTR 232000Z 34010KT 9999 -RA SCT007 BKN015 OVC023
                        06/06 Q0999 R11/290095=
201912232030 METAR LRTR 232030Z 32012KT 9999 -RA BKN007 OVC025 06/06 Q0999
                        R11/290095=
201912232100 METAR LRTR 232100Z 33011KT 9999 -RA BKN009 OVC020 06/06 Q1000
                        R11/290095=
201912232130 METAR COR LRTR 232130Z 31006KT 9999 -RA BKN010 OVC020 06/06
                        Q1000 R11/290095=
201912232200 METAR LRTR 232200Z 29006KT 9999 -RA BKN010 OVC020 06/06 Q1001
                        R11/290095=
201912232230 METAR LRTR 232230Z 29007KT 9999 FEW016 SCT020 BKN045 06/06
                        Q1001 R11/290095=
201912232300 METAR LRTR 232300Z 31007KT 9999 SCT017 BKN040 06/06 Q1001
                        R11/290095=
201912232330 METAR LRTR 232330Z 31007KT 9999 BKN015 OVC032 06/06 Q1002
                        R11/290095=
201912240000 METAR COR LRTR 240000Z 32010KT 9999 -RA FEW014 BKN033 OVC045
                        06/06 Q1002 R11/290095=
201912240030 METAR LRTR 240030Z 31010KT 9999 -RA FEW013 BKN033 OVC045
                        06/06 Q1002 R11/290095=
201912240100 METAR LRTR 240100Z 31010KT 9999 -RA FEW020 BKN035 OVC043
                        06/06 Q1003 R11/290095=
201912240130 METAR LRTR 240130Z 31011KT 9999 -RA SCT025 BKN035 OVC046
                        06/06 Q1003 R11/290095=
201912240200 METAR LRTR 240200Z 31011KT 9000 -RA SCT025 BKN035 OVC045
                        06/06 Q1003 R11/290095=
201912240230 METAR LRTR 240230Z 32011KT 9999 -RA SCT025 BKN045 OVC013
                        06/06 Q1004 R11/290095=
201912240300 METAR LRTR 240300Z 32013KT 9999 -RA FEW012 BKN030 OVC040
                        06/06 Q1004 R11/290095=
201912240330 METAR LRTR 240330Z 31014KT 9999 -RA FEW010 BKN030 OVC045
                        06/05 Q1004 R11/290095=
201912240400 METAR LRTR 240400Z 31014KT 9999 -RA BKN030 OVC043 06/05 Q1004
                        R11/290095=
201912240430 METAR LRTR 240430Z 31014KT 9999 -RA BKN030 OVC042 06/05 Q1005
                        R11/290095=
201912240500 METAR LRTR 240500Z 31014KT 9999 -RA BKN028 OVC040 06/05 Q1005
                        R11/290095=
201912240530 METAR LRTR 240530Z 31013KT 9999 -RA BKN028 OVC042 06/05 Q1006
                        R11/290095=
201912240600 METAR LRTR 240600Z 31013KT 9999 -RA BKN027 OVC042 06/05 Q1006
                        R11/290095=
201912240630 METAR LRTR 240630Z 32013KT 9999 -RA FEW015 BKN027 BKN042
                        06/05 Q1006 R11/290095=
201912240700 METAR LRTR 240700Z 32014KT 9999 -RA FEW014 BKN028 BKN045
                        06/05 Q1007 R11/290095=
201912240730 METAR LRTR 240730Z 32015KT 9999 -RA FEW015 BKN030 BKN045
                        06/05 Q1007 R11/290095=
201912240800 METAR LRTR 240800Z 31014KT 9999 -RA FEW015 BKN035 06/06 Q1008
                        R11/290095=
201912240830 METAR LRTR 240830Z 31017KT 9999 -RA FEW015 SCT035 06/05 Q1008
                        R11/290095=
201912240900 METAR LRTR 240900Z 32016KT 9999 -RA FEW015 SCT040 06/05 Q1009
                        R11/290095=
201912240930 METAR LRTR 240930Z 32017KT 9999 -RA FEW018 BKN035 06/06 Q1009
                        R11/290095=
201912241000 METAR COR LRTR 241000Z 32016KT 9999 -RA SCT018 BKN040 07/06
                        Q1009 R11/290095=
201912241030 METAR LRTR 241030Z 32016KT 9999 -RA FEW017 BKN035 07/06 Q1009
                        R11/290095=
201912241100 METAR LRTR 241100Z 32015KT 9999 -RA FEW017 BKN035 07/06 Q1009
                        R11/290095=
201912241130 METAR LRTR 241130Z 32016KT 9999 BKN020 BKN033 07/06 Q1009
                        R11/290095=
201912241200 METAR COR LRTR 241200Z 32015KT 9999 -RA BKN020 BKN037 07/05
                        Q1009 R11/290095=
201912241230 METAR LRTR 241230Z 32014KT 9999 SCT020 BKN045 07/05 Q1010
                        R11/290095=
201912241300 METAR LRTR 241300Z 31013KT 9999 FEW020 BKN033 07/05 Q1010
                        R11/290095=
201912241330 METAR LRTR 241330Z 32012KT 9999 FEW020 BKN035 07/05 Q1010
                        R11/290095=
201912241400 METAR LRTR 241400Z 32011KT 9999 BKN035 07/05 Q1010 R11/290095=
201912241430 METAR LRTR 241430Z 31012KT 9999 SCT040 07/06 Q1010 R11/290095=
201912241500 METAR LRTR 241500Z 32009KT 9999 BKN045 07/05 Q1010 R11/190095=
201912241530 METAR LRTR 241530Z 32007KT 9999 FEW045 07/05 Q1011 R11/190095=
201912241600 METAR COR LRTR 241600Z 30006KT 9999 SCT045 06/05 Q1011 R11/190095=
201912241630 METAR LRTR 241630Z 31004KT 9999 BKN043 06/05 Q1011 R11/190095=
201912241700 METAR LRTR 241700Z 29004KT 9999 SCT045 06/05 Q1011 R11/190095=
201912241730 METAR LRTR 241730Z 31003KT 9999 -RA SCT044 06/05 Q1011 R11/190095=
201912241800 METAR LRTR 241800Z 31005KT 9999 -RA SCT045 06/05 Q1011 R11/190095=
201912241830 METAR LRTR 241830Z 32004KT 9999 -RA SCT040 06/05 Q1011 R11/190095=
201912241900 METAR LRTR 241900Z 33004KT 9999 SCT038 06/05 Q1011 R11/190095=
201912241930 METAR LRTR 241930Z 31005KT 9999 SCT042 06/05 Q1011 R11/190095=
201912242000 METAR LRTR 242000Z 32004KT 9999 FEW042 05/05 Q1011 R11/190095=
201912242030 METAR LRTR 242030Z 31005KT 9999 FEW040 05/05 Q1011 R11/190095=
201912242100 METAR LRTR 242100Z 33005KT 9999 FEW034 05/04 Q1011 R11/190095=
201912242130 METAR LRTR 242130Z 28005KT 9999 FEW034 03/03 Q1011 R11/190095=
201912242200 METAR LRTR 242200Z 29005KT 9999 SCT022 03/03 Q1011 R11/190095=
201912242230 METAR LRTR 242230Z 29005KT 9999 SCT021 03/03 Q1011 R11/190095=
201912242300 METAR LRTR 242300Z 32004KT 9999 FEW022 03/03 Q1011 R11/190095=
201912242330 METAR LRTR 242330Z 28006KT 8000 FEW022 01/01 Q1011 R11/190095=
201912250000 METAR LRTR 250000Z 29007KT 9000 FEW028 02/02 Q1011 R11/190095=
201912250030 METAR LRTR 250030Z 29006KT 7000 FEW028 01/01 Q1011 R11/190095=
201912250100 METAR LRTR 250100Z 31005KT 7000 FEW028 01/01 Q1010 R11/190095=
201912250130 METAR LRTR 250130Z 29004KT 7000 NSC 01/01 Q1010 R11/190095=
201912250200 METAR LRTR 250200Z 31004KT 7000 NSC 01/01 Q1010 R11/190095=
201912250230 METAR LRTR 250230Z VRB02KT 7000 NSC 01/01 Q1010 R11/190095=
201912250300 METAR LRTR 250300Z VRB02KT 8000 NSC 01/01 Q1010 R11/190095=
201912250330 METAR LRTR 250330Z 00000KT 8000 NSC 01/01 Q1010 R11/190095=
201912250400 METAR LRTR 250400Z 21003KT 180V240 CAVOK 02/02 Q1010 R11/190095=
201912250430 METAR LRTR 250430Z 17003KT CAVOK 02/02 Q1010 R11/190095=
201912250500 METAR LRTR 250500Z 20004KT 9999 FEW032 02/02 Q1011 R11/190095=
201912250530 METAR LRTR 250530Z 21004KT 8000 -RA SCT029 OVC045 02/02 Q1011
                        R11/190095=
201912250600 METAR LRTR 250600Z 20003KT 7000 -RA FEW021 OVC028 02/02 Q1011
                        R11/190095=
201912250630 METAR LRTR 250630Z 19003KT 6000 -RA BKN025 02/02 Q1011 R11/190095=
201912250700 METAR LRTR 250700Z 19002KT 5000 -RA BR BKN021 03/03 Q1011
                        R11/190095=
201912250730 METAR LRTR 250730Z 00000KT 4300 -RA BR SCT005 BKN021 03/03
                        Q1011 R11/290095=
201912250800 METAR LRTR 250800Z 00000KT 6000 -RA OVC015 03/03 Q1011 R11/290095=
201912250830 METAR LRTR 250830Z 00000KT 6000 OVC015 04/04 Q1012 R11/290095=
201912250900 METAR LRTR 250900Z 30004KT 9000 BKN003 BKN027 05/05 Q1011
                        R11/290095=
201912250930 METAR LRTR 250930Z 34005KT 9999 SCT004 OVC027 05/05 Q1011
                        R11/290095=
201912251000 METAR LRTR 251000Z 31004KT 280V340 9999 BKN007 05/05 Q1011
                        R11/290095=
201912251030 METAR LRTR 251030Z 35005KT 9999 BKN009 06/05 Q1011 R11/290095=
201912251100 METAR LRTR 251100Z 32003KT 260V350 9999 SCT009 06/04 Q1011
                        R11/290095=
201912251130 METAR LRTR 251130Z 30004KT 270V330 9999 FEW009 06/05 Q1011
                        R11/290095=
201912251200 METAR LRTR 251200Z 29006KT CAVOK 06/05 Q1011 R11/290095=
201912251230 METAR LRTR 251230Z 31005KT 9999 FEW016 OVC047 06/05 Q1011
                        R11/190095=
201912251300 METAR LRTR 251300Z 29006KT 9999 SCT016 OVC042 06/05 Q1011
                        R11/190095=
201912251330 METAR LRTR 251330Z 29006KT 9999 FEW012 OVC035 06/05 Q1012
                        R11/190095=
201912251400 METAR LRTR 251400Z 29008KT 9999 -RA FEW010 OVC028 06/05 Q1012
                        R11/190095=
201912251430 METAR LRTR 251430Z 30004KT 9999 -RA SCT012 OVC022 05/05 Q1012
                        R11/190095=
201912251500 METAR LRTR 251500Z 28003KT 9999 BKN008 OVC023 05/05 Q1012
                        R11/190095=
201912251530 METAR LRTR 251530Z 28002KT 9999 FEW010 OVC028 05/05 Q1012
                        R11/190095=
201912251600 METAR LRTR 251600Z 26003KT 9000 FEW011 OVC031 05/05 Q1012
                        R11/190095=
201912251630 METAR LRTR 251630Z 28004KT 7000 FEW015 OVC030 05/05 Q1012
                        R11/190095=
201912251700 METAR COR LRTR 251700Z 31004KT 8000 FEW010 OVC028 05/05 Q1012
                        R11/190095=
201912251730 METAR LRTR 251730Z 00000KT 8000 FEW010 OVC028 05/05 Q1012
                        R11/190095=
201912251800 METAR LRTR 251800Z 28003KT 8000 OVC028 05/05 Q1013 R11/190095=
201912251830 METAR LRTR 251830Z 00000KT 8000 OVC028 05/05 Q1013 R11/190095=
201912251900 METAR LRTR 251900Z 00000KT 8000 FEW008 OVC030 05/05 Q1013
                        R11/190095=
201912251930 METAR COR LRTR 251930Z 00000KT 6000 FEW007 OVC032 05/05 Q1013
                        R11/190095=
201912252000 METAR LRTR 252000Z 00000KT 4000 -RA BR FEW007 BKN029 05/05
                        Q1013 R11/190095=
201912252030 METAR COR LRTR 252030Z 00000KT 2000 BR SCT027 BKN045 05/05
                        Q1013 R11/190095=
201912252100 METAR LRTR 252100Z 00000KT 1400 R11/1400D R29/2000 MIFG BR
                        FEW005 SCT030 BKN045 04/04 Q1013
                        R11/190095=
201912252130 METAR LRTR 252130Z 00000KT 0500 R11/0800D R29/0750D FG FEW005
                        SCT037 04/04 Q1013 R11/190095=
201912252200 METAR COR LRTR 252200Z 12001KT 0600 R11/1800U R29/1100N FG
                        FEW021 BKN040 04/04 Q1013 R11/190095=
201912252230 METAR LRTR 252230Z 12001KT 0800 R11/P2000 R29/1900U FG FEW020
                        BKN040 04/04 Q1013 R11/190095=
201912252300 METAR COR LRTR 252300Z 00000KT 0800 R11/P2000 R29/P2000 FG
                        BKN020 BKN040 04/04 Q1013 R11/190095=
201912252330 METAR COR LRTR 252330Z 00000KT 1400 R11/2000 R29/P2000 -RA
                        BR BKN020 OVC040 05/05 Q1013 R11/190095=
201912260000 METAR LRTR 260000Z 11002KT 1200 R11/P2000 R29/P2000 -RA BR
                        FEW002 BKN019 OVC040 04/04 Q1013
                        RERA R11/190095=
201912260030 METAR LRTR 260030Z 11005KT 0500 R11/1200D R29/0900D FG SCT002
                        OVC020 04/04 Q1014 R11/190095=
201912260100 METAR COR LRTR 260100Z VRB02KT 0500 R11/1300N R29/1700U RA
                        FG SCT003 BKN018 OVC030 04/04 Q1014
                        R11/190095=
201912260130 METAR COR LRTR 260130Z 12004KT 1200 R11/P2000 R29/P2000 -RA
                        BR SCT002 SCT010 OVC022 04/04 Q1014
                        R11/190095=
201912260200 METAR LRTR 260200Z 10004KT 1400 R11/2000 R29/P2000 -RA BR
                        SCT002 SCT010 OVC018 04/04 Q1014
                        R11/190095=
201912260230 METAR COR LRTR 260230Z 11004KT 1400 R11/2000 R29/2000 -RA
                        BR BKN002 SCT005 OVC015 04/04 Q1014
                        R11/190095=
201912260300 METAR LRTR 260300Z 08003KT 360V150 1400 R11/P2000 R29/2000
                        BR BKN002 OVC005 05/05 Q1014 R11/190095=
201912260330 METAR LRTR 260330Z 12002KT 1500 BR BKN002 OVC005 04/04 Q1014
                        R11/190095=
201912260400 METAR LRTR 260400Z VRB02KT 2000 BR BKN002 OVC005 04/04 Q1014
                        R11/29//95=
201912260430 METAR LRTR 260430Z VRB02KT 6000 FEW002 OVC008 05/05 Q1015
                        R11/29//95=
201912260500 METAR LRTR 260500Z 33008KT 9999 OVC010 05/05 Q1015 R11/29//95=
201912260530 METAR LRTR 260530Z 33007KT 9999 OVC010 05/05 Q1015 R11/29//95
                        NOSIG=
201912260600 METAR LRTR 260600Z 32006KT 9999 OVC009 05/05 Q1015 R11/29//95
                        NOSIG=
201912260630 METAR LRTR 260630Z 32006KT 9999 OVC006 05/05 Q1016 R11/29//95
                        NOSIG=
201912260700 METAR LRTR 260700Z 33006KT 5000 -DZ BR SCT005 OVC007 05/05
                        Q1016 R11/29//95 TEMPO 3000 DZ BR=
201912260730 METAR LRTR 260730Z 34004KT 4000 RA BR FEW002 BKN004 OVC015
                        05/05 Q1016 R11/29//95 NOSIG=
201912260800 METAR LRTR 260800Z 05004KT 350V080 5000 -RADZ BR SCT003 BKN007
                        OVC015 05/05 Q1017 RERA R11/29//95
                        TEMPO 3000 DZ BR=
201912260830 METAR LRTR 260830Z 08006KT 6000 -RA SCT003 BKN006 OVC015
                        05/05 Q1017 R11/29//95 NOSIG=
201912260900 METAR LRTR 260900Z 06005KT 8000 -RA FEW004 SCT007 OVC025
                        05/05 Q1017 R11/29//95 TEMPO 5000
                        RA=
201912260930 METAR LRTR 260930Z 04004KT 9999 -RA FEW007 BKN023 OVC040
                        05/05 Q1018 RERA R11/29//95 NOSIG=
201912261000 METAR LRTR 261000Z 01006KT 9999 FEW007 SCT018 OVC025 05/05
                        Q1018 R11/29//95 NOSIG=
201912261030 METAR LRTR 261030Z 36009KT 9999 FEW007 SCT012 BKN030 05/05
                        Q1018 R11/29//95 NOSIG=
201912261100 METAR LRTR 261100Z 34008KT 9999 FEW009 SCT012 BKN030 06/05
                        Q1018 R11/29//95 NOSIG=
201912261130 METAR LRTR 261130Z 35011KT 9999 FEW009 SCT013 06/05 Q1018
                        R11/29//95 NOSIG=
201912261200 METAR LRTR 261200Z 34012KT 9999 FEW015 SCT023 06/04 Q1019
                        R11/29//95 NOSIG=
201912261230 METAR LRTR 261230Z 33012KT 9999 SCT015 SCT025 06/04 Q1019
                        R11/29//95 NOSIG=
201912261300 METAR LRTR 261300Z 34010KT 9999 FEW019 SCT030 06/04 Q1020
                        R11/29//95 NOSIG=
201912261330 METAR LRTR 261330Z 32007KT 9999 FEW020 SCT030 06/04 Q1020
                        R11/29//95 NOSIG=
201912261400 METAR LRTR 261400Z 33007KT 9999 FEW019 SCT030 06/04 Q1020
                        R11/29//95 NOSIG=
201912261430 METAR LRTR 261430Z 32009KT 9999 FEW016 SCT030 06/04 Q1020
                        R11/29//95 NOSIG=
201912261500 METAR LRTR 261500Z 32007KT 9999 FEW017 05/04 Q1021 R11/29//95
                        NOSIG=
201912261530 METAR LRTR 261530Z 31003KT 9999 FEW019 05/04 Q1021 R11/29//95
                        NOSIG=
201912261600 METAR LRTR 261600Z 27003KT 9999 FEW020 04/04 Q1021 R11/190095
                        NOSIG=
201912261630 METAR LRTR 261630Z 16002KT CAVOK 04/04 Q1021 R11/190095 NOSIG=
201912261700 METAR LRTR 261700Z VRB02KT CAVOK 03/03 Q1021 R11/190095 NOSIG=
201912261730 METAR LRTR 261730Z 00000KT CAVOK 04/04 Q1021 R11/190095 NOSIG=
201912261800 METAR LRTR 261800Z 00000KT CAVOK 04/04 Q1021 R11/190095=
201912261830 METAR LRTR 261830Z 26004KT 9999 FEW032 04/03 Q1021 R11/190095=
201912261900 METAR LRTR 261900Z 29005KT 9999 FEW033 03/03 Q1021 R11/190095=
201912261930 METAR LRTR 261930Z 29006KT CAVOK 03/03 Q1021 R11/190095=
201912262000 METAR LRTR 262000Z 28006KT CAVOK 02/02 Q1021 R11/190095=
201912262030 METAR LRTR 262030Z 28007KT CAVOK 02/02 Q1021 R11/190095=
201912262100 METAR LRTR 262100Z 29007KT CAVOK 02/02 Q1021 R11/190095=
201912262130 METAR LRTR 262130Z 29005KT CAVOK 02/02 Q1021 R11/190095=
201912262200 METAR LRTR 262200Z 29005KT CAVOK 01/01 Q1021 R11/190095=
201912262230 METAR LRTR 262230Z 28004KT CAVOK 01/01 Q1021 R11/190095=
201912262300 METAR LRTR 262300Z 32004KT CAVOK 00/00 Q1021 R11/190095=
201912262330 METAR LRTR 262330Z 27006KT 7000 NSC M01/M01 Q1021 R11/190095=
201912270000 METAR LRTR 270000Z 27005KT 8000 NSC M00/M00 Q1021 R11/190095=
201912270030 METAR LRTR 270030Z 28004KT 7000 NSC M01/M01 Q1021 R11/190095=
201912270100 METAR LRTR 270100Z 26004KT 7000 NSC M01/M01 Q1022 R11/190095=
201912270130 METAR LRTR 270130Z 25003KT 6000 NSC M01/M01 Q1021 R11/190095=
201912270200 METAR LRTR 270200Z 28003KT 5000 BR NSC M01/M01 Q1021 R11/190095=
201912270230 METAR LRTR 270230Z 26003KT 4200 BR NSC M01/M01 Q1021 R11/190095=
201912270300 METAR LRTR 270300Z 27002KT 5000 BR NSC M01/M01 Q1021 R11/190095=
201912270330 METAR LRTR 270330Z 30005KT 6000 NSC M02/M02 Q1021 R11/190095=
201912270400 METAR LRTR 270400Z 29006KT 7000 NSC M02/M02 Q1021 R11/190095=
201912270430 METAR LRTR 270430Z 31006KT 6000 NSC M03/M03 Q1021 R11/190095=
201912270500 METAR LRTR 270500Z 31006KT 6000 NSC M02/M02 Q1021 R11/190095=
201912270530 METAR LRTR 270530Z 11003KT 5000 BR NSC M03/M04 Q1021 R11/190095=
201912270600 METAR LRTR 270600Z 16004KT 6000 FEW005 M03/M03 Q1021 R11/190095=
201912270630 METAR LRTR 270630Z 17003KT 5000 BR SCT004 M02/M02 Q1021 R11/190095=
201912270700 METAR LRTR 270700Z VRB01KT 6000 BKN004 M01/M01 Q1021 R11/190095=
201912270730 METAR LRTR 270730Z 08004KT 3000 BR FEW001 BKN004 M01/M01
                        Q1022 R11/190095=
201912270800 METAR LRTR 270800Z VRB02KT 0600 R11/1000D R29/1200U FZFG
                        BKN002 OVC004 M01/M01 Q1022 R11/190095=
201912270830 METAR LRTR 270830Z 12005KT 0400 R11/0550N R29/0800N FZFG
                        VV002 M01/M01 Q1022 R11/190095=
201912270900 METAR LRTR 270900Z 13005KT 0300 R11/0375N R29/0450N FZFG
                        VV002 M01/M01 Q1022 R11/190095=
201912270930 METAR LRTR 270930Z 20004KT 160V240 0250 R11/0450N R29/0500N
                        FZFG VV002 M01/M01 Q1022 R11/190095=
201912271000 METAR LRTR 271000Z 19004KT 150V240 0800 R11/1500U R29/0450N
                        FZFG OVC002 M00/M00 Q1022 R11/190095=
201912271030 METAR LRTR 271030Z 22003KT 180V300 0800 R11/2000D R29/0700U
                        FZFG OVC002 M00/M00 Q1021 R11/190095=
201912271100 METAR LRTR 271100Z VRB02KT 1200 R11/1800U R29/1700U BR OVC002
                        M00/M00 Q1021 R11/190095=
201912271130 METAR LRTR 271130Z VRB02KT 1500 BR OVC002 00/00 Q1021 R11/190095=
201912271200 METAR LRTR 271200Z 00000KT 2500 BR BKN003 OVC005 00/00 Q1021
                        R11/190095=
201912271230 METAR LRTR 271230Z VRB01KT 3000 BR OVC006 01/01 Q1021 R11/190095=
201912271300 METAR LRTR 271300Z 10003KT 080V140 3500 BR SCT004 OVC005
                        01/01 Q1021 R11/190095=
201912271330 METAR LRTR 271330Z 13003KT 3500 BR BKN005 01/01 Q1021 R11/190095=
201912271400 METAR COR LRTR 271400Z 13004KT 3500 -DZ BR BKN006 BKN015
                        01/01 Q1021 R11/190095=
201912271430 METAR LRTR 271430Z 12004KT 3500 -RA BR SCT005 BKN014 01/01
                        Q1021 R11/190095=
201912271500 METAR LRTR 271500Z 12005KT 3000 BR FEW005 BKN014 01/01 Q1022
                        R11/190095=
201912271530 METAR LRTR 271530Z 12003KT 3500 BR BKN015 01/01 Q1022 R11/190095=
201912271600 METAR LRTR 271600Z 11003KT 3500 BR BKN014 01/01 Q1022 R11/190095=
201912271630 METAR LRTR 271630Z 12001KT 3500 BR OVC014 01/01 Q1022 R11/190095=
201912271700 METAR LRTR 271700Z VRB02KT 4000 BR BKN012 01/01 Q1022 R11/190095=
201912271730 METAR COR LRTR 271730Z 14001KT 3500 BR SCT012 SCT020 01/01
                        Q1022 R11/190095 NOSIG=
201912271800 METAR LRTR 271800Z 10002KT 3500 BR FEW012 BKN020 01/01 Q1022
                        R11/190095 BECMG 3000 BR=
201912271830 METAR LRTR 271830Z 09002KT 3000 BR BKN022 01/01 Q1022 R11/190095
                        NOSIG=
201912271900 METAR LRTR 271900Z 07002KT 3000 BR FEW016 BKN022 01/01 Q1022
                        R11/190095 NOSIG=
201912271930 METAR LRTR 271930Z 05004KT 3000 BR FEW016 BKN023 01/01 Q1022
                        R11/190095 NOSIG=
201912272000 METAR LRTR 272000Z 08003KT 3000 BR SCT014 BKN023 01/01 Q1022
                        R11/190095 NOSIG=
201912272030 METAR LRTR 272030Z 07004KT 3000 BR FEW013 BKN022 01/01 Q1022
                        R11/190095 NOSIG=
201912272100 METAR LRTR 272100Z 07004KT 3000 BR FEW013 SCT025 00/00 Q1022
                        R11/190095 NOSIG=
201912272130 METAR LRTR 272130Z 09004KT 3500 BR FEW025 01/00 Q1023 R11/190095
                        NOSIG=
201912272200 METAR LRTR 272200Z 05003KT 3500 BR FEW009 00/00 Q1023 R11/190095
                        NOSIG=
201912272230 METAR LRTR 272230Z 33002KT 3500 BR FEW009 00/00 Q1023 R11/190095
                        BECMG 3000 BR=
201912272300 METAR LRTR 272300Z 30004KT 3000 BR FEW010 M00/M00 Q1023 R11/190095
                        TEMPO 1500 BR=
201912272330 METAR LRTR 272330Z 29003KT 3000 BR FEW010 M00/M00 Q1023 R11/190095
                        TEMPO 1500 BR=
201912280000 METAR LRTR 280000Z 29004KT 3000 BR FEW008 M00/M00 Q1023 R11/190095
                        TEMPO 1500 BR=
201912280030 METAR COR LRTR 280030Z 31007KT 3000 BR SCT005 SCT030 00/00
                        Q1023 R11/190095 NOSIG=
201912280100 METAR LRTR 280100Z 32007KT 3500 BR FEW005 SCT025 01/01 Q1024
                        R11/190095 NOSIG=
201912280130 METAR LRTR 280130Z 35008KT 4500 BR FEW023 SCT038 02/01 Q1023
                        R11/190095 BECMG 5000=
201912280200 METAR LRTR 280200Z 36009KT 9999 SCT042 02/01 Q1023 R11/190095
                        NOSIG=
201912280230 METAR LRTR 280230Z 33007KT 9999 FEW045 01/00 Q1023 R11/190095
                        NOSIG=
201912280300 METAR LRTR 280300Z 33006KT 9999 FEW040 01/00 Q1023 R11/190095
                        NOSIG=
201912280330 METAR LRTR 280330Z 32005KT 9999 FEW040 01/01 Q1023 R11/190095
                        NOSIG=
201912280400 METAR LRTR 280400Z 35007KT 9999 FEW040 01/00 Q1023 R11/190095
                        NOSIG=
201912280430 METAR LRTR 280430Z 35007KT CAVOK 01/00 Q1023 R11/190095 NOSIG=
201912280500 METAR LRTR 280500Z 34007KT CAVOK 01/00 Q1023 R11/190095 NOSIG=
201912280530 METAR LRTR 280530Z 33007KT CAVOK 00/00 Q1024 R11/190095=
201912280600 METAR LRTR 280600Z 32007KT CAVOK M00/M00 Q1024 R11/190095=
201912280630 METAR LRTR 280630Z 33008KT CAVOK 00/00 Q1024 R11/190095=
201912280700 METAR LRTR 280700Z 33007KT 9999 FEW035 01/01 Q1024 R11/190095=
201912280730 METAR LRTR 280730Z 33006KT 9999 FEW008 01/01 Q1024 R11/190095=
201912280800 METAR LRTR 280800Z 32007KT 9999 FEW008 01/01 Q1025 R11/190095=
201912280830 METAR LRTR 280830Z 32007KT 9999 FEW010 SCT037 01/01 Q1025
                        R11/190095=
201912280900 METAR COR LRTR 280900Z 34009KT 9999 BKN037 02/01 Q1025 R11/190095=
201912280930 METAR LRTR 280930Z 34011KT 9999 BKN030 02/M00 Q1025 R11/190095=
201912281000 METAR LRTR 281000Z 34013KT 9999 BKN027 03/00 Q1025 R11/190095=
201912281030 METAR LRTR 281030Z 35013KT 9999 BKN026 03/00 Q1025 R11/190095=
201912281100 METAR LRTR 281100Z 35015KT 9999 -RA BKN027 03/00 Q1024 R11/190095=
201912281130 METAR LRTR 281130Z 36018KT 9999 -RA BKN023 03/M00 Q1024 R11/190095=
201912281200 METAR COR LRTR 281200Z 36014KT 9999 BKN023 03/00 Q1024 R11/190095=
201912281230 METAR LRTR 281230Z 36019KT 9999 SCT025 SCT045 03/00 Q1025
                        R11/190095=
201912281300 METAR LRTR 281300Z 36020KT 9999 SCT024 BKN042 02/00 Q1025
                        R11/190095=
201912281330 METAR LRTR 281330Z 36021KT 9999 SCT019 BKN045 03/01 Q1025
                        R11/190095=
201912281400 METAR LRTR 281400Z 36020KT 9999 FEW019 SCT040 02/M00 Q1025
                        R11/190095=
201912281430 METAR LRTR 281430Z 36018KT 9999 -RA SCT020 BKN045 02/00 Q1026
                        R11/190095=
201912281500 METAR LRTR 281500Z 36019KT 9999 FEW020 BKN048 01/M01 Q1026
                        R11/190095=
201912281530 METAR LRTR 281530Z 36017KT 9999 FEW020 BKN045 01/M01 Q1027
                        R11/CLRD//=
201912281600 METAR COR LRTR 281600Z 36018KT 9999 -RA FEW020 BKN048 01/M00
                        Q1026=
201912281630 METAR LRTR 281630Z 36013KT 3000 SN BKN010 BKN025 01/01 Q1027
                        R11/19//95=
201912281700 METAR LRTR 281700Z 35019KT 6000 -SN FEW010 SCT033 01/00 Q1027
                        RESN R11/19//95=
201912281730 METAR LRTR 281730Z 35017KT 9999 -SN FEW013 SCT038 01/M01
                        Q1027 R11/19//95=
201912281800 METAR LRTR 281800Z 36016KT 9999 -SN SCT030 01/M02 Q1027 R11/19//95=
201912281830 METAR LRTR 281830Z 36015KT 9999 -SN SCT033 01/M02 Q1028 R11/19//95=
201912281900 METAR LRTR 281900Z 36017KT 9999 SCT040 01/M02 Q1028 R11/19//95=
201912281930 METAR LRTR 281930Z 36016KT 9999 -SN SCT044 01/M02 Q1028 R11/19//95=
201912282000 METAR LRTR 282000Z 36017KT 9999 SCT046 01/M02 Q1028 R11/19//95=
201912282030 METAR LRTR 282030Z 36019KT 9999 -SN SCT046 01/M02 Q1028 R11/19//95=
201912282100 METAR LRTR 282100Z 36018KT 9999 -SN SCT046 01/M02 Q1028 R11/19//95=
201912282130 METAR LRTR 282130Z 36017KT 9999 -SN SCT048 00/M02 Q1028 R11/19//95=
201912282200 METAR LRTR 282200Z 36013KT 9999 SCT048 00/M02 Q1029 R11/19//95=
201912282230 METAR LRTR 282230Z 01014KT 9999 FEW022 00/M02 Q1029 R11/19//95=
201912282300 METAR LRTR 282300Z 36017KT 9999 FEW022 00/M02 Q1029 R11/19//95=
201912282330 METAR LRTR 282330Z 36015KT 9999 FEW022 M00/M02 Q1029 R11/19//95=
201912290000 METAR LRTR 290000Z 36016KT 9999 FEW022 M00/M02 Q1029 R11/19//95=
201912290030 METAR LRTR 290030Z 36016KT 9999 FEW022 M00/M02 Q1029 R11/19//95=
201912290100 METAR LRTR 290100Z 36017KT 9999 FEW022 M00/M02 Q1029 R11/19//95=
201912290130 METAR LRTR 290130Z 36016KT CAVOK M00/M03 Q1029 R11/19//95=
201912290200 METAR LRTR 290200Z 36014KT CAVOK M01/M03 Q1029 R11/19//95=
201912290230 METAR LRTR 290230Z 35013KT CAVOK M01/M03 Q1029 R11/19//95=
201912290300 METAR LRTR 290300Z 36015KT CAVOK M00/M03 Q1029 R11/19//95=
201912290330 METAR LRTR 290330Z 35013KT CAVOK M00/M03 Q1029 R11/19//95=
201912290400 METAR LRTR 290400Z 35013KT CAVOK M00/M03 Q1029 R11/19//95=
201912290430 METAR LRTR 290430Z 35014KT 9999 FEW026 M01/M03 Q1030 R11/CLRD//=
201912290500 METAR LRTR 290500Z 35015KT 9999 FEW026 M00/M03 Q1029 R11/CLRD//=
201912290530 METAR LRTR 290530Z 35018KT 9999 FEW024 M01/M03 Q1029 R11/CLRD//=
201912290600 METAR LRTR 290600Z 36016KT CAVOK M01/M03 Q1029 R11/CLRD//=
201912290630 METAR LRTR 290630Z 36017KT CAVOK M00/M03 Q1029 R11/CLRD//=
201912290700 METAR LRTR 290700Z 36017KT CAVOK M01/M03 Q1030 R11/CLRD//=
201912290730 METAR LRTR 290730Z 36015KT 9999 FEW025 00/M03 Q1030 R11/CLRD//=
201912290800 METAR LRTR 290800Z 35016KT 9999 FEW014 00/M02 Q1030=
201912290830 METAR LRTR 290830Z 36019KT 9999 BKN012 M00/M01 Q1030=
201912290900 METAR LRTR 290900Z 36018KT 9999 BKN012 BKN049 M00/M01 Q1031=
201912290930 METAR LRTR 290930Z 36021KT 9999 BKN011 01/M01 Q1031=
201912291000 METAR LRTR 291000Z 36021G31KT 9999 BKN011 01/M01 Q1031=
201912291030 METAR LRTR 291030Z 36022KT 9999 BKN012 01/M02 Q1031=
201912291100 METAR LRTR 291100Z 01018KT 9999 BKN014 00/M01 Q1031=
201912291130 METAR LRTR 291130Z 36018KT 9999 BKN014 00/M02 Q1030=
201912291200 METAR LRTR 291200Z 01018KT 9999 SCT015 01/M03 Q1030=
201912291230 METAR LRTR 291230Z 02018KT 9999 FEW018 BKN048 01/M02 Q1030=
201912291300 METAR LRTR 291300Z 02017KT 9999 FEW032 01/M03 Q1030=
201912291330 METAR LRTR 291330Z 02018KT CAVOK 01/M03 Q1030=
201912291400 METAR LRTR 291400Z 01015KT CAVOK 01/M03 Q1031=
201912291430 METAR LRTR 291430Z 02013KT CAVOK 01/M03 Q1031=
201912291500 METAR LRTR 291500Z 02010KT CAVOK 00/M03 Q1031=
201912291530 METAR LRTR 291530Z 01008KT CAVOK M01/M03 Q1032=
201912291600 METAR LRTR 291600Z 36008KT CAVOK M01/M03 Q1032=
201912291630 METAR LRTR 291630Z 35009KT CAVOK M01/M03 Q1032=
201912291700 METAR LRTR 291700Z 35010KT CAVOK M01/M03 Q1032=
201912291730 METAR COR LRTR 291730Z 36012KT CAVOK M01/M03 Q1032=
201912291800 METAR LRTR 291800Z 01012KT CAVOK M01/M03 Q1033=
201912291830 METAR COR LRTR 291830Z 36013KT CAVOK M02/M03 Q1033=
201912291900 METAR COR LRTR 291900Z 01013KT CAVOK M01/M03 Q1033=
201912291930 METAR LRTR 291930Z 02015KT CAVOK M01/M03 Q1033=
201912292000 METAR LRTR 292000Z 02014KT CAVOK M02/M03 Q1033=
201912292030 METAR LRTR 292030Z 01013KT CAVOK M02/M04 Q1033=
201912292100 METAR LRTR 292100Z 01011KT CAVOK M02/M04 Q1034=
201912292130 METAR LRTR 292130Z 01012KT CAVOK M03/M04 Q1034=
201912292200 METAR LRTR 292200Z 01011KT CAVOK M03/M04 Q1034=
201912292230 METAR LRTR 292230Z 02009KT CAVOK M03/M04 Q1034=
201912292300 METAR LRTR 292300Z 02010KT CAVOK M03/M04 Q1034=
201912292330 METAR LRTR 292330Z 01013KT CAVOK M03/M04 Q1034=
201912300000 METAR LRTR 300000Z 02011KT CAVOK M03/M04 Q1034=
201912300030 METAR LRTR 300030Z 01013KT CAVOK M04/M04 Q1035=
201912300100 METAR COR LRTR 300100Z 01011KT CAVOK M04/M04 Q1035=
201912300130 METAR LRTR 300130Z 01009KT CAVOK M04/M05 Q1035=
201912300200 METAR LRTR 300200Z 03009KT CAVOK M04/M05 Q1035=
201912300230 METAR LRTR 300230Z 03009KT CAVOK M04/M05 Q1035=
201912300300 METAR LRTR 300300Z 03008KT CAVOK M04/M05 Q1035=
201912300330 METAR LRTR 300330Z 03007KT CAVOK M04/M05 Q1035=
201912300400 METAR LRTR 300400Z 02009KT CAVOK M04/M05 Q1035=
201912300430 METAR LRTR 300430Z 03007KT CAVOK M04/M05 Q1035=
201912300500 METAR LRTR 300500Z 03008KT CAVOK M04/M05 Q1035=
201912300530 METAR LRTR 300530Z 34004KT 290V010 CAVOK M05/M05 Q1036 NOSIG=
201912300600 METAR LRTR 300600Z 34005KT CAVOK M05/M05 Q1036 NOSIG=
201912300630 METAR LRTR 300630Z 08004KT 020V140 CAVOK M05/M05 Q1036 NOSIG=
201912300700 METAR LRTR 300700Z 06004KT CAVOK M05/M05 Q1037 NOSIG=
201912300730 METAR LRTR 300730Z 03005KT CAVOK M04/M05 Q1037 NOSIG=
201912300800 METAR LRTR 300800Z 04004KT 010V080 CAVOK M03/M04 Q1037 NOSIG=
201912300830 METAR LRTR 300830Z 14005KT CAVOK M02/M04 Q1037 NOSIG=
201912300900 METAR COR LRTR 300900Z 18005KT 9999 FEW007 M02/M04 Q1037
                        NOSIG=
201912300930 METAR LRTR 300930Z 20006KT 170V230 9999 VCFG FEW001 M02/M04
                        Q1038 TEMPO FZFG=
201912301000 METAR LRTR 301000Z 16007KT 7000 2000E PRFG FEW001 SCT002
                        M03/M04 Q1038 TEMPO 0800 FZFG=
201912301030 METAR LRTR 301030Z 17006KT 3500 1500E PRFG BR FEW001 SCT002
                        M04/M04 Q1038 TEMPO 0800 FZFG BKN002=
201912301100 METAR COR LRTR 301100Z 17006KT 5000 1500S BCFG BR FEW001
                        BKN002 M04/M04 Q1037 NOSIG=
201912301130 METAR LRTR 301130Z 17006KT 5000 2000SE BCFG BR FEW001 BKN002
                        M03/M03 Q1037 NOSIG=
201912301200 METAR LRTR 301200Z 19005KT 5000 BR SCT002 BKN003 M03/M03
                        Q1037 NOSIG=
201912301230 METAR LRTR 301230Z 19004KT 140V220 7000 FEW003 OVC004 M03/M03
                        Q1037 NOSIG=
201912301300 METAR LRTR 301300Z 13003KT 100V160 7000 FEW003 OVC005 M03/M03
                        Q1037 NOSIG=
201912301330 METAR LRTR 301330Z 15005KT 8000 BKN006 M03/M03 Q1037 NOSIG=
201912301400 METAR LRTR 301400Z 15004KT 120V180 9999 SCT006 M03/M03 Q1037
                        NOSIG=
201912301430 METAR LRTR 301430Z 16003KT 9999 SCT007 M03/M04 Q1037 NOSIG=
201912301500 METAR LRTR 301500Z 14003KT 9999 FEW007 SCT010 M03/M04 Q1037
                        NOSIG=
201912301530 METAR LRTR 301530Z 15004KT 9999 FEW008 BKN010 M03/M04 Q1037
                        NOSIG=
201912301600 METAR LRTR 301600Z 15005KT 9999 FEW005 SCT007 BKN009 M03/M04
                        Q1037 NOSIG=
201912301630 METAR LRTR 301630Z 14004KT 9000 OVC005 M03/M04 Q1037 BECMG
                        5000 BR=
201912301700 METAR LRTR 301700Z 14003KT 7000 OVC006 M03/M03 Q1037 BECMG
                        5000 BR=
201912301730 METAR LRTR 301730Z 12003KT 7000 OVC006 M03/M03 Q1037=
201912301800 METAR LRTR 301800Z 14004KT 7000 OVC009 M03/M03 Q1037=
201912301830 METAR LRTR 301830Z 16004KT 6000 OVC011 M03/M03 Q1038=
201912301900 METAR LRTR 301900Z 15005KT 7000 OVC010 M03/M03 Q1038=
201912301930 METAR LRTR 301930Z 15005KT 8000 OVC010 M03/M03 Q1037=
201912302000 METAR LRTR 302000Z 15004KT 8000 OVC010 M03/M03 Q1037=
201912302030 METAR LRTR 302030Z 14006KT 9000 OVC011 M03/M03 Q1037=
201912302100 METAR LRTR 302100Z 14006KT 9999 OVC010 M03/M04 Q1037=
201912302130 METAR LRTR 302130Z 13006KT 9999 OVC010 M03/M04 Q1037=
201912302200 METAR LRTR 302200Z 13008KT 9999 OVC011 M03/M04 Q1036=
201912302230 METAR LRTR 302230Z 14008KT 9999 OVC010 M03/M04 Q1036=
201912302300 METAR LRTR 302300Z 13007KT 9999 OVC010 M03/M04 Q1036=
201912302330 METAR LRTR 302330Z 13008KT 9999 OVC010 M03/M04 Q1035=
201912310000 METAR LRTR 310000Z 12008KT 9999 OVC010 M03/M04 Q1035=
201912310030 METAR LRTR 310030Z 12008KT 9999 OVC009 M03/M04 Q1035=
201912310100 METAR LRTR 310100Z 11008KT 9999 OVC009 M03/M04 Q1035=
201912310130 METAR LRTR 310130Z 11006KT 9999 OVC008 M03/M04 Q1035=
201912310200 METAR LRTR 310200Z 12006KT 9999 OVC008 M03/M04 Q1034=
201912310230 METAR LRTR 310230Z 13007KT 9999 OVC008 M03/M04 Q1034=
201912310300 METAR LRTR 310300Z 11005KT 9999 OVC007 M03/M04 Q1034=
201912310330 METAR LRTR 310330Z 12008KT 9000 OVC007 M03/M04 Q1033=
201912310400 METAR LRTR 310400Z 12007KT 8000 OVC007 M03/M04 Q1033=
201912310430 METAR LRTR 310430Z 12006KT 7000 OVC006 M03/M04 Q1033=
201912310500 METAR LRTR 310500Z 13006KT 7000 OVC006 M03/M04 Q1033=
201912310530 METAR LRTR 310530Z 12006KT 8000 OVC006 M03/M04 Q1032=
201912310600 METAR LRTR 310600Z 11007KT 9000 BKN007 M03/M04 Q1032=
201912310630 METAR LRTR 310630Z 12007KT 8000 BKN008 M03/M04 Q1032=
201912310700 METAR LRTR 310700Z 15006KT 8000 BKN007 M03/M04 Q1032=
201912310730 METAR LRTR 310730Z 15006KT 9000 BKN007 M03/M04 Q1032=
201912310800 METAR LRTR 310800Z 15005KT 9000 SCT008 M03/M04 Q1032=
201912310830 METAR LRTR 310830Z 15005KT 8000 FEW008 M03/M03 Q1032=
201912310900 METAR LRTR 310900Z 15004KT 9000 FEW008 M02/M03 Q1032=
201912310930 METAR LRTR 310930Z 17006KT 9000 NSC M02/M03 Q1031=
201912311000 METAR LRTR 311000Z 17006KT 9000 FEW009 M01/M03 Q1031=
201912311030 METAR LRTR 311030Z 17007KT 8000 FEW009 M01/M02 Q1030=
201912311100 METAR LRTR 311100Z 18008KT 9000 FEW010 M01/M03 Q1030=
201912311130 METAR LRTR 311130Z 19006KT 9000 SCT010 M01/M03 Q1029=
201912311200 METAR LRTR 311200Z 17008KT 9000 FEW010 M01/M02 Q1029=
201912311230 METAR LRTR 311230Z 18006KT 9000 FEW010 M01/M03 Q1028=
201912311300 METAR LRTR 311300Z 18007KT 9999 FEW010 M01/M02 Q1028=
201912311330 METAR LRTR 311330Z 17006KT 9999 FEW010 M01/M02 Q1028=
201912311400 METAR LRTR 311400Z 18006KT 9999 FEW010 M01/M02 Q1028=
201912311430 METAR LRTR 311430Z 18007KT 9999 FEW010 M01/M02 Q1027=
201912311500 METAR LRTR 311500Z 17004KT 8000 NSC M02/M03 Q1027=
201912311530 METAR LRTR 311530Z 17006KT 8000 NSC M03/M03 Q1027=
201912311600 METAR LRTR 311600Z 17006KT 8000 NSC M03/M03 Q1027 NOSIG=
201912311630 METAR LRTR 311630Z 18005KT 7000 NSC M03/M03 Q1027 BECMG 5000
                        BR=
201912311700 METAR LRTR 311700Z 14004KT 5000 BR NSC M04/M04 Q1027 NOSIG=
201912311730 METAR LRTR 311730Z 12003KT 5000 BR NSC M03/M03 Q1028 NOSIG=
201912311800 METAR LRTR 311800Z 14003KT 6000 NSC M02/M03 Q1028 NOSIG=
201912311830 METAR LRTR 311830Z 15003KT 6000 NSC M03/M03 Q1028 NOSIG=
201912311900 METAR LRTR 311900Z 11005KT 6000 NSC M03/M03 Q1028 TEMPO 5000
                        BR=
201912311930 METAR LRTR 311930Z 11005KT 5000 BR NSC M05/M05 Q1028 NOSIG=
201912312000 METAR LRTR 312000Z 08005KT 6000 NSC M04/M04 Q1029 NOSIG=
201912312030 METAR LRTR 312030Z 09005KT 6000 NSC M04/M04 Q1029 NOSIG=
201912312100 METAR LRTR 312100Z 07006KT 6000 NSC M05/M05 Q1029 NOSIG=
201912312130 METAR LRTR 312130Z 10004KT 6000 NSC M05/M05 Q1029 NOSIG=
201912312200 METAR LRTR 312200Z 11003KT 6000 NSC M05/M05 Q1029 TEMPO 5000
                        BR=
201912312230 METAR LRTR 312230Z 08002KT 5000 BR NSC M06/M06 Q1029 NOSIG=
201912312300 METAR LRTR 312300Z 07003KT 6000 NSC M06/M06 Q1029 NOSIG=
201912312330 METAR LRTR 312330Z 00000KT 5000 BR NSC M05/M05 Q1029 TEMPO
                        3000 BR=